0156155620999992000010221004+43370+028470FM-12+006499999V0203401N009010042019N0040001N1-00201-00411102851ADDAY121031AY221031GF108991081051004501999999MD1210051+9999MW1101REMSYN082AAXX  02211 15562 41496 83409 11020 21041 40285 52005 71022 885// 555 92035 92436;
0168155620999992000010303004+43370+028470FM-12+006499999V0203401N004010042019N0040001N1-00281-00411102811ADDAY121031AY221031GF108991081051004501999999MD1810061+9999MW1101REMSYN094AAXX  03031 15562 41496 83404 11028 21041 40281 58006 71022 885// 555 11014 29084 92035 92436;
0156155620999992000010309004+43370+028470FM-12+006499999V0203601N007010360019N0040001N1-00101-00381102881ADDAY121031AY221031GF107991031051004501031001MD1810051+9999MW1101REMSYN082AAXX  03091 15562 41496 73607 11010 21038 40288 58005 71022 83530 555 92035 92436;
0156155620999992000010315004+43370+028470FM-12+006499999V0203401N004012200019N0100001N1-00121-00471102621ADDAY101031AY201031GF102991021051004501001001MD1710231+9999MW1021REMSYN082AAXX  03151 15562 41497 23404 11012 21047 40262 57023 70200 82500 555 92023 92426;
0179155620999992000010321004+43370+028470FM-12+006499999V0202301N008012200019N0200001N1-00101-00671102391ADDAY101031AY201031GA1001+999999999GF100991001001999999001001MD1710121+9999MW1021UA1M999999039REMSYN076AAXX  03211 15562 41998 02308 11010 21067 40239 57012 70200 555 92035 92438;
0168155620999992000010403004+43370+028470FM-12+006499999V0203201N005010042019N0100001N1-00241-00471102261ADDAY121031AY221031GF108991081051004501999999MD1710031+9999MW1021REMSYN094AAXX  04031 15562 41497 83205 11024 21047 40226 57003 70222 885// 555 11006 29077 92023 92427;
0156155620999992000010409004+43370+028470FM-12+006499999V0203201N005012200019N0040001N1-00081-00221102351ADDAY111031AY211031GF103991031001999999031001MD1210031+9999MW1101REMSYN082AAXX  04091 15562 41996 33205 11008 21022 40235 52003 71011 83030 555 92024 92426;
0156155620999992000010415004+43370+028470FM-12+006499999V0203201N004012200019N0100001N1-00101-00301102261ADDAY101031AY201031GF102991021051004501001001MD1410001+9999MW1021REMSYN082AAXX  04151 15562 41497 23204 11010 21030 40226 54000 70200 82500 555 92024 92427;
0179155620999992000010421004+43370+028470FM-12+006499999V0203201N007012200019N0040001N1-00241-00381102311ADDAY101031AY201031GA1001+999999999GF100991001001999999001001MD1810041+9999MW1101UA1M999999029REMSYN076AAXX  04211 15562 41996 03207 11024 21038 40231 58004 71000 555 92025 92426;
0204155620999992000010503004+43370+028470FM-12+006499999V0203201N003012200019N0100001N1-00121-00381102211ADDAY101031AY201031GA1001+999999999GF100991001001999999001001KA1999M-00171MD1810131+9999MW1021UA1M999999029REMSYN088AAXX  05031 15562 41997 03203 11012 21038 40221 58013 70200 555 11017 29085 92025 92427;
0179155620999992000010509004+43370+028470FM-12+006499999V0209999C000012200019N0100001N1+00401-00601102231ADDAY101031AY201031GA1001+999999999GF100991001001999999001001MD1310111+9999MW1021UA1M999999019REMSYN076AAXX  05091 15562 41997 00000 10040 21060 40223 53011 70200 555 92012 92417;
0156155620999992000010515004+43370+028470FM-12+006499999V0203201N006012200019N0200001N1+00241-00221102081ADDAY101031AY201031GF104991041001999999031001MD1710021+9999MW1021REMSYN082AAXX  05151 15562 41998 43206 10024 21022 40208 57002 70200 84030 555 92014 92418;
0179155620999992000010521004+43370+028470FM-12+006499999V0202701N008012200019N0200001N1+00201-00141102181ADDAY101031AY201031GA1001+999999999GF100991001001999999001001MD1410001+9999MW1021UA1M999999029REMSYN076AAXX  05211 15562 41998 02708 10020 21014 40218 54000 70200 555 92025 92428;
0168155620999992000010603004+43370+028470FM-12+006499999V0202701N005010042019N0100001N1+00101-00191102091ADDAY111031AY211031GF108991081051004501999999MD1410001+9999MW1031REMSYN094AAXX  06031 15562 41497 82705 10010 21019 40209 54000 70311 885// 555 10018 29068 92014 92418;
0162155620999992000010615004+43370+028470FM-12+006499999V0203201N006010042019N0040001N1+00081-00021102031ADDAY171031AY221031GF108991081001004501021999MD1310051+9999MW1711REMSYN088AAXX  06151 15562 41496 83206 10008 21002 40203 53005 77172 8802/ 555 92034 92436 96010;
0162155620999992000010621004+43370+028470FM-12+006499999V0203401N005010042019N0040001N1+00051+00001102201ADDAY171031AY271031GF108991081001004501021999MD1210101+9999MW1711REMSYN088AAXX  06211 15562 41496 83405 10005 20000 40220 52010 77177 8802/ 555 92023 92426 96010;
0174155620999992000010703004+43370+028470FM-12+006499999V0203401N006010042019N0040001N1+00121+00061102251ADDAY121031AY221031GF108991081051004501999999MD1210071+9999MW1101REMSYN100AAXX  07031 15562 41496 83406 10012 20006 40225 52007 71022 885// 555 10004 29092 60024 92024 92426;
0156155620999992000010709004+43370+028470FM-12+006499999V0203601N010010042019N0100001N1+00161+00041102551ADDAY121031AY221031GF108991081051004501999999MD1210151+9999MW1021REMSYN082AAXX  07091 15562 41497 83610 10016 20004 40255 52015 70222 885// 555 92035 92437;
0156155620999992000010715004+43370+028470FM-12+006499999V0203601N007010042019N0100001N1+00161+00001102631ADDAY111031AY211031GF108991081051004501999999MD1310121+9999MW1031REMSYN082AAXX  07151 15562 41497 83607 10016 20000 40263 53012 70311 885// 555 92035 92437;
0156155620999992000010721004+43370+028470FM-12+006499999V0203401N007010042019N0100001N1+00161-00071102801ADDAY121031AY221031GF108991081051004501999999MD1210071+9999MW1021REMSYN082AAXX  07211 15562 41497 83407 10016 21007 40280 52007 70222 885// 555 92034 92437;
0174155620999992000010803004+43370+028470FM-12+006499999V0203201N008010042019N0100001N1+00141-00021102741ADDAY121031AY221031GF108991081051004501999999MD1410001+9999MW1021REMSYN100AAXX  08031 15562 41497 83208 10014 21002 40274 54000 70222 885// 555 10017 29090 60024 92035 92437;
0156155620999992000010809004+43370+028470FM-12+006499999V0203401N005010042019N0040001N1+00141-00021102771ADDAY121031AY221031GF108991081061004501999999MD1410001+9999MW1101REMSYN082AAXX  08091 15562 41496 83405 10014 21002 40277 54000 71022 886// 555 92034 92436;
0156155620999992000010815004+43370+028470FM-12+006499999V0203201N006010042019N0040001N1+00101-00071102711ADDAY121031AY221031GF108991081061004501999999MD1710011+9999MW1021REMSYN082AAXX  08151 15562 41496 83206 10010 21007 40271 57001 70222 886// 555 92034 92436;
0156155620999992000010821004+43370+028470FM-12+006499999V0203201N008010042019N0040001N1+00031-00121102811ADDAY121031AY221031GF108991081061004501999999MD1210021+9999MW1101REMSYN082AAXX  08211 15562 41496 83208 10003 21012 40281 52002 71022 886// 555 92034 92436;
0168155620999992000010903004+43370+028470FM-12+006499999V0203201N006010042019N0100001N1-00041-00221102751ADDAY121031AY221031GF108991081051004501999999MD1810111+9999MW1021REMSYN094AAXX  09031 15562 41497 83206 11004 21022 40275 58011 70222 885// 555 10008 29087 92034 92437;
0156155620999992000010909004+43370+028470FM-12+006499999V0203401N008010042019N0100001N1+00001-00171102781ADDAY121031AY221031GF108991081051004501999999MD1210011+9999MW1021REMSYN082AAXX  09091 15562 41497 83408 10000 21017 40278 52001 70222 885// 555 92035 92437;
0156155620999992000010915004+43370+028470FM-12+006499999V0203201N007010042019N0100001N1+00001-00381102731ADDAY121031AY221031GF108991081051004501999999MD1810051+9999MW1021REMSYN082AAXX  09151 15562 41497 83207 10000 21038 40273 58005 70222 885// 555 92035 92437;
0156155620999992000010921004+43370+028470FM-12+006499999V0203601N006010042019N0100001N1+00121-00361102891ADDAY121031AY221031GF108991081051004501999999MD1210031+9999MW1021REMSYN082AAXX  09211 15562 41497 83606 10012 21036 40289 52003 70222 885// 555 92034 92437;
0204155620999992000011003004+43370+028470FM-12+006499999V0203601N006012200019N0200001N1+00101-00241102931ADDAY111031AY211031GA1001+999999999GF100991001001999999001001KA1999M+00051MD1810011+9999MW1011UA1M999999039REMSYN088AAXX  10031 15562 41998 03606 10010 21024 40293 58001 70111 555 10005 29081 92034 92438;
0156155620999992000011009004+43370+028470FM-12+006499999V0203601N004010042019N0100001N1-00101-00241103121ADDAY121031AY221031GF107991071051004501001001MD1210151+9999MW1021REMSYN082AAXX  10091 15562 41497 73604 11010 21024 40312 52015 70222 87500 555 92025 92427;
0175155620999992000011015004+43370+028470FM-12+006499999V0203601N006012200019N0040001N1-00301-00501103071ADDAY101031AY201031GF102991001001999999001011MD1310051+9999MW1101REMSYN082AAXX  10151 15562 41996 23606 11030 21050 40307 53005 71000 88001 555 92024 92426;EQDQ01+000082SCOTLC
0156155620999992000011021004+43370+028470FM-12+006499999V0203601N005010042019N0040001N1-00261-00571103211ADDAY121031AY221031GF108991081051004501999999MD1210081+9999MW1101REMSYN082AAXX  10211 15562 41496 83605 11026 21057 40321 52008 71022 885// 555 92033 92436;
0168155620999992000011103004+43370+028470FM-12+006499999V0203201N007010042019N0040001N1-00541-00671103371ADDAY121031AY221031GF108991081051004501999999MD1210131+9999MW1101REMSYN094AAXX  11031 15562 41496 83207 11054 21067 40337 52013 71022 885// 555 11018 29084 92034 92436;
0156155620999992000011109004+43370+028470FM-12+006499999V0203401N008010042019N0040001N1-00381-00501103551ADDAY121031AY221031GF108991081061004501999999MD1210031+9999MW1101REMSYN082AAXX  11091 15562 41496 83408 11038 21050 40355 52003 71022 886// 555 92035 92436;
0175155620999992000011115004+43370+028470FM-12+006499999V0203201N008010042019N0040001N1-00321-00471999999ADDAY121031AY221031GF108991081061004501999999MD1310071+9999MW1101REMSYN082AAXX  11151 15562 41496 83208 11032 21047 40259 53007 71022 886// 555 92035 92436;EQDQ01+102593APOSLP
0156155620999992000011121004+43370+028470FM-12+006499999V0203601N005010042019N0040001N1-00201-00361103661ADDAY121031AY221031GF108991081061004501999999MD1410001+9999MW1101REMSYN082AAXX  11211 15562 41496 83605 11020 21036 40366 54000 71022 886// 555 92023 92426;
0168155620999992000011203004+43370+028470FM-12+006499999V0203201N009010042019N0040001N1-00261-00441103641ADDAY121031AY221031GF108991081061004501999999MD1310011+9999MW1101REMSYN094AAXX  12031 15562 41496 83209 11026 21044 40364 53001 71022 886// 555 11040 29089 92035 92436;
0156155620999992000011209004+43370+028470FM-12+006499999V0203201N009010042019N0040001N1-00021-00271103681ADDAY121031AY221031GF108991081051004501999999MD1210011+9999MW1101REMSYN082AAXX  12091 15562 41496 83209 11002 21027 40368 52001 71022 885// 555 92035 92436;
0156155620999992000011215004+43370+028470FM-12+006499999V0203601N012010042019N0040001N1-00151-00331103661ADDAY121031AY221031GF107991071051004501001001MD1310081+9999MW1101REMSYN082AAXX  12151 15562 41496 73612 11015 21033 40366 53008 71022 87500 555 92036 92436;
0156155620999992000011221004+43370+028470FM-12+006499999V0203201N010012200019N0040001N1-00251-00441103701ADDAY111031AY211031GF103991031051004501001001MD1310041+9999MW1101REMSYN082AAXX  12211 15562 41496 33210 11025 21044 40370 53004 71011 83500 555 92036 92436;
0168155620999992000011303004+43370+028470FM-12+006499999V0203201N010010042019N0005001N1-00181-00331103531ADDAY121031AY221031GF108991081051004501999999MD1810161+9999MW1101REMSYN094AAXX  13031 15562 41493 83210 11018 21033 40353 58016 71022 885// 555 11022 29086 92036 92436;
0156155620999992000011309004+43370+028470FM-12+006499999V0203601N009012200019N0100001N1+00021-00411103531ADDAY111031AY211031GF102991001001999999001011MD1810051+9999MW1011REMSYN082AAXX  13091 15562 41997 23609 10002 21041 40353 58005 70111 80001 555 92035 92437;
0156155620999992000011315004+43370+028470FM-12+006499999V0203601N006012200019N0100001N1-00021-00141103411ADDAY101031AY201031GF103991001001999999001011MD1410001+9999MW1021REMSYN082AAXX  13151 15562 41997 33606 11002 21014 40341 54000 70200 80001 555 92024 92427;
0160155620999992000011321004+43370+028470FM-12+006499999V0203601N010010042019N0040001N1-00181-00271103311ADDAY111031AY221031GF108991081051004501999999MD1710021+9999MW1011REMSYN086    AAXX  13211 15562 41496 83610 11018 21027 40331 57002 70112 885// 555 92035 92436;
0214155620999992000011403004+43370+028470FM-12+006499999V0203201N008012200019N0040001N1-00141-00221103301ADDAY111031AY211031GA1001+999999999GF100991001001999999001001KA1999M-00111MD1310121+9999MW1101UA1M999999039REMSYN098    AAXX  14031 15562 41996 03208 11014 21022 40330 53012 71011 555 11011 29083 92035 92436 92600;
0183155620999992000011409004+43370+028470FM-12+006499999V0203601N002012200019N0200001N1+00241-00441103371ADDAY111031AY211031GA1001+999999999GF100991001001999999001001MD1210041+9999MW1021UA1M999999029REMSYN080    AAXX  14091 15562 41998 03602 10024 21044 40337 52004 70211 555 92024 92428;
0160155620999992000011415004+43370+028470FM-12+006499999V0203401N003010042019N0040001N1-00021-00071103271ADDAY121031AY221031GF108991081061004501999999MD1310091+9999MW1101REMSYN086    AAXX  14151 15562 41496 83403 11002 21007 40327 53009 71022 886// 555 92012 92416;
0183155620999992000011421004+43370+028470FM-12+006499999V0203601N003010003019N0002001N1-00281-00331103251ADDAY141031AY221031GA1091+999999999GF109991091999999999999999MD1810021+9999MW1451UA1M999999019REMSYN080    AAXX  14211 15562 41/92 93603 11028 21033 40325 58002 74542 555 92013 92412;
0208155620999992000011503004+43370+028470FM-12+006499999V0203201N003010003019N0002001N1-00181-00271103151ADDAY141031AY221031GA1091+999999999GF109991091999999999999999KA1999M+00001MD1710051+9999MW1471UA1M999999019REMSYN092    AAXX  15031 15562 41/92 93203 11018 21027 40315 57005 74742 555 10000 29091 92012 92412;
0160155620999992000011509004+43370+028470FM-12+006499999V0203201N002010042019N0020001N1+00041-00071103121ADDAY141031AY221031GF108991081061004501999999MD1310041+9999MW1101REMSYN086    AAXX  15091 15562 41495 83202 10004 21007 40312 53004 71042 886// 555 92011 92415;
0160155620999992000011515004+43370+028470FM-12+006499999V0203601N002010042019N0100001N1+00081-00121102841ADDAY121031AY221031GF108991081051004501999999MD1710041+9999MW1021REMSYN086    AAXX  15151 15562 41497 83602 10008 21012 40284 57004 70222 885// 555 92011 92417;
0160155620999992000011521004+43370+028470FM-12+006499999V0203601N003010042019N0100001N1+00061-00121102731ADDAY121031AY221031GF108991081051004501999999MD1710011+9999MW1021REMSYN086    AAXX  15211 15562 41497 83603 10006 21012 40273 57001 70222 885// 555 92012 92417;
0208155620999992000011603004+43370+028470FM-12+006499999V0203601N004010003019N0002001N1-00301-00411102611ADDAY141031AY221031GA1091+999999999GF109991091999999999999999KA1999M+00011MD1710101+9999MW1451UA1M999999019REMSYN092    AAXX  16031 15562 41/92 93604 11030 21041 40261 57010 74542 555 10001 29090 92013 92412;
0160155620999992000011609004+43370+028470FM-12+006499999V0203401N002010042019N0020001N1-00301-00391102651ADDAY121031AY221031GF108991081061004501999999MD1410001+9999MW1101REMSYN086    AAXX  16091 15562 41495 83402 11030 21039 40265 54000 71022 886// 555 92013 92415;
0160155620999992000011615004+43370+028470FM-12+006499999V0203401N005010042019N0020001N1-00421-00711102671ADDAY121031AY221031GF108991081051004501999999MD1310071+9999MW1101REMSYN086    AAXX  16151 15562 41495 83405 11042 21071 40267 53007 71022 885// 555 92013 92415;
0160155620999992000011621004+43370+028470FM-12+006499999V0203601N005010042019N0020001N1-00431-00641102581ADDAY121031AY221031GF108991081051004501999999MD1810091+9999MW1101REMSYN086    AAXX  16211 15562 41495 83605 11043 21064 40258 58009 71022 885// 555 92013 92415;
0172155620999992000011703004+43370+028470FM-12+006499999V0203201N004010042019N0040001N1-00481-00721102271ADDAY121031AY221031GF108991081051004501999999MD1810201+9999MW1101REMSYN098    AAXX  17031 15562 41496 83204 11048 21072 40227 58020 71022 885// 555 11038 29088 92012 92418;
0217155620999992000011715004+43370+028470FM-12+006499999V0202901N020012200019N0100001N1+00001-00711100651ADDAY101031AY201031GF103991021021004501001011MD1710441+9999MW1021OA149902201OA259902001UA1M999999049REMSYN108    AAXX  17151 15562 41497 32920 10000 21071 40065 57044 70200 82201 333 91122 91220 91529 555 92049 92447;
0204155620999992000011721004+43370+028470FM-12+006499999V0202701N020010042019N0100001N1-00041-00501099871ADDAY121031AY221031GF108991081051004501999999MD1710371+9999MW1021OA149902201OA259902001REMSYN108    AAXX  17211 15562 41497 82720 11004 21050 49987 57037 70222 885// 333 91122 91220 91518 555 92151 92457;
0304155620999992000011803004+43370+028470FM-12+006499999V0202301N018012200019N0200001N1+00161-00241099032ADDAA124000291AY171031AY211031GA1001+999999999GF100991001001999999001001KA1999M+99999MD1710491+9999MW1011OA149902001OA259901801UA1M999999049REMSYN120    AAXX  18031 15562 41998 02318 10016 21024 49903 57049 70171 333 91120 91218 91523 555 11002 29067 69924 92049 92448;EQDQ01+099033APOSLPQ02 -00022ATMX  
0160155620999992000011809004+43370+028470FM-12+006499999V0203201N002010042019N0200001N1+00201-00171099201ADDAY121031AY221031GF107991071051004501001001MD1310171+9999MW1021REMSYN086    AAXX  18091 15562 41498 73202 10020 21017 49920 53017 70222 87500 555 92023 92428;
0160155620999992000011815004+43370+028470FM-12+006499999V0203201N002012200019N0200001N1+00251-00541099301ADDAY111031AY211031GF102991021051004501001001MD1310141+9999MW1011REMSYN086    AAXX  18151 15562 41498 23202 10025 21054 49930 53014 70111 82500 555 92022 92428;
0183155620999992000011821004+43370+028470FM-12+006499999V0203201N006012200019N0200001N1+00161-00331099571ADDAY101031AY201031GA1001+999999999GF100991001001999999001001MD1210071+9999MW1021UA1M999999029REMSYN080    AAXX  18211 15562 41998 03206 10016 21033 49957 52007 70200 555 92024 92428;
0208155620999992000011903004+43370+028470FM-12+006499999V0202901N006012200019N0200001N1+00101-00191099941ADDAY111031AY211031GA1001+999999999GF100991001001999999001001KA1999M+00221MD1210131+9999MW1011UA1M999999039REMSYN092    AAXX  19031 15562 41998 02906 10010 21019 49994 52013 70111 555 10022 29066 92034 92438;
0160155620999992000011909004+43370+028470FM-12+006499999V0203201N006012200019N0200001N1+00181-00441100241ADDAY101031AY201031GF102991021001999999041001MD1210151+9999MW1021REMSYN086    AAXX  19091 15562 41998 23206 10018 21044 40024 52015 70200 82040 555 92034 92438;
0160155620999992000011915004+43370+028470FM-12+006499999V0203201N009012200019N0200001N1+00201-00411100511ADDAY101031AY201031GF103991021051004501001021MD1210201+9999MW1021REMSYN086    AAXX  19151 15562 41498 33209 10020 21041 40051 52020 70200 82502 555 92026 92428;
0168155620999992000012003004+43370+028470FM-12+006499999V0203201N007010042019N0200001N1-00201-00501101251ADDAY111031AY211031GF105991051051004501001001MD1210061+9999MW1031REMSYN094AAXX  20031 15562 41498 53207 11020 21050 40125 52006 70311 85500 555 10010 29065 92015 92418;
0156155620999992000012009004+43370+028470FM-12+006499999V0203201N006010042019N0200001N1-00181-00981101761ADDAY121031AY221031GF105991051051004501001001MD1210291+9999MW1021REMSYN082AAXX  20091 15562 41498 53206 11018 21098 40176 52029 70222 85500 555 92024 92428;
0156155620999992000012015004+43370+028470FM-12+006499999V0203201N008012200019N0200001N1-00141-00671101921ADDAY111031AY211031GF102991021051004501001001MD1210061+9999MW1011REMSYN082AAXX  20151 15562 41498 23208 11014 21067 40192 52006 70111 82500 555 92035 92438;
0223155620999992000012021004+43370+028470FM-12+006499999V0202701N018012200019N0200001N1-00101-00501101751ADDAY101031AY201031GA1001+999999999GF100991001001999999001001MD1810121+9999MW1021OA149902001OA259901801UA1M999999049REMSYN098AAXX  20211 15562 41998 02718 11010 21050 40175 58012 70200 333 91120 91218 91527 555 92048 92448;
0267155620999992000012103004+43370+028470FM-12+006499999V0202701N018012200019N0200001N1-00081-00571101361ADDAY101031AY201031GA1001+999999999GF100991001001999999001001KA1999M+99999MD1710261+9999MW1021OA149902001OA259901801UA1M999999049REMSYN110AAXX  21031 15562 41998 02718 11008 21057 40136 57026 70200 333 91120 91218 91527 555 11017 29068 92048 92448;EQDQ01 -00172ATMX  
0213155620999992000012109004+43370+028470FM-12+006499999V0202301N018010360019N0200001N1+00171-00541100671ADDAY111031AY211031GF106991021051004501031001MD1710381+9999MW1031OA149902001OA259901801UA1M999999049REMSYN104AAXX  21091 15562 41498 62318 10017 21054 40067 57038 70311 82530 333 91120 91218 91523 555 92048 92448;
0200155620999992000012115004+43370+028470FM-12+006499999V0202301N020010042019N0200001N1+00401-00361100041ADDAY121031AY221031GF107991071051004501001001MD1710081+9999MW1021OA149902201OA259902001REMSYN104AAXX  21151 15562 41498 72320 10040 21036 40004 57008 70222 87500 333 91122 91220 91523 555 95059 92458;
0232155620999992000012121004+43370+028470FM-12+006499999V0203601N012010042019N0200001N1+00001-00051100021ADDAY121031AY221031GF108991081051004501999999MD1310131+9999MW1021OA149902201OA259999999UA1M999999049REMSYN104AAXX  21211 15562 41498 83612 10000 21005 40002 53013 70222 885// 333 91122 91209 91523 555 92049 92448;EQDQ01  00902WGOSPD
0156155620999992000012209004+43370+028470FM-12+006499999V0203601N006012200019N0200001N1-00341-00741101561ADDAY111031AY211031GF102991011021004501031001MD1210421+9999MW1011REMSYN082AAXX  22091 15562 41498 23606 11034 21074 40156 52042 70111 81230 555 92034 92438;
0156155620999992000012215004+43370+028470FM-12+006499999V0203201N008012200019N0200001N1-00181-00781101811ADDAY111031AY211031GF103991021021004501001021MD1210091+9999MW1011REMSYN082AAXX  22151 15562 41498 33208 11018 21078 40181 52009 70111 82202 555 92044 92448;
0156155620999992000012221004+43370+028470FM-12+006499999V0203201N004012200019N0200001N1-00401-01031102021ADDAY111031AY211031GA1001+999999999GF100991001001999999001001MD1210041+9999MW1011REMSYN066AAXX  22211 15562 41998 03204 11040 21103 40202 52004 70111 92438;
0174155620999992000012303004+43370+028470FM-12+006499999V0203201N002019999999N0200001N1-00301-01221101911ADDAY121031AY221031GF106991001001999999001061MD1810101+9999MW1021REMSYN100AAXX  23031 15562 41998 63202 11030 21122 40191 58010 70222 80006 555 11024 29064 42001 92022 92428;
0156155620999992000012309004+43370+028470FM-12+006499999V0202301N007010900019N0200001N1+00101-00541101721ADDAY121031AY221031GF107991031051004501001061MD1710141+9999MW1021REMSYN082AAXX  23091 15562 41498 72307 10010 21054 40172 57014 70222 83506 555 92034 92438;
0156155620999992000012315004+43370+028470FM-12+006499999V0202301N012010042019N0200001N1+00341-00381101281ADDAY121031AY221031GF108991081051004501999999MD1710131+9999MW1021REMSYN082AAXX  23151 15562 41498 82312 10034 21038 40128 57013 70222 885// 555 92036 92438;
0213155620999992000012321004+43370+028470FM-12+006499999V0201601N016010042019N0200001N1+00401+00021100791ADDAY121031AY221031GF108991081051004501999999MD1710241+9999MW1021OA149901801OA259901601UA1M999999049REMSYN104AAXX  23211 15562 41498 81616 10040 20002 40079 57024 70222 885// 333 91118 91216 91516 555 92048 92448;
0274155620999992000012403004+43370+028470FM-12+006499999V0201601N016010042019N0100001N1+00701+00381100121ADDAA124000291AY161031AY221031GF108991081051004501999999KA1999M+99999MD1710371+9999MW1021OA149901801OA259901601UA1M999999049REMSYN122AAXX  24031 15562 41497 81616 10070 20038 40012 57037 70262 885// 333 91118 91216 91516 555 10024 29057 69924 92048 92448;EQDQ01 +00242ATMX  
0208155620999992000012409004+43370+028470FM-12+006499999V0203201N012010042019N0001001N1-00241-00381099831ADDAY171031AY221031GF108991081001004501021999MD1710081+9999MW1751OA159901601UA1M999999049REMSYN110AAXX  24091 15562 41491 83212 11024 21038 49983 57008 77572 8802/ 333 92118 91216 91516 555 92048 92441 96075;
0213155620999992000012415004+43370+028470FM-12+006499999V0203201N016012200019N0040001N1-00501-00711100451ADDAY111031AY211031GF103991021051004501031001MD1210091+9999MW1101OA149901801OA259901601UA1M999999059REMSYN104AAXX  24151 15562 41496 33216 11050 21071 40045 52009 71011 82530 333 91118 91216 91535 555 92058 92456;
0156155620999992000012421004+43370+028470FM-12+006499999V0203201N009012200019N0040001N1-00721-00941101061ADDAY111031AY211031GF103991031051004501001001MD1210161+9999MW1101REMSYN082AAXX  24211 15562 41496 33209 11072 21094 40106 52016 71011 83500 555 92055 92456;
0180155620999992000012503004+43370+028470FM-12+006499999V0203201N012010042019N0040001N1-00761-01101101631ADDAY111031AY211031GF108991081051004501999999MD1210081+9999MW1101REMSYN106AAXX  25031 15562 41496 83212 11076 21110 40163 52008 71011 885// 555 11030 29085 60014 47004 92046 92446;
0156155620999992000012509004+43370+028470FM-12+006499999V0203401N012010042019N0100001N1-00741-01121102051ADDAY171031AY221031GF108991081051004501999999MD1210221+9999MW1021REMSYN082AAXX  25091 15562 41497 83412 11074 21112 40205 52022 70272 885// 555 92036 92437;
0156155620999992000012515004+43370+028470FM-12+006499999V0203201N008019999999N0200001N1-00781-01221102541ADDAY121031AY221031GF106991001001999999001061MD1310371+9999MW1021REMSYN082AAXX  25151 15562 41998 63208 11078 21122 40254 53037 70222 80006 555 92036 92438;
0179155620999992000012521004+43370+028470FM-12+006499999V0203201N008012200019N0200001N1-00941-01511102711ADDAY101031AY201031GA1001+999999999GF100991001001999999001001MD1210071+9999MW1021UA1M999999039REMSYN076AAXX  25211 15562 41998 03208 11094 21151 40271 52007 70200 555 92035 92438;
0250155620999992000012603004+43370+028470FM-12+006499999V0203201N012012200019N0200001N1-00841-01121102571ADDAA124000491AJ100069199999999AY101031AY201031GA1001+999999999GF100991001001999999001001IA1249KA1999M-00851MD1810141+9999MW1021UA1M999999039REMSYN100AAXX  26031 15562 41998 03212 11084 21112 40257 58014 70200 555 11085 29071 69944 48006 92036 92438;
0150155620999992000012609004+43370+028470FM-12+006499999V0202901N010012200019N0200001N1-00581-01081102551ADDAY111031AY211031GF101991999999004501999999MD1810061+9999MW1011REMSYN076AAXX  26091 15562 41498 12910 11058 21108 40255 58006 70111 555 92036 92438;
0146155620999992000012615004+43370+028470FM-12+006499999V0202901N009012200019N0200001N1-00451-01171102291ADDAY101031AY201031GF101991011011004501001001MD1710031+9999MW1021REMSYN072AAXX  26151 15562 41498 12909 11045 21117 40229 57003 70200 81100 92035;
0179155620999992000012621004+43370+028470FM-12+006499999V0202701N009012200019N0100001N1-00501-00981102321ADDAY101031AY201031GA1001+999999999GF100991001001999999001001MD1810011+9999MW1021UA1M999999039REMSYN076AAXX  26211 15562 41997 02709 11050 21098 40232 58001 70200 555 92035 92437;
0174155620999992000012703004+43370+028470FM-12+006499999V0203201N007010042019N0100001N1-00401-00741102291ADDAY121031AY221031GF105991051051004501001001MD1810031+9999MW1021REMSYN100AAXX  27031 15562 41497 53207 11040 21074 40229 58003 70222 85500 555 11059 29066 44002 92035 92437;
0156155620999992000012709004+43370+028470FM-12+006499999V0202701N007010360019N0200001N1-00221-00671102381ADDAY121031AY221031GF107991031051004501031001MD1210021+9999MW1021REMSYN082AAXX  27091 15562 41498 72707 11022 21067 40238 52002 70222 83530 555 92034 92438;
0156155620999992000012715004+43370+028470FM-12+006499999V0202701N009010360019N0200001N1+00121-00361102311ADDAY121031AY221031GF107991041051004501031001MD1310041+9999MW1021REMSYN082AAXX  27151 15562 41498 72709 10012 21036 40231 53004 70222 84530 555 92035 92438;
0179155620999992000012721004+43370+028470FM-12+006499999V0202701N012012200019N0200001N1+00061-00441102401ADDAY101031AY201031GA1001+999999999GF100991001001999999001001MD1810021+9999MW1021UA1M999999039REMSYN076AAXX  27211 15562 41998 02712 10006 21044 40240 58002 70200 555 92036 92438;
0233155620999992000012803004+43370+028470FM-12+006499999V0202701N004012200019N0200001N1-00021-00331102371ADDAJ100019199999999AY101031AY201031GA1001+999999999GF100991001001999999001001IA1289KA1999M-00071MD1810041+9999MW1021UA1M999999029REMSYN094AAXX  28031 15562 41998 02704 11002 21033 40237 58004 70200 555 11007 29073 44001 92024 92428;
0179155620999992000012809004+43370+028470FM-12+006499999V0202701N007012200019N0200001N1+00241-00221102351ADDAY101031AY201031GA1001+999999999GF100991001001999999001001MD1710101+9999MW1021UA1M999999019REMSYN076AAXX  28091 15562 41998 02707 10024 21022 40235 57010 70200 555 92014 92418;
0179155620999992000012815004+43370+028470FM-12+006499999V0202301N004012200019N0200001N1+00441-00101102011ADDAY101031AY201031GA1001+999999999GF100991001001999999001001MD1710041+9999MW1021UA1M999999019REMSYN076AAXX  28151 15562 41998 02304 10044 21010 40201 57004 70200 555 92013 92418;
0179155620999992000012821004+43370+028470FM-12+006499999V0202301N003012200019N0200001N1+00121-00321102151ADDAY101031AY201031GA1001+999999999GF100991001001999999001001MD1210021+9999MW1021UA1M999999019REMSYN076AAXX  28211 15562 41998 02303 10012 21032 40215 52002 70200 555 92013 92418;
0204155620999992000012903004+43370+028470FM-12+006499999V0202501N005012200019N0200001N1+00201-00271102071ADDAY101031AY201031GA1001+999999999GF100991001001999999001001KA1999M+00211MD1310031+9999MW1021UA1M999999019REMSYN088AAXX  29031 15562 41998 02505 10020 21027 40207 53003 70200 555 10021 29073 92013 92418;
0156155620999992000012909004+43370+028470FM-12+006499999V0202501N012012200019N0200001N1+00341-00601101971ADDAY101031AY201031GF103991031001999999031001MD1710081+9999MW1021REMSYN082AAXX  29091 15562 41998 32512 10034 21060 40197 57008 70200 83030 555 92036 92438;
0156155620999992000012915004+43370+028470FM-12+006499999V0202701N008012200019N0200001N1+00401-00271101971ADDAY101031AY201031GF103991001001999999001011MD1410001+9999MW1021REMSYN082AAXX  29151 15562 41998 32708 10040 21027 40197 54000 70200 80001 555 92035 92438;
0179155620999992000012921004+43370+028470FM-12+006499999V0202301N004012200019N0200001N1+00361-00071101971ADDAY101031AY201031GA1001+999999999GF100991001001999999001001MD1810091+9999MW1021UA1M999999029REMSYN076AAXX  29211 15562 41998 02304 10036 21007 40197 58009 70200 555 92024 92428;
0223155620999992000013003004+43370+028470FM-12+006499999V0202301N010012200019N0200001N1+00401-00141101601ADDAY101031AY201031GA1001+999999999GF100991001001999999001001KA1999M+99999MD1710161+9999MW1021UA1M999999039REMSYN088AAXX  30031 15562 41998 02310 10040 21014 40160 57016 70200 555 10034 29060 92035 92438;EQDQ01 +00342ATMX  
0156155620999992000013009004+43370+028470FM-12+006499999V0202301N009010360019N0200001N1+00501+00151101441ADDAY111031AY211031GF106991021051004501031001MD1710021+9999MW1031REMSYN082AAXX  30091 15562 41498 62309 10050 20015 40144 57002 70311 82530 555 92035 92438;
0156155620999992000013015004+43370+028470FM-12+006499999V0202501N008010042019N0200001N1+00541+00021101201ADDAY121031AY221031GF108991081051004501999999MD1710161+9999MW1021REMSYN082AAXX  30151 15562 41498 82508 10054 20002 40120 57016 70222 885// 555 92034 92438;
0179155620999992000013021004+43370+028470FM-12+006499999V0202701N009012200019N0200001N1+00601+00041101221ADDAY111031AY211031GA1001+999999999GF100991001001999999001001MD1410001+9999MW1011UA1M999999039REMSYN076AAXX  30211 15562 41998 02709 10060 20004 40122 54000 70111 555 92035 92438;
0168155620999992000013103004+43370+028470FM-12+006499999V0202701N012010360019N0200001N1+00441-00051101681ADDAY111031AY211031GF105991021051004501031001MD1210251+9999MW1031REMSYN094AAXX  31031 15562 41498 52712 10044 21005 40168 52025 70311 82530 555 10048 29076 92036 92438;
0272155620999992000013106004+43370+028470FM-12+006499999V0203201N010012200019N0200001N1+00341-00171102021ADDAA199000091AY111061AY211061GF102991021021004501001001GJ100129IA1099IA2999+00109KA1120N+00321MD1210331+9999MW1011UA1M990109039REMSYN116AAXX  31061 15562 31498 23210 10034 21017 40202 52033 70111 82200 222// 2//02 333 20032 55002 555 31001 92035 92438;EQDQ01  00002PRCP99
0179155620999992000013109004+43370+028470FM-12+006499999V0202701N006012200019N0200001N1+00561-00021102271ADDAY101031AY201031GA1001+999999999GF100991001001999999001001MD1210251+9999MW1021UA1M999999029REMSYN076AAXX  31091 15562 41998 02706 10056 21002 40227 52025 70200 555 92025 92428;
0156155620999992000013115004+43370+028470FM-12+006499999V0201801N007010360019N0200001N1+00621+00231101901ADDAY111031AY211031GF106991031051004501031001MD1710201+9999MW1031REMSYN082AAXX  31151 15562 41498 61807 10062 20023 40190 57020 70311 83530 555 92034 92438;
0156155620999992000013121004+43370+028470FM-12+006499999V0201801N007010042019N0200001N1+00621+00231101681ADDAY121031AY221031GF108991081051004501999999MD1710111+9999MW1021REMSYN082AAXX  31211 15562 41498 81807 10062 20023 40168 57011 70222 885// 555 92035 92438;
0204155620999992000020103004+43370+028470FM-12+006499999V0202701N012012200019N0200001N1+00621+00231101891ADDAY101031AY201031GA1001+999999999GF100991001001999999001001KA1999M+00581MD1310201+9999MW1021UA1M999999039REMSYN088AAXX  01031 15562 41998 02712 10062 20023 40189 53020 70200 555 10058 29070 92036 92438;
0156155620999992000020109004+43370+028470FM-12+006499999V0202701N003010360019N0200001N1+00761+00231102491ADDAY121031AY221031GF106991041051004501031001MD1210261+9999MW1021REMSYN082AAXX  01091 15562 41498 62703 10076 20023 40249 52026 70222 84530 555 92014 92418;
0156155620999992000020115004+43370+028470FM-12+006499999V0200501N004012200019N0200001N1+00601+00091102701ADDAY111031AY211031GF102991021001999999031001MD1210101+9999MW1011REMSYN082AAXX  01151 15562 41998 20504 10060 20009 40270 52010 70111 82030 555 92013 92418;
0179155620999992000020121004+43370+028470FM-12+006499999V0202301N004012200019N0200001N1+00441+00301102851ADDAY101031AY201031GA1001+999999999GF100991001001999999001001MD1210021+9999MW1021UA1M999999019REMSYN076AAXX  01211 15562 41998 02304 10044 20030 40285 52002 70200 555 92013 92418;
0204155620999992000020203004+43370+028470FM-12+006499999V0202701N007012200019N0100001N1+00501+00411102481ADDAY101031AY201031GA1001+999999999GF100991001001999999001001KA1999M+00741MD1810301+9999MW1021UA1M999999029REMSYN088AAXX  02031 15562 41997 02707 10050 20041 40248 58030 70200 555 10074 29075 92024 92427;
0179155620999992000020209004+43370+028470FM-12+006499999V0202301N005012200019N0200001N1+00641+00361102201ADDAY101031AY201031GA1001+999999999GF100991001001999999001001MD1710111+9999MW1021UA1M999999029REMSYN076AAXX  02091 15562 41998 02305 10064 20036 40220 57011 70200 555 92023 92428;
0156155620999992000020215004+43370+028470FM-12+006499999V0202701N004012200019N0200001N1+00801+00381101671ADDAY101031AY201031GF102991021051004501001001MD1710221+9999MW1021REMSYN082AAXX  02151 15562 41498 22704 10080 20038 40167 57022 70200 82500 555 92023 92428;
0179155620999992000020221004+43370+028470FM-12+006499999V0202701N003012200019N0200001N1+00621+00381101591ADDAY101031AY201031GA1001+999999999GF100991001001999999001001MD1710021+9999MW1021UA1M999999019REMSYN076AAXX  02211 15562 41998 02703 10062 20038 40159 57002 70200 555 92012 92418;
0223155620999992000020303004+43370+028470FM-12+006499999V0202701N008012200019N0200001N1+00701+00211101751ADDAY101031AY201031GA1001+999999999GF100991001001999999001001KA1999M+99999MD1710101+9999MW1021UA1M999999029REMSYN088AAXX  03031 15562 41998 02708 10070 20021 40175 57010 70200 555 10060 29083 92025 92428;EQDQ01 +00602ATMX  
0213155620999992000020309004+43370+028470FM-12+006499999V0202301N016010360019N0200001N1+00881+00271101461ADDAY121031AY221031GF106991031051004501031001MD1810021+9999MW1021OA149901801OA259901601UA1M999999039REMSYN104AAXX  03091 15562 41498 62316 10088 20027 40146 58002 70222 83530 333 91118 91216 91523 555 92037 92438;
0156155620999992000020315004+43370+028470FM-12+006499999V0202701N008010042019N0200001N1+00801+00381101581ADDAY121031AY221031GF108991081051004501999999MD1310111+9999MW1021REMSYN082AAXX  03151 15562 41498 82708 10080 20038 40158 53011 70222 885// 555 92035 92438;
0156155620999992000020321004+43370+028470FM-12+006499999V0203601N008010042019N0100001N1+00421+00321102121ADDAY161031AY221031GF108991081001004501021999MD1210171+9999MW1611REMSYN082AAXX  03211 15562 41497 83608 10042 20032 40212 52017 76162 8802/ 555 92024 92427;
0193155620999992000020403004+43370+028470FM-12+006499999V0203201N006012200019N0200001N1+00361+00111102391ADDAY121031AY221031GF102991999051004501999999MD1310101+9999MW1021REMSYN100AAXX  04031 15562 41498 23206 10036 20011 40239 53010 70222 885// 555 10066 29075 60034 92024 92428;EQDQ01+000082SCOTLC
0175155620999992000020409004+43370+028470FM-12+006499999V0203201N005019999999N0100001N1+00421+00271102941ADDAY121031AY221031GF106991999001999999031001MD1210311+9999MW1021REMSYN082AAXX  04091 15562 41997 63205 10042 20027 40294 52031 70222 85030 555 92025 92427;EQDQ01+000052SCOTLC
0156155620999992000020415004+43370+028470FM-12+006499999V0203601N003012200019N0200001N1+00221-00541103351ADDAY121031AY221031GF103991021051004501031021MD1210281+9999MW1021REMSYN082AAXX  04151 15562 41498 33603 10022 21054 40335 52028 70222 82532 555 92034 92438;
0179155620999992000020421004+43370+028470FM-12+006499999V0203401N006012200019N0200001N1-00081-00641103501ADDAY101031AY201031GA1001+999999999GF100991001001999999001001MD1210011+9999MW1021UA1M999999029REMSYN076AAXX  04211 15562 41998 03406 11008 21064 40350 52001 70200 555 92024 92428;
0204155620999992000020503004+43370+028470FM-12+006499999V0203401N005012200019N0200001N1-00021-00641103331ADDAY101031AY201031GA1001+999999999GF100991001001999999001001KA1999M+00121MD1810161+9999MW1021UA1M999999029REMSYN088AAXX  05031 15562 41998 03405 11002 21064 40333 58016 70200 555 10012 29070 92024 92428;
0156155620999992000020509004+43370+028470FM-12+006499999V0202301N012012200019N0200001N1+00281-00441102861ADDAY101031AY201031GF102991021051004501001001MD1710341+9999MW1021REMSYN082AAXX  05091 15562 41498 22312 10028 21044 40286 57034 70200 82500 555 92036 92438;
0156155620999992000020515004+43370+028470FM-12+006499999V0202301N012010042019N0200001N1+00541+00021102111ADDAY111031AY211031GF108991081051004501999999MD1710281+9999MW1031REMSYN082AAXX  05151 15562 41498 82312 10054 20002 40211 57028 70311 885// 555 92036 92438;
0156155620999992000020521004+43370+028470FM-12+006499999V0203201N012010042019N0200001N1+00601-00141102121ADDAY121031AY221031GF108991081051004501999999MD1310051+9999MW1021REMSYN082AAXX  05211 15562 41498 83212 10060 21014 40212 53005 70222 885// 555 92036 92438;
0168155620999992000020603004+43370+028470FM-12+006499999V0203201N012010042019N0200001N1+00461+00111102301ADDAY121031AY221031GF108991081051004501999999MD1210091+9999MW1021REMSYN094AAXX  06031 15562 41498 83212 10046 20011 40230 52009 70222 885// 555 10043 29057 92036 92438;
0156155620999992000020609004+43370+028470FM-12+006499999V0203201N005010042019N0200001N1+00701+00271102611ADDAY121031AY221031GF108991081051004501999999MD1210131+9999MW1021REMSYN082AAXX  06091 15562 41498 83205 10070 20027 40261 52013 70222 885// 555 92025 92428;
0214155620999992000020612004+43370+028470FM-12+006499999V02099999999992200019N0050001N1+99999+99999999999ADDAA199000091AY111061AY211061GA1021+090009019GF102991001001999999001021MW1051REMSYN076AAXX  06121 15562 31950 2//// 10324 20173 3//// 4//// 70511 80002 333 82080;EQDQ01+003243ATOT  Q02+001733ATOD  Q03  00002PRCP99
0156155620999992000020615004+43370+028470FM-12+006499999V0209999C000010042019N0200001N1+00701+00271102561ADDAY121031AY221031GF107991071051004501001001MD1710011+9999MW1021REMSYN082AAXX  06151 15562 41498 70000 10070 20027 40256 57001 70222 87500 555 92012 92418;
0156155620999992000020621004+43370+028470FM-12+006499999V0202701N002010042019N0200001N1+00541+00451102671ADDAY121031AY221031GF108991081051004501999999MD1810021+9999MW1021REMSYN082AAXX  06211 15562 41498 82702 10054 20045 40267 58002 70222 885// 555 92001 92408;
0168155620999992000020703004+43370+028470FM-12+006499999V0202701N002010042019N0100001N1+00531+00461102531ADDAY121031AY221031GF108991081051004501999999MD1810141+9999MW1021REMSYN094AAXX  07031 15562 41497 82702 10053 20046 40253 58014 70222 885// 555 10061 29074 92011 92417;
0179155620999992000020709004+43370+028470FM-12+006499999V0202701N004012200019N0100001N1+00581+00401102581ADDAY101031AY201031GA1001+999999999GF100991001001999999001001MD1810041+9999MW1021UA1M999999019REMSYN076AAXX  07091 15562 41997 02704 10058 20040 40258 58004 70200 555 92013 92417;
0179155620999992000020715004+43370+028470FM-12+006499999V0202701N004012200019N0100001N1+00771+00431102241ADDAY101031AY201031GA1001+999999999GF100991001001999999001001MD1710161+9999MW1021UA1M999999019REMSYN076AAXX  07151 15562 41997 02704 10077 20043 40224 57016 70200 555 92013 92417;
0179155620999992000020721004+43370+028470FM-12+006499999V0202701N004012200019N0100001N1+00661+00481102211ADDAY101031AY201031GA1001+999999999GF100991001001999999001001MD1810031+9999MW1021UA1M999999019REMSYN076AAXX  07211 15562 41497 02704 10066 20048 40221 58003 70200 555 92013 92417;
0204155620999992000020803004+43370+028470FM-12+006499999V0201801N003012200019N0040001N1+00621+00531101971ADDAY101031AY201031GA1001+999999999GF100991001001999999001001KA1999M+00701MD1710111+9999MW1021UA1M999999019REMSYN088AAXX  08031 15562 41996 01803 10062 20053 40197 57011 70200 555 10070 29084 92012 92416;
0156155620999992000020809004+43370+028470FM-12+006499999V0202301N003012200019N0100001N1+00701+00511101881ADDAY101031AY201031GF102991001001999999001011MD1710071+9999MW1021REMSYN082AAXX  08091 15562 41997 22303 10070 20051 40188 57007 70200 80001 555 92013 92417;
0179155620999992000020815004+43370+028470FM-12+006499999V0202701N004012200019N0040001N1+00851+00561101651ADDAY101031AY201031GA1001+999999999GF100991001001999999001001MD1710071+9999MW1101UA1M999999019REMSYN076AAXX  08151 15562 41996 02704 10085 20056 40165 57007 71000 555 92013 92416;
0179155620999992000020821004+43370+028470FM-12+006499999V0202301N003012200019N0100001N1+00741+00511101491ADDAY101031AY201031GA1001+999999999GF100991001001999999001001MD1710121+9999MW1021UA1M999999019REMSYN076AAXX  08211 15562 41997 02303 10074 20051 40149 57012 70200 555 92013 92417;
0204155620999992000020903004+43370+028470FM-12+006499999V0202701N002012200019N0040001N1+00701+00481101271ADDAY101031AY201031GA1001+999999999GF100991001001999999001001KA1999M+00751MD1710121+9999MW1021UA1M999999019REMSYN088AAXX  09031 15562 41996 02702 10070 20048 40127 57012 70200 555 10075 29087 92013 92416;
0146155620999992000020909004+43370+028470FM-12+006499999V0202301N003010360019N0040001N1+00701+00481101231ADDAY111031AY211031GF106991031051004501031001MD1810071+9999MW1101REMSYN072AAXX  09091 15562 41496 62303 10070 20048 40123 58007 71011 83530 92023;
0156155620999992000020915004+43370+028470FM-12+006499999V0203201N003019999999N0100001N1+00861+00551101161ADDAY121031AY221031GF106991021001999999031021MD1410001+9999MW1021REMSYN082AAXX  09151 15562 41997 63203 10086 20055 40116 54000 70222 82032 555 92022 92427;
0156155620999992000020921004+43370+028470FM-12+006499999V0202501N002010042019N0100001N1+00861+00511101401ADDAY121031AY221031GF108991081051004501999999MD1210121+9999MW1021REMSYN082AAXX  09211 15562 41497 82502 10086 20051 40140 52012 70222 885// 555 92021 92427;
0168155620999992000021003004+43370+028470FM-12+006499999V0202901N002019999999N0200001N1+00821+00411101631ADDAY121031AY221031GF106991001001999999001061MD1210121+9999MW1021REMSYN094AAXX  10031 15562 41998 62902 10082 20041 40163 52012 70222 80006 555 10078 29085 92012 92418;
0156155620999992000021009004+43370+028470FM-12+006499999V0202701N002010360019N0100001N1+00821+00461102041ADDAY121031AY221031GF107991031051004501031001MD1210121+9999MW1021REMSYN082AAXX  10091 15562 41497 72702 10082 20046 40204 52012 70222 83530 555 92011 92417;
0156155620999992000021015004+43370+028470FM-12+006499999V0203601N003010042019N0100001N1+00701+00381102311ADDAY121031AY221031GF107991071051004501001001MD1210171+9999MW1021REMSYN082AAXX  10151 15562 41497 73603 10070 20038 40231 52017 70222 87500 555 92012 92417;
0179155620999992000021021004+43370+028470FM-12+006499999V0203601N003012200019N0200001N1+00501+00251102531ADDAY111031AY211031GA1001+999999999GF100991001001999999001001MD1210061+9999MW1011UA1M999999019REMSYN076AAXX  10211 15562 41998 03603 10050 20025 40253 52006 70111 555 92012 92418;
0168155620999992000021103004+43370+028470FM-12+006499999V0203201N003010042019N0200001N1+00501+00091102601ADDAY111031AY211031GF108991081051004501999999MD1210021+9999MW1031REMSYN094AAXX  11031 15562 41498 83203 10050 20009 40260 52002 70311 885// 555 10069 29076 92012 92418;
0156155620999992000021109004+43370+028470FM-12+006499999V0209999C000010042019N0200001N1+00801+00341102751ADDAY111031AY211031GF107991071051004501001001MD1210121+9999MW1031REMSYN082AAXX  11091 15562 41498 70000 10080 20034 40275 52012 70311 87500 555 92003 92408;
0156155620999992000021115004+43370+028470FM-12+006499999V0209999C000010042019N0040001N1+00541+00401102781ADDAY121031AY221031GF106991061051004501001001MD1310051+9999MW1101REMSYN082AAXX  11151 15562 41496 60000 10054 20040 40278 53005 71022 86500 555 92002 92405;
0156155620999992000021121004+43370+028470FM-12+006499999V0209999C000010042019N0100001N1+00521+00321102811ADDAY121031AY221031GF108991081051004501999999MD1810021+9999MW1021REMSYN082AAXX  11211 15562 41497 80000 10052 20032 40281 58002 70222 885// 555 92002 92407;
0168155620999992000021203004+43370+028470FM-12+006499999V0209999C000010042019N0100001N1+00501+00301102791ADDAY121031AY221031GF108991081051004501999999MD1810041+9999MW1021REMSYN094AAXX  12031 15562 41497 80000 10050 20030 40279 58004 70222 885// 555 10050 29087 92000 92407;
0156155620999992000021209004+43370+028470FM-12+006499999V0200201N004010042019N0020001N1+00581+00411102801ADDAY121031AY221031GF108991081061004501999999MD1810081+9999MW1101REMSYN082AAXX  12091 15562 41495 80204 10058 20041 40280 58008 71022 886// 555 92013 92415;
0156155620999992000021215004+43370+028470FM-12+006499999V0203601N005010042019N0100001N1+00521+00381102591ADDAY121031AY221031GF106991051051004501031001MD1710021+9999MW1021REMSYN082AAXX  12151 15562 41497 63605 10052 20038 40259 57002 70222 85530 555 92013 92417;
0150155620999992000021221004+43370+028470FM-12+006499999V0203601N006019999999N0040001N1+00361+00191102611ADDAY121031AY221031GF108991999999004501999999MD1410001+9999MW1101REMSYN076AAXX  12211 15562 41496 83606 10036 20019 40261 54000 71022 555 92025 92426;
0168155620999992000021303004+43370+028470FM-12+006499999V0203601N004010042019N0040001N1+00221+00001102471ADDAY121031AY221031GF108991081061004501999999MD1710081+9999MW1101REMSYN094AAXX  13031 15562 41496 83604 10022 20000 40247 57008 71022 886// 555 10051 29087 92013 92416;
0156155620999992000021309004+43370+028470FM-12+006499999V0209999C000010360019N0200001N1+00501+00091102381ADDAY121031AY221031GF106991031051004501031001MD1810081+9999MW1021REMSYN082AAXX  13091 15562 41498 60000 10050 20009 40238 58008 70222 83530 555 92013 92418;
0179155620999992000021315004+43370+028470FM-12+006499999V0200501N004012200019N0100001N1+00421+00061102201ADDAY101031AY201031GA1001+999999999GF100991001001999999001001MD1710111+9999MW1021UA1M999999019REMSYN076AAXX  13151 15562 41997 00504 10042 20006 40220 57011 70200 555 92013 92417;
0156155620999992000021321004+43370+028470FM-12+006499999V0200501N002010042019N0100001N1+00401+00151102271ADDAY121031AY221031GF108991081051004501999999MD1210021+9999MW1021REMSYN082AAXX  13211 15562 41497 80502 10040 20015 40227 52002 70222 885// 555 92012 92417;
0168155620999992000021403004+43370+028470FM-12+006499999V0202001N003010042019N0200001N1+00461+00211101981ADDAY121031AY221031GF108991081051004501999999MD1710171+9999MW1021REMSYN094AAXX  14031 15562 41498 82003 10046 20021 40198 57017 70222 885// 555 10038 29078 92012 92418;
0156155620999992000021415004+43370+028470FM-12+006499999V0202301N004010042019N0100001N1+00561+00271101561ADDAY121031AY221031GF108991081051004501999999MD1710141+9999MW1021REMSYN082AAXX  14151 15562 41497 82304 10056 20027 40156 57014 70222 885// 555 92023 92427;
0156155620999992000021421004+43370+028470FM-12+006499999V0202301N002010042019N0100001N1+00521+00381101501ADDAY121031AY221031GF108991081051004501999999MD1810051+9999MW1021REMSYN082AAXX  14211 15562 41497 82302 10052 20038 40150 58005 70222 885// 555 92022 92427;
0174155620999992000021503004+43370+028470FM-12+006499999V0202701N005010042019N0040001N1+00341+00091101411ADDAY161031AY221031GF108991081051004501999999MD1710101+9999MW1101REMSYN100AAXX  15031 15562 41496 82705 10034 20009 40141 57010 71062 885// 555 10054 29082 60014 92023 92426;
0156155620999992000021509004+43370+028470FM-12+006499999V0203601N005010042019N0040001N1+00221+00171101601ADDAY121031AY221031GF108991081051004501999999MD1210131+9999MW1101REMSYN082AAXX  15091 15562 41496 83605 10022 20017 40160 52013 71022 885// 555 92023 92426;
0156155620999992000021515004+43370+028470FM-12+006499999V0203601N009010042019N0100001N1+00201-00021101701ADDAY151031AY221031GF108991081001004501021999MD1310101+9999MW1511REMSYN082AAXX  15151 15562 41497 83609 10020 21002 40170 53010 75152 8802/ 555 92035 92437;
0179155620999992000021521004+43370+028470FM-12+006499999V0203601N007012200019N0200001N1+00101-00191101991ADDAY111031AY211031GA1001+999999999GF100991001001999999001001MD1210101+9999MW1011UA1M999999039REMSYN076AAXX  15211 15562 41998 03607 10010 21019 40199 52010 70111 555 92034 92438;
0221155620999992000021603004+43370+028470FM-12+006499999V0203601N005012200019N0200001N1+00021-00361102031ADDAA124000491AY101031AY201031GA1001+999999999GF100991001001999999001001KA1999M+00241MD1410001+9999MW1021UA1M999999029REMSYN094AAXX  16031 15562 41998 03605 10002 21036 40203 54000 70200 555 10024 29083 69944 92024 92428;
0179155620999992000021609004+43370+028470FM-12+006499999V0209999C000012200019N0200001N1+00441-00171102001ADDAY101031AY201031GA1001+999999999GF100991001001999999001001MD1810061+9999MW1021UA1M999999019REMSYN076AAXX  16091 15562 41998 00000 10044 21017 40200 58006 70200 555 92013 92418;
0179155620999992000021615004+43370+028470FM-12+006499999V0201801N005012200019N0200001N1+00441-00171101901ADDAY101031AY201031GA1001+999999999GF100991001001999999001001MD1710031+9999MW1021UA1M999999029REMSYN076AAXX  16151 15562 41998 01805 10044 21017 40190 57003 70200 555 92023 92428;
0179155620999992000021621004+43370+028470FM-12+006499999V0201801N010012200019N0200001N1+00481+00061101631ADDAY101031AY201031GA1001+999999999GF100991001001999999001001MD1710111+9999MW1021UA1M999999039REMSYN076AAXX  16211 15562 41998 01810 10048 20006 40163 57011 70200 555 92035 92438;
0168155620999992000021703004+43370+028470FM-12+006499999V0201801N010012200019N0200001N1+00501+00021101351ADDAY101031AY201031GF102991021051999999001001MD1710151+9999MW1021REMSYN094AAXX  17031 15562 41998 21810 10050 20002 40135 57015 70200 82500 555 10041 29068 92035 92438;
0156155620999992000021709004+43370+028470FM-12+006499999V0201801N014012200019N0200001N1+00641+00131101021ADDAY101031AY201031GF103991021051004501001011MD1710151+9999MW1021REMSYN082AAXX  17091 15562 41498 31814 10064 20013 40102 57015 70200 82501 555 92024 92448;
0156155620999992000021715004+43370+028470FM-12+006499999V0201801N012010042019N0200001N1+00701+00211100681ADDAY121031AY221031GF107991071051004501001001MD1710111+9999MW1021REMSYN082AAXX  17151 15562 41498 71812 10070 20021 40068 57011 70222 87500 555 92047 92448;
0156155620999992000021721004+43370+028470FM-12+006499999V0201801N009010042019N0200001N1+00731+00301100451ADDAY121031AY221031GF108991081051004501999999MD1710071+9999MW1021REMSYN082AAXX  17211 15562 41498 81809 10073 20030 40045 57007 70222 885// 555 92045 92448;
0196155620999992000021803004+43370+028470FM-12+006499999V0201801N018010042019N0200001N1+00921+00431100171ADDAY121031AY221031GF108991081051004501999999MD1710181+9999MW1021OA149902001OA259901801REMSYN100AAXX  18031 15562 41498 81818 10092 20043 40017 57018 70222 885// 333 91120 91218 91518 92056 92458;
0156155620999992000021809004+43370+028470FM-12+006499999V0201401N012010042019N0200001N1+00801+00481100111ADDAY161031AY221031GF108991081051004501999999MD1810101+9999MW1211REMSYN082AAXX  18091 15562 41498 81412 10080 20048 40011 58010 72162 885// 555 92046 92448;
0213155620999992000021815004+43370+028470FM-12+006499999V0202701N010010360019N0200001N1+00481+00061100351ADDAY121031AY221031GF106991031051004501031001MD1310361+9999MW1031OA149902001OA259901801UA1M999999039REMSYN104AAXX  18151 15562 41498 62710 10048 20006 40035 53036 70322 83530 333 91120 91218 91518 555 92038 92438;
0156155620999992000021821004+43370+028470FM-12+006499999V0203201N010010042019N0200001N1+00281+00021100541ADDAY171031AY221031GF108991081001004501021999MD1810011+9999MW1711REMSYN082AAXX  18211 15562 41498 83210 10028 20002 40054 58001 77172 8802/ 555 92035 92438;
0107155620999992000021900004+43370+028470FM-12+006499999V02099999999992200019N0080001N1+99999+99999999999ADDAA199000021GA1001+999999999GF100991001001999999001001REMSYN042AAXX  19001 15562 3/958 0//// 102/0 20232;
0180155620999992000021903004+43370+028470FM-12+006499999V0203201N008010042019N0040001N1+00021-00021100721ADDAY171031AY271031GF108991081001004501021999MD1210141+9999MW1711REMSYN106AAXX  19031 15562 41496 83208 10002 21002 40072 52014 77177 8802/ 555 10061 29075 60054 43004 92036 92436;
0156155620999992000021909004+43370+028470FM-12+006499999V0203201N005010042019N0100001N1+00051+00021101111ADDAY171031AY221031GF108991081051004501999999MD1210231+9999MW1021REMSYN082AAXX  19091 15562 41497 83205 10005 20002 40111 52023 70272 885// 555 92036 92437;
0156155620999992000021915004+43370+028470FM-12+006499999V0202901N003012200019N0200001N1+00381-00071101221ADDAY111031AY211031GF103991031051004501001001MD1210061+9999MW1011REMSYN082AAXX  19151 15562 41498 32903 10038 21007 40122 52006 70111 83500 555 92022 92428;
0179155620999992000021921004+43370+028470FM-12+006499999V0202001N003012200019N0100001N1+00481+00061101351ADDAY101031AY201031GA1001+999999999GF100991001001999999001001MD1210041+9999MW1021UA1M999999029REMSYN076AAXX  19211 15562 41997 02003 10048 20006 40135 52004 70200 555 92023 92427;
0174155620999992000022003004+43370+028470FM-12+006499999V0202701N004019999999N0100001N1+00321+00171101361ADDAY111031AY211031GF106991061001999999051001MD1410001+9999MW1031REMSYN100AAXX  20031 15562 41997 62704 10032 20017 40136 54000 70311 86050 555 10032 29085 60034 92023 92427;
0103155620999992000022004004+43370+028470FM-12+006499999V0201001N022012200019N0004001N1+99999+99999999999ADDGF101991999051001501999999REMSYN046AAXX  20041 15562 /3204 11022 865// 333 92600;EQDQ01+000062SCOTLC
0156155620999992000022009004+43370+028470FM-12+006499999V0202301N002010360019N0100001N1+00701+00481101371ADDAY121031AY221031GF106991031051004501031001MD1810031+9999MW1021REMSYN082AAXX  20091 15562 41497 62302 10070 20048 40137 58003 70222 83530 555 92011 92418;
0156155620999992000022015004+43370+028470FM-12+006499999V0202701N003010042019N0100001N1+00601+00461101101ADDAY151031AY221031GF108991051071004501021999MD1710131+9999MW1511REMSYN082AAXX  20151 15562 41497 82703 10060 20046 40110 57013 75152 8572/ 555 92012 92417;
0162155620999992000022021004+43370+028470FM-12+006499999V0203601N008010042019N0040001N1+00521+00431100831ADDAY161031AY261031GF108991081001004501021999MD1710161+9999MW1611REMSYN088AAXX  20211 15562 41496 83608 10052 20043 40083 57016 76166 8802/ 555 92035 92436 96010;
0259155620999992000022103004+43370+028470FM-12+006499999V0203601N020010042019N0100001N1+00321+00271100671ADDAA124012091AY161031AY261031GF108991081001004501021999KA1999M+00531MD1710021+9999MW1611OA149902201OA259902001UA1M999999049REMSYN126AAXX  21031 15562 41497 83620 10032 20027 40067 57002 76166 8802/ 333 91122 91220 91536 555 10053 29090 60124 666 92049 92447;
0162155620999992000022109004+43370+028470FM-12+006499999V0203601N012010042019N0040001N1+00161+00001101201ADDAY161031AY261031GF108991081001004501021999MD1210271+9999MW1611REMSYN088AAXX  21091 15562 41496 83612 10016 20000 40120 52027 76166 8802/ 555 92046 92446 96010;
0156155620999992000022115004+43370+028470FM-12+006499999V0203601N010012200019N0200001N1+00401-00271101591ADDAY111031AY211031GF103991031051004501001001MD1210281+9999MW1011REMSYN082AAXX  21151 15562 41498 33610 10040 21027 40159 52028 70111 83500 555 92036 92438;
0179155620999992000022121004+43370+028470FM-12+006499999V0203601N006012200019N0200001N1-00041-00571101971ADDAY101031AY201031GA1001+999999999GF100991001001999999001001MD1210111+9999MW1021UA1M999999039REMSYN076AAXX  21211 15562 41998 03606 11004 21057 40197 52011 70200 555 92034 92438;
0221155620999992000022203004+43370+028470FM-12+006499999V0203601N008012200019N0200001N1-00241-00641102191ADDAA124002091AY101031AY201031GA1001+999999999GF100991001001999999001001KA1999M+00101MD1210091+9999MW1021UA1M999999039REMSYN094AAXX  22031 15562 41998 03608 11024 21064 40219 52009 70200 555 10010 29076 60024 92035 92438;
0156155620999992000022209004+43370+028470FM-12+006499999V0203601N008010042019N0200001N1+00061-00441102421ADDAY111031AY211031GF107991071051004501001001MD1210061+9999MW1031REMSYN082AAXX  22091 15562 41498 73608 10006 21044 40242 52006 70311 87500 555 92035 92438;
0156155620999992000022215004+43370+028470FM-12+006499999V0203601N003010042019N0200001N1+00121-00571102341ADDAY121031AY221031GF106991061051004501001001MD1310041+9999MW1021REMSYN082AAXX  22151 15562 41498 63603 10012 21057 40234 53004 70222 86500 555 92013 92418;
0156155620999992000022221004+43370+028470FM-12+006499999V0203601N002010042019N0200001N1+00041-00381102541ADDAY121031AY221031GF108991081051004501999999MD1210071+9999MW1021REMSYN082AAXX  22211 15562 41498 83602 10004 21038 40254 52007 70222 885// 555 92022 92428;
0204155620999992000022303004+43370+028470FM-12+006499999V0203601N010012200019N0200001N1-00201-00671102601ADDAY111031AY211031GA1001+999999999GF100991001001999999001001KA1999M-00021MD1210021+9999MW1011UA1M999999029REMSYN088AAXX  23031 15562 41998 03610 11020 21067 40260 52002 70111 555 11002 29070 92025 92428;
0179155620999992000022309004+43370+028470FM-12+006499999V0200201N004012200019N0200001N1+00021-00601102801ADDAY101031AY201031GA1001+999999999GF100991001001999999001001MD1210091+9999MW1021UA1M999999019REMSYN076AAXX  23091 15562 41998 00204 10002 21060 40280 52009 70200 555 92014 92418;
0156155620999992000022315004+43370+028470FM-12+006499999V0203601N004010042019N0200001N1+00021-00361102701ADDAY121031AY221031GF106991061051004501001001MD1810101+9999MW1021REMSYN082AAXX  23151 15562 41498 63604 10002 21036 40270 58010 70222 86500 555 92023 92428;
0156155620999992000022321004+43370+028470FM-12+006499999V0200901N003012200019N0200001N1-00021-00331102861ADDAY101031AY201031GF102991021051004501001001MD1210051+9999MW1021REMSYN082AAXX  23211 15562 41498 20903 11002 21033 40286 52005 70200 82500 555 92013 92418;
0174155620999992000022403004+43370+028470FM-12+006499999V0200501N003012200019N0200001N1-00081-00501102831ADDAY101031AY201031GF102991021051004501001001MD1810081+9999MW1021REMSYN100AAXX  24031 15562 41498 20503 11008 21050 40283 58008 70200 82500 555 11007 29070 92012 92418 92600;
0156155620999992000022409004+43370+028470FM-12+006499999V0200501N004010360019N0200001N1+00161-00501102991ADDAY111031AY211031GF105991021021004501031001MD1210051+9999MW1031REMSYN082AAXX  24091 15562 41498 50504 10016 21050 40299 52005 70311 82230 555 92024 92428;
0156155620999992000022415004+43370+028470FM-12+006499999V0203601N002012200019N0200001N1+00151-00501102931ADDAY111031AY211031GF103991021051004501031001MD1310011+9999MW1021REMSYN082AAXX  24151 15562 41498 33602 10015 21050 40293 53001 70211 82530 555 92012 92418;
0179155620999992000022421004+43370+028470FM-12+006499999V0203601N004012200019N0200001N1-00061-00861103041ADDAY101031AY201031GA1001+999999999GF100991001001999999001001MD1210031+9999MW1021UA1M999999019REMSYN076AAXX  24211 15562 41998 03604 11006 21086 40304 52003 70200 555 92013 92418;
0204155620999992000022503004+43370+028470FM-12+006499999V0203201N004012200019N0200001N1-00011-00501102991ADDAY101031AY201031GA1001+999999999GF100991001001999999001001KA1999M+00021MD1810081+9999MW1021UA1M999999029REMSYN088AAXX  25031 15562 41998 03204 11001 21050 40299 58008 70200 555 10002 29062 92023 92428;
0179155620999992000022509004+43370+028470FM-12+006499999V0202701N008012200019N0100001N1+00181-00301102971ADDAY101031AY201031GA1001+999999999GF100991001001999999001001MD1810041+9999MW1021UA1M999999029REMSYN076AAXX  25091 15562 41997 02708 10018 21030 40297 58004 70200 555 92025 92427;
0156155620999992000022515004+43370+028470FM-12+006499999V0202301N008012200019N0100001N1+00481-00241102421ADDAY101031AY201031GF102991021051004501001011MD1710231+9999MW1021REMSYN082AAXX  25151 15562 41497 22308 10048 21024 40242 57023 70200 82501 555 92035 92437;
0179155620999992000022521004+43370+028470FM-12+006499999V0202301N010012200019N0100001N1+00421-00191102171ADDAY101031AY201031GA1001+999999999GF100991001001999999001001MD1710161+9999MW1021UA1M999999039REMSYN076AAXX  25211 15562 41997 02310 10042 21019 40217 57016 70200 555 92035 92437;
0174155620999992000022603004+43370+028470FM-12+006499999V0202301N007010042019N0100001N1+00421+00021101851ADDAY161031AY221031GF108991081051004501999999MD1710141+9999MW1211REMSYN100AAXX  26031 15562 41497 82307 10042 20002 40185 57014 72162 885// 555 10032 29066 69924 92035 92437;
0156155620999992000022609004+43370+028470FM-12+006499999V0202301N006010042019N0200001N1+00501+00231101821ADDAY121031AY221031GF108991081051004501999999MD1310031+9999MW1021REMSYN082AAXX  26091 15562 41498 82306 10050 20023 40182 53003 70222 885// 555 92034 92438;
0156155620999992000022615004+43370+028470FM-12+006499999V0203601N010010042019N0200001N1+00601-00221102401ADDAY121031AY221031GF107991071051004501001001MD1210291+9999MW1021REMSYN082AAXX  26151 15562 41498 73610 10060 21022 40240 52029 70222 87500 555 92035 92438;
0156155620999992000022621004+43370+028470FM-12+006499999V0203601N003010042019N0200001N1+00341-00101102861ADDAY111031AY211031GF108991081051004501999999MD1210111+9999MW1031REMSYN082AAXX  26211 15562 41498 83603 10034 21010 40286 52011 70311 885// 555 92012 92418;
0204155620999992000022703004+43370+028470FM-12+006499999V0203601N005012200019N0200001N1+00351-00241103011ADDAY101031AY201031GA1001+999999999GF100991001001999999001001KA1999M+00461MD1210061+9999MW1021UA1M999999029REMSYN088AAXX  27031 15562 41998 03605 10035 21024 40301 52006 70200 555 10046 29070 92024 92428;
0156155620999992000022709004+43370+028470FM-12+006499999V0201401N003010360019N0200001N1+00591+00021103101ADDAY121031AY221031GF106991041051004501031001MD1210041+9999MW1021REMSYN082AAXX  27091 15562 41498 61403 10059 20002 40310 52004 70222 84530 555 92012 92418;
0156155620999992000022715004+43370+028470FM-12+006499999V0209999C000010042019N0200001N1+00661+00091103091ADDAY121031AY221031GF106991061051004501001001MD1310081+9999MW1021REMSYN082AAXX  27151 15562 41498 60000 10066 20009 40309 53008 70222 86500 555 92012 92418;
0156155620999992000022721004+43370+028470FM-12+006499999V0203601N006010042019N0200001N1+00361-00331103351ADDAY111031AY211031GF108991081051004501999999MD1210101+9999MW1031REMSYN082AAXX  27211 15562 41498 83606 10036 21033 40335 52010 70311 885// 555 92013 92418;
0204155620999992000022803004+43370+028470FM-12+006499999V0203201N006012200019N0200001N1+00021-00141103501ADDAY111031AY211031GA1001+999999999GF100991001001999999001001KA1999M+00441MD1210111+9999MW1011UA1M999999029REMSYN088AAXX  28031 15562 41998 03206 10002 21014 40350 52011 70111 555 10044 29066 92025 92428;
0175155620999992000022809004+43370+028470FM-12+006499999V0200201N008019999999N0200001N1+00421-00071103781ADDAY111031AY211031GF105991999021004501001001MD1210101+9999MW1031REMSYN082AAXX  28091 15562 41498 50208 10042 21007 40378 52010 70311 86200 555 92025 92428;EQDQ01+000062SCOTLC
0156155620999992000022815004+43370+028470FM-12+006499999V0200501N006010042019N0200001N1+00401-00121103731ADDAY121031AY221031GF105991051021004501001001MD1710021+9999MW1021REMSYN082AAXX  28151 15562 41498 50506 10040 21012 40373 57002 70222 85200 555 92035 92438;
0179155620999992000022821004+43370+028470FM-12+006499999V0200501N004012200019N0200001N1+00201-00411103771ADDAY111031AY211031GA1001+999999999GF100991001001999999001001MD1210021+9999MW1011UA1M999999029REMSYN076AAXX  28211 15562 41998 00504 10020 21041 40377 52002 70111 555 92023 92428;
0204155620999992000022903004+43370+028470FM-12+006499999V0200501N004012200019N0200001N1+00101-00381103591ADDAY101031AY201031GA1001+999999999GF100991001001999999001001KA1999M+00221MD1710141+9999MW1021UA1M999999019REMSYN088AAXX  29031 15562 41998 00504 10010 21038 40359 57014 70200 555 10022 29075 92013 92418;
0156155620999992000022909004+43370+028470FM-12+006499999V0200501N002012200019N0200001N1+00481-00241103481ADDAY101031AY201031GF102991021001999999031001MD1710041+9999MW1021REMSYN082AAXX  29091 15562 41998 20502 10048 21024 40348 57004 70200 82030 555 92011 92418;
0179155620999992000022915004+43370+028470FM-12+006499999V0203201N002012200019N0200001N1+00431-00271103121ADDAY101031AY201031GA1001+999999999GF100991001001999999001001MD1710141+9999MW1021UA1M999999019REMSYN076AAXX  29151 15562 41998 03202 10043 21027 40312 57014 70200 555 92011 92418;
0179155620999992000022921004+43370+028470FM-12+006499999V0200501N002012200019N0200001N1+00341-00051102941ADDAY101031AY201031GA1001+999999999GF100991001001999999001001MD1710081+9999MW1021UA1M999999019REMSYN076AAXX  29211 15562 41998 00502 10034 21005 40294 57008 70200 555 92012 92418;
0156155620999992000030109004+43370+028470FM-12+006499999V0201401N003012200019N0200001N1+00581-00241102441ADDAY111031AY211031GF103991031051004501001001MD1710061+9999MW1011REMSYN082AAXX  01091 15562 41498 31403 10058 21024 40244 57006 70111 83500 555 92012 92418;
0156155620999992000030115004+43370+028470FM-12+006499999V0201401N003012200019N0200001N1+00501-00171102001ADDAY101031AY201031GF102991021051004501001001MD1710191+9999MW1021REMSYN082AAXX  01151 15562 41498 21403 10050 21017 40200 57019 70200 82500 555 92012 92418;
0179155620999992000030121004+43370+028470FM-12+006499999V0202301N008012200019N0200001N1+00441-00051101841ADDAY101031AY201031GA1001+999999999GF100991001001999999001001MD1710121+9999MW1021UA1M999999039REMSYN076AAXX  01211 15562 41998 02308 10044 21005 40184 57012 70200 555 92035 92438;
0223155620999992000030203004+43370+028470FM-12+006499999V0201801N009012200019N0200001N1+00501+00151101551ADDAY101031AY201031GA1001+999999999GF100991001001999999001001KA1999M+99999MD1710121+9999MW1021UA1M999999039REMSYN088AAXX  02031 15562 41998 01809 10050 20015 40155 57012 70200 555 10043 29067 92035 92438;EQDQ01 +00432ATMX  
0156155620999992000030209004+43370+028470FM-12+006499999V0201801N009010900019N0200001N1+00641+00411101441ADDAY121031AY221031GF106991041051004501001021MD1710041+9999MW1021REMSYN082AAXX  02091 15562 41498 61809 10064 20041 40144 57004 70222 84502 555 92035 92438;
0156155620999992000030215004+43370+028470FM-12+006499999V0201801N009012200019N0200001N1+00701+00381101071ADDAY111031AY211031GF102991021051004501001011MD1710191+9999MW1011REMSYN082AAXX  02151 15562 41498 21809 10070 20038 40107 57019 70111 82501 555 92035 92438;
0179155620999992000030221004+43370+028470FM-12+006499999V0202301N007012200019N0100001N1+00801+00481101151ADDAY111031AY211031GA1001+999999999GF100991001001999999001001MD1310091+9999MW1011UA1M999999039REMSYN076AAXX  02211 15562 41997 02307 10080 20048 40115 53009 70111 555 92035 92437;
0174155620999992000030303004+43370+028470FM-12+006499999V0202301N003010042019N0100001N1+00701+00481101141ADDAY161031AY221031GF108991081001004501021999MD1310041+9999MW1611REMSYN100AAXX  03031 15562 41497 82303 10070 20048 40114 53004 76162 8802/ 555 10072 29080 69934 92015 92417;
0156155620999992000030309004+43370+028470FM-12+006499999V0200501N010010042019N0040001N1+00541+00401101311ADDAY121031AY221031GF108991081051004501999999MD1210091+9999MW1101REMSYN082AAXX  03091 15562 41496 80510 10054 20040 40131 52009 71022 885// 555 92035 92436;
0156155620999992000030321004+43370+028470FM-12+006499999V0203601N004010042019N0040001N1+00421+00351101771ADDAY121031AY221031GF108991081061004501999999MD1210101+9999MW1101REMSYN082AAXX  03211 15562 41496 83604 10042 20035 40177 52010 71022 886// 555 92023 92426;
0221155620999992000030403004+43370+028470FM-12+006499999V0202701N008012200019N0100001N1+00421+00151101871ADDAA124002091AY101031AY201031GA1001+999999999GF100991001001999999001001KA1999M+00501MD1410001+9999MW1021UA1M999999029REMSYN094AAXX  04031 15562 41997 02708 10042 20015 40187 54000 70200 555 10050 29088 60024 92024 92427;
0156155620999992000030409004+43370+028470FM-12+006499999V0202301N006012200019N0200001N1+00661+00321101771ADDAY101031AY201031GF102991001001999999001011MD1810101+9999MW1021REMSYN082AAXX  04091 15562 41998 22306 10066 20032 40177 58010 70200 80001 555 92025 92428;
0156155620999992000030415004+43370+028470FM-12+006499999V0201801N010012200019N0200001N1+00681+00471101221ADDAY101031AY201031GF102991001001999999001011MD1710231+9999MW1021REMSYN082AAXX  04151 15562 41998 21810 10068 20047 40122 57023 70200 80001 555 92035 92438;
0179155620999992000030421004+43370+028470FM-12+006499999V0201801N004012200019N0200001N1+00701+00431101231ADDAY101031AY201031GA1001+999999999GF100991001001999999001001MD1310051+9999MW1021UA1M999999039REMSYN076AAXX  04211 15562 41998 01804 10070 20043 40123 53005 70200 555 92035 92438;
0168155620999992000030503004+43370+028470FM-12+006499999V0202701N006010042019N0200001N1+00641+00411101301ADDAY111031AY211031GF105991051051004501001001MD1410001+9999MW1031REMSYN094AAXX  05031 15562 41498 52706 10064 20041 40130 54000 70311 85500 555 10058 29084 92024 92428;
0156155620999992000030509004+43370+028470FM-12+006499999V0203201N007010042019N0200001N1+00821+00301101611ADDAY121031AY221031GF108991081061004501999999MD1210211+9999MW1021REMSYN082AAXX  05091 15562 41498 83207 10082 20030 40161 52021 70222 886// 555 92024 92428;
0156155620999992000030515004+43370+028470FM-12+006499999V0203401N008010042019N0100001N1+00301+00091101731ADDAY161031AY261031GF108991081001004501021999MD1210091+9999MW1611REMSYN082AAXX  05151 15562 41497 83408 10030 20009 40173 52009 76166 8802/ 555 92024 92427;
0156155620999992000030521004+43370+028470FM-12+006499999V0203201N006010042019N0100001N1+00161+00041101961ADDAY161031AY221031GF108991081051004501999999MD1210071+9999MW1021REMSYN082AAXX  05211 15562 41497 83206 10016 20004 40196 52007 70262 885// 555 92034 92437;
0174155620999992000030603004+43370+028470FM-12+006499999V0203401N012010042019N0100001N1+00081-00101102141ADDAY121031AY221031GF108991081051004501999999MD1210141+9999MW1021REMSYN100AAXX  06031 15562 41497 83412 10008 21010 40214 52014 70222 885// 555 10038 29083 60084 92036 92437;
0156155620999992000030609004+43370+028470FM-12+006499999V0203601N009012200019N0200001N1+00321-00641102671ADDAY121031AY221031GF104991031011004501001021MD1210251+9999MW1021REMSYN082AAXX  06091 15562 41498 43609 10032 21064 40267 52025 70222 83102 555 92035 92438;
0156155620999992000030615004+43370+028470FM-12+006499999V0203201N010010042019N0200001N1+00301-00711102961ADDAY121031AY221031GF106991061021004501001001MD1210151+9999MW1021REMSYN082AAXX  06151 15562 41498 63210 10030 21071 40296 52015 70222 86200 555 92035 92438;
0156155620999992000030715004+43370+028470FM-12+006499999V0202001N009012200019N0200001N1+00541-00101102411ADDAY101031AY201031GF102991001001999999001011MD1710151+9999MW1021REMSYN082AAXX  07151 15562 41998 22009 10054 21010 40241 57015 70200 80001 555 92025 92428;
0204155620999992000030803004+43370+028470FM-12+006499999V0202301N006012200019N0200001N1+00421+00111102001ADDAY101031AY201031GA1001+999999999GF100991001001999999001001KA1999M+00401MD1710201+9999MW1021UA1M999999029REMSYN088AAXX  08031 15562 41998 02306 10042 20011 40200 57020 70200 555 10040 29072 92024 92428;
0156155620999992000030809004+43370+028470FM-12+006499999V0202301N010012200019N0200001N1+00721-00191101961ADDAY101031AY201031GF102991001001999999001011MD1810091+9999MW1021REMSYN082AAXX  08091 15562 41998 22310 10072 21019 40196 58009 70200 80001 555 92035 92438;
0156155620999992000030815004+43370+028470FM-12+006499999V0202701N006012200019N0200001N1+01241+00041101751ADDAY101031AY201031GF104991001001999999001011MD1710021+9999MW1021REMSYN082AAXX  08151 15562 41998 42706 10124 20004 40175 57002 70200 80001 555 92025 92428;
0179155620999992000030821004+43370+028470FM-12+006499999V0202701N010012200019N0200001N1+00791+00301101721ADDAY101031AY201031GA1001+999999999GF100991001001999999001001MD1810061+9999MW1021UA1M999999029REMSYN076AAXX  08211 15562 41998 02710 10079 20030 40172 58006 70200 555 92025 92428;
0204155620999992000030903004+43370+028470FM-12+006499999V0202701N010012200019N0200001N1+00841+00191101491ADDAY101031AY201031GA1001+999999999GF100991001001999999001001KA1999M+00841MD1710201+9999MW1021UA1M999999029REMSYN088AAXX  09031 15562 41998 02710 10084 20019 40149 57020 70200 555 10084 29069 92025 92428;
0156155620999992000030909004+43370+028470FM-12+006499999V0202301N012010360019N0200001N1+01021+00171101201ADDAY121031AY221031GF107991021051004501031051MD1710141+9999MW1021REMSYN082AAXX  09091 15562 41498 72312 10102 20017 40120 57014 70222 82535 555 92036 92438;
0244155620999992000030918004+43370+028470FM-12+006499999V0202701N012012200019N0200001N1+01401+00291100621ADDAA199000091AY111061AY211061GA1001+999999999GF100991001001999999001001KA1120M+01551MD1710151+9999MW1011UA1M990109039REMSYN098AAXX  09181 15562 31998 02712 10140 20029 40062 57015 70111 222// 2//02 333 10155 555 92036 92438;EQDQ01  00002PRCP99
0179155620999992000030921004+43370+028470FM-12+006499999V0202301N012012200019N0200001N1+00951+00381100371ADDAY101031AY201031GA1001+999999999GF100991001001999999001001MD1710261+9999MW1021UA1M999999039REMSYN076AAXX  09211 15562 41998 02312 10095 20038 40037 57026 70200 555 92036 92438;
0248155620999992000031003004+43370+028470FM-12+006499999V0202701N020012200019N0200001N1+01101+00671100371ADDAY101031AY201031GA1001+999999999GF100991001001999999001001KA1999M+01801MD1410001+9999MW1021OA149902401OA259902001UA1M999999049REMSYN110AAXX  10031 15562 41998 02720 10110 20067 40037 54000 70200 333 91124 91220 91527 555 10180 29057 92048 92448;
0162155620999992000031015004+43370+028470FM-12+006499999V0203601N008010042019N0040001N1+00341+00191101311ADDAY161031AY221031GF108991081001004501021999MD1210341+9999MW1611REMSYN088AAXX  10151 15562 41496 83608 10034 20019 40131 52034 76162 8802/ 555 92035 92436 96010;
0156155620999992000031021004+43370+028470FM-12+006499999V0203601N003010042019N0200001N1+00301+00041101841ADDAY121031AY221031GF108991081051004501999999MD1210281+9999MW1021REMSYN082AAXX  10211 15562 41498 83603 10030 20004 40184 52028 70222 885// 555 92013 92418;
0221155620999992000031103004+43370+028470FM-12+006499999V0203601N006012200019N0200001N1+00121-00221102141ADDAA124003091AY101031AY201031GA1001+999999999GF100991001001999999001001KA1999M+00501MD1210131+9999MW1021UA1M999999039REMSYN094AAXX  11031 15562 41998 03606 10012 21022 40214 52013 70200 555 10050 29080 60034 92034 92438;
0179155620999992000031109004+43370+028470FM-12+006499999V0200501N003012200019N0200001N1+00541-00331102161ADDAY111031AY211031GA1001+999999999GF100991001001999999001001MD1210281+9999MW1011UA1M999999019REMSYN076AAXX  11091 15562 41998 00503 10054 21033 40216 52028 70111 555 92012 92418;
0156155620999992000031115004+43370+028470FM-12+006499999V0201801N004012200019N0200001N1+00481-00381102291ADDAY101031AY201031GF102991021051004501001001MD1710101+9999MW1021REMSYN082AAXX  11151 15562 41498 21804 10048 21038 40229 57010 70200 82500 555 92023 92428;
0168155620999992000031203004+43370+028470FM-12+006499999V0201801N012010042019N0200001N1+00581+00231101271ADDAY121031AY221031GF108991081051004501999999MD1710221+9999MW1021REMSYN094AAXX  12031 15562 41498 81812 10058 20023 40127 57022 70222 885// 555 10044 29059 92036 92438;
0213155620999992000031209004+43370+028470FM-12+006499999V0202701N022010042019N0200001N1+00941+00291101081ADDAY121031AY221031GF107991071051004501001001MD1710081+9999MW1021OA149902401OA259902201UA1M999999049REMSYN104AAXX  12091 15562 41498 72722 10094 20029 40108 57008 70222 87500 333 91124 91222 91527 555 92049 92448;
0213155620999992000031215004+43370+028470FM-12+006499999V0203401N006010042019N0200001N1+00881+00381101541ADDAY161031AY221031GF106991061051004501001001MD1210271+9999MW1211OA149902401OA259902201UA1M999999039REMSYN104AAXX  12151 15562 41498 63406 10088 20038 40154 52027 72162 86500 333 91124 91222 91527 555 92039 92438;
0175155620999992000031221004+43370+028470FM-12+006499999V0203601N006010042019N0200001N1+00381-00171102411ADDAY121031AY221031GF108991081051004501999999MD1310572+9999MW1021REMSYN082AAXX  12211 15562 41498 83606 10038 21017 40241 53057 70222 885// 555 92024 92428;EQDQ01+000572APC3  
0221155620999992000031303004+43370+028470FM-12+006499999V0203601N006012200019N0200001N1-00041-00271102751ADDAA124000691AY101031AY201031GA1001+999999999GF100991001001999999001001KA1999M+00721MD1210141+9999MW1021UA1M999999029REMSYN094AAXX  13031 15562 41998 03606 11004 21027 40275 52014 70200 555 10072 29069 69964 92024 92428;
0179155620999992000031309004+43370+028470FM-12+006499999V0201401N004012200019N0200001N1+00521-00501103041ADDAY101031AY201031GA1001+999999999GF100991001001999999001001MD1210231+9999MW1021UA1M999999029REMSYN076AAXX  13091 15562 41998 01404 10052 21050 40304 52023 70200 555 92024 92428;
0156155620999992000031315004+43370+028470FM-12+006499999V0201101N002012200019N0200001N1+00461-00411102971ADDAY101031AY201031GF102991021021004501001001MD1710031+9999MW1021REMSYN082AAXX  13151 15562 41498 21102 10046 21041 40297 57003 70200 82200 555 92022 92428;
0179155620999992000031321004+43370+028470FM-12+006499999V0201401N003012200019N0200001N1+00381-00381103071ADDAY101031AY201031GA1001+999999999GF100991001001999999001001MD1210061+9999MW1021UA1M999999019REMSYN076AAXX  13211 15562 41998 01403 10038 21038 40307 52006 70200 555 92012 92418;
0204155620999992000031403004+43370+028470FM-12+006499999V0201601N003012200019N0200001N1+00381-00241103001ADDAY101031AY201031GA1001+999999999GF100991001001999999001001KA1999M+00381MD1710401+9999MW1021UA1M999999029REMSYN088AAXX  14031 15562 41998 01603 10038 21024 40300 57040 70200 555 10038 29054 92022 92428;
0156155620999992000031409004+43370+028470FM-12+006499999V0201601N005012200019N0200001N1+00541-00101103031ADDAY101031AY201031GF102991021021004501001001MD1810011+9999MW1021REMSYN082AAXX  14091 15562 41498 21605 10054 21010 40303 58001 70200 82200 555 92023 92428;
0179155620999992000031415004+43370+028470FM-12+006499999V0201601N006012200019N0200001N1+00481-00121102661ADDAY101031AY201031GA1001+999999999GF100991001001999999001001MD1710191+9999MW1021UA1M999999039REMSYN076AAXX  14151 15562 41998 01606 10048 21012 40266 57019 70200 555 92035 92438;
0179155620999992000031421004+43370+028470FM-12+006499999V0201801N007012200019N0200001N1+00461+00111102461ADDAY101031AY201031GA1001+999999999GF100991001001999999001001MD1710141+9999MW1021UA1M999999039REMSYN076AAXX  14211 15562 41998 01807 10046 20011 40246 57014 70200 555 92034 92438;
0204155620999992000031503004+43370+028470FM-12+006499999V0201801N007012200019N0200001N1+00441+00191101991ADDAY101031AY201031GA1001+999999999GF100991001001999999001001KA1999M+00471MD1710211+9999MW1021UA1M999999039REMSYN088AAXX  15031 15562 41998 01807 10044 20019 40199 57021 70200 555 10047 29066 92034 92438;
0156155620999992000031509004+43370+028470FM-12+006499999V0202001N010012200019N0200001N1+00621+00291101711ADDAY101031AY201031GF103991001001999999001011MD1710111+9999MW1021REMSYN082AAXX  15091 15562 41998 32010 10062 20029 40171 57011 70200 80001 555 92035 92438;
0156155620999992000031515004+43370+028470FM-12+006499999V0202301N005012200019N0200001N1+00721+00501101321ADDAY101031AY201031GF103991001001999999001011MD1710181+9999MW1021REMSYN082AAXX  15151 15562 41998 32305 10072 20050 40132 57018 70200 80001 555 92035 92438;
0156155620999992000031521004+43370+028470FM-12+006499999V0202301N004010042019N0200001N1+00721+00451101201ADDAY121031AY221031GF108991081051004501999999MD1710071+9999MW1021REMSYN082AAXX  15211 15562 41498 82304 10072 20045 40120 57007 70222 885// 555 92024 92428;
0168155620999992000031603004+43370+028470FM-12+006499999V0202701N014010042019N0200001N1+00681+00191101311ADDAY121031AY221031GF108991081051004501999999MD1210111+9999MW1021REMSYN094AAXX  16031 15562 41498 82714 10068 20019 40131 52011 70222 885// 555 10072 29078 92036 92438;
0162155620999992000031609004+43370+028470FM-12+006499999V0203201N004010042019N0040001N1+00141+00021101591ADDAY171031AY261031GF108991081001004501021999MD1210091+9999MW1681REMSYN088AAXX  16091 15562 41496 83204 10014 20002 40159 52009 76876 8802/ 555 92025 92426 96090;
0156155620999992000031615004+43370+028470FM-12+006499999V0209999C000010042019N0200001N1+00281+00131101441ADDAY161031AY221031GF107991071051004501001001MD1710081+9999MW1021REMSYN082AAXX  16151 15562 41498 70000 10028 20013 40144 57008 70262 87500 555 92014 92418;
0156155620999992000031621004+43370+028470FM-12+006499999V0202001N004010042019N0200001N1+00301+00061101501ADDAY111031AY211031GF107991071051004501001001MD1810031+9999MW1031REMSYN082AAXX  16211 15562 41498 72004 10030 20006 40150 58003 70311 87500 555 92013 92418;
0174155620999992000031703004+43370+028470FM-12+006499999V0209999C000010042019N0200001N1+00321+00131101361ADDAY121031AY221031GF108991081051004501999999MD1710111+9999MW1021REMSYN100AAXX  17031 15562 41498 80000 10032 20013 40136 57011 70222 885// 555 10028 29085 60084 92012 92418;
0156155620999992000031709004+43370+028470FM-12+006499999V0201801N002010360019N0200001N1+00561+00041101331ADDAY121031AY221031GF105991031021004501031001MD1810101+9999MW1021REMSYN082AAXX  17091 15562 41498 51802 10056 20004 40133 58010 70222 83230 555 92012 92418;
0156155620999992000031715004+43370+028470FM-12+006499999V0201401N003010360019N0200001N1+00441+00021101061ADDAY121031AY221031GF107991031021004501031001MD1710041+9999MW1021REMSYN082AAXX  17151 15562 41498 71403 10044 20002 40106 57004 70222 83230 555 92012 92418;
0156155620999992000031721004+43370+028470FM-12+006499999V0203601N004010042019N0200001N1+00201+00021101001ADDAY121031AY221031GF107991071051004501001001MD1810081+9999MW1021REMSYN082AAXX  17211 15562 41498 73604 10020 20002 40100 58008 70222 87500 555 92013 92418;
0168155620999992000031803004+43370+028470FM-12+006499999V0203601N004012200019N0200001N1+00101-00121100971ADDAY121031AY221031GF104991041051004501001001MD1410001+9999MW1021REMSYN094AAXX  18031 15562 41498 43604 10010 21012 40097 54000 70222 84500 555 10030 29080 92013 92418;
0156155620999992000031809004+43370+028470FM-12+006499999V0203601N004010042019N0200001N1+00541-00051101051ADDAY121031AY221031GF107991071051004501001001MD1210011+9999MW1021REMSYN082AAXX  18091 15562 41498 73604 10054 21005 40105 52001 70222 87500 555 92023 92428;
0175155620999992000031815004+43370+028470FM-12+006499999V0202701N004019999999N0200001N1+00471-00171101231ADDAY121031AY221031GF105991999051004501001001MD1210131+9999MW1021REMSYN082AAXX  18151 15562 41498 52704 10047 21017 40123 52013 70222 86500 555 92023 92428;EQDQ01+000062SCOTLC
0156155620999992000031821004+43370+028470FM-12+006499999V0200501N005019999999N0200001N1+00061-00171101541ADDAY121031AY221031GF106991001001999999001061MD1210111+9999MW1021REMSYN082AAXX  18211 15562 41998 60505 10006 21017 40154 52011 70222 80006 555 92023 92428;
0168155620999992000031903004+43370+028470FM-12+006499999V0203601N008019999999N0100001N1-00081-00471101611ADDAY121031AY221031GF106991001001999999001061MD1210041+9999MW1021REMSYN094AAXX  19031 15562 41997 63608 11008 21047 40161 52004 70222 80006 555 10022 29080 92035 92437;
0156155620999992000031909004+43370+028470FM-12+006499999V0203401N005012200019N0100001N1+00481-00331101741ADDAY111031AY211031GF103991021011004501001011MD1210121+9999MW1011REMSYN082AAXX  19091 15562 41497 33405 10048 21033 40174 52012 70111 82101 555 92025 92427;
0156155620999992000031915004+43370+028470FM-12+006499999V0200201N003010360019N0200001N1+00441-00301101741ADDAY121031AY221031GF105991031051004501031001MD1310081+9999MW1021REMSYN082AAXX  19151 15562 41498 50203 10044 21030 40174 53008 70222 83530 555 92015 92418;
0179155620999992000031921004+43370+028470FM-12+006499999V0203501N003012200019N0200001N1+00401-00361101951ADDAY111031AY211031GA1001+999999999GF100991001001999999001001MD1210051+9999MW1011UA1M999999019REMSYN076AAXX  19211 15562 41998 03503 10040 21036 40195 52005 70111 555 92012 92418;
0204155620999992000032003004+43370+028470FM-12+006499999V0202701N003012200019N0200001N1+00281-00301102021ADDAY101031AY201031GA1001+999999999GF100991001001999999001001KA1999M+00321MD1210031+9999MW1021UA1M999999019REMSYN088AAXX  20031 15562 41998 02703 10028 21030 40202 52003 70200 555 10032 29046 92013 92418;
0272155620999992000032006004+43370+028470FM-12+006499999V0202701N012019999999N0200001N1+00241-00331102091ADDAA199000091AY111061AY211061GF106991001001999999001041GJ103909IA1099IA2999-00109KA1120N+00151MD1210071+9999MW1031UA1M990109039REMSYN116AAXX  20061 15562 31998 62712 10024 21033 40209 52007 70311 80004 222// 2//02 333 20015 55065 555 31101 92036 92438;EQDQ01  00002PRCP99
0156155620999992000032009004+43370+028470FM-12+006499999V0202501N012012200019N0200001N1+00381-00241102021ADDAY111031AY211031GF103991031021004501001001MD1810071+9999MW1011REMSYN082AAXX  20091 15562 41498 32512 10038 21024 40202 58007 70111 83200 555 92036 92438;
0211155620999992000032012004+43370+028470FM-12+006499999V0202301N009010042019N0200001N1+00521+00001101951ADDAA199000091AY111061AY211061GF107991061051004501001011MD1710061+9999MW1031UA1M990109039REMSYN094AAXX  20121 15562 31498 72309 10052 20000 40195 57006 70311 86501 222// 2//02 555 92036 92438;EQDQ01  00002PRCP99
0156155620999992000032015004+43370+028470FM-12+006499999V0202301N008010042019N0200001N1+00281-00121101841ADDAY121031AY221031GF108991081051004501999999MD1710121+9999MW1021REMSYN082AAXX  20151 15562 41498 82308 10028 21012 40184 57012 70222 885// 555 92035 92438;
0156155620999992000032021004+43370+028470FM-12+006499999V0202701N012010042019N0200001N1+00261-00271101781ADDAY121031AY221031GF108991081051004501999999MD1710041+9999MW1021REMSYN082AAXX  20211 15562 41498 82712 10026 21027 40178 57004 70222 885// 555 92036 92438;
0168155620999992000032103004+43370+028470FM-12+006499999V0202701N006010042019N0200001N1+00201-00271101701ADDAY121031AY221031GF107991071051004501001001MD1710041+9999MW1021REMSYN094AAXX  21031 15562 41498 72706 10020 21027 40170 57004 70222 87500 555 10039 29069 92035 92438;
0146155620999992000032109004+43370+028470FM-12+006499999V0203601N003010042019N0200001N1+00421-00271101831ADDAY111031AY211031GF107991071051004501001001MD1210101+9999MW1031REMSYN072AAXX  21091 15562 41498 73603 10042 21027 40183 52010 70311 87500 92024;
0165155620999992000032115004+43370+028470FM-12+006499999V0200501N002010042019N0100001N1+00321+00061101841ADDAY121031AY221031GF106991999061004501001001MD1810041+9999MW1021REMSYN072AAXX  21151 15562 41497 60502 10032 20006 40184 58004 70222 85600 92012;EQDQ01+000052SCOTLC
0156155620999992000032121004+43370+028470FM-12+006499999V0203201N003012200019N0100001N1+00201-00071102091ADDAY101031AY201031GF103991031051004501001001MD1210111+9999MW1021REMSYN082AAXX  21211 15562 41497 33203 10020 21007 40209 52011 70200 83500 555 92012 92417;
0168155620999992000032203004+43370+028470FM-12+006499999V0203201N008012200019N0100001N1-00061-00121102051ADDAY101031AY201031GF103991031051004501001001MD1810071+9999MW1021REMSYN094AAXX  22031 15562 41497 33208 11006 21012 40205 58007 70200 83500 555 10029 29072 92034 92437;
0156155620999992000032209004+43370+028470FM-12+006499999V0203601N007010042019N0200001N1+00531-00171102151ADDAY121031AY221031GF105991051021004501001001MD1210061+9999MW1021REMSYN082AAXX  22091 15562 41498 53607 10053 21017 40215 52006 70222 85200 555 92034 92438;
0156155620999992000032215004+43370+028470FM-12+006499999V0200501N003012200019N0200001N1+00531-00271102071ADDAY111031AY211031GF103991031051004501001001MD1810081+9999MW1011REMSYN082AAXX  22151 15562 41498 30503 10053 21027 40207 58008 70111 83500 555 92023 92428;
0179155620999992000032221004+43370+028470FM-12+006499999V0209999C000012200019N0200001N1+00321-00121102221ADDAY101031AY201031GA1001+999999999GF100991001001999999001001MD1210071+9999MW1021UA1M999999009REMSYN076AAXX  22211 15562 41998 00000 10032 21012 40222 52007 70200 555 92000 92408;
0156155620999992000032309004+43370+028470FM-12+006499999V0202301N003012200019N0100001N1+00701+00211102141ADDAY101031AY201031GF102991021011004501001001MD1310021+9999MW1021REMSYN082AAXX  23091 15562 41497 22303 10070 20021 40214 53002 70200 82100 555 92012 92417;
0179155620999992000032321004+43370+028470FM-12+006499999V0201801N004012200019N0100001N1+00541+00301101741ADDAY101031AY201031GA1001+999999999GF100991001001999999001001MD1810091+9999MW1021UA1M999999029REMSYN076AAXX  23211 15562 41997 01804 10054 20030 40174 58009 70200 555 92025 92428;
0204155620999992000032403004+43370+028470FM-12+006499999V0202301N004012200019N0100001N1+00581+00401101651ADDAY101031AY201031GA1001+999999999GF100991001001999999001001KA1999M+00601MD1710081+9999MW1021UA1M999999029REMSYN088AAXX  24031 15562 41997 02304 10058 20040 40165 57008 70200 555 10060 29075 92023 92427;
0179155620999992000032409004+43370+028470FM-12+006499999V0209999C000012200019N0100001N1+00701+00321101761ADDAY101031AY201031GA1001+999999999GF100991001001999999001001MD1210091+9999MW1021UA1M999999019REMSYN076AAXX  24091 15562 41997 00000 10070 20032 40176 52009 70200 555 92012 92417;
0179155620999992000032415004+43370+028470FM-12+006499999V0202301N004012200019N0100001N1+00781+00461101571ADDAY101031AY201031GA1001+999999999GF100991001001999999001001MD1710051+9999MW1021UA1M999999029REMSYN076AAXX  24151 15562 41997 02304 10078 20046 40157 57005 70200 555 92023 92427;
0156155620999992000032421004+43370+028470FM-12+006499999V0202701N002010042019N0100001N1+00701+00481101581ADDAY111031AY211031GF108991081051004501999999MD1410001+9999MW1031REMSYN082AAXX  24211 15562 41497 82702 10070 20048 40158 54000 70311 885// 555 92012 92417;
0156155620999992000032509004+43370+028470FM-12+006499999V0200501N008010042019N0100001N1+00721+00501102211ADDAY121031AY221031GF108991081051004501999999MD1210251+9999MW1021REMSYN082AAXX  25091 15562 41497 80508 10072 20050 40221 52025 70222 885// 555 92035 92437;
0168155620999992000032603004+43370+028470FM-12+006499999V0201401N002010042019N0200001N1+00621+00551102211ADDAY121031AY221031GF108991081051004501999999MD1710111+9999MW1021REMSYN094AAXX  26031 15562 41498 81402 10062 20055 40221 57011 70222 885// 555 10063 29086 92023 92428;
0156155620999992000032609004+43370+028470FM-12+006499999V0201801N003010001519N0001001N1+00581+00461102051ADDAY141031AY241031GA1091+999999999GF109991091999999999999999MD1710091+9999MW1451REMSYN066AAXX  26091 15562 41/91 91803 10058 20046 40205 57009 74544 92421;
0156155620999992000032615004+43370+028470FM-12+006499999V0202001N004010003019N0002001N1+00581+00481101721ADDAY141031AY241031GA1091+999999999GF109991091999999999999999MD1710181+9999MW1451REMSYN066AAXX  26151 15562 41/92 92004 10058 20048 40172 57018 74544 92422;
0156155620999992000032621004+43370+028470FM-12+006499999V0202301N004010042019N0040001N1+00591+00511101701ADDAY141031AY221031GF108991081051004501999999MD1810041+9999MW1101REMSYN082AAXX  26211 15562 41496 82304 10059 20051 40170 58004 71042 885// 555 92013 92416;
0168155620999992000032703004+43370+028470FM-12+006499999V0202701N003010042019N0040001N1+00601+00511101561ADDAY121031AY221031GF108991081051004501999999MD1710051+9999MW1101REMSYN094AAXX  27031 15562 41496 82703 10060 20051 40156 57005 71022 885// 555 10060 29096 92012 92416;
0156155620999992000032709004+43370+028470FM-12+006499999V0201601N003010360019N0100001N1+00951+00611101501ADDAY121031AY221031GF105991031051004501031001MD1710011+9999MW1021REMSYN082AAXX  27091 15562 41497 51603 10095 20061 40150 57001 70222 83530 555 92012 92417;
0156155620999992000032715004+43370+028470FM-12+006499999V0201801N005010360019N0100001N1+01131+00591101241ADDAY121031AY221031GF107991031051004501031001MD1710151+9999MW1021REMSYN082AAXX  27151 15562 41497 71805 10113 20059 40124 57015 70222 83530 555 92023 92427;
0156155620999992000032721004+43370+028470FM-12+006499999V0201801N009010042019N0200001N1+01121+00511101191ADDAY121031AY221031GF108991081051004501999999MD1310011+9999MW1021REMSYN082AAXX  27211 15562 41498 81809 10112 20051 40119 53001 70222 885// 555 92036 92438;
0168155620999992000032803004+43370+028470FM-12+006499999V0202301N006010042019N0200001N1+00921+00711101211ADDAY121031AY221031GF106991061051004501001001MD1310021+9999MW1021REMSYN094AAXX  28031 15562 41498 62306 10092 20071 40121 53002 70222 86500 555 10099 29074 92024 92428;
0156155620999992000032809004+43370+028470FM-12+006499999V0202301N004010900019N0100001N1+01121+00761101471ADDAY121031AY221031GF106991031051004501001021MD1210091+9999MW1021REMSYN082AAXX  28091 15562 41497 62304 10112 20076 40147 52009 70222 83502 555 92023 92427;
0156155620999992000032815004+43370+028470FM-12+006499999V0202701N003010042019N0200001N1+01261+00731101421ADDAY121031AY221031GF107991071051004501001001MD1810041+9999MW1021REMSYN082AAXX  28151 15562 41498 72703 10126 20073 40142 58004 70222 87500 555 92013 92418;
0168155620999992000032903004+43370+028470FM-12+006499999V0203601N008010042019N0200001N1+01121+00461101761ADDAY111031AY211031GF108991081051004501999999MD1210011+9999MW1031REMSYN094AAXX  29031 15562 41498 83608 10112 20046 40176 52001 70311 885// 555 10109 29080 92025 92428;
0156155620999992000032909004+43370+028470FM-12+006499999V0200501N008019999999N0200001N1+00901+00641101991ADDAY121031AY221031GF106991061001999999031001MD1210061+9999MW1021REMSYN082AAXX  29091 15562 41998 60508 10090 20064 40199 52006 70222 86030 555 92025 92428;
0179155620999992000032915004+43370+028470FM-12+006499999V0200901N010010001519N0001001N1+00721+00641101861ADDAY141031AY201031GA1091+999999999GF109991091999999999999999MD1710121+9999MW1451UA1M999999039REMSYN076AAXX  29151 15562 41/91 90910 10072 20064 40186 57012 74540 555 92035 92437;
0179155620999992000032921004+43370+028470FM-12+006499999V0200901N004010001519N0001001N1+00621+00561102011ADDAY141031AY241031GA1091+999999999GF109991091999999999999999MD1210041+9999MW1451UA1M999999039REMSYN076AAXX  29211 15562 41/91 90904 10062 20056 40201 52004 74544 555 92035 92431;
0204155620999992000033003004+43370+028470FM-12+006499999V0200901N006010001519N0001001N1+00651+00611101901ADDAY141031AY241031GA1091+999999999GF109991091999999999999999KA1999M+00781MD1710041+9999MW1451UA1M999999029REMSYN088AAXX  30031 15562 41/91 90906 10065 20061 40190 57004 74544 555 10078 29089 92024 92421;
0179155620999992000033009004+43370+028470FM-12+006499999V0200901N005010001519N0001001N1+00741+00701101861ADDAY141031AY241031GA1091+999999999GF109991091999999999999999MD1710021+9999MW1451UA1M999999029REMSYN076AAXX  30091 15562 41/91 90905 10074 20070 40186 57002 74544 555 92023 92421;
0179155620999992000033015004+43370+028470FM-12+006499999V0200901N007010001519N0001001N1+00701+00651101361ADDAY141031AY221031GA1091+999999999GF109991091999999999999999MD1710231+9999MW1471UA1M999999029REMSYN076AAXX  30151 15562 41/91 90907 10070 20065 40136 57023 74742 555 92024 92421;
0179155620999992000033021004+43370+028470FM-12+006499999V0200901N004012200019N0040001N1+00661+00651101331ADDAY141031AY211031GA1001+999999999GF100991001001999999001001MD1710031+9999MW1101UA1M999999029REMSYN076AAXX  30211 15562 41996 00904 10066 20065 40133 57003 71041 555 92023 92426;
0146155620999992000033109004+43370+028470FM-12+006499999V0203201N003012200019N0100001N1+01301+00781101421ADDAY111031AY211031GF103991021001999999031011MD1210221+9999MW1011REMSYN072AAXX  31091 15562 41997 33203 10130 20078 40142 52022 70111 82031 92025;
0146155620999992000033115004+43370+028470FM-12+006499999V0202301N003012200019N0040001N1+01001+00801101191ADDAY101031AY201031GF103991001001999999001021MD1710081+9999MW1101REMSYN072AAXX  31151 15562 41996 32303 10100 20080 40119 57008 71000 80002 92012;
0156155620999992000033121004+43370+028470FM-12+006499999V0202701N003010042019N0040001N1+00761+00701101331ADDAY121031AY221031GF108991081051004501999999MD1210081+9999MW1101REMSYN082AAXX  31211 15562 41496 82703 10076 20070 40133 52008 71022 885// 555 92022 92426;
0204155620999992000040103004+43370+028470FM-12+006499999V0201401N002010001519N0001001N1+00681+00611101261ADDAY141031AY221031GA1091+999999999GF109991091999999999999999KA1999M+00861MD1710031+9999MW1451UA1M999999019REMSYN088AAXX  01031 15562 41/91 91402 10068 20061 40126 57003 74542 555 10086 29090 92012 92411;
0162155620999992000040109004+43370+028470FM-12+006499999V0200501N003012200019N0040001N1+00921+00761101401ADDAY141031AY211031GF103991021051004501001011MD1410001+9999MW1281REMSYN088AAXX  01091 15562 41496 30503 10092 20076 40140 54000 72841 82501 555 92012 92416 92610;
0156155620999992000040115004+43370+028470FM-12+006499999V0200901N005010042019N0200001N1+00901+00591101081ADDAY121031AY221031GF108991081051004501999999MD1710171+9999MW1021REMSYN082AAXX  01151 15562 41498 80905 10090 20059 40108 57017 70222 885// 555 92023 92428;
0156155620999992000040121004+43370+028470FM-12+006499999V0209999C000010042019N0200001N1+00941+00501101061ADDAY121031AY221031GF108991081051004501999999MD1810151+9999MW1021REMSYN082AAXX  01211 15562 41498 80000 10094 20050 40106 58015 70222 885// 555 92000 92408;
0174155620999992000040203004+43370+028470FM-12+006499999V0203201N005010042019N0200001N1+01141+00731100791ADDAY161031AY221031GF108991081051004501999999MD1810271+9999MW1021REMSYN100AAXX  02031 15562 41498 83205 10114 20073 40079 58027 70262 885// 555 10091 29081 69914 92013 92418;
0188155620999992000040206004+43370+028470FM-12+006499999V02099999999990300019N0060001N1+02201+02142999999ADDAA124004191AY191061AY261061GA1081+030009049GF108991031091004501071999MW1951REMSYN082AAXX  02061 15562 11456 8//// 10220 20214 60044 79596 8397/ 333 88460 9534/ 95336;EQDQ01+002143ATOD  
0156155620999992000040215004+43370+028470FM-12+006499999V0203601N005010042019N0200001N1+01181+00811100861ADDAY191031AY221031GF108991081051004501999999MD1710051+9999MW1291REMSYN082AAXX  02151 15562 41498 83605 10118 20081 40086 57005 72992 885// 555 92013 92418;
0179155620999992000040221004+43370+028470FM-12+006499999V0203201N004012200019N0100001N1+00901+00781101121ADDAY101031AY201031GA1001+999999999GF100991001001999999001001MD1210091+9999MW1021UA1M999999019REMSYN076AAXX  02211 15562 41997 03204 10090 20078 40112 52009 70200 555 92013 92417;
0174155620999992000040303004+43370+028470FM-12+006499999V0202301N006012200019N0100001N1+00901+00681101341ADDAY101031AY201031GF102991021051004501001001MD1210131+9999MW1021REMSYN100AAXX  03031 15562 41497 22306 10090 20068 40134 52013 70200 82500 555 10109 29082 60024 92024 92427;
0156155620999992000040309004+43370+028470FM-12+006499999V0202301N003012200019N0200001N1+01221+00531101521ADDAY101031AY201031GF102991001001999999001011MD1210051+9999MW1021REMSYN082AAXX  03091 15562 41998 22303 10122 20053 40152 52005 70200 80001 555 92012 92418;
0156155620999992000040315004+43370+028470FM-12+006499999V0201401N003010042019N0100001N1+01071+00851101351ADDAY111031AY211031GF108991081051004501999999MD1710101+9999MW1031REMSYN082AAXX  03151 15562 41497 81403 10107 20085 40135 57010 70311 885// 555 92013 92417;
0156155620999992000040321004+43370+028470FM-12+006499999V0201401N002010042019N0200001N1+00981+00731101291ADDAY121031AY221031GF106991061051004501001001MD1710041+9999MW1021REMSYN082AAXX  03211 15562 41498 61402 10098 20073 40129 57004 70222 86500 555 92012 92418;
0168155620999992000040403004+43370+028470FM-12+006499999V0201601N004010042019N0200001N1+01001+00761100991ADDAY121031AY221031GF106991061051004501001001MD1710131+9999MW1021REMSYN094AAXX  04031 15562 41498 61604 10100 20076 40099 57013 70222 86500 555 10110 29072 92013 92418;
0156155620999992000040409004+43370+028470FM-12+006499999V0201801N010010042019N0200001N1+01181+00641100801ADDAY121031AY221031GF107991061051004501031001MD1710091+9999MW1021REMSYN082AAXX  04091 15562 41498 71810 10118 20064 40080 57009 70222 86530 555 92035 92438;
0156155620999992000040415004+43370+028470FM-12+006499999V0202301N003019999999N0200001N1+01321+00711100721ADDAY121031AY221031GF107991021001999999031051MD1710051+9999MW1021REMSYN082AAXX  04151 15562 41998 72303 10132 20071 40072 57005 70222 82035 555 92024 92428;
0179155620999992000040421004+43370+028470FM-12+006499999V0209999C000012200019N0200001N1+01341+00781100861ADDAY101031AY201031GA1001+999999999GF100991001001999999001001MD1210091+9999MW1021UA1M999999019REMSYN076AAXX  04211 15562 41998 00000 10134 20078 40086 52009 70200 555 92013 92418;
0204155620999992000040503004+43370+028470FM-12+006499999V0202301N003012200019N0200001N1+01121+00801100571ADDAY101031AY201031GA1001+999999999GF100991001001999999001001KA1999M+01271MD1710131+9999MW1021UA1M999999019REMSYN088AAXX  05031 15562 41998 02303 10112 20080 40057 57013 70200 555 10127 29079 92013 92418;
0146155620999992000040509004+43370+028470FM-12+006499999V0201401N007012200019N0200001N1+01341+00821099961ADDAY111031AY211031GF102991021001999999031021MD1710261+9999MW1011REMSYN072AAXX  05091 15562 41998 21407 10134 20082 49996 57026 70111 82032 92034;
0174155620999992000040515004+43370+028470FM-12+006499999V0201801N018012200019N0040001N1+01521+00711099451ADDAY181031AY221031GF106991021051004501001061MD1710061+9999MW1101REMSYN100AAXX  05151 15562 41496 61818 10152 20071 49945 57006 71082 82506 555 91126 91224 91514 92048 92446;
0156155620999992000040521004+43370+028470FM-12+006499999V0202701N004012200019N0200001N1+01351+00861100091ADDAY111031AY211031GF103991031051004501001001MD1210291+9999MW1011REMSYN082AAXX  05211 15562 41498 32704 10135 20086 40009 52029 70111 83500 555 92023 92438;
0204155620999992000040603004+43370+028470FM-12+006499999V0202301N010012200019N0200001N1+01221+00531100181ADDAY101031AY201031GA1001+999999999GF100991001001999999001001KA1999M+01361MD1810101+9999MW1021UA1M999999039REMSYN088AAXX  06031 15562 41998 02310 10122 20053 40018 58010 70200 555 10136 29071 92035 92438;
0213155620999992000040609004+43370+028470FM-12+006499999V0202301N012012200019N0200001N1+01361+00511100341ADDAY101031AY201031GF102991021051004501001011MD1210031+9999MW1021OA149902001OA259901801UA1M999999049REMSYN104AAXX  06091 15562 41498 22312 10136 20051 40034 52003 70200 82501 333 91120 91218 91523 555 92048 92448;
0156155620999992000040615004+43370+028470FM-12+006499999V0202301N012012200019N0200001N1+01521+00561100261ADDAY101031AY201031GF102991021051004501001001MD1310021+9999MW1021REMSYN082AAXX  06151 15562 41498 22312 10152 20056 40026 53002 70200 82500 555 92046 92448;
0179155620999992000040621004+43370+028470FM-12+006499999V0202701N010012200019N0200001N1+01121+00561100681ADDAY101031AY201031GA1001+999999999GF100991001001999999001001MD1210261+9999MW1021UA1M999999039REMSYN076AAXX  06211 15562 41998 02710 10112 20056 40068 52026 70200 555 92036 92438;
0168155620999992000040703004+43370+028470FM-12+006499999V0203201N009010042019N0200001N1+00801+00001100941ADDAY121031AY221031GF108991081051004501999999MD1210161+9999MW1021REMSYN094AAXX  07031 15562 41498 83209 10080 20000 40094 52016 70222 885// 555 10135 29056 92035 92438;
0156155620999992000040709004+43370+028470FM-12+006499999V0203201N009010042019N0200001N1+00811+00001101371ADDAY121031AY221031GF107991071051004501001001MD1210111+9999MW1021REMSYN082AAXX  07091 15562 41498 73209 10081 20000 40137 52011 70222 87500 555 92035 92438;
0156155620999992000040715004+43370+028470FM-12+006499999V0203201N006010042019N0200001N1+00971-00071101351ADDAY121031AY221031GF107991071051004501001001MD1810011+9999MW1021REMSYN082AAXX  07151 15562 41498 73206 10097 21007 40135 58001 70222 87500 555 92024 92428;
0156155620999992000040721004+43370+028470FM-12+006499999V0200501N005010042019N0200001N1+00581+00231101741ADDAY121031AY221031GF108991081051004501999999MD1310251+9999MW1021REMSYN082AAXX  07211 15562 41498 80505 10058 20023 40174 53025 70222 885// 555 92023 92428;
0168155620999992000040803004+43370+028470FM-12+006499999V0203601N003010042019N0200001N1+00441-00101101721ADDAY101031AY201031GF107991071051004501001001MD1810051+9999MW1021REMSYN094AAXX  08031 15562 41498 73603 10044 21010 40172 58005 70200 87500 555 10077 29055 92012 92418;
0156155620999992000040809004+43370+028470FM-12+006499999V0202301N007010360019N0200001N1+00751+00041101661ADDAY121031AY221031GF106991041021004501031001MD1810121+9999MW1021REMSYN082AAXX  08091 15562 41498 62307 10075 20004 40166 58012 70222 84230 555 92024 92428;
0175155620999992000040815004+43370+028470FM-12+006499999V0201801N009010042019N0200001N1+00801+00171101491ADDAY121031AY221031GF106991999051004501001001MD1710091+9999MW1021REMSYN082AAXX  08151 15562 41498 61809 10080 20017 40149 57009 70222 85500 555 92025 92428;EQDQ01+000052SCOTLC
0175155620999992000040821004+43370+028470FM-12+006499999V0201801N010012200019N0200001N1+00681+00431101531ADDAY101031AY201031GF104991999051004501001001MD1210011+9999MW1021REMSYN082AAXX  08211 15562 41498 41810 10068 20043 40153 52001 70200 83500 555 92025 92428;EQDQ01+000032SCOTLC
0168155620999992000040903004+43370+028470FM-12+006499999V0203601N009012200019N0200001N1+00621+00341101571ADDAY101031AY201031GF103991031051004501001001MD1810041+9999MW1021REMSYN094AAXX  09031 15562 41498 33609 10062 20034 40157 58004 70200 83500 555 10069 29073 92025 92428;
0156155620999992000040915004+43370+028470FM-12+006499999V0203601N004012200019N0200001N1+00801+00341101901ADDAY101031AY201031GF104991041051004501001001MD1210011+9999MW1021REMSYN082AAXX  09151 15562 41498 43604 10080 20034 40190 52001 70200 84500 555 92024 92428;
0156155620999992000040921004+43370+028470FM-12+006499999V0202301N005019999999N0200001N1+00741+00551101991ADDAY121031AY221031GF108991081051999999999999MD1210011+9999MW1021REMSYN082AAXX  09211 15562 41998 82305 10074 20055 40199 52001 70222 885// 555 92013 92418;
0168155620999992000041003004+43370+028470FM-12+006499999V0202301N002010042019N0200001N1+00681+00591101941ADDAY111031AY211031GF105991051051004501001001MD1810051+9999MW1031REMSYN094AAXX  10031 15562 41498 52302 10068 20059 40194 58005 70311 85500 555 10070 29076 92014 92418;
0146155620999992000041009004+43370+028470FM-12+006499999V0201601N005012200019N0200001N1+00891+00561101981ADDAY111031AY211031GF102991021021004501001001MD1810091+9999MW1011REMSYN072AAXX  10091 15562 41498 21605 10089 20056 40198 58009 70111 82200 92023;
0146155620999992000041015004+43370+028470FM-12+006499999V0201401N008012200019N0100001N1+00941+00451101611ADDAY101031AY201031GF103991001001999999001021MD1710241+9999MW1021REMSYN072AAXX  10151 15562 41997 31408 10094 20045 40161 57024 70200 80002 92024;
0179155620999992000041021004+43370+028470FM-12+006499999V0201401N006012200019N0200001N1+00821+00411101531ADDAY101031AY201031GA1001+999999999GF100991001001999999001001MD1210021+9999MW1021UA1M999999029REMSYN076AAXX  10211 15562 41998 01406 10082 20041 40153 52002 70200 555 92024 92428;
0168155620999992000041103004+43370+028470FM-12+006499999V0201801N003019999999N0100001N1+00721+00501101301ADDAY111031AY211031GF105991021001999999031021MD1710161+9999MW1031REMSYN094AAXX  11031 15562 41997 51803 10072 20050 40130 57016 70311 82032 555 10084 29080 92022 92427;
0156155620999992000041109004+43370+028470FM-12+006499999V0201401N003010042019N0100001N1+00981+00551101081ADDAY121031AY221031GF107991071051004501001001MD1710141+9999MW1021REMSYN082AAXX  11091 15562 41497 71403 10098 20055 40108 57014 70222 87500 555 92012 92417;
0156155620999992000041115004+43370+028470FM-12+006499999V0201401N003010360019N0100001N1+00891+00461101001ADDAY121031AY221031GF108991031051004501021999MD1710031+9999MW1021REMSYN082AAXX  11151 15562 41497 81403 10089 20046 40100 57003 70222 8352/ 555 92012 92417;
0156155620999992000041121004+43370+028470FM-12+006499999V0201401N002019999999N0200001N1+00701+00451100981ADDAY111031AY211031GF108991081051999999999999MD1310031+9999MW1031REMSYN082AAXX  11211 15562 41998 81402 10070 20045 40098 53003 70311 885// 555 92012 92418;
0156155620999992000041209004+43370+028470FM-12+006499999V0200901N002010042019N0040001N1+00981+00681100941ADDAY111031AY211031GF108991081051004501999999MD1810021+9999MW1101REMSYN082AAXX  12091 15562 41496 80902 10098 20068 40094 58002 71011 885// 555 92011 92416;
0150155620999992000041215004+43370+028470FM-12+006499999V0202701N003019999999N0001001N1+00821+00621100821ADDAY141031AY221031GF108991999999999999999999MD1710051+9999MW1471REMSYN076AAXX  12151 15562 41/91 82703 10082 20062 40082 57005 74742 555 92012 92411;
0179155620999992000041221004+43370+028470FM-12+006499999V0200201N002010001519N0001001N1+00701+00511100921ADDAY141031AY211031GA1091+999999999GF109991091999999999999999MD1210071+9999MW1471UA1M999999019REMSYN076AAXX  12211 15562 41/91 90202 10070 20051 40092 52007 74741 555 92013 92411;
0204155620999992000041303004+43370+028470FM-12+006499999V0200201N002010001519N0001001N1+00541+00381100851ADDAY141031AY241031GA1091+999999999GF109991091999999999999999KA1999M+00811MD1810091+9999MW1451UA1M999999019REMSYN088AAXX  13031 15562 41/91 90202 10054 20038 40085 58009 74544 555 10081 29087 92011 92411;
0156155620999992000041309004+43370+028470FM-12+006499999V0200501N003010360019N0100001N1+00891+00701101031ADDAY141031AY221031GF105991021021004501031001MD1210061+9999MW1021REMSYN082AAXX  13091 15562 41497 50503 10089 20070 40103 52006 70242 82230 555 92013 92417;
0179155620999992000041315004+43370+028470FM-12+006499999V0200501N002012200019N0100001N1+01001+00711100991ADDAY101031AY201031GA1001+999999999GF100991001001999999001001MD1710031+9999MW1021UA1M999999019REMSYN076AAXX  13151 15562 41997 00502 10100 20071 40099 57003 70200 555 92014 92417;
0179155620999992000041321004+43370+028470FM-12+006499999V0209999C000010001519N0001001N1+00701+00651101131ADDAY141031AY211031GA1091+999999999GF109991091999999999999999MD1210071+9999MW1451UA1M999999009REMSYN076AAXX  13211 15562 41/91 90000 10070 20065 40113 52007 74541 555 92000 92401;
0179155620999992000041409004+43370+028470FM-12+006499999V0200901N004010001519N0001001N1+00801+00711101311ADDAY141031AY241031GA1091+999999999GF109991091999999999999999MD1210061+9999MW1451UA1M999999019REMSYN076AAXX  14091 15562 41/91 90904 10080 20071 40131 52006 74544 555 92013 92411;
0179155620999992000041415004+43370+028470FM-12+006499999V0209999C000010003019N0002001N1+00861+00731101181ADDAY141031AY241031GA1091+999999999GF109991091999999999999999MD1710061+9999MW1451UA1M999999019REMSYN076AAXX  14151 15562 41/92 90000 10086 20073 40118 57006 74544 555 92013 92412;
0179155620999992000041421004+43370+028470FM-12+006499999V0202701N002010001519N0001001N1+00761+00681101211ADDAY141031AY241031GA1091+999999999GF109991091999999999999999MD1410001+9999MW1451UA1M999999019REMSYN076AAXX  14211 15562 41/91 92702 10076 20068 40121 54000 74544 555 92012 92411;
0223155620999992000041503004+43370+028470FM-12+006499999V0209999C000012200019N0200001N1+00941+00771101121ADDAY101031AY201031GA1001+999999999GF100991001001999999001001KA1999M+99999MD1410001+9999MW1021UA1M999999009REMSYN088AAXX  15031 15562 41998 00000 10094 20077 40112 54000 70200 555 10078 29090 92000 92408;EQDQ01 +00782ATMX  
0146155620999992000041509004+43370+028470FM-12+006499999V0201401N002012200019N0100001N1+01281+00971101151ADDAY111031AY211031GF102991021011004501001001MD1410001+9999MW1011REMSYN072AAXX  15091 15562 41497 21402 10128 20097 40115 54000 70111 82100 92010;
0146155620999992000041515004+43370+028470FM-12+006499999V0201401N002010042019N0100001N1+01231+00981101061ADDAY121031AY221031GF107991071051004501001001MD1810111+9999MW1021REMSYN072AAXX  15151 15562 41497 71402 10123 20098 40106 58011 70222 87500 92011;
0168155620999992000041603004+43370+028470FM-12+006499999V0201801N003010042019N0100001N1+01081+00921101041ADDAY121031AY221031GF108991081051004501999999MD1810141+9999MW1021REMSYN094AAXX  16031 15562 41497 81803 10108 20092 40104 58014 70222 885// 555 10120 29083 92012 92417;
0156155620999992000041609004+43370+028470FM-12+006499999V0202901N002010042019N0200001N1+01561+00881101121ADDAY121031AY221031GF108991081051004501999999MD1810081+9999MW1021REMSYN082AAXX  16091 15562 41498 82902 10156 20088 40112 58008 70222 885// 555 92012 92418;
0156155620999992000041615004+43370+028470FM-12+006499999V0200901N003010042019N0100001N1+01421+00881101171ADDAY121031AY221031GF107991071051004501001001MD1810051+9999MW1021REMSYN082AAXX  16151 15562 41497 70903 10142 20088 40117 58005 70222 87500 555 92012 92417;
0156155620999992000041621004+43370+028470FM-12+006499999V0209999C000010042019N0200001N1+01361+00651101331ADDAY121031AY221031GF107991071051004501001001MD1210101+9999MW1021REMSYN082AAXX  16211 15562 41498 70000 10136 20065 40133 52010 70222 87500 555 92000 92408;
0168155620999992000041703004+43370+028470FM-12+006499999V0200501N004010042019N0200001N1+01081+00881101251ADDAY121031AY221031GF106991061051004501001001MD1710061+9999MW1021REMSYN094AAXX  17031 15562 41498 60504 10108 20088 40125 57006 70222 86500 555 10102 29077 92013 92418;
0156155620999992000041709004+43370+028470FM-12+006499999V0200501N006010900019N0200001N1+01161+00931101351ADDAY121031AY221031GF106991031051004501001021MD1210031+9999MW1021REMSYN082AAXX  17091 15562 41498 60506 10116 20093 40135 52003 70222 83502 555 92024 92428;
0156155620999992000041715004+43370+028470FM-12+006499999V0200501N008010900019N0200001N1+01161+00881101121ADDAY121031AY221031GF106991031051004501001021MD1710121+9999MW1021REMSYN082AAXX  17151 15562 41498 60508 10116 20088 40112 57012 70222 83502 555 92035 92438;
0179155620999992000041721004+43370+028470FM-12+006499999V0200501N005012200019N0200001N1+01141+00681101031ADDAY101031AY201031GA1001+999999999GF100991001001999999001001MD1810141+9999MW1021UA1M999999029REMSYN076AAXX  17211 15562 41998 00505 10114 20068 40103 58014 70200 555 92024 92428;
0168155620999992000041803004+43370+028470FM-12+006499999V0203601N007012200019N0200001N1+00921+00761100851ADDAY101031AY201031GF102991021051004501001001MD1710061+9999MW1021REMSYN094AAXX  18031 15562 41498 23607 10092 20076 40085 57006 70200 82500 555 10108 29086 92034 92438;
0156155620999992000041809004+43370+028470FM-12+006499999V0200501N012012200019N0200001N1+01401+01021100821ADDAY111031AY211031GF102991001001999999001011MD1810041+9999MW1011REMSYN082AAXX  18091 15562 41998 20512 10140 20102 40082 58004 70111 80001 555 92032 92438;
0156155620999992000041815004+43370+028470FM-12+006499999V0200501N008010360019N0200001N1+01321+00971100681ADDAY121031AY221031GF106991041031004501031001MD1710051+9999MW1021REMSYN082AAXX  18151 15562 41498 60508 10132 20097 40068 57005 70222 84330 555 92036 92438;
0179155620999992000041821004+43370+028470FM-12+006499999V0203501N010012200019N0200001N1+01241+01051100431ADDAY111031AY211031GA1001+999999999GF100991001001999999001001MD1710061+9999MW1011UA1M999999039REMSYN076AAXX  18211 15562 41998 03510 10124 20105 40043 57006 70111 555 92036 92438;
0168155620999992000041903004+43370+028470FM-12+006499999V0203501N012010042019N0200001N1+01221+00851100161ADDAY111031AY211031GF107991071051004501001001MD1710151+9999MW1031REMSYN094AAXX  19031 15562 41498 73512 10122 20085 40016 57015 70311 87500 555 10124 29083 92032 92438;
0156155620999992000041909004+43370+028470FM-12+006499999V0200201N012010042019N0200001N1+01321+01041100051ADDAY121031AY221031GF108991081051004501999999MD1710111+9999MW1021REMSYN082AAXX  19091 15562 41498 80212 10132 20104 40005 57011 70222 885// 555 92036 92438;
0156155620999992000041915004+43370+028470FM-12+006499999V0203601N012010042019N0100001N1+01181+00991099991ADDAY161031AY221031GF108991081051004501999999MD1810091+9999MW1021REMSYN082AAXX  19151 15562 41497 83612 10118 20099 49999 58009 70262 885// 555 92036 92438;
0156155620999992000041921004+43370+028470FM-12+006499999V0203601N008010042019N0100001N1+01301+01111100071ADDAY121031AY221031GF108991081051004501999999MD1810081+9999MW1021REMSYN082AAXX  19211 15562 41497 83608 10130 20111 40007 58008 70222 885// 555 92036 92438;
0174155620999992000042003004+43370+028470FM-12+006499999V0203601N012010042019N0200001N1+01141+00941099841ADDAY121031AY221031GF106991061051004501001001MD1410001+9999MW1021REMSYN100AAXX  20031 15562 41498 63612 10114 20094 49984 54001 70222 86500 555 10123 29087 69934 92036 92438;
0146155620999992000042009004+43370+028470FM-12+006499999V0200201N012010360019N0100001N1+01241+01021099831ADDAY121031AY221031GF106991021011004501051001MD1310031+9999MW1021REMSYN072AAXX  20091 15562 41497 60212 10124 20102 49983 53003 70222 82150 92036;
0146155620999992000042015004+43370+028470FM-12+006499999V0203601N006010042019N0100001N1+01141+00971100101ADDAY121031AY221031GF108991081061004501999999MD1210171+9999MW1021REMSYN072AAXX  20151 15562 41497 83606 10114 20097 40010 52017 70222 886// 92035;
0179155620999992000042021004+43370+028470FM-12+006499999V0200501N003010003019N0002001N1+01061+01001100411ADDAY141031AY221031GA1091+999999999GF109991091999999999999999MD1210081+9999MW1471UA1M999999029REMSYN076AAXX  20211 15562 41/92 90503 10106 20100 40041 52008 74742 555 92023 92422;
0187155620999992000042103004+43370+028470FM-12+006499999V0203601N003010042019N0040001N1+01281+01211101452ADDAY141031AY221031GF108991081051004501999999MD1410001+9999MW1101REMSYN094AAXX  21031 15562 41496 83603 10128 20121 40145 54000 71042 885// 555 10112 29090 92022 92426;EQDQ01+101453APOSLP
0156155620999992000042109004+43370+028470FM-12+006499999V0203601N003010042019N0040001N1+01481+01341100671ADDAY161031AY221031GF108991081061004501999999MD1210161+9999MW1021REMSYN082AAXX  21091 15562 41496 83603 10148 20134 40067 52016 70262 886// 555 92013 92416;
0156155620999992000042115004+43370+028470FM-12+006499999V0203601N003010042019N0040001N1+01261+01151100771ADDAY121031AY221031GF108991081061004501999999MD1310121+9999MW1101REMSYN082AAXX  21151 15562 41496 83603 10126 20115 40077 53012 71022 886// 555 92012 92416;
0156155620999992000042121004+43370+028470FM-12+006499999V0203601N003010042019N0100001N1+01441+01111100901ADDAY191031AY281031GF108991081051004501999999MD1210051+9999MW1021REMSYN082AAXX  21211 15562 41497 83603 10144 20111 40090 52005 70298 885// 555 92012 91417;
0221155620999992000042203004+43370+028470FM-12+006499999V0203201N010012200019N0200001N1+01321+00891100821ADDAA124006091AY101031AY201031GA1001+999999999GF100991001001999999001001KA1999M+01431MD1710061+9999MW1021UA1M999999039REMSYN094AAXX  22031 15562 41998 03210 10132 20089 40082 57006 70200 555 10143 29090 60064 92035 92438;
0156155620999992000042209004+43370+028470FM-12+006499999V0203201N010010360019N0200001N1+01741+00931100991ADDAY111031AY211031GF107991021021004501031001MD1210091+9999MW1031REMSYN082AAXX  22091 15562 41498 73210 10174 20093 40099 52009 70311 82230 555 92035 92438;
0162155620999992000042215004+43370+028470FM-12+006499999V0203201N003010042019N0040001N1+01221+01141100961ADDAY181031AY221031GF108991051031004501021999MD1310031+9999MW1811REMSYN088AAXX  22151 15562 41496 83203 10122 20114 40096 53003 78182 8532/ 555 92012 92416 96010;
0156155620999992000042221004+43370+028470FM-12+006499999V0203201N006010042019N0200001N1+01221+01141101011ADDAY161031AY221031GF108991081001004501021999MD1810101+9999MW1611REMSYN082AAXX  22211 15562 41498 83206 10122 20114 40101 58010 76162 8802/ 555 92024 92428;
0174155620999992000042303004+43370+028470FM-12+006499999V0203201N002010042019N0200001N1+01221+01061101081ADDAY121031AY221031GF108991081051004501999999MD1210081+9999MW1021REMSYN100AAXX  23031 15562 41498 83202 10122 20106 40108 52008 70222 885// 555 10139 29079 60084 92011 92418;
0162155620999992000042309004+43370+028470FM-12+006499999V0203201N003010042019N0020001N1+01301+01261101121ADDAY161031AY221031GF108991051031004501021999MD1310111+9999MW1811REMSYN088AAXX  23091 15562 41495 83203 10130 20126 40112 53011 78162 8532/ 555 92012 92415 96010;
0156155620999992000042315004+43370+028470FM-12+006499999V0209999C000010042019N0200001N1+01281+01241101081ADDAY181031AY261031GF108991081001004501021999MD1410001+9999MW1211REMSYN082AAXX  23151 15562 41498 80000 10128 20124 40108 54000 72186 8802/ 555 92000 92408;
0156155620999992000042321004+43370+028470FM-12+006499999V0203201N003010042019N0100001N1+01231+01181101131ADDAY161031AY221031GF108991081051004501999999MD1210041+9999MW1021REMSYN082AAXX  23211 15562 41497 83203 10123 20118 40113 52004 70262 885// 555 92012 92417;
0174155620999992000042403004+43370+028470FM-12+006499999V0203201N002010042019N0100001N1+01221+01111100951ADDAY121031AY221031GF108991081051004501999999MD1710091+9999MW1021REMSYN100AAXX  24031 15562 41497 83202 10122 20111 40095 57009 70222 885// 555 10124 29097 60104 92012 92417;
0156155620999992000042409004+43370+028470FM-12+006499999V0209999C000010042019N0100001N1+01441+01261101111ADDAY121031AY221031GF106991061051004501001001MD1210111+9999MW1021REMSYN082AAXX  24091 15562 41497 60000 10144 20126 40111 52011 70222 86500 555 92000 92407;
0156155620999992000042415004+43370+028470FM-12+006499999V0209999C000010042019N0040001N1+01341+01201101111ADDAY121031AY221031GF107991071051004501001001MD1410001+9999MW1101REMSYN082AAXX  24151 15562 41496 70000 10134 20120 40111 54000 71022 87500 555 92000 92406;
0142155620999992000042421004+43370+028470FM-12+006499999V0200901N002010003019N0002001N1+01141+99999999999ADDGA1091+999999999GF109991091999999999999999UA1M999999019REMSYN075AAXX  24211 15562 41/92 90902 10114 2010 40120 53009 74544 555 92013 92411;
0168155620999992000042503004+43370+028470FM-12+006499999V0200501N004010042019N0040001N1+01181+01141101151ADDAY141031AY221031GF108991081061004501999999MD1810051+9999MW1101REMSYN094AAXX  25031 15562 41496 80504 10118 20114 40115 58005 71042 886// 555 10127 29094 92013 92416;
0156155620999992000042509004+43370+028470FM-12+006499999V0200701N004010001519N0001001N1+01141+01101101301ADDAY141031AY221031GA1091+999999999GF109991091999999999999999MD1210061+9999MW1471REMSYN066AAXX  25091 15562 41/91 90704 10114 20110 40130 52006 74742 92421;
0156155620999992000042515004+43370+028470FM-12+006499999V0200501N003010001519N0001001N1+01201+01171101231ADDAY141031AY221031GA1091+999999999GF109991091999999999999999MD1710031+9999MW1451REMSYN066AAXX  25151 15562 41/91 90503 10120 20117 40123 57003 74542 92421;
0179155620999992000042521004+43370+028470FM-12+006499999V0200501N003010001519N0001001N1+01001+01001101291ADDAY141031AY241031GA1091+999999999GF109991091999999999999999MD1310061+9999MW1451UA1M999999029REMSYN076AAXX  25211 15562 41/91 90503 10100 20100 40129 53006 74544 555 92024 92421;
0204155620999992000042603004+43370+028470FM-12+006499999V0200501N002010003019N0002001N1+01061+01021101251ADDAY141031AY241031GA1091+999999999GF109991091999999999999999KA1999M+01091MD1710021+9999MW1451UA1M999999029REMSYN088AAXX  26031 15562 41/92 90502 10106 20102 40125 57002 74544 555 10109 29099 92022 92421;
0156155620999992000042609004+43370+028470FM-12+006499999V0200501N004010042019N0040001N1+01081+01041101541ADDAY121031AY221031GF108991081061004501999999MD1210181+9999MW1101REMSYN082AAXX  26091 15562 41496 80504 10108 20104 40154 52018 71022 886// 555 92023 92426;
0156155620999992000042615004+43370+028470FM-12+006499999V0209999C000010042019N0040001N1+01201+01171101531ADDAY121031AY221031GF108991081061004501999999MD1810011+9999MW1101REMSYN082AAXX  26151 15562 41496 80000 10120 20117 40153 58001 71022 886// 555 92001 92406;
0185155620999992000042621004+43370+028470FM-12+006499999V0209999C000010001519N0001001N1+01081+01041101661ADDAY141031AY241031GA1091+999999999GF109991091999999999999999MD1210101+9999MW1451UA1M999999009REMSYN082AAXX  26211 15562 41/91 90000 10108 20104 40166 52010 74544 555 92003 92401 99755;
0210155620999992000042703004+43370+028470FM-12+006499999V0200501N003010001519N0001001N1+01081+01041101691ADDAY141031AY241031GA1091+999999999GF109991091999999999999999KA1999M+01091MD1310051+9999MW1451UA1M999999019REMSYN094AAXX  27031 15562 41/91 90503 10108 20104 40169 53005 74544 555 10109 29096 92012 92411 99755;
0156155620999992000042709004+43370+028470FM-12+006499999V0203601N003010042019N0100001N1+01161+01121101771ADDAY141031AY221031GF108991081051004501999999MD1410001+9999MW1021REMSYN082AAXX  27091 15562 41497 83603 10116 20112 40177 54000 70242 885// 555 92012 92417;
0179155620999992000042715004+43370+028470FM-12+006499999V0203601N003010001519N0001001N1+01161+01121101751ADDAY141031AY221031GA1091+999999999GF109991091999999999999999MD1810041+9999MW1471UA1M999999019REMSYN076AAXX  27151 15562 41/91 93603 10116 20112 40175 58004 74742 555 92013 92411;
0156155620999992000042721004+43370+028470FM-12+006499999V0209999C000010042019N0100001N1+01151+01081101791ADDAY141031AY221031GF108991081051004501999999MD1310101+9999MW1021REMSYN082AAXX  27211 15562 41497 80000 10115 20108 40179 53010 70242 885// 555 92012 92417;
0174155620999992000042803004+43370+028470FM-12+006499999V0203601N010010042019N0200001N1+01401+01021101601ADDAY121031AY221031GF107991071051004501001001MD1710061+9999MW1021REMSYN100AAXX  28031 15562 41498 73610 10140 20102 40160 57006 70222 87500 555 10113 29096 69974 92025 92428;
0156155620999992000042809004+43370+028470FM-12+006499999V0203601N005012200019N0200001N1+01741+01371101621ADDAY111031AY211031GF103991031001999999031001MD1210021+9999MW1011REMSYN082AAXX  28091 15562 41998 33605 10174 20137 40162 52002 70111 83030 555 92014 92418;
0156155620999992000042815004+43370+028470FM-12+006499999V0200201N007012200019N0200001N1+01651+01201101511ADDAY101031AY201031GF102991001001999999001011MD1710021+9999MW1021REMSYN082AAXX  28151 15562 41998 20207 10165 20120 40151 57002 70200 80001 555 92024 92428;
0179155620999992000042821004+43370+028470FM-12+006499999V0203601N007012200019N0200001N1+01751+00951101571ADDAY111031AY211031GA1001+999999999GF100991001001999999001001MD1210051+9999MW1011UA1M999999029REMSYN076AAXX  28211 15562 41998 03607 10175 20095 40157 52005 70111 555 92024 92428;
0168155620999992000042903004+43370+028470FM-12+006499999V0203201N010010042019N0200001N1+01641+01021101401ADDAY111031AY211031GF108991051051004501021999MD1710041+9999MW1031REMSYN094AAXX  29031 15562 41498 83210 10164 20102 40140 57004 70311 8552/ 555 10172 29072 92035 92438;
0156155620999992000042909004+43370+028470FM-12+006499999V0200501N010010042019N0200001N1+01601+01431101571ADDAY181031AY221031GF108991051031004501021999MD1210161+9999MW1811REMSYN082AAXX  29091 15562 41498 80510 10160 20143 40157 52016 78182 8532/ 555 92035 92438;
0156155620999992000042915004+43370+028470FM-12+006499999V0200501N010010360019N0200001N1+01681+01291101581ADDAY121031AY221031GF108991031051004501021999MD1310081+9999MW1021REMSYN082AAXX  29151 15562 41498 80510 10168 20129 40158 53008 70222 8352/ 555 92036 92438;
0179155620999992000042921004+43370+028470FM-12+006499999V0203601N008012200019N0200001N1+01821+01331101711ADDAY111031AY211031GA1001+999999999GF100991001001999999001001MD1210111+9999MW1011UA1M999999039REMSYN076AAXX  29211 15562 41998 03608 10182 20133 40171 52011 70111 555 92035 92438;
0174155620999992000043003004+43370+028470FM-12+006499999V0203601N012012200019N0100001N1+01861+01341101841ADDAY101031AY201031GF103991031051004501001001MD1210081+9999MW1021REMSYN100AAXX  30031 15562 41497 33612 10186 20134 40184 52008 70200 83500 555 10175 29073 60024 92036 92438;
0146155620999992000043009004+43370+028470FM-12+006499999V0200501N005012200019N0200001N1+01701+01381102011ADDAY101031AY201031GF103991011011004501031021MD1210091+9999MW1021REMSYN072AAXX  30091 15562 41498 30505 10170 20138 40201 52009 70200 81132 92023;
0146155620999992000043015004+43370+028470FM-12+006499999V0200501N003012200019N0200001N1+01481+01261101981ADDAY101031AY201031GF103991001001999999001051MD1810061+9999MW1021REMSYN072AAXX  30151 15562 41998 30503 10148 20126 40198 58006 70200 80005 92022;
0179155620999992000043021004+43370+028470FM-12+006499999V0200501N003012200019N0200001N1+01321+01101101911ADDAY101031AY201031GA1001+999999999GF100991001001999999001001MD1710061+9999MW1021UA1M999999019REMSYN076AAXX  30211 15562 41998 00503 10132 20110 40191 57006 70200 555 92013 92418;
0204155620999992000050103004+43370+028470FM-12+006499999V0202901N003012200019N0200001N1+01261+01191101751ADDAY101031AY201031GA1001+999999999GF100991001001999999001001KA1999M+01481MD1710061+9999MW1021UA1M999999019REMSYN088AAXX  01031 15562 41998 02903 10126 20119 40175 57006 70200 555 10148 29083 92012 92418;
0156155620999992000050109004+43370+028470FM-12+006499999V0209999C000010900019N0200001N1+01801+01061101691ADDAY111031AY211031GF106991021051004501001021MD1810071+9999MW1031REMSYN082AAXX  01091 15562 41498 60000 10180 20106 40169 58007 70311 82502 555 92000 92408;
0156155620999992000050115004+43370+028470FM-12+006499999V0202701N003010900019N0100001N1+01641+01401101511ADDAY121031AY221031GF106991021051004501001021MD1710141+9999MW1021REMSYN082AAXX  01151 15562 41497 62703 10164 20140 40151 57014 70222 82502 555 92012 92417;
0179155620999992000050121004+43370+028470FM-12+006499999V0202701N005012200019N0200001N1+01401+01221101381ADDAY101031AY201031GA1001+999999999GF100991001001999999001001MD1710041+9999MW1021UA1M999999019REMSYN076AAXX  01211 15562 41998 02705 10140 20122 40138 57004 70200 555 92013 92418;
0168155620999992000050203004+43370+028470FM-12+006499999V0209999C000010900019N0200001N1+01381+00921101221ADDAY111031AY211031GF107991031051004501001051MD1710081+9999MW1031REMSYN094AAXX  02031 15562 41498 70000 10138 20092 40122 57008 70311 83505 555 10146 29089 92000 92408;
0156155620999992000050209004+43370+028470FM-12+006499999V0203601N008010042019N0100001N1+01461+01241101401ADDAY121031AY221031GF108991081051004501999999MD1210121+9999MW1021REMSYN082AAXX  02091 15562 41497 83608 10146 20124 40140 52012 70222 885// 555 92035 92437;
0156155620999992000050215004+43370+028470FM-12+006499999V0203601N012010360019N0200001N1+01221+00641101611ADDAY121031AY221031GF106991031051004501031001MD1210241+9999MW1021REMSYN082AAXX  02151 15562 41498 63612 10122 20064 40161 52024 70222 83530 555 92036 92438;
0213155620999992000050221004+43370+028470FM-12+006499999V0200501N016010042019N0200001N1+01121+00301101971ADDAY121031AY221031GF108991081051004501999999MD1210131+9999MW1021OA149901801OA259901601UA1M999999049REMSYN104AAXX  02211 15562 41498 80516 10112 20030 40197 52013 70222 885// 333 91118 91216 91505 555 92048 92448;
0238155620999992000050303004+43370+028470FM-12+006499999V0200501N016010360019N0200001N1+00961+00151102201ADDAY121031AY221031GF106991031051004501031001KA1999M+01221MD1210091+9999MW1021OA149901801OA259901601UA1M999999049REMSYN116AAXX  03031 15562 41498 60516 10096 20015 40220 52009 70222 83530 333 91118 91216 91505 555 10122 29075 92048 92448;
0156155620999992000050309004+43370+028470FM-12+006499999V0200501N009012200019N0200001N1+01141+00191102631ADDAY101031AY201031GF102991021011004501001001MD1210221+9999MW1021REMSYN082AAXX  03091 15562 41498 20509 10114 20019 40263 52022 70200 82100 555 92046 92448;
0179155620999992000050315004+43370+028470FM-12+006499999V0200501N007012200019N0200001N1+01101+00021102531ADDAY101031AY201031GA1001+999999999GF100991001001999999001001MD1710071+9999MW1021UA1M999999039REMSYN076AAXX  03151 15562 41998 00507 10110 20002 40253 57007 70200 555 92034 92438;
0179155620999992000050321004+43370+028470FM-12+006499999V0200501N006012200019N0200001N1+00921+00021102521ADDAY101031AY201031GA1001+999999999GF100991001001999999001001MD1310041+9999MW1021UA1M999999029REMSYN076AAXX  03211 15562 41998 00506 10092 20002 40252 53004 70200 555 92025 92428;
0204155620999992000050403004+43370+028470FM-12+006499999V0200501N005012200019N0200001N1+00751+00131102451ADDAY101031AY201031GA1001+999999999GF100991001001999999001001KA1999M+01011MD1710041+9999MW1021UA1M999999019REMSYN088AAXX  04031 15562 41998 00505 10075 20013 40245 57004 70200 555 10101 29048 92014 92418;
0179155620999992000050409004+43370+028470FM-12+006499999V0200901N008012200019N0200001N1+01241+00291102521ADDAY101031AY201031GA1001+999999999GF100991001001999999001001MD1410001+9999MW1021UA1M999999029REMSYN076AAXX  04091 15562 41998 00908 10124 20029 40252 54000 70200 555 92024 92428;
0179155620999992000050415004+43370+028470FM-12+006499999V0200501N004012200019N0200001N1+01241+00191102311ADDAY101031AY201031GA1001+999999999GF100991001001999999001001MD1710141+9999MW1021UA1M999999029REMSYN076AAXX  04151 15562 41998 00504 10124 20019 40231 57014 70200 555 92024 92428;
0179155620999992000050421004+43370+028470FM-12+006499999V0209999C000012200019N0200001N1+00941+00111102151ADDAY101031AY201031GA1001+999999999GF100991001001999999001001MD1710091+9999MW1021UA1M999999019REMSYN076AAXX  04211 15562 41998 00000 10094 20011 40215 57009 70200 555 92013 92418;
0204155620999992000050503004+43370+028470FM-12+006499999V0200501N002012200019N0200001N1+00921-00101102061ADDAY101031AY201031GA1001+999999999GF100991001001999999001001KA1999M+01021MD1710041+9999MW1021UA1M999999019REMSYN088AAXX  05031 15562 41998 00502 10092 21010 40206 57004 70200 555 10102 29055 92012 92418;
0156155620999992000050509004+43370+028470FM-12+006499999V0200501N004012200019N0200001N1+01441+00981102001ADDAY101031AY201031GA1001+999999999GF100991001001999999001001MD1310021+9999MW1021REMSYN066AAXX  05091 15562 41998 00504 10144 20098 40200 53002 70200 92418;
0156155620999992000050515004+43370+028470FM-12+006499999V0200701N007012200019N0200001N1+01381+00781101981ADDAY101031AY201031GA1001+999999999GF100991001001999999001001MD1810021+9999MW1021REMSYN066AAXX  05151 15562 41998 00707 10138 20078 40198 58002 70200 92428;
0179155620999992000050521004+43370+028470FM-12+006499999V0200901N003012200019N0200001N1+01041+00561102041ADDAY101031AY201031GA1001+999999999GF100991001001999999001001MD1310081+9999MW1021UA1M999999029REMSYN076AAXX  05211 15562 41998 00903 10104 20056 40204 53008 70200 555 92023 92428;
0204155620999992000050603004+43370+028470FM-12+006499999V0203601N003012200019N0200001N1+00881+00431101901ADDAY101031AY201031GA1001+999999999GF100991001001999999001001KA1999M+01151MD1710031+9999MW1021UA1M999999029REMSYN088AAXX  06031 15562 41998 03603 10088 20043 40190 57003 70200 555 10115 29062 92022 92428;
0185155620999992000050609004+43370+028470FM-12+006499999V0202701N004012200019N0200001N1+01341+00641102051ADDAY101031AY201031GA1001+999999999GF100991001001999999001001MD1210031+9999MW1021UA1M999999019REMSYN082AAXX  06091 15562 41498 02704 10134 20064 40205 52003 70200 81100 555 92013 92418;
0179155620999992000050615004+43370+028470FM-12+006499999V0202701N003012200019N0200001N1+01541+00931101961ADDAY101031AY201031GA1001+999999999GF100991001001999999001001MD1810081+9999MW1021UA1M999999019REMSYN076AAXX  06151 15562 41998 02703 10154 20093 40196 58008 70200 555 92013 92418;
0179155620999992000050621004+43370+028470FM-12+006499999V0202701N002012200019N0200001N1+01321+00971101941ADDAY101031AY201031GA1001+999999999GF100991001001999999001001MD1710011+9999MW1021UA1M999999019REMSYN076AAXX  06211 15562 41998 02702 10132 20097 40194 57001 70200 555 92013 92418;
0204155620999992000050703004+43370+028470FM-12+006499999V0202701N003012200019N0200001N1+01241+00801101771ADDAY101031AY201031GA1001+999999999GF100991001001999999001001KA1999M+01361MD1410001+9999MW1021UA1M999999019REMSYN088AAXX  07031 15562 41998 02703 10124 20080 40177 54000 70200 555 10136 29066 92012 92418;
0156155620999992000050709004+43370+028470FM-12+006499999V0202701N004012200019N0200001N1+01611+01111102021ADDAY101031AY201031GF102991021011004501001001MD1210031+9999MW1021REMSYN082AAXX  07091 15562 41498 22704 10161 20111 40202 52003 70200 82100 555 92013 92418;
0156155620999992000050715004+43370+028470FM-12+006499999V0202301N005010360019N0100001N1+01581+01181101931ADDAY111031AY211031GF106991031051004501031001MD1710031+9999MW1031REMSYN082AAXX  07151 15562 41497 62305 10158 20118 40193 57003 70311 83530 555 92023 92427;
0156155620999992000050721004+43370+028470FM-12+006499999V0202701N004010042019N0200001N1+01521+00941101991ADDAY111031AY211031GF106991061051004501001001MD1310061+9999MW1031REMSYN082AAXX  07211 15562 41498 62704 10152 20094 40199 53006 70311 86500 555 92013 92418;
0168155620999992000050803004+43370+028470FM-12+006499999V0200501N008012200019N0200001N1+01241+00761102381ADDAY101031AY201031GF104991021051004501031001MD1210241+9999MW1021REMSYN094AAXX  08031 15562 41498 40508 10124 20076 40238 52024 70200 82530 555 10150 29064 92035 92438;
0156155620999992000050809004+43370+028470FM-12+006499999V0200501N008012200019N0200001N1+01441+00511102721ADDAY101031AY201031GF102991021001999999031001MD1210141+9999MW1021REMSYN082AAXX  08091 15562 41998 20508 10144 20051 40272 52014 70200 82030 555 92035 92438;
0179155620999992000050815004+43370+028470FM-12+006499999V0203601N004012200019N0200001N1+01301+00581102651ADDAY101031AY201031GA1001+999999999GF100991001001999999001001MD1810111+9999MW1021UA1M999999029REMSYN076AAXX  08151 15562 41998 03604 10130 20058 40265 58011 70200 555 92024 92428;
0204155620999992000050903004+43370+028470FM-12+006499999V0201801N004012200019N0200001N1+01101+00811102451ADDAY101031AY201031GA1001+999999999GF100991001001999999001001KA1999M+01241MD1710101+9999MW1021UA1M999999019REMSYN088AAXX  09031 15562 41998 01804 10110 20081 40245 57010 70200 555 10124 29067 92013 92418;
0179155620999992000050909004+43370+028470FM-12+006499999V0202001N003012200019N0200001N1+01341+00781102571ADDAY101031AY201031GA1001+999999999GF100991001001999999001001MD1210061+9999MW1021UA1M999999029REMSYN076AAXX  09091 15562 41998 02003 10134 20078 40257 52006 70200 555 92023 92428;
0179155620999992000050921004+43370+028470FM-12+006499999V0201801N007012200019N0200001N1+01221+00771102361ADDAY101031AY201031GA1001+999999999GF100991001001999999001001MD1710041+9999MW1021UA1M999999029REMSYN076AAXX  09211 15562 41998 01807 10122 20077 40236 57004 70200 555 92024 92428;
0168155620999992000051003004+43370+028470FM-12+006499999V0202301N005012200019N0200001N1+01241+01091102221ADDAY101031AY201031GF101991011021004501001001MD1710111+9999MW1021REMSYN094AAXX  10031 15562 41498 12305 10124 20109 40222 57011 70200 81200 555 10122 29073 92023 92428;
0179155620999992000051009004+43370+028470FM-12+006499999V0202301N004012200019N0200001N1+01601+01121102221ADDAY101031AY201031GA1001+999999999GF100991001001999999001001MD1810031+9999MW1021UA1M999999029REMSYN076AAXX  10091 15562 41998 02304 10160 20112 40222 58003 70200 555 92023 92428;
0179155620999992000051015004+43370+028470FM-12+006499999V0202301N004012200019N0200001N1+01701+01351101921ADDAY101031AY201031GA1001+999999999GF100991001001999999001001MD1710191+9999MW1021UA1M999999029REMSYN076AAXX  10151 15562 41998 02304 10170 20135 40192 57019 70200 555 92024 92428;
0179155620999992000051021004+43370+028470FM-12+006499999V0202301N005012200019N0200001N1+01521+01151101861ADDAY101031AY201031GA1001+999999999GF100991001001999999001001MD1710051+9999MW1021UA1M999999029REMSYN076AAXX  10211 15562 41998 02305 10152 20115 40186 57005 70200 555 92023 92428;
0168155620999992000051103004+43370+028470FM-12+006499999V0202301N004012200019N0200001N1+01481+01261101711ADDAY101031AY201031GF102991021051004501001001MD1710051+9999MW1021REMSYN094AAXX  11031 15562 41498 22304 10148 20126 40171 57005 70200 82500 555 10175 29083 92023 92428;
0156155620999992000051109004+43370+028470FM-12+006499999V0202701N004012200019N0200001N1+01781+01361101611ADDAY101031AY201031GF102991021021004501001001MD1810091+9999MW1021REMSYN082AAXX  11091 15562 41498 22704 10178 20136 40161 58009 70200 82200 555 92013 92418;
0213155620999992000051121004+43370+028470FM-12+006499999V0202701N010012200019N0200001N1+01741+01431101331ADDAY191031AY281031GF102991021051004501001001MD1410001+9999MW1011OA149902001OA259901801UA1M999999039REMSYN104AAXX  11211 15562 41498 22710 10174 20143 40133 54000 70198 82500 333 91120 91218 91532 555 92035 92438;
0179155620999992000051209004+43370+028470FM-12+006499999V0203201N004012200019N0200001N1+01881+01581101401ADDAY101031AY201031GA1001+999999999GF100991001001999999001001MD1210071+9999MW1021UA1M999999019REMSYN076AAXX  12091 15562 41498 03204 10188 20158 40140 52007 70200 555 92013 92418;
0156155620999992000051215004+43370+028470FM-12+006499999V0202701N004012200019N0200001N1+02081+01631101251ADDAY101031AY201031GF103991031021004501001001MD1710091+9999MW1021REMSYN082AAXX  12151 15562 41498 32704 10208 20163 40125 57009 70200 83200 555 92013 92418;
0179155620999992000051221004+43370+028470FM-12+006499999V0202701N005012200019N0200001N1+01821+01581101321ADDAY111031AY211031GA1001+999999999GF100991001001999999001001MD1210031+9999MW1011UA1M999999019REMSYN076AAXX  12211 15562 41998 02705 10182 20158 40132 52003 70111 555 92013 92418;
0174155620999992000051303004+43370+028470FM-12+006499999V0200501N014010042019N0200001N1+01181+00941101661ADDAY191031AY281031GF106991051021004501001011MD1210061+9999MW1251REMSYN100AAXX  13031 15562 41498 60514 10118 20094 40166 52006 72598 85201 555 10188 29078 60024 92037 92438;
0156155620999992000051309004+43370+028470FM-12+006499999V0200901N006010360019N0200001N1+01481+00761102121ADDAY121031AY221031GF106991021021004501031051MD1210251+9999MW1021REMSYN082AAXX  13091 15562 41498 60906 10148 20076 40212 52025 70222 82235 555 92035 92438;
0156155620999992000051315004+43370+028470FM-12+006499999V0201401N005010042019N0200001N1+01351+00741102171ADDAY121031AY221031GF107991051051004501031001MD1810011+9999MW1021REMSYN082AAXX  13151 15562 41498 71405 10135 20074 40217 58001 70222 85530 555 92033 92438;
0156155620999992000051321004+43370+028470FM-12+006499999V0200901N004012200019N0100001N1+01181+00641102341ADDAY111031AY211031GF102991021001999999031001MD1210041+9999MW1011REMSYN082AAXX  13211 15562 41997 20904 10118 20064 40234 52004 70111 82030 555 92024 92427;
0174155620999992000051403004+43370+028470FM-12+006499999V0202701N003019999999N0100001N1+01101+00811102351ADDAY111031AY211031GF105991001001999999001021MD1310011+9999MW1031REMSYN100AAXX  14031 15562 41997 52703 10110 20081 40235 53001 70311 80002 555 10129 29069 55555 92012 92417;
0156155620999992000051409004+43370+028470FM-12+006499999V0202301N003010900019N0200001N1+01561+00621102391ADDAY121031AY221031GF106991021051004501001021MD1410001+9999MW1021REMSYN082AAXX  14091 15562 41498 62303 10156 20062 40239 54000 70222 82502 555 92012 92418;
0156155620999992000051415004+43370+028470FM-12+006499999V0202301N005010900019N0200001N1+01501+00681102131ADDAY121031AY221031GF107991021051004501001051MD1710181+9999MW1021REMSYN082AAXX  14151 15562 41498 72305 10150 20068 40213 57018 70222 82505 555 92023 92428;
0179155620999992000051421004+43370+028470FM-12+006499999V0202301N007012200019N0200001N1+01401+00981102151ADDAY101031AY201031GA1001+999999999GF100991001001999999001001MD1310041+9999MW1021UA1M999999039REMSYN076AAXX  14211 15562 41998 02307 10140 20098 40215 53004 70200 555 92034 92438;
0168155620999992000051503004+43370+028470FM-12+006499999V0202301N002010042019N0200001N1+01401+00711102041ADDAY111031AY211031GF106991061051004501001001MD1710051+9999MW1031REMSYN094AAXX  15031 15562 41498 62302 10140 20071 40204 57005 70311 86500 555 10143 29066 92014 92418;
0156155620999992000051509004+43370+028470FM-12+006499999V0209999C000012200019N0200001N1+01961+01181102101ADDAY101031AY201031GF101991011011004501001001MD1210041+9999MW1021REMSYN082AAXX  15091 15562 41498 10000 10196 20118 40210 52004 70200 81100 555 92001 92408;
0156155620999992000051515004+43370+028470FM-12+006499999V0209999C000012200019N0200001N1+01901+01421102041ADDAY101031AY201031GF102991021021004501001001MD1810061+9999MW1021REMSYN082AAXX  15151 15562 41498 20000 10190 20142 40204 58006 70200 82200 555 92001 92408;
0179155620999992000051521004+43370+028470FM-12+006499999V0203201N002012200019N0200001N1+01561+01351102021ADDAY101031AY201031GA1001+999999999GF100991001001999999001001MD1710011+9999MW1021UA1M999999019REMSYN076AAXX  15211 15562 41998 03202 10156 20135 40202 57001 70200 555 92012 92418;
0168155620999992000051603004+43370+028470FM-12+006499999V0209999C000012200019N0200001N1+01501+01281101951ADDAY101031AY201031GF102991021051004501001001MD1810091+9999MW1021REMSYN094AAXX  16031 15562 41498 20000 10150 20128 40195 58009 70200 82500 555 10163 29073 92002 92408;
0179155620999992000051609004+43370+028470FM-12+006499999V0201401N002012200019N0200001N1+01921+01121101971ADDAY101031AY201031GA1001+999999999GF100991001001999999001001MD1410001+9999MW1021UA1M999999009REMSYN076AAXX  16091 15562 41998 01402 10192 20112 40197 54000 70200 555 92002 92408;
0179155620999992000051615004+43370+028470FM-12+006499999V0201801N004012200019N0200001N1+01901+01361101731ADDAY101031AY201031GA1001+999999999GF100991001001999999001001MD1710141+9999MW1021UA1M999999019REMSYN076AAXX  16151 15562 41998 01804 10190 20136 40173 57014 70200 555 92013 92418;
0179155620999992000051621004+43370+028470FM-12+006499999V0202301N004012200019N0200001N1+01641+01471101671ADDAY101031AY201031GA1001+999999999GF100991001001999999001001MD1710021+9999MW1021UA1M999999019REMSYN076AAXX  16211 15562 41998 02304 10164 20147 40167 57002 70200 555 92014 92418;
0168155620999992000051703004+43370+028470FM-12+006499999V0200501N006012200019N0200001N1+01621+00801101401ADDAY101031AY201031GF104991041051004501001001MD1710151+9999MW1021REMSYN094AAXX  17031 15562 41498 40506 10162 20080 40140 57015 70200 84500 555 10175 29074 92014 92418;
0162155620999992000051709004+43370+028470FM-12+006499999V0200701N003010900019N0200001N1+01971+01321101551ADDAY111031AY211031GF106991021021004501001021MD1210021+9999MW1031REMSYN088AAXX  17091 15562 41498 60703 10197 20132 40155 52002 70311 82202 555 92012 92418 99263;
0156155620999992000051715004+43370+028470FM-12+006499999V0200501N003012200019N0200001N1+01701+01501101501ADDAY101031AY201031GF102991001001999999001011MD1710041+9999MW1021REMSYN082AAXX  17151 15562 41998 20503 10170 20150 40150 57004 70200 80001 555 92023 92428;
0179155620999992000051721004+43370+028470FM-12+006499999V0203601N003012200019N0200001N1+01381+01081101571ADDAY101031AY201031GA1001+999999999GF100991001001999999001001MD1310061+9999MW1021UA1M999999029REMSYN076AAXX  17211 15562 41998 03603 10138 20108 40157 53006 70200 555 92023 92428;
0168155620999992000051803004+43370+028470FM-12+006499999V0200501N004012200019N0100001N1+01361+01221101361ADDAY101031AY201031GF101991011021004501001001MD1710081+9999MW1021REMSYN094AAXX  18031 15562 41497 10504 10136 20122 40136 57008 70200 81200 555 10162 29080 92013 92417;
0156155620999992000051809004+43370+028470FM-12+006499999V0200501N002012200019N0100001N1+01801+01421101051ADDAY101031AY201031GF101991011011004501001001MD1410001+9999MW1021REMSYN082AAXX  18091 15562 41497 10502 10180 20142 40105 54000 70200 81100 555 92001 92407;
0179155620999992000051815004+43370+028470FM-12+006499999V0209999C000012200019N0200001N1+01701+01271101341ADDAY101031AY201031GA1001+999999999GF100991001001999999001001MD1810081+9999MW1021UA1M999999009REMSYN076AAXX  18151 15562 41998 00000 10170 20127 40134 58008 70200 555 92000 92408;
0150155620999992000051821004+43370+028470FM-12+006499999V0200501N002012200019N0200001N1+01441+01221101351ADDAY101031AY201031GF102991999999004501999999MD1310021+9999MW1021REMSYN076AAXX  18211 15562 41498 20502 10144 20122 40135 53002 70200 555 92002 92408;
0168155620999992000051903004+43370+028470FM-12+006499999V0209999C000012200019N0200001N1+01401+01141101231ADDAY101031AY201031GF102991021051004501001001MD1810121+9999MW1021REMSYN094AAXX  19031 15562 41498 20000 10140 20114 40123 58012 70200 82500 555 10156 29084 92002 92408;
0156155620999992000051909004+43370+028470FM-12+006499999V0202701N003010042019N0200001N1+01681+01211101231ADDAY121031AY221031GF106991061021004501001001MD1410001+9999MW1021REMSYN082AAXX  19091 15562 41498 62703 10168 20121 40123 54000 70222 86200 555 92012 92418;
0179155620999992000051915004+43370+028470FM-12+006499999V0201801N005012200019N0200001N1+01621+01221101071ADDAY111031AY211031GA1001+999999999GF100991001001999999001001MD1710131+9999MW1011UA1M999999029REMSYN076AAXX  19151 15562 41998 01805 10162 20122 40107 57013 70111 555 92023 92428;
0156155620999992000051921004+43370+028470FM-12+006499999V0202301N005012200019N0200001N1+01561+01381101001ADDAY111031AY211031GF103991031051004501001001MD1410001+9999MW1011REMSYN082AAXX  19211 15562 41498 32305 10156 20138 40100 54000 70111 83500 555 92023 92428;
0168155620999992000052003004+43370+028470FM-12+006499999V0202301N006010042019N0100001N1+01601+01431100801ADDAY111031AY211031GF108991081051004501999999MD1710131+9999MW1031REMSYN094AAXX  20031 15562 41497 82306 10160 20143 40080 57013 70311 885// 555 10157 29083 92024 92427;
0179155620999992000052009004+43370+028470FM-12+006499999V0202301N004012200019N0100001N1+01961+01631100801ADDAY111031AY211031GA1001+999999999GF100991001001999999001001MD1410001+9999MW1011UA1M999999019REMSYN076AAXX  20091 15562 41997 02304 10196 20163 40080 54000 70111 555 92013 92417;
0156155620999992000052015004+43370+028470FM-12+006499999V0203201N004010042019N0200001N1+01981+01511100741ADDAY191031AY211031GF106991061051004501001001MD1710051+9999MW1031REMSYN082AAXX  20151 15562 41498 63204 10198 20151 40074 57005 70391 86500 555 92023 92428;
0156155620999992000052021004+43370+028470FM-12+006499999V0209999C000010042019N0200001N1+01841+01611100711ADDAY121031AY221031GF106991061051004501001001MD1410001+9999MW1021REMSYN082AAXX  20211 15562 41498 60000 10184 20161 40071 54000 70222 86500 555 92013 92418;
0168155620999992000052103004+43370+028470FM-12+006499999V0202701N005010042019N0200001N1+01801+01571100631ADDAY121031AY221031GF105991051051004501001001MD1410001+9999MW1021REMSYN094AAXX  21031 15562 41498 52705 10180 20157 40063 54000 70222 85500 555 10186 29074 92013 92418;
0156155620999992000052109004+43370+028470FM-12+006499999V0202901N004012200019N0200001N1+02221+01451100831ADDAY101031AY201031GF102991021011004501001001MD1210101+9999MW1021REMSYN082AAXX  21091 15562 41498 22904 10222 20145 40083 52010 70200 82100 555 92023 92428;
0156155620999992000052115004+43370+028470FM-12+006499999V0202901N012012200019N0200001N1+02221+01121100891ADDAY111031AY211031GF101991011011004501001001MD1210011+9999MW1011REMSYN082AAXX  21151 15562 41498 12912 10222 20112 40089 52001 70111 81100 555 92036 92438;
0146155620999992000052121004+43370+028470FM-12+006499999V0202901N005012200019N0200001N1+01781+00671101231ADDAY111031AY211031GF103991031051004501001001MD1210141+9999MW1011REMSYN072AAXX  21211 15562 41498 32905 10178 20067 40123 52014 70111 83500 92023;
0204155620999992000052203004+43370+028470FM-12+006499999V0203201N007012200019N0200001N1+01401+00401101381ADDAY101031AY201031GA1001+999999999GF100991001001999999001001KA1999M+01961MD1210071+9999MW1021UA1M999999029REMSYN088AAXX  22031 15562 41998 03207 10140 20040 40138 52007 70200 555 10196 29061 92024 92428;
0179155620999992000052209004+43370+028470FM-12+006499999V0209999C000012200019N0200001N1+02001+00921101521ADDAY101031AY201031GA1001+999999999GF100991001001999999001001MD1410001+9999MW1021UA1M999999009REMSYN076AAXX  22091 15562 41998 00000 10200 20092 40152 54000 70200 555 92000 92408;
0156155620999992000052215004+43370+028470FM-12+006499999V0201801N003012200019N0200001N1+01911+01431101381ADDAY101031AY201031GF102991021051004501001001MD1710111+9999MW1021REMSYN082AAXX  22151 15562 41498 21803 10191 20143 40138 57011 70200 82500 555 92012 92418;
0156155620999992000052221004+43370+028470FM-12+006499999V0202301N010010042019N0200001N1+01821+01181101341ADDAY191031AY211031GF108991051091004501031999MD1310011+9999MW1171REMSYN082AAXX  22211 15562 41498 82310 10182 20118 40134 53001 71791 8593/ 555 92035 92438;
0168155620999992000052303004+43370+028470FM-12+006499999V0202701N005010042019N0200001N1+01701+01421101271ADDAY121031AY221031GF105991051051004501001001MD1310031+9999MW1021REMSYN094AAXX  23031 15562 41498 52705 10170 20142 40127 53003 70222 85500 555 10185 29070 92023 92428;
0156155620999992000052309004+43370+028470FM-12+006499999V0202701N007010042019N0200001N1+02001+01201101411ADDAY111031AY211031GF105991051021004501001001MD1210121+9999MW1031REMSYN082AAXX  23091 15562 41498 52707 10200 20120 40141 52012 70311 85200 555 92035 92438;
0156155620999992000052315004+43370+028470FM-12+006499999V0202701N007010360019N0200001N1+01961+01021101281ADDAY121031AY221031GF106991021051004501031001MD1710051+9999MW1021REMSYN082AAXX  23151 15562 41498 62707 10196 20102 40128 57005 70222 82530 555 92035 92438;
0156155620999992000052321004+43370+028470FM-12+006499999V0202701N008010042019N0200001N1+01721+00971101321ADDAY121031AY221031GF108991081051004501999999MD1410001+9999MW1021REMSYN082AAXX  23211 15562 41498 82708 10172 20097 40132 54000 70222 885// 555 92035 92438;
0168155620999992000052403004+43370+028470FM-12+006499999V0203201N012010360019N0200001N1+01501+00701101181ADDAY121031AY221031GF107991041051004501031001MD1810171+9999MW1021REMSYN094AAXX  24031 15562 41498 73212 10150 20070 40118 58017 70222 84530 555 10185 29065 92036 92438;
0156155620999992000052409004+43370+028470FM-12+006499999V0203601N010010042019N0200001N1+01441+01031101331ADDAY121031AY221031GF108991081051004501999999MD1210101+9999MW1021REMSYN082AAXX  24091 15562 41498 83610 10144 20103 40133 52010 70222 885// 555 92035 92438;
0156155620999992000052415004+43370+028470FM-12+006499999V0203601N006010042019N0200001N1+01701+00991101411ADDAY121031AY221031GF107991051051004501031001MD1810031+9999MW1021REMSYN082AAXX  24151 15562 41498 73606 10170 20099 40141 58003 70222 85530 555 92024 92428;
0156155620999992000052421004+43370+028470FM-12+006499999V0203201N012010042019N0200001N1+01341+01081101391ADDAY161031AY221031GF108991061031004501021999MD1410001+9999MW1611REMSYN082AAXX  24211 15562 41498 83212 10134 20108 40139 54000 76162 8632/ 555 92036 92438;
0174155620999992000052503004+43370+028470FM-12+006499999V0203201N008010042019N0100001N1+01381+01121101311ADDAY161031AY261031GF108991081001004501021999MD1710021+9999MW1611REMSYN100AAXX  25031 15562 41497 83208 10138 20112 40131 57002 76166 8802/ 555 10147 29071 60064 92036 92438;
0146155620999992000052509004+43370+028470FM-12+006499999V0203601N012010042019N0200001N1+01681+01361101401ADDAY121031AY221031GF108991081051004501999999MD1210071+9999MW1021REMSYN072AAXX  25091 15562 41498 83612 10168 20136 40140 52007 70222 885// 92036;
0156155620999992000052515004+43370+028470FM-12+006499999V0203601N007010360019N0200001N1+02021+01171101511ADDAY121031AY221031GF107991031051004501031001MD1210091+9999MW1021REMSYN082AAXX  25151 15562 41498 73607 10202 20117 40151 52009 70222 83530 555 92024 92428;
0179155620999992000052521004+43370+028470FM-12+006499999V0203201N010012200019N0200001N1+01821+01251101511ADDAY111031AY211031GA1001+999999999GF100991001001999999001001MD1410001+9999MW1011UA1M999999029REMSYN076AAXX  25211 15562 41998 03210 10182 20125 40151 54000 70111 555 92025 92428;
0204155620999992000052603004+43370+028470FM-12+006499999V0203601N012012200019N0200001N1+01721+00971101591ADDAY101031AY201031GA1001+999999999GF100991001001999999001001KA1999M+01771MD1310081+9999MW1021UA1M999999039REMSYN088AAXX  26031 15562 41998 03612 10172 20097 40159 53008 70200 555 10177 29077 92036 92438;
0156155620999992000052609004+43370+028470FM-12+006499999V0200201N007012200019N0200001N1+02251+01061101771ADDAY101031AY201031GF102991021021004501001001MD1210091+9999MW1021REMSYN082AAXX  26091 15562 41498 20207 10225 20106 40177 52009 70200 82200 555 92024 92428;
0179155620999992000052615004+43370+028470FM-12+006499999V0200501N003012200019N0200001N1+02001+01201101811ADDAY101031AY201031GA1001+999999999GF100991001001999999001001MD1210021+9999MW1021UA1M999999019REMSYN076AAXX  26151 15562 41998 00503 10200 20120 40181 52002 70200 555 92013 92418;
0204155620999992000052703004+43370+028470FM-12+006499999V0209999C000012200019N0200001N1+01641+00861101941ADDAY101031AY201031GA1001+999999999GF100991001001999999001001KA1999M+01981MD1210011+9999MW1021UA1M999999009REMSYN088AAXX  27031 15562 41998 00000 10164 20086 40194 52001 70200 555 10198 29057 92000 92408;
0156155620999992000052709004+43370+028470FM-12+006499999V0209999C000012200019N0200001N1+02121+01121101981ADDAY101031AY201031GF101991011011004501001001MD1210021+9999MW1021REMSYN082AAXX  27091 15562 41498 10000 10212 20112 40198 52002 70200 81100 555 92000 92408;
0179155620999992000052721004+43370+028470FM-12+006499999V0209999C000012200019N0200001N1+01801+01341101901ADDAY101031AY201031GA1001+999999999GF100991001001999999001001MD1710021+9999MW1021UA1M999999009REMSYN076AAXX  27211 15562 41998 00000 10180 20134 40190 57002 70200 555 92001 92408;
0204155620999992000052803004+43370+028470FM-12+006499999V0203601N003012200019N0200001N1+01801+01061101871ADDAY101031AY201031GA1001+999999999GF100991001001999999001001KA1999M+01951MD1310021+9999MW1021UA1M999999019REMSYN088AAXX  28031 15562 41998 03603 10180 20106 40187 53002 70200 555 10195 29069 92012 92418;
0282155620999992000052806004+43370+028470FM-12+006499999V0200501N004012200019N0200001N1+02021+01561101921ADDAA199000091AY101061AY201061GA1001+999999999GF100991001001999999001001GJ108709IA1019IA2999+01009KA1120N+01701MD1210061+9999MW1021UA1M990009019REMSYN110AAXX  28061 15562 31998 00504 10202 20156 40192 52006 70200 222// 2//00 333 20170 55145 555 30010 92013 92418;EQDQ01  00002PRCP99
0156155620999992000052809004+43370+028470FM-12+006499999V0200901N004012200019N0200001N1+02201+01341101871ADDAY101031AY201031GF102991001001999999001011MD1810041+9999MW1021REMSYN082AAXX  28091 15562 41998 20904 10220 20134 40187 58004 70200 80001 555 92013 92418;
0156155620999992000052815004+43370+028470FM-12+006499999V0200701N006012200019N0200001N1+02081+01741101641ADDAY101031AY201031GF102991001001999999001011MD1710141+9999MW1021REMSYN082AAXX  28151 15562 41998 20706 10208 20174 40164 57014 70200 80001 555 92024 92428;
0179155620999992000052821004+43370+028470FM-12+006499999V0209999C000012200019N0200001N1+01701+01601101641ADDAY101031AY201031GA1001+999999999GF100991001001999999001001MD1410001+9999MW1021UA1M999999019REMSYN076AAXX  28211 15562 41998 00000 10170 20160 40164 54000 70200 555 92013 92418;
0204155620999992000052903004+43370+028470FM-12+006499999V0209999C000012200019N0200001N1+01761+00881101341ADDAY101031AY201031GA1001+999999999GF100991001001999999001001KA1999M+01921MD1710171+9999MW1021UA1M999999009REMSYN088AAXX  29031 15562 41998 00000 10176 20088 40134 57017 70200 555 10192 29077 92000 92408;
0179155620999992000052909004+43370+028470FM-12+006499999V0200501N002012200019N0200001N1+02181+01691101351ADDAY101031AY201031GA1001+999999999GF100991001001999999001001MD1810061+9999MW1021UA1M999999019REMSYN076AAXX  29091 15562 41998 00502 10218 20169 40135 58006 70200 555 92012 92428;
0156155620999992000052915004+43370+028470FM-12+006499999V0200701N003012200019N0200001N1+02081+01651101151ADDAY101031AY201031GF101991011021004501001001MD1710141+9999MW1021REMSYN082AAXX  29151 15562 41498 10703 10208 20165 40115 57014 70200 81200 555 92012 92418;
0179155620999992000052921004+43370+028470FM-12+006499999V0202901N003012200019N0200001N1+01831+01751101141ADDAY101031AY201031GA1001+999999999GF100991001001999999001001MD1810021+9999MW1021UA1M999999019REMSYN076AAXX  29211 15562 41998 02903 10183 20175 40114 58002 70200 555 92012 92418;
0210155620999992000053003004+43370+028470FM-12+006499999V0203601N002012200019N0200001N1+01701+01621101071ADDAY101031AY201031GA1001+999999999GF100991001001999999001001KA1999M+01961MD1410001+9999MW1021UA1M999999019REMSYN094AAXX  30031 15562 41498 03602 10170 20162 40107 54000 70200 81100 555 10196 29085 92011 92418;
0156155620999992000053009004+43370+028470FM-12+006499999V0202701N002012200019N0100001N1+02161+01641101231ADDAY101031AY201031GF103991021051004501001021MD1210081+9999MW1021REMSYN082AAXX  30091 15562 41497 32702 10216 20164 40123 52008 70200 82502 555 92001 92407;
0156155620999992000053015004+43370+028470FM-12+006499999V0209999C000010042019N0200001N1+02001+01681101151ADDAY121031AY221031GF108991081051004501999999MD1410001+9999MW1021REMSYN082AAXX  30151 15562 41498 80000 10200 20168 40115 54000 70222 885// 555 92000 92408;
0156155620999992000053021004+43370+028470FM-12+006499999V0203201N004019999999N0200001N1+01841+01351101291ADDAY121031AY221031GF108991081051999999999999MD1310131+9999MW1021REMSYN082AAXX  30211 15562 41998 83204 10184 20135 40129 53013 70222 885// 555 92013 92418;
0174155620999992000053103004+43370+028470FM-12+006499999V0203201N010010042019N0200001N1+01441+01191101441ADDAY121031AY221031GF107991071051004501001001MD1210011+9999MW1021REMSYN100AAXX  31031 15562 41498 73210 10144 20119 40144 52001 70222 87500 555 10221 29075 60024 92035 92438;
0156155620999992000053109004+43370+028470FM-12+006499999V0203201N002012200019N0200001N1+02141+01271101621ADDAY111031AY211031GF103991021051004501031001MD1210131+9999MW1011REMSYN082AAXX  31091 15562 41498 33202 10214 20127 40162 52013 70111 82530 555 92015 92418;
0156155620999992000053115004+43370+028470FM-12+006499999V0201801N004012200019N0200001N1+01901+01231101511ADDAY111031AY211031GF103991021051004501001011MD1710071+9999MW1011REMSYN082AAXX  31151 15562 41498 31804 10190 20123 40151 57007 70111 82501 555 92023 92428;
0156155620999992000053121004+43370+028470FM-12+006499999V0201801N003010042019N0200001N1+01721+01451101561ADDAY111031AY211031GF108991081051004501999999MD1310041+9999MW1031REMSYN082AAXX  31211 15562 41498 81803 10172 20145 40156 53004 70311 885// 555 92013 92418;
0168155620999992000060103004+43370+028470FM-12+006499999V0209999C000010042019N0200001N1+01681+01511101501ADDAY111031AY211031GF106991061051004501001001MD1810061+9999MW1031REMSYN094AAXX  01031 15562 41498 60000 10168 20151 40150 58006 70311 86500 555 10177 29072 92002 92408;
0156155620999992000060109004+43370+028470FM-12+006499999V0202701N003010360019N0200001N1+01881+01581101621ADDAY121031AY221031GF108991041021004501021999MD1710101+9999MW1021REMSYN082AAXX  01091 15562 41498 82703 10188 20158 40162 57010 70222 8422/ 555 92013 92418;
0133155620999992000060115004+43370+028470FM-12+006499999V0203601N008019999999N0200001N1+01801+00931101731ADDGF108991999999004501999999MD1210051+9999REMSYN081AAXX  01151 15562 41498 83608 10180 20093 40173 52005 7028 885// 555 92025 92428;
0156155620999992000060121004+43370+028470FM-12+006499999V0203601N008010042019N0200001N1+01581+01461101941ADDAY121031AY221031GF108991081051004501999999MD1210101+9999MW1021REMSYN082AAXX  01211 15562 41498 83608 10158 20146 40194 52010 70222 885// 555 92025 92428;
0174155620999992000060203004+43370+028470FM-12+006499999V0203201N008010360019N0200001N1+01341+01041101961ADDAY121031AY221031GF105991031051004501031001MD1310021+9999MW1021REMSYN100AAXX  02031 15562 41498 53208 10134 20104 40196 53002 70222 83530 555 10177 29081 69914 92025 92428;
0175155620999992000060209004+43370+028470FM-12+006499999V0203501N012010042019N0200001N1+01881+00931102011ADDAY111031AY211031GF106991999021004501001001MD1410001+9999MW1031REMSYN082AAXX  02091 15562 41498 63512 10188 20093 40201 54000 70311 85200 555 92036 92438;EQDQ01+000052SCOTLC
0156155620999992000060215004+43370+028470FM-12+006499999V0203601N008010042019N0200001N1+01901+01101102011ADDAY121031AY221031GF105991051021004501001001MD1810031+9999MW1021REMSYN082AAXX  02151 15562 41498 53608 10190 20110 40201 58003 70222 85200 555 92025 92428;
0156155620999992000060221004+43370+028470FM-12+006499999V0203601N008010042019N0200001N1+01601+01041102041ADDAY121031AY221031GF108991081051004501999999MD1310021+9999MW1021REMSYN082AAXX  02211 15562 41498 83608 10160 20104 40204 53002 70222 885// 555 92025 92428;
0221155620999992000060303004+43370+028470FM-12+006499999V0203201N009012200019N0200001N1+01451+00821101961ADDAA124001091AY111031AY211031GA1001+999999999GF100991001001999999001001KA1999M+01631MD1710021+9999MW1011UA1M999999029REMSYN094AAXX  03031 15562 41998 03209 10145 20082 40196 57002 70111 555 10163 29067 60014 92022 92428;
0156155620999992000060309004+43370+028470FM-12+006499999V0203601N012012200019N0200001N1+02021+00701101851ADDAY101031AY201031GF102991011021004501031021MD1710061+9999MW1021REMSYN082AAXX  03091 15562 41498 23612 10202 20070 40185 57006 70200 81232 555 92036 92438;
0211155620999992000060312004+43370+028470FM-12+006499999V0203601N012012200019N0200001N1+02121+00621101821ADDAA199000091AY101061AY201061GF102991011011004501031001MD1710031+9999MW1021UA1M990109039REMSYN094AAXX  03121 15562 31498 23612 10212 20062 40182 57003 70200 81130 222// 2//02 555 92036 92438;EQDQ01  00002PRCP99
0156155620999992000060315004+43370+028470FM-12+006499999V0200501N005019999999N0200001N1+02121+01361101771ADDAY111031AY211031GF105991051001999999031001MD1710051+9999MW1031REMSYN082AAXX  03151 15562 41998 50505 10212 20136 40177 57005 70311 85030 555 92036 92438;
0179155620999992000060321004+43370+028470FM-12+006499999V0203401N012012200019N0200001N1+01821+00861101961ADDAY101031AY201031GA1001+999999999GF100991001001999999001001MD1810021+9999MW1021UA1M999999039REMSYN076AAXX  03211 15562 41998 03412 10182 20086 40196 58002 70200 555 92036 92438;
0168155620999992000060403004+43370+028470FM-12+006499999V0203401N009012200019N0200001N1+01621+00651101691ADDAY101031AY201031GF102991021001999999031001MD1710051+9999MW1021REMSYN094AAXX  04031 15562 41998 23409 10162 20065 40169 57005 70200 82030 555 10192 29046 92035 92438;
0179155620999992000060409004+43370+028470FM-12+006499999V0203601N012012200019N0200001N1+02341+01101101801ADDAY101031AY201031GA1001+999999999GF100991001001999999001001MD1210081+9999MW1021UA1M999999039REMSYN076AAXX  04091 15562 41998 03612 10234 20110 40180 52008 70200 555 92036 92438;
0179155620999992000060415004+43370+028470FM-12+006499999V0203601N004012200019N0200001N1+02161+01291101791ADDAY101031AY201031GA1001+999999999GF100991001001999999001001MD1810101+9999MW1021UA1M999999029REMSYN076AAXX  04151 15562 41998 03604 10216 20129 40179 58010 70200 555 92025 92428;
0179155620999992000060421004+43370+028470FM-12+006499999V0202701N005012200019N0200001N1+01941+01231101841ADDAY101031AY201031GA1001+999999999GF100991001001999999001001MD1410001+9999MW1021UA1M999999029REMSYN076AAXX  04211 15562 41998 02705 10194 20123 40184 54000 70200 555 92023 92428;
0204155620999992000060503004+43370+028470FM-12+006499999V0203601N012012200019N0200001N1+02001+00861101771ADDAY101031AY201031GA1001+999999999GF100991001001999999001001KA1999M+02011MD1810141+9999MW1021UA1M999999039REMSYN088AAXX  05031 15562 41998 03612 10200 20086 40177 58014 70200 555 10201 29063 92036 92438;
0179155620999992000060515004+43370+028470FM-12+006499999V0200501N005012200019N0200001N1+02281+01571101751ADDAY101031AY201031GA1001+999999999GF100991001001999999001001MD1810021+9999MW1021UA1M999999029REMSYN076AAXX  05151 15562 41998 00505 10228 20157 40175 58002 70200 555 92023 92428;
0179155620999992000060521004+43370+028470FM-12+006499999V0202701N002012200019N0200001N1+01981+01511101621ADDAY101031AY201031GA1001+999999999GF100991001001999999001001MD1810131+9999MW1021UA1M999999009REMSYN076AAXX  05211 15562 41998 02702 10198 20151 40162 58013 70200 555 92003 92408;
0204155620999992000060603004+43370+028470FM-12+006499999V0203401N002012200019N0200001N1+02021+00891101481ADDAY101031AY201031GA1001+999999999GF100991001001999999001001KA1999M+02171MD1710041+9999MW1021UA1M999999009REMSYN088AAXX  06031 15562 41998 03402 10202 20089 40148 57004 70200 555 10217 29062 92001 92408;
0179155620999992000060609004+43370+028470FM-12+006499999V0200501N004012200019N0200001N1+02461+01541101421ADDAY101031AY201031GA1001+999999999GF100991001001999999001001MD1410001+9999MW1021UA1M999999019REMSYN076AAXX  06091 15562 41998 00504 10246 20154 40142 54000 70200 555 92013 92418;
0179155620999992000060615004+43370+028470FM-12+006499999V0200501N003012200019N0200001N1+02321+01681101201ADDAY101031AY201031GA1001+999999999GF100991001001999999001001MD1710061+9999MW1021UA1M999999009REMSYN076AAXX  06151 15562 41998 00503 10232 20168 40120 57006 70200 555 92002 92408;
0179155620999992000060621004+43370+028470FM-12+006499999V0209999C000012200019N0200001N1+01941+01711101131ADDAY101031AY201031GA1001+999999999GF100991001001999999001001MD1410001+9999MW1021UA1M999999009REMSYN076AAXX  06211 15562 41998 00000 10194 20171 40113 54000 70200 555 92003 92408;
0168155620999992000060703004+43370+028470FM-12+006499999V0209999C000010042019N0040001N1+01841+01681101081ADDAY111031AY211031GF108991081061004501999999MD1410001+9999MW1101REMSYN094AAXX  07031 15562 41496 80000 10184 20168 40108 54000 71011 886// 555 10220 29072 92000 92408;
0146155620999992000060709004+43370+028470FM-12+006499999V0202001N004010042019N0020001N1+02021+01731101161ADDAY141031AY221031GF106991061061004501001001MD1310091+9999MW1101REMSYN072AAXX  07091 15562 41495 62004 10202 20173 40116 53009 71042 86600 92013;
0179155620999992000060715004+43370+028470FM-12+006499999V0202701N005012200019N0100001N1+02201+01821101081ADDAY101031AY201031GA1001+999999999GF100991001001999999001001MD1810081+9999MW1021UA1M999999019REMSYN076AAXX  07151 15562 41997 02705 10220 20182 40108 58008 70200 555 92015 92417;
0179155620999992000060721004+43370+028470FM-12+006499999V0202701N005012200019N0100001N1+02041+01941101201ADDAY101031AY201031GA1001+999999999GF100991001001999999001001MD1210101+9999MW1021UA1M999999019REMSYN076AAXX  07211 15562 41997 02705 10204 20194 40120 52010 70200 555 92013 92417;
0168155620999992000060803004+43370+028470FM-12+006499999V0203601N010012200019N0200001N1+01981+01441101241ADDAY101031AY201031GF102991021051004501001001MD1210031+9999MW1021REMSYN094AAXX  08031 15562 41498 23610 10198 20144 40124 52003 70200 82500 555 10204 29089 92025 92428;
0179155620999992000060809004+43370+028470FM-12+006499999V0203601N010012200019N0200001N1+02561+01391101661ADDAY111031AY211031GA1001+999999999GF100991001001999999001001MD1210161+9999MW1011UA1M999999029REMSYN076AAXX  08091 15562 41998 03610 10256 20139 40166 52016 70111 555 92025 92428;
0156155620999992000060815004+43370+028470FM-12+006499999V0200701N004012200019N0200001N1+02161+01711101721ADDAY101031AY201031GF102991021021004501001001MD1410001+9999MW1021REMSYN082AAXX  08151 15562 41498 20704 10216 20171 40172 54000 70200 82200 555 92023 92428;
0146155620999992000060821004+43370+028470FM-12+006499999V0202701N003012200019N0200001N1+02041+01641102081ADDAY101031AY201031GF103991031001999999031001MD1210201+9999MW1021REMSYN072AAXX  08211 15562 41998 32703 10204 20164 40208 52020 70200 83030 92013;
0168155620999992000060903004+43370+028470FM-12+006499999V0203201N002010042019N0200001N1+02001+01711102161ADDAY121031AY221031GF107991071051004501001001MD1210071+9999MW1021REMSYN094AAXX  09031 15562 41498 73202 10200 20171 40216 52007 70222 87500 555 10214 29068 92013 92418;
0156155620999992000060909004+43370+028470FM-12+006499999V0209999C000012200019N0200001N1+02441+01741102351ADDAY101031AY201031GF101991011021004501001001MD1210081+9999MW1021REMSYN082AAXX  09091 15562 41498 10000 10244 20174 40235 52008 70200 81200 555 92000 92408;
0179155620999992000060915004+43370+028470FM-12+006499999V0200901N004012200019N0200001N1+02201+01721102171ADDAY101031AY201031GA1001+999999999GF100991001001999999001001MD1710131+9999MW1021UA1M999999029REMSYN076AAXX  09151 15562 41998 00904 10220 20172 40217 57013 70200 555 92023 92428;
0179155620999992000060921004+43370+028470FM-12+006499999V0200901N003012200019N0750001N1+01941+01611102161ADDAY101031AY201031GA1001+999999999GF100991001001999999001001MD1310061+9999MW1021UA1M999999019REMSYN076AAXX  09211 15562 41989 00903 10194 20161 40216 53006 70200 555 92013 92418;
0168155620999992000061003004+43370+028470FM-12+006499999V0200901N003010360019N0200001N1+01921+01621102181ADDAY111031AY211031GF106991031051004501031001MD1410001+9999MW1031REMSYN094AAXX  10031 15562 41498 60903 10192 20162 40218 54000 70311 83530 555 10209 29077 92012 92418;
0179155620999992000061009004+43370+028470FM-12+006499999V0200901N003012200019N0200001N1+02321+01411102341ADDAY111031AY211031GA1001+999999999GF100991001001999999001001MD1210101+9999MW1011UA1M999999029REMSYN076AAXX  10091 15562 41998 00903 10232 20141 40234 52010 70111 555 92023 92428;
0179155620999992000061021004+43370+028470FM-12+006499999V0200901N004012200019N0200001N1+01961+01521102251ADDAY101031AY201031GA1001+999999999GF100991001001999999001001MD1410001+9999MW1021UA1M999999029REMSYN076AAXX  10211 15562 41998 00904 10196 20152 40225 54000 70200 555 92023 92428;
0204155620999992000061103004+43370+028470FM-12+006499999V0200501N002012200019N0200001N1+01741+01391102261ADDAY101031AY201031GA1001+999999999GF100991001001999999001001KA1999M+02091MD1810061+9999MW1021UA1M999999019REMSYN088AAXX  11031 15562 41998 00502 10174 20139 40226 58006 70200 555 10209 29066 92012 92418;
0156155620999992000061109004+43370+028470FM-12+006499999V0200901N007012200019N0200001N1+02181+01401102401ADDAY101031AY201031GF102991021001004501001011MD1210051+9999MW1021REMSYN082AAXX  11091 15562 41498 20907 10218 20140 40240 52005 70200 82001 555 92024 92428;
0204155620999992000061203004+43370+028470FM-12+006499999V0200501N002012200019N0200001N1+01781+01591102401ADDAY101031AY201031GA1001+999999999GF100991001001999999001001KA1999M+02051MD1310021+9999MW1021UA1M999999019REMSYN088AAXX  12031 15562 41998 00502 10178 20159 40240 53002 70200 555 10205 29067 92013 92418;
0179155620999992000061209004+43370+028470FM-12+006499999V0200901N005012200019N0200001N1+02281+01441102621ADDAY101031AY201031GA1001+999999999GF100991001001999999001001MD1210081+9999MW1021UA1M999999019REMSYN076AAXX  12091 15562 41998 00905 10228 20144 40262 52008 70200 555 92013 92418;
0179155620999992000061215004+43370+028470FM-12+006499999V0200901N003012200019N0200001N1+02231+01401102651ADDAY101031AY201031GA1001+999999999GF100991001001999999001001MD1810021+9999MW1021UA1M999999019REMSYN076AAXX  12151 15562 41998 00903 10223 20140 40265 58002 70200 555 92013 92418;
0179155620999992000061221004+43370+028470FM-12+006499999V0201801N004012200019N0200001N1+02001+01341102631ADDAY101031AY201031GA1001+999999999GF100991001001999999001001MD1310011+9999MW1021UA1M999999019REMSYN076AAXX  12211 15562 41998 01804 10200 20134 40263 53001 70200 555 92013 92418;
0204155620999992000061303004+43370+028470FM-12+006499999V0202301N005012200019N0200001N1+01901+01261102551ADDAY101031AY201031GA1001+999999999GF100991001001999999001001KA1999M+02101MD1410001+9999MW1021UA1M999999019REMSYN088AAXX  13031 15562 41998 02305 10190 20126 40255 54000 70200 555 10210 29058 92014 92418;
0179155620999992000061309004+43370+028470FM-12+006499999V0202701N009012200019N0200001N1+02221+00881102601ADDAY101031AY201031GA1001+999999999GF100991001001999999001001MD1210011+9999MW1021UA1M999999029REMSYN076AAXX  13091 15562 41998 02709 10222 20088 40260 52001 70200 555 92024 92428;
0179155620999992000061315004+43370+028470FM-12+006499999V0202301N007012200019N0200001N1+02361+01301102401ADDAY101031AY201031GA1001+999999999GF100991001001999999001001MD1710131+9999MW1021UA1M999999029REMSYN076AAXX  13151 15562 41998 02307 10236 20130 40240 57013 70200 555 92024 92428;
0179155620999992000061321004+43360+028470FM-12+006499999V0202301N008012200019N0200001N1+02121+01521102381ADDAY101031AY201031GA1001+999999999GF100991001001999999001001MD1310041+9999MW1021UA1M999999039REMSYN076AAXX  13211 15562 41998 02308 10212 20152 40238 53004 70200 555 92034 92438;
0204155620999992000061403004+43360+028470FM-12+006499999V0202301N004012200019N0200001N1+02041+01541102221ADDAY101031AY201031GA1001+999999999GF100991001001999999001001KA1999M+02151MD1710051+9999MW1021UA1M999999029REMSYN088AAXX  14031 15562 41998 02304 10204 20154 40222 57005 70200 555 10215 29051 92025 92428;
0179155620999992000061409004+43360+028470FM-12+006499999V0203601N005012200019N0200001N1+02501+01981102251ADDAY101031AY201031GA1001+999999999GF100991001001999999001001MD1210041+9999MW1021UA1M999999029REMSYN076AAXX  14091 15562 41998 03605 10250 20198 40225 52004 70200 555 92023 92428;
0179155620999992000061415004+43360+028470FM-12+006499999V0200901N007012200019N0200001N1+02221+01701102101ADDAY101031AY201031GA1001+999999999GF100991001001999999001001MD1810161+9999MW1021UA1M999999039REMSYN076AAXX  14151 15562 41998 00907 10222 20170 40210 58016 70200 555 92034 92438;
0179155620999992000061421004+43360+028470FM-12+006499999V0200901N002012200019N0200001N1+02041+01641102111ADDAY101031AY201031GA1001+999999999GF100991001001999999001001MD1310021+9999MW1021UA1M999999019REMSYN076AAXX  14211 15562 41998 00902 10204 20164 40211 53002 70200 555 92014 92418;
0168155620999992000061503004+43360+028470FM-12+006499999V0201801N003012200019N0200001N1+02021+01691101971ADDAY111031AY211031GF105991021051004501001061MD1710051+9999MW1031REMSYN094AAXX  15031 15562 41498 51803 10202 20169 40197 57005 70311 82506 555 10224 29069 92012 92418;
0179155620999992000061509004+43360+028470FM-12+006499999V0201801N003012200019N0200001N1+02281+01811101861ADDAY101031AY201031GA1001+999999999GF100991001001999999001001MD1710041+9999MW1021UA1M999999019REMSYN076AAXX  15091 15562 41998 01803 10228 20181 40186 57004 70200 555 92012 92418;
0156155620999992000061515004+43360+028470FM-12+006499999V0201801N005012200019N0200001N1+02201+01791101561ADDAY101031AY201031GF102991021051004501001001MD1710171+9999MW1021REMSYN082AAXX  15151 15562 41498 21805 10220 20179 40156 57017 70200 82500 555 92023 92428;
0156155620999992000061521004+43360+028470FM-12+006499999V0201801N006010042019N0200001N1+02101+01921101441ADDAY121031AY221031GF106991061051004501001001MD1710021+9999MW1021REMSYN082AAXX  15211 15562 41498 61806 10210 20192 40144 57002 70222 86500 555 92034 92438;
0168155620999992000061603004+43360+028470FM-12+006499999V0201801N009010900019N0100001N1+02081+01921101261ADDAY121031AY221031GF106991041051004501001021MD1710071+9999MW1021REMSYN094AAXX  16031 15562 41497 61809 10208 20192 40126 57007 70222 84502 555 10212 29084 92035 92437;
0156155620999992000061609004+43360+028470FM-12+006499999V0202301N004012200019N0200001N1+02381+02021101121ADDAY101031AY201031GF104991001001999999001021MD1710051+9999MW1021REMSYN082AAXX  16091 15562 41998 42304 10238 20202 40112 57005 70200 80002 555 92023 92428;
0156155620999992000061615004+43360+028470FM-12+006499999V0202701N005010360019N0200001N1+02521+02071100871ADDAY121031AY221031GF108991031021004501021999MD1710101+9999MW1021REMSYN082AAXX  16151 15562 41498 82705 10252 20207 40087 57010 70222 8322/ 555 92013 92418;
0174155620999992000061703004+43360+028470FM-12+006499999V0203601N010010042019N0100001N1+01241+01021101521ADDAY181031AY221031GF108991081051004501999999MD1210061+9999MW1251REMSYN100AAXX  17031 15562 41497 83610 10124 20102 40152 52006 72582 885// 555 10236 29077 60034 92035 92438;
0156155620999992000061709004+43360+028470FM-12+006499999V0203601N008010042019N0200001N1+01541+01101101781ADDAY121031AY221031GF108991081051004501999999MD1210091+9999MW1021REMSYN082AAXX  17091 15562 41498 83608 10154 20110 40178 52009 70222 885// 555 92037 92438;
0156155620999992000061715004+43360+028470FM-12+006499999V0209999C000010042019N0200001N1+01701+01031101751ADDAY121031AY221031GF108991081051004501999999MD1410001+9999MW1021REMSYN082AAXX  17151 15562 41498 80000 10170 20103 40175 54000 70222 885// 555 92013 92418;
0174155620999992000061803004+43360+028470FM-12+006499999V0203201N012010042019N0200001N1+01181+00811102131ADDAY121031AY221031GF105991051051004501001001MD1310111+9999MW1021REMSYN100AAXX  18031 15562 41498 53212 10118 20081 40213 53011 70222 85500 555 10148 29072 60024 92025 92428;
0156155620999992000061809004+43360+028470FM-12+006499999V0203601N012012200019N0200001N1+01821+00401102231ADDAY101031AY201031GF103991031021004501001001MD1410001+9999MW1021REMSYN082AAXX  18091 15562 41498 33612 10182 20040 40223 54000 70200 83200 555 92036 92438;
0156155620999992000061815004+43360+028470FM-12+006499999V0202901N007010360019N0200001N1+01921+00611102131ADDAY121031AY221031GF106991041021004501031001MD1710061+9999MW1021REMSYN082AAXX  18151 15562 41498 62907 10192 20061 40213 57006 70222 84230 555 92024 92428;
0156155620999992000061821004+43360+028470FM-12+006499999V0203601N012010042019N0200001N1+01421+00431102291ADDAY121031AY221031GF106991061051004501001001MD1310141+9999MW1021REMSYN082AAXX  18211 15562 41498 63612 10142 20043 40229 53014 70222 86500 555 92036 92438;
0168155620999992000061903004+43360+028470FM-12+006499999V0203201N012012200019N0200001N1+01001+00411102321ADDAY101031AY201031GF102991021021004501001001MD1210011+9999MW1021REMSYN094AAXX  19031 15562 41498 23212 10100 20041 40232 52001 70200 82200 555 10156 29051 92036 92438;
0156155620999992000061909004+43360+028470FM-12+006499999V0203201N012010042019N0200001N1+01761+00641102301ADDAY111031AY211031GF106991061021004501001001MD1410001+9999MW1031REMSYN082AAXX  19091 15562 41498 63212 10176 20064 40230 54000 70311 86200 555 92036 92438;
0156155620999992000061915004+43360+028470FM-12+006499999V0203201N010010042019N0200001N1+01901+00461102221ADDAY121031AY221031GF106991061021004501001001MD1810071+9999MW1021REMSYN082AAXX  19151 15562 41498 63210 10190 20046 40222 58007 70222 86200 555 92035 92438;
0156155620999992000061921004+43360+028470FM-12+006499999V0203201N005012200019N0200001N1+01601+00171102241ADDAY101031AY201031GF102991021051004501001001MD1310011+9999MW1021REMSYN082AAXX  19211 15562 41498 23205 10160 20017 40224 53001 70200 82500 555 92023 92428;
0168155620999992000062003004+43360+028470FM-12+006499999V0203601N012010042019N0200001N1+01281+00461102181ADDAY121031AY221031GF108991081051004501999999MD1710041+9999MW1021REMSYN094AAXX  20031 15562 41498 83612 10128 20046 40218 57004 70222 885// 555 10162 29046 92036 92438;
0156155620999992000062009004+43360+028470FM-12+006499999V0200901N006012200019N0200001N1+01761+00381102191ADDAY111031AY211031GF103991031021004501001001MD1410001+9999MW1011REMSYN082AAXX  20091 15562 41498 30906 10176 20038 40219 54000 70111 83200 555 92034 92438;
0156155620999992000062015004+43360+028470FM-12+006499999V0201801N003012200019N0200001N1+01781+00611102171ADDAY101031AY201031GF102991021021004501001011MD1810041+9999MW1021REMSYN082AAXX  20151 15562 41498 21803 10178 20061 40217 58004 70200 82201 555 92012 92418;
0179155620999992000062021004+43360+028470FM-12+006499999V0201801N006012200019N0200001N1+01681+00861102141ADDAY101031AY201031GA1001+999999999GF100991001001999999001001MD1810031+9999MW1021UA1M999999029REMSYN076AAXX  20211 15562 41998 01806 10168 20086 40214 58003 70200 555 92024 92428;
0179155620999992000062109004+43360+028470FM-12+006499999V0202301N010012200019N0200001N1+02061+01321101471ADDAY111031AY211031GA1001+999999999GF100991001001999999001001MD1710191+9999MW1011UA1M999999039REMSYN076AAXX  21091 15562 41998 02310 10206 20132 40147 57019 70111 555 92035 92438;
0156155620999992000062115004+43360+028470FM-12+006499999V0202301N008012200019N0200001N1+02221+01641101231ADDAY101031AY201031GF102991021001999999031001MD1710081+9999MW1021REMSYN082AAXX  21151 15562 41998 22308 10222 20164 40123 57008 70200 82030 555 92035 92438;
0156155620999992000062121004+43360+028470FM-12+006499999V0203601N005010042019N0200001N1+02401+01181101301ADDAY121031AY221031GF108991081051004501999999MD1310181+9999MW1021REMSYN082AAXX  21211 15562 41498 83605 10240 20118 40130 53018 70222 885// 555 92022 92428;
0204155620999992000062203004+43360+028470FM-12+006499999V0203601N004012200019N0200001N1+01861+01461101521ADDAY101031AY201031GA1001+999999999GF100991001001999999001001KA1999M+02071MD1210131+9999MW1021UA1M999999029REMSYN088AAXX  22031 15562 41998 03604 10186 20146 40152 52013 70200 555 10207 29069 92023 92428;
0179155620999992000062209004+43360+028470FM-12+006499999V0202301N005012200019N0200001N1+02201+01541101571ADDAY101031AY201031GA1001+999999999GF100991001001999999001001MD1810031+9999MW1021UA1M999999019REMSYN076AAXX  22091 15562 41998 02305 10220 20154 40157 58003 70200 555 92013 92418;
0156155620999992000062215004+43360+028470FM-12+006499999V0202301N004012200019N0200001N1+02361+01861101451ADDAY101031AY201031GF102991021021004501001001MD1710061+9999MW1021REMSYN082AAXX  22151 15562 41498 22304 10236 20186 40145 57006 70200 82200 555 92013 92418;
0209155620999992000062221004+43360+028470FM-12+006499999V0200901N004012200019N0200001N1+02251+01521101511ADDAA199000091AY101031AY201031GA1001+999999999GF100991001001999999001001MD1210031+9999MW1021UA1M999999029REMSYN076AAXX  22211 15562 31998 00904 10225 20152 40151 52003 70200 555 92023 92428;EQDQ01  00002PRCP99
0168155620999992000062303004+43360+028470FM-12+006499999V0203201N007012200019N0200001N1+02141+01191101301ADDAY101031AY201031GF102991021051004501001001MD1710011+9999MW1021REMSYN094AAXX  23031 15562 41498 23207 10214 20119 40130 57001 70200 82500 555 10223 29064 92014 92418;
0179155620999992000062309004+43360+028470FM-12+006499999V0200701N007012200019N0200001N1+02231+01591101511ADDAY101031AY201031GA1001+999999999GF100991001001999999001001MD1210121+9999MW1021UA1M999999029REMSYN076AAXX  23091 15562 41998 00707 10223 20159 40151 52012 70200 555 92024 92428;
0179155620999992000062315004+43360+028470FM-12+006499999V0200901N002012200019N0200001N1+02201+01691101571ADDAY101031AY201031GA1001+999999999GF100991001001999999001001MD1810011+9999MW1021UA1M999999019REMSYN076AAXX  23151 15562 41998 00902 10220 20169 40157 58001 70200 555 92014 92418;
0179155620999992000062321004+43360+028470FM-12+006499999V0200701N003012200019N0200001N1+02001+01771101561ADDAY101031AY201031GA1001+999999999GF100991001001999999001001MD1810011+9999MW1021UA1M999999019REMSYN076AAXX  23211 15562 41998 00703 10200 20177 40156 58001 70200 555 92012 92418;
0168155620999992000062403004+43360+028470FM-12+006499999V0200901N004012200019N0100001N1+01981+01861101451ADDAY101031AY201031GF102991021001999999031001MD1710061+9999MW1021REMSYN094AAXX  24031 15562 41997 20904 10198 20186 40145 57006 70200 82030 555 10217 29073 92013 92417;
0179155620999992000062409004+43360+028470FM-12+006499999V0201801N005012200019N0200001N1+02241+01801101411ADDAY101031AY201031GA1001+999999999GF100991001001999999001001MD1710021+9999MW1021UA1M999999029REMSYN076AAXX  24091 15562 41998 01805 10224 20180 40141 57002 70200 555 92023 92428;
0156155620999992000062421004+43360+028470FM-12+006499999V0203601N004012200019N0200001N1+02181+01581101191ADDAY101031AY201031GF102991021051004501001001MD1310081+9999MW1021REMSYN082AAXX  24211 15562 41498 23604 10218 20158 40119 53008 70200 82500 555 92023 92428;
0168155620999992000062503004+43360+028470FM-12+006499999V0201401N004010042019N0200001N1+02041+01721101111ADDAY121031AY221031GF105991051051004501001001MD1810111+9999MW1021REMSYN094AAXX  25031 15562 41498 51404 10204 20172 40111 58011 70222 85500 555 10215 29081 92023 92428;
0179155620999992000062509004+43360+028470FM-12+006499999V0202301N003012200019N0200001N1+02321+01811101061ADDAY111031AY211031GA1001+999999999GF100991001001999999001001MD1310011+9999MW1011UA1M999999019REMSYN076AAXX  25091 15562 41998 02303 10232 20181 40106 53001 70111 555 92013 92418;
0179155620999992000062515004+43360+028470FM-12+006499999V0201801N002012200019N0200001N1+02381+01981100941ADDAY101031AY201031GA1001+999999999GF100991001001999999001001MD1710081+9999MW1021UA1M999999019REMSYN076AAXX  25151 15562 41998 01802 10238 20198 40094 57008 70200 555 92011 92418;
0179155620999992000062521004+43360+028470FM-12+006499999V0201801N003012200019N0200001N1+02141+01891100981ADDAY101031AY201031GA1001+999999999GF100991001001999999001001MD1310031+9999MW1021UA1M999999019REMSYN076AAXX  25211 15562 41998 01803 10214 20189 40098 53003 70200 555 92012 92418;
0168155620999992000062603004+43360+028470FM-12+006499999V0209999C000010042019N0200001N1+02121+01941100841ADDAY111031AY211031GF106991061051004501001001MD1710071+9999MW1031REMSYN094AAXX  26031 15562 41498 60000 10212 20194 40084 57007 70311 86500 555 10220 29080 92001 92408;
0156155620999992000062609004+43360+028470FM-12+006499999V0201801N003012200019N0200001N1+02441+02001100941ADDAY111031AY211031GF102991021011004501001001MD1210021+9999MW1011REMSYN082AAXX  26091 15562 41498 21803 10244 20200 40094 52002 70111 82100 555 92013 92418;
0179155620999992000062615004+43360+028470FM-12+006499999V0209999C000012200019N0200001N1+02601+02001100841ADDAY101031AY201031GA1001+999999999GF100991001001999999001001MD1710021+9999MW1021UA1M999999019REMSYN076AAXX  26151 15562 41998 00000 10260 20200 40084 57002 70200 555 92013 92418;
0156155620999992000062621004+43360+028470FM-12+006499999V0203601N012010042019N0200001N1+02121+01771101191ADDAY121031AY221031GF108991081051004501999999MD1310311+9999MW1021REMSYN082AAXX  26211 15562 41498 83612 10212 20177 40119 53031 70222 885// 555 92036 92438;
0174155620999992000062703004+43360+028470FM-12+006499999V0203601N010010042019N0200001N1+01801+01571101211ADDAY181031AY221031GF108991081051004501999999MD1410001+9999MW1021REMSYN100AAXX  27031 15562 41498 83610 10180 20157 40121 54000 70282 885// 555 10234 29075 60084 92036 92438;
0156155620999992000062709004+43360+028470FM-12+006499999V0203601N012010042019N0200001N1+01701+01501101261ADDAY181031AY221031GF108991051011004501021999MD1310091+9999MW1021REMSYN082AAXX  27091 15562 41498 83612 10170 20150 40126 53009 70282 8512/ 555 92036 92438;
0156155620999992000062715004+43360+028470FM-12+006499999V0203601N006010360019N0200001N1+02001+01261101271ADDAY121031AY221031GF105991021021004501031001MD1310021+9999MW1021REMSYN082AAXX  27151 15562 41498 53606 10200 20126 40127 53002 70222 82230 555 92024 92428;
0179155620999992000062721004+43360+028470FM-12+006499999V0203401N005012200019N0200001N1+01721+01481101411ADDAY111031AY211031GA1001+999999999GF100991001001999999001001MD1210091+9999MW1011UA1M999999019REMSYN076AAXX  27211 15562 41998 03405 10172 20148 40141 52009 70111 555 92014 92418;
0174155620999992000062803004+43360+028470FM-12+006499999V0203201N009012200019N0200001N1+01541+01251101381ADDAY101031AY201031GF102991021051999999001001MD1310021+9999MW1021REMSYN100AAXX  28031 15562 41998 23209 10154 20125 40138 53002 70200 82500 555 10178 29087 60034 92025 92428;
0156155620999992000062809004+43360+028470FM-12+006499999V0200701N007012200019N0200001N1+01981+01221101571ADDAY101031AY201031GF102991021021004501001001MD1210091+9999MW1021REMSYN082AAXX  28091 15562 41498 20707 10198 20122 40157 52009 70200 82200 555 92025 92428;
0156155620999992000062815004+43360+028470FM-12+006499999V0200901N007012200019N0100001N1+01921+01111101651ADDAY101031AY201031GF102991021021004501001001MD1310081+9999MW1021REMSYN082AAXX  28151 15562 41497 20907 10192 20111 40165 53008 70200 82200 555 92024 92428;
0179155620999992000062821004+43360+028470FM-12+006499999V0200501N004012200019N0200001N1+01821+01181101671ADDAY101031AY201031GA1001+999999999GF100991001001999999001001MD1310091+9999MW1021UA1M999999029REMSYN076AAXX  28211 15562 41998 00504 10182 20118 40167 53009 70200 555 92024 92428;
0223155620999992000062903004+43360+028470FM-12+006499999V0200501N003012200019N0200001N1+01801+00981101561ADDAY101031AY201031GA1001+999999999GF100991001001999999001001KA1999M+99999MD1710061+9999MW1021UA1M999999019REMSYN088AAXX  29031 15562 41998 00503 10180 20098 40156 57006 70200 555 10139 29070 92012 92418;EQDQ01 +01392ATMX  
0156155620999992000062909004+43360+028470FM-12+006499999V0200901N005012200019N0200001N1+02121+00841101631ADDAY111031AY211031GF102991021051004501001021MD1810011+9999MW1011REMSYN082AAXX  29091 15562 41498 20905 10212 20084 40163 58001 70111 82502 555 92023 92428;
0156155620999992000062915004+43360+028470FM-12+006499999V0200901N006012200019N0200001N1+01981+01081101541ADDAY101031AY201031GF102991021051004501001001MD1810091+9999MW1021REMSYN082AAXX  29151 15562 41498 20906 10198 20108 40154 58009 70200 82500 555 92024 92428;
0175155620999992000062921004+43360+028470FM-12+006499999V0200901N008012200019N0200001N1+01861+01451101561ADDAY101031AY201031GF102991999051004501001001MD1310011+9999MW1021REMSYN082AAXX  29211 15562 41498 20908 10186 20145 40156 53001 70200 85500 555 92035 92438;EQDQ01+000052SCOTLC
0168155620999992000063003004+43360+028470FM-12+006499999V0200901N006010042019N0200001N1+01841+01431101561ADDAY111031AY211031GF107991071051004501001001MD1310011+9999MW1031REMSYN094AAXX  30031 15562 41498 70906 10184 20143 40156 53001 70311 87500 555 10193 29056 92035 92438;
0156155620999992000063021004+43360+028470FM-12+006499999V0209999C000010042019N0200001N1+01941+01351101641ADDAY121031AY221031GF108991081051004501999999MD1310091+9999MW1021REMSYN082AAXX  30211 15562 41498 80000 10194 20135 40164 53009 70222 885// 555 92003 92408;
0168155620999992000070103004+43360+028470FM-12+006499999V0203601N006012200019N0200001N1+01741+01351101601ADDAY111031AY211031GF103991031051004501001001MD1410001+9999MW1021REMSYN094AAXX  01031 15562 41498 33606 10174 20135 40160 54000 70211 83500 555 10196 29068 92024 92428;
0156155620999992000070109004+43360+028470FM-12+006499999V0202501N006012200019N0200001N1+02161+01731101731ADDAY101031AY201031GF102991021021004501001001MD1210061+9999MW1021REMSYN082AAXX  01091 15562 41498 22506 10216 20173 40173 52006 70200 82200 555 92024 92428;
0156155620999992000070115004+43360+028470FM-12+006499999V0201801N006012200019N0100001N1+02201+01691101681ADDAY101031AY201031GF102991021021004501001001MD1410001+9999MW1021REMSYN082AAXX  01151 15562 41497 21806 10220 20169 40168 54000 70200 82200 555 92024 92427;
0179155620999992000070121004+43360+028470FM-12+006499999V0202301N006012200019N0100001N1+02081+01921101801ADDAY101031AY201031GA1001+999999999GF100991001001999999001001MD1210051+9999MW1021UA1M999999029REMSYN076AAXX  01211 15562 41997 02306 10208 20192 40180 52005 70200 555 92024 92427;
0204155620999992000070203004+43360+028470FM-12+006499999V0202701N002012200019N0200001N1+02001+01841101791ADDAY101031AY201031GA1001+999999999GF100991001001999999001001KA1999M+02121MD1810011+9999MW1021UA1M999999019REMSYN088AAXX  02031 15562 41998 02702 10200 20184 40179 58001 70200 555 10212 29074 92013 92418;
0179155620999992000070209004+43360+028470FM-12+006499999V0202501N003012200019N0040001N1+02421+01861101901ADDAY101031AY201031GA1001+999999999GF100991001001999999001001MD1310111+9999MW1051UA1M999999019REMSYN076AAXX  02091 15562 41996 02503 10242 20186 40190 53011 70500 555 92012 92416;
0179155620999992000070215004+43360+028470FM-12+006499999V0202301N005012200019N0100001N1+02531+01871101701ADDAY101031AY201031GA1001+999999999GF100991001001999999001001MD1710161+9999MW1021UA1M999999029REMSYN076AAXX  02151 15562 41997 02305 10253 20187 40170 57016 70200 555 92023 92427;
0179155620999992000070221004+43360+028470FM-12+006499999V0202001N007012200019N0200001N1+02101+01921101621ADDAY101031AY201031GA1001+999999999GF100991001001999999001001MD1410001+9999MW1021UA1M999999029REMSYN076AAXX  02211 15562 41998 02007 10210 20192 40162 54000 70200 555 92024 92428;
0204155620999992000070303004+43360+028470FM-12+006499999V0202301N007012200019N0200001N1+02161+01881101491ADDAY101031AY201031GA1001+999999999GF100991001001999999001001KA1999M+02301MD1710111+9999MW1021UA1M999999029REMSYN088AAXX  03031 15562 41998 02307 10216 20188 40149 57011 70200 555 10230 29077 92024 92428;
0179155620999992000070309004+43360+028470FM-12+006499999V0202301N005012200019N0200001N1+02421+01641101441ADDAY101031AY201031GA1001+999999999GF100991001001999999001001MD1710021+9999MW1021UA1M999999029REMSYN076AAXX  03091 15562 41998 02305 10242 20164 40144 57002 70200 555 92024 92428;
0179155620999992000070315004+43360+028470FM-12+006499999V0202501N006012200019N0200001N1+02461+01771101301ADDAY101031AY201031GA1001+999999999GF100991001001999999001001MD1710131+9999MW1021UA1M999999039REMSYN076AAXX  03151 15562 41998 02506 10246 20177 40130 57013 70200 555 92035 92438;
0179155620999992000070321004+43360+028470FM-12+006499999V0202501N004012200019N0200001N1+02201+01971101291ADDAY101031AY201031GA1001+999999999GF100991001001999999001001MD1310011+9999MW1021UA1M999999029REMSYN076AAXX  03211 15562 41998 02504 10220 20197 40129 53001 70200 555 92024 92428;
0204155620999992000070403004+43360+028470FM-12+006499999V0202301N007012200019N0200001N1+02201+01921101171ADDAY101031AY201031GA1001+999999999GF100991001001999999001001KA1999M+02271MD1810131+9999MW1021UA1M999999029REMSYN088AAXX  04031 15562 41998 02307 10220 20192 40117 58013 70200 555 10227 29074 92024 92428;
0150155620999992000070409004+43360+028470FM-12+006499999V0202301N004019999999N0200001N1+02481+02061101171ADDAY101031AY201031GF105991999999999999999999MD1310011+9999MW1021REMSYN076AAXX  04091 15562 41998 52304 10248 20206 40117 53001 70200 555 92023 92428;
0179155620999992000070415004+43360+028470FM-12+006499999V0202301N005012200019N0200001N1+02701+02041100981ADDAY101031AY201031GA1001+999999999GF100991001001999999001001MD1710111+9999MW1021UA1M999999029REMSYN076AAXX  04151 15562 41998 02305 10270 20204 40098 57011 70200 555 92023 92428;
0204155620999992000070503004+43360+028470FM-12+006499999V0202701N004012200019N0200001N1+02361+02271100891ADDAY101031AY201031GA1001+999999999GF100991001001999999001001KA1999M+02481MD1710081+9999MW1021UA1M999999029REMSYN088AAXX  05031 15562 41998 02704 10236 20227 40089 57008 70200 555 10248 29075 92023 92428;
0156155620999992000070509004+43360+028470FM-12+006499999V0202301N003012200019N0100001N1+02821+02001100951ADDAY101031AY201031GA1001+999999999GF100991001001999999001001MD1410001+9999MW1021REMSYN066AAXX  05091 15562 41997 02303 10282 20200 40095 54000 70200 92417;
0179155620999992000070515004+43360+028470FM-12+006499999V0202301N005012200019N0100001N1+03001+01941100751ADDAY101031AY201031GA1001+999999999GF100991001001999999001001MD1710121+9999MW1021UA1M999999029REMSYN076AAXX  05151 15562 41997 02305 10300 20194 40075 57012 70200 555 92023 92427;
0179155620999992000070609004+43360+028470FM-12+006499999V0200501N007012200019N0200001N1+02501+02021101201ADDAY101031AY201031GA1001+999999999GF100991001001999999001001MD1210051+9999MW1021UA1M999999029REMSYN076AAXX  06091 15562 41998 00507 10250 20202 40120 52005 70200 555 92024 92428;
0156155620999992000070615004+43360+028470FM-12+006499999V0200501N004012200019N0200001N1+02541+02061101121ADDAY101031AY201031GF102991021021004501001001MD1810081+9999MW1021REMSYN082AAXX  06151 15562 41498 20504 10254 20206 40112 58008 70200 82200 555 92013 92418;
0179155620999992000070621004+43360+028470FM-12+006499999V0202701N005012200019N0200001N1+02321+02171101121ADDAY101031AY201031GA1001+999999999GF100991001001999999001001MD1410001+9999MW1021UA1M999999019REMSYN076AAXX  06211 15562 41998 02705 10232 20217 40112 54000 70200 555 92014 92418;
0168155620999992000070703004+43360+028470FM-12+006499999V0203601N010012200019N0200001N1+02021+01571101211ADDAY101031AY201031GF103991031051004501001001MD1210051+9999MW1021REMSYN094AAXX  07031 15562 41498 33610 10202 20157 40121 52005 70200 83500 555 10248 29077 92025 92428;
0156155620999992000070709004+43360+028470FM-12+006499999V0200901N003012200019N0200001N1+02551+01741101331ADDAY101031AY201031GF102991021011004501001001MD1810031+9999MW1021REMSYN082AAXX  07091 15562 41498 20903 10255 20174 40133 58003 70200 82100 555 92012 92418;
0179155620999992000070715004+43360+028470FM-12+006499999V0200701N003012200019N0200001N1+02381+01851101251ADDAY101031AY201031GA1001+999999999GF100991001001999999001001MD1710041+9999MW1021UA1M999999019REMSYN076AAXX  07151 15562 41998 00703 10238 20185 40125 57004 70200 555 92012 92418;
0179155620999992000070721004+43360+028470FM-12+006499999V0201801N005012200019N0200001N1+02261+01891101251ADDAY101031AY201031GA1001+999999999GF100991001001999999001001MD1410001+9999MW1021UA1M999999019REMSYN076AAXX  07211 15562 41998 01805 10226 20189 40125 54000 70200 555 92013 92418;
0168155620999992000070803004+43360+028470FM-12+006499999V0202301N005012200019N0200001N1+02221+02011101071ADDAY101031AY201031GF102991021051004501001001MD1710111+9999MW1021REMSYN094AAXX  08031 15562 41498 22305 10222 20201 40107 57011 70200 82500 555 10235 29071 92023 92428;
0179155620999992000070809004+43360+028470FM-12+006499999V0202001N009012200019N0200001N1+02421+01471100961ADDAY101031AY201031GA1001+999999999GF100991001001999999001001MD1710021+9999MW1021UA1M999999039REMSYN076AAXX  08091 15562 41998 02009 10242 20147 40096 57002 70200 555 92035 92438;
0179155620999992000070815004+43360+028470FM-12+006499999V0201801N012012200019N0200001N1+02461+01681100581ADDAY101031AY201031GA1001+999999999GF100991001001999999001001MD1710171+9999MW1021UA1M999999039REMSYN076AAXX  08151 15562 41998 01812 10246 20168 40058 57017 70200 555 92036 92438;
0168155620999992000070903004+43360+028470FM-12+006499999V0202301N009012200019N0200001N1+02321+02021100031ADDAY101031AY201031GF102991021021004501001001MD1710171+9999MW1021REMSYN094AAXX  09031 15562 41498 22309 10232 20202 40003 57017 70200 82200 555 10237 29071 92035 92438;
0179155620999992000070909004+43360+028470FM-12+006499999V0202301N002012200019N0200001N1+02741+02401100921ADDAY101031AY201031GA1001+999999999GF100991001001999999001001MD1810101+9999MW1021UA1M999999029REMSYN076AAXX  09091 15562 41998 02302 10274 20240 40092 58010 70200 555 92023 92428;
0198155620999992000070915004+43360+028470FM-12+006499999V0202701N005012200019N0200001N1+02941+01971099642ADDAY101031AY201031GA1001+999999999GF100991001001999999001001MD1710121+9999MW1021UA1M999999029REMSYN076AAXX  09151 15562 41998 02705 10294 20197 49964 57012 70200 555 92023 92428;EQDQ01+099643APOSLP
0213155620999992000070921004+43360+028470FM-12+006499999V0203201N024010042019N0100001N1+02561+01261099991ADDAY121031AY221031GF107991071051004501001001MD1310331+9999MW1021OA149902601OA259902401UA1M999999049REMSYN104AAXX  09211 15562 41497 73224 10256 20126 49999 53033 70222 87500 333 91126 91224 91532 555 92049 92447;
0255155620999992000071003004+43360+028470FM-12+006499999V0203201N024010042019N0200001N1+01721+01151100441ADDAA124000691AY111031AY211031GF106991061051004501001001KA1999M+02771MD1210181+9999MW1031OA149902601OA259902401UA1M999999049REMSYN122AAXX  10031 15562 41498 63224 10172 20115 40044 52018 70311 86500 333 91126 91224 91832 555 10277 29060 69964 92049 92448;
0156155620999992000071009004+43360+028470FM-12+006499999V0203201N003012200019N0200001N1+02301+01511100651ADDAY101031AY201031GF101991011011004501001001MD1210141+9999MW1021REMSYN082AAXX  10091 15562 41498 13203 10230 20151 40065 52014 70200 81100 555 92026 92428;
0156155620999992000071015004+43360+028470FM-12+006499999V0209999C000012200019N0200001N1+02381+01521100761ADDAY101031AY201031GF102991021051004501001001MD1210061+9999MW1021REMSYN082AAXX  10151 15562 41498 20000 10238 20152 40076 52006 70200 82500 555 92011 92418;
0179155620999992000071021004+43360+028470FM-12+006499999V0202301N003012200019N0200001N1+02061+01701100981ADDAY101031AY201031GA1001+999999999GF100991001001999999001001MD1310211+9999MW1021UA1M999999019REMSYN076AAXX  10211 15562 41998 02303 10206 20170 40098 53021 70200 555 92012 92418;
0204155620999992000071103004+43360+028470FM-12+006499999V0209999C000012200019N0200001N1+02001+01711101021ADDAY101031AY201031GA1001+999999999GF100991001001999999001001KA1999M+02061MD1810091+9999MW1021UA1M999999009REMSYN088AAXX  11031 15562 41998 00000 10200 20171 40102 58009 70200 555 10206 29069 92002 92408;
0179155620999992000071109004+43360+028470FM-12+006499999V0201801N003012200019N0200001N1+02361+01691101151ADDAY101031AY201031GA1001+999999999GF100991001001999999001001MD1210021+9999MW1021UA1M999999019REMSYN076AAXX  11091 15562 41998 01803 10236 20169 40115 52002 70200 555 92013 92418;
0179155620999992000071115004+43360+028470FM-12+006499999V0201801N004012200019N0200001N1+02231+01631101131ADDAY101031AY201031GA1001+999999999GF100991001001999999001001MD1810031+9999MW1021UA1M999999019REMSYN076AAXX  11151 15562 41998 01804 10223 20163 40113 58003 70200 555 92013 92418;
0179155620999992000071121004+43360+028470FM-12+006499999V0201801N005012200019N0200001N1+02101+01611101121ADDAY101031AY201031GA1001+999999999GF100991001001999999001001MD1310041+9999MW1021UA1M999999029REMSYN076AAXX  11211 15562 41998 01805 10210 20161 40112 53004 70200 555 92023 92428;
0168155620999992000071203004+43360+028470FM-12+006499999V0201801N007012200019N0200001N1+02101+01881101021ADDAY101031AY201031GF104991041051004501001001MD1810121+9999MW1021REMSYN094AAXX  12031 15562 41498 41807 10210 20188 40102 58012 70200 84500 555 10220 29074 92024 92428;
0179155620999992000071215004+43360+028470FM-12+006499999V0201401N006012200019N0200001N1+02401+02001100811ADDAY101031AY201031GA1001+999999999GF100991001001999999001001MD1710161+9999MW1021UA1M999999039REMSYN076AAXX  12151 15562 41998 01406 10240 20200 40081 57016 70200 555 92034 92438;
0179155620999992000071221004+43360+028470FM-12+006499999V0209999C000012200019N0200001N1+02261+02021100651ADDAY101031AY201031GA1001+999999999GF100991001001999999001001MD1310081+9999MW1021UA1M999999039REMSYN076AAXX  12211 15562 41998 00000 10226 20202 40065 53008 70200 555 92035 92438;
0204155620999992000071303004+43360+028470FM-12+006499999V0203601N005012200019N0002001N1+02001+01971100321ADDAY141031AY201031GA1001+999999999GF100991001001999999001001KA1999M+02291MD1710201+9999MW1461UA1M999999029REMSYN088AAXX  13031 15562 41992 03605 10200 20197 40032 57020 74640 555 10229 29081 92024 92428;
0156155620999992000071309004+43360+028470FM-12+006499999V0201401N003012200019N0100001N1+02461+02071099821ADDAY141031AY211031GF102991021001999999031001MD1710231+9999MW1011REMSYN082AAXX  13091 15562 41997 21403 10246 20207 49982 57023 70141 82030 555 92013 92417;
0223155620999992000071315004+43360+028470FM-12+006499999V0203201N020012200019N0100001N1+02461+01261099781ADDAY101031AY201031GA1001+999999999GF100991001001999999001001MD1310191+9999MW1021OA149902401OA259902001UA1M999999049REMSYN098AAXX  13151 15562 41997 03220 10246 20126 49978 53019 70200 333 91124 91220 91532 555 92049 92447;
0179155620999992000071321004+43360+028470FM-12+006499999V0202701N012012200019N0200001N1+01901+01191100281ADDAY101031AY201031GA1001+999999999GF100991001001999999001001MD1210161+9999MW1021UA1M999999039REMSYN076AAXX  13211 15562 41998 02712 10190 20119 40028 52016 70200 555 92036 92438;
0204155620999992000071403004+43360+028470FM-12+006499999V0202701N012012200019N0200001N1+01621+00931100321ADDAY101031AY201031GA1001+999999999GF100991001001999999001001KA1999M+01931MD1810011+9999MW1021UA1M999999039REMSYN088AAXX  14031 15562 41998 02712 10162 20093 40032 58001 70200 555 10193 29079 92036 92438;
0156155620999992000071409004+43360+028470FM-12+006499999V0202701N008012200019N0200001N1+01901+01021100621ADDAY101031AY201031GF102991021021004501001001MD1210121+9999MW1021REMSYN082AAXX  14091 15562 41498 22708 10190 20102 40062 52012 70200 82200 555 92036 92438;
0156155620999992000071415004+43360+028470FM-12+006499999V0201801N008012200019N0200001N1+02141+01431100541ADDAY101031AY201031GF103991031051004501001001MD1810071+9999MW1021REMSYN082AAXX  14151 15562 41498 31808 10214 20143 40054 58007 70200 83500 555 92035 92438;
0173155620999992000071421004+43360+028470FM-12+006499999V0202701N003012200019N0200001N1+01821+99999100751ADDAY101031AY201031GA1001+999999999GF100991001001999999001001MD1310101+9999MW1021UA1M999999019REMSYN070AAXX  14211 15562 41998 02703 10182 40075 53010 70200 555 92012 92418;
0204155620999992000071503004+43360+028470FM-12+006499999V0202701N002012200019N0200001N1+01641+00771100761ADDAY101031AY201031GA1001+999999999GF100991001001999999001001KA1999M+02001MD1410001+9999MW1021UA1M999999019REMSYN088AAXX  15031 15562 41998 02702 10164 20077 40076 54000 70200 555 10200 29060 92012 92418;
0179155620999992000071509004+43360+028470FM-12+006499999V0209999C000012200019N0200001N1+02281+01061100831ADDAY101031AY201031GA1001+999999999GF100991001001999999001001MD1210041+9999MW1021UA1M999999009REMSYN076AAXX  15091 15562 41998 00000 10228 20106 40083 52004 70200 555 92000 92408;
0156155620999992000071515004+43360+028470FM-12+006499999V0201401N002012200019N0200001N1+02201+01721100731ADDAY121031AY221031GF105991021051004501001011MD1710081+9999MW1021REMSYN082AAXX  15151 15562 41498 51402 10220 20172 40073 57008 70222 82501 555 92011 92418;
0168155620999992000071603004+43360+028470FM-12+006499999V0209999C000010360019N0200001N1+01961+01741100531ADDAY121031AY221031GF107991031051004501031001MD1710061+9999MW1021REMSYN094AAXX  16031 15562 41498 70000 10196 20174 40053 57006 70222 83530 555 10210 29064 92002 92408;
0156155620999992000071609004+43360+028470FM-12+006499999V0200901N002010360019N0200001N1+02381+01921100641ADDAY101031AY201031GF106991031021004501031001MD1210091+9999MW1021REMSYN082AAXX  16091 15562 41498 60902 10238 20192 40064 52009 70200 83230 555 92002 92408;
0156155620999992000071615004+43360+028470FM-12+006499999V0201401N006012200019N0100001N1+02321+02041100701ADDAY101031AY201031GF102991021021004501001001MD1210051+9999MW1021REMSYN082AAXX  16151 15562 41497 21406 10232 20204 40070 52005 70200 82200 555 92024 92427;
0168155620999992000071703004+43360+028470FM-12+006499999V0203401N010012200019N0200001N1+02061+00921100911ADDAY101031AY201031GF103991031051004501001001MD1210031+9999MW1021REMSYN094AAXX  17031 15562 41498 33410 10206 20092 40091 52003 70200 83500 555 10227 29081 92035 92438;
0213155620999992000071709004+43360+028470FM-12+006499999V0203201N012010042019N0200001N1+02151+01411101201ADDAY111031AY211031GF106991061051004501001001MD1210121+9999MW1031OA149901801OA259901601UA1M999999039REMSYN104AAXX  17091 15562 41498 63212 10215 20141 40120 52012 70311 86500 333 91118 91216 91532 555 92038 92438;
0179155620999992000071721004+43360+028470FM-12+006499999V0202701N005012200019N0200001N1+02001+00981101461ADDAY101031AY201031GA1001+999999999GF100991001001999999001001MD1210161+9999MW1021UA1M999999019REMSYN076AAXX  17211 15562 41998 02705 10200 20098 40146 52016 70200 555 92013 92418;
0204155620999992000071803004+43360+028470FM-12+006499999V0202701N006012200019N0200001N1+01801+01061101441ADDAY101031AY201031GA1001+999999999GF100991001001999999001001KA1999M+02171MD1810061+9999MW1021UA1M999999019REMSYN088AAXX  18031 15562 41998 02706 10180 20106 40144 58006 70200 555 10217 29052 92014 92418;
0156155620999992000071809004+43360+028470FM-12+006499999V0202701N004012200019N0200001N1+02121+01441101391ADDAY101031AY201031GF101991011011004501001001MD1810041+9999MW1021REMSYN082AAXX  18091 15562 41498 12704 10212 20144 40139 58004 70200 81100 555 92023 92428;
0156155620999992000071815004+43360+028470FM-12+006499999V0202301N005019999999N0200001N1+02241+01581101221ADDAY111031AY211031GF105991021001999999031051MD1710121+9999MW1031REMSYN082AAXX  18151 15562 41998 52305 10224 20158 40122 57012 70311 82035 555 92025 92428;
0179155620999992000071821004+43360+028470FM-12+006499999V0202301N002012200019N0200001N1+02021+01661101181ADDAY101031AY201031GA1001+999999999GF100991001001999999001001MD1810041+9999MW1021UA1M999999029REMSYN076AAXX  18211 15562 41998 02302 10202 20166 40118 58004 70200 555 92023 92428;
0168155620999992000071903004+43360+028470FM-12+006499999V0200301N003012200019N0200001N1+01781+01381101131ADDAY101031AY201031GF101991011001999999031001MD1710051+9999MW1021REMSYN094AAXX  19031 15562 41998 10303 10178 20138 40113 57005 70200 81030 555 10205 29068 92012 92418;
0156155620999992000071909004+43360+028470FM-12+006499999V0209999C000010360019N0200001N1+02201+01891101101ADDAY111031AY211031GF106991021021004501031001MD1710011+9999MW1031REMSYN082AAXX  19091 15562 41498 60000 10220 20189 40110 57001 70311 82230 555 92001 92408;
0156155620999992000071921004+43360+028470FM-12+006499999V0203201N005012200019N0200001N1+01741+01321101141ADDAY101031AY201031GF104991041051004501001001MD1310011+9999MW1021REMSYN082AAXX  19211 15562 41498 43205 10174 20132 40114 53001 70200 84500 555 92024 92428;
0174155620999992000072003004+43360+028470FM-12+006499999V0203201N005012200019N0200001N1+01541+01361101161ADDAY101031AY201031GF102991021051008001001001MD1410001+9999MW1021REMSYN100AAXX  20031 15562 41598 23205 10154 20136 40116 54000 70200 82500 555 10196 29079 60064 92024 92428;
0156155620999992000072009004+43360+028470FM-12+006499999V0209999C000010042019N0200001N1+02001+01501101181ADDAY111031AY211031GF106991061021004501001001MD1310031+9999MW1031REMSYN082AAXX  20091 15562 41498 60000 10200 20150 40118 53003 70311 86200 555 92013 92418;
0156155620999992000072015004+43360+028470FM-12+006499999V0201401N002010360019N0200001N1+02041+01581101161ADDAY121031AY221031GF106991041021004501031001MD1310011+9999MW1021REMSYN082AAXX  20151 15562 41498 61402 10204 20158 40116 53001 70222 84230 555 92001 92408;
0179155620999992000072021004+43360+028470FM-12+006499999V0202701N002012200019N0200001N1+01861+01591101291ADDAY111031AY211031GA1001+999999999GF100991001001999999001001MD1310131+9999MW1011UA1M999999019REMSYN076AAXX  20211 15562 41998 02702 10186 20159 40129 53013 70111 555 92012 92418;
0204155620999992000072103004+43360+028470FM-12+006499999V0203601N008012200019N0200001N1+01641+01211101291ADDAY101031AY201031GA1001+999999999GF100991001001999999001001KA1999M+01901MD1810011+9999MW1021UA1M999999039REMSYN088AAXX  21031 15562 41998 03608 10164 20121 40129 58001 70200 555 10190 29080 92035 92438;
0156155620999992000072109004+43360+028470FM-12+006499999V0200701N005010360019N0200001N1+02121+01491101381ADDAY111031AY211031GF106991031011004501031021MD1210051+9999MW1031REMSYN082AAXX  21091 15562 41498 60705 10212 20149 40138 52005 70311 83132 555 92023 92428;
0179155620999992000072115004+43360+028470FM-12+006499999V0200901N005012200019N0200001N1+02161+01841101371ADDAY101031AY201031GA1001+999999999GF100991001001999999001001MD1410001+9999MW1021UA1M999999019REMSYN076AAXX  21151 15562 41998 00905 10216 20184 40137 54000 70200 555 92014 92418;
0179155620999992000072121004+43360+028470FM-12+006499999V0200201N007012200019N0200001N1+01931+01551101461ADDAY101031AY201031GA1001+999999999GF100991001001999999001001MD1210021+9999MW1021UA1M999999019REMSYN076AAXX  21211 15562 41998 00207 10193 20155 40146 52002 70200 555 92014 92418;
0168155620999992000072203004+43360+028470FM-12+006499999V0203601N012012200019N0200001N1+01901+01341101451ADDAY101031AY201031GF104991041051004501001001MD1810011+9999MW1021REMSYN094AAXX  22031 15562 41498 43612 10190 20134 40145 58001 70200 84500 555 10198 29077 92026 92428;
0156155620999992000072209004+43360+028470FM-12+006499999V0203601N009010042019N0200001N1+02281+01811101541ADDAY121031AY221031GF107991051051004501031001MD1310161+9999MW1021REMSYN082AAXX  22091 15562 41498 73609 10228 20181 40154 53016 70222 85530 555 92025 92428;
0156155620999992000072215004+43360+028470FM-12+006499999V0203601N008010042019N0200001N1+02141+01921101421ADDAY121031AY221031GF108991051051004501031999MD1710031+9999MW1021REMSYN082AAXX  22151 15562 41498 83608 10214 20192 40142 57003 70222 8553/ 555 92034 92438;
0156155620999992000072221004+43360+028470FM-12+006499999V0200501N005010042019N0200001N1+01921+01691101431ADDAY181031AY221031GF108991081051004501999999MD1310011+9999MW1251REMSYN082AAXX  22211 15562 41498 80505 10192 20169 40143 53001 72582 885// 555 92024 92428;
0174155620999992000072303004+43360+028470FM-12+006499999V0203201N007010360019N0200001N1+01961+01451101311ADDAY121031AY221031GF107991031051004501021999MD1710081+9999MW1021REMSYN100AAXX  23031 15562 41498 73207 10196 20145 40131 57008 70222 8352/ 555 10207 29080 60024 92024 92428;
0156155620999992000072309004+43360+028470FM-12+006499999V0203201N003010042019N0200001N1+02501+01311101451ADDAY121031AY221031GF106991061021004501001001MD1210041+9999MW1021REMSYN082AAXX  23091 15562 41498 63203 10250 20131 40145 52004 70222 86200 555 92013 92418;
0119155620999992000072315004+43360+028470FM-12+006499999V0202301N004012200019N0200001N1+02481+01891999999ADDGF102991999999004501999999REMSYN081AAXX  23151 15562 41498 22304 10248 20189 4016 54000 70111 82200 555 92023 92428;
0179155620999992000072321004+43360+028470FM-12+006499999V0202701N003012200019N0200001N1+02221+01921101491ADDAY101031AY201031GA1001+999999999GF100991001001999999001001MD1310031+9999MW1021UA1M999999029REMSYN076AAXX  23211 15562 41998 02703 10222 20192 40149 53003 70200 555 92023 92428;
0156155620999992000072409004+43360+028470FM-12+006499999V0201801N003012200019N0200001N1+02521+01561101521ADDAY101031AY201031GF102991021021004501001001MD1210011+9999MW1021REMSYN082AAXX  24091 15562 41498 21803 10252 20156 40152 52001 70200 82200 555 92012 92418;
0156155620999992000072415004+43360+028470FM-12+006499999V0202001N003012200019N0100001N1+02601+01921101391ADDAY101031AY201031GF102991021051004501001001MD1710061+9999MW1021REMSYN082AAXX  24151 15562 41497 22003 10260 20192 40139 57006 70200 82500 555 92024 92427;
0179155620999992000072421004+43360+028470FM-12+006499999V0202301N003012200019N0200001N1+02321+01951101331ADDAY101031AY201031GA1001+999999999GF100991001001999999001001MD1710031+9999MW1021UA1M999999019REMSYN076AAXX  24211 15562 41998 02303 10232 20195 40133 57003 70200 555 92012 92418;
0204155620999992000072503004+43360+028470FM-12+006499999V0202701N003012200019N0040001N1+02221+02041101361ADDAY101031AY201031GA1001+999999999GF100991001001999999001001KA1999M+02351MD1310031+9999MW1101UA1M999999019REMSYN088AAXX  25031 15562 41996 02703 10222 20204 40136 53003 71000 555 10235 29061 92012 92416;
0179155620999992000072509004+43360+028470FM-12+006499999V0202301N005012200019N0100001N1+02581+02101101441ADDAY101031AY201031GA1001+999999999GF100991001001999999001001MD1210021+9999MW1021UA1M999999019REMSYN076AAXX  25091 15562 41997 02305 10258 20210 40144 52002 70200 555 92013 92417;
0179155620999992000072515004+43360+028470FM-12+006499999V0202001N004012200019N0100001N1+02661+02001101351ADDAY101031AY201031GA1001+999999999GF100991001001999999001001MD1710031+9999MW1021UA1M999999029REMSYN076AAXX  25151 15562 41997 02004 10266 20200 40135 57003 70200 555 92023 92427;
0179155620999992000072521004+43360+028470FM-12+006499999V0202001N003012200019N0100001N1+02361+02021101351ADDAY101031AY201031GA1001+999999999GF100991001001999999001001MD1410001+9999MW1021UA1M999999029REMSYN076AAXX  25211 15562 41997 02003 10236 20202 40135 54000 70200 555 92023 92427;
0204155620999992000072603004+43360+028470FM-12+006499999V0202301N009012200019N0100001N1+02401+01901101181ADDAY101031AY201031GA1001+999999999GF100991001001999999001001KA1999M+02471MD1710091+9999MW1021UA1M999999029REMSYN088AAXX  26031 15562 41997 02309 10240 20190 40118 57009 70200 555 10247 29080 92025 92427;
0179155620999992000072609004+43360+028470FM-12+006499999V0202501N004012200019N0200001N1+02781+01891101161ADDAY101031AY201031GA1001+999999999GF100991001001999999001001MD1410001+9999MW1021UA1M999999029REMSYN076AAXX  26091 15562 41998 02504 10278 20189 40116 54000 70200 555 92024 92428;
0179155620999992000072615004+43360+028470FM-12+006499999V0202301N003012200019N0200001N1+02801+01841100971ADDAY101031AY201031GA1001+999999999GF100991001001999999001001MD1710131+9999MW1021UA1M999999029REMSYN076AAXX  26151 15562 41998 02303 10280 20184 40097 57013 70200 555 92022 92428;
0179155620999992000072621004+43360+028470FM-12+006499999V0202701N006012200019N0200001N1+02501+02051100841ADDAY101031AY201031GA1001+999999999GF100991001001999999001001MD1710031+9999MW1021UA1M999999029REMSYN076AAXX  26211 15562 41998 02706 10250 20205 40084 57003 70200 555 92024 92428;
0204155620999992000072703004+43360+028470FM-12+006499999V0202301N003012200019N0200001N1+02461+01901100701ADDAY101031AY201031GA1001+999999999GF100991001001999999001001KA1999M+02601MD1710021+9999MW1021UA1M999999029REMSYN088AAXX  27031 15562 41998 02303 10246 20190 40070 57002 70200 555 10260 29061 92022 92428;
0179155620999992000072709004+43360+028470FM-12+006499999V0200501N003012200019N0200001N1+02601+01821100801ADDAY101031AY201031GA1001+999999999GF100991001001999999001001MD1210091+9999MW1021UA1M999999019REMSYN076AAXX  27091 15562 41998 00503 10260 20182 40080 52009 70200 555 92013 92418;
0179155620999992000072715004+43360+028470FM-12+006499999V0200901N003012200019N0200001N1+02821+02141100681ADDAY101031AY201031GA1001+999999999GF100991001001999999001001MD1710071+9999MW1021UA1M999999019REMSYN076AAXX  27151 15562 41998 00903 10282 20214 40068 57007 70200 555 92012 92418;
0179155620999992000072721004+43360+028470FM-12+006499999V0203601N007012200019N0200001N1+02361+01861101051ADDAY101031AY201031GA1001+999999999GF100991001001999999001001MD1310391+9999MW1021UA1M999999029REMSYN076AAXX  27211 15562 41998 03607 10236 20186 40105 53039 70200 555 92024 92418;
0168155620999992000072803004+43360+028470FM-12+006499999V0203601N005012200019N0200001N1+02381+01561101231ADDAY101031AY201031GF102991021051004501001001MD1210111+9999MW1021REMSYN094AAXX  28031 15562 41498 23605 10238 20156 40123 52011 70200 82500 555 10286 29067 92014 92418;
0156155620999992000072809004+43360+028470FM-12+006499999V0200901N006012200019N0200001N1+02421+01791101321ADDAY101031AY201031GF101991011011004501001001MD1410001+9999MW1021REMSYN082AAXX  28091 15562 41498 10906 10242 20179 40132 54000 70200 81100 555 92024 92428;
0179155620999992000072815004+43360+028470FM-12+006499999V0200901N003012200019N0200001N1+02501+01881101201ADDAY101031AY201031GA1001+999999999GF100991001001999999001001MD1710101+9999MW1021UA1M999999029REMSYN076AAXX  28151 15562 41998 00903 10250 20188 40120 57010 70200 555 92024 92428;
0179155620999992000072821004+43360+028470FM-12+006499999V0200901N004012200019N0200001N1+02301+01961101221ADDAY101031AY201031GA1001+999999999GF100991001001999999001001MD1310011+9999MW1021UA1M999999019REMSYN076AAXX  28211 15562 41998 00904 10230 20196 40122 53001 70200 555 92013 92418;
0204155620999992000072903004+43360+028470FM-12+006499999V0209999C000012200019N0200001N1+02241+01931101011ADDAY101031AY201031GA1001+999999999GF100991001001999999001001KA1999M+02391MD1710081+9999MW1021UA1M999999019REMSYN088AAXX  29031 15562 41998 00000 10224 20193 40101 57008 70200 555 10239 29065 92013 92418;
0179155620999992000072909004+43360+028470FM-12+006499999V0200901N003012200019N0200001N1+02641+02071100941ADDAY101031AY201031GA1001+999999999GF100991001001999999001001MD1710041+9999MW1021UA1M999999019REMSYN076AAXX  29091 15562 41998 00903 10264 20207 40094 57004 70200 555 92012 92418;
0179155620999992000072915004+43360+028470FM-12+006499999V0200901N003012200019N0200001N1+02531+02171100841ADDAY101031AY201031GA1001+999999999GF100991001001999999001001MD1710031+9999MW1021UA1M999999019REMSYN076AAXX  29151 15562 41998 00903 10253 20217 40084 57003 70200 555 92012 92418;
0179155620999992000072921004+43360+028470FM-12+006499999V0209999C000012200019N0200001N1+02401+02251100941ADDAY101031AY201031GA1001+999999999GF100991001001999999001001MD1310101+9999MW1021UA1M999999009REMSYN076AAXX  29211 15562 41998 00000 10240 20225 40094 53010 70200 555 92000 92408;
0204155620999992000073003004+43360+028470FM-12+006499999V0203201N003012200019N0200001N1+02241+01001101161ADDAY101031AY201031GA1001+999999999GF100991001001999999001001KA1999M+02501MD1210111+9999MW1021UA1M999999019REMSYN088AAXX  30031 15562 41998 03203 10224 20100 40116 52011 70200 555 10250 29079 92013 92418;
0156155620999992000073015004+43360+028470FM-12+006499999V0200201N004010360019N0200001N1+02421+01861101391ADDAY121031AY221031GF106991031051004501031001MD1810011+9999MW1021REMSYN082AAXX  30151 15562 41498 60204 10242 20186 40139 58001 70222 83530 555 92023 92428;
0156155620999992000073021004+43360+028470FM-12+006499999V0203401N007012200019N0200001N1+02201+01301101351ADDAY111031AY211031GF103991031051004501001001MD1210111+9999MW1011REMSYN082AAXX  30211 15562 41498 33407 10220 20130 40135 52011 70111 83500 555 92024 92428;
0156155620999992000073109004+43360+028470FM-12+006499999V0203601N005010042019N0200001N1+02281+01481101521ADDAY121031AY221031GF107991071051004501001001MD1210061+9999MW1021REMSYN082AAXX  31091 15562 41498 73605 10228 20148 40152 52006 70222 87500 555 92025 92428;
0156155620999992000073115004+43360+028470FM-12+006499999V0200501N003010042019N0200001N1+02241+01691101521ADDAY111031AY211031GF108991081051004501999999MD1410001+9999MW1031REMSYN082AAXX  31151 15562 41498 80503 10224 20169 40152 54000 70311 885// 555 92025 92428;
0156155620999992000073121004+43360+028470FM-12+006499999V0202701N004010042019N0200001N1+01941+01611101741ADDAY181031AY221031GF106991061051004501001001MD1210121+9999MW1021REMSYN082AAXX  31211 15562 41498 62704 10194 20161 40174 52012 70282 86500 555 92026 92428;
0174155620999992000080103004+43360+028470FM-12+006499999V0203601N005010042019N0200001N1+01821+01481101711ADDAY121031AY221031GF106991061051004501001001MD1810031+9999MW1021REMSYN100AAXX  01031 15562 41498 63605 10182 20148 40171 58003 70222 86500 555 10206 29076 60084 92025 92428;
0156155620999992000080109004+43360+028470FM-12+006499999V0203401N008012200019N0200001N1+02301+01091101711ADDAY111031AY211031GF102991021011004501031001MD1810061+9999MW1011REMSYN082AAXX  01091 15562 41498 23408 10230 20109 40171 58006 70111 82130 555 92035 92438;
0156155620999992000080115004+43360+028470FM-12+006499999V0200501N003010042019N0200001N1+02341+01481101631ADDAY121031AY221031GF106991061051004501001001MD1810131+9999MW1021REMSYN082AAXX  01151 15562 41498 60503 10234 20148 40163 58013 70222 86500 555 92024 92428;
0179155620999992000080121004+43360+028470FM-12+006499999V0203201N006012200019N0200001N1+02001+01201101781ADDAY111031AY211031GA1001+999999999GF100991001001999999001001MD1210131+9999MW1011UA1M999999029REMSYN076AAXX  01211 15562 41998 03206 10200 20120 40178 52013 70111 555 92024 92428;
0168155620999992000080203004+43360+028470FM-12+006499999V0203201N010012200019N0200001N1+01721+01181101841ADDAY101031AY201031GF102991021051004501001001MD1210021+9999MW1021REMSYN094AAXX  02031 15562 41498 23210 10172 20118 40184 52002 70200 82500 555 10215 29056 92035 92438;
0156155620999992000080209004+43360+028470FM-12+006499999V0203601N012012200019N0200001N1+02341+01101101861ADDAY101031AY201031GF103991031011004501001001MD1310051+9999MW1021REMSYN082AAXX  02091 15562 41498 33612 10234 20110 40186 53005 70200 83100 555 92036 92438;
0156155620999992000080215004+43360+028470FM-12+006499999V0209999C000010042019N0200001N1+02381+01551101901ADDAY121031AY221031GF105991051021004501001001MD1310041+9999MW1021REMSYN082AAXX  02151 15562 41498 50000 10238 20155 40190 53004 70222 85200 555 92013 92418;
0179155620999992000080221004+43360+028470FM-12+006499999V0202701N003012200019N0200001N1+02121+01811102031ADDAY101031AY201031GA1001+999999999GF100991001001999999001001MD1210091+9999MW1021UA1M999999019REMSYN076AAXX  02211 15562 41998 02703 10212 20181 40203 52009 70200 555 92012 92418;
0204155620999992000080303004+43360+028470FM-12+006499999V0200501N009012200019N0200001N1+02241+01031101971ADDAY101031AY201031GA1001+999999999GF100991001001999999001001KA1999M+02221MD1710031+9999MW1021UA1M999999029REMSYN088AAXX  03031 15562 41998 00509 10224 20103 40197 57003 70200 555 10222 29065 92025 92428;
0156155620999992000080309004+43360+028470FM-12+006499999V0200501N002012200019N0200001N1+02601+01521102111ADDAY101031AY201031GF102991021011004501001001MD1210081+9999MW1021REMSYN082AAXX  03091 15562 41498 20502 10260 20152 40211 52008 70200 82100 555 92013 92418;
0179155620999992000080315004+43360+028470FM-12+006499999V0200901N005012200019N0200001N1+02431+01571101991ADDAY101031AY201031GA1001+999999999GF100991001001999999001001MD1710081+9999MW1021UA1M999999019REMSYN076AAXX  03151 15562 41998 00905 10243 20157 40199 57008 70200 555 92013 92418;
0179155620999992000080321004+43360+028470FM-12+006499999V0201401N002012200019N0009001N1+02241+01781102031ADDAY101031AY201031GA1001+999999999GF100991001001999999001001MD1310041+9999MW1021UA1M999999019REMSYN076AAXX  03211 15562 41009 01402 10224 20178 40203 53004 70200 555 92013 92418;
0204155620999992000080403004+43360+028470FM-12+006499999V0209999C000012200019N0200001N1+02041+01821102021ADDAY101031AY201031GA1001+999999999GF100991001001999999001001KA1999M+02351MD1410001+9999MW1021UA1M999999009REMSYN088AAXX  04031 15562 41998 00000 10204 20182 40202 54000 70200 555 10235 29056 92002 92408;
0179155620999992000080409004+43360+028470FM-12+006499999V0209999C000012200019N0200001N1+02601+01821102081ADDAY101031AY201031GA1001+999999999GF100991001001999999001001MD1210061+9999MW1021UA1M999999009REMSYN076AAXX  04091 15562 41998 00000 10260 20182 40208 52006 70200 555 92000 92408;
0179155620999992000080415004+43360+028470FM-12+006499999V0200901N002012200019N0200001N1+02441+01641101961ADDAY101031AY201031GA1001+999999999GF100991001001999999001001MD1810131+9999MW1021UA1M999999019REMSYN076AAXX  04151 15562 41998 00902 10244 20164 40196 58013 70200 555 92012 92418;
0179155620999992000080421004+43360+028470FM-12+006499999V0209999C000012200019N0200001N1+02181+01691101891ADDAY101031AY201031GA1001+999999999GF100991001001999999001001MD1410001+9999MW1021UA1M999999009REMSYN076AAXX  04211 15562 41998 00000 10218 20169 40189 54000 70200 555 92000 92408;
0204155620999992000080503004+43360+028470FM-12+006499999V0209999C000012200019N0200001N1+01941+01751101821ADDAY101031AY201031GA1001+999999999GF100991001001999999001001KA1999M+02311MD1810081+9999MW1021UA1M999999009REMSYN088AAXX  05031 15562 41998 00000 10194 20175 40182 58008 70200 555 10231 29067 92000 92408;
0179155620999992000080509004+43360+028470FM-12+006499999V0200901N004012200019N0200001N1+02521+02041101861ADDAY101031AY201031GA1001+999999999GF100991001001999999001001MD1310061+9999MW1021UA1M999999029REMSYN076AAXX  05091 15562 41998 00904 10252 20204 40186 53006 70200 555 92023 92428;
0179155620999992000080515004+43360+028470FM-12+006499999V0200901N005012200019N0200001N1+02541+02031101751ADDAY101031AY201031GA1001+999999999GF100991001001999999001001MD1710071+9999MW1021UA1M999999039REMSYN076AAXX  05151 15562 41998 00905 10254 20203 40175 57007 70200 555 92033 92438;
0179155620999992000080521004+43360+028470FM-12+006499999V0203601N005012200019N0200001N1+02201+01891101731ADDAY101031AY201031GA1001+999999999GF100991001001999999001001MD1810031+9999MW1021UA1M999999029REMSYN076AAXX  05211 15562 41998 03605 10220 20189 40173 58003 70200 555 92023 92428;
0204155620999992000080603004+43360+028470FM-12+006499999V0203601N007012200019N0200001N1+02301+01471101691ADDAY101031AY201031GA1001+999999999GF100991001001999999001001KA1999M+02311MD1410001+9999MW1021UA1M999999039REMSYN088AAXX  06031 15562 41998 03607 10230 20147 40169 54000 70200 555 10231 29077 92034 92438;
0179155620999992000080609004+43360+028470FM-12+006499999V0200701N005012200019N0200001N1+02701+01831101581ADDAY101031AY201031GA1001+999999999GF100991001001999999001001MD1710061+9999MW1021UA1M999999029REMSYN076AAXX  06091 15562 41998 00705 10270 20183 40158 57006 70200 555 92023 92428;
0179155620999992000080615004+43360+028470FM-12+006499999V0200901N002012200019N0200001N1+02671+02221101581ADDAY101031AY201031GA1001+999999999GF100991001001999999001001MD1810031+9999MW1021UA1M999999019REMSYN076AAXX  06151 15562 41998 00902 10267 20222 40158 58003 70200 555 92012 92418;
0179155620999992000080621004+43360+028470FM-12+006499999V0200501N005012200019N0200001N1+02311+02051101601ADDAY101031AY201031GA1001+999999999GF100991001001999999001001MD1310011+9999MW1021UA1M999999019REMSYN076AAXX  06211 15562 41998 00505 10231 20205 40160 53001 70200 555 92012 92418;
0204155620999992000080703004+43360+028470FM-12+006499999V0203601N006012200019N0200001N1+02321+01801101501ADDAY101031AY201031GA1001+999999999GF100991001001999999001001KA1999M+02481MD1710041+9999MW1021UA1M999999019REMSYN088AAXX  07031 15562 41998 03606 10232 20180 40150 57004 70200 555 10248 29066 92012 92418;
0156155620999992000080709004+43360+028470FM-12+006499999V0200701N004012200019N0100001N1+02681+02121101451ADDAY101031AY201031GF102991021021004501001001MD1710011+9999MW1021REMSYN082AAXX  07091 15562 41497 20704 10268 20212 40145 57001 70200 82200 555 92023 92428;
0179155620999992000080715004+43360+028470FM-12+006499999V0200701N004012200019N0200001N1+02581+02171101251ADDAY101031AY201031GA1001+999999999GF100991001001999999001001MD1710121+9999MW1021UA1M999999019REMSYN076AAXX  07151 15562 41998 00704 10258 20217 40125 57012 70200 555 92013 92418;
0179155620999992000080721004+43360+028470FM-12+006499999V0200501N004012200019N0100001N1+02301+02151101221ADDAY101031AY201031GA1001+999999999GF100991001001999999001001MD1410001+9999MW1021UA1M999999029REMSYN076AAXX  07211 15562 41997 00504 10230 20215 40122 54000 70200 555 92023 92427;
0204155620999992000080803004+43360+028470FM-12+006499999V0200501N002012200019N0100001N1+02201+02081101161ADDAY101031AY201031GA1001+999999999GF100991001001999999001001KA1999M+02441MD1410001+9999MW1021UA1M999999019REMSYN088AAXX  08031 15562 41997 00502 10220 20208 40116 54000 70200 555 10244 29083 92012 92417;
0156155620999992000080809004+43360+028470FM-12+006499999V0200901N004010042019N0200001N1+02601+02121101241ADDAY121031AY221031GF106991061021004501001001MD1210061+9999MW1021REMSYN082AAXX  08091 15562 41498 60904 10260 20212 40124 52006 70222 86200 555 92024 92428;
0179155620999992000080815004+43360+028470FM-12+006499999V0200901N003012200019N0200001N1+02701+02171101181ADDAY101031AY201031GA1001+999999999GF100991001001999999001001MD1710041+9999MW1021UA1M999999029REMSYN076AAXX  08151 15562 41998 00903 10270 20217 40118 57004 70200 555 92021 92428;
0179155620999992000080821004+43360+028470FM-12+006499999V0202701N003012200019N0100001N1+02381+02141101351ADDAY101031AY201031GA1001+999999999GF100991001001999999001001MD1210131+9999MW1021UA1M999999019REMSYN076AAXX  08211 15562 41997 02703 10238 20214 40135 52013 70200 555 92012 92417;
0156155620999992000080909004+43360+028470FM-12+006499999V0203601N005010042019N0100001N1+02561+01811101621ADDAY111031AY211031GF106991061051004501001001MD1410001+9999MW1031REMSYN082AAXX  09091 15562 41497 63605 10256 20181 40162 54000 70311 86500 555 92025 92427;
0156155620999992000080915004+43360+028470FM-12+006499999V0203201N005012200019N0100001N1+02501+01881101691ADDAY101031AY201031GF102991021051004501001001MD1210031+9999MW1021REMSYN082AAXX  09151 15562 41497 23205 10250 20188 40169 52003 70200 82500 555 92025 92427;
0179155620999992000080921004+43360+028470FM-12+006499999V0203601N003012200019N0200001N1+02301+01651101821ADDAY101031AY201031GA1001+999999999GF100991001001999999001001MD1310121+9999MW1021UA1M999999019REMSYN076AAXX  09211 15562 41998 03603 10230 20165 40182 53012 70200 555 92013 92418;
0167155620999992000081003004+43360+028470FM-12+006499999V0203601N009012200019N0200001N1+02141+01721101751ADDAY101031AY201031GF102991021051004501001001MD1710021+9999MW1021REMSYN093AAXX  10031 15562 41498 23609 10214 20172 40175 57002 70200 82500 555 10229 29069 9292 92428;
0150155620999992000081009004+43360+028470FM-12+006499999V0200501N008012200019N0200001N1+02551+99999101811ADDAY101031AY201031GF103991031021004501001001MD1210021+9999MW1021REMSYN076AAXX  10091 15562 41498 30508 10255 40181 52002 70200 83200 555 92034 92438;
0179155620999992000081015004+43360+028470FM-12+006499999V0200501N010012200019N0200001N1+02401+01621101791ADDAY101031AY201031GA1001+999999999GF100991001001999999001001MD1410001+9999MW1021UA1M999999039REMSYN076AAXX  10151 15562 41998 00510 10240 20162 40179 54000 70200 555 92035 92438;
0179155620999992000081021004+43360+028470FM-12+006499999V0200501N004012200019N0200001N1+02081+01571101701ADDAY101031AY201031GA1001+999999999GF100991001001999999001001MD1410001+9999MW1021UA1M999999029REMSYN076AAXX  10211 15562 41998 00504 10208 20157 40170 54000 70200 555 92024 92428;
0204155620999992000081103004+43360+028470FM-12+006499999V0200201N012012200019N0200001N1+02221+01601101571ADDAY101031AY201031GA1001+999999999GF100991001001999999001001KA1999M+02241MD1710121+9999MW1021UA1M999999039REMSYN088AAXX  11031 15562 41998 00212 10222 20160 40157 57012 70200 555 10224 29066 92032 92438;
0156155620999992000081109004+43360+028470FM-12+006499999V0200201N005012200019N0200001N1+02561+01841101631ADDAY101031AY201031GF102991021021004501001001MD1410001+9999MW1021REMSYN082AAXX  11091 15562 41498 20205 10256 20184 40163 54000 70200 82200 555 92024 92428;
0156155620999992000081115004+43360+028470FM-12+006499999V0200501N007012200019N0200001N1+02501+01771101431ADDAY101031AY201031GF102991021001999999031001MD1710111+9999MW1021REMSYN082AAXX  11151 15562 41998 20507 10250 20177 40143 57011 70200 82030 555 92034 92438;
0156155620999992000081121004+43360+028470FM-12+006499999V0200501N005012200019N0200001N1+02281+01741101401ADDAY101031AY201031GF102991021001999999031001MD1410001+9999MW1021REMSYN082AAXX  11211 15562 41998 20505 10228 20174 40140 54000 70200 82030 555 92024 92428;
0168155620999992000081203004+43360+028470FM-12+006499999V0200201N012019999999N0200001N1+02101+01881101251ADDAY111031AY211031GF106991031001999999031021MD1710111+9999MW1031REMSYN094AAXX  12031 15562 41998 60212 10210 20188 40125 57011 70311 83032 555 10235 29072 92036 92438;
0156155620999992000081221004+43360+028470FM-12+006499999V0203601N004012200019N0200001N1+02101+01681101501ADDAY111031AY211031GF104991041051004501001001MD1310021+9999MW1011REMSYN082AAXX  12211 15562 41498 43604 10210 20168 40150 53002 70111 84500 555 92023 92428;
0174155620999992000081303004+43360+028470FM-12+006499999V0203601N012012200019N0200001N1+02281+01481101501ADDAY101031AY201031GF102991021001999999031001MD1410001+9999MW1021REMSYN100AAXX  13031 15562 41998 23612 10228 20148 40150 54000 70200 82030 555 10222 29079 69924 92036 92438;
0156155620999992000081309004+43360+028470FM-12+006499999V0203601N008012200019N0200001N1+02621+01661101691ADDAY111031AY211031GF102991021051004501001001MD1210091+9999MW1011REMSYN082AAXX  13091 15562 41498 23608 10262 20166 40169 52009 70111 82500 555 92035 92438;
0156155620999992000081321004+43360+028470FM-12+006499999V0203201N003012200019N0200001N1+02361+01541101751ADDAY101031AY201031GF102991021051004501001001MD1810021+9999MW1021REMSYN082AAXX  13211 15562 41498 23203 10236 20154 40175 58002 70200 82500 555 92012 92418;
0223155620999992000081403004+43360+028470FM-12+006499999V0203601N003012200019N0200001N1+02501+00891101741ADDAY101031AY201031GA1001+999999999GF100991001001999999001001KA1999M+99999MD1810011+9999MW1021UA1M999999019REMSYN088AAXX  14031 15562 41998 03603 10250 20089 40174 58001 70200 555 10219 29054 92013 92418;EQDQ01 +02192ATMX  
0179155620999992000081409004+43360+028470FM-12+006499999V0203601N002012200019N0200001N1+02801+01691101841ADDAY101031AY201031GA1001+999999999GF100991001001999999001001MD1210081+9999MW1021UA1M999999019REMSYN076AAXX  14091 15562 41998 03602 10280 20169 40184 52008 70200 555 92011 92418;
0179155620999992000081415004+43360+028470FM-12+006499999V0209999C000012200019N0100001N1+02721+02161101771ADDAY101031AY201031GA1001+999999999GF100991001001999999001001MD1710031+9999MW1021UA1M999999009REMSYN076AAXX  14151 15562 41997 00000 10272 20216 40177 57003 70200 555 92003 92407;
0179155620999992000081421004+43360+028470FM-12+006499999V0209999C000012200019N0200001N1+02381+01951101811ADDAY101031AY201031GA1001+999999999GF100991001001999999001001MD1310041+9999MW1021UA1M999999009REMSYN076AAXX  14211 15562 41998 00000 10238 20195 40181 53004 70200 555 92000 92408;
0203155620999992000081503004+43360+028470FM-12+006499999V0203601N005012200019N0100001N1+02241+01931999999ADDAY101031AY201031GF102991021051004501001001KA1999M+02571MD1410001+9999ME1100779MW1021UA1M999999019REMSYN094AAXX  15031 15562 41497 23605 10224 20193 41077 54000 70200 82500 555 10257 29059 92013 92417;
0179155620999992000081509004+43360+028470FM-12+006499999V0203201N007012200019N0100001N1+02651+02221101821ADDAY101031AY201031GA1001+999999999GF100991001001999999001001MD1210021+9999MW1021UA1M999999029REMSYN076AAXX  15091 15562 41997 03207 10265 20222 40182 52002 70200 555 92023 92427;
0179155620999992000081515004+43360+028470FM-12+006499999V0200201N007012200019N0100001N1+02601+02151101731ADDAY101031AY201031GA1001+999999999GF100991001001999999001001MD1810091+9999MW1021UA1M999999029REMSYN076AAXX  15151 15562 41997 00207 10260 20215 40173 58009 70200 555 92024 92427;
0204155620999992000081603004+43360+028470FM-12+006499999V0203401N006012200019N0100001N1+02301+01891101661ADDAY101031AY201031GA1001+999999999GF100991001001999999001001KA1999M+02451MD1710021+9999MW1021UA1M999999019REMSYN088AAXX  16031 15562 41997 03406 10230 20189 40166 57002 70200 555 10245 29085 92014 92417;
0156155620999992000081609004+43360+028470FM-12+006499999V0200201N007012200019N0200001N1+02581+01801101661ADDAY101031AY201031GF101991011011004501001001MD1810061+9999MW1021REMSYN082AAXX  16091 15562 41498 10207 10258 20180 40166 58006 70200 81100 555 92024 92428;
0179155620999992000081615004+43360+028470FM-12+006499999V0200201N003012200019N0200001N1+02541+01961101571ADDAY101031AY201031GA1001+999999999GF100991001001999999001001MD1710051+9999MW1021UA1M999999029REMSYN076AAXX  16151 15562 41998 00203 10254 20196 40157 57005 70200 555 92024 92428;
0146155620999992000081621004+43360+028470FM-12+006499999V0200101N003012200019N0200001N1+02321+02051101541ADDAY101031AY201031GF101991001001999999001021MD1310031+9999MW1021REMSYN072AAXX  16211 15562 41998 10103 10232 20205 40154 53003 70200 80002 92012;
0168155620999992000081703004+43360+028470FM-12+006499999V0200201N003019999999N0200001N1+02221+01911101501ADDAY111031AY211031GF105991001001999999001011MD1810061+9999MW1021REMSYN094AAXX  17031 15562 41998 50203 10222 20191 40150 58006 70211 80001 555 10238 29075 92012 92418;
0156155620999992000081709004+43360+028470FM-12+006499999V0200901N006012200019N0200001N1+02621+02001101611ADDAY121031AY221031GF106991021011004501001011MD1210051+9999MW1021REMSYN082AAXX  17091 15562 41498 60906 10262 20200 40161 52005 70222 82101 555 92024 92428;
0156155620999992000081715004+43360+028470FM-12+006499999V0200901N006012200019N0200001N1+02581+01901101571ADDAY101031AY201031GF102991001001999999001011MD1810041+9999MW1021REMSYN082AAXX  17151 15562 41998 20906 10258 20190 40157 58004 70200 80001 555 92024 92428;
0179155620999992000081721004+43360+028470FM-12+006499999V0209999C000012200019N0200001N1+02241+02031101621ADDAY101031AY201031GA1001+999999999GF100991001001999999001001MD1310041+9999MW1021UA1M999999019REMSYN076AAXX  17211 15562 41998 00000 10224 20203 40162 53004 70200 555 92013 92418;
0168155620999992000081803004+43360+028470FM-12+006499999V0200501N004012200019N0200001N1+02201+01691101561ADDAY101031AY201031GF104991041051004501001001MD1710031+9999MW1021REMSYN094AAXX  18031 15562 41498 40504 10220 20169 40156 57003 70200 84500 555 10238 29075 92013 92418;
0179155620999992000081809004+43360+028470FM-12+006499999V0200501N003012200019N0200001N1+02641+02001101751ADDAY101031AY201031GA1001+999999999GF100991001001999999001001MD1210071+9999MW1021UA1M999999019REMSYN076AAXX  18091 15562 41998 00503 10264 20200 40175 52007 70200 555 92012 92418;
0179155620999992000081815004+43360+028470FM-12+006499999V0200501N003012200019N0200001N1+02601+02001101741ADDAY101031AY201031GA1001+999999999GF100991001001999999001001MD1810011+9999MW1021UA1M999999019REMSYN076AAXX  18151 15562 41998 00503 10260 20200 40174 58001 70200 555 92012 92418;
0179155620999992000081821004+43360+028470FM-12+006499999V0209999C000012200019N0200001N1+02301+02001101851ADDAY101031AY201031GA1001+999999999GF100991001001999999001001MD1210091+9999MW1021UA1M999999009REMSYN076AAXX  18211 15562 41998 00000 10230 20200 40185 52009 70200 555 92002 92408;
0204155620999992000081903004+43360+028470FM-12+006499999V0203601N003012200019N0200001N1+02361+00931101801ADDAY101031AY201031GA1001+999999999GF100991001001999999001001KA1999M+02431MD1710041+9999MW1021UA1M999999019REMSYN088AAXX  19031 15562 41998 03603 10236 20093 40180 57004 70200 555 10243 29072 92012 92418;
0179155620999992000081909004+43360+028470FM-12+006499999V0200201N003012200019N0200001N1+02861+01621102071ADDAY101031AY201031GA1001+999999999GF100991001001999999001001MD1210111+9999MW1021UA1M999999019REMSYN076AAXX  19091 15562 41998 00203 10286 20162 40207 52011 70200 555 92012 92418;
0179155620999992000081915004+43360+028470FM-12+006499999V0209999C000012200019N0200001N1+02781+02041101981ADDAY101031AY201031GA1001+999999999GF100991001001999999001001MD1710041+9999MW1021UA1M999999009REMSYN076AAXX  19151 15562 41998 00000 10278 20204 40198 57004 70200 555 92003 92408;
0179155620999992000081921004+43360+028470FM-12+006499999V0209999C000012200019N0200001N1+02441+01231101931ADDAY101031AY201031GA1001+999999999GF100991001001999999001001MD1710041+9999MW1021UA1M999999009REMSYN076AAXX  19211 15562 41998 00000 10244 20123 40193 57004 70200 555 92000 92408;
0168155620999992000082003004+43360+028470FM-12+006499999V0203601N004012200019N0200001N1+02401+00941101761ADDAY101031AY201031GF102991021051004501001001MD1710091+9999MW1021REMSYN094AAXX  20031 15562 41498 23604 10240 20094 40176 57009 70200 82500 555 10254 29051 92013 92418;
0179155620999992000082009004+43360+028470FM-12+006499999V0203501N003012200019N0200001N1+02821+01941101861ADDAY101031AY201031GA1001+999999999GF100991001001999999001001MD1210021+9999MW1021UA1M999999019REMSYN076AAXX  20091 15562 41998 03503 10282 20194 40186 52002 70200 555 92012 92418;
0179155620999992000082015004+43360+028470FM-12+006499999V0200501N004012200019N0200001N1+02701+02311101711ADDAY101031AY201031GA1001+999999999GF100991001001999999001001MD1710081+9999MW1021UA1M999999019REMSYN076AAXX  20151 15562 41998 00504 10270 20231 40171 57008 70200 555 92013 92417;
0179155620999992000082021004+43360+028470FM-12+006499999V0200501N004012200019N0200001N1+02541+01771101721ADDAY101031AY201031GA1001+999999999GF100991001001999999001001MD1310011+9999MW1021UA1M999999019REMSYN076AAXX  20211 15562 41998 00504 10254 20177 40172 53001 70200 555 92013 92418;
0204155620999992000082103004+43360+028470FM-12+006499999V0200501N006012200019N0200001N1+02381+01811101641ADDAY101031AY201031GA1001+999999999GF100991001001999999001001KA1999M+02641MD1810081+9999MW1021UA1M999999019REMSYN088AAXX  21031 15562 41998 00506 10238 20181 40164 58008 70200 555 10264 29066 92014 92418;
0179155620999992000082109004+43360+028470FM-12+006499999V0200501N003012200019N0200001N1+02801+01921101671ADDAY101031AY201031GA1001+999999999GF100991001001999999001001MD1210031+9999MW1021UA1M999999019REMSYN076AAXX  21091 15562 41998 00503 10280 20192 40167 52003 70200 555 92012 92418;
0179155620999992000082115004+43360+028470FM-12+006499999V0200501N003012200019N0200001N1+02721+02321101581ADDAY101031AY201031GA1001+999999999GF100991001001999999001001MD1710061+9999MW1021UA1M999999019REMSYN076AAXX  21151 15562 41998 00503 10272 20232 40158 57006 70200 555 92012 92418;
0179155620999992000082121004+43360+028470FM-12+006499999V0200501N002012200019N0200001N1+02401+02001101601ADDAY101031AY201031GA1001+999999999GF100991001001999999001001MD1810061+9999MW1021UA1M999999019REMSYN076AAXX  21211 15562 41998 00502 10240 20200 40160 58006 70200 555 92011 92418;
0204155620999992000082203004+43360+028470FM-12+006499999V0200501N002012200019N0200001N1+02401+01941101611ADDAY101031AY201031GA1001+999999999GF100991001001999999001001KA1999M+02621MD1310031+9999MW1021UA1M999999019REMSYN088AAXX  22031 15562 41998 00502 10240 20194 40161 53003 70200 555 10262 29058 92011 92418;
0179155620999992000082209004+43360+028470FM-12+006499999V0200501N006012200019N0200001N1+02781+02061101641ADDAY101031AY201031GA1001+999999999GF100991001001999999001001MD1210041+9999MW1021UA1M999999019REMSYN076AAXX  22091 15562 41998 00506 10278 20206 40164 52004 70200 555 92014 92418;
0179155620999992000082215004+43360+028470FM-12+006499999V0200501N003012200019N0200001N1+02721+02281101551ADDAY101031AY201031GA1001+999999999GF100991001001999999001001MD1810091+9999MW1021UA1M999999019REMSYN076AAXX  22151 15562 41998 00503 10272 20228 40155 58009 70200 555 92013 92418;
0179155620999992000082221004+43360+028470FM-12+006499999V0200501N002012200019N0200001N1+02431+02001101561ADDAY101031AY201031GA1001+999999999GF100991001001999999001001MD1410001+9999MW1021UA1M999999009REMSYN076AAXX  22211 15562 41998 00502 10243 20200 40156 54000 70200 555 92002 92408;
0204155620999992000082303004+43360+028470FM-12+006499999V0200501N002012200019N0200001N1+02421+01411101581ADDAY101031AY201031GA1001+999999999GF100991001001999999001001KA1999M+02601MD1410001+9999MW1021UA1M999999009REMSYN088AAXX  23031 15562 41998 00502 10242 20141 40158 54000 70200 555 10260 29071 92002 92408;
0179155620999992000082309004+43360+028470FM-12+006499999V0200901N003012200019N0200001N1+03041+02031101621ADDAY101031AY201031GA1001+999999999GF100991001001999999001001MD1810031+9999MW1021UA1M999999019REMSYN076AAXX  23091 15562 41998 00903 10304 20203 40162 58003 70200 555 92013 92418;
0179155620999992000082315004+43360+028470FM-12+006499999V0209999C000012200019N0200001N1+02901+02231101501ADDAY101031AY201031GA1001+999999999GF100991001001999999001001MD1710051+9999MW1021UA1M999999009REMSYN076AAXX  23151 15562 41998 00000 10290 20223 40150 57005 70200 555 92000 92408;
0179155620999992000082321004+43360+028470FM-12+006499999V0202701N002012200019N0200001N1+02561+02171101531ADDAY101031AY201031GA1001+999999999GF100991001001999999001001MD1410001+9999MW1021UA1M999999009REMSYN076AAXX  23211 15562 41998 02702 10256 20217 40153 54000 70200 555 92001 92408;
0218155620999992000082403004+43360+028470FM-12+006499999V0209999C000012200019N0100001N1+02441+01981101421ADDAA199000091AY101031AY201031GF102991999999004501999999KA1999M+02691MD1710061+9999MW1021UA1M999999009REMSYN088AAXX  24031 15562 31497 20000 10244 20198 40142 57006 70200 555 10269 29062 92000 92407;EQDQ01  00002PRCP99
0156155620999992000082409004+43360+028470FM-12+006499999V0203501N012010042019N0200001N1+02771+02051101551ADDAY111031AY211031GF106991061021004501001001MD1210101+9999MW1031REMSYN082AAXX  24091 15562 41498 63512 10277 20205 40155 52010 70311 86200 555 92036 92438;
0156155620999992000082415004+43360+028470FM-12+006499999V0200201N012010042019N0200001N1+02321+01921101661ADDAY121031AY221031GF107991051021004501031001MD1210071+9999MW1021REMSYN082AAXX  24151 15562 41498 70212 10232 20192 40166 52007 70222 85230 555 92036 92438;
0156155620999992000082421004+43360+028470FM-12+006499999V0203601N006010042019N0200001N1+02201+01751101761ADDAY121031AY221031GF106991061051004501001001MD1210081+9999MW1021REMSYN082AAXX  24211 15562 41498 63606 10220 20175 40176 52008 70222 86500 555 92034 92438;
0167155620999992000082503004+43360+028470FM-12+006499999V0203601N005012200019N0200001N1+01881+01441101501ADDAY101031AY201031GF102991021051004501001001MD1710231+9999MW1021REMSYN093AAXX  25031 15562 41498 23605 10188 20144 40150 57023 70200 82500 555 10238 2907 92023 92428;
0156155620999992000082509004+43360+028470FM-12+006499999V0203601N003010360019N0200001N1+02601+01641101541ADDAY111031AY211031GF106991021021004501031001MD1410001+9999MW1031REMSYN082AAXX  25091 15562 41498 63603 10260 20164 40154 54000 70311 82230 555 92013 92418;
0179155620999992000082521004+43360+028470FM-12+006499999V0202301N003012200019N0200001N1+02001+01801101061ADDAY101031AY201031GA1001+999999999GF100991001001999999001001MD1710061+9999MW1021UA1M999999019REMSYN076AAXX  25211 15562 41998 02303 10200 20180 40106 57006 70200 555 92012 92418;
0168155620999992000082603004+43360+028470FM-12+006499999V0202301N005012200019N0200001N1+02301+01801100771ADDAY101031AY201031GF103991031051004501001001MD1810241+9999MW1021REMSYN094AAXX  26031 15562 41498 32305 10230 20180 40077 58024 70200 83500 555 10234 29060 92023 92428;
0156155620999992000082609004+43360+028470FM-12+006499999V0203401N010010360019N0200001N1+01981+01281100941ADDAY121031AY221031GF107991021051004501051001MD1310161+9999MW1021REMSYN082AAXX  26091 15562 41498 73410 10198 20128 40094 53016 70222 82550 555 92035 92438;
0156155620999992000082615004+43360+028470FM-12+006499999V0200501N010010360019N0200001N1+02181+00821101011ADDAY121031AY221031GF105991021021004501031001MD1210011+9999MW1021REMSYN082AAXX  26151 15562 41498 50510 10218 20082 40101 52001 70222 82230 555 92036 92438;
0179155620999992000082621004+43360+028470FM-12+006499999V0203201N009012200019N0200001N1+01621+00981101221ADDAY101031AY201031GA1001+999999999GF100991001001999999001001MD1210051+9999MW1021UA1M999999039REMSYN076AAXX  26211 15562 41998 03209 10162 20098 40122 52005 70200 555 92035 92438;
0168155620999992000082703004+43360+028470FM-12+006499999V0203201N009012200019N0200001N1+01341+00681101231ADDAY101031AY201031GF102991021021004501001001MD1810031+9999MW1021REMSYN094AAXX  27031 15562 41498 23209 10134 20068 40123 58003 70200 82200 555 10192 29061 92035 92438;
0156155620999992000082709004+43360+028470FM-12+006499999V0202901N010012200019N0200001N1+02001+01001101321ADDAY101031AY201031GF104991031021004501031001MD1410001+9999MW1021REMSYN082AAXX  27091 15562 41498 42910 10200 20100 40132 54000 70200 83230 555 92035 92438;
0156155620999992000082715004+43360+028470FM-12+006499999V0203201N012010042019N0200001N1+02021+00841101271ADDAY121031AY221031GF106991061051004501001001MD1310041+9999MW1021REMSYN082AAXX  27151 15562 41498 63212 10202 20084 40127 53004 70222 86500 555 92036 92438;
0179155620999992000082721004+43360+028470FM-12+006499999V0203201N008012200019N0200001N1+01601+01201101371ADDAY111031AY211031GA1001+999999999GF100991001001999999001001MD1410001+9999MW1011UA1M999999039REMSYN076AAXX  27211 15562 41998 03208 10160 20120 40137 54000 70111 555 92035 92438;
0168155620999992000082803004+43360+028470FM-12+006499999V0203201N010010042019N0200001N1+01721+01451101441ADDAY121031AY221031GF108991081051004501999999MD1210011+9999MW1021REMSYN094AAXX  28031 15562 41498 83210 10172 20145 40144 52001 70222 885// 555 10171 29055 92036 92438;
0156155620999992000082809004+43360+028470FM-12+006499999V0203401N004010360019N0200001N1+02141+01311101641ADDAY111031AY211031GF106991031021004501031001MD1210061+9999MW1031REMSYN082AAXX  28091 15562 41498 63404 10214 20131 40164 52006 70311 83230 555 92025 92428;
0156155620999992000082815004+43360+028470FM-12+006499999V0203601N004012200019N0200001N1+02301+01341101651ADDAY111031AY211031GF103991031051004501001001MD1810021+9999MW1011REMSYN082AAXX  28151 15562 41498 33604 10230 20134 40165 58002 70111 83500 555 92025 92428;
0179155620999992000082821004+43360+028470FM-12+006499999V0203201N003012200019N0200001N1+02121+01211101801ADDAY111031AY211031GA1001+999999999GF100991001001999999001001MD1210011+9999MW1011UA1M999999019REMSYN076AAXX  28211 15562 41998 03203 10212 20121 40180 52001 70111 555 92012 92418;
0168155620999992000082903004+43360+028470FM-12+006499999V0203601N008012200019N0200001N1+01761+01021101721ADDAY101031AY201031GF102991021051004501001001MD1310031+9999MW1021REMSYN094AAXX  29031 15562 41498 23608 10176 20102 40172 53003 70200 82500 555 10211 29065 92035 92438;
0156155620999992000082909004+43360+028470FM-12+006499999V0203601N006012200019N0200001N1+02321+00821101691ADDAY101031AY201031GF101991011011004501001001MD1810021+9999MW1021REMSYN082AAXX  29091 15562 41498 13606 10232 20082 40169 58002 70200 81100 555 92024 92428;
0156155620999992000082915004+43360+028470FM-12+006499999V0203601N003010042019N0200001N1+02201+01421101611ADDAY121031AY221031GF107991071051004501001001MD1410001+9999MW1021REMSYN082AAXX  29151 15562 41498 73603 10220 20142 40161 54000 70222 87500 555 92015 92418;
0179155620999992000082921004+43360+028470FM-12+006499999V0203601N005012200019N0200001N1+01801+01231101681ADDAY101031AY201031GA1001+999999999GF100991001001999999001001MD1210011+9999MW1021UA1M999999029REMSYN076AAXX  29211 15562 41998 03605 10180 20123 40168 52001 70200 555 92024 92428;
0210155620999992000083003004+43360+028470FM-12+006499999V0203601N010012200019N0200001N1+01661+01111101561ADDAY101031AY201031GA1001+999999999GF100991001001999999001001KA1999M+02021MD1710071+9999MW1021UA1M999999039REMSYN094AAXX  30031 15562 41498 03610 10166 20111 40156 57007 70200 82500 555 10202 29062 92035 92438;
0156155620999992000083009004+43360+028470FM-12+006499999V0203201N012012200019N0200001N1+02401+00861101471ADDAY101031AY201031GF102991021011004501001001MD1710021+9999MW1021REMSYN082AAXX  30091 15562 41498 23212 10240 20086 40147 57002 70200 82100 555 92036 92438;
0156155620999992000083015004+43360+028470FM-12+006499999V0203201N004012200019N0200001N1+02201+01381101471ADDAY111031AY211031GF103991031021004501001001MD1310011+9999MW1011REMSYN082AAXX  30151 15562 41498 33204 10220 20138 40147 53001 70111 83200 555 92025 92428;
0150155620999992000083021004+43360+028470FM-12+006499999V0203201N002012200019N0200001N1+02001+01451101571ADDAY101031AY201031GF102991999999999999999999MD1210031+9999MW1021REMSYN076AAXX  30211 15562 41998 23202 10200 20145 40157 52003 70200 555 92012 92418;
0168155620999992000083103004+43360+028470FM-12+006499999V0209999C000012200019N0200001N1+02061+01641101521ADDAY101031AY201031GF103991031051004501001001MD1710031+9999MW1021REMSYN094AAXX  31031 15562 41498 30000 10206 20164 40152 57003 70200 83500 555 10206 29061 92010 92418;
0146155620999992000083109004+43360+028470FM-12+006499999V0201801N005012200019N0200001N1+02341+01701101501ADDAY101031AY201031GF102991021021004501031001MD1810011+9999MW1021REMSYN072AAXX  31091 15562 41498 21805 10234 20170 40150 58001 70200 82230 92013;
0156155620999992000083115004+43360+028470FM-12+006499999V0201801N006012200019N0200001N1+02321+01531101321ADDAY111031AY211031GF102991011021004501031001MD1710111+9999MW1011REMSYN082AAXX  31151 15562 41498 21806 10232 20153 40132 57011 70111 81230 555 92034 92438;
0156155620999992000083121004+43360+028470FM-12+006499999V0201801N005012200019N0200001N1+02301+01871101261ADDAY101031AY201031GF103991031051004501001001MD1810061+9999MW1021REMSYN082AAXX  31211 15562 41498 31805 10230 20187 40126 58006 70200 83500 555 92034 92438;
0204155620999992000090103004+43360+028470FM-12+006499999V0201801N008012200019N0200001N1+02301+01891100981ADDAY101031AY201031GA1001+999999999GF100991001001999999001001KA1999M+02261MD1710121+9999MW1021UA1M999999039REMSYN088AAXX  01031 15562 41998 01808 10230 20189 40098 57012 70200 555 10226 29069 92034 92438;
0179155620999992000090109004+43360+028470FM-12+006499999V0202801N010012200019N0200001N1+02441+01811100831ADDAY101031AY201031GA1001+999999999GF100991001001999999001001MD1710141+9999MW1021UA1M999999039REMSYN076AAXX  01091 15562 41998 02810 10244 20181 40083 57014 70200 555 92035 92438;
0179155620999992000090115004+43360+028470FM-12+006499999V0201801N012012200019N0100001N1+02481+01891100471ADDAY101031AY201031GA1001+999999999GF100991001001999999001001MD1710231+9999MW1021UA1M999999049REMSYN076AAXX  01151 15562 41997 01812 10248 20189 40047 57023 70200 555 92046 92447;
0156155620999992000090121004+43360+028470FM-12+006499999V0203401N006010042019N0200001N1+02281+01111100421ADDAY111031AY211031GF108991081051004501999999MD1410001+9999MW1031REMSYN082AAXX  01211 15562 41498 83406 10228 20111 40042 54000 70311 885// 555 92024 92438;
0204155620999992000090203004+43360+028470FM-12+006499999V0203201N010012200019N0200001N1+02001+01341100451ADDAY101031AY201031GA1001+999999999GF100991001001999999001001KA1999M+02401MD1810041+9999MW1021UA1M999999039REMSYN088AAXX  02031 15562 41998 03210 10200 20134 40045 58004 70200 555 10240 29060 92035 92438;
0156155620999992000090209004+43360+028470FM-12+006499999V0202701N008012200019N0200001N1+02361+01501100521ADDAY111031AY211031GF102991011011004501031001MD1810051+9999MW1011REMSYN082AAXX  02091 15562 41498 22708 10236 20150 40052 58005 70111 81130 555 92035 92438;
0156155620999992000090215004+43360+028470FM-12+006499999V0200501N003010360019N0200001N1+02401+01841100561ADDAY121031AY221031GF107991031051004501031001MD1310081+9999MW1021REMSYN082AAXX  02151 15562 41498 70503 10240 20184 40056 53008 70222 83530 555 92023 92428;
0179155620999992000090221004+43360+028470FM-12+006499999V0203601N002012200019N0200001N1+02221+01911100731ADDAY101031AY201031GA1001+999999999GF100991001001999999001001MD1210031+9999MW1021UA1M999999019REMSYN076AAXX  02211 15562 41998 03602 10222 20191 40073 52003 70200 555 92015 92418;
0204155620999992000090303004+43360+028470FM-12+006499999V0203201N003012200019N0100001N1+02141+01921100661ADDAY101031AY201031GA1001+999999999GF100991001001999999001001KA1999M+02291MD1310011+9999MW1021UA1M999999019REMSYN088AAXX  03031 15562 41997 03203 10214 20192 40066 53001 70200 555 10229 29065 92012 92417;
0179155620999992000090309004+43360+028470FM-12+006499999V0200501N004012200019N0200001N1+02401+01471100731ADDAY101031AY201031GA1001+999999999GF100991001001999999001001MD1310071+9999MW1021UA1M999999019REMSYN076AAXX  03091 15562 41998 00504 10240 20147 40073 53007 70200 555 92013 92418;
0179155620999992000090315004+43360+028470FM-12+006499999V0200501N003012200019N0100001N1+02501+01771100681ADDAY101031AY201031GA1001+999999999GF100991001001999999001001MD1810041+9999MW1021UA1M999999019REMSYN076AAXX  03151 15562 41997 00503 10250 20177 40068 58004 70200 555 92012 92417;
0244155620999992000090318004+43360+028470FM-12+006499999V0200501N002012200019N0100001N1+02301+01891100701ADDAA199000091AY101061AY201061GA1001+999999999GF100991001001999999001001KA1120M+02581MD1310021+9999MW1021UA1M990009019REMSYN098AAXX  03181 15562 31997 00502 10230 20189 40070 53002 70200 222// 2//00 333 10258 555 92012 92417;EQDQ01  00002PRCP99
0179155620999992000090321004+43360+028470FM-12+006499999V0209999C000012200019N0100001N1+02301+01061100731ADDAY101031AY201031GA1001+999999999GF100991001001999999001001MD1210021+9999MW1021UA1M999999009REMSYN076AAXX  03211 15562 41997 00000 10230 20106 40073 52002 70200 555 92002 92407;
0168155620999992000090403004+43360+028470FM-12+006499999V0203201N010010042019N0100001N1+02121+01281100911ADDAY111031AY211031GF108991081051004501999999MD1210031+9999MW1031REMSYN094AAXX  04031 15562 41497 83210 10212 20128 40091 52003 70311 885// 555 10232 29072 92035 92437;
0156155620999992000090409004+43360+028470FM-12+006499999V0203201N007010042019N0200001N1+02481+01371101051ADDAY121031AY221031GF106991051051004501031001MD1210121+9999MW1021REMSYN082AAXX  04091 15562 41498 63207 10248 20137 40105 52012 70222 85530 555 92026 92428;
0179155620999992000090415004+43360+028470FM-12+006499999V0200501N004012200019N0200001N1+02421+01861101011ADDAY101031AY201031GA1001+999999999GF100991001001999999001001MD1810051+9999MW1021UA1M999999019REMSYN076AAXX  04151 15562 41998 00504 10242 20186 40101 58005 70200 555 92013 92418;
0156155620999992000090421004+43360+028470FM-12+006499999V0200501N005010042019N0200001N1+02001+01941101241ADDAY191031AY221031GF108991061091004501021999MD1310181+9999MW1951REMSYN082AAXX  04211 15562 41498 80505 10200 20194 40124 53018 79592 8692/ 555 92024 92428;
0174155620999992000090503004+43360+028470FM-12+006499999V0203601N007010042019N0200001N1+02101+01341101051ADDAY111031AY211031GF107991071051004501001001MD1710091+9999MW1031REMSYN100AAXX  05031 15562 41498 73607 10210 20134 40105 57009 70311 87500 555 10230 29072 60094 92014 92418;
0156155620999992000090509004+43360+028470FM-12+006499999V0203201N005010042019N0200001N1+02421+01921100841ADDAY111031AY211031GF105991051051004501001001MD1810201+9999MW1031REMSYN082AAXX  05091 15562 41498 53205 10242 20192 40084 58020 70311 85500 555 92035 92438;
0156155620999992000090515004+43360+028470FM-12+006499999V0200501N002010042019N0100001N1+02301+02001100871ADDAY181031AY221031GF108991081051004501999999MD1710131+9999MW1801REMSYN082AAXX  05151 15562 41497 80502 10230 20200 40087 57013 78082 885// 555 92023 92428;
0156155620999992000090521004+43360+028470FM-12+006499999V0203201N012010042019N0100001N1+01681+01401100741ADDAY191031AY281031GF108991081051004501999999MD1210081+9999MW1021REMSYN082AAXX  05211 15562 41497 83212 10168 20140 40074 52008 70298 885// 555 92036 92437;
0164155620999992000090603004+43360+028470FM-12+006499999V0203201N012010042019N0100001N1+01521+01151100531ADDAY121031AY221031GF106991061051004501001001MD1410001+9999MW1021REMSYN090AAXX  06031 15562 41497 63212 10152 20115 40053 54000 70222 86500 222// 10196 29084 60054;
0156155620999992000090609004+43360+028470FM-12+006499999V0203201N010010042019N0200001N1+01721+01171100411ADDAY121031AY221031GF107991071051004501001001MD1710091+9999MW1021REMSYN082AAXX  06091 15562 41498 73210 10172 20117 40041 57009 70222 87500 555 92035 92438;
0219155620999992000090615004+43360+028470FM-12+006499999V0203201N016010042019N0040001N1+01501+01431100461ADDAY161031AY221031GF108991081001004501021999MD1310021+9999MW1611OA149901801OA259901601UA1M999999049REMSYN110AAXX  06151 15562 41496 83216 10150 20143 40046 53002 76162 8802/ 333 91118 91216 91532 555 92047 92446 96010;
0213155620999992000090621004+43360+028470FM-12+006499999V0203201N020010042019N0200001N1+01221+01031100711ADDAY161031AY221031GF108991081051004501999999MD1410001+9999MW1021OA149902001OA259902201UA1M999999049REMSYN104AAXX  06211 15562 41498 83220 10122 20103 40071 54000 70262 885// 333 91120 91222 91232 555 92048 92448;
0255155620999992000090703004+43360+028470FM-12+006499999V0203201N014010042019N0200001N1+01301+01161100871ADDAA124002091AY161031AY261031GF108991081001004501021999KA1120M+01451MD1210101+9999MW1611OA149902201OA259902001UA1M999999039REMSYN122AAXX  07031 15562 41498 83214 10130 20116 40087 52010 76166 8802/ 333 10145 29082 60024 91122 91220 91532 555 92039 92438;
0156155620999992000090709004+43360+028470FM-12+006499999V0203201N006010360019N0200001N1+01801+00841100881ADDAY111031AY211031GF106991031011004501031001MD1310061+9999MW1031REMSYN082AAXX  07091 15562 41498 63206 10180 20084 40088 53006 70311 83130 555 92037 92438;
0156155620999992000090715004+43360+028470FM-12+006499999V0203201N006010360019N0200001N1+02021+00701100961ADDAY121031AY221031GF106991031021004501031001MD1210051+9999MW1021REMSYN082AAXX  07151 15562 41498 63206 10202 20070 40096 52005 70222 83230 555 92024 92428;
0179155620999992000090721004+43360+028470FM-12+006499999V0202701N002012200019N0200001N1+01881+00891101241ADDAY111031AY211031GA1001+999999999GF100991001001999999001001MD1210101+9999MW1011UA1M999999019REMSYN076AAXX  07211 15562 41998 02702 10188 20089 40124 52010 70111 555 92012 92418;
0174155620999992000090803004+43360+028470FM-12+006499999V0203201N006012200019N0200001N1+01681+00621101451ADDAY101031AY201031GF102991021051004501001001MD1210131+9999MW1021REMSYN100AAXX  08031 15562 41498 23206 10168 20062 40145 52013 70200 82500 555 10177 29058 69914 92024 92428;
0156155620999992000090809004+43360+028470FM-12+006499999V0200901N003012200019N0200001N1+02101+01131101841ADDAY101031AY201031GF101991011011004501001001MD1210191+9999MW1021REMSYN082AAXX  08091 15562 41498 10903 10210 20113 40184 52019 70200 81100 555 92013 92418;
0156155620999992000090815004+43360+028470FM-12+006499999V0200901N006012200019N0200001N1+01921+01171101981ADDAY101031AY201031GF102991021051004501001001MD1210081+9999MW1021REMSYN082AAXX  08151 15562 41498 20906 10192 20117 40198 52008 70200 82500 555 92024 92428;
0179155620999992000090821004+43360+028470FM-12+006499999V0200901N002012200019N0200001N1+01801+01061102381ADDAY101031AY201031GA1001+999999999GF100991001001999999001001MD1210221+9999MW1021UA1M999999009REMSYN076AAXX  08211 15562 41998 00902 10180 20106 40238 52022 70200 555 92003 92408;
0168155620999992000090903004+43360+028470FM-12+006499999V0203601N005012200019N0200001N1+01741+00901102461ADDAY101031AY201031GF102991021051004501001001MD1210071+9999MW1021REMSYN094AAXX  09031 15562 41498 23605 10174 20090 40246 52007 70200 82500 555 10188 29053 92023 92428;
0156155620999992000090909004+43360+028470FM-12+006499999V0203501N004012200019N0200001N1+02181+01111102601ADDAY101031AY201031GF102991021021004501001001MD1210041+9999MW1021REMSYN082AAXX  09091 15562 41498 23504 10218 20111 40260 52004 70200 82200 555 92013 92418;
0179155620999992000090915004+43360+028470FM-12+006499999V0200901N003012200019N0200001N1+02081+01151102601ADDAY101031AY201031GA1001+999999999GF100991001001999999001001MD1310021+9999MW1021UA1M999999029REMSYN076AAXX  09151 15562 41998 00903 10208 20115 40260 53002 70200 555 92024 92428;
0179155620999992000090921004+43360+028470FM-12+006499999V0200901N002012200019N0200001N1+01821+01211102751ADDAY101031AY201031GA1001+999999999GF100991001001999999001001MD1810041+9999MW1021UA1M999999019REMSYN076AAXX  09211 15562 41998 00902 10182 20121 40275 58004 70200 555 92012 92418;
0168155620999992000091003004+43360+028470FM-12+006499999V0203601N003012200019N0200001N1+01701+01151102671ADDAY101031AY201031GF102991021051004501001001MD1710051+9999MW1021REMSYN094AAXX  10031 15562 41498 23603 10170 20115 40267 57005 70200 82500 555 10186 29065 92012 92418;
0156155620999992000091009004+43360+028470FM-12+006499999V0200901N003012200019N0200001N1+02141+01471102611ADDAY121031AY221031GF106991031021004501001011MD1410001+9999MW1021REMSYN082AAXX  10091 15562 41498 60903 10214 20147 40261 54000 70222 83201 555 92012 92418;
0156155620999992000091015004+43360+028470FM-12+006499999V0200901N004012200019N0200001N1+02001+01421102281ADDAY101031AY201031GF103991021021004501001011MD1710191+9999MW1021REMSYN082AAXX  10151 15562 41498 30904 10200 20142 40228 57019 70200 82201 555 92023 92428;
0156155620999992000091021004+43360+028470FM-12+006499999V0200701N003012200019N0200001N1+01881+01361102111ADDAY101031AY201031GF103991031021004501001001MD1710071+9999MW1021REMSYN082AAXX  10211 15562 41498 30703 10188 20136 40211 57007 70200 83200 555 92024 92428;
0168155620999992000091103004+43360+028470FM-12+006499999V0200501N004012200019N0200001N1+01741+01321101711ADDAY101031AY201031GF102991021011004501001001MD1710181+9999MW1021REMSYN094AAXX  11031 15562 41498 20504 10174 20132 40171 57018 70200 82100 555 10194 29069 92013 92418;
0156155620999992000091109004+43360+028470FM-12+006499999V0200501N004012200019N0009001N1+02281+01581101591ADDAY111031AY211031GF104991041021004501001001MD1710071+9999MW1011REMSYN082AAXX  11091 15562 41409 40504 10228 20158 40159 57007 70111 84200 555 92013 92418;
0156155620999992000091115004+43360+028470FM-12+006499999V0200501N004010042019N0200001N1+02081+01561101341ADDAY111031AY211031GF106991061011004501001001MD1710151+9999MW1031REMSYN082AAXX  11151 15562 41498 60504 10208 20156 40134 57015 70311 86100 555 92023 92428;
0179155620999992000091121004+43360+028470FM-12+006499999V0200901N002012200019N0200001N1+01881+01441101271ADDAY101031AY201031GA1001+999999999GF100991001001999999001001MD1410001+9999MW1021UA1M999999019REMSYN076AAXX  11211 15562 41998 00902 10188 20144 40127 54000 70200 555 92014 92418;
0168155620999992000091203004+43360+028470FM-12+006499999V0203601N008012200019N0200001N1+01981+01321101081ADDAY101031AY201031GF102991021051004501001001MD1710151+9999MW1021REMSYN094AAXX  12031 15562 41498 23608 10198 20132 40108 57015 70200 82500 555 10194 29073 92025 92428;
0156155620999992000091209004+43360+028470FM-12+006499999V0203601N005010360019N0200001N1+02301+01221101081ADDAY121031AY221031GF106991041021004501031001MD1810011+9999MW1021REMSYN082AAXX  12091 15562 41498 63605 10230 20122 40108 58001 70222 84230 555 92024 92428;
0156155620999992000091215004+43360+028470FM-12+006499999V0200901N003012200019N0100001N1+02221+01641101191ADDAY111031AY211031GF102991021051004501001001MD1210041+9999MW1011REMSYN082AAXX  12151 15562 41497 20903 10222 20164 40119 52004 70111 82500 555 92013 92417;
0179155620999992000091221004+43360+028470FM-12+006499999V0203601N005012200019N0100001N1+01881+01621101341ADDAY101031AY201031GA1001+999999999GF100991001001999999001001MD1210051+9999MW1021UA1M999999029REMSYN076AAXX  12211 15562 41997 03605 10188 20162 40134 52005 70200 555 92023 92427;
0168155620999992000091303004+43360+028470FM-12+006499999V0203601N006012200019N0100001N1+01741+01511101471ADDAY101031AY201031GF102991021051004501001001MD1210051+9999MW1021REMSYN094AAXX  13031 15562 41497 23606 10174 20151 40147 52005 70200 82500 555 10197 29077 92024 92427;
0156155620999992000091309004+43360+028470FM-12+006499999V0200501N004012200019N0200001N1+02261+01751101671ADDAY101031AY201031GF102991021021004501001001MD1210131+9999MW1021REMSYN082AAXX  13091 15562 41498 20504 10226 20175 40167 52013 70200 82200 555 92023 92428;
0156155620999992000091315004+43360+028470FM-12+006499999V0200901N004019999999N0100001N1+02301+01831101671ADDAY121031AY221031GF105991051051999999001001MD1410001+9999MW1021REMSYN082AAXX  13151 15562 41997 50904 10230 20183 40167 54000 70222 85500 555 92013 92417;
0179155620999992000091321004+43360+028470FM-12+006499999V0201801N004012200019N0200001N1+02061+01641101751ADDAY101031AY201031GA1001+999999999GF100991001001999999001001MD1210031+9999MW1021UA1M999999029REMSYN076AAXX  13211 15562 41998 01804 10206 20164 40175 52003 70200 555 92023 92428;
0168155620999992000091403004+43360+028470FM-12+006499999V0209999C000012200019N0200001N1+02001+01501101671ADDAY101031AY201031GF102991021051004501001001MD1710031+9999MW1021REMSYN094AAXX  14031 15562 41498 20000 10200 20150 40167 57003 70200 82500 555 10211 29076 92012 92418;
0179155620999992000091415004+43360+028470FM-12+006499999V0201801N003012200019N0200001N1+02161+01681101551ADDAY101031AY201031GA1001+999999999GF100991001001999999001001MD1710071+9999MW1021UA1M999999019REMSYN076AAXX  14151 15562 41998 01803 10216 20168 40155 57007 70200 555 92013 92418;
0179155620999992000091421004+43360+028470FM-12+006499999V0201801N005012200019N0200001N1+02041+01741101461ADDAY101031AY201031GA1001+999999999GF100991001001999999001001MD1410001+9999MW1021UA1M999999019REMSYN076AAXX  14211 15562 41998 01805 10204 20174 40146 54000 70200 555 92014 92418;
0204155620999992000091503004+43360+028470FM-12+006499999V0202301N007012200019N0200001N1+02101+01811101291ADDAY101031AY201031GA1001+999999999GF100991001001999999001001KA1999M+02121MD1710151+9999MW1021UA1M999999029REMSYN088AAXX  15031 15562 41998 02307 10210 20181 40129 57015 70200 555 10212 29074 92024 92428;
0156155620999992000091509004+43360+028470FM-12+006499999V0202301N004019999999N0200001N1+02341+01511101251ADDAY111031AY211031GF105991001001999999001051MD1310021+9999MW1031REMSYN082AAXX  15091 15562 41998 52304 10234 20151 40125 53002 70311 80005 555 92025 92428;
0156155620999992000091515004+43360+028470FM-12+006499999V0202301N003012200019N0200001N1+02281+01701101211ADDAY111031AY211031GF102991011021004501001011MD1310011+9999MW1011REMSYN082AAXX  15151 15562 41498 22303 10228 20170 40121 53001 70111 81201 555 92022 92428;
0156155620999992000091521004+43360+028470FM-12+006499999V0200501N005010360019N0200001N1+02041+01611101531ADDAY191031AY221031GF106991021091004501051001MD1210181+9999MW1171REMSYN082AAXX  15211 15562 41498 60505 10204 20161 40153 52018 71792 82950 555 92023 92428;
0168155620999992000091603004+43360+028470FM-12+006499999V0203601N012010042019N0200001N1+01661+01111101721ADDAY121031AY221031GF106991061051004501001001MD1210161+9999MW1021REMSYN094AAXX  16031 15562 41498 63612 10166 20111 40172 52016 70222 86500 555 10215 29072 92036 92438;
0156155620999992000091609004+43360+028470FM-12+006499999V0203601N010010042019N0200001N1+01661+01151101961ADDAY121031AY221031GF108991081051004501999999MD1210081+9999MW1021REMSYN082AAXX  16091 15562 41498 83610 10166 20115 40196 52008 70222 885// 555 92035 92438;
0156155620999992000091615004+43360+028470FM-12+006499999V0200901N006012200019N0200001N1+01781+01121101831ADDAY111031AY211031GF104991021021004501031001MD1710111+9999MW1011REMSYN082AAXX  16151 15562 41498 40906 10178 20112 40183 57011 70111 82230 555 92024 92428;
0156155620999992000091621004+43360+028470FM-12+006499999V0200901N004010042019N0200001N1+01761+01221101781ADDAY111031AY211031GF108991081051004501999999MD1810051+9999MW1031REMSYN082AAXX  16211 15562 41498 80904 10176 20122 40178 58005 70311 885// 555 92024 92428;
0168155620999992000091703004+43360+028470FM-12+006499999V0200501N004010042019N0200001N1+01841+01311101591ADDAY121031AY221031GF106991061051004501001001MD1710091+9999MW1021REMSYN094AAXX  17031 15562 41498 60504 10184 20131 40159 57009 70222 86500 555 10172 29069 92013 92418;
0156155620999992000091709004+43360+028470FM-12+006499999V0201401N004010042019N0200001N1+02021+01511101471ADDAY121031AY221031GF107991071051004501001001MD1710061+9999MW1021REMSYN082AAXX  17091 15562 41498 71404 10202 20151 40147 57006 70222 87500 555 92023 92428;
0156155620999992000091715004+43360+028470FM-12+006499999V0201801N009012200019N0200001N1+02041+01561101281ADDAY111031AY211031GF102991021051004501001011MD1710071+9999MW1011REMSYN082AAXX  17151 15562 41498 21809 10204 20156 40128 57007 70111 82501 555 92035 92438;
0179155620999992000091721004+43360+028470FM-12+006499999V0201801N008012200019N0200001N1+02061+01741101201ADDAY101031AY201031GA1001+999999999GF100991001001999999001001MD1710061+9999MW1021UA1M999999039REMSYN076AAXX  17211 15562 41998 01808 10206 20174 40120 57006 70200 555 92035 92438;
0174155620999992000091803004+43360+028470FM-12+006499999V0201801N004010042019N0200001N1+01801+01641101141ADDAY161031AY221031GF108991081051004501999999MD1710041+9999MW1021REMSYN100AAXX  18031 15562 41498 81804 10180 20164 40114 57004 70262 885// 555 10201 29075 69944 92025 92428;
0179155620999992000091809004+43360+028470FM-12+006499999V0209999C000012200019N0200001N1+02401+01391101121ADDAY101031AY201031GA1001+999999999GF100991001001999999001001MD1210041+9999MW1021UA1M999999019REMSYN076AAXX  18091 15562 41998 00000 10240 20139 40112 52004 70200 555 92013 92418;
0156155620999992000091815004+43360+028470FM-12+006499999V0201401N002012200019N0200001N1+02241+01771101211ADDAY101031AY201031GF102991021021004501001001MD1810021+9999MW1021REMSYN082AAXX  18151 15562 41498 21402 10224 20177 40121 58002 70200 82200 555 92011 92418;
0156155620999992000091821004+43360+028470FM-12+006499999V0201801N002010042019N0100001N1+02101+01941101281ADDAY111031AY211031GF106991061051004501001001MD1210041+9999MW1031REMSYN082AAXX  18211 15562 41497 61802 10210 20194 40128 52004 70311 86500 555 92012 92417;
0221155620999992000091903004+43360+028470FM-12+006499999V0201801N002012200019N0200001N1+02061+01511101281ADDAA124004091AY181031AY211031GA1001+999999999GF100991001001999999001001KA1999M+02171MD1310131+9999MW1011UA1M999999019REMSYN094AAXX  19031 15562 41998 01802 10206 20151 40128 53013 70181 555 10217 29077 60044 92013 92418;
0156155620999992000091909004+43360+028470FM-12+006499999V0209999C000012200019N0100001N1+02351+01981101191ADDAY101031AY201031GF103991021021004501031001MD1810081+9999MW1021REMSYN082AAXX  19091 15562 41497 30000 10235 20198 40119 58008 70200 82230 555 92000 92407;
0162155620999992000091915004+43360+028470FM-12+006499999V0202301N003010042019N0040001N1+02341+02021101151ADDAY191031AY281031GF108991051091004501021999MD1310021+9999MW1951REMSYN088AAXX  19151 15562 41496 82303 10234 20202 40115 53002 79598 8592/ 555 92012 92416 96010;
0179155620999992000091921004+43360+028470FM-12+006499999V0202501N005012200019N0200001N1+02201+01721101281ADDAY101031AY201031GA1001+999999999GF100991001001999999001001MD1210061+9999MW1021UA1M999999019REMSYN076AAXX  19211 15562 41998 02505 10220 20172 40128 52006 70200 555 92013 92418;
0221155620999992000092003004+43360+028470FM-12+006499999V0203201N004012200019N0200001N1+01921+01561101421ADDAA124003091AY101031AY201031GA1001+999999999GF100991001001999999001001KA1999M+02241MD1210041+9999MW1021UA1M999999019REMSYN094AAXX  20031 15562 41998 03204 10192 20156 40142 52004 70200 555 10224 29077 60034 92013 92418;
0156155620999992000092009004+43360+028470FM-12+006499999V0203201N002012200019N0200001N1+02301+01741101531ADDAY111031AY211031GF102991021021004501001001MD1210081+9999MW1011REMSYN082AAXX  20091 15562 41498 23202 10230 20174 40153 52008 70111 82200 555 92012 92418;
0179155620999992000092015004+43360+028470FM-12+006499999V0201801N003012200019N0100001N1+02221+01841101491ADDAY101031AY201031GA1001+999999999GF100991001001999999001001MD1710011+9999MW1021UA1M999999019REMSYN076AAXX  20151 15562 41997 01803 10222 20184 40149 57001 70200 555 92012 92417;
0179155620999992000092021004+43360+028470FM-12+006499999V0202501N004012200019N0100001N1+02181+02061101481ADDAY101031AY201031GA1001+999999999GF100991001001999999001001MD1410001+9999MW1021UA1M999999029REMSYN076AAXX  20211 15562 41997 02504 10218 20206 40148 54000 70200 555 92023 92427;
0168155620999992000092103004+43360+028470FM-12+006499999V0202501N005010042019N0100001N1+02141+02081101171ADDAY111031AY211031GF106991061051004501001001MD1710131+9999MW1031REMSYN094AAXX  21031 15562 41497 62505 10214 20208 40117 57013 70311 86500 555 10215 29084 92023 92427;
0179155620999992000092109004+43360+028470FM-12+006499999V0202701N002012200019N0100001N1+02361+01981101201ADDAY101031AY201031GA1001+999999999GF100991001001999999001001MD1310061+9999MW1021UA1M999999019REMSYN076AAXX  21091 15562 41997 02702 10236 20198 40120 53006 70200 555 92013 92417;
0221155620999992000092112004+43360+028470FM-12+006499999V0200901N006012200019N0100001N1+02421+01891101221ADDAA199000091AY101061AY201061GA1001+999999999GF100991001001999999001001MD1210021+9999MW1021UA1M990059029REMSYN088AAXX  21121 15562 31997 00906 10242 20189 40122 52002 70200 222// 2//01 555 92024 92427;EQDQ01  00002PRCP99
0156155620999992000092115004+43360+028470FM-12+006499999V0200501N008010042019N0100001N1+02121+01901101241ADDAY111031AY211031GF108991081051004501999999MD1210021+9999MW1031REMSYN082AAXX  21151 15562 41497 80508 10212 20190 40124 52002 70311 885// 555 92035 92437;
0234155620999992000092118004+43360+028470FM-12+006499999V0200901N008010042019N0200001N1+02021+01801101491ADDAA199000091AY111061AY211061GF108991081051004501999999KA1120M+02701MD1210251+9999MW1021UA1M990109039REMSYN104AAXX  21181 15562 31498 80908 10202 20180 40149 52025 70211 885// 222// 2//02 333 10270 555 92035 92438;EQDQ01  00002PRCP99
0156155620999992000092121004+43360+028470FM-12+006499999V0200501N012010042019N0200001N1+01961+01701101431ADDAY121031AY221031GF108991081051004501999999MD1810061+9999MW1021REMSYN082AAXX  21211 15562 41498 80512 10196 20170 40143 58006 70222 885// 555 92035 92438;
0211155620999992000092200004+43360+028470FM-12+006499999V0200501N010010042019N0200001N1+01901+01781101511ADDAA199000091AY121061AY221061GF108991081051004501999999MD1310071+9999MW1021UA1M999999039REMSYN094AAXX  22001 15562 31498 80510 10190 20178 40151 53007 70222 885// 222// 2//02 555 92036 92438;EQDQ01  00002PRCP99
0168155620999992000092203004+43360+028470FM-12+006499999V0200501N012010042019N0200001N1+01881+01761101451ADDAY121031AY221031GF108991081051004501999999MD1810061+9999MW1021REMSYN094AAXX  22031 15562 41498 80512 10188 20176 40145 58006 70222 885// 555 10212 29085 92034 92438;
0272155620999992000092206004+43360+028470FM-12+006499999V0200901N014010042019N0200001N1+01921+01551101331ADDAA199000091AY121061AY221061GF108991081051004501999999GJ104809IA1019IA2999+01609KA1120N+01881MD1710121+9999MW1021UA1M999999049REMSYN116AAXX  22061 15562 31498 80914 10192 20155 40133 57012 70222 885// 222// 2//03 333 20188 55080 555 30016 92047 92448;EQDQ01  00002PRCP99
0156155620999992000092209004+43360+028470FM-12+006499999V0200901N014010042019N0200001N1+01901+01381101581ADDAY121031AY221031GF108991081051004501999999MD1310221+9999MW1021REMSYN082AAXX  22091 15562 41498 80914 10190 20138 40158 53022 70222 885// 555 92047 92448;
0199155620999992000092212004+43360+028470FM-12+006499999V0200901N012010042019N0200001N1+01921+01141101671ADDAA199000091AY121061AY221061GF108991081051004501999999MD1210091+9999MW1021UA1M999999049REMSYN082AAXX  22121 15562 31498 80912 10192 20114 40167 52009 70222 885// 555 92047 92448;EQDQ01  00002PRCP99
0156155620999992000092215004+43360+028470FM-12+006499999V0200901N012010042019N0200001N1+01901+01381101611ADDAY121031AY221031GF107991071051004501001001MD1810061+9999MW1021REMSYN082AAXX  22151 15562 41498 70912 10190 20138 40161 58006 70222 87500 555 92046 92448;
0234155620999992000092218004+43360+028470FM-12+006499999V0200901N012010042019N0200001N1+01841+01541101681ADDAA199000091AY121061AY221061GF105991051051004501001001KA1120M+01941MD1310061+9999MW1021UA1M999999049REMSYN104AAXX  22181 15562 31498 50912 10184 20154 40168 53006 70222 85500 222// 2//03 333 10194 555 92046 92448;EQDQ01  00002PRCP99
0156155620999992000092221004+43360+028470FM-12+006499999V0200901N012010042019N0200001N1+01861+01521101731ADDAY121031AY221031GF108991081051004501999999MD1210051+9999MW1021REMSYN082AAXX  22211 15562 41498 80912 10186 20152 40173 52005 70222 885// 555 92046 92448;
0211155620999992000092300004+43360+028470FM-12+006499999V0203201N010010042019N0200001N1+01781+01481101821ADDAA199000091AY121061AY221061GF108991081051004501999999MD1210091+9999MW1021UA1M999999039REMSYN094AAXX  23001 15562 31498 83210 10178 20148 40182 52009 70222 885// 222// 2//02 555 92036 92438;EQDQ01  00002PRCP99
0168155620999992000092303004+43360+028470FM-12+006499999V0203601N012010042019N0200001N1+01801+01271101641ADDAY121031AY221031GF108991081051004501999999MD1810181+9999MW1021REMSYN094AAXX  23031 15562 41498 83612 10180 20127 40164 58018 70222 885// 555 10190 29077 92046 92448;
0265155620999992000092306004+43360+028470FM-12+006499999V0200501N012010042019N0040001N1+01681+99999101651ADDAA112000591AY121061AY221061GF108991051061004501021999GJ101089IA1099IA2999+01409KA1120N+01681MD1310011+9999MW1611UA1M990159049REMSYN128AAXX  23061 15562 11496 80512 10168 20170 40165 53001 69942 76122 8562/ 222// 2//03 333 20168 55018 555 31014 92046 92446 96010;
0156155620999992000092309004+43360+028470FM-12+006499999V0200501N012010042019N0200001N1+01721+01261101781ADDAY161031AY221031GF108991081051004501999999MD1210121+9999MW1021REMSYN082AAXX  23091 15562 41498 80512 10172 20126 40178 52012 70262 885// 555 92046 92448;
0248155620999992000092312004+43360+028470FM-12+006499999V0203601N018010042019N0040001N1+01401+01221101811ADDAA106001091AY161061AY221061GF108991051031004501021999MD1210021+9999MW1611OA149902001OA259901801UA1M990159049REMSYN128AAXX  23121 15562 11496 83618 10140 20122 40181 52002 60011 76162 8532/ 222// 2//03 333 91120 91218 91536 555 92048 92446 96010;
0147155620999992000092315004+43360+028470FM-12+006499999V0203601N018019999999N0040001N1+01121+99999999999ADDGF108991999999004501999999REMSYN109AAXX  23151 15562 41496 83618 10112 2000 40181 54000 76162 8572/ 333 91120 91218 91536 555 92048 92446 96010;
0267155620999992000092318004+43360+028470FM-12+006499999V0203601N018010042019N0040001N1+01021+00941102011ADDAA112004191AY161061AY221061GF108991051071004501021999KA1120M+01741MD1310191+9999MW1611OA149902001OA259901801UA1M990159049REMSYN134AAXX  23181 15562 11496 83618 10102 20094 40201 53019 60042 76162 8572/ 222// 2//03 333 10174 91120 91218 91536 555 92048 92446 96010;
0202155620999992000092321004+43360+028470FM-12+006499999V0203601N012010042019N0100001N1+01041+00921102011ADDAY161031AY221031GF108991081051004501999999MD1210011+9999MW1021OA149902001UA1M999999049REMSYN104AAXX  23211 15562 41497 83612 10104 20092 40201 52001 70262 885// 333 91120 91118 91536 555 92048 92447;
0231155620999992000092400004+43360+028470FM-12+006499999V0203601N012010042019N0100001N1+01121+01001102011ADDAA106002091AY161061AY221061GF108991051071004501021999MD1410001+9999MW1611OA149902001UA1M990159049REMSYN122AAXX  24001 15562 11497 83612 10112 20100 40201 54000 60021 76162 8572/ 222// 2//03 333 91120 91118 91536 555 92046 92447;
0174155620999992000092403004+43360+028470FM-12+006499999V0203601N012010042019N0100001N1+01141+01031102021ADDAY161031AY221031GF108991081051004501999999MD1310011+9999MW1021REMSYN100AAXX  24031 15562 41497 83612 10114 20103 40202 53001 70262 885// 555 10140 29089 60064 92046 92447;
0259155620999992000092406004+43360+028470FM-12+006499999V0203601N012010042019N0100001N1+01101+00981102021ADDAA112002091AY121061AY221061GF108991061071004501021999GJ100009IA1099IA2999+00709KA1120N+00961MD1410001+9999MW1021UA1M999999049REMSYN122AAXX  24061 15562 11497 83612 10110 20098 40202 54000 60022 70222 8672/ 222// 2//03 333 20096 55000 555 31007 92046 92447;
0156155620999992000092409004+43360+028470FM-12+006499999V0203601N012010042019N0100001N1+01101+00901102141ADDAY121031AY221031GF108991061071004501021999MD1310121+9999MW1021REMSYN082AAXX  24091 15562 41497 83612 10110 20090 40214 53012 70222 8672/ 555 92046 92447;
0192155620999992000092412004+43360+028470FM-12+006499999V0203401N014010042019N0200001N1+01061+00801102211ADDAA199000021AY121061AY221061GF108991061051004501011999MD1210071+9999MW1021UA1M999999049REMSYN094AAXX  24121 15562 31498 83414 10106 20080 40221 52007 70222 8651/ 222// 2//03 555 92047 92448;
0156155620999992000092415004+43360+028470FM-12+006499999V0203401N014010042019N0200001N1+00961+00711102281ADDAY121031AY221031GF108991081051004501999999MD1210061+9999MW1021REMSYN082AAXX  24151 15562 41498 83414 10096 20071 40228 52006 70222 885// 555 92047 92448;
0234155620999992000092418004+43360+028470FM-12+006499999V0203601N009010042019N0200001N1+00921+00711102351ADDAA199000091AY121061AY221061GF108991081051004501999999KA1120M+01181MD1210071+9999MW1021UA1M999999049REMSYN104AAXX  24181 15562 31498 83609 10092 20071 40235 52007 70222 885// 222// 2//03 333 10118 555 92047 92448;EQDQ01  00002PRCP99
0156155620999992000092421004+43360+028470FM-12+006499999V0203601N008010042019N0200001N1+00901+00681102381ADDAY121031AY221031GF108991081051004501999999MD1210031+9999MW1021REMSYN082AAXX  24211 15562 41498 83608 10090 20068 40238 52003 70222 885// 555 92046 92448;
0211155620999992000092500004+43360+028470FM-12+006499999V0203401N010010042019N0200001N1+00881+00701102401ADDAA199000091AY121061AY221061GF108991081051004501999999MD1210021+9999MW1021UA1M999999049REMSYN094AAXX  25001 15562 31498 83410 10088 20070 40240 52002 70222 885// 222// 2//03 555 92045 92448;EQDQ01  00002PRCP99
0168155620999992000092503004+43360+028470FM-12+006499999V0203201N014010042019N0200001N1+00861+00451102241ADDAY121031AY221031GF108991081051004501999999MD1810171+9999MW1021REMSYN094AAXX  25031 15562 41498 83214 10086 20045 40224 58017 70222 885// 555 10100 29088 92045 92448;
0272155620999992000092506004+43360+028470FM-12+006499999V0203201N012019999999N0200001N1+00881+00381102261ADDAA199000091AY121061AY221061GF106991061001999999031001GJ100009IA1099IA2999+00509KA1120N+00761MD1210021+9999MW1021UA1M999999039REMSYN116AAXX  25061 15562 31998 63212 10088 20038 40226 52002 70222 86030 222// 2//02 333 20076 55000 555 31005 92038 92438;EQDQ01  00002PRCP99
0156155620999992000092509004+43360+028470FM-12+006499999V0203401N009012200019N0200001N1+01321+00401102261ADDAY111031AY211031GF102991011021004501031001MD1210021+9999MW1011REMSYN082AAXX  25091 15562 41498 23409 10132 20040 40226 52002 70111 81230 555 92035 92438;
0211155620999992000092512004+43360+028470FM-12+006499999V0203601N009012200019N0200001N1+01361+00401102301ADDAA199000091AY111061AY211061GF103991021051004501031001MD1210031+9999MW1021UA1M990109039REMSYN094AAXX  25121 15562 31498 33609 10136 20040 40230 52003 70211 82530 222// 2//02 555 92035 92438;EQDQ01  00002PRCP99
0156155620999992000092515004+43360+028470FM-12+006499999V0203601N006010360019N0200001N1+01461+00431102261ADDAY111031AY211031GF106991021051004501031001MD1810031+9999MW1031REMSYN082AAXX  25151 15562 41498 63606 10146 20043 40226 58003 70311 82530 555 92025 92428;
0244155620999992000092518004+43360+028470FM-12+006499999V0203401N007012200019N0200001N1+01121+00461102321ADDAA199000091AY111061AY211061GA1001+999999999GF100991001001999999001001KA1120M+01551MD1310061+9999MW1011UA1M990059029REMSYN098AAXX  25181 15562 31998 03407 10112 20046 40232 53006 70111 222// 2//01 333 10155 555 92024 92428;EQDQ01  00002PRCP99
0179155620999992000092521004+43360+028470FM-12+006499999V0203201N007012200019N0200001N1+00961+00461102351ADDAY101031AY201031GA1001+999999999GF100991001001999999001001MD1210011+9999MW1021UA1M999999029REMSYN076AAXX  25211 15562 41998 03207 10096 20046 40235 52001 70200 555 92024 92428;
0221155620999992000092600004+43360+028470FM-12+006499999V0203201N009012200019N0200001N1+00921+00481102331ADDAA199000091AY101061AY201061GA1001+999999999GF100991001001999999001001MD1810021+9999MW1021UA1M990059039REMSYN088AAXX  26001 15562 31998 03209 10092 20048 40233 58002 70200 222// 2//01 555 92035 92438;EQDQ01  00002PRCP99
0204155620999992000092603004+43360+028470FM-12+006499999V0203201N009012200019N0200001N1+00901+00641102351ADDAY101031AY201031GA1001+999999999GF100991001001999999001001KA1999M+01051MD1310021+9999MW1021UA1M999999039REMSYN088AAXX  26031 15562 41998 03209 10090 20064 40235 53002 70200 555 10105 29066 92035 92438;
0272155620999992000092606004+43360+028470FM-12+006499999V0203201N009012200019N0200001N1+01021+00811102371ADDAA199000091AY101061AY201061GF102991001001999999001011GJ103789IA1099IA2999+00509KA1120N+00851MD1210021+9999MW1021UA1M990109039REMSYN116AAXX  26061 15562 31998 23209 10102 20081 40237 52002 70200 80001 222// 2//02 333 20085 55063 555 31005 92035 92438;EQDQ01  00002PRCP99
0156155620999992000092609004+43360+028470FM-12+006499999V0203201N010012200019N0200001N1+01321+00611102361ADDAY101031AY201031GF104991041021004501001001MD1410001+9999MW1021REMSYN082AAXX  26091 15562 41498 43210 10132 20061 40236 54000 70200 84200 555 92035 92438;
0211155620999992000092612004+43360+028470FM-12+006499999V0203601N008010042019N0200001N1+01421+00511102351ADDAA199000091AY111061AY211061GF107991061021004501031001MD1810011+9999MW1031UA1M990109039REMSYN094AAXX  26121 15562 31498 73608 10142 20051 40235 58001 70311 86230 222// 2//02 555 92035 92438;EQDQ01  00002PRCP99
0156155620999992000092615004+43360+028470FM-12+006499999V0203201N006010042019N0200001N1+01391+00581102321ADDAY121031AY221031GF106991061051004501001001MD1710031+9999MW1021REMSYN082AAXX  26151 15562 41498 63206 10139 20058 40232 57003 70222 86500 555 92035 92438;
0234155620999992000092618004+43360+028470FM-12+006499999V0203201N006012200019N0200001N1+01241+00611102351ADDAA199000091AY111061AY211061GF104991041051004501001001KA1120M+01441MD1310031+9999MW1011UA1M990109039REMSYN104AAXX  26181 15562 31498 43206 10124 20061 40235 53003 70111 84500 222// 2//02 333 10144 555 92034 92438;EQDQ01  00002PRCP99
0156155620999992000092621004+43360+028470FM-12+006499999V0203201N008012200019N0200001N1+01161+00761102351ADDAY101031AY201031GF103991031021004501001001MD1410001+9999MW1021REMSYN082AAXX  26211 15562 41498 33208 10116 20076 40235 54000 70200 83200 555 92035 92438;
0211155620999992000092700004+43360+028470FM-12+006499999V0203201N008010042019N0200001N1+01221+00681102351ADDAA199000091AY111061AY211061GF108991081051004501999999MD1410001+9999MW1031UA1M990109039REMSYN094AAXX  27001 15562 31498 83208 10122 20068 40235 54000 70311 885// 222// 2//02 555 92035 92438;EQDQ01  00002PRCP99
0168155620999992000092703004+43360+028470FM-12+006499999V0203201N008010042019N0200001N1+01201+00761102311ADDAY121031AY221031GF108991081051004501999999MD1810041+9999MW1021REMSYN094AAXX  27031 15562 41498 83208 10120 20076 40231 58004 70222 885// 555 10117 29070 92035 92438;
0272155620999992000092706004+43360+028470FM-12+006499999V0203401N010010042019N0200001N1+01221+00461102361ADDAA199000091AY121061AY221061GF107991051051004501031001GJ102349IA1019IA2999+00509KA1120N+00801MD1310051+9999MW1021UA1M999999039REMSYN116AAXX  27061 15562 31498 73410 10122 20046 40236 53005 70222 85530 222// 2//02 333 20080 55039 555 30005 92036 92438;EQDQ01  00002PRCP99
0156155620999992000092709004+43360+028470FM-12+006499999V0203601N009010042019N0200001N1+01431+00711102351ADDAY121031AY221031GF108991051051004501051999MD1410001+9999MW1021REMSYN082AAXX  27091 15562 41498 83609 10143 20071 40235 54000 70222 8555/ 555 92036 92438;
0211155620999992000092712004+43360+028470FM-12+006499999V0203601N004012200019N0200001N1+01741+00581102351ADDAA199000091AY111061AY211061GF103991021021004501031001MD1410001+9999MW1011UA1M990109039REMSYN094AAXX  27121 15562 31498 33604 10174 20058 40235 54000 70111 82230 222// 2//02 555 92035 92438;EQDQ01  00002PRCP99
0156155620999992000092715004+43360+028470FM-12+006499999V0203601N004010042019N0200001N1+01561+00671102311ADDAY111031AY211031GF106991061051004501001001MD1810041+9999MW1031REMSYN082AAXX  27151 15562 41498 63604 10156 20067 40231 58004 70311 86500 555 92023 92428;
0244155620999992000092718004+43360+028470FM-12+006499999V0203601N006012200019N0200001N1+01281+00291102371ADDAA199000091AY111061AY211061GA1001+999999999GF100991001001999999001001KA1120M+01831MD1310051+9999MW1011UA1M990059029REMSYN098AAXX  27181 15562 31998 03606 10128 20029 40237 53005 70111 222// 2//01 333 10183 555 92024 92428;EQDQ01  00002PRCP99
0156155620999992000092721004+43360+028470FM-12+006499999V0203201N004010042019N0200001N1+01161+00411102341ADDAY111031AY211031GF108991081051004501999999MD1410001+9999MW1031REMSYN082AAXX  27211 15562 41498 83204 10116 20041 40234 54000 70311 885// 555 92024 92428;
0221155620999992000092800004+43360+028470FM-12+006499999V0203201N005012200019N0200001N1+01161+00461102361ADDAA199000091AY111061AY211061GA1001+999999999GF100991001001999999001001MD1810041+9999MW1011UA1M990059029REMSYN088AAXX  28001 15562 31998 03205 10116 20046 40236 58004 70111 222// 2//01 555 92023 92428;EQDQ01  00002PRCP99
0278155620999992000092806004+43360+028470FM-12+006499999V0202901N005010042019N0200001N1+01261+00901102271ADDAA199000091AY111061AY211061GF106991051021004501031001IA1099IA2999+00809KA1120N+01001MD1710041+9999MW1031SA1+1749UA1M990059029REMSYN122AAXX  28061 15562 31498 62905 10126 20090 40227 57004 70311 85230 222// 00174 2//01 333 20100 50242 555 31008 92023 92428;EQDQ01  00002PRCP99
0156155620999992000092809004+43360+028470FM-12+006499999V0203201N002010042019N0200001N1+01401+00851102321ADDAY121031AY221031GF107991071051004501001001MD1310051+9999MW1021REMSYN082AAXX  28091 15562 41498 73202 10140 20085 40232 53005 70222 87500 555 92013 92418;
0211155620999992000092812004+43360+028470FM-12+006499999V0200501N004010042019N0200001N1+01661+00891102241ADDAA199000091AY121061AY221061GF107991071051004501001001MD1810071+9999MW1021UA1M999999029REMSYN094AAXX  28121 15562 31498 70504 10166 20089 40224 58007 70222 87500 222// 2//01 555 92023 92428;EQDQ01  00002PRCP99
0156155620999992000092815004+43360+028470FM-12+006499999V0200501N005010360019N0200001N1+01601+00951102101ADDAY121031AY221031GF107991031021004501031001MD1710141+9999MW1021REMSYN082AAXX  28151 15562 41498 70505 10160 20095 40210 57014 70222 83230 555 92023 92428;
0244155620999992000092818004+43360+028470FM-12+006499999V0200501N006012200019N0200001N1+01541+00931102161ADDAA199000091AY111061AY211061GA1001+999999999GF100991001001999999001001KA1120M+01681MD1310061+9999MW1011UA1M990109039REMSYN098AAXX  28181 15562 31998 00506 10154 20093 40216 53006 70111 222// 2//02 333 10168 555 92034 92438;EQDQ01  00002PRCP99
0179155620999992000092821004+43360+028470FM-12+006499999V0200501N004012200019N0200001N1+01361+00851102131ADDAY101031AY201031GA1001+999999999GF100991001001999999001001MD1810041+9999MW1021UA1M999999029REMSYN076AAXX  28211 15562 41998 00504 10136 20085 40213 58004 70200 555 92024 92428;
0221155620999992000092900004+43360+028470FM-12+006499999V0200501N004012200019N0200001N1+01261+00731102091ADDAA199000091AY101061AY201061GA1001+999999999GF100991001001999999001001MD1710041+9999MW1021UA1M990059029REMSYN088AAXX  29001 15562 31998 00504 10126 20073 40209 57004 70200 222// 2//01 555 92023 92428;EQDQ01  00002PRCP99
0204155620999992000092903004+43360+028470FM-12+006499999V0203601N004012200019N0200001N1+01281+00711101971ADDAY101031AY201031GA1001+999999999GF100991001001999999001001KA1999M+01491MD1710121+9999MW1021UA1M999999029REMSYN088AAXX  29031 15562 41998 03604 10128 20071 40197 57012 70200 555 10149 29068 92023 92428;
0272155620999992000092906004+43360+028470FM-12+006499999V0203601N004010360019N0200001N1+01401+00711102001ADDAA199000091AY111061AY211061GF105991031051004501031001GJ100129IA1019IA2999+00709KA1120N+01141MD1310031+9999MW1031UA1M990059029REMSYN116AAXX  29061 15562 31498 53604 10140 20071 40200 53003 70311 83530 222// 2//01 333 20114 55002 555 30007 92023 92428;EQDQ01  00002PRCP99
0156155620999992000092909004+43360+028470FM-12+006499999V0203601N002010042019N0200001N1+01841+00941102001ADDAY121031AY221031GF105991051021004501001001MD1210021+9999MW1021REMSYN082AAXX  29091 15562 41498 53602 10184 20094 40200 52002 70222 85200 555 92013 92418;
0211155620999992000092912004+43360+028470FM-12+006499999V0203601N004012200019N0200001N1+01781+01041101951ADDAA199000091AY111061AY211061GF103991031021004501001001MD1810041+9999MW1011UA1M990059029REMSYN094AAXX  29121 15562 31498 33604 10178 20104 40195 58004 70111 83200 222// 2//01 555 92023 92428;EQDQ01  00002PRCP99
0156155620999992000092915004+43360+028470FM-12+006499999V0203601N002012200019N0200001N1+01661+00891102011ADDAY101031AY201031GF102991021021004501001001MD1310061+9999MW1021REMSYN082AAXX  29151 15562 41498 23602 10166 20089 40201 53006 70200 82200 555 92013 92418;
0244155620999992000092918004+43360+028470FM-12+006499999V0203601N003012200019N0200001N1+01501+00921102011ADDAA199000091AY101061AY201061GA1001+999999999GF100991001001999999001001KA1120M+01881MD1410001+9999MW1021UA1M990009019REMSYN098AAXX  29181 15562 31998 03603 10150 20092 40201 54000 70200 222// 2//00 333 10188 555 92012 92418;EQDQ01  00002PRCP99
0179155620999992000092921004+43360+028470FM-12+006499999V0200501N003012200019N0200001N1+01561+01081102021ADDAY101031AY201031GA1001+999999999GF100991001001999999001001MD1310111+9999MW1021UA1M999999019REMSYN076AAXX  29211 15562 41998 00503 10156 20108 40202 53011 70200 555 92012 92418;
0221155620999992000093000004+43360+028470FM-12+006499999V0203601N003012200019N0200001N1+01421+01041102031ADDAA199000091AY101061AY201061GA1001+999999999GF100991001001999999001001MD1210011+9999MW1021UA1M990009019REMSYN088AAXX  30001 15562 31998 03603 10142 20104 40203 52001 70200 222// 2//00 555 92012 92418;EQDQ01  00002PRCP99
0204155620999992000093003004+43360+028470FM-12+006499999V0203601N002012200019N0200001N1+01401+01021102021ADDAY101031AY201031GA1001+999999999GF100991001001999999001001KA1999M+01561MD1810021+9999MW1021UA1M999999019REMSYN088AAXX  30031 15562 41998 03602 10140 20102 40202 58002 70200 555 10156 29067 92012 92418;
0272155620999992000093006004+43360+028470FM-12+006499999V0203601N002010360019N0200001N1+01521+00811102121ADDAA199000091AY111061AY211061GF106991021011004501031021GJ105229IA1019IA2999+00909KA1120N+01301MD1310111+9999MW1031UA1M990009019REMSYN116AAXX  30061 15562 31498 63602 10152 20081 40212 53011 70311 82132 222// 2//00 333 20130 55087 555 30009 92012 92418;EQDQ01  00002PRCP99
0156155620999992000093009004+43360+028470FM-12+006499999V0203601N002012200019N0200001N1+01921+01171102221ADDAY111031AY211031GF103991031021004501001001MD1210111+9999MW1011REMSYN082AAXX  30091 15562 41498 33602 10192 20117 40222 52011 70111 83200 555 92012 92418;
0211155620999992000093012004+43360+028470FM-12+006499999V0200701N004010360019N0200001N1+01881+01201102241ADDAA199000091AY111061AY211061GF106991041021004501031001MD1210021+9999MW1031UA1M990009019REMSYN094AAXX  30121 15562 31498 60704 10188 20120 40224 52002 70311 84230 222// 2//00 555 92013 92418;EQDQ01  00002PRCP99
0156155620999992000093015004+43360+028470FM-12+006499999V0200501N003012200019N0200001N1+01741+01391102281ADDAY111031AY211031GF103991021021004501001021MD1210031+9999MW1011REMSYN082AAXX  30151 15562 41498 30503 10174 20139 40228 52003 70111 82202 555 92013 92418;
0244155620999992000093018004+43360+028470FM-12+006499999V0200901N003012200019N0200001N1+01561+01201102311ADDAA199000091AY111061AY211061GA1001+999999999GF100991001001999999001001KA1120M+02071MD1210031+9999MW1021UA1M990009019REMSYN098AAXX  30181 15562 31998 00903 10156 20120 40231 52003 70211 222// 2//00 333 10207 555 92012 92418;EQDQ01  00002PRCP99
0179155620999992000093021004+43360+028470FM-12+006499999V0200901N005012200019N0200001N1+01651+01261102351ADDAY101031AY201031GA1001+999999999GF100991001001999999001001MD1210041+9999MW1021UA1M999999019REMSYN076AAXX  30211 15562 41998 00905 10165 20126 40235 52004 70200 555 92012 92418;
0211155620999992000100100004+43360+028470FM-12+006499999V0200901N002012200019N0200001N1+01541+01181102351ADDAA199000091AY101061AY201061GF103991001001999999001011MD1410001+9999MW1021UA1M990009019REMSYN094AAXX  01001 15562 31998 30902 10154 20118 40235 54000 70200 80001 222// 2//00 555 92011 92418;EQDQ01  00002PRCP99
0204155620999992000100103004+43360+028470FM-12+006499999V0200901N006012200019N0200001N1+01641+01041102411ADDAY101031AY201031GA1001+999999999GF100991001001999999001001KA1999M+01621MD1310061+9999MW1021UA1M999999019REMSYN088AAXX  01031 15562 41998 00906 10164 20104 40241 53006 70200 555 10162 29072 92014 92418;
0272155620999992000100106004+43360+028470FM-12+006499999V0203601N004012200019N0200001N1+01681+01181102411ADDAA199000091AY111061AY211061GF105991031051004501001011GJ104689IA1019IA2999+00809KA1120N+01421MD1410001+9999MW1031UA1M990009019REMSYN116AAXX  01061 15562 31498 53604 10168 20118 40241 54000 70311 83501 222// 2//00 333 20142 55078 555 30008 92013 92418;EQDQ01  00002PRCP99
0156155620999992000100109004+43360+028470FM-12+006499999V0200901N004010042019N0200001N1+01741+01321102491ADDAY121031AY221031GF105991051051004501001001MD1310081+9999MW1021REMSYN082AAXX  01091 15562 41498 50904 10174 20132 40249 53008 70222 85500 555 92013 92418;
0211155620999992000100112004+43360+028470FM-12+006499999V0200501N006012200019N0200001N1+01881+01281102511ADDAA199000091AY121061AY221061GF105991041051004501001011MD1210021+9999MW1021UA1M999999029REMSYN094AAXX  01121 15562 31498 50506 10188 20128 40251 52002 70222 84501 222// 2//01 555 92024 92428;EQDQ01  00002PRCP99
0156155620999992000100115004+43360+028470FM-12+006499999V0200501N004010360019N0200001N1+01761+01301102511ADDAY121031AY221031GF106991031051004501031001MD1410001+9999MW1021REMSYN082AAXX  01151 15562 41498 60504 10176 20130 40251 54000 70222 83530 555 92024 92428;
0244155620999992000100118004+43360+028470FM-12+006499999V0200901N006012200019N0200001N1+01681+01301102471ADDAA199000091AY111061AY211061GA1001+999999999GF100991001001999999001001KA1120M+01961MD1810041+9999MW1011UA1M990059029REMSYN098AAXX  01181 15562 31998 00906 10168 20130 40247 58004 70111 222// 2//01 333 10196 555 92024 92428;EQDQ01  00002PRCP99
0179155620999992000100121004+43360+028470FM-12+006499999V0200901N006012200019N0200001N1+01661+01311102441ADDAY101031AY201031GA1001+999999999GF100991001001999999001001MD1710031+9999MW1021UA1M999999029REMSYN076AAXX  01211 15562 41998 00906 10166 20131 40244 57003 70200 555 92024 92428;
0221155620999992000100200004+43360+028470FM-12+006499999V0200901N006012200019N0200001N1+01701+01421102391ADDAA199000091AY101061AY201061GA1001+999999999GF100991001001999999001001MD1710051+9999MW1021UA1M990059029REMSYN088AAXX  02001 15562 31998 00906 10170 20142 40239 57005 70200 222// 2//01 555 92024 92428;EQDQ01  00002PRCP99
0223155620999992000100203004+43360+028470FM-12+006499999V0200901N006012200019N0200001N1+01701+01321102351ADDAY101031AY201031GA1001+999999999GF100991001001999999001001KA1999M+99999MD1710041+9999MW1021UA1M999999029REMSYN088AAXX  02031 15562 41998 00906 10170 20132 40235 57004 70200 555 10164 29071 92024 92428;EQDQ01 +01642ATMX  
0272155620999992000100206004+43360+028470FM-12+006499999V0200901N006010900019N0200001N1+01741+01391102321ADDAA199000091AY111061AY211061GF106991021051004501001021GJ102709IA1019IA2999+00909KA1120N+01641MD1710031+9999MW1031UA1M990059029REMSYN116AAXX  02061 15562 31498 60906 10174 20139 40232 57003 70311 82502 222// 2//01 333 20164 55045 555 30009 92024 92428;EQDQ01  00002PRCP99
0156155620999992000100209004+43360+028470FM-12+006499999V0201401N007010360019N0200001N1+01901+01381102331ADDAY121031AY221031GF106991021021004501031021MD1310021+9999MW1021REMSYN082AAXX  02091 15562 41498 61407 10190 20138 40233 53002 70222 82232 555 92034 92438;
0211155620999992000100212004+43360+028470FM-12+006499999V0201401N005010360019N0200001N1+01801+01341102231ADDAA199000091AY121061AY221061GF106991021021004501031001MD1410001+9999MW1021UA1M999999029REMSYN094AAXX  02121 15562 31498 61405 10180 20134 40223 54000 70222 82230 222// 2//01 555 92024 92428;EQDQ01  00002PRCP99
0156155620999992000100215004+43360+028470FM-12+006499999V0200901N007010360019N0200001N1+01761+01381102281ADDAY121031AY221031GF106991031051004501031001MD1810061+9999MW1021REMSYN082AAXX  02151 15562 41498 60907 10176 20138 40228 58006 70222 83530 555 92034 92438;
0244155620999992000100218004+43360+028470FM-12+006499999V0200901N012012200019N0200001N1+01461+01171102221ADDAA199000091AY111061AY211061GA1001+999999999GF100991001001999999001001KA1120M+01981MD1710061+9999MW1011UA1M999999039REMSYN098AAXX  02181 15562 31998 00912 10146 20117 40222 57006 70111 222// 2//02 333 10198 555 92036 92438;EQDQ01  00002PRCP99
0156155620999992000100221004+43360+028470FM-12+006499999V0200901N012010042019N0200001N1+01721+01221102211ADDAY111031AY211031GF106991061051004501001001MD1710011+9999MW1031REMSYN082AAXX  02211 15562 41498 60912 10172 20122 40221 57001 70311 86500 555 92036 92438;
0221155620999992000100300004+43360+028470FM-12+006499999V0200901N006012200019N0200001N1+01701+01351102261ADDAA199000091AY111061AY211061GA1001+999999999GF100991001001999999001001MD1310051+9999MW1011UA1M990109039REMSYN088AAXX  03001 15562 31998 00906 10170 20135 40226 53005 70111 222// 2//02 555 92036 92438;EQDQ01  00002PRCP99
0204155620999992000100303004+43360+028470FM-12+006499999V0200901N008012200019N0200001N1+01741+01351102191ADDAY101031AY201031GA1001+999999999GF100991001001999999001001KA1999M+01731MD1810071+9999MW1021UA1M999999039REMSYN088AAXX  03031 15562 41998 00908 10174 20135 40219 58007 70200 555 10173 29076 92035 92438;
0272155620999992000100306004+43360+028470FM-12+006499999V0200901N008012200019N0200001N1+01841+01351102181ADDAA199000091AY101061AY201061GF103991031051004501001001GJ102589IA1019IA2999+01309KA1120N+01681MD1410001+9999MW1021UA1M990109039REMSYN116AAXX  03061 15562 31498 30908 10184 20135 40218 54000 70200 83500 222// 2//02 333 20168 55043 555 30013 92035 92438;EQDQ01  00002PRCP99
0156155620999992000100309004+43360+028470FM-12+006499999V0200701N006010042019N0200001N1+01851+01461102261ADDAY111031AY211031GF107991071021004501001001MD1310081+9999MW1031REMSYN082AAXX  03091 15562 41498 70706 10185 20146 40226 53008 70311 87200 555 92035 92438;
0211155620999992000100312004+43360+028470FM-12+006499999V0200901N005010042019N0200001N1+01961+01561102251ADDAA199000091AY111061AY211061GF107991071021004501001001MD1810011+9999MW1021UA1M990109039REMSYN094AAXX  03121 15562 31498 70905 10196 20156 40225 58001 70211 87200 222// 2//02 555 92034 92438;EQDQ01  00002PRCP99
0156155620999992000100315004+43360+028470FM-12+006499999V0200901N007010042019N0200001N1+01901+01571102251ADDAY121031AY221031GF106991061051004501001001MD1410001+9999MW1021REMSYN082AAXX  03151 15562 41498 60907 10190 20157 40225 54000 70222 86500 555 92034 92438;
0196155620999992000100318004+43360+028470FM-12+006499999V0200501N008012200019N0100001N1+01721+01551102211ADDAA199000091AY111061AY211061GA1001+999999999GF100991001001999999001001MD1810051+9999MW1011REMSYN076AAXX  03181 15562 31997 00508 10172 20155 40221 58005 70111 333 92035 92437;EQDQ01  00002PRCP99
0179155620999992000100321004+43360+028470FM-12+006499999V0200501N007012200019N0100001N1+01601+01431102261ADDAY101031AY201031GA1001+999999999GF100991001001999999001001MD1310051+9999MW1021UA1M999999039REMSYN076AAXX  03211 15562 41997 00507 10160 20143 40226 53005 70200 555 92035 92438;
0221155620999992000100400004+43360+028470FM-12+006499999V0200501N006012200019N0100001N1+01581+01371102191ADDAA199000091AY101061AY201061GA1001+999999999GF100991001001999999001001MD1810071+9999MW1021UA1M990109039REMSYN088AAXX  04001 15562 31997 00506 10158 20137 40219 58007 70200 222// 2//02 555 92034 92437;EQDQ01  00002PRCP99
0204155620999992000100403004+43360+028470FM-12+006499999V0200501N007012200019N0100001N1+01661+01461102071ADDAY101031AY201031GA1001+999999999GF100991001001999999001001KA1999M+01771MD1710131+9999MW1021UA1M999999039REMSYN088AAXX  04031 15562 41997 00507 10166 20146 40207 57013 70200 555 10177 29084 92034 92437;
0272155620999992000100406004+43360+028470FM-12+006499999V0203601N006012200019N0100001N1+01701+01531102081ADDAA199000091AY101061AY201061GF103991031051004501001001GJ103549IA1019IA2999+01209KA1120N+01561MD1310011+9999MW1021UA1M990109039REMSYN116AAXX  04061 15562 31497 33606 10170 20153 40208 53001 70200 83500 222// 2//02 333 20156 55059 555 30012 92034 92437;EQDQ01  00002PRCP99
0211155620999992000100412004+43360+028470FM-12+006499999V0200901N007012200019N0200001N1+02001+01501102051ADDAA199000091AY101061AY201061GF102991021011004501001001MD1410001+9999MW1021UA1M990109039REMSYN094AAXX  04121 15562 31498 20907 10200 20150 40205 54000 70200 82100 222// 2//02 555 92035 92438;EQDQ01  00002PRCP99
0179155620999992000100415004+43360+028470FM-12+006499999V0200501N007012200019N0200001N1+01821+01481102031ADDAY101031AY201031GA1001+999999999GF100991001001999999001001MD1810021+9999MW1021UA1M999999039REMSYN076AAXX  04151 15562 41998 00507 10182 20148 40203 58002 70200 555 92035 92438;
0244155620999992000100418004+43360+028470FM-12+006499999V0200501N006012200019N0200001N1+01761+01451102061ADDAA199000091AY101061AY201061GA1001+999999999GF100991001001999999001001KA1120M+02101MD1310021+9999MW1021UA1M990109039REMSYN098AAXX  04181 15562 31998 00506 10176 20145 40206 53002 70200 222// 2//02 333 10210 555 92035 92438;EQDQ01  00002PRCP99
0179155620999992000100421004+43360+028470FM-12+006499999V0200501N006012200019N0200001N1+01721+01431102061ADDAY101031AY201031GA1001+999999999GF100991001001999999001001MD1410001+9999MW1021UA1M999999039REMSYN076AAXX  04211 15562 41998 00506 10172 20143 40206 54000 70200 555 92035 92438;
0221155620999992000100500004+43360+028470FM-12+006499999V0200501N004012200019N0200001N1+01671+01401102051ADDAA199000091AY101061AY201061GA1001+999999999GF100991001001999999001001MD1810071+9999MW1021UA1M990109039REMSYN088AAXX  05001 15562 31998 00504 10167 20140 40205 58007 70200 222// 2//02 555 92034 92438;EQDQ01  00002PRCP99
0204155620999992000100503004+43360+028470FM-12+006499999V0200701N007012200019N0200001N1+01621+01411101991ADDAY101031AY201031GA1001+999999999GF100991001001999999001001KA1999M+01781MD1710031+9999MW1021UA1M999999039REMSYN088AAXX  05031 15562 41998 00707 10162 20141 40199 57003 70200 555 10178 29080 92035 92438;
0264155620999992000100506004+43360+028470FM-12+006499999V0200701N006010042019N0100001N1+01741+01471101951ADDAA199000091AY111061AY211061GF108991081051004501999999IA1019IA2999+01209KA1120N+01561MD1710041+9999MW1031UA1M990109039REMSYN116AAXX  05061 15562 31497 80706 10174 20147 40195 57004 70311 885// 222// 2//02 333 20156 50091 555 30012 92034 92437;EQDQ01  00002PRCP99
0156155620999992000100509004+43360+028470FM-12+006499999V0200501N007010042019N0200001N1+01781+01501102121ADDAY121031AY221031GF108991081051004501999999MD1310181+9999MW1021REMSYN082AAXX  05091 15562 41498 80507 10178 20150 40212 53018 70222 885// 555 92034 92438;
0211155620999992000100512004+43360+028470FM-12+006499999V0200501N006010042019N0200001N1+01841+01571102121ADDAA199000091AY121061AY221061GF108991081051004501999999MD1410001+9999MW1021UA1M999999039REMSYN094AAXX  05121 15562 31498 80506 10184 20157 40212 54000 70222 885// 222// 2//02 555 92034 92438;EQDQ01  00002PRCP99
0156155620999992000100515004+43360+028470FM-12+006499999V0200501N005010042019N0200001N1+01861+01521101981ADDAY121031AY221031GF105991051021004501001001MD1810141+9999MW1021REMSYN082AAXX  05151 15562 41498 50505 10186 20152 40198 58014 70222 85200 555 92034 92438;
0234155620999992000100518004+43360+028470FM-12+006499999V0200501N005012200019N0200001N1+01641+01361101991ADDAA199000091AY111061AY211061GF103991031021004501001001KA1120M+01921MD1410001+9999MW1011UA1M990109039REMSYN104AAXX  05181 15562 31498 30505 10164 20136 40199 54000 70111 83200 222// 2//02 333 10192 555 92034 92438;EQDQ01  00002PRCP99
0179155620999992000100521004+43360+028470FM-12+006499999V0200501N004012200019N0200001N1+01441+01261102001ADDAY101031AY201031GA1001+999999999GF100991001001999999001001MD1310011+9999MW1021UA1M999999039REMSYN076AAXX  05211 15562 41998 00504 10144 20126 40200 53001 70200 555 92034 92438;
0221155620999992000100600004+43360+028470FM-12+006499999V0200501N005012200019N0200001N1+01461+01211101861ADDAA199000091AY101061AY201061GA1001+999999999GF100991001001999999001001MD1810141+9999MW1021UA1M990109039REMSYN088AAXX  06001 15562 31998 00505 10146 20121 40186 58014 70200 222// 2//02 555 92034 92438;EQDQ01  00002PRCP99
0204155620999992000100603004+43360+028470FM-12+006499999V0203601N007012200019N0200001N1+01361+01131101791ADDAY101031AY201031GA1001+999999999GF100991001001999999001001KA1999M+01681MD1710071+9999MW1021UA1M999999039REMSYN088AAXX  06031 15562 41998 03607 10136 20113 40179 57007 70200 555 10168 29084 92034 92438;
0272155620999992000100606004+43360+028470FM-12+006499999V0203601N006012200019N0200001N1+01501+01211101781ADDAA199000091AY101061AY201061GF102991001001999999001021GJ100249IA1019IA2999+01009KA1120N+01201MD1410001+9999MW1021UA1M990059029REMSYN116AAXX  06061 15562 31998 23606 10150 20121 40178 54000 70200 80002 222// 2//01 333 20120 55004 555 30010 92024 92428;EQDQ01  00002PRCP99
0156155620999992000100609004+43360+028470FM-12+006499999V0203601N002010042019N0200001N1+01821+01401101801ADDAY111031AY211031GF106991061051004501001001MD1310031+9999MW1031REMSYN082AAXX  06091 15562 41498 63602 10182 20140 40180 53003 70311 86500 555 92024 92428;
0211155620999992000100612004+43360+028470FM-12+006499999V0200501N003010042019N0200001N1+01801+01381101781ADDAA199000091AY111061AY211061GF106991061051004501001001MD1810021+9999MW1021UA1M990059029REMSYN094AAXX  06121 15562 31498 60503 10180 20138 40178 58002 70211 86500 222// 2//01 555 92022 92428;EQDQ01  00002PRCP99
0156155620999992000100615004+43360+028470FM-12+006499999V0200501N003010042019N0200001N1+01701+01401101731ADDAY121031AY221031GF107991071051004501001001MD1710051+9999MW1021REMSYN082AAXX  06151 15562 41498 70503 10170 20140 40173 57005 70222 87500 555 92022 92428;
0234155620999992000100618004+43360+028470FM-12+006499999V0200201N003010042019N0200001N1+01721+01511101741ADDAA199000091AY121061AY221061GF108991081051004501999999KA1120M+02051MD1310011+9999MW1021UA1M999999019REMSYN104AAXX  06181 15562 31498 80203 10172 20151 40174 53001 70222 885// 222// 2//00 333 10205 555 92012 92418;EQDQ01  00002PRCP99
0156155620999992000100621004+43360+028470FM-12+006499999V0200501N004010042019N0200001N1+01721+01371101771ADDAY121031AY221031GF108991051051004501999999MD1210021+9999MW1021REMSYN082AAXX  06211 15562 41498 80504 10172 20137 40177 52002 70222 855// 555 92013 92418;
0211155620999992000100700004+43360+028470FM-12+006499999V0203601N003010042019N0100001N1+01641+01431101771ADDAA199000091AY121061AY221061GF108991081051004501999999MD1410001+9999MW1021UA1M999999019REMSYN094AAXX  07001 15562 31497 83603 10164 20143 40177 54000 70222 885// 222// 2//00 555 92013 92417;EQDQ01  00002PRCP99
0168155620999992000100703004+43360+028470FM-12+006499999V0203601N006012200019N0100001N1+01481+01301101731ADDAY111031AY211031GF103991031051004501001001MD1810041+9999MW1011REMSYN094AAXX  07031 15562 41497 33606 10148 20130 40173 58004 70111 83500 555 10168 29071 92024 92427;
0272155620999992000100706004+43360+028470FM-12+006499999V0203601N005010900019N0100001N1+01441+01261101791ADDAA199000091AY111061AY211061GF107991041051004501001021GJ102589IA1019IA2999+01209KA1120N+01401MD1310061+9999MW1031UA1M990059029REMSYN116AAXX  07061 15562 31497 73605 10144 20126 40179 53006 70311 84502 222// 2//01 333 20140 55043 555 30012 92024 92427;EQDQ01  00002PRCP99
0156155620999992000100709004+43360+028470FM-12+006499999V0203601N004012200019N0200001N1+01901+01261101841ADDAY121031AY221031GF104991041021004501001001MD1210061+9999MW1021REMSYN082AAXX  07091 15562 41498 43604 10190 20126 40184 52006 70222 84200 555 92023 92428;
0211155620999992000100712004+43360+028470FM-12+006499999V0203601N005012200019N0200001N1+01861+01411101641ADDAA199000091AY111061AY211061GF102991021051004501001001MD1810201+9999MW1011UA1M990059029REMSYN094AAXX  07121 15562 31498 23605 10186 20141 40164 58020 70111 82500 222// 2//01 555 92023 92428;EQDQ01  00002PRCP99
0156155620999992000100715004+43360+028470FM-12+006499999V0203601N005010900019N0200001N1+01701+01351101721ADDAY111031AY211031GF105991031051004501001021MD1310081+9999MW1031REMSYN082AAXX  07151 15562 41498 53605 10170 20135 40172 53008 70311 83502 555 92033 92438;
0234155620999992000100718004+43360+028470FM-12+006499999V0203601N005012200019N0200001N1+01601+01431101761ADDAA199000091AY111061AY211061GF102991021051004501001001KA1120M+01941MD1210041+9999MW1011UA1M990109039REMSYN104AAXX  07181 15562 31498 23605 10160 20143 40176 52004 70111 82500 222// 2//02 333 10194 555 92033 92438;EQDQ01  00002PRCP99
0156155620999992000100721004+43360+028470FM-12+006499999V0203601N006012200019N0200001N1+01541+01101101691ADDAY101031AY201031GF102991021051004501001001MD1810071+9999MW1021REMSYN082AAXX  07211 15562 41498 23606 10154 20110 40169 58007 70200 82500 555 92034 92438;
0221155620999992000100800004+43360+028470FM-12+006499999V0203601N006012200019N0200001N1+01401+01181101561ADDAA199000091AY101061AY201061GA1001+999999999GF100991001001999999001001MD1710141+9999MW1021UA1M990109039REMSYN088AAXX  08001 15562 31998 03606 10140 20118 40156 57014 70200 222// 2//02 555 92034 92438;EQDQ01  00002PRCP99
0168155620999992000100803004+43360+028470FM-12+006499999V0203601N006010042019N0200001N1+01401+01041101511ADDAY111031AY211031GF108991081051004501999999MD1710051+9999MW1031REMSYN094AAXX  08031 15562 41498 83606 10140 20104 40151 57005 70311 885// 555 10165 29080 92034 92438;
0272155620999992000100806004+43360+028470FM-12+006499999V0203601N008010042019N0200001N1+01461+01211101571ADDAA199000091AY111061AY211061GF107991071051004501001001GJ104809IA1019IA2999+01109KA1120N+01361MD1310061+9999MW1021UA1M990109039REMSYN116AAXX  08061 15562 31498 73608 10146 20121 40157 53006 70211 87500 222// 2//02 333 20136 55080 555 30011 92035 92438;EQDQ01  00002PRCP99
0156155620999992000100809004+43360+028470FM-12+006499999V0200501N010010360019N0200001N1+01741+01431101541ADDAY121031AY221031GF107991031021004501031001MD1810021+9999MW1021REMSYN082AAXX  08091 15562 41498 70510 10174 20143 40154 58002 70222 83230 555 92035 92438;
0211155620999992000100812004+43360+028470FM-12+006499999V0200501N010010042019N0200001N1+01641+01281101501ADDAA199000091AY121061AY221061GF108991081051004501999999MD1710041+9999MW1021UA1M999999039REMSYN094AAXX  08121 15562 31498 80510 10164 20128 40150 57004 70222 885// 222// 2//02 555 92035 92438;EQDQ01  00002PRCP99
0156155620999992000100815004+43360+028470FM-12+006499999V0200501N012010042019N0200001N1+01561+01201101471ADDAY121031AY221031GF108991081051004501999999MD1710031+9999MW1021REMSYN082AAXX  08151 15562 41498 80512 10156 20120 40147 57003 70222 885// 555 92036 92438;
0234155620999992000100818004+43360+028470FM-12+006499999V0203601N012010042019N0100001N1+01501+01251101531ADDAA199000091AY121061AY221061GF108991081051004501999999KA1120M+01761MD1310051+9999MW1021UA1M999999049REMSYN104AAXX  08181 15562 31497 83612 10150 20125 40153 53005 70222 885// 222// 2//02 333 10176 555 92046 92447;EQDQ01  00002PRCP99
0156155620999992000100821004+43360+028470FM-12+006499999V0203601N007010042019N0100001N1+01381+01311101461ADDAY161031AY221031GF108991081001004501021999MD1810071+9999MW1611REMSYN082AAXX  08211 15562 41497 83607 10138 20131 40146 58007 76162 8802/ 555 92036 92437;
0217155620999992000100900004+43360+028470FM-12+006499999V0203601N008010042019N0100001N1+01381+01241101361ADDAA106005191AY161061AY221061GF108991999051004501021021MD1710101+9999MW1211UA1M990109039REMSYN100AAXX  09001 15562 11497 83608 10138 20124 40136 57010 60051 72162 88522 222// 2//02 555 92035 92437;EQDQ01+000082SCOTLC
0174155620999992000100903004+43360+028470FM-12+006499999V0203601N008010042019N0200001N1+01321+01101101341ADDAY121031AY221031GF108991081051004501999999MD1710021+9999MW1021REMSYN100AAXX  09031 15562 41498 83608 10132 20110 40134 57002 70222 885// 555 10149 29085 60054 92035 92438;
0265155620999992000100906004+43360+028470FM-12+006499999V0203601N010010042019N0040001N1+01241+01171101331ADDAA112005191AY161061AY221061GF108991061071004501021999GJ101149IA1099IA2999+01009KA1120N+01161MD1710011+9999MW1611UA1M990109039REMSYN128AAXX  09061 15562 11496 83610 10124 20117 40133 57001 60052 76162 8672/ 222// 2//02 333 20116 55019 555 31010 92035 92436 96010;
0175155620999992000100909004+43360+028470FM-12+006499999V0203601N009010042019N0040001N1+01261+01111101341ADDAY161031AY221031GF108991999051004501001001MD1310011+9999MW1101REMSYN082AAXX  09091 15562 41496 83609 10126 20111 40134 53001 71062 87500 555 92035 92438;EQDQ01+000072SCOTLC
0198155620999992000100912004+43360+028470FM-12+006499999V0203601N009010042019N0200001N1+01341+00931101371ADDAA106000191AY161061AY221061GF108991081051004501999999MD1210031+9999MW1021UA1M990109039REMSYN100AAXX  09121 15562 11498 83609 10134 20093 40137 52003 69911 70262 885// 222// 2//02 555 92035 92438;
0156155620999992000100915004+43360+028470FM-12+006499999V0200201N009010042019N0200001N1+01281+00931101351ADDAY121031AY221031GF107991071051004501001001MD1810051+9999MW1021REMSYN082AAXX  09151 15562 41498 70209 10128 20093 40135 58005 70222 87500 555 92035 92438;
0221155620999992000100918004+43360+028470FM-12+006499999V0203601N007010042019N0200001N1+01281+01021101381ADDAA112000191AY121061AY221061GF108991081051004501999999KA1120M+01441MD1310031+9999MW1021UA1M999999029REMSYN110AAXX  09181 15562 11498 83607 10128 20102 40138 53003 69912 70222 885// 222// 2//01 333 10144 555 92025 92428;
0156155620999992000100921004+43360+028470FM-12+006499999V0203601N006010042019N0100001N1+01141+00981101351ADDAY121031AY221031GF108991081051004501999999MD1810031+9999MW1021REMSYN082AAXX  09211 15562 41497 83606 10114 20098 40135 58003 70222 885// 555 92034 92437;
0211155620999992000101000004+43360+028470FM-12+006499999V0203601N005010042019N0100001N1+01101+00991101231ADDAA199000091AY121061AY221061GF108991081051004501999999MD1710131+9999MW1021UA1M999999039REMSYN094AAXX  10001 15562 31497 83605 10110 20099 40123 57013 70222 885// 222// 2//02 555 92034 92437;EQDQ01  00002PRCP99
0174155620999992000101003004+43360+028470FM-12+006499999V0203601N012010042019N0100001N1+01061+00981101111ADDAY161031AY221031GF108991081051004501999999MD1710121+9999MW1021REMSYN100AAXX  10031 15562 41497 83612 10106 20098 40111 57012 70262 885// 555 10122 29087 60014 92036 92437;
0247155620999992000101006004+43360+028470FM-12+006499999V0203601N012010042019N0100001N1+01081+00971101041ADDAA112000891AY161061AY221061GF108991081051004501999999GJ100009IA1099IA2999+00909KA1120N+01001MD1710071+9999MW1021UA1M999999039REMSYN110AAXX  10061 15562 11497 83612 10108 20097 40104 57007 69972 70262 885// 333 20100 55000 555 31009 92036 92437;
0156155620999992000101009004+43360+028470FM-12+006499999V0203601N010010042019N0100001N1+01341+01081101111ADDAY121031AY221031GF108991081051004501999999MD1310081+9999MW1021REMSYN082AAXX  10091 15562 41497 83610 10134 20108 40111 53008 70222 885// 555 92036 92437;
0211155620999992000101012004+43360+028470FM-12+006499999V0200201N009010042019N0200001N1+01341+01051101041ADDAA199000091AY121061AY221061GF107991071051004501001001MD1810071+9999MW1021UA1M999999039REMSYN094AAXX  10121 15562 31498 70209 10134 20105 40104 58007 70222 87500 222// 2//02 555 92035 92438;EQDQ01  00002PRCP99
0156155620999992000101015004+43360+028470FM-12+006499999V0203601N005010360019N0100001N1+01361+01041101061ADDAY121031AY221031GF106991031051004501031001MD1310021+9999MW1021REMSYN082AAXX  10151 15562 41497 63605 10136 20104 40106 53002 70222 83530 555 92034 92437;
0234155620999992000101018004+43360+028470FM-12+006499999V0203601N005012200019N0200001N1+01141+00901101201ADDAA199000091AY111061AY211061GF103991021001004501031021KA1120M+01501MD1210141+9999MW1011UA1M990109039REMSYN104AAXX  10181 15562 31498 33605 10114 20090 40120 52014 70111 82032 222// 2//02 333 10150 555 92033 92438;EQDQ01  00002PRCP99
0179155620999992000101021004+43360+028470FM-12+006499999V0203601N007012200019N0100001N1+01081+00881101241ADDAY111031AY211031GA1001+999999999GF100991001001999999001001MD1210031+9999MW1021UA1M999999039REMSYN076AAXX  10211 15562 41997 03607 10108 20088 40124 52003 70211 555 92034 92438;
0221155620999992000101100004+43360+028470FM-12+006499999V0203601N005012200019N0200001N1+01121+00701101321ADDAA199000091AY101061AY201061GA1001+999999999GF100991001001999999001001MD1210091+9999MW1021UA1M990059029REMSYN088AAXX  11001 15562 31998 03605 10112 20070 40132 52009 70200 222// 2//01 555 92024 92428;EQDQ01  00002PRCP99
0223155620999992000101103004+43360+028470FM-12+006499999V0203601N003012200019N0200001N1+01241+00511101361ADDAY101031AY201031GA1001+999999999GF100991001001999999001001KA1999M+99999MD1210041+9999MW1021UA1M999999029REMSYN088AAXX  11031 15562 41998 03603 10124 20051 40136 52004 70200 555 10118 29085 92023 92428;EQDQ01 +01182ATMX  
0282155620999992000101106004+43360+028470FM-12+006499999V0200501N002012200019N0200001N1+01301+00681101511ADDAA199000091AY101061AY201061GA1001+999999999GF100991001001999999001001GJ100489IA1099IA2999+00409KA1120N+01021MD1210151+9999MW1021UA1M990009019REMSYN110AAXX  11061 15562 31998 00502 10130 20068 40151 52015 70200 222// 2//00 333 20102 55008 555 31004 92012 92418;EQDQ01  00002PRCP99
0179155620999992000101109004+43360+028470FM-12+006499999V0209999C000012200019N0200001N1+01701+01111101561ADDAY101031AY201031GA1001+999999999GF100991001001999999001001MD1210051+9999MW1021UA1M999999019REMSYN076AAXX  11091 15562 41998 00000 10170 20111 40156 52005 70200 555 92012 92418;
0211155620999992000101112004+43360+028470FM-12+006499999V0201601N005012200019N0200001N1+01681+01211101481ADDAA199000091AY101061AY201061GF102991021021004501001001MD1810081+9999MW1021UA1M990059029REMSYN094AAXX  11121 15562 31498 21605 10168 20121 40148 58008 70200 82200 222// 2//01 555 92024 92428;EQDQ01  00002PRCP99
0156155620999992000101115004+43360+028470FM-12+006499999V0201601N007012200019N0200001N1+01661+01421101481ADDAY101031AY201031GF103991001001999999001011MD1410001+9999MW1021REMSYN082AAXX  11151 15562 41998 31607 10166 20142 40148 54000 70200 80001 555 92025 92428;
0244155620999992000101118004+43360+028470FM-12+006499999V0201801N008012200019N0200001N1+01681+01551101501ADDAA199000091AY101061AY201061GA1001+999999999GF100991001001999999001001KA1120M+01751MD1310021+9999MW1021UA1M990109039REMSYN098AAXX  11181 15562 31998 01808 10168 20155 40150 53002 70200 222// 2//02 333 10175 555 92035 92438;EQDQ01  00002PRCP99
0179155620999992000101121004+43360+028470FM-12+006499999V0201801N006012200019N0200001N1+01681+01551101591ADDAY101031AY201031GA1001+999999999GF100991001001999999001001MD1210091+9999MW1021UA1M999999039REMSYN076AAXX  11211 15562 41998 01806 10168 20155 40159 52009 70200 555 92035 92438;
0221155620999992000101200004+43360+028470FM-12+006499999V0201801N006012200019N0200001N1+01681+01551101581ADDAA199000091AY101061AY201061GA1001+999999999GF100991001001999999001001MD1410001+9999MW1021UA1M990059029REMSYN088AAXX  12001 15562 31998 01806 10168 20155 40158 54000 70200 222// 2//01 555 92024 92428;EQDQ01  00002PRCP99
0223155620999992000101203004+43360+028470FM-12+006499999V0201801N004012200019N0200001N1+01641+01501101611ADDAY101031AY201031GA1001+999999999GF100991001001999999001001KA1999M+99999MD1310021+9999MW1021UA1M999999029REMSYN088AAXX  12031 15562 41998 01804 10164 20150 40161 53002 70200 555 10153 29074 92024 92428;EQDQ01 +01532ATMX  
0272155620999992000101206004+43360+028470FM-12+006499999V0201801N003012200019N0100001N1+01661+01521101761ADDAA199000091AY101061AY201061GF102991021051004501001001GJ105529IA1019IA2999+00409KA1120N+01621MD1210151+9999MW1021UA1M990059029REMSYN116AAXX  12061 15562 31497 21803 10166 20152 40176 52015 70200 82500 222// 2//01 333 20162 55092 555 30004 92023 92427;EQDQ01  00002PRCP99
0156155620999992000101209004+43360+028470FM-12+006499999V0201801N003012200019N0100001N1+01941+01611101841ADDAY101031AY201031GF102991021051004501001001MD1210091+9999MW1021REMSYN082AAXX  12091 15562 41497 21803 10194 20161 40184 52009 70200 82500 555 92012 92417;
0211155620999992000101212004+43360+028470FM-12+006499999V0201801N002012200019N0100001N1+01941+01541101831ADDAA199000091AY101061AY201061GF104991021051004501001021MD1810011+9999MW1021UA1M990009019REMSYN094AAXX  12121 15562 31497 41802 10194 20154 40183 58001 70200 82502 222// 2//00 555 92012 92417;EQDQ01  00002PRCP99
0156155620999992000101215004+43360+028470FM-12+006499999V0201801N003012200019N0100001N1+01901+01501101871ADDAY101031AY201031GF102991021051004501001001MD1310041+9999MW1021REMSYN082AAXX  12151 15562 41497 21803 10190 20150 40187 53004 70200 82500 555 92012 92417;
0234155620999992000101218004+43360+028470FM-12+006499999V0201801N002010042019N0040001N1+01681+01611102011ADDAA199000091AY111061AY211061GF105991051061004501001001KA1120M+01961MD1210131+9999MW1101UA1M990009019REMSYN104AAXX  12181 15562 31496 51802 10168 20161 40201 52013 71011 85600 222// 2//00 333 10196 555 92012 92416;EQDQ01  00002PRCP99
0156155620999992000101221004+43360+028470FM-12+006499999V0201401N002010042019N0040001N1+01681+01581102081ADDAY121031AY221031GF105991051061004501001001MD1210071+9999MW1101REMSYN082AAXX  12211 15562 41496 51402 10168 20158 40208 52007 71022 85600 555 92011 92416;
0221155620999992000101300004+43360+028470FM-12+006499999V0200901N002010003019N0002001N1+01701+01571102151ADDAA199000091AY141061AY221061GA1091+999999999GF109991091999999999999999MD1210071+9999MW1451UA1M990009019REMSYN088AAXX  13001 15562 31/92 90902 10170 20157 40215 52007 74542 222// 2//00 555 92011 92411;EQDQ01  00002PRCP99
0168155620999992000101303004+43360+028470FM-12+006499999V0200901N007012200019N0040001N1+01681+99999102201ADDAY141031AY211031GF102991021051004501001001MD1210051+9999MW1101REMSYN094AAXX  13031 15562 41496 20907 10168 20220 40220 52005 71041 82500 555 10198 29088 92024 92426;
0272155620999992000101306004+43360+028470FM-12+006499999V0200901N007010042019N0040001N1+01661+01551102281ADDAA199000091AY141061AY211061GF108991081061004501999999GJ105049IA1019IA2999+01409KA1120N+01641MD1210081+9999MW1101UA1M990059029REMSYN116AAXX  13061 15562 31496 80907 10166 20155 40228 52008 71041 886// 222// 2//01 333 20164 55084 555 30014 92024 92426;EQDQ01  00002PRCP99
0156155620999992000101309004+43360+028470FM-12+006499999V0200901N009010042019N0100001N1+01701+01501102431ADDAY121031AY221031GF107991071051004501001001MD1210151+9999MW1021REMSYN082AAXX  13091 15562 41497 70909 10170 20150 40243 52015 70222 87500 555 92025 92427;
0211155620999992000101312004+43360+028470FM-12+006499999V0200901N005010042019N0100001N1+01681+01401102371ADDAA199000091AY121061AY221061GF108991081051004501999999MD1810031+9999MW1021UA1M999999029REMSYN094AAXX  13121 15562 31497 80905 10168 20140 40237 58003 70222 885// 222// 2//01 555 92025 92427;EQDQ01  00002PRCP99
0156155620999992000101315004+43360+028470FM-12+006499999V0200901N007010042019N0100001N1+01621+01381102351ADDAY121031AY221031GF107991071051004501001001MD1710041+9999MW1021REMSYN082AAXX  13151 15562 41497 70907 10162 20138 40235 57004 70222 87500 555 92025 92427;
0234155620999992000101318004+43360+028470FM-12+006499999V0200501N005010042019N0100001N1+01581+01441102501ADDAA199000091AY121061AY221061GF106991061051004501001001KA1120M+01741MD1310181+9999MW1021UA1M999999029REMSYN104AAXX  13181 15562 31497 60505 10158 20144 40250 53018 70222 86500 222// 2//01 333 10174 555 92023 92427;EQDQ01  00002PRCP99
0156155620999992000101321004+43360+028470FM-12+006499999V0200501N005010042019N0100001N1+01541+01441102531ADDAY121031AY221031GF106991061051004501001001MD1510021+9999MW1021REMSYN082AAXX  13211 15562 41497 60505 10154 20144 40253 55002 70222 86500 555 92023 92428;
0211155620999992000101400004+43360+028470FM-12+006499999V0203601N007012200019N0200001N1+01541+01101102501ADDAA199000091AY111061AY211061GF103991031051004501001001MD1410001+9999MW1011UA1M990059029REMSYN094AAXX  14001 15562 31498 33607 10154 20110 40250 54000 70111 83500 222// 2//01 555 92023 92428;EQDQ01  00002PRCP99
0168155620999992000101403004+43360+028470FM-12+006499999V0200201N005010042019N0200001N1+01521+00931102451ADDAY111031AY211031GF106991061051004501001001MD1810051+9999MW1031REMSYN094AAXX  14031 15562 41498 60205 10152 20093 40245 58005 70311 86500 555 10160 29089 92024 92428;
0272155620999992000101406004+43360+028470FM-12+006499999V0200201N003010042019N0200001N1+01501+01131102481ADDAA199000091AY111061AY211061GF108991081051004501999999GJ101209IA1019IA2999+01409KA1120N+01401MD1310011+9999MW1021UA1M990059029REMSYN116AAXX  14061 15562 31498 80203 10150 20113 40248 53001 70211 885// 222// 2//01 333 20140 55020 555 30014 92023 92428;EQDQ01  00002PRCP99
0156155620999992000101409004+43360+028470FM-12+006499999V0203601N003010042019N0200001N1+01561+01201102551ADDAY121031AY221031GF108991081051004501999999MD1210071+9999MW1021REMSYN082AAXX  14091 15562 41498 83603 10156 20120 40255 52007 70222 885// 555 92022 92428;
0211155620999992000101412004+43360+028470FM-12+006499999V0203601N002012200019N0200001N1+01641+01091102531ADDAA199000091AY111061AY211061GF102991021051004501001001MD1810021+9999MW1011UA1M990059029REMSYN094AAXX  14121 15562 31498 23602 10164 20109 40253 58002 70111 82500 222// 2//01 555 92022 92428;EQDQ01  00002PRCP99
0156155620999992000101415004+43360+028470FM-12+006499999V0200501N002012200019N0200001N1+01561+01271102431ADDAY101031AY201031GF102991021021004501031001MD1710101+9999MW1021REMSYN082AAXX  14151 15562 41498 20502 10156 20127 40243 57010 70200 82230 555 92022 92428;
0234155620999992000101418004+43360+028470FM-12+006499999V0200501N005012200019N0200001N1+01501+01211102451ADDAA199000091AY101061AY201061GF102991021001999999031021KA1120M+01751MD1310021+9999MW1021UA1M990059029REMSYN104AAXX  14181 15562 31998 20505 10150 20121 40245 53002 70200 82032 222// 2//01 333 10175 555 92023 92428;EQDQ01  00002PRCP99
0179155620999992000101421004+43360+028470FM-12+006499999V0200501N003012200019N0200001N1+01381+01041102421ADDAY101031AY201031GA1001+999999999GF100991001001999999001001MD1810031+9999MW1021UA1M999999029REMSYN076AAXX  14211 15562 41998 00503 10138 20104 40242 58003 70200 555 92023 92428;
0221155620999992000101500004+43360+028470FM-12+006499999V0200501N004012200019N0200001N1+01301+00781102411ADDAA199000091AY101061AY201061GA1001+999999999GF100991001001999999001001MD1710021+9999MW1021UA1M990059029REMSYN088AAXX  15001 15562 31998 00504 10130 20078 40241 57002 70200 222// 2//01 555 92023 92428;EQDQ01  00002PRCP99
0204155620999992000101503004+43360+028470FM-12+006499999V0200201N003012200019N0200001N1+01081+00921102411ADDAY101031AY201031GA1001+999999999GF100991001001999999001001KA1999M+01531MD1410001+9999MW1021UA1M999999029REMSYN088AAXX  15031 15562 41998 00203 10108 20092 40241 54000 70200 555 10153 29077 92023 92428;
0272155620999992000101506004+43360+028470FM-12+006499999V0200201N003012200019N0200001N1+01351+00921102381ADDAA199000091AY101061AY201061GF102991021001999999031001GJ102769IA1019IA2999+00709KA1120N+01021MD1810021+9999MW1021UA1M990009019REMSYN116AAXX  15061 15562 31998 20203 10135 20092 40238 58002 70200 82030 222// 2//00 333 20102 55046 555 30007 92013 92418;EQDQ01  00002PRCP99
0156155620999992000101509004+43360+028470FM-12+006499999V0209999C000012200019N0200001N1+01721+01361102431ADDAY101031AY201031GF102991021021999999001001MD1310051+9999MW1021REMSYN082AAXX  15091 15562 41998 20000 10172 20136 40243 53005 70200 82200 555 92013 92418;
0211155620999992000101512004+43360+028470FM-12+006499999V0200501N004012200019N0200001N1+01701+01151102301ADDAA199000091AY101061AY201061GF102991021011004501001001MD1810131+9999MW1021UA1M990009019REMSYN094AAXX  15121 15562 31498 20504 10170 20115 40230 58013 70200 82100 222// 2//00 555 92013 92418;EQDQ01  00002PRCP99
0179155620999992000101515004+43360+028470FM-12+006499999V0200901N002012200019N0200001N1+01551+01111102301ADDAY101031AY201031GA1001+999999999GF100991001001999999001001MD1410001+9999MW1021UA1M999999019REMSYN076AAXX  15151 15562 41998 00902 10155 20111 40230 54000 70200 555 92013 92418;
0244155620999992000101518004+43360+028470FM-12+006499999V0200501N004012200019N0200001N1+01481+01111102321ADDAA199000091AY101061AY201061GA1001+999999999GF100991001001999999001001KA1120M+01801MD1310021+9999MW1021UA1M990009019REMSYN098AAXX  15181 15562 31998 00504 10148 20111 40232 53002 70200 222// 2//00 333 10180 555 92013 92418;EQDQ01  00002PRCP99
0179155620999992000101521004+43360+028470FM-12+006499999V0209999C000012200019N0200001N1+01441+01151102331ADDAY101031AY201031GA1001+999999999GF100991001001999999001001MD1210011+9999MW1021UA1M999999019REMSYN076AAXX  15211 15562 41998 00000 10144 20115 40233 52001 70200 555 92013 92418;
0221155620999992000101600004+43360+028470FM-12+006499999V0209999C000012200019N0200001N1+01481+01171102351ADDAA199000091AY101061AY201061GA1001+999999999GF100991001001999999001001MD1210021+9999MW1021UA1M990009019REMSYN088AAXX  16001 15562 31998 00000 10148 20117 40235 52002 70200 222// 2//00 555 92013 92418;EQDQ01  00002PRCP99
0204155620999992000101603004+43360+028470FM-12+006499999V0200201N003012200019N0200001N1+01241+01091102311ADDAY101031AY201031GA1001+999999999GF100991001001999999001001KA1999M+01471MD1810051+9999MW1021UA1M999999019REMSYN088AAXX  16031 15562 41998 00203 10124 20109 40231 58005 70200 555 10147 29072 92013 92418;
0282155620999992000101606004+43360+028470FM-12+006499999V0200501N002012200019N0200001N1+01341+01201102381ADDAA199000091AY101061AY201061GA1001+999999999GF100991001001999999001001GJ105409IA1019IA2999+00509KA1120N+01201MD1310071+9999MW1021UA1M990009999REMSYN110AAXX  16061 15562 31998 00502 10134 20120 40238 53007 70200 222// 2//00 333 20120 55090 555 30005 29012 92418;EQDQ01  00002PRCP99
0156155620999992000101609004+43360+028470FM-12+006499999V0209999C000012200019N0200001N1+01761+01301102411ADDAY101031AY201031GF101991011011004501001001MD1210041+9999MW1021REMSYN082AAXX  16091 15562 41498 10000 10176 20130 40241 52004 70200 81100 555 92001 92408;
0211155620999992000101612004+43360+028470FM-12+006499999V0201401N002012200019N0200001N1+01761+01191102311ADDAA199000091AY101061AY201061GF101991011011004501001001MD1810101+9999MW1021UA1M990009019REMSYN094AAXX  16121 15562 31498 11402 10176 20119 40231 58010 70200 81100 222// 2//00 555 92011 92418;EQDQ01  00002PRCP99
0156155620999992000101615004+43360+028470FM-12+006499999V0201401N002012200019N0200001N1+01601+01171102371ADDAY101031AY201031GF101991011051004501001001MD1810041+9999MW1021REMSYN082AAXX  16151 15562 41498 11402 10160 20117 40237 58004 70200 81500 555 92011 92418;
0244155620999992000101618004+43360+028470FM-12+006499999V0209999C000012200019N0200001N1+01461+01211102401ADDAA199000091AY101061AY201061GA1001+999999999GF100991001001999999001001KA1120M+01801MD1310031+9999MW1021UA1M990009009REMSYN098AAXX  16181 15562 31998 00000 10146 20121 40240 53003 70200 222// 2//00 333 10180 555 92001 92408;EQDQ01  00002PRCP99
0179155620999992000101621004+43360+028470FM-12+006499999V0209999C000012200019N0200001N1+01401+01221102451ADDAY101031AY201031GA1001+999999999GF100991001001999999001001MD1210041+9999MW1021UA1M999999009REMSYN076AAXX  16211 15562 41998 00000 10140 20122 40245 52004 70200 555 92000 92408;
0221155620999992000101700004+43360+028470FM-12+006499999V0203601N002012200019N0200001N1+01301+01111102401ADDAA199000091AY101061AY201061GA1001+999999999GF100991001001999999001001MD1810051+9999MW1021UA1M990009019REMSYN088AAXX  17001 15562 31998 03602 10130 20111 40240 58005 70200 222// 2//00 555 92011 92418;EQDQ01  00002PRCP99
0168155620999992000101703004+43360+028470FM-12+006499999V0203601N002012200019N0200001N1+01321+01051102401ADDAY101031AY201031GF103991021051004501001011MD1410001+9999MW1021REMSYN094AAXX  17031 15562 41498 33602 10132 20105 40240 54000 70200 82501 555 10148 29079 92011 92418;
0272155620999992000101706004+43360+028470FM-12+006499999V0203601N005012200019N0200001N1+01351+01061102481ADDAA199000091AY101061AY201061GF103991001001999999001011GJ105409IA1019IA2999+00609KA1120N+01261MD1310081+9999MW1021UA1M990009019REMSYN116AAXX  17061 15562 31998 33605 10135 20106 40248 53008 70200 80001 222// 2//00 333 20126 55090 555 30006 92013 92418;EQDQ01  00002PRCP99
0156155620999992000101709004+43360+028470FM-12+006499999V0200501N004012200019N0200001N1+01701+01311102621ADDAY111031AY211031GF106991031021004501001011MD1210141+9999MW1031REMSYN082AAXX  17091 15562 41498 60504 10170 20131 40262 52014 70311 83201 555 92013 92418;
0211155620999992000101712004+43360+028470FM-12+006499999V0200901N006010360019N0200001N1+01701+01311102531ADDAA199000091AY111061AY211061GF106991021021004501031011MD1810091+9999MW1021UA1M990059029REMSYN094AAXX  17121 15562 31498 60906 10170 20131 40253 58009 70211 82231 222// 2//01 555 92025 92428;EQDQ01  00002PRCP99
0156155620999992000101715004+43360+028470FM-12+006499999V0200701N008010360019N0200001N1+01561+01201102521ADDAY121031AY221031GF108991031051004501031999MD1710011+9999MW1021REMSYN082AAXX  17151 15562 41498 80708 10156 20120 40252 57001 70222 8353/ 555 92035 92438;
0244155620999992000101718004+43360+028470FM-12+006499999V0200501N008012200019N0200001N1+01481+01061102521ADDAA199000091AY111061AY211061GA1001+999999999GF100991001001999999001001KA1120M+01741MD1410001+9999MW1011UA1M990109039REMSYN098AAXX  17181 15562 31998 00508 10148 20106 40252 54000 70111 222// 2//02 333 10174 555 92035 92438;EQDQ01  00002PRCP99
0221155620999992000101800004+43360+028470FM-12+006499999V0200501N006012200019N0200001N1+01401+00921102521ADDAA199000091AY101061AY201061GA1001+999999999GF100991001001999999001001MD1410001+9999MW1021UA1M990109039REMSYN088AAXX  18001 15562 31998 00506 10140 20092 40252 54000 70200 222// 2//02 555 92035 92438;EQDQ01  00002PRCP99
0168155620999992000101803004+43360+028470FM-12+006499999V0203601N006010360019N0200001N1+01421+00731102481ADDAY111031AY211031GF106991021051004501031001MD1810061+9999MW1031REMSYN094AAXX  18031 15562 41498 63606 10142 20073 40248 58006 70311 82530 555 10148 29078 92035 92438;
0272155620999992000101806004+43360+028470FM-12+006499999V0203601N006010042019N0200001N1+01361+00891102501ADDAA199000091AY111061AY211061GF108991081051004501999999GJ101929IA1019IA2999+00609KA1120N+01281MD1310031+9999MW1021UA1M990109039REMSYN116AAXX  18061 15562 31498 83606 10136 20089 40250 53003 70211 885// 222// 2//02 333 20128 55032 555 30006 92035 92438;EQDQ01  00002PRCP99
0156155620999992000101809004+43360+028470FM-12+006499999V0200501N004010360019N0200001N1+01521+00941102521ADDAY121031AY221031GF108991041051004501031001MD1210031+9999MW1021REMSYN082AAXX  18091 15562 41498 80504 10152 20094 40252 52003 70222 84530 555 92034 92438;
0211155620999992000101812004+43360+028470FM-12+006499999V0200501N005010042019N0200001N1+01501+00881102521ADDAA199000091AY121061AY221061GF108991081051004501999999MD1410001+9999MW1021UA1M999999039REMSYN094AAXX  18121 15562 31498 80505 10150 20088 40252 54000 70222 885// 222// 2//02 555 92033 92438;EQDQ01  00002PRCP99
0156155620999992000101815004+43360+028470FM-12+006499999V0203601N005010042019N0200001N1+01381+00681102511ADDAY121031AY221031GF108991081051004501999999MD1310021+9999MW1021REMSYN082AAXX  18151 15562 41498 83605 10138 20068 40251 53002 70222 885// 555 92034 92438;
0234155620999992000101818004+43360+028470FM-12+006499999V0203401N005010042019N0200001N1+01341+00821102531ADDAA199000091AY121061AY221061GF108991081051004501999999KA1120M+01601MD1310021+9999MW1021UA1M999999039REMSYN104AAXX  18181 15562 31498 83405 10134 20082 40253 53002 70222 885// 222// 2//02 333 10160 555 92033 92438;EQDQ01  00002PRCP99
0156155620999992000101821004+43360+028470FM-12+006499999V0203601N004010042019N0200001N1+01301+00681102541ADDAY121031AY221031GF108991081051004501999999MD1210011+9999MW1021REMSYN082AAXX  18211 15562 41498 83604 10130 20068 40254 52001 70222 885// 555 92033 92438;
0211155620999992000101900004+43360+028470FM-12+006499999V0203401N004010042019N0200001N1+01321+00611102571ADDAA199000091AY121061AY221061GF108991081051004501999999MD1210031+9999MW1021UA1M999999039REMSYN094AAXX  19001 15562 31498 83404 10132 20061 40257 52003 70222 885// 222// 2//02 555 92033 92438;EQDQ01  00002PRCP99
0167155620999992000101903004+43360+028470FM-12+006499999V0203601N005010042019N0200001N1+01041+00461102571ADDAY121031AY221031GF108991081051004501999999MD1810011+9999MW1021REMSYN093AAXX  19031 15562 41498 83605 10104 20046 40257 58001 70222 885// 555 10136 2907 92035 92438;
0272155620999992000101906004+43360+028470FM-12+006499999V0203401N012010042019N0200001N1+01321+00451102591ADDAA199000091AY121061AY221061GF108991081051004501999999GJ100009IA1019IA2999+00809KA1120N+00951MD1310031+9999MW1021UA1M999999039REMSYN116AAXX  19061 15562 31498 83412 10132 20045 40259 53003 70222 885// 222// 2//02 333 20095 55000 555 30008 92036 92438;EQDQ01  00002PRCP99
0156155620999992000101909004+43360+028470FM-12+006499999V0203601N009010042019N0200001N1+01361+00511102731ADDAY121031AY221031GF107991071051004501001001MD1210141+9999MW1021REMSYN082AAXX  19091 15562 41498 73609 10136 20051 40273 52014 70222 87500 555 92036 92438;
0211155620999992000101912004+43360+028470FM-12+006499999V0203601N012010042019N0200001N1+01301+00581102651ADDAA199000091AY121061AY221061GF108991081051004501999999MD1810081+9999MW1021UA1M999999049REMSYN094AAXX  19121 15562 31498 83612 10130 20058 40265 58008 70222 885// 222// 2//03 555 92046 92448;EQDQ01  00002PRCP99
0156155620999992000101915004+43360+028470FM-12+006499999V0200701N012010042019N0200001N1+01241+00561102661ADDAY121031AY221031GF108991081051004501999999MD1310011+9999MW1021REMSYN082AAXX  19151 15562 41498 80712 10124 20056 40266 53001 70222 885// 555 92046 92448;
0274155620999992000101918004+43360+028470FM-12+006499999V0200501N016010042019N0200001N1+01201+00561102701ADDAA199000091AY121061AY221061GF108991081051004501999999KA1120M+01461MD1210041+9999MW1021OA149901801OA259901601UA1M999999049REMSYN122AAXX  19181 15562 31498 80516 10120 20056 40270 52004 70222 885// 222// 2//03 333 10146 91118 91216 91505 555 92048 92448;EQDQ01  00002PRCP99
0213155620999992000101921004+43360+028470FM-12+006499999V0200501N010010042019N0200001N1+01201+00431102791ADDAY121031AY221031GF108991081051004501999999MD1210081+9999MW1021OA149901801OA259901601UA1M999999049REMSYN104AAXX  19211 15562 41498 80510 10120 20043 40279 52008 70222 885// 333 91118 91216 91505 555 92048 92448;
0174155620999992000102003004+43360+028470FM-12+006499999V0200501N012010042019N0200001N1+00901+00641102861ADDAY161031AY221031GF108991081051004501999999MD1210021+9999MW1021REMSYN100AAXX  20031 15562 41498 80512 10090 20064 40286 52002 70262 885// 555 10125 29060 69964 92046 92448;
0156155620999992000102009004+43360+028470FM-12+006499999V0203601N012010360019N0200001N1+01341+00531102981ADDAY121031AY221031GF107991021021004501031001MD1210051+9999MW1021REMSYN082AAXX  20091 15562 41498 73612 10134 20053 40298 52005 70222 82230 555 92036 92438;
0211155620999992000102012004+43360+028470FM-12+006499999V0203601N012010042019N0200001N1+01121+00801102971ADDAA199000091AY121061AY221061GF108991081051004501999999MD1810011+9999MW1021UA1M999999039REMSYN094AAXX  20121 15562 31498 83612 10112 20080 40297 58001 70222 885// 222// 2//02 555 92036 92438;EQDQ01  00002PRCP99
0156155620999992000102015004+43360+028470FM-12+006499999V0203601N012010042019N0200001N1+01201+00701102971ADDAY121031AY221031GF108991081051004501999999MD1410001+9999MW1021REMSYN082AAXX  20151 15562 41498 83612 10120 20070 40297 54000 70222 885// 555 92036 92438;
0221155620999992000102018004+43360+028470FM-12+006499999V0203601N012010042019N0200001N1+01001+00561103121ADDAA112000391AY161061AY221061GF108991081051004501999999KA1120M+01361MD1310151+9999MW1021UA1M990109039REMSYN110AAXX  20181 15562 11498 83612 10100 20056 40312 53015 69932 70262 885// 222// 2//02 333 10136 555 92036 92438;
0156155620999992000102021004+43360+028470FM-12+006499999V0203601N012010042019N0200001N1+00821+00561103081ADDAY161031AY221031GF108991081051004501999999MD1810051+9999MW1211REMSYN082AAXX  20211 15562 41498 83612 10082 20056 40308 58005 72162 885// 555 92036 92438;
0198155620999992000102100004+43360+028470FM-12+006499999V0203601N012010042019N0200001N1+00861+00411103131ADDAA106002091AY161061AY221061GF108991081051004501999999MD1310051+9999MW1021UA1M990159049REMSYN100AAXX  21001 15562 11498 83612 10086 20041 40313 53005 60021 70262 885// 222// 2//03 555 92046 92448;
0174155620999992000102103004+43360+028470FM-12+006499999V0203601N010010042019N0200001N1+00901+00501103131ADDAY121031AY221031GF106991061051004501001001MD1410001+9999MW1021REMSYN100AAXX  21031 15562 41498 63610 10090 20050 40313 54000 70222 86500 555 10112 29068 60034 92046 92448;
0259155620999992000102106004+43360+028470FM-12+006499999V0203601N012010042019N0100001N1+00831+00611103131ADDAA112003091AY161061AY221061GF108991081051004501999999GJ101629IA1099IA2999+00509KA1120N+00761MD1410001+9999MW1021UA1M990159049REMSYN122AAXX  21061 15562 11497 83612 10083 20061 40313 54000 60032 70262 885// 222// 2//03 333 20076 55027 555 31005 92046 92447;
0156155620999992000102109004+43360+028470FM-12+006499999V0203601N014010042019N0100001N1+01061+00681103171ADDAY161031AY221031GF108991061071004501021999MD1310051+9999MW1611REMSYN082AAXX  21091 15562 41497 83614 10106 20068 40317 53005 76162 8672/ 555 92047 92447;
0198155620999992000102112004+43360+028470FM-12+006499999V0200201N012010042019N0200001N1+01101+00641103191ADDAA106000391AY161061AY221061GF108991081051004501999999MD1210021+9999MW1021UA1M990159049REMSYN100AAXX  21121 15562 11498 80212 10110 20064 40319 52002 69931 70262 885// 222// 2//03 555 92046 92448;
0156155620999992000102115004+43360+028470FM-12+006499999V0200501N010010042019N0200001N1+01091+00531103201ADDAY121031AY221031GF108991081051004501999999MD1210011+9999MW1021REMSYN082AAXX  21151 15562 41498 80510 10109 20053 40320 52001 70222 885// 555 92046 92448;
0221155620999992000102118004+43360+028470FM-12+006499999V0200501N009010042019N0200001N1+01001+00411103261ADDAA112000391AY121061AY221061GF108991081051004501999999KA1120M+01161MD1210061+9999MW1021UA1M999999049REMSYN110AAXX  21181 15562 11498 80509 10100 20041 40326 52006 69932 70222 885// 222// 2//03 333 10116 555 92045 92448;
0156155620999992000102121004+43360+028470FM-12+006499999V0203601N010010042019N0200001N1+00901+00091103241ADDAY121031AY221031GF108991081051004501999999MD1810031+9999MW1021REMSYN082AAXX  21211 15562 41498 83610 10090 20009 40324 58003 70222 885// 555 92045 92448;
0211155620999992000102200004+43360+028470FM-12+006499999V0203501N012010042019N0200001N1+00881+00051103291ADDAA199000091AY121061AY221061GF108991081051004501999999MD1310051+9999MW1021UA1M999999049REMSYN094AAXX  22001 15562 31498 83512 10088 20005 40329 53005 70222 885// 222// 2//03 555 92045 92448;EQDQ01  00002PRCP99
0221155620999992000102203004+43360+028470FM-12+006499999V0203601N009012200019N0200001N1+00521+00001103261ADDAA124000391AY111031AY211031GA1001+999999999GF100991001001999999001001KA1999M+00941MD1810051+9999MW1011UA1M999999049REMSYN094AAXX  22031 15562 41998 03609 10052 20000 40326 58005 70111 555 10094 29073 69934 92046 92448;
0272155620999992000102206004+43360+028470FM-12+006499999V0203401N007010042019N0100001N1+00431-00021103271ADDAA199000091AY111061AY211061GF108991081051004501999999GJ100009IA1099IA2999+00109KA1120N+00301MD1210011+9999MW1031UA1M990109039REMSYN116AAXX  22061 15562 31497 83407 10043 21002 40327 52001 70311 885// 222// 2//02 333 20030 55000 555 31001 92035 92437;EQDQ01  00002PRCP99
0156155620999992000102209004+43360+028470FM-12+006499999V0203201N008010042019N0100001N1+00551+00041103131ADDAY121031AY221031GF108991081051004501999999MD1810141+9999MW1021REMSYN082AAXX  22091 15562 41497 83208 10055 20004 40313 58014 70222 885// 555 92035 92437;
0211155620999992000102212004+43360+028470FM-12+006499999V0203601N010010042019N0100001N1+00761+00001103161ADDAA199000091AY121061AY221061GF108991081051004501999999MD1310041+9999MW1021UA1M999999039REMSYN094AAXX  22121 15562 31497 83610 10076 20000 40316 53004 70222 885// 222// 2//02 555 92035 92437;EQDQ01  00002PRCP99
0156155620999992000102215004+43360+028470FM-12+006499999V0203601N009010042019N0100001N1+00701+00111103151ADDAY121031AY221031GF108991081051004501999999MD1810011+9999MW1021REMSYN082AAXX  22151 15562 41497 83609 10070 20011 40315 58001 70222 885// 555 92035 92437;
0234155620999992000102218004+43360+028470FM-12+006499999V0203401N009010042019N0100001N1+00701+00041103121ADDAA199000091AY121061AY221061GF108991081051004501999999KA1120M+00851MD1710031+9999MW1021UA1M999999039REMSYN104AAXX  22181 15562 31497 83409 10070 20004 40312 57003 70222 885// 222// 2//02 333 10085 555 92035 92437;EQDQ01  00002PRCP99
0156155620999992000102221004+43360+028470FM-12+006499999V0203401N010010042019N0100001N1+00701+00061103031ADDAY121031AY221031GF108991081051004501999999MD1710101+9999MW1021REMSYN082AAXX  22211 15562 41497 83410 10070 20006 40303 57010 70222 885// 555 92035 92437;
0211155620999992000102300004+43360+028470FM-12+006499999V0200201N010010042019N0100001N1+00701+00211102901ADDAA199000091AY121061AY221061GF108991081051004501999999MD1710131+9999MW1021UA1M999999049REMSYN094AAXX  23001 15562 31497 80210 10070 20021 40290 57013 70222 885// 222// 2//03 555 92045 92447;EQDQ01  00002PRCP99
0168155620999992000102303004+43360+028470FM-12+006499999V0203601N010010042019N0100001N1+00701+00191102871ADDAY121031AY221031GF106991061051004501001001MD1710031+9999MW1021REMSYN094AAXX  23031 15562 41497 63610 10070 20019 40287 57003 70222 86500 555 10066 29064 92045 92447;
0272155620999992000102306004+43360+028470FM-12+006499999V0203601N010010042019N0100001N1+00721+00291102971ADDAA199000091AY121061AY221061GF108991081051004501999999GJ100009IA1019IA2999+00509KA1120N+00651MD1310101+9999MW1021UA1M999999049REMSYN116AAXX  23061 15562 31497 83610 10072 20029 40297 53010 70222 885// 222// 2//03 333 20065 55000 555 30005 92045 92447;EQDQ01  00002PRCP99
0156155620999992000102309004+43360+028470FM-12+006499999V0203401N012010042019N0100001N1+00861+00301102931ADDAY121031AY221031GF108991081051004501999999MD1810071+9999MW1021REMSYN082AAXX  23091 15562 41497 83412 10086 20030 40293 58007 70222 885// 555 92046 92447;
0211155620999992000102312004+43360+028470FM-12+006499999V0203601N010010042019N0100001N1+00961+00211102841ADDAA199000091AY121061AY221061GF108991081051004501999999MD1710071+9999MW1021UA1M999999049REMSYN094AAXX  23121 15562 31497 83610 10096 20021 40284 57007 70222 885// 222// 2//03 555 92046 92447;EQDQ01  00002PRCP99
0156155620999992000102315004+43360+028470FM-12+006499999V0203601N010010042019N0100001N1+00901+00191102721ADDAY121031AY221031GF108991081051004501999999MD1710121+9999MW1021REMSYN082AAXX  23151 15562 41497 83610 10090 20019 40272 57012 70222 885// 555 92045 92447;
0234155620999992000102318004+43360+028470FM-12+006499999V0203401N008010042019N0100001N1+00861+00061102711ADDAA199000091AY121061AY221061GF108991081051004501999999KA1120M+01001MD1710011+9999MW1021UA1M999999049REMSYN104AAXX  23181 15562 31497 83408 10086 20006 40271 57001 70222 885// 222// 2//03 333 10100 555 92045 92447;EQDQ01  00002PRCP99
0156155620999992000102321004+43360+028470FM-12+006499999V0203201N010010042019N0100001N1+00881+00111102661ADDAY121031AY221031GF108991081051004501999999MD1710051+9999MW1021REMSYN082AAXX  23211 15562 41497 83210 10088 20011 40266 57005 70222 885// 555 92045 92447;
0211155620999992000102400004+43360+028470FM-12+006499999V0203201N010010042019N0100001N1+00861+00151102551ADDAA199000091AY121061AY221061GF108991081051004501999999MD1710111+9999MW1021UA1M999999049REMSYN094AAXX  24001 15562 31497 83210 10086 20015 40255 57011 70222 885// 222// 2//03 555 92045 92447;EQDQ01  00002PRCP99
0272155620999992000102406004+43360+028470FM-12+006499999V0203201N008010042019N0100001N1+00741+00151102591ADDAA199000091AY121061AY221061GF108991081051004501999999GJ100009IA1019IA2999+00509KA1120N+00721MD1210021+9999MW1021UA1M999999039REMSYN116AAXX  24061 15562 31497 83208 10074 20015 40259 52002 70222 885// 222// 2//02 333 20072 55000 555 30005 92035 92437;EQDQ01  00002PRCP99
0156155620999992000102409004+43360+028470FM-12+006499999V0203201N006010042019N0100001N1+01061+00231102671ADDAY121031AY221031GF108991081051004501999999MD1210081+9999MW1021REMSYN082AAXX  24091 15562 41497 83206 10106 20023 40267 52008 70222 885// 555 92035 92437;
0221155620999992000102412004+43360+028470FM-12+006499999V0203601N004012200019N0100001N1+01261+00211102451ADDAA199000091AY111061AY211061GA1001+999999999GF100991001001999999001001MD1810211+9999MW1011UA1M990059029REMSYN088AAXX  24121 15562 31997 03604 10126 20021 40245 58021 70111 222// 2//01 555 92024 92427;EQDQ01  00002PRCP99
0179155620999992000102415004+43360+028470FM-12+006499999V0203601N003012200019N0100001N1+01101+00431102401ADDAY101031AY201031GA1001+999999999GF100991001001999999001001MD1710041+9999MW1021UA1M999999029REMSYN076AAXX  24151 15562 41997 03603 10110 20043 40240 57004 70200 555 92023 92427;
0244155620999992000102418004+43360+028470FM-12+006499999V0200501N002012200019N0100001N1+00981+00591102391ADDAA199000091AY101061AY201061GA1001+999999999GF100991001001999999001001KA1120M+01291MD1710021+9999MW1021UA1M990009019REMSYN098AAXX  24181 15562 31997 00502 10098 20059 40239 57002 70200 222// 2//00 333 10129 555 92012 92417;EQDQ01  00002PRCP99
0179155620999992000102421004+43360+028470FM-12+006499999V0201801N003012200019N0100001N1+01061+00501102381ADDAY101031AY201031GA1001+999999999GF100991001001999999001001MD1410001+9999MW1021UA1M999999019REMSYN076AAXX  24211 15562 41997 01803 10106 20050 40238 54000 70200 555 92012 92417;
0221155620999992000102500004+43360+028470FM-12+006499999V0202301N003012200019N0100001N1+01041+00611102271ADDAA199000091AY101061AY201061GA1001+999999999GF100991001001999999001001MD1810121+9999MW1021UA1M990009019REMSYN088AAXX  25001 15562 31997 02303 10104 20061 40227 58012 70200 222// 2//00 555 92012 92417;EQDQ01  00002PRCP99
0204155620999992000102503004+43360+028470FM-12+006499999V0201801N003012200019N0100001N1+01041+00461102131ADDAY101031AY201031GA1001+999999999GF100991001001999999001001KA1999M+01001MD1710141+9999MW1021UA1M999999019REMSYN088AAXX  25031 15562 41997 01803 10104 20046 40213 57014 70200 555 10100 29061 92012 92417;
0282155620999992000102506004+43360+028470FM-12+006499999V0202301N006012200019N0100001N1+01081+00651102121ADDAA199000091AY101061AY201061GA1001+999999999GF100991001001999999001001GJ102889IA1019IA2999+00009KA1120N+00921MD1410001+9999MW1021UA1M990009019REMSYN110AAXX  25061 15562 31997 02306 10108 20065 40212 54000 70200 222// 2//00 333 20092 55048 555 30000 92013 92417;EQDQ01  00002PRCP99
0156155620999992000102509004+43360+028470FM-12+006499999V0202301N004012200019N0100001N1+01281+00711102161ADDAY101031AY201031GF102991001001999999001011MD1310051+9999MW1021REMSYN082AAXX  25091 15562 41997 22304 10128 20071 40216 53005 70200 80001 555 92013 92417;
0221155620999992000102512004+43360+028470FM-12+006499999V0202301N005012200019N0100001N1+01421+00531102041ADDAA199000091AY101061AY201061GA1001+999999999GF100991001001999999001001MD1810121+9999MW1021UA1M990009019REMSYN088AAXX  25121 15562 31997 02305 10142 20053 40204 58012 70200 222// 2//00 555 92013 92417;EQDQ01  00002PRCP99
0156155620999992000102515004+43360+028470FM-12+006499999V0202301N005019999999N0100001N1+01361+00801102011ADDAY111031AY211031GF106991001001999999001021MD1710031+9999MW1031REMSYN082AAXX  25151 15562 41997 62305 10136 20080 40201 57003 70311 80002 555 92013 92417;
0234155620999992000102518004+43360+028470FM-12+006499999V0202301N004010042019N0100001N1+01351+00891102001ADDAA199000091AY111061AY211061GF108991081051004501999999KA1120M+01531MD1710011+9999MW1021UA1M990009019REMSYN104AAXX  25181 15562 31497 82304 10135 20089 40200 57001 70211 885// 222// 2//00 333 10153 555 92013 92417;EQDQ01  00002PRCP99
0179155620999992000102521004+43360+028470FM-12+006499999V0202301N003012200019N0100001N1+01301+00901102001ADDAY111031AY211031GA1001+999999999GF100991001001999999001001MD1410001+9999MW1011UA1M999999019REMSYN076AAXX  25211 15562 41997 02303 10130 20090 40200 54000 70111 555 92013 92417;
0221155620999992000102600004+43360+028470FM-12+006499999V0202301N002012200019N0200001N1+01201+00921102001ADDAA199000091AY101061AY201061GA1001+999999999GF100991001001999999001001MD1410001+9999MW1021UA1M990009019REMSYN088AAXX  26001 15562 31998 02302 10120 20092 40200 54000 70200 222// 2//00 555 92012 92417;EQDQ01  00002PRCP99
0204155620999992000102603004+43360+028470FM-12+006499999V0202701N002012200019N0100001N1+01141+00641101921ADDAY101031AY201031GA1001+999999999GF100991001001999999001001KA1999M+01301MD1810081+9999MW1021UA1M999999019REMSYN088AAXX  26031 15562 41997 02702 10114 20064 40192 58008 70200 555 10130 29068 92012 92417;
0282155620999992000102606004+43360+028470FM-12+006499999V0202701N002012200019N0200001N1+01141+00931101991ADDAA199000091AY101061AY201061GA1001+999999999GF100991001001999999001001GJ105409IA1019IA2999+00109KA1120N+01021MD1310071+9999MW1101UA1M990009019REMSYN110AAXX  26061 15562 31998 02702 10114 20093 40199 53007 71000 222// 2//00 333 20102 55090 555 30001 92011 92418;EQDQ01  00002PRCP99
0156155620999992000102609004+43360+028470FM-12+006499999V0209999C000012200019N0100001N1+01461+00921101981ADDAY101031AY201031GF102991001001999999001021MD1410001+9999MW1021REMSYN082AAXX  26091 15562 41997 20000 10146 20092 40198 54000 70200 80002 555 92011 92417;
0211155620999992000102612004+43360+028470FM-12+006499999V0202301N003012200019N0040001N1+01521+00851101951ADDAA199000091AY101061AY201061GF102991001001999999001021MD1810031+9999MW1101UA1M990009019REMSYN094AAXX  26121 15562 31996 22303 10152 20085 40195 58003 71000 80002 222// 2//00 555 92012 92416;EQDQ01  00002PRCP99
0156155620999992000102615004+43360+028470FM-12+006499999V0202301N003012200019N0100001N1+01381+00931101871ADDAY101031AY201031GF103991001001999999001011MD1710091+9999MW1021REMSYN082AAXX  26151 15562 41997 32303 10138 20093 40187 57009 70200 80001 555 92022 92427;
0244155620999992000102618004+43360+028470FM-12+006499999V0202301N003012200019N0100001N1+01321+01131101801ADDAA199000091AY101061AY201061GA1001+999999999GF100991001001999999001001KA1120M+01701MD1310031+9999MW1021UA1M990059029REMSYN098AAXX  26181 15562 31997 02303 10132 20113 40180 53003 70200 222// 2//01 333 10170 555 92022 92427;EQDQ01  00002PRCP99
0179155620999992000102621004+43360+028470FM-12+006499999V0201801N003012200019N0100001N1+01301+01081101861ADDAY101031AY201031GA1001+999999999GF100991001001999999001001MD1810041+9999MW1021UA1M999999029REMSYN076AAXX  26211 15562 41997 01803 10130 20108 40186 58004 70200 555 92022 92427;
0221155620999992000102700004+43360+028470FM-12+006499999V0201801N004012200019N0100001N1+01321+01251101841ADDAA199000091AY101061AY201061GA1001+999999999GF100991001001999999001001MD1710021+9999MW1021UA1M990059029REMSYN088AAXX  27001 15562 31997 01804 10132 20125 40184 57002 70200 222// 2//01 555 92022 92427;EQDQ01  00002PRCP99
0204155620999992000102703004+43360+028470FM-12+006499999V0201801N004012200019N0100001N1+01321+01131101731ADDAY101031AY201031GA1001+999999999GF100991001001999999001001KA1999M+01321MD1710111+9999MW1021UA1M999999029REMSYN088AAXX  27031 15562 41997 01804 10132 20113 40173 57011 70200 555 10132 29079 92023 92427;
0272155620999992000102706004+43360+028470FM-12+006499999V0201801N004012200019N0100001N1+01341+01081101751ADDAA199000091AY101061AY201061GF102991021051004501001001GJ104989IA1019IA2999+00509KA1120N+01201MD1310021+9999MW1021UA1M990059029REMSYN116AAXX  27061 15562 31497 21804 10134 20108 40175 53002 70200 82500 222// 2//01 333 20120 55083 555 30005 92023 92427;EQDQ01  00002PRCP99
0179155620999992000102709004+43360+028470FM-12+006499999V0201801N005012200019N0100001N1+01541+00741101691ADDAY101031AY201031GA1001+999999999GF100991001001999999001001MD1810051+9999MW1021UA1M999999029REMSYN076AAXX  27091 15562 41997 01805 10154 20074 40169 58005 70200 555 92023 92427;
0298155620999992000102712004+43360+028470FM-12+006499999V0201801N007012200019N0100001N1+01501+00741101531ADDAA199000091AJ199999999999999AY101061AY201061GF102991021051004501001001IA1179MD1710161+9999MW1021UA1M990109039REMSYN142AAXX  27121 15562 31497 21807 10150 20074 40153 57016 70200 82500 222// 2//02 555 92034 15575 31998 22503 10212 20058 40144 58015 70300 80002;EQDQ01  00002PRCP99Q02  01442SNDP  
0156155620999992000102715004+43360+028470FM-12+006499999V0201801N008012200019N0100001N1+01501+00861101481ADDAY101031AY201031GF106991021051004501001011MD1710051+9999MW1021REMSYN082AAXX  27151 15562 41497 61808 10150 20086 40148 57005 70200 82501 555 92035 92437;
0234155620999992000102718004+43360+028470FM-12+006499999V0201801N008012200019N0100001N1+01421+01091101481ADDAA199000091AY111061AY211061GF102991021051004501001001KA1120M+01551MD1410001+9999MW1011UA1M990109039REMSYN104AAXX  27181 15562 31497 21808 10142 20109 40148 54000 70111 82500 222// 2//02 333 10155 555 92035 92437;EQDQ01  00002PRCP99
0156155620999992000102721004+43360+028470FM-12+006499999V0202701N003010042019N0100001N1+01361+01061101521ADDAY111031AY211031GF108991081051004501999999MD1310041+9999MW1031REMSYN082AAXX  27211 15562 41497 82703 10136 20106 40152 53004 70311 885// 555 92025 92427;
0211155620999992000102800004+43360+028470FM-12+006499999V0202701N003010042019N0100001N1+01421+01041101611ADDAA199000091AY111061AY211061GF108991081051004501999999MD1210091+9999MW1021UA1M990059029REMSYN094AAXX  28001 15562 31497 82703 10142 20104 40161 52009 70211 885// 222// 2//01 555 92022 92427;EQDQ01  00002PRCP99
0174155620999992000102803004+43360+028470FM-12+006499999V0202701N012010042019N0100001N1+01341+00681101781ADDAY151031AY221031GF108991081051004501999999MD1210161+9999MW1021REMSYN100AAXX  28031 15562 41497 82712 10134 20068 40178 52016 70252 885// 555 10141 29071 69924 92036 92437;
0259155620999992000102806004+43360+028470FM-12+006499999V0203201N010010042019N0200001N1+01021+00681102011ADDAA112000591AY161061AY221061GF108991081051004501999999GJ105409IA1099IA2999+00809KA1120N+01001MD1210221+9999MW1021UA1M990109039REMSYN122AAXX  28061 15562 11498 83210 10102 20068 40201 52022 69952 70262 885// 222// 2//02 333 20100 55090 555 31008 92035 92438;
0156155620999992000102809004+43360+028470FM-12+006499999V0203201N008010042019N0200001N1+01041+00611102211ADDAY121031AY221031GF106991061051004501001001MD1210201+9999MW1021REMSYN082AAXX  28091 15562 41498 63208 10104 20061 40221 52020 70222 86500 555 92035 92438;
0211155620999992000102812004+43360+028470FM-12+006499999V0203201N008012200019N0200001N1+01381+00381102301ADDAA199000091AY111061AY211061GF104991041021004501001001MD1210091+9999MW1011UA1M990109039REMSYN094AAXX  28121 15562 31498 43208 10138 20038 40230 52009 70111 84200 222// 2//02 555 92035 92438;EQDQ01  00002PRCP99
0156155620999992000102815004+43360+028470FM-12+006499999V0203601N006012200019N0200001N1+01221+00001102351ADDAY101031AY201031GF102991021051004501001001MD1210061+9999MW1021REMSYN082AAXX  28151 15562 41498 23606 10122 20000 40235 52006 70200 82500 555 92035 92438;
0244155620999992000102818004+43360+028470FM-12+006499999V0203201N006012200019N0200001N1+01021+00291102471ADDAA199000091AY101061AY201061GA1001+999999999GF100991001001999999001001KA1120M+01421MD1210111+9999MW1021UA1M990109039REMSYN098AAXX  28181 15562 31998 03206 10102 20029 40247 52011 70200 222// 2//02 333 10142 555 92034 92438;EQDQ01  00002PRCP99
0179155620999992000102821004+43360+028470FM-12+006499999V0203201N008012200019N0200001N1+00881+00501102561ADDAY101031AY201031GA1001+999999999GF100991001001999999001001MD1210091+9999MW1021UA1M999999039REMSYN076AAXX  28211 15562 41998 03208 10088 20050 40256 52009 70200 555 92035 92438;
0221155620999992000102900004+43360+028470FM-12+006499999V0203201N008012200019N0200001N1+00841+00271102711ADDAA199000091AY101061AY201061GA1001+999999999GF100991001001999999001001MD1210171+9999MW1021UA1M990109039REMSYN088AAXX  29001 15562 31998 03208 10084 20027 40271 52017 70200 222// 2//02 555 92035 92438;EQDQ01  00002PRCP99
0221155620999992000102903004+43360+028470FM-12+006499999V0203201N008012200019N0200001N1+00821+00191102611ADDAA124000591AY101031AY201031GA1001+999999999GF100991001001999999001001KA1999M+01101MD1410001+9999MW1021UA1M999999039REMSYN094AAXX  29031 15562 41998 03208 10082 20019 40261 54000 70200 555 10110 29069 69954 92035 92438;
0282155620999992000102906004+43360+028470FM-12+006499999V0203201N005012200019N0200001N1+00901+00191102701ADDAA199000091AY101061AY201061GA1001+999999999GF100991001001999999001001GJ102529IA1019IA2999+00509KA1120N+00801MD1310091+9999MW1021UA1M990059029REMSYN110AAXX  29061 15562 31998 03205 10090 20019 40270 53009 70200 222// 2//01 333 20080 55042 555 30005 92025 92428;EQDQ01  00002PRCP99
0179155620999992000102909004+43360+028470FM-12+006499999V0209999C000012200019N0200001N1+01361+00331102781ADDAY101031AY201031GA1001+999999999GF100991001001999999001001MD1210081+9999MW1021UA1M999999019REMSYN076AAXX  29091 15562 41998 00000 10136 20033 40278 52008 70200 555 92013 92418;
0211155620999992000102912004+43360+028470FM-12+006499999V0201401N003012200019N0200001N1+01441+00511102671ADDAA199000091AY101061AY201061GF102991021011004501001001MD1810101+9999MW1021UA1M990009019REMSYN094AAXX  29121 15562 31498 21403 10144 20051 40267 58010 70200 82100 222// 2//00 555 92012 92418;EQDQ01  00002PRCP99
0156155620999992000102915004+43360+028470FM-12+006499999V0209999C000012200019N0200001N1+01241+00511102591ADDAY101031AY201031GF102991001001999999001011MD1710081+9999MW1021REMSYN082AAXX  29151 15562 41998 20000 10124 20051 40259 57008 70200 80001 555 92002 92408;
0244155620999992000102918004+43360+028470FM-12+006499999V0201401N003012200019N0200001N1+01251+00431102591ADDAA199000091AY101061AY201061GA1001+999999999GF100991001001999999001001KA1120M+01601MD1410001+9999MW1021UA1M990009019REMSYN098AAXX  29181 15562 31998 01403 10125 20043 40259 54000 70200 222// 2//00 333 10160 555 92012 92418;EQDQ01  00002PRCP99
0179155620999992000102921004+43360+028470FM-12+006499999V0201401N006012200019N0200001N1+01251+00551102591ADDAY101031AY201031GA1001+999999999GF100991001001999999001001MD1410001+9999MW1021UA1M999999029REMSYN076AAXX  29211 15562 41998 01406 10125 20055 40259 54000 70200 555 92024 92428;
0221155620999992000103000004+43360+028470FM-12+006499999V0201801N005012200019N0200001N1+01241+00651102551ADDAA199000091AY101061AY201061GA1001+999999999GF100991001001999999001001MD1810041+9999MW1021UA1M990059029REMSYN088AAXX  30001 15562 31998 01805 10124 20065 40255 58004 70200 222// 2//01 555 92023 92428;EQDQ01  00002PRCP99
0204155620999992000103003004+43360+028470FM-12+006499999V0201801N006012200019N0200001N1+01121+00851102471ADDAY101031AY201031GA1001+999999999GF100991001001999999001001KA1999M+01151MD1710081+9999MW1021UA1M999999029REMSYN088AAXX  30031 15562 41998 01806 10112 20085 40247 57008 70200 555 10115 29056 92023 92428;
0179155620999992000103009004+43360+028470FM-12+006499999V0202301N005012200019N0200001N1+01381+00591102421ADDAY101031AY201031GA1001+999999999GF100991001001999999001001MD1310011+9999MW1021UA1M999999029REMSYN076AAXX  30091 15562 41998 02305 10138 20059 40242 53001 70200 555 92024 92428;
0221155620999992000103012004+43360+028470FM-12+006499999V0201801N007012200019N0200001N1+01301+00681102261ADDAA199000091AY101061AY201061GA1001+999999999GF100991001001999999001001MD1810161+9999MW1021UA1M990109039REMSYN088AAXX  30121 15562 31998 01807 10130 20068 40226 58016 70200 222// 2//02 555 92034 92438;EQDQ01  00002PRCP99
0179155620999992000103015004+43360+028470FM-12+006499999V0201801N006012200019N0200001N1+01281+00711102181ADDAY101031AY201031GA1001+999999999GF100991001001999999001001MD1710081+9999MW1021UA1M999999039REMSYN076AAXX  30151 15562 41998 01806 10128 20071 40218 57008 70200 555 92034 92438;
0244155620999992000103018004+43360+028470FM-12+006499999V0201801N006012200019N0200001N1+01281+00801102171ADDAA199000091AY101061AY201061GA1001+999999999GF100991001001999999001001KA1120M+01431MD1710011+9999MW1021UA1M990109039REMSYN098AAXX  30181 15562 31998 01806 10128 20080 40217 57001 70200 222// 2//02 333 10143 555 92034 92438;EQDQ01  00002PRCP99
0179155620999992000103021004+43360+028470FM-12+006499999V0201801N005012200019N0200001N1+01301+01041102111ADDAY101031AY201031GA1001+999999999GF100991001001999999001001MD1710061+9999MW1021UA1M999999039REMSYN076AAXX  30211 15562 41998 01805 10130 20104 40211 57006 70200 555 92034 92438;
0221155620999992000103100004+43360+028470FM-12+006499999V0201801N006012200019N0200001N1+01301+01081102081ADDAA199000091AY101061AY201061GA1001+999999999GF100991001001999999001001MD1710041+9999MW1021UA1M990109039REMSYN088AAXX  31001 15562 31998 01806 10130 20108 40208 57004 70200 222// 2//02 555 92034 92438;EQDQ01  00002PRCP99
0204155620999992000103103004+43360+028470FM-12+006499999V0201801N005012200019N0200001N1+01281+01091102061ADDAY101031AY201031GA1001+999999999GF100991001001999999001001KA1999M+01281MD1710021+9999MW1021UA1M999999039REMSYN088AAXX  31031 15562 41998 01805 10128 20109 40206 57002 70200 555 10128 29073 92034 92438;
0282155620999992000103106004+43360+028470FM-12+006499999V0201801N005012200019N0200001N1+01301+01081102061ADDAA199000091AY101061AY201061GA1001+999999999GF100991001001999999001001GJ105049IA1019IA2999+00909KA1120N+01201MD1410001+9999MW1021UA1M990109039REMSYN110AAXX  31061 15562 31998 01805 10130 20108 40206 54000 70200 222// 2//02 333 20120 55084 555 30009 92033 92438;EQDQ01  00002PRCP99
0179155620999992000103109004+43360+028470FM-12+006499999V0201801N005012200019N0200001N1+01401+01021102111ADDAY101031AY201031GA1001+999999999GF100991001001999999001001MD1310051+9999MW1021UA1M999999029REMSYN076AAXX  31091 15562 41998 01805 10140 20102 40211 53005 70200 555 92024 92428;
0221155620999992000103112004+43360+028470FM-12+006499999V0201801N006012200019N0200001N1+01401+01021102011ADDAA199000091AY101061AY201061GA1001+999999999GF100991001001999999001001MD1810101+9999MW1021UA1M990109039REMSYN088AAXX  31121 15562 31998 01806 10140 20102 40201 58010 70200 222// 2//02 555 92034 92438;EQDQ01  00002PRCP99
0179155620999992000103115004+43360+028470FM-12+006499999V0201801N004012200019N0100001N1+01341+01151101911ADDAY101031AY201031GA1001+999999999GF100991001001999999001001MD1710101+9999MW1021UA1M999999029REMSYN076AAXX  31151 15562 41997 01804 10134 20115 40191 57010 70200 555 92024 92427;
0244155620999992000103118004+43360+028470FM-12+006499999V0201801N004012200019N0100001N1+01341+01151101941ADDAA199000091AY101061AY201061GA1001+999999999GF100991001001999999001001KA1120M+01461MD1310031+9999MW1021UA1M990059029REMSYN098AAXX  31181 15562 31997 01804 10134 20115 40194 53003 70200 222// 2//01 333 10146 555 92023 92427;EQDQ01  00002PRCP99
0198155620999992000103121004+43360+028470FM-12+006499999V0201801N004012200019N0100001N1+01341+01151101941ADDAY101031AY201031GA1001+999999999GF100991001001999999001001MD1410001+9999MW1021UA1M999999029REMSYN076AAXX  31211 15562 41997 01804 10134 20115 40194 56000 70200 555 92023 92427;EQDQ01+000062APCTEN
0221155620999992000110100004+43360+028470FM-12+006499999V0201801N006012200019N0100001N1+01341+01201101911ADDAA199000091AY101061AY201061GA1001+999999999GF100991001001999999001001MD1810031+9999MW1021UA1M990059029REMSYN088AAXX  01001 15562 31997 01806 10134 20120 40191 58003 70200 222// 2//01 555 92024 92427;EQDQ01  00002PRCP99
0204155620999992000110103004+43360+028470FM-12+006499999V0201801N006012200019N0200001N1+01301+01151101911ADDAY101031AY201031GA1001+999999999GF100991001001999999001001KA1999M+01301MD1410001+9999MW1021UA1M999999029REMSYN088AAXX  01031 15562 41498 01806 10130 20115 40191 54000 70200 555 10130 29084 92024 92427;
0266155620999992000110106004+43360+028470FM-12+006499999V0201801N005010042019N0040001N1+99999+99999101821ADDAA199000091AY111061AY211061GF105991051011004501001001GJ104209IA1019IA2999+00909KA1120N+01281MD1810091+9999MW1101UA1M990059029REMSYN110AAXX  01061 15562 31496 51805 20119 40182 58009 71011 85100 222// 2//01 333 20128 55070 555 30009 92024 92426;EQDQ01  00002PRCP99
0156155620999992000110109004+43360+028470FM-12+006499999V0201801N003010042019N0100001N1+01421+01041101881ADDAY121031AY221031GF105991051061004501001001MD1310071+9999MW1021REMSYN082AAXX  01091 15562 41497 51803 10142 20104 40188 53007 70222 85600 555 92023 92427;
0221155620999992000110112004+43360+028470FM-12+006499999V0201801N004012200019N0100001N1+01421+01041101751ADDAA199000091AY111061AY211061GA1001+999999999GF100991001001999999001001MD1810131+9999MW1011UA1M990059029REMSYN088AAXX  01121 15562 31997 01804 10142 20104 40175 58013 70111 222// 2//01 555 92023 92427;EQDQ01  00002PRCP99
0156155620999992000110115004+43360+028470FM-12+006499999V0203201N003012200019N0040001N1+01361+01131101661ADDAY101031AY201031GF102991021051004501001001MD1710091+9999MW1101REMSYN082AAXX  01151 15562 41496 23203 10136 20113 40166 57009 71000 82500 555 92023 92426;
0234155620999992000110118004+43360+028470FM-12+006499999V0201801N005012200019N0040001N1+01401+01221101661ADDAA199000091AY101061AY201061GF102991021051004501001001KA1120M+01451MD1410001+9999MW1101UA1M990059029REMSYN104AAXX  01181 15562 31496 21805 10140 20122 40166 54000 71000 82500 222// 2//01 333 10145 555 92023 92426;EQDQ01  00002PRCP99
0179155620999992000110121004+43360+028470FM-12+006499999V0201801N007012200019N0040001N1+01401+01221101601ADDAY101031AY201031GA1001+999999999GF100991001001999999001001MD1810061+9999MW1101UA1M999999039REMSYN076AAXX  01211 15562 41996 01807 10140 20122 40160 58006 71000 555 92034 92436;
0221155620999992000110200004+43360+028470FM-12+006499999V0201801N005012200019N0040001N1+01381+01271101591ADDAA199000091AY101061AY201061GA1001+999999999GF100991001001999999001001MD1710011+9999MW1101UA1M990059029REMSYN088AAXX  02001 15562 31996 01805 10138 20127 40159 57001 71000 222// 2//01 555 92024 92426;EQDQ01  00002PRCP99
0204155620999992000110203004+43360+028470FM-12+006499999V0201801N005012200019N0040001N1+01381+01271101481ADDAY101031AY201031GA1001+999999999GF100991001001999999001001KA1999M+01381MD1710111+9999MW1101UA1M999999029REMSYN088AAXX  02031 15562 41996 01805 10138 20127 40148 57011 71000 555 10138 29087 92023 92426;
0272155620999992000110206004+43360+028470FM-12+006499999V0201801N007010360019N0040001N1+01361+01251101481ADDAA199000091AY111061AY211061GF107991041051004501031001GJ104089IA1019IA2999+01009KA1120N+01341MD1410001+9999MW1101UA1M990109039REMSYN116AAXX  02061 15562 31496 71807 10136 20125 40148 54000 71011 84530 222// 2//02 333 20134 55068 555 30010 92034 92436;EQDQ01  00002PRCP99
0179155620999992000110209004+43360+028470FM-12+006499999V0201801N003012200019N0040001N1+01521+01341101471ADDAY111031AY231031GA1001+999999999GF100991001001999999001001MD1410001+9999MW1101UA1M999999029REMSYN076AAXX  02091 15562 41996 01803 10152 20134 40147 54000 71013 555 92024 92426;
0211155620999992000110212004+43360+028470FM-12+006499999V0201801N002010042019N0040001N1+01421+01311101361ADDAA199000091AY111061AY211061GF107991071061004501001001MD1810121+9999MW1101UA1M990009019REMSYN094AAXX  02121 15562 31496 71802 10142 20131 40136 58012 71011 87600 222// 2//00 555 92012 92416;EQDQ01  00002PRCP99
0156155620999992000110215004+43360+028470FM-12+006499999V0201801N002010360019N0040001N1+01421+01201101431ADDAY121031AY221031GF107991041051004501031001MD1310071+9999MW1101REMSYN082AAXX  02151 15562 41496 71802 10142 20120 40143 53007 71022 84530 555 92011 92416;
0234155620999992000110218004+43360+028470FM-12+006499999V0202301N002010042019N0040001N1+01501+01051101481ADDAA199000091AY121061AY221061GF108991081051004501999999KA1120M+02051MD1210051+9999MW1101UA1M990009019REMSYN104AAXX  02181 15562 31496 82302 10150 20105 40148 52005 71022 885// 222// 2//00 333 10205 555 92012 92417;EQDQ01  00002PRCP99
0156155620999992000110221004+43360+028470FM-12+006499999V0202301N002010042019N0040001N1+01461+00971101591ADDAY121031AY221031GF106991061051004501001001MD1210111+9999MW1101REMSYN082AAXX  02211 15562 41496 62302 10146 20097 40159 52011 71022 86500 555 92011 92416;
0211155620999992000110300004+43360+028470FM-12+006499999V0202701N003010042019N0040001N1+01421+01041101671ADDAA199000091AY121061AY221061GF108991081051004501999999MD1210081+9999MW1021UA1M999999019REMSYN094AAXX  03001 15562 31496 82703 10142 20104 40167 52008 70222 885// 222// 2//00 555 92012 92416;EQDQ01  00002PRCP99
0174155620999992000110303004+43360+028470FM-12+006499999V0209999C000010042019N0040001N1+01361+01251101681ADDAY161031AY221031GF108991081051004501999999MD1210011+9999MW1101REMSYN100AAXX  03031 15562 41496 80000 10136 20125 40168 52001 71062 885// 555 10144 29086 69534 92001 92406;
0269155620999992000110306004+43360+028470FM-12+006499999V0209999C000012200019N0040001N1+01301+01231101791ADDAA112000391AY161061AY221061GA1001+999999999GF100991001001999999001001GJ101209IA1099IA2999+00909KA1120N+01281MD1210101+9999MW1101UA1M990009009REMSYN116AAXX  03061 15562 11996 00000 10130 20123 40179 52010 69932 71062 222// 2//00 333 20128 55020 555 31009 92000 92406;
0156155620999992000110309004+43360+028470FM-12+006499999V0201801N003012200019N0040001N1+01501+01321101851ADDAY101031AY201031GF102991021021004501001001MD1210071+9999MW1101REMSYN082AAXX  03091 15562 41496 21803 10150 20132 40185 52007 71000 82200 555 92012 92416;
0211155620999992000110312004+43360+028470FM-12+006499999V0202001N004012200019N0040001N1+01621+01321101871ADDAA199000091AY101061AY201061GF102991021021004501001001MD1210021+9999MW1101UA1M990009019REMSYN094AAXX  03121 15562 31496 22004 10162 20132 40187 52002 71000 82200 222// 2//00 555 92013 92416;EQDQ01  00002PRCP99
0156155620999992000110315004+43360+028470FM-12+006499999V0209999C000012200019N0040001N1+01461+01321101871ADDAY101031AY201031GF103991021021004501001011MD1410001+9999MW1101REMSYN082AAXX  03151 15562 41496 30000 10146 20132 40187 54000 71000 82201 555 92013 92416;
0244155620999992000110318004+43360+028470FM-12+006499999V0200501N005010001519N0001001N1+01301+01261102091ADDAA199000091AY141061AY211061GA1091+999999999GF109991091999999999999999KA1120M+01701MD1310211+9999MW1451UA1M990009019REMSYN098AAXX  03181 15562 31/91 90505 10130 20126 40209 53021 74541 222// 2//00 333 10170 555 92012 92411;EQDQ01  00002PRCP99
0179155620999992000110321004+43360+028470FM-12+006499999V0200501N002010001519N0001001N1+01241+01221102131ADDAY141031AY241031GA1091+999999999GF109991091999999999999999MD1210041+9999MW1451UA1M999999019REMSYN076AAXX  03211 15562 41/91 90502 10124 20122 40213 52004 74544 555 92012 92411;
0211155620999992000110400004+43360+028470FM-12+006499999V0200501N003010042019N0005001N1+01251+01241102021ADDAA199000091AY141061AY221061GF108991081061004501999999MD1310021+9999MW1101UA1M990009019REMSYN094AAXX  04001 15562 31493 80503 10125 20124 40202 53002 71042 886// 222// 2//00 555 92013 92413;EQDQ01  00002PRCP99
0168155620999992000110403004+43360+028470FM-12+006499999V0201401N005010042019N0020001N1+01361+01291102031ADDAY121031AY221031GF108991081051004501999999MD1410001+9999MW1101REMSYN094AAXX  04031 15562 41495 81405 10136 20129 40203 54000 71022 885// 555 10137 29092 92013 92415;
0272155620999992000110406004+43360+028470FM-12+006499999V0200701N004010042019N0010001N1+01381+01321102111ADDAA199000091AY121061AY221061GF108991081061004501999999GJ104569IA1019IA2999+01209KA1120N+01221MD1310081+9999MW1101UA1M990009019REMSYN116AAXX  04061 15562 31494 80704 10138 20132 40211 53008 71022 886// 222// 2//00 333 20122 55076 555 30012 92013 92414;EQDQ01  00002PRCP99
0179155620999992000110409004+43360+028470FM-12+006499999V0200501N002010003019N0002001N1+01341+01301102181ADDAY141031AY221031GA1091+999999999GF109991091999999999999999MD1210071+9999MW1171UA1M999999019REMSYN076AAXX  04091 15562 41/92 90502 10134 20130 40218 52007 71742 555 92013 92412;
0221155620999992000110412004+43360+028470FM-12+006499999V0201801N003010003019N0002001N1+01341+01301102161ADDAA199000091AY141061AY241061GA1091+999999999GF109991091999999999999999MD1810021+9999MW1451UA1M990009019REMSYN088AAXX  04121 15562 31/92 91803 10134 20130 40216 58002 74544 222// 2//00 555 92012 92412;EQDQ01  00002PRCP99
0156155620999992000110415004+43360+028470FM-12+006499999V0201801N002010003019N0002001N1+01321+01281102121ADDAY141031AY241031GA1091+999999999GF109991091999999999999999MD1710041+9999MW1451REMSYN066AAXX  04151 15562 41/92 91802 10132 20128 40212 57004 74544 92422;
0234155620999992000110418004+43360+028470FM-12+006499999V0201601N005010042019N0040001N1+01321+01281102091ADDAA199000091AY141061AY221061GF108991081061004501999999KA1120M+01401MD1710031+9999MW1101UA1M990059029REMSYN104AAXX  04181 15562 31496 81605 10132 20128 40209 57003 71042 886// 222// 2//01 333 10140 555 92023 92426;EQDQ01  00002PRCP99
0156155620999992000110421004+43360+028470FM-12+006499999V0201801N005010042019N0040001N1+01361+01291102071ADDAY121031AY221031GF108991081061004501999999MD1710021+9999MW1101REMSYN082AAXX  04211 15562 41496 81805 10136 20129 40207 57002 71022 886// 555 92023 92426;
0211155620999992000110500004+43360+028470FM-12+006499999V0201801N003010042019N0040001N1+01301+01261102051ADDAA199000091AY121061AY221061GF108991081061004501999999MD1710021+9999MW1101UA1M990059029REMSYN094AAXX  05001 15562 31496 81803 10130 20126 40205 57002 71022 886// 222// 2//01 555 92023 92426;EQDQ01  00002PRCP99
0168155620999992000110503004+43360+028470FM-12+006499999V0201801N002010042019N0040001N1+01281+01241101991ADDAY121031AY221031GF108991081061004501999999MD1710061+9999MW1101REMSYN094AAXX  05031 15562 41496 81802 10128 20124 40199 57006 71022 886// 555 10134 29097 92022 92426;
0282155620999992000110506004+43360+028470FM-12+006499999V0202301N005010001519N0001001N1+01271+01231102011ADDAA199000091AY141061AY221061GA1091+999999999GF109991091999999999999999GJ100009IA1019IA2999+01209KA1120N+01221MD1310021+9999MW1471UA1M990059029REMSYN110AAXX  05061 15562 31/91 92305 10127 20123 40201 53002 74742 222// 2//01 333 20122 55000 555 30012 92023 92421;EQDQ01  00002PRCP99
0179155620999992000110509004+43360+028470FM-12+006499999V0202001N004010003019N0002001N1+01481+01411102041ADDAY141031AY241031GA1091+999999999GF109991091999999999999999MD1210051+9999MW1431UA1M999999029REMSYN076AAXX  05091 15562 41/92 92004 10148 20141 40204 52005 74344 555 92023 92428;
0210155620999992000110512004+43360+028470FM-12+006499999V0202301N002019999999N0040001N1+01541+01321101951ADDAA199000091AY141061AY221061GF105991001001999999001021MD1810101+9999MW1101UA1M990009019REMSYN093AAXX  05121 15562 31996 5230210154 20132 40195 58010 71042 80002 222// 2//00 555 92013 92416;EQDQ01  00002PRCP99
0156155620999992000110515004+43360+028470FM-12+006499999V0202301N002010900019N0040001N1+01401+01291101911ADDAY121031AY221031GF106991031051004501001021MD1710041+9999MW1101REMSYN082AAXX  05151 15562 41496 62302 10140 20129 40191 57004 71022 83502 555 92012 92416;
0234155620999992000110518004+43360+028470FM-12+006499999V0209999C000019999999N0040001N1+01381+01241101911ADDAA199000091AY121061AY221061GF106991001001999999001011KA1120M+01581MD1410001+9999MW1101UA1M990009019REMSYN104AAXX  05181 15562 31996 60000 10138 20124 40191 54000 71022 80001 222// 2//00 333 10158 555 92012 92416;EQDQ01  00002PRCP99
0156155620999992000110521004+43360+028470FM-12+006499999V0209999C000019999999N0040001N1+01361+01251101801ADDAY121031AY221031GF106991001001999999001011MD1810111+9999MW1101REMSYN082AAXX  05211 15562 41996 60000 10136 20125 40180 58011 71022 80001 555 92012 92416;
0221155620999992000110600004+43360+028470FM-12+006499999V0209999C000010001519N0001001N1+01341+01301101721ADDAA199000091AY141061AY221061GA1091+999999999GF109991091999999999999999MD1710081+9999MW1471UA1M990009019REMSYN088AAXX  06001 15562 31/91 90000 10134 20130 40172 57008 74742 222// 2//00 555 92010 92411;EQDQ01  00002PRCP99
0204155620999992000110603004+43360+028470FM-12+006499999V0200501N002010001519N0001001N1+01341+01301101561ADDAY141031AY241031GA1091+999999999GF109991091999999999999999KA1999M+01391MD1710161+9999MW1451UA1M999999019REMSYN088AAXX  06031 15562 41/91 90502 10134 20130 40156 57016 74544 555 10139 29092 92012 92411;
0282155620999992000110606004+43360+028470FM-12+006499999V0209999C000010001519N0001001N1+01381+01341101481ADDAA199000091AY141061AY241061GA1091+999999999GF109991091999999999999999GJ101329IA1019IA2999+00909KA1120N+01301MD1710081+9999MW1451UA1M990009009REMSYN110AAXX  06061 15562 31/91 90000 10138 20134 40148 57008 74544 222// 2//00 333 20130 55022 555 30009 92002 92401;EQDQ01  00002PRCP99
0179155620999992000110609004+43360+028470FM-12+006499999V0201801N002010001519N0001001N1+01391+01261101451ADDAY141031AY241031GA1091+999999999GF109991091999999999999999MD1710021+9999MW1451UA1M999999019REMSYN076AAXX  06091 15562 41/91 91802 10139 20126 40145 57002 74544 555 92011 92411;
0221155620999992000110612004+43360+028470FM-12+006499999V0202301N002010001519N0001001N1+01351+01221101371ADDAA199000091AY141061AY241061GA1091+999999999GF109991091999999999999999MD1710081+9999MW1451UA1M990009019REMSYN088AAXX  06121 15562 31/91 92302 10135 20122 40137 57008 74544 222// 2//00 555 92011 92411;EQDQ01  00002PRCP99
0179155620999992000110615004+43360+028470FM-12+006499999V0202701N003010001519N0001001N1+01231+01181101351ADDAY141031AY241031GA1091+999999999GF109991091999999999999999MD1710021+9999MW1471UA1M999999019REMSYN076AAXX  06151 15562 41/91 92703 10123 20118 40135 57002 74744 555 92012 92411;
0244155620999992000110618004+43360+028470FM-12+006499999V0203601N004012200019N0040001N1+01201+00971101361ADDAA199000091AY141061AY211061GA1001+999999999GF100991001001999999001001KA1120M+01421MD1310011+9999MW1101UA1M990009019REMSYN098AAXX  06181 15562 31996 03604 10120 20097 40136 53001 71041 222// 2//00 333 10142 555 92013 92416;EQDQ01  00002PRCP99
0179155620999992000110621004+43360+028470FM-12+006499999V0203601N003012200019N0040001N1+01101+00861101411ADDAY101031AY201031GA1001+999999999GF100991001001999999001001MD1210041+9999MW1101UA1M999999019REMSYN076AAXX  06211 15562 41996 03603 10110 20086 40141 52004 71000 555 92013 92416;
0221155620999992000110700004+43360+028470FM-12+006499999V0203601N006012200019N0040001N1+01261+00841101371ADDAA199000091AY101061AY201061GA1001+999999999GF100991001001999999001001MD1810031+9999MW1101UA1M990059029REMSYN088AAXX  07001 15562 31996 03606 10126 20084 40137 58003 71000 222// 2//01 555 92024 92426;EQDQ01  00002PRCP99
0204155620999992000110703004+43360+028470FM-12+006499999V0203601N007010003019N0002001N1+00961+00841101321ADDAY141031AY211031GA1091+999999999GF109991091999999999999999KA1999M+01271MD1710061+9999MW1451UA1M999999029REMSYN088AAXX  07031 15562 41/92 93607 10096 20084 40132 57006 74541 555 10127 29091 92024 92422;
0282155620999992000110706004+43360+028470FM-12+006499999V0203601N002010001519N0001001N1+01141+00981101301ADDAA199000091AY141061AY241061GA1091+999999999GF109991091999999999999999GJ100009IA1019IA2999+00709KA1120N+00961MD1710011+9999MW1471UA1M990009019REMSYN110AAXX  07061 15562 31/91 93602 10114 20098 40130 57001 74744 222// 2//00 333 20096 55000 555 30007 92014 92411;EQDQ01  00002PRCP99
0156155620999992000110709004+43360+028470FM-12+006499999V0200501N003012200019N0010001N1+01401+01341101281ADDAY141031AY211031GF104991041061004501001001MD1710021+9999MW1281REMSYN082AAXX  07091 15562 41494 40503 10140 20134 40128 57002 72841 84600 555 92012 92414;
0221155620999992000110712004+43360+028470FM-12+006499999V0209999C000010003019N0002001N1+01341+01271101101ADDAA199000091AY141061AY211061GA1091+999999999GF109991091999999999999999MD1710181+9999MW1471UA1M990009009REMSYN088AAXX  07121 15562 31/92 90000 10134 20127 40110 57018 74741 222// 2//00 555 92002 92402;EQDQ01  00002PRCP99
0156155620999992000110715004+43360+028470FM-12+006499999V0201401N003012200019N0020001N1+01481+01371100991ADDAY141031AY211031GF103991031051004501001001MD1710111+9999MW1101REMSYN082AAXX  07151 15562 41495 31403 10148 20137 40099 57011 71041 83500 555 92012 92415;
0244155620999992000110718004+43360+028470FM-12+006499999V0202001N005012200019N0100001N1+01551+01341100931ADDAA199000091AY141061AY211061GA1001+999999999GF100991001001999999001001KA1120M+01621MD1710061+9999MW1021UA1M990009019REMSYN098AAXX  07181 15562 31997 02005 10155 20134 40093 57006 70241 222// 2//00 333 10162 555 92013 92417;EQDQ01  00002PRCP99
0179155620999992000110721004+43360+028470FM-12+006499999V0201801N009012200019N0100001N1+01571+01361101011ADDAY101031AY201031GA1001+999999999GF100991001001999999001001MD1310091+9999MW1021UA1M999999029REMSYN076AAXX  07211 15562 41997 01809 10157 20136 40101 53009 70200 555 92025 92427;
0272155620999992000110806004+43360+028470FM-12+006499999V0201801N007012200019N0100001N1+01461+01351101191ADDAA199000091AY101061AY201061GF103991021051004501001011GJ100489IA1019IA2999+01209KA1120N+01421MD1210131+9999MW1021UA1M990009019REMSYN116AAXX  08061 15562 31497 31807 10146 20135 40119 52013 70200 82501 222// 2//00 333 20142 55008 555 30012 92015 92417;EQDQ01  00002PRCP99
0179155620999992000110809004+43360+028470FM-12+006499999V0201801N003012200019N0200001N1+02151+01381101291ADDAY101031AY201031GA1001+999999999GF100991001001999999001001MD1210101+9999MW1021UA1M999999019REMSYN076AAXX  08091 15562 41998 01803 10215 20138 40129 52010 70200 555 92014 92418;
0211155620999992000110812004+43360+028470FM-12+006499999V0202001N003012200019N0200001N1+01711+01301101351ADDAA199000091AY101061AY201061GF102991021051004501001001MD1210061+9999MW1021UA1M990009019REMSYN094AAXX  08121 15562 31498 22003 10171 20130 40135 52006 70200 82500 222// 2//00 555 92012 92418;EQDQ01  00002PRCP99
0156155620999992000110815004+43360+028470FM-12+006499999V0202301N005012200019N0100001N1+01571+01381101401ADDAY111031AY211031GF105991031051004501001011MD1210051+9999MW1031REMSYN082AAXX  08151 15562 41497 52305 10157 20138 40140 52005 70311 83501 555 92013 92417;
0156155620999992000110821004+43360+028470FM-12+006499999V0202001N004019999999N0200001N1+01581+01331101561ADDAY121031AY221031GF105991001001999999001011MD1210071+9999MW1021REMSYN082AAXX  08211 15562 41998 52004 10158 20133 40156 52007 70222 80001 555 92013 92418;
0211155620999992000110900004+43360+028470FM-12+006499999V0202001N003010042019N0200001N1+01521+01341101571ADDAA199000091AY121061AY221061GF108991081051004501999999MD1210011+9999MW1021UA1M999999019REMSYN094AAXX  09001 15562 31498 82003 10152 20134 40157 52001 70222 885// 222// 2//00 555 92013 92418;EQDQ01  00002PRCP99
0204155620999992000110903004+43360+028470FM-12+006499999V0201801N005012200019N0200001N1+01521+01211101571ADDAY111031AY211031GA1001+999999999GF100991001001999999001001KA1999M+01591MD1410001+9999MW1011UA1M999999019REMSYN088AAXX  09031 15562 41998 01805 10152 20121 40157 54000 70111 555 10159 29083 92013 92418;
0272155620999992000110906004+43360+028470FM-12+006499999V0202001N004012200019N0200001N1+01511+01201101711ADDAA199000091AY111061AY211061GF103991021051004501001011GJ104209IA1019IA2999+01209KA1120N+01511MD1310141+9999MW1021UA1M990009019REMSYN116AAXX  09061 15562 31498 32004 10151 20120 40171 53014 70211 82501 222// 2//00 333 20151 55070 555 30012 92013 92418;EQDQ01  00002PRCP99
0156155620999992000110909004+43360+028470FM-12+006499999V0202001N005012200019N0200001N1+01641+01321101831ADDAY101031AY201031GF102991001001999999001011MD1210121+9999MW1021REMSYN082AAXX  09091 15562 41998 22005 10164 20132 40183 52012 70200 80001 555 92023 92428;
0211155620999992000110912004+43360+028470FM-12+006499999V0202001N004012200019N0200001N1+01781+01281101731ADDAA199000091AY101061AY201061GF102991001001999999001011MD1210101+9999MW1021UA1M990059029REMSYN094AAXX  09121 15562 31998 22004 10178 20128 40173 52010 70200 80001 222// 2//01 555 92023 92428;EQDQ01  00002PRCP99
0156155620999992000110915004+43360+028470FM-12+006499999V0202301N003012200019N0200001N1+01641+01281101791ADDAY101031AY201031GF104991021051004501001011MD1310041+9999MW1021REMSYN082AAXX  09151 15562 41498 42303 10164 20128 40179 53004 70200 82501 555 92013 92418;
0234155620999992000110918004+43360+028470FM-12+006499999V0202701N006019999999N0200001N1+01701+01201101821ADDAA199000091AY111061AY211061GF106991001001999999001011KA1120M+01841MD1210031+9999MW1031UA1M990059029REMSYN104AAXX  09181 15562 31998 62706 10170 20120 40182 52003 70311 80001 222// 2//01 333 10184 555 92024 92428;EQDQ01  00002PRCP99
0156155620999992000110921004+43360+028470FM-12+006499999V0202701N005012200019N0200001N1+01621+01221101821ADDAY111031AY211031GF104991001001999999001011MD1410001+9999MW1011REMSYN082AAXX  09211 15562 41998 42705 10162 20122 40182 54000 70111 80001 555 92024 92428;
0211155620999992000111000004+43360+028470FM-12+006499999V0202701N004012200019N0200001N1+01501+01251101831ADDAA199000091AY111061AY211061GF103991001001999999001011MD1410001+9999MW1021UA1M990059029REMSYN094AAXX  10001 15562 31998 32704 10150 20125 40183 54000 70211 80001 222// 2//01 555 92024 92428;EQDQ01  00002PRCP99
0204155620999992000111003004+43360+028470FM-12+006499999V0203201N006012200019N0200001N1+01481+00551101931ADDAY101031AY201031GA1001+999999999GF100991001001999999001001KA1999M+01661MD1310101+9999MW1021UA1M999999029REMSYN088AAXX  10031 15562 41998 03206 10148 20055 40193 53010 70200 555 10166 29077 92024 92428;
0272155620999992000111006004+43360+028470FM-12+006499999V0203201N003012200019N0200001N1+01541+00971102021ADDAA199000091AY111061AY211061GF106991031051004501001011GJ104509IA1019IA2999+01109KA1120N+01461MD1210101+9999MW1031UA1M990059029REMSYN116AAXX  10061 15562 31498 63203 10154 20097 40202 52010 70311 83501 222// 2//01 333 20146 55075 555 30011 92024 92428;EQDQ01  00002PRCP99
0156155620999992000111009004+43360+028470FM-12+006499999V0209999C000012200019N0200001N1+01961+01131102061ADDAY111031AY211031GF103991031001999999031001MD1210041+9999MW1011REMSYN082AAXX  10091 15562 41998 30000 10196 20113 40206 52004 70111 83030 555 92012 92418;
0211155620999992000111012004+43360+028470FM-12+006499999V0201801N003019999999N0100001N1+01821+01001101981ADDAA199000091AY111061AY211061GF106991001001999999001021MD1810081+9999MW1301UA1M990009019REMSYN094AAXX  10121 15562 31997 61803 10182 20100 40198 58008 73011 80002 222// 2//00 555 92012 92417;EQDQ01  00002PRCP99
0156155620999992000111015004+43360+028470FM-12+006499999V0200901N003010360019N0100001N1+01581+01261101981ADDAY121031AY221031GF107991021021004501031051MD1710011+9999MW1021REMSYN082AAXX  10151 15562 41497 70903 10158 20126 40198 57001 70222 82235 555 92012 92417;
0244155620999992000111018004+43360+028470FM-12+006499999V0200701N003010003019N0002001N1+01281+01211102021ADDAA199000091AY141061AY221061GA1091+999999999GF109991091999999999999999KA1120M+02051MD1310031+9999MW1471UA1M990009019REMSYN098AAXX  10181 15562 31/92 90703 10128 20121 40202 53003 74742 222// 2//00 333 10205 555 92012 92412;EQDQ01  00002PRCP99
0179155620999992000111021004+43360+028470FM-12+006499999V0200201N003010003019N0002001N1+01221+01191102081ADDAY141031AY241031GA1091+999999999GF109991091999999999999999MD1210061+9999MW1451UA1M999999019REMSYN076AAXX  10211 15562 41/92 90203 10122 20119 40208 52006 74544 555 92012 92412;
0220155620999992000111100004+43360+028470FM-12+006499999V0203601N004010003019N0002001N1+01121+01091102101ADDAA199000091AY141061AY241061GA1091+999999999GF109991091999999999999999MD1210021+9999MW1451UA1M990059029REMSYN087AAXX  11001 15562 31/92 93604 10112 20109 4021052002 74544 222// 2//01 555 92022 92422;EQDQ01  00002PRCP99
0204155620999992000111103004+43360+028470FM-12+006499999V0200501N004010003019N0002001N1+01201+01171102081ADDAY141031AY241031GA1091+999999999GF109991091999999999999999KA1999M+01461MD1810021+9999MW1451UA1M999999029REMSYN088AAXX  11031 15562 41/92 90504 10120 20117 40208 58002 74544 555 10146 29077 92023 92422;
0272155620999992000111106004+43360+028470FM-12+006499999V0203401N005010360019N0040001N1+01121+01091102211ADDAA199000091AY141061AY221061GF106991031051004501031001GJ103249IA1019IA2999+01109KA1120N+01051MD1310131+9999MW1101UA1M990059029REMSYN116AAXX  11061 15562 31496 63405 10112 20109 40221 53013 71042 83530 222// 2//01 333 20105 55054 555 30011 92023 92426;EQDQ01  00002PRCP99
0156155620999992000111109004+43360+028470FM-12+006499999V0203601N002010042019N0200001N1+01301+01111102041ADDAY121031AY221031GF106991061051004501001001MD1210191+9999MW1021REMSYN082AAXX  11091 15562 41498 63602 10130 20111 40204 52019 70222 86500 555 92013 92418;
0204155620999992000111112004+43360+028470FM-12+006499999V0203201N003010042019N0020001N1+01341+01231102361ADDAA106001091AY161061AY221061GF108991081001004501021999MD1810041+9999MW1611UA1M990009019REMSYN106AAXX  11121 15562 11495 83203 10134 20123 40236 58004 60011 76162 8802/ 222// 2//00 555 92012 92415 96010;
0156155620999992000111115004+43360+028470FM-12+006499999V0209999C000010042019N0010001N1+01321+01181102431ADDAY161031AY221031GF106991061051004501001001MD1310071+9999MW1101REMSYN082AAXX  11151 15562 41494 60000 10132 20118 40243 53007 71062 86500 555 92002 92404;
0221155620999992000111118004+43360+028470FM-12+006499999V0203601N004012200019N0100001N1+01241+00611102581ADDAA101002091AY161061AY211061GF102991021001999999031001KA1120M+01471MD1210151+9999MW1011UA1M990009019REMSYN110AAXX  11181 15562 11997 23604 10124 20061 40258 52015 60025 70161 82030 222// 2//00 333 10147 555 92013 92417;
0179155620999992000111121004+43360+028470FM-12+006499999V0203601N010012200019N0100001N1+01101+00681102711ADDAY101031AY201031GA1001+999999999GF100991001001999999001001MD1210131+9999MW1021UA1M999999019REMSYN076AAXX  11211 15562 41997 03610 10110 20068 40271 52013 70200 555 92015 92417;
0202155620999992000111200004+43360+028470FM-12+006499999V0203601N007012200019N0100001N1+01041+00801102791ADDAA199000021AY101061AY201061GA1001+999999999GF100991001001999999001001MD1210071+9999MW1021UA1M990009019REMSYN088AAXX  12001 15562 31997 03607 10104 20080 40279 52007 70200 222// 2//00 555 92015 92417;
0221155620999992000111203004+43360+028470FM-12+006499999V0203601N005012200019N0100001N1+00901+00761102821ADDAA124002091AY101031AY201031GA1001+999999999GF100991001001999999001001KA1999M+01181MD1210031+9999MW1021UA1M999999019REMSYN094AAXX  12031 15562 41997 03605 10090 20076 40282 52003 70200 555 10118 29088 60024 92013 92417;
0282155620999992000111206004+43360+028470FM-12+006499999V0203601N007012200019N0100001N1+01001+00611102941ADDAA199000091AY101061AY201061GA1001+999999999GF100991001001999999001001GJ100009IA1099IA2999+00709KA1120N+00941MD1210091+9999MW1021UA1M990009019REMSYN110AAXX  12061 15562 31997 03607 10100 20061 40294 52009 70200 222// 2//00 333 20094 55000 555 31007 92014 92417;EQDQ01  00002PRCP99
0179155620999992000111209004+43360+028470FM-12+006499999V0203601N002012200019N0200001N1+01271+00761103001ADDAY101031AY201031GA1001+999999999GF100991001001999999001001MD1210071+9999MW1021UA1M999999019REMSYN076AAXX  12091 15562 41998 03602 10127 20076 40300 52007 70200 555 92013 92418;
0211155620999992000111212004+43360+028470FM-12+006499999V0200201N003012200019N0200001N1+01301+00531102961ADDAA199000091AY101061AY201061GF101991011021004501001001MD1810051+9999MW1021UA1M990009019REMSYN094AAXX  12121 15562 31498 10203 10130 20053 40296 58005 70200 81200 222// 2//00 555 92012 92418;EQDQ01  00002PRCP99
0179155620999992000111215004+43360+028470FM-12+006499999V0203601N002012200019N0200001N1+01121+00511102891ADDAY101031AY201031GA1001+999999999GF100991001001999999001001MD1710071+9999MW1021UA1M999999019REMSYN076AAXX  12151 15562 41998 03602 10112 20051 40289 57007 70200 555 92012 92418;
0244155620999992000111218004+43360+028470FM-12+006499999V0200901N002012200019N0200001N1+01111+00531102881ADDAA199000091AY101061AY201061GA1001+999999999GF100991001001999999001001KA1120M+01401MD1710011+9999MW1021UA1M990009019REMSYN098AAXX  12181 15562 31998 00902 10111 20053 40288 57001 70200 222// 2//00 333 10140 555 92012 92418;EQDQ01  00002PRCP99
0156155620999992000111221004+43360+028470FM-12+006499999V0200901N002012200019N0200001N1+01121+00611102821ADDAY101031AY201031GA1001+999999999GF100991001001999999001001MD1710061+9999MW1021REMSYN066AAXX  12211 15562 41998 00902 10112 20061 40282 57006 70200 92418;
0227155620999992000111300004+43360+028470FM-12+006499999V0201801N003019999999N0200001N1+01161+00611102761ADDAA199000091AY111061AY211061GF105991999051004501001001MD1710061+9999MW1031UA1M990009019REMSYN094AAXX  13001 15562 31498 51803 10116 20061 40276 57006 70311 86500 222// 2//00 555 92012 92418;EQDQ01+000062SCOTLCQ02  00002PRCP99
0168155620999992000111303004+43360+028470FM-12+006499999V0201401N003012200019N0200001N1+01181+00861102641ADDAY111031AY211031GF102991021011004501001001MD1710111+9999MW1011REMSYN094AAXX  13031 15562 41498 21403 10118 20086 40264 57011 70111 82100 555 10113 29070 92022 92428;
0272155620999992000111306004+43360+028470FM-12+006499999V0201601N005010042019N0200001N1+01181+00591102631ADDAA199000091AY111061AY211061GF105991051051004501001001GJ104809IA1019IA2999+00709KA1120N+01081MD1710011+9999MW1031UA1M990059029REMSYN116AAXX  13061 15562 31498 51605 10118 20059 40263 57001 70311 85500 222// 2//01 333 20108 55080 555 30007 92023 92428;EQDQ01  00002PRCP99
0156155620999992000111309004+43360+028470FM-12+006499999V0201601N005012200019N0200001N1+01281+00561102651ADDAY111031AY211031GF103991031011004501001001MD1310021+9999MW1011REMSYN082AAXX  13091 15562 41498 31605 10128 20056 40265 53002 70111 83100 555 92023 92428;
0211155620999992000111312004+43360+028470FM-12+006499999V0201601N006012200019N0200001N1+01301+00581102451ADDAA199000091AY111061AY211061GF102991021011004501001001MD1810201+9999MW1021UA1M990059029REMSYN094AAXX  13121 15562 31498 21606 10130 20058 40245 58020 70211 82100 222// 2//01 555 92024 92428;EQDQ01  00002PRCP99
0234155620999992000111318004+43360+028470FM-12+006499999V0201601N007012200019N0200001N1+01221+00641102291ADDAA199000091AY101061AY201061GF102991021011004501001001KA1120M+01341MD1710061+9999MW1021UA1M990059029REMSYN104AAXX  13181 15562 31498 21607 10122 20064 40229 57006 70200 82100 222// 2//01 333 10134 555 92024 92428;EQDQ01  00002PRCP99
0179155620999992000111321004+43360+028470FM-12+006499999V0201801N008012200019N0200001N1+01221+00731102241ADDAY101031AY201031GA1001+999999999GF100991001001999999001001MD1710051+9999MW1021UA1M999999039REMSYN076AAXX  13211 15562 41998 01808 10122 20073 40224 57005 70200 555 92038 92438;
0211155620999992000111400004+43360+028470FM-12+006499999V0201801N007012200019N0200001N1+01221+00811102211ADDAA199000091AY101061AY201061GF102991021011004501001001MD1710031+9999MW1021UA1M990109039REMSYN094AAXX  14001 15562 31498 21807 10122 20081 40221 57003 70200 82100 222// 2//02 555 92035 92438;EQDQ01  00002PRCP99
0187155620999992000111403004+43360+028470FM-12+006499999V0201801N007012200019N0200001N1+01241+00891102141ADDAY101031AY201031GF102991999011004501001001MD1710071+9999MW1021REMSYN094AAXX  14031 15562 41498 21807 10124 20089 40214 57007 70200 83100 555 10124 29068 92034 92438;EQDQ01+000032SCOTLC
0288155620999992000111406004+43360+028470FM-12+006499999V0201801N005012200019N0200001N1+01241+00971102171ADDAA199000091AY101061AY201061GF103991999011004501001001GJ104329IA1019IA2999+00709KA1120N+01201MD1310031+9999MW1021UA1M990059029REMSYN116AAXX  14061 15562 31498 31805 10124 20097 40217 53003 70200 82100 222// 2//01 333 20120 55072 555 30007 92024 92428;EQDQ01+000022SCOTLCQ02  00002PRCP99
0179155620999992000111409004+43360+028470FM-12+006499999V0201801N008012200019N0200001N1+01321+00971102201ADDAY101031AY201031GA1001+999999999GF100991001001999999001001MD1210031+9999MW1021UA1M999999029REMSYN076AAXX  14091 15562 41998 01808 10132 20097 40220 52003 70200 555 92025 92428;
0221155620999992000111412004+43360+028470FM-12+006499999V0201801N005012200019N0200001N1+01321+00971102141ADDAA199000091AY101061AY201061GA1001+999999999GF100991001001999999001001MD1810061+9999MW1021UA1M990059029REMSYN088AAXX  14121 15562 31998 01805 10132 20097 40214 58006 70200 222// 2//01 555 92025 92428;EQDQ01  00002PRCP99
0179155620999992000111415004+43360+028470FM-12+006499999V0201801N005012200019N0200001N1+01281+01051102111ADDAY101031AY201031GA1001+999999999GF100991001001999999001001MD1710031+9999MW1021UA1M999999029REMSYN076AAXX  14151 15562 41998 01805 10128 20105 40211 57003 70200 555 92024 92428;
0244155620999992000111418004+43360+028470FM-12+006499999V0201801N004012200019N0200001N1+01301+01081102141ADDAA199000091AY101061AY201061GA1001+999999999GF100991001001999999001001KA1120M+01381MD1310031+9999MW1021UA1M990059029REMSYN098AAXX  14181 15562 31998 01804 10130 20108 40214 53003 70200 222// 2//01 333 10138 555 92023 92428;EQDQ01  00002PRCP99
0179155620999992000111421004+43360+028470FM-12+006499999V0201801N005012200019N0200001N1+01321+01111102141ADDAY101031AY201031GA1001+999999999GF100991001001999999001001MD1410001+9999MW1021UA1M999999029REMSYN076AAXX  14211 15562 41998 01805 10132 20111 40214 54000 70200 555 92024 92428;
0221155620999992000111500004+43360+028470FM-12+006499999V0201801N004012200019N0200001N1+01301+01111102171ADDAA199000091AY101061AY201061GA1001+999999999GF100991001001999999001001MD1310031+9999MW1021UA1M990059029REMSYN088AAXX  15001 15562 31998 01804 10130 20111 40217 53003 70200 222// 2//01 555 92024 92428;EQDQ01  00002PRCP99
0204155620999992000111503004+43360+028470FM-12+006499999V0201801N005012200019N0200001N1+01301+01211102141ADDAY101031AY201031GA1001+999999999GF100991001001999999001001KA1999M+01301MD1810031+9999MW1021UA1M999999019REMSYN088AAXX  15031 15562 41998 01805 10130 20121 40214 58003 70200 555 10130 29083 92014 92418;
0272155620999992000111506004+43360+028470FM-12+006499999V0201801N004012200019N0100001N1+01331+01201102211ADDAA199000091AY101061AY201061GF103991021051004501031001GJ104689IA1019IA2999+00909KA1120N+01261MD1310071+9999MW1021UA1M990009019REMSYN116AAXX  15061 15562 31497 31804 10133 20120 40221 53007 70200 82530 222// 2//00 333 20126 55078 555 30009 92014 92417;EQDQ01  00002PRCP99
0156155620999992000111509004+43360+028470FM-12+006499999V0201801N002012200019N0200001N1+01541+01221102301ADDAY101031AY201031GF102991021021004501001001MD1210101+9999MW1021REMSYN082AAXX  15091 15562 41498 21802 10154 20122 40230 52010 70200 82200 555 92013 92418;
0211155620999992000111512004+43360+028470FM-12+006499999V0201601N003012200019N0200001N1+01561+01221102191ADDAA199000091AY101061AY201061GF102991021021008001001001MD1810111+9999MW1021UA1M990009019REMSYN094AAXX  15121 15562 31598 21603 10156 20122 40219 58011 70200 82200 222// 2//00 555 92012 92418;EQDQ01  00002PRCP99
0156155620999992000111515004+43360+028470FM-12+006499999V0201401N002012200019N0100001N1+01361+01221102251ADDAY101031AY201031GF102991021051004501001001MD1310051+9999MW1021REMSYN082AAXX  15151 15562 41497 21402 10136 20122 40225 53005 70200 82500 555 92012 92417;
0244155620999992000111518004+43360+028470FM-12+006499999V0209999C000012200019N0200001N1+01301+01151102371ADDAA199000091AY101061AY201061GA1001+999999999GF100991001001999999001001KA1120M+01601MD1210121+9999MW1021UA1M990009009REMSYN098AAXX  15181 15562 31998 00000 10130 20115 40237 52012 70200 222// 2//00 333 10160 555 92001 92408;EQDQ01  00002PRCP99
0179155620999992000111521004+43360+028470FM-12+006499999V0209999C000012200019N0200001N1+01261+01111102361ADDAY101031AY201031GA1001+999999999GF100991001001999999001001MD1810011+9999MW1021UA1M999999009REMSYN076AAXX  15211 15562 41998 00000 10126 20111 40236 58001 70200 555 92000 92408;
0221155620999992000111600004+43360+028470FM-12+006499999V0200901N002012200019N0040001N1+01201+01051102361ADDAA199000091AY101061AY201061GA1001+999999999GF100991001001999999001001MD1410001+9999MW1101UA1M990009019REMSYN088AAXX  16001 15562 31996 00902 10120 20105 40236 54000 71000 222// 2//00 555 92011 92416;EQDQ01  00002PRCP99
0204155620999992000111603004+43360+028470FM-12+006499999V0200701N003012200019N0200001N1+01131+00981102351ADDAY101031AY201031GA1001+999999999GF100991001001999999001001KA1999M+01371MD1810011+9999MW1021UA1M999999019REMSYN088AAXX  16031 15562 41998 00703 10113 20098 40235 58001 70200 555 10137 29087 92012 92418;
0272155620999992000111606004+43360+028470FM-12+006499999V0209999C000010360019N0200001N1+01201+01031102401ADDAA199000091AY111061AY211061GF106991041051004501031001GJ104449IA1019IA2999+00509KA1120N+01121MD1310051+9999MW1031UA1M990009009REMSYN116AAXX  16061 15562 31498 60000 10120 20103 40240 53005 70311 84530 222// 2//00 333 20112 55074 555 30005 92002 92408;EQDQ01  00002PRCP99
0156155620999992000111609004+43360+028470FM-12+006499999V0209999C000010360019N0200001N1+01461+01171102381ADDAY121031AY221031GF105991021051004501031001MD1810011+9999MW1021REMSYN082AAXX  16091 15562 41498 50000 10146 20117 40238 58001 70222 82530 555 92003 92408;
0211155620999992000111612004+43360+028470FM-12+006499999V0201401N003010042019N0200001N1+01361+01271102301ADDAA199000091AY121061AY221061GF107991071051004501001001MD1710081+9999MW1021UA1M999999019REMSYN094AAXX  16121 15562 31498 71403 10136 20127 40230 57008 70222 87500 222// 2//00 555 92012 92418;EQDQ01  00002PRCP99
0156155620999992000111615004+43360+028470FM-12+006499999V0209999C000010360019N0200001N1+01261+01081102191ADDAY121031AY221031GF106991031051004501031001MD1710131+9999MW1021REMSYN082AAXX  16151 15562 41498 60000 10126 20108 40219 57013 70222 83530 555 92012 92418;
0217155620999992000111618004+43360+028470FM-12+006499999V0201801N004010042019N0200001N1+01241+01091102191ADDAA199000091AY121061AY221061GF108991081051004501999999KA1120M+01651MD1410001+9999MW1021REMSYN100AAXX  16181 15562 31498 81804 10124 20109 40219 54000 70222 885// 222// 2//00 333 10165 92013 92418;EQDQ01  00002PRCP99
0175155620999992000111621004+43360+028470FM-12+006499999V0201801N004019999999N0200001N1+01221+00931102191ADDAY121031AY221031GF105991999051004501001001MD1410001+9999MW1021REMSYN082AAXX  16211 15562 41498 51804 10122 20093 40219 54000 70222 86500 555 92024 92428;EQDQ01+000062SCOTLC
0211155620999992000111700004+43360+028470FM-12+006499999V0201801N004010042019N0200001N1+01181+00931102171ADDAA199000091AY121061AY221061GF105991051051004501001001MD1810021+9999MW1021UA1M999999029REMSYN094AAXX  17001 15562 31498 51804 10118 20093 40217 58002 70222 85500 222// 2//01 555 92023 92428;EQDQ01  00002PRCP99
0168155620999992000111703004+43360+028470FM-12+006499999V0201801N004010042019N0200001N1+01181+01031102111ADDAY121031AY221031GF106991061051004501001001MD1710061+9999MW1021REMSYN094AAXX  17031 15562 41498 61804 10118 20103 40211 57006 70222 86500 555 10124 29087 92023 92428;
0272155620999992000111706004+43360+028470FM-12+006499999V0201801N002010042019N0200001N1+01221+00931102181ADDAA199000091AY121061AY221061GF107991071051004501001001GJ101989IA1019IA2999+00709KA1120N+01051MD1310071+9999MW1021UA1M999999019REMSYN116AAXX  17061 15562 31498 71802 10122 20093 40218 53007 70222 87500 222// 2//00 333 20105 55033 555 30007 92013 92418;EQDQ01  00002PRCP99
0156155620999992000111709004+43360+028470FM-12+006499999V0201801N002010042019N0200001N1+01341+01041102241ADDAY121031AY221031GF106991061051004501001001MD1210061+9999MW1021REMSYN082AAXX  17091 15562 41498 61802 10134 20104 40224 52006 70222 86500 555 92012 92418;
0211155620999992000111712004+43360+028470FM-12+006499999V0201801N002010042019N0200001N1+01301+00931102181ADDAA199000091AY121061AY221061GF106991061051004501001001MD1810061+9999MW1021UA1M999999019REMSYN094AAXX  17121 15562 31498 61802 10130 20093 40218 58006 70222 86500 222// 2//00 555 92012 92418;EQDQ01  00002PRCP99
0156155620999992000111715004+43360+028470FM-12+006499999V0201801N002010042019N0200001N1+01161+00971102101ADDAY121031AY221031GF107991071051004501001001MD1710081+9999MW1021REMSYN082AAXX  17151 15562 41498 71802 10116 20097 40210 57008 70222 87500 555 92012 92418;
0250155620999992000111718004+43360+028470FM-12+006499999V0201401N003019999999N0200001N1+01161+00971102101ADDAA199000091AY121061AY221061GF106991999051004501001001KA1120M+01401MD1310031+9999MW1021UA1M999999019REMSYN104AAXX  17181 15562 31498 61403 10116 20097 40210 53003 70222 87500 222// 2//00 333 10140 555 92013 92418;EQDQ01+000072SCOTLCQ02  00002PRCP99
0156155620999992000111721004+43360+028470FM-12+006499999V0200901N003010042019N0200001N1+01161+00971102131ADDAY121031AY221031GF106991061051004501001001MD1410001+9999MW1021REMSYN082AAXX  17211 15562 41498 60903 10116 20097 40213 54000 70222 86500 555 92013 92418;
0211155620999992000111800004+43360+028470FM-12+006499999V0200901N002010042019N0200001N1+01161+00971102101ADDAA199000091AY121061AY221061GF108991081051004501999999MD1810031+9999MW1021UA1M999999019REMSYN094AAXX  18001 15562 31498 80902 10116 20097 40210 58003 70222 885// 222// 2//00 555 92013 92418;EQDQ01  00002PRCP99
0168155620999992000111803004+43360+028470FM-12+006499999V0200901N002010042019N0200001N1+01211+00991102121ADDAY121031AY221031GF108991081051004501999999MD1310021+9999MW1021REMSYN094AAXX  18031 15562 41498 80902 10121 20099 40212 53002 70222 885// 555 10120 29086 92012 92416;
0272155620999992000111806004+43360+028470FM-12+006499999V0200901N003010042019N0200001N1+01221+00991102131ADDAA199000091AY121061AY221061GF107991071051004501001001GJ101149IA1019IA2999+00709KA1120N+01141MD1210011+9999MW1021UA1M999999019REMSYN116AAXX  18061 15562 31498 70903 10122 20099 40213 52001 70222 87500 222// 2//00 333 20114 55019 555 30007 92013 92418;EQDQ01  00002PRCP99
0156155620999992000111809004+43360+028470FM-12+006499999V0201801N002010042019N0200001N1+01341+00921102181ADDAY121031AY221031GF107991071051004501001001MD1210051+9999MW1021REMSYN082AAXX  18091 15562 41498 71802 10134 20092 40218 52005 70222 87500 555 92012 92418;
0211155620999992000111812004+43360+028470FM-12+006499999V0209999C000010042019N0100001N1+01381+00991102141ADDAA199000091AY121061AY221061GF107991071051004501001001MD1810041+9999MW1021UA1M999999009REMSYN094AAXX  18121 15562 31497 70000 10138 20099 40214 58004 70222 87500 222// 2//00 555 92001 92407;EQDQ01  00002PRCP99
0156155620999992000111815004+43360+028470FM-12+006499999V0201401N003010042019N0200001N1+01261+00861102121ADDAY121031AY221031GF108991081051004501999999MD1710021+9999MW1021REMSYN082AAXX  18151 15562 41498 81403 10126 20086 40212 57002 70222 885// 555 92012 92418;
0234155620999992000111818004+43360+028470FM-12+006499999V0201801N003010042019N0200001N1+01221+00811102111ADDAA199000091AY121061AY221061GF108991081051004501999999KA1120M+01401MD1710111+9999MW1021UA1M999999019REMSYN104AAXX  18181 15562 31498 81803 10122 20081 40211 57011 70222 885// 222// 2//00 333 10140 555 92012 92418;EQDQ01  00002PRCP99
0156155620999992000111821004+43360+028470FM-12+006499999V0203601N003010042019N0200001N1+01221+00841102141ADDAY121031AY221031GF108991081051004501999999MD1310031+9999MW1021REMSYN082AAXX  18211 15562 41498 83603 10122 20084 40214 53003 70222 885// 555 92012 92418;
0211155620999992000111900004+43360+028470FM-12+006499999V0201401N002010042019N0200001N1+01201+00801102081ADDAA199000091AY121061AY221061GF108991081051004501999999MD1810061+9999MW1021UA1M999999019REMSYN094AAXX  19001 15562 31498 81402 10120 20080 40208 58006 70222 885// 222// 2//00 555 92012 92418;EQDQ01  00002PRCP99
0168155620999992000111903004+43360+028470FM-12+006499999V0201401N002010042019N0200001N1+01221+00811102111ADDAY121031AY221031GF108991081051004501999999MD1310031+9999MW1021REMSYN094AAXX  19031 15562 41498 81402 10122 20081 40211 53003 70222 885// 555 10125 29079 92011 92418;
0272155620999992000111906004+43360+028470FM-12+006499999V0201401N002010042019N0200001N1+01201+00881102111ADDAA199000091AY121061AY221061GF107991071051004501001001GJ101749IA1019IA2999+00909KA1120N+01151MD1410001+9999MW1021UA1M999999019REMSYN116AAXX  19061 15562 31498 71402 10120 20088 40211 54000 70222 87500 222// 2//00 333 20115 55029 555 30009 92011 92418;EQDQ01  00002PRCP99
0156155620999992000111909004+43360+028470FM-12+006499999V0209999C000010042019N0200001N1+01321+00951102081ADDAY121031AY221031GF107991071051004501001001MD1810031+9999MW1021REMSYN082AAXX  19091 15562 41498 70000 10132 20095 40208 58003 70222 87500 555 92011 92418;
0211155620999992000111912004+43360+028470FM-12+006499999V0201801N002010042019N0200001N1+01301+00971102001ADDAA199000091AY121061AY221061GF107991071051004501001001MD1710081+9999MW1021UA1M999999019REMSYN094AAXX  19121 15562 31498 71802 10130 20097 40200 57008 70222 87500 222// 2//00 555 92011 92418;EQDQ01  00002PRCP99
0156155620999992000111915004+43360+028470FM-12+006499999V0201401N003010042019N0200001N1+01241+00971101901ADDAY121031AY221031GF108991061061004501021999MD1710101+9999MW1021REMSYN082AAXX  19151 15562 41498 81403 10124 20097 40190 57010 70222 8662/ 555 92012 92418;
0234155620999992000111918004+43360+028470FM-12+006499999V0201401N002010042019N0200001N1+01261+00991101891ADDAA199000091AY121061AY221061GF108991081051004501999999KA1120M+01421MD1710011+9999MW1021UA1M999999019REMSYN104AAXX  19181 15562 31498 81402 10126 20099 40189 57001 70222 885// 222// 2//00 333 10142 555 92012 92418;EQDQ01  00002PRCP99
0156155620999992000111921004+43360+028470FM-12+006499999V0201801N003010042019N0200001N1+01261+01021101871ADDAY121031AY221031GF108991081051004501999999MD1710021+9999MW1021REMSYN082AAXX  19211 15562 41498 81803 10126 20102 40187 57002 70222 885// 555 92012 92418;
0211155620999992000112000004+43360+028470FM-12+006499999V0201801N003010042019N0200001N1+01251+01001101841ADDAA199000091AY121061AY221061GF108991081051004501999999MD1710031+9999MW1021UA1M999999019REMSYN094AAXX  20001 15562 31498 81803 10125 20100 40184 57003 70222 885// 222// 2//00 555 92012 92418;EQDQ01  00002PRCP99
0235155620999992000112006004+43360+028470FM-12+006499999V0201801N003019999999N0040001N1+99999+99999999999ADDAA199000091GF106991999999004501999999GJ101089IA1019IA2999+01009KA1120N+01221UA1M990009019REMSYN115AAXX  20061 15562 31496 61803 1012 20103 40178 58006 71022 83532 222// 2//00 333 20122 55018 555 30010 92012 92416;EQDQ01  00002PRCP99
0156155620999992000112009004+43360+028470FM-12+006499999V0202301N006010360019N0100001N1+01361+01061101781ADDAY121031AY221031GF106991031051004501031001MD1410001+9999MW1021REMSYN082AAXX  20091 15562 41497 62306 10136 20106 40178 54000 70222 83530 555 92024 92427;
0211155620999992000112012004+43360+028470FM-12+006499999V0202301N004010360019N0040001N1+01441+01141101631ADDAA199000091AY121061AY221061GF106991031051004501031021MD1810041+9999MW1101UA1M990059029REMSYN094AAXX  20121 15562 31496 62304 10144 20114 40163 58004 71022 83532 222// 2//01 555 92024 92426;EQDQ01  00002PRCP99
0156155620999992000112015004+43360+028470FM-12+006499999V0201801N006010360019N0040001N1+01341+01151101611ADDAY121031AY221031GF107991031051004501031001MD1710031+9999MW1101REMSYN082AAXX  20151 15562 41496 71806 10134 20115 40161 57003 71022 83530 555 92024 92426;
0234155620999992000112018004+43360+028470FM-12+006499999V0202301N005012200019N0040001N1+01361+01221101571ADDAA199000091AY111061AY211061GF103991031051004501001001KA1120M+01551MD1710041+9999MW1101UA1M990059029REMSYN104AAXX  20181 15562 31496 32305 10136 20122 40157 57004 71011 83500 222// 2//01 333 10155 555 92024 92426;EQDQ01  00002PRCP99
0156155620999992000112021004+43360+028470FM-12+006499999V0202701N005010042019N0040001N1+01361+01251101591ADDAY111031AY211031GF108991081051004501999999MD1310021+9999MW1101REMSYN082AAXX  20211 15562 41496 82705 10136 20125 40159 53002 71011 885// 555 92023 92426;
0221155620999992000112100004+43360+028470FM-12+006499999V0202301N004012200019N0100001N1+01321+01201101581ADDAA199000091AY111061AY211061GA1001+999999999GF100991001001999999001001MD1810011+9999MW1011UA1M990109029REMSYN088AAXX  21001 15562 31997 02304 10132 20120 40158 58001 70111 222// 2//02 555 92023 92427;EQDQ01  00002PRCP99
0204155620999992000112103004+43360+028470FM-12+006499999V0203201N004012200019N0100001N1+00961+00761101621ADDAY101031AY201031GA1001+999999999GF100991001001999999001001KA1999M+01371MD1310031+9999MW1021UA1M999999029REMSYN088AAXX  21031 15562 41997 03204 10096 20076 40162 53003 70200 555 10137 29086 92023 92427;
0282155620999992000112106004+43360+028470FM-12+006499999V0203201N004010003019N0002001N1+00701+00611101731ADDAA199000091AY141061AY221061GA1091+999999999GF109991091999999999999999GJ102169IA1019IA2999+00609KA1120N+00641MD1210111+9999MW1471UA1M990059029REMSYN110AAXX  21061 15562 31/92 93204 10070 20061 40173 52011 74742 222// 2//01 333 20064 55036 555 30006 92023 92422;EQDQ01  00002PRCP99
0156155620999992000112109004+43360+028470FM-12+006499999V0203601N002010042019N0040001N1+00841+00711101801ADDAY141031AY221031GF108991081061004501999999MD1210071+9999MW1101REMSYN082AAXX  21091 15562 41496 83602 10084 20071 40180 52007 71042 886// 555 92013 92418;
0211155620999992000112112004+43360+028470FM-12+006499999V0209999C000010042019N0040001N1+00871+00731101761ADDAA199000091AY141061AY221061GF108991081061004501999999MD1810041+9999MW1101UA1M990009019REMSYN094AAXX  21121 15562 31496 80000 10087 20073 40176 58004 71042 886// 222// 2//00 555 92012 92416;EQDQ01  00002PRCP99
0156155620999992000112115004+43360+028470FM-12+006499999V0209999C000010042019N0040001N1+00921+00761101791ADDAY121031AY221031GF108991081061004501999999MD1310031+9999MW1101REMSYN082AAXX  21151 15562 41496 80000 10092 20076 40179 53003 71022 886// 555 92000 92406;
0234155620999992000112118004+43360+028470FM-12+006499999V0209999C000010042019N0040001N1+00821+00711101831ADDAA199000091AY121061AY221061GF108991081061004501999999KA1120M+00941MD1210041+9999MW1101UA1M990009009REMSYN104AAXX  21181 15562 31496 80000 10082 20071 40183 52004 71022 886// 222// 2//00 333 10094 555 92000 92406;EQDQ01  00002PRCP99
0185155620999992000112121004+43360+028470FM-12+006499999V0203201N004010003019N0002001N1+00821+00781101921ADDAY141031AY221031GA1091+999999999GF109991091999999999999999MD1210091+9999MW1471UA1M999999019REMSYN082AAXX  21211 15562 41/92 93204 10082 20078 40192 52009 74742 89/// 555 92013 92412;
0221155620999992000112200004+43360+028470FM-12+006499999V0203601N002010003019N0002001N1+00681+00591101821ADDAA199000091AY141061AY221061GA1091+999999999GF109991091999999999999999MD1410001+9999MW1441UA1M990009019REMSYN088AAXX  22001 15562 31/92 93602 10068 20059 40182 54000 74442 222// 2//00 555 92013 92412;EQDQ01  00002PRCP99
0204155620999992000112203004+43360+028470FM-12+006499999V0203601N002010003019N0002001N1+00621+00611101931ADDAY141031AY241031GA1091+999999999GF109991091999999999999999KA1999M+00801MD1310011+9999MW1441UA1M999999019REMSYN088AAXX  22031 15562 41/92 93602 10062 20061 40193 53001 74444 555 10080 29090 92012 92412;
0274155620999992000112206004+43360+028470FM-12+006499999V0203601N002010003019N0002001N1+00681+00591102011ADDAA199000091AY141061AY241061GA1091+999999999GF109991091999999999999999IA1019IA2999+00609KA1120N+00601MD1310081+9999MW1441UA1M999999019REMSYN110AAXX  22061 15562 31/92 93602 10068 20059 40201 53008 74444 222// 2//00 333 20060 55500 555 30006 92012 92412;EQDQ01  00002PRCP99
0156155620999992000112209004+43360+028470FM-12+006499999V0203601N002010042019N0020001N1+00821+00651102151ADDAY141031AY221031GF108991081061004501999999MD1210141+9999MW1101REMSYN082AAXX  22091 15562 41495 83602 10082 20065 40215 52014 71042 886// 555 92012 92415;
0211155620999992000112212004+43360+028470FM-12+006499999V0209999C000010042019N0040001N1+00921+00801102071ADDAA199000091AY141061AY221061GF108991081061004501999999MD1810081+9999MW1101UA1M990009009REMSYN094AAXX  22121 15562 31496 80000 10092 20080 40207 58008 71042 886// 222// 2//00 555 92001 92406;EQDQ01  00002PRCP99
0156155620999992000112215004+43360+028470FM-12+006499999V0203601N004010042019N0040001N1+00901+00681102161ADDAY121031AY221031GF108991081061004501999999MD1310091+9999MW1101REMSYN082AAXX  22151 15562 41496 83604 10090 20068 40216 53009 71022 886// 555 92013 92416;
0234155620999992000112218004+43360+028470FM-12+006499999V0203601N003010042019N0040001N1+00981+00681102321ADDAA199000091AY121061AY221061GF108991081061004501999999KA1120M+01081MD1210161+9999MW1101UA1M990009019REMSYN104AAXX  22181 15562 31496 83603 10098 20068 40232 52016 71022 886// 222// 2//00 333 10108 555 92013 92416;EQDQ01  00002PRCP99
0156155620999992000112221004+43360+028470FM-12+006499999V0203601N004010042019N0040001N1+00881+00581102361ADDAY121031AY221031GF108991081061004501999999MD1210041+9999MW1101REMSYN082AAXX  22211 15562 41496 83604 10088 20058 40236 52004 71022 886// 555 92013 92416;
0211155620999992000112300004+43360+028470FM-12+006499999V0203601N005010042019N0040001N1+00821+00561102311ADDAA199000091AY121061AY221061GF108991081061004501999999MD1810051+9999MW1101UA1M990059029REMSYN094AAXX  23001 15562 31496 83605 10082 20056 40231 58005 71022 886// 222// 2//01 555 92023 92426;EQDQ01  00002PRCP99
0168155620999992000112303004+43360+028470FM-12+006499999V0203601N006010042019N0100001N1+00861+00591102311ADDAY121031AY221031GF108991081051004501999999MD1410001+9999MW1021REMSYN094AAXX  23031 15562 41497 83606 10086 20059 40231 54000 70222 885// 555 10085 29091 92034 92437;
0272155620999992000112306004+43360+028470FM-12+006499999V0203201N007010042019N0040001N1+00821+00651102351ADDAA199000091AY121061AY221061GF107991071051004501001001GJ100009IA1019IA2999+00709KA1120N+00781MD1310041+9999MW1101UA1M990109039REMSYN116AAXX  23061 15562 31496 73207 10082 20065 40235 53004 71022 87500 222// 2//02 333 20078 55000 555 30007 92034 92436;EQDQ01  00002PRCP99
0156155620999992000112309004+43360+028470FM-12+006499999V0203601N007010042019N0020001N1+00941+00761102381ADDAY121031AY221031GF107991071051004501001001MD1210031+9999MW1101REMSYN082AAXX  23091 15562 41495 73607 10094 20076 40238 52003 71022 87500 555 92034 92435;
0211155620999992000112312004+43360+028470FM-12+006499999V0203601N007010042019N0040001N1+01121+00801102321ADDAA199000091AY121061AY221061GF107991071051004501001001MD1810051+9999MW1101UA1M990109039REMSYN094AAXX  23121 15562 31496 73607 10112 20080 40232 58005 71022 87500 222// 2//02 555 92034 92436;EQDQ01  00002PRCP99
0156155620999992000112315004+43360+028470FM-12+006499999V0203601N004010042019N0100001N1+01121+00801102281ADDAY121031AY221031GF108991081051004501999999MD1710041+9999MW1021REMSYN082AAXX  23151 15562 41497 83604 10112 20080 40228 57004 70222 885// 555 92024 92427;
0234155620999992000112318004+43360+028470FM-12+006499999V0203601N007010042019N0100001N1+01081+00651102341ADDAA199000091AY121061AY221061GF108991081051004501999999KA1120M+01161MD1310061+9999MW1021UA1M999999039REMSYN104AAXX  23181 15562 31497 83607 10108 20065 40234 53006 70222 885// 222// 2//02 333 10116 555 92034 92437;EQDQ01  00002PRCP99
0156155620999992000112321004+43360+028470FM-12+006499999V0203601N005010042019N0100001N1+01061+00641102401ADDAY121031AY221031GF108991081051004501999999MD1210061+9999MW1021REMSYN082AAXX  23211 15562 41497 83605 10106 20064 40240 52006 70222 885// 555 92024 92427;
0211155620999992000112400004+43360+028470FM-12+006499999V0200501N004010042019N0100001N1+01121+00801102361ADDAA199000091AY121061AY221061GF108991081051004501999999MD1810041+9999MW1021UA1M999999029REMSYN094AAXX  24001 15562 31497 80504 10112 20080 40236 58004 70222 885// 222// 2//01 555 92023 92427;EQDQ01  00002PRCP99
0168155620999992000112403004+43360+028470FM-12+006499999V0200901N004010042019N0200001N1+01161+00841102381ADDAY121031AY221031GF108991081051004501999999MD1710021+9999MW1021REMSYN094AAXX  24031 15562 41498 80904 10116 20084 40238 57002 70222 885// 555 10102 29080 92023 92428;
0272155620999992000112406004+43360+028470FM-12+006499999V0200901N002010042019N0200001N1+01161+00801102341ADDAA199000091AY121061AY221061GF108991081051004501999999GJ100009IA1019IA2999+00909KA1120N+01051MD1810041+9999MW1021UA1M999999019REMSYN116AAXX  24061 15562 31498 80902 10116 20080 40234 58004 70222 885// 222// 2//00 333 20105 55000 555 30009 92013 92418;EQDQ01  00002PRCP99
0156155620999992000112409004+43360+028470FM-12+006499999V0201401N003010042019N0200001N1+01221+00841102341ADDAY121031AY221031GF107991071051004501001001MD1410001+9999MW1021REMSYN082AAXX  24091 15562 41498 71403 10122 20084 40234 54000 70222 87500 555 92012 92418;
0211155620999992000112412004+43360+028470FM-12+006499999V0203601N005010042019N0200001N1+01201+00801102191ADDAA199000091AY121061AY221061GF108991081051004501999999MD1810151+9999MW1021UA1M999999019REMSYN094AAXX  24121 15562 31498 83605 10120 20080 40219 58015 70222 885// 222// 2//00 555 92013 92418;EQDQ01  00002PRCP99
0156155620999992000112415004+43360+028470FM-12+006499999V0203601N005010042019N0200001N1+01201+00761102181ADDAY121031AY221031GF108991081051004501999999MD1710011+9999MW1021REMSYN082AAXX  24151 15562 41498 83605 10120 20076 40218 57001 70222 885// 555 92013 92418;
0234155620999992000112418004+43360+028470FM-12+006499999V0203201N006010042019N0200001N1+01201+00761102181ADDAA199000091AY121061AY221061GF108991081051004501999999KA1120M+01321MD1410001+9999MW1021UA1M999999019REMSYN104AAXX  24181 15562 31498 83206 10120 20076 40218 54000 70222 885// 222// 2//00 333 10132 555 92013 92418;EQDQ01  00002PRCP99
0156155620999992000112421004+43360+028470FM-12+006499999V0203201N005010042019N0200001N1+01161+00651102141ADDAY121031AY221031GF108991081051004501999999MD1810041+9999MW1021REMSYN082AAXX  24211 15562 41498 83205 10116 20065 40214 58004 70222 885// 555 92013 92418;
0211155620999992000112500004+43360+028470FM-12+006499999V0203601N004010042019N0200001N1+01151+00681102141ADDAA199000091AY121061AY221061GF108991081051004501999999MD1410001+9999MW1021UA1M999999019REMSYN094AAXX  25001 15562 31498 83604 10115 20068 40214 54000 70222 885// 222// 2//00 555 92013 92418;EQDQ01  00002PRCP99
0168155620999992000112503004+43360+028470FM-12+006499999V0201401N006010042019N0200001N1+01221+00861102101ADDAY121031AY221031GF108991081051004501999999MD1810041+9999MW1021REMSYN094AAXX  25031 15562 41498 81406 10122 20086 40210 58004 70222 885// 555 10120 29075 92024 92428;
0272155620999992000112506004+43360+028470FM-12+006499999V0201401N005012200019N0200001N1+01201+00881102051ADDAA199000091AY111061AY211061GF103991031051004501001001GJ100129IA1019IA2999+00909KA1120N+01081MD1710051+9999MW1011UA1M990009019REMSYN116AAXX  25061 15562 31498 31405 10120 20088 40205 57005 70111 83500 222// 2//00 333 20108 55002 555 30009 92014 92418;EQDQ01  00002PRCP99
0156155620999992000112509004+43360+028470FM-12+006499999V0201401N005010900019N0200001N1+01321+00891102101ADDAY111031AY211031GF106991021051004501001021MD1310071+9999MW1031REMSYN082AAXX  25091 15562 41498 61405 10132 20089 40210 53007 70311 82502 555 92033 92438;
0211155620999992000112512004+43360+028470FM-12+006499999V0201801N007010900019N0200001N1+01281+00931102001ADDAA199000091AY111061AY211061GF106991021051004501001051MD1810101+9999MW1021UA1M990109039REMSYN094AAXX  25121 15562 31498 61807 10128 20093 40200 58010 70211 82505 222// 2//02 555 92034 92438;EQDQ01  00002PRCP99
0156155620999992000112515004+43360+028470FM-12+006499999V0201601N009010042019N0100001N1+01241+00891101971ADDAY121031AY221031GF106991051051004501001061MD1710031+9999MW1021REMSYN082AAXX  25151 15562 41497 61609 10124 20089 40197 57003 70222 85506 555 92035 92437;
0234155620999992000112518004+43360+028470FM-12+006499999V0201801N007010042019N0100001N1+01241+00971101941ADDAA199000091AY121061AY221061GF105991051051004501001001KA1120M+01401MD1710031+9999MW1021UA1M999999039REMSYN104AAXX  25181 15562 31497 51807 10124 20097 40194 57003 70222 85500 222// 2//02 333 10140 555 92034 92437;EQDQ01  00002PRCP99
0156155620999992000112521004+43360+028470FM-12+006499999V0201401N004010042019N0100001N1+01281+01171101901ADDAY121031AY221031GF106991061051004501001001MD1710041+9999MW1021REMSYN082AAXX  25211 15562 41497 61404 10128 20117 40190 57004 70222 86500 555 92024 92427;
0221155620999992000112600004+43360+028470FM-12+006499999V0201801N005012200019N0100001N1+01241+01051101821ADDAA199000091AY111061AY211061GA1001+999999999GF100991001001999999001001MD1710081+9999MW1011UA1M990059029REMSYN088AAXX  26001 15562 31997 01805 10124 20105 40182 57008 70111 222// 2//01 555 92023 92427;EQDQ01  00002PRCP99
0204155620999992000112603004+43360+028470FM-12+006499999V0201801N003012200019N0100001N1+01281+01171101751ADDAY101031AY201031GA1001+999999999GF100991001001999999001001KA1999M+01251MD1710071+9999MW1021UA1M999999029REMSYN088AAXX  26031 15562 41997 01803 10128 20117 40175 57007 70200 555 10125 29083 92023 92427;
0272155620999992000112606004+43360+028470FM-12+006499999V0201401N003010042019N0040001N1+01321+01131101711ADDAA199000091AY111061AY211061GF108991081051004501999999GJ103909IA1019IA2999+00909KA1120N+01201MD1710041+9999MW1101UA1M990059029REMSYN116AAXX  26061 15562 31496 81403 10132 20113 40171 57004 71011 885// 222// 2//01 333 20120 55065 555 30009 92022 92426;EQDQ01  00002PRCP99
0162155620999992000112609004+43360+028470FM-12+006499999V0200901N004010042019N0040001N1+01321+01181101631ADDAY161031AY211031GF108991081051004501999999MD1710081+9999MW1211REMSYN088AAXX  26091 15562 41496 80904 10132 20118 40163 57008 72161 885// 555 92023 92426 96010;
0198155620999992000112612004+43360+028470FM-12+006499999V0201401N005010042019N0100001N1+01401+01101101381ADDAA106000891AY161061AY221061GF108991081051004501999999MD1710241+9999MW1021UA1M990059029REMSYN100AAXX  26121 15562 11497 81405 10140 20110 40138 57024 69971 70262 885// 222// 2//01 555 92024 92427;
0156155620999992000112615004+43360+028470FM-12+006499999V0201401N008010042019N0100001N1+01381+00991101231ADDAY121031AY221031GF108991081051004501999999MD1710151+9999MW1021REMSYN082AAXX  26151 15562 41497 81408 10138 20099 40123 57015 70222 885// 555 92035 92437;
0221155620999992000112618004+43360+028470FM-12+006499999V0201401N004010042019N0100001N1+01331+01241101231ADDAA112001091AY161061AY221061GF108991081051004501999999KA1120M+01431MD1410001+9999MW1211UA1M990109039REMSYN110AAXX  26181 15562 11497 81404 10133 20124 40123 54000 60012 72162 885// 222// 2//02 333 10143 555 92035 92437;
0156155620999992000112621004+43360+028470FM-12+006499999V0201401N008010042019N0100001N1+01361+01131101111ADDAY161031AY221031GF108991081001004501021999MD1810121+9999MW1611REMSYN082AAXX  26211 15562 41497 81408 10136 20113 40111 58012 76162 8802/ 555 92035 92438;
0198155620999992000112700004+43360+028470FM-12+006499999V0201401N008010042019N0200001N1+01341+01141100941ADDAA106000191AY161061AY221061GF108991081051004501999999MD1710171+9999MW1021UA1M990109039REMSYN100AAXX  27001 15562 11498 81408 10134 20114 40094 57017 69921 70262 885// 222// 2//02 555 92035 92438;
0221155620999992000112703004+43360+028470FM-12+006499999V0201801N006012200019N0200001N1+01301+01191100901ADDAA124001091AY111031AY211031GA1001+999999999GF100991001001999999001001KA1999M+01341MD1710041+9999MW1011UA1M999999039REMSYN094AAXX  27031 15562 41998 01806 10130 20119 40090 57004 70111 555 10134 29086 60014 92035 92438;
0259155620999992000112706004+43360+028470FM-12+006499999V0201801N004010042019N0200001N1+01301+01191100851ADDAA106000191AY111061AY211061GF106991061051004501001001GJ100009IA1099IA2999+00909KA1120N+01261MD1710051+9999MW1031UA1M990109039REMSYN122AAXX  27061 15562 11498 61804 10130 20119 40085 57005 69921 70311 86500 222// 2//02 333 20126 55000 555 31009 92034 92438;
0156155620999992000112709004+43360+028470FM-12+006499999V0201801N003010042019N0200001N1+01341+01231100871ADDAY121031AY221031GF107991071051004501001001MD1310021+9999MW1021REMSYN082AAXX  27091 15562 41498 71803 10134 20123 40087 53002 70222 87500 555 92023 92428;
0198155620999992000112712004+43360+028470FM-12+006499999V0201801N003010042019N0200001N1+01261+01151100691ADDAA106001091AY161061AY221061GF108991081001004501021999MD1810171+9999MW1611UA1M990059029REMSYN100AAXX  27121 15562 11498 81803 10126 20115 40069 58017 60011 76162 8802/ 222// 2//01 555 92022 92428;
0162155620999992000112715004+43360+028470FM-12+006499999V0200901N004010042019N0040001N1+01231+01131100671ADDAY161031AY261031GF108991081001004501021999MD1710021+9999MW1611REMSYN088AAXX  27151 15562 41496 80904 10123 20113 40067 57002 76166 8802/ 555 92023 92426 96010;
0221155620999992000112718004+43360+028470FM-12+006499999V0200501N002010042019N0100001N1+01201+01121100701ADDAA112007991AY161061AY221061GF108991081051004501999999KA1120M+01401MD1310021+9999MW1211UA1M990059029REMSYN110AAXX  27181 15562 11497 80502 10120 20112 40070 53002 60082 72162 885// 222// 2//01 333 10140 555 92023 92427;
0156155620999992000112721004+43360+028470FM-12+006499999V0203601N007010042019N0100001N1+00761+00671100721ADDAY161031AY221031GF108991081051004501999999MD1210011+9999MW1211REMSYN082AAXX  27211 15562 41497 83607 10076 20067 40072 52001 72162 885// 555 92034 92437;
0198155620999992000112800004+43360+028470FM-12+006499999V0203601N005010042019N0200001N1+00601+00511100821ADDAA106004191AY161061AY221061GF108991081051004501999999MD1210091+9999MW1021UA1M990109039REMSYN100AAXX  28001 15562 11498 83605 10060 20051 40082 52009 60041 70262 885// 222// 2//02 555 92035 92438;
0174155620999992000112803004+43360+028470FM-12+006499999V0203601N012010042019N0100001N1+00621+00531100891ADDAY121031AY221031GF108991081051004501999999MD1210071+9999MW1021REMSYN100AAXX  28031 15562 41497 83612 10062 20053 40089 52007 70222 885// 555 10123 29094 60124 92046 92447;
0259155620999992000112806004+43360+028470FM-12+006499999V0203601N012010042019N0040001N1+00401+00301100991ADDAA112004191AY121061AY221061GF108991081061004501999999GJ100009IA1099IA2999+00409KA1120N+00361MD1210101+9999MW1101UA1M990159049REMSYN122AAXX  28061 15562 11496 83612 10040 20030 40099 52010 60042 71022 886// 222// 2//03 333 20036 55000 555 31004 92046 92446;
0213155620999992000112809004+43360+028470FM-12+006499999V0203601N018010042019N0020001N1+00301+00151101261ADDAY121031AY221031GF108991081061004501999999MD1210261+9999MW1101OA149902001OA259901801UA1M999999049REMSYN104AAXX  28091 15562 41495 83618 10030 20015 40126 52026 71022 886// 333 91120 91218 91536 555 92048 92445;
0267155620999992000112812004+43360+028470FM-12+006499999V0203601N018019999999N0040001N1+00301+00151101241ADDAA106001091AY161061AY221061GF105991999001004501021999MD1210081+9999MW1611OA149902001OA259901801UA1M990159049REMSYN128AAXX  28121 15562 11496 53618 10030 20015 40124 52008 60011 76162 8802/ 222// 2//03 333 91120 91218 91536 555 92048 92446 96010;EQDQ01+000082SCOTLC
0219155620999992000112815004+43360+028470FM-12+006499999V0203601N018010042019N0040001N1+00241+00131101541ADDAY161031AY261031GF108991081001004501021999MD1210201+9999MW1611OA149902001OA259901801UA1M999999049REMSYN110AAXX  28151 15562 41496 83618 10024 20013 40154 52020 76166 8802/ 333 91120 91218 91536 555 92048 92446 96010;
0273155620999992000112818004+43360+028470FM-12+006499999V0203601N018010042019N0040001N1+00201+00091101751ADDAA112009991AY161061AY261061GF108991081001004501021999KA1120M+00421MD1210211+9999MW1611OA149902001OA259901801UA1M990159049REMSYN140AAXX  28181 15562 11496 83618 10020 20009 40175 52021 60102 76166 8802/ 222// 2//03 333 10042 91120 91218 91536 555 92048 92446 96010 93010;
0219155620999992000112821004+43360+028470FM-12+006499999V0203601N006010042019N0040001N1+00201+00091101951ADDAY161031AY261031GF108991081001004501021999MD1210191+9999MW1611OA149902001OA259901801UA1M999999049REMSYN110AAXX  28211 15562 41496 83606 10020 20009 40195 52019 76166 8802/ 333 91120 91218 91536 555 92048 92446 96010;
0242155620999992000112900004+43360+028470FM-12+006499999V0203601N008010042019N0040001N1+00201+00041101991ADDAA106001091AY161061AY221061GF108991081061004501999999MD1210041+9999MW1101OA149902001OA259901801UA1M990109039REMSYN122AAXX  29001 15562 11496 83608 10020 20004 40199 52004 60011 71062 886// 222// 2//02 333 91120 91218 91536 555 92035 92436;
0174155620999992000112903004+43360+028470FM-12+006499999V0203601N005010042019N0100001N1+00201-00021102141ADDAY121031AY221031GF108991081051004501999999MD1210151+9999MW1021REMSYN100AAXX  29031 15562 41497 83605 10020 21002 40214 52015 70222 885// 555 10028 29091 60114 92035 92437;
0259155620999992000112906004+43360+028470FM-12+006499999V0203601N006010042019N0040001N1+00161+00001102211ADDAA112001091AY121061AY221061GF108991081061004501999999GJ100009IA1099IA2999+00009KA1120N+00141MD1210071+9999MW1101UA1M990109039REMSYN122AAXX  29061 15562 11496 83606 10016 20000 40221 52007 60012 71022 886// 222// 2//02 333 20014 55000 555 31000 92034 92436;
0156155620999992000112909004+43360+028470FM-12+006499999V0203601N010010042019N0100001N1+00281-00071102311ADDAY121031AY221031GF108991081051004501999999MD1210101+9999MW1021REMSYN082AAXX  29091 15562 41497 83610 10028 21007 40231 52010 70222 885// 555 92035 92437;
0211155620999992000112912004+43360+028470FM-12+006499999V0203601N009010042019N0100001N1+00381+00021102301ADDAA199000091AY121061AY221061GF108991081051004501999999MD1810011+9999MW1021UA1M999999039REMSYN094AAXX  29121 15562 31497 83609 10038 20002 40230 58001 70222 885// 222// 2//02 555 92036 92437;EQDQ01  00002PRCP99
0156155620999992000112915004+43360+028470FM-12+006499999V0203601N007010042019N0100001N1+00341+00091102391ADDAY121031AY221031GF108991081051004501999999MD1310101+9999MW1021REMSYN082AAXX  29151 15562 41497 83607 10034 20009 40239 53010 70222 885// 555 92034 92437;
0234155620999992000112918004+43360+028470FM-12+006499999V0203401N007010042019N0100001N1+00321+00111102491ADDAA199000091AY121061AY221061GF108991081051004501999999KA1120M+00421MD1210101+9999MW1021UA1M999999039REMSYN104AAXX  29181 15562 31497 83407 10032 20011 40249 52010 70222 885// 222// 2//02 333 10042 555 92034 92437;EQDQ01  00002PRCP99
0156155620999992000112921004+43360+028470FM-12+006499999V0203401N006010042019N0100001N1+00301+00091102551ADDAY121031AY221031GF108991081051004501999999MD1210061+9999MW1021REMSYN082AAXX  29211 15562 41497 83406 10030 20009 40255 52006 70222 885// 555 92034 92437;
0211155620999992000113000004+43360+028470FM-12+006499999V0203601N005010042019N0100001N1+00281+00051102571ADDAA199000091AY121061AY221061GF108991081051004501999999MD1210021+9999MW1021UA1M999999039REMSYN094AAXX  30001 15562 31497 83605 10028 20005 40257 52002 70222 885// 222// 2//01 555 92034 92437;EQDQ01  00002PRCP99
0168155620999992000113003004+43360+028470FM-12+006499999V0203201N003010042019N0100001N1+00301+00151102531ADDAY121031AY221031GF108991081051004501999999MD1810041+9999MW1021REMSYN094AAXX  30031 15562 41497 83203 10030 20015 40253 58004 70222 885// 555 10030 29083 92023 92427;
0272155620999992000113006004+43360+028470FM-12+006499999V0203601N003010042019N0020001N1+00321+00231102611ADDAA199000091AY121061AY221061GF108991081061004501999999GJ100009IA1099IA2999+00209KA1120N+00261MD1310081+9999MW1101UA1M990059029REMSYN116AAXX  30061 15562 31495 83603 10032 20023 40261 53008 71022 886// 222// 2//01 333 20026 55000 555 31002 92022 92425;EQDQ01  00002PRCP99
0156155620999992000113009004+43360+028470FM-12+006499999V0203601N005010042019N0040001N1+00401+00151102711ADDAY121031AY221031GF108991081061004501999999MD1210101+9999MW1101REMSYN082AAXX  30091 15562 41496 83605 10040 20015 40271 52010 71022 886// 555 92023 92426;
0211155620999992000113012004+43360+028470FM-12+006499999V0203601N003010042019N0040001N1+00431+00211102641ADDAA199000091AY121061AY221061GF108991081061004501999999MD1810071+9999MW1101UA1M990059029REMSYN094AAXX  30121 15562 31496 83603 10043 20021 40264 58007 71022 886// 222// 2//01 555 92023 92426;EQDQ01  00002PRCP99
0156155620999992000113015004+43360+028470FM-12+006499999V0203601N003010042019N0040001N1+00421+00231102661ADDAY121031AY221031GF108991081061004501999999MD1310021+9999MW1101REMSYN082AAXX  30151 15562 41496 83603 10042 20023 40266 53002 71022 886// 555 92022 92426;
0234155620999992000113018004+43360+028470FM-12+006499999V0203601N003010042019N0040001N1+00371+00191102721ADDAA199000091AY121061AY221061GF108991081061004501999999KA1120M+00501MD1210061+9999MW1101UA1M990009019REMSYN104AAXX  30181 15562 31496 83603 10037 20019 40272 52006 71022 886// 222// 2//00 333 10050 555 92012 92416;EQDQ01  00002PRCP99
0156155620999992000113021004+43360+028470FM-12+006499999V0203601N002010042019N0040001N1+00361+00271102771ADDAY121031AY221031GF108991081061004501999999MD1210051+9999MW1101REMSYN082AAXX  30211 15562 41496 83602 10036 20027 40277 52005 71022 886// 555 92012 92416;
0211155620999992000120100004+43360+028470FM-12+006499999V0203201N002010042019N0040001N1+00461+00361102801ADDAA199000091AY121061AY221061GF108991081061004501999999MD1210021+9999MW1101UA1M990009019REMSYN094AAXX  01001 15562 31496 83202 10046 20036 40280 52002 71022 886// 222// 2//00 555 92012 92416;EQDQ01  00002PRCP99
0168155620999992000120103004+43360+028470FM-12+006499999V0202901N003010042019N0040001N1+00501+00411102791ADDAY121031AY221031GF108991081061004501999999MD1810011+9999MW1101REMSYN094AAXX  01031 15562 41496 82903 10050 20041 40279 58001 71022 886// 555 10038 29087 92022 92/26;
0272155620999992000120106004+43360+028470FM-12+006499999V0202301N003010042019N0040001N1+00621+00381102831ADDAA199000091AY121061AY221061GF108991081061004501999999GJ100009IA1099IA2999+00309KA1120N+00301MD1310051+9999MW1101UA1M990009019REMSYN116AAXX  01061 15562 31496 82303 10062 20038 40283 53005 71022 886// 222// 2//00 333 20030 55000 555 31003 92012 92416;EQDQ01  00002PRCP99
0156155620999992000120109004+43360+028470FM-12+006499999V0202301N005010042019N0040001N1+00801+00581102811ADDAY121031AY221031GF108991081061004501999999MD1810021+9999MW1101REMSYN082AAXX  01091 15562 41496 82305 10080 20058 40281 58002 71022 886// 555 92014 92416;
0205155620999992000120112004+43360+028470FM-12+006499999V0202701N007010042019N0040001N1+00761+00551102611ADDAA199000091AY121061AY221061GF108991081061004501999999MD1710201+9999MW1101UA1M999999029REMSYN088AAXX  01121 15562 31496 82707 10076 20055 40261 57020 71022 886// 222// 555 92024 92428;EQDQ01  00002PRCP99
0156155620999992000120115004+43360+028470FM-12+006499999V0202301N004010042019N0100001N1+00801+00581102651ADDAY121031AY221031GF108991081051004501999999MD1310041+9999MW1021REMSYN082AAXX  01151 15562 41497 82304 10080 20058 40265 53004 70222 885// 555 92024 92427;
0234155620999992000120118004+43360+028470FM-12+006499999V0202001N006010042019N0100001N1+00841+00581102621ADDAA199000091AY121061AY221061GF108991081051004501999999KA1120M+00881MD1810031+9999MW1021UA1M999999029REMSYN104AAXX  01181 15562 31497 82006 10084 20058 40262 58003 70222 885// 222// 2//01 333 10088 555 92024 92427;EQDQ01  00002PRCP99
0156155620999992000120121004+43360+028470FM-12+006499999V0202301N008010042019N0100001N1+00781+00611102561ADDAY121031AY221031GF108991081051004501999999MD1710061+9999MW1021REMSYN082AAXX  01211 15562 41497 82308 10078 20061 40256 57006 70222 885// 555 92025 92428;
0211155620999992000120200004+43360+028470FM-12+006499999V0202301N006012200019N0100001N1+00741+00511102501ADDAA199000091AY111061AY211061GF103991031051004501001001MD1210051+9999MW1011UA1M990059029REMSYN094AAXX  02001 15562 31497 32306 10074 20051 40250 52005 70111 83500 222// 2//01 555 92025 92427;EQDQ01  00002PRCP99
0168155620999992000120203004+43360+028470FM-12+006499999V0202701N006010042019N0100001N1+00561+00421102491ADDAY111031AY211031GF108991081051004501999999MD1710101+9999MW1031REMSYN094AAXX  02031 15562 41497 82706 10056 20042 40249 57010 70311 885// 555 10074 29088 92024 92427;
0272155620999992000120206004+43360+028470FM-12+006499999V0209999C000010042019N0040001N1+00381+00291102561ADDAA199000091AY121061AY221061GF108991081061004501999999GJ100009IA1099IA2999+00309KA1120N+00321MD1310061+9999MW1101UA1M990009019REMSYN116AAXX  02061 15562 31496 80000 10038 20029 40256 53006 71022 886// 222// 2//00 333 20032 55000 555 31003 92014 92416;EQDQ01  00002PRCP99
0156155620999992000120209004+43360+028470FM-12+006499999V0202701N003010042019N0040001N1+00341+00211102551ADDAY121031AY221031GF108991081061004501999999MD1810011+9999MW1101REMSYN082AAXX  02091 15562 41496 82703 10034 20021 40255 58001 71022 886// 555 92012 92416;
0211155620999992000120212004+43360+028470FM-12+006499999V0203201N003010042019N0200001N1+00401+00251102521ADDAA199000091AY121061AY221061GF108991081061004501999999MD1710031+9999MW1021UA1M999999019REMSYN094AAXX  02121 15562 31498 83203 10040 20025 40252 57003 70222 886// 222// 2//00 555 92012 92418;EQDQ01  00002PRCP99
0156155620999992000120215004+43360+028470FM-12+006499999V0203201N002010042019N0040001N1+00361+00211102491ADDAY121031AY221031GF108991081061004501999999MD1710051+9999MW1101REMSYN082AAXX  02151 15562 41496 83202 10036 20021 40249 57005 71022 886// 555 92012 92416;
0234155620999992000120218004+43360+028470FM-12+006499999V0203201N002010042019N0010001N1+00301+00191102601ADDAA199000091AY121061AY221061GF108991081061004501999999KA1120M+00501MD1310131+9999MW1101UA1M990009019REMSYN104AAXX  02181 15562 31494 83202 10030 20019 40260 53013 71022 886// 222// 2//00 333 10050 555 92011 92414;EQDQ01  00002PRCP99
0156155620999992000120221004+43360+028470FM-12+006499999V0209999C000010042019N0010001N1+00281+00171102671ADDAY121031AY221031GF108991081061004501999999MD1210061+9999MW1101REMSYN082AAXX  02211 15562 41494 80000 10028 20017 40267 52006 71022 886// 555 92001 92404;
0211155620999992000120300004+43360+028470FM-12+006499999V0209999C000010042019N0040001N1+00341+00251102621ADDAA199000091AY121061AY221061GF108991081061004501999999MD1810041+9999MW1101UA1M990009009REMSYN094AAXX  03001 15562 31496 80000 10034 20025 40262 58004 71022 886// 222// 2//00 555 92000 92406;EQDQ01  00002PRCP99
0168155620999992000120303004+43360+028470FM-12+006499999V0209999C000010042019N0040001N1+00441+00341102621ADDAY121031AY221031GF108991081061004501999999MD1410001+9999MW1101REMSYN094AAXX  03031 15562 41496 80000 10044 20034 40262 54000 71022 886// 555 10034 29092 92000 92406;
0266155620999992000120306004+43360+028470FM-12+006499999V0203601N003019999999N0040001N1+00441+00341102621ADDAA199000091AY121061AY221061GF108991999999004501999999GJ100249IA1099IA2999+00309KA1120N+00281MD1410001+9999MW1101UA1M990009019REMSYN110AAXX  03061 15562 31496 83603 10044 20034 40262 54000 71022 222// 2//00 333 20028 55004 555 31003 92012 92416;EQDQ01  00002PRCP99
0156155620999992000120309004+43360+028470FM-12+006499999V0203601N002010042019N0040001N1+00601+00461102691ADDAY121031AY221031GF108991081061004501999999MD1310071+9999MW1101REMSYN082AAXX  03091 15562 41496 83602 10060 20046 40269 53007 71022 886// 555 92012 92416;
0227155620999992000120312004+43360+028470FM-12+006499999V0202301N002010042019N0040001N1+00761+00551999999ADDAA199000091AY121061AY221061GF108991081061004501999999MD1810041+9999MW1101UA1M990009019REMSYN094AAXX  03121 15562 31496 82302 10076 20055 49264 58004 71022 886// 222// 2//00 555 92011 92416;EQDQ01+092643APOSLPQ02  00002PRCP99
0156155620999992000120315004+43360+028470FM-12+006499999V0209999C000010042019N0040001N1+00761+00551102621ADDAY121031AY221031GF108991081061004501999999MD1710021+9999MW1101REMSYN082AAXX  03151 15562 41496 80000 10076 20055 40262 57002 71022 886// 555 92001 92406;
0234155620999992000120318004+43360+028470FM-12+006499999V0201801N003010042019N0100001N1+00901+00551102651ADDAA199000091AY121061AY221061GF108991081061004501999999KA1120M+00921MD1310031+9999MW1021UA1M999999019REMSYN104AAXX  03181 15562 31497 81803 10090 20055 40265 53003 70222 886// 222// 2//00 333 10092 555 92012 92417;EQDQ01  00002PRCP99
0156155620999992000120321004+43360+028470FM-12+006499999V0201801N003010042019N0100001N1+00921+00671102631ADDAY121031AY221031GF108991081061004501999999MD1810021+9999MW1021REMSYN082AAXX  03211 15562 41497 81803 10092 20067 40263 58002 70222 886// 555 92012 92417;
0211155620999992000120400004+43360+028470FM-12+006499999V0202301N003010042019N0100001N1+00941+00641102571ADDAA199000091AY121061AY221061GF108991081061004501999999MD1710061+9999MW1021UA1M999999019REMSYN094AAXX  04001 15562 31497 82303 10094 20064 40257 57006 70222 886// 222// 2//00 555 92012 92417;EQDQ01  00002PRCP99
0168155620999992000120403004+43360+028470FM-12+006499999V0202301N003010042019N0100001N1+00921+00671102551ADDAY121031AY221031GF108991081061004501999999MD1710121+9999MW1021REMSYN094AAXX  04031 15562 41497 82303 10092 20067 40255 57012 70222 886// 555 10077 29084 92012 92417;
0288155620999992000120406004+43360+028470FM-12+006499999V0202301N005010042019N0040001N1+00481+99999102601ADDAA199000091AY121061AY221061GF108991081061004501999999GJ100009IA1099IA2999+00809KA1120N+99999MD1310051+9999MW1101UA1M990059029REMSYN116AAXX  04061 15562 31496 82305 10048 20067 40260 53005 71022 886// 222// 2//01 333 20084 55000 555 31008 92023 92426;EQDQ01  00002PRCP99Q02 +00842ATMN  
0156155620999992000120409004+43360+028470FM-12+006499999V0202301N009010042019N0020001N1+00741+00561102681ADDAY121031AY221031GF108991081061004501999999MD1210081+9999MW1101REMSYN082AAXX  04091 15562 41495 82309 10074 20056 40268 52008 71022 886// 555 92035 92435;
0211155620999992000120412004+43360+028470FM-12+006499999V0202301N003010042019N0040001N1+00761+00581102571ADDAA199000091AY121061AY221061GF108991081061004501999999MD1810111+9999MW1101UA1M990009019REMSYN094AAXX  04121 15562 31496 82303 10076 20058 40257 58011 71022 886// 222// 2//00 555 92015 92416;EQDQ01  00002PRCP99
0156155620999992000120415004+43360+028470FM-12+006499999V0209999C000010042019N0040001N1+00901+00641102501ADDAY121031AY221031GF108991081061004501999999MD1710071+9999MW1101REMSYN082AAXX  04151 15562 41496 80000 10090 20064 40250 57007 71022 886// 555 92012 92416;
0234155620999992000120418004+43360+028470FM-12+006499999V0202301N005010042019N0100001N1+00921+00621102521ADDAA199000091AY121061AY221061GF108991081051004501999999KA1120M+01001MD1310021+9999MW1021UA1M999999029REMSYN104AAXX  04181 15562 31497 82305 10092 20062 40252 53002 70222 885// 222// 2//01 333 10100 555 92023 92427;EQDQ01  00002PRCP99
0156155620999992000120421004+43360+028470FM-12+006499999V0202301N008010042019N0100001N1+00821+00511102551ADDAY121031AY221031GF108991081051004501999999MD1210031+9999MW1021REMSYN082AAXX  04211 15562 41497 82308 10082 20051 40255 52003 70222 885// 555 92024 92428;
0320155620999992000120500004+43360+028470FM-12+006499999V0202301N005010042019N0100001N1+00801+00531102541ADDAA199000091AJ199999999999999AY121061AY221061GA1011+000609069GF108991081051004501999999IA1179MD1810011+9999MW1021UA1M999999029REMSYN148AAXX  05001 15562 31497 82305 10080 20053 40254 58001 70222 885// 222// 2//01 555 92023 92427 15575 31495 81602 10048 20039 40250 52002 71022 886//;EQDQ01  00002PRCP99Q02  02502SNDP  
0168155620999992000120503004+43360+028470FM-12+006499999V0202301N002010042019N0100001N1+00801+00481102511ADDAY121031AY221031GF108991081051004501999999MD1710031+9999MW1021REMSYN094AAXX  05031 15562 41497 82302 10080 20048 40251 57003 70222 885// 555 10086 29088 92013 92417;
0272155620999992000120506004+43360+028470FM-12+006499999V0202501N002010042019N0100001N1+00701+00481102571ADDAA199000091AY121061AY221061GF108991081051004501999999GJ100009IA1099IA2999+00609KA1120N+00651MD1310061+9999MW1021UA1M999999019REMSYN116AAXX  05061 15562 31497 82502 10070 20048 40257 53006 70222 885// 222// 2//00 333 20065 55000 555 31006 92012 92417;EQDQ01  00002PRCP99
0156155620999992000120509004+43360+028470FM-12+006499999V0203601N006010042019N0100001N1+00521+00321102621ADDAY121031AY221031GF108991081051004501999999MD1210051+9999MW1021REMSYN082AAXX  05091 15562 41497 83606 10052 20032 40262 52005 70222 885// 555 92023 92427;
0211155620999992000120512004+43360+028470FM-12+006499999V0203601N005019999999N0040001N1+00681+00501102661ADDAA199000091AY121061AY221061GF108991081051999999999999MD1210041+9999MW1101UA1M990059029REMSYN094AAXX  05121 15562 31996 83605 10068 20050 40266 52004 71022 885// 222// 2//01 555 92023 92426;EQDQ01  00002PRCP99
0234155620999992000120518004+43360+028470FM-12+006499999V0203601N004010042019N0100001N1+00301+00091102831ADDAA199000091AY121061AY221061GF108991081051004501999999KA1120M+00751MD1210121+9999MW1021UA1M999999029REMSYN104AAXX  05181 15562 31497 83604 10030 20009 40283 52012 70222 885// 222// 2//01 333 10075 555 92024 92427;EQDQ01  00002PRCP99
0156155620999992000120521004+43360+028470FM-12+006499999V0203601N005010042019N0100001N1+00181+00041102901ADDAY121031AY221031GF108991081051004501999999MD1210051+9999MW1021REMSYN082AAXX  05211 15562 41497 83605 10018 20004 40290 52005 70222 885// 555 92023 92427;
0210155620999992000120600004+43360+028470FM-12+006499999V0203401N004019999999N0200001N1+00121-00101102911ADDAA199000091AY121061AY221061GF106991999999004501999999MD1210011+9999MW1021UA1M999999029REMSYN093AAXX  06001 15562 31498 63404 10012 21010 40291 52001 70222 8650 222// 2//01 555 92023 92427;EQDQ01  00002PRCP99
0168155620999992000120603004+43360+028470FM-12+006499999V0203401N005010042019N0100001N1+00051-00101102921ADDAY121031AY221031GF108991081051004501999999MD1210011+9999MW1021REMSYN094AAXX  06031 15562 41497 83405 10005 21010 40292 52001 70222 885// 555 10045 29086 92023 92427;
0272155620999992000120606004+43360+028470FM-12+006499999V0203401N005010042019N0040001N1+00061-00021102951ADDAA199000091AY121061AY221061GF108991081051004501999999GJ100969IA1099IA2999-00109KA1120N+00001MD1210031+9999MW1101UA1M990059029REMSYN116AAXX  06061 15562 31496 83405 10006 21002 40295 52003 71022 885// 222// 2//01 333 20000 55016 555 31101 92023 92426;EQDQ01  00002PRCP99
0156155620999992000120609004+43360+028470FM-12+006499999V0203201N006010042019N0100001N1+00321+00111102921ADDAY121031AY221031GF108991081051004501999999MD1410001+9999MW1021REMSYN082AAXX  06091 15562 41497 83206 10032 20011 40292 54000 70222 885// 555 92024 92428;
0211155620999992000120612004+43360+028470FM-12+006499999V0203201N006010042019N0100001N1+00401+00151102811ADDAA199000091AY121061AY221061GF108991081051004501999999MD1810121+9999MW1021UA1M999999029REMSYN094AAXX  06121 15562 31497 83206 10040 20015 40281 58012 70222 885// 222// 2//01 555 92024 92427;EQDQ01  00002PRCP99
0156155620999992000120615004+43360+028470FM-12+006499999V0203401N008010042019N0100001N1+00341+00131102801ADDAY121031AY221031GF108991081051004501999999MD1710011+9999MW1021REMSYN082AAXX  06151 15562 41497 83408 10034 20013 40280 57001 70222 885// 555 92025 92427;
0234155620999992000120618004+43360+028470FM-12+006499999V0203201N006010042019N0100001N1+00341+00131102851ADDAA199000091AY121061AY221061GF108991081051004501999999KA1120M+00441MD1310051+9999MW1021UA1M999999029REMSYN104AAXX  06181 15562 31497 83206 10034 20013 40285 53005 70222 885// 222// 2//01 333 10044 555 92025 92427;EQDQ01  00002PRCP99
0156155620999992000120621004+43360+028470FM-12+006499999V0203201N006010042019N0100001N1+00341+00111102851ADDAY121031AY221031GF108991081051004501999999MD1410001+9999MW1021REMSYN082AAXX  06211 15562 41497 83206 10034 20011 40285 54000 70222 885// 555 92023 92427;
0211155620999992000120700004+43360+028470FM-12+006499999V0203201N012010042019N0100001N1+00361+00211102741ADDAA199000091AY121061AY221061GF108991081051004501999999MD1810111+9999MW1021UA1M999999039REMSYN094AAXX  07001 15562 31497 83212 10036 20021 40274 58011 70222 885// 222// 2//02 555 92036 92437;EQDQ01  00002PRCP99
0168155620999992000120703004+43360+028470FM-12+006499999V0203201N012010042019N0100001N1+00361+00211102721ADDAY121031AY221031GF108991081051004501999999MD1710021+9999MW1021REMSYN094AAXX  07031 15562 41497 83212 10036 20021 40272 57002 70222 885// 555 10028 29087 92036 92437;
0244155620999992000120706004+43360+028470FM-12+006499999V0203601N012010042019N0040001N1+00401+00301102741ADDAA199000091AY121061AY221061GF108991081051004501999999GJ100009KA1120N+00321MD1310021+9999MW1101UA1M990109999REMSYN106AAXX  07061 15562 31496 83612 10040 20030 40274 53002 71022 885// 222// 2//02 333 20032 55000 92036 92436;EQDQ01  00002PRCP99
0156155620999992000120709004+43360+028470FM-12+006499999V0203601N012010042019N0040001N1+00551+00431102811ADDAY121031AY221031GF108991081051004501999999MD1210061+9999MW1101REMSYN082AAXX  07091 15562 41496 83612 10055 20043 40281 52006 71022 885// 555 92036 92436;
0204155620999992000120712004+43360+028470FM-12+006499999V0203601N008010042019N0040001N1+00641+00481102821ADDAA106000191AY151061AY221061GF108991081061004501999999MD1210021+9999MW1511UA1M990109039REMSYN106AAXX  07121 15562 11496 83608 10064 20048 40282 52002 69921 75152 886// 222// 2//02 555 92036 92436 96010;
0156155620999992000120715004+43360+028470FM-12+006499999V0203601N008010042019N0040001N1+00581+00451102851ADDAY151031AY221031GF108991081051004501999999MD1210031+9999MW1101REMSYN082AAXX  07151 15562 41496 83608 10058 20045 40285 52003 71052 885// 555 92035 92436;
0215155620999992000120718004+43360+028470FM-12+006499999V0203601N008010042019N0040001N1+00541+00341102801ADDAA112000191AY151061AY221061GF108991081061004501999999KA1120M+00741MD1810061+9999MW1101UA1M999999039REMSYN104AAXX  07181 15562 11496 83608 10054 20034 40280 58006 69922 71052 886// 222// 333 10074 555 92035 92436;
0156155620999992000120721004+43360+028470FM-12+006499999V0203601N007010042019N0040001N1+00521+00381102841ADDAY121031AY221031GF108991081061004501999999MD1310041+9999MW1101REMSYN082AAXX  07211 15562 41496 83607 10052 20038 40284 53004 71022 886// 555 92035 92436;
0198155620999992000120800004+43360+028470FM-12+006499999V0203601N005010042019N0100001N1+00541+00401102831ADDAA106000591AY161061AY221061GF108991081051004501999999MD1810011+9999MW1021UA1M990109039REMSYN100AAXX  08001 15562 11497 83605 10054 20040 40283 58001 69941 70262 885// 222// 2//02 555 92034 92437;
0221155620999992000120803004+43360+028470FM-12+006499999V0203601N012012200019N0100001N1+00541+00341102781ADDAA124000691AY111031AY211031GA1001+999999999GF100991001001999999001001KA1999M+00511MD1710051+9999MW1011UA1M999999039REMSYN094AAXX  08031 15562 41997 03612 10054 20034 40278 57005 70111 555 10051 29091 69964 92036 92437;
0259155620999992000120806004+43360+028470FM-12+006499999V0203601N006010042019N0040001N1+00501+00361102981ADDAA112000591AY111061AY211061GF108991081051004501999999GJ100009IA1099IA2999+00309KA1120N+00491MD1310201+9999MW1101UA1M990109039REMSYN122AAXX  08061 15562 11496 83606 10050 20036 40298 53020 69942 71011 885// 222// 2//02 333 20049 55000 555 31003 92036 92436;
0156155620999992000120809004+43360+028470FM-12+006499999V0203601N004010042019N0200001N1+00601+00411102971ADDAY121031AY221031GF107991071051004501001001MD1410001+9999MW1021REMSYN082AAXX  08091 15562 41498 73604 10060 20041 40297 54000 70222 87500 555 92034 92438;
0211155620999992000120812004+43360+028470FM-12+006499999V0203601N005010042019N0200001N1+00621+00381102891ADDAA199000091AY121061AY221061GF107991071051004501001001MD1810081+9999MW1021UA1M999999039REMSYN094AAXX  08121 15562 31498 73605 10062 20038 40289 58008 70222 87500 222// 2//02 555 92033 92438;EQDQ01  00002PRCP99
0156155620999992000120815004+43360+028470FM-12+006499999V0203601N006010042019N0200001N1+00601-00021103041ADDAY121031AY221031GF107991071051004501001001MD1310151+9999MW1021REMSYN082AAXX  08151 15562 41498 73606 10060 21002 40304 53015 70222 87500 555 92034 92438;
0234155620999992000120818004+43360+028470FM-12+006499999V0203601N004010042019N0200001N1+00601-00101103041ADDAA199000091AY121061AY221061GF108991081051004501999999KA1120M+00661MD1410001+9999MW1021UA1M999999039REMSYN104AAXX  08181 15562 31498 83604 10060 21010 40304 54000 70222 885// 222// 2//02 333 10066 555 92034 92438;EQDQ01  00002PRCP99
0156155620999992000120821004+43360+028470FM-12+006499999V0203601N004010042019N0200001N1+00521+00061102941ADDAY121031AY221031GF108991081051004501999999MD1810111+9999MW1021REMSYN082AAXX  08211 15562 41498 83604 10052 20006 40294 58011 70222 885// 555 92033 92438;
0211155620999992000120900004+43360+028470FM-12+006499999V0203601N005010042019N0200001N1+00501-00021102921ADDAA199000091AY121061AY221061GF108991081051004501999999MD1710021+9999MW1021UA1M999999029REMSYN094AAXX  09001 15562 31498 83605 10050 21002 40292 57002 70222 885// 222// 2//01 555 92023 92428;EQDQ01  00002PRCP99
0168155620999992000120903004+43360+028470FM-12+006499999V0203601N004010042019N0200001N1+00541+00021102941ADDAY121031AY221031GF108991081051004501999999MD1310021+9999MW1021REMSYN094AAXX  09031 15562 41498 83604 10054 20002 40294 53002 70222 885// 555 10055 29081 92023 92428;
0272155620999992000120906004+43360+028470FM-12+006499999V0203601N002010042019N0200001N1+00601+00091102971ADDAA199000091AY121061AY221061GF108991081051004501999999GJ100009IA1099IA2999+00409KA1120N+00481MD1210041+9999MW1021UA1M999999019REMSYN116AAXX  09061 15562 31498 83602 10060 20009 40297 52004 70222 885// 222// 2//00 333 20048 55000 555 31004 92013 92418;EQDQ01  00002PRCP99
0156155620999992000120909004+43360+028470FM-12+006499999V0209999C000010042019N0200001N1+00701+00171103011ADDAY121031AY221031GF108991081051004501999999MD1210041+9999MW1021REMSYN082AAXX  09091 15562 41498 80000 10070 20017 40301 52004 70222 885// 555 92001 92408;
0211155620999992000120912004+43360+028470FM-12+006499999V0209999C000010042019N0200001N1+00761+00211102841ADDAA199000091AY121061AY221061GF108991081051004501999999MD1810171+9999MW1021UA1M999999009REMSYN094AAXX  09121 15562 31498 80000 10076 20021 40284 58017 70222 885// 222// 2//00 555 92000 92408;EQDQ01  00002PRCP99
0156155620999992000120915004+43360+028470FM-12+006499999V0202001N007012200019N0200001N1+00801+00041102731ADDAY111031AY211031GF103991021051004501001021MD1710101+9999MW1011REMSYN082AAXX  09151 15562 41498 32007 10080 20004 40273 57010 70111 82502 555 92014 92418;
0234155620999992000120918004+43360+028470FM-12+006499999V0201801N007019999999N0200001N1+00801+00111102731ADDAA199000091AY111061AY211061GF106991061001999999031001KA1120M+00921MD1410001+9999MW1031UA1M990059029REMSYN104AAXX  09181 15562 31998 61807 10080 20011 40273 54000 70311 86030 222// 2//01 333 10092 555 92024 92428;EQDQ01  00002PRCP99
0175155620999992000120921004+43360+028470FM-12+006499999V0201801N010019999999N0200001N1+00781+00171102741ADDAY121031AY221031GF106991999001999999031001MD1310011+9999MW1021REMSYN082AAXX  09211 15562 41998 61810 10078 20017 40274 53001 70222 85030 555 92025 92428;EQDQ01+000052SCOTLC
0221155620999992000121000004+43360+028470FM-12+006499999V0201801N006012200019N0200001N1+00721+00141102681ADDAA199000091AY111061AY211061GA1001+999999999GF100991001001999999001001MD1810061+9999MW1011UA1M990059029REMSYN088AAXX  10001 15562 31998 01806 10072 20014 40268 58006 70111 222// 2//01 555 92024 92428;EQDQ01  00002PRCP99
0168155620999992000121003004+43360+028470FM-12+006499999V0201801N012012200019N0200001N1+00841+00381102501ADDAY101031AY201031GF102991001001999999001021MD1710181+9999MW1021REMSYN094AAXX  10031 15562 41998 21812 10084 20038 40250 57018 70200 80002 555 10074 29067 92026 92428;
0272155620999992000121006004+43360+028470FM-12+006499999V0201801N010012200019N0200001N1+00861+00361102451ADDAA199000091AY111061AY211061GF106991021051004501001011GJ100129IA1099IA2999+00609KA1120N+00681MD1710051+9999MW1031UA1M990109039REMSYN116AAXX  10061 15562 31498 61810 10086 20036 40245 57005 70311 82501 222// 2//02 333 20068 55002 555 31006 92036 92438;EQDQ01  00002PRCP99
0156155620999992000121009004+43360+028470FM-12+006499999V0202301N010019999999N0200001N1+00941+00271102461ADDAY121031AY221031GF106991001001999999001021MD1310011+9999MW1021REMSYN082AAXX  10091 15562 41998 62310 10094 20027 40246 53001 70222 80002 555 92036 92438;
0221155620999992000121012004+43360+028470FM-12+006499999V0202001N010012200019N0200001N1+00941+00321102241ADDAA199000091AY111061AY211061GA1001+999999999GF100991001001999999001001MD1810221+9999MW1011UA1M990159049REMSYN088AAXX  10121 15562 31998 02010 10094 20032 40224 58022 70111 222// 2//03 555 92045 92448;EQDQ01  00002PRCP99
0156155620999992000121015004+43360+028470FM-12+006499999V0201801N009019999999N0200001N1+00941+00451102081ADDAY111031AY211031GF106991001001999999001021MD1710161+9999MW1031REMSYN082AAXX  10151 15562 41998 61809 10094 20045 40208 57016 70311 80002 555 92045 92448;
0234155620999992000121018004+43360+028470FM-12+006499999V0202301N009019999999N0200001N1+01001+00561101981ADDAA199000091AY111061AY211061GF106991001001999999001051KA1120M+01031MD1710101+9999MW1021UA1M990109039REMSYN104AAXX  10181 15562 31998 62309 10100 20056 40198 57010 70211 80005 222// 2//02 333 10103 555 92035 92438;EQDQ01  00002PRCP99
0156155620999992000121021004+43360+028470FM-12+006499999V0203601N008019999999N0200001N1+00641+00361101971ADDAY121031AY221031GF106991001001999999001051MD1710021+9999MW1021REMSYN082AAXX  10211 15562 41998 63608 10064 20036 40197 57002 70222 80005 555 92035 92438;
0211155620999992000121100004+43360+028470FM-12+006499999V0203201N007010042019N0100001N1+00441+00251102021ADDAA199000091AY121061AY221061GF106991061051004501001001MD1310051+9999MW1021UA1M999999039REMSYN094AAXX  11001 15562 31497 63207 10044 20025 40202 53005 70222 86500 222// 2//02 555 92034 92437;EQDQ01  00002PRCP99
0168155620999992000121103004+43360+028470FM-12+006499999V0203201N005010042019N0100001N1+00441+00251102001ADDAY121031AY221031GF107991071051004501001001MD1810021+9999MW1021REMSYN094AAXX  11031 15562 41497 73205 10044 20025 40200 58002 70222 87500 555 10090 29070 92023 92427;
0272155620999992000121106004+43360+028470FM-12+006499999V0203201N002010042019N0040001N1+00361+00271102151ADDAA199000091AY121061AY221061GF108991081061004501999999GJ102769IA1099IA2999+00209KA1120N+00331MD1310151+9999MW1101UA1M990059029REMSYN116AAXX  11061 15562 31496 83202 10036 20027 40215 53015 71022 886// 222// 2//01 333 20033 55046 555 31002 92023 92426;EQDQ01  00002PRCP99
0175155620999992000121109004+43360+028470FM-12+006499999V0202901N010019999999N0100001N1+00721+00501102151ADDAY121031AY221031GF108991001001999999001011MD1210011+9999MW1021REMSYN082AAXX  11091 15562 41497 82910 10072 20050 40215 52001 70222 80001 555 92035 92436;EQDQ01+004502SCOLCB
0176155620999992000121112004+43360+028470FM-12+006499999V0209999C000010042019N0100001N1+00901+00641102061ADDAA199000091AY121061AY221061GF108991081051004501999999MD1810111+9999MW1021REMSYN072AAXX  11121 15562 31497 80000 10090 20064 40206 58011 70222 885// 222//;EQDQ01  00002PRCP99
0156155620999992000121115004+43360+028470FM-12+006499999V0202901N002010042019N0100001N1+00941+00771102071ADDAY161031AY221031GF108991081001004501021999MD1310011+9999MW1611REMSYN082AAXX  11151 15562 41497 82902 10094 20077 40207 53001 76162 8802/ 555 92023 92427;
0221155620999992000121118004+43360+028470FM-12+006499999V0203201N002010042019N0100001N1+00961+00711102081ADDAA112002091AY161061AY221061GF108991081051004501999999KA1120M+01001MD1210011+9999MW1211UA1M990009019REMSYN110AAXX  11181 15562 11497 83202 10096 20071 40208 52001 60022 72162 885// 222// 2//00 333 10100 555 92012 92417;
0156155620999992000121121004+43360+028470FM-12+006499999V0203201N006010042019N0100001N1+00841+00671102221ADDAY121031AY221031GF108991081051004501999999MD1210141+9999MW1021REMSYN082AAXX  11211 15562 41497 83206 10084 20067 40222 52014 70222 885// 555 92024 92427;
0192155620999992000121200004+43360+028470FM-12+006499999V0203201N006010042019N0100001N1+00681+00501102361ADDAA199000021AY121061AY221061GF108991081051004501999999MD1210141+9999MW1021UA1M999999029REMSYN094AAXX  12001 15562 31497 83206 10068 20050 40236 52014 70222 885// 222// 2//01 555 92024 92427;
0174155620999992000121203004+43360+028470FM-12+006499999V0203601N006010042019N0100001N1+00681+00501102531ADDAY121031AY221031GF108991081051004501999999MD1210171+9999MW1021REMSYN100AAXX  12031 15562 41497 83606 10068 20050 40253 52017 70222 885// 555 10076 29088 60024 92024 92427;
0253155620999992000121206004+43360+028470FM-12+006499999V0203601N006010042019N0040001N1+00721+00551102631ADDAA199000021AY121061AY221061GF108991081051004501999999GJ100909IA1099IA2999+00109KA1120N+00641MD1210101+9999MW1101UA1M990059029REMSYN116AAXX  12061 15562 31496 83606 10072 20055 40263 52010 71022 885// 222// 2//01 333 20064 55015 555 31001 92024 92426;
0156155620999992000121209004+43360+028470FM-12+006499999V0203401N005010042019N0200001N1+00871+00611102771ADDAY121031AY221031GF107991071051004501001001MD1210131+9999MW1021REMSYN082AAXX  12091 15562 41498 73405 10087 20061 40277 52013 70222 87500 555 92024 92428;
0211155620999992000121212004+43360+028470FM-12+006499999V0203401N006010042019N0200001N1+01021+00341102621ADDAA199000091AY121061AY221061GF105991051021004501001001MD1810141+9999MW1021UA1M999999029REMSYN094AAXX  12121 15562 31498 53406 10102 20034 40262 58014 70222 85200 222// 2//01 555 92024 92428;EQDQ01  00002PRCP99
0156155620999992000121215004+43360+028470FM-12+006499999V0203401N003010042019N0200001N1+00921+00671102621ADDAY121031AY221031GF106991061051004501001001MD1410001+9999MW1021REMSYN082AAXX  12151 15562 41498 63403 10092 20067 40262 54000 70222 86500 555 92014 92418;
0234155620999992000121218004+43360+028470FM-12+006499999V0209999C000010042019N0200001N1+00901+00591102721ADDAA199000091AY121061AY221061GF107991071051004501001001KA1120M+01101MD1310101+9999MW1021UA1M999999009REMSYN104AAXX  12181 15562 31498 70000 10090 20059 40272 53010 70222 87500 222// 2//00 333 10110 555 92002 92408;EQDQ01  00002PRCP99
0156155620999992000121221004+43360+028470FM-12+006499999V0209999C000012200019N0100001N1+00881+00581102611ADDAY111031AY211031GF102991021051004501001001MD1810111+9999MW1011REMSYN082AAXX  12211 15562 41497 20000 10088 20058 40261 58011 70111 82500 555 92000 92407;
0211155620999992000121300004+43360+028470FM-12+006499999V0203201N002010042019N0100001N1+00901+00551102411ADDAA199000091AY111061AY211061GF105991051051004501001001MD1710201+9999MW1031UA1M990009019REMSYN094AAXX  13001 15562 31497 53202 10090 20055 40241 57020 70311 85500 222// 2//00 555 92011 92417;EQDQ01  00002PRCP99
0168155620999992000121303004+43360+028470FM-12+006499999V0201401N002010042019N0100001N1+00901+00641102321ADDAY121031AY221031GF106991061051004501001001MD1710091+9999MW1021REMSYN094AAXX  13031 15562 41497 61402 10090 20064 40232 57009 70222 86500 555 10089 29071 92011 92417;
0272155620999992000121306004+43360+028470FM-12+006499999V0202701N003010042019N0100001N1+00901+00681102321ADDAA199000091AY121061AY221061GF107991071051004501001001GJ101989IA1099IA2999+00109KA1120N+00861MD1410001+9999MW1021UA1M999999019REMSYN116AAXX  13061 15562 31497 72703 10090 20068 40232 54000 70222 87500 222// 2//00 333 20086 55033 555 31001 92012 92417;EQDQ01  00002PRCP99
0156155620999992000121309004+43360+028470FM-12+006499999V0201801N004010042019N0100001N1+00921+00671102241ADDAY121031AY221031GF107991071051004501001001MD1810081+9999MW1021REMSYN082AAXX  13091 15562 41497 71804 10092 20067 40224 58008 70222 87500 555 92013 92417;
0211155620999992000121312004+43360+028470FM-12+006499999V0202301N003010042019N0200001N1+00961+00591102091ADDAA199000091AY121061AY221061GF105991051051004501001001MD1710151+9999MW1021UA1M999999019REMSYN094AAXX  13121 15562 31498 52303 10096 20059 40209 57015 70222 85500 222// 2//00 555 92013 92418;EQDQ01  00002PRCP99
0156155620999992000121315004+43360+028470FM-12+006499999V0202301N002012200019N0200001N1+00931+00651102061ADDAY111031AY211031GF102991021051004501001001MD1710031+9999MW1011REMSYN082AAXX  13151 15562 41498 22302 10093 20065 40206 57003 70111 82500 555 92012 92418;
0234155620999992000121318004+43360+028470FM-12+006499999V0202301N002012200019N0100001N1+00921+00671102071ADDAA199000091AY111061AY211061GF102991021051004501001001KA1120M+01121MD1310011+9999MW1021UA1M990009019REMSYN104AAXX  13181 15562 31497 22302 10092 20067 40207 53001 70211 82500 222// 2//00 333 10112 555 92011 92417;EQDQ01  00002PRCP99
0156155620999992000121321004+43360+028470FM-12+006499999V0202301N003010042019N0100001N1+00921+00711102031ADDAY121031AY221031GF107991071051004501001001MD1810041+9999MW1021REMSYN082AAXX  13211 15562 41497 72303 10092 20071 40203 58004 70222 87500 555 92012 92417;
0211155620999992000121400004+43360+028470FM-12+006499999V0202301N002010042019N0100001N1+00901+00681101791ADDAA199000091AY121061AY221061GF107991071051004501001001MD1710041+9999MW1021UA1M999999019REMSYN094AAXX  14001 15562 31497 72302 10090 20068 40179 57004 70222 87500 222// 2//00 555 92012 92417;EQDQ01  00002PRCP99
0272155620999992000121406004+43360+028470FM-12+006499999V0202701N004010042019N0040001N1+00901+00731101781ADDAA199000091AY121061AY221061GF107991071051004501001001GJ101089IA1099IA2999+00409KA1120N+00881MD1710031+9999MW1101UA1M990009019REMSYN116AAXX  14061 15562 31496 72704 10090 20073 40178 57003 71022 87500 222// 2//00 333 20088 55018 555 31004 92013 92416;EQDQ01  00002PRCP99
0156155620999992000121409004+43360+028470FM-12+006499999V0202701N005010042019N0040001N1+00961+00711101681ADDAY121031AY221031GF108991081051004501999999MD1710091+9999MW1101REMSYN082AAXX  14091 15562 41496 82705 10096 20071 40168 57009 71022 885// 555 92014 92416;
0198155620999992000121412004+43360+028470FM-12+006499999V0202701N002010042019N0100001N1+00961+00761101481ADDAA106000191AY161061AY221061GF107991071051004501001001MD1710201+9999MW1021UA1M990009019REMSYN100AAXX  14121 15562 11497 72702 10096 20076 40148 57020 69921 70262 87500 222// 2//00 555 92014 92417;
0156155620999992000121415004+43360+028470FM-12+006499999V0202701N002010042019N0100001N1+00981+00731101511ADDAY161031AY221031GF108991061071004501021999MD1310031+9999MW1611REMSYN082AAXX  14151 15562 41497 82702 10098 20073 40151 53003 76162 8672/ 555 92012 92417;
0221155620999992000121418004+43360+028470FM-12+006499999V0209999C000010042019N0100001N1+00901+00731101491ADDAA112000591AY161061AY221061GF106991061051004501001001KA1120M+01031MD1810021+9999MW1021UA1M990009009REMSYN110AAXX  14181 15562 11497 60000 10090 20073 40149 58002 69962 70262 86500 222// 2//00 333 10103 555 92002 92407;
0179155620999992000121421004+43360+028470FM-12+006499999V0202301N003012200019N0100001N1+00881+00711101491ADDAY111031AY211031GA1001+999999999GF100991001001999999001001MD1410001+9999MW1011UA1M999999019REMSYN076AAXX  14211 15562 41997 02303 10088 20071 40149 54000 70111 555 92012 92417;
0192155620999992000121500004+43360+028470FM-12+006499999V0202301N002012200019N0100001N1+00881+00701101411ADDAA199000021AY101061AY201061GF103991031051004501001001MD1810081+9999MW1021UA1M990009019REMSYN094AAXX  15001 15562 31497 32302 10088 20070 40141 58008 70200 83500 222// 2//00 555 92012 92417;
0174155620999992000121503004+43360+028470FM-12+006499999V0202701N002010042019N0040001N1+00961+00841101271ADDAY111031AY211031GF106991061051004501001001MD1710141+9999MW1101REMSYN100AAXX  15031 15562 41496 62702 10096 20084 40127 57014 71011 86500 555 10092 29090 69964 92012 92416;
0272155620999992000121506004+43360+028470FM-12+006499999V0209999C000010042019N0040001N1+00961+00841101191ADDAA199000091AY111061AY211061GF108991081051004501999999GJ100009IA1099IA2999+00309KA1120N+00821MD1710081+9999MW1101UA1M990009009REMSYN116AAXX  15061 15562 31496 80000 10096 20084 40119 57008 71011 885// 222// 2//00 333 20082 55000 555 31003 92001 92406;EQDQ01  00002PRCP99
0156155620999992000121509004+43360+028470FM-12+006499999V0202301N003012200019N0040001N1+01061+00861101051ADDAY111031AY211031GF103991001001999999001011MD1710141+9999MW1011REMSYN082AAXX  15091 15562 41996 32303 10106 20086 40105 57014 70111 80001 555 92022 92426;
0211155620999992000121512004+43360+028470FM-12+006499999V0202501N004019999999N0600001N1+01051+00781100921ADDAA199000091AY111061AY211061GF106991031001999999021051MD1710131+9999MW1101UA1M990059029REMSYN094AAXX  15121 15562 31986 62504 10105 20078 40092 57013 71011 83025 222// 2//01 555 92023 92426;EQDQ01  00002PRCP99
0156155620999992000121515004+43360+028470FM-12+006499999V0202701N002010360019N0100001N1+01021+00811100851ADDAY121031AY221031GF107991031051004501021051MD1710071+9999MW1021REMSYN082AAXX  15151 15562 41497 72702 10102 20081 40085 57007 70222 83525 555 92013 92417;
0244155620999992000121518004+43360+028470FM-12+006499999V0202501N009012200019N0100001N1+01061+00771100801ADDAA199000091AY111061AY211061GA1001+999999999GF100991001001999999001001KA1120M+01201MD1710061+9999MW1011UA1M990109039REMSYN098AAXX  15181 15562 31997 02509 10106 20077 40080 57006 70111 222// 2//02 333 10120 555 92035 92437;EQDQ01  00002PRCP99
0179155620999992000121521004+43360+028470FM-12+006499999V0202301N010012200019N0100001N1+01041+00881100691ADDAY101031AY201031GA1001+999999999GF100991001001999999001001MD1710101+9999MW1021UA1M999999039REMSYN076AAXX  15211 15562 41997 02310 10104 20088 40069 57010 70200 555 92035 92437;
0221155620999992000121600004+43360+028470FM-12+006499999V0202301N009012200019N0100001N1+01061+00811100541ADDAA199000091AY101061AY201061GA1001+999999999GF100991001001999999001001MD1710151+9999MW1021UA1M990109039REMSYN088AAXX  16001 15562 31997 02309 10106 20081 40054 57015 70200 222// 2//02 555 92035 92437;EQDQ01  00002PRCP99
0204155620999992000121603004+43360+028470FM-12+006499999V0202501N009012200019N0100001N1+01041+00701100401ADDAY101031AY201031GA1001+999999999GF100991001001999999001001KA1999M+01061MD1710141+9999MW1021UA1M999999039REMSYN088AAXX  16031 15562 41997 02509 10104 20070 40040 57014 70200 555 10106 29077 92035 92437;
0272155620999992000121606004+43360+028470FM-12+006499999V0202501N008012200019N0100001N1+01061+00771100411ADDAA199000091AY101061AY201061GF102991001001999999001021GJ101629IA1099IA2999+00609KA1120N+01001MD1310011+9999MW1021UA1M990109039REMSYN116AAXX  16061 15562 31997 22508 10106 20077 40041 53001 70200 80002 222// 2//02 333 20100 55027 555 31006 92035 92437;EQDQ01  00002PRCP99
0156155620999992000121609004+43360+028470FM-12+006499999V0202301N009019999999N0200001N1+01161+00931100351ADDAY111031AY211031GF106991001001999999001021MD1810061+9999MW1031REMSYN082AAXX  16091 15562 41998 62309 10116 20093 40035 58006 70311 80002 555 92035 92438;
0211155620999992000121612004+43360+028470FM-12+006499999V0202501N009019999999N0200001N1+01361+00931100221ADDAA199000091AY111061AY211061GF108991001001999999001061MD1710121+9999MW1021UA1M990109039REMSYN094AAXX  16121 15562 31998 82509 10136 20093 40022 57012 70211 80006 222// 2//02 555 92035 92438;EQDQ01  00002PRCP99
0156155620999992000121615004+43360+028470FM-12+006499999V0202701N012010042019N0200001N1+01301+00641100361ADDAY121031AY221031GF106991061051004501001001MD1210131+9999MW1021REMSYN082AAXX  16151 15562 41498 62712 10130 20064 40036 52013 70222 86500 555 92036 92438;
0261155620999992000121618004+43360+028470FM-12+006499999V0203201N018010042019N0100001N1+00861+00451100511ADDAA112000191AY161061AY221061GF108991081001004501021999KA1120M+01401MD1210141+9999MW1611OA149902001OA259901801UA1M990159049REMSYN128AAXX  16181 15562 11497 83218 10086 20045 40051 52014 69912 76162 8802/ 222// 2//03 333 10140 91120 91218 91532 555 92047 92447;
0190155620999992000121621004+43360+028470FM-12+006499999V0203201N018019999999N0200001N1+00741+00191100561ADDAY161031AY211031GF108991999999999999999999MD1210141+9999MW1011OA149902001OA259901801REMSYN094AAXX  16211 15562 41998 83218 10074 20019 40056 52014 70161 333 91120 91218 91532 92048 92448;
0252155620999992000121700004+43360+028470FM-12+006499999V0203201N018012200019N0200001N1+00621+00291101001ADDAA106000191AY161061AY211061GA1001+999999999GF100991001001999999001001MD1210341+9999MW1021OA149902001OA259901801UA1M990159049REMSYN116AAXX  17001 15562 31998 03218 10062 20029 40100 52034 69911 70261 222// 2//03 333 91120 91218 91532 555 92048 92448;
0254155620999992000121703004+43360+028470FM-12+006499999V0203201N018012200019N0200001N1+00621+00091101251ADDAA124000291AY101031AY201031GA1001+999999999GF100991001001999999001001KA1999M+01021MD1210251+9999MW1021OA149902001UA1M999999049REMSYN116AAXX  17031 15562 41998 03218 10062 20009 40125 52025 70200 333 91120 91118 91532 555 10102 29174 69924 92048 92448;
0344155620999992000121706004+43360+028470FM-12+006499999V02099999999992200019N0200001N1+00601+00091101551ADDAA112000191AY101061AY201061GA1001+999999999GF100991001001999999001001GJ102409IA1099IA2999+00409KA1120N+00561MD1210301+9999MW1021OA149999999OA259999999UA1M990109049REMSYN134AAXX  17061 15562 11498 03918 10060 20009 40155 52030 69912 70200 222// 2//02 333 20056 55040 91120 91218 91529 555 31004 92048 92448;EQDQ01  02002WGOSPDQ02  01802WGOSPD
0223155620999992000121709004+43360+028470FM-12+006499999V0202901N018012200019N0200001N1+00741+00001101741ADDAY101031AY201031GA1001+999999999GF100991001001999999001001MD1210191+9999MW1021OA149902001OA259901801UA1M999999049REMSYN098AAXX  17091 15562 41998 02918 10074 20000 40174 52019 70200 333 91120 91218 91529 555 92048 92448;
0221155620999992000121712004+43360+028470FM-12+006499999V0202901N012012200019N0200001N1+00951-00221101661ADDAA199000091AY101061AY201061GA1001+999999999GF100991001001999999001001MD1810071+9999MW1021UA1M990109039REMSYN088AAXX  17121 15562 31998 02912 10095 21022 40166 58007 70200 222// 2//02 555 92038 92438;EQDQ01  00002PRCP99
0156155620999992000121715004+43360+028470FM-12+006499999V0202701N012012200019N0200001N1+01001+00021101861ADDAY101031AY201031GF102991021051004501001001MD1310191+9999MW1021REMSYN082AAXX  17151 15562 41498 22712 10100 20002 40186 53019 70200 82500 555 92036 92438;
0244155620999992000121718004+43360+028470FM-12+006499999V0202701N004012200019N0200001N1+00881+00041101931ADDAA199000091AY101061AY201061GA1001+999999999GF100991001001999999001001KA1120M+01081MD1210071+9999MW1021UA1M990059029REMSYN098AAXX  17181 15562 31998 02704 10088 20004 40193 52007 70200 222// 2//01 333 10108 555 92026 92428;EQDQ01  00002PRCP99
0179155620999992000121721004+43360+028470FM-12+006499999V0202701N003012200019N0200001N1+00821+00191101931ADDAY101031AY201031GA1001+999999999GF100991001001999999001001MD1410001+9999MW1021UA1M999999019REMSYN076AAXX  17211 15562 41998 02703 10082 20019 40193 54000 70200 555 92014 92418;
0221155620999992000121800004+43360+028470FM-12+006499999V0202701N002012200019N0200001N1+00801+00291101901ADDAA199000091AY101061AY201061GA1001+999999999GF100991001001999999001001MD1810031+9999MW1021UA1M990009019REMSYN088AAXX  18001 15562 31998 02702 10080 20029 40190 58003 70200 222// 2//00 555 92012 92418;EQDQ01  00002PRCP99
0204155620999992000121803004+43360+028470FM-12+006499999V0209999C000012200019N0200001N1+00701+00041101881ADDAY101031AY201031GA1001+999999999GF100991001001999999001001KA1999M+00821MD1710021+9999MW1021UA1M999999019REMSYN088AAXX  18031 15562 41998 00000 10070 20004 40188 57002 70200 555 10082 29057 92011 92418;
0272155620999992000121806004+43360+028470FM-12+006499999V0209999C000012200019N0200001N1+00601-00301101881ADDAA199000091AY101061AY201061GF102991021051004501001001GJ104509IA1099IA2999+01209KA1120N+00601MD1410001+9999MW1021UA1M990009009REMSYN116AAXX  18061 15562 31498 20000 10060 21030 40188 54000 70200 82500 222// 2//00 333 20060 55075 555 31012 92000 92408;EQDQ01  00002PRCP99
0156155620999992000121809004+43360+028470FM-12+006499999V0209999C000010042019N0200001N1+00801+00041101951ADDAY111031AY211031GF107991071051004501001001MD1310071+9999MW1031REMSYN082AAXX  18091 15562 41498 70000 10080 20004 40195 53007 70311 87500 555 92000 92408;
0211155620999992000121812004+43360+028470FM-12+006499999V0203601N002010042019N0200001N1+00881+00381101731ADDAA199000091AY111061AY211061GF107991071051004501001001MD1210211+9999MW1021UA1M990009019REMSYN094AAXX  18121 15562 31498 73602 10088 20038 40173 52021 70211 87500 222// 2//00 555 92011 92418;EQDQ01  00002PRCP99
0156155620999992000121815004+43360+028470FM-12+006499999V0209999C000010042019N0200001N1+00841+00431101791ADDAY121031AY221031GF107991071051004501001001MD1210051+9999MW1021REMSYN082AAXX  18151 15562 41498 70000 10084 20043 40179 52005 70222 87500 555 92001 92408;
0250155620999992000121818004+43360+028470FM-12+006499999V0203601N005019999999N0200001N1+00741+00321101901ADDAA199000091AY121061AY221061GF107991999051004501999999KA1120M+00921MD1210111+9999MW1021UA1M999999019REMSYN104AAXX  18181 15562 31498 73605 10074 20032 40190 52011 70222 885// 222// 2//00 333 10092 555 92012 92418;EQDQ01+000082SCOTLCQ02  00002PRCP99
0156155620999992000121821004+43360+028470FM-12+006499999V0203601N008010042019N0100001N1+00441+00301101961ADDAY161031AY221031GF108991081001004501021999MD1210051+9999MW1611REMSYN082AAXX  18211 15562 41497 83608 10044 20030 40196 52005 76162 8802/ 555 92025 92427;
0198155620999992000121900004+43360+028470FM-12+006499999V0203201N007010042019N0100001N1+00401+00251102001ADDAA106003091AY161061AY221061GF108991081051004501999999MD1210041+9999MW1021UA1M990059029REMSYN100AAXX  19001 15562 11497 83207 10040 20025 40200 52004 60031 70262 885// 222// 2//01 555 92025 92427;
0221155620999992000121903004+43360+028470FM-12+006499999V0203201N009012200019N0100001N1+00401+00301102001ADDAA124003091AY111031AY211031GA1001+999999999GF100991001001999999001001KA1999M+00641MD1410001+9999MW1011UA1M999999039REMSYN094AAXX  19031 15562 41997 03209 10040 20030 40200 54000 70111 555 10064 29069 60034 92035 92437;
0259155620999992000121906004+43360+028470FM-12+006499999V0203201N007012200019N0100001N1+00321+00111102061ADDAA112003091AY111061AY211061GF103991031051004501001001GJ101989IA1099IA2999+00109KA1120N+00281MD1310061+9999MW1021UA1M990109039REMSYN122AAXX  19061 15562 11497 33207 10032 20011 40206 53006 60032 70211 83500 222// 2//02 333 20028 55033 555 31001 92035 92437;
0156155620999992000121909004+43360+028470FM-12+006499999V0203601N004010042019N0200001N1+00421+00111102061ADDAY111031AY211031GF107991071051004501001001MD1410001+9999MW1031REMSYN082AAXX  19091 15562 41498 73604 10042 20011 40206 54000 70311 87500 555 92024 92428;
0211155620999992000121912004+43360+028470FM-12+006499999V0203601N005010042019N0200001N1+00481+00231101981ADDAA199000091AY111061AY211061GF106991061051004501001001MD1810081+9999MW1021UA1M990009019REMSYN094AAXX  19121 15562 31498 63605 10048 20023 40198 58008 70211 86500 222// 2//00 555 92013 92418;EQDQ01  00002PRCP99
0156155620999992000121915004+43360+028470FM-12+006499999V0203601N002010042019N0100001N1+00431+00041102051ADDAY121031AY221031GF106991051051004501001021MD1310071+9999MW1021REMSYN082AAXX  19151 15562 41497 63602 10043 20004 40205 53007 70222 85502 555 92013 92417;
0234155620999992000121918004+43360+028470FM-12+006499999V0203601N002012200019N0100001N1+00241-00101102011ADDAA199000091AY111061AY211061GF103991031051004501001001KA1120M+00551MD1810051+9999MW1011UA1M990009019REMSYN104AAXX  19181 15562 31497 33602 10024 21010 40201 58005 70111 83500 222// 2//00 333 10055 555 92014 92417;EQDQ01  00002PRCP99
0179155620999992000121921004+43360+028470FM-12+006499999V0203201N004012200019N0100001N1+00221-00121102011ADDAY101031AY201031GA1001+999999999GF100991001001999999001001MD1410001+9999MW1021UA1M999999019REMSYN076AAXX  19211 15562 41997 03204 10022 21012 40201 54000 70200 555 92013 92417;
0221155620999992000122000004+43360+028470FM-12+006499999V0203201N005012200019N0100001N1+00121-00061101981ADDAA199000091AY101061AY201061GA1001+999999999GF100991001001999999001001MD1810031+9999MW1021UA1M990009019REMSYN088AAXX  20001 15562 31997 03205 10012 21006 40198 58003 70200 222// 2//00 555 92013 92417;EQDQ01  00002PRCP99
0168155620999992000122003004+43360+028470FM-12+006499999V0203401N007010042019N0100001N1+00141-00071101971ADDAY111031AY211031GF108991081051004501999999MD1710041+9999MW1031REMSYN094AAXX  20031 15562 41497 83407 10014 21007 40197 57004 70311 885// 555 10032 29085 92024 92427;
0272155620999992000122006004+43360+028470FM-12+006499999V0203401N007010360019N0100001N1+00081-00221102061ADDAA199000091AY111061AY211061GF107991041051004501031081GJ101629IA1099IA2999+00009KA1120N+00081MD1310091+9999MW1021UA1M990059029REMSYN116AAXX  20061 15562 31497 73407 10008 21022 40206 53009 70211 84538 222// 2//01 333 20008 55027 555 31100 92024 92427;EQDQ01  00002PRCP99
0156155620999992000122009004+43360+028470FM-12+006499999V0203601N008010360019N0200001N1+00161+99999102221ADDAY121031AY221031GF106991021021004501051051MD1210161+9999MW1021REMSYN082AAXX  20091 15562 41498 63608 10016 20127 40222 52016 70222 82255 555 92035 92438;
0211155620999992000122012004+43360+028470FM-12+006499999V0203601N009012200019N0200001N1+00261-00571102241ADDAA199000091AY111061AY211061GF102991021001999999031001MD1210021+9999MW1011UA1M990109039REMSYN094AAXX  20121 15562 31998 23609 10026 21057 40224 52002 70111 82030 222// 2//02 555 92035 92438;EQDQ01  00002PRCP99
0156155620999992000122015004+43360+028470FM-12+006499999V0203601N009012200019N0200001N1+00041-00471102431ADDAY101031AY201031GF103991021021004501031001MD1210191+9999MW1021REMSYN082AAXX  20151 15562 41498 33609 10004 21047 40243 52019 70200 82230 555 92035 92438;
0234155620999992000122018004+43360+028470FM-12+006499999V0203401N008012200019N0200001N1-00061-00301102581ADDAA199000091AY101061AY201061GF103991021021004501031001KA1120M+00351MD1210151+9999MW1021UA1M990109039REMSYN104AAXX  20181 15562 31498 33408 11006 21030 40258 52015 70200 82230 222// 2//02 333 10035 555 92035 92438;EQDQ01  00002PRCP99
0142155620999992000122021004+43360+028470FM-12+006499999V0203401N009012200019N0200001N1-00071-00271999999ADDGA1001+999999999GF100991001001999999001001UA1M999999039REMSYN075AAXX  20211 15562 41998 03409 11007 21027 0271 52012 70200 555 92035 92438;
0221155620999992000122100004+43360+028470FM-12+006499999V0203201N009012200019N0200001N1-00101-00381102781ADDAA199000091AY101061AY201061GA1001+999999999GF100991001001999999001001MD1210071+9999MW1021UA1M990059039REMSYN088AAXX  21001 15562 31998 03209 11010 21038 40278 52007 70200 222// 2//01 555 92035 92438;EQDQ01  00002PRCP99
0204155620999992000122103004+43360+028470FM-12+006499999V0203201N007012200019N0200001N1-00301-00781102881ADDAY101031AY201031GA1001+999999999GF100991001001999999001001KA1999M+00061MD1210091+9999MW1021UA1M999999039REMSYN088AAXX  21031 15562 41998 03207 11030 21078 40288 52009 70200 555 10006 29071 92035 92438;
0234155620999992000122106004+43360+028470FM-12+006499999V0203201N007010360019N0200001N1-00301-00941102981ADDAA199000091AY111061AY211061GF105991021051004501031001KA1120N-00351MD1210101+9999MW1031UA1M990109039REMSYN104AAXX  21061 15562 31498 53207 11030 21094 40298 52010 70311 82530 222// 2//02 333 21035 555 92034 92438;EQDQ01  00002PRCP99
0156155620999992000122109004+43360+028470FM-12+006499999V0203401N005012200019N0200001N1-00101-00671103051ADDAY111031AY211031GF102991021021004501031001MD1210071+9999MW1011REMSYN082AAXX  21091 15562 41498 23405 11010 21067 40305 52007 70111 82230 555 92034 92438;
0211155620999992000122112004+43360+028470FM-12+006499999V0203601N006010042019N0200001N1-00101-00861103061ADDAA199000091AY111061AY211061GF105991051051004501001001MD1210011+9999MW1031UA1M990109039REMSYN094AAXX  21121 15562 31498 53606 11010 21086 40306 52001 70311 85500 222// 2//02 555 92034 92438;EQDQ01  00002PRCP99
0156155620999992000122115004+43360+028470FM-12+006499999V0203601N006012200019N0200001N1-00221-00941103091ADDAY111031AY211031GF104991041051004501001001MD1210031+9999MW1011REMSYN082AAXX  21151 15562 41498 43606 11022 21094 40309 52003 70111 84500 555 92034 92438;
0234155620999992000122118004+43360+028470FM-12+006499999V0203601N005010042019N0200001N1-00321-00821103101ADDAA199000091AY111061AY211061GF108991081051004501999999KA1120M-00051MD1210011+9999MW1031UA1M990109039REMSYN104AAXX  21181 15562 31498 83605 11032 21082 40310 52001 70311 885// 222// 2//02 333 11005 555 92034 92438;EQDQ01  00002PRCP99
0179155620999992000122121004+43360+028470FM-12+006499999V0203401N007012200019N0200001N1-00261-00821103161ADDAY111031AY211031GA1001+999999999GF100991001001999999001001MD1210061+9999MW1011UA1M999999039REMSYN076AAXX  21211 15562 41998 03407 11026 21082 40316 52006 70111 555 92035 92438;
0211155620999992000122200004+43360+028470FM-12+006499999V0203401N008010042019N0200001N1-00301-00901103021ADDAA199000091AY111061AY211061GF108991081051004501999999MD1810151+9999MW1031UA1M990109039REMSYN094AAXX  22001 15562 31498 83408 11030 21090 40302 58015 70311 885// 222// 2//02 555 92035 92438;EQDQ01  00002PRCP99
0204155620999992000122203004+43360+028470FM-12+006499999V0203401N004012200019N0200001N1-00541-00941103021ADDAY111031AY211031GA1001+999999999GF100991001001999999001001KA1999M-00241MD1410001+9999MW1011UA1M999999039REMSYN088AAXX  22031 15562 41998 03404 11054 21094 40302 54000 70111 555 11024 29061 92035 92438;
0272155620999992000122206004+43360+028470FM-12+006499999V0203201N008012200019N0200001N1-00561-00981102861ADDAA199000091AY111061AY211061GF106991021051004501001011GJ102889IA1149IA2999-00709KA1120N-00581MD1810161+9999MW1031UA1M990109039REMSYN116AAXX  22061 15562 31498 63208 11056 21098 40286 58016 70311 82501 222// 2//02 333 21058 55048 555 34107 92035 92438;EQDQ01  00002PRCP99
0156155620999992000122209004+43360+028470FM-12+006499999V0203601N002012200019N0200001N1-00201-00821102901ADDAY111031AY211031GF103991021051004501001021MD1310041+9999MW1011REMSYN082AAXX  22091 15562 41498 33602 11020 21082 40290 53004 70111 82502 555 92025 92428;
0211155620999992000122212004+43360+028470FM-12+006499999V0203601N006010042019N0200001N1-00101-00671102711ADDAA199000091AY111061AY211061GF107991071051004501001001MD1810171+9999MW1031UA1M990109039REMSYN094AAXX  22121 15562 31498 73606 11010 21067 40271 58017 70311 87500 222// 2//02 555 92034 92438;EQDQ01  00002PRCP99
0156155620999992000122215004+43360+028470FM-12+006499999V0203601N009012200019N0200001N1-00161-00671102681ADDAY111031AY211031GF102991021051004501001001MD1710031+9999MW1011REMSYN082AAXX  22151 15562 41498 23609 11016 21067 40268 57003 70111 82500 555 92035 92438;
0234155620999992000122218004+43360+028470FM-12+006499999V0203601N010010042019N0200001N1-00181-00641102701ADDAA199000091AY111061AY211061GF107991071051004501001001KA1120M-00101MD1310021+9999MW1031UA1M990109039REMSYN104AAXX  22181 15562 31498 73610 11018 21064 40270 53002 70311 87500 222// 2//02 333 11010 555 92035 92438;EQDQ01  00002PRCP99
0179155620999992000122221004+43360+028470FM-12+006499999V0203601N010012200019N0200001N1-00181-00471102671ADDAY111031AY211031GA1001+999999999GF100991001001999999001001MD1810031+9999MW1011UA1M999999039REMSYN076AAXX  22211 15562 41998 03610 11018 21047 40267 58003 70111 555 92035 92438;
0221155620999992000122300004+43360+028470FM-12+006499999V0203601N010012200019N0100001N1-00341-00601102691ADDAA199000091AY111061AY211061GA1001+999999999GF100991001001999999001001MD1310021+9999MW1021UA1M990109039REMSYN088AAXX  23001 15562 31997 03610 11034 21060 40269 53002 70211 222// 2//02 555 92035 92437;EQDQ01  00002PRCP99
0203155620999992000122303004+43360+028470FM-12+006499999V0203601N012012200019N0100001N1-00461-00671102631ADDAY101031AY201031GA1001+999999999GF100991001001999999001001KA1999M-00241MD1810071+9999MW1021UA1M999999039REMSYN087AAXX  23031 15562 41997 03612 11046 21067 40263 58007 70200 555 11024 2906 92036 92437;
0272155620999992000122306004+43360+028470FM-12+006499999V0203601N010012200019N0200001N1-00501-00711102561ADDAA199000091AY101061AY201061GF103991031051004501001001GJ102589IA1149IA2999-00609KA1120N-00541MD1710071+9999MW1021UA1M990109039REMSYN116AAXX  23061 15562 31498 33610 11050 21071 40256 57007 70200 83500 222// 2//02 333 21054 55043 555 34106 92036 92438;EQDQ01  00002PRCP99
0156155620999992000122309004+43360+028470FM-12+006499999V0203601N010012200019N0200001N1-00181-00781102541ADDAY101031AY201031GF103991031051004501001001MD1710011+9999MW1021REMSYN082AAXX  23091 15562 41498 33610 11018 21078 40254 57001 70200 83500 555 92035 92438;
0211155620999992000122312004+43360+028470FM-12+006499999V0203601N008012200019N0200001N1+00001-00861102241ADDAA199000091AY101061AY201061GF102991021051004501001001MD1710301+9999MW1021UA1M990109039REMSYN094AAXX  23121 15562 31498 23608 10000 21086 40224 57030 70200 82500 222// 2//02 555 92035 92438;EQDQ01  00002PRCP99
0156155620999992000122315004+43360+028470FM-12+006499999V0203201N006012200019N0100001N1-00121-00901102191ADDAY101031AY201031GF102991021051004501001001MD1710051+9999MW1021REMSYN082AAXX  23151 15562 41497 23206 11012 21090 40219 57005 70200 82500 555 92035 92437;
0244155620999992000122318004+43360+028470FM-12+006499999V0203201N009012200019N0100001N1-00281-00861102141ADDAA199000091AY101061AY201061GA1001+999999999GF100991001001999999001001KA1120M+00031MD1710051+9999MW1021UA1M990109039REMSYN098AAXX  23181 15562 31997 03209 11028 21086 40214 57005 70200 222// 2//02 333 10003 555 92035 92438;EQDQ01  00002PRCP99
0156155620999992000122321004+43360+028470FM-12+006499999V0203201N008010042019N0100001N1-00301-00781101991ADDAY111031AY211031GF107991071051004501001001MD1710151+9999MW1031REMSYN082AAXX  23211 15562 41497 73208 11030 21078 40199 57015 70311 87500 555 92035 92437;
0221155620999992000122400004+43360+028470FM-12+006499999V0203201N008012200019N0100001N1-00201-00671101841ADDAA199000091AY111061AY211061GA1001+999999999GF100991001001999999001001MD1710151+9999MW1011UA1M990109039REMSYN088AAXX  24001 15562 31997 03208 11020 21067 40184 57015 70111 222// 2//02 555 92035 92437;EQDQ01  00002PRCP99
0223155620999992000122403004+43360+028470FM-12+006499999V0203201N003012200019N0200001N1-00201-00821101811ADDAY101031AY201031GA1001+999999999GF100991001001999999001001KA1999M+99999MD1710031+9999MW1021UA1M999999029REMSYN088AAXX  24031 15562 41998 03203 11020 21082 40181 57003 70200 555 11026 29069 92025 92428;EQDQ01 -00262ATMX  
0272155620999992000122406004+43360+028470FM-12+006499999V0203201N003012200019N0200001N1-00061-00541101771ADDAA199000091AY101061AY201061GF101991011051004501001001GJ103849IA1149IA2999-00509KA1120N-00321MD1710031+9999MW1021UA1M990059029REMSYN116AAXX  24061 15562 31498 13203 11006 21054 40177 57003 70200 81500 222// 2//01 333 21032 55064 555 34105 92022 92428;EQDQ01  00002PRCP99
0179155620999992000122409004+43360+028470FM-12+006499999V0201601N007012200019N0200001N1+00271-00361101751ADDAY101031AY201031GA1001+999999999GF100991001001999999001001MD1710011+9999MW1021UA1M999999029REMSYN076AAXX  24091 15562 41998 01607 10027 21036 40175 57001 70200 555 92024 92428;
0221155620999992000122412004+43360+028470FM-12+006499999V0201801N005012200019N0200001N1+00541-00441101501ADDAA199000091AY101061AY201061GA1001+999999999GF100991001001999999001001MD1710241+9999MW1021UA1M990059029REMSYN088AAXX  24121 15562 31998 01805 10054 21044 40150 57024 70200 222// 2//01 555 92024 92428;EQDQ01  00002PRCP99
0179155620999992000122415004+43360+028470FM-12+006499999V0201801N004012200019N0200001N1+00641-00471101461ADDAY101031AY201031GA1001+999999999GF100991001001999999001001MD1710041+9999MW1021UA1M999999029REMSYN076AAXX  24151 15562 41998 01804 10064 21047 40146 57004 70200 555 92024 92428;
0244155620999992000122418004+43360+028470FM-12+006499999V0201801N007012200019N0200001N1+00601-00441101401ADDAA199000091AY101061AY201061GA1001+999999999GF100991001001999999001001KA1120M+00721MD1710061+9999MW1021UA1M990059029REMSYN098AAXX  24181 15562 31998 01807 10060 21044 40140 57006 70200 222// 2//01 333 10072 555 92024 92428;EQDQ01  00002PRCP99
0179155620999992000122421004+43360+028470FM-12+006499999V0202301N005012200019N0200001N1+00541-00381101481ADDAY101031AY201031GA1001+999999999GF100991001001999999001001MD1310081+9999MW1021UA1M999999029REMSYN076AAXX  24211 15562 41998 02305 10054 21038 40148 53008 70200 555 92024 92428;
0221155620999992000122500004+43360+028470FM-12+006499999V0202301N005012200019N0200001N1+00501-00361101421ADDAA199000091AY101061AY201061GA1001+999999999GF100991001001999999001001MD1810061+9999MW1021UA1M990059029REMSYN088AAXX  25001 15562 31998 02305 10050 21036 40142 58006 70200 222// 2//01 555 92024 92428;EQDQ01  00002PRCP99
0223155620999992000122503004+43360+028470FM-12+006499999V0202301N010012200019N0200001N1+00641-00301101361ADDAY101031AY201031GA1001+999999999GF100991001001999999001001KA1999M+99999MD1710061+9999MW1021UA1M999999029REMSYN088AAXX  25031 15562 41998 02310 10064 21030 40136 57006 70200 555 10041 29058 92025 92428;EQDQ01 +00412ATMX  
0272155620999992000122506004+43360+028470FM-12+006499999V0202301N009019999999N0200001N1+00541-00101101221ADDAA199000091AY111061AY211061GF106991001001999999001021GJ104329IA1019IA2999+00309KA1120N+00461MD1710141+9999MW1031UA1M990059029REMSYN116AAXX  25061 15562 31998 62309 10054 21010 40122 57014 70311 80002 222// 2//01 333 20046 55072 555 30003 92025 92428;EQDQ01  00002PRCP99
0156155620999992000122509004+43360+028470FM-12+006499999V0202301N012012200019N0200001N1+00661-00441101331ADDAY111031AY211031GF102991001001999999001021MD1310111+9999MW1011REMSYN082AAXX  25091 15562 41998 22312 10066 21044 40133 53011 70111 80002 555 92036 92438;
0211155620999992000122512004+43360+028470FM-12+006499999V0202301N009019999999N0200001N1+00781-00241101201ADDAA199000091AY111061AY211061GF105991001001999999001051MD1810131+9999MW1031UA1M990109039REMSYN094AAXX  25121 15562 31998 52309 10078 21024 40120 58013 70311 80005 222// 2//02 555 92036 92438;EQDQ01  00002PRCP99
0156155620999992000122515004+43360+028470FM-12+006499999V0202301N009019999999N0200001N1+00861+00191101181ADDAY121031AY221031GF106991021001999999031051MD1710011+9999MW1021REMSYN082AAXX  25151 15562 41998 62309 10086 20019 40118 57001 70222 82035 555 92035 92438;
0244155620999992000122518004+43360+028470FM-12+006499999V0202001N009012200019N0200001N1+00901+00451101151ADDAA199000091AY111061AY211061GA1001+999999999GF100991001001999999001001KA1120M+00951MD1710031+9999MW1011UA1M990109039REMSYN098AAXX  25181 15562 31998 02009 10090 20045 40115 57003 70111 222// 2//02 333 10095 555 92035 92438;EQDQ01  00002PRCP99
0179155620999992000122521004+43360+028470FM-12+006499999V0202001N012012200019N0200001N1+00841+00531101051ADDAY101031AY201031GA1001+999999999GF100991001001999999001001MD1710101+9999MW1021UA1M999999039REMSYN076AAXX  25211 15562 41998 02012 10084 20053 40105 57010 70200 555 92036 92438;
0221155620999992000122600004+43360+028470FM-12+006499999V0202301N012012200019N0200001N1+00841+00531100971ADDAA199000091AY101061AY201061GA1001+999999999GF100991001001999999001001MD1710081+9999MW1021UA1M990109039REMSYN088AAXX  26001 15562 31998 02312 10084 20053 40097 57008 70200 222// 2//02 555 92036 92438;EQDQ01  00002PRCP99
0223155620999992000122603004+43360+028470FM-12+006499999V0202301N012012200019N0200001N1+00881+00431100951ADDAY101031AY201031GA1001+999999999GF100991001001999999001001KA1999M+99999MD1710021+9999MW1021UA1M999999039REMSYN088AAXX  26031 15562 41998 02312 10088 20043 40095 57002 70200 555 10078 29063 92036 92438;EQDQ01 +00782ATMX  
0272155620999992000122606004+43360+028470FM-12+006499999V0202301N010019999999N0200001N1+00911+00581100971ADDAA199000091AY111061AY211061GF106991021001999999011051GJ103909IA1019IA2999+00509KA1120N+00801MD1310021+9999MW1031UA1M990109039REMSYN116AAXX  26061 15562 31998 62310 10091 20058 40097 53002 70311 82015 222// 2//02 333 20080 55065 555 30005 92036 92438;EQDQ01  00002PRCP99
0156155620999992000122609004+43360+028470FM-12+006499999V0202301N010019999999N0200001N1+00961+00711100951ADDAY121031AY221031GF106991021001999999011051MD1810021+9999MW1021REMSYN082AAXX  26091 15562 41998 62310 10096 20071 40095 58002 70222 82015 555 92035 92438;
0211155620999992000122612004+43360+028470FM-12+006499999V0202301N010019999999N0200001N1+01031+00851100711ADDAA199000091AY121061AY221061GF106991021031999999001011MD1710231+9999MW1021UA1M999999039REMSYN094AAXX  26121 15562 31998 62310 10103 20085 40071 57023 70222 82301 222// 2//02 555 92035 92438;EQDQ01  00002PRCP99
0156155620999992000122615004+43360+028470FM-12+006499999V0202301N010010042019N0200001N1+01101+00941100681ADDAY121031AY221031GF105991051051004501001001MD1710031+9999MW1021REMSYN082AAXX  26151 15562 41498 52310 10110 20094 40068 57003 70222 85500 555 92035 92438;
0234155620999992000122618004+43360+028470FM-12+006499999V0201801N010010042019N0200001N1+01121+00841100641ADDAA199000091AY121061AY221061GF108991081051004501999999KA1120M+01161MD1710041+9999MW1021UA1M999999039REMSYN104AAXX  26181 15562 31498 81810 10112 20084 40064 57004 70222 885// 222// 2//02 333 10116 555 92035 92438;EQDQ01  00002PRCP99
0156155620999992000122621004+43360+028470FM-12+006499999V0202301N012010042019N0200001N1+01161+00901100531ADDAY121031AY221031GF106991061051004501001001MD1710111+9999MW1021REMSYN082AAXX  26211 15562 41498 62312 10116 20090 40053 57011 70222 86500 555 92036 92438;
0221155620999992000122700004+43360+028470FM-12+006499999V0202301N012012200019N0200001N1+01101+00941100531ADDAA199000091AY111061AY211061GA1001+999999999GF100991001001999999001001MD1410001+9999MW1011UA1M990109039REMSYN088AAXX  27001 15562 31998 02312 10110 20094 40053 54000 70111 222// 2//02 555 92036 92438;EQDQ01  00002PRCP99
0223155620999992000122703004+43360+028470FM-12+006499999V0202301N010012200019N0200001N1+01121+01031100571ADDAY101031AY201031GA1001+999999999GF100991001001999999001001KA1999M+99999MD1310041+9999MW1021UA1M999999039REMSYN088AAXX  27031 15562 41998 02310 10112 20103 40057 53004 70200 555 10104 29083 92036 92438;EQDQ01 +01042ATMX  
0272155620999992000122706004+43360+028470FM-12+006499999V0202301N008012200019N0200001N1+01061+00901100761ADDAA199000091AY101061AY201061GF104991001001999999001011GJ101509IA1019IA2999+00509KA1120N+01041MD1210181+9999MW1021UA1M990109039REMSYN116AAXX  27061 15562 31998 42308 10106 20090 40076 52018 70200 80001 222// 2//02 333 20104 55025 555 30005 92035 92438;EQDQ01  00002PRCP99
0156155620999992000122709004+43360+028470FM-12+006499999V0202301N008012200019N0200001N1+01101+00861100861ADDAY101031AY201031GF101991011051999999001001MD1210101+9999MW1021REMSYN082AAXX  27091 15562 41998 12308 10110 20086 40086 52010 70200 81500 555 92035 92438;
0211155620999992000122712004+43360+028470FM-12+006499999V0201801N012012200019N0200001N1+01161+00971100651ADDAA199000091AY101061AY201061GF102991021051004501001001MD1810181+9999MW1021UA1M990159049REMSYN094AAXX  27121 15562 31498 21812 10116 20097 40065 58018 70200 82500 222// 2//03 555 92046 92448;EQDQ01  00002PRCP99
0156155620999992000122715004+43360+028470FM-12+006499999V0201801N012010042019N0200001N1+01321+00891100731ADDAY111031AY211031GF107991071051004501001001MD1310091+9999MW1031REMSYN082AAXX  27151 15562 41498 71812 10132 20089 40073 53009 70311 87500 555 92046 92448;
0234155620999992000122718004+43360+028470FM-12+006499999V0201801N012010042019N0200001N1+01341+00861100821ADDAA199000091AY111061AY211061GF108991081051004501999999KA1120M+01361MD1210061+9999MW1021UA1M990159049REMSYN104AAXX  27181 15562 31498 81812 10134 20086 40082 52006 70211 885// 222// 2//03 333 10136 555 92046 92448;EQDQ01  00002PRCP99
0213155620999992000122721004+43360+028470FM-12+006499999V0202301N012010042019N0200001N1+01261+00951100871ADDAY121031AY221031GF106991061051004501001001MD1210051+9999MW1201OA149902201OA259902001UA1M999999049REMSYN104AAXX  27211 15562 41498 62312 10126 20095 40087 52005 72022 86500 333 91122 91220 91518 555 92046 92448;
0236155620999992000122800004+43360+028470FM-12+006499999V0201801N012010042019N0200001N1+01221+00941100731ADDAA199000021AY121061AY221061GF106991061051004501001001MD1810141+9999MW1021OA149902201OA259902001UA1M999999039REMSYN116AAXX  28001 15562 31498 61812 10122 20094 40073 58014 70222 86500 222// 2//02 333 91122 91220 91518 555 92036 92438;
0287155620999992000122806004+43360+028470FM-12+006499999V0201801N018010042019N0200001N1+01221+00811100641ADDAA199000021AY121061AY221061GF108991081051004501999999GJ103909IA1019IA2999+00909KA1120N+01201MD1710071+9999MW1021OA149902001OA259901801UA1M999999049REMSYN128AAXX  28061 15562 31498 81818 10122 20081 40064 57007 70222 885// 222// 333 20120 55065 91120 91218 91518 555 30009 92048 92448;
0213155620999992000122809004+43360+028470FM-12+006499999V0201801N018010042019N0200001N1+01321+00761100661ADDAY121031AY221031GF108991081051004501999999MD1310031+9999MW1021OA149902001OA259901801UA1M999999049REMSYN104AAXX  28091 15562 41498 81818 10132 20076 40066 53003 70222 885// 333 91120 91218 91518 555 92048 92448;
0255155620999992000122812004+43360+028470FM-12+006499999V0201801N018010042019N0200001N1+01301+00781100561ADDAA199000091AY121061AY221061GF108991081051004501999999MD1810101+9999MW1021OA149902001OA259901801UA1M999999049REMSYN116AAXX  28121 15562 31498 81818 10130 20078 40056 58010 70222 885// 222// 2//03 333 91120 91218 91518 555 92048 92448;EQDQ01  00002PRCP99
0213155620999992000122815004+43360+028470FM-12+006499999V0201801N018010042019N0200001N1+01301+00731100521ADDAY121031AY221031GF108991081051004501999999MD1710041+9999MW1021OA149902001OA259901801UA1M999999049REMSYN104AAXX  28151 15562 41498 81818 10130 20073 40052 57004 70222 885// 333 91120 91218 91518 555 92048 92448;
0274155620999992000122818004+43360+028470FM-12+006499999V0201801N018010042019N0200001N1+01341+00781100521ADDAA199000091AY121061AY221061GF108991081051004501999999KA1120M+01361MD1410001+9999MW1021OA149902001OA259901801UA1M999999049REMSYN122AAXX  28181 15562 31498 81818 10134 20078 40052 54000 70222 885// 222// 2//03 333 10136 91120 91218 91518 555 92048 92448;EQDQ01  00002PRCP99
0213155620999992000122821004+43360+028470FM-12+006499999V0202901N020010042019N0200001N1+01481+00901100631ADDAY121031AY221031GF108991081051004501999999MD1310111+9999MW1021OA149902201OA259902001UA1M999999049REMSYN104AAXX  28211 15562 41498 82920 10148 20090 40063 53011 70222 885// 333 91122 91220 91527 555 92049 92448;
0255155620999992000122900004+43360+028470FM-12+006499999V0202301N020010042019N0200001N1+01401+01021100561ADDAA199000091AY121061AY221061GF108991081051004501999999MD1810131+9999MW1021OA149902201OA259902001UA1M999999049REMSYN116AAXX  29001 15562 31498 82320 10140 20102 40056 58013 70222 885// 222// 2//03 333 91122 91220 91523 555 92049 92448;EQDQ01  00002PRCP99
0238155620999992000122903004+43360+028470FM-12+006499999V0202301N012010042019N0200001N1+01301+00991100491ADDAY121031AY221031GF108991081051004501999999KA1999M+01371MD1710011+9999MW1021OA149902201OA259902001UA1M999999049REMSYN116AAXX  29031 15562 41498 82312 10130 20099 40049 57001 70222 885// 333 91122 91220 91523 555 10137 29070 92049 92448;
0312155620999992000122906004+43360+028470FM-12+006499999V0201801N012010042019N0200001N1+01201+00971100601ADDAA199000091AY121061AY221061GF108991081051004501999999GJ100009IA1019IA2999+01009KA1120N+01201MD1310101+9999MW1021OA149902201OA259902001UA1M999999039REMSYN134AAXX  29061 15562 31498 81812 10120 20097 40060 53010 70222 885// 222// 2//02 333 20120 55000 91122 91220 91523 555 30010 92036 92438;EQDQ01  00002PRCP99
0156155620999992000122909004+43360+028470FM-12+006499999V0201801N006012200019N0200001N1+01221+00811100641ADDAY111031AY211031GF103991001001999999001021MD1210051+9999MW1011REMSYN082AAXX  29091 15562 41998 31806 10122 20081 40064 52005 70111 80002 555 92036 92438;
0211155620999992000122912004+43360+028470FM-12+006499999V0202001N012012200019N0200001N1+01261+00771100331ADDAA199000091AY111061AY211061GF102991001001999999001011MD1810311+9999MW1021UA1M990109039REMSYN094AAXX  29121 15562 31998 22012 10126 20077 40033 58031 70211 80001 222// 2//02 555 92036 92438;EQDQ01  00002PRCP99
0156155620999992000122915004+43360+028470FM-12+006499999V0201801N009010360019N0200001N1+01101+00861100391ADDAY111031AY211031GF107991041051004501031021MD1710011+9999MW1031REMSYN082AAXX  29151 15562 41498 71809 10110 20086 40039 57001 70311 84532 555 92036 92438;
0234155620999992000122918004+43360+028470FM-12+006499999V0201801N007010042019N0100001N1+01121+00971100321ADDAA199000091AY111061AY211061GF106991061051004501001001KA1120M+01371MD1710071+9999MW1021UA1M990059029REMSYN104AAXX  29181 15562 31497 61807 10112 20097 40032 57007 70211 86500 222// 2//01 333 10137 555 92025 92427;EQDQ01  00002PRCP99
0179155620999992000122921004+43360+028470FM-12+006499999V0201801N005012200019N0100001N1+01081+00921100291ADDAY111031AY211031GA1001+999999999GF100991001001999999001001MD1710031+9999MW1011UA1M999999029REMSYN076AAXX  29211 15562 41997 01805 10108 20092 40029 57003 70111 555 92024 92427;
0221155620999992000123000004+43360+028470FM-12+006499999V0201801N005012200019N0100001N1+01001+00801100231ADDAA199000091AY111061AY211061GA1001+999999999GF100991001001999999001001MD1710061+9999MW1021UA1M990059029REMSYN088AAXX  30001 15562 31997 01805 10100 20080 40023 57006 70211 222// 2//01 555 92024 92427;EQDQ01  00002PRCP99
0168155620999992000123003004+43360+028470FM-12+006499999V0201801N007010042019N0200001N1+01221+00681100111ADDAY111031AY211031GF108991081051004501999999MD1710121+9999MW1031REMSYN094AAXX  30031 15562 41498 81807 10122 20068 40011 57012 70311 885// 555 10120 29078 92024 92428;
0272155620999992000123006004+43360+028470FM-12+006499999V0201801N012010042019N0200001N1+01141+00771100081ADDAA199000091AY111061AY211061GF108991081051004501999999GJ103729IA1019IA2999+00809KA1120N+00961MD1710031+9999MW1021UA1M990109039REMSYN116AAXX  30061 15562 31498 81812 10114 20077 40008 57003 70211 885// 222// 2//02 333 20096 55062 555 30008 92036 92438;EQDQ01  00002PRCP99
0156155620999992000123009004+43360+028470FM-12+006499999V0201801N009012200019N0200001N1+01121+00881100141ADDAY111031AY211031GF103991021001999999031021MD1310061+9999MW1011REMSYN082AAXX  30091 15562 41998 31809 10112 20088 40014 53006 70111 82032 555 92036 92438;
0211155620999992000123012004+43360+028470FM-12+006499999V0201801N012010360019N0200001N1+01131+00821100001ADDAA199000091AY111061AY211061GF106991021051004501031051MD1810141+9999MW1031UA1M990109039REMSYN094AAXX  30121 15562 31498 61812 10113 20082 40000 58014 70311 82535 222// 2//02 555 92036 92438;EQDQ01  00002PRCP99
0156155620999992000123015004+43360+028470FM-12+006499999V0201801N012010360019N0200001N1+01161+00841099991ADDAY121031AY221031GF108991031051004501031999MD1710011+9999MW1021REMSYN082AAXX  30151 15562 41498 81812 10116 20084 49999 57001 70222 8353/ 555 92036 92438;
0221155620999992000123018004+43360+028470FM-12+006499999V0201801N008010042019N0200001N1+01061+00901100091ADDAA112000591AY161061AY221061GF108991081001004501021999KA1120M+01251MD1310101+9999MW1611UA1M990109039REMSYN110AAXX  30181 15562 11498 81808 10106 20090 40009 53010 69942 76162 8802/ 222// 2//02 333 10125 555 92036 92438;
0156155620999992000123021004+43360+028470FM-12+006499999V0201801N007010042019N0200001N1+01031+00971100181ADDAY161031AY281031GF108991081051004501999999MD1210071+9999MW1021REMSYN082AAXX  30211 15562 41498 81807 10103 20097 40018 52007 70268 885// 555 92035 92438;
0198155620999992000123100004+43360+028470FM-12+006499999V0202701N007012200019N0200001N1+00961+00511100401ADDAA106001091AY161061AY211061GF103991031051999999001001MD1210221+9999MW1011UA1M990109039REMSYN100AAXX  31001 15562 11998 32707 10096 20051 40040 52022 60011 70161 83500 222// 2//02 555 92034 92438;
0221155620999992000123103004+43360+028470FM-12+006499999V0202701N009012200019N0200001N1+00841+00231100611ADDAA124002091AY101031AY201031GA1001+999999999GF100991001001999999001001KA1999M+01101MD1210211+9999MW1021UA1M999999039REMSYN094AAXX  31031 15562 41998 02709 10084 20023 40061 52021 70200 555 10110 29083 60024 92035 9438/;
0299155620999992000123106004+43360+028470FM-12+006499999V0202701N018012200019N0200001N1+00701-00021100851ADDAA112002091AY101061AY201061GF102991021021004501001001GJ102109IA1099IA2999+00509KA1120N+00661MD1210121+9999MW1021OA149902001OA259901801UA1M990109039REMSYN140AAXX  31061 15562 11498 22718 10070 21002 40085 52012 60022 70200 82200 222// 2//02 333 20066 55035 91120 91218 91527 555 31005 92039 92438;
0213155620999992000123109004+43360+028470FM-12+006499999V0202701N018012200019N0200001N1+00801+00041100991ADDAY101031AY201031GF102991001001999999001021MD1210141+9999MW1021OA149902001OA259901801UA1M999999039REMSYN104AAXX  31091 15562 41998 22718 10080 20004 40099 52014 70200 80002 333 91120 91218 91527 555 92039 92438;
0255155620999992000123112004+43360+028470FM-12+006499999V0202701N007012200019N0200001N1+00981+00191101211ADDAA199000091AY101061AY201061GF104991001001999999001011MD1210231+9999MW1021OA149902001OA259901801UA1M990109039REMSYN116AAXX  31121 15562 31998 42707 10098 20019 40121 52023 70200 80001 222// 2//02 333 91120 91218 91527 555 92039 92438;EQDQ01  00002PRCP99
0156155620999992000123115004+43360+028470FM-12+006499999V0202901N004019999999N0200001N1+00801-00071101421ADDAY111031AY211031GF106991031001999999031011MD1210201+9999MW1031REMSYN082AAXX  31151 15562 41998 62904 10080 21007 40142 52020 70311 83031 555 92014 92418;
0234155620999992000123118004+43360+028470FM-12+006499999V0200501N004010042019N0200001N1+00681-00121101611ADDAA199000091AY111061AY211061GF106991061051004501001001KA1120M+01041MD1210191+9999MW1021UA1M990009019REMSYN104AAXX  31181 15562 31498 60504 10068 21012 40161 52019 70211 86500 222// 2//00 333 10104 555 92013 92418;EQDQ01  00002PRCP99
0156155620999992000123121004+43360+028470FM-12+006499999V0200501N004010042019N0200001N1+00641+00151101721ADDAY121031AY221031GF108991081051004501999999MD1210111+9999MW1021REMSYN082AAXX  31211 15562 41498 80504 10064 20015 40172 52011 70222 885// 555 92013 92418;
