0112227780999992000060609004+62230+045030FM-12+005399999V0201301N002010300019N0600001N1+01231+00381100261ADDGF107991041021012501031011MD1310021+9999REMSYN060AAXX  06091 22778 42686 71302 10123 20038 40026 53002 84231;
0161227780999992000060612004+62230+045030FM-12+005399999V0203501N006010300019N0600001N1+01161+00481100341ADDAY181061AY221061GF107991041041008001031001MA1999999099651MD1210081+9999MW1021REMSYN072AAXX  06121 22778 41586 73506 10116 20048 39965 40034 52008 70282 84430;
0174227780999992000060618004+62230+045030FM-12+005399999V0203301N005010048019N0600001N1+00641+00201100721ADDAA100000891GA1071+004809059GF108991071051004501071999KA1120M+01471MD1210181+9999REMSYN082AAXX  06181 22778 12486 83305 10064 20020 40072 52018 69980 8757/ 333 10147 87616;
0159227780999992000060700004+62230+045030FM-12+005399999V0203001N002010033019N0600001N1+00481+00331101061ADDGA1071+003309059GF107991071051004501999999MA1999999100351MD1210171+9999REMSYN076AAXX  07001 22778 42486 73002 10048 20033 30035 40106 52017 875// 333 87611;
0182227780999992000060703004+62230+045030FM-12+005399999V0203201N004010030019N0600001N1+00541+00301101231ADDAA199000091GA1071+003009059GF107991071051004501999999GJ103369MD1210161+9999REMSYN076AAXX  07031 22778 32486 73204 10054 20030 40123 52016 875// 333 55056 87610;EQDQ01  00002PRCP99
0138227780999992000060709004+62230+045030FM-12+005399999V0203401N004010060019N0600001N1+00671+00211101481ADDGA1061+006009059GF108991061051008001031999MD1210121+9999REMSYN070AAXX  07091 22778 42586 83404 10067 20021 40148 52012 8653/ 333 86620;
0133227780999992000060712004+62230+045030FM-12+005399999V0209999V001012200019N0600001N1+01001+00291101511ADDGF102991021001999999031001MA1999999100801MD1210041+9999REMSYN066AAXX  07121 22778 42986 29901 10100 20029 30080 40151 52004 82030;
0165227780999992000060718004+62230+045030FM-12+005399999V0202601N001019999999N0600001N1+01091+00401101441ADDAA199000091GF106991001001999999001011KA1999M+01411MD1310041+9999REMSYN070AAXX  07181 22778 32986 62601 10109 20040 40144 53004 80001 333 10141;EQDQ01  00002PRCP99
0133227780999992000060800004+62230+045030FM-12+005399999V0209999C000019999999N0600001N1-00041-00161101551ADDGF105991001001999999001011MA1999999100821MD1210071+9999REMSYN066AAXX  08001 22778 42986 50000 11004 21016 30082 40155 52007 80001;
0152227780999992000060803004+62230+045030FM-12+005399999V0209999C000012200019N0600001N1+00471+00271101541ADDAA199000091GF103991021061001501001011MD1410001+9999REMSYN070AAXX  08031 22778 32286 30000 10047 20027 40154 54000 82601 333 55069;EQDQ01  00002PRCP99
0112227780999992000060809004+62230+045030FM-12+005399999V0201701N006010300019N0600001N1+01581+00401101101ADDGF107991011011012501031091MD1710201+9999REMSYN060AAXX  08091 22778 42686 71706 10158 20040 40110 57020 81139;
0133227780999992000060812004+62230+045030FM-12+005399999V0201701N007010300019N0600001N1+01771+00361100801ADDGF108991011011012501071061MA1999999100121MD1710291+9999REMSYN066AAXX  08121 22778 42686 81707 10177 20036 30012 40080 57029 81176;
0174227780999992000060818004+62230+045030FM-12+005399999V0201101N005010300019N0140001N1+01091+00901100531ADDAA199000021AY161061AY221061GF108991021071004501071999KA1999M+01831MD1710121+9999MW1611REMSYN076AAXX  08181 22778 31464 81105 10109 20090 40053 57012 76162 8277/ 333 10183;
0187227780999992000060900004+62230+045030FM-12+005399999V0201701N003010021019N0120001N1+01081+01001099911ADDAY161061AY251061GA1061+002109069GF108991061071002501071999MA1999999099221MD1710191+9999MW1611REMSYN082AAXX  09001 22778 41362 81703 10108 20100 39922 49991 57019 76165 8677/ 333 86707;
0180227780999992000060903004+62230+045030FM-12+005399999V0202101N003010069019N0300001N1+01141+00981099891ADDAY161031AY221031GA1051+006909059GF108991051051008001071999GJ106429MD1710011+9999MW1021REMSYN082AAXX  09031 22778 /1580 82103 10114 20098 49989 57001 70262 8557/ 333 55107 85623;
0112227780999992000060909004+62230+045030FM-12+005399999V0209999C000010300019N0600001N1+01421+00921099961ADDGF108991031021008001031011MD1410001+9999REMSYN060AAXX  09091 22778 42586 80000 10142 20092 49996 54000 83231;
0161227780999992000060912004+62230+045030FM-12+005399999V0209999C000010300019N0600001N1+01541+01001099941ADDAY181061AY221061GF108991031021008001071999MA1999999099261MD1810021+9999MW1021REMSYN072AAXX  09121 22778 41586 80000 10154 20100 39926 49994 58002 70282 8327/;
0202227780999992000060918004+62230+045030FM-12+005399999V0202501N003010060019N0600001N1+01411+00841099881ADDAA100003091AY181061AY221061GA1061+006009099GF107991061031008001031001KA1120M+01611MD1410001+9999MW1801REMSYN088AAXX  09181 22778 11586 72503 10141 20084 49988 54000 60030 78082 86330 333 10161 86920;
0187227780999992000061000004+62230+045030FM-12+005399999V0203301N006010036019N0090001N1+00861+00581100061ADDAY181061AY221061GA1081+003609099GF108991081031004501999999MA1999999099371MD1210071+9999MW1801REMSYN082AAXX  10001 22778 41459 83306 10086 20058 39937 40006 52007 78082 883// 333 88912;
0180227780999992000061003004+62230+045030FM-12+005399999V0203501N007010051019N0120001N1+00521+00331100491ADDAY181031AY221031GA1081+005109099GF108991081031004501999999GJ102769MD1210411+9999MW1801REMSYN082AAXX  10031 22778 /1462 83507 10052 20033 40049 52041 78082 883// 333 55046 88917;
0133227780999992000061012004+62230+045030FM-12+005399999V0203401N008010300019N0600001N1+01041+00021101361ADDGF106991031021012501031001MA1999999100051MD1210181+9999REMSYN066AAXX  10121 22778 42686 63408 10104 20002 30005 40136 52018 83230;
0162227780999992000061018004+62230+045030FM-12+005399999V0203201N003012200019N0600001N1+00861-00271101661ADDAA100000791GA1001+999999999GF100991001001999999001001KA1999M+01201MD1210161+9999REMSYN070AAXX  10181 22778 12986 03203 10086 21027 40166 52016 69900 333 10120;
0143227780999992000061100004+62230+045030FM-12+005399999V0209999V001012200019N0600001N1-00041-00281101911ADDGA1001+999999999GF100991001001999999001001MA1999999101181MD1210051+9999REMSYN060AAXX  11001 22778 42986 09901 11004 21028 30118 40191 52005;
0162227780999992000061103004+62230+045030FM-12+005399999V0209999C000012200019N0600001N1+00561+00011101981ADDAA199000091GA1001+999999999GF100991001001999999001001MD1210091+9999REMSYN064AAXX  11031 22778 32986 00000 10056 20001 40198 52009 333 55102;EQDQ01  00002PRCP99
0112227780999992000061109004+62230+045030FM-12+005399999V0202501N004019999999N0600001N1+01531+00001101761ADDGF106991001001999999001071MD1710171+9999REMSYN060AAXX  11091 22778 42986 62504 10153 20000 40176 57017 80007;
0133227780999992000061112004+62230+045030FM-12+005399999V0202501N004019999999N0600001N1+01741+00191101491ADDGF108991021001999999031091MA1999999100811MD1710251+9999REMSYN066AAXX  11121 22778 42986 82504 10174 20019 30081 40149 57025 82039;
0174227780999992000061118004+62230+045030FM-12+005399999V0202101N002019999999N0190001N1+01581+00401101221ADDAA199000021AY161061AY221061GF108991081001999999071999KA1999M+01791MD1710151+9999MW1211REMSYN076AAXX  11181 22778 31969 82102 10158 20040 40122 57015 72162 8807/ 333 10179;
0133227780999992000061200004+62230+045030FM-12+005399999V0209999C000019999999N0600001N1+01301+00741100981ADDGF108991061001999999071011MA1999999100291MD1710091+9999REMSYN066AAXX  12001 22778 42986 80000 10130 20074 30029 40098 57009 86071;
0122227780999992000061203004+62230+045030FM-12+005399999V0209999V001019999999N0600001N1+01421+00951100921ADDGF108991051001999999071011MD1710061+9999REMSYN070AAXX  12031 22778 /2986 89901 10142 20095 40092 57006 85071 333 55123;
0112227780999992000061209004+62230+045030FM-12+005399999V0202301N005010300019N0600001N1+02581+00891100591ADDGF108991021011012501031011MD1710151+9999REMSYN060AAXX  12091 22778 42686 82305 10258 20089 40059 57015 82131;
0133227780999992000061212004+62230+045030FM-12+005399999V0202201N003010300019N0600001N1+02561+01111100451ADDGF108991021011012501031041MA1999999099781MD1710141+9999REMSYN066AAXX  12121 22778 42686 82203 10256 20111 39978 40045 57014 82134;
0165227780999992000061218004+62230+045030FM-12+005399999V0201501N003019999999N0350001N1+02111+01181100001ADDAA199000091GF106991001001999999001091KA1999M+02661MD1710201+9999REMSYN070AAXX  12181 22778 32981 61503 10211 20118 40000 57020 80009 333 10266;EQDQ01  00002PRCP99
0133227780999992000061300004+62230+045030FM-12+005399999V0201301N003019999999N0400001N1+01621+01041099441ADDGF107991021001999999051011MA1999999098771MD1710271+9999REMSYN066AAXX  13001 22778 42982 71303 10162 20104 39877 49944 57027 82051;
0133227780999992000061312004+62230+045030FM-12+005399999V0202601N003010300019N0600001N1+01471+00971100041ADDGF108991021051008001011999MA1999999099361MD1210161+9999REMSYN066AAXX  13121 22778 42586 82603 10147 20097 39936 40004 52016 8251/;
0180227780999992000061318004+62230+045300FM-12+005399999V0209999C000010300019N0600001N1+01361+01051100421ADDAA100004191AY181061AY221061GF106991021091012501031011KA1999M+01741MD1210211+9999MW1801REMSYN082AAXX  13181 22778 11686 60000 10136 20105 40042 52021 60040 78082 82931 333 10174;
0161227780999992000061400004+62230+045300FM-12+005399999V0209999C000012200019N0600001N1+00701+00591100641ADDAY181061AY211061GF102991021001999999031001MA1999999099941MD1210101+9999MW1021REMSYN072AAXX  14001 22778 41986 20000 10070 20059 39994 40064 52010 70281 82030;
0112227780999992000061409004+62230+045300FM-12+005399999V0202101N003010300019N0600001N1+01841+00741100241ADDGF107991021011012501031011MD1710221+9999REMSYN060AAXX  14091 22778 42686 72103 10184 20074 40024 57022 82131;
0187227780999992000061412004+62230+045300FM-12+005399999V0202201N003010093019N0110001N1+01661+01021100111ADDAY161061AY221061GA1061+009309059GF108991061051008001021999MA1999999099441MD1710121+9999MW1611REMSYN082AAXX  14121 22778 41561 82203 10166 20102 39944 40011 57012 76162 8652/ 333 86631;
0180227780999992000061418004+62230+045300FM-12+005399999V0201601N002010300019N0600001N1+01521+01341099861ADDAA100003091AY161061AY221061GF106991031021004501031001KA1999M+01931MD1710151+9999MW1021REMSYN082AAXX  14181 22778 11486 61602 10152 20134 49986 57015 60030 70262 83230 333 10193;
0133227780999992000061500004+62230+045300FM-12+005399999V0209999C000012200019N0280001N1+00961+00681099901ADDGF102991011021008001011001MA1999999099211MD1410001+9999REMSYN066AAXX  15001 22778 42578 20000 10096 20068 39921 49990 54000 81210;
0152227780999992000061503004+62230+045300FM-12+005399999V0209999V001012200019N0600001N1+01101+00681099841ADDAA199000091GF102991021001999999031001MD1810061+9999REMSYN070AAXX  15031 22778 32986 29901 10110 20068 49984 58006 82030 333 55086;EQDQ01  00002PRCP99
0166227780999992000061509004+62230+045300FM-12+005399999V0202201N007010048019N0150001N1+01431+00411099701ADDAY181031AY211031GA1051+004809099GF108991051031004501001011MD1710091+9999MW1801REMSYN076AAXX  15091 22778 41465 82207 10143 20041 49970 57009 78081 85301 333 85916;
0161227780999992000061512004+62230+045300FM-12+005399999V0202701N004010750019N0600001N1+01751+00321099701ADDAY181061AY211061GF105991021021012501031011MA1999999099031MD1310011+9999MW1021REMSYN072AAXX  15121 22778 41686 52704 10175 20032 39903 49970 53001 70281 82231;
0180227780999992000061518004+62230+045300FM-12+005399999V0209999V001010300019N0600001N1+01621+00251099621ADDAA100000791AY181061AY221061GF106991021011012501031011KA1999M+01821MD1710041+9999MW1021REMSYN082AAXX  15181 22778 11686 69901 10162 20025 49962 57004 69900 70282 82131 333 10182;
0161227780999992000061600004+62230+045300FM-12+005399999V0209999V001019999999N0140001N1+00921+00761099791ADDAY161061AY221061GF108991071001999999071999MA1999999099101MD1210101+9999MW1611REMSYN072AAXX  16001 22778 41964 89901 10092 20076 39910 49979 52010 76162 8707/;
0150227780999992000061603004+62230+045300FM-12+005399999V0202601N003012200019N0600001N1+01041+00611099861ADDAY161031AY221031GF103991021001999999031011MD1210071+9999MW1021REMSYN076AAXX  16031 22778 /1986 32603 10104 20061 49986 52007 70262 82031 333 55161;
0112227780999992000061609004+62230+045300FM-12+005399999V0202601N003010120019N0600001N1+01551+00321099921ADDGF105991051021012501001001MD1210061+9999REMSYN060AAXX  16091 22778 42686 52603 10155 20032 49992 52006 85200;
0161227780999992000061612004+62230+045300FM-12+005399999V0202601N005010300019N0600001N1+01511+00461100001ADDAY181061AY221061GF106991031031008001031001MA1999999099321MD1210081+9999MW1801REMSYN072AAXX  16121 22778 41586 62605 10151 20046 39932 40000 52008 78082 83330;
0152227780999992000061618004+62230+045300FM-12+005399999V0209999V002012200019N0600001N1+01571+00551100201ADDAA100000791GF103991021021008001031001KA1999M+01751MD1210061+9999REMSYN076AAXX  16181 22778 12586 39902 10157 20055 40020 52006 69900 82230 333 10175;
0133227780999992000061700004+62230+045300FM-12+005399999V0209999C000019999999N0600001N1+00511+00341100331ADDGF105991031001999999031011MA1999999099621MD1210031+9999REMSYN066AAXX  17001 22778 42986 50000 10051 20034 39962 40033 52003 83031;
0152227780999992000061703004+62230+045300FM-12+005399999V0209999C000019999999N0600001N1+00921+00641100301ADDAA199000091GF107991071001999999031001MD1810021+9999REMSYN070AAXX  17031 22778 32986 70000 10092 20064 40030 58002 87030 333 55143;EQDQ01  00002PRCP99
0112227780999992000061709004+62230+045300FM-12+005399999V0200801N003010300019N0600001N1+01861+00641100141ADDGF105991021021012501031001MD1810221+9999REMSYN060AAXX  17091 22778 42686 50803 10186 20064 40014 58022 82230;
0161227780999992000061712004+62230+045300FM-12+005399999V0201401N005010300019N0600001N1+01401+00651100191ADDAY191061AY281061GF107991031031004501071999MA1999999099501MD1310031+9999MW1801REMSYN072AAXX  17121 22778 41486 71405 10140 20065 39950 40019 53003 78098 8337/;
0180227780999992000061718004+62230+045300FM-12+005399999V0203401N003010300019N0600001N1+01031+00931100171ADDAA100008991AY191061AY281061GF107991021061002501071001KA1999M+01931MD1310051+9999MW1021REMSYN082AAXX  17181 22778 11386 73403 10103 20093 40017 53005 60090 70298 82670 333 10193;
0159227780999992000061800004+62230+045300FM-12+005399999V0203201N003010033019N0600001N1+00911+00701100421ADDGA1081+003309059GF108991081051004501999999MA1999999099721MD1210161+9999REMSYN076AAXX  18001 22778 42486 83203 10091 20070 39972 40042 52016 885// 333 88611;
0199227780999992000061803004+62230+045300FM-12+005399999V0203201N004010027019N9999999N1+00621+00511100611ADDAY161031AY221031GA1081+002709069GF108991999071002501021999GJ103129MD1210181+9999MW1631REMSYN082AAXX  18031 22778 /1354 83204 10062 20051 40061 52018 76362 8872/ 333 55052 88709;EQDQ01+000082SCOTLC
0166227780999992000061809004+62230+045300FM-12+005399999V0202701N006010045019N0120001N1+00621+00381101231ADDAY161031AY221031GA1061+004509059GF108991061051004501071999MD1210321+9999MW1611REMSYN076AAXX  18091 22778 41462 82706 10062 20038 40123 52032 76162 8657/ 333 86615;
0187227780999992000061812004+62230+045300FM-12+005399999V0202701N005010045019N0110001N1+00641+00361101551ADDAY161061AY221061GA1061+004509059GF108991061051004501071999MA1999999100831MD1210321+9999MW1611REMSYN082AAXX  18121 22778 41461 82705 10064 20036 30083 40155 52032 76162 8657/ 333 86615;
0202227780999992000061818004+62230+045300FM-12+005399999V0203101N003010048019N0600001N1+00521+00171101991ADDAA100006191AY181061AY221061GA1071+004809059GF107991071051004501999999KA1120M+00691MD1210231+9999MW1021REMSYN088AAXX  18181 22778 11486 73103 10052 20017 40199 52023 60060 70282 875// 333 10069 87616;
0159227780999992000061900004+62230+045300FM-12+005399999V0202801N002010033019N0600001N1+00421+00221102281ADDGA1071+003309059GF107991071051004501999999MA1999999101551MD1210151+9999REMSYN076AAXX  19001 22778 42486 72802 10042 20022 30155 40228 52015 875// 333 87611;
0122227780999992000061903004+62230+045300FM-12+005399999V0202601N002010300019N0600001N1+00521+00271102431ADDGF108991031051004501031999MD1210151+9999REMSYN070AAXX  19031 22778 /2486 82602 10052 20027 40243 52015 8353/ 333 55006;
0112227780999992000061909004+62230+045300FM-12+005399999V0209999C000010300019N0600001N1+01031+00291102491ADDGF108991031051008001071999MD1210051+9999REMSYN060AAXX  19091 22778 42586 80000 10103 20029 40249 52005 8357/;
0133227780999992000061912004+62230+045300FM-12+005399999V0200601N003010300019N0600001N1+01211+00301102451ADDGF108991021051008001071999MA1999999101751MD1810021+9999REMSYN066AAXX  19121 22778 42586 80603 10121 20030 30175 40245 58002 8257/;
0165227780999992000061918004+62230+045300FM-12+005399999V0209999C000019999999N0600001N1+01031+00501102401ADDAA199000091GF107991051001999999031011KA1999M+01341MD1310011+9999REMSYN070AAXX  19181 22778 32986 70000 10103 20050 40240 53001 85031 333 10134;EQDQ01  00002PRCP99
0133227780999992000062000004+62230+045300FM-12+005399999V0200301N004019999999N0600001N1+00391+00211102261ADDGF106991041001999999031011MA1999999101531MD1710111+9999REMSYN066AAXX  20001 22778 42986 60304 10039 20021 30153 40226 57011 84031;
0152227780999992000062003004+62230+045300FM-12+005399999V0200201N003019999999N0600001N1+00681+00321102101ADDAA199000091GF106991061001999999031011MD1710141+9999REMSYN070AAXX  20031 22778 32986 60203 10068 20032 40210 57014 86031 333 55068;EQDQ01  00002PRCP99
0133227780999992000062012004+62230+045300FM-12+005399999V0201701N004010300019N0600001N1+01671+00651101651ADDGF107991011011012501071001MA1999999100971MD1710051+9999REMSYN066AAXX  20121 22778 42686 71704 10167 20065 30097 40165 57005 81170;
0187227780999992000062018004+62230+045300FM-12+005399999V0201501N002010084019N0600001N1+01451+01051101581ADDAA199000091GA1051+008409059GF108991051051008001071999KA1120M+01791MD1710041+9999REMSYN076AAXX  20181 22778 32586 81502 10145 20105 40158 57004 8557/ 333 10179 85628;EQDQ01  00002PRCP99
0159227780999992000062100004+62230+045300FM-12+005399999V0209999V001010084019N0400001N1+01301+01031101611ADDGA1051+008409059GF108991051051008001071999MA1999999100911MD1210011+9999REMSYN076AAXX  21001 22778 42582 89901 10130 20103 30091 40161 52001 8557/ 333 85628;
0152227780999992000062103004+62230+045300FM-12+005399999V0201601N002019999999N0600001N1+01321+01031101611ADDAA199000091GF108991041001999999071091MD1410001+9999REMSYN070AAXX  21031 22778 32986 81602 10132 20103 40161 54000 84079 333 55042;EQDQ01  00002PRCP99
0112227780999992000062109004+62230+045300FM-12+005399999V0201601N005010300019N0600001N1+01561+01151101661ADDGF108991031041008001071011MD1310051+9999REMSYN060AAXX  21091 22778 42586 81605 10156 20115 40166 53005 83471;
0161227780999992000062112004+62230+045300FM-12+005399999V0201301N004010300019N0600001N1+01591+01241101581ADDAY161061AY221061GF108991021011008001071999MA1999999100881MD1810081+9999MW1211REMSYN072AAXX  21121 22778 41586 81304 10159 20124 30088 40158 58008 72162 8217/;
0152227780999992000062118004+62230+045300FM-12+005399999V0209999C000019999999N0600001N1+01621+01371101381ADDAA100000791GF108991081001999999071999KA1999M+01831MD1410001+9999REMSYN076AAXX  21181 22778 12986 80000 10162 20137 40138 54000 69900 8807/ 333 10183;
0133227780999992000062200004+62230+045300FM-12+005399999V0200201N003019999999N0600001N1+01421+01151101271ADDGF107991021001999999031091MA1999999100571MD1710081+9999REMSYN066AAXX  22001 22778 42986 70203 10142 20115 30057 40127 57008 82039;
0152227780999992000062203004+62230+045300FM-12+005399999V0200601N003019999999N0600001N1+01621+01261101291ADDAA199000091GF106991061001999999031011MD1310041+9999REMSYN070AAXX  22031 22778 32986 60603 10162 20126 40129 53004 86031 333 55008;EQDQ01  00002PRCP99
0133227780999992000062212004+62230+045300FM-12+005399999V0200501N002010300019N0600001N1+02471+01301101241ADDGF108991021011012501031011MA1999999100571MD1710031+9999REMSYN066AAXX  22121 22778 42686 80502 10247 20130 30057 40124 57003 82131;
0165227780999992000062218004+62230+045300FM-12+005399999V0200801N003019999999N0600001N1+02181+01411101251ADDAA199000091GF106991061001999999031001KA1999M+02561MD1310041+9999REMSYN070AAXX  22181 22778 32986 60803 10218 20141 40125 53004 86030 333 10256;EQDQ01  00002PRCP99
0133227780999992000062300004+62230+045300FM-12+005399999V0209999C000019999999N0600001N1+01651+01501101321ADDGF106991061001999999031001MA1999999100641MD1410001+9999REMSYN066AAXX  23001 22778 42986 60000 10165 20150 30064 40132 54000 86030;
0122227780999992000062303004+62230+045300FM-12+005399999V0200101N002019999999N0600001N1+01821+01481101361ADDGF106991041001999999031011MD1310041+9999REMSYN070AAXX  23031 22778 22986 60102 10182 20148 40136 53004 84031 333 55045;
0133227780999992000062312004+62230+045300FM-12+005399999V0202001N002012200019N0600001N1+02861+01071101251ADDGF105991031021012501001011MA1999999100591MD1710071+9999REMSYN066AAXX  23121 22778 42686 52002 10286 20107 30059 40125 57007 83201;
0165227780999992000062318004+62230+045300FM-12+005399999V0209999C000010300019N0600001N1+02331+01591101211ADDAA199000091GF106991021021012501031011KA1999M+02931MD1310031+9999REMSYN070AAXX  23181 22778 32686 60000 10233 20159 40121 53003 82231 333 10293;EQDQ01  00002PRCP99
0133227780999992000062400004+62230+045300FM-12+005399999V0209999C000012200019N0600001N1+01601+01271101301ADDGF102991021001999999031001MA1999999100621MD1210021+9999REMSYN066AAXX  24001 22778 42986 20000 10160 20127 30062 40130 52002 82030;
0162227780999992000062403004+62230+045300FM-12+005399999V0201101N002012200019N0600001N1+02171+01321101281ADDAA199000091GA1001+999999999GF100991001001999999001001MD1810011+9999REMSYN064AAXX  24031 22778 32986 01102 10217 20132 40128 58001 333 55172;EQDQ01  00002PRCP99
0112227780999992000062409004+62230+045300FM-12+005399999V0201701N003012200019N0600001N1+02801+01131101141ADDGF102991021021012501001001MD1710091+9999REMSYN060AAXX  24091 22778 42686 21703 10280 20113 40114 57009 82200;
0133227780999992000062412004+62230+045300FM-12+005399999V0200801N002012200019N0600001N1+02881+01051101011ADDGF102991021021012501001001MA1999999100351MD1710131+9999REMSYN066AAXX  24121 22778 42686 20802 10288 20105 30035 40101 57013 82200;
0165227780999992000062418004+62230+045300FM-12+005399999V0209999C000012200019N0600001N1+02341+01651100881ADDAA199000091GF102991021001999999031001KA1999M+02931MD1410001+9999REMSYN070AAXX  24181 22778 32986 20000 10234 20165 40088 54000 82030 333 10293;EQDQ01  00002PRCP99
0133227780999992000062500004+62230+045300FM-12+005399999V0209999C000012200019N0220001N1+01531+01331100941ADDGF101991001001999999001011MA1999999100251MD1210031+9999REMSYN066AAXX  25001 22778 42972 10000 10153 20133 30025 40094 52003 80001;
0162227780999992000062503004+62230+045300FM-12+005399999V0209999C000012200019N0290001N1+02161+01521100941ADDAA199000091GA1001+999999999GF100991001001999999001001MD1210021+9999REMSYN064AAXX  25031 22778 32979 00000 10216 20152 40094 52002 333 55174;EQDQ01  00002PRCP99
0112227780999992000062509004+62230+045300FM-12+005399999V0209999V001012200019N0600001N1+03001+01371100861ADDGF103991021021012501001011MD1710011+9999REMSYN060AAXX  25091 22778 42686 39901 10300 20137 40086 57001 82201;
0133227780999992000062512004+62230+045300FM-12+005399999V0209999V001012200019N0600001N1+03101+01381100821ADDGF103991021021012501001011MA1999999100181MD1710021+9999REMSYN066AAXX  25121 22778 42686 39901 10310 20138 30018 40082 57002 82201;
0165227780999992000062518004+62230+045300FM-12+005399999V0200401N003010750019N0600001N1+02601+01471100851ADDAA199000091GF105991021041012501061011KA1999M+03161MD1310051+9999REMSYN070AAXX  25181 22778 32686 50403 10260 20147 40085 53005 82461 333 10316;EQDQ01  00002PRCP99
0133227780999992000062600004+62230+045300FM-12+005399999V0200301N005012200019N0300001N1+02001+01521100871ADDGF102991001001999999001011MA1999999100191MD1810011+9999REMSYN066AAXX  26001 22778 42980 20305 10200 20152 30019 40087 58001 80001;
0162227780999992000062603004+62230+045300FM-12+005399999V0200601N003012200019N0260001N1+02171+01631100891ADDAA199000091GA1001+999999999GF100991001001999999001001MD1310031+9999REMSYN064AAXX  26031 22778 32976 00603 10217 20163 40089 53003 333 55173;EQDQ01  00002PRCP99
0166227780999992000062609004+62230+045300FM-12+005399999V0201601N002010054019N0600001N1+02831+01521100751ADDAY191031AY281031GA1061+005409099GF106991061091004501001001MD1710061+9999MW1951REMSYN076AAXX  26091 22778 41486 61602 10283 20152 40075 57006 79598 86900 333 86918;
0180227780999992000062618004+62230+045300FM-12+005399999V0200601N002010300019N0600001N1+02041+01881100761ADDAA100000791AY191061AY281061GF107991021021012501031011KA1999M+03051MD1310141+9999MW1021REMSYN082AAXX  26181 22778 11686 70602 10204 20188 40076 53014 69900 70298 82231 333 10305;
0133227780999992000062700004+62230+045300FM-12+005399999V0200301N004012200019N0290001N1+01701+01571100821ADDGF102991001001999999001011MA1999999100141MD1210031+9999REMSYN066AAXX  27001 22778 42979 20304 10170 20157 30014 40082 52003 80001;
0112227780999992000062709004+62230+045300FM-12+005399999V0200901N006010300019N0600001N1+02701+01501100791ADDGF106991011011012501031011MD1410001+9999REMSYN060AAXX  27091 22778 42686 60906 10270 20150 40079 54000 81131;
0133227780999992000062712004+62230+045300FM-12+005399999V0200901N006010300019N0600001N1+02951+01511100731ADDGF106991021021012501031011MA1999999100071MD1810061+9999REMSYN066AAXX  27121 22778 42686 60906 10295 20151 30007 40073 58006 82231;
0193227780999992000062718004+62230+045300FM-12+005399999V0201001N005010300019N0400001N1+02721+01601100731ADDAA199000091AY191061AY221061GF106991021021008001031011KA1999M+03051MD1310021+9999MW1021REMSYN076AAXX  27181 22778 31582 61005 10272 20160 40073 53002 70292 82231 333 10305;EQDQ01  00002PRCP99
0152227780999992000062800004+62230+045300FM-12+005399999V0200701N002019999999N0400001N1+02101+01571999999ADDGF105991021001999999031011MA1999999100281MD1210121+9999REMSYN066AAXX  28001 22778 42982 50702 10210 20157 30028 49095 52012 82031;EQDQ01+090953APOSLP
0162227780999992000062803004+62230+045300FM-12+005399999V0200901N002012200019N0290001N1+02291+01541101001ADDAA199000091GA1001+999999999GF100991001001999999001001MD1210051+9999REMSYN064AAXX  28031 22778 32979 00902 10229 20154 40100 52005 333 55167;EQDQ01  00002PRCP99
0131227780999992000062809004+62230+045300FM-12+005399999V0201201N006012200019N0600001N1+02931+01201100931ADDGF103991999011012501001001MD1810061+9999REMSYN060AAXX  28091 22778 42686 31206 10293 20120 40093 58006 82100;EQDQ01+000022SCOTLC
0133227780999992000062812004+62230+045300FM-12+005399999V0200601N005012200019N0600001N1+03021+01121100941ADDGF103991021011012501001011MA1999999100281MD1310011+9999REMSYN066AAXX  28121 22778 42686 30605 10302 20112 30028 40094 53001 82101;
0165227780999992000062818004+62230+045300FM-12+005399999V0200501N002012200019N0600001N1+02311+00941100991ADDAA199000091GF102991021001999999051011KA1999M+03061MD1210021+9999REMSYN070AAXX  28181 22778 32986 20502 10231 20094 40099 52002 82051 333 10306;EQDQ01  00002PRCP99
0133227780999992000062900004+62230+045300FM-12+005399999V0200501N003012200019N0600001N1+01941+01231101131ADDGF101991001001999999001011MA1999999100451MD1210041+9999REMSYN066AAXX  29001 22778 42986 10503 10194 20123 30045 40113 52004 80001;
0152227780999992000062903004+62230+045300FM-12+005399999V0200601N002012200019N0600001N1+02131+01411101181ADDAA199000091GF102991021001999999031001MD1210061+9999REMSYN070AAXX  29031 22778 32986 20602 10213 20141 40118 52006 82030 333 55166;EQDQ01  00002PRCP99
0112227780999992000062909004+62230+045300FM-12+005399999V0201101N00401220001CN0600001N1+02641+01311101211ADDGF108991031021012501001041MD1410001+9999REMSYN060AAXX  29091 22778 42686 81104 10264 20131 40121 54000 83204;
0133227780999992000062912004+62230+045300FM-12+005399999V0201201N00401220001CN0600001N1+02781+01281101191ADDGF108991031011012501001041MA1999999100531MD1810021+9999REMSYN066AAXX  29121 22778 42686 81204 10278 20128 30053 40119 58002 83104;
0165227780999992000062918004+62230+045300FM-12+005399999V0201101N001012200019N0600001N1+02351+01311101201ADDAA199000091GF102991011001999999031011KA1999M+02861MD1310161+9999REMSYN070AAXX  29181 22778 32986 21101 10235 20131 40120 53016 81031 333 10286;EQDQ01  00002PRCP99
0143227780999992000063000004+62230+045300FM-12+005399999V0209999C000012200019N0600001N1+01631+01061101341ADDGA1001+999999999GF100991001001999999001001MA1999999100661MD1210071+9999REMSYN060AAXX  30001 22778 42986 00000 10163 20106 30066 40134 52007;
0162227780999992000063003004+62230+045300FM-12+005399999V0201301N002012200019N0600001N1+01981+01131101351ADDAA199000091GA1001+999999999GF100991001001999999001001MD1210011+9999REMSYN064AAXX  30031 22778 32986 01302 10198 20113 40135 52001 333 55168;EQDQ01  00002PRCP99
0112227780999992000063009004+62230+045300FM-12+005399999V0201101N002012200019N0600001N1+02531+00921101371ADDGF105991031011012501001011MD1810051+9999REMSYN060AAXX  30091 22778 42686 51102 10253 20092 40137 58005 83101;
0175227780999992000063018004+62230+045300FM-12+005399999V0209999C000012200019N0280001N1+02221+01251101291ADDAA199000091GA1001+999999999GF100991001001999999001001KA1999M+02711MD1710021+9999REMSYN064AAXX  30181 22778 32978 00000 10222 20125 40129 57002 333 10271;EQDQ01  00002PRCP99
0131227780999992000070100004+62230+045300FM-12+005399999V0209999C000012200019N0400001N1+01181+00941101351ADDGF102991001001999999001011MD1410001+9999REMSYN060AAXX  01001 22778 42682 20000 10118 20094 40135 54000 80001;EQDQ01+012502SCOLCB
0152227780999992000070103004+62230+045300FM-12+005399999V0209999C000012200019N0600001N1+01761+01221101331ADDAA199000091GF102991021001999999031001MD1410001+9999REMSYN070AAXX  01031 22778 32986 20000 10176 20122 40133 54000 82030 333 55183;EQDQ01  00002PRCP99
0112227780999992000070109004+62230+045300FM-12+005399999V0202501N003012200019N0600001N1+02731+00941101191ADDGF106991031021012501001011MD1710041+9999REMSYN060AAXX  01091 22778 42686 62503 10273 20094 40119 57004 83201;
0127227780999992000070112004+62230+045300FM-12+005399999V0202401N004012200019N0600001N1+02811+01021999999ADDGF106991021031012501001011MA1999999100501MD1210031+9999REMSYN060AAXX  01121 22778 42686 62404 10281 20102 30050 52003 82301;
0165227780999992000070118004+62230+045300FM-12+005399999V0202601N003010300019N0300001N1+02251+01501101131ADDAA199000091GF107991021041008001031011KA1999M+02881MD1310011+9999REMSYN070AAXX  01181 22778 32580 72603 10225 20150 40113 53001 82431 333 10288;EQDQ01  00002PRCP99
0133227780999992000070200004+62230+045300FM-12+005399999V0209999V002019999999N0220001N1+01721+01551101061ADDGF108991061001999999071011MA1999999100381MD1710061+9999REMSYN066AAXX  02001 22778 42972 89902 10172 20155 30038 40106 57006 86071;
0152227780999992000070203004+62230+045300FM-12+005399999V0201301N003010300019N0210001N1+01701+01481101021ADDAA199000091GF108991031051004501031011MD1710041+9999REMSYN070AAXX  02031 22778 32471 81303 10170 20148 40102 57004 83531 333 55164;EQDQ01  00002PRCP99
0140227780999992000070209004+62230+045300FM-12+005399999V0202801N004010300019N0600001N1+02001+01251101061ADDAY181031AY221031GF107991041021008001031011MD1810021+9999MW1021REMSYN066AAXX  02091 22778 41586 72804 10200 20125 40106 58002 70282 84231;
0161227780999992000070212004+62230+045300FM-12+005399999V0202001N004010300019N0600001N1+01961+01391101031ADDAY181061AY221061GF108991031021008001031011MA1999999100351MD1710031+9999MW1021REMSYN072AAXX  02121 22778 41586 82004 10196 20139 30035 40103 57003 70282 83231;
0152227780999992000070218004+62230+045300FM-12+005399999V0200501N002010300019N0600001N1+01571+01191101021ADDAA100000791GF108991021051008001071999KA1999M+02121MD1310021+9999REMSYN076AAXX  02181 22778 12586 80502 10157 20119 40102 53002 69900 8257/ 333 10212;
0159227780999992000070300004+62230+045300FM-12+005399999V0200601N006010036019N0600001N1+01311+01121100951ADDGA1051+003609059GF108991051051004501071999MA1999999100261MD1810081+9999REMSYN076AAXX  03001 22778 42486 80606 10131 20112 30026 40095 58008 8557/ 333 85612;
0152227780999992000070303004+62230+045300FM-12+005399999V0209999V001010300019N0600001N1+01321+01021100951ADDAA199000091GF108991021051004501031011MD1410001+9999REMSYN070AAXX  03031 22778 32486 89901 10132 20102 40095 54000 82531 333 55043;EQDQ01  00002PRCP99
0112227780999992000070309004+62230+045300FM-12+005399999V0201101N004010300019N0600001N1+01971+00861100831ADDGF107991031041012501031011MD1710101+9999REMSYN060AAXX  03091 22778 42686 71104 10197 20086 40083 57010 83431;
0133227780999992000070312004+62230+045300FM-12+005399999V0200801N005010300019N0600001N1+01841+00881100791ADDGF107991021041012501051999MA1999999100111MD1710041+9999REMSYN066AAXX  03121 22778 42686 70805 10184 20088 30011 40079 57004 8245/;
0165227780999992000070318004+62230+045300FM-12+005399999V0200301N003012200019N0600001N1+01671+00801100711ADDAA199000091GF102991011001999999031011KA1999M+02031MD1710011+9999REMSYN070AAXX  03181 22778 32986 20303 10167 20080 40071 57001 81031 333 10203;EQDQ01  00002PRCP99
0133227780999992000070400004+62230+045300FM-12+005399999V0200201N002019999999N0600001N1+01001+00501100771ADDGF105991051001999999031001MA1999999100071MD1710041+9999REMSYN066AAXX  04001 22778 42986 50202 10100 20050 30007 40077 57004 85030;
0152227780999992000070403004+62230+045300FM-12+005399999V0200701N002012200019N0600001N1+01461+00481100811ADDAA199000091GF102991021001999999031001MD1210051+9999REMSYN070AAXX  04031 22778 32986 20702 10146 20048 40081 52005 82030 333 55099;EQDQ01  00002PRCP99
0112227780999992000070409004+62230+045300FM-12+005399999V0200901N006012200019N0600001N1+02061+00431100761ADDGF102991021011012501001001MD1410001+9999REMSYN060AAXX  04091 22778 42686 20906 10206 20043 40076 54000 82100;
0133227780999992000070412004+62230+045300FM-12+005399999V0200701N005012200019N0600001N1+02171+00461100691ADDGF103991031021017501001001MA1999999100021MD1810061+9999REMSYN066AAXX  04121 22778 42786 30705 10217 20046 30002 40069 58006 83200;
0165227780999992000070418004+62230+045300FM-12+005399999V0200201N002012200019N0600001N1+01711+00561100761ADDAA199000091GF102991021041012501001001KA1999M+02231MD1310081+9999REMSYN070AAXX  04181 22778 32686 20202 10171 20056 40076 53008 82400 333 10223;EQDQ01  00002PRCP99
0133227780999992000070500004+62230+045300FM-12+005399999V0200201N003012200019N0600001N1+01081+00431100921ADDGF102991021001999999031001MA1999999100221MD1210081+9999REMSYN066AAXX  05001 22778 42986 20203 10108 20043 30022 40092 52008 82030;
0152227780999992000070503004+62230+045300FM-12+005399999V0200901N002012200019N0600001N1+01361+00451100961ADDAA199000091GF102991021001999999031011MD1210051+9999REMSYN070AAXX  05031 22778 32986 20902 10136 20045 40096 52005 82031 333 55172;EQDQ01  00002PRCP99
0112227780999992000070509004+62230+045300FM-12+005399999V0200801N002010300019N0600001N1+02191+00341100951ADDGF106991031021012501031011MD1810011+9999REMSYN060AAXX  05091 22778 42686 60802 10219 20034 40095 58001 83231;
0133227780999992000070512004+62230+045300FM-12+005399999V0209999V002010300019N0600001N1+02201+00451100941ADDGF106991021021012501031011MA1999999100271MD1710011+9999REMSYN066AAXX  05121 22778 42686 69902 10220 20045 30027 40094 57001 82231;
0151227780999992000070518004+62230+045300FM-12+005399999V0209999C000012200019N0600001N1+02051+00881100971ADDAA199000091GF103991999999999999999999MD1310041+9999REMSYN069AAXX  05181 22778 32986 30000 10205 20088 40097 53004 8330 333 10240;EQDQ01  00002PRCP99
0133227780999992000070600004+62230+045300FM-12+005399999V0209999C000012200019N0600001N1+00991+00811101091ADDGF103991011021012501031001MA1999999100391MD1210041+9999REMSYN066AAXX  06001 22778 42686 30000 10099 20081 30039 40109 52004 81230;
0152227780999992000070603004+62230+045300FM-12+005399999V0209999V001010750019N0600001N1+01441+01021101081ADDAA199000091GF105991011011012501031011MD1410001+9999REMSYN070AAXX  06031 22778 32686 59901 10144 20102 40108 54000 81131 333 55167;EQDQ01  00002PRCP99
0112227780999992000070609004+62230+045300FM-12+005399999V0201601N004010300019N0600001N1+02061+00921100981ADDGF106991031021012501031011MD1710061+9999REMSYN060AAXX  06091 22778 42686 61604 10206 20092 40098 57006 83231;
0161227780999992000070612004+62230+045300FM-12+005399999V0209999V001010300019N0600001N1+02421+00901100871ADDAY181061AY211061GF106991021021012501031011MA1999999100201MD1710101+9999MW1021REMSYN072AAXX  06121 22778 41686 69901 10242 20090 30020 40087 57010 70281 82231;
0152227780999992000070618004+62230+045300FM-12+005399999V0201401N002010300019N0230001N1+01911+01141100801ADDAA100000791GF107991021011008001031011KA1999M+02461MD1310011+9999REMSYN076AAXX  06181 22778 12573 71402 10191 20114 40080 53001 69900 82131 333 10246;
0133227780999992000070700004+62230+045300FM-12+005399999V0201501N003019999999N0600001N1+01361+00891100811ADDGF106991031001999999031011MA1999999100121MD1310011+9999REMSYN066AAXX  07001 22778 42986 61503 10136 20089 30012 40081 53001 83031;
0106227780999992000070709004+62230+045300FM-12+005399999V0209999V001010300019N0600001N1+01871+01341999999ADDGF108991041021008001071999MD1310011+9999REMSYN054AAXX  07091 22778 42586 89901 10187 20134 53001 8427/;
0161227780999992000070712004+62230+045300FM-12+005399999V0203001N003010300019N0600001N1+01801+01471100831ADDAY181061AY221061GF108991021031008001071999MA1999999100151MD1210061+9999MW1251REMSYN072AAXX  07121 22778 41586 83003 10180 20147 30015 40083 52006 72582 8237/;
0180227780999992000070718004+62230+045300FM-12+005399999V0209999C000010300019N0300001N1+01711+01471100831ADDAA100000591AY181061AY261061GF108991031021008001031011KA1999M+02091MD1310011+9999MW1021REMSYN082AAXX  07181 22778 11580 80000 10171 20147 40083 53001 69960 70286 83231 333 10209;
0133227780999992000070800004+62230+045300FM-12+005399999V0209999V001019999999N0600001N1+01211+01131100901ADDGF106991061001999999071001MA1999999100211MD1210041+9999REMSYN066AAXX  08001 22778 42986 69901 10121 20113 30021 40090 52004 86070;
0112227780999992000070809004+62230+045300FM-12+005399999V0200801N004012200019N0600001N1+01981+00881100961ADDGF105991031021012501001011MD1810041+9999REMSYN060AAXX  08091 22778 42686 50804 10198 20088 40096 58004 83201;
0133227780999992000070812004+62230+045300FM-12+005399999V0200901N003012200019N0600001N1+02281+01001100861ADDGF104991031021012501031001MA1999999100191MD1710091+9999REMSYN066AAXX  08121 22778 42686 40903 10228 20100 30019 40086 57009 83230;
0165227780999992000070818004+62230+045300FM-12+005399999V0201201N002010300019N0600001N1+01861+01331100781ADDAA199000091GF107991021021012501071001KA1999M+02311MD1710011+9999REMSYN070AAXX  08181 22778 32686 71202 10186 20133 40078 57001 82270 333 10231;EQDQ01  00002PRCP99
0133227780999992000070900004+62230+045300FM-12+005399999V0201101N002019999999N0600001N1+01601+01331100721ADDGF107991071001999999051999MA1999999100041MD1810081+9999REMSYN066AAXX  09001 22778 42986 71102 10160 20133 30004 40072 58008 8705/;
0152227780999992000070903004+62230+045300FM-12+005399999V0201301N003019999999N0600001N1+01671+01391100741ADDAA199000091GF107991071001999999031001MD1310021+9999REMSYN070AAXX  09031 22778 32986 71303 10167 20139 40074 53002 87030 333 55118;EQDQ01  00002PRCP99
0112227780999992000070909004+62230+045300FM-12+005399999V0209999V001010300019N0600001N1+02281+01141100681ADDGF107991031021012501031001MD1710011+9999REMSYN060AAXX  09091 22778 42686 79901 10228 20114 40068 57001 83230;
0133227780999992000070912004+62230+045300FM-12+005399999V0201701N004010300019N0600001N1+02371+00811100631ADDGF106991021021012501031011MA1999999099961MD1710051+9999REMSYN066AAXX  09121 22778 42686 61704 10237 20081 39996 40063 57005 82231;
0165227780999992000070918004+62230+045300FM-12+005399999V0209999C000012200019N0260001N1+01941+01261100601ADDAA199000091GF101991011001999999031001KA1999M+02521MD1410001+9999REMSYN070AAXX  09181 22778 32976 10000 10194 20126 40060 54000 81030 333 10252;EQDQ01  00002PRCP99
0133227780999992000071000004+62230+045300FM-12+005399999V0200901N003012200019N0230001N1+01251+00931100721ADDGF102991021001999999031011MA1999999100031MD1210031+9999REMSYN066AAXX  10001 22778 42973 20903 10125 20093 30003 40072 52003 82031;
0152227780999992000071003004+62230+045300FM-12+005399999V0201301N002012200019N0240001N1+01531+01021100741ADDAA199000091GF102991001001999999001011MD1210021+9999REMSYN070AAXX  10031 22778 32974 21302 10153 20102 40074 52002 80001 333 55097;EQDQ01  00002PRCP99
0112227780999992000071009004+62230+045300FM-12+005399999V0201601N003010300019N0450001N1+02521+00981100651ADDGF106991031021012501031011MD1710051+9999REMSYN060AAXX  10091 22778 42683 61603 10252 20098 40065 57005 83231;
0133227780999992000071012004+62230+045300FM-12+005399999V0201501N005010300019N0600001N1+02451+00881100641ADDGF106991021021012501031011MA1999999099971MD1710011+9999REMSYN066AAXX  10121 22778 42686 61505 10245 20088 39997 40064 57001 82231;
0165227780999992000071018004+62230+045300FM-12+005399999V0201301N002019999999N0350001N1+02021+01261100671ADDAA199000091GF107991051001999999031011KA1999M+02601MD1310041+9999REMSYN070AAXX  10181 22778 32981 71302 10202 20126 40067 53004 85031 333 10260;EQDQ01  00002PRCP99
0133227780999992000071100004+62230+045300FM-12+005399999V0201101N002019999999N0290001N1+01151+00821100831ADDGF106991051001999999031011MA1999999100141MD1210101+9999REMSYN066AAXX  11001 22778 42979 61102 10115 20082 30014 40083 52010 85031;
0152227780999992000071103004+62230+045300FM-12+005399999V0201301N002019999999N0600001N1+01601+01051100881ADDAA199000091GF105991021001999999031011MD1210051+9999REMSYN070AAXX  11031 22778 32986 51302 10160 20105 40088 52005 82031 333 55163;EQDQ01  00002PRCP99
0112227780999992000071109004+62230+045300FM-12+005399999V0201901N006012200019N0600001N1+02721+00771100911ADDGF106991021011017501001011MD1210031+9999REMSYN060AAXX  11091 22778 42786 61906 10272 20077 40091 52003 82101;
0165227780999992000071118004+62230+045300FM-12+005399999V0209999C000019999999N0250001N1+02201+01271100981ADDAA199000091GF108991001001999999001011KA1999M+02851MD1310061+9999REMSYN070AAXX  11181 22778 32975 80000 10220 20127 40098 53006 80001 333 10285;EQDQ01  00002PRCP99
0133227780999992000071200004+62230+045300FM-12+005399999V0201101N002019999999N0200001N1+01601+01181101181ADDGF105991041001999999051011MA1999999100491MD1210051+9999REMSYN066AAXX  12001 22778 42970 51102 10160 20118 30049 40118 52005 84051;
0152227780999992000071203004+62230+045300FM-12+005399999V0209999V001019999999N0230001N1+01871+01321101261ADDAA199000091GF106991021001999999031011MD1210091+9999REMSYN070AAXX  12031 22778 32973 69901 10187 20132 40126 52009 82031 333 55144;EQDQ01  00002PRCP99
0133227780999992000071212004+62230+045300FM-12+005399999V0201701N004012200019N0600001N1+03021+00861101371ADDGF103991021021017501001011MA1999999100711MD1810031+9999REMSYN066AAXX  12121 22778 42786 31704 10302 20086 30071 40137 58003 82201;
0165227780999992000071218004+62230+045300FM-12+005399999V0209999V001012200019N0260001N1+02411+01221101401ADDAA199000091GF102991011001999999031011KA1999M+03061MD1310071+9999REMSYN070AAXX  12181 22778 32976 29901 10241 20122 40140 53007 81031 333 10306;EQDQ01  00002PRCP99
0133227780999992000071300004+62230+045300FM-12+005399999V0200901N003012200019N0210001N1+01761+01271101501ADDGF101991001001999999001011MA1999999100821MD1210041+9999REMSYN066AAXX  13001 22778 42971 10903 10176 20127 30082 40150 52004 80001;
0152227780999992000071303004+62230+045300FM-12+005399999V0201101N003012200019N0240001N1+02011+01401101551ADDAA199000091GF101991011001999999081001MD1210051+9999REMSYN070AAXX  13031 22778 32974 11103 10201 20140 40155 52005 81080 333 55132;EQDQ01  00002PRCP99
0112227780999992000071309004+62230+045300FM-12+005399999V0201501N007012200019N0350001N1+02941+01141101491ADDGF103991031011012501001001MD1810051+9999REMSYN060AAXX  13091 22778 42681 31507 10294 20114 40149 58005 83100;
0133227780999992000071312004+62230+045300FM-12+005399999V0201701N007012200019N0600001N1+03021+00801101371ADDGF102991021021017501001001MA1999999100711MD1710121+9999REMSYN066AAXX  13121 22778 42786 21707 10302 20080 30071 40137 57012 82200;
0165227780999992000071318004+62230+045300FM-12+005399999V0201201N003019999999N0600001N1+02281+01251101381ADDAA199000091GF105991031001999999031011KA1999M+03071MD1310051+9999REMSYN070AAXX  13181 22778 32986 51203 10228 20125 40138 53005 83031 333 10307;EQDQ01  00002PRCP99
0133227780999992000071400004+62230+045300FM-12+005399999V0201101N004019999999N0600001N1+01761+01351101451ADDGF108991051001999999031011MA1999999100771MD1210041+9999REMSYN066AAXX  14001 22778 42986 81104 10176 20135 30077 40145 52004 85031;
0152227780999992000071403004+62230+045300FM-12+005399999V0201101N003019999999N0250001N1+01841+01341101491ADDAA199000091GF105991001001999999001011MD1210041+9999REMSYN070AAXX  14031 22778 32975 51103 10184 20134 40149 52004 80001 333 55153;EQDQ01  00002PRCP99
0112227780999992000071409004+62230+045300FM-12+005399999V0201701N006010300019N0600001N1+02811+01301101441ADDGF108991021021012501031091MD1310011+9999REMSYN060AAXX  14091 22778 42686 81706 10281 20130 40144 53001 82239;
0161227780999992000071412004+62230+045300FM-12+005399999V0209999V001010300019N0230001N1+02661+01511101461ADDAY181061AY211061GF108991031021012501031011MA1999999100801MD1210021+9999MW1251REMSYN072AAXX  14121 22778 41673 89901 10266 20151 30080 40146 52002 72581 83231;
0180227780999992000071418004+62230+045300FM-12+005399999V0201401N003012200019N0280001N1+02281+01551101531ADDAA100000791AY181061AY211061GF103991001001999999001011KA1999M+02851MD1210011+9999MW1021REMSYN082AAXX  14181 22778 11978 31403 10228 20155 40153 52001 69900 70281 80001 333 10285;
0133227780999992000071500004+62230+045300FM-12+005399999V0201001N002012200019N0290001N1+01771+01481101681ADDGF101991001001999999001011MA1999999101001MD1210081+9999REMSYN066AAXX  15001 22778 42979 11002 10177 20148 30100 40168 52008 80001;
0150227780999992000071503004+62230+045300FM-12+005399999V0201201N004010300019N0250001N1+02011+01591101751ADDAY181031AY211031GF106991031021008001031001MD1210071+9999MW1251REMSYN076AAXX  15031 22778 /1575 61204 10201 20159 40175 52007 72581 83230 333 55073;
0112227780999992000071509004+62230+045300FM-12+005399999V0201501N007012200019N0600001N1+02941+01351101671ADDGF102991021021012501031001MD1710021+9999REMSYN060AAXX  15091 22778 42686 21507 10294 20135 40167 57002 82230;
0133227780999992000071512004+62230+045300FM-12+005399999V0201601N007012200019N0600001N1+03051+01171101571ADDGF102991021021012501001001MA1999999100911MD1710101+9999REMSYN066AAXX  15121 22778 42686 21607 10305 20117 30091 40157 57010 82200;
0165227780999992000071518004+62230+045300FM-12+005399999V0201201N004012200019N0600001N1+02581+01381101491ADDAA199000091GF103991021001999999031011KA1999M+03121MD1710041+9999REMSYN070AAXX  15181 22778 32986 31204 10258 20138 40149 57004 82031 333 10312;EQDQ01  00002PRCP99
0152227780999992000071600004+62230+045300FM-12+005399999V0201001N002012200019N0290001N1+01831+01311101621ADDGF102991999001999999031001MA1999999100941MD1210031+9999REMSYN066AAXX  16001 22778 42979 21002 10183 20131 30094 40162 52003 89030;EQDQ01+000092SCOTLC
0162227780999992000071603004+62230+045300FM-12+005399999V0201101N003012200019N0210001N1+02131+01541101661ADDAA199000091GA1001+999999999GF100991001001999999001001MD1210051+9999REMSYN064AAXX  16031 22778 32971 01103 10213 20154 40166 52005 333 55153;EQDQ01  00002PRCP99
0112227780999992000071609004+62230+045300FM-12+005399999V0201601N007012200019N0250001N1+99999+99999101691ADDGF107991021021012501001011MD1410001+9999REMSYN060AAXX  16091 22778 42675 71607 12085 20149 40169 54000 82201;
0133227780999992000071612004+62230+045300FM-12+005399999V0201901N005010300019N0350001N1+02891+01481101731ADDGF108991021021012501031011MA1999999101071MD1310041+9999REMSYN066AAXX  16121 22778 42681 81905 10289 20148 30107 40173 53004 82231;
0165227780999992000071618004+62230+045300FM-12+005399999V0209999V001012200019N0350001N1+02471+01641101801ADDAA199000091GF106991021021008001001011KA1999M+03051MD1210041+9999REMSYN070AAXX  16181 22778 32581 69901 10247 20164 40180 52004 82201 333 10305;EQDQ01  00002PRCP99
0133227780999992000071700004+62230+045300FM-12+005399999V0209999C000019999999N0230001N1+01491+01341102011ADDGF106991001001999999001021MA1999999101311MD1210051+9999REMSYN066AAXX  17001 22778 42973 60000 10149 20134 30131 40201 52005 80002;
0152227780999992000071703004+62230+045300FM-12+005399999V0209999C000019999999N0000001N1+01771+01531102101ADDAA199000091GF107991071001999999051999MD1210111+9999REMSYN070AAXX  17031 22778 32900 70000 10177 20153 40210 52011 8705/ 333 55133;EQDQ01  00002PRCP99
0112227780999992000071709004+62230+045300FM-12+005399999V0209999V002012200019N0600001N1+02701+01221102091ADDGF103991021021017501001011MD1810041+9999REMSYN060AAXX  17091 22778 42786 39902 10270 20122 40209 58004 82201;
0133227780999992000071712004+62230+045300FM-12+005399999V0209999V001012200019N0600001N1+02791+01131102001ADDGF102991021011000751001011MA1999999101341MD1710091+9999REMSYN066AAXX  17121 22778 42186 29901 10279 20113 30134 40200 57009 82101;
0165227780999992000071718004+62230+045300FM-12+005399999V0200801N002012200019N0600001N1+02371+01401101911ADDAA199000091GF102991001001999999001011KA1999M+02901MD1710031+9999REMSYN070AAXX  17181 22778 32986 20802 10237 20140 40191 57003 80001 333 10290;EQDQ01  00002PRCP99
0133227780999992000071800004+62230+045030FM-12+005399999V0209999C000012200019N0210001N1+01661+01371101991ADDGF102991011001999999031011MA1999999101311MD1210041+9999REMSYN066AAXX  18001 22778 42971 20000 10166 20137 30131 40199 52004 81031;
0152227780999992000071803004+62230+045030FM-12+005399999V0201201N003012200019N0110001N1+02231+01651101931ADDAA199000091GF102991011011017501031001MD1810051+9999REMSYN070AAXX  18031 22778 32761 21203 10223 20165 40193 58005 81130 333 55135;EQDQ01  00002PRCP99
0112227780999992000071809004+62230+045030FM-12+005399999V0201701N005012200019N0600001N1+03091+01561101801ADDGF103991031021012501001001MD1710081+9999REMSYN060AAXX  18091 22778 42686 31705 10309 20156 40180 57008 83200;
0133227780999992000071812004+62230+045030FM-12+005399999V0201601N005012200019N0600001N1+03251+01351101691ADDGF106991031021017501001011MA1999999101041MD1710111+9999REMSYN066AAXX  18121 22778 42786 61605 10325 20135 30104 40169 57011 83201;
0165227780999992000071818004+62230+045030FM-12+005399999V0201101N003012200019N0290001N1+02701+01641101641ADDAA199000091GF101991001001999999001011KA1999M+03321MD1710011+9999REMSYN070AAXX  18181 22778 32979 11103 10270 20164 40164 57001 80001 333 10332;EQDQ01  00002PRCP99
0161227780999992000071900004+62230+045030FM-12+005399999V0201001N002012200019N0043001N1+02101+01711101731ADDAY101061AY201061GF101991011001999999031001MA1999999101061MD1210031+9999MW1041REMSYN072AAXX  19001 22778 41943 11002 10210 20171 30106 40173 52003 70400 81030;
0190227780999992000071903004+62230+045030FM-12+005399999V0201201N002012200019N0039001N1+02251+01821101791ADDAA199000091AY101031AY201031GA1001+999999999GF100991001001999999001001MD1210061+9999MW1041REMSYN070AAXX  19031 22778 31939 01202 10225 20182 40179 52006 70400 333 55161;EQDQ01  00002PRCP99
0112227780999992000071909004+62230+045030FM-12+005399999V0201601N005012200019N0250001N1+03161+01471101681ADDGF105991021021012501001011MD1710041+9999REMSYN060AAXX  19091 22778 42675 51605 10316 20147 40168 57004 82201;
0133227780999992000071912004+62230+045030FM-12+005399999V0201701N003012200019N0600001N1+03271+01401101541ADDGF103991021021017501001011MA1999999100891MD1710141+9999REMSYN066AAXX  19121 22778 42786 31703 10327 20140 30089 40154 57014 82201;
0180227780999992000071918004+62230+045030FM-12+005399999V0200901N003010300019N0210001N1+01881+01741101841ADDAA100000591AY191061AY281061GF108991021011004501031011KA1999M+03321MD1210021+9999MW1021REMSYN082AAXX  19181 22778 11471 80903 10188 20174 40184 52002 69950 70298 82131 333 10332;
0161227780999992000072000004+62230+045030FM-12+005399999V0200901N002019999999N0060001N1+01621+01571101941ADDAY121061AY221061GF106991031001999999031011MA1999999101261MD1310131+9999MW1101REMSYN072AAXX  20001 22778 41956 60902 10162 20157 30126 40194 53013 71022 83031;
0150227780999992000072003004+62230+045030FM-12+005399999V0201201N003010300019N0080001N1+01901+01741102011ADDAY121031AY221031GF106991021011004501031011MD1210071+9999MW1101REMSYN076AAXX  20031 22778 /1458 61203 10190 20174 40201 52007 71022 82131 333 55118;
0112227780999992000072009004+62230+045030FM-12+005399999V0200801N004019999999N0270001N1+02781+01741101981ADDGF106991041001999999031011MD1310011+9999REMSYN060AAXX  20091 22778 42977 60804 10278 20174 40198 53001 84031;
0165227780999992000072018004+62230+045030FM-12+005399999V0202301N003010300019N0160001N1+02461+01641102011ADDAA199000091GF108991011021012501071011KA1999M+03201MD1310201+9999REMSYN070AAXX  20181 22778 32666 82303 10246 20164 40201 53020 81271 333 10320;EQDQ01  00002PRCP99
0133227780999992000072100004+62230+045030FM-12+005399999V0209999C000019999999N0230001N1+01781+01611102091ADDGF108991041001999999031011MA1999999101411MD1210031+9999REMSYN066AAXX  21001 22778 42973 80000 10178 20161 30141 40209 52003 84031;
0152227780999992000072103004+62230+045030FM-12+005399999V0209999C000019999999N0100001N1+02051+01691102101ADDAA199000091GF105991021001999999031011MD1210021+9999REMSYN070AAXX  21031 22778 32997 50000 10205 20169 40210 52002 82031 333 55120;EQDQ01  00002PRCP99
0112227780999992000072109004+62230+045030FM-12+005399999V0201801N005012200019N0100001N1+03051+01611102071ADDGF103991021011012501001011MD1810041+9999REMSYN060AAXX  21091 22778 42697 31805 10305 20161 40207 58004 82101;
0133227780999992000072112004+62230+045030FM-12+005399999V0201801N005010300019N0100001N1+03081+01551102021ADDGF107991031021012501031011MA1999999101371MD1710051+9999REMSYN066AAXX  21121 22778 42697 71805 10308 20155 30137 40202 57005 83231;
0193227780999992000072118004+62230+045030FM-12+005399999V0200501N003010300019N0200001N1+02281+01551102121ADDAA199000091AY191061AY221061GF108991021021008001031011KA1999M+03281MD1310121+9999MW1021REMSYN076AAXX  21181 22778 31598 80503 10228 20155 40212 53012 70292 82231 333 10328;EQDQ01  00002PRCP99
0113227780999992000072200004+62230+045030FM-12+005399999V0200501N001012200019N0100001N1+02001+01761102201ADDGF102991021001999999031001MA1999999101511REMSYN060AAXX  22001 22778 42997 20501 10200 20176 30151 40220 82030;
0180227780999992000072203004+62230+045030FM-12+005399999V0201801N005010300019N0100001N1+02121+01841102261ADDAA199000091AY191031AY211031GF107991021091008001031001MD1210071+9999MW1171REMSYN076AAXX  22031 22778 31597 71805 10212 20184 40226 52007 71791 82930 333 55117;EQDQ01  00002PRCP99
0112227780999992000072209004+62230+045030FM-12+005399999V0200901N005019999999N0200001N1+02771+01961102121ADDGF107991051001999999031011MD1310011+9999REMSYN060AAXX  22091 22778 42998 70905 10277 20196 40212 53001 85031;
0133227780999992000072212004+62230+045030FM-12+005399999V0201401N007019999999N0200001N1+03131+01801101991ADDGF107991021001999999031011MA1999999101341MD1810121+9999REMSYN066AAXX  22121 22778 42998 71407 10313 20180 30134 40199 58012 82031;
0180227780999992000072218004+62230+045030FM-12+005399999V0209999C000019999999N0200001N1+02471+01751102011ADDAA100000591AY191061AY221061GF108991051001999999031011KA1999M+03201MD1310071+9999MW1291REMSYN082AAXX  22181 22778 11998 80000 10247 20175 40201 53007 69960 72992 85031 333 10320;
0159227780999992000072300004+62230+045030FM-12+005399999V0209999C000010036019N0100001N1+02301+01751101931ADDGA1051+003609059GF108991051051004501031011MA1999999101261MD1310031+9999REMSYN076AAXX  23001 22778 42497 80000 10230 20175 30126 40193 53003 85531 333 85612;
0180227780999992000072303004+62230+045030FM-12+005399999V0200901N003019999999N0040001N1+02341+01771101821ADDAA199000091AY121031AY221031GF106991041001999999031011MD1810111+9999MW1041REMSYN076AAXX  23031 22778 31996 60903 10234 20177 40182 58011 70422 84031 333 55080;EQDQ01  00002PRCP99
0166227780999992000072403004+62230+045030FM-12+005399999V0203601N005010036019N0040001N1+02061+01931101671ADDAY191031AY281031GA1061+003609099GF108991061091004501031999MD1710081+9999MW1971REMSYN076AAXX  24031 22778 41496 83605 10206 20193 40167 57008 79798 8693/ 333 86912;
0161227780999992000072406004+62230+045030FM-12+005399999V0209999C000019999999N0040001N1+01931+01801101461ADDAY121061AY221061GF108991051001999999071011MA1999999100771MD1810021+9999MW1101REMSYN072AAXX  24061 22778 41996 80000 10193 20180 30077 40146 58002 71022 85071;
0112227780999992000072409004+62230+045030FM-12+005399999V0203201N005012200019N0600001N1+02581+01511101421ADDGF107991021021012501001011MD1810051+9999REMSYN060AAXX  24091 22778 42686 73205 10258 20151 40142 58005 82201;
0133227780999992000072412004+62230+045030FM-12+005399999V0202701N005012200019N0600001N1+02721+01371101321ADDGF103991031021012501001011MA1999999100661MD1710101+9999REMSYN066AAXX  24121 22778 42686 32705 10272 20137 30066 40132 57010 83201;
0165227780999992000072418004+62230+045030FM-12+005399999V0202701N003019999999N0200001N1+02201+01681101161ADDAA199000091GF106991051001999999031011KA1999M+02761MD1710041+9999REMSYN070AAXX  24181 22778 32998 62703 10220 20168 40116 57004 85031 333 10276;EQDQ01  00002PRCP99
0133227780999992000072500004+62230+045030FM-12+005399999V0209999C000019999999N0200001N1+01611+01451101121ADDGF107991051001999999031011MA1999999100441MD1810071+9999REMSYN066AAXX  25001 22778 42998 70000 10161 20145 30044 40112 58007 85031;
0152227780999992000072503004+62230+045030FM-12+005399999V0202701N001019999999N0200001N1+01801+01461101101ADDAA199000091GF108991061001999999051011MD1710021+9999REMSYN070AAXX  25031 22778 32998 82701 10180 20146 40110 57002 86051 333 55141;EQDQ01  00002PRCP99
0112227780999992000072509004+62230+045030FM-12+005399999V0200501N003010300019N0200001N1+02261+01471101081ADDGF108991021021008001031011MD1810031+9999REMSYN060AAXX  25091 22778 42598 80503 10226 20147 40108 58003 82231;
0133227780999992000072512004+62230+045030FM-12+005399999V0203601N007010300019N0200001N1+02261+01601100961ADDGF108991021041008001071999MA1999999100291MD1710121+9999REMSYN066AAXX  25121 22778 42598 83607 10226 20160 30029 40096 57012 8247/;
0171227780999992000072518004+62230+045030FM-12+005399999V0200501N007019999999N0200001N1+01761+01261100921ADDAA100999999GF108991081001999999071999KA1999M+02341MD1410001+9999REMSYN076AAXX  25181 22778 12998 80507 10176 20126 40092 54000 66900 8807/ 333 10234;EQDQ01  69012PRCP00
0133227780999992000072600004+62230+045030FM-12+005399999V0200501N005019999999N0200001N1+01401+01061100701ADDGF108991071001999999071999MA1999999100011MD1710071+9999REMSYN066AAXX  26001 22778 42998 80505 10140 20106 30001 40070 57007 8707/;
0210227780999992000072603004+62230+045030FM-12+005399999V0200501N005010057019N0040001N1+01451+01431100571ADDAA199000091AY121031AY221031GA1071+005709059GF107991071051004501999999GJ100609MD1710131+9999MW1041REMSYN082AAXX  26031 22778 31496 70505 10145 20143 40057 57013 70422 875// 333 55010 87619;EQDQ01  00002PRCP99
0166227780999992000072609004+62230+045030FM-12+005399999V0200501N005010024019N0040001N1+01381+01251100501ADDAY151031AY221031GA1081+002409069GF108991081061002501999999MD1710011+9999MW1511REMSYN076AAXX  26091 22778 41396 80505 10138 20125 40050 57001 75152 886// 333 88708;
0187227780999992000072612004+62230+045030FM-12+005399999V0200501N005010027019N0040001N1+01301+01031100501ADDAY151061AY221061GA1081+002709069GF108991081061002501999999MA1999999099811MD1410001+9999MW1101REMSYN082AAXX  26121 22778 41396 80505 10130 20103 39981 40050 54000 71052 886// 333 88709;
0202227780999992000072618004+62230+045030FM-12+005399999V0200901N005010021019N0040001N1+01041+00901100591ADDAA100000591AY161061AY251061GA1081+002109069GF108991081061002501999999KA1120M+01491MD1210061+9999MW1211REMSYN088AAXX  26181 22778 11396 80905 10104 20090 40059 52006 69950 72165 886// 333 10149 88707;
0187227780999992000072700004+62230+045030FM-12+005399999V0200901N003010024019N0040001N1+00881+00771100531ADDAY151061AY221061GA1081+002409069GF108991081061002501999999MA1999999099831MD1710051+9999MW1511REMSYN082AAXX  27001 22778 41396 80903 10088 20077 39983 40053 57005 75152 886// 333 88708;
0199227780999992000072703004+62230+045030FM-12+005399999V0200501N003010024019N0040001N1+00981+00851100521ADDAY161031AY251031GA1071+002409069GF108991999071002501021999GJ100009MD1710011+9999MW1631REMSYN082AAXX  27031 22778 /1396 80503 10098 20085 40052 57001 76365 8872/ 333 55000 87708;EQDQ01+000082SCOTLC
0138227780999992000072709004+62230+045030FM-12+005399999V0200501N005010030019N0100001N1+01171+00991100521ADDGA1081+003009059GF108991081051004501999999MD1410001+9999REMSYN070AAXX  27091 22778 41497 80505 10117 20099 40052 54000 885// 333 88610;
0187227780999992000072712004+62230+045030FM-12+005399999V0200501N005010030019N0100001N1+01231+01041100531ADDAY181061AY221061GA1071+003009059GF107991071051004501999999MA1999999099841MD1310011+9999MW1101REMSYN082AAXX  27121 22778 41497 70505 10123 20104 39984 40053 53001 71082 875// 333 87610;
0202227780999992000072718004+62230+045030FM-12+005399999V0200301N005010042019N0040001N1+01171+00991100651ADDAA100007991AY181061AY221061GA1061+004209099GF108991061031004501071999KA1120M+01271MD1210041+9999MW1811REMSYN088AAXX  27181 22778 11496 80305 10117 20099 40065 52004 60080 78182 8637/ 333 10127 86914;
0187227780999992000072800004+62230+045030FM-12+005399999V0200301N004010036019N0100001N1+01201+01061100321ADDAY181061AY221061GA1071+003609059GF108991071051004501999999MA1999999099631MD1710131+9999MW1251REMSYN082AAXX  28001 22778 41497 80304 10120 20106 39963 40032 57013 72582 875// 333 87612;
0180227780999992000072803004+62230+045030FM-12+005399999V0200401N005010030019N0040001N1+01211+01071100251ADDAY181031AY221031GA1071+003009069GF108991081031004501999999GJ100009MD1710071+9999MW1801REMSYN082AAXX  28031 22778 /1496 80405 10121 20107 40025 57007 78082 883// 333 55000 87710;
0166227780999992000072809004+62230+045030FM-12+005399999V0200501N004010021019N0060001N1+01421+01311100341ADDAY151031AY221031GA1081+002109069GF108991081061002501999999MD1210081+9999MW1511REMSYN076AAXX  28091 22778 41356 80504 10142 20131 40034 52008 75152 886// 333 88707;
0187227780999992000072812004+62230+045030FM-12+005399999V0200601N003010021019N0100001N1+01541+01431100391ADDAY151061AY221061GA1081+002109069GF108991081061002501999999MA1999999099701MD1210051+9999MW1511REMSYN082AAXX  28121 22778 41360 80603 10154 20143 39970 40039 52005 75152 886// 333 88707;
0202227780999992000072818004+62230+045030FM-12+005399999V0200101N003010024019N0120001N1+01481+01411100431ADDAA100002091AY151061AY221061GA1081+002409069GF108991081061002501999999KA1120M+01591MD1410001+9999MW1021REMSYN088AAXX  28181 22778 11362 80103 10148 20141 40043 54000 60020 70252 886// 333 10159 88708;
0159227780999992000072900004+62230+045030FM-12+005399999V0200201N002010048019N0140001N1+01401+01351100501ADDGA1071+004809059GF107991071051004501999999MA1999999099801MD1210021+9999REMSYN076AAXX  29001 22778 42464 70202 10140 20135 39980 40050 52002 875// 333 87616;
0152227780999992000072903004+62230+045030FM-12+005399999V0200101N002010042019N0600001N1+01421+01311100591ADDGA1061+004209059GF108991061051004501071999GJ100009MD1210101+9999REMSYN076AAXX  29031 22778 /2486 80102 10142 20131 40059 52010 8657/ 333 55000 86614;
0138227780999992000072909004+62230+045030FM-12+005399999V0200301N003010030019N0400001N1+01671+01421100801ADDGA1071+003009059GF108991071051004501999999MD1210081+9999REMSYN070AAXX  29091 22778 42482 80303 10167 20142 40080 52008 875// 333 87610;
0159227780999992000072912004+62230+045030FM-12+005399999V0200201N004010027019N0220001N1+01651+01461100841ADDGA1071+002709069GF108991081061002501999999MA1999999100161MD1210041+9999REMSYN076AAXX  29121 22778 42372 80204 10165 20146 30016 40084 52004 886// 333 87709;
0187227780999992000072918004+62230+045030FM-12+005399999V0200101N002010027019N0250001N1+01651+01501100911ADDAA199000091GA1081+002709069GF108991081061002501999999KA1120M+01721MD1210011+9999REMSYN076AAXX  29181 22778 32375 80102 10165 20150 40091 52001 886// 333 10172 88709;EQDQ01  00002PRCP99
0159227780999992000073000004+62230+045030FM-12+005399999V0203601N004010027019N0200001N1+01641+01541100881ADDGA1081+002709069GF108991081061002501999999MA1999999100201MD1710011+9999REMSYN076AAXX  30001 22778 42370 83604 10164 20154 30020 40088 57001 886// 333 88709;
0180227780999992000073003004+62230+045030FM-12+005399999V0203501N003010018019N0110001N1+01601+01501100881ADDAY161031AY221031GA1071+001809069GF108991081031001501999999GJ100009MD1410001+9999MW1611REMSYN082AAXX  30031 22778 /1261 83503 10160 20150 40088 54000 76162 883// 333 55000 87706;
0187227780999992000073012004+62230+045030FM-12+005399999V0203001N003010033019N0040001N1+01651+01571100911ADDAY181061AY261061GA1061+003309069GF108991061071004501071999MA1999999100231MD1310041+9999MW1611REMSYN082AAXX  30121 22778 41440 83003 10165 20157 30023 40091 53004 76186 8677/ 333 86711;
0202227780999992000073018004+62230+045030FM-12+005399999V0202801N002010039019N0100001N1+01681+01611100881ADDAA100015091AY161061AY251061GA1071+003909059GF108991071051004501999999KA1120M+01781MD1710011+9999MW1201REMSYN088AAXX  30181 22778 11460 82802 10168 20161 40088 57001 60150 72065 875// 333 10178 87613;
0206227780999992000073100004+62230+045030FM-12+005399999V0202701N002010057019N0100001N1+99999+99999100771ADDAY151061AY221061GA1071+005709059GF107991999051004501999999MA1999999100091MD1710051+9999MW1101REMSYN082AAXX  31001 22778 41460 72702 19169 20165 30009 40077 57005 71052 885// 333 87619;EQDQ01+000082SCOTLC
0112227780999992000073109004+62230+045030FM-12+005399999V0202501N003010300019N0600001N1+01931+01391100621ADDGF107991031041008001031001MD1310041+9999REMSYN060AAXX  31091 22778 42586 72503 10193 20139 40062 53004 83430;
0133227780999992000073112004+62230+045030FM-12+005399999V0202601N004010300019N0600001N1+02221+01501100581ADDGF106991031021008001031001MA1999999099911MD1810031+9999REMSYN066AAXX  31121 22778 42586 62604 10222 20150 39991 40058 58003 83230;
0165227780999992000073118004+62230+045030FM-12+005399999V0209999C000010300019N0600001N1+01681+01491100591ADDAA199000091GF108991011021008001031011KA1999M+02251MD1310011+9999REMSYN070AAXX  31181 22778 32586 80000 10168 20149 40059 53001 81231 333 10225;EQDQ01  00002PRCP99
0133227780999992000080100004+62230+045030FM-12+005399999V0203401N003012200019N0130001N1+01331+01181100751ADDGF102991011001999999031011MA1999999100061MD1210121+9999REMSYN066AAXX  01001 22778 42963 23403 10133 20118 30006 40075 52012 81031;
0152227780999992000080103004+62230+045030FM-12+005399999V0203001N002019999999N0600001N1+01381+01101100931ADDAA199000091GF105991001001999999001011MD1210181+9999REMSYN070AAXX  01031 22778 32986 53002 10138 20110 40093 52018 80001 333 55075;EQDQ01  00002PRCP99
0112227780999992000080109004+62230+045030FM-12+005399999V0203001N003012200019N0600001N1+02101+01121101101ADDGF103991021021012501001011MD1210081+9999REMSYN060AAXX  01091 22778 42686 33003 10210 20112 40110 52008 82201;
0133227780999992000080112004+62230+045030FM-12+005399999V0209999V001012200019N0600001N1+02301+00931101101ADDGF103991021021012501001011MA1999999100431MD1210011+9999REMSYN066AAXX  01121 22778 42686 39901 10230 20093 30043 40110 52001 82201;
0165227780999992000080118004+62230+045030FM-12+005399999V0200501N004012200019N0600001N1+01831+01051101121ADDAA199000091GF102991021001999999031001KA1999M+02431MD1310071+9999REMSYN070AAXX  01181 22778 32986 20504 10183 20105 40112 53007 82030 333 10243;EQDQ01  00002PRCP99
0133227780999992000080200004+62230+045030FM-12+005399999V0200201N002019999999N0600001N1+01411+00901101321ADDGF106991051001999999031011MA1999999100621MD1210131+9999REMSYN066AAXX  02001 22778 42986 60202 10141 20090 30062 40132 52013 85031;
0152227780999992000080203004+62230+045030FM-12+005399999V0200401N004019999999N0600001N1+01421+00931101171ADDAA199000091GF106991051001999999031011MD1810141+9999REMSYN070AAXX  02031 22778 32986 60404 10142 20093 40117 58014 85031 333 55152;EQDQ01  00002PRCP99
0112227780999992000080209004+62230+045030FM-12+005399999V0200501N003019999999N0600001N1+01841+01111101101ADDGF108991061001999999031011MD1710051+9999REMSYN060AAXX  02091 22778 42986 80503 10184 20111 40110 57005 86031;
0161227780999992000080212004+62230+045030FM-12+005399999V0200301N004019999999N0140001N1+01551+01311101051ADDAY161061AY221061GF108991081001999999071999MA1999999100861MD1310061+9999MW1611REMSYN072AAXX  02121 22778 41964 80304 10155 20131 30086 40105 53006 76162 8807/;
0180227780999992000080218004+62230+045030FM-12+005399999V0200101N003019999999N0110001N1+01261+01141101041ADDAA100004191AY161061AY221061GF108991081001999999071999KA1999M+01971MD1310021+9999MW1611REMSYN082AAXX  02181 22778 11961 80103 10126 20114 40104 53002 60040 76162 8807/ 333 10197;
0161227780999992000080300004+62230+045030FM-12+005399999V0200201N003010300019N0100001N1+01121+01001100981ADDAY161061AY221061GF108991021071004501071999MA1999999100281MD1710021+9999MW1611REMSYN072AAXX  03001 22778 41460 80203 10112 20100 30028 40098 57002 76162 8277/;
0180227780999992000080303004+62230+045030FM-12+005399999V0200301N003010027019N0160001N1+01021+00901101011ADDAY161031AY251031GA1081+002709069GF108991081061002501999999GJ101629MD1310031+9999MW1511REMSYN082AAXX  03031 22778 /1366 80303 10102 20090 40101 53003 75165 886// 333 55027 88709;
0138227780999992000080309004+62230+045030FM-12+005399999V0203501N003010054019N0600001N1+01231+00861100991ADDGA1071+005409059GF107991071051004501999999MD1210021+9999REMSYN070AAXX  03091 22778 42486 73503 10123 20086 40099 52002 875// 333 87618;
0206227780999992000080312004+62230+045030FM-12+005399999V0209999V002012200019N0240001N1+01301+01021100971ADDAY181061AY221061GA1051+007509099GF199999051091008001031001MA1999999100281MD1810021+9999MW1251REMSYN082AAXX  03121 22778 41574 19902 10130 20102 30028 40097 58002 72582 85930 333 85925;EQDQ01+000012SCOTCV
0180227780999992000080318004+62230+045030FM-12+005399999V0200201N003012200019N0600001N1+01121+00881100921ADDAA100000791AY181061AY211061GF103991031001999999031001KA1999M+01531MD1710021+9999MW1011REMSYN082AAXX  03181 22778 11986 30203 10112 20088 40092 57002 69900 70181 83030 333 10153;
0133227780999992000080400004+62230+045030FM-12+005399999V0200201N002019999999N0600001N1+00841+00761100891ADDGF107991071001999999031001MA1999999100191MD1810051+9999REMSYN066AAXX  04001 22778 42986 70202 10084 20076 30019 40089 58005 87030;
0152227780999992000080403004+62230+045030FM-12+005399999V0200301N002019999999N0600001N1+00981+00811100831ADDAA199000091GF106991061001999999031001MD1710061+9999REMSYN070AAXX  04031 22778 32986 60302 10098 20081 40083 57006 86030 333 55039;EQDQ01  00002PRCP99
0112227780999992000080409004+62230+045030FM-12+005399999V0209999V001012200019N0600001N1+01731+00741100791ADDGF103991021011012501001011MD1310011+9999REMSYN060AAXX  04091 22778 42686 39901 10173 20074 40079 53001 82101;
0133227780999992000080412004+62230+045030FM-12+005399999V0203201N003012200019N0600001N1+01721+00481100601ADDGF103991021001999999021011MA1999999099921MD1810191+9999REMSYN066AAXX  04121 22778 42986 33203 10172 20048 39992 40060 58019 82021;
0165227780999992000080418004+62230+045030FM-12+005399999V0203501N002019999999N0600001N1+01241+00811100711ADDAA199000091GF106991061001999999071001KA1999M+01901MD1210021+9999REMSYN070AAXX  04181 22778 32986 63502 10124 20081 40071 52002 86070 333 10190;EQDQ01  00002PRCP99
0159227780999992000080500004+62230+045030FM-12+005399999V0209999V001010072019N0600001N1+00911+00771100761ADDGA1051+007209059GF108991051051008001071999MA1999999100061MD1210031+9999REMSYN076AAXX  05001 22778 42586 89901 10091 20077 30006 40076 52003 8557/ 333 85624;
0152227780999992000080503004+62230+045030FM-12+005399999V0203001N003010066019N0600001N1+00931+00711100791ADDGA1061+006609059GF107991061051008001071999GJ107089MD1210031+9999REMSYN076AAXX  05031 22778 42586 73003 10093 20071 40079 52003 8657/ 333 55118 86622;
0138227780999992000080509004+62230+045030FM-12+005399999V0202701N004010105019N0600001N1+01281+00651100771ADDGA1061+010509059GF108991061051012501051999MD1410001+9999REMSYN070AAXX  05091 22778 42686 82704 10128 20065 40077 54000 8655/ 333 86635;
0159227780999992000080512004+62230+045030FM-12+005399999V0203001N005010093019N0600001N1+01271+00561100801ADDGA1061+009309059GF108991061051008001051999MA1999999100111MD1310031+9999REMSYN076AAXX  05121 22778 42586 83005 10127 20056 30011 40080 53003 8655/ 333 86631;
0152227780999992000080518004+62230+045030FM-12+005399999V0202801N002019999999N0600001N1+01061+00651100731ADDAA100000791GF106991061001999999071011KA1999M+01481MD1710031+9999REMSYN076AAXX  05181 22778 12986 62802 10106 20065 40073 57003 69900 86071 333 10148;
0161227780999992000080600004+62230+045030FM-12+005399999V0202601N003019999999N0150001N1+01011+00621100541ADDAY161061AY221061GF108991081001999999071999MA1999999099841MD1710131+9999MW1611REMSYN072AAXX  06001 22778 41965 82603 10101 20062 39984 40054 57013 76162 8807/;
0150227780999992000080603004+62230+045030FM-12+005399999V0202501N005019999999N0120001N1+01011+00651100431ADDAY161031AY221031GF108991081001999999071999MD1710111+9999MW1611REMSYN076AAXX  06031 22778 /1962 82505 10101 20065 40043 57011 76162 8807/ 333 55024;
0166227780999992000080609004+62230+045030FM-12+005399999V0203001N004010051019N0150001N1+01071+00851100411ADDAY181031AY261031GA1061+005109099GF108991061031004501071999MD1310031+9999MW1801REMSYN076AAXX  06091 22778 41465 83004 10107 20085 40041 53003 78086 8637/ 333 86917;
0180227780999992000080618004+62230+045030FM-12+005399999V0202701N002010300019N0600001N1+01011+00821100491ADDAA100003091AY181061AY221061GF107991031051008001031001KA1999M+01221MD1310021+9999MW1021REMSYN082AAXX  06181 22778 11586 72702 10101 20082 40049 53002 60030 70282 83530 333 10122;
0166227780999992000080700004+62230+045030FM-12+005399999V0202801N002010027019N0600001N1+01021+00921100501ADDAY161061AY221061GA1061+002709069GF107991061061002501061031MD1310011+9999MW1021REMSYN076AAXX  07001 22778 41386 72802 10102 20092 40050 53001 70262 86663 333 86709;
0180227780999992000080703004+62230+045030FM-12+005399999V0202401N001010021019N0080001N1+01021+00841100461ADDAY181031AY221031GA1081+002109069GF108991081031002501999999GJ100189MD1810041+9999MW1801REMSYN082AAXX  07031 22778 /1358 82401 10102 20084 40046 58004 78082 883// 333 55003 88707;
0138227780999992000080709004+62230+045030FM-12+005399999V0202601N002010063019N0200001N1+01361+00931100591ADDGA1051+006309059GF107991051051008001031011MD1210061+9999REMSYN070AAXX  07091 22778 42570 72602 10136 20093 40059 52006 85531 333 85621;
0133227780999992000080712004+62230+045030FM-12+005399999V0209999V001010300019N0600001N1+01711+01101100591ADDGF106991031041008001031011MA1999999099911MD1210011+9999REMSYN066AAXX  07121 22778 42586 69901 10171 20110 39991 40059 52001 83431;
0152227780999992000080718004+62230+045030FM-12+005399999V0201301N002012200019N0600001N1+01411+01171100621ADDAA100002091GF102991021001999999051001KA1999M+01921MD1410001+9999REMSYN076AAXX  07181 22778 12986 21302 10141 20117 40062 54000 60020 82050 333 10192;
0133227780999992000080800004+62230+045030FM-12+005399999V0201101N002012200019N0140001N1+01011+00711100851ADDGF102991011001999999031011MA1999999100151MD1210091+9999REMSYN066AAXX  08001 22778 42964 21102 10101 20071 30015 40085 52009 81031;
0174227780999992000080803004+62230+045030FM-12+005399999V02099999999992200019N0004001N1+01031+00971100901ADDAA199000091AY141031AY201031GF101991999999999999999999MD1210051+9999MW1471REMSYN070AAXX  08031 22778 31/04 13990 10103 20097 40090 52005 74740 333 55067;EQDQ01  00002PRCP99
0112227780999992000080809004+62230+045030FM-12+005399999V0201601N005012200019N0600001N1+02131+01211100791ADDGF106991031021012501001011MD1710071+9999REMSYN060AAXX  08091 22778 42686 61605 10213 20121 40079 57007 83201;
0133227780999992000080812004+62230+045030FM-12+005399999V0201501N006010300019N0600001N1+02311+01041100711ADDGF106991031021012501031999MA1999999100041MD1710081+9999REMSYN066AAXX  08121 22778 42686 61506 10231 20104 30004 40071 57008 8323/;
0174227780999992000080818004+62230+045030FM-12+005399999V0201401N003010300019N0150001N1+01671+01441100671ADDAA199000021AY181061AY221061GF108991031051004501071999KA1999M+02361MD1310021+9999MW1251REMSYN076AAXX  08181 22778 31465 81403 10167 20144 40067 53002 72582 8357/ 333 10236;
0206227780999992000080900004+62230+045030FM-12+005399999V0202301N002010048019N0060001N1+01601+01531100691ADDAY181061AY261061GA1071+004809029GF108991999071004501021999MA1999999100011MD1310031+9999MW1611REMSYN082AAXX  09001 22778 41456 82302 10160 20153 30001 40069 53003 76186 8872/ 333 87516;EQDQ01+000082SCOTLC
0180227780999992000080903004+62230+045030FM-12+005399999V0202701N002010030019N0120001N1+01521+01411100821ADDAY161031AY221031GA1071+003009059GF108991071051004501999999GJ105289MD1210121+9999MW1021REMSYN082AAXX  09031 22778 /1462 82702 10152 20141 40082 52012 70262 875// 333 55088 87610;
0112227780999992000080909004+62230+045030FM-12+005399999V0209999V002010300019N0600001N1+02001+01091100911ADDGF106991031021008001031011MD1210021+9999REMSYN060AAXX  09091 22778 42586 69902 10200 20109 40091 52002 83231;
0133227780999992000080912004+62230+045030FM-12+005399999V0209999V002010300019N0600001N1+01981+00781100881ADDGF107991021021012501031011MA1999999100201MD1810031+9999REMSYN066AAXX  09121 22778 42686 79902 10198 20078 30020 40088 58003 82231;
0180227780999992000080918004+62230+045030FM-12+005399999V0200901N003010300019N0200001N1+01371+01281100811ADDAA100001091AY181061AY221061GF106991011021008001031001KA1999M+02171MD1710041+9999MW1021REMSYN082AAXX  09181 22778 11570 60903 10137 20128 40081 57004 60010 70282 81230 333 10217;
0161227780999992000081000004+62230+045030FM-12+005399999V0201001N001012200019N0600001N1+00921+00841100801ADDAY111061AY211061GF102991021001999999031001MA1999999100101MD1310041+9999MW1121REMSYN072AAXX  10001 22778 41986 21001 10092 20084 30010 40080 53004 71211 82030;
0112227780999992000081009004+62230+045030FM-12+005399999V0202001N004010300019N0600001N1+01941+00701100571ADDGF107991031021012501031011MD1710061+9999REMSYN060AAXX  10091 22778 42686 72004 10194 20070 40057 57006 83231;
0161227780999992000081012004+62230+045030FM-12+005399999V0202201N003010300019N0600001N1+01851+00861100551ADDAY181061AY211061GF107991041021012501031011MA1999999099871MD1710021+9999MW1021REMSYN072AAXX  10121 22778 41686 72203 10185 20086 39987 40055 57002 70281 84231;
0180227780999992000081018004+62230+045030FM-12+005399999V0202401N002010300019N0600001N1+01531+01121100551ADDAA100000891AY181061AY221061GF106991021041008001031001KA1999M+02071MD1310021+9999MW1021REMSYN082AAXX  10181 22778 11586 62402 10153 20112 40055 53002 69980 70282 82430 333 10207;
0161227780999992000081100004+62230+045030FM-12+005399999V0201601N002010300019N0600001N1+01191+01021100551ADDAY181061AY221061GF108991031051008001071999MA1999999099861MD1410001+9999MW1021REMSYN072AAXX  11001 22778 41586 81602 10119 20102 39986 40055 54000 70282 8357/;
0180227780999992000081103004+62230+045030FM-12+005399999V0209999V001010033019N0240001N1+01231+00991100551ADDAY181031AY221031GA1061+003309059GF108991061051004501071999GJ106189MD1410001+9999MW1251REMSYN082AAXX  11031 22778 /1474 89901 10123 20099 40055 54000 72582 8657/ 333 55103 86611;
0166227780999992000081109004+62230+045030FM-12+005399999V0209999V001010051019N0120001N1+01481+01001100481ADDAY181031AY221031GA1061+005109099GF107991061031004501031001MD1310021+9999MW1801REMSYN076AAXX  11091 22778 41462 79901 10148 20100 40048 53002 78082 86330 333 86917;
0161227780999992000081112004+62230+045030FM-12+005399999V0209999V001010300019N0600001N1+01451+01191100481ADDAY181061AY221061GF108991031031004501071999MA1999999099791MD1410001+9999MW1251REMSYN072AAXX  11121 22778 41486 89901 10145 20119 39979 40048 54000 72582 8337/;
0202227780999992000081118004+62230+045030FM-12+005399999V0203301N002010033019N0130001N1+01221+01121100541ADDAA100008991AY181061AY221061GA1061+003309099GF108991061031004501071999KA1120M+01721MD1410001+9999MW1801REMSYN088AAXX  11181 22778 11463 83302 10122 20112 40054 54000 60090 78082 8637/ 333 10172 86911;
0187227780999992000081200004+62230+045030FM-12+005399999V0203101N002010024019N0120001N1+01021+00951100741ADDAY181061AY261061GA1061+002409069GF108991061071002501071999MA1999999100041MD1210101+9999MW1611REMSYN082AAXX  12001 22778 41362 83102 10102 20095 30004 40074 52010 76186 8677/ 333 86708;
0180227780999992000081203004+62230+045030FM-12+005399999V0202901N003010021019N0090001N1+01051+00951100901ADDAY161031AY221031GA1081+002109069GF108991081061002501999999GJ101569MD1210161+9999MW1101REMSYN082AAXX  12031 22778 /1359 82903 10105 20095 40090 52016 71062 886// 333 55026 88707;
0112227780999992000081209004+62230+045030FM-12+005399999V0202701N004012200019N0600001N1+01601+01031101141ADDGF103991021021008001001011MD1210081+9999REMSYN060AAXX  12091 22778 42586 32704 10160 20103 40114 52008 82201;
0165227780999992000081218004+62230+045030FM-12+005399999V0209999C000010300019N0600001N1+01371+01141101301ADDAA199000091GF107991021051008001071001KA1999M+01951MD1210061+9999REMSYN070AAXX  12181 22778 32586 70000 10137 20114 40130 52006 82570 333 10195;EQDQ01  00002PRCP99
0180227780999992000081303004+62230+045030FM-12+005399999V0209999C000019999999N0005001N1+00901+00841101411ADDAA199000091AY141031AY211031GF105991021001999999071011MD1410001+9999MW1421REMSYN076AAXX  13031 22778 31905 50000 10090 20084 40141 54000 74241 82071 333 55094;EQDQ01  00002PRCP99
0112227780999992000081309004+62230+045030FM-12+005399999V0209999V002010300019N0600001N1+02011+01031101401ADDGF106991021021012501031011MD1810031+9999REMSYN060AAXX  13091 22778 42686 69902 10201 20103 40140 58003 82231;
0133227780999992000081312004+62230+045030FM-12+005399999V0209999V001010300019N0600001N1+02141+00901101341ADDGF107991021021012501031011MA1999999100671MD1710051+9999REMSYN066AAXX  13121 22778 42686 79901 10214 20090 30067 40134 57005 82231;
0165227780999992000081318004+62230+045030FM-12+005399999V0200601N001010300019N0600001N1+01621+01261101231ADDAA199000091GF106991031041012501031001KA1999M+02221MD1410001+9999REMSYN070AAXX  13181 22778 32686 60601 10162 20126 40123 54000 83430 333 10222;EQDQ01  00002PRCP99
0133227780999992000081400004+62230+045030FM-12+005399999V0201301N001019999999N0500001N1+01211+01051101121ADDGF105991051001999999031001MA1999999100431MD1710041+9999REMSYN066AAXX  14001 22778 42984 51301 10121 20105 30043 40112 57004 85030;
0152227780999992000081403004+62230+045030FM-12+005399999V0209999V001019999999N0600001N1+01231+01051101141ADDAA199000091GF106991051001999999031011MD1310021+9999REMSYN070AAXX  14031 22778 32986 69901 10123 20105 40114 53002 85031 333 55111;EQDQ01  00002PRCP99
0112227780999992000081409004+62230+045030FM-12+005399999V0202801N004010300019N0600001N1+01771+01021101151ADDGF106991031021008001031011MD1210011+9999REMSYN060AAXX  14091 22778 42586 62804 10177 20102 40115 52001 83231;
0133227780999992000081412004+62230+045030FM-12+005399999V0203101N006012200019N0600001N1+01911+00591101201ADDGF102991021021012501001011MA1999999100521MD1210051+9999REMSYN066AAXX  14121 22778 42686 23106 10191 20059 30052 40120 52005 82201;
0165227780999992000081418004+62230+045030FM-12+005399999V0209999V002012200019N0600001N1+01201+00801101211ADDAA199000091GF103991021041012501001011KA1999M+01931MD1310011+9999REMSYN070AAXX  14181 22778 32686 39902 10120 20080 40121 53001 82401 333 10193;EQDQ01  00002PRCP99
0133227780999992000081500004+62230+045030FM-12+005399999V0209999C000019999999N0500001N1+00731+00641101041ADDGF106991061001999999071001MA1999999100341MD1710151+9999REMSYN066AAXX  15001 22778 42984 60000 10073 20064 30034 40104 57015 86070;
0150227780999992000081503004+62230+045030FM-12+005399999V0209999V001010300019N0120001N1+00921+00771101031ADDAY181031AY221031GF106991031051004501031001MD1710011+9999MW1251REMSYN076AAXX  15031 22778 /1462 69901 10092 20077 40103 57001 72582 83530 333 55091;
0112227780999992000081509004+62230+045030FM-12+005399999V0202601N004012200019N0600001N1+01361+00501100961ADDGF104991041021012501001001MD1710041+9999REMSYN060AAXX  15091 22778 42686 42604 10136 20050 40096 57004 84200;
0133227780999992000081512004+62230+045030FM-12+005399999V0202501N005010300019N0600001N1+01461+00401100881ADDGF107991041021012501031001MA1999999100191MD1710081+9999REMSYN066AAXX  15121 22778 42686 72505 10146 20040 30019 40088 57008 84230;
0165227780999992000081518004+62230+045030FM-12+005399999V0202501N002019999999N0600001N1+01331+00671100591ADDAA199000091GF107991071001999999071001KA1999M+01611MD1710121+9999REMSYN070AAXX  15181 22778 32986 72502 10133 20067 40059 57012 87070 333 10161;EQDQ01  00002PRCP99
0161227780999992000081600004+62230+045030FM-12+005399999V0202601N004010300019N0140001N1+01041+00741100431ADDAY181061AY221061GF108991031031008001071999MA1999999099731MD1710091+9999MW1811REMSYN072AAXX  16001 22778 41564 82604 10104 20074 39973 40043 57009 78182 8337/;
0180227780999992000081603004+62230+045030FM-12+005399999V0202601N004010036019N0400001N1+01011+00851100321ADDAY181031AY251031GA1061+003609059GF108991061051004501071999GJ104509MD1710111+9999MW1511REMSYN082AAXX  16031 22778 /1482 82604 10101 20085 40032 57011 75185 8657/ 333 55075 86612;
0138227780999992000081609004+62230+045030FM-12+005399999V0203301N007010078019N0600001N1+01171+00461100481ADDGA1051+007809059GF107991051021008001031001MD1210131+9999REMSYN070AAXX  16091 22778 42586 73307 10117 20046 40048 52013 85230 333 85626;
0174227780999992000081618004+62230+045030FM-12+005399999V0203301N002010138019N0600001N1+01141+00731100541ADDAA100000791GA1061+013809059GF108991061051012501051999KA1120M+01461MD1310021+9999REMSYN082AAXX  16181 22778 12686 83302 10114 20073 40054 53002 69900 8655/ 333 10146 86646;
0133227780999992000081700004+62230+045030FM-12+005399999V0209999V001019999999N0500001N1+00681+00571100621ADDGF107991051001999999031011MA1999999099921MD1210061+9999REMSYN066AAXX  17001 22778 42984 79901 10068 20057 39992 40062 52006 85031;
0112227780999992000081709004+62230+045030FM-12+005399999V0209999V001010300019N0600001N1+01381+00761100781ADDGF107991031041012501031001MD1210061+9999REMSYN060AAXX  17091 22778 42686 79901 10138 20076 40078 52006 83430;
0133227780999992000081712004+62230+045030FM-12+005399999V0202501N003010300019N0600001N1+01661+00561100731ADDGF105991031021012501031091MA1999999100051MD1810041+9999REMSYN066AAXX  17121 22778 42686 52503 10166 20056 30005 40073 58004 83239;
0165227780999992000081718004+62230+045030FM-12+005399999V0209999V001019999999N0600001N1+01031+00821100701ADDAA199000091GF107991041001999999031011KA1999M+01751MD1710021+9999REMSYN070AAXX  17181 22778 32986 79901 10103 20082 40070 57002 84031 333 10175;EQDQ01  00002PRCP99
0133227780999992000081800004+62230+045030FM-12+005399999V0209999V002019999999N0500001N1+00881+00731100601ADDGF106991061001999999071001MA1999999099901MD1710091+9999REMSYN066AAXX  18001 22778 42984 69902 10088 20073 39990 40060 57009 86070;
0152227780999992000081803004+62230+045030FM-12+005399999V0209999V002019999999N0600001N1+01001+00731100501ADDAA199000091GF108991081001999999071999MD1710101+9999REMSYN070AAXX  18031 22778 32986 89902 10100 20073 40050 57010 8807/ 333 55091;EQDQ01  00002PRCP99
0166227780999992000081809004+62230+045030FM-12+005399999V0201101N004010033019N0070001N1+01201+01091100411ADDAY181031AY261031GA1061+003309059GF108991061041004501071999MD1710031+9999MW1511REMSYN076AAXX  18091 22778 41457 81104 10120 20109 40041 57003 75186 8647/ 333 86611;
0187227780999992000081812004+62230+045030FM-12+005399999V0201201N002010027019N0600001N1+01341+01151100421ADDAY181061AY261061GA1061+002709069GF108991061061002501071999MA1999999099731MD1310011+9999MW1251REMSYN082AAXX  18121 22778 41386 81202 10134 20115 39973 40042 53001 72586 8667/ 333 86709;
0202227780999992000081818004+62230+045030FM-12+005399999V0200101N002010054019N0600001N1+01241+01001100481ADDAA100003091AY181061AY221061GA1071+005409059GF107991071051004501001001KA1120M+01471MD1310081+9999MW1021REMSYN088AAXX  18181 22778 11486 70102 10124 20100 40048 53008 60030 70282 87500 333 10147 87618;
0161227780999992000081900004+62230+045030FM-12+005399999V0203301N003010300019N0070001N1+01131+01031100631ADDAY181061AY261061GF108991021071004501071999MA1999999099941MD1310151+9999MW1611REMSYN072AAXX  19001 22778 41457 83303 10113 20103 39994 40063 53015 76186 8277/;
0150227780999992000081903004+62230+045030FM-12+005399999V0202901N002010300019N0120001N1+01081+00981100871ADDAY161031AY221031GF108991031071004501071999MD1210231+9999MW1611REMSYN076AAXX  19031 22778 /1462 82902 10108 20098 40087 52023 76162 8377/ 333 55003;
0138227780999992000081909004+62230+045030FM-12+005399999V0203201N001010081019N0600001N1+01561+00901100941ADDGA1061+008109059GF107991061041008001031001MD1210071+9999REMSYN070AAXX  19091 22778 42586 73201 10156 20090 40094 52007 86430 333 86627;
0180227780999992000081918004+62230+045030FM-12+005399999V0209999V002019999999N0600001N1+01201+01031100881ADDAA100000791AY181061AY221061GF107991061001999999051011KA1999M+01761MD1710041+9999MW1021REMSYN082AAXX  19181 22778 11986 79902 10120 20103 40088 57004 69900 70282 86051 333 10176;
0187227780999992000082000004+62230+045030FM-12+005399999V0209999V002010039019N0500001N1+01031+00951100781ADDAY181061AY221061GA1051+003909059GF108991051041004501071999MA1999999100081MD1710081+9999MW1251REMSYN082AAXX  20001 22778 41484 89902 10103 20095 30008 40078 57008 72582 8547/ 333 85613;
0152227780999992000082003004+62230+045030FM-12+005399999V0201101N002010021019N0600001N1+01071+00951100751ADDGA1081+002109069GF108991081061002501999999GJ102169MD1710031+9999REMSYN076AAXX  20031 22778 /2386 81102 10107 20095 40075 57003 886// 333 55036 88707;
0166227780999992000082009004+62230+045030FM-12+005399999V0201401N002010042019N0090001N1+01331+01031100781ADDAY151031AY221031GA1081+004209059GF108991081021004501999999MD1210011+9999MW1101REMSYN076AAXX  20091 22778 41459 81402 10133 20103 40078 52001 71052 882// 333 88614;
0181227780999992000082012004+62230+045030FM-12+005399999V0209999C000010048019N0110001N1+01331+01181999999ADDAY181061AY251061GA1051+004809099GF108991051031004501071999MA1999999100051MD1810041+9999MW1801REMSYN076AAXX  20121 22778 41461 80000 10133 20118 30005 58004 78085 8537/ 333 85916;
0180227780999992000082018004+62230+045030FM-12+005399999V0209999C000010300019N0600001N1+01281+01171100801ADDAA100007191AY181061AY221061GF108991021041004501051999KA1999M+01561MD1210051+9999MW1021REMSYN082AAXX  20181 22778 11486 80000 10128 20117 40080 52005 60070 70282 8245/ 333 10156;
0161227780999992000082100004+62230+045030FM-12+005399999V0209999V001019999999N0210001N1+00961+00941100871ADDAY121061AY221061GF106991061001999999031001MA1999999100171MD1210051+9999MW1111REMSYN072AAXX  21001 22778 41971 69901 10096 20094 30017 40087 52005 71122 86030;
0180227780999992000082103004+62230+045030FM-12+005399999V0209999V001019999999N0002001N1+01021+00981100931ADDAA199000091AY141031AY221031GF105991021001999999031011MD1210061+9999MW1441REMSYN076AAXX  21031 22778 31902 59901 10102 20098 40093 52006 74442 82031 333 55017;EQDQ01  00002PRCP99
0140227780999992000082109004+62230+045030FM-12+005399999V0209999V001010300019N0600001N1+01431+01091100941ADDAY181031AY221031GF106991041051008001031001MD1810021+9999MW1251REMSYN066AAXX  21091 22778 41586 69901 10143 20109 40094 58002 72582 84530;
0161227780999992000082112004+62230+045030FM-12+005399999V0209999V002010300019N0600001N1+01631+00921100931ADDAY181061AY221061GF106991031021008001031001MA1999999100251MD1410001+9999MW1021REMSYN072AAXX  21121 22778 41586 69902 10163 20092 30025 40093 54000 70282 83230;
0152227780999992000082118004+62230+045030FM-12+005399999V0209999V001019999999N0500001N1+01321+00951101081ADDAA100000591GF106991061001999999031001KA1999M+01761MD1210031+9999REMSYN076AAXX  21181 22778 12984 69901 10132 20095 40108 52003 69960 86030 333 10176;
0133227780999992000082200004+62230+045030FM-12+005399999V0200401N003012200019N0500001N1+00831+00701101111ADDGF103991031001999999031001MA1999999100411MD1810031+9999REMSYN066AAXX  22001 22778 42984 30403 10083 20070 30041 40111 58003 83030;
0152227780999992000082203004+62230+045030FM-12+005399999V0200501N003019999999N0600001N1+00781+00611101171ADDAA199000091GF106991061001999999031001MD1310061+9999REMSYN070AAXX  22031 22778 32986 60503 10078 20061 40117 53006 86030 333 55043;EQDQ01  00002PRCP99
0112227780999992000082209004+62230+045030FM-12+005399999V0200301N003010300019N0600001N1+01541+00561101131ADDGF107991021021012501031001MD1410001+9999REMSYN060AAXX  22091 22778 42686 70303 10154 20056 40113 54000 82230;
0133227780999992000082212004+62230+045030FM-12+005399999V0200701N002010300019N0600001N1+01641+00451101131ADDGF107991021021012501031001MA1999999100441MD1410001+9999REMSYN066AAXX  22121 22778 42686 70702 10164 20045 30044 40113 54000 82230;
0165227780999992000082218004+62230+045030FM-12+005399999V0200401N002012200019N0600001N1+00821+00591101171ADDAA199000091GF101991011001999999031001KA1999M+01741MD1310031+9999REMSYN070AAXX  22181 22778 32986 10402 10082 20059 40117 53003 81030 333 10174;EQDQ01  00002PRCP99
0133227780999992000082300004+62230+045030FM-12+005399999V0200801N002019999999N0500001N1+00801+00531101131ADDGF106991061001999999031001MA1999999100431MD1710011+9999REMSYN066AAXX  23001 22778 42984 60802 10080 20053 30043 40113 57001 86030;
0112227780999992000082309004+62230+045030FM-12+005399999V0201301N006010300019N0600001N1+01481+00531100921ADDGF108991021021008001031011MD1710061+9999REMSYN060AAXX  23091 22778 42586 81306 10148 20053 40092 57006 82231;
0133227780999992000082312004+62230+045030FM-12+005399999V0201201N005010300019N0600001N1+01511+00591100791ADDGF107991031021008001031001MA1999999100101MD1710131+9999REMSYN066AAXX  23121 22778 42586 71205 10151 20059 30010 40079 57013 83230;
0165227780999992000082318004+62230+045030FM-12+005399999V0200901N002019999999N0500001N1+01141+00581100641ADDAA199000091GF107991071001999999071999KA1999M+01561MD1710061+9999REMSYN070AAXX  23181 22778 32999 70902 10114 20058 40064 57006 8707/ 333 10156;EQDQ01  00002PRCP99
0133227780999992000082400004+62230+045030FM-12+005399999V0200801N003019999999N0500001N1+01001+00591100471ADDGF108991081001999999071999MA1999999099771MD1710061+9999REMSYN066AAXX  24001 22778 42984 80803 10100 20059 39977 40047 57006 8807/;
0140227780999992000082409004+62230+045030FM-12+005399999V0201301N002019999999N0210001N1+01161+00901100301ADDAY161031AY221031GF108991081001999999071999MD1710041+9999MW1611REMSYN066AAXX  24091 22778 41971 81302 10116 20090 40030 57004 76162 8807/;
0161227780999992000082412004+62230+045030FM-12+005399999V0200601N003010300019N0140001N1+01111+00891100331ADDAY181061AY261061GF108991021021008001071011MA1999999099631MD1310021+9999MW1611REMSYN072AAXX  24121 22778 41564 80603 10111 20089 39963 40033 53002 76186 82271;
0202227780999992000082418004+62230+045030FM-12+005399999V0200501N002010066019N0500001N1+00981+00681100361ADDAA100004191AY161061AY221061GA1071+006609059GF107991071051008001001001KA1120M+01231MD1210021+9999MW1021REMSYN088AAXX  24181 22778 11584 70502 10098 20068 40036 52002 60040 70262 87500 333 10123 87622;
0159227780999992000082500004+62230+045030FM-12+005399999V0200501N003010036019N0500001N1+00881+00671100291ADDGA1071+003609059GF107991071051004501999999MA1999999099591MD1710041+9999REMSYN076AAXX  25001 22778 42484 70503 10088 20067 39959 40029 57004 875// 333 87612;
0180227780999992000082503004+62230+045030FM-12+005399999V0200401N003010036019N0060001N1+00871+00681100331ADDAY151031AY221031GA1061+003609059GF108991081051004501999999GJ100009MD1310041+9999MW1511REMSYN082AAXX  25031 22778 /1456 80403 10087 20068 40033 53004 75152 885// 333 55000 86612;
0161227780999992000082512004+62230+045030FM-12+005399999V0200201N004010300019N0600001N1+01311+00641100541ADDAY151061AY221061GF108991021041008001051999MA1999999099851MD1210061+9999MW1031REMSYN072AAXX  25121 22778 41586 80204 10131 20064 39985 40054 52006 70352 8245/;
0180227780999992000082518004+62230+045030FM-12+005399999V0209999V001010300019N0180001N1+01041+00801100981ADDAA100000791AY181061AY221061GF108991021031008001071999KA1999M+01431MD1210181+9999MW1251REMSYN082AAXX  25181 22778 11568 89901 10104 20080 40098 52018 69900 72582 8237/ 333 10143;
0133227780999992000082600004+62230+045030FM-12+005399999V0200301N004012200019N0500001N1+00801+00531101281ADDGF102991021001999999031001MA1999999100571MD1210161+9999REMSYN066AAXX  26001 22778 42984 20304 10080 20053 30057 40128 52016 82030;
0122227780999992000082603004+62230+045030FM-12+005399999V0200201N004019999999N0600001N1+00671+00491101471ADDGF106991061001999999031001MD1210191+9999REMSYN070AAXX  26031 22778 /2986 60204 10067 20049 40147 52019 86030 333 55000;
0112227780999992000082609004+62230+045030FM-12+005399999V0202301N003012200019N0600001N1+01671+00551101731ADDGF102991021021012501031001MD1210131+9999REMSYN060AAXX  26091 22778 42686 22303 10167 20055 40173 52013 82230;
0161227780999992000082612004+62230+045030FM-12+005399999V0202701N002010300019N0600001N1+01481+01001101911ADDAY181061AY211061GF106991021021008001031011MA1999999101211MD1210161+9999MW1251REMSYN072AAXX  26121 22778 41586 62702 10148 20100 30121 40191 52016 72581 82231;
0152227780999992000082618004+62230+045030FM-12+005399999V0209999C000012200019N0500001N1+00941+00731101961ADDAA100002091GF103991021001999999031011KA1999M+01861MD1810061+9999REMSYN076AAXX  26181 22778 12984 30000 10094 20073 40196 58006 60020 82031 333 10186;
0171227780999992000082700004+62230+045030FM-12+005399999V0209999C000012200019N0060001N1+00371+00371102331ADDAY101061AY201061GA1001+999999999GF100991001001999999001001MA1999999101601MD1210141+9999MW1101REMSYN066AAXX  27001 22778 41956 00000 10037 20037 30160 40233 52014 71000;
0180227780999992000082703004+62230+045030FM-12+005399999V0209999C000019999999N0002001N1+00231+00211102341ADDAA199000091AY141031AY211031GF105991051001999999031001MD1210011+9999MW1441REMSYN076AAXX  27031 22778 31902 50000 10023 20021 40234 52001 74441 85030 333 55084;EQDQ01  00002PRCP99
0165227780999992000082718004+62230+045030FM-12+005399999V0202601N002012200019N0500001N1+01381+01071102161ADDAA199000091GF102991021001999999051011KA1999M+01841MD1310011+9999REMSYN070AAXX  27181 22778 32984 22602 10138 20107 40216 53001 82051 333 10184;EQDQ01  00002PRCP99
0161227780999992000082800004+62230+045030FM-12+005399999V0209999V001019999999N0500001N1+00731+00681102171ADDAY111061AY211061GF107991071001999999031001MA1999999101461MD1410001+9999MW1111REMSYN072AAXX  28001 22778 41984 79901 10073 20068 30146 40217 54000 71111 87030;
0133227780999992000082812004+62230+045030FM-12+005399999V0203001N005012200019N0600001N1+02141+01181102051ADDGF103991011011017501031011MA1999999101381MD1710281+9999REMSYN066AAXX  28121 22778 42786 33005 10214 20118 30138 40205 57028 81131;
0165227780999992000082818004+62230+045030FM-12+005399999V0209999V001019999999N0500001N1+01661+01301102021ADDAA199000091GF106991051001999999031011KA1999M+02221MD1710011+9999REMSYN070AAXX  28181 22778 32984 69901 10166 20130 40202 57001 85031 333 10222;EQDQ01  00002PRCP99
0143227780999992000082900004+62230+045030FM-12+005399999V0202701N002012200019N0500001N1+01101+00981102071ADDGA1001+999999999GF100991001001999999001001MA1999999101361MD1310021+9999REMSYN060AAXX  29001 22778 42684 02702 10110 20098 30136 40207 53002;
0112227780999992000082909004+62230+045030FM-12+005399999V0202701N004010750019N0600001N1+01931+01111101951ADDGF105991021011012501031011MD1710041+9999REMSYN060AAXX  29091 22778 42686 52704 10193 20111 40195 57004 82131;
0133227780999992000082912004+62230+045030FM-12+005399999V0203101N004010300019N0600001N1+02031+01061101991ADDGF106991031021012501031001MA1999999101311MD1310041+9999REMSYN066AAXX  29121 22778 42686 63104 10203 20106 30131 40199 53004 83230;
0165227780999992000082918004+62230+045030FM-12+005399999V0209999V001012200019N0500001N1+01141+00971102041ADDAA199000091GF102991021001999999031001KA1999M+02131MD1210021+9999REMSYN070AAXX  29181 22778 32984 29901 10114 20097 40204 52002 82030 333 10213;EQDQ01  00002PRCP99
0133227780999992000083000004+62230+045030FM-12+005399999V0209999C000019999999N0500001N1+01081+00971102081ADDGF107991071001999999071001MA1999999101371MD1810011+9999REMSYN066AAXX  30001 22778 42984 70000 10108 20097 30137 40208 58001 87070;
0112227780999992000083009004+62230+045030FM-12+005399999V0209999V001012200019N0600001N1+01931+01111101961ADDGF104991021021012501031011MD1710051+9999REMSYN060AAXX  30091 22778 42686 49901 10193 20111 40196 57005 82231;
0133227780999992000083012004+62230+045030FM-12+005399999V0202801N003010300019N0600001N1+02101+00851101901ADDGF106991031041012501031011MA1999999101221MD1710061+9999REMSYN066AAXX  30121 22778 42686 62803 10210 20085 30122 40190 57006 83431;
0165227780999992000083018004+62230+045030FM-12+005399999V0209999C000012200019N0500001N1+01101+00941101881ADDAA199000091GF101991011001999999031001KA1999M+02171MD1310011+9999REMSYN070AAXX  30181 22778 32984 10000 10110 20094 40188 53001 81030 333 10217;EQDQ01  00002PRCP99
0133227780999992000083100004+62230+045030FM-12+005399999V0209999C000019999999N0500001N1+00771+00681101961ADDGF106991051001999999031011MA1999999101251MD1210041+9999REMSYN066AAXX  31001 22778 42984 60000 10077 20068 30125 40196 52004 85031;
0152227780999992000083103004+62230+045030FM-12+005399999V0209999C000019999999N0280001N1+00691+00601101961ADDAA199000091GF107991041001999999031011MD1410001+9999REMSYN070AAXX  31031 22778 32978 70000 10069 20060 40196 54000 84031 333 55076;EQDQ01  00002PRCP99
0112227780999992000083109004+62230+045030FM-12+005399999V0201301N002012200019N0600001N1+02041+00951101891ADDGF102991021021012501001001MD1710021+9999REMSYN060AAXX  31091 22778 42686 21302 10204 20095 40189 57002 82200;
0133227780999992000083112004+62230+045030FM-12+005399999V0201501N004010750019N0600001N1+02051+00851101851ADDGF105991021011012501031011MA1999999101171MD1710041+9999REMSYN066AAXX  31121 22778 42686 51504 10205 20085 30117 40185 57004 82131;
0165227780999992000083118004+62230+045030FM-12+005399999V0209999V001019999999N0500001N1+01581+01291101771ADDAA199000091GF107991071001999999051999KA1999M+02181MD1710061+9999REMSYN070AAXX  31181 22778 32984 79901 10158 20129 40177 57006 8705/ 333 10218;EQDQ01  00002PRCP99
0133227780999992000090100004+62230+045030FM-12+005399999V0201201N002019999999N0500001N1+01441+01221101631ADDGF108991081001999999071999MA1999999100931MD1710091+9999REMSYN066AAXX  01001 22778 42984 81202 10144 20122 30093 40163 57009 8807/;
0152227780999992000090103004+62230+045030FM-12+005399999V0201101N005019999999N0500001N1+01441+01101101521ADDAA199000091GF107991071001999999051999MD1710111+9999REMSYN070AAXX  01031 22778 32984 71105 10144 20110 40152 57011 8705/ 333 55091;EQDQ01  00002PRCP99
0112227780999992000090109004+62230+045030FM-12+005399999V0201401N006010300019N0600001N1+02131+01371101171ADDGF106991021021012501031091MD1710231+9999REMSYN060AAXX  01091 22778 42686 61406 10213 20137 40117 57023 82239;
0133227780999992000090112004+62230+045030FM-12+005399999V0201601N006010300019N0600001N1+02281+01471101051ADDGF106991021021012501071001MA1999999100381MD1710121+9999REMSYN066AAXX  01121 22778 42686 61606 10228 20147 30038 40105 57012 82270;
0165227780999992000090118004+62230+045030FM-12+005399999V0201401N005019999999N0500001N1+01801+01401100941ADDAA199000091GF107991071001999999071999KA1999M+02361MD1710031+9999REMSYN070AAXX  01181 22778 32984 71405 10180 20140 40094 57003 8707/ 333 10236;EQDQ01  00002PRCP99
0180227780999992000090200004+62230+045030FM-12+005399999V0201401N003012200019N0500001N1+01481+01221100851ADDAY181061AY211061GF102991999001999999051001MA1999999100161MD1710051+9999MW1021REMSYN072AAXX  02001 22778 41984 21403 10148 20122 30016 40085 57005 70281 83050;EQDQ01+000032SCOTLC
0150227780999992000090203004+62230+045030FM-12+005399999V0201201N004019999999N0140001N1+01501+01241100781ADDAY161031AY211031GF108991061001999999071011MD1410001+9999MW1611REMSYN076AAXX  02031 22778 /1964 81204 10150 20124 40078 54007 76161 86071 333 55090;
0166227780999992000090209004+62230+045030FM-12+005399999V0201301N004010069019N0220001N1+01681+01451100701ADDAY181031AY221031GA1061+006909059GF108991061021008001071999MD1310021+9999MW1251REMSYN076AAXX  02091 22778 41572 81304 10168 20145 40070 53002 72582 8627/ 333 86623;
0161227780999992000090212004+62230+045030FM-12+005399999V0201601N006010300019N0600001N1+01981+01391100651ADDAY181061AY221061GF108991031021008001031011MA1999999099971MD1810051+9999MW1021REMSYN072AAXX  02121 22778 41586 81606 10198 20139 39997 40065 58005 70282 83231;
0152227780999992000090218004+62230+045030FM-12+005399999V0201701N004010300019N0500001N1+01511+01181100661ADDAA100002091GF106991031041008001031011KA1999M+02021MD1310041+9999REMSYN076AAXX  02181 22778 12584 61704 10151 20118 40066 53004 60020 83431 333 10202;
0133227780999992000090300004+62230+045030FM-12+005399999V0201601N003019999999N0500001N1+01211+01181100661ADDGF105991031001999999031011MA1999999099971MD1410001+9999REMSYN066AAXX  03001 22778 42984 51603 10121 20118 39997 40066 54000 83031;
0182227780999992000090303004+62230+045030FM-12+005399999V0201601N004010033019N0600001N1+01211+01051100671ADDAA199000091GA1061+003309069GF108991061061004501071999GJ102289MD1310011+9999REMSYN076AAXX  03031 22778 32486 81604 10121 20105 40067 53001 8667/ 333 55038 86711;EQDQ01  00002PRCP99
0112227780999992000090309004+62230+045030FM-12+005399999V0202701N004010075019N0600001N1+01561+01031101101ADDGF107991071021008001031001MD1210231+9999REMSYN060AAXX  03091 22778 42586 72704 10156 20103 40110 52023 87230;
0133227780999992000090312004+62230+045030FM-12+005399999V0202501N003012200019N0600001N1+01821+00611101231ADDGF103991031021012501001001MA1999999100551MD1210141+9999REMSYN066AAXX  03121 22778 42686 32503 10182 20061 30055 40123 52014 83200;
0171227780999992000090318004+62230+045030FM-12+005399999V0209999V001012200019N0500001N1+01071+00891101361ADDAA100000591GF101991001001999999001011KA1999M+01921MD1210061+9999REMSYN076AAXX  03181 22778 12984 19901 10107 20089 40136 52006 69950 80601 333 10192;EQDQ01+000062SCOLCG
0133227780999992000090400004+62230+045030FM-12+005399999V0200901N002019999999N0500001N1+00901+00771101411ADDGF108991001001999999001011MA1999999100701MD1210031+9999REMSYN066AAXX  04001 22778 42984 80902 10090 20077 30070 40141 52003 80001;
0152227780999992000090403004+62230+045030FM-12+005399999V0201101N003019999999N0600001N1+00921+00771101351ADDAA199000091GF105991031001999999071011MD1810061+9999REMSYN070AAXX  04031 22778 32986 51103 10092 20077 40135 58006 83071 333 55061;EQDQ01  00002PRCP99
0112227780999992000090409004+62230+045030FM-12+005399999V0201201N005010300019N0600001N1+01781+01321101121ADDGF108991021051008001071011MD1710101+9999REMSYN060AAXX  04091 22778 42586 81205 10178 20132 40112 57010 82571;
0133227780999992000090412004+62230+045030FM-12+005399999V0201501N006010300019N0600001N1+02021+01261100991ADDGF107991021051008001031091MA1999999100311MD1710131+9999REMSYN066AAXX  04121 22778 42586 71506 10202 20126 30031 40099 57013 82539;
0180227780999992000090418004+62230+045030FM-12+005399999V0201301N004019999999N0500001N1+01641+01391100841ADDAA100000791AY181061AY221061GF105991051001999999071001KA1999M+02131MD1710081+9999MW1021REMSYN082AAXX  04181 22778 11984 51304 10164 20139 40084 57008 69900 70282 85070 333 10213;
0133227780999992000090500004+62230+045030FM-12+005399999V0201301N004019999999N0500001N1+01401+00981100581ADDGF106991061001999999071001MA1999999099891MD1710151+9999REMSYN066AAXX  05001 22778 42984 61304 10140 20098 39989 40058 57015 86070;
0152227780999992000090503004+62230+045030FM-12+005399999V0201301N005010300019N0600001N1+01281+00881100421ADDAA199000091GF108991031051008001031999MD1710161+9999REMSYN070AAXX  05031 22778 32586 81305 10128 20088 40042 57016 8353/ 333 55024;EQDQ01  00002PRCP99
0133227780999992000090512004+62230+045030FM-12+005399999V0201901N006010120019N0600001N1+01941+01141100211ADDGF107991051051012501031011MA1999999099531MD1310021+9999REMSYN066AAXX  05121 22778 42686 71906 10194 20114 39953 40021 53002 85531;
0165227780999992000090518004+62230+045030FM-12+005399999V0201501N004019999999N0500001N1+01561+01271100121ADDAA199000091GF106991061001999999071001KA1999M+02021MD1310011+9999REMSYN070AAXX  05181 22778 32984 61504 10156 20127 40012 53001 86070 333 10202;EQDQ01  00002PRCP99
0133227780999992000090600004+62230+045030FM-12+005399999V0201501N003012200019N0500001N1+01261+01141100011ADDGF102991021001999999071001MA1999999099331MD1710041+9999REMSYN066AAXX  06001 22778 42984 21503 10126 20114 39933 40001 57004 82070;
0187227780999992000090612004+62230+045030FM-12+005399999V0202601N006010027019N0080001N1+00861+00671100561ADDAY181061AY251061GA1081+002709069GF108991081061002501999999MA1999999099861MD1210251+9999MW1511REMSYN082AAXX  06121 22778 41358 82606 10086 20067 39986 40056 52025 75185 886// 333 88709;
0202227780999992000090618004+62230+045030FM-12+005399999V0203001N005010027019N0500001N1+00721+00501100891ADDAA100000591AY151061AY221061GA1061+002709069GF108991081061002501999999KA1120M+01101MD1210121+9999MW1501REMSYN088AAXX  06181 22778 11384 83005 10072 20050 40089 52012 69950 75052 886// 333 10110 86709;
0191227780999992000090700004+62230+045030FM-12+005399999V0202801N004010054019N0500001N1+00601+00411101011ADDAY151061AY221061GA1071+005409059GF107991071051004501999999MD1210061+9999MW1021REMSYN082AAXX  07001 22778 41484 72804 10060 20041 31030 40101 52006 70252 875// 333 87618;EQDQ01+010301APOSP 
0152227780999992000090703004+62230+045030FM-12+005399999V0202601N003010021019N0240001N1+00441+00291101111ADDGA1081+002109069GF108991081061002501999999GJ100249MD1210101+9999REMSYN076AAXX  07031 22778 /2374 82603 10044 20029 40111 52010 886// 333 55004 88707;
0180227780999992000090718004+62230+045030FM-12+005399999V0209999C000012200019N0200001N1+00281+00231101711ADDAA100000191AY181061AY211061GF101991001001999999001011KA1999M+01021MD1210071+9999MW1121REMSYN082AAXX  07181 22778 11970 10000 10028 20023 40171 52007 69910 71281 80001 333 10102;
0171227780999992000090800004+62230+045030FM-12+005399999V0209999C000012200019N0022001N1-00131-00181101801ADDAY101061AY201061GA1001+999999999GF100991001001999999001001MA1999999101071MD1210031+9999MW1101REMSYN066AAXX  08001 22778 41922 00000 11013 21018 30107 40180 52003 71000;
0190227780999992000090803004+62230+045030FM-12+005399999V0209999C000010003019N0002001N1-00101-00201101921ADDAA199000091AY141031AY201031GA1091+999999999GF109991091999999999999999MD1210121+9999MW1471REMSYN070AAXX  08031 22778 31/02 90000 11010 21020 40192 52012 74740 333 55012;EQDQ01  00002PRCP99
0161227780999992000090812004+62230+045030FM-12+005399999V0202501N003010300019N0600001N1+00951+00251101941ADDAY181061AY241061GF106991031041008001031091MA1999999101231MD1810021+9999MW1011REMSYN072AAXX  08121 22778 41586 62503 10095 20025 30123 40194 58002 70184 83439;
0180227780999992000090818004+62230+045030FM-12+005399999V0209999C000012200019N0500001N1+00161+00051102041ADDAA100001091AY181061AY211061GF103991021001999999071011KA1999M+01021MD1210041+9999MW1031REMSYN082AAXX  08181 22778 11984 30000 10016 20005 40204 52004 60010 70381 82071 333 10102;
0171227780999992000090900004+62230+045030FM-12+005399999V0209999V001012200019N0032001N1-00141-00221102071ADDAY111061AY211061GA1001+999999999GF100991001001999999001001MA1999999101341MD1210021+9999MW1101REMSYN066AAXX  09001 22778 41932 09901 11014 21022 30134 40207 52002 71011;
0180227780999992000090903004+62230+045030FM-12+005399999V0209999V001012200019N0035001N1-00161-00271102061ADDAA199000091AY141031AY201031GF103991011061001501001011MD1810011+9999MW1101REMSYN076AAXX  09031 22778 31235 39901 11016 21027 40206 58001 71040 81601 333 55055;EQDQ01  00002PRCP99
0112227780999992000090909004+62230+045030FM-12+005399999V0201601N005010300019N0600001N1+00901+00321101841ADDGF108991021011008001031011MD1710141+9999REMSYN060AAXX  09091 22778 42586 81605 10090 20032 40184 57014 82131;
0161227780999992000090912004+62230+045030FM-12+005399999V0201601N004010300019N0100001N1+00831+00341101691ADDAY161061AY221061GF108991021051008001071999MA1999999100981MD1710151+9999MW1611REMSYN072AAXX  09121 22778 41560 81604 10083 20034 30098 40169 57015 76162 8257/;
0180227780999992000090918004+62230+045030FM-12+005399999V0201301N005019999999N0080001N1+00601+00461101271ADDAA100000591AY161061AY221061GF108991081001999999071999KA1999M+00981MD1710201+9999MW1611REMSYN082AAXX  09181 22778 11958 81305 10060 20046 40127 57020 69940 76162 8807/ 333 10098;
0206227780999992000091000004+62230+045030FM-12+005399999V0201501N005010021019N0060001N1+00641+00601100751ADDAY161061AY221061GA1071+002109069GF108991999071002501021999MA1999999100041MD1710241+9999MW1611REMSYN082AAXX  10001 22778 41356 81505 10064 20060 30004 40075 57024 76162 8872/ 333 87707;EQDQ01+000082SCOTLC
0199227780999992000091003004+62230+045030FM-12+005399999V0201501N005010009019N0050001N1+00701+00641100531ADDAY161031AY221031GA1081+000909069GF108991999071001501021999GJ100369MD1710211+9999MW1611REMSYN082AAXX  10031 22778 /1250 81505 10070 20064 40053 57021 76162 8872/ 333 55006 88703;EQDQ01+000082SCOTLC
0138227780999992000091009004+62230+045030FM-12+005399999V0201701N004010042019N0130001N1+01101+00941100201ADDGA1071+004209059GF107991071041004501999999MD1310181+9999REMSYN070AAXX  10091 22778 42463 71704 10110 20094 40020 53018 874// 333 87614;
0187227780999992000091012004+62230+045030FM-12+005399999V0203301N002010042019N0140001N1+01121+00921100141ADDAY181061AY221061GA1081+004209099GF108991081031004501999999MA1999999099461MD1710041+9999MW1801REMSYN082AAXX  10121 22778 41464 83302 10112 20092 39946 40014 57004 78082 883// 333 88914;
0180227780999992000091018004+62230+045030FM-12+005399999V0209999V001012200019N0022001N1+00711+00641100211ADDAA100004191AY141061AY211061GF103991021051012501071001KA1999M+01291MD1410001+9999MW1281REMSYN082AAXX  10181 22778 11622 39901 10071 20064 40021 54000 60040 72841 82570 333 10129;
0161227780999992000091100004+62230+045030FM-12+005399999V0209999V001012200019N0060001N1+00501+00481100051ADDAY181061AY211061GF102991011001999999031011MA1999999099341MD1710061+9999MW1101REMSYN072AAXX  11001 22778 41956 29901 10050 20048 39934 40005 57006 71081 81031;
0150227780999992000091109004+62230+045030FM-12+005399999V0209999C000010006019N0007001N1+00761+00701100011ADDAY141031AY221031GA1091+999999999GF109991091999999999999999MD1310021+9999MW1431REMSYN060AAXX  11091 22778 41/07 90000 10076 20070 40001 53002 74342;
0165227780999992000091118004+62230+045030FM-12+005399999V0209999C000019999999N0200001N1+00781+00781099991ADDAA199000091GF106991061001999999031001KA1999M+01181MD1310041+9999REMSYN070AAXX  11181 22778 32998 60000 10078 20078 49999 53004 86030 333 10118;EQDQ01  00002PRCP99
0187227780999992000091200004+62230+045030FM-12+005399999V0209999C000010012019N0033001N1+00571+00571099931ADDAY181061AY221061GA1081+001209069GF108991081061001501999999MA1999999099221MD1310051+9999MW1101REMSYN082AAXX  12001 22778 41233 80000 10057 20057 39922 49993 53005 71082 886// 333 88704;
0166227780999992000091209004+62230+045030FM-12+005399999V0209999V00101004201CN0060001N1+01011+00781099981ADDAY181031AY251031GA1041+003009099GF108991061031004501031011MD1210011+9999MW1801REMSYN076AAXX  12091 22778 41456 89901 10101 20078 49998 52001 78085 86331 333 84910;
0187227780999992000091212004+62230+045030FM-12+005399999V0209999V001010051019N0600001N1+01081+00801100031ADDAY181061AY251061GA1051+005109029GF108991051021004501001011MA1999999099341MD1210051+9999MW1021REMSYN082AAXX  12121 22778 41486 89901 10108 20080 39934 40003 52005 70285 85201 333 85817;
0180227780999992000091218004+62230+045030FM-12+005399999V0209999V001019999999N0500001N1+00661+00591100081ADDAA100002091AY181061AY221061GF106991051001999999071011KA1999M+01201MD1210021+9999MW1121REMSYN082AAXX  12181 22778 11984 69901 10066 20059 40008 52002 60020 71282 85071 333 10120;
0159227780999992000091300004+62230+045030FM-12+005399999V0209999V002010030019N0500001N1+00671+00601100171ADDGA1061+003009059GF108991061051004501071999MA1999999099481MD1210051+9999REMSYN076AAXX  13001 22778 42484 89902 10067 20060 39948 40017 52005 8657/ 333 86610;
0180227780999992000091303004+62230+045030FM-12+005399999V0203601N002010039019N0070001N1+00731+00671100211ADDAY161031AY251031GA1061+003909059GF108991061051004501071999GJ100849MD1210031+9999MW1511REMSYN082AAXX  13031 22778 /1457 83602 10073 20067 40021 52003 75165 8657/ 333 55014 86613;
0166227780999992000091309004+62230+045030FM-12+005399999V0203601N005010024019N0080001N1+00921+00731100461ADDAY151031AY221031GA1081+002409069GF108991081061002501999999MD1210101+9999MW1101REMSYN076AAXX  13091 22778 41358 83605 10092 20073 40046 52010 71052 886// 333 88708;
0187227780999992000091312004+62230+045030FM-12+005399999V0203501N005010054019N0100001N1+00871+00701100591ADDAY151061AY221061GA1081+005409059GF108991081051004501999999MA1999999099891MD1210131+9999MW1201REMSYN082AAXX  13121 22778 41460 83505 10087 20070 39989 40059 52013 72052 885// 333 88618;
0180227780999992000091318004+62230+045030FM-12+005399999V0209999V002019999999N0090001N1+00651+00491100791ADDAA100000791AY161061AY251061GF106991061001999999071001KA1999M+00961MD1210071+9999MW1601REMSYN082AAXX  13181 22778 11959 69902 10065 20049 40079 52007 69900 76065 86070 333 10096;
0161227780999992000091400004+62230+045030FM-12+005399999V0203601N004012200019N0500001N1+00171+00031100931ADDAY161061AY211061GF102991021001999999031001MA1999999100201MD1210111+9999MW1011REMSYN072AAXX  14001 22778 41984 23604 10017 20003 30020 40093 52011 70161 82030;
0122227780999992000091403004+62230+045030FM-12+005399999V0203301N002012200019N0600001N1+00071-00071100971ADDGF102991021001999999031001MD1210041+9999REMSYN070AAXX  14031 22778 /2986 23302 10007 21007 40097 52004 82030 333 55000;
0174227780999992000091418004+62230+045030FM-12+005399999V0203001N002010129019N0500001N1+00521+00251101111ADDAA100000791GA1051+012909059GF108991051051012501071999KA1120M+00891MD1410001+9999REMSYN082AAXX  14181 22778 12684 83002 10052 20025 40111 54000 69900 8557/ 333 10089 85643;
0133227780999992000091500004+62230+045030FM-12+005399999V0203101N002019999999N0500001N1+00401+00251101261ADDGF107991071001999999071999MA1999999100541MD1210081+9999REMSYN066AAXX  15001 22778 42984 73102 10040 20025 30054 40126 52008 8707/;
0152227780999992000091503004+62230+045030FM-12+005399999V0203301N002019999999N0600001N1+00281+00181101321ADDAA199000091GF107991061001999999031011MD1210061+9999REMSYN070AAXX  15031 22778 32986 73302 10028 20018 40132 52006 86031 333 55087;EQDQ01  00002PRCP99
0187227780999992000091512004+62230+045030FM-12+005399999V0203201N003010057019N0600001N1+00751+00581101511ADDAY181061AY221061GA1061+005709059GF108991061031004501071999MA1999999100801MD1210101+9999MW1251REMSYN082AAXX  15121 22778 41486 83203 10075 20058 30080 40151 52010 72582 8637/ 333 86619;
0174227780999992000091518004+62230+045030FM-12+005399999V0200101N003010084019N0120001N1+00771+00621101691ADDAA100001091GA1071+008409059GF107991071051008001999999KA1120M+00941MD1210071+9999REMSYN082AAXX  15181 22778 12562 70103 10077 20062 40169 52007 60010 875// 333 10094 87628;
0133227780999992000091600004+62230+045030FM-12+005399999V0200101N003010300019N0500001N1+00581+00441101841ADDGF106991021051012501031001MA1999999101121MD1210061+9999REMSYN066AAXX  16001 22778 42684 60103 10058 20044 30112 40184 52006 82530;
0112227780999992000091609004+62230+045030FM-12+005399999V0200501N003010750019N0600001N1+01031+00341101881ADDGF105991021011008001031011MD1810021+9999REMSYN060AAXX  16091 22778 42586 50503 10103 20034 40188 58002 82131;
0133227780999992000091612004+62230+045030FM-12+005399999V0200201N005010300019N0600001N1+01131+00341101871ADDGF105991021021012501031001MA1999999101161MD1710011+9999REMSYN066AAXX  16121 22778 42686 50205 10113 20034 30116 40187 57001 82230;
0165227780999992000091618004+62230+045030FM-12+005399999V0200201N003019999999N0500001N1+00671+00311101771ADDAA199000091GF106991061001999999031001KA1999M+01201MD1410001+9999REMSYN070AAXX  16181 22778 32984 60203 10067 20031 40177 54000 86030 333 10120;EQDQ01  00002PRCP99
0133227780999992000091700004+62230+045030FM-12+005399999V0200101N003012200019N0500001N1+00141+00031101741ADDGF102991021001999999071001MA1999999101011MD1710021+9999REMSYN066AAXX  17001 22778 42984 20103 10014 20003 30101 40174 57002 82070;
0152227780999992000091703004+62230+045030FM-12+005399999V0200201N004019999999N0240001N1+00091-00051101671ADDAA199000091GF106991061001999999031001MD1710071+9999REMSYN070AAXX  17031 22778 32974 60204 10009 21005 40167 57007 86030 333 55067;EQDQ01  00002PRCP99
0165227780999992000091718004+62230+045030FM-12+005399999V0203501N001012200019N0500001N1+00271+00091101371ADDAA199000091GF103991031001999999031001KA1999M+01151MD1710031+9999REMSYN070AAXX  17181 22778 32984 33501 10027 20009 40137 57003 83030 333 10115;EQDQ01  00002PRCP99
0133227780999992000091800004+62230+045030FM-12+005399999V0209999C000019999999N0500001N1+00231+00101101401ADDGF107991071001999999031001MA1999999100681MD1210011+9999REMSYN066AAXX  18001 22778 42984 70000 10023 20010 30068 40140 52001 87030;
0165227780999992000091818004+62230+045030FM-12+005399999V0209999V001019999999N0500001N1+00931+00811101741ADDAA199000091GF107991071001999999031999KA1999M+01031MD1210091+9999REMSYN070AAXX  18181 22778 32984 79901 10093 20081 40174 52009 8703/ 333 10103;EQDQ01  00002PRCP99
0161227780999992000091900004+62230+045030FM-12+005399999V0209999V001012200019N0500001N1+00431+00411101811ADDAY111061AY211061GF101991011001999999031001MA1999999101091MD1810051+9999MW1121REMSYN072AAXX  19001 22778 41984 19901 10043 20041 30109 40181 58005 71211 81030;
0180227780999992000091903004+62230+045030FM-12+005399999V0209999V001019999999N0041001N1+00601+00511101871ADDAA199000091AY111031AY211031GF107991071001999999071999MD1310061+9999MW1101REMSYN076AAXX  19031 22778 31941 79901 10060 20051 40187 53006 71011 8707/ 333 55000;EQDQ01  00002PRCP99
0165227780999992000091918004+62230+045030FM-12+005399999V0209999V002019999999N0500001N1+00951+00431101651ADDAA199000091GF106991061001999999031001KA1999M+01511MD1710031+9999REMSYN070AAXX  19181 22778 32999 69902 10095 20043 40165 57003 86030 333 10151;EQDQ01  00002PRCP99
0133227780999992000092000004+62230+045030FM-12+005399999V0202401N002019999999N0500001N1+00601+00211101341ADDGF108991001001999999001041MA1999999100621MD1710211+9999REMSYN066AAXX  20001 22778 42984 82402 10060 20021 30062 40134 57021 80004;
0152227780999992000092003004+62230+045030FM-12+005399999V0202701N004019999999N0600001N1+00611+00241101131ADDAA199000091GF108991081001999999071999MD1710201+9999REMSYN070AAXX  20031 22778 32986 82704 10061 20024 40113 57020 8807/ 333 55086;EQDQ01  00002PRCP99
0161227780999992000092012004+62230+045030FM-12+005399999V0203201N006010075019N0600001N1+01011+00171101391ADDAY181061AY261061GF107991071021008001001001MA1999999100681MD1210251+9999MW1021REMSYN072AAXX  20121 22778 41586 73206 10101 20017 30068 40139 52025 70286 87200;
0173227780999992000092018004+62230+045030FM-12+005399999V0203401N004012200019N0200001N1+00321-00091102231ADDAY181061AY211061GA1001+999999999GF100991001001999999001001KA1999M+01091MD1210321+9999MW1021REMSYN070AAXX  20181 22778 11998 03404 10032 21009 40223 52032 70281 333 10109;
0133227780999992000092100004+62230+045030FM-12+005399999V0203201N002019999999N0500001N1-00171-00291102591ADDGF106991001001999999001011MA1999999101851MD1210031+9999REMSYN066AAXX  21001 22778 42984 63202 11017 21029 30185 40259 52003 80001;
0180227780999992000092103004+62230+045030FM-12+005399999V0209999C000012200019N0600001N1-00401-00471102831ADDAA199000091AY111031AY211031GF102991001001999999001011MD1210221+9999MW1111REMSYN076AAXX  21031 22778 31986 20000 11040 21047 40283 52022 71111 80001 333 55028;EQDQ01  00002PRCP99
0112227780999992000092109004+62230+045030FM-12+005399999V0203401N004010300019N0600001N1+00621-00421102971ADDGF105991031021012501031001MD1210021+9999REMSYN060AAXX  21091 22778 42686 53404 10062 21042 40297 52002 83230;
0133227780999992000092112004+62230+045030FM-12+005399999V0203401N002010120019N0600001N1+00621-00581102961ADDGF106991061041012501001001MA1999999102231MD1810011+9999REMSYN066AAXX  21121 22778 42686 63402 10062 21058 30223 40296 58001 86400;
0165227780999992000092118004+62230+045030FM-12+005399999V0209999C000012200019N0500001N1-00101-00421102971ADDAA199000091GF101991001001999999001011KA1999M+00751MD1410001+9999REMSYN070AAXX  21181 22778 32999 10000 11010 21042 40297 54000 80001 333 10075;EQDQ01  00002PRCP99
0133227780999992000092200004+62230+045030FM-12+005399999V0209999C000019999999N0500001N1-00271-00471102951ADDGF107991071001999999071999MA1999999102211MD1710011+9999REMSYN066AAXX  22001 22778 42984 70000 11027 21047 30221 40295 57001 8707/;
0152227780999992000092203004+62230+045030FM-12+005399999V0209999C000019999999N0600001N1-00161-00401102891ADDAA199000091GF107991071001999999071011MD1710061+9999REMSYN070AAXX  22031 22778 32986 70000 11016 21040 40289 57006 87071 333 55057;EQDQ01  00002PRCP99
0159227780999992000092212004+62230+045030FM-12+005399999V0202701N003010102019N0600001N1+00701+00041102731ADDGA1051+010209059GF108991051051012501051999MA1999999102011MD1710071+9999REMSYN076AAXX  22121 22778 42686 82703 10070 20004 30201 40273 57007 8555/ 333 85634;
0165227780999992000092218004+62230+045030FM-12+005399999V0209999V002010075019N0500001N1+00721+00451102661ADDAA199000091GF107991071051008001999999KA1999M+00811MD1710031+9999REMSYN070AAXX  22181 22778 32599 79902 10072 20045 40266 57003 875// 333 10081;EQDQ01  00002PRCP99
0133227780999992000092300004+62230+045030FM-12+005399999V0203101N002019999999N0500001N1+00801+00481102661ADDGF107991071001999999051999MA1999999101941MD1310031+9999REMSYN066AAXX  23001 22778 42984 73102 10080 20048 30194 40266 53003 8705/;
0165227780999992000092318004+62230+045030FM-12+005399999V0209999C000012200019N0500001N1+00121+00011103001ADDAA199000091GF102991001001999999001011KA1999M+01051MD1210011+9999REMSYN070AAXX  23181 22778 32984 20000 10012 20001 40300 52001 80001 333 10105;EQDQ01  00002PRCP99
0190227780999992000092403004+62230+045030FM-12+005399999V0209999C000010003019N0002001N1+00131+00081102861ADDAA199000091AY141031AY221031GA1091+999999999GF109991091999999999999999MD1710081+9999MW1471REMSYN070AAXX  24031 22778 31/02 90000 10013 20008 40286 57008 74742 333 55023;EQDQ01  00002PRCP99
0166227780999992000092409004+62230+045030FM-12+005399999V0203001N002010021019N0050001N1+00561+00441102741ADDAY151031AY241031GA1081+002109069GF108991081061002501999999MD1710091+9999MW1101REMSYN076AAXX  24091 22778 41350 83002 10056 20044 40274 57009 71054 886// 333 88707;
0152227780999992000092418004+62230+045030FM-12+005399999V0209999V001012200019N0500001N1+00821+00431102281ADDAA100000791GF101991001001999999001011KA1999M+01401MD1710091+9999REMSYN076AAXX  24181 22778 12984 19901 10082 20043 40228 57009 69900 80001 333 10140;
0133227780999992000092500004+62230+045030FM-12+005399999V0209999C000019999999N0500001N1+00431+00231101871ADDGF107991071001999999031001MA1999999101151MD1710251+9999REMSYN066AAXX  25001 22778 42984 70000 10043 20023 30115 40187 57025 87030;
0180227780999992000092503004+62230+045030FM-12+005399999V0209999V001010087019N0110001N1+00601+00411101691ADDAY181031AY221031GA1061+008709099GF108991061031008001071999GJ103189MD1710181+9999MW1801REMSYN082AAXX  25031 22778 /1561 89901 10060 20041 40169 57018 78082 8637/ 333 55053 86929;
0206227780999992000092512004+62230+045030FM-12+005399999V0202701N005010021019N0100001N1+00881+00801101021ADDAY161061AY221061GA1071+002109069GF108991999071002501021999MA1999999100321MD1710221+9999MW1611REMSYN082AAXX  25121 22778 41360 82705 10088 20080 30032 40102 57022 76162 8872/ 333 87707;EQDQ01+000082SCOTLC
0180227780999992000092518004+62230+045030FM-12+005399999V0203001N004012200019N0500001N1+00501+00331101111ADDAA100004191AY181061AY261061GF103991031001999999071001KA1999M+00921MD1310191+9999MW1011REMSYN082AAXX  25181 22778 11984 33004 10050 20033 40111 53019 60040 70186 83070 333 10092;
0113227780999992000092600004+62230+045030FM-12+005399999V0202901N003019999999N0500001N1+00821+00001101191ADDGF105991021001999999031011MA1999999100461REMSYN060AAXX  26001 22778 42984 52903 10082 21000 30046 40119 82031;
0152227780999992000092603004+62230+045030FM-12+005399999V0202901N004010033019N0200001N1+00201+00041101101ADDGA1071+003309059GF107991071051004501999999GJ100009MD1810071+9999REMSYN076AAXX  26031 22778 /2470 72904 10020 20004 40110 58007 875// 333 55000 87611;
0180227780999992000092618004+62230+045030FM-12+005399999V0203301N004010300019N0060001N1+00421+00271101581ADDAA100000391AY181061AY221061GF108991031031004501071999KA1999M+00661MD1210111+9999MW1801REMSYN082AAXX  26181 22778 11456 83304 10042 20027 40158 52011 69930 78082 8337/ 333 10066;
0187227780999992000092700004+62230+045030FM-12+005399999V0203301N004010051019N0500001N1+00311+00131101701ADDAY181061AY221061GA1071+005109059GF107991071051004501999999MA1999999100981MD1210041+9999MW1021REMSYN082AAXX  27001 22778 41484 73304 10031 20013 30098 40170 52004 70282 875// 333 87617;
0152227780999992000092703004+62230+045030FM-12+005399999V0203201N003010039019N0600001N1+00221+00001101781ADDGA1061+003909059GF108991061051004501071999GJ102349MD1210081+9999REMSYN076AAXX  27031 22778 /2486 83203 10022 20000 40178 52008 8657/ 333 55039 86613;
0140227780999992000092709004+62230+045030FM-12+005399999V0203401N004010300019N0600001N1+00391+00021101841ADDAY181031AY221031GF108991031021008001031999MD1210011+9999MW1251REMSYN066AAXX  27091 22778 41586 83404 10039 20002 40184 52001 72582 8323/;
0161227780999992000092712004+62230+045030FM-12+005399999V0203401N004010300019N0600001N1+00541-00241101851ADDAY181061AY221061GF107991031021008001031011MA1999999101131MD1210011+9999MW1021REMSYN072AAXX  27121 22778 41586 73404 10054 21024 30113 40185 52001 70282 83231;
0152227780999992000092718004+62230+045030FM-12+005399999V0209999V001012200019N0500001N1+00021-00221101951ADDAA100000191GF103991031001999999031001KA1999M+00631MD1210011+9999REMSYN076AAXX  27181 22778 12984 39901 10002 21022 40195 52001 69910 83030 333 10063;
0187227780999992000092800004+62230+045030FM-12+005399999V0201401N002010054019N0100001N1+00151+00041101711ADDAY161061AY211061GA1061+005409059GF107991061051004501071999MA1999999100981MD1710141+9999MW1611REMSYN082AAXX  28001 22778 41460 71402 10015 20004 30098 40171 57014 76161 8657/ 333 86618;
0199227780999992000092803004+62230+045030FM-12+005399999V0209999V001010009019N0035001N1+00221+00191101531ADDAY161031AY221031GA1071+000909069GF108991999071001501021999GJ102469MD1710171+9999MW1611REMSYN082AAXX  28031 22778 /1235 89901 10022 20019 40153 57017 76162 8872/ 333 55041 87703;EQDQ01+000082SCOTLC
0159227780999992000092821004+62230+045030FM-12+005399999V0202701N002010078019N0180001N1+00711+00531101431ADDGA1071+007809059GF107991071051008001999999MA1999999100721MD1810081+9999REMSYN076AAXX  28211 22778 42568 72702 10071 20053 30072 40143 58008 875// 333 87626;
0138227780999992000092909004+62230+045030FM-12+005399999V0202801N004010078019N0400001N1+00791+00501101661ADDGA1051+007809059GF108991051051008001071999MD1210061+9999REMSYN070AAXX  29091 22778 42582 82804 10079 20050 40166 52006 8557/ 333 85626;
0159227780999992000092912004+62230+045030FM-12+005399999V0202801N004010078019N0600001N1+00831+00411101691ADDGA1071+007809059GF107991071051008001999999MA1999999100981MD1210031+9999REMSYN076AAXX  29121 22778 42586 72804 10083 20041 30098 40169 52003 875// 333 87626;
0180227780999992000092918004+62230+045030FM-12+005399999V0202701N003019999999N0120001N1+00771+00591101721ADDAA100000791AY161061AY221061GF108991081001999999071999KA1999M+00851MD1410001+9999MW1611REMSYN082AAXX  29181 22778 11962 82703 10077 20059 40172 54000 69900 76162 8807/ 333 10085;
0206227780999992000093000004+62230+045030FM-12+005399999V0202401N006010030019N0100001N1+00661+00551101651ADDAY161061AY221061GA1071+003009069GF108991999071004501021999MA1999999100941MD1710021+9999MW1611REMSYN082AAXX  30001 22778 41460 82406 10066 20055 30094 40165 57002 76162 8872/ 333 87710;EQDQ01+000082SCOTLC
0180227780999992000093003004+62230+045030FM-12+005399999V0209999V001010024019N0050001N1+00651+00581101561ADDAY161031AY221031GA1081+002409069GF108991081061002501999999GJ100009MD1710101+9999MW1101REMSYN082AAXX  30031 22778 /1350 89901 10065 20058 40156 57010 71062 886// 333 55000 88708;
0166227780999992000093009004+62230+045030FM-12+005399999V0202701N002010009019N0016001N1+00901+00841101521ADDAY151031AY221031GA1081+000909069GF108991081061001501999999MD1310041+9999MW1511REMSYN076AAXX  30091 22778 41216 82702 10090 20084 40152 53004 75152 886// 333 88703;
0187227780999992000093012004+62230+045030FM-12+005399999V0202901N002010009019N0018001N1+01001+00921101561ADDAY151061AY221061GA1081+000909069GF108991081061001501999999MA1999999100851MD1210041+9999MW1511REMSYN082AAXX  30121 22778 41218 82902 10100 20092 30085 40156 52004 75152 886// 333 88703;
0202227780999992000093018004+62230+045030FM-12+005399999V0202901N003010018019N0048001N1+01041+00941101651ADDAA100001091AY151061AY221061GA1081+001809069GF108991081061001501999999KA1120M+01041MD1210031+9999MW1101REMSYN088AAXX  30181 22778 11248 82903 10104 20094 40165 52003 60010 71052 886// 333 10104 88706;
0187227780999992000100100004+62230+045030FM-12+005399999V0203001N003010024019N0080001N1+00961+00881101761ADDAY181061AY251061GA1061+002409069GF108991081061002501999999MA1999999101051MD1210101+9999MW1021REMSYN082AAXX  01001 22778 41358 83003 10096 20088 30105 40176 52010 70285 886// 333 86708;
0180227780999992000100103004+62230+045030FM-12+005399999V0203001N003010024019N0070001N1+00951+00851101871ADDAY121031AY221031GA1061+002409069GF108991081061002501999999GJ100009MD1210111+9999MW1101REMSYN082AAXX  01031 22778 /1357 83003 10095 20085 40187 52011 71022 886// 333 55000 86708;
0159227780999992000100112004+62230+045030FM-12+005399999V0209999V001010045019N0450001N1+01131+00801101981ADDGA1061+004509059GF108991061051004501071999MA1999999101281MD1410001+9999REMSYN076AAXX  01121 22778 42483 89901 10113 20080 30128 40198 54000 8657/ 333 86615;
0202227780999992000100118004+62230+045030FM-12+005399999V0201701N002010006019N0027001N1+00971+00931101871ADDAA100002091AY181061AY251061GA1081+000609069GF108991081061000751999999KA1120M+01151MD1710111+9999MW1511REMSYN088AAXX  01181 22778 11127 81702 10097 20093 40187 57011 60020 75185 886// 333 10115 88702;
0187227780999992000100200004+62230+045030FM-12+005399999V0203001N003010015019N0039001N1+00991+00951102041ADDAY151061AY241061GA1081+001509069GF108991081061001501999999MA1999999101331MD1210121+9999MW1101REMSYN082AAXX  02001 22778 41239 83003 10099 20095 30133 40204 52012 71054 886// 333 88705;
0180227780999992000100203004+62230+045030FM-12+005399999V0202801N002010027019N0040001N1+00881+00841102181ADDAY121031AY221031GA1081+002709069GF108991081061002501999999GJ100849MD1210141+9999MW1101REMSYN082AAXX  02031 22778 /1340 82802 10088 20084 40218 52014 71022 886// 333 55014 88709;
0202227780999992000100218004+62230+045030FM-12+005399999V0201501N002010009019N0060001N1+00921+00881102421ADDAA100000191AY151061AY221061GA1081+000909069GF108991081061001501999999KA1120M+01171MD1810081+9999MW1101REMSYN088AAXX  02181 22778 11256 81502 10092 20088 40242 58008 69910 71052 886// 333 10117 88703;
0187227780999992000100300004+62230+045030FM-12+005399999V0201401N002010012019N0100001N1+00801+00741102471ADDAY121061AY221061GA1081+001209069GF108991081061001501999999MA1999999101751MD1810021+9999MW1101REMSYN082AAXX  03001 22778 41260 81402 10080 20074 30175 40247 58002 71022 886// 333 88704;
0210227780999992000100303004+62230+045030FM-12+005399999V0201701N002010012019N0031001N1+00701+00641102441ADDAA199000091AY121031AY221031GA1081+001209069GF108991081061001501999999GJ100009MD1710031+9999MW1101REMSYN082AAXX  03031 22778 31231 81702 10070 20064 40244 57003 71022 886// 333 55000 88704;EQDQ01  00002PRCP99
0112227780999992000100309004+62230+045030FM-12+005399999V0209999V001019999999N0600001N1+01021+00731102501ADDGF108991001001999999001091MD1210021+9999REMSYN060AAXX  03091 22778 42986 89901 10102 20073 40250 52002 80009;
0163227780999992000100312004+62230+045030FM-12+005399999V0209999V002019999999N0600001N1+01211+00861102411ADDAA199000091GF108991081001999999071999MA1999999101711MD1810071+9999REMSYN066AAXX  03121 22778 32986 89902 10121 20086 30171 40241 58007 8807/;EQDQ01  00002PRCP99
0165227780999992000100318004+62230+045030FM-12+005399999V0209999V001019999999N0260001N1+00731+00641102211ADDAA199000091GF108991041001999999071051KA1999M+01221MD1710071+9999REMSYN070AAXX  03181 22778 32976 89901 10073 20064 40221 57007 84075 333 10122;EQDQ01  00002PRCP99
0133227780999992000100400004+62230+045030FM-12+005399999V0201001N002019999999N0250001N1+00701+00611102151ADDGF107991071001999999071999MA1999999101441MD1710021+9999REMSYN066AAXX  04001 22778 42975 71002 10070 20061 30144 40215 57002 8707/;
0152227780999992000100403004+62230+045030FM-12+005399999V0201001N002019999999N0150001N1+00721+00641102061ADDAA199000091GF108991081001999999071999MD1710091+9999REMSYN070AAXX  04031 22778 32965 81002 10072 20064 40206 57009 8807/ 333 55045;EQDQ01  00002PRCP99
0215227780999992000100418004+62230+045030FM-12+005399999V0201301N005010036019N0190001N1+00931+00701102411ADDAA199000021AY161061AY221061GA1071+003609059GF108991999071004501021999KA1120M+01411MD1210111+9999MW1601REMSYN082AAXX  04181 22778 31469 81305 10093 20070 40241 52011 76062 8872/ 333 10141 87612;EQDQ01+000082SCOTLC
0187227780999992000100500004+62230+045030FM-12+005399999V0201101N004010036019N0600001N1+00901+00671102511ADDAY161061AY221061GA1071+003609059GF107991071051004501999999MA1999999101791MD1210051+9999MW1021REMSYN082AAXX  05001 22778 41486 71104 10090 20067 30179 40251 52005 70262 875// 333 87612;
0159227780999992000100512004+62230+045030FM-12+005399999V0201201N005010048019N0140001N1+00931+00581102891ADDGA1071+004809059GF107991071051004501999999MA1999999102171MD1210061+9999REMSYN076AAXX  05121 22778 42464 71205 10093 20058 30217 40289 52006 875// 333 87616;
0187227780999992000100518004+62230+045030FM-12+005399999V0201301N003010063019N0350001N1+00911+00621103041ADDAA199000091GA1071+006309059GF107991071051008001999999KA1120M+00951MD1210091+9999REMSYN076AAXX  05181 22778 32581 71303 10091 20062 40304 52009 875// 333 10095 87621;EQDQ01  00002PRCP99
0159227780999992000100600004+62230+045030FM-12+005399999V0201401N003010093019N0260001N1+00871+00611103121ADDGA1071+009309059GF107991071051008001999999MA1999999102401MD1210041+9999REMSYN076AAXX  06001 22778 42576 71403 10087 20061 30240 40312 52004 875// 333 87631;
0182227780999992000100603004+62230+045030FM-12+005399999V0201401N003010090019N0190001N1+00861+00671103191ADDAA199000091GA1071+009009059GF107991071051008001999999GJ100009MD1210071+9999REMSYN076AAXX  06031 22778 32569 71403 10086 20067 40319 52007 875// 333 55000 87630;EQDQ01  00002PRCP99
0112227780999992000100609004+62230+045030FM-12+005399999V0201801N006012200019N0600001N1+01241+00621103301ADDGF104991041011008001001001MD1210051+9999REMSYN060AAXX  06091 22778 42586 41806 10124 20062 40330 52005 84100;
0133227780999992000100612004+62230+045030FM-12+005399999V0201101N006010075019N0350001N1+01201+00731103391ADDGF107991071051008001001001MA1999999102681MD1210091+9999REMSYN066AAXX  06121 22778 42581 71106 10120 20073 30268 40339 52009 87500;
0187227780999992000100618004+62230+045030FM-12+005399999V0209999C000010075019N0150001N1+01071+00801103531ADDAA199000091GA1071+007509059GF107991071051008001999999KA1120M+01291MD1210051+9999REMSYN076AAXX  06181 22778 32565 70000 10107 20080 40353 52005 875// 333 10129 87625;EQDQ01  00002PRCP99
0159227780999992000100700004+62230+045030FM-12+005399999V0201501N002010129019N0210001N1+00921+00711103651ADDGA1071+012909059GF107991071051012501999999MA1999999102931MD1210031+9999REMSYN076AAXX  07001 22778 42671 71502 10092 20071 30293 40365 52003 875// 333 87643;
0182227780999992000100703004+62230+045030FM-12+005399999V0201601N002010135019N0120001N1+00891+00741103681ADDAA199000091GA1071+013509059GF107991071051012501999999GJ101509MD1210031+9999REMSYN076AAXX  07031 22778 32662 71602 10089 20074 40368 52003 875// 333 55025 87645;EQDQ01  00002PRCP99
0112227780999992000100709004+62230+045030FM-12+005399999V0202201N002019999999N0200001N1+01121+00701103761ADDGF108991061001999999031011MD1210011+9999REMSYN060AAXX  07091 22778 42970 82202 10112 20070 40376 52001 86031;
0159227780999992000100712004+62230+045030FM-12+005399999V0202401N004010063019N0350001N1+01151+00641103711ADDGA1051+006309059GF108991051051008001071999MA1999999103001MD1810041+9999REMSYN076AAXX  07121 22778 42581 82404 10115 20064 30300 40371 58004 8557/ 333 85621;
0187227780999992000100718004+62230+045030FM-12+005399999V0202301N002010075019N0500001N1+01001+00681103691ADDAA199000091GA1071+007509059GF107991071051008001999999KA1120M+01341MD1810031+9999REMSYN076AAXX  07181 22778 32584 72302 10100 20068 40369 58003 875// 333 10134 87625;EQDQ01  00002PRCP99
0133227780999992000100800004+62230+045030FM-12+005399999V0202501N002019999999N0500001N1+00991+00741103631ADDGF107991071001999999051999MA1999999102911MD1710031+9999REMSYN066AAXX  08001 22778 42984 72502 10099 20074 30291 40363 57003 8705/;
0182227780999992000100803004+62230+045030FM-12+005399999V0202701N002010048019N0500001N1+01001+00801103651ADDAA199000091GA1071+004809059GF107991071051004501999999GJ100369MD1310021+9999REMSYN076AAXX  08031 22778 32484 72702 10100 20080 40365 53002 875// 333 55006 87616;EQDQ01  00002PRCP99
0166227780999992000100809004+62230+045030FM-12+005399999V0202801N002010042019N0090001N1+01091+00761103691ADDAY151031AY221031GA1071+004209059GF107991071051004501999999MD1210021+9999MW1101REMSYN076AAXX  08091 22778 41459 72802 10109 20076 40369 52002 71052 875// 333 87614;
0152227780999992000100818004+62230+045030FM-12+005399999V0209999V001010300019N0180001N1+00981+00731103681ADDAA100000791GF106991021051008001031001KA1999M+01121MD1310011+9999REMSYN076AAXX  08181 22778 12568 69901 10098 20073 40368 53001 69900 82530 333 10112;
0159227780999992000100900004+62230+045030FM-12+005399999V0209999C000010099019N0500001N1+00741+00511103611ADDGA1071+009909059GF107991071051008001999999MA1999999102891MD1710051+9999REMSYN076AAXX  09001 22778 42584 70000 10074 20051 30289 40361 57005 875// 333 87633;
0182227780999992000100903004+62230+045030FM-12+005399999V0209999V001010093019N0500001N1+00571+00451103601ADDAA199000091GA1071+009309059GF107991071051008001999999GJ100009MD1710031+9999REMSYN076AAXX  09031 22778 32584 79901 10057 20045 40360 57003 875// 333 55000 87631;EQDQ01  00002PRCP99
0112227780999992000100909004+62230+045030FM-12+005399999V0209999V001019999999N0600001N1+01061+00611103601ADDGF105991021001999999031011MD1210011+9999REMSYN060AAXX  09091 22778 42986 59901 10106 20061 40360 52001 82031;
0133227780999992000100912004+62230+045030FM-12+005399999V0209999V002019999999N0600001N1+01301+00581103501ADDGF107991021001999999031011MA1999999102791MD1810091+9999REMSYN066AAXX  09121 22778 42986 79902 10130 20058 30279 40350 58009 82031;
0181227780999992000100918004+62230+045030FM-12+005399999V0209999V001019999999N0700001N1+00491+00401103501ADDAA199000091GF108991999001999999031001KA1999M+01321MD1710011+9999REMSYN070AAXX  09181 22778 32988 89901 10049 20040 40350 57001 87030 333 10132;EQDQ01+000072SCOTLCQ02  00002PRCP99
0159227780999992000101000004+62230+045030FM-12+005399999V0209999V001010084019N0210001N1+00521+00431103491ADDGA1051+008409059GF108991051051008001071999MA1999999102751MD1810021+9999REMSYN076AAXX  10001 22778 42571 89901 10052 20043 30275 40349 58002 8557/ 333 85628;
0152227780999992000101003004+62230+045030FM-12+005399999V0209999C000019999999N0230001N1+00581+00461103491ADDAA199000091GF107991071001999999071999MD1410001+9999REMSYN070AAXX  10031 22778 32973 70000 10058 20046 40349 54000 8707/ 333 55060;EQDQ01  00002PRCP99
0157227780999992000101009004+62230+045030FM-12+005399999V0201801N005012200019N0600001N1+00371+00141999999ADDGA1041+002409069GF104991041061002501001001MD1410001+9999REMSYN070AAXX  10091 22778 42386 41805 10037 20014 40853 54000 84600 333 84708;EQDQ01 108533APOSLP
0178227780999992000101012004+62230+045030FM-12+005399999V0201401N004010036019N0600001N1+00401+00091103482ADDGA1071+003609059GF107991071051004501999999MA1999999102741MD1810051+9999REMSYN076AAXX  10121 22778 42486 71404 10040 20009 30274 40348 58005 875// 333 87612;EQDQ01+103483APOSLP
0187227780999992000101018004+62230+045030FM-12+005399999V0201101N004010033019N0500001N1+00191-00061103511ADDAA199000091GA1071+003309059GF107991071051004501999999KA1120M+00681MD1310021+9999REMSYN076AAXX  10181 22778 32484 71104 10019 21006 40351 53002 875// 333 10068 87611;EQDQ01  00002PRCP99
0159227780999992000101100004+62230+045030FM-12+005399999V0201001N003010036019N0500001N1+00121-00111103561ADDGA1071+003609059GF108991071051004501999999MA1999999102811MD1210021+9999REMSYN076AAXX  11001 22778 42484 81003 10012 21011 30281 40356 52002 875// 333 87612;
0182227780999992000101103004+62230+045030FM-12+005399999V0201301N002010039019N0500001N1+00141-00081103621ADDAA199000091GA1071+003909059GF107991071051004501999999GJ102829MD1210061+9999REMSYN076AAXX  11031 22778 32484 71302 10014 21008 40362 52006 875// 333 55047 87613;EQDQ01  00002PRCP99
