0140287910999992000010100004+54620+072580FM-12+010999999V0200901N007019999999N0060001N1-02471-02651102491ADDAY171061AY231061GF108991081001999999021999MD1710481+9999MW1361REMSYN066AAXX  01001 28791 41956 80907 11247 21265 40249 57048 73673 8802/;
0180287910999992000010106004+54620+072580FM-12+010999999V0200601N006019999999N0500001N1-02341-02591102271ADDAA100000891AY171061AY231061GF108991001001999999001091KA1999N-02821MD1710071+9999MW1361REMSYN082AAXX  01061 28791 11999 80606 11234 21259 40227 57007 69980 73673 80009 333 21282;
0140287910999992000010112004+54620+072580FM-12+010999999V0200501N004019999999N0050001N1-02351-02601102351ADDAY171061AY231061GF108991081001999999021999MD1210101+9999MW1711REMSYN066AAXX  01121 28791 41950 80504 11235 21260 40235 52010 77173 8802/;
0190287910999992000010118004+54620+072580FM-12+010999999V0200501N003012200019N0400001N1-02661-02901102441ADDAA100000591AY171061AY211061GA1001+999999999GF100991001001999999001001KA1999M-02291MD1210071+9999MW1021REMSYN076AAXX  01181 28791 11982 00503 11266 21290 40244 52007 69960 70271 333 11229;
0122287910999992000010200004+54620+072580FM-12+010999999V0202601N005012200019N0400001N1-02841-03081102791ADDGA1001+999999999GF100991001001999999001001MD1210211+9999REMSYN054AAXX  02001 28791 42982 02605 11284 21308 40279 52021;
0165287910999992000010206004+54620+072580FM-12+010999999V0203401N003012200019N0500001N1-02891-03201103251ADDAA106000091GF102991001001999999001011KA1999N-03041MD1210231+9999REMSYN070AAXX  02061 28791 32999 23403 11289 21320 40325 52023 80001 333 21304;EQDQ01  00002PRCP06
0122287910999992000010212004+54620+072580FM-12+010999999V0203101N003012200019N0400001N1-02901-03201103671ADDGA1001+999999999GF100991001001999999001001MD1210241+9999REMSYN054AAXX  02121 28791 42982 03103 11290 21320 40367 52024;
0175287910999992000010218004+54620+072580FM-12+010999999V0203001N002012200019N0450001N1-03081-03381104111ADDAA106000091GA1001+999999999GF100991001001999999001001KA1999M-02791MD1210181+9999REMSYN064AAXX  02181 28791 32983 03002 11308 21338 40411 52018 333 11279;EQDQ01  00002PRCP06
0122287910999992000010300004+54620+072580FM-12+010999999V0202601N002012200019N0450001N1-03221-03521104301ADDGA1001+999999999GF100991001001999999001001MD1210111+9999REMSYN054AAXX  03001 28791 42983 02602 11322 21352 40430 52011;
0180287910999992000010306004+54620+072580FM-12+010999999V0202901N002019999999N0040001N1-02821-03131104351ADDAA100000391AY171061AY221061GF108991051001999999011051KA1999N-03271MD1710031+9999MW1711REMSYN082AAXX  03061 28791 11996 82902 11282 21313 40435 57003 69930 77172 85015 333 21327;
0112287910999992000010312004+54620+072580FM-12+010999999V0202301N002012200019N0400001N1-02981-03281104481ADDGF102991001001999999001091MD1210011+9999REMSYN060AAXX  03121 28791 42982 22302 11298 21328 40448 52001 80009;
0162287910999992000010318004+54620+072580FM-12+010999999V0202401N002012200019N0400001N1-03161-03381104781ADDAA100000391GA1001+999999999GF100991001001999999001001KA1999M-02711MD1210101+9999REMSYN070AAXX  03181 28791 12982 02402 11316 21338 40478 52010 69930 333 11271;
0122287910999992000010400004+54620+072580FM-12+010999999V0209999C000012200019N0400001N1-03181-03471104921ADDGA1001+999999999GF100991001001999999001001MD1210071+9999REMSYN054AAXX  04001 28791 42982 00000 11318 21347 40492 52007;
0175287910999992000010406004+54620+072580FM-12+010999999V0201901N002012200019N0500001N1-03251-03551104871ADDAA106000091GA1001+999999999GF100991001001999999001001KA1999N-03891MD1710011+9999REMSYN064AAXX  04061 28791 32999 01902 11325 21355 40487 57001 333 21389;EQDQ01  00002PRCP06
0122287910999992000010412004+54620+072580FM-12+010999999V0201601N002012200019N0400001N1-03131-03421104701ADDGA1001+999999999GF100991001001999999001001MD1710051+9999REMSYN054AAXX  04121 28791 42982 01602 11313 21342 40470 57005;
0112287910999992000010500004+54620+072580FM-12+010999999V0201201N003019999999N0400001N1-02601+99999103691ADDGF108991081001999999071999MD1710271+9999REMSYN060AAXX  05001 28791 42982 81203 11260 21248 40369 57027 8807/;
0165287910999992000010506004+54620+072580FM-12+010999999V0201201N006019999999N0500001N1-02361-02681103041ADDAA106000091GF108991001001999999001051KA1999N-03331MD1710301+9999REMSYN070AAXX  05061 28791 32999 81206 11236 21268 40304 57030 80005 333 21333;EQDQ01  00002PRCP06
0140287910999992000010512004+54620+072580FM-12+010999999V0201201N007019999999N0450001N1-02101-02501102371ADDAY131061AY221061GF108991081001999999021999MD1710321+9999MW1361REMSYN066AAXX  05121 28791 41983 81207 11210 21250 40237 57032 73632 8802/;
0216287910999992000010518004+54620+072580FM-12+010999999V0201301N008019999999N0400001N1-01981-02311101951ADDAA106000091AY131061AY221061GF108991081001999999021999KA1120M-02011MD1710161+9999MW1361OA140101201REMSYN088AAXX  05181 28791 31982 81308 11198 21231 40195 57016 73632 8802/ 333 11201 91012 91112;EQDQ01  00002PRCP06
0165287910999992000010606004+54620+072580FM-12+010999999V0200201N002019999999N0500001N1-02051-02301101681ADDAA106000091GF108991001001999999001051KA1999N-02201MD1210031+9999REMSYN070AAXX  06061 28791 32999 80202 11205 21230 40168 52003 80005 333 21220;EQDQ01  00002PRCP06
0140287910999992000010612004+54620+072580FM-12+010999999V0201101N001019999999N0500001N1-01911-02171101841ADDAY171061AY221061GF108991081001999999071999MD1210101+9999MW1021REMSYN066AAXX  06121 28791 41984 81101 11191 21217 40184 52010 70272 8807/;
0122287910999992000010700004+54620+072580FM-12+010999999V0203101N002012200019N0300001N1-02461-02701102071ADDGA1001+999999999GF100991001001999999001001MD1210041+9999REMSYN054AAXX  07001 28791 42980 03102 11246 21270 40207 52004;
0175287910999992000010706004+54620+072580FM-12+010999999V0202901N001012200019N0500001N1-02481-02731102331ADDAA106000091GA1001+999999999GF100991001001999999001001KA1999N-02541MD1210151+9999REMSYN064AAXX  07061 28791 32999 02901 11248 21273 40233 52015 333 21254;EQDQ01  00002PRCP06
0112287910999992000010712004+54620+072580FM-12+010999999V0209999C000019999999N0500001N1-02631+99999102311ADDGF108991001001999999001041MD1210041+9999REMSYN060AAXX  07121 28791 42984 80000 11263 21187 40231 52004 80004;
0165287910999992000010718004+54620+072580FM-12+010999999V0201101N003019999999N0400001N1-02421-02661102301ADDAA106000091GF108991081001999999021999KA1999M-02261MD1710051+9999REMSYN070AAXX  07181 28791 32982 81103 11242 21266 40230 57005 8802/ 333 11226;EQDQ01  00002PRCP06
0140287910999992000010800004+54620+072580FM-12+010999999V0200901N004019999999N0060001N1-02371-02611101981ADDAY171061AY231061GF108991081001999999021999MD1710211+9999MW1711REMSYN066AAXX  08001 28791 41956 80904 11237 21261 40198 57021 77173 8802/;
0180287910999992000010806004+54620+072580FM-12+010999999V0200701N004019999999N0040001N1-02291-02541101511ADDAA100000591AY171061AY231061GF108991081001999999021999KA1999N-02601MD1710041+9999MW1711REMSYN082AAXX  08061 28791 11996 80704 11229 21254 40151 57004 69960 77173 8802/ 333 21260;
0150287910999992000010812004+54620+072580FM-12+010999999V0201001N002012200019N0400001N1-02611-02851102031ADDAY171061AY211061GA1001+999999999GF100991001001999999001001MD1210111+9999MW1011REMSYN060AAXX  08121 28791 41982 01002 11261 21285 40203 52011 70171;
0162287910999992000010818004+54620+072580FM-12+010999999V0203201N001012200019N0400001N1-02921-03151102461ADDAA100000891GA1001+999999999GF100991001001999999001001KA1999M-02191MD1210221+9999REMSYN070AAXX  08181 28791 12982 03201 11292 21315 40246 52022 69970 333 11219;
0122287910999992000010900004+54620+072580FM-12+010999999V0209999C000012200019N0400001N1-03141-03361102841ADDGA1001+999999999GF100991001001999999001001MD1210191+9999REMSYN054AAXX  09001 28791 42982 00000 11314 21336 40284 52019;
0122287910999992000010912004+54620+072580FM-12+010999999V0201901N002012200019N0400001N1-02501-02811103071ADDGA1001+999999999GF100991001001999999001001MD1210051+9999REMSYN054AAXX  09121 28791 42982 01902 11250 21281 40307 52005;
0193287910999992000011006004+54620+072580FM-12+010999999V0202201N007019999999N0500001N1-00741-00951101881ADDAA106000091AY131061AY221061GF108991001001999999001051KA1999N-02111MD1710121+9999MW1361REMSYN076AAXX  10061 28791 31999 82207 11074 21095 40188 57012 73632 80005 333 21211;EQDQ01  00002PRCP06
0184287910999992000011012004+54620+072580FM-12+010999999V0202401N009019999999N0010001N1-00671-00791101701ADDAY171061AY231061GF108991081001999999021999MD1710031+9999MW1731OA140101301OA249901301REMSYN088AAXX  10121 28791 41910 82409 11067 21079 40170 57003 77373 8802/ 333 91013 91113 92992;
0140287910999992000011100004+54620+072580FM-12+010999999V0202401N005010300019N0060001N1-00721-00851101511ADDAY171061AY231061GF108991031071004501021999MD1710061+9999MW1711REMSYN066AAXX  11001 28791 41456 82405 11072 21085 40151 57006 77173 8372/;
0180287910999992000011106004+54620+072580FM-12+010999999V0202401N006019999999N0040001N1-00691-00851101591ADDAA100000591AY171061AY231061GF108991081001999999021999KA1999N-00791MD1210071+9999MW1711REMSYN082AAXX  11061 28791 11996 82406 11069 21085 40159 52007 69950 77173 8802/ 333 21079;
0151287910999992000011112004+54620+072580FM-12+010999999V02099999999992200019N0050001N1-00621-00701101591ADDAW1771AZ111061GF102991999001999999999999MD1210061+9999REMSYN066AAXX  11121 28791 44950 25005 11062 21070 40159 52006 77713 880//;EQDQ01+000082SCOTLC
0180287910999992000011118004+54620+072580FM-12+010999999V0202401N006019999999N0070001N1-00591-00661101541ADDAA100000391AY171061AY231061GF108991081001999999021999KA1999M-00541MD1710021+9999MW1711REMSYN082AAXX  11181 28791 11957 82406 11059 21066 40154 57002 69930 77173 8802/ 333 11054;
0140287910999992000011200004+54620+072580FM-12+010999999V0202201N003019999999N0060001N1-00571-00681101421ADDAY171061AY231061GF108991081001999999021999MD1710061+9999MW1711REMSYN066AAXX  12001 28791 41956 82203 11057 21068 40142 57006 77173 8802/;
0199287910999992000011206004+54620+072580FM-12+010999999V0202101N003019999999N0040001N1-00771-00871101331ADDAA100002091AY171061AY221061GF108991081001999999011999KA1999N+99999MD1710021+9999MW1711REMSYN082AAXX  12061 28791 11996 82103 11077 21087 40133 57002 60020 77172 8801/ 333 21069;EQDQ01 -00692ATMN  
0166287910999992000011300004+54620+072580FM-12+010999999V0202801N003010078019N0350001N1-00491-00551101721ADDAY171061AY221061GA1081+007809059GF108991081051999999999999MD1210111+9999MW1021REMSYN076AAXX  13001 28791 41981 82803 11049 21055 40172 52011 70272 885// 333 88626;
0180287910999992000011306004+54620+072580FM-12+010999999V0202501N005019999999N0040001N1-00631-00751101861ADDAA100000191AY171061AY221061GF108991081001999999021999KA1999N-00731MD1210151+9999MW1711REMSYN082AAXX  13061 28791 11996 82505 11063 21075 40186 52015 69920 77172 8802/ 333 21073;
0140287910999992000011312004+54620+072580FM-12+010999999V0202301N002019999999N0060001N1-00921-01031101971ADDAY171061AY221061GF108991081001999999011999MD1210101+9999MW1711REMSYN066AAXX  13121 28791 41956 82302 11092 21103 40197 52010 77172 8801/;
0180287910999992000011318004+54620+072580FM-12+010999999V0202101N002019999999N0070001N1-01381-01441102021ADDAA100000191AY171061AY221061GF108991081001999999071999KA1999M-00591MD1410001+9999MW1711REMSYN082AAXX  13181 28791 11957 82102 11138 21144 40202 54000 69920 77172 8807/ 333 11059;
0144287910999992000011400004+54620+072580FM-12+010999999V0202301N004019999999N0070001N1-01091-01151101851ADDAY171061AY221061GF108991081001999999071999MD1710081+9999MW1711REMSYN070    AAXX  14001 28791 41957 82304 11109 21115 40185 57008 77172 8807/;
0171287910999992000011412004+54620+072580FM-12+010999999V0202301N006019999999N0350001N1-00601-00711100571ADDAY171061AY231061GF108991081001999999071999MD1710171+9999MW1361OA149901201REMSYN086    AAXX  14121 28791 41981 82306 11060 21071 40057 57017 73673 8807/ 333 91112 92990;
0203287910999992000011418004+54620+072580FM-12+010999999V0202401N006019999999N0050001N1-00351-00431100401ADDAA100001091AY171061AY231061GF108991081001999999071999KA1999M+99999MD1710011+9999MW1711REMSYN086    AAXX  14181 28791 11950 82406 11035 21043 40040 57001 60010 77173 8807/ 333 11051;EQDQ01 -00512ATMX  
0144287910999992000011500004+54620+072580FM-12+010999999V0202501N006019999999N0400001N1-00571-00751100511ADDAY171061AY231061GF108991001001999999001051MD1210071+9999MW1361REMSYN070    AAXX  15001 28791 41982 82506 11057 21075 40051 52007 73673 80005;
0203287910999992000011506004+54620+072580FM-12+010999999V0203001N005012200019N0500001N1-00961-01371100971ADDAA100000791AY131061AY211061GF103991031001999999041001KA1999N+99999MD1210221+9999MW1011REMSYN086    AAXX  15061 28791 11999 33005 11096 21137 40097 52022 69900 70131 83040 333 21063;EQDQ01 -00632ATMN  
0126287910999992000011512004+54620+072580FM-12+010999999V0203101N005012200019N0400001N1-02291-02861101641ADDGA1001+999999999GF100991001001999999001001MD1210431+9999REMSYN058    AAXX  15121 28791 42982 03105 11229 21286 40164 52043;
0179287910999992000011518004+54620+072580FM-12+010999999V0203001N004012200019N0400001N1-02661-03121102451ADDAA199000091GA1001+999999999GF100991001001999999001001KA1999M-00501MD1210311+9999REMSYN068    AAXX  15181 28791 32982 03004 11266 21312 40245 52031 333 11050;EQDQ01  00002PRCP99
0126287910999992000011600004+54620+072580FM-12+010999999V0202901N005012200019N0400001N1-02741-03121103141ADDGA1001+999999999GF100991001001999999001001MD1210261+9999REMSYN058    AAXX  16001 28791 42982 02905 11274 21312 40314 52026;
0169287910999992000011606004+54620+072580FM-12+010999999V0202501N002012200019N0500001N1-02831-03201103521ADDAA199000091GF103991001001999999001011KA1999N-02891MD1210151+9999REMSYN074    AAXX  16061 28791 32999 32502 11283 21320 40352 52015 80001 333 21289;EQDQ01  00002PRCP99
0116287910999992000011612004+54620+072580FM-12+010999999V0202601N002019999999N0350001N1-02691-03001103401ADDGF108991001001999999001051MD1710071+9999REMSYN064    AAXX  16121 28791 42981 82602 11269 21300 40340 57007 80005;
0158287910999992000011618004+54620+072580FM-12+010999999V0201701N003019999999N0400001N1-02261-02581103081ADDGF108991001001999999001051KA1999M+99999MD1710141+9999REMSYN074    AAXX  16181 28791 42982 81703 11226 21258 40308 57014 80005 333 11240;EQDQ01 -02402ATMX  
0126287910999992000011700004+54620+072580FM-12+010999999V0201601N002012200019N0400001N1-02481-02871102681ADDGA1001+999999999GF100991001001999999001001MD1710211+9999REMSYN058    AAXX  17001 28791 42982 01602 11248 21287 40268 57021;
0184287910999992000011706004+54620+072580FM-12+010999999V0201901N003019999999N0200001N1-01561-01831102391ADDAA100000791AY171061AY211061GF108991031001999999011051KA1999N-02521MD1710101+9999MW1221REMSYN086    AAXX  17061 28791 11998 81903 11156 21183 40239 57010 69900 72271 83015 333 21252;
0116287910999992000011712004+54620+072580FM-12+010999999V0202001N006019999999N0280001N1-01231-01501102101ADDGF108991001001999999001051MD1710081+9999REMSYN064    AAXX  17121 28791 42978 82006 11123 21150 40210 57008 80005;
0156287910999992000011718004+54620+072580FM-12+010999999V0202201N003019999999N0400001N1-01291-01491101941ADDAA100000791GF108991001001999999001051KA1999M-01141MD1710071+9999REMSYN080    AAXX  17181 28791 12982 82203 11129 21149 40194 57007 69900 80005 333 11114;
0126287910999992000011800004+54620+072580FM-12+010999999V0202001N001012200019N0350001N1-01811-02001101781ADDGA1001+999999999GF100991001001999999001001MD1710121+9999REMSYN058    AAXX  18001 28791 42981 02001 11181 21200 40178 57012;
0184287910999992000011806004+54620+072580FM-12+010999999V0202001N002019999999N0500001N1-01721-01911101761ADDAA100000791AY171061AY211061GF108991001001999999001071KA1999N-01831MD1210041+9999MW1021REMSYN086    AAXX  18061 28791 11999 82002 11172 21191 40176 52004 69900 70271 80007 333 21183;
0116287910999992000011812004+54620+072580FM-12+010999999V0202101N002019999999N0300001N1-01621-01811101711ADDGF108991001001999999001091MD1210021+9999REMSYN064    AAXX  18121 28791 42980 82102 11162 21181 40171 52002 80009;
0178287910999992000011818004+54620+072580FM-12+010999999V0202301N003019999999N0070001N1-01331-01461101931ADDAA199000021AY171061AY221061GF108991081001999999071999KA1999M-01351MD1210161+9999MW1711REMSYN080    AAXX  18181 28791 31957 82303 11133 21146 40193 52016 77172 8807/ 333 11135;
0144287910999992000011900004+54620+072580FM-12+010999999V0202501N004019999999N0070001N1-01311-01441102101ADDAY171061AY221061GF108991081001999999071999MD1210131+9999MW1711REMSYN070    AAXX  19001 28791 41957 82504 11131 21144 40210 52013 77172 8807/;
0206287910999992000011906004+54620+072580FM-12+010999999V0202401N002010072019N0040001N1-01051-01111102541ADDAA100000591AY171061AY221061GA1081+007209059GF108991081051008001999999KA1120N-01911MD1210191+9999MW1711REMSYN092    AAXX  19061 28791 11596 82402 11105 21111 40254 52019 69950 77172 885// 333 21191 88624;
0144287910999992000011912004+54620+072580FM-12+010999999V0202401N001019999999N0350001N1-01391-01521102731ADDAY171061AY211061GF108991081001999999051999MD1210071+9999MW1031REMSYN070    AAXX  19121 28791 41981 82401 11139 21152 40273 52007 70371 8805/;
0146287910999992000011918004+54620+072580FM-12+010999999V0201801N003019999999N0400001N1-01771-01891102781ADDAA100000791GF108991999999999999999999KA1999M-00911MD1710031+9999REMSYN070AAXX  19181 28791 12982 81803 11177 21189 40278 57003 69900 333 11091;
0180287910999992000012000004+54620+072580FM-12+010999999V0201401N002019999999N0500001N1-01241-01591102111ADDAA100001091AY171061AY221061GF107991001001999999001091KA1999N-01631MD1210211+9999MW1021REMSYN082AAXX  10601 28791 11999 71402 11124 21159 40211 52021 69990 70272 80009 333 21163;
0175287910999992000012006004+54620+072580FM-12+010999999V0201801N002012200019N0500001N1-01831-02021102591ADDAA199000091GA1001+999999999GF100991001001999999001001KA1999N-02371MD1710141+9999REMSYN064AAXX  20061 28791 32999 01802 11183 21202 40259 57014 333 21237;EQDQ01  00002PRCP99
0112287910999992000012012004+54620+072580FM-12+010999999V0201101N003019999999N0400001N1-01551-01681102301ADDGF108991001001999999001011MD1710101+9999REMSYN060AAXX  20121 28791 42982 81103 11155 21168 40230 57010 80001;
0159287910999992000012018004+54620+072580FM-12+010999999V0201201N006019999999N0400001N1-01611+99999101971ADDAA199000091GF105991001001999999001011KA1999M-01511MD1710151+9999REMSYN064AAXX  20181 28791 32982 51206 11161 40197 57015 80001 333 11151;EQDQ01  00002PRCP99
0112287910999992000012100004+54620+072580FM-12+010999999V0201501N007019999999N0300001N1-01211-01411101701ADDGF108991081001999999071999MD1710081+9999REMSYN060AAXX  21001 28791 42980 81507 11121 21141 40170 57008 8807/;
0140287910999992000012112004+54620+072580FM-12+010999999V0201001N005019999999N0500001N1-01221-01351102401ADDAY171061AY221061GF108991051001999999031011MD1210121+9999MW1021REMSYN066AAXX  21121 28791 41984 81005 11122 21135 40240 52012 70272 85031;
0152287910999992000012118004+54620+072580FM-12+010999999V0201201N005019999999N0450001N1-01021-01151102311ADDAA100000791GF108991081001999999021999KA1999M-00881MD1710031+9999REMSYN076AAXX  21181 28791 12983 81205 11102 21115 40231 57003 69900 8802/ 333 11088;
0112287910999992000012200004+54620+072580FM-12+010999999V0201101N005019999999N0400001N1-00721-00851102181ADDGF108991081001999999021999MD1710071+9999REMSYN060AAXX  22001 28791 42982 81105 11072 21085 40218 57007 8802/;
0193287910999992000012206004+54620+072580FM-12+010999999V0201201N007019999999N0500001N1-01241-01511102191ADDAA199000091AY171061AY221061GF108991001001999999001051KA1999N-01371MD1210011+9999MW1361REMSYN076AAXX  22061 28791 32999 81207 11124 21151 40219 52001 73672 80005 333 21137;EQDQ01  00002PRCP99
0140287910999992000012212004+54620+072580FM-12+010999999V0201101N008019999999N0500001N1-01181-01451102131ADDAY131061AY221061GF108991001001999999001091MD1710051+9999MW1361REMSYN066AAXX  22121 28791 41984 81108 11118 21145 40213 57005 73632 80009;
0216287910999992000012218004+54620+072580FM-12+010999999V0201201N008019999999N0400001N1-01031-01561102021ADDAA199000091AY131061AY221061GF108991001001999999001011KA1120M-01021MD1710021+9999MW1361OA140101201REMSYN088AAXX  22181 28791 32982 81208 11103 21156 40202 57002 73632 80001 333 11102 91012 91112;EQDQ01  00002PRCP99
0167287910999992000012300004+54620+072580FM-12+010999999V0201201N008019999999N0400001N1-01191-01631101921ADDAY131061AY221061GF108991001001999999001011MD1710061+9999MW1361OA140101201REMSYN082AAXX  23001 28791 41982 81208 11119 21163 40192 57006 73632 80001 333 91012 91112;
0140287910999992000012312004+54620+072580FM-12+010999999V0201301N006019999999N0400001N1-01131-01481101921ADDAY171061AY231061GF108991081001999999021999MD1210031+9999MW1361REMSYN066AAXX  23121 28791 41982 81306 11113 21148 40192 52003 73673 8802/;
0180287910999992000012318004+54620+072580FM-12+010999999V0201101N005019999999N0070001N1-01231-01431101871ADDAA100000591AY171061AY231061GF108991081001999999021999KA1999M-01101MD1710061+9999MW1711REMSYN082AAXX  23181 28791 11957 81105 11123 21143 40187 57006 69940 77173 8802/ 333 11110;
0140287910999992000012400004+54620+072580FM-12+010999999V0201201N003019999999N0070001N1-01351-01551101821ADDAY171061AY231061GF108991081001999999021999MD1710031+9999MW1711REMSYN066AAXX  24001 28791 41957 81203 11135 21155 40182 57003 77173 8802/;
0180287910999992000012406004+54620+072580FM-12+010999999V0202101N003012200019N0040001N1-01021-01151101901ADDAA100005191AY171061AY221061GF108991021051008001001011KA1999N-01371MD1210041+9999MW1101REMSYN082AAXX  24061 28791 11596 82103 11102 21115 40190 52004 60050 71072 82501 333 21137;
0112287910999992000012412004+54620+072580FM-12+010999999V0201801N002012200019N0500001N1-01661-01791102101ADDGF102991021001999999031001MD1210071+9999REMSYN060AAXX  24121 28791 42999 21802 11166 21179 40210 52007 82030;
0180287910999992000012418004+54620+072580FM-12+010999999V0201301N001019999999N0080001N1-01221-01281102851ADDAA100000791AY111061AY211061GF108991081001999999051999KA1999M-01001MD1710031+9999MW1101REMSYN082AAXX  24181 28791 11958 81301 11122 21128 40285 57003 69900 71011 8805/ 333 11100;
0140287910999992000012500004+54620+072580FM-12+010999999V0202601N006019999999N0060001N1-00841-00941102101ADDAY171061AY231061GF108991081001999999021999MD1210111+9999MW1711REMSYN066AAXX  25001 28791 41956 82606 11084 21094 40210 52011 77173 8802/;
0186287910999992000012506004+54620+072580FM-12+010999999V0202401N008019999999N0010001N1-01631-01891102661ADDAA100000391AY171061AY231061GF108991081001999999011999KA1120N-01661MD1210301+9999MW1711REMSYN088AAXX  25061 28791 11994 82408 11163 21189 40266 52030 69930 77173 8801/ 333 21166 92982;
0177287910999992000012512004+54620+072580FM-12+010999999V0202401N008012200019N0500001N1-01671-02011103161ADDAY171061AY231061GA1001+999999999GF100991001001999999001001MD1210291+9999MW1371OA140101201REMSYN076AAXX  25121 28791 41999 02408 11167 21201 40316 52029 73773 333 91012 91112;
0196287910999992000012518004+54620+072580FM-12+010999999V0202401N005012200019N0350001N1-02131-02461103771ADDAA100000191AY131061AY201061GA1001+999999999GF100991001001999999001001KA1120M-01411MD1210191+9999MW1361REMSYN082AAXX  25181 28791 11981 02405 11213 21246 40377 52019 69920 73630 333 11141 91112;
0150287910999992000012600004+54620+072580FM-12+010999999V0202401N004012200019N0300001N1-02261-02581104111ADDAY131061AY201061GA1001+999999999GF100991001001999999001001MD1210101+9999MW1021REMSYN060AAXX  26001 28791 41980 02404 11226 21258 40411 52010 70230;
0165287910999992000012606004+54620+072580FM-12+010999999V0202001N004012200019N0500001N1-02191-02591104451ADDAA199000091GF102991001001999999001011KA1999N-02421MD1210121+9999REMSYN070AAXX  26061 28791 32999 22004 11219 21259 40445 52012 80001 333 21242;EQDQ01  00002PRCP99
0112287910999992000012612004+54620+072580FM-12+010999999V0201601N002019999999N0500001N1-02111-02441104421ADDGF108991001001999999001041MD1710031+9999REMSYN060AAXX  26121 28791 42999 81602 11211 21244 40442 57003 80004;
0175287910999992000012618004+54620+072580FM-12+010999999V0201501N003012200019N0350001N1-02031-02281104201ADDAA199000091GA1001+999999999GF100991001001999999001001KA1999M-01941MD1710131+9999REMSYN064AAXX  26181 28791 32981 01503 11203 21228 40420 57013 333 11194;EQDQ01  00002PRCP99
0122287910999992000012700004+54620+072580FM-12+010999999V0201401N003012200019N0300001N1-02011-02341103821ADDGA1001+999999999GF100991001001999999001001MD1710181+9999REMSYN054AAXX  27001 28791 42980 01403 11201 21234 40382 57018;
0165287910999992000012706004+54620+072580FM-12+010999999V0201501N006019999999N0500001N1-01771-02181103591ADDAA199000091GF108991001001999999001011KA1999N-02191MD1710141+9999REMSYN070AAXX  27061 28791 32999 81506 11177 21218 40359 57014 80001 333 21219;EQDQ01  00002PRCP99
0112287910999992000012712004+54620+072580FM-12+010999999V0201301N006019999999N0500001N1-01591-01931103281ADDGF108991001001999999001011MD1710111+9999REMSYN060AAXX  27121 28791 42999 81306 11159 21193 40328 57011 80001;
0175287910999992000012718004+54620+072580FM-12+010999999V0201501N004012200019N0450001N1-01561-01901103091ADDAA199000091GA1001+999999999GF100991001001999999001001KA1999M-01541MD1710101+9999REMSYN064AAXX  27181 28791 32983 01504 11156 21190 40309 57010 333 11154;EQDQ01  00002PRCP99
0122287910999992000012800004+54620+072580FM-12+010999999V0201401N001012200019N0300001N1-01971-02231102981ADDGA1001+999999999GF100991001001999999001001MD1710021+9999REMSYN054AAXX  28001 28791 42980 01401 11197 21223 40298 57002;
0165287910999992000012806004+54620+072580FM-12+010999999V0201201N001019999999N0500001N1-01581-02091102761ADDAA199000091GF108991001001999999001011KA1999N-02051MD1710101+9999REMSYN070AAXX  28061 28791 32999 81201 11158 21209 40276 57010 80001 333 21205;EQDQ01  00002PRCP99
0175287910999992000012818004+54620+072580FM-12+010999999V0201601N004012200019N0400001N1-01661-02001102241ADDAA199000091GA1001+999999999GF100991001001999999001001KA1999M-01361MD1710071+9999REMSYN064AAXX  28181 28791 32982 01604 11166 21200 40224 57007 333 11136;EQDQ01  00002PRCP99
0140287910999992000012900004+54620+072580FM-12+010999999V0202001N003019999999N0070001N1-01371-01571102251ADDAY171061AY211061GF108991081001999999021999MD1210071+9999MW1711REMSYN066AAXX  29001 28791 41957 82003 11137 21157 40225 52007 77171 8802/;
0180287910999992000012906004+54620+072580FM-12+010999999V0202601N001019999999N0040001N1-00791-00931102411ADDAA100000591AY171061AY221061GF108991081001999999021999KA1999N-01761MD1210111+9999MW1711REMSYN082AAXX  29061 28791 11996 82601 11079 21093 40241 52011 69940 77172 8802/ 333 21176;
0140287910999992000012912004+54620+072580FM-12+010999999V0209999C000019999999N0500001N1-00811-00951102481ADDAY171061AY221061GF108991081001999999021999MD1210021+9999MW1021REMSYN066AAXX  29121 28791 41999 80000 11081 21095 40248 52002 70272 8802/;
0180287910999992000012918004+54620+072580FM-12+010999999V0202901N002019999999N0070001N1-00891-01041102401ADDAA100002091AY171061AY221061GF108991081001999999021999KA1999M-00661MD1710041+9999MW1711REMSYN082AAXX  29181 28791 11957 82902 11089 21104 40240 57004 60020 77172 8802/ 333 11066;
0140287910999992000013000004+54620+072580FM-12+010999999V0203301N003019999999N0070001N1-01141-01201102221ADDAY171061AY221061GF108991081001999999021999MD1710071+9999MW1711REMSYN066AAXX  30001 28791 41957 83303 11114 21120 40222 57007 77172 8802/;
0209287910999992000013006004+54620+072580FM-12+010999999V0202801N002012200019N0500001N1-01601-01791102281ADDAA100000591AY171061AY211061GA1001+999999999GF100991001001999999001001KA1999N+99999MD1210021+9999MW1021REMSYN076AAXX  30061 28791 11999 02802 11160 21179 40228 52002 69940 70271 333 21153;EQDQ01 -01532ATMN  
0112287910999992000013012004+54620+072580FM-12+010999999V0202401N002019999999N0500001N1-01621-01811102221ADDGF108991081001999999071999MD1410001+9999REMSYN060AAXX  30121 28791 42999 82402 11162 21181 40222 54000 8807/;
0166287910999992000013018004+54620+072580FM-12+010999999V0202401N005019999999N0350001N1-00861-01011102131ADDAA100000791AY171061AY221061GF108991081001999999021999MD1710011+9999MW1021REMSYN081AAXX  30181 28791 11981 82405 11086 21101 40213 57001 69900 70272 8802/ 333 1144;
0150287910999992000013100004+54620+072580FM-12+010999999V0202601N006019999999N0032001N1-00801-00941102201ADDAY171061AY231061GF108991081001999999021999MD1210041+9999MW1711REMSYN076AAXX  31001 28791 41932 82606 11080 21094 40220 52004 77173 8802/ 333 92982;
0190287910999992000013106004+54620+072580FM-12+010999999V0202701N005012200019N0500001N1-01121-01251102621ADDAA100001091AY171061AY231061GA1001+999999999GF100991001001999999001001KA1999N-01191MD1210271+9999MW1021REMSYN076AAXX  31061 28791 11999 02705 11112 21125 40262 52027 60010 70273 333 21119;
0122287910999992000013112004+54620+072580FM-12+010999999V0202501N003012200019N0500001N1-01241-01441102931ADDGA1001+999999999GF100991001001999999001001MD1210151+9999REMSYN054AAXX  31121 28791 42999 02503 11124 21144 40293 52015;
0175287910999992000013118004+54620+072580FM-12+010999999V0202301N002012200019N0300001N1-02191-02311103191ADDAA199000091GA1001+999999999GF100991001001999999001001KA1999M-01011MD1210041+9999REMSYN064AAXX  31181 28791 32980 02302 11219 21231 40319 52004 333 11101;EQDQ01  00002PRCP99
0140287910999992000020100004+54620+072580FM-12+010999999V0202101N001019999999N0005001N1-02011-02131103181ADDAY141061AY211061GF108991081001999999021999MD1710011+9999MW1481REMSYN066AAXX  01001 28791 41905 82101 11201 21213 40318 57001 74841 8802/;
0193287910999992000020106004+54620+072580FM-12+010999999V0202201N002019999999N0040001N1-01481-01611103021ADDAA199000091AY141061AY221061GF108991081001999999021999KA1999N-02211MD1710081+9999MW1101REMSYN076AAXX  01061 28791 31996 82202 11148 21161 40302 57008 71042 8802/ 333 21221;EQDQ01  00002PRCP99
0140287910999992000020112004+54620+072580FM-12+010999999V0202301N002019999999N0500001N1-00791-00811102711ADDAY171061AY221061GF108991081001999999051999MD1710061+9999MW1101REMSYN066AAXX  01121 28791 41999 82302 11079 21081 40271 57006 71072 8805/;
0180287910999992000020118004+54620+072580FM-12+010999999V0202001N002019999999N0050001N1-00731-00781102671ADDAA100000191AY121061AY221061GF108991081001999999021999KA1999M-00751MD1710031+9999MW1101REMSYN082AAXX  01181 28791 11950 82002 11073 21078 40267 57003 69920 71022 8802/ 333 11075;
0140287910999992000020200004+54620+072580FM-12+010999999V0202001N002019999999N0060001N1-00781-00801102451ADDAY121061AY221061GF108991081001999999021999MD1710141+9999MW1101REMSYN066AAXX  02001 28791 41956 82002 11078 21080 40245 57014 71022 8802/;
0181287910999992000020206004+54620+072580FM-12+010999999V0201501N002012200019N0500001N1-01051-01181102421ADDAA199000091GF103991001001999999001011KA1999N+99999MD1710071+9999REMSYN070AAXX  02061 28791 32999 31502 11105 21118 40242 57007 80001 333 21094;EQDQ01  00002PRCP99Q02 -00942ATMN  
0112287910999992000020212004+54620+072580FM-12+010999999V0201401N005019999999N0200001N1-01471-01531102261ADDGF105991001001999999001041MD1710061+9999REMSYN060AAXX  02121 28791 42998 51405 11147 21153 40226 57006 80004;
0203287910999992000020218004+54620+072580FM-12+010999999V0201501N003012200019N0080001N1-01701-01831102001ADDAA199000091AY111061AY211061GA1001+999999999GF100991001001999999001001KA1999M-00881MD1710141+9999MW1101REMSYN070AAXX  02181 28791 31958 01503 11170 21183 40200 57014 71011 333 11088;EQDQ01  00002PRCP99
0150287910999992000020300004+54620+072580FM-12+010999999V0201201N005012200019N0060001N1-01971-02161101651ADDAY101061AY201061GA1001+999999999GF100991001001999999001001MD1710071+9999MW1101REMSYN060AAXX  03001 28791 41956 01205 11197 21216 40165 57007 71000;
0165287910999992000020306004+54620+072580FM-12+010999999V0201201N006019999999N0500001N1-01981-02171101411ADDAA199000091GF108991001001999999001091KA1999N-02101MD1710121+9999REMSYN070AAXX  03061 28791 32999 81206 11198 21217 40141 57012 80009 333 21210;EQDQ01  00002PRCP99
0140287910999992000020312004+54620+072580FM-12+010999999V0201201N003019999999N0040001N1-01711-01901101151ADDAY171061AY221061GF108991051001999999011051MD1710071+9999MW1711REMSYN066AAXX  03121 28791 41996 81203 11171 21190 40115 57007 77172 85015;
0190287910999992000020318004+54620+072580FM-12+010999999V0201201N002012200019N0060001N1-01961-02151101221ADDAA100000391AY171061AY211061GA1001+999999999GF100991001001999999001001KA1999M-01711MD1710011+9999MW1101REMSYN076AAXX  03181 28791 11956 01202 11196 21215 40122 57001 69930 71071 333 11171;
0150287910999992000020400004+54620+072580FM-12+010999999V0202101N002012200019N0070001N1-01791-01911101381ADDAY101061AY201061GA1001+999999999GF100991001001999999001001MD1210061+9999MW1101REMSYN060AAXX  04001 28791 41957 02102 11179 21191 40138 52006 71000;
0165287910999992000020406004+54620+072580FM-12+010999999V0201901N003019999999N0200001N1-01331-01391101401ADDAA199000091GF106991001001999999001041KA1999N-01981MD1410001+9999REMSYN070AAXX  04061 28791 32998 61903 11133 21139 40140 54000 80004 333 21198;EQDQ01  00002PRCP99
0140287910999992000020412004+54620+072580FM-12+010999999V0201901N009019999999N0200001N1-00521-00661101041ADDAY171061AY231061GF108991081001999999071999MD1710201+9999MW1361REMSYN066AAXX  04121 28791 41998 81909 11052 21066 40104 57020 73673 8807/;
0184287910999992000020500004+54620+072580FM-12+010999999V0202401N008019999999N0400001N1+00081-00131100731ADDAY131061AY221061GF108991081001999999021999MD1210131+9999MW1371OA140101201OA249901501REMSYN088AAXX  05001 28791 41982 82408 10008 21013 40073 52013 73732 8802/ 333 91012 91115 92990;
0225287910999992000020506004+54620+072580FM-12+010999999V0202301N006010075019N0500001N1-00081-00331101111ADDAA100000591AY131061AY221061GA1081+007509069GF108991081051008001999999KA1120N-00411MD1210131+9999MW1021OA149901201REMSYN100AAXX  05061 28791 11599 82306 11008 21033 40111 52013 69960 70232 885// 333 21041 88625 91112 92990;
0112287910999992000020512004+54620+072580FM-12+010999999V0202201N005019999999N0500001N1-00041-00311101211ADDGF108991081001999999021999MD1210031+9999REMSYN060AAXX  05121 28791 42999 82205 11004 21031 40121 52003 8802/;
0174287910999992000020518004+54620+072580FM-12+010999999V0202101N003019999999N0060001N1-00241-00301101091ADDAA199000021AY171061AY221061GF108991081001999999021999KA1999M+00081MD1710081+9999MW1711REMSYN076AAXX  05181 28791 31956 82103 11024 21030 40109 57008 77172 8802/ 333 10008;
0166287910999992000020600004+54620+072580FM-12+010999999V0202501N002010072019N0300001N1-00261-00291101001ADDAY171061AY221061GA1081+007209059GF108991081051008001999999MD1210011+9999MW1221REMSYN076AAXX  06001 28791 41580 82502 11026 21029 40100 52001 72272 885// 333 88624;
0171287910999992000020606004+54620+072580FM-12+010999999V0202601N003012200019N0500001N1-00611-00721101351ADDAA100002091GF102991021001999999041001KA1999N+99999MD1210241+9999REMSYN076AAXX  06061 28791 12999 22603 11061 21072 40135 52024 60020 82040 333 21055;EQDQ01 -00552ATMN  
0166287910999992000020612004+54620+072580FM-12+010999999V0202901N004010075019N0500001N1-00681-00841101921ADDAY171061AY221061GA1081+007509059GF108991081051008001999999MD1210281+9999MW1021REMSYN076AAXX  06121 28791 41599 82904 11068 21084 40192 52028 70272 885// 333 88625;
0190287910999992000020618004+54620+072580FM-12+010999999V0202801N002012200019N0070001N1-01631-01761102601ADDAA100000791AY111061AY211061GA1001+999999999GF100991001001999999001001KA1999M-00511MD1210221+9999MW1101REMSYN076AAXX  06181 28791 11957 02802 11163 21176 40260 52022 69900 71011 333 11051;
0150287910999992000020700004+54620+072580FM-12+010999999V0209999C000012200019N0060001N1-02371-02551102841ADDAY101061AY201061GA1001+999999999GF100991001001999999001001MD1210091+9999MW1101REMSYN060AAXX  07001 28791 41956 00000 11237 21255 40284 52009 71000;
0175287910999992000020706004+54620+072580FM-12+010999999V0209999C000012200019N0500001N1-01931-02121102811ADDAA199000091GA1001+999999999GF100991001001999999001001KA1999N-02401MD1710081+9999REMSYN064AAXX  07061 28791 32999 00000 11193 21212 40281 57008 333 21240;EQDQ01  00002PRCP99
0112287910999992000020712004+54620+072580FM-12+010999999V0202301N002012200019N0500001N1-01891-02081102531ADDGF102991001001999999001011MD1710161+9999REMSYN060AAXX  07121 28791 42999 22302 11189 21208 40253 57016 80001;
0174287910999992000020718004+54620+072580FM-12+010999999V0201101N002019999999N0060001N1-01711-01831102361ADDAA199000021AY171061AY211061GF108991081001999999021999KA1999M-01581MD1710071+9999MW1711REMSYN076AAXX  07181 28791 31956 81102 11171 21183 40236 57007 77171 8802/ 333 11158;
0140287910999992000020800004+54620+072580FM-12+010999999V0200701N004019999999N0060001N1-01351-01481101961ADDAY171061AY221061GF108991081001999999021999MD1710191+9999MW1711REMSYN066AAXX  08001 28791 41956 80704 11135 21148 40196 57019 77172 8802/;
0180287910999992000020806004+54620+072580FM-12+010999999V0201301N004019999999N0040001N1-00821-00961101591ADDAA100000891AY171061AY221061GF108991081001999999021999KA1999N-01961MD1710321+9999MW1711REMSYN082AAXX  08061 28791 11996 81304 11082 21096 40159 57032 69980 77172 8802/ 333 21196;
0140287910999992000020812004+54620+072580FM-12+010999999V0202301N002019999999N0200001N1-01141-01271101481ADDAY171061AY221061GF108991001001999999001051MD1710121+9999MW1021REMSYN066AAXX  08121 28791 41998 82302 11114 21127 40148 57012 70272 80005;
0174287910999992000020818004+54620+072580FM-12+010999999V0202801N002019999999N0400001N1-01551-01681101511ADDAA100000891AY171061AY221061GF108991999999999999999999KA1999M-00781MD1710011+9999MW1021REMSYN076AAXX  08181 28791 11982 82802 11155 21168 40151 57001 69970 70272 333 11078;
0150287910999992000020900004+54620+072580FM-12+010999999V0202701N002012200019N0060001N1-01911-02101101701ADDAY111061AY211061GA1001+999999999GF100991001001999999001001MD1210081+9999MW1101REMSYN060AAXX  09001 28791 41956 02702 11191 21210 40170 52008 71011;
0180287910999992000020906004+54620+072580FM-12+010999999V0202601N003012200019N0040001N1-01951-02141101941ADDAA100000791AY171061AY211061GF102991001001999999001091KA1999N-01911MD1210141+9999MW1101REMSYN082AAXX  09061 28791 11996 22603 11195 21214 40194 52014 69900 71071 80009 333 21191;
0122287910999992000020912004+54620+072580FM-12+010999999V0202601N003012200019N0500001N1-02151-02331102061ADDGA1001+999999999GF100991001001999999001001MD1210111+9999REMSYN054AAXX  09121 28791 42999 02603 11215 21233 40206 52011;
0162287910999992000020918004+54620+072580FM-12+010999999V0209999C000012200019N0350001N1-02221-02401102421ADDAA100000791GA1001+999999999GF100991001001999999001001KA1999M-01601MD1210101+9999REMSYN070AAXX  09181 28791 12981 00000 11222 21240 40242 52010 69900 333 11160;
0122287910999992000021000004+54620+072580FM-12+010999999V0202301N002012200019N0400001N1-02091-02281102731ADDGA1001+999999999GF100991001001999999001001MD1210211+9999REMSYN054AAXX  10001 28791 42982 02302 11209 21228 40273 52021;
0190287910999992000021006004+54620+072580FM-12+010999999V0202401N003012200019N0500001N1-01891-02081102821ADDAA100000791AY171061AY211061GA1001+999999999GF100991001001999999001001KA1999N-02251MD1210111+9999MW1011REMSYN076AAXX  10061 28791 11999 02403 11189 21208 40282 52011 69900 70171 333 21225;
0112287910999992000021012004+54620+072580FM-12+010999999V0202101N002012200019N0500001N1-01921-02111102951ADDGF102991001001999999001011MD1210081+9999REMSYN060AAXX  10121 28791 42999 22102 11192 21211 40295 52008 80001;
0180287910999992000021018004+54620+072580FM-12+010999999V0202001N002019999999N0060001N1-01661-01851102931ADDAA100000791AY171061AY211061GF108991081001999999021999KA1999M-01551MD1710031+9999MW1711REMSYN082AAXX  10181 28791 11956 82002 11166 21185 40293 57003 69900 77171 8802/ 333 11155;
0140287910999992000021100004+54620+072580FM-12+010999999V0201701N002019999999N0060001N1-01591-01721102951ADDAY171061AY221061GF108991081001999999021999MD1210011+9999MW1711REMSYN066AAXX  11001 28791 41956 81702 11159 21172 40295 52001 77172 8802/;
0180287910999992000021106004+54620+072580FM-12+010999999V0201501N004019999999N0040001N1-01311-01441102681ADDAA100000891AY171061AY221061GF108991081001999999021999KA1999N-02261MD1710071+9999MW1711REMSYN082AAXX  11061 28791 11996 81504 11131 21144 40268 57007 69970 77172 8802/ 333 21226;
0140287910999992000021112004+54620+072580FM-12+010999999V0201501N005019999999N0040001N1-00941-01061102481ADDAY171061AY221061GF108991081001999999021999MD1710041+9999MW1711REMSYN066AAXX  11121 28791 41996 81505 11094 21106 40248 57004 77172 8802/;
0199287910999992000021118004+54620+072580FM-12+010999999V0201701N002019999999N0070001N1-00621-00701102231ADDAA100000591AY171061AY221061GF108991081001999999021999KA1999M+99999MD1710121+9999MW1711REMSYN082AAXX  11181 28791 11957 81702 11062 21070 40223 57012 69950 77172 8802/ 333 11086;EQDQ01 -00862ATMX  
0140287910999992000021200004+54620+072580FM-12+010999999V0201701N003019999999N0400001N1-00381-00461102051ADDAY171061AY221061GF108991081001999999021999MD1710081+9999MW1021REMSYN066AAXX  12001 28791 42982 81703 11038 21046 40205 57008 70272 8802/;
0180287910999992000021206004+54620+072580FM-12+010999999V0201501N004019999999N0040001N1-00421-00471101861ADDAA100000191AY171061AY221061GF108991081001999999071999KA1999N-00891MD1710061+9999MW1711REMSYN082AAXX  12061 28791 11996 81504 11042 21047 40186 57006 69920 77172 8807/ 333 21089;
0140287910999992000021212004+54620+072580FM-12+010999999V0201401N003019999999N0500001N1-00361-00411101721ADDAY171061AY221061GF108991081001999999071999MD1710081+9999MW1021REMSYN066AAXX  12121 28791 41999 81403 11036 21041 40172 57008 70272 8807/;
0199287910999992000021218004+54620+072580FM-12+010999999V0201501N005019999999N0060001N1-00221-00251101511ADDAA100000391AY121061AY221061GF108991081001999999071999KA1999M+99999MD1710141+9999MW1101REMSYN082AAXX  12181 28791 11956 81505 11022 21025 40151 57014 69930 71022 8807/ 333 11035;EQDQ01 -00352ATMX  
0140287910999992000021300004+54620+072580FM-12+010999999V0202301N004019999999N0070001N1-00051-00141101271ADDAY171061AY221061GF108991081001999999071999MD1710071+9999MW1101REMSYN066AAXX  13001 28791 41957 82304 11005 21014 40127 57007 71072 8807/;
0127287910999992000021306004+54620+072580FM-12+010999999V0202201N005019999999N0500001N1-00121-00321101261ADDGF108991999999999999999999MD1710011+9999REMSYN075AAXX  13061 28791 12999 82205 11012 21032 40126 57001 6020 8807/ 333 21031;
0138287910999992000021312004+54620+072580FM-12+010999999V0202401N007010072019N0500001N1-00311-00591101391ADDGA1081+007209059GF108991081051008001999999MD1210051+9999REMSYN070AAXX  13121 28791 42599 82407 11031 21059 40139 52005 885// 333 88624;
0180287910999992000021406004+54620+072580FM-12+010999999V0201801N001019999999N0040001N1-00511-00651101671ADDAA100000591AY171061AY221061GF108991081001999999071999KA1999N-00751MD1410001+9999MW1711REMSYN082AAXX  14061 28791 11996 81801 11051 21065 40167 54000 69940 77172 8807/ 333 21075;
0140287910999992000021412004+54620+072580FM-12+010999999V0201101N002019999999N0500001N1-00371-00521101581ADDAY171061AY221061GF108991081001999999021999MD1710061+9999MW1021REMSYN066AAXX  14121 28791 41999 81102 11037 21052 40158 57006 70272 8802/;
0180287910999992000021418004+54620+072580FM-12+010999999V0201901N002019999999N0070001N1-00711-00761101451ADDAA100000791AY171061AY221061GF108991081001999999011999KA1999M-00241MD1710091+9999MW1711REMSYN082AAXX  14181 28791 11957 81902 11071 21076 40145 57009 69900 77172 8801/ 333 11024;
0140287910999992000021500004+54620+072580FM-12+010999999V0201601N001019999999N0060001N1-00771-00831101271ADDAY171061AY241061GF108991001001999999001051MD1710101+9999MW1101REMSYN066AAXX  15001 28791 41956 81601 11077 21083 40127 57010 71074 80005;
0180287910999992000021506004+54620+072580FM-12+010999999V0202301N004019999999N0040001N1-00611-00721101141ADDAA100000591AY171061AY241061GF108991081001999999021999KA1999N-01181MD1710051+9999MW1711REMSYN082AAXX  15061 28791 11996 82304 11061 21072 40114 57005 69950 77174 8802/ 333 21118;
0140287910999992000021512004+54620+072580FM-12+010999999V0202501N005019999999N0500001N1-00761-00941101161ADDAY171061AY221061GF108991031001999999031051MD1210041+9999MW1021REMSYN066AAXX  15121 28791 41999 82505 11076 21094 40116 52004 70272 83035;
0180287910999992000021518004+54620+072580FM-12+010999999V0202601N005019999999N0350001N1-00571-00791101481ADDAA100000591AY131061AY221061GF108991081001999999021999KA1999M-00541MD1210171+9999MW1361REMSYN082AAXX  15181 28791 11981 82605 11057 21079 40148 52017 69940 73632 8802/ 333 11054;
0150287910999992000021600004+54620+072580FM-12+010999999V0202701N006012200019N0300001N1-00871-01061101901ADDAY131061AY211061GA1001+999999999GF100991001001999999001001MD1210181+9999MW1361REMSYN060AAXX  16001 28791 41980 02706 11087 21106 40190 52018 73631;
0112287910999992000021612004+54620+072580FM-12+010999999V0202701N003019999999N0500001N1-00891-01131102681ADDGF106991001001999999001011MD1210121+9999REMSYN060AAXX  16121 28791 42999 62703 11089 21113 40268 52012 80001;
0186287910999992000021706004+54620+072580FM-12+010999999V0202401N007010042019N0500001N1-00761-01061102621ADDAA100000891AY171061AY231061GF105991051061004501001001KA1120N-01701MD1410001+9999MW1361REMSYN088AAXX  17061 28791 11499 52407 11076 21106 40262 54000 69980 73673 85600 333 21170 92980;
0140287910999992000021712004+54620+072580FM-12+010999999V0202301N004019999999N0500001N1-00931-01181102661ADDAY131061AY211061GF108991001001999999001041MD1210051+9999MW1031REMSYN066AAXX  17121 28791 41999 82304 11093 21118 40266 52005 70331 80004;
0152287910999992000021718004+54620+072580FM-12+010999999V0202101N002019999999N0450001N1-01021-01151102561ADDAA100000791GF108991081001999999021999KA1999M-00741MD1710101+9999REMSYN076AAXX  17181 28791 12983 82102 11102 21115 40256 57010 69900 8802/ 333 11074;
0140287910999992000021800004+54620+072580FM-12+010999999V0202201N003019999999N0070001N1-00771-00911102371ADDAY171061AY221061GF108991081001999999021999MD1710111+9999MW1711REMSYN066AAXX  18001 28791 41957 82203 11077 21091 40237 57011 77172 8802/;
0180287910999992000021806004+54620+072580FM-12+010999999V0202501N003019999999N0040001N1-00581-00731102371ADDAA100000591AY171061AY211061GF108991081001999999021999KA1999N-01451MD1410001+9999MW1711REMSYN082AAXX  18061 28791 11996 82503 11058 21073 40237 54000 69960 77171 8802/ 333 21145;
0122287910999992000021812004+54620+072580FM-12+010999999V0202801N002012200019N0500001N1-00691-00941102451ADDGA1001+999999999GF100991001001999999001001MD1210051+9999REMSYN054AAXX  18121 28791 42999 02802 11069 21094 40245 52005;
0154287910999992000021818004+54620+072580FM-12+010999999V0203001N002012200019N0060001N1-01261-01321102791ADDAA100000191GA1001+999999999GF100991001001999999001001MD1210051+9999REMSYN075AAXX  18181 28791 11956 03002 11126 21132 40279 52005 69920 7100 333 11047;
0140287910999992000021900004+54620+072580FM-12+010999999V0203001N002019999999N0070001N1-01221-01281102931ADDAY171061AY211061GF108991081001999999021999MD1210031+9999MW1711REMSYN066AAXX  19001 28791 41957 83002 11122 21128 40293 52003 77171 8802/;
0190287910999992000021906004+54620+072580FM-12+010999999V0202901N002012200019N0500001N1-01121-01181103121ADDAA100000391AY171061AY211061GA1001+999999999GF100991001001999999001001KA1999N-01271MD1210081+9999MW1011REMSYN076AAXX  19061 28791 11999 02902 11112 21118 40312 52008 69930 70171 333 21127;
0122287910999992000021912004+54620+072580FM-12+010999999V0203001N001012200019N0500001N1-01201-01471103291ADDGA1001+999999999GF100991001001999999001001MD1210111+9999REMSYN054AAXX  19121 28791 42999 03001 11120 21147 40329 52011;
0203287910999992000021918004+54620+072580FM-12+010999999V0203001N002012200019N0060001N1-01621-01681103561ADDAA199000091AY101061AY201061GA1001+999999999GF100991001001999999001001KA1999M-00951MD1210101+9999MW1101REMSYN070AAXX  19181 28791 31956 03002 11162 21168 40356 52010 71000 333 11095;EQDQ01  00002PRCP99
0128287910999992000022000004+54620+072580FM-12+010999999V0202901N002012200019N0070001N1-01941-02001103691ADDGA1001+999999999GF100991001001999999001001MD1210051+9999REMSYN060AAXX  20001 28791 41957 02902 11194 21200 40369 52005 87100;
0193287910999992000022006004+54620+072580FM-12+010999999V0202201N003019999999N0040001N1-01911-02101103791ADDAA199000091AY111061AY211061GF108991001001999999001041KA1999N-02521MD1210021+9999MW1101REMSYN076AAXX  20061 28791 31996 82203 11191 21210 40379 52002 71011 80004 333 21252;EQDQ01  00002PRCP99
0112287910999992000022012004+54620+072580FM-12+010999999V0202001N003019999999N0500001N1-01431-01631103681ADDGF108991081001999999041999MD1710041+9999REMSYN060AAXX  20121 28791 42999 82003 11143 21163 40368 57004 8804/;
0199287910999992000022018004+54620+072580FM-12+010999999V0202101N003019999999N0400001N1-01161-01291103511ADDAA100000791AY171061AY221061GF108991081001999999051999KA1999M+99999MD1710161+9999MW1021REMSYN082AAXX  20181 28791 11982 82103 11116 21129 40351 57016 69900 70272 8805/ 333 11141;EQDQ01 -01412ATMX  
0112287910999992000022100004+54620+072580FM-12+010999999V0202301N005019999999N0350001N1-01201-01471103381ADDGF108991081001999999011999MD1710051+9999REMSYN060AAXX  21001 28791 42981 82305 11120 21147 40338 57005 8801/;
0152287910999992000022106004+54620+072580FM-12+010999999V0202401N006019999999N0500001N1-01261-01531103411ADDAA100000791GF107991071001999999051001KA1999N-01541MD1710071+9999REMSYN076AAXX  21061 28791 12999 72406 11126 21153 40341 57007 69900 87050 333 21154;
0112287910999992000022112004+54620+072580FM-12+010999999V0202601N004019999999N0500001N1-00901-01241103431ADDGF108991001001999999001051MD1210081+9999REMSYN060AAXX  21121 28791 42999 82604 11090 21124 40343 52008 80005;
0165287910999992000022118004+54620+072580FM-12+010999999V0202701N004019999999N0350001N1-00821-01191103561ADDAA199000091GF108991081001999999041999KA1999M-00841MD1210011+9999REMSYN070AAXX  21181 28791 32981 82704 11082 21119 40356 52001 8804/ 333 11084;EQDQ01  00002PRCP99
0112287910999992000022200004+54620+072580FM-12+010999999V0202501N006012200019N0300001N1-01141-01421103701ADDGF102991021001999999031001MD1210011+9999REMSYN060AAXX  22001 28791 42980 22506 11114 21142 40370 52001 82030;
0175287910999992000022206004+54620+072580FM-12+010999999V0202401N005012200019N0500001N1-01181-01701103821ADDAA199000091GA1001+999999999GF100991001001999999001001KA1999N-01461MD1210021+9999REMSYN064AAXX  22061 28791 32999 02405 11118 21170 40382 52002 333 21146;EQDQ01  00002PRCP99
0112287910999992000022212004+54620+072580FM-12+010999999V0202301N005012200019N0500001N1-00931-01491103831ADDGF103991001001999999001091MD1710011+9999REMSYN060AAXX  22121 28791 42999 32305 11093 21149 40383 57001 80009;
0175287910999992000022218004+54620+072580FM-12+010999999V0202301N003012200019N0350001N1-01161-01511103811ADDAA199000091GA1001+999999999GF100991001001999999001001KA1999M-00891MD1710011+9999REMSYN064AAXX  22181 28791 32981 02303 11116 21151 40381 57001 333 11089;EQDQ01  00002PRCP99
0122287910999992000022300004+54620+072580FM-12+010999999V0202301N005012200019N0300001N1-01481-01821103751ADDGA1001+999999999GF100991001001999999001001MD1710051+9999REMSYN054AAXX  23001 28791 42980 02305 11148 21182 40375 57005;
0165287910999992000022306004+54620+072580FM-12+010999999V0202201N003019999999N0500001N1-01141-01761103771ADDAA199000091GF107991001001999999001011KA1999N-01961MD1210021+9999REMSYN070AAXX  23061 28791 32999 72203 11114 21176 40377 52002 80001 333 21196;EQDQ01  00002PRCP99
0112287910999992000022312004+54620+072580FM-12+010999999V0202201N003019999999N0500001N1-01261-01881103711ADDGF105991001001999999001011MD1710011+9999REMSYN060AAXX  23121 28791 42999 52203 11126 21188 40371 57001 80001;
0175287910999992000022318004+54620+072580FM-12+010999999V0202101N002012200019N0350001N1-01851-02041103631ADDAA199000091GA1001+999999999GF100991001001999999001001KA1999M-00881MD1710061+9999REMSYN064AAXX  23181 28791 32981 02102 11185 21204 40363 57006 333 11088;EQDQ01  00002PRCP99
0122287910999992000022400004+54620+072580FM-12+010999999V0201801N001012200019N0450001N1-02311-02551103571ADDGA1001+999999999GF100991001001999999001001MD1710031+9999REMSYN054AAXX  24001 28791 42983 01801 11231 21255 40357 57003;
0175287910999992000022406004+54620+072580FM-12+010999999V0202201N003012200019N0500001N1-01281-01891103341ADDAA199000091GA1001+999999999GF100991001001999999001001KA1999N-02381MD1710121+9999REMSYN064AAXX  24061 28791 32999 02203 11128 21189 40334 57012 333 21238;EQDQ01  00002PRCP99
0122287910999992000022412004+54620+072580FM-12+010999999V0201501N005012200019N0500001N1-00861-01291103081ADDGA1001+999999999GF100991001001999999001001MD1710101+9999REMSYN054AAXX  24121 28791 42999 01505 11086 21129 40308 57010;
0175287910999992000022418004+54620+072580FM-12+010999999V0201901N003012200019N0400001N1-01541-01811102881ADDAA199000091GA1001+999999999GF100991001001999999001001KA1999M-00791MD1710131+9999REMSYN064AAXX  24181 28791 32982 01903 11154 21181 40288 57013 333 11079;EQDQ01  00002PRCP99
0122287910999992000022500004+54620+072580FM-12+010999999V0201901N002012200019N0400001N1-01751-02011102491ADDGA1001+999999999GF100991001001999999001001MD1710271+9999REMSYN054AAXX  25001 28791 42982 01902 11175 21201 40249 57027;
0165287910999992000022506004+54620+072580FM-12+010999999V0201901N004019999999N0500001N1-01151-01501102181ADDAA199000091GF108991001001999999001091KA1999N-01861MD1710141+9999REMSYN070AAXX  25061 28791 32999 81904 11115 21150 40218 57014 80009 333 21186;EQDQ01  00002PRCP99
0112287910999992000022512004+54620+072580FM-12+010999999V0202001N004019999999N0500001N1-00671-01001101891ADDGF108991081001999999021999MD1710111+9999REMSYN060AAXX  25121 28791 42999 82004 11067 21100 40189 57011 8802/;
0174287910999992000022518004+54620+072580FM-12+010999999V0202501N004019999999N0060001N1-00521-00661101621ADDAA199000021AY171061AY221061GF108991081001999999021999KA1999M-00541MD1710161+9999MW1711REMSYN076AAXX  25181 28791 31956 82504 11052 21066 40162 57016 77172 8802/ 333 11054;
0140287910999992000022600004+54620+072580FM-12+010999999V0202201N002019999999N0400001N1-01411-01541101571ADDAY171061AY221061GF105991001001999999001091MD1710051+9999MW1021REMSYN066AAXX  26001 28791 41982 52202 11141 21154 40157 57005 70272 80009;
0152287910999992000022606004+54620+072580FM-12+010999999V0202401N006019999999N0500001N1-00941-01291101351ADDAA100001091GF108991081001999999071999KA1999N-01831MD1710121+9999REMSYN076AAXX  26061 28791 12999 82406 11094 21129 40135 57012 69990 8807/ 333 21183;
0112287910999992000022612004+54620+072580FM-12+010999999V0202401N004012200019N0500001N1-00861-01291101321ADDGF102991001001999999001011MD1710011+9999REMSYN060AAXX  26121 28791 42999 22404 11086 21129 40132 57001 80001;
0175287910999992000022618004+54620+072580FM-12+010999999V0202401N002012200019N0300001N1-01651-01841101441ADDAA199000091GA1001+999999999GF100991001001999999001001KA1999M-00751MD1210021+9999REMSYN064AAXX  26181 28791 32980 02402 11165 21184 40144 52002 333 11075;EQDQ01  00002PRCP99
0112287910999992000022700004+54620+072580FM-12+010999999V0202001N002019999999N0450001N1-01941-02131101451ADDGF108991001001999999001051MD1710051+9999REMSYN060AAXX  27001 28791 42983 82002 11194 21213 40145 57005 80005;
0165287910999992000022706004+54620+072580FM-12+010999999V0202001N001019999999N0500001N1-01201-01471101241ADDAA199000091GF108991081001999999071999KA1999N-02111MD1710031+9999REMSYN070AAXX  27061 28791 32999 82001 11120 21147 40124 57003 8807/ 333 21211;EQDQ01  00002PRCP99
0140287910999992000022712004+54620+072580FM-12+010999999V0203401N002019999999N0040001N1-00971-01141101081ADDAY171061AY221061GF108991081001999999021999MD1410001+9999MW1711REMSYN066AAXX  27121 28791 41996 83402 11097 21114 40108 54000 77172 8802/;
0190287910999992000022718004+54620+072580FM-12+010999999V0202701N002012200019N0400001N1-01441-01571101431ADDAA100002091AY171061AY211061GA1001+999999999GF100991001001999999001001KA1999M-00951MD1210201+9999MW1011REMSYN076AAXX  27181 28791 11982 02702 11144 21157 40143 52020 60020 70171 333 11095;
0122287910999992000022800004+54620+072580FM-12+010999999V0202201N003012200019N0400001N1-02311-02491102011ADDGA1001+999999999GF100991001001999999001001MD1210231+9999REMSYN054AAXX  28001 28791 42982 02203 11231 21249 40201 52023;
0180287910999992000022806004+54620+072580FM-12+010999999V0201601N005019999999N0040001N1-01491-01691101881ADDAA100000791AY171061AY221061GF108991081001999999011999KA1999N-02611MD1710161+9999MW1711REMSYN082AAXX  28061 28791 11996 81605 11149 21169 40188 57016 69900 77172 8801/ 333 21261;
0166287910999992000022812004+54620+072580FM-12+010999999V0202101N004010066019N0040001N1-00781-01051101661ADDAY181061AY271061GA1061+006609099GF106991061091008001001001MD1710031+9999MW1261REMSYN076AAXX  28121 28791 41596 62104 11078 21105 40166 57003 72687 86900 333 86922;
0190287910999992000022818004+54620+072580FM-12+010999999V0202401N004012200019N0400001N1-01681-02021101731ADDAA100000391AY181061AY271061GA1001+999999999GF100991001001999999001001KA1999M-00761MD1210041+9999MW1021REMSYN076AAXX  28181 28791 11982 02404 11168 21202 40173 52004 69930 70287 333 11076;
0122287910999992000022900004+54620+072580FM-12+010999999V0202301N002012200019N0400001N1-02581-02761101761ADDGA1001+999999999GF100991001001999999001001MD1710021+9999REMSYN054AAXX  29001 28791 42982 02302 11258 21276 40176 57002;
0175287910999992000022906004+54620+072580FM-12+010999999V0202401N005012200019N0500001N1-01981-02241101761ADDAA199000091GA1001+999999999GF100991001001999999001001KA1999N-02741MD1710091+9999REMSYN064AAXX  29061 28791 32999 02405 11198 21224 40176 57009 333 21274;EQDQ01  00002PRCP99
0166287910999992000032912004+54620+072580FM-12+010999999V0202201N005010063019N0200001N1-00151-00321102271ADDAY181061AY231061GA1081+006309099GF108991081091008001999999MD1710251+9999MW1261REMSYN076AAXX  29121 28791 41598 82205 11015 21032 40227 57025 72683 889// 333 88921;
0190287910999992000032918004+54620+072580FM-12+010999999V0202201N002012200019N0060001N1-00721-00771102061ADDAA100000791AY111061AY211061GA1001+999999999GF100991001001999999001001KA1999M+00101MD1710091+9999MW1101REMSYN076AAXX  29181 28791 11956 02202 11072 21077 40206 57009 69900 71011 333 10010;
0150287910999992000033000004+54620+072580FM-12+010999999V0202301N002012200019N0070001N1-00981-01061101991ADDAY101061AY201061GA1001+999999999GF100991001001999999001001MD1710051+9999MW1101REMSYN060AAXX  30001 28791 41957 02302 11098 21106 40199 57005 71000;
0175287910999992000033006004+54620+072580FM-12+010999999V0202401N007012200019N0500001N1-00261-00561101941ADDAA199000091GA1001+999999999GF100991001001999999001001KA1999N-01171MD1210011+9999REMSYN064AAXX  30061 28791 32999 02407 11026 21056 40194 52001 333 21117;EQDQ01  00002PRCP99
0122287910999992000033012004+54620+072580FM-12+010999999V0202601N004012200019N0500001N1+00051-00651101781ADDGA1001+999999999GF100991001001999999001001MD1710121+9999REMSYN054AAXX  30121 28791 42999 02604 10005 21065 40178 57012;
0175287910999992000033018004+54620+072580FM-12+010999999V0202401N004012200019N0400001N1-00321-00601101731ADDAA199000091GA1001+999999999GF100991001001999999001001KA1999M+00111MD1710031+9999REMSYN064AAXX  30181 28791 32982 02404 11032 21060 40173 57003 333 10011;EQDQ01  00002PRCP99
0112287910999992000033100004+54620+072580FM-12+010999999V0202101N004012200019N0300001N1-00701-00911101591ADDGF102991001001999999001011MD1710041+9999REMSYN060AAXX  31001 28791 42980 22104 11070 21091 40159 57004 80001;
0165287910999992000033106004+54620+072580FM-12+010999999V0202401N006019999999N0500001N1-00141-00701101451ADDAA199000091GF106991061001999999031001KA1999N-00781MD1710071+9999REMSYN070AAXX  31061 28791 32999 62406 11014 21070 40145 57007 86030 333 21078;EQDQ01  00002PRCP99
0112287910999992000033112004+54620+072580FM-12+010999999V0202101N004019999999N0500001N1+00161-00581101231ADDGF108991001001999999001011MD1710101+9999REMSYN060AAXX  31121 28791 42999 82104 10016 21058 40123 57010 80001;
0165287910999992000033118004+54620+072580FM-12+010999999V0202401N005019999999N0500001N1-00151-00491101101ADDAA199000091GF108991001001999999001041KA1999M+00211MD1710011+9999REMSYN070AAXX  31181 28791 32984 82405 11015 21049 40110 57001 80004 333 10021;EQDQ01  00002PRCP99
0092287910999992000040100004+54620+072580FM-12+010999999V0202301N007019999999N0500001N1-00171-00441100911ADDGF108991081001999999021999REMSYN054AAXX  01001 28791 42984 82307 11017 21044 40091 8802/;
0210287910999992000040106004+54620+072580FM-12+010999999V0202601N008010072019N0500001N1+00141-00241101031ADDAA199000091GA1071+007209069GF107991071051008001001001KA1120N-00281MD1210141+9999OA140101201REMSYN088AAXX  01061 28791 32599 72608 10014 21024 40103 52014 87500 333 21028 87624 91012 91113;EQDQ01  00002PRCP99
0132287910999992000040112004+54620+072580FM-12+010999999V0202701N006012200019N0500001N1+00431-00081101501ADDGA1001+999999999GF100991001001999999001001MD1210321+9999REMSYN064AAXX  01121 28791 42999 02706 10043 21008 40150 52032 333 91112;
0175287910999992000040118004+54620+072580FM-12+010999999V0202901N003012200019N0400001N1+00101-00131102091ADDAA199000091GA1001+999999999GF100991001001999999001001KA1999M+00461MD1210291+9999REMSYN064AAXX  01181 28791 32982 02903 10010 21013 40209 52029 333 10046;EQDQ01  00002PRCP99
0122287910999992000040200004+54620+072580FM-12+010999999V0203001N001012200019N0500001N1-00361-00581102741ADDGA1001+999999999GF100991001001999999001001MD1210281+9999REMSYN054AAXX  02001 28791 42984 03001 11036 21058 40274 52028;
0175287910999992000040206004+54620+072580FM-12+010999999V0201301N003012200019N0500001N1+00071-00841103171ADDAA199000091GA1001+999999999GF100991001001999999001001KA1999N-00401MD1210191+9999REMSYN064AAXX  02061 28791 32999 01303 10007 21084 40317 52019 333 21040;EQDQ01  00002PRCP99
0122287910999992000040212004+54620+072580FM-12+010999999V0201301N003012200019N0500001N1+00221-00311103051ADDGA1001+999999999GF100991001001999999001001MD1710051+9999REMSYN054AAXX  02121 28791 42999 01303 10022 21031 40305 57005;
0203287910999992000040218004+54620+072580FM-12+010999999V0201201N003012200019N0200001N1-00241-00361102791ADDAA199000091AY101061AY201061GA1001+999999999GF100991001001999999001001KA1999M+00241MD1710101+9999MW1101REMSYN070AAXX  02181 28791 31998 01203 11024 21036 40279 57010 71000 333 10024;EQDQ01  00002PRCP99
0150287910999992000040300004+54620+072580FM-12+010999999V0201601N002012200019N0060001N1-00351-00401102411ADDAY101061AY201061GA1001+999999999GF100991001001999999001001MD1710181+9999MW1101REMSYN060AAXX  03001 28791 41956 01602 11035 21040 40241 57018 71000;
0165287910999992000040306004+54620+072580FM-12+010999999V0202101N004012200019N0500001N1+00411+00041102091ADDAA199000091GF102991021001999999031001KA1999N-00401MD1710141+9999REMSYN070AAXX  03061 28791 32999 22104 10041 20004 40209 57014 82030 333 21040;EQDQ01  00002PRCP99
0112287910999992000040312004+54620+072580FM-12+010999999V0201901N002019999999N0500001N1+00641+00221101861ADDGF107991071001999999031001MD1710091+9999REMSYN060AAXX  03121 28791 42999 71902 10064 20022 40186 57009 87030;
0175287910999992000040318004+54620+072580FM-12+010999999V0202801N003012200019N0450001N1+00161-00061102251ADDAA199000091GA1001+999999999GF100991001001999999001001KA1999M+00721MD1210201+9999REMSYN064AAXX  03181 28791 32983 02803 10016 21006 40225 52020 333 10072;EQDQ01  00002PRCP99
0150287910999992000040400004+54620+072580FM-12+010999999V0202901N003012200019N0080001N1-00061-00181102601ADDAY101061AY201061GA1001+999999999GF100991001001999999001001MD1210181+9999MW1101REMSYN060AAXX  04001 28791 41958 02903 11006 21018 40260 52018 71000;
0165287910999992000040406004+54620+072580FM-12+010999999V0202901N002019999999N0500001N1+00411+00041103071ADDAA199000091GF107991071001999999031001KA1999N-00091MD1210201+9999REMSYN070AAXX  04061 28791 32999 72902 10041 20004 40307 52020 87030 333 21009;EQDQ01  00002PRCP99
0122287910999992000040412004+54620+072580FM-12+010999999V0202901N002012200019N0500001N1+00741-00171103241ADDGA1001+999999999GF100991001001999999001001MD1210061+9999REMSYN054AAXX  04121 28791 42999 02902 10074 21017 40324 52006;
0203287910999992000040418004+54620+072580FM-12+010999999V0202301N001012200019N0080001N1-00141-00231103391ADDAA199000091AY101061AY201061GA1001+999999999GF100991001001999999001001KA1999M+00791MD1210011+9999MW1101REMSYN070AAXX  04181 28791 31958 02301 11014 21023 40339 52001 71000 333 10079;EQDQ01  00002PRCP99
0138287910999992000040500004+54620+072580FM-12+010999999V0202501N002010075019N0300001N1+00081-00091103301ADDGA1081+007509059GF108991081051008001999999MD1710011+9999REMSYN070AAXX  05001 28791 42580 82502 10008 21009 40330 57001 885// 333 88625;
0175287910999992000040506004+54620+072580FM-12+010999999V0201701N005012200019N0500001N1+00651+00181102921ADDAA199000091GA1001+999999999GF100991001001999999001001KA1999N-00161MD1710061+9999REMSYN064AAXX  05061 28791 32999 01705 10065 20018 40292 57006 333 21016;EQDQ01  00002PRCP99
0147287910999992000040518004+54620+072580FM-12+010999999V0202101N002012200019N0400001N1+00391+00111999999ADDAA199000091GA1001+999999999GF100991001001999999001001REMSYN063AAXX  05181 28791 32982 02102 10039 20011 4008 57016 333 10110;EQDQ01  00002PRCP99
0140287910999992000040600004+54620+072580FM-12+010999999V0209999C000019999999N0070001N1-00141-00201101901ADDAY111061AY211061GF108991081001999999071999MD1710051+9999MW1101REMSYN066AAXX  06001 28791 41957 80000 11014 21020 40190 57005 71011 8807/;
0165287910999992000040606004+54620+072580FM-12+010999999V0201901N001019999999N0500001N1+00661+00051101891ADDAA199000091GF108991001001999999001051KA1999N-00211MD1210071+9999REMSYN070AAXX  06061 28791 32999 81901 10066 20005 40189 52007 80005 333 21021;EQDQ01  00002PRCP99
0112287910999992000040612004+54620+072580FM-12+010999999V0201101N004012200019N0500001N1+01021+00411102041ADDGF103991031001999999041001MD1210121+9999REMSYN060AAXX  06121 28791 42999 31104 10102 20041 40204 52012 83040;
0175287910999992000040618004+54620+072580FM-12+010999999V0200801N004012200019N0450001N1+00081-00251102581ADDAA199000091GA1001+999999999GF100991001001999999001001KA1999M+01061MD1210281+9999REMSYN064AAXX  06181 28791 32983 00804 10008 21025 40258 52028 333 10106;EQDQ01  00002PRCP99
0122287910999992000040700004+54620+072580FM-12+010999999V0200701N005012200019N0400001N1-00351-00671103051ADDGA1001+999999999GF100991001001999999001001MD1210171+9999REMSYN054AAXX  07001 28791 42982 00705 11035 21067 40305 52017;
0175287910999992000040706004+54620+072580FM-12+010999999V0200801N006012200019N0500001N1+00031-00561103391ADDAA199000091GA1001+999999999GF100991001001999999001001KA1999N-00391MD1210131+9999REMSYN064AAXX  07061 28791 32999 00806 10003 21056 40339 52013 333 21039;EQDQ01  00002PRCP99
0122287910999992000040712004+54620+072580FM-12+010999999V0201101N006012200019N0500001N1+00321-00631103311ADDGA1001+999999999GF100991001001999999001001MD1710031+9999REMSYN054AAXX  07121 28791 42999 01106 10032 21063 40331 57003;
0175287910999992000040718004+54620+072580FM-12+010999999V0201201N005012200019N0450001N1-00231-00481103291ADDAA199000091GA1001+999999999GF100991001001999999001001KA1999M+00421MD1710041+9999REMSYN064AAXX  07181 28791 32983 01205 11023 21048 40329 57004 333 10042;EQDQ01  00002PRCP99
0150287910999992000040800004+54620+072580FM-12+010999999V0201201N003012200019N0090001N1-00551-00591103161ADDAY111061AY211061GA1001+999999999GF100991001001999999001001MD1710071+9999MW1101REMSYN060AAXX  08001 28791 41959 01203 11055 21059 40316 57007 71011;
0175287910999992000040806004+54620+072580FM-12+010999999V0201301N007012200019N0500001N1+00461-00421102901ADDAA199000091GA1001+999999999GF100991001001999999001001KA1999N-00601MD1710141+9999REMSYN064AAXX  08061 28791 32999 01307 10046 21042 40290 57014 333 21060;EQDQ01  00002PRCP99
0139287910999992000040812004+54620+072580FM-12+010999999V0201401N008019999999N0500001N1+00981-00191102381ADDGF105991001001999999001041MD1710181+9999OA140101201REMSYN076AAXX  08121 28791 42999 51408 10098 21019 40238 57018 80004 333 91012 91113;
0171287910999992000040818004+54620+072580FM-12+010999999V0201501N004019999999N0400001N1+00521-00341101941ADDAA199000091GF108991081001999999021999KA1120M+01021MD1710171+9999REMSYN076AAXX  08181 28791 32982 81504 10052 21034 40194 57017 8802/ 333 10102 91112;EQDQ01  00002PRCP99
0175287910999992000040900004+54620+072580FM-12+010999999V0201601N005019999999N0400001N1+00441+00291101002ADDAY161061AY221061GF108991081001999999071999MD1710682+9999MW1021REMSYN066AAXX  09001 28791 41982 81605 10044 20029 40100 57068 70262 8807/;EQDQ01+101003APOSLPQ02+000682APC3  
0174287910999992000040906004+54620+072580FM-12+010999999V0202501N006010066019N0500001N1+00791+00381101711ADDAA100002091GA1071+006609099GF107991071091008001001001KA1120N+00401MD1710101+9999REMSYN082AAXX  09061 28791 12599 72506 10079 20038 40171 57010 60020 87900 333 20040 87922;
0185287910999992000040912004+54620+072580FM-12+010999999V0202701N004010039019N0040001N1+00561+00491100762ADDAY181061AY221061GA1081+003909069GF108991081071004501999999MD1210071+9999MW1801REMSYN076AAXX  09121 28791 41496 82704 10056 20049 40076 52007 78082 887// 333 88713;EQDQ01+100763APOSLP
0180287910999992000040918004+54620+072580FM-12+010999999V0202801N005019999999N0400001N1+00191+00001101461ADDAA100002091AY181061AY221061GF107991071001999999051999KA1999M+00841MD1210391+9999MW1021REMSYN082AAXX  09181 28791 11982 72805 10019 21000 40146 52039 60020 70282 8705/ 333 10084;
0138287910999992000041000004+54620+072580FM-12+010999999V0202101N005010063019N0350001N1+00031-00241102141ADDGA1081+006309099GF108991081091008001999999MD1210351+9999REMSYN070AAXX  10001 28791 42581 82105 10003 21024 40214 52035 889// 333 88921;
0175287910999992000041006004+54620+072580FM-12+010999999V0200401N005012200019N0500001N1+00091-00881102841ADDAA199000091GA1001+999999999GF100991001001999999001001KA1999N-00161MD1210291+9999REMSYN064AAXX  10061 28791 32999 00405 10009 21088 40284 52029 333 21016;EQDQ01  00002PRCP99
0122287910999992000041012004+54620+072580FM-12+010999999V0200401N004012200019N0500001N1+00521-00851103041ADDGA1001+999999999GF100991001001999999001001MD1210061+9999REMSYN054AAXX  10121 28791 42999 00404 10052 21085 40304 52006;
0175287910999992000041018004+54620+072580FM-12+010999999V0202901N001012200019N0450001N1-00221-00691103201ADDAA199000091GA1001+999999999GF100991001001999999001001KA1999M+00551MD1210051+9999REMSYN064AAXX  10181 28791 32983 02901 11022 21069 40320 52005 333 10055;EQDQ01  00002PRCP99
0150287910999992000041100004+54620+072580FM-12+010999999V0202101N002012200019N0040001N1-00551-00621103371ADDAY101061AY201061GA1001+999999999GF100991001001999999001001MD1210131+9999MW1101REMSYN060AAXX  11001 28791 41996 02102 11055 21062 40337 52013 71000;
0175287910999992000041106004+54620+072580FM-12+010999999V0201701N004012200019N0500001N1+00621-00621103371ADDAA199000091GA1001+999999999GF100991001001999999001001KA1999N-00591MD1710071+9999REMSYN064AAXX  11061 28791 32999 01704 10062 21062 40337 57007 333 21059;EQDQ01  00002PRCP99
0112287910999992000041112004+54620+072580FM-12+010999999V0201701N005012200019N0500001N1+01001-00571103161ADDGF103991001001999999001011MD1710071+9999REMSYN060AAXX  11121 28791 42999 31705 10100 21057 40316 57007 80001;
0165287910999992000041118004+54620+072580FM-12+010999999V0201601N003012200019N0400001N1-00071-00601103001ADDAA199000091GF102991001001999999001011KA1999M+01051MD1710041+9999REMSYN070AAXX  11181 28791 32982 21603 11007 21060 40300 57004 80001 333 10105;EQDQ01  00002PRCP99
0112287910999992000041200004+54620+072580FM-12+010999999V0201401N004019999999N0200001N1-00021-00521102701ADDGF108991001001999999001051MD1710201+9999REMSYN060AAXX  12001 28791 42998 81404 11002 21052 40270 57020 80005;
0188287910999992000041206004+54620+072580FM-12+010999999V0201301N010019999999N0500001N1+00721-00301102261ADDAA199000091GF108991001001999999001091KA1120N-00211MD1710091+9999OA140101401REMSYN082AAXX  12061 28791 32999 81310 10072 21030 40226 57009 80009 333 21021 91014 91114;EQDQ01  00002PRCP99
0122287910999992000041212004+54620+072580FM-12+010999999V0201301N005019999999N0500001N1+00911-00191101841ADDGF108991081001999999071999MD1710121+9999REMSYN070AAXX  12121 28791 42999 81305 10091 21019 40184 57012 8807/ 333 91114;
0175287910999992000041218004+54620+072580FM-12+010999999V0201301N004012200019N0400001N1+00601-00091101341ADDAA199000091GA1001+999999999GF100991001001999999001001KA1999M+01021MD1710291+9999REMSYN064AAXX  12181 28791 32982 01304 10060 21009 40134 57029 333 10102;EQDQ01  00002PRCP99
0112287910999992000041300004+54620+072580FM-12+010999999V0201101N001019999999N0200001N1+00061-00111101051ADDGF108991001001999999001091MD1710151+9999REMSYN060AAXX  13001 28791 42998 81101 10006 21011 40105 57015 80009;
0165287910999992000041306004+54620+072580FM-12+010999999V0201601N002019999999N0500001N1+01521+00251100911ADDAA199000091GF107991001001999999001041KA1999N-00071MD1710071+9999REMSYN070AAXX  13061 28791 32999 71602 10152 20025 40091 57007 80004 333 21007;EQDQ01  00002PRCP99
0138287910999992000041312004+54620+072580FM-12+010999999V0201601N004010066019N0500001N1+01961+00321100631ADDGA1061+006609099GF108991061091008001001011MD1710121+9999REMSYN070AAXX  13121 28791 42599 81604 10196 20032 40063 57012 86901 333 86922;
0165287910999992000041318004+54620+072580FM-12+010999999V0202001N002012200019N0500001N1+00741+00341100651ADDAA199000091GF102991021001999999031001KA1999M+02111MD1710011+9999REMSYN070AAXX  13181 28791 32984 22002 10074 20034 40065 57001 82030 333 10211;EQDQ01  00002PRCP99
0112287910999992000041400004+54620+072580FM-12+010999999V0202301N003019999999N0200001N1+00601+00151100711ADDGF108991081001999999051999MD1210101+9999REMSYN060AAXX  14001 28791 42998 82303 10060 20015 40071 52010 8805/;
0193287910999992000041406004+54620+072580FM-12+010999999V0202001N005019999999N0500001N1+01371+00641100631ADDAA199000091AY161061AY221061GF108991081001999999071999KA1999N+00331MD1210031+9999MW1021REMSYN076AAXX  14061 28791 31999 82005 10137 20064 40063 52003 70262 8807/ 333 20033;EQDQ01  00002PRCP99
0180287910999992000041418004+54620+072580FM-12+010999999V0202201N003019999999N0400001N1+00611+00561100671ADDAA100005191AY161061AY221061GF108991081001999999071999KA1999M+01371MD1410001+9999MW1021REMSYN082AAXX  14181 28791 11982 82203 10061 20056 40067 54000 60050 70262 8807/ 333 10137;
0138287910999992000041500004+54620+072580FM-12+010999999V0202501N005010033019N0200001N1+00691+00651100751ADDGA1081+003309029GF108991081001999999021999MD1210051+9999REMSYN070AAXX  15001 28791 42998 82505 10069 20065 40075 52005 8802/ 333 88511;
0187287910999992000041506004+54620+072580FM-12+010999999V0202401N005010066019N0500001N1+00581+00291101011ADDAA199000091GA1081+006609059GF108991081051008001999999KA1120N+00491MD1210081+9999REMSYN076AAXX  15061 28791 32599 82405 10058 20029 40101 52008 885// 333 20049 88622;EQDQ01  00002PRCP99
0140287910999992000041512004+54620+072580FM-12+010999999V0202701N005010300019N0040001N1+00531+00441101101ADDAY161061AY221061GF108991031071008001021999MD1210051+9999MW1611REMSYN066AAXX  15121 28791 41596 82705 10053 20044 40110 52005 76162 8372/;
0180287910999992000041518004+54620+072580FM-12+010999999V0203101N003010300019N0060001N1+00561+00541101341ADDAA100002091AY161061AY221061GF108991031071004501021999KA1999M+00651MD1210171+9999MW1611REMSYN082AAXX  15181 28791 11456 83103 10056 20054 40134 52017 60020 76162 8372/ 333 10065;
0140287910999992000041600004+54620+072580FM-12+010999999V0203201N003019999999N0200001N1+00511+00441101741ADDAY161061AY221061GF108991081001999999041999MD1210261+9999MW1021REMSYN066AAXX  16001 28791 41998 83203 10051 20044 40174 52026 70262 8804/;
0162287910999992000041606004+54620+072580FM-12+010999999V0203101N003012200019N0500001N1+01101+00651102071ADDAA100003091GA1001+999999999GF100991001001999999001001KA1999N+00481MD1210111+9999REMSYN070AAXX  16061 28791 12999 03103 10110 20065 40207 52011 60030 333 20048;
0112287910999992000041612004+54620+072580FM-12+010999999V0203101N004012200019N0500001N1+01631+00231102091ADDGF101991001001999999001011MD1210051+9999REMSYN060AAXX  16121 28791 42999 13104 10163 20023 40209 52005 80001;
0175287910999992000041618004+54620+072580FM-12+010999999V0202701N001012200019N0400001N1+00491+00191102271ADDAA199000091GA1001+999999999GF100991001001999999001001KA1999M+01631MD1210011+9999REMSYN064AAXX  16181 28791 32982 02701 10049 20019 40227 52001 333 10163;EQDQ01  00002PRCP99
0165287910999992000041706004+54620+072580FM-12+010999999V0202901N007019999999N0500001N1+01721+00021102261ADDAA199000091GF108991001001999999001041KA1999N+00071MD1710031+9999REMSYN070AAXX  17061 28791 32999 82907 10172 20002 40226 57003 80004 333 20007;EQDQ01  00002PRCP99
0132287910999992000041712004+54620+072580FM-12+010999999V0202901N005012200019N0500001N1+02021-00251102071ADDGA1001+999999999GF100991001001999999001001MD1710061+9999REMSYN064AAXX  17121 28791 42999 02905 10202 21025 40207 57006 333 91112;
0175287910999992000041718004+54620+072580FM-12+010999999V0202601N001012200019N0350001N1+01001+00171102281ADDAA199000091GA1001+999999999GF100991001001999999001001KA1999M+02061MD1210061+9999REMSYN064AAXX  17181 28791 32981 02601 10100 20017 40228 52006 333 10206;EQDQ01  00002PRCP99
0112287910999992000041800004+54620+072580FM-12+010999999V0202401N002019999999N0500001N1+00261+00021102351ADDGF108991001001999999001051MD1210031+9999REMSYN060AAXX  18001 28791 42999 82402 10026 20002 40235 52003 80005;
0165287910999992000041806004+54620+072580FM-12+010999999V0202301N003019999999N0500001N1+01671+00411102381ADDAA199000091GF106991061001999999081001KA1999N+00201MD1210061+9999REMSYN070AAXX  18061 28791 32999 62303 10167 20041 40238 52006 86080 333 20020;EQDQ01  00002PRCP99
0112287910999992000041812004+54620+072580FM-12+010999999V0200601N006019999999N0500001N1+01661+00251102651ADDGF108991001001999999001091MD1210031+9999REMSYN060AAXX  18121 28791 42999 80606 10166 20025 40265 52003 80009;
0165287910999992000041818004+54620+072580FM-12+010999999V0200601N004019999999N0350001N1+00621+00091103031ADDAA199000091GF108991001001999999001091KA1999M+01811MD1210151+9999REMSYN070AAXX  18181 28791 32981 80604 10062 20009 40303 52015 80009 333 10181;EQDQ01  00002PRCP99
0122287910999992000041900004+54620+072580FM-12+010999999V0201001N003012200019N0500001N1+00181-00071103201ADDGA1001+999999999GF100991001001999999001001MD1210071+9999REMSYN054AAXX  19001 28791 42999 01003 10018 21007 40320 52007;
0165287910999992000041906004+54620+072580FM-12+010999999V0200901N004019999999N0500001N1+01361-00071103211ADDAA199000091GF106991001001999999001041KA1999N+00091MD1710041+9999REMSYN070AAXX  19061 28791 32999 60904 10136 21007 40321 57004 80004 333 20009;EQDQ01  00002PRCP99
0112287910999992000041912004+54620+072580FM-12+010999999V0200701N002019999999N0500001N1+01731-00171102951ADDGF108991001001999999001011MD1710141+9999REMSYN060AAXX  19121 28791 42999 80702 10173 21017 40295 57014 80001;
0175287910999992000041918004+54620+072580FM-12+010999999V0201201N001012200019N0500001N1+00611-00021102901ADDAA199000091GA1001+999999999GF100991001001999999001001KA1999M+01751MD1710051+9999REMSYN064AAXX  19181 28791 32984 01201 10061 21002 40290 57005 333 10175;EQDQ01  00002PRCP99
0112287910999992000042000004+54620+072580FM-12+010999999V0201001N001012200019N0500001N1+00141-00241102841ADDGF102991001001999999001011MD1710021+9999REMSYN060AAXX  20001 28791 42999 21001 10014 21024 40284 57002 80001;
0175287910999992000042006004+54620+072580FM-12+010999999V0201301N003012200019N0500001N1+01761-00141102761ADDAA199000091GA1001+999999999GF100991001001999999001001KA1999N+00111MD1710071+9999REMSYN064AAXX  20061 28791 32999 01303 10176 21014 40276 57007 333 20011;EQDQ01  00002PRCP99
0122287910999992000042012004+54620+072580FM-12+010999999V0201301N003012200019N0500001N1+01971-00331102401ADDGA1001+999999999GF100991001001999999001001MD1710131+9999REMSYN054AAXX  20121 28791 42999 01303 10197 21033 40240 57013;
0175287910999992000042018004+54620+072580FM-12+010999999V0200901N002012200019N0400001N1+00671-00031102371ADDAA199000091GA1001+999999999GF100991001001999999001001KA1999M+02001MD1710051+9999REMSYN064AAXX  20181 28791 32982 00902 10067 21003 40237 57005 333 10200;EQDQ01  00002PRCP99
0165287910999992000042106004+54620+072580FM-12+010999999V0201601N003019999999N0500001N1+01831-00571102071ADDAA199000091GF108991001001999999001091KA1999N+00141MD1710061+9999REMSYN070AAXX  21061 28791 32999 81603 10183 21057 40207 57006 80009 333 20014;EQDQ01  00002PRCP99
0112287910999992000042112004+54620+072580FM-12+010999999V0202001N004019999999N0500001N1+01991-00741101641ADDGF105991001001999999001091MD1710241+9999REMSYN060AAXX  21121 28791 42999 52004 10199 21074 40164 57024 80009;
0165287910999992000042118004+54620+072580FM-12+010999999V0202301N002019999999N0400001N1+00691-00461101671ADDAA199000091GF105991001001999999001011KA1999M+02061MD1410001+9999REMSYN070AAXX  21181 28791 32982 52302 10069 21046 40167 54000 80001 333 10206;EQDQ01  00002PRCP99
0175287910999992000042200004+54620+072580FM-12+010999999V0202201N003012200019N0400001N1+01041+00151101531ADDAA199000091GA1001+999999999GF100991001001999999001001KA1999M+02091MD1710151+9999REMSYN064AAXX  23181 28791 32982 02203 10104 20015 40153 57015 333 10209;EQDQ01  00002PRCP99
0165287910999992000042206004+54620+072580FM-12+010999999V0203201N003019999999N0500001N1+01981-00051101581ADDAA199000091GF108991001001999999001041KA1999N+00401MD1410001+9999REMSYN070AAXX  22061 28791 32999 83203 10198 21005 40158 54000 80004 333 20040;EQDQ01  00002PRCP99
0171287910999992000042218004+54620+072580FM-12+010999999V0200201N003019999999N0450001N1+01101+00021102191ADDAA199000091GF108991001001999999001011KA1120M+02261MD1210261+9999REMSYN076AAXX  22181 28791 32983 80203 10110 20002 40219 52026 80001 333 10226 91113;EQDQ01  00002PRCP99
0122287910999992000042300004+54620+072580FM-12+010999999V0203101N001012200019N0500001N1+00171-00271102541ADDGA1001+999999999GF100991001001999999001001MD1210101+9999REMSYN054AAXX  23001 28791 42999 03101 10017 21027 40254 52010;
0175287910999992000042306004+54620+072580FM-12+010999999V0202201N004012200019N0500001N1+01611-00251102391ADDAA199000091GA1001+999999999GF100991001001999999001001KA1999N+00111MD1710071+9999REMSYN064AAXX  23061 28791 32999 02204 10161 21025 40239 57007 333 20011;EQDQ01  00002PRCP99
0122287910999992000042312004+54620+072580FM-12+010999999V0202801N004012200019N0500001N1+02081-00171101841ADDGA1001+999999999GF100991001001999999001001MD1710241+9999REMSYN054AAXX  23121 28791 42999 02804 10208 21017 40184 57024;
0112287910999992000042400004+54620+072580FM-12+010999999V0202201N004019999999N0500001N1+00881+00321101161ADDGF108991081001999999041999MD1710291+9999REMSYN060AAXX  24001 28791 42999 82204 10088 20032 40116 57029 8804/;
0175287910999992000042406004+54620+072580FM-12+010999999V0202601N006012200019N0500001N1+02161+00111100801ADDAA199000091GA1001+999999999GF100991001001999999001001KA1999N+00851MD1710171+9999REMSYN064AAXX  24061 28791 32999 02606 10216 20011 40080 57017 333 20085;EQDQ01  00002PRCP99
0165287910999992000042418004+54620+072580FM-12+010999999V0202101N005019999999N0400001N1+01261+00741101661ADDAA199000091GF108991001001999999001011KA1999M+02571MD1210241+9999REMSYN070AAXX  24181 28791 32982 82105 10126 20074 40166 52024 80001 333 10257;EQDQ01  00002PRCP99
0165287910999992000042506004+54620+072580FM-12+010999999V0202701N003010075019N0500001N1+01631+00171101311ADDAA199000091GF105991051021008001001001KA1999N+00611MD1710211+9999REMSYN070AAXX  25061 28791 32599 52703 10163 20017 40131 57021 85200 333 20061;EQDQ01  00002PRCP99
0112287910999992000042512004+54620+072580FM-12+010999999V0202701N005019999999N0500001N1+01881-00221100851ADDGF108991021001999999031041MD1710191+9999REMSYN060AAXX  25121 28791 42999 82705 10188 21022 40085 57019 82034;
0190287910999992000042518004+54620+072580FM-12+010999999V0202901N002012200019N0500001N1+01121+00451100791ADDAA100000791AY161061AY211061GA1001+999999999GF100991001001999999001001KA1999M+01951MD1710041+9999MW1011REMSYN076AAXX  25181 28791 11984 02902 10112 20045 40079 57004 69900 70161 333 10195;
0112287910999992000042600004+54620+072580FM-12+010999999V0203201N007012200019N0500001N1+00501+00001101031ADDGF102991021051008001001001MD1210121+9999REMSYN060AAXX  26001 28791 42599 23207 10050 20000 40103 52012 82500;
0197287910999992000042606004+54620+072580FM-12+010999999V0203401N009010075019N0500001N1+00451-00401101651ADDAA100000791GA1081+007509069GF108991081051008001999999KA1120N+00371MD1210261+9999OA140101401REMSYN094AAXX  26061 28791 12599 83409 10045 21040 40165 52026 69900 885// 333 20037 88625 91014 91114;
0161287910999992000042612004+54620+072580FM-12+010999999V0202701N008010084019N0500001N1+00621-00461102131ADDGA1061+008409069GF106991061041008001001001MD1210251+9999OA140101201REMSYN082AAXX  26121 28791 42599 62708 10062 21046 40213 52025 86400 333 86628 91012 91114;
0181287910999992000042618004+54620+072580FM-12+010999999V0202201N002012200019N0400001N1+00061-00341102401ADDAA199000091GA1001+999999999GF100991001001999999001001KA1120M+00721MD1210121+9999REMSYN070AAXX  26181 28791 32982 02202 10006 21034 40240 52012 333 10072 91112;EQDQ01  00002PRCP99
0112287910999992000042700004+54620+072580FM-12+010999999V0202001N006012200019N0500001N1+00341+00021102281ADDGF103991031051008001001001MD1710131+9999REMSYN060AAXX  27001 28791 42599 32006 10034 20002 40228 57013 83500;
0188287910999992000042706004+54620+072580FM-12+010999999V0202801N009019999999N0500001N1+01881-00271101771ADDAA199000091GF105991001001999999001011KA1120N-00011MD1710271+9999OA140101501REMSYN082AAXX  27061 28791 32999 52809 10188 21027 40177 57027 80001 333 21001 91015 91115;EQDQ01  00002PRCP99
0149287910999992000042712004+54620+072580FM-12+010999999V0202601N009012200019N0500001N1+02371-00331101341ADDGA1001+999999999GF100991001001999999001001MD1710181+9999OA140101501REMSYN070AAXX  27121 28791 42999 02609 10237 21033 40134 57018 333 91015 91118;
0122287910999992000042800004+54620+072580FM-12+010999999V0202501N007012200019N0500001N1+01381-00121100791ADDGA1001+999999999GF100991001001999999001001MD1710161+9999REMSYN054AAXX  28001 28791 42999 02507 10138 21012 40079 57016;
0188287910999992000042806004+54620+072580FM-12+010999999V0202701N008012200019N0500001N1+02221+00151100481ADDAA199000091GF102991021001999999081001KA1120N+01351MD1710071+9999OA140101401REMSYN082AAXX  28061 28791 32999 22708 10222 20015 40048 57007 82080 333 20135 91014 91115;EQDQ01  00002PRCP99
0150287910999992000042812004+54620+072580FM-12+010999999V0203501N005010300019N0500001N1+01191+00621100611ADDAY191061AY281061GF108991031091008001061011MD1210131+9999MW1251REMSYN076AAXX  28121 28791 41599 83505 10119 20062 40061 52013 72598 83961 333 91116;
0232287910999992000042818004+54620+072580FM-12+010999999V0203501N004010027019N0270001N1+00481+00211101241ADDAA100003091AY191061AY281061GA1081+002709079GF108991081091002501999999HL10009KA1120M+02341MD1210241+9999MW1021OA149901301REMSYN100AAXX  28181 28791 11377 83504 10048 20021 40124 52024 60030 70298 889// 333 10234 88709 91113 93211;
0112287910999992000042900004+54620+072580FM-12+010999999V0203601N003019999999N0500001N1+00061-00341101511ADDGF106991061001999999071001MD1210101+9999REMSYN060AAXX  29001 28791 42999 63603 10006 21034 40151 52010 86070;
0187287910999992000042906004+54620+072580FM-12+010999999V0201901N005010081019N0500001N1+00321-00671101531ADDAA199000091GA1071+008109059GF108991071041008001001041KA1120N-00031MD1710021+9999REMSYN076AAXX  29061 28791 32599 81905 10032 21067 40153 57002 87404 333 21003 87627;EQDQ01  00002PRCP99
0112287910999992000042912004+54620+072580FM-12+010999999V0200401N006010750019N0500001N1+00341-00641101451ADDGF108991021041008001001051MD1710071+9999REMSYN060AAXX  29121 28791 42599 80406 10034 21064 40145 57007 82405;
0175287910999992000042918004+54620+072580FM-12+010999999V0200501N003012200019N0400001N1+00001-00631101431ADDAA199000091GA1001+999999999GF100991001001999999001001KA1999M+00491MD1710021+9999REMSYN064AAXX  29181 28791 32982 00503 10000 21063 40143 57002 333 10049;EQDQ01  00002PRCP99
0122287910999992000043000004+54620+072580FM-12+010999999V0203301N003012200019N0500001N1-00321-00751101561ADDGA1001+999999999GF100991001001999999001001MD1210101+9999REMSYN054AAXX  30001 28791 42999 03303 11032 21075 40156 52010;
0165287910999992000043006004+54620+072580FM-12+010999999V0203001N003010075019N0500001N1+00511-00971101841ADDAA199000091GF105991051021008001001001KA1999N-00391MD1210071+9999REMSYN070AAXX  30061 28791 32599 53003 10051 21097 40184 52007 85200 333 21039;EQDQ01  00002PRCP99
0112287910999992000043012004+54620+072580FM-12+010999999V0202801N002010075019N0500001N1+00881-01271101951ADDGF105991051011008001001001MD1210031+9999REMSYN060AAXX  30121 28791 42599 52802 10088 21127 40195 52003 85100;
0175287910999992000043018004+54620+072580FM-12+010999999V0201801N004012200019N0400001N1+00241-00901102261ADDAA199000091GA1001+999999999GF100991001001999999001001KA1999M+00911MD1210221+9999REMSYN064AAXX  30181 28791 32982 01804 10024 21090 40226 52022 333 10091;EQDQ01  00002PRCP99
0112287910999992000050100004+54620+072580FM-12+010999999V0201301N004019999999N0500001N1-00191-00721101921ADDGF108991001001999999001091MD1710151+9999REMSYN060AAXX  01001 28791 42999 81304 11019 21072 40192 57015 80009;
0188287910999992000050106004+54620+072580FM-12+010999999V0201201N011019999999N0500001N1+00671-01091101441ADDAA199000091GF108991081001999999011999KA1120N-00221MD1710281+9999OA140101501REMSYN082AAXX  01061 28791 32999 81211 10067 21109 40144 57028 8801/ 333 21022 91015 91118;EQDQ01  00002PRCP99
0127287910999992000050112004+54620+072580FM-12+010999999V0201201N011019999999N0500001N1+00721-01031100921ADDGF108991081001999999051999MD1710191+9999REMSYN075AAXX  01121 28791 42999 81211 10072 21103 40092 57019 8805/ 33391017 91123;
0188287910999992000050118004+54620+072580FM-12+010999999V0200901N008019999999N0450001N1+00451-00061100481ADDAA199000091GF108991081001999999051999KA1120M+00961MD1710221+9999OA140101201REMSYN082AAXX  01181 28791 32983 80908 10045 21006 40048 57022 8805/ 333 10096 91012 91117;EQDQ01  00002PRCP99
0172287910999992000050200004+54620+072580FM-12+010999999V0200901N005010030019N0500001N1+00241-00061100371ADDAY161061AY221061GA1061+003009079GF108991061071004501021999MD1210051+9999MW1021REMSYN082AAXX  02001 28791 41499 80905 10024 21006 40037 52005 70262 8672/ 333 86710 91113;
0174287910999992000050206004+54620+072580FM-12+010999999V0201301N007010054019N0500001N1+00491+00131100561ADDAA100000791GA1081+005409099GF108991081091004501999999KA1120N+00161MD1210031+9999REMSYN082AAXX  02061 28791 12499 81307 10049 20013 40056 52003 69900 889// 333 20016 88918;
0189287910999992000050212004+54620+072580FM-12+010999999V0201201N008010072019N0500001N1+00621+00261100491ADDAY181061AY221061GA1081+007209069GF108991081051008001999999MD1710181+9999MW1021OA140101301REMSYN088AAXX  02121 28791 41599 81208 10062 20026 40049 57018 70282 885// 333 88624 91013 91114;
0196287910999992000050218004+54620+072580FM-12+010999999V0202501N003012200019N0400001N1+00441+00321100721ADDAA100009991AY161061AY211061GA1001+999999999GF100991001001999999001001KA1120M+00661MD1210241+9999MW1011REMSYN082AAXX  02181 28791 11982 02503 10044 20032 40072 52024 60100 70161 333 10066 91113;
0122287910999992000050300004+54620+072580FM-12+010999999V0201801N002012200019N0500001N1-00041-00161100921ADDGA1001+999999999GF100991001001999999001001MD1210091+9999REMSYN054AAXX  03001 28791 42999 01802 11004 21016 40092 52009;
0191287910999992000050306004+54620+072580FM-12+010999999V0201901N007010033019N0500001N1+00551+00361100491ADDAY181061AY221061GA1081+003309079GF108991081091004501999999KA1120N-00081MD1710251+9999MW1251REMSYN088AAXX  03061 28791 11499 81907 10055 20036 40049 57025 72582 889// 333 21008 88711 91113;
0189287910999992000050312004+54620+072580FM-12+010999999V0202301N010010039019N0040001N1+00321+00081100531ADDAY181061AY221061GA1081+003909079GF108991081091004501999999MD1210091+9999MW1801OA140101801REMSYN088AAXX  03121 28791 41496 82310 10032 20008 40053 52009 78082 889// 333 88713 91018 91118;
0196287910999992000050318004+54620+072580FM-12+010999999V0202401N006012200019N0400001N1+00251-00241100771ADDAA100005191AY181061AY221061GA1001+999999999GF100991001001999999001001KA1120M+00571MD1210051+9999MW1011REMSYN082AAXX  03181 28791 11982 02406 10025 21024 40077 52005 60050 70182 333 10057 91118;
0122287910999992000050400004+54620+072580FM-12+010999999V0202501N005012200019N0500001N1+00121-00331100811ADDGA1001+999999999GF100991001001999999001001MD1210011+9999REMSYN054AAXX  04001 28791 42999 02505 10012 21033 40081 52001;
0187287910999992000050406004+54620+072580FM-12+010999999V0202601N005010051019N0500001N1+00641-00271101041ADDAA199000091GA1081+005109099GF108991081091004501999999KA1120N+00081MD1210081+9999REMSYN076AAXX  04061 28791 32499 82605 10064 21027 40104 52008 889// 333 20008 88917;EQDQ01  00002PRCP99
0138287910999992000050412004+54620+072580FM-12+010999999V0202501N006010057019N0500001N1+00841-00471100791ADDGA1081+005709099GF108991081091004501999999MD1710161+9999REMSYN070AAXX  04121 28791 42499 82506 10084 21047 40079 57016 889// 333 88919;
0165287910999992000050418004+54620+072580FM-12+010999999V0203001N002012200019N0450001N1+00271-00321100751ADDAA199000091GF102991001001999999001011KA1999M+00951MD1710021+9999REMSYN070AAXX  04181 28791 32983 23002 10027 21032 40075 57002 80001 333 10095;EQDQ01  00002PRCP99
0112287910999992000050500004+54620+072580FM-12+010999999V0202601N003019999999N0500001N1+00091-00331100791ADDGF108991081001999999041999MD1210081+9999REMSYN060AAXX  05001 28791 42999 82603 10009 21033 40079 52008 8804/;
0187287910999992000050506004+54620+072580FM-12+010999999V0202601N007010063019N0500001N1+00541-00011101081ADDAA199000091GA1071+006309099GF107991071091008001001001KA1120N-00041MD1210161+9999REMSYN076AAXX  05061 28791 32599 72607 10054 21001 40108 52016 87900 333 21004 87921;EQDQ01  00002PRCP99
0138287910999992000050512004+54620+072580FM-12+010999999V0203101N005010066019N0500001N1+00801-00251101501ADDGA1071+006609099GF107991071091008001001001MD1210211+9999REMSYN070AAXX  05121 28791 42599 73105 10080 21025 40150 52021 87900 333 87922;
0175287910999992000050518004+54620+072580FM-12+010999999V0202301N003012200019N0400001N1+00371-00261101991ADDAA199000091GA1001+999999999GF100991001001999999001001KA1999M+00831MD1210181+9999REMSYN064AAXX  05181 28791 32982 02303 10037 21026 40199 52018 333 10083;EQDQ01  00002PRCP99
0112287910999992000050600004+54620+072580FM-12+010999999V0202201N004019999999N0500001N1+00261-00261102021ADDGF108991001001999999001041MD1410001+9999REMSYN060AAXX  06001 28791 42999 82204 10026 21026 40202 54000 80004;
0188287910999992000050606004+54620+072580FM-12+010999999V0202201N009019999999N0500001N1+01411-00331101641ADDAA199000091GF108991001001999999001071KA1120N+00181MD1710111+9999OA140101301REMSYN082AAXX  06061 28791 32999 82209 10141 21033 40164 57011 80007 333 20018 91013 91113;EQDQ01  00002PRCP99
0122287910999992000050612004+54620+072580FM-12+010999999V0202801N005019999999N0500001N1+01561-00051101361ADDGF108991081001999999041999MD1210061+9999REMSYN070AAXX  06121 28791 42999 82805 10156 21005 40136 52006 8804/ 333 91116;
0175287910999992000050618004+54620+072580FM-12+010999999V0202501N005012200019N0400001N1+00851+00291101531ADDAA199000091GA1001+999999999GF100991001001999999001001KA1999M+01691MD1210091+9999REMSYN064AAXX  06181 28791 32982 02505 10085 20029 40153 52009 333 10169;EQDQ01  00002PRCP99
0100287910999992000050700004+54620+072580FM-12+010999999V0202101N002019999999N0500001N1+00461+99999999999ADDGF107991071001999999031001MD1210071+9999REMSYN048AAXX  07001 28791 42999 72102 10046 52007 87030;
0165287910999992000050706004+54620+072580FM-12+010999999V0202701N006012200019N0500001N1+01731-00191101701ADDAA199000091GF106991041021012501001041KA1999N+00401MD1710021+9999REMSYN070AAXX  07061 28791 32699 62706 10173 21019 40170 57002 84204 333 20040;EQDQ01  00002PRCP99
0112287910999992000050712004+54620+072580FM-12+010999999V0202701N004019999999N0500001N1+01841-00071101501ADDGF107991071001999999061001MD1710081+9999REMSYN060AAXX  07121 28791 42999 72704 10184 21007 40150 57008 87060;
0165287910999992000050718004+54620+072580FM-12+010999999V0201701N002019999999N0450001N1+01201+00271101291ADDAA199000091GF108991081001999999021999KA1999M+01921MD1710141+9999REMSYN070AAXX  07181 28791 32983 81702 10120 20027 40129 57014 8802/ 333 10192;EQDQ01  00002PRCP99
0112287910999992000050800004+54620+072580FM-12+010999999V0201901N003019999999N0500001N1+00851+00171100911ADDGF107991071001999999031001MD1710181+9999REMSYN060AAXX  08001 28791 42999 71903 10085 20017 40091 57018 87030;
0181287910999992000050806004+54620+072580FM-12+010999999V0202401N005010042019N0500001N1+01721+00151100411ADDAA199000091GF108991999071004501021999KA1999N+00821MD1710221+9999REMSYN070AAXX  08061 28791 32499 82405 10172 20015 40041 57022 8872/ 333 20082;EQDQ01+000082SCOTLCQ02  00002PRCP99
0140287910999992000050812004+54620+072580FM-12+010999999V0201901N002010300019N0500001N1+01371+00671100141ADDAY181061AY221061GF108991041091004501041999MD1710141+9999MW1251REMSYN066AAXX  08121 28791 41499 81902 10137 20067 40014 57014 72582 8494/;
0202287910999992000050818004+54620+072580FM-12+010999999V0202801N004010063019N0400001N1+01081+00771100141ADDAA100000791AY181061AY221061GA1081+006309099GF108991081091008001999999KA1120M+01731MD1210071+9999MW1021REMSYN088AAXX  08181 28791 11582 82804 10108 20077 40014 52007 69900 70282 889// 333 10173 88921;
0122287910999992000050900004+54620+072580FM-12+010999999V0202701N003012200019N0500001N1+00241-00391100771ADDGA1001+999999999GF100991001001999999001001MD1210441+9999REMSYN054AAXX  09001 28791 42999 02703 10024 21039 40077 52044;
0149287910999992000050912004+54620+072580FM-12+010999999V0203001N001012200019N0500001N1+01361-00901101161ADDGA1001+999999999GF100991001001999999001001MD1210081+9999OA140101201REMSYN070AAXX  09121 28791 42999 03001 10136 21090 40116 52008 333 91012 91116;
0181287910999992000050918004+54620+072580FM-12+010999999V0202701N002012200019N0400001N1+00541-00501101511ADDAA199000091GA1001+999999999GF100991001001999999001001KA1120M+01371MD1210131+9999REMSYN070AAXX  09181 28791 32982 02702 10054 21050 40151 52013 333 10137 91112;EQDQ01  00002PRCP99
0122287910999992000051000004+54620+072580FM-12+010999999V0201001N001012200019N0500001N1-00141-00581101711ADDGA1001+999999999GF100991001001999999001001MD1210071+9999REMSYN054AAXX  10001 28791 42999 01001 11014 21058 40171 52007;
0165287910999992000051006004+54620+072580FM-12+010999999V0201101N006019999999N0500001N1+01301-00741101481ADDAA199000091GF108991001001999999001051KA1999N-00181MD1710091+9999REMSYN070AAXX  10061 28791 32999 81106 10130 21074 40148 57009 80005 333 21018;EQDQ01  00002PRCP99
0167287910999992000051012004+54620+072580FM-12+010999999V0201201N008019999999N0040001N1+01281-00381100781ADDAY161061AY221061GF108991081001999999071999MD1710401+9999MW1611OA140101301REMSYN082AAXX  10121 28791 41996 81208 10128 21038 40078 57040 76162 8807/ 333 91013 91113;
0203287910999992000051018004+54620+072580FM-12+010999999V0200901N007019999999N0060001N1+00641+00501100191ADDAA100002091AY161061AY221061GF108991081001999999021999KA1120M+01561MD1710271+9999MW1611OA140101201REMSYN094AAXX  10181 28791 11956 80907 10064 20050 40019 57027 60020 76162 8802/ 333 10156 91012 91113;
0150287910999992000051100004+54620+072580FM-12+010999999V0200701N003019999999N0500001N1+00491+00441099961ADDAY161061AY221061GF108991081001999999051999MD1710041+9999MW1021REMSYN076AAXX  11001 28791 41999 80703 10049 20044 49996 57004 70262 8805/ 333 91113;
0202287910999992000051106004+54620+072580FM-12+010999999V0202101N002010066019N0040001N1+01301+00841099851ADDAA100007191AY181061AY221061GA1081+006609099GF108991081091008001999999KA1120N+00441MD1710041+9999MW1801REMSYN088AAXX  11061 28791 11596 82102 10130 20084 49985 57004 60070 78082 889// 333 20044 88922;
0166287910999992000051112004+54620+072580FM-12+010999999V0200701N005010057019N0500001N1+01121+00921099901ADDAY191061AY281061GA1071+005709099GF107991071091004501001001MD1210101+9999MW1021REMSYN076AAXX  11121 28791 41499 70705 10112 20092 49990 52010 70298 87900 333 87919;
0202287910999992000051118004+54620+072580FM-12+010999999V0200401N004010063019N0070001N1+00581+00511100041ADDAA100030091AY181061AY221061GA1081+006309099GF108991081091008001999999KA1120M+01351MD1210031+9999MW1801REMSYN088AAXX  11181 28791 11557 80404 10058 20051 40004 52003 60300 78082 889// 333 10135 88921;
0166287910999992000051200004+54620+072580FM-12+010999999V0200301N004010039019N0040001N1+00261+00181100231ADDAY181061AY221061GA1071+003909069GF108991071071004501021999MD1210201+9999MW1611REMSYN076AAXX  12001 28791 41496 80304 10026 20018 40023 52020 76182 8772/ 333 87713;
0202287910999992000051206004+54620+072580FM-12+010999999V0200201N004010075019N0500001N1+00421+00081100751ADDAA100020191AY161061AY221061GA1081+007509059GF108991081051008001999999KA1120N+00201MD1210271+9999MW1021REMSYN088AAXX  12061 28791 11599 80204 10042 20008 40075 52027 60200 70262 885// 333 20020 88625;
0112287910999992000051212004+54620+072580FM-12+010999999V0200601N003019999999N0500001N1+00651+00121101031ADDGF108991081001999999041999MD1210131+9999REMSYN060AAXX  12121 28791 42999 80603 10065 20012 40103 52013 8804/;
0175287910999992000051218004+54620+072580FM-12+010999999V0201901N001012200019N0450001N1+00351+00061101371ADDAA199000091GA1001+999999999GF100991001001999999001001KA1999M+00681MD1210431+9999REMSYN064AAXX  12181 28791 32983 01901 10035 20006 40137 52043 333 10068;EQDQ01  00002PRCP99
0140287910999992000051300004+54620+072580FM-12+010999999V0200601N001012200019N0040001N1-00211-00241101551ADDAY101061AY201061GF102991021001999999041001MD1210071+9999MW1101REMSYN066AAXX  13001 28791 41996 20601 11021 21024 40155 52007 71000 82040;
0165287910999992000051306004+54620+072580FM-12+010999999V0201301N003012200019N0500001N1+01121+00091101561ADDAA199000091GF102991021011012501001001KA1999N-00261MD1210021+9999REMSYN070AAXX  13061 28791 32699 21303 10112 20009 40156 52002 82100 333 21026;EQDQ01  00002PRCP99
0138287910999992000051312004+54620+072580FM-12+010999999V0201501N001010072019N0500001N1+01351+00361101611ADDGA1061+007209099GF106991061091008001001001MD1210021+9999REMSYN070AAXX  13121 28791 42599 61501 10135 20036 40161 52002 86900 333 86924;
0165287910999992000051318004+54620+072580FM-12+010999999V0209999C000012200019N0500001N1+00821+00531101801ADDAA199000091GF102991021001999999031001KA1999M+01411MD1210051+9999REMSYN070AAXX  13181 28791 32984 20000 10082 20053 40180 52005 82030 333 10141;EQDQ01  00002PRCP99
0140287910999992000051400004+54620+072580FM-12+010999999V0201101N002019999999N0200001N1+00221+00191102011ADDAY111061AY211061GF107991001001999999001041MD1210101+9999MW1111REMSYN066AAXX  14001 28791 41998 71102 10022 20019 40201 52010 71111 80004;
0165287910999992000051406004+54620+072580FM-12+010999999V0201801N004012200019N0500001N1+01681+00481102011ADDAA199000091GF102991021021008001001001KA1999N+00111MD1710021+9999REMSYN070AAXX  14061 28791 32599 21804 10168 20048 40201 57002 82200 333 20011;EQDQ01  00002PRCP99
0112287910999992000051412004+54620+072580FM-12+010999999V0201601N004012200019N0500001N1+01941+00271101851ADDGF102991021041008001001001MD1710081+9999REMSYN060AAXX  14121 28791 42599 21604 10194 20027 40185 57008 82400;
0165287910999992000051418004+54620+072580FM-12+010999999V0201501N004012200019N0400001N1+01141+00381101831ADDAA199000091GF102991001001999999001011KA1999M+02011MD1710021+9999REMSYN070AAXX  14181 28791 32982 21504 10114 20038 40183 57002 80001 333 10201;EQDQ01  00002PRCP99
0140287910999992000051500004+54620+072580FM-12+010999999V0201401N008010300019N0500001N1+01161+00511101601ADDAY111061AY211061GF108991031091008001071999MD1710101+9999MW1251REMSYN066AAXX  15001 28791 41599 81408 10116 20051 40160 57010 72511 8397/;
0202287910999992000051506004+54620+072580FM-12+010999999V0201501N006010042019N0040001N1+01211+00951101451ADDAA100000791AY181061AY221061GA1081+004209099GF108991081091004501999999KA1120N+01031MD1710031+9999MW1801REMSYN088AAXX  15061 28791 11496 81506 10121 20095 40145 57003 69900 78082 889// 333 20103 88914;
0140287910999992000051512004+54620+072580FM-12+010999999V0202401N005012200019N0500001N1+01861+00041101401ADDAY181061AY211061GF102991021041008001001001MD1710011+9999MW1011REMSYN066AAXX  15121 28791 41599 22405 10186 20004 40140 57001 70181 82400;
0156287910999992000051518004+54620+072580FM-12+010999999V0202801N002012200019N0400001N1+00831-00331101641ADDAA199000021GA1001+999999999GF100991001001999999001001KA1999M+01881MD1210101+9999REMSYN064AAXX  15181 28791 32982 02802 10083 21033 40164 52010 333 10188;
0112287910999992000051600004+54620+072580FM-12+010999999V0201101N001019999999N0500001N1+00161-00121101651ADDGF105991001001999999001091MD1710011+9999REMSYN060AAXX  16001 28791 42999 51101 10016 21012 40165 57001 80009;
0112287910999992000051612004+54620+072580FM-12+010999999V0202101N004019999999N0500001N1+01851-00071101051ADDGF108991001001999999001051MD1710021+9999REMSYN060AAXX  16121 28791 42999 82104 10185 21007 40105 57002 80005;
0165287910999992000051618004+54620+072580FM-12+010999999V0203101N003012200019N0500001N1+01171+00211101161ADDAA199000091GF103991001001999999001011KA1999M+01911MD1210111+9999REMSYN070AAXX  16181 28791 32984 33103 10117 20021 40116 52011 80001 333 10191;EQDQ01  00002PRCP99
0122287910999992000051700004+54620+072580FM-12+010999999V0203301N002012200019N0500001N1+00721+00091101271ADDGA1001+999999999GF100991001001999999001001MD1210051+9999REMSYN054AAXX  17001 28791 42999 03302 10072 20009 40127 52005;
0175287910999992000051706004+54620+072580FM-12+010999999V0200301N002012200019N0500001N1+01731-00191101011ADDAA199000091GA1001+999999999GF100991001001999999001001KA1999N+00581MD1710181+9999REMSYN064AAXX  17061 28791 32999 00302 10173 21019 40101 57018 333 20058;EQDQ01  00002PRCP99
0112287910999992000051712004+54620+072580FM-12+010999999V0200601N003012200019N0500001N1+02111+00041100621ADDGF102991021051008001001001MD1710141+9999REMSYN060AAXX  17121 28791 42599 20603 10211 20004 40062 57014 82500;
0175287910999992000051718004+54620+072580FM-12+010999999V0202001N001012200019N0400001N1+01221+00651100631ADDAA199000091GA1001+999999999GF100991001001999999001001KA1999M+02151MD1210041+9999REMSYN064AAXX  17181 28791 32982 02001 10122 20065 40063 52004 333 10215;EQDQ01  00002PRCP99
0150287910999992000051800004+54620+072580FM-12+010999999V0202001N002012200019N0002001N1+00781+00781100541ADDAY141061AY201061GA1001+999999999GF100991001001999999001001MD1710151+9999MW1461REMSYN060AAXX  18001 28791 41992 02002 10078 20078 40054 57015 74640;
0193287910999992000051806004+54620+072580FM-12+010999999V0201301N006012200019N0500001N1+02041+00481100221ADDAA199000091AY141061AY201061GF102991021021012501001001KA1999N+00751MD1710161+9999MW1021REMSYN076AAXX  18061 28791 31699 21306 10204 20048 40022 57016 70240 82200 333 20075;EQDQ01  00002PRCP99
0189287910999992000051812004+54620+072580FM-12+010999999V0202401N011010042019N0040001N1+01181+00701100071ADDAY181061AY211061GA1081+004209079GF108991081091004501999999MD1210111+9999MW1801OA140101701REMSYN088AAXX  18121 28791 41496 82411 10118 20070 40007 52011 78081 889// 333 88714 91017 91124;
0185287910999992000051818004+54620+072580FM-12+010999999V0202401N008012200019N0400001N1+00641+00111100351ADDAA100000891GA1001+999999999GF100991001001999999001001KA1120M+02261MD1210201+9999OA140101201REMSYN082AAXX  18181 28791 12982 02408 10064 20011 40035 52020 69980 333 10226 91012 91124;
0149287910999992000051900004+54620+072580FM-12+010999999V0201901N008012200019N0500001N1+00521+00081100571ADDGA1001+999999999GF100991001001999999001001MD1210111+9999OA140101201REMSYN070AAXX  19001 28791 42999 01908 10052 20008 40057 52011 333 91012 91112;
0192287910999992000051906004+54620+072580FM-12+010999999V0202401N010012200019N0500001N1+01361+99999100701ADDAA199000091GA1001+999999999GF100991001001999999001001KA1120N+00491MD1210031+9999OA140101501REMSYN070AAXX  19061 28791 32999 02410 10136 40070 52003 333 20049 91015 91116;EQDQ01  00002PRCP99
0139287910999992000051912004+54620+072580FM-12+010999999V0202501N007012200019N0500001N1+01641-00641100661ADDGF107991021021012501001041MD1710041+9999OA140101201REMSYN076AAXX  19121 28791 42699 72507 10164 21064 40066 57004 82204 333 91012 91118;
0171287910999992000051918004+54620+072580FM-12+010999999V0201801N002019999999N0400001N1+01081-00051100441ADDAA199000091GF108991081001999999051999KA1120M+01721MD1710061+9999REMSYN076AAXX  19181 28791 32982 81802 10108 21005 40044 57006 8805/ 333 10172 91112;EQDQ01  00002PRCP99
0112287910999992000052000004+54620+072580FM-12+010999999V0201501N005012200019N0500001N1+00691+00091100201ADDGF102991001001999999001041MD1710101+9999REMSYN060AAXX  20001 28791 42999 21505 10069 20009 40020 57010 80004;
0188287910999992000052006004+54620+072580FM-12+010999999V0202401N009010750019N0500001N1+01661-00091099921ADDAA199000091GF108991031091008001001051KA1120N+00641MD1710081+9999OA140101301REMSYN082AAXX  20061 28791 32599 82409 10166 21009 49992 57008 83905 333 20064 91013 91113;EQDQ01  00002PRCP99
0139287910999992000052012004+54620+072580FM-12+010999999V0202301N011012200019N0500001N1+01481-00501100111ADDGF108991031091008001001011MD1210131+9999OA140101501REMSYN076AAXX  20121 28791 42599 82311 10148 21050 40011 52013 83901 333 91015 91115;
0171287910999992000052018004+54620+072580FM-12+010999999V0202001N002012200019N0400001N1+00641-00201100361ADDAA199000091GF101991011001999999031001KA1120M+01751MD1210091+9999REMSYN076AAXX  20181 28791 32982 12002 10064 21020 40036 52009 81030 333 10175 91115;EQDQ01  00002PRCP99
0112287910999992000052100004+54620+072580FM-12+010999999V0202001N004019999999N0500001N1+00491-00241100561ADDGF106991061001999999071001MD1210131+9999REMSYN060AAXX  21001 28791 42999 62004 10049 21024 40056 52013 86070;
0188287910999992000052106004+54620+072580FM-12+010999999V0202201N010019999999N0500001N1+01481+00021100511ADDAA199000091GF105991051021999999001001KA1120N+00441MD1710031+9999OA140101501REMSYN082AAXX  21061 28791 32999 52210 10148 20002 40051 57003 85200 333 20044 91015 91115;EQDQ01  00002PRCP99
0144287910999992000052112004+54620+072580FM-12+010999999V0202401N006010075019N0040001N1+01221+00401100531ADDGA1081+007509099GF108991081091008001999999MD1410001+9999REMSYN076AAXX  21121 28791 41596 82406 10122 20040 40053 54000 889// 333 88925 91115;
0180287910999992000052118004+54620+072580FM-12+010999999V0201001N002019999999N0070001N1+00981+00651100591ADDAA100000791AY181061AY261061GF108991081001999999071999KA1999M+01551MD1210051+9999MW1611REMSYN082AAXX  21181 28791 11957 81002 10098 20065 40059 52005 69900 76186 8807/ 333 10155;
0140287910999992000052200004+54620+072580FM-12+010999999V0201201N002019999999N0500001N1+00791+00701100761ADDAY161061AY221061GF108991081001999999041999MD1210091+9999MW1021REMSYN066AAXX  22001 28791 41999 81202 10079 20070 40076 52009 70262 8804/;
0152287910999992000052206004+54620+072580FM-12+010999999V0201601N005010075019N0500001N1+01361+00651101091ADDAA100003091GF108991051021008001001011KA1999N+00771MD1210171+9999REMSYN076AAXX  22061 28791 12599 81605 10136 20065 40109 52017 60030 85201 333 20077;
0112287910999992000052212004+54620+072580FM-12+010999999V0201901N003010075019N0500001N1+01721+00301101151ADDGF107991051021008001001011MD1210031+9999REMSYN060AAXX  22121 28791 42599 71903 10172 20030 40115 52003 85201;
0165287910999992000052218004+54620+072580FM-12+010999999V0209999C000012200019N0500001N1+01021+00731101361ADDAA199000091GF102991021041008001001001KA1999M+01751MD1210121+9999REMSYN070AAXX  22181 28791 32584 20000 10102 20073 40136 52012 82400 333 10175;EQDQ01  00002PRCP99
0112287910999992000052300004+54620+072580FM-12+010999999V0209999C000019999999N0200001N1+00481+00361101531ADDGF106991001001999999001041MD1210081+9999REMSYN060AAXX  23001 28791 42998 60000 10048 20036 40153 52008 80004;
0165287910999992000052306004+54620+072580FM-12+010999999V0201601N003012200019N0500001N1+01821+00501101661ADDAA199000091GF102991021021008001001001KA1999N+00431MD1210081+9999REMSYN070AAXX  23061 28791 32599 21603 10182 20050 40166 52008 82200 333 20043;EQDQ01  00002PRCP99
0138287910999992000052312004+54620+072580FM-12+010999999V0201601N003010066019N0500001N1+02121+00411101621ADDGA1061+006609099GF106991061091008001001001MD1710051+9999REMSYN070AAXX  23121 28791 42599 61603 10212 20041 40162 57005 86900 333 86922;
0165287910999992000052318004+54620+072580FM-12+010999999V0202001N001012200019N0400001N1+01021+00411101821ADDAA199000091GF102991021041008001001001KA1999M+02131MD1210101+9999REMSYN070AAXX  23181 28791 32582 22001 10102 20041 40182 52010 82400 333 10213;EQDQ01  00002PRCP99
0112287910999992000052400004+54620+072580FM-12+010999999V0202401N002012200019N0500001N1+00861+00551101851ADDGF102991021001999999041001MD1210071+9999REMSYN060AAXX  24001 28791 42999 22402 10086 20055 40185 52007 82040;
0165287910999992000052406004+54620+072580FM-12+010999999V0209999C000012200019N0500001N1+01991+00741101751ADDAA199000091GF101991011011012501001001KA1999N+00571MD1710081+9999REMSYN070AAXX  24061 28791 32699 10000 10199 20074 40175 57008 81100 333 20057;EQDQ01  00002PRCP99
0166287910999992000052412004+54620+072580FM-12+010999999V0201701N006010051019N0500001N1+01911+00761101531ADDAY181061AY211061GA1071+005109099GF107991071091004501001001MD1710051+9999MW1021REMSYN076AAXX  24121 28791 41499 71706 10191 20076 40153 57005 70281 87900 333 87917;
0174287910999992000052418004+54620+072580FM-12+010999999V0201901N003010075019N0400001N1+01071+00861101501ADDAA100000791GA1061+007509059GF106991061041008001001001KA1120M+02301MD1210011+9999REMSYN082AAXX  24181 28791 12582 61903 10107 20086 40150 52001 69900 86400 333 10230 86625;
0112287910999992000052500004+54620+072580FM-12+010999999V0202101N002019999999N0500001N1+01111+00761101441ADDGF108991001001999999001091MD1710031+9999REMSYN060AAXX  25001 28791 42999 82102 10111 20076 40144 57003 80009;
0187287910999992000052506004+54620+072580FM-12+010999999V0200601N004010084019N0500001N1+01751+00771101451ADDAA199000091GA1061+008409099GF106991061091008001001001KA1120N+00921MD1210041+9999REMSYN076AAXX  25061 28791 32599 60604 10175 20077 40145 52004 86900 333 20092 86928;EQDQ01  00002PRCP99
0112287910999992000052512004+54620+072580FM-12+010999999V0201001N003019999999N0500001N1+01991+00741101481ADDGF106991001001999999001091MD1210011+9999REMSYN060AAXX  25121 28791 42999 61003 10199 20074 40148 52001 80009;
0187287910999992000052518004+54620+072580FM-12+010999999V0203201N003010075019N0400001N1+01561+00561101491ADDAA199000091GA1081+007509059GF108991081041008001999999KA1120M+02011MD1410001+9999REMSYN076AAXX  25181 28791 32582 83203 10156 20056 40149 54000 884// 333 10201 88625;EQDQ01  00002PRCP99
0112287910999992000052600004+54620+072580FM-12+010999999V0201201N004019999999N0500001N1+01421+00841101461ADDGF105991051001999999071001MD1710021+9999REMSYN060AAXX  26001 28791 42999 51204 10142 20084 40146 57002 85070;
0165287910999992000052606004+54620+072580FM-12+010999999V0201201N00401220001CN0500001N1+02471+00641101341ADDAA199000091GF108991011011012501001041KA1999N+01171MD1710071+9999REMSYN070AAXX  26061 28791 32699 81204 10247 20064 40134 57007 81104 333 20117;EQDQ01  00002PRCP99
0138287910999992000052612004+54620+072580FM-12+010999999V0201201N001010066019N0500001N1+02471+00901101131ADDGA1061+006609099GF108991061091008001001011MD1710071+9999REMSYN070AAXX  26121 28791 42599 81201 10247 20090 40113 57007 86901 333 86922;
0187287910999992000052618004+54620+072580FM-12+010999999V0200601N001010069019N0400001N1+01751+00881101071ADDAA199000091GA1061+006909099GF106991061091008001001001KA1120M+02581MD1710021+9999REMSYN076AAXX  26181 28791 32582 60601 10175 20088 40107 57002 86900 333 10258 86923;EQDQ01  00002PRCP99
0166287910999992000052700004+54620+072580FM-12+010999999V0201201N001010069019N0500001N1+01451+01181100961ADDAY181061AY221061GA1061+006909099GF108991061091008001001011MD1710041+9999MW1021REMSYN076AAXX  27001 28791 41599 81201 10145 20118 40096 57004 70282 86901 333 86923;
0152287910999992000052706004+54620+072580FM-12+010999999V0202001N005019999999N0500001N1+02511+00861100781ADDAA100003091GF106991001001999999001011KA1999N+01381MD1710101+9999REMSYN076AAXX  27061 28791 12999 62005 10251 20086 40078 57010 60030 80001 333 20138;
0172287910999992000052712004+54620+072580FM-12+010999999V0202101N003010066019N0500001N1+01871+01281100591ADDAY181061AY221061GA1081+006609099GF108991081091008001999999MD1210011+9999MW1021REMSYN082AAXX  27121 28791 41599 82103 10187 20128 40059 52001 70282 889// 333 88922 91116;
0202287910999992000052718004+54620+072580FM-12+010999999V0201801N006010069019N0400001N1+01531+01371100311ADDAA100000591AY181061AY221061GA1081+006909099GF108991081091008001999999KA1120M+02761MD1710191+9999MW1021REMSYN088AAXX  27181 28791 11582 81806 10153 20137 40031 57019 69950 70282 889// 333 10276 88923;
0166287910999992000052800004+54620+072580FM-12+010999999V0201701N003010057019N0500001N1+01431+01301099871ADDAY191061AY281061GA1081+005709099GF108991081091004501999999MD1710221+9999MW1951REMSYN076AAXX  28001 28791 41499 81703 10143 20130 49987 57022 79598 889// 333 88919;
0202287910999992000052806004+54620+072580FM-12+010999999V0202801N005010057019N0500001N1+01521+01321099651ADDAA100006191AY191061AY281061GA1081+005709099GF108991081091004501001001KA1120N+01401MD1710081+9999MW1021REMSYN088AAXX  28061 28791 11499 82805 10152 20132 49965 57008 60060 70298 88900 333 20140 88919;
0140287910999992000052812004+54620+072580FM-12+010999999V0202601N004010075019N0500001N1+01781+01391099491ADDAY191061AY281061GF106991051091008001001091MD1710111+9999MW1021REMSYN066AAXX  28121 28791 41599 62604 10178 20139 49949 57011 70298 85909;
0180287910999992000052818004+54620+072580FM-12+010999999V0202801N005019999999N0450001N1+01421+01221099591ADDAA100006191AY191061AY281061GF108991081001999999041999KA1999M+01841MD1210011+9999MW1021REMSYN082AAXX  28181 28791 11983 82805 10142 20122 49959 52001 60060 70298 8804/ 333 10184;
0112287910999992000052900004+54620+072580FM-12+010999999V0202601N004019999999N0500001N1+01331+01041099541ADDGF106991001001999999001011MD1710021+9999REMSYN060AAXX  29001 28791 42999 62604 10133 20104 49954 57002 80001;
0187287910999992000052906004+54620+072580FM-12+010999999V0202501N005010063019N0500001N1+02061+01051099391ADDAA199000091GA1071+006309099GF108991071091008001001091KA1120N+01291MD1710081+9999REMSYN076AAXX  29061 28791 32599 82505 10206 20105 49939 57008 87909 333 20129 87921;EQDQ01  00002PRCP99
0140287910999992000052912004+54620+072580FM-12+010999999V0202701N004010750019N0500001N1+01861+01251099321ADDAY191061AY281061GF106991021091008001001051MD1710061+9999MW1021REMSYN066AAXX  29121 28791 41599 62704 10186 20125 49932 57006 70298 82905;
0202287910999992000052918004+54620+072580FM-12+010999999V0202301N005010033019N0070001N1+01291+01221099231ADDAA100013091AY181061AY261061GA1081+003309029GF108991081001004501021999KA1120M+02061MD1710061+9999MW1611REMSYN088AAXX  29181 28791 11457 82305 10129 20122 49923 57006 60130 76186 8802/ 333 10206 88511;
0185287910999992000053000004+54620+072580FM-12+010999999V0202801N008010036019N0040001N1+01261+01191099071ADDAY191061AY281061GA1081+003609069GF108991999071004501021999MD1710011+9999MW1611REMSYN076AAXX  30001 28791 41496 82808 10126 20119 49907 57001 76198 8872/ 333 88712;EQDQ01+000082SCOTLC
0202287910999992000053006004+54620+072580FM-12+010999999V0203101N006010057019N0500001N1+01651+01311099241ADDAA100023191AY181061AY221061GA1081+005709099GF108991081091008001999999KA1120N+01221MD1210051+9999MW1021REMSYN088AAXX  30061 28791 11599 83106 10165 20131 49924 52005 60230 70282 889// 333 20122 88919;
0166287910999992000053012004+54620+072580FM-12+010999999V0203301N006010048019N0040001N1+01411+01281099601ADDAY181061AY251061GA1081+004809069GF108991081061004501999999MD1210221+9999MW1511REMSYN076AAXX  30121 28791 41496 83306 10141 20128 49960 52022 75185 886// 333 88716;
0180287910999992000053018004+54620+072580FM-12+010999999V0202801N002019999999N0400001N1+01241+00991099881ADDAA100003091AY151061AY221061GF108991081001999999021999KA1999M+01771MD1210051+9999MW1021REMSYN082AAXX  30181 28791 11982 82802 10124 20099 49988 52005 60030 70252 8802/ 333 10177;
0138287910999992000053100004+54620+072580FM-12+010999999V0203001N004010033019N0500001N1+01161+01001100021ADDGA1081+003309069GF108991081071004501999999MD1210061+9999REMSYN070AAXX  31001 28791 42499 83004 10116 20100 40002 52006 887// 333 88711;
0187287910999992000053106004+54620+072580FM-12+010999999V0200701N003010078019N0500001N1+01331+01131100221ADDAA199000091GA1081+007809059GF108991081051008001999999KA1120N+01101MD1210071+9999REMSYN076AAXX  31061 28791 32599 80703 10133 20113 40022 52007 885// 333 20110 88626;EQDQ01  00002PRCP99
0138287910999992000053112004+54620+072580FM-12+010999999V0203601N003010078019N0500001N1+01771+00771100321ADDGA1081+007809059GF108991081051008001999999MD1210051+9999REMSYN070AAXX  31121 28791 42599 83603 10177 20077 40032 52005 885// 333 88626;
0165287910999992000053118004+54620+072580FM-12+010999999V0200801N002019999999N0400001N1+01261+00901100461ADDAA199000091GF108991081001999999071999KA1999M+01781MD1210121+9999REMSYN070AAXX  31181 28791 32982 80802 10126 20090 40046 52012 8807/ 333 10178;EQDQ01  00002PRCP99
0138287910999992000060100004+54620+072580FM-12+010999999V0203101N002010042019N0500001N1+01021+00881100581ADDGA1081+004209069GF108991081071004501999999MD1210031+9999REMSYN070AAXX  01001 28791 42499 83102 10102 20088 40058 52003 887// 333 88714;
0187287910999992000060106004+54620+072580FM-12+010999999V0203001N003010075019N0500001N1+01191+00781100701ADDAA199000091GA1071+007509099GF107991071091008001001001KA1120N+01001MD1210081+9999REMSYN076AAXX  01061 28791 32599 73003 10119 20078 40070 52008 87900 333 20100 87925;EQDQ01  00002PRCP99
0138287910999992000060112004+54620+072580FM-12+010999999V0200301N005010078019N0500001N1+01431+00431100801ADDGA1061+007809099GF108991061091008001001061MD1210081+9999REMSYN070AAXX  01121 28791 42599 80305 10143 20043 40080 52008 86906 333 86926;
0175287910999992000060118004+54620+072580FM-12+010999999V0200501N004012200019N0500001N1+00791+00211101261ADDAA199000091GA1001+999999999GF100991001001999999001001KA1999M+01531MD1210171+9999REMSYN064AAXX  01181 28791 32984 00504 10079 20021 40126 52017 333 10153;EQDQ01  00002PRCP99
0122287910999992000060200004+54620+072580FM-12+010999999V0200201N002012200019N0500001N1+00421+00141101371ADDGA1001+999999999GF100991001001999999001001MD1210031+9999REMSYN054AAXX  02001 28791 42999 00202 10042 20014 40137 52003;
0187287910999992000060206004+54620+072580FM-12+010999999V0203401N007010087019N0500001N1+01441+00091101301ADDAA199000091GA1061+008709029GF106991061011008001001001KA1120N+00331MD1710011+9999REMSYN076AAXX  02061 28791 32599 63407 10144 20009 40130 57001 86100 333 20033 86829;EQDQ01  00002PRCP99
0112287910999992000060212004+54620+072580FM-12+010999999V0203101N006012200019N0500001N1+01751-00191101261ADDGF102991001001999999001011MD1210011+9999REMSYN060AAXX  02121 28791 42999 23106 10175 21019 40126 52001 80001;
0165287910999992000060218004+54620+072580FM-12+010999999V0202801N001019999999N0500001N1+01231+00191101301ADDAA199000091GF106991041001999999041011KA1999M+01771MD1710031+9999REMSYN070AAXX  02181 28791 32984 62801 10123 20019 40130 57003 84041 333 10177;EQDQ01  00002PRCP99
0112287910999992000060300004+54620+072580FM-12+010999999V0202501N003019999999N0500001N1+01141+00321101181ADDGF108991061001999999041011MD1710031+9999REMSYN060AAXX  03001 28791 42999 82503 10114 20032 40118 57003 86041;
0166287910999992000060306004+54620+072580FM-12+010999999V0202301N005010042019N0500001N1+01511+00551100781ADDAA199000021AY161061AY221061GF108991061071004501071999MD1710181+9999MW1211REMSYN081AAXX  03061 28791 31499 82305 10151 20055 40078 57018 72162 8677/ 333 2010 86713;
0139287910999992000060312004+54620+072580FM-12+010999999V0200301N008012200019N0500001N1+01361+00501100701ADDGF102991021021008001001001MD1210131+9999OA140101301REMSYN076AAXX  03121 28791 42599 20308 10136 20050 40070 52013 82200 333 91013 91113;
0168287910999992000060318004+54620+072580FM-12+010999999V0203201N004012200019N0400001N1+00981+00191101071ADDAA100000791GA1001+999999999GF100991001001999999001001KA1120M+01651MD1210121+9999REMSYN076AAXX  03181 28791 12982 03204 10098 20019 40107 52012 69900 333 10165 91113;
0122287910999992000060400004+54620+072580FM-12+010999999V0203001N003012200019N0500001N1+00781+00231101341ADDGA1001+999999999GF100991001001999999001001MD1210101+9999REMSYN054AAXX  04001 28791 42999 03003 10078 20023 40134 52010;
0165287910999992000060406004+54620+072580FM-12+010999999V0202501N005019999999N0500001N1+01821+00131101271ADDAA199000091GF108991001001999999001051KA1999N+00691MD1710101+9999REMSYN070AAXX  04061 28791 32999 82505 10182 20013 40127 57010 80005 333 20069;EQDQ01  00002PRCP99
0140287910999992000060412004+54620+072580FM-12+010999999V0202001N002019999999N0500001N1+01501+00851101021ADDAY161061AY221061GF108991081001999999041999MD1710211+9999MW1021REMSYN066AAXX  04121 28791 41999 82002 10150 20085 40102 57021 70262 8804/;
0180287910999992000060418004+54620+072580FM-12+010999999V0201901N002019999999N0400001N1+01161+00811100791ADDAA100000891AY161061AY221061GF108991081001999999041999KA1999M+01931MD1710071+9999MW1021REMSYN082AAXX  04181 28791 11982 81902 10116 20081 40079 57007 69980 70262 8804/ 333 10193;
0092287910999992000060500004+54620+072580FM-12+010999999V0209999C000019999999N0500001N1+01131+00991100891ADDGF106991001001999999001091REMSYN054AAXX  05001 28791 42999 60000 10113 20099 40089 80009;
0165287910999992000060506004+54620+072580FM-12+010999999V0203101N004010120019N0500001N1+01981+00801100901ADDAA199000091GF108991051011012501001011KA1999N+01091MD1410001+9999REMSYN070AAXX  05061 28791 32699 83104 10198 20080 40090 54000 85101 333 20109;EQDQ01  00002PRCP99
0138287910999992000060512004+54620+072580FM-12+010999999V0203301N002010078019N0500001N1+02251+00681100621ADDGA1061+007809059GF108991061041008001001011MD1710111+9999REMSYN070AAXX  05121 28791 42599 83302 10225 20068 40062 57011 86401 333 86626;
0165287910999992000060518004+54620+072580FM-12+010999999V0209999C000010075019N0300001N1+01571+01221100561ADDAA199000091GF106991061091008001001001KA1999M+02271MD1210021+9999REMSYN070AAXX  05181 28791 32580 60000 10157 20122 40056 52002 86900 333 10227;EQDQ01  00002PRCP99
0131287910999992000060600004+54620+072580FM-12+010999999V0202701N002012200019N0500001N1+01241+01121099092ADDGF102991001001999999001011MD1210011+9999REMSYN060AAXX  06001 28791 42999 22702 10124 20112 49909 52001 80001;EQDQ01+099093APOSLP
0196287910999992000060606004+54620+072580FM-12+010999999V0202101N006010066019N0040001N1+01671+01351100241ADDAA199000021AY181061AY221061GA1081+006609099GF108991081091008001999999KA1120N+01091MD1710111+9999MW1801REMSYN082AAXX  06061 28791 31596 82106 10167 20135 40024 57011 78082 889// 333 20109 88922;
0150287910999992000060612004+54620+072580FM-12+010999999V0201601N003010750019N0500001N1+01941+01551099931ADDAY191061AY281061GF107991041091008001001051MD1210071+9999MW1021REMSYN076AAXX  06121 28791 41599 71603 10194 20155 49993 52007 70298 84905 333 91113;
0193287910999992000060618004+54620+072580FM-12+010999999V0202801N002010078019N0400001N1+01661+01521999999ADDAA100016091GA1081+007809059GF108991081041008001999999KA1120M+02351MD1710011+9999REMSYN082AAXX  06181 28791 12582 82802 10166 20152 40091 57001 60160 884// 333 10235 88626;EQDQ01+100913APOSLP
0166287910999992000060700004+54620+072580FM-12+010999999V0202901N003010063019N0500001N1+01381+01051099811ADDAY181061AY221061GA1081+006309099GF108991081091008001999999MD1710011+9999MW1021REMSYN076AAXX  07001 28791 41599 82903 10138 20105 49981 57001 70282 889// 333 88921;
0152287910999992000060706004+54620+072580FM-12+010999999V0202801N004010750019N0500001N1+01821+01091099851ADDAA100000891GF106991021011008001001051KA1999N+01251MD1210061+9999REMSYN076AAXX  07061 28791 12599 62804 10182 20109 49985 52006 69980 82105 333 20125;
0172287910999992000060712004+54620+072580FM-12+010999999V0202901N004010075019N0500001N1+01711+00741099801ADDAY191061AY281061GA1061+007509099GF106991061091008001001001MD1710071+9999MW1021REMSYN082AAXX  07121 28791 41599 62904 10171 20074 49980 57007 70298 86900 333 86925 91112;
0152287910999992000060718004+54620+072580FM-12+010999999V0202201N002019999999N0300001N1+01211+00861099751ADDAA100000791GF106991001001999999001091KA1999M+01861MD1410001+9999REMSYN076AAXX  07181 28791 32980 62202 10121 20086 49975 54000 69900 80009 333 10186;
0112287910999992000060800004+54620+072580FM-12+010999999V0202601N001012200019N0500001N1+01081+00681099841ADDGF102991021001999999041091MD1210101+9999REMSYN060AAXX  08001 28791 42999 22601 10108 20068 49984 52010 82049;
0187287910999992000060806004+54620+072580FM-12+010999999V0202801N005010066019N0500001N1+01601+00531099941ADDAA199000091GA1061+006609059GF106991061041008001001001KA1120N+01041MD1410001+9999REMSYN076AAXX  08061 28791 32599 62805 10160 20053 49994 54000 86400 333 20104 86622;EQDQ01  00002PRCP99
0138287910999992000060812004+54620+072580FM-12+010999999V0203201N006010057019N0500001N1+01631+00621099971ADDGA1071+005709099GF107991071091004501001001MD1210041+9999REMSYN070AAXX  08121 28791 42499 73206 10163 20062 49997 52004 87900 333 87919;
0180287910999992000060818004+54620+072580FM-12+010999999V0203101N006019999999N0400001N1+01161+00651100301ADDAA100000391AY181061AY221061GF108991081001999999041999KA1999M+01701MD1210161+9999MW1021REMSYN082AAXX  08181 28791 11982 83106 10116 20065 40030 52016 69930 70282 8804/ 333 10170;
0166287910999992000060900004+54620+072580FM-12+010999999V0202701N003010042019N0040001N1+00821+00711100411ADDAY161061AY221061GA1061+004209069GF108991061071004501021999MD1210061+9999MW1611REMSYN076AAXX  09001 28791 41496 82703 10082 20071 40041 52006 76162 8672/ 333 86714;
0202287910999992000060906004+54620+072580FM-12+010999999V0203201N006010057019N0040001N1+01051+00931100631ADDAA100003091AY161061AY261061GA1061+005709069GF108991061071004501021999KA1120N+00791MD1210171+9999MW1611REMSYN088AAXX  09061 28791 11496 83206 10105 20093 40063 52017 60030 76166 8672/ 333 20079 86719;
0166287910999992000060912004+54620+072580FM-12+010999999V0203401N004010054019N0500001N1+01121+00901101061ADDAY161061AY221061GA1081+005409059GF108991081051004501999999MD1210221+9999MW1021REMSYN076AAXX  09121 28791 41499 83404 10112 20090 40106 52022 70262 885// 333 88618;
0152287910999992000060918004+54620+072580FM-12+010999999V0203001N001019999999N0400001N1+00941+00811101361ADDAA100001091GF107991071001999999041001KA1999M+01171MD1210091+9999REMSYN076AAXX  09181 28791 12982 73001 10094 20081 40136 52009 60010 87040 333 10117;
0140287910999992000061000004+54620+072580FM-12+010999999V0203001N002012200019N0040001N1+00861+00771101551ADDAY111061AY211061GF103991031051008001001001MD1210111+9999MW1101REMSYN066AAXX  10001 28791 41596 33002 10086 20077 40155 52011 71011 83500;
0187287910999992000061006004+54620+072580FM-12+010999999V0202701N003010072019N0500001N1+01851+00971101591ADDAA199000091GA1061+007209029GF106991061021008001001001KA1120N+00791MD1210041+9999REMSYN076AAXX  10061 28791 32599 62703 10185 20097 40159 52004 86200 333 20079 86824;EQDQ01  00002PRCP99
0112287910999992000061012004+54620+072580FM-12+010999999V0202701N002010075019N0500001N1+02221+00621101611ADDGF105991051021008001001001MD1210011+9999REMSYN060AAXX  10121 28791 42599 52702 10222 20062 40161 52001 85200;
0175287910999992000061018004+54620+072580FM-12+010999999V0202001N002012200019N0400001N1+01391+00851101671ADDAA199000091GA1001+999999999GF100991001001999999001001KA1999M+02231MD1210031+9999REMSYN064AAXX  10181 28791 32982 02002 10139 20085 40167 52003 333 10223;EQDQ01  00002PRCP99
0122287910999992000061100004+54620+072580FM-12+010999999V0201401N001012200019N0500001N1+01021+00801101711ADDGA1001+999999999GF100991001001999999001001MD1210031+9999REMSYN054AAXX  11001 28791 42999 01401 10102 20080 40171 52003;
0187287910999992000061106004+54620+072580FM-12+010999999V0202001N004010081019N0500001N1+02381+00901101691ADDAA199000091GA1061+008109029GF106991061021008001001001KA1120N+00951MD1410001+9999REMSYN076AAXX  11061 28791 32599 62004 10238 20090 40169 54000 86200 333 20095 86827;EQDQ01  00002PRCP99
0112287910999992000061112004+54620+072580FM-12+010999999V0201901N005012200019N0500001N1+02551+00881101541ADDGF101991011011008001001001MD1710071+9999REMSYN060AAXX  11121 28791 42599 11905 10255 20088 40154 57007 81100;
0165287910999992000061118004+54620+072580FM-12+010999999V0201801N004012200019N0400001N1+01861+01041101591ADDAA199000091GF102991021001999999041001KA1999M+02591MD1210041+9999REMSYN070AAXX  11181 28791 32982 21804 10186 20104 40159 52004 82040 333 10259;EQDQ01  00002PRCP99
0112287910999992000061200004+54620+072580FM-12+010999999V0201701N002012200019N0500001N1+01381+01051101551ADDGF102991021001999999031001MD1710031+9999REMSYN060AAXX  12001 28791 42999 21702 10138 20105 40155 57003 82030;
0165287910999992000061206004+54620+072580FM-12+010999999V0201601N003012200019N0500001N1+02351+01331101461ADDAA199000091GF103991001001999999001091KA1999N+01341MD1710031+9999REMSYN070AAXX  12061 28791 32999 31603 10235 20133 40146 57003 80009 333 20134;EQDQ01  00002PRCP99
0112287910999992000061212004+54620+072580FM-12+010999999V0201801N002012200019N0500001N1+02661+01401101251ADDGF103991031021008001001001MD1710101+9999REMSYN060AAXX  12121 28791 42599 31802 10266 20140 40125 57010 83200;
0165287910999992000061218004+54620+072580FM-12+010999999V0201401N003019999999N0450001N1+01781+01321101391ADDAA199000091GF108991051001999999061011KA1999M+02771MD1210041+9999REMSYN070AAXX  12181 28791 32983 81403 10178 20132 40139 52004 85061 333 10277;EQDQ01  00002PRCP99
0112287910999992000061300004+54620+072580FM-12+010999999V0200701N002019999999N0500001N1+01491+01361101351ADDGF108991001001999999001031MD1710051+9999REMSYN060AAXX  13001 28791 42999 80702 10149 20136 40135 57005 80003;
0165287910999992000061306004+54620+072580FM-12+010999999V0201601N006012200019N0500001N1+02481+01091101241ADDAA199000091GF103991021011008001001011KA1999N+01411MD1710091+9999REMSYN070AAXX  13061 28791 32599 31606 10248 20109 40124 57009 82101 333 20141;EQDQ01  00002PRCP99
0138287910999992000061312004+54620+072580FM-12+010999999V0201301N004010093019N0500001N1+02541+00991101081ADDGA1061+009309029GF106991061021008001001001MD1710061+9999REMSYN070AAXX  13121 28791 42599 61304 10254 20099 40108 57006 86200 333 86831;
0175287910999992000061318004+54610+072570FM-12+010999999V0201001N002012200019N0400001N1+01521+01151101061ADDAA199000091GA1001+999999999GF100991001001999999001001KA1999M+02691MD1210031+9999REMSYN064AAXX  13181 28791 32982 01002 10152 20115 40106 52003 333 10269;EQDQ01  00002PRCP99
0112287910999992000061400004+54610+072570FM-12+010999999V0201001N003012200019N0500001N1+01461+01101100991ADDGF102991001001999999001011MD1210011+9999REMSYN060AAXX  14001 28791 42999 21003 10146 20110 40099 52001 80001;
0188287910999992000061406004+54610+072570FM-12+010999999V0201301N008019999999N0500001N1+02711+00971100791ADDAA199000091GF108991001001999999001051KA1120N+01431MD1710081+9999OA140101301REMSYN082AAXX  14061 28791 32999 81308 10271 20097 40079 57008 80005 333 20143 91013 91114;EQDQ01  00002PRCP99
0122287910999992000061412004+54610+072570FM-12+010999999V0201901N004019999999N0500001N1+02421+01401100901ADDGF108991081001999999041999MD1210081+9999REMSYN070AAXX  14121 28791 42999 81904 10242 20140 40090 52008 8804/ 333 91113;
0181287910999992000061418004+54610+072570FM-12+010999999V0201701N001019999999N0400001N1+02021+01441999999ADDAA199000091GF108991081001999999041999KA1999M+02801MD1210031+9999REMSYN070AAXX  14181 28791 32982 81701 10202 20144 40491 52003 8804/ 333 10280;EQDQ01+104913APOSLPQ02  00002PRCP99
0112287910999992000061500004+54610+072570FM-12+010999999V0202501N005010300019N0500001N1+01751+01401100741ADDGF108991031091008001041999MD1710021+9999REMSYN060AAXX  15001 28791 42599 82505 10175 20140 40074 57002 8394/;
0202287910999992000061506004+54610+072570FM-12+010999999V0202101N005010066019N0040001N1+01711+01331100791ADDAA100000791AY181061AY261061GA1081+006609099GF108991081091008001999999KA1120N+01631MD1210061+9999MW1801REMSYN088AAXX  15061 28791 11596 82105 10171 20133 40079 52006 69900 78086 889// 333 20163 88922;
0140287910999992000061512004+54610+072570FM-12+010999999V0201801N005012200019N0500001N1+02421+01051100511ADDAY181061AY211061GF104991041021012501001001MD1710171+9999MW1011REMSYN066AAXX  15121 28791 41699 41805 10242 20105 40051 57017 70181 84200;
0152287910999992000061518004+54610+072570FM-12+010999999V0201801N007019999999N0500001N1+01751+01191100581ADDAA100000791GF106991061001999999061001KA1999M+02441MD1210011+9999REMSYN076AAXX  15181 28791 12984 61807 10175 20119 40058 52001 69900 86060 333 10244;
0112287910999992000061600004+54610+072570FM-12+010999999V0201801N005019999999N0500001N1+01511+01291100551ADDGF107991031001999999031041MD1710031+9999REMSYN060AAXX  16001 28791 42999 71805 10151 20129 40055 57003 83034;
0188287910999992000061606004+54610+072570FM-12+010999999V0202501N008010750019N0500001N1+02141+01151100651ADDAA199000091GF108991041091008001001051KA1120N+01431MD1210051+9999OA140101201REMSYN082AAXX  16061 28791 32599 82508 10214 20115 40065 52005 84905 333 20143 91012 91113;EQDQ01  00002PRCP99
0144287910999992000061612004+54610+072570FM-12+010999999V0202301N006010066019N0500001N1+02511+00841100561ADDGA1061+006609099GF107991061091008001001011MD1710041+9999REMSYN076AAXX  16121 28791 42599 72306 10251 20084 40056 57004 86901 333 86922 91112;
0165287910999992000061618004+54610+072570FM-12+010999999V0202201N002012200019N0400001N1+01541+01251100771ADDAA199000091GF102991021001999999031001KA1999M+02541MD1210061+9999REMSYN070AAXX  16181 28791 32982 22202 10154 20125 40077 52006 82030 333 10254;EQDQ01  00002PRCP99
0112287910999992000061700004+54610+072570FM-12+010999999V0202401N001012200019N0500001N1+01411+01171100951ADDGF103991021001999999031041MD1210081+9999REMSYN060AAXX  17001 28791 42999 32401 10141 20117 40095 52008 82034;
0165287910999992000061706004+54610+072570FM-12+010999999V0203101N003012200019N0500001N1+02261+01021101271ADDAA199000091GF102991021011008001001001KA1999N+01351MD1210151+9999REMSYN070AAXX  17061 28791 32599 23103 10226 20102 40127 52015 82100 333 20135;EQDQ01  00002PRCP99
0112287910999992000061712004+54610+072570FM-12+010999999V0202901N005012200019N0500001N1+02551+00741101401ADDGF102991021021012501001001MD1210061+9999REMSYN060AAXX  17121 28791 42699 22905 10255 20074 40140 52006 82200;
0165287910999992000061718004+54610+072570FM-12+010999999V0209999C000012200019N0400001N1+01611+01141101681ADDAA199000091GF102991021041008001001001KA1999M+02601MD1210131+9999REMSYN070AAXX  17181 28791 32582 20000 10161 20114 40168 52013 82400 333 10260;EQDQ01  00002PRCP99
0138287910999992000061800004+54610+072570FM-12+010999999V0209999C000010075019N0500001N1+01461+01171101871ADDGA1051+007509059GF105991051051008001001001MD1210101+9999REMSYN070AAXX  18001 28791 42599 50000 10146 20117 40187 52010 85500 333 85625;
0187287910999992000061806004+54610+072570FM-12+010999999V0202001N002010090019N0500001N1+02751+01071101901ADDAA199000091GA1061+009009029GF106991061021008001001001KA1120N+01341MD1210061+9999REMSYN076AAXX  18061 28791 32599 62002 10275 20107 40190 52006 86200 333 20134 86830;EQDQ01  00002PRCP99
0112287910999992000061812004+54610+072570FM-12+010999999V0200401N002010120019N0500001N1+02961+01221101771ADDGF105991051021012501001001MD1710051+9999REMSYN060AAXX  18121 28791 42699 50402 10296 20122 40177 57005 85200;
0165287910999992000061818004+54610+072570FM-12+010999999V0201401N002012200019N0500001N1+01971+01401101891ADDAA199000091GF101991001001999999001011KA1999M+03001MD1210061+9999REMSYN070AAXX  18181 28791 32984 11402 10197 20140 40189 52006 80001 333 10300;EQDQ01  00002PRCP99
0112287910999992000061900004+54610+072570FM-12+010999999V0201401N001012200019N0500001N1+01681+01361102011ADDGF101991001001999999001011MD1210041+9999REMSYN060AAXX  19001 28791 42999 11401 10168 20136 40201 52004 80001;
0187287910999992000061906004+54610+072570FM-12+010999999V0201001N002010096019N0500001N1+02931+01431101971ADDAA199000091GA1061+009609029GF108991061021008001001041KA1120N+01541MD1410001+9999REMSYN076AAXX  19061 28791 32599 81002 10293 20143 40197 54000 86204 333 20154 86832;EQDQ01  00002PRCP99
0112287910999992000061912004+54610+072570FM-12+010999999V0200801N003012200019N0500001N1+03031+01481101841ADDGF108991011021012501001011MD1710071+9999REMSYN060AAXX  19121 28791 42699 80803 10303 20148 40184 57007 81201;
0175287910999992000061918004+54610+072570FM-12+010999999V0200601N002012200019N0400001N1+02131+01561101951ADDAA199000091GA1001+999999999GF100991001001999999001001KA1999M+03091MD1210081+9999REMSYN064AAXX  19181 28791 32982 00602 10213 20156 40195 52008 333 10309;EQDQ01  00002PRCP99
0122287910999992000062000004+54610+072570FM-12+010999999V0201101N001012200019N0500001N1+01781+01541102051ADDGA1001+999999999GF100991001001999999001001MD1210041+9999REMSYN054AAXX  20001 28791 42999 01101 10178 20154 40205 52004;
0165287910999992000062006004+54610+072570FM-12+010999999V0201201N005012200019N0500001N1+02941+01631101981ADDAA199000091GF102991021021008001001001KA1999N+01621MD1710041+9999REMSYN070AAXX  20061 28791 32599 21205 10294 20163 40198 57004 82200 333 20162;EQDQ01  00002PRCP99
0112287910999992000062012004+54610+072570FM-12+010999999V0201001N003012200019N0500001N1+03151+01541101781ADDGF102991021091008001001001MD1710101+9999REMSYN060AAXX  20121 28791 42599 21003 10315 20154 40178 57010 82900;
0175287910999992000062018004+54610+072570FM-12+010999999V0200501N002012200019N0350001N1+02471+01741101991ADDAA199000091GA1001+999999999GF100991001001999999001001KA1999M+03181MD1210151+9999REMSYN064AAXX  20181 28791 32981 00502 10247 20174 40199 52015 333 10318;EQDQ01  00002PRCP99
0122287910999992000062100004+54610+072570FM-12+010999999V0200801N001012200019N0500001N1+02001+01771102041ADDGA1001+999999999GF100991001001999999001001MD1210061+9999REMSYN054AAXX  21001 28791 42999 00801 10200 20177 40204 52006;
0165287910999992000062106004+54610+072570FM-12+010999999V0200501N002012200019N0500001N1+03061+01661102111ADDAA199000091GF103991031021008001001001KA1999N+01931MD1210021+9999REMSYN070AAXX  21061 28791 32599 30502 10306 20166 40211 52002 83200 333 20193;EQDQ01  00002PRCP99
0140287910999992000062112004+54610+072570FM-12+010999999V0202901N002019999999N0500001N1+02791+01871101951ADDAY191061AY281061GF108991001001999999001041MD1710101+9999MW1021REMSYN066AAXX  21121 28791 41999 82902 10279 20187 40195 57010 70298 80004;
0152287910999992000062118004+54610+072570FM-12+010999999V0200301N001019999999N0500001N1+02251+01901102001ADDAA100000791GF108991001001999999001011KA1999M+03111MD1710061+9999REMSYN076AAXX  21181 28791 12984 80301 10225 20190 40200 57006 69900 80001 333 10311;
0122287910999992000062200004+54610+072570FM-12+010999999V0200601N001012200019N0500001N1+02001+01741101961ADDGA1001+999999999GF100991001001999999001001MD1710031+9999REMSYN054AAXX  22001 28791 42999 00601 10200 20174 40196 57003;
0175287910999992000062206004+54610+072570FM-12+010999999V0200601N004012200019N0500001N1+03041+01771101861ADDAA199000091GA1001+999999999GF100991001001999999001001KA1999N+01851MD1710061+9999REMSYN064AAXX  22061 28791 32999 00604 10304 20177 40186 57006 333 20185;EQDQ01  00002PRCP99
0112287910999992000062212004+54610+072570FM-12+010999999V0200801N002012200019N0500001N1+03201+01551101521ADDGF108991011091008001001011MD1710141+9999REMSYN060AAXX  22121 28791 42599 80802 10320 20155 40152 57014 81901;
0165287910999992000062218004+54610+072570FM-12+010999999V0200501N002019999999N0400001N1+02241+01871101471ADDAA199000091GF108991001001999999001011KA1999M+03241MD1710021+9999REMSYN070AAXX  22181 28791 32982 80502 10224 20187 40147 57002 80001 333 10324;EQDQ01  00002PRCP99
0122287910999992000062300004+54610+072570FM-12+010999999V0200701N001012200019N0500001N1+01981+01721101421ADDGA1001+999999999GF100991001001999999001001MD1710041+9999REMSYN054AAXX  23001 28791 42999 00701 10198 20172 40142 57004;
0175287910999992000062306004+54610+072570FM-12+010999999V0201101N002012200019N0500001N1+02961+01641101281ADDAA199000091GA1001+999999999GF100991001001999999001001KA1999N+01831MD1710061+9999REMSYN064AAXX  23061 28791 32999 01102 10296 20164 40128 57006 333 20183;EQDQ01  00002PRCP99
0112287910999992000062312004+54610+072570FM-12+010999999V0201101N002012200019N0500001N1+03201+01371101001ADDGF102991021091008001001001MD1710151+9999REMSYN060AAXX  23121 28791 42599 21102 10320 20137 40100 57015 82900;
0175287910999992000062318004+54610+072570FM-12+010999999V0209999C000012200019N0400001N1+02231+01681100981ADDAA199000091GA1001+999999999GF100991001001999999001001KA1999M+03211MD1710021+9999REMSYN064AAXX  23181 28791 32982 00000 10223 20168 40098 57002 333 10321;EQDQ01  00002PRCP99
0112287910999992000062400004+54610+072570FM-12+010999999V0209999C000012200019N0500001N1+01921+01511100951ADDGF102991011091008001041001MD1710031+9999REMSYN060AAXX  24001 28791 42599 20000 10192 20151 40095 57003 81940;
0165287910999992000062406004+54610+072570FM-12+010999999V0200601N003012200019N0500001N1+03091+01461100861ADDAA199000091GF102991021021008001001001KA1999N+01791MD1710021+9999REMSYN070AAXX  24061 28791 32599 20603 10309 20146 40086 57002 82200 333 20179;EQDQ01  00002PRCP99
0140287910999992000062412004+54610+072570FM-12+010999999V0200501N006010075019N0500001N1+02721+01881100821ADDAY191061AY281061GF107991051091008001001041MD1210101+9999MW1021REMSYN066AAXX  24121 28791 41599 70506 10272 20188 40082 52010 70298 85904;
0180287910999992000062418004+54610+072570FM-12+010999999V0200701N007012200019N0500001N1+02291+01831101001ADDAA100002091AY121061AY221061GF108991021091004501001011KA1999M+03291MD1210131+9999MW1131REMSYN082AAXX  24181 28791 11484 80707 10229 20183 40100 52013 60020 71322 82901 333 10329;
0112287910999992000062500004+54610+072570FM-12+010999999V0200801N005012200019N0500001N1+01921+01571101241ADDGF102991001001999999001011MD1210161+9999REMSYN060AAXX  25001 28791 42999 20805 10192 20157 40124 52016 80001;
0188287910999992000062506004+54610+072570FM-12+010999999V0201001N008012200019N0500001N1+02471+01191101361ADDAA199000091GF102991001001999999001011KA1120N+01891MD1210031+9999OA140101201REMSYN082AAXX  25061 28791 32999 21008 10247 20119 40136 52003 80001 333 20189 91012 91112;EQDQ01  00002PRCP99
0132287910999992000062512004+54610+072570FM-12+010999999V0200901N006012200019N0500001N1+02701+01591101221ADDGA1001+999999999GF100991001001999999001001MD1710051+9999REMSYN064AAXX  25121 28791 42999 00906 10270 20159 40122 57005 333 91114;
0175287910999992000062518004+54610+072570FM-12+010999999V0200901N007012200019N0400001N1+01941+00921101291ADDAA199000091GA1001+999999999GF100991001001999999001001KA1999M+02771MD1210021+9999REMSYN064AAXX  25181 28791 32982 00907 10194 20092 40129 52002 333 10277;EQDQ01  00002PRCP99
0122287910999992000062600004+54610+072570FM-12+010999999V0201001N005012200019N0500001N1+01521+00451101391ADDGA1001+999999999GF100991001001999999001001MD1710011+9999REMSYN054AAXX  26001 28791 42999 01005 10152 20045 40139 57001;
0175287910999992000062606004+54610+072570FM-12+010999999V0201101N007012200019N0500001N1+02461+00701100961ADDAA199000091GA1001+999999999GF100991001001999999001001KA1999N+01451MD1710131+9999REMSYN064AAXX  26061 28791 32999 01107 10246 20070 40096 57013 333 20145;EQDQ01  00002PRCP99
0139287910999992000062612004+54610+072570FM-12+010999999V0201101N008019999999N0500001N1+02841+00301100741ADDGF106991001001999999001041MD1710061+9999OA140101201REMSYN076AAXX  26121 28791 42999 61108 10284 20030 40074 57006 80004 333 91012 91113;
0171287910999992000062618004+54610+072570FM-12+010999999V0200901N004019999999N0400001N1+02121+00671100691ADDAA199000091GF107991071001999999071001KA1120M+02901MD1710041+9999REMSYN076AAXX  26181 28791 32982 70904 10212 20067 40069 57004 87070 333 10290 91112;EQDQ01  00002PRCP99
0112287910999992000062700004+54610+072570FM-12+010999999V0201101N002010300019N0500001N1+01921+00841100601ADDGF106991041091008001081001MD1710061+9999REMSYN060AAXX  27001 28791 42599 61102 10192 20084 40060 57006 84980;
0202287910999992000062706004+54610+072570FM-12+010999999V0200701N006010072019N0500001N1+02121+01151100471ADDAA100000791AY191061AY281061GA1061+007209059GF108991061041008001051999KA1120N+01651MD1710151+9999MW1021REMSYN088AAXX  27061 28791 11599 80706 10212 20115 40047 57015 69900 70298 8645/ 333 20165 86624;
0112287910999992000062712004+54610+072570FM-12+010999999V0201101N005019999999N0500001N1+02811+01301100591ADDGF108991001001999999001011MD1210091+9999REMSYN060AAXX  27121 28791 42999 81105 10281 20130 40059 52009 80001;
0165287910999992000062718004+54610+072570FM-12+010999999V0200501N003019999999N0500001N1+01941+01341100501ADDAA199000091GF108991021001999999041011KA1999M+02831MD1710021+9999REMSYN070AAXX  27181 28791 32984 80503 10194 20134 40050 57002 82041 333 10283;EQDQ01  00002PRCP99
0112287910999992000062800004+54610+072570FM-12+010999999V0200601N003019999999N0500001N1+01841+01311100541ADDGF108991081001999999051999MD1210031+9999REMSYN060AAXX  28001 28791 42999 80603 10184 20131 40054 52003 8805/;
0165287910999992000062806004+54610+072570FM-12+010999999V0200501N005019999999N0500001N1+02231+01491100461ADDAA199000091GF108991081001999999041999KA1999N+01781MD1710081+9999REMSYN070AAXX  28061 28791 32999 80505 10223 20149 40046 57008 8804/ 333 20178;EQDQ01  00002PRCP99
0139287910999992000062812004+54610+072570FM-12+010999999V0200601N009019999999N0500001N1+02531+01601100381ADDGF106991001001999999001041MD1710061+9999OA140101301REMSYN076AAXX  28121 28791 42999 60609 10253 20160 40038 57006 80004 333 91013 91114;
0188287910999992000062818004+54610+072570FM-12+010999999V0200601N009019999999N0500001N1+01981+01511100411ADDAA199000091GF108991081001999999041999KA1120M+02121MD1410001+9999OA140101301REMSYN082AAXX  28181 28791 32984 80609 10198 20151 40041 54000 8804/ 333 10212 91013 91113;EQDQ01  00002PRCP99
0138287910999992000062900004+54610+072570FM-12+010999999V0200601N008010045019N0500001N1+01621+01291100501ADDGA1061+004509069GF108991061071004501041999MD1210081+9999REMSYN070AAXX  29001 28791 42499 80608 10162 20129 40050 52008 8674/ 333 86715;
0193287910999992000062906004+54610+072570FM-12+010999999V0200801N007010072019N0500001N1+01791+01371100571ADDAA199000091GA1081+007209069GF108991081051008001999999KA1120N+01591MD1210051+9999REMSYN082AAXX  29061 28791 32599 80807 10179 20137 40057 52005 885// 333 20159 88624 91112;EQDQ01  00002PRCP99
0140287910999992000062912004+54610+072570FM-12+010999999V0200501N005010300019N0040001N1+01661+01431100781ADDAY161061AY221061GF108991021051008001071999MD1210061+9999MW1611REMSYN066AAXX  29121 28791 41596 80505 10166 20143 40078 52006 76162 8257/;
0133287910999992000062918004+54610+072570FM-12+010999999V0200901N002019999999N0400001N1+01481+01301100871ADDGF108991999999999999999999MD1210071+9999REMSYN081AAXX  29181 28791 11982 80902 10148 20130 40087 52007 6000 70262 8804/ 333 10180;
0112287910999992000063000004+54610+072570FM-12+010999999V0200901N002019999999N0500001N1+01341+01031100941ADDGF107991071001999999031001MD1210081+9999REMSYN060AAXX  30001 28791 42999 70902 10134 20103 40094 52008 87030;
0174287910999992000063006004+54610+072570FM-12+010999999V0200401N007010087019N0500001N1+02061+00811101111ADDAA100000791GA1061+008709029GF108991061021008001001011KA1120N+01321MD1210131+9999REMSYN082AAXX  30061 28791 12599 80407 10206 20081 40111 52013 69900 86201 333 20132 86829;
0112287910999992000063012004+54610+072570FM-12+010999999V0200501N005012200019N0500001N1+02071+00511101301ADDGF108991031021008001001011MD1210121+9999REMSYN060AAXX  30121 28791 42599 80505 10207 20051 40130 52012 83201;
0165287910999992000063018004+54610+072570FM-12+010999999V0203301N002012200019N0500001N1+01251+00641101501ADDAA199000091GF102991021001999999041001KA1999M+02241MD1210071+9999REMSYN070AAXX  30181 28791 32984 23302 10125 20064 40150 52007 82040 333 10224;EQDQ01  00002PRCP99
0112287910999992000070100004+54610+072570FM-12+010999999V0203601N001012200019N0500001N1+01151+00711101611ADDGF102991021001999999081001MD1210051+9999REMSYN060AAXX  01001 28791 42999 23601 10115 20071 40161 52005 82080;
0165287910999992000070106004+54610+072570FM-12+010999999V0202601N004012200019N0500001N1+02081+00461101591ADDAA199000091GF102991021011008001001001KA1999N+00981MD1710041+9999REMSYN070AAXX  01061 28791 32599 22604 10208 20046 40159 57004 82100 333 20098;EQDQ01  00002PRCP99
0112287910999992000070112004+54610+072570FM-12+010999999V0202701N003010750019N0500001N1+02241+00551101461ADDGF108991021021012501001051MD1710071+9999REMSYN060AAXX  01121 28791 42699 82703 10224 20055 40146 57007 82205;
0165287910999992000070118004+54610+072570FM-12+010999999V0209999C000012200019N0350001N1+01491+00741101491ADDAA199000091GF103991031041008001001011KA1999M+02371MD1210011+9999REMSYN070AAXX  01181 28791 32581 30000 10149 20074 40149 52001 83401 333 10237;EQDQ01  00002PRCP99
0112287910999992000070200004+54610+072570FM-12+010999999V0209999C000012200019N0500001N1+01321+00701101521ADDGF101991011001999999041001MD1210011+9999REMSYN060AAXX  02001 28791 42999 10000 10132 20070 40152 52001 81040;
0165287910999992000070206004+54610+072570FM-12+010999999V0202901N003012200019N0500001N1+02301+00461101451ADDAA199000091GF102991021011008001001001KA1999N+01081MD1710071+9999REMSYN070AAXX  02061 28791 32599 22903 10230 20046 40145 57007 82100 333 20108;EQDQ01  00002PRCP99
0112287910999992000070212004+54610+072570FM-12+010999999V0203001N003012200019N0500001N1+02621+00821101261ADDGF101991011021008001001001MD1710091+9999REMSYN060AAXX  02121 28791 42599 13003 10262 20082 40126 57009 81200;
0175287910999992000070218004+54610+072570FM-12+010999999V0209999C000012200019N0400001N1+01751+01141101301ADDAA199000091GA1001+999999999GF100991001001999999001001KA1999M+02631MD1210041+9999REMSYN064AAXX  02181 28791 32982 00000 10175 20114 40130 52004 333 10263;EQDQ01  00002PRCP99
0122287910999992000070300004+54610+072570FM-12+010999999V0202901N001012200019N0500001N1+01371+01111101231ADDGA1001+999999999GF100991001001999999001001MD1710021+9999REMSYN054AAXX  03001 28791 42999 02901 10137 20111 40123 57002;
0187287910999992000070306004+54610+072570FM-12+010999999V0202101N004010093019N0500001N1+02771+01041101071ADDAA199000091GA1061+009309029GF106991061021008001001011KA1120N+01231MD1710091+9999REMSYN076AAXX  03061 28791 32599 62104 10277 20104 40107 57009 86201 333 20123 86831;EQDQ01  00002PRCP99
0138287910999992000070312004+54610+072570FM-12+010999999V0202601N002010084019N0500001N1+02881+01051100861ADDGA1061+008409029GF106991061021008001001001MD1710121+9999REMSYN070AAXX  03121 28791 42599 62602 10288 20105 40086 57012 86200 333 86828;
0165287910999992000070318004+54610+072570FM-12+010999999V0202001N002012200019N0500001N1+01911+01091100931ADDAA199000091GF102991001001999999001011KA1999M+02951MD1410001+9999REMSYN070AAXX  03181 28791 32984 22002 10191 20109 40093 54000 80001 333 10295;EQDQ01  00002PRCP99
0112287910999992000070400004+54610+072570FM-12+010999999V0201801N001019999999N0500001N1+01621+01141100801ADDGF106991021001999999081041MD1710121+9999REMSYN060AAXX  04001 28791 42999 61801 10162 20114 40080 57012 82084;
0165287910999992000070406004+54610+072570FM-12+010999999V0201801N003010750019N0500001N1+02731+01371100711ADDAA199000091GF108991021051008001001091KA1999N+01321MD1710051+9999REMSYN070AAXX  04061 28791 32599 81803 10273 20137 40071 57005 82509 333 20132;EQDQ01  00002PRCP99
0122287910999992000070412004+54610+072570FM-12+010999999V0202201N006010300019N0500001N1+02971+00681100531ADDGF108991011091008001041999MD1710061+9999REMSYN070AAXX  04121 28791 42599 82206 10297 20068 40053 57006 8194/ 333 91112;
0165287910999992000070418004+54610+072570FM-12+010999999V0202001N003012200019N0400001N1+02051+01451100511ADDAA199000091GF101991011041008001001001KA1999M+03151MD1410001+9999REMSYN070AAXX  04181 28791 32582 12003 10205 20145 40051 54000 81400 333 10315;EQDQ01  00002PRCP99
0112287910999992000070500004+54610+072570FM-12+010999999V0202201N003019999999N0500001N1+01891+01421100621ADDGF108991001001999999001041MD1210071+9999REMSYN060AAXX  05001 28791 42999 82203 10189 20142 40062 52007 80004;
0165287910999992000070506004+54610+072570FM-12+010999999V0202401N006019999999N0500001N1+03021+01171100501ADDAA199000091GF105991051001999999041011KA1999N+01741MD1710081+9999REMSYN070AAXX  05061 28791 32999 52406 10302 20117 40050 57008 85041 333 20174;EQDQ01  00002PRCP99
0122287910999992000070512004+54610+072570FM-12+010999999V0202401N006010300019N0500001N1+03001+00971100441ADDGF108991021091008001041051MD1710021+9999REMSYN070AAXX  05121 28791 42599 82406 10300 20097 40044 57002 82945 333 91112;
0165287910999992000070518004+54610+072570FM-12+010999999V0209999C000012200019N0400001N1+01861+01451100601ADDAA199000091GF102991021001999999041001KA1999M+03231MD1210031+9999REMSYN070AAXX  05181 28791 32982 20000 10186 20145 40060 52003 82040 333 10323;EQDQ01  00002PRCP99
0165287910999992000070606004+54610+072570FM-12+010999999V0201601N007012200019N0500001N1+03131+01221099921ADDAA199000091GF106991031091008001001011KA1999N+01531MD1710321+9999REMSYN070AAXX  06061 28791 32599 61607 10313 20122 49992 57032 83901 333 20153;EQDQ01  00002PRCP99
0167287910999992000070612004+54610+072570FM-12+010999999V0202301N00901220001CN0500001N1+02981+00981099721ADDAY191061AY281061GF108991031091008001001041MD1210061+9999MW1021OA140101401REMSYN082AAXX  06121 28791 41599 82309 10298 20098 49972 52006 70298 83904 333 91014 91114;
0158287910999992000070618004+54610+072570FM-12+010999999V0201501N004012200019N0500001N1+01981+01201099701ADDAA100000591GF103991001001999999001011KA1120M+03361MD1710081+9999REMSYN082AAXX  06181 28791 12984 31504 10198 20120 49970 57008 69950 80001 333 10336 91114;
0138287910999992000070700004+54610+072570FM-12+010999999V0202201N006010045019N0500001N1+01441+01061099641ADDGA1071+004509069GF107991071051004501001001MD1210021+9999REMSYN070AAXX  07001 28791 42499 72206 10144 20106 49964 52002 87500 333 87715;
0210287910999992000070706004+54610+072570FM-12+010999999V0202401N008010087019N0500001N1+01551+00981099931ADDAA199000091GA1081+008709069GF108991081051008001999999KA1120N+01401MD1210171+9999OA140101201REMSYN088AAXX  07061 28791 32599 82408 10155 20098 49993 52017 885// 333 20140 88629 91012 91114;EQDQ01  00002PRCP99
0161287910999992000070712004+54610+072570FM-12+010999999V0202601N009010078019N0500001N1+01491+00841100251ADDGA1081+007809069GF108991081051008001999999MD1210151+9999OA140101401REMSYN082AAXX  07121 28791 42599 82609 10149 20084 40025 52015 885// 333 88626 91014 91114;
0202287910999992000070718004+54610+072570FM-12+010999999V0202901N006010051019N0070001N1+01101+01061100611ADDAA199000021AY151061AY221061GA1081+005109079GF108991081051004501999999KA1120M+01621MD1210181+9999MW1511REMSYN088AAXX  07181 28791 31457 82906 10110 20106 40061 52018 75152 885// 333 10162 88717 91114;
0112287910999992000070800004+54610+072570FM-12+010999999V0202901N003019999999N0500001N1+01031+00861100941ADDGF108991001001999999001091MD1210161+9999REMSYN060AAXX  08001 28791 42999 82903 10103 20086 40094 52016 80009;
0152287910999992000070806004+54610+072570FM-12+010999999V0202901N005012200019N0500001N1+01911+00271101131ADDAA100000791GF103991031021008001001001KA1999N+01001MD1210081+9999REMSYN076AAXX  08061 28791 12599 32905 10191 20027 40113 52008 69900 83200 333 20100;
0112287910999992000070812004+54610+072570FM-12+010999999V0202701N004019999999N0500001N1+02231+00291101081ADDGF106991001001999999001041MD1710041+9999REMSYN060AAXX  08121 28791 42999 62704 10223 20029 40108 57004 80004;
0165287910999992000070818004+54610+072570FM-12+010999999V0202501N001019999999N0400001N1+01421+00801101211ADDAA199000091GF108991021001999999031051KA1999M+02251MD1210041+9999REMSYN070AAXX  08181 28791 32982 82501 10142 20080 40121 52004 82035 333 10225;EQDQ01  00002PRCP99
0112287910999992000070900004+54610+072570FM-12+010999999V0209999C000019999999N0500001N1+01181+00771101231ADDGF108991081001999999041999MD1210031+9999REMSYN060AAXX  09001 28791 42999 80000 10118 20077 40123 52003 8804/;
0165287910999992000070906004+54610+072570FM-12+010999999V0201101N002019999999N0500001N1+02061+00611101201ADDAA199000091GF107991071001999999051001KA1999N+01031MD1710031+9999REMSYN070AAXX  09061 28791 32999 71102 10206 20061 40120 57003 87050 333 20103;EQDQ01  00002PRCP99
0112287910999992000070912004+54610+072570FM-12+010999999V0200701N002019999999N0500001N1+02251+00561101001ADDGF108991081001999999051999MD1710101+9999REMSYN060AAXX  09121 28791 42999 80702 10225 20056 40100 57010 8805/;
0165287910999992000070918004+54610+072570FM-12+010999999V0203501N002019999999N0400001N1+01771+00951100951ADDAA199000091GF108991081001999999071999KA1999M+02361MD1410001+9999REMSYN070AAXX  09181 28791 32982 83502 10177 20095 40095 54000 8807/ 333 10236;EQDQ01  00002PRCP99
0140287910999992000071000004+54610+072570FM-12+010999999V0209999C000019999999N0040001N1+01601+99999100911ADDAY161061AY221061GF108991081001999999021999MD1210051+9999MW1611REMSYN066AAXX  10001 28791 41996 80000 10160 20197 40091 52005 76162 8802/;
0119287910999992000071006004+54610+072570FM-12+010999999V0200601N005019999999N0040001N1+01801+01281999999ADDGF108991999999999999999999REMSYN081AAXX  10061 28791 11996 80605 10180 20128 4003 57009 69900 76162 8807/ 333 20152;
0140287910999992000071012004+54610+072570FM-12+010999999V0200601N005010300019N0500001N1+02161+01221100551ADDAY161061AY221061GF108991041051008001021999MD1710081+9999MW1021REMSYN066AAXX  10121 28791 41599 80605 10216 20122 40055 57008 70262 8452/;
0202287910999992000071018004+54610+072570FM-12+010999999V0200601N005010078019N0400001N1+01791+00931100511ADDAA100000791AY161061AY221061GA1081+007809029GF108991081051008001999999KA1120M+02321MD1710061+9999MW1021REMSYN088AAXX  10181 28791 32582 80605 10179 20093 40051 57006 69900 70262 885// 333 10232 88526;
0138287910999992000071100004+54610+072570FM-12+010999999V0200701N004010081019N0500001N1+01721+01091100441ADDGA1081+008109059GF108991081051008001999999MD1710081+9999REMSYN070AAXX  11001 28791 42599 80704 10172 20109 40044 57008 885// 333 88627;
0215287910999992000071106004+54610+072570FM-12+010999999V0200301N999990075019N0500001N1+01821+01251100421ADDAA199000021AY161061AY221061GA1081+007509059GF108991081051008001999999KA1120N+01551MD1710011+9999MW1211REMSYN082AAXX  11061 28791 31599 80395 10182 20125 40042 57001 72162 885// 333 20155 88625;EQDQ01+009501WOSPD 
0112287910999992000071112004+54610+072570FM-12+010999999V0200701N007010750019N0500001N1+02431+00801100291ADDGF106991031041008001001051MD1710031+9999REMSYN060AAXX  11121 28791 42599 60707 10243 20080 40029 57003 83405;
0174287910999992000071118004+54610+072570FM-12+010999999V0200701N003010072019N0400001N1+01861+01131100431ADDAA100000791GA1081+007209059GF108991081051008001999999KA1120M+02531MD1710011+9999REMSYN082AAXX  11181 28791 12582 80703 10186 20113 40043 57001 69900 885// 333 10253 88624;
0112287910999992000071200004+54610+072570FM-12+010999999V0200901N004012200019N0500001N1+01651+01151100471ADDGF107991041091008001001011MD1210011+9999REMSYN060AAXX  12001 28791 42599 70904 10165 20115 40047 52001 84901;
0188287910999992000071206004+54610+072570FM-12+010999999V0200801N008019999999N0500001N1+02361+00921100531ADDAA199000091GF108991021001999999041011KA1120N+01601MD1210051+9999OA140101201REMSYN082AAXX  12061 28791 32999 80808 10236 20092 40053 52005 82041 333 20160 91012 91112;EQDQ01  00002PRCP99
0139287910999992000071212004+54610+072570FM-12+010999999V0200601N009012200019N0500001N1+02721+00301100501ADDGF103991001001999999001091MD1710021+9999OA140101301REMSYN076AAXX  12121 28791 42999 30609 10272 20030 40050 57002 80009 333 91013 91113;
0171287910999992000071218004+54610+072570FM-12+010999999V0201801N002012200019N0500001N1+01981+01171100771ADDAA199000091GF101991011001999999041001KA1120M+02811MD1210101+9999REMSYN076AAXX  12181 28791 32984 11802 10198 20117 40077 52010 81040 333 10281 91113;EQDQ01  00002PRCP99
0112287910999992000071300004+54610+072570FM-12+010999999V0200301N003012200019N0500001N1+01641+01141100901ADDGF101991001001999999001011MD1210061+9999REMSYN060AAXX  13001 28791 42999 10303 10164 20114 40090 52006 80001;
0165287910999992000071306004+54610+072570FM-12+010999999V0200601N006019999999N0500001N1+02541+00891101051ADDAA199000091GF105991001001999999001011KA1999N+01601MD1210051+9999REMSYN070AAXX  13061 28791 32999 50606 10254 20089 40105 52005 80001 333 20160;EQDQ01  00002PRCP99
0112287910999992000071312004+54610+072570FM-12+010999999V0200401N006012200019N0500001N1+02641+00481101041ADDGF102991001001999999001011MD1710011+9999REMSYN060AAXX  13121 28791 42999 20406 10264 20048 40104 57001 80001;
0175287910999992000071318004+54610+072570FM-12+010999999V0201401N002012200019N0500001N1+01821+00711101261ADDAA199000091GA1001+999999999GF100991001001999999001001KA1999M+02711MD1210101+9999REMSYN064AAXX  13181 28791 32984 01402 10182 20071 40126 52010 333 10271;EQDQ01  00002PRCP99
0122287910999992000071400004+54610+072570FM-12+010999999V0203401N002012200019N0500001N1+01361+00761101471ADDGA1001+999999999GF100991001001999999001001MD1210101+9999REMSYN054AAXX  14001 28791 42999 03402 10136 20076 40147 52010;
0175287910999992000071406004+54610+072570FM-12+010999999V0203001N004012200019N0500001N1+02731+00991101231ADDAA199000091GA1001+999999999GF100991001001999999001001KA1999N+01341MD1710221+9999REMSYN064AAXX  14061 28791 32999 03004 10273 20099 40123 57022 333 20134;EQDQ01  00002PRCP99
0112287910999992000071412004+54610+072570FM-12+010999999V0201001N007010075019N0500001N1+02821+01041100991ADDGF105991051091008001001001MD1710061+9999REMSYN060AAXX  14121 28791 42599 51007 10282 20104 40099 57006 85900;
0175287910999992000071418004+54610+072570FM-12+010999999V0200501N007012200019N0400001N1+01791+00861101341ADDAA199000091GA1001+999999999GF100991001001999999001001KA1999M+02971MD1210211+9999REMSYN064AAXX  14181 28791 32982 00507 10179 20086 40134 52021 333 10297;EQDQ01  00002PRCP99
0112287910999992000071500004+54610+072570FM-12+010999999V0201101N004012200019N0500001N1+01001+00591101611ADDGF101991011001999999031001MD1210161+9999REMSYN060AAXX  15001 28791 42999 11104 10100 20059 40161 52016 81030;
0187287910999992000071506004+54610+072570FM-12+010999999V0200301N006010075019N0500001N1+01491+00551101701ADDAA199000091GA1081+007509059GF108991081051008001999999KA1120N+00931MD1210081+9999REMSYN076AAXX  15061 28791 32599 80306 10149 20055 40170 52008 885// 333 20093 88625;EQDQ01  00002PRCP99
0138287910999992000071512004+54610+072570FM-12+010999999V0200501N007010078019N0500001N1+01691+00501101751ADDGA1071+007809059GF107991071051008001001001MD1210031+9999REMSYN070AAXX  15121 28791 42599 70507 10169 20050 40175 52003 87500 333 87626;
0175287910999992000071518004+54610+072570FM-12+010999999V0200401N001012200019N0400001N1+01281+00701101841ADDAA199000091GA1001+999999999GF100991001001999999001001KA1999M+01701MD1210011+9999REMSYN064AAXX  15181 28791 32982 00401 10128 20070 40184 52001 333 10170;EQDQ01  00002PRCP99
0112287910999992000071600004+54610+072570FM-12+010999999V0200601N001012200019N0500001N1+01051+00761101881ADDGF102991021001999999041001MD1210011+9999REMSYN060AAXX  16001 28791 42999 20601 10105 20076 40188 52001 82040;
0187287910999992000071606004+54610+072570FM-12+010999999V0202901N003010084019N0500001N1+02051+00761101711ADDAA199000091GA1061+008409029GF106991061021008001001001KA1120N+00941MD1710061+9999REMSYN076AAXX  16061 28791 32599 62903 10205 20076 40171 57006 86200 333 20094 86828;EQDQ01  00002PRCP99
0138287910999992000071612004+54610+072570FM-12+010999999V0202301N004010084019N0500001N1+02351+00431101541ADDGA1061+008409029GF106991061011008001001001MD1710061+9999REMSYN070AAXX  16121 28791 42599 62304 10235 20043 40154 57006 86100 333 86828;
0175287910999992000071618004+54610+072570FM-12+010999999V0203001N002012200019N0400001N1+01481+00731101651ADDAA199000091GA1001+999999999GF100991001001999999001001KA1999M+02461MD1210041+9999REMSYN064AAXX  16181 28791 32982 03002 10148 20073 40165 52004 333 10246;EQDQ01  00002PRCP99
0112287910999992000071700004+54610+072570FM-12+010999999V0202901N003010075019N0500001N1+01521+00731101571ADDGF105991051091008001001001MD1710041+9999REMSYN060AAXX  17001 28791 42599 52903 10152 20073 40157 57004 85900;
0165287910999992000071706004+54610+072570FM-12+010999999V0202901N003010075019N0500001N1+02311+01041101561ADDAA199000091GF105991051021008001001001KA1999N+01411MD1210021+9999REMSYN070AAXX  17061 28791 32599 52903 10231 20104 40156 52002 85200 333 20141;EQDQ01  00002PRCP99
0112287910999992000071712004+54610+072570FM-12+010999999V0200401N003012200019N0500001N1+02551+00981101391ADDGF106991031091008001001041MD1710101+9999REMSYN060AAXX  17121 28791 42599 60403 10255 20098 40139 57010 83904;
0187287910999992000071718004+54610+072570FM-12+010999999V0209999C000010069019N0400001N1+01881+01351101501ADDAA199000091GA1081+006909099GF108991081091008001999999KA1120M+02591MD1410001+9999REMSYN076AAXX  17181 28791 32582 80000 10188 20135 40150 54000 889// 333 10259 88923;EQDQ01  00002PRCP99
0166287910999992000071800004+54610+072570FM-12+010999999V0203101N003010066019N0500001N1+01661+00981101301ADDAY181061AY221061GA1081+006609099GF108991081091008001999999MD1710111+9999MW1021REMSYN076AAXX  18001 28791 41599 83103 10166 20098 40130 57011 70282 889// 333 88922;
0174287910999992000071806004+54610+072570FM-12+010999999V0203201N001010063019N0500001N1+02191+01481101241ADDAA100000791GA1061+006309099GF106991061091008001001001KA1120N+01631MD1210011+9999REMSYN082AAXX  18061 28791 12599 63201 10219 20148 40124 52001 69900 86900 333 20163 86921;
0138287910999992000071812004+54610+072570FM-12+010999999V0202701N003010069019N0500001N1+02631+01321100961ADDGA1061+006909099GF106991061091008001001001MD1710101+9999REMSYN070AAXX  18121 28791 42599 62703 10263 20132 40096 57010 86900 333 86923;
0193287910999992000071818004+54610+072570FM-12+010999999V0203001N001010300019N0400001N1+02011+01471101011ADDAA199000091AY111061AY211061GF108991031091008001041999KA1999M+02721MD1710051+9999MW1131REMSYN076AAXX  18181 28791 31582 83001 10201 20147 40101 57005 71311 8394/ 333 10272;EQDQ01  00002PRCP99
0140287910999992000071900004+54610+072570FM-12+010999999V0203001N002010300019N0500001N1+01691+01591100991ADDAY181061AY221061GF107991011091008001041001MD1210031+9999MW1021REMSYN066AAXX  19001 28791 41599 73002 10169 20159 40099 52003 70282 81940;
0152287910999992000071906004+54610+072570FM-12+010999999V0201401N004010075019N0500001N1+02301+01641100991ADDAA100002091GF105991051091008001001001KA1999N+01651MD1210021+9999REMSYN076AAXX  19061 28791 12599 51404 10230 20164 40099 52002 60020 85900 333 20165;
0138287910999992000071912004+54610+072570FM-12+010999999V0200601N005010066019N0500001N1+02491+01221101141ADDGA1061+006609099GF106991061091008001001001MD1210141+9999REMSYN070AAXX  19121 28791 42599 60605 10249 20122 40114 52014 86900 333 86922;
0165287910999992000071918004+54610+072570FM-12+010999999V0200701N003019999999N0400001N1+01951+01131101491ADDAA199000091GF108991081001999999071999KA1999M+02671MD1210141+9999REMSYN070AAXX  19181 28791 32982 80703 10195 20113 40149 52014 8807/ 333 10267;EQDQ01  00002PRCP99
0122287910999992000072000004+54610+072570FM-12+010999999V0201301N002012200019N0500001N1+01271+00951101791ADDGA1001+999999999GF100991001001999999001001MD1210141+9999REMSYN054AAXX  20001 28791 42999 01302 10127 20095 40179 52014;
0165287910999992000072006004+54610+072570FM-12+010999999V0200901N004012200019N0500001N1+02271+00861101921ADDAA199000091GF101991011011012501001001KA1999N+01251MD1210011+9999REMSYN070AAXX  20061 28791 32699 10904 10227 20086 40192 52001 81100 333 20125;EQDQ01  00002PRCP99
0122287910999992000072012004+54610+072570FM-12+010999999V0202001N002012200019N0500001N1+02471+00771101861ADDGA1001+999999999GF100991001001999999001001MD1410001+9999REMSYN054AAXX  20121 28791 42999 02002 10247 20077 40186 54000;
0175287910999992000072018004+54610+072570FM-12+010999999V0200701N002012200019N0400001N1+01641+00811102101ADDAA199000091GA1001+999999999GF100991001001999999001001KA1999M+02521MD1210111+9999REMSYN064AAXX  20181 28791 32982 00702 10164 20081 40210 52011 333 10252;EQDQ01  00002PRCP99
0112287910999992000072100004+54610+072570FM-12+010999999V0201101N001012200019N0500001N1+01141+00851102321ADDGF102991001001999999001011MD1210101+9999REMSYN060AAXX  21001 28791 42999 21101 10114 20085 40232 52010 80001;
0165287910999992000072106004+54610+072570FM-12+010999999V0201401N002012200019N0500001N1+02121+00621102201ADDAA199000091GF101991001001999999001011KA1999N+01101MD1710081+9999REMSYN070AAXX  21061 28791 32999 11402 10212 20062 40220 57008 80001 333 20110;EQDQ01  00002PRCP99
0112287910999992000072112004+54610+072570FM-12+010999999V0201201N001012200019N0500001N1+02531+00781101881ADDGF106991031021008001001041MD1710151+9999REMSYN060AAXX  21121 28791 42599 61201 10253 20078 40188 57015 83204;
0180287910999992000072118004+54610+072570FM-12+010999999V0201401N002019999999N0400001N1+01691+01531101881ADDAA100001091AY181061AY221061GF105991021001999999041011KA1999M+02571MD1710021+9999MW1021REMSYN082AAXX  21181 28791 11982 51402 10169 20153 40188 57002 60010 70282 82041 333 10257;
0112287910999992000072200004+54610+072570FM-12+010999999V0203101N001012200019N0500001N1+01111+00951101861ADDGF101991011001999999041001MD1710021+9999REMSYN060AAXX  22001 28791 42999 13101 10111 20095 40186 57002 81040;
0215287910999992000072206004+54610+072570FM-12+010999999V0203201N004010066019N0500001N1+02011+01311101761ADDAA199000091AY181061AY221061GA1061+006609099GF106991061091008001001001KA1120N+01091MD1710041+9999MW1021REMSYN082AAXX  22061 28791 32599 63204 10201 20131 40176 57004 70282 86900 333 20109 86922;EQDQ01  00002PRCP99
0112287910999992000072212004+54610+072570FM-12+010999999V0201101N004012200019N0500001N1+02141+00591101691ADDGF103991031011008001001001MD1210031+9999REMSYN060AAXX  22121 28791 42599 31104 10214 20059 40169 52003 83100;
0162287910999992000072218004+54610+072570FM-12+010999999V0201201N002012200019N0400001N1+01351+00761101821ADDAA100000791GA1001+999999999GF100991001001999999001001KA1999M+02241MD1210021+9999REMSYN070AAXX  22181 28791 12982 01202 10135 20076 40182 52002 69900 333 10224;
0112287910999992000072300004+54610+072570FM-12+010999999V0203001N002019999999N0500001N1+00851+00641101731ADDGF108991081001999999041999MD1710051+9999REMSYN060AAXX  23001 28791 42999 83002 10085 20064 40173 57005 8804/;
0165287910999992000072306004+54610+072570FM-12+010999999V0201301N00301220001CN0500001N1+01881+00641101481ADDAA199000091GF108991021021008001001041KA1999N+00831MD1710151+9999REMSYN070AAXX  23061 28791 32599 81303 10188 20064 40148 57015 82204 333 20083;EQDQ01  00002PRCP99
0190287910999992000072318004+54610+072570FM-12+010999999V0203001N002012200019N0400001N1+01311+01101101221ADDAA100002091AY181061AY211061GA1001+999999999GF100991001001999999001001KA1999M+02121MD1710081+9999MW1011REMSYN076AAXX  23181 28791 11982 03002 10131 20110 40122 57008 60020 70181 333 10212;
0138287910999992000072400004+54610+072570FM-12+010999999V0202901N003010063019N0500001N1+01241+01001101021ADDGA1081+006309099GF108991081091008001999999MD1710121+9999REMSYN070AAXX  24001 28791 42599 82903 10124 20100 40102 57012 889// 333 88921;
0215287910999992000072406004+54610+072570FM-12+010999999V0203201N006010066019N0500001N1+01651+00821100851ADDAA199000091AY181061AY221061GA1061+006609099GF107991061091008001001011KA1120N+01141MD1710081+9999MW1021REMSYN082AAXX  24061 28791 31599 73206 10165 20082 40085 57008 70282 86901 333 20114 86922;EQDQ01  00002PRCP99
0140287910999992000072412004+54610+072570FM-12+010999999V0203301N005012200019N0500001N1+01551+00951100941ADDAY181061AY221061GF106991041091008001001011MD1710031+9999MW1261REMSYN066AAXX  24121 28791 41599 63305 10155 20095 40094 57003 72682 84901;
0152287910999992000072418004+54610+072570FM-12+010999999V0202901N002012200019N0450001N1+01121+00841100991ADDAA100001091GF101991011001999999041001KA1999M+01701MD1710021+9999REMSYN076AAXX  24181 28791 12983 12902 10112 20084 40099 57002 60010 81040 333 10170;
0122287910999992000072500004+54610+072570FM-12+010999999V0202801N002012200019N0500001N1+00941+00811101081ADDGA1001+999999999GF100991001001999999001001MD1210041+9999REMSYN054AAXX  25001 28791 42999 02802 10094 20081 40108 52004;
0187287910999992000072506004+54610+072570FM-12+010999999V0203101N005010093019N0500001N1+02011+00801101071ADDAA199000091GA1061+009309029GF106991061021008001001041KA1120N+00881MD1210011+9999REMSYN076AAXX  25061 28791 32599 63105 10201 20080 40107 52001 86204 333 20088 86831;EQDQ01  00002PRCP99
0138287910999992000072512004+54610+072570FM-12+010999999V0203301N003010066019N0500001N1+02101+00701100951ADDGA1061+006609099GF106991061091008001001001MD1410001+9999REMSYN070AAXX  25121 28791 42599 63303 10210 20070 40095 54000 86900 333 86922;
0152287910999992000072518004+54610+072570FM-12+010999999V0209999C000019999999N0400001N1+01541+00921101051ADDAA100000791GF108991081001999999071999KA1999M+02251MD1210031+9999REMSYN076AAXX  25181 28791 12982 80000 10154 20092 40105 52003 69900 8807/ 333 10225;
0112287910999992000072600004+54610+072570FM-12+010999999V0209999C000010750019N0500001N1+01271+00851101091ADDGF107991031051008001001091MD1210031+9999REMSYN060AAXX  26001 28791 42599 70000 10127 20085 40109 52003 83509;
0165287910999992000072606004+54610+072570FM-12+010999999V0209999C000012200019N0500001N1+02471+00671101141ADDAA199000091GF101991011011012501001001KA1999N+01101MD1210061+9999REMSYN070AAXX  26061 28791 32699 10000 10247 20067 40114 52006 81100 333 20110;EQDQ01  00002PRCP99
0112287910999992000072612004+54610+072570FM-12+010999999V0209999C000012200019N0500001N1+02731+00811101161ADDGF103991011021012501001011MD1410001+9999REMSYN060AAXX  26121 28791 42699 30000 10273 20081 40116 54000 81201;
0175287910999992000072618004+54610+072570FM-12+010999999V0201301N002012200019N0300001N1+01621+00971101371ADDAA199000091GA1001+999999999GF100991001001999999001001KA1999M+02761MD1210091+9999REMSYN064AAXX  26181 28791 32980 01302 10162 20097 40137 52009 333 10276;EQDQ01  00002PRCP99
0112287910999992000072700004+54610+072570FM-12+010999999V0201801N001019999999N0500001N1+01421+01151101401ADDGF108991001001999999001041MD1710021+9999REMSYN060AAXX  27001 28791 42999 81801 10142 20115 40140 57002 80004;
0165287910999992000072706004+54610+072570FM-12+010999999V0202201N005012200019N0500001N1+02771+01421101391ADDAA199000091GF103991011011012501001011KA1999N+01381MD1710011+9999REMSYN070AAXX  27061 28791 32699 32205 10277 20142 40139 57001 81101 333 20138;EQDQ01  00002PRCP99
0138287910999992000072712004+54610+072570FM-12+010999999V0201801N003010051019N0500001N1+03071+01361101171ADDGA1071+005109099GF107991071091004501001001MD1710101+9999REMSYN070AAXX  27121 28791 42499 71803 10307 20136 40117 57010 87900 333 87917;
0180287910999992000072718004+54610+072570FM-12+010999999V0202301N002019999999N0300001N1+02061+01771101271ADDAA100003091AY191061AY281061GF108991001001999999001011KA1999M+03241MD1210021+9999MW1021REMSYN082AAXX  27181 28791 11980 82302 10206 20177 40127 52002 60030 70298 80001 333 10324;
0140287910999992000072800004+54610+072570FM-12+010999999V0202001N002012200019N0040001N1+01561+01441101301ADDAY111061AY211061GF103991021001999999041011MD1210031+9999MW1101REMSYN066AAXX  28001 28791 41996 32002 10156 20144 40130 52003 71011 82041;
0165287910999992000072806004+54610+072570FM-12+010999999V0202201N003012200019N0500001N1+02961+01591101271ADDAA199000091GF103991021001999999081011KA1999N+01541MD1710061+9999REMSYN070AAXX  28061 28791 32999 32203 10296 20159 40127 57006 82081 333 20154;EQDQ01  00002PRCP99
0112287910999992000072812004+54610+072570FM-12+010999999V0202501N002012200019N0500001N1+03371+01371101081ADDGF102991021091008001001001MD1710111+9999REMSYN060AAXX  28121 28791 42599 22502 10337 20137 40108 57011 82900;
0193287910999992000072818004+54610+072570FM-12+010999999V0201201N002012200019N0300001N1+02301+01691101241ADDAA199000091AY191061AY281061GF102991001001999999001091KA1999M+03441MD1210081+9999MW1291REMSYN076AAXX  28181 28791 31980 21202 10230 20169 40124 52008 72998 80009 333 10344;EQDQ01  00002PRCP99
0150287910999992000072900004+54610+072570FM-12+010999999V0209999C000012200019N0005001N1+01541+01431101301ADDAY101061AY201061GA1001+999999999GF100991001001999999001001MD1210011+9999MW1101REMSYN060AAXX  29001 28791 41993 00000 10154 20143 40130 52001 71000;
0162287910999992000072906004+54610+072570FM-12+010999999V0200301N003012200019N0500001N1+03011+01541101321ADDAA100000791GA1001+999999999GF100991001001999999001001KA1999N+01511MD1210051+9999REMSYN070AAXX  29061 28791 12999 00303 10301 20154 40132 52005 69900 333 20151;
0112287910999992000072912004+54610+072570FM-12+010999999V0203401N004012200019N0500001N1+03301+01451101231ADDGF101991011021008001001001MD1710041+9999REMSYN060AAXX  29121 28791 42599 13404 10330 20145 40123 57004 81200;
0175287910999992000072918004+54610+072570FM-12+010999999V0200301N003012200019N0400001N1+02491+01701101431ADDAA199000091GA1001+999999999GF100991001001999999001001KA1999M+03391MD1210101+9999REMSYN064AAXX  29181 28791 32982 00303 10249 20170 40143 52010 333 10339;EQDQ01  00002PRCP99
0150287910999992000073000004+54610+072570FM-12+010999999V0200701N002012200019N0040001N1+01821+01691101401ADDAY101061AY201061GA1001+999999999GF100991001001999999001001MD1710031+9999MW1101REMSYN060AAXX  30001 28791 41996 00702 10182 20169 40140 57003 71000;
0181287910999992000073006004+54610+072570FM-12+010999999V0201001N004012200019N0500001N1+03071+01771101291ADDAA199000091GF102991021021008001001001KA1999M+99999MD1710041+9999REMSYN070AAXX  30061 28791 32599 21004 10307 20177 40129 57004 82200 333 10179;EQDQ01  00002PRCP99Q02 +01792ATMX  
0166287910999992000073012004+54610+072570FM-12+010999999V0203501N002010063019N0500001N1+02791+01861101081ADDAY191061AY281061GA1081+006309099GF108991081091008001999999MD1710071+9999MW1171REMSYN076AAXX  30121 28791 41599 83502 10279 20186 40108 57007 71798 889// 333 88921;
0180287910999992000073018004+54610+072570FM-12+010999999V0201001N002012200019N0400001N1+02311+01751101021ADDAA100000791AY191061AY221061GF108991041091008001001011KA1999M+03411MD1710101+9999MW1131REMSYN082AAXX  30181 28791 11582 81002 10231 20175 40102 57010 69900 71392 84901 333 10341;
0166287910999992000073100004+54610+072570FM-12+010999999V0200901N004010069019N0500001N1+02041+01851100941ADDAY191061AY281061GA1071+006909099GF107991071091008001001001MD1710161+9999MW1021REMSYN076AAXX  31001 28791 41599 70904 10204 20185 40094 57016 70298 87900 333 87923;
0202287910999992000073106004+54610+072570FM-12+010999999V0202601N001010075019N0500001N1+02501+01911100931ADDAA100000791AY161061AY221061GA1061+007509059GF107991061051008001041001KA1120N+02001MD1710041+9999MW1211REMSYN088AAXX  31061 28791 11599 72601 10250 20191 40093 57004 69900 72162 86540 333 20200 86625;
0112287910999992000073112004+54610+072570FM-12+010999999V0201501N002010750019N0500001N1+02851+01671100801ADDGF106991031091008001001091MD1710081+9999REMSYN060AAXX  31121 28791 42599 61502 10285 20167 40080 57008 83909;
0202287910999992000073118004+54610+072570FM-12+010999999V0201801N002010063019N0300001N1+02111+01771100961ADDAA100000791AY191061AY281061GA1081+006309099GF108991081091008001999999KA1120M+02911MD1210101+9999MW1291REMSYN088AAXX  31181 28791 11580 81802 10211 20177 40096 52010 69900 72998 889// 333 10291 88921;
0140287910999992000080100004+54610+072570FM-12+010999999V0201201N004019999999N0500001N1+01721+01401101041ADDAY161061AY221061GF108991081001999999071999MD1210031+9999MW1211REMSYN066AAXX  01001 28791 41999 81204 10172 20140 40104 52003 72162 8807/;
0174287910999992000080106004+54610+072570FM-12+010999999V0202301N002010081019N0500001N1+02271+01541101041ADDAA100002091GA1081+008109059GF108991081051017501999999KA1120N+01701MD1710021+9999REMSYN082AAXX  01061 28791 12799 82302 10227 20154 40104 57002 60020 885// 333 20170 88627;
0138287910999992000080112004+54610+072570FM-12+010999999V0201101N003010066019N0500001N1+02581+01291100721ADDGA1061+006609099GF108991061091008001041999MD1710161+9999REMSYN070AAXX  01121 28791 42599 81103 10258 20129 40072 57016 8694/ 333 86922;
0180287910999992000080118004+54610+072570FM-12+010999999V0201201N002012200019N0400001N1+01891+01711100601ADDAA100003091AY191061AY281061GF103991031091008001001001KA1999M+02721MD1710121+9999MW1171REMSYN082AAXX  01181 28791 11582 31202 10189 20171 40060 57012 60030 71798 83900 333 10272;
0166287910999992000080200004+54610+072570FM-12+010999999V0202001N004010066019N0040001N1+01661+01631100401ADDAY191061AY281061GA1081+006609099GF108991081091008001999999MD1710101+9999MW1811REMSYN076AAXX  02001 28791 41596 82004 10166 20163 40040 57010 78198 889// 333 88922;
0202287910999992000080206004+54610+072570FM-12+010999999V0203001N004010045019N0500001N1+01981+01751100431ADDAA100020191AY181061AY221061GA1081+004509069GF108991081091004501999999KA1120N+01641MD1210081+9999MW1021REMSYN088AAXX  02061 28791 11499 83004 10198 20175 40043 52008 60200 70282 889// 333 20164 88715;
0166287910999992000080212004+54610+072570FM-12+010999999V0203301N005010066019N0500001N1+02481+01501100471ADDAY181061AY221061GA1061+006609099GF106991061091008001001001MD1210041+9999MW1021REMSYN076AAXX  02121 28791 41599 63305 10248 20150 40047 52004 70282 86900 333 86922;
0162287910999992000080218004+54610+072570FM-12+010999999V0203001N002012200019N0300001N1+01831+01661100721ADDAA100000391GA1001+999999999GF100991001001999999001001KA1999M+02611MD1210051+9999REMSYN070AAXX  02181 28791 12980 03002 10183 20166 40072 52005 69930 333 10261;
0150287910999992000080300004+54610+072570FM-12+010999999V0203001N001012200019N0020001N1+01601+01571100821ADDAY101061AY201061GA1001+999999999GF100991001001999999001001MD1210051+9999MW1101REMSYN060AAXX  03001 28791 41995 03001 10160 20157 40082 52005 71000;
0215287910999992000080306004+54610+072570FM-12+010999999V0202501N002010084019N0500001N1+02571+01381100771ADDAA199000091AY141061AY211061GA1061+008409029GF106991061021008001001001KA1120N+01571MD1710071+9999MW1021REMSYN082AAXX  03061 28791 31599 62502 10257 20138 40077 57007 70241 86200 333 20157 86828;EQDQ01  00002PRCP99
0140287910999992000080312004+54610+072570FM-12+010999999V0203101N003019999999N0500001N1+02421+01681100721ADDAY161061AY221061GF108991081001999999071999MD1210021+9999MW1211REMSYN066AAXX  03121 28791 41999 83103 10242 20168 40072 52002 72162 8807/;
0193287910999992000080406004+54610+072570FM-12+010999999V0201701N006019999999N0500001N1+02521+01741100581ADDAA199000091AY191061AY221061GF108991001001999999001051KA1999N+01581MD1710151+9999MW1021REMSYN076AAXX  04061 28791 31999 81706 10252 20174 40058 57015 70292 80005 333 20158;EQDQ01  00002PRCP99
0112287910999992000080412004+54610+072570FM-12+010999999V0202401N004010300019N0500001N1+03221+01621100331ADDGF106991041091008001031001MD1710081+9999REMSYN060AAXX  04121 28791 42599 62404 10322 20162 40033 57008 84930;
0152287910999992000080418004+54610+072570FM-12+010999999V0202401N002019999999N0500001N1+02251+01871100631ADDAA100000791GF108991001001999999001011KA1999M+03241MD1210131+9999REMSYN076AAXX  04181 28791 12984 82402 10225 20187 40063 52013 69900 80001 333 10324;
0112287910999992000080500004+54610+072570FM-12+010999999V0200601N002019999999N0200001N1+01771+01621100671ADDGF108991021001999999031011MD1210031+9999REMSYN060AAXX  05001 28791 42998 80602 10177 20162 40067 52003 82031;
0196287910999992000080506004+54610+072570FM-12+010999999V0201601N007010066019N0040001N1+02501+01681100431ADDAA199000021AY181061AY221061GA1071+006609099GF107991071091008001001001KA1120N+01701MD1710091+9999MW1801REMSYN082AAXX  05061 28791 31596 71607 10250 20168 40043 57009 78082 87900 333 20170 87922;
0172287910999992000080512004+54610+072570FM-12+010999999V0202401N004010063019N0500001N1+02461+01771100081ADDAY191061AY281061GA1061+006309099GF108991061091008001001011MD1710111+9999MW1291REMSYN082AAXX  05121 28791 41599 82404 10246 20177 40008 57011 72998 86901 333 86921 91117;
0180287910999992000080518004+54610+072570FM-12+010999999V0202801N004019999999N0500001N1+02291+01711100081ADDAA100000791AY191061AY281061GF105991001001999999001011KA1999M+03321MD1210031+9999MW1021REMSYN082AAXX  05181 28791 11984 52804 10229 20171 40008 52003 69900 70298 80001 333 10332;
0122287910999992000080600004+54610+072570FM-12+010999999V0202601N001012200019N0500001N1+01421+01181100341ADDGA1001+999999999GF100991001001999999001001MD1210101+9999REMSYN054AAXX  06001 28791 42999 02601 10142 20118 40034 52010;
0188287910999992000080606004+54610+072570FM-12+010999999V0202501N008012200019N0500001N1+02461+01151100281ADDAA199000091GF102991021021008001001001KA1120N+01381MD1710131+9999OA140101301REMSYN082AAXX  06061 28791 32599 22508 10246 20115 40028 57013 82200 333 20138 91013 91113;EQDQ01  00002PRCP99
0122287910999992000080612004+54610+072570FM-12+010999999V0202701N006010075019N0500001N1+02551+01051100341ADDGF105991051091008001001001MD1210071+9999REMSYN070AAXX  06121 28791 42599 52706 10255 20105 40034 52007 85900 333 91113;
0175287910999992000080618004+54610+072570FM-12+010999999V0202601N001012200019N0350001N1+01741+01271100581ADDAA199000091GA1001+999999999GF100991001001999999001001KA1999M+02671MD1210111+9999REMSYN064AAXX  06181 28791 32981 02601 10174 20127 40058 52011 333 10267;EQDQ01  00002PRCP99
0112287910999992000080700004+54610+072570FM-12+010999999V0202601N002012200019N0500001N1+01311+01141100751ADDGF101991001001999999001011MD1210081+9999REMSYN060AAXX  07001 28791 42999 12602 10131 20114 40075 52008 80001;
0164287910999992000080706004+54610+072570FM-12+010999999V0202401N002019999999N0500001N1+02241+01181100701ADDAA199000091GF105991001001999999001041KA1999N+01281MD1710031+9999REMSYN069AAXX  07061 28791 32999 52402 10224 20118 40070 57003 80004333 20128;EQDQ01  00002PRCP99
0138287910999992000080712004+54610+072570FM-12+010999999V0202001N003010066019N0500001N1+02561+01091100361ADDGA1071+006609099GF107991071091008001001001MD1710151+9999REMSYN070AAXX  07121 28791 42599 72003 10256 20109 40036 57015 87900 333 87922;
0202287910999992000080718004+54610+072570FM-12+010999999V0202801N001010066019N0060001N1+01661+01471100351ADDAA100001091AY191061AY281061GA1081+006609099GF108991081091008001999999KA1120M+02671MD1710131+9999MW1291REMSYN088AAXX  07181 28791 11556 82801 10166 20147 40035 57013 69990 72998 889// 333 10267 88922;
0166287910999992000080800004+54610+072570FM-12+010999999V0202701N002010042019N0100001N1+01441+01291100501ADDAY191061AY281061GA1081+004209069GF108991081071004501999999MD1210081+9999MW1021REMSYN076AAXX  08001 28791 41497 82702 10144 20129 40050 52008 70298 887// 333 88714;
0152287910999992000080806004+54610+072570FM-12+010999999V0202801N005010075019N0500001N1+01891+01341100761ADDAA100004191GF105991051021008001001001KA1999N+01421MD1210091+9999REMSYN076AAXX  08061 28791 12599 52805 10189 20134 40076 52009 60040 85200 333 20142;
0112287910999992000080812004+54610+072570FM-12+010999999V0202701N005010300019N0500001N1+02271+00841100771ADDGF107991031091008001031001MD1710031+9999REMSYN060AAXX  08121 28791 42599 72705 10227 20084 40077 57003 83930;
0165287910999992000080818004+54610+072570FM-12+010999999V0202101N001012200019N0400001N1+01461+01191100881ADDAA199000091GF101991001001999999001011KA1999M+02311MD1210031+9999REMSYN070AAXX  08181 28791 32982 12101 10146 20119 40088 52003 80001 333 10231;EQDQ01  00002PRCP99
0112287910999992000080900004+54610+072570FM-12+010999999V0202801N002010750019N0500001N1+01201+00981100861ADDGF108991011091008001001091MD1710021+9999REMSYN060AAXX  09001 28791 42599 82802 10120 20098 40086 57002 81909;
0180287910999992000080906004+54610+072570FM-12+010999999V0203501N001010300019N0500001N1+01661+01211100901ADDAA100000791AY181061AY221061GF108991031091004501021999KA1999N+01181MD1410001+9999MW1021REMSYN082AAXX  09061 28791 11499 83501 10166 20121 40090 54000 69900 70282 8392/ 333 20118;
0140287910999992000080912004+54610+072570FM-12+010999999V0202601N005010300019N0500001N1+01881+01091100841ADDAY181061AY221061GF107991041091004501031001MD1710021+9999MW1021REMSYN066AAXX  09121 28791 41499 72605 10188 20109 40084 57002 70282 84930;
0152287910999992000080918004+54610+072570FM-12+010999999V0203001N002010075019N0400001N1+01351+01041100861ADDAA100000591GF105991051091008001001001KA1999M+02061MD1410001+9999REMSYN076AAXX  09181 28791 12582 53002 10135 20104 40086 54000 69940 85900 333 10206;
0112287910999992000081000004+54610+072570FM-12+010999999V0203001N002019999999N0500001N1+01241+01031100921ADDGF107991071001999999051001MD1210041+9999REMSYN060AAXX  10001 28791 42999 73002 10124 20103 40092 52004 87050;
0202287910999992000081006004+54610+072570FM-12+010999999V0202701N003010060019N0500001N1+01731+01361101211ADDAA100000591AY161061AY221061GA1071+006009099GF107991071091004501001001KA1120N+01201MD1210081+9999MW1021REMSYN088AAXX  10061 28791 11499 72703 10173 20136 40121 52008 69950 70262 87900 333 20120 87920;
0162287910999992000081018004+54610+072570FM-12+010999999V0203001N002012200019N0300001N1+01401+01181101441ADDAA100000591GA1001+999999999GF100991001001999999001001KA1999M+02201MD1210051+9999REMSYN070AAXX  10181 28791 12980 03002 10140 20118 40144 52005 69960 333 10220;
0150287910999992000081100004+54610+072570FM-12+010999999V0203201N002012200019N0040001N1+01121+01041101561ADDAY101061AY201061GA1001+999999999GF100991001001999999001001MD1210051+9999MW1101REMSYN060AAXX  11001 28791 41996 03202 10112 20104 40156 52005 71000;
0165287910999992000081106004+54610+072570FM-12+010999999V0202701N002010075019N0500001N1+02351+01251101541ADDAA199000091GF105991051021008001001001KA1999N+01081MD1210011+9999REMSYN070AAXX  11061 28791 32599 52702 10235 20125 40154 52001 85200 333 20108;EQDQ01  00002PRCP99
0112287910999992000081112004+54610+072570FM-12+010999999V0202701N002012200019N0500001N1+02651+00951101431ADDGF103991031021008001001001MD1710061+9999REMSYN060AAXX  11121 28791 42599 32702 10265 20095 40143 57006 83200;
0175287910999992000081118004+54610+072570FM-12+010999999V0201801N002012200019N0400001N1+01661+01061101381ADDAA199000091GA1001+999999999GF100991001001999999001001KA1999M+02681MD1710031+9999REMSYN064AAXX  11181 28791 32982 01802 10166 20106 40138 57003 333 10268;EQDQ01  00002PRCP99
0112287910999992000081200004+54610+072570FM-12+010999999V0201601N00101220001CN0500001N1+01501+00951101171ADDGF108991021051008001001041MD1710111+9999REMSYN060AAXX  12001 28791 42599 81601 10150 20095 40117 57011 82504;
0165287910999992000081206004+54610+072570FM-12+010999999V0202201N005010300019N0500001N1+02781+01471100971ADDAA199000091GF107991021051008001041001KA1999N+01431MD1710051+9999REMSYN070AAXX  12061 28791 32599 72205 10278 20147 40097 57005 82540 333 20143;EQDQ01  00002PRCP99
0140287910999992000081212004+54610+072570FM-12+010999999V0202801N003010300019N0500001N1+02381+01511100961ADDAY181061AY221061GF108991021091008001041011MD1210011+9999MW1021REMSYN066AAXX  12121 28791 41599 82803 10238 20151 40096 52001 70282 82941;
0162287910999992000081218004+54610+072570FM-12+010999999V0209999C000012200019N0350001N1+01821+01481101021ADDAA100000791GA1001+999999999GF100991001001999999001001KA1999M+02861MD1210011+9999REMSYN070AAXX  12181 28791 12981 00000 10182 20148 40102 52001 69900 333 10286;
0140287910999992000081300004+54610+072570FM-12+010999999V0201701N002012200019N0040001N1+01621+01511100911ADDAY111061AY211061GF108991011091008001001011MD1710061+9999MW1101REMSYN066AAXX  13001 28791 41596 81702 10162 20151 40091 57006 71011 81901;
0202287910999992000081306004+54610+072570FM-12+010999999V0200701N003010069019N0500001N1+02221+01511100871ADDAA100001091AY191061AY281061GA1061+006909099GF108991061091008001001041KA1120N+01581MD1210041+9999MW1021REMSYN088AAXX  13061 28791 11599 80703 10222 20151 40087 52004 69990 70298 86904 333 20158 86923;
0140287910999992000081312004+54610+072570FM-12+010999999V0203401N004012200019N0500001N1+02281+01101100901ADDAY181061AY221061GF105991021021008001001011MD1210061+9999MW1021REMSYN066AAXX  13121 28791 41599 53404 10228 20110 40090 52006 70282 82201;
0162287910999992000081318004+54610+072570FM-12+010999999V0202801N002012200019N0350001N1+01601+01151101081ADDAA100000791GA1001+999999999GF100991001001999999001001KA1999M+02361MD1210061+9999REMSYN070AAXX  13181 28791 12981 02802 10160 20115 40108 52006 69900 333 10236;
0150287910999992000081400004+54610+072570FM-12+010999999V0202901N002012200019N0040001N1+01181+00981101221ADDAY101061AY201061GA1001+999999999GF100991001001999999001001MD1210051+9999MW1101REMSYN060AAXX  14001 28791 41996 02902 10118 20098 40122 52005 71000;
0165287910999992000081406004+54610+072570FM-12+010999999V0202901N006010075019N0500001N1+02011+00861101251ADDAA199000091GF105991051021008001001001KA1999N+01161MD1710071+9999REMSYN070AAXX  14061 28791 32599 52906 10201 20086 40125 57007 85200 333 20116;EQDQ01  00002PRCP99
0106287910999992000081412004+54610+072570FM-12+010999999V0203001N004010075019N0500001N1+99999+99999101291ADDGF105991051091008001001001MD1210011+9999REMSYN054AAXX  14121 28791 42599 53004 20058 40129 52001 85900;
0175287910999992000081418004+54610+072570FM-12+010999999V0202301N001012200019N0350001N1+01191+00821101351ADDAA199000091GA1001+999999999GF100991001001999999001001KA1999M+02251MD1210051+9999REMSYN064AAXX  14181 28791 32981 02301 10119 20082 40135 52005 333 10225;EQDQ01  00002PRCP99
0138287910999992000081512004+54610+072570FM-12+010999999V0202601N004010066019N0500001N1+02341+00561101141ADDGA1071+006609099GF107991071091008001001001MD1710051+9999REMSYN070AAXX  15121 28791 42599 72604 10234 20056 40114 57005 87900 333 87922;
0193287910999992000081518004+54610+072570FM-12+010999999V0201101N004019999999N0400001N1+01651+01051101011ADDAA199000091AY161061AY221061GF108991081001999999051999KA1999M+02551MD1710111+9999MW1021REMSYN076AAXX  15181 28791 31982 81104 10165 20105 40101 57011 70262 8805/ 333 10255;EQDQ01  00002PRCP99
0112287910999992000081600004+54610+072570FM-12+010999999V0201201N002019999999N0500001N1+01501+00891100881ADDGF108991081001999999051999MD1710041+9999REMSYN060AAXX  16001 28791 42999 81202 10150 20089 40088 57004 8805/;
0152287910999992000081606004+54610+072570FM-12+010999999V0202101N005012200019N0500001N1+02601+00591100671ADDAA100000791GF103991021051008001001011KA1999N+01471MD1710101+9999REMSYN076AAXX  16061 28791 12599 32105 10260 20059 40067 57010 69900 82501 333 20147;
0112287910999992000081612004+54610+072570FM-12+010999999V0201501N003012200019N0500001N1+02811+00581100431ADDGF102991021041008001001001MD1710111+9999REMSYN060AAXX  16121 28791 42599 21503 10281 20058 40043 57011 82400;
0165287910999992000081618004+54610+072570FM-12+010999999V0201101N002012200019N0350001N1+01571+00701100351ADDAA199000091GF102991001001999999001011KA1999M+02891MD1710061+9999REMSYN070AAXX  16181 28791 32981 21102 10157 20070 40035 57006 80001 333 10289;EQDQ01  00002PRCP99
0138287910999992000081700004+54610+072570FM-12+010999999V0201101N003010069019N0500001N1+01661+00801100161ADDGA1061+006909099GF108991061091008001001041MD1710081+9999REMSYN070AAXX  17001 28791 42599 81103 10166 20080 40016 57008 86904 333 86923;
0180287910999992000081706004+54610+072570FM-12+010999999V0201501N005019999999N0500001N1+02481+01021099941ADDAA100000791AY181061AY221061GF107991071001999999031001KA1999N+01541MD1710051+9999MW1021REMSYN082AAXX  17061 28791 11999 71505 10248 20102 49994 57005 69900 70282 87030 333 20154;
0172287910999992000081712004+54610+072570FM-12+010999999V0203401N003010042019N0040001N1+01721+01551100131ADDAY191061AY281061GA1081+004209099GF108991081091004501999999MD1210081+9999MW1801REMSYN082AAXX  17121 28791 41496 83403 10172 20155 40013 52008 78098 889// 333 88914 91112;
0202287910999992000081718004+54610+072570FM-12+010999999V0203001N002010066019N0080001N1+01621+01551100191ADDAA100007191AY181061AY221061GA1081+006609099GF108991081091008001999999KA1120M+02491MD1710061+9999MW1801REMSYN088AAXX  17181 28791 11558 83002 10162 20155 40019 57006 60070 78082 889// 333 10249 88922;
0166287910999992000081800004+54610+072570FM-12+010999999V0203001N002010066019N0500001N1+01481+01281100051ADDAY181061AY221061GA1081+006609099GF108991081091008001999999MD1710081+9999MW1021REMSYN076AAXX  18001 28791 41599 83002 10148 20128 40005 57008 70282 889// 333 88922;
0152287910999992000081806004+54610+072570FM-12+010999999V0202601N006012200019N0500001N1+01751+00951100191ADDAA100000591GF101991011021008001001001KA1999N+01421MD1210151+9999REMSYN076AAXX  18061 28791 12599 12606 10175 20095 40019 52015 69950 81200 333 20142;
0139287910999992000081812004+54610+072570FM-12+010999999V0202701N008012200019N0500001N1+01881+00451100371ADDGF103991031091008001001001MD1210081+9999OA140101301REMSYN076AAXX  18121 28791 42599 32708 10188 20045 40037 52008 83900 333 91013 91114;
0226287910999992000081818004+54610+072570FM-12+010999999V0202501N007010078019N0400001N1+01371+00711100571ADDAA199000091GA1071+007809069GF107991071999008001051001KA1120M+01951MD1410001+9999OA140101201REMSYN088AAXX  18181 28791 32582 72507 10137 20071 40057 54000 87050 333 10195 87626 91012 91114;EQDQ01+000002SCOLCGQ02  00002PRCP99
0144287910999992000081900004+54610+072570FM-12+010999999V0202601N006010036019N0500001N1+01201+00731100651ADDGA1071+003609079GF107991071061004501001001MD1210021+9999REMSYN076AAXX  19001 28791 42499 72606 10120 20073 40065 52002 87600 333 87712 91113;
0165287910999992000081906004+54610+072570FM-12+010999999V0202701N007012200019N0500001N1+01801+00711100701ADDAA199000091GF103991021011008001001011KA1999N+01161MD1210031+9999REMSYN070AAXX  19061 28791 32599 32707 10180 20071 40070 52003 82101 333 20116;EQDQ01  00002PRCP99
0138287910999992000081912004+54610+072570FM-12+010999999V0202901N006010069019N0500001N1+02021+00401999999ADDGA1061+006909069GF106991061041008001001001MD1210061+9999REMSYN070AAXX  19121 28791 42599 62906 10202 20040 52006 86400 333 86623 91114;
0175287910999992000081918004+54610+072570FM-12+010999999V0202301N002012200019N0350001N1+01321+00861100901ADDAA199000091GA1001+999999999GF100991001001999999001001KA1999M+02131MD1710021+9999REMSYN064AAXX  19181 28791 32981 02302 10132 20086 40090 57002 333 10213;EQDQ01  00002PRCP99
0112287910999992000082000004+54610+072570FM-12+010999999V0202301N003019999999N0500001N1+00751+00591100911ADDGF108991001001999999001041MD1710011+9999REMSYN060AAXX  20001 28791 42999 82303 10075 20059 40091 57001 80004;
0165287910999992000082006004+54610+072570FM-12+010999999V0202701N002012200019N0500001N1+01981+00621100701ADDAA199000091GF102991011011008001001011KA1999N+00721MD1710101+9999REMSYN070AAXX  20061 28791 32599 22702 10198 20062 40070 57010 81101 333 20072;EQDQ01  00002PRCP99
0112287910999992000082012004+54610+072570FM-12+010999999V0202801N002012200019N0500001N1+02211+00731100401ADDGF106991021091008001001041MD1710121+9999REMSYN060AAXX  20121 28791 42599 62802 10221 20073 40040 57012 82904;
0187287910999992000082018004+54610+072570FM-12+010999999V0202501N001010078019N0400001N1+01461+00801100291ADDAA199000091GA1071+007809059GF107991071051008001001001KA1120M+02301MD1710101+9999REMSYN076AAXX  20181 28791 32582 72501 10146 20080 40029 57010 87500 333 10230 87626;EQDQ01  00002PRCP99
0138287910999992000082100004+54610+072570FM-12+010999999V0202301N001010069019N0500001N1+01421+01181100121ADDGA1081+006909059GF108991081051008001999999MD1710071+9999REMSYN070AAXX  21001 28791 42599 82301 10142 20118 40012 57007 885// 333 88623;
0113287910999992000082106004+54610+072570FM-12+010999999V0203101N002019999999N0500001N1+01841+01191999999ADDGF108991999999004501999999REMSYN075AAXX  21061 28791 12499 83102 10184 20119 4004 57002 69930 8235/ 333 20138;
0112287910999992000082112004+54610+072570FM-12+010999999V0203201N002010300019N0500001N1+01761+01001100121ADDGF107991021091004501051001MD1210101+9999REMSYN060AAXX  21121 28791 42499 73202 10176 20100 40012 52010 82950;
0190287910999992000082118004+54610+072570FM-12+010999999V0202601N002012200019N0080001N1+01201+01111100161ADDAA100002091AY191061AY281061GA1001+999999999GF100991001001999999001001KA1999M+02071MD1710011+9999MW1101REMSYN076AAXX  21181 28791 11958 02602 10120 20111 40016 57001 60020 71098 333 10207;
0166287910999992000082200004+54610+072570FM-12+010999999V0202501N002010075019N0040001N1+01001+00901099981ADDAY111061AY211061GA1061+007509059GF108991061051008001001011MD1710141+9999MW1101REMSYN076AAXX  22001 28791 41596 82502 10100 20090 49998 57014 71011 86501 333 86625;
0196287910999992000082206004+54610+072570FM-12+010999999V0202301N003010057019N0500001N1+01731+01021100041ADDAA199000021AY181061AY221061GA1071+005709099GF107991071091004501001001KA1120N+00951MD1710011+9999MW1251REMSYN082AAXX  22061 28791 31499 72303 10173 20102 40004 57001 72582 87900 333 20095 87919;
0166287910999992000082212004+54610+072570FM-12+010999999V0202901N003010057019N0500001N1+01551+01061100131ADDAY191061AY281061GA1071+005709099GF107991071091004501001001MD1210151+9999MW1291REMSYN076AAXX  22121 28791 41499 72903 10155 20106 40013 52015 72998 87900 333 87919;
0152287910999992000082218004+54610+072570FM-12+010999999V0202801N003019999999N0300001N1+01121+00841100291ADDAA100003091GF106991031001999999071011KA1999M+01901MD1210021+9999REMSYN076AAXX  22181 28791 12980 62803 10112 20084 40029 52002 60030 83071 333 10190;
0112287910999992000082300004+54610+072570FM-12+010999999V0202501N003019999999N0500001N1+01001+00881100371ADDGF107991071001999999071001MD1210071+9999REMSYN060AAXX  23001 28791 42999 72503 10100 20088 40037 52007 87070;
0202287910999992000082306004+54610+072570FM-12+010999999V0202801N004010054019N0500001N1+01461+01121100621ADDAA100000791AY161061AY221061GA1071+005409099GF107991071091004501001001KA1120N+00941MD1210161+9999MW1021REMSYN088AAXX  23061 28791 11499 72804 10146 20112 40062 52016 69900 70262 87900 333 20094 87918;
0166287910999992000082312004+54610+072570FM-12+010999999V0203001N004010057019N0040001N1+01511+01181100721ADDAY181061AY221061GA1071+005709099GF107991071091004501001001MD1210061+9999MW1801REMSYN076AAXX  23121 28791 41496 73004 10151 20118 40072 52006 78082 87900 333 87919;
0145287910999992000082318004+54610+072570FM-12+010999999V0202901N002012200019N0300001N1+01281+00941101051ADDGA1001+999999999GF100991001001999999001001KA1999M+01561MD1210111+9999REMSYN064AAXX  23181 28791 12980 02902 10128 20094 40105 52011 333 10156;
0138287910999992000082400004+54610+072570FM-12+010999999V0202501N001010069019N0500001N1+01051+00861101101ADDGA1081+006909059GF108991081051008001999999MD1210031+9999REMSYN070AAXX  24001 28791 42599 82501 10105 20086 40110 52003 885// 333 88623;
0187287910999992000082406004+54610+072570FM-12+010999999V0202701N002010063019N0500001N1+01721+00921101241ADDAA199000091GA1061+006309099GF106991061091008001001001KA1120N+01031MD1410001+9999REMSYN076AAXX  24061 28791 32599 62702 10172 20092 40124 54000 86900 333 20103 86921;EQDQ01  00002PRCP99
0112287910999992000082412004+54610+072570FM-12+010999999V0209999C000010300019N0500001N1+02101+00701101131ADDGF106991011091008001031001MD1710031+9999REMSYN060AAXX  24121 28791 42599 60000 10210 20070 40113 57003 81930;
0165287910999992000082418004+54610+072570FM-12+010999999V0201201N003019999999N0350001N1+01621+01101101141ADDAA199000091GF108991081001999999021999KA1999M+02151MD1710051+9999REMSYN070AAXX  24181 28791 32981 81203 10162 20110 40114 57005 8802/ 333 10215;EQDQ01  00002PRCP99
0112287910999992000082500004+54610+072570FM-12+010999999V0201101N004019999999N0500001N1+01421+00701100911ADDGF108991081001999999071999MD1710101+9999REMSYN060AAXX  25001 28791 42999 81104 10142 20070 40091 57010 8807/;
0175287910999992000082506004+54610+072570FM-12+010999999V0201801N006012200019N0500001N1+02531+01231100661ADDAA199000091GA1001+999999999GF100991001001999999001001KA1999N+01401MD1710061+9999REMSYN064AAXX  25061 28791 32999 01806 10253 20123 40066 57006 333 20140;EQDQ01  00002PRCP99
0122287910999992000082512004+54610+072570FM-12+010999999V0202501N003012200019N0500001N1+02891+01241100591ADDGA1001+999999999GF100991001001999999001001MD1710041+9999REMSYN054AAXX  25121 28791 42999 02503 10289 20124 40059 57004;
0165287910999992000082518004+54610+072570FM-12+010999999V0202501N003019999999N0450001N1+02141+01401100541ADDAA199000091GF106991061001999999031001KA1999M+02901MD1710041+9999REMSYN070AAXX  25181 28791 32983 62503 10214 20140 40054 57004 86030 333 10290;EQDQ01  00002PRCP99
0112287910999992000082600004+54610+072570FM-12+010999999V0202501N004019999999N0500001N1+01961+01401100591ADDGF108991081001999999071999MD1210051+9999REMSYN060AAXX  26001 28791 42999 82504 10196 20140 40059 52005 8807/;
0199287910999992000082606004+54610+072570FM-12+010999999V0202701N003019999999N0500001N1+01531+01261101041ADDAA100000791AY161061AY221061GF108991081001999999071999KA1999N+99999MD1210241+9999MW1211REMSYN082AAXX  26061 28791 11999 82703 10153 20126 40104 52024 69900 72162 8807/ 333 20176;EQDQ01 +01762ATMN  
0112287910999992000082612004+54610+072570FM-12+010999999V0202501N005012200019N0500001N1+02131+00941101131ADDGF103991021021008001001011MD1210061+9999REMSYN060AAXX  26121 28791 42599 32505 10213 20094 40113 52006 82201;
0162287910999992000082618004+54610+072570FM-12+010999999V0202801N001012200019N0350001N1+01321+00861101471ADDAA100000591GA1001+999999999GF100991001001999999001001KA1999M+02161MD1210151+9999REMSYN070AAXX  26181 28791 12981 02801 10132 20086 40147 52015 69940 333 10216;
0122287910999992000082700004+54610+072570FM-12+010999999V0202801N001012200019N0500001N1+00911+00711101681ADDGA1001+999999999GF100991001001999999001001MD1210121+9999REMSYN054AAXX  27001 28791 42999 02801 10091 20071 40168 52012;
0175287910999992000082706004+54610+072570FM-12+010999999V0203001N004012200019N0500001N1+01711+00531101821ADDAA199000091GA1001+999999999GF100991001001999999001001KA1999N+00841MD1210081+9999REMSYN064AAXX  27061 28791 32999 03004 10171 20053 40182 52008 333 20084;EQDQ01  00002PRCP99
0142287910999992000082712004+54610+072570FM-12+010999999V0203201N003012200019N0500001N1+01901+00411101751ADDAA199000091GF103991031041008001001001MD1710031+9999REMSYN060AAXX  27121 28791 32599 33203 10190 20041 40175 57003 83400;EQDQ01  00002PRCP99
0140287910999992000082800004+54610+072570FM-12+010999999V0203001N001012200019N0040001N1+00631+00541101881ADDAY101061AY201061GF103991031051008001001001MD1410001+9999MW1101REMSYN066AAXX  28001 28791 42596 33001 10063 20054 40188 54000 71000 83500;
0187287910999992000082806004+54610+072570FM-12+010999999V0202301N002010069019N0500001N1+01811+00511101691ADDAA199000091GA1061+006909099GF106991061091008001001001KA1120N+00601MD1710101+9999REMSYN076AAXX  28061 28791 32599 62302 10181 20051 40169 57010 86900 333 20060 86923;EQDQ01  00002PRCP99
0138287910999992000082812004+54610+072570FM-12+010999999V0203301N001010063019N0500001N1+01921+00801101441ADDGA1061+006309099GF106991061091008001001001MD1710161+9999REMSYN070AAXX  28121 28791 42599 63301 10192 20080 40144 57016 86900 333 86921;
0175287910999992000082818004+54610+072570FM-12+010999999V0202201N002012200019N0350001N1+01281+00861101251ADDAA199000091GA1001+999999999GF100991001001999999001001KA1999M+01941MD1710111+9999REMSYN064AAXX  28181 28791 32981 02202 10128 20086 40125 57011 333 10194;EQDQ01  00002PRCP99
0112287910999992000082900004+54610+072570FM-12+010999999V0202701N002019999999N0500001N1+01011+00651100931ADDGF108991001001999999001091MD1710201+9999REMSYN060AAXX  29001 28791 42999 82702 10101 20065 40093 57020 80009;
0196287910999992000082906004+54610+072570FM-12+010999999V0202801N003010036019N0500001N1+01171+01041100831ADDAA199000021AY161061AY221061GA1061+003609069GF108991061071004501011999KA1120N+00981MD1710011+9999MW1211REMSYN082AAXX  29061 28791 31499 82803 10117 20104 40083 57001 72162 8671/ 333 20098 86712;
0166287910999992000082912004+54610+072570FM-12+010999999V0203101N005010066019N0500001N1+01501+00761100681ADDAY181061AY221061GA1061+006609099GF106991061091008001001001MD1710031+9999MW1251REMSYN076AAXX  29121 28791 41599 63105 10150 20076 40068 57003 72582 86900 333 86922;
0190287910999992000082918004+54610+072570FM-12+010999999V0203101N003012200019N0300001N1+00801+00581100871ADDAA100002091AY181061AY211061GA1001+999999999GF100991001001999999001001KA1999M+01561MD1210011+9999MW1021REMSYN076AAXX  29181 28791 11980 03103 10080 20058 40087 52001 60020 70281 333 10156;
0112287910999992000083000004+54610+072570FM-12+010999999V0202801N003019999999N0500001N1+00701+00591100951ADDGF107991071001999999051001MD1210051+9999REMSYN060AAXX  30001 28791 42999 72803 10070 20059 40095 52005 87050;
0187287910999992000083006004+54610+072570FM-12+010999999V0203301N006010057019N0500001N1+01241+00321101041ADDAA199000091GA1081+005709099GF108991081091004501999999KA1120N+00581MD1710061+9999REMSYN076AAXX  30061 28791 32499 83306 10124 20032 40104 57006 889// 333 20058 88919;EQDQ01  00002PRCP99
0138287910999992000083012004+54610+072570FM-12+010999999V0203101N005010066019N0500001N1+01341+00301101131ADDGA1061+006609099GF106991061091008001001001MD1210041+9999REMSYN070AAXX  30121 28791 42599 63105 10134 20030 40113 52004 86900 333 86922;
0175287910999992000083018004+54610+072570FM-12+010999999V0203001N004012200019N0400001N1+00791+00451101391ADDAA199000091GA1001+999999999GF100991001001999999001001KA1999M+01551MD1210061+9999REMSYN064AAXX  30181 28791 32982 03004 10079 20045 40139 52006 333 10155;EQDQ01  00002PRCP99
0122287910999992000083100004+54610+072570FM-12+010999999V0203101N003012200019N0500001N1+00461+00341101591ADDGA1001+999999999GF100991001001999999001001MD1210121+9999REMSYN054AAXX  31001 28791 42999 03103 10046 20034 40159 52012;
0165287910999992000083106004+54610+072570FM-12+010999999V0203301N006010300019N0500001N1+01221+00561101821ADDAA199000091GF106991021061004501031001KA1999N+00421MD1210121+9999REMSYN070AAXX  31061 28791 32499 63306 10122 20056 40182 52012 82630 333 20042;EQDQ01  00002PRCP99
0112287910999992000083112004+54610+072570FM-12+010999999V0203201N006010075019N0500001N1+01641+00341101951ADDGF105991051091008001001001MD1210091+9999REMSYN060AAXX  31121 28791 42599 53206 10164 20034 40195 52009 85900;
0175287910999992000083118004+54610+072570FM-12+010999999V0203201N002012200019N0400001N1+00781+00411102261ADDAA199000091GA1001+999999999GF100991001001999999001001KA1999M+01771MD1210091+9999REMSYN064AAXX  31181 28791 32982 03202 10078 20041 40226 52009 333 10177;EQDQ01  00002PRCP99
0122287910999992000090100004+54610+072570FM-12+010999999V0202701N001012200019N0500001N1+00451+00251102421ADDGA1001+999999999GF100991001001999999001001MD1210081+9999REMSYN054AAXX  01001 28791 42999 02701 10045 20025 40242 52008;
0165287910999992000090106004+54610+072570FM-12+010999999V0202701N005019999999N0500001N1+01651+00381102481ADDAA199000091GF106991001001999999001091KA1999N+00341MD1210021+9999REMSYN070AAXX  01061 28791 32999 62705 10165 20038 40248 52002 80009 333 20034;EQDQ01  00002PRCP99
0112287910999992000090112004+54610+072570FM-12+010999999V0202601N003012200019N0500001N1+02001+00271102341ADDGF103991031001999999031001MD1710071+9999REMSYN060AAXX  01121 28791 42999 32603 10200 20027 40234 57007 83030;
0175287910999992000090118004+54610+072570FM-12+010999999V0202201N001012200019N0400001N1+00961+00561102531ADDAA199000091GA1001+999999999GF100991001001999999001001KA1999M+02071MD1210051+9999REMSYN064AAXX  01181 28791 32982 02201 10096 20056 40253 52005 333 10207;EQDQ01  00002PRCP99
0122287910999992000090200004+54610+072570FM-12+010999999V0209999C000012200019N0200001N1+00641+00431102601ADDGA1001+999999999GF100991001001999999001001MD1210031+9999REMSYN054AAXX  02001 28791 42998 00000 10064 20043 40260 52003;
0165287910999992000090206004+54610+072570FM-12+010999999V0202701N002012200019N0500001N1+02101+00561102621ADDAA199000091GF102991021041999999001001KA1999N+00521MD1410001+9999REMSYN070AAXX  02061 28791 32999 22702 10210 20056 40262 54000 82400 333 20052;EQDQ01  00002PRCP99
0112287910999992000090212004+54610+072570FM-12+010999999V0202601N002010300019N0500001N1+02331+00641102491ADDGF107991031091008001071001MD1710041+9999REMSYN060AAXX  02121 28791 42599 72602 10233 20064 40249 57004 83970;
0175287910999992000090218004+54610+072570FM-12+010999999V0200901N002012200019N0400001N1+01081+00641102641ADDAA199000091GA1001+999999999GF100991001001999999001001KA1999M+02461MD1210061+9999REMSYN064AAXX  02181 28791 32982 00902 10108 20064 40264 52006 333 10246;EQDQ01  00002PRCP99
0112287910999992000090300004+54610+072570FM-12+010999999V0200801N001019999999N0500001N1+01051+00781102701ADDGF105991051001999999031001MD1210051+9999REMSYN060AAXX  03001 28791 42999 50801 10105 20078 40270 52005 85030;
0165287910999992000090306004+54610+072570FM-12+010999999V0200801N002019999999N0500001N1+02161+00701102741ADDAA199000091GF106991001001999999001091KA1999N+01021MD1410001+9999REMSYN070AAXX  03061 28791 32999 60802 10216 20070 40274 54000 80009 333 20102;EQDQ01  00002PRCP99
0112287910999992000090312004+54610+072570FM-12+010999999V0200801N001010075019N0500001N1+02421+00641102591ADDGF105991051041008001001001MD1710071+9999REMSYN060AAXX  03121 28791 42599 50801 10242 20064 40259 57007 85400;
0175287910999992000090318004+54610+072570FM-12+010999999V0201001N002012200019N0350001N1+01151+00511102701ADDAA199000091GA1001+999999999GF100991001001999999001001KA1999M+02541MD1210031+9999REMSYN064AAXX  03181 28791 32981 01002 10115 20051 40270 52003 333 10254;EQDQ01  00002PRCP99
0112287910999992000090400004+54610+072570FM-12+010999999V0200801N002012200019N0200001N1+00781+00511102781ADDGF102991001001999999001011MD1210021+9999REMSYN060AAXX  04001 28791 42998 20802 10078 20051 40278 52002 80001;
0175287910999992000090406004+54610+072570FM-12+010999999V0201401N004012200019N0500001N1+02151+00481102631ADDAA199000091GA1001+999999999GF100991001001999999001001KA1999N+00681MD1710071+9999REMSYN064AAXX  04061 28791 32999 01404 10215 20048 40263 57007 333 20068;EQDQ01  00002PRCP99
0122287910999992000090412004+54610+072570FM-12+010999999V0200901N003012200019N0500001N1+02371+00301102281ADDGA1001+999999999GF100991001001999999001001MD1710151+9999REMSYN054AAXX  04121 28791 42999 00903 10237 20030 40228 57015;
0175287910999992000090418004+54610+072570FM-12+010999999V0200801N002012200019N0350001N1+01151+00401102271ADDAA199000091GA1001+999999999GF100991001001999999001001KA1999M+02471MD1710021+9999REMSYN064AAXX  04181 28791 32981 00802 10115 20040 40227 57002 333 10247;EQDQ01  00002PRCP99
0122287910999992000090500004+54610+072570FM-12+010999999V0200601N003012200019N0200001N1+00651+00391102231ADDGA1001+999999999GF100991001001999999001001MD1710031+9999REMSYN054AAXX  05001 28791 42998 00603 10065 20039 40223 57003;
0165287910999992000090506004+54610+072570FM-12+010999999V0200901N006012200019N0500001N1+02301+00411102041ADDAA199000091GF101991001001999999001011KA1999N+00621MD1710111+9999REMSYN070AAXX  05061 28791 32999 10906 10230 20041 40204 57011 80001 333 20062;EQDQ01  00002PRCP99
0122287910999992000090512004+54610+072570FM-12+010999999V0200901N005012200019N0500001N1+02531+00091101751ADDGA1001+999999999GF100991001001999999001001MD1710091+9999REMSYN054AAXX  05121 28791 42999 00905 10253 20009 40175 57009;
0175287910999992000090518004+54610+072570FM-12+010999999V0200901N003012200019N0400001N1+01381+00451101801ADDAA199000091GA1001+999999999GF100991001001999999001001KA1999M+02651MD1710011+9999REMSYN064AAXX  05181 28791 32982 00903 10138 20045 40180 57001 333 10265;EQDQ01  00002PRCP99
0122287910999992000090600004+54610+072570FM-12+010999999V0201001N004012200019N0200001N1+00841+00591101711ADDGA1001+999999999GF100991001001999999001001MD1710081+9999REMSYN054AAXX  06001 28791 42998 01004 10084 20059 40171 57008;
0165287910999992000090606004+54610+072570FM-12+010999999V0201001N007012200019N0500001N1+02231+00671101491ADDAA199000091GF103991001001999999001011KA1999N+00691MD1710091+9999REMSYN070AAXX  06061 28791 32999 31007 10223 20067 40149 57009 80001 333 20069;EQDQ01  00002PRCP99
0106287910999992000090612004+54610+072570FM-12+010999999V0201001N005019999999N0500001N1+02611+00401999999ADDGF106991001001999999001041MD1710081+9999REMSYN054AAXX  06121 28791 42999 61005 10261 20040 57008 80004;
0175287910999992000090618004+54610+072570FM-12+010999999V0201001N003012200019N0400001N1+01481+00611101361ADDAA199000091GA1001+999999999GF100991001001999999001001KA1999M+02701MD1210011+9999REMSYN064AAXX  06181 28791 32982 01003 10148 20061 40136 52001 333 10270;EQDQ01  00002PRCP99
0122287910999992000090700004+54610+072570FM-12+010999999V0200601N002012200019N0200001N1+00881+00531101391ADDGA1001+999999999GF100991001001999999001001MD1210011+9999REMSYN054AAXX  07001 28791 42998 00602 10088 20053 40139 52001;
0165287910999992000090706004+54610+072570FM-12+010999999V0201101N005012200019N0500001N1+02231+00781101451ADDAA199000091GF102991001001999999001011KA1999N+00761MD1210031+9999REMSYN070AAXX  07061 28791 32999 21105 10223 20078 40145 52003 80001 333 20076;EQDQ01  00002PRCP99
0122287910999992000090712004+54610+072570FM-12+010999999V0201001N001012200019N0500001N1+02531+00561101481ADDGA1001+999999999GF100991001001999999001001MD1210051+9999REMSYN054AAXX  07121 28791 42999 01001 10253 20056 40148 52005;
0175287910999992000090718004+54610+072570FM-12+010999999V0203101N001012200019N0400001N1+01221+00621101701ADDAA199000091GA1001+999999999GF100991001001999999001001KA1999M+02611MD1210031+9999REMSYN064AAXX  07181 28791 32982 03101 10122 20062 40170 52003 333 10261;EQDQ01  00002PRCP99
0106287910999992000090800004+54610+072570FM-12+010999999V0202601N001012200019N0200001N1+01011+00551999999ADDGF102991001001999999001011MD1210071+9999REMSYN054AAXX  08001 28791 42998 22601 10101 20055 52007 80001;
0175287910999992000090806004+54610+072570FM-12+010999999V0202701N005012200019N0500001N1+02641+01371101851ADDAA199000091GA1001+999999999GF100991001001999999001001KA1999N+00891MD1410001+9999REMSYN064AAXX  08061 28791 32999 02705 10264 20137 40185 54000 333 20089;EQDQ01  00002PRCP99
0122287910999992000090812004+54610+072570FM-12+010999999V0202601N005012200019N0500001N1+02891+00431101731ADDGA1001+999999999GF100991001001999999001001MD1410001+9999REMSYN054AAXX  08121 28791 42999 02605 10289 20043 40173 54000;
0175287910999992000090818004+54610+072570FM-12+010999999V0202201N002012200019N0400001N1+01381+00561101861ADDAA199000091GA1001+999999999GF100991001001999999001001KA1999M+03001MD1410001+9999REMSYN064AAXX  08181 28791 32982 02202 10138 20056 40186 54000 333 10300;EQDQ01  00002PRCP99
0112287910999992000090900004+54610+072570FM-12+010999999V0202201N003012200019N0200001N1+01221+00481101651ADDGF102991001001999999001011MD1710111+9999REMSYN060AAXX  09001 28791 42998 22203 10122 20048 40165 57011 80001;
0165287910999992000090906004+54610+072570FM-12+010999999V0202401N004012200019N0500001N1+02731+00131101381ADDAA199000091GF102991001001999999001011KA1999N+01111MD1710141+9999REMSYN070AAXX  09061 28791 32999 22404 10273 20013 40138 57014 80001 333 20111;EQDQ01  00002PRCP99
0112287910999992000090912004+54610+072570FM-12+010999999V0202301N005010750019N0500001N1+02981+00021100931ADDGF106991021091008001001051MD1710191+9999REMSYN060AAXX  09121 28791 42599 62305 10298 20002 40093 57019 82905;
0165287910999992000090918004+54610+072570FM-12+010999999V0200501N004012200019N0300001N1+01761+01051100911ADDAA199000091GF102991001001999999001011KA1999M+03111MD1710011+9999REMSYN070AAXX  09181 28791 32980 20504 10176 20105 40091 57001 80001 333 10311;EQDQ01  00002PRCP99
0112287910999992000091000004+54610+072570FM-12+010999999V0200201N004019999999N0400001N1+01111+00821100851ADDGF108991001001999999001051MD1710051+9999REMSYN060AAXX  10001 28791 42982 80204 10111 20082 40085 57005 80005;
0165287910999992000091006004+54610+072570FM-12+010999999V0200301N004012200019N0500001N1+01591+00701100841ADDAA199000091GF102991001001999999001011KA1999N+01061MD1210011+9999REMSYN070AAXX  10061 28791 32999 20304 10159 20070 40084 52001 80001 333 20106;EQDQ01  00002PRCP99
0112287910999992000091012004+54610+072570FM-12+010999999V0200601N005010300019N0500001N1+01911+00731100721ADDGF107991031041008001041001MD1710031+9999REMSYN060AAXX  10121 28791 42599 70605 10191 20073 40072 57003 83440;
0165287910999992000091018004+54610+072570FM-12+010999999V0200501N005012200019N0300001N1+01101+00561100631ADDAA199000091GF102991021001999999031001KA1999M+02021MD1710111+9999REMSYN070AAXX  10181 28791 32980 20505 10110 20056 40063 57011 82030 333 10202;EQDQ01  00002PRCP99
0122287910999992000091100004+54610+072570FM-12+010999999V0201101N002012200019N0400001N1+00681+00471100421ADDGA1001+999999999GF100991001001999999001001MD1710121+9999REMSYN054AAXX  11001 28791 42982 01102 10068 20047 40042 57012;
0165287910999992000091106004+54610+072570FM-12+010999999V0202601N002019999999N0500001N1+01481+00651100521ADDAA199000091GF108991001001999999001041KA1999N+00631MD1210151+9999REMSYN070AAXX  11061 28791 32999 82602 10148 20065 40052 52015 80004 333 20063;EQDQ01  00002PRCP99
0112287910999992000091112004+54610+072570FM-12+010999999V0202701N001019999999N0500001N1+01841+00781100301ADDGF108991081001999999041999MD1710051+9999REMSYN060AAXX  11121 28791 42999 82701 10184 20078 40030 57005 8804/;
0193287910999992000091118004+54610+072570FM-12+010999999V0203101N003019999999N0350001N1+01381+00901100371ADDAA199000091AY161061AY221061GF108991081001999999071999KA1999M+01991MD1710061+9999MW1021REMSYN076AAXX  11181 28791 31981 83103 10138 20090 40037 57006 70262 8807/ 333 10199;EQDQ01  00002PRCP99
0140287910999992000091200004+54610+072570FM-12+010999999V0203101N003019999999N0400001N1+00981+00841100411ADDAY161061AY221061GF108991081001999999071999MD1710011+9999MW1021REMSYN066AAXX  12001 28791 41982 83103 10098 20084 40041 57001 70262 8807/;
0152287910999992000091206004+54610+072570FM-12+010999999V0202701N001010300019N0500001N1+01151+00511100411ADDAA100000391GF108991021061004501011999KA1999N+00911MD1710021+9999REMSYN076AAXX  12061 28791 12499 82701 10115 20051 40041 57002 69930 8261/ 333 20091;
0140287910999992000091212004+54610+072570FM-12+010999999V0202801N002019999999N0500001N1+01031+00671100601ADDAY161061AY221061GF108991081001999999021999MD1210181+9999MW1211REMSYN066AAXX  12121 28791 41999 82802 10103 20067 40060 52018 72162 8802/;
0129287910999992000091218004+54610+072570FM-12+010999999V0202501N002019999999N0350001N1+00741+00561101001ADDGF105991999999999999999999KA1999M+01301MD1210181+9999REMSYN064AAXX  12181 28791 12981 52502 10074 20056 40100 52018 333 10130;
0150287910999992000091300004+54610+072570FM-12+010999999V0202201N001012200019N0060001N1+00341+00291101381ADDAY111061AY211061GA1001+999999999GF100991001001999999001001MD1210181+9999MW1101REMSYN060AAXX  13001 28791 41956 02201 10034 20029 40138 52018 71011;
0203287910999992000091306004+54610+072570FM-12+010999999V0202401N005012200019N0500001N1+01501+00641101701ADDAA199000091AY141061AY211061GA1001+999999999GF100991001001999999001001KA1999N+00251MD1210071+9999MW1011REMSYN070AAXX  13061 28791 31999 02405 10150 20064 40170 52007 70141 333 20025;EQDQ01  00002PRCP99
0112287910999992000091312004+54610+072570FM-12+010999999V0202501N004012200019N0500001N1+01851+00231101721ADDGF103991031041008001001001MD1210011+9999REMSYN060AAXX  13121 28791 42599 32504 10185 20023 40172 52001 83400;
0165287910999992000091318004+54610+072570FM-12+010999999V0201401N002019999999N0400001N1+00831+00501101751ADDAA199000091GF106991001001999999001041KA1999M+01921MD1710051+9999REMSYN070AAXX  13181 28791 32982 61402 10083 20050 40175 57005 80004 333 10192;EQDQ01  00002PRCP99
0112287910999992000091400004+54610+072570FM-12+010999999V0201601N004012200019N0400001N1+00891+00411101461ADDGF102991001001999999001011MD1710131+9999REMSYN060AAXX  14001 28791 42982 21604 10089 20041 40146 57013 80001;
0188287910999992000091406004+54610+072570FM-12+010999999V0201501N010019999999N0500001N1+01911+00301100911ADDAA199000091GF108991001001999999001011KA1120N+00811MD1710271+9999OA140101401REMSYN082AAXX  14061 28791 32999 81510 10191 20030 40091 57027 80001 333 20081 91014 91114;EQDQ01  00002PRCP99
0139287910999992000091412004+54610+072570FM-12+010999999V0201501N009010750019N0500001N1+02161+00381100171ADDGF108991011051008001001091MD1710331+9999OA140101301REMSYN076AAXX  14121 28791 42599 81509 10216 20038 40017 57033 81509 333 91013 91118;
0186287910999992000091418004+54610+072570FM-12+010999999V0202301N007019999999N0350001N1+01431+01231099991ADDAA100000591AY161061AY221061GF108991081001999999071999KA1120M+02351MD1710051+9999MW1021REMSYN088AAXX  14181 28791 11981 82307 10143 20123 49999 57005 69940 70262 8807/ 333 10235 91113;
0122287910999992000091500004+54610+072570FM-12+010999999V0202201N005012200019N0400001N1+00761+00361100221ADDGA1001+999999999GF100991001001999999001001MD1210011+9999REMSYN054AAXX  15001 28791 42982 02205 10076 20036 40022 52001;
0197287910999992000091506004+54610+072570FM-12+010999999V0202201N009010066019N0500001N1+01281+00401100291ADDAA100002091GA1061+006609099GF106991061091008001001001KA1120N+00701MD1210041+9999OA140101401REMSYN094AAXX  15061 28791 12599 62209 10128 20040 40029 52004 60020 86900 333 20070 86922 91014 91114;
0161287910999992000091512004+54610+072570FM-12+010999999V0202401N009010072019N0500001N1+01511+00041100271ADDGA1071+007209069GF107991071051008001001001MD1410001+9999OA140101401REMSYN082AAXX  15121 28791 42599 72409 10151 20004 40027 54000 87500 333 87624 91014 91119;
0188287910999992000091518004+54610+072570FM-12+010999999V0202501N009012200019N0350001N1+01221+00001100301ADDAA199000091GF102991021051008001001001KA1120M+01571MD1710031+9999OA140101301REMSYN082AAXX  15181 28791 32581 22509 10122 20000 40030 57003 82500 333 10157 91013 91114;EQDQ01  00002PRCP99
0144287910999992000091600004+54610+072570FM-12+010999999V0202401N008010081019N0400001N1+00861+00341100421ADDGA1071+008109069GF107991071051008001001001MD1210051+9999REMSYN076AAXX  16001 28791 42582 72408 10086 20034 40042 52005 87500 333 87627 91113;
0188287910999992000091606004+54610+072570FM-12+010999999V0202601N008010042019N0500001N1+00971+00301100721ADDAA199000091GF108991081051004501999999KA1120N+00821MD1210181+9999OA140101201REMSYN082AAXX  16061 28791 32499 82608 10097 20030 40072 52018 885// 333 20082 91012 91113;EQDQ01  00002PRCP99
0139287910999992000091612004+54610+072570FM-12+010999999V0202701N007010042019N0500001N1+01091+00301101131ADDGF108991081051004501999999MD1210231+9999OA140101101REMSYN076AAXX  16121 28791 42499 82707 10109 20030 40113 52023 885// 333 91011 91114;
0165287910999992000091618004+54610+072570FM-12+010999999V0202701N004010075019N0350001N1+00761+00251101481ADDAA199000091GF105991051051008001001001KA1999M+01181MD1210171+9999REMSYN070AAXX  16181 28791 32581 52704 10076 20025 40148 52017 85500 333 10118;EQDQ01  00002PRCP99
0122287910999992000091700004+54610+072570FM-12+010999999V0203001N002012200019N0400001N1+00251+00061101741ADDGA1001+999999999GF100991001001999999001001MD1210121+9999REMSYN054AAXX  17001 28791 42982 03002 10025 20006 40174 52012;
0165287910999992000091706004+54610+072570FM-12+010999999V0202701N001010075019N0500001N1+01051+00341101881ADDAA199000091GF108991051091008001001011KA1999N+00161MD1210051+9999REMSYN070AAXX  17061 28791 32599 82701 10105 20034 40188 52005 85901 333 20016;EQDQ01  00002PRCP99
0112287910999992000091712004+54610+072570FM-12+010999999V0202101N002019999999N0500001N1+01201+00271101651ADDGF108991081001999999041999MD1710091+9999REMSYN060AAXX  17121 28791 42999 82102 10120 20027 40165 57009 8804/;
0187287910999992000091718004+54610+072570FM-12+010999999V0201201N005010081019N0400001N1+01001+00361101201ADDAA199000091GA1061+008109059GF108991061051008001041999KA1120M+01351MD1710281+9999REMSYN076AAXX  17181 28791 32582 81205 10100 20036 40120 57028 8654/ 333 10135 86627;EQDQ01  00002PRCP99
0157287910999992000091800004+54610+072570FM-12+010999999V0201401N007010078019N0400001N1+01041+00271100352ADDGA1071+007809059GF108991071051008001021999MD1710431+9999REMSYN070AAXX  18001 28791 42582 81407 10104 20027 40035 57043 8752/ 333 87626;EQDQ01+100353APOSLP
0187287910999992000091806004+54610+072570FM-12+010999999V0202601N00601004201CN0500001N1+01091+00461100351ADDAA199000091GA1031+024009019GF108991051011004501071999KA1120N+00931MD1210121+9999REMSYN076AAXX  18061 28791 32499 82606 10109 20046 40035 52012 8517/ 333 20093 83058;EQDQ01  00002PRCP99
0179287910999992000091812004+54610+072570FM-12+010999999V0202601N006019999999N0500001N1+01301-00471100261ADDGA1021+054009009GF106991999011004501001999MD1710081+9999REMSYN076AAXX  18121 28791 42499 62606 10130 21047 40026 57008 84100 333 82068 91112;EQDQ01+000042SCOTLCQ02+000002SCOHCG
0151287910999992000091818004+54610+072570FM-12+010999999V0202001N002019999999N0400001N1+00711+00171100101ADDAA199000091GF107991999999008001999999MD1710081+9999REMSYN069AAXX  18181 28791 32582 72002 10071 20017 40010 57008 7500 333 10150;EQDQ01  00002PRCP99
0166287910999992000091900004+54610+072570FM-12+010999999V0202101N002010054019N0400001N1+00521+00381099851ADDAY161061AY221061GA1081+005409059GF108991081051004501999999MD1710081+9999MW1611REMSYN076AAXX  19001 28791 41482 82102 10052 20038 49985 57008 76162 885// 333 88618;
0152287910999992000091906004+54610+072570FM-12+010999999V0202501N004010300019N0500001N1+00781+00461100021ADDAA100000591GF107991031071004501051001KA1999N+00511MD1210131+9999REMSYN076AAXX  19061 28791 12499 72504 10078 20046 40002 52013 69960 83750 333 20051;
0179287910999992000091912004+54610+072570FM-12+010999999V0202801N006010054019N0500001N1+00911+00361100261ADDAY181061AY221061GA1081+005409099GF108991081091004501999999HL10009MD1210261+9999MW1021REMSYN082AAXX  19121 28791 41499 82806 10091 20036 40026 52026 70282 889// 333 88918 93203;
0174287910999992000091918004+54610+072570FM-12+010999999V0202901N005010096019N0350001N1+00521+00301100771ADDAA100000591GA1081+009609059GF108991081051008001999999KA1120M+01201MD1210221+9999REMSYN082AAXX  19181 28791 12581 82905 10052 20030 40077 52022 69940 885// 333 10120 88632;
0112287910999992000092000004+54610+072570FM-12+010999999V0202801N003019999999N0400001N1+00481+00091101171ADDGF108991081001999999021999MD1210221+9999REMSYN060AAXX  20001 28791 42982 82803 10048 20009 40117 52022 8802/;
0165287910999992000092006004+54610+072570FM-12+010999999V0202701N004012200019N0500001N1+00911-00091101491ADDAA199000091GF103991001001999999001091KA1999N+00281MD1210111+9999REMSYN070AAXX  20061 28791 32999 32704 10091 21009 40149 52011 80009 333 20028;EQDQ01  00002PRCP99
0112287910999992000092012004+54610+072570FM-12+010999999V0202701N007010750019N0500001N1+01301+00001101371ADDGF106991021041008001001051MD1710081+9999REMSYN060AAXX  20121 28791 42599 62707 10130 20000 40137 57008 82405;
0165287910999992000092018004+54610+072570FM-12+010999999V0202401N005010042019N0350001N1+01031+00211101381ADDAA199000091GF108991081051004501999999KA1999M+01371MD1410001+9999REMSYN070AAXX  20181 28791 32481 82405 10103 20021 40138 54000 885// 333 10137;EQDQ01  00002PRCP99
0122287910999992000092100004+54610+072570FM-12+010999999V0202401N005012200019N0400001N1+00711+00231101311ADDGA1001+999999999GF100991001001999999001001MD1710051+9999REMSYN054AAXX  21001 28791 42982 02405 10071 20023 40131 57005;
0175287910999992000092106004+54610+072570FM-12+010999999V0202401N007012200019N0500001N1+01361+00301101181ADDAA199000091GA1001+999999999GF100991001001999999001001KA1999N+00571MD1710091+9999REMSYN064AAXX  21061 28791 32999 02407 10136 20030 40118 57009 333 20057;EQDQ01  00002PRCP99
0161287910999992000092112004+54610+072570FM-12+010999999V0202701N008010075019N0500001N1+01501+00211101081ADDGA1061+007509069GF106991061051008001001001MD1210011+9999OA140101201REMSYN082AAXX  21121 28791 42599 62708 10150 20021 40108 52001 86500 333 86625 91012 91116;
0179287910999992000092118004+54610+072570FM-12+010999999V0203001N003019999999N0400001N1+00881+00591101221ADDAA199000021AY161061AY221061GF108991081001999999021999KA1120M+01671MD1210051+9999MW1211REMSYN081AAXX  21181 28791 31982 83003 10088 20059 40122 52005 72162 8802/ 333 10167 9112;
0112287910999992000092200004+54610+072570FM-12+010999999V0203101N004019999999N0400001N1+00361-00611101551ADDGF108991081001999999021999MD1210181+9999REMSYN060AAXX  22001 28791 42982 83104 10036 21061 40155 52018 8802/;
0174287910999992000092206004+54610+072570FM-12+010999999V0203101N005010090019N0500001N1+00181-00471101871ADDAA100001091GA1071+009009059GF108991071051008001001011KA1120N+00081MD1210151+9999REMSYN082AAXX  22061 28791 12599 83105 10018 21047 40187 52015 69990 87501 333 20008 87630;
0157287910999992000092212004+54610+072570FM-12+010999999V0203301N004010093019N0500001N1+00521-00901102051ADDGA1061+009309029GF199999051051008001001001MD1210111+9999REMSYN070AAXX  22121 28791 42599 53304 10052 21090 40205 52011 85500 333 86531;EQDQ01+000052SCOTCV
0175287910999992000092218004+54610+072570FM-12+010999999V0202701N002012200019N0400001N1-00181-00831102371ADDAA199000091GA1001+999999999GF100991001001999999001001KA1999M+00611MD1210071+9999REMSYN064AAXX  22181 28791 32982 02702 11018 21083 40237 52007 333 10061;EQDQ01  00002PRCP99
0122287910999992000092300004+54610+072570FM-12+010999999V0202401N001012200019N0400001N1-00481-00841102481ADDGA1001+999999999GF100991001001999999001001MD1210041+9999REMSYN054AAXX  23001 28791 42982 02401 11048 21084 40248 52004;
0165287910999992000092306004+54610+072570FM-12+010999999V0202101N003012200019N0500001N1+00451-00881102431ADDAA199000091GF106991021011008001001041KA1999N-00741MD1710031+9999REMSYN070AAXX  23061 28791 32599 62103 10045 21088 40243 57003 82104 333 21074;EQDQ01  00002PRCP99
0112287910999992000092312004+54610+072570FM-12+010999999V0202201N001010750019N0500001N1+00541-00811102111ADDGF108991021011008001001071MD1710161+9999REMSYN060AAXX  23121 28791 42599 82201 10054 21081 40211 57016 82107;
0175287910999992000092318004+54610+072570FM-12+010999999V0201001N001012200019N0350001N1-00141-00381101941ADDAA199000091GA1001+999999999GF100991001001999999001001KA1999M+00701MD1710111+9999REMSYN064AAXX  23181 28791 32981 01001 11014 21038 40194 57011 333 10070;EQDQ01  00002PRCP99
0122287910999992000092400004+54610+072570FM-12+010999999V0201001N002012200019N0400001N1-00521-00671101781ADDGA1001+999999999GF100991001001999999001001MD1710061+9999REMSYN054AAXX  24001 28791 42982 01002 11052 21067 40178 57006;
0165287910999992000092406004+54610+072570FM-12+010999999V0200801N004010075019N0500001N1+00481-00471101641ADDAA199000091GF105991051021008001001001KA1999N-00541MD1710071+9999REMSYN070AAXX  24061 28791 32599 50804 10048 21047 40164 57007 85200 333 21054;EQDQ01  00002PRCP99
0138287910999992000092412004+54610+072570FM-12+010999999V0200701N006010054019N0500001N1+00511-00591101651ADDGA1081+005409059GF108991081051004501999999MD1210021+9999REMSYN070AAXX  24121 28791 42499 80706 10051 21059 40165 52002 885// 333 88618;
0187287910999992000092418004+54610+072570FM-12+010999999V0200501N004010054019N0400001N1+00251-00571101531ADDAA199000091GA1081+005409059GF108991081051004501999999KA1120M+00631MD1710131+9999REMSYN076AAXX  24181 28791 32482 80504 10025 21057 40153 57013 885// 333 10063 88618;EQDQ01  00002PRCP99
0138287910999992000092500004+54610+072570FM-12+010999999V0201001N004010051019N0400001N1+00131-00661101151ADDGA1081+005109059GF108991081051004501999999MD1710191+9999REMSYN070AAXX  25001 28791 42482 81004 10013 21066 40115 57019 885// 333 88617;
0188287910999992000092506004+54610+072570FM-12+010999999V0200301N009010300019N0500001N1+00371-00361101141ADDAA199000091GF108991031071004501011999KA1120N+00071MD1710041+9999OA140101401REMSYN082AAXX  25061 28791 32499 80309 10037 21036 40114 57004 8371/ 333 20007 91014 91114;EQDQ01  00002PRCP99
0172287910999992000092512004+54610+072570FM-12+010999999V0200401N006010042019N0500001N1+00291-00131101231ADDAY171061AY221061GA1061+004209079GF108991061071004501021999MD1210111+9999MW1021REMSYN082AAXX  25121 28791 41499 80406 10029 21013 40123 52011 70272 8672/ 333 86714 91114;
0152287910999992000092518004+54610+072570FM-12+010999999V0203201N003019999999N0400001N1+00351-00671101341ADDAA100000791GF108991081001999999021999KA1999M+00461MD1210011+9999REMSYN076AAXX  25181 28791 12982 83203 10035 21067 40134 52001 69900 8802/ 333 10046;
0122287910999992000092600004+54610+072570FM-12+010999999V0203001N004012200019N0400001N1-00311-01031101491ADDGA1001+999999999GF100991001001999999001001MD1210051+9999REMSYN054AAXX  26001 28791 42982 03004 11031 21103 40149 52005;
0165287910999992000092606004+54610+072570FM-12+010999999V0202701N005012200019N0500001N1+00531-00401101591ADDAA199000091GF103991001001999999001011KA1999N-00441MD1210021+9999REMSYN070AAXX  26061 28791 32999 32705 10053 21040 40159 52002 80001 333 21044;EQDQ01  00002PRCP99
0112287910999992000092612004+54610+072570FM-12+010999999V0202201N005019999999N0500001N1+00941-00441101391ADDGF108991081001999999071999MD1710091+9999REMSYN060AAXX  26121 28791 42999 82205 10094 21044 40139 57009 8807/;
0180287910999992000092618004+54610+072570FM-12+010999999V0202201N006019999999N0400001N1+00801-00221101341ADDAA100000791AY161061AY221061GF108991081001999999021999KA1999M+01001MD1710071+9999MW1021REMSYN082AAXX  26181 28791 11982 82206 10080 21022 40134 57007 69900 70262 8802/ 333 10100;
0149287910999992000092700004+54610+072570FM-12+010999999V0202101N008012200019N0400001N1+00481+00041101381ADDGA1001+999999999GF100991001001999999001001MD1210021+9999OA140101201REMSYN070AAXX  27001 28791 42982 02108 10048 20004 40138 52002 333 91012 91113;
0188287910999992000092706004+54610+072570FM-12+010999999V0202201N008019999999N0500001N1+00951+00001101441ADDAA199000091GF108991081001999999011999KA1120N+00391MD1210011+9999OA140101201REMSYN082AAXX  27061 28791 32999 82208 10095 20000 40144 52001 8801/ 333 20039 91012 91112;EQDQ01  00002PRCP99
0139287910999992000092712004+54610+072570FM-12+010999999V0202301N010019999999N0500001N1+01181-00381101421ADDGF108991081001999999071999MD1210011+9999OA140101601REMSYN076AAXX  27121 28791 42999 82310 10118 21038 40142 52001 8807/ 333 91016 91116;
0171287910999992000092718004+54610+072570FM-12+010999999V0201801N003019999999N0350001N1+00781-00361101361ADDAA199000091GF108991081001999999021999KA1120M+01301MD1710111+9999REMSYN076AAXX  27181 28791 32981 81803 10078 21036 40136 57011 8802/ 333 10130 91116;EQDQ01  00002PRCP99
0140287910999992000092800004+54610+072570FM-12+010999999V0201701N003019999999N0070001N1+00561-00021100921ADDAY161061AY221061GF108991081001999999021999MD1710231+9999MW1611REMSYN066AAXX  28001 28791 41957 81703 10056 21002 40092 57023 76162 8802/;
0202287910999992000092806004+54610+072570FM-12+010999999V0201701N006010048019N0040001N1+00741+00411100351ADDAA100000791AY161061AY221061GA1061+004809069GF108991061071004501021999KA1120N+00461MD1710251+9999MW1611REMSYN088AAXX  28061 28791 11496 81706 10074 20041 40035 57025 69900 76162 8672/ 333 20046 86716;
0189287910999992000092812004+54610+072570FM-12+010999999V0202401N008010057019N0500001N1+00941+00171100101ADDAY181061AY261061GA1071+005709099GF107991071091004501001001MD1710091+9999MW1251OA140101301REMSYN088AAXX  28121 28791 41499 72408 10094 20017 40010 57009 72586 87900 333 87919 91013 91114;
0158287910999992000092818004+54610+072570FM-12+010999999V0202001N006019999999N0350001N1+00431-00151100251ADDAA100000791GF108991081001999999021999KA1120M+01261MD1710051+9999REMSYN082AAXX  28181 28791 12981 82006 10043 21015 40025 57005 69900 8802/ 333 10126 91113;
0112287910999992000092900004+54610+072570FM-12+010999999V0202501N004019999999N0350001N1+00381+00071100321ADDGF108991081001999999071999MD1210031+9999REMSYN060AAXX  29001 28791 42981 82504 10038 20007 40032 52003 8807/;
0187287910999992000092906004+54610+072570FM-12+010999999V0203001N004010072019N0500001N1+00501-00121100731ADDAA199000091GA1081+007209059GF108991081051008001999999KA1120N+00371MD1210221+9999REMSYN076AAXX  29061 28791 32599 83004 10050 21012 40073 52022 885// 333 20037 88624;EQDQ01  00002PRCP99
0138287910999992000092912004+54610+072570FM-12+010999999V0202801N006010066019N0500001N1+00581-00291101131ADDGA1071+006609099GF107991071091008001001001MD1210221+9999REMSYN070AAXX  29121 28791 42599 72806 10058 21029 40113 52022 87900 333 87922;
0165287910999992000092918004+54610+072570FM-12+010999999V0202701N004019999999N0400001N1+00421-00301101471ADDAA199000091GF108991081001999999021999KA1999M+00631MD1210111+9999REMSYN070AAXX  29181 28791 32982 82704 10042 21030 40147 52011 8802/ 333 10063;EQDQ01  00002PRCP99
0112287910999992000093000004+54610+072570FM-12+010999999V0202101N003010300019N0350001N1+00181-00011101481ADDGF108991021071004501021999MD1710021+9999REMSYN060AAXX  30001 28791 42481 82103 10018 21001 40148 57002 8272/;
0202287910999992000093006004+54610+072570FM-12+010999999V0202201N007010063019N0100001N1+00441+00191101371ADDAA100000391AY161061AY221061GA1081+006309029GF108991081001008001021999KA1120N+00111MD1710041+9999MW1611REMSYN088AAXX  30061 28791 11597 82207 10044 20019 40137 57004 69930 76162 8802/ 333 20011 88521;
0166287910999992000093012004+54610+072570FM-12+010999999V0202401N005010063019N0100001N1+00421+00301101371ADDAY161061AY221061GA1081+006309029GF108991081001008001021999MD1210041+9999MW1611REMSYN076AAXX  30121 28791 41597 82405 10042 20030 40137 52004 76162 8802/ 333 88521;
0180287910999992000093018004+54610+072570FM-12+010999999V0202301N003019999999N0400001N1+00401+00281101261ADDAA100001091AY161061AY221061GF108991081001999999071999KA1999M+00501MD1710081+9999MW1211REMSYN082AAXX  30181 28791 11982 82303 10040 20028 40126 57008 60010 72162 8807/ 333 10050;
0140287910999992000100100004+54610+072570FM-12+010999999V0209999C000019999999N0080001N1+00421+00301101191ADDAY121061AY221061GF108991081001999999071999MD1710041+9999MW1101REMSYN066AAXX  01001 28791 41958 80000 10042 20030 40119 57004 71022 8807/;
0202287910999992000100106004+54610+072570FM-12+010999999V0202601N003010048019N0500001N1+00611+00301101311ADDAA100000591AY161061AY221061GA1061+004809069GF108991061071004501071999KA1120N+00361MD1210081+9999MW1021REMSYN088AAXX  01061 28791 11499 82603 10061 20030 40131 52008 69940 70262 8677/ 333 20036 86716;
0140287910999992000100112004+54610+072570FM-12+010999999V0203201N002019999999N0040001N1+00621+00201101451ADDAY161061AY221061GF108991081001999999071999MD1210101+9999MW1611REMSYN066AAXX  01121 28791 41996 83202 10062 20020 40145 52010 76162 8807/;
0190287910999992000100118004+54610+072570FM-12+010999999V0202801N002012200019N0400001N1+00111+00001101851ADDAA100000791AY161061AY211061GA1001+999999999GF100991001001999999001001KA1999M+00711MD1210161+9999MW1011REMSYN076AAXX  01181 28791 11982 02802 10011 20000 40185 52016 69900 70161 333 10071;
0112287910999992000100200004+54610+072570FM-12+010999999V0203301N002019999999N0350001N1-00091-00161102171ADDGF107991071001999999071001MD1210161+9999REMSYN060AAXX  02001 28791 42981 73302 11009 21016 40217 52016 87070;
0187287910999992000100206004+54610+072570FM-12+010999999V0200301N003010078019N0500001N1+00091-00201102541ADDAA199000091GA1071+007809059GF107991071051008001001001KA1120N-00231MD1210151+9999REMSYN076AAXX  02061 28791 32599 70303 10009 21020 40254 52015 87500 333 21023 87626;EQDQ01  00002PRCP99
0165287910999992000100218004+54610+072570FM-12+010999999V0200501N003019999999N0350001N1+00101-00431102941ADDAA199000091GF108991081001999999021999KA1999M+00501MD1210071+9999REMSYN070AAXX  02181 28791 32981 80503 10010 21043 40294 52007 8802/ 333 10050;EQDQ01  00002PRCP99
0112287910999992000100300004+54610+072570FM-12+010999999V0200301N002019999999N0400001N1-00171-00551103081ADDGF108991081001999999071999MD1210081+9999REMSYN060AAXX  03001 28791 42982 80302 11017 21055 40308 52008 8807/;
0187287910999992000100306004+54610+072570FM-12+010999999V0200701N004010081019N0500001N1+00131-00621103141ADDAA199000091GA1061+008109059GF108991061051008001041999KA1120N-00241MD1210021+9999REMSYN076AAXX  03061 28791 32599 80704 10013 21062 40314 52002 8654/ 333 21024 86627;EQDQ01  00002PRCP99
0138287910999992000100312004+54610+072570FM-12+010999999V0200501N004010054019N0500001N1+00111-00151103101ADDGA1081+005409059GF108991081051004501999999MD1210011+9999REMSYN070AAXX  03121 28791 42499 80504 10011 21015 40310 52001 885// 333 88618;
0165287910999992000100318004+54610+072570FM-12+010999999V0200201N001010075019N0400001N1-00091-00221103101ADDAA199000091GF108991081051008001999999KA1999M+00211MD1710041+9999REMSYN070AAXX  03181 28791 32582 80201 11009 21022 40310 57004 885// 333 10021;EQDQ01  00002PRCP99
0138287910999992000100400004+54610+072570FM-12+010999999V0200401N002010078019N0300001N1-00181-00261102931ADDGA1081+007809059GF108991081051008001999999MD1710071+9999REMSYN070AAXX  04001 28791 42580 80402 11018 21026 40293 57007 885// 333 88626;
0165287910999992000100406004+54610+072570FM-12+010999999V0200701N004019999999N0500001N1+00111-00671102761ADDAA199000091GF108991081001999999071999KA1999N-00241MD1710081+9999REMSYN070AAXX  04061 28791 32999 80704 10011 21067 40276 57008 8807/ 333 21024;EQDQ01  00002PRCP99
0138287910999992000100412004+54610+072570FM-12+010999999V0200701N003010096019N0500001N1+00131-00381102541ADDGA1081+009609059GF108991081051008001999999MD1710081+9999REMSYN070AAXX  04121 28791 42599 80703 10013 21038 40254 57008 885// 333 88632;
0187287910999992000100418004+54610+072570FM-12+010999999V0200701N003010093019N0400001N1-00051-00291102581ADDAA199000091GA1081+009309059GF108991081051008001999999KA1120M+00181MD1210051+9999REMSYN076AAXX  04181 28791 32582 80703 11005 21029 40258 52005 885// 333 10018 88631;EQDQ01  00002PRCP99
0138287910999992000100500004+54610+072570FM-12+010999999V0200501N003010087019N0350001N1-00241-00361102851ADDGA1081+008709059GF108991081051008001999999MD1210131+9999REMSYN070AAXX  05001 28791 42581 80503 11024 21036 40285 52013 885// 333 88629;
0187287910999992000100506004+54610+072570FM-12+010999999V0200701N005010093019N0500001N1+00031-00801102931ADDAA199000091GA1081+009309059GF108991081051008001999999KA1120N-00291MD1210061+9999REMSYN076AAXX  05061 28791 32599 80705 10003 21080 40293 52006 885// 333 21029 88631;EQDQ01  00002PRCP99
0138287910999992000100512004+54610+072570FM-12+010999999V0200701N003010081019N0500001N1+00161-00791103031ADDGA1081+008109059GF108991081051008001999999MD1210071+9999REMSYN070AAXX  05121 28791 42599 80703 10016 21079 40303 52007 885// 333 88627;
0165287910999992000100518004+54610+072570FM-12+010999999V0200801N001019999999N0400001N1-00021-00331103281ADDAA199000091GF108991081001999999021999KA1999M+00221MD1210071+9999REMSYN070AAXX  05181 28791 32982 80801 11002 21033 40328 52007 8802/ 333 10022;EQDQ01  00002PRCP99
0112287910999992000100600004+54610+072570FM-12+010999999V0200601N002019999999N0400001N1-00121-00351103291ADDGF108991081001999999021999MD1410001+9999REMSYN060AAXX  06001 28791 42982 80602 11012 21035 40329 54000 8802/;
0165287910999992000100606004+54610+072570FM-12+010999999V0200401N004012200019N0500001N1+00171-00451103361ADDAA199000091GF103991001001999999001011KA1999N-00191MD1710021+9999REMSYN070AAXX  06061 28791 32999 30404 10017 21045 40336 57002 80001 333 21019;EQDQ01  00002PRCP99
0138287910999992000100612004+54610+072570FM-12+010999999V0203401N004010093019N0500001N1+00081-01071103121ADDGA1071+009309059GF107991071051008001001001MD1710071+9999REMSYN070AAXX  06121 28791 42599 73404 10008 21107 40312 57007 87500 333 87631;
0187287910999992000100618004+54610+072570FM-12+010999999V0203001N004010099019N0400001N1-00081-00431102981ADDAA199000091GA1081+009909059GF108991081051008001999999KA1120M+00351MD1710081+9999REMSYN076AAXX  06181 28791 32582 83004 11008 21043 40298 57008 885// 333 10035 88633;EQDQ01  00002PRCP99
0166287910999992000100700004+54610+072570FM-12+010999999V0203001N004010069019N0230001N1-00201-00351102731ADDAY171061AY221061GA1081+006909029GF108991081001008001021999MD1710081+9999MW1711REMSYN076AAXX  07001 28791 41573 83004 11020 21035 40273 57008 77172 8802/ 333 88523;
0202287910999992000100706004+54610+072570FM-12+010999999V0200201N004010054019N0500001N1+00161-00311102871ADDAA100000791AY181061AY271061GA1071+005409099GF107991071091004501001001KA1120N-00321MD1210101+9999MW1261REMSYN088AAXX  07061 28791 11499 70204 10016 21031 40287 52010 69900 72687 87900 333 21032 87918;
0140287910999992000100712004+54610+072570FM-12+010999999V0200501N005012200019N0500001N1+00061-00601103221ADDAY181061AY211061GF102991021051008001001001MD1210191+9999MW1011REMSYN066AAXX  07121 28791 41599 20505 10006 21060 40322 52019 70181 82500;
0162287910999992000100718004+54610+072570FM-12+010999999V0203101N002012200019N0450001N1-00471-00671103591ADDAA100000791GA1001+999999999GF100991001001999999001001KA1999M+00311MD1210081+9999REMSYN070AAXX  07181 28791 12983 03102 11047 21067 40359 52008 69900 333 10031;
0122287910999992000100800004+54610+072570FM-12+010999999V0203001N002012200019N0400001N1-00801-00901103641ADDGA1001+999999999GF100991001001999999001001MD1210021+9999REMSYN054AAXX  08001 28791 42982 03002 11080 21090 40364 52002;
0165287910999992000100806004+54610+072570FM-12+010999999V0202601N003019999999N0500001N1+00071-00271103621ADDAA199000091GF106991031001999999031091KA1999N-00911MD1410001+9999REMSYN070AAXX  08061 28791 32999 62603 10007 21027 40362 54000 83039 333 21091;EQDQ01  00002PRCP99
0112287910999992000100812004+54610+072570FM-12+010999999V0202301N004012200019N0500001N1+00371-00681103431ADDGF102991001001999999001011MD1710081+9999REMSYN060AAXX  08121 28791 42999 22304 10037 21068 40343 57008 80001;
0165287910999992000100818004+54610+072570FM-12+010999999V0202301N002019999999N0400001N1-00381-00641103341ADDAA199000091GF108991001001999999001041KA1999M+00521MD1710081+9999REMSYN070AAXX  08181 28791 32982 82302 11038 21064 40334 57008 80004 333 10052;EQDQ01  00002PRCP99
0112287910999992000100900004+54610+072570FM-12+010999999V0202201N004012200019N0400001N1-00201-00411103131ADDGF102991001001999999001011MD1710111+9999REMSYN060AAXX  09001 28791 42982 22204 11020 21041 40313 57011 80001;
0165287910999992000100906004+54610+072570FM-12+010999999V0202201N006019999999N0500001N1+00521-00411103011ADDAA199000091GF107991001001999999001091KA1999N-00401MD1710041+9999REMSYN070AAXX  09061 28791 32999 72206 10052 21041 40301 57004 80009 333 21040;EQDQ01  00002PRCP99
0112287910999992000100912004+54610+072570FM-12+010999999V0202101N004019999999N0200001N1+00801+00021102961ADDGF108991081001999999021999MD1410001+9999REMSYN060AAXX  09121 28791 42998 82104 10080 20002 40296 54000 8802/;
0174287910999992000100918004+54610+072570FM-12+010999999V0201701N002019999999N0080001N1+00291-00041103111ADDAA199000021AY161061AY221061GF108991081001999999021999KA1999M+00861MD1210041+9999MW1611REMSYN076AAXX  09181 28791 31958 81702 10029 21004 40311 52004 76162 8802/ 333 10086;
0140287910999992000101000004+54610+072570FM-12+010999999V0201401N002019999999N0400001N1+00041-00231103141ADDAY161061AY221061GF108991081001999999021999MD1210011+9999MW1021REMSYN066AAXX  10001 28791 41982 81402 10004 21023 40314 52001 70262 8802/;
0152287910999992000101006004+54610+072570FM-12+010999999V0201101N002019999999N0500001N1+00361-00141103281ADDAA100000591GF107991071001999999071001KA1999N+00001MD1210061+9999REMSYN076AAXX  10061 28791 12999 71102 10036 21014 40328 52006 69940 87070 333 20000;
0112287910999992000101012004+54610+072570FM-12+010999999V0201301N003019999999N0500001N1+00761-00251103301ADDGF107991071001999999081001MD1210041+9999REMSYN060AAXX  10121 28791 42999 71303 10076 21025 40330 52004 87080;
0137287910999992000101018004+54610+072570FM-12+010999999V0200901N002019999999N0400001N1+00181-00401103401ADDAA199000091GF106991999999999999999999REMSYN069AAXX  10181 28791 32982 60902 10018 21040 40340 5200 86030 333 10098;EQDQ01  00002PRCP99
0122287910999992000101100004+54610+072570FM-12+010999999V0201001N003012200019N0350001N1-00301-00721103451ADDGA1001+999999999GF100991001001999999001001MD1210011+9999REMSYN054AAXX  11001 28791 42981 01003 11030 21072 40345 52001;
0165287910999992000101106004+54610+072570FM-12+010999999V0201101N005019999999N0500001N1+00581-00651103471ADDAA199000091GF108991001001999999001011KA1999N-00601MD1710061+9999REMSYN070AAXX  11061 28791 32999 81105 10058 21065 40347 57006 80001 333 21060;EQDQ01  00002PRCP99
0112287910999992000101112004+54610+072570FM-12+010999999V0200701N004019999999N0500001N1+00561-00551103321ADDGF108991001001999999001051MD1710041+9999REMSYN060AAXX  11121 28791 42999 80704 10056 21055 40332 57004 80005;
0165287910999992000101118004+54610+072570FM-12+010999999V0200701N004019999999N0350001N1+00081-00451103171ADDAA199000091GF107991001001999999001041KA1999M+00781MD1710091+9999REMSYN070AAXX  11181 28791 32981 70704 10008 21045 40317 57009 80004 333 10078;EQDQ01  00002PRCP99
0112287910999992000101200004+54610+072570FM-12+010999999V0200601N005019999999N0300001N1-00081-00331102971ADDGF108991001001999999001071MD1710121+9999REMSYN060AAXX  12001 28791 42980 80605 11008 21033 40297 57012 80007;
0165287910999992000101206004+54610+072570FM-12+010999999V0200601N007019999999N0500001N1+00371-00331102771ADDAA199000091GF108991081001999999071999KA1999N-00361MD1710141+9999REMSYN070AAXX  12061 28791 32999 80607 10037 21033 40277 57014 8807/ 333 21036;EQDQ01  00002PRCP99
0139287910999992000101212004+54610+072570FM-12+010999999V0200801N008010300019N0500001N1+00611-00471102611ADDGF106991041051008001031001MD1210011+9999OA140101201REMSYN076AAXX  12121 28791 42599 60808 10061 21047 40261 52001 84530 333 91012 91113;
0165287910999992000101218004+54610+072570FM-12+010999999V0200801N007019999999N0350001N1+00511-00351102481ADDAA199000091GF108991081001999999011999KA1999M+00751MD1710101+9999REMSYN070AAXX  12181 28791 32981 80807 10051 21035 40248 57010 8801/ 333 10075;EQDQ01  00002PRCP99
0167287910999992000101300004+54610+072570FM-12+010999999V0200701N010019999999N0300001N1+00061-00111102351ADDAY161061AY221061GF108991081001999999021999MD1710091+9999MW1021OA140101301REMSYN082AAXX  13001 28791 41980 80710 10006 21011 40235 57009 70262 8802/ 333 91013 91114;
0180287910999992000101306004+54610+072570FM-12+010999999V0200801N010010300019N0500001N1+00211+00021102231ADDAA100000591AY171061AY221061GF108991021071001501021001KA1999N-00031MD1710041+9999MW1021REMSYN082AAXX  13061 28791 11299 80810 10021 20002 40223 57004 69940 70272 82720 333 21003;
0112287910999992000101312004+54610+072570FM-12+010999999V0200701N007019999999N0500001N1+00331+00121101981ADDGF108991081001999999021999MD1710091+9999REMSYN060AAXX  13121 28791 42999 80707 10033 20012 40198 57009 8802/;
0186287910999992000101318004+54610+072570FM-12+010999999V0200401N006019999999N0040001N1+00021+00021101861ADDAA100001091AY171061AY261061GF108991081001999999021999KA1120M+00461MD1710221+9999MW1711REMSYN088AAXX  13181 28791 11940 80406 10002 20002 40186 57022 60010 77176 8802/ 333 10046 91114;
0140287910999992000101400004+54610+072570FM-12+010999999V0200401N004019999999N0020001N1+00001-00061101481ADDAY171061AY261061GF108991081001999999021999MD1710101+9999MW1711REMSYN066AAXX  14001 28791 41920 80404 10000 21006 40148 57010 77176 8802/;
0202287910999992000101406004+54610+072570FM-12+010999999V0200501N004010048019N0010001N1+00011-00021101371ADDAA100010991AY171061AY221061GA1061+004809069GF108991061071004501021999KA1120N-00071MD1710011+9999MW1731REMSYN088AAXX  14061 28791 11494 80504 10001 21002 40137 57001 60110 77372 8672/ 333 21007 86716;
0166287910999992000101412004+54610+072570FM-12+010999999V0200801N002010039019N0020001N1-00011-00041101551ADDAY171061AY221061GA1081+003909029GF108991081001004501021999MD1210131+9999MW1711REMSYN076AAXX  14121 28791 41495 80802 11001 21004 40155 52013 77172 8802/ 333 88513;
0180287910999992000101418004+54610+072570FM-12+010999999V0202001N001019999999N0005001N1-00011-00011101701ADDAA100010991AY171061AY241061GF108991081001999999071999KA1999M+00071MD1210051+9999MW1441REMSYN082AAXX  14181 28791 11905 82001 11001 21001 40170 52005 60110 74474 8807/ 333 10007;
0140287910999992000101500004+54610+072570FM-12+010999999V0202001N002019999999N0060001N1-00041-00041101821ADDAY141061AY221061GF108991081001999999071999MD1210061+9999MW1101REMSYN066AAXX  15001 28791 41956 82002 11004 21004 40182 52006 71042 8807/;
0174287910999992000101506004+54610+072570FM-12+010999999V0201901N002010087019N0200001N1+00011-00081102091ADDAA100000591GA1071+008709099GF107991071091008001001001KA1120N-00101MD1210071+9999REMSYN082AAXX  15061 28791 12598 71902 10001 21008 40209 52007 69940 87900 333 21010 87929;
0138287910999992000101512004+54610+072570FM-12+010999999V0200401N003010090019N0500001N1+00051-00011102151ADDGA1081+009009059GF108991081041008001999999MD1210051+9999REMSYN070AAXX  15121 28791 42599 80403 10005 21001 40215 52005 884// 333 88630;
0196287910999992000101518004+54610+072570FM-12+010999999V0200801N002010045019N0060001N1+00001-00031102231ADDAA199000021AY171061AY221061GA1081+004509029GF108991081001004501021999KA1120M+00181MD1710011+9999MW1711REMSYN082AAXX  15181 28791 31456 80802 10000 21003 40223 57001 77172 8802/ 333 10018 88515;
0166287910999992000101600004+54610+072570FM-12+010999999V0200801N002010036019N0060001N1-00081-00111102221ADDAY171061AY221061GA1081+003609029GF108991081001004501021999MD1410001+9999MW1711REMSYN076AAXX  16001 28791 41456 80802 11008 21011 40222 54000 77172 8802/ 333 88512;
0202287910999992000101606004+54610+072570FM-12+010999999V0200901N001010030019N0040001N1+00081-00061102281ADDAA100000191AY171061AY241061GA1081+003009029GF108991081001004501021999KA1120N-00131MD1210011+9999MW1711REMSYN088AAXX  16061 28791 11496 80901 10008 21006 40228 52001 69920 77174 8802/ 333 21013 88510;
0140287910999992000101612004+54610+072570FM-12+010999999V0200201N002010300019N0500001N1+00091-00021102271ADDAY171061AY221061GF108991041041008001071999MD1210061+9999MW1021REMSYN066AAXX  16121 28791 41599 80202 10009 21002 40227 52006 70272 8447/;
0180287910999992000101618004+54610+072570FM-12+010999999V0209999C000019999999N0047001N1-00061-00091102281ADDAA100001091AY171061AY221061GF108991081001999999071999KA1999M+00301MD1710051+9999MW1711REMSYN082AAXX  16181 28791 11947 80000 11006 21009 40228 57005 60010 77172 8807/ 333 10030;
0140287910999992000101700004+54610+072570FM-12+010999999V0202501N002019999999N0070001N1-00251-00311102341ADDAY171061AY221061GF108991081001999999011999MD1210031+9999MW1101REMSYN066AAXX  17001 28791 41957 82502 11025 21031 40234 52003 71072 8801/;
0180287910999992000101706004+54610+072570FM-12+010999999V0202401N004019999999N0500001N1-00021-00201102241ADDAA100003091AY171061AY221061GF108991081001999999071999KA1999N-00301MD1210011+9999MW1021REMSYN082AAXX  17061 28791 11999 82404 11002 21020 40224 52001 60030 70272 8807/ 333 21030;
0140287910999992000101712004+54610+072570FM-12+010999999V0203001N003019999999N0040001N1+00041-00071102371ADDAY171061AY221061GF108991081001999999071999MD1210101+9999MW1711REMSYN066AAXX  17121 28791 41996 83003 10004 21007 40237 52010 77172 8807/;
0180287910999992000101718004+54610+072570FM-12+010999999V0203001N002019999999N0060001N1+00071-00041102661ADDAA100000191AY171061AY221061GF108991081001999999021999KA1999M+00051MD1210101+9999MW1711REMSYN082AAXX  17181 28791 11956 83002 10007 21004 40266 52010 69920 77172 8802/ 333 10005;
0140287910999992000101800004+54610+072570FM-12+010999999V0202901N002019999999N0350001N1+00081+00001102831ADDAY171061AY221061GF108991081001999999071999MD1210091+9999MW1021REMSYN066AAXX  18001 28791 41981 82902 10008 20000 40283 52009 70272 8807/;
0202287910999992000101806004+54610+072570FM-12+010999999V0203101N003010045019N0500001N1+00111-00181102951ADDAA100000791AY171061AY221061GA1061+004509069GF108991061071004501021999KA1120N-00011MD1210101+9999MW1021REMSYN088AAXX  18061 28791 11499 83103 10011 21018 40295 52010 69900 70272 8672/ 333 21001 86715;
0166287910999992000101812004+54610+072570FM-12+010999999V0203201N003010057019N0500001N1+00131-00131103021ADDAY181061AY221061GA1071+005709099GF107991071091004501001001MD1410001+9999MW1021REMSYN076AAXX  18121 28791 41499 73203 10013 21013 40302 54000 70282 87900 333 87919;
0174287910999992000101818004+54610+072570FM-12+010999999V0203001N002010051019N0350001N1+00021-00121102961ADDAA100000791GA1081+005109099GF108991081091004501999999KA1120M+00201MD1710081+9999REMSYN082AAXX  18181 28791 12481 83002 10002 21012 40296 57008 69900 889// 333 10020 88917;
0112287910999992000101900004+54610+072570FM-12+010999999V0201801N002019999999N0400001N1+00051-00151102611ADDGF108991081001999999021999MD1710171+9999REMSYN060AAXX  19001 28791 42982 81802 10005 21015 40261 57017 8802/;
0165287910999992000101906004+54610+072570FM-12+010999999V0202901N006019999999N0500001N1+00471+00051102411ADDAA199000091GF108991001001999999001091KA1999N-00021MD1210201+9999REMSYN070AAXX  19061 28791 32999 82906 10047 20005 40241 52020 80009 333 21002;EQDQ01  00002PRCP99
0122287910999992000101912004+54610+072570FM-12+010999999V0202601N007019999999N0500001N1+00551-00061101911ADDGF108991071001999999071011MD1710181+9999REMSYN070AAXX  19121 28791 42999 82607 10055 21006 40191 57018 87071 333 91116;
0165287910999992000101918004+54610+072570FM-12+010999999V0202601N006019999999N0450001N1+00351-00091101501ADDAA199000091GF108991081001999999051999KA1999M+00651MD1710211+9999REMSYN070AAXX  19181 28791 32983 82606 10035 21009 40150 57021 8805/ 333 10065;EQDQ01  00002PRCP99
0140287910999992000102000004+54610+072570FM-12+010999999V0202601N006019999999N0090001N1+00121+00011101041ADDAY161061AY221061GF108991081001999999021999MD1710221+9999MW1611REMSYN066AAXX  20001 28791 41959 82606 10012 20001 40104 57022 76162 8802/;
0202287910999992000102006004+54610+072570FM-12+010999999V0202801N004010039019N0500001N1+00211+00111100861ADDAA100002091AY161061AY221061GA1061+003909069GF108991061071004501021999KA1120N+00061MD1710021+9999MW1021REMSYN088AAXX  20061 28791 11499 82804 10021 20011 40086 57002 60020 70262 8672/ 333 20006 86713;
0166287910999992000102012004+54610+072570FM-12+010999999V0202901N003010036019N0200001N1+00291+00191100821ADDAY151061AY221061GA1081+003609069GF108991081061004501999999MD1710021+9999MW1021REMSYN076AAXX  20121 28791 41498 82903 10029 20019 40082 57002 70252 886// 333 88712;
0215287910999992000102018004+54610+072570FM-12+010999999V0203301N004010033019N0050001N1+00071+00041100771ADDAA100001091AY171061AY211061GA1081+003309029GF108991081001004501021999KA1120M+00321MD1410001+9999REMSYN088AAXX  20181 28791 11450 83304 10007 20004 40077 54000 60010 77671 8802/ 333 10032 88511;EQDQ01+000762PRSWM1
0172287910999992000102100004+54610+072570FM-12+010999999V0203601N006010057019N0040001N1-00801-01021101661ADDAY171061AY221061GA1081+005709059GF108991081001004501021999MD1210401+9999MW1711REMSYN082AAXX  21001 28791 41440 83606 11080 21102 40166 52040 77172 8802/ 333 88519 91113;
0180287910999992000102106004+54610+072570FM-12+010999999V0203501N006010075019N0500001N1-00981-01451102401ADDAA100001091AY181061AY271061GF106991061041008001001001KA1999N-01081MD1210291+9999MW1021REMSYN082AAXX  21061 28791 11599 63506 11098 21145 40240 52029 60010 70287 86400 333 21108;
0122287910999992000102112004+54610+072570FM-12+010999999V0203201N005012200019N0500001N1-00731-01371102801ADDGA1001+999999999GF100991001001999999001001MD1210231+9999REMSYN054AAXX  21121 28791 42999 03205 11073 21137 40280 52023;
0162287910999992000102118004+54610+072570FM-12+010999999V0202801N002012200019N0450001N1-00961-01351103141ADDAA100000791GA1001+999999999GF100991001001999999001001KA1999M+00241MD1210141+9999REMSYN070AAXX  21181 28791 12983 02802 11096 21135 40314 52014 69900 333 10024;
0122287910999992000102200004+54610+072570FM-12+010999999V0202401N002012200019N0400001N1-01161-01401103211ADDGA1001+999999999GF100991001001999999001001MD1210021+9999REMSYN054AAXX  22001 28791 42982 02402 11116 21140 40321 52002;
0165287910999992000102206004+54610+072570FM-12+010999999V0202401N006019999999N0500001N1-00431-00811102941ADDAA199000091GF108991071001999999011011KA1999N-01191MD1710151+9999REMSYN070AAXX  22061 28791 32999 82406 11043 21081 40294 57015 87011 333 21119;EQDQ01  00002PRCP99
0150287910999992000102212004+54610+072570FM-12+010999999V0202401N007019999999N0020001N1-00111-00241102571ADDAY171061AY221061GF108991081001999999021999MD1710101+9999MW1711REMSYN076AAXX  22121 28791 41995 82407 11011 21024 40257 57010 77172 8802/ 333 91113;
0180287910999992000102218004+54610+072570FM-12+010999999V0202401N005010300019N0041001N1-00101-00171102621ADDAA100000891AY171061AY221061GF108991031071004501021999KA1999M+00061MD1710031+9999MW1711REMSYN082AAXX  22181 28791 11441 82405 11010 21017 40262 57003 69970 77172 8372/ 333 10006;
0140287910999992000102300004+54610+072570FM-12+010999999V0202401N005019999999N0300001N1+00011-00141102511ADDAY171061AY221061GF108991081001999999071999MD1710061+9999MW1021REMSYN066AAXX  23001 28791 41980 82405 10001 21014 40251 57006 70272 8807/;
0152287910999992000102306004+54610+072570FM-12+010999999V0202301N006010300019N0500001N1+00081-00181102421ADDAA100000591GF108991021071004501071999KA1999N-00181MD1710021+9999REMSYN076AAXX  23061 28791 12499 82306 10008 21018 40242 57002 69960 8277/ 333 21018;
0112287910999992000102312004+54610+072570FM-12+010999999V0202301N004019999999N0500001N1+00081-00091102321ADDGF108991081001999999071999MD1710041+9999REMSYN060AAXX  23121 28791 42999 82304 10008 21009 40232 57004 8807/;
0165287910999992000102318004+54610+072570FM-12+010999999V0202301N004019999999N0350001N1+00101-00391102221ADDAA199000091GF108991081001999999071999KA1999M+00161MD1710061+9999REMSYN070AAXX  23181 28791 32981 82304 10010 21039 40222 57006 8807/ 333 10016;EQDQ01  00002PRCP99
0112287910999992000102400004+54610+072570FM-12+010999999V0202201N004019999999N0350001N1-00241-00641101991ADDGF107991071001999999031001MD1710131+9999REMSYN060AAXX  24001 28791 42981 72204 11024 21064 40199 57013 87030;
0175287910999992000102406004+54610+072570FM-12+010999999V0201901N004012200019N0500001N1+00111-00721101761ADDAA199000091GA1001+999999999GF100991001001999999001001KA1999N-00391MD1710131+9999REMSYN064AAXX  24061 28791 32999 01904 10011 21072 40176 57013 333 21039;EQDQ01  00002PRCP99
0112287910999992000102412004+54610+072570FM-12+010999999V0201801N004012200019N0500001N1+00061-00851101451ADDGF101991001001999999001011MD1710101+9999REMSYN060AAXX  24121 28791 42999 11804 10006 21085 40145 57010 80001;
0175287910999992000102418004+54610+072570FM-12+010999999V0201701N003012200019N0350001N1-00441-00831101281ADDAA199000091GA1001+999999999GF100991001001999999001001KA1999M+00401MD1710141+9999REMSYN064AAXX  24181 28791 32981 01703 11044 21083 40128 57014 333 10040;EQDQ01  00002PRCP99
0138287910999992000102500004+54610+072570FM-12+010999999V0201801N002010072019N0350001N1-00321-00631101101ADDGA1051+007209059GF105991051051008001001001MD1710091+9999REMSYN070AAXX  25001 28791 42581 51802 11032 21063 40110 57009 85500 333 85624;
0180287910999992000102506004+54610+072570FM-12+010999999V0201801N004010300019N0040001N1-00071-00141101141ADDAA100000791AY171061AY221061GF108991031071004501021999KA1999N-00491MD1210011+9999MW1711REMSYN082AAXX  25061 28791 11496 81804 11007 21014 40114 52001 69900 77172 8372/ 333 21049;
0140287910999992000102512004+54610+072570FM-12+010999999V0209999C000019999999N0040001N1+00011-00051101441ADDAY171061AY221061GF108991081001999999021999MD1210191+9999MW1711REMSYN066AAXX  25121 28791 41996 80000 10001 21005 40144 52019 77172 8802/;
0180287910999992000102518004+54610+072570FM-12+010999999V0202801N003010300019N0210001N1+00121+00071101811ADDAA100002091AY171061AY221061GF108991031071004501021999KA1999M+00071MD1210141+9999MW1021REMSYN082AAXX  25181 28791 11471 82803 10012 20007 40181 52014 60020 70272 8372/ 333 10007;
0140287910999992000102600004+54610+072570FM-12+010999999V0202901N002010300019N0280001N1+00061-00021102221ADDAY161061AY221061GF108991031071004501021999MD1210211+9999MW1021REMSYN066AAXX  26001 28791 41478 82902 10006 21002 40222 52021 70262 8372/;
0152287910999992000102606004+54610+072570FM-12+010999999V0202901N003019999999N0500001N1+00131-00071102761ADDAA100000591GF108991081001999999071999KA1999N-00021MD1210221+9999REMSYN076AAXX  26061 28791 12999 82903 10013 21007 40276 52022 69960 8807/ 333 21002;
0112287910999992000102612004+54610+072570FM-12+010999999V0202301N003019999999N0500001N1+00261-00161102971ADDGF107991001001999999001091MD1210121+9999REMSYN060AAXX  26121 28791 42999 72303 10026 21016 40297 52012 80009;
0175287910999992000102618004+54610+072570FM-12+010999999V0202201N004012200019N0400001N1-00011-00281103031ADDAA199000091GA1001+999999999GF100991001001999999001001KA1999M+00421MD1710041+9999REMSYN064AAXX  26181 28791 32982 02204 11001 21028 40303 57004 333 10042;EQDQ01  00002PRCP99
0122287910999992000102700004+54610+072570FM-12+010999999V0202101N004012200019N0400001N1-00141-00311102821ADDGA1001+999999999GF100991001001999999001001MD1710131+9999REMSYN054AAXX  27001 28791 42982 02104 11014 21031 40282 57013;
0165287910999992000102706004+54610+072570FM-12+010999999V0202101N005019999999N0500001N1+00261-00101102701ADDAA199000091GF108991081001999999071999KA1999N-00221MD1710111+9999REMSYN070AAXX  27061 28791 32999 82105 10026 21010 40270 57011 8807/ 333 21022;EQDQ01  00002PRCP99
0112287910999992000102712004+54610+072570FM-12+010999999V0202101N004019999999N0500001N1+00331-00051102441ADDGF108991081001999999071999MD1710081+9999REMSYN060AAXX  27121 28791 42999 82104 10033 21005 40244 57008 8807/;
0165287910999992000102718004+54610+072570FM-12+010999999V0202201N005019999999N0400001N1+00161-00091102181ADDAA199000091GF108991081001999999071999KA1999M+00601MD1710101+9999REMSYN070AAXX  27181 28791 32982 82205 10016 21009 40218 57010 8807/ 333 10060;EQDQ01  00002PRCP99
0140287910999992000102800004+54610+072570FM-12+010999999V0202501N003019999999N0060001N1+00081+00031102021ADDAY121061AY221061GF108991081001999999071999MD1710071+9999MW1101REMSYN066AAXX  28001 28791 41956 82503 10008 20003 40202 57007 71022 8807/;
0180287910999992000102806004+54610+072570FM-12+010999999V0202401N004010042019N0040001N1+00121+00091102011ADDAA100000791AY161061AY241061GF108991051071004501021999KA1999N+00031MD1210041+9999MW1101REMSYN082AAXX  28061 28791 11496 82404 10012 20009 40201 52004 69900 71064 8572/ 333 20003;
0140287910999992000102812004+54610+072570FM-12+010999999V0202301N006019999999N0040001N1+00231+00071102061ADDAY121061AY221061GF108991081001999999071999MD1210031+9999MW1101REMSYN066AAXX  28121 28791 41996 82306 10023 20007 40206 52003 71022 8807/;
0202287910999992000102818004+54610+072570FM-12+010999999V0202001N004010030019N0060001N1+00201+00121102101ADDAA100000791AY121061AY221061GA1081+003009069GF108991081061004501999999KA1120M+00281MD1710041+9999MW1101REMSYN088AAXX  28181 28791 11456 82004 10020 20012 40210 57004 69900 71022 886// 333 10028 88710;
0166287910999992000102900004+54610+072570FM-12+010999999V0202201N006010027019N0050001N1+00261+00231101931ADDAY151061AY221061GA1081+002709069GF108991081061002501999999MD1710101+9999MW1511REMSYN076AAXX  29001 28791 41350 82206 10026 20023 40193 57010 75152 886// 333 88709;
0202287910999992000102906004+54610+072570FM-12+010999999V0202301N007010033019N0040001N1+00411+00261101691ADDAA100000791AY151061AY221061GA1081+003309069GF108991081061004501999999KA1120N+00161MD1710131+9999MW1101REMSYN088AAXX  29061 28791 11496 82307 10041 20026 40169 57013 69900 71052 886// 333 20016 88711;
0122287910999992000102912004+54610+072570FM-12+010999999V0202301N006012200019N0500001N1+00561+00271101381ADDGA1001+999999999GF100991001001999999001001MD1710131+9999REMSYN054AAXX  29121 28791 42999 02306 10056 20027 40138 57013;
0162287910999992000102918004+54610+072570FM-12+010999999V0202401N006012200019N0300001N1+00261+00131101221ADDAA100000791GA1001+999999999GF100991001001999999001001KA1999M+00591MD1710041+9999REMSYN070AAXX  29181 28791 12980 02406 10026 20013 40122 57004 69900 333 10059;
0138287910999992000103000004+54610+072570FM-12+010999999V0202301N004010027019N0070001N1+00201+00171100911ADDGA1081+002709069GF108991081061002501999999MD1710171+9999REMSYN070AAXX  30001 28791 42357 82304 10020 20017 40091 57017 886// 333 88709;
0215287910999992000103006004+54610+072570FM-12+010999999V0202201N004010024019N0040001N1+00251+00171100401ADDAA199000091AY121061AY221061GA1081+002409069GF108991081061002501999999KA1120N+00051MD1710291+9999MW1101REMSYN082AAXX  30061 28791 31396 82204 10025 20017 40040 57029 71022 886// 333 20005 88708;EQDQ01  00002PRCP99
0185287910999992000103012004+54610+072570FM-12+010999999V0202801N004010030019N0500001N1+00241+00161100021ADDAY161061AY221061GA1081+003009069GF108991999071004501021999MD1710121+9999MW1611REMSYN076AAXX  30121 28791 41499 82804 10024 20016 40002 57012 76162 8872/ 333 88710;EQDQ01+000082SCOTLC
0180287910999992000103018004+54610+072570FM-12+010999999V0202801N003019999999N0280001N1+00021-00071100371ADDAA100002091AY161061AY221061GF108991081001999999021999KA1999M+00351MD1210251+9999MW1021REMSYN082AAXX  30181 28791 11978 82803 10002 21007 40037 52025 60020 70262 8802/ 333 10035;
0185287910999992000103100004+54610+072570FM-12+010999999V0203001N007012200019N0400001N1-00231-00631101252ADDAY181061AY211061GA1001+999999999GF100991001001999999001001MD1210522+9999MW1011REMSYN060AAXX  31001 28791 41982 03007 11023 21063 40125 52052 70181;EQDQ01+101253APOSLPQ02+000522APC3  
0152287910999992000103106004+54610+072570FM-12+010999999V0202701N007012200019N0500001N1-00301-00761101901ADDAA100000791GF106991021051008001001041KA1999N-00481MD1210231+9999REMSYN076AAXX  31061 28791 12599 62707 11030 21076 40190 52023 69900 82504 333 21048;
0138287910999992000103112004+54610+072570FM-12+010999999V0202301N004010075019N0500001N1-00251-00691101821ADDGA1061+007509059GF106991061051008001001001MD1710111+9999REMSYN070AAXX  31121 28791 42599 62304 11025 21069 40182 57011 86500 333 86625;
0187287910999992000103118004+54610+072570FM-12+010999999V0200701N001010093019N0300001N1-00391-00511101481ADDAA199000091GA1081+009309059GF108991081051008001999999KA1120M-00081MD1710171+9999REMSYN076AAXX  31181 28791 32580 80701 11039 21051 40148 57017 885// 333 11008 88631;EQDQ01  00002PRCP99
0140287910999992000110100004+54610+072570FM-12+010999999V0200301N002019999999N0040001N1-00421-00511101371ADDAY171061AY221061GF108991081001999999021999MD1710031+9999MW1711REMSYN066AAXX  01001 28791 41940 80302 11042 21051 40137 57003 77172 8802/;
0180287910999992000110106004+54610+072570FM-12+010999999V0203201N005012200019N0500001N1-00371-00701101811ADDAA100000891AY171061AY211061GF103991021051008001031001KA1999N-00601MD1210241+9999MW1031REMSYN082AAXX  01061 28791 11599 33205 11037 21070 40181 52024 69980 70371 82530 333 21060;
0150287910999992000110112004+54610+072570FM-12+010999999V0202801N004012200019N0500001N1-00671-01181102371ADDAY181061AY211061GA1001+999999999GF100991001001999999001001MD1210311+9999MW1011REMSYN060AAXX  01121 28791 41999 02804 11067 21118 40237 52031 70181;
0162287910999992000110118004+54610+072570FM-12+010999999V0202301N003012200019N0450001N1-00921-01261102641ADDAA100000791GA1001+999999999GF100991001001999999001001KA1999M-00221MD1210091+9999REMSYN070AAXX  01181 28791 12983 02303 11092 21126 40264 52009 69900 333 11022;
0140287910999992000110200004+54610+072570FM-12+010999999V0202101N004019999999N0060001N1-00641-00761102391ADDAY171061AY211061GF108991081001999999021999MD1710171+9999MW1711REMSYN066AAXX  02001 28791 41956 82104 11064 21076 40239 57017 77171 8802/;
0180287910999992000110206004+54610+072570FM-12+010999999V0201801N003019999999N0500001N1-00421-00611102281ADDAA100001091AY171061AY221061GF108991081001999999071999KA1999N-00951MD1710031+9999MW1221REMSYN082AAXX  02061 28791 11999 81803 11042 21061 40228 57003 69990 72272 8807/ 333 21095;
0138287910999992000110212004+54610+072570FM-12+010999999V0202501N001010054019N0500001N1-00361-00581102201ADDGA1081+005409029GF108991081001004501021999MD1710051+9999REMSYN070AAXX  02121 28791 42499 82501 11036 21058 40220 57005 8802/ 333 88518;
0202287910999992000110218004+54610+072570FM-12+010999999V0201601N003010054019N0045001N1-00211-00241101821ADDAA100001091AY171061AY221061GA1081+005409029GF108991081001004501021999KA1120M-00191MD1710281+9999MW1711REMSYN088AAXX  02181 28791 11445 81603 11021 21024 40182 57028 60010 77172 8802/ 333 11019 88518;
0166287910999992000110300004+54610+072570FM-12+010999999V0203301N001010021019N0005001N1-00201-00201101881ADDAY171061AY241061GA1081+002109069GF108991081061002501999999MD1210161+9999MW1761REMSYN076AAXX  03001 28791 41305 83301 11020 21020 40188 52016 77674 886// 333 88707;
0180287910999992000110306004+54610+072570FM-12+010999999V0203401N003010300019N0500001N1-00341-00621102671ADDAA100003091AY171061AY251061GF107991021051008001071001KA1999N-00371MD1210351+9999MW1021REMSYN082AAXX  03061 28791 11599 73403 11034 21062 40267 52035 60030 70275 82570 333 21037;
0112287910999992000110312004+54610+072570FM-12+010999999V0203201N001012200019N0500001N1-00711-01061103271ADDGF101991011001999999071001MD1210291+9999REMSYN060AAXX  03121 28791 42999 13201 11071 21106 40327 52029 81070;
0175287910999992000110318004+54610+072570FM-12+010999999V0202701N001012200019N0450001N1-00921-01261103771ADDAA199000091GA1001+999999999GF100991001001999999001001KA1999M-00261MD1210261+9999REMSYN064AAXX  03181 28791 32983 02701 11092 21126 40377 52026 333 11026;EQDQ01  00002PRCP99
0150287910999992000110400004+54610+072570FM-12+010999999V0203101N001012200019N0060001N1-01521-01651104161ADDAY101061AY201061GA1001+999999999GF100991001001999999001001MD1210161+9999MW1101REMSYN060AAXX  04001 28791 41956 03101 11152 21165 40416 52016 71000;
0175287910999992000110406004+54610+072570FM-12+010999999V0209999C000012200019N0200001N1-01141-01421104451ADDAA199000091GA1001+999999999GF100991001001999999001001KA1999N-01701MD1210121+9999REMSYN064AAXX  04061 28791 32998 00000 11114 21142 40445 52012 333 21170;EQDQ01  00002PRCP99
0112287910999992000110412004+54610+072570FM-12+010999999V0201701N002019999999N0500001N1-01371-01801104541ADDGF106991001001999999001051MD1210041+9999REMSYN060AAXX  04121 28791 42999 61702 11137 21180 40454 52004 80005;
0165287910999992000110418004+54610+072570FM-12+010999999V0201401N006019999999N0350001N1-01101-01461104411ADDAA199000091GF107991071001999999011001KA1999M-00891MD1710071+9999REMSYN070AAXX  04181 28791 32981 71406 11110 21146 40441 57007 87010 333 11089;EQDQ01  00002PRCP99
0220287910999992000110506004+54610+072570FM-12+010999999V0201201N008019999999N0010001N1-00711-00871103611ADDAA100003091AY171061AY231061GF108991081001999999021999KA1120N-01171MD1710101+9999MW1731OA140101201OA249901201REMSYN100AAXX  05061 28791 11994 81208 11071 21087 40361 57010 60030 77373 8802/ 333 21117 91012 91112 92992;
0184287910999992000110512004+54610+072570FM-12+010999999V0201101N008019999999N0010001N1-00891-01071103561ADDAY171061AY231061GF108991081001999999021999MD1210041+9999MW1731OA140101201OA249901401REMSYN088AAXX  05121 28791 41994 81108 11089 21107 40356 52004 77373 8802/ 333 91012 91114 92992;
0203287910999992000110518004+54610+072570FM-12+010999999V0200901N007019999999N0300001N1-01001-01261103841ADDAA100004191AY171061AY231061GF108991081001999999021999KA1120M-00671MD1210121+9999MW1361OA149901201REMSYN094AAXX  05181 28791 11980 80907 11100 21126 40384 52012 60040 73673 8802/ 333 11067 91112 92990;
0150287910999992000110600004+54610+072570FM-12+010999999V0200601N005012200019N0400001N1-01671-01931104121ADDAY131061AY211061GA1001+999999999GF100991001001999999001001MD1210141+9999MW1021REMSYN060AAXX  06001 28791 41982 00605 11167 21193 40412 52014 70231;
0162287910999992000110606004+54610+072570FM-12+010999999V0200501N004012200019N0500001N1-01511-01851104411ADDAA100000791GA1001+999999999GF100991001001999999001001KA1999N-01841MD1210161+9999REMSYN070AAXX  06061 28791 12999 00504 11151 21185 40441 52016 69900 333 21184;
0116287910999992000110612004+54610+072570FM-12+010999999V0200201N002012200019N0500001N1-01571-02081999999ADDGA1001+999999999GF100991001001999999001001MD1210111+9999REMSYN048AAXX  06121 28791 42999 00202 11157 21208 52011;
0175287910999992000110618004+54610+072570FM-12+010999999V0200401N003012200019N0400001N1-01891-02081104881ADDAA199000091GA1001+999999999GF100991001001999999001001KA1999M-01301MD1210091+9999REMSYN064AAXX  06181 28791 32982 00403 11189 21208 40488 52009 333 11130;EQDQ01  00002PRCP99
0122287910999992000110700004+54610+072570FM-12+010999999V0200301N002012200019N0300001N1-02041-02231105091ADDGA1001+999999999GF100991001001999999001001MD1210081+9999REMSYN054AAXX  07001 28791 42980 00302 11204 21223 40509 52008;
0165287910999992000110706004+54610+072570FM-12+010999999V0203301N002012200019N0500001N1-01941-02201105251ADDAA199000091GF101991001001999999001011KA1999N-02351MD1210021+9999REMSYN070AAXX  07061 28791 32999 13302 11194 21220 40525 52002 80001 333 21235;EQDQ01  00002PRCP99
0112287910999992000110712004+54610+072570FM-12+010999999V0203301N002012200019N0500001N1-01791-02121105211ADDGF101991001001999999001011MD1710011+9999REMSYN060AAXX  07121 28791 42999 13302 11179 21212 40521 57001 80001;
0191287910999992000110718004+54610+072570FM-12+010999999V0202801N021012200019N0400001N1-01221-02401105211ADDAA199000091GA1001+999999999GF100991001001999999001001KA1999M+99999MD1410001+9999REMSYN064AAXX  07181 28791 32982 02821 11122 21240 40521 54000 333 11159;EQDQ01  00002PRCP99Q02 -01592ATMX  
0122287910999992000110800004+54610+072570FM-12+010999999V0202301N001012200019N0300001N1-02421-02661105161ADDGA1001+999999999GF100991001001999999001001MD1710031+9999REMSYN054AAXX  08001 28791 42980 02301 11242 21266 40516 57003;
0175287910999992000110806004+54610+072570FM-12+010999999V0202301N004012200019N0500001N1-01991-02251105091ADDAA199000091GA1001+999999999GF100991001001999999001001KA1999N-02481MD1710021+9999REMSYN064AAXX  08061 28791 32999 02304 11199 21225 40509 57002 333 21248;EQDQ01  00002PRCP99
0112287910999992000110812004+54610+072570FM-12+010999999V0202101N003012200019N0500001N1-01721-02141104771ADDGF103991021001999999031041MD1710091+9999REMSYN060AAXX  08121 28791 42999 32103 11172 21214 40477 57009 82034;
0165287910999992000110818004+54610+072570FM-12+010999999V0202301N003012200019N0400001N1-01281-01711104581ADDAA199000091GF102991001001999999001011KA1999M-01271MD1710091+9999REMSYN070AAXX  08181 28791 32982 22303 11128 21171 40458 57009 80001 333 11127;EQDQ01  00002PRCP99
0112287910999992000110900004+54610+072570FM-12+010999999V0202401N002019999999N0400001N1-01221-01571104461ADDGF107991001001999999001041MD1710101+9999REMSYN060AAXX  09001 28791 42982 72402 11122 21157 40446 57010 80004;
0165287910999992000110906004+54610+072570FM-12+010999999V0202301N005019999999N0500001N1-00961-01321104311ADDAA199000091GF106991001001999999001091KA1999N-01301MD1710021+9999REMSYN070AAXX  09061 28791 32999 62305 11096 21132 40431 57002 80009 333 21130;EQDQ01  00002PRCP99
0112287910999992000110912004+54610+072570FM-12+010999999V0202701N004019999999N0500001N1-00781-01191104151ADDGF105991001001999999001091MD1710011+9999REMSYN060AAXX  09121 28791 42999 52704 11078 21119 40415 57001 80009;
0175287910999992000110918004+54610+072570FM-12+010999999V0202901N003012200019N0450001N1-00941-01151104161ADDAA199000091GA1001+999999999GF100991001001999999001001KA1999M-00661MD1710031+9999REMSYN064AAXX  09181 28791 32983 02903 11094 21115 40416 57003 333 11066;EQDQ01  00002PRCP99
0122287910999992000111000004+54610+072570FM-12+010999999V0202701N001012200019N0300001N1-01291-01421104131ADDGA1001+999999999GF100991001001999999001001MD1710071+9999REMSYN054AAXX  10001 28791 42980 02701 11129 21142 40413 57007;
0165287910999992000111006004+54610+072570FM-12+010999999V0202501N002012200019N0200001N1-00831-01151104091ADDAA199000091GF102991001001999999001011KA1999N-01521MD1410001+9999REMSYN070AAXX  10061 28791 32998 22502 11083 21115 40409 54000 80001 333 21152;EQDQ01  00002PRCP99
0122287910999992000111012004+54610+072570FM-12+010999999V0202401N002012200019N0500001N1-01191-01631103981ADDGA1001+999999999GF100991001001999999001001MD1710041+9999REMSYN054AAXX  10121 28791 42999 02402 11119 21163 40398 57004;
0175287910999992000111018004+54610+072570FM-12+010999999V0202901N002012200019N0300001N1-01281-01551103841ADDAA199000091GA1001+999999999GF100991001001999999001001KA1999M-00591MD1710071+9999REMSYN064AAXX  10181 28791 32980 02902 11128 21155 40384 57007 333 11059;EQDQ01  00002PRCP99
0122287910999992000111100004+54610+072570FM-12+010999999V0202301N002012200019N0250001N1-02091-02281103741ADDGA1001+999999999GF100991001001999999001001MD1710081+9999REMSYN054AAXX  11001 28791 42975 02302 11209 21228 40374 57008;
0175287910999992000111106004+54610+072570FM-12+010999999V0202701N002012200019N0500001N1-00881-01811103661ADDAA199000091GA1001+999999999GF100991001001999999001001KA1999N-02131MD1410001+9999REMSYN064AAXX  11061 28791 32999 02702 11088 21181 40366 54000 333 21213;EQDQ01  00002PRCP99
0122287910999992000111112004+54610+072570FM-12+010999999V0202401N002012200019N0500001N1-01211-01831103541ADDGA1001+999999999GF100991001001999999001001MD1710051+9999REMSYN054AAXX  11121 28791 42999 02402 11121 21183 40354 57005;
0175287910999992000111118004+54610+072570FM-12+010999999V0203001N001012200019N0400001N1-01181-01801103441ADDAA199000091GA1001+999999999GF100991001001999999001001KA1999M-00641MD1710051+9999REMSYN064AAXX  11181 28791 32982 03001 11118 21180 40344 57005 333 11064;EQDQ01  00002PRCP99
0138287910999992000111200004+54610+072570FM-12+010999999V0202701N001010066019N0400001N1-01161-01601103381ADDGA1081+006609099GF108991081091008001999999MD1710031+9999REMSYN070AAXX  12001 28791 42582 82701 11116 21160 40338 57003 889// 333 88922;
0193287910999992000111206004+54610+072570FM-12+010999999V0202401N002019999999N0002001N1-00501-00501103381ADDAA199000091AY141061AY221061GF108991081001999999011999KA1999N-01491MD1410001+9999MW1481REMSYN076AAXX  12061 28791 31992 82402 11050 21050 40338 54000 74842 8801/ 333 21149;EQDQ01  00002PRCP99
0150287910999992000111212004+54610+072570FM-12+010999999V0202001N002012200019N0020001N1-01131-01191103331ADDAY141061AY211061GA1001+999999999GF100991001001999999001001MD1710091+9999MW1101REMSYN060AAXX  12121 28791 41995 02002 11113 21119 40333 57009 71041;
0193287910999992000111218004+54610+072570FM-12+010999999V0202101N001012200019N0080001N1-01641-01771103471ADDAA199000091AY141061AY211061GF102991001001999999001011KA1999M-00441MD1210011+9999MW1101REMSYN076AAXX  12181 28791 31958 22101 11164 21177 40347 52001 71041 80001 333 11044;EQDQ01  00002PRCP99
0162287910999992000111306004+54610+072570FM-12+010999999V0209999C000019999999N0040001N1-01051+99999999999ADDAA199000091GF108991999999999999999999KA1120N-01871REMSYN081AAXX  13061 28791 31996 80000 11105 2118 40344 52002 71041 80005 333 21187 93527;EQDQ01  00002PRCP99
0166287910999992000111312004+54610+072570FM-12+010999999V0201801N002010036019N0040001N1-00631-00671103361ADDAY171061AY221061GA1081+003609029GF108991081001004501021999MD1210021+9999MW1711REMSYN076AAXX  13121 28791 41496 81802 11063 21067 40336 52002 77172 8802/ 333 88512;
0202287910999992000111318004+54610+072570FM-12+010999999V0201701N003010033019N0070001N1-00741-00801103421ADDAA100000191AY171061AY221061GA1081+003309069GF108991081061004501999999KA1120M-00551MD1710011+9999MW1101REMSYN088AAXX  13181 28791 11457 81703 11074 21080 40342 57001 69920 71072 886// 333 11055 88711;
0166287910999992000111400004+54610+072570FM-12+010999999V0201801N002010030019N0023001N1-00811-00831103431ADDAY121061AY221061GA1081+003009069GF108991081061004501999999MD1210051+9999MW1101REMSYN076AAXX  14001 28791 41423 81802 11081 21083 40343 52005 71022 886// 333 88710;
0202287910999992000111406004+54610+072570FM-12+010999999V0201801N003010036019N0010001N1-00771-00831103531ADDAA100000791AY141061AY221061GA1081+003609069GF108991081061004501999999KA1120N-00871MD1210061+9999MW1101REMSYN088AAXX  14061 28791 11494 81803 11077 21083 40353 52006 69900 71042 886// 333 21087 88712;
0166287910999992000111412004+54610+072570FM-12+010999999V0201901N002010039019N0020001N1-00851-00921103561ADDAY121061AY221061GA1081+003909069GF108991081061004501999999MD1210031+9999MW1101REMSYN076AAXX  14121 28791 41495 81902 11085 21092 40356 52003 71022 886// 333 88713;
0215287910999992000111418004+54610+072570FM-12+010999999V0201601N002010033019N0005001N1-00821-00881103601ADDAA199000091AY141061AY221061GA1081+003309069GF108991081061004501999999KA1120M-00681MD1210011+9999MW1481REMSYN082AAXX  14181 28791 31405 81602 11082 21088 40360 52001 74842 886// 333 11068 88711;EQDQ01  00002PRCP99
0166287910999992000111500004+54610+072570FM-12+010999999V0201301N003010033019N0070001N1-01121-01121103541ADDAY121061AY221061GA1081+003309069GF108991081061004501999999MD1710041+9999MW1101REMSYN076AAXX  15001 28791 41457 81303 11112 21112 40354 57004 71022 886// 333 88711;
0215287910999992000111506004+54610+072570FM-12+010999999V0201001N004010033019N0040001N1-00871-00941103441ADDAA199000091AY141061AY221061GA1081+003309069GF108991081061004501999999KA1120N-01161MD1710091+9999MW1101REMSYN082AAXX  15061 28791 31496 81004 11087 21094 40344 57009 71042 886// 333 21116 88711;EQDQ01  00002PRCP99
0166287910999992000111512004+54610+072570FM-12+010999999V0201101N005010036019N0040001N1-00741-00801103211ADDAY121061AY221061GA1081+003609069GF108991081061004501999999MD1710101+9999MW1101REMSYN076AAXX  15121 28791 41496 81105 11074 21080 40321 57010 71022 886// 333 88712;
0215287910999992000111518004+54610+072570FM-12+010999999V0200901N004010027019N0070001N1-00761-00811103011ADDAA199000091AY121061AY221061GA1081+002709069GF108991081061004501999999KA1120M-00681MD1710081+9999MW1101REMSYN082AAXX  15181 28791 31457 80904 11076 21081 40301 57008 71022 886// 333 11068 88709;EQDQ01  00002PRCP99
0166287910999992000111600004+54610+072570FM-12+010999999V0200801N004010024019N0060001N1-00811-00831102791ADDAY121061AY221061GA1081+002409069GF108991081061002501999999MD1710101+9999MW1101REMSYN076AAXX  16001 28791 41356 80804 11081 21083 40279 57010 71022 886// 333 88708;
0174287910999992000111606004+54610+072570FM-12+010999999V0200601N004019999999N0020001N1-00841-00901102741ADDAA199000021AY171061AY221061GF108991081001999999021999KA1999N-00891MD1710011+9999MW1711REMSYN076AAXX  16061 28791 31995 80604 11084 21090 40274 57001 77172 8802/ 333 21089;
0140287910999992000111612004+54610+072570FM-12+010999999V0200301N002019999999N0020001N1-00881-00911102691ADDAY171061AY221061GF108991081001999999071999MD1410001+9999MW1711REMSYN066AAXX  16121 28791 41995 80302 11088 21091 40269 54000 77172 8807/;
0180287910999992000111618004+54610+072570FM-12+010999999V0209999C000019999999N0050001N1-00891-01001102691ADDAA100000191AY171061AY221061GF108991081001999999071999KA1999M-00751MD1710011+9999MW1711REMSYN082AAXX  16181 28791 11950 80000 11089 21100 40269 57001 69920 77172 8807/ 333 11075;
0140287910999992000111700004+54610+072570FM-12+010999999V0209999C000019999999N0070001N1-00871-00941102571ADDAY171061AY221061GF108991081001999999021999MD1710071+9999MW1101REMSYN066AAXX  17001 28791 41957 80000 11087 21094 40257 57007 71072 8802/;
0180287910999992000111706004+54610+072570FM-12+010999999V0201401N003019999999N0040001N1-00811-00911102341ADDAA100000791AY171061AY221061GF108991081001999999021999KA1999N-00911MD1710041+9999MW1101REMSYN082AAXX  17061 28791 11996 81403 11081 21091 40234 57004 69900 71072 8802/ 333 21091;
0140287910999992000111712004+54610+072570FM-12+010999999V0201201N003019999999N0040001N1-00861-00931102221ADDAY171061AY221061GF108991081001999999021999MD1710021+9999MW1711REMSYN066AAXX  17121 28791 41996 81203 11086 21093 40222 57002 77172 8802/;
0180287910999992000111718004+54610+072570FM-12+010999999V0201001N002019999999N0070001N1-00721-00771102321ADDAA100002091AY171061AY221061GF108991081001999999021999KA1999M-00661MD1210031+9999MW1101REMSYN082AAXX  17181 28791 11957 81002 11072 21077 40232 52003 60020 71072 8802/ 333 11066;
0140287910999992000111800004+54610+072570FM-12+010999999V0201301N004019999999N0060001N1-00501-00531102181ADDAY171061AY221061GF108991081001999999021999MD1710101+9999MW1101REMSYN066AAXX  18001 28791 41956 81304 11050 21053 40218 57010 71072 8802/;
0180287910999992000111806004+54610+072570FM-12+010999999V0202001N006019999999N0040001N1-00071-00171101801ADDAA100001091AY171061AY221061GF108991081001999999021999KA1999N-00911MD1710181+9999MW1101REMSYN082AAXX  18061 28791 11996 82006 11007 21017 40180 57018 60010 71072 8802/ 333 21091;
0166287910999992000111812004+54610+072570FM-12+010999999V0202101N007010039019N0200001N1-00241-00401101661ADDAY171061AY231061GA1081+003909029GF108991081001004501021999MD1710061+9999MW1361REMSYN076AAXX  18121 28791 41498 82107 11024 21040 40166 57006 73673 8802/ 333 88513;
0202287910999992000111818004+54610+072570FM-12+010999999V0202501N006010039019N0060001N1-00041-00191101581ADDAA100000591AY171061AY221061GA1081+003909029GF108991081001004501021999KA1120M-00031MD1710061+9999MW1711REMSYN088AAXX  18181 28791 11456 82506 11004 21019 40158 57006 69950 77172 8802/ 333 11003 88513;
0140287910999992000111900004+54610+072570FM-12+010999999V0202601N004019999999N0400001N1-00061-00181101591ADDAY171061AY221061GF108991081001999999071999MD1210011+9999MW1021REMSYN066AAXX  19001 28791 41982 82604 11006 21018 40159 52001 70272 8807/;
0180287910999992000111906004+54610+072570FM-12+010999999V0209999C000019999999N0040001N1-00091-00251101521ADDAA100000191AY171061AY221061GF107991061001999999071011KA1999N-00161MD1710081+9999MW1711REMSYN082AAXX  19061 28791 11996 70000 11009 21025 40152 57008 69920 77172 86071 333 21016;
0166287910999992000111912004+54610+072570FM-12+010999999V0209999C000010042019N0040001N1-00261-00261101291ADDAY171061AY221061GA1081+004209029GF108991081001004501021999MD1710101+9999MW1711REMSYN076AAXX  19121 28791 41496 80000 11026 21026 40129 57010 77172 8802/ 333 88514;
0180287910999992000111918004+54610+072570FM-12+010999999V0200401N002019999999N0060001N1-00511-00681101271ADDAA100000591AY171061AY211061GF108991081001999999021999KA1999M-00041MD1710021+9999MW1711REMSYN082AAXX  19181 28791 11956 80402 11051 21068 40127 57002 69950 77171 8802/ 333 11004;
0150287910999992000112000004+54610+072570FM-12+010999999V0203101N003012200019N0300001N1-01131-01331101781ADDAY171061AY211061GA1001+999999999GF100991001001999999001001MD1210241+9999MW1011REMSYN060AAXX  20001 28791 41980 03103 11113 21133 40178 52024 70171;
0144287910999992000112006004+54610+072570FM-12+010999999V0202701N003019999999N0040001N1-01461-01661102071ADDAA100001091GF108991999999999999999999MD1210131+9999REMSYN081AAXX  20061 28791 11996 82703 11146 21166 40207 52013 60010 7771 85016 333 21159;
0140287910999992000112012004+54610+072570FM-12+010999999V0202401N003019999999N0060001N1-01561-01831102151ADDAY171061AY221061GF108991061001999999011061MD1210031+9999MW1711REMSYN066AAXX  20121 28791 41956 82403 11156 21183 40215 52003 77172 86016;
0180287910999992000112018004+54610+072570FM-12+010999999V0209999C000019999999N0050001N1-01591-01721102061ADDAA100000391AY171061AY221061GF108991081001999999021999KA1999M-01361MD1710111+9999MW1711REMSYN082AAXX  20181 28791 11950 80000 11159 21172 40206 57011 69930 77172 8802/ 333 11136;
0140287910999992000112100004+54610+072570FM-12+010999999V0200301N002019999999N0050001N1-01541-01731102011ADDAY171061AY221061GF108991081001999999071999MD1410001+9999MW1711REMSYN066AAXX  21001 28791 41950 80302 11154 21173 40201 54000 77172 8807/;
0180287910999992000112106004+54610+072570FM-12+010999999V0203501N002019999999N0500001N1-01591-01861102121ADDAA100001091AY171061AY221061GF108991001001999999001051KA1999N-01641MD1210021+9999MW1221REMSYN082AAXX  21061 28791 11999 83502 11159 21186 40212 52002 60010 72272 80005 333 21164;
0112287910999992000112112004+54610+072570FM-12+010999999V0203301N002019999999N0400001N1-01851-02111102301ADDGF107991001001999999001091MD1210111+9999REMSYN060AAXX  21121 28791 42982 73302 11185 21211 40230 52011 80009;
0199287910999992000112118004+54610+072570FM-12+010999999V0203201N003019999999N0060001N1-02091-02281102481ADDAA100000391AY171061AY221061GF108991999001999999011001KA1999M-01571MD1210041+9999MW1711REMSYN082AAXX  21181 28791 11956 83203 11209 21228 40248 52004 69930 77172 87010 333 11157;EQDQ01+000072SCOTLC
0150287910999992000112200004+54610+072570FM-12+010999999V0203301N002012200019N0400001N1-02581-02841102601ADDAY171061AY211061GA1001+999999999GF100991001001999999001001MD1210061+9999MW1021REMSYN060AAXX  22001 28791 41982 03302 11258 21284 40260 52006 70271;
0180287910999992000112206004+54610+072570FM-12+010999999V0203301N002019999999N0040001N1-02381-02631102831ADDAA100000191AY171061AY211061GF108991081001999999021999KA1999N-02671MD1210121+9999MW1711REMSYN082AAXX  22061 28791 11996 83302 11238 21263 40283 52012 69920 77171 8802/ 333 21267;
0150287910999992000112212004+54610+072570FM-12+010999999V0203101N002012200019N0300001N1-02201-02451103061ADDAY171061AY211061GA1001+999999999GF100991001001999999001001MD1210161+9999MW1021REMSYN060AAXX  22121 28791 41980 03102 11220 21245 40306 52016 70271;
0162287910999992000112218004+54610+072570FM-12+010999999V0202901N001012200019N0400001N1-02441-02691103351ADDAA100000791GA1001+999999999GF100991001001999999001001KA1999M-02031MD1210181+9999REMSYN070AAXX  22181 28791 12982 02901 11244 21269 40335 52018 69900 333 11203;
0122287910999992000112300004+54610+072570FM-12+010999999V0202801N001012200019N0400001N1-02791-03031103521ADDGA1001+999999999GF100991001001999999001001MD1210061+9999REMSYN054AAXX  23001 28791 42982 02801 11279 21303 40352 52006;
0175287910999992000112306004+54610+072570FM-12+010999999V0202401N003012200019N0200001N1-02511-02751103511ADDAA199000091GA1001+999999999GF100991001001999999001001KA1999N-02821MD1210061+9999REMSYN064AAXX  23061 28791 32998 02403 11251 21275 40351 52006 333 21282;EQDQ01  00002PRCP99
0122287910999992000112312004+54610+072570FM-12+010999999V0202501N005012200019N0400001N1-02331-02581103391ADDGA1001+999999999GF100991001001999999001001MD1710071+9999REMSYN054AAXX  23121 28791 42982 02505 11233 21258 40339 57007;
0203287910999992000112318004+54610+072570FM-12+010999999V0202401N006012200019N0400001N1-02151-02401103291ADDAA199000091AY131061AY201061GA1001+999999999GF100991001001999999001001KA1999M-02091MD1710031+9999MW1361REMSYN070AAXX  23181 28791 31982 02406 11215 21240 40329 57003 73630 333 11209;EQDQ01  00002PRCP99
0150287910999992000112400004+54610+072570FM-12+010999999V0202501N005012200019N0400001N1-02131-02381103271ADDAY131061AY201061GA1001+999999999GF100991001001999999001001MD1710011+9999MW1021REMSYN060AAXX  24001 28791 41982 02505 11213 21238 40327 57001 70230;
0165287910999992000112406004+54610+072570FM-12+010999999V0202501N004019999999N0500001N1-01881-02211103151ADDAA199000091GF105991001001999999001011KA1999N-02161MD1210041+9999REMSYN070AAXX  24061 28791 32999 52504 11188 21221 40315 52004 80001 333 21216;EQDQ01  00002PRCP99
0112287910999992000112412004+54610+072570FM-12+010999999V0202601N006019999999N0400001N1-01731-02071103051ADDGF107991061001999999031041MD1710071+9999REMSYN060AAXX  24121 28791 42982 72606 11173 21207 40305 57007 86034;
0175287910999992000112418004+54610+072570FM-12+010999999V0202601N003012200019N0400001N1-01921-02181103161ADDAA199000091GA1001+999999999GF100991001001999999001001KA1999M-01671MD1710011+9999REMSYN064AAXX  24181 28791 32982 02603 11192 21218 40316 57001 333 11167;EQDQ01  00002PRCP99
0122287910999992000112500004+54610+072570FM-12+010999999V0202701N003012200019N0450001N1-02161-02411103211ADDGA1001+999999999GF100991001001999999001001MD1210021+9999REMSYN054AAXX  25001 28791 42983 02703 11216 21241 40321 52002;
0165287910999992000112506004+54610+072570FM-12+010999999V0202701N003012200019N0500001N1-02021-02351103151ADDAA199000091GF102991001001999999001011KA1999N-02241MD1710011+9999REMSYN070AAXX  25061 28791 32999 22703 11202 21235 40315 57001 80001 333 21224;EQDQ01  00002PRCP99
0122287910999992000112512004+54610+072570FM-12+010999999V0202401N003012200019N0400001N1-02031-02361103151ADDGA1001+999999999GF100991001001999999001001MD1410001+9999REMSYN054AAXX  25121 28791 42982 02403 11203 21236 40315 54000;
0175287910999992000112518004+54610+072570FM-12+010999999V0202401N002012200019N0400001N1-02161-02411103121ADDAA199000091GA1001+999999999GF100991001001999999001001KA1999M-01811MD1710051+9999REMSYN064AAXX  25181 28791 32982 02402 11216 21241 40312 57005 333 11181;EQDQ01  00002PRCP99
0122287910999992000112600004+54610+072570FM-12+010999999V0202401N003012200019N0400001N1-01651-01911102941ADDGA1001+999999999GF100991001001999999001001MD1710051+9999REMSYN054AAXX  26001 28791 42982 02403 11165 21191 40294 57005;
0175287910999992000112606004+54610+072570FM-12+010999999V0202501N005012200019N0500001N1-01531-01801102931ADDAA199000091GA1001+999999999GF100991001001999999001001KA1999N-02171MD1210031+9999REMSYN064AAXX  26061 28791 32999 02505 11153 21180 40293 52003 333 21217;EQDQ01  00002PRCP99
0112287910999992000112612004+54610+072570FM-12+010999999V0202501N004019999999N0500001N1-01761-02101102861ADDGF106991001001999999001041MD1710021+9999REMSYN060AAXX  26121 28791 42999 62504 11176 21210 40286 57002 80004;
0175287910999992000112618004+54610+072570FM-12+010999999V0202301N002012200019N0400001N1-02331-02581102841ADDAA199000091GA1001+999999999GF100991001001999999001001KA1999M-01381MD1710051+9999REMSYN064AAXX  26181 28791 32982 02302 11233 21258 40284 57005 333 11138;EQDQ01  00002PRCP99
0122287910999992000112700004+54610+072570FM-12+010999999V0202701N001012200019N0400001N1-02371-02611102791ADDGA1001+999999999GF100991001001999999001001MD1710021+9999REMSYN054AAXX  27001 28791 42982 02701 11237 21261 40279 57002;
0165287910999992000112706004+54610+072570FM-12+010999999V0202301N002012200019N0500001N1-01741-02081102861ADDAA199000091GF102991001001999999001011KA1999N-02391MD1210081+9999REMSYN070AAXX  27061 28791 32999 22302 11174 21208 40286 52008 80001 333 21239;EQDQ01  00002PRCP99
0112287910999992000112712004+54610+072570FM-12+010999999V0202401N003012200019N0400001N1-01921-02181102771ADDGF102991001001999999001091MD1710041+9999REMSYN060AAXX  27121 28791 42982 22403 11192 21218 40277 57004 80009;
0175287910999992000112718004+54610+072570FM-12+010999999V0202401N002012200019N0400001N1-02041-02291102531ADDAA199000091GA1001+999999999GF100991001001999999001001KA1999M-01611MD1710161+9999REMSYN064AAXX  27181 28791 32982 02402 11204 21229 40253 57016 333 11161;EQDQ01  00002PRCP99
0140287910999992000112800004+54610+072570FM-12+010999999V0202501N004019999999N0060001N1-01651-01841102121ADDAY171061AY211061GF108991081001999999021999MD1710181+9999MW1711REMSYN066AAXX  28001 28791 41956 82504 11165 21184 40212 57018 77171 8802/;
0180287910999992000112806004+54610+072570FM-12+010999999V0202301N007012200019N0500001N1-01271-01701101451ADDAA100000791AY171061AY211061GF102991001001999999001011KA1999N-02061MD1710281+9999MW1011REMSYN082AAXX  28061 28791 11999 22307 11127 21170 40145 57028 69900 70171 80001 333 21206;
0180287910999992000112818004+54610+072570FM-12+010999999V0202601N003019999999N0060001N1-01031-01161100811ADDAA100000791AY171061AY211061GF108991081001999999021999KA1999M-01081MD1710071+9999MW1711REMSYN082AAXX  28181 28791 11956 82603 11103 21116 40081 57007 69900 77171 8802/ 333 11108;
0140287910999992000112900004+54610+072570FM-12+010999999V0203101N002019999999N0060001N1-00901-01011100711ADDAY171061AY221061GF108991081001999999021999MD1710011+9999MW1711REMSYN066AAXX  29001 28791 41956 83102 11090 21101 40071 57001 77172 8802/;
0180287910999992000112906004+54610+072570FM-12+010999999V0203501N007012200019N0500001N1-01111-01551101171ADDAA100001091AY171061AY231061GF103991031001999999031001KA1999N-01101MD1210281+9999MW1361REMSYN082AAXX  29061 28791 11999 33507 11111 21155 40117 52028 60010 73673 83030 333 21110;
0150287910999992000112912004+54610+072570FM-12+010999999V0203301N004012200019N0500001N1-01991-02401102171ADDAY131061AY201061GA1001+999999999GF100991001001999999001001MD1210481+9999MW1021REMSYN060AAXX  29121 28791 41984 03304 11199 21240 40217 52048 70230;
0162287910999992000112918004+54610+072570FM-12+010999999V0203201N003012200019N0350001N1-02371-02681102931ADDAA100000791GA1001+999999999GF100991001001999999001001KA1999M-00821MD1210351+9999REMSYN070AAXX  29181 28791 12981 03203 11237 21268 40293 52035 69900 333 11082;
0106287910999992000113000004+54610+072570FM-12+010999999V0202001N002019999999N0400001N1-02271-02591103171ADDGF108991999999999999999999MD1210101+9999REMSYN054AAXX  30001 28791 42982 82002 11227 21259 40317 52010;
0180287910999992000113006004+54610+072570FM-12+010999999V0202301N005019999999N0040001N1-01351-01621102711ADDAA100000591AY171061AY231061GF108991081001999999071999KA1999N-02391MD1710181+9999MW1711REMSYN082AAXX  30061 28791 11996 82305 11135 21162 40271 57018 69940 77173 8807/ 333 21239;
0140287910999992000113012004+54610+072570FM-12+010999999V0202001N004019999999N0050001N1-01011-01211102681ADDAY171061AY231061GF108991081001999999071999MD1210041+9999MW1711REMSYN066AAXX  30121 28791 41950 82004 11101 21121 40268 52004 77173 8807/;
0180287910999992000113018004+54610+072570FM-12+010999999V0202401N007019999999N0060001N1-00881-01031102661ADDAA100001091AY171061AY231061GF108991081001999999021999KA1999M-00881MD1710031+9999MW1711REMSYN082AAXX  30181 28791 11956 82407 11088 21103 40266 57003 60010 77173 8802/ 333 11088;
0140287910999992000120100004+54610+072570FM-12+010999999V0202201N005019999999N0060001N1-00761-00851102451ADDAY171061AY231061GF108991081001999999021999MD1710111+9999MW1711REMSYN066AAXX  01001 28791 41956 82205 11076 21085 40245 57011 77173 8802/;
0180287910999992000120106004+54610+072570FM-12+010999999V0202301N007019999999N0200001N1-00771-01031102181ADDAA100001091AY171061AY231061GF108991081001999999021999KA1999N-01031MD1710131+9999MW1361REMSYN082AAXX  01061 28791 11998 82307 11077 21103 40218 57013 60010 73673 8802/ 333 21103;
0140287910999992000120112004+54610+072570FM-12+010999999V0202101N005019999999N0400001N1-00931-01281101861ADDAY131061AY221061GF108991081001999999071999MD1710191+9999MW1361REMSYN066AAXX  01121 28791 41982 82105 11093 21128 40186 57019 73632 8807/;
0180287910999992000120118004+54610+072570FM-12+010999999V0202001N002019999999N0300001N1-01221-01421101311ADDAA100000791AY131061AY221061GF108991001001999999001071KA1999M-00681MD1710241+9999MW1021REMSYN082AAXX  01181 28791 11980 82002 11122 21142 40131 57024 69900 70232 80007 333 11068;
0112287910999992000120200004+54610+072570FM-12+010999999V0202001N002019999999N0270001N1-01131-01331100631ADDGF108991081001999999021999MD1710351+9999REMSYN060AAXX  02001 28791 42977 82002 11113 21133 40063 57035 8802/;
0180287910999992000120206004+54610+072570FM-12+010999999V0202701N002019999999N0040001N1-00961-01171100261ADDAA100000791AY171061AY221061GF108991081001999999071999KA1999N-01381MD1710101+9999MW1711REMSYN082AAXX  02061 28791 11996 82702 11096 21117 40026 57010 69900 77172 8807/ 333 21138;
0150287910999992000120212004+54610+072570FM-12+010999999V0202701N005012200019N0400001N1-01241-01441100541ADDAY171061AY231061GA1001+999999999GF100991001001999999001001MD1210221+9999MW1361REMSYN060AAXX  02121 28791 41982 02705 11124 21144 40054 52022 73673;
0174287910999992000120218004+54610+072570FM-12+010999999V0202701N004019999999N0400001N1-01131-01261101031ADDAA100000191AY131061AY211061GF106991999999999999999999KA1999M-00931MD1210231+9999MW1361REMSYN076AAXX  02181 28791 11982 62704 11113 21126 40103 52023 69920 73631 333 11093;
0140287910999992000120300004+54610+072570FM-12+010999999V0202401N005019999999N0400001N1-00741-00871101181ADDAY131061AY221061GF108991081001999999021999MD1210031+9999MW1021REMSYN066AAXX  03001 28791 41982 82405 11074 21087 40118 52003 70232 8802/;
0180287910999992000120306004+54610+072570FM-12+010999999V0202101N006019999999N0020001N1-00751-00841101031ADDAA100000791AY171061AY231061GF108991081001999999021999KA1999N-01181MD1710141+9999MW1711REMSYN082AAXX  03061 28791 11995 82106 11075 21084 40103 57014 69900 77173 8802/ 333 21118;
0140287910999992000120312004+54610+072570FM-12+010999999V0202001N004019999999N0050001N1-00741-00831100581ADDAY171061AY231061GF108991081001999999021999MD1710211+9999MW1711REMSYN066AAXX  03121 28791 41950 82004 11074 21083 40058 57021 77173 8802/;
0180287910999992000120318004+54610+072570FM-12+010999999V0202401N003019999999N0060001N1-00881-00991100161ADDAA100002091AY171061AY221061GF108991081001999999021999KA1999M-00671MD1710091+9999MW1711REMSYN082AAXX  03181 28791 11956 82403 11088 21099 40016 57009 60020 77172 8802/ 333 11067;
0140287910999992000120400004+54610+072570FM-12+010999999V0203301N006019999999N0060001N1-02251-02571100581ADDAY171061AY231061GF108991081001999999021999MD1210161+9999MW1711REMSYN066AAXX  04001 28791 41956 83306 11225 21257 40058 52016 77173 8802/;
0209287910999992000120406004+54610+072570FM-12+010999999V0202901N005012200019N0500001N1-02831-03201101271ADDAA100000591AY171061AY231061GA1001+999999999GF100991001001999999001001KA1999N+99999MD1210281+9999MW1361REMSYN076AAXX  04061 28791 11999 02905 11283 21320 40127 52028 69940 73673 333 21270;EQDQ01 -02702ATMN  
0140287910999992000120412004+54610+072570FM-12+010999999V0202801N005012200019N0500001N1-02981-03351101891ADDAY131061AY201061GF102991001001999999001011MD1210341+9999MW1361REMSYN066AAXX  04121 28791 41984 22805 11298 21335 40189 52034 73630 80001;
0203287910999992000120418004+54610+072570FM-12+010999999V0202701N004012200019N0400001N1-03071-03431102371ADDAA199000091AY131061AY201061GA1001+999999999GF100991001001999999001001KA1999M-02681MD1210191+9999MW1021REMSYN070AAXX  04181 28791 31982 02704 11307 21343 40237 52019 70230 333 11268;EQDQ01  00002PRCP99
0122287910999992000120500004+54610+072570FM-12+010999999V0202301N002012200019N0300001N1-03521-03801102641ADDGA1001+999999999GF100991001001999999001001MD1210051+9999REMSYN054AAXX  05001 28791 42980 02302 11352 21380 40264 52005;
0165287910999992000120506004+54610+072570FM-12+010999999V0200701N001019999999N0500001N1-03241-03551102561ADDAA199000091GF106991001001999999001011KA1999N-03621MD1710041+9999REMSYN070AAXX  05061 28791 32999 60701 11324 21355 40256 57004 80001 333 21362;EQDQ01  00002PRCP99
0112287910999992000120512004+54610+072570FM-12+010999999V0200301N003012200019N0500001N1-03091-03381102551ADDGF102991001001999999001011MD1210071+9999REMSYN060AAXX  05121 28791 42984 20303 11309 21338 40255 52007 80001;
0175287910999992000120518004+54610+072570FM-12+010999999V0203601N002012200019N0400001N1-03301-03601102901ADDAA199000091GA1001+999999999GF100991001001999999001001KA1999M-03051MD1210171+9999REMSYN064AAXX  05181 28791 32982 03602 11330 21360 40290 52017 333 11305;EQDQ01  00002PRCP99
0122287910999992000120600004+54610+072570FM-12+010999999V0203101N002012200019N0400001N1-03511-03801103321ADDGA1001+999999999GF100991001001999999001001MD1210221+9999REMSYN054AAXX  06001 28791 42982 03102 11351 21380 40332 52022;
0175287910999992000120606004+54610+072570FM-12+010999999V0203001N003012200019N0500001N1-03431-03711103651ADDAA199000091GA1001+999999999GF100991001001999999001001KA1999N-03631MD1210121+9999REMSYN064AAXX  06061 28791 32999 03003 11343 21371 40365 52012 333 21363;EQDQ01  00002PRCP99
0122287910999992000120612004+54610+072570FM-12+010999999V0202201N003012200019N0500001N1-03351-03651103831ADDGA1001+999999999GF100991001001999999001001MD1210041+9999REMSYN054AAXX  06121 28791 42984 02203 11335 21365 40383 52004;
0175287910999992000120618004+54610+072570FM-12+010999999V0202301N004012200019N0400001N1-03281-03571103831ADDAA199000091GA1001+999999999GF100991001001999999001001KA1999M-03071MD1710031+9999REMSYN064AAXX  06181 28791 32982 02304 11328 21357 40383 57003 333 11307;EQDQ01  00002PRCP99
0122287910999992000120700004+54610+072570FM-12+010999999V0202401N004012200019N0400001N1-02921-03221103761ADDGA1001+999999999GF100991001001999999001001MD1710061+9999REMSYN054AAXX  07001 28791 42982 02404 11292 21322 40376 57006;
0165287910999992000120706004+54610+072570FM-12+010999999V0202501N003012200019N0500001N1-02561-02881103721ADDAA199000091GF102991001001999999001011KA1999N-03391MD1710041+9999REMSYN070AAXX  07061 28791 32999 22503 11256 21288 40372 57004 80001 333 21339;EQDQ01  00002PRCP99
0112287910999992000120712004+54610+072570FM-12+010999999V0202401N004012200019N0500001N1-02661-03041103711ADDGF102991021001999999031001MD1410001+9999REMSYN060AAXX  07121 28791 42984 22404 11266 21304 40371 54000 82030;
0175287910999992000120718004+54610+072570FM-12+010999999V0202401N003012200019N0400001N1-02631-03011103651ADDAA199000091GA1001+999999999GF100991001001999999001001KA1999M-02431MD1710051+9999REMSYN064AAXX  07181 28791 32982 02403 11263 21301 40365 57005 333 11243;EQDQ01  00002PRCP99
0122287910999992000120800004+54610+072570FM-12+010999999V0202301N005012200019N0400001N1-02501-02881103471ADDGA1001+999999999GF100991001001999999001001MD1710091+9999REMSYN054AAXX  08001 28791 42982 02305 11250 21288 40347 57009;
0165287910999992000120806004+54610+072570FM-12+010999999V0202501N006019999999N0500001N1-01421-02241103151ADDAA199000091GF108991081001999999011999KA1999N-02681MD1710161+9999REMSYN070AAXX  08061 28791 32999 82506 11142 21224 40315 57016 8801/ 333 21268;EQDQ01  00002PRCP99
0140287910999992000120812004+54610+072570FM-12+010999999V0202401N008019999999N0500001N1-01011-01741102741ADDAY131061AY221061GF107991001001999999001041MD1710201+9999MW1361REMSYN066AAXX  08121 28791 41984 72408 11101 21174 40274 57020 73632 80004;
0216287910999992000120818004+54610+072570FM-12+010999999V0202601N008019999999N0300001N1-00941-01401102641ADDAA199000091AY131061AY221061GF108991081001999999011999KA1120M-00901MD1710051+9999MW1361OA140101201REMSYN088AAXX  08181 28791 31980 82608 11094 21140 40264 57005 73632 8801/ 333 11090 91012 91112;EQDQ01  00002PRCP99
0150287910999992000120900004+54610+072570FM-12+010999999V0202701N005019999999N0400001N1-01051-01251102541ADDAY131061AY221061GF108991081001999999021999MD1710061+9999MW1021REMSYN076AAXX  09001 28791 41982 82705 11105 21125 40254 57006 70232 8802/ 333 91112;
0180287910999992000120906004+54610+072570FM-12+010999999V0202301N004019999999N0500001N1-00991-01251102441ADDAA100000591AY171061AY221061GF108991081001999999021999KA1999N-01081MD1710081+9999MW1021REMSYN082AAXX  09061 28791 11999 82304 11099 21125 40244 57008 69960 70272 8802/ 333 21108;
0112287910999992000120912004+54610+072570FM-12+010999999V0202201N004019999999N0500001N1-00711-01241102161ADDGF108991081001999999021999MD1710111+9999REMSYN060AAXX  09121 28791 42984 82204 11071 21124 40216 57011 8802/;
0165287910999992000120918004+54610+072570FM-12+010999999V0202301N006019999999N0500001N1-00791-01461101841ADDAA199000091GF108991081001999999011999KA1999M-00651MD1710101+9999REMSYN070AAXX  09181 28791 32984 82306 11079 21146 40184 57010 8801/ 333 11065;EQDQ01  00002PRCP99
0140287910999992000121000004+54610+072570FM-12+010999999V0202401N005019999999N0060001N1-00981-01191101771ADDAY171061AY231061GF108991081001999999021999MD1710031+9999MW1711REMSYN066AAXX  10001 28791 41956 82405 11098 21119 40177 57003 77173 8802/;
0180287910999992000121006004+54610+072570FM-12+010999999V0202401N006019999999N0040001N1-00841-00991101921ADDAA100000591AY171061AY221061GF108991081001999999021999KA1999N-00991MD1210051+9999MW1711REMSYN082AAXX  10061 28791 11996 82406 11084 21099 40192 52005 69940 77172 8802/ 333 21099;
0140287910999992000121012004+54610+072570FM-12+010999999V0202501N004019999999N0060001N1-00781-00961102151ADDAY171061AY221061GF108991081001999999021999MD1210141+9999MW1711REMSYN066AAXX  10121 28791 41956 82504 11078 21096 40215 52014 77172 8802/;
0180287910999992000121100004+54610+072570FM-12+010999999V0202501N003019999999N0400001N1-00711-00921102431ADDAA100000191AY171061AY221061GF108991081001999999021999KA1999M-00701MD1210121+9999MW1021REMSYN082AAXX  11001 28791 11982 82503 11071 21092 40243 52012 69920 70272 8802/ 333 11070;
0174287910999992000121106004+54610+072570FM-12+010999999V0202401N003019999999N0040001N1-00621-00741102771ADDAA199000021AY171061AY221061GF108991081001999999021999KA1999N-00741MD1210081+9999MW1711REMSYN076AAXX  11061 28791 31996 82403 11062 21074 40277 52008 77172 8802/ 333 21074;
0140287910999992000121112004+54610+072570FM-12+010999999V0202301N002019999999N0060001N1-00671-00791102811ADDAY171061AY221061GF108991081001999999021999MD1210051+9999MW1711REMSYN066AAXX  11121 28791 41956 82302 11067 21079 40281 52005 77172 8802/;
0190287910999992000121118004+54610+072570FM-12+010999999V0202201N002012200019N0070001N1-01371-01431102911ADDAA100000191AY101061AY201061GA1001+999999999GF100991001001999999001001KA1999M-00581MD1210021+9999MW1101REMSYN076AAXX  11181 28791 11957 02202 11137 21143 40291 52002 69920 71000 333 11058;
0140287910999992000121200004+54610+072570FM-12+010999999V0202301N002019999999N0060001N1-01011-01071102751ADDAY111061AY211061GF106991001001999999001091MD1710071+9999MW1101REMSYN066AAXX  12001 28791 41956 62302 11101 21107 40275 57007 71011 80009;
0193287910999992000121206004+54610+072570FM-12+010999999V0202501N003019999999N0040001N1-00501-00601102591ADDAA199000091AY121061AY221061GF108991081001999999021999KA1999N-01391MD1710071+9999MW1101REMSYN076AAXX  12061 28791 31996 82503 11050 21060 40259 57007 71022 8802/ 333 21139;EQDQ01  00002PRCP99
0140287910999992000121212004+54610+072570FM-12+010999999V0202501N003019999999N0070001N1-00441-00571102381ADDAY121061AY221061GF108991081001999999071999MD1710091+9999MW1101REMSYN066AAXX  12121 28791 41957 82503 11044 21057 40238 57009 71022 8807/;
0193287910999992000121218004+54610+072570FM-12+010999999V0202501N005019999999N0070001N1-00561-00701102311ADDAA199000091AY121061AY221061GF108991081001999999021999KA1999M-00391MD1710051+9999MW1101REMSYN076AAXX  12181 28791 31957 82505 11056 21070 40231 57005 71022 8802/ 333 11039;EQDQ01  00002PRCP99
0112287910999992000121300004+54610+072570FM-12+010999999V0202401N004019999999N0400001N1-00891-01091102231ADDGF108991081001999999021999MD1710051+9999REMSYN060AAXX  13001 28791 42982 82404 11089 21109 40223 57005 8802/;
0180287910999992000121306004+54610+072570FM-12+010999999V0202501N003019999999N0040001N1-00871-01061102281ADDAA100000791AY171061AY221061GF108991081001999999021999KA1999N-00921MD1210061+9999MW1711REMSYN082AAXX  13061 28791 11996 82503 11087 21106 40228 52006 69900 77172 8802/ 333 21092;
0140287910999992000121312004+54610+072570FM-12+010999999V0202101N002019999999N0070001N1-00871-01021102241ADDAY171061AY221061GF108991081001999999021999MD1710011+9999MW1711REMSYN066AAXX  13121 28791 41957 82102 11087 21102 40224 57001 77172 8802/;
0180287910999992000121318004+54610+072570FM-12+010999999V0202101N002019999999N0220001N1-00861-00971102181ADDAA100002091AY171061AY221061GF108991081001999999021999KA1999M-00811MD1710061+9999MW1021REMSYN082AAXX  13181 28791 11972 82102 11086 21097 40218 57006 60020 70272 8802/ 333 11081;
0140287910999992000121400004+54610+072570FM-12+010999999V0209999C000019999999N0060001N1-00961-01081102051ADDAY171061AY221061GF108991081001999999071999MD1710071+9999MW1711REMSYN066AAXX  14001 28791 41956 80000 11096 21108 40205 57007 77172 8807/;
0180287910999992000121406004+54610+072570FM-12+010999999V0202501N002019999999N0040001N1-00881-01031101971ADDAA100000191AY171061AY221061GF108991081001999999071999KA1999N-01031MD1410001+9999MW1711REMSYN082AAXX  14061 28791 11996 82502 11088 21103 40197 54000 69920 77172 8807/ 333 21103;
0140287910999992000121412004+54610+072570FM-12+010999999V0202101N002019999999N0060001N1-01141-01201102001ADDAY171061AY221061GF108991081001999999021999MD1210041+9999MW1711REMSYN066AAXX  14121 28791 41956 82102 11114 21120 40200 52004 77172 8802/;
0180287910999992000121418004+54610+072570FM-12+010999999V0201801N001019999999N0060001N1-00901-00971101941ADDAA100000191AY171061AY221061GF108991081001999999021999KA1999M-00801MD1710021+9999MW1711REMSYN082AAXX  14181 28791 11956 81801 11090 21097 40194 57002 69920 77172 8802/ 333 11080;
0140287910999992000121500004+54610+072570FM-12+010999999V0201901N002019999999N0400001N1-00871-00981101811ADDAY171061AY221061GF107991071001999999071001MD1710061+9999MW1021REMSYN066AAXX  15001 28791 41982 71902 11087 21098 40181 57006 70272 87070;
0180287910999992000121506004+54610+072570FM-12+010999999V0201801N003019999999N0500001N1-00951-01161101711ADDAA100000191AY171061AY221061GF108991081001999999071999KA1999N-01081MD1710031+9999MW1021REMSYN082AAXX  15061 28791 11999 81803 11095 21116 40171 57003 69920 70272 8807/ 333 21108;
0112287910999992000121512004+54610+072570FM-12+010999999V0201601N003019999999N0400001N1-01121-01251101611ADDGF108991001001999999001051MD1710061+9999REMSYN060AAXX  15121 28791 42982 81603 11112 21125 40161 57006 80005;
0180287910999992000121518004+54610+072570FM-12+010999999V0202301N001019999999N0060001N1-00861-00971101541ADDAA100000791AY171061AY221061GF108991081001999999021999KA1999M-00841MD1710011+9999MW1711REMSYN082AAXX  15181 28791 11956 82301 11086 21097 40154 57001 69900 77172 8802/ 333 11084;
0147287910999992000121600004+54610+072570FM-12+010999999V0202201N002019999999N0400001N1-01191-01251101591ADDAY171061AY201061GF107991999999999999999999MD1210021+9999REMSYN060AAXX  16001 28791 41982 72202 11119 21125 40159 52002 78070;EQDQ01+000802PRSWM1
0180287910999992000121606004+54610+072570FM-12+010999999V0202201N003019999999N0500001N1-01081-01211101731ADDAA100000391AY171061AY221061GF107991071001999999031001KA1999N-01531MD1210061+9999MW1021REMSYN082AAXX  16061 28791 11999 72203 11108 21121 40173 52006 69930 70272 87030 333 21153;
0140287910999992000121612004+54610+072570FM-12+010999999V0201701N003019999999N0060001N1-00921-01031101761ADDAY171061AY221061GF108991081001999999011999MD1210021+9999MW1711REMSYN066AAXX  16121 28791 41956 81703 11092 21103 40176 52002 77172 8801/;
0199287910999992000121618004+54610+072570FM-12+010999999V0202001N004019999999N0060001N1-00501-00571101551ADDAA100000591AY171061AY221061GF108991081001999999021999KA1999M+99999MD1710081+9999MW1711REMSYN082AAXX  16181 28791 11956 82004 11050 21057 40155 57008 69960 77172 8802/ 333 11058;EQDQ01 -00582ATMX  
0140287910999992000121700004+54610+072570FM-12+010999999V0202401N004019999999N0060001N1-00421-00441101521ADDAY171061AY221061GF108991081001999999021999MD1710021+9999MW1221REMSYN066AAXX  17001 28791 41956 82404 11042 21044 40152 57002 72272 8802/;
0180287910999992000121706004+54610+072570FM-12+010999999V0202301N003019999999N0040001N1-00511-00611101491ADDAA100002091AY171061AY221061GF108991081001999999071999KA1999N-00621MD1410001+9999MW1711REMSYN082AAXX  17061 28791 11996 82303 11051 21061 40149 54000 60020 77172 8807/ 333 21062;
0140287910999992000121712004+54610+072570FM-12+010999999V0202501N003019999999N0060001N1-00491-00551101521ADDAY171061AY221061GF108991081001999999021999MD1210061+9999MW1711REMSYN066AAXX  17121 28791 41956 82503 11049 21055 40152 52006 77172 8802/;
0202287910999992000121718004+54610+072570FM-12+010999999V0202501N001010078019N0120001N1-00581-00621101811ADDAA100002091AY171061AY221061GA1081+007809059GF108991081051008001999999KA1120M-00401MD1210121+9999MW1021REMSYN088AAXX  17181 28791 11562 82501 11058 21062 40181 52012 60020 70272 885// 333 11040 88626;
0140287910999992000121800004+54610+072570FM-12+010999999V0201801N002019999999N0042001N1-00491-00521101921ADDAY171061AY221061GF108991081001999999011999MD1210031+9999MW1711REMSYN066AAXX  18001 28791 41942 81802 11049 21052 40192 52003 77172 8801/;
0180287910999992000121806004+54610+072570FM-12+010999999V0201901N003019999999N0020001N1-00171-00171101681ADDAA100002091AY171061AY221061GF108991081001999999021999KA1999N-00651MD1710121+9999MW1711REMSYN082AAXX  18061 28791 11995 81903 11017 21017 40168 57012 60020 77172 8802/ 333 21065;
0150287910999992000121812004+54610+072570FM-12+010999999V0202601N005019999999N0070001N1-00161-00181101741ADDAY171061AY231061GF108991081001999999021999MD1210101+9999MW1711REMSYN076AAXX  18121 28791 41957 82605 11016 21018 40174 52010 77173 8802/ 333 92981;
0186287910999992000121818004+54610+072570FM-12+010999999V0202301N004019999999N0060001N1-00381-00431101751ADDAA100006191AY171061AY231061GF108991081001999999021999KA1120M-00021MD1710091+9999MW1711REMSYN088AAXX  18181 28791 11956 82304 11038 21043 40175 57009 60060 77173 8802/ 333 11002 92980;
0140287910999992000121900004+54610+072570FM-12+010999999V0202201N005019999999N0060001N1-00331-00371101451ADDAY171061AY231061GF108991081001999999021999MD1710181+9999MW1711REMSYN066AAXX  19001 28791 41956 82205 11033 21037 40145 57018 77173 8802/;
0180287910999992000121906004+54610+072570FM-12+010999999V0202301N005019999999N0040001N1-00291-00421101401ADDAA100005191AY171061AY231061GF108991081001999999021999KA1999N-00451MD1210021+9999MW1711REMSYN082AAXX  19061 28791 11996 82305 11029 21042 40140 52002 60050 77173 8802/ 333 21045;
0167287910999992000121912004+54610+072570FM-12+010999999V0202601N009019999999N0400001N1-00141-00281101391ADDAY171061AY231061GF108991081001999999021999MD1210041+9999MW1361OA140101301REMSYN082AAXX  19121 28791 41982 82609 11014 21028 40139 52004 73673 8802/ 333 91013 91113;
0208287910999992000121918004+54610+072570FM-12+010999999V0202701N006010036019N0400001N1-00281-00441101661ADDAA100000791AY131061AY221061GA1081+003609059GF108991081001004501021999KA1120M-00111MD1210131+9999MW1361REMSYN094AAXX  19181 28791 11482 82706 11028 21044 40166 52013 69900 73632 8802/ 333 11011 88512 91112;
0166287910999992000122000004+54610+072570FM-12+010999999V0202601N005010048019N0060001N1-00591-00661101991ADDAY171061AY231061GA1081+004809029GF108991081001004501021999MD1210111+9999MW1711REMSYN076AAXX  20001 28791 41456 82605 11059 21066 40199 52011 77173 8802/ 333 88516;
0199287910999992000122006004+54610+072570FM-12+010999999V0202901N004019999999N0040001N1-00761-00981102451ADDAA100000191AY171061AY231061GF108991081001999999071999KA1999N+99999MD1210251+9999MW1711REMSYN082AAXX  20061 28791 11996 82904 11076 21098 40245 52025 69920 77173 8807/ 333 21066;EQDQ01 -00662ATMN  
0150287910999992000122012004+54610+072570FM-12+010999999V0203001N001012200019N0050001N1-01521-01581102951ADDAY171061AY231061GA1001+999999999GF100991001001999999001001MD1210221+9999MW1101REMSYN060AAXX  20121 28791 41950 03001 11152 21158 40295 52022 71073;
0190287910999992000122018004+54610+072570FM-12+010999999V0201301N001012200019N0005001N1-02431-02611103201ADDAA100000591AY141061AY201061GA1001+999999999GF100991001001999999001001KA1999M-00601MD1210041+9999MW1481REMSYN076AAXX  20181 28791 11905 01301 11243 21261 40320 52004 69940 74840 333 11060;
0140287910999992000122100004+54610+072570FM-12+010999999V0201101N002019999999N0005001N1-01691-01881103101ADDAY141061AY201061GF108991081001999999021999MD1710151+9999MW1481REMSYN066AAXX  21001 28791 41905 81102 11169 21188 40310 57015 74840 8802/;
0219287910999992000122106004+54610+072570FM-12+010999999V0201201N004019999999N0040001N1+99999-01621102911ADDAA199000091AY171061AY241061GF108991081001999999021999KA1999N-02461MD1710041+9999REMSYN076AAXX  21061 28791 31996 81204 10149 21162 40291 57004 77174 8802/ 333 21246;EQDQ01+000712PRSWM1Q02  00002PRCP99Q03 +01493ATOT  
0159287910999992000122112004+54610+072570FM-12+010999999V0201001N007019999999N0050001N1-01172-01231102301ADDAY171061AY221061GF108991081001999999021999MD1710241+9999MW1101REMSYN066AAXX  21121 28791 41950 81007 11117 21123 40230 57024 71072 8802/;EQDQ01-001173ATOT  
0199287910999992000122118004+54610+072570FM-12+010999999V0201301N007019999999N0060001N1-00841-00901101771ADDAA100000791AY171061AY231061GF108991081001999999021999KA1999M+99999MD1710211+9999MW1711REMSYN082AAXX  21181 28791 11956 81307 11084 21090 40177 57021 69900 77173 8802/ 333 11105;EQDQ01 -01052ATMX  
0166287910999992000122200004+54610+072570FM-12+010999999V0202501N002010033019N0210001N1-00701-00791101681ADDAY171061AY231061GA1081+003309029GF108991081001004501021999MD1210041+9999MW1021REMSYN076AAXX  22001 28791 41471 82502 11070 21079 40168 52004 70273 8802/ 333 88511;
0152287910999992000122206004+54610+072570FM-12+010999999V0203101N003019999999N0500001N1-00781-00961102141ADDAA100000891GF108991081001999999021999KA1999N-01051MD1210271+9999REMSYN076AAXX  22061 28791 12999 83103 11078 21096 40214 52027 69980 8802/ 333 21105;
0112287910999992000122212004+54610+072570FM-12+010999999V0203501N002012200019N0500001N1-01461-01591102441ADDGF102991001001999999001011MD1210091+9999REMSYN060AAXX  22121 28791 42984 23502 11146 21159 40244 52009 80001;
0193287910999992000122218004+54610+072570FM-12+010999999V0200901N003019999999N0060001N1-02011-02131102251ADDAA199000091AY111061AY241061GF108991081001999999021999KA1999M-00631MD1710161+9999MW1101REMSYN076AAXX  22181 28791 31956 80903 11201 21213 40225 57016 71014 8802/ 333 11063;EQDQ01  00002PRCP99
0140287910999992000122300004+54610+072570FM-12+010999999V0201001N007019999999N0060001N1-01021-01081101621ADDAY171061AY231061GF108991081001999999021999MD1710241+9999MW1711REMSYN066AAXX  23001 28791 41956 81007 11102 21108 40162 57024 77173 8802/;
0180287910999992000122306004+54610+072570FM-12+010999999V0201401N004019999999N0040001N1-00521-00551101331ADDAA100000591AY171061AY231061GF108991081001999999021999KA1999N-02411MD1710041+9999MW1711REMSYN082AAXX  23061 28791 11996 81404 11052 21055 40133 57004 69960 77173 8802/ 333 21241;
0150287910999992000122312004+54610+072570FM-12+010999999V0202401N005012200019N0500001N1-00961-01321101711ADDAY131061AY201061GA1001+999999999GF100991001001999999001001MD1210261+9999MW1021REMSYN060AAXX  23121 28791 41984 02405 11096 21132 40171 52026 70230;
0162287910999992000122318004+54610+072570FM-12+010999999V0202101N004012200019N0400001N1-01611-01801102081ADDAA100000791GA1001+999999999GF100991001001999999001001KA1999M-00481MD1210121+9999REMSYN070AAXX  23181 28791 12982 02104 11161 21180 40208 52012 69900 333 11048;
0122287910999992000122400004+54610+072570FM-12+010999999V0202101N003012200019N0350001N1-01711-01901102261ADDGA1001+999999999GF100991001001999999001001MD1210211+9999REMSYN054AAXX  24001 28791 42981 02103 11171 21190 40226 52021;
0175287910999992000122406004+54610+072570FM-12+010999999V0202301N004012200019N0500001N1-01641-01981102541ADDAA199000091GA1001+999999999GF100991001001999999001001KA1999N-01931MD1210171+9999REMSYN064AAXX  24061 28791 32999 02304 11164 21198 40254 52017 333 21193;EQDQ01  00002PRCP99
0122287910999992000122412004+54610+072570FM-12+010999999V0202001N003012200019N0500001N1-02211-02471102701ADDGA1001+999999999GF100991001001999999001001MD1210071+9999REMSYN054AAXX  24121 28791 42984 02003 11221 21247 40270 52007;
0175287910999992000122418004+54610+072570FM-12+010999999V0202101N005012200019N0400001N1-01851-02041102591ADDAA199000091GA1001+999999999GF100991001001999999001001KA1999M-01551MD1710051+9999REMSYN064AAXX  24181 28791 32982 02105 11185 21204 40259 57005 333 11155;EQDQ01  00002PRCP99
0140287910999992000122500004+54610+072570FM-12+010999999V0202001N004019999999N0350001N1-01471-01741102451ADDAY171061AY211061GF105991051001999999071001MD1710051+9999MW1221REMSYN066AAXX  25001 28791 41981 52004 11147 21174 40245 57005 72271 85070;
0162287910999992000122506004+54610+072570FM-12+010999999V0202101N005012200019N0500001N1-01471-01741102491ADDAA100000791GA1001+999999999GF100991001001999999001001KA1999N-02251MD1210051+9999REMSYN070AAXX  25061 28791 12999 02105 11147 21174 40249 52005 69900 333 21225;
0134287910999992000122512004+54610+072570FM-12+010999999V0202201N005019999999N0060001N1-01221-01491999999ADDAY171061AY221061GF108991081001999999021999MD1710021+9999MW1711REMSYN060AAXX  25121 28791 41956 82205 11122 21149 57002 77172 8802/;
0180287910999992000122518004+54610+072570FM-12+010999999V0202201N005012200019N0400001N1-01181-01431102341ADDAA100000791AY171061AY231061GF102991021001999999021999KA1999M-01121MD1710071+9999MW1011REMSYN082AAXX  25181 28791 11982 22205 11118 21143 40234 57007 69900 70173 8202/ 333 11112;
0140287910999992000122600004+54610+072570FM-12+010999999V0202001N005019999999N0060001N1-01331-01531102051ADDAY171061AY211061GF108991081001999999021999MD1710161+9999MW1711REMSYN066AAXX  26001 28791 41956 82005 11133 21153 40205 57016 77171 8802/;
0180287910999992000122606004+54610+072570FM-12+010999999V0202001N006019999999N0040001N1-01041-01171101651ADDAA100000791AY171061AY231061GF108991081001999999021999KA1999N-01711MD1710191+9999MW1711REMSYN082AAXX  26061 28791 11996 82006 11104 21117 40165 57019 69900 77173 8802/ 333 21171;
0150287910999992000122612004+54610+072570FM-12+010999999V0202401N005019999999N0060001N1-00711-00841101441ADDAY171061AY231061GF108991081001999999021999MD1710031+9999MW1711REMSYN076AAXX  26121 28791 41956 82405 11071 21084 40144 57003 77173 8802/ 333 92980;
0180287910999992000122618004+54610+072570FM-12+010999999V0202501N004019999999N0400001N1-00771-00911101681ADDAA100003091AY171061AY231061GF108991081001999999021999KA1999M-00701MD1210211+9999MW1361REMSYN082AAXX  26181 28791 11982 82504 11077 21091 40168 52021 60030 73673 8802/ 333 11070;
0150287910999992000122700004+54610+072570FM-12+010999999V0202401N004012200019N0400001N1-01381-01511102131ADDAY131061AY211061GA1001+999999999GF100991001001999999001001MD1210191+9999MW1011REMSYN060AAXX  27001 28791 41982 02404 11138 21151 40213 52019 70131;
0180287910999992000122706004+54610+072570FM-12+010999999V0202001N003019999999N0040001N1-01811-02001102371ADDAA100000791AY111061AY211061GF108991001001999999001051KA1999N-01951MD1210021+9999MW1101REMSYN082AAXX  27061 28791 11996 82003 11181 21200 40237 52002 69900 71011 80005 333 21195;
0140287910999992000122712004+54610+072570FM-12+010999999V0201601N005019999999N0060001N1-01191-01321101841ADDAY171061AY221061GF108991081001999999021999MD1710331+9999MW1711REMSYN066AAXX  27121 28791 41956 81605 11119 21132 40184 57033 77172 8802/;
0199287910999992000122718004+54610+072570FM-12+010999999V0202401N005019999999N0060001N1-00551-00661101081ADDAA100002091AY171061AY231061GF108991081001999999021999KA1999M+99999MD1710261+9999MW1711REMSYN082AAXX  27181 28791 11956 82405 11055 21066 40108 57026 60020 77173 8802/ 333 11079;EQDQ01 -00792ATMX  
0150287910999992000122800004+54610+072570FM-12+010999999V0203101N004012200019N0400001N1-01281-01481101341ADDAY171061AY231061GA1001+999999999GF100991001001999999001001MD1210161+9999MW1021REMSYN060AAXX  28001 28791 41982 03104 11128 21148 40134 52016 70273;
0181287910999992000122806004+54610+072570FM-12+010999999V0203101N003012200019N0200001N1-01701-01831102151ADDAA100002091GA1001+999999999GF100991001001999999001001KA1999N+99999MD1210341+9999REMSYN070AAXX  28061 28791 12998 03103 11170 21183 40215 52034 60020 333 21157;EQDQ01 -01572ATMN  
0122287910999992000122812004+54610+072570FM-12+010999999V0202801N001012200019N0400001N1-02151-02331102761ADDGA1001+999999999GF100991001001999999001001MD1210241+9999REMSYN054AAXX  28121 28791 42982 02801 11215 21233 40276 52024;
0175287910999992000122818004+54610+072570FM-12+010999999V0202001N001012200019N0400001N1-02541-02721102991ADDAA199000091GA1001+999999999GF100991001001999999001001KA1999M-01541MD1210031+9999REMSYN064AAXX  28181 28791 32982 02001 11254 21272 40299 52003 333 11154;EQDQ01  00002PRCP99
0112287910999992000122900004+54610+072570FM-12+010999999V0201001N002019999999N0400001N1-02031-02221102651ADDGF108991001001999999001041MD1710181+9999REMSYN060AAXX  29001 28791 42982 81002 11203 21222 40265 57018 80004;
0186287910999992000122906004+54610+072570FM-12+010999999V0201101N005019999999N0040001N1-01411-01611102111ADDAA100000891AY171061AY231061GF108991081001999999021999KA1120N-02571MD1710281+9999MW1711REMSYN088AAXX  29061 28791 11996 81105 11141 21161 40211 57028 69980 77173 8802/ 333 21257 92980;
0140287910999992000122912004+54610+072570FM-12+010999999V0200501N006019999999N0060001N1-01331-01531101761ADDAY171061AY231061GF108991081001999999021999MD1710041+9999MW1711REMSYN066AAXX  29121 28791 41956 80506 11133 21153 40176 57004 77173 8802/;
0190287910999992000122918004+54610+072570FM-12+010999999V0200101N004012200019N0280001N1-01561-01751102261ADDAA100005191AY171061AY231061GA1001+999999999GF100991001001999999001001KA1999M-01261MD1210241+9999MW1361REMSYN076AAXX  29181 28791 11978 00104 11156 21175 40226 52024 60050 73673 333 11126;
0150287910999992000123000004+54610+072570FM-12+010999999V0203401N003012200019N0400001N1-02401-02581102991ADDAY131061AY201061GA1001+999999999GF100991001001999999001001MD1210361+9999MW1021REMSYN060AAXX  30001 28791 41982 03403 11240 21258 40299 52036 70230;
0162287910999992000123006004+54610+072570FM-12+010999999V0203201N002012200019N0500001N1-02601-02841103641ADDAA100000391GA1001+999999999GF100991001001999999001001KA1999N-02701MD1210271+9999REMSYN070AAXX  30061 28791 12999 03202 11260 21284 40364 52027 69930 333 21270;
0122287910999992000123012004+54610+072570FM-12+010999999V0201501N002012200019N0400001N1-02941-03171103891ADDGA1001+999999999GF100991001001999999001001MD1210091+9999REMSYN054AAXX  30121 28791 42982 01502 11294 21317 40389 52009;
0175287910999992000123018004+54610+072570FM-12+010999999V0201201N001012200019N0400001N1-02851-03081103731ADDAA199000091GA1001+999999999GF100991001001999999001001KA1999M-02571MD1710101+9999REMSYN064AAXX  30181 28791 32982 01201 11285 21308 40373 57010 333 11257;EQDQ01  00002PRCP99
0140287910999992000123100004+54610+072570FM-12+010999999V0201101N006012200019N0400001N1-02261-02441103231ADDAY131061AY201061GF102991021001999999011001MD1710231+9999MW1361REMSYN066AAXX  31001 28791 41982 21106 11226 21244 40323 57023 73630 82010;
0174287910999992000123106004+54610+072570FM-12+010999999V0200901N005019999999N0040001N1-02131-02311103101ADDAA199000021AY171061AY231061GF108991081001999999071999KA1999N-02861MD1410001+9999MW1711REMSYN076AAXX  31061 28791 31996 80905 11213 21231 40310 54000 77173 8807/ 333 21286;
0140287910999992000123112004+54610+072570FM-12+010999999V0200701N004019999999N0400001N1-02241-02491103341ADDAY171061AY231061GF107991071001999999051001MD1210201+9999MW1021REMSYN066AAXX  31121 28791 41982 70704 11224 21249 40334 52020 70273 87050;
0152287910999992000123118004+54610+072570FM-12+010999999V0200901N003019999999N0400001N1-02201-02381103501ADDAA100000791GF108991081001999999021999KA1999M-02131MD1210031+9999REMSYN076AAXX  31181 28791 12982 80903 11220 21238 40350 52003 69900 8802/ 333 11213;
