0165339900999992000010106004+44500+034170FM-12+007299999V0202101N001010900019N0210001N1+00541+00371101341ADDAA106000091GF107991031051012501001021KA1999N+00541MD1710021+9999REMSYN070AAXX  01061 33990 32671 72101 10054 20037 40134 57002 83502 333 20054;EQDQ01  00002PRCP06
0161339900999992000010112004+44500+034170FM-12+007299999V0201801N002010075019N0170001N1+00811+00591101281ADDAY181061AY221061GF107991071091008001001001MA1999999100411MD1810061+9999MW1801REMSYN072AAXX  01121 33990 41567 71802 10081 20059 30041 40128 58006 78082 87900;
0161339900999992000010412004+44500+034170FM-12+007299999V0200601N002010042019N0140001N1+00001-00241102061ADDAY181061AY221061GF108991081091004501999999MA1999999101151MD1610101+9999MW1851REMSYN072AAXX  04121 33990 41464 80602 10000 21024 30115 40206 56010 78582 889//;
0168339900999992000010503004+44500+034170FM-12+007299999V0202901N002010084019N0210001N1-00031-00441101971ADDGA1071+008409069GF107991071051008001001001GJ100669MD1710071+9999REMSYN092AAXX  05031 33990 42571 72902 11003 21044 40197 57007 87500 333 55011 87628 555 21005 7990/;
0159339900999992000010506004+44500+034170FM-12+007299999V0203201N002010078019N0210001N1-00031-00411102041ADDGA1081+007809059GF108991081051008001999999MA1999999101131MD1710071+9999REMSYN076AAXX  05061 33990 42571 83202 11003 21041 30113 40204 57007 885// 333 88626;
0143339900999992000010509004+44500+034170FM-12+007299999V0200501N001010072019N0180001N1+00051-00351102151ADDGA1081+007209069GF108991081051008001999999MD1310061+9999REMSYN075AAXX  05091 33990 42568 80501 10005 21035 40215 53006 885// 333 88624 1701;
0161339900999992000010609004+44500+034170FM-12+007299999V0209999C000010042019N0100001N1+00271+00221102011ADDAY181031AY251031GF108991081091004501999999MA1999999101121MD1410001+9999MW1251REMSYN072AAXX  06091 33990 41460 80000 10027 20022 30112 40201 54000 72585 889//;
0161339900999992000010612004+44500+034170FM-12+007299999V0209999C000010042019N0100001N1+00271+00221102011ADDAY181061AY251061GF108991081091004501999999MA1999999101121MD1410001+9999MW1251REMSYN072AAXX  06121 33990 41460 80000 10027 20022 30112 40201 54000 72585 889//;
0112339900999992000010615004+44500+034170FM-12+007299999V0203001N002010075019N0110001N1+00281+00201102081ADDGF108991081051008001999999MD1310071+9999REMSYN060AAXX  06151 33990 42561 83002 10028 20020 40208 53007 885//;
0152339900999992000010706004+44500+034170FM-12+007299999V0202901N001010900019N0160001N1+00141+00001102471ADDAA112000591GF106991021051008001001021KA1999N+00141MD1210101+9999REMSYN076AAXX  07061 33990 12566 62901 10014 20000 40247 52010 69942 82502 333 20014;
0112339900999992000010709004+44500+034170FM-12+007299999V0200301N001010075019N0240001N1+00481+00071102511ADDGF108991081061008001999999MD1110061+9999REMSYN060AAXX  07091 33990 42574 80301 10048 20007 40251 51006 886//;
0133339900999992000010712004+44500+034170FM-12+007299999V0200401N001010075019N0260001N1+00531+00151102481ADDGF107991071061008001001001MA1999999101581MD1610031+9999REMSYN066AAXX  07121 33990 42576 70401 10053 20015 30158 40248 56003 87600;
0112339900999992000010715004+44500+034170FM-12+007299999V0200601N004010042019N0280001N1+00441+00191102521ADDGF108991081061004501999999MD1110041+9999REMSYN060AAXX  07151 33990 42478 80604 10044 20019 40252 51004 886//;
0187339900999992000010718004+44500+034170FM-12+007299999V0200901N004010048019N0250001N1+00381+00151102601ADDAA106000091GA1081+004809069GF108991081061004501999999KA1120M+00551MD1210081+9999REMSYN076AAXX  07181 33990 32475 80904 10038 20015 40260 52008 886// 333 10055 88716;EQDQ01  00002PRCP06
0138339900999992000010721004+44500+034170FM-12+007299999V0200801N003010042019N0230001N1+00321+00111102611ADDGA1081+004209069GF108991081061004501999999MD1310011+9999REMSYN070AAXX  07211 33990 42473 80803 10032 20011 40261 53001 886// 333 88714;
0159339900999992000010800004+44500+034170FM-12+007299999V0200401N002010048019N0240001N1+00361+00071102581ADDGA1081+004809069GF108991081061004501999999MA1999999101681MD1610031+9999REMSYN076AAXX  08001 33990 42474 80402 10036 20007 30168 40258 56003 886// 333 88716;
0168339900999992000010803004+44500+034170FM-12+007299999V0200501N003010048019N0260001N1+00341+00051102531ADDGA1081+004809079GF108991081061004501999999GJ100669MD1610051+9999REMSYN092AAXX  08031 33990 42476 80503 10034 20005 40253 56005 886// 333 55011 88716 555 20030 7000/;
0165339900999992000010806004+44500+034170FM-12+007299999V0200901N003012200019N0230001N1+00331+00011102551ADDAA106000091GF103991031061004501001001KA1999N+00301MD1210021+9999REMSYN070AAXX  08061 33990 32473 30903 10033 20001 40255 52002 83600 333 20030;EQDQ01  00002PRCP06
0112339900999992000010809004+44500+034170FM-12+007299999V0200701N004010075019N0220001N1+00411+00161102581ADDGF107991071051008001001001MD1210041+9999REMSYN060AAXX  08091 33990 42572 70704 10041 20016 40258 52004 87500;
0139339900999992000010812004+44500+034170FM-12+007299999V0200601N003010048019N0200001N1+00431+00121102521ADDGA1061+004809069GF108991081061004501999999MA1999999101621REMSYN070AAXX  08121 33990 42470 80603 10043 20012 30162 40252 886// 333 86716;
0138339900999992000010815004+44500+034170FM-12+007299999V0200601N001010051019N0200001N1+00391+00131102511ADDGA1081+005109069GF108991081061004501999999MD1710011+9999REMSYN070AAXX  08151 33990 42470 80601 10039 20013 40251 57001 886// 333 88717;
0187339900999992000010818004+44500+034170FM-12+007299999V0200701N004010048019N0190001N1+00331+00091102551ADDAA106000091GA1081+004809069GF108991081061004501999999KA1120M+00441MD1310041+9999REMSYN076AAXX  08181 33990 32469 80704 10033 20009 40255 53004 886// 333 10044 88716;EQDQ01  00002PRCP06
0138339900999992000010821004+44500+034170FM-12+007299999V0203401N002010060019N0190001N1+00271-00031102541ADDGA1081+006009059GF108991081051008001999999MD1810011+9999REMSYN070AAXX  08211 33990 42569 83402 10027 21003 40254 58001 885// 333 88620;
0159339900999992000010900004+44500+034170FM-12+007299999V0203201N001010066019N0170001N1-00021-00051102521ADDGA1081+006609059GF108991081051008001999999MA1999999101621MD1710021+9999REMSYN076AAXX  09001 33990 42567 83201 11002 21005 30162 40252 57002 885// 333 88622;
0138339900999992000010903004+44500+034170FM-12+007299999V0203001N001010075019N0170001N1+00151-00101102501ADDGF108991081051008001999999MD1710041+9999REMSYN086AAXX  09031 33990 42567 83001 10015 21010 40250 57004 885// 333 55001 555 20015 7000/;
0112339900999992000010909004+44500+034170FM-12+007299999V0200301N002010360019N0210001N1+00451+00001102541ADDGF106991011051008001031001MD1810021+9999REMSYN060AAXX  09091 33990 42571 60302 10045 20000 40254 58002 81530;
0133339900999992000010912004+44500+034170FM-12+007299999V0203601N001010075019N0170001N1+00331-00051102521ADDGF108991081051008001999999MA1999999101621MD1710021+9999REMSYN066AAXX  09121 33990 42567 83601 10033 21005 30162 40252 57002 885//;
0112339900999992000010915004+44500+034170FM-12+007299999V0203501N001010075019N0160001N1+00311-00011102511ADDGF108991081051008001999999MD1610011+9999REMSYN060AAXX  09151 33990 42566 83501 10031 21001 40251 56001 885//;
0165339900999992000010918004+44500+034170FM-12+007299999V0203001N002010075019N0160001N1+00251-00081102581ADDAA106000091GF108991081051008001999999KA1999M+00451MD1310071+9999REMSYN070AAXX  09181 33990 32566 83002 10025 21008 40258 53007 885// 333 10045;EQDQ01  00002PRCP06
0112339900999992000010921004+44500+034170FM-12+007299999V0203201N001010075019N0140001N1+00191-00061102601ADDGF108991081051008001999999MD1210021+9999REMSYN060AAXX  09211 33990 42564 83201 10019 21006 40260 52002 885//;
0133339900999992000011000004+44500+034170FM-12+007299999V0203201N001010075019N0160001N1+00181-00101102621ADDGF108991081051008001999999MA1999999101721MD1210021+9999REMSYN066AAXX  10001 33990 42566 83201 10018 21010 30172 40262 52002 885//;
0138339900999992000011003004+44500+034170FM-12+007299999V0203001N001010075019N0160001N1+00171-00141102671ADDGF108991081051008001999999MD1110031+9999REMSYN086AAXX  10031 33990 42566 83001 10017 21014 40267 51003 885// 333 55018 555 20013 7000/;
0165339900999992000011006004+44500+034170FM-12+007299999V0203501N001010075019N0110001N1+00211-00101102761ADDAA106000091GF108991081051008001999999KA1999N+00131MD1310111+9999REMSYN070AAXX  10061 33990 32561 83501 10021 21010 40276 53011 885// 333 20013;EQDQ01  00002PRCP06
0112339900999992000011009004+44500+034170FM-12+007299999V0200801N002010042019N0100001N1+00271+00031102801ADDGF108991081061004501999999MD1110041+9999REMSYN060AAXX  10091 33990 42460 80802 10027 20003 40280 51004 886//;
0133339900999992000011012004+44500+034170FM-12+007299999V0200901N001010042019N0100001N1+00241+00001102791ADDGF108991081061004501999999MA1999999101891MD1810011+9999REMSYN066AAXX  10121 33990 42460 80901 10024 20000 30189 40279 58001 886//;
0140339900999992000011015004+44500+034170FM-12+007299999V0201101N001010042019N0070001N1+00261+00051102841ADDAY151031AY221031GF108991081061004501999999MD1310051+9999MW1511REMSYN066AAXX  10151 33990 41457 81101 10026 20005 40284 53005 75152 886//;
0202339900999992000011018004+44500+034170FM-12+007299999V0200401N001010042019N0120001N1+00251+00011102831ADDAA112000791AY151061AY221061GA1081+004209069GF108991081061004501999999KA1120M+00311MD1810011+9999MW1021REMSYN088AAXX  10181 33990 11462 80401 10025 20001 40283 58001 69902 70252 886// 333 10031 88714;
0138339900999992000011021004+44500+034170FM-12+007299999V0202401N001010039019N0100001N1+00211-00011102891ADDGA1081+003909069GF108991081061004501999999MD1310061+9999REMSYN070AAXX  10211 33990 42460 82401 10021 21001 40289 53006 886// 333 88713;
0159339900999992000011100004+44500+034170FM-12+007299999V0200601N003010036019N0100001N1+00201+00011102921ADDGA1081+003609069GF108991081061004501999999MA1999999102021MD1210031+9999REMSYN076AAXX  11001 33990 42460 80603 10020 20001 30202 40292 52003 886// 333 88712;
0168339900999992000011103004+44500+034170FM-12+007299999V0200401N002010042019N0100001N1+00181-00071102951ADDGA1081+004209079GF108991081061004501999999GJ100009MD1210031+9999REMSYN092AAXX  11031 33990 42460 80402 10018 21007 40295 52003 886// 333 55000 88714 555 20015 7990/;
0187339900999992000011106004+44500+034170FM-12+007299999V0200601N003010045019N0150001N1+00181-00161103101ADDAA106000091GA1081+004509069GF108991081061004501999999KA1120N+00151MD1210131+9999REMSYN076AAXX  11061 33990 32465 80603 10018 21016 40310 52013 886// 333 20015 88715;EQDQ01  00002PRCP06
0112339900999992000011109004+44500+034170FM-12+007299999V0200601N004010042019N0120001N1+00191-00311103091ADDGF108991081061004501999999MD1110011+9999REMSYN060AAXX  11091 33990 42462 80604 10019 21031 40309 51001 886//;
0133339900999992000011112004+44500+034170FM-12+007299999V0200601N002010042019N0150001N1+00221-00351103091ADDGF108991081061004501999999MA1999999102191MD1510001+9999REMSYN066AAXX  11121 33990 42465 80602 10022 21035 30219 40309 55000 886//;
0112339900999992000011115004+44500+034170FM-12+007299999V0202601N002012200019N0170001N1+00081-00381103141ADDGF103991031041012501001001MD1210031+9999REMSYN060AAXX  11151 33990 42667 32602 10008 21038 40314 52003 83400;
0165339900999992000011118004+44500+034170FM-12+007299999V0202901N002012200019N0230001N1+00021-00351103171ADDAA106000091GF102991021041012501001001KA1999M+00241MD1210031+9999REMSYN070AAXX  11181 33990 32673 22902 10002 21035 40317 52003 82400 333 10024;EQDQ01  00002PRCP06
0112339900999992000011121004+44500+034170FM-12+007299999V0202901N001010120019N0250001N1+00061-00341103151ADDGF105991051051012501001001MD1810021+9999REMSYN060AAXX  11211 33990 42675 52901 10006 21034 40315 58002 85500;
0133339900999992000011200004+44500+034170FM-12+007299999V0202901N001010120019N0260001N1+00041-00321103201ADDGF106991061051012501001001MA1999999102281MD1310051+9999REMSYN066AAXX  12001 33990 42676 62901 10004 21032 30228 40320 53005 86500;
0138339900999992000011203004+44500+034170FM-12+007299999V0202801N001012200019N0250001N1+00071-00321103161ADDGF102991021051012501001001MD1710041+9999REMSYN086AAXX  12031 33990 42675 22801 10007 21032 40316 57004 82500 333 55000 555 20002 7000/;
0165339900999992000011206004+44500+034170FM-12+007299999V0202901N002010360019N0180001N1+00071-00261103181ADDAA106000091GF108991021041012501021999KA1999N+00021MD1310021+9999REMSYN070AAXX  12061 33990 32668 82902 10007 21026 40318 53002 8242/ 333 20002;EQDQ01  00002PRCP06
0112339900999992000011209004+44500+034170FM-12+007299999V0200901N001010120019N0190001N1+00331-00181103181ADDGF108991081081008001999999MD1210021+9999REMSYN060AAXX  12091 33990 42569 80901 10033 21018 40318 52002 888//;
0133339900999992000011212004+44500+034170FM-12+007299999V0200501N001010120019N0210001N1+00421+00001103141ADDGF108991081081008001999999MA1999999102241MD1810041+9999REMSYN066AAXX  12121 33990 42571 80501 10042 21000 30224 40314 58004 888//;
0112339900999992000011215004+44500+034170FM-12+007299999V0200501N001010075019N0180001N1+00271-00281103181ADDGF108991081051008001999999MD1310041+9999REMSYN060AAXX  12151 33990 42568 80501 10027 21028 40318 53004 885//;
0165339900999992000011218004+44500+034170FM-12+007299999V0200301N001010075019N0180001N1+00291+00131103161ADDAA106000091GF108991081051008001999999KA1999M+00441MD1810021+9999REMSYN070AAXX  12181 33990 32568 80301 10029 20013 40316 58002 885// 333 10044;EQDQ01  00002PRCP06
0112339900999992000011221004+44500+034170FM-12+007299999V0203001N001010360019N0160001N1+00191-00181103231ADDGF107991041051008001071001MD1210031+9999REMSYN060AAXX  12211 33990 42566 73001 10019 21018 40323 52003 84570;
0133339900999992000011300004+44500+034170FM-12+007299999V0202901N001010360019N0160001N1+00171+99999103261ADDGF107991021051008001071001MA1999999102341MD1210011+9999REMSYN066AAXX  13001 33990 42566 72901 10017 20021 30234 40326 52001 82570;
0138339900999992000011303004+44500+034170FM-12+007299999V0203301N001019999999N0170001N1+00171-00271103261ADDGF107991071001999999071001MD1410001+9999REMSYN086AAXX  13031 33990 42967 73301 10017 21027 40326 54000 87070 333 55000 555 20015 7000/;
0165339900999992000011306004+44500+034170FM-12+007299999V0200501N002010360019N0180001N1+00231-00231103321ADDAA106000091GF107991021051012501071001KA1999N+00151MD1310081+9999REMSYN070AAXX  13061 33990 32668 70502 10023 21023 40332 53008 82570 333 20015;EQDQ01  00002PRCP06
0112339900999992000011309004+44500+034170FM-12+007299999V0200601N005010360019N0200001N1+00331-00181103341ADDGF107991021051012501071001MD1210021+9999REMSYN060AAXX  13091 33990 42670 70605 10033 21018 40334 52002 82570;
0133339900999992000011312004+44500+034170FM-12+007299999V0200701N005010360019N0200001N1+00361-00171103291ADDGF106991021051012501041001MA1999999102391MD1810051+9999REMSYN066AAXX  13121 33990 42670 60705 10036 21017 30239 40329 58005 82540;
0112339900999992000011315004+44500+034170FM-12+007299999V0200601N003010360019N0180001N1+00271-00151103341ADDGF106991021051012501041001MD1310051+9999REMSYN060AAXX  13151 33990 42668 60603 10027 21015 40334 53005 82540;
0165339900999992000011318004+44500+034170FM-12+007299999V0200401N003010360019N0170001N1+00231-00201103381ADDAA106000091GF106991021051008001051001KA1999M+00371MD1210041+9999REMSYN070AAXX  13181 33990 32567 60403 10023 21020 40338 52004 82550 333 10037;EQDQ01  00002PRCP06
0116339900999992000011321004+44500+034170FM-12+007299999V0200701N002010360019N0170001N1+00171-00211103441ADDGF107991021051008001051001MD1110031+9999REMSYN064    AAXX  13211 33990 42567 70702 10017 21021 40344 51003 82550;
0137339900999992000011400004+44500+034170FM-12+007299999V0200401N001012200019N0150001N1-00021-00201103431ADDGF102991021051008001001001MA1999999102501MD1810011+9999REMSYN070    AAXX  14001 33990 42565 20401 11002 21020 30250 40343 58001 82500;
0142339900999992000011403004+44500+034170FM-12+007299999V0201201N002010360019N0160001N1+00021-00151103411ADDGF107991021051008001051001MD1710011+9999REMSYN090    AAXX  14031 33990 42566 71202 10002 21015 40341 57001 82550 333 55025 555 21003 7000/;
0169339900999992000011406004+44500+034170FM-12+007299999V0203001N002010075019N0190001N1+00131-00251103451ADDAA199000091GF108991081051008001999999KA1999N-00031MD1310031+9999REMSYN074    AAXX  14061 33990 32569 83002 10013 21025 40345 53003 885// 333 21003;EQDQ01  00002PRCP99
0116339900999992000011409004+44500+034170FM-12+007299999V0200801N001010075019N0170001N1+00371-00191103441ADDGF107991051051008001031001MD1110011+9999REMSYN064    AAXX  14091 33990 42567 70801 10037 21019 40344 51001 85530;
0142339900999992000011412004+44500+034170FM-12+007299999V0201001N002019999999N0150001N1+00301-00081103331ADDGF107991999001008001011001MA1999999102431REMSYN070    AAXX  14121 33990 42565 71002 10030 21008 30243 40333 85010 87500;EQDQ01+000052SCOTLC
0116339900999992000011415004+44500+034170FM-12+007299999V0200601N002010075019N0140001N1+00281-00081103361ADDGF108991081051008001999999MD1310031+9999REMSYN064    AAXX  14151 33990 42564 80602 10028 21008 40336 53003 885//;
0191339900999992000011418004+44500+034170FM-12+007299999V0200601N004010078019N0140001N1+00261-00071103361ADDAA199000091GA1081+007809059GF108991081051008001999999KA1120M+00411MD1410001+9999REMSYN080    AAXX  14181 33990 32564 80604 10026 21007 40336 54000 885// 333 10041 88626;EQDQ01  00002PRCP99
0116339900999992000011421004+44500+034170FM-12+007299999V0200601N003010075019N0150001N1+00171-00211103381ADDGF107991071051008001001001MD1410001+9999REMSYN064    AAXX  14211 33990 42565 70603 10017 21021 40338 54000 87500;
0163339900999992000011500004+44500+034170FM-12+007299999V0200701N004010072019N0150001N1+00171-00211103281ADDGA1081+007209059GF108991081051008001999999MA1999999102361MD1810101+9999REMSYN080    AAXX  15001 33990 42565 80704 10017 21021 30236 40328 58010 885// 333 88624;
0172339900999992000011503004+44500+034170FM-12+007299999V0200501N003010063019N0140001N1+00151-00231103211ADDGA1081+006309069GF108991081051008001999999GJ100189MD1710071+9999REMSYN096    AAXX  15031 33990 42564 80503 10015 21023 40321 57007 885// 333 55003 88621 555 20012 7000/;
0191339900999992000011506004+44500+034170FM-12+007299999V0203001N001010066019N0130001N1+00121-00201103161ADDAA199000091GA1081+006609059GF108991081051008001999999KA1120N+00121MD1710051+9999REMSYN080    AAXX  15061 33990 32563 83001 10012 21020 40316 57005 885// 333 20012 88622;EQDQ01  00002PRCP99
0116339900999992000011509004+44500+034170FM-12+007299999V0200601N003010021019N0110001N1+00141-00081103041ADDGF108991081061002501999999MD1810121+9999REMSYN064    AAXX  15091 33990 42361 80603 10014 21008 40304 58012 886//;
0163339900999992000011512004+44500+034170FM-12+007299999V0209999C000010033019N0110001N1+00141-00111102851ADDGA1081+003309069GF108991081061004501999999MA1999999101931MD1710191+9999REMSYN080    AAXX  15121 33990 42461 80000 10014 21011 30193 40285 57019 886// 333 88711;
0144339900999992000011515004+44500+034170FM-12+007299999V0209999C000010042019N0080001N1+00171-00081102821ADDAY121031AY221031GF108991081061004501999999MD1610031+9999MW1101REMSYN070    AAXX  15151 33990 41458 80000 10017 21008 40282 56003 71022 886//;
0191339900999992000011518004+44500+034170FM-12+007299999V0203001N001010036019N0150001N1+00161-00031102751ADDAA199000091GA1081+003609069GF108991081061004501999999KA1120M+00201MD1810071+9999REMSYN080    AAXX  15181 33990 32465 83001 10016 21003 40275 58007 886// 333 10020 88712;EQDQ01  00002PRCP99
0116339900999992000011521004+44500+034170FM-12+007299999V0203001N002010075019N0190001N1+00111-00151102651ADDGF105991051061008001001001MD1710101+9999REMSYN064    AAXX  15211 33990 42569 53002 10011 21015 40265 57010 85600;
0137339900999992000011600004+44500+034170FM-12+007299999V0203501N001012200019N0210001N1+00001-00271102551ADDGF102991021041012501001001MA1999999101631MD1610101+9999REMSYN070    AAXX  16001 33990 42671 23501 10000 21027 30163 40255 56010 82400;
0160339900999992000011603004+44500+034170FM-12+007299999V0203601N001012200019N0230001N1-00021-00231102471ADDGA1001+999999999GF100991001001999999001001GJ100009MD1710081+9999REMSYN084    AAXX  16031 33990 42973 03601 11002 21023 40247 57008 333 55000 555 21002 7000/;
0169339900999992000011606004+44500+034170FM-12+007299999V0202901N001012200019N0170001N1+00031-00141102521ADDAA199000091GF103991021041012501001011KA1999N-00021MD1310051+9999REMSYN074    AAXX  16061 33990 32667 32901 10003 21014 40252 53005 82401 333 21002;EQDQ01  00002PRCP99
0116339900999992000011609004+44500+034170FM-12+007299999V0200901N001010120019N0180001N1+00481-00221102471ADDGF108991081081008001999999MD1810031+9999REMSYN064    AAXX  16091 33990 42568 80901 10048 21022 40247 58003 888//;
0137339900999992000011612004+44500+034170FM-12+007299999V0200701N001010075019N0140001N1+00451+00001102421ADDGF108991081051008001999999MA1999999101521MD1710051+9999REMSYN070    AAXX  16121 33990 42564 80701 10045 20000 30152 40242 57005 885//;
0116339900999992000011615004+44500+034170FM-12+007299999V0202701N001010075019N0120001N1+00391+00111102391ADDGF108991081051008001999999MD1710031+9999REMSYN064    AAXX  16151 33990 42562 82701 10039 20011 40239 57003 885//;
0191339900999992000011618004+44500+034170FM-12+007299999V0202901N003010135019N0150001N1+00401-00181102311ADDAA199000091GA1081+013509059GF108991081051012501999999KA1120M+00531MD1710071+9999REMSYN080    AAXX  16181 33990 32665 82903 10040 21018 40231 57007 885// 333 10053 88645;EQDQ01  00002PRCP99
0116339900999992000011621004+44500+034170FM-12+007299999V0202301N003010360019N0160001N1+00331-00211102161ADDGF107991031051012501041001MD1710151+9999REMSYN064    AAXX  16211 33990 42666 72303 10033 21021 40216 57015 83540;
0137339900999992000011700004+44500+034170FM-12+007299999V0202101N001012200019N0160001N1+00231-00401101981ADDGF103991031051008001001001MA1999999101091MD1710181+9999REMSYN070    AAXX  17001 33990 42566 32101 10023 21040 30109 40198 57018 83500;
0132339900999992000011703004+44500+034170FM-12+007299999V0202601N001012200019N0150001N1+00151-00671101781ADDGF101991011001999999031001MD1710211+9999REMSYN080    AAXX  17031 33990 42965 12601 10015 21067 40178 57021 81030 555 20000 7000/;
0169339900999992000011706004+44500+034170FM-12+007299999V0203001N002012200019N0160001N1+00151-00721101671ADDAA199000091GF102991021051999999001011KA1999N+00001MD1710111+9999REMSYN074    AAXX  17061 33990 32966 23002 10015 21072 40167 57011 82501 333 20000;EQDQ01  00002PRCP99
0116339900999992000011709004+44500+034170FM-12+007299999V0202101N002010075019N0210001N1+00431-00671101401ADDGF108991081051008001999999MD1710251+9999REMSYN064    AAXX  17091 33990 42571 82102 10043 21067 40140 57025 885//;
0165339900999992000011712004+44500+034170FM-12+007299999V0200201N002010075019N0110001N1+00331-00051100971ADDAY181061AY211061GF108991081091008001999999MA1999999100081MD1710431+9999MW1851REMSYN076    AAXX  17121 33990 41561 80202 10033 21005 30008 40097 57043 78581 889//;
0144339900999992000011715004+44500+034170FM-12+007299999V0202101N001010075019N0110001N1+00231+00151100471ADDAY181031AY221031GF108991081091008001999999MD1710501+9999MW1021REMSYN070    AAXX  17151 33990 41561 82101 10023 20015 40047 57050 70282 889//;
0184339900999992000011718004+44500+034170FM-12+007299999V0201801N003010075019N0140001N1+00291-00131100071ADDAA112004191AY181061AY221061GF108991081051008001999999KA1999M+00441MD1710391+9999MW1021REMSYN086    AAXX  17181 33990 11564 81803 10029 21013 40007 57039 60042 70282 885// 333 10044;
0144339900999992000011721004+44500+034170FM-12+007299999V0202401N002010075019N0140001N1+00241-00251099761ADDAY181031AY221031GF108991081091008001999999MD1710311+9999MW1871REMSYN070    AAXX  17211 33990 41564 82402 10024 21025 49976 57031 78782 889//;
0165339900999992000011800004+44500+034170FM-12+007299999V0202301N002010075019N0100001N1+00231-00021099341ADDAY181061AY221061GF108991081051008001999999MA1999999098471MD1710411+9999MW1021REMSYN076    AAXX  18001 33990 41560 82302 10023 21002 39847 49934 57041 70282 885//;
0170339900999992000011803004+44500+034170FM-12+007299999V0202101N002010075019N0090001N1+00211-00101099051ADDAY181031AY221031GF108991081091008001999999MD1710291+9999MW1501REMSYN096    AAXX  18031 33990 41559 82102 10021 21010 49905 57029 75082 889// 333 55005 555 20019 7006/;
0184339900999992000011806004+44500+034170FM-12+007299999V0202701N002010075019N0060001N1+00051-00011098951ADDAA112005191AY181061AY221061GF108991081091008001999999KA1999N+00051MD1710111+9999MW1851REMSYN086    AAXX  18061 33990 11556 82702 10005 21001 49895 57011 60052 78582 889// 333 20005;
0138339900999992000011809004+44500+034170FM-12+007299999V0202701N003019999999N0220001N1+00391+00161098871ADDAY181031AY221031GF108991999999008001999999MD1710071+9999MW1021REMSYN064    AAXX  18091 33990 41572 82703 10039 20016 49887 57007 70282;
0165339900999992000011812004+44500+034170FM-12+007299999V0202501N002010075019N0250001N1+00681-00181098821ADDAY181061AY221061GF107991061031008001001011MA1999999097951MD1710051+9999MW1021REMSYN076    AAXX  18121 33990 41575 72502 10068 21018 39795 49882 57005 70282 86301;
0116339900999992000011815004+44500+034170FM-12+007299999V0202701N001010075019N0230001N1+00371-00161098821ADDGF108991061051008001071999MD1410001+9999REMSYN064    AAXX  18151 33990 42573 82701 10037 21016 49882 54000 8657/;
0156339900999992000011818004+44500+034170FM-12+007299999V0202901N001010075019N0190001N1+00291-00131098881ADDAA112000391GF108991061051008001021999KA1999M+00681MD1310061+9999REMSYN080    AAXX  18181 33990 12569 82901 10029 21013 49888 53006 69932 8652/ 333 10068;
0116339900999992000011821004+44500+034170FM-12+007299999V0202101N002010075019N0230001N1+00271-00321099051ADDGF106991061051008001001001MD1210171+9999REMSYN064    AAXX  18211 33990 42573 62102 10027 21032 49905 52017 86500;
0165339900999992000011900004+44500+034170FM-12+007299999V0202701N003010075019N0080001N1+00201-00481099331ADDAY181061AY221061GF106991061091008001001001MA1999999098461MD1210281+9999MW1851REMSYN076    AAXX  19001 33990 41558 62703 10020 21048 39846 49933 52028 78582 86900;
0170339900999992000011903004+44500+034170FM-12+007299999V0202901N005010360019N0200001N1+00291-00591099451ADDAY181031AY221031GF105991031051012501041001MD1210111+9999MW1021REMSYN096    AAXX  19031 33990 41670 52905 10029 21059 49945 52011 70282 83540 333 55034 555 20001 7003/;
0213339900999992000011906004+44500+034170FM-12+007299999V0200301N001010075019N0050001N1+00171-00141099741ADDAA112000591AJ100009199999999AY181061AY221061GF106991061091008001001001IA1239KA1120N+00011MD1210281+9999MW1851REMSYN092    AAXX  19061 33990 11550 60301 10017 21014 49974 52028 69952 78582 86900 333 20001 47997;
0144339900999992000011909004+44500+034170FM-12+007299999V0203101N002012200019N0350001N1+00541-00421099851ADDAY181031AY221031GF103991021091008001041001MD1210121+9999MW1021REMSYN070    AAXX  19091 33990 41581 33102 10054 21042 49985 52012 70282 82940;
0165339900999992000011912004+44500+034170FM-12+007299999V0202601N002012200019N0300001N1+00531-00561099961ADDAY181061AY221061GF102991021031008001041001MA1999999099081MD1110111+9999MW1261REMSYN076    AAXX  19121 33990 41580 22602 10053 21056 39908 49996 51011 72682 82340;
0116339900999992000011915004+44500+034170FM-12+007299999V0209999C000010075019N0350001N1+00351-00551100151ADDGF106991061091008001001001MD1110191+9999REMSYN064    AAXX  19151 33990 42581 60000 10035 21055 40015 51019 86900;
0180339900999992000011918004+44500+034170FM-12+007299999V0200101N003010075019N0280001N1+00131-00191100221ADDAA112000591AY181061AY211061GF106991061091008001001001KA1999M+00581MD1110061+9999MW1021REMSYN082AAXX  19181 33990 11578 60103 10013 21019 40022 51006 69952 70281 86900 333 10058;
0140339900999992000011921004+44500+034170FM-12+007299999V0202701N002010075019N0210001N1+00001-00241100251ADDAY181031AY221031GF105991051091008001001001MD1310031+9999MW1851REMSYN066AAXX  19211 33990 41571 52702 10000 21024 40025 53003 78582 85900;
0161339900999992000012000004+44500+034170FM-12+007299999V0200501N002012200019N0260001N1+00061-00591100401ADDAY181061AY221061GF103991021041008001041001MA1999999099501MD1310141+9999MW1021REMSYN072AAXX  20001 33990 41576 30502 10006 21059 39950 40040 53014 70282 82440;
0138339900999992000012003004+44500+034170FM-12+007299999V0200401N001012200019N0300001N1+00061-00671100451ADDGF102991021041008001001001MD1110051+9999REMSYN086AAXX  20031 33990 42580 20401 10006 21067 40045 51005 82400 333 55057 555 20000 7999/;
0181339900999992000012006004+44500+034170FM-12+007299999V0200201N003012200019N0230001N1+00081-00691100671ADDAA112000191AJ100009199999999GF103991031041008001001001IA1239KA1120N-00011MD1210221+9999REMSYN082AAXX  20061 33990 12573 30203 10008 21069 40067 52022 69922 83400 333 21001 47997;
0112339900999992000012009004+44500+034170FM-12+007299999V0203201N002012200019N0270001N1+00321-00671100721ADDGF102991021021008001001001MD1210061+9999REMSYN060AAXX  20091 33990 42577 23202 10032 21067 40072 52006 82200;
0133339900999992000012012004+44500+034170FM-12+007299999V0203601N002012200019N0250001N1+00031-00851100781ADDGF107991021031008001001011MA1999999099881MD1310051+9999REMSYN066AAXX  20121 33990 42575 73602 10003 21085 39988 40078 53005 82301;
0140339900999992000012015004+44500+034170FM-12+007299999V0203501N004010075019N0070001N1-00331-00761100951ADDAY181031AY211031GF108991081091008001999999MD1210151+9999MW1851REMSYN066AAXX  20151 33990 41557 83504 11033 21076 40095 52015 78581 889//;
0152339900999992000012018004+44500+034170FM-12+007299999V0200501N002010075019N0200001N1-00491-01021101191ADDAA112000191GF106991061031008001001001KA1999M+00321MD1210241+9999REMSYN076AAXX  20181 33990 11570 60502 11049 21102 40119 52024 69922 86300 333 10032;
0112339900999992000012021004+44500+034170FM-12+007299999V0201201N002019999999N0240001N1-00391-01111101101ADDGF105991051001999999041001MD1810031+9999REMSYN060AAXX  20211 33990 42974 51202 11039 21111 40110 58003 85040;
0133339900999992000012100004+44500+034170FM-12+007299999V0201801N001010360019N0250001N1-00151-00971101101ADDGF106991021051012501041001MA1999999100201MD1310021+9999REMSYN066AAXX  21001 33990 42675 61801 11015 21097 30020 40110 53002 82540;
0166339900999992000012103004+44500+034170FM-12+007299999V0201601N002010120019N0150001N1-00051-00501100941ADDAY181031AY221031GF105991051091012501001001MD1810161+9999MW1851REMSYN092AAXX  21031 33990 41665 51602 11005 21050 40094 58016 78582 85900 333 55070 555 21049 7992/;
0209339900999992000012106004+44500+034170FM-12+007299999V0202101N003010075019N0220001N1+00151-00651100871ADDAA112000791AJ100019199999999AY181061AY221061GF108991081091008001999999IA1239KA1120N-00491MD1610071+9999MW1021REMSYN088AAXX  21061 33990 11572 82103 10015 21065 40087 56007 69902 70282 889// 333 21049 47001;
0140339900999992000012109004+44500+034170FM-12+007299999V0202101N002010075019N0034001N1+00171-00241100661ADDAY181031AY221031GF108991081091008001999999MD1710211+9999MW1861REMSYN066AAXX  21091 33990 41534 82102 10017 21024 40066 57021 78682 889//;
0161339900999992000012112004+44500+034170FM-12+007299999V0202301N003010075019N0038001N1+00131-00091100331ADDAY181061AY221061GF108991081091008001999999MA1999999099441MD1710321+9999MW1861REMSYN072AAXX  21121 33990 41538 82303 10013 21009 39944 40033 57032 78682 889//;
0140339900999992000012115004+44500+034170FM-12+007299999V0201701N003010075019N0019001N1+00131+00051100061ADDAY181031AY221031GF108991081091008001999999MD1710271+9999MW1861REMSYN066AAXX  21151 33990 41519 81703 10013 20005 40006 57027 78682 889//;
0180339900999992000012118004+44500+034170FM-12+007299999V0202001N003010075019N0070001N1+00171+00061099841ADDAA112016091AY181061AY221061GF108991081091008001999999KA1999M+00261MD1710221+9999MW1841REMSYN082AAXX  21181 33990 11557 82003 10017 20006 49984 57022 60162 78482 889// 333 10026;
0140339900999992000012121004+44500+034170FM-12+007299999V0202401N004010075019N0090001N1+00231+00071099581ADDAY181031AY221031GF108991081091008001999999MD1710251+9999MW1831REMSYN066AAXX  21211 33990 41559 82404 10023 20007 49958 57025 78382 889//;
0161339900999992000012200004+44500+034170FM-12+007299999V0202301N005010075019N0140001N1+00331-00081099391ADDAY181061AY221061GF108991061091008001001011MA1999999098511MD1710191+9999MW1021REMSYN072AAXX  22001 33990 41564 82305 10033 21008 39851 49939 57019 70282 86901;
0207339900999992000012203004+44500+034170FM-12+007299999V0202101N003010075019N0090001N1-00011-00501999999ADDAY191031AY221031GF106991061091008001001001MD1310101+9999MW1851REMSYN098AAXX  22031 33990 41559 62103 11001 21050 40751 53010 78592 86900 333 55000 555 21001 7031/ 88031;EQDQ01+107513APOSLPQ02 107513APOSLP
0228339900999992000012206004+44500+034170FM-12+007299999V0203001N005010075019N0110001N1-00291-00801999999ADDAA112015091AJ100029199999999AY191061AY281061GF107991051091008001001021IA1239KA1120N-00291MD1210491+9999MW1021REMSYN088AAXX  22061 33990 11561 73005 11029 21080 40001 52049 60152 70298 85902 333 21029 47002;EQDQ01+100013APOSLP
0157339900999992000012209004+44500+034170FM-12+007299999V0203001N006012200019N0250001N1-00331-01161100742ADDGF102991011021012501041001MD1210722+9999REMSYN070AAXX  22091 33990 42675 23006 11033 21116 40074 52072 81240 333 91119;EQDQ01+100743APOSLPQ02+000722APC3  
0133339900999992000012212004+44500+034170FM-12+007299999V0203101N006012200019N0300001N1-00411-01411101061ADDGF102991011021012501041001MA1999999100141MD1210321+9999REMSYN066AAXX  22121 33990 42680 23106 11041 21141 30014 40106 52032 81240;
0112339900999992000012215004+44500+034170FM-12+007299999V0203201N005012200019N0300001N1-00481-01361101331ADDGF101991011051012501001001MD1210271+9999REMSYN060AAXX  22151 33990 42680 13205 11048 21136 40133 52027 81500;
0199339900999992000012218004+44500+034170FM-12+007299999V0203401N003019999999N0090001N1-00431-01031101661ADDAA112000791AY181061AY211061GF106991999091012501999999KA1999M-00271MD1210321+9999MW1851REMSYN082AAXX  22181 33990 11659 63403 11043 21103 40166 52032 69902 78581 889// 333 11027;EQDQ01+000082SCOTLC
0140339900999992000012221004+44500+034170FM-12+007299999V0203201N001010075019N0060001N1-00381-00671101731ADDAY181031AY221031GF108991081091008001999999MD1010071+9999MW1851REMSYN066AAXX  22211 33990 41556 83201 11038 21067 40173 50007 78582 889//;
0161339900999992000012300004+44500+034170FM-12+007299999V0203001N002010075019N0100001N1-00391-00651101871ADDAY181061AY221061GF106991061091008001001001MA1999999100941MD1310141+9999MW1261REMSYN072AAXX  23001 33990 41560 63002 11039 21065 30094 40187 53014 72682 86900;
0138339900999992000012303004+44500+034170FM-12+007299999V0203001N001010360019N0180001N1-00331-00931101901ADDGF106991021051012501041001MD1110031+9999REMSYN086AAXX  23031 33990 42668 63001 11033 21093 40190 51003 82540 333 55060 555 21047 7002/;
0181339900999992000012306004+44500+034170FM-12+007299999V0202901N003012200019N0250001N1-00271-01121101941ADDAA112002091AJ100059199999999GF102991021001999999041001IA1279KA1120N-00471MD1210061+9999REMSYN082AAXX  23061 33990 12975 22903 11027 21112 40194 52006 60022 82040 333 21047 43005;
0112339900999992000012309004+44500+034170FM-12+007299999V0202701N004012200019N0300001N1+00161-01151101971ADDGF103991021021012501001011MD1210031+9999REMSYN060AAXX  23091 33990 42680 32704 10016 21115 40197 52003 82201;
0133339900999992000012312004+44500+034170FM-12+007299999V0202301N002012200019N0300001N1+00221-01091101951ADDGF102991021021012501001001MA1999999101061MD1410001+9999REMSYN066AAXX  23121 33990 42680 22302 10022 21109 30106 40195 54000 82200;
0112339900999992000012315004+44500+034170FM-12+007299999V0202901N001012200019N0300001N1-00131-00891102021ADDGF104991021041012501041011MD1310051+9999REMSYN060AAXX  23151 33990 42680 42901 11013 21089 40202 53005 82441;
0165339900999992000012318004+44500+034170FM-12+007299999V0203201N001010360019N0280001N1-00071-00841101981ADDAA199000091GF106991021041012501031001KA1999M+00261MD1810041+9999REMSYN070AAXX  23181 33990 32678 63201 11007 21084 40198 58004 82430 333 10026;EQDQ01  00002PRCP99
0138339900999992000012321004+44500+034170FM-12+007299999V0201801N001010108019N0250001N1+00021-00651101941ADDGA1081+010809059GF108991081051012501999999MD1710041+9999REMSYN070AAXX  23211 33990 42675 81801 10002 21065 40194 57004 885// 333 88636;
0161339900999992000012400004+44500+034170FM-12+007299999V0200201N003010075019N0170001N1+00131-00291101751ADDAY181061AY221061GF108991081091008001999999MA1999999100841MD1710191+9999MW1851REMSYN072AAXX  24001 33990 41567 80203 10013 21029 30084 40175 57019 78582 889//;
0166339900999992000012403004+44500+034170FM-12+007299999V0203001N002010075019N0046001N1+00071+00011101371ADDAY181031AY281031GF108991081091008001999999MD1710371+9999MW1851REMSYN092AAXX  24031 33990 41546 83002 10007 20001 40137 57037 78588 889// 333 55066 555 21009 7002/;
0209339900999992000012406004+44500+034170FM-12+007299999V0202901N002010075019N0070001N1+00071+00041101181ADDAA112007991AJ100079199999999AY181061AY281061GF108991081091008001999999IA1279KA1120N-00091MD1710191+9999MW1801REMSYN088AAXX  24061 33990 11557 82902 10007 20004 40118 57019 60082 78088 889// 333 21009 43007;
0140339900999992000012409004+44500+034170FM-12+007299999V0202901N002010075019N0110001N1+00231+00151100841ADDAY181031AY281031GF108991081091008001999999MD1710331+9999MW1801REMSYN066AAXX  24091 33990 41561 82902 10023 20015 40084 57033 78088 889//;
0161339900999992000012412004+44500+034170FM-12+007299999V0203201N002010075019N0090001N1+00391+00321100531ADDAY181061AY221061GF108991081091008001999999MA1999999099641MD1710311+9999MW1811REMSYN072AAXX  24121 33990 41559 83202 10039 20032 39964 40053 57031 78182 889//;
0140339900999992000012415004+44500+034170FM-12+007299999V0202701N002010075019N0070001N1+00411+00341100341ADDAY181031AY281031GF108991081091008001999999MD1710181+9999MW1811REMSYN066AAXX  24151 33990 41557 82702 10041 20034 40034 57018 78188 889//;
0180339900999992000012418004+44500+034170FM-12+007299999V0202901N001010075019N0080001N1+00541+00471100181ADDAA112036191AY181061AY281061GF108991081091008001999999KA1999M+00581MD1710161+9999MW1811REMSYN082AAXX  24181 33990 11558 82901 10054 20047 40018 57016 60362 78188 889// 333 10058;
0140339900999992000012421004+44500+034170FM-12+007299999V0202301N002010360019N0180001N1+00411+00231100061ADDAY181031AY221031GF107991021091012501031001MD1710121+9999MW1021REMSYN066AAXX  24211 33990 41668 72302 10041 20023 40006 57012 70282 82930;
0133339900999992000012500004+44500+034170FM-12+007299999V0202101N003019999999N0200001N1+00531-00291100101ADDGF107991001001999999001061MA1999999099221MD1310041+9999REMSYN066AAXX  25001 33990 41970 72103 10053 21029 39922 40010 53004 80006;
0144339900999992000012503004+44500+034170FM-12+007299999V0202801N002019999999N0200001N1+00421-00401100241ADDGF107991001001999999001061MD1310141+9999REMSYN092AAXX  25031 33990 42970 72802 10042 21040 40024 53014 80006 333 55000 555 20036 7043/ 88043;
0181339900999992000012506004+44500+034170FM-12+007299999V0203201N002010900019N0200001N1+00331-00531100621ADDAA112000891AJ100039199999999GF107991011021012501001021IA1309KA1120N+00301MD1210371+9999REMSYN082AAXX  25061 33990 12670 73202 10033 21053 40062 52037 69982 81202 333 20030 42003;
0112339900999992000012509004+44500+034170FM-12+007299999V0200101N004010360019N0250001N1+00511-00971100891ADDGF106991021021012501041091MD1110271+9999REMSYN060AAXX  25091 33990 42675 60104 10051 21097 40089 51027 82249;
0133339900999992000012512004+44500+034170FM-12+007299999V0203401N003010900019N0230001N1+00221-00981101141ADDGF105991021021012501041061MA1999999100251MD1210251+9999REMSYN066AAXX  25121 33990 42673 53403 10022 21098 30025 40114 52025 82246;
0112339900999992000012515004+44500+034170FM-12+007299999V0202701N003010120019N0220001N1-00051-01251101451ADDGF108991051021012501001011MD1210291+9999REMSYN060AAXX  25151 33990 42672 82703 11005 21125 40145 52029 85201;
0165339900999992000012518004+44500+034170FM-12+007299999V0202801N003010120019N0270001N1-00111-01571101691ADDAA199000091GF106991061051012501001001KA1999M+00581MD1110241+9999REMSYN070AAXX  25181 33990 32677 62803 11011 21157 40169 51024 86500 333 10058;EQDQ01  00002PRCP99
0140339900999992000012521004+44500+034170FM-12+007299999V0203201N003010075019N0015001N1-00471-00601101831ADDAY181031AY221031GF108991081091008001999999MD1210121+9999MW1861REMSYN066AAXX  25211 33990 41515 83203 11047 21060 40183 52012 78682 889//;
0161339900999992000012600004+44500+034170FM-12+007299999V0203001N003010075019N0035001N1-00391-00761101891ADDAY181061AY221061GF108991081091008001999999MA1999999100961MD1110061+9999MW1851REMSYN072AAXX  26001 33990 41535 83003 11039 21076 30096 40189 51006 78582 889//;
0166339900999992000012603004+44500+034170FM-12+007299999V0202801N002010075019N0200001N1-00451-01491101941ADDAY181031AY221031GF106991051021008001011001MD1110051+9999MW1021REMSYN092AAXX  26031 33990 41570 62802 11045 21149 40194 51005 70282 85210 333 55043 555 21048 7004/;
0209339900999992000012606004+44500+034170FM-12+007299999V0202701N002012200019N0240001N1-00541-01741102041ADDAA112004191AJ100079199999999AY181061AY211061GF103991031081012501001001IA1239KA1120N-00541MD1210101+9999MW1021REMSYN088AAXX  26061 33990 11674 32702 11054 21174 40204 52010 60042 70281 83800 333 21054 47007;
0112339900999992000012609004+44500+034170FM-12+007299999V0202101N002012200019N0270001N1-00031-01401102031ADDGF101991011051012501001001MD1110011+9999REMSYN060AAXX  26091 33990 42677 12102 11003 21140 40203 51001 81500;
0133339900999992000012612004+44500+034170FM-12+007299999V0200301N002012200019N0270001N1-00091-01461101951ADDGF102991021051012501001001MA1999999101041MD1810081+9999REMSYN066AAXX  26121 33990 42677 20302 11009 21146 30104 40195 58008 82500;
0112339900999992000012615004+44500+034170FM-12+007299999V0203101N002012200019N0250001N1-00271-01271101991ADDGF103991031051012501001001MD1310021+9999REMSYN060AAXX  26151 33990 42675 33102 11027 21127 40199 53002 83500;
0137339900999992000012618004+44500+034170FM-12+007299999V0202501N002019999999N0240001N1-00301+99999999999ADDAA199000091GF106991999999012501999999REMSYN069AAXX  26181 33990 32674 62502 11030 2112 40202 51003 86500 333 11001;EQDQ01  00002PRCP99
0112339900999992000012621004+44500+034170FM-12+007299999V0202901N003010120019N0230001N1-00181-00971101941ADDGF107991061051012501031001MD1810061+9999REMSYN060AAXX  26211 33990 42673 72903 11018 21097 40194 58006 86530;
0161339900999992000012700004+44500+034170FM-12+007299999V0202501N001010075019N0080001N1-00261-00831101861ADDAY181061AY221061GF107991071091008001001001MA1999999100951MD1710081+9999MW1851REMSYN072AAXX  27001 33990 41558 72501 11026 21083 30095 40186 57008 78582 87900;
0166339900999992000012703004+44500+034170FM-12+007299999V0203001N001010360019N0200001N1-00351-00671101901ADDAY181031AY221031GF106991031031012501041011MD1310021+9999MW1021REMSYN092AAXX  27031 33990 41670 63001 11035 21067 40190 53002 70282 83341 333 55067 555 21035 7994/;
0209339900999992000012706004+44500+034170FM-12+007299999V0202901N001010360019N0230001N1-00211-00671101911ADDAA112000591AJ100059199999999AY181061AY221061GF107991031021012501031001IA1239KA1120N-00351MD1110031+9999MW1021REMSYN088AAXX  27061 33990 11673 72901 11021 21067 40191 51003 69942 70282 83230 333 21035 47005;
0112339900999992000012709004+44500+034170FM-12+007299999V0200101N001010075019N0250001N1+00111-00521101911ADDGF105991051051008001001001MD1410001+9999REMSYN060AAXX  27091 33990 42575 50101 10011 21052 40191 54000 85500;
0133339900999992000012712004+44500+034170FM-12+007299999V0202601N002010075019N0230001N1+00291-00551101821ADDGF106991061091008001001001MA1999999100931MD1710071+9999REMSYN066AAXX  27121 33990 42573 62602 10029 21055 30093 40182 57007 86900;
0140339900999992000012715004+44500+034170FM-12+007299999V0203101N002010042019N0160001N1+00111-00241101881ADDAY181031AY221031GF108991081091004501999999MD1110041+9999MW1851REMSYN066AAXX  27151 33990 41466 83102 10011 21024 40188 51004 78582 889//;
0180339900999992000012718004+44500+034170FM-12+007299999V0202101N002010075019N0180001N1+00271-00351101901ADDAA112000191AY181061AY221061GF108991081091008001999999KA1999M+00371MD1310041+9999MW1871REMSYN082AAXX  27181 33990 11568 82102 10027 21035 40190 53004 69922 78782 889// 333 10037;
0140339900999992000012721004+44500+034170FM-12+007299999V0202201N003010075019N0160001N1+00241+00001101851ADDAY181031AY221031GF108991081091008001999999MD1610051+9999MW1801REMSYN066AAXX  27211 33990 41566 82203 10024 21000 40185 56005 78082 889//;
0161339900999992000012800004+44500+034170FM-12+007299999V0200201N002010075019N0170001N1+00271-00091101891ADDAY181061AY221061GF108991081091008001999999MA1999999101001MD1310041+9999MW1801REMSYN072AAXX  28001 33990 41567 80202 10027 21009 30100 40189 53004 78082 889//;
0166339900999992000012803004+44500+034170FM-12+007299999V0201901N001010075019N0250001N1+00341-00261101921ADDAY181031AY221031GF108991081091008001999999MD1110031+9999MW1021REMSYN092AAXX  28031 33990 41575 81901 10034 21026 40192 51003 70282 889// 333 55017 555 20019 7001/;
0209339900999992000012806004+44500+034170FM-12+007299999V0202201N001010075019N0260001N1+00361-00201102031ADDAA112001091AJ100009199999999AY181061AY221061GF108991081091008001999999IA1309KA1120N+00191MD1310111+9999MW1021REMSYN088AAXX  28061 33990 11576 82201 10036 21020 40203 53011 60012 70282 889// 333 20019 42997;
0112339900999992000012809004+44500+034170FM-12+007299999V0202501N001010075019N0210001N1+00491-00171102051ADDGF108991081091008001999999MD1210021+9999REMSYN060AAXX  28091 33990 42571 82501 10049 21017 40205 52002 889//;
0133339900999992000012812004+44500+034170FM-12+007299999V0202101N002010075019N0220001N1+00451-00121101971ADDGF108991081091008001999999MA1999999101081MD1810081+9999REMSYN066AAXX  28121 33990 42572 82102 10045 21012 30108 40197 58008 889//;
0112339900999992000012815004+44500+034170FM-12+007299999V0202301N001010075019N0200001N1+00431-00281102021ADDGF108991081051008001999999MD1310051+9999REMSYN060AAXX  28151 33990 42570 82301 10043 21028 40202 53005 885//;
0165339900999992000012818004+44500+034170FM-12+007299999V0202501N002010075019N0200001N1+00431-00351102111ADDAA199000091GF108991081051008001999999KA1999M+00491MD1210091+9999REMSYN070AAXX  28181 33990 32570 82502 10043 21035 40211 52009 885// 333 10049;EQDQ01  00002PRCP99
0112339900999992000012821004+44500+034170FM-12+007299999V0201801N001010075019N0200001N1+00351-00281102111ADDGF108991081051008001999999MD1410001+9999REMSYN060AAXX  28211 33990 42570 81801 10035 21028 40211 54000 885//;
0187339900999992000012900004+44500+034170FM-12+007299999V0202101N002010084019N0180001N1+00391+00111102111ADDAY181061AY221061GA1081+008409059GF108991081091008001999999MA1999999101221MD1410001+9999MW1801REMSYN082AAXX  29001 33990 41568 82102 10039 20011 30122 40211 54000 78082 889// 333 88628;
0196339900999992000012903004+44500+034170FM-12+007299999V0202401N002010102019N0170001N1+00441+00111102041ADDAY181031AY221031GA1081+010209069GF108991081051012501999999GJ100009MD1810071+9999MW1021REMSYN098AAXX  29031 33990 41667 82402 10044 20011 40204 58007 70282 885// 333 55000 88634 555 20035 7991/;
0228339900999992000012906004+44500+034170FM-12+007299999V02099999999992200019N0180001N1+00481+00151102091ADDAA112000191AJ100009199999999AY181061AY221061GF102991999091008001999999IA1259KA1120N+00351MD1310051+9999MW1021REMSYN088AAXX  29061 33990 11568 2102/ 10048 20015 40209 53005 69912 70282 889// 333 20035 41998;EQDQ01+000082SCOTLC
0140339900999992000012909004+44500+034170FM-12+007299999V0202301N003010075019N0140001N1+00541+00221102101ADDAY121031AY221031GF108991061091008001021999MD1210011+9999MW1251REMSYN066AAXX  29091 33990 41564 82303 10054 20022 40210 52001 72522 8692/;
0161339900999992000012912004+44500+034170FM-12+007299999V0201801N003010075019N0150001N1+00641+00281101921ADDAY181061AY221061GF107991071091008001001001MA1999999101031MD1810181+9999MW1021REMSYN072AAXX  29121 33990 41565 71803 10064 20028 30103 40192 58018 70282 87900;
0112339900999992000012915004+44500+034170FM-12+007299999V0202101N002012200019N0180001N1+00451-00091101921ADDGF103991031041008001001001MD1410001+9999REMSYN060AAXX  29151 33990 42568 32102 10045 21009 40192 54000 83400;
0152339900999992000012918004+44500+034170FM-12+007299999V0202301N003012200019N0200001N1+00331-00181101891ADDAA112000791GF102991021001999999031001KA1999M+00751MD1810031+9999REMSYN076AAXX  29181 33990 12970 22303 10033 21018 40189 58003 69902 82030 333 10075;
0122339900999992000012921004+44500+034170FM-12+007299999V0203401N003012200019N0230001N1+00311-00371101881ADDGA1001+999999999GF100991001001999999001001MD1610011+9999REMSYN054AAXX  29211 33990 42973 03403 10031 21037 40188 56001;
0143339900999992000013000004+44500+034170FM-12+007299999V0202701N001012200019N0230001N1+00231-00301101841ADDGA1001+999999999GF100991001001999999001001MA1999999100951MD1810041+9999REMSYN060AAXX  30001 33990 42973 02701 10023 21030 30095 40184 58004;
0138339900999992000013003004+44500+034170FM-12+007299999V0202301N002012200019N0240001N1+00211-00361101841ADDGF102991021051012501001001MD1410001+9999REMSYN086AAXX  30031 33990 42674 22302 10021 21036 40184 54000 82500 333 55006 555 20017 7000/;
0194339900999992000013006004+44500+034170FM-12+007299999V0201601N001010120019N0260001N1+00431-00081101841ADDAA199000091AJ100009199999999GF106991061081008001001001IA1259KA1120N+00171MD1410001+9999REMSYN076AAXX  30061 33990 32576 61601 10043 21008 40184 54000 86800 333 20017 41998;EQDQ01  00002PRCP99
0112339900999992000013009004+44500+034170FM-12+007299999V0202201N003010075019N0200001N1+00721+00291101811ADDGF107991061031008001001021MD1810021+9999REMSYN060AAXX  30091 33990 42570 72203 10072 20029 40181 58002 86302;
0159339900999992000013012004+44500+034170FM-12+007299999V0202101N001010069019N0210001N1+00691+00281101591ADDGA1061+006909029GF108991081081008001999999MA1999999100711MD1710221+9999REMSYN076AAXX  30121 33990 42571 82101 10069 20028 30071 40159 57022 888// 333 86823;
0112339900999992000013015004+44500+034170FM-12+007299999V0202401N002010120019N0210001N1+00721+00401101431ADDGF107991071081008001001001MD1710161+9999REMSYN060AAXX  30151 33990 42571 72402 10072 20040 40143 57016 87800;
0165339900999992000013018004+44500+034170FM-12+007299999V0202201N003010075019N0200001N1+00751+00431101381ADDAA199000091GF106991061051008001001001KA1999M+00781MD1610051+9999REMSYN070AAXX  30181 33990 32570 62203 10075 20043 40138 56005 86500 333 10078;EQDQ01  00002PRCP99
0140339900999992000013021004+44500+034170FM-12+007299999V0202401N003010075019N0110001N1+00761+00411101271ADDAY181031AY221031GF108991081091008001999999MD1810101+9999MW1801REMSYN066AAXX  30211 33990 41561 82403 10076 20041 40127 58010 78082 889//;
0161339900999992000013100004+44500+034170FM-12+007299999V0203401N002010075019N0080001N1+00671+00581101161ADDAY181061AY221061GF108991081091008001999999MA1999999100291MD1710111+9999MW1811REMSYN072AAXX  31001 33990 41558 83402 10067 20058 30029 40116 57011 78182 889//;
0166339900999992000013103004+44500+034170FM-12+007299999V0203301N002010075019N0160001N1+00741+00361101091ADDAY181031AY221031GF106991061031008001001001MD1610071+9999MW1021REMSYN092AAXX  31031 33990 41566 63302 10074 20036 40109 56007 70282 86300 333 55020 555 20057 7005/;
0180339900999992000013106004+44500+034170FM-12+007299999V0203401N003010075019N0180001N1+00631+00071101341ADDAA112005191AY181061AY221061GF108991081091008001999999KA1999N+00571MD1310231+9999MW1021REMSYN082AAXX  31061 33990 11568 83403 10063 20007 40134 53023 60052 70282 889// 333 20057;
0112339900999992000013109004+44500+034170FM-12+007299999V0202201N003012200019N0250001N1+00811-00301101581ADDGF103991021011012501041001MD1110251+9999REMSYN060AAXX  31091 33990 42675 32203 10081 21030 40158 51025 82140;
0107339900999992000013112004+44500+034170FM-12+007299999V0200601N002012200019N0280001N1+00801-00471999999ADDGF102991011011012501041001MA1999999100771REMSYN054AAXX  31121 33990 42678 20602 10080 21047 30077 81140;
0122339900999992000013115004+44500+034170FM-12+007299999V0202101N002012200019N0300001N1+00531-00431101791ADDGA1001+999999999GF100991001001999999001001MD1110131+9999REMSYN054AAXX  31151 33990 42980 02102 10053 21043 40179 51013;
0175339900999992000013118004+44500+034170FM-12+007299999V0202101N002012200019N0350001N1+00431-00431101841ADDAA199000091GA1001+999999999GF100991001001999999001001KA1999M+00961MD1110051+9999REMSYN064AAXX  31181 33990 32981 02102 10043 21043 40184 51005 333 10096;EQDQ01  00002PRCP99
0112339900999992000013121004+44500+034170FM-12+007299999V0202101N003010360019N0290001N1+00571+00111101631ADDGF108991021061008001051999MD1810211+9999REMSYN060AAXX  31211 33990 42579 82103 10057 20011 40163 58021 8265/;
0166339900999992000020103004+44500+034170FM-12+007299999V0203201N002010120019N0270001N1+00771+00211101271ADDAY181031AY221031GF106991061051012501001001MD1810091+9999MW1021REMSYN092AAXX  01031 33990 41677 63202 10077 20021 40127 58009 70282 86500 333 55055 555 20042 7001/;
0186339900999992000020106004+44500+034170FM-12+007299999V0203101N006012200019N0240001N1+00811-00071101341ADDAA112001091AY181061AY221061GF103991031051008001001001KA1120N+00421MD1210071+9999MW1021REMSYN088AAXX  01061 33990 11574 33106 10081 21007 40134 52007 60012 70282 83500 333 20042 91119;
0112339900999992000020109004+44500+034170FM-12+007299999V0203301N007010075019N0240001N1+00581-00291101591ADDGF106991061051008001001001MD1210231+9999REMSYN060AAXX  01091 33990 42574 63307 10058 21029 40159 52023 86500;
0143339900999992000020112004+44500+034170FM-12+007299999V0203601N006010075019N0250001N1+00451-00391101831ADDGF106991051051008001001021MA1999999100541MD1210241+9999REMSYN076AAXX  01121 33990 42575 63606 10045 21039 30054 40183 52024 85502 333 91118;
0112339900999992000020115004+44500+034170FM-12+007299999V0203601N002012200019N0240001N1+00311-00481102121ADDGF104991041051012501001001MD1210291+9999REMSYN060AAXX  01151 33990 42674 43602 10031 21048 40212 52029 84500;
0165339900999992000020118004+44500+034170FM-12+007299999V0203201N004012200019N0240001N1+00281-00611102331ADDAA199000091GF102991021051012501001001KA1999M+00811MD1210211+9999REMSYN070AAXX  01181 33990 32674 23204 10028 21061 40233 52021 82500 333 10081;EQDQ01  00002PRCP99
0122339900999992000020121004+44500+034170FM-12+007299999V0202701N001012200019N0240001N1+00131-00791102541ADDGA1001+999999999GF100991001001999999001001MD1210181+9999REMSYN054AAXX  01211 33990 42974 02701 10013 21079 40254 52018;
0143339900999992000020200004+44500+034170FM-12+007299999V0203001N001012200019N0260001N1+00211-01001102581ADDGA1001+999999999GF100991001001999999001001MA1999999101661MD1110041+9999REMSYN060AAXX  02001 33990 42976 03001 10021 21100 30166 40258 51004;
0138339900999992000020203004+44500+034170FM-12+007299999V0202701N001010075019N0230001N1+00231-00641102551ADDGF108991081051008001999999MD1710011+9999REMSYN086AAXX  02031 33990 42573 82701 10023 21064 40255 57001 885// 333 55000 555 20020 7000/;
0165339900999992000020206004+44500+034170FM-12+007299999V0203101N001010360019N0250001N1+00271-00421102541ADDAA199000091GF107991021051008001071001KA1999N+00071MD1710021+9999REMSYN070AAXX  02061 33990 32575 73101 10027 21042 40254 57002 82570 333 20007;EQDQ01  00002PRCP99
0112339900999992000020209004+44500+034170FM-12+007299999V0203601N002010075019N0150001N1+00581+00131102441ADDGF107991061051008001081001MD1710091+9999REMSYN060AAXX  02091 33990 42565 73602 10058 20013 40244 57009 86580;
0133339900999992000020212004+44500+034170FM-12+007299999V0202101N003010075019N0160001N1+00761+00231102141ADDGF107991051051008001031001MA1999999101261MD1710281+9999REMSYN066AAXX  02121 33990 42566 72103 10076 20023 30126 40214 57028 85530;
0112339900999992000020215004+44500+034170FM-12+007299999V0202201N002012200019N0140001N1+00641+00331102001ADDGF102991021051008001001001MD1710151+9999REMSYN060AAXX  02151 33990 42564 22202 10064 20033 40200 57015 82500;
0175339900999992000020218004+44500+034170FM-12+007299999V0203401N002012200019N0120001N1+00511+00241101871ADDAA199000091GA1001+999999999GF100991001001999999001001KA1999M+00981MD1710131+9999REMSYN064AAXX  02181 33990 32962 03402 10051 20024 40187 57013 333 10098;EQDQ01  00002PRCP99
0122339900999992000020221004+44500+034170FM-12+007299999V0202101N001012200019N0170001N1+00651+00121101741ADDGA1001+999999999GF100991001001999999001001MD1710131+9999REMSYN054AAXX  02211 33990 42967 02101 10065 20012 40174 57013;
0143339900999992000020300004+44500+034170FM-12+007299999V0203201N002012200019N0160001N1+00541+00161101561ADDGA1001+999999999GF100991001001999999001001MA1999999100671MD1710181+9999REMSYN060AAXX  03001 33990 42966 03202 10054 20016 30067 40156 57018;
0156339900999992000020303004+44500+034170FM-12+007299999V0203101N002012200019N0140001N1+00581+00241101351ADDGA1001+999999999GF100991001001999999001001GJ101509MD1710211+9999REMSYN080AAXX  03031 33990 42964 03102 10058 20024 40135 57021 333 55025 555 20047 7000/;
0165339900999992000020306004+44500+034170FM-12+007299999V0203401N001019999999N0120001N1+00641+00381101271ADDAA199000091GF107991061001999999031021KA1999N+00471MD1710081+9999REMSYN070AAXX  03061 33990 32962 73401 10064 20038 40127 57008 86032 333 20047;EQDQ01  00002PRCP99
0112339900999992000020309004+44500+034170FM-12+007299999V0200501N002019999999N0150001N1+01041+00641101071ADDGF106991061001999999041001MD1710181+9999REMSYN060AAXX  03091 33990 42965 60502 10104 20064 40107 57018 86040;
0133339900999992000020312004+44500+034170FM-12+007299999V0202501N004019999999N0210001N1+01711+00111100911ADDGF107991061001999999041011MA1999999100071MD1610131+9999REMSYN066AAXX  03121 33990 42971 72504 10171 20011 30007 40091 56013 86041;
0112339900999992000020315004+44500+034170FM-12+007299999V0203001N002010360019N0180001N1+01131+00251101111ADDGF108991011051012501071999MD1310171+9999REMSYN060AAXX  03151 33990 42668 83002 10113 20025 40111 53017 8157/;
0165339900999992000020318004+44500+034170FM-12+007299999V0203401N004010075019N0180001N1+01031+00321101361ADDAA199000091GF108991051051008001071999KA1999M+01711MD1210251+9999REMSYN070AAXX  03181 33990 32568 83404 10103 20032 40136 52025 8557/ 333 10171;EQDQ01  00002PRCP99
0112339900999992000020321004+44500+034170FM-12+007299999V0203301N004010075019N0160001N1+00731+00171101601ADDGF108991061031008001071999MD1210231+9999REMSYN060AAXX  03211 33990 42566 83304 10073 20017 40160 52023 8637/;
0133339900999992000020400004+44500+034170FM-12+007299999V0203401N002010120019N0180001N1+00641-00011101661ADDGF108991061081008001071999MA1999999100771MD1110051+9999REMSYN066AAXX  04001 33990 42568 83402 10064 21001 30077 40166 51005 8687/;
0138339900999992000020403004+44500+034170FM-12+007299999V0203401N005019999999N0200001N1+00541-00241101891ADDGF108991081001999999071999MD1310231+9999REMSYN086AAXX  04031 33990 42970 83405 10054 21024 40189 53023 8807/ 333 55037 555 20054 7000/;
0165339900999992000020406004+44500+034170FM-12+007299999V0203401N004010360019N0220001N1+00471-00231102081ADDAA199000091GF108991021021008001071999KA1999N+00471MD1210191+9999REMSYN070AAXX  04061 33990 32572 83404 10047 21023 40208 52019 8227/ 333 20047;EQDQ01  00002PRCP99
0092339900999992000020409004+44500+034170FM-12+007299999V02099999999990360019N0260001N1+00581-00361102321ADDGF108991021061008001021021REMSYN054AAXX  04091 33990 42576 89001 10058 21036 40232 82622;
0133339900999992000020412004+44500+034170FM-12+007299999V0200101N003012200019N0270001N1+00561-00541102421ADDGF106991031051008001001011MA1999999101521MD1310091+9999REMSYN066AAXX  04121 33990 42577 60103 10056 21054 30152 40242 53009 83501;
0112339900999992000020415004+44500+034170FM-12+007299999V0200901N002010075019N0280001N1+00421-00301102601ADDGF105991051051008001001001MD1310181+9999REMSYN060AAXX  04151 33990 42578 50902 10042 21030 40260 53018 85500;
0165339900999992000020418004+44500+034170FM-12+007299999V0203201N002012200019N0300001N1+00121-00591102861ADDAA199000091GF102991021041012501001001KA1999M+00681MD1110241+9999REMSYN070AAXX  04181 33990 32680 23202 10012 21059 40286 51024 82400 333 10068;EQDQ01  00002PRCP99
0112339900999992000020421004+44500+034170FM-12+007299999V0203001N002012200019N0350001N1+00101-01211102971ADDGF103991031041012501001001MD1310111+9999REMSYN060AAXX  04211 33990 42681 33002 10010 21121 40297 53011 83400;
0143339900999992000020500004+44500+034170FM-12+007299999V0203201N001012200019N0400001N1-00011-01341103031ADDGA1001+999999999GF100991001001999999001001MA1999999102111MD1210061+9999REMSYN060AAXX  05001 33990 42982 03201 11001 21134 30211 40303 52006;
0156339900999992000020503004+44500+034170FM-12+007299999V0202701N002012200019N0400001N1-00071-01291103011ADDGA1001+999999999GF100991001001999999001001GJ101629MD1810021+9999REMSYN080AAXX  05031 33990 42982 02702 11007 21129 40301 58002 333 55027 555 21008 7000/;
0175339900999992000020506004+44500+034170FM-12+007299999V0209999C000012200019N0400001N1+00011-01191102921ADDAA199000091GA1001+999999999GF100991001001999999001001KA1999N-00101MD1710091+9999REMSYN064AAXX  05061 33990 32982 00000 10001 21119 40292 57009 333 21010;EQDQ01  00002PRCP99
0112339900999992000020509004+44500+034170FM-12+007299999V0202401N003012200019N0400001N1+00541-00541102591ADDGF103991031051012501001001MD1710311+9999REMSYN060AAXX  05091 33990 42682 32403 10054 21054 40259 57031 83500;
0133339900999992000020512004+44500+034170FM-12+007299999V0202701N003010900019N0350001N1+00511-00431102121ADDGF107991021051012501001021MA1999999101231MD1710461+9999REMSYN066AAXX  05121 33990 42681 72703 10051 21043 30123 40212 57046 82502;
0112339900999992000020515004+44500+034170FM-12+007299999V0202101N002010120019N0300001N1+00331-00381101751ADDGF107991051051012501041021MD1710371+9999REMSYN060AAXX  05151 33990 42680 72102 10033 21038 40175 57037 85542;
0154339900999992000020518004+44500+034170FM-12+007299999V0202201N002019999999N0180001N1+00261+00131101491ADDAA112000191AY181061AY221061KA1999M+00591MD1710261+9999MW1801REMSYN082AAXX  05181 33990 11568 /2202 10026 20013 40149 57026 69912 78082 889// 333 10059;
0140339900999992000020521004+44500+034170FM-12+007299999V0203001N001012200019N0200001N1+00391+00111101321ADDAY181031AY211031GF104991041091008001001001MD1710171+9999MW1251REMSYN066AAXX  05211 33990 41570 43001 10039 20011 40132 57017 72581 84900;
0161339900999992000020600004+44500+034170FM-12+007299999V0203601N001010075019N0200001N1+00451+00061101421ADDAY181061AY211061GF107991071091008001001001MA1999999100531MD1310101+9999MW1801REMSYN072AAXX  06001 33990 41570 73601 10045 20006 30053 40142 53010 78081 87900;
0166339900999992000020603004+44500+034170FM-12+007299999V0203601N004012200019N0220001N1+00371-00441101591ADDAY181031AY211031GF102991021051012501001001MD1210171+9999MW1021REMSYN092AAXX  06031 33990 41672 23604 10037 21044 40159 52017 70281 82500 333 55071 555 20026 7996/;
0112339900999992000020609004+44500+034170FM-12+007299999V0203601N005012200019N0300001N1+00601-00451101921ADDGF103991031021008001001001MD1210081+9999REMSYN060AAXX  06091 33990 42580 33605 10060 21045 40192 52008 83200;
0133339900999992000020612004+44500+034170FM-12+007299999V0203601N008012200019N0300001N1+00561-00591102031ADDGF103991031021008001001001MA1999999101141MD1210111+9999REMSYN066AAXX  06121 33990 42580 33608 10056 21059 30114 40203 52011 83200;
0112339900999992000020615004+44500+034170FM-12+007299999V0203401N003012200019N0300001N1+00411-00711102211ADDGF107991031041008001001011MD1210181+9999REMSYN060AAXX  06151 33990 42580 73403 10041 21071 40221 52018 83401;
0165339900999992000020618004+44500+034170FM-12+007299999V0203201N002012200019N0280001N1+00231-00821102351ADDAA199000091GF102991021051008001001001KA1999M+00671MD1210141+9999REMSYN070AAXX  06181 33990 32578 23202 10023 21082 40235 52014 82500 333 10067;EQDQ01  00002PRCP99
0122339900999992000020621004+44500+034170FM-12+007299999V0203201N002012200019N0280001N1+00231-00821102371ADDGA1001+999999999GF100991001001999999001001MD1110021+9999REMSYN054AAXX  06211 33990 42978 03202 10023 21082 40237 51002;
0143339900999992000020700004+44500+034170FM-12+007299999V0202901N002012200019N0300001N1+00211-01001102441ADDGA1001+999999999GF100991001001999999001001MA1999999101521MD1310041+9999REMSYN060AAXX  07001 33990 42980 02902 10021 21100 30152 40244 53004;
0156339900999992000020703004+44500+034170FM-12+007299999V0202901N001012200019N0300001N1+00191-00621102431ADDGA1001+999999999GF100991001001999999001001GJ104809MD1810011+9999REMSYN080AAXX  07031 33990 42980 02901 10019 21062 40243 58001 333 55080 555 20016 7000/;
0165339900999992000020706004+44500+034170FM-12+007299999V0203401N001012200019N0250001N1+00311-00171102501ADDAA199000091GF103991021051008001001021KA1999N+00151MD1310091+9999REMSYN070AAXX  07061 33990 32575 33401 10031 21017 40250 53009 82502 333 20015;EQDQ01  00002PRCP99
0112339900999992000020709004+44500+034170FM-12+007299999V0201301N002012200019N0300001N1+00771+00041102491ADDGF102991021051008001001001MD1010001+9999REMSYN060AAXX  07091 33990 42580 21302 10077 20004 40249 50000 82500;
0112339900999992000020715004+44500+034170FM-12+007299999V0203601N001010075019N0180001N1+00641+00141102381ADDGF107991071051008001001001MD1410001+9999REMSYN060AAXX  07151 33990 42568 73601 10064 20014 40238 54000 87500;
0175339900999992000020718004+44500+034170FM-12+007299999V0203001N001012200019N0140001N1+00451+00141102341ADDAA199000091GA1001+999999999GF100991001001999999001001KA1999M+00771MD1810041+9999REMSYN064AAXX  07181 33990 32964 03001 10045 20014 40234 58004 333 10077;EQDQ01  00002PRCP99
0122339900999992000020721004+44500+034170FM-12+007299999V0202901N002012200019N0120001N1+00441+00291102311ADDGA1001+999999999GF100991001001999999001001MD1710031+9999REMSYN054AAXX  07211 33990 42962 02902 10044 20029 40231 57003;
0133339900999992000020800004+44500+034170FM-12+007299999V0203501N001012200019N0110001N1+00451+00331102221ADDGF102991021051008001001001MA1999999101331MD1710091+9999REMSYN066AAXX  08001 33990 42561 23501 10045 20033 30133 40222 57009 82500;
0145339900999992000020803004+44500+034170FM-12+007299999V0203501N001012200019N0110001N1+00461+00341102131ADDGF102991021051008001001001GJ104329MD1710091+9999REMSYN085AAXX  08031 33990 42561 23501 10046 20034 40213 57009 82500 333 55072 555 20043 700/;
0165339900999992000020806004+44500+034170FM-12+007299999V0203601N001012200019N0100001N1+00461+00311102171ADDAA199000091GF102991011051008001011001KA1999N+00431MD1010401+9999REMSYN070AAXX  08061 33990 32560 23601 10046 20031 40217 5004/ 81510 333 20043;EQDQ01  00002PRCP99
0112339900999992000020809004+44500+034170FM-12+007299999V0201501N001012200019N0180001N1+00991+00531102141ADDGF102991021061008001001091MD1810021+9999REMSYN060AAXX  08091 33990 42568 21501 10099 20053 40214 58002 82609;
0133339900999992000020812004+44500+034170FM-12+007299999V0201201N002010360019N0200001N1+01061+00511101961ADDGF108991011061008001031091MA1999999101081MD1810181+9999REMSYN066AAXX  08121 33990 42570 81202 10106 20051 30108 40196 58018 81639;
0112339900999992000020815004+44500+034170FM-12+007299999V0202701N002010360019N0220001N1+00841+00411101921ADDGF108991031051008001051011MD1710041+9999REMSYN060AAXX  08151 33990 42572 82702 10084 20041 40192 57004 83551;
0165339900999992000020818004+44500+034170FM-12+007299999V0201001N001019999999N0240001N1+00671+00441101931ADDAA199000091GF106991061001999999031001KA1999M+01131MD1010011+9999REMSYN070AAXX  08181 33990 32974 61001 10067 20044 40193 50001 86030 333 10113;EQDQ01  00002PRCP99
0112339900999992000020821004+44500+034170FM-12+007299999V0209999C000012200019N0230001N1+00581+00371101821ADDGF103991031001999999031001MD1810121+9999REMSYN060AAXX  08211 33990 42973 30000 10058 20037 40182 58012 83030;
0143339900999992000020900004+44500+034170FM-12+007299999V0209999C000012200019N0230001N1+00551+00331101651ADDGA1001+999999999GF100991001001999999001001MA1999999100761MD1710171+9999REMSYN060AAXX  09001 33990 42973 00000 10055 20033 30076 40165 57017;
0156339900999992000020903004+44500+034170FM-12+007299999V0203001N002012200019N0250001N1+00461+00241101511ADDGA1001+999999999GF100991001001999999001001GJ104389MD1610141+9999REMSYN080AAXX  09031 33990 42975 03002 10046 20024 40151 56014 333 55073 555 20045 7000/;
0165339900999992000020906004+44500+034170FM-12+007299999V0203301N001019999999N0190001N1+00561+00321101461ADDAA199000091GF107991001001999999001011KA1999N+00421MD1610051+9999REMSYN070AAXX  09061 33990 32969 73301 10056 20032 40146 56005 80001 333 20042;EQDQ01  00002PRCP99
0112339900999992000020909004+44500+034170FM-12+007299999V0200401N001019999999N0170001N1+01111+00461101351ADDGF107991021001999999041011MD1710091+9999REMSYN060AAXX  09091 33990 42967 70401 10111 20046 40135 57009 82041;
0133339900999992000020912004+44500+034170FM-12+007299999V0200501N002010360019N0120001N1+01481+00641101171ADDGF107991011051008001031021MA1999999100321MD1710161+9999REMSYN066AAXX  09121 33990 42562 70502 10148 20064 30032 40117 57016 81532;
0112339900999992000020915004+44500+034170FM-12+007299999V0203301N002019999999N0120001N1+00991+00591101261ADDGF107991021001999999041021MD1310071+9999REMSYN060AAXX  09151 33990 42962 73302 10099 20059 40126 53007 82042;
0165339900999992000020918004+44500+034170FM-12+007299999V0203401N001019999999N0110001N1+00841+00621101451ADDAA199000091GF108991081001999999071999KA1999M+01491MD1210181+9999REMSYN070AAXX  09181 33990 32961 83401 10084 20062 40145 52018 8807/ 333 10149;EQDQ01  00002PRCP99
0112339900999992000020921004+44500+034170FM-12+007299999V0203301N001019999999N0110001N1+00771+00581101561ADDGF108991081001999999071999MD1210111+9999REMSYN060AAXX  09211 33990 42961 83301 10077 20058 40156 52011 8807/;
0138339900999992000021003004+44500+034170FM-12+007299999V0203001N001010075019N0100001N1+00791+00641101691ADDGF106991061051008001001001MD1210051+9999REMSYN086AAXX  10031 33990 42560 63001 10079 20064 40169 52005 86500 333 55056 555 20073 7000/;
0165339900999992000021006004+44500+034170FM-12+007299999V0203301N002010360019N0100001N1+00781+00701101891ADDAA199000091GF107991021051008001031001KA1999N+00711MD1310201+9999REMSYN070AAXX  10061 33990 32560 73302 10078 20070 40189 53020 82530 333 20071;EQDQ01  00002PRCP99
0112339900999992000021009004+44500+034170FM-12+007299999V0200301N002010360019N0100001N1+01091+00711102011ADDGF106991031021012501031001MD1210121+9999REMSYN060AAXX  10091 33990 42660 60302 10109 20071 40201 52012 83230;
0133339900999992000021012004+44500+034170FM-12+007299999V0203601N001010120019N0100001N1+01131+00801102011ADDGF108991081091012501999999MA1999999101151MD1110021+9999REMSYN066AAXX  10121 33990 42660 83601 10113 20080 30115 40201 51002 889//;
0140339900999992000021015004+44500+034170FM-12+007299999V0200301N001010360019N0110001N1+00991+00781102101ADDAY181031AY221031GF107991021021012501031001MD1210071+9999MW1021REMSYN066AAXX  10151 33990 41661 70301 10099 20078 40210 52007 70282 82230;
0180339900999992000021018004+44500+034170FM-12+007299999V0200901N001010120019N0100001N1+00841+00731102241ADDAA112000191AY181061AY221061GF108991081031012501999999KA1999M+01321MD1210141+9999MW1021REMSYN082AAXX  10181 33990 11660 80901 10084 20073 40224 52014 69912 70282 883// 333 10132;
0166339900999992000021021004+44500+034170FM-12+007299999V0203401N001010030019N0100001N1+00781+00701102271ADDAY181031AY221031GA1081+003009069GF108991081061002501999999MD1210031+9999MW1021REMSYN076AAXX  10211 33990 41360 83401 10078 20070 40227 52003 70282 886// 333 88710;
0187339900999992000021100004+44500+034170FM-12+007299999V0200601N001010021019N0050001N1+00741+00671102281ADDAY181061AY221061GA1081+002109069GF108991081061002501999999MA1999999101421MD1210031+9999MW1101REMSYN082AAXX  11001 33990 41350 80601 10074 20067 30142 40228 52003 71082 886// 333 88707;
0166339900999992000021103004+44500+034170FM-12+007299999V0200901N001010021019N0045001N1+00681+00611102331ADDAY121031AY221031GF108991081061002501999999MD1210031+9999MW1101REMSYN092AAXX  11031 33990 41345 80901 10068 20061 40233 52003 71022 886// 333 55028 555 20068 7991/;
0194339900999992000021106004+44500+034170FM-12+007299999V0200601N001010006019N0007001N1+00641+00601102471ADDAA109006192AA248006092AY151061AY241061GA1091+999999999GF109991091999999999999999MD1210141+9999MW1511REMSYN082AAXX  11061 33990 11/07 90601 10064 20060 40247 52014 69912 75154 333 60068 96047;
0106339900999992000021109004+44500+034170FM-12+007299999V0200401N002019999999N0017001N1+00421+00051102561ADDGF108991999999004501999999MD1210111+9999REMSYN054AAXX  11091 33990 41417 80402 10042 20005 40256 52011;
0161339900999992000021112004+44500+034170FM-12+007299999V0200901N002010042019N0140001N1+00681+00401102571ADDAY151061AY241061GF108991081061004501999999MA1999999101681MD1210031+9999MW1021REMSYN072AAXX  11121 33990 41464 80902 10068 20040 30168 40257 52003 70254 886//;
0112339900999992000021115004+44500+034170FM-12+007299999V0202701N001010042019N0150001N1+00641+00411102641ADDGF108991081061004501999999MD1210061+9999REMSYN060AAXX  11151 33990 42465 82701 10064 20041 40264 52006 886//;
0152339900999992000021118004+44500+034170FM-12+007299999V0203001N002010042019N0150001N1+00541+00401102811ADDAA112000391GF106991061061004501001001KA1999M+00691MD1210171+9999REMSYN076AAXX  11181 33990 12465 63002 10054 20040 40281 52017 69932 86600 333 10069;
0122339900999992000021121004+44500+034170FM-12+007299999V0202701N002012200019N0140001N1+00351+00221102831ADDGA1001+999999999GF100991001001999999001001MD1110021+9999REMSYN054AAXX  11211 33990 42964 02702 10035 20022 40283 51002;
0143339900999992000021200004+44500+034170FM-12+007299999V0202701N001012200019N0220001N1+00351-00251102841ADDGA1001+999999999GF100991001001999999001001MA1999999101941MD1210011+9999REMSYN060AAXX  12001 33990 42972 02701 10035 21025 30194 40284 52001;
0156339900999992000021203004+44500+034170FM-12+007299999V0202901N002012200019N0230001N1+00331-00421102821ADDGA1001+999999999GF100991001001999999001001GJ100009MD1810021+9999REMSYN080AAXX  12031 33990 42973 02902 10033 21042 40282 58002 333 55000 555 20025 7994/;
0175339900999992000021206004+44500+034170FM-12+007299999V0202701N002012200019N0260001N1+00531-00431102891ADDAA199000091GA1001+999999999GF100991001001999999001001KA1999N+00251MD1310071+9999REMSYN064AAXX  12061 33990 32976 02702 10053 21043 40289 53007 333 20025;EQDQ01  00002PRCP99
0112339900999992000021209004+44500+034170FM-12+007299999V0200901N002012200019N0250001N1+00841+00061102861ADDGF101991011001999999031001MD1810021+9999REMSYN060AAXX  12091 33990 42975 10902 10084 20006 40286 58002 81030;
0113339900999992000021212004+44500+034170FM-12+007299999V0201201N002012200019N0230001N1+00861+00191102711ADDGF101991011001999999031001MA1999999101821REMSYN060AAXX  12121 33990 42973 11202 10086 20019 30182 40271 81030;
0122339900999992000021215004+44500+034170FM-12+007299999V0202401N001012200019N0200001N1+00561+00161102641ADDGA1001+999999999GF100991001001999999001001MD1710081+9999REMSYN054AAXX  12151 33990 42970 02401 10056 20016 40264 57008;
0165339900999992000021218004+44500+034170FM-12+007299999V0202901N002012200019N0190001N1+00411-00051102661ADDAA199000091GF102991021061008001001001KA1999M+00911MD1310021+9999REMSYN070AAXX  12181 33990 32569 22902 10041 21005 40266 53002 82600 333 10091;EQDQ01  00002PRCP99
0122339900999992000021221004+44500+034170FM-12+007299999V0203001N001012200019N0200001N1+00361-00141102561ADDGA1001+999999999GF100991001001999999001001MD1810101+9999REMSYN054AAXX  12211 33990 42970 03001 10036 21014 40256 58010;
0143339900999992000021300004+44500+034170FM-12+007299999V0202501N001012200019N0200001N1+00341-00161102481ADDGA1001+999999999GF100991001001999999001001MA1999999101581MD1710081+9999REMSYN060AAXX  13001 33990 42970 02501 10034 21016 30158 40248 57008;
0156339900999992000021303004+44500+034170FM-12+007299999V0203101N002012200019N0170001N1+00231-00101102341ADDGA1001+999999999GF100991001001999999001001GJ104809MD1710131+9999REMSYN080AAXX  13031 33990 42967 03102 10023 21010 40234 57013 333 55080 555 20021 7000/;
0165339900999992000021306004+44500+034170FM-12+007299999V0209999C000012200019N0190001N1+00291-00101102321ADDAA199000091GF102991021051012501001001KA1999N+00191MD1510021+9999REMSYN070AAXX  13061 33990 32669 20000 10029 21010 40232 55002 82500 333 20019;EQDQ01  00002PRCP99
0112339900999992000021309004+44500+034170FM-12+007299999V0201001N002010120019N0220001N1+00761+00021102241ADDGF106991061081008001001001MD1810071+9999REMSYN060AAXX  13091 33990 42572 61002 10076 20002 40224 58007 86800;
0133339900999992000021312004+44500+034170FM-12+007299999V0201201N002010075019N0220001N1+00661-00011102121ADDGF105991051021008001001001MA1999999101231MD1710131+9999REMSYN066AAXX  13121 33990 42572 51202 10066 21001 30123 40212 57013 85200;
0112339900999992000021315004+44500+034170FM-12+007299999V0201101N001010075019N0200001N1+00561+00071102101ADDGF107991071051008001001001MD1610021+9999REMSYN060AAXX  13151 33990 42570 71101 10056 20007 40210 56002 87500;
0187339900999992000021318004+44500+034170FM-12+007299999V0201401N002010045019N0160001N1+00511+00211102121ADDAA199000091GA1081+004509069GF108991081061004501999999KA1120M+00801MD1310021+9999REMSYN076AAXX  13181 33990 32466 81402 10051 20021 40212 53002 886// 333 10080 88715;EQDQ01  00002PRCP99
0138339900999992000021321004+44500+034170FM-12+007299999V0201301N002010066019N0170001N1+00451+00031102131ADDGA1081+006609059GF108991081051008001999999MD1110011+9999REMSYN070AAXX  13211 33990 42567 81302 10045 20003 40213 51001 885// 333 88622;
0133339900999992000021400004+44500+034170FM-12+007299999V0201401N002010042019N0140001N1+00401+00091102111ADDGF108991081061004501999999MA1999999101221MD1810021+9999REMSYN066AAXX  14001 33990 42464 81402 10040 20009 30122 40211 58002 886//;
0168339900999992000021403004+44500+034170FM-12+007299999V0203601N002010048019N0140001N1+00381+00091102051ADDGA1081+004809079GF108991081061004501999999GJ103549MD1710061+9999REMSYN092AAXX  14031 33990 42464 83602 10038 20009 40205 57006 886// 333 55059 88716 555 20038 7000/;
0187339900999992000021406004+44500+034170FM-12+007299999V0200301N002010066019N0150001N1+00381+00041102051ADDAA199000091GA1081+006609059GF108991081051008001999999KA1120N+00351MD1510001+9999REMSYN076AAXX  14061 33990 32565 80302 10038 20004 40205 55000 885// 333 20035 88622;EQDQ01  00002PRCP99
0161339900999992000021412004+44500+034170FM-12+007299999V0202101N001010042019N0110001N1+00311+00181101941ADDAY181061AY291061GF108991081091004501999999MA1999999101051MD1810121+9999MW1801REMSYN072AAXX  14121 33990 41461 82101 10031 20018 30105 40194 58012 78089 889//;
0140339900999992000021415004+44500+034170FM-12+007299999V0202901N002010042019N0120001N1+00271+00171101851ADDAY181031AY221031GF108991081091004501999999MD1210091+9999MW1021REMSYN066AAXX  14151 33990 41462 82902 10027 20017 40185 52009 70282 889//;
0146339900999992000021418004+44500+034170FM-12+007299999V0209999C000019999999N0150001N1+00281+00181101851ADDAA112003091GF108991999999008001999999KA1999M+00391MD1410001+9999REMSYN070AAXX  14181 33990 11565 80000 10028 20018 40185 54000 60032 333 10039;
0134339900999992000021421004+44500+034170FM-12+007299999V0202801N001019999999N0170001N1+00231+00151101791ADDAY181031AY221031GF108991999999004501999999MD1810061+9999MW1801REMSYN060AAXX  14211 33990 41467 82801 10023 20015 40179 58006 78082;
0203339900999992000021500004+44500+034170FM-12+007299999V0203001N002010360019N0220001N1+00281+00181101711ADDAY181061AY221061GF108991031091008001051999KA1999N+99999MA1999999100821MD1710081+9999MW1021REMSYN082AAXX  15001 33990 41572 83002 10028 20018 30082 40171 57008 70282 8395/ 333 27102;EQDQ01 +01022ATMN  
0138339900999992000021503004+44500+034170FM-12+007299999V0202801N002012200019N0290001N1+00211+00081101601ADDGF102991021001999999031001MD1610111+9999REMSYN086AAXX  15031 33990 42979 22802 10021 20008 40160 56011 82030 333 55000 555 20020 7006/;
0152339900999992000021506004+44500+034170FM-12+007299999V0202901N002019999999N0200001N1+00231+00041101611ADDAA112003091GF107991071001999999071001KA1999N+00201MD1310011+9999REMSYN076AAXX  15061 33990 12970 72902 10023 20004 40161 53001 60032 87070 333 20020;
0112339900999992000021509004+44500+034170FM-12+007299999V0200901N002012200019N0180001N1+00701+00131101601ADDGF104991021021012501001011MD1410001+9999REMSYN060AAXX  15091 33990 42668 40902 10070 20013 40160 54000 82201;
0161339900999992000021512004+44500+034170FM-12+007299999V0201501N001010120019N0180001N1+00661+00141101621ADDAY181061AY211061GF106991051031012501001011MA1999999100731MD1210011+9999MW1021REMSYN072AAXX  15121 33990 41668 61501 10066 20014 30073 40162 52001 70281 85301;
0112339900999992000021515004+44500+034170FM-12+007299999V0203401N001012200019N0160001N1+00521+00201101651ADDGF105991031021008001001011MD1210031+9999REMSYN060AAXX  15151 33990 42566 53401 10052 20020 40165 52003 83201;
0152339900999992000021518004+44500+034170FM-12+007299999V0202901N001012200019N0150001N1+00371+00141101711ADDAA112000791GF101991011051012501001001KA1999M+00761MD1210061+9999REMSYN076AAXX  15181 33990 12665 12901 10037 20014 40171 52006 69902 81500 333 10076;
0122339900999992000021521004+44500+034170FM-12+007299999V0202701N001012200019N0180001N1+00271-00051101731ADDGA1001+999999999GF100991001001999999001001MD1210021+9999REMSYN054AAXX  15211 33990 42968 02701 10027 21005 40173 52002;
0143339900999992000021600004+44500+034170FM-12+007299999V0202901N001012200019N0190001N1+00271-00191101731ADDGA1001+999999999GF100991001001999999001001MA1999999100841MD1410001+9999REMSYN060AAXX  16001 33990 42969 02901 10027 21019 30084 40173 54000;
0156339900999992000021603004+44500+034170FM-12+007299999V0202901N001012200019N0200001N1+00251-00241101741ADDGA1001+999999999GF100991001001999999001001GJ102289MD1210011+9999REMSYN080AAXX  16031 33990 42970 02901 10025 21024 40174 52001 333 55038 555 20019 7990/;
0165339900999992000021606004+44500+034170FM-12+007299999V0201801N001012200019N0200001N1+00271-00221101771ADDAA199000091GF102991011001999999041011KA1999N+00191MD1210031+9999REMSYN070AAXX  16061 33990 32970 21801 10027 21022 40177 52003 81041 333 20019;EQDQ01  00002PRCP99
0112339900999992000021609004+44500+034170FM-12+007299999V0200901N003012200019N0220001N1+00661+00171101801ADDGF103991031021008001001001MD1310031+9999REMSYN060AAXX  16091 33990 42572 30903 10066 20017 40180 53003 83200;
0159339900999992000021612004+44500+034170FM-12+007299999V0201201N002010039019N0130001N1+00581+00261101791ADDGA1081+003909069GF108991081061004501999999MA1999999100901MD1810011+9999REMSYN076AAXX  16121 33990 42463 81202 10058 20026 30090 40179 58001 886// 333 88713;
0112339900999992000021615004+44500+034170FM-12+007299999V0202101N001010042019N0120001N1+00481+00281101791ADDGF108991081061004501999999MD1410001+9999REMSYN060AAXX  16151 33990 42462 82101 10048 20028 40179 54000 886//;
0187339900999992000021618004+44500+034170FM-12+007299999V0203201N001010036019N0130001N1+00471+00301101841ADDAA199000091GA1081+003609069GF108991081061004501999999KA1120M+00751MD1110051+9999REMSYN076AAXX  16181 33990 32463 83201 10047 20030 40184 51005 886// 333 10075 88712;EQDQ01  00002PRCP99
0140339900999992000021621004+44500+034170FM-12+007299999V0203401N001010075019N0080001N1+00461+00391101881ADDAY181031AY221031GF108991081091008001999999MD1310041+9999MW1801REMSYN066AAXX  16211 33990 41558 83401 10046 20039 40188 53004 78082 889//;
0161339900999992000021700004+44500+034170FM-12+007299999V0202701N001010075019N0100001N1+00371+00301101841ADDAY181061AY221061GF108991081091008001999999MA1999999100951MD1810041+9999MW1801REMSYN072AAXX  17001 33990 41560 82701 10037 20030 30095 40184 58004 78082 889//;
0166339900999992000021703004+44500+034170FM-12+007299999V0202901N002010075019N0130001N1+00251+00151101841ADDAY181031AY221031GF106991061051008001001001MD1410001+9999MW1021REMSYN092AAXX  17031 33990 41563 62902 10025 20015 40184 54000 70282 86500 333 55043 555 20023 7002/;
0202339900999992000021706004+44500+034170FM-12+007299999V0203601N002010054019N0120001N1+00381+00261101841ADDAA112002091AY181061AY221061GA1081+005409099GF108991081091004501999999KA1120N+00231MD1410001+9999MW1251REMSYN088AAXX  17061 33990 11462 83602 10038 20026 40184 54000 60022 72582 889// 333 20023 88918;
0133339900999992000021712004+44500+034170FM-12+007299999V0201301N002010042019N0180001N1+00581+00241101731ADDGF108991081091004501999999MA1999999100841MD1810131+9999REMSYN066AAXX  17121 33990 42468 81302 10058 20024 30084 40173 58013 889//;
0122339900999992000021715004+44500+034170FM-12+007299999V0203301N001012200019N0210001N1+00431+00181101681ADDGA1001+999999999GF100991001001999999001001MD1810051+9999REMSYN054AAXX  17151 33990 42971 03301 10043 20018 40168 58005;
0146339900999992000021718004+44500+034170FM-12+007299999V0202901N002019999999N0270001N1+00311-00011101701ADDAA199000021GF105991001001999999001011KA1999M+00581MD1210021+9999REMSYN070AAXX  17181 33990 32977 52902 10031 21001 40170 52002 80001 333 10058;
0112339900999992000021721004+44500+034170FM-12+007299999V0202901N001019999999N0300001N1+00291-00221101631ADDGF108991021001999999041051MD1610071+9999REMSYN060AAXX  17211 33990 42980 82901 10029 21022 40163 56007 82045;
0133339900999992000021800004+44500+034170FM-12+007299999V0203101N002019999999N0280001N1+00351-00091101631ADDGF108991001001999999001011MA1999999100741MD1510001+9999REMSYN066AAXX  18001 33990 42978 83102 10035 21009 30074 40163 55000 80001;
0138339900999992000021803004+44500+034170FM-12+007299999V0203001N001019999999N0240001N1+00451+00091101461ADDGF108991081001999999051999MD1710171+9999REMSYN086AAXX  18031 33990 42974 83001 10045 20009 40146 57017 8805/ 333 55000 555 20025 7990/;
0165339900999992000021806004+44500+034170FM-12+007299999V0202401N002019999999N0230001N1+00581+00241101431ADDAA199000091GF108991081001999999051999KA1999N+00251MD1610031+9999REMSYN070AAXX  18061 33990 32973 82402 10058 20024 40143 56003 8805/ 333 20025;EQDQ01  00002PRCP99
0112339900999992000021809004+44500+034170FM-12+007299999V0203301N001019999999N0180001N1+00901+00381101321ADDGF107991061001999999051021MD1810091+9999REMSYN060AAXX  18091 33990 42968 73301 10090 20038 40132 58009 86052;
0133339900999992000021812004+44500+034170FM-12+007299999V0201101N004019999999N0180001N1+00841+00581101161ADDGF107991031001999999041021MA1999999100291MD1710161+9999REMSYN066AAXX  18121 33990 42968 71104 10084 20058 30029 40116 57016 83042;
0112339900999992000021815004+44500+034170FM-12+007299999V0202001N001019999999N0170001N1+00781+00581101101ADDGF107991071001999999071001MD1710061+9999REMSYN060AAXX  18151 33990 42967 72001 10078 20058 40110 57006 87070;
0165339900999992000021818004+44500+034170FM-12+007299999V0202201N001019999999N0150001N1+00681+00471101071ADDAA199000091GF107991041001999999031021KA1999M+01031MD1610031+9999REMSYN070AAXX  18181 33990 32965 72201 10068 20047 40107 56003 84032 333 10103;EQDQ01  00002PRCP99
0112339900999992000021821004+44500+034170FM-12+007299999V0203101N002019999999N0160001N1+00651+00371100931ADDGF108991081001999999071999MD1810161+9999REMSYN060AAXX  18211 33990 42966 83102 10065 20037 40093 58016 8807/;
0133339900999992000021900004+44500+034170FM-12+007299999V0202401N001012200019N0170001N1+00551+00361100771ADDGF102991021001999999041001MA1999999099881MD1710161+9999REMSYN066AAXX  19001 33990 42967 22401 10055 20036 39988 40077 57016 82040;
0138339900999992000021903004+44500+034170FM-12+007299999V0202401N002010360019N0220001N1+00951+00301100551ADDGF107991021051012501031001MD1710201+9999REMSYN086AAXX  19031 33990 42672 72402 10095 20030 40055 57020 82530 333 55025 555 20054 7000/;
0165339900999992000021906004+44500+034170FM-12+007299999V0202301N001019999999N0240001N1+00801+00411100491ADDAA199000091GF107991061001999999031021KA1999N+00541MD1610061+9999REMSYN070AAXX  19061 33990 32974 72301 10080 20041 40049 56006 86032 333 20054;EQDQ01  00002PRCP99
0140339900999992000021909004+44500+034170FM-12+007299999V0203001N001010360019N0170001N1+00891+00771100541ADDAY181031AY221031GF108991021091008001051999MD1310041+9999MW1801REMSYN066AAXX  19091 33990 41567 83001 10089 20077 40054 53004 78082 8295/;
0161339900999992000021912004+44500+034170FM-12+007299999V0202101N003010042019N0150001N1+00901+00641100531ADDAY181061AY221061GF108991061091004501051999MA1999999099661MD1510001+9999MW1021REMSYN072AAXX  19121 33990 41465 82103 10090 20064 39966 40053 55000 70282 8695/;
0112339900999992000021915004+44500+034170FM-12+007299999V0202101N003010360019N0230001N1+00751+00211100621ADDGF108991021061008001031011MD1210091+9999REMSYN060AAXX  19151 33990 42573 82103 10075 20021 40062 52009 82631;
0152339900999992000021918004+44500+034170FM-12+007299999V0202401N003012200019N0350001N1+00521-00101100921ADDAA112001091GF103991031001999999031001KA1999M+01151MD1210281+9999REMSYN076AAXX  19181 33990 12981 32403 10052 21010 40092 52028 60012 83030 333 10115;
0112339900999992000021921004+44500+034170FM-12+007299999V0202301N003010075019N0260001N1+00491-00141101101ADDGF106991061061008001001001MD1210181+9999REMSYN060AAXX  19211 33990 42576 62303 10049 21014 40110 52018 86600;
0133339900999992000022000004+44500+034170FM-12+007299999V0202101N002010360019N0290001N1+00381-00541101331ADDGF105991021041012501051001MA1999999100441MD1210231+9999REMSYN066AAXX  20001 33990 42679 52102 10038 21054 30044 40133 52023 82450;
0138339900999992000022003004+44500+034170FM-12+007299999V0202201N002012200019N0300001N1+00401-00431101451ADDGF103991021041012501041001MD1210121+9999REMSYN086AAXX  20031 33990 42680 32202 10040 21043 40145 52012 82440 333 55008 555 20037 7001/;
0165339900999992000022006004+44500+034170FM-12+007299999V0201801N001010360019N0220001N1+00591-00201101611ADDAA199000091GF105991021041012501031001KA1999N+00341MD1310161+9999REMSYN070AAXX  20061 33990 32672 51801 10059 21020 40161 53016 82430 333 20034;EQDQ01  00002PRCP99
0140339900999992000022009004+44500+034170FM-12+007299999V0202101N001010120019N0170001N1+00631+00211101721ADDAY181031AY221031GF108991081091012501999999MD1210111+9999MW1801REMSYN066AAXX  20091 33990 41667 82101 10063 20021 40172 52011 78082 889//;
0161339900999992000022012004+44500+034170FM-12+007299999V0201801N001010120019N0180001N1+00651+00321101681ADDAY181061AY221061GF107991071031012501001011MA1999999100791MD1810041+9999MW1021REMSYN072AAXX  20121 33990 41668 71801 10065 20032 30079 40168 58004 70282 87301;
0112339900999992000022015004+44500+034170FM-12+007299999V0201601N001010075019N0170001N1+00601+00361101711ADDGF106991061051008001001001MD1310031+9999REMSYN060AAXX  20151 33990 42567 61601 10060 20036 40171 53003 86500;
0152339900999992000022018004+44500+034170FM-12+007299999V0203001N001010120019N0230001N1+00561+00291101721ADDAA112001091GF108991081051012501999999KA1999M+00671MD1210011+9999REMSYN076AAXX  20181 33990 12673 83001 10056 20029 40172 52001 60012 885// 333 10067;
0112339900999992000022021004+44500+034170FM-12+007299999V0203201N001019999999N0200001N1+00541+00081101581ADDGF107991071001999999071001MD1810141+9999REMSYN060AAXX  20211 33990 42970 73201 10054 20008 40158 58014 87070;
0133339900999992000022100004+44500+034170FM-12+007299999V0200501N003019999999N0200001N1+00641+00301101401ADDGF107991071001999999011001MA1999999100511MD1710181+9999REMSYN066AAXX  21001 33990 41970 70503 10064 20030 30051 40140 57018 87010;
0166339900999992000022103004+44500+034170FM-12+007299999V0203601N001010075019N0110001N1+00581+00371101151ADDAY181031AY221031GF108991081091008001999999MD1710251+9999MW1801REMSYN092AAXX  21031 33990 41561 83601 10058 20037 40115 57025 78082 889// 333 55015 555 20052 7002/;
0180339900999992000022106004+44500+034170FM-12+007299999V0203001N002010075019N0100001N1+00501+00431100921ADDAA112006191AY181061AY221061GF108991081091008001999999KA1999N+00501MD1710231+9999MW1801REMSYN082AAXX  21061 33990 11560 83002 10050 20043 40092 57023 60062 78082 889// 333 20050;
0140339900999992000022109004+44500+034170FM-12+007299999V0200501N002010075019N0170001N1+00591+00471100731ADDAY181031AY221031GF108991081091008001999999MD1710191+9999MW1021REMSYN066AAXX  21091 33990 41567 80502 10059 20047 40073 57019 70282 889//;
0161339900999992000022112004+44500+034170FM-12+007299999V0202701N001010075019N0027001N1+00661+00591100601ADDAY181061AY221061GF108991081091008001999999MA1999999099731MD1710111+9999MW1811REMSYN072AAXX  21121 33990 41527 82701 10066 20059 39973 40060 57011 78182 889//;
0140339900999992000022115004+44500+034170FM-12+007299999V0201501N001010021019N0030001N1+00701+00651100571ADDAY181031AY281031GF108991081091002501999999MD1710031+9999MW1801REMSYN066AAXX  21151 33990 41330 81501 10070 20065 40057 57003 78088 889//;
0180339900999992000022118004+44500+034170FM-12+007299999V0200701N001012200019N0120001N1+00541+00491100551ADDAA112008991AY181061AY221061GF107991041091008001001011KA1999M+00721MD1710041+9999MW1021REMSYN082AAXX  21181 33990 11562 70701 10054 20049 40055 57004 60092 70282 84901 333 10072;
0112339900999992000022121004+44500+034170FM-12+007299999V0202301N003010360019N0180001N1+00461-00081100661ADDGF105991031051008001031001MD1310111+9999REMSYN060AAXX  21211 33990 42568 52303 10046 21008 40066 53011 83530;
0138339900999992000022203004+44500+034170FM-12+007299999V0203201N002012200019N0240001N1+00191-00281101111ADDGF102991021051008001001001MD1210291+9999REMSYN086AAXX  22031 33990 42574 23202 10019 21028 40111 52029 82500 333 55000 555 20019 7014/;
0165339900999992000022206004+44500+034170FM-12+007299999V0203401N002010075019N0210001N1+00241-00501101351ADDAA199000091GF105991051051008001001001KA1999N+00151MD1210241+9999REMSYN070AAXX  22061 33990 32571 53402 10024 21050 40135 52024 85500 333 20015;EQDQ01  00002PRCP99
0112339900999992000022209004+44500+034170FM-12+007299999V0203201N002010075019N0270001N1+00531-00471101471ADDGF106991061051008001001001MD1210121+9999REMSYN060AAXX  22091 33990 42577 63202 10053 21047 40147 52012 86500;
0133339900999992000022212004+44500+034170FM-12+007299999V0203001N002010075019N0290001N1+00501-00561101521ADDGF106991061051008001001001MA1999999100631MD1110051+9999REMSYN066AAXX  22121 33990 42579 63002 10050 21056 30063 40152 51005 86500;
0112339900999992000022215004+44500+034170FM-12+007299999V0203601N002012200019N0270001N1+00161-00791101681ADDGF103991031051008001001001MD1310141+9999REMSYN060AAXX  22151 33990 42577 33602 10016 21079 40168 53014 83500;
0175339900999992000022218004+44500+034170FM-12+007299999V0203001N003012200019N0210001N1-00051-00791101831ADDAA199000091GA1001+999999999GF100991001001999999001001KA1999M+00581MD1110151+9999REMSYN064AAXX  22181 33990 32971 03003 11005 21079 40183 51015 333 10058;EQDQ01  00002PRCP99
0122339900999992000022221004+44500+034170FM-12+007299999V0202901N004012200019N0210001N1-00061-00851101901ADDGA1001+999999999GF100991001001999999001001MD1210071+9999REMSYN054AAXX  22211 33990 42971 02904 11006 21085 40190 52007;
0133339900999992000022300004+44500+034170FM-12+007299999V0202801N002010075019N0220001N1-00071-00911101981ADDGF107991071051008001001001MA1999999101071MD1210081+9999REMSYN066AAXX  23001 33990 42572 72802 11007 21091 30107 40198 52008 87500;
0138339900999992000022303004+44500+034170FM-12+007299999V0202801N002010075019N0220001N1-00041-00911102011ADDGF108991081051008001999999MD1210031+9999REMSYN086AAXX  23031 33990 42572 82802 11004 21091 40201 52003 885// 333 55082 555 21007 7000/;
0165339900999992000022306004+44500+034170FM-12+007299999V0200401N001010075019N0200001N1+00071-00661102221ADDAA199000091GF106991061051008001001001KA1999N-00071MD1210211+9999REMSYN070AAXX  23061 33990 32570 60401 10007 21066 40222 52021 86500 333 21007;EQDQ01  00002PRCP99
0112339900999992000022309004+44500+034170FM-12+007299999V0201201N002010120019N0250001N1+00291-00441102331ADDGF106991061081008001001001MD1210131+9999REMSYN060AAXX  23091 33990 42575 61202 10029 21044 40233 52013 86800;
0133339900999992000022312004+44500+034170FM-12+007299999V0201301N002010075019N0270001N1+00291-00361102371ADDGF106991061051008001001001MA1999999101481MD1110041+9999REMSYN066AAXX  23121 33990 42577 61302 10029 21036 30148 40237 51004 86500;
0112339900999992000022315004+44500+034170FM-12+007299999V0201301N002010075019N0270001N1+00171-00341102571ADDGF106991061051008001001001MD1310171+9999REMSYN060AAXX  23151 33990 42577 61302 10017 21034 40257 53017 86500;
0180339900999992000022318004+44500+034170FM-12+007299999V0201201N001010075019N0200001N1+00151-00401102691ADDAA112000791AY121061AY221061GF107991071091008001001001KA1999M+00461MD1210121+9999MW1271REMSYN082AAXX  23181 33990 11570 71201 10015 21040 40269 52012 69902 72722 87900 333 10046;
0140339900999992000022321004+44500+034170FM-12+007299999V0202801N001010075019N0240001N1+00101-00431102771ADDAY181031AY221031GF107991071031008001001001MD1210081+9999MW1021REMSYN066AAXX  23211 33990 41574 72801 10010 21043 40277 52008 70282 87300;
0133339900999992000022400004+44500+034170FM-12+007299999V0203001N002010075019N0250001N1+00061-00441102801ADDGF107991071051008001001001MA1999999101881MD1110031+9999REMSYN066AAXX  24001 33990 42575 73002 10006 21044 30188 40280 51003 87500;
0138339900999992000022403004+44500+034170FM-12+007299999V0203001N001010120019N0200001N1+00091-00371102781ADDGF107991071081008001001001MD1810021+9999REMSYN086AAXX  24031 33990 42570 73001 10009 21037 40278 58002 87800 333 55043 555 20002 7990/;
0180339900999992000022406004+44500+034170FM-12+007299999V0202901N001010075019N0210001N1+00121-00261102891ADDAA112000791AY121061AY221061GF107991071091008001001001KA1999N+00021MD1310111+9999MW1261REMSYN082AAXX  24061 33990 11571 72901 10012 21026 40289 53011 69902 72622 87900 333 20002;
0140339900999992000022409004+44500+034170FM-12+007299999V0200601N003010075019N0230001N1+00291-00191102921ADDAY181031AY221031GF108991051091008001051999MD1110051+9999MW1021REMSYN066AAXX  24091 33990 41573 80603 10029 21019 40292 51005 70282 8595/;
0161339900999992000022412004+44500+034170FM-12+007299999V0200801N002010075019N0190001N1+00241-00191102881ADDAY181061AY221061GF108991061091008001051999MA1999999101981MD1610041+9999MW1851REMSYN072AAXX  24121 33990 41569 80802 10024 21019 30198 40288 56004 78582 8695/;
0140339900999992000022415004+44500+034170FM-12+007299999V0202101N002010042019N0160001N1+00191-00121102841ADDAY181031AY221031GF108991061091004501051999MD1710041+9999MW1851REMSYN066AAXX  24151 33990 41466 82102 10019 21012 40284 57004 78582 8695/;
0180339900999992000022418004+44500+034170FM-12+007299999V0203001N001010042019N0180001N1+00121-00051102871ADDAA112000191AY181061AY221061GF108991081091004501999999KA1999M+00391MD1210011+9999MW1851REMSYN082AAXX  24181 33990 11468 83001 10012 21005 40287 52001 69922 78582 889// 333 10039;
0140339900999992000022421004+44500+034170FM-12+007299999V0203301N001010075019N0190001N1+00091-00051102851ADDAY181031AY221031GF108991081091008001999999MD1810021+9999MW1851REMSYN066AAXX  24211 33990 41569 83301 10009 21005 40285 58002 78582 889//;
0161339900999992000022500004+44500+034170FM-12+007299999V0202901N001010360019N0270001N1-00021-00331102781ADDAY181061AY221061GF106991031051012501031001MA1999999101861MD1810071+9999MW1021REMSYN072AAXX  25001 33990 41677 62901 11002 21033 30186 40278 58007 70282 83530;
0138339900999992000022503004+44500+034170FM-12+007299999V0202701N002012200019N0350001N1+00001-00591102761ADDGF102991021041012501001001MD1610021+9999REMSYN086AAXX  25031 33990 42681 22702 10000 21059 40276 56002 82400 333 55007 555 21003 7995/;
0152339900999992000022506004+44500+034170FM-12+007299999V0201901N002012200019N0280001N1+00121-00761102761ADDAA112000391GF102991021041012501001001KA1999N-00081MD1510001+9999REMSYN076AAXX  25061 33990 12678 21902 10012 21076 40276 55000 69932 82400 333 21008;
0112339900999992000022509004+44500+034170FM-12+007299999V0201201N002012200019N0280001N1+00431-00861102651ADDGF101991011021008001001001MD1810091+9999REMSYN060AAXX  25091 33990 42578 11202 10043 21086 40265 58009 81200;
0133339900999992000022512004+44500+034170FM-12+007299999V0202001N002010075019N0250001N1+00371-00781102481ADDGF106991061051008001001001MA1999999101581MD1710171+9999REMSYN066AAXX  25121 33990 42575 62002 10037 21078 30158 40248 57017 86500;
0112339900999992000022515004+44500+034170FM-12+007299999V0201801N001010075019N0210001N1+00291-00641102411ADDGF107991071031008001001001MD1710071+9999REMSYN060AAXX  25151 33990 42571 71801 10029 21064 40241 57007 87300;
0165339900999992000022518004+44500+034170FM-12+007299999V02099999999990075019N0210001N1+00291-00551102271ADDAA199000091GF107991071051008001001001KA1999M+00571MD1710131+9999REMSYN070AAXX  25181 33990 32571 7/180 10029 21055 40227 57013 87500 333 10057;EQDQ01  00002PRCP99
0112339900999992000022521004+44500+034170FM-12+007299999V0202101N001010075019N0200001N1+00341-00401102091ADDGF108991081051008001999999MD1710181+9999REMSYN060AAXX  25211 33990 42570 82101 10034 21040 40209 57018 885//;
0133339900999992000022600004+44500+034170FM-12+007299999V0202001N002010075019N0200001N1+00411-00311101971ADDGF108991081051008001999999MA1999999101081MD1710121+9999REMSYN066AAXX  26001 33990 42570 82002 10041 21031 30108 40197 57012 885//;
0138339900999992000022603004+44500+034170FM-12+007299999V0201801N002010075019N0270001N1+00411+00011101821ADDGF108991081051008001999999MD1710151+9999REMSYN086AAXX  26031 33990 42577 81802 10041 20001 40182 57015 885// 333 55065 555 20031 7000/;
0180339900999992000022606004+44500+034170FM-12+007299999V0202101N001010075019N0100001N1+00311+00151101751ADDAA112000591AY181061AY221061GF108991081091008001999999KA1999N+00291MD1710071+9999MW1801REMSYN082AAXX  26061 33990 11560 82101 10031 20015 40175 57007 69942 78082 889// 333 20029;
0140339900999992000022609004+44500+034170FM-12+007299999V0202401N001010075019N0100001N1+00291+00161101621ADDAY181031AY221031GF108991081091008001999999MD1710131+9999MW1801REMSYN066AAXX  26091 33990 41560 82401 10029 20016 40162 57013 78082 889//;
0161339900999992000022612004+44500+034170FM-12+007299999V0202401N001010075019N0100001N1+00381+00311101281ADDAY181061AY221061GF108991081091008001999999MA1999999100391MD1710341+9999MW1801REMSYN072AAXX  26121 33990 41560 82401 10038 20031 30039 40128 57034 78082 889//;
0140339900999992000022615004+44500+034170FM-12+007299999V0202101N001010075019N0120001N1+00411+00071101221ADDAY181031AY221031GF107991071091008001001001MD1710061+9999MW1021REMSYN066AAXX  26151 33990 41562 72101 10041 20007 40122 57006 70282 87900;
0180339900999992000022618004+44500+034170FM-12+007299999V0200301N003010075019N0120001N1+00221-00281101601ADDAA112008991AY181061AY221061GF108991081091008001999999KA1999M+00491MD1310381+9999MW1801REMSYN082AAXX  26181 33990 11562 80303 10022 21028 40160 53038 60092 78082 889// 333 10049;
0140339900999992000022621004+44500+034170FM-12+007299999V0203501N002010075019N0120001N1+00251-00381101921ADDAY181031AY221031GF106991061091008001001001MD1110321+9999MW1871REMSYN066AAXX  26211 33990 41562 63502 10025 21038 40192 51032 78782 86900;
0161339900999992000022700004+44500+034170FM-12+007299999V0203201N001010075019N0140001N1+00251-00341102061ADDAY181061AY221061GF106991061091008001001001MA1999999101171MD1110141+9999MW1021REMSYN072AAXX  27001 33990 41564 63201 10025 21034 30117 40206 51014 70282 86900;
0138339900999992000022703004+44500+034170FM-12+007299999V0200601N002010075019N0180001N1+00271-00321102161ADDGF106991061091008001001001MD1310101+9999REMSYN086AAXX  27031 33990 42568 60602 10027 21032 40216 53010 86900 333 55002 555 20016 7992/;
0152339900999992000022706004+44500+034170FM-12+007299999V0200201N002010360019N0200001N1+00311-00301102361ADDAA112000191GF106991031091008001041001KA1999N+00161MD1210201+9999REMSYN076AAXX  27061 33990 12570 60202 10031 21030 40236 52020 69922 83940 333 20016;
0112339900999992000022709004+44500+034170FM-12+007299999V0200401N002010075019N0250001N1+00511-00391102501ADDGF106991061031008001001001MD1210131+9999REMSYN060AAXX  27091 33990 42575 60402 10051 21039 40250 52013 86300;
0161339900999992000022712004+44500+034170FM-12+007299999V0203601N002010120019N0170001N1+00481-00431102641ADDAY181061AY221061GF107991071091012501001001MA1999999101741MD1210141+9999MW1871REMSYN072AAXX  27121 33990 41667 73602 10048 21043 30174 40264 52014 78782 87900;
0140339900999992000022715004+44500+034170FM-12+007299999V0203301N002010075019N0140001N1+00201+00091102771ADDAY181031AY221031GF107991061091008001041001MD1210131+9999MW1261REMSYN066AAXX  27151 33990 41564 73302 10020 20009 40277 52013 72682 86940;
0180339900999992000022718004+44500+034170FM-12+007299999V0202901N002010075019N0160001N1+00181-00041102901ADDAA112001091AY181061AY221061GF108991081031008001999999KA1999M+00611MD1210131+9999MW1021REMSYN082AAXX  27181 33990 11566 82902 10018 21004 40290 52013 60012 70282 883// 333 10061;
0112339900999992000022721004+44500+034170FM-12+007299999V0203001N002010120019N0180001N1+00191-00211103031ADDGF106991061051012501001001MD1210131+9999REMSYN060AAXX  27211 33990 42668 63002 10019 21021 40303 52013 86500;
0143339900999992000022800004+44500+034170FM-12+007299999V0202901N002012200019N0220001N1+00151-00361103181ADDGA1001+999999999GF100991001001999999001001MA1999999102261MD1210131+9999REMSYN060AAXX  28001 33990 42972 02902 10015 21036 30226 40318 52013;
0138339900999992000022803004+44500+034170FM-12+007299999V0202901N002012200019N0240001N1+00111-00451103271ADDGF102991021051012501001001MD1210091+9999REMSYN086AAXX  28031 33990 42674 22902 10011 21045 40327 52009 82500 333 55034 555 20005 7001/;
0165339900999992000022806004+44500+034170FM-12+007299999V0202601N001012200019N0280001N1+00391-00531103471ADDAA199000091GF101991011051012501001001KA1999N-00031MD1310211+9999REMSYN070AAXX  28061 33990 32678 12601 10039 21053 40347 53021 81500 333 21003;EQDQ01  00002PRCP99
0112339900999992000022809004+44500+034170FM-12+007299999V0200901N003012200019N0260001N1+00461-00311103641ADDGF102991021041012501001001MD1210171+9999REMSYN060AAXX  28091 33990 42676 20903 10046 21031 40364 52017 82400;
0133339900999992000022812004+44500+034170FM-12+007299999V0200801N002010120019N0240001N1+00401-00511103691ADDGF106991061051012501001001MA1999999102781MD1110051+9999REMSYN066AAXX  28121 33990 42674 60802 10040 21051 30278 40369 51005 86500;
0112339900999992000022815004+44500+034170FM-12+007299999V0200601N002010120019N0180001N1+00281-00381103721ADDGF108991081051012501999999MD1210031+9999REMSYN060AAXX  28151 33990 42668 80602 10028 21038 40372 52003 885//;
0187339900999992000022818004+44500+034170FM-12+007299999V0200801N002010078019N0200001N1+00261+99999103801ADDAA199000091GA1081+007809059GF108991081051008001999999KA1120M+00621MD1210081+9999REMSYN076AAXX  28181 33990 32570 80802 10026 2/009 40380 52008 885// 333 10062 88626;EQDQ01  00002PRCP99
0138339900999992000022821004+44500+034170FM-12+007299999V0200601N002010072019N0210001N1+00211-00291103811ADDGA1081+007209059GF108991081051008001999999MD1210011+9999REMSYN070AAXX  28211 33990 42571 80602 10021 21029 40381 52001 885// 333 88624;
0118339900999992000022900004+44500+034170FM-12+007299999V0203001N002010360019N0240001N1+00041-00391103771ADDGF105991021051012501031001MD1810061+9999REMSYN066AAXX  29001 33990 42674 53002 10004 21039 302// 40377 58006 82530;
0156339900999992000022903004+44500+034170FM-12+007299999V0203001N002012200019N0270001N1-00021-00581103691ADDGA1001+999999999GF100991001001999999001001GJ104689MD1710081+9999REMSYN080AAXX  29031 33990 42977 03002 11002 21058 40369 57008 333 55078 555 21009 7000/;
0175339900999992000022906004+44500+034170FM-12+007299999V0200101N001012200019N0200001N1+00281-00491103681ADDAA199000091GA1001+999999999GF100991001001999999001001KA1999N-00091MD1310011+9999REMSYN064AAXX  29061 33990 32970 00101 10028 21049 40368 53001 333 21009;EQDQ01  00002PRCP99
0112339900999992000022909004+44500+034170FM-12+007299999V0201401N003012200019N0250001N1+00501-00291103621ADDGF102991021021012501001001MD1810061+9999REMSYN060AAXX  29091 33990 42675 21403 10050 21029 40362 58006 82200;
0133339900999992000022912004+44500+034170FM-12+007299999V0201501N002010075019N0230001N1+00431-00351103451ADDGF107991051051008001031001MA1999999102541MD1710171+9999REMSYN066AAXX  29121 33990 42573 71502 10043 21035 30254 40345 57017 85530;
0112339900999992000022915004+44500+034170FM-12+007299999V0201201N001010075019N0230001N1+00351-00391103311ADDGF107991071051008001001001MD1710131+9999REMSYN060AAXX  29151 33990 42573 71201 10035 21039 40331 57013 87500;
0165339900999992000022918004+44500+034170FM-12+007299999V0203601N001012200019N0200001N1+00171-00341103231ADDAA199000091GF102991021051008001001001KA1999M+00541MD1710101+9999REMSYN070AAXX  29181 33990 32570 23601 10017 21034 40323 57010 82500 333 10054;EQDQ01  00002PRCP99
0112339900999992000022921004+44500+034170FM-12+007299999V0203201N002012200019N0180001N1+00071-00391103111ADDGF102991021051008001001001MD1710121+9999REMSYN060AAXX  29211 33990 42568 23202 10007 21039 40311 57012 82500;
0159339900999992000030100004+44500+034170FM-12+007299999V0202901N001010090019N0180001N1+00151-00361102981ADDGA1071+009009059GF107991071051008001001001MA1999999102061MD1710131+9999REMSYN076AAXX  01001 33990 42568 72901 10015 21036 30206 40298 57013 87500 333 87630;
0138339900999992000030103004+44500+034170FM-12+007299999V0203601N002010075019N0190001N1+00191-00421102801ADDGF107991071051008001001001MD1710161+9999REMSYN086AAXX  01031 33990 42569 73602 10019 21042 40280 57016 87500 333 55059 555 20005 7000/;
0165339900999992000030106004+44500+034170FM-12+007299999V0203401N001010075019N0230001N1+00261-00371102761ADDAA199000091GF106991061051008001001001KA1999N+00051MD1710041+9999REMSYN070AAXX  01061 33990 32573 63401 10026 21037 40276 57004 86500 333 20005;EQDQ01  00002PRCP99
0112339900999992000030109004+44500+034170FM-12+007299999V0200901N002010075019N0210001N1+00451-00261102621ADDGF106991061051008001001001MD1710141+9999REMSYN060AAXX  01091 33990 42571 60902 10045 21026 40262 57014 86500;
0133339900999992000030112004+44500+034170FM-12+007299999V0200701N003012200019N0210001N1+00531-00251102441ADDGF102991011051008001001011MA1999999101451MD1710181+9999REMSYN066AAXX  01121 33990 42571 20703 10053 21025 30145 40244 57018 81501;
0135339900999992000030115004+44500+034170FM-12+007299999V0200501N001012200019N0200001N1+99999+99999102321ADDGA1001+999999999GF100991001001999999001001MD1710111+9999REMSYN048AAXX  01151 33990 42970 00501 11332 40232 57011;EQDQ01-003323ATOT  
0165339900999992000030118004+44500+034170FM-12+007299999V0202901N001010120019N0200001N1+00251-00241102311ADDAA199000091GF107991071051012501001001KA1999M+00591MD1110011+9999REMSYN070AAXX  01181 33990 32670 72901 10025 21024 40231 51001 87500 333 10059;EQDQ01  00002PRCP99
0122339900999992000030121004+44500+034170FM-12+007299999V0202701N001012200019N0200001N1+00131-00541102271ADDGA1001+999999999GF100991001001999999001001MD1710061+9999REMSYN054AAXX  01211 33990 42970 02701 10013 21054 40227 57006;
0143339900999992000030200004+44500+034170FM-12+007299999V0202301N001012200019N0180001N1+00071-00581102231ADDGA1001+999999999GF100991001001999999001001MA1999999101321MD1710041+9999REMSYN060AAXX  02001 33990 42968 02301 10007 21058 30132 40223 57004;
0156339900999992000030203004+44500+034170FM-12+007299999V0203001N001012200019N0210001N1+00071-00661102191ADDGA1001+999999999GF100991001001999999001001GJ103129MD1710041+9999REMSYN080AAXX  02031 33990 42971 03001 10007 21066 40219 57004 333 55052 555 20005 7000/;
0175339900999992000030206004+44500+034170FM-12+007299999V0203601N001012200019N0230001N1+00481-00401102201ADDAA199000091GA1001+999999999GF100991001001999999001001KA1999N+00031MD1310031+9999REMSYN064AAXX  02061 33990 32973 03601 10048 21040 40220 53003 333 20003;EQDQ01  00002PRCP99
0112339900999992000030209004+44500+034170FM-12+007299999V0201201N002012200019N0270001N1+00711+00021102181ADDGF104991001001999999001011MD1810011+9999REMSYN060AAXX  02091 33990 42977 41202 10071 20002 40218 58001 80001;
0133339900999992000030212004+44500+034170FM-12+007299999V0201401N002010900019N0250001N1+00711+00091102041ADDGF107991011021012501001021MA1999999101161MD1710141+9999REMSYN066AAXX  02121 33990 42675 71402 10071 20009 30116 40204 57014 81202;
0112339900999992000030215004+44500+034170FM-12+007299999V0202001N001010900019N0240001N1+00501+00031102031ADDGF107991011051008001001021MD1610021+9999REMSYN060AAXX  02151 33990 42574 72001 10050 20003 40203 56002 81502;
0175339900999992000030218004+44500+034170FM-12+007299999V0203001N001012200019N0230001N1+00321-00061101971ADDAA199000091GA1001+999999999GF100991001001999999001001KA1999M+00791MD1810061+9999REMSYN064AAXX  02181 33990 32973 03001 10032 21006 40197 58006 333 10079;EQDQ01  00002PRCP99
0122339900999992000030221004+44500+034170FM-12+007299999V0203001N002012200019N0250001N1+00261-00401101921ADDGA1001+999999999GF100991001001999999001001MD1610051+9999REMSYN054AAXX  02211 33990 42975 03002 10026 21040 40192 56005;
0133339900999992000030300004+44500+034170FM-12+007299999V0203101N001010120019N0250001N1+00421-00261101841ADDGF107991061051012501001011MA1999999100951MD1710081+9999REMSYN066AAXX  03001 33990 42675 73101 10042 21026 30095 40184 57008 86501;
0138339900999992000030303004+44500+034170FM-12+007299999V0202801N002019999999N0260001N1+00511-00321101781ADDGF108991081001999999071999MD1710061+9999REMSYN086AAXX  03031 33990 42976 82802 10051 21032 40178 57006 8807/ 333 55086 555 20025 7000/;
0165339900999992000030306004+44500+034170FM-12+007299999V0202301N001019999999N0220001N1+00591+00251101791ADDAA199000091GF108991081001999999071999KA1999N+00251MD1310011+9999REMSYN070AAXX  03061 33990 32972 82301 10059 20025 40179 53001 8807/ 333 20025;EQDQ01  00002PRCP99
0112339900999992000030309004+44500+034170FM-12+007299999V0200601N002019999999N0180001N1+00741+00341101781ADDGF108991081001999999071999MD1410001+9999REMSYN060AAXX  03091 33990 42968 80602 10074 20034 40178 54000 8807/;
0133339900999992000030312004+44500+034170FM-12+007299999V0200801N002019999999N0150001N1+00851+00511101701ADDGF106991061001999999071001MA1999999100821MD1810081+9999REMSYN066AAXX  03121 33990 42965 60802 10085 20051 30082 40170 58008 86070;
0112339900999992000030315004+44500+034170FM-12+007299999V0200501N002019999999N0130001N1+00731+00531101711ADDGF106991051001999999041011MD1310011+9999REMSYN060AAXX  03151 33990 42963 60502 10073 20053 40171 53001 85041;
0165339900999992000030318004+44500+034170FM-12+007299999V0201701N001010360019N0130001N1+00651+00441101841ADDAA199000091GF106991031051012501071001KA1999M+00871MD1210121+9999REMSYN070AAXX  03181 33990 32663 61701 10065 20044 40184 52012 83570 333 10087;EQDQ01  00002PRCP99
0112339900999992000030321004+44500+034170FM-12+007299999V0202401N001012200019N0140001N1+00461+00181101721ADDGF102991021051008001001001MD1810121+9999REMSYN060AAXX  03211 33990 42564 22401 10046 20018 40172 58012 82500;
0133339900999992000030400004+44500+034170FM-12+007299999V0202901N001012200019N0250001N1+00701-00471101641ADDGF102991021051008001001001MA1999999100761MD1710071+9999REMSYN066AAXX  04001 33990 42575 22901 10070 21047 30076 40164 57007 82500;
0138339900999992000030403004+44500+034170FM-12+007299999V0202201N002010075019N0200001N1+00651-00191101581ADDGF105991051051008001001001MD1710071+9999REMSYN086AAXX  04031 33990 42570 52202 10065 21019 40158 57007 85500 333 55007 555 20045 7000/;
0165339900999992000030406004+44500+034170FM-12+007299999V0200201N002012200019N0120001N1+00721+00461101711ADDAA199000091GF102991021051008001001001KA1999N+00451MD1310141+9999REMSYN070AAXX  04061 33990 32562 20202 10072 20046 40171 53014 82500 333 20045;EQDQ01  00002PRCP99
0122339900999992000030409004+44500+034170FM-12+007299999V0201601N003012200019N0240001N1+01041+00611101701ADDGA1001+999999999GF100991001001999999001001MD1810011+9999REMSYN054AAXX  04091 33990 42974 01603 10104 20061 40170 58001;
0112339900999992000030415004+44500+034170FM-12+007299999V0200401N001010360019N0230001N1+00951+00461101521ADDGF106991021051008001031011MD1610031+9999REMSYN060AAXX  04151 33990 42573 60401 10095 20046 40152 56003 82531;
0175339900999992000030418004+44500+034170FM-12+007299999V0200701N001012200019N0180001N1+00661+00431101551ADDAA199000091GA1001+999999999GF100991001001999999001001KA1999M+01141MD1310031+9999REMSYN064AAXX  04181 33990 32968 00701 10066 20043 40155 53003 333 10114;EQDQ01  00002PRCP99
0122339900999992000030421004+44500+034170FM-12+007299999V0202701N001012200019N0170001N1+00481+00331101581ADDGA1001+999999999GF100991001001999999001001MD1210021+9999REMSYN054AAXX  04211 33990 42967 02701 10048 20033 40158 52002;
0159339900999992000030500004+44500+034170FM-12+007299999V0201601N002010084019N0170001N1+00481+00261101581ADDGA1071+008409059GF107991071051008001001001MA1999999100691MD1410001+9999REMSYN076AAXX  05001 33990 42567 71602 10048 20026 30069 40158 54000 87500 333 87628;
0168339900999992000030503004+44500+034170FM-12+007299999V0203401N001010045019N0160001N1+00671+00491101461ADDGA1081+004509079GF108991081061004501999999GJ104809MD1810111+9999REMSYN092AAXX  05031 33990 42466 83401 10067 20049 40146 58011 886// 333 55080 88715 555 20042 7000/;
0187339900999992000030506004+44500+034170FM-12+007299999V0202101N002010042019N0110001N1+00781+00581101421ADDAA199000091GA1081+004209069GF108991081061004501999999KA1120N+00421MD1710041+9999REMSYN076AAXX  05061 33990 32461 82102 10078 20058 40142 57004 886// 333 20042 88714;EQDQ01  00002PRCP99
0112339900999992000030509004+44500+034170FM-12+007299999V0202301N003010360019N0100001N1+01021+00591101331ADDGF107991011021008001041021MD1710081+9999REMSYN060AAXX  05091 33990 42560 72303 10102 20059 40133 57008 81242;
0133339900999992000030512004+44500+034170FM-12+007299999V0202901N002012200019N0120001N1+01531+00291101271ADDGF104991021021008001041011MA1999999100421MD1710041+9999REMSYN066AAXX  05121 33990 42562 42902 10153 20029 30042 40127 57004 82241;
0112339900999992000030515004+44500+034170FM-12+007299999V0200301N001010360019N0120001N1+01201+00021101321ADDGF107991011021012501041011MD1310051+9999REMSYN060AAXX  05151 33990 42662 70301 10120 20002 40132 53005 81241;
0180339900999992000030518004+44500+034170FM-12+007299999V0202701N001010075019N0100001N1+00941+00291101381ADDAA112000191AY181061AY211061GF108991081091008001999999KA1999M+01561MD1210031+9999MW1801REMSYN082AAXX  05181 33990 11560 82701 10094 20029 40138 52003 69912 78081 889// 333 10156;
0140339900999992000030521004+44500+034170FM-12+007299999V0202901N001010075019N0100001N1+00701+00611101271ADDAY181031AY221031GF108991081091008001999999MD1710101+9999MW1801REMSYN066AAXX  05211 33990 41560 82901 10070 20061 40127 57010 78082 889//;
0161339900999992000030600004+44500+034170FM-12+007299999V0203601N001010042019N0100001N1+00641-00602101181ADDAY181061AY221061GF108991081091004501999999MA1999999100291MD1710111+9999MW1801REMSYN072AAXX  06001 33990 41460 83601 10064 21060 30029 40118 57011 78082 889//;
0166339900999992000030603004+44500+034170FM-12+007299999V0203601N004010075019N0110001N1+00341-00101101161ADDAY181031AY221031GF108991081091008001999999MD1610021+9999MW1021REMSYN092AAXX  06031 33990 41561 83604 10034 21010 40116 56002 70282 889// 333 55035 555 20032 7010/;
0180339900999992000030606004+44500+034170FM-12+007299999V0203601N006010075019N0150001N1+00331-00501101311ADDAA112009991AY181061AY221061GF108991081091008001999999KA1999N+00311MD1310151+9999MW1021REMSYN082AAXX  06061 33990 11565 83606 10033 21050 40131 53015 60102 70282 889// 333 20031;
0180339900999992000030609004+44500+034170FM-12+007299999V0203601N006010075019N0150001N1+00331-00501101311ADDAA112009991AY181031AY221031GF108991081091008001999999KA1999N+00311MD1310151+9999MW1021REMSYN082AAXX  06091 33990 11565 83606 10033 21050 40131 53015 60102 70282 889// 333 20031;
0161339900999992000030612004+44500+034170FM-12+007299999V0203301N006010360019N0270001N1+00431-00721101871ADDAY181061AY221061GF107991031021012501041011MA1999999100981MD1210351+9999MW1021REMSYN072AAXX  06121 33990 41677 73306 10043 21072 30098 40187 52035 70282 83241;
0140339900999992000030615004+44500+034170FM-12+007299999V0203201N004010360019N0210001N1+00341-00691102121ADDAY181031AY221031GF106991041091012501041011MD1210251+9999MW1261REMSYN066AAXX  06151 33990 41671 63204 10034 21069 40212 52025 72682 84941;
0199339900999992000030618004+44500+034170FM-12+007299999V0203301N999992200019N0260001N1+00321-00761102431ADDAA112000791AY101061AY211061GF103991031051012501001001KA1999M+00621MD1210301+9999MW1021REMSYN082AAXX  06181 33990 11676 33350 10032 21076 40243 52030 69902 70201 83500 333 10062;EQDQ01+005003WOSPD 
0112339900999992000030621004+44500+034170FM-12+007299999V0203301N004012200019N0270001N1+00221-00791102531ADDGF101991011051012501001001MD1210101+9999REMSYN060AAXX  06211 33990 42677 13304 10022 21079 40253 52010 81500;
0133339900999992000030700004+44500+034170FM-12+007299999V0203601N002012200019N0250001N1+00061-00591102611ADDGF101991011051012501001001MA1999999101691MD1110061+9999REMSYN066AAXX  07001 33990 42675 13602 10006 21059 30169 40261 51006 81500;
0138339900999992000030703004+44500+034170FM-12+007299999V0203201N002012200019N0280001N1+00041-00841102591ADDGF102991021051012501001001MD1810021+9999REMSYN086AAXX  07031 33990 42678 23202 10004 21084 40259 58002 82500 333 55042 555 20000 7990/;
0165339900999992000030706004+44500+034170FM-12+007299999V0200301N003012200019N0300001N1+00311-00881102591ADDAA199000091GF101991011051012501001001KA1999N+00001MD1310021+9999REMSYN070AAXX  07061 33990 32680 10303 10031 21088 40259 53002 81500 333 20000;EQDQ01  00002PRCP99
0112339900999992000030709004+44500+034170FM-12+007299999V0200601N002012200019N0350001N1+00511-00971102521ADDGF102991021051012501001001MD1810071+9999REMSYN060AAXX  07091 33990 42681 20602 10051 21097 40252 58007 82500;
0133339900999992000030712004+44500+034170FM-12+007299999V0202101N002010360019N0280001N1+00431-00671102421ADDGF106991031051008001051001MA1999999101521MD1610101+9999REMSYN066AAXX  07121 33990 42578 62102 10043 21067 30152 40242 56010 83550;
0112339900999992000030715004+44500+034170FM-12+007299999V0202101N002010360019N0260001N1+00371-00781102381ADDGF106991031051008001051001MD1810031+9999REMSYN060AAXX  07151 33990 42576 62102 10037 21078 40238 58003 83550;
0169339900999992000030718004+44500+034170FM-12+007299999V0202101N001019999999N0260001N1+99999+99999102201ADDAA199000091GF106991999051008001001001KA1999M+00411MD1710181+9999REMSYN058AAXX  07181 33990 32576 62101 40220 57018 83500 333 10041;EQDQ01+000032SCOTLCQ02  00002PRCP99
0112339900999992000030721004+44500+034170FM-12+007299999V0203101N001010075019N0200001N1+00351-00471102191ADDGF105991051051008001001001MD1710011+9999REMSYN060AAXX  07211 33990 42570 53101 10035 21047 40219 57001 85500;
0143339900999992000030800004+44500+034170FM-12+007299999V0200201N002012200019N0190001N1+00291-00471102101ADDGA1001+999999999GF100991001001999999001001MA1999999101211MD1710091+9999REMSYN060AAXX  08001 33990 42969 00202 10029 21047 30121 40210 57009;
0156339900999992000030803004+44500+034170FM-12+007299999V0200401N002012200019N0170001N1+00291-00161101981ADDGA1001+999999999GF100991001001999999001001GJ103309MD1710121+9999REMSYN080AAXX  08031 33990 42967 00402 10029 21016 40198 57012 333 55055 555 20027 7000/;
0165339900999992000030806004+44500+034170FM-12+007299999V0201501N001019999999N0150001N1+00511+00131102011ADDAA199000091GF108991041051999999041001KA1999N+00271MD1310031+9999REMSYN070AAXX  08061 33990 32965 81501 10051 20013 40201 53003 84540 333 20027;EQDQ01  00002PRCP99
0112339900999992000030809004+44500+034170FM-12+007299999V0202101N003010075019N0170001N1+00861+00211101871ADDGF108991061051008001071999MD1810131+9999REMSYN060AAXX  08091 33990 42567 82103 10086 20021 40187 58013 8657/;
0133339900999992000030812004+44500+034170FM-12+007299999V0201801N003010360019N0170001N1+01011+00341101701ADDGF107991021051008001031001MA1999999100821MD1710171+9999REMSYN066AAXX  08121 33990 42567 71803 10101 20034 30082 40170 57017 82530;
0112339900999992000030815004+44500+034170FM-12+007299999V0201801N002010360019N0190001N1+00861+00301101601ADDGF107991021051008001041011MD1710101+9999REMSYN060AAXX  08151 33990 42569 71802 10086 20030 40160 57010 82541;
0165339900999992000030818004+44500+034170FM-12+007299999V0203601N001012200019N0160001N1+00581+00181101641ADDAA199000091GF103991001001999999001011KA1999M+01031MD1310031+9999REMSYN070AAXX  08181 33990 32966 33601 10058 20018 40164 53003 80001 333 10103;EQDQ01  00002PRCP99
0122339900999992000030821004+44500+034170FM-12+007299999V0202701N002012200019N0180001N1+00461+00131101621ADDGA1001+999999999GF100991001001999999001001MD1610021+9999REMSYN054AAXX  08211 33990 42968 02702 10046 20013 40162 56002;
0133339900999992000030900004+44500+034170FM-12+007299999V0202301N002019999999N0190001N1+00521+00111101581ADDGF106991061001999999041001MA1999999100691MD1810041+9999REMSYN066AAXX  09001 33990 42969 62302 10052 20011 30069 40158 58004 86040;
0168339900999992000030903004+44500+034170FM-12+007299999V0203601N001010045019N0160001N1+00581+00371101421ADDGA1081+004509079GF108991081061004501999999GJ100549MD1710161+9999REMSYN092AAXX  09031 33990 42466 83601 10058 20037 40142 57016 886// 333 55009 88715 555 20041 7000/;
0165339900999992000030906004+44500+034170FM-12+007299999V0203601N001010900019N0100001N1+00621+00481101351ADDAA199000091GF107991031061004501001061KA1999N+00411MD1710071+9999REMSYN070AAXX  09061 33990 32460 73601 10062 20048 40135 57007 83606 333 20041;EQDQ01  00002PRCP99
0112339900999992000030909004+44500+034170FM-12+007299999V0202101N003010360019N0100001N1+01361+00651101091ADDGF106991011021012501041021MD1710221+9999REMSYN060AAXX  09091 33990 42660 62103 10136 20065 40109 57022 81242;
0127339900999992000030912004+44500+034170FM-12+007299999V0201801N003019999999N0110001N1+01061+00591100891ADDGF106991999999012501999999MA1999999100021MD1710221+9999REMSYN060AAXX  09121 33990 42661 61803 10106 20059 30002 40089 57022;
0112339900999992000030915004+44500+034170FM-12+007299999V0202101N002010360019N0140001N1+01101+00461100741ADDGF106991011011012501041021MD1710151+9999REMSYN060AAXX  09151 33990 42664 62102 10110 20046 40074 57015 81142;
0165339900999992000030918004+44500+034170FM-12+007299999V0203301N001012200019N0160001N1+00961+00411100631ADDAA199000091GF101991011001999999041001KA1999M+01571MD1710111+9999REMSYN070AAXX  09181 33990 32966 13301 10096 20041 40063 57011 81040 333 10157;EQDQ01  00002PRCP99
0112339900999992000030921004+44500+034170FM-12+007299999V0203601N001012200019N0120001N1+01031+00501100351ADDGF102991021001999999041001MD1710281+9999REMSYN060AAXX  09211 33990 42962 23601 10103 20050 40035 57028 82040;
0161339900999992000031000004+44500+034170FM-12+007299999V0202401N002010075019N0100001N1+01131+00741099991ADDAY181061AY221061GF108991081091008001999999MA1999999099141MD1710341+9999MW1801REMSYN072AAXX  10001 33990 41560 82402 10113 20074 39914 49999 57034 78082 889//;
0166339900999992000031003004+44500+034170FM-12+007299999V0202601N002010075019N0100001N1+00981+00651099641ADDAY181031AY221031GF108991081091008001999999MD1710361+9999MW1801REMSYN092AAXX  10031 33990 41560 82602 10098 20065 49964 57036 78082 889// 333 55050 555 20091 7002/;
0180339900999992000031006004+44500+034170FM-12+007299999V0203201N003010075019N0060001N1+00871+00561099661ADDAA112005191AY181061AY221061GF108991081091008001999999KA1999N+00871MD1310021+9999MW1811REMSYN082AAXX  10061 33990 11556 83203 10087 20056 49966 53002 60052 78182 889// 333 20087;
0140339900999992000031009004+44500+034170FM-12+007299999V0203001N008012200019N0280001N1+01081+00271100091ADDAY181031AY211031GF103991021021008001041001MD1310431+9999MW1021REMSYN066AAXX  10091 33990 41578 33008 10108 20027 40009 53043 70281 82240;
0161339900999992000031012004+44500+034170FM-12+007299999V0203301N006010360019N0300001N1+00971-00071100501ADDAY181061AY211061GF107991021021008001041021MA1999999099631MD1210401+9999MW1021REMSYN072AAXX  10121 33990 41580 73306 10097 21007 39963 40050 52040 70281 82242;
0112339900999992000031015004+44500+034170FM-12+007299999V0203401N004010120019N0210001N1+00711-00141100761ADDGF108991081091012501999999MD1210261+9999REMSYN060AAXX  10151 33990 42671 83404 10071 21014 40076 52026 889//;
0180339900999992000031018004+44500+034170FM-12+007299999V0203101N004010075019N0200001N1+00471-00161101051ADDAA112004191AY181061AY221061GF107991051021008001041001KA1999M+01141MD1210271+9999MW1021REMSYN082AAXX  10181 33990 11570 73104 10047 21016 40105 52027 60042 70282 85240 333 10114;
0112339900999992000031021004+44500+034170FM-12+007299999V0203401N004010360019N0220001N1+00441-00381101211ADDGF108991041051012501071999MD1110161+9999REMSYN060AAXX  10211 33990 42672 83404 10044 21038 40121 51016 8457/;
0143339900999992000031100004+44500+034170FM-12+007299999V0203301N003012200019N0270001N1+00281-00981101471ADDGA1001+999999999GF100991001001999999001001MA1999999100581MD1210261+9999REMSYN060AAXX  11001 33990 42977 03303 10028 21098 30058 40147 52026;
0138339900999992000031103004+44500+034170FM-12+007299999V0203401N002012200019N0280001N1+00201-00871101651ADDGF101991011001999999041001MD1210161+9999REMSYN086AAXX  11031 33990 42978 13402 10020 21087 40165 52016 81040 333 55052 555 20016 7007/;
0165339900999992000031106004+44500+034170FM-12+007299999V0203301N003010075019N0260001N1+00461-00591101851ADDAA199000091GF106991061021008001001001KA1999N+00161MD1210221+9999REMSYN070AAXX  11061 33990 32576 63303 10046 21059 40185 52022 86200 333 20016;EQDQ01  00002PRCP99
0112339900999992000031109004+44500+034170FM-12+007299999V0202401N003010075019N0270001N1+00521-00661102021ADDGF106991061021008001001001MD1210171+9999REMSYN060AAXX  11091 33990 42577 62403 10052 21066 40202 52017 86200;
0133339900999992000031112004+44500+034170FM-12+007299999V0203301N002010075019N0270001N1+00671-00721102021ADDGF106991061021008001001001MA1999999101131MD1010001+9999REMSYN066AAXX  11121 33990 42577 63302 10067 21072 30113 40202 50000 86200;
0112339900999992000031115004+44500+034170FM-12+007299999V0203401N002012200019N0260001N1+00411-00801102081ADDGF102991021051012501001001MD1310061+9999REMSYN060AAXX  11151 33990 42676 23402 10041 21080 40208 53006 82500;
0175339900999992000031118004+44500+034170FM-12+007299999V0201301N001012200019N0240001N1+00201-00771102131ADDAA199000091GA1001+999999999GF100991001001999999001001KA1999M+00731MD1210031+9999REMSYN064AAXX  11181 33990 32974 01301 10020 21077 40213 52003 333 10073;EQDQ01  00002PRCP99
0122339900999992000031121004+44500+034170FM-12+007299999V0202401N002012200019N0220001N1+00131-00751102171ADDGA1001+999999999GF100991001001999999001001MD1210041+9999REMSYN054AAXX  11211 33990 42972 02402 10013 21075 40217 52004;
0143339900999992000031200004+44500+034170FM-12+007299999V0202901N002012200019N0190001N1+00161-00541102031ADDGA1001+999999999GF100991001001999999001001MA1999999101121MD1810141+9999REMSYN060AAXX  12001 33990 42969 02902 10016 21054 30112 40203 58014;
0138339900999992000031203004+44500+034170FM-12+007299999V0203101N001010120019N0150001N1+00291-00361101791ADDGF106991061051012501001001MD1710221+9999REMSYN086AAXX  12031 33990 42665 63101 10029 21036 40179 57022 86500 333 55096 555 20013 7000/;
0165339900999992000031206004+44500+034170FM-12+007299999V0202101N002010075019N0130001N1+00481+00041101571ADDAA199000091GF108991081051008001999999KA1999N+00131MD1710221+9999REMSYN070AAXX  12061 33990 32563 82102 10048 20004 40157 57022 885// 333 20013;EQDQ01  00002PRCP99
0140339900999992000031209004+44500+034170FM-12+007299999V0201801N003010075019N0140001N1+00581+00151101341ADDAY181031AY221031GF108991081091008001999999MD1710231+9999MW1801REMSYN066AAXX  12091 33990 41564 81803 10058 20015 40134 57023 78082 889//;
0161339900999992000031212004+44500+034170FM-12+007299999V0203601N002010042019N0060001N1+00311+00231101031ADDAY181061AY221061GF108991081091004501999999MA1999999100141MD1710311+9999MW1811REMSYN072AAXX  12121 33990 41456 83602 10031 20023 30014 40103 57031 78182 889//;
0140339900999992000031215004+44500+034170FM-12+007299999V0203401N005010075019N0130001N1+00521+00221100781ADDAY181031AY221031GF107991071091008001001001MD1610251+9999MW1021REMSYN066AAXX  12151 33990 41563 73405 10052 20022 40078 56025 70282 87900;
0180339900999992000031218004+44500+034170FM-12+007299999V0203401N009010075019N0160001N1+00541-00011100911ADDAA112016091AY181061AY221061GF105991051031008001001001KA1999M+00591MD1310131+9999MW1021REMSYN082AAXX  12181 33990 11566 53409 10054 21001 40091 53013 60162 70282 85300 333 10059;
0140339900999992000031221004+44500+034170FM-12+007299999V0203401N007010075019N0140001N1+00481+00041101251ADDAY121031AY221031GF107991071091008001001001MD1210341+9999MW1251REMSYN066AAXX  12211 33990 41564 73407 10048 20004 40125 52034 72522 87900;
0161339900999992000031300004+44500+034170FM-12+007299999V0203601N008010075019N0130001N1+00261-00131101391ADDAY181061AY221061GF106991061091008001001001MA1999999100501MD1110141+9999MW1851REMSYN072AAXX  13001 33990 41563 63608 10026 21013 30050 40139 51014 78582 86900;
0166339900999992000031303004+44500+034170FM-12+007299999V0203601N009010075019N0150001N1+00091-00331101891ADDAY181031AY221031GF107991071091008001001001MD1210481+9999MW1021REMSYN092AAXX  13031 33990 41565 73609 10009 21033 40189 52048 70282 87900 333 55000 555 20009 7016/;
0180339900999992000031306004+44500+034170FM-12+007299999V0203401N008010075019N0170001N1+00111-00611102241ADDAA112000191AY181061AY221061GF106991061031008001001001KA1999N+00081MD1210351+9999MW1021REMSYN082AAXX  13061 33990 11567 63408 10011 21061 40224 52035 69912 70282 86300 333 20008;
0112339900999992000031309004+44500+034170FM-12+007299999V0203601N003010120019N0000001N1+00271-00671102471ADDGF107991071031012501001001MD1210241+9999REMSYN060AAXX  13091 33990 42690 73603 10027 21067 40247 52024 87300;
0161339900999992000031312004+44500+034170FM-12+007299999V0203401N003010120019N0210001N1+00361-00751102591ADDAY181061AY221061GF106991061091012501001001MA1999999101691MD1210121+9999MW1851REMSYN072AAXX  13121 33990 41671 63403 10036 21075 30169 40259 52012 78582 86900;
0140339900999992000031315004+44500+034170FM-12+007299999V0202101N002010075019N0250001N1+00211-00761102691ADDAY181031AY221031GF105991051091008001001001MD1210101+9999MW1021REMSYN066AAXX  13151 33990 41575 52102 10021 21076 40269 52010 70282 85900;
0180339900999992000031318004+44500+034170FM-12+007299999V0203601N005012200019N0210001N1+00031-00941102821ADDAA112000791AY181061AY211061GF102991021001999999041001KA1999M+00361MD1210111+9999MW1021REMSYN082AAXX  13181 33990 11971 23605 10003 21094 40282 52011 69902 70281 82040 333 10036;
0143339900999992000031400004+44500+034170FM-12+007299999V0203201N001012200019N0210001N1-00091-01221103051ADDGA1001+999999999GF100991001001999999001001MA1999999102131MD1210081+9999REMSYN060AAXX  14001 33990 42971 03201 11009 21122 30213 40305 52008;
0156339900999992000031403004+44500+034170FM-12+007299999V0202901N001012200019N0230001N1-00191-01031103111ADDGA1001+999999999GF100991001001999999001001GJ102109MD1210061+9999REMSYN080AAXX  14031 33990 42973 02901 11019 21103 40311 52006 333 55035 555 21019 7991/;
0175339900999992000031406004+44500+034170FM-12+007299999V0200901N001012200019N0250001N1+00291-00911103161ADDAA199000091GA1001+999999999GF100991001001999999001001KA1999N-00191MD1210071+9999REMSYN064AAXX  14061 33990 32975 00901 10029 21091 40316 52007 333 21019;EQDQ01  00002PRCP99
0086339900999992000031409004+44500+034170FM-12+007299999V0201301N002019999999N0280001N1+00541-00541103231ADDGF105991999999012501999999REMSYN048AAXX  14091 33990 43678 51302 10054 21054 40323;
0133339900999992000031412004+44500+034170FM-12+007299999V0201401N002010360019N0350001N1+00461-00631103181ADDGF105991021021012501041001MA1999999102281MD1810051+9999REMSYN066AAXX  14121 33990 42681 51402 10046 21063 30228 40318 58005 82240;
0112339900999992000031415004+44500+034170FM-12+007299999V0201301N001010120019N0300001N1+00281-00571103131ADDGF106991061051012501001001MD1710051+9999REMSYN060AAXX  14151 33990 42680 61301 10028 21057 40313 57005 86500;
0187339900999992000031418004+44500+034170FM-12+007299999V0203301N001010105019N0280001N1+00201-00521103081ADDAA199000091GA1071+010509059GF107991071051012501001001KA1120M+00641MD1710051+9999REMSYN076AAXX  14181 33990 32678 73301 10020 21052 40308 57005 87500 333 10064 87635;EQDQ01  00002PRCP99
0112339900999992000031421004+44500+034170FM-12+007299999V0203401N002010120019N0270001N1+00181-00551102951ADDGF107991071051012501001001MD1810151+9999REMSYN060AAXX  14211 33990 42677 73402 10018 21055 40295 58015 87500;
0133339900999992000031500004+44500+034170FM-12+007299999V0203401N001010120019N0270001N1+00061-00551102791ADDGF106991061051012501001001MA1999999101871MD1710161+9999REMSYN066AAXX  15001 33990 42677 63401 10006 21055 30187 40279 57016 86500;
0138339900999992000031503004+44500+034170FM-12+007299999V0203101N002010120019N0280001N1+00081-00651102591ADDGF106991061051012501001001MD1710201+9999REMSYN086AAXX  15031 33990 42678 63102 10008 21065 40259 57020 86500 333 55074 555 20005 7000/;
0199339900999992000031506004+44500+034170FM-12+007299999V0203501N002010120019N0300001N1+00271-00581102441ADDAA199000091GF106991061051012501001001IA1099IA2999-00209KA1120N+00051MD1710131+9999REMSYN086AAXX  15061 33990 32680 63502 10027 21058 40244 57013 86500 333 20005 555 31102 52103;EQDQ01  00002PRCP99
0112339900999992000031509004+44500+034170FM-12+007299999V0200801N003012200019N0300001N1+00561-00351102331ADDGF102991021051012501001001MD1710101+9999REMSYN060AAXX  15091 33990 42680 20803 10056 21035 40233 57010 82500;
0133339900999992000031512004+44500+034170FM-12+007299999V0200801N002012200019N0270001N1+00551-00221102131ADDGF106991031051012501001011MA1999999101241MD1710201+9999REMSYN066AAXX  15121 33990 42677 60802 10055 21022 30124 40213 57020 83501;
0112339900999992000031515004+44500+034170FM-12+007299999V0200501N001010900019N0260001N1+00501-00261102021ADDGF107991041051012501001021MD1710111+9999REMSYN060AAXX  15151 33990 42676 70501 10050 21026 40202 57011 84502;
0165339900999992000031518004+44500+034170FM-12+007299999V0203001N002010120019N0200001N1+00371-00291101951ADDAA199000091GF106991061051012501001001KA1999M+00591MD1710071+9999REMSYN070AAXX  15181 33990 32670 63002 10037 21029 40195 57007 86500 333 10059;EQDQ01  00002PRCP99
0112339900999992000031521004+44500+034170FM-12+007299999V0202901N002010900019N0160001N1+00291-00261101811ADDGF105991021051012501001021MD1710141+9999REMSYN060AAXX  15211 33990 42666 52902 10029 21026 40181 57014 82502;
0133339900999992000031600004+44500+034170FM-12+007299999V0202901N002012200019N0140001N1+00271-00151101661ADDGF102991001001999999001021MA1999999100771MD1710151+9999REMSYN066AAXX  16001 33990 42964 22902 10027 21015 30077 40166 57015 80002;
0138339900999992000031603004+44500+034170FM-12+007299999V0202801N001012200019N0140001N1+00311-00171101541ADDGF106991031051012501001011MD1710121+9999REMSYN086AAXX  16031 33990 42664 62801 10031 21017 40154 57012 83501 333 55077 555 20026 7000/;
0199339900999992000031606004+44500+034170FM-12+007299999V0200901N001019999999N0130001N1+00661+00221101471ADDAA199000091GF107991021001999999041021IA1099IA2999-00109KA1120N+00261MD1710071+9999REMSYN086AAXX  16061 33990 32963 70901 10066 20022 40147 57007 82042 333 20026 555 31101 52102;EQDQ01  00002PRCP99
0112339900999992000031609004+44500+034170FM-12+007299999V0200601N002010120019N0180001N1+00661+00301101321ADDGF108991081051012501999999MD1710131+9999REMSYN060AAXX  16091 33990 42668 80602 10066 20030 40132 57013 885//;
0133339900999992000031612004+44500+034170FM-12+007299999V0201601N002010075019N0170001N1+00681+00351101111ADDGF108991081051008001999999MA1999999100241MD1710211+9999REMSYN066AAXX  16121 33990 42567 81602 10068 20035 30024 40111 57021 885//;
0140339900999992000031615004+44500+034170FM-12+007299999V0201801N001010042019N0100001N1+00641+00551101001ADDAY181031AY221031GF108991081091004501999999MD1610131+9999MW1801REMSYN066AAXX  16151 33990 41460 81801 10064 20055 40100 56013 78082 889//;
0174339900999992000031617004+44500+034170FM-12+007299999V02099999999990042019N0110001N1+99999+99999101131ADDAA100003091AY181999AY221999GF108991081091004501999999KA1999M+00731MD1310131+9999MW1801REMSYN076AAXX  16171 33990 11461 827// 20051 40113 53013 6003/ 78082 889// 333 10073;
0180339900999992000031618004+44500+034170FM-12+007299999V0202701N001010042019N0110001N1+00601+00511101131ADDAA112003091AY181061AY221061GF108991081091004501999999KA1999M+00731MD1310131+9999MW1801REMSYN082AAXX  16181 33990 11461 82701 10060 20051 40113 53013 60032 78082 889// 333 10073;
0166339900999992000031621004+44500+034170FM-12+007299999V0202701N001010033019N0140001N1+00461+00391101161ADDAY181031AY221031GA1061+003309069GF107991061061004501031001MD1110031+9999MW1021REMSYN076AAXX  16211 33990 41464 72701 10046 20039 40116 51003 70282 86630 333 86711;
0161339900999992000031700004+44500+034170FM-12+007299999V0203601N002010360019N0160001N1+00351-00061101281ADDAY181061AY221061GF108991031051008001021999MA1999999100391MD1210121+9999MW1021REMSYN072AAXX  17001 33990 41566 83602 10035 21006 30039 40128 52012 70282 8352/;
0168339900999992000031703004+44500+034170FM-12+007299999V0202101N003010087019N0180001N1+00431-00121101251ADDGA1081+008709069GF108991081051008001999999GJ100969MD1810031+9999REMSYN092AAXX  17031 33990 42568 82103 10043 21012 40125 58003 885// 333 55016 88629 555 20029 7003/;
0208339900999992000031706004+44500+034170FM-12+007299999V0200901N002010084019N0250001N1+00451-00121101251ADDAA112000791GA1081+008409069GF108991081051008001999999IA1099IA2999+00309KA1120N+00291MD1510001+9999REMSYN098AAXX  17061 33990 12575 80902 10045 21012 40125 55000 69902 885// 333 20029 88628 555 31003 52001;
0112339900999992000031709004+44500+034170FM-12+007299999V0200901N002010360019N0210001N1+00581-00251101271ADDGF107991021021012501031001MD1210021+9999REMSYN060AAXX  17091 33990 42671 70902 10058 21025 40127 52002 82230;
0133339900999992000031712004+44500+034170FM-12+007299999V0200701N002010120019N0200001N1+00481+00011101231ADDGF108991081081008001999999MA1999999100341MD1810041+9999REMSYN066AAXX  17121 33990 42570 80702 10048 20001 30034 40123 58004 888//;
0112339900999992000031715004+44500+034170FM-12+007299999V0200501N002010075019N0180001N1+00431+00041101071ADDGF108991081051008001999999MD1710161+9999REMSYN060AAXX  17151 33990 42568 80502 10043 20004 40107 57016 885//;
0140339900999992000031721004+44500+034170FM-12+007299999V0200601N004010075019N0100001N1+00191+00031100811ADDAY181031AY221031GF108991081091008001999999MD1710191+9999MW1801REMSYN066AAXX  17211 33990 41560 80604 10019 20003 40081 57019 78082 889//;
0161339900999992000031800004+44500+034170FM-12+007299999V0200701N001010042019N0100001N1+00131+00051100651ADDAY181061AY221061GF108991081091004501999999MA1999999099751MD1710171+9999MW1801REMSYN072AAXX  18001 33990 41460 80701 10013 20005 39975 40065 57017 78082 889//;
0187339900999992000031803004+44500+034170FM-12+007299999V0203401N001010075019N0140001N1+00171+00061100471ADDAA124000021AY181031AY221031GF108991081091008001999999GJ100189MD1710181+9999MW1021REMSYN094AAXX  18031 33990 41564 83401 10017 20006 40047 57018 70282 889// 333 55003 555 20012 70001/ ;
0214339900999992000031806004+44500+034170FM-12+007299999V0203201N001010360019N0160001N1+00231-00021100271ADDAA112001091AY181061AY221061GF107991031021012501071001IA1099IA2999+00209KA1120N+00091MD1710191+9999MW1021REMSYN098AAXX  18061 33990 11666 73201 10023 21002 40027 57019 60012 70282 83270 333 20009 555 31002 52101;
0112339900999992000031809004+44500+034170FM-12+007299999V0203401N004010120019N0230001N1+00391-00341100411ADDGF108991051021012501071999MD1310041+9999REMSYN060AAXX  18091 33990 42673 83404 10039 21034 40041 53004 8527/;
0133339900999992000031812004+44500+034170FM-12+007299999V0203501N004010120019N0240001N1+00511-00461100461ADDGF108991061031012501071999MA1999999099571MD1210051+9999REMSYN066AAXX  18121 33990 42674 83504 10051 21046 39957 40046 52005 8637/;
0140339900999992000031815004+44500+034170FM-12+007299999V0203501N007010120019N0140001N1+00391-00411100541ADDAY181031AY221031GF107991071091012501001001MD1210081+9999MW1851REMSYN066AAXX  18151 33990 41664 73507 10039 21041 40054 52008 78582 87900;
0180339900999992000031818004+44500+034170FM-12+007299999V0203501N006010120019N0080001N1+00241-00361100731ADDAA112000191AY181061AY221061GF107991071091012501001001KA1999M+00601MD1310191+9999MW1851REMSYN082AAXX  18181 33990 11658 73506 10024 21036 40073 53019 69922 78582 87900 333 10060;
0140339900999992000031821004+44500+034170FM-12+007299999V0201301N002010075019N0100001N1+00221-00311100951ADDAY181031AY221031GF108991081091008001999999MD1210221+9999MW1851REMSYN066AAXX  18211 33990 41560 81302 10022 21031 40095 52022 78582 889//;
0161339900999992000031900004+44500+034170FM-12+007299999V0203401N003010075019N0100001N1+00231-00371101071ADDAY181061AY221061GF107991071091008001001001MA1999999100181MD1210121+9999MW1851REMSYN072AAXX  19001 33990 41560 73403 10023 21037 30018 40107 52012 78582 87900;
0166339900999992000031903004+44500+034170FM-12+007299999V0202501N001010360019N0200001N1+00251-00491101231ADDAY181031AY221031GF107991031021012501041001MD1210161+9999MW1021REMSYN092AAXX  19031 33990 41670 72501 10025 21049 40123 52016 70282 83240 333 55004 555 20017 7996/;
0214339900999992000031906004+44500+034170FM-12+007299999V0203001N003010360019N0260001N1+00501-00651101381ADDAA112000591AY181061AY221061GF107991011021012501041021IA1099IA2999+00009KA1120N+00171MD1210151+9999MW1021REMSYN098AAXX  19061 33990 11676 73003 10050 21065 40138 52015 69942 70282 81242 333 20017 555 31000 52101;
0112339900999992000031909004+44500+034170FM-12+007299999V0200801N003012200019N0350001N1+00721-00781101541ADDGF101991011021012501001001MD1210171+9999REMSYN060AAXX  19091 33990 42681 10803 10072 21078 40154 52017 81200;
0133339900999992000031912004+44500+034170FM-12+007299999V0201101N002012200019N0300001N1+00911-00411101571ADDGF103991031021012501001001MA1999999100691MD1110031+9999REMSYN066AAXX  19121 33990 42680 31102 10091 21041 30069 40157 51003 83200;
0112339900999992000031915004+44500+034170FM-12+007299999V0201201N001010900019N0260001N1+00581-00521101631ADDGF108991011021012501001071MD1210051+9999REMSYN060AAXX  19151 33990 42676 81201 10058 21052 40163 52005 81207;
0165339900999992000031918004+44500+034170FM-12+007299999V0202801N001010360019N0150001N1+00371-00331101671ADDAA199000091GF108991011021012501011071KA1999M+00961MD1110041+9999REMSYN070AAXX  19181 33990 32665 82801 10037 21033 40167 51004 81217 333 10096;EQDQ01  00002PRCP99
0112339900999992000031921004+44500+034170FM-12+007299999V0203001N002019999999N0140001N1+00311-00301101661ADDGF108991001001999999001071MD1810011+9999REMSYN060AAXX  19211 33990 42964 83002 10031 21030 40166 58001 80007;
0133339900999992000032000004+44500+034170FM-12+007299999V0209999C000019999999N0140001N1+00291-00291101651ADDGF108991001001999999001071MA1999999100761MD1710011+9999REMSYN066AAXX  20001 33990 42964 80000 10029 21029 30076 40165 57001 80007;
0138339900999992000032003004+44500+034170FM-12+007299999V02099999999999999999N0170001N1+00391-00741101661ADDGF108991081001999999071999MD1310011+9999REMSYN086AAXX  20031 33990 42967 801/2 10039 21074 40166 53001 8807/ 333 55087 555 20027 7000/;
0199339900999992000032006004+44500+034170FM-12+007299999V0203201N002019999999N0300001N1+00481-01151101791ADDAA199000091GF108991001001999999001021IA1099IA2999+00009KA1120N+00271MD1210131+9999REMSYN086AAXX  20061 33990 32980 83202 10048 21115 40179 52013 80002 333 20027 555 31000 52102;EQDQ01  00002PRCP99
0112339900999992000032009004+44500+034170FM-12+007299999V0200901N005012200019N0300001N1+00781-00821101811ADDGF103991001001999999001021MD1210031+9999REMSYN060AAXX  20091 33990 42980 30905 10078 21082 40181 52003 80002;
0133339900999992000032012004+44500+034170FM-12+007299999V0202701N003010075019N0280001N1+00781-00671101981ADDGF106991061021008001001001MA1999999101101MD1210171+9999REMSYN066AAXX  20121 33990 42578 62703 10078 21067 30110 40198 52017 86200;
0112339900999992000032015004+44500+034170FM-12+007299999V0202701N002010120019N0260001N1+00621-00501102071ADDGF106991061081008001001011MD1210081+9999REMSYN060AAXX  20151 33990 42576 62702 10062 21050 40207 52008 86801;
0165339900999992000032018004+44500+034170FM-12+007299999V0203401N002019999999N0240001N1+00231-00561102081ADDAA199000091GF107991001001999999001011KA1999M+00901MD1210011+9999REMSYN070AAXX  20181 33990 32974 73402 10023 21056 40208 52001 80001 333 10090;EQDQ01  00002PRCP99
0112339900999992000032021004+44500+034170FM-12+007299999V0202701N003019999999N0240001N1+00131-00581102091ADDGF106991001001999999001011MD1810011+9999REMSYN060AAXX  20211 33990 42974 62703 10013 21058 40209 58001 80001;
0161339900999992000032100004+44500+034170FM-12+007299999V0202901N001010075019N0100001N1+00281-00171102031ADDAY181061AY211061GF107991071091008001001001MA1999999101141MD1710041+9999MW1851REMSYN072AAXX  21001 33990 41560 72901 10028 21017 30114 40203 57004 78581 87900;
0166339900999992000032103004+44500+034170FM-12+007299999V0203201N002010075019N0140001N1+00221-00081101951ADDAY181031AY221031GF108991081091008001999999MD1710081+9999MW1021REMSYN092AAXX  21031 33990 41564 83202 10022 21008 40195 57008 70282 889// 333 55062 555 20007 7999/;
0231339900999992000032106004+44500+034170FM-12+007299999V0203201N001010075019N0027001N1+00071+00041101971ADDAA112006191AJ100019199999999AY181061AY221061GF108991081091008001999999IA2999-00109KA1120N+00041MD1010001+9999MW1861REMSYN104AAXX  21061 33990 11527 83201 10007 20004 40197 50000 60062 78682 889// 333 20004 43001 555 3/101 52104;
0140339900999992000032109004+44500+034170FM-12+007299999V0202901N002010075019N0080001N1+00131+00051101991ADDAY191031AY281031GF108991081091008001999999MD1310021+9999MW1961REMSYN066AAXX  21091 33990 41558 82902 10013 20005 40199 53002 79698 889//;
0180339900999992000032112004+44500+034170FM-12+007299999V0200901N001019999999N0180001N1+00621+00171101911ADDAY191061AY281061GF105991999091008001999999MA1999999101021MD1810061+9999MW1021REMSYN072AAXX  21121 33990 41568 50901 10062 20017 30102 40191 58006 70298 889//;EQDQ01+000082SCOTLC
0112339900999992000032115004+44500+034170FM-12+007299999V0202701N001010075019N0160001N1+00451+00121101911ADDGF106991061021008001001001MD1410001+9999REMSYN060AAXX  21151 33990 42566 62701 10045 20012 40191 54000 86200;
0152339900999992000032118004+44500+034170FM-12+007299999V0202101N001010075019N0150001N1+00251+00061101961ADDAA112007191GF108991081051008001999999KA1999M+00621MD1310051+9999REMSYN076AAXX  21181 33990 12565 82101 10025 20006 40196 53005 60072 885// 333 10062;
0140339900999992000032121004+44500+034170FM-12+007299999V0203001N001010075019N0100001N1+00191+00081101971ADDAY181031AY221031GF108991081091008001999999MD1210011+9999MW1871REMSYN066AAXX  21211 33990 41560 83001 10019 20008 40197 52001 78782 889//;
0161339900999992000032200004+44500+034170FM-12+007299999V0201801N001010120019N0120001N1+00111+00031101911ADDAY181061AY221061GF107991051051012501031011MA1999999101001MD1810081+9999MW1021REMSYN072AAXX  22001 33990 41662 71801 10011 20003 30100 40191 58008 70282 85531;
0162339900999992000032206004+44500+034170FM-12+007299999V0200301N001012200019N0180001N1+00441-00381101871ADDAA112004191GF101991011021012501001001KA1120N-00041MD1310051+9999REMSYN086AAXX  22061 33990 12668 10301 10044 21038 40187 53005 60042 81200 333 21004 555 52104;
0112339900999992000032209004+44500+034170FM-12+007299999V0200801N002010120019N0200001N1+00541-00071101931ADDGF107991071091012501001001MD1210061+9999REMSYN060AAXX  22091 33990 42670 70802 10054 21007 40193 52006 87900;
0161339900999992000032212004+44500+034170FM-12+007299999V0200801N002010120019N0210001N1+00641-00141101931ADDAY181061AY211061GF107991071091012501001001MA1999999101041MD1010001+9999MW1021REMSYN072AAXX  22121 33990 41671 70802 10064 21014 30104 40193 50000 70281 87900;
0140339900999992000032215004+44500+034170FM-12+007299999V0202901N002010120019N0140001N1+00481+00071101921ADDAY181031AY221031GF107991071091012501001001MD1610011+9999MW1801REMSYN066AAXX  22151 33990 41664 72902 10048 20007 40192 56001 78082 87900;
0180339900999992000032218004+44500+034170FM-12+007299999V0202901N001010075019N0130001N1+00251+00151102011ADDAA112002091AY181061AY221061GF106991061051008001001001KA1999M+00691MD1310091+9999MW1021REMSYN082AAXX  22181 33990 11563 62901 10025 20015 40201 53009 60022 70282 86500 333 10069;
0112339900999992000032221004+44500+034170FM-12+007299999V0202801N001012200019N0140001N1+00161-00151102061ADDGF101991011051008001001001MD1110031+9999REMSYN060AAXX  22211 33990 42564 12801 10016 21015 40206 51003 81500;
0133339900999992000032300004+44500+034170FM-12+007299999V0202901N001012200019N0140001N1+00121-00231102061ADDGF101991011051008001001001MA1999999101151MD1410001+9999REMSYN066AAXX  23001 33990 42564 12901 10012 21023 30115 40206 54000 81500;
0156339900999992000032303004+44500+034170FM-12+007299999V0202901N002012200019N0170001N1+00091-00371102041ADDGA1001+999999999GF100991001001999999001001GJ102709MD1810021+9999REMSYN080AAXX  23031 33990 42967 02902 10009 21037 40204 58002 333 55045 555 20006 7002/;
0209339900999992000032306004+44500+034170FM-12+007299999V0200401N001012200019N0250001N1+00611-00251102061ADDAA199000091GA1001+999999999GF100991001001999999001001IA1099IA2999-00109KA1120N+00061MD1310041+9999REMSYN080AAXX  23061 33990 32975 00401 10061 21025 40206 53004 333 20006 555 31101 52103;EQDQ01  00002PRCP99
0147339900999992000032309004+44500+034170FM-12+007299999V0201101N001010075019N0200001N1+00821+00061999999ADDGF105991051021008001001001MD1012032+9999REMSYN060AAXX  23091 33990 42570 51101 10082 20006 40115 50203 85200;EQDQ01+101153APOSLPQ02+002032APC3  
0133339900999992000032312004+44500+034170FM-12+007299999V0201701N002012200019N0220001N1+00811-00171101851ADDGF103991011051012501001091MA1999999100971MD1710181+9999REMSYN066AAXX  23121 33990 42672 31702 10081 21017 30097 40185 57018 81509;
0112339900999992000032315004+44500+034170FM-12+007299999V0201801N002010120019N0190001N1+00721+00001101811ADDGF106991051051012501001011MD1610041+9999REMSYN060AAXX  23151 33990 42669 61802 10072 21000 40181 56004 85501;
0175339900999992000032318004+44500+034170FM-12+007299999V0202101N001012200019N0140001N1+00351-00061101831ADDAA199000091GA1001+999999999GF100991001001999999001001KA1999M+00931MD1310011+9999REMSYN064AAXX  23181 33990 32964 02101 10035 21006 40183 53001 333 10093;EQDQ01  00002PRCP99
0122339900999992000032321004+44500+034170FM-12+007299999V0203001N001012200019N0160001N1+00271-00251101811ADDGA1001+999999999GF100991001001999999001001MD1810021+9999REMSYN054AAXX  23211 33990 42966 03001 10027 21025 40181 58002;
0143339900999992000032400004+44500+034170FM-12+007299999V0203001N001012200019N0170001N1+00251-00311101731ADDGA1001+999999999GF100991001001999999001001MA1999999100841MD1710081+9999REMSYN060AAXX  24001 33990 42967 03001 10025 21031 30084 40173 57008;
0138339900999992000032403004+44500+034170FM-12+007299999V0203001N002010120019N0170001N1+00331-00271101651ADDGF108991081051012501999999MD1710081+9999REMSYN086AAXX  24031 33990 42667 83002 10033 21027 40165 57008 885// 333 55095 555 20017 7000/;
0215339900999992000032406004+44500+034170FM-12+007299999V0200601N001012200019N0160001N1+00681-00181101721ADDAA199000091GF102991001001999999001051IA1099IA2999-00109KA1120N+00171MD1310071+9999REMSYN086AAXX  24061 33990 32966 20601 10068 21018 40172 53007 82005 333 20017 555 31101 52103;EQDQ01+000022SCOTLCQ02  00002PRCP99
0112339900999992000032409004+44500+034170FM-12+007299999V0200901N003012200019N0200001N1+00971+00271101691ADDGF102991021021008001001001MD1810021+9999REMSYN060AAXX  24091 33990 42570 20903 10097 20027 40169 58002 82200;
0133339900999992000032412004+44500+034170FM-12+007299999V0201801N002012200019N0240001N1+01351+00431101541ADDGF101991011021008001001001MA1999999100681MD1710131+9999REMSYN066AAXX  24121 33990 42574 11802 10135 20043 30068 40154 57013 81200;
0112339900999992000032415004+44500+034170FM-12+007299999V0201601N001012200019N0250001N1+01061+00251101521ADDGF101991011041008001001001MD1610041+9999REMSYN060AAXX  24151 33990 42575 11601 10106 20025 40152 56004 81400;
0175339900999992000032418004+44500+034170FM-12+007299999V0203401N001012200019N0190001N1+00631+00271101611ADDAA199000091GA1001+999999999GF100991001001999999001001KA1999M+01421MD1310081+9999REMSYN064AAXX  24181 33990 32969 03401 10063 20027 40161 53008 333 10142;EQDQ01  00002PRCP99
0122339900999992000032421004+44500+034170FM-12+007299999V0203401N001012200019N0200001N1+00501+00201101611ADDGA1001+999999999GF100991001001999999001001MD1410001+9999REMSYN054AAXX  24211 33990 42970 03401 10050 20020 40161 54000;
0133339900999992000032500004+44500+034170FM-12+007299999V0202701N003012200019N0240001N1+00721+00001101581ADDGF104991041001999999041001MA1999999100701MD1810021+9999REMSYN066AAXX  25001 33990 42974 42703 10072 21000 30070 40158 58002 84040;
0138339900999992000032503004+44500+034170FM-12+007299999V0202101N004019999999N0240001N1+00741+00211101651ADDGF107991061001999999041011MD1310071+9999REMSYN086AAXX  25031 33990 42974 72104 10074 20021 40165 53007 86041 333 55095 555 20044 7000/;
0236339900999992000032506004+44500+034170FM-12+007299999V0200901N003010057019N0210001N1+00591+00381101941ADDAA112000791AY181061AY211061GA1061+005709099GF107991061091004501071001IA1019IA2999+00209KA1120N+00441MD1210281+9999MW1021REMSYN104AAXX  25061 33990 11471 70903 10059 20038 40194 52028 69902 70281 86970 333 20044 86919 555 30002 52000;
0138339900999992000032509004+44500+034170FM-12+007299999V0200901N002010042019N0180001N1+00441+00271102231ADDGA1081+004209069GF108991081061004501999999MD1210291+9999REMSYN070AAXX  25091 33990 42468 80902 10044 20027 40223 52029 886// 333 88714;
0133339900999992000032512004+44500+034170FM-12+007299999V0201201N002010075019N0250001N1+00641+00081102311ADDGF106991061051008001001001MA1999999101421MD1110081+9999REMSYN066AAXX  25121 33990 42575 61202 10064 20008 30142 40231 51008 86500;
0112339900999992000032515004+44500+034170FM-12+007299999V0201401N001012200019N0280001N1+00481-00051102401ADDGF102991021051008001001001MD1210081+9999REMSYN060AAXX  25151 33990 42578 21401 10048 21005 40240 52008 82500;
0175339900999992000032518004+44500+034170FM-12+007299999V0202901N001012200019N0220001N1+00291-00041102601ADDAA199000091GA1001+999999999GF100991001001999999001001KA1999M+00781MD1210201+9999REMSYN064AAXX  25181 33990 32972 02901 10029 21004 40260 52020 333 10078;EQDQ01  00002PRCP99
0133339900999992000032600004+44500+034170FM-12+007299999V0203001N001012200019N0240001N1+00251-00451102711ADDGF102991001001999999001011MA1999999101811MD1410001+9999REMSYN066AAXX  26001 33990 42974 23001 10025 21045 30181 40271 54000 80001;
0133339900999992000032603004+44500+034170FM-12+007299999V0203001N001012200019N0240001N1+00251-00451102711ADDGF102991001001999999001011MA1999999101811MD1410001+9999REMSYN066AAXX  26031 33990 42974 23001 10025 21045 30181 40271 54000 80001;
0199339900999992000032606004+44500+034170FM-12+007299999V0200401N002019999999N0260001N1+00751-00471102711ADDAA199000091GF107991001001999999001021IA1099IA2999-00109KA1120N+00211MD1310031+9999REMSYN086AAXX  26061 33990 32976 70402 10075 21047 40271 53003 80002 333 20021 555 31101 52102;EQDQ01  00002PRCP99
0112339900999992000032609004+44500+034170FM-12+007299999V0201001N002019999999N0300001N1+00911-00781102671ADDGF107991041001999999041021MD1810041+9999REMSYN060AAXX  26091 33990 42980 71002 10091 21078 40267 58004 84042;
0133339900999992000032612004+44500+034170FM-12+007299999V0200901N002019999999N0280001N1+00741-00411102541ADDGF108991081001999999071999MA1999999101651MD1710131+9999REMSYN066AAXX  26121 33990 42978 80902 10074 21041 30165 40254 57013 8807/;
0112339900999992000032615004+44500+034170FM-12+007299999V0200501N001019999999N0260001N1+00691+00001102401ADDGF107991071001999999071001MD1710141+9999REMSYN060AAXX  26151 33990 42976 70501 10069 20000 40240 57014 87070;
0165339900999992000032618004+44500+034170FM-12+007299999V0203601N001019999999N0250001N1+00591+00081102381ADDAA199000091GF107991071001999999051001KA1999M+01001MD1610021+9999REMSYN070AAXX  26181 33990 32975 73601 10059 20008 40238 56002 87050 333 10100;EQDQ01  00002PRCP99
0112339900999992000032621004+44500+034170FM-12+007299999V0203101N001019999999N0250001N1+00511-00141102251ADDGF106991061001999999031001MD1810131+9999REMSYN060AAXX  26211 33990 42975 63101 10051 21014 40225 58013 86030;
0133339900999992000032700004+44500+034170FM-12+007299999V0202601N001019999999N0240001N1+00521+00001102131ADDGF108991081001999999071999MA1999999101241MD1710121+9999REMSYN066AAXX  27001 33990 42974 82601 10052 20000 30124 40213 57012 8807/;
0138339900999992000032703004+44500+034170FM-12+007299999V0202901N001019999999N0220001N1+00511+00161102071ADDGF107991071001999999071001MD1610061+9999REMSYN086AAXX  27031 33990 42972 72901 10051 20016 40207 56006 87070 333 55042 555 20047 7000/;
0215339900999992000032706004+44500+034170FM-12+007299999V0201201N001019999999N0200001N1+00701+00381102091ADDAA199000091GF107991999001999999071999IA1019IA2999+00409KA1120N+00471MD1310031+9999REMSYN086AAXX  27061 33990 32970 71201 10070 20038 40209 53003 8807/ 333 20047 555 30004 52003;EQDQ01+000082SCOTLCQ02  00002PRCP99
0112339900999992000032709004+44500+034170FM-12+007299999V0200801N002019999999N0200001N1+00831+00501102071ADDGF108991081001999999071999MD1810021+9999REMSYN060AAXX  27091 33990 42970 80802 10083 20050 40207 58002 8807/;
0152339900999992000032712004+44500+034170FM-12+007299999V0200701N001019999999N0170001N1+00841+99999101951ADDGF105991051001999999071001MA1999999101071MD1710121+9999REMSYN066AAXX  27121 33990 42967 50701 10084 21062 30107 40195 57012 85070;EQDQ01-000623ATOD  
0131339900999992000032715004+44500+034170FM-12+007299999V0200101N001010150019N0180001N1+00791+00701101951ADDGF107991999001017501071001MD1410001+9999REMSYN060AAXX  27151 33990 42768 70101 10079 20070 40195 54000 85070;EQDQ01+000052SCOTLC
0165339900999992000032718004+44500+034170FM-12+007299999V0200101N001019999999N0160001N1+00651+00581101951ADDAA199000091GF105991051001999999071001KA1999M+00981MD1410001+9999REMSYN070AAXX  27181 33990 32966 50101 10065 20058 40195 54000 85070 333 10098;EQDQ01  00002PRCP99
0112339900999992000032721004+44500+034170FM-12+007299999V0201801N001010360019N0160001N1+00681+00591101791ADDGF105991021051012501071001MD1810161+9999REMSYN060AAXX  27211 33990 42666 51801 10068 20059 40179 58016 82570;
0133339900999992000032800004+44500+034170FM-12+007299999V0202201N001012200019N0150001N1+00681+00591101781ADDGF102991021051012501001001MA1999999100901MD1710011+9999REMSYN066AAXX  28001 33990 42665 22201 10068 20059 30090 40178 57001 82500;
0173339900999992000032803004+44500+034170FM-12+007299999V0202101N001012200019N0200001N1+00841+00411999999ADDGF102991021051022501001001MD1710121+9999REMSYN086AAXX  28031 33990 42870 22101 10084 20041 40078 57012 82500 333 55019 555 20065 7000/;EQDQ01+100783APOSLPQ02 100783APOSLP
0185339900999992000032806004+44500+034170FM-12+007299999V0202901N002019999999N0120001N1+00841+00681101721ADDAA112000891AY181061AY211061GF107991999999012501999999IA1099IA2999+00509MD1010061+9999MW1021REMSYN082AAXX  28061 33990 11662 72902 10084 20068 40172 50006 69972 70281 555 31005 52000;
0112339900999992000032809004+44500+034170FM-12+007299999V0200501N001010360019N0130001N1+01061+00611101721ADDGF107991021051012501051091MD1410001+9999REMSYN060AAXX  28091 33990 42663 70501 10106 20061 40172 54000 82559;
0133339900999992000032812004+44500+034170FM-12+007299999V0201801N002012200019N0180001N1+01301+00561101661ADDGF107991021021012501001011MA1999999100801MD1810041+9999REMSYN066AAXX  28121 33990 42668 71802 10130 20056 30080 40166 58004 82201;
0112339900999992000032815004+44500+034170FM-12+007299999V0203401N001019999999N0150001N1+00961+00761101611ADDGF106991021001999999041021MD1710071+9999REMSYN060AAXX  28151 33990 42965 63401 10096 20076 40161 57007 82042;
0175339900999992000032818004+44500+034170FM-12+007299999V0202101N001012200019N0130001N1+00781+00701101651ADDAA199000091GA1001+999999999GF100991001001999999001001KA1999M+01431MD1310041+9999REMSYN064AAXX  28181 33990 32963 02101 10078 20070 40165 53004 333 10143;EQDQ01  00002PRCP99
0122339900999992000032821004+44500+034170FM-12+007299999V0200601N002012200019N0150001N1+00721+00611101681ADDGA1001+999999999GF100991001001999999001001MD1210031+9999REMSYN054AAXX  28211 33990 42965 00602 10072 20061 40168 52003;
0143339900999992000032900004+44500+034170FM-12+007299999V0203201N001012200019N0140001N1+00691+00621101681ADDGA1001+999999999GF100991001001999999001001MA1999999100801MD1410001+9999REMSYN060AAXX  29001 33990 42964 03201 10069 20062 30080 40168 54000;
0137339900999992000032901004+44500+034170FM-12+007299999V0203201N001012200019N0140001N1+99999+99999101681ADDGA1001+999999999GF100991001001999999001001MA1999999100801MD1410001+9999REMSYN054AAXX  29011 33990 42964 03201 20062 30080 40168 54000;
0138339900999992000032903004+44500+034170FM-12+007299999V0200301N002012200019N0160001N1+00801+00621101651ADDGF101991001001999999001021MD1810031+9999REMSYN086AAXX  29031 33990 42966 10302 10080 20062 40165 58003 80002 333 55066 555 20066 7997/;
0197339900999992000032906004+44500+034170FM-12+007299999V0200901N001019999999N0180001N1+01341+00821101691ADDAA199000091GF106991001001999999001011IA1099IA2999+00409KA1120N+00661MD1210061+9999REMSYN084AAXX  29061 33990 32968 60901 10134 20082 40169 52006 80001 333 20066 555 31004 520;EQDQ01  00002PRCP99
0112339900999992000032909004+44500+034170FM-12+007299999V0202101N003012200019N0180001N1+02021+00131101741ADDGF102991001001999999001021MD1210061+9999REMSYN060AAXX  29091 33990 42968 22103 10202 20013 40174 52006 80002;
0133339900999992000032912004+44500+034170FM-12+007299999V0202701N002019999999N0190001N1+02061+00301101751ADDGF106991001001999999001021MA1999999100901MD1210011+9999REMSYN066AAXX  29121 33990 42969 62702 10206 20030 30090 40175 52001 80002;
0112339900999992000032915004+44500+034170FM-12+007299999V0201901N002019999999N0180001N1+01001+00761101881ADDGF107991001001999999001021MD1210101+9999REMSYN060AAXX  29151 33990 42968 71902 10100 20076 40188 52010 80002;
0165339900999992000032918004+44500+034170FM-12+007299999V0202101N001012200019N0160001N1+00951+00711102141ADDAA199000091GF101991001001999999001011KA1999M+02121MD1210261+9999REMSYN070AAXX  29181 33990 32966 12101 10095 20071 40214 52026 80001 333 10212;EQDQ01  00002PRCP99
0122339900999992000032921004+44500+034170FM-12+007299999V0202301N001012200019N0100001N1+00801+00671102181ADDGA1001+999999999GF100991001001999999001001MD1210041+9999REMSYN054AAXX  29211 33990 42960 02301 10080 20067 40218 52004;
0159339900999992000033000004+44500+034170FM-12+007299999V0202901N001010030019N0100001N1+00821+00671102191ADDGA1081+003009069GF108991081061004501999999MA1999999101311MD1210011+9999REMSYN076AAXX  30001 33990 42460 82901 10082 20067 30131 40219 52001 886// 333 88710;
0168339900999992000033003004+44500+034170FM-12+007299999V0201801N001010069019N0110001N1+00941+00641102211ADDGA1081+006909069GF108991081051008001999999GJ105769MD1210021+9999REMSYN092AAXX  30031 33990 42561 81801 10094 20064 40221 52002 885// 333 55096 88623 555 20070 7000/;
0197339900999992000033006004+44500+034170FM-12+007299999V0200701N001010048019N0100001N1+00921+00731102281ADDAA199000091GA1081+004809079GF108991081061004501999999KA1120N+00701MD1210071+9999REMSYN086AAXX  30061 33990 32460 80701 10092 20073 40228 52007 886// 333 20070 88716 555 52005;EQDQ01  00002PRCP99
0140339900999992000033009004+44500+034170FM-12+007299999V0200701N003010012019N0025001N1+00761+00671102331ADDAY141031AY221031GF108991081061001501999999MD1110051+9999MW1281REMSYN066AAXX  30091 33990 41225 80703 10076 20067 40233 51005 72842 886//;
0187339900999992000033012004+44500+034170FM-12+007299999V0200801N003010012019N0030001N1+00791+00701102181ADDAY141061AY221061GA1081+001209069GF108991081061001501999999MA1999999101301MD1810151+9999MW1101REMSYN082AAXX  30121 33990 41230 80803 10079 20070 30130 40218 58015 71042 886// 333 88704;
0112339900999992000033015004+44500+034170FM-12+007299999V0200801N002010021019N0100001N1+00801+00621102051ADDGF108991081061002501999999MD1710131+9999REMSYN060AAXX  30151 33990 42360 80802 10080 20062 40205 57013 886//;
0165339900999992000033018004+44500+034170FM-12+007299999V0202101N001012200019N0100001N1+00731+00591102031ADDAA199000091GF102991021061004501001001KA1999M+00931MD1610021+9999REMSYN070AAXX  30181 33990 32460 22101 10073 20059 40203 56002 82600 333 10093;EQDQ01  00002PRCP99
0112339900999992000033021004+44500+034170FM-12+007299999V0200401N001010042019N0100001N1+00671+00531101921ADDGF107991071061004501001001MD1810111+9999REMSYN060AAXX  30211 33990 42460 70401 10067 20053 40192 58011 87600;
0143339900999992000033100004+44500+034170FM-12+007299999V0202901N001012200019N0100001N1+00521+00451101771ADDGA1001+999999999GF100991001001999999001001MA1999999100881MD1710161+9999REMSYN060AAXX  31001 33990 42960 02901 10052 20045 30088 40177 57016;
0156339900999992000033103004+44500+034170FM-12+007299999V0202001N001012200019N0140001N1+00521+00431101601ADDGA1001+999999999GF100991001001999999001001GJ100009MD1710171+9999REMSYN080AAXX  31031 33990 42964 02001 10052 20043 40160 57017 333 55000 555 20049 7000/;
0227339900999992000033106004+44500+034170FM-12+007299999V0200901N002012200019N0090001N1+00881+00671101641ADDAA199000091AY101061AY201061GF101991011001999999031001IA1019IA2999+00209KA1120N+00491MD1310051+9999MW1101REMSYN092AAXX  31061 33990 31959 10902 10088 20067 40164 53005 71000 81030 333 20049 555 30002 52002;EQDQ01  00002PRCP99
0140339900999992000033109004+44500+034170FM-12+007299999V0200701N002010021019N0090001N1+00841+00671101601ADDAY111031AY211031GF108991081061002501999999MD1810041+9999MW1101REMSYN066AAXX  31091 33990 41359 80702 10084 20067 40160 58004 71011 886//;
0133339900999992000033112004+44500+034170FM-12+007299999V0200801N002019999999N0150001N1+01001+00681101481ADDGF106991061001999999071001MA1999999100601MD1710121+9999REMSYN066AAXX  31121 33990 42965 60802 10100 20068 30060 40148 57012 86070;
0112339900999992000033115004+44500+034170FM-12+007299999V0201401N001010360019N0140001N1+00841+00711101291ADDGF106991021061012501081001MD1610181+9999REMSYN060AAXX  31151 33990 42664 61401 10084 20071 40129 56018 82680;
0165339900999992000033118004+44500+034170FM-12+007299999V0201501N001010042019N0120001N1+00741+00671101351ADDAA199000091GF106991061061004501001001KA1999M+01081MD1310061+9999REMSYN070AAXX  31181 33990 32462 61501 10074 20067 40135 53006 86600 333 10108;EQDQ01  00002PRCP99
0138339900999992000033121004+44500+034170FM-12+007299999V0203401N001010051019N0120001N1+00721+00641101331ADDGA1081+005109069GF108991081061004501999999MD1810021+9999REMSYN070AAXX  31211 33990 42462 83401 10072 20064 40133 58002 886// 333 88717;
0133339900999992000040100004+44500+034170FM-12+007299999V0200701N002010042019N0120001N1+00711+00591101381ADDGF108991081061004501999999MA1999999100501MD1310041+9999REMSYN066AAXX  01001 33990 42462 80702 10071 20059 30050 40138 53004 886//;
0138339900999992000040103004+44500+034170FM-12+007299999V0202401N001010360019N0140001N1+00561+00491101431ADDGF106991021061008001041001MD1210051+9999REMSYN086AAXX  01031 33990 42564 62401 10056 20049 40143 52005 82640 333 55051 555 20056 7000/;
0206339900999992000040106004+44500+034170FM-12+007299999V0200701N00101003001CN0110001N1+99999+99999999999ADDAA199000091GA1081+003009079GF108991999999004501999999IA1099IA2999+00309KA1120N+00521REMSYN091AAXX  01061 33990 32461 80701 1007 20059 40175 52032 886// 333 20052 88710 555 31003 52002;EQDQ01  00002PRCP99
0112339900999992000040109004+44500+034170FM-12+007299999V0200501N001019999999N0120001N1+00961+00641101791ADDGF108991051001999999031011MD1110041+9999REMSYN060AAXX  01091 33990 42962 80501 10096 20064 40179 51004 85031;
0133339900999992000040112004+44500+034170FM-12+007299999V0200901N001019999999N0140001N1+00981+00641101781ADDGF108991001001999999001011MA1999999100901MD1710011+9999REMSYN066AAXX  01121 33990 42964 80901 10098 20064 30090 40178 57001 80001;
0112339900999992000040115004+44500+034170FM-12+007299999V0209999C000012200019N0190001N1+00931+00581101741ADDGF102991021001999999031001MD1510041+9999REMSYN060AAXX  01151 33990 42969 20000 10093 20058 40174 55004 82030;
0175339900999992000040118004+44500+034170FM-12+007299999V0202701N002012200019N0250001N1+00971+00061101731ADDAA199000091GA1001+999999999GF100991001001999999001001KA1999M+01121MD1510011+9999REMSYN064AAXX  01181 33990 32975 02702 10097 20006 40173 55001 333 10112;EQDQ01  00002PRCP99
0122339900999992000040121004+44500+034170FM-12+007299999V0202901N003012200019N0350001N1+01281-00411101591ADDGA1001+999999999GF100991001001999999001001MD1810121+9999REMSYN054AAXX  01211 33990 42981 02903 10128 21041 40159 58012;
0143339900999992000040200004+44500+034170FM-12+007299999V0203301N001012200019N0300001N1+01351-00021101421ADDGA1001+999999999GF100991001001999999001001MA1999999100561MD1610171+9999REMSYN060AAXX  02001 33990 42980 03301 10135 21002 30056 40142 56017;
0138339900999992000040203004+44500+034170FM-12+007299999V0201601N002019999999N0280001N1+01151+00131101291ADDGF106991061001999999071001MD1710141+9999REMSYN086AAXX  02031 33990 42978 61602 10115 20013 40129 57014 86070 333 55061 555 20089 7000/;
0175339900999992000040206004+44500+034170FM-12+007299999V0202101N001019999999N0260001N1+01501+00251101221ADDAA199000091GF107991001001999999001011KA1120N+00891MD1710051+9999REMSYN080AAXX  02061 33990 32976 72101 10150 20025 40122 57005 80001 333 20089 555 52005;EQDQ01  00002PRCP99
0112339900999992000040209004+44500+034170FM-12+007299999V0201201N001019999999N0200001N1+01601+00511101181ADDGF107991061001999999031011MD1710041+9999REMSYN060AAXX  02091 33990 42970 71201 10160 20051 40118 57004 86031;
0133339900999992000040212004+44500+034170FM-12+007299999V0200601N002019999999N0200001N1+01301+00651101001ADDGF107991041001999999031011MA1999999100151MD1710181+9999REMSYN066AAXX  02121 33990 42970 70602 10130 20065 30015 40100 57018 84031;
0112339900999992000040215004+44500+034170FM-12+007299999V0200901N001019999999N0180001N1+01101+00841100931ADDGF107991051001999999071021MD1610071+9999REMSYN060AAXX  02151 33990 42968 70901 10110 20084 40093 56007 85072;
0165339900999992000040218004+44500+034170FM-12+007299999V0202901N001019999999N0160001N1+01301+00701101031ADDAA199000091GF107991071001999999071001KA1999M+01651MD1310101+9999REMSYN070AAXX  02181 33990 32966 72901 10130 20070 40103 53010 87070 333 10165;EQDQ01  00002PRCP99
0140339900999992000040221004+44500+034170FM-12+007299999V0203001N003010075019N0140001N1+01401+00981101011ADDAY181031AY221031GF108991081091008001999999MD1810021+9999MW1801REMSYN066AAXX  02211 33990 41564 83003 10140 20098 40101 58002 78082 889//;
0161339900999992000040300004+44500+034170FM-12+007299999V0201801N001010075019N0150001N1+01201+01061100991ADDAY181061AY221061GF108991081091008001999999MA1999999100141MD1710021+9999MW1251REMSYN072AAXX  03001 33990 41565 81801 10120 20106 30014 40099 57002 72582 889//;
0138339900999992000040303004+44500+034170FM-12+007299999V0203201N003012200019N0180001N1+01391+00551101031ADDGF102991021051012501001001MD1310041+9999REMSYN086AAXX  03031 33990 42668 23203 10139 20055 40103 53004 82500 333 55026 555 20105 7003/;
0152339900999992000040306004+44500+034170FM-12+007299999V0202401N002012200019N0270001N1+01661+00591101271ADDAA112003091GF101991011021012501001001KA1999N+01051MD1210251+9999REMSYN076AAXX  03061 33990 12677 12402 10166 20059 40127 52025 60032 81200 333 20105;
0122339900999992000040309004+44500+034170FM-12+007299999V0202101N003012200019N0350001N1+01941+00231101321ADDGA1001+999999999GF100991001001999999001001MD1110051+9999REMSYN054AAXX  03091 33990 42981 02103 10194 20023 40132 51005;
0133339900999992000040312004+44500+034170FM-12+007299999V0202201N004012200019N0350001N1+01961+00231101361ADDGF101991011021012501001001MA1999999100511MD1010031+9999REMSYN066AAXX  03121 33990 42681 12204 10196 20023 30051 40136 50003 81200;
0122339900999992000040315004+44500+034170FM-12+007299999V0203301N001012200019N0280001N1+01671+00291101471ADDGA1001+999999999GF100991001001999999001001MD1310111+9999REMSYN054AAXX  03151 33990 42978 03301 10167 20029 40147 53011;
0175339900999992000040318004+44500+034170FM-12+007299999V0203401N001012200019N0270001N1+01301+00171101581ADDAA199000091GA1001+999999999GF100991001001999999001001KA1999M+02021MD1210101+9999REMSYN064AAXX  03181 33990 32977 03401 10130 20017 40158 52010 333 10202;EQDQ01  00002PRCP99
0122339900999992000040321004+44500+034170FM-12+007299999V0202901N001012200019N0240001N1+00961+00451101701ADDGA1001+999999999GF100991001001999999001001MD1210101+9999REMSYN054AAXX  03211 33990 42974 02901 10096 20045 40170 52010;
0118339900999992000040400004+44500+034170FM-12+007299999V0203001N002019999999N0230001N1+00911+00111999999ADDGF107991999999999999999999MA1999999100761REMSYN065AAXX  04001 33990 42973 73002 10091 20011 30076 4016 58006 80002;
0138339900999992000040403004+44500+034170FM-12+007299999V0202001N001019999999N0200001N1+00881+00591101581ADDGF107991071001999999071001MD1710061+9999REMSYN086AAXX  04031 33990 42970 72001 10088 20059 40158 57006 87070 333 55106 555 20077 7000/;
0165339900999992000040406004+44500+034170FM-12+007299999V0202801N001019999999N0250001N1+01041+00531101611ADDAA199000091GF107991071001999999071001KA1999N+00771MD1310031+9999REMSYN070AAXX  04061 33990 32975 72801 10104 20053 40161 53003 87070 333 20077;EQDQ01  00002PRCP99
0112339900999992000040409004+44500+034170FM-12+007299999V0201001N001019999999N0260001N1+01301+00561101611ADDGF107991071001999999071001MD1110021+9999REMSYN060AAXX  04091 33990 42976 71001 10130 20056 40161 51002 87070;
0133339900999992000040412004+44500+034170FM-12+007299999V0200201N001019999999N0260001N1+01291+00551101541ADDGF107991021001999999071011MA1999999100681MD1810071+9999REMSYN066AAXX  04121 33990 42976 70201 10129 20055 30068 40154 58007 82071;
0112339900999992000040415004+44500+034170FM-12+007299999V0201901N001019999999N0280001N1+01381+00531101401ADDGF107991071001999999071001MD1710141+9999REMSYN060AAXX  04151 33990 42978 71901 10138 20053 40140 57014 87070;
0165339900999992000040418004+44500+034170FM-12+007299999V0201701N001010360019N0300001N1+01381+00361101381ADDAA199000091GF108991041051012501051999KA1999M+01431MD1510021+9999REMSYN070AAXX  04181 33990 32680 81701 10138 20036 40138 55002 8455/ 333 10143;EQDQ01  00002PRCP99
0122339900999992000040421004+44500+034170FM-12+007299999V0203001N002012200019N0180001N1+01071+00891101351ADDGA1001+999999999GF100991001001999999001001MD1810041+9999REMSYN054AAXX  04211 33990 42968 03002 10107 20089 40135 58004;
0143339900999992000040500004+44500+034170FM-12+007299999V0202901N001012200019N0210001N1+01061+00481101281ADDGA1001+999999999GF100991001001999999001001MA1999999100411MD1710071+9999REMSYN060AAXX  05001 33990 42971 02901 10106 20048 30041 40128 57007;
0156339900999992000040503004+44500+034170FM-12+007299999V0202201N001012200019N0190001N1+01041+00591101231ADDGA1001+999999999GF100991001001999999001001GJ101749MD1710051+9999REMSYN080AAXX  05031 33990 42969 02201 10104 20059 40123 57005 333 55029 555 20096 7000/;
0165339900999992000040506004+44500+034170FM-12+007299999V0209999C000019999999N0210001N1+01581+00711101211ADDAA199000091GF108991001001999999001071KA1999N+00961MD1010001+9999REMSYN070AAXX  05061 33990 32971 80000 10158 20071 40121 50000 80007 333 20096;EQDQ01  00002PRCP99
0112339900999992000040509004+44500+034170FM-12+007299999V0200601N001019999999N0240001N1+01421+00821101211ADDGF108991001001999999001011MD1010001+9999REMSYN060AAXX  05091 33990 42974 80601 10142 20082 40121 50000 80001;
0133339900999992000040512004+44500+034170FM-12+007299999V0201201N001019999999N0260001N1+01571+00731100921ADDGF108991021001999999031011MA1999999100071MD1710291+9999REMSYN066AAXX  05121 33990 42976 81201 10157 20073 30007 40092 57029 82031;
0112339900999992000040515004+44500+034170FM-12+007299999V0202101N002010120019N0200001N1+01701+01001100671ADDGF108991051061012501051999MD1810241+9999REMSYN060AAXX  05151 33990 42670 82102 10170 20100 40067 58024 8565/;
0193339900999992000040518004+44500+034170FM-12+007299999V0202701N002019999999N0240001N1+01541+00741100461ADDAA199000091AY121061AY221061GF108991081001999999051999KA1999M+01721MD1710221+9999MW1131REMSYN076AAXX  05181 33990 31974 82702 10154 20074 40046 57022 71322 8805/ 333 10172;EQDQ01  00002PRCP99
0140339900999992000040521004+44500+034170FM-12+007299999V0202401N003010360019N0240001N1+01421+01341100441ADDAY191031AY281031GF108991041091008001051999MD1710021+9999MW1171REMSYN066AAXX  05211 33990 41574 82403 10142 20134 40044 57002 71798 8495/;
0161339900999992000040600004+44500+034170FM-12+007299999V0202901N002012200019N0250001N1+01121+01001100461ADDAY191061AY281061GF102991021001999999031001MA1999999099611MD1210021+9999MW1021REMSYN072AAXX  06001 33990 41975 22902 10112 20100 39961 40046 52002 70298 82030;
0156339900999992000040603004+44500+034170FM-12+007299999V0200101N001012200019N0170001N1+01051+00951100461ADDGA1001+999999999GF100991001001999999001001GJ104449MD1810021+9999REMSYN080AAXX  06031 33990 42967 00101 10105 20095 40046 58002 333 55074 555 20099 7007/;
0181339900999992000040606004+44500+034170FM-12+007299999V0209999C999990024019N0040001N1+01371+00971100551ADDAA112007191GA1091+999999999GF109991091999999999999999KA1999N+00991MD1310111+9999REMSYN070AAXX  06061 33990 31296 90091 10137 20097 40055 53011 60072 333 20099;EQDQ01+009101WOSPD 
0112339900999992000040609004+44500+034170FM-12+007299999V0200201N002012200019N0170001N1+01461+00981100561ADDGF104991021021012501041021MD1210011+9999REMSYN060AAXX  06091 33990 42667 40202 10146 20098 40056 52001 82242;
0133339900999992000040612004+44500+034170FM-12+007299999V0201801N003010900019N0160001N1+01841+00781100571ADDGF105991011021012501061011MA1999999099731MD1210011+9999REMSYN066AAXX  06121 33990 42666 51803 10184 20078 39973 40057 52001 81261;
0112339900999992000040615004+44500+034170FM-12+007299999V0202101N002019999999N0200001N1+01851+00481100561ADDGF105991021001999999041021MD1810011+9999REMSYN060AAXX  06151 33990 42970 52102 10185 20048 40056 58001 82042;
0175339900999992000040618004+44500+034170FM-12+007299999V0202101N003012200019N0200001N1+01601+00151100541ADDAA199000091GA1001+999999999GF100991001001999999001001KA1999M+01901MD1710031+9999REMSYN064AAXX  06181 33990 32970 02103 10160 20015 40054 57003 333 10190;EQDQ01  00002PRCP99
0122339900999992000040621004+44500+034170FM-12+007299999V0202701N002012200019N0210001N1+01061+00701100651ADDGA1001+999999999GF100991001001999999001001MD1210091+9999REMSYN054AAXX  06211 33990 42971 02702 10106 20070 40065 52009;
0143339900999992000040700004+44500+034170FM-12+007299999V0202901N002012200019N0180001N1+00921+00711100611ADDGA1001+999999999GF100991001001999999001001MA1999999099741MD1810041+9999REMSYN060AAXX  07001 33990 42968 02902 10092 20071 39974 40061 58004;
0138339900999992000040703004+44500+034170FM-12+007299999V0203201N001019999999N0200001N1+00981+00641100511ADDGF106991061001999999031001MD1710101+9999REMSYN086AAXX  07031 33990 42970 63201 10098 20064 40051 57010 86030 333 55100 555 20092 7000/;
0165339900999992000040706004+44500+034170FM-12+007299999V0203001N001019999999N0210001N1+01131+00781100531ADDAA199000091GF107991071001999999071001KA1999N+00921MD1310041+9999REMSYN070AAXX  07061 33990 32971 73001 10113 20078 40053 53004 87070 333 20092;EQDQ01  00002PRCP99
0140339900999992000040709004+44500+034170FM-12+007299999V0202001N001010120019N0170001N1+01101+00941100711ADDAY181031AY221031GF108991061091012501071999MD1210161+9999MW1251REMSYN066AAXX  07091 33990 41667 82001 10110 20094 40071 52016 72582 8697/;
0161339900999992000040712004+44500+034170FM-12+007299999V0202401N003010360019N0270001N1+01251+00131100771ADDAY181061AY221061GF106991021021012501041021MA1999999099921MD1210081+9999MW1021REMSYN072AAXX  07121 33990 41677 62403 10125 20013 39992 40077 52008 70282 82242;
0112339900999992000040715004+44500+034170FM-12+007299999V0203001N004012200019N0300001N1+00861-00251100891ADDGF103991021021012501001011MD1210101+9999REMSYN060AAXX  07151 33990 42680 33004 10086 21025 40089 52010 82201;
0152339900999992000040718004+44500+034170FM-12+007299999V0203201N003012200019N0290001N1+00651-00221101051ADDAA112000191GF102991001001999999001021KA1999M+01481MD1210141+9999REMSYN076AAXX  07181 33990 12979 23203 10065 21022 40105 52014 69912 80002 333 10148;
0112339900999992000040721004+44500+034170FM-12+007299999V0203001N003012200019N0280001N1+00611-00211101141ADDGF103991031051012501001001MD1210091+9999REMSYN060AAXX  07211 33990 42678 33003 10061 21021 40114 52009 83500;
0133339900999992000040800004+44500+034170FM-12+007299999V0203001N004012200019N0280001N1+00611-00211101221ADDGF103991031051012501001071MA1999999100331MD1210081+9999REMSYN066AAXX  08001 33990 42678 33004 10061 21021 30033 40122 52008 83507;
0138339900999992000040803004+44500+034170FM-12+007299999V0202201N003010120019N0290001N1+00531-00181101191ADDGF105991051051012501001001MD1810031+9999REMSYN086AAXX  08031 33990 42679 52203 10053 21018 40119 58003 85500 333 55038 555 20049 7991/;
0199339900999992000040806004+44500+034170FM-12+007299999V0202601N002010120019N0270001N1+00611-00081101271ADDAA199000091GF108991081051012501999999IA1099IA2999+00309KA1120N+00491MD1310081+9999REMSYN086AAXX  08061 33990 32677 82602 10061 21008 40127 53008 885// 333 20049 555 31003 52002;EQDQ01  00002PRCP99
0112339900999992000040809004+44500+034170FM-12+007299999V0202401N003010120019N0300001N1+00871+00021101211ADDGF106991051051012501071001MD1810041+9999REMSYN060AAXX  08091 33990 42680 62403 10087 20002 40121 58004 85570;
0133339900999992000040812004+44500+034170FM-12+007299999V0202501N003010360019N0350001N1+00941-00071101171ADDGF107991041051012501071011MA1999999100301MD1710041+9999REMSYN066AAXX  08121 33990 42681 72503 10094 21007 30030 40117 57004 84571;
0112339900999992000040815004+44500+034170FM-12+007299999V0202001N001010075019N0300001N1+00791-00091101211ADDGF108991081051008001999999MD1310041+9999REMSYN060AAXX  08151 33990 42580 82001 10079 21009 40121 53004 885//;
0165339900999992000040818004+44500+034170FM-12+007299999V0202701N002010075019N0300001N1+00631-00221101401ADDAA199000091GF105991051051008001001001KA1999M+01091MD1210171+9999REMSYN070AAXX  08181 33990 32580 52702 10063 21022 40140 52017 85500 333 10109;EQDQ01  00002PRCP99
0112339900999992000040821004+44500+034170FM-12+007299999V0203101N001010075019N0280001N1+00641-01001101411ADDGF105991051051008001001001MD1110011+9999REMSYN060AAXX  08211 33990 42578 53101 10064 21100 40141 51001 85500;
0133339900999992000040900004+44500+034170FM-12+007299999V0203401N001010075019N0250001N1+00671-00031101411ADDGF105991051051008001001001MA1999999100521MD1410001+9999REMSYN066AAXX  09001 33990 42575 53401 10067 21003 30052 40141 54000 85500;
0138339900999992000040903004+44500+034170FM-12+007299999V0202801N001010075019N0230001N1+00661-00081101431ADDGF108991081051008001999999MD1310021+9999REMSYN086AAXX  09031 33990 42573 82801 10066 21008 40143 53002 885// 333 55032 555 20060 7000/;
0165339900999992000040906004+44500+034170FM-12+007299999V0202901N002010075019N0250001N1+00721-00021101471ADDAA199000091GF108991081051008001999999KA1999N+00601MD1210051+9999REMSYN070AAXX  09061 33990 32575 82902 10072 21002 40147 52005 885// 333 20060;EQDQ01  00002PRCP99
0112339900999992000040909004+44500+034170FM-12+007299999V0203601N003010075019N0280001N1+00841+00001101571ADDGF107991071051008001001001MD1210101+9999REMSYN060AAXX  09091 33990 42578 73603 10084 20000 40157 52010 87500;
0133339900999992000040912004+44500+034170FM-12+007299999V0200601N003010075019N0290001N1+00901+00001101591ADDGF107991071051008001001001MA1999999100711MD1110021+9999REMSYN066AAXX  09121 33990 42579 70603 10090 20000 30071 40159 51002 87500;
0112339900999992000040915004+44500+034170FM-12+007299999V0203601N004010075019N0300001N1+00861-00091101651ADDGF106991061051008001001001MD1310061+9999REMSYN060AAXX  09151 33990 42580 63604 10086 21009 40165 53006 86500;
0165339900999992000040918004+44500+034170FM-12+007299999V0203601N004012200019N0280001N1+00611-00211101841ADDAA199000091GF102991021031008001001001KA1999M+00981MD1210181+9999REMSYN070AAXX  09181 33990 32578 23604 10061 21021 40184 52018 82300 333 10098;EQDQ01  00002PRCP99
0112339900999992000040921004+44500+034170FM-12+007299999V0202101N002010075019N0260001N1+00501-00221101791ADDGF106991061051008001001001MD1810051+9999REMSYN060AAXX  09211 33990 42576 62102 10050 21022 40179 58005 86500;
0133339900999992000041000004+44500+034170FM-12+007299999V0202701N003010120019N0250001N1+00651+00011101821ADDGF107991071051012501001001MA1999999100931MD1310031+9999REMSYN066AAXX  10001 33990 42675 72703 10065 20001 30093 40182 53003 87500;
0168339900999992000041003004+44500+034170FM-12+007299999V0202701N001010093019N0230001N1+00631+00071101851ADDGA1081+009309099GF108991081091008001999999GJ100789MD1210031+9999REMSYN092AAXX  10031 33990 42573 82701 10063 20007 40185 52003 889// 333 55013 88931 555 20046 7000/;
0116339900999992000041006004+44500+034170FM-12+007299999V0202901N003019999999N0260001N1+00941-00251101891ADDAA199000091GF106991999999012501999999REMSYN048AAXX  10061 33990 32676 62903 10094 21025 40189;EQDQ01  00002PRCP99
0112339900999992000041009004+44500+034170FM-12+007299999V0200201N002010120019N0280001N1+00961-00141101971ADDGF106991061051012501001001MD1110081+9999REMSYN060AAXX  10091 33990 42678 60202 10096 21014 40197 51008 86500;
0133339900999992000041012004+44500+034170FM-12+007299999V0203501N002012200019N0290001N1+01201-00441101811ADDGF102991021051012501001001MA1999999100951MD1710141+9999REMSYN066AAXX  10121 33990 42679 23502 10120 21044 30095 40181 57014 82500;
0112339900999992000041015004+44500+034170FM-12+007299999V0201501N002012200019N0270001N1+00981-00051101821ADDGF101991011051012501001001MD1610011+9999REMSYN060AAXX  10151 33990 42677 11502 10098 21005 40182 56001 81500;
0175339900999992000041018004+44500+034170FM-12+007299999V0201901N001012200019N0300001N1+00721-00091101851ADDAA199000091GA1001+999999999GF100991001001999999001001KA1999M+01261MD1310031+9999REMSYN064AAXX  10181 33990 32980 01901 10072 21009 40185 53003 333 10126;EQDQ01  00002PRCP99
0122339900999992000041021004+44500+034170FM-12+007299999V0202801N002012200019N0350001N1+00571-00161101851ADDGA1001+999999999GF100991001001999999001001MD1810011+9999REMSYN054AAXX  10211 33990 42981 02802 10057 21016 40185 58001;
0143339900999992000041100004+44500+034170FM-12+007299999V0201901N001012200019N0350001N1+00511-00181101781ADDGA1001+999999999GF100991001001999999001001MA1999999100891MD1810071+9999REMSYN060AAXX  11001 33990 42981 01901 10051 21018 30089 40178 58007;
0156339900999992000041103004+44500+034170FM-12+007299999V0209999C000012200019N0280001N1+00411-00141101711ADDGA1001+999999999GF100991001001999999001001GJ104749MD1810071+9999REMSYN080AAXX  11031 33990 42978 00000 10041 21014 40171 58007 333 55079 555 20037 7000/;
0199339900999992000041106004+44500+034170FM-12+007299999V0200801N002012200019N0280001N1+00931+00191101691ADDAA199000091GF102991001001999999001011IA1019IA2999+00109KA1120N+00361MD1610011+9999REMSYN086AAXX  11061 33990 32978 20802 10093 20019 40169 56001 80001 333 20036 555 30001 52001;EQDQ01  00002PRCP99
0112339900999992000041109004+44500+034170FM-12+007299999V0201101N003012200019N0270001N1+00991+00321101561ADDGF101991011011012501001001MD1810131+9999REMSYN060AAXX  11091 33990 42677 11103 10099 20032 40156 58013 81100;
0133339900999992000041112004+44500+034170FM-12+007299999V0201001N003019999999N0250001N1+00971+00431101401ADDGF107991001001999999001021MA1999999100521MD1710161+9999REMSYN066AAXX  11121 33990 42975 71003 10097 20043 30052 40140 57016 80002;
0112339900999992000041115004+44500+034170FM-12+007299999V0200601N002019999999N0230001N1+00861+00431101131ADDGF108991081001999999071999MD1710091+9999REMSYN060AAXX  11151 33990 42973 80602 10086 20043 40113 57009 8807/;
0165339900999992000041118004+44500+034170FM-12+007299999V0200401N003019999999N0210001N1+00711+00301101281ADDAA199000091GF108991081001999999071999KA1999M+01081MD1610021+9999REMSYN070AAXX  11181 33990 32971 80403 10071 20030 40128 56002 8807/ 333 10108;EQDQ01  00002PRCP99
0112339900999992000041121004+44500+034170FM-12+007299999V0203001N001019999999N0210001N1+00721+00291101161ADDGF108991081001999999071999MD1810121+9999REMSYN060AAXX  11211 33990 42971 83001 10072 20029 40116 58012 8807/;
0133339900999992000041200004+44500+034170FM-12+007299999V0202401N001019999999N0200001N1+00741+00291101111ADDGF108991081001999999071999MA1999999100241MD1710051+9999REMSYN066AAXX  12001 33990 42970 82401 10074 20029 30024 40111 57005 8807/;
0138339900999992000041203004+44500+034170FM-12+007299999V0202901N001019999999N0200001N1+00771+00321101121ADDGF108991081001999999071999MD1310011+9999REMSYN086AAXX  12031 33990 42970 82901 10077 20032 40112 53001 8807/ 333 55093 555 20069 7000/;
0165339900999992000041206004+44500+034170FM-12+007299999V0203201N001019999999N0200001N1+00861+00481101161ADDAA199000091GF108991081001999999071999KA1999N+00721MD1210041+9999REMSYN070AAXX  12061 33990 32970 83201 10086 20048 40116 52004 8807/ 333 20072;EQDQ01  00002PRCP99
0112339900999992000041209004+44500+034170FM-12+007299999V0200701N002019999999N0180001N1+01041+00701101191ADDGF107991071001999999031001MD1210031+9999REMSYN060AAXX  12091 33990 42968 70702 10104 20070 40119 52003 87030;
0080339900999992000041212004+44500+034170FM-12+007299999V0200601N001012200019N0210001N1+01121+00701999999ADDGF101991999999012501999999REMSYN042AAXX  12121 33990 42671 10601 10112 20070;
0122339900999992000041215004+44500+034170FM-12+007299999V0200501N001012200019N0220001N1+01001+00511101051ADDGA1001+999999999GF100991001001999999001001MD1710451+9999REMSYN054AAXX  12151 33990 42972 00501 10100 20051 40105 57045;
0175339900999992000041218004+44500+034170FM-12+007299999V0202101N001012200019N0200001N1+00941+00341101051ADDAA199000091GA1001+999999999GF100991001001999999001001KA1999M+01181MD1510001+9999REMSYN064AAXX  12181 33990 32970 02101 10094 20034 40105 55000 333 10118;EQDQ01  00002PRCP99
0122339900999992000041221004+44500+034170FM-12+007299999V0202301N001012200019N0200001N1+00841+00321101071ADDGA1001+999999999GF100991001001999999001001MD1210021+9999REMSYN054AAXX  12211 33990 42970 02301 10084 20032 40107 52002;
0143339900999992000041300004+44500+034170FM-12+007299999V0202901N002012200019N0180001N1+00801+00511101031ADDGA1001+999999999GF100991001001999999001001MA1999999100161MD1810041+9999REMSYN060AAXX  13001 33990 42968 02902 10080 20051 30016 40103 58004;
0156339900999992000041303004+44500+034170FM-12+007299999V0202701N001012200019N0210001N1+01021+00321101021ADDGA1001+999999999GF100991001001999999001001GJ102889MD1710011+9999REMSYN080AAXX  13031 33990 42971 02701 10102 20032 40102 57001 333 55048 555 20077 7000/;
0175339900999992000041306004+44500+034170FM-12+007299999V0201001N002012200019N0220001N1+01271+00561101121ADDAA199000091GA1001+999999999GF100991001001999999001001KA1999N+00751MD1510121+9999REMSYN064AAXX  13061 33990 32972 01002 10127 20056 40112 55012 333 20075;EQDQ01  00002PRCP99
0122339900999992000041309004+44500+034170FM-12+007299999V0200601N003012200019N0200001N1+01381+00701101111ADDGA1001+999999999GF100991001001999999001001MD1810011+9999REMSYN054AAXX  13091 33990 42970 00603 10138 20070 40111 58001;
0152339900999992000041312004+44500+034170FM-12+007299999V0200601N003012200019N0260001N1+01441+00451999999ADDGF103991011001999999081011MA1999999101011MD1710101+9999REMSYN066AAXX  13121 33990 42976 30603 10144 20045 30101 40016 57010 81081;EQDQ01+100163APOSLP
0112339900999992000041315004+44500+034170FM-12+007299999V0201001N002019999999N0240001N1+01481+00561100831ADDGF107991001001999999001011MD1710181+9999REMSYN060AAXX  13151 33990 42974 71002 10148 20056 40083 57018 80001;
0165339900999992000041318004+44500+034170FM-12+007299999V0202501N001019999999N0220001N1+01551+00591100801ADDAA199000091GF107991001001999999001071KA1999M+01591MD1610031+9999REMSYN070AAXX  13181 33990 32972 72501 10155 20059 40080 56003 80007 333 10159;EQDQ01  00002PRCP99
0112339900999992000041321004+44500+034170FM-12+007299999V0202901N001019999999N0230001N1+01581+00511100751ADDGF107991001001999999001071MD1810051+9999REMSYN060AAXX  13211 33990 42973 72901 10158 20051 40075 58005 80007;
0133339900999992000041400004+44500+034170FM-12+007299999V0203101N001019999999N0220001N1+01651+00701100731ADDGF106991061001999999041001MA1999999099891MD1710011+9999REMSYN066AAXX  14001 33990 42972 63101 10165 20070 39989 40073 57001 86040;
0138339900999992000041403004+44500+034170FM-12+007299999V0203301N001019999999N0180001N1+01461+00761100721ADDGF108991081001999999071001MD1510021+9999REMSYN086AAXX  14031 33990 42968 83301 10146 20076 40072 55002 88070 333 55103 555 20146 7000/;
0165339900999992000041406004+44500+034170FM-12+007299999V0201501N001010360019N0190001N1+01551+00821100861ADDAA199000091GF107991011011012501081061KA1999N+01351MD1210141+9999REMSYN070AAXX  14061 33990 32669 71501 10155 20082 40086 52014 81186 333 20135;EQDQ01  00002PRCP99
0112339900999992000041409004+44500+034170FM-12+007299999V0202101N002010360019N0210001N1+01561+00811100951ADDGF107991021041012501031071MD1110091+9999REMSYN060AAXX  14091 33990 42671 72102 10156 20081 40095 51009 82437;
0140339900999992000041415004+44500+034170FM-12+007299999V0203401N001010075019N0130001N1+01441+01001101001ADDAY181031AY221031GF107991061091008001031001MD1410001+9999MW1021REMSYN066AAXX  14151 33990 41563 73401 10144 20100 40100 54000 70282 86930;
0180339900999992000041418004+44500+034170FM-12+007299999V0200901N001010360019N0160001N1+01501+01131101151ADDAA112000591AY181061AY221061GF106991021051012501031001KA1999M+01671MD1310151+9999MW1021REMSYN082AAXX  14181 33990 11666 60901 10150 20113 40115 53015 69952 70282 82530 333 10167;
0112339900999992000041421004+44500+034170FM-12+007299999V0202701N001012200019N0160001N1+01381+01121101161ADDGF102991021001999999031001MD1110011+9999REMSYN060AAXX  14211 33990 42966 22701 10138 20112 40116 51001 82030;
0143339900999992000041500004+44500+034170FM-12+007299999V0202901N002012200019N0180001N1+01381+00931101151ADDGA1001+999999999GF100991001001999999001001MA1999999100301MD1810011+9999REMSYN060AAXX  15001 33990 42968 02902 10138 20093 30030 40115 58001;
0138339900999992000041503004+44500+034170FM-12+007299999V0202901N001012200019N0180001N1+01341+00841101161ADDGF101991001001999999001011MD1310011+9999REMSYN086AAXX  15031 33990 42968 12901 10134 20084 40116 53001 80001 333 55006 555 20126 7995/;
0175339900999992000041506004+44500+034170FM-12+007299999V0201301N002012200019N0190001N1+01471+00941101321ADDAA199000091GA1001+999999999GF100991001001999999001001KA1999N+01191MD1210161+9999REMSYN064AAXX  15061 33990 32969 01302 10147 20094 40132 52016 333 20119;EQDQ01  00002PRCP99
0112339900999992000041509004+44500+034170FM-12+007299999V0200901N001012200019N0210001N1+01531+00991101381ADDGF102991021021012501001001MD1110051+9999REMSYN060AAXX  15091 33990 42671 20901 10153 20099 40138 51005 82200;
0133339900999992000041512004+44500+034170FM-12+007299999V0200901N001010120019N0180001N1+01421+01021101401ADDGF106991061021012501001001MA1999999100541MD1110021+9999REMSYN066AAXX  15121 33990 42668 60901 10142 20102 30054 40140 51002 86200;
0140339900999992000041515004+44500+034170FM-12+007299999V0201501N001010012019N0070001N1+01161+01001101421ADDAY121031AY221031GF108991081061001501999999MD1310021+9999MW1101REMSYN066AAXX  15151 33990 41257 81501 10116 20100 40142 53002 71022 886//;
0203339900999992000041518004+44500+034170FM-12+007299999V0209999C000010003019N0002001N1+01011+00951101561ADDAA199000091AY141061AY221061GA1091+999999999GF109991091999999999999999KA1999M+01601MD1310121+9999MW1471REMSYN070AAXX  15181 33990 31/02 90000 10101 20095 40156 53012 74742 333 10160;EQDQ01  00002PRCP99
0150339900999992000041521004+44500+034170FM-12+007299999V0209999C000010003019N0002001N1+00971+00931101581ADDAY141031AY241031GA1091+999999999GF109991091999999999999999MD1210021+9999MW1451REMSYN060AAXX  15211 33990 41/02 90000 10097 20093 40158 52002 74544;
0171339900999992000041600004+44500+034170FM-12+007299999V0209999C000010003019N0002001N1+00931+00891101571ADDAY141061AY241061GA1091+999999999GF109991091999999999999999MA1999999100691MD1810011+9999MW1451REMSYN066AAXX  16001 33990 41/02 90000 10093 20089 30069 40157 58001 74544;
0184339900999992000041603004+44500+034170FM-12+007299999V0209999C000010003019N0002001N1+00871+00821101611ADDAY141031AY241031GA1091+999999999GF109991091999999999999999GJ104389MD1310041+9999MW1451REMSYN086AAXX  16031 33990 41/02 90000 10087 20082 40161 53004 74544 333 55073 555 20083 7000/;
0203339900999992000041606004+44500+034170FM-12+007299999V0200401N001010003019N0003001N1+00921+00881101701ADDAA199000091AY141061AY241061GA1091+999999999GF109991091999999999999999KA1999N+00811MD1210091+9999MW1451REMSYN070AAXX  16061 33990 31/03 90401 10092 20088 40170 52009 74544 333 20081;EQDQ01  00002PRCP99
0166339900999992000041609004+44500+034170FM-12+007299999V0200901N001010018019N0018001N1+01031+00931101771ADDAY141031AY221031GA1081+001809069GF108991081061001501999999MD1210071+9999MW1101REMSYN076AAXX  16091 33990 41218 80901 10103 20093 40177 52007 71042 886// 333 88706;
0161339900999992000041612004+44500+034170FM-12+007299999V0200701N001010042019N0100001N1+01051+00931101751ADDAY141061AY221061GF108991081061004501999999MA1999999100871MD1810021+9999MW1021REMSYN072AAXX  16121 33990 41460 80701 10105 20093 30087 40175 58002 70242 886//;
0112339900999992000041615004+44500+034170FM-12+007299999V0200901N001010042019N0100001N1+01081+00971101691ADDGF108991081061004501999999MD1710061+9999REMSYN060AAXX  16151 33990 42460 80901 10108 20097 40169 57006 886//;
0193339900999992000041618004+44500+034170FM-12+007299999V0209999C000010021019N0025001N1+00981+00901101701ADDAA199000091AY121061AY221061GF108991081061002501999999KA1999M+01091MD1310011+9999MW1101REMSYN076AAXX  16181 33990 31325 80000 10098 20090 40170 53001 71022 886// 333 10109;EQDQ01  00002PRCP99
0122339900999992000041621004+44500+034170FM-12+007299999V0200901N001010001519N0000001N1+00961+00921101751ADDGA1091+999999999GF109991091999999999999999MD1410001+9999REMSYN054AAXX  16211 33990 41/00 90901 10096 20092 40175 54000;
0171339900999992000041700004+44500+034170FM-12+007299999V0200901N001010006019N0007001N1+00901+00861101661ADDAY141061AY221061GA1091+999999999GF109991091999999999999999MA1999999100781MD1610041+9999MW1451REMSYN066AAXX  17001 33990 41/07 90901 10090 20086 30078 40166 56004 74542;
0184339900999992000041703004+44500+034170FM-12+007299999V0203001N001010006019N0006001N1+00881+99999101611ADDAY141031AY241031GA1091+999999999GF109991091999999999999999GJ100009MD1710051+9999MW1451REMSYN086AAXX  17031 33990 41/06 93001 10088 20090 40161 57005 74544 333 55000 555 20088 7000/;
0203339900999992000041706004+44500+034170FM-12+007299999V0201201N001010003019N0004001N1+00951+00901101671ADDAA199000091AY141061AY241061GA1091+999999999GF109991091999999999999999KA1999N+00821MD1310061+9999MW1451REMSYN070AAXX  17061 33990 31/04 91201 10095 20090 40167 53006 74544 333 20082;EQDQ01  00002PRCP99
0140339900999992000041709004+44500+034170FM-12+007299999V0200801N001012200019N0008001N1+01401+01071101651ADDAY141031AY241031GF102991001001999999001011MD1010001+9999MW1441REMSYN066AAXX  17091 33990 41908 20801 10140 20107 40165 50000 74444 80001;
0161339900999992000041712004+44500+034170FM-12+007299999V0200601N001012200019N0012001N1+01281+01001101571ADDAY141061AY201061GF104991011021012501001011MA1999999100711MD1710081+9999MW1401REMSYN072AAXX  17121 33990 41612 40601 10128 20100 30071 40157 57008 74040 81201;
0112339900999992000041715004+44500+034170FM-12+007299999V0202101N001012200019N0140001N1+01241+01031101361ADDGF103991001001999999001011MD1710211+9999REMSYN060AAXX  17151 33990 42964 32101 10124 20103 40136 57021 80001;
0175339900999992000041718004+44500+034170FM-12+007299999V0203001N002012200019N0170001N1+01361+00891101371ADDAA199000091GA1001+999999999GF100991001001999999001001KA1999M+01491MD1310011+9999REMSYN064AAXX  17181 33990 32967 03002 10136 20089 40137 53001 333 10149;EQDQ01  00002PRCP99
0122339900999992000041721004+44500+034170FM-12+007299999V0201601N001012200019N0200001N1+01361+00861101291ADDGA1001+999999999GF100991001001999999001001MD1810071+9999REMSYN054AAXX  17211 33990 42970 01601 10136 20086 40129 58007;
0133339900999992000041800004+44500+034170FM-12+007299999V0201401N002012200019N0230001N1+01591+00981101081ADDGF102991001001999999001011MA1999999100231MD1710211+9999REMSYN066AAXX  18001 33990 42973 21402 10159 20098 30023 40108 57021 80001;
0126339900999992000041803004+44500+034170FM-12+007299999V0203001N002012200019N0250001N1+01481+00821100981ADDGF101991999999999999999999MD1719999+9999REMSYN074AAXX  18031 33990 42975 13002 10148 20082 40098 570// 333 555 20131 7000/;
0165339900999992000041806004+44500+034170FM-12+007299999V0200301N002012200019N0290001N1+02061+01001100911ADDAA199000091GF101991001001999999001011KA1999N+01311MD1710061+9999REMSYN070AAXX  18061 33990 32979 10302 10206 20100 40091 57006 80001 333 20131;EQDQ01  00002PRCP99
0112339900999992000041809004+44500+034170FM-12+007299999V0200801N006012200019N0300001N1+02141+01091100881ADDGF103991001001999999001011MD1710021+9999REMSYN060AAXX  18091 33990 42980 30806 10214 20109 40088 57002 80001;
0133339900999992000041812004+44500+034170FM-12+007299999V0200901N007019999999N0260001N1+01821+01101100801ADDGF106991001001999999001011MA1999999099961MD1710091+9999REMSYN066AAXX  18121 33990 42976 60907 10182 20110 39996 40080 57009 80001;
0112339900999992000041815004+44500+034170FM-12+007299999V0201001N004019999999N0200001N1+01701+01091100821ADDGF107991021001999999071011MD1310021+9999REMSYN060AAXX  18151 33990 42970 71004 10170 20109 40082 53002 82071;
0165339900999992000041818004+44500+034170FM-12+007299999V0201001N003019999999N0230001N1+01821+00951100681ADDAA199000091GF107991021001999999071011KA1999M+02211MD1810141+9999REMSYN070AAXX  18181 33990 32973 71003 10182 20095 40068 58014 82071 333 10221;EQDQ01  00002PRCP99
0112339900999992000041821004+44500+034170FM-12+007299999V0200801N002019999999N0280001N1+01981+00361100611ADDGF106991061001999999071001MD1710071+9999REMSYN060AAXX  18211 33990 42978 60802 10198 20036 40061 57007 86070;
0133339900999992000041900004+44500+034170FM-12+007299999V0202301N002019999999N0190001N1+01821+01141100381ADDGF107991071001999999071001MA1999999099541MD1710231+9999REMSYN066AAXX  19001 33990 42969 72302 10182 20114 39954 40038 57023 87070;
0138339900999992000041903004+44500+034170FM-12+007299999V0201701N002019999999N0160001N1+01591+01171100381ADDGF108991081001999999071999MD1410001+9999REMSYN086AAXX  19031 33990 42966 81702 10159 20117 40038 54000 8807/ 333 55096 555 20144 7000/;
0165339900999992000041906004+44500+034170FM-12+007299999V0200901N004010360019N0200001N1+01781+00971100381ADDAA199000091GF107991021021012501071001KA1999N+01411MD1010001+9999REMSYN070AAXX  19061 33990 32670 70904 10178 20097 40038 50000 82270 333 20141;EQDQ01  00002PRCP99
0140339900999992000041909004+44500+034170FM-12+007299999V0202901N005010120019N0170001N1+01581+01021100381ADDAY181031AY221031GF108991061091012501071999MD1610011+9999MW1801REMSYN066AAXX  19091 33990 41667 82905 10158 20102 40038 56001 78082 8697/;
0161339900999992000041912004+44500+034170FM-12+007299999V0200901N009012200019N0230001N1+01841+01091100221ADDAY181061AY221061GF106991021021012501001011MA1999999099391MD1510141+9999MW1021REMSYN072AAXX  19121 33990 41673 60909 10184 20109 39939 40022 55014 70282 82201;
0112339900999992000041915004+44500+034170FM-12+007299999V0200601N010019999999N0180001N1+01811+01061100211ADDGF108991081001999999071999MD1510011+9999REMSYN060AAXX  19151 33990 42968 80610 10181 20106 40021 55001 8807/;
0152339900999992000041918004+44500+034170FM-12+007299999V0200601N006019999999N0180001N1+01541+01151100181ADDAA112000791GF108991081001999999071999KA1999M+02441MD1710051+9999REMSYN076AAXX  19181 33990 12968 80606 10154 20115 40018 57005 69902 8807/ 333 10244;
0112339900999992000041921004+44500+034170FM-12+007299999V0200901N005019999999N0220001N1+01981+00931099981ADDGF107991071001999999051001MD1710181+9999REMSYN060AAXX  19211 33990 42972 70905 10198 20093 49998 57018 87050;
0133339900999992000042000004+44500+034170FM-12+007299999V0200301N007019999999N0200001N1+01641+01141100011ADDGF108991081001999999071999MA1999999099181MD1010031+9999REMSYN066AAXX  20001 33990 42970 80307 10164 20114 39918 40001 50003 8807/;
0138339900999992000042003004+44500+034170FM-12+007299999V0209999C002010360019N0170001N1+01521+01091099661ADDGF108991021051012501071999MD1710171+9999REMSYN086AAXX  20031 33990 42667 80002 10152 20109 49966 57017 8257/ 333 55040 555 20138 7990/;
0165339900999992000042006004+44500+034170FM-12+007299999V0202401N001019999999N0150001N1+01751+01091100021ADDAA199000091GF108991061001999999031011KA1999N+01381MD1110181+9999REMSYN070AAXX  20061 33990 32965 82401 10175 20109 40002 51018 86031 333 20138;EQDQ01  00002PRCP99
0112339900999992000042009004+44500+034170FM-12+007299999V0200601N006019999999N0180001N1+01761+01001100081ADDGF108991001001999999001071MD1210061+9999REMSYN060AAXX  20091 33990 42968 80606 10176 20100 40008 52006 80007;
0133339900999992000042012004+44500+034170FM-12+007299999V0201001N002019999999N0170001N1+01631+01111100071ADDGF108991001001999999001071MA1999999099241MD1810011+9999REMSYN066AAXX  20121 33990 42967 81002 10163 20111 39924 40007 58001 80007;
0112339900999992000042015004+44500+034170FM-12+007299999V0200901N001019999999N0160001N1+01451+00991100171ADDGF108991021001999999081071MD1110081+9999REMSYN060AAXX  20151 33990 42966 80901 10145 20099 40017 51008 82087;
0165339900999992000042018004+44500+034170FM-12+007299999V0202101N002019999999N0200001N1+01411+01001100291ADDAA199000091GF108991041001999999081071KA1999M+01981MD1210121+9999REMSYN070AAXX  20181 33990 32970 82102 10141 20100 40029 52012 84087 333 10198;EQDQ01  00002PRCP99
0112339900999992000042021004+44500+034170FM-12+007299999V0202701N001019999999N0220001N1+01351+01001100291ADDGF108991031001999999071021MD1010001+9999REMSYN060AAXX  20211 33990 42972 82701 10135 20100 40029 50000 83072;
0138339900999992000042103004+44500+034170FM-12+007299999V0201701N001010120019N0180001N1+01311+00941100241ADDGF108991081051012501999999MD1610021+9999REMSYN086AAXX  21031 33990 42668 81701 10131 20094 40024 56002 885// 333 55058 555 20120 7000/;
0165339900999992000042106004+44500+034170FM-12+007299999V0203201N001019999999N0100001N1+01461+01001100311ADDAA199000091GF107991071001999999031001KA1999N+01201MD1310071+9999REMSYN070AAXX  21061 33990 32960 73201 10146 20100 40031 53007 87030 333 20120;EQDQ01  00002PRCP99
0112339900999992000042109004+44500+034170FM-12+007299999V0201401N001010360019N0110001N1+01691+01181100301ADDGF107991021021012501031001MD1210011+9999REMSYN060AAXX  21091 33990 42661 71401 10169 20118 40030 52001 82230;
0161339900999992000042112004+44500+034170FM-12+007299999V0201501N001012200019N0120001N1+01701+01321100271ADDAY191061AY281061GF107991041091012501001011MA1999999099441MD1810031+9999MW1291REMSYN072AAXX  21121 33990 41662 71501 10170 20132 39944 40027 58003 72998 84901;
0112339900999992000042115004+44500+034170FM-12+007299999V0200901N001019999999N0140001N1+01681+01141100361ADDGF107991071001999999031001MD1310081+9999REMSYN060AAXX  21151 33990 42964 70901 10168 20114 40036 53008 87030;
0162339900999992000042118004+44500+034170FM-12+007299999V0203601N001012200019N0110001N1+01271+01101100321ADDAA112000191GA1001+999999999GF100991001001999999001001KA1999M+01861MD1210051+9999REMSYN070AAXX  21181 33990 12961 03601 10127 20110 40032 52005 69912 333 10186;
0112339900999992000042121004+44500+034170FM-12+007299999V0203501N001019999999N0120001N1+01121+01001100571ADDGF107991071001999999031001MD1210051+9999REMSYN060AAXX  21211 33990 42962 73501 10112 20100 40057 52005 87030;
0133339900999992000042200004+44500+034170FM-12+007299999V0203601N001019999999N0120001N1+01121+01031100591ADDGF108991081001999999071999MA1999999099741MD1210021+9999REMSYN066AAXX  22001 33990 42962 83601 10112 20103 39974 40059 52002 8807/;
0138339900999992000042203004+44500+034170FM-12+007299999V0200501N001010042019N0100001N1+01121+01001100591ADDGF108991081061004501999999MD1410001+9999REMSYN086AAXX  22031 33990 42460 80501 10112 20100 40059 54000 886// 333 55016 555 20110 7991/;
0215339900999992000042206004+44500+034170FM-12+007299999V0200501N001010015019N0040001N1+01131+01031100661ADDAA199000091AY121061AY221061GA1081+001509069GF108991081061001501999999KA1120N+01101MD1310071+9999MW1101REMSYN082AAXX  22061 33990 31240 80501 10113 20103 40066 53007 71022 886// 333 20110 88705;EQDQ01  00002PRCP99
0140339900999992000042209004+44500+034170FM-12+007299999V0200701N001010012019N0037001N1+01211+01071100741ADDAY181031AY221031GF108991081061001501999999MD1210081+9999MW1101REMSYN066AAXX  22091 33990 41237 80701 10121 20107 40074 52008 71082 886//;
0140339900999992000042215004+44500+034170FM-12+007299999V0200601N001010021019N0034001N1+01221+01091100781ADDAY121031AY221031GF108991081061002501999999MD1810011+9999MW1101REMSYN066AAXX  22151 33990 41334 80601 10122 20109 40078 58001 71022 886//;
0202339900999992000042218004+44500+034170FM-12+007299999V0200401N001010024019N0040001N1+01171+01071100891ADDAA112000791AY121061AY221061GA1081+002409069GF108991081061002501999999KA1120M+01281MD1310111+9999MW1101REMSYN088AAXX  22181 33990 11340 80401 10117 20107 40089 53011 69902 71022 886// 333 10128 88708;
0140339900999992000042221004+44500+034170FM-12+007299999V0209999C000010021019N0026001N1+01141+01041100961ADDAY121031AY221031GF108991081061002501999999MD1210071+9999MW1101REMSYN066AAXX  22211 33990 41326 80000 10114 20104 40096 52007 71022 886//;
0171339900999992000042300004+44500+034170FM-12+007299999V0200401N001010006019N0007001N1+01131+01071101011ADDAY141061AY221061GA1091+999999999GF109991091999999999999999MA1999999100161MD1110051+9999MW1451REMSYN066AAXX  23001 33990 41/07 90401 10113 20107 30016 40101 51005 74542;
0184339900999992000042303004+44500+034170FM-12+007299999V0209999C000010003019N0004001N1+01141+01091101031ADDAY141031AY241031GA1091+999999999GF109991091999999999999999GJ100009MD1210021+9999MW1471REMSYN086AAXX  23031 33990 41/04 90000 10114 20109 40103 52002 74744 333 55000 555 20112 7990/;
0203339900999992000042306004+44500+034170FM-12+007299999V0203101N001010003019N0004001N1+01161+01101101181ADDAA199000091AY141061AY241061GA1091+999999999GF109991091999999999999999KA1999N+01101MD1210151+9999MW1471REMSYN070AAXX  23061 33990 31/04 93101 10116 20110 40118 52015 74744 333 20110;EQDQ01  00002PRCP99
0150339900999992000042309004+44500+034170FM-12+007299999V0209999C000010003019N0004001N1+01161+01121101241ADDAY141031AY241031GA1091+999999999GF109991091999999999999999MD1110061+9999MW1471REMSYN060AAXX  23091 33990 41/04 90000 10116 20112 40124 51006 74744;
0161339900999992000042312004+44500+034170FM-12+007299999V0201701N001010012019N0012001N1+01241+01091101261ADDAY121061AY221061GF108991081061001501999999MA1999999100411MD1210021+9999MW1101REMSYN072AAXX  23121 33990 41212 81701 10124 20109 30041 40126 52002 71022 886//;
0140339900999992000042315004+44500+034170FM-12+007299999V0201401N001012200019N0060001N1+01231+01101101211ADDAY121031AY221031GF106991031021008001001011MD1810051+9999MW1101REMSYN066AAXX  23151 33990 41556 61401 10123 20110 40121 58005 71022 83201;
0193339900999992000042318004+44500+034170FM-12+007299999V0203301N001010075019N0090001N1+01161+00191101301ADDAA199000091AY121061AY221061GF108991081061008001999999KA1999M+01371MD1310091+9999MW1101REMSYN076AAXX  23181 33990 31559 83301 10116 20019 40130 53009 71022 886// 333 10137;EQDQ01  00002PRCP99
0140339900999992000042321004+44500+034170FM-12+007299999V0200401N001010075019N0090001N1+01131+01071101321ADDAY121031AY221031GF108991081061008001999999MD1210021+9999MW1101REMSYN066AAXX  23211 33990 41559 80401 10113 20107 40132 52002 71022 886//;
0161339900999992000042400004+44500+034170FM-12+007299999V0200601N001010075019N0080001N1+01111+01051101331ADDAY121061AY221061GF108991081061008001999999MA1999999100481MD1210011+9999MW1101REMSYN072AAXX  24001 33990 41558 80601 10111 20105 30048 40133 52001 71022 886//;
0166339900999992000042403004+44500+034170FM-12+007299999V0203001N001010075019N0040001N1+01061+00981101311ADDAY121031AY221031GF108991081061008001999999MD1810041+9999MW1101REMSYN092AAXX  24031 33990 41540 83001 10106 20098 40131 58004 71022 886// 333 55005 555 20106 7000/;
0193339900999992000042406004+44500+034170FM-12+007299999V0200901N002010042019N0060001N1+01271+01151101361ADDAA199000091AY121061AY221061GF107991061061004501001071KA1999N+01041MD1310061+9999MW1101REMSYN076AAXX  24061 33990 31456 70902 10127 20115 40136 53006 71022 86607 333 20104;EQDQ01  00002PRCP99
0140339900999992000042409004+44500+034170FM-12+007299999V0201201N002010042019N0030001N1+01241+01121101451ADDAY121031AY221031GF108991081061004501999999MD1210091+9999MW1101REMSYN066AAXX  24091 33990 41430 81202 10124 20112 40145 52009 71022 886//;
0140339900999992000042415004+44500+034170FM-12+007299999V0201101N001010042019N0025001N1+01261+01131101371ADDAY121031AY221031GF108991081061004501999999MD1710051+9999MW1101REMSYN066AAXX  24151 33990 41425 81101 10126 20113 40137 57005 71022 886//;
0165339900999992000042418004+44500+034170FM-12+007299999V0201401N001012200019N0130001N1+01241+01111101391ADDAA199000091GF102991021001999999041001KA1999M+01721MD1310021+9999REMSYN070AAXX  24181 33990 32963 21401 10124 20111 40139 53002 82040 333 10172;EQDQ01  00002PRCP99
0122339900999992000042421004+44500+034170FM-12+007299999V0201401N001012200019N0150001N1+01251+01061101391ADDGA1001+999999999GF100991001001999999001001MD1410001+9999REMSYN054AAXX  24211 33990 42965 01401 10125 20106 40139 54000;
0133339900999992000042500004+44500+034170FM-12+007299999V0201601N002019999999N0170001N1+01421+00951101361ADDGF105991031051999999001011MA1999999100501MD1810031+9999REMSYN066AAXX  25001 33990 42967 51602 10142 20095 30050 40136 58003 83501;
0138339900999992000042503004+44500+034170FM-12+007299999V0201401N001010360019N0130001N1+01381+01131101341ADDGF107991021051008001031021MD1610011+9999REMSYN086AAXX  25031 33990 42563 71401 10138 20113 40134 56001 82532 333 55047 555 20117 7000/;
0165339900999992000042506004+44500+034170FM-12+007299999V0201501N001019999999N0180001N1+01651+01211101401ADDAA199000091GF108991031001999999031021KA1999N+01171MD1310061+9999REMSYN070AAXX  25061 33990 32968 81501 10165 20121 40140 53006 83032 333 20117;EQDQ01  00002PRCP99
0112339900999992000042509004+44500+034170FM-12+007299999V0200501N001019999999N0260001N1+01681+01121101441ADDGF108991081001999999071999MD1110041+9999REMSYN060AAXX  25091 33990 42976 80501 10168 20112 40144 51004 8807/;
0133339900999992000042512004+44500+034170FM-12+007299999V0202001N001012200019N0100001N1+01871+01191101361ADDGF103991011011012501001021MA1999999100511MD1810081+9999REMSYN066AAXX  25121 33990 42697 32001 10187 20119 30051 40136 58008 81102;
0112339900999992000042515004+44500+034170FM-12+007299999V0200401N001019999999N0270001N1+01631+01251101351ADDGF108991081001999999051999MD1510011+9999REMSYN060AAXX  25151 33990 42977 80401 10163 20125 40135 55001 8805/;
0165339900999992000042518004+44500+034170FM-12+007299999V0200401N001012200019N0220001N1+01331+01141101401ADDAA199000091GF103991031001999999031001KA1999M+01871MD1310041+9999REMSYN070AAXX  25181 33990 32972 30401 10133 20114 40140 53004 83030 333 10187;EQDQ01  00002PRCP99
0112339900999992000042521004+44500+034170FM-12+007299999V0209999C000019999999N0200001N1+01261+01141101421ADDGF105991051001999999031001MD1210021+9999REMSYN060AAXX  25211 33990 42970 50000 10126 20114 40142 52002 85030;
0133339900999992000042600004+44500+034170FM-12+007299999V0202801N001012200019N0160001N1+01181+01101101321ADDGF102991021051012501001001MA1999999100471MD1610091+9999REMSYN066AAXX  26001 33990 42666 22801 10118 20110 30047 40132 56009 82500;
0196339900999992000042603004+44500+034170FM-12+007299999V0202201N001010018019N0022001N1+01081+01021101351ADDAY111031AY211031GA1081+001809079GF108991081061002501999999GJ102169MD1310011+9999MW1101REMSYN098AAXX  26031 33990 41322 82201 10108 20102 40135 53001 71011 886// 333 55036 88706 555 20100 7000/;
0196339900999992000042606004+44500+034170FM-12+007299999V0200301N001010003019N0004001N1+01201+01141101451ADDAA112000791AY151061AY241061GA1091+999999999GF109991091999999999999999KA1120N+01001MD1310111+9999MW1511REMSYN082AAXX  26061 33990 11/04 90301 10120 20114 40145 53011 69902 75154 333 20100 96045;
0140339900999992000042609004+44500+034170FM-12+007299999V0201201N002010042019N0050001N1+01451+01251101521ADDAY151031AY241031GF106991061061004501001001MD1210071+9999MW1021REMSYN066AAXX  26091 33990 41450 61202 10145 20125 40152 52007 70254 86600;
0161339900999992000042612004+44500+034170FM-12+007299999V0200901N001010075019N0080001N1+01441+01201101541ADDAY151061AY241061GF106991061031008001001001MA1999999100681MD1210021+9999MW1101REMSYN072AAXX  26121 33990 41558 60901 10144 20120 30068 40154 52002 71054 86300;
0112339900999992000042615004+44500+034170FM-12+007299999V0203601N001010042019N0100001N1+01331+01181101531ADDGF108991081061004501999999MD1810011+9999REMSYN060AAXX  26151 33990 42460 83601 10133 20118 40153 58001 886//;
0174339900999992000042618004+44500+034170FM-12+007299999V0202301N001010042019N0070001N1+01261+01191101551ADDAA199000021AY121061AY221061GF108991081061004501999999KA1999M+01551MD1210021+9999MW1101REMSYN076AAXX  26181 33990 31457 82301 10126 20119 40155 52002 71022 886// 333 10155;
0150339900999992000042621004+44500+034170FM-12+007299999V0200901N001012200019N0070001N1+01151+01051999999ADDAY111031AY211031GA1001+999999999GF100991001001999999001001MD1210041+9999MW1101REMSYN060AAXX  26211 33990 41957 00901 10115 20105 4/159 52004 71011;
0171339900999992000042700004+44500+034170FM-12+007299999V0203601N001010003019N0004001N1+01121+01091101601ADDAY141061AY211061GA1091+999999999GF109991091999999999999999MA1999999100741MD1210011+9999MW1471REMSYN066AAXX  27001 33990 41/04 93601 10112 20109 30074 40160 52001 74741;
0166339900999992000042703004+44500+034170FM-12+007299999V0203201N001012200019N0009001N1+00961+00921101651ADDAY141031AY241031GF104991001001999999001091MD1210031+9999MW1421REMSYN092AAXX  27031 33990 41909 43201 10096 20092 40165 52003 74244 80009 333 55021 555 20096 7990/;
0193339900999992000042706004+44500+034170FM-12+007299999V0201201N001019999999N0250001N1+01921+01031101701ADDAA199000091AY141061AY211061GF106991001001999999001021KA1999N+00961MD1210081+9999MW1021REMSYN076AAXX  27061 33990 31975 61201 10192 20103 40170 52008 70241 80002 333 20096;EQDQ01  00002PRCP99
0140339900999992000042709004+44500+034170FM-12+007299999V0200701N002012200019N0044001N1+02001+01221101761ADDAY111031AY211031GF102991011021012501031011MD1210061+9999MW1401REMSYN066AAXX  27091 33990 41644 20702 10200 20122 40176 52006 74011 81231;
0133339900999992000042712004+44500+034170FM-12+007299999V0200701N002010120019N0220001N1+01901+01281101741ADDGF105991051031012501001001MA1999999100891MD1810021+9999REMSYN066AAXX  27121 33990 42672 50702 10190 20128 30089 40174 58002 85300;
0112339900999992000042715004+44500+034170FM-12+007299999V0202501N001012200019N0250001N1+01881+01241101611ADDGF101991001001999999001011MD1710131+9999REMSYN060AAXX  27151 33990 42975 12501 10188 20124 40161 57013 80001;
0165339900999992000042718004+44500+034170FM-12+007299999V0203001N001019999999N0220001N1+01811+01271101651ADDAA199000091GF105991051001999999031001KA1999M+02171MD1310041+9999REMSYN070AAXX  27181 33990 32972 53001 10181 20127 40165 53004 85030 333 10217;EQDQ01  00002PRCP99
0122339900999992000042721004+44500+034170FM-12+007299999V0202401N001012200019N0210001N1+01611+01141101641ADDGA1001+999999999GF100991001001999999001001MD1810011+9999REMSYN054AAXX  27211 33990 42971 02401 10161 20114 40164 58001;
0143339900999992000042800004+44500+034170FM-12+007299999V0203001N002012200019N0230001N1+01611+00921101541ADDGA1001+999999999GF100991001001999999001001MA1999999100691MD1710101+9999REMSYN060AAXX  28001 33990 42973 03002 10161 20092 30069 40154 57010;
0138339900999992000042803004+44500+034170FM-12+007299999V0200301N002012200019N0250001N1+01931+01041101531ADDGF102991021001999999041001MD1610011+9999REMSYN086AAXX  28031 33990 42975 20302 10193 20104 40153 56001 82040 333 55098 555 20158 7000/;
0146339900999992000042806004+44500+034170FM-12+007299999V0200801N005019999999N0280001N1+02181+01071101521ADDAA199000091GF105991001001999999001021MD1310011+9999REMSYN064AAXX  28061 33990 32978 50805 10218 20107 40152 53001 80002 333;EQDQ01  00002PRCP99
0112339900999992000042809004+44500+034170FM-12+007299999V0200601N004019999999N0260001N1+02111+01051101491ADDGF107991021001999999041021MD1810031+9999REMSYN060AAXX  28091 33990 42976 70604 10211 20105 40149 58003 82042;
0133339900999992000042812004+44500+034170FM-12+007299999V0200701N003019999999N0250001N1+02191+01151101431ADDGF107991071001999999041001MA1999999100601MD1710061+9999REMSYN066AAXX  28121 33990 42975 70703 10219 20115 30060 40143 57006 87040;
0112339900999992000042815004+44500+034170FM-12+007299999V0200901N003019999999N0230001N1+02141+01321101391ADDGF108991061001999999041011MD1710041+9999REMSYN060AAXX  28151 33990 42973 80903 10214 20132 40139 57004 86041;
0165339900999992000042818004+44500+034170FM-12+007299999V0202901N001019999999N0210001N1+01981+01271101321ADDAA199000091GF106991061001999999041001KA1999M+02341MD1710081+9999REMSYN070AAXX  28181 33990 32971 62901 10198 20127 40132 57008 86040 333 10234;EQDQ01  00002PRCP99
0122339900999992000042821004+44500+034170FM-12+007299999V0202901N001012200019N0270001N1+02131+01031101281ADDGA1001+999999999GF100991001001999999001001MD1710031+9999REMSYN054AAXX  28211 33990 /2977 02901 10213 20103 40128 57003;
0133339900999992000042900004+44500+034170FM-12+007299999V0200201N004012200019N0250001N1+02241+01201101161ADDGF102991021001999999031001MA1999999100331MD1710121+9999REMSYN066AAXX  29001 33990 42975 20204 10224 20120 30033 40116 57012 82030;
0138339900999992000042903004+44500+034170FM-12+007299999V0201001N001019999999N0280001N1+02181+01071101141ADDGF108991051001999999041021MD1710021+9999REMSYN086AAXX  29031 33990 42978 81001 10218 20107 40114 57002 85042 333 55081 555 20194 7000/;
0165339900999992000042906004+44500+034170FM-12+007299999V0201101N003010360019N0240001N1+02331+01071101131ADDAA199000091GF107991021051012501031011KA1999N+01941MD1610011+9999REMSYN070AAXX  29061 33990 32674 71103 10233 20107 40113 56001 82531 333 20194;EQDQ01  00002PRCP99
0112339900999992000042909004+44500+034170FM-12+007299999V0200401N006019999999N0250001N1+02411+01131101131ADDGF107991061001999999031011MD1410001+9999REMSYN060AAXX  29091 33990 42975 70406 10241 20113 40113 54000 86031;
0133339900999992000042912004+44500+034170FM-12+007299999V0200301N006012200019N0280001N1+02431+01251101091ADDGF107991021021012501001011MA1999999100261MD1810041+9999REMSYN066AAXX  29121 33990 42678 70306 10243 20125 30026 40109 58004 82201;
0112339900999992000042915004+44500+034170FM-12+007299999V0200501N004012200019N0280001N1+02301+01121101111ADDGF107991011011012501001011MD1310021+9999REMSYN060AAXX  29151 33990 42678 70504 10230 20112 40111 53002 81101;
0165339900999992000042918004+44500+034170FM-12+007299999V0200701N002019999999N0270001N1+01961+00971101301ADDAA199000091GF106991001001999999001011KA1999M+02561MD1210181+9999REMSYN070AAXX  29181 33990 32977 60702 10196 20097 40130 52018 80001 333 10256;EQDQ01  00002PRCP99
0122339900999992000042921004+44500+034170FM-12+007299999V0200901N003012200019N0260001N1+01981+01041101411ADDGA1001+999999999GF100991001001999999001001MD1210101+9999REMSYN054AAXX  29211 33990 42976 00903 10198 20104 40141 52010;
0133339900999992000043000004+44500+034170FM-12+007299999V0203601N002012200019N0260001N1+01751+00991101451ADDGF102991001001999999001011MA1999999100601MD1210041+9999REMSYN066AAXX  30001 33990 42976 23602 10175 20099 30060 40145 52004 80001;
0156339900999992000043003004+44500+034170FM-12+007299999V0201601N001012200019N0220001N1+01621+00781101541ADDGA1001+999999999GF100991001001999999001001GJ103609MD1210091+9999REMSYN080AAXX  30031 33990 42972 01601 10162 20078 40154 52009 333 55060 555 20157 7000/;
0175339900999992000043006004+44500+034170FM-12+007299999V0200801N002012200019N0300001N1+02041+01051101751ADDAA199000091GA1001+999999999GF100991001001999999001001KA1999N+01571MD1210211+9999REMSYN064AAXX  30061 33990 32980 00802 10204 20105 40175 52021 333 20157;EQDQ01  00002PRCP99
0122339900999992000043009004+44500+034170FM-12+007299999V0201201N001012200019N0350001N1+02091+00951101861ADDGA1001+999999999GF100991001001999999001001MD1110111+9999REMSYN054AAXX  30091 33990 42981 01201 10209 20095 40186 51011;
0133339900999992000043012004+44500+034170FM-12+007299999V0201201N001012200019N0350001N1+02271+01021101851ADDGF101991011011012501001001MA1999999101021MD1110011+9999REMSYN066AAXX  30121 33990 42681 11201 10227 20102 30102 40185 51001 81100;
0175339900999992000043018004+44500+034170FM-12+007299999V0202501N001012200019N0400001N1+01581+01071101791ADDAA199000091GA1001+999999999GF100991001001999999001001KA1999M+02291MD1610011+9999REMSYN064AAXX  30181 33990 32982 02501 10158 20107 40179 56001 333 10229;EQDQ01  00002PRCP99
0122339900999992000043021004+44500+034170FM-12+007299999V0202601N001012200019N0450001N1+01641+00781101751ADDGA1001+999999999GF100991001001999999001001MD1710031+9999REMSYN054AAXX  30211 33990 42983 02601 10164 20078 40175 57003;
0143339900999992000050100004+44500+034170FM-12+007299999V0203301N002012200019N0400001N1+01731+00651101591ADDGA1001+999999999GF100991001001999999001001MA1999999100741MD1710061+9999REMSYN060AAXX  01001 33990 42982 03302 10173 20065 30074 40159 57006;
0138339900999992000050103004+44500+034170FM-12+007299999V0202901N001012200019N0450001N1+01771+00681101481ADDGF101991011041012501001001MD1710111+9999REMSYN086AAXX  01031 33990 42683 12901 10177 20068 40148 57011 81400 333 55113 555 20149 7000/;
0175339900999992000050106004+44500+034170FM-12+007299999V0201401N001012200019N0300001N1+02321+01191101451ADDAA199000091GA1001+999999999GF100991001001999999001001KA1999N+01491MD1710011+9999REMSYN064AAXX  01061 33990 32980 01401 10232 20119 40145 57001 333 20149;EQDQ01  00002PRCP99
0112339900999992000050109004+44500+034170FM-12+007299999V0200901N002012200019N0300001N1+02531+01091101391ADDGF102991021021012501001001MD1710061+9999REMSYN060AAXX  01091 33990 42680 20902 10253 20109 40139 57006 82200;
0133339900999992000050112004+44500+034170FM-12+007299999V0203401N003012200019N0300001N1+02651+01001101271ADDGF102991021011012501001001MA1999999100461MD1710101+9999REMSYN066AAXX  01121 33990 42680 23403 10265 20100 30046 40127 57010 82100;
0122339900999992000050115004+44500+034170FM-12+007299999V0203201N004012200019N0300001N1+02261+00671101181ADDGA1001+999999999GF100991001001999999001001MD1710111+9999REMSYN054AAXX  01151 33990 42980 03204 10226 20067 40118 57011;
0175339900999992000050118004+44500+034170FM-12+007299999V0201801N001012200019N0260001N1+01941+00641101251ADDAA199000091GA1001+999999999GF100991001001999999001001KA1999M+02651MD1310061+9999REMSYN064AAXX  01181 33990 32976 01801 10194 20064 40125 53006 333 10265;EQDQ01  00002PRCP99
0112339900999992000050121004+44500+034170FM-12+007299999V0203501N001019999999N0230001N1+01711+01071101251ADDGF106991051001999999041021MD1210031+9999REMSYN060AAXX  01211 33990 42973 63501 10171 20107 40125 52003 85042;
0133339900999992000050200004+44500+034170FM-12+007299999V0203001N001019999999N0220001N1+01581+01021101151ADDGF106991061001999999041001MA1999999100301MD1810141+9999REMSYN066AAXX  02001 33990 42972 63001 10158 20102 30030 40115 58014 86040;
0165339900999992000050206004+44500+034170FM-12+007299999V0201201N002012200019N0230001N1+01681+01231101231ADDAA199000091GF107991041031008001001011KA1999N+01451MD1210061+9999REMSYN070AAXX  02061 33990 32573 71202 10168 20123 40123 52006 84301 333 20145;EQDQ01  00002PRCP99
0140339900999992000050209004+44500+034170FM-12+007299999V0200701N003010075019N0180001N1+01411+01191101341ADDAY181031AY221031GF107991071091008001001001MD1210101+9999MW1021REMSYN066AAXX  02091 33990 41568 70703 10141 20119 40134 52010 70282 87900;
0161339900999992000050212004+44500+034170FM-12+007299999V0201301N001010120019N0140001N1+01221+01051101451ADDAY181061AY221061GF108991081091012501999999MA1999999100591MD1110101+9999MW1251REMSYN072AAXX  02121 33990 41664 81301 10122 20105 30059 40145 51010 72582 889//;
0140339900999992000050215004+44500+034170FM-12+007299999V0202501N001010075019N0130001N1+01171+01101101441ADDAY181031AY221031GF108991081091008001999999MD1810011+9999MW1801REMSYN066AAXX  02151 33990 41563 82501 10117 20110 40144 58001 78082 889//;
0180339900999992000050218004+44500+034170FM-12+007299999V0202301N001010075019N0100001N1+01091+01021101621ADDAA112008991AY181061AY221061GF108991081091008001999999KA1999M+01701MD1310161+9999MW1801REMSYN082AAXX  02181 33990 11560 82301 10109 20102 40162 53016 60092 78082 889// 333 10170;
0140339900999992000050221004+44500+034170FM-12+007299999V0203401N003010075019N0170001N1+00811+00341101791ADDAY181031AY221031GF106991061051008001001001MD1210171+9999MW1021REMSYN066AAXX  02211 33990 41567 63403 10081 20034 40179 52017 70282 86500;
0161339900999992000050300004+44500+034170FM-12+007299999V0203001N002012200019N0200001N1+00711+00231101901ADDAY181061AY211061GF102991021051008001001001MA1999999101021MD1210111+9999MW1021REMSYN072AAXX  03001 33990 41570 23002 10071 20023 30102 40190 52011 70281 82500;
0156339900999992000050303004+44500+034170FM-12+007299999V0203501N005012200019N0300001N1+00801-00541101991ADDGA1001+999999999GF100991001001999999001001GJ101629MD1210091+9999REMSYN080AAXX  03031 33990 42980 03505 10080 21054 40199 52009 333 55027 555 20068 7009/;
0172339900999992000050306004+44500+034170FM-12+007299999V0203301N002012200019N0350001N1+01301-00331102161ADDAA112000591GA1001+999999999GF100991001001999999001001KA1120N+00681MD1110191+9999REMSYN080AAXX  03061 33990 12981 03302 10130 21033 40216 51019 69942 333 20068 555 52005;
0112339900999992000050309004+44500+034170FM-12+007299999V0200901N004012200019N0350001N1+01361+00021102321ADDGF101991011011012501001001MD1210161+9999REMSYN060AAXX  03091 33990 42681 10904 10136 20002 40232 52016 81100;
0133339900999992000050312004+44500+034170FM-12+007299999V0201001N002012200019N0350001N1+01431+00041102411ADDGF102991021011012501001001MA1999999101541MD1210081+9999REMSYN066AAXX  03121 33990 42681 21002 10143 20004 30154 40241 52008 82100;
0112339900999992000050315004+44500+034170FM-12+007299999V0201301N002012200019N0300001N1+01131+00231102461ADDGF102991021011012501001001MD1110031+9999REMSYN060AAXX  03151 33990 42680 21302 10113 20023 40246 51003 82100;
0175339900999992000050318004+44500+034170FM-12+007299999V0203001N001012200019N0210001N1+00881+00531102521ADDAA199000091GA1001+999999999GF100991001001999999001001KA1999M+01471MD1210061+9999REMSYN064AAXX  03181 33990 32971 03001 10088 20053 40252 52006 333 10147;EQDQ01  00002PRCP99
0122339900999992000050321004+44500+034170FM-12+007299999V0202901N002012200019N0190001N1+00701+00381102531ADDGA1001+999999999GF100991001001999999001001MD1210011+9999REMSYN054AAXX  03211 33990 42969 02902 10070 20038 40253 52001;
0143339900999992000050400004+44500+034170FM-12+007299999V0201501N001012200019N0200001N1+00731-00051102481ADDGA1001+999999999GF100991001001999999001001MA1999999101591MD1810051+9999REMSYN060AAXX  04001 33990 42970 01501 10073 21005 30159 40248 58005;
0156339900999992000050403004+44500+034170FM-12+007299999V0203101N001012200019N0200001N1+00651-00061102511ADDGA1001+999999999GF100991001001999999001001GJ107029MD1310021+9999REMSYN080AAXX  04031 33990 42970 03101 10065 21006 40251 53002 333 55117 555 20061 7000/;
0209339900999992000050406004+44500+034170FM-12+007299999V0200901N002012200019N0280001N1+01381+00251102521ADDAA199000091GA1001+999999999GF100991001001999999001001IA1019IA2999+00409KA1120N+00611MD1110041+9999REMSYN080AAXX  04061 33990 32978 00902 10138 20025 40252 51004 333 20061 555 30004 52004;EQDQ01  00002PRCP99
0112339900999992000050409004+44500+034170FM-12+007299999V0200801N003012200019N0300001N1+01511+00551102501ADDGF102991021021012501001001MD1810021+9999REMSYN060AAXX  04091 33990 42680 20803 10151 20055 40250 58002 82200;
0133339900999992000050412004+44500+034170FM-12+007299999V0200801N003010360019N0350001N1+01461+00341102461ADDGF106991031051012501031001MA1999999101591MD1610041+9999REMSYN066AAXX  04121 33990 42681 60803 10146 20034 30159 40246 56004 83530;
0112339900999992000050415004+44500+034170FM-12+007299999V0200901N002010360019N0300001N1+01221+00321102301ADDGF106991021051012501031001MD1710151+9999REMSYN060AAXX  04151 33990 42680 60902 10122 20032 40230 57015 82530;
0165339900999992000050418004+44500+034170FM-12+007299999V0203301N002010120019N0270001N1+00951+00301102291ADDAA199000091GF105991051051012501001001KA1999M+01531MD1610031+9999REMSYN070AAXX  04181 33990 32677 53302 10095 20030 40229 56003 85500 333 10153;EQDQ01  00002PRCP99
0122339900999992000050421004+44500+034170FM-12+007299999V0203101N002012200019N0300001N1+00911-00021102221ADDGA1001+999999999GF100991001001999999001001MD1810071+9999REMSYN054AAXX  04211 33990 42980 03102 10091 21002 40222 58007;
0156339900999992000050503004+44500+034170FM-12+007299999V0200101N002012200019N0350001N1+00951+00091102001ADDGA1001+999999999GF100991001001999999001001GJ105709MD1710071+9999REMSYN080AAXX  05031 33990 42981 00102 10095 20009 40200 57007 333 55095 555 20072 7000/;
0165339900999992000050506004+44500+034170FM-12+007299999V0200601N006019999999N0350001N1+01351+00271101901ADDAA199000091GF106991001001999999001011KA1999N+00721MD1710081+9999REMSYN070AAXX  05061 33990 32981 60606 10135 20027 40190 57008 80001 333 20072;EQDQ01  00002PRCP99
0112339900999992000050509004+44500+034170FM-12+007299999V0200701N006019999999N0300001N1+01521+00561101851ADDGF107991001001999999001061MD1610051+9999REMSYN060AAXX  05091 33990 42980 70706 10152 20056 40185 56005 80006;
0133339900999992000050512004+44500+034170FM-12+007299999V0200601N006010360019N0280001N1+01391+00621101801ADDGF108991011021012501071999MA1999999100941MD1710051+9999REMSYN066AAXX  05121 33990 42678 80606 10139 20062 30094 40180 57005 8127/;
0112339900999992000050515004+44500+034170FM-12+007299999V0200601N006019999999N0270001N1+01401+00581101671ADDGF107991021001012501031021MD1710131+9999REMSYN060AAXX  05151 33990 42677 70606 10140 20058 40167 57013 82032;
0165339900999992000050518004+44500+034170FM-12+007299999V0203001N001019999999N0260001N1+01131+00411101671ADDAA199000091GF106991061001999999031001KA1999M+01571MD1610021+9999REMSYN070AAXX  05181 33990 32976 63001 10113 20041 40167 56002 86030 333 10157;EQDQ01  00002PRCP99
0112339900999992000050521004+44500+034170FM-12+007299999V0202901N001019999999N0250001N1+01111+00341101671ADDGF106991061001999999031001MD1410001+9999REMSYN060AAXX  05211 33990 42975 62901 10111 20034 40167 54000 86030;
0133339900999992000050600004+44500+034170FM-12+007299999V0203101N001019999999N0260001N1+01391+00361101551ADDGF107991071001999999031001MA1999999100691MD1810101+9999REMSYN066AAXX  06001 33990 42976 73101 10139 20036 30069 40155 58010 87030;
0112339900999992000050603004+44500+034170FM-12+007299999V0203001N001019999999N0250001N1+01221+00431101541ADDGF107991071001999999071999MD1610011+9999REMSYN060AAXX  06031 33990 42975 73001 10122 20043 40154 56001 8707/;
0165339900999992000050606004+44500+034170FM-12+007299999V0201801N001010360019N0250001N1+01541+00761101591ADDAA199000091GF107991011021012501031001KA1999N+01011MD1310051+9999REMSYN070AAXX  06061 33990 32675 71801 10154 20076 40159 53005 81230 333 20101;EQDQ01  00002PRCP99
0112339900999992000050609004+44500+034170FM-12+007299999V0200701N002010360019N0210001N1+01621+01071101651ADDGF107991021041012501031011MD1210071+9999REMSYN060AAXX  06091 33990 42671 70702 10162 20107 40165 52007 82431;
0133339900999992000050612004+44500+034170FM-12+007299999V0200901N003010360019N0200001N1+01561+01031101681ADDGF107991041021012501031001MA1999999100821MD1210021+9999REMSYN066AAXX  06121 33990 42670 70903 10156 20103 30082 40168 52002 84230;
0112339900999992000050615004+44500+034170FM-12+007299999V0201201N001010360019N0200001N1+01411+01061101651ADDGF107991021051008001031001MD1810031+9999REMSYN060AAXX  06151 33990 42570 71201 10141 20106 40165 58003 82530;
0165339900999992000050618004+44500+034170FM-12+007299999V0203301N001019999999N0190001N1+01241+01051101681ADDAA199000091GF107991071001999999031001KA1999M+01771MD1310031+9999REMSYN070AAXX  06181 33990 32969 73301 10124 20105 40168 53003 87030 333 10177;EQDQ01  00002PRCP99
0112339900999992000050621004+44500+034170FM-12+007299999V0203001N001019999999N0180001N1+01161+00981101751ADDGF107991071001999999031001MD1210071+9999REMSYN060AAXX  06211 33990 42968 73001 10116 20098 40175 52007 87030;
0143339900999992000050700004+44500+034170FM-12+007299999V0203601N001012200019N0200001N1+01021+00841101731ADDGA1001+999999999GF100991001001999999001001MA1999999100851MD1810041+9999REMSYN060AAXX  07001 33990 42970 03601 10102 20084 30085 40173 58004;
0156339900999992000050703004+44500+034170FM-12+007299999V0202701N001012200019N0250001N1+01041+00611101701ADDGA1001+999999999GF100991001001999999001001GJ102229MD1710031+9999REMSYN080AAXX  07031 33990 42975 02701 10104 20061 40170 57003 333 55037 555 20097 7000/;
0175339900999992000050706004+44500+034170FM-12+007299999V0200901N001012200019N0230001N1+01541+01151101761ADDAA199000091GA1001+999999999GF100991001001999999001001KA1999N+00971MD1310081+9999REMSYN064AAXX  07061 33990 32973 00901 10154 20115 40176 53008 333 20097;EQDQ01  00002PRCP99
0112339900999992000050709004+44500+034170FM-12+007299999V0200701N002010120019N0280001N1+01961+01141101711ADDGF105991051011012501001001MD1810041+9999REMSYN060AAXX  07091 33990 42678 50702 10196 20114 40171 58004 85100;
0133339900999992000050712004+44500+034170FM-12+007299999V0203401N003012200019N0350001N1+02291+00581101601ADDGF103991031021012501001001MA1999999100771MD1710091+9999REMSYN066AAXX  07121 33990 42681 33403 10229 20058 30077 40160 57009 83200;
0112339900999992000050715004+44500+034170FM-12+007299999V0200901N002012200019N0350001N1+02051+00361101551ADDGF102991011001999999041091MD1710071+9999REMSYN060AAXX  07151 33990 42981 20902 10205 20036 40155 57007 81049;
0165339900999992000050718004+44500+034170FM-12+007299999V0203001N003019999999N0270001N1+01791+00361101521ADDAA199000091GF105991051001999999041001KA1999M+02351MD1710031+9999REMSYN070AAXX  07181 33990 32977 53003 10179 20036 40152 57003 85040 333 10235;EQDQ01  00002PRCP99
0140339900999992000050721004+44500+034170FM-12+007299999V0200101N002010075019N0160001N1+01141+00941101761ADDAY181031AY221031GF105991051031008001001001MD1310231+9999MW1801REMSYN066AAXX  07211 33990 41566 50102 10114 20094 40176 53023 78082 85300;
0143339900999992000050800004+44500+034170FM-12+007299999V0200801N003012200019N0210001N1+01041+00511101841ADDGA1001+999999999GF100991001001999999001001MA1999999100961MD1210061+9999REMSYN060AAXX  08001 33990 42971 00803 10104 20051 30096 40184 52006;
0138339900999992000050803004+44500+034170FM-12+007299999V0200101N004012200019N0250001N1+01041+00411101901ADDGF101991011001999999021001MD1210061+9999REMSYN086AAXX  08031 33990 42975 10104 10104 20041 40190 52006 81020 333 55114 555 20096 7002/;
0132339900999992000050806004+44500+034170FM-12+007299999V0200201N005012200019N0350001N1+01481+00271102151ADDAA112002091GF101991011011012501001001KA1999N+00961REMSYN070AAXX  08061 33990 12681 10205 10148 20027 40215 60022 81100 333 20096;
0106339900999992000050809004+44500+034170FM-12+007299999V0201301N002012200019N0350001N1+01611+00551102311ADDGF102991999999012501999999MD1210161+9999REMSYN054AAXX  08091 33990 42681 21302 10161 20055 40231 52016;
0133339900999992000050812004+44500+034170FM-12+007299999V0201701N002010120019N0350001N1+01461+00581102351ADDGF105991051021012501001001MA1999999101491MD1110041+9999REMSYN066AAXX  08121 33990 42681 51702 10146 20058 30149 40235 51004 85200;
0112339900999992000050815004+44500+034170FM-12+007299999V02099999999992200019N0300001N1+01371+00591102341ADDGF103991031021012501001001MD1810011+9999REMSYN060AAXX  08151 33990 42680 3/001 10137 20059 40234 58001 83200;
0122339900999992000050821004+44500+034170FM-12+007299999V0203301N002012200019N0400001N1+01171-00021102101ADDGA1001+999999999GF100991001001999999001001MD1110011+9999REMSYN054AAXX  08211 33990 42982 03302 10117 21002 40210 51001;
0156339900999992000050903004+44500+034170FM-12+007299999V0203001N001012200019N0400001N1+01161+00091102371ADDGA1001+999999999GF100991001001999999001001GJ106729MD1810011+9999REMSYN080AAXX  09031 33990 42982 03001 10116 20009 40237 58001 333 55112 555 20102 7000/;
0165339900999992000050906004+44500+034170FM-12+007299999V0203601N003012200019N0280001N1+01761+00461102381ADDAA199000091GF102991001001999999001011KA1999N+01021MD1310031+9999REMSYN070AAXX  09061 33990 32978 23603 10176 20046 40238 53003 80001 333 20102;EQDQ01  00002PRCP99
0112339900999992000050909004+44500+034170FM-12+007299999V0203401N002012200019N0300001N1+01961+00761102371ADDGF103991021021012501001011MD1610011+9999REMSYN060AAXX  09091 33990 42680 33402 10196 20076 40237 56001 82201;
0133339900999992000050912004+44500+034170FM-12+007299999V0202701N003012200019N0350001N1+02031+00461102311ADDGF107991031021012501001011MA1999999101461MD1810051+9999REMSYN066AAXX  09121 33990 42681 72703 10203 20046 30146 40231 58005 83201;
0112339900999992000050915004+44500+034170FM-12+007299999V0202901N002019999999N0300001N1+01741+00291102231ADDGF106991001001999999001011MD1710081+9999REMSYN060AAXX  09151 33990 42980 62902 10174 20029 40223 57008 80001;
0165339900999992000050918004+44500+034170FM-12+007299999V0202901N002019999999N0300001N1+01401+00151102261ADDAA199000091GF107991001001999999001011KA1999M+02071MD1810021+9999REMSYN070AAXX  09181 33990 32980 72902 10140 20015 40226 58002 80001 333 10207;EQDQ01  00002PRCP99
0122339900999992000050921004+44500+034170FM-12+007299999V0202701N002012200019N0300001N1+01211+00091102251ADDGA1001+999999999GF100991001001999999001001MD1710011+9999REMSYN054AAXX  09211 33990 42980 02702 10121 20009 40225 57001;
0133339900999992000051000004+44500+034170FM-12+007299999V0202701N002012200019N0300001N1+01201+00151102161ADDGF102991001001999999001011MA1999999101301MD1710091+9999REMSYN066AAXX  10001 33990 42980 22702 10120 20015 30130 40216 57009 80001;
0138339900999992000051003004+44500+034170FM-12+007299999V0202901N001012200019N0280001N1+01221+00191102101ADDGF102991001001999999001011MD1710061+9999REMSYN086AAXX  10031 33990 42978 22901 10122 20019 40210 57006 80001 333 55110 555 20116 7000/;
0181339900999992000051006004+44500+034170FM-12+007299999V0200701N001012200019N0300001N1+01761+00581999999ADDAA199000091GF102991001001999999001011KA1999N+01161MD1410001+9999REMSYN070AAXX  10061 33990 32980 20701 10176 20058 40409 54000 80001 333 20116;EQDQ01+104093APOSLPQ02  00002PRCP99
0122339900999992000051009004+44500+034170FM-12+007299999V0200601N001012200019N0300001N1+02061+00861102061ADDGA1001+999999999GF100991001001999999001001MD1810031+9999REMSYN054AAXX  10091 33990 42980 00601 10206 20086 40206 58003;
0143339900999992000051012004+44500+034170FM-12+007299999V0201501N002012200019N0350001N1+02251+00861101941ADDGA1001+999999999GF100991001001999999001001MA1999999101111MD1710101+9999REMSYN060AAXX  10121 33990 42981 01502 10225 20086 30111 40194 57010;
0122339900999992000051015004+44500+034170FM-12+007299999V0200501N001012200019N0350001N1+02121+00561101891ADDGA1001+999999999GF100991001001999999001001MD1710071+9999REMSYN054AAXX  10151 33990 42981 00501 10212 20056 40189 57007;
0165339900999992000051018004+44500+034170FM-12+007299999V0203201N001012200019N0300001N1+01621+00401101971ADDAA199000091GF102991021001999999041001KA1999M+02271MD1310071+9999REMSYN070AAXX  10181 33990 32980 23201 10162 20040 40197 53007 82040 333 10227;EQDQ01  00002PRCP99
0122339900999992000051021004+44500+034170FM-12+007299999V0203601N001012200019N0260001N1+01181+00741101931ADDGA1001+999999999GF100991001001999999001001MD1810041+9999REMSYN054AAXX  10211 33990 42976 03601 10118 20074 40193 58004;
0143339900999992000051100004+44500+034170FM-12+007299999V0203401N001012200019N0240001N1+01061+00741101911ADDGA1001+999999999GF100991001001999999001001MA1999999101031MD1710041+9999REMSYN060AAXX  11001 33990 42974 03401 10106 20074 30103 40191 57004;
0156339900999992000051103004+44500+034170FM-12+007299999V0202701N001012200019N0240001N1+01061+00881101911ADDGA1001+999999999GF100991001001999999001001GJ107089MD1410001+9999REMSYN080AAXX  11031 33990 42974 02701 10106 20088 40191 54000 333 55118 555 20102 7000/;
0175339900999992000051106004+44500+034170FM-12+007299999V0201101N002012200019N0260001N1+01501+01091101911ADDAA199000091GA1001+999999999GF100991001001999999001001KA1999N+01021MD1310021+9999REMSYN064AAXX  11061 33990 32976 01102 10150 20109 40191 53002 333 20102;EQDQ01  00002PRCP99
0112339900999992000051109004+44500+034170FM-12+007299999V0200501N002012200019N0230001N1+01811+01311101851ADDGF103991021021012501001011MD1810051+9999REMSYN060AAXX  11091 33990 42673 30502 10181 20131 40185 58005 82201;
0133339900999992000051112004+44500+034170FM-12+007299999V0200601N002012200019N0220001N1+01761+01201101781ADDGF103991021021012501041001MA1999999100931MD1710071+9999REMSYN066AAXX  11121 33990 42672 30602 10176 20120 30093 40178 57007 82240;
0112339900999992000051115004+44500+034170FM-12+007299999V0200401N002019999999N0220001N1+01531+01121101641ADDGF107991001001999999001021MD1710151+9999REMSYN060AAXX  11151 33990 42972 70402 10153 20112 40164 57015 80002;
0165339900999992000051118004+44500+034170FM-12+007299999V0203301N001019999999N0200001N1+01311+01101101591ADDAA199000091GF107991071001999999031001KA1999M+01891MD1610051+9999REMSYN070AAXX  11181 33990 32970 73301 10131 20110 40159 56005 87030 333 10189;EQDQ01  00002PRCP99
0112339900999992000051121004+44500+034170FM-12+007299999V0202501N001019999999N0220001N1+01351+00671101501ADDGF107991071001999999031001MD1810091+9999REMSYN060AAXX  11211 33990 42972 72501 10135 20067 40150 58009 87030;
0161339900999992000051200004+44500+034170FM-12+007299999V0202601N001010120019N0120001N1+01151+01051101381ADDAY181061AY221061GF108991081091012501999999MA1999999100521MD1710121+9999MW1801REMSYN072AAXX  12001 33990 41662 82601 10115 20105 30052 40138 57012 78082 889//;
0138339900999992000051203004+44500+034170FM-12+007299999V0202601N001010120019N0210001N1+01261+01061101161ADDGF106991061031012501001021MD1710211+9999REMSYN086AAXX  12031 33990 42671 62601 10126 20106 40116 57021 86302 333 55115 555 20110 7002/;
0112339900999992000051209004+44500+034170FM-12+007299999V0200501N002010120019N0290001N1+01921+01221101111ADDGF105991051011012501001001MD1810031+9999REMSYN060AAXX  12091 33990 42679 50502 10192 20122 40111 58003 85100;
0133339900999992000051212004+44500+034170FM-12+007299999V0200801N002010120019N0290001N1+02121+01441101061ADDGF105991051021012501001001MA1999999100231MD1710041+9999REMSYN066AAXX  12121 33990 42679 50802 10212 20144 30023 40106 57004 85200;
0112339900999992000051215004+44500+034170FM-12+007299999V0202501N002012200019N0300001N1+02281+01251101051ADDGF102991021021012501001001MD1710011+9999REMSYN060AAXX  12151 33990 42680 22502 10228 20125 40105 57001 82200;
0165339900999992000051218004+44500+034170FM-12+007299999V0201701N001010120019N0220001N1+02101+01191101161ADDAA199000091GF106991061021012501001001KA1999M+02471MD1310111+9999REMSYN070AAXX  12181 33990 32672 61701 10210 20119 40116 53011 86200 333 10247;EQDQ01  00002PRCP99
0122339900999992000051221004+44500+034170FM-12+007299999V0203601N001012200019N0200001N1+01841+01141101301ADDGA1001+999999999GF100991001001999999001001MD1210131+9999REMSYN054AAXX  12211 33990 42970 03601 10184 20114 40130 52013;
0133339900999992000051300004+44500+034170FM-12+007299999V0200501N001012200019N0160001N1+01541+00981101441ADDGF103991001001999999001021MA1999999100581MD1210121+9999REMSYN066AAXX  13001 33990 42966 30501 10154 20098 30058 40144 52012 80002;
0180339900999992000051306004+44500+034170FM-12+007299999V0200901N004010360019N0190001N1+01461+00681101781ADDAA112000791AY181061AY221061GF105991011011012501031001KA1999N+01241MD1110141+9999MW1021REMSYN082AAXX  13061 33990 11669 50904 10146 20068 40178 51014 69902 70282 81130 333 20124;
0122339900999992000051309004+44500+034170FM-12+007299999V0201201N003012200019N0230001N1+01531+00581101851ADDGA1001+999999999GF100991001001999999001001MD1210071+9999REMSYN054AAXX  13091 33990 42973 01203 10153 20058 40185 52007;
0146339900999992000051312004+44500+034170FM-12+007299999V0202901N999992200019N0280001N1+99999+99999101861ADDGF104991001001999999001021MA1999999101001MD1110011+9999REMSYN060AAXX  13121 33990 42978 42975 21203 30100 40186 51001 80002;EQDQ01+007503WOSPD 
0122339900999992000051315004+44500+034170FM-12+007299999V0209999C000012200019N0270001N1+01361+00761101911ADDGA1001+999999999GF100991001001999999001001MD1310051+9999REMSYN054AAXX  13151 33990 42977 00000 10136 20076 40191 53005;
0175339900999992000051318004+44500+034170FM-12+007299999V0203301N003012200019N0250001N1+01131+00001102091ADDAA199000091GA1001+999999999GF100991001001999999001001KA1999M+01651MD1310161+9999REMSYN064AAXX  13181 33990 32975 03303 10113 20000 40209 53016 333 10165;EQDQ01  00002PRCP99
0122339900999992000051321004+44500+034170FM-12+007299999V0203201N001012200019N0270001N1+01061-00021102251ADDGA1001+999999999GF100991001001999999001001MD1110161+9999REMSYN054AAXX  13211 33990 42977 03201 10106 21002 40225 51016;
0143339900999992000051400004+44500+034170FM-12+007299999V0203001N001012200019N0260001N1+00911+00061102211ADDGA1001+999999999GF100991001001999999001001MA1999999101331MD1810041+9999REMSYN060AAXX  14001 33990 42976 03001 10091 20006 30133 40221 58004;
0156339900999992000051403004+44500+034170FM-12+007299999V0202701N001012200019N0230001N1+00921+00061102221ADDGA1001+999999999GF100991001001999999001001GJ106069MD1210011+9999REMSYN080AAXX  14031 33990 42973 02701 10092 20006 40222 52001 333 55101 555 20083 7000/;
0175339900999992000051406004+44500+034170FM-12+007299999V0201601N002012200019N0240001N1+01601+00361102201ADDAA199000091GA1001+999999999GF100991001001999999001001KA1999N+00831MD1410001+9999REMSYN064AAXX  14061 33990 32974 01602 10160 20036 40220 54000 333 20083;EQDQ01  00002PRCP99
0112339900999992000051409004+44500+034170FM-12+007299999V0202101N003012200019N0250001N1+01971+00711102121ADDGF101991011011012501001001MD1710071+9999REMSYN060AAXX  14091 33990 42675 12103 10197 20071 40212 57007 81100;
0133339900999992000051412004+44500+034170FM-12+007299999V0201601N003012200019N0270001N1+01961+00671101981ADDGF101991011011012501001001MA1999999101131MD1710141+9999REMSYN066AAXX  14121 33990 42677 11603 10196 20067 30113 40198 57014 81100;
0112339900999992000051415004+44500+034170FM-12+007299999V0200701N001012200019N0250001N1+01721+00511101881ADDGF102991001001999999001011MD1710101+9999REMSYN060AAXX  14151 33990 42975 20701 10172 20051 40188 57010 80001;
0175339900999992000051418004+44500+034170FM-12+007299999V0201601N002012200019N0280001N1+01441+00211101881ADDAA199000091GA1001+999999999GF100991001001999999001001KA1999M+02001MD1610011+9999REMSYN064AAXX  14181 33990 32978 01602 10144 20021 40188 56001 333 10200;EQDQ01  00002PRCP99
0112339900999992000051421004+44500+034170FM-12+007299999V0202501N001019999999N0270001N1+01281+00291101881ADDGF105991001001999999001011MD1410001+9999REMSYN060AAXX  14211 33990 42977 52501 10128 20029 40188 54000 80001;
0133339900999992000051500004+44500+034170FM-12+007299999V0203201N002010150019N0260001N1+01381+00401101831ADDGF106991061081012501001001MA1999999100971MD1810051+9999REMSYN066AAXX  15001 33990 42676 63202 10138 20040 30097 40183 58005 86800;
0138339900999992000051503004+44500+034170FM-12+007299999V0202701N001012200019N0220001N1+01501+00361101761ADDGF103991021051012501041001MD1710071+9999REMSYN086AAXX  15031 33990 42672 32701 10150 20036 40176 57007 82540 333 55118 555 20123 7000/;
0165339900999992000051506004+44500+034170FM-12+007299999V0202301N002012200019N0250001N1+02011+00861101731ADDAA199000091GF102991021021012501001001KA1999N+01231MD1710021+9999REMSYN070AAXX  15061 33990 32675 22302 10201 20086 40173 57002 82200 333 20123;EQDQ01  00002PRCP99
0112339900999992000051509004+44500+034170FM-12+007299999V0203601N002012200019N0240001N1+02061+00921101761ADDGF103991031021012501001001MD1310031+9999REMSYN060AAXX  15091 33990 42674 33602 10206 20092 40176 53003 83200;
0133339900999992000051512004+44500+034170FM-12+007299999V0200901N003012200019N0220001N1+01851+00971101801ADDGF104991041021012501001001MA1999999100951MD1210041+9999REMSYN066AAXX  15121 33990 42672 40903 10185 20097 30095 40180 52004 84200;
0112339900999992000051515004+44500+034170FM-12+007299999V0203001N002012200019N0240001N1+01721+00891101781ADDGF103991031021012501001001MD1810021+9999REMSYN060AAXX  15151 33990 42674 33002 10172 20089 40178 58002 83200;
0165339900999992000051518004+44500+034170FM-12+007299999V0203001N001012200019N0200001N1+01361+01101101931ADDAA199000091GF102991021001999999041001KA1999M+02291MD1310141+9999REMSYN070AAXX  15181 33990 32970 23001 10136 20110 40193 53014 82040 333 10229;EQDQ01  00002PRCP99
0112339900999992000051521004+44500+034170FM-12+007299999V0202901N001012200019N0200001N1+01221+00881101951ADDGF101991011051012501001001MD1210021+9999REMSYN060AAXX  15211 33990 42670 12901 10122 20088 40195 52002 81500;
0133339900999992000051600004+44500+034170FM-12+007299999V0202501N001012200019N0200001N1+01181+00811101921ADDGF102991001001999999001011MA1999999101061MD1810031+9999REMSYN066AAXX  16001 33990 42970 22501 10118 20081 30106 40192 58003 80001;
0156339900999992000051603004+44500+034170FM-12+007299999V0201801N001012200019N0220001N1+01241+00731101831ADDGA1001+999999999GF100991001001999999001001GJ106729MD1710091+9999REMSYN080AAXX  16031 33990 42972 01801 10124 20073 40183 57009 333 55112 555 20115 7000/;
0165339900999992000051606004+44500+034170FM-12+007299999V0200301N002012200019N0260001N1+01811+01051101841ADDAA199000091GF103991031021012501001001KA1999N+01151MD1310021+9999REMSYN070AAXX  16061 33990 32676 30302 10181 20105 40184 53002 83200 333 20115;EQDQ01  00002PRCP99
0133339900999992000051612004+44500+034170FM-12+007299999V0202001N002012200019N0270001N1+02161+01071101601ADDGF103991021021012501041001MA1999999100771MD1710151+9999REMSYN066AAXX  16121 33990 42677 32002 10216 20107 30077 40160 57015 82240;
0112339900999992000051615004+44500+034170FM-12+007299999V0201601N002012200019N0300001N1+02081+00801101481ADDGF101991001001999999001011MD1710141+9999REMSYN060AAXX  16151 33990 42980 11602 10208 20080 40148 57014 80001;
0165339900999992000051618004+44500+034170FM-12+007299999V0202501N001012200019N0300001N1+01741+00551101481ADDAA199000091GF103991031001999999041001KA1999M+02311MD1510001+9999REMSYN070AAXX  16181 33990 32980 32501 10174 20055 40148 55000 83040 333 10231;EQDQ01  00002PRCP99
0112339900999992000051621004+44500+034170FM-12+007299999V0203301N001019999999N0280001N1+01751+00561101441ADDGF108991081001999999071999MD1810041+9999REMSYN060AAXX  16211 33990 42978 83301 10175 20056 40144 58004 8807/;
0133339900999992000051700004+44500+034170FM-12+007299999V0203101N001010360019N0260001N1+01611+00921101371ADDGF107991031051012501041001MA1999999100521MD1710071+9999REMSYN066AAXX  17001 33990 42676 73101 10161 20092 30052 40137 57007 83540;
0138339900999992000051703004+44500+034170FM-12+007299999V0201901N001010360019N0270001N1+01711+00901101271ADDGF106991021051012501041021MD1710091+9999REMSYN086AAXX  17031 33990 42677 61901 10171 20090 40127 57009 82542 333 55119 555 20155 7000/;
0165339900999992000051706004+44500+034170FM-12+007299999V0200901N001012200019N0300001N1+02081+01071101351ADDAA199000091GF102991011001999999061011KA1999N+01551MD1310071+9999REMSYN070AAXX  17061 33990 32980 20901 10208 20107 40135 53007 81061 333 20155;EQDQ01  00002PRCP99
0106339900999992000051709004+44500+034170FM-12+007299999V0200601N002019999999N0280001N1+02051+01151101551ADDGF105991999999012501999999MD1210201+9999REMSYN054AAXX  17091 33990 42678 50602 10205 20115 40155 5202/;
0133339900999992000051712004+44500+034170FM-12+007299999V0200301N001010150019N0240001N1+01811+01271101591ADDGF106991061081012501001001MA1999999100741MD1210041+9999REMSYN066AAXX  17121 33990 42674 60301 10181 20127 30074 40159 52004 86800;
0112339900999992000051715004+44500+034170FM-12+007299999V0200801N003010150019N0170001N1+01721+01311101541ADDGF106991061081012501001001MD1810051+9999REMSYN060AAXX  17151 33990 42667 60803 10172 20131 40154 58005 86800;
0165339900999992000051718004+44500+034170FM-12+007299999V0200601N005010150019N0140001N1+01481+01241101561ADDAA199000091GF107991071081012501001001KA1999M+02091MD1310011+9999REMSYN070AAXX  17181 33990 32664 70605 10148 20124 40156 53001 87800 333 10209;EQDQ01  00002PRCP99
0112339900999992000051721004+44500+034170FM-12+007299999V0200701N004010150019N0160001N1+01421+01071101571ADDGF107991071081012501001001MD1210011+9999REMSYN060AAXX  17211 33990 42666 70704 10142 20107 40157 52001 87800;
0133339900999992000051800004+44500+034170FM-12+007299999V0200301N001010120019N0160001N1+01341+01021101471ADDGF105991051011012501001001MA1999999100611MD1810101+9999REMSYN066AAXX  18001 33990 42666 50301 10134 20102 30061 40147 58010 85100;
0074339900999992000051803004+44500+034170FM-12+007299999V0202201N001012200019N0190001N1+01261+99999999999ADDGF103991999999012501999999REMSYN036AAXX  18031 33990 42669 32201 10126;
0165339900999992000051806004+44500+034170FM-12+007299999V0200701N002010075019N0240001N1+01481+00861101471ADDAA199000091GF107991071051008001001001KA1999N+01221MD1310041+9999REMSYN070AAXX  18061 33990 32574 70702 10148 20086 40147 53004 87500 333 20122;EQDQ01  00002PRCP99
0122339900999992000051809004+44500+034170FM-12+007299999V0200901N003012200019N0260001N1+01641+00951101501ADDGA1001+999999999GF100991001001999999001001MD1210041+9999REMSYN054AAXX  18091 33990 42976 00903 10164 20095 40150 52004;
0143339900999992000051812004+44500+034170FM-12+007299999V0201201N002012200019N0290001N1+01681+00811101481ADDGA1001+999999999GF100991001001999999001001MA1999999100631MD1810021+9999REMSYN060AAXX  18121 33990 42979 01202 10168 20081 30063 40148 58002;
0112339900999992000051815004+44500+034170FM-12+007299999V0209999C000012200019N0280001N1+01421+00291101401ADDGF102991011011012501001091MD1810091+9999REMSYN060AAXX  18151 33990 42678 20000 10142 20029 40140 58009 81109;
0175339900999992000051818004+44500+034170FM-12+007299999V0209999C000012200019N0350001N1+01201+00651101411ADDAA199000091GA1001+999999999GF100991001001999999001001KA1999M+01781MD1310011+9999REMSYN064AAXX  18181 33990 32981 00000 10120 20065 40141 53001 333 10178;EQDQ01  00002PRCP99
0122339900999992000051821004+44500+034170FM-12+007299999V0202901N001012200019N0400001N1+01131+00581101431ADDGA1001+999999999GF100991001001999999001001MD1410001+9999REMSYN054AAXX  18211 33990 42982 02901 10113 20058 40143 54000;
0143339900999992000051900004+44500+034170FM-12+007299999V0202701N001012200019N0450001N1+01261+00431101311ADDGA1001+999999999GF100991001001999999001001MA1999999100461MD1810091+9999REMSYN060AAXX  19001 33990 42983 02701 10126 20043 30046 40131 58009;
0156339900999992000051903004+44500+034170FM-12+007299999V0202701N002012200019N0400001N1+01371+00501101251ADDGA1001+999999999GF100991001001999999001001GJ105409MD1610061+9999REMSYN080AAXX  19031 33990 42982 02702 10137 20050 40125 56006 333 55090 555 20110 7000/;
0175339900999992000051906004+44500+034170FM-12+007299999V0200901N002012200019N0280001N1+01741+01001101301ADDAA199000091GA1001+999999999GF100991001001999999001001KA1999N+01101MD1310051+9999REMSYN064AAXX  19061 33990 32978 00902 10174 20100 40130 53005 333 20110;EQDQ01  00002PRCP99
0112339900999992000051909004+44500+034170FM-12+007299999V0201501N003012200019N0300001N1+01801+00821101361ADDGF101991011021012501001001MD1210061+9999REMSYN060AAXX  19091 33990 42680 11503 10180 20082 40136 52006 81200;
0133339900999992000051912004+44500+034170FM-12+007299999V0201201N003012200019N0350001N1+01821+00931101311ADDGF103991031021012501001001MA1999999100471MD1810041+9999REMSYN066AAXX  19121 33990 42681 31203 10182 20093 30047 40131 58004 83200;
0112339900999992000051915004+44500+034170FM-12+007299999V0201501N002012200019N0300001N1+01701+00801101161ADDGF102991021021012501001001MD1710151+9999REMSYN060AAXX  19151 33990 42680 21502 10170 20080 40116 57015 82200;
0175339900999992000051918004+44500+034170FM-12+007299999V0202701N001012200019N0260001N1+01421+00731101141ADDAA199000091GA1001+999999999GF100991001001999999001001KA1999M+01911MD1710031+9999REMSYN064AAXX  19181 33990 32976 02701 10142 20073 40114 57003 333 10191;EQDQ01  00002PRCP99
0122339900999992000051921004+44500+034170FM-12+007299999V0200901N001012200019N0260001N1+01361+00581101141ADDGA1001+999999999GF100991001001999999001001MD1410001+9999REMSYN054AAXX  19211 33990 42976 00901 10136 20058 40114 54000;
0143339900999992000052000004+44500+034170FM-12+007299999V0201101N001012200019N0250001N1+01221+00561101071ADDGA1001+999999999GF100991001001999999001001MA1999999100221MD1810071+9999REMSYN060AAXX  20001 33990 42975 01101 10122 20056 30022 40107 58007;
0156339900999992000052003004+44500+034170FM-12+007299999V0203401N001012200019N0180001N1+01161+00651101041ADDGA1001+999999999GF100991001001999999001001GJ107149MD1610031+9999REMSYN080AAXX  20031 33990 42968 03401 10116 20065 40104 56003 333 55119 555 20112 7000/;
0175339900999992000052006004+44500+034170FM-12+007299999V0201201N002012200019N0210001N1+01731+01041101151ADDAA199000091GA1001+999999999GF100991001001999999001001KA1999N+01121MD1310121+9999REMSYN064AAXX  20061 33990 32971 01202 10173 20104 40115 53012 333 20112;EQDQ01  00002PRCP99
0122339900999992000052009004+44500+034170FM-12+007299999V0201101N002012200019N0230001N1+01831+01221101231ADDGA1001+999999999GF100991001001999999001001MD1210081+9999REMSYN054AAXX  20091 33990 42973 01102 10183 20122 40123 52008;
0143339900999992000052012004+44500+034170FM-12+007299999V0201401N002012200019N0240001N1+01761+01201101231ADDGA1001+999999999GF100991001001999999001001MA1999999100391MD1410001+9999REMSYN060AAXX  20121 33990 42974 01402 10176 20120 30039 40123 54000;
0122339900999992000052015004+44500+034170FM-12+007299999V0201201N001012200019N0210001N1+01631+01291101201ADDGA1001+999999999GF100991001001999999001001MD1810031+9999REMSYN054AAXX  20151 33990 42971 01201 10163 20129 40120 58003;
0175339900999992000052018004+44500+034170FM-12+007299999V0203001N001012200019N0200001N1+01411+01261101221ADDAA199000091GA1001+999999999GF100991001001999999001001KA1999M+01871MD1310011+9999REMSYN064AAXX  20181 33990 32970 03001 10141 20126 40122 53001 333 10187;EQDQ01  00002PRCP99
0122339900999992000052021004+44500+034170FM-12+007299999V0202301N001012200019N0230001N1+01261+00881101241ADDGA1001+999999999GF100991001001999999001001MD1210021+9999REMSYN054AAXX  20211 33990 42973 02301 10126 20088 40124 52002;
0143339900999992000052100004+44500+034170FM-12+007299999V0202901N001012200019N0230001N1+01241+00771101171ADDGA1001+999999999GF100991001001999999001001MA1999999100321MD1810071+9999REMSYN060AAXX  21001 33990 42973 02901 10124 20077 30032 40117 58007;
0138339900999992000052103004+44500+034170FM-12+007299999V0202901N001012200019N0200001N1+01251+00951101161ADDGF104991041061004501001001MD1710011+9999REMSYN086AAXX  21031 33990 42470 42901 10125 20095 40116 57001 84600 333 55119 555 20121 7000/;
0165339900999992000052106004+44500+034170FM-12+007299999V0200701N002012200019N0210001N1+01811+01371101201ADDAA199000091GF107991021061004501001011KA1999N+01211MD1210051+9999REMSYN070AAXX  21061 33990 32471 70702 10181 20137 40120 52005 82601 333 20121;EQDQ01  00002PRCP99
0112339900999992000052109004+44500+034170FM-12+007299999V0201401N003019999999N0220001N1+01891+01381101231ADDGF105991021001999999041011MD1210031+9999REMSYN060AAXX  21091 33990 42972 51403 10189 20138 40123 52003 82041;
0133339900999992000052112004+44500+034170FM-12+007299999V0201301N002012200019N0230001N1+01911+01411101181ADDGF102991011001999999041011MA1999999100341MD1810051+9999REMSYN066AAXX  21121 33990 42973 21302 10191 20141 30034 40118 58005 81041;
0112339900999992000052115004+44500+034170FM-12+007299999V0201401N002012200019N0180001N1+01741+01501101131ADDGF102991021061004501001001MD1710051+9999REMSYN060AAXX  21151 33990 42468 21402 10174 20150 40113 57005 82600;
0165339900999992000052118004+44500+034170FM-12+007299999V0203401N001012200019N0150001N1+01641+01491101141ADDAA199000091GF103991031061004501001001KA1999M+01951MD1310011+9999REMSYN070AAXX  21181 33990 32465 33401 10164 20149 40114 53001 83600 333 10195;EQDQ01  00002PRCP99
0122339900999992000052121004+44500+034170FM-12+007299999V0203301N001012200019N0140001N1+01471+01361101161ADDGA1001+999999999GF100991001001999999001001MD1110011+9999REMSYN054AAXX  21211 33990 42964 03301 10147 20136 40116 51001;
0133339900999992000052200004+44500+034170FM-12+007299999V0203401N001012200019N0140001N1+01431+01251101161ADDGF102991021001999999041001MA1999999100311MD1410001+9999REMSYN066AAXX  22001 33990 42964 23401 10143 20125 30031 40116 54000 82040;
0131339900999992000052203004+44500+034170FM-12+007299999V0203401N001012200019N0220001N1+01421+00651101251ADDGF102991001001999999001041MD1310091+9999REMSYN060AAXX  22031 33990 42972 23401 10142 20065 40125 53009 82004;EQDQ01+000022SCOTLC
0165339900999992000052206004+44500+034170FM-12+007299999V0200801N002012200019N0180001N1+01961+01471101291ADDAA199000091GF102991021001999999041001KA1999N+01321MD1210051+9999REMSYN070AAXX  22061 33990 32968 20802 10196 20147 40129 52005 82040 333 20132;EQDQ01  00002PRCP99
0122339900999992000052209004+44500+034170FM-12+007299999V0202001N002012200019N0350001N1+02531+00811101281ADDGA1001+999999999GF100991001001999999001001MD1410001+9999REMSYN054AAXX  22091 33990 42981 02002 10253 20081 40128 54000;
0143339900999992000052212004+44500+034170FM-12+007299999V0202501N001012200019N0400001N1+02651+00501101271ADDGA1001+999999999GF100991001001999999001001MA1999999100461MD1310011+9999REMSYN060AAXX  22121 33990 42982 02501 10265 20050 30046 40127 53001;
0122339900999992000052215004+44500+034170FM-12+007299999V0202101N001012200019N0350001N1+02221+00291101291ADDGA1001+999999999GF100991001001999999001001MD1410001+9999REMSYN054AAXX  22151 33990 42981 02101 10222 20029 40129 54000;
0175339900999992000052218004+44500+034170FM-12+007299999V0203201N004012200019N0300001N1+01861+00191101381ADDAA199000091GA1001+999999999GF100991001001999999001001KA1999M+02671MD1310071+9999REMSYN064AAXX  22181 33990 32980 03204 10186 20019 40138 53007 333 10267;EQDQ01  00002PRCP99
0122339900999992000052221004+44500+034170FM-12+007299999V0202701N001012200019N0300001N1+01501+00041101421ADDGA1001+999999999GF100991001001999999001001MD1210031+9999REMSYN054AAXX  22211 33990 42980 02701 10150 20004 40142 52003;
0143339900999992000052300004+44500+034170FM-12+007299999V0202001N001012200019N0300001N1+01381-00071101421ADDGA1001+999999999GF100991001001999999001001MA1999999100561MD1410001+9999REMSYN060AAXX  23001 33990 42980 02001 10138 21007 30056 40142 54000;
0156339900999992000052303004+44500+034170FM-12+007299999V0202701N001012200019N0290001N1+01321+00061101471ADDGA1001+999999999GF100991001001999999001001GJ107209MD1310051+9999REMSYN080AAXX  23031 33990 42979 02701 10132 20006 40147 53005 333 55120 555 20128 7000/;
0165339900999992000052306004+44500+034170FM-12+007299999V0200501N002012200019N0350001N1+02001+00551101531ADDAA199000091GF103991001001999999001091KA1999N+01281MD1310071+9999REMSYN070AAXX  23061 33990 32981 30502 10200 20055 40153 53007 80009 333 20128;EQDQ01  00002PRCP99
0112339900999992000052309004+44500+034170FM-12+007299999V0209999C000019999999N0350001N1+01961+01071101611ADDGF106991021001999999041091MD1310081+9999REMSYN060AAXX  23091 33990 42981 60000 10196 20107 40161 53008 82049;
0133339900999992000052312004+44500+034170FM-12+007299999V0200901N001019999999N0300001N1+01931+01311101571ADDGF108991041001999999031091MA1999999100721MD1810041+9999REMSYN066AAXX  23121 33990 42980 80901 10193 20131 30072 40157 58004 84039;
0112339900999992000052315004+44500+034170FM-12+007299999V0200601N001019999999N0290001N1+01761+01261101491ADDGF106991051001999999071011MD1610081+9999REMSYN060AAXX  23151 33990 42979 60601 10176 20126 40149 56008 85071;
0165339900999992000052318004+44500+034170FM-12+007299999V0209999C000019999999N0280001N1+01601+01251101481ADDAA199000091GF106991061001999999081001KA1999M+02101MD1710011+9999REMSYN070AAXX  23181 33990 32978 60000 10160 20125 40148 57001 86080 333 10210;EQDQ01  00002PRCP99
0122339900999992000052321004+44500+034170FM-12+007299999V0203001N001012200019N0290001N1+01521+00811101451ADDGA1001+999999999GF100991001001999999001001MD1810041+9999REMSYN054AAXX  23211 33990 42979 03001 10152 20081 40145 58004;
0133339900999992000052400004+44500+034170FM-12+007299999V0202901N001019999999N0350001N1+01551+00701101341ADDGF106991021001999999071011MA1999999100491MD1710101+9999REMSYN066AAXX  24001 33990 42981 62901 10155 20070 30049 40134 57010 82071;
0147339900999992000052403004+44500+034170FM-12+007299999V0209999C000012200019N0100001N1+00881+00781101311ADDGF102991001001999999001011MD1510031+9999REMSYN076AAXX  24031 33990 42997 20000 10088 20078 40131 55076 80001 555 20143 7000/;EQDQ01+000762APC3  
0165339900999992000052406004+44500+034170FM-12+007299999V0200901N001010900019N0300001N1+02031+00891101301ADDAA199000091GF106991011021012501001031KA1999N+01431MD1410001+9999REMSYN070AAXX  24061 33990 32680 60901 10203 20089 40130 54000 81203 333 20143;EQDQ01  00002PRCP99
0112339900999992000052409004+44500+034170FM-12+007299999V0200701N002010360019N0300001N1+02101+00821101281ADDGF106991011011012501031021MD1810021+9999REMSYN060AAXX  24091 33990 42680 60702 10210 20082 40128 58002 81132;
0133339900999992000052412004+44500+034170FM-12+007299999V0203601N001010360019N0300001N1+02021+00931101221ADDGF107991021021012501071001MA1999999100381MD1710061+9999REMSYN066AAXX  24121 33990 42680 73601 10202 20093 30038 40122 57006 82270;
0140339900999992000052415004+44500+034170FM-12+007299999V0200501N002010360019N0270001N1+01881+01411101101ADDAY181031AY221031GF108991021091012501071999MD1710121+9999MW1021REMSYN066AAXX  24151 33990 41677 80502 10188 20141 40110 57012 70282 8297/;
0180339900999992000052418004+44500+034170FM-12+007299999V0202701N001010120019N0240001N1+01761+01221101131ADDAA112000791AY181061AY221061GF108991051091012501071999KA1999M+02151MD1310031+9999MW1021REMSYN082AAXX  24181 33990 11674 82701 10176 20122 40113 53003 69902 70282 8597/ 333 10215;
0112339900999992000052421004+44500+034170FM-12+007299999V0200301N001019999999N0250001N1+01881+00841101111ADDGF108991081001999999071999MD1810021+9999REMSYN060AAXX  24211 33990 42975 80301 10188 20084 40111 58002 8807/;
0133339900999992000052500004+44500+034170FM-12+007299999V0202901N002019999999N0260001N1+01961+00971100941ADDGF105991031001999999031011MA1999999100101MD1710171+9999REMSYN066AAXX  25001 33990 42976 52902 10196 20097 30010 40094 57017 83031;
0138339900999992000052503004+44500+034170FM-12+007299999V0200501N003019999999N0240001N1+02121+01181100871ADDGF107991031001999999041011MD1710061+9999REMSYN086AAXX  25031 33990 42974 70503 10212 20118 40087 57006 83041 333 55077 555 20170 7990/;
0165339900999992000052506004+44500+034170FM-12+007299999V0202001N002010360019N0260001N1+02121+01301100851ADDAA199000091GF108991021021012501071999KA1999N+01701MD1610021+9999REMSYN070AAXX  25061 33990 32676 82002 10212 20130 40085 56002 8227/ 333 20170;EQDQ01  00002PRCP99
0112339900999992000052509004+44500+034170FM-12+007299999V0201501N002019999999N0260001N1+02361+01531100941ADDGF107991061001999999071011MD1310091+9999REMSYN060AAXX  25091 33990 42976 71502 10236 20153 40094 53009 86071;
0133339900999992000052512004+44500+034170FM-12+007299999V0201401N001019999999N0250001N1+02331+01451100981ADDGF107991031001999999031021MA1999999100151MD1110041+9999REMSYN066AAXX  25121 33990 42975 71401 10233 20145 30015 40098 51004 83032;
0112339900999992000052515004+44500+034170FM-12+007299999V0201301N001019999999N0250001N1+02231+01451101001ADDGF107991051001999999031011MD1210021+9999REMSYN060AAXX  25151 33990 42975 71301 10223 20145 40100 52002 85031;
0165339900999992000052518004+44500+034170FM-12+007299999V0203401N002019999999N0260001N1+02051+01291101031ADDAA199000091GF106991061001999999041001KA1999M+02471MD1210021+9999REMSYN070AAXX  25181 33990 32976 63402 10205 20129 40103 52002 86040 333 10247;EQDQ01  00002PRCP99
0140339900999992000052521004+44500+034170FM-12+007299999V0202401N001010120019N0210001N1+01921+01511101081ADDAY181031AY221031GF108991081091012501999999MD1010051+9999MW1131REMSYN066AAXX  25211 33990 41671 82401 10192 20151 40108 50005 71382 889//;
0161339900999992000052600004+44500+034170FM-12+007299999V0202501N001010120019N0230001N1+02011+01311101011ADDAY191061AY281061GF107991061091012501031001MA1999999100171MD1710071+9999MW1171REMSYN072AAXX  26001 33990 41673 72501 10201 20131 30017 40101 57007 71798 86930;
0166339900999992000052603004+44500+034170FM-12+007299999V0202301N001010360019N0220001N1+01861+01391101071ADDAY191031AY221031GF106991021021012501041021MD1310061+9999MW1021REMSYN092AAXX  26031 33990 41672 62301 10186 20139 40107 53006 70292 82242 333 55033 555 20183 7990/;
0180339900999992000052606004+44500+034170FM-12+007299999V0201201N001010120019N0200001N1+02121+01571101251ADDAA112000191AY191061AY281061GF106991051091012501001021KA1999N+01831MD1210191+9999MW1171REMSYN082AAXX  26061 33990 11670 61201 10212 20157 40125 52019 69912 71798 85902 333 20183;
0140339900999992000052609004+44500+034170FM-12+007299999V0200501N002010360019N0170001N1+02281+01621101371ADDAY191031AY221031GF107991031021012501061021MD1210121+9999MW1031REMSYN066AAXX  26091 33990 41667 70502 10228 20162 40137 52012 70392 83262;
0161339900999992000052612004+44500+034170FM-12+007299999V0201401N001010360019N0200001N1+02441+01471101341ADDAY191061AY221061GF106991021021012501041021MA1999999100511MD1810031+9999MW1021REMSYN072AAXX  26121 33990 41670 61401 10244 20147 30051 40134 58003 70292 82242;
0112339900999992000052615004+44500+034170FM-12+007299999V0201801N001010360019N0210001N1+02251+01381101381ADDGF106991021021012501061011MD1310041+9999REMSYN060AAXX  26151 33990 42671 61801 10225 20138 40138 53004 82261;
0146339900999992000052618004+44500+034170FM-12+007299999V0202901N001012200019N0180001N1+02061+01161101541ADDAA199000091GF102991021051012501001001MD1210141+9999REMSYN064AAXX  26181 33990 32668 22901 10206 20116 40154 52014 82500 333;EQDQ01  00002PRCP99
0122339900999992000052621004+44500+034170FM-12+007299999V0203001N001012200019N0170001N1+02101+00921101571ADDGA1001+999999999GF100991001001999999001001MD1210051+9999REMSYN054AAXX  26211 33990 42967 03001 10210 20092 40157 52005;
0143339900999992000052700004+44500+034170FM-12+007299999V0203401N002012200019N0190001N1+02201+01121101571ADDGA1001+999999999GF100991001001999999001001MA1999999100741MD1410001+9999REMSYN060AAXX  27001 33990 42969 03402 10220 20112 30074 40157 54000;
0138339900999992000052703004+44500+034170FM-12+007299999V0203201N001012200019N0210001N1+02101+01111101601ADDGF102991021001999999031001MD1210031+9999REMSYN086AAXX  27031 33990 42971 23201 10210 20111 40160 52003 82030 333 55077 555 20191 7991/;
0165339900999992000052706004+44500+034170FM-12+007299999V0200701N002010120019N0290001N1+02661+01251101671ADDAA199000091GF105991051021012501001001KA1999N+01911MD1210081+9999REMSYN070AAXX  27061 33990 32679 50702 10266 20125 40167 52008 85200 333 20191;EQDQ01  00002PRCP99
0112339900999992000052709004+44500+034170FM-12+007299999V0200801N003010120019N0270001N1+02491+01201101701ADDGF105991051021012501001001MD1210031+9999REMSYN060AAXX  27091 33990 42677 50803 10249 20120 40170 52003 85200;
0161339900999992000052712004+44500+034170FM-12+007299999V0200101N002010120019N0180001N1+02281+01711101761ADDAY181061AY221061GF108991081091012501999999MA1999999100931MD1210051+9999MW1251REMSYN072AAXX  27121 33990 41668 80102 10228 20171 30093 40176 52005 72582 889//;
0140339900999992000052715004+44500+034170FM-12+007299999V0203501N001010120019N0170001N1+02061+01721101721ADDAY181031AY221031GF106991061021012501001001MD1810041+9999MW1021REMSYN066AAXX  27151 33990 41667 63501 10206 20172 40172 58004 70282 86200;
0151339900999992000052718004+44500+034170FM-12+007299999V0203101N002012200019N0180001N1+01961+01351101711ADDGA1001+999999999GF100991001001999999001001KA1999M+02861MD1310041+9999REMSYN070AAXX  27181 33990 11968 03102 10196 20135 40171 53004 82030 333 10286;
0122339900999992000052721004+44500+034170FM-12+007299999V0202901N002012200019N0230001N1+01991+00531101811ADDGA1001+999999999GF100991001001999999001001MD1110041+9999REMSYN054AAXX  27211 33990 42973 02902 10199 20053 40181 51004;
0143339900999992000052800004+44500+034170FM-12+007299999V0203001N002012200019N0210001N1+02121+00971101741ADDGA1001+999999999GF100991001001999999001001MA1999999100911MD1810051+9999REMSYN060AAXX  28001 33990 42971 03002 10212 20097 30091 40174 58005;
0138339900999992000052803004+44500+034170FM-12+007299999V0203001N001012200019N0200001N1+02111+01121101781ADDGF102991021001999999081001MD1310041+9999REMSYN086AAXX  28031 33990 42970 23001 10211 20112 40178 53004 82080 333 55092 555 20194 7003/;
0181339900999992000052806004+44500+034170FM-12+007299999V0201201N002012200019N0270001N1+01521+01431101831ADDAA199000091GF102991021021012501001001KA1999N+99999MD1310051+9999REMSYN070AAXX  28061 33990 32677 21202 10152 20143 40183 53005 82200 333 20194;EQDQ01  00002PRCP99Q02 +01942ATMN  
0112339900999992000052809004+44500+034170FM-12+007299999V0200701N003012200019N0290001N1+02571+01631101791ADDGF102991021021012501001001MD1710031+9999REMSYN060AAXX  28091 33990 42679 20703 10257 20163 40179 57003 82200;
0133339900999992000052812004+44500+034170FM-12+007299999V0200901N003010120019N0350001N1+02641+01421101751ADDGF105991051021012501001001MA1999999100931MD1610041+9999REMSYN066AAXX  28121 33990 42681 50903 10264 20142 30093 40175 56004 85200;
0112339900999992000052815004+44500+034170FM-12+007299999V0209999C000010360019N0350001N1+02381+01001101651ADDGF105991031021012501081001MD1710111+9999REMSYN060AAXX  28151 33990 42681 50000 10238 20100 40165 57011 83280;
0165339900999992000052818004+44500+034170FM-12+007299999V0209999C000012200019N0350001N1+02161+01071101601ADDAA199000091GF102991021011012501001001KA1999M+02681MD1610051+9999REMSYN070AAXX  28181 33990 32681 20000 10216 20107 40160 56005 82100 333 10268;EQDQ01  00002PRCP99
0122339900999992000052821004+44500+034170FM-12+007299999V0202801N002012200019N0400001N1+02031+00921101581ADDGA1001+999999999GF100991001001999999001001MD1810041+9999REMSYN054AAXX  28211 33990 42982 02802 10203 20092 40158 58004;
0106339900999992000052900004+44500+034170FM-12+007299999V0202901N001019999999N0350001N1+02231+99999101391ADDGF106991061001999999031001MD1710171+9999REMSYN054AAXX  29001 33990 42981 62901 10223 40139 57017 86030;
0138339900999992000052903004+44500+034170FM-12+007299999V0203201N002012200019N0450001N1+02121+01221101361ADDGF101991011001999999041001MD1710031+9999REMSYN086AAXX  29031 33990 42983 13202 10212 20122 40136 57003 81040 333 55101 555 20202 7000/;
0165339900999992000052906004+44500+034170FM-12+007299999V0201201N003012200019N0290001N1+02491+01371101381ADDAA199000091GF103991031021012501001001KA1999N+02021MD1310021+9999REMSYN070AAXX  29061 33990 32679 31203 10249 20137 40138 53002 83200 333 20202;EQDQ01  00002PRCP99
0112339900999992000052909004+44500+034170FM-12+007299999V0200901N003012200019N0300001N1+02421+01601101351ADDGF103991021021012501001011MD1810031+9999REMSYN060AAXX  29091 33990 42680 30903 10242 20160 40135 58003 82201;
0133339900999992000052912004+44500+034170FM-12+007299999V0201101N002012200019N0240001N1+02291+01871101261ADDGF103991031021008001001001MA1999999100431MD1710091+9999REMSYN066AAXX  29121 33990 42574 31102 10229 20187 30043 40126 57009 83200;
0112339900999992000052915004+44500+034170FM-12+007299999V0201401N002010042019N0130001N1+02021+01771101231ADDGF108991081061004501999999MD1710041+9999REMSYN060AAXX  29151 33990 42463 81402 10202 20177 40123 57004 886//;
0180339900999992000052918004+44500+034170FM-12+007299999V0201501N001010042019N0110001N1+01831+01681101231ADDAA112000791AY151061AY211061GF108991081061004501999999KA1999M+02501MD1410001+9999MW1511REMSYN082AAXX  29181 33990 11461 81501 10183 20168 40123 54000 69902 75151 886// 333 10250;
0150339900999992000052921004+44500+034170FM-12+007299999V0202901N001012200019N0140001N1+01721+01601101191ADDAY151031AY211031GA1001+999999999GF100991001001999999001001MD1810041+9999MW1021REMSYN060AAXX  29211 33990 41964 02901 10172 20160 40119 58004 70251;
0171339900999992000053000004+44500+034170FM-12+007299999V0202901N001012200019N0140001N1+01581+01461101121ADDAY151061AY211061GA1001+999999999GF100991001001999999001001MA1999999100281MD1710071+9999MW1021REMSYN066AAXX  30001 33990 41964 02901 10158 20146 30028 40112 57007 70251;
0138339900999992000053003004+44500+034170FM-12+007299999V0202701N002010042019N0160001N1+01681+01511101101ADDGF108991081061004501999999MD1610021+9999REMSYN086AAXX  30031 33990 42466 82702 10168 20151 40110 56002 886// 333 55115 555 20155 7990/;
0152339900999992000053006004+44500+034170FM-12+007299999V0200901N001010042019N0180001N1+01861+01541101191ADDAA112000791GF108991081061004501999999KA1999N+01551MD1310091+9999REMSYN076AAXX  30061 33990 12468 80901 10186 20154 40119 53009 69902 886// 333 20155;
0112339900999992000053009004+44500+034170FM-12+007299999V0201801N002012200019N0210001N1+02271+01671101161ADDGF102991021021012501001001MD1810021+9999REMSYN060AAXX  30091 33990 42671 21802 10227 20167 40116 58002 82200;
0113339900999992000053012004+44500+034170FM-12+007299999V0201201N002012200019N0230001N1+02321+01691101031ADDGF103991031021012501001001MA1999999100201REMSYN060AAXX  30121 33990 42673 31202 10232 20169 30020 40103 83200;
0112339900999992000053015004+44500+034170FM-12+007299999V0200201N002012200019N0230001N1+02101+01591100921ADDGF101991011021008001001001MD1710131+9999REMSYN060AAXX  30151 33990 42573 10202 10210 20159 40092 57013 81200;
0175339900999992000053018004+44500+034170FM-12+007299999V0202901N001012200019N0160001N1+01841+01641100961ADDAA199000091GA1001+999999999GF100991001001999999001001KA1999M+02351MD1310031+9999REMSYN064AAXX  30181 33990 32966 02901 10184 20164 40096 53003 333 10235;EQDQ01  00002PRCP99
0122339900999992000053021004+44500+034170FM-12+007299999V0203301N001012200019N0170001N1+01721+01401100991ADDGA1001+999999999GF100991001001999999001001MD1010031+9999REMSYN054AAXX  30211 33990 42967 03301 10172 20140 40099 50003;
0143339900999992000053100004+44500+034170FM-12+007299999V0202701N001012200019N0170001N1+01661+01511100991ADDGA1001+999999999GF100991001001999999001001MA1999999100151MD1410001+9999REMSYN060AAXX  31001 33990 42967 02701 10166 20151 30015 40099 54000;
0138339900999992000053103004+44500+034170FM-12+007299999V0200201N001019999999N0180001N1+01681+01441101051ADDGF106991001001999999001011MD1310061+9999REMSYN086AAXX  31031 33990 42968 60201 10168 20144 40105 53006 80001 333 55086 555 20159 7000/;
0165339900999992000053106004+44500+034170FM-12+007299999V0202001N001019999999N0200001N1+02101+01741101091ADDAA199000091GF106991001001999999001011KA1999N+01591MD1210051+9999REMSYN070AAXX  31061 33990 32970 62001 10210 20174 40109 52005 80001 333 20159;EQDQ01  00002PRCP99
0112339900999992000053109004+44500+034170FM-12+007299999V0202001N001010120019N0200001N1+02051+01691101101ADDGF107991071091012501001001MD1110011+9999REMSYN060AAXX  31091 33990 42670 72001 10205 20169 40110 51001 87900;
0133339900999992000053112004+44500+034170FM-12+007299999V0201101N002012200019N0250001N1+02361+01661101101ADDGF103991031011012501021011MA1999999100271MD1410001+9999REMSYN066AAXX  31121 33990 42675 31102 10236 20166 30027 40110 54000 83121;
0112339900999992000053115004+44500+034170FM-12+007299999V0203101N001012200019N0280001N1+02211+01411101101ADDGF102991011021012501041001MD1410001+9999REMSYN060AAXX  31151 33990 42678 23101 10221 20141 40110 54000 81240;
0175339900999992000053118004+44500+034170FM-12+007299999V0200401N001012200019N0650001N1+01991+01171101201ADDAA199000091GA1001+999999999GF100991001001999999001001KA1999M+02561MD1310091+9999REMSYN064AAXX  31181 33990 32987 00401 10199 20117 40120 53009 333 10256;EQDQ01  00002PRCP99
0122339900999992000053121004+44500+034170FM-12+007299999V0203501N001012200019N0260001N1+01801+01221101271ADDGA1001+999999999GF100991001001999999001001MD1210071+9999REMSYN054AAXX  31211 33990 42976 03501 10180 20122 40127 52007;
0143339900999992000060100004+44500+034170FM-12+007299999V0202601N001012200019N0270001N1+01721+00981101281ADDGA1001+999999999GF100991001001999999001001MA1999999100441MD1110011+9999REMSYN060AAXX  01001 33990 42977 02601 10172 20098 30044 40128 51001;
0138339900999992000060103004+44500+034170FM-12+007299999V0202901N001010360019N0250001N1+01731+01211101311ADDGF107991021021012501081021MD1210031+9999REMSYN086AAXX  01031 33990 42675 72901 10173 20121 40131 52003 82282 333 55104 555 20163 7000/;
0165339900999992000060106004+44500+034170FM-12+007299999V0201201N001010360019N0250001N1+02111+01491101381ADDAA199000091GF106991031021012501081001KA1999N+01631MD1210091+9999REMSYN070AAXX  01061 33990 32675 61201 10211 20149 40138 52009 83280 333 20163;EQDQ01  00002PRCP99
0112339900999992000060109004+44500+034170FM-12+007299999V0201301N003012200019N0210001N1+02181+01741101451ADDGF106991041021012501001011MD1110061+9999REMSYN060AAXX  01091 33990 42671 61303 10218 20174 40145 51006 84201;
0133339900999992000060112004+44500+034170FM-12+007299999V0201301N002012200019N0230001N1+02241+01721101421ADDGF106991041021012501001011MA1999999100591MD1810031+9999REMSYN066AAXX  01121 33990 42673 61302 10224 20172 30059 40142 58003 84201;
0112339900999992000060115004+44500+034170FM-12+007299999V0201401N001012200019N0200001N1+02031+01591101361ADDGF106991021011012501001011MD1710081+9999REMSYN060AAXX  01151 33990 42670 61401 10203 20159 40136 57008 82101;
0165339900999992000060118004+44500+034170FM-12+007299999V0202701N002019999999N0250001N1+01981+01271101351ADDAA199000091GF107991051001999999071091KA1999M+02291MD1610011+9999REMSYN070AAXX  01181 33990 32975 72702 10198 20127 40135 56001 85079 333 10229;EQDQ01  00002PRCP99
0143339900999992000060200004+44500+034170FM-12+007299999V0203601N001012200019N0240001N1+01801+01321101281ADDGA1001+999999999GF100991001001999999001001MA1999999100441MD1810071+9999REMSYN060AAXX  02001 33990 42974 03601 10180 20132 30044 40128 58007;
0138339900999992000060203004+44500+034170FM-12+007299999V0202501N001019999999N0270001N1+01851+01341101261ADDGF108991081001999999071999MD1710021+9999REMSYN086AAXX  02031 33990 42977 82501 10185 20134 40126 57002 8807/ 333 55107 555 20177 7000/;
0165339900999992000060206004+44500+034170FM-12+007299999V0200401N001010360019N0190001N1+01931+01641101371ADDAA199000091GF108991031091012501051999KA1999N+01771MD1310101+9999REMSYN070AAXX  02061 33990 32669 80401 10193 20164 40137 53010 8395/ 333 20177;EQDQ01  00002PRCP99
0140339900999992000060209004+44500+034170FM-12+007299999V0201501N001010042019N0160001N1+01931+01771101441ADDAY181031AY221031GF108991061091004501051999MD1210071+9999MW1801REMSYN066AAXX  02091 33990 41466 81501 10193 20177 40144 52007 78082 8695/;
0161339900999992000060212004+44500+034170FM-12+007299999V0203301N001010075019N0240001N1+01821+01671101551ADDAY181061AY221061GF108991061091008001051999MA1999999100701MD1210111+9999MW1801REMSYN072AAXX  02121 33990 41574 83301 10182 20167 30070 40155 52011 78082 8695/;
0140339900999992000060215004+44500+034170FM-12+007299999V0203101N001019999999N0220001N1+01761+01561101521ADDAY181031AY221031GF108991081001999999051999MD1710031+9999MW1021REMSYN066AAXX  02151 33990 41972 83101 10176 20156 40152 57003 70282 8805/;
0180339900999992000060218004+44500+034170FM-12+007299999V0202901N001019999999N0230001N1+01731+01521101521ADDAA112002091AY181061AY221061GF108991081001999999051999KA1999M+01991MD1410001+9999MW1021REMSYN082AAXX  02181 33990 11973 82901 10173 20152 40152 54000 60022 70282 8805/ 333 10199;
0112339900999992000060221004+44500+034170FM-12+007299999V0209999C000019999999N0260001N1+01701+01481101541ADDGF106991061001999999031001MD1110021+9999REMSYN060AAXX  02211 33990 42976 60000 10170 20148 40154 51002 86030;
0133339900999992000060300004+44500+034170FM-12+007299999V0202801N001012200019N0270001N1+01581+01331101471ADDGF103991031001999999031001MA1999999100621MD1610071+9999REMSYN066AAXX  03001 33990 42977 32801 10158 20133 30062 40147 56007 83030;
0138339900999992000060303004+44500+034170FM-12+007299999V0203101N002019999999N0280001N1+01611+01321101411ADDGF108991021001999999031011MD1610061+9999REMSYN086AAXX  03031 33990 42978 83102 10161 20132 40141 56006 82031 333 55000 555 20152 7002/;
0165339900999992000060306004+44500+034170FM-12+007299999V0200301N001019999999N0200001N1+01961+01491101351ADDAA199000091GF106991051001999999031021KA1999N+01521MD1710061+9999REMSYN070AAXX  03061 33990 32970 60301 10196 20149 40135 57006 85032 333 20152;EQDQ01  00002PRCP99
0112339900999992000060309004+44500+034170FM-12+007299999V0202101N001010120019N0240001N1+02261+01261101331ADDGF108991081021012501999999MD1410001+9999REMSYN060AAXX  03091 33990 42674 82101 10226 20126 40133 54000 882//;
0133339900999992000060312004+44500+034170FM-12+007299999V0201401N002010360019N0260001N1+02381+01511101181ADDGF107991031021012501011001MA1999999100351MD1810151+9999REMSYN066AAXX  03121 33990 42676 71402 10238 20151 30035 40118 58015 83210;
0140339900999992000060315004+44500+034170FM-12+007299999V0202901N001010075019N0110001N1+01921+01811101161ADDAY191031AY281031GF108991081091008001999999MD1510031+9999MW1951REMSYN066AAXX  03151 33990 41561 82901 10192 20181 40116 55003 79598 889//;
0180339900999992000060318004+44500+034170FM-12+007299999V0202701N001010360019N0150001N1+02041+01401101141ADDAA112003091AY191061AY281061GF107991031031012501031001KA1999M+02431MD1710021+9999MW1021REMSYN082AAXX  03181 33990 11665 72701 10204 20140 40114 57002 60032 70298 83330 333 10243;
0140339900999992000060321004+44500+034170FM-12+007299999V0203001N004010075019N0120001N1+02131+01571101081ADDAY191031AY281031GF108991081091008001999999MD1710051+9999MW1951REMSYN066AAXX  03211 33990 41562 83004 10213 20157 40108 57005 79598 889//;
0161339900999992000060400004+44500+034170FM-12+007299999V0202701N001010075019N0170001N1+01901+01521100981ADDAY191061AY281061GF107991071091008001001001MA1999999100141MD1710111+9999MW1171REMSYN072AAXX  04001 33990 41567 72701 10190 20152 30014 40098 57011 71798 87900;
0166339900999992000060403004+44500+034170FM-12+007299999V0202401N001010120019N0180001N1+01981+01561100881ADDAY191031AY221031GF108991081091012501999999MD1610101+9999MW1021REMSYN092AAXX  04031 33990 41668 82401 10198 20156 40088 56010 70292 889// 333 55032 555 20173 7009/;
0180339900999992000060406004+44500+034170FM-12+007299999V0202901N001010075019N0140001N1+02081+01991100991ADDAA112009991AY191061AY281061GF108991061091008001071999KA1999N+01731MD1310121+9999MW1171REMSYN082AAXX  04061 33990 11564 82901 10208 20199 40099 53012 60102 71798 8697/ 333 20173;
0140339900999992000060409004+44500+034170FM-12+007299999V0203001N001010120019N0080001N1+02031+01951101051ADDAY191031AY281031GF108991081091012501999999MD1210061+9999MW1951REMSYN066AAXX  04091 33990 41658 83001 10203 20195 40105 52006 79598 889//;
0161339900999992000060412004+44500+034170FM-12+007299999V0201401N001010360019N0160001N1+02181+01951101081ADDAY191061AY281061GF107991041091012501061011MA1999999100251MD1110031+9999MW1251REMSYN072AAXX  04121 33990 41666 71401 10218 20195 30025 40108 51003 72598 84961;
0112339900999992000060415004+44500+034170FM-12+007299999V0203301N001010360019N0180001N1+02111+01841101101ADDGF107991021021012501031011MD1010021+9999REMSYN060AAXX  04151 33990 42668 73301 10211 20184 40110 50002 82231;
0152339900999992000060418004+44500+034170FM-12+007299999V0203001N001010360019N0180001N1+02051+01831101131ADDAA112007191GF106991021021012501031011KA1999M+02251MD1310031+9999REMSYN076AAXX  04181 33990 12668 63001 10205 20183 40113 53003 60072 82231 333 10225;
0112339900999992000060421004+44500+034170FM-12+007299999V0202901N002012200019N0200001N1+02021+01621101191ADDGF102991021051012501001001MD1210051+9999REMSYN060AAXX  04211 33990 42670 22902 10202 20162 40119 52005 82500;
0133339900999992000060500004+44500+034170FM-12+007299999V0202301N001019999999N0200001N1+02051+01671101251ADDGF107991071001999999031001MA1999999100421MD1210071+9999REMSYN066AAXX  05001 33990 42970 72301 10205 20167 30042 40125 52007 87030;
0138339900999992000060503004+44500+034170FM-12+007299999V0202101N001019999999N0220001N1+02051+01671101261ADDGF106991061001999999041001MD1110011+9999REMSYN086AAXX  05031 33990 42972 62101 10205 20167 40126 51001 86040 333 55029 555 20194 7011/;
0165339900999992000060506004+44500+034170FM-12+007299999V0200401N002012200019N0220001N1+02311+01841101281ADDAA199000091GF102991001001999999001091KA1999N+01941MD1210021+9999REMSYN070AAXX  05061 33990 32972 20402 10231 20184 40128 52002 80009 333 20194;EQDQ01  00002PRCP99
0096339900999992000060509004+44500+034170FM-12+007299999V0201401N002012200019N0300001N1+02451+01711999999ADDGA1001+999999999GF100991001001999999001001REMSYN042AAXX  05091 33990 42980 01402 10245 20171;
0143339900999992000060512004+44500+034170FM-12+007299999V0201201N002012200019N0300001N1+02531+01751101371ADDGA1001+999999999GF100991001001999999001001MA1999999100551MD1210041+9999REMSYN060AAXX  05121 33990 42980 01202 10253 20175 30055 40137 52004;
0122339900999992000060515004+44500+034170FM-12+007299999V0202401N001012200019N0280001N1+02351+01741101371ADDGA1001+999999999GF100991001001999999001001MD1810011+9999REMSYN054AAXX  05151 33990 42078 02401 10235 20174 40137 58001;
0175339900999992000060518004+44500+034170FM-12+007299999V0203301N001012200019N0180001N1+02061+01751101371ADDAA199000091GA1001+999999999GF100991001001999999001001KA1999M+02571MD1510001+9999REMSYN064AAXX  05181 33990 32968 03301 10206 20175 40137 55000 333 10257;EQDQ01  00002PRCP99
0122339900999992000060521004+44500+034170FM-12+007299999V0202901N002012200019N0160001N1+01961+01661101441ADDGA1001+999999999GF100991001001999999001001MD1210051+9999REMSYN054AAXX  05211 33990 42966 02902 10196 20166 40144 52005;
0143339900999992000060600004+44500+034170FM-12+007299999V0200401N001012200019N0150001N1+01841+01591101431ADDGA1001+999999999GF100991001001999999001001MA1999999100581MD1810011+9999REMSYN060AAXX  06001 33990 42965 00401 10184 20159 30058 40143 58001;
0138339900999992000060603004+44500+034170FM-12+007299999V0203001N001010042019N0110001N1+01861+01781101401ADDGF108991081061004501999999MD1710031+9999REMSYN086AAXX  06031 33990 42461 83001 10186 20178 40140 57003 886// 333 55103 555 20175 7000/;
0193339900999992000060606004+44500+034170FM-12+007299999V0201401N002012200019N0070001N1+02141+01841101391ADDAA199000091AY111061AY211061GF102991021061002501001001KA1999N+01741MD1310011+9999MW1101REMSYN076AAXX  06061 33990 31357 21402 10214 20184 40139 53001 71011 82600 333 20174;EQDQ01  00002PRCP99
0140339900999992000060609004+44500+034170FM-12+007299999V0201301N002012200019N0070001N1+02211+01841101401ADDAY101031AY201031GF102991021061002501001001MD1110011+9999MW1101REMSYN066AAXX  06091 33990 41357 21302 10221 20184 40140 51001 71000 82600;
0133339900999992000060612004+44500+034170FM-12+007299999V0201501N002012200019N0140001N1+02271+01861101361ADDGF102991021021008001001001MA1999999100531MD1710041+9999REMSYN066AAXX  06121 33990 42564 21502 10227 20186 30053 40136 57004 82200;
0122339900999992000060615004+44500+034170FM-12+007299999V0201201N001012200019N0350001N1+02171+01821101241ADDGA1001+999999999GF100991001001999999001001MD1710121+9999REMSYN054AAXX  06151 33990 42981 01201 10217 20182 40124 57012;
0175339900999992000060618004+44500+034170FM-12+007299999V0202101N001012200019N0180001N1+01981+01771101151ADDAA199000091GA1001+999999999GF100991001001999999001001KA1999M+02351MD1710101+9999REMSYN064AAXX  06181 33990 32968 02101 10198 20177 40115 57010 333 10235;EQDQ01  00002PRCP99
0122339900999992000060621004+44500+034170FM-12+007299999V0203101N001012200019N0250001N1+01881+01631101081ADDGA1001+999999999GF100991001001999999001001MD1810071+9999REMSYN054AAXX  06211 33990 42975 03101 10188 20163 40108 58007;
0143339900999992000060700004+44500+034170FM-12+007299999V0209999C000012200019N0270001N1+01901+01601100951ADDGA1001+999999999GF100991001001999999001001MA1999999100111MD1710131+9999REMSYN060AAXX  07001 33990 42977 00000 10190 20160 30011 40095 57013;
0156339900999992000060703004+44500+034170FM-12+007299999V0203001N001012200019N0260001N1+01911+01521100911ADDGA1001+999999999GF100991001001999999001001GJ106129MD1610041+9999REMSYN080AAXX  07031 33990 42976 03001 10191 20152 40091 56004 333 55102 555 20184 7000/;
0165339900999992000060706004+44500+034170FM-12+007299999V0200901N001012200019N0220001N1+02601+01631100811ADDAA199000091GF101991011001999999081001KA1999N+01831MD1710071+9999REMSYN070AAXX  07061 33990 32972 10901 10260 20163 40081 57007 81080 333 20183;EQDQ01  00002PRCP99
0112339900999992000060709004+44500+034170FM-12+007299999V0200901N001010900019N0200001N1+02631+01981100821ADDGF105991021021012501031021MD1310011+9999REMSYN060AAXX  07091 33990 42670 50901 10263 20198 40082 53001 82232;
0133339900999992000060712004+44500+034170FM-12+007299999V0200701N001010360019N0180001N1+02581+02001100821ADDGF105991021021012501031001MA1999999100011MD1410001+9999REMSYN066AAXX  07121 33990 42668 50701 10258 20200 30001 40082 54000 82230;
0112339900999992000060715004+44500+034170FM-12+007299999V0203001N001010360019N0200001N1+02401+01801100831ADDGF106991011021012501031011MD1810011+9999REMSYN060AAXX  07151 33990 42670 63001 10240 20180 40083 58001 81231;
0165339900999992000060718004+44500+034170FM-12+007299999V0202701N001010360019N0190001N1+02261+01731100861ADDAA199000091GF107991031051008001031001KA1999M+02681MD1310031+9999REMSYN070AAXX  07181 33990 32569 72701 10226 20173 40086 53003 83530 333 10268;EQDQ01  00002PRCP99
0092339900999992000060721004+44500+034170FM-12+007299999V0202901N001019999999N0180001N1+02221+00632100891ADDGF106991061001999999031001REMSYN054AAXX  07211 33990 42968 62901 10222 20063 40089 86030;
0138339900999992000060803004+44500+034170FM-12+007299999V0203601N001019999999N0170001N1+02101+01531101051ADDGF107991021001999999061011MD1610041+9999REMSYN086AAXX  08031 33990 42967 73601 10210 20153 40105 56004 82061 333 55089 555 20203 7000/;
0165339900999992000060806004+44500+034170FM-12+007299999V0200701N002010360019N0220001N1+02391+01821101121ADDAA199000091GF106991021021012501031001KA1999N+02031MD1210071+9999REMSYN070AAXX  08061 33990 32672 60702 10239 20182 40112 52007 82230 333 20203;EQDQ01  00002PRCP99
0112339900999992000060809004+44500+034170FM-12+007299999V0200901N003012200019N0260001N1+02571+01831101201ADDGF103991011021012501031001MD1110101+9999REMSYN060AAXX  08091 33990 42676 30903 10257 20183 40120 51010 81230;
0133339900999992000060812004+44500+034170FM-12+007299999V0200701N001010360019N0260001N1+02531+01871101161ADDGF106991021021012501031001MA1999999100351MD1810041+9999REMSYN066AAXX  08121 33990 42676 60701 10253 20187 30035 40116 58004 82230;
0112339900999992000060815004+44500+034170FM-12+007299999V0201201N004010900019N0230001N1+02351+01901101201ADDGF105991041031012501001021MD1310021+9999REMSYN060AAXX  08151 33990 42673 51204 10235 20190 40120 53002 84302;
0165339900999992000060818004+44500+034170FM-12+007299999V0202901N005010075019N0230001N1+02541+01701101291ADDAA199000091GF106991051031008001041001KA1999M+02661MD1210111+9999REMSYN070AAXX  08181 33990 32573 62905 10254 20170 40129 52011 85340 333 10266;EQDQ01  00002PRCP99
0112339900999992000060821004+44500+034170FM-12+007299999V0203201N003010075019N0250001N1+02281+01591101521ADDGF105991051051008001001001MD1210211+9999REMSYN060AAXX  08211 33990 42575 53203 10228 20159 40152 52021 85500;
0143339900999992000060900004+44500+034170FM-12+007299999V0203601N007012200019N0260001N1+02111+01141101601ADDGA1001+999999999GF100991001001999999001001MA1999999100771MD1210081+9999REMSYN060AAXX  09001 33990 42976 03607 10211 20114 30077 40160 52008;
0156339900999992000060903004+44500+034170FM-12+007299999V0203401N006012200019N0180001N1+02081+00711101781ADDGA1001+999999999GF100991001001999999001001GJ104929MD1110161+9999REMSYN080AAXX  09031 33990 42968 03406 10208 20071 40178 51016 333 55082 555 20197 7000/;
0165339900999992000060906004+44500+034170FM-12+007299999V0200601N005012200019N0250001N1+02351+00901102001ADDAA199000091GF101991001001999999001011KA1999N+01971MD1210241+9999REMSYN070AAXX  09061 33990 32975 10605 10235 20090 40200 52024 80001 333 20197;EQDQ01  00002PRCP99
0112339900999992000060909004+44500+034170FM-12+007299999V0203301N004012200019N0350001N1+02451+00981102081ADDGF101991011001999999081001MD1110081+9999REMSYN060AAXX  09091 33990 42981 13304 10245 20098 40208 51008 81080;
0133339900999992000060912004+44500+034170FM-12+007299999V0200901N001012200019N0350001N1+02471+00851102091ADDGF102991011001999999081011MA1999999101261MD1210011+9999REMSYN066AAXX  09121 33990 42981 20901 10247 20085 30126 40209 52001 81081;
0112339900999992000060915004+44500+034170FM-12+007299999V0203201N002012200019N0350001N1+02231+00811102071ADDGF101991011001999999081001MD1810021+9999REMSYN060AAXX  09151 33990 42981 13202 10223 20081 40207 58002 81080;
0175339900999992000060918004+44500+034170FM-12+007299999V0203301N003012200019N0280001N1+01981+00821102101ADDAA199000091GA1001+999999999GF100991001001999999001001KA1999M+02571MD1310011+9999REMSYN064AAXX  09181 33990 32978 03303 10198 20082 40210 53001 333 10257;EQDQ01  00002PRCP99
0122339900999992000060921004+44500+034170FM-12+007299999V0203101N001012200019N0280001N1+01851+00731102191ADDGA1001+999999999GF100991001001999999001001MD1210091+9999REMSYN054AAXX  09211 33990 42978 03101 10185 20073 40219 52009;
0143339900999992000061000004+44500+034170FM-12+007299999V0203201N002012200019N0260001N1+01801+00681102191ADDGA1001+999999999GF100991001001999999001001MA1999999101341MD1010001+9999REMSYN060AAXX  10001 33990 42976 03202 10180 20068 30134 40219 50000;
0138339900999992000061003004+44500+034170FM-12+007299999V0203301N001012200019N0240001N1+01771+00891102231ADDGF102991001001999999001021MD1310041+9999REMSYN086AAXX  10031 33990 42974 23301 10177 20089 40223 53004 80002 333 55119 555 20174 7000/;
0165339900999992000061006004+44500+034170FM-12+007299999V0201501N002012200019N0260001N1+02261+01021102301ADDAA199000091GF102991021011012501001001KA1999N+01741MD1310091+9999REMSYN070AAXX  10061 33990 32676 21502 10226 20102 40230 53009 82100 333 20174;EQDQ01  00002PRCP99
0112339900999992000061009004+44500+034170FM-12+007299999V0201101N002012200019N0270001N1+02331+01101102371ADDGF102991021011012501001001MD1210071+9999REMSYN060AAXX  10091 33990 42677 21102 10233 20110 40237 52007 82100;
0133339900999992000061012004+44500+034170FM-12+007299999V0201301N002012200019N0290001N1+02301+01351102361ADDGF103991031021012501001001MA1999999101521MD1810021+9999REMSYN066AAXX  10121 33990 42679 31302 10230 20135 30152 40236 58002 83200;
0112339900999992000061015004+44500+034170FM-12+007299999V0209999C000010120019N0300001N1+02101+01311102341ADDGF106991061021012501001001MD1710021+9999REMSYN060AAXX  10151 33990 42680 60000 10210 20131 40234 57002 86200;
0165339900999992000061018004+44500+034170FM-12+007299999V0202801N002012200019N0260001N1+01801+01281102311ADDAA199000091GF101991011011012501001001KA1999M+02401MD1610041+9999REMSYN070AAXX  10181 33990 32676 12802 10180 20128 40231 56004 81100 333 10240;EQDQ01  00002PRCP99
0122339900999992000061021004+44500+034170FM-12+007299999V0202801N001012200019N0350001N1+01641+01101102321ADDGA1001+999999999GF100991001001999999001001MD1110011+9999REMSYN054AAXX  10211 33990 42981 02801 10164 20110 40232 51001;
0143339900999992000061100004+44500+034170FM-12+007299999V0202901N001012200019N0400001N1+01621+00711102281ADDGA1001+999999999GF100991001001999999001001MA1999999101421MD1710051+9999REMSYN060AAXX  11001 33990 42982 02901 10162 20071 30142 40228 57005;
0156339900999992000061103004+44500+034170FM-12+007299999V0203501N001012200019N0350001N1+01701+00701102271ADDGA1001+999999999GF100991001001999999001001GJ107269MD1510001+9999REMSYN080AAXX  11031 33990 42981 03501 10170 20070 40227 55000 333 55121 555 20155 7000/;
0175339900999992000061106004+44500+034170FM-12+007299999V0201201N001012200019N0350001N1+02341+01241102321ADDAA199000091GA1001+999999999GF100991001001999999001001KA1999N+01551MD1210071+9999REMSYN064AAXX  11061 33990 32981 01201 10234 20124 40232 52007 333 20155;EQDQ01  00002PRCP99
0112339900999992000061109004+44500+034170FM-12+007299999V0201401N001012200019N0400001N1+02381+01171102351ADDGF102991021011012501001001MD1210021+9999REMSYN060AAXX  11091 33990 42682 21401 10238 20117 40235 52002 82100;
0133339900999992000061112004+44500+034170FM-12+007299999V0201201N002012200019N0350001N1+02391+01241102321ADDGF102991021021012501001001MA1999999101481MD1810031+9999REMSYN066AAXX  11121 33990 42681 21202 10239 20124 30148 40232 58003 82200;
0112339900999992000061115004+44500+034170FM-12+007299999V0200301N001012200019N0300001N1+02181+01191102311ADDGF103991031021012501001001MD1410001+9999REMSYN060AAXX  11151 33990 42680 30301 10218 20119 40231 54000 83200;
0165339900999992000061118004+44500+034170FM-12+007299999V0202901N001012200019N0250001N1+01901+01221102381ADDAA199000091GF101991011001999999041001KA1999M+02491MD1310041+9999REMSYN070AAXX  11181 33990 32975 12901 10190 20122 40238 53004 81040 333 10249;EQDQ01  00002PRCP99
0122339900999992000061121004+44500+034170FM-12+007299999V0200301N001012200019N0200001N1+01721+00891102401ADDGA1001+999999999GF100991001001999999001001MD1210021+9999REMSYN054AAXX  11211 33990 42970 00301 10172 20089 40240 52002;
0143339900999992000061200004+44500+034170FM-12+007299999V0202701N001012200019N0200001N1+01721+00741102401ADDGA1001+999999999GF100991001001999999001001MA1999999101541MD1410001+9999REMSYN060AAXX  12001 33990 42970 02701 10172 20074 30154 40240 54000;
0106339900999992000061203004+44500+034170FM-12+007299999V0202901N001019999999N0230001N1+01761+00851102451ADDMD1310051+9999REMSYN080AAXX  12031 33990 42973 /2901 10176 20085 40245 53005 333 55121 555 20163 7000/;
0175339900999992000061206004+44500+034170FM-12+007299999V0201101N002012200019N0230001N1+02261+01341102521ADDAA199000091GA1001+999999999GF100991001001999999001001KA1999N+01631MD1210091+9999REMSYN064AAXX  12061 33990 32973 01102 10226 20134 40252 52009 333 20163;EQDQ01  00002PRCP99
0112339900999992000061209004+44500+034170FM-12+007299999V0201201N003012200019N0270001N1+02511+01221102581ADDGF101991011011012501001001MD1210061+9999REMSYN060AAXX  12091 33990 42677 11203 10251 20122 40258 52006 81100;
0146339900999992000061212004+44500+034170FM-12+007299999V0201401N004012200019N0300001N1+01681+00401999999ADDGF101991011011004501001001MA1999999999999MD1110021+9999REMSYN060AAXX  12121 33990 42480 11404 10168 20040 38937 51002 81100;EQDQ01 089373APOSP 
0112339900999992000061215004+44500+034170FM-12+007299999V0201401N002012200019N0300001N1+02261+01281102561ADDGF102991021011012501001001MD1810031+9999REMSYN060AAXX  12151 33990 42680 21402 10226 20128 40256 58003 82100;
0175339900999992000061218004+44500+034170FM-12+007299999V0203401N002012200019N0270001N1+01941+01021102581ADDAA199000091GA1001+999999999GF100991001001999999001001KA1999M+02601MD1410001+9999REMSYN064AAXX  12181 33990 32977 03402 10194 20102 40258 54000 333 10260;EQDQ01  00002PRCP99
0122339900999992000061221004+44500+034170FM-12+007299999V0202701N002012200019N0270001N1+01801+00971102511ADDGA1001+999999999GF100991001001999999001001MD1810071+9999REMSYN054AAXX  12211 33990 42977 02702 10180 20097 40251 58007;
0143339900999992000061300004+44500+034170FM-12+007299999V0202901N002012200019N0260001N1+01921+00891102451ADDGA1001+999999999GF100991001001999999001001MA1999999101591MD1710061+9999REMSYN060AAXX  13001 33990 42976 02902 10192 20089 30159 40245 57006;
0156339900999992000061303004+44500+034170FM-12+007299999V0203601N001012200019N0220001N1+01901+00941102461ADDGA1001+999999999GF100991001001999999001001GJ107569MD1310011+9999REMSYN080AAXX  13031 33990 42972 03601 10190 20094 40246 53001 333 55126 555 20178 7000/;
0175339900999992000061306004+44500+034170FM-12+007299999V0201001N001012200019N0250001N1+02391+01301102441ADDAA199000091GA1001+999999999GF100991001001999999001001KA1999N+01781MD1010001+9999REMSYN064AAXX  13061 33990 32975 01001 10239 20130 40244 50000 333 20178;EQDQ01  00002PRCP99
0122339900999992000061309004+44500+034170FM-12+007299999V0202101N002012200019N0290001N1+02731+01261102381ADDGA1001+999999999GF100991001001999999001001MD1710051+9999REMSYN054AAXX  13091 33990 42979 02102 10273 20126 40238 57005;
0143339900999992000061312004+44500+034170FM-12+007299999V0201501N001012200019N0290001N1+02921+01461102211ADDGA1001+999999999GF100991001001999999001001MA1999999101391MD1710161+9999REMSYN060AAXX  13121 33990 42979 01501 10292 20146 30139 40221 57016;
0112339900999992000061315004+44500+034170FM-12+007299999V0203201N003012200019N0300001N1+02711+01041102091ADDGF103991031001999999041001MD1710121+9999REMSYN060AAXX  13151 33990 42980 33203 10271 20104 40209 57012 83040;
0165339900999992000061318004+44500+034170FM-12+007299999V0203301N001012200019N0350001N1+02511+00781102061ADDAA199000091GF102991021001999999041001KA1999M+02941MD1510041+9999REMSYN070AAXX  13181 33990 32981 23301 10251 20078 40206 55004 82040 333 10294;EQDQ01  00002PRCP99
0112339900999992000061321004+44500+034170FM-12+007299999V0201801N001012200019N0300001N1+02341+00741102051ADDGF103991031001999999041001MD1810011+9999REMSYN060AAXX  13211 33990 42980 31801 10234 20074 40205 58001 83040;
0133339900999992000061400004+44500+034170FM-12+007299999V0203001N002012200019N0220001N1+02241+01241102001ADDGF103991031001999999041001MA1999999101171MD1710051+9999REMSYN066AAXX  14001 33990 42972 33002 10224 20124 30117 40200 57005 83040;
0156339900999992000061403004+44500+034170FM-12+007299999V0203601N001012200019N0200001N1+02041+01361102061ADDGA1001+999999999GF100991001001999999001001GJ107389MD1310041+9999REMSYN080AAXX  14031 33990 42970 03601 10204 20136 40206 53004 333 55123 555 20202 7000/;
0175339900999992000061406004+44500+034170FM-12+007299999V0200601N004012200019N0220001N1+02311+01341102051ADDAA199000091GA1001+999999999GF100991001001999999001001KA1999N+02021MD1210021+9999REMSYN064AAXX  14061 33990 32972 00604 10231 20134 40205 52002 333 20202;EQDQ01  00002PRCP99
0122339900999992000061409004+44500+034170FM-12+007299999V0201101N002012200019N0250001N1+02411+01471102141ADDGA1001+999999999GF100991001001999999001001MD1210081+9999REMSYN054AAXX  14091 33990 42975 01102 10241 20147 40214 52008;
0143339900999992000061412004+44500+034170FM-12+007299999V0201501N001012200019N0280001N1+02491+01501102131ADDGA1001+999999999GF100991001001999999001001MA1999999101301MD1810011+9999REMSYN060AAXX  14121 33990 42978 01501 10249 20150 30130 40213 58001;
0122339900999992000061415004+44500+034170FM-12+007299999V0201601N001012200019N0260001N1+02221+01531102061ADDGA1001+999999999GF100991001001999999001001MD1610071+9999REMSYN054AAXX  14151 33990 42976 01601 10222 20153 40206 56007;
0175339900999992000061418004+44500+034170FM-12+007299999V0203201N001012200019N0240001N1+01951+01431102051ADDAA199000091GA1001+999999999GF100991001001999999001001KA1999M+02561MD1610031+9999REMSYN064AAXX  14181 33990 32974 03201 10195 20143 40205 56003 333 10256;EQDQ01  00002PRCP99
0122339900999992000061421004+44500+034170FM-12+007299999V0202901N001012200019N0280001N1+01821+01401102011ADDGA1001+999999999GF100991001001999999001001MD1810041+9999REMSYN054AAXX  14211 33990 42978 02901 10182 20140 40201 58004;
0143339900999992000061500004+44500+034170FM-12+007299999V0209999C000012200019N0300001N1+01791+01271101941ADDGA1001+999999999GF100991001001999999001001MA1999999101091MD1810071+9999REMSYN060AAXX  15001 33990 42980 00000 10179 20127 30109 40194 58007;
0156339900999992000061503004+44500+034170FM-12+007299999V0200701N001012200019N0290001N1+01851+01201101901ADDGA1001+999999999GF100991001001999999001001GJ107449MD1610041+9999REMSYN080AAXX  15031 33990 42979 00701 10185 20120 40190 56004 333 55124 555 20173 7000/;
0191339900999992000061506004+44500+034170FM-12+007299999V0200701N001012200019N0220001N1+02411+01531101871ADDAA199000091GA1001+999999999GF100991001001999999001001KA1999M+99999MD1710011+9999REMSYN064AAXX  15061 33990 32972 00701 10241 20153 40187 57001 333 10173;EQDQ01  00002PRCP99Q02 +01732ATMX  
0122339900999992000061509004+44500+034170FM-12+007299999V0200701N001012200019N0240001N1+02531+01461101871ADDGA1001+999999999GF100991001001999999001001MD1410001+9999REMSYN054AAXX  15091 33990 42974 00701 10253 20146 40187 54000;
0143339900999992000061512004+44500+034170FM-12+007299999V0200901N002012200019N0250001N1+02671+01641101761ADDGA1001+999999999GF100991001001999999001001MA1999999100941MD1810101+9999REMSYN060AAXX  15121 33990 42975 00902 10267 20164 30094 40176 58010;
0122339900999992000061515004+44500+034170FM-12+007299999V0202701N001012200019N0250001N1+02411+01531101611ADDGA1001+999999999GF100991001001999999001001MD1710161+9999REMSYN054AAXX  15151 33990 42975 02701 10241 20153 40161 57016;
0175339900999992000061518004+44500+034170FM-12+007299999V0202301N001012200019N0220001N1+02141+01511101541ADDAA199000091GA1001+999999999GF100991001001999999001001KA1999M+02751MD1610071+9999REMSYN064AAXX  15181 33990 32972 02301 10214 20151 40154 56007 333 10275;EQDQ01  00002PRCP99
0122339900999992000061521004+44500+034170FM-12+007299999V0202401N001012200019N0210001N1+01961+01331101561ADDGA1001+999999999GF100991001001999999001001MD1410001+9999REMSYN054AAXX  15211 33990 42971 02401 10196 20133 40156 54000;
0143339900999992000061600004+44500+034170FM-12+007299999V0202901N001012200019N0210001N1+01881+01251101481ADDGA1001+999999999GF100991001001999999001001MA1999999100631MD1810081+9999REMSYN060AAXX  16001 33990 42971 02901 10188 20125 30063 40148 58008;
0156339900999992000061603004+44500+034170FM-12+007299999V0203201N001012200019N0220001N1+01861+01311101391ADDGA1001+999999999GF100991001001999999001001GJ107509MD1710091+9999REMSYN080AAXX  16031 33990 42972 03201 10186 20131 40139 57009 333 55125 555 20180 7000/;
0165339900999992000061606004+44500+034170FM-12+007299999V0201201N002012200019N0240001N1+02311+01781101321ADDAA199000091GF102991001001999999001011KA1999N+01801MD1710051+9999REMSYN070AAXX  16061 33990 32974 21202 10231 20178 40132 57005 80001 333 20180;EQDQ01  00002PRCP99
0122339900999992000061609004+44500+034170FM-12+007299999V0201201N003012200019N0270001N1+02541+01951101281ADDGA1001+999999999GF100991001001999999001001MD1610021+9999REMSYN054AAXX  16091 33990 42977 01203 10254 20195 40128 56002;
0133339900999992000061612004+44500+034170FM-12+007299999V0201401N003012200019N0300001N1+02491+01831101241ADDGF101991001001999999001021MA1999999100411MD1710061+9999REMSYN066AAXX  16121 33990 42980 11403 10249 20183 30041 40124 57006 80002;
0112339900999992000061615004+44500+034170FM-12+007299999V0201601N002012200019N0250001N1+02221+01811101151ADDGF102991011021012501001011MD1710091+9999REMSYN060AAXX  16151 33990 42675 21602 10222 20181 40115 57009 81201;
0165339900999992000061618004+44500+034170FM-12+007299999V0201801N001012200019N0180001N1+02031+01811101101ADDAA199000091GF102991001001999999001021KA1999M+02591MD1710051+9999REMSYN070AAXX  16181 33990 32968 21801 10203 20181 40110 57005 80002 333 10259;EQDQ01  00002PRCP99
0112339900999992000061621004+44500+034170FM-12+007299999V0202901N002019999999N0160001N1+01881+01681101091ADDGF107991001001999999001011MD1810021+9999REMSYN060AAXX  16211 33990 42966 72902 10188 20168 40109 58002 80001;
0133339900999992000061700004+44500+034170FM-12+007299999V0203301N001019999999N0190001N1+01801+01421101031ADDGF106991001001999999001011MA1999999100191MD1710061+9999REMSYN066AAXX  17001 33990 42969 63301 10180 20142 30019 40103 57006 80001;
0138339900999992000061703004+44500+034170FM-12+007299999V0202901N001019999999N0200001N1+01821+01501100991ADDGF107991021001999999031061MD1510041+9999REMSYN086AAXX  17031 33990 42970 72901 10182 20150 40099 55004 82036 333 55118 555 20178 7000/;
0165339900999992000061706004+44500+034170FM-12+007299999V0200901N001019999999N0230001N1+02171+01751101091ADDAA199000091GF108991081001999999051999KA1999N+01781MD1210111+9999REMSYN070AAXX  17061 33990 32973 80901 10217 20175 40109 52011 8805/ 333 20178;EQDQ01  00002PRCP99
0112339900999992000061709004+44500+034170FM-12+007299999V0201501N001010075019N0250001N1+02161+01721101171ADDGF108991081091008001999999MD1310081+9999REMSYN060AAXX  17091 33990 42575 81501 10216 20172 40117 53008 889//;
0161339900999992000061712004+44500+034170FM-12+007299999V0202901N002010075019N0300001N1+01821+01641101221ADDAY181061AY221061GF108991051091008001051999MA1999999100381MD1110041+9999MW1251REMSYN072AAXX  17121 33990 41580 82902 10182 20164 30038 40122 51004 72582 8595/;
0112339900999992000061715004+44500+034170FM-12+007299999V0202201N001010900019N0350001N1+01971+01281101231ADDGF108991021041012501001091MD1010011+9999REMSYN060AAXX  17151 33990 42681 82201 10197 20128 40123 50001 82409;
0152339900999992000061718004+44500+034170FM-12+007299999V0202701N002010075019N0350001N1+01791+01001101321ADDAA112002091GF108991061091008001051999KA1999M+02261MD1310091+9999REMSYN076AAXX  17181 33990 12581 82702 10179 20100 40132 53009 60022 8695/ 333 10226;
0140339900999992000061721004+44500+034170FM-12+007299999V0203601N001010075019N0260001N1+01261+01091101481ADDAY181031AY221031GF108991081091008001999999MD1110141+9999MW1801REMSYN066AAXX  17211 33990 41576 83601 10126 20109 40148 51014 78082 889//;
0161339900999992000061800004+44500+034170FM-12+007299999V0203601N001010120019N0300001N1+01361+01271101501ADDAY181061AY221061GF108991051091012501051999MA1999999100641MD1210021+9999MW1021REMSYN072AAXX  18001 33990 42680 83601 10136 20127 30064 40150 52002 70282 8595/;
0138339900999992000061803004+44500+034170FM-12+007299999V0203301N002010360019N0350001N1+01431+01091101491ADDGF108991021041008001021999MD1710011+9999REMSYN086AAXX  18031 33990 42581 83302 10143 20109 40149 57001 8242/ 333 55026 555 20124 7007/;
0146339900999992000061806004+44500+034170FM-12+007299999V0203501N001010360019N0350001N1+01821+01211101541ADDAA199000021GF108991011021012501021999KA1999N+01241MD1310061+9999REMSYN070AAXX  18061 33990 32681 83501 10182 20121 40154 53006 8122/ 333 20124;
0112339900999992000061809004+44500+034170FM-12+007299999V0203001N002010360019N0350001N1+01821+00951101571ADDGF108991021021012501051999MD1210031+9999REMSYN060AAXX  18091 33990 42681 83002 10182 20095 40157 52003 8225/;
0133339900999992000061812004+44500+034170FM-12+007299999V0203501N002010360019N0400001N1+01901+00811101551ADDGF106991021021012501051001MA1999999100701MD1810021+9999REMSYN066AAXX  18121 33990 42682 63502 10190 20081 30070 40155 58002 82250;
0112339900999992000061815004+44500+034170FM-12+007299999V0203101N001012200019N0400001N1+01831+00481101541ADDGF103991031021012501001001MD1710011+9999REMSYN060AAXX  18151 33990 42682 33101 10183 20048 40154 57001 83200;
0165339900999992000061818004+44500+034170FM-12+007299999V0203601N001012200019N0350001N1+01541+00451101611ADDAA199000091GF102991021021012501001001KA1999M+01991MD1310061+9999REMSYN070AAXX  18181 33990 32681 23601 10154 20045 40161 53006 82200 333 10199;EQDQ01  00002PRCP99
0112339900999992000061821004+44500+034170FM-12+007299999V0203001N001010360019N0230001N1+01341+00701101671ADDGF105991021031012501071001MD1210061+9999REMSYN060AAXX  18211 33990 42673 53001 10134 20070 40167 52006 82370;
0133339900999992000061900004+44500+034170FM-12+007299999V0201501N001010120019N0270001N1+01481+00451101531ADDGF108991081051012501999999MA1999999100671MD1810141+9999REMSYN066AAXX  19001 33990 42677 81501 10148 20045 30067 40153 58014 885//;
0144339900999992000061903004+44500+034170FM-12+007299999V0201801N002012200019N0250001N1+01301+00431101421ADDGF106991021031012501001011MD1710111+9999REMSYN092AAXX  19031 33990 42675 61802 10130 20043 40142 57011 82301 333 55029 55029 555 20130 7000/;
0165339900999992000061906004+44500+034170FM-12+007299999V0202101N001010360019N0300001N1+01641+00511101381ADDAA199000091GF105991041021012501041001KA1999N+01301MD1710061+9999REMSYN070AAXX  19061 33990 32680 52101 10164 20051 40138 57006 84240 333 20130;EQDQ01  00002PRCP99
0112339900999992000061909004+44500+034170FM-12+007299999V0200501N004010120019N0300001N1+01561+00671101391ADDGF106991061031012501001011MD1310031+9999REMSYN060AAXX  19091 33990 42680 60504 10156 20067 40139 53003 86301;
0161339900999992000061912004+44500+034170FM-12+007299999V0203201N002010075019N0350001N1+01561+00741101481ADDAY181061AY221061GF106991051091008001001011MA1999999100621MD1210091+9999MW1801REMSYN072AAXX  19121 33990 41581 63202 10156 20074 30062 40148 52009 78082 85901;
0140339900999992000061915004+44500+034170FM-12+007299999V0202501N001010075019N0350001N1+01321+00971101531ADDAY181031AY221031GF108991081091008001999999MD1210051+9999MW1251REMSYN066AAXX  19151 33990 41581 82501 10132 20097 40153 52005 72582 889//;
0180339900999992000061918004+44500+034170FM-12+007299999V0200501N001010120019N0300001N1+01341+00761101571ADDAA112000891AY181061AY221061GF107991071091012501001001KA1999M+01931MD1210041+9999MW1021REMSYN082AAXX  19181 33990 11680 70501 10134 20076 40157 52004 69972 70282 87900 333 10193;
0112339900999992000061921004+44500+034170FM-12+007299999V0203201N001012200019N0280001N1+01441+00731101571ADDGF104991041051012501001001MD1410001+9999REMSYN060AAXX  19211 33990 42678 43201 10144 20073 40157 54000 84500;
0133339900999992000062000004+44500+034170FM-12+007299999V0201201N001012200019N0300001N1+01401+00761101541ADDGF106991031051012501001011MA1999999100681MD1810031+9999REMSYN066AAXX  20001 33990 42680 61201 10140 20076 30068 40154 58003 83501;
0138339900999992000062003004+44500+034170FM-12+007299999V0203601N002010900019N0400001N1+01451+00641101541ADDGF105991021021012501001021MD1410001+9999REMSYN086AAXX  20031 33990 42682 53602 10145 20064 40154 54000 82202 333 55072 555 20132 7997/;
0165339900999992000062006004+44500+034170FM-12+007299999V0203401N004010075019N0280001N1+01921+00821101621ADDAA199000091GF106991061021008001001011KA1999N+01321MD1310091+9999REMSYN070AAXX  20061 33990 32578 63404 10192 20082 40162 53009 86201 333 20132;EQDQ01  00002PRCP99
0112339900999992000062009004+44500+034170FM-12+007299999V0203601N003010075019N0300001N1+02011+00801101711ADDGF107991071031008001001001MD1210091+9999REMSYN060AAXX  20091 33990 42580 73603 10201 20080 40171 52009 87300;
0161339900999992000062012004+44500+034170FM-12+007299999V0203601N002010075019N0160001N1+01721+00981101801ADDAY181061AY221061GF107991071091008001001001MA1999999100951MD1210091+9999MW1801REMSYN072AAXX  20121 33990 41566 73602 10172 20098 30095 40180 52009 78082 87900;
0140339900999992000062015004+44500+034170FM-12+007299999V0203601N003010075019N0280001N1+01651+00821101811ADDAY181031AY221031GF106991061091008001001001MD1110011+9999MW1021REMSYN066AAXX  20151 33990 41578 63603 10165 20082 40181 51001 70282 86900;
0180339900999992000062018004+44500+034170FM-12+007299999V0203401N002010075019N0170001N1+01301+01211101971ADDAA112003091AY181061AY221061GF106991061091008001001001KA1999M+02061MD1310151+9999MW1251REMSYN082AAXX  20181 33990 11567 63402 10130 20121 40197 53015 60032 72582 86900 333 10206;
0112339900999992000062021004+44500+034170FM-12+007299999V0202901N002012200019N0230001N1+01121+00851101891ADDGF101991011051008001001001MD1810081+9999REMSYN060AAXX  20211 33990 42573 12902 10112 20085 40189 58008 81500;
0133339900999992000062100004+44500+034170FM-12+007299999V0202701N001012200019N0250001N1+01221+00701101761ADDGF102991001001999999001011MA1999999100901MD1710131+9999REMSYN066AAXX  21001 33990 42975 22701 10122 20070 30090 40176 57013 80001;
0138339900999992000062103004+44500+034170FM-12+007299999V0200501N001012200019N0230001N1+01321+00701101601ADDGF103991011021012501001011MD1710161+9999REMSYN086AAXX  21031 33990 42673 30501 10132 20070 40160 57016 81201 333 55078 555 20109 7003/;
0146339900999992000062106004+44500+034170FM-12+007299999V0202301N002012200019N0250001N1+01931+01181101421ADDAA199000021GF106991031021012501001011KA1999N+01091MD1710171+9999REMSYN070AAXX  21061 33990 32675 62302 10193 20118 40142 57017 83201 333 20109;
0112339900999992000062109004+44500+034170FM-12+007299999V0202101N003010360019N0210001N1+01801+01171101321ADDGF107991031021012501041011MD1610091+9999REMSYN060AAXX  21091 33990 42671 72103 10180 20117 40132 56009 83241;
0161339900999992000062112004+44500+034170FM-12+007299999V0202101N003010075019N0120001N1+01731+01411101101ADDAY181061AY221061GF108991081091008001999999MA1999999100261MD1710221+9999MW1811REMSYN072AAXX  21121 33990 41562 82103 10173 20141 30026 40110 57022 78182 889//;
0140339900999992000062115004+44500+034170FM-12+007299999V0202401N003010075019N0170001N1+01801+01441100971ADDAY181031AY221031GF106991061091008001001001MD1710131+9999MW1251REMSYN066AAXX  21151 33990 41567 62403 10180 20144 40097 57013 72582 86900;
0180339900999992000062118004+44500+034170FM-12+007299999V0202101N002010075019N0190001N1+01881+01221101001ADDAA112004191AY181061AY221061GF106991061021008001001001KA1999M+01991MD1310031+9999MW1021REMSYN082AAXX  21181 33990 11569 62102 10188 20122 40100 53003 60042 70282 86200 333 10199;
0112339900999992000062121004+44500+034170FM-12+007299999V0202701N002010120019N0220001N1+01941+01121101021ADDGF106991061011012501001001MD1210021+9999REMSYN060AAXX  21211 33990 42672 62702 10194 20112 40102 52002 86100;
0161339900999992000062200004+44500+034170FM-12+007299999V0202001N001010120019N0140001N1+01611+01361101031ADDAY181061AY221061GF107991071091012501001001MA1999999100191MD1210011+9999MW1801REMSYN072AAXX  22001 33990 41664 72001 10161 20136 30019 40103 52001 78082 87900;
0166339900999992000062203004+44500+034170FM-12+007299999V0202101N002012200019N0210001N1+01551+00931101131ADDAY181031AY211031GF103991031001999999041001MD1210091+9999MW1021REMSYN092AAXX  22031 33990 41971 32102 10155 20093 40113 52009 70281 83040 333 55051 555 20147 7005/;
0180339900999992000062206004+44500+034170FM-12+007299999V0200801N001012200019N0270001N1+01891+00901101271ADDAA112002091AY181061AY211061GF101991011001999999041001KA1999N+01471MD1310151+9999MW1021REMSYN082AAXX  22061 33990 11977 10801 10189 20090 40127 53015 60022 70281 81040 333 20147;
0112339900999992000062209004+44500+034170FM-12+007299999V0200901N002012200019N0250001N1+01991+01181101371ADDGF101991011011012501001001MD1110091+9999REMSYN060AAXX  22091 33990 42675 10902 10199 20118 40137 51009 81100;
0133339900999992000062212004+44500+034170FM-12+007299999V0200801N001012200019N0280001N1+02011+01101101371ADDGF101991011011012501001001MA1999999100521MD1410001+9999REMSYN066AAXX  22121 33990 42678 10801 10201 20110 30052 40137 54000 81100;
0112339900999992000062215004+44500+034170FM-12+007299999V0203001N002012200019N0290001N1+02251+00921101341ADDGF102991011001999999041091MD1610011+9999REMSYN060AAXX  22151 33990 42979 23002 10225 20092 40134 56001 81049;
0165339900999992000062218004+44500+034170FM-12+007299999V0200401N001012200019N0350001N1+01731+00971101391ADDAA199000091GF103991031001999999041001KA1999M+02351MD1210031+9999REMSYN070AAXX  22181 33990 32981 30401 10173 20097 40139 52003 83040 333 10235;EQDQ01  00002PRCP99
0112339900999992000062221004+44500+034170FM-12+007299999V0201501N001012200019N0400001N1+01741+01131101411ADDGF103991031001999999041001MD1110021+9999REMSYN060AAXX  22211 33990 42982 31501 10174 20113 40141 51002 83040;
0143339900999992000062300004+44500+034170FM-12+007299999V0203501N001012200019N0350001N1+01511+01101101311ADDGA1001+999999999GF100991001001999999001001MA1999999100461MD1810101+9999REMSYN060AAXX  23001 33990 42981 03501 10151 20110 30046 40131 58010;
0166339900999992000062303004+44500+034170FM-12+007299999V0200201N001019999999N0260001N1+01531+01291101311ADDAY111031AY211031GF107991071001999999071001MD1010001+9999MW1401REMSYN092AAXX  23031 33990 41976 70201 10153 20129 40131 50000 74011 87070 333 55125 555 20145 7000/;
0175339900999992000062306004+44500+034170FM-12+007299999V0201901N001012200019N0230001N1+01891+01211101361ADDAA199000091GA1001+999999999GF100991001001999999001001KA1999N+01451MD1110051+9999REMSYN064AAXX  23061 33990 32973 01901 10189 20121 40136 51005 333 20145;EQDQ01  00002PRCP99
0112339900999992000062309004+44500+034170FM-12+007299999V0200901N002012200019N0240001N1+02061+01421101421ADDGF102991021021012501001001MD1210061+9999REMSYN060AAXX  23091 33990 42674 20902 10206 20142 40142 52006 82200;
0133339900999992000062312004+44500+034170FM-12+007299999V0201201N002012200019N0240001N1+02101+01511101451ADDGF102991021021012501001001MA1999999100621MD1210051+9999REMSYN066AAXX  23121 33990 42674 21202 10210 20151 30062 40145 52005 82200;
0112339900999992000062315004+44500+034170FM-12+007299999V0203601N001012200019N0220001N1+01921+01441101491ADDGF102991021021012501001001MD1210021+9999REMSYN060AAXX  23151 33990 42672 23601 10192 20144 40149 52002 82200;
0165339900999992000062318004+44500+034170FM-12+007299999V0202101N002012200019N0200001N1+01701+01421101541ADDAA199000091GF102991021021012501001001KA1999M+02231MD1210051+9999REMSYN070AAXX  23181 33990 32670 22102 10170 20142 40154 52005 82200 333 10223;EQDQ01  00002PRCP99
0122339900999992000062321004+44500+034170FM-12+007299999V0203401N001012200019N0200001N1+01621+01151101571ADDGA1001+999999999GF100991001001999999001001MD1210091+9999REMSYN054AAXX  23211 33990 42970 03401 10162 20115 40157 52009;
0143339900999992000062400004+44500+034170FM-12+007299999V0203201N001012200019N0230001N1+01651+01091101561ADDGA1001+999999999GF100991001001999999001001MA1999999100711MD1810011+9999REMSYN060AAXX  24001 33990 42973 03201 10165 20109 30071 40156 58001;
0156339900999992000062403004+44500+034170FM-12+007299999V0203201N001012200019N0250001N1+01661+01211101561ADDGA1001+999999999GF100991001001999999001001GJ107209MD1410001+9999REMSYN080AAXX  24031 33990 42975 03201 10166 20121 40156 54000 333 55120 555 20156 7000/;
0175339900999992000062406004+44500+034170FM-12+007299999V0201601N002012200019N0220001N1+02081+01271101541ADDAA199000091GA1001+999999999GF100991001001999999001001KA1999N+01561MD1410001+9999REMSYN064AAXX  24061 33990 32972 01602 10208 20127 40154 54000 333 20156;EQDQ01  00002PRCP99
0112339900999992000062409004+44500+034170FM-12+007299999V0201201N003012200019N0280001N1+02061+01441101541ADDGF102991021021012501001001MD1810021+9999REMSYN060AAXX  24091 33990 42678 21203 10206 20144 40154 58002 82200;
0163339900999992000062412004+44500+034170FM-12+007299999V0200901N002012200019N0300001N1+02111+01491101401ADDAA199000091GF102991021021012501001001MA1999999100571MD1710121+9999REMSYN066AAXX  24121 33990 32680 20902 10211 20149 30057 40140 57012 82200;EQDQ01  00002PRCP99
0112339900999992000062415004+44500+034170FM-12+007299999V0200501N001012200019N0300001N1+02091+01321101261ADDGF102991021021012501001001MD1710141+9999REMSYN060AAXX  24151 33990 42680 20501 10209 20132 40126 57014 82200;
0175339900999992000062418004+44500+034170FM-12+007299999V0203401N002012200019N0270001N1+02081+01211101241ADDAA199000091GA1001+999999999GF100991001001999999001001KA1999M+02231MD1610021+9999REMSYN064AAXX  24181 33990 32977 03402 10208 20121 40124 56002 333 10223;EQDQ01  00002PRCP99
0122339900999992000062421004+44500+034170FM-12+007299999V0202901N001012200019N0270001N1+01881+01051101231ADDGA1001+999999999GF100991001001999999001001MD1810021+9999REMSYN054AAXX  24211 33990 42977 02901 10188 20105 40123 58002;
0143339900999992000062500004+44500+034170FM-12+007299999V0203401N002012200019N0260001N1+01821+01231101191ADDGA1001+999999999GF100991001001999999001001MA1999999100351MD1410001+9999REMSYN060AAXX  25001 33990 42976 03402 10182 20123 30035 40119 54004;
0156339900999992000062503004+44500+034170FM-12+007299999V0203201N001012200019N0220001N1+01761+01201101121ADDGA1001+999999999GF100991001001999999001001GJ107569MD1710071+9999REMSYN080AAXX  25031 33990 42972 03201 10176 20120 40112 57007 333 55126 555 20168 7000/;
0165339900999992000062506004+44500+034170FM-12+007299999V0200801N001019999999N0280001N1+02011+01321101211ADDAA199000091GF105991001001999999001091KA1999N+01681MD1310091+9999REMSYN070AAXX  25061 33990 32978 50801 10201 20132 40121 53009 80009 333 20168;EQDQ01  00002PRCP99
0112339900999992000062509004+44500+034170FM-12+007299999V0200901N001012200019N0300001N1+02491+01611101151ADDGF102991021011012501001001MD1810051+9999REMSYN060AAXX  25091 33990 42680 20901 10249 20161 40115 58005 82100;
0133339900999992000062512004+44500+034170FM-12+007299999V0200201N002012200019N0350001N1+02581+01341101111ADDGF102991021021012501001001MA1999999100301MD1710021+9999REMSYN066AAXX  25121 33990 42681 20202 10258 20134 30030 40111 57002 82200;
0112339900999992000062515004+44500+034170FM-12+007299999V0200101N003012200019N0300001N1+02211+01261101151ADDGF102991001001999999001091MD1310021+9999REMSYN060AAXX  25151 33990 42980 20103 10221 20126 40115 53002 80009;
0175339900999992000062518004+44500+034170FM-12+007299999V0202201N001012200019N0210001N1+01801+01421101191ADDAA199000091GA1001+999999999GF100991001001999999001001KA1999M+02691MD1210031+9999REMSYN064AAXX  25181 33990 32971 02201 10180 20142 40119 52003 333 10269;EQDQ01  00002PRCP99
0122339900999992000062521004+44500+034170FM-12+007299999V0203301N001012200019N0200001N1+01731+01341101211ADDGA1001+999999999GF100991001001999999001001MD1210021+9999REMSYN054AAXX  25211 33990 42970 03301 10173 20134 40121 52002;
0143339900999992000062600004+44500+034170FM-12+007299999V0203001N001012200019N0200001N1+01651+01231101161ADDGA1001+999999999GF100991001001999999001001MA1999999100321MD1810051+9999REMSYN060AAXX  26001 33990 42970 03001 10165 20123 30032 40116 58005;
0156339900999992000062603004+44500+034170FM-12+007299999V0200101N001012200019N0180001N1+01641+01241101171ADDGA1001+999999999GF100991001001999999001001GJ107629MD1310011+9999REMSYN080AAXX  26031 33990 42968 00101 10164 20124 40117 53001 333 55127 555 20160 7000/;
0175339900999992000062606004+44500+034170FM-12+007299999V0200901N001012200019N0210001N1+02051+01451101221ADDAA199000091GA1001+999999999GF100991001001999999001001KA1999N+01601MD1210051+9999REMSYN064AAXX  26061 33990 32971 00901 10205 20145 40122 52005 333 20160;EQDQ01  00002PRCP99
0122339900999992000062609004+44500+034170FM-12+007299999V0200901N002012200019N0230001N1+02161+01581101211ADDGA1001+999999999GF100991001001999999001001MD1410001+9999REMSYN054AAXX  26091 33990 42973 00902 10216 20158 40121 54000;
0143339900999992000062612004+44500+034170FM-12+007299999V0200901N002012200019N0250001N1+02301+01861101201ADDGA1001+999999999GF100991001001999999001001MA1999999100371MD1810011+9999REMSYN060AAXX  26121 33990 42975 00902 10230 20186 30037 40120 58001;
0122339900999992000062615004+44500+034170FM-12+007299999V0209999C000012200019N0270001N1+02151+01851101161ADDGA1001+999999999GF100991001001999999001001MD1810041+9999REMSYN054AAXX  26151 33990 42977 00000 10215 20185 40116 58004;
0175339900999992000062618004+44500+034170FM-12+007299999V0209999C000012200019N0260001N1+01921+01731101181ADDAA199000091GA1001+999999999GF100991001001999999001001KA1999M+02411MD1010011+9999REMSYN064AAXX  26181 33990 32976 00000 10192 20173 40118 50001 333 10241;EQDQ01  00002PRCP99
0122339900999992000062621004+44500+034170FM-12+007299999V0203001N001012200019N0300001N1+01861+01111101161ADDGA1001+999999999GF100991001001999999001001MD1810021+9999REMSYN054AAXX  26211 33990 42980 03001 10186 20111 40116 58002;
0143339900999992000062700004+44500+034170FM-12+007299999V0203101N001012200019N0300001N1+01791+01001101111ADDGA1001+999999999GF100991001001999999001001MA1999999100271MD1810051+9999REMSYN060AAXX  27001 33990 42980 03101 10179 20100 30027 40111 58005;
0175339900999992000062703004+44500+034170FM-12+007299999V0203001N001012200019N0270001N1+01891+01041101892ADDGA1001+999999999GF100991001001999999001001GJ107389MD1610021+9999REMSYN080AAXX  27031 33990 42977 03001 10189 20104 40189 56002 333 55123 555 20176 7000/;EQDQ01+101893APOSLP
0165339900999992000062706004+44500+034170FM-12+007299999V0200901N001012200019N0230001N1+02321+01541101081ADDAA199000091GF102991001001999999001011KA1999N+01761MD1410001+9999REMSYN070AAXX  27061 33990 32973 20901 10232 20154 40108 54000 80001 333 20176;EQDQ01  00002PRCP99
0122339900999992000062709004+44500+034170FM-12+007299999V0200901N001012200019N0250001N1+02441+01571101031ADDGA1001+999999999GF100991001001999999001001MD1810051+9999REMSYN054AAXX  27091 33990 42975 00901 10244 20157 40103 58005;
0133339900999992000062712004+44500+034170FM-12+007299999V0200701N002019999999N0260001N1+02371+01921100971ADDGF107991051001999999031011MA1999999100141MD1710061+9999REMSYN066AAXX  27121 33990 42976 70702 10237 20192 30014 40097 57006 85031;
0112339900999992000062715004+44500+034170FM-12+007299999V0201401N001012200019N0260001N1+02211+01621100911ADDGF102991011021012501001011MD1710061+9999REMSYN060AAXX  27151 33990 42676 21401 10221 20162 40091 57006 81201;
0165339900999992000062718004+44500+034170FM-12+007299999V0203101N001010120019N0200001N1+02061+01421100901ADDAA199000091GF108991081051012501999999KA1999M+02481MD1710021+9999REMSYN070AAXX  27181 33990 32670 83101 10206 20142 40090 57002 885// 333 10248;EQDQ01  00002PRCP99
0112339900999992000062721004+44500+034170FM-12+007299999V0202701N001010120019N0200001N1+01981+01331100901ADDGF108991081051012501999999MD1410001+9999REMSYN060AAXX  27211 33990 42670 82701 10198 20133 40090 54000 885//;
0133339900999992000062800004+44500+034170FM-12+007299999V0203601N001010120019N0200001N1+01961+01311100861ADDGF108991081051012501999999MA1999999100021MD1810041+9999REMSYN066AAXX  28001 33990 42670 83601 10196 20131 30002 40086 58004 885//;
0138339900999992000062803004+44500+034170FM-12+007299999V0202601N001012200019N0240001N1+02011+01381100891ADDGF102991011021012501041001MD1310031+9999REMSYN086AAXX  28031 33990 42674 22601 10201 20138 40089 53003 81240 333 55113 555 20186 7000/;
0165339900999992000062806004+44500+034170FM-12+007299999V0200701N003012200019N0250001N1+02361+01321100971ADDAA199000091GF102991021021008001001001KA1999N+01861MD1210091+9999REMSYN070AAXX  28061 33990 32575 20703 10236 20132 40097 52009 82200 333 20186;EQDQ01  00002PRCP99
0112339900999992000062809004+44500+034170FM-12+007299999V0200901N004012200019N0250001N1+02361+01471101111ADDGF103991031021008001001001MD1210141+9999REMSYN060AAXX  28091 33990 42575 30904 10236 20147 40111 52014 83200;
0133339900999992000062812004+44500+034170FM-12+007299999V0203601N004012200019N0300001N1+02551+01101101161ADDGF102991021021008001001001MA1999999100331MD1210051+9999REMSYN066AAXX  28121 33990 42580 23604 10255 20110 30033 40116 52005 82200;
0112339900999992000062815004+44500+034170FM-12+007299999V0203401N005012200019N0290001N1+02161+00811101211ADDGF101991011021008001001001MD1210051+9999REMSYN060AAXX  28151 33990 42579 13405 10216 20081 40121 52005 81200;
0175339900999992000062818004+44500+034170FM-12+007299999V0203201N004012200019N0260001N1+01821+00621101371ADDAA199000091GA1001+999999999GF100991001001999999001001KA1999M+02641MD1210151+9999REMSYN064AAXX  28181 33990 32976 03204 10182 20062 40137 52015 333 10264;EQDQ01  00002PRCP99
0122339900999992000062821004+44500+034170FM-12+007299999V0203201N003012200019N0280001N1+01711+00681101511ADDGA1001+999999999GF100991001001999999001001MD1210131+9999REMSYN054AAXX  28211 33990 42978 03203 10171 20068 40151 52013;
0143339900999992000062900004+44500+034170FM-12+007299999V0202901N002012200019N0280001N1+01561+00781101571ADDGA1001+999999999GF100991001001999999001001MA1999999100711MD1110051+9999REMSYN060AAXX  29001 33990 42978 02902 10156 20078 30071 40157 51005;
0156339900999992000062903004+44500+034170FM-12+007299999V0202901N001012200019N0220001N1+01581+00741101571ADDGA1001+999999999GF100991001001999999001001GJ107389MD1410001+9999REMSYN080AAXX  29031 33990 42972 02901 10158 20074 40157 54000 333 55123 555 20148 7000/;
0165339900999992000062906004+44500+034170FM-12+007299999V0200701N001012200019N0250001N1+02121+01061101691ADDAA199000091GF102991021011012501001001KA1999N+01481MD1310151+9999REMSYN070AAXX  29061 33990 32675 20701 10212 20106 40169 53015 82100 333 20148;EQDQ01  00002PRCP99
0112339900999992000062909004+44500+034170FM-12+007299999V0200801N002012200019N0250001N1+02161+01111101691ADDGF102991021011012501001001MD1010001+9999REMSYN060AAXX  29091 33990 42675 20802 10216 20111 40169 50000 82100;
0133339900999992000062912004+44500+034170FM-12+007299999V0200901N002012200019N0240001N1+02221+01191101641ADDGF101991011011012501001001MA1999999100811MD1710051+9999REMSYN066AAXX  29121 33990 42674 10902 10222 20119 30081 40164 57005 81100;
0112339900999992000062915004+44500+034170FM-12+007299999V0200901N001012200019N0220001N1+02011+01051101621ADDGF101991011011012501001001MD1710041+9999REMSYN060AAXX  29151 33990 42672 10901 10201 20105 40162 57004 81100;
0165339900999992000062918004+44500+034170FM-12+007299999V0203001N002012200019N0200001N1+01701+00821101641ADDAA199000091GF102991011011012501001011KA1999M+02251MD1310021+9999REMSYN070AAXX  29181 33990 32670 23002 10170 20082 40164 53002 81101 333 10225;EQDQ01  00002PRCP99
0122339900999992000062921004+44500+034170FM-12+007299999V0202801N001012200019N0230001N1+01691+00761101671ADDGA1001+999999999GF100991001001999999001001MD1010031+9999REMSYN054AAXX  29211 33990 42973 02801 10169 20076 40167 50003;
0143339900999992000063000004+44500+034170FM-12+007299999V0202901N001012200019N0230001N1+01601+00671101591ADDGA1001+999999999GF100991001001999999001001MA1999999100731MD1710091+9999REMSYN060AAXX  30001 33990 42973 02901 10160 20067 30073 40159 57009;
0156339900999992000063003004+44500+034170FM-12+007299999V0202901N002012200019N0250001N1+01731+00711101531ADDGA1001+999999999GF100991001001999999001001GJ107569MD1710051+9999REMSYN080AAXX  30031 33990 42975 02902 10173 20071 40153 57005 333 55126 555 20156 7000/;
0175339900999992000063006004+44500+034170FM-12+007299999V0200401N004012200019N0230001N1+02281+01071101521ADDAA199000091GA1001+999999999GF100991001001999999001001KA1999N+01561MD1110011+9999REMSYN064AAXX  30061 33990 32973 00404 10228 20107 40152 51001 333 20156;EQDQ01  00002PRCP99
0112339900999992000063009004+44500+034170FM-12+007299999V0200701N004012200019N0240001N1+02391+01341101491ADDGF101991011011012501001001MD1610031+9999REMSYN060AAXX  30091 33990 42674 10704 10239 20134 40149 56003 81100;
0133339900999992000063012004+44500+034170FM-12+007299999V0201501N002012200019N0230001N1+02381+01411101411ADDGF101991011011012501001001MA1999999100581MD1710081+9999REMSYN066AAXX  30121 33990 42673 11502 10238 20141 30058 40141 57008 81100;
0112339900999992000063015004+44500+034170FM-12+007299999V0201301N001012200019N0260001N1+02221+01321101351ADDGF102991021001999999031001MD1510061+9999REMSYN060AAXX  30151 33990 42976 21301 10222 20132 40135 55006 82030;
0175339900999992000063018004+44500+034170FM-12+007299999V0209999C000012200019N0220001N1+01941+01231101421ADDAA199000091GA1001+999999999GF100991001001999999001001KA1999M+02491MD1310051+9999REMSYN064AAXX  30181 33990 32972 00000 10194 20123 40142 53005 333 10249;EQDQ01  00002PRCP99
0122339900999992000063021004+44500+034170FM-12+007299999V0202901N001012200019N0260001N1+01931+01111101361ADDGA1001+999999999GF100991001001999999001001MD1810061+9999REMSYN054AAXX  30211 33990 42976 02901 10193 20111 40136 58006;
0143339900999992000070100004+44500+034170FM-12+007299999V0202801N001012200019N0250001N1+01901+01201101281ADDGA1001+999999999GF100991001001999999001001MA1999999100441MD1810071+9999REMSYN060AAXX  01001 33990 42975 02801 10190 20120 30044 40128 58007;
0138339900999992000070103004+44500+034170FM-12+007299999V0209999C000012200019N0190001N1+01951+01131101241ADDGF103991031001999999081001MD1610041+9999REMSYN086AAXX  01031 33990 42969 30000 10195 20113 40124 56004 83080 333 55124 555 20183 7000/;
0165339900999992000070106004+44500+034170FM-12+007299999V0201401N001010120019N0210001N1+02221+01511101271ADDAA199000091GF106991061021012501001001KA1999N+01831MD1310041+9999REMSYN070AAXX  01061 33990 32671 61401 10222 20151 40127 53004 86200 333 20183;EQDQ01  00002PRCP99
0112339900999992000070109004+44500+034170FM-12+007299999V0200501N002012200019N0180001N1+02531+01751101321ADDGF103991011021012501041001MD1210061+9999REMSYN060AAXX  01091 33990 42668 30502 10253 20175 40132 52006 81240;
0133339900999992000070112004+44500+034170FM-12+007299999V0203601N001010150019N0180001N1+02491+01771101331ADDGF107991071081012501001001MA1999999100511MD1210011+9999REMSYN066AAXX  01121 33990 42668 73601 10249 20177 30051 40133 52001 87800;
0112339900999992000070115004+44500+034170FM-12+007299999V0202101N001012200019N0220001N1+02361+01391101321ADDGF101991011051012501001001MD1810021+9999REMSYN060AAXX  01151 33990 42672 12101 10236 20139 40132 58002 81500;
0165339900999992000070118004+44500+034170FM-12+007299999V0202701N002012200019N0200001N1+02321+01361101421ADDAA199000091GF102991021001999999061001KA1999M+02781MD1210101+9999REMSYN070AAXX  01181 33990 32970 22702 10232 20136 40142 52010 82060 333 10278;EQDQ01  00002PRCP99
0112339900999992000070121004+44500+034170FM-12+007299999V0202901N001012200019N0200001N1+02241+01281101511ADDGF103991031001999999031001MD1210091+9999REMSYN060AAXX  01211 33990 42970 32901 10224 20128 40151 52009 83030;
0143339900999992000070200004+44500+034170FM-12+007299999V0202701N001012200019N0180001N1+02061+01121101561ADDGA1001+999999999GF100991001001999999001001MA1999999100721MD1210041+9999REMSYN060AAXX  02001 33990 42968 02701 10206 20112 30072 40156 52004;
0138339900999992000070203004+44500+034170FM-12+007299999V0203001N001012200019N0190001N1+02121+01221101641ADDGF104991021021012501001011MD1210091+9999REMSYN086AAXX  02031 33990 42669 43001 10212 20122 40164 52009 82201 333 55102 555 20206 7000/;
0165339900999992000070206004+44500+034170FM-12+007299999V0200601N001012200019N0210001N1+02491+01641101691ADDAA199000091GF102991021021012501001001KA1999N+02061MD1210051+9999REMSYN070AAXX  02061 33990 32671 20601 10249 20164 40169 52005 82200 333 20206;EQDQ01  00002PRCP99
0112339900999992000070209004+44500+034170FM-12+007299999V0201101N003012200019N0250001N1+02701+01691101771ADDGF103991031021012501001001MD1210091+9999REMSYN060AAXX  02091 33990 42675 31103 10270 20169 40177 52009 83200;
0133339900999992000070212004+44500+034170FM-12+007299999V0200501N002010120019N0270001N1+02571+01591101741ADDGF106991061021012501001001MA1999999100921MD1810031+9999REMSYN066AAXX  02121 33990 42677 60502 10257 20159 30092 40174 58003 86200;
0175339900999992000070218004+44500+034170FM-12+007299999V0202901N001012200019N0160001N1+02081+01841101661ADDAA199000091GA1001+999999999GF100991001001999999001001KA1999M+02771MD1610011+9999REMSYN064AAXX  02181 33990 32966 02901 10208 20184 40166 56001 333 10277;EQDQ01  00002PRCP99
0122339900999992000070221004+44500+034170FM-12+007299999V0200301N002012200019N0220001N1+01941+01051101661ADDGA1001+999999999GF100991001001999999001001MD1810021+9999REMSYN054AAXX  02211 33990 42972 00302 10194 20105 40166 58002;
0143339900999992000070300004+44500+034170FM-12+007299999V0202701N001012200019N0230001N1+01901+00981101601ADDGA1001+999999999GF100991001001999999001001MA1999999100751MD1710061+9999REMSYN060AAXX  03001 33990 42973 02701 10190 20098 30075 40160 57006;
0156339900999992000070303004+44500+034170FM-12+007299999V0202701N002012200019N0140001N1+01861+01351101561ADDGA1001+999999999GF100991001001999999001001GJ107029MD1710041+9999REMSYN080AAXX  03031 33990 42964 02702 10186 20135 40156 57004 333 55117 555 20178 7000/;
0175339900999992000070306004+44500+034170FM-12+007299999V0201401N002012200019N0150001N1+02421+01591101551ADDAA199000091GA1001+999999999GF100991001001999999001001KA1999N+01781MD1310011+9999REMSYN064AAXX  03061 33990 32965 01402 10242 20159 40155 53001 333 20178;EQDQ01  00002PRCP99
0122339900999992000070309004+44500+034170FM-12+007299999V0200301N002012200019N0170001N1+02551+01641101531ADDGA1001+999999999GF100991001001999999001001MD1810011+9999REMSYN054AAXX  03091 33990 42967 00302 10255 20164 40153 58001;
0122339900999992000070315004+44500+034170FM-12+007299999V0202101N001012200019N0240001N1+99999+99999101371ADDGA1001+999999999GF100991001001999999001001MD1710091+9999REMSYN054AAXX  03151 33990 42974 02101 10989 20137 40137 57009;
0175339900999992000070318004+44500+034170FM-12+007299999V0209999C000012200019N0140001N1+02261+01471101381ADDAA199000091GA1001+999999999GF100991001001999999001001KA1999M+03001MD1510001+9999REMSYN064AAXX  03181 33990 32964 00000 10226 20147 40138 55000 333 10300;EQDQ01  00002PRCP99
0122339900999992000070321004+44500+034170FM-12+007299999V0203201N001012200019N0130001N1+02051+01391101451ADDGA1001+999999999GF100991001001999999001001MD1210051+9999REMSYN054AAXX  03211 33990 42963 03201 10205 20139 40145 52005;
0143339900999992000070400004+44500+034170FM-12+007299999V0203001N001012200019N0130001N1+01911+01171101401ADDGA1001+999999999GF100991001001999999001001MA1999999100551MD1810051+9999REMSYN060AAXX  04001 33990 42963 03001 10191 20117 30055 40140 58005;
0138339900999992000070403004+44500+034170FM-12+007299999V0200101N001012200019N0170001N1+01981+00971101371ADDGF102991021001999999041001MD1710031+9999REMSYN086AAXX  04031 33990 42967 20101 10198 20097 40137 57003 82040 333 55121 555 20187 7000/;
0165339900999992000070406004+44500+034170FM-12+007299999V0203601N001019999999N0220001N1+02331+01511101311ADDAA199000091GF106991061001999999071001KA1999N+01871MD1510041+9999REMSYN070AAXX  04061 33990 32972 63601 10233 20151 40131 55004 86070 333 20187;EQDQ01  00002PRCP99
0122339900999992000070409004+44500+034170FM-12+007299999V0201901N002012200019N0240001N1+03051+01441101281ADDGA1001+999999999GF100991001001999999001001MD1810011+9999REMSYN054AAXX  04091 33990 42974 01902 10305 20144 40128 58001;
0143339900999992000070412004+44500+034170FM-12+007299999V0202201N002012200019N0250001N1+03121+01431101201ADDGA1001+999999999GF100991001001999999001001MA1999999100401MD1710071+9999REMSYN060AAXX  04121 33990 42975 02202 10312 20143 30040 40120 57007;
0122339900999992000070415004+44500+034170FM-12+007299999V0200901N001012200019N0270001N1+02691+01541101171ADDGA1001+999999999GF100991001001999999001001MD1710041+9999REMSYN054AAXX  04151 33990 42977 00901 10269 20154 40117 57004;
0175339900999992000070418004+44500+034170FM-12+007299999V0209999C000012200019N0230001N1+02211+01381101191ADDAA199000091GA1001+999999999GF100991001001999999001001KA1999M+03191MD1410001+9999REMSYN064AAXX  04181 33990 32973 00000 10221 20138 40119 54000 333 10319;EQDQ01  00002PRCP99
0143339900999992000070500004+44500+034170FM-12+007299999V0202801N001012200019N0290001N1+01971+01221101181ADDGA1001+999999999GF100991001001999999001001MA1999999100341MD1810021+9999REMSYN060AAXX  05001 33990 42979 02801 10197 20122 30034 40118 58002;
0156339900999992000070503004+44500+034170FM-12+007299999V0202301N001012200019N0240001N1+01981+01331101141ADDGA1001+999999999GF100991001001999999001001GJ107449MD1610041+9999REMSYN080AAXX  05031 33990 42974 02301 10198 20133 40114 56004 333 55124 555 20194 7000/;
0165339900999992000070506004+44500+034170FM-12+007299999V0200301N001019999999N0230001N1+02281+01571101141ADDAA199000091GF107991071001999999031001KA1999N+01941MD1210011+9999REMSYN070AAXX  05061 33990 32973 70301 10228 20157 40114 52001 87030 333 20194;EQDQ01  00002PRCP99
0112339900999992000070509004+44500+034170FM-12+007299999V0200901N001019999999N0180001N1+02401+01801101271ADDGF106991061001999999031001MD1310131+9999REMSYN060AAXX  05091 33990 42968 60901 10240 20180 40127 53013 86030;
0143339900999992000070512004+44500+034170FM-12+007299999V0200501N001012200019N0180001N1+02591+01781101141ADDGA1001+999999999GF100991001001999999001001MA1999999100331MD1810111+9999REMSYN060AAXX  05121 33990 42968 00501 10259 20178 30033 40114 58011;
0122339900999992000070515004+44500+034170FM-12+007299999V0203601N002012200019N0170001N1+02511+01641101001ADDGA1001+999999999GF100991001001999999001001MD1710161+9999REMSYN054AAXX  05151 33990 42967 03602 10251 20164 40100 57016;
0175339900999992000070518004+44500+034170FM-12+007299999V0200901N001012200019N0160001N1+02281+01781100921ADDAA199000091GA1001+999999999GF100991001001999999001001KA1999M+02681MD1710081+9999REMSYN064AAXX  05181 33990 32966 00901 10228 20178 40092 57008 333 10268;EQDQ01  00002PRCP99
0122339900999992000070521004+44500+034170FM-12+007299999V0203401N002012200019N0160001N1+02281+01621100931ADDGA1001+999999999GF100991001001999999001001MD1310011+9999REMSYN054AAXX  05211 33990 42966 03402 10228 20162 40093 53001;
0161339900999992000070600004+44500+034170FM-12+007299999V0202401N001012200019N0170001N1+02101+01741100911ADDAY191061AY281061GF102991021091012501001001MA1999999100081MD1210021+9999MW1171REMSYN072AAXX  06001 33990 41667 22401 10210 20174 30008 40091 52002 71798 82900;
0166339900999992000070603004+44500+034170FM-12+007299999V0202101N001019999999N0170001N1+02131+01621100821ADDAY191031AY211031GF106991061001999999031001MD1710091+9999MW1021REMSYN092AAXX  06031 33990 41967 62101 10213 20162 40082 57009 70291 86030 333 55089 555 20209 7990/;
0190339900999992000070606004+44500+034170FM-12+007299999V0201301N001012200019N0220001N1+02561+01841100771ADDAA112000791AY191061AY211061GA1001+999999999GF100991001001999999001001KA1999N+02091MD1610031+9999MW1021REMSYN076AAXX  06061 33990 11972 01301 10256 20184 40077 56003 69902 70291 333 20209;
0112339900999992000070609004+44500+034170FM-12+007299999V0200701N001012200019N0230001N1+02681+02021100771ADDGF102991021001999999041001MD1410001+9999REMSYN060AAXX  06091 33990 42973 20701 10268 20202 40077 54000 82040;
0133339900999992000070612004+44500+034170FM-12+007299999V0201101N002012200019N0240001N1+02831+02061100791ADDGF102991021021012501001001MA1999999099981MD1310021+9999REMSYN066AAXX  06121 33990 42674 21102 10283 20206 39998 40079 53002 82200;
0112339900999992000070615004+44500+034170FM-12+007299999V0203401N001012200019N0230001N1+02711+01971100831ADDGF102991021021012501001001MD1110041+9999REMSYN060AAXX  06151 33990 42673 23401 10271 20197 40083 51004 82200;
0175339900999992000070618004+44500+034170FM-12+007299999V0203101N002012200019N0260001N1+02671+01351100911ADDAA199000091GA1001+999999999GF100991001001999999001001KA1999M+02931MD1310081+9999REMSYN064AAXX  06181 33990 32976 03102 10267 20135 40091 53008 333 10293;EQDQ01  00002PRCP99
0122339900999992000070621004+44500+034170FM-12+007299999V0202201N001012200019N0240001N1+02371+01381100981ADDGA1001+999999999GF100991001001999999001001MD1110051+9999REMSYN054AAXX  06211 33990 42974 02201 10237 20138 40098 51005;
0143339900999992000070700004+44500+034170FM-12+007299999V0202901N002012200019N0250001N1+02311+01301100921ADDGA1001+999999999GF100991001001999999001001MA1999999100091MD1810061+9999REMSYN060AAXX  07001 33990 42975 02902 10231 20130 30009 40092 58006;
0138339900999992000070703004+44500+034170FM-12+007299999V0203101N001010360019N0250001N1+02351+01311100931ADDGF106991031021012501051001MD1310011+9999REMSYN086AAXX  07031 33990 42675 63101 10235 20131 40093 53001 83250 333 55107 555 20222 7000/;
0165339900999992000070706004+44500+034170FM-12+007299999V0201501N002010360019N0260001N1+02441+01721100941ADDAA199000091GF106991011021012501031001KA1999N+02221MD1210011+9999REMSYN070AAXX  07061 33990 32676 61502 10244 20172 40094 52001 81230 333 20222;EQDQ01  00002PRCP99
0112339900999992000070709004+44500+034170FM-12+007299999V0201201N004012200019N0280001N1+02591+01691100921ADDGF102991021021012501001001MD1410001+9999REMSYN060AAXX  07091 33990 42678 21204 10259 20169 40092 54000 82200;
0133339900999992000070712004+44500+034170FM-12+007299999V0203401N005012200019N0300001N1+02831+01351100841ADDGF101991011021012501001001MA1999999100031MD1810081+9999REMSYN066AAXX  07121 33990 42680 13405 10283 20135 30003 40084 58008 81200;
0112339900999992000070715004+44500+034170FM-12+007299999V0203601N006012200019N0300001N1+02491+01371100841ADDGF102991021021012501001001MD1510021+9999REMSYN060AAXX  07151 33990 42680 23606 10249 20137 40084 55002 82200;
0165339900999992000070718004+44500+034170FM-12+007299999V0203601N004012200019N0260001N1+02201+01391100901ADDAA199000091GF102991021041012501001001KA1999M+02901MD1210061+9999REMSYN070AAXX  07181 33990 32676 23604 10220 20139 40090 52006 82400 333 10290;EQDQ01  00002PRCP99
0112339900999992000070721004+44500+034170FM-12+007299999V0200301N002012200019N0260001N1+02131+01371100951ADDGF102991021041012501001001MD1110051+9999REMSYN060AAXX  07211 33990 42676 20302 10213 20137 40095 51005 82400;
0133339900999992000070800004+44500+034170FM-12+007299999V0202701N002012200019N0250001N1+02201+01511100931ADDGF103991031051012501001001MA1999999100101MD1810021+9999REMSYN066AAXX  08001 33990 42675 32702 10220 20151 30010 40093 58002 83500;
0138339900999992000070803004+44500+034170FM-12+007299999V0202701N003012200019N0230001N1+02191+01441100931ADDGF104991031041012501001011MD1410001+9999REMSYN086AAXX  08031 33990 42673 42703 10219 20144 40093 54000 83401 333 55106 555 20209 7000/;
0165339900999992000070806004+44500+034170FM-12+007299999V0201801N002012200019N0300001N1+02561+01421100961ADDAA199000091GF102991021021012501001001KA1999N+02091MD1310031+9999REMSYN070AAXX  08061 33990 32680 21802 10256 20142 40096 53003 82200 333 20209;EQDQ01  00002PRCP99
0112339900999992000070809004+44500+034170FM-12+007299999V0200901N001012200019N0280001N1+02731+02001100981ADDGF103991021021012501001011MD1110041+9999REMSYN060AAXX  08091 33990 42678 30901 10273 20200 40098 51004 82201;
0133339900999992000070812004+44500+034170FM-12+007299999V0203201N003012200019N0350001N1+02971+01461100931ADDGF102991021021012501001001MA1999999100121MD1810051+9999REMSYN066AAXX  08121 33990 42681 23203 10297 20146 30012 40093 58005 82200;
0122339900999992000070815004+44500+034170FM-12+007299999V0203401N002012200019N0300001N1+02761+01361100961ADDGA1001+999999999GF100991001001999999001001MD1310031+9999REMSYN054AAXX  08151 33990 42980 03402 10276 20136 40096 53003;
0175339900999992000070818004+44500+034170FM-12+007299999V0202901N002012200019N0210001N1+02361+01371100951ADDAA199000091GA1001+999999999GF100991001001999999001001KA1999M+03001MD1810031+9999REMSYN064AAXX  08181 33990 32971 02902 10236 20137 40095 58003 333 10300;EQDQ01  00002PRCP99
0122339900999992000070821004+44500+034170FM-12+007299999V0203201N001012200019N0200001N1+02201+01291100981ADDGA1001+999999999GF100991001001999999001001MD1310031+9999REMSYN054AAXX  08211 33990 42970 03201 10220 20129 40098 53003;
0143339900999992000070900004+44500+034170FM-12+007299999V0202901N001012200019N0170001N1+02031+01371100931ADDGA1001+999999999GF100991001001999999001001MA1999999100091MD1810061+9999REMSYN060AAXX  09001 33990 42967 02901 10203 20137 30009 40093 58006;
0128339900999992000070903004+44500+034170FM-12+007299999V0203201N001019999999N0170001N1+01951+01331100881ADDGF105991041001999999051999MD1710051+9999REMSYN076AAXX  09031 33990 42967 53201 10195 20133 40088 57005 8405/ 555 20193 7000/;
0175339900999992000070906004+44500+034170FM-12+007299999V0200501N001012200019N0230001N1+02641+01521100821ADDAA199000091GA1001+999999999GF100991001001999999001001KA1999N+01931MD1510031+9999REMSYN064AAXX  09061 33990 32973 00501 10264 20152 40082 55003 333 20193;EQDQ01  00002PRCP99
0122339900999992000070909004+44500+034170FM-12+007299999V0200901N002012200019N0260001N1+02561+01911100741ADDGA1001+999999999GF100991001001999999001001MD1610081+9999REMSYN054AAXX  09091 33990 42976 00902 10256 20191 40074 56008;
0133339900999992000070912004+44500+034170FM-12+007299999V0200801N001012200019N0280001N1+02631+02041100591ADDGF102991021001999999081001MA1999999099781MD1710151+9999REMSYN066AAXX  09121 33990 42978 20801 10263 20204 39978 40059 57015 82080;
0112339900999992000070915004+44500+034170FM-12+007299999V0200201N001012200019N0270001N1+02441+01751100411ADDGF102991021001999999081001MD1710201+9999REMSYN060AAXX  09151 33990 42977 20201 10244 20175 40041 57020 82080;
0165339900999992000070918004+44500+034170FM-12+007299999V0203401N001012200019N0280001N1+02251+01591100271ADDAA199000091GF102991011051008001081001KA1999M+02701MD1810131+9999REMSYN070AAXX  09181 33990 32578 23401 10225 20159 40027 58013 81580 333 10270;EQDQ01  00002PRCP99
0112339900999992000070921004+44500+034170FM-12+007299999V0202701N001010120019N0270001N1+02181+01591100131ADDGF106991061051012501001001MD1810141+9999REMSYN060AAXX  09211 33990 42677 62701 10218 20159 40013 58014 86500;
0143339900999992000071000004+44500+034170FM-12+007299999V0201701N001012200019N0300001N1+02011+01511099991ADDGA1001+999999999GF100991001001999999001001MA1999999099161MD1710151+9999REMSYN060AAXX  10001 33990 42980 01701 10201 20151 39916 49999 57015;
0138339900999992000071003004+44500+034170FM-12+007299999V0202401N001012200019N0260001N1+02001+01651099871ADDGF101991011001999999081001MD1610121+9999REMSYN086AAXX  10031 33990 42976 12401 10200 20165 49987 56012 81080 333 55109 555 20198 7000/;
0165339900999992000071006004+44500+034170FM-12+007299999V0201401N002012200019N0240001N1+02471+02081099811ADDAA199000091GF102991021021012501001011KA1999N+01981MD1510041+9999REMSYN070AAXX  10061 33990 32674 21402 10247 20208 49981 55004 82201 333 20198;EQDQ01  00002PRCP99
0131339900999992000071009004+44500+034170FM-12+007299999V0200901N002012200019N0220001N1+02271+02091099941ADDGF101991999021012501001001MD1210121+9999REMSYN060AAXX  10091 33990 42672 10902 10227 20209 49994 52012 82200;EQDQ01+000022SCOTLC
0133339900999992000071012004+44500+034170FM-12+007299999V0201401N002012200019N0210001N1+02841+01891100091ADDGF102991021021012501001001MA1999999099291MD1210151+9999REMSYN066AAXX  10121 33990 42671 21402 10284 20189 39929 40009 52015 82200;
0112339900999992000071015004+44500+034170FM-12+007299999V0203601N003012200019N0250001N1+02661+01491100261ADDGF102991021021012501001001MD1210171+9999REMSYN060AAXX  10151 33990 42675 23603 10266 20149 40026 52017 82200;
0165339900999992000071018004+44500+034170FM-12+007299999V0203401N002012200019N0240001N1+02251+01311100451ADDAA199000091GF102991021041012501001001KA1999M+02931MD1210161+9999REMSYN070AAXX  10181 33990 32674 23402 10225 20131 40045 52016 82400 333 10293;EQDQ01  00002PRCP99
0122339900999992000071021004+44500+034170FM-12+007299999V0203001N002012200019N0230001N1+02091+01001100651ADDGA1001+999999999GF100991001001999999001001MD1210191+9999REMSYN054AAXX  10211 33990 42973 03002 10209 20100 40065 52019;
0143339900999992000071100004+44500+034170FM-12+007299999V0202501N001012200019N0240001N1+02021+00981100801ADDGA1001+999999999GF100991001001999999001001MA1999999099961MD1210151+9999REMSYN060AAXX  11001 33990 42974 02501 10202 20098 39996 40080 52015;
0156339900999992000071103004+44500+034170FM-12+007299999V0203401N001012200019N0250001N1+01921+01181100911ADDGA1001+999999999GF100991001001999999001001GJ106609MD1210111+9999REMSYN080AAXX  11031 33990 42975 03401 10192 20118 40091 52011 333 55110 555 20188 7000/;
0165339900999992000071106004+44500+034170FM-12+007299999V0201901N002012200019N0300001N1+02551+01571101001ADDAA199000091GF102991021021012501001001KA1999N+01881MD1210121+9999REMSYN070AAXX  11061 33990 32680 21902 10255 20157 40100 52012 82200 333 20188;EQDQ01  00002PRCP99
0133339900999992000071112004+44500+034170FM-12+007299999V0201701N002010075019N0280001N1+02411+01821101161ADDGF106991061031008001001001MA1999999100331MD1110061+9999REMSYN066AAXX  11121 33990 42578 61702 10241 20182 30033 40116 51006 86300;
0112339900999992000071115004+44500+034170FM-12+007299999V0201801N002010075019N0280001N1+02271+01591101161ADDGF107991071021008001001001MD1410001+9999REMSYN060AAXX  11151 33990 42578 71802 10227 20159 40116 54000 87200;
0165339900999992000071118004+44500+034170FM-12+007299999V0203001N001012200019N0240001N1+02061+01821101231ADDAA199000091GF103991031041008001001001KA1999M+02711MD1310071+9999REMSYN070AAXX  11181 33990 32574 33001 10206 20182 40123 53007 83400 333 10271;EQDQ01  00002PRCP99
0122339900999992000071121004+44500+034170FM-12+007299999V0202901N001012200019N0220001N1+01941+01661101261ADDGA1001+999999999GF100991001001999999001001MD1110021+9999REMSYN054AAXX  11211 33990 42972 02901 10194 20166 40126 51002;
0143339900999992000071200004+44500+034170FM-12+007299999V0202901N001012200019N0240001N1+01911+01451101261ADDGA1001+999999999GF100991001001999999001001MA1999999100421MD1410001+9999REMSYN060AAXX  12001 33990 42974 02901 10191 20145 30042 40126 54000;
0156339900999992000071203004+44500+034170FM-12+007299999V0202501N001012200019N0250001N1+01871+01481101281ADDGA1001+999999999GF100991001001999999001001GJ106009MD1310021+9999REMSYN080AAXX  12031 33990 42975 02501 10187 20148 40128 53002 333 55100 555 20184 7000/;
0165339900999992000071206004+44500+034170FM-12+007299999V0201101N002012200019N0250001N1+02311+01921101361ADDAA199000091GF101991011021012501001001KA1999N+01841MD1210091+9999REMSYN070AAXX  12061 33990 32675 11102 10231 20192 40136 52009 81200 333 20184;EQDQ01  00002PRCP99
0112339900999992000071209004+44500+034170FM-12+007299999V0201101N002012200019N0300001N1+02591+01841101411ADDGF102991021021012501001001MD1210061+9999REMSYN060AAXX  12091 33990 42680 21102 10259 20184 40141 52006 82200;
0133339900999992000071212004+44500+034170FM-12+007299999V0201201N002012200019N0300001N1+02481+01711101391ADDGF101991011021012501001001MA1999999100561MD1810031+9999REMSYN066AAXX  12121 33990 42680 11202 10248 20171 30056 40139 58003 81200;
0122339900999992000071215004+44500+034170FM-12+007299999V0201401N002012200019N0300001N1+02341+01641101321ADDGA1001+999999999GF100991001001999999001001MD1710061+9999REMSYN054AAXX  12151 33990 42980 01402 10234 20164 40132 57006;
0175339900999992000071218004+44500+034170FM-12+007299999V0203001N001012200019N0160001N1+02101+01711101291ADDAA199000091GA1001+999999999GF100991001001999999001001KA1999M+02631MD1710041+9999REMSYN064AAXX  12181 33990 32966 03001 10210 20171 40129 57004 333 10263;EQDQ01  00002PRCP99
0122339900999992000071221004+44500+034170FM-12+007299999V0203001N001012200019N0150001N1+01971+01621101291ADDGA1001+999999999GF100991001001999999001001MD1710011+9999REMSYN054AAXX  12211 33990 42965 03001 10197 20162 40129 57001;
0143339900999992000071300004+44500+034170FM-12+007299999V0203101N001012200019N0150001N1+01951+01621101181ADDGA1001+999999999GF100991001001999999001001MA1999999100341MD1710011+9999REMSYN060AAXX  13001 33990 42965 03101 10195 20162 30034 40118 57001;
0156339900999992000071303004+44500+034170FM-12+007299999V0203101N001012200019N0160001N1+01961+01561101131ADDGA1001+999999999GF100991001001999999001001GJ107329MD1710051+9999REMSYN080AAXX  13031 33990 42966 03101 10196 20156 40113 57005 333 55122 555 20194 7000/;
0175339900999992000071306004+44500+034170FM-12+007299999V0200301N002012200019N0210001N1+02501+01961101011ADDAA199000091GA1001+999999999GF100991001001999999001001KA1999N+01941MD1610091+9999REMSYN064AAXX  13061 33990 32971 00302 10250 20196 40101 56009 333 20194;EQDQ01  00002PRCP99
0122339900999992000071309004+44500+034170FM-12+007299999V0200801N002012200019N0230001N1+02641+02051100891ADDGA1001+999999999GF100991001001999999001001MD1810121+9999REMSYN054AAXX  13091 33990 42973 00802 10264 20205 40089 58012;
0143339900999992000071312004+44500+034170FM-12+007299999V0200901N002012200019N0260001N1+02591+01961100651ADDGA1001+999999999GF100991001001999999001001MA1999999099841MD1710241+9999REMSYN060AAXX  13121 33990 42976 00902 10259 20196 39984 40065 57024;
0122339900999992000071315004+44500+034170FM-12+007299999V0200801N001012200019N0240001N1+02451+01601100471ADDGA1001+999999999GF100991001001999999001001MD1810201+9999REMSYN054AAXX  13151 33990 42974 00801 10245 20160 40047 58020;
0175339900999992000071318004+44500+034170FM-12+007299999V0203501N001012200019N0190001N1+02321+01421100291ADDAA199000091GA1001+999999999GF100991001001999999001001KA1999M+02691MD1710171+9999REMSYN064AAXX  13181 33990 32969 03501 10232 20142 40029 57017 333 10269;EQDQ01  00002PRCP99
0122339900999992000071321004+44500+034170FM-12+007299999V0203601N001012200019N0270001N1+02251+01071100121ADDGA1001+999999999GF100991001001999999001001MD1810171+9999REMSYN054AAXX  13211 33990 42977 03601 10225 20107 40012 58017;
0133339900999992000071400004+44500+034170FM-12+007299999V0203001N002019999999N0280001N1+02351+01211100001ADDGF105991021001999999031011MA1999999099181MD1610121+9999REMSYN066AAXX  14001 33990 42978 53002 10235 20121 39918 40000 56012 82031;
0144339900999992000071403004+44500+034170FM-12+007299999V0202901N001010075019N0260001N1+02341+01601099951ADDAY191031AY221031GF106991061091008001001001MD1710051+9999MW1171REMSYN070AAXX  14031 33990 41576 62901 10234 20160 49995 57005 71792 86900 333;
0190339900999992000071406004+44500+034170FM-12+007299999V0201801N001012200019N0190001N1+02521+01871100021ADDAA112000791AY191061AY281061GA1001+999999999GF100991001001999999001001KA1999N+02151MD1310091+9999MW1021REMSYN076AAXX  14061 33990 11969 01801 10252 20187 40002 53009 69902 70298 333 20215;
0112339900999992000071409004+44500+034170FM-12+007299999V0202501N003012200019N0180001N1+02951+01041100191ADDGF102991001001999999001011MD1210171+9999REMSYN060AAXX  14091 33990 42968 22503 10295 20104 40019 52017 80001;
0143339900999992000071412004+44500+034170FM-12+007299999V0202401N002012200019N0210001N1+02761+00971100331ADDGA1001+999999999GF100991001001999999001001MA1999999099521MD1210131+9999REMSYN060AAXX  14121 33990 42971 02402 10276 20097 39952 40033 52013;
0122339900999992000071415004+44500+034170FM-12+007299999V0200901N002012200019N0230001N1+02451+01001100451ADDGA1001+999999999GF100991001001999999001001MD1210101+9999REMSYN054AAXX  14151 33990 42973 00902 10245 20100 40045 52010;
0175339900999992000071418004+44500+034170FM-12+007299999V0203201N001012200019N0250001N1+02101+00921100571ADDAA199000091GA1001+999999999GF100991001001999999001001KA1999M+02981MD1210121+9999REMSYN064AAXX  14181 33990 32975 03201 10210 20092 40057 52012 333 10298;EQDQ01  00002PRCP99
0122339900999992000071421004+44500+034170FM-12+007299999V0203401N001012200019N0250001N1+02001+01111100691ADDGA1001+999999999GF100991001001999999001001MD1210111+9999REMSYN054AAXX  14211 33990 42975 03401 10200 20111 40069 52011;
0143339900999992000071500004+44500+034170FM-12+007299999V0201401N001012200019N0240001N1+01861+01151100781ADDGA1001+999999999GF100991001001999999001001MA1999999099941MD1210091+9999REMSYN060AAXX  15001 33990 42974 01401 10186 20115 39994 40078 52009;
0138339900999992000071503004+44500+034170FM-12+007299999V0200301N001012200019N0300001N1+01971+01461100911ADDGF103991031051012501001001MD1210131+9999REMSYN086AAXX  15031 33990 42680 30301 10197 20146 40091 52013 83500 333 55107 555 20185 7000/;
0165339900999992000071506004+44500+034170FM-12+007299999V0200901N004012200019N0280001N1+02361+01661100951ADDAA199000091GF102991021021012501001001KA1999N+01851MD1210051+9999REMSYN070AAXX  15061 33990 32678 20904 10236 20166 40095 52005 82200 333 20185;EQDQ01  00002PRCP99
0112339900999992000071509004+44500+034170FM-12+007299999V0200901N003012200019N0300001N1+02491+01611100961ADDGF104991031021012501031001MD1210011+9999REMSYN060AAXX  15091 33990 42680 40903 10249 20161 40096 52001 83230;
0133339900999992000071512004+44500+034170FM-12+007299999V0201101N005012200019N0300001N1+02511+01641100931ADDGF102991021021012501001001MA1999999100101MD1810031+9999REMSYN066AAXX  15121 33990 42680 21105 10251 20164 30010 40093 58003 82200;
0165339900999992000071518004+44500+034170FM-12+007299999V0201101N001012200019N0230001N1+02221+01701100841ADDAA199000091GF101991011041012501001001KA1999M+02631MD1710021+9999REMSYN070AAXX  15181 33990 32673 11101 10222 20170 40084 57002 81400 333 10263;EQDQ01  00002PRCP99
0143339900999992000071600004+44500+034170FM-12+007299999V0203201N001012200019N0230001N1+02161+01401100681ADDGA1001+999999999GF100991001001999999001001MA1999999099851MD1710151+9999REMSYN060AAXX  16001 33990 42973 03201 10216 20140 39985 40068 57015;
0138339900999992000071603004+44500+034170FM-12+007299999V0203401N001010360019N0180001N1+02151+01501100621ADDGF107991021051012501031091MD1710061+9999REMSYN086AAXX  16031 33990 42668 73401 10215 20150 40062 57006 82539 333 55118 555 20209 7000/;
0165339900999992000071606004+44500+034170FM-12+007299999V0201601N001019999999N0190001N1+02471+01741100631ADDAA199000091GF107991071001999999051001KA1999N+02091MD1310011+9999REMSYN070AAXX  16061 33990 32969 71601 10247 20174 40063 53001 87050 333 20209;EQDQ01  00002PRCP99
0112339900999992000071609004+44500+034170FM-12+007299999V0200801N002012200019N0180001N1+02641+01951100651ADDGF102991011021012501041001MD1210041+9999REMSYN060AAXX  16091 33990 42668 20802 10264 20195 40065 52004 81240;
0133339900999992000071612004+44500+034170FM-12+007299999V0202001N002012200019N0150001N1+02711+02141100711ADDGF101991011021008001001001MA1999999099901MD1010061+9999REMSYN066AAXX  16121 33990 42565 12002 10271 20214 39990 40071 50006 81200;
0122339900999992000071615004+44500+034170FM-12+007299999V0201001N001012200019N0150001N1+02571+02051100741ADDGA1001+999999999GF100991001001999999001001MD1310031+9999REMSYN054AAXX  16151 33990 42965 01001 10257 20205 40074 53003;
0175339900999992000071618004+44500+034170FM-12+007299999V0202201N001012200019N0140001N1+02281+02041100821ADDAA199000091GA1001+999999999GF100991001001999999001001KA1999M+02781MD1210061+9999REMSYN064AAXX  16181 33990 32964 02201 10228 20204 40082 52006 333 10278;EQDQ01  00002PRCP99
0122339900999992000071621004+44500+034170FM-12+007299999V0202901N001012200019N0150001N1+02041+01661100961ADDGA1001+999999999GF100991001001999999001001MD1210141+9999REMSYN054AAXX  16211 33990 42965 02901 10204 20166 40096 52014;
0143339900999992000071700004+44500+034170FM-12+007299999V0202901N001012200019N0150001N1+01941+01571101021ADDGA1001+999999999GF100991001001999999001001MA1999999100181MD1110051+9999REMSYN060AAXX  17001 33990 42965 02901 10194 20157 30018 40102 51005;
0138339900999992000071703004+44500+034170FM-12+007299999V0202501N001012200019N0210001N1+01971+01201101051ADDGF101991011001999999041001MD1310031+9999REMSYN086AAXX  17031 33990 42971 12501 10197 20120 40105 53003 81040 333 55093 555 20193 7000/;
0165339900999992000071706004+44500+034170FM-12+007299999V0201001N002012200019N0190001N1+02471+01771101151ADDAA199000091GF102991001001999999001051KA1999N+01931MD1210111+9999REMSYN070AAXX  17061 33990 32969 21002 10247 20177 40115 52011 80005 333 20193;EQDQ01  00002PRCP99
0112339900999992000071709004+44500+034170FM-12+007299999V0200901N004010900019N0190001N1+02531+02041101191ADDGF105991021021012501001091MD1210061+9999REMSYN060AAXX  17091 33990 42669 50904 10253 20204 40119 52006 82209;
0133339900999992000071712004+44500+034170FM-12+007299999V0201101N002010120019N0180001N1+02551+02141101181ADDGF106991061021012501001001MA1999999100371MD1810011+9999REMSYN066AAXX  17121 33990 42668 61102 10255 20214 30037 40118 58001 86200;
0112339900999992000071715004+44500+034170FM-12+007299999V0200301N001019999999N0180001N1+02441+02041101131ADDGF106991061001999999051001MD1710071+9999REMSYN060AAXX  17151 33990 42968 60301 10244 20204 40113 57007 86050;
0165339900999992000071718004+44500+034170FM-12+007299999V0202401N001012200019N0140001N1+02241+01921101111ADDAA199000091GF102991021001999999051001KA1999M+02661MD1710021+9999REMSYN070AAXX  17181 33990 32964 22401 10224 20192 40111 57002 82050 333 10266;EQDQ01  00002PRCP99
0122339900999992000071721004+44500+034170FM-12+007299999V0203301N001012200019N0190001N1+02101+01391101131ADDGA1001+999999999GF100991001001999999001001MD1310021+9999REMSYN054AAXX  17211 33990 42969 03301 10210 20139 40113 53002;
0143339900999992000071800004+44500+034170FM-12+007299999V0202301N002012200019N0230001N1+02171+01321101111ADDGA1001+999999999GF100991001001999999001001MA1999999100281MD1810021+9999REMSYN060AAXX  18001 33990 42973 02302 10217 20132 30028 40111 58002;
0156339900999992000071803004+44500+034170FM-12+007299999V0201501N001012200019N0300001N1+02101+00851101141ADDGA1001+999999999GF100991001001999999001001GJ106789MD1310021+9999REMSYN080AAXX  18031 33990 42980 01501 10210 20085 40114 53002 333 55113 555 20205 7000/;
0175339900999992000071806004+44500+034170FM-12+007299999V0203301N002012200019N0240001N1+02681+01141101151ADDAA199000091GA1001+999999999GF100991001001999999001001KA1999N+02051MD1110041+9999REMSYN064AAXX  18061 33990 32974 03302 10268 20114 40115 51004 333 20205;EQDQ01  00002PRCP99
0112339900999992000071809004+44500+034170FM-12+007299999V0202201N002012200019N0260001N1+02931+01231101151ADDGF101991011011012501001001MD1410001+9999REMSYN060AAXX  18091 33990 42676 12202 10293 20123 40115 54000 81100;
0133339900999992000071812004+44500+034170FM-12+007299999V0200101N002012200019N0300001N1+03021+01401101131ADDGF101991011011012501001001MA1999999100321MD1710021+9999REMSYN066AAXX  18121 33990 42680 10102 10302 20140 30032 40113 57002 81100;
0122339900999992000071815004+44500+034170FM-12+007299999V0203601N002012200019N0280001N1+02661+00941101101ADDGA1001+999999999GF100991001001999999001001MD1710031+9999REMSYN054AAXX  18151 33990 42978 03602 10266 20094 40110 57003;
0175339900999992000071818004+44500+034170FM-12+007299999V0202401N001012200019N0240001N1+02291+00971101151ADDAA199000091GA1001+999999999GF100991001001999999001001KA1999M+03071MD1110031+9999REMSYN064AAXX  18181 33990 32974 02401 10229 20097 40115 51003 333 10307;EQDQ01  00002PRCP99
0112339900999992000071821004+44500+034170FM-12+007299999V0202701N001012200019N0400001N1+02141+01131101161ADDGF102991021001999999031001MD1110011+9999REMSYN060AAXX  18211 33990 42982 22701 10214 20113 40116 51001 82030;
0133339900999992000071900004+44500+034170FM-12+007299999V0202801N001012200019N0350001N1+01951+01281101141ADDGF103991011001999999031011MA1999999100301MD1810031+9999REMSYN066AAXX  19001 33990 42981 32801 10195 20128 30030 40114 58003 81031;
0156339900999992000071903004+44500+034170FM-12+007299999V0203001N001012200019N0280001N1+01951+01111101091ADDGA1001+999999999GF100991001001999999001001GJ107209MD1610051+9999REMSYN080AAXX  19031 33990 42978 03001 10195 20111 40109 56005 333 55120 555 20190 7000/;
0175339900999992000071906004+44500+034170FM-12+007299999V0201401N001012200019N0270001N1+02451+01621101091ADDAA199000091GA1001+999999999GF100991001001999999001001KA1999N+01901MD1310011+9999REMSYN064AAXX  19061 33990 32977 01401 10245 20162 40109 53001 333 20190;EQDQ01  00002PRCP99
0112339900999992000071909004+44500+034170FM-12+007299999V0200601N001010900019N0250001N1+02551+01521101081ADDGF107991031021012501001021MD1810011+9999REMSYN060AAXX  19091 33990 42675 70601 10255 20152 40108 58001 83202;
0133339900999992000071912004+44500+034170FM-12+007299999V0200901N002012200019N0250001N1+02641+01901100971ADDGF103991021021012501001011MA1999999100161MD1710091+9999REMSYN066AAXX  19121 33990 42675 30902 10264 20190 30016 40097 57009 82201;
0131339900999992000071915004+44500+034170FM-12+007299999V0200301N004012200019N0100001N1+02551+01311100771ADDGF103991999041012501001001MD1710071+9999REMSYN060AAXX  19151 33990 42697 30304 10255 20131 40077 57007 85400;EQDQ01+000052SCOTLC
0175339900999992000071918004+44500+034170FM-12+007299999V0202901N001012200019N0220001N1+02101+01671100891ADDAA199000091GA1001+999999999GF100991001001999999001001KA1999M+02751MD1710021+9999REMSYN064AAXX  19181 33990 32972 02901 10210 20167 40089 57002 333 10275;EQDQ01  00002PRCP99
0122339900999992000071921004+44500+034170FM-12+007299999V0203001N001012200019N0250001N1+02101+01311100851ADDGA1001+999999999GF100991001001999999001001MD1710041+9999REMSYN054AAXX  19211 33990 42975 03001 10210 20131 40085 57004;
0143339900999992000072000004+44500+034170FM-12+007299999V0202701N001012200019N0230001N1+02001+01271100841ADDGA1001+999999999GF100991001001999999001001MA1999999100001MD1710021+9999REMSYN060AAXX  20001 33990 42973 02701 10200 20127 30000 40084 57002;
0138339900999992000072003004+44500+034170FM-12+007299999V0202701N001019999999N0210001N1+02021+01241100811ADDGF105991001001999999001011MD1710031+9999REMSYN086AAXX  20031 33990 42971 52701 10202 20124 40081 57003 80001 333 55113 555 20199 7000/;
0165339900999992000072006004+44500+034170FM-12+007299999V0200601N001010360019N0220001N1+02381+01611100821ADDAA199000091GF108991021051008001021999KA1999N+01991MD1310021+9999REMSYN070AAXX  20061 33990 32572 80601 10238 20161 40082 53002 8252/ 333 20199;EQDQ01  00002PRCP99
0112339900999992000072009004+44500+034170FM-12+007299999V0200901N002019999999N0230001N1+02551+01721100801ADDGF108991081001999999071999MD1410001+9999REMSYN060AAXX  20091 33990 42973 80902 10255 20172 40080 54000 8807/;
0133339900999992000072012004+44500+034170FM-12+007299999V0201601N002019999999N0250001N1+02651+01511100771ADDGF108991081001999999071999MA1999999099961MD1810031+9999REMSYN066AAXX  20121 33990 42975 81602 10265 20151 39996 40077 58003 8807/;
0112339900999992000072015004+44500+034170FM-12+007299999V0202101N003010360019N0260001N1+02541+01651100811ADDGF108991021021012501071999MD1310041+9999REMSYN060AAXX  20151 33990 42676 82103 10254 20165 40081 53004 8227/;
0165339900999992000072018004+44500+034170FM-12+007299999V0202701N001019999999N0210001N1+02221+01581100881ADDAA199000091GF106991001001999999001011KA1999M+02651MD1210051+9999REMSYN070AAXX  20181 33990 32971 62701 10222 20158 40088 52005 80001 333 10265;EQDQ01  00002PRCP99
0122339900999992000072021004+44500+034170FM-12+007299999V0202701N001012200019N0220001N1+02041+01131100971ADDGA1001+999999999GF100991001001999999001001MD1210081+9999REMSYN054AAXX  20211 33990 42972 02701 10204 20113 40097 52008;
0143339900999992000072100004+44500+034170FM-12+007299999V0202901N001012200019N0220001N1+01961+01121101021ADDGA1001+999999999GF100991001001999999001001MA1999999100181MD1210051+9999REMSYN060AAXX  21001 33990 42972 02901 10196 20112 30018 40102 52005;
0156339900999992000072103004+44500+034170FM-12+007299999V0202701N001012200019N0180001N1+01961+01191101051ADDGA1001+999999999GF100991001001999999001001GJ101029MD1210031+9999REMSYN080AAXX  21031 33990 42968 02701 10196 20119 40105 52003 333 55017 555 20191 7000/;
0175339900999992000072106004+44500+034170FM-12+007299999V0201301N002012200019N0230001N1+02481+01561101201ADDAA199000091GA1001+999999999GF100991001001999999001001KA1999N+01911MD1310161+9999REMSYN064AAXX  21061 33990 32973 01302 10248 20156 40120 53016 333 20191;EQDQ01  00002PRCP99
0112339900999992000072109004+44500+034170FM-12+007299999V0201201N002012200019N0240001N1+02591+01781101231ADDGF101991011021012501001001MD1110051+9999REMSYN060AAXX  21091 33990 42674 11202 10259 20178 40123 51005 81200;
0133339900999992000072112004+44500+034170FM-12+007299999V0201401N002012200019N0270001N1+02651+01731101271ADDGF102991021021012501001001MA1999999100461MD1210041+9999REMSYN066AAXX  21121 33990 42677 21402 10265 20173 30046 40127 52004 82200;
0112339900999992000072115004+44500+034170FM-12+007299999V0201201N001012200019N0280001N1+02491+01511101281ADDGF102991021021012501001001MD1810011+9999REMSYN060AAXX  21151 33990 42678 21201 10249 20151 40128 58001 82200;
0175339900999992000072118004+44500+034170FM-12+007299999V0203001N001012200019N0270001N1+02181+01451101301ADDAA199000091GA1001+999999999GF100991001001999999001001KA1999M+02731MD1310021+9999REMSYN064AAXX  21181 33990 32977 03001 10218 20145 40130 53002 333 10273;EQDQ01  00002PRCP99
0122339900999992000072121004+44500+034170FM-12+007299999V0203001N002012200019N0260001N1+02071+01381101301ADDGA1001+999999999GF100991001001999999001001MD1010001+9999REMSYN054AAXX  21211 33990 42976 03002 10207 20138 40130 50000;
0143339900999992000072200004+44500+034170FM-12+007299999V0202801N001012200019N0270001N1+02111+01201101251ADDGA1001+999999999GF100991001001999999001001MA1999999100421MD1710051+9999REMSYN060AAXX  22001 33990 42977 02801 10211 20120 30042 40125 57005;
0138339900999992000072203004+44500+034170FM-12+007299999V0202901N001012200019N0280001N1+02151+01211101231ADDGF102991021001999999081001MD1610021+9999REMSYN086AAXX  22031 33990 42978 22901 10215 20121 40123 56002 82080 333 55118 555 20207 7000/;
0165339900999992000072206004+44500+034170FM-12+007299999V0201701N001010360019N0290001N1+02751+01561101201ADDAA199000091GF106991031021012501081001KA1999N+02071MD1710011+9999REMSYN070AAXX  22061 33990 32679 61701 10275 20156 40120 57001 83280 333 20207;EQDQ01  00002PRCP99
0112339900999992000072209004+44500+034170FM-12+007299999V0201301N001012200019N0350001N1+02991+01491101151ADDGF102991021021012501001001MD1710051+9999REMSYN060AAXX  22091 33990 42681 21301 10299 20149 40115 57005 82200;
0133339900999992000072212004+44500+034170FM-12+007299999V0201401N002010360019N0300001N1+03031+01641101031ADDGF105991021021012501081001MA1999999100231MD1710111+9999REMSYN066AAXX  22121 33990 42680 51402 10303 20164 30023 40103 57011 82280;
0112339900999992000072215004+44500+034170FM-12+007299999V0201001N001012200019N0280001N1+02871+01581100971ADDGF101991001001999999001091MD1710071+9999REMSYN060AAXX  22151 33990 42978 11001 10287 20158 40097 57007 80009;
0165339900999992000072218004+44500+034170FM-12+007299999V0202101N001019999999N0200001N1+02641+01841100941ADDAA199000091GF106991061001999999051001KA1999M+03091MD1610031+9999REMSYN070AAXX  22181 33990 32970 62101 10264 20184 40094 56003 86050 333 10309;EQDQ01  00002PRCP99
0112339900999992000072221004+44500+034170FM-12+007299999V0202401N001012200019N0180001N1+02591+01801100851ADDGF103991031001999999041001MD1810091+9999REMSYN060AAXX  22211 33990 42968 32401 10259 20180 40085 58009 83040;
0133339900999992000072300004+44500+034170FM-12+007299999V0203401N001010120019N0120001N1+02421+01941100821ADDGF106991061021012501001001MA1999999099991MD1510051+9999REMSYN066AAXX  23001 33990 42662 63401 10242 20194 39999 40082 55005 86200;
0156339900999992000072303004+44500+034170FM-12+007299999V0202901N001012200019N0150001N1+02301+01771100681ADDGA1001+999999999GF100991001001999999001001GJ106729MD1810141+9999REMSYN080AAXX  23031 33990 42965 02901 10230 20177 40068 58014 333 55112 555 20230 7000/;
0165339900999992000072306004+44500+034170FM-12+007299999V0200701N001012200019N0180001N1+02711+02041100691ADDAA199000091GF103991031001999999081001KA1999N+02301MD1310031+9999REMSYN070AAXX  23061 33990 32968 30701 10271 20204 40069 53003 83080 333 20230;EQDQ01  00002PRCP99
0112339900999992000072309004+44500+034170FM-12+007299999V0200901N002012200019N0220001N1+02821+02141100681ADDGF102991021011012501001001MD1710011+9999REMSYN060AAXX  23091 33990 42672 20902 10282 20214 40068 57001 82100;
0133339900999992000072312004+44500+034170FM-12+007299999V0201001N001012200019N0240001N1+02851+02221100701ADDGF103991031021012501001001MA1999999099891MD1010021+9999REMSYN066AAXX  23121 33990 42674 31001 10285 20222 39989 40070 50002 83200;
0112339900999992000072315004+44500+034170FM-12+007299999V0202801N003012200019N0230001N1+02541+01731100771ADDGF102991011021012501031001MD1110071+9999REMSYN060AAXX  23151 33990 42673 22803 10254 20173 40077 51007 81230;
0175339900999992000072318004+44500+034170FM-12+007299999V0202201N002012200019N0250001N1+02351+01481100861ADDAA199000091GA1001+999999999GF100991001001999999001001KA1999M+02981MD1110071+9999REMSYN064AAXX  23181 33990 32975 02202 10235 20148 40086 51007 333 10298;EQDQ01  00002PRCP99
0147339900999992000072321004+44500+034170FM-12+007299999V0201301N999992200019N0270001N1+02271+01401101111ADDGF102991999001999999031001MD1210251+9999REMSYN060AAXX  23211 33990 42977 26302 10227 20140 40111 52025 84030;EQDQ01+010201WOSPD Q02+000042SCOTLC
0133339900999992000072400004+44500+034170FM-12+007299999V0202401N002012200019N0260001N1+02271+01381101241ADDGF101991011021012501001001MA1999999100411MD1110131+9999REMSYN066AAXX  24001 33990 42676 12402 10227 20138 30041 40124 51013 81200;
0165339900999992000072406004+44500+034170FM-12+007299999V0201801N002012200019N0240001N1+02751+01641101401ADDAA199000091GF101991011021012501001001KA1999N+02091MD1210121+9999REMSYN070AAXX  24061 33990 32674 11802 10275 20164 40140 52012 81200 333 20209;EQDQ01  00002PRCP99
0112339900999992000072409004+44500+034170FM-12+007299999V0200601N002012200019N0200001N1+03031+01781101381ADDGF102991021021012501001001MD1810011+9999REMSYN060AAXX  24091 33990 42670 20602 10303 20178 40138 58001 82200;
0133339900999992000072412004+44500+034170FM-12+007299999V0202501N002012200019N0200001N1+03191+01471101381ADDGF103991031021012501001001MA1999999100571MD1410001+9999REMSYN066AAXX  24121 33990 42670 32502 10319 20147 30057 40138 54000 83200;
0112339900999992000072415004+44500+034170FM-12+007299999V0202701N002012200019N0210001N1+02871+01431101401ADDGF101991011021012501001001MD1310011+9999REMSYN060AAXX  24151 33990 42671 12702 10287 20143 40140 53001 81200;
0175339900999992000072418004+44500+034170FM-12+007299999V0202901N001012200019N0200001N1+02441+01411101481ADDAA199000091GA1001+999999999GF100991001001999999001001KA1999M+03251MD1210071+9999REMSYN064AAXX  24181 33990 32970 02901 10244 20141 40148 52007 333 10325;EQDQ01  00002PRCP99
0122339900999992000072421004+44500+034170FM-12+007299999V0202601N001012200019N0200001N1+02201+01101101531ADDGA1001+999999999GF100991001001999999001001MD1210051+9999REMSYN054AAXX  24211 33990 42970 02601 10220 20110 40153 52005;
0143339900999992000072500004+44500+034170FM-12+007299999V0201501N001012200019N0250001N1+02161+01001101591ADDGA1001+999999999GF100991001001999999001001MA1999999100761MD1210061+9999REMSYN060AAXX  25001 33990 42975 01501 10216 20100 30076 40159 52006;
0156339900999992000072503004+44500+034170FM-12+007299999V0202701N001012200019N0260001N1+02141+01021101601ADDGA1001+999999999GF100991001001999999001001GJ107089MD1210011+9999REMSYN080AAXX  25031 33990 42976 02701 10214 20102 40160 52001 333 55118 555 20204 7000/;
0175339900999992000072506004+44500+034170FM-12+007299999V0200901N001012200019N0220001N1+02541+01591101651ADDAA199000091GA1001+999999999GF100991001001999999001001KA1999N+02041MD1210051+9999REMSYN064AAXX  25061 33990 32972 00901 10254 20159 40165 52005 333 20204;EQDQ01  00002PRCP99
0122339900999992000072509004+44500+034170FM-12+007299999V0203201N003012200019N0250001N1+02591+01921101671ADDGA1001+999999999GF100991001001999999001001MD1110031+9999REMSYN054AAXX  25091 33990 42975 03203 10259 20192 40167 51003;
0133339900999992000072512004+44500+034170FM-12+007299999V0201201N002012200019N0270001N1+02671+02211101621ADDGF103991001001999999001011MA1999999100801MD1810051+9999REMSYN066AAXX  25121 33990 42977 31202 10267 20221 30080 40162 58005 80001;
0122339900999992000072515004+44500+034170FM-12+007299999V0203601N001012200019N0280001N1+02631+01841101531ADDGA1001+999999999GF100991001001999999001001MD1710091+9999REMSYN054AAXX  25151 33990 42978 03601 10263 20184 40153 57009;
0175339900999992000072518004+44500+034170FM-12+007299999V0200201N001012200019N0170001N1+02241+01961101561ADDAA199000091GA1001+999999999GF100991001001999999001001KA1999M+02751MD1310021+9999REMSYN064AAXX  25181 33990 32967 00201 10224 20196 40156 53002 333 10275;EQDQ01  00002PRCP99
0122339900999992000072521004+44500+034170FM-12+007299999V0202901N001012200019N0170001N1+02101+01871101571ADDGA1001+999999999GF100991001001999999001001MD1110011+9999REMSYN054AAXX  25211 33990 42967 02901 10210 20187 40157 51001;
0143339900999992000072600004+44500+034170FM-12+007299999V0202901N002012200019N0200001N1+02041+01511101561ADDGA1001+999999999GF100991001001999999001001MA1999999100711MD1810031+9999REMSYN060AAXX  26001 33990 42970 02902 10204 20151 30071 40156 58003;
0156339900999992000072603004+44500+034170FM-12+007299999V0203201N001012200019N0180001N1+02021+01421101551ADDGA1001+999999999GF100991001001999999001001GJ107089MD1610011+9999REMSYN080AAXX  26031 33990 42968 03201 10202 20142 40155 56001 333 55118 555 20201 7000/;
0175339900999992000072606004+44500+034170FM-12+007299999V0200801N001012200019N0230001N1+02501+01711101561ADDAA199000091GA1001+999999999GF100991001001999999001001KA1999N+02011MD1310031+9999REMSYN064AAXX  26061 33990 32973 00801 10250 20171 40156 53003 333 20201;EQDQ01  00002PRCP99
0122339900999992000072609004+44500+034170FM-12+007299999V0200801N002012200019N0210001N1+02641+02061101561ADDGA1001+999999999GF100991001001999999001001MD1110011+9999REMSYN054AAXX  26091 33990 42971 00802 10264 20206 40156 51001;
0133339900999992000072612004+44500+034170FM-12+007299999V0201301N002012200019N0210001N1+02651+01941101461ADDGF101991001001999999001011MA1999999100641MD1810101+9999REMSYN066AAXX  26121 33990 42971 11302 10265 20194 30064 40146 58010 80001;
0112339900999992000072615004+44500+034170FM-12+007299999V0201201N001012200019N0220001N1+02541+01851101361ADDGF101991001001999999001011MD1710101+9999REMSYN060AAXX  26151 33990 42972 11201 10254 20185 40136 57010 80001;
0165339900999992000072618004+44500+034170FM-12+007299999V0202801N001012200019N0200001N1+02301+01961101361ADDAA199000091GF101991011001999999031001KA1999M+02781MD1610011+9999REMSYN070AAXX  26181 33990 32970 12801 10230 20196 40136 56001 81030 333 10278;EQDQ01  00002PRCP99
0112339900999992000072621004+44500+034170FM-12+007299999V0203001N001012200019N0210001N1+02181+01741101321ADDGF104991001001999999001011MD1710041+9999REMSYN060AAXX  26211 33990 42971 43001 10218 20174 40132 57004 80001;
0143339900999992000072700004+44500+034170FM-12+007299999V0202801N001012200019N0230001N1+02131+01351101191ADDGA1001+999999999GF100991001001999999001001MA1999999100361MD1710131+9999REMSYN060AAXX  27001 33990 42973 02801 10213 20135 30036 40119 57013;
0166339900999992000072703004+44500+034170FM-12+007299999V0203001N001010120019N0210001N1+02171+01221101121ADDAY111031AY211031GF107991061091012501041001MD1510071+9999MW1251REMSYN092AAXX  27031 33990 41671 73001 10217 20122 40112 55007 72511 86940 333 55114 555 20204 7990/;
0180339900999992000072706004+44500+034170FM-12+007299999V0203101N001019999999N0220001N1+02321+01301101171ADDAA112000791AY181061AY211061GF107991071001999999071001KA1999N+02041MD1210051+9999MW1021REMSYN082AAXX  27061 33990 11972 73101 10232 20130 40117 52005 69902 70281 87070 333 20204;
0112339900999992000072709004+44500+034170FM-12+007299999V0200801N002010900019N0250001N1+02711+01741101081ADDGF105991021021012501001091MD1810071+9999REMSYN060AAXX  27091 33990 42675 50802 10271 20174 40108 58007 82209;
0152339900999992000072712004+44500+034170FM-12+007299999V0200801N002012200019N0230001N1+02751+01951999999ADDGF103991001001999999001091MA1999999100931MD1710151+9999REMSYN066AAXX  27121 33990 42973 30802 10275 20195 30093 40012 57015 80009;EQDQ01+100123APOSLP
0112339900999992000072715004+44500+034170FM-12+007299999V0200401N001019999999N0210001N1+02571+02051100801ADDGF105991021001999999041091MD1710131+9999REMSYN060AAXX  27151 33990 42971 50401 10257 20205 40080 57013 82049;
0165339900999992000072718004+44500+034170FM-12+007299999V0209999C000019999999N0180001N1+02361+02071100731ADDAA199000091GF106991021001999999041061KA1999M+02881MD1710091+9999REMSYN070AAXX  27181 33990 32968 60000 10236 20207 40073 57009 82046 333 10288;EQDQ01  00002PRCP99
0112339900999992000072721004+44500+034170FM-12+007299999V0202701N001019999999N0180001N1+02201+01951100751ADDGF105991051001999999051001MD1310021+9999REMSYN060AAXX  27211 33990 42968 52701 10220 20195 40075 53002 85050;
0143339900999992000072800004+44500+034170FM-12+007299999V0202601N001012200019N0150001N1+02181+01951100751ADDGA1001+999999999GF100991001001999999001001MA1999999099921MD1010001+9999REMSYN060AAXX  28001 33990 42965 02601 10218 20195 39992 40075 50000;
0138339900999992000072803004+44500+034170FM-12+007299999V0201501N001012200019N0260001N1+02351+01351100841ADDGF102991001001999999001091MD1310091+9999REMSYN086AAXX  28031 33990 42976 21501 10235 20135 40084 53009 80009 333 55080 555 20216 7990/;
0175339900999992000072806004+44500+034170FM-12+007299999V0203401N002012200019N0250001N1+02771+01221100911ADDAA199000091GA1001+999999999GF100991001001999999001001KA1999N+02161MD1110091+9999REMSYN064AAXX  28061 33990 32975 03402 10277 20122 40091 51009 333 20216;EQDQ01  00002PRCP99
0112339900999992000072809004+44500+034170FM-12+007299999V0203301N002012200019N0280001N1+02911+01311100971ADDGF103991011011012501041011MD1310061+9999REMSYN060AAXX  28091 33990 42678 33302 10291 20131 40097 53006 81141;
0133339900999992000072812004+44500+034170FM-12+007299999V0202701N006012200019N0350001N1+03121+01501100951ADDGF102991021001999999041001MA1999999100151MD1810011+9999REMSYN066AAXX  28121 33990 42981 22706 10312 20150 30015 40095 58001 82040;
0122339900999992000072815004+44500+034170FM-12+007299999V0203301N002012200019N0300001N1+02781+01371101011ADDGA1001+999999999GF100991001001999999001001MD1110051+9999REMSYN054AAXX  28151 33990 42980 03302 10278 20137 40101 51005;
0191339900999992000072818004+44500+034170FM-12+007299999V0203101N002012200019N0250001N1+02401+01581999999ADDAA199000091GA1001+999999999GF100991001001999999001001KA1999M+03141MD1210051+9999REMSYN064AAXX  28181 33990 32975 03102 10240 20158 40198 52005 333 10314;EQDQ01+101983APOSLPQ02  00002PRCP99
0122339900999992000072821004+44500+034170FM-12+007299999V0202201N001012200019N0300001N1+02321+01481101101ADDGA1001+999999999GF100991001001999999001001MD1110021+9999REMSYN054AAXX  28211 33990 42980 02201 10232 20148 40110 51002;
0183339900999992000072900004+44500+034170FM-12+007299999V0202901N999992200019N0200001N1+01491+00971999999ADDAA199000091GF104991999999999999999999MA1999999999999MD1810051+9999REMSYN054AAXX  29001 33990 33998 42972 10149 20097 38826 58005;EQDQ01+007203WOSPD Q02  00002PRCP99Q03 088263APOSP 
0156339900999992000072903004+44500+034170FM-12+007299999V0203101N001012200019N0280001N1+02281+01471101191ADDGA1001+999999999GF100991001001999999001001GJ106789MD1310121+9999REMSYN080AAXX  29031 33990 42978 03101 10228 20147 40119 53012 333 55113 555 20224 7000/;
0175339900999992000072906004+44500+034170FM-12+007299999V0200601N004012200019N0240001N1+02641+01931101211ADDAA199000091GA1001+999999999GF100991001001999999001001KA1999N+02241MD1210041+9999REMSYN064AAXX  29061 33990 32974 00604 10264 20193 40121 52004 333 20224;EQDQ01  00002PRCP99
0112339900999992000072909004+44500+034170FM-12+007299999V0200901N004012200019N0240001N1+02721+02071101231ADDGF102991021011012501001001MD1210021+9999REMSYN060AAXX  29091 33990 42674 20904 10272 20207 40123 52002 82100;
0133339900999992000072912004+44500+034170FM-12+007299999V0200901N004012200019N0250001N1+02651+02171101201ADDGF102991021021012501001001MA1999999100391MD1810031+9999REMSYN066AAXX  29121 33990 42675 20904 10265 20217 30039 40120 58003 82200;
0122339900999992000072915004+44500+034170FM-12+007299999V0200701N002012200019N0250001N1+02461+02051101131ADDGA1001+999999999GF100991001001999999001001MD1710091+9999REMSYN054AAXX  29151 33990 42975 00702 10246 20205 40113 57009;
0175339900999992000072918004+44500+034170FM-12+007299999V0202701N001012200019N0200001N1+02261+02061101141ADDAA199000091GA1001+999999999GF100991001001999999001001KA1999M+02831MD1310011+9999REMSYN064AAXX  29181 33990 32970 02701 10226 20206 40114 53001 333 10283;EQDQ01  00002PRCP99
0122339900999992000072921004+44500+034170FM-12+007299999V0203001N001012200019N0230001N1+02321+00812101111ADDGA1001+999999999GF100991001001999999001001MD1810031+9999REMSYN054AAXX  29211 33990 42973 03001 10232 20081 40111 58003;
0143339900999992000073000004+44500+034170FM-12+007299999V0202901N002012200019N0240001N1+02411+00841101041ADDGA1001+999999999GF100991001001999999001001MA1999999100211MD1710071+9999REMSYN060AAXX  30001 33990 42974 02902 10241 20084 30021 40104 57007;
0138339900999992000073003004+44500+034170FM-12+007299999V0202701N001019999999N0250001N1+02361+00971101041ADDGF106991061001999999031001MD1410001+9999REMSYN086AAXX  30031 33990 42975 62701 10236 20097 40104 54000 86030 333 55119 555 20214 7000/;
0165339900999992000073006004+44500+034170FM-12+007299999V0201801N002012200019N0250001N1+02861+01281101011ADDAA199000091GF102991021001999999031001KA1999N+02141MD1510011+9999REMSYN070AAXX  30061 33990 32975 21802 10286 20128 40101 55001 82030 333 20214;EQDQ01  00002PRCP99
0112339900999992000073009004+44500+034170FM-12+007299999V0201201N003012200019N0300001N1+03191+01451101001ADDGF101991011001999999031001MD1410001+9999REMSYN060AAXX  30091 33990 42980 11203 10319 20145 40100 54000 81030;
0133339900999992000073012004+44500+034170FM-12+007299999V0201601N002012200019N0300001N1+03091+01701100931ADDGF101991011001999999031001MA1999999100131MD1810071+9999REMSYN066AAXX  30121 33990 42980 11602 10309 20170 30013 40093 58007 81030;
0122339900999992000073015004+44500+034170FM-12+007299999V0201201N001012200019N0290001N1+03091+01411100851ADDGA1001+999999999GF100991001001999999001001MD1710081+9999REMSYN054AAXX  30151 33990 42979 01201 10309 20141 40085 57008;
0165339900999992000073018004+44500+034170FM-12+007299999V0202901N001012200019N0280001N1+02711+01801100841ADDAA199000091GF101991011021012501001001KA1999M+03231MD1610021+9999REMSYN070AAXX  30181 33990 32678 12901 10271 20180 40084 56002 81200 333 10323;EQDQ01  00002PRCP99
0140339900999992000073021004+44500+034170FM-12+007299999V0202501N002010120019N0250001N1+02641+01711100841ADDAY191031AY211031GF105991051091012501001001MD1010001+9999MW1291REMSYN066AAXX  30211 33990 41675 52502 10264 20171 40084 50000 72991 85900;
0166339900999992000073103004+44500+034170FM-12+007299999V0203601N001012200019N0220001N1+02511+01561100701ADDAY101031AY201031GF103991021091012501041001MD1610031+9999MW1251REMSYN092AAXX  31031 33990 41672 33601 10251 20156 40070 56003 72500 82940 333 55104 555 20251 7990/;
0112339900999992000073109004+44500+034170FM-12+007299999V0201301N001012200019N0240001N1+03081+01971100731ADDGF102991021001999999041001MD1110011+9999REMSYN060AAXX  31091 33990 42974 21301 10308 20197 40073 51001 82040;
0143339900999992000073112004+44500+034170FM-12+007299999V0201201N001012200019N0250001N1+03051+01971100721ADDGA1001+999999999GF100991001001999999001001MA1999999099921MD1810011+9999REMSYN060AAXX  31121 33990 42975 01201 10305 20197 39992 40072 58001;
0122339900999992000073115004+44500+034170FM-12+007299999V0201601N002012200019N0250001N1+02831+02111100771ADDGA1001+999999999GF100991001001999999001001MD1310041+9999REMSYN054AAXX  31151 33990 42975 01602 10283 20211 40077 53004;
0175339900999992000073118004+44500+034170FM-12+007299999V0203001N002012200019N0260001N1+02621+01611100931ADDAA199000091GA1001+999999999GF100991001001999999001001KA1999M+03181MD1210161+9999REMSYN064AAXX  31181 33990 32976 03002 10262 20161 40093 52016 333 10318;EQDQ01  00002PRCP99
0140339900999992000073121004+44500+034170FM-12+007299999V0202901N002010120019N0270001N1+02611+01421100991ADDAY191031AY281031GF106991061091012501001001MD1110061+9999MW1291REMSYN066AAXX  31211 33990 41677 62902 10261 20142 40099 51006 72998 86900;
0161339900999992000080100004+44500+034170FM-12+007299999V0202901N001012200019N0260001N1+02511+01501101011ADDAY191061AY281061GF102991021051012501001001MA1999999100181MD1410001+9999MW1021REMSYN072AAXX  01001 33990 41676 22901 10251 20150 30018 40101 54000 70298 82500;
0122339900999992000080103004+44500+034170FM-12+007299999V0202801N001012200019N0270001N1+02361+01391101051ADDGF102991021001999999041001MD1310041+9999REMSYN070AAXX  01031 33990 42977 22801 10236 20139 40105 53004 82040 333 51015;
0152339900999992000080106004+44500+034170FM-12+007299999V0201601N002012200019N0230001N1+02761+01841101111ADDAA112000791GF102991021001999999041001KA1999N+02361MD1210081+9999REMSYN076AAXX  01061 33990 12973 21602 10276 20184 40111 52008 69902 82040 333 20236;
0112339900999992000080109004+44500+034170FM-12+007299999V0201201N002010120019N0230001N1+02851+01951101151ADDGF106991061021012501001001MD1110041+9999REMSYN060AAXX  01091 33990 42673 61202 10285 20195 40115 51004 86200;
0133339900999992000080112004+44500+034170FM-12+007299999V0201301N002010120019N0220001N1+02721+01991101131ADDGF106991051021012501001091MA1999999100321MD1810021+9999REMSYN066AAXX  01121 33990 42672 61302 10272 20199 30032 40113 58002 85209;
0140339900999992000080115004+44500+034170FM-12+007299999V0200301N001010075019N0200001N1+02481+02001101171ADDAY191031AY281031GF106991061091008001001001MD1310021+9999MW1021REMSYN066AAXX  01151 33990 41570 60301 10248 20200 40117 53002 70298 86900;
0180339900999992000080118004+44500+034170FM-12+007299999V0200501N001010360019N0250001N1+02301+01591101171ADDAA112000791AY191061AY281061GF107991021021012501051001KA1999M+02901MD1010001+9999MW1021REMSYN082AAXX  01181 33990 11675 70501 10230 20159 40117 50000 69902 70298 82250 333 10290;
0112339900999992000080121004+44500+034170FM-12+007299999V0200101N001019999999N0270001N1+02341+01541101191ADDGF105991051001999999031001MD1310021+9999REMSYN060AAXX  01211 33990 42977 50101 10234 20154 40119 53002 85030;
0161339900999992000080200004+44500+034170FM-12+007299999V0203501N002010120019N0120001N1+01951+01791101041ADDAY181061AY221061GF108991081091012501999999MA1999999100201MD1810161+9999MW1811REMSYN072AAXX  02001 33990 41662 83502 10195 20179 30020 40104 58016 78182 889//;
0166339900999992000080203004+44500+034170FM-12+007299999V0200301N001010075019N0120001N1+01881+01801101131ADDAY181031AY221031GF108991081091008001999999MD1310091+9999MW1811REMSYN092AAXX  02031 33990 41562 80301 10188 20180 40113 53009 78182 889// 333 55060 555 20188 7012/;
0161339900999992000080206004+44500+034170FM-12+007299999V0202101N002010360019N0170001N1+01911+01781101031ADDAA112019191AY181061AY221061GF108991041091008001051999MD1810101+9999MW1801REMSYN076AAXX  02061 33990 11567 82102 10191 20178 40103 58010 60192 78082 8495/ 333;
0140339900999992000080209004+44500+034170FM-12+007299999V0203401N003010360019N0240001N1+02051+01431101021ADDAY181031AY221031GF108991031091008001051999MD1510011+9999MW1021REMSYN066AAXX  02091 33990 41574 83403 10205 20143 40102 55001 70282 8395/;
0161339900999992000080212004+44500+034170FM-12+007299999V0203501N001010075019N0250001N1+02211+01521101071ADDAY181061AY221061GF108991051091008001051999MA1999999100241MD1310061+9999MW1021REMSYN072AAXX  02121 33990 41575 83501 10221 20152 30024 40107 53006 70282 8595/;
0140339900999992000080215004+44500+034170FM-12+007299999V0209999C000010075019N0140001N1+02041+01691101111ADDAY181031AY221031GF108991081091008001999999MD1310041+9999MW1801REMSYN066AAXX  02151 33990 41564 80000 10204 20169 40111 53004 78082 889//;
0180339900999992000080218004+44500+034170FM-12+007299999V0202701N002010075019N0260001N1+01921+01741101121ADDAA112002091AY181061AY221061GF106991061091008001001001KA1999M+02231MD1510001+9999MW1251REMSYN082AAXX  02181 33990 11576 62702 10192 20174 40112 55000 60022 72582 86900 333 10223;
0112339900999992000080221004+44500+034170FM-12+007299999V0203401N005012200019N0280001N1+02301+01481101141ADDGF102991021031008001001001MD1310031+9999REMSYN060AAXX  02211 33990 42578 23405 10230 20148 40114 53003 82300;
0133339900999992000080300004+44500+034170FM-12+007299999V0200201N005012200019N0350001N1+02161+01401101301ADDGF101991011021012501001001MA1999999100471MD1210161+9999REMSYN066AAXX  03001 33990 42681 10205 10216 20140 30047 40130 52016 81200;
0138339900999992000080303004+44500+034170FM-12+007299999V0203301N003012200019N0290001N1+02101+01191101421ADDGF102991021021012501001001MD1310121+9999REMSYN086AAXX  03031 33990 42679 23303 10210 20119 40142 53012 82200 333 55000 555 20192 7009/;
0146339900999992000080306004+44500+034170FM-12+007299999V0201801N002012200019N0260001N1+02491+01301101451ADDAA199000021GF102991021021012501001001KA1999N+01921MD1210031+9999REMSYN070AAXX  03061 33990 32676 21802 10249 20130 40145 52003 82200 333 20192;
0112339900999992000080309004+44500+034170FM-12+007299999V0203601N002012200019N0270001N1+02741+01341101561ADDGF102991021021012501001001MD1210121+9999REMSYN060AAXX  03091 33990 42677 23602 10274 20134 40156 52012 82200;
0133339900999992000080312004+44500+034170FM-12+007299999V0200101N003012200019N0300001N1+03011+01051101601ADDGF101991011021012501001001MA1999999100781MD1210041+9999REMSYN066AAXX  03121 33990 42680 10103 10301 20105 30078 40160 52004 81200;
0112339900999992000080315004+44500+034170FM-12+007299999V0200701N001012200019N0300001N1+02681+01301101621ADDGF103991031011012501001001MD1210021+9999REMSYN060AAXX  03151 33990 42680 30701 10268 20130 40162 52002 83100;
0165339900999992000080318004+44500+034170FM-12+007299999V0203401N004012200019N0280001N1+02391+01281101771ADDAA199000091GF102991021001999999061001KA1999M+03031MD1210141+9999REMSYN070AAXX  03181 33990 32978 23404 10239 20128 40177 52014 82060 333 10303;EQDQ01  00002PRCP99
0122339900999992000080321004+44500+034170FM-12+007299999V0203601N002012200019N0260001N1+02391+01221101791ADDGA1001+999999999GF100991001001999999001001MD1210021+9999REMSYN054AAXX  03211 33990 42976 03602 10239 20122 40179 52002;
0143339900999992000080400004+44500+034170FM-12+007299999V0202101N001012200019N0220001N1+02171+01021101821ADDGA1001+999999999GF100991001001999999001001MA1999999100991MD1210031+9999REMSYN060AAXX  04001 33990 42972 02101 10217 20102 30099 40182 52003;
0156339900999992000080403004+44500+034170FM-12+007299999V0203301N002012200019N0270001N1+02161+00931101871ADDGA1001+999999999GF100991001001999999001001GJ106969MD1210051+9999REMSYN080AAXX  04031 33990 42977 03302 10216 20093 40187 52005 333 55116 555 20214 7000/;
0175339900999992000080406004+44500+034170FM-12+007299999V0202201N002012200019N0300001N1+02701+01431101901ADDAA199000091GA1001+999999999GF100991001001999999001001KA1999N+02141MD1210041+9999REMSYN064AAXX  04061 33990 32980 02202 10270 20143 40190 52004 333 20214;EQDQ01  00002PRCP99
0112339900999992000080409004+44500+034170FM-12+007299999V0201201N002012200019N0300001N1+02761+01451101931ADDGF101991011011012501001001MD1110031+9999REMSYN060AAXX  04091 33990 42680 11202 10276 20145 40193 51003 81100;
0143339900999992000080412004+44500+034170FM-12+007299999V0201601N002012200019N0350001N1+02841+01341101911ADDGA1001+999999999GF100991001001999999001001MA1999999101091MD1810021+9999REMSYN060AAXX  04121 33990 42981 01602 10284 20134 30109 40191 58002;
0122339900999992000080415004+44500+034170FM-12+007299999V0201201N001012200019N0300001N1+02691+01461101821ADDGA1001+999999999GF100991001001999999001001MD1710091+9999REMSYN054AAXX  04151 33990 42980 01201 10269 20146 40182 57009;
0175339900999992000080418004+44500+034170FM-12+007299999V0202801N002012200019N0300001N1+02311+01261101891ADDAA199000091GA1001+999999999GF100991001001999999001001KA1999M+02961MD1310061+9999REMSYN064AAXX  04181 33990 32980 02802 10231 20126 40189 53006 333 10296;EQDQ01  00002PRCP99
0122339900999992000080421004+44500+034170FM-12+007299999V0202501N001012200019N0290001N1+02251+01121101851ADDGA1001+999999999GF100991001001999999001001MD1810041+9999REMSYN054AAXX  04211 33990 42979 02501 10225 20112 40185 58004;
0143339900999992000080500004+44500+034170FM-12+007299999V0202501N001012200019N0290001N1+02221+01191101791ADDGA1001+999999999GF100991001001999999001001MA1999999100961MD1710061+9999REMSYN060AAXX  05001 33990 42979 02501 10222 20119 30096 40179 57006;
0156339900999992000080503004+44500+034170FM-12+007299999V0202901N001012200019N0300001N1+02201+01231101771ADDGA1001+999999999GF100991001001999999001001GJ107089MD1610021+9999REMSYN080AAXX  05031 33990 42980 02901 10220 20123 40177 56002 333 55118 555 20216 7000/;
0175339900999992000080506004+44500+034170FM-12+007299999V0201201N002012200019N0260001N1+02911+01551101751ADDAA199000091GA1001+999999999GF100991001001999999001001KA1999N+02161MD1810011+9999REMSYN064AAXX  05061 33990 32976 01202 10291 20155 40175 58001 333 20216;EQDQ01  00002PRCP99
0122339900999992000080509004+44500+034170FM-12+007299999V0202901N002012200019N0280001N1+02991+01471101751ADDGA1001+999999999GF100991001001999999001001MD1410001+9999REMSYN054AAXX  05091 33990 42978 02902 10299 20147 40175 54000;
0133339900999992000080512004+44500+034170FM-12+007299999V0200501N002012200019N0300001N1+02971+01511101711ADDGF101991011011012501001001MA1999999100891MD1810041+9999REMSYN066AAXX  05121 33990 42680 10502 10297 20151 30089 40171 58004 81100;
0112339900999992000080515004+44500+034170FM-12+007299999V0200501N001012200019N0300001N1+02771+01361101671ADDGF101991011011012501001001MD1610041+9999REMSYN060AAXX  05151 33990 42680 10501 10277 20136 40167 56004 81100;
0175339900999992000080518004+44500+034170FM-12+007299999V0200701N001012200019N0280001N1+02411+01391101691ADDAA199000091GA1001+999999999GF100991001001999999001001KA1999M+03081MD1310011+9999REMSYN064AAXX  05181 33990 32978 00701 10241 20139 40169 53001 333 10308;EQDQ01  00002PRCP99
0122339900999992000080521004+44500+034170FM-12+007299999V0203001N001012200019N0280001N1+02301+01481101661ADDGA1001+999999999GF100991001001999999001001MD1810031+9999REMSYN054AAXX  05211 33990 42978 03001 10230 20148 40166 58003;
0143339900999992000080600004+44500+034170FM-12+007299999V0200701N002012200019N0250001N1+02441+01301101611ADDGA1001+999999999GF100991001001999999001001MA1999999100781MD1710051+9999REMSYN060AAXX  06001 33990 42975 00702 10244 20130 30078 40161 57005;
0156339900999992000080603004+44500+034170FM-12+007299999V0200501N002012200019N0220001N1+02471+01321101581ADDGA1001+999999999GF100991001001999999001001GJ107029MD1710031+9999REMSYN080AAXX  06031 33990 42972 00502 10247 20132 40158 57003 333 55117 555 20230 7000/;
0175339900999992000080606004+44500+034170FM-12+007299999V0200701N003012200019N0190001N1+02951+01761101591ADDAA199000091GA1001+999999999GF100991001001999999001001KA1999N+02301MD1310021+9999REMSYN064AAXX  06061 33990 32969 00703 10295 20176 40159 53002 333 20230;EQDQ01  00002PRCP99
0122339900999992000080609004+44500+034170FM-12+007299999V0200901N004012200019N0210001N1+02981+01801101591ADDGA1001+999999999GF100991001001999999001001MD1410001+9999REMSYN054AAXX  06091 33990 42971 00904 10298 20180 40159 54000;
0143339900999992000080612004+44500+034170FM-12+007299999V0200901N003012200019N0240001N1+02951+01901101571ADDGA1001+999999999GF100991001001999999001001MA1999999100751MD1810021+9999REMSYN060AAXX  06121 33990 42974 00903 10295 20190 30075 40157 58002;
0122339900999992000080615004+44500+034170FM-12+007299999V0200901N001012200019N0220001N1+02811+01621101561ADDGA1001+999999999GF100991001001999999001001MD1610011+9999REMSYN054AAXX  06151 33990 42972 00901 10281 20162 40156 56001;
0175339900999992000080618004+44500+034170FM-12+007299999V0202801N002012200019N0270001N1+02501+01641101591ADDAA199000091GA1001+999999999GF100991001001999999001001KA1999M+03061MD1210021+9999REMSYN064AAXX  06181 33990 32977 02802 10250 20164 40159 52002 333 10306;EQDQ01  00002PRCP99
0122339900999992000080621004+44500+034170FM-12+007299999V0200301N001012200019N0300001N1+02741+01291101571ADDGA1001+999999999GF100991001001999999001001MD1810011+9999REMSYN054AAXX  06211 33990 42980 00301 10274 20129 40157 58001;
0143339900999992000080700004+44500+034170FM-12+007299999V0200201N001012200019N0280001N1+02611+01421101571ADDGA1001+999999999GF100991001001999999001001MA1999999100751MD1410001+9999REMSYN060AAXX  07001 33990 42978 00201 10261 20142 30075 40157 54000;
0144339900999992000080703004+44500+034170FM-12+007299999V0209999C000012200019N0240001N1+02571+01451101571ADDGA1001+999999999GF100991001001999999001001GJ106729MD1410001+9999REMSYN068AAXX  07031 33990 42974 00000 10257 20145 40157 54000 333 55112 555;
0165339900999992000080706004+44500+034170FM-12+007299999V0200601N003012200019N0220001N1+02991+01771101581ADDAA199000091GF101991011001999999041001KA1999N+02491MD1310011+9999REMSYN070AAXX  07061 33990 32972 10603 10299 20177 40158 53001 81040 333 20249;EQDQ01  00002PRCP99
0122339900999992000080709004+44500+034170FM-12+007299999V0200901N004012200019N0230001N1+03001+01981101571ADDGA1001+999999999GF100991001001999999001001MD1410001+9999REMSYN054AAXX  07091 33990 42973 00904 10300 20198 40157 54000;
0143339900999992000080712004+44500+034170FM-12+007299999V0200901N005012200019N0240001N1+02921+01811101531ADDGA1001+999999999GF100991001001999999001001MA1999999100711MD1810031+9999REMSYN060AAXX  07121 33990 42974 00905 10292 20181 30071 40153 58003;
0122339900999992000080715004+44500+034170FM-12+007299999V0201001N004012200019N0260001N1+02731+01641101411ADDGA1001+999999999GF100991001001999999001001MD1710121+9999REMSYN054AAXX  07151 33990 42976 01004 10273 20164 40141 57012;
0175339900999992000080718004+44500+034170FM-12+007299999V0201601N002012200019N0250001N1+02651+01531101421ADDAA199000091GA1001+999999999GF100991001001999999001001KA1999M+03131MD1310011+9999REMSYN064AAXX  07181 33990 32975 01602 10265 20153 40142 53001 333 10313;EQDQ01  00002PRCP99
0122339900999992000080721004+44500+034170FM-12+007299999V0203501N002012200019N0230001N1+02441+01451101431ADDGA1001+999999999GF100991001001999999001001MD1410001+9999REMSYN054AAXX  07211 33990 42973 03502 10244 20145 40143 54000;
0143339900999992000080800004+44500+034170FM-12+007299999V0202901N001012200019N0220001N1+02351+01421101361ADDGA1001+999999999GF100991001001999999001001MA1999999100531MD1810071+9999REMSYN060AAXX  08001 33990 42972 02901 10235 20142 30053 40136 58007;
0156339900999992000080803004+44500+034170FM-12+007299999V0202701N001012200019N0210001N1+02221+01421101321ADDGA1001+999999999GF100991001001999999001001GJ106789MD1710041+9999REMSYN080AAXX  08031 33990 42971 02701 10222 20142 40132 57004 333 55113 555 20222 7000/;
0175339900999992000080806004+44500+034170FM-12+007299999V0200701N003012200019N0240001N1+02701+01871101341ADDAA199000091GA1001+999999999GF100991001001999999001001KA1999N+02221MD1310031+9999REMSYN064AAXX  08061 33990 32974 00703 10270 20187 40134 53003 333 20222;EQDQ01  00002PRCP99
0122339900999992000080809004+44500+034170FM-12+007299999V0200701N002012200019N0250001N1+02701+02081101321ADDGA1001+999999999GF100991001001999999001001MD1810021+9999REMSYN054AAXX  08091 33990 42975 00702 10270 20208 40132 58002;
0143339900999992000080812004+44500+034170FM-12+007299999V0200501N001012200019N0240001N1+02741+02241101241ADDGA1001+999999999GF100991001001999999001001MA1999999100431MD1710071+9999REMSYN060AAXX  08121 33990 42974 00501 10274 20224 30043 40124 57007;
0112339900999992000080815004+44500+034170FM-12+007299999V0200701N001012200019N0200001N1+02501+02221101171ADDGF101991011011012501001001MD1710071+9999REMSYN060AAXX  08151 33990 42670 10701 10250 20222 40117 57007 81100;
0175339900999992000080818004+44500+034170FM-12+007299999V0203101N002012200019N0180001N1+02331+02141101241ADDAA199000091GA1001+999999999GF100991001001999999001001KA1999M+02821MD1310051+9999REMSYN064AAXX  08181 33990 32968 03102 10233 20214 40124 53005 333 10282;EQDQ01  00002PRCP99
0122339900999992000080821004+44500+034170FM-12+007299999V0203001N001012200019N0190001N1+02181+01741101211ADDGA1001+999999999GF100991001001999999001001MD1810031+9999REMSYN054AAXX  08211 33990 42969 03001 10218 20174 40121 58003;
0143339900999992000080900004+44500+034170FM-12+007299999V0202201N001012200019N0200001N1+02141+01631101191ADDGA1001+999999999GF100991001001999999001001MA1999999100361MD1710021+9999REMSYN060AAXX  09001 33990 42970 02201 10214 20163 30036 40119 57002;
0156339900999992000080903004+44500+034170FM-12+007299999V0202201N002012200019N0210001N1+02141+01361101181ADDGA1001+999999999GF100991001001999999001001GJ106909MD1610011+9999REMSYN080AAXX  09031 33990 42971 02202 10214 20136 40118 56001 333 55115 555 20214 7000/;
0175339900999992000080906004+44500+034170FM-12+007299999V0200901N001012200019N0200001N1+02671+02221101171ADDAA199000091GA1001+999999999GF100991001001999999001001KA1999N+02131MD1310031+9999REMSYN064AAXX  09061 33990 32970 00901 10267 20222 40117 53003 333 20213;EQDQ01  00002PRCP99
0112339900999992000080909004+44500+034170FM-12+007299999V0200901N002012200019N0240001N1+02801+02171101221ADDGF102991021021012501001001MD1110031+9999REMSYN060AAXX  09091 33990 42674 20902 10280 20217 40122 51003 82200;
0133339900999992000080912004+44500+034170FM-12+007299999V0201201N002012200019N0280001N1+02851+02191101201ADDGF102991021021012501001001MA1999999100391MD1810021+9999REMSYN066AAXX  09121 33990 42678 21202 10285 20219 30039 40120 58002 82200;
0112339900999992000080915004+44500+034170FM-12+007299999V0200901N001012200019N0230001N1+02671+02121101181ADDGF101991011021012501001001MD1710021+9999REMSYN060AAXX  09151 33990 42673 10901 10267 20212 40118 57002 81200;
0175339900999992000080918004+44500+034170FM-12+007299999V0200401N003012200019N0280001N1+02731+01591101241ADDAA199000091GA1001+999999999GF100991001001999999001001KA1999M+02961MD1310061+9999REMSYN064AAXX  09181 33990 32978 00403 10273 20159 40124 53006 333 10296;EQDQ01  00002PRCP99
0122339900999992000080921004+44500+034170FM-12+007299999V0203401N002012200019N0270001N1+02671+01591101271ADDGA1001+999999999GF100991001001999999001001MD1210031+9999REMSYN054AAXX  09211 33990 42977 03402 10267 20159 40127 52003;
0143339900999992000081000004+44500+034170FM-12+007299999V0203001N001012200019N0250001N1+02401+01671101291ADDGA1001+999999999GF100991001001999999001001MA1999999100461MD1410001+9999REMSYN060AAXX  10001 33990 42975 03001 10240 20167 30046 40129 54000;
0138339900999992000081003004+44500+034170FM-12+007299999V0202901N002012200019N0190001N1+02261+01671101361ADDGF101991011001999999081001MD1310071+9999REMSYN086AAXX  10031 33990 42969 12902 10226 20167 40136 53007 81080 333 55114 555 20226 7000/;
0165339900999992000081006004+44500+034170FM-12+007299999V0201201N001012200019N0160001N1+02761+02121101521ADDAA199000091GF102991021021008001001001KA1999N+02261MD1310171+9999REMSYN070AAXX  10061 33990 32566 21201 10276 20212 40152 53017 82200 333 20226;EQDQ01  00002PRCP99
0112339900999992000081009004+44500+034170FM-12+007299999V0201001N002012200019N0210001N1+02841+02101101581ADDGF102991021021008001001001MD1110061+9999REMSYN060AAXX  10091 33990 42571 21002 10284 20210 40158 51006 82200;
0112339900999992000081015004+44500+034170FM-12+007299999V0209999C000010075019N0220001N1+02581+02061101561ADDGF106991061041008001001001MD1610011+9999REMSYN060AAXX  10151 33990 42572 60000 10258 20206 40156 56001 86400;
0190339900999992000081018004+44500+034170FM-12+007299999V0209999C000012200019N0250001N1+02371+02101101611ADDAA112000791AY181061AY211061GA1001+999999999GF100991001001999999001001KA1999M+02921MD1210041+9999MW1021REMSYN076AAXX  10181 33990 11975 00000 10237 20210 40161 52004 69902 70281 333 10292;
0122339900999992000081021004+44500+034170FM-12+007299999V0209999C000012200019N0260001N1+02271+01561101641ADDGA1001+999999999GF100991001001999999001001MD1210031+9999REMSYN054AAXX  10211 33990 42976 00000 10227 20156 40164 52003;
0143339900999992000081100004+44500+034170FM-12+007299999V0202901N002012200019N0300001N1+02121+01201101571ADDGA1001+999999999GF100991001001999999001001MA1999999100741MD1810071+9999REMSYN060AAXX  11001 33990 42980 02902 10212 20120 30074 40157 58007;
0156339900999992000081103004+44500+034170FM-12+007299999V0203001N001012200019N0350001N1+02111+01101101591ADDGA1001+999999999GF100991001001999999001001GJ105649MD1010021+9999REMSYN080AAXX  11031 33990 42981 03001 10211 20110 40159 50002 333 55094 555 20210 7990/;
0175339900999992000081106004+44500+034170FM-12+007299999V0200601N005012200019N0270001N1+02561+01561101611ADDAA199000091GA1001+999999999GF100991001001999999001001KA1999N+02091MD1210031+9999REMSYN064AAXX  11061 33990 32977 00605 10256 20156 40161 52003 333 20209;EQDQ01  00002PRCP99
0112339900999992000081109004+44500+034170FM-12+007299999V0200901N005012200019N0280001N1+02721+01771101611ADDGF101991011021012501001001MD1410001+9999REMSYN060AAXX  11091 33990 42678 10905 10272 20177 40161 54000 81200;
0133339900999992000081112004+44500+034170FM-12+007299999V0200701N005012200019N0280001N1+02731+01811101511ADDGF103991031021012501001001MA1999999100691MD1810101+9999REMSYN066AAXX  11121 33990 42678 30705 10273 20181 30069 40151 58010 83200;
0112339900999992000081115004+44500+034170FM-12+007299999V0200801N005012200019N0300001N1+02531+01681101441ADDGF101991011021012501001001MD1710081+9999REMSYN060AAXX  11151 33990 42680 10805 10253 20168 40144 57008 81200;
0175339900999992000081118004+44500+034170FM-12+007299999V0203601N002012200019N0300001N1+02431+01061101471ADDAA199000091GA1001+999999999GF100991001001999999001001KA1999M+02801MD1310031+9999REMSYN064AAXX  11181 33990 32980 03602 10243 20106 40147 53003 333 10280;EQDQ01  00002PRCP99
0122339900999992000081121004+44500+034170FM-12+007299999V0200501N002012200019N0300001N1+02381+00771101451ADDGA1001+999999999GF100991001001999999001001MD1810021+9999REMSYN054AAXX  11211 33990 42980 00502 10238 20077 40145 58002;
0143339900999992000081200004+44500+034170FM-12+007299999V0203601N002012200019N0290001N1+02401+01071101371ADDGA1001+999999999GF100991001001999999001001MA1999999100541MD1710081+9999REMSYN060AAXX  12001 33990 42979 03602 10240 20107 30054 40137 57008;
0138339900999992000081203004+44500+034170FM-12+007299999V0200501N002012200019N0270001N1+02381+01171101361ADDGF101991011001999999031001MD1710011+9999REMSYN086AAXX  12031 33990 42977 10502 10238 20117 40136 57001 81030 333 55115 555 20232 7000/;
0165339900999992000081206004+44500+034170FM-12+007299999V0200601N007012200019N0280001N1+02701+01301101351ADDAA199000091GF103991021001999999041031KA1999N+02321MD1410001+9999REMSYN070AAXX  12061 33990 32978 30607 10270 20130 40135 54000 82043 333 20232;EQDQ01  00002PRCP99
0112339900999992000081209004+44500+034170FM-12+007299999V0200801N006012200019N0280001N1+02831+01801101301ADDGF103991021021012501041001MD1810041+9999REMSYN060AAXX  12091 33990 42678 30806 10283 20180 40130 58004 82240;
0127339900999992000081212004+44500+034170FM-12+007299999V0200901N006012200019N0270001N1+02691+01871101211ADDGF103991999999012501999999MA1999999100401MD1710091+9999REMSYN060AAXX  12121 33990 42677 30906 10269 20187 30040 40121 57009;
0112339900999992000081215004+44500+034170FM-12+007299999V0200701N006012200019N0300001N1+02591+01671101221ADDGF103991011021012501041001MD1310011+9999REMSYN060AAXX  12151 33990 42680 30706 10259 20167 40122 53001 81240;
0165339900999992000081218004+44500+034170FM-12+007299999V0200501N003012200019N0300001N1+02501+01421101291ADDAA199000091GF102991021041012501001001KA1999M+02901MD1210051+9999REMSYN070AAXX  12181 33990 32680 20503 10250 20142 40129 52005 82400 333 10290;EQDQ01  00002PRCP99
0112339900999992000081221004+44500+034170FM-12+007299999V0200601N003012200019N0300001N1+02621+01411101221ADDGF102991021001999999041001MD1810051+9999REMSYN060AAXX  12211 33990 42980 20603 10262 20141 40122 58005 82040;
0133339900999992000081300004+44500+034170FM-12+007299999V0202801N001012200019N0280001N1+02411+01411101201ADDGF102991021001999999041001MA1999999100371MD1610041+9999REMSYN066AAXX  13001 33990 42978 22801 10241 20141 30037 40120 56004 82040;
0138339900999992000081303004+44500+034170FM-12+007299999V0202801N001012200019N0280001N1+02331+01371101201ADDGF102991021001999999041001MD1410001+9999REMSYN086AAXX  13031 33990 42978 22801 10233 20137 40120 54000 82040 333 55113 555 20229 7000/;
0165339900999992000081306004+44500+034170FM-12+007299999V0202401N002012200019N0260001N1+02691+01931101201ADDAA199000091GF102991021021012501001001KA1999N+02291MD1310021+9999REMSYN070AAXX  13061 33990 32676 22402 10269 20193 40120 53002 82200 333 20229;EQDQ01  00002PRCP99
0112339900999992000081309004+44500+034170FM-12+007299999V0201201N003010120019N0280001N1+02861+01921101261ADDGF105991051021012501001001MD1210061+9999REMSYN060AAXX  13091 33990 42678 51203 10286 20192 40126 52006 85200;
0133339900999992000081312004+44500+034170FM-12+007299999V0201401N002012200019N0300001N1+02911+02141101271ADDGF102991021021012501001001MA1999999100461MD1110011+9999REMSYN066AAXX  13121 33990 42680 21402 10291 20214 30046 40127 51001 82200;
0112339900999992000081315004+44500+034170FM-12+007299999V0200901N002010150019N0300001N1+02731+01901101341ADDGF106991061081012501001001MD1310071+9999REMSYN060AAXX  13151 33990 42680 60902 10273 20190 40134 53007 86800;
0175339900999992000081318004+44500+034170FM-12+007299999V0200501N001012200019N0240001N1+02401+01931101441ADDAA199000091GA1001+999999999GF100991001001999999001001KA1999M+03081MD1210081+9999REMSYN064AAXX  13181 33990 32974 00501 10240 20193 40144 52008 333 10308;EQDQ01  00002PRCP99
0122339900999992000081321004+44500+034170FM-12+007299999V0203001N001012200019N0180001N1+02241+01921101481ADDGA1001+999999999GF100991001001999999001001MD1110041+9999REMSYN054AAXX  13211 33990 42968 03001 10224 20192 40148 51004;
0143339900999992000081400004+44500+034170FM-12+007299999V0202901N002012200019N0180001N1+02161+01811101481ADDGA1001+999999999GF100991001001999999001001MA1999999100651MD1410001+9999REMSYN060AAXX  14001 33990 42968 02902 10216 20181 30065 40148 54000;
0138339900999992000081403004+44500+034170FM-12+007299999V0202701N001012200019N0200001N1+02141+01541101531ADDGF101991011001999999041001MD1310051+9999REMSYN086AAXX  14031 33990 42970 12701 10214 20154 40153 53005 81040 333 55104 555 20212 7000/;
0175339900999992000081406004+44500+034170FM-12+007299999V0201401N001012200019N0220001N1+02641+01951101621ADDAA199000091GA1001+999999999GF100991001001999999001001KA1999N+02121MD1310101+9999REMSYN064AAXX  14061 33990 32972 01401 10264 20195 40162 53010 333 20212;EQDQ01  00002PRCP99
0122339900999992000081409004+44500+034170FM-12+007299999V0201201N002012200019N0250001N1+02981+01901101601ADDGA1001+999999999GF100991001001999999001001MD1810021+9999REMSYN054AAXX  14091 33990 42975 01202 10298 20190 40160 58002;
0133339900999992000081412004+44500+034170FM-12+007299999V0201801N002012200019N0290001N1+02971+01841101571ADDGF102991021021012501001001MA1999999100751MD1810031+9999REMSYN066AAXX  14121 33990 42679 21802 10297 20184 30075 40157 58003 82200;
0122339900999992000081415004+44500+034170FM-12+007299999V0201301N001012200019N0240001N1+02641+02051101511ADDGA1001+999999999GF100991001001999999001001MD1710061+9999REMSYN054AAXX  14151 33990 42974 01301 10264 20205 40151 57006;
0175339900999992000081418004+44500+034170FM-12+007299999V0200301N001012200019N0280001N1+02571+01501101581ADDAA199000091GA1001+999999999GF100991001001999999001001KA1999M+03201MD1310071+9999REMSYN064AAXX  14181 33990 32978 00301 10257 20150 40158 53007 333 10320;EQDQ01  00002PRCP99
0143339900999992000081500004+44500+034170FM-12+007299999V0203401N002012200019N0350001N1+02621+01501101561ADDGA1001+999999999GF100991001001999999001001MA1999999100741MD1710011+9999REMSYN060AAXX  15001 33990 42981 03402 10262 20150 30074 40156 57001;
0156339900999992000081503004+44500+034170FM-12+007299999V0203101N001012200019N0270001N1+02401+01171101581ADDGA1001+999999999GF100991001001999999001001GJ106669MD1310011+9999REMSYN080AAXX  15031 33990 42977 03101 10240 20117 40158 53001 333 55111 555 20239 7000/;
0175339900999992000081506004+44500+034170FM-12+007299999V0200901N002012200019N0240001N1+02991+01511101581ADDAA199000091GA1001+999999999GF100991001001999999001001KA1999N+02391MD1210011+9999REMSYN064AAXX  15061 33990 32974 00902 10299 20151 40158 52001 333 20239;EQDQ01  00002PRCP99
0112339900999992000081509004+44500+034170FM-12+007299999V0202101N002012200019N0230001N1+03001+01901101651ADDGF103991031021012501001001MD1210081+9999REMSYN060AAXX  15091 33990 42673 32102 10300 20190 40165 52008 83200;
0133339900999992000081512004+44500+034170FM-12+007299999V0202101N002012200019N0250001N1+03021+01811101631ADDGF103991031021012501001001MA1999999100821MD1810021+9999REMSYN066AAXX  15121 33990 42675 32102 10302 20181 30082 40163 58002 83200;
0112339900999992000081515004+44500+034170FM-12+007299999V0201801N001012200019N0240001N1+02691+01841101621ADDGF102991021021012501001001MD1710021+9999REMSYN060AAXX  15151 33990 42674 21801 10269 20184 40162 57002 82200;
0165339900999992000081518004+44500+034170FM-12+007299999V0203001N001012200019N0240001N1+02361+01641101161ADDAA199000091GF102991021001999999031001KA1999M+03081MD1310061+9999REMSYN070AAXX  15181 33990 32974 23001 10236 20164 40116 53006 82030 333 10308;EQDQ01  00002PRCP99
0143339900999992000081600004+44500+034170FM-12+007299999V0203001N001012200019N0210001N1+02231+01441101661ADDGA1001+999999999GF100991001001999999001001MA1999999100831MD1810031+9999REMSYN060AAXX  16001 33990 42971 03001 10223 20144 30083 40166 58003;
0156339900999992000081603004+44500+034170FM-12+007299999V0202901N001012200019N0240001N1+02281+01231101661ADDGA1001+999999999GF100991001001999999001001GJ106549MD1410001+9999REMSYN080AAXX  16031 33990 42974 02901 10228 20123 40166 54000 333 55109 555 20221 7000/;
0165339900999992000081606004+44500+034170FM-12+007299999V0200801N002012200019N0300001N1+02741+01631101681ADDAA199000091GF102991021021012501001001KA1999N+02211MD1310031+9999REMSYN070AAXX  16061 33990 32680 20802 10274 20163 40168 53003 82200 333 20221;EQDQ01  00002PRCP99
0112339900999992000081609004+44500+034170FM-12+007299999V0200901N004012200019N0300001N1+02811+01791101691ADDGF102991021021012501001001MD1110011+9999REMSYN060AAXX  16091 33990 42680 20904 10281 20179 40169 51001 82200;
0133339900999992000081612004+44500+034170FM-12+007299999V0200801N003012200019N0290001N1+02811+01841101601ADDGF102991021021012501001001MA1999999100781MD1810091+9999REMSYN066AAXX  16121 33990 42679 20803 10281 20184 30078 40160 58009 82200;
0112339900999992000081615004+44500+034170FM-12+007299999V0200801N002010120019N0280001N1+02591+01821101521ADDGF106991061021012501001001MD1710081+9999REMSYN060AAXX  16151 33990 42678 60802 10259 20182 40152 57008 86200;
0165339900999992000081618004+44500+034170FM-12+007299999V0202601N001010360019N0260001N1+02431+01631101571ADDAA199000091GF106991031041012501031001KA1999M+02931MD1310041+9999REMSYN070AAXX  16181 33990 32676 62601 10243 20163 40157 53004 83430 333 10293;EQDQ01  00002PRCP99
0122339900999992000081621004+44500+034170FM-12+007299999V0203001N001012200019N0270001N1+02261+01281101541ADDGA1001+999999999GF100991001001999999001001MD1810031+9999REMSYN054AAXX  16211 33990 42977 03001 10226 20128 40154 58003;
0143339900999992000081700004+44500+034170FM-12+007299999V0202901N001012200019N0280001N1+02261+01221101481ADDGA1001+999999999GF100991001001999999001001MA1999999100651MD1610061+9999REMSYN060AAXX  17001 33990 42978 02901 10226 20122 30065 40148 56006;
0138339900999992000081703004+44500+034170FM-12+007299999V0202901N001012200019N0260001N1+02091+01261101471ADDGF103991001001999999001011MD1710011+9999REMSYN086AAXX  17031 33990 42976 32901 10209 20126 40147 57001 80001 333 55112 555 20202 7000/;
0112339900999992000081709004+44500+034170FM-12+007299999V0200901N003012200019N0300001N1+02911+01861101451ADDGF102991011021012501001011MD1310011+9999REMSYN060AAXX  17091 33990 42680 20903 10291 20186 40145 53001 81201;
0133339900999992000081712004+44500+034170FM-12+007299999V0201201N002012200019N0290001N1+02911+01671101431ADDGF102991021021012501001001MA1999999100611MD1810021+9999REMSYN066AAXX  17121 33990 42679 21202 10291 20167 30061 40143 58002 82200;
0112339900999992000081715004+44500+034170FM-12+007299999V0200901N001010360019N0290001N1+02721+01521101391ADDGF105991021021012501061001MD1610041+9999REMSYN060AAXX  17151 33990 42679 50901 10272 20152 40139 56004 82260;
0175339900999992000081718004+44500+034170FM-12+007299999V0203401N002012200019N0270001N1+02431+01481101431ADDAA199000091GA1001+999999999GF100991001001999999001001KA1999M+02981MD1310031+9999REMSYN064AAXX  17181 33990 32977 03402 10243 20148 40143 53003 333 10298;EQDQ01  00002PRCP99
0122339900999992000081721004+44500+034170FM-12+007299999V0200501N001012200019N0280001N1+02321+01321101431ADDGA1001+999999999GF100991001001999999001001MD1410001+9999REMSYN054AAXX  17211 33990 42978 00501 10232 20132 40143 54000;
0133339900999992000081800004+44500+034170FM-12+007299999V0202901N002019999999N0270001N1+02401+01311101401ADDGF105991001001999999001011MA1999999100571MD1810031+9999REMSYN066AAXX  18001 33990 42977 52902 10240 20131 30057 40140 58003 80001;
0138339900999992000081803004+44500+034170FM-12+007299999V0202301N002012200019N0220001N1+02281+01311101401ADDGF103991031051012501001001MD1410001+9999REMSYN086AAXX  18031 33990 42672 32302 10228 20131 40140 54000 83500 333 55110 555 20226 7000/;
0165339900999992000081806004+44500+034170FM-12+007299999V0200801N003012200019N0200001N1+02911+01671101431ADDAA199000091GF102991011011012501001011KA1999N+02261MD1310041+9999REMSYN070AAXX  18061 33990 32670 20803 10291 20167 40143 53004 81101 333 20226;EQDQ01  00002PRCP99
0112339900999992000081809004+44500+034170FM-12+007299999V0201701N002012200019N0220001N1+02901+01771101491ADDGF101991011011012501001001MD1210061+9999REMSYN060AAXX  18091 33990 42672 11702 10290 20177 40149 52006 81100;
0133339900999992000081812004+44500+034170FM-12+007299999V0201301N001012200019N0230001N1+02961+01751101511ADDGF102991021011012501001001MA1999999100691MD1310021+9999REMSYN066AAXX  18121 33990 42673 21301 10296 20175 30069 40151 53002 82100;
0112339900999992000081815004+44500+034170FM-12+007299999V0209999C000012200019N0220001N1+02801+01511101511ADDGF102991021041012501001001MD1410001+9999REMSYN060AAXX  18151 33990 42672 20000 10280 20151 40151 54000 82400;
0175339900999992000081818004+44500+034170FM-12+007299999V0202701N001012200019N0280001N1+02451+01341101611ADDAA199000091GA1001+999999999GF100991001001999999001001KA1999M+03051MD1310091+9999REMSYN064AAXX  18181 33990 32978 02701 10245 20134 40161 53009 333 10305;EQDQ01  00002PRCP99
0122339900999992000081821004+44500+034170FM-12+007299999V0203001N002012200019N0300001N1+02371+01031101641ADDGA1001+999999999GF100991001001999999001001MD1210031+9999REMSYN054AAXX  18211 33990 42980 03002 10237 20103 40164 52003;
0143339900999992000081900004+44500+034170FM-12+007299999V0203301N002012200019N0350001N1+02471+01121101651ADDGA1001+999999999GF100991001001999999001001MA1999999100821MD1210011+9999REMSYN060AAXX  19001 33990 42981 03302 10247 20112 30082 40165 52001;
0138339900999992000081903004+44500+034170FM-12+007299999V0203401N003012200019N0250001N1+02691+01201101671ADDGF103991021041012501031001MD1310031+9999REMSYN086AAXX  19031 33990 42675 33403 10269 20120 40167 53003 82430 333 55109 555 20234 7000/;
0175339900999992000081906004+44500+034170FM-12+007299999V0200601N003012200019N0240001N1+03151+01621101691ADDAA199000091GA1001+999999999GF100991001001999999001001KA1999N+02341MD1210031+9999REMSYN064AAXX  19061 33990 32974 00603 10315 20162 40169 52003 333 20234;EQDQ01  00002PRCP99
0112339900999992000081909004+44500+034170FM-12+007299999V0200901N001012200019N0220001N1+03091+01701101781ADDGF101991011021012501001001MD1210091+9999REMSYN060AAXX  19091 33990 42672 10901 10309 20170 40178 52009 81200;
0133339900999992000081912004+44500+034170FM-12+007299999V0201201N002012200019N0200001N1+03121+01641101771ADDGF101991011011012501001001MA1999999100961MD1810011+9999REMSYN066AAXX  19121 33990 42670 11202 10312 20164 30096 40177 58001 81100;
0122339900999992000081915004+44500+034170FM-12+007299999V0202101N001012200019N0210001N1+02901+01431101761ADDGA1001+999999999GF100991001001999999001001MD1710021+9999REMSYN054AAXX  19151 33990 42971 02101 10290 20143 40176 57002;
0175339900999992000081918004+44500+034170FM-12+007299999V0202901N001012200019N0220001N1+02541+01301101791ADDAA199000091GA1001+999999999GF100991001001999999001001KA1999M+03231MD1310021+9999REMSYN064AAXX  19181 33990 32972 02901 10254 20130 40179 53002 333 10323;EQDQ01  00002PRCP99
0122339900999992000081921004+44500+034170FM-12+007299999V0203301N002012200019N0200001N1+02731+01371101751ADDGA1001+999999999GF100991001001999999001001MD1810031+9999REMSYN054AAXX  19211 33990 42970 03302 10273 20137 40175 58003;
0143339900999992000082000004+44500+034170FM-12+007299999V0200601N001012200019N0200001N1+02671+01221101711ADDGA1001+999999999GF100991001001999999001001MA1999999100891MD1710041+9999REMSYN060AAXX  20001 33990 42970 00601 10267 20122 30089 40171 57004;
0122339900999992000082003004+44500+034170FM-12+007299999V0203001N002012200019N0180001N1+02471+01281101701ADDGA1001+999999999GF100991001001999999001001MD1710021+9999REMSYN054AAXX  20031 33990 42968 03002 10247 20128 40170 57002;
0175339900999992000082006004+44500+034170FM-12+007299999V0200901N002012200019N0250001N1+03121+01601101681ADDAA199000091GA1001+999999999GF100991001001999999001001KA1999N+02391MD1410001+9999REMSYN064AAXX  20061 33990 32975 00902 10312 20160 40168 54000 333 20239;EQDQ01  00002PRCP99
0112339900999992000082009004+44500+034170FM-12+007299999V0201501N002012200019N0260001N1+03141+01551101681ADDGF101991011011012501001001MD1010001+9999REMSYN060AAXX  20091 33990 42676 11502 10314 20155 40168 50000 81100;
0143339900999992000082012004+44500+034170FM-12+007299999V0201101N001012200019N0260001N1+03221+01621101651ADDGA1001+999999999GF100991001001999999001001MA1999999100841MD1710031+9999REMSYN060AAXX  20121 33990 42976 01101 10322 20162 30084 40165 57003;
0122339900999992000082015004+44500+034170FM-12+007299999V0201401N001012200019N0240001N1+02951+01481101571ADDGA1001+999999999GF100991001001999999001001MD1710091+9999REMSYN054AAXX  20151 33990 42974 01401 10295 20148 40157 57009;
0175339900999992000082018004+44500+034170FM-12+007299999V0202901N001012200019N0220001N1+02611+01401101601ADDAA199000091GA1001+999999999GF100991001001999999001001KA1999M+03221MD1310031+9999REMSYN064AAXX  20181 33990 32972 02901 10261 20140 40160 53003 333 10322;EQDQ01  00002PRCP99
0122339900999992000082021004+44500+034170FM-12+007299999V0202901N001012200019N0210001N1+02511+01241101591ADDGA1001+999999999GF100991001001999999001001MD1810021+9999REMSYN054AAXX  20211 33990 42971 02901 10251 20124 40159 58002;
0143339900999992000082100004+44500+034170FM-12+007299999V0203101N001012200019N0220001N1+02541+01221101591ADDGA1001+999999999GF100991001001999999001001MA1999999100761MD1410001+9999REMSYN060AAXX  21001 33990 42972 03101 10254 20122 30076 40159 54000;
0156339900999992000082103004+44500+034170FM-12+007299999V0203001N002012200019N0230001N1+02561+01131101561ADDGA1001+999999999GF100991001001999999001001GJ106489MD1810031+9999REMSYN080AAXX  21031 33990 42973 03002 10256 20113 40156 58003 333 55108 555 20249 7000/;
0175339900999992000082106004+44500+034170FM-12+007299999V0200901N002012200019N0180001N1+03081+01491101601ADDAA199000091GA1001+999999999GF100991001001999999001001KA1999N+02491MD1210061+9999REMSYN064AAXX  21061 33990 32968 00902 10308 20149 40160 52006 333 20249;EQDQ01  00002PRCP99
0122339900999992000082109004+44500+034170FM-12+007299999V0201201N002012200019N0220001N1+03151+01701101631ADDGA1001+999999999GF100991001001999999001001MD1110031+9999REMSYN054AAXX  21091 33990 42972 01202 10315 20170 40163 51003;
0143339900999992000082112004+44500+034170FM-12+007299999V0201201N001012200019N0240001N1+03191+01551101571ADDGA1001+999999999GF100991001001999999001001MA1999999100761MD1810061+9999REMSYN060AAXX  21121 33990 42974 01201 10319 20155 30076 40157 58006;
0122339900999992000082115004+44500+034170FM-12+007299999V0209999C000012200019N0260001N1+03001+01511101561ADDGA1001+999999999GF100991001001999999001001MD1210021+9999REMSYN054AAXX  21151 33990 42976 00000 10300 20151 40156 52002;
0175339900999992000082118004+44500+034170FM-12+007299999V0202901N001012200019N0300001N1+02621+01501101621ADDAA199000091GA1001+999999999GF100991001001999999001001KA1999M+03341MD1310061+9999REMSYN064AAXX  21181 33990 32980 02901 10262 20150 40162 53006 333 10334;EQDQ01  00002PRCP99
0122339900999992000082121004+44500+034170FM-12+007299999V0203001N001012200019N0350001N1+02751+01421101581ADDGA1001+999999999GF100991001001999999001001MD1810041+9999REMSYN054AAXX  21211 33990 42981 03001 10275 20142 40158 58004;
0143339900999992000082200004+44500+034170FM-12+007299999V0201101N001012200019N0400001N1+02811+01461101551ADDGA1001+999999999GF100991001001999999001001MA1999999100731MD1610031+9999REMSYN060AAXX  22001 33990 42982 01101 10281 20146 30073 40155 56003;
0156339900999992000082203004+44500+034170FM-12+007299999V0203001N001012200019N0260001N1+02701+01511101561ADDGA1001+999999999GF100991001001999999001001GJ106609MD1210011+9999REMSYN080AAXX  22031 33990 42976 03001 10270 20151 40156 52001 333 55110 555 20257 7000/;
0175339900999992000082206004+44500+034170FM-12+007299999V0201201N002012200019N0190001N1+03311+01511101571ADDAA199000091GA1001+999999999GF100991001001999999001001KA1999N+02571MD1110021+9999REMSYN064AAXX  22061 33990 32969 01202 10331 20151 40157 51002 333 20257;EQDQ01  00002PRCP99
0112339900999992000082209004+44500+034170FM-12+007299999V0200701N003012200019N0240001N1+03391+01831101561ADDGF101991011021012501001001MD1810011+9999REMSYN060AAXX  22091 33990 42674 10703 10339 20183 40156 58001 81200;
0133339900999992000082212004+44500+034170FM-12+007299999V0202101N002012200019N0260001N1+03351+01771101531ADDGF102991021021012501001001MA1999999100721MD1710031+9999REMSYN066AAXX  22121 33990 42676 22102 10335 20177 30072 40153 57003 82200;
0112339900999992000082215004+44500+034170FM-12+007299999V0201601N001010120019N0260001N1+03171+01751101481ADDGF106991061021012501001001MD1710051+9999REMSYN060AAXX  22151 33990 42676 61601 10317 20175 40148 57005 86200;
0175339900999992000082218004+44500+034170FM-12+007299999V0202901N002012200019N0270001N1+02731+01611101491ADDAA199000091GA1001+999999999GF100991001001999999001001KA1999M+03471MD1410001+9999REMSYN064AAXX  22181 33990 32977 02902 10273 20161 40149 54000 333 10347;EQDQ01  00002PRCP99
0122339900999992000082221004+44500+034170FM-12+007299999V0202901N002012200019N0260001N1+02671+01501101451ADDGA1001+999999999GF100991001001999999001001MD1810041+9999REMSYN054AAXX  22211 33990 42976 02902 10267 20150 40145 58004;
0143339900999992000082300004+44500+034170FM-12+007299999V0202701N001012200019N0270001N1+02571+01281101451ADDGA1001+999999999GF100991001001999999001001MA1999999100631MD1410001+9999REMSYN060AAXX  23001 33990 42977 02701 10257 20128 30063 40145 54000;
0156339900999992000082303004+44500+034170FM-12+007299999V0201801N001012200019N0200001N1+02571+01371101421ADDGA1001+999999999GF100991001001999999001001GJ106429MD1810031+9999REMSYN080AAXX  23031 33990 42970 01801 10257 20137 40142 58003 333 55107 555 20254 7000/;
0175339900999992000082306004+44500+034170FM-12+007299999V0200601N001012200019N0230001N1+03201+01631101471ADDAA199000091GA1001+999999999GF100991001001999999001001KA1999N+02541MD1310061+9999REMSYN064AAXX  23061 33990 32973 00601 10320 20163 40147 53006 333 20254;EQDQ01  00002PRCP99
0112339900999992000082309004+44500+034170FM-12+007299999V0201201N002012200019N0250001N1+03391+01661101441ADDGF102991021021012501001001MD1810031+9999REMSYN060AAXX  23091 33990 42675 21202 10339 20166 40144 58003 82200;
0133339900999992000082312004+44500+034170FM-12+007299999V0201801N001012200019N0250001N1+03391+01791101361ADDGF104991041021012501001001MA1999999100551MD1710081+9999REMSYN066AAXX  23121 33990 42675 41801 10339 20179 30055 40136 57008 84200;
0140339900999992000082315004+44500+034170FM-12+007299999V0202501N001010120019N0200001N1+03111+01691101311ADDAY191031AY211031GF107991061091012501001021MD1710051+9999MW1171REMSYN066AAXX  23151 33990 41670 72501 10311 20169 40131 57005 71791 86902;
0193339900999992000082318004+44500+034170FM-12+007299999V0200101N001012200019N0200001N1+02911+01741101321ADDAA199000091AY191061AY211061GF103991031051012501001001KA1999M+03501MD1410001+9999MW1021REMSYN076AAXX  23181 33990 31670 30101 10291 20174 40132 54000 70291 83500 333 10350;EQDQ01  00002PRCP99
0122339900999992000082321004+44500+034170FM-12+007299999V0202701N001012200019N0220001N1+02661+01571101341ADDGA1001+999999999GF100991001001999999001001MD1310021+9999REMSYN054AAXX  23211 33990 42972 02701 10266 20157 40134 53002;
0143339900999992000082400004+44500+034170FM-12+007299999V0203001N001012200019N0200001N1+02671+01481101231ADDGA1001+999999999GF100991001001999999001001MA1999999100421MD1810101+9999REMSYN060AAXX  24001 33990 42970 03001 10267 20148 30042 40123 58010;
0156339900999992000082403004+44500+034170FM-12+007299999V0202501N001012200019N0180001N1+02491+01441101251ADDGA1001+999999999GF100991001001999999001001GJ105289MD1410001+9999REMSYN080AAXX  24031 33990 42968 02501 10249 20144 40125 54000 333 55088 555 20249 7000/;
0165339900999992000082406004+44500+034170FM-12+007299999V0202001N001012200019N0210001N1+02851+02051101291ADDAA199000091GF101991011001999999081001KA1999N+02491MD1310061+9999REMSYN070AAXX  24061 33990 32971 12001 10285 20205 40129 53006 81080 333 20249;EQDQ01  00002PRCP99
0112339900999992000082409004+44500+034170FM-12+007299999V0201601N002012200019N0220001N1+03191+02041101291ADDGF102991021021012501001001MD1110011+9999REMSYN060AAXX  24091 33990 42672 21602 10319 20204 40129 51001 82200;
0133339900999992000082412004+44500+034170FM-12+007299999V0201501N002012200019N0210001N1+03041+02101101201ADDGF103991021021012501001011MA1999999100401MD1810091+9999REMSYN066AAXX  24121 33990 42671 31502 10304 20210 30040 40120 58009 82201;
0112339900999992000082415004+44500+034170FM-12+007299999V0201801N001012200019N0230001N1+02791+01931101231ADDGF103991011021012501041001MD1310031+9999REMSYN060AAXX  24151 33990 42673 31801 10279 20193 40123 53003 81240;
0165339900999992000082418004+44500+034170FM-12+007299999V0203301N002012200019N0230001N1+02501+01591101351ADDAA199000091GF104991041041012501001001KA1999M+03261MD1210101+9999REMSYN070AAXX  24181 33990 32673 43302 10250 20159 40135 52010 84400 333 10326;EQDQ01  00002PRCP99
0140339900999992000082421004+44500+034170FM-12+007299999V0200201N002010120019N0230001N1+02381+01481101411ADDAY111031AY211031GF106991061091012501001001MD1210061+9999MW1131REMSYN066AAXX  24211 33990 41673 60202 10238 20148 40141 52006 71311 86900;
0133339900999992000082500004+44500+034170FM-12+007299999V0203301N001012200019N0240001N1+02201+01251101451ADDGF104991041001999999041001MA1999999100621MD1110041+9999REMSYN066AAXX  25001 33990 42974 43301 10220 20125 30062 40145 51004 84040;
0138339900999992000082503004+44500+034170FM-12+007299999V0202801N001012200019N0250001N1+02031+01021101431ADDGF101991011001999999041001MD1810041+9999REMSYN086AAXX  25031 33990 42975 12801 10203 20102 40143 58004 81040 333 55098 555 20203 7000/;
0165339900999992000082506004+44500+034170FM-12+007299999V0203601N004012200019N0270001N1+02551+01231101401ADDAA199000091GF101991011001999999041001KA1999N+02011MD1710011+9999REMSYN070AAXX  25061 33990 32977 13604 10255 20123 40140 57001 81040 333 20201;EQDQ01  00002PRCP99
0112339900999992000082509004+44500+034170FM-12+007299999V0201201N003012200019N0300001N1+02751+01181101371ADDGF103991031021012501001001MD1810021+9999REMSYN060AAXX  25091 33990 42680 31203 10275 20118 40137 58002 83200;
0133339900999992000082512004+44500+034170FM-12+007299999V0201601N003012200019N0300001N1+02691+01271101231ADDGF101991011021012501001001MA1999999100421MD1710131+9999REMSYN066AAXX  25121 33990 42680 11603 10269 20127 30042 40123 57013 81200;
0112339900999992000082515004+44500+034170FM-12+007299999V0202101N002012200019N0300001N1+02421+01281101151ADDGF101991011021012501001001MD1710101+9999REMSYN060AAXX  25151 33990 42680 12102 10242 20128 40115 57010 81200;
0175339900999992000082518004+44500+034170FM-12+007299999V0200901N001012200019N0290001N1+02201+01051101181ADDAA199000091GA1001+999999999GF100991001001999999001001KA1999M+02791MD1310031+9999REMSYN064AAXX  25181 33990 32979 00901 10220 20105 40118 53003 333 10279;EQDQ01  00002PRCP99
0122339900999992000082521004+44500+034170FM-12+007299999V0203201N002012200019N0280001N1+02061+00951101121ADDGA1001+999999999GF100991001001999999001001MD1810071+9999REMSYN054AAXX  25211 33990 42978 03202 10206 20095 40112 58007;
0143339900999992000082600004+44500+034170FM-12+007299999V0202901N002012200019N0280001N1+01981+00931101061ADDGA1001+999999999GF100991001001999999001001MA1999999100221MD1710061+9999REMSYN060AAXX  26001 33990 42978 02902 10198 20093 30022 40106 57006;
0138339900999992000082603004+44500+034170FM-12+007299999V0203201N001012200019N0230001N1+01881+00931100921ADDGF102991011021012501001011MD1710141+9999REMSYN086AAXX  26031 33990 42673 23201 10188 20093 40092 57014 81201 333 55110 555 20185 7000/;
0165339900999992000082606004+44500+034170FM-12+007299999V0201301N001010360019N0280001N1+02371+01341100921ADDAA199000091GF106991021021012501031011KA1999N+01851MD1010011+9999REMSYN070AAXX  26061 33990 32678 61301 10237 20134 40092 50001 82231 333 20185;EQDQ01  00002PRCP99
0112339900999992000082609004+44500+034170FM-12+007299999V0200501N004010120019N0350001N1+02671+01651100851ADDGF105991051021012501001001MD1610051+9999REMSYN060AAXX  26091 33990 42681 50504 10267 20165 40085 56005 85200;
0133339900999992000082612004+44500+034170FM-12+007299999V0201401N002010360019N0350001N1+02691+01571100831ADDGF106991031021012501031011MA1999999100021MD1710021+9999REMSYN066AAXX  26121 33990 42681 61402 10269 20157 30002 40083 57002 83231;
0140339900999992000082615004+44500+034170FM-12+007299999V0202201N002010075019N0260001N1+01971+01711100911ADDAY181031AY221031GF108991081091008001999999MD1310051+9999MW1801REMSYN066AAXX  26151 33990 41576 82202 10197 20171 40091 53005 78082 889//;
0180339900999992000082618004+44500+034170FM-12+007299999V0203001N001012200019N0350001N1+01731+01611100851ADDAA112002091AY181061AY211061GF103991021001999999031011KA1999M+02771MD1610061+9999MW1021REMSYN082AAXX  26181 33990 11981 33001 10173 20161 40085 56006 60022 70281 82031 333 10277;
0140339900999992000082621004+44500+034170FM-12+007299999V0203101N002010075019N0240001N1+01731+01631100801ADDAY191031AY281031GF108991081091008001999999MD1510051+9999MW1951REMSYN066AAXX  26211 33990 41574 83102 10173 20163 40080 55005 79598 889//;
0161339900999992000082700004+44500+034170FM-12+007299999V0209999C000010075019N0260001N1+01731+01611100701ADDAY191061AY281061GF106991051091008001001011MA1999999099861MD1610101+9999MW1131REMSYN072AAXX  27001 33990 41576 60000 10173 20161 39986 40070 56010 71398 85901;
0138339900999992000082703004+44500+034170FM-12+007299999V0202701N001010900019N0350001N1+01611+01491100681ADDGF108991021041012501001021MD1710021+9999REMSYN086AAXX  27031 33990 42681 82701 10161 20149 40068 57002 82402 333 55060 555 20161 7009/;
0152339900999992000082706004+44500+034170FM-12+007299999V0203401N001010360019N0250001N1+01841+01551100691ADDAA112006191GF107991011021012501071001KA1999N+01611MD1210011+9999REMSYN076AAXX  27061 33990 12675 73401 10184 20155 40069 52001 60062 81270 333 20161;
0112339900999992000082709004+44500+034170FM-12+007299999V0200901N002010900019N0240001N1+02341+01361100781ADDGF107991031021012501001061MD1210101+9999REMSYN060AAXX  27091 33990 42674 70902 10234 20136 40078 52010 83206;
0147339900999992000082712004+44500+034170FM-12+007299999V0202701N001019999999N0200001N1+02301+01291100801ADDAY181061GF108991999999012501999999MA1999999099971MD1210021+9999MW1801REMSYN066AAXX  27121 33990 41670 82701 10230 20129 39997 40080 52002 7808/;
0140339900999992000082715004+44500+034170FM-12+007299999V0202901N001010120019N0150001N1+01761+01611100861ADDAY191031AY281031GF108991081091012501999999MD1210051+9999MW1171REMSYN066AAXX  27151 33990 41665 82901 10176 20161 40086 52005 71798 889//;
0180339900999992000082718004+44500+034170FM-12+007299999V0203301N001010120019N0150001N1+01761+01371100941ADDAA112004191AY191061AY281061GF108991081091012501999999KA1999M+02381MD1210081+9999MW1951REMSYN082AAXX  27181 33990 11665 83301 10176 20137 40094 52008 60042 79598 889// 333 10238;
0140339900999992000082721004+44500+034170FM-12+007299999V0203201N003010075019N0180001N1+01881+01091100861ADDAY191031AY281031GF108991081091008001999999MD1810081+9999MW1021REMSYN066AAXX  27211 33990 41568 83203 10188 20109 40086 58008 70298 889//;
0161339900999992000082800004+44500+034170FM-12+007299999V0203001N002010120019N0200001N1+01981+01111100801ADDAY191061AY281061GF107991071091012501001001MA1999999099961MD1710061+9999MW1131REMSYN072AAXX  28001 33990 41670 73002 10198 20111 39996 40080 57006 71398 87900;
0166339900999992000082803004+44500+034170FM-12+007299999V0202701N001010120019N0250001N1+01901+01111100731ADDAY181031AY221031GF108991081091012501999999MD1710071+9999MW1021REMSYN092AAXX  28031 33990 41675 82701 10190 20111 40073 57007 70282 889// 333 55006 555 20168 7005/;
0180339900999992000082806004+44500+034170FM-12+007299999V0203301N002010075019N0250001N1+01921+01281100711ADDAA112000591AY181061AY221061GF107991061031008001041001KA1999N+01681MD1610021+9999MW1021REMSYN082AAXX  28061 33990 11575 73302 10192 20128 40071 56002 69962 70282 86340 333 20168;
0112339900999992000082809004+44500+034170FM-12+007299999V0203601N002010360019N0280001N1+02411+01281100721ADDGF105991021021008001041001MD1310021+9999REMSYN060AAXX  28091 33990 42578 53602 10241 20128 40072 53002 82240;
0133339900999992000082812004+44500+034170FM-12+007299999V0203601N003010360019N0300001N1+02421+01341100771ADDGF106991021021008001041011MA1999999099941MD1210051+9999REMSYN066AAXX  28121 33990 42580 63603 10242 20134 39994 40077 52005 82241;
0112339900999992000082815004+44500+034170FM-12+007299999V0203201N004010360019N0300001N1+02011+01251100911ADDGF106991041021008001041011MD1210131+9999REMSYN060AAXX  28151 33990 42580 63204 10201 20125 40091 52013 84241;
0165339900999992000082818004+44500+034170FM-12+007299999V0203201N003010360019N0290001N1+01901+01301101021ADDAA199000091GF105991021021008001041001KA1999M+02511MD1210111+9999REMSYN070AAXX  28181 33990 32579 53203 10190 20130 40102 52011 82240 333 10251;EQDQ01  00002PRCP99
0122339900999992000082821004+44500+034170FM-12+007299999V0203001N001012200019N0300001N1+01821+01171100961ADDGA1001+999999999GF100991001001999999001001MD1810061+9999REMSYN054AAXX  28211 33990 42980 03001 10182 20117 40096 58006;
0133339900999992000082900004+44500+034170FM-12+007299999V0200601N003012200019N0280001N1+01911+01311100901ADDGF102991021051008001001001MA1999999100061MD1710061+9999REMSYN066AAXX  29001 33990 42578 20603 10191 20131 30006 40090 57006 82500;
0138339900999992000082903004+44500+034170FM-12+007299999V0200401N002010360019N0260001N1+01861+01291100921ADDGF106991041021008001041001MD1310021+9999REMSYN086AAXX  29031 33990 42576 60402 10186 20129 40092 53002 84240 333 55079 555 20177 7000/;
0165339900999992000082906004+44500+034170FM-12+007299999V0201201N004010075019N0250001N1+01921+01341100911ADDAA199000091GF106991061031008001001001KA1999N+01771MD1810011+9999REMSYN070AAXX  29061 33990 32575 61204 10192 20134 40091 58001 86300 333 20177;EQDQ01  00002PRCP99
0112339900999992000082909004+44500+034170FM-12+007299999V0203401N005010120019N0250001N1+02141+01341100881ADDGF107991071081008001001001MD1810021+9999REMSYN060AAXX  29091 33990 42575 73405 10214 20134 40088 58002 87800;
0133339900999992000082912004+44500+034170FM-12+007299999V0203601N004010075019N0260001N1+02121+01261100901ADDGF106991061031008001001001MA1999999100071MD1310021+9999REMSYN066AAXX  29121 33990 42576 63604 10212 20126 30007 40090 53002 86300;
0112339900999992000082915004+44500+034170FM-12+007299999V0203601N006010120019N0280001N1+02001+01181100951ADDGF106991061081008001001001MD1210041+9999REMSYN060AAXX  29151 33990 42578 63606 10200 20118 40095 52004 86800;
0165339900999992000082918004+44500+034170FM-12+007299999V0203601N004010120019N0250001N1+01921+01261101011ADDAA199000091GF107991071081008001001001KA1999M+02291MD1210061+9999REMSYN070AAXX  29181 33990 32575 73604 10192 20126 40101 52006 87800 333 10229;EQDQ01  00002PRCP99
0112339900999992000082921004+44500+034170FM-12+007299999V0203201N003010075019N0220001N1+01821+01341100961ADDGF106991061051008001001001MD1810051+9999REMSYN060AAXX  29211 33990 42572 63203 10182 20134 40096 58005 86500;
0133339900999992000083000004+44500+034170FM-12+007299999V0200301N002012200019N0220001N1+01801+01281100841ADDGF103991031051008001001001MA1999999100001MD1710121+9999REMSYN066AAXX  30001 33990 42572 30302 10180 20128 30000 40084 57012 83500;
0138339900999992000083003004+44500+034170FM-12+007299999V0203401N002010075019N0200001N1+01821+01171100721ADDGF107991061091008001041001MD1710121+9999REMSYN086AAXX  30031 33990 42570 73402 10182 20117 40072 57012 86940 333 55046 555 20178 7000/;
0165339900999992000083006004+44500+034170FM-12+007299999V0200501N001010360019N0180001N1+01971+01221100711ADDAA199000091GF108991021091008001031011KA1999N+01781MD1610011+9999REMSYN070AAXX  30061 33990 32568 80501 10197 20122 40071 56001 82931 333 20178;EQDQ01  00002PRCP99
0112339900999992000083009004+44500+034170FM-12+007299999V0203001N002010360019N0250001N1+02251+01311100711ADDGF108991021031008001031011MD1310011+9999REMSYN060AAXX  30091 33990 42575 83002 10225 20131 40071 53001 82331;
0133339900999992000083012004+44500+034170FM-12+007299999V0200401N002010075019N0350001N1+02091+01261100751ADDGF108991061041008001001011MA1999999099921MD1110041+9999REMSYN066AAXX  30121 33990 42581 80402 10209 20126 39992 40075 51004 86401;
0112339900999992000083015004+44500+034170FM-12+007299999V0203601N002010075019N0350001N1+01911+01251100841ADDGF108991081091008001999999MD1210081+9999REMSYN060AAXX  30151 33990 42581 83602 10191 20125 40084 52008 889//;
0165339900999992000083018004+44500+034170FM-12+007299999V0203601N005010075019N0300001N1+01871+01101100951ADDAA199000091GF106991061041008001001001KA1999M+02361MD1010111+9999REMSYN070AAXX  30181 33990 32580 63605 10187 20110 40095 50011 86400 333 10236;EQDQ01  00002PRCP99
0112339900999992000083021004+44500+034170FM-12+007299999V0201001N005010360019N0350001N1+01901+01151101011ADDGF106991041041008001041001MD1310061+9999REMSYN060AAXX  30211 33990 42581 61005 10190 20115 40101 53006 84440;
0133339900999992000083100004+44500+034170FM-12+007299999V0200201N007019999999N0350001N1+01921+01121101011ADDGF105991051001999999041001MA1999999100171MD1510001+9999REMSYN066AAXX  31001 33990 42981 50207 10192 20112 30017 40101 55000 85040;
0138339900999992000083103004+44500+034170FM-12+007299999V0201201N002010360019N0290001N1+01951+01041101061ADDGF106991021091008001031001MD1210051+9999REMSYN086AAXX  31031 33990 42579 61202 10195 20104 40106 52005 82930 333 55022 555 20187 7000/;
0165339900999992000083106004+44500+034170FM-12+007299999V0203601N003010120019N0300001N1+02061+00951101161ADDAA199000091GF107991051021012501041001KA1999N+01871MD1210101+9999REMSYN070AAXX  31061 33990 32680 73603 10206 20095 40116 52010 85240 333 20187;EQDQ01  00002PRCP99
0080339900999992000083109004+44500+034170FM-12+007299999V0203201N009019999999N0230001N1+01101+99999999999ADDGF106991999999004501999999REMSYN042AAXX  31091 33990 42473 63209 10110 200//;
0133339900999992000083112004+44500+034170FM-12+007299999V0200501N002010360019N0250001N1+02352+01121101221ADDGF105991031021012501041001MA1999999100391MD1210011+9999REMSYN066AAXX  31121 33990 42675 50502 10235 20112 30039 40122 52001 83240;
0112339900999992000083115004+44500+034170FM-12+007299999V0203201N001012200019N0250001N1+02241+01021101301ADDGF102991021031012501001001MD1210081+9999REMSYN060AAXX  31151 33990 42675 23201 10224 20102 40130 52008 82300;
0165339900999992000083118004+44500+034170FM-12+007299999V0202701N001012200019N0210001N1+01901+01031101381ADDAA199000091GF101991011011012501001001KA1999M+02581MD1210061+9999REMSYN070AAXX  31181 33990 32671 12701 10190 20103 40138 52006 81100 333 10258;EQDQ01  00002PRCP99
0122339900999992000083121004+44500+034170FM-12+007299999V0203001N002012200019N0200001N1+01861+00881101381ADDGA1001+999999999GF100991001001999999001001MD1410001+9999REMSYN054AAXX  31211 33990 42970 03002 10186 20088 40138 54000;
0143339900999992000090100004+44500+034170FM-12+007299999V0202701N002012200019N0200001N1+01721+00701101321ADDGA1001+999999999GF100991001001999999001001MA1999999100481MD1810051+9999REMSYN060AAXX  01001 33990 42970 02702 10172 20070 30048 40132 58005;
0165339900999992000090106004+44500+034170FM-12+007299999V0200801N002012200019N0260001N1+02351+01191101411ADDAA199000091GF101991011021012501001001KA1999N+01691MD1210081+9999REMSYN070AAXX  01061 33990 32676 10802 10235 20119 40141 52008 81200 333 20169;EQDQ01  00002PRCP99
0112339900999992000090109004+44500+034170FM-12+007299999V0201301N003012200019N0270001N1+02531+01461101381ADDGF104991041031012501001001MD1810031+9999REMSYN060AAXX  01091 33990 42677 41303 10253 20146 40138 58003 84300;
0133339900999992000090112004+44500+034170FM-12+007299999V0201201N002012200019N0260001N1+02391+01451101361ADDGF103991031021012501001001MA1999999100531MD1710021+9999REMSYN066AAXX  01121 33990 42676 31202 10239 20145 30053 40136 57002 83200;
0122339900999992000090115004+44500+034170FM-12+007299999V0200901N001012200019N0250001N1+02131+01331101291ADDGA1001+999999999GF100991001001999999001001MD1710071+9999REMSYN054AAXX  01151 33990 42975 00901 10213 20133 40129 57007;
0175339900999992000090118004+44500+034170FM-12+007299999V0203001N001012200019N0220001N1+01881+01351101291ADDAA199000091GA1001+999999999GF100991001001999999001001KA1999M+02571MD1610011+9999REMSYN064AAXX  01181 33990 32972 03001 10188 20135 40129 56001 333 10257;EQDQ01  00002PRCP99
0122339900999992000090121004+44500+034170FM-12+007299999V0202901N002012200019N0220001N1+01841+01291101161ADDGA1001+999999999GF100991001001999999001001MD1810131+9999REMSYN054AAXX  01211 33990 42972 02902 10184 20129 40116 58013;
0133339900999992000090200004+44500+034170FM-12+007299999V0203001N001012200019N0210001N1+01771+01251101021ADDGF102991021001999999031001MA1999999100181MD1710141+9999REMSYN066AAXX  02001 33990 42971 23001 10177 20125 30018 40102 57014 82030;
0138339900999992000090203004+44500+034170FM-12+007299999V0203101N001012200019N0210001N1+01771+01341100851ADDGF104991011051012501031001MD1710171+9999REMSYN086AAXX  02031 33990 42671 43101 10177 20134 40085 57017 81530 333 55101 555 20177 7000/;
0165339900999992000090206004+44500+034170FM-12+007299999V0203401N002010120019N0250001N1+02081+01351100791ADDAA199000091GF107991061081008001031001KA1999N+01761MD1710051+9999REMSYN070AAXX  02061 33990 32575 73402 10208 20135 40079 57005 86830 333 20176;EQDQ01  00002PRCP99
0140339900999992000090209004+44500+034170FM-12+007299999V0200701N003010075019N0230001N1+02191+01521100731ADDAY181031AY221031GF107991061091008001031001MD1710061+9999MW1021REMSYN066AAXX  02091 33990 41573 70703 10219 20152 40073 57006 70282 86930;
0161339900999992000090212004+44500+034170FM-12+007299999V0200701N002010075019N0230001N1+02231+01591100741ADDAY181061AY221061GF108991081091008001999999MA1999999099911MD1310011+9999MW1801REMSYN072AAXX  02121 33990 41573 80702 10223 20159 39991 40074 53001 78082 889//;
0112339900999992000090215004+44500+034170FM-12+007299999V0200501N002010075019N0220001N1+02181+01591100641ADDGF108991081091008001999999MD1810101+9999REMSYN060AAXX  02151 33990 42572 80502 10218 20159 40064 58010 889//;
0152339900999992000090218004+44500+034170FM-12+007299999V0203201N001010075019N0180001N1+02021+01711100641ADDAA112000791GF107991071051008001001001KA1999M+02431MD1710011+9999REMSYN076AAXX  02181 33990 12568 73201 10202 20171 40064 57001 69902 87500 333 10243;
0140339900999992000090221004+44500+034170FM-12+007299999V0200701N002010075019N0180001N1+01981+01641100631ADDAY121031AY221031GF107991061091008001031001MD1710011+9999MW1131REMSYN066AAXX  02211 33990 41568 70702 10198 20164 40063 57001 71322 86930;
0161339900999992000090300004+44500+034170FM-12+007299999V0202701N001012200019N0150001N1+01801+01621100531ADDAY191061AY281061GF101991011051008001001001MA1999999099691MD1710101+9999MW1021REMSYN072AAXX  03001 33990 41565 12701 10180 20162 39969 40053 57010 70298 81500;
0138339900999992000090303004+44500+034170FM-12+007299999V0202901N001012200019N0180001N1+01761+01331100581ADDGF102991011051008001031001MD1310051+9999REMSYN086AAXX  03031 33990 42568 22901 10176 20133 40058 53005 81530 333 55021 555 20176 7995/;
0152339900999992000090306004+44500+034170FM-12+007299999V0201401N001010075019N0230001N1+02101+01601100651ADDAA112000591GF107991071051008001001001KA1999N+01761MD1210081+9999REMSYN076AAXX  03061 33990 12573 71401 10210 20160 40065 52008 69952 87500 333 20176;
0112339900999992000090309004+44500+034170FM-12+007299999V0203301N002010360019N0300001N1+02771+01421100691ADDGF106991021021008001031001MD1110061+9999REMSYN060AAXX  03091 33990 42580 63302 10277 20142 40069 51006 82230;
0133339900999992000090312004+44500+034170FM-12+007299999V0202401N002010120019N0350001N1+02751+01241100701ADDGF105991051021012501001001MA1999999099891MD1210011+9999REMSYN066AAXX  03121 33990 42681 52402 10275 20124 39989 40070 52001 85200;
0112339900999992000090315004+44500+034170FM-12+007299999V0203101N002012200019N0200001N1+02391+01741100761ADDGF102991021011012501001001MD1210041+9999REMSYN060AAXX  03151 33990 42670 23102 10239 20174 40076 52004 82100;
0175339900999992000090318004+44500+034170FM-12+007299999V0201001N001012200019N0270001N1+02121+01321100811ADDAA199000091GA1001+999999999GF100991001001999999001001KA1999M+02771MD1210051+9999REMSYN064AAXX  03181 33990 32977 01001 10212 20132 40081 52005 333 10277;EQDQ01  00002PRCP99
0122339900999992000090321004+44500+034170FM-12+007299999V0202701N001012200019N0250001N1+01901+01151100871ADDGA1001+999999999GF100991001001999999001001MD1210051+9999REMSYN054AAXX  03211 33990 42975 02701 10190 20115 40087 52005;
0143339900999992000090400004+44500+034170FM-12+007299999V0202901N001012200019N0230001N1+01841+01131100941ADDGA1001+999999999GF100991001001999999001001MA1999999100101MD1210071+9999REMSYN060AAXX  04001 33990 42973 02901 10184 20113 30010 40094 52007;
0138339900999992000090403004+44500+034170FM-12+007299999V0203001N001012200019N0190001N1+01841+01331101001ADDGF102991021021012501041001MD1210061+9999REMSYN086AAXX  04031 33990 42669 23001 10184 20133 40100 52006 82240 333 55084 555 20181 7000/;
0175339900999992000090406004+44500+034170FM-12+007299999V0200501N002012200019N0170001N1+02461+01791101091ADDAA199000091GA1001+999999999GF100991001001999999001001KA1999N+01811MD1210101+9999REMSYN064AAXX  04061 33990 32967 00502 10246 20179 40109 52010 333 20181;EQDQ01  00002PRCP99
0131339900999992000090409004+44500+034170FM-12+007299999V0201801N002012200019N0230001N1+02791+01771101702ADDGF102991021021008001001001MD1210031+9999REMSYN060AAXX  04091 33990 42573 21802 10279 20177 40170 52003 82200;EQDQ01+101703APOSLP
0133339900999992000090412004+44500+034170FM-12+007299999V0201501N002012200019N0240001N1+02711+01801101131ADDGF102991021021008001001001MA1999999100321MD1110031+9999REMSYN066AAXX  04121 33990 42574 21502 10271 20180 30032 40113 51003 82200;
0112339900999992000090415004+44500+034170FM-12+007299999V0201701N001012200019N0230001N1+02421+01871101221ADDGF102991021021008001001001MD1310071+9999REMSYN060AAXX  04151 33990 42573 21701 10242 20187 40122 53007 82200;
0175339900999992000090418004+44500+034170FM-12+007299999V0202701N001012200019N0250001N1+02091+01851101311ADDAA199000091GA1001+999999999GF100991001001999999001001KA1999M+02861MD1310091+9999REMSYN064AAXX  04181 33990 32975 02701 10209 20185 40131 53009 333 10286;EQDQ01  00002PRCP99
0122339900999992000090421004+44500+034170FM-12+007299999V0202701N001012200019N0280001N1+01961+01801101331ADDGA1001+999999999GF100991001001999999001001MD1310011+9999REMSYN054AAXX  04211 33990 42978 02701 10196 20180 40133 53001;
0143339900999992000090500004+44500+034170FM-12+007299999V0203201N001012200019N0350001N1+01881+01631101351ADDGA1001+999999999GF100991001001999999001001MA1999999100501MD1310011+9999REMSYN060AAXX  05001 33990 42981 03201 10188 20163 30050 40135 53001;
0138339900999992000090503004+44500+034170FM-12+007299999V0202701N001012200019N0280001N1+01831+01491101301ADDGF103991011041008001031011MD1610041+9999REMSYN086AAXX  05031 33990 42578 32701 10183 20149 40130 56004 81431 333 55101 555 20183 7000/;
0165339900999992000090506004+44500+034170FM-12+007299999V0200901N001012200019N0260001N1+02181+01771101331ADDAA199000091GF102991021001999999031001KA1999N+01831MD1310041+9999REMSYN070AAXX  05061 33990 32976 20901 10218 20177 40133 53004 82030 333 20183;EQDQ01  00002PRCP99
0112339900999992000090509004+44500+034170FM-12+007299999V0200801N002019999999N0270001N1+02451+01821101251ADDGF105991001001999999001021MD1810081+9999REMSYN060AAXX  05091 33990 42977 50802 10245 20182 40125 58008 80002;
0143339900999992000090512004+44500+034170FM-12+007299999V0200901N002012200019N0280001N1+02481+01731101101ADDGA1001+999999999GF100991001001999999001001MA1999999100271MD1710151+9999REMSYN060AAXX  05121 33990 42978 00902 10248 20173 30027 40110 57015;
0112339900999992000090515004+44500+034170FM-12+007299999V0200801N001012200019N0220001N1+02241+01691101011ADDGF101991011051012501001001MD1710091+9999REMSYN060AAXX  05151 33990 42672 10801 10224 20169 40101 57009 81500;
0165339900999992000090518004+44500+034170FM-12+007299999V0203001N001012200019N0250001N1+01951+01091100971ADDAA199000091GF103991001001999999001011KA1999M+02541MD1610051+9999REMSYN070AAXX  05181 33990 32975 33001 10195 20109 40097 56005 80001 333 10254;EQDQ01  00002PRCP99
0112339900999992000090521004+44500+034170FM-12+007299999V0202901N001012200019N0240001N1+02031+00821100831ADDGF104991001001999999001011MD1710141+9999REMSYN060AAXX  05211 33990 42974 42901 10203 20082 40083 57014 80001;
0133339900999992000090600004+44500+034170FM-12+007299999V0203101N001012200019N0250001N1+02081+00821100611ADDGF103991001001999999001011MA1999999099771MD1710221+9999REMSYN066AAXX  06001 33990 42975 33101 10208 20082 39977 40061 57022 80001;
0166339900999992000090603004+44500+034170FM-12+007299999V0202901N001010120019N0240001N1+01941+01191100431ADDAY111031AY211031GF108991061091012501071999MD1710181+9999MW1251REMSYN092AAXX  06031 33990 41674 82901 10194 20119 40043 57018 72511 8697/ 333 55088 555 20192 7990/;
0180339900999992000090606004+44500+034170FM-12+007299999V0200401N002010120019N0190001N1+01981+01431100291ADDAA112000591AY181061AY211061GF107991061091012501031001KA1999N+01781MD1810141+9999MW1251REMSYN082AAXX  06061 33990 11669 70402 10198 20143 40029 58014 69962 72581 86930 333 20178;
0161339900999992000090612004+44500+034170FM-12+007299999V0200701N002010075019N0160001N1+02141+02021100201ADDAY191061AY281061GF107991071091008001001001MA1999999099381MD1310021+9999MW1291REMSYN072AAXX  06121 33990 41566 70702 10214 20202 39938 40020 53002 72998 87900;
0112339900999992000090615004+44500+034170FM-12+007299999V0203401N001010360019N0200001N1+02081+01821100151ADDGF106991021021008001031011MD1810051+9999REMSYN060AAXX  06151 33990 42570 63401 10208 20182 40015 58005 82231;
0152339900999992000090618004+44500+034170FM-12+007299999V0202701N002010075019N0200001N1+01861+01511100201ADDAA112008991GF107991071041008001001001KA1999M+02551MD1110041+9999REMSYN076AAXX  06181 33990 12570 72702 10186 20151 40020 51004 60092 87400 333 10255;
0140339900999992000090621004+44500+034170FM-12+007299999V0202701N003012200019N0170001N1+01581+01481100201ADDAY181031AY211031GF102991021031012501001001MD1410001+9999MW1251REMSYN066AAXX  06211 33990 41667 22703 10158 20148 40020 54000 72581 82300;
0161339900999992000090700004+44500+034170FM-12+007299999V0200301N002010120019N0150001N1+01781+01541100071ADDAY181061AY211061GF106991061091012501001001MA1999999099241MD1710131+9999MW1801REMSYN072AAXX  07001 33990 41665 60302 10178 20154 39924 40007 57013 78081 86900;
0166339900999992000090703004+44500+034170FM-12+007299999V0202501N003012200019N0160001N1+01741+01621099991ADDAY181031AY211031GF103991031091008001001001MD1710081+9999MW1251REMSYN092AAXX  07031 33990 41566 32503 10174 20162 49999 57008 72581 83900 333 55030 555 20157 7012/;
0180339900999992000090706004+44500+034170FM-12+007299999V0201901N001012200019N0200001N1+02021+01381100051ADDAA112003091AY181061AY211061GF103991021091008001001091KA1999N+01571MD1310061+9999MW1251REMSYN082AAXX  07061 33990 11570 31901 10202 20138 40005 53006 60032 72581 82909 333 20157;
0112339900999992000090709004+44500+034170FM-12+007299999V0201801N002010120019N0220001N1+01951+01201100231ADDGF107991061091012501051001MD1210181+9999REMSYN060AAXX  07091 33990 42672 71802 10195 20120 40023 52018 86950;
0161339900999992000090712004+44500+034170FM-12+007299999V0202401N001010075019N0220001N1+01981+01391100481ADDAY181061AY211061GF106991051091008001051001MA1999999099641MD1210241+9999MW1251REMSYN072AAXX  07121 33990 41572 62401 10198 20139 39964 40048 52024 72581 85950;
0112339900999992000090715004+44500+034170FM-12+007299999V0202201N002012200019N0250001N1+01931+01041100691ADDGF106991041021012501001041MD1210211+9999REMSYN060AAXX  07151 33990 42675 62202 10193 20104 40069 52021 84204;
0152339900999992000090718004+44500+034170FM-12+007299999V0203001N002012200019N0230001N1+01751+00901100911ADDAA112000391GF102991021001999999041001KA1999M+02191MD1210221+9999REMSYN076AAXX  07181 33990 12973 23002 10175 20090 40091 52022 69932 82040 333 10219;
0122339900999992000090721004+44500+034170FM-12+007299999V0202201N002012200019N0230001N1+01681+00841101041ADDGA1001+999999999GF100991001001999999001001MD1210131+9999REMSYN054AAXX  07211 33990 42973 02202 10168 20084 40104 52013;
0133339900999992000090800004+44500+034170FM-12+007299999V0203101N001019999999N0220001N1+01761+00991101141ADDGF105991051001999999051001MA1999999100301MD1210101+9999REMSYN066AAXX  08001 33990 42972 53101 10176 20099 30030 40114 52010 85050;
0138339900999992000090803004+44500+034170FM-12+007299999V0203301N002012200019N0250001N1+01741+00861101321ADDGF102991021021012501001001MD1210181+9999REMSYN086AAXX  08031 33990 42675 23302 10174 20086 40132 52018 82200 333 55051 555 20165 7997/;
0165339900999992000090806004+44500+034170FM-12+007299999V0200201N002012200019N0350001N1+02101+01071101511ADDAA199000091GF102991021001999999031001KA1999N+01651MD1110201+9999REMSYN070AAXX  08061 33990 32981 20202 10210 20107 40151 51020 82030 333 20165;EQDQ01  00002PRCP99
0112339900999992000090809004+44500+034170FM-12+007299999V0202401N002010120019N0400001N1+02131+00841101671ADDGF106991061051012501001001MD1210161+9999REMSYN060AAXX  08091 33990 42682 62402 10213 20084 40167 52016 86500;
0133339900999992000090812004+44500+034170FM-12+007299999V0201801N002012200019N0400001N1+02311+00771101751ADDGF102991021051012501001001MA1999999100921MD1210081+9999REMSYN066AAXX  08121 33990 42682 21802 10231 20077 30092 40175 52008 82500;
0112339900999992000090815004+44500+034170FM-12+007299999V0203001N002012200019N0350001N1+02011+00821101861ADDGF101991011011012501001001MD1310091+9999REMSYN060AAXX  08151 33990 42681 13002 10201 20082 40186 53009 81100;
0175339900999992000090818004+44500+034170FM-12+007299999V0203001N001012200019N0400001N1+01671+00821102031ADDAA199000091GA1001+999999999GF100991001001999999001001KA1999M+02401MD1310171+9999REMSYN064AAXX  08181 33990 32982 03001 10167 20082 40203 53017 333 10240;EQDQ01  00002PRCP99
0122339900999992000090821004+44500+034170FM-12+007299999V0203301N001012200019N0450001N1+01671+00761102101ADDGA1001+999999999GF100991001001999999001001MD1210071+9999REMSYN054AAXX  08211 33990 42983 03301 10167 20076 40210 52007;
0143339900999992000090900004+44500+034170FM-12+007299999V0202901N001012200019N0400001N1+01631+00851102141ADDGA1001+999999999GF100991001001999999001001MA1999999101291MD1110041+9999REMSYN060AAXX  09001 33990 42982 02901 10163 20085 30129 40214 51004;
0138339900999992000090903004+44500+034170FM-12+007299999V0202401N001010075019N0400001N1+01661+01061102191ADDGF106991061051008001001001MD1310051+9999REMSYN086AAXX  09031 33990 42582 62401 10166 20106 40219 53005 86500 333 55087 555 20155 7000/;
0181339900999992000090906004+44500+034170FM-12+007299999V0201201N001019999999N0350001N1+01821+01141102301ADDAA199000091GF107991999031008001999999KA1999N+01551MD1210111+9999REMSYN070AAXX  09061 33990 32581 71201 10182 20114 40230 52011 883// 333 20155;EQDQ01+000082SCOTLCQ02  00002PRCP99
0112339900999992000090909004+44500+034170FM-12+007299999V0200701N001010075019N0350001N1+02001+01251102411ADDGF107991071031008001001001MD1210101+9999REMSYN060AAXX  09091 33990 42581 70701 10200 20125 40241 52010 87300;
0133339900999992000090912004+44500+034170FM-12+007299999V0200201N002010120019N0350001N1+02051+01151102381ADDGF106991061081008001001001MA1999999101521MD1810031+9999REMSYN066AAXX  09121 33990 42581 60202 10205 20115 30152 40238 58003 86800;
0112339900999992000090915004+44500+034170FM-12+007299999V0201601N001010150019N0280001N1+02011+01361102431ADDGF106991061081012501001001MD1310051+9999REMSYN060AAXX  09151 33990 42678 61601 10201 20136 40243 53005 86800;
0159339900999992000090918004+44500+034170FM-12+007299999V0202901N001010120019N0280001N1+99999+99999102561ADDAA199000091GF106991061051012501001001KA1999M+02231MD1210131+9999REMSYN064AAXX  09181 33990 32678 62901 20117 40256 52013 86500 333 10223;EQDQ01  00002PRCP99
0112339900999992000090921004+44500+034170FM-12+007299999V0202801N002012200019N0290001N1+01711+00931102571ADDGF101991011051012501001001MD1110011+9999REMSYN060AAXX  09211 33990 42679 12802 10171 20093 40257 51001 81500;
0143339900999992000091000004+44500+034170FM-12+007299999V0202901N001012200019N0280001N1+01621+00951102571ADDGA1001+999999999GF100991001001999999001001MA1999999101711MD1410001+9999REMSYN060AAXX  10001 33990 42978 02901 10162 20095 30171 40257 54000;
0156339900999992000091003004+44500+034170FM-12+007299999V0203001N001012200019N0300001N1+01561+00901102541ADDGA1001+999999999GF100991001001999999001001GJ101689MD1810041+9999REMSYN080AAXX  10031 33990 42980 03001 10156 20090 40254 58004 333 55028 555 20155 7000/;
0165339900999992000091006004+44500+034170FM-12+007299999V0200901N002012200019N0280001N1+02121+01241102531ADDAA199000091GF101991011021012501001001KA1999N+01551MD1310021+9999REMSYN070AAXX  10061 33990 32678 10902 10212 20124 40253 53002 81200 333 20155;EQDQ01  00002PRCP99
0112339900999992000091009004+44500+034170FM-12+007299999V0203401N003010360019N0300001N1+02221+01251102531ADDGF106991041081008001031001MD1410001+9999REMSYN060AAXX  10091 33990 42580 63403 10222 20125 40253 54000 84830;
0133339900999992000091012004+44500+034170FM-12+007299999V0201601N002010075019N0300001N1+02261+01301102431ADDGF105991051021008001001001MA1999999101591MD1810101+9999REMSYN066AAXX  10121 33990 42580 51602 10226 20130 30159 40243 58010 85200;
0112339900999992000091015004+44500+034170FM-12+007299999V0202101N002012200019N0300001N1+02021+01401102311ADDGF106991041021008001001011MD1710131+9999REMSYN060AAXX  10151 33990 42580 62102 10202 20140 40231 57013 84201;
0165339900999992000091018004+44500+034170FM-12+007299999V0202901N002012200019N0220001N1+01701+01381102291ADDAA199000091GF101991001001999999001011KA1999M+02431MD1510021+9999REMSYN070AAXX  10181 33990 32972 12902 10170 20138 40229 55002 80001 333 10243;EQDQ01  00002PRCP99
0112339900999992000091021004+44500+034170FM-12+007299999V0202901N002019999999N0230001N1+01621+01311102201ADDGF105991001001999999001011MD1810101+9999REMSYN060AAXX  10211 33990 42973 52902 10162 20131 40220 58010 80001;
0143339900999992000091100004+44500+034170FM-12+007299999V0202901N001012200019N0230001N1+01601+01291102031ADDGA1001+999999999GF100991001001999999001001MA1999999101181MD1710161+9999REMSYN060AAXX  11001 33990 42973 02901 10160 20129 30118 40203 57016;
0138339900999992000091103004+44500+034170FM-12+007299999V0203401N002012200019N0180001N1+01561+01211101871ADDGF101991011051012501001001MD1710171+9999REMSYN086AAXX  11031 33990 42668 13402 10156 20121 40187 57017 81500 333 55104 555 20156 7000/;
0175339900999992000091106004+44500+034170FM-12+007299999V0200901N001012200019N0260001N1+02111+01341101831ADDAA199000091GA1001+999999999GF100991001001999999001001KA1999N+01551MD1710011+9999REMSYN064AAXX  11061 33990 32976 00901 10211 20134 40183 57001 333 20155;EQDQ01  00002PRCP99
0112339900999992000091109004+44500+034170FM-12+007299999V0200901N002012200019N0250001N1+02251+01511101741ADDGF103991031021008001001001MD1710091+9999REMSYN060AAXX  11091 33990 42575 30902 10225 20151 40174 57009 83200;
0133339900999992000091112004+44500+034170FM-12+007299999V0200801N002010075019N0230001N1+02151+01501101591ADDGF106991061021008001001001MA1999999100761MD1710151+9999REMSYN066AAXX  11121 33990 42573 60802 10215 20150 30076 40159 57015 86200;
0112339900999992000091115004+44500+034170FM-12+007299999V0200901N001012200019N0230001N1+01981+01511101401ADDGF101991011021012501001001MD1710211+9999REMSYN060AAXX  11151 33990 42673 10901 10198 20151 40140 57021 81200;
0165339900999992000091118004+44500+034170FM-12+007299999V0202801N001010900019N0180001N1+01841+01501101361ADDAA199000091GF106991021051012501001091KA1999M+02331MD1610041+9999REMSYN070AAXX  11181 33990 32668 62801 10184 20150 40136 56004 82509 333 10233;EQDQ01  00002PRCP99
0112339900999992000091121004+44500+034170FM-12+007299999V0203001N001012200019N0190001N1+01641+01301101211ADDGF103991001001999999001011MD1810141+9999REMSYN060AAXX  11211 33990 42969 33001 10164 20130 40121 58014 80001;
0143339900999992000091200004+44500+034170FM-12+007299999V0203001N001012200019N0190001N1+01601+01291101121ADDGA1001+999999999GF100991001001999999001001MA1999999100271MD1710101+9999REMSYN060AAXX  12001 33990 42969 03001 10160 20129 30027 40112 57010;
0138339900999992000091203004+44500+034170FM-12+007299999V0203101N001019999999N0180001N1+01611+01321101041ADDGF106991041001999999041021MD1710071+9999REMSYN086AAXX  12031 33990 42968 63101 10161 20132 40104 57007 84042 333 55082 555 20157 7000/;
0165339900999992000091206004+44500+034170FM-12+007299999V0203401N001010360019N0240001N1+02001+01411101051ADDAA199000091GF107991021021012501081021KA1999N+01571MD1510001+9999REMSYN070AAXX  12061 33990 32674 73401 10200 20141 40105 55000 82282 333 20157;EQDQ01  00002PRCP99
0112339900999992000091209004+44500+034170FM-12+007299999V0201201N003010360019N0260001N1+02311+01601101021ADDGF107991021021008001031001MD1810011+9999REMSYN060AAXX  12091 33990 42576 71203 10231 20160 40102 58001 82230;
0133339900999992000091212004+44500+034170FM-12+007299999V0201401N003010900019N0280001N1+02391+01431100951ADDGF106991041021012501001021MA1999999100121MD1710071+9999REMSYN066AAXX  12121 33990 42678 61403 10239 20143 30012 40095 57007 84202;
0112339900999992000091215004+44500+034170FM-12+007299999V0201601N001010360019N0260001N1+02171+01501100921ADDGF106991021021012501041021MD1710031+9999REMSYN060AAXX  12151 33990 42676 61601 10217 20150 40092 57003 82242;
0165339900999992000091218004+44500+034170FM-12+007299999V0203601N002019999999N0270001N1+02121+01261101011ADDAA199000091GF107991071001999999031001KA1999M+02481MD1310091+9999REMSYN070AAXX  12181 33990 32977 73602 10212 20126 40101 53009 87030 333 10248;EQDQ01  00002PRCP99
0112339900999992000091221004+44500+034170FM-12+007299999V0203501N002019999999N0270001N1+02101+01311101091ADDGF106991021001999999031011MD1210081+9999REMSYN060AAXX  12211 33990 42977 63502 10210 20131 40109 52008 82031;
0133339900999992000091300004+44500+034170FM-12+007299999V0202901N002012200019N0250001N1+01871+01261101191ADDGF101991011001999999041001MA1999999100351MD1210091+9999REMSYN066AAXX  13001 33990 42975 12902 10187 20126 30035 40119 52009 81040;
0138339900999992000091303004+44500+034170FM-12+007299999V0202901N001012200019N0280001N1+01771+00771101311ADDGF101991011001999999041001MD1210121+9999REMSYN086AAXX  13031 33990 42978 12901 10177 20077 40131 52012 81040 333 55074 555 20171 7000/;
0165339900999992000091306004+44500+034170FM-12+007299999V0200701N003012200019N0260001N1+02131+01171101461ADDAA199000091GF102991001001999999001011KA1999N+01681MD1210161+9999REMSYN070AAXX  13061 33990 32976 20703 10213 20117 40146 52016 80001 333 20168;EQDQ01  00002PRCP99
0122339900999992000091309004+44500+034170FM-12+007299999V0200701N003012200019N0300001N1+02281+01071101571ADDGA1001+999999999GF100991001001999999001001MD1110111+9999REMSYN054AAXX  13091 33990 42980 00703 10228 20107 40157 51011;
0133339900999992000091312004+44500+034170FM-12+007299999V0201301N002010120019N0350001N1+02221+01061101661ADDGF105991051051012501001001MA1999999100831MD1110091+9999REMSYN066AAXX  13121 33990 42681 51302 10222 20106 30083 40166 51009 85500;
0112339900999992000091315004+44500+034170FM-12+007299999V0201401N001012200019N0350001N1+02021+01201101711ADDGF103991031051012501001001MD1210031+9999REMSYN060AAXX  13151 33990 42681 31401 10202 20120 40171 52003 83500;
0175339900999992000091318004+44500+034170FM-12+007299999V0202701N001012200019N0350001N1+01761+01201101811ADDAA199000091GA1001+999999999GF100991001001999999001001KA1999M+02361MD1310101+9999REMSYN064AAXX  13181 33990 32981 02701 10176 20120 40181 53010 333 10236;EQDQ01  00002PRCP99
0122339900999992000091321004+44500+034170FM-12+007299999V0203001N001012200019N0350001N1+01671+01201101861ADDGA1001+999999999GF100991001001999999001001MD1110051+9999REMSYN054AAXX  13211 33990 42981 03001 10167 20120 40186 51005;
0143339900999992000091400004+44500+034170FM-12+007299999V0203101N001012200019N0400001N1+01641+01171101831ADDGA1001+999999999GF100991001001999999001001MA1999999100981MD1810031+9999REMSYN060AAXX  14001 33990 42982 03101 10164 20117 30098 40183 58003;
0138339900999992000091403004+44500+034170FM-12+007299999V0203101N001010120019N0400001N1+01661+01141101781ADDGF106991061051012501001001MD1710051+9999REMSYN086AAXX  14031 33990 42682 63101 10166 20114 40178 57005 86500 333 55097 555 20163 7000/;
0165339900999992000091406004+44500+034170FM-12+007299999V0200901N001012200019N0350001N1+02161+01361101761ADDAA199000091GF102991021011012501001001KA1999N+01631MD1410001+9999REMSYN070AAXX  14061 33990 32681 20901 10216 20136 40176 54000 82100 333 20163;EQDQ01  00002PRCP99
0112339900999992000091409004+44500+034170FM-12+007299999V0201201N003010120019N0290001N1+02321+01301101771ADDGF106991061081008001001011MD1310011+9999REMSYN060AAXX  14091 33990 42579 61203 10232 20130 40177 53001 86801;
0133339900999992000091412004+44500+034170FM-12+007299999V0201501N002012200019N0290001N1+02401+01421101661ADDGF102991021021008001001001MA1999999100831MD1810111+9999REMSYN066AAXX  14121 33990 42579 21502 10240 20142 30083 40166 58011 82200;
0122339900999992000091415004+44500+034170FM-12+007299999V0201801N002012200019N0300001N1+02061+01261101611ADDGA1001+999999999GF100991001001999999001001MD1710071+9999REMSYN054AAXX  14151 33990 42980 01802 10206 20126 40161 57007;
0175339900999992000091418004+44500+034170FM-12+007299999V0202901N001012200019N0250001N1+01741+01251101591ADDAA199000091GA1001+999999999GF100991001001999999001001KA1999M+02471MD1510021+9999REMSYN064AAXX  14181 33990 32975 02901 10174 20125 40159 55002 333 10247;EQDQ01  00002PRCP99
0122339900999992000091421004+44500+034170FM-12+007299999V0202901N002012200019N0250001N1+01721+01231101571ADDGA1001+999999999GF100991001001999999001001MD1810021+9999REMSYN054AAXX  14211 33990 42975 02902 10172 20123 40157 58002;
0143339900999992000091500004+44500+034170FM-12+007299999V0202701N001012200019N0240001N1+01641+01201101491ADDGA1001+999999999GF100991001001999999001001MA1999999100641MD1710081+9999REMSYN060AAXX  15001 33990 42974 02701 10164 20120 30064 40149 57008;
0138339900999992000091503004+44500+034170FM-12+007299999V0202901N002012200019N0220001N1+01601+01221101351ADDGF101991011051012501001001MD1710141+9999REMSYN086AAXX  15031 33990 42672 12902 10160 20122 40135 57014 81500 333 55096 555 20160 7000/;
0175339900999992000091506004+44500+034170FM-12+007299999V0200601N001012200019N0280001N1+02141+01381101381ADDAA199000091GA1001+999999999GF100991001001999999001001KA1999N+01591MD1310051+9999REMSYN064AAXX  15061 33990 32978 00601 10214 20138 40138 53005 333 20159;EQDQ01  00002PRCP99
0112339900999992000091509004+44500+034170FM-12+007299999V0203001N002012200019N0300001N1+02471+01551101261ADDGF102991021011012501001001MD1810121+9999REMSYN060AAXX  15091 33990 42680 23002 10247 20155 40126 58012 82100;
0133339900999992000091512004+44500+034170FM-12+007299999V0202401N002012200019N0300001N1+02571+01631101131ADDGF103991031021012501001001MA1999999100321MD1710111+9999REMSYN066AAXX  15121 33990 42680 32402 10257 20163 30032 40113 57011 83200;
0112339900999992000091515004+44500+034170FM-12+007299999V0202201N002012200019N0300001N1+02251+01351101121ADDGF101991001001999999001011MD1710031+9999REMSYN060AAXX  15151 33990 42980 12202 10225 20135 40112 57003 80001;
0193339900999992000091518004+44500+034170FM-12+007299999V0202501N001010360019N0260001N1+02011+01341101251ADDAA199000091AY111061AY211061GF106991021091012501041011KA1999M+02651MD1310121+9999MW1131REMSYN076AAXX  15181 33990 31676 62501 10201 20134 40125 53012 71311 82941 333 10265;EQDQ01  00002PRCP99
0140339900999992000091521004+44500+034170FM-12+007299999V0202701N001012200019N0190001N1+01801+01441101251ADDAY191031AY281031GF103991031001999999041001MD1010001+9999MW1021REMSYN066AAXX  15211 33990 41969 32701 10180 20144 40125 50000 70298 83040;
0161339900999992000091600004+44500+034170FM-12+007299999V0201801N001012200019N0240001N1+01931+01231101251ADDAY191061AY281061GF102991021001999999041001MA1999999100411MD1510001+9999MW1021REMSYN072AAXX  16001 33990 41974 21801 10193 20123 30041 40125 55000 70298 82040;
0138339900999992000091603004+44500+034170FM-12+007299999V0202101N002010360019N0240001N1+01941+01121101391ADDGF106991041021012501041001MD1210131+9999REMSYN086AAXX  16031 33990 42674 62102 10194 20112 40139 52013 84240 333 55098 555 20174 7996/;
0152339900999992000091606004+44500+034170FM-12+007299999V0203301N002010360019N0270001N1+01941+01031101451ADDAA112000591GF107991041021008001041011KA1999N+01741MD1210061+9999REMSYN076AAXX  16061 33990 12577 73302 10194 20103 40145 52006 69962 84241 333 20174;
0112339900999992000091609004+44500+034170FM-12+007299999V0201501N003010075019N0280001N1+02231+01311101591ADDGF105991051021008001001001MD1210161+9999REMSYN060AAXX  16091 33990 42578 51503 10223 20131 40159 52016 85200;
0133339900999992000091612004+44500+034170FM-12+007299999V0201301N003010075019N0280001N1+02081+01141101681ADDGF106991061031008001001001MA1999999100851MD1110091+9999REMSYN066AAXX  16121 33990 42578 61303 10208 20114 30085 40168 51009 86300;
0112339900999992000091615004+44500+034170FM-12+007299999V0201101N001010120019N0300001N1+01871+01071101761ADDGF106991061021012501001001MD1210061+9999REMSYN060AAXX  16151 33990 42680 61101 10187 20107 40176 52006 86200;
0165339900999992000091618004+44500+034170FM-12+007299999V0200901N005010075019N0280001N1+01781+01121101871ADDAA199000091GF107991071051008001001001KA1999M+02431MD1210111+9999REMSYN070AAXX  16181 33990 32578 70905 10178 20112 40187 52011 87500 333 10243;EQDQ01  00002PRCP99
0112339900999992000091621004+44500+034170FM-12+007299999V0200401N003010075019N0270001N1+01681+00981101881ADDGF107991071051008001001001MD1110011+9999REMSYN060AAXX  16211 33990 42577 70403 10168 20098 40188 51001 87500;
0133339900999992000091700004+44500+034170FM-12+007299999V0203001N001010360019N0270001N1+01541+00941101881ADDGF107991031051008001031001MA1999999101021MD1810011+9999REMSYN066AAXX  17001 33990 42577 73001 10154 20094 30102 40188 58001 83530;
0138339900999992000091703004+44500+034170FM-12+007299999V0203001N001019999999N0280001N1+01441+00801101821ADDGF105991051001999999031001MD1710061+9999REMSYN086AAXX  17031 33990 42978 53001 10144 20080 40182 57006 85030 333 55050 555 20137 7000/;
0165339900999992000091706004+44500+034170FM-12+007299999V0201801N001012200019N0230001N1+01791+00931101821ADDAA199000091GF102991021041012501001001KA1999N+01371MD1110011+9999REMSYN070AAXX  17061 33990 32673 21801 10179 20093 40182 51001 82400 333 20137;EQDQ01  00002PRCP99
0112339900999992000091709004+44500+034170FM-12+007299999V0200901N004012200019N0300001N1+02081+01121101811ADDGF102991021021008001031001MD1810011+9999REMSYN060AAXX  17091 33990 42580 20904 10208 20112 40181 58001 82230;
0133339900999992000091712004+44500+034170FM-12+007299999V0200901N003010075019N0350001N1+01971+01101101791ADDGF106991061051008001001001MA1999999100941MD1710021+9999REMSYN066AAXX  17121 33990 42581 60903 10197 20110 30094 40179 57002 86500;
0112339900999992000091715004+44500+034170FM-12+007299999V0200401N002010120019N0400001N1+01851+01121101701ADDGF106991061051012501001001MD1610091+9999REMSYN060AAXX  17151 33990 42682 60402 10185 20112 40170 56009 86500;
0175339900999992000091718004+44500+034170FM-12+007299999V0202801N001012200019N0400001N1+01631+01031101731ADDAA199000091GA1001+999999999GF100991001001999999001001KA1999M+02171MD1310031+9999REMSYN064AAXX  17181 33990 32982 02801 10163 20103 40173 53003 333 10217;EQDQ01  00002PRCP99
0112339900999992000091721004+44500+034170FM-12+007299999V0203601N002010120019N0350001N1+01711+01021101741ADDGF108991081051012501999999MD1210011+9999REMSYN060AAXX  17211 33990 42681 83602 10171 20102 40174 52001 885//;
0133339900999992000091800004+44500+034170FM-12+007299999V0203101N002010120019N0350001N1+01761+01031101651ADDGF108991081051012501999999MA1999999100801MD1710091+9999REMSYN066AAXX  18001 33990 42681 83102 10176 20103 30080 40165 57009 885//;
0138339900999992000091803004+44500+034170FM-12+007299999V0200201N002010120019N0290001N1+01751+01191101611ADDGF108991081051012501999999MD1610041+9999REMSYN086AAXX  18031 33990 42679 80202 10175 20119 40161 56004 885// 333 55068 555 20153 7000/;
0165339900999992000091806004+44500+034170FM-12+007299999V0203601N001010120019N0250001N1+01941+01281101621ADDAA199000091GF107991071051012501001001KA1999N+01531MD1310011+9999REMSYN070AAXX  18061 33990 32675 73601 10194 20128 40162 53001 87500 333 20153;EQDQ01  00002PRCP99
0112339900999992000091809004+44500+034170FM-12+007299999V0200701N002010120019N0260001N1+02101+01351101591ADDGF107991071051012501001001MD1810011+9999REMSYN060AAXX  18091 33990 42676 70702 10210 20135 40159 58001 87500;
0133339900999992000091812004+44500+034170FM-12+007299999V0201201N001010120019N0250001N1+02141+01461101491ADDGF107991071051012501001001MA1999999100661MD1710101+9999REMSYN066AAXX  18121 33990 42675 71201 10214 20146 30066 40149 57010 87500;
0112339900999992000091815004+44500+034170FM-12+007299999V0201401N001010360019N0250001N1+02081+01561101461ADDGF107991031051012501031091MD1710031+9999REMSYN060AAXX  18151 33990 42675 71401 10208 20156 40146 57003 83539;
0165339900999992000091818004+44500+034170FM-12+007299999V0202901N001010075019N0200001N1+01901+01541101511ADDAA199000091GF106991061051008001001001KA1999M+02211MD1310031+9999REMSYN070AAXX  18181 33990 32570 62901 10190 20154 40151 53003 86500 333 10221;EQDQ01  00002PRCP99
0112339900999992000091821004+44500+034170FM-12+007299999V0202701N001010075019N0240001N1+01901+01511101511ADDGF106991061051008001001001MD1410001+9999REMSYN060AAXX  18211 33990 42574 62701 10190 20151 40151 54000 86500;
0133339900999992000091900004+44500+034170FM-12+007299999V0202901N002012200019N0220001N1+01781+01581101471ADDGF102991021051008001001001MA1999999100621MD1810041+9999REMSYN066AAXX  19001 33990 42572 22902 10178 20158 30062 40147 58004 82500;
0138339900999992000091903004+44500+034170FM-12+007299999V0202301N001012200019N0180001N1+01721+01401101491ADDGF102991011051008001001011MD1310021+9999REMSYN086AAXX  19031 33990 42568 22301 10172 20140 40149 53002 81501 333 55012 555 20172 7000/;
0165339900999992000091906004+44500+034170FM-12+007299999V0201001N001010075019N0160001N1+02111+01721101581ADDAA199000091GF106991051051008001001011KA1999N+01711MD1110111+9999REMSYN070AAXX  19061 33990 32566 61001 10211 20172 40158 51011 85501 333 20171;EQDQ01  00002PRCP99
0112339900999992000091909004+44500+034170FM-12+007299999V0200901N001012200019N0250001N1+02341+01811101601ADDGF102991001001999999001011MD1210021+9999REMSYN060AAXX  19091 33990 42975 20901 10234 20181 40160 52002 80001;
0133339900999992000091912004+44500+034170FM-12+007299999V0201101N001012200019N0180001N1+02401+01871101541ADDGF102991021011008001001001MA1999999100711MD1810061+9999REMSYN066AAXX  19121 33990 42568 21101 10240 20187 30071 40154 58006 82100;
0112339900999992000091915004+44500+034170FM-12+007299999V0201001N001010900019N0120001N1+02191+02191101521ADDGF106991031011012501001091MD1710021+9999REMSYN060AAXX  19151 33990 42662 61001 10219 20219 40152 57002 83109;
0175339900999992000091918004+44500+034170FM-12+007299999V0203501N001012200019N0130001N1+02031+01841101511ADDAA199000091GA1001+999999999GF100991001001999999001001KA1999M+02471MD1710011+9999REMSYN064AAXX  19181 33990 32963 03501 10203 20184 40151 57001 333 10247;EQDQ01  00002PRCP99
0122339900999992000091921004+44500+034170FM-12+007299999V0203001N001012200019N0180001N1+01941+01401101491ADDGA1001+999999999GF100991001001999999001001MD1710041+9999REMSYN054AAXX  19211 33990 42968 03001 10194 20140 40149 57004;
0133339900999992000092000004+44500+034170FM-12+007299999V0202401N001019999999N0180001N1+01921+01401101331ADDGF105991051001999999051001MA1999999100491MD1710151+9999REMSYN066AAXX  20001 33990 42968 52401 10192 20140 30049 40133 57015 85050;
0138339900999992000092003004+44500+034170FM-12+007299999V0203001N001019999999N0160001N1+01971+01671101321ADDGF105991051001999999051001MD1710011+9999REMSYN086AAXX  20031 33990 42966 53001 10197 20167 40132 57001 85050 333 55070 555 20188 7000/;
0165339900999992000092006004+44500+034170FM-12+007299999V0200901N001012200019N0200001N1+02311+01751101301ADDAA199000091GF103991031001999999031001KA1999N+01881MD1810011+9999REMSYN070AAXX  20061 33990 32970 30901 10231 20175 40130 58001 83030 333 20188;EQDQ01  00002PRCP99
0112339900999992000092009004+44500+034170FM-12+007299999V0201201N001010075019N0180001N1+02301+01871101301ADDGF108991051061008001001011MD1410001+9999REMSYN060AAXX  20091 33990 42568 81201 10230 20187 40130 54000 85601;
0133339900999992000092012004+44500+034170FM-12+007299999V0201201N002010900019N0190001N1+02621+01501101241ADDGF105991021021012501041011MA1999999100431MD1810041+9999REMSYN066AAXX  20121 33990 42669 51202 10262 20150 30043 40124 58004 82241;
0112339900999992000092015004+44500+034170FM-12+007299999V0203301N001012200019N0210001N1+02321+01341101331ADDGF102991011021012501041001MD1110071+9999REMSYN060AAXX  20151 33990 42671 23301 10232 20134 40133 51007 81240;
0175339900999992000092018004+44500+034170FM-12+007299999V0203201N001012200019N0270001N1+02051+01211101391ADDAA199000091GA1001+999999999GF100991001001999999001001KA1999M+02731MD1310041+9999REMSYN064AAXX  20181 33990 32977 03201 10205 20121 40139 53004 333 10273;EQDQ01  00002PRCP99
0122339900999992000092021004+44500+034170FM-12+007299999V0203301N001012200019N0290001N1+01991+01141101441ADDGA1001+999999999GF100991001001999999001001MD1110051+9999REMSYN054AAXX  20211 33990 42979 03301 10199 20114 40144 51005;
0143339900999992000092100004+44500+034170FM-12+007299999V0203001N001012200019N0260001N1+01831+01311101431ADDGA1001+999999999GF100991001001999999001001MA1999999100581MD1810011+9999REMSYN060AAXX  21001 33990 42976 03001 10183 20131 30058 40143 58001;
0156339900999992000092103004+44500+034170FM-12+007299999V0202801N001012200019N0270001N1+01771+01361101411ADDGA1001+999999999GF100991001001999999001001GJ103669MD1610021+9999REMSYN080AAXX  21031 33990 42977 02801 10177 20136 40141 56002 333 55061 555 20177 7000/;
0165339900999992000092106004+44500+034170FM-12+007299999V0201501N001012200019N0250001N1+02281+01661101421ADDAA199000091GF102991021001999999031001KA1999N+01771MD1310031+9999REMSYN070AAXX  21061 33990 32975 21501 10228 20166 40142 53003 82030 333 20177;EQDQ01  00002PRCP99
0112339900999992000092109004+44500+034170FM-12+007299999V0202001N001010360019N0260001N1+02431+01811101311ADDGF106991011021012501031011MD1810111+9999REMSYN060AAXX  21091 33990 42676 62001 10243 20181 40131 58011 81231;
0133339900999992000092112004+44500+034170FM-12+007299999V0202101N003012200019N0280001N1+02571+01701101141ADDGF102991011021012501041001MA1999999100331MD1710151+9999REMSYN066AAXX  21121 33990 42678 22103 10257 20170 30033 40114 57015 81240;
0112339900999992000092115004+44500+034170FM-12+007299999V0202001N001012200019N0240001N1+02511+01511101151ADDGF103991021001999999031011MD1610011+9999REMSYN060AAXX  21151 33990 42974 32001 10251 20151 40115 56001 82031;
0165339900999992000092118004+44500+034170FM-12+007299999V0203001N003012200019N0240001N1+02331+01511101221ADDAA199000091GF102991021001999999031001KA1999M+02801MD1310071+9999REMSYN070AAXX  21181 33990 32974 23003 10233 20151 40122 53007 82030 333 10280;EQDQ01  00002PRCP99
0122339900999992000092121004+44500+034170FM-12+007299999V0202401N002012200019N0270001N1+02231+01101101241ADDGA1001+999999999GF100991001001999999001001MD1110021+9999REMSYN054AAXX  21211 33990 42977 02402 10223 20110 40124 51002;
0143339900999992000092200004+44500+034170FM-12+007299999V0202501N001012200019N0240001N1+01971+01401101371ADDGA1001+999999999GF100991001001999999001001MA1999999100521MD1210111+9999REMSYN060AAXX  22001 33990 42974 02501 10197 20140 30052 40137 52011;
0138339900999992000092203004+44500+034170FM-12+007299999V0201501N001019999999N0230001N1+01761+01431101451ADDGF106991031001999999041011MD1210081+9999REMSYN086AAXX  22031 33990 42973 61501 10176 20143 40145 52008 83041 333 55073 555 20176 7000/;
0165339900999992000092206004+44500+034170FM-12+007299999V0201401N002019999999N0280001N1+02011+01231101691ADDAA199000091GF105991001001999999001011KA1999N+01681MD1210241+9999REMSYN070AAXX  22061 33990 32978 51402 10201 20123 40169 52024 80001 333 20168;EQDQ01  00002PRCP99
0112339900999992000092209004+44500+034170FM-12+007299999V0201201N003012200019N0300001N1+02151+01351101761ADDGF103991011011012501001011MD1210091+9999REMSYN060AAXX  22091 33990 42680 31203 10215 20135 40176 52009 81101;
0133339900999992000092212004+44500+034170FM-12+007299999V0201501N002019999999N0300001N1+02101+01351101751ADDGF105991031001999999031011MA1999999100921MD1810011+9999REMSYN066AAXX  22121 33990 42980 51502 10210 20135 30092 40175 58001 83031;
0112339900999992000092215004+44500+034170FM-12+007299999V0200501N001010075019N0300001N1+01861+01331101771ADDGF106991051041008001001011MD1410001+9999REMSYN060AAXX  22151 33990 42580 60501 10186 20133 40177 54000 85401;
0165339900999992000092218004+44500+034170FM-12+007299999V0200701N005010075019N0240001N1+01831+01391101841ADDAA199000091GF107991071051008001001001KA1999M+02191MD1210071+9999REMSYN070AAXX  22181 33990 32574 70705 10183 20139 40184 52007 87500 333 10219;EQDQ01  00002PRCP99
0112339900999992000092221004+44500+034170FM-12+007299999V0200701N003010075019N0240001N1+01701+01271101831ADDGF106991061051008001001001MD1810011+9999REMSYN060AAXX  22211 33990 42574 60703 10170 20127 40183 58001 86500;
0133339900999992000092300004+44500+034170FM-12+007299999V0200501N005010075019N0230001N1+01651+01231101831ADDGF107991071051008001001001MA1999999100981MD1410001+9999REMSYN066AAXX  23001 33990 42573 70505 10165 20123 30098 40183 54000 87500;
0138339900999992000092303004+44500+034170FM-12+007299999V0200501N006012200019N0180001N1+01521+01171101781ADDGF103991021051008001031001MD1810061+9999REMSYN086AAXX  23031 33990 42568 30506 10152 20117 40178 58006 82530 333 55083 555 20152 7000/;
0165339900999992000092306004+44500+034170FM-12+007299999V0201701N005010360019N0180001N1+01591+01121101911ADDAA199000091GF107991021051008001031001KA1999N+01511MD1310141+9999REMSYN070AAXX  23061 33990 32568 71705 10159 20112 40191 53014 82530 333 20151;EQDQ01  00002PRCP99
0112339900999992000092309004+44500+034170FM-12+007299999V0200701N004019999999N0200001N1+01731+01121101701ADDGF106991021001999999031021MD1810211+9999REMSYN060AAXX  23091 33990 42970 60704 10173 20112 40170 58021 82032;
0161339900999992000092312004+44500+034170FM-12+007299999V0200601N005010360019N0170001N1+01781+01281101881ADDAY181061AY221061GF107991031091008001031001MA1999999101031MD1310181+9999MW1021REMSYN072AAXX  23121 33990 41567 70605 10178 20128 30103 40188 53018 70282 83930;
0112339900999992000092315004+44500+034170FM-12+007299999V0200601N007010075019N0160001N1+01621+01201101691ADDGF108991051051008001031999MD1810191+9999REMSYN060AAXX  23151 33990 42566 80607 10162 20120 40169 58019 8553/;
0180339900999992000092318004+44500+034170FM-12+007299999V0200401N005010075019N0150001N1+01551+01141101801ADDAA112000791AY181061AY221061GF108991081091008001999999KA1999M+01861MD1310101+9999MW1021REMSYN082AAXX  23181 33990 11565 80405 10155 20114 40180 53010 69902 70282 889// 333 10186;
0112339900999992000092321004+44500+034170FM-12+007299999V0200701N006010075019N0180001N1+01571+01001101851ADDGF106991061051008001001001MD1210051+9999REMSYN060AAXX  23211 33990 42568 60706 10157 20100 40185 52005 86500;
0133339900999992000092400004+44500+034170FM-12+007299999V0200201N001012200019N0180001N1+01501+01001101691ADDGF103991031051012501001001MA1999999100831MD1810161+9999REMSYN066AAXX  24001 33990 42668 30201 10150 20100 30083 40169 58016 83500;
0166339900999992000092403004+44500+034170FM-12+007299999V0203601N005010075019N0160001N1+01501+00921101651ADDAY111031AY211031GF108991081091008001999999MD1510041+9999MW1251REMSYN092AAXX  24031 33990 41566 83605 10150 20092 40165 55004 72511 889// 333 55005 555 20143 7993/;
0180339900999992000092406004+44500+034170FM-12+007299999V0201601N001019999999N0350001N1+01391+01241101691ADDAA112004191AY191061AY281061GF108991081001999999051999KA1999N+01261MD1310041+9999MW1251REMSYN082AAXX  24061 33990 11981 81601 10139 20124 40169 53004 60042 72598 8805/ 333 20126;
0112339900999992000092409004+44500+034170FM-12+007299999V0200601N004010075019N0300001N1+01681+01231101871ADDGF108991051051008001051999MD1210191+9999REMSYN060AAXX  24091 33990 42580 80604 10168 20123 40187 52019 8555/;
0161339900999992000092412004+44500+034170FM-12+007299999V0200901N003010360019N0260001N1+01631+01191101761ADDAY121061AY221061GF108991031091008001051999MA1999999100911MD1710111+9999MW1801REMSYN072AAXX  24121 33990 41576 80903 10163 20119 30091 40176 57011 78022 8395/;
0140339900999992000092415004+44500+034170FM-12+007299999V0200601N005019999999N0240001N1+01691+01051101751ADDAY181031AY221031GF105991051001999999031001MD1510011+9999MW1021REMSYN066AAXX  24151 33990 42974 50605 10169 20105 40175 55001 70282 85030;
0180339900999992000092418004+44500+034170FM-12+007299999V0200301N001019999999N0300001N1+01581+01101101811ADDAA112000791AY181061AY221061GF106991061001999999031001KA1999M+01841MD1310051+9999MW1021REMSYN082AAXX  24181 33990 11980 60301 10158 20110 40181 53005 69902 70282 86030 333 10184;
0140339900999992000092421004+44500+034170FM-12+007299999V0203601N001010075019N0220001N1+01481+01141101821ADDAY121031AY221031GF108991081091008001999999MD1010011+9999MW1801REMSYN066AAXX  24211 33990 41572 83601 10148 20114 40182 50001 78022 889//;
0193339900999992000092500004+44500+034170FM-12+007299999V0203101N001010075019N0240001N1+01351+01141101751ADDAY181061AY221061GA1081+999999099GF108991081091008001999999MA1999999100891MD1710071+9999MW1021REMSYN088AAXX  25001 33990 41574 83101 10135 20114 30089 40175 57007 70282 889// 333 8893/ 88927;
0138339900999992000092503004+44500+034170FM-12+007299999V0203201N001010120019N0260001N1+01381+01071101661ADDGF105991051051012501001001MD1610091+9999REMSYN086AAXX  25031 33990 42676 53201 10138 20107 40166 56009 85500 333 55024 555 20134 7005/;
0152339900999992000092506004+44500+034170FM-12+007299999V0203001N001010075019N0270001N1+01571+01211101711ADDAA112001091GF107991071051008001001001KA1999N+01341MD1310051+9999REMSYN076AAXX  25061 33990 12577 73001 10157 20121 40171 53005 60012 87500 333 20134;
0140339900999992000092509004+44500+034170FM-12+007299999V0201301N002010075019N0200001N1+01651+01271101721ADDAY181031AY221031GF108991081091008001999999MD1110021+9999MW1801REMSYN066AAXX  25091 33990 41570 81302 10165 20127 40172 51002 78082 889//;
0161339900999992000092512004+44500+034170FM-12+007299999V0201501N002010075019N0210001N1+01721+01291101681ADDAY181061AY221061GF107991071031008001001001MA1999999100831MD1810041+9999MW1251REMSYN072AAXX  25121 33990 41571 71502 10172 20129 30083 40168 58004 72582 87300;
0112339900999992000092515004+44500+034170FM-12+007299999V0202501N001010075019N0230001N1+01701+01091101641ADDGF106991061051008001001001MD1710041+9999REMSYN060AAXX  25151 33990 42573 62501 10170 20109 40164 57004 86500;
0152339900999992000092518004+44500+034170FM-12+007299999V0202401N001010075019N0240001N1+01551+00891101691ADDAA112000191GF107991071051008001001001KA1999M+01871MD1310041+9999REMSYN076AAXX  25181 33990 12574 72401 10155 20089 40169 53004 69912 87500 333 10187;
0112339900999992000092521004+44500+034170FM-12+007299999V0203001N002010075019N0240001N1+01411+00781101691ADDGF105991051051008001001001MD1010001+9999REMSYN060AAXX  25211 33990 42574 53002 10141 20078 40169 50000 85500;
0133339900999992000092600004+44500+034170FM-12+007299999V0202901N002012200019N0250001N1+01391+00771101641ADDGF103991031051008001001001MA1999999100781MD1710051+9999REMSYN066AAXX  26001 33990 42575 32902 10139 20077 30078 40164 57005 83500;
0138339900999992000092603004+44500+034170FM-12+007299999V0203001N001010360019N0260001N1+01341+00621101611ADDGF106991031051008001031001MD1610031+9999REMSYN086AAXX  26031 33990 42576 63001 10134 20062 40161 56003 83530 333 55012 555 20131 7991/;
0165339900999992000092606004+44500+034170FM-12+007299999V0203601N001010360019N0300001N1+01381+00681101611ADDAA199000091GF105991031081008001031001KA1999N+01271MD1410001+9999REMSYN070AAXX  26061 33990 32580 53601 10138 20068 40161 54000 83830 333 20127;EQDQ01  00002PRCP99
0112339900999992000092609004+44500+034170FM-12+007299999V0203401N002012200019N0300001N1+01891+00651101601ADDGF105991031021008001001011MD1410001+9999REMSYN060AAXX  26091 33990 42580 53402 10189 20065 40160 54000 83201;
0179339900999992000092612004+44500+034170FM-12+007299999V0203601N005019999999N0280001N1+01601+00591101611ADDAA199000091GA1091+999999999GF109991091999999999999999MA1999999100751MD1410001+9999REMSYN066AAXX  26121 33990 32578 93605 10160 20059 30075 40161 54000 87800;EQDQ01  00002PRCP99
0112339900999992000092615004+44500+034170FM-12+007299999V0203601N002010360019N0280001N1+01421+00531101621ADDGF107991041051008001031011MD1310011+9999REMSYN060AAXX  26151 33990 42578 73602 10142 20053 40162 53001 84531;
0165339900999992000092618004+44500+034170FM-12+007299999V0203601N005010075019N0270001N1+01261+00611101651ADDAA199000091GF107991071051008001001001KA1999M+01981MD1110031+9999REMSYN070AAXX  26181 33990 32577 73605 10126 20061 40165 51003 87500 333 10198;EQDQ01  00002PRCP99
0112339900999992000092621004+44500+034170FM-12+007299999V0203401N002010075019N0260001N1+01311+00561101651ADDGF107991071051008001001001MD1410001+9999REMSYN060AAXX  26211 33990 42576 73402 10131 20056 40165 54000 87500;
0133339900999992000092700004+44500+034170FM-12+007299999V0202901N001010075019N0260001N1+01341+00581101691ADDGF107991051051008001031001MA1999999100831MD1310041+9999REMSYN066AAXX  27001 33990 42576 72901 10134 20058 30083 40169 53004 85530;
0138339900999992000092703004+44500+034170FM-12+007299999V0203601N004010075019N0250001N1+01381+00621101691ADDGF107991071051008001001001MD1410001+9999REMSYN086AAXX  27031 33990 42575 73604 10138 20062 40169 54000 87500 333 55055 555 20124 7000/;
0165339900999992000092706004+44500+034170FM-12+007299999V0203401N001010075019N0270001N1+01521+00681101841ADDAA199000091GF106991061051008001001001KA1999N+01241MD1310151+9999REMSYN070AAXX  27061 33990 32577 63401 10152 20068 40184 53015 86500 333 20124;EQDQ01  00002PRCP99
0112339900999992000092709004+44500+034170FM-12+007299999V0201001N002012200019N0300001N1+01971+00861102021ADDGF102991021011008001001001MD1110191+9999REMSYN060AAXX  27091 33990 42580 21002 10197 20086 40202 51019 82100;
0133339900999992000092712004+44500+034170FM-12+007299999V0201101N004010075019N0300001N1+01761+00701102041ADDGF107991071051008001001001MA1999999101191MD1210021+9999REMSYN066AAXX  27121 33990 42580 71104 10176 20070 30119 40204 52002 87500;
0112339900999992000092715004+44500+034170FM-12+007299999V0203601N002010075019N0300001N1+01611+00381102061ADDGF105991051021008001001001MD1210011+9999REMSYN060AAXX  27151 33990 42580 53602 10161 20038 40206 52001 85200;
0175339900999992000092718004+44500+034170FM-12+007299999V0200101N002012200019N0250001N1+01311+00411102171ADDAA199000091GA1001+999999999GF100991001001999999001001KA1999M+02001MD1210111+9999REMSYN064AAXX  27181 33990 32975 00102 10131 20041 40217 52011 333 10200;EQDQ01  00002PRCP99
0122339900999992000092721004+44500+034170FM-12+007299999V0202801N001012200019N0270001N1+01191+00271102201ADDGA1001+999999999GF100991001001999999001001MD1110031+9999REMSYN054AAXX  27211 33990 42977 02801 10119 20027 40220 51003;
0143339900999992000092800004+44500+034170FM-12+007299999V0203601N001012200019N0250001N1+01111+00301102191ADDGA1001+999999999GF100991001001999999001001MA1999999101311MD1810031+9999REMSYN060AAXX  28001 33990 42975 03601 10111 20030 30131 40219 58003;
0138339900999992000092803004+44500+034170FM-12+007299999V0203001N001012200019N0250001N1+01121+00271102171ADDGF103991031051999999001031MD1710021+9999REMSYN086AAXX  28031 33990 42975 33001 10112 20027 40217 57002 83503 333 55056 555 20107 7000/;
0165339900999992000092806004+44500+034170FM-12+007299999V0203501N001019999999N0260001N1+01561+00531102191ADDAA199000091GF105991051001999999031001KA1999N+01071MD1310041+9999REMSYN070AAXX  28061 33990 32976 53501 10156 20053 40219 53004 85030 333 20107;EQDQ01  00002PRCP99
0112339900999992000092809004+44500+034170FM-12+007299999V0200601N005012200019N0260001N1+01761+00801102171ADDGF102991021021012501001001MD1810011+9999REMSYN060AAXX  28091 33990 42676 20605 10176 20080 40217 58001 82200;
0133339900999992000092812004+44500+034170FM-12+007299999V0200601N004012200019N0270001N1+01731+00781102141ADDGF103991031021012501001001MA1999999101291MD1710031+9999REMSYN066AAXX  28121 33990 42677 30604 10173 20078 30129 40214 57003 83200;
0112339900999992000092815004+44500+034170FM-12+007299999V0200601N004010120019N0280001N1+01641+00771102091ADDGF106991061051012501001001MD1710051+9999REMSYN060AAXX  28151 33990 42678 60604 10164 20077 40209 57005 86500;
0175339900999992000092818004+44500+034170FM-12+007299999V0200301N003012200019N0270001N1+01401+00651102131ADDAA199000091GA1001+999999999GF100991001001999999001001KA1999M+01861MD1310031+9999REMSYN064AAXX  28181 33990 32977 00303 10140 20065 40213 53003 333 10186;EQDQ01  00002PRCP99
0112339900999992000092821004+44500+034170FM-12+007299999V0202501N001012200019N0260001N1+01221+00501102121ADDGF102991021001999999031001MD1810011+9999REMSYN060AAXX  28211 33990 42976 22501 10122 20050 40212 58001 82030;
0143339900999992000092900004+44500+034170FM-12+007299999V0203401N002012200019N0260001N1+01271+00591102011ADDGA1001+999999999GF100991001001999999001001MA1999999101151MD1710111+9999REMSYN060AAXX  29001 33990 42976 03402 10127 20059 30115 40201 57011;
0156339900999992000092903004+44500+034170FM-12+007299999V0200401N002012200019N0270001N1+01311+00591101911ADDGA1001+999999999GF100991001001999999001001GJ104149MD1710101+9999REMSYN080AAXX  29031 33990 42977 00402 10131 20059 40191 57010 333 55069 555 20115 7000/;
0175339900999992000092906004+44500+034170FM-12+007299999V0200601N003012200019N0230001N1+01731+00681101831ADDAA199000091GA1001+999999999GF100991001001999999001001KA1999N+01151MD1810061+9999REMSYN064AAXX  29061 33990 32973 00603 10173 20068 40183 58006 333 20115;EQDQ01  00002PRCP99
0122339900999992000092909004+44500+034170FM-12+007299999V0200601N005012200019N0250001N1+01931+01061101811ADDGA1001+999999999GF100991001001999999001001MD1810031+9999REMSYN054AAXX  29091 33990 42975 00605 10193 20106 40181 58003;
0143339900999992000092912004+44500+034170FM-12+007299999V0200901N004012200019N0260001N1+01971+00951101751ADDGA1001+999999999GF100991001001999999001001MA1999999100901MD1710061+9999REMSYN060AAXX  29121 33990 42976 00904 10197 20095 30090 40175 57006;
0122339900999992000092915004+44500+034170FM-12+007299999V0200601N005012200019N0280001N1+01751+01061101791ADDGA1001+999999999GF100991001001999999001001MD1210041+9999REMSYN054AAXX  29151 33990 42978 00605 10175 20106 40179 52004;
0175339900999992000092918004+44500+034170FM-12+007299999V0203201N001012200019N0300001N1+01521+00821101901ADDAA199000091GA1001+999999999GF100991001001999999001001KA1999M+02021MD1210101+9999REMSYN064AAXX  29181 33990 32980 03201 10152 20082 40190 52010 333 10202;EQDQ01  00002PRCP99
0122339900999992000092921004+44500+034170FM-12+007299999V0203401N001012200019N0400001N1+01451+00741101891ADDGA1001+999999999GF100991001001999999001001MD1810011+9999REMSYN054AAXX  29211 33990 42982 03401 10145 20074 40189 58001;
0143339900999992000093000004+44500+034170FM-12+007299999V0202901N001012200019N0400001N1+01301+00681101931ADDGA1001+999999999GF100991001001999999001001MA1999999101071MD1110041+9999REMSYN060AAXX  30001 33990 42982 02901 10130 20068 30107 40193 51004;
0156339900999992000093003004+44500+034170FM-12+007299999V0202401N002012200019N0450001N1+01241+00731101991ADDGA1001+999999999GF100991001001999999001001GJ105169MD1210061+9999REMSYN080AAXX  30031 33990 42983 02402 10124 20073 40199 52006 333 55086 555 20115 7000/;
0165339900999992000093006004+44500+034170FM-12+007299999V0200701N001012200019N0300001N1+01761+00921102061ADDAA199000091GF101991011051008001001001KA1999N+01131MD1310081+9999REMSYN070AAXX  30061 33990 32580 10701 10176 20092 40206 53008 81500 333 20113;EQDQ01  00002PRCP99
0112339900999992000093009004+44500+034170FM-12+007299999V0200901N005012200019N0280001N1+01841+01131102131ADDGF104991041081008001001001MD1210071+9999REMSYN060AAXX  30091 33990 42578 40905 10184 20113 40213 52007 84800;
0133339900999992000093012004+44500+034170FM-12+007299999V0201101N003010075019N0280001N1+01801+01121102191ADDGF107991071051008001001001MA1999999101341MD1210061+9999REMSYN066AAXX  30121 33990 42578 71103 10180 20112 30134 40219 52006 87500;
0112339900999992000093015004+44500+034170FM-12+007299999V0200701N004010075019N0240001N1+01601+01181102221ADDGF108991081051008001999999MD1210031+9999REMSYN060AAXX  30151 33990 42574 80704 10160 20118 40222 52003 885//;
0165339900999992000093018004+44500+034170FM-12+007299999V0200501N002010075019N0250001N1+01601+01071102261ADDAA199000091GF107991071051008001001001KA1999M+01981MD1110041+9999REMSYN070AAXX  30181 33990 32575 70502 10160 20107 40226 51004 87500 333 10198;EQDQ01  00002PRCP99
0112339900999992000093021004+44500+034170FM-12+007299999V0200701N002010075019N0250001N1+01681+01091102261ADDGF107991071051008001001001MD1410001+9999REMSYN060AAXX  30211 33990 42575 70702 10168 20109 40226 54000 87500;
0133339900999992000100100004+44500+034170FM-12+007299999V0200501N005012200019N0250001N1+01601+00851102281ADDGF103991031051008001001001MA1999999101421MD1310011+9999REMSYN066AAXX  01001 33990 42575 30505 10160 20085 30142 40228 53001 83500;
0138339900999992000100103004+44500+034170FM-12+007299999V0200901N002012200019N0260001N1+01441+00821102281ADDGF101991011051008001001001MD1410001+9999REMSYN086AAXX  01031 33990 42576 10902 10144 20082 40228 54000 81500 333 55066 555 20144 7000/;
0165339900999992000100106004+44500+034170FM-12+007299999V0200601N006012200019N0300001N1+01951+00931102331ADDAA199000091GF101991011051008001001001KA1999N+01331MD1310061+9999REMSYN070AAXX  01061 33990 32580 10606 10195 20093 40233 53006 81500 333 20133;EQDQ01  00002PRCP99
0122339900999992000100109004+44500+034170FM-12+007299999V0200801N006012200019N0350001N1+01941+00821102381ADDGA1001+999999999GF100991001001999999001001MD1210041+9999REMSYN054AAXX  01091 33990 42981 00806 10194 20082 40238 52004;
0143339900999992000100112004+44500+034170FM-12+007299999V0200901N004012200019N0350001N1+02041+00891102401ADDGA1001+999999999GF100991001001999999001001MA1999999101541MD1210021+9999REMSYN060AAXX  01121 33990 42981 00904 10204 20089 30154 40240 52002;
0122339900999992000100115004+44500+034170FM-12+007299999V0200601N006012200019N0300001N1+01781+00991102441ADDGA1001+999999999GF100991001001999999001001MD1210041+9999REMSYN054AAXX  01151 33990 42980 00606 10178 20099 40244 52004;
0175339900999992000100118004+44500+034170FM-12+007299999V0200401N003012200019N0300001N1+01611+00731102571ADDAA199000091GA1001+999999999GF100991001001999999001001KA1999M+02081MD1210121+9999REMSYN064AAXX  01181 33990 32980 00403 10161 20073 40257 52012 333 10208;EQDQ01  00002PRCP99
0122339900999992000100121004+44500+034170FM-12+007299999V0200101N003012200019N0350001N1+01661+00511102561ADDGA1001+999999999GF100991001001999999001001MD1010001+9999REMSYN054AAXX  01211 33990 42981 00103 10166 20051 40256 50000;
0143339900999992000100200004+44500+034170FM-12+007299999V0203501N001012200019N0350001N1+01551+00411102491ADDGA1001+999999999GF100991001001999999001001MA1999999101621MD1710081+9999REMSYN060AAXX  02001 33990 42981 03501 10155 20041 30162 40249 57008;
0156339900999992000100203004+44500+034170FM-12+007299999V0203001N001012200019N0300001N1+01461+00481102531ADDGA1001+999999999GF100991001001999999001001GJ105229MD1310041+9999REMSYN080AAXX  02031 33990 42980 03001 10146 20048 40253 53004 333 55087 555 20141 7000/;
0122339900999992000100209004+44500+034170FM-12+007299999V0200601N006012200019N0350001N1+02051+00501102531ADDGA1001+999999999GF100991001001999999001001MD1110021+9999REMSYN054AAXX  02091 33990 42981 00606 10205 20050 40253 51002;
0143339900999992000100212004+44500+034170FM-12+007299999V0200901N005012200019N0300001N1+01951+00931102481ADDGA1001+999999999GF100991001001999999001001MA1999999101621MD1610051+9999REMSYN060AAXX  02121 33990 42980 00905 10195 20093 30162 40248 56005;
0122339900999992000100215004+44500+034170FM-12+007299999V0200601N003012200019N0280001N1+01871+00701102441ADDGA1001+999999999GF100991001001999999001001MD1710041+9999REMSYN054AAXX  02151 33990 42978 00603 10187 20070 40244 57004;
0175339900999992000100218004+44500+034170FM-12+007299999V0203501N002012200019N0270001N1+01821+00321102471ADDAA199000091GA1001+999999999GF100991001001999999001001KA1999M+02081MD1110031+9999REMSYN064AAXX  02181 33990 32977 03502 10182 20032 40247 51003 333 10208;EQDQ01  00002PRCP99
0122339900999992000100221004+44500+034170FM-12+007299999V0203501N002012200019N0300001N1+01821+00651102471ADDGA1001+999999999GF100991001001999999001001MD1410001+9999REMSYN054AAXX  02211 33990 42980 03502 10182 20065 40247 54000;
0143339900999992000100300004+44500+034170FM-12+007299999V0209999C000012200019N0350001N1+01861+00531102371ADDGA1001+999999999GF100991001001999999001001MA1999999101511MD1710101+9999REMSYN060AAXX  03001 33990 42981 00000 10186 20053 30151 40237 57010;
0156339900999992000100303004+44500+034170FM-12+007299999V0202001N001012200019N0350001N1+01691+00761102331ADDGA1001+999999999GF100991001001999999001001GJ105049MD1610031+9999REMSYN080AAXX  03031 33990 42981 02001 10169 20076 40233 56003 333 55084 555 20161 7000/;
0191339900999992000100306004+44500+034170FM-12+007299999V0200601N004012200019N0280001N1+02211+01131999999ADDAA199000091GA1001+999999999GF100991001001999999001001KA1999N+01611MD1310091+9999REMSYN064AAXX  03061 33990 32978 00604 10221 20113 40124 53009 333 20161;EQDQ01+101243APOSLPQ02  00002PRCP99
0152339900999992000100309004+44500+034170FM-12+007299999V0200701N006012200019N0250001N1+02261+01151102471ADDAA199000091GA1001+999999999GF100991001001999999001001MD1210061+9999REMSYN054AAXX  03091 33990 32975 00706 10226 20115 40247 52006;EQDQ01  00002PRCP99
0143339900999992000100312004+44500+034170FM-12+007299999V0200901N004012200019N0200001N1+02081+01291102441ADDGA1001+999999999GF100991001001999999001001MA1999999101601MD1810031+9999REMSYN060AAXX  03121 33990 42970 00904 10208 20129 30160 40244 58003;
0122339900999992000100315004+44500+034170FM-12+007299999V0203001N002012200019N0200001N1+01941+01261102411ADDGA1001+999999999GF100991001001999999001001MD1710051+9999REMSYN054AAXX  03151 33990 42970 03002 10194 20126 40241 57005;
0175339900999992000100318004+44500+034170FM-12+007299999V0200701N003012200019N0200001N1+02001+01021102391ADDAA199000091GA1001+999999999GF100991001001999999001001KA1999M+02281MD1510021+9999REMSYN064AAXX  03181 33990 32970 00703 10200 20102 40239 55002 333 10228;EQDQ01  00002PRCP99
0122339900999992000100321004+44500+034170FM-12+007299999V0200501N003012200019N0210001N1+02061+01031102401ADDGA1001+999999999GF100991001001999999001001MD1210011+9999REMSYN054AAXX  03211 33990 42971 00503 10206 20103 40240 52001;
0143339900999992000100400004+44500+034170FM-12+007299999V0200701N005012200019N0220001N1+02011+00891102321ADDGA1001+999999999GF100991001001999999001001MA1999999101471MD1810071+9999REMSYN060AAXX  04001 33990 42972 00705 10201 20089 30147 40232 58007;
0156339900999992000100403004+44500+034170FM-12+007299999V0200501N003012200019N0240001N1+01951+00681102281ADDGA1001+999999999GF100991001001999999001001GJ105169MD1710041+9999REMSYN080AAXX  04031 33990 42974 00503 10195 20068 40228 57004 333 55086 555 20193 7000/;
0175339900999992000100406004+44500+034170FM-12+007299999V0200601N006012200019N0300001N1+02171+00771102221ADDAA199000091GA1001+999999999GF100991001001999999001001KA1999N+01911MD1710041+9999REMSYN064AAXX  04061 33990 32980 00606 10217 20077 40222 57004 333 20191;EQDQ01  00002PRCP99
0122339900999992000100409004+44500+034170FM-12+007299999V0200701N007012200019N0350001N1+02221+00861102271ADDGA1001+999999999GF100991001001999999001001MD1310051+9999REMSYN054AAXX  04091 33990 42981 00707 10222 20086 40227 53005;
0143339900999992000100412004+44500+034170FM-12+007299999V0200801N006012200019N0300001N1+02081+01251102171ADDGA1001+999999999GF100991001001999999001001MA1999999101341MD1810101+9999REMSYN060AAXX  04121 33990 42980 00806 10208 20125 30134 40217 58010;
0122339900999992000100415004+44500+034170FM-12+007299999V0200601N006012200019N0270001N1+01901+01051102191ADDGA1001+999999999GF100991001001999999001001MD1510001+9999REMSYN054AAXX  04151 33990 42977 00606 10190 20105 40219 55000;
0175339900999992000100418004+44500+034170FM-12+007299999V0200501N003012200019N0280001N1+01791+00771102191ADDAA199000091GA1001+999999999GF100991001001999999001001KA1999M+02271MD1010001+9999REMSYN064AAXX  04181 33990 32978 00503 10179 20077 40219 50000 333 10227;EQDQ01  00002PRCP99
0122339900999992000100421004+44500+034170FM-12+007299999V0202901N001012200019N0270001N1+01341+00501102151ADDGA1001+999999999GF100991001001999999001001MD1710051+9999REMSYN054AAXX  04211 33990 42977 02901 10134 20050 40215 57005;
0143339900999992000100500004+44500+034170FM-12+007299999V0202801N002012200019N0280001N1+01381+00621102101ADDGA1001+999999999GF100991001001999999001001MA1999999101241MD1710051+9999REMSYN060AAXX  05001 33990 42978 02802 10138 20062 30124 40210 57005;
0156339900999992000100503004+44500+034170FM-12+007299999V0200901N001012200019N0270001N1+01221+00611102051ADDGA1001+999999999GF100991001001999999001001GJ105169MD1710051+9999REMSYN080AAXX  05031 33990 42977 00901 10122 20061 40205 57005 333 55086 555 20122 7000/;
0175339900999992000100506004+44500+034170FM-12+007299999V0201101N001012200019N0300001N1+01761+00761102051ADDAA199000091GA1001+999999999GF100991001001999999001001KA1999N+01141MD1310011+9999REMSYN064AAXX  05061 33990 32980 01101 10176 20076 40205 53001 333 20114;EQDQ01  00002PRCP99
0112339900999992000100509004+44500+034170FM-12+007299999V0200701N004012200019N0260001N1+01821+01211102081ADDGF102991021011012501001001MD1210031+9999REMSYN060AAXX  05091 33990 42676 20704 10182 20121 40208 52003 82100;
0143339900999992000100512004+44500+034170FM-12+007299999V0200801N002012200019N0250001N1+01871+01261102071ADDGA1001+999999999GF100991001001999999001001MA1999999101221MD1810011+9999REMSYN060AAXX  05121 33990 42975 00802 10187 20126 30122 40207 58001;
0122339900999992000100515004+44500+034170FM-12+007299999V0200501N001012200019N0210001N1+01681+01361102031ADDGA1001+999999999GF100991001001999999001001MD1710041+9999REMSYN054AAXX  05151 33990 42971 00501 10168 20136 40203 57004;
0175339900999992000100518004+44500+034170FM-12+007299999V0203001N001012200019N0210001N1+01471+01131102081ADDAA199000091GA1001+999999999GF100991001001999999001001KA1999M+01921MD1310041+9999REMSYN064AAXX  05181 33990 32971 03001 10147 20113 40208 53004 333 10192;EQDQ01  00002PRCP99
0122339900999992000100521004+44500+034170FM-12+007299999V0201001N002012200019N0170001N1+01361+01201102021ADDGA1001+999999999GF100991001001999999001001MD1810061+9999REMSYN054AAXX  05211 33990 42967 01002 10136 20120 40202 58006;
0143339900999992000100600004+44500+034170FM-12+007299999V0203101N001012200019N0210001N1+01501+01001101951ADDGA1001+999999999GF100991001001999999001001MA1999999101091MD1710071+9999REMSYN060AAXX  06001 33990 42971 03101 10150 20100 30109 40195 57007;
0156339900999992000100603004+44500+034170FM-12+007299999V0203001N002012200019N0230001N1+01351+00781101931ADDGA1001+999999999GF100991001001999999001001GJ104989MD1710021+9999REMSYN080AAXX  06031 33990 42973 03002 10135 20078 40193 57002 333 55083 555 20134 7000/;
0165339900999992000100606004+44500+034170FM-12+007299999V0201201N001012200019N0180001N1+01881+01111101901ADDAA199000091GF103991001001999999001021KA1999N+01331MD1710021+9999REMSYN070AAXX  06061 33990 32968 31201 10188 20111 40190 57002 80002 333 20133;EQDQ01  00002PRCP99
0112339900999992000100609004+44500+034170FM-12+007299999V0200701N003012200019N0220001N1+01941+01281101941ADDGF102991001001999999001011MD1110041+9999REMSYN060AAXX  06091 33990 42972 20703 10194 20128 40194 51004 80001;
0143339900999992000100612004+44500+034170FM-12+007299999V0200801N002012200019N0240001N1+01931+01331101891ADDGA1001+999999999GF100991001001999999001001MA1999999101041MD1610051+9999REMSYN060AAXX  06121 33990 42974 00802 10193 20133 30104 40189 56005;
0112339900999992000100615004+44500+034170FM-12+007299999V0200901N002012200019N0210001N1+01721+01351101851ADDGF103991001001999999001011MD1710041+9999REMSYN060AAXX  06151 33990 42971 30902 10172 20135 40185 57004 80001;
0175339900999992000100618004+44500+034170FM-12+007299999V0203001N001012200019N0270001N1+01571+01171101881ADDAA199000091GA1001+999999999GF100991001001999999001001KA1999M+02031MD1110021+9999REMSYN064AAXX  06181 33990 32977 03001 10157 20117 40188 51002 333 10203;EQDQ01  00002PRCP99
0112339900999992000100621004+44500+034170FM-12+007299999V0203201N001012200019N0350001N1+01431+00841101831ADDGF102991001001999999001011MD1810051+9999REMSYN060AAXX  06211 33990 42981 23201 10143 20084 40183 58005 80001;
0143339900999992000100700004+44500+034170FM-12+007299999V0203001N001012200019N0300001N1+01461+00981101741ADDGA1001+999999999GF100991001001999999001001MA1999999100881MD1810091+9999REMSYN060AAXX  07001 33990 42980 03001 10146 20098 30088 40174 58009;
0138339900999992000100703004+44500+034170FM-12+007299999V0200301N001019999999N0350001N1+01451+01051101731ADDGF108991001001999999001011MD1610011+9999REMSYN086AAXX  07031 33990 42981 80301 10145 20105 40173 56001 80001 333 55080 555 20140 7000/;
0165339900999992000100706004+44500+034170FM-12+007299999V0200501N002010900019N0260001N1+01661+01211101721ADDAA199000091GF107991011051008001001021KA1999N+01341MD1410001+9999REMSYN070AAXX  07061 33990 32576 70502 10166 20121 40172 54000 81502 333 20134;EQDQ01  00002PRCP99
0112339900999992000100709004+44500+034170FM-12+007299999V0200601N004019999999N0270001N1+01811+01331101721ADDGF106991001001999999001011MD1410001+9999REMSYN060AAXX  07091 33990 42977 60604 10181 20133 40172 54000 80001;
0133339900999992000100712004+44500+034170FM-12+007299999V0200701N003019999999N0280001N1+01851+01341101711ADDGF106991001001999999001021MA1999999100861MD1810011+9999REMSYN066AAXX  07121 33990 42978 60703 10185 20134 30086 40171 58001 80002;
0112339900999992000100715004+44500+034170FM-12+007299999V0200701N004019999999N0240001N1+01771+01341101671ADDGF106991001001999999001021MD1710041+9999REMSYN060AAXX  07151 33990 42974 60704 10177 20134 40167 57004 80002;
0165339900999992000100718004+44500+034170FM-12+007299999V0200601N006012200019N0270001N1+01871+01101101701ADDAA199000091GF103991001001999999001011KA1999M+01901MD1310031+9999REMSYN070AAXX  07181 33990 32977 30606 10187 20110 40170 53003 80001 333 10190;EQDQ01  00002PRCP99
0112339900999992000100721004+44500+034170FM-12+007299999V0200601N007012200019N0270001N1+01781+00941101701ADDGF104991001001999999001011MD1010001+9999REMSYN060AAXX  07211 33990 42977 40607 10178 20094 40170 50000 80001;
0143339900999992000100800004+44500+034170FM-12+007299999V0200501N004012200019N0250001N1+01511+00861101561ADDGA1001+999999999GF100991001001999999001001MA1999999100701MD1710151+9999REMSYN060AAXX  08001 33990 42975 00504 10151 20086 30070 40156 57015;
0138339900999992000100803004+44500+034170FM-12+007299999V0200401N002012200019N0240001N1+01351+00821101531ADDGF101991011001999999041001MD1510031+9999REMSYN086AAXX  08031 33990 42974 10402 10135 20082 40153 55003 81040 333 55073 555 20132 7000/;
0165339900999992000100806004+44500+034170FM-12+007299999V0200901N005012200019N0230001N1+01431+00941101641ADDAA199000091GF107991021051012501001011KA1999N+01291MD1310111+9999REMSYN070AAXX  08061 33990 32673 70905 10143 20094 40164 53011 82501 333 20129;EQDQ01  00002PRCP99
0112339900999992000100809004+44500+034170FM-12+007299999V0200701N005012200019N0230001N1+01601+01051101621ADDGF103991021001999999061021MD1510021+9999REMSYN060AAXX  08091 33990 42973 30705 10160 20105 40162 55002 82062;
0133339900999992000100812004+44500+034170FM-12+007299999V0200601N005019999999N0200001N1+01701+01541101541ADDGF107991051001999999031011MA1999999100691MD1710071+9999REMSYN066AAXX  08121 33990 42970 70605 10170 20154 30069 40154 57007 85031;
0165339900999992000100818004+44500+034170FM-12+007299999V0200501N003019999999N0200001N1+01381+01131101531ADDAA199000091GF107991071001999999031001KA1999M+01721MD1110061+9999REMSYN070AAXX  08181 33990 32970 70503 10138 20113 40153 51006 87030 333 10172;EQDQ01  00002PRCP99
0112339900999992000100821004+44500+034170FM-12+007299999V0202101N001010360019N0180001N1+01341+01111101411ADDGF107991021051012501031001MD1810121+9999REMSYN060AAXX  08211 33990 42668 72101 10134 20111 40141 58012 82530;
0143339900999992000100900004+44500+034170FM-12+007299999V0202701N001012200019N0200001N1+01221+01111101281ADDGA1001+999999999GF100991001001999999001001MA1999999100431MD1710121+9999REMSYN060AAXX  09001 33990 42970 02701 10122 20111 30043 40128 57012;
0138339900999992000100903004+44500+034170FM-12+007299999V0202801N001019999999N0180001N1+01321+01131101191ADDGF107991071001999999051001MD1710091+9999REMSYN086AAXX  09031 33990 42968 72801 10132 20113 40119 57009 87050 333 55051 555 20122 7000/;
0165339900999992000100906004+44500+034170FM-12+007299999V0203001N001010075019N0180001N1+01421+01221101241ADDAA199000091GF108991081091008001999999KA1999N+01221MD1310051+9999REMSYN070AAXX  09061 33990 32568 83001 10142 20122 40124 53005 889// 333 20122;EQDQ01  00002PRCP99
0140339900999992000100909004+44500+034170FM-12+007299999V0201201N002010075019N0250001N1+01801+01341101251ADDAY181031AY221031GF107991061091008001051001MD1210021+9999MW1021REMSYN066AAXX  09091 33990 41575 71202 10180 20134 40125 52002 70282 86950;
0161339900999992000100912004+44500+034170FM-12+007299999V0201201N002010075019N0250001N1+01681+01301101271ADDAY181061AY221061GF108991051091008001051999MA1999999100431MD1210021+9999MW1021REMSYN072AAXX  09121 33990 41575 81202 10168 20130 30043 40127 52002 70282 8595/;
0140339900999992000100915004+44500+034170FM-12+007299999V0201401N001010042019N0100001N1+01561+01421101301ADDAY181031AY221031GF108991081071004501999999MD1210021+9999MW1501REMSYN066AAXX  09151 33990 41460 81401 10156 20142 40130 52002 75082 887//;
0180339900999992000100918004+44500+034170FM-12+007299999V0201101N001010075019N0100001N1+01501+01411101861ADDAA112001091AY181061AY221061GF108991081091008001999999KA1999M+01801MD1210051+9999MW1801REMSYN082AAXX  09181 33990 11560 81101 10150 20141 40186 52005 60012 78082 889// 333 10180;
0140339900999992000100921004+44500+034170FM-12+007299999V0200901N002010075019N0150001N1+01521+01411101341ADDAY181031AY221031GF105991051091008001001001MD1810011+9999MW1021REMSYN066AAXX  09211 33990 41565 50902 10152 20141 40134 58001 70282 85900;
0180339900999992000101000004+44500+034170FM-12+007299999V0201101N001010360019N0150001N1+01481+01391999999ADDAY181061AY221061GF105991031071008001051001MA1999999101241MD1710101+9999MW1021REMSYN072AAXX  10001 33990 41565 51101 10148 20139 30124 40039 57010 70282 83750;EQDQ01+100393APOSLP
0138339900999992000101003004+44500+034170FM-12+007299999V0203001N001012200019N0150001N1+01411+01331101151ADDGF103991021071008001051001MD1710091+9999REMSYN086AAXX  10031 33990 42565 33001 10141 20133 40115 57009 82750 333 55001 555 20141 7003/;
0152339900999992000101006004+44500+034170FM-12+007299999V0209999C000010120019N0230001N1+01531+01351101161ADDAA112002091GF108991081051012501999999KA1999N+01361MD1310011+9999REMSYN076AAXX  10061 33990 12673 80000 10153 20135 40116 53001 60022 885// 333 20136;
0140339900999992000101009004+44500+034170FM-12+007299999V0200701N003010021019N0140001N1+01531+01461101141ADDAY181031AY221031GF108991081091002501999999MD1810021+9999MW1801REMSYN066AAXX  10091 33990 41364 80703 10153 20146 40114 58002 78082 889//;
0161339900999992000101012004+44500+034170FM-12+007299999V0203001N001010042019N0160001N1+01571+01491100981ADDAY191061AY281061GF108991081091004501999999MA1999999100141MD1210151+9999MW1171REMSYN072AAXX  10121 33990 41466 83001 10157 20149 30014 40098 52015 71798 889//;
0140339900999992000101015004+44500+034170FM-12+007299999V0202801N002010075019N0180001N1+01591+01511100921ADDAY191031AY281031GF108991081091008001999999MD1610061+9999MW1021REMSYN066AAXX  10151 33990 41568 82802 10159 20151 40092 56006 70298 889//;
0180339900999992000101018004+44500+034170FM-12+007299999V0209999C000010360019N0240001N1+01621+01451100951ADDAA112003091AY191061AY281061GF106991031051012501031001KA1999M+01661MD1110031+9999MW1021REMSYN082AAXX  10181 33990 11674 60000 10162 20145 40095 51003 60032 70298 83530 333 10166;
0112339900999992000101021004+44500+034170FM-12+007299999V0203101N002019999999N0270001N1+01531+01391100941ADDGF106991061001999999031001MD1810021+9999REMSYN060AAXX  10211 33990 42977 63102 10153 20139 40094 58002 86030;
0133339900999992000101100004+44500+034170FM-12+007299999V0203101N001012200019N0350001N1+01501+01281100931ADDGF102991011001999999031091MA1999999100081MD1610011+9999REMSYN066AAXX  11001 33990 42981 23101 10150 20128 30008 40093 56001 81039;
0156339900999992000101103004+44500+034170FM-12+007299999V0202601N002012200019N0300001N1+01451+01301100981ADDGA1001+999999999GF100991001001999999001001GJ100009MD1310051+9999REMSYN080AAXX  11031 33990 42980 02602 10145 20130 40098 53005 333 55000 555 20143 7003/;
0165339900999992000101106004+44500+034170FM-12+007299999V0200201N001010360019N0240001N1+01681+01491101101ADDAA199000091GF107991031051008001031021KA1999N+01431MD1210131+9999REMSYN070AAXX  11061 33990 32574 70201 10168 20149 40110 52013 83532 333 20143;EQDQ01  00002PRCP99
0112339900999992000101109004+44500+034170FM-12+007299999V0201201N002010360019N0230001N1+02021+01601101181ADDGF106991041021008001031011MD1210081+9999REMSYN060AAXX  11091 33990 42573 61202 10202 20160 40118 52008 84231;
0133339900999992000101112004+44500+034170FM-12+007299999V0200501N002012200019N0280001N1+02161+01521101151ADDGF102991021021012501001001MA1999999100321MD1810021+9999REMSYN066AAXX  11121 33990 42678 20502 10216 20152 30032 40115 58002 82200;
0112339900999992000101115004+44500+034170FM-12+007299999V0202501N002010360019N0280001N1+01861+01111101331ADDGF106991041041008001041001MD1310171+9999REMSYN060AAXX  11151 33990 42578 62502 10186 20111 40133 53017 84440;
0165339900999992000101118004+44500+034170FM-12+007299999V0202401N001019999999N0260001N1+01681+01141101511ADDAA199000091GF106991061001999999031001KA1999M+02161MD1210171+9999REMSYN070AAXX  11181 33990 32976 62401 10168 20114 40151 52017 86030 333 10216;EQDQ01  00002PRCP99
0112339900999992000101121004+44500+034170FM-12+007299999V0202801N001012200019N0250001N1+01581+01291101611ADDGF102991021001999999041001MD1210101+9999REMSYN060AAXX  11211 33990 42975 22801 10158 20129 40161 52010 82040;
0133339900999992000101200004+44500+034170FM-12+007299999V0203001N001012200019N0210001N1+01471+01361101701ADDGF102991021051008001001001MA1999999100841MD1210081+9999REMSYN066AAXX  12001 33990 42571 23001 10147 20136 30084 40170 52008 82500;
0138339900999992000101203004+44500+034170FM-12+007299999V0202901N001012200019N0210001N1+01381+01121101781ADDGF101991011051008001001001MD1210081+9999REMSYN086AAXX  12031 33990 42571 12901 10138 20112 40178 52008 81500 333 55053 555 20137 7000/;
0165339900999992000101206004+44500+034170FM-12+007299999V0203601N001010075019N0220001N1+01941+01381101921ADDAA199000091GF106991051021008001001011KA1999N+01371MD1210151+9999REMSYN070AAXX  12061 33990 32572 63601 10194 20138 40192 52015 85201 333 20137;EQDQ01  00002PRCP99
0112339900999992000101209004+44500+034170FM-12+007299999V0200701N003010075019N0240001N1+02051+01411102031ADDGF105991051021008001001001MD1210111+9999REMSYN060AAXX  12091 33990 42574 50703 10205 20141 40203 52011 85200;
0113339900999992000101212004+44500+034170FM-12+007299999V0201401N002010075019N0250001N1+01801+01561102061ADDGF107991071021008001001001MA1999999101211REMSYN060AAXX  12121 33990 42575 71402 10180 20156 30121 40206 87200;
0140339900999992000101215004+44500+034170FM-12+007299999V0201201N001010075019N0120001N1+01681+01561102141ADDAY181031AY221031GF108991081091008001999999MD1210081+9999MW1811REMSYN066AAXX  12151 33990 41562 81201 10168 20156 40214 52008 78182 889//;
0180339900999992000101218004+44500+034170FM-12+007299999V0200901N002010075019N0200001N1+01631+01521102261ADDAA112001091AY181061AY221061GF108991081091008001999999KA1999M+02111MD1210121+9999MW1021REMSYN082AAXX  12181 33990 11570 80902 10163 20152 40226 52012 60012 70282 889// 333 10211;
0112339900999992000101221004+44500+034170FM-12+007299999V0200701N002010075019N0200001N1+01571+01431102331ADDGF108991081051008001999999MD1210061+9999REMSYN060AAXX  12211 33990 42570 80702 10157 20143 40233 52006 885//;
0133339900999992000101300004+44500+034170FM-12+007299999V0200601N002010075019N0230001N1+01541+01361102341ADDGF108991081051008001999999MA1999999101481MD1210011+9999REMSYN066AAXX  13001 33990 42573 80602 10154 20136 30148 40234 52001 885//;
0138339900999992000101303004+44500+034170FM-12+007299999V0200401N001010075019N0200001N1+01501+01301102351ADDGF108991081051008001999999MD1210011+9999REMSYN086AAXX  13031 33990 42570 80401 10150 20130 40235 52001 885// 333 55041 555 20150 7001/;
0165339900999992000101306004+44500+034170FM-12+007299999V0200701N001010075019N0200001N1+01551+01331102451ADDAA199000091GF108991081051008001999999KA1999N+01461MD1210091+9999REMSYN070AAXX  13061 33990 32570 80701 10155 20133 40245 52009 885// 333 20146;EQDQ01  00002PRCP99
0112339900999992000101309004+44500+034170FM-12+007299999V0201001N001010075019N0210001N1+01591+01301102491ADDGF108991081051008001999999MD1210051+9999REMSYN060AAXX  13091 33990 42571 81001 10159 20130 40249 52005 885//;
0133339900999992000101312004+44500+034170FM-12+007299999V0201201N001010075019N0230001N1+01571+01241102441ADDGF108991081051008001999999MA1999999101571MD1810061+9999REMSYN066AAXX  13121 33990 42573 81201 10157 20124 30157 40244 58006 885//;
0112339900999992000101315004+44500+034170FM-12+007299999V0200701N004010075019N0230001N1+01521+01171102461ADDGF107991071051008001001001MD1310021+9999REMSYN060AAXX  13151 33990 42573 70704 10152 20117 40246 53002 87500;
0165339900999992000101318004+44500+034170FM-12+007299999V0200701N005019999999N0220001N1+01361+00991102541ADDAA199000091GF106991061001999999051001KA1999M+01641MD1210081+9999REMSYN070AAXX  13181 33990 32972 60705 10136 20099 40254 52008 86050 333 10164;EQDQ01  00002PRCP99
0112339900999992000101321004+44500+034170FM-12+007299999V0200401N003012200019N0300001N1+01241+00651102521ADDGF101991011001999999041001MD1810021+9999REMSYN060AAXX  13211 33990 42980 10403 10124 20065 40252 58002 81040;
0133339900999992000101400004+44500+034170FM-12+007299999V0203001N002012200019N0280001N1+00991+00581102511ADDGF101991011001999999041001MA1999999101621MD1710031+9999REMSYN066AAXX  14001 33990 42978 13002 10099 20058 30162 40251 57003 81040;
0156339900999992000101403004+44500+034170FM-12+007299999V0203201N001012200019N0300001N1+00921+00291102481ADDGA1001+999999999GF100991001001999999001001GJ100009MD1710031+9999REMSYN080AAXX  14031 33990 42980 03201 10092 20029 40248 57003 333 55000 555 20091 7000/;
0185339900999992000101406004+44500+034170FM-12+007299999V0202701N002012200019N0350001N1+01601-00221102441ADDAA199000091GA1001+999999999GF100991001001999999001001KA1120N+00891MD1510021+9999REMSYN074AAXX  14061 33990 32981 02702 10160 21022 40244 55002 333 20089 555 52005;EQDQ01  00002PRCP99
0112339900999992000101409004+44500+034170FM-12+007299999V0200701N006012200019N0350001N1+01751+00671102441ADDGF102991021001999999041001MD1210011+9999REMSYN060AAXX  14091 33990 42981 20706 10175 20067 40244 52001 82040;
0133339900999992000101412004+44500+034170FM-12+007299999V0200601N005012200019N0300001N1+01711+00991102421ADDGF102991021001999999041001MA1999999101561MD1510021+9999REMSYN066AAXX  14121 33990 42980 20605 10171 20099 30156 40242 55002 82040;
0122339900999992000101415004+44500+034170FM-12+007299999V0200601N005012200019N0280001N1+01561+00561102401ADDGA1001+999999999GF100991001001999999001001MD1810031+9999REMSYN054AAXX  14151 33990 42978 00605 10156 20056 40240 58003;
0175339900999992000101418004+44500+034170FM-12+007299999V0203001N003012200019N0350001N1+01321+00611102421ADDAA199000091GA1001+999999999GF100991001001999999001001KA1999M+01851MD1310021+9999REMSYN064AAXX  14181 33990 32981 03003 10132 20061 40242 53002 333 10185;EQDQ01  00002PRCP99
0122339900999992000101421004+44500+034170FM-12+007299999V0202601N002012200019N0400001N1+01051+00381102471ADDGA1001+999999999GF100991001001999999001001MD1110031+9999REMSYN054AAXX  14211 33990 42982 02602 10105 20038 40247 51003;
0143339900999992000101500004+44500+034170FM-12+007299999V0202601N002012200019N0400001N1+00971+00321102401ADDGA1001+999999999GF100991001001999999001001MA1999999101511MD1810071+9999REMSYN060AAXX  15001 33990 42982 02602 10097 20032 30151 40240 58007;
0156339900999992000101503004+44500+034170FM-12+007299999V0202901N001012200019N0400001N1+00861+00251102401ADDGA1001+999999999GF100991001001999999001001GJ104809MD1510001+9999REMSYN080AAXX  15031 33990 42982 02901 10086 20025 40240 55000 333 55080 555 20084 7000/;
0199339900999992000101506004+44500+034170FM-12+007299999V0203601N001012200019N0350001N1+01501+00531102421ADDAA199000091GF102991001001999999001011IA1099IA2999+00509KA1120N+00841MD1310041+9999REMSYN086AAXX  15061 33990 32981 23601 10150 20053 40242 53004 80001 333 20084 555 31005 52005;EQDQ01  00002PRCP99
0122339900999992000101509004+44500+034170FM-12+007299999V0200501N002012200019N0300001N1+01681+01021102421ADDGA1001+999999999GF100991001001999999001001MD1210011+9999REMSYN054AAXX  15091 33990 42980 00502 10168 20102 40242 52001;
0143339900999992000101512004+44500+034170FM-12+007299999V0201501N002012200019N0250001N1+01621+01051102301ADDGA1001+999999999GF100991001001999999001001MA1999999101451MD1810111+9999REMSYN060AAXX  15121 33990 42975 01502 10162 20105 30145 40230 58011;
0122339900999992000101515004+44500+034170FM-12+007299999V0202101N001012200019N0200001N1+01281+01051102311ADDGA1001+999999999GF100991001001999999001001MD1410001+9999REMSYN054AAXX  15151 33990 42970 02101 10128 20105 40231 54000;
0165339900999992000101518004+44500+034170FM-12+007299999V0202701N001012200019N0200001N1+01121+00971102301ADDAA199000091GF102991011001999999041011KA1999M+01721MD1810011+9999REMSYN070AAXX  15181 33990 32970 22701 10112 20097 40230 58001 81041 333 10172;EQDQ01  00002PRCP99
0122339900999992000101521004+44500+034170FM-12+007299999V0200501N001012200019N0240001N1+01121+00881102271ADDGA1001+999999999GF100991001001999999001001MD1710031+9999REMSYN054AAXX  15211 33990 42974 00501 10112 20088 40227 57003;
0143339900999992000101600004+44500+034170FM-12+007299999V0202701N001012200019N0250001N1+01121+00731102221ADDGA1001+999999999GF100991001001999999001001MA1999999101341MD1710071+9999REMSYN060AAXX  16001 33990 42975 02701 10112 20073 30134 40222 57007;
0138339900999992000101603004+44500+034170FM-12+007299999V0203001N001012200019N0230001N1+01101+00431102221ADDGF102991001001999999001011MD1410001+9999REMSYN086AAXX  16031 33990 42973 23001 10110 20043 40222 54000 80001 333 55076 555 20106 7000/;
0175339900999992000101606004+44500+034170FM-12+007299999V0200401N001012200019N0250001N1+01651+01071102291ADDAA199000091GA1001+999999999GF100991001001999999001001KA1999N+01061MD1310101+9999REMSYN064AAXX  16061 33990 32975 00401 10165 20107 40229 53010 333 20106;EQDQ01  00002PRCP99
0112339900999992000101609004+44500+034170FM-12+007299999V0201201N002012200019N0270001N1+01851+01241102251ADDGF101991011001999999041001MD1810041+9999REMSYN060AAXX  16091 33990 42977 11202 10185 20124 40225 58004 81040;
0133339900999992000101612004+44500+034170FM-12+007299999V0201301N002010042019N0240001N1+01691+01331102231ADDGF107991071061004501001001MA1999999101381MD1710021+9999REMSYN066AAXX  16121 33990 42474 71302 10169 20133 30138 40223 57002 87600;
0112339900999992000101615004+44500+034170FM-12+007299999V0201201N001012200019N0210001N1+01551+01311102241ADDGF104991041061004501001001MD1510001+9999REMSYN060AAXX  16151 33990 42471 41201 10155 20131 40224 55000 84600;
0165339900999992000101618004+44500+034170FM-12+007299999V0202901N001010042019N0200001N1+01301+01151102331ADDAA199000091GF106991061061004501001001KA1999M+01951MD1210091+9999REMSYN070AAXX  16181 33990 32470 62901 10130 20115 40233 52009 86600 333 10195;EQDQ01  00002PRCP99
0112339900999992000101621004+44500+034170FM-12+007299999V0203101N002012200019N0200001N1+01291+01061102431ADDGF103991031051008001001001MD1210091+9999REMSYN060AAXX  16211 33990 42570 33102 10129 20106 40243 52009 83500;
0133339900999992000101700004+44500+034170FM-12+007299999V0203001N001012200019N0210001N1+01221+00841102411ADDGF102991021051008001001001MA1999999101541MD1810021+9999REMSYN066AAXX  17001 33990 42571 23001 10122 20084 30154 40241 58002 82500;
0138339900999992000101703004+44500+034170FM-12+007299999V0200601N001010075019N0180001N1+01241+00861102461ADDGF105991051051008001001001MD1310051+9999REMSYN086AAXX  17031 33990 42568 50601 10124 20086 40246 53005 85500 333 55062 555 20122 7000/;
0165339900999992000101706004+44500+034170FM-12+007299999V0200601N003010360019N0220001N1+01281+00771102571ADDAA199000091GF105991031051008001051001KA1999N+01191MD1210111+9999REMSYN070AAXX  17061 33990 32572 50603 10128 20077 40257 52011 83550 333 20119;EQDQ01  00002PRCP99
0112339900999992000101709004+44500+034170FM-12+007299999V0200701N004012200019N0250001N1+01611+00581102601ADDGF103991021051012501051001MD1210031+9999REMSYN060AAXX  17091 33990 42675 30704 10161 20058 40260 52003 82550;
0152339900999992000101712004+44500+034170FM-12+007299999V0200601N002012200019N0250001N1+01541+00711999999ADDGF103991031001999999051001MA1999999101691MD1810041+9999REMSYN066AAXX  17121 33990 42975 30602 10154 20071 30169 4015/ 58004 83050;EQDQ01+101503APOSLP
0112339900999992000101715004+44500+034170FM-12+007299999V0203501N001012200019N0230001N1+01401+00731102541ADDGF103991021051008001041001MD1710021+9999REMSYN060AAXX  17151 33990 42573 33501 10140 20073 40254 57002 82540;
0165339900999992000101718004+44500+034170FM-12+007299999V0200901N002010120019N0210001N1+01291+00761102561ADDAA199000091GF105991051051012501001001KA1999M+01661MD1310021+9999REMSYN070AAXX  17181 33990 32671 50902 10129 20076 40256 53002 85500 333 10166;EQDQ01  00002PRCP99
0112339900999992000101721004+44500+034170FM-12+007299999V0200901N003010075019N0180001N1+01261+00731102561ADDGF106991061051008001001001MD1010001+9999REMSYN060AAXX  17211 33990 42568 60903 10126 20073 40256 50000 86500;
0133339900999992000101800004+44500+034170FM-12+007299999V0201001N002010075019N0200001N1+01201+00581102461ADDGF106991061051008001001001MA1999999101591MD1710101+9999REMSYN066AAXX  18001 33990 42570 61002 10120 20058 30159 40246 57010 86500;
0138339900999992000101803004+44500+034170FM-12+007299999V0203401N001010075019N0190001N1+01161+00581102411ADDGF106991061051008001001001MD1710051+9999REMSYN086AAXX  18031 33990 42569 63401 10116 20058 40241 57005 86500 333 55059 555 20116 7000/;
0181339900999992000101806004+44500+034170FM-12+007299999V0203401N002019999999N0230001N1+01181+00211102441ADDAA199000091GF106991999051008001001001KA1999N+01091MD1310031+9999REMSYN070AAXX  18061 33990 32573 63402 10118 20021 40244 53003 87500 333 20109;EQDQ01+000072SCOTLCQ02  00002PRCP99
0112339900999992000101809004+44500+034170FM-12+007299999V0200801N007012200019N0240001N1+01391+00271102461ADDGF102991021041008001001001MD1110021+9999REMSYN060AAXX  18091 33990 42574 20807 10139 20027 40246 51002 82400;
0133339900999992000101812004+44500+034170FM-12+007299999V0200701N006010120019N0230001N1+01261+00501102461ADDGF106991061051012501001001MA1999999101591MD1410001+9999REMSYN066AAXX  18121 33990 42673 60706 10126 20050 30159 40246 54000 86500;
0112339900999992000101815004+44500+034170FM-12+007299999V0200401N004010120019N0240001N1+01151+00171102571ADDGF106991061051012501001001MD1310091+9999REMSYN060AAXX  18151 33990 42674 60404 10115 20017 40257 53009 86500;
0165339900999992000101818004+44500+034170FM-12+007299999V0200601N001010120019N0350001N1+00921+00171102651ADDAA199000091GF105991051051012501001001KA1999M+01421MD1110081+9999REMSYN070AAXX  18181 33990 32681 50601 10092 20017 40265 51008 85500 333 10142;EQDQ01  00002PRCP99
0112339900999992000101821004+44500+034170FM-12+007299999V0203001N001012200019N0400001N1+00871-00051102641ADDGF102991011041012501031001MD1610011+9999REMSYN060AAXX  18211 33990 42682 23001 10087 21005 40264 56001 81430;
0133339900999992000101900004+44500+034170FM-12+007299999V0202701N002010120019N0350001N1+00761+00061102681ADDGF105991051051012501001001MA1999999101791MD1110041+9999REMSYN066AAXX  19001 33990 42681 52702 10076 20006 30179 40268 51004 85500;
0138339900999992000101903004+44500+034170FM-12+007299999V0200201N002012200019N0350001N1+00811+00151102681ADDGF102991021041012501001001MD1410001+9999REMSYN086AAXX  19031 33990 42681 20202 10081 20015 40268 54000 82400 333 55032 555 20073 7000/;
0199339900999992000101906004+44500+034170FM-12+007299999V0200901N001012200019N0250001N1+01161+00171102721ADDAA199000091GF101991011021012501001001IA1019IA2999+00409KA1120N+00711MD1310041+9999REMSYN086AAXX  19061 33990 32675 10901 10116 20017 40272 53004 81200 333 20071 555 30004 52004;EQDQ01  00002PRCP99
0112339900999992000101909004+44500+034170FM-12+007299999V0200701N005010150019N0200001N1+01271+00301102721ADDGF106991061081012501001001MD1210021+9999REMSYN060AAXX  19091 33990 42670 60705 10127 20030 40272 52002 86800;
0133339900999992000101912004+44500+034170FM-12+007299999V0200601N004010150019N0220001N1+01161+00381102741ADDGF108991081081012501999999MA1999999101871MD1210021+9999REMSYN066AAXX  19121 33990 42672 80604 10116 20038 30187 40274 52002 888//;
0112339900999992000101915004+44500+034170FM-12+007299999V0200701N003012200019N0190001N1+00981+00341102781ADDGF103991031051012501001001MD1210021+9999REMSYN060AAXX  19151 33990 42669 30703 10098 20034 40278 52002 83500;
0165339900999992000101918004+44500+034170FM-12+007299999V0200601N003012200019N0180001N1+00861+00251102871ADDAA199000091GF104991041051012501001001KA1999M+01371MD1210091+9999REMSYN070AAXX  19181 33990 32668 40603 10086 20025 40287 52009 84500 333 10137;EQDQ01  00002PRCP99
0112339900999992000101921004+44500+034170FM-12+007299999V0203601N003019999999N0210001N1+00981+00341102921ADDGF106991061001999999041001MD1210051+9999REMSYN060AAXX  19211 33990 42971 63603 10098 20034 40292 52005 86040;
0133339900999992000102000004+44500+034170FM-12+007299999V0200301N004010075019N0200001N1+01081+00191102891ADDGF108991081051008001999999MA1999999102001MD1810031+9999REMSYN066AAXX  20001 33990 42570 80304 10108 20019 30200 40289 58003 885//;
0138339900999992000102003004+44500+034170FM-12+007299999V0200501N005019999999N0200001N1+01031+00091102901ADDGF107991071001999999031001MD1310011+9999REMSYN086AAXX  20031 33990 42970 70505 10103 20009 40290 53001 87030 333 55053 555 20082 7000/;
0165339900999992000102006004+44500+034170FM-12+007299999V0200501N006010120019N0220001N1+01051+00271102981ADDAA199000091GF106991061051012501001001KA1999N+00821MD1210081+9999REMSYN070AAXX  20061 33990 32672 60506 10105 20027 40298 52008 86500 333 20082;EQDQ01  00002PRCP99
0112339900999992000102009004+44500+034170FM-12+007299999V0200601N007010120019N0240001N1+01111+00401102971ADDGF106991061051012501001001MD1810011+9999REMSYN060AAXX  20091 33990 42674 60607 10111 20040 40297 58001 86500;
0133339900999992000102012004+44500+034170FM-12+007299999V0200501N006012200019N0280001N1+01231+00451102811ADDGF102991011051012501001011MA1999999101941MD1710141+9999REMSYN066AAXX  20121 33990 42678 20506 10123 20045 30194 40281 57014 81501;
0112339900999992000102015004+44500+034170FM-12+007299999V0200601N007012200019N0280001N1+01101+00301102831ADDGF102991021051012501001011MD1510001+9999REMSYN060AAXX  20151 33990 42678 20607 10110 20030 40283 55000 82501;
0165339900999992000102018004+44500+034170FM-12+007299999V0200401N006010120019N0270001N1+01021+00231102951ADDAA199000091GF106991061051012501001001KA1999M+01241MD1210121+9999REMSYN070AAXX  20181 33990 32677 60406 10102 20023 40295 52012 86500 333 10124;EQDQ01  00002PRCP99
0112339900999992000102021004+44500+034170FM-12+007299999V0200301N006012200019N0280001N1+01041+00191102851ADDGF102991021051012501001001MD1810101+9999REMSYN060AAXX  20211 33990 42678 20306 10104 20019 40285 58010 82500;
0133339900999992000102100004+44500+034170FM-12+007299999V0200601N006012200019N0300001N1+01021+00041102811ADDGF102991011051012501001021MA1999999101921MD1110041+9999REMSYN066AAXX  21001 33990 42680 20606 10102 20004 30192 40281 51004 81502;
0138339900999992000102103004+44500+034170FM-12+007299999V0200501N008012200019N0280001N1+00981+00231102781ADDGF105991021051012501001011MD1710031+9999REMSYN086AAXX  21031 33990 42678 50508 10098 20023 40278 57003 82501 333 55050 555 20098 7000/;
0165339900999992000102106004+44500+034170FM-12+007299999V0200601N007012200019N0280001N1+01071+00151102791ADDAA199000091GF107991021051012501001011KA1999N+00971MD1310011+9999REMSYN070AAXX  21061 33990 32678 70607 10107 20015 40279 53001 82501 333 20097;EQDQ01  00002PRCP99
0112339900999992000102109004+44500+034170FM-12+007299999V0200701N007012200019N0300001N1+01321+00231102791ADDGF105991021051012501001011MD1210021+9999REMSYN060AAXX  21091 33990 42680 50707 10132 20023 40279 52002 82501;
0133339900999992000102112004+44500+034170FM-12+007299999V0200801N003019999999N0300001N1+01251+00191102691ADDGF106991001001999999001021MA1999999101821MD1810101+9999REMSYN066AAXX  21121 33990 42980 60803 10125 20019 30182 40269 58010 80002;
0131339900999992000102115004+44500+034170FM-12+007299999V0200401N006019999999N0260001N1+01021+00271999999ADDGF106991031001999999041021MD1310071+9999REMSYN060AAXX  21151 33990 42976 60406 10102 20027 40189 53007 83042;EQDQ01+101893APOSLP
0175339900999992000102118004+44500+034170FM-12+007299999V0200301N004012200019N0210001N1+00741+00151102831ADDAA199000091GA1001+999999999GF100991001001999999001001KA1999M+01351MD1210051+9999REMSYN064AAXX  21181 33990 32971 00304 10074 20015 40283 52005 333 10135;EQDQ01  00002PRCP99
0131339900999992000102121004+44500+034170FM-12+007299999V0200301N004010120019N0230001N1+00951+00191102741ADDGF106991999061012501001001MD1810091+9999REMSYN060AAXX  21211 33990 42673 60304 10095 20019 40274 58009 85600;EQDQ01+000052SCOTLC
0133339900999992000102200004+44500+034170FM-12+007299999V0200501N005010120019N0210001N1+00921+00231102611ADDGF106991061051012501001001MA1999999101721MD1710131+9999REMSYN066AAXX  22001 33990 42671 60505 10092 20023 30172 40261 57013 86500;
0138339900999992000102203004+44500+034170FM-12+007299999V0200601N005010120019N0240001N1+01081+00131102551ADDGF105991051051012501001001MD1710061+9999REMSYN086AAXX  22031 33990 42674 50605 10108 20013 40255 57006 85500 333 55060 555 20074 7000/;
0199339900999992000102206004+44500+034170FM-12+007299999V0200501N006010360019N0240001N1+01161+00211102511ADDAA199000091GF106991021041012501041091IA1019IA2999+00509KA1120N+00741MD1510041+9999REMSYN086AAXX  22061 33990 32674 60506 10116 20021 40251 55004 82449 333 20074 555 30005 52004;EQDQ01  00002PRCP99
0112339900999992000102209004+44500+034170FM-12+007299999V0200701N008019999999N0260001N1+01321+00291102501ADDGF105991051001999999041001MD1010011+9999REMSYN060AAXX  22091 33990 42976 50708 10132 20029 40250 50001 85040;
0133339900999992000102212004+44500+034170FM-12+007299999V0200501N007010120019N0250001N1+01211+00511102411ADDGF108991081051012501999999MA1999999101541MD1810091+9999REMSYN066AAXX  22121 33990 42675 80507 10121 20051 30154 40241 58009 885//;
0112339900999992000102215004+44500+034170FM-12+007299999V0200501N007010120019N0220001N1+01081+00561102421ADDGF108991081051012501999999MD1710011+9999REMSYN060AAXX  22151 33990 42672 80507 10108 20056 40242 57001 885//;
0165339900999992000102218004+44500+034170FM-12+007299999V0200601N008012200019N0300001N1+01071+00451102461ADDAA199000091GF102991021001999999041001KA1999M+01391MD1310041+9999REMSYN070AAXX  22181 33990 32980 20608 10107 20045 40246 53004 82040 333 10139;EQDQ01  00002PRCP99
0122339900999992000102221004+44500+034170FM-12+007299999V0200501N004012200019N0400001N1+01231+00251102351ADDGA1001+999999999GF100991001001999999001001MD1810081+9999REMSYN054AAXX  22211 33990 42982 00504 10123 20025 40235 58008;
0143339900999992000102300004+44500+034170FM-12+007299999V0200701N005012200019N0350001N1+01111+00411102201ADDGA1001+999999999GF100991001001999999001001MA1999999101321MD1710171+9999REMSYN060AAXX  23001 33990 42981 00705 10111 20041 30132 40220 57017;
0156339900999992000102303004+44500+034170FM-12+007299999V0200601N006012200019N0450001N1+01241+00131102131ADDGA1001+999999999GF100991001001999999001001GJ100669MD1710051+9999REMSYN080AAXX  23031 33990 42983 00606 10124 20013 40213 57005 333 55011 555 20106 7000/;
0165339900999992000102306004+44500+034170FM-12+007299999V0200601N008019999999N0300001N1+01181+00481102201ADDAA199000091GF106991001001999999001021KA1999N+01061MD1310071+9999REMSYN070AAXX  23061 33990 32980 60608 10118 20048 40220 53007 80002 333 20106;EQDQ01  00002PRCP99
0112339900999992000102309004+44500+034170FM-12+007299999V0200601N007019999999N0290001N1+01201+00481102181ADDGF107991061001999999071021MD1810021+9999REMSYN060AAXX  23091 33990 42979 70607 10120 20048 40218 58002 86072;
0133339900999992000102312004+44500+034170FM-12+007299999V0200501N005019999999N0300001N1+01371+00431102091ADDGF107991041001999999031021MA1999999101231MD1710091+9999REMSYN066AAXX  23121 33990 42980 70505 10137 20043 30123 40209 57009 84032;
0112339900999992000102315004+44500+034170FM-12+007299999V0200501N009019999999N0280001N1+01221+00501102081ADDGF106991021001999999041021MD1510011+9999REMSYN060AAXX  23151 33990 42978 60509 10122 20050 40208 55001 82042;
0175339900999992000102318004+44500+034170FM-12+007299999V0200401N005012200019N0280001N1+01121+00341102231ADDAA199000091GA1001+999999999GF100991001001999999001001KA1999M+01421MD1210131+9999REMSYN064AAXX  23181 33990 32978 00405 10112 20034 40223 52013 333 10142;EQDQ01  00002PRCP99
0122339900999992000102321004+44500+034170FM-12+007299999V0200601N005012200019N0270001N1+00991+00401102181ADDGA1001+999999999GF100991001001999999001001MD1810051+9999REMSYN054AAXX  23211 33990 42977 00605 10099 20040 40218 58005;
0143339900999992000102400004+44500+034170FM-12+007299999V0200601N002012200019N0280001N1+00931+00191102121ADDGA1001+999999999GF100991001001999999001001MA1999999101241MD1710061+9999REMSYN060AAXX  24001 33990 42978 00602 10093 20019 30124 40212 57006;
0156339900999992000102403004+44500+034170FM-12+007299999V0202501N001012200019N0280001N1+00881+00271102061ADDGA1001+999999999GF100991001001999999001001GJ101929MD1710061+9999REMSYN080AAXX  24031 33990 42978 02501 10088 20027 40206 57006 333 55032 555 20068 7000/;
0175339900999992000102406004+44500+034170FM-12+007299999V0200601N003012200019N0300001N1+01261+00131102051ADDAA199000091GA1001+999999999GF100991001001999999001001KA1999N+00681MD1310011+9999REMSYN064AAXX  24061 33990 32980 00603 10126 20013 40205 53001 333 20068;EQDQ01  00002PRCP99
0122339900999992000102409004+44500+034170FM-12+007299999V0200701N005012200019N0300001N1+01461+00531102051ADDGA1001+999999999GF100991001001999999001001MD1410001+9999REMSYN054AAXX  24091 33990 42980 00705 10146 20053 40205 54000;
0143339900999992000102412004+44500+034170FM-12+007299999V0200501N002012200019N0270001N1+01421+00731102041ADDGA1001+999999999GF100991001001999999001001MA1999999101181MD1810011+9999REMSYN060AAXX  24121 33990 42977 00502 10142 20073 30118 40204 58001;
0097339900999992000102415004+44500+034170FM-12+007299999V0202901N001012200019N0250001N1+01101+00651999999ADDGF103991999999012501999999REMSYN059AAXX  24151 33990 42675 32901 10110 20065 4208 53002 83500;
0165339900999992000102418004+44500+034170FM-12+007299999V0202401N001012200019N0240001N1+00981+00731102091ADDAA199000091GF102991021051012501001001KA1999M+01521MD1210011+9999REMSYN070AAXX  24181 33990 32674 22401 10098 20073 40209 52001 82500 333 10152;EQDQ01  00002PRCP99
0112339900999992000102421004+44500+034170FM-12+007299999V0202701N001010120019N0240001N1+00881+00671102111ADDGF105991051051012501001001MD1210021+9999REMSYN060AAXX  24211 33990 42674 52701 10088 20067 40211 52002 85500;
0143339900999992000102500004+44500+034170FM-12+007299999V0203001N001012200019N0210001N1+00861+00591102031ADDGA1001+999999999GF100991001001999999001001MA1999999101151MD1810081+9999REMSYN060AAXX  25001 33990 42971 03001 10086 20059 30115 40203 58008;
0138339900999992000102503004+44500+034170FM-12+007299999V0203201N002012200019N0210001N1+00801+00431102011ADDGF102991021051012501001001MD1210021+9999REMSYN086AAXX  25031 33990 42671 23202 10080 20043 40201 52002 82500 333 55074 555 20079 7000/;
0199339900999992000102506004+44500+034170FM-12+007299999V0200101N001010900019N0290001N1+01221+00731102051ADDAA199000091GF105991031051012501001021IA1019IA2999+00409KA1120N+00781MD1310061+9999REMSYN086AAXX  25061 33990 32679 50101 10122 20073 40205 53006 83502 333 20078 555 30004 52004;EQDQ01  00002PRCP99
0112339900999992000102509004+44500+034170FM-12+007299999V0201101N003010120019N0290001N1+01401+00891102061ADDGF106991061051012501001001MD1210011+9999REMSYN060AAXX  25091 33990 42679 61103 10140 20089 40206 52001 86500;
0133339900999992000102512004+44500+034170FM-12+007299999V0201701N001012200019N0300001N1+01481+00951101961ADDGF106991021051012501001011MA1999999101101MD1810101+9999REMSYN066AAXX  25121 33990 42680 61701 10148 20095 30110 40196 58010 82501;
0112339900999992000102515004+44500+034170FM-12+007299999V0203401N001012200019N0230001N1+01271+00851101961ADDGF107991021051012501001011MD1510001+9999REMSYN060AAXX  25151 33990 42673 73401 10127 20085 40196 55000 82501;
0175339900999992000102518004+44500+034170FM-12+007299999V0203001N001012200019N0200001N1+01011+00741102031ADDAA199000091GA1001+999999999GF100991001001999999001001KA1999M+01491MD1210051+9999REMSYN064AAXX  25181 33990 32970 03001 10101 20074 40203 52005 333 10149;EQDQ01  00002PRCP99
0122339900999992000102521004+44500+034170FM-12+007299999V0202801N001012200019N0230001N1+00961+00591102061ADDGA1001+999999999GF100991001001999999001001MD1210031+9999REMSYN054AAXX  25211 33990 42973 02801 10096 20059 40206 52003;
0133339900999992000102600004+44500+034170FM-12+007299999V0203001N001012200019N0220001N1+00981+00641102051ADDGF102991021051012501001001MA1999999101171MD1810011+9999REMSYN066AAXX  26001 33990 42672 23001 10098 20064 30117 40205 58001 82500;
0138339900999992000102603004+44500+034170FM-12+007299999V0202901N001012200019N0220001N1+01001+00651102061ADDGF103991031051012501001001MD1310011+9999REMSYN086AAXX  26031 33990 42672 32901 10100 20065 40206 53001 83500 333 55055 555 20096 7000/;
0199339900999992000102606004+44500+034170FM-12+007299999V0203001N001010120019N0220001N1+01131+00681102161ADDAA199000091GF106991061051012501001001IA1019IA2999+00509KA1120N+00961MD1310121+9999REMSYN086AAXX  26061 33990 32672 63001 10113 20068 40216 53012 86500 333 20096 555 30005 52005;EQDQ01  00002PRCP99
0112339900999992000102609004+44500+034170FM-12+007299999V0201601N001012200019N0240001N1+01701+00861102171ADDGF101991011041012501001001MD1210021+9999REMSYN060AAXX  26091 33990 42674 11601 10170 20086 40217 52002 81400;
0133339900999992000102612004+44500+034170FM-12+007299999V0201301N001012200019N0230001N1+01581+00811102111ADDGF101991011041012501001001MA1999999101251MD1810071+9999REMSYN066AAXX  26121 33990 42673 11301 10158 20081 30125 40211 58007 81400;
0112339900999992000102615004+44500+034170FM-12+007299999V0203001N002012200019N0210001N1+01251+00781102161ADDGF102991011041012501041001MD1310051+9999REMSYN060AAXX  26151 33990 42671 23002 10125 20078 40216 53005 81440;
0175339900999992000102618004+44500+034170FM-12+007299999V0202801N001012200019N0220001N1+00981+00731102241ADDAA199000091GA1001+999999999GF100991001001999999001001KA1999M+01711MD1110061+9999REMSYN064AAXX  26181 33990 32972 02801 10098 20073 40224 51006 333 10171;EQDQ01  00002PRCP99
0122339900999992000102621004+44500+034170FM-12+007299999V0203101N002012200019N0250001N1+00961+00711102241ADDGA1001+999999999GF100991001001999999001001MD1410001+9999REMSYN054AAXX  26211 33990 42975 03102 10096 20071 40224 54000;
0143339900999992000102700004+44500+034170FM-12+007299999V0202801N001012200019N0280001N1+00981+00681102231ADDGA1001+999999999GF100991001001999999001001MA1999999101351MD1710011+9999REMSYN060AAXX  27001 33990 42978 02801 10098 20068 30135 40223 57001;
0138339900999992000102703004+44500+034170FM-12+007299999V0202801N001012200019N0290001N1+00961+00641102191ADDGF102991021041012501001001MD1610041+9999REMSYN086AAXX  27031 33990 42679 22801 10096 20064 40219 56004 82400 333 55061 555 20090 7000/;
0199339900999992000102706004+44500+034170FM-12+007299999V0203301N001012200019N0240001N1+01041+00701102221ADDAA199000091GF102991021051012501001001IA1019IA2999+00409KA1120N+00901MD1310031+9999REMSYN086AAXX  27061 33990 32674 23301 10104 20070 40222 53003 82500 333 20090 555 30004 52005;EQDQ01  00002PRCP99
0112339900999992000102709004+44500+034170FM-12+007299999V0200901N002012200019N0250001N1+01721+00921102151ADDGF102991021051012501001001MD1810041+9999REMSYN060AAXX  27091 33990 42675 20902 10172 20092 40215 58004 82500;
0133339900999992000102712004+44500+034170FM-12+007299999V0200901N002012200019N0260001N1+01531+01071102011ADDGF102991021021012501001001MA1999999101151MD1710151+9999REMSYN066AAXX  27121 33990 42676 20902 10153 20107 30115 40201 57015 82200;
0106339900999992000102715004+44500+034170FM-12+007299999V0203201N001019999999N0180001N1+01281+01171101951ADDAY101031GF107991999999008001999999MW1501REMSYN054AAXX  27151 33990 42568 73201 10128 20117 40195 7500/;
0156339900999992000102718004+44500+034170FM-12+007299999V0202701N001012200019N0150001N1+01121+00811101931ADDAA199000021GA1001+999999999GF100991001001999999001001KA1999M+01741MD1710021+9999REMSYN064AAXX  27181 33990 32965 02701 10112 20081 40193 57002 333 10174;
0122339900999992000102721004+44500+034170FM-12+007299999V0202901N001012200019N0200001N1+01121+00621101861ADDGA1001+999999999GF100991001001999999001001MD1710091+9999REMSYN054AAXX  27211 33990 42970 02901 10112 20062 40186 57009;
0133339900999992000102800004+44500+034170FM-12+007299999V0202701N001019999999N0200001N1+01101+00771101811ADDGF106991061001999999031001MA1999999100931MD1710051+9999REMSYN066AAXX  28001 33990 42970 62701 10110 20077 30093 40181 57005 86030;
0138339900999992000102803004+44500+034170FM-12+007299999V0203601N001012200019N0200001N1+01081+00741101741ADDGF103991031001999999041001MD1710071+9999REMSYN086AAXX  28031 33990 42970 33601 10108 20074 40174 57007 83040 333 55052 555 20108 7000/;
0165339900999992000102806004+44500+034170FM-12+007299999V0201101N001010360019N0160001N1+01261+01171101751ADDAA199000091GF107991011061004501031001KA1999N+01081MD1310031+9999REMSYN070AAXX  28061 33990 32466 71101 10126 20117 40175 53003 81630 333 20108;EQDQ01  00002PRCP99
0112339900999992000102809004+44500+034170FM-12+007299999V0201601N001010042019N0200001N1+01381+01211101741ADDGF108991081051004501999999MD1810011+9999REMSYN060AAXX  28091 33990 42470 81601 10138 20121 40174 58001 885//;
0133339900999992000102812004+44500+034170FM-12+007299999V0201301N001010360019N0210001N1+01491+01221101671ADDGF107991031051008001041021MA1999999100811MD1710071+9999REMSYN066AAXX  28121 33990 42571 71301 10149 20122 30081 40167 57007 83542;
0140339900999992000102815004+44500+034170FM-12+007299999V0202201N001010120019N0100001N1+01411+01331101681ADDAY181031AY221031GF108991081091012501999999MD1310011+9999MW1801REMSYN066AAXX  28151 33990 41660 82201 10141 20133 40168 53001 78082 889//;
0180339900999992000102818004+44500+034170FM-12+007299999V0203301N002010042019N0090001N1+01291+01221101751ADDAA112002091AY181061AY221061GF108991081091004501999999KA1999M+01561MD1210071+9999MW1811REMSYN082AAXX  28181 33990 11459 83302 10129 20122 40175 52007 60022 78182 889// 333 10156;
0140339900999992000102821004+44500+034170FM-12+007299999V0202901N001010075019N0100001N1+01251+01201101841ADDAY181031AY221031GF108991081091008001999999MD1210091+9999MW1801REMSYN066AAXX  28211 33990 41560 82901 10125 20120 40184 52009 78082 889//;
0161339900999992000102900004+44500+034170FM-12+007299999V0203001N001010075019N0100001N1+01231+01181101871ADDAY181061AY221061GF108991081091008001999999MA1999999101011MD1210031+9999MW1801REMSYN072AAXX  29001 33990 41560 83001 10123 20118 30101 40187 52003 78082 889//;
0166339900999992000102903004+44500+034170FM-12+007299999V0203001N001010075019N0100001N1+01201+01141101941ADDAY181031AY221031GF108991081051008001999999MD1210071+9999MW1021REMSYN092AAXX  29031 33990 41560 83001 10120 20114 40194 52007 70282 885// 333 55012 555 20120 7009/;
0180339900999992000102906004+44500+034170FM-12+007299999V0203001N001010075019N0170001N1+01221+01171102141ADDAA112007191AY181061AY221061GF107991051021008001031001KA1999N+01181MD1310201+9999MW1021REMSYN082AAXX  29061 33990 11567 73001 10122 20117 40214 53020 60072 70282 85230 333 20118;
0112339900999992000102909004+44500+034170FM-12+007299999V0201101N002010360019N0200001N1+01501+01171102161ADDGF106991031021008001031001MD1110021+9999REMSYN060AAXX  29091 33990 42570 61102 10150 20117 40216 51002 83230;
0133339900999992000102912004+44500+034170FM-12+007299999V0201501N001010075019N0170001N1+01461+01191102281ADDGF107991061021008001031001MA1999999101421MD1210121+9999REMSYN066AAXX  29121 33990 42567 71501 10146 20119 30142 40228 52012 86230;
0140339900999992000102915004+44500+034170FM-12+007299999V0202601N001010042019N0150001N1+01261+01131102421ADDAY181031AY221031GF108991081091004501999999MD1210131+9999MW1021REMSYN066AAXX  29151 33990 41465 82601 10126 20113 40242 52013 70282 889//;
0180339900999992000102918004+44500+034170FM-12+007299999V0202601N001010042019N0110001N1+01231+01101102541ADDAA112000591AY181061AY221061GF108991081091004501999999KA1999M+01581MD1210121+9999MW1021REMSYN082AAXX  29181 33990 11461 82601 10123 20110 40254 52012 69962 70282 889// 333 10158;
0112339900999992000102921004+44500+034170FM-12+007299999V0202201N001010042019N0110001N1+01221+01061102611ADDGF108991081091004501999999MD1210071+9999REMSYN060AAXX  29211 33990 42461 82201 10122 20106 40261 52007 889//;
0133339900999992000103000004+44500+034170FM-12+007299999V0202901N001010075019N0120001N1+01151+00971102631ADDGF108991081091008001999999MA1999999101761MD1210021+9999REMSYN066AAXX  30001 33990 42562 82901 10115 20097 30176 40263 52002 889//;
0138339900999992000103003004+44500+034170FM-12+007299999V0202801N001010075019N0120001N1+01111+00931102611ADDGF105991051071008001001001MD1810031+9999REMSYN086AAXX  30031 33990 42562 52801 10111 20093 40261 58003 85700 333 55016 555 20111 7996/;
0165339900999992000103006004+44500+034170FM-12+007299999V0203501N001010075019N0120001N1+01201+00921102631ADDAA199000091GF107991071021008001031001KA1999N+01061MD1310021+9999REMSYN070AAXX  30061 33990 32562 73501 10120 20092 40263 53002 87230 333 20106;EQDQ01  00002PRCP99
0112339900999992000103009004+44500+034170FM-12+007299999V0201301N001010042019N0130001N1+01421+01071102621ADDGF107991071061004501001001MD1710011+9999REMSYN060AAXX  30091 33990 42463 71301 10142 20107 40262 57001 87600;
0133339900999992000103012004+44500+034170FM-12+007299999V0201301N001012200019N0170001N1+01461+00931102521ADDGF103991031061004501001001MA1999999101651MD1710101+9999REMSYN066AAXX  30121 33990 42467 31301 10146 20093 30165 40252 57010 83600;
0112339900999992000103015004+44500+034170FM-12+007299999V0209999C000010075019N0140001N1+01351+00921102471ADDGF108991081061008001999999MD1610051+9999REMSYN060AAXX  30151 33990 42564 80000 10135 20092 40247 56005 886//;
0165339900999992000103018004+44500+034170FM-12+007299999V0202701N001012200019N0270001N1+01161+00921102471ADDAA199000091GF103991031041008001001001KA1999M+01521MD1410001+9999REMSYN070AAXX  30181 33990 32577 32701 10116 20092 40247 54000 83400 333 10152;EQDQ01  00002PRCP99
0112339900999992000103021004+44500+034170FM-12+007299999V0202701N001012200019N0280001N1+01001+00801102461ADDGF102991021041012501001001MD1810031+9999REMSYN060AAXX  30211 33990 42678 22701 10100 20080 40246 58003 82400;
0143339900999992000103100004+44500+034170FM-12+007299999V0202901N001012200019N0290001N1+00981+00651102481ADDGA1001+999999999GF100991001001999999001001MA1999999101591MD1110021+9999REMSYN060AAXX  31001 33990 42979 02901 10098 20065 30159 40248 51002;
0156339900999992000103103004+44500+034170FM-12+007299999V0203001N002012200019N0300001N1+00971+00581102451ADDGA1001+999999999GF100991001001999999001001GJ101449MD1610031+9999REMSYN080AAXX  31031 33990 42980 03002 10097 20058 40245 56003 333 55024 555 20093 7000/;
0165339900999992000103106004+44500+034170FM-12+007299999V0209999C000012200019N0150001N1+01281+00841102481ADDAA199000091GF103991001001999999001011KA1999N+00931MD1310051+9999REMSYN070AAXX  31061 33990 32965 30000 10128 20084 40248 53005 80001 333 20093;EQDQ01  00002PRCP99
0112339900999992000103109004+44500+034170FM-12+007299999V0200401N001010360019N0150001N1+01501+00941102511ADDGF107991021021008001031021MD1110031+9999REMSYN060AAXX  31091 33990 42565 70401 10150 20094 40251 51003 82232;
0133339900999992000103112004+44500+034170FM-12+007299999V0200701N002010900019N0140001N1+01501+00951102391ADDGF107991021051008001001021MA1999999101521MD1810121+9999REMSYN066AAXX  31121 33990 42564 70702 10150 20095 30152 40239 58012 82502;
0112339900999992000103115004+44500+034170FM-12+007299999V0203001N001010900019N0130001N1+01281+01001102371ADDGF107991041051008001001021MD1610021+9999REMSYN060AAXX  31151 33990 42563 73001 10128 20100 40237 56002 84502;
0175339900999992000103118004+44500+034170FM-12+007299999V0202901N001012200019N0130001N1+01091+00821102391ADDAA199000091GA1001+999999999GF100991001001999999001001KA1999M+01501MD1410001+9999REMSYN064AAXX  31181 33990 32963 02901 10109 20082 40239 54000 333 10150;EQDQ01  00002PRCP99
0122339900999992000103121004+44500+034170FM-12+007299999V0202901N001012200019N0130001N1+01061+00811102311ADDGA1001+999999999GF100991001001999999001001MD1810071+9999REMSYN054AAXX  31211 33990 42963 02901 10106 20081 40231 58007;
0143339900999992000110100004+44500+034170FM-12+007299999V0202901N001012200019N0140001N1+01051+00481102281ADDGA1001+999999999GF100991001001999999001001MA1999999101401MD1710031+9999REMSYN060AAXX  01001 33990 42964 02901 10105 20048 30140 40228 57003;
0156339900999992000110103004+44500+034170FM-12+007299999V0203001N002012200019N0130001N1+01101+00641102241ADDGA1001+999999999GF100991001001999999001001GJ101929MD1710041+9999REMSYN080AAXX  01031 33990 42963 03002 10110 20064 40224 57004 333 55032 555 20103 7000/;
0165339900999992000110106004+44500+034170FM-12+007299999V0200201N001019999999N0160001N1+01291+00951102241ADDAA199000091GF107991001001999999001021KA1999N+01031MD1310021+9999REMSYN070AAXX  01061 33990 32966 70201 10129 20095 40224 53002 80002 333 20103;EQDQ01  00002PRCP99
0112339900999992000110109004+44500+034170FM-12+007299999V0200901N002012200019N0160001N1+01601+01181102191ADDGF103991001001999999001011MD1810041+9999REMSYN060AAXX  01091 33990 42966 30902 10160 20118 40219 58004 80001;
0133339900999992000110112004+44500+034170FM-12+007299999V0200901N001012200019N0150001N1+01501+01131102101ADDGF102991011021012501001011MA1999999101241MD1710101+9999REMSYN066AAXX  01121 33990 42665 20901 10150 20113 30124 40210 57010 81201;
0112339900999992000110115004+44500+034170FM-12+007299999V0203201N001010042019N0120001N1+01361+01131102071ADDGF108991081061004501999999MD1710031+9999REMSYN060AAXX  01151 33990 42462 83201 10136 20113 40207 57003 886//;
0175339900999992000110118004+44500+034170FM-12+007299999V0202701N001012200019N0120001N1+01121+01001102081ADDAA199000091GA1001+999999999GF100991001001999999001001KA1999M+01621MD1310011+9999REMSYN064AAXX  01181 33990 32962 02701 10112 20100 40208 53001 333 10162;EQDQ01  00002PRCP99
0122339900999992000110121004+44500+034170FM-12+007299999V0202701N001012200019N0140001N1+01071+00901102061ADDGA1001+999999999GF100991001001999999001001MD1810041+9999REMSYN054AAXX  01211 33990 42964 02701 10107 20090 40206 58004;
0143339900999992000110200004+44500+034170FM-12+007299999V0203001N001012200019N0150001N1+01021+00701101971ADDGA1001+999999999GF100991001001999999001001MA1999999101091MD1710091+9999REMSYN060AAXX  02001 33990 42965 03001 10102 20070 30109 40197 57009;
0138339900999992000110203004+44500+034170FM-12+007299999V0203201N001010042019N0140001N1+01081+00851101941ADDGF107991071061004501001001MD1710031+9999REMSYN086AAXX  02031 33990 42464 73201 10108 20085 40194 57003 87600 333 55065 555 20101 7000/;
0165339900999992000110206004+44500+034170FM-12+007299999V0203401N001010075019N0200001N1+01141+00881101971ADDAA199000091GF107991071051008001001001KA1999N+01011MD1310051+9999REMSYN070AAXX  02061 33990 32570 73401 10114 20088 40197 53005 87500 333 20101;EQDQ01  00002PRCP99
0112339900999992000110209004+44500+034170FM-12+007299999V0201301N001012200019N0300001N1+01731+01071101941ADDGF102991021051012501001001MD1810021+9999REMSYN060AAXX  02091 33990 42680 21301 10173 20107 40194 58002 82500;
0133339900999992000110212004+44500+034170FM-12+007299999V0201601N002012200019N0300001N1+01541+00981101871ADDGF103991021051012501001011MA1999999101021MD1710071+9999REMSYN066AAXX  02121 33990 42680 31602 10154 20098 30102 40187 57007 82501;
0112339900999992000110215004+44500+034170FM-12+007299999V0201801N001010120019N0240001N1+01381+01041101901ADDGF107991071051012501001001MD1310021+9999REMSYN060AAXX  02151 33990 42674 71801 10138 20104 40190 53002 87500;
0165339900999992000110218004+44500+034170FM-12+007299999V0202701N001010120019N0220001N1+01261+00931101921ADDAA199000091GF107991071051012501001001KA1999M+01761MD1210021+9999REMSYN070AAXX  02181 33990 32672 72701 10126 20093 40192 52002 87500 333 10176;EQDQ01  00002PRCP99
0112339900999992000110221004+44500+034170FM-12+007299999V0202801N001010075019N0180001N1+01161+00971101931ADDGF106991061051008001001001MD1210011+9999REMSYN060AAXX  02211 33990 42568 62801 10116 20097 40193 52001 86500;
0133339900999992000110300004+44500+034170FM-12+007299999V0202801N001012200019N0180001N1+01131+00921101921ADDGF102991021051012501001001MA1999999101061MD1810011+9999REMSYN066AAXX  03001 33990 42668 22801 10113 20092 30106 40192 58001 82500;
0138339900999992000110303004+44500+034170FM-12+007299999V0202801N001012200019N0170001N1+01141+00921101931ADDGF102991021051012501001001MD1310011+9999REMSYN086AAXX  03031 33990 42667 22801 10114 20092 40193 53001 82500 333 55060 555 20111 7000/;
0165339900999992000110306004+44500+034170FM-12+007299999V0203001N001010075019N0190001N1+01301+01031102001ADDAA199000091GF108991081061008001999999KA1999N+01111MD1210071+9999REMSYN070AAXX  03061 33990 32569 83001 10130 20103 40200 52007 886// 333 20111;EQDQ01  00002PRCP99
0112339900999992000110309004+44500+034170FM-12+007299999V0200601N001010042019N0180001N1+01431+01151102031ADDGF108991081061004501999999MD1110031+9999REMSYN060AAXX  03091 33990 42468 80601 10143 20115 40203 51003 886//;
0133339900999992000110312004+44500+034170FM-12+007299999V0203501N001010120019N0200001N1+01431+01091102031ADDGF108991081051012501999999MA1999999101171MD1410001+9999REMSYN066AAXX  03121 33990 42670 83501 10143 20109 30117 40203 54000 885//;
0112339900999992000110315004+44500+034170FM-12+007299999V0203001N001010120019N0220001N1+01341+01101102081ADDGF108991081051012501999999MD1310051+9999REMSYN060AAXX  03151 33990 42672 83001 10134 20110 40208 53005 885//;
0193339900999992000110318004+44500+034170FM-12+007299999V0202901N001010075019N0240001N1+01331+01061102201ADDAA199000091GA1081+999999079GF108991081061008001999999KA1120M+01461MD1110121+9999REMSYN082AAXX  03181 33990 32574 82901 10133 20106 40220 51012 886// 333 10146 8873/ 88721;EQDQ01  00002PRCP99
0166339900999992000110321004+44500+034170FM-12+007299999V0203201N001010123019N0260001N1+01291+01101102231ADDAY181031AY221031GA1081+012309059GF108991081051012501999999MD1210031+9999MW1021REMSYN076AAXX  03211 33990 41676 83201 10129 20110 40223 52003 70282 885// 333 88641;
0187339900999992000110400004+44500+034170FM-12+007299999V0202901N001010102019N0280001N1+01341+01051102261ADDAY181061AY221061GA1051+010209059GF108991051051012501001051MA1999999101401MD1210031+9999MW1021REMSYN082AAXX  04001 33990 41678 82901 10134 20105 30140 40226 52003 70282 85505 333 85634;
0168339900999992000110403004+44500+034170FM-12+007299999V0202901N001010132019N0270001N1+01301+01051102291ADDGA1081+013209069GF108991081051012501999999GJ100009MD1310031+9999REMSYN092AAXX  04031 33990 42677 82901 10130 20105 40229 53003 885// 333 55000 88644 555 20125 7995/;
0152339900999992000110406004+44500+034170FM-12+007299999V0203601N001010120019N0220001N1+01441+01171102371ADDAA112000591GF108991081051012501999999KA1999N+01251MD1310071+9999REMSYN076AAXX  04061 33990 12672 83601 10144 20117 40237 53007 69952 885// 333 20125;
0112339900999992000110409004+44500+034170FM-12+007299999V0200701N002010075019N0210001N1+01711+01281102441ADDGF108991081051008001999999MD1210081+9999REMSYN060AAXX  04091 33990 42571 80702 10171 20128 40244 52008 885//;
0133339900999992000110412004+44500+034170FM-12+007299999V0200601N002010120019N0200001N1+01641+01351102411ADDGF107991071081008001001001MA1999999101551MD1810031+9999REMSYN066AAXX  04121 33990 42570 70602 10164 20135 30155 40241 58003 87800;
0112339900999992000110415004+44500+034170FM-12+007299999V0200701N001010075019N0200001N1+01521+01321102471ADDGF108991081051008001999999MD1310061+9999REMSYN060AAXX  04151 33990 42570 80701 10152 20132 40247 53006 885//;
0165339900999992000110418004+44500+034170FM-12+007299999V0200501N001010075019N0190001N1+01441+01221102501ADDAA199000091GF108991081051008001999999KA1999M+01731MD1210031+9999REMSYN070AAXX  04181 33990 32569 80501 10144 20122 40250 52003 885// 333 10173;EQDQ01  00002PRCP99
0112339900999992000110421004+44500+034170FM-12+007299999V0202701N001010075019N0200001N1+01391+01191102481ADDGF107991071051008001001001MD1810021+9999REMSYN060AAXX  04211 33990 42570 72701 10139 20119 40248 58002 87500;
0112339900999992000110500004+44500+034170FM-12+007299999V0202901N001010075019N0200001N1+01301+01131102461ADDGF106991061051008001001001MD1710021+9999REMSYN060AAXX  05001 33990 42570 62901 10130 20113 40246 57002 86500;
0156339900999992000110503004+44500+034170FM-12+007299999V0202701N001012200019N0210001N1+01231+01051102451ADDGA1001+999999999GF100991001001999999001001GJ100609MD1710011+9999REMSYN080AAXX  05031 33990 42971 02701 10123 20105 40245 57001 333 55010 555 20121 7000/;
0165339900999992000110506004+44500+034170FM-12+007299999V0201201N001012200019N0200001N1+01401+01121102481ADDAA199000091GF101991001001999999001011KA1999N+01211MD1310021+9999REMSYN070AAXX  05061 33990 32970 11201 10140 20112 40248 53002 80001 333 20121;EQDQ01  00002PRCP99
0112339900999992000110509004+44500+034170FM-12+007299999V0200701N002019999999N0250001N1+01771+01231102451ADDGF107991001001999999001021MD1810021+9999REMSYN060AAXX  05091 33990 42975 70702 10177 20123 40245 58002 80002;
0133339900999992000110512004+44500+034170FM-12+007299999V0200801N001019999999N0240001N1+01671+01201102321ADDGF106991001001999999001011MA1999999101471MD1710121+9999REMSYN066AAXX  05121 33990 42974 60801 10167 20120 30147 40232 57012 80001;
0112339900999992000110515004+44500+034170FM-12+007299999V0203201N001010042019N0130001N1+01441+01311102311ADDGF108991081061004501999999MD1610021+9999REMSYN060AAXX  05151 33990 42463 83201 10144 20131 40231 56002 886//;
0165339900999992000110518004+44500+034170FM-12+007299999V0202901N001019999999N0130001N1+01271+01181102281ADDAA199000091GF106991001001999999001011KA1999M+01771MD1810031+9999REMSYN070AAXX  05181 33990 32963 62901 10127 20118 40228 58003 80001 333 10177;EQDQ01  00002PRCP99
0122339900999992000110521004+44500+034170FM-12+007299999V0202901N001012200019N0160001N1+01271+01061102221ADDGA1001+999999999GF100991001001999999001001MD1710061+9999REMSYN054AAXX  05211 33990 42966 02901 10127 20106 40222 57006;
0143339900999992000110600004+44500+034170FM-12+007299999V0203001N001012200019N0140001N1+01241+01111102131ADDGA1001+999999999GF100991001001999999001001MA1999999101271MD1710091+9999REMSYN060AAXX  06001 33990 42964 03001 10124 20111 30127 40213 57009;
0156339900999992000110603004+44500+034170FM-12+007299999V0203001N001012200019N0130001N1+01181+01061102041ADDGA1001+999999999GF100991001001999999001001GJ104089MD1710091+9999REMSYN080AAXX  06031 33990 42963 03001 10118 20106 40204 57009 333 55068 555 20116 7000/;
0165339900999992000110606004+44500+034170FM-12+007299999V0200301N001019999999N0150001N1+01271+01151102011ADDAA199000091GF107991021001999999031021KA1999N+01161MD1610031+9999REMSYN070AAXX  06061 33990 32965 70301 10127 20115 40201 56003 82032 333 20116;EQDQ01  00002PRCP99
0112339900999992000110609004+44500+034170FM-12+007299999V0200601N001019999999N0230001N1+01661+01321101951ADDGF107991021001999999031021MD1810051+9999REMSYN060AAXX  06091 33990 42973 70601 10166 20132 40195 58005 82032;
0133339900999992000110612004+44500+034170FM-12+007299999V0200801N002019999999N0280001N1+01621+01241101801ADDGF107991021001999999031021MA1999999101801MD1710151+9999REMSYN066AAXX  06121 33990 42978 70802 10162 20124 30180 40180 57015 82032;
0112339900999992000110615004+44500+034170FM-12+007299999V0203501N001019999999N0180001N1+01471+01251101781ADDGF106991061001999999031001MD1710031+9999REMSYN060AAXX  06151 33990 42968 63501 10147 20125 40178 57003 86030;
0165339900999992000110618004+44500+034170FM-12+007299999V0203301N001010360019N0150001N1+01341+01181101761ADDAA199000091GF106991021051012501031001KA1999M+01671MD1710021+9999REMSYN070AAXX  06181 33990 32665 63301 10134 20118 40176 57002 82530 333 10167;EQDQ01  00002PRCP99
0112339900999992000110621004+44500+034170FM-12+007299999V0202901N001019999999N0170001N1+01281+01001101731ADDGF105991021001999999041021MD1710031+9999REMSYN060AAXX  06211 33990 42967 52901 10128 20100 40173 57003 82042;
0133339900999992000110700004+44500+034170FM-12+007299999V0202901N001012200019N0260001N1+01301+00431101681ADDGF103991031001999999041001MA1999999100821MD1710051+9999REMSYN066AAXX  07001 33990 42976 32901 10130 20043 30082 40168 57005 83040;
0157339900999992000110703004+44500+034170FM-12+007299999V0203001N001010120019N0200001N1+01381+00821999999ADDGF105991051051012501001001MD1710071+9999REMSYN086AAXX  07031 33990 42670 53001 10138 20082 40075 57007 85500 333 55012 555 20122 7000/;EQDQ01 100753APOSLP
0199339900999992000110706004+44500+034170FM-12+007299999V0203501N001010120019N0180001N1+01371+01121101692ADDAA112000791AY181061AY211061GF106991061091012501001001KA1999N+01221MD1310081+9999MW1251REMSYN082AAXX  07061 33990 11668 63501 10137 20112 40169 53008 69902 72581 86900 333 20122;EQDQ01+101693APOSLP
0112339900999992000110709004+44500+034170FM-12+007299999V0200901N002012200019N0270001N1+01821+01231101661ADDGF102991021001999999041001MD1710021+9999REMSYN060AAXX  07091 33990 42977 20902 10182 20123 40166 57002 82040;
0133339900999992000110712004+44500+034170FM-12+007299999V0200301N001012200019N0280001N1+01751+01171101581ADDGF103991031001999999031001MA1999999100731MD1810081+9999REMSYN066AAXX  07121 33990 42978 30301 10175 20117 30073 40158 58008 83030;
0122339900999992000110715004+44500+034170FM-12+007299999V0202401N001012200019N0210001N1+01441+01121101631ADDGA1001+999999999GF100991001001999999001001MD1310041+9999REMSYN054AAXX  07151 33990 42971 02401 10144 20112 40163 53004;
0146339900999992000110718004+44500+034170FM-12+007299999V0202901N001012200019N0300001N1+01361+00561101681ADDAA199000021GF103991001001999999001011KA1999M+01821MD1210051+9999REMSYN070AAXX  07181 33990 32980 32901 10136 20056 40168 52005 80001 333 10182;
0112339900999992000110721004+44500+034170FM-12+007299999V0203601N001012200019N0350001N1+01321+00621101691ADDGF103991001001999999001011MD1110011+9999REMSYN060AAXX  07211 33990 42981 33601 10132 20062 40169 51001 80001;
0133339900999992000110800004+44500+034170FM-12+007299999V0203301N001010360019N0270001N1+01431+00641101711ADDGF108991021051012501051999MA1999999100831MD1410001+9999REMSYN066AAXX  08001 33990 42677 83301 10143 20064 30083 40171 54000 8255/;
0175339900999992000110806004+44500+034170FM-12+007299999V0200101N001012200019N0210001N1+01581+00991101781ADDAA199000091GA1001+999999999GF100991001001999999001001KA1999N+01291MD1310111+9999REMSYN064AAXX  08061 33990 32971 00101 10158 20099 40178 53011 333 20129;EQDQ01  00002PRCP99
0112339900999992000110809004+44500+034170FM-12+007299999V0200501N004012200019N0200001N1+01821+01481101821ADDGF101991011011012501001001MD1210051+9999REMSYN060AAXX  08091 33990 42670 10504 10182 20148 40182 52005 81100;
0133339900999992000110812004+44500+034170FM-12+007299999V0200901N003019999999N0190001N1+01761+01471101811ADDGF107991001001999999001021MA1999999100961MD1810011+9999REMSYN066AAXX  08121 33990 42969 70903 10176 20147 30096 40181 58001 80002;
0112339900999992000110815004+44500+034170FM-12+007299999V0201201N001019999999N0170001N1+01601+01421101911ADDGF107991051001999999031011MD1310101+9999REMSYN060AAXX  08151 33990 42967 71201 10160 20142 40191 53010 85031;
0165339900999992000110818004+44500+034170FM-12+007299999V0202101N001019999999N0150001N1+01481+01281102011ADDAA199000091GF107991061001999999031011KA1999M+01931MD1210101+9999REMSYN070AAXX  08181 33990 32965 72101 10148 20128 40201 52010 86031 333 10193;EQDQ01  00002PRCP99
0112339900999992000110821004+44500+034170FM-12+007299999V0202401N001019999999N0160001N1+01391+01241102111ADDGF105991001001999999001011MD1210091+9999REMSYN060AAXX  08211 33990 42966 52401 10139 20124 40211 52009 80001;
0133339900999992000110900004+44500+034170FM-12+007299999V0202101N001019999999N0170001N1+01351+01241102151ADDGF107991061001999999081011MA1999999101291MD1210041+9999REMSYN066AAXX  09001 33990 42967 72101 10135 20124 30129 40215 52004 86081;
0138339900999992000110903004+44500+034170FM-12+007299999V0202301N001012200019N0170001N1+01301+01211102191ADDGF101991011051012501001001MD1210041+9999REMSYN086AAXX  09031 33990 42667 12301 10130 20121 40219 52004 81500 333 55064 555 20130 7000/;
0165339900999992000110906004+44500+034170FM-12+007299999V0201501N001010042019N0250001N1+01411+01281102281ADDAA199000091GF108991081061004501999999KA1999N+01291MD1210091+9999REMSYN070AAXX  09061 33990 32475 81501 10141 20128 40228 52009 886// 333 20129;EQDQ01  00002PRCP99
0112339900999992000110909004+44500+034170FM-12+007299999V0200601N003010042019N0170001N1+01521+01301102381ADDGF108991081061004501999999MD1210091+9999REMSYN060AAXX  09091 33990 42467 80603 10152 20130 40238 52009 886//;
0133339900999992000110912004+44500+034170FM-12+007299999V0200601N003010042019N0160001N1+01461+01261102321ADDGF108991081061004501999999MA1999999101461MD1810051+9999REMSYN066AAXX  09121 33990 42466 80603 10146 20126 30146 40232 58005 886//;
0112339900999992000110915004+44500+034170FM-12+007299999V0203301N001010042019N0140001N1+01381+01211102311ADDGF106991061061004501001001MD1610011+9999REMSYN060AAXX  09151 33990 42464 63301 10138 20121 40231 56001 86600;
0165339900999992000110918004+44500+034170FM-12+007299999V0202501N001019999999N0130001N1+01191+01101102331ADDAA199000091GF106991001001999999001011KA1999M+01541MD1310021+9999REMSYN070AAXX  09181 33990 32963 62501 10119 20110 40233 53002 80001 333 10154;EQDQ01  00002PRCP99
0112339900999992000110921004+44500+034170FM-12+007299999V0203001N001019999999N0130001N1+01141+01061102301ADDGF106991001001999999001021MD1810031+9999REMSYN060AAXX  09211 33990 42963 63001 10114 20106 40230 58003 80002;
0133339900999992000111000004+44500+034170FM-12+007299999V0209999C000019999999N0160001N1+01151+00861102251ADDGF107991001001999999001061MA1999999101391MD1710051+9999REMSYN066AAXX  10001 33990 42966 70000 10115 20086 30139 40225 57005 80006;
0156339900999992000111003004+44500+034170FM-12+007299999V0202901N001012200019N0140001N1+01181+00981102181ADDGA1001+999999999GF100991001001999999001001GJ100009MD1710071+9999REMSYN080AAXX  10031 33990 42964 02901 10118 20098 40218 57007 333 55000 555 20113 7000/;
0165339900999992000111006004+44500+034170FM-12+007299999V0203001N001019999999N0200001N1+01401+00951102221ADDAA199000091GF107991001001999999001021KA1999N+01131MD1310041+9999REMSYN070AAXX  10061 33990 32970 73001 10140 20095 40222 53004 80002 333 20113;EQDQ01  00002PRCP99
0112339900999992000111009004+44500+034170FM-12+007299999V0200901N002012200019N0280001N1+01761+01221102161ADDGF102991001001999999001021MD1810051+9999REMSYN060AAXX  10091 33990 42978 20902 10176 20122 40216 58005 80002;
0133339900999992000111012004+44500+034170FM-12+007299999V0200601N002019999999N0270001N1+01691+01221102091ADDGF106991001001999999001091MA1999999101241MD1710071+9999REMSYN066AAXX  10121 33990 42977 60602 10169 20122 30124 40209 57007 80009;
0112339900999992000111015004+44500+034170FM-12+007299999V0202701N001019999999N0230001N1+01421+01181102101ADDGF105991001001999999001091MD1510001+9999REMSYN060AAXX  10151 33990 42973 52701 10142 20118 40210 55000 80009;
0165339900999992000111018004+44500+034170FM-12+007299999V0202401N001019999999N0190001N1+01381+01181102131ADDAA199000091GF106991001001999999001021KA1999M+01791MD1210031+9999REMSYN070AAXX  10181 33990 32969 62401 10138 20118 40213 52003 80002 333 10179;EQDQ01  00002PRCP99
0122339900999992000111021004+44500+034170FM-12+007299999V0202101N001012200019N0200001N1+01321+01051102171ADDGA1001+999999999GF100991001001999999001001MD1210041+9999REMSYN054AAXX  10211 33990 42970 02101 10132 20105 40217 52004;
0133339900999992000111100004+44500+034170FM-12+007299999V0201901N001012200019N0200001N1+01291+01001102141ADDGF102991021001999999041001MA1999999101281MD1810031+9999REMSYN066AAXX  11001 33990 42970 21901 10129 20100 30128 40214 58003 82040;
0138339900999992000111103004+44500+034170FM-12+007299999V0201901N001012200019N0180001N1+01351+01091102111ADDGF102991021001999999041001MD1710031+9999REMSYN086AAXX  11031 33990 42968 21901 10135 20109 40211 57003 82040 333 55059 555 20127 7000/;
0165339900999992000111106004+44500+034170FM-12+007299999V0202701N001019999999N0190001N1+01711+01191102141ADDAA199000091GF106991031001999999031021KA1999N+01271MD1310031+9999REMSYN070AAXX  11061 33990 32969 62701 10171 20119 40214 53003 83032 333 20127;EQDQ01  00002PRCP99
0112339900999992000111109004+44500+034170FM-12+007299999V0201201N002010042019N0120001N1+01721+01351102091ADDGF106991051061004501001091MD1810041+9999REMSYN060AAXX  11091 33990 42462 61202 10172 20135 40209 58004 85609;
0161339900999992000111112004+44500+034170FM-12+007299999V0200901N001010360019N0100001N1+01651+01441102001ADDAY181061AY221061GF106991041091002501071001MA1999999101151MD1510091+9999MW1801REMSYN072AAXX  11121 33990 41360 60901 10165 20144 30115 40200 55009 78082 84970;
0140339900999992000111115004+44500+034170FM-12+007299999V0202401N002010360019N0240001N1+01441+01041101981ADDAY181031AY221031GF108991031091004501051999MD1710031+9999MW1251REMSYN066AAXX  11151 33990 41474 82402 10144 20104 40198 57003 72582 8395/;
0180339900999992000111118004+44500+034170FM-12+007299999V0203401N002012200019N0290001N1+01321+00801102081ADDAA112001091AY181061AY211061GF103991031001999999031001KA1999M+01801MD1210101+9999MW1021REMSYN082AAXX  11181 33990 11979 33402 10132 20080 40208 52010 60012 70281 83030 333 10180;
0112339900999992000111121004+44500+034170FM-12+007299999V0203301N002010120019N0350001N1+01321+00731102221ADDGF105991051041012501001001MD1110141+9999REMSYN060AAXX  11211 33990 42681 53302 10132 20073 40222 51014 85400;
0133339900999992000111200004+44500+034170FM-12+007299999V0202201N002012200019N0450001N1+01261+00481102301ADDGF102991021041012501001001MA1999999101441MD1310081+9999REMSYN066AAXX  12001 33990 42683 22202 10126 20048 30144 40230 53008 82400;
0138339900999992000111203004+44500+034170FM-12+007299999V0201901N002012200019N0400001N1+01141+00381102401ADDGF101991011011008001001001MD1310071+9999REMSYN086AAXX  12031 33990 42582 11902 10114 20038 40240 53007 81100 333 55026 555 20113 7001/;
0175339900999992000111206004+44500+034170FM-12+007299999V0203201N003012200019N0300001N1+01211+00191102501ADDAA199000091GA1001+999999999GF100991001001999999001001KA1999N+01071MD1310121+9999REMSYN064AAXX  12061 33990 32980 03203 10121 20019 40250 53012 333 20107;EQDQ01  00002PRCP99
0112339900999992000111209004+44500+034170FM-12+007299999V0202901N002012200019N0300001N1+01401+00291102591ADDGF102991011051008001081001MD1210091+9999REMSYN060AAXX  12091 33990 42580 22902 10140 20029 40259 52009 81580;
0113339900999992000111212004+44500+034170FM-12+007299999V0203201N004012200019N0300001N1+01231+00131102581ADDGF103991021051008001081001MA1999999101711REMSYN060AAXX  12121 33990 42580 33204 10123 20013 30171 40258 82580;
0112339900999992000111215004+44500+034170FM-12+007299999V0203301N001012200019N0270001N1+00981+00171102701ADDGF102991021021012501001001MD1310101+9999REMSYN060AAXX  12151 33990 42677 23301 10098 20017 40270 53010 82200;
0165339900999992000111218004+44500+034170FM-12+007299999V0203001N001012200019N0350001N1+00921-00071102761ADDAA199000091GF102991021051012501001001KA1999M+01421MD1210061+9999REMSYN070AAXX  12181 33990 32681 23001 10092 21007 40276 52006 82500 333 10142;EQDQ01  00002PRCP99
0112339900999992000111221004+44500+034170FM-12+007299999V0200901N004010120019N0280001N1+01101+00581102811ADDGF107991071091012501001001MD1210051+9999REMSYN060AAXX  12211 33990 42678 70904 10110 20058 40281 52005 87900;
0161339900999992000111300004+44500+034170FM-12+007299999V0200901N002010120019N0210001N1+00961+00681102831ADDAY181061AY211061GF108991081091012501999999MA1999999101941MD1210021+9999MW1021REMSYN072AAXX  13001 33990 41671 80902 10096 20068 30194 40283 52002 70281 889//;
0166339900999992000111303004+44500+034170FM-12+007299999V0201401N001010075019N0200001N1+00931+00621102851ADDAY181031AY221031GF108991081091008001999999MD1210021+9999MW1021REMSYN092AAXX  13031 33990 41570 81401 10093 20062 40285 52002 70282 889// 333 55072 555 20086 7995/;
0180339900999992000111306004+44500+034170FM-12+007299999V0203201N003010075019N0240001N1+00961+00611102871ADDAA112000591AY181061AY221061GF108991081091008001999999KA1999N+00861MD1210021+9999MW1021REMSYN082AAXX  13061 33990 11574 83203 10096 20061 40287 52002 69952 70282 889// 333 20086;
0112339900999992000111309004+44500+034170FM-12+007299999V0200701N003010075019N0250001N1+01021+00591102871ADDGF108991081031008001999999MD1010001+9999REMSYN060AAXX  13091 33990 42575 80703 10102 20059 40287 50000 883//;
0139339900999992000111312004+44500+034170FM-12+007299999V0200801N002019999999N0260001N1+01041+00561102791ADDGF108991999999008001999999MA1999999101901MD1710081+9999MW1881REMSYN066AAXX  13121 33990 42576 80802 10104 20056 30190 40279 57008 788//;
0146339900999992000111318004+44500+034170FM-12+007299999V0203001N001010075019N0250001N1+00981+00591102731ADDAA199000021GF108991081051008001999999KA1999M+01061MD1610011+9999REMSYN070AAXX  13181 33990 32575 83001 10098 20059 40273 56001 885// 333 10106;
0112339900999992000111321004+44500+034170FM-12+007299999V0203401N001010120019N0260001N1+00981+00501102711ADDGF107991071051012501001001MD1710021+9999REMSYN060AAXX  13211 33990 42676 73401 10098 20050 40271 57002 87500;
0133339900999992000111400004+44500+034170FM-12+007299999V0203201N001010120019N0260001N1+00921+00401102641ADDGF107991071051012501001001MA1999999101751MD1710071+9999REMSYN066AAXX  14001 33990 42676 73201 10092 20040 30175 40264 57007 87500;
0138339900999992000111403004+44500+034170FM-12+007299999V0203001N002010120019N0270001N1+00861+00341102641ADDGF106991061051012501001001MD1510001+9999REMSYN086AAXX  14031 33990 42677 63002 10086 20034 40264 55000 86500 333 55001 555 20086 7000/;
0165339900999992000111406004+44500+034170FM-12+007299999V0203001N001012200019N0280001N1+00901+00321102651ADDAA199000091GF106991021051008001001011KA1999N+00801MD1210011+9999REMSYN070AAXX  14061 33990 32578 63001 10090 20032 40265 52001 82501 333 20080;EQDQ01  00002PRCP99
0122339900999992000111409004+44500+034170FM-12+007299999V0200901N002012200019N0350001N1+01371+00461102671ADDGA1001+999999999GF100991001001999999001001MD1210041+9999REMSYN054AAXX  14091 33990 42981 00902 10137 20046 40267 52004;
0143339900999992000111412004+44500+034170FM-12+007299999V0201201N001012200019N0350001N1+01261+00481102561ADDGA1001+999999999GF100991001001999999001001MA1999999101691MD1810111+9999REMSYN060AAXX  14121 33990 42981 01201 10126 20048 30169 40256 58011;
0112339900999992000111415004+44500+034170FM-12+007299999V0201101N001012200019N0240001N1+01001+00561102601ADDGF103991031051008001001001MD1310021+9999REMSYN060AAXX  14151 33990 42574 31101 10100 20056 40260 53002 83500;
0165339900999992000111418004+44500+034170FM-12+007299999V0203001N002012200019N0230001N1+00901+00501102631ADDAA199000091GF102991021051012501001001KA1999M+01431MD1210031+9999REMSYN070AAXX  14181 33990 32673 23002 10090 20050 40263 52003 82500 333 10143;EQDQ01  00002PRCP99
0112339900999992000111421004+44500+034170FM-12+007299999V0202901N002010120019N0230001N1+00941+00551102631ADDGF105991051051012501001001MD1010001+9999REMSYN060AAXX  14211 33990 42673 52902 10094 20055 40263 50000 85500;
0133339900999992000111500004+44500+034170FM-12+007299999V0202801N001010075019N0240001N1+01021+00591102611ADDGF106991061051008001001001MA1999999101721MD1710021+9999REMSYN066AAXX  15001 33990 42574 62801 10102 20059 30172 40261 57002 86500;
0165339900999992000111506004+44500+034170FM-12+007299999V0202701N002010900019N0230001N1+01031+00641102631ADDAA199000091GF105991021051012501001091KA1999N+00901MD1310031+9999REMSYN070AAXX  15061 33990 32673 52702 10103 20064 40263 53003 82509 333 20090;EQDQ01  00002PRCP99
0122339900999992000111509004+44500+034170FM-12+007299999V0200601N001012200019N0280001N1+01491+00771102651ADDGA1001+999999999GF100991001001999999001001MD1010041+9999REMSYN054AAXX  15091 33990 42978 00601 10149 20077 40265 50004;
0133339900999992000111512004+44500+034170FM-12+007299999V0200601N002012200019N0250001N1+01331+00821102601ADDGF102991021051008001001001MA1999999101731MD1810051+9999REMSYN066AAXX  15121 33990 42575 20602 10133 20082 30173 40260 58005 82500;
0112339900999992000111515004+44500+034170FM-12+007299999V0203101N001010075019N0230001N1+01211+00821102631ADDGF106991061051008001001001MD1210031+9999REMSYN060AAXX  15151 33990 42573 63101 10121 20082 40263 52003 86500;
0175339900999992000111518004+44500+034170FM-12+007299999V0203101N001012200019N0280001N1+01081+00771102671ADDAA199000091GA1001+999999999GF100991001001999999001001KA1999M+01541MD1210021+9999REMSYN064AAXX  15181 33990 32978 03101 10108 20077 40267 52002 333 10154;EQDQ01  00002PRCP99
0122339900999992000111521004+44500+034170FM-12+007299999V0202801N001012200019N0300001N1+01041+00731102661ADDGA1001+999999999GF100991001001999999001001MD1710011+9999REMSYN054AAXX  15211 33990 42980 02801 10104 20073 40266 57001;
0143339900999992000111600004+44500+034170FM-12+007299999V0202901N001012200019N0300001N1+00991+00741102671ADDGA1001+999999999GF100991001001999999001001MA1999999101781MD1310011+9999REMSYN060AAXX  16001 33990 42980 02901 10099 20074 30178 40267 53001;
0156339900999992000111603004+44500+034170FM-12+007299999V0203001N002012200019N0290001N1+00961+00761102661ADDGA1001+999999999GF100991001001999999001001GJ103189MD1810011+9999REMSYN080AAXX  16031 33990 42979 03002 10096 20076 40266 58001 333 55053 555 20095 7000/;
0175339900999992000111606004+44500+034170FM-12+007299999V0200101N001012200019N0280001N1+01241+00861102671ADDAA199000091GA1001+999999999GF100991001001999999001001KA1999N+00951MD1310031+9999REMSYN064AAXX  16061 33990 32978 00101 10124 20086 40267 53003 333 20095;EQDQ01  00002PRCP99
0112339900999992000111609004+44500+034170FM-12+007299999V0200801N002012200019N0250001N1+01601+01071102661ADDGF101991011051008001001001MD1010001+9999REMSYN060AAXX  16091 33990 42575 10802 10160 20107 40266 50000 81500;
0133339900999992000111612004+44500+034170FM-12+007299999V0200601N001012200019N0160001N1+01491+01071102561ADDGF101991011051008001001001MA1999999101691MD1710111+9999REMSYN066AAXX  16121 33990 42566 10601 10149 20107 30169 40256 57011 81500;
0112339900999992000111615004+44500+034170FM-12+007299999V0203401N001012200019N0130001N1+01261+01001102541ADDGF102991021051008001001001MD1610021+9999REMSYN060AAXX  16151 33990 42563 23401 10126 20100 40254 56002 82500;
0175339900999992000111618004+44500+034170FM-12+007299999V0202901N001012200019N0130001N1+01091+00861102521ADDAA199000091GA1001+999999999GF100991001001999999001001KA1999M+01601MD1710041+9999REMSYN064AAXX  16181 33990 32963 02901 10109 20086 40252 57004 333 10160;EQDQ01  00002PRCP99
0122339900999992000111621004+44500+034170FM-12+007299999V0202901N001012200019N0140001N1+01081+00881102481ADDGA1001+999999999GF100991001001999999001001MD1710041+9999REMSYN054AAXX  16211 33990 42964 02901 10108 20088 40248 57004;
0117339900999992000111700004+44500+034170FM-12+007299999V0203001N002012200019N0140001N1+01071+00891999999ADDGA1001+999999999GF100991001001999999001001MA1999999101561REMSYN048AAXX  17001 33990 42964 03002 10107 20089 30156;
0156339900999992000111703004+44500+034170FM-12+007299999V0203001N001012200019N0130001N1+01011+00851102401ADDGA1001+999999999GF100991001001999999001001GJ104149MD1710051+9999REMSYN080AAXX  17031 33990 42963 03001 10101 20085 40240 57005 333 55069 555 20101 7000/;
0175339900999992000111706004+44500+034170FM-12+007299999V0203101N001012200019N0160001N1+01201+00981102451ADDAA199000091GA1001+999999999GF100991001001999999001001KA1999N+00991MD1310071+9999REMSYN064AAXX  17061 33990 32966 03101 10120 20098 40245 53007 333 20099;EQDQ01  00002PRCP99
0122339900999992000111709004+44500+034170FM-12+007299999V0200901N001012200019N0170001N1+01591+01091102451ADDGA1001+999999999GF100991001001999999001001MD1210011+9999REMSYN054AAXX  17091 33990 42967 00901 10159 20109 40245 52001;
0143339900999992000111712004+44500+034170FM-12+007299999V0200701N001012200019N0200001N1+01481+01091102341ADDGA1001+999999999GF100991001001999999001001MA1999999101471MD1810121+9999REMSYN060AAXX  17121 33990 42970 00701 10148 20109 30147 40234 58012;
0122339900999992000111715004+44500+034170FM-12+007299999V0203301N001012200019N0200001N1+01221+01051102331ADDGA1001+999999999GF100991001001999999001001MD1410001+9999REMSYN054AAXX  17151 33990 42970 03301 10122 20105 40233 54000;
0175339900999992000111718004+44500+034170FM-12+007299999V0202901N001012200019N0180001N1+01081+00841102341ADDAA199000091GA1001+999999999GF100991001001999999001001KA1999M+01601MD1310011+9999REMSYN064AAXX  17181 33990 32968 02901 10108 20084 40234 53001 333 10160;EQDQ01  00002PRCP99
0122339900999992000111721004+44500+034170FM-12+007299999V0202701N001012200019N0260001N1+01051+00671102371ADDGA1001+999999999GF100991001001999999001001MD1210011+9999REMSYN054AAXX  17211 33990 42976 02701 10105 20067 40237 52001;
0143339900999992000111800004+44500+034170FM-12+007299999V0202101N001012200019N0280001N1+01081+00511102331ADDGA1001+999999999GF100991001001999999001001MA1999999101451MD1810041+9999REMSYN060AAXX  18001 33990 42978 02101 10108 20051 30145 40233 58004;
0156339900999992000111803004+44500+034170FM-12+007299999V0202301N001012200019N0280001N1+01041+00511102321ADDGA1001+999999999GF100991001001999999001001GJ104089MD1710011+9999REMSYN080AAXX  18031 33990 42978 02301 10104 20051 40232 57001 333 55068 555 20101 7000/;
0145339900999992000111806004+44500+034170FM-12+007299999V0202101N001012200019N0250001N1+01201+00481102341ADDGA1001+999999999GF100991001001999999001001KA1999N+00991MD1310041+9999REMSYN064AAXX  18061 33990 /2975 02101 10120 20048 40234 53004 333 20099;
0143339900999992000111812004+44500+034170FM-12+007299999V0200901N003012200019N0260001N1+01491+01151102271ADDGA1001+999999999GF100991001001999999001001MA1999999101411MD1710091+9999REMSYN060AAXX  18121 33990 42976 00903 10149 20115 30141 40227 57009;
0116339900999992000111815004+44500+034170FM-12+007299999V0202401N001012200019N0230001N1+01281+99999102271ADDGA1001+999999999GF100991001001999999001001MD1410001+9999REMSYN048AAXX  18151 33990 42973 02401 10128 40227 54000;
0175339900999992000111818004+44500+034170FM-12+007299999V0202701N002012200019N0290001N1+01151+00761102311ADDAA199000091GA1001+999999999GF100991001001999999001001KA1999M+01701MD1110041+9999REMSYN064AAXX  18181 33990 32979 02702 10115 20076 40231 51004 333 10170;EQDQ01  00002PRCP99
0122339900999992000111821004+44500+034170FM-12+007299999V0202501N001012200019N0350001N1+01071+00621102311ADDGA1001+999999999GF100991001001999999001001MD1810021+9999REMSYN054AAXX  18211 33990 42981 02501 10107 20062 40231 58002;
0143339900999992000111900004+44500+034170FM-12+007299999V0201601N001012200019N0300001N1+01011+00741102301ADDGA1001+999999999GF100991001001999999001001MA1999999101421MD1810011+9999REMSYN060AAXX  19001 33990 42980 01601 10101 20074 30142 40230 58001;
0156339900999992000111903004+44500+034170FM-12+007299999V0202501N001012200019N0280001N1+00951+00761102251ADDGA1001+999999999GF100991001001999999001001GJ104149MD1710051+9999REMSYN080AAXX  19031 33990 42978 02501 10095 20076 40225 57005 333 55069 555 20095 7000/;
0165339900999992000111906004+44500+034170FM-12+007299999V0203201N001012200019N0150001N1+01011+00861102311ADDAA199000091GF102991021061008001001001KA1999N+00901MD1310061+9999REMSYN070AAXX  19061 33990 32565 23201 10101 20086 40231 53006 82600 333 20090;EQDQ01  00002PRCP99
0140339900999992000111909004+44500+034170FM-12+007299999V0200501N003010042019N0070001N1+01221+01031102271ADDAY111031AY211031GF108991081061004501999999MD1810021+9999MW1101REMSYN066AAXX  19091 33990 41457 80503 10122 20103 40227 58002 71011 886//;
0161339900999992000111912004+44500+034170FM-12+007299999V0200701N004010042019N0070001N1+01181+00941102171ADDAY111061AY211061GF108991081061004501999999MA1999999101311MD1710101+9999MW1101REMSYN072AAXX  19121 33990 41457 80704 10118 20094 30131 40217 57010 71011 886//;
0112339900999992000111915004+44500+034170FM-12+007299999V0200901N001010042019N0100001N1+01081+00901102181ADDGF108991081061004501999999MD1510011+9999REMSYN060AAXX  19151 33990 42460 80901 10108 20090 40218 55001 886//;
0165339900999992000111918004+44500+034170FM-12+007299999V0203601N002010042019N0110001N1+00921+00711102181ADDAA199000091GF105991051061004501001001KA1999M+01231MD1410001+9999REMSYN070AAXX  19181 33990 32461 53602 10092 20071 40218 54000 85600 333 10123;EQDQ01  00002PRCP99
0112339900999992000111921004+44500+034170FM-12+007299999V0203401N002012200019N0120001N1+01021+00701102141ADDGF103991031061004501001001MD1810041+9999REMSYN060AAXX  19211 33990 42462 33402 10102 20070 40214 58004 83600;
0143339900999992000112000004+44500+034170FM-12+007299999V0202901N001012200019N0120001N1+00991+00621101991ADDGA1001+999999999GF100991001001999999001001MA1999999101171MD1710091+9999REMSYN060AAXX  20001 33990 42962 02901 10099 20062 30117 40199 57009;
0138339900999992000112003004+44500+034170FM-12+007299999V0202901N002010075019N0160001N1+01121+00731102011ADDGF107991071051008001001001MD1710041+9999REMSYN086AAXX  20031 33990 42566 72902 10112 20073 40201 57004 87500 333 55000 555 20091 7000/;
0165339900999992000112006004+44500+034170FM-12+007299999V0203001N001010075019N0170001N1+01141+00681102011ADDAA199000091GF107991061051008001001011KA1999N+00911MD1110021+9999REMSYN070AAXX  20061 33990 32567 73001 10114 20068 40201 51002 86501 333 20091;EQDQ01  00002PRCP99
0112339900999992000112009004+44500+034170FM-12+007299999V0201301N002010075019N0170001N1+01341+01031102021ADDGF108991081051008001999999MD1010011+9999REMSYN060AAXX  20091 33990 42567 81302 10134 20103 40202 50001 885//;
0133339900999992000112012004+44500+034170FM-12+007299999V0201101N001010075019N0160001N1+01311+00981101941ADDGF106991061051008001001001MA1999999101081MD1710081+9999REMSYN066AAXX  20121 33990 42566 61101 10131 20098 30108 40194 57008 86500;
0112339900999992000112015004+44500+034170FM-12+007299999V0203101N001010075019N0140001N1+01151+00951101931ADDGF107991071051008001001001MD1610011+9999REMSYN060AAXX  20151 33990 42564 73101 10115 20095 40193 56001 87500;
0165339900999992000112018004+44500+034170FM-12+007299999V0203001N002012200019N0150001N1+00991+00761101951ADDAA199000091GF104991041051008001001001KA1999M+01391MD1410001+9999REMSYN070AAXX  20181 33990 32565 43002 10099 20076 40195 54000 84500 333 10139;EQDQ01  00002PRCP99
0122339900999992000112021004+44500+034170FM-12+007299999V0202901N002012200019N0140001N1+00881+00761101921ADDGA1001+999999999GF100991001001999999001001MD1810031+9999REMSYN054AAXX  20211 33990 42964 02902 10088 20076 40192 58003;
0143339900999992000112100004+44500+034170FM-12+007299999V0202901N001012200019N0150001N1+00921+00761101891ADDGA1001+999999999GF100991001001999999001001MA1999999101011MD1710031+9999REMSYN060AAXX  21001 33990 42965 02901 10092 20076 30101 40189 57003;
0138339900999992000112103004+44500+034170FM-12+007299999V0203001N002010075019N0150001N1+00921+00731101891ADDGF106991061051008001001001MD1510001+9999REMSYN086AAXX  21031 33990 42565 63002 10092 20073 40189 55000 86500 333 55019 555 20088 7000/;
0165339900999992000112106004+44500+034170FM-12+007299999V0203001N001019999999N0160001N1+01061+00801101931ADDAA199000091GF107991071001999999031001KA1999N+00881MD1210041+9999REMSYN070AAXX  21061 33990 32966 73001 10106 20080 40193 52004 87030 333 20088;EQDQ01  00002PRCP99
0112339900999992000112109004+44500+034170FM-12+007299999V0200501N001010360019N0180001N1+01321+00881101901ADDGF107991031051012501031001MD1810011+9999REMSYN060AAXX  21091 33990 42668 70501 10132 20088 40190 58001 83530;
0133339900999992000112112004+44500+034170FM-12+007299999V0201201N001010042019N0190001N1+01341+00991101841ADDGF108991081061004501999999MA1999999100981MD1710061+9999REMSYN066AAXX  21121 33990 42469 81201 10134 20099 30098 40184 57006 886//;
0112339900999992000112115004+44500+034170FM-12+007299999V0201401N001010042019N0160001N1+01301+01071101891ADDGF108991081061004501999999MD1310051+9999REMSYN060AAXX  21151 33990 42466 81401 10130 20107 40189 53005 886//;
0165339900999992000112118004+44500+034170FM-12+007299999V0203301N001010042019N0140001N1+01251+01041101931ADDAA199000091GF108991081061004501999999KA1999M+01441MD1210041+9999REMSYN070AAXX  21181 33990 32464 83301 10125 20104 40193 52004 886// 333 10144;EQDQ01  00002PRCP99
0112339900999992000112121004+44500+034170FM-12+007299999V0203001N001010042019N0110001N1+01241+01061101941ADDGF108991081061004501999999MD1210011+9999REMSYN060AAXX  21211 33990 42461 83001 10124 20106 40194 52001 886//;
0133339900999992000112200004+44500+034170FM-12+007299999V0203101N001010042019N0120001N1+01221+01051101931ADDGF108991081061004501999999MA1999999101071MD1810011+9999REMSYN066AAXX  22001 33990 42462 83101 10122 20105 30107 40193 58001 886//;
0167339900999992000112203004+44500+034170FM-12+007299999V0203001N001010075019N0140001N1+01221+01051101921ADDAY181031AY221031GF108991081091008001999999MD1710011+9999MW1801REMSYN093AAXX  22031 33990 41564 83001 10122 20105 40192 57001 78082 889// 333 55004 555 201127 990/7;
0112339900999992000112209004+44500+034170FM-12+007299999V0201001N001010075019N0220001N1+01421+00991102021ADDGF106991061051008001001001MD1110041+9999REMSYN060AAXX  22091 33990 42572 61001 10142 20099 40202 51004 86500;
0161339900999992000112212004+44500+034170FM-12+007299999V0202801N001010075019N0140001N1+01301+01191101991ADDAY181061AY221061GF108991081091008001999999MA1999999101131MD1810031+9999MW1801REMSYN072AAXX  22121 33990 41564 82801 10130 20119 30113 40199 58003 78082 889//;
0140339900999992000112215004+44500+034170FM-12+007299999V0202701N001010075019N0140001N1+01161+01041102041ADDAY181031AY221031GF108991081091008001999999MD1310051+9999MW1021REMSYN066AAXX  22151 33990 41564 82701 10116 20104 40204 53005 70282 889//;
0180339900999992000112218004+44500+034170FM-12+007299999V0203101N002010075019N0110001N1+01111+01051102101ADDAA112013091AY181061AY221061GF108991081091008001999999KA1999M+01561MD1210061+9999MW1811REMSYN082AAXX  22181 33990 11561 83102 10111 20105 40210 52006 60132 78182 889// 333 10156;
0140339900999992000112221004+44500+034170FM-12+007299999V0200301N002010075019N0120001N1+01101+01041102121ADDAY181031AY221031GF108991081091008001999999MD1210021+9999MW1211REMSYN066AAXX  22211 33990 41562 80302 10110 20104 40212 52002 72182 889//;
0161339900999992000112300004+44500+034170FM-12+007299999V0200601N003010075019N0120001N1+01111+01021102121ADDAY181061AY221061GF108991081091008001999999MA1999999101261MD1010001+9999MW1021REMSYN072AAXX  23001 33990 41562 80603 10111 20102 30126 40212 50000 70282 889//;
0138339900999992000112303004+44500+034170FM-12+007299999V0200601N004010075019N0130001N1+01061+00941102131ADDGF108991081091008001999999MD1710011+9999REMSYN086AAXX  23031 33990 42563 80604 10106 20094 40213 57001 889// 333 55006 555 20106 7019/;
0152339900999992000112306004+44500+034170FM-12+007299999V0200701N004010042019N0120001N1+01031+00891102191ADDAA112006191GF108991081061004501999999KA1999N+01031MD1310061+9999REMSYN076AAXX  23061 33990 12462 80704 10103 20089 40219 53006 60062 886// 333 20103;
0140339900999992000112309004+44500+034170FM-12+007299999V0200501N004010042019N0130001N1+01051+00821102221ADDAY181031AY221031GF108991081091004501999999MD1210031+9999MW1251REMSYN066AAXX  23091 33990 41463 80504 10105 20082 40222 52003 72582 889//;
0161339900999992000112312004+44500+034170FM-12+007299999V0200901N003010021019N0080001N1+00931+00781102201ADDAY181061AY221061GF108991081091002501999999MA1999999101321MD1710021+9999MW1801REMSYN072AAXX  23121 33990 41358 80903 10093 20078 30132 40220 57002 78082 889//;
0140339900999992000112315004+44500+034170FM-12+007299999V0200601N003010042019N0150001N1+00891+00651102261ADDAY181031AY221031GF108991081061004501999999MD1310061+9999MW1021REMSYN066AAXX  23151 33990 41465 80603 10089 20065 40226 53006 70282 886//;
0180339900999992000112318004+44500+034170FM-12+007299999V0200701N004010042019N0190001N1+00871+00641102291ADDAA112002091AY181061AY221061GF108991081061004501999999KA1999M+01071MD1210031+9999MW1021REMSYN082AAXX  23181 33990 11469 80704 10087 20064 40229 52003 60022 70282 886// 333 10107;
0140339900999992000112321004+44500+034170FM-12+007299999V0200601N004010075019N0180001N1+00711+00511102361ADDAY181031AY221031GF108991081091008001999999MD1310071+9999MW1801REMSYN066AAXX  23211 33990 41568 80604 10071 20051 40236 53007 78082 889//;
0140339900999992000112400004+44500+034170FM-12+007299999V0200601N003010075019N0220001N1+00651+00421102381ADDAY181061AY221061GF108991081091008001999999MD1110011+9999MW1021REMSYN066AAXX  24001 33990 41572 80603 10065 20042 40238 51001 70282 889//;
0144339900999992000112403004+44500+034170FM-12+007299999V0200501N004010042019N0160001N1+00571+00411102421ADDAY181031AY221031GF108991081091004501999999MD1310031+9999MW1801REMSYN070AAXX  24031 33990 41466 80504 10057 20041 40242 53003 78082 889// 333;
0144339900999992000112406004+44500+034170FM-12+007299999V0200801N004019999999N0090001N1+00531+00391102521ADDAA112000591GF108991999999004501999999MD1210101+9999REMSYN081AAXX  24061 33990 11459 80804 10053 20039 40252 52010 69942 7882 889// 333 20052;
0140339900999992000112409004+44500+034170FM-12+007299999V0200701N005010042019N0150001N1+00501+00281102531ADDAY181031AY221031GF108991081091004501999999MD1210011+9999MW1021REMSYN066AAXX  24091 33990 41465 80705 10050 20028 40253 52001 70282 889//;
0161339900999992000112412004+44500+034170FM-12+007299999V0200701N002010021019N0120001N1+00521+00301102511ADDAY181061AY221061GF108991081061002501999999MA1999999101611MD1810021+9999MW1021REMSYN072AAXX  24121 33990 41362 80702 10052 20030 30161 40251 58002 70282 886//;
0112339900999992000112415004+44500+034170FM-12+007299999V0203401N001010021019N0120001N1+00501+00301102541ADDGF108991081061002501999999MD1310031+9999REMSYN060AAXX  24151 33990 42362 83401 10050 20030 40254 53003 886//;
0152339900999992000112418004+44500+034170FM-12+007299999V0203601N001010042019N0140001N1+00521+00301102551ADDAA112000791GF108991081061004501999999KA1999M+00541MD1110011+9999REMSYN076AAXX  24181 33990 12464 83601 10052 20030 40255 51001 69902 886// 333 10054;
0112339900999992000112421004+44500+034170FM-12+007299999V0203301N001010042019N0150001N1+00571+00411102551ADDGF108991081061004501999999MD1410001+9999REMSYN060AAXX  24211 33990 42465 83301 10057 20041 40255 54000 886//;
0133339900999992000112500004+44500+034170FM-12+007299999V0202901N002010042019N0160001N1+00611+00401102531ADDGF108991081061004501999999MA1999999101631MD1810021+9999REMSYN066AAXX  25001 33990 42466 82902 10061 20040 30163 40253 58002 886//;
0157339900999992000112503004+44500+034170FM-12+007299999V0202901N002010042019N0160001N1+00661+00431101462ADDGF108991081061004501999999MD1710061+9999REMSYN086AAXX  25031 33990 /2466 82902 10066 20043 40146 57006 886// 333 55000 555 20051 7991/;EQDQ01+101463APOSLP
0181339900999992000112506004+44500+034170FM-12+007299999V0202701N002010360019N0170001N1+00701+00401999999ADDAA199000091GF108991021051008001071999KA1999N+00511MD1310061+9999REMSYN070AAXX  25061 33990 32567 82702 10070 20040 40252 53006 8257/ 333 20051;EQDQ01+102523APOSLPQ02  00002PRCP99
0111339900999992000112509004+44500+034170FM-12+007299999V0200501N001010360019N0200001N1+01041+00531999999ADDGF107991031051008001031001REMSYN054AAXX  25091 33990 42570 70501 10104 20053 40000 83530;EQDQ01+100003APOSLP
0133339900999992000112512004+44500+034170FM-12+007299999V0200701N001010075019N0200001N1+01041+00651102411ADDGF108991081051008001999999MA1999999101521MD1810111+9999REMSYN066AAXX  25121 33990 42570 80701 10104 20065 30152 40241 58011 885//;
0112339900999992000112515004+44500+034170FM-12+007299999V0202701N001010120019N0180001N1+00891+00671102421ADDGF108991081051012501999999MD1310011+9999REMSYN060AAXX  25151 33990 42668 82701 10089 20067 40242 53001 885//;
0165339900999992000112518004+44500+034170FM-12+007299999V0202901N001010360019N0180001N1+00861+00591102411ADDAA199000091GF107991041051012501031001KA1999M+01111MD1810011+9999REMSYN070AAXX  25181 33990 32668 72901 10086 20059 40241 58001 84530 333 10111;EQDQ01  00002PRCP99
0112339900999992000112521004+44500+034170FM-12+007299999V0202701N001010075019N0170001N1+00901+00591102401ADDGF108991081051008001999999MD1710011+9999REMSYN060AAXX  25211 33990 42567 82701 10090 20059 40240 57001 885//;
0133339900999992000112600004+44500+034170FM-12+007299999V0203001N001010075019N0160001N1+00951+00561102351ADDGF108991081051008001999999MA1999999101471MD1710041+9999REMSYN066AAXX  26001 33990 42566 83001 10095 20056 30147 40235 57004 885//;
0138339900999992000112603004+44500+034170FM-12+007299999V0203601N001010042019N0150001N1+00981+00611102311ADDGF107991071061004501001001MD1710041+9999REMSYN086AAXX  26031 33990 42465 73601 10098 20061 40231 57004 87600 333 55000 555 20086 7000/;
0165339900999992000112606004+44500+034170FM-12+007299999V0200601N006010042019N0100001N1+00871+00741102401ADDAA199000091GF108991081061004501999999KA1999N+00861MD1310081+9999REMSYN070AAXX  26061 33990 32460 80606 10087 20074 40240 53008 886// 333 20086;EQDQ01  00002PRCP99
0112339900999992000112609004+44500+034170FM-12+007299999V0200601N005010042019N0120001N1+00901+00671102441ADDGF108991081061004501999999MD1210041+9999REMSYN060AAXX  26091 33990 42462 80605 10090 20067 40244 52004 886//;
0133339900999992000112612004+44500+034170FM-12+007299999V0200601N005010042019N0130001N1+00881+00681102271ADDGF108991081061004501999999MA1999999101391MD1810161+9999REMSYN066AAXX  26121 33990 42463 80605 10088 20068 30139 40227 58016 886//;
0112339900999992000112615004+44500+034170FM-12+007299999V0200801N005010075019N0150001N1+00881+00621102261ADDGF108991081061008001999999MD1710011+9999REMSYN060AAXX  26151 33990 42565 80805 10088 20062 40226 57001 886//;
0165339900999992000112618004+44500+034170FM-12+007299999V0200701N005010075019N0140001N1+00831+00641102161ADDAA199000091GF108991081061008001999999KA1999M+00991MD1710101+9999REMSYN070AAXX  26181 33990 32564 80705 10083 20064 40216 57010 886// 333 10099;EQDQ01  00002PRCP99
0133339900999992000112700004+44500+034170FM-12+007299999V0201401N001010075019N0140001N1+00801+00621101891ADDGF106991061061008001001001MA1999999101011MD1710141+9999REMSYN066AAXX  27001 33990 42564 61401 10080 20062 30101 40189 57014 86600;
0138339900999992000112703004+44500+034170FM-12+007299999V0201001N001010075019N0150001N1+00941+00731101731ADDGF106991061061008001001001MD1610061+9999REMSYN086AAXX  27031 33990 42565 61001 10094 20073 40173 56006 86600 333 55000 555 20077 7000/;
0165339900999992000112706004+44500+034170FM-12+007299999V0201201N002019999999N0170001N1+01011+00591101661ADDAA199000091GF107991031001999999041021KA1999N+00761MD1710071+9999REMSYN070AAXX  27061 33990 32967 71202 10101 20059 40166 57007 83042 333 20076;EQDQ01  00002PRCP99
0112339900999992000112709004+44500+034170FM-12+007299999V0200601N004010360019N0230001N1+01321+00771101471ADDGF108991021041012501041091MD1810171+9999REMSYN060AAXX  27091 33990 42673 80604 10132 20077 40147 58017 82449;
0133339900999992000112712004+44500+034170FM-12+007299999V0200301N005010360019N0240001N1+01421+00801101231ADDGF108991031051012501051999MA1999999100381MD1710231+9999REMSYN066AAXX  27121 33990 42674 80305 10142 20080 30038 40123 57023 8355/;
0140339900999992000112715004+44500+034170FM-12+007299999V0200401N005010360019N0180001N1+01291+00951101181ADDAY181031AY221031GF108991041091008001051999MD1810051+9999MW1801REMSYN066AAXX  27151 33990 41568 80405 10129 20095 40118 58005 78082 8495/;
0180339900999992000112718004+44500+034170FM-12+007299999V0200301N004010075019N0240001N1+01321+00971101181ADDAA112000791AY181061AY221061GF108991051051008001051999KA1999M+01421MD1410001+9999MW1021REMSYN082AAXX  27181 33990 11574 80304 10132 20097 40118 54000 69902 70282 8555/ 333 10142;
0112339900999992000112721004+44500+034170FM-12+007299999V0200601N004010075019N0260001N1+01331+00951101201ADDGF108991081051008001999999MD1310021+9999REMSYN060AAXX  27211 33990 42576 80604 10133 20095 40120 53002 885//;
0143339900999992000112800004+44500+034170FM-12+007299999V0200101N005012200019N0290001N1+01381+00821101171ADDGA1001+999999999GF100991001001999999001001MA1999999100321MD1510031+9999REMSYN060AAXX  28001 33990 42979 00105 10138 20082 30032 40117 55003;
0138339900999992000112803004+44500+034170FM-12+007299999V0200401N004012200019N0280001N1+01321+00861101201ADDGF102991021041008001001001MD1210031+9999REMSYN086AAXX  28031 33990 42578 20404 10132 20086 40120 52003 82400 333 55005 555 20130 7990/;
0165339900999992000112806004+44500+034170FM-12+007299999V0201001N003012200019N0220001N1+01351+00781101281ADDAA199000091GF108991021041008001001011KA1999N+01231MD1110081+9999REMSYN070AAXX  28061 33990 32572 81003 10135 20078 40128 51008 82401 333 20123;EQDQ01  00002PRCP99
0112339900999992000112809004+44500+034170FM-12+007299999V0200801N005010360019N0210001N1+01471+00901101331ADDGF107991031051008001031021MD1010051+9999REMSYN060AAXX  28091 33990 42571 70805 10147 20090 40133 50005 83532;
0133339900999992000112812004+44500+034170FM-12+007299999V0200801N005010360019N0220001N1+01451+00931101311ADDGF107991021051012501051021MA1999999100461MD1710021+9999REMSYN066AAXX  28121 33990 42672 70805 10145 20093 30046 40131 57002 82552;
0112339900999992000112815004+44500+034170FM-12+007299999V0200801N003019999999N0200001N1+01271+00861101451ADDGF108991081001999999071999MD1310131+9999REMSYN060AAXX  28151 33990 42970 80803 10127 20086 40145 53013 8807/;
0165339900999992000112818004+44500+034170FM-12+007299999V0201201N002012200019N0190001N1+01181+00941101561ADDAA199000091GF103991011051008001031001KA1999M+01501MD1210111+9999REMSYN070AAXX  28181 33990 32569 31202 10118 20094 40156 52011 81530 333 10150;EQDQ01  00002PRCP99
0112339900999992000112821004+44500+034170FM-12+007299999V0202901N001012200019N0180001N1+01061+00941101671ADDGF102991021001999999031001MD1210091+9999REMSYN060AAXX  28211 33990 42968 22901 10106 20094 40167 52009 82030;
0133339900999992000112900004+44500+034170FM-12+007299999V0202501N001019999999N0170001N1+01081+00901101651ADDGF107991041001999999031011MA1999999100771MD1810021+9999REMSYN066AAXX  29001 33990 42967 72501 10108 20090 30077 40165 58002 84031;
0138339900999992000112903004+44500+034170FM-12+007299999V0200801N001019999999N0170001N1+01201+00941101621ADDGF108991081001999999071999MD1510011+9999REMSYN086AAXX  29031 33990 42967 80801 10120 20094 40162 55001 8807/ 333 55007 555 20106 7000/;
0165339900999992000112906004+44500+034170FM-12+007299999V0202501N001019999999N0200001N1+01141+00971101681ADDAA199000091GF108991081001999999071999KA1999N+01061MD1210061+9999REMSYN070AAXX  29061 33990 32970 82501 10114 20097 40168 52006 8807/ 333 20106;EQDQ01  00002PRCP99
0112339900999992000112909004+44500+034170FM-12+007299999V0200901N003019999999N0100001N1+01301+01051101751ADDGF108991081001999999071999MD1010071+9999REMSYN060AAXX  29091 33990 42997 80903 10130 20105 40175 50007 8807/;
0133339900999992000112912004+44500+034170FM-12+007299999V0203601N002019999999N0150001N1+01241+01091101731ADDGF107991071001999999051001MA1999999100871MD1710021+9999REMSYN066AAXX  29121 33990 42965 73602 10124 20109 30087 40173 57002 87050;
0112339900999992000112915004+44500+034170FM-12+007299999V0202101N001010360019N0140001N1+01171+01051101781ADDGF108991021061004501071999MD1310051+9999REMSYN060AAXX  29151 33990 42464 82101 10117 20105 40178 53005 8267/;
0165339900999992000112918004+44500+034170FM-12+007299999V0202401N001010042019N0120001N1+01161+01041101891ADDAA199000091GF108991081061004501999999KA1999M+01411MD1210111+9999REMSYN070AAXX  29181 33990 32462 82401 10116 20104 40189 52011 886// 333 10141;EQDQ01  00002PRCP99
0112339900999992000112921004+44500+034170FM-12+007299999V0201801N001010042019N0110001N1+01201+01091101911ADDGF108991081061004501999999MD1210021+9999REMSYN060AAXX  29211 33990 42461 81801 10120 20109 40191 52002 886//;
0133339900999992000113000004+44500+034170FM-12+007299999V0202901N001010042019N0110001N1+01141+00941101951ADDGF108991081061004501999999MA1999999101091MD1210041+9999REMSYN066AAXX  30001 33990 42461 82901 10114 20094 30109 40195 52004 886//;
0138339900999992000113003004+44500+034170FM-12+007299999V0202701N001010042019N0140001N1+01131+00931101991ADDGF108991081061004501999999MD1210041+9999REMSYN086AAXX  30031 33990 42464 82701 10113 20093 40199 52004 886// 333 55001 555 20117 7000/;
0165339900999992000113006004+44500+034170FM-12+007299999V0202101N001010042019N0100001N1+01131+00921102141ADDAA199000091GF108991081061004501999999KA1999N+01091MD1210151+9999REMSYN070AAXX  30061 33990 32460 82101 10113 20092 40214 52015 886// 333 20109;EQDQ01  00002PRCP99
0140339900999992000113009004+44500+034170FM-12+007299999V0203301N001010042019N0060001N1+01121+01041102231ADDAY151031AY221031GF108991081061004501999999MD1110091+9999MW1511REMSYN066AAXX  30091 33990 41456 83301 10112 20104 40223 51009 75152 886//;
0161339900999992000113012004+44500+034170FM-12+007299999V0203301N002010042019N0080001N1+01131+01031102161ADDAY151061AY221061GF108991081061004501999999MA1999999101301MD1810071+9999MW1101REMSYN072AAXX  30121 33990 41458 83302 10113 20103 30130 40216 58007 71052 886//;
0140339900999992000113015004+44500+034170FM-12+007299999V0203201N001010042019N0090001N1+01121+01001102251ADDAY121031AY221031GF108991081061004501999999MD1310091+9999MW1101REMSYN066AAXX  30151 33990 41459 83201 10112 20100 40225 53009 71022 886//;
0174339900999992000113018004+44500+034170FM-12+007299999V0202101N001010042019N0090001N1+01111+00931102381ADDAA199000021AY121061AY221061GF108991081061004501999999KA1999M+01211MD1210121+9999MW1101REMSYN076AAXX  30181 33990 31459 82101 10111 20093 40238 52012 71022 886// 333 10121;
0140339900999992000113021004+44500+034170FM-12+007299999V0202401N001010042019N0100001N1+01091+00891102481ADDAY121031AY221031GF108991081061004501999999MD1210081+9999MW1101REMSYN066AAXX  30211 33990 41460 82401 10109 20089 40248 52008 71022 886//;
0133339900999992000120100004+44500+034170FM-12+007299999V0202901N002012200019N0140001N1+00941+00681102461ADDGF102991021061004501001001MA1999999101571MD1810021+9999REMSYN066AAXX  01001 33990 42464 22902 10094 20068 30157 40246 58002 82600;
0138339900999992000120103004+44500+034170FM-12+007299999V0203001N001010360019N0140001N1+00941+00671102551ADDGF106991021061004501051001MD1310091+9999REMSYN086AAXX  01031 33990 42464 63001 10094 20067 40255 53009 82650 333 55000 555 20086 7000/;
0165339900999992000120106004+44500+034170FM-12+007299999V0202501N001010120019N0120001N1+01021+00851102641ADDAA199000091GF107991071051012501001001KA1999N+00861MD1210091+9999REMSYN070AAXX  01061 33990 32662 72501 10102 20085 40264 52009 87500 333 20086;EQDQ01  00002PRCP99
0112339900999992000120109004+44500+034170FM-12+007299999V0202101N001010042019N0170001N1+01151+00851102701ADDGF108991081061004501999999MD1110081+9999REMSYN060AAXX  01091 33990 42467 82101 10115 20085 40270 51008 886//;
0133339900999992000120112004+44500+034170FM-12+007299999V0202001N002010042019N0180001N1+01181+00801102611ADDGF106991061061004501001001MA1999999101721MD1610111+9999REMSYN066AAXX  01121 33990 42468 62002 10118 20080 30172 40261 56011 86600;
0112339900999992000120115004+44500+034170FM-12+007299999V0209999C000010042019N0200001N1+01091+00821102611ADDGF108991081061004501999999MD1510001+9999REMSYN060AAXX  01151 33990 42470 80000 10109 20082 40261 55000 886//;
0165339900999992000120118004+44500+034170FM-12+007299999V0203001N001010075019N0230001N1+00981+00651102621ADDAA199000091GF106991061061008001001001KA1999M+01241MD1110011+9999REMSYN070AAXX  01181 33990 32573 63001 10098 20065 40262 51001 86600 333 10124;EQDQ01  00002PRCP99
0112339900999992000120121004+44500+034170FM-12+007299999V0209999C000010075019N0240001N1+00991+00701102561ADDGF108991081051008001999999MD1810061+9999REMSYN060AAXX  01211 33990 42574 80000 10099 20070 40256 58006 885//;
0138339900999992000120203004+44500+034170FM-12+007299999V0203001N001010075019N0200001N1+00791+00611102371ADDGF106991061051008001001001MD1710071+9999REMSYN086AAXX  02031 33990 42570 63001 10079 20061 40237 57007 86500 333 55000 555 20079 7000/;
0165339900999992000120206004+44500+034170FM-12+007299999V0202801N001012200019N0180001N1+00871+00611102411ADDAA199000091GF102991021041008001001001KA1999N+00791MD1310031+9999REMSYN070AAXX  02061 33990 32568 22801 10087 20061 40241 53003 82400 333 20079;EQDQ01  00002PRCP99
0112339900999992000120209004+44500+034170FM-12+007299999V0200401N001010900019N0210001N1+01361+00771102321ADDGF107991021051008001001021MD1810061+9999REMSYN060AAXX  02091 33990 42571 70401 10136 20077 40232 58006 82502;
0133339900999992000120212004+44500+034170FM-12+007299999V0201001N002010900019N0210001N1+01331+00821102201ADDGF106991041051008001001021MA1999999101341MD1710121+9999REMSYN066AAXX  02121 33990 42571 61002 10133 20082 30134 40220 57012 84502;
0112339900999992000120215004+44500+034170FM-12+007299999V0203401N001012200019N0200001N1+01141+00561102271ADDGF104991021051008001031001MD1310071+9999REMSYN060AAXX  02151 33990 42570 43401 10114 20056 40227 53007 82530;
0165339900999992000120218004+44500+034170FM-12+007299999V0202901N002010075019N0210001N1+01001+00501102361ADDAA199000091GF106991051051008001031001KA1999M+01451MD1210071+9999REMSYN070AAXX  02181 33990 32571 62902 10100 20050 40236 52007 85530 333 10145;EQDQ01  00002PRCP99
0112339900999992000120221004+44500+034170FM-12+007299999V0202801N001010042019N0170001N1+01071+00801102471ADDGF108991081061004501999999MD1210101+9999REMSYN060AAXX  02211 33990 42467 82801 10107 20080 40247 52010 886//;
0161339900999992000120300004+44500+034170FM-12+007299999V0200801N002010042019N0100001N1+01101+00981102481ADDAY181061AY221061GF108991081091004501999999MA1999999101591MD1110011+9999MW1801REMSYN072AAXX  03001 33990 41460 80802 10110 20098 30159 40248 51001 78082 889//;
0166339900999992000120303004+44500+034170FM-12+007299999V0200401N003010042019N0100001N1+01051+00991102521ADDAY181031AY221031GF108991081091004501999999MD1210041+9999MW1801REMSYN092AAXX  03031 33990 41460 80403 10105 20099 40252 52004 78082 889// 333 55061 555 20098 7002/;
0180339900999992000120306004+44500+034170FM-12+007299999V0200701N003010042019N0070001N1+00931+00891102691ADDAA112003091AY181061AY221061GF108991081091004501999999KA1999N+00931MD1310171+9999MW1801REMSYN082AAXX  03061 33990 11457 80703 10093 20089 40269 53017 60032 78082 889// 333 20093;
0140339900999992000120309004+44500+034170FM-12+007299999V0200901N001010042019N0100001N1+00901+00861102751ADDAY181031AY221031GF108991081061004501999999MD1210061+9999MW1021REMSYN066AAXX  03091 33990 41460 80901 10090 20086 40275 52006 70282 886//;
0161339900999992000120312004+44500+034170FM-12+007299999V0200901N002010042019N0100001N1+00991+00861102701ADDAY181061AY221061GF108991081061004501999999MA1999999101811MD1810051+9999MW1021REMSYN072AAXX  03121 33990 41460 80902 10099 20086 30181 40270 58005 70282 886//;
0140339900999992000120315004+44500+034170FM-12+007299999V0200601N001010042019N0100001N1+00991+00891102741ADDAY181031AY221031GF108991081091004501999999MD1310041+9999MW1801REMSYN066AAXX  03151 33990 41460 80601 10099 20089 40274 53004 78082 889//;
0180339900999992000120318004+44500+034170FM-12+007299999V0203401N001010042019N0100001N1+00971+00781102781ADDAA112000791AY181061AY221061GF108991081061004501999999KA1999M+00991MD1210041+9999MW1021REMSYN082AAXX  03181 33990 11460 83401 10097 20078 40278 52004 69902 70282 886// 333 10099;
0112339900999992000120321004+44500+034170FM-12+007299999V0203001N001010042019N0100001N1+00961+00801102821ADDGF108991081061004501999999MD1210041+9999REMSYN060AAXX  03211 33990 42460 83001 10096 20080 40282 52004 886//;
0133339900999992000120400004+44500+034170FM-12+007299999V0202701N001010042019N0100001N1+00971+00811102771ADDGF108991081061004501999999MA1999999101881MD1810061+9999REMSYN066AAXX  04001 33990 42460 82701 10097 20081 30188 40277 58006 886//;
0138339900999992000120403004+44500+034170FM-12+007299999V0200701N001010042019N0120001N1+01011+00851102721ADDGF108991081061004501999999MD1710051+9999REMSYN086AAXX  04031 33990 42462 80701 10101 20085 40272 57005 886// 333 55001 555 20095 7001/;
0112339900999992000120409004+44500+034170FM-12+007299999V0201301N001010075019N0140001N1+01131+00851102741ADDGF108991081051008001999999MD1110011+9999REMSYN060AAXX  04091 33990 42564 81301 10113 20085 40274 51001 885//;
0133339900999992000120412004+44500+034170FM-12+007299999V0202101N001010075019N0120001N1+01161+00901102651ADDGF108991081051008001999999MA1999999101781MD1810091+9999REMSYN066AAXX  04121 33990 42562 82101 10116 20090 30178 40265 58009 885//;
0112339900999992000120415004+44500+034170FM-12+007299999V0202501N001010075019N0150001N1+01101+00731102691ADDGF108991081051008001999999MD1310021+9999REMSYN060AAXX  04151 33990 42565 82501 10110 20073 40269 53002 885//;
0165339900999992000120418004+44500+034170FM-12+007299999V0202801N001010075019N0150001N1+01061+00701102691ADDAA199000091GF108991081051008001999999KA1999M+01161MD1010001+9999REMSYN070AAXX  04181 33990 32565 82801 10106 20070 40269 50000 885// 333 10116;EQDQ01  00002PRCP99
0112339900999992000120421004+44500+034170FM-12+007299999V0202701N001010075019N0170001N1+01051+00641102671ADDGF108991081051008001999999MD1710021+9999REMSYN060AAXX  04211 33990 42567 82701 10105 20064 40267 57002 885//;
0133339900999992000120500004+44500+034170FM-12+007299999V0202901N001010075019N0160001N1+01041+00681102611ADDGF107991071051008001001001MA1999999101721MD1710061+9999REMSYN066AAXX  05001 33990 42566 72901 10104 20068 30172 40261 57006 87500;
0138339900999992000120503004+44500+034170FM-12+007299999V0202801N001010075019N0170001N1+01041+00651102591ADDGF107991071051008001001001MD1710021+9999REMSYN086AAXX  05031 33990 42567 72801 10104 20065 40259 57002 87500 333 55000 555 20101 7000/;
0165339900999992000120506004+44500+034170FM-12+007299999V0203101N001010360019N0170001N1+01031+00701102621ADDAA199000091GF107991031051008001041001KA1999N+01011MD1310031+9999REMSYN070AAXX  05061 33990 32567 73101 10103 20070 40262 53003 83540 333 20101;EQDQ01  00002PRCP99
0112339900999992000120509004+44500+034170FM-12+007299999V0209999C000010075019N0240001N1+01221+00701102601ADDGF108991081051008001999999MD1410001+9999REMSYN060AAXX  05091 33990 42574 80000 10122 20070 40260 54000 885//;
0133339900999992000120512004+44500+034170FM-12+007299999V0209999C000010075019N0260001N1+01281+00811102521ADDGF107991071051008001001001MA1999999101651MD1610081+9999REMSYN066AAXX  05121 33990 42576 70000 10128 20081 30165 40252 56008 87500;
0112339900999992000120515004+44500+034170FM-12+007299999V0203201N001010360019N0270001N1+01101+00511102571ADDGF106991021051012501031011MD1310031+9999REMSYN060AAXX  05151 33990 42677 63201 10110 20051 40257 53003 82531;
0165339900999992000120518004+44500+034170FM-12+007299999V0203401N001010075019N0260001N1+01131+00451102641ADDAA199000091GF108991081051008001999999KA1999M+01311MD1210071+9999REMSYN070AAXX  05181 33990 32576 83401 10113 20045 40264 52007 885// 333 10131;EQDQ01  00002PRCP99
0112339900999992000120521004+44500+034170FM-12+007299999V0202701N001010120019N0290001N1+01071+00431102671ADDGF108991081051012501999999MD1310031+9999REMSYN060AAXX  05211 33990 42679 82701 10107 20043 40267 53003 885//;
0133339900999992000120600004+44500+034170FM-12+007299999V0202801N001010120019N0270001N1+01051+00431102671ADDGF108991081051012501999999MA1999999101781MD1410001+9999REMSYN066AAXX  06001 33990 42677 82801 10105 20043 30178 40267 54000 885//;
0138339900999992000120603004+44500+034170FM-12+007299999V0203101N001010075019N0250001N1+01111+00551102671ADDGF108991081051008001999999MD1410001+9999REMSYN086AAXX  06031 33990 42575 83101 10111 20055 40267 54000 885// 333 55000 555 20099 7000/;
0165339900999992000120606004+44500+034170FM-12+007299999V0201201N003010075019N0180001N1+01091+00781102731ADDAA199000091GF108991081091008001999999KA1999N+00991MD1310061+9999REMSYN070AAXX  06061 33990 32568 81203 10109 20078 40273 53006 889// 333 20099;EQDQ01  00002PRCP99
0140339900999992000120609004+44500+034170FM-12+007299999V0201001N002010075019N0180001N1+00961+00761102801ADDAY181031AY221031GF108991081091008001999999MD1110071+9999MW1251REMSYN066AAXX  06091 33990 41568 81002 10096 20076 40280 51007 72582 889//;
0161339900999992000120612004+44500+034170FM-12+007299999V0201101N002010075019N0200001N1+00911+00671102711ADDAY181061AY221061GF108991081091008001999999MA1999999101821MD1810091+9999MW1021REMSYN072AAXX  06121 33990 41570 81102 10091 20067 30182 40271 58009 70282 889//;
0140339900999992000120615004+44500+034170FM-12+007299999V0203401N002010075019N0180001N1+00921+00681102761ADDAY181031AY221031GF108991081091008001999999MD1310051+9999MW1801REMSYN066AAXX  06151 33990 41568 83402 10092 20068 40276 53005 78082 889//;
0180339900999992000120618004+44500+034170FM-12+007299999V0200601N004010075019N0170001N1+00841+00671102811ADDAA112002091AY181061AY221061GF108991081091008001999999KA1999M+01091MD1210051+9999MW1801REMSYN082AAXX  06181 33990 11567 80604 10084 20067 40281 52005 60022 78082 889// 333 10109;
0140339900999992000120621004+44500+034170FM-12+007299999V0200601N003010075019N0180001N1+00801+00611102751ADDAY181031AY221031GF108991081051008001999999MD1810061+9999MW1021REMSYN066AAXX  06211 33990 41568 80603 10080 20061 40275 58006 70282 885//;
0161339900999992000120700004+44500+034170FM-12+007299999V0200501N004010075019N0180001N1+00741+00511102711ADDAY181061AY221061GF108991081051008001999999MA1999999101821MD1610041+9999MW1021REMSYN072AAXX  07001 33990 41568 80504 10074 20051 30182 40271 56004 70282 885//;
0138339900999992000120703004+44500+034170FM-12+007299999V0200501N004010075019N0190001N1+00681+00421102711ADDGF108991081051008001999999MD1410001+9999REMSYN086AAXX  07031 33990 42569 80504 10068 20042 40271 54000 885// 333 55000 555 20068 7002/;
0152339900999992000120706004+44500+034170FM-12+007299999V0200501N005010042019N0180001N1+00641+00411102721ADDAA112000791GF108991081051004501999999KA1999N+00641MD1510001+9999REMSYN076AAXX  07061 33990 12468 80505 10064 20041 40272 55000 69902 885// 333 20064;
0112339900999992000120709004+44500+034170FM-12+007299999V0200501N005010042019N0150001N1+00471+00251102791ADDGF108991081051004501999999MD1210071+9999REMSYN060AAXX  07091 33990 42465 80505 10047 20025 40279 52007 885//;
0127339900999992000120712004+44500+034170FM-12+007299999V0200501N005010042019N0180001N1+00481+00151999999ADDGF108991081061004501999999MA1999999102731MD1810061+9999REMSYN060AAXX  07121 33990 42468 80505 10048 20015 30273 58006 886//;
0112339900999992000120715004+44500+034170FM-12+007299999V0200601N003010042019N0180001N1+00481+00151102771ADDGF108991081051004501999999MD1310041+9999REMSYN060AAXX  07151 33990 42468 80603 10048 20015 40277 53004 885//;
0165339900999992000120718004+44500+034170FM-12+007299999V0200701N005010075019N0200001N1+00391+00051102801ADDAA199000091GF108991081051008001999999KA1999M+00641MD1210031+9999REMSYN070AAXX  07181 33990 32570 80705 10039 20005 40280 52003 885// 333 10064;EQDQ01  00002PRCP99
0112339900999992000120721004+44500+034170FM-12+007299999V0200501N005010075019N0200001N1+00341-00131102851ADDGF107991071051008001001001MD1210051+9999REMSYN060AAXX  07211 33990 42570 70505 10034 21013 40285 52005 87500;
0133339900999992000120800004+44500+034170FM-12+007299999V0200401N006012200019N0220001N1+00231-00201102851ADDGF102991021051012501001001MA1999999101951MD1410001+9999REMSYN066AAXX  08001 33990 42672 20406 10023 21020 30195 40285 54000 82500;
0156339900999992000120803004+44500+034170FM-12+007299999V0200501N004012200019N0220001N1+00091-00271102871ADDGA1001+999999999GF100991001001999999001001GJ100009MD1410001+9999REMSYN080AAXX  08031 33990 42972 00504 10009 21027 40287 54000 333 55000 555 20003 7000/;
0165339900999992000120806004+44500+034170FM-12+007299999V0200901N002012200019N0250001N1+00171-00341102921ADDAA199000091GF102991021051012501001001KA1999N+00031MD1310051+9999REMSYN070AAXX  08061 33990 32675 20902 10017 21034 40292 53005 82500 333 20003;EQDQ01  00002PRCP99
0112339900999992000120809004+44500+034170FM-12+007299999V0200501N007010360019N0280001N1+00501-00061102881ADDGF106991031051008001051001MD1810021+9999REMSYN060AAXX  08091 33990 42578 60507 10050 21006 40288 58002 83550;
0133339900999992000120812004+44500+034170FM-12+007299999V0200601N005010075019N0240001N1+00431-00021102811ADDGF106991061051008001001001MA1999999101911MD1710071+9999REMSYN066AAXX  08121 33990 42574 60605 10043 21002 30191 40281 57007 86500;
0112339900999992000120815004+44500+034170FM-12+007299999V0200401N005010075019N0210001N1+00391-00011102861ADDGF106991061051008001001001MD1310051+9999REMSYN060AAXX  08151 33990 42571 60405 10039 21001 40286 53005 86500;
0112339900999992000120821004+44500+034170FM-12+007299999V0200801N003010075019N0180001N1+00331+00041102931ADDGF108991081051008001999999MD1210041+9999REMSYN060AAXX  08211 33990 42568 80803 10033 20004 40293 52004 885//;
0133339900999992000120900004+44500+034170FM-12+007299999V0201501N002010042019N0200001N1+00331+00011102961ADDGF108991081061004501999999MA1999999102061MD1210031+9999REMSYN066AAXX  09001 33990 42470 81502 10033 20001 30206 40296 52003 886//;
0123339900999992000120903004+44500+034170FM-12+007299999V0203401N001019999999N0220001N1+00341-00011999999ADDGF108991999999004501999999REMSYN085AAXX  09031 33990 42472 83401 10034 21001 4026 50000 886// 333 55017 555 20032 7000/;
0165339900999992000120906004+44500+034170FM-12+007299999V0203501N001010042019N0200001N1+00351+00091103051ADDAA199000091GF108991081061004501999999KA1999N+00321MD1310091+9999REMSYN070AAXX  09061 33990 32470 83501 10035 20009 40305 53009 886// 333 20032;EQDQ01  00002PRCP99
0133339900999992000120912004+44500+034170FM-12+007299999V0201801N001010075019N0240001N1+00541+00221103001ADDGF106991061051008001001001MA1999999102101MD1610081+9999REMSYN066AAXX  09121 33990 42574 61801 10054 20022 30210 40300 56008 86500;
0112339900999992000120915004+44500+034170FM-12+007299999V0203201N001010075019N0240001N1+00531+00261102991ADDGF108991081051008001999999MD1710011+9999REMSYN060AAXX  09151 33990 42574 83201 10053 20026 40299 57001 885//;
0165339900999992000120918004+44500+034170FM-12+007299999V0203201N001010075019N0230001N1+00501+00201103021ADDAA199000091GF108991081051008001999999KA1999M+00601MD1210031+9999REMSYN070AAXX  09181 33990 32573 83201 10050 20020 40302 52003 885// 333 10060;EQDQ01  00002PRCP99
0112339900999992000120921004+44500+034170FM-12+007299999V0202901N002010075019N0250001N1+00491+00191103011ADDGF108991081051008001999999MD1710011+9999REMSYN060AAXX  09211 33990 42575 82902 10049 20019 40301 57001 885//;
0133339900999992000121000004+44500+034170FM-12+007299999V0202901N002010075019N0240001N1+00501+00201102941ADDGF108991081051008001999999MA1999999102041MD1610071+9999REMSYN066AAXX  10001 33990 42574 82902 10050 20020 30204 40294 56007 885//;
0138339900999992000121003004+44500+034170FM-12+007299999V0203001N002010075019N0230001N1+00521+00171102891ADDGF108991081051008001999999MD1810051+9999REMSYN086AAXX  10031 33990 42573 83002 10052 20017 40289 58005 885// 333 55010 555 20045 7000/;
0165339900999992000121006004+44500+034170FM-12+007299999V0202901N001010900019N0250001N1+00501+00251102891ADDAA199000091GF108991011041008001001091KA1999N+00421MD1410001+9999REMSYN070AAXX  10061 33990 32575 82901 10050 20025 40289 54000 81409 333 20042;EQDQ01  00002PRCP99
0112339900999992000121009004+44500+034170FM-12+007299999V0201201N002010360019N0210001N1+00861+00341102851ADDGF107991021051008001051001MD1810031+9999REMSYN060AAXX  10091 33990 42571 71202 10086 20034 40285 58003 82550;
0133339900999992000121012004+44500+034170FM-12+007299999V0201601N001010360019N0220001N1+00811+00401102641ADDGF106991021051008001031011MA1999999101751MD1710211+9999REMSYN066AAXX  10121 33990 42572 61601 10081 20040 30175 40264 57021 82531;
0112339900999992000121015004+44500+034170FM-12+007299999V0203001N001012200019N0130001N1+00561+00351102541ADDGF103991001001999999001011MD1710111+9999REMSYN060AAXX  10151 33990 42963 33001 10056 20035 40254 57011 80001;
0165339900999992000121018004+44500+034170FM-12+007299999V0203401N002010360019N0140001N1+00561+00371102491ADDAA199000091GF107991021051008001031001KA1999M+00961MD1710051+9999REMSYN070AAXX  10181 33990 32564 73402 10056 20037 40249 57005 82530 333 10096;EQDQ01  00002PRCP99
0112339900999992000121021004+44500+034170FM-12+007299999V0203201N002019999999N0160001N1+00701+00341102341ADDGF107991001001999999001061MD1710141+9999REMSYN060AAXX  10211 33990 42966 73202 10070 20034 40234 57014 80006;
0133339900999992000121100004+44500+034170FM-12+007299999V0202901N002019999999N0180001N1+00761+00361102211ADDGF107991001001999999001071MA1999999101331MD1710121+9999REMSYN066AAXX  11001 33990 42968 72902 10076 20036 30133 40221 57012 80007;
0138339900999992000121103004+44500+034170FM-12+007299999V0202901N002010360019N0180001N1+00781+00431102091ADDGF108991031051008001021999MD1710121+9999REMSYN086AAXX  11031 33990 42568 82902 10078 20043 40209 57012 8352/ 333 55035 555 20055 7000/;
0165339900999992000121106004+44500+034170FM-12+007299999V0203401N001010360019N0190001N1+00801+00481102051ADDAA199000091GF108991041051008001071999KA1999N+00551MD1610041+9999REMSYN070AAXX  11061 33990 32569 83401 10080 20048 40205 56004 8457/ 333 20055;EQDQ01  00002PRCP99
0112339900999992000121109004+44500+034170FM-12+007299999V0202001N001010075019N0180001N1+01051+00591101981ADDGF108991061091008001071999MD1810071+9999REMSYN060AAXX  11091 33990 42568 82001 10105 20059 40198 58007 8697/;
0161339900999992000121112004+44500+034170FM-12+007299999V0203001N002010075019N0170001N1+00931+00741101851ADDAY181061AY221061GF108991071031008001071999MA1999999100971MD1710131+9999MW1021REMSYN072AAXX  11121 33990 41567 83002 10093 20074 30097 40185 57013 70282 8737/;
0140339900999992000121115004+44500+034170FM-12+007299999V0203301N002010075019N0140001N1+00831+00741101831ADDAY181031AY221031GF108991081091008001999999MD1610021+9999MW1251REMSYN066AAXX  11151 33990 41564 83302 10083 20074 40183 56002 72582 889//;
0180339900999992000121118004+44500+034170FM-12+007299999V0202901N002010075019N0150001N1+00811+00741101861ADDAA112002091AY181061AY221061GF108991081031008001999999KA1999M+01051MD1310031+9999MW1251REMSYN082AAXX  11181 33990 11565 82902 10081 20074 40186 53003 60022 72582 883// 333 10105;
0112339900999992000121121004+44500+034170FM-12+007299999V0203001N002010075019N0180001N1+00811+00681101881ADDGF108991081051008001999999MD1110021+9999REMSYN060AAXX  11211 33990 42568 83002 10081 20068 40188 51002 885//;
0133339900999992000121200004+44500+034170FM-12+007299999V0202601N001010075019N0200001N1+00881+00711101901ADDGF108991081051008001999999MA1999999101021MD1210021+9999REMSYN066AAXX  12001 33990 42570 82601 10088 20071 30102 40190 52002 885//;
0166339900999992000121203004+44500+034170FM-12+007299999V0202901N001010075019N0150001N1+00821+00741101951ADDAY181031AY221031GF108991081091008001999999MD1210051+9999MW1801REMSYN092AAXX  12031 33990 41565 82901 10082 20074 40195 52005 78082 889// 333 55000 555 20081 7003/;
0180339900999992000121206004+44500+034170FM-12+007299999V0202901N002010075019N0200001N1+00861+00681102081ADDAA112000391AY181061AY221061GF108991081031008001999999KA1999N+00811MD1210131+9999MW1021REMSYN082AAXX  12061 33990 11570 82902 10086 20068 40208 52013 69932 70282 883// 333 20081;
0112339900999992000121209004+44500+034170FM-12+007299999V0200901N001010075019N0240001N1+00961+00771102181ADDGF108991081051008001999999MD1210101+9999REMSYN060AAXX  12091 33990 42574 80901 10096 20077 40218 52010 885//;
0161339900999992000121212004+44500+034170FM-12+007299999V0200701N001010042019N0180001N1+00981+00701102211ADDAY181061AY221061GF108991081091004501999999MA1999999101331MD1110031+9999MW1801REMSYN072AAXX  12121 33990 41468 80701 10098 20070 30133 40221 51003 78082 889//;
0140339900999992000121215004+44500+034170FM-12+007299999V0200901N001010075019N0200001N1+00891+00621102311ADDAY181031AY221031GF108991081051008001999999MD1210101+9999MW1021REMSYN066AAXX  12151 33990 41570 80901 10089 20062 40231 52010 70282 885//;
0180339900999992000121218004+44500+034170FM-12+007299999V0203601N001010075019N0200001N1+00841+00591102351ADDAA112000191AY181061AY221061GF107991071051008001001001KA1999M+00981MD1210041+9999MW1021REMSYN082AAXX  12181 33990 11570 73601 10084 20059 40235 52004 69912 70282 87500 333 10098;
0112339900999992000121221004+44500+034170FM-12+007299999V0203001N001010075019N0220001N1+00791+00501102341ADDGF108991081051008001999999MD1810011+9999REMSYN060AAXX  12211 33990 42572 83001 10079 20050 40234 58001 885//;
0133339900999992000121300004+44500+034170FM-12+007299999V0202901N001010042019N0200001N1+00771+00551102331ADDGF108991081061004501999999MA1999999101451MD1710011+9999REMSYN066AAXX  13001 33990 42470 82901 10077 20055 30145 40233 57001 886//;
0166339900999992000121303004+44500+034170FM-12+007299999V0202501N001010075019N0200001N1+00741+00611102291ADDAY181031AY221031GF108991081091008001999999MD1710041+9999MW1801REMSYN092AAXX  13031 33990 41570 82501 10074 20061 40229 57004 78082 889// 333 55000 555 20074 7992/;
0180339900999992000121306004+44500+034170FM-12+007299999V0201201N001010075019N0210001N1+00741+00551102331ADDAA112000191AY181061AY221061GF108991081091008001999999KA1999N+00741MD1310041+9999MW1021REMSYN082AAXX  13061 33990 11571 81201 10074 20055 40233 53004 69912 70282 889// 333 20074;
0112339900999992000121309004+44500+034170FM-12+007299999V0200801N001010075019N0290001N1+00761+00481102311ADDGF108991081051008001999999MD1810021+9999REMSYN060AAXX  13091 33990 42579 80801 10076 20048 40231 58002 885//;
0133339900999992000121312004+44500+034170FM-12+007299999V0201001N001010075019N0290001N1+00801+00511102211ADDGF108991081051008001999999MA1999999101331MD1710101+9999REMSYN066AAXX  13121 33990 42579 81001 10080 20051 30133 40221 57010 885//;
0112339900999992000121315004+44500+034170FM-12+007299999V0201501N001010075019N0250001N1+00771+00531102231ADDGF108991081051008001999999MD1310021+9999REMSYN060AAXX  13151 33990 42575 81501 10077 20053 40223 53002 885//;
0165339900999992000121318004+44500+034170FM-12+007299999V0202501N001010075019N0190001N1+00711+00511102231ADDAA199000091GF106991061051008001001001KA1999M+00841MD1010001+9999REMSYN070AAXX  13181 33990 32569 62501 10071 20051 40223 50000 86500 333 10084;EQDQ01  00002PRCP99
0112339900999992000121321004+44500+034170FM-12+007299999V0202901N001012200019N0200001N1+00551+00331102131ADDGF103991031051012501001001MD1710111+9999REMSYN060AAXX  13211 33990 42670 32901 10055 20033 40213 57011 83500;
0133339900999992000121400004+44500+034170FM-12+007299999V0202901N001010075019N0210001N1+00561+00321102091ADDGF105991051051008001001001MA1999999101201MD1710041+9999REMSYN066AAXX  14001 33990 42571 52901 10056 20032 30120 40209 57004 85500;
0138339900999992000121403004+44500+034170FM-12+007299999V0202601N002010120019N0210001N1+00601+00361101951ADDGF106991051051012501041001MD1710141+9999REMSYN086AAXX  14031 33990 42671 62602 10060 20036 40195 57014 85540 333 55000 555 20047 7990/;
0165339900999992000121406004+44500+034170FM-12+007299999V0203101N001010120019N0230001N1+00681+00401101901ADDAA199000091GF108991081051012501999999KA1999N+00471MD1710041+9999REMSYN070AAXX  14061 33990 32673 83101 10068 20040 40190 57004 885// 333 20047;EQDQ01  00002PRCP99
0140339900999992000121409004+44500+034170FM-12+007299999V0201801N001010075019N0240001N1+00871+00701101761ADDAY181031AY221031GF108991081091008001999999MD1810141+9999MW1021REMSYN066AAXX  14091 33990 41574 81801 10087 20070 40176 58014 70282 889//;
0161339900999992000121412004+44500+034170FM-12+007299999V0203101N001010075019N0260001N1+00881+00771101601ADDAY181061AY221061GF108991081091008001999999MA1999999100721MD1610161+9999MW1021REMSYN072AAXX  14121 33990 41576 83101 10088 20077 30072 40160 56016 70282 889//;
0112339900999992000121415004+44500+034170FM-12+007299999V0203001N001010075019N0250001N1+00801+00671101481ADDGF108991051091008001051999MD1710121+9999REMSYN060AAXX  14151 33990 42575 83001 10080 20067 40148 57012 8595/;
0161339900999992000121418004+44500+034170FM-12+007299999V0202801N001010075019N0240001N1+00741+00651101451ADDAA112007191AY181061AY221061GF108991081091008001999999MD1710031+9999MW1801REMSYN076AAXX  14181 33990 11574 82801 10074 20065 40145 57003 60072 78082 889// 333;
0140339900999992000121421004+44500+034170FM-12+007299999V0202901N001010360019N0250001N1+00761+00671101341ADDAY181031AY221031GF108991041091008001051999MD1710101+9999MW1021REMSYN066AAXX  14211 33990 41575 82901 10076 20067 40134 57010 70282 8495/;
0161339900999992000121500004+44500+034170FM-12+007299999V0202701N002019999999N0300001N1+00811+00611101321ADDAY181061AY221061GF108991001001999999001011MA1999999100451MD1810021+9999MW1021REMSYN072AAXX  15001 33990 41980 82702 10081 20061 30045 40132 58002 70282 80001;
0138339900999992000121503004+44500+034170FM-12+007299999V0202401N001019999999N0400001N1+00791+00451101181ADDGF108991021001999999031071MD1810041+9999REMSYN086AAXX  15031 33990 42982 82401 10079 20045 40118 58004 82037 333 55000 555 20072 7008/;
0152339900999992000121506004+44500+034170FM-12+007299999V0203001N001019999999N0400001N1+00841+00451101341ADDAA112000591GF108991021001999999031071KA1999N+00721MD1310061+9999REMSYN076AAXX  15061 33990 12982 83001 10084 20045 40134 53006 69962 82037 333 20072;
0112339900999992000121509004+44500+034170FM-12+007299999V0201601N001012200019N0260001N1+01161+00561101261ADDGF107991011021012501001011MD1810061+9999REMSYN060AAXX  15091 33990 42676 71601 10116 20056 40126 58006 81201;
0133339900999992000121512004+44500+034170FM-12+007299999V0202101N002010360019N0270001N1+01201+00841101171ADDGF107991021021008001031011MA1999999100311MD1710101+9999REMSYN066AAXX  15121 33990 42577 72102 10120 20084 30031 40117 57010 82231;
0112339900999992000121515004+44500+034170FM-12+007299999V0202901N001010075019N0220001N1+01021+00761101151ADDGF108991081051008001999999MD1610031+9999REMSYN060AAXX  15151 33990 42572 82901 10102 20076 40115 56003 885//;
0165339900999992000121518004+44500+034170FM-12+007299999V0202701N001010075019N0200001N1+01031+00781101101ADDAA199000091GF108991081051008001999999KA1999M+01261MD1810051+9999REMSYN070AAXX  15181 33990 32570 82701 10103 20078 40110 58005 885// 333 10126;EQDQ01  00002PRCP99
0140339900999992000121521004+44500+034170FM-12+007299999V0201801N002010075019N0120001N1+01091+00971101001ADDAY181031AY221031GF108991081091008001999999MD1710101+9999MW1801REMSYN066AAXX  15211 33990 41562 81802 10109 20097 40100 57010 78082 889//;
0161339900999992000121600004+44500+034170FM-12+007299999V0201801N003010075019N0140001N1+01081+00881100891ADDAY181061AY221061GF106991061091008001001001MA1999999100021MD1710111+9999MW1021REMSYN072AAXX  16001 33990 41564 61803 10108 20088 30002 40089 57011 70282 86900;
0138339900999992000121603004+44500+034170FM-12+007299999V0202701N001012200019N0160001N1+00921+00711100781ADDGF104991041051008001001001MD1710111+9999REMSYN086AAXX  16031 33990 42566 42701 10092 20071 40078 57011 84500 333 55015 555 20092 7994/;
0152339900999992000121606004+44500+034170FM-12+007299999V0201801N001010075019N0160001N1+01041+00801100761ADDAA112000591GF108991081051008001999999KA1999N+00881MD1710021+9999REMSYN076AAXX  16061 33990 12566 81801 10104 20080 40076 57002 69942 885// 333 20088;
0112339900999992000121609004+44500+034170FM-12+007299999V0202201N002010120019N0170001N1+01291+00921100641ADDGF108991081081008001999999MD1810101+9999REMSYN060AAXX  16091 33990 42567 82202 10129 20092 40064 58010 888//;
0133339900999992000121612004+44500+034170FM-12+007299999V0202101N003010075019N0170001N1+01291+01021100471ADDGF107991051051008001001021MA1999999099621MD1710171+9999REMSYN066AAXX  16121 33990 42567 72103 10129 20102 39962 40047 57017 85502;
0112339900999992000121615004+44500+034170FM-12+007299999V0200501N001012200019N0150001N1+01081+00941100391ADDGF106991031051008001001011MD1710101+9999REMSYN060AAXX  16151 33990 42565 60501 10108 20094 40039 57010 83501;
0165339900999992000121618004+44500+034170FM-12+007299999V0202201N003010075019N0180001N1+01251+00981100271ADDAA199000091GF106991061051008001001001KA1999M+01341MD1710101+9999REMSYN070AAXX  16181 33990 32568 62203 10125 20098 40027 57010 86500 333 10134;EQDQ01  00002PRCP99
0112339900999992000121621004+44500+034170FM-12+007299999V0202101N003012200019N0200001N1+01331+00891100171ADDGF104991041051008001001001MD1710101+9999REMSYN060AAXX  16211 33990 42570 42103 10133 20089 40017 57010 84500;
0161339900999992000121700004+44500+034170FM-12+007299999V0202401N003010075019N0100001N1+01111+00821100271ADDAY181061AY211061GF108991081091008001999999MA1999999099411MD1310091+9999MW1811REMSYN072AAXX  17001 33990 41560 82403 10111 20082 39941 40027 53009 78181 889//;
0166339900999992000121703004+44500+034170FM-12+007299999V0202401N003010075019N0200001N1+00921+00501100451ADDAY181031AY221031GF105991051031008001001001MD1210171+9999MW1021REMSYN092AAXX  17031 33990 41570 52403 10092 20050 40045 52017 70282 85300 333 55002 555 20088 7004/;
0180339900999992000121706004+44500+034170FM-12+007299999V0203101N005012200019N0210001N1+00841+00211100841ADDAA112005191AY181061AY211061GF104991041091008001001001KA1999N+00791MD1210391+9999MW1021REMSYN082AAXX  17061 33990 11571 43105 10084 20021 40084 52039 60052 70281 84900 333 20079;
0140339900999992000121709004+44500+034170FM-12+007299999V0202301N003010075019N0230001N1+00891+00301101141ADDAY181031AY221031GF107991071091008001001001MD1210301+9999MW1801REMSYN066AAXX  17091 33990 41573 72303 10089 20030 40114 52030 78082 87900;
0161339900999992000121712004+44500+034170FM-12+007299999V0202301N003010075019N0200001N1+00871+00191101431ADDAY181061AY221061GF107991071091008001001001MA1999999100551MD1210281+9999MW1801REMSYN072AAXX  17121 33990 41570 72303 10087 20019 30055 40143 52028 78082 87900;
0140339900999992000121715004+44500+034170FM-12+007299999V0202901N002012200019N0210001N1+00821-00051101431ADDAY181031AY211031GF103991031091012501001001MD1210231+9999MW1021REMSYN066AAXX  17151 33990 41671 32902 10082 21005 40143 52023 70281 83900;
0180339900999992000121718004+44500+034170FM-12+007299999V0202301N001012200019N0210001N1+00681+00611101791ADDAA112002091AY181061AY211061GF102991021051012501001001KA1999M+01071MD1210131+9999MW1021REMSYN082AAXX  17181 33990 11671 22301 10068 20061 40179 52013 60022 70281 82500 333 10107;
0180339900999992000121721004+44500+034170FM-12+007299999V0202301N001012200019N0210001N1+00681-00021101791ADDAA102006191AY181031AY211031GF102991021051012501001001KA1999M+01071MD1210131+9999MW1021REMSYN082AAXX  17211 33990 11671 22301 10068 21002 40179 52013 60066 70281 82500 333 10107;
0133339900999992000121800004+44500+034170FM-12+007299999V0202501N001010120019N0240001N1+00761+00001101851ADDGF106991061051012501001001MA1999999100971MD1210041+9999REMSYN066AAXX  18001 33990 42674 62501 10076 20000 30097 40185 52004 86500;
0138339900999992000121803004+44500+034170FM-12+007299999V0202401N002012200019N0240001N1+00781-00051101851ADDGF102991021051012501001001MD1410001+9999REMSYN086AAXX  18031 33990 42674 22402 10078 21005 40185 54000 82500 333 55045 555 20061 7002/;
0165339900999992000121806004+44500+034170FM-12+007299999V0202701N001010360019N0260001N1+00711-00051101851ADDAA199000091GF107991021041012501011031KA1999N+00611MD1410001+9999REMSYN070AAXX  18061 33990 32676 72701 10071 21005 40185 54000 82413 333 20061;EQDQ01  00002PRCP99
0112339900999992000121809004+44500+034170FM-12+007299999V0202101N001010075019N0220001N1+00851+00361101841ADDGF108991081051008001999999MD1810011+9999REMSYN060AAXX  18091 33990 42572 82101 10085 20036 40184 58001 885//;
0133339900999992000121812004+44500+034170FM-12+007299999V0203001N001010075019N0220001N1+00851+00341101711ADDGF108991081051008001999999MA1999999100831MD1710131+9999REMSYN066AAXX  18121 33990 42572 83001 10085 20034 30083 40171 57013 885//;
0112339900999992000121815004+44500+034170FM-12+007299999V0200201N002012200019N0250001N1+00701+00001101761ADDGF102991011001999999041011MD1310051+9999REMSYN060AAXX  18151 33990 42975 20202 10070 21000 40176 53005 81041;
0165339900999992000121818004+44500+034170FM-12+007299999V0203001N001012200019N0240001N1+00631-00051101831ADDAA199000091GF102991021001999999041001KA1999M+01011MD1210061+9999REMSYN070AAXX  18181 33990 32974 23001 10063 21005 40183 52006 82040 333 10101;EQDQ01  00002PRCP99
0112339900999992000121821004+44500+034170FM-12+007299999V0202701N001012200019N0280001N1+00621-00201101831ADDGF102991021051008001001001MD1010001+9999REMSYN060AAXX  18211 33990 42578 22701 10062 21020 40183 50000 82500;
0133339900999992000121900004+44500+034170FM-12+007299999V0203001N001010120019N0300001N1+00611-00601101801ADDGF106991051051012501001011MA1999999100911MD1710031+9999REMSYN066AAXX  19001 33990 42680 63001 10061 21060 30091 40180 57003 85501;
0138339900999992000121903004+44500+034170FM-12+007299999V0203301N001010120019N0270001N1+00651-00061101791ADDGF108991081051012501999999MD1710011+9999REMSYN086AAXX  19031 33990 42677 83301 10065 21006 40179 57001 885// 333 55003 555 20060 7000/;
0180339900999992000121906004+44500+034170FM-12+007299999V0203101N001010075019N0110001N1+00501+00361101781ADDAA112000891AY181061AY221061GF108991081091008001999999KA1999N+00501MD1310081+9999MW1801REMSYN082AAXX  19061 33990 11561 83101 10050 20036 40178 53008 69972 78082 889// 333 20050;
0140339900999992000121909004+44500+034170FM-12+007299999V0203401N001010042019N0180001N1+00511+00391101831ADDAY181031AY221031GF108991081091004501999999MD1810041+9999MW1801REMSYN066AAXX  19091 33990 41468 83401 10051 20039 40183 58004 78082 889//;
0161339900999992000121912004+44500+034170FM-12+007299999V0203001N001010075019N0260001N1+00521+00401101741ADDAY181061AY221061GF108991051091008001051999MA1999999100851MD1710091+9999MW1251REMSYN072AAXX  19121 33990 41576 83001 10052 20040 30085 40174 57009 72582 8595/;
0112339900999992000121915004+44500+034170FM-12+007299999V0202901N001010360019N0280001N1+00401+00301101751ADDGF108991021091008001051999MD1210011+9999REMSYN060AAXX  19151 33990 42578 82901 10040 20030 40175 52001 8295/;
0152339900999992000121918004+44500+034170FM-12+007299999V0203001N002010360019N0300001N1+00341+00131101761ADDAA112006191GF108991031091008001051999KA1999M+00541MD1010011+9999REMSYN076AAXX  19181 33990 12580 83002 10034 20013 40176 50001 60062 8395/ 333 10054;
0112339900999992000121921004+44500+034170FM-12+007299999V0202801N001010360019N0350001N1+00361+00011101701ADDGF108991021041012501031011MD1810061+9999REMSYN060AAXX  19211 33990 42681 82801 10036 20001 40170 58006 82431;
0133339900999992000122000004+44500+034170FM-12+007299999V0202501N002012200019N0400001N1+00261-00331101691ADDGF102991011041012501031001MA1999999100801MD1510011+9999REMSYN066AAXX  20001 33990 42682 22502 10026 21033 30080 40169 55001 81430;
0138339900999992000122003004+44500+034170FM-12+007299999V0202601N001010120019N0400001N1+00351-00471101681ADDGF106991061051012501001001MD1810011+9999REMSYN086AAXX  20031 33990 42682 62601 10035 21047 40168 58001 86500 333 55000 555 20025 7006/;
0165339900999992000122006004+44500+034170FM-12+007299999V0202801N001012200019N0350001N1+00341-00521101701ADDAA199000091GF103991021041012501001021KA1999N+00251MD1210021+9999REMSYN070AAXX  20061 33990 32681 32801 10034 21052 40170 52002 82402 333 20025;EQDQ01  00002PRCP99
0112339900999992000122009004+44500+034170FM-12+007299999V0200501N003010075019N0300001N1+00691-00201101701ADDGF107991071031008001001001MD1110011+9999REMSYN060AAXX  20091 33990 42580 70503 10069 21020 40170 51001 87300;
0161339900999992000122012004+44500+034170FM-12+007299999V0203201N001010075019N0040001N1+00091+00041101731ADDAY181061AY211061GF108991081091008001999999MA1999999100821MD1410001+9999MW1851REMSYN072AAXX  20121 33990 41540 83201 10009 20004 30082 40173 54000 78581 889//;
0140339900999992000122015004+44500+034170FM-12+007299999V0202701N002012200019N0220001N1+00111-00181101761ADDAY181031AY211031GF102991021041008001001001MD1310031+9999MW1021REMSYN066AAXX  20151 33990 41572 22702 10011 21018 40176 53003 70281 82400;
0180339900999992000122018004+44500+034170FM-12+007299999V0203201N003012200019N0220001N1+00061-00511101841ADDAA112004191AY181061AY211061GF102991021051008001001001KA1999M+00711MD1210081+9999MW1021REMSYN082AAXX  20181 33990 11572 23203 10006 21051 40184 52008 60042 70281 82500 333 10071;
0112339900999992000122021004+44500+034170FM-12+007299999V0203201N002010120019N0240001N1+00111-00651101891ADDGF106991061051012501001001MD1210051+9999REMSYN060AAXX  20211 33990 42674 63202 10011 21065 40189 52005 86500;
0133339900999992000122100004+44500+034170FM-12+007299999V0202901N003010120019N0250001N1+00071-00791101941ADDGF106991061051012501001001MA1999999101031MD1210051+9999REMSYN066AAXX  21001 33990 42675 62903 10007 21079 30103 40194 52005 86500;
0138339900999992000122103004+44500+034170FM-12+007299999V0203201N005010120019N0250001N1-00081-00741101911ADDGF107991071051012501001001MD1810031+9999REMSYN086AAXX  21031 33990 42675 73205 11008 21074 40191 58003 87500 333 55013 555 21008 7004/;
0165339900999992000122106004+44500+034170FM-12+007299999V0203601N004010075019N0250001N1-00051-00791102041ADDAA199000091GF108991081051008001999999KA1999N-00081MD1310131+9999REMSYN070AAXX  21061 33990 32575 83604 11005 21079 40204 53013 885// 333 21008;EQDQ01  00002PRCP99
0112339900999992000122109004+44500+034170FM-12+007299999V0203001N003010120019N0270001N1-00011-00961102221ADDGF107991071081008001001001MD1210181+9999REMSYN060AAXX  21091 33990 42577 73003 11001 21096 40222 52018 87800;
0133339900999992000122112004+44500+034170FM-12+007299999V0203401N004010120019N0280001N1-00091-01271102301ADDGF105991051051012501001001MA1999999101391MD1210081+9999REMSYN066AAXX  21121 33990 42678 53404 11009 21127 30139 40230 52008 85500;
0112339900999992000122115004+44500+034170FM-12+007299999V0203001N002012200019N0300001N1-00171-01311102481ADDGF103991031051012501001001MD1210171+9999REMSYN060AAXX  21151 33990 42680 33002 11017 21131 40248 52017 83500;
0165339900999992000122118004+44500+034170FM-12+007299999V0202901N002012200019N0300001N1-00171-01441102561ADDAA199000091GF103991031051012501001001KA1999M-00011MD1210081+9999REMSYN070AAXX  21181 33990 32680 32902 11017 21144 40256 52008 83500 333 11001;EQDQ01  00002PRCP99
0112339900999992000122121004+44500+034170FM-12+007299999V0202101N002010120019N0290001N1-00171-01171102621ADDGF105991051051012501001001MD1210061+9999REMSYN060AAXX  21211 33990 42679 52102 11017 21117 40262 52006 85500;
0133339900999992000122200004+44500+034170FM-12+007299999V0203101N002012200019N0280001N1-00141-01121102641ADDGF102991021001999999041001MA1999999101721MD1110021+9999REMSYN066AAXX  22001 33990 42978 23102 11014 21112 30172 40264 51002 82040;
0138339900999992000122203004+44500+034170FM-12+007299999V0203301N004012200019N0300001N1-00131-01471102621ADDGF102991021001999999041001MD1810021+9999REMSYN086AAXX  22031 33990 42980 23304 11013 21147 40262 58002 82040 333 55012 555 21026 7000/;
0165339900999992000122206004+44500+034170FM-12+007299999V0203001N002019999999N0350001N1-00141-01491102681ADDAA199000091GF106991041001999999041021KA1999N-00261MD1310061+9999REMSYN070AAXX  22061 33990 32981 63002 11014 21149 40268 53006 84042 333 21026;EQDQ01  00002PRCP99
0112339900999992000122209004+44500+034170FM-12+007299999V0200901N002010360019N0350001N1+00211-01001102741ADDGF106991021021012501041001MD1210061+9999REMSYN060AAXX  22091 33990 42681 60902 10021 21100 40274 52006 82240;
0113339900999992000122212004+44500+034170FM-12+007299999V0201501N001012200019N0350001N1+00071-00891102651ADDGF103991031021012501001001MA1999999101731REMSYN060AAXX  22121 33990 42681 31501 10007 21089 30173 40265 83200;
0112339900999992000122215004+44500+034170FM-12+007299999V0202901N002012200019N0300001N1-00111-00741102711ADDGF102991021051012501001001MD1310061+9999REMSYN060AAXX  22151 33990 42680 22902 11011 21074 40271 53006 82500;
0175339900999992000122218004+44500+034170FM-12+007299999V0203001N001012200019N0300001N1-00131-00901102701ADDAA199000091GA1001+999999999GF100991001001999999001001KA1999M+00211MD1810011+9999REMSYN064AAXX  22181 33990 32980 03001 11013 21090 40270 58001 333 10021;EQDQ01  00002PRCP99
0122339900999992000122221004+44500+034170FM-12+007299999V0202701N002012200019N0280001N1-00111-00871102731ADDGA1001+999999999GF100991001001999999001001MD1310031+9999REMSYN054AAXX  22211 33990 42978 02702 11011 21087 40273 53003;
0143339900999992000122300004+44500+034170FM-12+007299999V0202901N001012200019N0260001N1-00071-00811102691ADDGA1001+999999999GF100991001001999999001001MA1999999101771MD1810041+9999REMSYN060AAXX  23001 33990 42976 02901 11007 21081 30177 40269 58004;
0138339900999992000122303004+44500+034170FM-12+007299999V0203001N002012200019N0250001N1-00091-00851102631ADDGF102991021051012501001001MD1710061+9999REMSYN086AAXX  23031 33990 42675 23002 11009 21085 40263 57006 82500 333 55041 555 21019 7000/;
0165339900999992000122306004+44500+034170FM-12+007299999V0202901N001010150019N0300001N1-00021-00701102651ADDAA199000091GF107991071081012501001001KA1999N-00191MD1310021+9999REMSYN070AAXX  23061 33990 32680 72901 11002 21070 40265 53002 87800 333 21019;EQDQ01  00002PRCP99
0112339900999992000122309004+44500+034170FM-12+007299999V0200701N002012200019N0350001N1+00311-00481102551ADDGF103991031051012501001001MD1810081+9999REMSYN060AAXX  23091 33990 42681 30702 10031 21048 40255 58008 83500;
0133339900999992000122312004+44500+034170FM-12+007299999V0200601N001010120019N0300001N1+00221-00421102331ADDGF106991061051012501001001MA1999999101441MD1710211+9999REMSYN066AAXX  23121 33990 42680 60601 10022 21042 30144 40233 57021 86500;
0112339900999992000122315004+44500+034170FM-12+007299999V0203501N002010120019N0270001N1+00171-00301102231ADDGF107991071051012501001001MD1710121+9999REMSYN060AAXX  23151 33990 42677 73502 10017 21030 40223 57012 87500;
0175339900999992000122318004+44500+034170FM-12+007299999V0202901N002012200019N0240001N1+00031-00371102141ADDAA199000091GA1001+999999999GF100991001001999999001001KA1999M+00321MD1710091+9999REMSYN064AAXX  23181 33990 32974 02902 10003 21037 40214 57009 333 10032;EQDQ01  00002PRCP99
0122339900999992000122321004+44500+034170FM-12+007299999V0203201N002012200019N0230001N1+00011-00331102011ADDGA1001+999999999GF100991001001999999001001MD1710131+9999REMSYN054AAXX  23211 33990 42973 03202 10001 21033 40201 57013;
0143339900999992000122400004+44500+034170FM-12+007299999V0202801N002012200019N0230001N1+00041-00291101851ADDGA1001+999999999GF100991001001999999001001MA1999999100941MD1710161+9999REMSYN060AAXX  24001 33990 42973 02802 10004 21029 30094 40185 57016;
0156339900999992000122403004+44500+034170FM-12+007299999V0202901N002012200019N0270001N1+00091-00481101681ADDGA1001+999999999GF100991001001999999001001GJ101749MD1710171+9999REMSYN080AAXX  24031 33990 42977 02902 10009 21048 40168 57017 333 55029 555 20001 7000/;
0165339900999992000122406004+44500+034170FM-12+007299999V0202701N001012200019N0300001N1+00121-00511101641ADDAA199000091GF102991001001999999001091KA1999N+00011MD1710041+9999REMSYN070AAXX  24061 33990 32980 22701 10012 21051 40164 57004 80009 333 20001;EQDQ01  00002PRCP99
0122339900999992000122409004+44500+034170FM-12+007299999V0201201N001012200019N0400001N1+00631-00181101621ADDGA1001+999999999GF100991001001999999001001MD1010001+9999REMSYN054AAXX  24091 33990 42982 01201 10063 21018 40162 50000;
0143339900999992000122412004+44500+034170FM-12+007299999V0201301N001012200019N0350001N1+00631-00021101511ADDGA1001+999999999GF100991001001999999001001MA1999999100621MD1610111+9999REMSYN060AAXX  24121 33990 42981 01301 10063 21002 30062 40151 56011;
0122339900999992000122415004+44500+034170FM-12+007299999V0202801N001012200019N0350001N1+00751+00451101421ADDGA1001+999999999GF100991001001999999001001MD1610081+9999REMSYN054AAXX  24151 33990 42981 02801 10075 20045 40142 56008;
0175339900999992000122418004+44500+034170FM-12+007299999V0203101N001012200019N0350001N1+00341-00371101511ADDAA199000091GA1001+999999999GF100991001001999999001001KA1999M+00771MD1310081+9999REMSYN064AAXX  24181 33990 32981 03101 10034 21037 40151 53008 333 10077;EQDQ01  00002PRCP99
0122339900999992000122421004+44500+034170FM-12+007299999V0201301N001012200019N0350001N1+00461-00461101501ADDGA1001+999999999GF100991001001999999001001MD1710011+9999REMSYN054AAXX  24211 33990 42981 01301 10046 21046 40150 57001;
0143339900999992000122500004+44500+034170FM-12+007299999V0202401N002012200019N0400001N1+00481-00221101471ADDGA1001+999999999GF100991001001999999001001MA1999999100581MD1510031+9999REMSYN060AAXX  25001 33990 42982 02402 10048 21022 30058 40147 55003;
0156339900999992000122503004+44500+034170FM-12+007299999V0201501N001012200019N0400001N1+00481-00321101481ADDGA1001+999999999GF100991001001999999001001GJ103729MD1210011+9999REMSYN080AAXX  25031 33990 42982 01501 10048 21032 40148 52001 333 55062 555 20027 7000/;
0165339900999992000122506004+44500+034170FM-12+007299999V0200101N001012200019N0300001N1+00401-00291101521ADDAA199000091GF101991011041008001001001KA1999N+00271MD1310041+9999REMSYN070AAXX  25061 33990 32580 10101 10040 21029 40152 53004 81400 333 20027;EQDQ01  00002PRCP99
0112339900999992000122509004+44500+034170FM-12+007299999V0202101N003012200019N0270001N1+00841+00271101541ADDGF103991021051008001041001MD1110031+9999REMSYN060AAXX  25091 33990 42577 32103 10084 20027 40154 51003 82540;
0133339900999992000122512004+44500+034170FM-12+007299999V0202201N003010360019N0270001N1+00921+00321101471ADDGF106991021051008001041021MA1999999100591MD1810071+9999REMSYN066AAXX  25121 33990 42577 62203 10092 20032 30059 40147 58007 82542;
0112339900999992000122515004+44500+034170FM-12+007299999V0202901N002012200019N0260001N1+00691+00231101561ADDGF103991021051008001041001MD1310091+9999REMSYN060AAXX  25151 33990 42576 32902 10069 20023 40156 53009 82540;
0165339900999992000122518004+44500+034170FM-12+007299999V0202501N001010075019N0250001N1+00661+00331101631ADDAA199000091GF106991061051008001001001KA1999M+00991MD1210071+9999REMSYN070AAXX  25181 33990 32575 62501 10066 20033 40163 52007 86500 333 10099;EQDQ01  00002PRCP99
0112339900999992000122521004+44500+034170FM-12+007299999V0202501N001012200019N0240001N1+00611+00241101571ADDGF102991021051008001001001MD1810071+9999REMSYN060AAXX  25211 33990 42574 22501 10061 20024 40157 58007 82500;
0133339900999992000122600004+44500+034170FM-12+007299999V0203401N001010360019N0240001N1+00711+00251101551ADDGF107991031051008001031001MA1999999100671MD1610011+9999REMSYN066AAXX  26001 33990 42574 73401 10071 20025 30067 40155 56001 83530;
0138339900999992000122603004+44500+034170FM-12+007299999V0202101N001010075019N0250001N1+00901+00431101441ADDGF108991081051008001999999MD1810111+9999REMSYN086AAXX  26031 33990 42575 82101 10090 20043 40144 58011 885// 333 55054 555 20054 7000/;
0165339900999992000122606004+44500+034170FM-12+007299999V0202101N002010120019N0260001N1+00961+00461101391ADDAA199000091GF107991071081008001031001KA1999N+00541MD1710051+9999REMSYN070AAXX  26061 33990 32576 72102 10096 20046 40139 57005 87830 333 20054;EQDQ01  00002PRCP99
0112339900999992000122609004+44500+034170FM-12+007299999V0202101N005012200019N0270001N1+01281+00451101321ADDGF106991031021008001001011MD1810041+9999REMSYN060AAXX  26091 33990 42577 62105 10128 20045 40132 58004 83201;
0133339900999992000122612004+44500+034170FM-12+007299999V0202301N004012200019N0300001N1+01221+00321101231ADDGF106991021021008001001011MA1999999100381MD1710091+9999REMSYN066AAXX  26121 33990 42580 62304 10122 20032 30038 40123 57009 82201;
0112339900999992000122615004+44500+034170FM-12+007299999V0202301N005010075019N0260001N1+01211+00321101271ADDGF108991081051008001999999MD1110041+9999REMSYN060AAXX  26151 33990 42576 82305 10121 20032 40127 51004 885//;
0165339900999992000122618004+44500+034170FM-12+007299999V0201801N002010075019N0260001N1+01191+00411101311ADDAA199000091GF108991081051008001999999KA1999M+01341MD1310041+9999REMSYN070AAXX  26181 33990 32576 81802 10119 20041 40131 53004 885// 333 10134;EQDQ01  00002PRCP99
0140339900999992000122621004+44500+034170FM-12+007299999V0201801N003010075019N0240001N1+01161+00381101411ADDAY121031AY221031GF108991081091008001999999MD1410001+9999MW1251REMSYN066AAXX  26211 33990 41574 81803 10116 20038 40141 54000 72522 889//;
0161339900999992000122700004+44500+034170FM-12+007299999V0202301N001010075019N0130001N1+01021+00651101321ADDAY181061AY221061GF108991081091008001999999MA1999999100451MD1810011+9999MW1801REMSYN072AAXX  27001 33990 41563 82301 10102 20065 30045 40132 58001 78082 889//;
0166339900999992000122703004+44500+034170FM-12+007299999V0202301N002010075019N0080001N1+00961+00811101221ADDAY181031AY221031GF108991081091008001999999MD1710101+9999MW1811REMSYN092AAXX  27031 33990 41558 82302 10096 20081 40122 57010 78182 889// 333 55045 555 20090 7003/;
0180339900999992000122706004+44500+034170FM-12+007299999V0202301N004010075019N0160001N1+01021+00841101221ADDAA112007991AY181061AY221061GF108991081091008001999999KA1999N+00901MD1510001+9999MW1251REMSYN082AAXX  27061 33990 11566 82304 10102 20084 40122 55000 60082 72582 889// 333 20090;
0140339900999992000122709004+44500+034170FM-12+007299999V0203401N002010075019N0100001N1+01041+00951101281ADDAY181031AY281031GF108991081091008001999999MD1210061+9999MW1801REMSYN066AAXX  27091 33990 41560 83402 10104 20095 40128 52006 78088 889//;
0161339900999992000122712004+44500+034170FM-12+007299999V0203201N002010075019N0140001N1+01061+00971101151ADDAY181061AY221061GF107991071091008001001001MA1999999100281MD1810131+9999MW1021REMSYN072AAXX  27121 33990 41564 73202 10106 20097 30028 40115 58013 70282 87900;
0112339900999992000122715004+44500+034170FM-12+007299999V0202501N001010075019N0150001N1+01081+00941101211ADDGF107991061031008001001011MD1310061+9999REMSYN060AAXX  27151 33990 42565 72501 10108 20094 40121 53006 86301;
0152339900999992000122718004+44500+034170FM-12+007299999V0201801N002010075019N0160001N1+01141+00901101281ADDAA112022191GF106991061051008001001001KA1999M+01151MD1210091+9999REMSYN076AAXX  27181 33990 12566 61802 10114 20090 40128 52009 60222 86500 333 10115;
0112339900999992000122721004+44500+034170FM-12+007299999V0202101N001010075019N0150001N1+01181+00841101391ADDGF108991081051008001999999MD1210101+9999REMSYN060AAXX  27211 33990 42565 82101 10118 20084 40139 52010 885//;
0161339900999992000122800004+44500+034170FM-12+007299999V0202301N002010075019N0080001N1+01161+00841101381ADDAY181061AY221061GF108991081091008001999999MA1999999100521MD1810011+9999MW1811REMSYN072AAXX  28001 33990 41558 82302 10116 20084 30052 40138 58001 78182 889//;
0172339900999992000122803004+44500+034170FM-12+007299999V0202501N002010075019N0100001N1+01121+00941101321ADDAY181031AY221031GF108991081091008001999999MD1710051+9999MW1801REMSYN098AAXX  28031 33990 41560 82502 10112 20094 40132 57005 78082 889// 333 55000 555 20111 7030/ 88030;
0112339900999992000122809004+44500+034170FM-12+007299999V0202701N001010120019N0200001N1+01401+00841101251ADDGF108991081051012501999999MD1810071+9999REMSYN060AAXX  28091 33990 42670 82701 10140 20084 40125 58007 885//;
0133339900999992000122812004+44500+034170FM-12+007299999V0202401N001019999999N0350001N1+01721+00621101141ADDGF106991061001999999051001MA1999999100301MD1710101+9999REMSYN066AAXX  28121 33990 42981 62401 10172 20062 30030 40114 57010 86050;
0112339900999992000122815004+44500+034170FM-12+007299999V0203501N001019999999N0180001N1+01221+00841101171ADDGF106991051001999999041011MD1310021+9999REMSYN060AAXX  28151 33990 42968 63501 10122 20084 40117 53002 85041;
0165339900999992000122818004+44500+034170FM-12+007299999V0203301N001012200019N0160001N1+01001+00851101221ADDAA199000091GF102991021051012501001001KA1999M+01721MD1210031+9999REMSYN070AAXX  28181 33990 32666 23301 10100 20085 40122 52003 82500 333 10172;EQDQ01  00002PRCP99
0112339900999992000122821004+44500+034170FM-12+007299999V0202101N002012200019N0170001N1+00961+00681101221ADDGF102991021051012501001001MD1010001+9999REMSYN060AAXX  28211 33990 42667 22102 10096 20068 40122 50000 82500;
0133339900999992000122900004+44500+034170FM-12+007299999V0201801N001012200019N0170001N1+00901+00641101131ADDGF102991021051008001001001MA1999999100261MD1710091+9999REMSYN066AAXX  29001 33990 42567 21801 10090 20064 30026 40113 57009 82500;
0138339900999992000122903004+44500+034170FM-12+007299999V0201901N001012200019N0200001N1+00921+00561101121ADDGF102991021061008001001001MD1710011+9999REMSYN086AAXX  29031 33990 42570 21901 10092 20056 40112 57001 82600 333 55004 555 20086 7000/;
0165339900999992000122906004+44500+034170FM-12+007299999V0202101N001019999999N0180001N1+00901+00731101121ADDAA199000091GF107991021001999999041091KA1999N+00861MD1510001+9999REMSYN070AAXX  29061 33990 32968 72101 10090 20073 40112 55000 82049 333 20086;EQDQ01  00002PRCP99
0112339900999992000122909004+44500+034170FM-12+007299999V0209999C000019999999N0210001N1+01171+00801101031ADDGF108991081001999999021999MD1510071+9999REMSYN060AAXX  29091 33990 42971 80000 10117 20080 40103 55007 8802/;
0133339900999992000122912004+44500+034170FM-12+007299999V0209999C000019999999N0230001N1+01151+00891100911ADDGF108991081001999999071999MA1999999100061MD1810121+9999REMSYN066AAXX  29121 33990 42973 80000 10115 20089 30006 40091 58012 8807/;
0112339900999992000122915004+44500+034170FM-12+007299999V0202101N001019999999N0240001N1+01051+00781100861ADDGF108991081001999999071999MD1710071+9999REMSYN060AAXX  29151 33990 42974 82101 10105 20078 40086 57007 8807/;
0122339900999992000122921004+44500+034170FM-12+007299999V0201501N001012200019N0270001N1+01021+00551100601ADDGA1001+999999999GF100991001001999999001001MD1710141+9999REMSYN054AAXX  29211 33990 42977 01501 10102 20055 40060 57014;
0133339900999992000123000004+44500+034170FM-12+007299999V0201901N001019999999N0260001N1+00881+00771100461ADDGF105991001001999999001011MA1999999099591MD1610141+9999REMSYN066AAXX  30001 33990 42976 51901 10088 20077 39959 40046 56014 80001;
0138339900999992000123003004+44500+034170FM-12+007299999V0200901N001019999999N0250001N1+01061+00381100341ADDGF106991001001999999001011MD1710111+9999REMSYN086AAXX  30031 33990 42975 60901 10106 20038 40034 57011 80001 333 55000 555 20078 7000/;
0175339900999992000123006004+44500+034170FM-12+007299999V0209999C000012200019N0180001N1+00881+00761100451ADDAA199000091GA1001+999999999GF100991001001999999001001KA1999N+00781MD1110101+9999REMSYN064AAXX  30061 33990 32968 00000 10088 20076 40045 51010 333 20078;EQDQ01  00002PRCP99
0112339900999992000123009004+44500+034170FM-12+007299999V0201201N001012200019N0210001N1+01311+00981100481ADDGF102991011001999999041011MD1210051+9999REMSYN060AAXX  30091 33990 42971 21201 10131 20098 40048 52005 81041;
0133339900999992000123012004+44500+034170FM-12+007299999V0203001N002019999999N0250001N1+01481+00681100461ADDGF107991071001999999031001MA1999999099611MD1810021+9999REMSYN066AAXX  30121 33990 42975 73002 10148 20068 39961 40046 58002 87030;
0112339900999992000123015004+44500+034170FM-12+007299999V0203201N001019999999N0220001N1+01091+00861100631ADDGF107991071001999999031001MD1310151+9999REMSYN060AAXX  30151 33990 42972 73201 10109 20086 40063 53015 87030;
0175339900999992000123018004+44500+034170FM-12+007299999V0203001N002012200019N0200001N1+00901+00731100661ADDAA199000091GA1001+999999999GF100991001001999999001001KA1999M+01551MD1110031+9999REMSYN064AAXX  30181 33990 32970 03002 10090 20073 40066 51003 333 10155;EQDQ01  00002PRCP99
0122339900999992000123021004+44500+034170FM-12+007299999V0203001N001012200019N0180001N1+00931+00781100701ADDGA1001+999999999GF100991001001999999001001MD1210041+9999REMSYN054AAXX  30211 33990 42968 03001 10093 20078 40070 52004;
0143339900999992000123100004+44500+034170FM-12+007299999V0203101N001012200019N0200001N1+01041+00511100681ADDGA1001+999999999GF100991001001999999001001MA1999999099811MD1810021+9999REMSYN060AAXX  31001 33990 42970 03101 10104 20051 39981 40068 58002;
0138339900999992000123103004+44500+034170FM-12+007299999V0202401N002019999999N0210001N1+01071+00531100641ADDGF108991081001012501071999MD1710041+9999REMSYN086AAXX  31031 33990 42671 82402 10107 20053 40064 57004 8807/ 333 55046 555 20083 7000/;
0165339900999992000123106004+44500+034170FM-12+007299999V0203001N001019999999N0200001N1+01041+00681100751ADDAA199000091GF108991081001999999071999KA1999N+00831MD1310111+9999REMSYN070AAXX  31061 33990 32970 83001 10104 20068 40075 53011 8807/ 333 20083;EQDQ01  00002PRCP99
0112339900999992000123109004+44500+034170FM-12+007299999V0200501N002010360019N0220001N1+01331+00881100831ADDGF108991041051008001071999MD1210101+9999REMSYN060AAXX  31091 33990 42572 80502 10133 20088 40083 52010 8457/;
0133339900999992000123112004+44500+034170FM-12+007299999V0201801N004012200019N0300001N1+01481+00271100941ADDGF103991021021008001061001MA1999999100091MD1210111+9999REMSYN066AAXX  31121 33990 42580 31804 10148 20027 30009 40094 52011 82260;
0112339900999992000123115004+44500+034170FM-12+007299999V0201801N003012200019N0280001N1+01161-00221101231ADDGF101991011041008001001001MD1210271+9999REMSYN060AAXX  31151 33990 42578 11803 10116 21022 40123 52027 81400;
0175339900999992000123118004+44500+034170FM-12+007299999V0202701N005012200019N0280001N1+01001-00091101431ADDAA199000091GA1001+999999999GF100991001001999999001001KA1999M+01521MD1210191+9999REMSYN064AAXX  31181 33990 32978 02705 10100 21009 40143 52019 333 10152;EQDQ01  00002PRCP99
0122339900999992000123121004+44500+034170FM-12+007299999V0201801N003012200019N0270001N1+00921+00021101591ADDGA1001+999999999GF100991001001999999001001MD1210161+9999REMSYN054AAXX  31211 33990 42977 01803 10092 20002 40159 52016;
