0197351730999992000010100004+51620+069800FM-12+031299999V0202701N002010063019N0200001N1-01021-01021101971ADDAY171061AY221061GA1081+006309069GF108991081051008001999999MA1999999098021MD1710101+9999MW1021REMSYN092AAXX  01001 35173 41598 82702 11102 21102 39802 40197 57010 70272 885// 333 88621 555 1/113;
0178351730999992000010103004+51620+069800FM-12+031299999V0209999C000019999999N0200001N1-01231-01291102021ADDAA112007091AJ100139199999999GF108991081001999999021999IA1249MD1310021+9999REMSYN092AAXX  01031 35173 /2998 80000 11123 21129 40202 53002 8802/ 333 48013 555 21170 60072 7007/;
0180351730999992000010106004+51620+069800FM-12+031299999V0202701N002019999999N0040001N1-00941-01011102021ADDAA100000891AY171061AY221061GF108991081001999999021999KA1999N-01701MD1210041+9999MW1711REMSYN082AAXX  01061 35173 11996 82702 11094 21101 40202 52004 69970 77172 8802/ 333 21170;
0140351730999992000010109004+51620+069800FM-12+031299999V0202301N002019999999N0040001N1-00801-00941101921ADDAY171031AY221031GF108991081001999999021999MD1810081+9999MW1711REMSYN066AAXX  01091 35173 41996 82302 11080 21094 40192 58008 77172 8802/;
0171351730999992000010112004+51620+069800FM-12+031299999V0202301N002019999999N0010001N1-00841-00901101961ADDAY171061AY221061GF108991081001999999021999MA1999999098041MD1310041+9999MW1711REMSYN082AAXX  01121 35173 41994 82302 11084 21090 39804 40196 53004 77172 8802/ 555 1/108;
0195351730999992000010115004+51620+069800FM-12+031299999V0203201N002010087019N0200001N1-00881-00951101991ADDAY171031AY221031GA1081+008709069GF108991081051008001999999KA1120M-00741MD1210011+9999MW1021REMSYN092AAXX  01151 35173 /1598 83202 11088 21095 40199 52001 70272 885// 333 11074 88629 555 60012;
0202351730999992000010118004+51620+069800FM-12+031299999V0203601N002010087019N0200001N1-01471-01671102221ADDAA100001091AY171061AY211061GA1061+008709059GF106991061051008001001001KA1120M-00741MD1210131+9999MW1011REMSYN088AAXX  01181 35173 11598 63602 11147 21167 40222 52013 60010 70171 86500 333 11074 86629;
0122351730999992000010121004+51620+069800FM-12+031299999V0203601N002012200019N0200001N1-01931-02121102491ADDGA1001+999999999GF100991001001999999001001MD1210191+9999REMSYN054AAXX  01211 35173 42998 03602 11193 21212 40249 52019;
0153351730999992000010200004+51620+069800FM-12+031299999V0200501N002012200019N0200001N1-02291-02541102821ADDGA1001+999999999GF100991001001999999001001MA1999999098631MD1210261+9999REMSYN070AAXX  02001 35173 42998 00502 11229 21254 39863 40282 52026 555 1/124;
0201351730999992000010203004+51620+069800FM-12+031299999V0200501N002012200019N0200001N1-02821-03061103211ADDAA106000091AJ100159199999999GA1001+999999999GF100991001001999999001001IA1249MD1210291+9999REMSYN080AAXX  02031 35173 32998 00502 11282 21306 40321 52029 333 48015 555 21286 7001/;EQDQ01  00002PRCP06
0175351730999992000010206004+51620+069800FM-12+031299999V0203601N002012200019N0040001N1-02801-03111103561ADDAA106000091GA1001+999999999GF100991001001999999001001KA1999N-02861MD1210341+9999REMSYN064AAXX  02061 35173 32996 03602 11280 21311 40356 52034 333 21286;EQDQ01  00002PRCP06
0122351730999992000010209004+51620+069800FM-12+031299999V0203601N002012200019N0040001N1-02611-03001103751ADDGA1001+999999999GF100991001001999999001001MD1210221+9999REMSYN054AAXX  02091 35173 42996 03602 11261 21300 40375 52022;
0153351730999992000010212004+51620+069800FM-12+031299999V0203601N002012200019N0200001N1-02901-03201104081ADDGA1001+999999999GF100991001001999999001001MA1999999099731MD1210251+9999REMSYN070AAXX  02121 35173 42998 03602 11290 21320 39973 40408 52025 555 1/130;
0175351730999992000010215004+51620+069800FM-12+031299999V0209999C000012200019N0200001N1-03101-03341104291ADDAA106000091GA1001+999999999GF100991001001999999001001KA1999M-02601MD1210171+9999REMSYN064AAXX  02151 35173 32998 00000 11310 21334 40429 52017 333 11260;EQDQ01  00002PRCP06
0175351730999992000010218004+51620+069800FM-12+031299999V0209999C000012200019N0200001N1-03201-03431104561ADDAA106000091GA1001+999999999GF100991001001999999001001KA1999M-02601MD1210241+9999REMSYN064AAXX  02181 35173 32998 00000 11320 21343 40456 52024 333 11260;EQDQ01  00002PRCP06
0122351730999992000010221004+51620+069800FM-12+031299999V0209999C000012200019N0200001N1-03251-03481104651ADDGA1001+999999999GF100991001001999999001001MD1210071+9999REMSYN054AAXX  02211 35173 42998 00000 11325 21348 40465 52007;
0153351730999992000010300004+51620+069800FM-12+031299999V0209999C000012200019N0200001N1-03431-03641104761ADDGA1001+999999999GF100991001001999999001001MA1999999100301MD1210091+9999REMSYN070AAXX  03001 35173 42998 00000 11343 21364 30030 40476 52009 555 1/137;
0201351730999992000010303004+51620+069800FM-12+031299999V0209999C000012200019N0200001N1-03541-03831104831ADDAA106000091AJ100159199999999GA1001+999999999GF100991001001999999001001IA1249MD1210051+9999REMSYN080AAXX  03031 35173 32998 00000 11354 21383 40483 52005 333 48015 555 21362 7000/;EQDQ01  00002PRCP06
0175351730999992000010306004+51620+069800FM-12+031299999V0203601N002012200019N0040001N1-03061-03291104801ADDAA106000091GA1001+999999999GF100991001001999999001001KA1999N-03621MD1210041+9999REMSYN064AAXX  03061 35173 32996 03602 11306 21329 40480 52004 333 21362;EQDQ01  00002PRCP06
0122351730999992000010309004+51620+069800FM-12+031299999V0209999C000012200019N0040001N1-02631-02871104751ADDGA1001+999999999GF100991001001999999001001MD1210041+9999REMSYN054AAXX  03091 35173 42996 00000 11263 21287 40475 52004;
0153351730999992000010312004+51620+069800FM-12+031299999V0209999C000012200019N0040001N1-02961-03191104851ADDGA1001+999999999GF100991001001999999001001MA1999999100461MD1210031+9999REMSYN070AAXX  03121 35173 42996 00000 11296 21319 30046 40485 52003 555 1/135;
0175351730999992000010315004+51620+069800FM-12+031299999V0200501N002012200019N0200001N1-02941-03171104861ADDAA106000091GA1001+999999999GF100991001001999999001001KA1999M-02601MD1210031+9999REMSYN064AAXX  03151 35173 32998 00502 11294 21317 40486 52003 333 11260;EQDQ01  00002PRCP06
0191351730999992000010318004+51620+069800FM-12+031299999V0209999C000012200019N0200001N1-02981-03211999999ADDAA106000091GA1001+999999999GF100991001001999999001001KA1999M-02601MD1210021+9999REMSYN064AAXX  03181 35173 32998 00000 11298 21321 40119 52002 333 11260;EQDQ01+101193APOSLPQ02  00002PRCP06
0153351730999992000010400004+51620+069800FM-12+031299999V0200901N002012200019N0200001N1-03081-03321104901ADDGA1001+999999999GF100991001001999999001001MA1999999100491MD1810021+9999REMSYN070AAXX  04001 35173 42998 00902 11308 21332 30049 40490 58002 555 1/135;
0201351730999992000010403004+51620+069800FM-12+031299999V0200901N004012200019N0200001N1-02531-02771104811ADDAA106000091AJ100159199999999GA1001+999999999GF100991001001999999001001IA1249MD1310011+9999REMSYN080AAXX  04031 35173 32998 00904 11253 21277 40481 53001 333 48015 555 21317 7000/;EQDQ01  00002PRCP06
0175351730999992000010406004+51620+069800FM-12+031299999V0200901N002012200019N0040001N1-02471-02781104691ADDAA106000091GA1001+999999999GF100991001001999999001001KA1999N-03171MD1810111+9999REMSYN064AAXX  04061 35173 32996 00902 11247 21278 40469 58011 333 21317;EQDQ01  00002PRCP06
0141351730999992000010409004+51620+069800FM-12+031299999V0201101N004012200019N0040001N1-02011-02501999999ADDGA1001+999999999GF100991001001999999001001MD1710131+9999REMSYN054AAXX  04091 35173 42996 01104 11201 21250 40147 57013;EQDQ01+101473APOSLP
0153351730999992000010412004+51620+069800FM-12+031299999V0201101N004012200019N0200001N1-02191-02671104301ADDGA1001+999999999GF100991001001999999001001MA1999999100091MD1710171+9999REMSYN070AAXX  04121 35173 42998 01104 11219 21267 30009 40430 57017 555 1/124;
0175351730999992000010415004+51620+069800FM-12+031299999V0200901N004012200019N0200001N1-02251-02731104141ADDAA106000091GA1001+999999999GF100991001001999999001001KA1999M-01901MD1710181+9999REMSYN064AAXX  04151 35173 32998 00904 11225 21273 40414 57018 333 11190;EQDQ01  00002PRCP06
0112351730999992000010509004+51620+069800FM-12+031299999V0201401N004019999999N0040001N1-01371-01981102241ADDGF108991081001999999011999MD1710351+9999REMSYN060AAXX  05091 35173 42996 81404 11137 21198 40224 57035 8801/;
0143351730999992000010512004+51620+069800FM-12+031299999V0209999C000019999999N0200001N1-01311-01831102031ADDGF108991081001999999021999MA1999999098031MD1710191+9999REMSYN076AAXX  05121 35173 42998 80000 11131 21183 39803 40203 57019 8802/ 555 1/113;
0165351730999992000010515004+51620+069800FM-12+031299999V0201601N002012200019N0200001N1-01051-01681101671ADDAA106000091GF103991001001999999001081KA1999M-01021MD1710311+9999REMSYN070AAXX  05151 35173 32998 31602 11105 21168 40167 57031 80008 333 11102;EQDQ01  00002PRCP06
0175351730999992000010518004+51620+069800FM-12+031299999V0201401N002012200019N0200001N1-01331-01681101551ADDAA106000091GA1001+999999999GF100991001001999999001001KA1999M-01021MD1710161+9999REMSYN064AAXX  05181 35173 32998 01402 11133 21168 40155 57016 333 11102;EQDQ01  00002PRCP06
0122351730999992000010521004+51620+069800FM-12+031299999V0202501N002012200019N0200001N1-01351-01621101501ADDGA1001+999999999GF100991001001999999001001MD1710051+9999REMSYN054AAXX  05211 35173 42998 02502 11135 21162 40150 57005;
0191351730999992000010603004+51620+069800FM-12+031299999V0203601N002012200019N0200001N1-01511-01641101691ADDAA106000091AJ100159199999999GF102991021001999999071001IA1249MD1210111+9999REMSYN086AAXX  06031 35173 32998 23602 11151 21164 40169 52011 82070 333 48015 555 21155 7000/;EQDQ01  00002PRCP06
0193351730999992000010606004+51620+069800FM-12+031299999V0203601N002019999999N0040001N1-01471-01601101831ADDAA106000091AY171061AY211061GF106991021001999999031061KA1999N-01551MD1210131+9999MW1011REMSYN076AAXX  06061 35173 31996 63602 11147 21160 40183 52013 70171 82036 333 21155;EQDQ01  00002PRCP06
0122351730999992000010609004+51620+069800FM-12+031299999V0203401N002012200019N0040001N1-01351-01701101831ADDGA1001+999999999GF100991001001999999001001MD1210031+9999REMSYN054AAXX  06091 35173 42996 03402 11135 21170 40183 52003;
0155351730999992000010615004+51620+069800FM-12+031299999V0209999C000012200019N0200001N1-02431-02551102261ADDGA1001+999999999GF100991001001999999001001KA1120M-01301MD1210091+9999REMSYN074AAXX  06151 35173 /2998 00000 11243 21255 40226 52009 333 11130 555 69902;
0122351730999992000010621004+51620+069800FM-12+031299999V0209999C000012200019N0200001N1-02551-02671102451ADDGA1001+999999999GF100991001001999999001001MD1210061+9999REMSYN054AAXX  06211 35173 42998 00000 11255 21267 40245 52006;
0153351730999992000010700004+51620+069800FM-12+031299999V0209999C000012200019N0200001N1-02781-02901102641ADDGA1001+999999999GF100991001001999999001001MA1999999098371MD1210131+9999REMSYN070AAXX  07001 35173 42998 00000 11278 21290 39837 40264 52013 555 1/129;
0201351730999992000010703004+51620+069800FM-12+031299999V0202001N002012200019N0200001N1-02691-02861102701ADDAA106000091AJ100159199999999GA1001+999999999GF100991001001999999001001IA1249MD1210081+9999REMSYN080AAXX  07031 35173 32998 02002 11269 21286 40270 52008 333 48015 555 21281 7990/;EQDQ01  00002PRCP06
0165351730999992000010706004+51620+069800FM-12+031299999V0201801N002012200019N0040001N1-02611-02711102701ADDAA106000091GF103991001001999999001071KA1999N-02811MD1210021+9999REMSYN070AAXX  07061 35173 32996 31802 11261 21271 40270 52002 80007 333 21281;EQDQ01  00002PRCP06
0112351730999992000010709004+51620+069800FM-12+031299999V0201601N002019999999N0040001N1-02171-02291102531ADDGF106991001001999999001081MD1810101+9999REMSYN060AAXX  07091 35173 42996 61602 11217 21229 40253 58010 80008;
0171351730999992000010712004+51620+069800FM-12+031299999V0201801N002019999999N0010001N1-02081-02201102531ADDAY171061AY211061GF108991081001999999021999MA1999999098381MD1310011+9999MW1711REMSYN082AAXX  07121 35173 41994 81802 11208 21220 39838 40253 53001 77171 8802/ 555 1/121;
0173351730999992000010715004+51620+069800FM-12+031299999V0201801N002012200019N0200001N1-02111-02231102301ADDAY171031AY211031GF103991031001999999031001KA1120M-02071MD1810221+9999MW1011REMSYN086AAXX  07151 35173 /1998 31802 11211 21223 40230 58022 70171 83030 333 11207 555 69922;
0180351730999992000010718004+51620+069800FM-12+031299999V0201401N002019999999N0200001N1-02071-02191102181ADDAA100000191AY171061AY211061GF108991081001999999031999KA1999M-02071MD1710111+9999MW1031REMSYN082AAXX  07181 35173 11998 81402 11207 21219 40218 57011 69920 70371 8803/ 333 11207;
0112351730999992000010721004+51620+069800FM-12+031299999V0209999C000019999999N0200001N1-02151-02271101951ADDGF108991001001999999001071MD1710221+9999REMSYN060AAXX  07211 35173 42998 80000 11215 21227 40195 57022 80007;
0191351730999992000010803004+51620+069800FM-12+031299999V0209999C000019999999N0200001N1-01871-01991101621ADDAA106000091AJ100159199999999GF108991081001999999021999IA1249MD1710101+9999REMSYN086AAXX  08031 35173 32998 80000 11187 21199 40162 57010 8802/ 333 48015 555 21218 7992/;EQDQ01  00002PRCP06
0174351730999992000010806004+51620+069800FM-12+031299999V0209999C000019999999N0040001N1-01811-01931101641ADDAA106000021AY171061AY221061GF108991081001999999021999KA1999N-02181MD1310041+9999MW1711REMSYN076AAXX  08061 35173 31996 80000 11181 21193 40164 53004 77172 8802/ 333 21218;
0140351730999992000010809004+51620+069800FM-12+031299999V0203601N002019999999N0040001N1-01751-02011101641ADDAY171031AY221031GF105991001001999999001041MD1210011+9999MW1011REMSYN066AAXX  08091 35173 41996 53602 11175 21201 40164 52001 70172 80004;
0171351730999992000010812004+51620+069800FM-12+031299999V0203401N002019999999N0200001N1-02031-02221101971ADDAY171061AY221061GF106991001001999999001061MA1999999097871MD1210281+9999MW1021REMSYN082AAXX  08121 35173 41998 63402 11203 21222 39787 40197 52028 70272 80006 555 1/122;
0155351730999992000010815004+51620+069800FM-12+031299999V0203401N002012200019N0200001N1-02431-02551102391ADDGA1001+999999999GF100991001001999999001001KA1120M-01601MD1210331+9999REMSYN074AAXX  08151 35173 /2998 03402 11243 21255 40239 52033 333 11160 555 69922;
0152351730999992000010818004+51620+069800FM-12+031299999V0209999C000012200019N0200001N1-02551-02731102711ADDAA100000191GF103991031001999999071001KA1999M-01601MD1210291+9999REMSYN076AAXX  08181 35173 12998 30000 11255 21273 40271 52029 69920 83070 333 11160;
0122351730999992000010821004+51620+069800FM-12+031299999V0209999C000012200019N0200001N1-02571-02741102961ADDGA1001+999999999GF100991001001999999001001MD1210221+9999REMSYN054AAXX  08211 35173 42998 00000 11257 21274 40296 52022;
0153351730999992000010900004+51620+069800FM-12+031299999V0209999C000012200019N0200001N1-02661-02831103211ADDGA1001+999999999GF100991001001999999001001MA1999999098931MD1210221+9999REMSYN070AAXX  09001 35173 42998 00000 11266 21283 39893 40321 52022 555 1/129;
0191351730999992000010903004+51620+069800FM-12+031299999V0201801N002019999999N0200001N1-02131-02251103241ADDAA106000091AJ100159199999999GF108991081001999999021999IA1249MD1210141+9999REMSYN086AAXX  09031 35173 32998 81802 11213 21225 40324 52014 8802/ 333 48015 555 21269 7992/;EQDQ01  00002PRCP06
0112351730999992000010909004+51620+069800FM-12+031299999V0201801N004019999999N0040001N1-01331-01461103261ADDGF106991001001999999001081MD1210011+9999REMSYN060AAXX  09091 35173 42996 61804 11133 21146 40326 52001 80008;
0143351730999992000010912004+51620+069800FM-12+031299999V0201801N002012200019N0200001N1-01751-01851103411ADDGF103991001001999999001021MA1999999099291MD1210081+9999REMSYN076AAXX  09121 35173 42998 31802 11175 21185 39929 40341 52008 80002 555 1/119;
0165351730999992000010915004+51620+069800FM-12+031299999V0201801N002019999999N0200001N1-01631-01761103451ADDAA106000091GF108991081001999999021999KA1999M-01271MD1210051+9999REMSYN070AAXX  09151 35173 32998 81802 11163 21176 40345 52005 8802/ 333 11127;EQDQ01  00002PRCP06
0174351730999992000010918004+51620+069800FM-12+031299999V0202001N002019999999N0010001N1-01391-01451103331ADDAA106000021AY171061AY211061GF108991081001999999021999KA1999M-01271MD1810081+9999MW1711REMSYN076AAXX  09181 35173 31994 82002 11139 21145 40333 58008 77171 8802/ 333 11127;
0140351730999992000010921004+51620+069800FM-12+031299999V0201801N002019999999N0200001N1-01221-01281103181ADDAY171031AY221031GF108991081001999999021999MD1710111+9999MW1021REMSYN066AAXX  09211 35173 41998 81802 11122 21128 40318 57011 70272 8802/;
0171351730999992000011000004+51620+069800FM-12+031299999V0201801N002019999999N0200001N1-01011-01071103111ADDAY171061AY221061GF108991081001999999011999MA1999999099111MD1710041+9999MW1021REMSYN082AAXX  10001 35173 41998 81802 11101 21107 39911 40311 57004 70272 8801/ 555 1/111;
0206351730999992000011003004+51620+069800FM-12+031299999V0201801N002019999999N0010001N1-00891-00961102921ADDAA112000591AJ100169199999999AY171031AY221031GF108991081001999999021999IA1249MD1710171+9999MW1711REMSYN098AAXX  10031 35173 /1994 81802 11089 21096 40292 57017 77172 8802/ 333 48016 555 21165 69952 7995/;
0199351730999992000011006004+51620+069800FM-12+031299999V0202301N008010042019N0040001N1-00811-00911102831ADDAA100000591AY171061AY231061GF108991999071004501021999KA1999N-01651MD1710071+9999MW1711REMSYN082AAXX  10061 35173 11496 82308 11081 21091 40283 57007 69950 77173 8872/ 333 21165;EQDQ01+000082SCOTLC
0140351730999992000011009004+51620+069800FM-12+031299999V0202501N008019999999N0040001N1-00931-01141102791ADDAY171031AY231031GF108991081001999999071999MD1710061+9999MW1361REMSYN066AAXX  10091 35173 41996 82508 11093 21114 40279 57006 73673 8807/;
0171351730999992000011012004+51620+069800FM-12+031299999V0202301N006019999999N0200001N1-01071-01201102791ADDAY171061AY231061GF108991031001999999071051MA1999999098781MD1710031+9999MW1021REMSYN082AAXX  10121 35173 41998 82306 11107 21120 39878 40279 57003 70273 83075 555 1/112;
0145351730999992000011015004+51620+069800FM-12+031299999V0202001N006019999999N0200001N1-01191-01251102751ADDGF108991081001999999021999KA1120M-00741MD1710051+9999REMSYN080AAXX  10151 35173 /2998 82006 11119 21125 40275 57005 8802/ 333 11074 555 60012;
0180351730999992000011018004+51620+069800FM-12+031299999V0202001N004019999999N0010001N1-01301-01361102621ADDAA100001091AY171061AY221061GF108991081001999999021999KA1999M-00741MD1710141+9999MW1711REMSYN082AAXX  10181 35173 11994 82004 11130 21136 40262 57014 60010 77172 8802/ 333 11074;
0140351730999992000011021004+51620+069800FM-12+031299999V0202301N008010075019N0010001N1-01031-01091102521ADDAY171031AY231031GF108991081051008001999999MD1710051+9999MW1781REMSYN066AAXX  10211 35173 41594 82308 11103 21109 40252 57005 77873 885//;
0190351730999992000011100004+51620+069800FM-12+031299999V0202501N008010042019N0010001N1-00991-01111102451ADDAY171061AY231061GF108991999071004501021999MA1999999098481MD1210061+9999MW1711REMSYN082AAXX  11001 35173 41494 82508 11099 21111 39848 40245 52006 77173 8872/ 555 1/111;EQDQ01+000082SCOTLC
0206351730999992000011103004+51620+069800FM-12+031299999V0202301N004010075019N0010001N1-01011-01071102451ADDAA112000591AJ100239199999999AY171031AY231031GF108991081051008001999999IA1249MD1410001+9999MW1781REMSYN098AAXX  11031 35173 /1594 82304 11101 21107 40245 54000 77873 885// 333 48023 555 21133 69952 7002/;
0202351730999992000011106004+51620+069800FM-12+031299999V0202301N004010078019N0040001N1-00891-01041102481ADDAA100000591AY171061AY231061GA1081+007809059GF108991081051008001999999KA1120N-01331MD1310031+9999MW1021REMSYN088AAXX  11061 35173 11596 82304 11089 21104 40248 53003 69950 70273 885// 333 21133 88626;
0140351730999992000011109004+51620+069800FM-12+031299999V0202301N002019999999N0040001N1-00811-00911102391ADDAY171031AY221031GF108991081001999999021999MD1810061+9999MW1021REMSYN066AAXX  11091 35173 41996 82302 11081 21091 40239 58006 70272 8802/;
0197351730999992000011112004+51620+069800FM-12+031299999V0202301N002010072019N0200001N1-00821-00961102431ADDAY171061AY221061GA1081+007209069GF108991081051008001999999MA1999999098491MD1310041+9999MW1021REMSYN092AAXX  11121 35173 41598 82302 11082 21096 39849 40243 53004 70272 885// 333 88624 555 1/109;
0195351730999992000011115004+51620+069800FM-12+031299999V0202301N004010039019N0200001N1-00841-00941102391ADDAY171031AY221031GA1081+003909079GF108991081061004501999999KA1120M-00771MD1810041+9999MW1221REMSYN092AAXX  11151 35173 /1498 82304 11084 21094 40239 58004 72272 886// 333 11077 88713 555 69922;
0202351730999992000011118004+51620+069800FM-12+031299999V0202301N008010039019N0200001N1-00771-00951102271ADDAA100000191AY131061AY231061GA1081+003909069GF108991081061004501999999KA1120M-00771MD1710111+9999MW1361REMSYN088AAXX  11181 35173 11498 82308 11077 21095 40227 57011 69920 73633 886// 333 11077 88713;
0166351730999992000011121004+51620+069800FM-12+031299999V0202301N008010066019N0200001N1-00831-01021102161ADDAY131031AY231031GA1081+006609059GF108991081051008001999999MD1710111+9999MW1361REMSYN076AAXX  11211 35173 41598 82308 11083 21102 40216 57011 73633 885// 333 88622;
0171351730999992000011200004+51620+069800FM-12+031299999V0202301N006019999999N0200001N1-00901-01061102061ADDAY131061AY221061GF108991081001999999071999MA1999999098111MD1710121+9999MW1021REMSYN082AAXX  12001 35173 41998 82306 11090 21106 39811 40206 57012 70232 8807/ 555 1/111;
0191351730999992000011203004+51620+069800FM-12+031299999V0202001N004019999999N0200001N1-01021-01081101921ADDAA106000091AJ100239199999999GF108991081001999999021999IA1249MD1710141+9999REMSYN086AAXX  12031 35173 32998 82004 11102 21108 40192 57014 8802/ 333 48023 555 21102 7992/;EQDQ01  00002PRCP06
0174351730999992000011206004+51620+069800FM-12+031299999V0202001N004019999999N0040001N1-01051-01111101831ADDAA106000021AY171061AY221061GF107991071001999999031001KA1999N-01021MD1710091+9999MW1221REMSYN076AAXX  12061 35173 31996 72004 11105 21111 40183 57009 72272 87030 333 21102;
0140351730999992000011209004+51620+069800FM-12+031299999V0202501N004019999999N0040001N1-00791-00931101711ADDAY171031AY221031GF108991081001999999071999MD1710091+9999MW1021REMSYN066AAXX  12091 35173 41996 82504 11079 21093 40171 57009 70272 8807/;
0171351730999992000011212004+51620+069800FM-12+031299999V0202701N004019999999N0200001N1-00851-00921101841ADDAY171061AY221061GF108991081001999999021999MA1999999097921MD1310131+9999MW1021REMSYN082AAXX  12121 35173 41998 82704 11085 21092 39792 40184 53013 70272 8802/ 555 1/108;
0167351730999992000011215004+51620+069800FM-12+031299999V0202701N002010039019N0200001N1-01031-01031102031ADDGA1051+003909079GF105991051071004501001001KA1120M-00691MD1210161+9999REMSYN086AAXX  12151 35173 /2498 52702 11103 21103 40203 52016 85700 333 11069 85713 555 69972;
0193351730999992000011218004+51620+069800FM-12+031299999V0202701N002010036019N0200001N1-00611-00651102161ADDAA100000891GA1081+003609069GF108991081061004501999999KA1120M+99999MD1210181+9999REMSYN082AAXX  12181 35173 12498 82702 11061 21065 40216 52018 69970 886// 333 11069 88712;EQDQ01 -00692ATMX  
0138351730999992000011221004+51620+069800FM-12+031299999V0202701N002010033019N0200001N1-00491-00551102251ADDGA1081+003309069GF108991081071004501999999MD1210091+9999REMSYN070AAXX  12211 35173 42498 82702 11049 21055 40225 52009 887// 333 88711;
0169351730999992000011300004+51620+069800FM-12+031299999V0202701N004010063019N0200001N1-00671-00751102391ADDGA1071+006309069GF107991071051008001001001MA1999999098481MD1210131+9999REMSYN086AAXX  13001 35173 42598 72704 11067 21075 39848 40239 52013 87500 333 87621 555 1/107;
0228351730999992000011303004+51620+069800FM-12+031299999V0202701N002010069019N0200001N1-00821-00841102531ADDAA112999929AJ100249199999999AY171031AY221031GA1081+006909069GF108991051051008001999999IA1249MD1210081+9999MW1221REMSYN104AAXX  13031 35173 /1598 82702 11082 21084 40253 52008 72272 855// 333 48024 88623 555 21104 69902 7997/;
0180351730999992000011306004+51620+069800FM-12+031299999V0202301N004019999999N0040001N1-00631-00751102551ADDAA100000791AY171061AY221061GF108991081001999999021999KA1999N-01041MD1210051+9999MW1711REMSYN082AAXX  13061 35173 11996 82304 11063 21075 40255 52005 69900 77172 8802/ 333 21104;
0140351730999992000011309004+51620+069800FM-12+031299999V0202301N004019999999N0040001N1-00571-00711102471ADDAY171031AY221031GF108991081001999999021999MD1810071+9999MW1711REMSYN066AAXX  13091 35173 41996 82304 11057 21071 40247 58007 77172 8802/;
0171351730999992000011312004+51620+069800FM-12+031299999V0202701N004019999999N0200001N1-00711-00841102501ADDAY171061AY221061GF108991081001999999021999MA1999999098561MD1410001+9999MW1021REMSYN082AAXX  13121 35173 41998 82704 11071 21084 39856 40250 54000 70272 8802/ 555 1/108;
0182351730999992000011403004+51620+069800FM-12+031299999V0202301N002019999999N0200001N1-01071-01131102301ADDAA112000291AJ100259199999999GF106991061001999999071001IA1249MD1710141+9999REMSYN096    AAXX  14031 35173 /2998 62302 11107 21113 40230 57014 86070 333 48025 555 21110 69922 7992/;
0184351730999992000011406004+51620+069800FM-12+031299999V0202301N008019999999N0040001N1-00661-00741102081ADDAA100000191AY131061AY211061GF108991081001999999011999KA1999N-01101MD1710171+9999MW1361REMSYN086    AAXX  14061 35173 11996 82308 11066 21074 40208 57017 69920 73631 8801/ 333 21110;
0144351730999992000011409004+51620+069800FM-12+031299999V0202301N008019999999N0040001N1-00641-00641101861ADDAY171031AY231031GF108991081001999999021999MD1710211+9999MW1711REMSYN070    AAXX  14091 35173 41996 82308 11064 21064 40186 57021 77173 8802/;
0175351730999992000011412004+51620+069800FM-12+031299999V0202701N008019999999N0200001N1-00611-00611101641ADDAY171061AY231061GF108991081001999999021999MA1999999097751MD1710221+9999MW1361REMSYN086    AAXX  14121 35173 41998 82708 11061 21061 39775 40164 57022 73673 8802/ 555 1/107;
0177351730999992000011415004+51620+069800FM-12+031299999V0202701N008019999999N0010001N1-00591-00661101721ADDAY131031AY231031GF108991081001999999021999KA1120M-00541MD1310081+9999MW1381REMSYN090    AAXX  14151 35173 /1994 82708 11059 21066 40172 53008 73833 8802/ 333 11054 555 69952;
0206351730999992000011418004+51620+069800FM-12+031299999V0202501N008010039019N0200001N1-00631-00751101771ADDAA100000591AY131061AY231061GA1071+003909069GF107991071071004501001001KA1120M-00541MD1210051+9999MW1361REMSYN092    AAXX  14181 35173 11498 72508 11063 21075 40177 52005 69950 73633 87700 333 11054 87713;
0217351730999992000011503004+51620+069800FM-12+031299999V0202501N006010072019N0200001N1-00641-00761101631ADDAA199000091AJ100229199999999GA1081+007209069GF108991081051008001999999IA1249MD1710181+9999REMSYN096    AAXX  15031 35173 32598 82506 11064 21076 40163 57018 885// 333 48022 88624 555 21070 7995/;EQDQ01  00002PRCP99
0197351730999992000011506004+51620+069800FM-12+031299999V0202301N008010042019N0040001N1-00601-00641101471ADDAA199000021AY171061AY231061GF108991999071004501021999KA1999N-00701MD1710151+9999MW1711REMSYN080    AAXX  15061 35173 31496 82308 11060 21064 40147 57015 77173 8872/ 333 21070;EQDQ01+000082SCOTLC
0163351730999992000011509004+51620+069800FM-12+031299999V0202501N008010042019N0040001N1-00571-00641101451ADDAY171031AY231031GF108991999071004501021999MD1710011+9999MW1711REMSYN070    AAXX  15091 35173 41496 82508 11057 21064 40145 57001 77173 8872/;EQDQ01+000082SCOTLC
0175351730999992000011512004+51620+069800FM-12+031299999V0203201N006010075019N0010001N1-00761-00891101841ADDAY171061AY231061GF108991081051008001999999MA1999999097931MD1310351+9999MW1711REMSYN086    AAXX  15121 35173 41594 83206 11076 21089 39793 40184 53035 77173 885// 555 1/108;
0177351730999992000011515004+51620+069800FM-12+031299999V0203401N002019999999N0200001N1-01221-01571102421ADDAY171031AY221031GF106991061001999999071001KA1120M-00541MD1210491+9999MW1021REMSYN090    AAXX  15151 35173 /1998 63402 11122 21157 40242 52049 70272 86070 333 11054 555 60022;
0194351730999992000011518004+51620+069800FM-12+031299999V0203601N002012200019N0200001N1-01961-02291102951ADDAA100002091AY171061AY211061GA1001+999999999GF100991001001999999001001KA1999M-00541MD1210381+9999MW1011REMSYN080    AAXX  15181 35173 11998 03602 11196 21229 40295 52038 60020 70171 333 11054;
0157351730999992000011600004+51620+069800FM-12+031299999V0209999C000012200019N0200001N1-02651-02901103601ADDGA1001+999999999GF100991001001999999001001MA1999999099331MD1210181+9999REMSYN074    AAXX  16001 35173 42998 00000 11265 21290 39933 40360 52018 555 1/128;
0205351730999992000011603004+51620+069800FM-12+031299999V0209999C000012200019N0200001N1-02911-03091103801ADDAA199000091AJ100239199999999GA1001+999999999GF100991001001999999001001IA1249MD1210141+9999REMSYN084    AAXX  16031 35173 32998 00000 11291 21309 40380 52014 333 48023 555 21294 7002/;EQDQ01  00002PRCP99
0179351730999992000011606004+51620+069800FM-12+031299999V0203601N002012200019N0040001N1-02231-02481103781ADDAA199000091GA1001+999999999GF100991001001999999001001KA1999N-02941MD1210101+9999REMSYN068    AAXX  16061 35173 32996 03602 11223 21248 40378 52010 333 21294;EQDQ01  00002PRCP99
0126351730999992000011609004+51620+069800FM-12+031299999V0203601N002012200019N0040001N1-01751-02171103541ADDGA1001+999999999GF100991001001999999001001MD1810161+9999REMSYN058    AAXX  16091 35173 42996 03602 11175 21217 40354 58016;
0147351730999992000011612004+51620+069800FM-12+031299999V0201401N002012200019N0200001N1-02011-02201103511ADDGF104991001001999999001061MA1999999099341MD1710071+9999REMSYN080    AAXX  16121 35173 42998 41402 11201 21220 39934 40351 57007 80006 555 1/123;
0169351730999992000011615004+51620+069800FM-12+031299999V0201801N004019999999N0200001N1-01771-01891103391ADDAA199000091GF108991001001999999001071KA1999M-01601MD1710081+9999REMSYN074    AAXX  16151 35173 32998 81804 11177 21189 40339 57008 80007 333 11160;EQDQ01  00002PRCP99
0197351730999992000011618004+51620+069800FM-12+031299999V0201801N002019999999N0200001N1-01391-01521103151ADDAA199000021AY171061AY211061GF107991071001999999011001KA1999M+99999MD1710171+9999MW1221REMSYN080    AAXX  16181 35173 31998 71802 11139 21152 40315 57017 72271 87010 333 11160;EQDQ01 -01602ATMX  
0116351730999992000011621004+51620+069800FM-12+031299999V0201801N002019999999N0200001N1-01341-01471103001ADDGF108991081001999999021999MD1710141+9999REMSYN064    AAXX  16211 35173 42998 81802 11134 21147 40300 57014 8802/;
0147351730999992000011700004+51620+069800FM-12+031299999V0201801N002012200019N0200001N1-01321-01451102881ADDGF103991031001999999041001MA1999999098841MD1710111+9999REMSYN080    AAXX  17001 35173 42998 31802 11132 21145 39884 40288 57011 83040 555 1/115;
0192351730999992000011703004+51620+069800FM-12+031299999V0201801N002012200019N0200001N1-01631-01761102871ADDAA112999929AJ100239199999999GA1001+999999999GF100991001001999999001001IA1249MD1710051+9999REMSYN090    AAXX  17031 35173 /2998 01802 11163 21176 40287 57005 333 48023 555 21178 69902 7990/;
0166351730999992000011706004+51620+069800FM-12+031299999V0201401N002012200019N0040001N1-01671-01861102861ADDAA100000791GA1001+999999999GF100991001001999999001001KA1999N-01781MD1710031+9999REMSYN074    AAXX  17061 35173 12996 01402 11167 21186 40286 57003 69900 333 21178;
0116351730999992000011709004+51620+069800FM-12+031299999V0201401N002019999999N0040001N1-01341-01541102641ADDGF108991081001999999011999MD1710151+9999REMSYN064    AAXX  17091 35173 42996 81402 11134 21154 40264 57015 8801/;
0147351730999992000011712004+51620+069800FM-12+031299999V0201401N004019999999N0200001N1-00951-01111102431ADDGF108991081001999999011999MA1999999098471MD1710141+9999REMSYN080    AAXX  17121 35173 42998 81404 11095 21111 39847 40243 57014 8801/ 555 1/110;
0169351730999992000011715004+51620+069800FM-12+031299999V0201401N004019999999N0200001N1-01161-01291102381ADDAA199000091GF106991001001999999001071KA1999M-00911MD1710081+9999REMSYN074    AAXX  17151 35173 32998 61404 11116 21129 40238 57008 80007 333 11091;EQDQ01  00002PRCP99
0169351730999992000011718004+51620+069800FM-12+031299999V0201401N004019999999N0200001N1-01531-01661102251ADDAA199000091GF108991081001999999071999KA1999M-00911MD1710181+9999REMSYN074    AAXX  17181 35173 32998 81404 11153 21166 40225 57018 8807/ 333 11091;EQDQ01  00002PRCP99
0144351730999992000011721004+51620+069800FM-12+031299999V0201401N004010075019N0010001N1-01671-01791102131ADDAY171031AY221031GF108991081051008001999999MD1710151+9999MW1711REMSYN070    AAXX  17211 35173 41594 81404 11167 21179 40213 57015 77172 885//;
0194351730999992000011800004+51620+069800FM-12+031299999V0201601N002010042019N0010001N1-01551-01681102001ADDAY171061AY221061GF108991999071004501021999MA1999999097961MD1710101+9999MW1711REMSYN086    AAXX  18001 35173 41494 81602 11155 21168 39796 40200 57010 77172 8872/ 555 1/117;EQDQ01+000082SCOTLC
0229351730999992000011803004+51620+069800FM-12+031299999V0201601N002010042019N0010001N1-01451-01581101971ADDAA112000491AJ100239199999999AY171031AY271031GF108991999071004501021999IA1249MD1710011+9999MW1711REMSYN102    AAXX  18031 35173 /1494 81602 11145 21158 40197 57001 77177 8872/ 333 48023 555 21171 69942 7994/;EQDQ01+000082SCOTLC
0184351730999992000011806004+51620+069800FM-12+031299999V0201801N002019999999N0040001N1-01431-01561102081ADDAA100000591AY171061AY221061GF106991001001999999001081KA1999N-01711MD1310111+9999MW1011REMSYN086    AAXX  18061 35173 11996 61802 11143 21156 40208 53011 69940 70172 80008 333 21171;
0126351730999992000011809004+51620+069800FM-12+031299999V0201801N002012200019N0040001N1-01181-01451102061ADDGA1001+999999999GF100991001001999999001001MD1210021+9999REMSYN058    AAXX  18091 35173 42996 01802 11118 21145 40206 52002;
0157351730999992000011812004+51620+069800FM-12+031299999V0201801N002012200019N0200001N1-01631-01821102261ADDGA1001+999999999GF100991001001999999001001MA1999999098201MD1210121+9999REMSYN074    AAXX  18121 35173 42998 01802 11163 21182 39820 40226 52012 555 1/119;
0159351730999992000011815004+51620+069800FM-12+031299999V0201801N002012200019N0200001N1-01741-01861102431ADDGA1001+999999999GF100991001001999999001001KA1120M-01101MD1210151+9999REMSYN078    AAXX  18151 35173 /2998 01802 11174 21186 40243 52015 333 11110 555 69902;
0194351730999992000011818004+51620+069800FM-12+031299999V0201601N002010001519N0001001N1-01861-01921102571ADDAA100000791AY141061AY211061GA1091+999999999GF109991091999999999999999KA1999M-01101MD1210101+9999MW1491REMSYN080    AAXX  18181 35173 11/91 91602 11186 21192 40257 52010 69900 74941 333 11110;
0154351730999992000011821004+51620+069800FM-12+031299999V0201601N002010001519N0001001N1-01671-01731102681ADDAY141031AY241031GA1091+999999999GF109991091999999999999999MD1210141+9999MW1491REMSYN064    AAXX  18211 35173 41/91 91602 11167 21173 40268 52014 74944;
0175351730999992000011900004+51620+069800FM-12+031299999V0201601N002019999999N0200001N1-01631-01761102731ADDAY141061AY221061GF106991061001999999051001MA1999999098661MD1210071+9999MW1011REMSYN086    AAXX  19001 35173 41998 61602 11163 21176 39866 40273 52007 70142 86050 555 1/121;
0195351730999992000011903004+51620+069800FM-12+031299999V0201601N002019999999N0200001N1-01541-01601102811ADDAA199000091AJ100239199999999GF108991081001999999021999IA1249MD1210081+9999REMSYN090    AAXX  19031 35173 32998 81602 11154 21160 40281 52008 8802/ 333 48023 555 21190 7990/;EQDQ01  00002PRCP99
0169351730999992000011906004+51620+069800FM-12+031299999V0201801N002019999999N0040001N1-01431-01491102901ADDAA199000091GF108991081001999999011999KA1999N-01901MD1210111+9999REMSYN074    AAXX  19061 35173 32996 81802 11143 21149 40290 52011 8801/ 333 21190;EQDQ01  00002PRCP99
0116351730999992000011909004+51620+069800FM-12+031299999V0201801N002019999999N0040001N1-01171-01371102931ADDGF108991081001999999071999MD1210051+9999REMSYN064    AAXX  19091 35173 42996 81802 11117 21137 40293 52005 8807/;
0157351730999992000011912004+51620+069800FM-12+031299999V0201601N002012200019N0200001N1-01491-01621103021ADDGA1001+999999999GF100991001001999999001001MA1999999098941MD1210041+9999REMSYN074    AAXX  19121 35173 42998 01602 11149 21162 39894 40302 52004 555 1/117;
0175351730999992000011915004+51620+069800FM-12+031299999V0201401N002012200019N0200001N1-01531-01591103031ADDAA199000091GA1001+999999999GF100991001001999999001001KA1999M-01131MD1210011+9999REMSYN064AAXX  19151 35173 32998 01402 11153 21159 40303 52001 333 11113;EQDQ01  00002PRCP99
0175351730999992000011918004+51620+069800FM-12+031299999V0209999C000012200019N0200001N1-01671-01731103041ADDAA199000091GA1001+999999999GF100991001001999999001001KA1999M-01131MD1810021+9999REMSYN064AAXX  19181 35173 32998 00000 11167 21173 40304 58002 333 11113;EQDQ01  00002PRCP99
0122351730999992000011921004+51620+069800FM-12+031299999V0209999C000012200019N0200001N1-01741-01801102921ADDGA1001+999999999GF100991001001999999001001MD1710111+9999REMSYN054AAXX  19211 35173 42998 00000 11174 21180 40292 57011;
0153351730999992000012000004+51620+069800FM-12+031299999V0201401N002012200019N0200001N1-01671-01731102751ADDGA1001+999999999GF100991001001999999001001MA1999999098661MD1710161+9999REMSYN070AAXX  20001 35173 42998 01402 11167 21173 39866 40275 57016 555 1/121;
0201351730999992000012003004+51620+069800FM-12+031299999V0209999C000012200019N0200001N1-01841-01901102611ADDAA199000091AJ100239199999999GA1001+999999999GF100991001001999999001001IA1249MD1710151+9999REMSYN080AAXX  20031 35173 32998 00000 11184 21190 40261 57015 333 48023 555 21187 7000/;EQDQ01  00002PRCP99
0165351730999992000012006004+51620+069800FM-12+031299999V0201601N002019999999N0040001N1-01631-01691102341ADDAA199000091GF106991001001999999001081KA1999N-01871MD1710231+9999REMSYN070AAXX  20061 35173 32996 61602 11163 21169 40234 57023 80008 333 21187;EQDQ01  00002PRCP99
0112351730999992000012009004+51620+069800FM-12+031299999V0201401N004019999999N0040001N1-01251-01311102041ADDGF106991001001999999001081MD1710221+9999REMSYN060AAXX  20091 35173 42996 61404 11125 21131 40204 57022 80008;
0143351730999992000012012004+51620+069800FM-12+031299999V0201401N004019999999N0200001N1-01331-01531101951ADDGF107991031001999999071051MA1999999097951MD1710111+9999REMSYN076AAXX  20121 35173 42998 71404 11133 21153 39795 40195 57011 83075 555 1/116;
0165351730999992000012015004+51620+069800FM-12+031299999V0201401N006019999999N0200001N1-01171-01441101751ADDAA199000091GF108991051001999999071051KA1999M-01101MD1710181+9999REMSYN070AAXX  20151 35173 32998 81406 11117 21144 40175 57018 85075 333 11110;EQDQ01  00002PRCP99
0181351730999992000012018004+51620+069800FM-12+031299999V0201601N006019999999N0200001N1-01021-01221101491ADDAA199000091GF106991061001999999071001KA1999M+99999MD1710221+9999REMSYN070AAXX  20181 35173 32998 61606 11102 21122 40149 57022 86070 333 11110;EQDQ01  00002PRCP99Q02 -01102ATMX  
0112351730999992000012021004+51620+069800FM-12+031299999V0201801N006019999999N0200001N1-00711-00921101531ADDGF108991081001999999021999MD1310081+9999REMSYN060AAXX  20211 35173 42998 81806 11071 21092 40153 53008 8802/;
0143351730999992000012100004+51620+069800FM-12+031299999V0201801N002019999999N0200001N1-00671-00831101711ADDGF108991081001999999021999MA1999999097821MD1210191+9999REMSYN076AAXX  21001 35173 42998 81802 11067 21083 39782 40171 52019 8802/ 555 1/108;
0206351730999992000012103004+51620+069800FM-12+031299999V0201801N002019999999N0200001N1-00551-00621101871ADDAA112000291AJ100239199999999AY171031AY221031GF108991081001999999021999IA1249MD1210171+9999MW1021REMSYN098AAXX  21031 35173 /1998 81802 11055 21062 40187 52017 70272 8802/ 333 48023 555 21118 69922 7992/;
0180351730999992000012106004+51620+069800FM-12+031299999V0201801N002019999999N0040001N1-00431-00551102021ADDAA100000191AY171061AY221061GF108991081001999999011999KA1999N-01181MD1210161+9999MW1021REMSYN082AAXX  21061 35173 11996 81802 11043 21055 40202 52016 69920 70272 8801/ 333 21118;
0112351730999992000012109004+51620+069800FM-12+031299999V0209999C000019999999N0040001N1-00301-00501102081ADDGF108991081001999999011999MD1210071+9999REMSYN060AAXX  21091 35173 42996 80000 11030 21050 40208 52007 8801/;
0143351730999992000012112004+51620+069800FM-12+031299999V0202701N002019999999N0200001N1-00271-00371102081ADDGF108991081001999999021999MA1999999098241MD1210021+9999REMSYN076AAXX  21121 35173 42998 82702 11027 21037 39824 40208 52002 8802/ 555 1/103;
0165351730999992000012115004+51620+069800FM-12+031299999V0201401N002019999999N0200001N1-00281-00381102061ADDAA199000091GF108991081001999999021999KA1999M-00201MD1810021+9999REMSYN070AAXX  21151 35173 32998 81402 11028 21038 40206 58002 8802/ 333 11020;EQDQ01  00002PRCP99
0165351730999992000012118004+51620+069800FM-12+031299999V0201601N004019999999N0200001N1-00311-00451101891ADDAA199000091GF108991081001999999021999KA1999M-00201MD1710181+9999REMSYN070AAXX  21181 35173 32998 81604 11031 21045 40189 57018 8802/ 333 11020;EQDQ01  00002PRCP99
0112351730999992000012121004+51620+069800FM-12+031299999V0201601N004019999999N0200001N1-00291-00421101791ADDGF108991081001999999021999MD1710101+9999REMSYN060AAXX  21211 35173 42998 81604 11029 21042 40179 57010 8802/;
0096351730999992000012200004+51620+069800FM-12+031299999V0201401N006019999999N0200001N1-00471-00671999999ADDGF108991081001999999011999REMSYN058AAXX  22001 35173 42998 81406 11047 21067 8801/ 555 1/106;
0191351730999992000012203004+51620+069800FM-12+031299999V0201401N006019999999N0200001N1-00651-01061101691ADDAA199000091AJ100239199999999GF106991041001999999031041IA1249MD1710051+9999REMSYN086AAXX  22031 35173 32998 61406 11065 21106 40169 57005 84034 333 48023 555 21068 7000/;EQDQ01  00002PRCP99
0193351730999992000012206004+51620+069800FM-12+031299999V0201401N008019999999N0040001N1-00511-01151101731ADDAA199000091AY131061AY221061GF106991001001999999001011KA1999N-00681MD1310051+9999MW1361REMSYN076AAXX  22061 35173 31996 61408 11051 21115 40173 53005 73632 80001 333 21068;EQDQ01  00002PRCP99
0140351730999992000012209004+51620+069800FM-12+031299999V0201401N006019999999N0040001N1-00411-00951101661ADDAY131031AY221031GF107991001001999999001011MD1810051+9999MW1021REMSYN066AAXX  22091 35173 41996 71406 11041 21095 40166 58005 70232 80001;
0171351730999992000012212004+51620+069800FM-12+031299999V0201401N004019999999N0200001N1-00471-00911101641ADDAY131061AY221061GF108991021001999999071051MA1999999097781MD1710021+9999MW1021REMSYN082AAXX  22121 35173 41998 81404 11047 21091 39778 40164 57002 70232 82075 555 1/106;
0165351730999992000012215004+51620+069800FM-12+031299999V0201601N006019999999N0200001N1-00501-00821101581ADDAA199000091GF108991001001999999001071KA1999M-00291MD1710081+9999REMSYN070AAXX  22151 35173 32998 81606 11050 21082 40158 57008 80007 333 11029;EQDQ01  00002PRCP99
0165351730999992000012218004+51620+069800FM-12+031299999V0201601N006019999999N0200001N1-00541-00871101501ADDAA199000091GF108991001001999999001071KA1999M-00291MD1710071+9999REMSYN070AAXX  22181 35173 32998 81606 11054 21087 40150 57007 80007 333 11029;EQDQ01  00002PRCP99
0112351730999992000012221004+51620+069800FM-12+031299999V0201601N006019999999N0200001N1-00591-00891101471ADDGF108991081001999999011999MD1710041+9999REMSYN060AAXX  22211 35173 42998 81606 11059 21089 40147 57004 8801/;
0143351730999992000012300004+51620+069800FM-12+031299999V0201801N004019999999N0200001N1-00491-00701101511ADDGF108991081001999999021999MA1999999097641MD1310051+9999REMSYN076AAXX  23001 35173 42998 81804 11049 21070 39764 40151 53005 8802/ 555 1/106;
0213351730999992000012303004+51620+069800FM-12+031299999V0201801N004010066019N0200001N1-00391-00541101501ADDAA199000091AJ100239199999999GA1081+006609069GF108991081051008001999999IA1249MD1210011+9999REMSYN092AAXX  23031 35173 32598 81804 11039 21054 40150 52001 885// 333 48023 88622 555 21060 7000/;EQDQ01  00002PRCP99
0196351730999992000012306004+51620+069800FM-12+031299999V0201801N002010069019N0040001N1-00331-00401101621ADDAA199000021AY171061AY221061GA1081+006909059GF108991081051008001999999KA1120N-00601MD1210121+9999MW1221REMSYN082AAXX  23061 35173 31596 81802 11033 21040 40162 52012 72272 885// 333 21060 88623;
0140351730999992000012309004+51620+069800FM-12+031299999V0201801N002019999999N0040001N1-00241-00331101651ADDAY171031AY221031GF108991081001999999021999MD1210051+9999MW1221REMSYN066AAXX  23091 35173 41996 81802 11024 21033 40165 52005 72272 8802/;
0196351730999992000012312004+51620+069800FM-12+031299999V0202301N002010063019N0200001N1-00231-00351101871ADDAY171061AY221061GA1081+006309069GF108991081051008001999999MA1999999098031MD1210211+9999MW1021REMSYN091AAXX  23121 3517341598 82302 11023 21035 39803 40187 52021 70272 885// 333 88621 555 1/102;
0167351730999992000012315004+51620+069800FM-12+031299999V0202001N004010039019N0200001N1-00441-00571101921ADDGA1081+003909079GF108991081061004501999999KA1120M-00191MD1210031+9999REMSYN086AAXX  23151 35173 /2498 82004 11044 21057 40192 52003 886// 333 11019 88713 555 60022;
0174351730999992000012318004+51620+069800FM-12+031299999V0202701N004010039019N0200001N1-00501-00711102061ADDAA100002091GA1081+003909069GF108991081061004501999999KA1120M-00191MD1210111+9999REMSYN082AAXX  23181 35173 12498 82704 11050 21071 40206 52011 60020 886// 333 11019 88713;
0138351730999992000012321004+51620+069800FM-12+031299999V0202701N004010066019N0200001N1-00941-01191102241ADDGA1081+006609059GF108991081051008001999999MD1210121+9999REMSYN070AAXX  23211 35173 42598 82704 11094 21119 40224 52012 885// 333 88622;
0143351730999992000012400004+51620+069800FM-12+031299999V0202701N002019999999N0200001N1-01161-01441102331ADDGF108991081001999999071999MA1999999098341MD1210051+9999REMSYN076AAXX  24001 35173 42998 82702 11116 21144 39834 40233 52005 8807/ 555 1/113;
0191351730999992000012403004+51620+069800FM-12+031299999V0202301N002019999999N0200001N1-01021-01221102241ADDAA199000091AJ100249199999999GF108991081001999999021999IA1249MD1810061+9999REMSYN086AAXX  24031 35173 32998 82302 11102 21122 40224 58006 8802/ 333 48024 555 21117 7002/;EQDQ01  00002PRCP99
0174351730999992000012406004+51620+069800FM-12+031299999V0201401N004019999999N0040001N1-01031-01161102291ADDAA199000021AY171061AY221061GF108991081001999999021999KA1999N-01171MD1310041+9999MW1711REMSYN076AAXX  24061 35173 31996 81404 11103 21116 40229 53004 77172 8802/ 333 21117;
0140351730999992000012409004+51620+069800FM-12+031299999V0201401N004019999999N0040001N1-00771-00951102191ADDAY171031AY271031GF108991081001999999021999MD1810051+9999MW1011REMSYN066AAXX  24091 35173 41996 81404 11077 21095 40219 58005 70177 8802/;
0171351730999992000012412004+51620+069800FM-12+031299999V0202001N006019999999N0200001N1-00511-00831102251ADDAY171061AY221061GF107991071001999999071001MA1999999098351MD1310081+9999MW1021REMSYN082AAXX  24121 35173 41998 72006 11051 21083 39835 40225 53008 70272 87070 555 1/106;
0167351730999992000012415004+51620+069800FM-12+031299999V0202001N006010039019N0200001N1-00831-01021102421ADDGA1061+003909079GF106991061071004501001001KA1120M-00391MD1210131+9999REMSYN086AAXX  24151 35173 /2498 62006 11083 21102 40242 52013 86700 333 11039 86713 555 69942;
0202351730999992000012418004+51620+069800FM-12+031299999V0202001N008010039019N0200001N1-01171-01371102771ADDAA100000591AY131061AY221061GA1081+003909069GF108991081061004501999999KA1120M-00391MD1210271+9999MW1361REMSYN088AAXX  24181 35173 11498 82008 11117 21137 40277 52027 69940 73632 886// 333 11039 88713;
0150351730999992000012421004+51620+069800FM-12+031299999V0201801N002012200019N0200001N1-01861-02051103151ADDAY131031AY211031GA1001+999999999GF100991001001999999001001MD1210261+9999MW1011REMSYN060AAXX  24211 35173 41998 01802 11186 21205 40315 52026 70131;
0181351730999992000012500004+51620+069800FM-12+031299999V0201801N002012200019N0200001N1-01961-02221103411ADDAY131061AY211061GA1001+999999999GF100991001001999999001001MA1999999099251MD1210241+9999MW1021REMSYN076AAXX  25001 35173 41998 01802 11196 21222 39925 40341 52024 70231 555 1/122;
0201351730999992000012503004+51620+069800FM-12+031299999V0202001N002012200019N0200001N1-02071-02321103601ADDAA199000091AJ100229199999999GA1001+999999999GF100991001001999999001001IA1249MD1210161+9999REMSYN080AAXX  25031 35173 32998 02002 11207 21232 40360 52016 333 48022 555 21211 7994/;EQDQ01  00002PRCP99
0175351730999992000012506004+51620+069800FM-12+031299999V0202301N004012200019N0040001N1-01881-02211103841ADDAA199000091GA1001+999999999GF100991001001999999001001KA1999N-02111MD1210261+9999REMSYN064AAXX  25061 35173 32996 02304 11188 21221 40384 52026 333 21211;EQDQ01  00002PRCP99
0122351730999992000012509004+51620+069800FM-12+031299999V0202301N004012200019N0040001N1-01681-02101103951ADDGA1001+999999999GF100991001001999999001001MD1210141+9999REMSYN054AAXX  25091 35173 42996 02304 11168 21210 40395 52014;
0153351730999992000012512004+51620+069800FM-12+031299999V0202301N002012200019N0040001N1-01851-02111104141ADDGA1001+999999999GF100991001001999999001001MA1999999099981MD1210171+9999REMSYN070AAXX  25121 35173 42996 02302 11185 21211 39998 40414 52017 555 1/122;
0175351730999992000012515004+51620+069800FM-12+031299999V0201801N002012200019N0200001N1-02251-02431104491ADDAA199000091GA1001+999999999GF100991001001999999001001KA1999M-00811MD1210271+9999REMSYN064AAXX  25151 35173 32998 01802 11225 21243 40449 52027 333 11081;EQDQ01  00002PRCP99
0175351730999992000012518004+51620+069800FM-12+031299999V0201401N002012200019N0200001N1-02311-02491104541ADDAA199000091GA1001+999999999GF100991001001999999001001KA1999M-01601MD1210031+9999REMSYN064AAXX  25181 35173 32998 01402 11231 21249 40454 52003 333 11160;EQDQ01  00002PRCP99
0122351730999992000012521004+51620+069800FM-12+031299999V0201601N002012200019N0200001N1-02451-02631104621ADDGA1001+999999999GF100991001001999999001001MD1210061+9999REMSYN054AAXX  25211 35173 42998 01602 11245 21263 40462 52006;
0171351730999992000012600004+51620+069800FM-12+031299999V0201601N002019999999N0010001N1-02311-02491104741ADDAY101061AY211061GF108991001001999999001071MA1999999100471MD1210131+9999MW1101REMSYN082AAXX  26001 35173 41994 81602 11231 21249 30047 40474 52013 71001 80007 555 1/125;
0191351730999992000012603004+51620+069800FM-12+031299999V0201401N002012200019N0200001N1-02431-02611104661ADDAA199000091AJ100229199999999GF104991001001999999001061IA1249MD1810091+9999REMSYN086AAXX  26031 35173 32998 41402 11243 21261 40466 58009 80006 333 48022 555 21250 7000/;EQDQ01  00002PRCP99
0175351730999992000012606004+51620+069800FM-12+031299999V0201601N002012200019N0040001N1-01821-02011104591ADDAA199000091GA1001+999999999GF100991001001999999001001KA1999N-02501MD1310031+9999REMSYN064AAXX  26061 35173 32996 01602 11182 21201 40459 53003 333 21250;EQDQ01  00002PRCP99
0122351730999992000012609004+51620+069800FM-12+031299999V0201401N002012200019N0040001N1-01341-02051104331ADDGA1001+999999999GF100991001001999999001001MD1810171+9999REMSYN054AAXX  26091 35173 42996 01402 11134 21205 40433 58017;
0143351730999992000012612004+51620+069800FM-12+031299999V0201401N002019999999N0040001N1-01681-02181104341ADDGF106991001001999999001011MA1999999100181MD1710061+9999REMSYN076AAXX  26121 35173 42996 61402 11168 21218 30018 40434 57006 80001 555 1/119;
0175351730999992000012615004+51620+069800FM-12+031299999V0201401N002012200019N0200001N1-01741-02151104291ADDAA199000091GA1001+999999999GF100991001001999999001001KA1999M-01321MD1710051+9999REMSYN064AAXX  26151 35173 32998 01402 11174 21215 40429 57005 333 11132;EQDQ01  00002PRCP99
0175351730999992000012618004+51620+069800FM-12+031299999V0201401N002012200019N0200001N1-01801-02141104151ADDAA199000091GA1001+999999999GF100991001001999999001001KA1999M-01321MD1710141+9999REMSYN064AAXX  26181 35173 32998 01402 11180 21214 40415 57014 333 11132;EQDQ01  00002PRCP99
0122351730999992000012621004+51620+069800FM-12+031299999V0201401N002012200019N0200001N1-01641-01901103991ADDGA1001+999999999GF100991001001999999001001MD1710121+9999REMSYN054AAXX  26211 35173 42998 01402 11164 21190 40399 57012;
0143351730999992000012700004+51620+069800FM-12+031299999V0201401N002012200019N0200001N1-01591-01781103781ADDGF101991001001999999001011MA1999999099671MD1710201+9999REMSYN076AAXX  27001 35173 42998 11402 11159 21178 39967 40378 57020 80001 555 1/119;
0191351730999992000012703004+51620+069800FM-12+031299999V0201601N004012200019N0200001N1-01511-01701103671ADDAA199000091AJ100229199999999GF101991001001999999001011IA1249MD1710101+9999REMSYN086AAXX  27031 35173 32998 11604 11151 21170 40367 57010 80001 333 48022 555 21181 7000/;EQDQ01  00002PRCP99
0165351730999992000012706004+51620+069800FM-12+031299999V0201601N004012200019N0040001N1-01261-01531103481ADDAA199000091GF103991001001999999001011KA1999N-01811MD1710131+9999REMSYN070AAXX  27061 35173 32996 31604 11126 21153 40348 57013 80001 333 21181;EQDQ01  00002PRCP99
0112351730999992000012709004+51620+069800FM-12+031299999V0201401N002019999999N0040001N1-01031-01391103331ADDGF106991001001999999001011MD1710121+9999REMSYN060AAXX  27091 35173 42996 61402 11103 21139 40333 57012 80001;
0143351730999992000012712004+51620+069800FM-12+031299999V0201401N002019999999N0040001N1-01131-01411103191ADDGF105991031001999999071051MA1999999099171MD1710151+9999REMSYN076AAXX  27121 35173 42996 51402 11113 21141 39917 40319 57015 83075 555 1/114;
0175351730999992000012715004+51620+069800FM-12+031299999V0200901N002012200019N0200001N1-01311-01581103161ADDAA199000091GA1001+999999999GF100991001001999999001001KA1999M-00971MD1710061+9999REMSYN064AAXX  27151 35173 32998 00902 11131 21158 40316 57006 333 11097;EQDQ01  00002PRCP99
0175351730999992000012718004+51620+069800FM-12+031299999V0209999C000012200019N0200001N1-01351-01621103071ADDAA199000091GA1001+999999999GF100991001001999999001001KA1999M-00971MD1710091+9999REMSYN064AAXX  27181 35173 32998 00000 11135 21162 40307 57009 333 11097;EQDQ01  00002PRCP99
0122351730999992000012721004+51620+069800FM-12+031299999V0209999C000012200019N0200001N1-01481-01681102981ADDGA1001+999999999GF100991001001999999001001MD1710121+9999REMSYN054AAXX  27211 35173 42998 00000 11148 21168 40298 57012;
0153351730999992000012800004+51620+069800FM-12+031299999V0201401N002012200019N0200001N1-01411-01681102831ADDGA1001+999999999GF100991001001999999001001MA1999999098821MD1710081+9999REMSYN070AAXX  28001 35173 42998 01402 11141 21168 39882 40283 57008 555 1/117;
0191351730999992000012803004+51620+069800FM-12+031299999V0201401N002012200019N0200001N1-01391-01661102831ADDAA199000091AJ100229199999999GF103991001001999999001011IA1249MD1710041+9999REMSYN086AAXX  28031 35173 32998 31402 11139 21166 40283 57004 80001 333 48022 555 21151 7000/;EQDQ01  00002PRCP99
0165351730999992000012806004+51620+069800FM-12+031299999V0201401N002019999999N0040001N1-01211-01561102801ADDAA199000091GF106991001001999999001081KA1999N-01511MD1410001+9999REMSYN070AAXX  28061 35173 32996 61402 11121 21156 40280 54000 80008 333 21151;EQDQ01  00002PRCP99
0112351730999992000012809004+51620+069800FM-12+031299999V0201601N004019999999N0040001N1-01011-01371102511ADDGF105991001001999999001071MD1810251+9999REMSYN060AAXX  28091 35173 42996 51604 11101 21137 40251 58025 80007;
0143351730999992000012812004+51620+069800FM-12+031299999V0201401N006019999999N0040001N1-01231-01501102461ADDGF106991001001999999001081MA1999999098461MD1710071+9999REMSYN076AAXX  28121 35173 42996 61406 11123 21150 39846 40246 57007 80008 555 1/114;
0175351730999992000012815004+51620+069800FM-12+031299999V0201401N006012200019N0200001N1-01291-01491102531ADDAA199000091GA1001+999999999GF100991001001999999001001KA1999M-00951MD1310041+9999REMSYN064AAXX  28151 35173 32998 01406 11129 21149 40253 53004 333 11095;EQDQ01  00002PRCP99
0175351730999992000012818004+51620+069800FM-12+031299999V0201601N004012200019N0200001N1-01251-01451102441ADDAA199000091GA1001+999999999GF100991001001999999001001KA1999M-00951MD1810061+9999REMSYN064AAXX  28181 35173 32998 01604 11125 21145 40244 58006 333 11095;EQDQ01  00002PRCP99
0122351730999992000012821004+51620+069800FM-12+031299999V0201601N004012200019N0200001N1-01321-01511102481ADDGA1001+999999999GF100991001001999999001001MD1310021+9999REMSYN054AAXX  28211 35173 42998 01604 11132 21151 40248 53002;
0171351730999992000012900004+51620+069800FM-12+031299999V0201801N002019999999N0010001N1-00941-01011102521ADDAY171061AY211061GF108991081001999999021999MA1999999098551MD1210091+9999MW1711REMSYN082AAXX  29001 35173 41994 81802 11094 21101 39855 40252 52009 77171 8802/ 555 1/111;
0178351730999992000012903004+51620+069800FM-12+031299999V0201801N002019999999N0200001N1-00991-01071102591ADDAA112000991AJ100239199999999GF108991081001999999021999IA1249MD1210061+9999REMSYN092AAXX  29031 35173 /2998 81802 11099 21107 40259 52006 8802/ 333 48023 555 21134 69992 7999/;
0180351730999992000012906004+51620+069800FM-12+031299999V0209999C000019999999N0040001N1-00891-00961102571ADDAA100001091AY171061AY221061GF108991081001999999021999KA1999N-01341MD1810011+9999MW1711REMSYN082AAXX  29061 35173 11996 80000 11089 21096 40257 58001 69990 77172 8802/ 333 21134;
0140351730999992000012909004+51620+069800FM-12+031299999V0209999C000019999999N0040001N1-00821-00881102501ADDAY171031AY271031GF108991081001999999021999MD1710051+9999MW1711REMSYN066AAXX  29091 35173 41996 80000 11082 21088 40250 57005 77177 8802/;
0171351730999992000012912004+51620+069800FM-12+031299999V0209999C000019999999N0020001N1-00771-00831102401ADDAY171061AY271061GF108991081001999999021999MA1999999098471MD1710081+9999MW1731REMSYN082AAXX  29121 35173 41995 80000 11077 21083 39847 40240 57008 77377 8802/ 555 1/107;
0173351730999992000012915004+51620+069800FM-12+031299999V0200501N002019999999N0010001N1-00831-00831102331ADDAY171031AY271031GF108991081001999999021999KA1120M-00711MD1710081+9999MW1731REMSYN086AAXX  29151 35173 /1994 80502 11083 21083 40233 57008 77377 8802/ 333 11071 555 60062;
0180351730999992000012918004+51620+069800FM-12+031299999V0203601N002019999999N0010001N1-00831-00851102301ADDAA100006191AY171061AY271061GF108991081001999999021999KA1999M-00711MD1710031+9999MW1711REMSYN082AAXX  29181 35173 11994 83602 11083 21085 40230 57003 60060 77177 8802/ 333 11071;
0140351730999992000012921004+51620+069800FM-12+031299999V0203601N002019999999N0200001N1-01011-01071102421ADDAY171031AY221031GF108991081001999999071999MD1310091+9999MW1021REMSYN066AAXX  29211 35173 41998 83602 11101 21107 40242 53009 70272 8807/;
0181351730999992000013000004+51620+069800FM-12+031299999V0203601N002012200019N0200001N1-01731-01791102681ADDAY171061AY211061GA1001+999999999GF100991001001999999001001MA1999999098591MD1210141+9999MW1011REMSYN076AAXX  30001 35173 41998 03602 11173 21179 39859 40268 52014 70171 555 1/119;
0188351730999992000013003004+51620+069800FM-12+031299999V0202901N002012200019N0200001N1-02551-02611102961ADDAA112001091AJ100259199999999GA1001+999999999GF100991001001999999001001IA1249MD1210141+9999REMSYN086AAXX  30031 35173 /2998 02902 11255 21261 40296 52014 333 48025 555 21258 60012 7007/;
0162351730999992000013006004+51620+069800FM-12+031299999V0202701N002012200019N0040001N1-02001-02191103001ADDAA100001091GA1001+999999999GF100991001001999999001001KA1999N-02581MD1210121+9999REMSYN070AAXX  30061 35173 12996 02702 11200 21219 40300 52012 60010 333 21258;
0112351730999992000013009004+51620+069800FM-12+031299999V0202701N002019999999N0200001N1-01611-01951102921ADDGF106991001001999999001081MD1810011+9999REMSYN060AAXX  30091 35173 42998 62702 11161 21195 40292 58001 80008;
0143351730999992000013012004+51620+069800FM-12+031299999V0202301N002019999999N0040001N1-01301-01501102981ADDGF108991081001999999021999MA1999999098931MD1310091+9999REMSYN076AAXX  30121 35173 42996 82302 11130 21150 39893 40298 53009 8802/ 555 1/114;
0195351730999992000013015004+51620+069800FM-12+031299999V0202301N004010069019N0010001N1-01031-01161102921ADDAY171031AY221031GA1081+006909069GF108991081051008001999999KA1120M-00991MD1410001+9999MW1781REMSYN092AAXX  30151 35173 /1594 82304 11103 21116 40292 54000 77872 885// 333 11099 88623 555 69922;
0202351730999992000013018004+51620+069800FM-12+031299999V0202301N004010075019N0200001N1-01041-01321102971ADDAA100000191AY171061AY221061GA1081+007509059GF108991081051008001999999KA1120M-00991MD1310051+9999MW1021REMSYN088AAXX  30181 35173 11598 82304 11104 21132 40297 53005 69920 70272 885// 333 11099 88625;
0138351730999992000013021004+51620+069800FM-12+031299999V0202301N004010033019N0200001N1-00991-01111102971ADDGA1081+003309069GF108991081061999999999999MD1410001+9999REMSYN070AAXX  30211 35173 42998 82304 11099 21111 40297 54000 886// 333 88711;
0197351730999992000013100004+51620+069800FM-12+031299999V0202701N004010027019N0200001N1-00971-01051102971ADDAY171061AY221061GA1081+002709079GF108991081061002501999999MA1999999098991MD1310011+9999MW1201REMSYN092AAXX  31001 35173 41398 82704 11097 21105 39899 40297 53001 72072 886// 333 88709 555 1/111;
0228351730999992000013103004+51620+069800FM-12+031299999V0202701N002010021019N0010001N1-00911-00941103061ADDAA112999929AJ100259199999999AY121031AY221031GA1081+002109079GF108991081061002501999999IA1249MD1210091+9999MW1101REMSYN104AAXX  31031 35173 /1394 82702 11091 21094 40306 52009 71022 886// 333 48025 88707 555 21109 69902 7992/;
0202351730999992000013106004+51620+069800FM-12+031299999V0202501N002010027019N0040001N1-00851-00921103181ADDAA100000791AY171061AY221061GA1081+002709069GF108991081061002501999999KA1120N-01091MD1210131+9999MW1021REMSYN088AAXX  31061 35173 11396 82502 11085 21092 40318 52013 69900 70272 886// 333 21109 88709;
0138351730999992000013109004+51620+069800FM-12+031299999V0202701N004010060019N0040001N1-00601-00711103211ADDGA1081+006009059GF108991081051008001999999MD1210061+9999REMSYN070AAXX  31091 35173 42596 82704 11060 21071 40321 52006 885// 333 88620;
0143351730999992000013112004+51620+069800FM-12+031299999V0202501N002019999999N0040001N1-00621-00741103281ADDGF108991081001999999021999MA1999999099331MD1210061+9999REMSYN076AAXX  31121 35173 42996 82502 11062 21074 39933 40328 52006 8802/ 555 1/107;
0145351730999992000013115004+51620+069800FM-12+031299999V0202701N002019999999N0200001N1-00731-00821103441ADDGF108991081001999999021999KA1120M-00541MD1210141+9999REMSYN080AAXX  31151 35173 /2998 82702 11073 21082 40344 52014 8802/ 333 11054 555 69952;
0202351730999992000013118004+51620+069800FM-12+031299999V0202301N002010030019N0010001N1-00631-00751103421ADDAA100000591AY101061AY221061GA1081+003009069GF108991081061004501999999KA1120M-00541MD1410001+9999MW1101REMSYN088AAXX  31181 35173 11494 82302 11063 21075 40342 54000 69950 71002 886// 333 11054 88710;
0138351730999992000013121004+51620+069800FM-12+031299999V0202301N002010033019N0200001N1-00571-00681103371ADDGA1081+003309069GF108991081061999999999999MD1810041+9999REMSYN070AAXX  31211 35173 42998 82302 11057 21068 40337 58004 886// 333 88711;
0169351730999992000020100004+51620+069800FM-12+031299999V0202301N00201030001CN0200001N1-00541-00641103331ADDGA1081+999999059GF108991081051008001999999MA1999999099391MD1710041+9999REMSYN086AAXX  01001 35173 42598 82302 11054 21064 39939 40333 57004 885// 333 88621 555 1/106;
0206351730999992000020103004+51620+069800FM-12+031299999V0201801N002019999999N0200001N1-00881-00991103391ADDAA112000291AJ100289199999999AY171031AY221031GF108991081001999999021999IA1249MD1410001+9999MW1021REMSYN098AAXX  01031 35173 /1998 81802 11088 21099 40339 54000 70272 8802/ 333 48028 555 21089 69922 7997/;
0174351730999992000020106004+51620+069800FM-12+031299999V0201801N002019999999N0040001N1-00731-00861103301ADDAA100000191AY171061AY221061GF107991999999008001999999KA1999N-00891MD1810061+9999MW1781REMSYN076AAXX  01061 35173 11596 71802 11073 21086 40330 58006 69920 77872 333 21089;
0140351730999992000020109004+51620+069800FM-12+031299999V0201801N002010075019N0040001N1-00611-00801103141ADDAY171031AY271031GF107991071051008001001001MD1710131+9999MW1781REMSYN066AAXX  01091 35173 41596 71802 11061 21080 40314 57013 77877 87500;
0171351730999992000020112004+51620+069800FM-12+031299999V0201401N002019999999N0040001N1-00731-00941103091ADDAY171061AY221061GF108991081001999999071999MA1999999099131MD1710071+9999MW1021REMSYN082AAXX  01121 35173 41996 81402 11073 21094 39913 40309 57007 70272 8807/ 555 1/107;
0145351730999992000020115004+51620+069800FM-12+031299999V0201401N002019999999N0200001N1-00951-01111103021ADDGF108991081001999999071999KA1120M-00541MD1710091+9999REMSYN080AAXX  01151 35173 /2998 81402 11095 21111 40302 57009 8807/ 333 11054 555 69942;
0152351730999992000020118004+51620+069800FM-12+031299999V0201801N004019999999N0200001N1-00931-01051102901ADDAA100000591GF108991081001999999021999KA1999M-00541MD1710121+9999REMSYN076AAXX  01181 35173 12998 81804 11093 21105 40290 57012 69940 8802/ 333 11054;
0112351730999992000020121004+51620+069800FM-12+031299999V0201801N004019999999N0200001N1-01071-01131102781ADDGF108991081001999999021999MD1710131+9999REMSYN060AAXX  01211 35173 42998 81804 11107 21113 40278 57013 8802/;
0153351730999992000020200004+51620+069800FM-12+031299999V0201401N004012200019N0200001N1-01391-01451102651ADDGA1001+999999999GF100991001001999999001001MA1999999098611MD1710181+9999REMSYN070AAXX  02001 35173 42998 01404 11139 21145 39861 40265 57018 555 1/116;
0191351730999992000020203004+51620+069800FM-12+031299999V0201401N002012200019N0040001N1-01481-01541102601ADDAA199000091AJ100299199999999GF102991001001999999001081IA1249MD1710071+9999REMSYN086AAXX  02031 35173 32996 21402 11148 21154 40260 57007 80008 333 48029 555 21151 7994/;EQDQ01  00002PRCP99
0165351730999992000020206004+51620+069800FM-12+031299999V0201401N002012200019N0040001N1-01421-01481102541ADDAA199000091GF103991001001999999001081KA1999N-01511MD1710041+9999REMSYN070AAXX  02061 35173 32996 31402 11142 21148 40254 57004 80008 333 21151;EQDQ01  00002PRCP99
0112351730999992000020209004+51620+069800FM-12+031299999V0201601N002019999999N0040001N1-01451-01721102271ADDGF106991001001999999001081MD1710251+9999REMSYN060AAXX  02091 35173 42996 61602 11145 21172 40227 57025 80008;
0143351730999992000020212004+51620+069800FM-12+031299999V0201401N002019999999N0040001N1-01581-01771102141ADDGF106991001001999999001011MA1999999098091MD1710161+9999REMSYN076AAXX  02121 35173 42996 61402 11158 21177 39809 40214 57016 80001 555 1/116;
0175351730999992000020215004+51620+069800FM-12+031299999V0201601N002012200019N0200001N1-01731-01921102031ADDAA199000091GA1001+999999999GF100991001001999999001001KA1999M-01351MD1710131+9999REMSYN064AAXX  02151 35173 32998 01602 11173 21192 40203 57013 333 11135;EQDQ01  00002PRCP99
0175351730999992000020218004+51620+069800FM-12+031299999V0201401N002012200019N0200001N1-01691-01881101881ADDAA199000091GA1001+999999999GF100991001001999999001001KA1999M-01351MD1710141+9999REMSYN064AAXX  02181 35173 32998 01402 11169 21188 40188 57014 333 11135;EQDQ01  00002PRCP99
0122351730999992000020221004+51620+069800FM-12+031299999V0201601N002012200019N0200001N1-01731-01921101671ADDGA1001+999999999GF100991001001999999001001MD1710201+9999REMSYN054AAXX  02211 35173 42998 01602 11173 21192 40167 57020;
0143351730999992000020300004+51620+069800FM-12+031299999V0201601N004012200019N0200001N1-01571-01761101381ADDGF103991001001999999001041MA1999999097361MD1710261+9999REMSYN076AAXX  03001 35173 42998 31604 11157 21176 39736 40138 57026 80004 555 1/117;
0191351730999992000020303004+51620+069800FM-12+031299999V0201401N004019999999N0040001N1-01151-01281101191ADDAA199000091AJ100299199999999GF108991081001999999021999IA1249MD1710111+9999REMSYN086AAXX  03031 35173 32996 81404 11115 21128 40119 57011 8802/ 333 48029 555 21176 7000/;EQDQ01  00002PRCP99
0193351730999992000020306004+51620+069800FM-12+031299999V0201801N008019999999N0040001N1-00741-00831101061ADDAA199000091AY171061AY231061GF105991021001999999071051KA1999N-01761MD1710071+9999MW1361REMSYN076AAXX  03061 35173 31996 51808 11074 21083 40106 57007 73673 82075 333 21176;EQDQ01  00002PRCP99
0140351730999992000020309004+51620+069800FM-12+031299999V0201801N006019999999N0040001N1-00511-00581101071ADDAY171031AY231031GF108991081001999999021999MD1310041+9999MW1711REMSYN066AAXX  03091 35173 41996 81806 11051 21058 40107 53004 77173 8802/;
0171351730999992000020312004+51620+069800FM-12+031299999V0202301N006019999999N0040001N1-00731-00901101321ADDAY171061AY231061GF106991061001999999071001MA1999999097431MD1210211+9999MW1021REMSYN082AAXX  03121 35173 41996 62306 11073 21090 39743 40132 52021 70273 86070 555 1/108;
0145351730999992000020315004+51620+069800FM-12+031299999V0202301N004019999999N0200001N1-00671-00791101411ADDGF108991081001999999021999KA1120M-00481MD1210101+9999REMSYN080AAXX  03151 35173 /2998 82304 11067 21079 40141 52010 8802/ 333 11048 555 69972;
0152351730999992000020318004+51620+069800FM-12+031299999V0202301N004019999999N0200001N1-00651-00771101541ADDAA100000891GF108991081001999999011999KA1999M-00481MD1210131+9999REMSYN076AAXX  03181 35173 12998 82304 11065 21077 40154 52013 69970 8801/ 333 11048;
0112351730999992000020321004+51620+069800FM-12+031299999V0202301N004019999999N0200001N1-00711-00841101741ADDGF108991081001999999021999MD1210171+9999REMSYN060AAXX  03211 35173 42998 82304 11071 21084 40174 52017 8802/;
0153351730999992000020400004+51620+069800FM-12+031299999V0202001N002012200019N0200001N1-01491-01621102061ADDGA1001+999999999GF100991001001999999001001MA1999999098021MD1210191+9999REMSYN070AAXX  04001 35173 42998 02002 11149 21162 39802 40206 52019 555 1/117;
0186351730999992000020403004+51620+069800FM-12+031299999V0201801N004019999999N0020001N1-01011-01071101971ADDAA112000291AJ100329199999999AY171031AY211031GF108991081001999999021999IA1249MW1731REMSYN092AAXX  04031 35173 /1995 81804 11101 21107 40197 77371 8802/ 333 48032 555 21153 69922 7999/;
0199351730999992000020406004+51620+069800FM-12+031299999V0202301N008010042019N0010001N1-00721-00811101931ADDAA100000191AY171061AY231061GF108991999071004501021999KA1999N-01531MD1410001+9999MW1381REMSYN082AAXX  04061 35173 11494 82308 11072 21081 40193 54000 69920 73873 8872/ 333 21153;EQDQ01+000082SCOTLC
0215351730999992000020506004+51620+069800FM-12+031299999V0202001N006010039019N0040001N1-00181-00321101701ADDAA199000091AY131061AY221061GA1081+003909069GF108991081061004501999999KA1120N-00331MD1210041+9999MW1021REMSYN082AAXX  05061 35173 31496 82006 11018 21032 40170 52004 70232 886// 333 21033 88713;EQDQ01  00002PRCP99
0140351730999992000020509004+51620+069800FM-12+031299999V0202001N004019999999N0020001N1-00081-00201101631ADDAY171031AY221031GF108991081001999999021999MD1810051+9999MW1731REMSYN066AAXX  05091 35173 41995 82004 11008 21020 40163 58005 77372 8802/;
0171351730999992000020512004+51620+069800FM-12+031299999V0202301N006019999999N0040001N1-00061-00181101541ADDAY171061AY271061GF108991081001999999021999MA1999999097741MD1710091+9999MW1711REMSYN082AAXX  05121 35173 41996 82306 11006 21018 39774 40154 57009 77177 8802/ 555 1/100;
0175351730999992000020706004+51620+069800FM-12+031299999V0200501N004012200019N0040001N1-01111-01241102481ADDAA199000091GA1001+999999999GF100991001001999999001001KA1999N-02161MD1710121+9999REMSYN064AAXX  07061 35173 32996 00504 11111 21124 40248 57012 333 21216;EQDQ01  00002PRCP99
0112351730999992000020709004+51620+069800FM-12+031299999V0200501N004012200019N0040001N1-01021-01221102211ADDGF103991031001999999071001MD1710241+9999REMSYN060AAXX  07091 35173 42996 30504 11102 21122 40221 57024 83070;
0171351730999992000020712004+51620+069800FM-12+031299999V0200901N004019999999N0040001N1-00931-01181102011ADDAY171061AY221061GF108991081001999999021999MA1999999098071MD1710181+9999MW1711REMSYN082AAXX  07121 35173 41996 80904 11093 21118 39807 40201 57018 77172 8802/ 555 1/109;
0173351730999992000020715004+51620+069800FM-12+031299999V0200901N004019999999N0010001N1-00951-01161101971ADDAY171031AY271031GF108991081001999999021999KA1120M-00891MD1710051+9999MW1711REMSYN086AAXX  07151 35173 /1994 80904 11095 21116 40197 57005 77177 8802/ 333 11089 555 69962;
0174351730999992000020718004+51620+069800FM-12+031299999V0201101N002019999999N0200001N1-00871-00901101801ADDAA100000591AY171061AY221061GF108991999999999999999999KA1999M-00891MD1710141+9999MW1021REMSYN076AAXX  07181 35173 11998 81102 11087 21090 40180 57014 69960 70272 333 11089;
0140351730999992000020721004+51620+069800FM-12+031299999V0200901N002019999999N0010001N1-00841-00901101771ADDAY171031AY221031GF108991081001999999021999MD1710031+9999MW1711REMSYN066AAXX  07211 35173 41994 80902 11084 21090 40177 57003 77172 8802/;
0171351730999992000020800004+51620+069800FM-12+031299999V0200901N002019999999N0200001N1-01341-01401101821ADDAY171061AY221061GF108991081001999999021999MA1999999097821MD1710031+9999MW1021REMSYN082AAXX  08001 35173 41998 80902 11134 21140 39782 40182 57003 70272 8802/ 555 1/114;
0178351730999992000020803004+51620+069800FM-12+031299999V0209999C000019999999N0040001N1-01381-01441101831ADDAA112000491AJ100339199999999GF108991081001999999011999IA1249MD1410001+9999REMSYN092AAXX  08031 35173 /2996 80000 11138 21144 40183 54000 8801/ 333 48033 555 21140 69942 7001/;
0191351730999992000020806004+51620+069800FM-12+031299999V0201101N999992200019N0029001N1+99999+99999101881ADDAA100000591GF102991999001000751011999KA1999N-01401MD1310061+9999REMSYN064AAXX  08061 35173 11129 21135 40188 53006 69940 8801/ 333 21140;EQDQ01+003503WOSPD Q02+000082SCOTLCQ030003503WOSPD 
0171351730999992000020812004+51620+069800FM-12+031299999V0203201N002019999999N0040001N1-01091-01151101851ADDAY171061AY221061GF108991081001999999071999MA1999999097881MD1310041+9999MW1021REMSYN082AAXX  08121 35173 41996 83202 11109 21115 39788 40185 53004 70272 8807/ 555 1/111;
0155351730999992000020815004+51620+069800FM-12+031299999V0209999C000012200019N0200001N1-01661-01721102021ADDGA1001+999999999GF100991001001999999001001KA1120M-01071MD1210091+9999REMSYN074AAXX  08151 35173 /2998 00000 11166 21172 40202 52009 333 11107 555 69942;
0162351730999992000020818004+51620+069800FM-12+031299999V0209999C000012200019N0200001N1-02201-02261102171ADDAA100000591GA1001+999999999GF100991001001999999001001KA1999M-01071MD1210051+9999REMSYN070AAXX  08181 35173 12998 00000 11220 21226 40217 52005 69940 333 11107;
0122351730999992000020821004+51620+069800FM-12+031299999V0209999C000012200019N0200001N1-02531-02581102281ADDGA1001+999999999GF100991001001999999001001MD1210061+9999REMSYN054AAXX  08211 35173 42998 00000 11253 21258 40228 52006;
0181351730999992000020900004+51620+069800FM-12+031299999V0209999C000012200019N0001001N1-02351-02411102231ADDAY141061AY201061GA1001+999999999GF100991001001999999001001MA1999999098061MD1810021+9999MW1481REMSYN076AAXX  09001 35173 41991 00000 11235 21241 39806 40223 58002 74840 555 1/126;
0229351730999992000020903004+51620+069800FM-12+031299999V0209999C000012200019N0040001N1-02341-02401102341ADDAA199000091AJ100349199999999AY141031AY201031GA1001+999999999GF100991001001999999001001IA1249MD1310111+9999MW1021REMSYN086AAXX  09031 35173 31996 00000 11234 21240 40234 53011 70240 333 48034 555 21256 7994/;EQDQ01  00002PRCP99
0193351730999992000020906004+51620+069800FM-12+031299999V0209999C000012200019N0040001N1-02311-02361102451ADDAA199000091AY141061AY201061GF102991001001999999001041KA1999N-02561MD1210111+9999MW1021REMSYN076AAXX  09061 35173 31996 20000 11231 21236 40245 52011 70240 80004 333 21256;EQDQ01  00002PRCP99
0112351730999992000020909004+51620+069800FM-12+031299999V0202701N002012200019N0040001N1-01831-01891102441ADDGF102991001001999999001041MD1210061+9999REMSYN060AAXX  09091 35173 42996 22702 11183 21189 40244 52006 80004;
0153351730999992000020912004+51620+069800FM-12+031299999V0202701N002012200019N0040001N1-01951-02011102581ADDGA1001+999999999GF100991001001999999001001MA1999999098461MD1210121+9999REMSYN070AAXX  09121 35173 42996 02702 11195 21201 39846 40258 52012 555 1/121;
0175351730999992000020915004+51620+069800FM-12+031299999V0209999C000012200019N0200001N1-02331-02391102861ADDAA199000091GA1001+999999999GF100991001001999999001001KA1999M-01701MD1210211+9999REMSYN064AAXX  09151 35173 32998 00000 11233 21239 40286 52021 333 11170;EQDQ01  00002PRCP99
0175351730999992000020918004+51620+069800FM-12+031299999V0209999C000012200019N0200001N1-02301-02361103111ADDAA199000091GA1001+999999999GF100991001001999999001001KA1999M-01701MD1210231+9999REMSYN064AAXX  09181 35173 32998 00000 11230 21236 40311 52023 333 11170;EQDQ01  00002PRCP99
0150351730999992000020921004+51620+069800FM-12+031299999V0209999C000012200019N0200001N1-02261-02321103201ADDAY141031AY201031GA1001+999999999GF100991001001999999001001MD1210091+9999MW1281REMSYN060AAXX  09211 35173 41998 00000 11226 21232 40320 52009 72840;
0171351730999992000021000004+51620+069800FM-12+031299999V0209999C000019999999N0200001N1-02171-02231103341ADDAY141061AY211061GF108991081001999999071999MA1999999099141MD1210151+9999MW1021REMSYN082AAXX  10001 35173 41998 80000 11217 21223 39914 40334 52015 70241 8807/ 555 1/124;
0191351730999992000021003004+51620+069800FM-12+031299999V0201801N002019999999N0040001N1-02181-02241103451ADDAA199000091AJ100349199999999GF108991081001999999071999IA1249MD1210111+9999REMSYN086AAXX  10031 35173 32996 81802 11218 21224 40345 52011 8807/ 333 48034 555 21234 7000/;EQDQ01  00002PRCP99
0165351730999992000021006004+51620+069800FM-12+031299999V0201801N002019999999N0040001N1-02051-02111103491ADDAA199000091GF108991081001999999071999KA1999N-02341MD1210071+9999REMSYN070AAXX  10061 35173 32996 81802 11205 21211 40349 52007 8807/ 333 21234;EQDQ01  00002PRCP99
0112351730999992000021009004+51620+069800FM-12+031299999V0201801N002012200019N0040001N1-01761-01821103461ADDGF102991001001999999001011MD1410001+9999REMSYN060AAXX  10091 35173 42996 21802 11176 21182 40346 54000 80001;
0143351730999992000021012004+51620+069800FM-12+031299999V0201801N002019999999N0040001N1-01911-01971103491ADDGF105991001001999999001081MA1999999099331MD1310011+9999REMSYN076AAXX  10121 35173 42996 51802 11191 21197 39933 40349 53001 80008 555 1/117;
0175351730999992000021015004+51620+069800FM-12+031299999V0201601N002012200019N0200001N1-02081-02141103571ADDAA199000091GA1001+999999999GF100991001001999999001001KA1999M-01521MD1210051+9999REMSYN064AAXX  10151 35173 32998 01602 11208 21214 40357 52005 333 11152;EQDQ01  00002PRCP99
0175351730999992000021018004+51620+069800FM-12+031299999V0201401N002012200019N0200001N1-02031-02091103491ADDAA199000091GA1001+999999999GF100991001001999999001001KA1999M-01521MD1810061+9999REMSYN064AAXX  10181 35173 32998 01402 11203 21209 40349 58006 333 11152;EQDQ01  00002PRCP99
0122351730999992000021021004+51620+069800FM-12+031299999V0201601N002012200019N0200001N1-01951-02011103391ADDGA1001+999999999GF100991001001999999001001MD1710081+9999REMSYN054AAXX  10211 35173 42998 01602 11195 21201 40339 57008;
0171351730999992000021100004+51620+069800FM-12+031299999V0201601N004019999999N0010001N1-01651-01711103181ADDAY171061AY211061GF108991081001999999021999MA1999999099091MD1710151+9999MW1711REMSYN082AAXX  11001 35173 41994 81604 11165 21171 39909 40318 57015 77171 8802/ 555 1/119;
0206351730999992000021103004+51620+069800FM-12+031299999V0201601N006019999999N0040001N1-01471-01531103111ADDAA112000691AJ100359199999999AY171031AY271031GF108991081001999999021999IA1249MD1710061+9999MW1711REMSYN098AAXX  11031 35173 /1996 81606 11147 21153 40311 57006 77177 8802/ 333 48035 555 21211 69962 7996/;
0180351730999992000021106004+51620+069800FM-12+031299999V0201801N008019999999N0040001N1-00981-01101102951ADDAA100000591AY171061AY231061GF108991081001999999021999KA1999N-02111MD1710071+9999MW1361REMSYN082AAXX  11061 35173 11996 81808 11098 21110 40295 57007 69960 73673 8802/ 333 21211;
0140351730999992000021109004+51620+069800FM-12+031299999V0201801N010019999999N0010001N1-00741-00831102811ADDAY171031AY231031GF108991081001999999021999MD1710101+9999MW1381REMSYN066AAXX  11091 35173 41994 81810 11074 21083 40281 57010 73873 8802/;
0171351730999992000021112004+51620+069800FM-12+031299999V0201801N006019999999N0020001N1-00551-00621102751ADDAY171061AY231061GF108991081001999999021999MA1999999098831MD1710031+9999MW1731REMSYN082AAXX  11121 35173 41995 81806 11055 21062 39883 40275 57003 77373 8802/ 555 1/105;
0173351730999992000021115004+51620+069800FM-12+031299999V0201801N006019999999N0010001N1-00521-00551102711ADDAY171031AY271031GF108991081001999999021999KA1120M-00491MD1710041+9999MW1731REMSYN086AAXX  11151 35173 /1994 81806 11052 21055 40271 57004 77377 8802/ 333 11049 555 60042;
0180351730999992000021118004+51620+069800FM-12+031299999V0201801N008019999999N0010001N1-00541-00541102591ADDAA100004191AY171061AY231061GF108991081001999999021999KA1999M-00491MD1710111+9999MW1711REMSYN082AAXX  11181 35173 11994 81808 11054 21054 40259 57011 60040 77173 8802/ 333 11049;
0140351730999992000021121004+51620+069800FM-12+031299999V0201801N008019999999N0010001N1-00571-00571102431ADDAY171031AY231031GF108991081001999999021999MD1710161+9999MW1711REMSYN066AAXX  11211 35173 41994 81808 11057 21057 40243 57016 77173 8802/;
0171351730999992000021200004+51620+069800FM-12+031299999V0201801N006019999999N0200001N1-00531-00561102251ADDAY171061AY221061GF108991081001999999011999MA1999999098351MD1710071+9999MW1021REMSYN082AAXX  12001 35173 41998 81806 11053 21056 39835 40225 57007 70272 8801/ 555 1/106;
0178351730999992000021203004+51620+069800FM-12+031299999V0202001N004019999999N0040001N1-00391-00411102091ADDAA112001091AJ100379199999999GF108991081001999999021999IA1249MD1710121+9999REMSYN092AAXX  12031 35173 /2996 82004 11039 21041 40209 57012 8802/ 333 48037 555 21058 60010 7005/;
0180351730999992000021206004+51620+069800FM-12+031299999V0201801N002019999999N0040001N1-00031-00091102001ADDAA100001091AY171061AY221061GF108991081001999999021999KA1999N-00581MD1710041+9999MW1221REMSYN082AAXX  12061 35173 11996 81802 11003 21009 40200 57004 60010 72272 8802/ 333 21058;
0138351730999992000021209004+51620+069800FM-12+031299999V0202701N004010087019N0040001N1+00031-00111101961ADDGA1081+008709059GF108991081051008001999999MD1710031+9999REMSYN070AAXX  12091 35173 42596 82704 10003 21011 40196 57003 885// 333 88629;
0197351730999992000021300004+51620+069800FM-12+031299999V0202301N004010063019N0200001N1-00081-00111101811ADDAY171061AY221061GA1081+006309069GF108991081051008001999999MA1999999098001MD1710041+9999MW1021REMSYN092AAXX  13001 35173 41598 82304 11008 21011 39800 40181 57004 70272 885// 333 88621 555 1/102;
0178351730999992000021303004+51620+069800FM-12+031299999V0202301N004019999999N0040001N1-00181-00231101861ADDAA112001091AJ100419199999999GF108991081001999999071999IA1249MD1310031+9999REMSYN092AAXX  13031 35173 /2996 82304 11018 21023 40186 53003 8807/ 333 48041 555 21019 60012 7003/;
0199351730999992000021306004+51620+069800FM-12+031299999V0202501N006019999999N0040001N1-00331-00401101921ADDAA100001091AY171061AY221061GF108991081001999999021999KA1999N+99999MD1210041+9999MW1021REMSYN082AAXX  13061 35173 11996 82506 11033 21040 40192 52004 60010 70272 8802/ 333 21019;EQDQ01 -00192ATMN  
0171351730999992000021312004+51620+069800FM-12+031299999V0202501N004019999999N0040001N1-00311-00351102051ADDAY171061AY221061GF107991071001999999051001MA1999999098191MD1210071+9999MW1021REMSYN082AAXX  13121 35173 41996 72504 11031 21035 39819 40205 52007 70272 87050 555 1/104;
0167351730999992000021315004+51620+069800FM-12+031299999V0202001N004010066019N0200001N1-00331-00371102071ADDGA1081+006609069GF108991081051008001999999KA1120M-00141MD1210021+9999REMSYN086AAXX  13151 35173 /2598 82004 11033 21037 40207 52002 885// 333 11014 88622 555 69902;
0174351730999992000021318004+51620+069800FM-12+031299999V0202301N004010060019N0200001N1-00371-00451102091ADDAA100000191GA1081+006009059GF108991081051008001999999KA1120M-00141MD1210021+9999REMSYN082AAXX  13181 35173 12598 82304 11037 21045 40209 52002 69920 885// 333 11014 88620;
0138351730999992000021321004+51620+069800FM-12+031299999V0202301N004010039019N0200001N1-00431-00491102121ADDGA1081+003909069GF108991081061004501999999MD1210021+9999REMSYN070AAXX  13211 35173 42498 82304 11043 21049 40212 52002 886// 333 88713;
0169351730999992000021400004+51620+069800FM-12+031299999V0209999C000010033019N0200001N1-00571-00641102091ADDGA1081+003309079GF108991081061004501999999MA1999999098201MD1810051+9999REMSYN086AAXX  14001 35173 42498 80000 11057 21064 39820 40209 58005 886// 333 88711 555 1/107;
0213351730999992000021403004+51620+069800FM-12+031299999V0201801N002010066019N0040001N1-00621-00741102031ADDAA199000091AJ100419199999999GA1081+006609069GF108991081051008001999999IA1249MD1710071+9999REMSYN092AAXX  14031 35173 32596 81802 11062 21074 40203 57007 885// 333 48041 88622 555 21065 7992/;EQDQ01  00002PRCP99
0174351730999992000021406004+51620+069800FM-12+031299999V0202001N002019999999N0040001N1-00381-00461101941ADDAA199000021AY171061AY221061GF108991081001999999021999KA1999N-00651MD1710041+9999MW1711REMSYN076AAXX  14061 35173 31996 82002 11038 21046 40194 57004 77172 8802/ 333 21065;
0166351730999992000021409004+51620+069800FM-12+031299999V0202301N002010069019N0040001N1-00301-00471101831ADDAY171031AY221031GA1081+006909059GF108991081051008001999999MD1710111+9999MW1021REMSYN076AAXX  14091 35173 41596 82302 11030 21047 40183 57011 70272 885// 333 88623;
0197351730999992000021412004+51620+069800FM-12+031299999V0202301N002010087019N0040001N1-00331-00541101771ADDAY171061AY221061GA1061+008709089GF106991061081008001001001MA1999999097921MD1710061+9999MW1021REMSYN092AAXX  14121 35173 41596 62302 11033 21054 39792 40177 57006 70272 86800 333 86829 555 1/105;
0155351730999992000021415004+51620+069800FM-12+031299999V0201601N002012200019N0200001N1-00871-00901101751ADDGA1001+999999999GF100991001001999999001001KA1120M-00151MD1710091+9999REMSYN074AAXX  14151 35173 /2998 01602 11087 21090 40175 57009 333 11015 555 69920;
0152351730999992000021418004+51620+069800FM-12+031299999V0201601N002019999999N0200001N1-00671-00721101651ADDAA100000191GF108991081001999999011999KA1999M-00151MD1710071+9999REMSYN076AAXX  14181 35173 12998 81602 11067 21072 40165 57007 69920 8801/ 333 11015;
0112351730999992000021421004+51620+069800FM-12+031299999V0201801N002019999999N0200001N1-00721-00771101451ADDGF108991081001999999021999MD1710211+9999REMSYN060AAXX  14211 35173 42998 81802 11072 21077 40145 57021 8802/;
0171351730999992000021500004+51620+069800FM-12+031299999V0201401N002019999999N0200001N1-00741-00801101431ADDAY171061AY221061GF108991081001999999011999MA1999999097531MD1710021+9999MW1021REMSYN082AAXX  15001 35173 41998 81402 11074 21080 39753 40143 57002 70272 8801/ 555 1/108;
0206351730999992000021503004+51620+069800FM-12+031299999V0209999C000019999999N0040001N1-00781-00841101411ADDAA112003091AJ100409199999999AY171031AY221031GF108991081001999999021999IA1249MD1710031+9999MW1711REMSYN098AAXX  15031 35173 /1996 80000 11078 21084 40141 57003 77172 8802/ 333 48040 555 21080 60032 7003/;
0180351730999992000021506004+51620+069800FM-12+031299999V0203401N002019999999N0040001N1-00771-00911101551ADDAA100003091AY171061AY221061GF105991001001999999001061KA1999N-00871MD1310151+9999MW1021REMSYN082AAXX  15061 35173 11996 53402 11077 21091 40155 53015 60030 70272 80006 333 21087;
0112351730999992000021509004+51620+069800FM-12+031299999V0203401N004012200019N0040001N1-00831-00971101671ADDGF102991021071004501001001MD1210081+9999REMSYN060AAXX  15091 35173 42496 23404 11083 21097 40167 52008 82700;
0169351730999992000021512004+51620+069800FM-12+031299999V0202701N004010039019N0040001N1-00951-01071101851ADDGA1061+003909079GF106991061071004501001001MA1999999097911MD1210181+9999REMSYN086AAXX  15121 35173 42496 62704 11095 21107 39791 40185 52018 86700 333 86713 555 1/108;
0167351730999992000021515004+51620+069800FM-12+031299999V0202701N004010039019N0200001N1-01011-01071102081ADDGA1081+003909069GF108991081061004501999999KA1120M-00701MD1210211+9999REMSYN086AAXX  15151 35173 /2498 82704 11101 21107 40208 52021 886// 333 11070 88613 555 69902;
0180351730999992000021518004+51620+069800FM-12+031299999V0202701N004010075019N0010001N1-01311-01371102281ADDAA100000791AY171061AY221061GF107991071051008001001001KA1999M-00701MD1210151+9999MW1781REMSYN082AAXX  15181 35173 11594 72704 11131 21137 40228 52015 69900 77872 87500 333 11070;
0113351730999992000021521004+51620+069800FM-12+031299999V0202701N006019999999N0200001N1-01231-01291999999ADDGF108991999999008001999999REMSYN075AAXX  15211 35173 41598 82706 11123 21129 0247 52020 70272 885// 333 88624;
0181351730999992000021600004+51620+069800FM-12+031299999V0202501N002012200019N0200001N1-01731-01851102851ADDAY171061AY211061GA1001+999999999GF100991001001999999001001MA1999999098751MD1210281+9999MW1021REMSYN076AAXX  16001 35173 41998 02502 11173 21185 39875 40285 52028 70271 555 1/119;
0188351730999992000021603004+51620+069800FM-12+031299999V0209999C000012200019N0040001N1-01911-02101103111ADDAA112999929AJ100409199999999GA1001+999999999GF100991001001999999001001IA1249MD1210221+9999REMSYN086AAXX  16031 35173 /2996 00000 11191 21210 40311 52022 333 48040 555 21196 69902 7990/;
0152351730999992000021606004+51620+069800FM-12+031299999V0202301N002019999999N0040001N1-01381-01511103261ADDAA100000791GF106991001001999999001071KA1999N-01961MD1210221+9999REMSYN076AAXX  16061 35173 12996 62302 11138 21151 40326 52022 69900 80007 333 21196;
0112351730999992000021609004+51620+069800FM-12+031299999V0202301N002012200019N0040001N1-01131-01331103261ADDGF102991001001999999001081MD1210051+9999REMSYN060AAXX  16091 35173 42996 22302 11113 21133 40326 52005 80008;
0143351730999992000021612004+51620+069800FM-12+031299999V0202001N002019999999N0040001N1-01171-01371103411ADDGF106991061001999999071001MA1999999099371MD1210131+9999REMSYN076AAXX  16121 35173 42996 62002 11117 21137 39937 40341 52013 86070 555 1/113;
0165351730999992000021615004+51620+069800FM-12+031299999V0202001N002019999999N0200001N1-01211-01341103411ADDAA199000091GF108991081001999999071999KA1999M-01061MD1410001+9999REMSYN070AAXX  16151 35173 32998 82002 11121 21134 40341 54000 8807/ 333 11106;EQDQ01  00002PRCP99
0165351730999992000021618004+51620+069800FM-12+031299999V0201801N002019999999N0200001N1-01171-01301103391ADDAA199000091GF108991081001999999021999KA1999M-01061MD1810021+9999REMSYN070AAXX  16181 35173 32998 81802 11117 21130 40339 58002 8802/ 333 11106;EQDQ01  00002PRCP99
0112351730999992000021621004+51620+069800FM-12+031299999V0201801N002019999999N0200001N1-01111-01241103361ADDGF108991081001999999021999MD1710021+9999REMSYN060AAXX  16211 35173 42998 81802 11111 21124 40336 57002 8802/;
0171351730999992000021700004+51620+069800FM-12+031299999V0201801N002019999999N0200001N1-01181-01311103361ADDAY171061AY221061GF108991081001999999021999MA1999999099321MD1710011+9999MW1021REMSYN082AAXX  17001 35173 41998 81802 11118 21131 39932 40336 57001 70272 8802/ 555 1/112;
0178351730999992000021703004+51620+069800FM-12+031299999V0201801N002019999999N0040001N1-01071-01201103361ADDAA112000391AJ100409199999999GF108991081001999999071999IA1249MD1310011+9999REMSYN092AAXX  17031 35173 /2996 81802 11107 21120 40336 53001 8807/ 333 48040 555 21122 69932 7993/;
0180351730999992000021706004+51620+069800FM-12+031299999V0202701N002019999999N0040001N1-00921-00991103381ADDAA100000391AY171061AY221061GF108991081001999999021999KA1999N-01221MD1210051+9999MW1021REMSYN082AAXX  17061 35173 11996 82702 11092 21099 40338 52005 69930 70272 8802/ 333 21122;
0112351730999992000021709004+51620+069800FM-12+031299999V0201801N002019999999N0040001N1-00861-01011103311ADDGF108991081001999999011999MD1810051+9999REMSYN060AAXX  17091 35173 42996 81802 11086 21101 40331 58005 8801/;
0143351730999992000021712004+51620+069800FM-12+031299999V0202301N002019999999N0040001N1-00871-01061103221ADDGF108991081001999999011999MA1999999099251MD1710081+9999REMSYN076AAXX  17121 35173 42996 82302 11087 21106 39925 40322 57008 8801/ 555 1/108;
0145351730999992000021715004+51620+069800FM-12+031299999V0202301N002019999999N0200001N1-01021-01221103251ADDGF108991081001999999021999KA1120M-00731MD1410001+9999REMSYN080AAXX  17151 35173 /2998 82302 11102 21122 40325 54000 8802/ 333 11073 555 69902;
0190351730999992000021718004+51620+069800FM-12+031299999V0202301N002010001519N0001001N1-01131-01261103221ADDAA100000791AY141061AY221061GA1091+999999999GF109991091999999999999999KA1999M-00731MD1810051+9999MW1491REMSYN076AAXX  17181 35173 11/91 92302 11113 21126 40322 58005 69900 74942 333 11073;
0150351730999992000021721004+51620+069800FM-12+031299999V0209999C000010001519N0001001N1-01171-01231103191ADDAY141031AY241031GA1091+999999999GF109991091999999999999999MD1710041+9999MW1491REMSYN060AAXX  17211 35173 41/91 90000 11117 21123 40319 57004 74944;
0181351730999992000021800004+51620+069800FM-12+031299999V0202301N002010001519N0001001N1-01191-01251103111ADDAY141061AY241061GA1091+999999999GF109991091999999999999999MA1999999099081MD1710081+9999MW1491REMSYN076AAXX  18001 35173 41/91 92302 11119 21125 39908 40311 57008 74944 555 1/114;
0229351730999992000021803004+51620+069800FM-12+031299999V0209999C000010003019N0002001N1-01231-01291103091ADDAA199000091AJ100409199999999AY141031AY241031GA1091+999999999GF109991091999999999999999IA1249MD1710021+9999MW1491REMSYN086AAXX  18031 35173 31/92 90000 11123 21129 40309 57002 74944 333 48040 555 21124 7990/;EQDQ01  00002PRCP99
0215351730999992000021806004+51620+069800FM-12+031299999V0209999C000010075019N0040001N1-01191-01251103081ADDAA199000091AY141061AY221061GA1071+007509059GF107991071051008001001001KA1120N-01241MD1710011+9999MW1021REMSYN082AAXX  18061 35173 31596 70000 11119 21125 40308 57001 70242 87500 333 21124 87625;EQDQ01  00002PRCP99
0138351730999992000021809004+51620+069800FM-12+031299999V0201801N002010075019N0040001N1-01031-01091102971ADDGA1081+007509059GF108991081051008001999999MD1710071+9999REMSYN070AAXX  18091 35173 42596 81802 11103 21109 40297 57007 885// 333 88625;
0169351730999992000021812004+51620+069800FM-12+031299999V0202301N002010036019N0040001N1-00871-00941102931ADDGA1061+003609079GF108991061071004501011999MA1999999098971MD1710011+9999REMSYN086AAXX  18121 35173 42496 82302 11087 21094 39897 40293 57001 8671/ 333 86712 555 1/106;
0173351730999992000021815004+51620+069800FM-12+031299999V0202001N002010042019N0010001N1-00931-01051103091ADDAY171031AY221031GF108991081061004501999999KA1120M-00791MD1310131+9999MW1771REMSYN086AAXX  18151 35173 /1494 82002 11093 21105 40309 53013 77772 886// 333 11079 555 69922;
0180351730999992000021818004+51620+069800FM-12+031299999V0209999C000019999999N0200001N1-01071-01201103141ADDAA100000191AY171061AY221061GF108991081001999999011999KA1999M-00791MD1210021+9999MW1021REMSYN082AAXX  18181 35173 11998 80000 11107 21120 40314 52002 69920 70272 8801/ 333 11079;
0166351730999992000021821004+51620+069800FM-12+031299999V0209999C000010081019N0200001N1-01141-01271103181ADDAY171031AY221031GA1071+008109059GF107991071051008001001001MD1210041+9999MW1021REMSYN076AAXX  18211 35173 41598 70000 11114 21127 40318 52004 70272 87500 333 87627;
0197351730999992000021900004+51620+069800FM-12+031299999V0209999C000010075019N0200001N1-01301-01361103251ADDAY171061AY241061GA1071+007509069GF107991071051008001001001MA1999999099201MD1210041+9999MW1281REMSYN092AAXX  19001 35173 41598 70000 11130 21136 39920 40325 52004 72874 87500 333 87625 555 1/114;
0206351730999992000021903004+51620+069800FM-12+031299999V0209999C000010075019N0040001N1-01441-01571103391ADDAA112000591AJ100409199999999AY171031AY221031GF108991081051008001999999IA1249MD1210121+9999MW1781REMSYN098AAXX  19031 35173 /1596 80000 11144 21157 40339 52012 77872 885// 333 48040 555 21151 69952 7997/;
0190351730999992000021906004+51620+069800FM-12+031299999V0203201N002012200019N0040001N1-00931-01091103461ADDAA100000591AY171061AY221061GA1001+999999999GF100991001001999999001001KA1999N-01511MD1210141+9999MW1021REMSYN076AAXX  19061 35173 11996 03202 11093 21109 40346 52014 69950 70272 333 21151;
0112351730999992000021909004+51620+069800FM-12+031299999V0203201N004019999999N0040001N1-00801-01021103511ADDGF105991001001999999001081MD1210061+9999REMSYN060AAXX  19091 35173 42996 53204 11080 21102 40351 52006 80008;
0143351730999992000021912004+51620+069800FM-12+031299999V0203201N002012200019N0040001N1-01051-01251103631ADDGF103991001001999999001081MA1999999099611MD1210091+9999REMSYN076AAXX  19121 35173 42996 33202 11105 21125 39961 40363 52009 80008 555 1/113;
0155351730999992000021915004+51620+069800FM-12+031299999V0203201N002012200019N0200001N1-01571-01701103861ADDGA1001+999999999GF100991001001999999001001KA1120M-00741MD1210131+9999REMSYN074AAXX  19151 35173 /2998 03202 11157 21170 40386 52013 333 11074 555 69922;
0180351730999992000021918004+51620+069800FM-12+031299999V0209999C000019999999N0010001N1-02341-02521104091ADDAA100000191AY101061AY211061GF108991001001999999001071KA1999M-00741MD1210111+9999MW1101REMSYN082AAXX  19181 35173 11994 80000 11234 21252 40409 52011 69920 71001 80007 333 11074;
0140351730999992000021921004+51620+069800FM-12+031299999V0209999C000019999999N0010001N1-02421-02601104251ADDAY101031AY221031GF108991001001999999001071MD1210131+9999MW1101REMSYN066AAXX  19211 35173 41994 80000 11242 21260 40425 52013 71002 80007;
0171351730999992000022000004+51620+069800FM-12+031299999V0203601N002019999999N0010001N1-01881-02001104061ADDAY171061AY221061GF108991081001999999021999MA1999999099891MD1810091+9999MW1711REMSYN082AAXX  20001 35173 41994 83602 11188 21200 39989 40406 58009 77172 8802/ 555 1/121;
0206351730999992000022003004+51620+069800FM-12+031299999V0203601N002019999999N0040001N1-01601-01731104151ADDAA112000391AJ100409199999999AY171031AY271031GF108991081001999999021999IA1249MD1310131+9999MW1711REMSYN098AAXX  20031 35173 /1996 83602 11160 21173 40415 53013 77177 8802/ 333 48040 555 21247 69932 7995/;
0180351730999992000022006004+51620+069800FM-12+031299999V0202701N002019999999N0040001N1-01481-01681104211ADDAA100000391AY171061AY221061GF108991081001999999071999KA1999N-02471MD1210071+9999MW1021REMSYN082AAXX  20061 35173 11996 82702 11148 21168 40421 52007 69930 70272 8807/ 333 21247;
0112351730999992000022009004+51620+069800FM-12+031299999V0202301N002019999999N0040001N1-01261-01461104131ADDGF106991031001999999071051MD1810031+9999REMSYN060AAXX  20091 35173 42996 62302 11126 21146 40413 58003 83075;
0143351730999992000022012004+51620+069800FM-12+031299999V0202301N002019999999N0040001N1-01301-01501104141ADDGF108991081001999999071999MA1999999100051MD1710011+9999REMSYN076AAXX  20121 35173 42996 82302 11130 21150 30005 40414 57001 8807/ 555 1/113;
0145351730999992000022015004+51620+069800FM-12+031299999V0202701N002019999999N0200001N1-01271-01401104171ADDGF105991051001999999051001KA1120M-01201MD1310031+9999REMSYN080AAXX  20151 35173 /1998 52702 11127 21140 40417 53003 85050 333 11120 555 69922;
0162351730999992000022018004+51620+069800FM-12+031299999V0202301N002012200019N0200001N1-01751-01871104241ADDAA100000191GA1001+999999999GF100991001001999999001001KA1999M-01201MD1210011+9999REMSYN070AAXX  20181 35173 12998 02302 11175 21187 40424 52001 69920 333 11120;
0153351730999992000022100004+51620+069800FM-12+031299999V0209999C000012200019N0200001N1-02161-02341104371ADDGA1001+999999999GF100991001001999999001001MA1999999100131MD1210031+9999REMSYN070AAXX  21001 35173 42998 00000 11216 21234 30013 40437 52003 555 1/125;
0191351730999992000022103004+51620+069800FM-12+031299999V0209999C000019999999N0040001N1-01991-02181104391ADDAA199000091AJ100409199999999GF105991051001999999071001IA1249MD1210051+9999REMSYN086AAXX  21031 35173 32996 50000 11199 21218 40439 52005 85070 333 48040 555 21221 7992/;EQDQ01  00002PRCP99
0175351730999992000022106004+51620+069800FM-12+031299999V0202001N002012200019N0040001N1-01751-01941104001ADDAA199000091GA1001+999999999GF100991001001999999001001KA1999N-02211MD1210061+9999REMSYN064AAXX  21061 35173 32996 02002 11175 21194 40400 52006 333 21221;EQDQ01  00002PRCP99
0141351730999992000022109004+51620+069800FM-12+031299999V0202501N002012200019N0040001N1-01471-01671999999ADDGA1001+999999999GF100991001001999999001001MD1410001+9999REMSYN054AAXX  21091 35173 42996 02502 11147 21167 40337 54000;EQDQ01+103373APOSLP
0137351730999992000022112004+51620+069800FM-12+031299999V0202501N002012200019N0040001N1-01311-01581999999ADDGF102991001001999999001091MA1999999100351MD1310111+9999REMSYN070AAXX  21121 35173 42996 22502 11131 21158 30035 53011 80009 555 1/112;
0175351730999992000022115004+51620+069800FM-12+031299999V0209999C000012200019N0200001N1-01811-01931104561ADDAA199000091GA1001+999999999GF100991001001999999001001KA1999M-01251MD1210031+9999REMSYN064AAXX  21151 35173 32998 00000 11181 21193 40456 52003 333 11125;EQDQ01  00002PRCP99
0165351730999992000022118004+51620+069800FM-12+031299999V0209999C000019999999N0200001N1-01771-01961104581ADDAA199000091GF108991001001999999001071KA1999M-01251MD1210021+9999REMSYN070AAXX  21181 35173 32998 80000 11177 21196 40458 52002 80007 333 11125;EQDQ01  00002PRCP99
0122351730999992000022121004+51620+069800FM-12+031299999V0201801N002012200019N0200001N1-02021-02211104631ADDGA1001+999999999GF100991001001999999001001MD1210021+9999REMSYN054AAXX  21211 35173 42998 01802 11202 21221 40463 52002;
0137351730999992000022200004+51620+069800FM-12+031299999V0201801N002019999999N0200001N1-01981-02171104591ADDGF108991999999999999999999MA1999999100381MD1810041+9999REMSYN070AAXX  22001 35173 42998 81802 11198 21217 30038 40459 58004 555 1/122;
0201351730999992000022203004+51620+069800FM-12+031299999V0201801N002012200019N0040001N1-01971-02161104651ADDAA199000091AJ100409199999999GA1001+999999999GF100991001001999999001001IA1249MD1710061+9999REMSYN080AAXX  22031 35173 32996 01802 11197 21216 40465 57006 333 48040 555 21205 7000/;EQDQ01  00002PRCP99
0174351730999992000022206004+51620+069800FM-12+031299999V0202001N002012200019N0040001N1-01641-01831104611ADDAA199000021AY101061AY201061GF102991001001999999001011KA1999N-02051MD1310021+9999MW1761REMSYN076AAXX  22061 35173 31996 22002 11164 21183 40461 53002 77600 80001 333 21205;
0122351730999992000022209004+51620+069800FM-12+031299999V0201601N004012200019N0040001N1-01371-01641104501ADDGA1001+999999999GF100991001001999999001001MD1810071+9999REMSYN054AAXX  22091 35173 42996 01604 11137 21164 40450 58007;
0153351730999992000022212004+51620+069800FM-12+031299999V0201601N002012200019N0040001N1-01331-01681104481ADDGA1001+999999999GF100991001001999999001001MA1999999100381MD1710011+9999REMSYN070AAXX  22121 35173 42996 01602 11133 21168 30038 40448 57001 555 1/114;
0156351730999992000022215004+51620+069800FM-12+031299999V0209999C000012200019N0200001N1-01691-01881104521ADDAA199000021GA1001+999999999GF100991001001999999001001KA1999M-01201MD1710031+9999REMSYN064AAXX  22151 35173 32998 00000 11169 21188 40452 57003 333 11120;
0156351730999992000022218004+51620+069800FM-12+031299999V0201401N002012200019N0200001N1-01641-01831104371ADDAA199000021GA1001+999999999GF100991001001999999001001KA1999M-01201MD1710121+9999REMSYN064AAXX  22181 35173 32998 01402 11164 21183 40437 57012 333 11120;
0122351730999992000022221004+51620+069800FM-12+031299999V0201401N002012200019N0200001N1-01801-01901104371ADDGA1001+999999999GF100991001001999999001001MD1710031+9999REMSYN054AAXX  22211 35173 42998 01402 11180 21190 40437 57003;
0153351730999992000022300004+51620+069800FM-12+031299999V0201401N002012200019N0200001N1-01691-02031104221ADDGA1001+999999999GF100991001001999999001001MA1999999100071MD1710131+9999REMSYN070AAXX  23001 35173 42998 01402 11169 21203 30007 40422 57013 555 1/119;
0191351730999992000022303004+51620+069800FM-12+031299999V0201401N002012200019N0040001N1-01891-02151104231ADDAA199000091AJ100409199999999GF102991001001999999001021IA1249MD1710021+9999REMSYN086AAXX  23031 35173 32996 21402 11189 21215 40423 57002 80002 333 48040 555 21197 7000/;EQDQ01  00002PRCP99
0175351730999992000022306004+51620+069800FM-12+031299999V0201401N004012200019N0040001N1-01461-01891104191ADDAA199000091GA1001+999999999GF100991001001999999001001KA1999N-01971MD1310021+9999REMSYN064AAXX  23061 35173 32996 01404 11146 21189 40419 53002 333 21197;EQDQ01  00002PRCP99
0153351730999992000022312004+51620+069800FM-12+031299999V0201401N004012200019N0040001N1-01231-01661104071ADDGA1001+999999999GF100991001001999999001001MA1999999100001MD1710051+9999REMSYN070AAXX  23121 35173 42996 01404 11123 21166 30000 40407 57005 555 1/113;
0175351730999992000022318004+51620+069800FM-12+031299999V0201601N002012200019N0200001N1-01571-01991104011ADDAA199000091GA1001+999999999GF100991001001999999001001KA1999M-01001MD1710091+9999REMSYN064AAXX  23181 35173 32998 01602 11157 21199 40401 57009 333 11100;EQDQ01  00002PRCP99
0122351730999992000022321004+51620+069800FM-12+031299999V0201401N002012200019N0200001N1-01551-01891103911ADDGA1001+999999999GF100991001001999999001001MD1710091+9999REMSYN054AAXX  23211 35173 42998 01402 11155 21189 40391 57009;
0153351730999992000022400004+51620+069800FM-12+031299999V0201401N002012200019N0200001N1-01431-01781103801ADDGA1001+999999999GF100991001001999999001001MA1999999099711MD1710091+9999REMSYN070AAXX  24001 35173 42998 01402 11143 21178 39971 40380 57009 555 1/117;
0201351730999992000022403004+51620+069800FM-12+031299999V0201401N002012200019N0040001N1-01531-01801103741ADDAA199000091AJ100409199999999GA1001+999999999GF100991001001999999001001IA1249MD1710071+9999REMSYN080AAXX  24031 35173 32996 01402 11153 21180 40374 57007 333 48040 555 21160 7000/;EQDQ01  00002PRCP99
0175351730999992000022406004+51620+069800FM-12+031299999V0201601N004012200019N0040001N1-01161-01511103651ADDAA199000091GA1001+999999999GF100991001001999999001001KA1999N-01601MD1710031+9999REMSYN064AAXX  24061 35173 32996 01604 11116 21151 40365 57003 333 21160;EQDQ01  00002PRCP99
0112351730999992000022409004+51620+069800FM-12+031299999V0201801N004019999999N0040001N1-00901-01241103521ADDGF105991001001999999001071MD1710101+9999REMSYN060AAXX  24091 35173 42996 51804 11090 21124 40352 57010 80007;
0143351730999992000022412004+51620+069800FM-12+031299999V0201801N006019999999N0040001N1-00911-01301103421ADDGF108991001001999999001071MA1999999099421MD1710091+9999REMSYN076AAXX  24121 35173 42996 81806 11091 21130 39942 40342 57009 80007 555 1/110;
0175351730999992000022415004+51620+069800FM-12+031299999V0201601N006012200019N0200001N1-01141-01421103351ADDAA199000091GA1001+999999999GF100991001001999999001001KA1999M-00741MD1710101+9999REMSYN064AAXX  24151 35173 32998 01606 11114 21142 40335 57010 333 11074;EQDQ01  00002PRCP99
0175351730999992000022418004+51620+069800FM-12+031299999V0201801N006012200019N0200001N1-01161-01511103161ADDAA199000091GA1001+999999999GF100991001001999999001001KA1999M-00741MD1710181+9999REMSYN064AAXX  24181 35173 32998 01806 11116 21151 40316 57018 333 11074;EQDQ01  00002PRCP99
0122351730999992000022421004+51620+069800FM-12+031299999V0201801N004012200019N0200001N1-01431-01781103071ADDGA1001+999999999GF100991001001999999001001MD1710131+9999REMSYN054AAXX  24211 35173 42998 01804 11143 21178 40307 57013;
0153351730999992000022500004+51620+069800FM-12+031299999V0201801N002012200019N0200001N1-01451-01721102891ADDGA1001+999999999GF100991001001999999001001MA1999999098841MD1710171+9999REMSYN070AAXX  25001 35173 42998 01802 11145 21172 39884 40289 57017 555 1/118;
0191351730999992000022503004+51620+069800FM-12+031299999V0201801N002012200019N0040001N1-01631-01971102861ADDAA199000091AJ100409199999999GF103991001001999999001021IA1249MD1710061+9999REMSYN086AAXX  25031 35173 32996 31802 11163 21197 40286 57006 80002 333 48040 555 21165 7000/;EQDQ01  00002PRCP99
0165351730999992000022506004+51620+069800FM-12+031299999V0201401N004019999999N0040001N1-01311-01661102711ADDAA199000091GF106991001001999999001061KA1999N-01651MD1710101+9999REMSYN070AAXX  25061 35173 32996 61404 11131 21166 40271 57010 80006 333 21165;EQDQ01  00002PRCP99
0143351730999992000022512004+51620+069800FM-12+031299999V0202301N002019999999N0040001N1-00831-01111102381ADDGF108991081001999999021999MA1999999098441MD1710041+9999REMSYN076AAXX  25121 35173 42996 82302 11083 21111 39844 40238 57004 8802/ 555 1/109;
0173351730999992000022515004+51620+069800FM-12+031299999V0201401N004019999999N0010001N1-00771-01031102271ADDAY171031AY221031GF108991081001999999021999KA1120M-00641MD1710101+9999MW1711REMSYN086AAXX  25151 35173 /1994 81404 11077 21103 40227 57010 77172 8802/ 333 11064 555 69902;
0180351730999992000022518004+51620+069800FM-12+031299999V0202001N004019999999N0200001N1-00821-01011102001ADDAA100000791AY171061AY221061GF108991081001999999011999KA1999M-00641MD1710261+9999MW1021REMSYN082AAXX  25181 35173 11998 82004 11082 21101 40200 57026 69900 70272 8801/ 333 11064;
0112351730999992000022521004+51620+069800FM-12+031299999V0201801N004019999999N0200001N1-00951-01161101901ADDGF108991081001999999021999MD1710121+9999REMSYN060AAXX  25211 35173 42998 81804 11095 21116 40190 57012 8802/;
0143351730999992000022600004+51620+069800FM-12+031299999V0201801N002019999999N0200001N1-00841-00941101891ADDGF108991081001999999011999MA1999999097971MD1310011+9999REMSYN076AAXX  26001 35173 42998 81802 11084 21094 39797 40189 53001 8801/ 555 1/109;
0178351730999992000022603004+51620+069800FM-12+031299999V0209999C000019999999N0040001N1-00871-01061101861ADDAA112000291AJ100409199999999GF108991081001999999021999IA1249MD1810031+9999REMSYN092AAXX  26031 35173 /2996 80000 11087 21106 40186 58003 8802/ 333 48040 555 21097 69922 7992/;
0152351730999992000022606004+51620+069800FM-12+031299999V0202701N002019999999N0040001N1-00821-01191101891ADDAA100000191GF108991081001999999071999KA1999N-00971MD1310031+9999REMSYN076AAXX  26061 35173 12996 82702 11082 21119 40189 53003 69920 8807/ 333 21097;
0112351730999992000022609004+51620+069800FM-12+031299999V0202301N002019999999N0040001N1-00601-01081101861ADDGF106991001001999999001081MD1410001+9999REMSYN060AAXX  26091 35173 42996 62302 11060 21108 40186 54000 80008;
0143351730999992000022612004+51620+069800FM-12+031299999V0202501N002019999999N0040001N1-00831-01151101841ADDGF108991081001999999011999MA1999999097921MD1810051+9999REMSYN076AAXX  26121 35173 42996 82502 11083 21115 39792 40184 58005 8801/ 555 1/109;
0193351730999992000022615004+51620+069800FM-12+031299999V0209999C000019999999N0010001N1-00891-01091101841ADDAA199000091AY121031AY221031GF108991081001999999021999KA1999M-00541MD1710021+9999MW1101REMSYN076AAXX  26151 35173 31994 80000 11089 21109 40184 57002 71022 8802/ 333 11054;EQDQ01  00002PRCP99
0165351730999992000022618004+51620+069800FM-12+031299999V0209999C000019999999N0200001N1-00941-01151101831ADDAA199000091GF108991081001999999021999KA1999M-00541MD1710011+9999REMSYN070AAXX  26181 35173 32998 80000 11094 21115 40183 57001 8802/ 333 11054;EQDQ01  00002PRCP99
0112351730999992000022621004+51620+069800FM-12+031299999V0209999C000019999999N0200001N1-00921-01081101571ADDGF108991081001999999021999MD1710251+9999REMSYN060AAXX  26211 35173 42998 80000 11092 21108 40157 57025 8802/;
0171351730999992000022700004+51620+069800FM-12+031299999V0200501N004019999999N0010001N1-00891-01001101241ADDAY171061AY221061GF108991081001999999021999MA1999999097321MD1710321+9999MW1711REMSYN082AAXX  27001 35173 41994 80504 11089 21100 39732 40124 57032 77172 8802/ 555 1/109;
0206351730999992000022703004+51620+069800FM-12+031299999V0200201N004019999999N0020001N1-00851-00961101031ADDAA112002091AJ100429199999999AY171031AY271031GF108991081001999999021999IA1249MD1710181+9999MW1731REMSYN098AAXX  27031 35173 /1995 80204 11085 21096 40103 57018 77377 8802/ 333 48042 555 21094 60022 7002/;
0180351730999992000022706004+51620+069800FM-12+031299999V0203601N004019999999N0020001N1-00901-01061100981ADDAA100002091AY171061AY231061GF108991081001999999021999KA1999N-00961MD1710071+9999MW1731REMSYN082AAXX  27061 35173 11995 83604 11090 21106 40098 57007 60020 77373 8802/ 333 21096;
0140351730999992000022709004+51620+069800FM-12+031299999V0203601N004019999999N0040001N1-00831-01021101011ADDAY171031AY221031GF108991081001999999011999MD1310051+9999MW1221REMSYN066AAXX  27091 35173 41996 83604 11083 21102 40101 53005 72272 8801/;
0162351730999992000022718004+51620+069800FM-12+031299999V0202301N002012200019N0200001N1-02031-02281102371ADDAA100007991GA1001+999999999GF100991001001999999001001KA1999M-00741MD1210331+9999REMSYN070AAXX  27181 35173 12998 02302 11203 21228 40237 52033 60080 333 11074;
0112351730999992000022721004+51620+069800FM-12+031299999V0202501N002012200019N0200001N1-02071-02261102551ADDGF102991001001999999001061MD1210151+9999REMSYN060AAXX  27211 35173 42998 22502 11207 21226 40255 52015 80006;
0143351730999992000022800004+51620+069800FM-12+031299999V0201801N004019999999N0200001N1-01691-01881102391ADDGF108991081001999999021999MA1999999098311MD1810091+9999REMSYN076AAXX  28001 35173 42998 81804 11169 21188 39831 40239 58009 8802/ 555 1/119;
0191351730999992000022803004+51620+069800FM-12+031299999V0201801N006019999999N0040001N1-01071-01201102251ADDAA199000091AJ100469199999999GF108991081001999999021999IA1249MD1710041+9999REMSYN086AAXX  28031 35173 32996 81806 11107 21120 40225 57004 8802/ 333 48046 555 21210 7008/;EQDQ01  00002PRCP99
0193351730999992000022806004+51620+069800FM-12+031299999V0201801N008019999999N0040001N1-00671-00801102201ADDAA199000091AY171061AY231061GF107991071001999999071001KA1999N-02101MD1310011+9999MW1361REMSYN076AAXX  28061 35173 31996 71808 11067 21080 40220 53001 73673 87070 333 21210;EQDQ01  00002PRCP99
0140351730999992000022809004+51620+069800FM-12+031299999V0202301N006019999999N0040001N1-00551-00691102171ADDAY171031AY231031GF108991081001999999021999MD1410001+9999MW1711REMSYN066AAXX  28091 35173 41996 82306 11055 21069 40217 54000 77173 8802/;
0171351730999992000022812004+51620+069800FM-12+031299999V0202301N004019999999N0040001N1-00871-01251102231ADDAY171061AY231061GF105991051001999999011001MA1999999098281MD1410001+9999MW1011REMSYN082AAXX  28121 35173 41996 52304 11087 21125 39828 40223 54000 70173 85010 555 1/109;
0155351730999992000022815004+51620+069800FM-12+031299999V0202001N002012200019N0200001N1-01551-01741102321ADDGA1001+999999999GF100991001001999999001001KA1120M-00451MD1410001+9999REMSYN074AAXX  28151 35173 /2998 02002 11155 21174 40232 54000 333 11045 555 69962;
0162351730999992000022818004+51620+069800FM-12+031299999V0202301N002012200019N0200001N1-01721-01981102411ADDAA100000591GA1001+999999999GF100991001001999999001001KA1999M-00451MD1310051+9999REMSYN070AAXX  28181 35173 12998 02302 11172 21198 40241 53005 69960 333 11045;
0122351730999992000022821004+51620+069800FM-12+031299999V0209999C000012200019N0200001N1-02271-02521102451ADDGA1001+999999999GF100991001001999999001001MD1810051+9999REMSYN054AAXX  28211 35173 42998 00000 11227 21252 40245 58005;
0153351730999992000022900004+51620+069800FM-12+031299999V0202301N004012200019N0200001N1-02291-02541102411ADDGA1001+999999999GF100991001001999999001001MA1999999098241MD1710041+9999REMSYN070AAXX  29001 35173 42998 02304 11229 21254 39824 40241 57004 555 1/126;
0201351730999992000022903004+51620+069800FM-12+031299999V0202301N006012200019N0040001N1-02301-02551102501ADDAA199000091AJ100499199999999GA1001+999999999GF100991001001999999001001IA1249MD1310081+9999REMSYN080AAXX  29031 35173 32996 02306 11230 21255 40250 53008 333 48049 555 21234 7996/;EQDQ01  00002PRCP99
0203351730999992000022906004+51620+069800FM-12+031299999V0202701N008012200019N0040001N1-01831-02161102571ADDAA199000091AY101061AY201061GA1001+999999999GF100991001001999999001001KA1999N-02341MD1210151+9999MW1361REMSYN070AAXX  29061 35173 31996 02708 11183 21216 40257 52015 73600 333 21234;EQDQ01  00002PRCP99
0150351730999992000022909004+51620+069800FM-12+031299999V0202301N008012200019N0040001N1-01711-02131102641ADDAY131031AY231031GA1001+999999999GF100991001001999999001001MD1210081+9999MW1361REMSYN060AAXX  29091 35173 41996 02308 11171 21213 40264 52008 73633;
0171351730999992000022912004+51620+069800FM-12+031299999V0202301N008019999999N0020001N1-01681-02021102661ADDAY131061AY231061GF108991081001999999071999MA1999999098571MD1210021+9999MW1381REMSYN082AAXX  29121 35173 41995 82308 11168 21202 39857 40266 52002 73833 8807/ 555 1/115;
0193351730999992000022915004+51620+069800FM-12+031299999V0202301N010019999999N0010001N1-01691-01951102521ADDAA199000091AY131031AY231031GF108991081001999999071999KA1999M-01651MD1810131+9999MW1381REMSYN076AAXX  29151 35173 31994 82310 11169 21195 40252 58013 73833 8807/ 333 11165;EQDQ01  00002PRCP99
0209351730999992000022918004+51620+069800FM-12+031299999V0202301N010019999999N0010001N1-01581-01771102431ADDAA199000091AY131061AY231061GF108991081001999999021999KA1999M+99999MD1710071+9999MW1381REMSYN076AAXX  29181 35173 31994 82310 11158 21177 40243 57007 73833 8802/ 333 11165;EQDQ01  00002PRCP99Q02 -01652ATMX  
0140351730999992000022921004+51620+069800FM-12+031299999V0202501N012019999999N0005001N1-01341-01471102141ADDAY171031AY231031GF108991081001999999021999MD1710241+9999MW1711REMSYN066AAXX  29211 35173 41993 82512 11134 21147 40214 57024 77173 8802/;
0171351730999992000030100004+51620+069800FM-12+031299999V0202501N012010075019N0005001N1-01021-01151101911ADDAY171061AY231061GF108991081051008001999999MA1999999097961MD1710171+9999MW1391REMSYN082AAXX  01001 35173 41593 82512 11102 21115 39796 40191 57017 73973 885// 555 1/111;
0206351730999992000030103004+51620+069800FM-12+031299999V0202501N010019999999N0005001N1-00861-00931101851ADDAA112001091AJ100389199999999AY171031AY231031GF108991081001999999021999IA1249MD1710031+9999MW1711REMSYN098AAXX  01031 35173 /1993 82510 11086 21093 40185 57003 77173 8802/ 333 48038 555 21171 60012 7001/;
0192351730999992000030106004+51620+069800FM-12+031299999V0202701N012019999999N0005001N1-00711-00761101751ADDAA100001091AY171061AY231061GF108991081001999999021999KA1120N-01711MD1710091+9999MW1391REMSYN094AAXX  01061 35173 11993 82712 11071 21076 40175 57009 60010 73973 8802/ 333 21171 92981 91016;
0150351730999992000030109004+51620+069800FM-12+031299999V0202701N014010042019N0002001N1-00551-00621101911ADDAY131031AY231031GF108991061071004501011999MD1310191+9999MW1391REMSYN076AAXX  01091 35173 41492 82714 11055 21062 40191 53019 73933 8671/ 333 91018;
0192351730999992000030112004+51620+069800FM-12+031299999V0202501N012019999999N0010001N1-00471-00601102061ADDAY131061AY231061GF108991081001999999021999MA1999999098191MD1210161+9999MW1391OA140101601REMSYN092AAXX  01121 35173 41994 82512 11047 21060 39819 40206 52016 73933 8802/ 333 91016 555 1/105;
0195351730999992000030115004+51620+069800FM-12+031299999V0202501N010010066019N0200001N1-00491-00591102481ADDAY131031AY231031GA1081+006609069GF108991081051008001999999KA1120M-00421MD1210381+9999MW1371REMSYN092AAXX  01151 35173 /1598 82510 11049 21059 40248 52038 73733 885// 333 11042 88622 555 69932;
0202351730999992000030118004+51620+069800FM-12+031299999V0202701N010010075019N0200001N1-00491-00551102761ADDAA100000391AY131061AY231061GA1081+007509059GF108991081051008001999999KA1120M-00421MD1210271+9999MW1371REMSYN088AAXX  01181 35173 11598 82710 11049 21055 40276 52027 69930 73733 885// 333 11042 88625;
0166351730999992000030121004+51620+069800FM-12+031299999V0202301N004010033019N0200001N1-00771-00791102931ADDAY131031AY221031GA1061+003309069GF106991061071004501001001MD1210141+9999MW1011REMSYN076AAXX  01211 35173 41498 62304 11077 21079 40293 52014 70132 86700 333 86711;
0181351730999992000030200004+51620+069800FM-12+031299999V0209999C000012200019N0200001N1-01241-01301103261ADDAY131061AY211061GA1001+999999999GF100991001001999999001001MA1999999099231MD1210251+9999MW1011REMSYN076AAXX  02001 35173 41998 00000 11124 21130 39923 40326 52025 70131 555 1/116;
0229351730999992000030203004+51620+069800FM-12+031299999V0209999C000010003019N0002001N1-01201-01201103481ADDAA199000091AJ100379199999999AY141031AY211031GA1091+999999999GF109991091999999999999999IA1249MD1210211+9999MW1491REMSYN086AAXX  02031 35173 31/92 90000 11120 21120 40348 52021 74941 333 48037 555 21130 7993/;EQDQ01  00002PRCP99
0193351730999992000030206004+51620+069800FM-12+031299999V0202501N002010042019N0020001N1-00911-00941103561ADDAA199000091AY141061AY211061GF108991081061004501999999KA1999N-01301MD1210111+9999MW1101REMSYN076AAXX  02061 35173 31495 82502 11091 21094 40356 52011 71041 886// 333 21130;EQDQ01  00002PRCP99
0140351730999992000030209004+51620+069800FM-12+031299999V0202701N002010042019N0040001N1-00731-00781103621ADDAY171031AY221031GF108991081061004501999999MD1210091+9999MW1771REMSYN066AAXX  02091 35173 41496 82702 11073 21078 40362 52009 77772 886//;
0197351730999992000030212004+51620+069800FM-12+031299999V0209999C000010039019N0040001N1-00521-00591103601ADDAY171061AY221061GA1081+003909079GF108991081061004501999999MA1999999099651MD1210011+9999MW1021REMSYN092AAXX  02121 35173 41496 80000 11052 21059 39965 40360 52001 70272 886// 333 88713 555 1/105;
0167351730999992000030215004+51620+069800FM-12+031299999V0202501N002010039019N0200001N1-00571-00611103601ADDGA1081+003909079GF108991081061004501999999KA1120M-00461MD1410001+9999REMSYN086AAXX  02151 35173 /2498 82502 11057 21061 40360 54000 886// 333 11046 88713 555 69902;
0174351730999992000030218004+51620+069800FM-12+031299999V0202301N002010069019N0200001N1-00481-00581103621ADDAA100000791GA1081+006909059GF108991081051008001999999KA1120M-00461MD1310041+9999REMSYN082AAXX  02181 35173 12598 82302 11048 21058 40362 53004 69900 885// 333 11046 88623;
0143351730999992000030300004+51620+069800FM-12+031299999V0202701N002019999999N0200001N1-00611-00691103521ADDGF108991081001999999021999MA1999999099561MD1710071+9999REMSYN076AAXX  03001 35173 42998 82702 11061 21069 39956 40352 57007 8802/ 555 1/107;
0191351730999992000030303004+51620+069800FM-12+031299999V0202701N002019999999N0040001N1-00671-00791103521ADDAA199000091AJ100379199999999GF108991081001999999021999IA1249MD1410001+9999REMSYN086AAXX  03031 35173 32996 82702 11067 21079 40352 54000 8802/ 333 48037 555 21069 7990/;EQDQ01  00002PRCP99
0165351730999992000030306004+51620+069800FM-12+031299999V0202701N002019999999N0040001N1-00621-00701103541ADDAA199000091GF108991081001999999011999KA1999N-00691MD1310021+9999REMSYN070AAXX  03061 35173 32996 82702 11062 21070 40354 53002 8801/ 333 21069;EQDQ01  00002PRCP99
0112351730999992000030309004+51620+069800FM-12+031299999V0202501N004019999999N0040001N1-00591-00701103491ADDGF108991081001999999021999MD1810051+9999REMSYN060AAXX  03091 35173 42996 82504 11059 21070 40349 58005 8802/;
0143351730999992000030312004+51620+069800FM-12+031299999V0202701N002019999999N0040001N1-00671-00751103461ADDGF108991081001999999021999MA1999999099501MD1710031+9999REMSYN076AAXX  03121 35173 42996 82702 11067 21075 39950 40346 57003 8802/ 555 1/106;
0187351730999992000030315004+51620+069800FM-12+031299999V0202701N002010066019N0200001N1-00771-00831103501ADDAA199000091GA1081+006609059GF108991081051999999999999KA1120M-00541MD1310021+9999REMSYN076AAXX  03151 35173 32998 82702 11077 21083 40350 53002 885// 333 11054 88622;EQDQ01  00002PRCP99
0203351730999992000030318004+51620+069800FM-12+031299999V0202501N002010003019N0002001N1-00911-00941103541ADDAA199000091AY141061AY221061GA1091+999999999GF109991091999999999999999KA1999M-00541MD1210011+9999MW1491REMSYN070AAXX  03181 35173 31/92 92502 11091 21094 40354 52001 74942 333 11054;EQDQ01  00002PRCP99
0150351730999992000030321004+51620+069800FM-12+031299999V0202701N002010001519N0001001N1-00991-01021103561ADDAY141031AY241031GA1091+999999999GF109991091999999999999999MD1210011+9999MW1491REMSYN060AAXX  03211 35173 41/91 92702 11099 21102 40356 52001 74944;
0181351730999992000030400004+51620+069800FM-12+031299999V0209999C000010001519N0001001N1-01131-01131103571ADDAY141061AY241061GA1091+999999999GF109991091999999999999999MA1999999099531MD1810011+9999MW1491REMSYN076AAXX  04001 35173 41/91 90000 11113 21113 39953 40357 58001 74944 555 1/120;
0229351730999992000030403004+51620+069800FM-12+031299999V0209999C000010003019N0002001N1-01191-01191103581ADDAA199000091AJ100349199999999AY141031AY241031GA1091+999999999GF109991091999999999999999IA1249MD1410001+9999MW1491REMSYN086AAXX  04031 35173 31/92 90000 11119 21119 40358 54000 74944 333 48034 555 21125 7000/;EQDQ01  00002PRCP99
0203351730999992000030406004+51620+069800FM-12+031299999V0209999C000012200019N0040001N1-01071-01131103661ADDAA199000091AY141061AY211061GA1001+999999999GF100991001001999999001001KA1999N-01251MD1310111+9999MW1021REMSYN070AAXX  04061 35173 31996 00000 11107 21113 40366 53011 70241 333 21125;EQDQ01  00002PRCP99
0122351730999992000030409004+51620+069800FM-12+031299999V0209999C000012200019N0040001N1-00841-00941103621ADDGA1001+999999999GF100991001001999999001001MD1810011+9999REMSYN054AAXX  04091 35173 42996 00000 11084 21094 40362 58001;
0175351730999992000030415004+51620+069800FM-12+031299999V0209999C000012200019N0200001N1-01511-01641103661ADDAA199000091GA1001+999999999GF100991001001999999001001KA1999M-00791MD1710041+9999REMSYN064AAXX  04151 35173 32998 00000 11151 21164 40366 57004 333 11079;EQDQ01  00002PRCP99
0175351730999992000030418004+51620+069800FM-12+031299999V0209999C000012200019N0200001N1-01671-01731103721ADDAA199000091GA1001+999999999GF100991001001999999001001KA1999M-00791MD1310031+9999REMSYN064AAXX  04181 35173 32998 00000 11167 21173 40372 53003 333 11079;EQDQ01  00002PRCP99
0122351730999992000030421004+51620+069800FM-12+031299999V0209999C000012200019N0200001N1-01961-01961103631ADDGA1001+999999999GF100991001001999999001001MD1810131+9999REMSYN054AAXX  04211 35173 42998 00000 11196 21196 40363 58013;
0153351730999992000030500004+51620+069800FM-12+031299999V0200901N004012200019N0200001N1-01331-01601103341ADDGA1001+999999999GF100991001001999999001001MA1999999099291MD1710171+9999REMSYN070AAXX  05001 35173 42998 00904 11133 21160 39929 40334 57017 555 1/115;
0201351730999992000030503004+51620+069800FM-12+031299999V0200901N006012200019N0040001N1-01141-01201103331ADDAA199000091AJ100399199999999GA1001+999999999GF100991001001999999001001IA1249MD1310011+9999REMSYN080AAXX  05031 35173 32996 00906 11114 21120 40333 53001 333 48039 555 21199 7000/;EQDQ01  00002PRCP99
0165351730999992000030506004+51620+069800FM-12+031299999V0200701N004012200019N0040001N1-00911-01251103241ADDAA199000091GF102991001001999999001081KA1999N-01991MD1810051+9999REMSYN070AAXX  05061 35173 32996 20704 11091 21125 40324 58005 80008 333 21199;EQDQ01  00002PRCP99
0112351730999992000030509004+51620+069800FM-12+031299999V0200501N004012200019N0040001N1-00691-01021103081ADDGF102991001001999999001081MD1710131+9999REMSYN060AAXX  05091 35173 42996 20504 11069 21102 40308 57013 80008;
0143351730999992000030512004+51620+069800FM-12+031299999V0200701N004012200019N0040001N1-00491-00771102931ADDGF102991001001999999001081MA1999999099011MD1710111+9999REMSYN076AAXX  05121 35173 42996 20704 11049 21077 39901 40293 57011 80008 555 1/105;
0165351730999992000030515004+51620+069800FM-12+031299999V0200901N006012200019N0200001N1-00691-00891102971ADDAA199000091GF101991001001999999001021KA1999M-00441MD1310011+9999REMSYN070AAXX  05151 35173 32998 10906 11069 21089 40297 53001 80002 333 11044;EQDQ01  00002PRCP99
0175351730999992000030518004+51620+069800FM-12+031299999V0200901N006012200019N0200001N1-01101-01231102971ADDAA199000091GA1001+999999999GF100991001001999999001001KA1999M-00441MD1810061+9999REMSYN064AAXX  05181 35173 32998 00906 11110 21123 40297 58006 333 11044;EQDQ01  00002PRCP99
0150351730999992000030521004+51620+069800FM-12+031299999V0200901N008012200019N0200001N1-01241-01301102801ADDAY131031AY201031GA1001+999999999GF100991001001999999001001MD1710181+9999MW1361REMSYN060AAXX  05211 35173 41998 00908 11124 21130 40280 57018 73630;
0181351730999992000030600004+51620+069800FM-12+031299999V0200901N004012200019N0200001N1-01491-01691102731ADDAY131061AY201061GA1001+999999999GF100991001001999999001001MA1999999098671MD1710111+9999MW1021REMSYN076AAXX  06001 35173 41998 00904 11149 21169 39867 40273 57011 70230 555 1/117;
0201351730999992000030603004+51620+069800FM-12+031299999V0200901N006012200019N0040001N1-01601-01791102681ADDAA199000091AJ100399199999999GA1001+999999999GF100991001001999999001001IA1249MD1710061+9999REMSYN080AAXX  06031 35173 32996 00906 11160 21179 40268 57006 333 48039 555 21161 7000/;EQDQ01  00002PRCP99
0175351730999992000030606004+51620+069800FM-12+031299999V0200901N004012200019N0040001N1-01471-01671102581ADDAA199000091GA1001+999999999GF100991001001999999001001KA1999N-01611MD1710091+9999REMSYN064AAXX  06061 35173 32996 00904 11147 21167 40258 57009 333 21161;EQDQ01  00002PRCP99
0112351730999992000030609004+51620+069800FM-12+031299999V0200901N002019999999N0040001N1-00931-01281102381ADDGF105991001001999999001081MD1710101+9999REMSYN060AAXX  06091 35173 42996 50902 11093 21128 40238 57010 80008;
0143351730999992000030612004+51620+069800FM-12+031299999V0209999C000019999999N0040001N1-00811-01131102301ADDGF105991001001999999001081MA1999999098361MD1710061+9999REMSYN076AAXX  06121 35173 42996 50000 11081 21113 39836 40230 57006 80008 555 1/109;
0175351730999992000030615004+51620+069800FM-12+031299999V0201101N002012200019N0200001N1-01171-01371102361ADDAA199000091GA1001+999999999GF100991001001999999001001KA1999M-00741MD1410001+9999REMSYN064AAXX  06151 35173 32998 01102 11117 21137 40236 54000 333 11074;EQDQ01  00002PRCP99
0175351730999992000030618004+51620+069800FM-12+031299999V0209999C000012200019N0200001N1-01371-01501102401ADDAA199000091GA1001+999999999GF100991001001999999001001KA1999M-00741MD1310011+9999REMSYN064AAXX  06181 35173 32998 00000 11137 21150 40240 53001 333 11074;EQDQ01  00002PRCP99
0112351730999992000030621004+51620+069800FM-12+031299999V0209999C000012200019N0200001N1-01391-01451102281ADDGF102991021001999999071001MD1810111+9999REMSYN060AAXX  06211 35173 42998 20000 11139 21145 40228 58011 82070;
0143351730999992000030700004+51620+069800FM-12+031299999V0201801N002012200019N0200001N1-01471-01531102371ADDGF103991031001999999071001MA1999999098321MD1310061+9999REMSYN076AAXX  07001 35173 42998 31802 11147 21153 39832 40237 53006 83070 555 1/117;
0191351730999992000030703004+51620+069800FM-12+031299999V0201801N002012200019N0040001N1-01671-01791102501ADDAA199000091AJ100399199999999GF102991001001999999001081IA1249MD1210101+9999REMSYN086AAXX  07031 35173 32996 21802 11167 21179 40250 52010 80008 333 48039 555 21169 7000/;EQDQ01  00002PRCP99
0175351730999992000030706004+51620+069800FM-12+031299999V0201801N002012200019N0040001N1-01511-01701102491ADDAA199000091GA1001+999999999GF100991001001999999001001KA1999N-01691MD1210021+9999REMSYN064AAXX  07061 35173 32996 01802 11151 21170 40249 52002 333 21169;EQDQ01  00002PRCP99
0122351730999992000030709004+51620+069800FM-12+031299999V0209999C000012200019N0040001N1-01061-01341102461ADDGA1001+999999999GF100991001001999999001001MD1210051+9999REMSYN054AAXX  07091 35173 42996 00000 11106 21134 40246 52005;
0153351730999992000030712004+51620+069800FM-12+031299999V0209999C000012200019N0040001N1-01011-01291102491ADDGA1001+999999999GF100991001001999999001001MA1999999098511MD1210021+9999REMSYN070AAXX  07121 35173 42996 00000 11101 21129 39851 40249 52002 555 1/108;
0175351730999992000030715004+51620+069800FM-12+031299999V0209999C000012200019N0200001N1-01501-01701102691ADDAA199000091GA1001+999999999GF100991001001999999001001KA1999M-00941MD1210121+9999REMSYN064AAXX  07151 35173 32998 00000 11150 21170 40269 52012 333 11094;EQDQ01  00002PRCP99
0175351730999992000030718004+51620+069800FM-12+031299999V0201801N002012200019N0200001N1-01771-01831102771ADDAA199000091GA1001+999999999GF100991001001999999001001KA1999M-00941MD1210041+9999REMSYN064AAXX  07181 35173 32998 01802 11177 21183 40277 52004 333 11094;EQDQ01  00002PRCP99
0122351730999992000030721004+51620+069800FM-12+031299999V0201801N002012200019N0200001N1-01931-01991102831ADDGA1001+999999999GF100991001001999999001001MD1210031+9999REMSYN054AAXX  07211 35173 42998 01802 11193 21199 40283 52003;
0153351730999992000030800004+51620+069800FM-12+031299999V0201801N002012200019N0200001N1-02111-02171102901ADDGA1001+999999999GF100991001001999999001001MA1999999098731MD1210031+9999REMSYN070AAXX  08001 35173 42998 01802 11211 21217 39873 40290 52003 555 1/123;
0210351730999992000030803004+51620+069800FM-12+031299999V0201801N002012200019N0040001N1-02151-02211102941ADDAA199000021AJ100359199999999AY101031AY201031GA1001+999999999GF100991001001999999001001IA1249MD1210041+9999MW1761REMSYN086AAXX  08031 35173 31996 01802 11215 21221 40294 52004 77600 333 48035 555 21218 7000/;
0156351730999992000030806004+51620+069800FM-12+031299999V0201601N002012200019N0040001N1-01611-01741102911ADDAA199000021GA1001+999999999GF100991001001999999001001KA1999N-02181MD1210061+9999REMSYN064AAXX  08061 35173 32996 01602 11161 21174 40291 52006 333 21218;
0122351730999992000030809004+51620+069800FM-12+031299999V0201801N002012200019N0040001N1-01201-01471102801ADDGA1001+999999999GF100991001001999999001001MD1810051+9999REMSYN054AAXX  08091 35173 42996 01802 11120 21147 40280 58005;
0153351730999992000030812004+51620+069800FM-12+031299999V0209999C000012200019N0040001N1-01111-01311102771ADDGA1001+999999999GF100991001001999999001001MA1999999098761MD1710021+9999REMSYN070AAXX  08121 35173 42996 00000 11111 21131 39876 40277 57002 555 1/111;
0156351730999992000030815004+51620+069800FM-12+031299999V0201801N002012200019N0200001N1-01521-01581102811ADDAA199000021GA1001+999999999GF100991001001999999001001KA1999M-00991MD1710021+9999REMSYN064AAXX  08151 35173 32998 01802 11152 21158 40281 57002 333 11099;
0175351730999992000030818004+51620+069800FM-12+031299999V0201401N004012200019N0200001N1-01711-01711102801ADDAA199000091GA1001+999999999GF100991001001999999001001KA1999M-00991MD1710041+9999REMSYN064AAXX  08181 35173 32998 01404 11171 21171 40280 57004 333 11099;EQDQ01  00002PRCP99
0122351730999992000030821004+51620+069800FM-12+031299999V0201401N002012200019N0200001N1-01771-01771102691ADDGA1001+999999999GF100991001001999999001001MD1710111+9999REMSYN054AAXX  08211 35173 42998 01402 11177 21177 40269 57011;
0153351730999992000030900004+51620+069800FM-12+031299999V0201401N002012200019N0200001N1-01651-01711102601ADDGA1001+999999999GF100991001001999999001001MA1999999098531MD1710061+9999REMSYN070AAXX  09001 35173 42998 01402 11165 21171 39853 40260 57006 555 1/120;
0201351730999992000030903004+51620+069800FM-12+031299999V0201401N002012200019N0040001N1-01551-01611102521ADDAA199000091AJ100359199999999GA1001+999999999GF100991001001999999001001IA1249MD1710061+9999REMSYN080AAXX  09031 35173 32996 01402 11155 21161 40252 57006 333 48035 555 21180 7000/;EQDQ01  00002PRCP99
0165351730999992000030906004+51620+069800FM-12+031299999V0201601N004019999999N0040001N1-01191-01321102391ADDAA199000091GF106991001001999999001011KA1999N-01801MD1710081+9999REMSYN070AAXX  09061 35173 32996 61604 11119 21132 40239 57008 80001 333 21180;EQDQ01  00002PRCP99
0112351730999992000030909004+51620+069800FM-12+031299999V0201801N004012200019N0040001N1-00811-01081102181ADDGF102991001001999999001011MD1710141+9999REMSYN060AAXX  09091 35173 42996 21804 11081 21108 40218 57014 80001;
0153351730999992000030912004+51620+069800FM-12+031299999V0201801N004012200019N0040001N1-00691-00941102041ADDGA1001+999999999GF100991001001999999001001MA1999999098121MD1710131+9999REMSYN070AAXX  09121 35173 42996 01804 11069 21094 39812 40204 57013 555 1/107;
0165351730999992000030915004+51620+069800FM-12+031299999V0201601N004012200019N0200001N1-01011-01291101991ADDAA199000091GF101991011001999999041001KA1999M-00591MD1710081+9999REMSYN070AAXX  09151 35173 32998 11604 11101 21129 40199 57008 81040 333 11059;EQDQ01  00002PRCP99
0175351730999992000030918004+51620+069800FM-12+031299999V0201401N006012200019N0200001N1-00871-01161101911ADDAA199000091GA1001+999999999GF100991001001999999001001KA1999M-00591MD1710051+9999REMSYN064AAXX  09181 35173 32998 01406 11087 21116 40191 57005 333 11059;EQDQ01  00002PRCP99
0122351730999992000030921004+51620+069800FM-12+031299999V0201801N006012200019N0200001N1-00941-01151101781ADDGA1001+999999999GF100991001001999999001001MD1710151+9999REMSYN054AAXX  09211 35173 42998 01806 11094 21115 40178 57015;
0153351730999992000031000004+51620+069800FM-12+031299999V0201801N004012200019N0200001N1-01111-01171101871ADDGA1001+999999999GF100991001001999999001001MA1999999097901MD1310061+9999REMSYN070AAXX  10001 35173 42998 01804 11111 21117 39790 40187 53006 555 1/113;
0229351730999992000031003004+51620+069800FM-12+031299999V0201801N002010003019N0005001N1-01141-01141101941ADDAA199000091AJ100359199999999AY141031AY211031GA1091+999999999GF109991091999999999999999IA1249MD1210071+9999MW1491REMSYN086AAXX  10031 35173 31/93 91802 11114 21114 40194 52007 74941 333 48035 555 21121 7000/;EQDQ01  00002PRCP99
0193351730999992000031006004+51620+069800FM-12+031299999V0201801N002019999999N0040001N1-00711-00841101941ADDAA199000091AY141061AY211061GF106991001001999999001081KA1999N-01211MD1210061+9999MW1021REMSYN076AAXX  10061 35173 31996 61802 11071 21084 40194 52006 70241 80008 333 21121;EQDQ01  00002PRCP99
0112351730999992000031009004+51620+069800FM-12+031299999V0202301N002019999999N0040001N1-00571-00711101951ADDGF106991001001999999001081MD1210041+9999REMSYN060AAXX  10091 35173 42996 62302 11057 21071 40195 52004 80008;
0153351730999992000031012004+51620+069800FM-12+031299999V0209999C000012200019N0040001N1-00471-00671102031ADDGA1001+999999999GF100991001001999999001001MA1999999098161MD1210091+9999REMSYN070AAXX  10121 35173 42996 00000 11047 21067 39816 40203 52009 555 1/101;
0165351730999992000031015004+51620+069800FM-12+031299999V0201801N002012200019N0200001N1-00971-01051102231ADDAA199000091GF102991001001999999001061KA1999M-00261MD1210121+9999REMSYN070AAXX  10151 35173 32998 21802 11097 21105 40223 52012 80006 333 11026;EQDQ01  00002PRCP99
0203351730999992000031018004+51620+069800FM-12+031299999V0201801N002010001519N0001001N1-00881-00911102311ADDAA199000091AY141061AY211061GA1091+999999999GF109991091999999999999999KA1999M-00261MD1210071+9999MW1491REMSYN070AAXX  10181 35173 31/91 91802 11088 21091 40231 52007 74941 333 11026;EQDQ01  00002PRCP99
0150351730999992000031021004+51620+069800FM-12+031299999V0209999C000010001519N0001001N1-00791-00791102281ADDAY141031AY241031GA1091+999999999GF109991091999999999999999MD1810011+9999MW1491REMSYN060AAXX  10211 35173 41/91 90000 11079 21079 40228 58001 74944;
0181351730999992000031100004+51620+069800FM-12+031299999V0209999C000012200019N0200001N1-01111-01111102251ADDAY141061AY211061GA1001+999999999GF100991001001999999001001MA1999999098271MD1710071+9999MW1281REMSYN076AAXX  11001 35173 41998 00000 11111 21111 39827 40225 57007 72841 555 1/115;
0191351730999992000031103004+51620+069800FM-12+031299999V0209999C000019999999N0040001N1-01161-01161102291ADDAA199000091AJ100359199999999GF105991001001999999001071IA1249MD1310031+9999REMSYN086AAXX  11031 35173 32996 50000 11116 21116 40229 53003 80007 333 48035 555 21119 7000/;EQDQ01  00002PRCP99
0175351730999992000031106004+51620+069800FM-12+031299999V0201401N002012200019N0040001N1-00341-00481102201ADDAA199000091GA1001+999999999GF100991001001999999001001KA1999N-01191MD1210031+9999REMSYN064AAXX  11061 35173 32996 01402 11034 21048 40220 52003 333 21119;EQDQ01  00002PRCP99
0112351730999992000031109004+51620+069800FM-12+031299999V0201801N002019999999N0040001N1+00061-00341102041ADDGF105991001001999999001081MD1810091+9999REMSYN060AAXX  11091 35173 42996 51802 10006 21034 40204 58009 80008;
0143351730999992000031112004+51620+069800FM-12+031299999V0201401N002019999999N0040001N1+00041-00411102081ADDGF106991001001999999001081MA1999999098281MD1310041+9999REMSYN076AAXX  11121 35173 42996 61402 10004 21041 39828 40208 53004 80008 555 1/101;
0165351730999992000031115004+51620+069800FM-12+031299999V0201401N004012200019N0200001N1-00161-00461102151ADDAA199000091GF103991001001999999001081KA1999M+00151MD1210031+9999REMSYN070AAXX  11151 35173 32998 31404 11016 21046 40215 52003 80008 333 10015;EQDQ01  00002PRCP99
0175351730999992000031118004+51620+069800FM-12+031299999V0202001N002012200019N0200001N1-00311-00661102181ADDAA199000091GA1001+999999999GF100991001001999999001001KA1999M+00151MD1410001+9999REMSYN064AAXX  11181 35173 32998 02002 11031 21066 40218 54000 333 10015;EQDQ01  00002PRCP99
0122351730999992000031121004+51620+069800FM-12+031299999V0202001N004012200019N0200001N1-00431-00741102121ADDGA1001+999999999GF100991001001999999001001MD1810061+9999REMSYN054AAXX  11211 35173 42998 02004 11043 21074 40212 58006;
0153351730999992000031200004+51620+069800FM-12+031299999V0202001N004012200019N0200001N1-00971-01181102241ADDGA1001+999999999GF100991001001999999001001MA1999999098281MD1310031+9999REMSYN070AAXX  12001 35173 42998 02004 11097 21118 39828 40224 53003 555 1/111;
0191351730999992000031203004+51620+069800FM-12+031299999V0201401N002019999999N0040001N1-00971-01141102311ADDAA199000091AJ100319199999999GF105991001001999999001061IA1249MD1210071+9999REMSYN086AAXX  12031 35173 32996 51402 11097 21114 40231 52007 80006 333 48031 555 21100 7000/;EQDQ01  00002PRCP99
0165351730999992000031206004+51620+069800FM-12+031299999V0201401N002012200019N0040001N1-00581-00691102221ADDAA199000091GF103991001001999999001081KA1999N-01001MD1810031+9999REMSYN070AAXX  12061 35173 32996 31402 11058 21069 40222 58003 80008 333 21100;EQDQ01  00002PRCP99
0112351730999992000031209004+51620+069800FM-12+031299999V0201801N002019999999N0040001N1-00261-00421102111ADDGF106991001001999999001081MD1710051+9999REMSYN060AAXX  12091 35173 42996 61802 11026 21042 40211 57005 80008;
0143351730999992000031212004+51620+069800FM-12+031299999V0201601N004019999999N0040001N1-00241-00361102081ADDGF105991001001999999001081MA1999999098241MD1710031+9999REMSYN076AAXX  12121 35173 42996 51604 11024 21036 39824 40208 57003 80008 555 1/101;
0165351730999992000031215004+51620+069800FM-12+031299999V0201601N004012200019N0200001N1-00371-00481102091ADDAA199000091GF102991021001999999071001KA1999M-00041MD1710011+9999REMSYN070AAXX  12151 35173 32998 21604 11037 21048 40209 57001 82070 333 11004;EQDQ01  00002PRCP99
0175351730999992000031218004+51620+069800FM-12+031299999V0201401N004012200019N0200001N1-00631-00711102021ADDAA199000091GA1001+999999999GF100991001001999999001001KA1999M-00041MD1710111+9999REMSYN064AAXX  12181 35173 32998 01404 11063 21071 40202 57011 333 11004;EQDQ01  00002PRCP99
0122351730999992000031221004+51620+069800FM-12+031299999V0201401N002012200019N0200001N1-00741-00801101851ADDGA1001+999999999GF100991001001999999001001MD1710181+9999REMSYN054AAXX  12211 35173 42998 01402 11074 21080 40185 57018;
0153351730999992000031300004+51620+069800FM-12+031299999V0201401N004012200019N0200001N1-00961-01081101691ADDGA1001+999999999GF100991001001999999001001MA1999999097751MD1710191+9999REMSYN070AAXX  13001 35173 42998 01404 11096 21108 39775 40169 57019 555 1/112;
0191351730999992000031303004+51620+069800FM-12+031299999V0201401N002019999999N0040001N1-00741-01001101551ADDAA199000091AJ100309199999999GF105991001001999999001081IA1249MD1710101+9999REMSYN086AAXX  13031 35173 32996 51402 11074 21100 40155 57010 80008 333 48030 555 21096 7000/;EQDQ01  00002PRCP99
0165351730999992000031306004+51620+069800FM-12+031299999V0201101N004019999999N0040001N1-00371-00741101281ADDAA199000091GF106991001001999999001081KA1999N-00961MD1710201+9999REMSYN070AAXX  13061 35173 32996 61104 11037 21074 40128 57020 80008 333 21096;EQDQ01  00002PRCP99
0159351730999992000031309004+51620+069800FM-12+031299999V0201401N006010042019N0020001N1-00101-00171101121ADDAY171031AY221031GF108991999071004501021999MD1710131+9999MW1731REMSYN066AAXX  13091 35173 41495 81406 11010 21017 40112 57013 77372 8872/;EQDQ01+000082SCOTLC
0197351730999992000031312004+51620+069800FM-12+031299999V0202001N006010075019N0040001N1-00081-00181101201ADDAY171061AY221061GA1081+007509069GF108991081051008001999999MA1999999097421MD1310101+9999MW1021REMSYN092AAXX  13121 35173 41596 82006 11008 21018 39742 40120 53010 70272 885// 333 88625 555 1/100;
0145351730999992000031315004+51620+069800FM-12+031299999V0202301N004019999999N0200001N1-00291-00331101391ADDGF108991081001999999071999KA1120M+00121MD1210151+9999REMSYN080AAXX  13151 35173 /2998 82304 11029 21033 40139 52015 8807/ 333 10012 555 69942;
0152351730999992000031318004+51620+069800FM-12+031299999V0202301N006019999999N0200001N1-00391-00441101581ADDAA100000591GF108991081001999999071999KA1999M+00121MD1210151+9999REMSYN076AAXX  13181 35173 12998 82306 11039 21044 40158 52015 69940 8807/ 333 10012;
0138351730999992000031321004+51620+069800FM-12+031299999V0202301N006010033019N0200001N1-00531-00561101711ADDGA1081+003309069GF108991081071004501999999MD1210111+9999REMSYN070AAXX  13211 35173 42498 82306 11053 21056 40171 52011 887// 333 88711;
0153351730999992000031400004+51620+069800FM-12+031299999V0202301N004012200019N0200001N1-00671-00721101861ADDGA1001+999999999GF100991001001999999001001MA1999999097951MD1210121+9999REMSYN070AAXX  14001 35173 42998 02304 11067 21072 39795 40186 52012 555 1/108;
0191351730999992000031403004+51620+069800FM-12+031299999V0202001N002019999999N0040001N1-01041-01041102071ADDAA199000091AJ100289199999999GF106991001001999999001011IA1289MD1210161+9999REMSYN086AAXX  14031 35173 32996 62002 11104 21104 40207 52016 80001 333 44028 555 21112 7994/;EQDQ01  00002PRCP99
0112351730999992000031409004+51620+069800FM-12+031299999V0202001N004019999999N0040001N1-00531-00781102131ADDGF107991001001999999001011MD1210041+9999REMSYN060AAXX  14091 35173 42996 72004 11053 21078 40213 52004 80001;
0143351730999992000031412004+51620+069800FM-12+031299999V0202001N002019999999N0040001N1-00491-00701102231ADDGF106991001001999999001081MA1999999098331MD1210091+9999REMSYN076AAXX  14121 35173 42996 62002 11049 21070 39833 40223 52009 80008 555 1/104;
0165351730999992000031415004+51620+069800FM-12+031299999V0201801N002012200019N0200001N1-01031-01091102371ADDAA199000091GF103991001001999999001041KA1999M-00321MD1210071+9999REMSYN070AAXX  14151 35173 32998 31802 11103 21109 40237 52007 80004 333 11032;EQDQ01  00002PRCP99
0175351730999992000031418004+51620+069800FM-12+031299999V0201801N002012200019N0200001N1-01241-01241102461ADDAA199000091GA1001+999999999GF100991001001999999001001KA1999M-00321MD1210061+9999REMSYN064AAXX  14181 35173 32998 01802 11124 21124 40246 52006 333 11032;EQDQ01  00002PRCP99
0112351730999992000031421004+51620+069800FM-12+031299999V0201801N002019999999N0200001N1-01261-01321102481ADDGF108991001001999999001071MD1210021+9999REMSYN060AAXX  14211 35173 42998 81802 11126 21132 40248 52002 80007;
0153351730999992000031500004+51620+069800FM-12+031299999V0201801N002012200019N0200001N1-01541-01601102561ADDGA1001+999999999GF100991001001999999001001MA1999999098501MD1210021+9999REMSYN070AAXX  15001 35173 42998 01802 11154 21160 39850 40256 52002 555 1/119;
0210351730999992000031503004+51620+069800FM-12+031299999V0209999C000012200019N0040001N1-01731-01791102651ADDAA199000021AJ100289199999999AY101031AY201031GA1001+999999999GF100991001001999999001001IA1289MD1210061+9999MW1761REMSYN086AAXX  15031 35173 31996 00000 11173 21179 40265 52006 77600 333 44028 555 21175 7000/;
0146351730999992000031506004+51620+069800FM-12+031299999V0209999C000012200019N0040001N1-01451-01581102651ADDAA199000021GF102991001001999999001021KA1999N-01751MD1210051+9999REMSYN070AAXX  15061 35173 32996 20000 11145 21158 40265 52005 80002 333 21175;
0122351730999992000031509004+51620+069800FM-12+031299999V0209999C000012200019N0040001N1-01021-01301102611ADDGA1001+999999999GF100991001001999999001001MD1210021+9999REMSYN054AAXX  15091 35173 42996 00000 11102 21130 40261 52002;
0153351730999992000031512004+51620+069800FM-12+031299999V0202301N002012200019N0040001N1-00951-01251102601ADDGA1001+999999999GF100991001001999999001001MA1999999098631MD1410001+9999REMSYN070AAXX  15121 35173 42996 02302 11095 21125 39863 40260 54000 555 1/108;
0156351730999992000031515004+51620+069800FM-12+031299999V0209999C000012200019N0200001N1-01331-01391102761ADDAA199000021GA1001+999999999GF100991001001999999001001KA1999M-00861MD1310091+9999REMSYN064AAXX  15151 35173 32998 00000 11133 21139 40276 53009 333 11086;
0203351730999992000031518004+51620+069800FM-12+031299999V0201801N002010003019N0002001N1-01931-01931102841ADDAA199000091AY141061AY211061GA1091+999999999GF109991091999999999999999KA1999M-00861MD1810011+9999MW1491REMSYN070AAXX  15181 35173 31/92 91802 11193 21193 40284 58001 74941 333 11086;EQDQ01  00002PRCP99
0150351730999992000031521004+51620+069800FM-12+031299999V0209999C000010001519N0001001N1-02051-02051102751ADDAY141031AY241031GA1091+999999999GF109991091999999999999999MD1710101+9999MW1491REMSYN060AAXX  15211 35173 41/91 90000 11205 21205 40275 57010 74944;
0181351730999992000031600004+51620+069800FM-12+031299999V0200201N002012200019N0200001N1-02091-02091102611ADDAY141061AY211061GA1001+999999999GF100991001001999999001001MA1999999098511MD1710101+9999MW1281REMSYN076AAXX  16001 35173 41998 00202 11209 21209 39851 40261 57010 72841 555 1/122;
0191351730999992000031603004+51620+069800FM-12+031299999V0200201N002019999999N0040001N1-01771-01771102611ADDAA199000091AJ100289199999999GF108991001001999999001071IA1289MD1410001+9999REMSYN086AAXX  16031 35173 32996 80202 11177 21177 40261 54000 80007 333 44028 555 21214 7000/;EQDQ01  00002PRCP99
0165351730999992000031606004+51620+069800FM-12+031299999V0200201N002019999999N0040001N1-01321-01381102441ADDAA199000091GF108991081001999999071999KA1999N-02141MD1810091+9999REMSYN070AAXX  16061 35173 32996 80202 11132 21138 40244 58009 8807/ 333 21214;EQDQ01  00002PRCP99
0112351730999992000031609004+51620+069800FM-12+031299999V0200701N004019999999N0040001N1-00711-00801102211ADDGF108991081001999999011999MD1710131+9999REMSYN060AAXX  16091 35173 42996 80704 11071 21080 40221 57013 8801/;
0143351730999992000031612004+51620+069800FM-12+031299999V0200701N004019999999N0040001N1-00621-00811101961ADDGF108991081001999999021999MA1999999098071MD1710221+9999REMSYN076AAXX  16121 35173 42996 80704 11062 21081 39807 40196 57022 8802/ 555 1/106;
0165351730999992000031615004+51620+069800FM-12+031299999V0200501N004019999999N0200001N1-00711-00961101991ADDAA199000091GF108991081001999999021999KA1999M-00541MD1310011+9999REMSYN070AAXX  16151 35173 32998 80504 11071 21096 40199 53001 8802/ 333 11054;EQDQ01  00002PRCP99
0174351730999992000031618004+51620+069800FM-12+031299999V0200501N006019999999N0010001N1-00871-01021101821ADDAA199000021AY171061AY221061GF108991081001999999021999KA1999M-00541MD1810181+9999MW1711REMSYN076AAXX  16181 35173 31994 80506 11087 21102 40182 58018 77172 8802/ 333 11054;
0140351730999992000031621004+51620+069800FM-12+031299999V0200501N004019999999N0200001N1-00981-01061101761ADDAY171031AY221031GF108991081001999999011999MD1710091+9999MW1021REMSYN066AAXX  16211 35173 41998 80504 11098 21106 40176 57009 70272 8801/;
0171351730999992000031700004+51620+069800FM-12+031299999V0203601N004019999999N0200001N1-01031-01031101721ADDAY171061AY221061GF108991081001999999021999MA1999999097771MD1710041+9999MW1021REMSYN082AAXX  17001 35173 41998 83604 11103 21103 39777 40172 57004 70272 8802/ 555 1/113;
0200351730999992000031703004+51620+069800FM-12+031299999V0203601N002019999999N0040001N1-00981+99999101801ADDAA112002091AJ100299199999999AY171031AY221031GF108991081001999999021999IA1249MD1310081+9999MW1711REMSYN092AAXX  17031 35173 /1996 83602 11098 40180 53008 77172 8802/ 333 48029 555 21105 60022 7002/;
0180351730999992000031706004+51620+069800FM-12+031299999V0200201N008019999999N0040001N1-00791-00891101871ADDAA100002091AY171061AY231061GF108991081001999999021999KA1999N-01051MD1210101+9999MW1711REMSYN082AAXX  17061 35173 11996 80208 11079 21089 40187 52010 60020 77173 8802/ 333 21105;
0140351730999992000031709004+51620+069800FM-12+031299999V0203401N008010300019N0040001N1-00591-00781102101ADDAY171031AY231031GF108991011071008001011999MD1210251+9999MW1361REMSYN066AAXX  17091 35173 41596 83408 11059 21078 40210 52025 73673 8171/;
0171351730999992000031712004+51620+069800FM-12+031299999V0203201N004019999999N0040001N1-00531-00781102291ADDAY171061AY231061GF108991081001999999011999MA1999999098391MD1210191+9999MW1021REMSYN082AAXX  17121 35173 41996 83204 11053 21078 39839 40229 52019 70273 8801/ 555 1/106;
0145351730999992000031715004+51620+069800FM-12+031299999V0203401N002012200019N0200001N1-01011-01071102571ADDGF101991011001999999041001KA1120M-00471MD1210201+9999REMSYN080AAXX  17151 35173 /2998 13402 11101 21107 40257 52020 81040 333 11047 555 69922;
0152351730999992000031718004+51620+069800FM-12+031299999V0202901N002019999999N0200001N1-01441-01441102851ADDAA100000191GF105991001001999999001021KA1999M-00471MD1210211+9999REMSYN076AAXX  17181 35173 12998 52902 11144 21144 40285 52021 69920 80002 333 11047;
0122351730999992000031721004+51620+069800FM-12+031299999V0209999C000012200019N0200001N1-01811-01811103031ADDGA1001+999999999GF100991001001999999001001MD1210111+9999REMSYN054AAXX  17211 35173 42998 00000 11181 21181 40303 52011;
0153351730999992000031800004+51620+069800FM-12+031299999V0209999C000012200019N0200001N1-01891-01951103121ADDGA1001+999999999GF100991001001999999001001MA1999999098981MD1210071+9999REMSYN070AAXX  18001 35173 42998 00000 11189 21195 39898 40312 52007 555 1/120;
0206351730999992000031803004+51620+069800FM-12+031299999V0202501N002019999999N0040001N1-01591-01591103141ADDAA112000291AJ100299199999999AY171031AY211031GF108991081001999999021999IA1249MD1210071+9999MW1711REMSYN098AAXX  18031 35173 /1996 82502 11159 21159 40314 52007 77171 8802/ 333 48029 555 21192 69922 7994/;
0190351730999992000031806004+51620+069800FM-12+031299999V0202501N004012200019N0040001N1-01531-01591103241ADDAA100000191AY171061AY211061GA1001+999999999GF100991001001999999001001KA1999N-01921MD1210101+9999MW1021REMSYN076AAXX  18061 35173 11996 02504 11153 21159 40324 52010 69920 70271 333 21192;
0122351730999992000031809004+51620+069800FM-12+031299999V0202501N004012200019N0040001N1-01251-01381103191ADDGA1001+999999999GF100991001001999999001001MD1210011+9999REMSYN054AAXX  18091 35173 42996 02504 11125 21138 40319 52001;
0153351730999992000031812004+51620+069800FM-12+031299999V0202501N002012200019N0040001N1-01171-01371103241ADDGA1001+999999999GF100991001001999999001001MA1999999099211MD1210051+9999REMSYN070AAXX  18121 35173 42996 02502 11117 21137 39921 40324 52005 555 1/110;
0145351730999992000031815004+51620+069800FM-12+031299999V0202501N002019999999N0200001N1-01551-01611103371ADDGF106991001001999999001071KA1120M-00961MD1210071+9999REMSYN080AAXX  18151 35173 /2998 62502 11155 21161 40337 52007 80007 333 11096 555 69902;
0152351730999992000031818004+51620+069800FM-12+031299999V0202701N002012200019N0200001N1-01511-01571103451ADDAA100000791GF103991001001999999001081KA1999M-00961MD1210081+9999REMSYN076AAXX  18181 35173 12998 32702 11151 21157 40345 52008 69900 80008 333 11096;
0122351730999992000031821004+51620+069800FM-12+031299999V0209999C000012200019N0200001N1-01641-01701103461ADDGA1001+999999999GF100991001001999999001001MD1810011+9999REMSYN054AAXX  18211 35173 42998 00000 11164 21170 40346 58001;
0171351730999992000031900004+51620+069800FM-12+031299999V0202701N002019999999N0200001N1-01551-01611103461ADDAY111061AY211061GF108991001001999999001071MA1999999099371MD1310021+9999MW1101REMSYN082AAXX  19001 35173 41998 82702 11155 21161 39937 40346 53002 71011 80007 555 1/117;
0201351730999992000031903004+51620+069800FM-12+031299999V0209999C000012200019N0040001N1-01481-01541103521ADDAA199000091AJ100299199999999GA1001+999999999GF100991001001999999001001IA1249MD1210061+9999REMSYN080AAXX  19031 35173 32996 00000 11148 21154 40352 52006 333 48029 555 21167 7990/;EQDQ01  00002PRCP99
0175351730999992000031906004+51620+069800FM-12+031299999V0203201N002012200019N0040001N1-01201-01331103641ADDAA199000091GA1001+999999999GF100991001001999999001001KA1999N-01671MD1210161+9999REMSYN064AAXX  19061 35173 32996 03202 11120 21133 40364 52016 333 21167;EQDQ01  00002PRCP99
0122351730999992000031909004+51620+069800FM-12+031299999V0203201N002012200019N0040001N1-00961-01481103631ADDGA1001+999999999GF100991001001999999001001MD1210031+9999REMSYN054AAXX  19091 35173 42996 03202 11096 21148 40363 52003;
0153351730999992000031912004+51620+069800FM-12+031299999V0202701N002012200019N0040001N1-01031-01311103681ADDGA1001+999999999GF100991001001999999001001MA1999999099661MD1210041+9999REMSYN070AAXX  19121 35173 42996 02702 11103 21131 39966 40368 52004 555 1/107;
0175351730999992000031915004+51620+069800FM-12+031299999V0209999C000012200019N0200001N1-01751-01811103881ADDAA199000091GA1001+999999999GF100991001001999999001001KA1999M-00891MD1210081+9999REMSYN064AAXX  19151 35173 32998 00000 11175 21181 40388 52008 333 11089;EQDQ01  00002PRCP99
0175351730999992000031918004+51620+069800FM-12+031299999V0209999C000012200019N0200001N1-02071-02131103991ADDAA199000091GA1001+999999999GF100991001001999999001001KA1999M-00891MD1210041+9999REMSYN064AAXX  19181 35173 32998 00000 11207 21213 40399 52004 333 11089;EQDQ01  00002PRCP99
0153351730999992000032000004+51620+069800FM-12+031299999V0209999C000012200019N0200001N1-02331-02391104051ADDGA1001+999999999GF100991001001999999001001MA1999999099811MD1310031+9999REMSYN070AAXX  20001 35173 42998 00000 11233 21239 39981 40405 53003 555 1/127;
0229351730999992000032003004+51620+069800FM-12+031299999V0209999C000012200019N0020001N1-02311-02361104111ADDAA199000091AJ100299199999999AY101031AY201031GA1001+999999999GF100991001001999999001001IA1249MD1210061+9999MW1101REMSYN086AAXX  20031 35173 31995 00000 11231 21236 40411 52006 71000 333 48029 555 21237 7000/;EQDQ01  00002PRCP99
0193351730999992000032006004+51620+069800FM-12+031299999V0202301N002019999999N0040001N1-01731-01791104131ADDAA199000091AY141061AY211061GF105991001001999999001011KA1999N-02371MD1210111+9999MW1021REMSYN076AAXX  20061 35173 31996 52302 11173 21179 40413 52011 70241 80001 333 21237;EQDQ01  00002PRCP99
0112351730999992000032009004+51620+069800FM-12+031299999V0202301N002019999999N0040001N1-01241-01371104031ADDGF108991081001999999011999MD1810021+9999REMSYN060AAXX  20091 35173 42996 82302 11124 21137 40403 58002 8801/;
0153351730999992000032012004+51620+069800FM-12+031299999V0202701N002012200019N0040001N1-01021-01221103971ADDGA1001+999999999GF100991001001999999001001MA1999999099941MD1710021+9999REMSYN070AAXX  20121 35173 42996 02702 11102 21122 39994 40397 57002 555 1/110;
0165351730999992000032015004+51620+069800FM-12+031299999V0202301N002012200019N0200001N1-01451-01511104001ADDAA199000091GF103991031001999999071001KA1999M-00941MD1710041+9999REMSYN070AAXX  20151 35173 32998 32302 11145 21151 40400 57004 83070 333 11094;EQDQ01  00002PRCP99
0165351730999992000032018004+51620+069800FM-12+031299999V0202301N004012200019N0200001N1-01451-01511103981ADDAA199000091GF103991001001999999001071KA1999M-00941MD1710011+9999REMSYN070AAXX  20181 35173 32998 32304 11145 21151 40398 57001 80007 333 11094;EQDQ01  00002PRCP99
0112351730999992000032021004+51620+069800FM-12+031299999V0202301N002019999999N0200001N1-01541-01541103881ADDGF106991001001999999001071MD1710121+9999REMSYN060AAXX  20211 35173 42998 62302 11154 21154 40388 57012 80007;
0143351730999992000032100004+51620+069800FM-12+031299999V0202301N002019999999N0200001N1-01491-01551103821ADDGF108991081001999999021999MA1999999099711MD1710061+9999REMSYN076AAXX  21001 35173 42998 82302 11149 21155 39971 40382 57006 8802/ 555 1/117;
0191351730999992000032103004+51620+069800FM-12+031299999V0201801N002019999999N0040001N1-01391-01591103731ADDAA199000091AJ100299199999999GF105991001001999999001081IA1249MD1710061+9999REMSYN086AAXX  21031 35173 32996 51802 11139 21159 40373 57006 80008 333 48029 555 21157 7000/;EQDQ01  00002PRCP99
0165351730999992000032106004+51620+069800FM-12+031299999V0202001N004019999999N0040001N1-01021-01301103641ADDAA199000091GF106991001001999999001081KA1999N-01571MD1710031+9999REMSYN070AAXX  21061 35173 32996 62004 11102 21130 40364 57003 80008 333 21157;EQDQ01  00002PRCP99
0112351730999992000032109004+51620+069800FM-12+031299999V0202301N006012200019N0040001N1-00571-00951103451ADDGF102991001001999999001011MD1710121+9999REMSYN060AAXX  21091 35173 42996 22306 11057 21095 40345 57012 80001;
0153351730999992000032112004+51620+069800FM-12+031299999V0202301N004012200019N0040001N1-00611-00841103361ADDGA1001+999999999GF100991001001999999001001MA1999999099411MD1710091+9999REMSYN070AAXX  21121 35173 42996 02304 11061 21084 39941 40336 57009 555 1/105;
0175351730999992000032115004+51620+069800FM-12+031299999V0201801N002012200019N0200001N1-01101-01231103421ADDAA199000091GA1001+999999999GF100991001001999999001001KA1999M-00541MD1710021+9999REMSYN064AAXX  21151 35173 32998 01802 11110 21123 40342 57002 333 11054;EQDQ01  00002PRCP99
0175351730999992000032118004+51620+069800FM-12+031299999V0202001N002012200019N0200001N1-01411-01471103471ADDAA199000091GA1001+999999999GF100991001001999999001001KA1999M-00541MD1310011+9999REMSYN064AAXX  21181 35173 32998 02002 11141 21147 40347 53001 333 11054;EQDQ01  00002PRCP99
0122351730999992000032121004+51620+069800FM-12+031299999V0209999C000012200019N0200001N1-01541-01601103511ADDGA1001+999999999GF100991001001999999001001MD1210021+9999REMSYN054AAXX  21211 35173 42998 00000 11154 21160 40351 52002;
0153351730999992000032200004+51620+069800FM-12+031299999V0201801N002012200019N0200001N1-01471-01741103471ADDGA1001+999999999GF100991001001999999001001MA1999999099381MD1810041+9999REMSYN070AAXX  22001 35173 42998 01802 11147 21174 39938 40347 58004 555 1/117;
0201351730999992000032203004+51620+069800FM-12+031299999V0201801N004012200019N0040001N1-01491-01761103431ADDAA199000091AJ100299199999999GA1001+999999999GF100991001001999999001001IA1249MD1710041+9999REMSYN080AAXX  22031 35173 32996 01804 11149 21176 40343 57004 333 48029 555 21156 7000/;EQDQ01  00002PRCP99
0175351730999992000032206004+51620+069800FM-12+031299999V0201801N004012200019N0040001N1-01041-01401103361ADDAA199000091GA1001+999999999GF100991001001999999001001KA1999N-01561MD1310011+9999REMSYN064AAXX  22061 35173 32996 01804 11104 21140 40336 53001 333 21156;EQDQ01  00002PRCP99
0122351730999992000032209004+51620+069800FM-12+031299999V0201601N004012200019N0040001N1-00521-00851103201ADDGA1001+999999999GF100991001001999999001001MD1810081+9999REMSYN054AAXX  22091 35173 42996 01604 11052 21085 40320 58008;
0153351730999992000032212004+51620+069800FM-12+031299999V0201801N002012200019N0040001N1-00351-00671103131ADDGA1001+999999999GF100991001001999999001001MA1999999099231MD1710041+9999REMSYN070AAXX  22121 35173 42996 01802 11035 21067 39923 40313 57004 555 1/103;
0175351730999992000032215004+51620+069800FM-12+031299999V0201801N002012200019N0200001N1-00781-00961103131ADDAA199000091GA1001+999999999GF100991001001999999001001KA1999M-00271MD1710071+9999REMSYN064AAXX  22151 35173 32998 01802 11078 21096 40313 57007 333 11027;EQDQ01  00002PRCP99
0175351730999992000032218004+51620+069800FM-12+031299999V0201601N004012200019N0200001N1-00821-01051102991ADDAA199000091GA1001+999999999GF100991001001999999001001KA1999M-00271MD1710131+9999REMSYN064AAXX  22181 35173 32998 01604 11082 21105 40299 57013 333 11027;EQDQ01  00002PRCP99
0112351730999992000032221004+51620+069800FM-12+031299999V0201601N004012200019N0200001N1-00861-01141102811ADDGF103991001001999999001011MD1710081+9999REMSYN060AAXX  22211 35173 42998 31604 11086 21114 40281 57008 80001;
0143351730999992000032300004+51620+069800FM-12+031299999V0201801N004012200019N0200001N1-00881-01121102681ADDGF102991001001999999001081MA1999999098701MD1710151+9999REMSYN076AAXX  23001 35173 42998 21804 11088 21112 39870 40268 57015 80008 555 1/113;
0191351730999992000032303004+51620+069800FM-12+031299999V0201801N006012200019N0040001N1-00691-01061102481ADDAA199000091AJ100289199999999GF101991001001999999001011IA1249MD1710161+9999REMSYN086AAXX  23031 35173 32996 11806 11069 21106 40248 57016 80001 333 48028 555 21091 7000/;EQDQ01  00002PRCP99
0175351730999992000032306004+51620+069800FM-12+031299999V0201801N006012200019N0040001N1-00421-00761102351ADDAA199000091GA1001+999999999GF100991001001999999001001KA1999N-00911MD1710071+9999REMSYN064AAXX  23061 35173 32996 01806 11042 21076 40235 57007 333 21091;EQDQ01  00002PRCP99
0122351730999992000032309004+51620+069800FM-12+031299999V0201801N006012200019N0040001N1-00051-00361102021ADDGA1001+999999999GF100991001001999999001001MD1710261+9999REMSYN054AAXX  23091 35173 42996 01806 11005 21036 40202 57026;
0143351730999992000032312004+51620+069800FM-12+031299999V0201601N004019999999N0040001N1+00101-00041101781ADDGF106991001001999999001081MA1999999098001MD1710211+9999REMSYN076AAXX  23121 35173 42996 61604 10010 21004 39800 40178 57021 80008 555 1/000;
0165351730999992000032315004+51620+069800FM-12+031299999V0201601N004019999999N0200001N1-00041-00191101631ADDAA199000091GF107991071001999999071001KA1999M+00331MD1710171+9999REMSYN070AAXX  23151 35173 32998 71604 11004 21019 40163 57017 87070 333 10033;EQDQ01  00002PRCP99
0181351730999992000032318004+51620+069800FM-12+031299999V0201401N004019999999N0200001N1-00121-00251999999ADDAA199000091GF106991061001999999011001KA1999M+00331MD1710161+9999REMSYN070AAXX  23181 35173 32998 61404 11012 21025 40448 57016 86010 333 10033;EQDQ01+104483APOSLPQ02  00002PRCP99
0143351730999992000032400004+51620+069800FM-12+031299999V0201401N002019999999N0200001N1-00311-00311101311ADDGF108991081001999999071999MA1999999097481MD1710061+9999REMSYN076AAXX  24001 35173 42998 81402 11031 21031 39748 40131 57006 8807/ 555 1/104;
0191351730999992000032403004+51620+069800FM-12+031299999V0201601N002019999999N0040001N1-00101-00141101141ADDAA199000091AJ100279199999999GF108991081001999999071999IA1289MD1710121+9999REMSYN086AAXX  24031 35173 32996 81602 11010 21014 40114 57012 8807/ 333 44027 555 21034 7000/;EQDQ01  00002PRCP99
0165351730999992000032406004+51620+069800FM-12+031299999V0201601N002019999999N0040001N1+00181+00071101031ADDAA199000091GF108991081001999999021999KA1999N-00321MD1710081+9999REMSYN070AAXX  24061 35173 32996 81602 10018 20007 40103 57008 8802/ 333 21032;EQDQ01  00002PRCP99
0166351730999992000032409004+51620+069800FM-12+031299999V0202501N002010087019N0040001N1+00351+00081101051ADDAY161031AY221031GA1081+008709059GF108991081051008001999999MD1310041+9999MW1021REMSYN076AAXX  24091 35173 41596 82502 10035 20008 40105 53004 70262 885// 333 88629;
0181351730999992000032412004+51620+069800FM-12+031299999V0203401N002012200019N0040001N1+00221+00091101321ADDAY161061AY211061GA1001+999999999GF100991001001999999001001MA1999999097571MD1210251+9999MW1011REMSYN076AAXX  24121 35173 41996 03402 10022 20009 39757 40132 52025 70161 555 1/002;
0145351730999992000032415004+51620+069800FM-12+031299999V0203201N004019999999N0200001N1+00061+00011101621ADDGF108991081001999999071999KA1120M+00431MD1210261+9999REMSYN080AAXX  24151 35173 /2998 83204 10006 20001 40162 52026 8807/ 333 10043 555 69912;
0229351730999992000032503004+51620+069800FM-12+031299999V0209999C000010003019N0002001N1-00511-00581102321ADDAA199000091AJ100269199999999AY141031AY241031GA1091+999999999GF109991091999999999999999IA1249MD1710171+9999MW1491REMSYN086AAXX  25031 35173 31/92 90000 11051 21058 40232 57017 74944 333 48026 555 21052 7991/;EQDQ01  00002PRCP99
0203351730999992000032506004+51620+069800FM-12+031299999V0202001N002012200019N0040001N1-00311-00381102471ADDAA199000091AY141061AY211061GA1001+999999999GF100991001001999999001001KA1999N-00521MD1210171+9999MW1021REMSYN070AAXX  25061 35173 31996 02002 11031 21038 40247 52017 70241 333 21052;EQDQ01  00002PRCP99
0138351730999992000032509004+51620+069800FM-12+031299999V0201401N002010024019N0040001N1-00021-00141102361ADDGA1081+002409069GF108991081061002501999999MD1810061+9999REMSYN070AAXX  25091 35173 41396 81402 11002 21014 40236 58006 886// 333 88708;
0181351730999992000032512004+51620+069800FM-12+031299999V0200901N002010003019N0002001N1-00201-00231102251ADDAY141061AY211061GA1091+999999999GF109991091999999999999999MA1999999098401MD1710131+9999MW1471REMSYN076AAXX  25121 35173 41/92 90902 11020 21023 39840 40225 57013 74741 555 1/100;
0203351730999992000032515004+51620+069800FM-12+031299999V0200901N002010001519N0001001N1-00301-00301102061ADDAA199000091AY141031AY241031GA1091+999999999GF109991091999999999999999KA1999M+00061MD1710201+9999MW1491REMSYN070AAXX  25151 35173 31/91 90902 11030 21030 40206 57020 74944 333 10006;EQDQ01  00002PRCP99
0193351730999992000032518004+51620+069800FM-12+031299999V0200701N004019999999N0200001N1-00171-00281101701ADDAA199000091AY141061AY221061GF108991081001999999021999KA1999M+00061MD1710321+9999MW1021REMSYN076AAXX  25181 35173 31998 80704 11017 21028 40170 57032 70242 8802/ 333 10006;EQDQ01  00002PRCP99
0174351730999992000032606004+51620+069800FM-12+031299999V0201401N008010039019N0040001N1+00241+00161100111ADDAA100001091GA1081+003909069GF108991081071004501999999KA1120N-00341MD1310201+9999REMSYN082AAXX  26061 35173 12496 81408 10024 20016 40011 53020 60010 887// 333 21034 88713;
0138351730999992000032609004+51620+069800FM-12+031299999V0202301N010010039019N0040001N1+00301+00221100021ADDGA1081+003909069GF108991081071004501999999MD1810071+9999REMSYN070AAXX  26091 35173 42496 82310 10030 20022 40002 58007 887// 333 88713;
0186351730999992000032612004+51620+069800FM-12+031299999V0202701N012010036019N0040001N1+00131-00021100491ADDGA1081+003609079GF108991081071004501999999MA1999999096761MD1310431+9999OA140101601REMSYN092AAXX  26121 35173 42496 82712 10013 21002 39676 40049 53043 887// 333 88712 91016 555 1/001;
0193351730999992000032615004+51620+069800FM-12+031299999V0202301N008010027019N0200001N1+00081-00061101021ADDAA199000091GA1081+002709079GF108991081071002501999999KA1120M+00381MD1210491+9999REMSYN082AAXX  26151 35173 32398 82308 10008 21006 40102 52049 887// 333 10038 88709 91116;EQDQ01  00002PRCP99
0184351730999992000032703004+51620+069800FM-12+031299999V0202301N008010036019N0040001N1-00171-00441101411ADDAA199000091GA1081+003609079GF108991081071004501999999MD1310041+9999REMSYN086AAXX  27031 35173 32496 82308 11017 21044 40141 53004 887// 333 88712 555 21020 7000/;EQDQ01  00002PRCP99
0187351730999992000032706004+51620+069800FM-12+031299999V0202701N010010081019N0040001N1-00141-00471101531ADDAA199000091GA1061+008109029GF106991061021008001001001KA1120N-00201MD1210111+9999REMSYN076AAXX  27061 35173 32596 62710 11014 21047 40153 52011 86200 333 21020 86827;EQDQ01  00002PRCP99
0138351730999992000032709004+51620+069800FM-12+031299999V0202501N010010087019N0040001N1-00081-00361101761ADDGA1061+008709029GF106991061021008001001001MD1210241+9999REMSYN070AAXX  27091 35173 42596 62510 11008 21036 40176 52024 86200 333 86829;
0143351730999992000032712004+51620+069800FM-12+031299999V0202501N010012200019N0040001N1-00111-00501102041ADDGF102991021011008001001001MA1999999098211MD1210261+9999REMSYN076AAXX  27121 35173 42596 22510 11011 21050 39821 40204 52026 82100 555 1/101;
0187351730999992000032715004+51620+069800FM-12+031299999V0202501N010010099019N0200001N1-00351-00531102421ADDAA199000091GA1051+009909029GF105991051011008001001001KA1120M+00041MD1210331+9999REMSYN076AAXX  27151 35173 32598 52510 11035 21053 40242 52033 85100 333 10004 85833;EQDQ01  00002PRCP99
0175351730999992000032718004+51620+069800FM-12+031299999V0202501N008012200019N0200001N1-00431-00551102641ADDAA199000091GA1001+999999999GF100991001001999999001001KA1999M+00041MD1210201+9999REMSYN064AAXX  27181 35173 32998 02508 11043 21055 40264 52020 333 10004;EQDQ01  00002PRCP99
0138351730999992000032721004+51620+069800FM-12+031299999V0202301N008010075019N0200001N1-00311-00451102651ADDGA1071+007509059GF107991071051008001001001MD1210021+9999REMSYN070AAXX  27211 35173 42598 72308 11031 21045 40265 52002 87500 333 87625;
0190351730999992000032800004+51620+069800FM-12+031299999V0202301N008010042019N0010001N1-00291-00331102611ADDAY171061AY231061GF108991999071004501021999MA1999999098741MD1810021+9999MW1711REMSYN082AAXX  28001 35173 41494 82308 11029 21033 39874 40261 58002 77173 8872/ 555 1/105;EQDQ01+000082SCOTLC
0206351730999992000032803004+51620+069800FM-12+031299999V0202701N004012200019N0040001N1-00221-00311102771ADDAA112000991AJ100189199999999AY171031AY231031GF103991031001999999071001IA1249MD1310161+9999MW1011REMSYN098AAXX  28031 35173 /1996 32704 11022 21031 40277 53016 70173 83070 333 48018 555 21048 69992 7999/;
0180351730999992000032806004+51620+069800FM-12+031299999V0202701N004019999999N0040001N1-00111-00341102931ADDAA100001091AY171061AY231061GF106991061001999999011001KA1999N-00481MD1210171+9999MW1031REMSYN082AAXX  28061 35173 11996 62704 11011 21034 40293 52017 69990 70373 86010 333 21048;
0138351730999992000032809004+51620+069800FM-12+031299999V0202701N004010081019N0040001N1-00041-00421102941ADDGA1071+008109059GF107991071051008001001001MD1210021+9999REMSYN070AAXX  28091 35173 42596 72704 11004 21042 40294 52002 87500 333 87627;
0143351730999992000032812004+51620+069800FM-12+031299999V0202701N002010300019N0040001N1+00011-00351102921ADDGF106991031051008001041001MA1999999099081MD1810011+9999REMSYN076AAXX  28121 35173 42596 62702 10001 21035 39908 40292 58001 83540 555 1/001;
0175351730999992000032815004+51620+069800FM-12+031299999V0202701N002012200019N0200001N1-00551-00691103111ADDAA199000091GA1001+999999999GF100991001001999999001001KA1999M+00211MD1310101+9999REMSYN064AAXX  28151 35173 32998 02702 11055 21069 40311 53010 333 10021;EQDQ01  00002PRCP99
0175351730999992000032818004+51620+069800FM-12+031299999V0209999C000012200019N0200001N1-00881-00951103251ADDAA199000091GA1001+999999999GF100991001001999999001001KA1999M+00211MD1210081+9999REMSYN064AAXX  28181 35173 32998 00000 11088 21095 40325 52008 333 10021;EQDQ01  00002PRCP99
0181351730999992000032900004+51620+069800FM-12+031299999V0201801N002012200019N0010001N1-01091-01151103421ADDAY101061AY201061GA1001+999999999GF100991001001999999001001MA1999999099391MD1210031+9999MW1101REMSYN076AAXX  29001 35173 41994 01802 11109 21115 39939 40342 52003 71000 555 1/114;
0241351730999992000032903004+51620+069800FM-12+031299999V0201801N002010021019N0020001N1-01111-01111103501ADDAA199000091AJ100179199999999AY111031AY211031GA1081+002109079GF108991081061002501999999IA1289MD1210081+9999MW1101REMSYN098AAXX  29031 35173 31395 81802 11111 21111 40350 52008 71011 886// 333 44017 88707 555 21120 7000/;EQDQ01  00002PRCP99
0193351730999992000032906004+51620+069800FM-12+031299999V0201601N004019999999N0020001N1-00891-00961103271ADDAA199000091AY111061AY211061GF108991081001999999011999KA1999N-01201MD1810191+9999MW1101REMSYN076AAXX  29061 35173 31995 81604 11089 21096 40327 58019 71011 8801/ 333 21120;EQDQ01  00002PRCP99
0159351730999992000032909004+51620+069800FM-12+031299999V0201601N006010042019N0040001N1-00411-00571102851ADDAY171031AY221031GF108991999071004501021999MD1710331+9999MW1711REMSYN066AAXX  29091 35173 41496 81606 11041 21057 40285 57033 77172 8872/;EQDQ01+000082SCOTLC
0197351730999992000032912004+51620+069800FM-12+031299999V0201801N006010069019N0040001N1-00141-00251102491ADDAY171061AY231061GA1081+006909069GF108991081051008001999999MA1999999098641MD1710311+9999MW1021REMSYN092AAXX  29121 35173 41596 81806 11014 21025 39864 40249 57031 70273 885// 333 88623 555 1/001;
0199351730999992000032918004+51620+069800FM-12+031299999V0202701N006010042019N0010001N1-00021-00021102221ADDAA100000591AY171061AY221061GF108991999071004501021999KA1999M+00061MD1710011+9999MW1731REMSYN082AAXX  29181 35173 11494 82706 11002 21002 40222 57001 69960 77372 8872/ 333 10006;EQDQ01+000082SCOTLC
0150351730999992000032921004+51620+069800FM-12+031299999V0202901N002012200019N0200001N1-00991-01071102601ADDAY171031AY211031GA1001+999999999GF100991001001999999001001MD1310221+9999MW1011REMSYN060AAXX  29211 35173 41998 02902 11099 21107 40260 53022 70171;
0181351730999992000033000004+51620+069800FM-12+031299999V0209999C000012200019N0200001N1-01441-01571102751ADDAY171061AY211061GA1001+999999999GF100991001001999999001001MA1999999098701MD1210081+9999MW1021REMSYN076AAXX  30001 35173 41998 00000 11144 21157 39870 40275 52008 70271 555 1/118;
0216351730999992000033003004+51620+069800FM-12+031299999V0202001N002010003019N0002001N1-01511-01641102811ADDAA112001091AJ100199199999999AY141031AY211031GA1091+999999999GF109991091999999999999999IA1249MD1210041+9999MW1491REMSYN092AAXX  30031 35173 /1/92 92002 11151 21164 40281 52004 74941 333 48019 555 21154 60012 7002/;
0180351730999992000033006004+51620+069800FM-12+031299999V0202301N002019999999N0040001N1-01071-01201102861ADDAA100001091AY141061AY211061GF105991001001999999001061KA1999N-01541MD1210111+9999MW1021REMSYN082AAXX  30061 35173 11996 52302 11107 21120 40286 52011 60010 70241 80006 333 21154;
0112351730999992000033009004+51620+069800FM-12+031299999V0202501N002019999999N0040001N1-00651-00891102661ADDGF105991001001999999001061MD1810121+9999REMSYN060AAXX  30091 35173 42996 52502 11065 21089 40266 58012 80006;
0143351730999992000033012004+51620+069800FM-12+031299999V0202501N002012200019N0040001N1-00391-00721102521ADDGF102991001001999999001041MA1999999098631MD1710101+9999REMSYN076AAXX  30121 35173 42996 22502 11039 21072 39863 40252 57010 80004 555 1/101;
0175351730999992000033015004+51620+069800FM-12+031299999V0209999C000012200019N0200001N1-00781-00921102491ADDAA199000091GA1001+999999999GF100991001001999999001001KA1999M-00291MD1710091+9999REMSYN064AAXX  30151 35173 32998 00000 11078 21092 40249 57009 333 11029;EQDQ01  00002PRCP99
0175351730999992000033018004+51620+069800FM-12+031299999V0201801N002012200019N0200001N1-01031-01091102451ADDAA199000091GA1001+999999999GF100991001001999999001001KA1999M-00291MD1710061+9999REMSYN064AAXX  30181 35173 32998 01802 11103 21109 40245 57006 333 11029;EQDQ01  00002PRCP99
0150351730999992000033021004+51620+069800FM-12+031299999V0209999C000010001519N0001001N1-01321-01381102361ADDAY141031AY211031GA1091+999999999GF109991091999999999999999MD1710141+9999MW1491REMSYN060AAXX  30211 35173 41/91 90000 11132 21138 40236 57014 74941;
0181351730999992000033100004+51620+069800FM-12+031299999V0209999C000012200019N0200001N1-01511-01571102261ADDAY141061AY211061GA1001+999999999GF100991001001999999001001MA1999999098221MD1710121+9999MW1281REMSYN076AAXX  31001 35173 41998 00000 11151 21157 39822 40226 57012 72841 555 1/117;
0201351730999992000033103004+51620+069800FM-12+031299999V0209999C000012200019N0040001N1-01281-01481102191ADDAA199000091AJ100199199999999GA1001+999999999GF100991001001999999001001IA1249MD1710041+9999REMSYN080AAXX  31031 35173 32996 00000 11128 21148 40219 57004 333 48019 555 21154 7000/;EQDQ01  00002PRCP99
0165351730999992000033106004+51620+069800FM-12+031299999V0209999C000019999999N0040001N1-00731-00861102091ADDAA199000091GF108991081001999999021999KA1999N-01541MD1710011+9999REMSYN070AAXX  31061 35173 32996 80000 11073 21086 40209 57001 8802/ 333 21154;EQDQ01  00002PRCP99
0122351730999992000033109004+51620+069800FM-12+031299999V0202701N002012200019N0040001N1-00401-00701101981ADDGA1001+999999999GF100991001001999999001001MD1710061+9999REMSYN054AAXX  31091 35173 42996 02702 11040 21070 40198 57006;
0143351730999992000033112004+51620+069800FM-12+031299999V0202501N002012200019N0040001N1-00321-00671101931ADDGF102991001001999999001011MA1999999098081MD1710031+9999REMSYN076AAXX  31121 35173 42996 22502 11032 21067 39808 40193 57003 80001 555 1/002;
0165351730999992000033115004+51620+069800FM-12+031299999V0202501N002019999999N0200001N1-00651-00851101921ADDAA199000091GF106991031001999999071051KA1999M-00191MD1710051+9999REMSYN070AAXX  31151 35173 32998 62502 11065 21085 40192 57005 83075 333 11019;EQDQ01  00002PRCP99
0175351730999992000033118004+51620+069800FM-12+031299999V0202301N002012200019N0200001N1-00811-00911101961ADDAA199000091GA1001+999999999GF100991001001999999001001KA1999M-00191MD1310011+9999REMSYN064AAXX  31181 35173 32998 02302 11081 21091 40196 53001 333 11019;EQDQ01  00002PRCP99
0112351730999992000033121004+51620+069800FM-12+031299999V0202501N002019999999N0200001N1-00431-00521101811ADDGF108991081001999999071999MD1810091+9999REMSYN060AAXX  31211 35173 42998 82502 11043 21052 40181 58009 8807/;
0143351730999992000040100004+51620+069800FM-12+031299999V0202501N004019999999N0200001N1-00551-00591101811ADDGF106991061001999999071001MA1999999097931MD1710021+9999REMSYN076AAXX  01001 35173 42998 62504 11055 21059 39793 40181 57002 86070 555 1/107;
0201351730999992000040103004+51620+069800FM-12+031299999V0202701N002012200019N0040001N1-00391-00541101881ADDAA199000091AJ100189199999999GA1001+999999999GF100991001001999999001001IA1289MD1310091+9999REMSYN080AAXX  01031 35173 32996 02702 11039 21054 40188 53009 333 44018 555 21085 7000/;EQDQ01  00002PRCP99
0187351730999992000040106004+51620+069800FM-12+031299999V0202701N004010072019N0040001N1-00071-00421101981ADDAA199000091GA1051+007209059GF105991051051008001001001KA1120N-00851MD1210151+9999REMSYN076AAXX  01061 35173 32596 52704 11007 21042 40198 52015 85500 333 21085 85624;EQDQ01  00002PRCP99
0112351730999992000040109004+51620+069800FM-12+031299999V0202701N004012200019N0040001N1+00041-00271102141ADDGF102991021051008001001001MD1210161+9999REMSYN060AAXX  01091 35173 42596 22704 10004 21027 40214 52016 82500;
0153351730999992000040112004+51620+069800FM-12+031299999V0202701N004012200019N0040001N1+00101-00191102321ADDGA1001+999999999GF100991001001999999001001MA1999999098521MD1210191+9999REMSYN070AAXX  01121 35173 42996 02704 10010 21019 39852 40232 52019 555 1/002;
0175351730999992000040115004+51620+069800FM-12+031299999V0202701N002012200019N0200001N1-00261-00321102531ADDAA199000091GA1001+999999999GF100991001001999999001001KA1999M+00201MD1210151+9999REMSYN064AAXX  01151 35173 32998 02702 11026 21032 40253 52015 333 10020;EQDQ01  00002PRCP99
0175351730999992000040118004+51620+069800FM-12+031299999V0209999C000012200019N0200001N1-00521-00551102781ADDAA199000091GA1001+999999999GF100991001001999999001001KA1999M+00201MD1210191+9999REMSYN064AAXX  01181 35173 32998 00000 11052 21055 40278 52019 333 10020;EQDQ01  00002PRCP99
0122351730999992000040121004+51620+069800FM-12+031299999V0209999C000012200019N0200001N1-00611-00651102901ADDGA1001+999999999GF100991001001999999001001MD1210111+9999REMSYN054AAXX  01211 35173 42998 00000 11061 21065 40290 52011;
0153351730999992000040200004+51620+069800FM-12+031299999V0201801N002012200019N0200001N1-00721-00771103041ADDGA1001+999999999GF100991001001999999001001MA1999999099091MD1210121+9999REMSYN070AAXX  02001 35173 42998 01802 11072 21077 39909 40304 52012 555 1/109;
0201351730999992000040203004+51620+069800FM-12+031299999V0201801N002012200019N0040001N1-00601-00641103121ADDAA199000091AJ100169199999999GA1001+999999999GF100991001001999999001001IA1289MD1210091+9999REMSYN080AAXX  02031 35173 32996 01802 11060 21064 40312 52009 333 44016 555 21075 7000/;EQDQ01  00002PRCP99
0175351730999992000040206004+51620+069800FM-12+031299999V0201801N002012200019N0040001N1+00071-00221103121ADDAA199000091GA1001+999999999GF100991001001999999001001KA1999N-00751MD1210101+9999REMSYN064AAXX  02061 35173 32996 01802 10007 21022 40312 52010 333 21075;EQDQ01  00002PRCP99
0122351730999992000040209004+51620+069800FM-12+031299999V0200501N002012200019N0040001N1+00321-00061103091ADDGA1001+999999999GF100991001001999999001001MD1210011+9999REMSYN054AAXX  02091 35173 42996 00502 10032 21006 40309 52001;
0153351730999992000040212004+51620+069800FM-12+031299999V0200701N002012200019N0040001N1+00201-00051103021ADDGA1001+999999999GF100991001001999999001001MA1999999099211MD1810081+9999REMSYN070AAXX  02121 35173 42996 00702 10020 21005 39921 40302 58008 555 1/001;
0175351730999992000040215004+51620+069800FM-12+031299999V0209999C000012200019N0200001N1+00001-00121102941ADDAA199000091GA1001+999999999GF100991001001999999001001KA1999M+00521MD1710111+9999REMSYN064AAXX  02151 35173 32998 00000 10000 21012 40294 57011 333 10052;EQDQ01  00002PRCP99
0203351730999992000040218004+51620+069800FM-12+031299999V0209999C000012200019N0010001N1-00201-00231102851ADDAA199000091AY101061AY201061GA1001+999999999GF100991001001999999001001KA1999M+00521MD1710121+9999MW1101REMSYN070AAXX  02181 35173 31994 00000 11020 21023 40285 57012 71000 333 10052;EQDQ01  00002PRCP99
0150351730999992000040221004+51620+069800FM-12+031299999V0209999C000012200019N0010001N1-00341-00381102721ADDAY101031AY201031GA1001+999999999GF100991001001999999001001MD1710151+9999MW1101REMSYN060AAXX  02211 35173 41994 00000 11034 21038 40272 57015 71000;
0181351730999992000040300004+51620+069800FM-12+031299999V0209999C000012200019N0010001N1-00671-00721102631ADDAY101061AY201061GA1001+999999999GF100991001001999999001001MA1999999098701MD1710131+9999MW1101REMSYN076AAXX  03001 35173 41994 00000 11067 21072 39870 40263 57013 71000 555 1/110;
0229351730999992000040303004+51620+069800FM-12+031299999V0200901N002012200019N0005001N1-00731-00781102631ADDAA199000091AJ100109199999999AY141031AY211031GA1001+999999999GF100991001001999999001001IA1289MD1710011+9999MW1481REMSYN086AAXX  03031 35173 31993 00902 11073 21078 40263 57001 74841 333 44010 555 21076 7000/;EQDQ01  00002PRCP99
0203351730999992000040306004+51620+069800FM-12+031299999V0209999C000012200019N0040001N1+00221-00061102411ADDAA199000091AY141061AY211061GA1001+999999999GF100991001001999999001001KA1999N-00761MD1710071+9999MW1021REMSYN070AAXX  03061 35173 31996 00000 10022 21006 40241 57007 70241 333 21076;EQDQ01  00002PRCP99
0122351730999992000040309004+51620+069800FM-12+031299999V0202701N002012200019N0040001N1+00331+00041102381ADDGA1001+999999999GF100991001001999999001001MD1710011+9999REMSYN054AAXX  03091 35173 42996 02702 10033 20004 40238 57001;
0143351730999992000040312004+51620+069800FM-12+031299999V0202701N002019999999N0040001N1+00261+00101102451ADDGF105991051001999999031001MA1999999098661MD1310051+9999REMSYN076AAXX  03121 35173 42996 52702 10026 20010 39866 40245 53005 85030 555 1/002;
0165351730999992000040315004+51620+069800FM-12+031299999V0202701N002019999999N0200001N1+00051-00061102571ADDAA199000091GF108991081001999999071999KA1999M+00461MD1210081+9999REMSYN070AAXX  03151 35173 32998 82702 10005 21006 40257 52008 8807/ 333 10046;EQDQ01  00002PRCP99
0175351730999992000040318004+51620+069800FM-12+031299999V0209999C000012200019N0200001N1-00101-00221102631ADDAA199000091GA1001+999999999GF100991001001999999001001KA1999M+00461MD1210031+9999REMSYN064AAXX  03181 35173 32998 00000 11010 21022 40263 52003 333 10046;EQDQ01  00002PRCP99
0122351730999992000040321004+51620+069800FM-12+031299999V0209999C000012200019N0200001N1-00221-00281102911ADDGA1001+999999999GF100991001001999999001001MD1210271+9999REMSYN054AAXX  03211 35173 42998 00000 11022 21028 40291 52027;
0181351730999992000040400004+51620+069800FM-12+031299999V0209999C000012200019N0010001N1-00551-00591103151ADDAY101061AY201061GA1001+999999999GF100991001001999999001001MA1999999099221MD1210181+9999MW1101REMSYN076AAXX  04001 35173 41994 00000 11055 21059 39922 40315 52018 71000 555 1/109;
0229351730999992000040403004+51620+069800FM-12+031299999V0209999C000010003019N0002001N1-00511-00511103371ADDAA199000091AJ100069199999999AY141031AY211031GA1091+999999999GF109991091999999999999999IA1309MD1210211+9999MW1491REMSYN086AAXX  04031 35173 31/92 90000 11051 21051 40337 52021 74941 333 42006 555 21058 7000/;EQDQ01  00002PRCP99
0203351730999992000040406004+51620+069800FM-12+031299999V0202701N002012200019N0040001N1+00011-00071103491ADDAA199000091AY141061AY211061GA1001+999999999GF100991001001999999001001KA1999N-00581MD1210201+9999MW1281REMSYN070AAXX  04061 35173 31996 02702 10001 21007 40349 52020 72841 333 21058;EQDQ01  00002PRCP99
0122351730999992000040409004+51620+069800FM-12+031299999V0209999C000012200019N0040001N1+00541+00161103431ADDGA1001+999999999GF100991001001999999001001MD1210021+9999REMSYN054AAXX  04091 35173 42996 00000 10054 20016 40343 52002;
0153351730999992000040412004+51620+069800FM-12+031299999V0203601N002012200019N0040001N1+00401+00141103451ADDGA1001+999999999GF100991001001999999001001MA1999999099651MD1410001+9999REMSYN070AAXX  04121 35173 42996 03602 10040 20014 39965 40345 54000 555 1/004;
0175351730999992000040415004+51620+069800FM-12+031299999V0209999C000012200019N0200001N1+00121+00011103581ADDAA199000091GA1001+999999999GF100991001001999999001001KA1999M+00721MD1310081+9999REMSYN064AAXX  04151 35173 32998 00000 10012 20001 40358 53008 333 10072;EQDQ01  00002PRCP99
0175351730999992000040418004+51620+069800FM-12+031299999V0209999C000012200019N0200001N1+00081-00031103511ADDAA199000091GA1001+999999999GF100991001001999999001001KA1999M+00721MD1810081+9999REMSYN064AAXX  04181 35173 32998 00000 10008 21003 40351 58008 333 10072;EQDQ01  00002PRCP99
0122351730999992000040421004+51620+069800FM-12+031299999V0209999C000012200019N0200001N1-00291-00331103471ADDGA1001+999999999GF100991001001999999001001MD1710081+9999REMSYN054AAXX  04211 35173 42998 00000 11029 21033 40347 57008;
0181351730999992000040500004+51620+069800FM-12+031299999V0209999C000012200019N0010001N1-00531-00531103381ADDAY101061AY201061GA1001+999999999GF100991001001999999001001MA1999999099441MD1710131+9999MW1101REMSYN076AAXX  05001 35173 41994 00000 11053 21053 39944 40338 57013 71000 555 1/108;
0201351730999992000040503004+51620+069800FM-12+031299999V0209999C000012200019N0040001N1-00221-00251103241ADDAA199000091AJ100019199999999GA1001+999999999GF100991001001999999001001IA1309MD1710091+9999REMSYN080AAXX  05031 35173 32996 00000 11022 21025 40324 57009 333 42001 555 21056 7000/;EQDQ01  00002PRCP99
0165351730999992000040506004+51620+069800FM-12+031299999V0201401N002012200019N0040001N1+00541+00271102971ADDAA199000091GF102991001001999999001011KA1999N-00561MD1710151+9999REMSYN070AAXX  05061 35173 32996 21402 10054 20027 40297 57015 80001 333 21056;EQDQ01  00002PRCP99
0112351730999992000040509004+51620+069800FM-12+031299999V0201601N002012200019N0040001N1+00821+00131102681ADDGF103991001001999999001011MD1710241+9999REMSYN060AAXX  05091 35173 42996 31602 10082 20013 40268 57024 80001;
0162351730999992000040512004+51620+069800FM-12+031299999V0201401N002019999999N0040001N1+99999+99999102481ADDGF106991001001999999001081MA1999999098761MD1710201+9999REMSYN076AAXX  05121 35173 42996 61402 11080 20023 39876 40248 57020 80008 555 1/010;EQDQ01-000803ATOT  
0165351730999992000040515004+51620+069800FM-12+031299999V0209999C000019999999N0200001N1+00411+00181102351ADDAA199000091GF106991021001999999071051KA1999M+01041MD1710171+9999REMSYN070AAXX  05151 35173 32998 60000 10041 20018 40235 57017 82075 333 10104;EQDQ01  00002PRCP99
0175351730999992000040518004+51620+069800FM-12+031299999V0209999C000012200019N0200001N1+00141-00061102181ADDAA199000091GA1001+999999999GF100991001001999999001001KA1999M+01041MD1710201+9999REMSYN064AAXX  05181 35173 32998 00000 10014 21006 40218 57020 333 10104;EQDQ01  00002PRCP99
0122351730999992000040521004+51620+069800FM-12+031299999V0201401N002012200019N0200001N1+00201+00091101941ADDGA1001+999999999GF100991001001999999001001MD1710231+9999REMSYN054AAXX  05211 35173 42998 01402 10020 20009 40194 57023;
0143351730999992000040600004+51620+069800FM-12+031299999V0201401N002012200019N0200001N1+00281+00151101761ADDGF103991031001999999071001MA1999999098011MD1710151+9999REMSYN076AAXX  06001 35173 42998 31402 10028 20015 39801 40176 57015 83070 555 1/101;
0219351730999992000040603004+51620+069800FM-12+031299999V0201401N004012200019N0040001N1+00361+00231101721ADDAA199000091AJ199992999999999GF102991011001999999081011IA1309KA1120N+00121MD1710041+9999REMSYN085AAXX  06031 35173 32996 21404 10036 20023 40172 57004 81081 333 42998 55 20012 7000/;EQDQ01  00002PRCP99Q02  09972SNDP  
0165351730999992000040606004+51620+069800FM-12+031299999V0201401N004019999999N0040001N1+00631+00321101741ADDAA199000091GF106991031001999999081011KA1999N+00121MD1310061+9999REMSYN070AAXX  06061 35173 32996 61404 10063 20032 40174 53006 83081 333 20012;EQDQ01  00002PRCP99
0112351730999992000040609004+51620+069800FM-12+031299999V0201101N002019999999N0040001N1+00881+00501101721ADDGF107991011001999999081011MD1210021+9999REMSYN060AAXX  06091 35173 42996 71102 10088 20050 40172 52002 81081;
0143351730999992000040612004+51620+069800FM-12+031299999V0201401N002019999999N0040001N1+00911+00701101731ADDGF105991001001999999001081MA1999999098061MD1210011+9999REMSYN076AAXX  06121 35173 42996 51402 10091 20070 39806 40173 52001 80008 555 1/015;
0165351730999992000040615004+51620+069800FM-12+031299999V0200901N002019999999N0200001N1+00631+00451101921ADDAA199000091GF108991081001999999071999KA1999M+01121MD1210141+9999REMSYN070AAXX  06151 35173 32998 80902 10063 20045 40192 52014 8807/ 333 10112;EQDQ01  00002PRCP99
0165351730999992000040618004+51620+069800FM-12+031299999V0200901N004019999999N0200001N1+00481+00361102051ADDAA199000091GF107991071001999999051001KA1999M+01121MD1210111+9999REMSYN070AAXX  06181 35173 32998 70904 10048 20036 40205 52011 87050 333 10112;EQDQ01  00002PRCP99
0112351730999992000040621004+51620+069800FM-12+031299999V0200901N004019999999N0200001N1+00371+00301102231ADDGF108991081001999999021999MD1210161+9999REMSYN060AAXX  06211 35173 42998 80904 10037 20030 40223 52016 8802/;
0153351730999992000040700004+51620+069800FM-12+031299999V0200901N004012200019N0200001N1+00161+00111102341ADDGA1001+999999999GF100991001001999999001001MA1999999098541MD1210071+9999REMSYN070AAXX  07001 35173 42998 00904 10016 20011 39854 40234 52007 555 1/001;
0217351730999992000040703004+51620+069800FM-12+031299999V0200901N004012200019N0040001N1+00201+00151102501ADDAA199000091AJ199992999999999GA1001+999999999GF100991001001999999001001IA1259MD1210161+9999REMSYN080AAXX  07031 35173 32996 00904 10020 20015 40250 52016 333 41998 555 20013 7000/;EQDQ01  00002PRCP99Q02  09972SNDP  
0175351730999992000040706004+51620+069800FM-12+031299999V0200901N006012200019N0040001N1+00451+00281102591ADDAA199000091GA1001+999999999GF100991001001999999001001KA1999N+00131MD1210111+9999REMSYN064AAXX  07061 35173 32996 00906 10045 20028 40259 52011 333 20013;EQDQ01  00002PRCP99
0122351730999992000040709004+51620+069800FM-12+031299999V0200901N008012200019N0040001N1+00531+00361102611ADDGA1001+999999999GF100991001001999999001001MD1210041+9999REMSYN054AAXX  07091 35173 42996 00908 10053 20036 40261 52004;
0175351730999992000040715004+51620+069800FM-12+031299999V0200901N006012200019N0200001N1+00481+00071102561ADDAA199000091GA1001+999999999GF100991001001999999001001KA1999M+00771MD1710021+9999REMSYN064AAXX  07151 35173 32998 00906 10048 20007 40256 57002 333 10077;EQDQ01  00002PRCP99
0175351730999992000040718004+51620+069800FM-12+031299999V0200901N008012200019N0200001N1+00301-00021102551ADDAA199000091GA1001+999999999GF100991001001999999001001KA1999M+00771MD1710021+9999REMSYN064AAXX  07181 35173 32998 00908 10030 21002 40255 57002 333 10077;EQDQ01  00002PRCP99
0153351730999992000040800004+51620+069800FM-12+031299999V0200901N006012200019N0200001N1+00301-00181102371ADDGA1001+999999999GF100991001001999999001001MA1999999098601MD1710051+9999REMSYN070AAXX  08001 35173 42998 00906 10030 21018 39860 40237 57005 555 12001;
0207351730999992000040803004+51620+069800FM-12+031299999V0201101N006019999999N0040001N1+00521+00171102341ADDAA199000091AJ199992999999999GF105991001001999999001091IA1259MD1710011+9999REMSYN086AAXX  08031 35173 32996 51106 10052 20017 40234 57001 80009 333 41998 555 20028 7000/;EQDQ01  00002PRCP99Q02  09972SNDP  
0165351730999992000040806004+51620+069800FM-12+031299999V0201101N006019999999N0040001N1+01121+00511102141ADDAA199000091GF106991031001999999071051KA1999N+00281MD1710111+9999REMSYN070AAXX  08061 35173 32996 61106 10112 20051 40214 57011 83075 333 20028;EQDQ01  00002PRCP99
0112351730999992000040809004+51620+069800FM-12+031299999V0201601N008010300019N0040001N1+01521+00451101891ADDGF107991031051008001041001MD1710191+9999REMSYN060AAXX  08091 35173 42596 71608 10152 20045 40189 57019 83540;
0169351730999992000040812004+51620+069800FM-12+031299999V0201401N006010075019N0040001N1+01381+00561101641ADDGA1081+007509069GF108991081051008001999999MA1999999098031MD1710261+9999REMSYN086AAXX  08121 35173 42596 81406 10138 20056 39803 40164 57026 885// 333 88625 555 12012;
0192351730999992000040815004+51620+069800FM-12+031299999V0201401N004010042019N0010001N1+01271+00781101601ADDAY161031AY221031GF108991999071004501021999KA1120M+01731MD1710051+9999MW1611REMSYN086AAXX  08151 35173 /1494 81404 10127 20078 40160 57005 76162 8872/ 333 10173 555 69912;EQDQ01+000082SCOTLC
0153351730999992000040903004+51620+069800FM-12+031299999V0202301N002012200019N0040001N1+00321+00241101341ADDGF103991001001999999001011MD1710021+9999REMSYN082AAXX  09031 35173 /2696 32302 10032 20024 40134 57002 80001 555 20049 60082 7008/;EQDQ01+012502SCOLCB
0180351730999992000040906004+51620+069800FM-12+031299999V0202701N004010081019N0040001N1+00601+00231101291ADDAA100007991GA1081+008109029GF108991999999008001999999KA1120N+00491MD1710011+9999MW1871REMSYN082AAXX  09061 35173 12596 82704 10060 20023 40129 57001 60080 787// 333 20049 88827;
0138351730999992000040909004+51620+069800FM-12+031299999V0202701N006010081019N0040001N1+00511+00271101421ADDGA1081+008109029GF108991081071008001999999MD1310111+9999REMSYN070AAXX  09091 35173 42596 82706 10051 20027 40142 53011 887// 333 88827;
0188351730999992000040912004+51620+069800FM-12+031299999V0202701N008010072019N0040001N1+00491+00301102082ADDGA1081+007209069GF108991081051008001999999MA1999999097901MD1210201+9999REMSYN086AAXX  09121 35173 42596 82708 10049 20030 39790 40208 52020 885// 333 88624 555 12007;EQDQ01+102083APOSLP
0168351730999992000040915004+51620+069800FM-12+031299999V0203201N006010069019N0200001N1+00371+00271101841ADDAA199000021GA1081+006909059GF108991081051008001999999KA1120M+00731MD1210191+9999REMSYN076AAXX  09151 35173 32598 83206 10037 20027 40184 52019 885// 333 10073 88623;
0156351730999992000040918004+51620+069800FM-12+031299999V0202701N002012200019N0200001N1+00141+00091102041ADDAA199000021GA1001+999999999GF100991001001999999001001KA1999M+00731MD1210161+9999REMSYN064AAXX  09181 35173 32998 02702 10014 20009 40204 52016 333 10073;
0150351730999992000040921004+51620+069800FM-12+031299999V0209999C000012200019N0010001N1-00081-00111102141ADDAY101031AY201031GA1001+999999999GF100991001001999999001001MD1210071+9999MW1101REMSYN060AAXX  09211 35173 41994 00000 11008 21011 40214 52007 71000;
0169351730999992000041000004+51620+069800FM-12+031299999V0209999C000010063019N0200001N1-00071-00131102291ADDGA1081+006309069GF108991081051008001999999MA1999999098471MD1210151+9999REMSYN086AAXX  10001 35173 42598 80000 11007 21013 39847 40229 52015 885// 333 88621 555 14101;
0184351730999992000041003004+51620+069800FM-12+031299999V0203201N002010039019N0040001N1+00121+00091102481ADDAA199000091GA1061+003909079GF108991061071004501011999MD1210211+9999REMSYN086AAXX  10031 35173 32496 83202 10012 20009 40248 52021 8671/ 333 86713 555 21011 7000/;EQDQ01  00002PRCP99
0187351730999992000041006004+51620+069800FM-12+031299999V0200501N006010084019N0040001N1+00371+00051102651ADDAA199000091GA1081+008409029GF108991081071008001999999KA1120N-00111MD1210191+9999REMSYN076AAXX  10061 35173 32596 80506 10037 20005 40265 52019 887// 333 21011 88828;EQDQ01  00002PRCP99
0138351730999992000041009004+51620+069800FM-12+031299999V0200501N006010069019N0040001N1+00351-00061102881ADDGA1081+006909059GF108991081051008001999999MD1210221+9999REMSYN070AAXX  10091 35173 42596 80506 10035 21006 40288 52022 885// 333 88623;
0169351730999992000041012004+51620+069800FM-12+031299999V0200501N004010075019N0040001N1+00281+00071103041ADDGA1081+007509069GF108991081051008001999999MA1999999099231MD1210141+9999REMSYN086AAXX  10121 35173 42596 80504 10028 20007 39923 40304 52014 885// 333 88625 555 12005;
0187351730999992000041015004+51620+069800FM-12+031299999V0200501N002010081019N0200001N1+00101-00131103081ADDAA199000091GA1081+008109029GF108991081071008001999999KA1120M+00521MD1210031+9999REMSYN076AAXX  10151 35173 32598 80502 10010 21013 40308 52003 887// 333 10052 88827;EQDQ01  00002PRCP99
0175351730999992000041018004+51620+069800FM-12+031299999V0200701N002012200019N0200001N1-00201-00361103191ADDAA199000091GA1001+999999999GF100991001001999999001001KA1999M+00521MD1210041+9999REMSYN064AAXX  10181 35173 32998 00702 11020 21036 40319 52004 333 10052;EQDQ01  00002PRCP99
0122351730999992000041021004+51620+069800FM-12+031299999V0200701N002012200019N0200001N1-00271-00401103191ADDGA1001+999999999GF100991001001999999001001MD1410001+9999REMSYN054AAXX  10211 35173 42998 00702 11027 21040 40319 54000;
0153351730999992000041100004+51620+069800FM-12+031299999V0200701N002012200019N0200001N1-00351-00431103371ADDGA1001+999999999GF100991001001999999001001MA1999999099461MD1310161+9999REMSYN070AAXX  11001 35173 42998 00702 11035 21043 39946 40337 53016 555 14106;
0168351730999992000041103004+51620+069800FM-12+031299999V0200901N002012200019N0040001N1-00081-00271103191ADDAA199000091GA1001+999999999GF100991001001999999001001MD1810131+9999REMSYN070AAXX  11031 35173 32996 00902 11008 21027 40319 58013 555 21041 7000/;EQDQ01  00002PRCP99
0165351730999992000041106004+51620+069800FM-12+031299999V0200901N006012200019N0040001N1+00491-00271103051ADDAA199000091GF102991001001999999001041KA1999N-00411MD1710071+9999REMSYN070AAXX  11061 35173 32996 20906 10049 21027 40305 57007 80004 333 21041;EQDQ01  00002PRCP99
0143351730999992000041112004+51620+069800FM-12+031299999V0201401N006019999999N0040001N1+01091+00041102601ADDGF105991001001999999001081MA1999999098921MD1710191+9999REMSYN076AAXX  11121 35173 42996 51406 10109 20004 39892 40260 57019 80008 555 12113;
0187351730999992000041115004+51620+069800FM-12+031299999V0200901N006010069019N0200001N1+00771-00051102491ADDAA199000091GA1081+006909059GF108991081051008001999999KA1120M+01191MD1710161+9999REMSYN076AAXX  11151 35173 32598 80906 10077 21005 40249 57016 885// 333 10119 88623;EQDQ01  00002PRCP99
0165351730999992000041118004+51620+069800FM-12+031299999V0201401N008012200019N0200001N1+00611-00181102351ADDAA199000091GF102991001001999999001081KA1999M+01191MD1710151+9999REMSYN070AAXX  11181 35173 32998 21408 10061 21018 40235 57015 80008 333 10119;EQDQ01  00002PRCP99
0112351730999992000041121004+51620+069800FM-12+031299999V0201601N010019999999N0200001N1+00491-00241102201ADDGF108991081001999999071999MD1710171+9999REMSYN060AAXX  11211 35173 42998 81610 10049 21024 40220 57017 8807/;
0169351730999992000041200004+51620+069800FM-12+031299999V0201401N004010063019N0200001N1+00401-00251102011ADDGA1071+006309069GF107991071051999999001001MA1999999098261MD1710181+9999REMSYN086AAXX  12001 35173 42998 71404 10040 21025 39826 40201 57018 87500 333 87621 555 12002;
0184351730999992000041203004+51620+069800FM-12+031299999V0201401N004010066019N0040001N1+00451-00361101851ADDAA199000091GA1081+006609069GF108991081051008001999999MD1710161+9999REMSYN086AAXX  12031 35173 32596 81404 10045 21036 40185 57016 885// 333 88622 555 20036 7000/;EQDQ01  00002PRCP99
0203351730999992000041206004+51620+069800FM-12+031299999V0201401N006010039019N0040001N1+00631-00251101721ADDAA199000091GA1071+003909029GF108991999051004501021999KA1120N+00361MD1710091+9999REMSYN076AAXX  12061 35173 32496 81406 10063 21025 40172 57009 8852/ 333 20036 87513;EQDQ01+000082SCOTLCQ02  00002PRCP99
0138351730999992000041209004+51620+069800FM-12+031299999V0201601N006010060019N0040001N1+00771+00001101551ADDGA1081+006009059GF108991081051008001999999MD1710151+9999REMSYN070AAXX  12091 35173 42596 81606 10077 20000 40155 57015 885// 333 88620;
0169351730999992000041212004+51620+069800FM-12+031299999V0201801N004010069019N0040001N1+01111+00411101441ADDGA1051+006909069GF105991051051008001001001MA1999999097801MD1710061+9999REMSYN086AAXX  12121 35173 42596 51804 10111 20041 39780 40144 57006 85500 333 85623 555 12014;
0175351730999992000041215004+51620+069800FM-12+031299999V0201401N002012200019N0200001N1+00991+00431101361ADDAA199000091GA1001+999999999GF100991001001999999001001KA1999M+01271MD1710091+9999REMSYN064AAXX  12151 35173 32998 01402 10099 20043 40136 57009 333 10127;EQDQ01  00002PRCP99
0175351730999992000041218004+51620+069800FM-12+031299999V0201401N002012200019N0200001N1+00811+00341101251ADDAA199000091GA1001+999999999GF100991001001999999001001KA1999M+01271MD1710131+9999REMSYN064AAXX  12181 35173 32998 01402 10081 20034 40125 57013 333 10127;EQDQ01  00002PRCP99
0122351730999992000041221004+51620+069800FM-12+031299999V0209999C000012200019N0200001N1+00631+00211101161ADDGA1001+999999999GF100991001001999999001001MD1710111+9999REMSYN054AAXX  12211 35173 42998 00000 10063 20021 40116 57011;
0169351730999992000041300004+51620+069800FM-12+031299999V0201801N002010060019N0200001N1+00771+00271101011ADDGA1051+006009069GF105991051051008001001001MA1999999097341MD1710131+9999REMSYN086AAXX  13001 35173 42598 51802 10077 20027 39734 40101 57013 85500 333 85620 555 12004;
0168351730999992000041303004+51620+069800FM-12+031299999V0201801N002012200019N0040001N1+00871+00191101021ADDAA199000091GA1001+999999999GF100991001001999999001001MD1310031+9999REMSYN070AAXX  13031 35173 32996 01802 10087 20019 40102 53003 555 20060 7000/;EQDQ01  00002PRCP99
0187351730999992000041306004+51620+069800FM-12+031299999V0201801N004010072019N0040001N1+01601+00401100911ADDAA199000091GA1061+007209059GF106991061051008001001001KA1120N+00601MD1810021+9999REMSYN076AAXX  13061 35173 32596 61804 10160 20040 40091 58002 86500 333 20060 86624;EQDQ01  00002PRCP99
0138351730999992000041309004+51620+069800FM-12+031299999V0202301N004010081019N0040001N1+01931+00401100771ADDGA1061+008109059GF106991061081008001001001MD1710091+9999REMSYN070AAXX  13091 35173 42596 62304 10193 20040 40077 57009 86800 333 86627;
0169351730999992000041312004+51620+069800FM-12+031299999V0202001N004010084019N0040001N1+01961+00321100711ADDGA1061+008409089GF106991061021008001061001MA1999999097211MD1710051+9999REMSYN086AAXX  13121 35173 42596 62004 10196 20032 39721 40071 57005 86260 333 86828 555 12024;
0165351730999992000041315004+51620+069800FM-12+031299999V0201801N002012200019N0200001N1+01391+00291100721ADDAA199000091GF103991031051008001001001KA1999M+02141MD1710071+9999REMSYN070AAXX  13151 35173 32598 31802 10139 20029 40072 57007 83500 333 10214;EQDQ01  00002PRCP99
0187351730999992000041318004+51620+069800FM-12+031299999V0209999C000010039019N0200001N1+01021+00431100871ADDAA199000091GA1061+003909069GF106991061061004501001001KA1120M+02141MD1310101+9999REMSYN076AAXX  13181 35173 32498 60000 10102 20043 40087 53010 86600 333 10214 86713;EQDQ01  00002PRCP99
0159351730999992000041321004+51620+069800FM-12+031299999V0201801N002010042019N0010001N1+00961+00731100791ADDAY161031AY221031GF108991999071004501021999MD1810081+9999MW1611REMSYN066AAXX  13211 35173 41494 81802 10096 20073 40079 58008 76162 8872/;EQDQ01+000082SCOTLC
0202351730999992000041406004+51620+069800FM-12+031299999V0202301N004010087019N0040001N1+00951+00811100921ADDAA100004191AY181061AY221061GA1071+008709029GF107991071071008001001001KA1120N+00641MD1210101+9999MW1021REMSYN088AAXX  14061 35173 11596 72304 10095 20081 40092 52010 60040 70282 87700 333 20064 87829;
0140351730999992000041409004+51620+069800FM-12+031299999V0202701N004010042019N0040001N1+00911+00701100991ADDAY181031AY221031GF108991081091004501999999MD1210051+9999MW1801REMSYN066AAXX  14091 35173 41496 82704 10091 20070 40099 52005 78082 889//;
0195351730999992000041415004+51620+069800FM-12+031299999V0202301N002010057019N0200001N1+00811+00641101171ADDAY181031AY221031GA1071+005709099GF107991071091008001001001KA1120M+01321MD1210091+9999MW1021REMSYN092AAXX  14151 35173 /1598 72302 10081 20064 40117 52009 70282 87900 333 10132 87919 555 60012;
0202351730999992000041418004+51620+069800FM-12+031299999V0202701N002010072019N0200001N1+00711+00591101251ADDAA100001091AY181061AY231061GA1071+007209059GF107991071051008001001001KA1120M+01321MD1210071+9999MW1021REMSYN088AAXX  14181 35173 11598 72702 10071 20059 40125 52007 60010 70283 87500 333 10132 87624;
0138351730999992000041421004+51620+069800FM-12+031299999V0202501N002010069019N0200001N1+00611+00561101481ADDGA1081+006909059GF108991081051008001999999MD1210201+9999REMSYN070AAXX  14211 35173 42598 82502 10061 20056 40148 52020 885// 333 88623;
0143351730999992000041500004+51620+069800FM-12+031299999V0202701N002019999999N0200001N1+00481+00381101581ADDGF108991081001999999071999MA1999999097861MD1210091+9999REMSYN076AAXX  15001 35173 42998 82702 10048 20038 39786 40158 52009 8807/ 555 12004;
0224351730999992000041503004+51620+069800FM-12+031299999V0202701N002010063019N0040001N1+00451+00171101701ADDAA199000091GA1081+006309069GF108991999051008001021999IA1119IA2999+00409MD1210101+9999REMSYN092AAXX  15031 35173 32596 82702 10045 20017 40170 52010 8852/ 333 88621 555 20043 32004 7005/;EQDQ01+000082SCOTLCQ02  00002PRCP99
0187351730999992000041506004+51620+069800FM-12+031299999V0202701N004010069019N0040001N1+00651+00181101761ADDAA199000091GA1081+006909059GF108991081051008001999999KA1120N+00431MD1210091+9999REMSYN076AAXX  15061 35173 32596 82704 10065 20018 40176 52009 885// 333 20043 88623;EQDQ01  00002PRCP99
0138351730999992000041509004+51620+069800FM-12+031299999V0202701N006010066019N0040001N1+00871+00301101731ADDGA1081+006609059GF108991081051008001999999MD1210011+9999REMSYN070AAXX  15091 35173 42596 82706 10087 20030 40173 52001 885// 333 88622;
0188351730999992000041512004+51620+069800FM-12+031299999V0203201N008010060019N0040001N1+00861+00321101801ADDGA1081+006009069GF108991999051008001021999MA1999999098111MD1210051+9999REMSYN086AAXX  15121 35173 42596 83208 10086 20032 39811 40180 52005 8852/ 333 88620 555 12009;EQDQ01+000082SCOTLC
0187351730999992000041515004+51620+069800FM-12+031299999V0209999C000010072019N0200001N1+00681+00301101871ADDAA199000091GA1061+007209059GF106991061051008001001001KA1120M+01021MD1210061+9999REMSYN076AAXX  15151 35173 32598 60000 10068 20030 40187 52006 86500 333 10102 86624;EQDQ01  00002PRCP99
0165351730999992000041518004+51620+069800FM-12+031299999V0202701N002019999999N0200001N1+00661+00331102051ADDAA199000091GF108991081001999999071999KA1999M+01021MD1210151+9999REMSYN070AAXX  15181 35173 32998 82702 10066 20033 40205 52015 8807/ 333 10102;EQDQ01  00002PRCP99
0138351730999992000041521004+51620+069800FM-12+031299999V0202701N002010069019N0200001N1+00561+00291102111ADDGA1081+006909059GF108991081051008001999999MD1210051+9999REMSYN070AAXX  15211 35173 42598 82702 10056 20029 40211 52005 885// 333 88623;
0169351730999992000041600004+51620+069800FM-12+031299999V0202701N002010063019N0200001N1+00391+00241102251ADDGA1061+006309069GF106991061051008001001001MA1999999098491MD1210121+9999REMSYN086AAXX  16001 35173 42598 62702 10039 20024 39849 40225 52012 86500 333 86621 555 12002;
0208351730999992000041603004+51620+069800FM-12+031299999V0203201N002010072019N0040001N1+00651+00291102411ADDAA199000091GA1061+007209069GF106991061051008001001001IA1119IA2999+00109MD1210181+9999REMSYN092AAXX  16031 35173 32596 63202 10065 20029 40241 52018 86500 333 86624 555 20035 32001 7000/;EQDQ01  00002PRCP99
0165351730999992000041606004+51620+069800FM-12+031299999V0203601N004012200019N0040001N1+01201+00321102401ADDAA199000091GF103991021011008001071001KA1999N+00351MD1210071+9999REMSYN070AAXX  16061 35173 32596 33604 10120 20032 40240 52007 82170 333 20035;EQDQ01  00002PRCP99
0138351730999992000041609004+51620+069800FM-12+031299999V0203601N004010093019N0040001N1+01561+00341102391ADDGA1051+009309029GF105991051021008001001001MD1210041+9999REMSYN070AAXX  16091 35173 42596 53604 10156 20034 40239 52004 85200 333 85831;
0169351730999992000041612004+51620+069800FM-12+031299999V0203401N004010081019N0040001N1+01601+00301102381ADDGA1051+008109089GF105991051021008001001001MA1999999098771MD1810011+9999REMSYN086AAXX  16121 35173 42596 53404 10160 20030 39877 40238 58001 85200 333 85827 555 12022;
0175351730999992000041615004+51620+069800FM-12+031299999V0209999C000012200019N0200001N1+01271+00431102501ADDAA199000091GA1001+999999999GF100991001001999999001001KA1999M+01731MD1310081+9999REMSYN064AAXX  16151 35173 32998 00000 10127 20043 40250 53008 333 10173;EQDQ01  00002PRCP99
0175351730999992000041618004+51620+069800FM-12+031299999V0209999C000012200019N0200001N1+00661+00351102661ADDAA199000091GA1001+999999999GF100991001001999999001001KA1999M+01731MD1210061+9999REMSYN064AAXX  16181 35173 32998 00000 10066 20035 40266 52006 333 10173;EQDQ01  00002PRCP99
0122351730999992000041621004+51620+069800FM-12+031299999V0209999C000012200019N0200001N1+00221+00091102751ADDGA1001+999999999GF100991001001999999001001MD1210031+9999REMSYN054AAXX  16211 35173 42998 00000 10022 20009 40275 52003;
0153351730999992000041700004+51620+069800FM-12+031299999V0209999C000012200019N0200001N1+00141+00061102831ADDGA1001+999999999GF100991001001999999001001MA1999999099011MD1210071+9999REMSYN070AAXX  17001 35173 42998 00000 10014 20006 39901 40283 52007 555 14101;
0192351730999992000041703004+51620+069800FM-12+031299999V0209999C000012200019N0040001N1+00691+00411102841ADDAA199000091GA1001+999999999GF100991001001999999001001IA1119IA2999-00109MD1210091+9999REMSYN076AAXX  17031 35173 32996 00000 10069 20041 40284 52009 555 20012 32101 7000/;EQDQ01  00002PRCP99
0165351730999992000041706004+51620+069800FM-12+031299999V0202701N002012200019N0040001N1+01581+00531102761ADDAA199000091GF102991021011008001001001KA1999N+00121MD1210031+9999REMSYN070AAXX  17061 35173 32596 22702 10158 20053 40276 52003 82100 333 20012;EQDQ01  00002PRCP99
0122351730999992000041709004+51620+069800FM-12+031299999V0202701N004012200019N0040001N1+01761+00511102641ADDGA1001+999999999GF100991001001999999001001MD1810081+9999REMSYN054AAXX  17091 35173 42996 02704 10176 20051 40264 58008;
0153351730999992000041712004+51620+069800FM-12+031299999V0202701N002012200019N0040001N1+01911+00301102571ADDGA1001+999999999GF100991001001999999001001MA1999999098991MD1710061+9999REMSYN070AAXX  17121 35173 42996 02702 10191 20030 39899 40257 57006 555 11027;
0175351730999992000041715004+51620+069800FM-12+031299999V0209999C000012200019N0200001N1+01411+00381102611ADDAA199000091GA1001+999999999GF100991001001999999001001KA1999M+02021MD1710031+9999REMSYN064AAXX  17151 35173 32998 00000 10141 20038 40261 57003 333 10202;EQDQ01  00002PRCP99
0175351730999992000041718004+51620+069800FM-12+031299999V0209999C000012200019N0200001N1+00831+00461102711ADDAA199000091GA1001+999999999GF100991001001999999001001KA1999M+02021MD1310031+9999REMSYN064AAXX  17181 35173 32998 00000 10083 20046 40271 53003 333 10202;EQDQ01  00002PRCP99
0122351730999992000041721004+51620+069800FM-12+031299999V0209999C000012200019N0200001N1+00541+00321102761ADDGA1001+999999999GF100991001001999999001001MD1210011+9999REMSYN054AAXX  17211 35173 42998 00000 10054 20032 40276 52001;
0153351730999992000041800004+51620+069800FM-12+031299999V0209999C000012200019N0200001N1+00451+00281102781ADDGA1001+999999999GF100991001001999999001001MA1999999099001MD1410001+9999REMSYN070AAXX  18001 35173 42998 00000 10045 20028 39900 40278 54000 555 11002;
0192351730999992000041803004+51620+069800FM-12+031299999V0209999C000012200019N0040001N1+00911+00431102771ADDAA199000091GA1001+999999999GF100991001001999999001001IA1099IA2999+00209MD1310061+9999REMSYN076AAXX  18031 35173 32996 00000 10091 20043 40277 53006 555 20041 31002 7000/;EQDQ01  00002PRCP99
0165351730999992000041806004+51620+069800FM-12+031299999V0200501N002012200019N0040001N1+01811+00021102621ADDAA199000091GF102991021011012501001001KA1999N+00411MD1810031+9999REMSYN070AAXX  18061 35173 32696 20502 10181 20002 40262 58003 82100 333 20041;EQDQ01  00002PRCP99
0112351730999992000041809004+51620+069800FM-12+031299999V0202301N002012200019N0040001N1+02011-00251102571ADDGF102991021011012501001001MD1710031+9999REMSYN060AAXX  18091 35173 42696 22302 10201 21025 40257 57003 82100;
0143351730999992000041812004+51620+069800FM-12+031299999V0200501N002012200019N0040001N1+01971-00051102501ADDGF101991011011012501001001MA1999999098921MD1710081+9999REMSYN076AAXX  18121 35173 42696 10502 10197 21005 39892 40250 57008 81100 555 10028;
0175351730999992000041815004+51620+069800FM-12+031299999V0200501N002012200019N0200001N1+01561+00341102561ADDAA199000091GA1001+999999999GF100991001001999999001001KA1999M+02121MD1310021+9999REMSYN064AAXX  18151 35173 32998 00502 10156 20034 40256 53002 333 10212;EQDQ01  00002PRCP99
0175351730999992000041818004+51620+069800FM-12+031299999V0200501N002012200019N0200001N1+01211+00091102681ADDAA199000091GA1001+999999999GF100991001001999999001001KA1999M+02121MD1210071+9999REMSYN064AAXX  18181 35173 32998 00502 10121 20009 40268 52007 333 10212;EQDQ01  00002PRCP99
0122351730999992000041821004+51620+069800FM-12+031299999V0200901N004012200019N0200001N1+00991+00091102691ADDGA1001+999999999GF100991001001999999001001MD1810021+9999REMSYN054AAXX  18211 35173 42998 00904 10099 20009 40269 58002;
0153351730999992000041900004+51620+069800FM-12+031299999V0200901N004012200019N0200001N1+00751+00401102711ADDGA1001+999999999GF100991001001999999001001MA1999999098981MD1710011+9999REMSYN070AAXX  19001 35173 42998 00904 10075 20040 39898 40271 57001 555 10005;
0192351730999992000041903004+51620+069800FM-12+031299999V0200501N006012200019N0040001N1+00971+00431102741ADDAA199000091GA1001+999999999GF100991001001999999001001IA1019IA2999+00409MD1310061+9999REMSYN076AAXX  19031 35173 32996 00506 10097 20043 40274 53006 555 20069 30004 7000/;EQDQ01  00002PRCP99
0175351730999992000041906004+51620+069800FM-12+031299999V0200901N008012200019N0040001N1+02001+00951102611ADDAA199000091GA1001+999999999GF100991001001999999001001KA1999N+00691MD1410001+9999REMSYN064AAXX  19061 35173 32996 00908 10200 20095 40261 54000 333 20069;EQDQ01  00002PRCP99
0112351730999992000041909004+51620+069800FM-12+031299999V0200501N008012200019N0040001N1+02171+00861102511ADDGF102991021011012501001001MD1810071+9999REMSYN060AAXX  19091 35173 42696 20508 10217 20086 40251 58007 82100;
0153351730999992000041912004+51620+069800FM-12+031299999V0200501N006012200019N0040001N1+02161+01001102441ADDGA1001+999999999GF100991001001999999001001MA1999999098891MD1710081+9999REMSYN070AAXX  19121 35173 42996 00506 10216 20100 39889 40244 57008 555 10028;
0175351730999992000041915004+51620+069800FM-12+031299999V0200901N004012200019N0040001N1+01611+00411102491ADDAA199000091GA1001+999999999GF100991001001999999001001KA1999M+02251MD1710011+9999REMSYN064AAXX  19151 35173 32996 00904 10161 20041 40249 57001 333 10225;EQDQ01  00002PRCP99
0175351730999992000041918004+51620+069800FM-12+031299999V0200901N006012200019N0200001N1+01171+00461102541ADDAA199000091GA1001+999999999GF100991001001999999001001KA1999M+02251MD1410001+9999REMSYN064AAXX  19181 35173 32998 00906 10117 20046 40254 54000 333 10225;EQDQ01  00002PRCP99
0122351730999992000041921004+51620+069800FM-12+031299999V0200901N006012200019N0200001N1+00921+00321102541ADDGA1001+999999999GF100991001001999999001001MD1810041+9999REMSYN054AAXX  19211 35173 42998 00906 10092 20032 40254 58004;
0153351730999992000042000004+51620+069800FM-12+031299999V0200901N004012200019N0200001N1+00631+00371102551ADDGA1001+999999999GF100991001001999999001001MA1999999098811MD1710031+9999REMSYN070AAXX  20001 35173 42998 00904 10063 20037 39881 40255 57003 555 10005;
0192351730999992000042003004+51620+069800FM-12+031299999V0200901N004012200019N0040001N1+00981+00231102481ADDAA199000091GA1001+999999999GF100991001001999999001001IA1019IA2999+00409MD1710021+9999REMSYN076AAXX  20031 35173 32996 00904 10098 20023 40248 57002 555 20059 30004 7000/;EQDQ01  00002PRCP99
0175351730999992000042006004+51620+069800FM-12+031299999V0200901N006012200019N0040001N1+01941+00891102241ADDAA199000091GA1001+999999999GF100991001001999999001001KA1999N+00591MD1710101+9999REMSYN064AAXX  20061 35173 32996 00906 10194 20089 40224 57010 333 20059;EQDQ01  00002PRCP99
0122351730999992000042009004+51620+069800FM-12+031299999V0201401N006012200019N0040001N1+02261+00231102081ADDGA1001+999999999GF100991001001999999001001MD1710141+9999REMSYN054AAXX  20091 35173 42996 01406 10226 20023 40208 57014;
0143351730999992000042012004+51620+069800FM-12+031299999V0201801N002012200019N0040001N1+02281+00061101941ADDGF102991001001999999001011MA1999999098431MD1710121+9999REMSYN076AAXX  20121 35173 42996 21802 10228 20006 39843 40194 57012 80001 555 10031;
0175351730999992000042015004+51620+069800FM-12+031299999V0200901N002012200019N0040001N1+01811+00711101961ADDAA199000091GA1001+999999999GF100991001001999999001001KA1999M+02371MD1710041+9999REMSYN064AAXX  20151 35173 32996 00902 10181 20071 40196 57004 333 10237;EQDQ01  00002PRCP99
0122351730999992000042021004+51620+069800FM-12+031299999V0200901N004012200019N0200001N1+01041+00301102021ADDGA1001+999999999GF100991001001999999001001MD1710041+9999REMSYN054AAXX  20211 35173 42998 00904 10104 20030 40202 57004;
0192351730999992000042103004+51620+069800FM-12+031299999V0201401N002012200019N0040001N1+01291+00511101961ADDAA199000091GA1001+999999999GF100991001001999999001001IA1019IA2999+00509MD1810011+9999REMSYN076AAXX  21031 35173 32996 01402 10129 20051 40196 58001 555 20085 30005 7000/;EQDQ01  00002PRCP99
0175351730999992000042106004+51620+069800FM-12+031299999V0201601N004012200019N0040001N1+02121+00851101811ADDAA199000091GA1001+999999999GF100991001001999999001001KA1999N+00851MD1710051+9999REMSYN064AAXX  21061 35173 32996 01604 10212 20085 40181 57005 333 20085;EQDQ01  00002PRCP99
0112351730999992000042109004+51620+069800FM-12+031299999V0201401N004012200019N0040001N1+02231+00211101711ADDGF102991021011008001001001MD1710091+9999REMSYN060AAXX  21091 35173 42596 21404 10223 20021 40171 57009 82100;
0169351730999992000042112004+51620+069800FM-12+031299999V0200901N002010084019N0040001N1+02251+00701101551ADDGA1051+008409089GF105991051021008001001001MA1999999098061MD1710131+9999REMSYN086AAXX  21121 35173 42596 50902 10225 20070 39806 40155 57013 85200 333 85828 555 10029;
0187351730999992000042115004+51620+069800FM-12+031299999V0200901N002010075019N0040001N1+01851+00451101581ADDAA199000091GA1081+007509099GF108991081091008001999999KA1120M+02351MD1710041+9999REMSYN076AAXX  21151 35173 32596 80902 10185 20045 40158 57004 889// 333 10235 88925;EQDQ01  00002PRCP99
0140351730999992000042121004+51620+069800FM-12+031299999V0201601N004010300019N0200001N1+01151+00711101571ADDAY181031AY221031GF105991031091008001061001MD1810261+9999MW1021REMSYN066AAXX  21211 35173 41598 51604 10115 20071 40157 58026 70282 83960;
0197351730999992000042200004+51620+069800FM-12+031299999V0202301N002010075019N0200001N1+01011+00701101581ADDAY181061AY221061GA1061+007509099GF106991061031008001001001MA1999999097921MD1710021+9999MW1021REMSYN092AAXX  22001 35173 41598 62302 10101 20070 39792 40158 57002 70282 86300 333 86925 555 10009;
0195351730999992000042203004+51620+069800FM-12+031299999V0209999C000010069019N0040001N1+01241+00811101601ADDAA112000991GA1061+006909099GF106991061031008001001001IA1019IA2999+00809MD1310061+9999REMSYN098AAXX  22031 35173 /2596 60000 10124 20081 40160 53006 86300 333 86923 555 20100 30008 69992 7999/;
0162351730999992000042206004+51620+069800FM-12+031299999V0203601N002012200019N0040001N1+01721+00741101711ADDAA100001091GA1001+999999999GF100991001001999999001001KA1999N+01001MD1210151+9999REMSYN070AAXX  22061 35173 12996 03602 10172 20074 40171 52015 69990 333 20100;
0112351730999992000042209004+51620+069800FM-12+031299999V0203201N004012200019N0040001N1+02061+00251101811ADDGF102991011011012501001081MD1210141+9999REMSYN060AAXX  22091 35173 42696 23204 10206 20025 40181 52014 81108;
0165351730999992000042215004+51620+069800FM-12+031299999V0203601N002012200019N0040001N1+01831+00321101981ADDAA199000091GF101991011041008001001001KA1999M+02251MD1210131+9999REMSYN070AAXX  22151 35173 32596 13602 10183 20032 40198 52013 81400 333 10225;EQDQ01  00002PRCP99
0175351730999992000042218004+51620+069800FM-12+031299999V0203601N002012200019N0200001N1+01231+00361102221ADDAA199000091GA1001+999999999GF100991001001999999001001KA1999M+02251MD1210151+9999REMSYN064AAXX  22181 35173 32998 03602 10123 20036 40222 52015 333 10225;EQDQ01  00002PRCP99
0122351730999992000042221004+51620+069800FM-12+031299999V0209999C000012200019N0200001N1+00981+00231102311ADDGA1001+999999999GF100991001001999999001001MD1210071+9999REMSYN054AAXX  22211 35173 42998 00000 10098 20023 40231 52007;
0153351730999992000042300004+51620+069800FM-12+031299999V0209999C000012200019N0200001N1+00681+00271102521ADDGA1001+999999999GF100991001001999999001001MA1999999098791MD1210161+9999REMSYN070AAXX  23001 35173 42998 00000 10068 20027 39879 40252 52016 555 10004;
0192351730999992000042303004+51620+069800FM-12+031299999V0209999C000012200019N0040001N1+01191+00641102511ADDAA199000091GA1001+999999999GF100991001001999999001001IA1019IA2999+00309MD1210061+9999REMSYN076AAXX  23031 35173 32996 00000 10119 20064 40251 52006 555 20064 30003 7999/;EQDQ01  00002PRCP99
0169351730999992000042306004+51620+069800FM-12+031299999V0209999C000012200019N0040001N1+02071+01041999999ADDAA199000091GA1001+999999999GF100991001001999999001001KA1999N+00641MD1410001+9999REMSYN058AAXX  23061 35173 32996 00000 10207 20104 54000 333 20064;EQDQ01  00002PRCP99
0122351730999992000042309004+51620+069800FM-12+031299999V0209999C000012200019N0040001N1+02231+00881102191ADDGA1001+999999999GF100991001001999999001001MD1810181+9999REMSYN054AAXX  23091 35173 42996 00000 10223 20088 40219 58018;
0153351730999992000042312004+51620+069800FM-12+031299999V0203201N002012200019N0040001N1+02271+00991101991ADDGA1001+999999999GF100991001001999999001001MA1999999098481MD1710191+9999REMSYN070AAXX  23121 35173 42996 03202 10227 20099 39848 40199 57019 555 10028;
0175351730999992000042315004+51620+069800FM-12+031299999V0209999C000012200019N0040001N1+01851+00731101941ADDAA199000091GA1001+999999999GF100991001001999999001001KA1999M+02411MD1710101+9999REMSYN064AAXX  23151 35173 32996 00000 10185 20073 40194 57010 333 10241;EQDQ01  00002PRCP99
0175351730999992000042318004+51620+069800FM-12+031299999V0209999C000012200019N0200001N1+01311+00591101891ADDAA199000091GA1001+999999999GF100991001001999999001001KA1999M+02411MD1710121+9999REMSYN064AAXX  23181 35173 32998 00000 10131 20059 40189 57012 333 10241;EQDQ01  00002PRCP99
0122351730999992000042321004+51620+069800FM-12+031299999V0209999C000012200019N0200001N1+01031+00451101911ADDGA1001+999999999GF100991001001999999001001MD1710021+9999REMSYN054AAXX  23211 35173 42998 00000 10103 20045 40191 57002;
0153351730999992000042400004+51620+069800FM-12+031299999V0202701N002012200019N0200001N1+00871+00531101801ADDGA1001+999999999GF100991001001999999001001MA1999999098121MD1710121+9999REMSYN070AAXX  24001 35173 42998 02702 10087 20053 39812 40180 57012 555 10005;
0192351730999992000042403004+51620+069800FM-12+031299999V0201801N002012200019N0040001N1+01411+00561101671ADDAA199000091GA1001+999999999GF100991001001999999001001IA1019IA2999+00509MD1710061+9999REMSYN076AAXX  24031 35173 32996 01802 10141 20056 40167 57006 555 20084 30005 7000/;EQDQ01  00002PRCP99
0175351730999992000042406004+51620+069800FM-12+031299999V0202701N006012200019N0040001N1+02321+00971101391ADDAA199000091GA1001+999999999GF100991001001999999001001KA1999N+00841MD1710151+9999REMSYN064AAXX  24061 35173 32996 02706 10232 20097 40139 57015 333 20084;EQDQ01  00002PRCP99
0122351730999992000042409004+51620+069800FM-12+031299999V0202701N008012200019N0040001N1+02451+00611101271ADDGA1001+999999999GF100991001001999999001001MD1710101+9999REMSYN054AAXX  24091 35173 42996 02708 10245 20061 40127 57010;
0175351730999992000042415004+51620+069800FM-12+031299999V0202301N002012200019N0040001N1+01951+00741101181ADDAA199000091GA1001+999999999GF100991001001999999001001KA1999M+02631MD1410001+9999REMSYN064AAXX  24151 35173 32996 02302 10195 20074 40118 54000 333 10263;EQDQ01  00002PRCP99
0175351730999992000042418004+51620+069800FM-12+031299999V0202301N002012200019N0200001N1+01311+00271101321ADDAA199000091GA1001+999999999GF100991001001999999001001KA1999M+02631MD1310051+9999REMSYN064AAXX  24181 35173 32998 02302 10131 20027 40132 53005 333 10263;EQDQ01  00002PRCP99
0122351730999992000042421004+51620+069800FM-12+031299999V0209999C000012200019N0200001N1+01061+00211101401ADDGA1001+999999999GF100991001001999999001001MD1210041+9999REMSYN054AAXX  24211 35173 42998 00000 10106 20021 40140 52004;
0153351730999992000042500004+51620+069800FM-12+031299999V0209999C000012200019N0200001N1+00991+00431101481ADDGA1001+999999999GF100991001001999999001001MA1999999097831MD1210081+9999REMSYN070AAXX  25001 35173 42998 00000 10099 20043 39783 40148 52008 555 10006;
0192351730999992000042503004+51620+069800FM-12+031299999V0200901N002012200019N0040001N1+01171+00711101511ADDAA199000091GA1001+999999999GF100991001001999999001001IA1019IA2999+00609MD1210051+9999REMSYN076AAXX  25031 35173 32996 00902 10117 20071 40151 52005 555 20096 30006 7000/;EQDQ01  00002PRCP99
0165351730999992000042506004+51620+069800FM-12+031299999V0200901N002012200019N0040001N1+02071+01181101351ADDAA199000091GF103991001001999999001081KA1999N+00961MD1810041+9999REMSYN070AAXX  25061 35173 32996 30902 10207 20118 40135 58004 80008 333 20096;EQDQ01  00002PRCP99
0112351730999992000042509004+51620+069800FM-12+031299999V0202701N002012200019N0040001N1+02431+01041101051ADDGF102991001001999999001021MD1710251+9999REMSYN060AAXX  25091 35173 42996 22702 10243 20104 40105 57025 80002;
0169351730999992000042512004+51620+069800FM-12+031299999V0202901N004010084019N0040001N1+02351+01071100971ADDGA1061+008409089GF106991061021008001001001MA1999999097501MD1710091+9999REMSYN086AAXX  25121 35173 42596 62904 10235 20107 39750 40097 57009 86200 333 86828 555 10024;
0175351730999992000042515004+51620+069800FM-12+031299999V0203201N002012200019N0040001N1+01891+00901100931ADDAA199000091GA1001+999999999GF100991001001999999001001KA1999M+02601MD1710091+9999REMSYN064AAXX  25151 35173 32996 03202 10189 20090 40093 57009 333 10260;EQDQ01  00002PRCP99
0175351730999992000042518004+51620+069800FM-12+031299999V0203401N002012200019N0200001N1+01341+00701101151ADDAA199000091GA1001+999999999GF100991001001999999001001KA1999M+02601MD1310151+9999REMSYN064AAXX  25181 35173 32998 03402 10134 20070 40115 53015 333 10260;EQDQ01  00002PRCP99
0122351730999992000042521004+51620+069800FM-12+031299999V0209999C000012200019N0200001N1+00771+00431101331ADDGA1001+999999999GF100991001001999999001001MD1210101+9999REMSYN054AAXX  25211 35173 42998 00000 10077 20043 40133 52010;
0143351730999992000042600004+51620+069800FM-12+031299999V0209999C000012200019N0040001N1+00531+00231101461ADDGF102991021001999999071001MA1999999097741MD1210081+9999REMSYN076AAXX  26001 35173 42996 20000 10053 20023 39774 40146 52008 82070 555 10001;
0182351730999992000042603004+51620+069800FM-12+031299999V0203601N002019999999N0040001N1+01111+00191101591ADDAA199000091GF106991001001999999001011IA1019IA2999+00009MD1210211+9999REMSYN082AAXX  26031 35173 32996 63602 10111 20019 40159 52021 80001 555 20039 30100 7000/;EQDQ01  00002PRCP99
0165351730999992000042606004+51620+069800FM-12+031299999V0203401N006012200019N0040001N1+01331-00051101821ADDAA199000091GF102991001001999999001011KA1999N+00391MD1210241+9999REMSYN070AAXX  26061 35173 32996 23406 10133 21005 40182 52024 80001 333 20039;EQDQ01  00002PRCP99
0112351730999992000042609004+51620+069800FM-12+031299999V0203401N006012200019N0040001N1+01371-00331101991ADDGF102991001001999999001011MD1210171+9999REMSYN060AAXX  26091 35173 42996 23406 10137 21033 40199 52017 80001;
0143351730999992000042612004+51620+069800FM-12+031299999V0203601N006012200019N0040001N1+01461-00741102091ADDGF101991001001999999001011MA1999999098471MD1210111+9999REMSYN076AAXX  26121 35173 42996 13606 10146 21074 39847 40209 52011 80001 555 10020;
0165351730999992000042615004+51620+069800FM-12+031299999V0203601N002012200019N0040001N1+01111-00541102331ADDAA199000091GF101991001001999999001021KA1999M+01611MD1210191+9999REMSYN070AAXX  26151 35173 32996 13602 10111 21054 40233 52019 80002 333 10161;EQDQ01  00002PRCP99
0175351730999992000042618004+51620+069800FM-12+031299999V0203601N002012200019N0200001N1+00711-00571102611ADDAA199000091GA1001+999999999GF100991001001999999001001KA1999M+01611MD1210221+9999REMSYN064AAXX  26181 35173 32998 03602 10071 21057 40261 52022 333 10161;EQDQ01  00002PRCP99
0122351730999992000042621004+51620+069800FM-12+031299999V0209999C000012200019N0200001N1+00561-00511102711ADDGA1001+999999999GF100991001001999999001001MD1210071+9999REMSYN054AAXX  26211 35173 42998 00000 10056 21051 40271 52007;
0153351730999992000042700004+51620+069800FM-12+031299999V0209999C000012200019N0040001N1+00041-00391102861ADDGA1001+999999999GF100991001001999999001001MA1999999099021MD1210071+9999REMSYN070AAXX  27001 35173 42996 00000 10004 21039 39902 40286 52007 555 10103;
0192351730999992000042703004+51620+069800FM-12+031299999V0201801N002012200019N0040001N1+00851-00121102801ADDAA199000091GA1001+999999999GF100991001001999999001001IA1019IA2999-00409MD1210061+9999REMSYN076AAXX  27031 35173 32996 01802 10085 21012 40280 52006 555 20001 30104 7000/;EQDQ01  00002PRCP99
0175351730999992000042706004+51620+069800FM-12+031299999V0201801N004012200019N0040001N1+01571-00051102691ADDAA199000091GA1001+999999999GF100991001001999999001001KA1999N+00011MD1810021+9999REMSYN064AAXX  27061 35173 32996 01804 10157 21005 40269 58002 333 20001;EQDQ01  00002PRCP99
0122351730999992000042709004+51620+069800FM-12+031299999V0202301N006012200019N0040001N1+02011+00001102431ADDGA1001+999999999GF100991001001999999001001MD1710191+9999REMSYN054AAXX  27091 35173 42996 02306 10201 20000 40243 57019;
0153351730999992000042712004+51620+069800FM-12+031299999V0202301N006012200019N0040001N1+02091+00511102271ADDGA1001+999999999GF100991001001999999001001MA1999999098721MD1710151+9999REMSYN070AAXX  27121 35173 42996 02306 10209 20051 39872 40227 57015 555 10026;
0175351730999992000042715004+51620+069800FM-12+031299999V0202301N002012200019N0040001N1+01541+00271102271ADDAA199000091GA1001+999999999GF100991001001999999001001KA1999M+02181MD1710061+9999REMSYN064AAXX  27151 35173 32996 02302 10154 20027 40227 57006 333 10218;EQDQ01  00002PRCP99
0175351730999992000042718004+51620+069800FM-12+031299999V0201801N002012200019N0200001N1+00881+00151102111ADDAA199000091GA1001+999999999GF100991001001999999001001KA1999M+02181MD1710241+9999REMSYN064AAXX  27181 35173 32998 01802 10088 20015 40211 57024 333 10218;EQDQ01  00002PRCP99
0122351730999992000042721004+51620+069800FM-12+031299999V0201801N002012200019N0200001N1+00611+00051102041ADDGA1001+999999999GF100991001001999999001001MD1710111+9999REMSYN054AAXX  27211 35173 42998 01802 10061 20005 40204 57011;
0192351730999992000042803004+51620+069800FM-12+031299999V0202301N002012200019N0040001N1+01501+00451101671ADDAA199000091GA1001+999999999GF100991001001999999001001IA1019IA2999-00109MD1710121+9999REMSYN076AAXX  28031 35173 32996 02302 10150 20045 40167 57012 555 20045 30101 7000/;EQDQ01  00002PRCP99
0165351730999992000042806004+51620+069800FM-12+031299999V0202701N006012200019N0040001N1+02141+00111101441ADDAA199000091GF102991001001999999001011KA1999N+00451MD1710161+9999REMSYN070AAXX  28061 35173 32996 22706 10214 20011 40144 57016 80001 333 20045;EQDQ01  00002PRCP99
0122351730999992000042809004+51620+069800FM-12+031299999V0202701N006012200019N0040001N1+02461+00061101141ADDGA1001+999999999GF100991001001999999001001MD1710251+9999REMSYN054AAXX  28091 35173 42996 02706 10246 20006 40114 57025;
0153351730999992000042812004+51620+069800FM-12+031299999V0202501N008012200019N0040001N1+02461-00121100911ADDGA1001+999999999GF100991001001999999001001MA1999999097451MD1710221+9999REMSYN070AAXX  28121 35173 42996 02508 10246 21012 39745 40091 57022 555 10031;
0175351730999992000042815004+51620+069800FM-12+031299999V0202301N002012200019N0040001N1+01871+00481100891ADDAA199000091GA1001+999999999GF100991001001999999001001KA1999M+02581MD1710081+9999REMSYN064AAXX  28151 35173 32996 02302 10187 20048 40089 57008 333 10258;EQDQ01  00002PRCP99
0175351730999992000042818004+51620+069800FM-12+031299999V0203201N002012200019N0200001N1+01051+00231101071ADDAA199000091GA1001+999999999GF100991001001999999001001KA1999M+02581MD1310061+9999REMSYN064AAXX  28181 35173 32998 03202 10105 20023 40107 53006 333 10258;EQDQ01  00002PRCP99
0188351730999992000042900004+51620+069800FM-12+031299999V0203601N004010066019N0040001N1+00731+00481101081ADDGA1081+006609069GF108991999051008001021999MA1999999097451MD1310051+9999REMSYN086AAXX  29001 35173 42596 83604 10073 20048 39745 40108 53005 8852/ 333 88622 555 10006;EQDQ01+000082SCOTLC
0166351730999992000042909004+51620+069800FM-12+031299999V0200201N006010033019N0040001N1+00371+00081101241ADDAY161031AY221031GA1081+003309069GF108991081071004501999999MD1810031+9999MW1021REMSYN076AAXX  29091 35173 41496 80206 10037 20008 40124 58003 70262 887// 333 88711;
0138351730999992000042921004+51620+069800FM-12+031299999V0203601N004010039019N0200001N1+00031-00081101471ADDGA1081+003909069GF108991081071004501999999MD1210201+9999REMSYN070AAXX  29211 35173 42498 83604 10003 21008 40147 52020 887// 333 88713;
0169351730999992000043000004+51620+069800FM-12+031299999V0203601N002010069019N0040001N1-00061-00211101661ADDGA1061+006909069GF106991061051008001001001MA1999999097861MD1210171+9999REMSYN086AAXX  30001 35173 42596 63602 11006 21021 39786 40166 52017 86500 333 86623 555 12101;
0192351730999992000043003004+51620+069800FM-12+031299999V0203601N002012200019N0040001N1+00121-00361101951ADDAA199000091GA1001+999999999GF100991001001999999001001IA1119IA2999-00109MD1210301+9999REMSYN076AAXX  30031 35173 32996 03602 10012 21036 40195 52030 555 21008 32101 7005/;EQDQ01  00002PRCP99
0174351730999992000043006004+51620+069800FM-12+031299999V0203201N002010120019N0040001N1+00391-00531102091ADDAA100000591GA1061+012009029GF106991061021012501001001KA1120N-00081MD1210161+9999REMSYN082AAXX  30061 35173 /2696 63202 10039 21053 40209 52016 69940 86200 333 21008 86840;
0138351730999992000043009004+51620+069800FM-12+031299999V0203201N002010099019N0040001N1+00591-00541102141ADDGA1051+009909029GF105991051011012501001001MD1210081+9999REMSYN070AAXX  30091 35173 42696 53202 10059 21054 40214 52008 85100 333 85833;
0143351730999992000043012004+51620+069800FM-12+031299999V0201401N004012200019N0040001N1+00751-00711102061ADDGF102991021011012501001001MA1999999098351MD1810051+9999REMSYN076AAXX  30121 35173 42696 21404 10075 21071 39835 40206 58005 82100 555 11017;
0175351730999992000043018004+51620+069800FM-12+031299999V0201101N002012200019N0200001N1+00281-00411101971ADDAA199000091GA1001+999999999GF100991001001999999001001KA1999M+00821MD1710101+9999REMSYN064AAXX  30181 35173 32998 01102 10028 21041 40197 57010 333 10082;EQDQ01  00002PRCP99
0122351730999992000043021004+51620+069800FM-12+031299999V0201101N006012200019N0200001N1+00121-00331101851ADDGA1001+999999999GF100991001001999999001001MD1710121+9999REMSYN054AAXX  30211 35173 42998 01106 10012 21033 40185 57012;
0143351730999992000050100004+51620+069800FM-12+031299999V0200901N002019999999N0040001N1-00081-00291101341ADDGF108991021001999999071051MA1999999097551MD1710521+9999REMSYN076AAXX  01001 35173 42996 80902 11008 21029 39755 40134 57052 82075 555 11102;
0182351730999992000050103004+51620+069800FM-12+031299999V0201101N004019999999N0040001N1+00291-00261100931ADDAA199000091GF108991081001999999011999IA1099IA2999-00209MD1710361+9999REMSYN082AAXX  01031 35173 32996 81104 10029 21026 40093 57036 8801/ 555 21012 31102 7000/;EQDQ01  00002PRCP99
0143351730999992000050200004+51620+069800FM-12+031299999V0202701N002019999999N0040001N1+00471+00251100471ADDGF108991081001999999071999MA1999999096771MD1210251+9999REMSYN076AAXX  02001 35173 42996 82702 10047 20025 39677 40047 52025 8807/ 555 12004;
0195351730999992000050203004+51620+069800FM-12+031299999V0201801N002010072019N0040001N1+00701+00641100461ADDAA112000691GA1081+007209069GF108991081051008001999999IA1119IA2999+00409MD1210041+9999REMSYN098AAXX  02031 35173 /2596 81802 10070 20064 40046 52004 885// 333 88624 555 20044 32004 69962 7014/;
0180351730999992000050206004+51620+069800FM-12+031299999V0202001N004010075019N0040001N1+01211+00991100471ADDAA100000591AY181061AY221061GF108991081091008001999999KA1999N+00441MD1210071+9999MW1801REMSYN082AAXX  02061 35173 11596 82004 10121 20099 40047 52007 69960 78082 889// 333 20044;
0166351730999992000050209004+51620+069800FM-12+031299999V0202001N010010054019N0040001N1+01621+00771100421ADDAY181031AY221031GA1071+005409099GF107991071091004501001001MD1410001+9999MW1021REMSYN076AAXX  02091 35173 41496 72010 10162 20077 40042 54000 70282 87900 333 87918;
0197351730999992000050212004+51620+069800FM-12+031299999V0202501N008010069019N0040001N1+00751+00551100831ADDAY181061AY221061GA1081+006909099GF108991081091008001999999MA1999999097171MD1310291+9999MW1251REMSYN092AAXX  02121 35173 41596 82508 10075 20055 39717 40083 53029 72582 889// 333 88923 555 12008;
0145351730999992000050215004+51620+069800FM-12+031299999V0202301N004012200019N0040001N1+00711+00381101011ADDGF102991021031008001001001KA1120M+01721MD1210171+9999REMSYN080AAXX  02151 35173 /2596 22304 10071 20038 40101 52017 82300 333 10172 555 69992;
0162351730999992000050218004+51620+069800FM-12+031299999V0202301N002012200019N0200001N1+00331+00231101221ADDAA100001091GA1001+999999999GF100991001001999999001001KA1999M+01721MD1210151+9999REMSYN070AAXX  02181 35173 12998 02302 10033 20023 40122 52015 69990 333 10172;
0122351730999992000050221004+51620+069800FM-12+031299999V0201801N002012200019N0200001N1+00281+00231101081ADDGA1001+999999999GF100991001001999999001001MD1810141+9999REMSYN054AAXX  02211 35173 42998 01802 10028 20023 40108 58014;
0169351730999992000050300004+51620+069800FM-12+031299999V0201801N004010063019N0040001N1+00301+00271100991ADDGA1081+006309069GF108991081051008001999999MA1999999097271MD1710081+9999REMSYN086AAXX  03001 35173 42596 81804 10030 20027 39727 40099 57008 885// 333 88621 555 12003;
0202351730999992000050306004+51620+069800FM-12+031299999V0202701N004010063019N0040001N1+00721+00211101061ADDAA100000591AY161061AY221061GA1061+006309059GF106991061051008001001001KA1120N+00251MD1210061+9999MW1021REMSYN088AAXX  03061 35173 11596 62704 10072 20021 40106 52006 69940 70262 86500 333 20025 86621;
0138351730999992000050309004+51620+069800FM-12+031299999V0202301N010010081019N0040001N1+00921+00171100991ADDGA1081+008109059GF108991081071008001999999MD1810051+9999REMSYN070AAXX  03091 35173 42596 82310 10092 20017 40099 58005 887// 333 88627;
0203351730999992000050312004+51620+069800FM-12+031299999V0202501N01201004201CN0040001N1+00951-00331101071ADDGA1041+004809099GF105991051031004501001001MA1999999097421MD1310081+9999OA140101601OA249901801REMSYN098AAXX  03121 35173 42496 52512 10095 21033 39742 40107 53008 85300 333 84916 91016 91118 555 12013;
0165351730999992000050315004+51620+069800FM-12+031299999V0202501N006019999999N0040001N1+00631-00651101321ADDAA199000091GF105991001001999999001031KA1999M+01071MD1210201+9999REMSYN070AAXX  03151 35173 32996 52506 10063 21065 40132 52020 80003 333 10107;EQDQ01  00002PRCP99
0175351730999992000050318004+51620+069800FM-12+031299999V0202501N004012200019N0200001N1+00121-00441101421ADDAA199000091GA1001+999999999GF100991001001999999001001KA1999M+01071MD1210041+9999REMSYN064AAXX  03181 35173 32998 02504 10012 21044 40142 52004 333 10107;EQDQ01  00002PRCP99
0122351730999992000050321004+51620+069800FM-12+031299999V0201801N002012200019N0200001N1+00041-00471101441ADDGA1001+999999999GF100991001001999999001001MD1410001+9999REMSYN054AAXX  03211 35173 42998 01802 10004 21047 40144 54000;
0143351730999992000050400004+51620+069800FM-12+031299999V0202301N002019999999N0040001N1-00311-00731101531ADDGF105991001001999999001081MA1999999097691MD1310031+9999REMSYN076AAXX  04001 35173 42996 52302 11031 21073 39769 40153 53003 80008 555 11105;
0182351730999992000050403004+51620+069800FM-12+031299999V0201801N002019999999N0040001N1+00241-00121101431ADDAA199000091GF108991081001999999071999IA1099IA2999-00509MD1810011+9999REMSYN082AAXX  04031 35173 32996 81802 10024 21012 40143 58001 8807/ 555 21034 31105 7994/;EQDQ01  00002PRCP99
0182351730999992000050503004+51620+069800FM-12+031299999V0202701N004010075019N0040001N1+00221-00121101641ADDAA199000091GF107991071091008001001001IA1119IA2999-00109MD1210291+9999REMSYN082AAXX  05031 35173 32596 72704 10022 21012 40164 52029 87900 555 21004 32101 7002/;EQDQ01  00002PRCP99
0193351730999992000050506004+51620+069800FM-12+031299999V0202501N004010075019N0040001N1+00471-00231101831ADDAA199000091AY181061AY221061GF106991061091008001001001KA1999N-00041MD1210211+9999MW1021REMSYN076AAXX  05061 35173 31596 62504 10047 21023 40183 52021 70282 86900 333 21004;EQDQ01  00002PRCP99
0140351730999992000050509004+51620+069800FM-12+031299999V0202701N008010075019N0040001N1+00651-00571102091ADDAY181031AY221031GF106991061091008001001001MD1210271+9999MW1021REMSYN066AAXX  05091 35173 41596 62708 10065 21057 40209 52027 70282 86900;
0171351730999992000050512004+51620+069800FM-12+031299999V0202701N010010075019N0040001N1+00951-00441102241ADDAY181061AY221061GF107991071091008001001001MA1999999098551MD1210191+9999MW1021REMSYN082AAXX  05121 35173 41596 72710 10095 21044 39855 40224 52019 70282 87900 555 11015;
0145351730999992000050515004+51620+069800FM-12+031299999V0202701N002012200019N0040001N1+00761-00441102471ADDGF103991031041008001001041KA1120M+01071MD1210191+9999REMSYN080AAXX  05151 35173 /2596 32702 10076 21044 40247 52019 83404 333 10107 555 69902;
0162351730999992000050518004+51620+069800FM-12+031299999V0201801N002012200019N0200001N1+00321-00161102711ADDAA100000791GA1001+999999999GF100991001001999999001001KA1999M+01071MD1210181+9999REMSYN070AAXX  05181 35173 12998 01802 10032 21016 40271 52018 69900 333 10107;
0122351730999992000050521004+51620+069800FM-12+031299999V0202301N002012200019N0200001N1+00311-00071102711ADDGA1001+999999999GF100991001001999999001001MD1410001+9999REMSYN054AAXX  05211 35173 42998 02302 10031 21007 40271 54000;
0147351730999992000050600004+51620+069800FM-12+031299999V0202301N002012200019N0040001N1+00121+99999102761ADDGA1001+999999999GF100991001001999999001001MA1999999098941MD1310021+9999REMSYN064AAXX  06001 35173 42996 02302 10012 39894 40276 53002 555 12101;
0192351730999992000050603004+51620+069800FM-12+031299999V0202301N004012200019N0040001N1+00891-00051102611ADDAA199000091GA1001+999999999GF100991001001999999001001IA1099IA2999-00209MD1810041+9999REMSYN076AAXX  06031 35173 32996 02304 10089 21005 40261 58004 555 20008 31102 7990/;EQDQ01  00002PRCP99
0112351730999992000050609004+51620+069800FM-12+031299999V0202701N008010075019N0040001N1+01571-00441102111ADDGF107991071021008001001001MD1710271+9999REMSYN060AAXX  06091 35173 42596 72708 10157 21044 40211 57027 87200;
0143351730999992000050612004+51620+069800FM-12+031299999V0202501N008010075019N0040001N1+01591-00501102041ADDGF107991051021008001061001MA1999999098431MD1710071+9999REMSYN076AAXX  06121 35173 42596 72508 10159 21050 39843 40204 57007 85260 555 10018;
0165351730999992000050615004+51620+069800FM-12+031299999V0202301N004010075019N0040001N1+01391-00141102141ADDAA199000091GF107991071051008001001001KA1999M+01761MD1310081+9999REMSYN070AAXX  06151 35173 32596 72304 10139 21014 40214 53008 87500 333 10176;EQDQ01  00002PRCP99
0175351730999992000050618004+51620+069800FM-12+031299999V0202301N002012200019N0200001N1+00871+00171102301ADDAA199000091GA1001+999999999GF100991001001999999001001KA1999M+01761MD1210101+9999REMSYN064AAXX  06181 35173 32998 02302 10087 20017 40230 52010 333 10176;EQDQ01  00002PRCP99
0122351730999992000050621004+51620+069800FM-12+031299999V0202301N002012200019N0200001N1+00761+00171102201ADDGA1001+999999999GF100991001001999999001001MD1810121+9999REMSYN054AAXX  06211 35173 42998 02302 10076 20017 40220 58012;
0143351730999992000050700004+51620+069800FM-12+031299999V0202301N002019999999N0040001N1+00771+00271102251ADDGF108991081001999999071999MA1999999098541MD1310051+9999REMSYN076AAXX  07001 35173 42996 82302 10077 20027 39854 40225 53005 8807/ 555 10006;
0182351730999992000050703004+51620+069800FM-12+031299999V0202701N002010075019N0040001N1+01091+00341102261ADDAA199000091GF107991071051008001001001IA1019IA2999+00309MD1210041+9999REMSYN082AAXX  07031 35173 32596 72702 10109 20034 40226 52004 87500 555 20066 30003 7000/;EQDQ01  00002PRCP99
0165351730999992000050706004+51620+069800FM-12+031299999V0202701N004010075019N0040001N1+01711-00331102161ADDAA199000091GF106991061021008001001001KA1999N+00661MD1810011+9999REMSYN070AAXX  07061 35173 32596 62704 10171 21033 40216 58001 86200 333 20066;EQDQ01  00002PRCP99
0112351730999992000050709004+51620+069800FM-12+031299999V0201801N002010120019N0040001N1+01771-00121102041ADDGF106991061021012501001001MD1710111+9999REMSYN060AAXX  07091 35173 42696 61802 10177 21012 40204 57011 86200;
0143351730999992000050712004+51620+069800FM-12+031299999V0201801N004012200019N0040001N1+01871-00191101811ADDGF103991021041008001001041MA1999999098241MD1710221+9999REMSYN076AAXX  07121 35173 42596 31804 10187 21019 39824 40181 57022 82404 555 10025;
0165351730999992000050715004+51620+069800FM-12+031299999V0201801N004019999999N0040001N1+01491+00461101661ADDAA199000091GF108991001001999999001081KA1999M+02001MD1710171+9999REMSYN070AAXX  07151 35173 32996 81804 10149 20046 40166 57017 80008 333 10200;EQDQ01  00002PRCP99
0165351730999992000050718004+51620+069800FM-12+031299999V0201801N002019999999N0200001N1+01111+00361101561ADDAA199000091GF108991001001999999001081KA1999M+02001MD1710151+9999REMSYN070AAXX  07181 35173 32998 81802 10111 20036 40156 57015 80008 333 10200;EQDQ01  00002PRCP99
0112351730999992000050721004+51620+069800FM-12+031299999V0201401N002019999999N0200001N1+01091+00401101241ADDGF108991081001999999011999MD1710311+9999REMSYN060AAXX  07211 35173 42998 81402 10109 20040 40124 57031 8801/;
0143351730999992000050800004+51620+069800FM-12+031299999V0209999C000010075019N0040001N1+00931+00611101071ADDGF108991081051008001999999MA1999999097421MD1710191+9999REMSYN076AAXX  08001 35173 42596 80000 10093 20061 39742 40107 57019 885// 555 10008;
0182351730999992000050803004+51620+069800FM-12+031299999V0200501N002010075019N0040001N1+01161+00531100711ADDAA199000091GF107991071051008001001001IA1019IA2999+00809MD1710311+9999REMSYN082AAXX  08031 35173 32596 70502 10116 20053 40071 57031 87500 555 20090 30008 7000/;EQDQ01  00002PRCP99
0165351730999992000050806004+51620+069800FM-12+031299999V0200901N002019999999N0040001N1+01521+00481100351ADDAA199000091GF106991061001999999071001KA1999N+00901MD1710311+9999REMSYN070AAXX  08061 35173 32996 60902 10152 20048 40035 57031 86070 333 20090;EQDQ01  00002PRCP99
0112351730999992000050809004+51620+069800FM-12+031299999V0209999C000010075019N0040001N1+01651+00581100161ADDGF108991081091008001999999MD1710161+9999REMSYN060AAXX  08091 35173 42596 80000 10165 20058 40016 57016 889//;
0171351730999992000050812004+51620+069800FM-12+031299999V0203201N004010075019N0040001N1+01511+00591100271ADDAY181061AY221061GF108991081091008001999999MA1999999096721MD1310081+9999MW1021REMSYN082AAXX  08121 35173 41596 83204 10151 20059 39672 40027 53008 70282 889// 555 11016;
0155351730999992000050815004+51620+069800FM-12+031299999V0202701N002012200019N0040001N1+01201+00621100531ADDGA1001+999999999GF100991001001999999001001KA1120M+01981MD1210211+9999REMSYN074AAXX  08151 35173 /2996 02702 10120 20062 40053 52021 333 10198 555 69932;
0162351730999992000050818004+51620+069800FM-12+031299999V0202701N002012200019N0200001N1+00681+00451100901ADDAA100000391GA1001+999999999GF100991001001999999001001KA1999M+01981MD1210301+9999REMSYN070AAXX  08181 35173 12998 02702 10068 20045 40090 52030 69930 333 10198;
0112351730999992000050821004+51620+069800FM-12+031299999V0203201N004012200019N0200001N1+00801+00531101051ADDGF103991001001999999001071MD1210161+9999REMSYN060AAXX  08211 35173 42998 33204 10080 20053 40105 52016 80007;
0162351730999992000050900004+51620+069800FM-12+031299999V0209999C000019999999N0040001N1+00591+00471101251ADDGF105991999051008001001001MA1999999097551MD1210161+9999REMSYN076AAXX  09001 35173 42596 50000 10059 20047 39755 40125 52016 86500 555 10004;EQDQ01+000062SCOTLC
0182351730999992000050903004+51620+069800FM-12+031299999V0203601N002010300019N0040001N1+00811+00151101421ADDAA199000091GF105991021021012501031001IA1019IA2999+00409MD1210191+9999REMSYN082AAXX  09031 35173 32696 53602 10081 20015 40142 52019 82230 555 20055 30004 7993/;EQDQ01  00002PRCP99
0165351730999992000050906004+51620+069800FM-12+031299999V0202901N004012200019N0040001N1+01331-00171101491ADDAA199000091GF102991021021012501001001KA1999N+00551MD1210141+9999REMSYN070AAXX  09061 35173 32696 22904 10133 21017 40149 52014 82200 333 20055;EQDQ01  00002PRCP99
0112351730999992000050909004+51620+069800FM-12+031299999V0202901N004012200019N0040001N1+01691-00171101491ADDGF102991021011008001001001MD1210031+9999REMSYN060AAXX  09091 35173 42596 22904 10169 21017 40149 52003 82100;
0143351730999992000050912004+51620+069800FM-12+031299999V0202501N002012200019N0040001N1+01751-00121101441ADDGF102991001001999999001051MA1999999097881MD1810031+9999REMSYN076AAXX  09121 35173 42996 22502 10175 21012 39788 40144 58003 80005 555 10029;
0175351730999992000050915004+51620+069800FM-12+031299999V0209999C000012200019N0040001N1+01631+00231101461ADDAA199000091GA1001+999999999GF100991001001999999001001KA1999M+02001MD1410001+9999REMSYN064AAXX  09151 35173 32996 00000 10163 20023 40146 54000 333 10200;EQDQ01  00002PRCP99
0175351730999992000050918004+51620+069800FM-12+031299999V0200501N002012200019N0200001N1+01141-00021101501ADDAA199000091GA1001+999999999GF100991001001999999001001KA1999M+02001MD1810021+9999REMSYN064AAXX  09181 35173 32998 00502 10114 21002 40150 58002 333 10200;EQDQ01  00002PRCP99
0112351730999992000050921004+51620+069800FM-12+031299999V0200901N004012200019N0200001N1+01111+00061101401ADDGF103991031001999999011001MD1710101+9999REMSYN060AAXX  09211 35173 42998 30904 10111 20006 40140 57010 83010;
0143351730999992000051000004+51620+069800FM-12+031299999V0200901N006019999999N0040001N1+01021-00071101231ADDGF108991081001012501011999MA1999999097581MD1710181+9999REMSYN076AAXX  10001 35173 42696 80906 10102 21007 39758 40123 57018 8801/ 555 10010;
0187351730999992000051003004+51620+069800FM-12+031299999V0200901N002010042019N0040001N1+01091+00681100961ADDAY161031AY221031GF108991999071004501021999MD1710241+9999MW1611REMSYN094AAXX  10031 35173 /1496 80902 10109 20068 40096 57024 76162 8872/ 555 20095 30009 69932 7993/;EQDQ01+000082SCOTLC
0180351730999992000051006004+51620+069800FM-12+031299999V0200901N002019999999N0040001N1+01351+00891100691ADDAA100000391AY161061AY221061GF108991081001999999071999KA1999N+00951MD1710231+9999MW1021REMSYN082AAXX  10061 35173 11996 80902 10135 20089 40069 57023 69930 70262 8807/ 333 20095;
0143351730999992000051012004+51620+069800FM-12+031299999V0202501N010010075019N0040001N1+02091+01061099791ADDGF106991061021008001001001MA1999999096331MD1710261+9999REMSYN076AAXX  10121 35173 42596 62510 10209 20106 39633 49979 57026 86200 555 10028;
0145351730999992000051015004+51620+069800FM-12+031299999V0202701N004012200019N0040001N1+01491+00231100221ADDGF102991021021008001061001KA1120M+02341MD1310351+9999REMSYN080AAXX  10151 35173 /2596 22704 10149 20023 40022 53035 82260 333 10234 555 69912;
0162351730999992000051018004+51620+069800FM-12+031299999V0202301N004012200019N0200001N1+01011+00291100451ADDAA100000191GA1001+999999999GF100991001001999999001001KA1999M+02341MD1210151+9999REMSYN070AAXX  10181 35173 12998 02304 10101 20029 40045 52015 69910 333 10234;
0122351730999992000051021004+51620+069800FM-12+031299999V0201801N006012200019N0200001N1+00991+00341100291ADDGA1001+999999999GF100991001001999999001001MD1810151+9999REMSYN054AAXX  10211 35173 42998 01806 10099 20034 40029 58015;
0143351730999992000051100004+51620+069800FM-12+031299999V0202001N008019999999N0040001N1+01111+00411100201ADDGF108991031001999999071051MA1999999096611MD1710071+9999REMSYN076AAXX  11001 35173 42996 82008 10111 20041 39661 40020 57007 83075 555 10010;
0182351730999992000051103004+51620+069800FM-12+031299999V0201801N006010120019N0040001N1+01051+00701100111ADDAA199000091GF108991081081008001999999IA1019IA2999+00709MD1710091+9999REMSYN082AAXX  11031 35173 32596 81806 10105 20070 40011 57009 888// 555 20095 30007 7991/;EQDQ01  00002PRCP99
0188351730999992000051106004+51620+069800FM-12+031299999V0202001N010010120019N0040001N1+01281+00251100111ADDAA199000091GF106991061021012501001001KA1120N+00951MD1310021+9999OA140101601REMSYN082AAXX  11061 35173 32696 62010 10128 20025 40011 53002 86200 333 20095 91016 91118;EQDQ01  00002PRCP99
0122351730999992000051109004+51620+069800FM-12+031299999V0202301N008010075019N0040001N1+01111+00411100261ADDGF108991081091008001999999MD1210131+9999REMSYN070AAXX  11091 35173 42596 82308 10111 20041 40026 52013 889// 333 91116;
0164351730999992000051112004+51620+069800FM-12+031299999V0202001N008010075019N0040001N1+01231+00301100081ADDGF108991081091008001999999MA1999999096501MD1810171+9999OA149901601REMSYN086AAXX  11121 35173 42596 82008 10123 20030 39650 40008 58017 889// 333 91116 555 10019;
0193351730999992000051118004+51620+069800FM-12+031299999V0201801N002010075019N0200001N1+00611+00351100301ADDAA199000091AY181061AY221061GF107991071091008001001001KA1999M+01441MD1210021+9999MW1021REMSYN076AAXX  11181 35173 31598 71802 10061 20035 40030 52002 70282 87900 333 10144;EQDQ01  00002PRCP99
0112351730999992000051121004+51620+069800FM-12+031299999V0201801N002010075019N0200001N1+00551+00381100301ADDGF106991061041008001001001MD1810011+9999REMSYN060AAXX  11211 35173 42598 61802 10055 20038 40030 58001 86400;
0171351730999992000051200004+51620+069800FM-12+031299999V0202301N002010075019N0040001N1+00551+00431100341ADDAY181061AY221061GF106991061091008001001001MA1999999096671MD1310041+9999MW1021REMSYN082AAXX  12001 35173 41596 62302 10055 20043 39667 40034 53004 70282 86900 555 11005;
0168351730999992000051203004+51620+069800FM-12+031299999V0202301N004010075019N0040001N1+00751+00641100381ADDAY181031AY221031GF108991081091008001999999MD1210071+9999MW1251REMSYN094AAXX  12031 35173 /1596 82304 10075 20064 40038 52007 72582 889// 555 20049 31003 69952 7995/;
0199351730999992000051206004+51620+069800FM-12+031299999V0202701N004010075019N0040001N1+00871+00461100681ADDAA100000591AY181061AY221061GF108991999051008001021999KA1999N+00491MD1210311+9999MW1021REMSYN082AAXX  12061 35173 11596 82704 10087 20046 40068 52031 69950 70282 8852/ 333 20049;EQDQ01+000082SCOTLC
0112351730999992000051209004+51620+069800FM-12+031299999V0202701N006010075019N0040001N1+01021+00381100751ADDGF108991081021008001999999MD1210171+9999REMSYN060AAXX  12091 35173 42596 82706 10102 20038 40075 52017 882//;
0143351730999992000051212004+51620+069800FM-12+031299999V0202701N004010075019N0040001N1+01151+00291101001ADDGF107991071021008001001001MA1999999097381MD1210261+9999REMSYN076AAXX  12121 35173 42596 72704 10115 20029 39738 40100 52026 87200 555 10014;
0173351730999992000051215004+51620+069800FM-12+031299999V0202701N004010042019N0040001N1+00841+00731101241ADDAY181031AY221031GF108991081091004501999999KA1120M+01241MD1210201+9999MW1801REMSYN086AAXX  12151 35173 /1496 82704 10084 20073 40124 52020 78082 889// 333 10124 555 60022;
0180351730999992000051218004+51620+069800FM-12+031299999V0202301N002010075019N0200001N1+00661+00521101431ADDAA100002091AY181061AY221061GF107991071051008001001001KA1999M+01241MD1210191+9999MW1021REMSYN082AAXX  12181 35173 11598 72302 10066 20052 40143 52019 60020 70282 87500 333 10124;
0112351730999992000051221004+51620+069800FM-12+031299999V0202301N002010075019N0200001N1+00611+00501101521ADDGF108991081051008001999999MD1210071+9999REMSYN060AAXX  12211 35173 42598 82302 10061 20050 40152 52007 885//;
0162351730999992000051300004+51620+069800FM-12+031299999V0209999C000010042019N0040001N1+00601+00491101601ADDGF108991999051004501021999MA1999999097891MD1210081+9999REMSYN076AAXX  13001 35173 42496 80000 10060 20049 39789 40160 52008 8852/ 555 11006;EQDQ01+000082SCOTLC
0140351730999992000051303004+51620+069800FM-12+031299999V0202001N002010120019N0040001N1+00771+00481101661ADDGF108991081081008001999999MD1210081+9999REMSYN088AAXX  13031 35173 /2596 82002 10077 20048 40166 52008 888// 555 20057 31005 60042 7005/;
0152351730999992000051306004+51620+069800FM-12+031299999V0202501N002010120019N0040001N1+01191+00621101611ADDAA100004191GF107991071021012501001001KA1999N+00571MD1210011+9999REMSYN076AAXX  13061 35173 12696 72502 10119 20062 40161 52001 60040 87200 333 20057;
0112351730999992000051309004+51620+069800FM-12+031299999V0202501N004010075019N0040001N1+01331+00381101621ADDGF107991071091008001001001MD1210021+9999REMSYN060AAXX  13091 35173 42596 72504 10133 20038 40162 52002 87900;
0171351730999992000051312004+51620+069800FM-12+031299999V0209999C000010300019N0040001N1+01371+00381101681ADDAY181061AY221061GF106991031021012501061001MA1999999098071MD1210071+9999MW1021REMSYN082AAXX  13121 35173 41696 60000 10137 20038 39807 40168 52007 70282 83260 555 11022;
0155351730999992000051315004+51620+069800FM-12+031299999V0209999C000012200019N0040001N1+01211+00561101801ADDGA1001+999999999GF100991001001999999001001KA1120M+01461MD1210091+9999REMSYN074AAXX  13151 35173 /2696 00000 10121 20056 40180 52009 333 10146 555 69912;
0162351730999992000051318004+51620+069800FM-12+031299999V0209999C000012200019N0200001N1+00671+00411101981ADDAA100000191GA1001+999999999GF100991001001999999001001KA1999M+01461MD1210121+9999REMSYN070AAXX  13181 35173 12998 00000 10067 20041 40198 52012 69910 333 10146;
0122351730999992000051321004+51620+069800FM-12+031299999V0209999C000012200019N0200001N1+00631+00421102071ADDGA1001+999999999GF100991001001999999001001MD1210061+9999REMSYN054AAXX  13211 35173 42998 00000 10063 20042 40207 52006;
0153351730999992000051400004+51620+069800FM-12+031299999V0209999C000012200019N0040001N1+00551+00361102081ADDGA1001+999999999GF100991001001999999001001MA1999999098341MD1410001+9999REMSYN070AAXX  14001 35173 42996 00000 10055 20036 39834 40208 54000 555 11003;
0165351730999992000051406004+51620+069800FM-12+031299999V0202001N004010750019N0040001N1+01691+00361101991ADDAA199000091GF107991021011012501001061KA1999N+00531MD1810021+9999REMSYN070AAXX  14061 35173 32696 72004 10169 20036 40199 58002 82106 333 20053;EQDQ01  00002PRCP99
0112351730999992000051409004+51620+069800FM-12+031299999V0201401N004012200019N0040001N1+01881+00321101831ADDGF106991031011012501001061MD1710131+9999REMSYN060AAXX  14091 35173 42696 61404 10188 20032 40183 57013 83106;
0143351730999992000051412004+51620+069800FM-12+031299999V0201601N008012200019N0040001N1+01931+00301101761ADDGF106991011011012501001061MA1999999098211MD1710071+9999REMSYN076AAXX  14121 35173 42696 61608 10193 20030 39821 40176 57007 81106 555 10028;
0165351730999992000051415004+51620+069800FM-12+031299999V0201801N004019999999N0040001N1+01671+00381101721ADDAA199000091GF106991031001999999071021KA1999M+02051MD1710071+9999REMSYN070AAXX  14151 35173 32996 61804 10167 20038 40172 57007 83072 333 10205;EQDQ01  00002PRCP99
0165351730999992000051418004+51620+069800FM-12+031299999V0201401N006019999999N0200001N1+01451+00511101621ADDAA199000091GF107991071001999999051001KA1999M+02051MD1710111+9999REMSYN070AAXX  14181 35173 32998 71406 10145 20051 40162 57011 87050 333 10205;EQDQ01  00002PRCP99
0131351730999992000051421004+51620+069800FM-12+031299999V0201401N999999999999N0200001N1+01411+00511101591ADDGF108991081001999999071999MD1710051+9999REMSYN060AAXX  14211 35173 42998 81498 10141 20051 40159 57005 8807/;EQDQ01+009801WOSPD 
0143351730999992000051500004+51620+069800FM-12+031299999V0201601N006010300019N0040001N1+01331+00511101521ADDGF108991031051008001071999MA1999999097901MD1710081+9999REMSYN076AAXX  15001 35173 42596 81606 10133 20051 39790 40152 57008 8357/ 555 10012;
0182351730999992000051503004+51620+069800FM-12+031299999V0201801N006019999999N0040001N1+01521+00531101471ADDAA199000091GF105991051001999999011001IA1019IA2999+01209MD1710021+9999REMSYN082AAXX  15031 35173 32996 51806 10152 20053 40147 57002 85010 555 20130 30012 7000/;EQDQ01  00002PRCP99
0165351730999992000051506004+51620+069800FM-12+031299999V0202701N004010120019N0040001N1+01501+00041101641ADDAA199000091GF106991061081008001001001KA1999N+01301MD1310171+9999REMSYN070AAXX  15061 35173 32596 62704 10150 20004 40164 53017 86800 333 20130;EQDQ01  00002PRCP99
0112351730999992000051509004+51620+069800FM-12+031299999V0202701N006012200019N0040001N1+01371-00251101661ADDGF103991021001999999071051MD1210041+9999REMSYN060AAXX  15091 35173 42996 32706 10137 21025 40166 52004 82075;
0143351730999992000051512004+51620+069800FM-12+031299999V0203201N004010300019N0040001N1+01671-00171101711ADDGF107991031021008001021001MA1999999098121MD1210031+9999REMSYN076AAXX  15121 35173 42596 73204 10167 21017 39812 40171 52003 83220 555 10025;
0165351730999992000051515004+51620+069800FM-12+031299999V0202701N002019999999N0040001N1+01351+00231101731ADDAA199000091GF106991061001999999081001KA1999M+01861MD1810021+9999REMSYN070AAXX  15151 35173 32996 62702 10135 20023 40173 58002 86080 333 10186;EQDQ01  00002PRCP99
0165351730999992000051518004+51620+069800FM-12+031299999V0202901N002019999999N0200001N1+01191+00211101621ADDAA199000091GF108991081001999999011999KA1999M+01861MD1710111+9999REMSYN070AAXX  15181 35173 32998 82902 10119 20021 40162 57011 8801/ 333 10186;EQDQ01  00002PRCP99
0112351730999992000051521004+51620+069800FM-12+031299999V0203601N002010075019N0200001N1+01171+00461101521ADDGF108991081051008001999999MD1710101+9999REMSYN060AAXX  15211 35173 42598 83602 10117 20046 40152 57010 885//;
0171351730999992000051600004+51620+069800FM-12+031299999V0200701N002010075019N0040001N1+01031+00581101381ADDAY181061AY221061GF106991061091008001001001MA1999999097731MD1710161+9999MW1021REMSYN082AAXX  16001 35173 41596 60702 10103 20058 39773 40138 57016 70282 86900 555 10009;
0140351730999992000051603004+51620+069800FM-12+031299999V0201801N002010075019N0040001N1+01111+00711101391ADDGF108991081051008001999999MD1310021+9999REMSYN088AAXX  16031 35173 /2596 81802 10111 20071 40139 53002 885// 555 20100 30009 69902 7990/;
0152351730999992000051606004+51620+069800FM-12+031299999V0201801N004010075019N0040001N1+01361+00801101371ADDAA100000791GF108991061021008001061999KA1999N+01001MD1210021+9999REMSYN076AAXX  16061 35173 12596 81804 10136 20080 40137 52002 69900 8626/ 333 20100;
0112351730999992000051609004+51620+069800FM-12+031299999V0202501N004010075019N0040001N1+01611+00651101321ADDGF108991051021008001061999MD1810031+9999REMSYN060AAXX  16091 35173 42596 82504 10161 20065 40132 58003 8526/;
0143351730999992000051612004+51620+069800FM-12+031299999V0201801N006019999999N0040001N1+01371+00881101361ADDGF108991081001999999071999MA1999999097761MD1310021+9999REMSYN076AAXX  16121 35173 42996 81806 10137 20088 39776 40136 53002 8807/ 555 10020;
0165351730999992000051615004+51620+069800FM-12+031299999V0201801N002010300019N0040001N1+01251+00811101371ADDAA199000091GF106991031071004501011001KA1999M+01711MD1410001+9999REMSYN070AAXX  16151 35173 32496 61802 10125 20081 40137 54000 83710 333 10171;EQDQ01  00002PRCP99
0165351730999992000051618004+51620+069800FM-12+031299999V0201801N002012200019N0200001N1+00821+00701101421ADDAA199000091GF103991001001999999001011KA1999M+01711MD1810021+9999REMSYN070AAXX  16181 35173 32998 31802 10082 20070 40142 58002 80001 333 10171;EQDQ01  00002PRCP99
0150351730999992000051621004+51620+069800FM-12+031299999V0209999C000012200019N0010001N1+00511+00461101361ADDAY101031AY201031GA1001+999999999GF100991001001999999001001MD1710091+9999MW1101REMSYN060AAXX  16211 35173 41994 00000 10051 20046 40136 57009 71000;
0171351730999992000051700004+51620+069800FM-12+031299999V0209999C000019999999N0020001N1+00391+00341101361ADDAY111061AY211061GF106991001001999999001071MA1999999097631MD1710021+9999MW1101REMSYN082AAXX  17001 35173 41995 60000 10039 20034 39763 40136 57002 71011 80007 555 10004;
0220351730999992000051703004+51620+069800FM-12+031299999V0200901N004012200019N0040001N1+01071+00481101201ADDAA199000091AY141031AY211031GA1001+999999999GF100991001001999999001001IA1019IA2999+00309MD1710061+9999MW1021REMSYN082AAXX  17031 35173 31996 00904 10107 20048 40120 57006 70241 555 20037 30003 7000/;EQDQ01  00002PRCP99
0193351730999992000051706004+51620+069800FM-12+031299999V0200901N004019999999N0040001N1+01691+00361100891ADDAA199000091AY141061AY211061GF105991001001999999001021KA1999N+00371MD1710231+9999MW1031REMSYN076AAXX  17061 35173 31996 50904 10169 20036 40089 57023 70341 80002 333 20037;EQDQ01  00002PRCP99
0143351730999992000051712004+51620+069800FM-12+031299999V0202701N006012200019N0040001N1+02121+00251100611ADDGF102991021011012501001001MA1999999097121MD1710051+9999REMSYN076AAXX  17121 35173 42696 22706 10212 20025 39712 40061 57005 82100 555 10034;
0175351730999992000051715004+51620+069800FM-12+031299999V0203201N002012200019N0040001N1+01821+00621100631ADDAA199000091GA1001+999999999GF100991001001999999001001KA1999M+02181MD1710021+9999REMSYN064AAXX  17151 35173 32996 03202 10182 20062 40063 57002 333 10218;EQDQ01  00002PRCP99
0175351730999992000051718004+51620+069800FM-12+031299999V0209999C000012200019N0200001N1+01091+00411100771ADDAA199000091GA1001+999999999GF100991001001999999001001KA1999M+02181MD1310061+9999REMSYN064AAXX  17181 35173 32998 00000 10109 20041 40077 53006 333 10218;EQDQ01  00002PRCP99
0122351730999992000051721004+51620+069800FM-12+031299999V0209999C000012200019N0200001N1+00831+00411100761ADDGA1001+999999999GF100991001001999999001001MD1810061+9999REMSYN054AAXX  17211 35173 42998 00000 10083 20041 40076 58006;
0153351730999992000051800004+51620+069800FM-12+031299999V0209999C000012200019N0200001N1+00591+00521100701ADDGA1001+999999999GF100991001001999999001001MA1999999097021MD1710081+9999REMSYN070AAXX  18001 35173 42998 00000 10059 20052 39702 40070 57008 555 10004;
0165351730999992000051806004+51620+069800FM-12+031299999V0201801N008012200019N0040001N1+02031+00151100161ADDAA199000091GF103991031021012501001001KA1999N+00551MD1710201+9999REMSYN070AAXX  18061 35173 32696 31808 10203 20015 40016 57020 83200 333 20055;EQDQ01  00002PRCP99
0150351730999992000051809004+51620+069800FM-12+031299999V0202701N012010042019N0040001N1+00852+00361100611ADDAY181031AY211031GF108991081091004501999999MD1310281+9999MW1801REMSYN076AAXX  18091 35173 41496 82712 10085 20036 40061 53028 78081 889// 333 91016;
0171351730999992000051812004+51620+069800FM-12+031299999V0202501N010012200019N0040001N1+01071-00671100731ADDAY181061AY211061GF104991041041008001001001MA1999999097101MD1210141+9999MW1011REMSYN082AAXX  18121 35173 41596 42510 10107 21067 39710 40073 52014 70181 84400 555 10016;
0145351730999992000051815004+51620+069800FM-12+031299999V0202501N008012200019N0040001N1+00871-00571100911ADDGF103991021041008001081001KA1120M+02231MD1210151+9999REMSYN080AAXX  18151 35173 /2596 32508 10087 21057 40091 52015 82480 333 10223 555 69942;
0162351730999992000051818004+51620+069800FM-12+031299999V0202301N004012200019N0200001N1+00431-00251101171ADDAA100000591GA1001+999999999GF100991001001999999001001KA1999M+02231MD1210201+9999REMSYN070AAXX  18181 35173 12998 02304 10043 21025 40117 52020 69940 333 10223;
0122351730999992000051821004+51620+069800FM-12+031299999V0202301N004012200019N0200001N1+00301-00381101321ADDGA1001+999999999GF100991001001999999001001MD1210131+9999REMSYN054AAXX  18211 35173 42998 02304 10030 21038 40132 52013;
0153351730999992000051900004+51620+069800FM-12+031299999V0202301N004012200019N0200001N1+00201-00371101351ADDGA1001+999999999GF100991001001999999001001MA1999999097601MD1210021+9999REMSYN070AAXX  19001 35173 42998 02304 10020 21037 39760 40135 52002 555 10100;
0182351730999992000051903004+51620+069800FM-12+031299999V0202301N004012200019N0040001N1+00831-00221101291ADDAA199000091GF102991001001999999001011IA1019IA2999-00109MD1210021+9999REMSYN082AAXX  19031 35173 32996 22304 10083 21022 40129 52002 80001 555 20012 30101 7994/;EQDQ01  00002PRCP99
0165351730999992000051906004+51620+069800FM-12+031299999V0202501N006012200019N0040001N1+01241-00541101191ADDAA199000091GF103991011011012501001081KA1999N+00121MD1810051+9999REMSYN070AAXX  19061 35173 32696 32506 10124 21054 40119 58005 81108 333 20012;EQDQ01  00002PRCP99
0112351730999992000051909004+51620+069800FM-12+031299999V0202301N006010750019N0040001N1+01471-00441101011ADDGF106991041011012501001081MD1710151+9999REMSYN060AAXX  19091 35173 42696 62306 10147 21044 40101 57015 84108;
0143351730999992000051912004+51620+069800FM-12+031299999V0202301N006010300019N0040001N1+01521-00301100781ADDGF106991021011012501071001MA1999999097221MD1710201+9999REMSYN076AAXX  19121 35173 42696 62306 10152 21030 39722 40078 57020 82170 555 10029;
0165351730999992000051915004+51620+069800FM-12+031299999V0201801N002012200019N0040001N1+01301-00331100631ADDAA199000091GF102991021041008001001001KA1999M+01721MD1710171+9999REMSYN070AAXX  19151 35173 32596 21802 10130 21033 40063 57017 82400 333 10172;EQDQ01  00002PRCP99
0175351730999992000051918004+51620+069800FM-12+031299999V0201801N002012200019N0200001N1+00741-00171100631ADDAA199000091GA1001+999999999GF100991001001999999001001KA1999M+01721MD1710081+9999REMSYN064AAXX  19181 35173 32998 01802 10074 21017 40063 57008 333 10172;EQDQ01  00002PRCP99
0122351730999992000051921004+51620+069800FM-12+031299999V0201801N002012200019N0200001N1+00551+00031100451ADDGA1001+999999999GF100991001001999999001001MD1710201+9999REMSYN054AAXX  19211 35173 42998 01802 10055 20003 40045 57020;
0143351730999992000052000004+51620+069800FM-12+031299999V0201801N002012200019N0200001N1+00531+00041100401ADDGF103991031051008001001001MA1999999096721MD1710051+9999REMSYN076AAXX  20001 35173 42598 31802 10053 20004 39672 40040 57005 83500 555 10005;
0182351730999992000052003004+51620+069800FM-12+031299999V0202701N006012200019N0040001N1+00891+00131100451ADDAA199000091GF102991021081008001001001IA1019IA2999+00309MD1310101+9999REMSYN082AAXX  20031 35173 32596 22706 10089 20013 40045 53010 82800 555 20049 30003 7000/;EQDQ01  00002PRCP99
0165351730999992000052006004+51620+069800FM-12+031299999V0202701N010012200019N0040001N1+01281-00141100471ADDAA199000091GF103991031011012501001001KA1999N+00491MD1210061+9999REMSYN070AAXX  20061 35173 32696 32710 10128 21014 40047 52006 83100 333 20049;EQDQ01  00002PRCP99
0112351730999992000052009004+51620+069800FM-12+031299999V0202701N010010075019N0040001N1+01431-00331100491ADDGF105991051011008001001001MD1210041+9999REMSYN060AAXX  20091 35173 42596 52710 10143 21033 40049 52004 85100;
0159351730999992000052012004+51620+069800FM-12+031299999V0202501N008012200019N0040001N1+01461-00741100611ADDGA1001+999999999GF100991001001999999001001MA1999999097041MD1210121+9999REMSYN076AAXX  20121 35173 42596 02508 10146 21074 39704 40061 52012 86200 555 10023;
0165351730999992000052015004+51620+069800FM-12+031299999V0202301N006012200019N0040001N1+01231-00781100681ADDAA199000091GF103991031041008001001001KA1999M+01601MD1210041+9999REMSYN070AAXX  20151 35173 32596 32306 10123 21078 40068 52004 83400 333 10160;EQDQ01  00002PRCP99
0165351730999992000052018004+51620+069800FM-12+031299999V0202001N004010300019N0200001N1+00661-00471100871ADDAA199000091GF106991021041012501061001KA1999M+01601MD1210111+9999REMSYN070AAXX  20181 35173 32698 62004 10066 21047 40087 52011 82460 333 10160;EQDQ01  00002PRCP99
0112351730999992000052021004+51620+069800FM-12+031299999V0201801N002019999999N0200001N1+00581-00321100831ADDGF108991081001999999021999MD1810051+9999REMSYN060AAXX  20211 35173 42998 81802 10058 21032 40083 58005 8802/;
0162351730999992000052100004+51620+069800FM-12+031299999V0201601N002010075019N0040001N1+00651-00191100771ADDGF108991999051008001021999MA1999999097091MD1710051+9999REMSYN076AAXX  21001 35173 42596 81602 10065 21019 39709 40077 57005 8852/ 555 10006;EQDQ01+000082SCOTLC
0182351730999992000052103004+51620+069800FM-12+031299999V0201401N002019999999N0040001N1+01051+00291100641ADDAA199000091GF108991081001999999071999IA1019IA2999+00509MD1710071+9999REMSYN082AAXX  21031 35173 32996 81402 10105 20029 40064 57007 8807/ 555 20052 30005 7000/;EQDQ01  00002PRCP99
0181351730999992000052106004+51620+069800FM-12+031299999V0201801N006010075019N0040001N1+01341+00341100551ADDAA199000091GF108991999051008001021999KA1999N+00521MD1710051+9999REMSYN070AAXX  21061 35173 32596 81806 10134 20034 40055 57005 8852/ 333 20052;EQDQ01+000082SCOTLCQ02  00002PRCP99
0151351730999992000052109004+51620+069800FM-12+031299999V0202301N002010075019N0040001N1+00951+00581100661ADDAA199000021AY181031AY221031GF108991081091008001999999MD1310071+9999MW1251REMSYN066AAXX  21091 35173 31596 82302 10095 20058 40066 53007 72582 889//;
0171351730999992000052112004+51620+069800FM-12+031299999V0202701N002010300019N0040001N1+01031+00501100601ADDAY181061AY221061GF108991021021008001061999MA1999999096981MD1810061+9999MW1021REMSYN082AAXX  21121 35173 41596 82702 10103 20050 39698 40060 58006 70282 8226/ 555 10014;
0145351730999992000052115004+51620+069800FM-12+031299999V0202701N002012200019N0040001N1+01031+00401100621ADDGF105991021041008001001041KA1120M+01431MD1310021+9999REMSYN080AAXX  21151 35173 /2596 52702 10103 20040 40062 53002 82404 333 10143 555 69902;
0162351730999992000052118004+51620+069800FM-12+031299999V0202701N002012200019N0200001N1+00491+00051100871ADDAA100000791GA1001+999999999GF100991001001999999001001KA1999M+01431MD1210181+9999REMSYN070AAXX  21181 35173 12998 02702 10049 20005 40087 52018 69900 333 10143;
0171351730999992000052200004+51620+069800FM-12+031299999V0202501N002010075019N0040001N1+00431+00201101041ADDAY181061AY211061GF106991061091008001001001MA1999999097321MD1210071+9999MW1021REMSYN082AAXX  22001 35173 41596 62502 10043 20020 39732 40104 52007 70281 86900 555 11003;
0140351730999992000052203004+51620+069800FM-12+031299999V0202001N006019999999N0040001N1+00861-00381101091ADDGF106991061001999999081001MD1210111+9999REMSYN088AAXX  22031 35173 /2996 62006 10086 21038 40109 52011 86080 555 20039 30002 69912 7991/;
0152351730999992000052206004+51620+069800FM-12+031299999V0202301N010010075019N0040001N1+01551+00321101021ADDAA100000191GF107991071021008001001001KA1999N+00391MD1210021+9999REMSYN076AAXX  22061 35173 12596 72310 10155 20032 40102 52002 69910 87200 333 20039;
0140351730999992000052209004+51620+069800FM-12+031299999V0202301N008010042019N0040001N1+01281+00501101141ADDAY181031AY221031GF108991081091004501999999MD1210091+9999MW1251REMSYN066AAXX  22091 35173 41496 82308 10128 20050 40114 52009 72582 889//;
0171351730999992000052212004+51620+069800FM-12+031299999V0202301N006010042019N0020001N1+01131+00591101301ADDAY191061AY281061GF107991071091004501001001MA1999999097671MD1210131+9999MW1951REMSYN082AAXX  22121 35173 41495 72306 10113 20059 39767 40130 52013 79598 87900 555 11011;
0173351730999992000052215004+51620+069800FM-12+031299999V0202701N006012200019N0040001N1+01291+00211101361ADDAY191031AY281031GF105991021041008001001041KA1120M+01811MD1210081+9999MW1011REMSYN086AAXX  22151 35173 /1596 52706 10129 20021 40136 52008 70198 82404 333 10181 555 60012;
0190351730999992000052218004+51620+069800FM-12+031299999V0202701N002012200019N0200001N1+00611+00351101651ADDAA100001091AY191061AY281061GA1001+999999999GF100991001001999999001001KA1999M+01811MD1210191+9999MW1011REMSYN076AAXX  22181 35173 11998 02702 10061 20035 40165 52019 60010 70198 333 10181;
0112351730999992000052221004+51620+069800FM-12+031299999V0201801N002019999999N0200001N1+00531+00261101711ADDGF108991021001999999071051MD1210051+9999REMSYN060AAXX  22211 35173 42998 81802 10053 20026 40171 52005 82075;
0171351730999992000052300004+51620+069800FM-12+031299999V0201601N004010075019N0040001N1+00711+00461101761ADDAY161061AY211061GF108991081071008001999999MA1999999098061MD1210071+9999MW1211REMSYN082AAXX  23001 35173 41596 81604 10071 20046 39806 40176 52007 72161 887// 555 11006;
0140351730999992000052303004+51620+069800FM-12+031299999V0201801N002012200019N0040001N1+00751+00581101831ADDGF103991021051008001041001MD1210081+9999REMSYN088AAXX  23031 35173 /2596 31802 10075 20058 40183 52008 82540 555 20046 31003 69972 7002/;
0152351730999992000052306004+51620+069800FM-12+031299999V0201401N002010120019N0040001N1+01251+00641101861ADDAA100000891GF105991051021012501001001KA1999N+00461MD1210091+9999REMSYN076AAXX  23061 35173 12696 51402 10125 20064 40186 52009 69970 85200 333 20046;
0140351730999992000052309004+51620+069800FM-12+031299999V0201101N002010042019N0040001N1+01011+00551101951ADDAY191031AY281031GF107991061091004501041001MD1210051+9999MW1291REMSYN066AAXX  23091 35173 41496 71102 10101 20055 40195 52005 72998 86940;
0190351730999992000052312004+51620+069800FM-12+031299999V0201801N004019999999N0040001N1+01371+00231101901ADDAY191061AY281061GF106991999081008001001001MA1999999098281MD1410001+9999MW1221REMSYN082AAXX  23121 35173 41596 61804 10137 20023 39828 40190 54000 72298 88800 555 10016;EQDQ01+000082SCOTLC
0145351730999992000052315004+51620+069800FM-12+031299999V0209999C000012200019N0040001N1+01231+00851101901ADDGF103991021081012501001071KA1120M+01491MD1810011+9999REMSYN080AAXX  23151 35173 /2696 30000 10123 20085 40190 58001 82807 333 10149 555 60022;
0152351730999992000052318004+51620+069800FM-12+031299999V0209999C000012200019N0200001N1+00751+00451101971ADDAA100002091GF102991021001999999041001KA1999M+01491MD1410001+9999REMSYN076AAXX  23181 35173 12998 20000 10075 20045 40197 54000 60020 82040 333 10149;
0122351730999992000052321004+51620+069800FM-12+031299999V0200901N002012200019N0200001N1+00531+00231101941ADDGA1001+999999999GF100991001001999999001001MD1810061+9999REMSYN054AAXX  23211 35173 42998 00902 10053 20023 40194 58006;
0143351730999992000052400004+51620+069800FM-12+031299999V0201801N002012200019N0040001N1+00261+00161102041ADDGF103991031081008001001001MA1999999098261MD1310051+9999REMSYN076AAXX  24001 35173 42596 31802 10026 20016 39826 40204 53005 83800 555 10001;
0182351730999992000052403004+51620+069800FM-12+031299999V0200501N002019999999N0040001N1+01011+00551102021ADDAA199000091GF105991001001999999001081IA1019IA2999+00009MD1210081+9999REMSYN082AAXX  24031 35173 32996 50502 10101 20055 40202 52008 80008 555 20020 30000 7002/;EQDQ01  00002PRCP99
0165351730999992000052406004+51620+069800FM-12+031299999V0203601N002010120019N0040001N1+01231+00561101931ADDAA199000091GF106991061021012501001001KA1999N+00201MD1810051+9999REMSYN070AAXX  24061 35173 32696 63602 10123 20056 40193 58005 86200 333 20020;EQDQ01  00002PRCP99
0112351730999992000052409004+51620+069800FM-12+031299999V0202901N004010075019N0040001N1+01391+00381101761ADDGF105991051021008001001041MD1710151+9999REMSYN060AAXX  24091 35173 42596 52904 10139 20038 40176 57015 85204;
0143351730999992000052412004+51620+069800FM-12+031299999V0202301N004012200019N0040001N1+01411+00511101721ADDGF103991031021012501001001MA1999999098101MD1710041+9999REMSYN076AAXX  24121 35173 42696 32304 10141 20051 39810 40172 57004 83200 555 10026;
0165351730999992000052415004+51620+069800FM-12+031299999V0202701N002010300019N0040001N1+01281+00451101661ADDAA199000091GF107991041051008001041001KA1999M+01571MD1710061+9999REMSYN070AAXX  24151 35173 32596 72702 10128 20045 40166 57006 84540 333 10157;EQDQ01  00002PRCP99
0165351730999992000052418004+51620+069800FM-12+031299999V0202701N002019999999N0200001N1+00931+00531101711ADDAA199000091GF108991081001999999071999KA1999M+01571MD1410001+9999REMSYN070AAXX  24181 35173 32998 82702 10093 20053 40171 54000 8807/ 333 10157;EQDQ01  00002PRCP99
0159351730999992000052421004+51620+069800FM-12+031299999V0203601N002010042019N0010001N1+00921+00861101641ADDAY161031AY221031GF108991999071004501021999MD1810071+9999MW1611REMSYN066AAXX  24211 35173 41494 83602 10092 20086 40164 58007 76162 8872/;EQDQ01+000082SCOTLC
0171351730999992000052500004+51620+069800FM-12+031299999V0209999C000010042019N0020001N1+00871+00821101541ADDAY161061AY221061GF108991081071004501999999MA1999999097881MD1710091+9999MW1101REMSYN082AAXX  25001 35173 41495 80000 10087 20082 39788 40154 57009 71062 887// 555 11008;
0168351730999992000052503004+51620+069800FM-12+031299999V0202701N004010075019N0040001N1+01031+00891101381ADDAY181031AY221031GF108991061021008001071999MD1710141+9999MW1251REMSYN094AAXX  25031 35173 /1596 82704 10103 20089 40138 57014 72582 8627/ 555 20084 31009 60022 7002/;
0180351730999992000052506004+51620+069800FM-12+031299999V0203601N004010075019N0040001N1+01371+00761101261ADDAA100002091AY181061AY221061GF106991061051008001001001KA1999N+00841MD1710071+9999MW1021REMSYN082AAXX  25061 35173 11596 63604 10137 20076 40126 57007 60020 70282 86500 333 20084;
0140351730999992000052509004+51620+069800FM-12+031299999V0203601N006010075019N0040001N1+01391+00781101341ADDAY181031AY221031GF106991061091008001001001MD1310071+9999MW1021REMSYN066AAXX  25091 35173 41596 63606 10139 20078 40134 53007 70282 86900;
0171351730999992000052512004+51620+069800FM-12+031299999V0203601N010010075019N0040001N1+01621+00611101391ADDAY181061AY221061GF106991061031008001001001MA1999999097811MD1210071+9999MW1021REMSYN082AAXX  25121 35173 41596 63610 10162 20061 39781 40139 52007 70282 86300 555 10024;
0145351730999992000052515004+51620+069800FM-12+031299999V0209999C000012200019N0040001N1+01341+00771101571ADDGF103991031041008001061001KA1120M+01801MD1210151+9999REMSYN080AAXX  25151 35173 /2596 30000 10134 20077 40157 52015 83460 333 10180 555 69912;
0162351730999992000052518004+51620+069800FM-12+031299999V0209999C000012200019N0200001N1+00931+00701101651ADDAA100000191GA1001+999999999GF100991001001999999001001KA1999M+01801MD1210021+9999REMSYN070AAXX  25181 35173 12998 00000 10093 20070 40165 52002 69910 333 10180;
0131351730999992000052521004+51620+069800FM-12+031299999V0209999C000012200019N0200001N1+00691+00531101571ADDGF103991001001999999001061MD1810101+9999REMSYN060AAXX  25211 35173 42998 30000 10069 20053 40157 58010 83006;EQDQ01+000032SCOTLC
0162351730999992000052600004+51620+069800FM-12+031299999V0203201N004010075019N0040001N1+00881+00671101481ADDGF108991999051008001021999MA1999999097821MD1710061+9999REMSYN076AAXX  26001 35173 42596 83204 10088 20067 39782 40148 57006 8852/ 555 10009;EQDQ01+000082SCOTLC
0182351730999992000052603004+51620+069800FM-12+031299999V0203601N004019999999N0040001N1+01451+00741101391ADDAA199000091GF107991071001999999081001IA1019IA2999+00509MD1710021+9999REMSYN082AAXX  26031 35173 32996 73604 10145 20074 40139 57002 87080 555 20065 30005 7991/;EQDQ01  00002PRCP99
0165351730999992000052606004+51620+069800FM-12+031299999V0200501N008010120019N0040001N1+01991+00841101371ADDAA199000091GF105991051021012501001001KA1999N+00651MD1310041+9999REMSYN070AAXX  26061 35173 32696 50508 10199 20084 40137 53004 85200 333 20065;EQDQ01  00002PRCP99
0112351730999992000052609004+51620+069800FM-12+031299999V0200501N006010075019N0040001N1+02331+00771101191ADDGF106991061021008001001001MD1810131+9999REMSYN060AAXX  26091 35173 42596 60506 10233 20077 40119 58013 86200;
0143351730999992000052612004+51620+069800FM-12+031299999V0200501N004010042019N0040001N1+02291+00771101151ADDGF108991081091004501999999MA1999999097671MD1710041+9999REMSYN076AAXX  26121 35173 42496 80504 10229 20077 39767 40115 57004 889// 555 10024;
0165351730999992000052615004+51620+069800FM-12+031299999V0203401N004012200019N0040001N1+02021+01111101291ADDAA199000091GF103991021041008001001031KA1999M+02551MD1310111+9999REMSYN070AAXX  26151 35173 32596 33404 10202 20111 40129 53011 82403 333 10255;EQDQ01  00002PRCP99
0165351730999992000052618004+51620+069800FM-12+031299999V0203201N002019999999N0200001N1+01461+01041101401ADDAA199000091GF108991081001999999071999KA1999M+02551MD1210031+9999REMSYN070AAXX  26181 35173 32998 83202 10146 20104 40140 52003 8807/ 333 10255;EQDQ01  00002PRCP99
0112351730999992000052621004+51620+069800FM-12+031299999V0209999C000012200019N0200001N1+01311+01061101271ADDGF102991021001999999041001MD1810131+9999REMSYN060AAXX  26211 35173 42998 20000 10131 20106 40127 58013 82040;
0143351730999992000052700004+51620+069800FM-12+031299999V0209999C000012200019N0040001N1+00961+00851101291ADDGF102991001001999999001021MA1999999097641MD1710041+9999REMSYN076AAXX  27001 35173 42996 20000 10096 20085 39764 40129 57004 80002 555 10007;
0182351730999992000052703004+51620+069800FM-12+031299999V0201801N002019999999N0040001N1+01901+00951101201ADDAA199000091GF106991061001999999021001IA1019IA2999+00709MD1310031+9999REMSYN082AAXX  27031 35173 32996 61802 10190 20095 40120 53003 86020 555 20095 30007 7000/;EQDQ01  00002PRCP99
0165351730999992000052706004+51620+069800FM-12+031299999V0202701N004010120019N0040001N1+02131+00951101101ADDAA199000091GF108991081081008001999999KA1999N+00951MD1810061+9999REMSYN070AAXX  27061 35173 32596 82704 10213 20095 40110 58006 888// 333 20095;EQDQ01  00002PRCP99
0112351730999992000052709004+51620+069800FM-12+031299999V0202301N006010120019N0040001N1+02261+00771100901ADDGF107991071081008001001001MD1710181+9999REMSYN060AAXX  27091 35173 42596 72306 10226 20077 40090 57018 87800;
0171351730999992000052712004+51620+069800FM-12+031299999V0209999C000010075019N0040001N1+01761+01451100831ADDAY191061AY281061GF108991081091008001999999MA1999999097311MD1710121+9999MW1251REMSYN082AAXX  27121 35173 41596 80000 10176 20145 39731 40083 57012 72598 889// 555 11019;
0173351730999992000052715004+51620+069800FM-12+031299999V0209999C000010075019N0040001N1+01671+01481100691ADDAY181031AY221031GF107991071051008001001001KA1120M+02401MD1710151+9999MW1021REMSYN086AAXX  27151 35173 /1596 70000 10167 20148 40069 57015 70282 87500 333 10240 555 60032;
0180351730999992000052718004+51620+069800FM-12+031299999V0201801N002010075019N0200001N1+01511+01351100621ADDAA100003091AY181061AY221061GF107991071091008001001001KA1999M+02401MD1710091+9999MW1021REMSYN082AAXX  27181 35173 11598 71802 10151 20135 40062 57009 60030 70282 87900 333 10240;
0122351730999992000052721004+51620+069800FM-12+031299999V0202501N004012200019N0200001N1+01271+01021100531ADDGA1001+999999999GF100991001001999999001001MD1710121+9999REMSYN054AAXX  27211 35173 42998 02504 10127 20102 40053 57012;
0143351730999992000052800004+51620+069800FM-12+031299999V0202501N006010120019N0040001N1+01111+00931100561ADDGF106991061081008001001001MA1999999096951MD1410001+9999REMSYN076AAXX  28001 35173 42596 62506 10111 20093 39695 40056 54000 86800 555 11011;
0140351730999992000052803004+51620+069800FM-12+031299999V0202501N008010075019N0040001N1+01291+00951100511ADDGF108991081091008001999999MD1810021+9999REMSYN088AAXX  28031 35173 /2596 82508 10129 20095 40051 58002 889// 555 20108 31010 69922 7003/;
0152351730999992000052806004+51620+069800FM-12+031299999V0202701N008010075019N0040001N1+01471+01201100531ADDAA100000591GF108991081051008001999999KA1999N+01081MD1310041+9999REMSYN076AAXX  28061 35173 12596 82708 10147 20120 40053 53004 69940 885// 333 20108;
0140351730999992000052809004+51620+069800FM-12+031299999V0202701N008010075019N0020001N1+01891+01231100431ADDAY191031AY281031GF108991081091008001999999MD1810041+9999MW1951REMSYN066AAXX  28091 35173 41595 82708 10189 20123 40043 58004 79598 889//;
0171351730999992000052812004+51620+069800FM-12+031299999V0202701N006010075019N0040001N1+01831+00971100431ADDAY191061AY281061GF106991051031008001001081MA1999999096921MD1710011+9999MW1021REMSYN082AAXX  28121 35173 41596 62706 10183 20097 39692 40043 57001 70298 85308 555 12021;
0173351730999992000052815004+51620+069800FM-12+031299999V0202701N002010300019N0040001N1+01531+00931100411ADDAY121031AY221031GF106991041091004501061001KA1120M+02031MD1710051+9999MW1291REMSYN086AAXX  28151 35173 /1496 62702 10153 20093 40041 57005 72922 84960 333 10203 555 60042;
0162351730999992000052818004+51620+069800FM-12+031299999V0209999C000012200019N0200001N1+01151+00931100431ADDAA100004191GA1001+999999999GF100991001001999999001001KA1999M+02031MD1710031+9999REMSYN070AAXX  28181 35173 12998 00000 10115 20093 40043 57003 60040 333 10203;
0122351730999992000052821004+51620+069800FM-12+031299999V0209999C000012200019N0200001N1+01131+00861100351ADDGA1001+999999999GF100991001001999999001001MD1710081+9999REMSYN054AAXX  28211 35173 42998 00000 10113 20086 40035 57008;
0143351730999992000052900004+51620+069800FM-12+031299999V0202301N004010750019N0040001N1+01071+00821100241ADDGF106991021081008001001071MA1999999096651MD1710111+9999REMSYN076AAXX  29001 35173 42596 62304 10107 20082 39665 40024 57011 82807 555 12009;
0182351730999992000052903004+51620+069800FM-12+031299999V0202001N004010075019N0040001N1+01531+01061100061ADDAA199000091GF108991081051008001999999IA1119IA2999+00809MD1710121+9999REMSYN082AAXX  29031 35173 32596 82004 10153 20106 40006 57012 885// 555 20102 32008 7004/;EQDQ01  00002PRCP99
0193351730999992000052906004+51620+069800FM-12+031299999V0202001N004010300019N0040001N1+01711+01301099931ADDAA199000091AY181061AY221061GF106991021021012501061001KA1999N+01021MD1710101+9999MW1021REMSYN076AAXX  29061 35173 31696 62004 10171 20130 49993 57010 70282 82260 333 20102;EQDQ01  00002PRCP99
0140351730999992000052909004+51620+069800FM-12+031299999V0202701N006010075019N0040001N1+01431+01191099851ADDAY191031AY281031GF106991061031008001001001MD1710111+9999MW1951REMSYN066AAXX  29091 35173 41596 62706 10143 20119 49985 57011 79598 86300;
0171351730999992000052912004+51620+069800FM-12+031299999V0202701N002010075019N0040001N1+01451+01001099961ADDAY191061AY281061GF106991061041008001001001MA1999999096431MD1310111+9999MW1021REMSYN082AAXX  29121 35173 41596 62702 10145 20100 39643 49996 53011 70298 86400 555 12017;
0173351730999992000052915004+51620+069800FM-12+031299999V0202701N006010075019N0040001N1+01251+00861100091ADDAY181031AY221031GF106991061091008001001001KA1120M+01851MD1210091+9999MW1251REMSYN086AAXX  29151 35173 /1596 62706 10125 20086 40009 52009 72582 86900 333 10185 555 60052;
0209351730999992000052918004+51620+069800FM-12+031299999V0202301N004012200019N0200001N1+00831+00681100171ADDAA100005191AY181061AY201061GA1001+999999999GF100991001001999999001001KA1999M+01851MD1210081+9999MW1011REMSYN076AAXX  29181 35173 11998 02304 10083 20068 40017 52208 60050 70180 333 10185;EQDQ01+002082APC3  
0122351730999992000052921004+51620+069800FM-12+031299999V0202301N002012200019N0200001N1+00691+00531100131ADDGA1001+999999999GF100991001001999999001001MD1810051+9999REMSYN054AAXX  29211 35173 42998 02302 10069 20053 40013 58005;
0143351730999992000053000004+51620+069800FM-12+031299999V0202301N002012200019N0040001N1+00591+00471100131ADDGF102991021091999999061001MA1999999096481MD1710011+9999REMSYN076AAXX  30001 35173 42996 22302 10059 20047 39648 40013 57001 82960 555 12005;
0163351730999992000053003004+51620+069800FM-12+031299999V0202501N004010120019N0040001N1+01011+00761100091ADDAA199000021GF108991081081008001999999IA1119IA2999+00409MD1310011+9999REMSYN082AAXX  30031 35173 32596 82504 10101 20076 40009 53001 888// 555 20055 32004 7005/;
0165351730999992000053006004+51620+069800FM-12+031299999V0202701N006010075019N0040001N1+01231+00861100131ADDAA199000091GF108991081071008001999999KA1999N+00551MD1210071+9999REMSYN070AAXX  30061 35173 32596 82706 10123 20086 40013 52007 887// 333 20055;EQDQ01  00002PRCP99
0112351730999992000053009004+51620+069800FM-12+031299999V0202501N008010120019N0040001N1+01631+00921100091ADDGF106991061021012501001001MD1210011+9999REMSYN060AAXX  30091 35173 42696 62508 10163 20092 40009 52001 86200;
0143351730999992000053012004+51620+069800FM-12+031299999V0202701N004010120019N0040001N1+01721+00941100111ADDGF106991061081008001001001MA1999999096601MD1210031+9999REMSYN076AAXX  30121 35173 42596 62704 10172 20094 39660 40011 52003 86800 555 11022;
0173351730999992000053015004+51620+069800FM-12+031299999V0203201N002010042019N0040001N1+01431+01301100141ADDAY181031AY221031GF107991051091004501061001KA1120M+01851MD1410001+9999MW1251REMSYN086AAXX  30151 35173 /1496 73202 10143 20130 40014 54000 72582 85960 333 10185 555 69942;
0180351730999992000053018004+51620+069800FM-12+031299999V0203401N002010300019N0200001N1+01311+01141100261ADDAA100000591AY181061AY221061GF107991021041008001061011KA1999M+01851MD1310101+9999MW1011REMSYN082AAXX  30181 35173 11598 73402 10131 20114 40026 53010 69940 70182 82461 333 10185;
0112351730999992000053021004+51620+069800FM-12+031299999V0203401N002019999999N0200001N1+01161+01001100301ADDGF108991041001999999071051MD1210011+9999REMSYN060AAXX  30211 35173 42998 83402 10116 20100 40030 52001 84075;
0143351730999992000053100004+51620+069800FM-12+031299999V0203201N002019999999N0040001N1+01111+00931100311ADDGF106991061001999999051001MA1999999096711MD1410001+9999REMSYN076AAXX  31001 35173 42996 63202 10111 20093 39671 40031 54000 86050 555 11010;
0163351730999992000053103004+51620+069800FM-12+031299999V0203601N004010075019N0040001N1+01171+00801100441ADDAA199000021GF108991081051008001999999IA1099IA2999+01009MD1310141+9999REMSYN082AAXX  31031 35173 32596 83604 10117 20080 40044 53014 885// 555 20110 31010 7994/;
0181351730999992000053106004+51620+069800FM-12+031299999V0203401N002010075019N0040001N1+01211+00861100571ADDAA199000091GF108991999071008001021999KA1999N+01101MD1210121+9999REMSYN070AAXX  31061 35173 32596 83402 10121 20086 40057 52012 8872/ 333 20110;EQDQ01+000082SCOTLCQ02  00002PRCP99
0131351730999992000053109004+51620+069800FM-12+031299999V0203201N002010075019N0040001N1+01261+00841100621ADDGF108991999071008001021999MD1210071+9999REMSYN060AAXX  31091 35173 42596 83202 10126 20084 40062 52007 8872/;EQDQ01+000082SCOTLC
0143351730999992000053112004+51620+069800FM-12+031299999V0203201N004010075019N0040001N1+01301+00881100751ADDGF108991081051008001999999MA1999999097161MD1210121+9999REMSYN076AAXX  31121 35173 42596 83204 10130 20088 39716 40075 52012 885// 555 11016;
0173351730999992000053115004+51620+069800FM-12+031299999V0203201N002010075019N0040001N1+01171+01041100801ADDAY181031AY221031GF108991081091008001999999KA1120M+01401MD1210041+9999MW1021REMSYN086AAXX  31151 35173 /1596 83202 10117 20104 40080 52004 70282 889// 333 10140 555 69902;
0199351730999992000053118004+51620+069800FM-12+031299999V0203201N002010042019N0010001N1+01111+01051100811ADDAA100000791AY181061AY261061GF108991999071004501021999KA1999M+01401MD1210011+9999MW1611REMSYN082AAXX  31181 35173 11494 83202 10111 20105 40081 52001 69900 76186 8872/ 333 10140;EQDQ01+000082SCOTLC
0159351730999992000053121004+51620+069800FM-12+031299999V0203401N002010042019N0010001N1+01091+01051100821ADDAY161031AY261031GF108991999071004501021999MD1410001+9999MW1611REMSYN066AAXX  31211 35173 41494 83402 10109 20105 40082 54000 76166 8872/;EQDQ01+000082SCOTLC
0190351730999992000060100004+51620+069800FM-12+031299999V0209999C000010042019N0040001N1+01031+00991100681ADDAY161061AY261061GF108991999071004501021999MA1999999097071MD1810141+9999MW1611REMSYN082AAXX  01001 35173 41496 80000 10103 20099 39707 40068 58014 76166 8872/ 555 12010;EQDQ01+000082SCOTLC
0187351730999992000060103004+51620+069800FM-12+031299999V0203201N002010021019N0040001N1+01091+00951100671ADDAY161031AY261031GF108991999071002501021999MD1710011+9999MW1611REMSYN094AAXX  01031 35173 /1396 83202 10109 20095 40067 57001 76166 8872/ 555 20100 32010 60062 7006/;EQDQ01+000082SCOTLC
0180351730999992000060106004+51620+069800FM-12+031299999V0203601N002010042019N0040001N1+01471+00941100611ADDAA100006191AY161061AY221061GF107991071031004501001001KA1999N+01001MD1710011+9999MW1021REMSYN082AAXX  01061 35173 11496 73602 10147 20094 40061 57001 60060 70262 87300 333 20100;
0112351730999992000060109004+51620+069800FM-12+031299999V0203401N004010075019N0040001N1+01641+00771100561ADDGF107991071031008001001001MD1710041+9999REMSYN060AAXX  01091 35173 42596 73404 10164 20077 40056 57004 87300;
0143351730999992000060112004+51620+069800FM-12+031299999V0209999C000010042019N0040001N1+01251+00561100751ADDGF108991081031004501001001MA1999999097161MD1310151+9999REMSYN076AAXX  01121 35173 42496 80000 10125 20056 39716 40075 53015 88300 555 11019;
0173351730999992000060115004+51620+069800FM-12+031299999V0203601N002010042019N0020001N1+00991+00901101001ADDAY181031AY211031GF108991081091004501999999KA1120M+01721MD1210201+9999MW1811REMSYN086AAXX  01151 35173 /1495 83602 10099 20090 40100 52020 78181 889// 333 10172 555 60082;
0199351730999992000060118004+51620+069800FM-12+031299999V0203601N004010042019N0010001N1+00911+00851101101ADDAA100007991AY181061AY261061GF108991999071004501021999KA1999M+01721MD1210091+9999MW1611REMSYN082AAXX  01181 35173 11494 83604 10091 20085 40110 52009 60080 76186 8872/ 333 10172;EQDQ01+000082SCOTLC
0190351730999992000060200004+51620+069800FM-12+031299999V0203601N006010042019N0040001N1+00731+00671101251ADDAY161061AY261061GF108991999071004501021999MA1999999097571MD1210041+9999MW1611REMSYN082AAXX  02001 35173 41496 83606 10073 20067 39757 40125 52004 76166 8872/ 555 12007;EQDQ01+000082SCOTLC
0168351730999992000060203004+51620+069800FM-12+031299999V0200201N004010075019N0040001N1+00811+00611101441ADDAY161031AY221031GF108991081051008001999999MD1210191+9999MW1211REMSYN094AAXX  02031 35173 /1596 80204 10081 20061 40144 52019 72162 885// 555 20069 32006 60122 7020/;
0180351730999992000060206004+51620+069800FM-12+031299999V0203601N004010120019N0040001N1+01111+00461101521ADDAA100011991AY161061AY221061GF105991051021012501001001KA1999N+00691MD1210121+9999MW1031REMSYN082AAXX  02061 35173 11696 53604 10111 20046 40152 52012 60120 70362 85200 333 20069;
0112351730999992000060209004+51620+069800FM-12+031299999V0200201N006010120019N0040001N1+01401+00701101531ADDGF105991051021012501001001MD1210041+9999REMSYN060AAXX  02091 35173 42696 50206 10140 20070 40153 52004 85200;
0143351730999992000060212004+51620+069800FM-12+031299999V0203601N004012200019N0040001N1+01531+00171101621ADDGF103991031021012501001001MA1999999098031MD1210111+9999REMSYN076AAXX  02121 35173 42696 33604 10153 20017 39803 40162 52011 83200 555 12021;
0146351730999992000060215004+51620+069800FM-12+031299999V0203601N002012200019N0040001N1+01451+00381101721ADDAA199000021GF102991021041008001001071KA1999M+01611MD1210071+9999REMSYN070AAXX  02151 35173 32596 23602 10145 20038 40172 52007 82407 333 10161;
0165351730999992000060218004+51620+069800FM-12+031299999V0209999C000012200019N0200001N1+00911+00481101811ADDAA199000091GF101991011001999999041001KA1999M+01611MD1210031+9999REMSYN070AAXX  02181 35173 32998 10000 10091 20048 40181 52003 81040 333 10161;EQDQ01  00002PRCP99
0122351730999992000060221004+51620+069800FM-12+031299999V0209999C000012200019N0200001N1+00621+00331101831ADDGA1001+999999999GF100991001001999999001001MD1810021+9999REMSYN054AAXX  02211 35173 42998 00000 10062 20033 40183 58002;
0143351730999992000060300004+51620+069800FM-12+031299999V0203601N002019999999N0040001N1+00451+00331101981ADDGF107991071001999999051001MA1999999098231MD1310121+9999REMSYN076AAXX  03001 35173 42996 73602 10045 20033 39823 40198 53012 87050 555 12004;
0182351730999992000060303004+51620+069800FM-12+031299999V0202901N002019999999N0040001N1+01191+00461101771ADDAA199000091GF106991061001999999031001IA1119IA2999+00209MD1810101+9999REMSYN082AAXX  03031 35173 32996 62902 10119 20046 40177 58010 86030 555 20032 32002 7000/;EQDQ01  00002PRCP99
0165351730999992000060306004+51620+069800FM-12+031299999V0202501N006019999999N0040001N1+01671+00451101581ADDAA199000091GF106991061001999999071001KA1999N+00321MD1710121+9999REMSYN070AAXX  03061 35173 32996 62506 10167 20045 40158 57012 86070 333 20032;EQDQ01  00002PRCP99
0122351730999992000060309004+51620+069800FM-12+031299999V0202701N012010075019N0040001N1+02131+00131101311ADDGF107991071051008001001001MD1710211+9999REMSYN070AAXX  03091 35173 42596 72712 10213 20013 40131 57021 87500 333 91016;
0171351730999992000060312004+51620+069800FM-12+031299999V0202301N006010300019N0040001N1+01651+01151101211ADDAY181061AY221061GF106991021021008001061001MA1999999097661MD1710141+9999MW1021REMSYN082AAXX  03121 35173 41596 62306 10165 20115 39766 40121 57014 70282 82260 555 11018;
0192351730999992000060315004+51620+069800FM-12+031299999V0202701N002019999999N0040001N1+01671+01441101121ADDAY181031AY221031GF106991999031008001001001KA1120M+02271MD1710091+9999MW1291REMSYN086AAXX  03151 35173 /1596 62702 10167 20144 40112 57009 72982 87300 333 10227 555 60022;EQDQ01+000072SCOTLC
0180351730999992000060318004+51620+069800FM-12+031299999V0202701N002010075019N0200001N1+01431+01311101251ADDAA100002091AY191061AY281061GF108991081091008001999999KA1999M+02271MD1310101+9999MW1131REMSYN082AAXX  03181 35173 11598 82702 10143 20131 40125 53010 60020 71398 889// 333 10227;
0140351730999992000060321004+51620+069800FM-12+031299999V0202701N002010075019N0200001N1+01111+00901101481ADDAY101031AY221031GF108991081091008001999999MD1210171+9999MW1131REMSYN066AAXX  03211 35173 41598 82702 10111 20090 40148 52017 71302 889//;
0171351730999992000060400004+51620+069800FM-12+031299999V0200901N002010075019N0040001N1+01081+00921101481ADDAY181061AY221061GF108991081091008001999999MA1999999097841MD1410001+9999MW1021REMSYN082AAXX  04001 35173 41596 80902 10108 20092 39784 40148 54000 70282 889// 555 11010;
0140351730999992000060403004+51620+069800FM-12+031299999V0201401N002019999999N0040001N1+01331+01001101601ADDGF105991051001999999071001MD1310151+9999REMSYN088AAXX  04031 35173 /2996 51402 10133 20100 40160 53015 85070 555 20105 31010 69942 7002/;
0171351730999992000060406004+51620+069800FM-12+031299999V0202301N002019999999N0040001N1+01991+01461101431ADDAA100000591GF105991999021012501001001KA1999N+01051MD1810081+9999REMSYN076AAXX  04061 35173 12696 52302 10199 20146 40143 58008 69940 86200 333 20105;EQDQ01+000062SCOTLC
0112351730999992000060409004+51620+069800FM-12+031299999V0202701N004010120019N0040001N1+02411+01431101251ADDGF105991051011012501001001MD1710121+9999REMSYN060AAXX  04091 35173 42696 52704 10241 20143 40125 57012 85100;
0171351730999992000060412004+51620+069800FM-12+031299999V0201801N002010075019N0040001N1+01751+01461101361ADDAY191061AY281061GF107991071031008001001001MA1999999097811MD1310021+9999MW1291REMSYN082AAXX  04121 35173 41596 71802 10175 20146 39781 40136 53002 72998 87300 555 12020;
0173351730999992000060415004+51620+069800FM-12+031299999V0203601N002010042019N0040001N1+01911+01561101331ADDAY191031AY221031GF107991071091004501001001KA1120M+02461MD1810011+9999MW1291REMSYN086AAXX  04151 35173 /1496 73602 10191 20156 40133 58001 72992 87900 333 10246 555 60032;
0180351730999992000060418004+51620+069800FM-12+031299999V0201801N002010075019N0200001N1+01671+01531101301ADDAA100003091AY191061AY281061GF106991061091008001001001KA1999M+02461MD1710051+9999MW1131REMSYN082AAXX  04181 35173 11598 61802 10167 20153 40130 57005 60030 71398 86900 333 10246;
0112351730999992000060421004+51620+069800FM-12+031299999V0209999C000010075019N0200001N1+01451+01231101231ADDGF105991051091008001001001MD1710101+9999REMSYN060AAXX  04211 35173 42598 50000 10145 20123 40123 57010 85900;
0143351730999992000060500004+51620+069800FM-12+031299999V0201801N002012200019N0040001N1+01311+01251101221ADDGF103991031001999999071001MA1999999097631MD1710021+9999REMSYN076AAXX  05001 35173 42996 31802 10131 20125 39763 40122 57002 83070 555 12013;
0140351730999992000060503004+51620+069800FM-12+031299999V0202501N002019999999N0040001N1+01731+01511101171ADDGF106991061001999999031001MD1410001+9999REMSYN088AAXX  05031 35173 /2996 62502 10173 20151 40117 54000 86030 555 20130 32013 60022 7005/;
0152351730999992000060506004+51620+069800FM-12+031299999V0202501N004010300019N0040001N1+02271+01401101061ADDAA100002091GF106991011091008001031001KA1999N+01301MD1810041+9999REMSYN076AAXX  05061 35173 12596 62504 10227 20140 40106 58004 60020 81930 333 20130;
0112351730999992000060509004+51620+069800FM-12+031299999V0202701N006010120019N0040001N1+02551+01361100821ADDGF106991061021012501001001MD1710211+9999REMSYN060AAXX  05091 35173 42696 62706 10255 20136 40082 57021 86200;
0143351730999992000060512004+51620+069800FM-12+031299999V0202701N006010120019N0040001N1+02631+01211100641ADDGF106991061021012501001001MA1999999097221MD1710161+9999REMSYN076AAXX  05121 35173 42696 62706 10263 20121 39722 40064 57016 86200 555 11032;
0173351730999992000060515004+51620+069800FM-12+031299999V0202301N008010042019N0040001N1+02211+01261100701ADDAY181031AY221031GF107991071091004501001001KA1120M+02731MD1310011+9999MW1801REMSYN086AAXX  05151 35173 /1496 72308 10221 20126 40070 53001 78082 87900 333 10273 555 69932;
0180351730999992000060518004+51620+069800FM-12+031299999V0209999C000012200019N0200001N1+01611+01421100961ADDAA100000391AY181061AY211061GF102991011041008001001021KA1999M+02731MD1210181+9999MW1011REMSYN082AAXX  05181 35173 11598 20000 10161 20142 40096 52018 69930 70181 81402 333 10273;
0112351730999992000060521004+51620+069800FM-12+031299999V0209999C000012200019N0200001N1+01311+01221100951ADDGF101991011041999999001001MD1810051+9999REMSYN060AAXX  05211 35173 42998 10000 10131 20122 40095 58005 81400;
0171351730999992000060600004+51620+069800FM-12+031299999V0209999C000012200019N0020001N1+01161+01091100891ADDAY101061AY201061GF102991011001999999081011MA1999999097291MD1710071+9999MW1101REMSYN082AAXX  06001 35173 41995 20000 10116 20109 39729 40089 57007 71000 81081 555 11010;
0168351730999992000060603004+51620+069800FM-12+031299999V0201801N002019999999N0040001N1+01851+01381100731ADDAY181031AY211031GF106991061091999999061001MD1710071+9999MW1031REMSYN094AAXX  06031 35173 /1996 61802 10185 20138 40073 57007 70381 86960 555 20112 31010 69942 7996/;
0180351730999992000060606004+51620+069800FM-12+031299999V0202301N004010120019N0040001N1+02491+01201100511ADDAA100000391AY191061AY281061GF106991061021012501001001KA1999N+01121MD1710231+9999MW1021REMSYN082AAXX  06061 35173 11696 62304 10249 20120 40051 57023 69930 70298 86200 333 20112;
0112351730999992000060609004+51620+069800FM-12+031299999V0202501N006010075019N0040001N1+02831+01311100161ADDGF106991061021008001001011MD1710211+9999REMSYN060AAXX  06091 35173 42596 62506 10283 20131 40016 57021 86201;
0143351730999992000060612004+51620+069800FM-12+031299999V0202501N008012200019N0040001N1+02891+00921100021ADDGF103991031031008001001001MA1999999096641MD1710141+9999REMSYN076AAXX  06121 35173 42596 32508 10289 20092 39664 40002 57014 83300 555 10036;
0165351730999992000060615004+51620+069800FM-12+031299999V0203201N002010075019N0040001N1+02261+01361100121ADDAA199000091GF106991061021008001061001KA1999M+02981MD1310041+9999REMSYN070AAXX  06151 35173 32596 63202 10226 20136 40012 53004 86260 333 10298;EQDQ01  00002PRCP99
0193351730999992000060618004+51620+069800FM-12+031299999V0203201N002010075019N0200001N1+01641+00971100211ADDAA199000091AY191061AY211061GF108991081091008001999999KA1999M+02981MD1210011+9999MW1131REMSYN076AAXX  06181 35173 31598 83202 10164 20097 40021 52001 71391 889// 333 10298;EQDQ01  00002PRCP99
0131351730999992000060621004+51620+069800FM-12+031299999V0209999C000010075019N0200001N1+01431+00901100151ADDGF108991999021008001071999MD1810081+9999REMSYN060AAXX  06211 35173 42598 80000 10143 20090 40015 58008 8827/;EQDQ01+000082SCOTLC
0143351730999992000060700004+51620+069800FM-12+031299999V0202701N002010075019N0040001N1+01271+00851100321ADDGF106991051041008001061001MA1999999096751MD1310141+9999REMSYN076AAXX  07001 35173 42596 62702 10127 20085 39675 40032 53014 85460 555 11012;
0182351730999992000060703004+51620+069800FM-12+031299999V0202701N004019999999N0040001N1+01511+00991100461ADDAA199000091GF107991001001999999001081IA1099IA2999+01109MD1210151+9999REMSYN082AAXX  07031 35173 32996 72704 10151 20099 40046 52015 80008 555 20124 31011 7000/;EQDQ01  00002PRCP99
0165351730999992000060706004+51620+069800FM-12+031299999V0202301N004019999999N0040001N1+01911+00971100391ADDAA199000091GF108991081001999999011999KA1999N+01241MD1810011+9999REMSYN070AAXX  07061 35173 32996 82304 10191 20097 40039 58001 8801/ 333 20124;EQDQ01  00002PRCP99
0140351730999992000060709004+51620+069800FM-12+031299999V0202701N006010075019N0040001N1+01591+01321100331ADDAY181031AY221031GF108991081091008001999999MD1710081+9999MW1251REMSYN066AAXX  07091 35173 41596 82706 10159 20132 40033 57008 72582 889//;
0171351730999992000060712004+51620+069800FM-12+031299999V0202501N008010075019N0040001N1+01871+01121100141ADDAY181061AY221061GF106991061041008001001041MA1999999096651MD1710161+9999MW1021REMSYN082AAXX  07121 35173 41596 62508 10187 20112 39665 40014 57016 70282 86404 555 11022;
0145351730999992000060715004+51620+069800FM-12+031299999V0200501N002010075019N0040001N1+01351+00981100281ADDGF105991051031008001001001KA1120M+02061MD1310071+9999REMSYN080AAXX  07151 35173 /2596 50502 10135 20098 40028 53007 85300 333 10206 555 69932;
0152351730999992000060718004+51620+069800FM-12+031299999V0200501N002012200019N0200001N1+00991+00811100351ADDAA100000391GF103991001001999999001091KA1999M+02061MD1210011+9999REMSYN076AAXX  07181 35173 12998 30502 10099 20081 40035 52001 69930 80009 333 10206;
0143351730999992000061212004+51620+069800FM-12+031299999V0201401N002010075019N0040001N1+02511+00611101251ADDGF108991081051008001999999MA1999999097791MD1710081+9999REMSYN076AAXX  12121 35173 42596 81402 10251 20061 39779 40125 57008 885// 555 10028;
0175351730999992000061215004+51620+069800FM-12+031299999V0209999C000012200019N0040001N1+02251+01171101211ADDAA199000091GA1001+999999999GF100991001001999999001001KA1999M+02871MD1710071+9999REMSYN064AAXX  12151 35173 32996 00000 10225 20117 40121 57007 333 10287;EQDQ01  00002PRCP99
0175351730999992000061218004+51620+069800FM-12+031299999V0201401N002012200019N0200001N1+01951+01061101231ADDAA199000091GA1001+999999999GF100991001001999999001001KA1999M+02871MD1710021+9999REMSYN064AAXX  12181 35173 32998 01402 10195 20106 40123 57002 333 10287;EQDQ01  00002PRCP99
0122351730999992000061221004+51620+069800FM-12+031299999V0209999C000012200019N0200001N1+01681+00891101161ADDGA1001+999999999GF100991001001999999001001MD1710091+9999REMSYN054AAXX  12211 35173 42998 00000 10168 20089 40116 57009;
0153351730999992000061300004+51620+069800FM-12+031299999V0209999C000012200019N0040001N1+01551+00861101151ADDGA1001+999999999GF100991001001999999001001MA1999999097581MD1710031+9999REMSYN070AAXX  13001 35173 42996 00000 10155 20086 39758 40115 57003 555 10013;
0182351730999992000061303004+51620+069800FM-12+031299999V0200901N002019999999N0040001N1+02161+01051101001ADDAA199000091GF106991001001999999001011IA1019IA2999+01309MD1710071+9999REMSYN082AAXX  13031 35173 32996 60902 10216 20105 40100 57007 80001 555 20154 30013 7000/;EQDQ01  00002PRCP99
0165351730999992000061306004+51620+069800FM-12+031299999V0201401N002019999999N0040001N1+02591+00761100831ADDAA199000091GF106991001001999999001011KA1999N+01541MD1710121+9999REMSYN070AAXX  13061 35173 32996 61402 10259 20076 40083 57012 80001 333 20154;EQDQ01  00002PRCP99
0112351730999992000061309004+51620+069800FM-12+031299999V0201401N004019999999N0040001N1+02711+00971100691ADDGF108991001001999999001071MD1710111+9999REMSYN060AAXX  13091 35173 42996 81404 10271 20097 40069 57011 80007;
0143351730999992000061312004+51620+069800FM-12+031299999V0201101N002010750019N0040001N1+02801+00951100561ADDGF108991021011012501001071MA1999999097151MD1710131+9999REMSYN076AAXX  13121 35173 42696 81102 10280 20095 39715 40056 57013 82107 555 10034;
0165351730999992000061315004+51620+069800FM-12+031299999V0201401N002019999999N0040001N1+02491+01111100551ADDAA199000091GF108991081001999999071999KA1999M+02851MD1710041+9999REMSYN070AAXX  13151 35173 32996 81402 10249 20111 40055 57004 8807/ 333 10285;EQDQ01  00002PRCP99
0165351730999992000061318004+51620+069800FM-12+031299999V0200901N006019999999N0200001N1+02271+00941100461ADDAA199000091GF108991081001999999071999KA1999M+02851MD1710111+9999REMSYN070AAXX  13181 35173 32998 80906 10227 20094 40046 57011 8807/ 333 10285;EQDQ01  00002PRCP99
0112351730999992000061321004+51610+069800FM-12+031299999V0201101N008019999999N0200001N1+02231+00881100261ADDGF108991081001999999071999MD1710191+9999REMSYN060AAXX  13211 35173 42998 81108 10223 20088 40026 57019 8807/;
0143351730999992000061400004+51610+069800FM-12+031299999V0201601N004019999999N0040001N1+01961+01021100381ADDGF108991081001999999071999MA1999999096891MD1310081+9999REMSYN076AAXX  14001 35173 42996 81604 10196 20102 39689 40038 53008 8807/ 555 10019;
0198351730999992000061403004+51610+069800FM-12+031299999V0202301N004010075019N0040001N1+01491+01131100781ADDAA199000091GF108991999071008001021999IA1019IA2999+01709MD1210331+9999REMSYN082AAXX  14031 35173 32596 82304 10149 20113 40078 52033 8872/ 555 20148 30017 7000/;EQDQ01+000082SCOTLCQ02  00002PRCP99
0165351730999992000061406004+51610+069800FM-12+031299999V0202301N002010120019N0040001N1+01521+01251100911ADDAA199000091GF108991081081008001001001KA1999N+01481MD1210131+9999REMSYN070AAXX  14061 35173 32596 82302 10152 20125 40091 52013 88800 333 20148;EQDQ01  00002PRCP99
0131351730999992000061409004+51610+069800FM-12+031299999V0202301N002010075019N0040001N1+01651+01271101041ADDGF108991999021008001061999MD1210141+9999REMSYN060AAXX  14091 35173 42596 82302 10165 20127 40104 52014 8826/;EQDQ01+000082SCOTLC
0143351730999992000061412004+51610+069800FM-12+031299999V0201401N002010075019N0040001N1+01831+01151100921ADDGF108991081091008001999999MA1999999097401MD1810091+9999REMSYN076AAXX  14121 35173 42596 81402 10183 20115 39740 40092 58009 889// 555 10020;
0165351730999992000061415004+51610+069800FM-12+031299999V0201401N002010075019N0040001N1+01661+01221100941ADDAA199000091GF108991081031008001999999KA1999M+02001MD1710011+9999REMSYN070AAXX  14151 35173 32596 81402 10166 20122 40094 57001 883// 333 10200;EQDQ01  00002PRCP99
0165351730999992000061418004+51610+069800FM-12+031299999V0200901N002010075019N0200001N1+01561+01311100981ADDAA199000091GF108991081091008001999999KA1999M+02001MD1310031+9999REMSYN070AAXX  14181 35173 32598 80902 10156 20131 40098 53003 889// 333 10200;EQDQ01  00002PRCP99
0140351730999992000061421004+51610+069800FM-12+031299999V0200901N002010075019N0008001N1+01441+01241100931ADDAY181031AY221031GF108991081091008001999999MD1810061+9999MW1021REMSYN066AAXX  14211 35173 41508 80902 10144 20124 40093 58006 70282 889//;
0143351730999992000061500004+51610+069800FM-12+031299999V0201401N002012200019N0040001N1+01171+01071100951ADDGF102991021001999999031001MA1999999097341MD1710021+9999REMSYN076AAXX  15001 35173 41996 21402 10117 20107 39734 40095 57002 82030 555 10011;
0140351730999992000061503004+51610+069800FM-12+031299999V0201401N002019999999N0040001N1+01601+01101100871ADDGF106991061001999999051001MD1710031+9999REMSYN088AAXX  15031 35173 /2996 61402 10160 20110 40087 57003 86050 555 20114 30011 69932 7993/;
0171351730999992000061506004+51610+069800FM-12+031299999V0201401N008019999999N0040001N1+02251+00761100611ADDAA100000391GF108991999051999999021999KA1999N+01141MD1310031+9999REMSYN076AAXX  15061 35173 12996 81408 10225 20076 40061 53003 69930 8852/ 333 20114;EQDQ01+000082SCOTLC
0112351730999992000061509004+51610+069800FM-12+031299999V0201801N010012200019N0040001N1+02271+00651100521ADDGF103991011091012501061001MD1810081+9999REMSYN060AAXX  15091 35173 42696 31810 10227 20065 40052 58008 81960;
0149351730999992000061512004+51610+069800FM-12+031299999V0202501N012010120019N0040001N1+02311+00801100431ADDGF106991061011012501001001MA1999999096971MD1710091+9999REMSYN082AAXX  15121 35173 42696 62512 10231 20080 39697 40043 57009 86100 555 10027 91016;
0165351730999992000061515004+51610+069800FM-12+031299999V0202501N002012200019N0040001N1+02051+00931100501ADDAA199000091GF105991031041008001001041KA1999M+02491MD1310051+9999REMSYN070AAXX  15151 35173 32596 52502 10205 20093 40050 53005 83404 333 10249;EQDQ01  00002PRCP99
0165351730999992000061518004+51610+069800FM-12+031299999V0201401N002012200019N0200001N1+01531+00901100651ADDAA199000091GF103991021051008001041001KA1999M+02491MD1210081+9999REMSYN070AAXX  15181 35173 32598 31402 10153 20090 40065 52008 82540 333 10249;EQDQ01  00002PRCP99
0112351730999992000061521004+51610+069800FM-12+031299999V0201401N004019999999N0200001N1+01391+00981100711ADDGF105991051001999999041001MD1210031+9999REMSYN060AAXX  15211 35173 42998 51404 10139 20098 40071 52003 85040;
0143351730999992000061600004+51610+069800FM-12+031299999V0201801N004010120019N0040001N1+01431+01091100751ADDGF106991061081008001001001MA1999999097191MD1210061+9999REMSYN076AAXX  16001 35173 42596 61804 10143 20109 39719 40075 52006 86800 555 10014;
0187351730999992000061603004+51610+069800FM-12+031299999V0201801N004010075019N0040001N1+01551+01481100891ADDAY121031AY281031GF108991999021008001061999MD1210141+9999MW1081REMSYN094AAXX  16031 35173 /1596 81804 10155 20148 40089 52014 70828 8826/ 555 20135 30013 69912 7991/;EQDQ01+000082SCOTLC
0180351730999992000061606004+51610+069800FM-12+031299999V0203201N004010075019N0040001N1+01721+01441100871ADDAA100000191AY181061AY221061GF108991081091008001999999KA1999N+01351MD1410001+9999MW1251REMSYN082AAXX  16061 35173 11596 83204 10172 20144 40087 54000 69910 72582 889// 333 20135;
0171351730999992000061612004+51610+069800FM-12+031299999V0201801N004010075019N0040001N1+02101+01291100831ADDAY181061AY221061GF105991051031008001001001MA1999999097341MD1410001+9999MW1021REMSYN082AAXX  16121 35173 41596 51804 10210 20129 39734 40083 54000 70282 85300 555 11025;
0145351730999992000061615004+51610+069800FM-12+031299999V0203601N002010750019N0040001N1+02011+01291100971ADDGF105991031031008001001021KA1120M+02151MD1310131+9999REMSYN080AAXX  16151 35173 /2596 53602 10201 20129 40097 53013 83302 333 10215 555 60032;
0152351730999992000061618004+51610+069800FM-12+031299999V0203601N002010120019N0200001N1+01491+01291101161ADDAA100003091GF106991061081008001001001KA1999M+02151MD1210121+9999REMSYN076AAXX  16181 35173 12598 63602 10149 20129 40116 52012 60030 86800 333 10215;
0179351730999992000061703004+51610+069800FM-12+031299999V0202701N002012200019N0040001N1+01731+01431101561ADDAA112002091GA1001+999999999GF100991001001999999001001IA1099IA2999+01309MD1210141+9999REMSYN082AAXX  17031 35173 /2996 02702 10173 20143 40156 52014 555 20130 31013 60022 7005/;
0152351730999992000061706004+51610+069800FM-12+031299999V0202901N004012200019N0040001N1+02111+01181101591ADDAA100002091GF105991021011012501001011KA1999N+01301MD1210081+9999REMSYN076AAXX  17061 35173 12696 52904 10211 20118 40159 52008 60020 82101 333 20130;
0112351730999992000061709004+51610+069800FM-12+031299999V0202901N004012200019N0040001N1+02401+01031101641ADDGF106991031021012501001061MD1210081+9999REMSYN060AAXX  17091 35173 42696 62904 10240 20103 40164 52008 83206;
0143351730999992000061712004+51610+069800FM-12+031299999V0202901N002012200019N0040001N1+02511+00991101671ADDGF102991021021012501001001MA1999999098201MD1210041+9999REMSYN076AAXX  17121 35173 42696 22902 10251 20099 39820 40167 52004 82200 555 10034;
0165351730999992000061715004+51610+069800FM-12+031299999V0202501N002012200019N0040001N1+02431+01251101691ADDAA199000091GF101991011041008001001001KA1999M+02601MD1210011+9999REMSYN070AAXX  17151 35173 32596 12502 10243 20125 40169 52001 81400 333 10260;EQDQ01  00002PRCP99
0165351730999992000061718004+51610+069800FM-12+031299999V0209999C000012200019N0200001N1+01911+01191101871ADDAA199000091GF101991011041008001001001KA1999M+02601MD1210111+9999REMSYN070AAXX  17181 35173 32598 10000 10191 20119 40187 52011 81400 333 10260;EQDQ01  00002PRCP99
0143351730999992000061800004+51610+069800FM-12+031299999V0201401N004019999999N0040001N1+01561+01201102001ADDGF106991061001999999051001MA1999999098401MD1410001+9999REMSYN076AAXX  18001 35173 42996 61404 10156 20120 39840 40200 54000 86050 555 10015;
0182351730999992000061803004+51610+069800FM-12+031299999V0201801N002019999999N0040001N1+02081+01411102011ADDAA199000091GF106991061001999999031001IA1019IA2999+01309MD1310091+9999REMSYN082AAXX  18031 35173 32996 61802 10208 20141 40201 53009 86030 555 20145 30013 7000/;EQDQ01  00002PRCP99
0165351730999992000061806004+51610+069800FM-12+031299999V0201801N002010120019N0040001N1+02661+01381101941ADDAA199000091GF106991061021012501001001KA1999N+01451MD1810011+9999REMSYN070AAXX  18061 35173 32696 61802 10266 20138 40194 58001 86200 333 20145;EQDQ01  00002PRCP99
0112351730999992000061809004+51610+069800FM-12+031299999V0202301N002010120019N0040001N1+02851+01191101911ADDGF106991061021012501001001MD1710011+9999REMSYN060AAXX  18091 35173 42696 62302 10285 20119 40191 57001 86200;
0143351730999992000061812004+51610+069800FM-12+031299999V0200901N002010120019N0040001N1+02831+00981101801ADDGF106991061021012501001001MA1999999098361MD1710111+9999REMSYN076AAXX  18121 35173 42696 60902 10283 20098 39836 40180 57011 86200 555 10037;
0181351730999992000061815004+51610+069800FM-12+031299999V0201401N002012200019N0040001N1+02611+01301101771ADDAA199000091GF102991021011012501001001KA1999M+99999MD1710051+9999REMSYN070AAXX  18151 35173 32696 21402 10261 20130 40177 57005 82100 333 10203;EQDQ01  00002PRCP99Q02 +02032ATMX  
0175351730999992000061818004+51610+069800FM-12+031299999V0201401N002012200019N0200001N1+02141+01111101901ADDAA199000091GA1001+999999999GF100991001001999999001001KA1999M+03031MD1310071+9999REMSYN064AAXX  18181 35173 32598 01402 10214 20111 40190 53007 333 10303;EQDQ01  00002PRCP99
0122351730999992000061821004+51610+069800FM-12+031299999V0201601N002012200019N0200001N1+01911+01041101961ADDGA1001+999999999GF100991001001999999001001MD1210031+9999REMSYN054AAXX  18211 35173 42998 01602 10191 20104 40196 52003;
0153351730999992000061900004+51610+069800FM-12+031299999V0209999C000012200019N0040001N1+01491+01121102021ADDGA1001+999999999GF100991001001999999001001MA1999999098411MD1410001+9999REMSYN070AAXX  19001 35173 42996 00000 10149 20112 39841 40202 54000 555 10013;
0192351730999992000061903004+51610+069800FM-12+031299999V0200901N002012200019N0040001N1+02421+01361101911ADDAA199000091GA1001+999999999GF100991001001999999001001IA1019IA2999+01309MD1310021+9999REMSYN076AAXX  19031 35173 32996 00902 10242 20136 40191 53002 555 20146 30013 7000/;EQDQ01  00002PRCP99
0165351730999992000061906004+51610+069800FM-12+031299999V0200901N002010120019N0040001N1+02651+01341101901ADDAA199000091GF105991051021012501001001KA1999N+01461MD1210011+9999REMSYN070AAXX  19061 35173 32696 50902 10265 20134 40190 52001 85200 333 20146;EQDQ01  00002PRCP99
0112351730999992000061909004+51610+069800FM-12+031299999V0200501N004010120019N0040001N1+02851+01131101791ADDGF106991061021012501001001MD1810091+9999REMSYN060AAXX  19091 35173 42696 60504 10285 20113 40179 58009 86200;
0153351730999992000061912004+51610+069800FM-12+031299999V0200501N004012200019N0040001N1+02891+01241101671ADDGA1001+999999999GF100991001001999999001001MA1999999098251MD1710101+9999REMSYN070AAXX  19121 35173 42996 00504 10289 20124 39825 40167 57010 555 10036;
0165351730999992000062006004+51610+069800FM-12+031299999V0200901N004010120019N0040001N1+02531+01191101851ADDAA199000091GF105991051011012501001001KA1999N+01641MD1810011+9999REMSYN070AAXX  20061 35173 32696 50904 10253 20119 40185 58001 85100 333 20164;EQDQ01  00002PRCP99
0112351730999992000062009004+51610+069800FM-12+031299999V0200701N004012200019N0040001N1+02741+01091101771ADDGF103991021011012501001011MD1710061+9999REMSYN060AAXX  20091 35173 42696 30704 10274 20109 40177 57006 82101;
0143351730999992000062012004+51610+069800FM-12+031299999V0200501N006012200019N0040001N1+02791+01231101651ADDGF102991021011012501001001MA1999999098231MD1710091+9999REMSYN076AAXX  20121 35173 42696 20506 10279 20123 39823 40165 57009 82100 555 10035;
0175351730999992000062015004+51610+069800FM-12+031299999V0200501N004012200019N0040001N1+02751+01501101631ADDAA199000091GA1001+999999999GF100991001001999999001001KA1999M+02941MD1710031+9999REMSYN064AAXX  20151 35173 32996 00504 10275 20150 40163 57003 333 10294;EQDQ01  00002PRCP99
0175351730999992000062018004+51610+069800FM-12+031299999V0200501N004012200019N0200001N1+01172+99999101841ADDAA199000091GA1001+999999999GF100991001001999999001001KA1999M+02941MD1310131+9999REMSYN064AAXX  20181 35173 32998 00504 10117 20157 40184 53013 333 10294;EQDQ01  00002PRCP99
0122351730999992000062021004+51610+069800FM-12+031299999V0209999C000012200019N0200001N1+01851+01451101911ADDGA1001+999999999GF100991001001999999001001MD1210021+9999REMSYN054AAXX  20211 35173 42998 00000 10185 20145 40191 52002;
0165351730999992000062106004+51610+069800FM-12+031299999V0200701N006012200019N0040001N1+02831+01521101921ADDAA199000091GF101991011011012501001001KA1999N+01621MD1210061+9999REMSYN070AAXX  21061 35173 32696 10706 10283 20152 40192 52006 81100 333 20162;EQDQ01  00002PRCP99
0112351730999992000062109004+51610+069800FM-12+031299999V0200701N008012200019N0040001N1+03011+01431101861ADDGF101991011011012501001001MD1810041+9999REMSYN060AAXX  21091 35173 42696 10708 10301 20143 40186 58004 81100;
0143351730999992000062112004+51610+069800FM-12+031299999V0200701N006012200019N0040001N1+03091+01431101811ADDGF101991011011012501001001MA1999999098401MD1710041+9999REMSYN076AAXX  21121 35173 42696 10706 10309 20143 39840 40181 57004 81100 555 10039;
0122351730999992000062121004+51610+069800FM-12+031299999V0200901N004012200019N0200001N1+02111+01561101951ADDGA1001+999999999GF100991001001999999001001MD1810031+9999REMSYN054AAXX  21211 35173 42998 00904 10211 20156 40195 58003;
0153351730999992000062200004+51610+069800FM-12+031299999V0200901N004012200019N0040001N1+01861+01561102031ADDGA1001+999999999GF100991001001999999001001MA1999999098481MD1310051+9999REMSYN070AAXX  22001 35173 42996 00904 10186 20156 39848 40203 53005 555 10018;
0192351730999992000062203004+51610+069800FM-12+031299999V0200901N002012200019N0040001N1+02501+01541101951ADDAA199000091GA1001+999999999GF100991001001999999001001IA1019IA2999+01709MD1410001+9999REMSYN076AAXX  22031 35173 32996 00902 10250 20154 40195 54000 555 20185 30017 7000/;EQDQ01  00002PRCP99
0175351730999992000062206004+51610+069800FM-12+031299999V0200501N004012200019N0040001N1+02771+01491101851ADDAA199000091GA1001+999999999GF100991001001999999001001KA1999N+01851MD1810071+9999REMSYN064AAXX  22061 35173 32996 00504 10277 20149 40185 58007 333 20185;EQDQ01  00002PRCP99
0112351730999992000062209004+51610+069800FM-12+031299999V0200501N004012200019N0040001N1+03051+01191101641ADDGF103991031021012501001001MD1710181+9999REMSYN060AAXX  22091 35173 42696 30504 10305 20119 40164 57018 83200;
0143351730999992000062212004+51610+069800FM-12+031299999V0200901N004012200019N0040001N1+03091+01091101521ADDGF103991031021012501001001MA1999999098111MD1710121+9999REMSYN076AAXX  22121 35173 42696 30904 10309 20109 39811 40152 57012 83200 555 10037;
0175351730999992000062215004+51610+069800FM-12+031299999V0200901N002012200019N0040001N1+02911+01421101401ADDAA199000091GA1001+999999999GF100991001001999999001001KA1999M+03201MD1710121+9999REMSYN064AAXX  22151 35173 32996 00902 10291 20142 40140 57012 333 10320;EQDQ01  00002PRCP99
0175351730999992000062218004+51610+069800FM-12+031299999V0209999C000012200019N0200001N1+02401+01561101441ADDAA199000091GA1001+999999999GF100991001001999999001001KA1999M+03201MD1710021+9999REMSYN064AAXX  22181 35173 32998 00000 10240 20156 40144 57002 333 10320;EQDQ01  00002PRCP99
0122351730999992000062221004+51610+069800FM-12+031299999V0209999C000012200019N0200001N1+02191+01631101401ADDGA1001+999999999GF100991001001999999001001MD1710061+9999REMSYN054AAXX  22211 35173 42998 00000 10219 20163 40140 57006;
0153351730999992000062300004+51610+069800FM-12+031299999V0209999C000012200019N0040001N1+01871+01621101361ADDGA1001+999999999GF100991001001999999001001MA1999999097831MD1710081+9999REMSYN070AAXX  23001 35173 42996 00000 10187 20162 39783 40136 57008 555 10017;
0192351730999992000062303004+51610+069800FM-12+031299999V0209999C000012200019N0040001N1+02471+01791101261ADDAA199000091GA1001+999999999GF100991001001999999001001IA1019IA2999+01609MD1710021+9999REMSYN076AAXX  23031 35173 32996 00000 10247 20179 40126 57002 555 20184 30016 7000/;EQDQ01  00002PRCP99
0165351730999992000062306004+51610+069800FM-12+031299999V0200901N002012200019N0040001N1+02851+01511101151ADDAA199000091GF103991031011012501001001KA1999N+01841MD1710071+9999REMSYN070AAXX  23061 35173 32696 30902 10285 20151 40115 57007 83100 333 20184;EQDQ01  00002PRCP99
0112351730999992000062309004+51610+069800FM-12+031299999V0201401N002010075019N0040001N1+03091+01501101011ADDGF105991051021008001001001MD1710111+9999REMSYN060AAXX  23091 35173 42596 51402 10309 20150 40101 57011 85200;
0143351730999992000062312004+51610+069800FM-12+031299999V0200501N002010120019N0500001N1+03101+01381100891ADDGF106991061011012501001001MA1999999097511MD1710121+9999REMSYN076AAXX  23121 35173 42699 60502 10310 20138 39751 40089 57012 86100 555 10040;
0175351730999992000062315004+51610+069800FM-12+031299999V0200901N002012200019N0040001N1+02851+01491100811ADDAA199000091GA1001+999999999GF100991001001999999001001KA1999M+03221MD1710091+9999REMSYN064AAXX  23151 35173 32996 00902 10285 20149 40081 57009 333 10322;EQDQ01  00002PRCP99
0165351730999992000062318004+51610+069800FM-12+031299999V0200901N002012200019N0200001N1+02291+01491100981ADDAA199000091GF102991021081008001001001KA1999M+03221MD1310051+9999REMSYN070AAXX  23181 35173 32598 20902 10229 20149 40098 53005 82800 333 10322;EQDQ01  00002PRCP99
0122351730999992000062321004+51610+069800FM-12+031299999V0200901N002012200019N0200001N1+02071+01261100891ADDGA1001+999999999GF100991001001999999001001MD1810081+9999REMSYN054AAXX  23211 35173 42998 00902 10207 20126 40089 58008;
0153351730999992000062400004+51610+069800FM-12+031299999V0200901N002012200019N0040001N1+01761+01201100861ADDGA1001+999999999GF100991001001999999001001MA1999999097321MD1710071+9999REMSYN070AAXX  24001 35173 42996 00902 10176 20120 39732 40086 57007 555 10016;
0182351730999992000062403004+51610+069800FM-12+031299999V0200901N002012200019N0040001N1+02371+01211100731ADDAA199000091GF101991001001999999001021IA1019IA2999+01609MD1710051+9999REMSYN082AAXX  24031 35173 32996 10902 10237 20121 40073 57005 80002 555 20173 30016 7000/;EQDQ01  00002PRCP99
0165351730999992000062406004+51610+069800FM-12+031299999V0200901N004012200019N0040001N1+02911+00761100631ADDAA199000091GF102991001001999999001041KA1999N+01731MD1710041+9999REMSYN070AAXX  24061 35173 32996 20904 10291 20076 40063 57004 80004 333 20173;EQDQ01  00002PRCP99
0112351730999992000062409004+51610+069800FM-12+031299999V0200701N004019999999N0040001N1+03091+00891100461ADDGF105991001001999999001021MD1710141+9999REMSYN060AAXX  24091 35173 42996 50704 10309 20089 40046 57014 80002;
0143351730999992000062412004+51610+069800FM-12+031299999V0201101N006019999999N0040001N1+03031+00901100421ADDGF106991001001999999001081MA1999999097051MD1710041+9999REMSYN076AAXX  24121 35173 42996 61106 10303 20090 39705 40042 57004 80008 555 10042;
0165351730999992000062415004+51610+069800FM-12+031299999V0200501N002010075019N0040001N1+02731+01261100461ADDAA199000091GF106991061091008001041001KA1999M+03201MD1310011+9999REMSYN070AAXX  24151 35173 32596 60502 10273 20126 40046 53001 86940 333 10320;EQDQ01  00002PRCP99
0181351730999992000062418004+51610+069800FM-12+031299999V0209999C000010075019N0200001N1+02311+01301100571ADDAA199000091GF108991999051008001021999KA1999M+03201MD1210051+9999REMSYN070AAXX  24181 35173 32598 80000 10231 20130 40057 52005 8852/ 333 10320;EQDQ01+000082SCOTLCQ02  00002PRCP99
0131351730999992000062421004+51610+069800FM-12+031299999V0209999C000010075019N0200001N1+02051+01271100531ADDGF108991999051008001021999MD1810061+9999REMSYN060AAXX  24211 35173 42598 80000 10205 20127 40053 58006 8852/;EQDQ01+000082SCOTLC
0143351730999992000062500004+51610+069800FM-12+031299999V0200501N004010075019N0040001N1+02011+01021100541ADDGF108991081091008001999999MA1999999097041MD1710011+9999REMSYN076AAXX  25001 35173 42596 80504 10201 20102 39704 40054 57001 889// 555 10020;
0182351730999992000062503004+51610+069800FM-12+031299999V0200901N008019999999N0040001N1+02441+01201100511ADDAA199000091GF106991061001999999061001IA1019IA2999+02009MD1310031+9999REMSYN082AAXX  25031 35173 32996 60908 10244 20120 40051 53003 86060 555 20200 30020 7000/;EQDQ01  00002PRCP99
0165351730999992000062506004+51610+069800FM-12+031299999V0201101N010019999999N0040001N1+02851+01291100451ADDAA199000091GF106991061001999999061001KA1999N+02001MD1810011+9999REMSYN070AAXX  25061 35173 32996 61110 10285 20129 40045 58001 86060 333 20200;EQDQ01  00002PRCP99
0112351730999992000062509004+51610+069800FM-12+031299999V0201101N008019999999N0040001N1+02991+01271100421ADDGF105991051001999999071001MD1710011+9999REMSYN060AAXX  25091 35173 42996 51108 10299 20127 40042 57001 85070;
0143351730999992000062512004+51610+069800FM-12+031299999V0200901N006012200019N0040001N1+03131+01101100331ADDGF101991011021012501001001MA1999999096971MD1710081+9999REMSYN076AAXX  25121 35173 42696 10906 10313 20110 39697 40033 57008 81200 555 10040;
0165351730999992000062515004+51610+069800FM-12+031299999V0200901N010010300019N0040001N1+02811+01581100341ADDAA199000091GF106991021021012501061001KA1999M+03251MD1710021+9999REMSYN070AAXX  25151 35173 32696 60910 10281 20158 40034 57002 82260 333 10325;EQDQ01  00002PRCP99
0165351730999992000062518004+51610+069800FM-12+031299999V0200901N010012200019N0200001N1+02411+01391100371ADDAA199000091GF101991011041008001001001KA1999M+03251MD1710021+9999REMSYN070AAXX  25181 35173 32598 10910 10241 20139 40037 57002 81400 333 10325;EQDQ01  00002PRCP99
0122351730999992000062521004+51610+069800FM-12+031299999V0200701N008012200019N0200001N1+02061+01141100241ADDGA1001+999999999GF100991001001999999001001MD1710171+9999REMSYN054AAXX  25211 35173 42998 00708 10206 20114 40024 57017;
0143351730999992000062600004+51610+069800FM-12+031299999V0200701N008019999999N0040001N1+02071+01221100251ADDGF106991061001999999081001MA1999999096771MD1310011+9999REMSYN076AAXX  26001 35173 42996 60708 10207 20122 39677 40025 53001 86080 555 10020;
0182351730999992000062603004+51610+069800FM-12+031299999V0200901N006010150019N0040001N1+02281+01311100121ADDAA199000091GF106991061081012501001001IA1019IA2999+01809MD1810081+9999REMSYN082AAXX  26031 35173 32696 60906 10228 20131 40012 58008 86800 555 20193 30018 7000/;EQDQ01  00002PRCP99
0165351730999992000062606004+51610+069800FM-12+031299999V0201101N006019999999N0040001N1+02681+01411100021ADDAA199000091GF105991051001999999081001KA1999N+01931MD1710021+9999REMSYN070AAXX  26061 35173 32996 51106 10268 20141 40002 57002 85080 333 20193;EQDQ01  00002PRCP99
0112351730999992000062609004+51610+069800FM-12+031299999V0202301N004012200019N0500001N1+03431+01191099981ADDGF102991021021012501001001MD1410001+9999REMSYN060AAXX  26091 35173 42699 22304 10343 20119 49998 54000 82200;
0143351730999992000062612004+51610+069800FM-12+031299999V0202301N004012200019N0040001N1+03401+01021100031ADDGF101991011021012501001001MA1999999096701MD1310031+9999REMSYN076AAXX  26121 35173 42696 12304 10340 20102 39670 40003 53003 81200 555 10043;
0175351730999992000062615004+51610+069800FM-12+031299999V0202701N002012200019N0040001N1+02981+01231100171ADDAA199000091GA1001+999999999GF100991001001999999001001KA1999M+03541MD1210101+9999REMSYN064AAXX  26151 35173 32996 02702 10298 20123 40017 52010 333 10354;EQDQ01  00002PRCP99
0175351730999992000062618004+51610+069800FM-12+031299999V0209999C000012200019N0200001N1+02081+01271100351ADDAA199000091GA1001+999999999GF100991001001999999001001KA1999M+03541MD1210081+9999REMSYN064AAXX  26181 35173 32998 00000 10208 20127 40035 52008 333 10354;EQDQ01  00002PRCP99
0122351730999992000062621004+51610+069800FM-12+031299999V0209999C000012200019N0200001N1+01911+01251100411ADDGA1001+999999999GF100991001001999999001001MD1210031+9999REMSYN054AAXX  26211 35173 42998 00000 10191 20125 40041 52003;
0143351730999992000062700004+51610+069800FM-12+031299999V0209999C000012200019N0040001N1+01581+01111100511ADDGF102991021001999999081001MA1999999096961MD1210051+9999REMSYN076AAXX  27001 35173 42996 20000 10158 20111 39696 40051 52005 82080 555 10014;
0198351730999992000062703004+51610+069800FM-12+031299999V0203601N002012200019N0040001N1+02251+01431100501ADDAA199000091GF102991001001999999001041IA1019IA2999+01409MD1210081+9999REMSYN082AAXX  27031 35173 32996 23602 10225 20143 40050 52008 82004 555 20155 30014 7000/;EQDQ01+000022SCOTLCQ02  00002PRCP99
0181351730999992000062706004+51610+069800FM-12+031299999V0203601N004012200019N0040001N1+02851+01551100361ADDAA199000091GF103991001001999999001041KA1999N+01551MD1810061+9999REMSYN070AAXX  27061 35173 32996 33604 10285 20155 40036 58006 83004 333 20155;EQDQ01+000032SCOTLCQ02  00002PRCP99
0112351730999992000062709004+51610+069800FM-12+031299999V0201801N002010075019N0040001N1+02971+01241100491ADDGF108991051021008001061999MD1310121+9999REMSYN060AAXX  27091 35173 42596 81802 10297 20124 40049 53012 8526/;
0162351730999992000062712004+51610+069800FM-12+031299999V0200501N002010075019N0040001N1+02841+01251100311ADDGF108991999051008001021999MA1999999096921MD1810181+9999REMSYN076AAXX  27121 35173 42596 80502 10284 20125 39692 40031 58018 8852/ 555 10031;EQDQ01+000082SCOTLC
0165351730999992000062715004+51610+069800FM-12+031299999V0200501N002010075019N0040001N1+02531+01581100421ADDAA199000091GF108991081091008001999999KA1999M+03121MD1310071+9999REMSYN070AAXX  27151 35173 32596 80502 10253 20158 40042 53007 889// 333 10312;EQDQ01  00002PRCP99
0168351730999992000062803004+51610+069800FM-12+031299999V0203601N002010042019N0040001N1+01791+01671100391ADDAY181031AY221031GF106991061031004501001001MD1410001+9999MW1251REMSYN094AAXX  28031 35173 /1496 63602 10179 20167 40039 54000 72582 86300 555 20174 31017 60062 7006/;
0180351730999992000062806004+51610+069800FM-12+031299999V0203601N002010075019N0040001N1+02111+01641100401ADDAA100006191AY181061AY221061GF107991071031008001001001KA1999N+01741MD1310031+9999MW1021REMSYN082AAXX  28061 35173 11596 73602 10211 20164 40040 53003 60060 70282 87300 333 20174;
0140351730999992000062809004+51610+069800FM-12+031299999V0202701N002010075019N0040001N1+02191+01631100371ADDAY181031AY221031GF108991081091008001999999MD1810011+9999MW1021REMSYN066AAXX  28091 35173 41596 82702 10219 20163 40037 58001 70282 889//;
0171351730999992000062812004+51610+069800FM-12+031299999V0202301N002010075019N0040001N1+02051+01761100491ADDAY181061AY221061GF108991081091008001999999MA1999999097021MD1310111+9999MW1251REMSYN082AAXX  28121 35173 41596 82302 10205 20176 39702 40049 53011 72582 889// 555 11021;
0145351730999992000062815004+51610+069800FM-12+031299999V0202001N002010300019N0040001N1+01991+01711100411ADDGF108991021091008001061999KA1120M+02351MD1810091+9999REMSYN080AAXX  28151 35173 /2596 82002 10199 20171 40041 58009 8296/ 333 10235 555 69952;
0180351730999992000062818004+51610+069800FM-12+031299999V0209999C000010075019N0200001N1+01811+01631100451ADDAA100000591AY181061AY221061GF107991051041008001001011KA1999M+02351MD1310011+9999MW1011REMSYN082AAXX  28181 35173 11598 70000 10181 20163 40045 53001 69950 70182 85401 333 10235;
0143351730999992000062900004+51610+069800FM-12+031299999V0209999C000019999999N0040001N1+01761+01631100411ADDGF107991071001012501081001MA1999999096901MD1310051+9999REMSYN076AAXX  29001 35173 42696 70000 10176 20163 39690 40041 53005 87080 555 11017;
0140351730999992000062903004+51610+069800FM-12+031299999V0202501N002019999999N0040001N1+02191+01751100301ADDGF106991061001999999041001MD1810051+9999REMSYN088AAXX  29031 35173 /2996 62502 10219 20175 40030 58005 86040 555 20170 31015 69932 7998/;
0152351730999992000062906004+51610+069800FM-12+031299999V0202701N002010750019N0040001N1+02551+01721100291ADDAA100000391GF105991031021012501001091KA1999N+01701MD1310031+9999REMSYN076AAXX  29061 35173 12696 52702 10255 20172 40029 53003 69930 83209 333 20170;
0112351730999992000062909004+51610+069800FM-12+031299999V0203201N004010075019N0040001N1+02611+01821100241ADDGF106991061091008001001001MD1810041+9999REMSYN060AAXX  29091 35173 42596 63204 10261 20182 40024 58004 86900;
0171351730999992000062912004+51610+069800FM-12+031299999V0202701N002010075019N0040001N1+02031+01751100431ADDAY191061AY281061GF106991061091008001001001MA1999999096961MD1310121+9999MW1171REMSYN082AAXX  29121 35173 41596 62702 10203 20175 39696 40043 53012 71798 86900 555 12021;
0173351730999992000062915004+51610+069800FM-12+031299999V0209999C000010042019N0040001N1+02111+02021100441ADDAY191031AY281031GF106991061091004501001001KA1120M+02851MD1210021+9999MW1251REMSYN086AAXX  29151 35173 /1496 60000 10211 20202 40044 52002 72598 86900 333 10285 555 60452;
0180351730999992000062918004+51610+069800FM-12+031299999V0209999C000010075019N0200001N1+01941+01911100531ADDAA100045091AY191061AY281061GF108991081091008001999999KA1999M+02851MD1210071+9999MW1021REMSYN082AAXX  29181 35173 11598 80000 10194 20191 40053 52007 60450 70298 889// 333 10285;
0140351730999992000062921004+51610+069800FM-12+031299999V0200701N002010075019N0200001N1+01811+01741100541ADDAY101031AY221031GF105991051041008001001001MD1810021+9999MW1131REMSYN066AAXX  29211 35173 41598 50702 10181 20174 40054 58002 71302 85400;
0171351730999992000063000004+51610+069800FM-12+031299999V0200501N002010075019N0040001N1+01701+01621100601ADDAY191061AY281061GF108991081091008001999999MA1999999097081MD1310051+9999MW1251REMSYN082AAXX  30001 35173 41596 80502 10170 20162 39708 40060 53005 72598 889// 555 12017;
0152351730999992000063006004+51610+069800FM-12+031299999V0203601N004010075019N0040001N1+01701+01381100971ADDAA100004191GF108991081031008001999999KA1999N+01651MD1210201+9999REMSYN076AAXX  30061 35173 /2596 83604 10170 20138 40097 52020 60040 883// 333 20165;
0131351730999992000063009004+51610+069800FM-12+031299999V0200501N004010075019N0040001N1+01811+01271101131ADDGF108991081071008001999999MD1210161+9999REMSYN060AAXX  30091 35173 42596 80504 10181 20127 40113 52917 887//;EQDQ01+009177APC3  
0143351730999992000063012004+51610+069800FM-12+031299999V0200501N002010075019N0040001N1+01891+01171101301ADDGF108991081031008001999999MA1999999097771MD1210171+9999REMSYN076AAXX  30121 35173 42596 80502 10189 20117 39777 40130 52017 883// 555 12021;
0165351730999992000063015004+51610+069800FM-12+031299999V0209999C000010075019N0040001N1+01731+01321101381ADDAA199000091GF106991061051008001021001KA1999M+01991MD1210061+9999REMSYN070AAXX  30151 35173 32596 60000 10173 20132 40138 52006 86520 333 10199;EQDQ01  00002PRCP99
0193351730999992000063018004+51610+069800FM-12+031299999V0209999C000010075019N0200001N1+01691+01531101511ADDAA199000091AY181061AY221061GF108991081091008001999999KA1999M+01991MD1210121+9999MW1021REMSYN076AAXX  30181 35173 31598 80000 10169 20153 40151 52012 70282 889// 333 10199;EQDQ01  00002PRCP99
0171351730999992000070100004+51610+069800FM-12+031299999V0209999C000010075019N0040001N1+01451+01321101581ADDAY181061AY221061GF107991071091008001041001MA1999999097991MD1210021+9999MW1021REMSYN082AAXX  01001 35173 41596 70000 10145 20132 39799 40158 52002 70282 87940 555 12014;
0140351730999992000070103004+51610+069800FM-12+031299999V0209999C000012200019N0040001N1+01671+01331101631ADDGF104991021091008001061001MD1210071+9999REMSYN088AAXX  01031 35173 /2596 40000 10167 20133 40163 52007 82960 555 20142 32014 69942 7994/;
0152351730999992000070106004+51610+069800FM-12+031299999V0200501N006010120019N0040001N1+01971+00931101601ADDAA100000591GF106991061021012501001001KA1999N+01421MD1210011+9999REMSYN076AAXX  01061 35173 12696 60506 10197 20093 40160 52001 69940 86200 333 20142;
0112351730999992000070109004+51610+069800FM-12+031299999V0200501N002010120019N0040001N1+02001+00701101571ADDGF105991051021012501001001MD1810031+9999REMSYN060AAXX  01091 35173 42696 50502 10200 20070 40157 58003 85200;
0143351730999992000070112004+51610+069800FM-12+031299999V0203201N002010120019N0040001N1+02151+00651101601ADDGF106991061021012501001001MA1999999098091MD1310051+9999REMSYN076AAXX  01121 35173 42696 63202 10215 20065 39809 40160 53005 86200 555 11029;
0165351730999992000070115004+51610+069800FM-12+031299999V0200501N002010120019N0040001N1+01841+01191101531ADDAA199000091GF106991061021012501001011KA1999M+02161MD1810101+9999REMSYN070AAXX  01151 35173 32696 60502 10184 20119 40153 58010 86201 333 10216;EQDQ01  00002PRCP99
0165351730999992000070118004+51610+069800FM-12+031299999V0209999C000012200019N0200001N1+01431+01151101641ADDAA199000091GF103991031081012501001001KA1999M+02161MD1310061+9999REMSYN070AAXX  01181 35173 32698 30000 10143 20115 40164 53006 83800 333 10216;EQDQ01  00002PRCP99
0122351730999992000070121004+51610+069800FM-12+031299999V0209999C000012200019N0200001N1+01231+01021101671ADDGA1001+999999999GF100991001001999999001001MD1410001+9999REMSYN054AAXX  01211 35173 42998 00000 10123 20102 40167 54000;
0153351730999992000070200004+51610+069800FM-12+031299999V0209999C000012200019N0040001N1+01031+00931101721ADDGA1001+999999999GF100991001001999999001001MA1999999098051MD1410001+9999REMSYN070AAXX  02001 35173 42996 00000 10103 20093 39805 40172 54000 555 11009;
0182351730999992000070203004+51610+069800FM-12+031299999V0209999C000010075019N0040001N1+01671+01331101661ADDAA199000091GF106991051051008001081001IA1099IA2999+00909MD1310041+9999REMSYN082AAXX  02031 35173 32596 60000 10167 20133 40166 53004 85580 555 20100 31009 7000/;EQDQ01  00002PRCP99
0165351730999992000070206004+51610+069800FM-12+031299999V0202901N004010075019N0040001N1+02221+00941101551ADDAA199000091GF105991051021008001001001KA1999N+01001MD1810031+9999REMSYN070AAXX  02061 35173 32596 52904 10222 20094 40155 58003 85200 333 20100;EQDQ01  00002PRCP99
0112351730999992000070209004+51610+069800FM-12+031299999V0200501N002010300019N0040001N1+02271+00891101521ADDGF107991021021008001051001MD1710031+9999REMSYN060AAXX  02091 35173 42596 70502 10227 20089 40152 57003 82250;
0143351730999992000070212004+51610+069800FM-12+031299999V0203601N004010300019N0040001N1+02381+00931101471ADDGF105991021021008001061001MA1999999097991MD1710041+9999REMSYN076AAXX  02121 35173 42596 53604 10238 20093 39799 40147 57004 82260 555 10036;
0165351730999992000070215004+51610+069800FM-12+031299999V0203601N002019999999N0200001N1+02331+01031101451ADDAA199000091GF106991061001999999051001KA1999M+02551MD1710021+9999REMSYN070AAXX  02151 35173 32998 63602 10233 20103 40145 57002 86050 333 10255;EQDQ01  00002PRCP99
0175351730999992000070218004+51610+069800FM-12+031299999V0209999C000012200019N0200001N1+01691+01351101531ADDAA199000091GA1001+999999999GF100991001001999999001001KA1999M+02351MD1410001+9999REMSYN064AAXX  02181 35173 32998 00000 10169 20135 40153 54000 333 10235;EQDQ01  00002PRCP99
0122351730999992000070221004+51610+069800FM-12+031299999V0209999C000012200019N0200001N1+01461+01191101531ADDGA1001+999999999GF100991001001999999001001MD1810031+9999REMSYN054AAXX  02211 35173 42998 00000 10146 20119 40153 58003;
0153351730999992000070300004+51610+069800FM-12+031299999V0209999C000012200019N0040001N1+01251+01121101541ADDGA1001+999999999GF100991001001999999001001MA1999999097921MD1710021+9999REMSYN070AAXX  03001 35173 42996 00000 10125 20112 39792 40154 57002 555 10011;
0192351730999992000070303004+51610+069800FM-12+031299999V0209999C000012200019N0040001N1+01881+01311101471ADDAA199000091GA1001+999999999GF100991001001999999001001IA1019IA2999+01009MD1310021+9999REMSYN076AAXX  03031 35173 32996 00000 10188 20131 40147 53002 555 20122 30010 7000/;EQDQ01  00002PRCP99
0165351730999992000070306004+51610+069800FM-12+031299999V0209999C000012200019N0040001N1+02491+01391101341ADDAA199000091GF103991021011012501001041KA1999N+01221MD1810051+9999REMSYN070AAXX  03061 35173 32696 30000 10249 20139 40134 58005 82104 333 20122;EQDQ01  00002PRCP99
0112351730999992000070309004+51610+069800FM-12+031299999V0209999C000010120019N0040001N1+02691+00821101231ADDGF106991061021012501001001MD1710101+9999REMSYN060AAXX  03091 35173 42696 60000 10269 20082 40123 57010 86200;
0143351730999992000070312004+51610+069800FM-12+031299999V0209999C000010120019N0040001N1+02751+00851101101ADDGF105991051021012501001001MA1999999097681MD1710111+9999REMSYN076AAXX  03121 35173 42696 50000 10275 20085 39768 40110 57011 85200 555 10040;
0165351730999992000070315004+51610+069800FM-12+031299999V0201801N002012200019N0040001N1+02531+01251101071ADDAA199000091GF103991031001999999081001KA1999M+02871MD1710061+9999REMSYN070AAXX  03151 35173 32996 31802 10253 20125 40107 57006 83080 333 10287;EQDQ01  00002PRCP99
0165351730999992000070318004+51610+069800FM-12+031299999V0201401N002012200019N0200001N1+01961+01171101171ADDAA199000091GF102991021001999999041001KA1999M+02871MD1310031+9999REMSYN070AAXX  03181 35173 32998 21402 10196 20117 40117 53003 82040 333 10287;EQDQ01  00002PRCP99
0122351730999992000070321004+51610+069800FM-12+031299999V0201801N002012200019N0200001N1+01631+01191101151ADDGA1001+999999999GF100991001001999999001001MD1810051+9999REMSYN054AAXX  03211 35173 42998 01802 10163 20119 40115 58005;
0143351730999992000070400004+51610+069800FM-12+031299999V0201801N002012200019N0040001N1+01691+01051101101ADDGF103991021051008001041001MA1999999097551MD1710051+9999REMSYN076AAXX  04001 35173 42596 31802 10169 20105 39755 40110 57005 82540 555 10016;
0182351730999992000070403004+51610+069800FM-12+031299999V0202001N002019999999N0040001N1+02311+01261100991ADDAA199000091GF105991021001999999081041IA1019IA2999+01409MD1710031+9999REMSYN082AAXX  04031 35173 32996 52002 10231 20126 40099 57003 82084 555 20160 30014 7000/;EQDQ01  00002PRCP99
0165351730999992000070406004+51610+069800FM-12+031299999V0202001N004010750019N0040001N1+02921+01021100861ADDAA199000091GF106991011081008001001071KA1999N+01601MD1710051+9999REMSYN070AAXX  04061 35173 32596 62004 10292 20102 40086 57005 81807 333 20160;EQDQ01  00002PRCP99
0142351730999992000070409004+51610+069800FM-12+031299999V0202001N004010300019N0040001N1+02861+01051100871ADDAA199000091GF107991021021012501061001MD1410001+9999REMSYN060AAXX  04091 35173 32696 72004 10286 20105 40087 54000 82260;EQDQ01  00002PRCP99
0143351730999992000070412004+51610+069800FM-12+031299999V0202301N006010300019N0040001N1+02921+00771100741ADDGF106991021021012501061001MA1999999097351MD1810121+9999REMSYN076AAXX  04121 35173 42696 62306 10292 20077 39735 40074 58012 82260 555 10038;
0165351730999992000070415004+51610+069800FM-12+031299999V0202301N004010300019N0040001N1+02571+00951100791ADDAA199000091GF106991031091008001041011KA1999M+03101MD1410001+9999REMSYN070AAXX  04151 35173 32596 62304 10257 20095 40079 54000 83941 333 10310;EQDQ01  00002PRCP99
0151351730999992000070418004+51610+069800FM-12+031299999V0201801N002010075019N0200001N1+01981+00881100901ADDAA199000091GF105991051041008001001041MD1310041+9999REMSYN069AAXX  04181 35173 32598 51802 10198 20088 40090 53004 85404 333 1031;EQDQ01  00002PRCP99
0143351730999992000070500004+51610+069800FM-12+031299999V0201801N002019999999N0040001N1+01791+00931100891ADDGF105991051001999999071001MA1999999097351MD1410001+9999REMSYN076AAXX  05001 35173 42996 51802 10179 20093 39735 40089 54000 85070 555 10016;
0182351730999992000070503004+51610+069800FM-12+031299999V0202001N002010300019N0040001N1+02431+01021100821ADDAA199000091GF106991041091008001081001IA1019IA2999+01609MD1310021+9999REMSYN082AAXX  05031 35173 32596 62002 10243 20102 40082 53002 84980 555 20170 30016 7000/;EQDQ01  00002PRCP99
0165351730999992000070506004+51610+069800FM-12+031299999V0202001N006019999999N0040001N1+02961+01381100721ADDAA199000091GF105991051001999999041081KA1999N+01701MD1810041+9999REMSYN070AAXX  05061 35173 32996 52006 10296 20138 40072 58004 85048 333 20170;EQDQ01  00002PRCP99
0143351730999992000070512004+51610+069800FM-12+031299999V0202501N006010075019N0040001N1+03041+01311100581ADDGF106991061091008001001001MA1999999097211MD1710091+9999REMSYN076AAXX  05121 35173 42596 62506 10304 20131 39721 40058 57009 86900 555 10046;
0173351730999992000070515004+51610+069800FM-12+031299999V0209999C000010300019N0040001N1+02551+01751100611ADDAY191031AY281031GF106991031091008001061001KA1120M+03171MD1710021+9999MW1021REMSYN086AAXX  05151 35173 /1596 60000 10255 20175 40061 57002 70298 83960 333 10317 555 60032;
0180351730999992000070518004+51610+069800FM-12+031299999V0200901N002019999999N0200001N1+02121+01481100641ADDAA100003091AY191061AY281061GF105991051001999999071001KA1999M+03171MD1710031+9999MW1021REMSYN082AAXX  05181 35173 11998 50902 10212 20148 40064 57003 60030 70298 85070 333 10317;
0112351730999992000070521004+51610+069800FM-12+031299999V0209999C000012200019N0200001N1+01991+01221100491ADDGF101991011001999999041001MD1710151+9999REMSYN060AAXX  05211 35173 42998 10000 10199 20122 40049 57015 81040;
0143351730999992000070600004+51610+069800FM-12+031299999V0200901N002012200019N0040001N1+01841+01251100361ADDGF103991031021012501001001MA1999999096861MD1710151+9999REMSYN076AAXX  06001 35173 42696 30902 10184 20125 39686 40036 57015 83200 555 11015;
0182351730999992000070603004+51610+069800FM-12+031299999V0201801N004019999999N0040001N1+02061+01421100241ADDAA199000091GF106991021001999999081021IA1099IA2999+01509MD1710101+9999REMSYN082AAXX  06031 35173 32996 61804 10206 20142 40024 57010 82082 555 20180 31015 7003/;EQDQ01  00002PRCP99
0112351730999992000070609004+51610+069800FM-12+031299999V0202301N008010300019N0040001N1+02781+01071100241ADDGF107991031021012501061001MD1210071+9999REMSYN060AAXX  06091 35173 42696 72308 10278 20107 40024 52007 83260;
0143351730999992000070612004+51610+069800FM-12+031299999V0202001N006010075019N0040001N1+02731+01301100031ADDGF105991051021008001001001MA1999999096641MD1810201+9999REMSYN076AAXX  06121 35173 42596 52006 10273 20130 39664 40003 58020 85200 555 10039;
0173351730999992000070615004+51610+069800FM-12+031299999V0202301N006010042019N0040001N1+02691+01151099981ADDAY181031AY221031GF107991061091004501041001KA1120M+02951MD1710051+9999MW1021REMSYN086AAXX  06151 35173 /1496 72306 10269 20115 49998 57005 70282 86940 333 10295 555 69912;
0180351730999992000070618004+51610+069800FM-12+031299999V0202001N002012200019N0200001N1+01791+01131100171ADDAA100000191AY181061AY211061GF102991011091004501061001KA1999M+02951MD1310071+9999MW1011REMSYN082AAXX  06181 35173 11498 22002 10179 20113 40017 53007 69910 70181 81960 333 10295;
0122351730999992000070621004+51610+069800FM-12+031299999V0209999C000012200019N0200001N1+01571+01151100331ADDGA1001+999999999GF100991001001999999001001MD1210131+9999REMSYN054AAXX  06211 35173 42998 00000 10157 20115 40033 52013;
0143351730999992000070700004+51610+069800FM-12+031299999V0202701N004012200019N0040001N1+01251+01021100491ADDGF102991011001012501041011MA1999999096911MD1210121+9999REMSYN076AAXX  07001 35173 42696 22704 10125 20102 39691 40049 52012 81041 555 10010;
0182351730999992000070703004+51610+069800FM-12+031299999V0202701N004010075019N0040001N1+01331+00891100631ADDAA199000091GF106991061021008001001001IA1019IA2999+01009MD1210151+9999REMSYN082AAXX  07031 35173 32596 62704 10133 20089 40063 52015 86200 555 20122 30010 7991/;EQDQ01  00002PRCP99
0165351730999992000070706004+51610+069800FM-12+031299999V0202701N006019999999N0040001N1+01521+00761100731ADDAA199000091GF108991081051999999999999KA1999N+01221MD1210111+9999REMSYN070AAXX  07061 35173 32996 82706 10152 20076 40073 52011 885// 333 20122;EQDQ01  00002PRCP99
0131351730999992000070709004+51610+069800FM-12+031299999V0203201N008010075019N0040001N1+01831+00741100771ADDGF106991999021008001001001MD1210071+9999REMSYN060AAXX  07091 35173 42596 63208 10183 20074 40077 52007 85200;EQDQ01+000052SCOTLC
0143351730999992000070712004+51610+069800FM-12+031299999V0202901N008012200019N0040001N1+02001+00761100841ADDGF106991041011012501001041MA1999999097331MD1210091+9999REMSYN076AAXX  07121 35173 42696 62908 10200 20076 39733 40084 52009 84104 555 10036;
0165351730999992000070715004+51610+069800FM-12+031299999V0202901N004012200019N0040001N1+01571+00591101031ADDAA199000091GF102991001001999999001041KA1999M+02081MD1210141+9999REMSYN070AAXX  07151 35173 32996 22904 10157 20059 40103 52014 80004 333 10208;EQDQ01  00002PRCP99
0165351730999992000070718004+51610+069800FM-12+031299999V0202901N004012200019N0200001N1+01061+00741101251ADDAA199000091GF104991041001999999041001KA1999M+02081MD1210151+9999REMSYN070AAXX  07181 35173 32998 42904 10106 20074 40125 52015 84040 333 10208;EQDQ01  00002PRCP99
0122351730999992000070721004+51610+069800FM-12+031299999V0203201N002012200019N0200001N1+00841+00641101311ADDGA1001+999999999GF100991001001999999001001MD1210031+9999REMSYN054AAXX  07211 35173 42998 03202 10084 20064 40131 52003;
0143351730999992000070800004+51610+069800FM-12+031299999V0209999C000012200019N0040001N1+00661+00591101461ADDGF102991021001999999081001MA1999999097771MD1210121+9999REMSYN076AAXX  08001 35173 42996 20000 10066 20059 39777 40146 52012 82080 555 10006;
0182351730999992000070803004+51610+069800FM-12+031299999V0203601N002012200019N0040001N1+01341+00701101471ADDAA199000091GF102991021001999999041001IA1019IA2999+00509MD1210101+9999REMSYN082AAXX  08031 35173 32996 23602 10134 20070 40147 52010 82040 555 20062 30005 7000/;EQDQ01  00002PRCP99
0165351730999992000070806004+51610+069800FM-12+031299999V0200201N002012200019N0040001N1+01671+00461101431ADDAA199000091GF103991031011012501001001KA1999N+00621MD1410001+9999REMSYN070AAXX  08061 35173 32696 30202 10167 20046 40143 54000 83100 333 20062;EQDQ01  00002PRCP99
0111351730999992000070809004+51610+069800FM-12+031299999V0200901N002012200019N0040001N1+01971+00641101321ADDGF103991001001999999001081REMSYN054AAXX  08091 35173 42996 30902 10197 20064 40132 83008;EQDQ01+000032SCOTLC
0143351730999992000070812004+51610+069800FM-12+031299999V0200901N002019999999N0040001N1+02031+00701101311ADDGF108991081001999999071999MA1999999097781MD1710011+9999REMSYN076AAXX  08121 35173 42996 80902 10203 20070 39778 40131 57001 8807/ 555 10031;
0165351730999992000070815004+51610+069800FM-12+031299999V0200901N002010075019N0040001N1+01941+00771101181ADDAA199000091GF106991051051008001031001KA1999M+02181MD1710121+9999REMSYN070AAXX  08151 35173 32596 60902 10194 20077 40118 57012 85530 333 10218;EQDQ01  00002PRCP99
0165351730999992000070818004+51610+069800FM-12+031299999V0201101N002010075019N0200001N1+01751+00811101121ADDAA199000091GF108991081051008001999999KA1999M+02181MD1710081+9999REMSYN070AAXX  08181 35173 32598 81102 10175 20081 40112 57008 885// 333 10218;EQDQ01  00002PRCP99
0112351730999992000070821004+51610+069800FM-12+031299999V0200901N004010075019N0200001N1+01691+00851100981ADDGF106991061051008001001001MD1710151+9999REMSYN060AAXX  08211 35173 42598 60904 10169 20085 40098 57015 86500;
0182351730999992000070903004+51610+069800FM-12+031299999V0200901N004010300019N0040001N1+01821+00841100851ADDAA199000091GF107991041071008001011001IA1019IA2999+01509MD1710101+9999REMSYN082AAXX  09031 35173 32596 70904 10182 20084 40085 57010 84710 555 20165 30015 7000/;EQDQ01  00002PRCP99
0165351730999992000070906004+51610+069800FM-12+031299999V0202001N006010120019N0040001N1+02101+01061100821ADDAA199000091GF108991081081008001999999KA1999N+01651MD1310011+9999REMSYN070AAXX  09061 35173 32596 82006 10210 20106 40082 53001 888// 333 20165;EQDQ01  00002PRCP99
0140351730999992000070909004+51610+069800FM-12+031299999V0202001N004010075019N0040001N1+01981+01351100851ADDAY181031AY221031GF108991081091008001999999MD1210031+9999MW1801REMSYN066AAXX  09091 35173 41596 82004 10198 20135 40085 52003 78082 889//;
0190351730999992000070912004+51610+069800FM-12+031299999V0202501N004010042019N0040001N1+01761+01451100721ADDAY181061AY261061GF108991999071004501021999MA1999999097211MD1810141+9999MW1611REMSYN082AAXX  09121 35173 41496 82504 10176 20145 39721 40072 58014 76186 8872/ 555 11018;EQDQ01+000082SCOTLC
0192351730999992000070915004+51610+069800FM-12+031299999V0201101N002010042019N0040001N1+01631+01291100671ADDAY161031AY261031GF108991999071004501021999KA1120M+02251MD1310081+9999MW1611REMSYN086AAXX  09151 35173 /1496 81102 10163 20129 40067 53008 76166 8872/ 333 10225 555 69952;EQDQ01+000082SCOTLC
0180351730999992000070918004+51610+069800FM-12+031299999V0200701N004010075019N0200001N1+01711+01121100401ADDAA100000591AY161061AY221061GF108991081051008001999999KA1999M+02251MD1710241+9999MW1021REMSYN082AAXX  09181 35173 11598 80704 10171 20112 40040 57024 69950 70262 885// 333 10225;
0131351730999992000070921004+51610+069800FM-12+031299999V0200701N004010075019N0200001N1+01661+01141100331ADDGF108991999071008001021999MD1710081+9999REMSYN060AAXX  09211 35173 42598 80704 10166 20114 40033 57008 8872/;EQDQ01+000082SCOTLC
0143351730999992000071000004+51610+069800FM-12+031299999V0200501N004010120019N0040001N1+01591+00931100171ADDGF108991081051012501999999MA1999999096641MD1710171+9999REMSYN076AAXX  10001 35173 42696 80504 10159 20093 39664 40017 57017 885// 555 11014;
0168351730999992000071003004+51610+069800FM-12+031299999V0200701N006010042019N0040001N1+01481+01121100191ADDAY181031AY221031GF108991081091004501999999MD1310011+9999MW1801REMSYN094AAXX  10031 35173 /1496 80706 10148 20112 40019 53001 78082 889// 555 20143 31013 69992 7001/;
0180351730999992000071006004+51610+069800FM-12+031299999V0200701N006012200019N0040001N1+02121+01181099971ADDAA100001091AY181061AY211061GF102991021001999999061001KA1999N+01431MD1810141+9999MW1011REMSYN082AAXX  10061 35173 11996 20706 10212 20118 49997 58014 69990 70181 82060 333 20143;
0112351730999992000071009004+51610+069800FM-12+031299999V0200501N008012200019N0040001N1+02641+00901099751ADDGF103991011021012501061001MD1710151+9999REMSYN060AAXX  10091 35173 42696 30508 10264 20090 49975 57015 81260;
0143351730999992000071012004+51610+069800FM-12+031299999V0200201N004010300019N0040001N1+02761+01141099611ADDGF106991021021012501061001MA1999999096241MD1710121+9999REMSYN076AAXX  10121 35173 42696 60204 10276 20114 39624 49961 57012 82260 555 10034;
0145351730999992000071015004+51610+069800FM-12+031299999V0200201N002012200019N0040001N1+02481+00921099631ADDGF103991031041008001001001KA1120M+02951MD1710021+9999REMSYN080AAXX  10151 35173 /2596 30202 10248 20092 49963 57002 83400 333 10295 555 69932;
0180351730999992000071018004+51610+069800FM-12+031299999V0200501N002012200019N0200001N1+01781+00971099781ADDAA100000391AY111061AY211061GF102991021031004501001001KA1999M+02951MD1310071+9999MW1131REMSYN082AAXX  10181 35173 11498 20502 10178 20097 49978 53007 69930 71311 82300 333 10295;
0112351730999992000071021004+51610+069800FM-12+031299999V0203601N004012200019N0200001N1+01701+00951099831ADDGF101991011001999999061001MD1210031+9999REMSYN060AAXX  10211 35173 42998 13604 10170 20095 49983 52003 81060;
0143351730999992000071100004+51610+069800FM-12+031299999V0201801N004019999999N0040001N1+01351+01061099981ADDGF106991061001999999081001MA1999999096431MD1210111+9999REMSYN076AAXX  11001 35173 42996 61804 10135 20106 39643 49998 52011 86080 555 10013;
0182351730999992000071103004+51610+069800FM-12+031299999V0201801N002012200019N0040001N1+01821+01361099921ADDAA199000091GF106991041081008001001041IA1019IA2999+01209MD1410001+9999REMSYN082AAXX  11031 35173 32596 61802 10182 20136 49992 54000 84804 555 20130 30012 7993/;EQDQ01  00002PRCP99
0165351730999992000071106004+51610+069800FM-12+031299999V0201801N002012200019N0040001N1+02341+01181099901ADDAA199000091GF105991031081008001001041KA1999N+01301MD1310041+9999REMSYN070AAXX  11061 35173 32596 51802 10234 20118 49990 53004 83804 333 20130;EQDQ01  00002PRCP99
0140351730999992000071109004+51610+069800FM-12+031299999V0201801N002010075019N0040001N1+02401+01381099881ADDAY191031AY221031GF106991061091008001001001MD1410001+9999MW1171REMSYN066AAXX  11091 35173 41596 61802 10240 20138 49988 54000 71792 86900;
0171351730999992000071112004+51610+069800FM-12+031299999V0200201N004010075019N0040001N1+02101+01451099961ADDAY191061AY221061GF106991061091008001001001MA1999999096501MD1310031+9999MW1171REMSYN082AAXX  11121 35173 41596 60204 10210 20145 39650 49996 53003 71792 86900 555 10028;
0165351730999992000071115004+51610+069800FM-12+031299999V0200501N002010075019N0040001N1+01831+01291100151ADDAA199000091GF108991081091008001999999KA1999M+02531MD1210161+9999REMSYN070AAXX  11151 35173 32596 80502 10183 20129 40015 52016 889// 333 10253;EQDQ01  00002PRCP99
0165351730999992000071118004+51610+069800FM-12+031299999V0209999C000019999999N0200001N1+01621+01431100271ADDAA199000091GF105991051001999999071001KA1999M+02531MD1210091+9999REMSYN070AAXX  11181 35173 32998 50000 10162 20143 40027 52009 85070 333 10253;EQDQ01  00002PRCP99
0112351730999992000071121004+51610+069800FM-12+031299999V0203601N004012200019N0200001N1+01431+01301100231ADDGF102991021001999999061001MD1810061+9999REMSYN060AAXX  11211 35173 42998 23604 10143 20130 40023 58006 82060;
0143351730999992000071200004+51610+069800FM-12+031299999V0203601N002019999999N0040001N1+01381+01341100371ADDGF105991051001999999041001MA1999999096781MD1310091+9999REMSYN076AAXX  12001 35173 42996 53602 10138 20134 39678 40037 53009 85040 555 10013;
0182351730999992000071203004+51610+069800FM-12+031299999V0203601N002010120019N0040001N1+01461+01291100411ADDAA199000091GF106991061021012501061001IA1019IA2999+01309MD1210081+9999REMSYN082AAXX  12031 35173 32696 63602 10146 20129 40041 52008 86260 555 20138 30013 7000/;EQDQ01  00002PRCP99
0165351730999992000071206004+51610+069800FM-12+031299999V0203601N004010075019N0040001N1+02041+01501100371ADDAA199000091GF106991061021008001001011KA1999N+01381MD1210031+9999REMSYN070AAXX  12061 35173 32596 63604 10204 20150 40037 52003 86201 333 20138;EQDQ01  00002PRCP99
0112351730999992000071209004+51610+069800FM-12+031299999V0200201N004010120019N0040001N1+02181+01431100421ADDGF106991061031012501001001MD1210071+9999REMSYN060AAXX  12091 35173 42696 60204 10218 20143 40042 52007 86300;
0143351730999992000071212004+51610+069800FM-12+031299999V0200201N004010075019N0040001N1+02281+01431100411ADDGF106991061031008001001041MA1999999096961MD1410001+9999REMSYN076AAXX  12121 35173 42596 60204 10228 20143 39696 40041 54000 86304 555 10038;
0165351730999992000071215004+51610+069800FM-12+031299999V0200501N006010075019N0040001N1+02141+01511100591ADDAA199000091GF108991081091008001999999KA1999M+02461MD1310151+9999REMSYN070AAXX  12151 35173 32596 80506 10214 20151 40059 53015 889// 333 10246;EQDQ01  00002PRCP99
0165351730999992000071218004+51610+069800FM-12+031299999V0209999C000019999999N0200001N1+01701+01461100751ADDAA199000091GF105991051001999999071001KA1999M+02461MD1210111+9999REMSYN070AAXX  12181 35173 32998 50000 10170 20146 40075 52011 85070 333 10246;EQDQ01  00002PRCP99
0122351730999992000071221004+51610+069800FM-12+031299999V0209999C000012200019N0200001N1+01541+01381100771ADDGA1001+999999999GF100991001001999999001001MD1410001+9999REMSYN054AAXX  12211 35173 42998 00000 10154 20138 40077 54000;
0153351730999992000071300004+51610+069800FM-12+031299999V0209999C000012200019N0040001N1+01301+01261100911ADDGA1001+999999999GF100991001001999999001001MA1999999097321MD1310101+9999REMSYN070AAXX  13001 35173 42996 00000 10130 20126 39732 40091 53010 555 10012;
0182351730999992000071303004+51610+069800FM-12+031299999V0200501N002012200019N0040001N1+01841+01271100941ADDAA199000091GF102991001001999999001041IA1019IA2999+01209MD1210101+9999REMSYN082AAXX  13031 35173 32996 20502 10184 20127 40094 52010 80004 555 20128 30012 7000/;EQDQ01  00002PRCP99
0165351730999992000071306004+51610+069800FM-12+031299999V0200901N004012200019N0040001N1+02521+00931100901ADDAA199000091GF105991021011012501001041KA1999N+01281MD1210041+9999REMSYN070AAXX  13061 35173 32696 50904 10252 20093 40090 52004 82104 333 20128;EQDQ01  00002PRCP99
0112351730999992000071309004+51610+069800FM-12+031299999V0200901N006010120019N0040001N1+02621+00901100911ADDGF105991051021012501001001MD1210021+9999REMSYN060AAXX  13091 35173 42696 50906 10262 20090 40091 52002 85200;
0143351730999992000071312004+51610+069800FM-12+031299999V0200701N002010120019N0040001N1+02661+00971100851ADDGF106991061021012501001001MA1999999097421MD1810061+9999REMSYN076AAXX  13121 35173 42696 60702 10266 20097 39742 40085 58006 86200 555 10036;
0165351730999992000071315004+51610+069800FM-12+031299999V0200201N002010075019N0040001N1+02491+01111100931ADDAA199000091GF105991051031008001001001KA1999M+02871MD1310061+9999REMSYN070AAXX  13151 35173 32596 50202 10249 20111 40093 53006 85300 333 10287;EQDQ01  00002PRCP99
0165351730999992000071318004+51610+069800FM-12+031299999V0203601N002012200019N0200001N1+01811+01151101151ADDAA199000091GF103991031001999999071001KA1999M+02871MD1210141+9999REMSYN070AAXX  13181 35173 32998 33602 10181 20115 40115 52014 83070 333 10287;EQDQ01  00002PRCP99
0122351730999992000071321004+51610+069800FM-12+031299999V0203601N002012200019N0200001N1+01381+00891101221ADDGA1001+999999999GF100991001001999999001001MD1210011+9999REMSYN054AAXX  13211 35173 42998 03602 10138 20089 40122 52001;
0153351730999992000071400004+51610+069800FM-12+031299999V0203601N002012200019N0040001N1+01121+00731101351ADDGA1001+999999999GF100991001001999999001001MA1999999097711MD1210081+9999REMSYN070AAXX  14001 35173 42996 03602 10112 20073 39771 40135 52008 555 10010;
0192351730999992000071403004+51610+069800FM-12+031299999V0200501N004012200019N0040001N1+01751+00841101331ADDAA199000091GA1001+999999999GF100991001001999999001001IA1019IA2999+01009MD1210071+9999REMSYN076AAXX  14031 35173 32996 00504 10175 20084 40133 52007 555 20108 30010 7000/;EQDQ01  00002PRCP99
0175351730999992000071406004+51610+069800FM-12+031299999V0200501N004012200019N0040001N1+02371+00531101291ADDAA199000091GA1001+999999999GF100991001001999999001001KA1999N+01081MD1210031+9999REMSYN064AAXX  14061 35173 32996 00504 10237 20053 40129 52003 333 20108;EQDQ01  00002PRCP99
0112351730999992000071409004+51610+069800FM-12+031299999V0200501N006012200019N0040001N1+02431+00821101211ADDGF103991031011012501001001MD1810061+9999REMSYN060AAXX  14091 35173 42696 30506 10243 20082 40121 58006 83100;
0143351730999992000071412004+51610+069800FM-12+031299999V0200701N004012200019N0040001N1+02581+00701101101ADDGF101991001001999999001021MA1999999097651MD1710101+9999REMSYN076AAXX  14121 35173 42996 10704 10258 20070 39765 40110 57010 80002 555 10036;
0165351730999992000071415004+51610+069800FM-12+031299999V0200501N004012200019N0040001N1+02461+00891101081ADDAA199000091GF102991001001999999001011KA1999M+02701MD1710031+9999REMSYN070AAXX  14151 35173 32996 20504 10246 20089 40108 57003 80001 333 10270;EQDQ01  00002PRCP99
0165351730999992000071418004+51610+069800FM-12+031299999V0209999C000012200019N0200001N1+01821+01211101141ADDAA199000091GF102991011001999999041011KA1999M+02701MD1710011+9999REMSYN070AAXX  14181 35173 32998 20000 10182 20121 40114 57001 81041 333 10270;EQDQ01  00002PRCP99
0112351730999992000071421004+51610+069800FM-12+031299999V0209999C000012200019N0200001N1+01551+01121101181ADDGF103991011001999999041021MD1410001+9999REMSYN060AAXX  14211 35173 42998 30000 10155 20112 40118 54000 81042;
0143351730999992000071500004+51610+069800FM-12+031299999V0200201N002012200019N0040001N1+01431+01191101171ADDGF102991001001999999001021MA1999999097591MD1810021+9999REMSYN076AAXX  15001 35173 42996 20202 10143 20119 39759 40117 58002 80002 555 10012;
0182351730999992000071503004+51610+069800FM-12+031299999V0200201N006012200019N0040001N1+01661+01061101281ADDAA199000091GF102991001001999999001021IA1019IA2999+01209MD1310131+9999REMSYN082AAXX  15031 35173 32996 20206 10166 20106 40128 53013 80002 555 20140 30012 7000/;EQDQ01  00002PRCP99
0175351730999992000071506004+51610+069800FM-12+031299999V0200501N008012200019N0040001N1+02001+00991101331ADDAA199000091GA1001+999999999GF100991001001999999001001KA1999N+01401MD1210081+9999REMSYN064AAXX  15061 35173 32996 00508 10200 20099 40133 52008 333 20140;EQDQ01  00002PRCP99
0112351730999992000071509004+51610+069800FM-12+031299999V0200501N006012200019N0040001N1+02081+00681101331ADDGF102991001001999999001081MD1210021+9999REMSYN060AAXX  15091 35173 42996 20506 10208 20068 40133 52002 80008;
0143351730999992000071512004+51610+069800FM-12+031299999V0203601N006012200019N0040001N1+02121+00581101441ADDGF102991011011012501001021MA1999999097921MD1210101+9999REMSYN076AAXX  15121 35173 42696 23606 10212 20058 39792 40144 52010 81102 555 10035;
0175351730999992000071515004+51610+069800FM-12+031299999V0200501N006012200019N0040001N1+01831+00451101581ADDAA199000091GA1001+999999999GF100991001001999999001001KA1999M+02291MD1210101+9999REMSYN064AAXX  15151 35173 32996 00506 10183 20045 40158 52010 333 10229;EQDQ01  00002PRCP99
0175351730999992000071518004+51610+069800FM-12+031299999V0200501N004012200019N0200001N1+01291+00671101781ADDAA199000091GA1001+999999999GF100991001001999999001001KA1999M+02291MD1210131+9999REMSYN064AAXX  15181 35173 32998 00504 10129 20067 40178 52013 333 10229;EQDQ01  00002PRCP99
0143351730999992000071600004+51610+069800FM-12+031299999V0203601N002012200019N0040001N1+00761+00581101901ADDGF103991031051008001001001MA1999999098211MD1210031+9999REMSYN076AAXX  16001 35173 42596 33602 10076 20058 39821 40190 52003 83500 555 10007;
0182351730999992000071603004+51610+069800FM-12+031299999V0200201N002010075019N0040001N1+01321+00401101981ADDAA199000091GF105991051051008001001001IA1019IA2999+00709MD1210141+9999REMSYN082AAXX  16031 35173 32596 50202 10132 20040 40198 52014 85500 555 20074 30007 7000/;EQDQ01  00002PRCP99
0165351730999992000071606004+51610+069800FM-12+031299999V0200201N004010120019N0040001N1+01761+00591101931ADDAA199000091GF106991061021012501001001KA1999N+00741MD1410001+9999REMSYN070AAXX  16061 35173 32696 60204 10176 20059 40193 54000 86200 333 20074;EQDQ01  00002PRCP99
0112351730999992000071609004+51610+069800FM-12+031299999V0203601N006010120019N0040001N1+01941+00591101881ADDGF106991061021012501001001MD1810031+9999REMSYN060AAXX  16091 35173 42696 63606 10194 20059 40188 58003 86200;
0143351730999992000071612004+51610+069800FM-12+031299999V0203601N004010075019N0040001N1+02161+00651101831ADDGF106991061041008001001001MA1999999098211MD1710111+9999REMSYN076AAXX  16121 35173 42596 63604 10216 20065 39821 40183 57011 86400 555 10034;
0165351730999992000071615004+51610+069800FM-12+031299999V0203601N002012200019N0040001N1+02081+00841101681ADDAA199000091GF103991031001999999071001KA1999M+02361MD1710061+9999REMSYN070AAXX  16151 35173 32996 33602 10208 20084 40168 57006 83070 333 10236;EQDQ01  00002PRCP99
0165351730999992000071618004+51610+069800FM-12+031299999V0203601N002012200019N0200001N1+01441+00861101791ADDAA199000091GF103991031001999999041001KA1999M+02361MD1310041+9999REMSYN070AAXX  16181 35173 32998 33602 10144 20086 40179 53004 83040 333 10236;EQDQ01  00002PRCP99
0122351730999992000071621004+51610+069800FM-12+031299999V0203601N002012200019N0200001N1+01121+00741101801ADDGA1001+999999999GF100991001001999999001001MD1810041+9999REMSYN054AAXX  16211 35173 42998 03602 10112 20074 40180 58004;
0153351730999992000071700004+51610+069800FM-12+031299999V0203601N002012200019N0040001N1+00891+00701101831ADDGA1001+999999999GF100991001001999999001001MA1999999098151MD1410001+9999REMSYN070AAXX  17001 35173 42996 03602 10089 20070 39815 40183 54000 555 10009;
0192351730999992000071703004+51610+069800FM-12+031299999V0200501N002012200019N0040001N1+01841+00881101741ADDAA199000091GA1001+999999999GF100991001001999999001001IA1019IA2999+00809MD1310041+9999REMSYN076AAXX  17031 35173 32996 00502 10184 20088 40174 53004 555 20085 30008 7000/;EQDQ01  00002PRCP99
0165351730999992000071706004+51610+069800FM-12+031299999V0200501N004012200019N0040001N1+02181+00621101741ADDAA199000091GF102991021011012501001001KA1999N+00851MD1210031+9999REMSYN070AAXX  17061 35173 32696 20504 10218 20062 40174 52003 82100 333 20085;EQDQ01  00002PRCP99
0097351730999992000071709004+51610+069800FM-12+031299999V0200201N004019999999N0040001N1+02361+99999999999ADDGF106991999999012501999999REMSYN059AAXX  17091 35173 42696 60204 10236 2006 40163 58008 85204;
0143351730999992000071712004+51610+069800FM-12+031299999V0200201N004010075019N0040001N1+02421+00761101541ADDGF106991061091008001001001MA1999999098061MD1710081+9999REMSYN076AAXX  17121 35173 42596 60204 10242 20076 39806 40154 57008 86900 555 10030;
0173351730999992000071715004+51610+069800FM-12+031299999V0209999C000012200019N0040001N1+02041+01261101691ADDAY181031AY211031GF103991031001999999071001KA1120M+02601MD1310101+9999MW1011REMSYN086AAXX  17151 35173 /1996 30000 10204 20126 40169 53010 70181 83070 333 10260 555 69902;
0190351730999992000071718004+51610+069800FM-12+031299999V0209999C000012200019N0200001N1+01561+01311101721ADDAA100000791AY181061AY211061GA1001+999999999GF100991001001999999001001KA1999M+02601MD1410001+9999MW1021REMSYN076AAXX  17181 35173 11998 00000 10156 20131 40172 54000 69900 70281 333 10260;
0122351730999992000071721004+51610+069800FM-12+031299999V0209999C000012200019N0200001N1+01241+01091101821ADDGA1001+999999999GF100991001001999999001001MD1310061+9999REMSYN054AAXX  17211 35173 42998 00000 10124 20109 40182 53006;
0143351730999992000071800004+51610+069800FM-12+031299999V0209999C000010075019N0040001N1+01511+01381101651ADDGF108991081091008001999999MA1999999098071MD1810121+9999REMSYN076AAXX  18001 35173 42596 80000 10151 20138 39807 40165 58012 889// 555 10016;
0168351730999992000071803004+51610+069800FM-12+031299999V0209999C000010042019N0040001N1+01561+01491101601ADDAY181031AY221031GF108991081091004501999999MD1710051+9999MW1021REMSYN094AAXX  18031 35173 /1496 80000 10156 20149 40160 57005 70282 889// 555 20122 31010 60012 7001/;
0123351730999992000071806004+51610+069800FM-12+031299999V0202701N002019999999N0020001N1+01621+01591101611ADDAA100001091GF108991999999004501999999MD1310021+9999REMSYN060AAXX  18061 35173 11495 82702 10162 20159 40161 53002 60010;
0140351730999992000071809004+51610+069800FM-12+031299999V0202001N002010075019N0040001N1+01741+01601101471ADDAY181031AY221031GF108991081091008001999999MD1810131+9999MW1021REMSYN066AAXX  18091 35173 41596 82002 10174 20160 40147 58013 70282 889//;
0171351730999992000071812004+51610+069800FM-12+031299999V0203601N002010300019N0040001N1+02071+01591101271ADDAY181061AY221061GF108991021091008001061999MA1999999097761MD1710151+9999MW1021REMSYN082AAXX  18121 35173 41596 83602 10207 20159 39776 40127 57015 70282 8296/ 555 12025;
0145351730999992000071815004+51610+069800FM-12+031299999V0209999C000012200019N0040001N1+02081+01561101221ADDGF101991011001999999041001KA1120M+02251MD1710041+9999REMSYN080AAXX  18151 35173 /2996 10000 10208 20156 40122 57004 81040 333 10225 555 60052;
0180351730999992000071818004+51610+069800FM-12+031299999V0209999C000010042019N0200001N1+01721+01641101391ADDAA100005191AY111061AY211061GF107991071091004501001001KA1999M+02251MD1310121+9999MW1251REMSYN082AAXX  18181 35173 11498 70000 10172 20164 40139 53012 60050 72511 87900 333 10225;
0112351730999992000071821004+51610+069800FM-12+031299999V0209999C000012200019N0200001N1+01601+01571101331ADDGF102991021091004501001001MD1810071+9999REMSYN060AAXX  18211 35173 42498 20000 10160 20157 40133 58007 82900;
0143351730999992000071900004+51610+069800FM-12+031299999V0209999C000012200019N0040001N1+01421+01381101201ADDGF102991001001999999001021MA1999999097621MD1710151+9999REMSYN076AAXX  19001 35173 42996 20000 10142 20138 39762 40120 57015 80002 555 11014;
0140351730999992000071903004+51610+069800FM-12+031299999V0209999C000019999999N0040001N1+01781+01581101341ADDGF105991021001999999081041MD1310181+9999REMSYN088AAXX  19031 35173 /2996 50000 10178 20158 40134 53018 82084 555 20140 32013 69932 7006/;
0152351730999992000071906004+51610+069800FM-12+031299999V0203201N002010750019N0040001N1+02241+01521101291ADDAA100000391GF106991021021012501001081KA1999N+01401MD1410001+9999REMSYN076AAXX  19061 35173 12696 63202 10224 20152 40129 54000 69930 82208 333 20140;
0112351730999992000071909004+51610+069800FM-12+031299999V0203601N004012200019N0040001N1+02521+01551101191ADDGF105991021021012501001081MD1810061+9999REMSYN060AAXX  19091 35173 42696 53604 10252 20155 40119 58006 82208;
0171351730999992000071912004+51610+069800FM-12+031299999V0203201N004010075019N0040001N1+02561+01671101161ADDAY191061AY221061GF106991061091008001001001MA1999999097721MD1710021+9999MW1171REMSYN082AAXX  19121 35173 41596 63204 10256 20167 39772 40116 57002 71792 86900 555 10032;
0173351730999992000071915004+51610+069800FM-12+031299999V0209999C000010075019N0040001N1+02281+01771101201ADDAY191031AY281031GF106991061031008001061001KA1120M+02751MD1410001+9999MW1021REMSYN086AAXX  19151 35173 /1596 60000 10228 20177 40120 54000 70298 86360 333 10275 555 69932;
0180351730999992000071918004+51610+069800FM-12+031299999V0209999C000010075019N0200001N1+01941+01661101401ADDAA100000391AY191061AY281061GF106991061091008001001001KA1999M+02751MD1310171+9999MW1171REMSYN082AAXX  19181 35173 11598 60000 10194 20166 40140 53017 69930 71798 86900 333 10275;
0153351730999992000072000004+51610+069800FM-12+031299999V0203601N002012200019N0040001N1+01281+01241101681ADDGA1001+999999999GF100991001001999999001001MA1999999098061MD1210091+9999REMSYN070AAXX  20001 35173 42996 03602 10128 20124 39806 40168 52009 555 10012;
0182351730999992000072003004+51610+069800FM-12+031299999V0200201N002012200019N0040001N1+01711+01371101791ADDAA199000091GF102991021001999999081001IA1019IA2999+01209MD1210161+9999REMSYN082AAXX  20031 35173 32996 20202 10171 20137 40179 52016 82080 555 20126 30012 7993/;EQDQ01  00002PRCP99
0165351730999992000072006004+51610+069800FM-12+031299999V0200501N004010075019N0040001N1+02151+01431101761ADDAA199000091GF106991061021008001001001KA1999N+01261MD1210021+9999REMSYN070AAXX  20061 35173 32596 60504 10215 20143 40176 52002 86200 333 20126;EQDQ01  00002PRCP99
0112351730999992000072009004+51610+069800FM-12+031299999V0200501N002010120019N0040001N1+02481+01231101701ADDGF106991061021012501001001MD1810021+9999REMSYN060AAXX  20091 35173 42696 60502 10248 20123 40170 58002 86200;
0143351730999992000072012004+51610+069800FM-12+031299999V0200501N002010075019N0040001N1+02521+01691101691ADDGF106991061031008001001001MA1999999098221MD1410001+9999REMSYN076AAXX  20121 35173 42596 60502 10252 20169 39822 40169 54000 86300 555 10035;
0165351730999992000072015004+51610+069800FM-12+031299999V0200501N004012200019N0040001N1+02401+01211101801ADDAA199000091GF102991021041008001001041KA1999M+02721MD1310101+9999REMSYN070AAXX  20151 35173 32596 20504 10240 20121 40180 53010 82404 333 10272;EQDQ01  00002PRCP99
0175351730999992000072018004+51610+069800FM-12+031299999V0200501N002012200019N0200001N1+01721+00981101971ADDAA199000091GA1001+999999999GF100991001001999999001001KA1999M+02721MD1210081+9999REMSYN064AAXX  20181 35173 32998 00502 10172 20098 40197 52008 333 10272;EQDQ01  00002PRCP99
0122351730999992000072021004+51610+069800FM-12+031299999V0209999C000012200019N0200001N1+01551+01121102061ADDGA1001+999999999GF100991001001999999001001MD1210061+9999REMSYN054AAXX  20211 35173 42998 00000 10155 20112 40206 52006;
0153351730999992000072100004+51610+069800FM-12+031299999V0209999C000012200019N0040001N1+01121+00921102141ADDGA1001+999999999GF100991001001999999001001MA1999999098491MD1210031+9999REMSYN070AAXX  21001 35173 42996 00000 10112 20092 39849 40214 52003 555 10010;
0192351730999992000072103004+51610+069800FM-12+031299999V0200201N002012200019N0040001N1+01821+00451102091ADDAA199000091GA1001+999999999GF100991001001999999001001IA1019IA2999+01009MD1210041+9999REMSYN076AAXX  21031 35173 32996 00202 10182 20045 40209 52004 555 20110 30010 7000/;EQDQ01  00002PRCP99
0165351730999992000072106004+51610+069800FM-12+031299999V0200501N004010750019N0040001N1+02361+00681101971ADDAA199000091GF105991041081012501001071KA1999N+01101MD1810061+9999REMSYN070AAXX  21061 35173 32696 50504 10236 20068 40197 58006 84807 333 20110;EQDQ01  00002PRCP99
0112351730999992000072109004+51610+069800FM-12+031299999V0200701N006010120019N0040001N1+02441+00701101851ADDGF106991061021012501001001MD1710101+9999REMSYN060AAXX  21091 35173 42696 60706 10244 20070 40185 57010 86200;
0143351730999992000072112004+51610+069800FM-12+031299999V0200501N004010750019N0040001N1+02461+00681101821ADDGF106991041081012501001071MA1999999098341MD1710031+9999REMSYN076AAXX  21121 35173 42696 60504 10246 20068 39834 40182 57003 84807 555 10037;
0165351730999992000072115004+51610+069800FM-12+031299999V0203601N002010075019N0040001N1+02151+00891101871ADDAA199000091GF106991061051008001081001KA1999M+02671MD1310011+9999REMSYN070AAXX  21151 35173 32596 63602 10215 20089 40187 53001 86580 333 10267;EQDQ01  00002PRCP99
0165351730999992000072118004+51610+069800FM-12+031299999V0203601N002012200019N0200001N1+01541+00921101941ADDAA199000091GF102991021041008001001001KA1999M+02671MD1810011+9999REMSYN070AAXX  21181 35173 32598 23602 10154 20092 40194 58001 82400 333 10267;EQDQ01  00002PRCP99
0122351730999992000072121004+51610+069800FM-12+031299999V0203601N002012200019N0200001N1+01251+00781101961ADDGA1001+999999999GF100991001001999999001001MD1710011+9999REMSYN054AAXX  21211 35173 42998 03602 10125 20078 40196 57001;
0143351730999992000072200004+51610+069800FM-12+031299999V0203601N002012200019N0040001N1+01001+00771101991ADDGF102991021001999999081001MA1999999098311MD1710021+9999REMSYN076AAXX  22001 35173 42996 23602 10100 20077 39831 40199 57002 82080 555 10010;
0182351730999992000072203004+51610+069800FM-12+031299999V0203601N002012200019N0040001N1+01611+00901101931ADDAA199000091GF102991021001999999081001IA1019IA2999+00909MD1310021+9999REMSYN082AAXX  22031 35173 32996 23602 10161 20090 40193 53002 82080 555 20098 30009 7000/;EQDQ01  00002PRCP99
0165351730999992000072206004+51610+069800FM-12+031299999V0200501N002010075019N0040001N1+02281+00981101751ADDAA199000091GF106991061021008001001001KA1999N+00981MD1810081+9999REMSYN070AAXX  22061 35173 32596 60502 10228 20098 40175 58008 86200 333 20098;EQDQ01  00002PRCP99
0112351730999992000072209004+51610+069800FM-12+031299999V0200501N004010075019N0040001N1+02401+00701101641ADDGF106991061021008001001001MD1710101+9999REMSYN060AAXX  22091 35173 42596 60504 10240 20070 40164 57010 86200;
0143351730999992000072212004+51610+069800FM-12+031299999V0200201N004010075019N0040001N1+02521+00681101611ADDGF105991051021008001001001MA1999999098131MD1710021+9999REMSYN076AAXX  22121 35173 42596 50204 10252 20068 39813 40161 57002 85200 555 10037;
0165351730999992000072215004+51610+069800FM-12+031299999V0200201N002012200019N0040001N1+02021+01041101741ADDAA199000091GF102991011041008001031001KA1999M+02701MD1310081+9999REMSYN070AAXX  22151 35173 32596 20202 10202 20104 40174 53008 81430 333 10270;EQDQ01  00002PRCP99
0175351730999992000072218004+51610+069800FM-12+031299999V0200201N002012200019N0200001N1+01501+00951101791ADDAA199000091GA1001+999999999GF100991001001999999001001KA1999M+02701MD1810021+9999REMSYN064AAXX  22181 35173 32998 00202 10150 20095 40179 58002 333 10270;EQDQ01  00002PRCP99
0122351730999992000072221004+51610+069800FM-12+031299999V0200201N002012200019N0200001N1+01221+01031101781ADDGA1001+999999999GF100991001001999999001001MD1710041+9999REMSYN054AAXX  22211 35173 42998 00202 10122 20103 40178 57004;
0143351730999992000072300004+51610+069800FM-12+031299999V0200201N002012200019N0040001N1+00901+00771101811ADDGF101991011001999999081001MA1999999098131MD1710021+9999REMSYN076AAXX  23001 35173 42996 10202 10090 20077 39813 40181 57002 81080 555 10008;
0198351730999992000072303004+51610+069800FM-12+031299999V0200501N004012200019N0040001N1+01521+00851101711ADDAA199000091GF102991001001999999001021IA1019IA2999+00809MD1710021+9999REMSYN082AAXX  23031 35173 32996 20504 10152 20085 40171 57002 82002 555 20087 30008 7000/;EQDQ01+000022SCOTLCQ02  00002PRCP99
0165351730999992000072306004+51610+069800FM-12+031299999V0200501N004010750019N0040001N1+01981+00801101551ADDAA199000091GF106991041021012501001091KA1999N+00871MD1710091+9999REMSYN070AAXX  23061 35173 32696 60504 10198 20080 40155 57009 84209 333 20087;EQDQ01  00002PRCP99
0112351730999992000072309004+51610+069800FM-12+031299999V0203601N004010075019N0040001N1+02061+00741101501ADDGF105991051021008001001001MD1710041+9999REMSYN060AAXX  23091 35173 42596 53604 10206 20074 40150 57004 85200;
0143351730999992000072312004+51610+069800FM-12+031299999V0203601N006012200019N0040001N1+02041+00581101451ADDGF102991021021012501001001MA1999999097921MD1710061+9999REMSYN076AAXX  23121 35173 42696 23606 10204 20058 39792 40145 57006 82200 555 10032;
0165351730999992000072315004+51610+069800FM-12+031299999V0203601N002019999999N0040001N1+01941+00671101381ADDAA199000091GF105991051001999999061001KA1999M+02261MD1710071+9999REMSYN070AAXX  23151 35173 32996 53602 10194 20067 40138 57007 85060 333 10226;EQDQ01  00002PRCP99
0175351730999992000072318004+51610+069800FM-12+031299999V0209999C000012200019N0200001N1+01381+00771101421ADDAA199000091GA1001+999999999GF100991001001999999001001KA1999M+02261MD1710031+9999REMSYN064AAXX  23181 35173 32998 00000 10138 20077 40142 57003 333 10226;EQDQ01  00002PRCP99
0122351730999992000072321004+51610+069800FM-12+031299999V0209999C000012200019N0200001N1+01021+00551101341ADDGA1001+999999999GF100991001001999999001001MD1710131+9999REMSYN054AAXX  23211 35173 42998 00000 10102 20055 40134 57013;
0143351730999992000072400004+51610+069800FM-12+031299999V0209999C000012200019N0040001N1+00811+00611101331ADDGF102991021001999999081001MA1999999097661MD1710031+9999REMSYN076AAXX  24001 35173 42996 20000 10081 20061 39766 40133 57003 82080 555 10007;
0198351730999992000072403004+51610+069800FM-12+031299999V0203601N002012200019N0040001N1+01421+00861101261ADDAA199000091GF103991001001999999001081IA1019IA2999+00709MD1310011+9999REMSYN082AAXX  24031 35173 32996 33602 10142 20086 40126 53001 83008 555 20078 30007 7000/;EQDQ01+000032SCOTLCQ02  00002PRCP99
0165351730999992000072406004+51610+069800FM-12+031299999V0203601N004010120019N0040001N1+01891+00801101191ADDAA199000091GF106991061021012501051001KA1999N+00781MD1810011+9999REMSYN070AAXX  24061 35173 32696 63604 10189 20080 40119 58001 86250 333 20078;EQDQ01  00002PRCP99
0112351730999992000072409004+51610+069800FM-12+031299999V0203201N006012200019N0040001N1+02051+00671101071ADDGF107991041041008001001041MD1710091+9999REMSYN060AAXX  24091 35173 42596 73206 10205 20067 40107 57009 84404;
0143351730999992000072412004+51610+069800FM-12+031299999V0203601N006010075019N0040001N1+01721+00851101141ADDGF107991071091008001001001MA1999999097591MD1310021+9999REMSYN076AAXX  24121 35173 42596 73606 10172 20085 39759 40114 53002 87900 555 10022;
0165351730999992000072415004+51610+069800FM-12+031299999V0209999C000010075019N0040001N1+01731+01101101231ADDAA199000091GF105991051041008001001041KA1999M+02301MD1210101+9999REMSYN070AAXX  24151 35173 32596 50000 10173 20110 40123 52010 85404 333 10230;EQDQ01  00002PRCP99
0175351730999992000072418004+51610+069800FM-12+031299999V0209999C000012200019N0200001N1+01241+00881101351ADDAA199000091GA1001+999999999GF100991001001999999001001KA1999M+02301MD1210051+9999REMSYN064AAXX  24181 35173 32998 00000 10124 20088 40135 52005 333 10230;EQDQ01  00002PRCP99
0122351730999992000072421004+51610+069800FM-12+031299999V0209999C000012200019N0200001N1+00871+00731101401ADDGA1001+999999999GF100991001001999999001001MD1410001+9999REMSYN054AAXX  24211 35173 42998 00000 10087 20073 40140 54000;
0153351730999992000072500004+51610+069800FM-12+031299999V0209999C000012200019N0040001N1+00601+00601101541ADDGA1001+999999999GF100991001001999999001001MA1999999097831MD1310091+9999REMSYN070AAXX  25001 35173 42996 00000 10060 20060 39783 40154 53009 555 10005;
0182351730999992000072503004+51610+069800FM-12+031299999V0203601N002012200019N0040001N1+01381+00861101521ADDAA199000091GF102991021001999999081001IA1019IA2999+00509MD1210081+9999REMSYN082AAXX  25031 35173 32996 23602 10138 20086 40152 52008 82080 555 20056 30005 7000/;EQDQ01  00002PRCP99
0165351730999992000072506004+51610+069800FM-12+031299999V0202901N002010120019N0040001N1+01961+00771101431ADDAA199000091GF106991061021012501001001KA1999N+00561MD1810011+9999REMSYN070AAXX  25061 35173 32696 62902 10196 20077 40143 58001 86200 333 20056;EQDQ01  00002PRCP99
0112351730999992000072509004+51610+069800FM-12+031299999V0202901N002010120019N0040001N1+02181+00731101291ADDGF106991061021012501001001MD1710111+9999REMSYN060AAXX  25091 35173 42696 62902 10218 20073 40129 57011 86200;
0143351730999992000072512004+51610+069800FM-12+031299999V0203201N002010120019N0040001N1+02221+00621101271ADDGF105991051081008001001001MA1999999097771MD1710021+9999REMSYN076AAXX  25121 35173 42596 53202 10222 20062 39777 40127 57002 85800 555 10032;
0175351730999992000072515004+51610+069800FM-12+031299999V0209999C000012200019N0040001N1+02071+00881101331ADDAA199000091GA1001+999999999GF100991001001999999001001KA1999M+02451MD1310051+9999REMSYN064AAXX  25151 35173 32996 00000 10207 20088 40133 53005 333 10245;EQDQ01  00002PRCP99
0175351730999992000072518004+51610+069800FM-12+031299999V0203201N002012200019N0200001N1+01571+00741101411ADDAA199000091GA1001+999999999GF100991001001999999001001KA1999M+02451MD1210011+9999REMSYN064AAXX  25181 35173 32998 03202 10157 20074 40141 52001 333 10245;EQDQ01  00002PRCP99
0122351730999992000072521004+51610+069800FM-12+031299999V0201801N002012200019N0200001N1+01371+00681101381ADDGA1001+999999999GF100991001001999999001001MD1810051+9999REMSYN054AAXX  25211 35173 42998 01802 10137 20068 40138 58005;
0162351730999992000072600004+51610+069800FM-12+031299999V0201801N002019999999N0040001N1+01471+00651101361ADDGF106991001001999999001081MA1999999097771MD1710011+9999REMSYN076AAXX  26001 35173 42996 61802 10147 20065 39777 40136 57001 86008 555 10015;EQDQ01+000062SCOTLC
0182351730999992000072603004+51610+069800FM-12+031299999V0201801N004019999999N0040001N1+01821+00991101291ADDAA199000091GF108991081001999999071999IA1019IA2999+01309MD1710021+9999REMSYN082AAXX  26031 35173 32996 81804 10182 20099 40129 57002 8807/ 555 20135 30013 7000/;EQDQ01  00002PRCP99
0165351730999992000072606004+51610+069800FM-12+031299999V0202301N004019999999N0040001N1+02541+00701101201ADDAA199000091GF107991071001999999081001KA1999N+01351MD1410001+9999REMSYN070AAXX  26061 35173 32996 72304 10254 20070 40120 54000 87080 333 20135;EQDQ01  00002PRCP99
0112351730999992000072609004+51610+069800FM-12+031299999V0202501N006010075019N0040001N1+02931+00951101061ADDGF107991071021008001001001MD1810091+9999REMSYN060AAXX  26091 35173 42596 72506 10293 20095 40106 58009 87200;
0143351730999992000072612004+51610+069800FM-12+031299999V0203601N004012200019N0040001N1+02861+01261101081ADDGF102991021021008001001001MA1999999097671MD1310011+9999REMSYN076AAXX  26121 35173 42596 23604 10286 20126 39767 40108 53001 82200 555 10045;
0175351730999992000072615004+51610+069800FM-12+031299999V0200901N002012200019N0040001N1+02501+01321101181ADDAA199000091GA1001+999999999GF100991001001999999001001KA1999M+03101MD1210061+9999REMSYN064AAXX  26151 35173 32996 00902 10250 20132 40118 52006 333 10310;EQDQ01  00002PRCP99
0175351730999992000072618004+51610+069800FM-12+031299999V0200901N004012200019N0200001N1+02061+01281101381ADDAA199000091GA1001+999999999GF100991001001999999001001KA1999M+03101MD1210141+9999REMSYN064AAXX  26181 35173 32998 00904 10206 20128 40138 52014 333 10310;EQDQ01  00002PRCP99
0122351730999992000072621004+51610+069800FM-12+031299999V0209999C000012200019N0200001N1+01681+01321101511ADDGA1001+999999999GF100991001001999999001001MD1210071+9999REMSYN054AAXX  26211 35173 42998 00000 10168 20132 40151 52007;
0153351730999992000072700004+51610+069800FM-12+031299999V0209999C000012200019N0040001N1+01501+01131101521ADDGA1001+999999999GF100991001001999999001001MA1999999097931MD1810011+9999REMSYN070AAXX  27001 35173 42996 00000 10150 20113 39793 40152 58001 555 10014;
0192351730999992000072703004+51610+069800FM-12+031299999V0209999C000012200019N0040001N1+02041+01241101551ADDAA199000091GA1001+999999999GF100991001001999999001001IA1019IA2999+01309MD1310101+9999REMSYN076AAXX  27031 35173 32996 00000 10204 20124 40155 53010 555 20147 30013 7000/;EQDQ01  00002PRCP99
0175351730999992000072706004+51610+069800FM-12+031299999V0209999C000012200019N0040001N1+02721+01481101501ADDAA199000091GA1001+999999999GF100991001001999999001001KA1999N+01471MD1210031+9999REMSYN064AAXX  27061 35173 32996 00000 10272 20148 40150 52003 333 20147;EQDQ01  00002PRCP99
0122351730999992000072709004+51610+069800FM-12+031299999V0200501N002012200019N0040001N1+03001+01141101371ADDGA1001+999999999GF100991001001999999001001MD1810091+9999REMSYN054AAXX  27091 35173 42996 00502 10300 20114 40137 58009;
0153351730999992000072712004+51610+069800FM-12+031299999V0209999C000012200019N0040001N1+03121+01151101251ADDGA1001+999999999GF100991001001999999001001MA1999999097871MD1710101+9999REMSYN070AAXX  27121 35173 42996 00000 10312 20115 39787 40125 57010 555 10050;
0175351730999992000072715004+51610+069800FM-12+031299999V0201401N002012200019N0040001N1+02721+01371101271ADDAA199000091GA1001+999999999GF100991001001999999001001KA1999M+03301MD1710031+9999REMSYN064AAXX  27151 35173 32996 01402 10272 20137 40127 57003 333 10330;EQDQ01  00002PRCP99
0175351730999992000072718004+51610+069800FM-12+031299999V0201401N004012200019N0200001N1+02491+01041101371ADDAA199000091GA1001+999999999GF100991001001999999001001KA1999M+03301MD1310061+9999REMSYN064AAXX  27181 35173 32998 01404 10249 20104 40137 53006 333 10330;EQDQ01  00002PRCP99
0122351730999992000072721004+51610+069800FM-12+031299999V0201601N004012200019N0200001N1+02141+01301101421ADDGA1001+999999999GF100991001001999999001001MD1210011+9999REMSYN054AAXX  27211 35173 42998 01604 10214 20130 40142 52001;
0153351730999992000072800004+51610+069800FM-12+031299999V0209999C000012200019N0040001N1+01671+01111101451ADDGA1001+999999999GF100991001001999999001001MA1999999097861MD1810051+9999REMSYN070AAXX  28001 35173 42996 00000 10167 20111 39786 40145 58005 555 10015;
0182351730999992000072803004+51610+069800FM-12+031299999V0202701N002012200019N0040001N1+02251+01291101461ADDAA199000091GF102991021001999999081001IA1019IA2999+01509MD1310111+9999REMSYN082AAXX  28031 35173 32996 22702 10225 20129 40146 53011 82080 555 20165 30015 7000/;EQDQ01  00002PRCP99
0165351730999992000072806004+51610+069800FM-12+031299999V0201401N002012200019N0040001N1+03091+01091101331ADDAA199000091GF103991031001999999081001KA1999N+01651MD1810041+9999REMSYN070AAXX  28061 35173 32996 31402 10309 20109 40133 58004 83080 333 20165;EQDQ01  00002PRCP99
0112351730999992000072809004+51610+069800FM-12+031299999V0201401N002012200019N0040001N1+03251+01061101241ADDGF103991031021012501061001MD1710061+9999REMSYN060AAXX  28091 35173 42696 31402 10325 20106 40124 57006 83260;
0143351730999992000072812004+51610+069800FM-12+031299999V0200501N002012200019N0040001N1+03311+01031101171ADDGF102991021011012501001001MA1999999097811MD1710061+9999REMSYN076AAXX  28121 35173 42696 20502 10331 20103 39781 40117 57006 82100 555 10045;
0165351730999992000072815004+51610+069800FM-12+031299999V0209999C000012200019N0040001N1+02941+01241101191ADDAA199000091GF102991001001999999001081KA1999M+03471MD1710031+9999REMSYN070AAXX  28151 35173 32996 20000 10294 20124 40119 57003 80008 333 10347;EQDQ01  00002PRCP99
0165351730999992000072818004+51610+069800FM-12+031299999V0203201N004012200019N0200001N1+02501+01211101361ADDAA199000091GF103991001001999999001031KA1999M+03471MD1310121+9999REMSYN070AAXX  28181 35173 32998 33204 10250 20121 40136 53012 80003 333 10347;EQDQ01  00002PRCP99
0122351730999992000072821004+51610+069800FM-12+031299999V0202901N002012200019N0200001N1+02081+01351101411ADDGA1001+999999999GF100991001001999999001001MD1410001+9999REMSYN054AAXX  28211 35173 42998 02902 10208 20135 40141 54000;
0143351730999992000072900004+51610+069800FM-12+031299999V0200901N002019999999N0040001N1+02021+01361101421ADDGF105991031001999999041011MA1999999097901MD1410001+9999REMSYN076AAXX  29001 35173 42996 50902 10202 20136 39790 40142 54000 83041 555 10017;
0182351730999992000072903004+51610+069800FM-12+031299999V0209999C000019999999N0040001N1+02481+01421101421ADDAA199000091GF106991051001999999031011IA1019IA2999+01709MD1310061+9999REMSYN082AAXX  29031 35173 32996 60000 10248 20142 40142 53006 85031 555 20200 30017 7000/;EQDQ01  00002PRCP99
0165351730999992000072906004+51610+069800FM-12+031299999V0200501N002012200019N0040001N1+03161+01191101371ADDAA199000091GF102991001001999999001011KA1999N+02001MD1210021+9999REMSYN070AAXX  29061 35173 32996 20502 10316 20119 40137 52002 80001 333 20200;EQDQ01  00002PRCP99
0112351730999992000072909004+51610+069800FM-12+031299999V0200201N002012200019N0040001N1+03481+00991101241ADDGF103991031021012501001001MD1810091+9999REMSYN060AAXX  29091 35173 42696 30202 10348 20099 40124 58009 83200;
0143351730999992000072912004+51610+069800FM-12+031299999V0200501N002010075019N0040001N1+03481+00991101201ADDGF105991051031008001001001MA1999999097851MD1710041+9999REMSYN076AAXX  29121 35173 42596 50502 10348 20099 39785 40120 57004 85300 555 10051;
0165351730999992000072915004+51610+069800FM-12+031299999V0200901N002012200019N0040001N1+02981+01111101271ADDAA199000091GF103991021091008001061001KA1999M+03671MD1310011+9999REMSYN070AAXX  29151 35173 32596 30902 10298 20111 40127 53001 82960 333 10367;EQDQ01  00002PRCP99
0169351730999992000072918004+51610+069800FM-12+031299999V0209999C000012200019N0200001N1+02591+99999101371ADDAA199000091GA1001+999999999GF100991001001999999001001KA1999M+03671MD1210061+9999REMSYN058AAXX  29181 35173 32998 00000 10259 40137 52006 333 10367;EQDQ01  00002PRCP99
0122351730999992000072921004+51610+069800FM-12+031299999V0209999C000012200019N0200001N1+02201+01291101381ADDGA1001+999999999GF100991001001999999001001MD1810031+9999REMSYN054AAXX  29211 35173 42998 00000 10220 20129 40138 58003;
0143351730999992000073000004+51610+069800FM-12+031299999V0209999C000012200019N0040001N1+01761+01291101431ADDGF102991021001999999031001MA1999999097881MD1710011+9999REMSYN076AAXX  30001 35173 42996 20000 10176 20129 39788 40143 57001 82030 555 10016;
0182351730999992000073003004+51610+069800FM-12+031299999V0203601N002012200019N0040001N1+02571+01301101391ADDAA199000091GF103991021051008001041001IA1019IA2999+01509MD1310051+9999REMSYN082AAXX  30031 35173 32596 33602 10257 20130 40139 53005 82540 555 20174 30015 7000/;EQDQ01  00002PRCP99
0165351730999992000073006004+51610+069800FM-12+031299999V0200901N002019999999N0040001N1+03091+01271101311ADDAA199000091GF107991071001999999081001KA1999N+01741MD1810011+9999REMSYN070AAXX  30061 35173 32996 70902 10309 20127 40131 58001 87080 333 20174;EQDQ01  00002PRCP99
0112351730999992000073009004+51610+069800FM-12+031299999V0201801N002010300019N0040001N1+03461+00971101121ADDGF106991031021008001061001MD1710151+9999REMSYN060AAXX  30091 35173 42596 61802 10346 20097 40112 57015 83260;
0143351730999992000073012004+51610+069800FM-12+031299999V0202501N002010300019N0040001N1+03421+01111101011ADDGF106991021021008001061001MA1999999097671MD1710101+9999REMSYN076AAXX  30121 35173 42596 62502 10342 20111 39767 40101 57010 82260 555 10041;
0165351730999992000073015004+51610+069800FM-12+031299999V0202701N002010042019N0040001N1+02821+01271101181ADDAA199000091GF108991051091004501061999KA1999M+03601MD1310091+9999REMSYN070AAXX  30151 35173 32496 82702 10282 20127 40118 53009 8596/ 333 10360;EQDQ01  00002PRCP99
0193351730999992000073018004+51610+069800FM-12+031299999V0201801N002010300019N0200001N1+02451+01361101151ADDAA199000091AY121061AY221061GF108991011091004501061999KA1999M+03601MD1810071+9999MW1131REMSYN076AAXX  30181 35173 31498 81802 10245 20136 40115 58007 71322 8196/ 333 10360;EQDQ01  00002PRCP99
0112351730999992000073021004+51610+069800FM-12+031299999V0202501N004019999999N0200001N1+02061+01361101141ADDGF108991081001999999071999MD1710051+9999REMSYN060AAXX  30211 35173 42998 82504 10206 20136 40114 57005 8807/;
0143351730999992000073100004+51610+069800FM-12+031299999V0202701N002010300019N0040001N1+02111+01421101061ADDGF108991031091004501071999MA1999999097571MD1710071+9999REMSYN076AAXX  31001 35173 42496 82702 10211 20142 39757 40106 57007 8397/ 555 10021;
0198351730999992000073103004+51610+069800FM-12+031299999V0209999C000019999999N0040001N1+02201+01411101081ADDAA199000091GF105991001001999999001021IA1019IA2999+01909MD1310031+9999REMSYN082AAXX  31031 35173 32996 50000 10220 20141 40108 53003 85002 555 20200 30019 7000/;EQDQ01+000052SCOTLCQ02  00002PRCP99
0165351730999992000073106004+51610+069800FM-12+031299999V0209999C000012200019N0040001N1+02961+01421100941ADDAA199000091GF103991021021012501001011KA1999N+02001MD1810061+9999REMSYN070AAXX  31061 35173 32696 30000 10296 20142 40094 58006 82201 333 20200;EQDQ01  00002PRCP99
0134351730999992000073109004+51610+069800FM-12+031299999V0200501N002019999999N0040001N1+02901+01431100851ADDAY191031AY281031GF106991999999008001999999MD1710081+9999MW1021REMSYN060AAXX  31091 35173 41596 60502 10290 20143 40085 57008 70298;
0190351730999992000073112004+51610+069800FM-12+031299999V0203601N004019999999N0040001N1+02941+01421100781ADDAY191061AY281061GF107991999091008001001001MA1999999097391MD1710071+9999MW1021REMSYN082AAXX  31121 35173 41596 73604 10294 20142 39739 40078 57007 70298 88900 555 10040;EQDQ01+000082SCOTLC
0145351730999992000073115004+51610+069800FM-12+031299999V0209999C000010075019N0040001N1+02781+01561100761ADDGF106991061091008001041001KA1120M+03251MD1710031+9999REMSYN080AAXX  31151 35173 /2596 60000 10278 20156 40076 57003 86940 333 10325 555 69902;
0180351730999992000073118004+51610+069800FM-12+031299999V0203601N004012200019N0200001N1+02361+01551100941ADDAA100000191AY121061AY221061GF102991021031008001001001KA1999M+03251MD1310131+9999MW1131REMSYN082AAXX  31181 35173 11598 23604 10236 20155 40094 53013 69910 71322 82300 333 10325;
0122351730999992000073121004+51610+069800FM-12+031299999V0203601N004012200019N0200001N1+01981+01631100981ADDGA1001+999999999GF100991001001999999001001MD1810011+9999REMSYN054AAXX  31211 35173 42998 03604 10198 20163 40098 58001;
0153351730999992000080100004+51610+069800FM-12+031299999V0209999C000012200019N0040001N1+01781+01681101031ADDGA1001+999999999GF100991001001999999001001MA1999999097501MD1310021+9999REMSYN070AAXX  01001 35173 42996 00000 10178 20168 39750 40103 53002 555 10017;
0192351730999992000080103004+51610+069800FM-12+031299999V0200501N004012200019N0040001N1+02201+01771101011ADDAA199000091GA1001+999999999GF100991001001999999001001IA1019IA2999+01709MD1210031+9999REMSYN076AAXX  01031 35173 32996 00504 10220 20177 40101 52003 555 20175 30017 7990/;EQDQ01  00002PRCP99
0165351730999992000080106004+51610+069800FM-12+031299999V0200501N004012200019N0040001N1+02641+01641100941ADDAA199000091GF103991031021012501001001KA1999N+01751MD1810011+9999REMSYN070AAXX  01061 35173 32696 30504 10264 20164 40094 58001 83200 333 20175;EQDQ01  00002PRCP99
0112351730999992000080109004+51610+069800FM-12+031299999V0203201N004010120019N0040001N1+02891+01521100851ADDGF106991061021012501001001MD1710041+9999REMSYN060AAXX  01091 35173 42696 63204 10289 20152 40085 57004 86200;
0143351730999992000080112004+51610+069800FM-12+031299999V0200501N004019999999N0040001N1+02901+01501100781ADDGF106991061001012501001001MA1999999097391MD1710071+9999REMSYN076AAXX  01121 35173 42696 60504 10290 20150 39739 40078 57007 86000 555 10041;
0165351730999992000080115004+51610+069800FM-12+031299999V0203201N002010075019N0040001N1+02691+01521100861ADDAA199000091GF105991051031008001001001KA1999M+03201MD1310051+9999REMSYN070AAXX  01151 35173 32596 53202 10269 20152 40086 53005 85300 333 10320;EQDQ01  00002PRCP99
0193351730999992000080118004+51610+069800FM-12+031299999V0203201N002012200019N0200001N1+02161+01541100951ADDAA199000091AY111061AY211061GF102991021031008001001001KA1999M+03201MD1210041+9999MW1131REMSYN076AAXX  01181 35173 31598 23202 10216 20154 40095 52004 71311 82300 333 10320;EQDQ01  00002PRCP99
0122351730999992000080121004+51610+069800FM-12+031299999V0202701N002012200019N0200001N1+01661+01341100971ADDGA1001+999999999GF100991001001999999001001MD1810061+9999REMSYN054AAXX  01211 35173 42998 02702 10166 20134 40097 58006;
0143351730999992000080200004+51610+069800FM-12+031299999V0202701N002012200019N0040001N1+01621+01221100771ADDGF103991031001999999081001MA1999999097231MD1710191+9999REMSYN076AAXX  02001 35173 42996 32702 10162 20122 39723 40077 57019 83080 555 10016;
0192351730999992000080203004+51610+069800FM-12+031299999V0203401N004012200019N0040001N1+02281+01271100671ADDAA199000091GA1001+999999999GF100991001001999999001001IA1019IA2999+01509MD1710021+9999REMSYN076AAXX  02031 35173 32996 03404 10228 20127 40067 57002 555 20160 30015 7000/;EQDQ01  00002PRCP99
0165351730999992000080206004+51610+069800FM-12+031299999V0202901N006012200019N0040001N1+02501+01121100591ADDAA199000091GF102991021021012501001021KA1999N+01601MD1710051+9999REMSYN070AAXX  02061 35173 32696 22906 10250 20112 40059 57005 82202 333 20160;EQDQ01  00002PRCP99
0112351730999992000080209004+51610+069800FM-12+031299999V0203401N008010075019N0040001N1+02551+01211100641ADDGF105991051021008001001001MD1310051+9999REMSYN060AAXX  02091 35173 42596 53408 10255 20121 40064 53005 85200;
0143351730999992000080212004+51610+069800FM-12+031299999V0200201N008012200019N0040001N1+02651+01051100671ADDGF103991031021012501001001MA1999999097251MD1210041+9999REMSYN076AAXX  02121 35173 42696 30208 10265 20105 39725 40067 52004 83200 555 10038;
0156351730999992000080215004+51610+069800FM-12+031299999V0203601N002012200019N0040001N1+02521+01241100711ADDGF102991021041008001001001KA1999M+02811MA1999999097281MD1210031+9999REMSYN076AAXX  02151 35173 42596 23602 10252 20124 39728 40071 52003 82400 333 10281;
0165351730999992000080218004+51610+069800FM-12+031299999V0209999C000012200019N0200001N1+02021+01381100941ADDAA199000091GF102991021041008001001001KA1999M+02811MD1210161+9999REMSYN070AAXX  02181 35173 32598 20000 10202 20138 40094 52016 82400 333 10281;EQDQ01  00002PRCP99
0122351730999992000080221004+51610+069800FM-12+031299999V0209999C000012200019N0200001N1+01681+01321101011ADDGA1001+999999999GF100991001001999999001001MD1210021+9999REMSYN054AAXX  02211 35173 42998 00000 10168 20132 40101 52002;
0143351730999992000080300004+51610+069800FM-12+031299999V0209999C000012200019N0040001N1+01551+01091101101ADDGF102991021001999999041001MA1999999097531MD1210071+9999REMSYN076AAXX  03001 35173 42996 20000 10155 20109 39753 40110 52007 82040 555 10014;
0182351730999992000080303004+51610+069800FM-12+031299999V0209999C000012200019N0040001N1+01941+01531101171ADDAA199000091GF103991031001999999041011IA1019IA2999+01309MD1210121+9999REMSYN082AAXX  03031 35173 32996 30000 10194 20153 40117 52012 83041 555 20150 30013 7000/;EQDQ01  00002PRCP99
0165351730999992000080306004+51610+069800FM-12+031299999V0203201N002012200019N0040001N1+02591+01391101051ADDAA199000091GF105991031011008001001011KA1999N+01501MD1810031+9999REMSYN070AAXX  03061 35173 32596 53202 10259 20139 40105 58003 83101 333 20150;EQDQ01  00002PRCP99
0122351730999992000080309004+51610+069800FM-12+031299999V0203201N006012200019N0040001N1+02981+01231100911ADDGA1001+999999999GF100991001001999999001001MD1710111+9999REMSYN054AAXX  03091 35173 42996 03206 10298 20123 40091 57011;
0153351730999992000080312004+51610+069800FM-12+031299999V0203201N002012200019N0040001N1+03081+01331100811ADDGA1001+999999999GF100991001001999999001001MA1999999097441MD1710071+9999REMSYN070AAXX  03121 35173 42996 03202 10308 20133 39744 40081 57007 555 10049;
0165351730999992000080315004+51610+069800FM-12+031299999V0209999C000012200019N0040001N1+02861+01561100751ADDAA199000091GF102991001001999999001061KA1999M+03271MD1710081+9999REMSYN070AAXX  03151 35173 32996 20000 10286 20156 40075 57008 80006 333 10327;EQDQ01  00002PRCP99
0175351730999992000080318004+51610+069800FM-12+031299999V0201801N002012200019N0200001N1+02301+01331100811ADDAA199000091GA1001+999999999GF100991001001999999001001KA1999M+03271MD1710011+9999REMSYN064AAXX  03181 35173 32998 01802 10230 20133 40081 57001 333 10327;EQDQ01  00002PRCP99
0122351730999992000080321004+51610+069800FM-12+031299999V0201801N002012200019N0200001N1+01981+01351100811ADDGA1001+999999999GF100991001001999999001001MD1710041+9999REMSYN054AAXX  03211 35173 42998 01802 10198 20135 40081 57004;
0153351730999992000080400004+51610+069800FM-12+031299999V0209999C000012200019N0040001N1+01761+01331100791ADDGA1001+999999999GF100991001001999999001001MA1999999097261MD1710051+9999REMSYN070AAXX  04001 35173 42996 00000 10176 20133 39726 40079 57005 555 10017;
0192351730999992000080403004+51610+069800FM-12+031299999V0209999C000012200019N0040001N1+02321+01331100901ADDAA199000091GA1001+999999999GF100991001001999999001001IA1019IA2999+01709MD1310181+9999REMSYN076AAXX  04031 35173 32996 00000 10232 20133 40090 53018 555 20174 30017 7000/;EQDQ01  00002PRCP99
0175351730999992000080406004+51610+069800FM-12+031299999V0202701N002012200019N0040001N1+03301+01261100801ADDAA199000091GA1001+999999999GF100991001001999999001001KA1999N+01741MD1210011+9999REMSYN064AAXX  04061 35173 32996 02702 10330 20126 40080 52001 333 20174;EQDQ01  00002PRCP99
0140351730999992000080409004+51610+069800FM-12+031299999V0202301N004010075019N0040001N1+02941+01331100771ADDAY191031AY281031GF106991061091008001001001MD1810071+9999MW1171REMSYN066AAXX  04091 35173 41596 62304 10294 20133 40077 58007 71798 86900;
0171351730999992000080412004+51610+069800FM-12+031299999V0202301N002010120019N0040001N1+03541+00901100691ADDAY191061AY281061GF106991061081008001001001MA1999999097361MD1710021+9999MW1021REMSYN082AAXX  04121 35173 41596 62302 10354 20090 39736 40069 57002 70298 86800 555 10044;
0145351730999992000080415004+51610+069800FM-12+031299999V0201801N002010075019N0040001N1+02941+01281100741ADDGF106991061091008001001001KA1120M+03821MD1710011+9999REMSYN080AAXX  04151 35173 /2596 61802 10294 20128 40074 57001 86900 333 10382 555 69942;
0180351730999992000080418004+51610+069800FM-12+031299999V0209999C000019999999N0200001N1+02531+01441100881ADDAA100000591AY191061AY281061GF105991051001999999071001KA1999M+03821MD1310091+9999MW1021REMSYN082AAXX  04181 35173 11998 50000 10253 20144 40088 53009 69940 70298 85070 333 10382;
0122351730999992000080421004+51610+069800FM-12+031299999V0209999C000012200019N0200001N1+02281+01661100821ADDGA1001+999999999GF100991001001999999001001MD1810081+9999REMSYN054AAXX  04211 35173 42998 00000 10228 20166 40082 58008;
0153351730999992000080500004+51610+069800FM-12+031299999V0201801N004012200019N0040001N1+02051+01311100721ADDGA1001+999999999GF100991001001999999001001MA1999999097231MD1710131+9999REMSYN070AAXX  05001 35173 42996 01804 10205 20131 39723 40072 57013 555 10018;
0140351730999992000080503004+51610+069800FM-12+031299999V0209999C000010075019N0040001N1+02601+01471100731ADDGF106991051091008001041001MD1310071+9999REMSYN088AAXX  05031 35173 /2596 60000 10260 20147 40073 53007 85940 555 20203 30018 69902 7994/;
0180351730999992000080506004+51610+069800FM-12+031299999V0202001N004010075019N0040001N1+02761+01301100661ADDAA100000791AY181061AY221061GF106991061091008001001001KA1999N+02031MD1810051+9999MW1251REMSYN082AAXX  05061 35173 11596 62004 10276 20130 40066 58005 69900 72582 86900 333 20203;
0140351730999992000080509004+51610+069800FM-12+031299999V0202301N002010075019N0040001N1+02881+01241100561ADDAY181031AY221031GF106991061091008001001001MD1710091+9999MW1021REMSYN066AAXX  05091 35173 41596 62302 10288 20124 40056 57009 70282 86900;
0171351730999992000080512004+51610+069800FM-12+031299999V0201801N002010300019N0040001N1+03141+01061100421ADDAY181061AY221061GF106991031091008001031001MA1999999097061MD1710101+9999MW1021REMSYN082AAXX  05121 35173 41596 61802 10314 20106 39706 40042 57010 70282 83930 555 10039;
0145351730999992000080515004+51610+069800FM-12+031299999V0201801N004012200019N0040001N1+02731+01281100351ADDGF106991031081012501001011KA1120M+03351MD1710111+9999REMSYN080AAXX  05151 35173 /2696 61804 10273 20128 40035 57011 83801 333 10335 555 69902;
0152351730999992000080518004+51610+069800FM-12+031299999V0202301N002012200019N0200001N1+02301+01391100511ADDAA100000791GF104991041041008001001001KA1999M+03351MD1310111+9999REMSYN076AAXX  05181 35173 12598 42302 10230 20139 40051 53011 69900 84400 333 10335;
0122351730999992000080521004+51610+069800FM-12+031299999V0209999C000012200019N0200001N1+02021+01591100671ADDGA1001+999999999GF100991001001999999001001MD1210121+9999REMSYN054AAXX  05211 35173 42998 00000 10202 20159 40067 52012;
0143351730999992000080600004+51610+069800FM-12+031299999V0209999C000012200019N0040001N1+01671+01481100771ADDGF103991031001999999071051MA1999999097241MD1210061+9999REMSYN076AAXX  06001 35173 42996 30000 10167 20148 39724 40077 52006 83075 555 10014;
0192351730999992000080603004+51610+069800FM-12+031299999V0202701N002012200019N0040001N1+02051+01491100781ADDAA199000091GA1001+999999999GF100991001001999999001001IA1019IA2999+01209MD1210051+9999REMSYN076AAXX  06031 35173 32996 02702 10205 20149 40078 52005 555 20163 30012 7990/;EQDQ01  00002PRCP99
0175351730999992000080606004+51610+069800FM-12+031299999V0202301N004012200019N0040001N1+02621+01121100671ADDAA199000091GA1001+999999999GF100991001001999999001001KA1999N+01631MD1810041+9999REMSYN064AAXX  06061 35173 32996 02304 10262 20112 40067 58004 333 20163;EQDQ01  00002PRCP99
0122351730999992000080609004+51610+069800FM-12+031299999V0202701N006012200019N0040001N1+02951+00851100581ADDGA1001+999999999GF100991001001999999001001MD1710061+9999REMSYN054AAXX  06091 35173 42996 02706 10295 20085 40058 57006;
0153351730999992000080612004+51610+069800FM-12+031299999V0202701N004012200019N0040001N1+02981+00731100551ADDGA1001+999999999GF100991001001999999001001MA1999999097161MD1710031+9999REMSYN070AAXX  06121 35173 42996 02704 10298 20073 39716 40055 57003 555 10039;
0175351730999992000080615004+51610+069800FM-12+031299999V0203401N002012200019N0040001N1+02551+00901100661ADDAA199000091GA1001+999999999GF100991001001999999001001KA1999M+03101MD1310071+9999REMSYN064AAXX  06151 35173 32996 03402 10255 20090 40066 53007 333 10310;EQDQ01  00002PRCP99
0175351730999992000080618004+51610+069800FM-12+031299999V0209999C000012200019N0200001N1+01901+00981100851ADDAA199000091GA1001+999999999GF100991001001999999001001KA1999M+03101MD1210101+9999REMSYN064AAXX  06181 35173 32998 00000 10190 20098 40085 52010 333 10310;EQDQ01  00002PRCP99
0153351730999992000080700004+51610+069800FM-12+031299999V0200201N002012200019N0040001N1+01401+01221100901ADDGA1001+999999999GF100991001001999999001001MA1999999097331MD1810031+9999REMSYN070AAXX  07001 35173 42996 00202 10140 20122 39733 40090 58003 555 10011;
0192351730999992000080703004+51610+069800FM-12+031299999V0209999C000012200019N0040001N1+02011+01101100801ADDAA199000091GA1001+999999999GF100991001001999999001001IA1019IA2999+01009MD1710031+9999REMSYN076AAXX  07031 35173 32996 00000 10201 20110 40080 57003 555 20135 30010 7000/;EQDQ01  00002PRCP99
0175351730999992000080706004+51610+069800FM-12+031299999V0203201N002012200019N0040001N1+02681+01071100591ADDAA199000091GA1001+999999999GF100991001001999999001001KA1999N+01351MD1710131+9999REMSYN064AAXX  07061 35173 32996 03202 10268 20107 40059 57013 333 20135;EQDQ01  00002PRCP99
0122351730999992000080709004+51610+069800FM-12+031299999V0202901N004012200019N0040001N1+02961+00861100401ADDGA1001+999999999GF100991001001999999001001MD1710151+9999REMSYN054AAXX  07091 35173 42996 02904 10296 20086 40040 57015;
0143351730999992000080712004+51610+069800FM-12+031299999V0202701N006012200019N0040001N1+03001+00801100301ADDGF102991021011008001001001MA1999999096921MD1710101+9999REMSYN076AAXX  07121 35173 42596 22706 10300 20080 39692 40030 57010 82100 555 10041;
0165351730999992000080715004+51610+069800FM-12+031299999V0202701N002012200019N0040001N1+02441+00921100421ADDAA199000091GF102991021001999999081001KA1999M+03181MD1310061+9999REMSYN070AAXX  07151 35173 32996 22702 10244 20092 40042 53006 82080 333 10318;EQDQ01  00002PRCP99
0165351730999992000080718004+51610+069800FM-12+031299999V0203201N002012200019N0200001N1+01931+01211100711ADDAA199000091GF103991021041008001061001KA1999M+03181MD1210231+9999REMSYN070AAXX  07181 35173 32598 33202 10193 20121 40071 52023 82460 333 10318;EQDQ01  00002PRCP99
0122351730999992000080721004+51610+069800FM-12+031299999V0202901N002012200019N0200001N1+01701+01131100861ADDGA1001+999999999GF100991001001999999001001MD1210101+9999REMSYN054AAXX  07211 35173 42998 02902 10170 20113 40086 52010;
0153351730999992000080800004+51610+069800FM-12+031299999V0209999C000012200019N0040001N1+01041+00981101061ADDGA1001+999999999GF100991001001999999001001MA1999999097441MD1210131+9999REMSYN070AAXX  08001 35173 42996 00000 10104 20098 39744 40106 52013 555 10008;
0224351730999992000080803004+51610+069800FM-12+031299999V0203601N002012200019N0040001N1+01541+01051999999ADDAA199000091GA1001+999999999GF100991001001999999001001IA1019IA2999+00809MD1210161+9999REMSYN076AAXX  08031 35173 32996 03602 10154 20105 40017 52016 555 20102 30008 7000/;EQDQ01+100173APOSLPQ02  00002PRCP99Q03 100173APOSLP
0181351730999992000080806004+51610+069800FM-12+031299999V0203601N004012200019N0040001N1+02021+00621101122ADDAA199000091GF103991031011012501001001KA1999N+01021MD1410001+9999REMSYN070AAXX  08061 35173 32696 33604 10202 20062 40112 54000 83100 333 20102;EQDQ01+101123APOSLPQ02  00002PRCP99
0112351730999992000080809004+51610+069800FM-12+031299999V0203401N002010120019N0040001N1+02281+00581101011ADDGF105991051011012501001001MD1810071+9999REMSYN060AAXX  08091 35173 42696 53402 10228 20058 40101 58007 85100;
0143351730999992000080812004+51610+069800FM-12+031299999V0203201N002010120019N0040001N1+02361+00511100991ADDGF106991061021012501001001MA1999999097521MD1710011+9999REMSYN076AAXX  08121 35173 42696 63202 10236 20051 39752 40099 57001 86200 555 10036;
0165351730999992000080815004+51610+069800FM-12+031299999V0209999C000012200019N0040001N1+02091+00931101041ADDAA199000091GF104991031041008001061001KA1999M+02521MD1310021+9999REMSYN070AAXX  08151 35173 32596 40000 10209 20093 40104 53002 83460 333 10252;EQDQ01  00002PRCP99
0175351730999992000080818004+51610+069800FM-12+031299999V0209999C000012200019N0200001N1+01521+00531101141ADDAA199000091GA1001+999999999GF100991001001999999001001KA1999M+02521MD1210021+9999REMSYN064AAXX  08181 35173 32998 00000 10152 20053 40114 52002 333 10252;EQDQ01  00002PRCP99
0122351730999992000080821004+51610+069800FM-12+031299999V0209999C000012200019N0200001N1+01341+00991101151ADDGA1001+999999999GF100991001001999999001001MD1410001+9999REMSYN054AAXX  08211 35173 42998 00000 10134 20099 40115 54000;
0153351730999992000080900004+51610+069800FM-12+031299999V0209999C000012200019N0040001N1+01181+00741101161ADDGA1001+999999999GF100991001001999999001001MA1999999097541MD1810021+9999REMSYN070AAXX  09001 35173 42996 00000 10118 20074 39754 40116 58002 555 10010;
0182351730999992000080903004+51610+069800FM-12+031299999V0209999C000010120019N0040001N1+01571+00741101121ADDAA199000091GF106991061081008001001001IA1019IA2999+01009MD1310011+9999REMSYN082AAXX  09031 35173 32596 60000 10157 20074 40112 53001 86800 555 20116 30010 7000/;EQDQ01  00002PRCP99
0165351730999992000080906004+51610+069800FM-12+031299999V0202701N008010300019N0040001N1+02101+00771101041ADDAA199000091GF105991021021012501031001KA1999N+01161MD1810011+9999REMSYN070AAXX  09061 35173 32696 52708 10210 20077 40104 58001 82230 333 20116;EQDQ01  00002PRCP99
0112351730999992000080909004+51610+069800FM-12+031299999V0202901N010010120019N0040001N1+02121+00531100991ADDGF107991051021012501031001MD1710051+9999REMSYN060AAXX  09091 35173 42696 72910 10212 20053 40099 57005 85230;
0143351730999992000080912004+51610+069800FM-12+031299999V0202701N008010120019N0040001N1+02041+00461101081ADDGF107991071081008001001001MA1999999097561MD1310071+9999REMSYN076AAXX  09121 35173 42596 72708 10204 20046 39756 40108 53007 87800 555 10025;
0165351730999992000080915004+51610+069800FM-12+031299999V0203201N002010120019N0040001N1+01821+00611101231ADDAA199000091GF107991071081008001001001KA1999M+02251MD1210131+9999REMSYN070AAXX  09151 35173 32596 73202 10182 20061 40123 52013 87800 333 10225;EQDQ01  00002PRCP99
0165351730999992000080918004+51610+069800FM-12+031299999V0202701N002012200019N0200001N1+01461+00801101341ADDAA199000091GF103991031041008001001001KA1999M+02251MD1210061+9999REMSYN070AAXX  09181 35173 32598 32702 10146 20080 40134 52006 83400 333 10225;EQDQ01  00002PRCP99
0122351730999992000080921004+51610+069800FM-12+031299999V0202701N002012200019N0200001N1+01261+00861101361ADDGA1001+999999999GF100991001001999999001001MD1410001+9999REMSYN054AAXX  09211 35173 42998 02702 10126 20086 40136 54000;
0143351730999992000081000004+51610+069800FM-12+031299999V0209999C000019999999N0040001N1+01181+00851101511ADDGF106991061001999999041001MA1999999097881MD1310131+9999REMSYN076AAXX  10001 35173 42996 60000 10118 20085 39788 40151 53013 86040 555 10010;
0192351730999992000081003004+51610+069800FM-12+031299999V0203201N004012200019N0040001N1+01541+00921101551ADDAA199000091GA1001+999999999GF100991001001999999001001IA1019IA2999+01009MD1210091+9999REMSYN076AAXX  10031 35173 32996 03204 10154 20092 40155 52009 555 20114 30010 7000/;EQDQ01  00002PRCP99
0112351730999992000081009004+51610+069800FM-12+031299999V0203401N004010075019N0040001N1+02191+00671101511ADDGF106991061021008001001001MD1810041+9999REMSYN060AAXX  10091 35173 42596 63404 10219 20067 40151 58004 86200;
0143351730999992000081012004+51610+069800FM-12+031299999V0203601N006010075019N0040001N1+02411+00501101511ADDGF105991051041008001001001MA1999999098031MD1310031+9999REMSYN076AAXX  10121 35173 42596 53606 10241 20050 39803 40151 53003 85400 555 10036;
0165351730999992000081015004+51610+069800FM-12+031299999V0209999C000010300019N0040001N1+02121+00801101521ADDAA199000091GF105991021041008001041001KA1999M+02551MD1810031+9999REMSYN070AAXX  10151 35173 32596 50000 10212 20080 40152 58003 82440 333 10255;EQDQ01  00002PRCP99
0165351730999992000081018004+51610+069800FM-12+031299999V0203401N002012200019N0200001N1+01601+00761101701ADDAA199000091GF101991011001999999041001KA1999M+02551MD1310111+9999REMSYN070AAXX  10181 35173 32998 13402 10160 20076 40170 53011 81040 333 10255;EQDQ01  00002PRCP99
0122351730999992000081021004+51610+069800FM-12+031299999V0209999C000012200019N0200001N1+01081+00651101841ADDGA1001+999999999GF100991001001999999001001MD1210081+9999REMSYN054AAXX  10211 35173 42998 00000 10108 20065 40184 52008;
0153351730999992000081100004+51610+069800FM-12+031299999V0209999C000012200019N0040001N1+00861+00591101891ADDGA1001+999999999GF100991001001999999001001MA1999999098211MD1210021+9999REMSYN070AAXX  11001 35173 42996 00000 10086 20059 39821 40189 52002 555 10006;
0192351730999992000081103004+51610+069800FM-12+031299999V0209999C000012200019N0040001N1+01631+00921101861ADDAA199000091GA1001+999999999GF100991001001999999001001IA1019IA2999+00609MD1210071+9999REMSYN076AAXX  11031 35173 32996 00000 10163 20092 40186 52007 555 20080 30006 7000/;EQDQ01  00002PRCP99
0165351730999992000081106004+51610+069800FM-12+031299999V0209999C000012200019N0040001N1+02381+00951101771ADDAA199000091GF104991041011008001001001KA1999N+00801MD1410001+9999REMSYN070AAXX  11061 35173 32596 40000 10238 20095 40177 54000 84100 333 20080;EQDQ01  00002PRCP99
0112351730999992000081109004+51610+069800FM-12+031299999V0202701N002012200019N0040001N1+02661+00731101641ADDGF103991031011012501001001MD1810091+9999REMSYN060AAXX  11091 35173 42696 32702 10266 20073 40164 58009 83100;
0143351730999992000081112004+51610+069800FM-12+031299999V0209999C000012200019N0040001N1+02781+00671101541ADDGF103991031011012501001001MA1999999098101MD1710091+9999REMSYN076AAXX  11121 35173 42696 30000 10278 20067 39810 40154 57009 83100 555 10039;
0165351730999992000081115004+51610+069800FM-12+031299999V0209999C000012200019N0040001N1+02371+00891101521ADDAA199000091GF102991021041008001001001KA1999M+02961MD1710061+9999REMSYN070AAXX  11151 35173 32596 20000 10237 20089 40152 57006 82400 333 10296;EQDQ01  00002PRCP99
0175351730999992000081118004+51610+069800FM-12+031299999V0201601N002012200019N0200001N1+01981+00651101541ADDAA199000091GA1001+999999999GF100991001001999999001001KA1999M+02961MD1710031+9999REMSYN064AAXX  11181 35173 32998 01602 10198 20065 40154 57003 333 10296;EQDQ01  00002PRCP99
0122351730999992000081121004+51610+069800FM-12+031299999V0201801N002012200019N0200001N1+01651+00781101511ADDGA1001+999999999GF100991001001999999001001MD1710071+9999REMSYN054AAXX  11211 35173 42998 01802 10165 20078 40151 57007;
0143351730999992000081200004+51610+069800FM-12+031299999V0201801N004010075019N0040001N1+01821+01261101471ADDGF108991081051008001999999MA1999999097931MD1710011+9999REMSYN076AAXX  12001 35173 42596 81804 10182 20126 39793 40147 57001 885// 555 10012;
0182351730999992000081203004+51610+069800FM-12+031299999V0201801N002010120019N0040001N1+02011+00861101451ADDAA199000091GF108991081081008001999999IA1019IA2999+01209MD1710011+9999REMSYN082AAXX  12031 35173 32596 81802 10201 20086 40145 57001 888// 555 20160 30012 7000/;EQDQ01  00002PRCP99
0165351730999992000081206004+51610+069800FM-12+031299999V0201801N004010075019N0040001N1+02271+00991101451ADDAA199000091GF108991081031008001999999KA1999N+01601MD1310041+9999REMSYN070AAXX  12061 35173 32596 81804 10227 20099 40145 53004 883// 333 20160;EQDQ01  00002PRCP99
0140351730999992000081209004+51610+069800FM-12+031299999V0201601N002010120019N0040001N1+02621+01051101301ADDAY181031AY221031GF106991061021012501061001MD1810101+9999MW1021REMSYN066AAXX  12091 35173 41696 61602 10262 20105 40130 58010 70282 86260;
0171351730999992000081212004+51610+069800FM-12+031299999V0201801N006010075019N0040001N1+03031+00611101021ADDAY101061AY221061GF106991061091008001001001MA1999999097611MD1710251+9999MW1821REMSYN082AAXX  12121 35173 41596 61806 10303 20061 39761 40102 57025 78202 86900 555 10038;
0145351730999992000081215004+51610+069800FM-12+031299999V0202301N002010075019N0040001N1+01981+01141101361ADDGF108991081091008001999999KA1120M+03171MD1310221+9999REMSYN080AAXX  12151 35173 /2596 82302 10198 20114 40136 53022 889// 333 10317 555 69942;
0152351730999992000081218004+51610+069800FM-12+031299999V0201801N004010075019N0200001N1+01861+01451101191ADDAA100000591GF108991081091008001999999KA1999M+03171MD1810161+9999REMSYN076AAXX  12181 35173 12598 81804 10186 20145 40119 58016 69940 889// 333 10317;
0122351730999992000081221004+51610+069800FM-12+031299999V0209999C000012200019N0200001N1+01741+01391101141ADDGA1001+999999999GF100991001001999999001001MD1710071+9999REMSYN054AAXX  12211 35173 42998 00000 10174 20139 40114 57007;
0171351730999992000081300004+51610+069800FM-12+031299999V0201401N004010075019N0040001N1+01831+01431101011ADDAY191061AY281061GF108991081091008001999999MA1999999097491MD1710111+9999MW1251REMSYN082AAXX  13001 35173 41596 81404 10183 20143 39749 40101 57011 72598 889// 555 11016;
0140351730999992000081303004+51610+069800FM-12+031299999V0201401N002012200019N0040001N1+02061+01471100921ADDGF103991031001999999081001MD1710061+9999REMSYN088AAXX  13031 35173 /2996 31402 10206 20147 40092 57006 83080 555 20172 31015 60022 7002/;
0152351730999992000081306004+51610+069800FM-12+031299999V0202001N002012200019N0040001N1+02641+01291100781ADDAA100002091GF104991021021012501081001KA1999N+01721MD1710081+9999REMSYN076AAXX  13061 35173 12696 42002 10264 20129 40078 57008 60020 82280 333 20172;
0112351730999992000081309004+51610+069800FM-12+031299999V0202501N006010120019N0040001N1+02921+01141100681ADDGF105991051021012501001001MD1710061+9999REMSYN060AAXX  13091 35173 42696 52506 10292 20114 40068 57006 85200;
0143351730999992000081312004+51610+069800FM-12+031299999V0202701N010010075019N0040001N1+02461+01501100841ADDGF105991051031008001001001MA1999999097401MD1310111+9999REMSYN076AAXX  13121 35173 42596 52710 10246 20150 39740 40084 53011 85300 555 10035;
0165351730999992000081315004+51610+069800FM-12+031299999V0203601N002010075019N0040001N1+02241+01381101081ADDAA199000091GF105991051041008001001001KA1999M+03151MD1210201+9999REMSYN070AAXX  13151 35173 32596 53602 10224 20138 40108 52020 85400 333 10315;EQDQ01  00002PRCP99
0175351730999992000081318004+51610+069800FM-12+031299999V0203601N002012200019N0200001N1+01621+01221101331ADDAA199000091GA1001+999999999GF100991001001999999001001KA1999M+03151MD1210171+9999REMSYN064AAXX  13181 35173 32998 03602 10162 20122 40133 52017 333 10315;EQDQ01  00002PRCP99
0122351730999992000081321004+51610+069800FM-12+031299999V0203601N002012200019N0200001N1+01251+00991101461ADDGA1001+999999999GF100991001001999999001001MD1210081+9999REMSYN054AAXX  13211 35173 42998 03602 10125 20099 40146 52008;
0182351730999992000081403004+51610+069800FM-12+031299999V0203601N004012200019N0040001N1+01471+00931101641ADDAA199000091GF103991001001999999001041IA1019IA2999+01009MD1210121+9999REMSYN082AAXX  14031 35173 32996 33604 10147 20093 40164 52012 80004 555 20108 30010 7000/;EQDQ01  00002PRCP99
0165351730999992000081406004+51610+069800FM-12+031299999V0200201N004012200019N0040001N1+01931+00761101621ADDAA199000091GF105991031011008001001041KA1999N+01081MD1210031+9999REMSYN070AAXX  14061 35173 32596 50204 10193 20076 40162 52003 83104 333 20108;EQDQ01  00002PRCP99
0112351730999992000081409004+51610+069800FM-12+031299999V0203601N004010120019N0040001N1+02241+00401101521ADDGF105991051011012501001001MD1810071+9999REMSYN060AAXX  14091 35173 42696 53604 10224 20040 40152 58007 85100;
0143351730999992000081412004+51610+069800FM-12+031299999V0203601N004012200019N0040001N1+02321+00291101491ADDGF102991021011012501001001MA1999999098001MD1710011+9999REMSYN076AAXX  14121 35173 42696 23604 10232 20029 39800 40149 57001 82100 555 10037;
0165351730999992000081415004+51610+069800FM-12+031299999V0209999C000012200019N0040001N1+02041+00621101511ADDAA199000091GF101991011041008001001001KA1999M+02501MD1710011+9999REMSYN070AAXX  14151 35173 32596 10000 10204 20062 40151 57001 81400 333 10250;EQDQ01  00002PRCP99
0175351730999992000081418004+51610+069800FM-12+031299999V0209999C000012200019N0200001N1+01501+00731101601ADDAA199000091GA1001+999999999GF100991001001999999001001KA1999M+02501MD1310021+9999REMSYN064AAXX  14181 35173 32998 00000 10150 20073 40160 53002 333 10250;EQDQ01  00002PRCP99
0121351730999992000081421004+51610+069800FM-12+031299999V0200201N002012200019N0200001N1+01101+00681101651ADDGA1001+999999999GF100991001001999999001001MD1410001+9999REMSYN053AAXX  14211 35173 42998 00202 1011020068 40165 54000;
0153351730999992000081500004+51610+069800FM-12+031299999V0200201N002012200019N0040001N1+00961+00591101631ADDGA1001+999999999GF100991001001999999001001MA1999999097971MD1810041+9999REMSYN070AAXX  15001 35173 42996 00202 10096 20059 39797 40163 58004 555 10006;
0192351730999992000081503004+51610+069800FM-12+031299999V0209999C000012200019N0040001N1+01621+00641101551ADDAA199000091GA1001+999999999GF100991001001999999001001IA1019IA2999+00509MD1410001+9999REMSYN076AAXX  15031 35173 32996 00000 10162 20064 40155 54000 555 20092 30005 7000/;EQDQ01  00002PRCP99
0165351730999992000081506004+51610+069800FM-12+031299999V0201101N002012200019N0040001N1+02341+00381101371ADDAA199000091GF103991021011012501001041KA1999N+00921MD1810091+9999REMSYN070AAXX  15061 35173 32696 31102 10234 20038 40137 58009 82104 333 20092;EQDQ01  00002PRCP99
0112351730999992000081509004+51610+069800FM-12+031299999V0200901N002019999999N0040001N1+02421+00361101221ADDGF106991001001999999001041MD1710141+9999REMSYN060AAXX  15091 35173 42996 60902 10242 20036 40122 57014 80004;
0143351730999992000081512004+51610+069800FM-12+031299999V0209999C000019999999N0040001N1+02461+00301101111ADDGF106991001001999999001011MA1999999097651MD1710091+9999REMSYN076AAXX  15121 35173 42996 60000 10246 20030 39765 40111 57009 80001 555 10033;
0165351730999992000081515004+51610+069800FM-12+031299999V0209999C000010075019N0040001N1+02161+00531101041ADDAA199000091GF106991051041008001001041KA1999M+02801MD1710101+9999REMSYN070AAXX  15151 35173 32596 60000 10216 20053 40104 57010 85404 333 10280;EQDQ01  00002PRCP99
0165351730999992000081518004+51610+069800FM-12+031299999V0209999C000019999999N0200001N1+01721+00651101021ADDAA199000091GF106991001001999999001011KA1999M+02801MD1710081+9999REMSYN070AAXX  15181 35173 32998 60000 10172 20065 40102 57008 80001 333 10280;EQDQ01  00002PRCP99
0112351730999992000081521004+51610+069800FM-12+031299999V0202001N002012200019N0200001N1+01641+00641100911ADDGF102991021001999999041001MD1710111+9999REMSYN060AAXX  15211 35173 42998 22002 10164 20064 40091 57011 82040;
0143351730999992000081600004+51610+069800FM-12+031299999V0202701N002012200019N0040001N1+01261+00581100861ADDGF103991031001999999081001MA1999999097271MD1710091+9999REMSYN076AAXX  16001 35173 42996 32702 10126 20058 39727 40086 57009 83080 555 10011;
0192351730999992000081603004+51610+069800FM-12+031299999V0200701N002012200019N0040001N1+01751+00671100741ADDAA199000091GA1001+999999999GF100991001001999999001001IA1019IA2999+01009MD1710061+9999REMSYN076AAXX  16031 35173 32996 00702 10175 20067 40074 57006 555 20124 30010 7000/;EQDQ01  00002PRCP99
0165351730999992000081606004+51610+069800FM-12+031299999V0200201N004012200019N0040001N1+02531+00461100451ADDAA199000091GF102991001001999999001021KA1999N+01241MD1710201+9999REMSYN070AAXX  16061 35173 32996 20204 10253 20046 40045 57020 80002 333 20124;EQDQ01  00002PRCP99
0131351730999992000081609004+51610+069800FM-12+031299999V0200501N004012200019N0040001N1+02671+00431100241ADDGF103991999001999999041001MD1710181+9999REMSYN060AAXX  16091 35173 42996 30504 10267 20043 40024 57018 84040;EQDQ01+000042SCOTLC
0143351730999992000081612004+51610+069800FM-12+031299999V0200501N002010750019N0040001N1+02681+00501100061ADDGF106991021021008001001021MA1999999096661MD1710171+9999REMSYN076AAXX  16121 35173 42596 60502 10268 20050 39666 40006 57017 82202 555 10032;
0165351730999992000081615004+51610+069800FM-12+031299999V0203601N002010120019N0040001N1+02351+00881100001ADDAA199000091GF106991051091012501041001KA1999M+02831MD1710101+9999REMSYN070AAXX  16151 35173 32696 63602 10235 20088 40000 57010 85940 333 10283;EQDQ01  00002PRCP99
0193351730999992000081618004+51610+069800FM-12+031299999V0203601N002010042019N0200001N1+01921+01051099961ADDAA199000091AY191061AY221061GF107991051031004501041001KA1999M+02831MD1710081+9999MW1171REMSYN076AAXX  16181 35173 31498 73602 10192 20105 49996 57008 71792 85340 333 10283;EQDQ01  00002PRCP99
0140351730999992000081621004+51610+069800FM-12+031299999V0200501N002012200019N0200001N1+01621+01181099911ADDAY191031AY281031GF103991031091008001001001MD1710081+9999MW1011REMSYN066AAXX  16211 35173 41598 30502 10162 20118 49991 57008 70198 83900;
0171351730999992000081700004+51610+069800FM-12+031299999V0209999C000010075019N0040001N1+01351+00981099981ADDAY191061AY281061GF108991081091008001999999MA1999999096431MD1310031+9999MW1031REMSYN082AAXX  17001 35173 41596 80000 10135 20098 39643 49998 53003 70398 889// 555 10012;
0140351730999992000081703004+51610+069800FM-12+031299999V0202001N002010750019N0040001N1+01661+01041099961ADDGF106991021021008001061041MD1210021+9999REMSYN088AAXX  17031 35173 /2596 62002 10166 20104 49996 52002 82264 555 20133 30012 69932 7993/;
0152351730999992000081706004+51610+069800FM-12+031299999V0202701N002019999999N0040001N1+02561+00781099851ADDAA100000391GF105991021001999999031061KA1999N+01331MD1410001+9999REMSYN076AAXX  17061 35173 12996 52702 10256 20078 49985 54000 69930 82036 333 20133;
0112351730999992000081709004+51610+069800FM-12+031299999V0202701N004010120019N0040001N1+02541+00581099951ADDGF106991051081008001031001MD1310081+9999REMSYN060AAXX  17091 35173 42596 62704 10254 20058 49995 53008 85830;
0143351730999992000081712004+51610+069800FM-12+031299999V0202701N006010750019N0040001N1+02641+00851099931ADDGF105991031081008001001071MA1999999096531MD1410001+9999REMSYN076AAXX  17121 35173 42596 52706 10264 20085 39653 49993 54000 83807 555 10034;
0165351730999992000081715004+51610+069800FM-12+031299999V0203201N002010300019N0040001N1+02131+00941100201ADDAA199000091GF106991021091008001061001KA1999M+02801MD1310201+9999REMSYN070AAXX  17151 35173 32596 63202 10213 20094 40020 53020 82960 333 10280;EQDQ01  00002PRCP99
0165351730999992000081718004+51610+069800FM-12+031299999V0203201N002019999999N0200001N1+01881+01001100331ADDAA199000091GF106991061001999999081001KA1999M+02801MD1210101+9999REMSYN070AAXX  17181 35173 32998 63202 10188 20100 40033 52010 86080 333 10280;EQDQ01  00002PRCP99
0122351730999992000081721004+51610+069800FM-12+031299999V0203201N002012200019N0200001N1+01431+01001100431ADDGA1001+999999999GF100991001001999999001001MD1210051+9999REMSYN054AAXX  17211 35173 42998 03202 10143 20100 40043 52005;
0153351730999992000081800004+51610+069800FM-12+031299999V0202701N002012200019N0040001N1+01061+00901100591ADDGA1001+999999999GF100991001001999999001001MA1999999096981MD1210101+9999REMSYN070AAXX  18001 35173 42996 02702 10106 20090 39698 40059 52010 555 10008;
0182351730999992000081803004+51610+069800FM-12+031299999V0202901N004019999999N0040001N1+01651+00881100671ADDAA199000091GF106991061001999999051001IA1019IA2999+00809MD1210151+9999REMSYN082AAXX  18031 35173 32996 62904 10165 20088 40067 52015 86050 555 20104 30008 7000/;EQDQ01  00002PRCP99
0165351730999992000081806004+51610+069800FM-12+031299999V0202701N006012200019N0040001N1+02081+01031100661ADDAA199000091GF102991011011012501041001KA1999N+01041MD1210041+9999REMSYN070AAXX  18061 35173 32696 22706 10208 20103 40066 52004 81140 333 20104;EQDQ01  00002PRCP99
0143351730999992000081812004+51610+069800FM-12+031299999V0202901N006012200019N0040001N1+02221+00231100891ADDGF101991001001999999001011MA1999999097401MD1210081+9999REMSYN076AAXX  18121 35173 42996 12906 10222 20023 39740 40089 52008 80001 555 10031;
0165351730999992000081815004+51610+069800FM-12+031299999V0202701N004019999999N0040001N1+01841+00321101061ADDAA199000091GF105991001001999999001011KA1999M+02401MD1210121+9999REMSYN070AAXX  18151 35173 32996 52704 10184 20032 40106 52012 80001 333 10240;EQDQ01  00002PRCP99
0165351730999992000081818004+51610+069800FM-12+031299999V0209999C000012200019N0200001N1+01121+00341101291ADDAA199000091GF102991001001999999001041KA1999M+02401MD1210141+9999REMSYN070AAXX  18181 35173 32998 20000 10112 20034 40129 52014 80004 333 10240;EQDQ01  00002PRCP99
0122351730999992000081821004+51610+069800FM-12+031299999V0209999C000012200019N0200001N1+00851+00211101401ADDGA1001+999999999GF100991001001999999001001MD1210061+9999REMSYN054AAXX  18211 35173 42998 00000 10085 20021 40140 52006;
0143351730999992000081900004+51610+069800FM-12+031299999V0209999C000012200019N0200001N1+00621+00121101531ADDGF101991001001999999001021MA1999999097821MD1210101+9999REMSYN076AAXX  19001 35173 42998 10000 10062 20012 39782 40153 52010 80002 555 10003;
0182351730999992000081903004+51610+069800FM-12+031299999V0201801N002019999999N0040001N1+01181+00341101511ADDAA199000091GF105991001001999999001021IA1019IA2999+00309MD1210061+9999REMSYN082AAXX  19031 35173 32996 51802 10118 20034 40151 52006 80002 555 20057 30003 7000/;EQDQ01  00002PRCP99
0165351730999992000081906004+51610+069800FM-12+031299999V0202701N006010750019N0040001N1+02041+00361101361ADDAA199000091GF105991021011008001001021KA1999N+00571MD1810031+9999REMSYN070AAXX  19061 35173 32596 52706 10204 20036 40136 58003 82102 333 20057;EQDQ01  00002PRCP99
0112351730999992000081909004+51610+069800FM-12+031299999V0202901N004012200019N0040001N1+02281+00271101261ADDGF104991011011008001001021MD1710081+9999REMSYN060AAXX  19091 35173 42596 42904 10228 20027 40126 57008 81102;
0143351730999992000081912004+51610+069800FM-12+031299999V0203201N002012200019N0040001N1+02381+00291101121ADDGF103991001001999999001021MA1999999097651MD1710121+9999REMSYN076AAXX  19121 35173 42996 33202 10238 20029 39765 40112 57012 80002 555 10034;
0165351730999992000081915004+51610+069800FM-12+031299999V0209999C000019999999N0040001N1+02441+00041101051ADDAA199000091GF105991001001999999001041KA1999M+02561MD1710071+9999REMSYN070AAXX  19151 35173 32996 50000 10244 20004 40105 57007 80004 333 10256;EQDQ01  00002PRCP99
0175351730999992000081918004+51610+069800FM-12+031299999V0209999C000012200019N0200001N1+01631+00531101101ADDAA199000091GA1001+999999999GF100991001001999999001001KA1999M+02561MD1710051+9999REMSYN064AAXX  19181 35173 32998 00000 10163 20053 40110 57005 333 10256;EQDQ01  00002PRCP99
0122351730999992000081921004+51610+069800FM-12+031299999V0209999C000012200019N0200001N1+01391+00781101011ADDGA1001+999999999GF100991001001999999001001MD1710111+9999REMSYN054AAXX  19211 35173 42998 00000 10139 20078 40101 57011;
0143351730999992000082000004+51610+069800FM-12+031299999V0201801N002010075019N0200001N1+01501+00981100871ADDGF108991061021008001071999MA1999999097301MD1710121+9999REMSYN076AAXX  20001 35173 42598 81802 10150 20098 39730 40087 57012 8627/ 555 10014;
0168351730999992000082003004+51610+069800FM-12+031299999V0200901N002010750019N0040001N1+01581+00971100861ADDAY181031AY221031GF106991031091008001001081MD1410001+9999MW1021REMSYN094AAXX  20031 35173 /1596 60902 10158 20097 40086 54000 70282 83908 555 20136 30007 69902 7990/;
0180351730999992000082006004+51610+069800FM-12+031299999V0200501N002010075019N0040001N1+02021+00901100731ADDAA100000791AY181061AY221061GF108991061091008001061999KA1999N+01361MD1810061+9999MW1021REMSYN082AAXX  20061 35173 11596 80502 10202 20090 40073 58006 69900 70282 8696/ 333 20136;
0140351730999992000082009004+51610+069800FM-12+031299999V0203601N004010075019N0040001N1+02101+00971100661ADDAY191031AY281031GF107991071091008001001001MD1710071+9999MW1171REMSYN066AAXX  20091 35173 41596 73604 10210 20097 40066 57007 71798 87900;
0171351730999992000082012004+51610+069800FM-12+031299999V0201401N002010075019N0040001N1+01841+01501100511ADDAY191061AY281061GF107991071091008001001001MA1999999097001MD1710171+9999MW1251REMSYN082AAXX  20121 35173 41596 71402 10184 20150 39700 40051 57017 72598 87900 555 10023;
0172351730999992000082015004+51610+069800FM-12+031299999V0201401N002010075019N0040001N1+01651+01201100511ADDAA199000021AY191031AY281031GF107991071091008001001001MA1999999097001MD1710171+9999MW1251REMSYN072AAXX  20151 35173 31596 71402 10165 20120 39700 40051 57017 72598 87900;
0180351730999992000082018004+51610+069800FM-12+031299999V0209999C000010075019N0200001N1+01371+01201100451ADDAA100000591AY191061AY281061GF106991061091008001001001KA1999M+02461MD1710011+9999MW1291REMSYN082AAXX  20181 35173 11598 60000 10137 20120 40045 57001 69960 72998 86900 333 10246;
0112351730999992000082021004+51610+069800FM-12+031299999V0209999C000010075019N0200001N1+01161+00971100421ADDGF108991081091008001999999MD1710061+9999REMSYN060AAXX  20211 35173 42598 80000 10116 20097 40042 57006 889//;
0165351730999992000082100004+51610+069800FM-12+031299999V0209999C000019999999N0200001N1+01261+01221100481ADDAY191061AY281061GF108991999999008001999999MA1999999096901MD1310071+9999MW1171REMSYN076AAXX  21001 35173 41598 80000 10126 20122 39690 40048 53007 71798 555 12013;
0168351730999992000082103004+51610+069800FM-12+031299999V0202701N004010075019N0040001N1+01341+01301100481ADDAY191031AY221031GF108991081091008001999999MD1210011+9999MW1021REMSYN094AAXX  21031 35173 /1596 82704 10134 20130 40048 52001 70292 889// 555 20113 32013 60032 7004/;
0180351730999992000082106004+51610+069800FM-12+031299999V0202701N006010075019N0040001N1+01621+01221100531ADDAA100003091AY191061AY221061GF106991061071008001001001KA1999N+01131MD1210091+9999MW1011REMSYN082AAXX  21061 35173 11596 62706 10162 20122 40053 52009 60030 70192 86700 333 20113;
0112351730999992000082109004+51610+069800FM-12+031299999V0202701N008010075019N0040001N1+02061+00861100511ADDGF106991061091008001001001MD1210031+9999REMSYN060AAXX  21091 35173 42596 62708 10206 20086 40051 52003 86900;
0143351730999992000082112004+51610+069800FM-12+031299999V0202501N008010075019N0040001N1+02161+00531100481ADDGF106991061031008001001001MA1999999097011MD1810021+9999REMSYN076AAXX  21121 35173 42596 62508 10216 20053 39701 40048 58002 86300 555 10030;
0165351730999992000082115004+51610+069800FM-12+031299999V0202301N002010300019N0040001N1+01691+00781100591ADDAA199000091GF106991031091008001081001KA1999M+02301MD1310051+9999REMSYN070AAXX  21151 35173 32596 62302 10169 20078 40059 53005 83980 333 10230;EQDQ01  00002PRCP99
0165351730999992000082118004+51610+069800FM-12+031299999V0202001N006010075019N0200001N1+01601+00881100521ADDAA199000091GF108991081051008001999999KA1999M+02301MD1810091+9999REMSYN070AAXX  21181 35173 32598 82006 10160 20088 40052 58009 885// 333 10230;EQDQ01  00002PRCP99
0140351730999992000082121004+51610+069800FM-12+031299999V0209999C000010075019N0200001N1+01181+01141100461ADDAY181031AY221031GF108991081091008001999999MD1710101+9999MW1251REMSYN066AAXX  21211 35173 41598 80000 10118 20114 40046 57010 72582 889//;
0171351730999992000082200004+51610+069800FM-12+031299999V0209999C000010300019N0200001N1+01041+01041100491ADDAY181061AY221061GF106991031091008001061001MA1999999096891MD1310021+9999MW1021REMSYN082AAXX  22001 35173 41598 60000 10104 20104 39689 40049 53002 70282 83960 555 11009;
0140351730999992000082203004+51610+069800FM-12+031299999V0202701N002012200019N0040001N1+01261+00931100581ADDGF102991021071012501001001MD1210111+9999REMSYN088AAXX  22031 35173 /2696 22702 10126 20093 40058 52011 82700 555 20100 31009 60022 7002/;
0152351730999992000082206004+51610+069800FM-12+031299999V0202901N004010075019N0040001N1+01721+01001100581ADDAA100002091GF105991051021008001001001KA1999N+01001MD1210061+9999REMSYN076AAXX  22061 35173 12596 52904 10172 20100 40058 52006 60020 85200 333 20100;
0140351730999992000082209004+51610+069800FM-12+031299999V0202901N004010075019N0040001N1+01861+00741100531ADDAY191031AY281031GF106991061031008001001001MD1810041+9999MW1021REMSYN066AAXX  22091 35173 41596 62904 10186 20074 40053 58004 70298 86300;
0171351730999992000082212004+51610+069800FM-12+031299999V0203201N008010300019N0040001N1+01791+00671100571ADDAY191061AY281061GF105991031031008001061001MA1999999097051MD1310031+9999MW1021REMSYN082AAXX  22121 35173 41596 53208 10179 20067 39705 40057 53003 70298 83360 555 10024;
0145351730999992000082215004+51610+069800FM-12+031299999V0202901N004010300019N0200001N1+01501+00891100811ADDGF106991031041008001071001KA1120M+02001MD1210201+9999REMSYN080AAXX  22151 35173 /2598 62904 10150 20089 40081 52020 83470 333 10200 555 69942;
0152351730999992000082218004+51610+069800FM-12+031299999V0202701N002012200019N0200001N1+01101+00741100931ADDAA100000591GF101991011041008001001001KA1999M+02001MD1210061+9999REMSYN076AAXX  22181 35173 12598 12702 10110 20074 40093 52006 69940 81400 333 10200;
0112351730999992000082221004+51610+069800FM-12+031299999V0203401N004012200019N0200001N1+00901+00641101041ADDGF102991021001999999031001MD1210081+9999REMSYN060AAXX  22211 35173 42998 23404 10090 20064 40104 52008 82030;
0143351730999992000082300004+51610+069800FM-12+031299999V0202301N002012200019N0200001N1+00621+00531101081ADDGF101991011001999999041001MA1999999097391MD1410001+9999REMSYN076AAXX  23001 35173 42998 12302 10062 20053 39739 40108 54000 81040 555 10004;
0182351730999992000082303004+51610+069800FM-12+031299999V0202701N002012200019N0040001N1+00901+00621101291ADDAA199000091GF103991031051008001001001IA1019IA2999+00409MD1310241+9999REMSYN082AAXX  23031 35173 32596 32702 10090 20062 40129 53024 83500 555 20056 30004 7994/;EQDQ01  00002PRCP99
0165351730999992000082306004+51610+069800FM-12+031299999V0202701N004010075019N0040001N1+01571+00671101281ADDAA199000091GF107991071021008001001001KA1999N+00561MD1210071+9999REMSYN070AAXX  23061 35173 32596 72704 10157 20067 40128 52007 87200 333 20056;EQDQ01  00002PRCP99
0112351730999992000082309004+51610+069800FM-12+031299999V0203201N004010075019N0040001N1+01851+00561101221ADDGF106991061021008001001001MD1810011+9999REMSYN060AAXX  23091 35173 42596 63204 10185 20056 40122 58001 86200;
0143351730999992000082312004+51610+069800FM-12+031299999V0202501N004010075019N0040001N1+01921+00411101221ADDGF106991061051008001001001MA1999999097691MD1410001+9999REMSYN076AAXX  23121 35173 42596 62504 10192 20041 39769 40122 54000 86500 555 10028;
0165351730999992000082315004+51610+069800FM-12+031299999V0202301N002010075019N0200001N1+01691+00611101221ADDAA199000091GF107991071041008001001001KA1999M+02121MD1810021+9999REMSYN070AAXX  23151 35173 32598 72302 10169 20061 40122 58002 87400 333 10212;EQDQ01  00002PRCP99
0175351730999992000082318004+51610+069800FM-12+031299999V0202301N002012200019N0200001N1+01381+00731101351ADDAA199000091GA1001+999999999GF100991001001999999001001KA1999M+02121MD1310081+9999REMSYN064AAXX  23181 35173 32998 02302 10138 20073 40135 53008 333 10212;EQDQ01  00002PRCP99
0122351730999992000082321004+51610+069800FM-12+031299999V0209999C000012200019N0200001N1+01001+00551101371ADDGA1001+999999999GF100991001001999999001001MD1810031+9999REMSYN054AAXX  23211 35173 42998 00000 10100 20055 40137 58003;
0143351730999992000082400004+51610+069800FM-12+031299999V0209999C000010075019N0200001N1+01101+00841101361ADDGF106991061051008001001001MA1999999097721MD1410001+9999REMSYN076AAXX  24001 35173 42598 60000 10110 20084 39772 40136 54000 86500 555 10011;
0182351730999992000082403004+51610+069800FM-12+031299999V0209999C000010075019N0040001N1+01521+00921101291ADDAA199000091GF106991051051008001001081IA1019IA2999+00909MD1810011+9999REMSYN082AAXX  24031 35173 32596 60000 10152 20092 40129 58001 85508 555 20097 30009 7000/;EQDQ01  00002PRCP99
0165351730999992000082406004+51610+069800FM-12+031299999V0201401N002010750019N0040001N1+02081+00741101151ADDAA199000091GF107991021051008001001071KA1999N+00971MD1710061+9999REMSYN070AAXX  24061 35173 32596 71402 10208 20074 40115 57006 82507 333 20097;EQDQ01  00002PRCP99
0112351730999992000082409004+51610+069800FM-12+031299999V0202301N002010075019N0040001N1+02431+00821101001ADDGF106991051021008001081001MD1710111+9999REMSYN060AAXX  24091 35173 42596 62302 10243 20082 40100 57011 85280;
0143351730999992000082412004+51610+069800FM-12+031299999V0202301N002012200019N0040001N1+02501+00951100961ADDGF105991021011012501001011MA1999999097501MD1710041+9999REMSYN076AAXX  24121 35173 42696 52302 10250 20095 39750 40096 57004 82101 555 10035;
0165351730999992000082415004+51610+069800FM-12+031299999V0209999C000012200019N0200001N1+02121+01281100991ADDAA199000091GF102991011041008001001041KA1999M+02701MD1410001+9999REMSYN070AAXX  24151 35173 32598 20000 10212 20128 40099 54000 81404 333 10270;EQDQ01  00002PRCP99
0175351730999992000082418004+51610+069800FM-12+031299999V0201601N002012200019N0200001N1+01941+01211100921ADDAA199000091GA1001+999999999GF100991001001999999001001KA1999M+02701MD1810091+9999REMSYN064AAXX  24181 35173 32998 01602 10194 20121 40092 58009 333 10270;EQDQ01  00002PRCP99
0122351730999992000082421004+51610+069800FM-12+031299999V0201601N002012200019N0200001N1+01861+01211100851ADDGA1001+999999999GF100991001001999999001001MD1710081+9999REMSYN054AAXX  24211 35173 42998 01602 10186 20121 40085 57008;
0153351730999992000082500004+51610+069800FM-12+031299999V0201801N002012200019N0200001N1+01641+01201100931ADDGA1001+999999999GF100991001001999999001001MA1999999097381MD1310051+9999REMSYN070AAXX  25001 35173 42998 01802 10164 20120 39738 40093 53005 555 10013;
0182351730999992000082503004+51610+069800FM-12+031299999V0209999C000012200019N0040001N1+02041+01221100931ADDAA199000091GF102991001001999999001011IA1019IA2999+01309MD1210051+9999REMSYN082AAXX  25031 35173 32996 20000 10204 20122 40093 52005 80001 555 20160 30013 7000/;EQDQ01  00002PRCP99
0175351730999992000082506004+51610+069800FM-12+031299999V0201801N002012200019N0040001N1+02841+01211100991ADDAA199000091GA1001+999999999GF100991001001999999001001KA1999N+01601MD1210151+9999REMSYN064AAXX  25061 35173 32996 01802 10284 20121 40099 52015 333 20160;EQDQ01  00002PRCP99
0112351730999992000082509004+51610+069800FM-12+031299999V0202301N004012200019N0040001N1+03281+00651100731ADDGF103991031011008001001001MD1810211+9999REMSYN060AAXX  25091 35173 42596 32304 10328 20065 40073 58021 83100;
0143351730999992000082512004+51610+069800FM-12+031299999V0202001N002010075019N0040001N1+03171+00591100711ADDGF106991061031008001001001MA1999999097341MD1710031+9999REMSYN076AAXX  25121 35173 42596 62002 10317 20059 39734 40071 57003 86300 555 10036;
0165351730999992000082515004+51610+069800FM-12+031299999V0201801N002010075019N0200001N1+02581+00861100801ADDAA199000091GF106991061031008001001001KA1999M+03431MD1310021+9999REMSYN070AAXX  25151 35173 32598 61802 10258 20086 40080 53002 86300 333 10343;EQDQ01  00002PRCP99
0165351730999992000082518004+51610+069800FM-12+031299999V0201401N002012200019N0200001N1+02241+01061100841ADDAA199000091GF102991021031008001001001KA1999M+03431MD1210011+9999REMSYN070AAXX  25181 35173 32598 21402 10224 20106 40084 52001 82300 333 10343;EQDQ01  00002PRCP99
0112351730999992000082521004+51610+069800FM-12+031299999V0201401N002012200019N0200001N1+02211+01041100801ADDGF102991021041008001001001MD1810041+9999REMSYN060AAXX  25211 35173 42598 21402 10221 20104 40080 58004 82400;
0143351730999992000082600004+51610+069800FM-12+031299999V0201801N002010075019N0200001N1+02121+01091100761ADDGF107991071051008001001001MA1999999097281MD1710051+9999REMSYN076AAXX  26001 35173 42598 71802 10212 20109 39728 40076 57005 87500 555 10019;
0210351730999992000082603004+51610+069800FM-12+031299999V0203201N002010075019N0040001N1+01981+01321101091ADDAA112999929AY101031AY221031GF108991081091008001999999IA1019IA2999+01809KA1120N+01931MD1310311+9999MW1801REMSYN094AAXX  26031 35173 /1596 83202 10198 20132 40109 53031 78002 889// 333 20193 30018 69902 7990/;
0180351730999992000082606004+51610+069800FM-12+031299999V0203401N004010075019N0040001N1+02101+01451101171ADDAA100000791AY181061AY221061GF108991081091008001999999KA1999N+01931MD1210091+9999MW1251REMSYN082AAXX  26061 35173 11596 83404 10210 20145 40117 52009 69900 72582 889// 333 20193;
0140351730999992000082609004+51610+069800FM-12+031299999V0202701N002010075019N0040001N1+02061+01541101291ADDAY181031AY221031GF108991081091008001999999MD1210111+9999MW1021REMSYN066AAXX  26091 35173 41596 82702 10206 20154 40129 52011 70282 889//;
0171351730999992000082612004+51610+069800FM-12+031299999V0202701N002010075019N0040001N1+01921+01731101411ADDAY181061AY221061GF108991081091008001999999MA1999999097881MD1210091+9999MW1251REMSYN082AAXX  26121 35173 41596 82702 10192 20173 39788 40141 52009 72582 889// 555 10020;
0173351730999992000082615004+51610+069800FM-12+031299999V0209999C000010075019N0010001N1+01761+01641101471ADDAY181031AY221031GF108991081091008001999999KA1120M+02251MD1210051+9999MW1801REMSYN086AAXX  26151 35173 /1594 80000 10176 20164 40147 52005 78082 889// 333 10225 555 69952;
0199351730999992000082618004+51610+069800FM-12+031299999V0200201N002010042019N0010001N1+01641+01601101531ADDAA100000591AY181061AY261061GF108991999071004501021999KA1999M+02251MD1210031+9999MW1611REMSYN082AAXX  26181 35173 11494 80202 10164 20160 40153 52003 69950 76186 8872/ 333 10225;EQDQ01+000082SCOTLC
0150351730999992000082621004+51610+069800FM-12+031299999V0200201N002012200019N0010001N1+01501+01471101601ADDAY161031AY211031GA1001+999999999GF100991001001999999001001MD1210061+9999MW1101REMSYN060AAXX  26211 35173 41994 00202 10150 20147 40160 52006 71061;
0181351730999992000082700004+51610+069800FM-12+031299999V0200201N002010001519N0001001N1+01141+01121101701ADDAY161061AY241061GA1091+999999999GF109991091999999999999999MA1999999098071MD1210051+9999MW1461REMSYN076AAXX  27001 35173 41/91 90202 10114 20112 39807 40170 52005 74664 555 11011;
0207351730999992000082703004+51610+069800FM-12+031299999V0200501N002012200019N0040001N1+01301+01111101781ADDAA112000791AY141031AY211031GA1001+999999999GF100991001001999999001001IA1099IA2999+01009MD1210081+9999MW1011REMSYN088AAXX  27031 35173 /1996 00502 10130 20111 40178 52008 70141 555 20108 31010 69972 7001/;
0180351730999992000082706004+51610+069800FM-12+031299999V0200501N004012200019N0040001N1+01931+00811101721ADDAA100000891AY141061AY201061GF103991031011012501001001KA1999N+01081MD1210031+9999MW1021REMSYN082AAXX  27061 35173 11696 30504 10193 20081 40172 52003 69970 70240 83100 333 20108;
0112351730999992000082709004+51610+069800FM-12+031299999V0200501N004012200019N0040001N1+02111+00551101681ADDGF102991021011012501001001MD1810051+9999REMSYN060AAXX  27091 35173 42696 20504 10211 20055 40168 58005 82100;
0143351730999992000082712004+51610+069800FM-12+031299999V0200201N004012200019N0040001N1+02161+00591101621ADDGF102991021011012501001001MA1999999098101MD1710051+9999REMSYN076AAXX  27121 35173 42696 20204 10216 20059 39810 40162 57005 82100 555 10033;
0175351730999992000082715004+51610+069800FM-12+031299999V0200501N002012200019N0200001N1+01601+00761101751ADDAA199000091GA1001+999999999GF100991001001999999001001KA1999M+02271MD1310061+9999REMSYN064AAXX  27151 35173 32998 00502 10160 20076 40175 53006 333 10227;EQDQ01  00002PRCP99
0175351730999992000082718004+51610+069800FM-12+031299999V0200501N004012200019N0200001N1+01401+00501101791ADDAA199000091GA1001+999999999GF100991001001999999001001KA1999M+02271MD1210011+9999REMSYN064AAXX  27181 35173 32998 00504 10140 20050 40179 52001 333 10227;EQDQ01  00002PRCP99
0122351730999992000082721004+51610+069800FM-12+031299999V0200201N002012200019N0200001N1+01041+00381101881ADDGA1001+999999999GF100991001001999999001001MD1210041+9999REMSYN054AAXX  27211 35173 42998 00202 10104 20038 40188 52004;
0143351730999992000082800004+51610+069800FM-12+031299999V0200701N002012200019N0200001N1+00921+00551101901ADDGF103991031001999999081001MA1999999098221MD1210011+9999REMSYN076AAXX  28001 35173 42998 30702 10092 20055 39822 40190 52001 83080 555 10008;
0182351730999992000082803004+51610+069800FM-12+031299999V0200701N002019999999N0040001N1+01331+00591101861ADDAA199000091GF105991001001999999001011IA1019IA2999+00709MD1210021+9999REMSYN082AAXX  28031 35173 32996 50702 10133 20059 40186 52002 80001 555 20088 30007 7000/;EQDQ01  00002PRCP99
0165351730999992000082806004+51610+069800FM-12+031299999V0200701N004010120019N0040001N1+01791+00361101751ADDAA199000091GF105991051011012501001001KA1999N+00881MD1810041+9999REMSYN070AAXX  28061 35173 32696 50704 10179 20036 40175 58004 85100 333 20088;EQDQ01  00002PRCP99
0112351730999992000082809004+51610+069800FM-12+031299999V0203601N002010120019N0040001N1+01961+00191101621ADDGF107991061011012501001011MD1710121+9999REMSYN060AAXX  28091 35173 42696 73602 10196 20019 40162 57012 86101;
0143351730999992000082812004+51610+069800FM-12+031299999V0203201N002010075019N0040001N1+01981+00171101541ADDGF107991061021008001001081MA1999999098011MD1710071+9999REMSYN076AAXX  28121 35173 42596 73202 10198 20017 39801 40154 57007 86208 555 10027;
0165351730999992000082815004+51610+069800FM-12+031299999V0209999C000012200019N0200001N1+01661+00431101511ADDAA199000091GF105991031041008001001041KA1999M+02241MD1710071+9999REMSYN070AAXX  28151 35173 32598 50000 10166 20043 40151 57007 83404 333 10224;EQDQ01  00002PRCP99
0165351730999992000082818004+51610+069800FM-12+031299999V0200901N002012200019N0200001N1+01441+00451101511ADDAA199000091GF103991001001999999001021KA1999M+02241MD1710041+9999REMSYN070AAXX  28181 35173 32998 30902 10144 20045 40151 57004 80002 333 10224;EQDQ01  00002PRCP99
0112351730999992000082821004+51610+069800FM-12+031299999V0209999C000019999999N0200001N1+01041+00461101471ADDGF105991001001999999001021MD1710081+9999REMSYN060AAXX  28211 35173 42998 50000 10104 20046 40147 57008 80002;
0143351730999992000082900004+51610+069800FM-12+031299999V0209999C000010075019N0200001N1+00741+00361101421ADDGF106991061051008001001001MA1999999097731MD1710091+9999REMSYN076AAXX  29001 35173 42598 60000 10074 20036 39773 40142 57009 86500 555 10006;
0182351730999992000082903004+51610+069800FM-12+031299999V0200901N002010075019N0040001N1+01141+00531101271ADDAA199000091GF107991071051008001001001IA1019IA2999+00609MD1710091+9999REMSYN082AAXX  29031 35173 32596 70902 10114 20053 40127 57009 87500 555 20072 30006 7000/;EQDQ01  00002PRCP99
0165351730999992000082906004+51610+069800FM-12+031299999V0202901N004010300019N0040001N1+01881+00771101031ADDAA199000091GF105991021021012501031001KA1999N+00721MD1710141+9999REMSYN070AAXX  29061 35173 32696 52904 10188 20077 40103 57014 82230 333 20072;EQDQ01  00002PRCP99
0112351730999992000082909004+51610+069800FM-12+031299999V0203201N004010120019N0040001N1+01981+00231100911ADDGF106991061021012501001001MD1710101+9999REMSYN060AAXX  29091 35173 42696 63204 10198 20023 40091 57010 86200;
0143351730999992000082912004+51610+069800FM-12+031299999V0203601N008010300019N0040001N1+01841+00381100931ADDGF106991041021012501031001MA1999999097391MD1710011+9999REMSYN076AAXX  29121 35173 42696 63608 10184 20038 39739 40093 57001 84230 555 10023;
0165351730999992000082915004+51610+069800FM-12+031299999V0203601N002010075019N0200001N1+01461+00531101051ADDAA199000091GF105991051041008001001001KA1999M+02201MD1310101+9999REMSYN070AAXX  29151 35173 32598 53602 10146 20053 40105 53010 85400 333 10220;EQDQ01  00002PRCP99
0175351730999992000082918004+51610+069800FM-12+031299999V0203601N002012200019N0200001N1+00961+00501101261ADDAA199000091GA1001+999999999GF100991001001999999001001KA1999M+02201MD1210121+9999REMSYN064AAXX  29181 35173 32998 03602 10096 20050 40126 52012 333 10220;EQDQ01  00002PRCP99
0122351730999992000082921004+51610+069800FM-12+031299999V0209999C000012200019N0200001N1+00561+00371101381ADDGA1001+999999999GF100991001001999999001001MD1210061+9999REMSYN054AAXX  29211 35173 42998 00000 10056 20037 40138 52006;
0153351730999992000083000004+51610+069800FM-12+031299999V0203601N002012200019N0200001N1+00241+00171101501ADDGA1001+999999999GF100991001001999999001001MA1999999097741MD1210071+9999REMSYN070AAXX  30001 35173 42998 03602 10024 20017 39774 40150 52007 555 10001;
0192351730999992000083003004+51610+069800FM-12+031299999V0203601N002012200019N0040001N1+00751+00361101571ADDAA199000091GA1001+999999999GF100991001001999999001001IA1019IA2999+00009MD1210141+9999REMSYN076AAXX  30031 35173 32996 03602 10075 20036 40157 52014 555 20020 30000 7000/;EQDQ01  00002PRCP99
0165351730999992000083006004+51610+069800FM-12+031299999V0203401N006010075019N0040001N1+01401+00001101521ADDAA199000091GF107991071021008001001001KA1999N+00201MD1210031+9999REMSYN070AAXX  30061 35173 32596 73406 10140 20000 40152 52003 87200 333 20020;EQDQ01  00002PRCP99
0112351730999992000083009004+51610+069800FM-12+031299999V0203401N008010075019N0040001N1+01541-00121101491ADDGF107991071021008001001001MD1810011+9999REMSYN060AAXX  30091 35173 42596 73408 10154 21012 40149 58001 87200;
0143351730999992000083012004+51610+069800FM-12+031299999V0203201N006010300019N0040001N1+01501+00021101531ADDGF106991041021008001061001MA1999999097941MD1310041+9999REMSYN076AAXX  30121 35173 42596 63206 10150 20002 39794 40153 53004 84260 555 10020;
0165351730999992000083015004+51610+069800FM-12+031299999V0203201N002010075019N0200001N1+01201+00291101621ADDAA199000091GF106991061041008001001001KA1999M+01721MD1210051+9999REMSYN070AAXX  30151 35173 32598 63202 10120 20029 40162 52005 86400 333 10172;EQDQ01  00002PRCP99
0165351730999992000083018004+51610+069800FM-12+031299999V0209999C000010300019N0200001N1+00981+00401101701ADDAA199000091GF106991021051008001041001KA1999M+01721MD1210051+9999REMSYN070AAXX  30181 35173 32598 60000 10098 20040 40170 52005 82540 333 10172;EQDQ01  00002PRCP99
0112351730999992000083021004+51610+069800FM-12+031299999V0203401N002012200019N0200001N1+00761+00401101781ADDGF102991021001999999041001MD1210051+9999REMSYN060AAXX  30211 35173 42998 23402 10076 20040 40178 52005 82040;
0143351730999992000083100004+51610+069800FM-12+031299999V0209999C000019999999N0200001N1+00581+00341101911ADDGF106991061001999999031001MA1999999098191MD1210101+9999REMSYN076AAXX  31001 35173 42998 60000 10058 20034 39819 40191 52010 86030 555 10005;
0165351730999992000083106004+51610+069800FM-12+031299999V0203601N004012200019N0040001N1+01261+00021102131ADDAA199000091GF104991041011008001001001KA1999N+00521MD1210101+9999REMSYN070AAXX  31061 35173 32596 43604 10126 20002 40213 52010 84100 333 20052;EQDQ01  00002PRCP99
0112351730999992000083109004+51610+069800FM-12+031299999V0203601N004012200019N0040001N1+01531+00061102131ADDGF102991021011012501001001MD1210041+9999REMSYN060AAXX  31091 35173 42696 23604 10153 20006 40213 52004 82100;
0153351730999992000083112004+51610+069800FM-12+031299999V0203601N002012200019N0040001N1+01581-00141102191ADDGA1001+999999999GF100991001001999999001001MA1999999098581MD1210061+9999REMSYN070AAXX  31121 35173 42996 03602 10158 21014 39858 40219 52006 555 10024;
0175351730999992000083115004+51610+069800FM-12+031299999V0203601N002012200019N0200001N1+01271-00091102301ADDAA199000091GA1001+999999999GF100991001001999999001001KA1999M+01681MD1210061+9999REMSYN064AAXX  31151 35173 32998 03602 10127 21009 40230 52006 333 10168;EQDQ01  00002PRCP99
0175351730999992000083118004+51610+069800FM-12+031299999V0209999C000012200019N0200001N1+00871-00071102471ADDAA199000091GA1001+999999999GF100991001001999999001001KA1999M+01681MD1210111+9999REMSYN064AAXX  31181 35173 32998 00000 10087 21007 40247 52011 333 10168;EQDQ01  00002PRCP99
0122351730999992000083121004+51610+069800FM-12+031299999V0209999C000012200019N0200001N1+00551+00001102591ADDGA1001+999999999GF100991001001999999001001MD1210091+9999REMSYN054AAXX  31211 35173 42998 00000 10055 20000 40259 52009;
0153351730999992000090100004+51610+069800FM-12+031299999V0209999C000012200019N0200001N1+00251-00111102731ADDGA1001+999999999GF100991001001999999001001MA1999999098911MD1210071+9999REMSYN070AAXX  01001 35173 42998 00000 10025 21011 39891 40273 52007 555 10101;
0192351730999992000090103004+51610+069800FM-12+031299999V0203601N002012200019N0040001N1+00861+00111102761ADDAA199000091GA1001+999999999GF100991001001999999001001IA1019IA2999-00209MD1210131+9999REMSYN076AAXX  01031 35173 32996 03602 10086 20011 40276 52013 555 20020 30102 7000/;EQDQ01  00002PRCP99
0175351730999992000090106004+51610+069800FM-12+031299999V0200501N002012200019N0040001N1+01641-00021102691ADDAA199000091GA1001+999999999GF100991001001999999001001KA1999N+00201MD1210031+9999REMSYN064AAXX  01061 35173 32996 00502 10164 21002 40269 52003 333 20020;EQDQ01  00002PRCP99
0122351730999992000090109004+51610+069800FM-12+031299999V0200901N002012200019N0040001N1+01801-00271102601ADDGA1001+999999999GF100991001001999999001001MD1810061+9999REMSYN054AAXX  01091 35173 42996 00902 10180 21027 40260 58006;
0153351730999992000090112004+51610+069800FM-12+031299999V0209999C000012200019N0040001N1+01921-00271102501ADDGA1001+999999999GF100991001001999999001001MA1999999098921MD1710091+9999REMSYN070AAXX  01121 35173 42996 00000 10192 21027 39892 40250 57009 555 10033;
0175351730999992000090115004+51610+069800FM-12+031299999V0209999C000012200019N0200001N1+01441-00021102621ADDAA199000091GA1001+999999999GF100991001001999999001001KA1999M+02041MD1310051+9999REMSYN064AAXX  01151 35173 32998 00000 10144 21002 40262 53005 333 10204;EQDQ01  00002PRCP99
0175351730999992000090118004+51610+069800FM-12+031299999V0209999C000012200019N0200001N1+00831+00061102711ADDAA199000091GA1001+999999999GF100991001001999999001001KA1999M+02041MD1210021+9999REMSYN064AAXX  01181 35173 32998 00000 10083 20006 40271 52002 333 10204;EQDQ01  00002PRCP99
0122351730999992000090121004+51610+069800FM-12+031299999V0209999C000012200019N0200001N1+00791+00091102751ADDGA1001+999999999GF100991001001999999001001MD1210041+9999REMSYN054AAXX  01211 35173 42998 00000 10079 20009 40275 52004;
0153351730999992000090200004+51610+069800FM-12+031299999V0209999C000012200019N0200001N1+00471+00031102851ADDGA1001+999999999GF100991001001999999001001MA1999999099071MD1210041+9999REMSYN070AAXX  02001 35173 42998 00000 10047 20003 39907 40285 52004 555 10001;
0192351730999992000090203004+51610+069800FM-12+031299999V0209999C000012200019N0040001N1+01281+00171102811ADDAA199000091GA1001+999999999GF100991001001999999001001IA1019IA2999+00009MD1210081+9999REMSYN076AAXX  02031 35173 32996 00000 10128 20017 40281 52008 555 20044 30000 7000/;EQDQ01  00002PRCP99
0175351730999992000090206004+51610+069800FM-12+031299999V0203601N002012200019N0040001N1+01861-00021102601ADDAA199000091GA1001+999999999GF100991001001999999001001KA1999N+00441MD1810141+9999REMSYN064AAXX  02061 35173 32996 03602 10186 21002 40260 58014 333 20044;EQDQ01  00002PRCP99
0122351730999992000090209004+51610+069800FM-12+031299999V0200901N002012200019N0040001N1+02201-00171102541ADDGA1001+999999999GF100991001001999999001001MD1710011+9999REMSYN054AAXX  02091 35173 42996 00902 10220 21017 40254 57001;
0153351730999992000090212004+51610+069800FM-12+031299999V0200901N002012200019N0040001N1+02241-00141102431ADDGA1001+999999999GF100991001001999999001001MA1999999098891MD1710111+9999REMSYN070AAXX  02121 35173 42996 00902 10224 21014 39889 40243 57011 555 10031;
0175351730999992000090215004+51610+069800FM-12+031299999V0200501N002012200019N0200001N1+01771-00171102551ADDAA199000091GA1001+999999999GF100991001001999999001001KA1999M+02401MD1310061+9999REMSYN064AAXX  02151 35173 32998 00502 10177 21017 40255 53006 333 10240;EQDQ01  00002PRCP99
0175351730999992000090218004+51610+069800FM-12+031299999V0200901N002012200019N0200001N1+01521-00091102591ADDAA199000091GA1001+999999999GF100991001001999999001001KA1999M+02401MD1210011+9999REMSYN064AAXX  02181 35173 32998 00902 10152 21009 40259 52001 333 10240;EQDQ01  00002PRCP99
0122351730999992000090221004+51610+069800FM-12+031299999V0201401N002012200019N0200001N1+01211+00251102621ADDGA1001+999999999GF100991001001999999001001MD1410001+9999REMSYN054AAXX  02211 35173 42998 01402 10121 20025 40262 54000;
0153351730999992000090300004+51610+069800FM-12+031299999V0201101N002012200019N0200001N1+01041+00461102661ADDGA1001+999999999GF100991001001999999001001MA1999999098961MD1410001+9999REMSYN070AAXX  03001 35173 42998 01102 10104 20046 39896 40266 54000 555 10008;
0182351730999992000090303004+51610+069800FM-12+031299999V0209999C000012200019N0040001N1+01551+00431102671ADDAA199000091GF101991001001999999001021IA1019IA2999+00809MD1310081+9999REMSYN082AAXX  03031 35173 32996 10000 10155 20043 40267 53008 80002 555 20100 30008 7000/;EQDQ01  00002PRCP99
0165351730999992000090306004+51610+069800FM-12+031299999V0201101N008012200019N0040001N1+02071+00151102621ADDAA199000091GF102991011011012501001021KA1999N+01001MD1210031+9999REMSYN070AAXX  03061 35173 32696 21108 10207 20015 40262 52003 81102 333 20100;EQDQ01  00002PRCP99
0112351730999992000090309004+51610+069800FM-12+031299999V0201101N006012200019N0040001N1+02291+00151102461ADDGF102991001001999999001011MD1810141+9999REMSYN060AAXX  03091 35173 42996 21106 10229 20015 40246 58014 80001;
0142351730999992000090312004+51610+069800FM-12+031299999V0201101N006012200019N0040001N1+02341+00211102351ADDGF102991999999999999999999MA1999999098831MD1710101+9999REMSYN075AAXX  03121 35173 42996 21106 10234 20021 39883 40235 57010 8000 555 10031;
0165351730999992000090315004+51610+069800FM-12+031299999V0200901N004019999999N0200001N1+01921+00291102321ADDAA199000091GF106991001001999999001011KA1999M+02501MD1710081+9999REMSYN070AAXX  03151 35173 32998 60904 10192 20029 40232 57008 80001 333 10250;EQDQ01  00002PRCP99
0175351730999992000090318004+51610+069800FM-12+031299999V0200901N004012200019N0200001N1+01381+00361102411ADDAA199000091GA1001+999999999GF100991001001999999001001KA1999M+02501MD1310021+9999REMSYN064AAXX  03181 35173 32998 00904 10138 20036 40241 53002 333 10250;EQDQ01  00002PRCP99
0122351730999992000090321004+51610+069800FM-12+031299999V0200901N006012200019N0200001N1+01101+00321102411ADDGA1001+999999999GF100991001001999999001001MD1810031+9999REMSYN054AAXX  03211 35173 42998 00906 10110 20032 40241 58003;
0153351730999992000090400004+51610+069800FM-12+031299999V0200901N006012200019N0200001N1+00921+00341102471ADDGA1001+999999999GF100991001001999999001001MA1999999098771MD1310031+9999REMSYN070AAXX  04001 35173 42998 00906 10092 20034 39877 40247 53003 555 10007;
0182351730999992000090403004+51610+069800FM-12+031299999V0200901N004019999999N0040001N1+01221+00341102391ADDAA199000091GF105991001001999999001011IA1019IA2999+00609MD1810041+9999REMSYN082AAXX  04031 35173 32996 50904 10122 20034 40239 58004 80001 555 20084 30006 7000/;EQDQ01  00002PRCP99
0165351730999992000090406004+51610+069800FM-12+031299999V0201101N006019999999N0040001N1+02151+00091102161ADDAA199000091GF106991001001999999001011KA1999N+00841MD1710111+9999REMSYN070AAXX  04061 35173 32996 61106 10215 20009 40216 57011 80001 333 20084;EQDQ01  00002PRCP99
0112351730999992000090409004+51610+069800FM-12+031299999V0200901N006012200019N0040001N1+02441+00401101961ADDGF103991001001999999001041MD1710161+9999REMSYN060AAXX  04091 35173 42996 30906 10244 20040 40196 57016 80004;
0143351730999992000090412004+51610+069800FM-12+031299999V0200901N004012200019N0040001N1+02551+00341101781ADDGF103991001001999999001011MA1999999098301MD1710161+9999REMSYN076AAXX  04121 35173 42996 30904 10255 20034 39830 40178 57016 80001 555 10031;
0165351730999992000090415004+51610+069800FM-12+031299999V0200901N002019999999N0200001N1+01841+00041101841ADDAA199000091GF105991001001999999001061KA1999M+02721MD1710031+9999REMSYN070AAXX  04151 35173 32998 50902 10184 20004 40184 57003 80006 333 10272;EQDQ01  00002PRCP99
0165351730999992000090418004+51610+069800FM-12+031299999V0200901N004012200019N0200001N1+01341+00091101821ADDAA199000091GF102991001001999999001021KA1999M+02721MD1710081+9999REMSYN070AAXX  04181 35173 32998 20904 10134 20009 40182 57008 80002 333 10272;EQDQ01  00002PRCP99
0122351730999992000090421004+51610+069800FM-12+031299999V0200701N004012200019N0200001N1+01121+00171101691ADDGA1001+999999999GF100991001001999999001001MD1710141+9999REMSYN054AAXX  04211 35173 42998 00704 10112 20017 40169 57014;
0143351730999992000090500004+51610+069800FM-12+031299999V0200701N006012200019N0200001N1+01001+00301101621ADDGF102991001001999999001041MA1999999097961MD1710091+9999REMSYN076AAXX  05001 35173 42998 20706 10100 20030 39796 40162 57009 80004 555 10009;
0182351730999992000090503004+51610+069800FM-12+031299999V0200901N004012200019N0040001N1+01361+00191101571ADDAA199000091GF102991021001999999081001IA1019IA2999+00809MD1710011+9999REMSYN082AAXX  05031 35173 32996 20904 10136 20019 40157 57001 82080 555 20097 30008 7000/;EQDQ01  00002PRCP99
0165351730999992000090506004+51610+069800FM-12+031299999V0200901N002012200019N0040001N1+02561+00941101361ADDAA199000091GF103991031001999999081001KA1999N+00971MD1710051+9999REMSYN070AAXX  05061 35173 32996 30902 10256 20094 40136 57005 83080 333 20097;EQDQ01  00002PRCP99
0112351730999992000090509004+51610+069800FM-12+031299999V0200901N004019999999N0040001N1+02781+01391101131ADDGF106991001001999999001081MD1710191+9999REMSYN060AAXX  05091 35173 42996 60904 10278 20139 40113 57019 80008;
0143351730999992000090512004+51610+069800FM-12+031299999V0200901N002019999999N0040001N1+02821+01611101021ADDGF106991001001999999001061MA1999999097611MD1710101+9999REMSYN076AAXX  05121 35173 42996 60902 10282 20161 39761 40102 57010 80006 555 10033;
0165351730999992000090515004+51610+069800FM-12+031299999V0200901N002019999999N0200001N1+02101+01121101101ADDAA199000091GF105991001001999999001061KA1999M+03031MD1710011+9999REMSYN070AAXX  05151 35173 32998 50902 10210 20112 40110 57001 80006 333 10303;EQDQ01  00002PRCP99
0165351730999992000090518004+51610+069800FM-12+031299999V0200901N006012200019N0200001N1+01601+00761101151ADDAA199000091GF102991001001999999001061KA1999M+03031MD1710021+9999REMSYN070AAXX  05181 35173 32998 20906 10160 20076 40115 57002 80006 333 10303;EQDQ01  00002PRCP99
0122351730999992000090521004+51610+069800FM-12+031299999V0200901N006012200019N0200001N1+01481+00561101011ADDGA1001+999999999GF100991001001999999001001MD1710141+9999REMSYN054AAXX  05211 35173 42998 00906 10148 20056 40101 57014;
0153351730999992000090600004+51610+069800FM-12+031299999V0200501N006012200019N0200001N1+01241+00381100961ADDGA1001+999999999GF100991001001999999001001MA1999999097351MD1710091+9999REMSYN070AAXX  06001 35173 42998 00506 10124 20038 39735 40096 57009 555 10011;
0182351730999992000090603004+51610+069800FM-12+031299999V0200701N006012200019N0040001N1+01361+00431100931ADDAA199000091GF102991001001999999001041IA1019IA2999+01009MD1710011+9999REMSYN082AAXX  06031 35173 32996 20706 10136 20043 40093 57001 80004 555 20122 30010 7000/;EQDQ01  00002PRCP99
0165351730999992000090606004+51610+069800FM-12+031299999V0200701N004012200019N0040001N1+02401+01201100721ADDAA199000091GF104991001001999999001021KA1999N+01221MD1710061+9999REMSYN070AAXX  06061 35173 32996 40704 10240 20120 40072 57006 80002 333 20122;EQDQ01  00002PRCP99
0112351730999992000090609004+51610+069800FM-12+031299999V0201101N008019999999N0040001N1+03001-00192100581ADDGF106991001001999999001061MD1710091+9999REMSYN060AAXX  06091 35173 42996 61108 10300 21019 40058 57009 80006;
0143351730999992000090612004+51610+069800FM-12+031299999V0200901N004019999999N0040001N1+02941-00171100571ADDGF106991001001999999001061MA1999999097171MD1710021+9999REMSYN076AAXX  06121 35173 42996 60904 10294 21017 39717 40057 57002 80006 555 10032;
0165351730999992000090615004+51610+069800FM-12+031299999V0200701N004019999999N0200001N1+02301-00331100731ADDAA199000091GF105991001001999999001081KA1999M+03201MD1310091+9999REMSYN070AAXX  06151 35173 32998 50704 10230 21033 40073 53009 80008 333 10320;EQDQ01  00002PRCP99
0165351730999992000090618004+51610+069800FM-12+031299999V0200701N004012200019N0200001N1+01891-00071100881ADDAA199000091GF102991001001999999001021KA1999M+03201MD1210101+9999REMSYN070AAXX  06181 35173 32998 20704 10189 21007 40088 52010 80002 333 10320;EQDQ01  00002PRCP99
0122351730999992000090621004+51610+069800FM-12+031299999V0200701N004012200019N0200001N1+01541-00051100891ADDGA1001+999999999GF100991001001999999001001MD1810041+9999REMSYN054AAXX  06211 35173 42998 00704 10154 21005 40089 58004;
0143351730999992000090700004+51610+069800FM-12+031299999V0200501N004012200019N0200001N1+01301+00111100981ADDGF102991001001999999001061MA1999999097381MD1310061+9999REMSYN076AAXX  07001 35173 42998 20504 10130 20011 39738 40098 53006 80006 555 10011;
0192351730999992000090703004+51610+069800FM-12+031299999V0200501N002012200019N0040001N1+01411+00111101131ADDAA199000091GA1001+999999999GF100991001001999999001001IA1019IA2999+01009MD1210161+9999REMSYN076AAXX  07031 35173 32996 00502 10141 20011 40113 52016 555 20126 30010 7000/;EQDQ01  00002PRCP99
0165351730999992000090706004+51610+069800FM-12+031299999V0200501N004012200019N0040001N1+02421+00151101121ADDAA199000091GF101991001001999999001011KA1999N+01261MD1210111+9999REMSYN070AAXX  07061 35173 32996 10504 10242 20015 40112 52011 80001 333 20126;EQDQ01  00002PRCP99
0112351730999992000090709004+51610+069800FM-12+031299999V0200701N004012200019N0040001N1+02691-00471101141ADDGF101991001001999999001011MD1210041+9999REMSYN060AAXX  07091 35173 42996 10704 10269 21047 40114 52004 80001;
0153351730999992000090712004+51610+069800FM-12+031299999V0203601N002012200019N0040001N1+02661-00021101181ADDGA1001+999999999GF100991001001999999001001MA1999999097731MD1210041+9999REMSYN070AAXX  07121 35173 42996 03602 10266 21002 39773 40118 52004 555 10034;
0175351730999992000090715004+51610+069800FM-12+031299999V0200501N002012200019N0200001N1+02181+00111101381ADDAA199000091GA1001+999999999GF100991001001999999001001KA1999M+02851MD1210151+9999REMSYN064AAXX  07151 35173 32998 00502 10218 20011 40138 52015 333 10285;EQDQ01  00002PRCP99
0175351730999992000090718004+51610+069800FM-12+031299999V0200701N004012200019N0200001N1+01661+00291101631ADDAA199000091GA1001+999999999GF100991001001999999001001KA1999M+02851MD1210181+9999REMSYN064AAXX  07181 35173 32998 00704 10166 20029 40163 52018 333 10285;EQDQ01  00002PRCP99
0122351730999992000090721004+51610+069800FM-12+031299999V0200701N002012200019N0200001N1+01401+00091101801ADDGA1001+999999999GF100991001001999999001001MD1210121+9999REMSYN054AAXX  07211 35173 42998 00702 10140 20009 40180 52012;
0153351730999992000090800004+51610+069800FM-12+031299999V0200901N002012200019N0200001N1+00901+00171102071ADDGA1001+999999999GF100991001001999999001001MA1999999098381MD1210201+9999REMSYN070AAXX  08001 35173 42998 00902 10090 20017 39838 40207 52020 555 10007;
0182351730999992000090803004+51610+069800FM-12+031299999V0209999C000012200019N0040001N1+01651+00451102131ADDAA199000091GF102991001001999999001011IA1019IA2999+00609MD1210151+9999REMSYN082AAXX  08031 35173 32996 20000 10165 20045 40213 52015 80001 555 20084 30006 7000/;EQDQ01  00002PRCP99
0165351730999992000090806004+51610+069800FM-12+031299999V0201401N002012200019N0040001N1+02531+00341102101ADDAA199000091GF102991001001999999001011KA1999N+00841MD1210081+9999REMSYN070AAXX  08061 35173 32996 21402 10253 20034 40210 52008 80001 333 20084;EQDQ01  00002PRCP99
0122351730999992000090809004+51610+069800FM-12+031299999V0201401N002012200019N0040001N1+02661+00171102051ADDGA1001+999999999GF100991001001999999001001MD1810041+9999REMSYN054AAXX  08091 35173 42996 01402 10266 20017 40205 58004;
0153351730999992000090812004+51610+069800FM-12+031299999V0209999C000012200019N0040001N1+02791+00401102001ADDGA1001+999999999GF100991001001999999001001MA1999999098541MD1710031+9999REMSYN070AAXX  08121 35173 42996 00000 10279 20040 39854 40200 57003 555 10037;
0175351730999992000090815004+51610+069800FM-12+031299999V0200701N002012200019N0200001N1+02141+00461102131ADDAA199000091GA1001+999999999GF100991001001999999001001KA1999M+02901MD1310051+9999REMSYN064AAXX  08151 35173 32998 00702 10214 20046 40213 53005 333 10290;EQDQ01  00002PRCP99
0175351730999992000090818004+51610+069800FM-12+031299999V0200901N002012200019N0200001N1+01821+00151102151ADDAA199000091GA1001+999999999GF100991001001999999001001KA1999M+02901MD1810021+9999REMSYN064AAXX  08181 35173 32998 00902 10182 20015 40215 58002 333 10290;EQDQ01  00002PRCP99
0122351730999992000090821004+51610+069800FM-12+031299999V0201401N002012200019N0200001N1+01541+00271102131ADDGA1001+999999999GF100991001001999999001001MD1710051+9999REMSYN054AAXX  08211 35173 42998 01402 10154 20027 40213 57005;
0153351730999992000090900004+51610+069800FM-12+031299999V0201401N002012200019N0200001N1+01281+00251102141ADDGA1001+999999999GF100991001001999999001001MA1999999098501MD1710021+9999REMSYN070AAXX  09001 35173 42998 01402 10128 20025 39850 40214 57002 555 10009;
0192351730999992000090903004+51610+069800FM-12+031299999V0201801N002012200019N0040001N1+01591+00131102061ADDAA199000091GA1001+999999999GF100991001001999999001001IA1019IA2999+00909MD1710041+9999REMSYN076AAXX  09031 35173 32996 01802 10159 20013 40206 57004 555 20122 30009 7000/;EQDQ01  00002PRCP99
0165351730999992000090906004+51610+069800FM-12+031299999V0202301N004012200019N0040001N1+02661-00121101801ADDAA199000091GF102991001001999999001011KA1999N+01221MD1710131+9999REMSYN070AAXX  09061 35173 32996 22304 10266 21012 40180 57013 80001 333 20122;EQDQ01  00002PRCP99
0112351730999992000090909004+51610+069800FM-12+031299999V0202701N004012200019N0040001N1+03021-00501101501ADDGF102991001001999999001011MD1710241+9999REMSYN060AAXX  09091 35173 42996 22704 10302 21050 40150 57024 80001;
0143351730999992000090912004+51610+069800FM-12+031299999V0202701N004012200019N0040001N1+03051-00941101331ADDGF102991001001999999001081MA1999999097921MD1710171+9999REMSYN076AAXX  09121 35173 42996 22704 10305 21094 39792 40133 57017 80008 555 10036;
0165351730999992000090915004+51610+069800FM-12+031299999V0202301N002012200019N0200001N1+02381-00571101401ADDAA199000091GF103991001001999999001021KA1999M+03241MD1710011+9999REMSYN070AAXX  09151 35173 32998 32302 10238 21057 40140 57001 80002 333 10324;EQDQ01  00002PRCP99
0165351730999992000090918004+51610+069800FM-12+031299999V0201601N002019999999N0200001N1+01701-00471101341ADDAA199000091GF105991001001999999001011KA1999M+03241MD1710151+9999REMSYN070AAXX  09181 35173 32998 51602 10170 21047 40134 57015 80001 333 10324;EQDQ01  00002PRCP99
0122351730999992000090921004+51610+069800FM-12+031299999V0201601N002012200019N0200001N1+01481-00091101191ADDGA1001+999999999GF100991001001999999001001MD1710161+9999REMSYN054AAXX  09211 35173 42998 01602 10148 21009 40119 57016;
0143351730999992000091000004+51610+069800FM-12+031299999V0201801N002012200019N0200001N1+01371-00331101141ADDGF102991001001999999001011MA1999999097541MD1710061+9999REMSYN076AAXX  10001 35173 42998 21802 10137 21033 39754 40114 57006 80001 555 10009;
0182351730999992000091003004+51610+069800FM-12+031299999V0201601N002019999999N0040001N1+01711-00271101031ADDAA199000091GF108991081001999999071999IA1019IA2999+00909MD1710061+9999REMSYN082AAXX  10031 35173 32996 81602 10171 21027 40103 57006 8807/ 555 20135 30009 7000/;EQDQ01  00002PRCP99
0165351730999992000091006004+51610+069800FM-12+031299999V0202301N002010075019N0040001N1+02551-00571100911ADDAA199000091GF107991071051008001001001KA1999N+01351MD1710021+9999REMSYN070AAXX  10061 35173 32596 72302 10255 21057 40091 57002 87500 333 20135;EQDQ01  00002PRCP99
0112351730999992000091009004+51610+069800FM-12+031299999V0202001N004010075019N0040001N1+02921-00471100691ADDGF107991071051008001001001MD1710181+9999REMSYN060AAXX  10091 35173 42596 72004 10292 21047 40069 57018 87500;
0143351730999992000091012004+51610+069800FM-12+031299999V0202301N006010120019N0040001N1+02951-00091100471ADDGF106991061081008001001001MA1999999097081MD1710201+9999REMSYN076AAXX  10121 35173 42596 62306 10295 21009 39708 40047 57020 86800 555 10030;
0165351730999992000091015004+51610+069800FM-12+031299999V0202001N004010300019N0200001N1+02681-00361100411ADDAA199000091GF105991021041008001071001KA1999M+03121MD1710101+9999REMSYN070AAXX  10151 35173 32598 52004 10268 21036 40041 57010 82470 333 10312;EQDQ01  00002PRCP99
0165351730999992000091018004+51610+069800FM-12+031299999V0202701N002012200019N0200001N1+01761+00551100581ADDAA199000091GF103991031001999999031001KA1999M+03121MD1310081+9999REMSYN070AAXX  10181 35173 32998 32702 10176 20055 40058 53008 83030 333 10312;EQDQ01  00002PRCP99
0112351730999992000091021004+51610+069800FM-12+031299999V0202701N002012200019N0200001N1+01271+00711100651ADDGF103991031001999999081001MD1210011+9999REMSYN060AAXX  10211 35173 42998 32702 10127 20071 40065 52001 83080;
0143351730999992000091100004+51610+069800FM-12+031299999V0202701N002012200019N0200001N1+00981+00641100671ADDGF103991031001999999081001MA1999999097051MD1810021+9999REMSYN076AAXX  11001 35173 42998 32702 10098 20064 39705 40067 58002 83080 555 10008;
0182351730999992000091103004+51610+069800FM-12+031299999V0202301N002019999999N0040001N1+01111+00681100721ADDAA199000091GF105991001001999999001081IA1019IA2999+00809MD1310061+9999REMSYN082AAXX  11031 35173 32996 52302 10111 20068 40072 53006 80008 555 20095 30008 7000/;EQDQ01  00002PRCP99
0165351730999992000091106004+51610+069800FM-12+031299999V0202901N004012200019N0040001N1+01881+00811100601ADDAA199000091GF103991011001999999031061KA1999N+00951MD1810021+9999REMSYN070AAXX  11061 35173 32996 32904 10188 20081 40060 58002 81036 333 20095;EQDQ01  00002PRCP99
0112351730999992000091109004+51610+069800FM-12+031299999V0202501N006012200019N0040001N1+02151+00581100471ADDGF106991031021008001001061MD1710091+9999REMSYN060AAXX  11091 35173 42596 62506 10215 20058 40047 57009 83206;
0143351730999992000091112004+51610+069800FM-12+031299999V0202701N006010300019N0040001N1+02061+00611100451ADDGF108991031071008001011999MA1999999096971MD1710031+9999REMSYN076AAXX  11121 35173 42596 82706 10206 20061 39697 40045 57003 8371/ 555 10024;
0165351730999992000091115004+51610+069800FM-12+031299999V0202701N004019999999N0200001N1+01621+00861100661ADDAA199000091GF108991081001999999071999KA1999M+02351MD1310141+9999REMSYN070AAXX  11151 35173 32998 82704 10162 20086 40066 53014 8807/ 333 10235;EQDQ01  00002PRCP99
0165351730999992000091118004+51610+069800FM-12+031299999V0202701N002019999999N0200001N1+01201+00771100731ADDAA199000091GF107991001001999999001011KA1999M+02351MD1210021+9999REMSYN070AAXX  11181 35173 32998 72702 10120 20077 40073 52002 80001 333 10235;EQDQ01  00002PRCP99
0112351730999992000091121004+51610+069800FM-12+031299999V0209999C000010075019N0200001N1+00941+00861100631ADDGF105991051051008001001001MD1810121+9999REMSYN060AAXX  11211 35173 42598 50000 10094 20086 40063 58012 85500;
0143351730999992000091200004+51610+069800FM-12+031299999V0209999C000010075019N0200001N1+00981+00851100661ADDGF108991081051008001999999MA1999999097041MD1310031+9999REMSYN076AAXX  12001 35173 42598 80000 10098 20085 39704 40066 53003 885// 555 10009;
0182351730999992000091203004+51610+069800FM-12+031299999V0201801N002010075019N0040001N1+01261+00941100561ADDAA199000091GF106991061021008001061001IA1019IA2999+00809MD1810061+9999REMSYN082AAXX  12031 35173 32596 61802 10126 20094 40056 58006 86260 555 20090 30008 7000/;EQDQ01  00002PRCP99
0193351730999992000091206004+51610+069800FM-12+031299999V0209999C000010075019N0040001N1+01241+01061100591ADDAA199000091AY191061AY281061GF108991081091008001999999KA1999N+00901MD1710031+9999MW1291REMSYN076AAXX  12061 35173 31596 80000 10124 20106 40059 57003 72998 889// 333 20090;EQDQ01  00002PRCP99
0140351730999992000091209004+51610+069800FM-12+031299999V0202701N004010075019N0040001N1+01741+00921100461ADDAY191031AY281031GF106991061021008001001001MD1710071+9999MW1021REMSYN066AAXX  12091 35173 41596 62704 10174 20092 40046 57007 70298 86200;
0171351730999992000091212004+51610+069800FM-12+031299999V0202701N004010075019N0040001N1+01681+00701100721ADDAY191061AY281061GF106991061021008001001001MA1999999097181MD1310241+9999MW1021REMSYN082AAXX  12121 35173 41596 62704 10168 20070 39718 40072 53024 70298 86200 555 11016;
0145351730999992000091215004+51610+069800FM-12+031299999V0203601N002010300019N0200001N1+01181+00621101141ADDGF105991031041008001031001KA1120M+01851MD1210341+9999REMSYN080AAXX  12151 35173 /2598 53602 10118 20062 40114 52034 83430 333 10185 555 60062;
0162351730999992000091218004+51610+069800FM-12+031299999V0209999C000012200019N0200001N1+00761+00621101401ADDAA100006191GA1001+999999999GF100991001001999999001001KA1999M+01851MD1210201+9999REMSYN070AAXX  12181 35173 12998 00000 10076 20062 40140 52020 60060 333 10185;
0122351730999992000091221004+51610+069800FM-12+031299999V0209999C000012200019N0200001N1+00511+00491101621ADDGA1001+999999999GF100991001001999999001001MD1210181+9999REMSYN054AAXX  12211 35173 42998 00000 10051 20049 40162 52018;
0153351730999992000091300004+51610+069800FM-12+031299999V0209999C000012200019N0200001N1+00481+00431101831ADDGA1001+999999999GF100991001001999999001001MA1999999098101MD1210201+9999REMSYN070AAXX  13001 35173 42998 00000 10048 20043 39810 40183 52020 555 11002;
0192351730999992000091303004+51610+069800FM-12+031299999V0201801N002012200019N0040001N1+00841+00671101911ADDAA199000091GA1001+999999999GF100991001001999999001001IA1019IA2999+00109MD1210131+9999REMSYN076AAXX  13031 35173 32996 01802 10084 20067 40191 52013 555 20045 30001 7000/;EQDQ01  00002PRCP99
0165351730999992000091306004+51610+069800FM-12+031299999V0201801N002012200019N0040001N1+01581+00681101911ADDAA199000091GF102991001001999999001011KA1999N+00451MD1210081+9999REMSYN070AAXX  13061 35173 32996 21802 10158 20068 40191 52008 80001 333 20045;EQDQ01  00002PRCP99
0112351730999992000091309004+51610+069800FM-12+031299999V0201801N002019999999N0040001N1+01661+00771101851ADDGF106991061001012501001021MD1810041+9999REMSYN060AAXX  13091 35173 42696 61802 10166 20077 40185 58004 86002;
0143351730999992000091312004+51610+069800FM-12+031299999V0201801N002010075019N0040001N1+02031+00411101711ADDGF105991051041008001001001MA1999999098171MD1710101+9999REMSYN076AAXX  13121 35173 42596 51802 10203 20041 39817 40171 57010 85400 555 10028;
0165351730999992000091315004+51610+069800FM-12+031299999V0201401N002019999999N0200001N1+01501+00581101761ADDAA199000091GF105991051001999999041001KA1999M+02201MD1710011+9999REMSYN070AAXX  13151 35173 32998 51402 10150 20058 40176 57001 85040 333 10220;EQDQ01  00002PRCP99
0181351730999992000091318004+51610+069800FM-12+031299999V0201401N004012200019N0200001N1+01341+00481101681ADDAA199000091GF103991001001999999001061KA1999M+02201MD1710101+9999REMSYN070AAXX  13181 35173 32998 31404 10134 20048 40168 57010 83006 333 10220;EQDQ01+000032SCOTLCQ02  00002PRCP99
0153351730999992000091400004+51610+069800FM-12+031299999V0201401N004012200019N0200001N1+01081+00361101371ADDGA1001+999999999GF100991001001999999001001MA1999999097731MD1710171+9999REMSYN070AAXX  14001 35173 42998 01404 10108 20036 39773 40137 57017 555 10008;
0182351730999992000091403004+51610+069800FM-12+031299999V0201601N004019999999N0040001N1+01411+00301100971ADDAA199000091GF105991001001999999001061IA1019IA2999+00809MD1710331+9999REMSYN082AAXX  14031 35173 32996 51604 10141 20030 40097 57033 80006 555 20106 30008 7000/;EQDQ01  00002PRCP99
0181351730999992000091406004+51610+069800FM-12+031299999V0201801N002019999999N0040001N1+01981+00561100691ADDAA199000091GF106991001001999999001061KA1999N+01061MD1710211+9999REMSYN070AAXX  14061 35173 32996 61802 10198 20056 40069 57021 86006 333 20106;EQDQ01+000062SCOTLCQ02  00002PRCP99
0112351730999992000091409004+51610+069800FM-12+031299999V0202001N004019999999N0040001N1+02441+00091100391ADDGF106991061001999999071051MD1710251+9999REMSYN060AAXX  14091 35173 42996 62004 10244 20009 40039 57025 86075;
0171351730999992000091412004+51610+069800FM-12+031299999V0202501N010010075019N0040001N1+01621+01452100481ADDAY181061AY221061GF108991081091008001999999MA1999999096951MD1310011+9999MW1801REMSYN082AAXX  14121 35173 41596 82510 10162 20145 39695 40048 53001 78082 889// 555 11017;
0173351730999992000091415004+51610+069800FM-12+031299999V0200901N002010075019N0010001N1+01331+01121100661ADDAY181031AY281031GF108991081091008001999999KA1120M+02591MD1210141+9999MW1801REMSYN086AAXX  14151 35173 /1594 80902 10133 20112 40066 52014 78088 889// 333 10259 555 60022;
0190351730999992000091418004+51610+069800FM-12+031299999V0202701N002012200019N0200001N1+01021+00901100901ADDAA100002091AY181061AY241061GA1001+999999999GF100991001001999999001001KA1999M+02591MD1210201+9999MW1011REMSYN076AAXX  14181 35173 11998 02702 10102 20090 40090 52020 60020 70184 333 10259;
0122351730999992000091421004+51610+069800FM-12+031299999V0202701N002012200019N0200001N1+00741+00561101061ADDGA1001+999999999GF100991001001999999001001MD1210101+9999REMSYN054AAXX  14211 35173 42998 02702 10074 20056 40106 52010;
0143351730999992000091500004+51610+069800FM-12+031299999V0202301N002012200019N0200001N1+00461+00311101181ADDGF102991021001999999081001MA1999999097461MD1210071+9999REMSYN076AAXX  15001 35173 42998 22302 10046 20031 39746 40118 52007 82080 555 11003;
0140351730999992000091503004+51610+069800FM-12+031299999V0202001N004012200019N0040001N1+00581+00441101271ADDGF103991021001999999041011MD1210111+9999REMSYN088AAXX  15031 35173 /2996 32004 10058 20044 40127 52011 82041 555 20032 31001 69932 7002/;
0152351730999992000091506004+51610+069800FM-12+031299999V0202501N008012200019N0040001N1+01251+00381101231ADDAA100000391GF102991001001999999001021KA1999N+00321MD1210041+9999REMSYN076AAXX  15061 35173 12996 22508 10125 20038 40123 52004 69930 80002 333 20032;
0112351730999992000091509004+51610+069800FM-12+031299999V0202701N010012200019N0040001N1+01561+00041101141ADDGF106991011011012501001061MD1810051+9999REMSYN060AAXX  15091 35173 42696 62710 10156 20004 40114 58005 81106;
0143351730999992000091512004+51610+069800FM-12+031299999V0202701N010012200019N0040001N1+01651-00071101101ADDGF102991021011012501001001MA1999999097531MD1710031+9999REMSYN076AAXX  15121 35173 42696 22710 10165 21007 39753 40110 57003 82100 555 10020;
0175351730999992000091515004+51610+069800FM-12+031299999V0202501N004012200019N0200001N1+01221+00001101141ADDAA199000091GA1001+999999999GF100991001001999999001001KA1999M+01801MD1710011+9999REMSYN064AAXX  15151 35173 32998 02504 10122 20000 40114 57001 333 10180;EQDQ01  00002PRCP99
0175351730999992000091518004+51610+069800FM-12+031299999V0202301N004012200019N0200001N1+00901+00151101321ADDAA199000091GA1001+999999999GF100991001001999999001001KA1999M+01801MD1310141+9999REMSYN064AAXX  15181 35173 32998 02304 10090 20015 40132 53014 333 10180;EQDQ01  00002PRCP99
0143351730999992000091521004+51610+069800FM-12+031299999V0202701N002019999999N0200001N1+00621+00281101511ADDGF106991061001999999031001MA1999999097801MD1210111+9999REMSYN076AAXX  15211 35173 42998 62702 10062 20028 39780 40151 52011 86030 555 10004;
0182351730999992000091603004+51610+069800FM-12+031299999V0202701N004012200019N0040001N1+00841+00381101631ADDAA199000091GF103991031001999999031001IA1019IA2999+00309MD1210141+9999REMSYN082AAXX  16031 35173 32996 32704 10084 20038 40163 52014 83030 555 20056 30003 7000/;EQDQ01  00002PRCP99
0181351730999992000091606004+51610+069800FM-12+031299999V0202001N006010075019N0040001N1+01161+00291101651ADDAA199000091GF108991999051008001021999KA1999N+00561MD1210081+9999REMSYN070AAXX  16061 35173 32596 82006 10116 20029 40165 52008 8852/ 333 20056;EQDQ01+000082SCOTLCQ02  00002PRCP99
0112351730999992000091609004+51610+069800FM-12+031299999V0202701N008010120019N0040001N1+01541+00361101621ADDGF107991071081008001001001MD1210011+9999REMSYN060AAXX  16091 35173 42596 72708 10154 20036 40162 52001 87800;
0143351730999992000091612004+51610+069800FM-12+031299999V0202901N006010075019N0040001N1+01551+00461101561ADDGF108991081051008001999999MA1999999097981MD1310051+9999REMSYN076AAXX  16121 35173 42596 82906 10155 20046 39798 40156 53005 885// 555 10016;
0165351730999992000091615004+51610+069800FM-12+031299999V0209999C000010075019N0200001N1+01321+00701101641ADDAA199000091GF106991061051008001001001KA1999M+01631MD1310041+9999REMSYN070AAXX  16151 35173 32598 60000 10132 20070 40164 53004 86500 333 10163;EQDQ01  00002PRCP99
0165351730999992000091618004+51610+069800FM-12+031299999V0209999C000019999999N0200001N1+00901+00641101801ADDAA199000091GF105991051001999999031001KA1999M+01631MD1210101+9999REMSYN070AAXX  16181 35173 32998 50000 10090 20064 40180 52010 85030 333 10163;EQDQ01  00002PRCP99
0112351730999992000091621004+51610+069800FM-12+031299999V0209999C000019999999N0200001N1+00901+00501101851ADDGF108991001001999999001071MD1210051+9999REMSYN060AAXX  16211 35173 42998 80000 10090 20050 40185 52005 80007;
0143351730999992000091700004+51610+069800FM-12+031299999V0201101N002019999999N0200001N1+01021+00251101811ADDGF107991071001999999051001MA1999999098141MD1810031+9999REMSYN076AAXX  17001 35173 42998 71102 10102 20025 39814 40181 58003 87050 555 10009;
0182351730999992000091703004+51610+069800FM-12+031299999V0209999C000010075019N0040001N1+00911+00531101921ADDAA199000091GF108991081051008001999999IA1019IA2999+00609MD1310101+9999REMSYN082AAXX  17031 35173 32596 80000 10091 20053 40192 53010 885// 555 20085 30006 7000/;EQDQ01  00002PRCP99
0165351730999992000091706004+51610+069800FM-12+031299999V0201401N002010075019N0040001N1+01371+00681101851ADDAA199000091GF108991081051008001999999KA1999N+00851MD1810011+9999REMSYN070AAXX  17061 35173 32596 81402 10137 20068 40185 58001 885// 333 20085;EQDQ01  00002PRCP99
0112351730999992000091709004+51610+069800FM-12+031299999V0201401N002010075019N0040001N1+02001+00481101481ADDGF107991071051008001001001MD1710271+9999REMSYN060AAXX  17091 35173 42596 71402 10200 20048 40148 57027 87500;
0143351730999992000091712004+51610+069800FM-12+031299999V0201801N002010075019N0040001N1+02141+00291101261ADDGF107991071051008001001001MA1999999097751MD1710211+9999REMSYN076AAXX  17121 35173 42596 71802 10214 20029 39775 40126 57021 87500 555 10022;
0165351730999992000091715004+51610+069800FM-12+031299999V0201401N002012200019N0200001N1+01731+00291101131ADDAA199000091GF102991021041008001001001KA1999M+02351MD1710171+9999REMSYN070AAXX  17151 35173 32598 21402 10173 20029 40113 57017 82400 333 10235;EQDQ01  00002PRCP99
0165351730999992000091718004+51610+069800FM-12+031299999V0201401N004019999999N0200001N1+01601+00191100881ADDAA199000091GF105991051001999999031001KA1999M+02351MD1710261+9999REMSYN070AAXX  17181 35173 32998 51404 10160 20019 40088 57026 85030 333 10235;EQDQ01  00002PRCP99
0112351730999992000091721004+51610+069800FM-12+031299999V0201401N002019999999N0200001N1+01481+00191100781ADDGF107991071001999999031001MD1710101+9999REMSYN060AAXX  17211 35173 42998 71402 10148 20019 40078 57010 87030;
0153351730999992000091800004+51610+069800FM-12+031299999V0202701N006012200019N0200001N1+01001+00561101001ADDGA1001+999999999GF100991001001999999001001MA1999999097361MD1310141+9999REMSYN070AAXX  18001 35173 42998 02706 10100 20056 39736 40100 53014 555 10008;
0192351730999992000091803004+51610+069800FM-12+031299999V0202701N004012200019N0040001N1+00661+00251101101ADDAA199000091GA1001+999999999GF100991001001999999001001IA1019IA2999+00709MD1210051+9999REMSYN076AAXX  18031 35173 32996 02704 10066 20025 40110 52005 555 20062 30007 7000/;EQDQ01  00002PRCP99
0165351730999992000091806004+51610+069800FM-12+031299999V0202501N006012200019N0040001N1+01121+00021100991ADDAA199000091GF102991001001999999001081KA1999N+00621MD1810041+9999REMSYN070AAXX  18061 35173 32996 22506 10112 20002 40099 58004 80008 333 20062;EQDQ01  00002PRCP99
0112351730999992000091809004+51610+069800FM-12+031299999V0202501N008012200019N0040001N1+01381-00361100821ADDGF104991011021008001031001MD1710141+9999REMSYN060AAXX  18091 35173 42596 42508 10138 21036 40082 57014 81230;
0143351730999992000091812004+51610+069800FM-12+031299999V0202701N006010120019N0040001N1+01421-00191100611ADDGF106991061081008001001001MA1999999097041MD1710191+9999REMSYN076AAXX  18121 35173 42596 62706 10142 21019 39704 40061 57019 86800 555 10019;
0165351730999992000091815004+51610+069800FM-12+031299999V0202301N002010075019N0200001N1+01071-00221100521ADDAA199000091GF107991071041008001001001KA1999M+01551MD1710141+9999REMSYN070AAXX  18151 35173 32598 72302 10107 21022 40052 57014 87400 333 10155;EQDQ01  00002PRCP99
0165351730999992000091818004+51610+069800FM-12+031299999V0202701N002010075019N0200001N1+00831+00171100441ADDAA199000091GF106991061051008001001001KA1999M+01551MD1710011+9999REMSYN070AAXX  18181 35173 32598 62702 10083 20017 40044 57001 86500 333 10155;EQDQ01  00002PRCP99
0112351730999992000091821004+51610+069800FM-12+031299999V0202501N002019999999N0200001N1+00441+00241100581ADDGF105991051001999999031001MD1710011+9999REMSYN060AAXX  18211 35173 42998 52502 10044 20024 40058 57001 85030;
0153351730999992000091900004+51610+069800FM-12+031299999V0202501N002012200019N0200001N1+00281+00091100611ADDGA1001+999999999GF100991001001999999001001MA1999999096891MD1310011+9999REMSYN070AAXX  19001 35173 42998 02502 10028 20009 39689 40061 53001 555 10001;
0182351730999992000091903004+51610+069800FM-12+031299999V0202301N004010075019N0040001N1+00331+00121100691ADDAA199000091GF106991061071008001011001IA1019IA2999-00109MD1210091+9999REMSYN082AAXX  19031 35173 32596 62304 10033 20012 40069 52009 86710 555 20010 30101 7000/;EQDQ01  00002PRCP99
0165351730999992000091906004+51610+069800FM-12+031299999V0202501N006010075019N0040001N1+00691+00491100701ADDAA199000091GF107991071071008001001001KA1999N+00101MD1210061+9999REMSYN070AAXX  19061 35173 32596 72506 10069 20049 40070 52006 87700 333 20010;EQDQ01  00002PRCP99
0112351730999992000091909004+51610+069800FM-12+031299999V0202701N006010075019N0040001N1+00781+00041100811ADDGF108991081071008001999999MD1210101+9999REMSYN060AAXX  19091 35173 42596 82706 10078 20004 40081 52010 887//;
0170351730999992000091912004+51610+069800FM-12+031299999V0202701N004019999999N0040001N1+00691+00281101021ADDAY181061AY221061GF107991999999004501999999MA1999999097351MD1210211+9999MW1801REMSYN081AAXX  19121 35173 41496 72704 10069 20028 39735 40102 52021 78082 8790 555 10008;
0173351730999992000091915004+51610+069800FM-12+031299999V0202901N004010075019N0200001N1+00581+00241101271ADDAY181031AY221031GF107991071051008001001001KA1120M+00951MD1210221+9999MW1021REMSYN086AAXX  19151 35173 /1598 72904 10058 20024 40127 52022 70282 87500 333 10095 555 69912;
0180351730999992000091918004+51610+069800FM-12+031299999V0202901N004010042019N0200001N1+00501+00201101571ADDAA100000191AY181061AY221061GF108991081071004501999999KA1999M+00951MD1210281+9999MW1021REMSYN082AAXX  19181 35173 11498 82904 10050 20020 40157 52028 69910 70282 887// 333 10095;
0112351730999992000091921004+51610+069800FM-12+031299999V0202701N006019999999N0200001N1+00441+00241101711ADDGF108991081001999999071999MD1210121+9999REMSYN060AAXX  19211 35173 42998 82706 10044 20024 40171 52012 8807/;
0143351730999992000092000004+51610+069800FM-12+031299999V0202901N004019999999N0200001N1+00421+00171101941ADDGF108991081001999999071999MA1999999098191MD1210221+9999REMSYN076AAXX  20001 35173 42998 82904 10042 20017 39819 40194 52022 8807/ 555 10003;
0182351730999992000092003004+51610+069800FM-12+031299999V0202901N006010075019N0040001N1+00461+00151102131ADDAA199000091GF107991071051008001001001IA1019IA2999+00309MD1210181+9999REMSYN082AAXX  20031 35173 32596 72906 10046 20015 40213 52018 87500 555 20037 30003 7991/;EQDQ01  00002PRCP99
0165351730999992000092006004+51610+069800FM-12+031299999V0202701N008012200019N0040001N1+00901-00251102181ADDAA199000091GF103991021011008001001081KA1999N+00371MD1210121+9999REMSYN070AAXX  20061 35173 32596 32708 10090 21025 40218 52012 82108 333 20037;EQDQ01  00002PRCP99
0112351730999992000092009004+51610+069800FM-12+031299999V0202901N006012200019N0040001N1+01291-00331102101ADDGF102991021011008001001001MD1810041+9999REMSYN060AAXX  20091 35173 42596 22906 10129 21033 40210 58004 82100;
0143351730999992000092012004+51610+069800FM-12+031299999V0202701N007012200019N0040001N1+01241-00141102101ADDGF103991021011008001001041MA1999999098451MD1410001+9999REMSYN076AAXX  20121 35173 42596 32707 10124 21014 39845 40210 54000 82104 555 10014;
0175351730999992000092015004+51610+069800FM-12+031299999V0209999C000012200019N0200001N1+00801+00041102141ADDAA199000091GA1001+999999999GF100991001001999999001001KA1999M+01361MD1810011+9999REMSYN064AAXX  20151 35173 32998 00000 10080 20004 40214 58001 333 10136;EQDQ01  00002PRCP99
0175351730999992000092018004+51610+069800FM-12+031299999V0202301N002012200019N0200001N1+00401-00091102231ADDAA199000091GA1001+999999999GF100991001001999999001001KA1999M+01361MD1310031+9999REMSYN064AAXX  20181 35173 32998 02302 10040 21009 40223 53003 333 10136;EQDQ01  00002PRCP99
0122351730999992000092021004+51610+069800FM-12+031299999V0202301N002012200019N0200001N1+00241-00161102231ADDGA1001+999999999GF100991001001999999001001MD1810021+9999REMSYN054AAXX  20211 35173 42998 02302 10024 21016 40223 58002;
0153351730999992000092100004+51610+069800FM-12+031299999V0209999C000012200019N0200001N1+00121-00301102191ADDGA1001+999999999GF100991001001999999001001MA1999999098401MD1710051+9999REMSYN070AAXX  21001 35173 42998 00000 10012 21030 39840 40219 57005 555 10102;
0192351730999992000092103004+51610+069800FM-12+031299999V0202501N002012200019N0040001N1+00631-00521102161ADDAA199000091GA1001+999999999GF100991001001999999001001IA1019IA2999-00209MD1310031+9999REMSYN076AAXX  21031 35173 32996 02502 10063 21052 40216 53003 555 20008 30102 7000/;EQDQ01  00002PRCP99
0175351730999992000092106004+51610+069800FM-12+031299999V0202501N008012200019N0040001N1+01321-00501101981ADDAA199000091GA1001+999999999GF100991001001999999001001KA1999N+00081MD1810081+9999REMSYN064AAXX  21061 35173 32996 02508 10132 21050 40198 58008 333 20008;EQDQ01  00002PRCP99
0112351730999992000092109004+51610+069800FM-12+031299999V0202701N008012200019N0040001N1+01671-00711101751ADDGF101991001001999999001011MD1710191+9999REMSYN060AAXX  21091 35173 42996 12708 10167 21071 40175 57019 80001;
0153351730999992000092112004+51610+069800FM-12+031299999V0202901N008012200019N0040001N1+01721-00031101661ADDGA1001+999999999GF100991001001999999001001MA1999999098091MD1710071+9999REMSYN070AAXX  21121 35173 42996 02908 10172 21003 39809 40166 57007 555 10022;
0175351730999992000092115004+51610+069800FM-12+031299999V0202301N002012200019N0200001N1+00871-00361101771ADDAA199000091GA1001+999999999GF100991001001999999001001KA1999M+01931MD1710011+9999REMSYN064AAXX  21151 35173 32998 02302 10087 21036 40177 57001 333 10193;EQDQ01  00002PRCP99
0175351730999992000092118004+51610+069800FM-12+031299999V0209999C000012200019N0200001N1+00421-00401101831ADDAA199000091GA1001+999999999GF100991001001999999001001KA1999M+01931MD1310011+9999REMSYN064AAXX  21181 35173 32998 00000 10042 21040 40183 53001 333 10193;EQDQ01  00002PRCP99
0122351730999992000092121004+51610+069800FM-12+031299999V0209999C000012200019N0200001N1+00261-00371101831ADDGA1001+999999999GF100991001001999999001001MD1810031+9999REMSYN054AAXX  21211 35173 42998 00000 10026 21037 40183 58003;
0153351730999992000092200004+51610+069800FM-12+031299999V0209999C000012200019N0200001N1+00181-00051101731ADDGA1001+999999999GF100991001001999999001001MA1999999097951MD1710111+9999REMSYN070AAXX  22001 35173 42998 00000 10018 21005 39795 40173 57011 555 10102;
0182351730999992000092203004+51610+069800FM-12+031299999V0202701N002010075019N0040001N1+00641+00201101731ADDAA199000091GF108991081051008001999999IA1019IA2999-00209MD1310071+9999REMSYN082AAXX  22031 35173 32596 82702 10064 20020 40173 53007 885// 555 20014 30102 7000/;EQDQ01  00002PRCP99
0165351730999992000092206004+51610+069800FM-12+031299999V0200501N004010300019N0040001N1+00781+00191101821ADDAA199000091GF108991021071008001011999KA1999N+00141MD1210111+9999REMSYN070AAXX  22061 35173 32596 80504 10078 20019 40182 52011 8271/ 333 20014;EQDQ01  00002PRCP99
0140351730999992000092209004+51610+069800FM-12+031299999V0200201N004010042019N0040001N1+00381+00231102111ADDAY151031AY221031GF108991081071004501999999MD1210221+9999MW1511REMSYN066AAXX  22091 35173 41496 80204 10038 20023 40211 52022 75152 887//;
0171351730999992000092212004+51610+069800FM-12+031299999V0200501N006010042019N0040001N1+00321+00171102281ADDAY151061AY221061GF108991081071004501999999MA1999999098511MD1210161+9999MW1021REMSYN082AAXX  22121 35173 41496 80506 10032 20017 39851 40228 52016 70252 887// 555 10006;
0192351730999992000092215004+51610+069800FM-12+031299999V0200501N002010042019N0010001N1+00091+00061102541ADDAY171031AY261031GF108991999071004501021999KA1120M+00851MD1210221+9999MW1711REMSYN086AAXX  22151 35173 /1494 80502 10009 20006 40254 52022 77176 8872/ 333 10085 555 60022;EQDQ01+000082SCOTLC
0180351730999992000092218004+51610+069800FM-12+031299999V0203601N002010042019N0200001N1+00101-00011102481ADDAA100002091AY171061AY261061GF108991081071004501999999KA1999M+00851MD1810051+9999MW1221REMSYN082AAXX  22181 35173 11498 83602 10010 21001 40248 58005 60020 72276 887// 333 10085;
0112351730999992000092221004+51610+069800FM-12+031299999V0209999C000019999999N0200001N1+00081+00031102541ADDGF108991081001999999021999MD1310031+9999REMSYN060AAXX  22211 35173 42998 80000 10008 20003 40254 53003 8802/;
0143351730999992000092300004+51610+069800FM-12+031299999V0209999C000019999999N0200001N1+00081+00051102541ADDGF108991081001999999021999MA1999999098711MD1410001+9999REMSYN076AAXX  23001 35173 42998 80000 10008 20005 39871 40254 54000 8802/ 555 11001;
0187351730999992000092303004+51610+069800FM-12+031299999V0201101N002010042019N0020001N1+00061+00011102441ADDAY171031AY221031GF108991999071004501021999MD1810091+9999MW1731REMSYN094AAXX  23031 35173 /1495 81102 10006 20001 40244 58009 77372 8872/ 555 20002 31000 69932 7002/;EQDQ01+000082SCOTLC
0199351730999992000092306004+51610+069800FM-12+031299999V0200901N002010042019N0020001N1+00181+00051102321ADDAA100000391AY171061AY221061GF108991999071004501021999KA1999N+00021MD1710101+9999MW1731REMSYN082AAXX  23061 35173 11495 80902 10018 20005 40232 57010 69930 77372 8872/ 333 20002;EQDQ01+000082SCOTLC
0159351730999992000092309004+51610+069800FM-12+031299999V0200901N002010075019N0040001N1+00261+00161102141ADDAY171031AY221031GF108991999071008001021999MD1710161+9999MW1021REMSYN066AAXX  23091 35173 41596 80902 10026 20016 40214 57016 70272 8872/;EQDQ01+000082SCOTLC
0171351730999992000092312004+51610+069800FM-12+031299999V0200901N002010042019N0020001N1+00381+00261101971ADDAY171061AY221061GF108991081071004501999999MA1999999098221MD1710141+9999MW1101REMSYN082AAXX  23121 35173 41495 80902 10038 20026 39822 40197 57014 71072 887// 555 12004;
0173351730999992000092315004+51610+069800FM-12+031299999V0200701N004010042019N0010001N1+00401+00351101851ADDAY121031AY221031GF108991081061004501999999KA1120M+00471MD1710121+9999MW1101REMSYN086AAXX  23151 35173 /1494 80704 10040 20035 40185 57012 71022 886// 333 10047 555 60022;
0180351730999992000092318004+51610+069800FM-12+031299999V0200501N004010021019N0010001N1+00381+00331101521ADDAA100002091AY121061AY221061GF108991081061002501999999KA1999M+00471MD1710311+9999MW1101REMSYN082AAXX  23181 35173 11394 80504 10038 20033 40152 57031 60020 71022 886// 333 10047;
0159351730999992000092321004+51610+069800FM-12+031299999V0200501N004010042019N0010001N1+00241+00221101501ADDAY161031AY221031GF108991999071004501021999MD1710051+9999MW1611REMSYN066AAXX  23211 35173 41494 80504 10024 20022 40150 57005 76162 8872/;EQDQ01+000082SCOTLC
0190351730999992000092400004+51610+069800FM-12+031299999V0200501N004010042019N0010001N1+00181+00151101361ADDAY161061AY221061GF108991999071004501021999MA1999999097611MD1710131+9999MW1611REMSYN082AAXX  24001 35173 41494 80504 10018 20015 39761 40136 57013 76162 8872/ 555 12002;EQDQ01+000082SCOTLC
0187351730999992000092403004+51610+069800FM-12+031299999V0200501N006010042019N0020001N1+00091+00041101241ADDAY161031AY261031GF108991999071004501021999MD1710131+9999MW1611REMSYN094AAXX  24031 35173 /1495 80506 10009 20004 40124 57013 76166 8872/ 555 20005 32001 60032 7005/;EQDQ01+000082SCOTLC
0180351730999992000092406004+51610+069800FM-12+031299999V0200501N006010075019N0040001N1+00161+00051101281ADDAA100003091AY171061AY261061GF108991081051008001999999KA1999N+00051MD1310041+9999MW1711REMSYN082AAXX  24061 35173 11596 80506 10016 20005 40128 53004 60030 77176 885// 333 20005;
0159351730999992000092409004+51610+069800FM-12+031299999V0200501N004010042019N0040001N1+00181+00131101231ADDAY171031AY261031GF108991999071004501021999MD1810041+9999MW1611REMSYN066AAXX  24091 35173 41496 80504 10018 20013 40123 58004 76176 8872/;EQDQ01+000082SCOTLC
0190351730999992000092412004+51610+069800FM-12+031299999V0200501N006010042019N0040001N1+00131+00051101221ADDAY171061AY261061GF108991999071004501021999MA1999999097461MD1710021+9999MW1711REMSYN082AAXX  24121 35173 41496 80506 10013 20005 39746 40122 57002 77176 8872/ 555 12003;EQDQ01+000082SCOTLC
0192351730999992000092415004+51610+069800FM-12+031299999V0200501N006010042019N0010001N1+00041-00021101121ADDAY171031AY271031GF108991999071004501021999KA1120M+00241MD1710111+9999MW1711REMSYN086AAXX  24151 35173 /1494 80506 10004 21002 40112 57011 77177 8872/ 333 10024 555 60042;EQDQ01+000082SCOTLC
0199351730999992000092418004+51610+069800FM-12+031299999V0200201N006010042019N0010001N1+00001-00061101091ADDAA100004191AY171061AY271061GF108991999071004501021999KA1999M+00241MD1710031+9999MW1711REMSYN082AAXX  24181 35173 11494 80206 10000 21006 40109 57003 60040 77177 8872/ 333 10024;EQDQ01+000082SCOTLC
0159351730999992000092421004+51610+069800FM-12+031299999V0200201N006010042019N0010001N1-00081-00141101011ADDAY171031AY271031GF108991999071004501021999MD1710091+9999MW1711REMSYN066AAXX  24211 35173 41494 80206 11008 21014 40101 57009 77177 8872/;EQDQ01+000082SCOTLC
0171351730999992000092500004+51610+069800FM-12+031299999V0200501N004010042019N0200001N1-00101-00171101111ADDAY171061AY221061GF108991081071004501999999MA1999999097311MD1310081+9999MW1021REMSYN082AAXX  25001 35173 41498 80504 11010 21017 39731 40111 53008 70272 887// 555 13102;
0178351730999992000092503004+51610+069800FM-12+031299999V0203601N002012200019N0040001N1-00201-00871101331ADDAA112004091AJ100039199999999GF103991031001999999031001IA1289MD1210201+9999REMSYN092AAXX  25031 35173 /2996 33602 11020 21087 40133 52020 83030 333 44003 555 21020 60042 7008/;
0152351730999992000092506004+51610+069800FM-12+031299999V0203601N006010075019N0040001N1+00131-00221101331ADDAA100004191GF106991061021008001001001KA1999N-00241MD1210061+9999REMSYN076AAXX  25061 35173 12596 63606 10013 21022 40133 52006 60040 86200 333 21024;
0112351730999992000092509004+51610+069800FM-12+031299999V0203601N006010075019N0040001N1+00181-00361101481ADDGF108991081041008001999999MD1210141+9999REMSYN060AAXX  25091 35173 42596 83606 10018 21036 40148 52014 884//;
0143351730999992000092512004+51610+069800FM-12+031299999V0200201N004010042019N0040001N1+00191-00351101651ADDGF108991081071004501999999MA1999999097881MD1210171+9999REMSYN076AAXX  25121 35173 42496 80204 10019 21035 39788 40165 52017 887// 555 1/002;
0165351730999992000092515004+51610+069800FM-12+031299999V0203601N002010075019N0200001N1+00061-00111101861ADDAA199000091GF108991081051008001999999KA1999M+00331MD1210181+9999REMSYN070AAXX  25151 35173 32598 83602 10006 21011 40186 52018 885// 333 10033;EQDQ01  00002PRCP99
0165351730999992000092518004+51610+069800FM-12+031299999V0203201N004010042019N0200001N1+00021-00151101941ADDAA199000091GF108991081061004501999999KA1999M+00331MD1210081+9999REMSYN070AAXX  25181 35173 32498 83204 10002 21015 40194 52008 886// 333 10033;EQDQ01  00002PRCP99
0112351730999992000092521004+51610+069800FM-12+031299999V0203201N004012200019N0200001N1-00151-00291102031ADDGF103991031061004501001001MD1210061+9999REMSYN060AAXX  25211 35173 42498 33204 11015 21029 40203 52006 83600;
0153351730999992000092600004+51610+069800FM-12+031299999V0209999C000012200019N0200001N1-00321-00461102231ADDGA1001+999999999GF100991001001999999001001MA1999999098361MD1210161+9999REMSYN070AAXX  26001 35173 42998 00000 11032 21046 39836 40223 52016 555 1/104;
0191351730999992000092603004+51610+069800FM-12+031299999V0202501N002012200019N0040001N1-00341-00511102351ADDAA199000091AJ100019199999999GF102991001001999999001041IA1259MD1210121+9999REMSYN086AAXX  26031 35173 32996 22502 11034 21051 40235 52012 80004 333 41001 555 21037 7000/;EQDQ01  00002PRCP99
0165351730999992000092606004+51610+069800FM-12+031299999V0202701N006012200019N0040001N1+00461-00351102201ADDAA199000091GF102991021001999999071051KA1999N-00371MD1810041+9999REMSYN070AAXX  26061 35173 32996 22706 10046 21035 40220 58004 82075 333 21037;EQDQ01  00002PRCP99
0112351730999992000092609004+51610+069800FM-12+031299999V0202301N008010075019N0040001N1+00721-00071102061ADDGF106991051021008001041001MD1710091+9999REMSYN060AAXX  26091 35173 42596 62308 10072 21007 40206 57009 85240;
0143351730999992000092612004+51610+069800FM-12+031299999V0202501N008010120019N0040001N1+00801-00121102021ADDGF106991061081008001001001MA1999999098321MD1710031+9999REMSYN076AAXX  26121 35173 42596 62508 10080 21012 39832 40202 57003 86800 555 11008;
0165351730999992000092615004+51610+069800FM-12+031299999V0202301N004010075019N0200001N1+00521+00111102261ADDAA199000091GF105991051041008001001001KA1999M+00971MD1310191+9999REMSYN070AAXX  26151 35173 32598 52304 10052 20011 40226 53019 85400 333 10097;EQDQ01  00002PRCP99
0175351730999992000092618004+51610+069800FM-12+031299999V0201801N002012200019N0200001N1+00271+00091102221ADDAA199000091GA1001+999999999GF100991001001999999001001KA1999M+00971MD1810071+9999REMSYN064AAXX  26181 35173 32998 01802 10027 20009 40222 58007 333 10097;EQDQ01  00002PRCP99
0122351730999992000092621004+51610+069800FM-12+031299999V0202301N004012200019N0200001N1+00301+00031102161ADDGA1001+999999999GF100991001001999999001001MD1710051+9999REMSYN054AAXX  26211 35173 42998 02304 10030 20003 40216 57005;
0153351730999992000092700004+51610+069800FM-12+031299999V0202001N004012200019N0200001N1+00091-00141102181ADDGA1001+999999999GF100991001001999999001001MA1999999098391MD1410001+9999REMSYN070AAXX  27001 35173 42998 02004 10009 21014 39839 40218 54000 555 14101;
0182351730999992000092703004+51610+069800FM-12+031299999V0202301N004019999999N0040001N1+00341-00231102191ADDAA199000091GF107991071001999999031001IA1099IA2999-00209MD1310031+9999REMSYN082AAXX  27031 35173 32996 72304 10034 21023 40219 53003 87030 555 20003 31102 7000/;EQDQ01  00002PRCP99
0165351730999992000092706004+51610+069800FM-12+031299999V0202001N006019999999N0040001N1+00701-00191102161ADDAA199000091GF106991061001999999031001KA1999N+00031MD1210031+9999REMSYN070AAXX  27061 35173 32996 62006 10070 21019 40216 52003 86030 333 20003;EQDQ01  00002PRCP99
0112351730999992000092709004+51610+069800FM-12+031299999V0202001N008019999999N0040001N1+00981-00361102001ADDGF108991021001999999071051MD1810141+9999REMSYN060AAXX  27091 35173 42996 82008 10098 21036 40200 58014 82075;
0143351730999992000092712004+51610+069800FM-12+031299999V0202001N004019999999N0040001N1+00901-00571101781ADDGF108991081001999999071999MA1999999098091MD1710221+9999REMSYN076AAXX  27121 35173 42996 82004 10090 21057 39809 40178 57022 8807/ 555 10009;
0165351730999992000092715004+51610+069800FM-12+031299999V0201401N002019999999N0200001N1+00641-00201101661ADDAA199000091GF108991081001999999071999KA1999M+01111MD1710041+9999REMSYN070AAXX  27151 35173 32998 81402 10064 21020 40166 57004 8807/ 333 10111;EQDQ01  00002PRCP99
0165351730999992000092718004+51610+069800FM-12+031299999V0201601N004010075019N0200001N1+00781-00441101501ADDAA199000091GF108991081051008001999999KA1999M+01111MD1710141+9999REMSYN070AAXX  27181 35173 32598 81604 10078 21044 40150 57014 885// 333 10111;EQDQ01  00002PRCP99
0112351730999992000092721004+51610+069800FM-12+031299999V0201801N004010075019N0200001N1+00701-00331101071ADDGF108991081051008001999999MD1710411+9999REMSYN060AAXX  27211 35173 42598 81804 10070 21033 40107 57041 885//;
0190351730999992000092800004+51610+069800FM-12+031299999V0202301N006010042019N0010001N1+00621+00381101041ADDAY161061AY221061GF108991999071004501021999MA1999999097351MD1710051+9999MW1611REMSYN082AAXX  28001 35173 41494 82306 10062 20038 39735 40104 57005 76162 8872/ 555 11005;EQDQ01+000082SCOTLC
0168351730999992000092803004+51610+069800FM-12+031299999V0201801N004010075019N0040001N1+00571+00301100771ADDAY161031AY221031GF108991081051008001999999MD1710261+9999MW1021REMSYN094AAXX  28031 35173 /1596 81804 10057 20030 40077 57026 70262 885// 555 20054 31004 69972 7997/;
0180351730999992000092806004+51610+069800FM-12+031299999V0201801N008012200019N0040001N1+01021+00131100611ADDAA100000891AY161061AY211061GF102991021001999999061001KA1999N+00541MD1710101+9999MW1011REMSYN082AAXX  28061 35173 11996 21808 10102 20013 40061 57010 69970 70161 82060 333 20054;
0112351730999992000092809004+51610+069800FM-12+031299999V0202501N010010075019N0040001N1+01021+00061100621ADDGF106991061021008001061001MD1310011+9999REMSYN060AAXX  28091 35173 42596 62510 10102 20006 40062 53001 86260;
0143351730999992000092812004+51610+069800FM-12+031299999V0202701N006012200019N0040001N1+00831-00471100841ADDGF102991021001999999061001MA1999999097181MD1210181+9999REMSYN076AAXX  28121 35173 42996 22706 10083 21047 39718 40084 52018 82060 555 11009;
0165351730999992000092815004+51610+069800FM-12+031299999V0202301N002012200019N0200001N1+00241-00361101021ADDAA199000091GF102991021001999999031001KA1999M+01201MD1210101+9999REMSYN070AAXX  28151 35173 32998 22302 10024 21036 40102 52010 82030 333 10120;EQDQ01  00002PRCP99
0175351730999992000092818004+51610+069800FM-12+031299999V0202701N004012200019N0200001N1+00081-00281101081ADDAA199000091GA1001+999999999GF100991001001999999001001KA1999M+01201MD1210031+9999REMSYN064AAXX  28181 35173 32998 02704 10008 21028 40108 52003 333 10120;EQDQ01  00002PRCP99
0122351730999992000092821004+51610+069800FM-12+031299999V0202701N002012200019N0200001N1-00121-00241101161ADDGA1001+999999999GF100991001001999999001001MD1210051+9999REMSYN054AAXX  28211 35173 42998 02702 11012 21024 40116 52005;
0143351730999992000092900004+51610+069800FM-12+031299999V0202301N004010075019N0200001N1+00121+00071101201ADDGF108991081051008001999999MA1999999097441MD1210081+9999REMSYN076AAXX  29001 35173 42598 82304 10012 20007 39744 40120 52008 885// 555 11001;
0187351730999992000092903004+51610+069800FM-12+031299999V0202301N002010042019N0040001N1+00041-00021101311ADDAY171031AY221031GF108991999071004501021999MD1210091+9999MW1711REMSYN094AAXX  29031 35173 /1496 82302 10004 21002 40131 52009 77172 8872/ 555 21014 31102 69902 7990/;EQDQ01+000082SCOTLC
0199351730999992000092906004+51610+069800FM-12+031299999V0202701N004010042019N0040001N1+00211+00161101491ADDAA100000791AY171061AY261061GF108991999071004501021999KA1999N-00141MD1210201+9999MW1611REMSYN082AAXX  29061 35173 11496 82704 10021 20016 40149 52020 69900 76176 8872/ 333 21014;EQDQ01+000082SCOTLC
0140351730999992000092909004+51610+069800FM-12+031299999V0202701N004010075019N0040001N1+00401+00251101621ADDAY171031AY261031GF108991081091008001999999MD1210161+9999MW1211REMSYN066AAXX  29091 35173 41596 82704 10040 20025 40162 52016 72176 889//;
0171351730999992000092912004+51610+069800FM-12+031299999V0202701N004010075019N0040001N1+00441+00221101901ADDAY181061AY221061GF107991071031008001001001MA1999999098161MD1210271+9999MW1021REMSYN082AAXX  29121 35173 41596 72704 10044 20022 39816 40190 52027 70282 87300 555 11006;
0173351730999992000092915004+51610+069800FM-12+031299999V0202701N002012200019N0200001N1+00151+00071102151ADDAY181031AY211031GF103991031041008001001001KA1120M+00521MD1210201+9999MW1011REMSYN086AAXX  29151 35173 /1598 32702 10015 20007 40215 52020 70181 83400 333 10052 555 60032;
0190351730999992000092918004+51610+069800FM-12+031299999V0202701N002012200019N0200001N1+00031-00051102301ADDAA100003091AY181061AY211061GA1001+999999999GF100991001001999999001001KA1999M+00521MD1210131+9999MW1021REMSYN076AAXX  29181 35173 11998 02702 10003 21005 40230 52013 60030 70281 333 10052;
0112351730999992000092921004+51610+069800FM-12+031299999V0209999C000019999999N0200001N1-00151-00201102361ADDGF108991001001999999001071MD1210021+9999REMSYN060AAXX  29211 35173 42998 80000 11015 21020 40236 52002 80007;
0143351730999992000093000004+51610+069800FM-12+031299999V0202301N002010075019N0200001N1+00141-00051102201ADDGF108991081051008001999999MA1999999098411MD1810101+9999REMSYN076AAXX  30001 35173 42598 82302 10014 21005 39841 40220 58010 885// 555 11000;
0168351730999992000093003004+51610+069800FM-12+031299999V0202001N004019999999N0040001N1+00121-00051102171ADDAY171031AY221031GF106991041001999999071051MD1710031+9999MW1011REMSYN094AAXX  30031 35173 /1996 62004 10012 21005 40217 57003 70172 84075 555 21017 31103 69902 7004/;
0180351730999992000093006004+51610+069800FM-12+031299999V0202501N006010750019N0040001N1+00481+00071102131ADDAA112000791AY171061AY221061GF106991021011008001081061KA1999N-00171MD1710011+9999MW1031REMSYN082AAXX  30061 35173 11596 62506 10048 20007 40213 57001 69902 70372 82186 333 21017;
0112351730999992000093009004+51610+069800FM-12+031299999V0202501N006010075019N0040001N1+00541+00081101991ADDGF107991071091008001001001MD1710111+9999REMSYN060AAXX  30091 35173 42596 72506 10054 20008 40199 57011 87900;
0171351730999992000093012004+51610+069800FM-12+031299999V0202701N006010075019N0040001N1+00621+00171101541ADDAY181061AY221061GF108991081091008001999999MA1999999098221MD1710041+9999MW1801REMSYN082AAXX  30121 35173 41596 82706 10062 20017 39822 40154 57004 78082 889// 555 11007;
0173351730999992000093015004+51610+069800FM-12+031299999V0202301N002010075019N0010001N1+00471+00401101881ADDAY181031AY221031GF108991081091008001999999KA1120M+00701MD1710071+9999MW1801REMSYN086AAXX  30151 35173 /1594 82302 10047 20040 40188 57007 78082 889// 333 10070 555 60012;
0180351730999992000093018004+51610+069800FM-12+031299999V0202001N002010075019N0010001N1+00501+00481101721ADDAA100001091AY181061AY211061GF108991081091008001999999KA1999M+00701MD1710151+9999MW1881REMSYN082AAXX  30181 35173 11594 82002 10050 20048 40172 57015 60010 78881 889// 333 10070;
0140351730999992000093021004+51610+069800FM-12+031299999V0201801N002010075019N0200001N1+00451+00401101651ADDAY181031AY221031GF108991081091008001999999MD1710091+9999MW1021REMSYN066AAXX  30211 35173 41598 81802 10045 20040 40165 57009 70282 889//;
0171351730999992000100100004+51610+069800FM-12+031299999V0202701N004010075019N0200001N1+00401+00401101661ADDAY181061AY221061GF108991081051008001999999MA1999999097921MD1310011+9999MW1021REMSYN082AAXX  01001 35173 41598 82704 10040 20040 39792 40166 53001 70282 885// 555 11004;
0168351730999992000100103004+51610+069800FM-12+031299999V0202701N002010042019N0040001N1+00461+00461101761ADDAY151031AY221031GF108991081061004501999999MD1210101+9999MW1101REMSYN094AAXX  01031 35173 /1496 82702 10046 20046 40176 52010 71052 886// 555 20036 31004 60042 7005/;
0199351730999992000100106004+51610+069800FM-12+031299999V0202701N002010075019N0040001N1+00561+00271101801ADDAA100004191AY151061AY221061GF108991999071008001021999KA1999N+00361MD1210061+9999MW1021REMSYN082AAXX  01061 35173 11596 82702 10056 20027 40180 52006 60040 70252 8872/ 333 20036;EQDQ01+000082SCOTLC
0131351730999992000100109004+51610+069800FM-12+031299999V0202701N004010075019N0040001N1+00681+00321101801ADDGF108991999071008001021999MD1210021+9999REMSYN060AAXX  01091 35173 42596 82704 10068 20032 40180 52002 8872/;EQDQ01+000082SCOTLC
0143351730999992000100112004+51610+069800FM-12+031299999V0202301N004010120019N0040001N1+00701+00401101861ADDGF107991071081008001001001MA1999999098161MD1210061+9999REMSYN076AAXX  01121 35173 42596 72304 10070 20040 39816 40186 52006 87800 555 11007;
0203351730999992000100115004+51610+069800FM-12+031299999V0209999C000010075019N0200001N1+00481+00281101951ADDAA199000091AY181031AY221031GF108991081061008001999999KA1120M+00851MD1210061+9999MW1021REMSYN086AAXX  01151 35173 31598 80000 10048 20028 40195 52006 70282 886// 333 10085 555 69992;EQDQ01  00002PRCP99
0180351730999992000100118004+51610+069800FM-12+031299999V0202301N002010075019N0200001N1+00441+00391102001ADDAA100001091AY181061AY221061GF108991081051008001999999KA1999M+00851MD1210031+9999MW1021REMSYN082AAXX  01181 35173 11598 82302 10044 20039 40200 52003 69990 70282 885// 333 10085;
0112351730999992000100121004+51610+069800FM-12+031299999V0203201N002010075019N0200001N1+00411+00301102081ADDGF108991081051008001999999MD1210071+9999REMSYN060AAXX  01211 35173 42598 83202 10041 20030 40208 52007 885//;
0143351730999992000100200004+51610+069800FM-12+031299999V0203201N002012200019N0200001N1+00081+00051102241ADDGF102991021001999999081001MA1999999098431MD1210111+9999REMSYN076AAXX  02001 35173 42998 23202 10008 20005 39843 40224 52011 82080 555 11000;
0182351730999992000100203004+51610+069800FM-12+031299999V0203601N002019999999N0040001N1+00141+00091102421ADDAA199000091GF107991071001999999081001IA1099IA2999-00209MD1210251+9999REMSYN082AAXX  02031 35173 32996 73602 10014 20009 40242 52025 87080 555 20004 31102 7999/;EQDQ01  00002PRCP99
0165351730999992000100206004+51610+069800FM-12+031299999V0200701N004012200019N0040001N1+00461+00131102401ADDAA199000091GF103991031011008001001001KA1999N+00041MD1810041+9999REMSYN070AAXX  02061 35173 32596 30704 10046 20013 40240 58004 83100 333 20004;EQDQ01  00002PRCP99
0112351730999992000100209004+51610+069800FM-12+031299999V0200501N004012200019N0040001N1+00801-00071102421ADDGF106991021011008001001011MD1310061+9999REMSYN060AAXX  02091 35173 42596 60504 10080 21007 40242 53006 82101;
0143351730999992000100212004+51610+069800FM-12+031299999V0200701N00401220001CN0040001N1+00711-00071102431ADDGF108991021041008001001041MA1999999098701MD1410001+9999REMSYN076AAXX  02121 35173 42596 80704 10071 21007 39870 40243 54000 82404 555 11009;
0165351730999992000100215004+51610+069800FM-12+031299999V0200701N004019999999N0200001N1+00501-00031102531ADDAA199000091GF108991031001999999071051KA1999M+00871MD1310081+9999REMSYN070AAXX  02151 35173 32998 80704 10050 21003 40253 53008 83075 333 10087;EQDQ01  00002PRCP99
0165351730999992000100218004+51610+069800FM-12+031299999V0200701N006012200019N0200001N1+00251-00111102601ADDAA199000091GF102991021001999999041001KA1999M+00871MD1210021+9999REMSYN070AAXX  02181 35173 32998 20706 10025 21011 40260 52002 82040 333 10087;EQDQ01  00002PRCP99
0122351730999992000100221004+51610+069800FM-12+031299999V0200901N006012200019N0200001N1+00101-00191102631ADDGA1001+999999999GF100991001001999999001001MD1210021+9999REMSYN054AAXX  02211 35173 42998 00906 10010 21019 40263 52002;
0153351730999992000100300004+51610+069800FM-12+031299999V0200901N006012200019N0200001N1+00021-00191102661ADDGA1001+999999999GF100991001001999999001001MA1999999098831MD1210011+9999REMSYN070AAXX  03001 35173 42998 00906 10002 21019 39883 40266 52001 555 11101;
0182351730999992000100303004+51610+069800FM-12+031299999V0200901N008019999999N0040001N1+00061-00301102611ADDAA199000091GF108991081001999999021999IA1099IA2999+00209MD1810051+9999REMSYN082AAXX  03031 35173 32996 80908 10006 21030 40261 58005 8802/ 555 21006 31002 7000/;EQDQ01  00002PRCP99
0165351730999992000100306004+51610+069800FM-12+031299999V0200901N008019999999N0040001N1+00321-00251102581ADDAA199000091GF108991081001999999071999KA1999N-00061MD1310021+9999REMSYN070AAXX  03061 35173 32996 80908 10032 21025 40258 53002 8807/ 333 21006;EQDQ01  00002PRCP99
0112351730999992000100309004+51610+069800FM-12+031299999V0200701N010010300019N0040001N1+00441-00231102571ADDGF108991021071004501011999MD1410001+9999REMSYN060AAXX  03091 35173 42496 80710 10044 21023 40257 54000 8271/;
0143351730999992000100312004+51610+069800FM-12+031299999V0200701N010019999999N0040001N1+00381-00311102561ADDGF108991081001999999071999MA1999999098781MD1810021+9999REMSYN076AAXX  03121 35173 42996 80710 10038 21031 39878 40256 58002 8807/ 555 11005;
0165351730999992000100315004+51610+069800FM-12+031299999V0200501N004012200019N0200001N1+00141-00341102641ADDAA199000091GF103991031001999999071001KA1999M+00561MD1310051+9999REMSYN070AAXX  03151 35173 32998 30504 10014 21034 40264 53005 83070 333 10056;EQDQ01  00002PRCP99
0175351730999992000100318004+51610+069800FM-12+031299999V0200501N004012200019N0200001N1-00021-00331102611ADDAA199000091GA1001+999999999GF100991001001999999001001KA1999M+00561MD1810061+9999REMSYN064AAXX  03181 35173 32998 00504 11002 21033 40261 58006 333 10056;EQDQ01  00002PRCP99
0112351730999992000100321004+51610+069800FM-12+031299999V0200501N002019999999N0200001N1-00051-00201102551ADDGF108991081001999999021999MD1710061+9999REMSYN060AAXX  03211 35173 42998 80502 11005 21020 40255 57006 8802/;
0143351730999992000100400004+51610+069800FM-12+031299999V0200201N004019999999N0200001N1+00001-00241102441ADDGF108991081001999999021999MA1999999098621MD1710091+9999REMSYN076AAXX  04001 35173 42998 80204 11000 21024 39862 40244 57009 8802/ 555 11100;
0182351730999992000100403004+51610+069800FM-12+031299999V0200501N004019999999N0040001N1+00001-00271102431ADDAA199000091GF108991081001999999021999IA1099IA2999-00209MD1710011+9999REMSYN082AAXX  04031 35173 32996 80504 10000 21027 40243 57001 8802/ 555 21012 31102 7000/;EQDQ01  00002PRCP99
0181351730999992000100406004+51610+069800FM-12+031299999V0200501N004019999999N0040001N1+00211-00161102301ADDAA199000091GF108991999021999999021999KA1999N-00121MD1710101+9999REMSYN070AAXX  04061 35173 32996 80504 10021 21016 40230 57010 8822/ 333 21012;EQDQ01+000082SCOTLCQ02  00002PRCP99
0111351730999992000100409004+51610+069800FM-12+031299999V0200901N004019999999N0040001N1+00381-00081102181ADDGF108991999999008001999999MD1710101+9999REMSYN059AAXX  04091 35173 42596 80904 10038 21008 40218 57010 885/;
0143351730999992000100412004+51610+069800FM-12+031299999V0200501N002010075019N0040001N1+00331-00111102151ADDGF108991081051008001999999MA1999999098381MD1710031+9999REMSYN076AAXX  04121 35173 42596 80502 10033 21011 39838 40215 57003 885// 555 11004;
0165351730999992000100415004+51610+069800FM-12+031299999V0200501N004010075019N0200001N1+00181-00131102181ADDAA199000091GF108991081051008001999999KA1999M+00441MD1310011+9999REMSYN070AAXX  04151 35173 32598 80504 10018 21013 40218 53001 885// 333 10044;EQDQ01  00002PRCP99
0165351730999992000100418004+51610+069800FM-12+031299999V0200201N002010042019N0200001N1+00121-00171102221ADDAA199000091GF108991081061004501999999KA1999M+00441MD1210041+9999REMSYN070AAXX  04181 35173 32498 80202 10012 21017 40222 52004 886// 333 10044;EQDQ01  00002PRCP99
0112351730999992000100421004+51610+069800FM-12+031299999V0200501N002010042019N0200001N1+00101-00251102241ADDGF108991081061004501999999MD1210021+9999REMSYN060AAXX  04211 35173 42498 80502 10010 21025 40224 52002 886//;
0143351730999992000100500004+51610+069800FM-12+031299999V0200901N002010042019N0200001N1+00021-00251102301ADDGF108991081071004501999999MA1999999098491MD1210041+9999REMSYN076AAXX  05001 35173 42498 80902 10002 21025 39849 40230 52004 887// 555 11100;
0182351730999992000100503004+51610+069800FM-12+031299999V0200901N004010075019N0040001N1-00041-00191102441ADDAA199000091GF108991081051008001999999IA1099IA2999-00109MD1210121+9999REMSYN082AAXX  05031 35173 32596 80904 11004 21019 40244 52012 885// 555 21008 31101 7000/;EQDQ01  00002PRCP99
0165351730999992000100506004+51610+069800FM-12+031299999V0200501N004010075019N0040001N1-00021-00331102541ADDAA199000091GF108991081071008001999999KA1999N-00081MD1210091+9999REMSYN070AAXX  05061 35173 32596 80504 11002 21033 40254 52009 887// 333 21008;EQDQ01  00002PRCP99
0140351730999992000100509004+51610+069800FM-12+031299999V0200501N004019999999N0040001N1-00051-00321102651ADDAY171031AY221031GF108991081001999999021999MD1210111+9999MW1711REMSYN066AAXX  05091 35173 41996 80504 11005 21032 40265 52011 77172 8802/;
0171351730999992000100512004+51610+069800FM-12+031299999V0200901N004019999999N0040001N1-00101-00291102811ADDAY171061AY221061GF108991081001999999021999MA1999999098951MD1210141+9999MW1711REMSYN082AAXX  05121 35173 41996 80904 11010 21029 39895 40281 52014 77172 8802/ 555 11100;
0173351730999992000100515004+51610+069800FM-12+031299999V0200501N004019999999N0010001N1-00261-00291102931ADDAY171031AY271031GF108991081001999999021999KA1120M+00051MD1210111+9999MW1711REMSYN086AAXX  05151 35173 /1994 80504 11026 21029 40293 52011 77177 8802/ 333 10005 555 60012;
0180351730999992000100518004+51610+069800FM-12+031299999V0200201N004019999999N0010001N1-00281-00281102921ADDAA100001091AY171061AY271061GF108991081001999999021999KA1999M+00051MD1810011+9999MW1711REMSYN082AAXX  05181 35173 11994 80204 11028 21028 40292 58001 60010 77177 8802/ 333 10005;
0140351730999992000100521004+51610+069800FM-12+031299999V0200501N004019999999N0010001N1-00221-00251102901ADDAY171031AY271031GF108991081001999999021999MD1710021+9999MW1711REMSYN066AAXX  05211 35173 41994 80504 11022 21025 40290 57002 77177 8802/;
0171351730999992000100600004+51610+069800FM-12+031299999V0200501N002019999999N0010001N1-00201-00331102881ADDAY171061AY271061GF108991081001999999021999MA1999999099011MD1710021+9999MW1711REMSYN082AAXX  06001 35173 41994 80502 11020 21033 39901 40288 57002 77177 8802/ 555 1/102;
0206351730999992000100603004+51610+069800FM-12+031299999V0200501N004019999999N0040001N1-00231-00321103011ADDAA112003091AJ100029199999999AY171031AY271031GF108991081001999999021999IA1239MD1310121+9999MW1711REMSYN098AAXX  06031 35173 /1996 80504 11023 21032 40301 53012 77177 8802/ 333 47002 555 21032 60032 7004/;
0180351730999992000100606004+51610+069800FM-12+031299999V0200501N004010750019N0040001N1-00021-00601103121ADDAA100003091AY171061AY221061GF106991021011012501051061KA1999N-00321MD1210141+9999MW1021REMSYN082AAXX  06061 35173 11696 60504 11002 21060 40312 52014 60030 70272 82156 333 21032;
0112351730999992000100609004+51610+069800FM-12+031299999V0200501N004010120019N0040001N1+00181-00591103141ADDGF108991081081008001999999MD1210041+9999REMSYN060AAXX  06091 35173 42596 80504 10018 21059 40314 52004 888//;
0143351730999992000100612004+51610+069800FM-12+031299999V0200201N002010075019N0040001N1+00141-00731103241ADDGF107991071051008001001001MA1999999099411MD1210101+9999REMSYN076AAXX  06121 35173 42596 70202 10014 21073 39941 40324 52010 87500 555 11002;
0145351730999992000100615004+51610+069800FM-12+031299999V0200501N004010075019N0200001N1-00021-00701103301ADDGF107991071051008001001001KA1120M+00271MD1210031+9999REMSYN080AAXX  06151 35173 /2598 70504 11002 21070 40330 52003 87500 333 10027 555 69902;
0152351730999992000100618004+51610+069800FM-12+031299999V0203601N002019999999N0200001N1-00071-00671103411ADDAA100000791GF108991081001999999071999KA1999M+00271MD1210101+9999REMSYN076AAXX  06181 35173 12998 83602 11007 21067 40341 52010 69900 8807/ 333 10027;
0112351730999992000100621004+51610+069800FM-12+031299999V0203601N002019999999N0200001N1-00151-00711103421ADDGF108991081001999999021999MD1810011+9999REMSYN060AAXX  06211 35173 42998 83602 11015 21071 40342 58001 8802/;
0143351730999992000100700004+51610+069800FM-12+031299999V0203201N004019999999N0200001N1-00201-00701103381ADDGF108991081001999999021999MA1999999099491MD1710041+9999REMSYN076AAXX  07001 35173 42998 83204 11020 21070 39949 40338 57004 8802/ 555 14103;
0196351730999992000100703004+51610+069800FM-12+031299999V0202901N002019999999N0020001N1-00441-00571103331ADDAA112000391AJ100019199999999AY171031AY221031GF108991081001999999021999IA1239MD1710081+9999MW1731REMSYN088AAXX  07031 35173 /1995 82902 11044 21057 40333 57008 77372 8802/ 333 47001 69932 7993/;
0180351730999992000100706004+51610+069800FM-12+031299999V0202701N002019999999N0040001N1-00261-00611103301ADDAA100000391AY171061AY221061GF108991081001999999021999KA1999N-00481MD1410001+9999MW1711REMSYN082AAXX  07061 35173 11996 82702 11026 21061 40330 54000 69930 77172 8802/ 333 21048;
0140351730999992000100709004+51610+069800FM-12+031299999V0203201N004010075019N0040001N1+00101-00431103201ADDAY171031AY221031GF108991081051008001999999MD1810061+9999MW1021REMSYN066AAXX  07091 35173 41596 83204 10010 21043 40320 58006 70272 885//;
0171351730999992000100712004+51610+069800FM-12+031299999V0202701N002010075019N0040001N1+00121-00171103251ADDAY181061AY271061GF108991081091008001999999MA1999999099421MD1310071+9999MW1261REMSYN082AAXX  07121 35173 41596 82702 10012 21017 39942 40325 53007 72687 889// 555 11001;
0173351730999992000100715004+51610+069800FM-12+031299999V0209999C000019999999N0200001N1-00161-00301103491ADDAY181031AY221031GF108991081001999999021999KA1120M+00231MD1210181+9999MW1021REMSYN086AAXX  07151 35173 /1998 80000 11016 21030 40349 52018 70282 8802/ 333 10023 555 69942;
0190351730999992000100718004+51610+069800FM-12+031299999V0209999C000012200019N0200001N1-00401-00521103671ADDAA100000591AY181061AY211061GA1001+999999999GF100991001001999999001001KA1999M+00231MD1210131+9999MW1021REMSYN076AAXX  07181 35173 11998 00000 11040 21052 40367 52013 69940 70281 333 10023;
0122351730999992000100721004+51610+069800FM-12+031299999V0209999C000012200019N0200001N1-00641-00721103831ADDGA1001+999999999GF100991001001999999001001MD1210131+9999REMSYN054AAXX  07211 35173 42998 00000 11064 21072 40383 52013;
0153351730999992000100800004+51610+069800FM-12+031299999V0209999C000012200019N0200001N1-00761-00811103921ADDGA1001+999999999GF100991001001999999001001MA1999999099931MD1210071+9999REMSYN070AAXX  08001 35173 42998 00000 11076 21081 39993 40392 52007 555 14106;
0192351730999992000100803004+51610+069800FM-12+031299999V0209999C000012200019N0040001N1-00701-00701104071ADDAA199000091GA1001+999999999GF100991001001999999001001IA1149IA2999-00809MD1210151+9999REMSYN076AAXX  08031 35173 32996 00000 11070 21070 40407 52015 555 21090 34108 7000/;EQDQ01  00002PRCP99
0165351730999992000100806004+51610+069800FM-12+031299999V0202701N002010120019N0040001N1+00021-00351104041ADDAA199000091GF106991051021012501051001KA1999N-00901MD1210081+9999REMSYN070AAXX  08061 35173 32696 62702 10002 21035 40404 52008 85250 333 21090;EQDQ01  00002PRCP99
0112351730999992000100809004+51610+069800FM-12+031299999V0202701N002010075019N0040001N1+00181-00711104001ADDGF106991061021008001001001MD1810021+9999REMSYN060AAXX  08091 35173 42596 62702 10018 21071 40400 58002 86200;
0143351730999992000100812004+51610+069800FM-12+031299999V0202301N002019999999N0040001N1+00191-00541103921ADDGF105991051001999999081001MA1999999100061MD1710081+9999REMSYN076AAXX  08121 35173 42996 52302 10019 21054 30006 40392 57008 85080 555 11001;
0165351730999992000100815004+51610+069800FM-12+031299999V0201801N002012200019N0200001N1-00201-00411103921ADDAA199000091GF102991001001999999001041KA1999M+00401MD1710051+9999REMSYN070AAXX  08151 35173 32998 21802 11020 21041 40392 57005 80004 333 10040;EQDQ01  00002PRCP99
0175351730999992000100818004+51610+069800FM-12+031299999V0201801N002012200019N0200001N1-00321-00491103891ADDAA199000091GA1001+999999999GF100991001001999999001001KA1999M+00401MD1710051+9999REMSYN064AAXX  08181 35173 32998 01802 11032 21049 40389 57005 333 10040;EQDQ01  00002PRCP99
0122351730999992000100821004+51610+069800FM-12+031299999V0201401N002012200019N0200001N1-00401-00521103841ADDGA1001+999999999GF100991001001999999001001MD1710061+9999REMSYN054AAXX  08211 35173 42998 01402 11040 21052 40384 57006;
0153351730999992000100900004+51610+069800FM-12+031299999V0201401N002012200019N0200001N1-00541-00611103841ADDGA1001+999999999GF100991001001999999001001MA1999999099881MD1710021+9999REMSYN070AAXX  09001 35173 42998 01402 11054 21061 39988 40384 57002 555 14106;
0182351730999992000100903004+51610+069800FM-12+031299999V0201801N002019999999N0040001N1-00441-00571103701ADDAA199000091GF105991001001999999001081IA1149IA2999-00709MD1710121+9999REMSYN082AAXX  09031 35173 32996 51802 11044 21057 40370 57012 80008 555 21058 34107 7000/;EQDQ01  00002PRCP99
0165351730999992000100906004+51610+069800FM-12+031299999V0201801N004019999999N0040001N1+00261-00231103481ADDAA199000091GF107991001001999999001081KA1999N-00581MD1710111+9999REMSYN070AAXX  09061 35173 32996 71804 10026 21023 40348 57011 80008 333 21058;EQDQ01  00002PRCP99
0112351730999992000100909004+51610+069800FM-12+031299999V0202301N004010750019N0040001N1+00651-00161103331ADDGF106991031011008001001081MD1710091+9999REMSYN060AAXX  09091 35173 42596 62304 10065 21016 40333 57009 83108;
0143351730999992000100912004+51610+069800FM-12+031299999V0201801N002010120019N0040001N1+00661-00181103281ADDGF105991051081008001001001MA1999999099511MD1710051+9999REMSYN076AAXX  09121 35173 42596 51802 10066 21018 39951 40328 57005 85800 555 11007;
0165351730999992000100915004+51610+069800FM-12+031299999V0201801N002010075019N0200001N1+00161-00221103351ADDAA199000091GF106991061051008001001001KA1999M+00801MD1410001+9999REMSYN070AAXX  09151 35173 32598 61802 10016 21022 40335 54000 86500 333 10080;EQDQ01  00002PRCP99
0165351730999992000100918004+51610+069800FM-12+031299999V0201601N002010075019N0200001N1+00111-00271103341ADDAA199000091GF107991071051008001001001KA1999M+00801MD1810011+9999REMSYN070AAXX  09181 35173 32598 71602 10011 21027 40334 58001 87500 333 10080;EQDQ01  00002PRCP99
0112351730999992000100921004+51610+069800FM-12+031299999V0201801N002010075019N0200001N1+00071-00221103321ADDGF108991081051008001999999MD1710031+9999REMSYN060AAXX  09211 35173 42598 81802 10007 21022 40332 57003 885//;
0143351730999992000101000004+51610+069800FM-12+031299999V0201801N002012200019N0200001N1-00161-00451103331ADDGF103991031001999999031001MA1999999099451MD1710021+9999REMSYN076AAXX  10001 35173 42998 31802 11016 21045 39945 40333 57002 83030 555 11102;
0182351730999992000101003004+51610+069800FM-12+031299999V0201601N002019999999N0040001N1-00101-00491103411ADDAA199000091GF107991071001012501031001IA1149IA2999-00209MD1310071+9999REMSYN082AAXX  10031 35173 32696 71602 11010 21049 40341 53007 87030 555 21020 34102 7000/;EQDQ01  00002PRCP99
0165351730999992000101006004+51610+069800FM-12+031299999V0201801N002019999999N0040001N1+00381-00421103371ADDAA199000091GF106991021001999999031061KA1999N-00201MD1210041+9999REMSYN070AAXX  10061 35173 32996 61802 10038 21042 40337 52004 82036 333 21020;EQDQ01  00002PRCP99
0112351730999992000101009004+51610+069800FM-12+031299999V0201601N004019999999N0040001N1+00701-00671103261ADDGF106991031001999999051021MD1810071+9999REMSYN060AAXX  10091 35173 42996 61604 10070 21067 40326 58007 83052;
0143351730999992000101012004+51610+069800FM-12+031299999V0200701N004019999999N0040001N1+00681-00751103191ADDGF106991031001999999031061MA1999999099421MD1710071+9999REMSYN076AAXX  10121 35173 42996 60704 10068 21075 39942 40319 57007 83036 555 10008;
0165351730999992000101015004+51610+069800FM-12+031299999V0200901N002019999999N0200001N1+00221-00981103241ADDAA199000091GF107991021001999999031061KA1999M+00861MD1410001+9999REMSYN070AAXX  10151 35173 32998 70902 10022 21098 40324 54000 82036 333 10086;EQDQ01  00002PRCP99
0165351730999992000101018004+51610+069800FM-12+031299999V0201401N002012200019N0200001N1+00001-00761103271ADDAA199000091GF103991001001999999001011KA1999M+00861MD1810011+9999REMSYN070AAXX  10181 35173 32998 31402 10000 21076 40327 58001 80001 333 10086;EQDQ01  00002PRCP99
0112351730999992000101021004+51610+069800FM-12+031299999V0200901N002019999999N0200001N1-00361-00681103211ADDGF105991001001999999001021MD1710111+9999REMSYN060AAXX  10211 35173 42998 50902 11036 21068 40321 57011 80002;
0153351730999992000101100004+51610+069800FM-12+031299999V0200701N002012200019N0200001N1-00431-00771103251ADDGA1001+999999999GF100991001001999999001001MA1999999099331MD1310031+9999REMSYN070AAXX  11001 35173 42998 00702 11043 21077 39933 40325 53003 555 14106;
0182351730999992000101103004+51610+069800FM-12+031299999V0200701N002019999999N0040001N1-00481-00681103091ADDAA199000091GF105991021001999999071051IA1149IA2999-00609MD1810151+9999REMSYN082AAXX  11031 35173 32996 50702 11048 21068 40309 58015 82075 555 21052 34106 7000/;EQDQ01  00002PRCP99
0165351730999992000101106004+51610+069800FM-12+031299999V0200901N002019999999N0040001N1+00221-00241102911ADDAA199000091GF106991001001999999001081KA1999N-00521MD1710081+9999REMSYN070AAXX  11061 35173 32996 60902 10022 21024 40291 57008 80008 333 21052;EQDQ01  00002PRCP99
0112351730999992000101109004+51610+069800FM-12+031299999V0200901N002012200019N0040001N1+00581-00401102751ADDGF103991001001999999001041MD1710111+9999REMSYN060AAXX  11091 35173 42996 30902 10058 21040 40275 57011 80004;
0143351730999992000101112004+51610+069800FM-12+031299999V0200901N002012200019N0040001N1+00641-00461102701ADDGF103991021001999999041041MA1999999098951MD1710041+9999REMSYN076AAXX  11121 35173 42996 30902 10064 21046 39895 40270 57004 82044 555 10006;
0175351730999992000101115004+51610+069800FM-12+031299999V0200901N002012200019N0200001N1+00101-00431102781ADDAA199000091GA1001+999999999GF100991001001999999001001KA1999M+00811MD1710011+9999REMSYN064AAXX  11151 35173 32998 00902 10010 21043 40278 57001 333 10081;EQDQ01  00002PRCP99
0175351730999992000101118004+51610+069800FM-12+031299999V0200901N004012200019N0200001N1-00081-00331102691ADDAA199000091GA1001+999999999GF100991001001999999001001KA1999M+00811MD1710091+9999REMSYN064AAXX  11181 35173 32998 00904 11008 21033 40269 57009 333 10081;EQDQ01  00002PRCP99
0112351730999992000101121004+51610+069800FM-12+031299999V0200901N002019999999N0200001N1-00201-00331102571ADDGF105991051001999999071001MD1710151+9999REMSYN060AAXX  11211 35173 42998 50902 11020 21033 40257 57015 85070;
0143351730999992000101200004+51610+069800FM-12+031299999V0209999C000012200019N0200001N1-00381-00501102411ADDGF102991021001999999071001MA1999999098531MD1710171+9999REMSYN076AAXX  12001 35173 42998 20000 11038 21050 39853 40241 57017 82070 555 14105;
0182351730999992000101203004+51610+069800FM-12+031299999V0203601N002012200019N0040001N1-00461-00551102451ADDAA199000091GF102991021001999999081001IA1149IA2999-00309MD1310031+9999REMSYN082AAXX  12031 35173 32996 23602 11046 21055 40245 53003 82080 555 21050 34103 7000/;EQDQ01  00002PRCP99
0165351730999992000101206004+51610+069800FM-12+031299999V0200501N002012200019N0040001N1+00241-00191102221ADDAA199000091GF102991001001999999001011KA1999N-00501MD1810121+9999REMSYN070AAXX  12061 35173 32996 20502 10024 21019 40222 58012 80001 333 21050;EQDQ01  00002PRCP99
0112351730999992000101209004+51610+069800FM-12+031299999V0200501N002019999999N0040001N1+00721-00171102061ADDGF106991041001999999041081MD1710091+9999REMSYN060AAXX  12091 35173 42996 60502 10072 21017 40206 57009 84048;
0143351730999992000101212004+51610+069800FM-12+031299999V0209999C000019999999N0040001N1+00821-00271101981ADDGF107991071001999999071001MA1999999098291MD1710061+9999REMSYN076AAXX  12121 35173 42996 70000 10082 21027 39829 40198 57006 87070 555 10008;
0165351730999992000101215004+51610+069800FM-12+031299999V0200701N002019999999N0200001N1+00561-00141101991ADDAA199000091GF108991081001999999071999KA1999M+00961MD1710031+9999REMSYN070AAXX  12151 35173 32998 80702 10056 21014 40199 57003 8807/ 333 10096;EQDQ01  00002PRCP99
0165351730999992000101218004+51610+069800FM-12+031299999V0200501N002019999999N0200001N1+00321-00121102021ADDAA199000091GF106991061001999999031001KA1999M+00961MD1410001+9999REMSYN070AAXX  12181 35173 32998 60502 10032 21012 40202 54000 86030 333 10096;EQDQ01  00002PRCP99
0112351730999992000101221004+51610+069800FM-12+031299999V0200501N002019999999N0200001N1+00041-00131101901ADDGF106991061001999999031001MD1810161+9999REMSYN060AAXX  12211 35173 42998 60502 10004 21013 40190 58016 86030;
0153351730999992000101300004+51610+069800FM-12+031299999V0209999C000012200019N0200001N1-00201-00261101911ADDGA1001+999999999GF100991001001999999001001MA1999999098071MD1710031+9999REMSYN070AAXX  13001 35173 42998 00000 11020 21026 39807 40191 57003 555 14102;
0192351730999992000101303004+51610+069800FM-12+031299999V0209999C000012200019N0040001N1-00241-00371101901ADDAA199000091GA1001+999999999GF100991001001999999001001IA1149IA2999-00309MD1710011+9999REMSYN076AAXX  13031 35173 32996 00000 11024 21037 40190 57001 555 21026 34103 7000/;EQDQ01  00002PRCP99
0175351730999992000101306004+51610+069800FM-12+031299999V0209999C000012200019N0040001N1+00481+00071101731ADDAA199000091GA1001+999999999GF100991001001999999001001KA1999N-00261MD1710071+9999REMSYN064AAXX  13061 35173 32996 00000 10048 20007 40173 57007 333 21026;EQDQ01  00002PRCP99
0122351730999992000101309004+51610+069800FM-12+031299999V0203601N002012200019N0040001N1+00831+00111101531ADDGA1001+999999999GF100991001001999999001001MD1710141+9999REMSYN054AAXX  13091 35173 42996 03602 10083 20011 40153 57014;
0153351730999992000101312004+51610+069800FM-12+031299999V0209999C000012200019N0040001N1+00821+00111101541ADDGA1001+999999999GF100991001001999999001001MA1999999097861MD1310011+9999REMSYN070AAXX  13121 35173 42996 00000 10082 20011 39786 40154 53001 555 11008;
0165351730999992000101315004+51610+069800FM-12+031299999V0209999C000010075019N0200001N1+00401+00141101601ADDAA199000091GF107991071041008001001001KA1999M+00961MD1210011+9999REMSYN070AAXX  13151 35173 32598 70000 10040 20014 40160 52001 87400 333 10096;EQDQ01  00002PRCP99
0175351730999992000101318004+51610+069800FM-12+031299999V0209999C000012200019N0200001N1-00101-00221101671ADDAA199000091GA1001+999999999GF100991001001999999001001KA1999M+00961MD1810021+9999REMSYN064AAXX  13181 35173 32998 00000 11010 21022 40167 58002 333 10096;EQDQ01  00002PRCP99
0112351730999992000101321004+51610+069800FM-12+031299999V0209999C000019999999N0200001N1+00211+00131101611ADDGF108991081001999999021999MD1410001+9999REMSYN060AAXX  13211 35173 42998 80000 10021 20013 40161 54000 8802/;
0143351730999992000101400004+51610+069800FM-12+031299999V0202701N002019999999N0200001N1+00011-00051101701ADDGF108991081001999999021999MA1999999097901MD1310051+9999REMSYN076AAXX  14001 35173 42998 82702 10001 21005 39790 40170 53005 8802/ 555 10002;
0210351730999992000101403004+51610+069800FM-12+031299999V0202701N002010042019N0020001N1-00091-00151101761ADDAA199000091AY101031AY221031GF108991081071004501999999IA1019IA2999-00109MD1210051+9999MW1101REMSYN088AAXX  14031 35173 31495 82702 11009 21015 40176 52005 71002 887// 555 21014 30101 7000/;EQDQ01  00002PRCP99
0203351730999992000101406004+51610+069800FM-12+031299999V0202701N002010012019N0020001N1+00061-00021101801ADDAA199000091AY141061AY221061GA1091+999999999GF109991091999999999999999KA1999N-00141MD1210051+9999MW1451REMSYN070AAXX  14061 35173 31/95 92702 10006 21002 40180 52005 74542 333 21014;EQDQ01  00002PRCP99
0140351730999992000101409004+51610+069800FM-12+031299999V0202701N002010042019N0040001N1+00251-00021101821ADDAY141031AY221031GF108991081071004501999999MD1210051+9999MW1021REMSYN066AAXX  14091 35173 41496 82702 10025 21002 40182 52005 70242 887//;
0171351730999992000101412004+51610+069800FM-12+031299999V0202701N004010075019N0040001N1+00291-00221101931ADDAY141061AY221061GF108991081071008001999999MA1999999098151MD1210101+9999MW1021REMSYN082AAXX  14121 35173 41596 82704 10029 21022 39815 40193 52010 70242 887// 555 10003;
0165351730999992000101415004+51610+069800FM-12+031299999V0202301N002010075019N0200001N1+00081-00281102031ADDAA199000091GF108991081051008001999999KA1999M+00361MD1210081+9999REMSYN070AAXX  14151 35173 32598 82302 10008 21028 40203 52008 885// 333 10036;EQDQ01  00002PRCP99
0174351730999992000101418004+51610+069800FM-12+031299999V0202301N002010075019N0010001N1+00001-00201102021ADDAA199000021AY171061AY221061GF108991081051008001999999KA1999M+00361MD1810011+9999MW1781REMSYN076AAXX  14181 35173 31594 82302 10000 21020 40202 58001 77872 885// 333 10036;
0140351730999992000101421004+51610+069800FM-12+031299999V0202301N002010075019N0200001N1-00021-00191102031ADDAY171031AY221031GF108991081051008001999999MD1410001+9999MW1021REMSYN066AAXX  14211 35173 41598 82302 11002 21019 40203 54000 70272 885//;
0190351730999992000101500004+51610+069800FM-12+031299999V0202701N002010042019N0010001N1-00041-00161102051ADDAY171061AY221061GF108991999071004501021999MA1999999098241MD1310021+9999MW1711REMSYN082AAXX  15001 35173 41494 82702 11004 21016 39824 40205 53002 77172 8872/ 555 1/100;EQDQ01+000082SCOTLC
0241351730999992000101503004+51610+069800FM-12+031299999V0202501N002010042019N0040001N1-00121-00251102121ADDAA112000491AJ199993999999999AY171031AY271031GF108991999071004501021999IA1239MD1210051+9999MW1711REMSYN098AAXX  15031 35173 /1496 82502 11012 21025 40212 52005 77177 8872/ 333 47997 555 21017 69942 7994/;EQDQ01+000082SCOTLCQ02  09982SNDP  
0180351730999992000101506004+51610+069800FM-12+031299999V0202501N002010075019N0040001N1+00081-00251102171ADDAA100000591AY181061AY271061GF107991071091008001001001KA1999N-00171MD1210071+9999MW1851REMSYN082AAXX  15061 35173 11596 72502 10008 21025 40217 52007 69940 78587 87900 333 21017;
0140351730999992000101509004+51610+069800FM-12+031299999V0202501N002010075019N0040001N1+00141-00341102131ADDAY181031AY221031GF108991081091008001999999MD1810021+9999MW1261REMSYN066AAXX  15091 35173 41596 82502 10014 21034 40213 58002 72682 889//;
0171351730999992000101512004+51610+069800FM-12+031299999V0202001N002010075019N0040001N1+00061-00051102191ADDAY181061AY221061GF108991081091008001999999MA1999999098381MD1310041+9999MW1851REMSYN082AAXX  15121 35173 41596 82002 10006 21005 39838 40219 53004 78582 889// 555 11001;
0173351730999992000101515004+51610+069800FM-12+031299999V0201801N002010075019N0200001N1-00041-00071102181ADDAY181031AY221031GF108991081051008001999999KA1120M+00281MD1810021+9999MW1021REMSYN086AAXX  15151 35173 /1598 81802 11004 21007 40218 58002 70282 885// 333 10028 555 69942;
0180351730999992000101518004+51610+069800FM-12+031299999V0201801N002019999999N0200001N1-00091-00131102281ADDAA100000591AY171061AY281061GF108991081001999999071999KA1999M+00281MD1310101+9999MW1021REMSYN082AAXX  15181 35173 11998 81802 11009 21013 40228 53010 69940 70278 8807/ 333 10028;
0112351730999992000101521004+51610+069800FM-12+031299999V0209999C000019999999N0200001N1-00141-00171102341ADDGF108991081001999999071999MD1310041+9999REMSYN060AAXX  15211 35173 42998 80000 11014 21017 40234 53004 8807/;
0171351730999992000101600004+51610+069800FM-12+031299999V0209999C000019999999N0010001N1-00111-00181102311ADDAY171061AY221061GF108991081001999999021999MA1999999098471MD1810031+9999MW1711REMSYN082AAXX  16001 35173 41994 80000 11011 21018 39847 40231 58003 77172 8802/ 555 1/103;
0206351730999992000101603004+51610+069800FM-12+031299999V0209999C000019999999N0040001N1-00101-00171102401ADDAA112002091AJ100019199999999AY171031AY221031GF108991081001999999021999IA1239MD1310081+9999MW1221REMSYN098AAXX  16031 35173 /1996 80000 11010 21017 40240 53008 72272 8802/ 333 47001 555 21017 60022 7002/;
0179351730999992000101606004+51610+069800FM-12+031299999V0202701N002010075019N0200001N1-00011-00251102481ADDAA100002091AY171061AY221061GF108991061021008001071999KA1999N-00171MD1210081+9999MW1021REMSYN081AAXX  16061 35173 11598 82702 11001 21025 40248 52008 6002070272 8627/ 333 21017;
0140351730999992000101609004+51610+069800FM-12+031299999V0202701N002010075019N0040001N1+00071-00161102451ADDAY181031AY221031GF108991081091008001999999MD1410001+9999MW1851REMSYN066AAXX  16091 35173 41596 82702 10007 21016 40245 54000 78582 889//;
0171351730999992000101612004+51610+069800FM-12+031299999V0202301N002010075019N0040001N1+00081-00251102571ADDAY181061AY221061GF108991081051008001999999MA1999999098741MD1310111+9999MW1021REMSYN082AAXX  16121 35173 41596 82302 10008 21025 39874 40257 53011 70282 885// 555 11001;
0173351730999992000101615004+51610+069800FM-12+031299999V0202701N002010075019N0010001N1-00081-00211102641ADDAY181031AY221031GF108991081091008001999999KA1120M+00251MD1210061+9999MW1851REMSYN086AAXX  16151 35173 /1594 82702 11008 21021 40264 52006 78582 889// 333 10025 555 69932;
0199351730999992000101618004+51610+069800FM-12+031299999V0202701N002010042019N0010001N1-00141-00251102701ADDAA100000391AY181061AY271061GF108991999071004501021999KA1999M+00251MD1210041+9999MW1711REMSYN082AAXX  16181 35173 11494 82702 11014 21025 40270 52004 69930 77187 8872/ 333 10025;EQDQ01+000082SCOTLC
0159351730999992000101621004+51610+069800FM-12+031299999V0202501N004010042019N0010001N1-00101-00231102771ADDAY171031AY221031GF108991999071004501021999MD1210071+9999MW1711REMSYN066AAXX  16211 35173 41494 82504 11010 21023 40277 52007 77172 8872/;EQDQ01+000082SCOTLC
0171351730999992000101700004+51610+069800FM-12+031299999V0202701N002010075019N0200001N1-00361-00541102891ADDAY171061AY221061GF107991071051008001001001MA1999999099001MD1210091+9999MW1021REMSYN082AAXX  17001 35173 41598 72702 11036 21054 39900 40289 52009 70272 87500 555 1/104;
0206351730999992000101703004+51610+069800FM-12+031299999V0202701N002010075019N0040001N1-00241-00401102941ADDAA112000391AJ100019199999999AY171031AY221031GF108991081051008001999999IA1239MD1210071+9999MW1711REMSYN098AAXX  17031 35173 /1596 82702 11024 21040 40294 52007 77172 885// 333 47001 555 21040 69932 7996/;
0180351730999992000101706004+51610+069800FM-12+031299999V0202301N004019999999N0040001N1-00111-00371102971ADDAA100000391AY171061AY221061GF108991081001999999021999KA1999N-00401MD1210031+9999MW1711REMSYN082AAXX  17061 35173 11996 82304 11011 21037 40297 52003 69930 77172 8802/ 333 21040;
0140351730999992000101709004+51610+069800FM-12+031299999V0202701N004019999999N0040001N1-00041-00191102981ADDAY171031AY221031GF108991081001999999021999MD1210031+9999MW1021REMSYN066AAXX  17091 35173 41996 82704 11004 21019 40298 52003 70272 8802/;
0171351730999992000101712004+51610+069800FM-12+031299999V0202701N004019999999N0040001N1+00081-00061103031ADDAY171061AY221061GF108991081001999999071999MA1999999099191MD1210061+9999MW1021REMSYN082AAXX  17121 35173 41996 82704 10008 21006 39919 40303 52006 70272 8807/ 555 11001;
0145351730999992000101715004+51610+069800FM-12+031299999V0202701N002019999999N0200001N1+00181+00051103071ADDGF108991081001999999071999KA1120M+00311MD1210061+9999REMSYN080AAXX  17151 35173 /2998 82702 10018 20005 40307 52006 8807/ 333 10031 555 69932;
0152351730999992000101718004+51610+069800FM-12+031299999V0209999C000019999999N0200001N1+00131+00051103171ADDAA100000391GF108991081001999999071999KA1999M+00311MD1210091+9999REMSYN076AAXX  17181 35173 12998 80000 10013 20005 40317 52009 69930 8807/ 333 10031;
0112351730999992000101721004+51610+069800FM-12+031299999V0209999C000019999999N0200001N1+00111+00081103191ADDGF108991081001999999071999MD1210021+9999REMSYN060AAXX  17211 35173 42998 80000 10011 20008 40319 52002 8807/;
0143351730999992000101800004+51610+069800FM-12+031299999V0209999C000019999999N0200001N1+00101+00071103191ADDGF108991081001999999021999MA1999999099361MD1410001+9999REMSYN076AAXX  18001 35173 42998 80000 10010 20007 39936 40319 54000 8802/ 555 11001;
0186351730999992000101803004+51610+069800FM-12+031299999V0203201N002010021019N0020001N1+00121+00091103261ADDAA199000091AY121031AY221031GF108991081061002501999999MD1310071+9999MW1101REMSYN082AAXX  18031 35173 31395 83202 10012 20009 40326 53007 71022 886// 555 20004 7993/;EQDQ01  00002PRCP99
0165351730999992000101806004+51610+069800FM-12+031299999V0203201N002010042019N0040001N1+00221+00061103331ADDAA199000091GF108991081071004501999999KA1999N+00041MD1210071+9999REMSYN070AAXX  18061 35173 32496 83202 10022 20006 40333 52007 887// 333 20004;EQDQ01  00002PRCP99
0112351730999992000101809004+51610+069800FM-12+031299999V0203201N002010075019N0040001N1+00301-00021103311ADDGF108991081071008001999999MD1410001+9999REMSYN060AAXX  18091 35173 42596 83202 10030 21002 40331 54000 887//;
0171351730999992000101812004+51610+069800FM-12+031299999V0209999C000010075019N0020001N1+00241+00081103221ADDAY121061AY221061GF107991071071008001001001MA1999999099401MD1810101+9999MW1101REMSYN082AAXX  18121 35173 41595 70000 10024 20008 39940 40322 58010 71022 87700 555 11003;
0165351730999992000101815004+51610+069800FM-12+031299999V0209999C000010075019N0200001N1+00161+00001103231ADDAA199000091GF107991071051008001001001KA1999M+00431MD1410001+9999REMSYN070AAXX  18151 35173 32598 70000 10016 21000 40323 54000 87500 333 10043;EQDQ01  00002PRCP99
0165351730999992000101818004+51610+069800FM-12+031299999V0203601N002010075019N0200001N1+00101-00041103261ADDAA199000091GF107991071051008001001001KA1999M+00431MD1310031+9999REMSYN070AAXX  18181 35173 32598 73602 10010 21004 40326 53003 87500 333 10043;EQDQ01  00002PRCP99
0112351730999992000101821004+51610+069800FM-12+031299999V0209999C000012200019N0200001N1-00101-00201103281ADDGF102991021001999999031001MD1810031+9999REMSYN060AAXX  18211 35173 42998 20000 11010 21020 40328 58003 82030;
0143351730999992000101900004+51610+069800FM-12+031299999V0209999C000010075019N0200001N1-00051-00201103201ADDGF108991081051008001999999MA1999999099341MD1710061+9999REMSYN076AAXX  19001 35173 42598 80000 11005 21020 39934 40320 57006 885// 555 14101;
0158351730999992000101903004+51610+069800FM-12+031299999V0209999C000010075019N0040001N1-00061-00181103241ADDAA199000091GF108991081051008001999999MD1310041+9999REMSYN076AAXX  19031 35173 32596 80000 11006 21018 40324 53004 885// 555 21012 7000/;EQDQ01  00002PRCP99
0165351730999992000101906004+51610+069800FM-12+031299999V0203601N002010075019N0040001N1+00261-00201103211ADDAA199000091GF106991051011008001031001KA1999N-00121MD1210011+9999REMSYN070AAXX  19061 35173 32596 63602 10026 21020 40321 52001 85130 333 21012;EQDQ01  00002PRCP99
0112351730999992000101909004+51610+069800FM-12+031299999V0202501N002010075019N0040001N1+00541-00381103011ADDGF106991061021008001001001MD1810151+9999REMSYN060AAXX  19091 35173 42596 62502 10054 21038 40301 58015 86200;
0143351730999992000101912004+51610+069800FM-12+031299999V0202901N004010075019N0040001N1+00421-00401102841ADDGF107991071051008001001001MA1999999099061MD1710181+9999REMSYN076AAXX  19121 35173 42596 72904 10042 21040 39906 40284 57018 87500 555 10006;
0165351730999992000101915004+51610+069800FM-12+031299999V0202301N002010075019N0200001N1-00041-00381102831ADDAA199000091GF106991061051008001001001KA1999M+00661MD1710081+9999REMSYN070AAXX  19151 35173 32598 62302 11004 21038 40283 57008 86500 333 10066;EQDQ01  00002PRCP99
0165351730999992000101918004+51610+069800FM-12+031299999V0202301N002010075019N0200001N1+00111-00341102591ADDAA199000091GF106991061051008001001001KA1999M+00661MD1710201+9999REMSYN070AAXX  19181 35173 32598 62302 10011 21034 40259 57020 86500 333 10066;EQDQ01  00002PRCP99
0122351730999992000101921004+51610+069800FM-12+031299999V0202301N004012200019N0200001N1+00021-00461102441ADDGA1001+999999999GF100991001001999999001001MD1710161+9999REMSYN054AAXX  19211 35173 42998 02304 10002 21046 40244 57016;
0153351730999992000102000004+51610+069800FM-12+031299999V0202301N002012200019N0200001N1-00261-00391102271ADDGA1001+999999999GF100991001001999999001001MA1999999098421MD1710201+9999REMSYN070AAXX  20001 35173 42998 02302 11026 21039 39842 40227 57020 555 14103;
0158351730999992000102003004+51610+069800FM-12+031299999V0202301N002012200019N0040001N1-00241-00421102151ADDAA199000091GF102991021001999999081001MD1710121+9999REMSYN076AAXX  20031 35173 32996 22302 11024 21042 40215 57012 82080 555 21030 7000/;EQDQ01  00002PRCP99
0165351730999992000102006004+51610+069800FM-12+031299999V0202501N006010120019N0040001N1+00301-00351101891ADDAA199000091GF106991051011012501031001KA1999N-00301MD1710171+9999REMSYN070AAXX  20061 35173 32696 62506 10030 21035 40189 57017 85130 333 21030;EQDQ01  00002PRCP99
0112351730999992000102009004+51610+069800FM-12+031299999V0202501N008010075019N0040001N1+00511-00391101601ADDGF108991081051008001999999MD1710251+9999REMSYN060AAXX  20091 35173 42596 82508 10051 21039 40160 57025 885//;
0143351730999992000102012004+51610+069800FM-12+031299999V0202501N006010075019N0040001N1+00461-00461101461ADDGF108991081051008001999999MA1999999097731MD1710151+9999REMSYN076AAXX  20121 35173 42596 82506 10046 21046 39773 40146 57015 885// 555 10004;
0165351730999992000102015004+51610+069800FM-12+031299999V0202701N006019999999N0200001N1+00361-00341101381ADDAA199000091GF108991081001999999071999KA1999M+00661MD1710071+9999REMSYN070AAXX  20151 35173 32998 82706 10036 21034 40138 57007 8807/ 333 10066;EQDQ01  00002PRCP99
0174351730999992000102018004+51610+069800FM-12+031299999V0202701N004010075019N0010001N1+00041-00021101341ADDAA199000021AY181061AY261061GF108991081091008001999999KA1999M+00661MD1710081+9999MW1851REMSYN076AAXX  20181 35173 31594 82704 10004 21002 40134 57008 78586 889// 333 10066;
0159351730999992000102021004+51610+069800FM-12+031299999V0202501N002010042019N0010001N1+00021-00011101251ADDAY181031AY271031GF108991999071004501021999MD1710081+9999MW1711REMSYN066AAXX  20211 35173 41494 82502 10002 21001 40125 57008 77187 8872/;EQDQ01+000082SCOTLC
0190351730999992000102100004+51610+069800FM-12+031299999V0202501N002010042019N0010001N1+00021-00011101321ADDAY171061AY271061GF108991999071004501021999MA1999999097541MD1310061+9999MW1711REMSYN082AAXX  21001 35173 41494 82502 10002 21001 39754 40132 53006 77177 8872/ 555 1/100;EQDQ01+000082SCOTLC
0206351730999992000102103004+51610+069800FM-12+031299999V0203601N008010075019N0040001N1-00511-00721101951ADDAA112002091AJ100019199999999AY171031AY221031GF108991081051008001999999IA1239MD1210531+9999MW1021REMSYN098AAXX  21031 35173 /1596 83608 11051 21072 40195 52053 70272 885// 333 47001 555 21055 60022 7002/;
0215351730999992000102106004+51610+069800FM-12+031299999V0203201N006019999999N0040001N1-00741-01081102461ADDAA100002091AY171061AY221061GF106991999051008001001001KA1999N+99999MD1210451+9999MW1711REMSYN082AAXX  21061 35173 11596 63206 11074 21108 40246 52045 60020 77172 88500 333 21055;EQDQ01+000082SCOTLCQ02 -00552ATMN  
0140351730999992000102109004+51610+069800FM-12+031299999V0203601N006012200019N0040001N1-00641-01191102821ADDAY171031AY221031GF103991031021008001001001MD1210371+9999MW1021REMSYN066AAXX  21091 35173 41596 33606 11064 21119 40282 52037 70272 83200;
0171351730999992000102112004+51610+069800FM-12+031299999V0203201N006012200019N0040001N1-00731-01321103201ADDAY171061AY211061GF103991031041008001001041MA1999999099241MD1210351+9999MW1021REMSYN082AAXX  21121 35173 41596 33206 11073 21132 39924 40320 52035 70271 83404 555 1/107;
0155351730999992000102115004+51610+069800FM-12+031299999V0203201N002012200019N0200001N1-01031-01311103521ADDGA1001+999999999GF100991001001999999001001KA1120M-00471MD1210341+9999REMSYN074AAXX  21151 35173 /2998 03202 11103 21131 40352 52034 333 11047 555 69902;
0162351730999992000102118004+51610+069800FM-12+031299999V0209999C000012200019N0200001N1-01311-01501103761ADDAA100000791GA1001+999999999GF100991001001999999001001KA1999M-00471MD1210191+9999REMSYN070AAXX  21181 35173 12998 00000 11131 21150 40376 52019 69900 333 11047;
0122351730999992000102121004+51610+069800FM-12+031299999V0209999C000012200019N0200001N1-01391-01591103931ADDGA1001+999999999GF100991001001999999001001MD1210151+9999REMSYN054AAXX  21211 35173 42998 00000 11139 21159 40393 52015;
0153351730999992000102200004+51610+069800FM-12+031299999V0209999C000012200019N0200001N1-01501-01701103951ADDGA1001+999999999GF100991001001999999001001MA1999999099841MD1410001+9999REMSYN070AAXX  22001 35173 42998 00000 11150 21170 39984 40395 54000 555 1/113;
0191351730999992000102203004+51610+069800FM-12+031299999V0202301N002019999999N0040001N1-01471-01601103981ADDAA199000091AJ100019199999999GF105991051001999999041001IA1239MD1310031+9999REMSYN086AAXX  22031 35173 32996 52302 11147 21160 40398 53003 85040 333 47001 555 21156 7990/;EQDQ01  00002PRCP99
0165351730999992000102206004+51610+069800FM-12+031299999V0202501N006012200019N0040001N1-00601-00951103961ADDAA199000091GF102991011011012501001021KA1999N-01561MD1210121+9999REMSYN070AAXX  22061 35173 32696 22506 11060 21095 40396 52012 81102 333 21156;EQDQ01  00002PRCP99
0131351730999992000102209004+51610+069800FM-12+031299999V0202301N004012200019N0040001N1-00301-01021999999ADDGF101991001001999999001011MD1810081+9999REMSYN060AAXX  22091 35173 42996 12304 11030 21102 40284 58008 80001;EQDQ01+102843APOSLP
0143351730999992000102212004+51610+069800FM-12+031299999V0202301N002012200019N0040001N1-00361-01061103751ADDGF102991021001999999041001MA1999999099821MD1710091+9999REMSYN076AAXX  22121 35173 42996 22302 11036 21106 39982 40375 57009 82040 555 1/105;
0165351730999992000102215004+51610+069800FM-12+031299999V0202001N002012200019N0200001N1-00671-01001103751ADDAA199000091GF102991021001999999041001KA1999M-00191MD1710041+9999REMSYN070AAXX  22151 35173 32998 22002 11067 21100 40375 57004 82040 333 11019;EQDQ01  00002PRCP99
0165351730999992000102218004+51610+069800FM-12+031299999V0202301N002019999999N0200001N1-00501-00951103691ADDAA199000091GF108991081001999999071999KA1999M-00191MD1710051+9999REMSYN070AAXX  22181 35173 32998 82302 11050 21095 40369 57005 8807/ 333 11019;EQDQ01  00002PRCP99
0112351730999992000102221004+51610+069800FM-12+031299999V0202301N002019999999N0200001N1-00421-00921103411ADDGF108991081001999999021999MD1710241+9999REMSYN060AAXX  22211 35173 42998 82302 11042 21092 40341 57024 8802/;
0143351730999992000102300004+51610+069800FM-12+031299999V0202001N002019999999N0200001N1-00401-00901103371ADDGF108991081001999999021999MA1999999099451MD1710041+9999REMSYN076AAXX  23001 35173 42998 82002 11040 21090 39945 40337 57004 8802/ 555 1/105;
0191351730999992000102303004+51610+069800FM-12+031299999V0202001N002019999999N0040001N1-00461-00811103301ADDAA199000091AJ100019199999999GF108991081001999999021999IA1229MD1710071+9999REMSYN086AAXX  23031 35173 32996 82002 11046 21081 40330 57007 8802/ 333 46001 555 21067 7000/;EQDQ01  00002PRCP99
0181351730999992000102306004+51610+069800FM-12+031299999V0201801N004019999999N0040001N1-00231-00821103261ADDAA199000091GF107991999001999999011999KA1999N-00671MD1710011+9999REMSYN070AAXX  23061 35173 32996 71804 11023 21082 40326 57001 8801/ 333 21067;EQDQ01+000082SCOTLCQ02  00002PRCP99
0112351730999992000102309004+51610+069800FM-12+031299999V0202301N004019999999N0040001N1+00021-00881103111ADDGF106991001001999999001081MD1710101+9999REMSYN060AAXX  23091 35173 42996 62304 10002 21088 40311 57010 80008;
0143351730999992000102312004+51610+069800FM-12+031299999V0202301N002019999999N0040001N1-00161-01081102951ADDGF107991001001999999001081MA1999999099091MD1710181+9999REMSYN076AAXX  23121 35173 42996 72302 11016 21108 39909 40295 57018 80008 555 14104;
0165351730999992000102315004+51610+069800FM-12+031299999V0201801N002012200019N0200001N1-00411-00831102901ADDAA199000091GF103991001001999999001081KA1999M+00161MD1710091+9999REMSYN070AAXX  23151 35173 32998 31802 11041 21083 40290 57009 80008 333 10016;EQDQ01  00002PRCP99
0175351730999992000102318004+51610+069800FM-12+031299999V0201801N002012200019N0200001N1-00561-00741102801ADDAA199000091GA1001+999999999GF100991001001999999001001KA1999M+00161MD1710121+9999REMSYN064AAXX  23181 35173 32998 01802 11056 21074 40280 57012 333 10016;EQDQ01  00002PRCP99
0122351730999992000102321004+51610+069800FM-12+031299999V0209999C000012200019N0200001N1-00661-00781102601ADDGA1001+999999999GF100991001001999999001001MD1710201+9999REMSYN054AAXX  23211 35173 42998 00000 11066 21078 40260 57020;
0153351730999992000102400004+51610+069800FM-12+031299999V0209999C000012200019N0200001N1-00721-01061102421ADDGA1001+999999999GF100991001001999999001001MA1999999098491MD1710191+9999REMSYN070AAXX  24001 35173 42998 00000 11072 21106 39849 40242 57019 555 14109;
0158351730999992000102403004+51610+069800FM-12+031299999V0201401N002012200019N0200001N1-00641-01001102221ADDAA199000091GF103991001001999999001081MD1710181+9999REMSYN076AAXX  24031 35173 32998 31402 11064 21100 40222 57018 80008 555 21074 7000/;EQDQ01  00002PRCP99
0175351730999992000102406004+51610+069800FM-12+031299999V0201801N002012200019N0040001N1-00141-00861101981ADDAA199000091GA1001+999999999GF100991001001999999001001KA1999N-00741MD1710161+9999REMSYN064AAXX  24061 35173 32996 01802 11014 21086 40198 57016 333 21074;EQDQ01  00002PRCP99
0122351730999992000102409004+51610+069800FM-12+031299999V0202301N002012200019N0040001N1+00281-00781101671ADDGA1001+999999999GF100991001001999999001001MD1710251+9999REMSYN054AAXX  24091 35173 42996 02302 10028 21078 40167 57025;
0153351730999992000102412004+51610+069800FM-12+031299999V0202301N002012200019N0040001N1+00141-00841101591ADDGA1001+999999999GF100991001001999999001001MA1999999097821MD1710081+9999REMSYN070AAXX  24121 35173 42996 02302 10014 21084 39782 40159 57008 555 14102;
0175351730999992000102415004+51610+069800FM-12+031299999V0201801N002012200019N0200001N1-00401-00811101621ADDAA199000091GA1001+999999999GF100991001001999999001001KA1999M+00411MD1710061+9999REMSYN064AAXX  24151 35173 32998 01802 11040 21081 40162 57006 333 10041;EQDQ01  00002PRCP99
0165351730999992000102418004+51610+069800FM-12+031299999V0201801N002019999999N0200001N1-00381-00791101631ADDAA199000091GF108991081001999999071999KA1999M+00411MD1310011+9999REMSYN070AAXX  24181 35173 32998 81802 11038 21079 40163 53001 8807/ 333 10041;EQDQ01  00002PRCP99
0140351730999992000102421004+51610+069800FM-12+031299999V0202301N002019999999N0010001N1-00361-00471101501ADDAY171031AY221031GF108991081001999999021999MD1810111+9999MW1711REMSYN066AAXX  24211 35173 41994 82302 11036 21047 40150 58011 77172 8802/;
0171351730999992000102500004+51610+069800FM-12+031299999V0202301N002019999999N0200001N1-00221-00341101431ADDAY171061AY221061GF108991081001999999021999MA1999999097611MD1710051+9999MW1221REMSYN082AAXX  25001 35173 41998 82302 11022 21034 39761 40143 57005 72272 8802/ 555 1/103;
0206351730999992000102503004+51610+069800FM-12+031299999V0202701N004019999999N0040001N1-00021-00171101411ADDAA112002091AJ100019199999999AY171031AY221031GF108991081001999999021999IA1239MD1310011+9999MW1021REMSYN098AAXX  25031 35173 /1996 82704 11002 21017 40141 53001 70272 8802/ 333 47001 555 21042 60022 7002/;
0131351730999992000102509004+51610+069800FM-12+031299999V0202301N008010075019N0040001N1+00221+00061101841ADDGF108991999071008001021999MD1210231+9999REMSYN060AAXX  25091 35173 42596 82308 10022 20006 40184 52023 8872/;EQDQ01+000082SCOTLC
0162351730999992000102512004+51610+069800FM-12+031299999V0202701N004010075019N0040001N1+00151+00011102121ADDGF108991999071008001021999MA1999999098331MD1210261+9999REMSYN076AAXX  25121 35173 42596 82704 10015 20001 39833 40212 52026 8872/ 555 11100;EQDQ01+000082SCOTLC
0155351730999992000102515004+51610+069800FM-12+031299999V0202701N002012200019N0200001N1-00141-00231102421ADDGA1001+999999999GF100991001001999999001001KA1120M+00331MD1210241+9999REMSYN074AAXX  25151 35173 /2998 02702 11014 21023 40242 52024 333 10033 555 69942;
0162351730999992000102518004+51610+069800FM-12+031299999V0202701N002012200019N0200001N1-00181-00261102561ADDAA100000591GA1001+999999999GF100991001001999999001001KA1999M+00331MD1210131+9999REMSYN070AAXX  25181 35173 12998 02702 11018 21026 40256 52013 69940 333 10033;
0112351730999992000102521004+51610+069800FM-12+031299999V0202501N002019999999N0200001N1-00141-00251102671ADDGF108991081001999999071999MD1210111+9999REMSYN060AAXX  25211 35173 42998 82502 11014 21025 40267 52011 8807/;
0171351730999992000102600004+51610+069800FM-12+031299999V0202701N002010075019N0010001N1-00121-00221102871ADDAY181061AY221061GF108991081091008001999999MA1999999099011MD1210201+9999MW1871REMSYN082AAXX  26001 35173 41594 82702 11012 21022 39901 40287 52020 78782 889// 555 1/102;
0162351730999992000102603004+51610+069800FM-12+031299999V0202701N002010075019N0040001N1-00101-00201103161ADDAY181031AY221031GF106991061051008001001001MD1210281+9999MW1011REMSYN088AAXX  26031 35173 /1596 62702 11010 21020 40316 52028 70182 86500 555 21022 69902 7994/;
0190351730999992000102606004+51610+069800FM-12+031299999V0203201N004012200019N0040001N1+00271-00421103281ADDAA100000791AY181061AY211061GA1001+999999999GF100991001001999999001001KA1999N-00221MD1210171+9999MW1011REMSYN076AAXX  26061 35173 11996 03204 10027 21042 40328 52017 69900 70181 333 21022;
0112351730999992000102609004+51610+069800FM-12+031299999V0202701N002012200019N0040001N1+00501-00441103331ADDGF102991021011012501001001MD1210071+9999REMSYN060AAXX  26091 35173 42696 22702 10050 21044 40333 52007 82100;
0143351730999992000102612004+51610+069800FM-12+031299999V0202501N002012200019N0040001N1+00421-00481103431ADDGF101991011001999999041001MA1999999099631MD1210101+9999REMSYN076AAXX  26121 35173 42996 12502 10042 21048 39963 40343 52010 81040 555 11002;
0175351730999992000102615004+51610+069800FM-12+031299999V0201801N002012200019N0200001N1-00101-00381103581ADDAA199000091GA1001+999999999GF100991001001999999001001KA1999M+00601MD1210061+9999REMSYN064AAXX  26151 35173 32998 01802 11010 21038 40358 52006 333 10060;EQDQ01  00002PRCP99
0175351730999992000102618004+51610+069800FM-12+031299999V0201801N002012200019N0200001N1-00241-00461103561ADDAA199000091GA1001+999999999GF100991001001999999001001KA1999M+00601MD1810031+9999REMSYN064AAXX  26181 35173 32998 01802 11024 21046 40356 58003 333 10060;EQDQ01  00002PRCP99
0122351730999992000102621004+51610+069800FM-12+031299999V0209999C000012200019N0200001N1-00381-00561103521ADDGA1001+999999999GF100991001001999999001001MD1710061+9999REMSYN054AAXX  26211 35173 42998 00000 11038 21056 40352 57006;
0153351730999992000102700004+51610+069800FM-12+031299999V0201801N002012200019N0200001N1-00151-00381103401ADDGA1001+999999999GF100991001001999999001001MA1999999099511MD1710091+9999REMSYN070AAXX  27001 35173 42998 01802 11015 21038 39951 40340 57009 555 14103;
0174351730999992000102703004+51610+069800FM-12+031299999V0201801N002010075019N0040001N1-00081-00331103171ADDAA199000091GF108991999051008001021999MD1710201+9999REMSYN076AAXX  27031 35173 32596 81802 11008 21033 40317 57020 8852/ 555 21043 7000/;EQDQ01+000082SCOTLCQ02  00002PRCP99
0165351730999992000102706004+51610+069800FM-12+031299999V0201801N004010075019N0040001N1+00161-00251103171ADDAA199000091GF108991081051008001999999KA1999N-00431MD1310031+9999REMSYN070AAXX  27061 35173 32596 81804 10016 21025 40317 53003 885// 333 21043;EQDQ01  00002PRCP99
0112351730999992000102709004+51610+069800FM-12+031299999V0201801N006010075019N0040001N1+00261-00301102981ADDGF108991081051008001999999MD1810171+9999REMSYN060AAXX  27091 35173 42596 81806 10026 21030 40298 58017 885//;
0190351730999992000102712004+51610+069800FM-12+031299999V0201801N002010042019N0020001N1+00041-00071102811ADDAY171061AY221061GF108991999071004501021999MA1999999098971MD1710201+9999MW1731REMSYN082AAXX  27121 35173 41495 81802 10004 21007 39897 40281 57020 77372 8872/ 555 1/100;EQDQ01+000082SCOTLC
0192351730999992000102715004+51610+069800FM-12+031299999V0201801N002010042019N0010001N1+00021-00041102611ADDAY171031AY221031GF108991999071004501021999KA1120M+00331MD1710191+9999MW1711REMSYN086AAXX  27151 35173 /1494 81802 10002 21004 40261 57019 77172 8872/ 333 10033 555 60022;EQDQ01+000082SCOTLC
0180351730999992000102718004+51610+069800FM-12+031299999V0201801N002010075019N0200001N1+00031-00031102451ADDAA100002091AY171061AY221061GF108991081051008001999999KA1999M+00331MD1710151+9999MW1021REMSYN082AAXX  27181 35173 12598 81802 10003 21003 40245 57015 60020 70272 885// 333 10033;
0140351730999992000102721004+51610+069800FM-12+031299999V0201801N002010075019N0010001N1+00021-00011102381ADDAY171031AY221031GF108991081051008001999999MD1710071+9999MW1711REMSYN066AAXX  27211 35173 41594 81802 10002 21001 40238 57007 77172 885//;
0171351730999992000102800004+51610+069800FM-12+031299999V0209999C000010075019N0200001N1+00011-00021102351ADDAY171061AY221061GF108991081051008001999999MA1999999098521MD1710041+9999MW1021REMSYN082AAXX  28001 35173 41598 80000 10001 21002 39852 40235 57004 70272 885// 555 1/101;
0206351730999992000102803004+51610+069800FM-12+031299999V0201801N002010021019N0020001N1-00021-00051102371ADDAA112000591AJ100019199999999AY121031AY221031GF108991081061002501999999IA1239MD1310021+9999MW1101REMSYN098AAXX  28031 35173 /1395 81802 11002 21005 40237 53002 71022 886// 333 47001 555 21006 69952 7002/;
0152351730999992000102806004+51610+069800FM-12+031299999V0202301N002010042019N0040001N1+00121+00041102481ADDAA100000591GF108991081071004501999999KA1999N-00061MD1210141+9999REMSYN076AAXX  28061 35173 12496 82302 10012 20004 40248 52014 69950 887// 333 21006;
0112351730999992000102809004+51610+069800FM-12+031299999V0202701N002010075019N0040001N1+00191+00061102511ADDGF108991081071008001999999MD1210031+9999REMSYN060AAXX  28091 35173 42596 82702 10019 20006 40251 52003 887//;
0143351730999992000102812004+51610+069800FM-12+031299999V0202701N004010075019N0040001N1+00081+00031102641ADDGF108991081051008001999999MA1999999098811MD1210101+9999REMSYN076AAXX  28121 35173 42596 82704 10008 20003 39881 40264 52010 885// 555 11001;
0165351730999992000102815004+51610+069800FM-12+031299999V0202701N002010042019N0200001N1+00021-00071102701ADDAA199000091GF108991081061004501999999KA1999M+00411MD1210061+9999REMSYN070AAXX  28151 35173 32498 82702 10002 21007 40270 52006 886// 333 10041;EQDQ01  00002PRCP99
0174351730999992000102818004+51610+069800FM-12+031299999V0202301N002010042019N0010001N1+00061+00011102741ADDAA199000021AY151061AY221061GF108991081061004501999999KA1999M+00411MD1210031+9999MW1511REMSYN076AAXX  28181 35173 32494 82302 10006 20001 40274 52003 75152 886// 333 10041;
0140351730999992000102821004+51610+069800FM-12+031299999V0202301N002010042019N0010001N1+00101+00051102731ADDAY151031AY251031GF108991081061004501999999MD1210011+9999MW1511REMSYN066AAXX  28211 35173 41494 82302 10010 20005 40273 52001 75155 886//;
0171351730999992000102900004+51610+069800FM-12+031299999V0202301N002010042019N0200001N1+00041-00071102671ADDAY151061AY221061GF108991081061004501999999MA1999999098841MD1810071+9999MW1021REMSYN082AAXX  29001 35173 41498 82302 10004 21007 39884 40267 58007 70252 886// 555 11100;
0162351730999992000102903004+51610+069800FM-12+031299999V0202301N002010042019N0020001N1+00041-00101102601ADDAY121031AY221031GF108991081061004501999999MD1710071+9999MW1101REMSYN088AAXX  29031 35173 /1495 82302 10004 21010 40260 57007 71022 886// 555 20000 69932 7993/;
0180351730999992000102906004+51610+069800FM-12+031299999V0202501N002010042019N0020001N1+00121-00021102511ADDAA100000391AY121061AY221061GF108991081061004501999999KA1999N+00001MD1710071+9999MW1101REMSYN082AAXX  29061 35173 11495 82502 10012 21002 40251 57007 69930 71022 886// 333 20000;
0140351730999992000102909004+51610+069800FM-12+031299999V0202301N002010042019N0005001N1+00201+00091102321ADDAY141031AY221031GF108991081061004501999999MD1710171+9999MW1441REMSYN066AAXX  29091 35173 41493 82302 10020 20009 40232 57017 74442 886//;
0171351730999992000102912004+51610+069800FM-12+031299999V0202301N002010042019N0005001N1+00221+00121102151ADDAY141061AY221061GF108991081061004501999999MA1999999098371MD1710161+9999MW1441REMSYN082AAXX  29121 35173 41493 82302 10022 20012 39837 40215 57016 74442 886// 555 11002;
0203351730999992000102915004+51610+069800FM-12+031299999V0202301N002010001519N0001001N1+00121+00011102011ADDAA199000091AY141031AY241031GA1091+999999999GF109991091999999999999999KA1999M+00311MD1710151+9999MW1471REMSYN070AAXX  29151 35173 31/91 92302 10012 20001 40201 57015 74744 333 10031;EQDQ01  00002PRCP99
0187351730999992000102918004+51610+069800FM-12+031299999V02099999999992200019N0001001N1+00061+00031101841ADDAA199000091AY141061AY241061GF102991999999999999999999KA1999M+00311MD1710181+9999MW1471REMSYN070AAXX  29181 35173 31/91 29302 10006 20003 40184 57018 74744 333 10031;EQDQ01  00002PRCP99
0150351730999992000102921004+51610+069800FM-12+031299999V0201801N002010001519N0001001N1-00071-00101101551ADDAY141031AY241031GA1091+999999999GF109991091999999999999999MD1710291+9999MW1471REMSYN060AAXX  29211 35173 41/91 91802 11007 21010 40155 57029 74744;
0181351730999992000103000004+51610+069800FM-12+031299999V0209999C000012200019N0200001N1-00121-00141101351ADDAY141061AY241061GA1001+999999999GF100991001001999999001001MA1999999097541MD1710211+9999MW1011REMSYN076AAXX  30001 35173 41998 00000 11012 21014 39754 40135 57021 70144 555 14101;
0158351730999992000103003004+51610+069800FM-12+031299999V0201801N002019999999N0040001N1-00081-00211101111ADDAA199000091GF108991021001999999071051MD1710211+9999REMSYN076AAXX  30031 35173 32996 81802 11008 21021 40111 57021 82075 555 21022 7000/;EQDQ01  00002PRCP99
0165351730999992000103006004+51610+069800FM-12+031299999V0202301N004010075019N0040001N1+00201+00041100861ADDAA199000091GF108991081051008001999999KA1999N-00221MD1710211+9999REMSYN070AAXX  30061 35173 32596 82304 10020 20004 40086 57021 885// 333 21022;EQDQ01  00002PRCP99
0160351730999992000103009004+51610+069800FM-12+031299999V0202301N006010003019N0005001N1+00121+00091100791ADDAY161031AY241031GA1091+999999999GF109991091999999999999999MD1710071+9999MW1611REMSYN070AAXX  30091 35173 41/93 92306 10012 20009 40079 57007 76164 333 96047;
0190351730999992000103012004+51610+069800FM-12+031299999V0202501N004010042019N0040001N1+00061-00111100781ADDAY161061AY241061GF108991999071004501021999MA1999999097021MD1710031+9999MW1711REMSYN082AAXX  30121 35173 41496 82504 10006 21011 39702 40078 57003 77164 8872/ 555 12100;EQDQ01+000082SCOTLC
0192351730999992000103015004+51610+069800FM-12+031299999V0202701N006010042019N0010001N1+00181+00051100911ADDAY171031AY271031GF108991999071004501021999KA1120M+00311MD1310141+9999MW1711REMSYN086AAXX  30151 35173 /1494 82706 10018 20005 40091 53014 77177 8872/ 333 10031 555 60032;EQDQ01+000082SCOTLC
0180351730999992000103018004+51610+069800FM-12+031299999V0202901N008010042019N0200001N1+00061-00201101361ADDAA100003091AY171061AY221061GF107991071071004501001001KA1999M+00311MD1210421+9999MW1021REMSYN082AAXX  30181 35173 11498 72908 10006 21020 40136 52042 60030 70272 87700 333 10031;
0159351730999992000103021004+51610+069800FM-12+031299999V0202901N008010021019N0010001N1-00051-00171101761ADDAY171031AY231031GF108991999071002501021999MD1210371+9999MW1711REMSYN066AAXX  30211 35173 41394 82908 11005 21017 40176 52037 77173 8872/;EQDQ01+000082SCOTLC
0232351730999992000103100004+51610+069800FM-12+031299999V0202901N004012200019N0200001N1-00401-00741102422ADDAY171061AY231061GA1001+999999999GF100991001001999999001001MA1999999098531MD1410001+9999MW1011REMSYN076AAXX  31001 35173 41998 02904 11040 21074 39853 40242 52058 70173 555 1/105;EQDQ01+102423APOSLPQ02+000022APCTENQ03+000582APC3  
0152351730999992000103106004+51610+069800FM-12+031299999V0202501N002019999999N0040001N1-00241-00841102691ADDAA100000591GF108991081001999999071999KA1999N-00621MD1210041+9999REMSYN076AAXX  31061 35173 12996 82502 11024 21084 40269 52004 69940 8807/ 333 21062;
0140351730999992000103109004+51610+069800FM-12+031299999V0202301N006019999999N0020001N1-00361-00471102391ADDAY171031AY221031GF108991081001999999021999MD1810311+9999MW1731REMSYN066AAXX  31091 35173 41995 82306 11036 21047 40239 58031 77372 8802/;
0171351730999992000103112004+51610+069800FM-12+031299999V0202301N008019999999N0020001N1-00041-00161102021ADDAY171061AY231061GF108991081001999999021999MA1999999098211MD1710301+9999MW1711REMSYN082AAXX  31121 35173 41995 82308 11004 21016 39821 40202 57030 77173 8802/ 555 1/100;
0192351730999992000103115004+51610+069800FM-12+031299999V0202301N006010042019N0010001N1+00021-00091101791ADDAY171031AY231031GF108991999071004501021999KA1120M+00061MD1710221+9999MW1711REMSYN086AAXX  31151 35173 /1494 82306 10002 21009 40179 57022 77173 8872/ 333 10006 555 60042;EQDQ01+000082SCOTLC
0199351730999992000103118004+51610+069800FM-12+031299999V0202501N006010042019N0010001N1+00061-00081101701ADDAA100004191AY171061AY261061GF108991999071004501021999KA1999M+00061MD1710091+9999MW1611REMSYN082AAXX  31181 35173 11494 82506 10006 21008 40170 57009 60040 76176 8872/ 333 10006;EQDQ01+000082SCOTLC
0159351730999992000103121004+51610+069800FM-12+031299999V0202501N006010042019N0010001N1+00081-00031101391ADDAY161031AY221031GF108991999071004501021999MD1710291+9999MW1611REMSYN066AAXX  31211 35173 41494 82506 10008 21003 40139 57029 76162 8872/;EQDQ01+000082SCOTLC
0171351730999992000110100004+51610+069800FM-12+031299999V0202701N006010075019N0200001N1+00061-00021101371ADDAY161061AY221061GF108991081051008001999999MA1999999097591MD1710021+9999MW1021REMSYN082AAXX  01001 35173 41598 82706 10006 21002 39759 40137 57002 70262 885// 555 1/100;
0197351730999992000110103004+51610+069800FM-12+031299999V0203601N006019999999N0040001N1-00281-00581101861ADDAA112001091AJ100069199999999GF108991999081008001001001IA1239MD1310431+9999REMSYN092AAXX  01031 35173 /2596 83606 11028 21058 40186 53043 82800 333 47006 555 21032 60012 7005/;EQDQ01+000022SCOTLC
0180351730999992000110106004+51610+069800FM-12+031299999V0203201N004010075019N0040001N1-00251-00651102271ADDAA100001091AY171061AY211061GF106991061051008001001001KA1999N-00321MD1210401+9999MW1711REMSYN082AAXX  01061 35173 11596 63204 11025 21065 40227 52040 60010 77171 86500 333 21032;
0159351730999992000110109004+51610+069800FM-12+031299999V0203201N004010120019N0040001N1-00391-00841102611ADDAY171031AY211031GF108991999081008001001001MD1210291+9999MW1021REMSYN066AAXX  01091 35173 41596 83204 11039 21084 40261 52029 70271 87800;EQDQ01+000072SCOTLC
0190351730999992000110112004+51610+069800FM-12+031299999V0203201N004012200019N0040001N1-00621-01021102941ADDAY171061AY211061GF103991999081008001001001MA1999999099011MD1210301+9999MW1011REMSYN082AAXX  01121 35173 41596 33204 11062 21102 39901 40294 52030 70171 82800 555 1/107;EQDQ01+000022SCOTLC
0155351730999992000110115004+51610+069800FM-12+031299999V0203201N002012200019N0200001N1-00941-01151103201ADDGA1001+999999999GF100991001001999999001001KA1120M-00091MD1210201+9999REMSYN074AAXX  01151 35173 /2998 03202 11094 21115 40320 52020 333 11009 555 69902;
0152351730999992000110118004+51610+069800FM-12+031299999V0202701N002010042019N0200001N1-00601-01041103211ADDAA100000791GF108991081061004501999999KA1999M-00091MD1210061+9999REMSYN076AAXX  01181 35173 12498 82702 11060 21104 40321 52006 69900 886// 333 11009;
0122351730999992000110121004+51610+069800FM-12+031299999V0202701N002012200019N0200001N1-00721-01011103131ADDGA1001+999999999GF100991001001999999001001MD1810101+9999REMSYN054AAXX  01211 35173 42998 02702 11072 21101 40313 58010;
0143351730999992000110200004+51610+069800FM-12+031299999V0202501N004019999999N0200001N1-00401-00741102911ADDGF108991081001999999021999MA1999999099011MD1710161+9999REMSYN076AAXX  02001 35173 42998 82504 11040 21074 39901 40291 57016 8802/ 555 14105;
0191351730999992000110203004+51610+069800FM-12+031299999V0202301N006019999999N0040001N1-00261-00631102751ADDAA199000091AJ100039199999999GF108991081001999999021999IA1239MD1710131+9999REMSYN086AAXX  02031 35173 32996 82306 11026 21063 40275 57013 8802/ 333 47003 555 21096 7990/;EQDQ01  00002PRCP99
0193351730999992000110206004+51610+069800FM-12+031299999V0202701N008019999999N0040001N1-00051-00461102751ADDAA199000091AY171061AY221061GF108991081001999999021999KA1999N-00961MD1310021+9999MW1021REMSYN076AAXX  02061 35173 31996 82708 11005 21046 40275 53002 70272 8802/ 333 21096;EQDQ01  00002PRCP99
0140351730999992000110209004+51610+069800FM-12+031299999V0202701N004019999999N0040001N1+00061-00271102761ADDAY171031AY221031GF108991081001999999011999MD1210021+9999MW1021REMSYN066AAXX  02091 35173 41996 82704 10006 21027 40276 52002 70272 8801/;
0171351730999992000110212004+51610+069800FM-12+031299999V0202301N002019999999N0040001N1+00151-00171102721ADDAY171061AY221061GF108991081001999999011999MA1999999098901MD1810021+9999MW1021REMSYN082AAXX  02121 35173 41996 82302 10015 21017 39890 40272 58002 70272 8801/ 555 14001;
0145351730999992000110215004+51610+069800FM-12+031299999V0202301N002019999999N0200001N1+00161-00151102691ADDGF108991081001999999021999KA1120M+00201MD1710021+9999REMSYN080AAXX  02151 35173 /2998 82302 10016 21015 40269 57002 8802/ 333 10020 555 69902;
0152351730999992000110218004+51610+069800FM-12+031299999V0202301N004012200019N0200001N1+00111-00121102621ADDAA100000791GF103991031001999999071001KA1999M+00201MD1710071+9999REMSYN076AAXX  02181 35173 12998 32304 10011 21012 40262 57007 69900 83070 333 10020;
0122351730999992000110221004+51610+069800FM-12+031299999V0202301N004012200019N0200001N1+00081-00091102631ADDGA1001+999999999GF100991001001999999001001MD1710011+9999REMSYN054AAXX  02211 35173 42998 02304 10008 21009 40263 57001;
0143351730999992000110300004+51610+069800FM-12+031299999V0202501N004019999999N0200001N1+00081-00031102611ADDGF108991081001999999021999MA1999999098781MD1710021+9999REMSYN076AAXX  03001 35173 42998 82504 10008 21003 39878 40261 57002 8802/ 555 1/100;
0229351730999992000110303004+51610+069800FM-12+031299999V0202301N002010003019N0002001N1+00101+00071102701ADDAA199000091AJ100029199999999AY141031AY221031GA1091+999999999GF109991091999999999999999IA1309MD1310111+9999MW1471REMSYN086AAXX  03031 35173 31/92 92302 10010 20007 40270 53011 74742 333 42002 555 20004 7990/;EQDQ01  00002PRCP99
0203351730999992000110306004+51610+069800FM-12+031299999V0202701N002010003019N0005001N1+00101+00051102861ADDAA199000091AY141061AY221061GA1091+999999999GF109991091999999999999999KA1999N+00041MD1210151+9999MW1431REMSYN070AAXX  03061 35173 31/93 92702 10010 20005 40286 52015 74342 333 20004;EQDQ01  00002PRCP99
0140351730999992000110309004+51610+069800FM-12+031299999V0202701N002010021019N0020001N1+00101-00011103001ADDAY141031AY221031GF108991081061002501999999MD1210141+9999MW1101REMSYN066AAXX  03091 35173 41395 82702 10010 21001 40300 52014 71042 886//;
0181351730999992000110312004+51610+069800FM-12+031299999V0209999C000010003019N0002001N1+00101+00071103151ADDAY141061AY221061GA1091+999999999GF109991091999999999999999MA1999999099321MD1210141+9999MW1471REMSYN076AAXX  03121 35173 41/92 90000 10010 20007 39932 40315 52014 74742 555 1/001;
0209351730999992000110315004+51610+069800FM-12+031299999V0209999C000010001519N0001001N1-00031-00061103351ADDAA199000091AY141031AY241031GA1091+999999999GF109991091999999999999999KA1120M+00211MD1210171+9999MW1451REMSYN076AAXX  03151 35173 31/91 90000 11003 21006 40335 52017 74544 333 10021 93400;EQDQ01  00002PRCP99
0193351730999992000110318004+51610+069800FM-12+031299999V0209999C000010042019N0010001N1-00051-00141103541ADDAA199000091AY141061AY221061GF108991081061004501999999KA1999M+00211MD1210181+9999MW1101REMSYN076AAXX  03181 35173 31494 80000 11005 21014 40354 52018 71042 886// 333 10021;EQDQ01  00002PRCP99
0112351730999992000110321004+51610+069800FM-12+031299999V0200201N002010042019N0200001N1+00001-00201103641ADDGF108991081071004501999999MD1210101+9999REMSYN060AAXX  03211 35173 42498 80202 10000 21020 40364 52010 887//;
0143351730999992000110400004+51610+069800FM-12+031299999V0200901N002010042019N0200001N1-00141-00371103761ADDGF108991081071004501999999MA1999999099861MD1210091+9999REMSYN076AAXX  04001 35173 42498 80902 11014 21037 39986 40376 52009 887// 555 1/102;
0191351730999992000110403004+51610+069800FM-12+031299999V0200501N004010042019N0040001N1-00251-00471103931ADDAA199000091AJ100019199999999GF108991081071004501999999IA1309MD1210161+9999REMSYN086AAXX  04031 35173 32496 80504 11025 21047 40393 52016 887// 333 42001 555 21032 7000/;EQDQ01  00002PRCP99
0165351730999992000110406004+51610+069800FM-12+031299999V0200901N004010042019N0040001N1-00301-00761104111ADDAA199000091GF108991081071004501999999KA1999N-00321MD1210151+9999REMSYN070AAXX  04061 35173 32496 80904 11030 21076 40411 52015 887// 333 21032;EQDQ01  00002PRCP99
0131351730999992000110409004+51610+069800FM-12+031299999V0200901N004010075019N0040001N1-00401-00851999999ADDGF108991081051008001999999MD1210071+9999REMSYN060AAXX  04091 35173 42596 80904 11040 21085 40119 52007 885//;EQDQ01+101193APOSLP
0143351730999992000110412004+51610+069800FM-12+031299999V0200901N002010075019N0040001N1-00401-00811104231ADDGF108991081051008001999999MA1999999100281MD1210041+9999REMSYN076AAXX  04121 35173 42596 80902 11040 21081 30028 40423 52004 885// 555 14105;
0165351730999992000110415004+51610+069800FM-12+031299999V0200901N002010075019N0200001N1-00521-00971104251ADDAA199000091GF108991081051008001999999KA1999M-00241MD1410001+9999REMSYN070AAXX  04151 35173 32598 80902 11052 21097 40425 54000 885// 333 11024;EQDQ01  00002PRCP99
0165351730999992000110418004+51610+069800FM-12+031299999V0201601N004010075019N0200001N1-00461-00891104201ADDAA199000091GF108991081051008001999999KA1999M-00241MD1810031+9999REMSYN070AAXX  04181 35173 32598 81604 11046 21089 40420 58003 885// 333 11024;EQDQ01  00002PRCP99
0112351730999992000110421004+51610+069800FM-12+031299999V0201801N004019999999N0200001N1-00501-00951104161ADDGF108991081001999999021999MD1710061+9999REMSYN060AAXX  04211 35173 42998 81804 11050 21095 40416 57006 8802/;
0143351730999992000110500004+51610+069800FM-12+031299999V0201801N002019999999N0200001N1-00541-00871103951ADDGF108991081001999999021999MA1999999099991MD1710131+9999REMSYN076AAXX  05001 35173 42998 81802 11054 21087 39999 40395 57013 8802/ 555 1/106;
0191351730999992000110503004+51610+069800FM-12+031299999V0201801N002010075019N0040001N1-00511-00881103791ADDAA199000091AJ100019199999999GF108991081051008001999999IA1309MD1710161+9999REMSYN086AAXX  05031 35173 32596 81802 11051 21088 40379 57016 885// 333 42001 555 21058 7000/;EQDQ01  00002PRCP99
0165351730999992000110506004+51610+069800FM-12+031299999V0201801N002010075019N0040001N1-00371-00811103651ADDAA199000091GF108991081051008001999999KA1999N-00581MD1710111+9999REMSYN070AAXX  05061 35173 32596 81802 11037 21081 40365 57011 885// 333 21058;EQDQ01  00002PRCP99
0112351730999992000110509004+51610+069800FM-12+031299999V0209999C000010075019N0040001N1-00231-00661103411ADDGF108991081041008001999999MD1710211+9999REMSYN060AAXX  05091 35173 42596 80000 11023 21066 40341 57021 884//;
0143351730999992000110512004+51610+069800FM-12+031299999V0201801N002010075019N0040001N1-00151-00561103251ADDGF107991071051008001001001MA1999999099351MD1710161+9999REMSYN076AAXX  05121 35173 42596 71802 11015 21056 39935 40325 57016 87500 555 1/102;
0192351730999992000110515004+51610+069800FM-12+031299999V0209999C000010042019N0010001N1-00201-00351103151ADDAY171031AY221031GF108991999071004501021999KA1120M-00111MD1710081+9999MW1711REMSYN086AAXX  05151 35173 /1494 80000 11020 21035 40315 57008 77172 8872/ 333 11011 555 69942;EQDQ01+000082SCOTLC
0199351730999992000110518004+51610+069800FM-12+031299999V0202901N002010042019N0010001N1-00201-00351103061ADDAA100000591AY171061AY221061GF108991999071004501021999KA1999M-00111MD1710091+9999MW1711REMSYN082AAXX  05181 35173 11494 82902 11020 21035 40306 57009 69940 77172 8872/ 333 11011;EQDQ01+000082SCOTLC
0140351730999992000110521004+51610+069800FM-12+031299999V0203601N004010075019N0200001N1-00621-00811103131ADDAY171031AY221031GF108991081051008001999999MD1310011+9999MW1021REMSYN066AAXX  05211 35173 41598 83604 11062 21081 40313 53001 70272 885//;
0171351730999992000110600004+51610+069800FM-12+031299999V0203601N004010075019N0200001N1-00661-00861103151ADDAY171061AY221061GF108991081051008001999999MA1999999099211MD1210021+9999MW1021REMSYN082AAXX  06001 35173 41598 83604 11066 21086 39921 40315 52002 70272 885// 555 1/107;
0178351730999992000110603004+51610+069800FM-12+031299999V0203601N006019999999N0040001N1-00821-01091103351ADDAA112000591AJ100039199999999GF108991081001999999071999IA1239MD1210161+9999REMSYN092AAXX  06031 35173 /2996 83606 11082 21109 40335 52016 8807/ 333 47003 555 21086 69952 7999/;
0152351730999992000110606004+51610+069800FM-12+031299999V0200501N004019999999N0040001N1-00801-01261103631ADDAA100000591GF108991081001999999021999KA1999N-00861MD1210271+9999REMSYN076AAXX  06061 35173 12996 80504 11080 21126 40363 52027 69950 8802/ 333 21086;
0122351730999992000110609004+51610+069800FM-12+031299999V0200501N006012200019N0040001N1-00871-01471103781ADDGA1001+999999999GF100991001001999999001001MD1210121+9999REMSYN054AAXX  06091 35173 42996 00506 11087 21147 40378 52012;
0153351730999992000110612004+51610+069800FM-12+031299999V0200501N006012200019N0040001N1-01181-01911103981ADDGA1001+999999999GF100991001001999999001001MA1999999099911MD1210151+9999REMSYN070AAXX  06121 35173 42996 00506 11118 21191 39991 40398 52015 555 1/112;
0175351730999992000110615004+51610+069800FM-12+031299999V0200501N004012200019N0200001N1-01411-02021104221ADDAA199000091GA1001+999999999GF100991001001999999001001KA1999M-00751MD1210201+9999REMSYN064AAXX  06151 35173 32998 00504 11141 21202 40422 52020 333 11075;EQDQ01  00002PRCP99
0175351730999992000110618004+51610+069800FM-12+031299999V0203601N004012200019N0200001N1-01691-02111104421ADDAA199000091GA1001+999999999GF100991001001999999001001KA1999M-00751MD1210151+9999REMSYN064AAXX  06181 35173 32998 03604 11169 21211 40442 52015 333 11075;EQDQ01  00002PRCP99
0122351730999992000110621004+51610+069800FM-12+031299999V0203601N002012200019N0200001N1-02031-02361104561ADDGA1001+999999999GF100991001001999999001001MD1210091+9999REMSYN054AAXX  06211 35173 42998 03602 11203 21236 40456 52009;
0153351730999992000110700004+51610+069800FM-12+031299999V0203601N002012200019N0200001N1-02151-02471104651ADDGA1001+999999999GF100991001001999999001001MA1999999100421MD1210071+9999REMSYN070AAXX  07001 35173 42998 03602 11215 21247 30042 40465 52007 555 1/122;
0191351730999992000110703004+51610+069800FM-12+031299999V0200501N006010042019N0040001N1-01931-02261104731ADDAA199000091AJ100039199999999GF106991061071004501001001IA1239MD1210101+9999REMSYN086AAXX  07031 35173 32496 60506 11193 21226 40473 52010 86700 333 47003 555 21220 7000/;EQDQ01  00002PRCP99
0165351730999992000110706004+51610+069800FM-12+031299999V0200701N006012200019N0040001N1-01631-02231104841ADDAA199000091GF102991021011012501001001KA1999N-02201MD1210171+9999REMSYN070AAXX  07061 35173 32696 20706 11163 21223 40484 52017 82100 333 21220;EQDQ01  00002PRCP99
0112351730999992000110709004+51610+069800FM-12+031299999V0200501N006012200019N0040001N1-01491-02091104991ADDGF101991011011012501001001MD1210151+9999REMSYN060AAXX  07091 35173 42696 10506 11149 21209 40499 52015 81100;
0153351730999992000110712004+51610+069800FM-12+031299999V0200501N004012200019N0040001N1-01601-02201105011ADDGA1001+999999999GF100991001001999999001001MA1999999100851MD1210011+9999REMSYN070AAXX  07121 35173 42996 00504 11160 21220 30085 40501 52001 555 1/117;
0175351730999992000110715004+51610+069800FM-12+031299999V0200501N004012200019N0200001N1-01741-02151105071ADDAA199000091GA1001+999999999GF100991001001999999001001KA1999M-01391MD1210041+9999REMSYN064AAXX  07151 35173 32998 00504 11174 21215 40507 52004 333 11139;EQDQ01  00002PRCP99
0122351730999992000110721004+51610+069800FM-12+031299999V0200501N002012200019N0200001N1-02061-02391105321ADDGA1001+999999999GF100991001001999999001001MD1210111+9999REMSYN054AAXX  07211 35173 42998 00502 11206 21239 40532 52011;
0153351730999992000110800004+51610+069800FM-12+031299999V0200201N002012200019N0200001N1-02201-02521105331ADDGA1001+999999999GF100991001001999999001001MA1999999101061MD1410001+9999REMSYN070AAXX  08001 35173 42998 00202 11220 21252 30106 40533 54000 555 1/123;
0175351730999992000110806004+51610+069800FM-12+031299999V0209999C000012200019N0040001N1-01631-02141105351ADDAA199000091GA1001+999999999GF100991001001999999001001KA1999N-02261MD1210021+9999REMSYN064AAXX  08061 35173 32996 00000 11163 21214 40535 52002 333 21226;EQDQ01  00002PRCP99
0122351730999992000110809004+51610+069800FM-12+031299999V0209999C000012200019N0040001N1-01091-01931105201ADDGA1001+999999999GF100991001001999999001001MD1810061+9999REMSYN054AAXX  08091 35173 42996 00000 11109 21193 40520 58006;
0153351730999992000110812004+51610+069800FM-12+031299999V0209999C000012200019N0040001N1-01131-01971105101ADDGA1001+999999999GF100991001001999999001001MA1999999101011MD1710101+9999REMSYN070AAXX  08121 35173 42996 00000 11113 21197 30101 40510 57010 555 1/114;
0175351730999992000110815004+51610+069800FM-12+031299999V0209999C000012200019N0200001N1-01451-01961105181ADDAA199000091GA1001+999999999GF100991001001999999001001KA1999M-01041MD1310031+9999REMSYN064AAXX  08151 35173 32998 00000 11145 21196 40518 53003 333 11104;EQDQ01  00002PRCP99
0175351730999992000110818004+51610+069800FM-12+031299999V0200501N002012200019N0200001N1-01601-02021105271ADDAA199000091GA1001+999999999GF100991001001999999001001KA1999M-01041MD1210061+9999REMSYN064AAXX  08181 35173 32998 00502 11160 21202 40527 52006 333 11104;EQDQ01  00002PRCP99
0122351730999992000110821004+51610+069800FM-12+031299999V0200501N002012200019N0200001N1-01921-02251105281ADDGA1001+999999999GF100991001001999999001001MD1810041+9999REMSYN054AAXX  08211 35173 42998 00502 11192 21225 40528 58004;
0153351730999992000110900004+51610+069800FM-12+031299999V0200501N002012200019N0200001N1-01961-02291105191ADDGA1001+999999999GF100991001001999999001001MA1999999100951MD1710111+9999REMSYN070AAXX  09001 35173 42998 00502 11196 21229 30095 40519 57011 555 1/121;
0191351730999992000110903004+51610+069800FM-12+031299999V0209999C000012200019N0040001N1-01991-02251105181ADDAA199000091AJ100039199999999GF102991001001999999001011IA1239MD1710011+9999REMSYN086AAXX  09031 35173 32996 20000 11199 21225 40518 57001 80001 333 47003 555 21204 7000/;EQDQ01  00002PRCP99
0165351730999992000110906004+51610+069800FM-12+031299999V0203601N002012200019N0040001N1-00881-01601105031ADDAA199000091GF102991001001999999001011KA1999N-02041MD1310031+9999REMSYN070AAXX  09061 35173 32996 23602 11088 21160 40503 53003 80001 333 21204;EQDQ01  00002PRCP99
0122351730999992000110909004+51610+069800FM-12+031299999V0202701N002012200019N0040001N1-00341-01531104801ADDGA1001+999999999GF100991001001999999001001MD1810131+9999REMSYN054AAXX  09091 35173 42696 02702 11034 21153 40480 58013;
0153351730999992000110912004+51610+069800FM-12+031299999V0202301N002012200019N0040001N1-00421-01431104841ADDGA1001+999999999GF100991001001999999001001MA1999999100871MD1310031+9999REMSYN070AAXX  09121 35173 42996 02302 11042 21143 30087 40484 53003 555 1/111;
0175351730999992000110915004+51610+069800FM-12+031299999V0209999C000012200019N0200001N1-00921-01541104801ADDAA199000091GA1001+999999999GF100991001001999999001001KA1999M-00211MD1810131+9999REMSYN064AAXX  09151 35173 32998 00000 11092 21154 40480 58013 333 11021;EQDQ01  00002PRCP99
0175351730999992000110918004+51610+069800FM-12+031299999V0201801N002012200019N0200001N1-01151-01681104801ADDAA199000091GA1001+999999999GF100991001001999999001001KA1999M-00211MD1710031+9999REMSYN064AAXX  09181 35173 32998 01802 11115 21168 40480 57003 333 11021;EQDQ01  00002PRCP99
0122351730999992000110921004+51610+069800FM-12+031299999V0202301N002012200019N0200001N1-01171-01701104741ADDGA1001+999999999GF100991001001999999001001MD1710061+9999REMSYN054AAXX  09211 35173 42998 02302 11117 21170 40474 57006;
0153351730999992000111000004+51610+069800FM-12+031299999V0209999C000012200019N0200001N1-01211-01641104691ADDGA1001+999999999GF100991001001999999001001MA1999999100601MD1710051+9999REMSYN070AAXX  10001 35173 42998 00000 11121 21164 30060 40469 57005 555 1/115;
0201351730999992000111003004+51610+069800FM-12+031299999V0209999C000012200019N0040001N1-01331-01681104671ADDAA199000091AJ100019199999999GA1001+999999999GF100991001001999999001001IA1219MD1710041+9999REMSYN080AAXX  10031 35173 32996 00000 11133 21168 40467 57004 333 45001 555 21138 7000/;EQDQ01  00002PRCP99
0175351730999992000111006004+51610+069800FM-12+031299999V0209999C000012200019N0040001N1-00441-01241104481ADDAA199000091GA1001+999999999GF100991001001999999001001KA1999N-01381MD1710051+9999REMSYN064AAXX  10061 35173 32996 00000 11044 21124 40448 57005 333 21138;EQDQ01  00002PRCP99
0153351730999992000111012004+51610+069800FM-12+031299999V0209999C000012200019N0040001N1-00121-01111104201ADDGA1001+999999999GF100991001001999999001001MA1999999100291MD1710111+9999REMSYN070AAXX  10121 35173 42996 00000 11012 21111 30029 40420 57011 555 1/107;
0175351730999992000111015004+51610+069800FM-12+031299999V0203601N002012200019N0200001N1-00501-01041104171ADDAA199000091GA1001+999999999GF100991001001999999001001KA1999M+00151MD1710091+9999REMSYN064AAXX  10151 35173 32998 03602 11050 21104 40417 57009 333 10015;EQDQ01  00002PRCP99
0175351730999992000111018004+51610+069800FM-12+031299999V0209999C000012200019N0200001N1-00951-01111104201ADDAA199000091GA1001+999999999GF100991001001999999001001KA1999M+00151MD1710031+9999REMSYN064AAXX  10181 35173 32998 00000 11095 21111 40420 57003 333 10015;EQDQ01  00002PRCP99
0122351730999992000111021004+51610+069800FM-12+031299999V0209999C000012200019N0200001N1-01161-01291104141ADDGA1001+999999999GF100991001001999999001001MD1710081+9999REMSYN054AAXX  10211 35173 42998 00000 11116 21129 40414 57008;
0153351730999992000111100004+51610+069800FM-12+031299999V0209999C000012200019N0200001N1-01321-01451104121ADDGA1001+999999999GF100991001001999999001001MA1999999100031MD1710061+9999REMSYN070AAXX  11001 35173 42998 00000 11132 21145 30003 40412 57006 555 1/115;
0201351730999992000111103004+51610+069800FM-12+031299999V0203601N002012200019N0040001N1-01481-01681104081ADDAA199000091AJ100019199999999GA1001+999999999GF100991001001999999001001IA1309MD1710071+9999REMSYN080AAXX  11031 35173 32996 03602 11148 21168 40408 57007 333 42001 555 21156 7000/;EQDQ01  00002PRCP99
0175351730999992000111106004+51610+069800FM-12+031299999V0209999C000012200019N0040001N1-00551-01011104021ADDAA199000091GA1001+999999999GF100991001001999999001001KA1999N-01561MD1310101+9999REMSYN064AAXX  11061 35173 32996 00000 11055 21101 40402 53010 333 21156;EQDQ01  00002PRCP99
0112351730999992000111109004+51610+069800FM-12+031299999V0200201N002012200019N0040001N1-00061-01101103751ADDGF101991001001999999001011MD1810191+9999REMSYN060AAXX  11091 35173 42996 10202 11006 21110 40375 58019 80001;
0143351730999992000111112004+51610+069800FM-12+031299999V0200201N002012200019N0040001N1-00281-01241103671ADDGF101991001001999999001011MA1999999099741MD1710131+9999REMSYN076AAXX  11121 35173 42996 10202 11028 21124 39974 40367 57013 80001 555 1/108;
0175351730999992000111115004+51610+069800FM-12+031299999V0200201N002012200019N0200001N1-00581-01421103691ADDAA199000091GA1001+999999999GF100991001001999999001001KA1999M+00071MD1710021+9999REMSYN064AAXX  11151 35173 32998 00202 11058 21142 40369 57002 333 10007;EQDQ01  00002PRCP99
0165351730999992000111118004+51610+069800FM-12+031299999V0200501N002012200019N0200001N1-01191-01711103791ADDAA199000091GF101991001001999999001041KA1999M+00071MD1310011+9999REMSYN070AAXX  11181 35173 32998 10502 11119 21171 40379 53001 80004 333 10007;EQDQ01  00002PRCP99
0112351730999992000111121004+51610+069800FM-12+031299999V0200501N002012200019N0200001N1-01141-01581103591ADDGF101991001001999999001041MD1810181+9999REMSYN060AAXX  11211 35173 42998 10502 11114 21158 40359 58018 80004;
0143351730999992000111200004+51610+069800FM-12+031299999V0200501N002012200019N0200001N1-01311-01581103481ADDGF101991001001999999001041MA1999999099421MD1710131+9999REMSYN076AAXX  12001 35173 42998 10502 11131 21158 39942 40348 57013 80004 555 1/117;
0191351730999992000111203004+51610+069800FM-12+031299999V0200201N002019999999N0040001N1-01191-01711103441ADDAA199000091AJ100019199999999GF105991001001999999001011IA1259MD1710021+9999REMSYN086AAXX  12031 35173 32996 50202 11119 21171 40344 57002 80001 333 41001 555 21147 7000/;EQDQ01  00002PRCP99
0165351730999992000111206004+51610+069800FM-12+031299999V0200201N002019999999N0040001N1-00441-01531103301ADDAA199000091GF105991001001999999001061KA1999N-01471MD1710021+9999REMSYN070AAXX  12061 35173 32996 50202 11044 21153 40330 57002 80006 333 21147;EQDQ01  00002PRCP99
0112351730999992000111209004+51610+069800FM-12+031299999V0200501N002019999999N0040001N1-00221-01351103131ADDGF106991001001999999001081MD1710131+9999REMSYN060AAXX  12091 35173 42996 60502 11022 21135 40313 57013 80008;
0143351730999992000111212004+51610+069800FM-12+031299999V0200901N002019999999N0040001N1-00201-01151103151ADDGF105991001001999999001081MA1999999099271MD1310021+9999REMSYN076AAXX  12121 35173 42996 50902 11020 21115 39927 40315 53002 80008 555 1/106;
0165351730999992000111215004+51610+069800FM-12+031299999V0200901N002012200019N0200001N1-00561-01221103211ADDAA199000091GF103991001001999999001081KA1999M-00091MD1410001+9999REMSYN070AAXX  12151 35173 32998 30902 11056 21122 40321 54000 80008 333 11009;EQDQ01  00002PRCP99
0175351730999992000111218004+51610+069800FM-12+031299999V0200901N002012200019N0200001N1-00821-01341103121ADDAA199000091GA1001+999999999GF100991001001999999001001KA1999M-00091MD1810121+9999REMSYN064AAXX  12181 35173 32998 00902 11082 21134 40312 58012 333 11009;EQDQ01  00002PRCP99
0122351730999992000111221004+51610+069800FM-12+031299999V0200901N002012200019N0200001N1-00901-01341103121ADDGA1001+999999999GF100991001001999999001001MD1710021+9999REMSYN054AAXX  12211 35173 42998 00902 11090 21134 40312 57002;
0143351730999992000111300004+51610+069800FM-12+031299999V0200901N004012200019N0200001N1-01061-01421103121ADDGF102991001001999999001011MA1999999099121MD1710011+9999REMSYN076AAXX  13001 35173 42998 20904 11106 21142 39912 40312 57001 80001 555 1/114;
0191351730999992000111303004+51610+069800FM-12+031299999V0200901N002019999999N0040001N1-01261-01531103261ADDAA199000091AJ100019199999999GF105991001001999999001081IA1259MD1310111+9999REMSYN086AAXX  13031 35173 32996 50902 11126 21153 40326 53011 80008 333 41001 555 21132 7000/;EQDQ01  00002PRCP99
0165351730999992000111306004+51610+069800FM-12+031299999V0200501N002019999999N0040001N1-00681-01201103191ADDAA199000091GF106991001001999999001081KA1999N-01321MD1410001+9999REMSYN070AAXX  13061 35173 32996 60502 11068 21120 40319 54000 80008 333 21132;EQDQ01  00002PRCP99
0112351730999992000111309004+51610+069800FM-12+031299999V0209999C000019999999N0040001N1-00061-01011103011ADDGF105991001001999999001071MD1810071+9999REMSYN060AAXX  13091 35173 42996 50000 11006 21101 40301 58007 80007;
0143351730999992000111312004+51610+069800FM-12+031299999V0200501N002012200019N0040001N1-00591-01201103121ADDGF103991001001999999001071MA1999999099181MD1310021+9999REMSYN076AAXX  13121 35173 42996 30502 11059 21120 39918 40312 53002 80007 555 1/108;
0175351730999992000111318004+51610+069800FM-12+031299999V0209999C000012200019N0200001N1-01071-01201103281ADDAA199000091GA1001+999999999GF100991001001999999001001KA1999M+00061MD1410001+9999REMSYN064AAXX  13181 35173 32998 00000 11107 21120 40328 54000 333 10006;EQDQ01  00002PRCP99
0122351730999992000111321004+51610+069800FM-12+031299999V0209999C000012200019N0200001N1-01211-01271103321ADDGA1001+999999999GF100991001001999999001001MD1310031+9999REMSYN054AAXX  13211 35173 42998 00000 11121 21127 40332 53003;
0153351730999992000111400004+51610+069800FM-12+031299999V0209999C000012200019N0200001N1-01471-01601103421ADDGA1001+999999999GF100991001001999999001001MA1999999099321MD1210031+9999REMSYN070AAXX  14001 35173 42998 00000 11147 21160 39932 40342 52003 555 1/118;
0201351730999992000111403004+51610+069800FM-12+031299999V0209999C000012200019N0040001N1-01651-01781103541ADDAA199000091AJ100019199999999GA1001+999999999GF100991001001999999001001IA1259MD1210111+9999REMSYN080AAXX  14031 35173 32996 00000 11165 21178 40354 52011 333 41001 555 21169 7000/;EQDQ01  00002PRCP99
0175351730999992000111406004+51610+069800FM-12+031299999V0209999C000012200019N0040001N1-01051-01251103491ADDAA199000091GA1001+999999999GF100991001001999999001001KA1999N-01691MD1210051+9999REMSYN064AAXX  14061 35173 32996 00000 11105 21125 40349 52005 333 21169;EQDQ01  00002PRCP99
0122351730999992000111409004+51610+069800FM-12+031299999V0209999C000012200019N0040001N1-00411-01051103341ADDGA1001+999999999GF100991001001999999001001MD1810061+9999REMSYN054AAXX  14091 35173 42996 00000 11041 21105 40334 58006;
0143351730999992000111412004+51610+069800FM-12+031299999V0200901N002012200019N0040001N1-00601-01041103361ADDGF102991001001999999001011MA1999999099411MD1710011+9999REMSYN076AAXX  14121 35173 42996 20902 11060 21104 39941 40336 57001 80001 555 1/109;
0175351730999992000111415004+51610+069800FM-12+031299999V0200901N002012200019N0200001N1-00811-00951103331ADDAA199000091GA1001+999999999GF100991001001999999001001KA1999M-00341MD1710061+9999REMSYN064AAXX  14151 35173 32998 00902 11081 21095 40333 57006 333 11034;EQDQ01  00002PRCP99
0165351730999992000111418004+51610+069800FM-12+031299999V0200901N002012200019N0200001N1-00751-00971103261ADDAA199000091GF102991001001999999001011KA1999M-00341MD1710061+9999REMSYN070AAXX  14181 35173 32998 20902 11075 21097 40326 57006 80001 333 11034;EQDQ01  00002PRCP99
0112351730999992000111421004+51610+069800FM-12+031299999V0200901N002019999999N0200001N1-00981-01151103191ADDGF106991001001999999001081MD1710101+9999REMSYN060AAXX  14211 35173 42998 60902 11098 21115 40319 57010 80008;
0143351730999992000111500004+51610+069800FM-12+031299999V0200901N002019999999N0200001N1-00821-00921103041ADDGF106991001001999999001081MA1999999099081MD1710111+9999REMSYN076AAXX  15001 35173 42998 60902 11082 21092 39908 40304 57011 80008 555 1/110;
0191351730999992000111503004+51610+069800FM-12+031299999V0201401N002019999999N0040001N1-00731-00861102891ADDAA199000091AJ100019199999999GF107991001001999999001081IA1259MD1710141+9999REMSYN086AAXX  15031 35173 32996 71402 11073 21086 40289 57014 80008 333 41001 555 21102 7000/;EQDQ01  00002PRCP99
0165351730999992000111506004+51610+069800FM-12+031299999V0201101N004019999999N0040001N1-00391-00651102731ADDAA199000091GF108991001001999999001071KA1999N-01021MD1710111+9999REMSYN070AAXX  15061 35173 32996 81104 11039 21065 40273 57011 80007 333 21102;EQDQ01  00002PRCP99
0140351730999992000111509004+51610+069800FM-12+031299999V0201101N004019999999N0040001N1-00251-00381102581ADDAY171031AY221031GF108991081001999999021999MD1710121+9999MW1711REMSYN066AAXX  15091 35173 41996 81104 11025 21038 40258 57012 77172 8802/;
0171351730999992000111512004+51610+069800FM-12+031299999V0200901N002010042019N0010001N1-00201-00261102451ADDAY171061AY221061GF108991081061004501999999MA1999999098591MD1710121+9999MW1101REMSYN082AAXX  15121 35173 41494 80902 11020 21026 39859 40245 57012 71072 886// 555 1/103;
0173351730999992000111515004+51610+069800FM-12+031299999V0209999C000010021019N0010001N1-00121-00191102391ADDAY171031AY221031GF108991081061002501999999KA1120M-00041MD1710051+9999MW1771REMSYN086AAXX  15151 35173 /1394 80000 11012 21019 40239 57005 77772 886// 333 11004 555 60012;
0180351730999992000111518004+51610+069800FM-12+031299999V0201101N002010075019N0200001N1-00101-00231102261ADDAA100001091AY171061AY221061GF108991081051008001999999KA1999M-00041MD1710121+9999MW1021REMSYN082AAXX  15181 35173 11598 81102 11010 21023 40226 57012 60010 70272 885// 333 11004;
0112351730999992000111521004+51610+069800FM-12+031299999V0200901N002010075019N0200001N1-00121-00221102271ADDGF108991081051008001999999MD1310011+9999REMSYN060AAXX  15211 35173 42598 80902 11012 21022 40227 53001 885//;
0171351730999992000111600004+51610+069800FM-12+031299999V0200701N002010075019N0010001N1-00211-00301102231ADDAY171061AY221061GF108991081051008001999999MA1999999098381MD1810051+9999MW1781REMSYN082AAXX  16001 35173 41594 80702 11021 21030 39838 40223 58005 77872 885// 555 1/104;
0225351730999992000111603004+51610+069800FM-12+031299999V0200501N002010042019N0040001N1-00301-00341102291ADDAA112000291AJ100029199999999AY171031AY221031GF108991999071004501021999IA1239MD1310041+9999MW1711REMSYN098AAXX  16031 35173 /1496 80502 11030 21034 40229 53004 77172 8872/ 333 47002 555 21032 69922 7001/;EQDQ01+000082SCOTLC
0199351730999992000111606004+51610+069800FM-12+031299999V0209999C000010075019N0040001N1-00401-00451102421ADDAA100000191AY171061AY221061GF108991081051008001999999KA1999N+99999MD1210111+9999MW1021REMSYN082AAXX  16061 35173 11596 80000 11040 21045 40242 52011 69920 70272 885// 333 21032;EQDQ01 -00322ATMN  
0140351730999992000111609004+51610+069800FM-12+031299999V0209999C000010075019N0040001N1-00361-00541102481ADDAY171031AY221031GF108991081051008001999999MD1210071+9999MW1021REMSYN066AAXX  16091 35173 41596 80000 11036 21054 40248 52007 70272 885//;
0171351730999992000111612004+51610+069800FM-12+031299999V0209999C000010042019N0010001N1-00321-00421102601ADDAY171061AY221061GF108991081061004501999999MA1999999098711MD1210111+9999MW1771REMSYN082AAXX  16121 35173 41494 80000 11032 21042 39871 40260 52011 77772 886// 555 1/105;
0173351730999992000111615004+51610+069800FM-12+031299999V0200901N002010075019N0010001N1-00321-00391102711ADDAY171031AY221031GF108991081051008001999999KA1120M-00161MD1210111+9999MW1711REMSYN086AAXX  16151 35173 /1594 80902 11032 21039 40271 52011 77172 885// 333 11016 555 69962;
0180351730999992000111618004+51610+069800FM-12+031299999V0202701N002010075019N0200001N1-00331-00471102761ADDAA100000591AY171061AY221061GF108991081051008001999999KA1999M-00161MD1210051+9999MW1021REMSYN082AAXX  16181 35173 11598 82702 11033 21047 40276 52005 69960 70272 885// 333 11016;
0112351730999992000111621004+51610+069800FM-12+031299999V0202701N002010075019N0200001N1-00351-00431102821ADDGF108991081051008001999999MD1210061+9999REMSYN060AAXX  16211 35173 42598 82702 11035 21043 40282 52006 885//;
0143351730999992000111700004+51610+069800FM-12+031299999V0202301N004019999999N0200001N1-00581-00761102851ADDGF108991081051999999999999MA1999999098921MD1810011+9999REMSYN076AAXX  17001 35173 42998 82304 11058 21076 39892 40285 58001 885// 555 1/107;
0178351730999992000111703004+51610+069800FM-12+031299999V0202001N004010075019N0040001N1-00561-00781102821ADDAA112999929AJ100039199999999GF108991081051008001999999IA1239MD1710031+9999REMSYN092AAXX  17031 35173 /2596 82004 11056 21078 40282 57003 885// 333 47003 555 21062 69902 7996/;
0157351730999992000111706004+51610+069800FM-12+031299999V0202301N006010075019N0020001N1-00411-00441102631ADDAA100000791AY171061AY231061GF108991081051008001999999MD1710161+9999MW1361REMSYN072AAXX  17061 35173 11595 82306 11041 21044 40263 57016 69900 73673 885//;
0159351730999992000111709004+51610+069800FM-12+031299999V0202501N006010042019N0020001N1-00241-00301102481ADDAY171031AY231031GF108991999071004501021999MD1710111+9999MW1361REMSYN066AAXX  17091 35173 41495 82506 11024 21030 40248 57011 73673 8872/;EQDQ01+000082SCOTLC
0206351730999992000111712004+51610+069800FM-12+031299999V0202701N006010042019N0010001N1-00231-00291102501ADDAY171061AY231061GF108991999071004501021999MA1999999098641MD1010021+9999MW1361REMSYN082AAXX  17121 35173 41494 82706 11023 21029 39864 40250 50302 73673 8872/ 555 1/103;EQDQ01+000082SCOTLCQ02+003022APC3  
0173351730999992000111715004+51610+069800FM-12+031299999V0202701N004010042019N0200001N1-00221-00251102681ADDAY171031AY231031GF108991081061004501999999KA1120M-00171MD1210171+9999MW1021REMSYN086AAXX  17151 35173 /1498 82704 11022 21025 40268 52017 70273 886// 333 11017 555 60072;
0180351730999992000111718004+51610+069800FM-12+031299999V0200901N004010042019N0200001N1-00241-00301102721ADDAA100003091AY171061AY231061GF108991081061004501999999KA1999M-00141MD1210041+9999MW1021REMSYN082AAXX  17181 35173 11498 80904 11024 21030 40272 52004 60030 70273 886// 333 11014;
0140351730999992000111721004+51610+069800FM-12+031299999V0201101N004010075019N0010001N1-00361-00501102761ADDAY171031AY221031GF108991081051008001999999MD1210021+9999MW1781REMSYN066AAXX  17211 35173 41594 81104 11036 21050 40276 52002 77872 885//;
0171351730999992000111800004+51610+069800FM-12+031299999V0201101N008010075019N0200001N1-00381-00531102711ADDAY171061AY231061GF108991081051008001999999MA1999999098821MD1810051+9999MW1361REMSYN082AAXX  18001 35173 41598 81108 11038 21053 39882 40271 58005 73673 885// 555 1/105;
0200351730999992000111803004+51610+069800FM-12+031299999V0201101N008010042019N0040001N1-00461-00661102651ADDAA112000991AJ100059199999999AY131031AY231031GF108991081071004501999999IA1239MD1710071+9999MW1361REMSYN092AAXX  18031 35173 /1496 81108 11046 21066 40265 57007 73633 887// 333 47005 555 69992 7004/;
0180351730999992000111806004+51610+069800FM-12+031299999V0202301N008010042019N0040001N1-00311-00591102651ADDAA100001091AY131061AY231061GF108991081071004501999999KA1999N-00501MD1310011+9999MW1361REMSYN082AAXX  18061 35173 11496 82308 11031 21059 40265 53001 69990 73633 887// 333 21050;
0140351730999992000111809004+51610+069800FM-12+031299999V0202001N006010042019N0040001N1-00171-00411102511ADDAY131031AY221031GF108991081061004501999999MD1810101+9999MW1021REMSYN066AAXX  18091 35173 41496 82006 11017 21041 40251 58010 70232 886//;
0171351730999992000111812004+51610+069800FM-12+031299999V0202301N010010042019N0200001N1-00101-00461102431ADDAY131061AY221061GF108991081071004501999999MA1999999098581MD1710081+9999MW1361REMSYN082AAXX  18121 35173 41498 82310 11010 21046 39858 40243 57008 73632 887// 555 1/101;
0193351730999992000111815004+51610+069800FM-12+031299999V0202301N008010042019N0200001N1-00141-00371102441ADDAA199000091AY131031AY231031GF108991081071004501999999KA1999M-00041MD1310011+9999MW1361REMSYN076AAXX  18151 35173 31498 82308 11014 21037 40244 53001 73633 887// 333 11004;EQDQ01  00002PRCP99
0193351730999992000111818004+51610+069800FM-12+031299999V0202501N006010042019N0010001N1-00181-00231102381ADDAA199000021AY171061AY231061GF108991999071004501021999KA1999M-00041MD1810061+9999MW1711REMSYN076AAXX  18181 35173 31494 82506 11018 21023 40238 58006 77173 8872/ 333 11004;EQDQ01+000082SCOTLC
0159351730999992000111821004+51610+069800FM-12+031299999V0202501N006010042019N0010001N1-00221-00251102251ADDAY171031AY231031GF108991999071004501021999MD1710131+9999MW1711REMSYN066AAXX  18211 35173 41494 82506 11022 21025 40225 57013 77173 8872/;EQDQ01+000082SCOTLC
0190351730999992000111900004+51610+069800FM-12+031299999V0202301N006010042019N0010001N1-00281-00301102081ADDAY171061AY231061GF108991999071004501021999MA1999999098241MD1710161+9999MW1711REMSYN082AAXX  19001 35173 41494 82306 11028 21030 39824 40208 57016 77173 8872/ 555 1/104;EQDQ01+000082SCOTLC
0225351730999992000111903004+51610+069800FM-12+031299999V0202301N004010042019N0040001N1-00361-00411101891ADDAA112006091AJ100119199999999AY171031AY231031GF108991999071004501021999IA1249MD1710201+9999MW1711REMSYN098AAXX  19031 35173 /1496 82304 11036 21041 40189 57020 77173 8872/ 333 48011 555 21040 60062 7006/;EQDQ01+000082SCOTLC
0199351730999992000111906004+51610+069800FM-12+031299999V0202301N004010042019N0040001N1-00281-00411101671ADDAA100006191AY171061AY231061GF108991999071004501021999KA1999N-00401MD1710201+9999MW1711REMSYN082AAXX  19061 35173 11496 82304 11028 21041 40167 57020 60060 77173 8872/ 333 21040;EQDQ01+000082SCOTLC
0159351730999992000111909004+51610+069800FM-12+031299999V0202501N004010042019N0020001N1-00221-00371101531ADDAY171031AY271031GF108991999071004501021999MD1710141+9999MW1731REMSYN066AAXX  19091 35173 41495 82504 11022 21037 40153 57014 77377 8872/;EQDQ01+000082SCOTLC
0171351730999992000111912004+51610+069800FM-12+031299999V0202901N002010075019N0200001N1-00251-00341101511ADDAY171061AY221061GF108991081051008001999999MA1999999097691MD1710011+9999MW1221REMSYN082AAXX  19121 35173 41598 82902 11025 21034 39769 40151 57001 72272 885// 555 1/103;
0145351730999992000111915004+51610+069800FM-12+031299999V0202701N004019999999N0200001N1-00401-00551101611ADDGF108991081001999999021999KA1120M-00171MD1310061+9999REMSYN080AAXX  19151 35173 /2998 82704 11040 21055 40161 53006 8802/ 333 11017 555 60032;
0190351730999992000111918004+51610+069800FM-12+031299999V0203201N008012200019N0200001N1-00651-00891101871ADDAA100003091AY171061AY231061GA1001+999999999GF100991001001999999001001KA1999M-00171MD1210231+9999MW1361REMSYN076AAXX  19181 35173 11998 03208 11065 21089 40187 52023 60030 73673 333 11017;
0140351730999992000111921004+51610+069800FM-12+031299999V0202901N006010042019N0200001N1-00781-01051102131ADDAY131031AY211031GF108991081071004501999999MD1210221+9999MW1031REMSYN066AAXX  19211 35173 41498 82906 11078 21105 40213 52022 70331 887//;
0181351730999992000112000004+51610+069800FM-12+031299999V0202701N002012200019N0200001N1-01491-01691102471ADDAY131061AY211061GA1001+999999999GF100991001001999999001001MA1999999098421MD1210221+9999MW1761REMSYN076AAXX  20001 35173 41998 02702 11149 21169 39842 40247 52022 77631 555 1/116;
0178351730999992000112003004+51610+069800FM-12+031299999V0202301N002012200019N0040001N1-01921-02181102741ADDAA112000391AJ100159199999999GF102991001001999999001081IA1249MD1210201+9999REMSYN092AAXX  20031 35173 /2996 22302 11192 21218 40274 52020 80008 333 48015 555 21199 69932 7003/;
0152351730999992000112006004+51610+069800FM-12+031299999V0202501N002019999999N0040001N1-01651-01911102781ADDAA100000391GF105991001001999999001061KA1999N-01991MD1210081+9999REMSYN076AAXX  20061 35173 12996 52502 11165 21191 40278 52008 69930 80006 333 21199;
0112351730999992000112009004+51610+069800FM-12+031299999V0202301N002019999999N0040001N1-01111-01471102601ADDGF108991081001999999021999MD1810101+9999REMSYN060AAXX  20091 35173 42996 82302 11111 21147 40260 58010 8802/;
0171351730999992000112012004+51610+069800FM-12+031299999V0202301N002019999999N0200001N1-01031-01231102421ADDAY171061AY221061GF108991081001999999011999MA1999999098451MD1710151+9999MW1221REMSYN082AAXX  20121 35173 41998 82302 11103 21123 39845 40242 57015 72272 8801/ 555 1/111;
0155351730999992000112015004+51610+069800FM-12+031299999V0201801N002012200019N0200001N1-01261-01461102321ADDGA1001+999999999GF100991001001999999001001KA1120M-00921MD1710131+9999REMSYN074AAXX  20151 35173 /2998 01802 11126 21146 40232 57013 333 11092 555 69942;
0180351730999992000112018004+51610+069800FM-12+031299999V0202301N002019999999N0010001N1-01131-01331102111ADDAA100000591AY171061AY211061GF108991081001999999021999KA1999M-00921MD1710161+9999MW1711REMSYN082AAXX  20181 35173 11994 82302 11113 21133 40211 57016 69940 77171 8802/ 333 11092;
0150351730999992000112021004+51610+069800FM-12+031299999V0209999C000012200019N0200001N1-01271-01471102001ADDAY171031AY211031GA1001+999999999GF100991001001999999001001MD1710161+9999MW1011REMSYN060AAXX  20211 35173 41998 00000 11127 21147 40200 57016 70171;
0181351730999992000112100004+51610+069800FM-12+031299999V0209999C000012200019N0010001N1-01321-01521102011ADDAY101061AY211061GA1001+999999999GF100991001001999999001001MA1999999098011MD1310011+9999MW1101REMSYN076AAXX  21001 35173 41994 00000 11132 21152 39801 40201 53001 71001 555 1/115;
0196351730999992000112103004+51610+069800FM-12+031299999V0203601N002012200019N0005001N1-01791-02051102141ADDAA112999929AY101031AY211031GA1001+999999999GF100991001001999999001001KA1120N-01841MD1210051+9999MW1481REMSYN082AAXX  21031 35173 /1993 03602 11179 21205 40214 52005 74801 333 21184 69902 7994/;
0190351730999992000112106004+51610+069800FM-12+031299999V0203601N002012200019N0040001N1-01831-02091102291ADDAA100000791AY141061AY221061GA1001+999999999GF100991001001999999001001KA1999N-01841MD1210141+9999MW1021REMSYN076AAXX  21061 35173 11996 03602 11183 21209 40229 52014 69900 70242 333 21184;
0122351730999992000112109004+51610+069800FM-12+031299999V0203601N002012200019N0040001N1-01501-01771102281ADDGA1001+999999999GF100991001001999999001001MD1210041+9999REMSYN054AAXX  21091 35173 42996 03602 11150 21177 40228 52004;
0153351730999992000112112004+51610+069800FM-12+031299999V0209999C000012200019N0200001N1-01611-01871102381ADDGA1001+999999999GF100991001001999999001001MA1999999098321MD1210081+9999REMSYN070AAXX  21121 35173 42998 00000 11161 21187 39832 40238 52008 555 1/120;
0165351730999992000112115004+51610+069800FM-12+031299999V0203601N002019999999N0200001N1-01931-02191102531ADDAA199000091GF108991081001999999021999KA1999M-01311MD1210091+9999REMSYN070AAXX  21151 35173 32998 83602 11193 21219 40253 52009 8802/ 333 11131;EQDQ01  00002PRCP99
0193351730999992000112118004+51610+069800FM-12+031299999V0203601N002010075019N0200001N1-01951-02211102571ADDAA199000091AY171061AY211061GF106991061051008001001001KA1999M-01311MD1210041+9999MW1021REMSYN076AAXX  21181 35173 31598 63602 11195 21221 40257 52004 70271 86500 333 11131;EQDQ01  00002PRCP99
0112351730999992000112121004+51610+069800FM-12+031299999V0203601N002010042019N0200001N1-02331-02651102701ADDGF105991051071004501001001MD1210061+9999REMSYN060AAXX  21211 35173 42498 53602 11233 21265 40270 52006 85700;
0143351730999992000112200004+51610+069800FM-12+031299999V0200501N002010042019N0200001N1-02511-02821102781ADDGF105991051071004501001001MA1999999098591MD1210041+9999REMSYN076AAXX  22001 35173 42498 50502 11251 21282 39859 40278 52004 85700 555 1/127;
0207351730999992000112203004+51610+069800FM-12+031299999V0200501N002012200019N0040001N1-02891-03201102891ADDAA112999999AJ100149199999999GA1001+999999999GF100991001001999999001001IA1249MD1210041+9999REMSYN086AAXX  22031 35173 /2996 00502 11289 21320 40289 52004 333 48014 555 21294 69902 7990/;EQDQ01  99992PRCP12
0162351730999992000112206004+51610+069800FM-12+031299999V0203601N002012200019N0040001N1-02671-02981103131ADDAA100000791GA1001+999999999GF100991001001999999001001KA1999N-02941MD1210271+9999REMSYN070AAXX  22061 35173 12996 03602 11267 21298 40313 52027 69900 333 21294;
0122351730999992000112209004+51610+069800FM-12+031299999V0203601N002012200019N0040001N1-02461-02851103121ADDGA1001+999999999GF100991001001999999001001MD1210031+9999REMSYN054AAXX  22091 35173 42996 03602 11246 21285 40312 52003;
0153351730999992000112212004+51610+069800FM-12+031299999V0209999C000012200019N0200001N1-02571-02881103301ADDGA1001+999999999GF100991001001999999001001MA1999999099041MD1210151+9999REMSYN070AAXX  22121 35173 42998 00000 11257 21288 39904 40330 52015 555 1/128;
0175351730999992000112215004+51610+069800FM-12+031299999V0209999C000012200019N0200001N1-02861-03161103521ADDAA199000091GA1001+999999999GF100991001001999999001001KA1999M-02241MD1210161+9999REMSYN064AAXX  22151 35173 32998 00000 11286 21316 40352 52016 333 11224;EQDQ01  00002PRCP99
0175351730999992000112218004+51610+069800FM-12+031299999V0209999C000012200019N0200001N1-03011-03321103721ADDAA199000091GA1001+999999999GF100991001001999999001001KA1999M-02241MD1210171+9999REMSYN064AAXX  22181 35173 32998 00000 11301 21332 40372 52017 333 11224;EQDQ01  00002PRCP99
0122351730999992000112221004+51610+069800FM-12+031299999V0209999C000012200019N0200001N1-03131-03501103831ADDGA1001+999999999GF100991001001999999001001MD1210091+9999REMSYN054AAXX  22211 35173 42998 00000 11313 21350 40383 52009;
0153351730999992000112300004+51610+069800FM-12+031299999V0209999C000012200019N0200001N1-03261-03611103981ADDGA1001+999999999GF100991001001999999001001MA1999999099571MD1210111+9999REMSYN070AAXX  23001 35173 42998 00000 11326 21361 39957 40398 52011 555 1/134;
0201351730999992000112303004+51610+069800FM-12+031299999V0209999C000012200019N0040001N1-03411-03781104121ADDAA199000091AJ100149199999999GA1001+999999999GF100991001001999999001001IA1249MD1210121+9999REMSYN080AAXX  23031 35173 32996 00000 11341 21378 40412 52012 333 48014 555 21347 7000/;EQDQ01  00002PRCP99
0175351730999992000112306004+51610+069800FM-12+031299999V0209999C000012200019N0040001N1-02941-03241104221ADDAA199000091GA1001+999999999GF100991001001999999001001KA1999N-03471MD1210181+9999REMSYN064AAXX  23061 35173 32996 00000 11294 21324 40422 52018 333 21347;EQDQ01  00002PRCP99
0122351730999992000112309004+51610+069800FM-12+031299999V0209999C000012200019N0040001N1-02421-02811104171ADDGA1001+999999999GF100991001001999999001001MD1210031+9999REMSYN054AAXX  23091 35173 42996 00000 11242 21281 40417 52003;
0153351730999992000112312004+51610+069800FM-12+031299999V0209999C000012200019N0200001N1-02491-02811104221ADDGA1001+999999999GF100991001001999999001001MA1999999099931MD1210031+9999REMSYN070AAXX  23121 35173 42998 00000 11249 21281 39993 40422 52003 555 1/126;
0175351730999992000112315004+51610+069800FM-12+031299999V0202301N002012200019N0200001N1-02801-03111104321ADDAA199000091GA1001+999999999GF100991001001999999001001KA1999M-02371MD1210051+9999REMSYN064AAXX  23151 35173 32998 02302 11280 21311 40432 52005 333 11237;EQDQ01  00002PRCP99
0175351730999992000112318004+51610+069800FM-12+031299999V0202501N002012200019N0200001N1-02871-03181104441ADDAA199000091GA1001+999999999GF100991001001999999001001KA1999M-02371MD1210101+9999REMSYN064AAXX  23181 35173 32998 02502 11287 21318 40444 52010 333 11237;EQDQ01  00002PRCP99
0153351730999992000112400004+51610+069800FM-12+031299999V0201801N002012200019N0200001N1-02811-03111104351ADDGA1001+999999999GF100991001001999999001001MA1999999100011MD1710021+9999REMSYN070AAXX  24001 35173 42998 01802 11281 21311 30001 40435 57002 555 1/129;
0201351730999992000112403004+51610+069800FM-12+031299999V0201801N002012200019N0040001N1-02691-03001104271ADDAA199000091AJ100149199999999GA1001+999999999GF100991001001999999001001IA1249MD1710061+9999REMSYN080AAXX  24031 35173 32996 01802 11269 21300 40427 57006 333 48014 555 21300 7000/;EQDQ01  00002PRCP99
0165351730999992000112406004+51610+069800FM-12+031299999V0201801N004012200019N0040001N1-02311-02631104151ADDAA199000091GF103991001001999999001041KA1999N-03001MD1710051+9999REMSYN070AAXX  24061 35173 32996 31804 11231 21263 40415 57005 80004 333 21300;EQDQ01  00002PRCP99
0122351730999992000112409004+51610+069800FM-12+031299999V0201801N002012200019N0040001N1-01731-02231103951ADDGA1001+999999999GF100991001001999999001001MD1710091+9999REMSYN054AAXX  24091 35173 42996 01802 11173 21223 40395 57009;
0153351730999992000112412004+51610+069800FM-12+031299999V0201801N002012200019N0200001N1-02011-02341103941ADDGA1001+999999999GF100991001001999999001001MA1999999099751MD1710061+9999REMSYN070AAXX  24121 35173 42998 01802 11201 21234 39975 40394 57006 555 1/121;
0175351730999992000112415004+51610+069800FM-12+031299999V0201801N002012200019N0200001N1-02191-02511103941ADDAA199000091GA1001+999999999GF100991001001999999001001KA1999M-01581MD1710031+9999REMSYN064AAXX  24151 35173 32998 01802 11219 21251 40394 57003 333 11158;EQDQ01  00002PRCP99
0175351730999992000112418004+51610+069800FM-12+031299999V0201801N002012200019N0200001N1-02281-02601103991ADDAA199000091GA1001+999999999GF100991001001999999001001KA1999M-01381MD1210011+9999REMSYN064AAXX  24181 35173 32998 01802 11228 21260 40399 52001 333 11138;EQDQ01  00002PRCP99
0122351730999992000112421004+51610+069800FM-12+031299999V0201801N002012200019N0200001N1-02401-02651104041ADDGA1001+999999999GF100991001001999999001001MD1210061+9999REMSYN054AAXX  24211 35173 42998 01802 11240 21265 40404 52006;
0153351730999992000112500004+51610+069800FM-12+031299999V0202301N002012200019N0200001N1-02481-02801103991ADDGA1001+999999999GF100991001001999999001001MA1999999099711MD1810071+9999REMSYN070AAXX  25001 35173 42998 02302 11248 21280 39971 40399 58007 555 1/126;
0191351730999992000112503004+51610+069800FM-12+031299999V0202301N002012200019N0040001N1-02521-02841104021ADDAA199000091AJ100149199999999GF103991001001999999001081IA1249MD1310031+9999REMSYN086AAXX  25031 35173 32996 32302 11252 21284 40402 53003 80008 333 48014 555 21257 7000/;EQDQ01  00002PRCP99
0165351730999992000112506004+51610+069800FM-12+031299999V0202301N002012200019N0040001N1-02231-02551104011ADDAA199000091GF102991001001999999001081KA1999N-02571MD1210051+9999REMSYN070AAXX  25061 35173 32996 22302 11223 21255 40401 52005 80008 333 21257;EQDQ01  00002PRCP99
0112351730999992000112509004+51610+069800FM-12+031299999V0202301N002012200019N0040001N1-01651-01991103841ADDGF102991001001999999001061MD1810071+9999REMSYN060AAXX  25091 35173 42996 22302 11165 21199 40384 58007 80006;
0143351730999992000112512004+51610+069800FM-12+031299999V0202301N002012200019N0200001N1-01981-02311103871ADDGF102991001001999999001061MA1999999099691MD1710031+9999REMSYN076AAXX  25121 35173 42998 22302 11198 21231 39969 40387 57003 80006 555 1/122;
0175351730999992000112515004+51610+069800FM-12+031299999V0202301N002012200019N0200001N1-02191-02441103901ADDAA199000091GA1001+999999999GF100991001001999999001001KA1999M-01521MD1410001+9999REMSYN064AAXX  25151 35173 32998 02302 11219 21244 40390 54000 333 11152;EQDQ01  00002PRCP99
0175351730999992000112518004+51610+069800FM-12+031299999V0202301N002012200019N0200001N1-02331-02651103891ADDAA199000091GA1001+999999999GF100991001001999999001001KA1999M-01521MD1810031+9999REMSYN064AAXX  25181 35173 32998 02302 11233 21265 40389 58003 333 11152;EQDQ01  00002PRCP99
0122351730999992000112521004+51610+069800FM-12+031299999V0202301N002012200019N0200001N1-02311-02631103801ADDGA1001+999999999GF100991001001999999001001MD1710031+9999REMSYN054AAXX  25211 35173 42998 02302 11231 21263 40380 57003;
0153351730999992000112600004+51610+069800FM-12+031299999V0202301N002012200019N0200001N1-02451-02771103781ADDGA1001+999999999GF100991001001999999001001MA1999999099531MD1710041+9999REMSYN070AAXX  26001 35173 42998 02302 11245 21277 39953 40378 57004 555 1/126;
0201351730999992000112603004+51610+069800FM-12+031299999V0201801N002012200019N0040001N1-02531-02841103751ADDAA199000091AJ100149199999999GA1001+999999999GF100991001001999999001001IA1249MD1710041+9999REMSYN080AAXX  26031 35173 32996 01802 11253 21284 40375 57004 333 48014 555 21259 7000/;EQDQ01  00002PRCP99
0175351730999992000112606004+51610+069800FM-12+031299999V0201801N002012200019N0040001N1-02091-02341103661ADDAA199000091GA1001+999999999GF100991001001999999001001KA1999N-02591MD1710021+9999REMSYN064AAXX  26061 35173 32996 01802 11209 21234 40366 57002 333 21259;EQDQ01  00002PRCP99
0122351730999992000112609004+51610+069800FM-12+031299999V0209999C000012200019N0040001N1-01811-02071103451ADDGA1001+999999999GF100991001001999999001001MD1710161+9999REMSYN054AAXX  26091 35173 42996 00000 11181 21207 40345 57016;
0143351730999992000112612004+51610+069800FM-12+031299999V0201801N002012200019N0200001N1-01931-02341103471ADDGF103991001001999999001081MA1999999099311MD1410001+9999REMSYN076AAXX  26121 35173 42998 31802 11193 21234 39931 40347 54000 80008 555 1/123;
0165351730999992000112615004+51610+069800FM-12+031299999V0201601N002012200019N0200001N1-02011-02421103441ADDAA199000091GF102991001001999999001081KA1999M-01721MD1810031+9999REMSYN070AAXX  26151 35173 32998 21602 11201 21242 40344 58003 80008 333 11172;EQDQ01  00002PRCP99
0165351730999992000112618004+51610+069800FM-12+031299999V0201801N002010075019N0200001N1-01891-02301103381ADDAA199000091GF106991061051008001001001KA1999M-01721MD1710051+9999REMSYN070AAXX  26181 35173 32598 61802 11189 21230 40338 57005 86500 333 11172;EQDQ01  00002PRCP99
0112351730999992000112621004+51610+069800FM-12+031299999V0209999C000012200019N0200001N1-01961-02291103271ADDGF102991021051008001001001MD1710121+9999REMSYN060AAXX  26211 35173 42598 20000 11196 21229 40327 57012 82500;
0143351730999992000112700004+51610+069800FM-12+031299999V0201801N002010075019N0200001N1-01981-02311103201ADDGF106991061051008001001001MA1999999099051MD1710061+9999REMSYN076AAXX  27001 35173 42598 61802 11198 21231 39905 40320 57006 86500 555 1/122;
0191351730999992000112703004+51610+069800FM-12+031299999V0201801N002019999999N0040001N1-02071-02321103251ADDAA199000091AJ100139199999999GF106991061001999999081001IA1249MD1310031+9999REMSYN086AAXX  27031 35173 32996 61802 11207 21232 40325 53003 86080 333 48013 555 21214 7000/;EQDQ01  00002PRCP99
0165351730999992000112706004+51610+069800FM-12+031299999V0201801N002012200019N0040001N1-01851-02261103311ADDAA199000091GF102991001001999999001021KA1999N-02141MD1210101+9999REMSYN070AAXX  27061 35173 32996 21802 11185 21226 40331 52010 80002 333 21214;EQDQ01  00002PRCP99
0122351730999992000112709004+51610+069800FM-12+031299999V0209999C000012200019N0040001N1-01511-02111103171ADDGA1001+999999999GF100991001001999999001001MD1810091+9999REMSYN054AAXX  27091 35173 42996 00000 11151 21211 40317 58009;
0143351730999992000112712004+51610+069800FM-12+031299999V0209999C000012200019N0200001N1-01601-02111103141ADDGF101991011001999999041001MA1999999099051MD1710041+9999REMSYN076AAXX  27121 35173 42998 10000 11160 21211 39905 40314 57004 81040 555 1/122;
0175351730999992000112715004+51610+069800FM-12+031299999V0201801N002012200019N0200001N1-01891-02221103211ADDAA199000091GA1001+999999999GF100991001001999999001001KA1999M-01441MD1310021+9999REMSYN064AAXX  27151 35173 32998 01802 11189 21222 40321 53002 333 11144;EQDQ01  00002PRCP99
0175351730999992000112718004+51610+069800FM-12+031299999V0201801N002012200019N0200001N1-02041-02371103221ADDAA199000091GA1001+999999999GF100991001001999999001001KA1999M-01441MD1410001+9999REMSYN064AAXX  27181 35173 32998 01802 11204 21237 40322 54000 333 11144;EQDQ01  00002PRCP99
0122351730999992000112721004+51610+069800FM-12+031299999V0201601N002012200019N0200001N1-02101-02351102951ADDGA1001+999999999GF100991001001999999001001MD1810291+9999REMSYN054AAXX  27211 35173 42998 01602 11210 21235 40295 58029;
0153351730999992000112800004+51610+069800FM-12+031299999V0209999C000012200019N0200001N1-02151-02401102871ADDGA1001+999999999GF100991001001999999001001MA1999999098641MD1710131+9999REMSYN070AAXX  28001 35173 42998 00000 11215 21240 39864 40287 57013 555 1/124;
0201351730999992000112803004+51610+069800FM-12+031299999V0209999C000012200019N0040001N1-02291-02541102631ADDAA199000091AJ100139199999999GA1001+999999999GF100991001001999999001001IA1249MD1710191+9999REMSYN080AAXX  28031 35173 32996 00000 11229 21254 40263 57019 333 48013 555 21238 7000/;EQDQ01  00002PRCP99
0165351730999992000112806004+51610+069800FM-12+031299999V0201401N002012200019N0040001N1-02071-02261102381ADDAA199000091GF102991001001999999001061KA1999N-02381MD1710211+9999REMSYN070AAXX  28061 35173 32996 21402 11207 21226 40238 57021 80006 333 21238;EQDQ01  00002PRCP99
0112351730999992000112809004+51610+069800FM-12+031299999V0201601N002012200019N0040001N1-01631-01971101981ADDGF102991001001999999001061MD1710311+9999REMSYN060AAXX  28091 35173 42996 21602 11163 21197 40198 57031 80006;
0153351730999992000112812004+51610+069800FM-12+031299999V0201601N002012200019N0200001N1-01871-02131101751ADDGA1001+999999999GF100991001001999999001001MA1999999097671MD1710261+9999REMSYN070AAXX  28121 35173 42998 01602 11187 21213 39767 40175 57026 555 1/121;
0175351730999992000112815004+51610+069800FM-12+031299999V0201401N002012200019N0200001N1-02071-02261101671ADDAA199000091GA1001+999999999GF100991001001999999001001KA1999M-01441MD1710121+9999REMSYN064AAXX  28151 35173 32998 01402 11207 21226 40167 57012 333 11144;EQDQ01  00002PRCP99
0175351730999992000112818004+51610+069800FM-12+031299999V0209999C000012200019N0200001N1-02031-02221101481ADDAA199000091GA1001+999999999GF100991001001999999001001KA1999M-01441MD1710161+9999REMSYN064AAXX  28181 35173 32998 00000 11203 21222 40148 57016 333 11144;EQDQ01  00002PRCP99
0112351730999992000112821004+51610+069800FM-12+031299999V0209999C000012200019N0200001N1-02041-02331101281ADDGF103991001001999999001021MD1710191+9999REMSYN060AAXX  28211 35173 42998 30000 11204 21233 40128 57019 80002;
0153351730999992000112900004+51610+069800FM-12+031299999V0209999C000012200019N0200001N1-02191-02441101221ADDGA1001+999999999GF100991001001999999001001MA1999999097111MD1710091+9999REMSYN070AAXX  29001 35173 42998 00000 11219 21244 39711 40122 57009 555 1/124;
0191351730999992000112903004+51610+069800FM-12+031299999V0209999C000019999999N0040001N1-02071-02261101331ADDAA199000091AJ100139199999999GF108991081001999999021999IA1249MD1310121+9999REMSYN086AAXX  29031 35173 32996 80000 11207 21226 40133 53012 8802/ 333 48013 555 21224 7000/;EQDQ01  00002PRCP99
0174351730999992000112906004+51610+069800FM-12+031299999V0209999C000019999999N0040001N1-01321-01451101401ADDAA199000021AY171061AY211061GF108991081001999999021999KA1999N-02241MD1210191+9999MW1711REMSYN076AAXX  29061 35173 31996 80000 11132 21145 40140 52019 77171 8802/ 333 21224;
0140351730999992000112909004+51610+069800FM-12+031299999V0203401N006019999999N0040001N1-00861-01141101811ADDAY171031AY221031GF108991081001999999021999MD1210471+9999MW1021REMSYN066AAXX  29091 35173 41996 83406 11086 21114 40181 52047 70272 8802/;
0171351730999992000112912004+51610+069800FM-12+031299999V0203601N006019999999N0200001N1-01411-01841102431ADDAY171061AY221061GF106991061001999999031001MA1999999098401MD1210511+9999MW1021REMSYN082AAXX  29121 35173 41998 63606 11141 21184 39840 40243 52051 70272 86030 555 1/115;
0155351730999992000112915004+51610+069800FM-12+031299999V0203601N004012200019N0200001N1-01831-02161103041ADDGA1001+999999999GF100991001001999999001001KA1120M-00761MD1210521+9999REMSYN074AAXX  29151 35173 /2998 03604 11183 21216 40304 52052 333 11076 555 60022;
0162351730999992000112918004+51610+069800FM-12+031299999V0209999C000012200019N0200001N1-02491-02741103501ADDAA100002091GA1001+999999999GF100991001001999999001001KA1999M-00761MD1210331+9999REMSYN070AAXX  29181 35173 12998 00000 11249 21274 40350 52033 60020 333 11076;
0143351730999992000113000004+51610+069800FM-12+031299999V0201401N002019999999N0200001N1-02551-02861103911ADDGF107991071001999999051001MA1999999099641MD1210111+9999REMSYN076AAXX  30001 35173 42998 71402 11255 21286 39964 40391 52011 87050 555 1/131;
0191351730999992000113003004+51610+069800FM-12+031299999V0202001N002019999999N0040001N1-01831-02091103851ADDAA199000091AJ100159199999999GF106991061001999999031001IA1249MD1210061+9999REMSYN086AAXX  30031 35173 32996 62002 11183 21209 40385 52006 86030 333 48015 555 21278 7002/;EQDQ01  00002PRCP99
0165351730999992000113006004+51610+069800FM-12+031299999V0202501N004019999999N0040001N1-01611-02051103831ADDAA199000091GF106991061001999999031001KA1999N-02781MD1210011+9999REMSYN070AAXX  30061 35173 32996 62504 11161 21205 40383 52001 86030 333 21278;EQDQ01  00002PRCP99
0140351730999992000113009004+51610+069800FM-12+031299999V0202301N008019999999N0040001N1-00961-01261103601ADDAY131031AY221031GF107991071001999999071001MD1810121+9999MW1361REMSYN066AAXX  30091 35173 41996 72308 11096 21126 40360 58012 73632 87070;
0171351730999992000113012004+51610+069800FM-12+031299999V0202301N008019999999N0200001N1-00901-01101103651ADDAY171061AY231061GF108991081001999999021999MA1999999099641MD1310051+9999MW1361REMSYN082AAXX  30121 35173 41998 82308 11090 21110 39964 40365 53005 73673 8802/ 555 1/110;
0173351730999992000113015004+51610+069800FM-12+031299999V0202301N008019999999N0200001N1-00951-01211103621ADDAY131031AY231031GF108991081001999999021999KA1120M-00841MD1810031+9999MW1361REMSYN086AAXX  30151 35173 /1998 82308 11095 21121 40362 58003 73633 8802/ 333 11084 555 69922;
0190351730999992000113018004+51610+069800FM-12+031299999V0202301N008012200019N0200001N1-01101-01461103611ADDAA100000191AY131061AY231061GA1001+999999999GF100991001001999999001001KA1999M-00841MD1710041+9999MW1361REMSYN076AAXX  30181 35173 11998 02308 11110 21146 40361 57004 69920 73633 333 11084;
0150351730999992000113021004+51610+069800FM-12+031299999V0202001N006012200019N0200001N1-01201-01471103521ADDAY131031AY201031GA1001+999999999GF100991001001999999001001MD1710091+9999MW1021REMSYN060AAXX  30211 35173 41998 02006 11120 21147 40352 57009 70230;
0171351730999992000120100004+51610+069800FM-12+031299999V0202001N006019999999N0200001N1-01391-01661103591ADDAY131061AY211061GF106991061001999999071001MA1999999099511MD1310031+9999MW1031REMSYN082AAXX  01001 35173 41998 62006 11139 21166 39951 40359 53003 70331 86070 555 1/115;
0191351730999992000120103004+51610+069800FM-12+031299999V0202001N006019999999N0040001N1-01461-01731103271ADDAA199000091AJ100139199999999GF108991031001999999071051IA1249MD1810311+9999REMSYN086AAXX  01031 35173 32996 82006 11146 21173 40327 58031 83075 333 48013 555 21154 7992/;EQDQ01  00002PRCP99
0165351730999992000120106004+51610+069800FM-12+031299999V0201801N004019999999N0040001N1-01441-01711103051ADDAA199000091GF108991001001999999001071KA1999N-01541MD1710211+9999REMSYN070AAXX  01061 35173 32996 81804 11144 21171 40305 57021 80007 333 21154;EQDQ01  00002PRCP99
0112351730999992000120109004+51610+069800FM-12+031299999V0201801N006019999999N0040001N1-01111-01311102681ADDGF108991021001999999071051MD1710311+9999REMSYN060AAXX  01091 35173 42996 81806 11111 21131 40268 57031 82075;
0143351730999992000120112004+51610+069800FM-12+031299999V0201801N006019999999N0200001N1-00991-01211102211ADDGF108991081001999999071999MA1999999098251MD1710431+9999REMSYN076AAXX  01121 35173 42998 81806 11099 21121 39825 40221 57043 8807/ 555 1/111;
0165351730999992000120115004+51610+069800FM-12+031299999V0201801N006019999999N0200001N1-01031-01311101841ADDAA199000091GF108991081001999999071999KA1999M-00891MD1710361+9999REMSYN070AAXX  01151 35173 32998 81806 11103 21131 40184 57036 8807/ 333 11089;EQDQ01  00002PRCP99
0165351730999992000120118004+51610+069800FM-12+031299999V0201801N006019999999N0200001N1-00941-01291101391ADDAA199000091GF108991081001999999071999KA1999M-00891MD1710421+9999REMSYN070AAXX  01181 35173 32998 81806 11094 21129 40139 57042 8807/ 333 11089;EQDQ01  00002PRCP99
0112351730999992000120121004+51610+069800FM-12+031299999V0201401N006019999999N0200001N1-00861-01241101021ADDGF108991081001999999071999MD1710341+9999REMSYN060AAXX  01211 35173 42998 81406 11086 21124 40102 57034 8807/;
0143351730999992000120200004+51610+069800FM-12+031299999V0201801N002019999999N0200001N1-00981-01241100731ADDGF108991081001999999021999MA1999999096821MD1710311+9999REMSYN076AAXX  02001 35173 42998 81802 11098 21124 39682 40073 57031 8802/ 555 1/111;
0206351730999992000120203004+51610+069800FM-12+031299999V0209999C000019999999N0040001N1-01031-01161100621ADDAA112000791AJ100139199999999AY171031AY221031GF108991081001999999021999IA1249MD1710111+9999MW1711REMSYN098AAXX  02031 35173 /1996 80000 11103 21116 40062 57011 77172 8802/ 333 48013 555 21106 69972 7997/;
0180351730999992000120206004+51610+069800FM-12+031299999V0203201N004019999999N0040001N1-01011-01291100781ADDAA100000891AY171061AY221061GF105991051001999999021001KA1999N-01061MD1710161+9999MW1711REMSYN082AAXX  02061 35173 11996 53204 11101 21129 40078 57016 69970 77172 85020 333 21106;
0140351730999992000120209004+51610+069800FM-12+031299999V0202901N004012200019N0040001N1-01111+99999101151ADDAY171031AY211031GF103991031001999999051001MD1210341+9999MW1011REMSYN066AAXX  02091 35173 41996 32904 11111 21109 40115 52034 70171 83050;
0171351730999992000120212004+51610+069800FM-12+031299999V0202501N004019999999N0200001N1-01151-01431101481ADDAY171061AY211061GF107991071001999999071001MA1999999097521MD1210311+9999MW1031REMSYN082AAXX  02121 35173 41998 72504 11115 21143 39752 40148 52031 70371 87070 555 1/112;
0164351730999992000120215004+51610+069800FM-12+031299999V0202501N004019999999N0200001N1-01111-01311101721ADDGF108991081001999999031999KA1120M+99999MD1210231+9999REMSYN080AAXX  02151 35173 /2998 82504 11111 21131 40172 52023 8803/ 333 11117 555 69942;EQDQ01 -01172ATMX  
0152351730999992000120218004+51610+069800FM-12+031299999V0202301N006019999999N0200001N1-01131-01331101891ADDAA100000591GF108991081001999999071999KA1999M-00911MD1210171+9999REMSYN076AAXX  02181 35173 12998 82306 11113 21133 40189 52017 69940 8807/ 333 11091;
0112351730999992000120221004+51610+069800FM-12+031299999V0202301N006019999999N0200001N1-01181-01381101981ADDGF108991081001999999071999MD1210081+9999REMSYN060AAXX  02211 35173 42998 82306 11118 21138 40198 52008 8807/;
0171351730999992000120300004+51610+069800FM-12+031299999V0201801N004019999999N0010001N1-01031-01161101801ADDAY171061AY221061GF108991081001999999021999MA1999999097851MD1810151+9999MW1711REMSYN082AAXX  03001 35173 41994 81804 11103 21116 39785 40180 58015 77172 8802/ 555 1/112;
0206351730999992000120303004+51610+069800FM-12+031299999V0201801N004019999999N0040001N1-01051-01181101721ADDAA112001091AJ100149199999999AY171031AY271031GF108991081001999999021999IA1249MD1710081+9999MW1711REMSYN098AAXX  03031 35173 /1996 81804 11105 21118 40172 57008 77177 8802/ 333 48014 555 21120 60012 7002/;
0180351730999992000120306004+51610+069800FM-12+031299999V0201801N004019999999N0040001N1-00921-01081101571ADDAA100001091AY171061AY271061GF108991081001999999021999KA1999N-01201MD1710131+9999MW1711REMSYN082AAXX  03061 35173 11996 81804 11092 21108 40157 57013 60010 77177 8802/ 333 21120;
0140351730999992000120309004+51610+069800FM-12+031299999V0202301N006019999999N0040001N1-00881-01031101281ADDAY171031AY271031GF108991081001999999021999MD1710281+9999MW1711REMSYN066AAXX  03091 35173 41996 82306 11088 21103 40128 57028 77177 8802/;
0171351730999992000120312004+51610+069800FM-12+031299999V0202001N008019999999N0010001N1-00741-00871100991ADDAY171061AY231061GF108991081001999999021999MA1999999097111MD1710251+9999MW1711REMSYN082AAXX  03121 35173 41994 82008 11074 21087 39711 40099 57025 77173 8802/ 555 1/108;
0173351730999992000120315004+51610+069800FM-12+031299999V0202001N006019999999N0010001N1-00721-00811100801ADDAY171031AY231031GF108991081001999999021999KA1120M-00541MD1710181+9999MW1731REMSYN086AAXX  03151 35173 /1994 82006 11072 21081 40080 57018 77373 8802/ 333 11054 555 60042;
0180351730999992000120318004+51610+069800FM-12+031299999V0202001N002019999999N0010001N1-00681-00761100641ADDAA100004191AY171061AY231061GF108991081001999999021999KA1999M-00541MD1710161+9999MW1711REMSYN082AAXX  03181 35173 11994 82002 11068 21076 40064 57016 60040 77173 8802/ 333 11054;
0140351730999992000120321004+51610+069800FM-12+031299999V0203201N004019999999N0010001N1-00841-00991100581ADDAY171031AY271031GF108991081001999999021999MD1710071+9999MW1711REMSYN066AAXX  03211 35173 41994 83204 11084 21099 40058 57007 77177 8802/;
0181351730999992000120400004+51610+069800FM-12+031299999V0203601N004012200019N0200001N1-01861-02161101181ADDAY171061AY211061GA1001+999999999GF100991001001999999001001MA1999999097111MD1310411+9999MW1011REMSYN076AAXX  04001 35173 41998 03604 11186 21216 39711 40118 53041 70171 555 1/121;
0188351730999992000120403004+51610+069800FM-12+031299999V0202701N004012200019N0040001N1-02611-02921101731ADDAA112001091AJ100169199999999GA1001+999999999GF100991001001999999001001IA1249MD1210421+9999REMSYN086AAXX  04031 35173 /2996 02704 11261 21292 40173 52042 333 48016 555 21264 60012 7005/;
0190351730999992000120406004+51610+069800FM-12+031299999V0202901N008012200019N0040001N1-02491-02961102171ADDAA100001091AY131061AY201061GA1001+999999999GF100991001001999999001001KA1999N-02641MD1210441+9999MW1361REMSYN076AAXX  04061 35173 11996 02908 11249 21296 40217 52044 60010 73630 333 21264;
0150351730999992000120409004+51610+069800FM-12+031299999V0202901N008012200019N0040001N1-02441-02911102451ADDAY131031AY231031GA1001+999999999GF100991001001999999001001MD1210291+9999MW1361REMSYN060AAXX  04091 35173 41996 02908 11244 21291 40245 52029 73633;
0181351730999992000120412004+51610+069800FM-12+031299999V0202701N004012200019N0200001N1-02721-03101102761ADDAY131061AY201061GA1001+999999999GF100991001001999999001001MA1999999098501MD1210241+9999MW1021REMSYN076AAXX  04121 35173 41998 02704 11272 21310 39850 40276 52024 70230 555 1/130;
0184351730999992000120415004+51610+069800FM-12+031299999V0202701N002012200019N0200001N1-02901-03271102971ADDAA199000021AY101031AY201031GA1001+999999999GF100991001001999999001001KA1999M-02371MD1210171+9999MW1761REMSYN070AAXX  04151 35173 31998 02702 11290 21327 40297 52017 77600 333 11237;
0146351730999992000120418004+51610+069800FM-12+031299999V0202001N002019999999N0200001N1-02921-03291103051ADDAA199000021GF106991001001999999001081KA1999M-02371MD1210081+9999REMSYN070AAXX  04181 35173 32998 62002 11292 21329 40305 52008 80008 333 11237;
0112351730999992000120421004+51610+069800FM-12+031299999V0201801N004019999999N0200001N1-02541-02861102881ADDGF108991081001999999021999MD1810101+9999REMSYN060AAXX  04211 35173 42998 81804 11254 21286 40288 58010 8802/;
0171351730999992000120500004+51610+069800FM-12+031299999V0201601N008019999999N0010001N1-02141-02471102601ADDAY171061AY231061GF108991081001999999021999MA1999999098451MD1710201+9999MW1711REMSYN082AAXX  05001 35173 41994 81608 11214 21247 39845 40260 57020 77173 8802/ 555 1/123;
0206351730999992000120503004+51610+069800FM-12+031299999V0201601N008019999999N0010001N1-01791-02051102341ADDAA112000691AJ100179199999999AY171031AY231031GF108991081001999999021999IA1249MD1710201+9999MW1711REMSYN098AAXX  05031 35173 /1994 81608 11179 21205 40234 57020 77173 8802/ 333 48017 555 21303 69962 7996/;
0180351730999992000120506004+51610+069800FM-12+031299999V0201801N008019999999N0040001N1-01151-01351101911ADDAA100000591AY171061AY231061GF108991081001999999021999KA1999N-03031MD1710311+9999MW1711REMSYN082AAXX  05061 35173 11996 81808 11115 21135 40191 57031 69960 77173 8802/ 333 21303;
0140351730999992000120509004+51610+069800FM-12+031299999V0202301N004019999999N0040001N1-00961-01121101681ADDAY171031AY231031GF108991081001999999021999MD1710201+9999MW1711REMSYN066AAXX  05091 35173 41996 82304 11096 21112 40168 57020 77173 8802/;
0171351730999992000120512004+51610+069800FM-12+031299999V0209999C000019999999N0200001N1-00881-01031101651ADDAY171061AY231061GF108991081001999999011999MA1999999097711MD1710031+9999MW1221REMSYN082AAXX  05121 35173 41998 80000 11088 21103 39771 40165 57003 72273 8801/ 555 1/109;
0145351730999992000120515004+51610+069800FM-12+031299999V0203601N004019999999N0200001N1-01191-01321101861ADDGF105991001001999999001081KA1120M-00811MD1310171+9999REMSYN080AAXX  05151 35173 /2998 53604 11119 21132 40186 53017 80008 333 11081 555 60042;
0152351730999992000120518004+51610+069800FM-12+031299999V0203601N004019999999N0200001N1-01731-01991102271ADDAA100004191GF107991071001999999071001KA1999M-00811MD1210311+9999REMSYN076AAXX  05181 35173 12998 73604 11173 21199 40227 52031 60040 87070 333 11081;
0122351730999992000120521004+51610+069800FM-12+031299999V0203601N006012200019N0200001N1-02191-02591102701ADDGA1001+999999999GF100991001001999999001001MD1210341+9999REMSYN054AAXX  05211 35173 42998 03606 11219 21259 40270 52034;
0153351730999992000120600004+51610+069800FM-12+031299999V02099999999992200019N0200001N1-02811-03181103061ADDGA1001+999999999GF100991001001999999001001MA1999999098781MD1210251+9999REMSYN070AAXX  06001 35173 42998 04504 11281 21318 39878 40306 52025 555 1/131;
0201351730999992000120603004+51610+069800FM-12+031299999V02099999999992200019N0200001N1-03211-03571103591ADDAA199000091AJ100199199999999GA1001+999999999GF100991001001999999001001IA1249MD1210441+9999REMSYN080AAXX  06031 35173 32998 04504 11321 21357 40359 52044 333 48019 555 21325 7004/;EQDQ01  00002PRCP99
0175351730999992000120606004+51610+069800FM-12+031299999V0200501N004012200019N0040001N1-03181-03611103851ADDAA199000091GA1001+999999999GF100991001001999999001001KA1999N-03251MD1210251+9999REMSYN064AAXX  06061 35173 32996 00504 11318 21361 40385 52025 333 21325;EQDQ01  00002PRCP99
0122351730999992000120609004+51610+069800FM-12+031299999V0200701N002012200019N0040001N1-03001-03531103931ADDGA1001+999999999GF100991001001999999001001MD1210111+9999REMSYN054AAXX  06091 35173 42996 00702 11300 21353 40393 52011;
0153351730999992000120612004+51610+069800FM-12+031299999V0209999C000012200019N0200001N1-03161-03591104151ADDGA1001+999999999GF100991001001999999001001MA1999999099751MD1210171+9999REMSYN070AAXX  06121 35173 42998 00000 11316 21359 39975 40415 52017 555 1/136;
0175351730999992000120615004+51610+069800FM-12+031299999V0209999C000012200019N0200001N1-03261-03611104241ADDAA199000091GA1001+999999999GF100991001001999999001001KA1999M-02961MD1210071+9999REMSYN064AAXX  06151 35173 32998 00000 11326 21361 40424 52007 333 11296;EQDQ01  00002PRCP99
0175351730999992000120618004+51610+069800FM-12+031299999V0200501N002012200019N0200001N1-03211-03641104311ADDAA199000091GA1001+999999999GF100991001001999999001001KA1999M-02961MD1210071+9999REMSYN064AAXX  06181 35173 32998 00502 11321 21364 40431 52007 333 11296;EQDQ01  00002PRCP99
0122351730999992000120621004+51610+069800FM-12+031299999V0209999C000012200019N0200001N1-03191-03641104161ADDGA1001+999999999GF100991001001999999001001MD1810131+9999REMSYN054AAXX  06211 35173 42998 00000 11319 21364 40416 58013;
0153351730999992000120700004+51610+069800FM-12+031299999V0209999C000012200019N0200001N1-03331-03761104261ADDGA1001+999999999GF100991001001999999001001MA1999999099841MD1310081+9999REMSYN070AAXX  07001 35173 42998 00000 11333 21376 39984 40426 53008 555 1/138;
0201351730999992000120703004+51610+069800FM-12+031299999V0209999C000012200019N0200001N1-03591-03931104371ADDAA199000091AJ100199199999999GA1001+999999999GF100991001001999999001001IA1249MD1210051+9999REMSYN080AAXX  07031 35173 32998 00000 11359 21393 40437 52005 333 48019 555 21361 7000/;EQDQ01  00002PRCP99
0175351730999992000120706004+51610+069800FM-12+031299999V0209999C000012200019N0040001N1-02811-03341104261ADDAA199000091GA1001+999999999GF100991001001999999001001KA1999N-03611MD1210031+9999REMSYN064AAXX  07061 35173 32996 00000 11281 21334 40426 52003 333 21361;EQDQ01  00002PRCP99
0122351730999992000120709004+51610+069800FM-12+031299999V0209999C000012200019N0040001N1-02731-03281104221ADDGA1001+999999999GF100991001001999999001001MD1210021+9999REMSYN054AAXX  07091 35173 42996 00000 11273 21328 40422 52002;
0153351730999992000120712004+51610+069800FM-12+031299999V0200701N002012200019N0200001N1-02771-03231104261ADDGA1001+999999999GF100991001001999999001001MA1999999099921MD1310021+9999REMSYN070AAXX  07121 35173 42998 00702 11277 21323 39992 40426 53002 555 1/132;
0175351730999992000120715004+51610+069800FM-12+031299999V0209999C000012200019N0200001N1-03031-03411104371ADDAA199000091GA1001+999999999GF100991001001999999001001KA1999M-02591MD1210061+9999REMSYN064AAXX  07151 35173 32998 00000 11303 21341 40437 52006 333 11259;EQDQ01  00002PRCP99
0175351730999992000120718004+51610+069800FM-12+031299999V0209999C000012200019N0200001N1-02911-03291104371ADDAA199000091GA1001+999999999GF100991001001999999001001KA1999M-02591MD1210031+9999REMSYN064AAXX  07181 35173 32998 00000 11291 21329 40437 52003 333 11259;EQDQ01  00002PRCP99
0122351730999992000120721004+51610+069800FM-12+031299999V0209999C000012200019N0200001N1-02951-03491104331ADDGA1001+999999999GF100991001001999999001001MD1810051+9999REMSYN054AAXX  07211 35173 42998 00000 11295 21349 40433 58005;
0153351730999992000120800004+51610+069800FM-12+031299999V0209999C000012200019N0200001N1-03071-03291104321ADDGA1001+999999999GF100991001001999999001001MA1999999099931MD1710031+9999REMSYN070AAXX  08001 35173 42998 00000 11307 21329 39993 40432 57003 555 1/137;
0201351730999992000120803004+51610+069800FM-12+031299999V0209999C000012200019N0200001N1-03051-03411104221ADDAA199000091AJ100199199999999GA1001+999999999GF100991001001999999001001IA1249MD1710091+9999REMSYN080AAXX  08031 35173 32998 00000 11305 21341 40422 57009 333 48019 555 21313 7000/;EQDQ01  00002PRCP99
0175351730999992000120806004+51610+069800FM-12+031299999V0209999C000012200019N0040001N1-02721-03101104191ADDAA199000091GA1001+999999999GF100991001001999999001001KA1999N-03131MD1310041+9999REMSYN064AAXX  08061 35173 32996 00000 11272 21310 40419 53004 333 21313;EQDQ01  00002PRCP99
0112351730999992000120809004+51610+069800FM-12+031299999V0201801N002019999999N0040001N1-02031-02701103941ADDGF106991001001999999001081MD1810131+9999REMSYN060AAXX  08091 35173 42996 61802 11203 21270 40394 58013 80008;
0143351730999992000120812004+51610+069800FM-12+031299999V0201601N002019999999N0200001N1-01831-02621103721ADDGF108991021001999999071051MA1999999099571MD1710181+9999REMSYN076AAXX  08121 35173 42998 81602 11183 21262 39957 40372 57018 82075 555 1/122;
0165351730999992000120815004+51610+069800FM-12+031299999V0201801N002010075019N0200001N1-01641-02241103541ADDAA199000091GF107991071051008001001001KA1999M-01621MD1710141+9999REMSYN070AAXX  08151 35173 32598 71802 11164 21224 40354 57014 87500 333 11162;EQDQ01  00002PRCP99
0112351730999992000120909004+51610+069800FM-12+031299999V0201801N004012200019N0040001N1-01151-01431103011ADDGF102991001001999999001081MD1810121+9999REMSYN060AAXX  09091 35173 42996 21804 11115 21143 40301 58012 80008;
0153351730999992000120912004+51610+069800FM-12+031299999V0201801N002012200019N0200001N1-01241-01371102961ADDGA1001+999999999GF100991001001999999001001MA1999999098931MD1710071+9999REMSYN070AAXX  09121 35173 42998 01802 11124 21137 39893 40296 57007 555 1/115;
0165351730999992000120915004+51610+069800FM-12+031299999V0201801N002010075019N0200001N1-01131-01261102791ADDAA199000091GF106991061051008001001001KA1999M-00991MD1710151+9999REMSYN070AAXX  09151 35173 32598 61802 11113 21126 40279 57015 86500 333 11099;EQDQ01  00002PRCP99
0181351730999992000120918004+51610+069800FM-12+031299999V0202001N004019999999N0200001N1-00761-00941102661ADDAA199000091GF108991081001999999071999KA1999M+99999MD1710071+9999REMSYN070AAXX  09181 35173 32998 82004 11076 21094 40266 57007 8807/ 333 11099;EQDQ01  00002PRCP99Q02 -00992ATMX  
0112351730999992000120921004+51610+069800FM-12+031299999V0202501N006019999999N0200001N1-00731-01071102561ADDGF108991081001999999011999MD1710091+9999REMSYN060AAXX  09211 35173 42998 82506 11073 21107 40256 57009 8801/;
0143351730999992000121000004+51610+069800FM-12+031299999V0202501N004019999999N0200001N1-01011-01371102531ADDGF106991061001999999071001MA1999999098531MD1710091+9999REMSYN076AAXX  10001 35173 42998 62504 11101 21137 39853 40253 57009 86070 555 1/112;
0191351730999992000121003004+51610+069800FM-12+031299999V0202001N004019999999N0200001N1-01201-01471102611ADDAA199000091AJ100179199999999GF106991061001999999031001IA1249MD1310071+9999REMSYN086AAXX  10031 35173 32998 62004 11120 21147 40261 53007 86030 333 48017 555 21125 7000/;EQDQ01  00002PRCP99
0165351730999992000121006004+51610+069800FM-12+031299999V0202501N002019999999N0040001N1-01051-01331102721ADDAA199000091GF107991071001999999051001KA1999N-01251MD1210131+9999REMSYN070AAXX  10061 35173 32996 72502 11105 21133 40272 52013 87050 333 21125;EQDQ01  00002PRCP99
0140351730999992000121009004+51610+069800FM-12+031299999V0202501N006019999999N0040001N1-00901-01101102741ADDAY171031AY221031GF107991071001999999021001MD1210031+9999MW1711REMSYN066AAXX  10091 35173 41996 72506 11090 21110 40274 52003 77172 87020;
0171351730999992000121012004+51610+069800FM-12+031299999V0202501N004019999999N0010001N1-00921-01031102801ADDAY171061AY221061GF108991081001999999021999MA1999999098821MD1210061+9999MW1711REMSYN082AAXX  10121 35173 41994 82504 11092 21103 39882 40280 52006 77172 8802/ 555 1/110;
0173351730999992000121015004+51610+069800FM-12+031299999V0202501N004019999999N0200001N1-00861-01011102921ADDAY171031AY221031GF108991081001999999071999KA1120M-00671MD1210141+9999MW1021REMSYN086AAXX  10151 35173 /1998 82504 11086 21101 40292 52014 70272 8807/ 333 11067 555 69932;
0180351730999992000121018004+51610+069800FM-12+031299999V0202301N006019999999N0200001N1-00981-01151103161ADDAA100000391AY171061AY221061GF108991081001999999071999KA1999M-00801MD1210201+9999MW1021REMSYN082AAXX  10181 35173 11998 82306 11098 21115 40316 52020 69930 70272 8807/ 333 11080;
0140351730999992000121021004+51610+069800FM-12+031299999V0202301N008019999999N0200001N1-01031-01161103191ADDAY131031AY221031GF108991081001999999021999MD1210031+9999MW1361REMSYN066AAXX  10211 35173 41998 82308 11103 21116 40319 52003 73632 8802/;
0171351730999992000121100004+51610+069800FM-12+031299999V0202701N008019999999N0010001N1-01071-01271103171ADDAY171061AY231061GF108991081001999999021999MA1999999099151MD1810041+9999MW1711REMSYN082AAXX  11001 35173 41994 82708 11107 21127 39915 40317 58004 77173 8802/ 555 1/112;
0206351730999992000121103004+51610+069800FM-12+031299999V0202501N006019999999N0200001N1-01031-01161103191ADDAA112000891AJ100189199999999AY171031AY231031GF108991081001999999021999IA1249MD1310041+9999MW1021REMSYN098AAXX  11031 35173 /1998 82506 11103 21116 40319 53004 70273 8802/ 333 48018 555 21110 69982 7001/;
0180351730999992000121106004+51610+069800FM-12+031299999V0202501N004010042019N0040001N1-01051-01181103191ADDAA100000891AY171061AY231061GF108991081061004501999999KA1999N-01101MD1410001+9999MW1771REMSYN082AAXX  11061 35173 11496 82504 11105 21118 40319 54000 69980 77773 886// 333 21110;
0171351730999992000121112004+51610+069800FM-12+031299999V0202501N004010075019N0200001N1-00801-00941103291ADDAY171061AY221061GF108991081051008001999999MA1999999099311MD1210051+9999MW1021REMSYN082AAXX  11121 35173 41598 82504 11080 21094 39931 40329 52005 70272 885// 555 1/108;
0145351730999992000121115004+51610+069800FM-12+031299999V0202701N004010075019N0200001N1-00801-00901103341ADDGF108991081051008001999999KA1120M-00661MD1210051+9999REMSYN080AAXX  11151 35173 /2598 82704 11080 21090 40334 52005 885// 333 11066 555 69902;
0180351730999992000121118004+51610+069800FM-12+031299999V0202701N004010075019N0200001N1-00811-00871103331ADDAA100000791AY101061AY221061GF108991081051008001999999KA1999M-00661MD1810011+9999MW1761REMSYN082AAXX  11181 35173 11598 82704 11081 21087 40333 58001 69900 77602 885// 333 11066;
0140351730999992000121121004+51610+069800FM-12+031299999V0202701N002010042019N0200001N1-00791-00851103311ADDAY101031AY221031GF108991081061004501999999MD1710021+9999MW1101REMSYN066AAXX  11211 35173 41498 82702 11079 21085 40331 57002 71002 886//;
0143351730999992000121200004+51610+069800FM-12+031299999V0202701N002010042019N0200001N1-00821-00881103201ADDGF108991081061004501999999MA1999999099231MD1710101+9999REMSYN076AAXX  12001 35173 42498 82702 11082 21088 39923 40320 57010 886// 555 1/109;
0172351730999992000121203004+51610+069800FM-12+031299999V0202301N002010075019N0200001N1-00801-00901103161ADDAA199000021AJ100179199999999GF108991081051008001999999IA1249MD1710041+9999REMSYN086AAXX  12031 35173 32598 82302 11080 21090 40316 57004 885// 333 48017 555 21085 7990/;
0174351730999992000121206004+51610+069800FM-12+031299999V0202301N002010042019N0040001N1-00721-00771103061ADDAA199000021AY171061AY221061GF108991081061004501999999KA1999N-00851MD1710091+9999MW1771REMSYN076AAXX  12061 35173 31496 82302 11072 21077 40306 57009 77772 886// 333 21085;
0140351730999992000121209004+51610+069800FM-12+031299999V0202501N002010075019N0040001N1-00621-00771102951ADDAY171031AY221031GF108991081051008001999999MD1710081+9999MW1021REMSYN066AAXX  12091 35173 41596 82502 11062 21077 40295 57008 70272 885//;
0171351730999992000121212004+51610+069800FM-12+031299999V0202301N004010075019N0200001N1-00651-00811102841ADDAY171061AY221061GF108991081051008001999999MA1999999098911MD1710111+9999MW1021REMSYN082AAXX  12121 35173 41598 82304 11065 21081 39891 40284 57011 70272 885// 555 1/107;
0145351730999992000121215004+51610+069800FM-12+031299999V0202301N004010042019N0200001N1-00831-00971102991ADDGF108991081061004501999999KA1120M-00591MD1310121+9999REMSYN080AAXX  12151 35173 /2498 82304 11083 21097 40299 53012 886// 333 11059 555 69902;
0190351730999992000121218004+51610+069800FM-12+031299999V0202301N002010001519N0001001N1-01191-01251102791ADDAA100000791AY141061AY221061GA1091+999999999GF109991091999999999999999KA1999M-00591MD1810261+9999MW1491REMSYN076AAXX  12181 35173 11/91 92302 11119 21125 40279 58026 69900 74942 333 11059;
0140351730999992000121221004+51610+069800FM-12+031299999V0201801N002010075019N0200001N1-01471-01601102781ADDAY141031AY221031GF106991061051008001001001MD1710061+9999MW1021REMSYN066AAXX  12211 35173 41598 61802 11147 21160 40278 57006 70242 86500;
0171351730999992000121300004+51610+069800FM-12+031299999V0201801N002019999999N0200001N1-01791-01981102661ADDAY141061AY221061GF105991051001999999031001MA1999999098561MD1710151+9999MW1021REMSYN082AAXX  13001 35173 41998 51802 11179 21198 39856 40266 57015 70242 85030 555 1/119;
0229351730999992000121303004+51610+069800FM-12+031299999V0201801N002010001519N0001001N1-01741-01861102621ADDAA199000091AJ100179199999999AY141031AY221031GA1091+999999999GF109991091999999999999999IA1249MD1710031+9999MW1491REMSYN086AAXX  13031 35173 31/91 91802 11174 21186 40262 57003 74942 333 48017 555 21179 7990/;EQDQ01  00002PRCP99
0203351730999992000121306004+51610+069800FM-12+031299999V0209999C000012200019N0040001N1-01731-01921102661ADDAA199000091AY141061AY211061GA1001+999999999GF100991001001999999001001KA1999N-01791MD1310041+9999MW1011REMSYN070AAXX  13061 35173 31996 00000 11173 21192 40266 53004 70141 333 21179;EQDQ01  00002PRCP99
0112351730999992000121309004+51610+069800FM-12+031299999V0209999C000019999999N0040001N1-01691-01951102531ADDGF105991001001999999001081MD1810121+9999REMSYN060AAXX  13091 35173 42996 50000 11169 21195 40253 58012 80008;
0143351730999992000121312004+51610+069800FM-12+031299999V0209999C000019999999N0200001N1-01701-01891102531ADDGF108991081001999999021999MA1999999098451MD1410001+9999REMSYN076AAXX  13121 35173 42998 80000 11170 21189 39845 40253 54000 8802/ 555 1/118;
0165351730999992000121315004+51610+069800FM-12+031299999V0209999C000019999999N0200001N1-01551-01741102471ADDAA199000091GF105991001001999999001071KA1999M-01481MD1810031+9999REMSYN070AAXX  13151 35173 32998 50000 11155 21174 40247 58003 80007 333 11148;EQDQ01  00002PRCP99
0165351730999992000121318004+51610+069800FM-12+031299999V0209999C000019999999N0200001N1-01591-01781102411ADDAA199000091GF106991001001999999001081KA1999M-01481MD1710071+9999REMSYN070AAXX  13181 35173 32998 60000 11159 21178 40241 57007 80008 333 11148;EQDQ01  00002PRCP99
0112351730999992000121321004+51610+069800FM-12+031299999V0209999C000012200019N0200001N1-01811-02001102361ADDGF103991001001999999001061MD1710081+9999REMSYN060AAXX  13211 35173 42998 30000 11181 21200 40236 57008 80006;
0143351730999992000121400004+51610+069800FM-12+031299999V0209999C000012200019N0200001N1-01951-02141102271ADDGF102991001001999999001061MA1999999098161MD1710111+9999REMSYN076AAXX  14001 35173 42998 20000 11195 21214 39816 40227 57011 80006 555 1/125;
0191351730999992000121403004+51610+069800FM-12+031299999V0209999C000019999999N0200001N1-01731-01921102221ADDAA199000091AJ100179199999999GF105991001001999999001061IA1249MD1710021+9999REMSYN086AAXX  14031 35173 32998 50000 11173 21192 40222 57002 80006 333 48017 555 21200 7000/;EQDQ01  00002PRCP99
0165351730999992000121406004+51610+069800FM-12+031299999V0200901N002019999999N0040001N1-01391-01741102191ADDAA199000091GF106991001001999999001071KA1999N-02001MD1310031+9999REMSYN070AAXX  14061 35173 32996 60902 11139 21174 40219 53003 80007 333 21200;EQDQ01  00002PRCP99
0112351730999992000121409004+51610+069800FM-12+031299999V0200901N002019999999N0040001N1-01471-01741102151ADDGF108991021001999999071051MD1810061+9999REMSYN060AAXX  14091 35173 42996 80902 11147 21174 40215 58006 82075;
0143351730999992000121412004+51610+069800FM-12+031299999V0209999C000019999999N0200001N1-01381-01581102141ADDGF106991001001999999001081MA1999999098121MD1310011+9999REMSYN076AAXX  14121 35173 42998 60000 11138 21158 39812 40214 53001 80008 555 1/115;
0165351730999992000121415004+51610+069800FM-12+031299999V0200901N002019999999N0200001N1-01281-01541102111ADDAA199000091GF105991001001999999001081KA1999M-01241MD1810021+9999REMSYN070AAXX  14151 35173 32998 50902 11128 21154 40211 58002 80008 333 11124;EQDQ01  00002PRCP99
0165351730999992000121418004+51610+069800FM-12+031299999V0201401N002019999999N0200001N1-01281-01481102091ADDAA199000091GF106991001001999999001081KA1999M-01191MD1710011+9999REMSYN070AAXX  14181 35173 32998 61402 11128 21148 40209 57001 80008 333 11119;EQDQ01  00002PRCP99
0112351730999992000121421004+51610+069800FM-12+031299999V0201401N002012200019N0200001N1-01411+99999102041ADDGF103991001001999999001081MD1710071+9999REMSYN060AAXX  14211 35173 42998 31402 11141 21061 40204 57007 80008;
0143351730999992000121500004+51610+069800FM-12+031299999V0209999C000019999999N0200001N1-01471-01671101991ADDGF106991001001999999001071MA1999999097951MD1710071+9999REMSYN076AAXX  15001 35173 42998 60000 11147 21167 39795 40199 57007 80007 555 1/116;
0191351730999992000121503004+51610+069800FM-12+031299999V0209999C000019999999N0200001N1-01331-01461101891ADDAA199000091AJ100179199999999GF106991001001999999001071IA1249MD1710061+9999REMSYN086AAXX  15031 35173 32998 60000 11133 21146 40189 57006 80007 333 48017 555 21149 7000/;EQDQ01  00002PRCP99
0174351730999992000121506004+51610+069800FM-12+031299999V0201401N002019999999N0040001N1-01091-01221101821ADDAA199000021AY171061AY221061GF108991081001999999021999KA1999N-01491MD1710041+9999MW1711REMSYN076AAXX  15061 35173 31996 81402 11109 21122 40182 57004 77172 8802/ 333 21149;
0140351730999992000121509004+51610+069800FM-12+031299999V0201801N002019999999N0040001N1-00981-01151101791ADDAY171031AY221031GF108991081001999999021999MD1710011+9999MW1021REMSYN066AAXX  15091 35173 41996 81802 11098 21115 40179 57001 70272 8802/;
0171351730999992000121512004+51610+069800FM-12+031299999V0202501N002019999999N0200001N1-00861-01011101801ADDAY171061AY221061GF107991071001999999071001MA1999999097881MD1310041+9999MW1021REMSYN082AAXX  15121 35173 41998 72502 11086 21101 39788 40180 53004 70272 87070 555 1/109;
0155351730999992000121515004+51610+069800FM-12+031299999V0202001N002012200019N0200001N1-01391-01521102021ADDGA1001+999999999GF100991001001999999001001KA1120M-00761MD1210121+9999REMSYN074AAXX  15151 35173 /2998 02002 11139 21152 40202 52012 333 11076 555 69942;
0152351730999992000121518004+51610+069800FM-12+031299999V0202301N002012200019N0200001N1-01731-01921102351ADDAA100000591GF103991001001999999001081KA1999M-00761MD1210271+9999REMSYN076AAXX  15181 35173 12998 32302 11173 21192 40235 52027 69940 80008 333 11076;
0112351730999992000121521004+51610+069800FM-12+031299999V0201801N002019999999N0200001N1-01571-01761102251ADDGF106991001001999999001081MD1810081+9999REMSYN060AAXX  15211 35173 42998 61802 11157 21176 40225 58008 80008;
0143351730999992000121600004+51610+069800FM-12+031299999V0202001N002019999999N0200001N1-01271-01401102231ADDGF108991001001999999001071MA1999999098221MD1310031+9999REMSYN076AAXX  16001 35173 42998 82002 11127 21140 39822 40223 53003 80007 555 1/113;
0219351730999992000121603004+51610+069800FM-12+031299999V0201801N002010042019N0200001N1-01151-01281102191ADDAA199000091AJ100179199999999AY101031AY221031GF108991081061004501999999IA1249MD1810011+9999MW1101REMSYN092AAXX  16031 35173 31498 81802 11115 21128 40219 58001 71002 886// 333 48017 555 21178 7994/;EQDQ01  00002PRCP99
0165351730999992000121606004+51610+069800FM-12+031299999V0201801N002010042019N0040001N1-00751-00841102201ADDAA199000091GF108991081061004501999999KA1999N-01781MD1310071+9999REMSYN070AAXX  16061 35173 32496 81802 11075 21084 40220 53007 886// 333 21178;EQDQ01  00002PRCP99
0140351730999992000121609004+51610+069800FM-12+031299999V0202301N002010042019N0040001N1-00681-00801102261ADDAY171031AY221031GF108991081061004501999999MD1210051+9999MW1021REMSYN066AAXX  16091 35173 41496 82302 11068 21080 40226 52005 70272 886//;
0171351730999992000121612004+51610+069800FM-12+031299999V0202001N002010042019N0200001N1-00651-00731102161ADDAY171061AY221061GF108991081061004501999999MA1999999098261MD1810071+9999MW1021REMSYN082AAXX  16121 35173 41498 82002 11065 21073 39826 40216 58007 70272 886// 555 1/107;
0145351730999992000121615004+51610+069800FM-12+031299999V0201601N002010042019N0200001N1-00801-00981102111ADDGF108991081071004501999999KA1120M-00591MD1710081+9999REMSYN080AAXX  16151 35173 /2498 81602 11080 21098 40211 57008 887// 333 11059 555 69902;
0152351730999992000121618004+51610+069800FM-12+031299999V0201801N002010075019N0200001N1-00801-00941102031ADDAA100000791GF108991081051008001999999KA1999M-00591MD1710081+9999REMSYN076AAXX  16181 35173 12598 81802 11080 21094 40203 57008 69900 885// 333 11059;
0112351730999992000121621004+51610+069800FM-12+031299999V0201801N002019999999N0200001N1-01091-01221102041ADDGF108991001001999999001071MD1710031+9999REMSYN060AAXX  16211 35173 42998 81802 11109 21122 40204 57003 80007;
0143351730999992000121700004+51610+069800FM-12+031299999V0201801N002019999999N0200001N1-01191-01321102011ADDGF108991001001999999001071MA1999999098031MD1710041+9999REMSYN076AAXX  17001 35173 42998 81802 11119 21132 39803 40201 57004 80007 555 1/113;
0219351730999992000121703004+51610+069800FM-12+031299999V0201801N002019999999N0010001N1-00921-00991101941ADDAA199000091AJ100179199999999AY121031AY221031GF108991081001999999021999IA1249MD1710031+9999MW1101REMSYN092AAXX  17031 35173 31994 81802 11092 21099 40194 57003 71022 8802/ 333 48017 555 21119 7990/;EQDQ01  00002PRCP99
0174351730999992000121706004+51610+069800FM-12+031299999V0201801N002019999999N0040001N1-00741-00831101951ADDAA199000021AY171061AY221061GF108991081001999999021999KA1999N-01191MD1310041+9999MW1711REMSYN076AAXX  17061 35173 31996 81802 11074 21083 40195 53004 77172 8802/ 333 21119;
0140351730999992000121709004+51610+069800FM-12+031299999V0202301N004019999999N0040001N1-00531-00671101931ADDAY171031AY221031GF108991081001999999011999MD1210011+9999MW1021REMSYN066AAXX  17091 35173 41996 82304 11053 21067 40193 52001 70272 8801/;
0171351730999992000121712004+51610+069800FM-12+031299999V0202301N004019999999N0200001N1-00501-00671102071ADDAY171061AY221061GF108991081001999999011999MA1999999098181MD1210131+9999MW1221REMSYN082AAXX  17121 35173 41998 82304 11050 21067 39818 40207 52013 72272 8801/ 555 1/106;
0145351730999992000121715004+51610+069800FM-12+031299999V0202301N006010042019N0200001N1-00421-00581102221ADDGF108991081061004501999999KA1120M-00331MD1210161+9999REMSYN080AAXX  17151 35173 /2498 82306 11042 21058 40222 52016 886// 333 11033 555 60012;
0180351730999992000121718004+51610+069800FM-12+031299999V0202501N004010042019N0010001N1-00441-00571102441ADDAA100001091AY171061AY221061GF108991081061004501999999KA1999M-00331MD1210211+9999MW1771REMSYN082AAXX  17181 35173 11494 82504 11044 21057 40244 52021 60010 77772 886// 333 11033;
0140351730999992000121721004+51610+069800FM-12+031299999V0202001N006010042019N0200001N1-00421-00581102451ADDAY171031AY221031GF108991081061004501999999MD1210011+9999MW1021REMSYN066AAXX  17211 35173 41498 82006 11042 21058 40245 52001 70272 886//;
0171351730999992000121800004+51610+069800FM-12+031299999V0202001N006010075019N0010001N1-00301-00401102481ADDAY171061AY221061GF108991081051008001999999MA1999999098601MD1210041+9999MW1711REMSYN082AAXX  18001 35173 41594 82006 11030 21040 39860 40248 52004 77172 885// 555 1/105;
0206351730999992000121803004+51610+069800FM-12+031299999V0202501N008019999999N0010001N1-00361-00501102481ADDAA112001091AJ100199199999999AY171031AY231031GF108991081001999999021999IA1249MD1410001+9999MW1711REMSYN098AAXX  18031 35173 /1994 82508 11036 21050 40248 54200 77173 8802/ 333 48019 555 21047 60012 7003/;
0180351730999992000121806004+51610+069800FM-12+031299999V0202501N008019999999N0040001N1-00291-00461102621ADDAA100001091AY171061AY231061GF108991081001999999021999KA1999N-00471MD1310131+9999MW1361REMSYN082AAXX  18061 35173 11996 82508 11029 21046 40262 53013 60010 73673 8802/ 333 21047;
0140351730999992000121809004+51610+069800FM-12+031299999V0202001N006019999999N0040001N1-00181-00391102381ADDAY131031AY221031GF106991061001999999031001MD1810201+9999MW1021REMSYN066AAXX  18091 35173 41996 62006 11018 21039 40238 58020 70232 86030;
0171351730999992000121812004+51610+069800FM-12+031299999V0202001N006019999999N0200001N1-00641-00871102541ADDAY131061AY221061GF108991081001999999071999MA1999999098621MD1310091+9999MW1021REMSYN082AAXX  18121 35173 41998 82006 11064 21087 39862 40254 53009 70232 8807/ 555 1/108;
0171351730999992000121900004+51610+069800FM-12+031299999V0202301N006010075019N0200001N1-00291-00391101991ADDAY131061AY221061GF108991081051008001999999MA1999999098131MD1710121+9999MW1021REMSYN082AAXX  19001 35173 41598 82306 11029 21039 39813 40199 57012 70232 885// 555 1/104;
0191351730999992000121903004+51610+069800FM-12+031299999V0202301N006019999999N0200001N1-00281-00451102001ADDAA199000091AJ100199199999999GF108991081001999999071999IA1249MD1310031+9999REMSYN086AAXX  19031 35173 32998 82306 11028 21045 40200 53003 8807/ 333 48019 555 21043 7990/;EQDQ01  00002PRCP99
0174351730999992000121906004+51610+069800FM-12+031299999V0202501N006010042019N0040001N1-00341-00511102051ADDAA199000021AY171061AY221061GF108991081061004501999999KA1999N-00431MD1210031+9999MW1201REMSYN076AAXX  19061 35173 31496 82506 11034 21051 40205 52003 72072 886// 333 21043;
0140351730999992000121909004+51610+069800FM-12+031299999V0202501N006010042019N0040001N1-00261-00491102101ADDAY171031AY221031GF108991081071004501999999MD1210071+9999MW1021REMSYN066AAXX  19091 35173 41496 82506 11026 21049 40210 52007 70272 887//;
0171351730999992000121912004+51610+069800FM-12+031299999V0202501N006010075019N0200001N1-00381-00601102201ADDAY171061AY221061GF108991081051008001999999MA1999999098331MD1210071+9999MW1021REMSYN082AAXX  19121 35173 41598 82506 11038 21060 39833 40220 52007 70272 885// 555 1/105;
0145351730999992000121915004+51610+069800FM-12+031299999V0202001N004010075019N0200001N1-00341-00591102271ADDGF108991081051008001999999KA1120M-00161MD1210071+9999REMSYN080AAXX  19151 35173 /2598 82004 11034 21059 40227 52007 885// 333 11016 555 69902;
0152351730999992000121918004+51610+069800FM-12+031299999V0202301N006010075019N0200001N1-00321-00531102301ADDAA100000791GF108991081051008001999999KA1999M-00161MD1210051+9999REMSYN076AAXX  19181 35173 12598 82306 11032 21053 40230 52005 69900 885// 333 11016;
0112351730999992000121921004+51610+069800FM-12+031299999V0202301N004019999999N0200001N1-00271-00431102411ADDGF108991081001999999071999MD1210101+9999REMSYN060AAXX  19211 35173 42998 82304 11027 21043 40241 52010 8807/;
0171351730999992000122000004+51610+069800FM-12+031299999V0202701N004019999999N0010001N1-00501-00631102561ADDAY101061AY221061GF108991081001999999021999MA1999999098651MD1210101+9999MW1101REMSYN082AAXX  20001 35173 41994 82704 11050 21063 39865 40256 52010 71002 8802/ 555 1/106;
0191351730999992000122003004+51610+069800FM-12+031299999V0202701N002019999999N0200001N1-00521-00611102691ADDAA199000091AJ100189199999999GF108991081001999999021999IA1249MD1210121+9999REMSYN086AAXX  20031 35173 32998 82702 11052 21061 40269 52012 8802/ 333 48018 555 21055 7990/;EQDQ01  00002PRCP99
0193351730999992000122006004+51610+069800FM-12+031299999V0202001N004010021019N0020001N1-00501-00571102871ADDAA199000091AY121061AY221061GF108991081061002501999999KA1999N-00551MD1210171+9999MW1101REMSYN076AAXX  20061 35173 31395 82004 11050 21057 40287 52017 71022 886// 333 21055;EQDQ01  00002PRCP99
0112351730999992000122009004+51610+069800FM-12+031299999V0202501N002010042019N0040001N1-00541-00681102941ADDGF108991081061004501999999MD1210071+9999REMSYN060AAXX  20091 35173 42496 82502 11054 21068 40294 52007 886//;
0181351730999992000122012004+51610+069800FM-12+031299999V0202001N002010001519N0001001N1-00601-00641103071ADDAY141061AY221061GA1091+999999999GF109991091999999999999999MA1999999099131MD1210121+9999MW1491REMSYN076AAXX  20121 35173 41/91 92002 11060 21064 39913 40307 52012 74942 555 1/107;
0203351730999992000122015004+51610+069800FM-12+031299999V0209999C000010001519N0001001N1-00681-00731103151ADDAA199000091AY141031AY241031GA1091+999999999GF109991091999999999999999KA1999M-00391MD1210081+9999MW1491REMSYN070AAXX  20151 35173 31/91 90000 11068 21073 40315 52008 74944 333 11039;EQDQ01  00002PRCP99
0203351730999992000122018004+51610+069800FM-12+031299999V0209999C000010001519N0001001N1-00881-00951103121ADDAA199000091AY141061AY241061GA1091+999999999GF109991091999999999999999KA1999M-00391MD1810081+9999MW1491REMSYN070AAXX  20181 35173 31/91 90000 11088 21095 40312 58008 74944 333 11039;EQDQ01  00002PRCP99
0140351730999992000122021004+51610+069800FM-12+031299999V0201601N002010042019N0200001N1-00981-01101102941ADDAY141031AY221031GF106991061071004501001001MD1710181+9999MW1281REMSYN066AAXX  20211 35173 41498 61602 11098 21110 40294 57018 72842 86700;
0181351730999992000122100004+51610+069800FM-12+031299999V0200901N002012200019N0200001N1-01011-01141102721ADDAY141061AY211061GA1001+999999999GF100991001001999999001001MA1999999098731MD1710221+9999MW1011REMSYN076AAXX  21001 35173 41998 00902 11101 21114 39873 40272 57022 70141 555 1/112;
0191351730999992000122103004+51610+069800FM-12+031299999V0201101N004019999999N0200001N1-00751-00841102421ADDAA199000091AJ100189199999999GF108991081001999999011999IA1249MD1710241+9999REMSYN086AAXX  21031 35173 32998 81104 11075 21084 40242 57024 8801/ 333 48018 555 21102 7000/;EQDQ01  00002PRCP99
0165351730999992000122106004+51610+069800FM-12+031299999V0201401N004019999999N0040001N1-00781-00921102331ADDAA199000091GF108991081001999999011999KA1999N-01021MD1710101+9999REMSYN070AAXX  21061 35173 32996 81404 11078 21092 40233 57010 8801/ 333 21102;EQDQ01  00002PRCP99
0112351730999992000122109004+51610+069800FM-12+031299999V0201401N004019999999N0040001N1-00531-00901101941ADDGF108991081001999999011999MD1710331+9999REMSYN060AAXX  21091 35173 42996 81404 11053 21090 40194 57033 8801/;
0143351730999992000122112004+51610+069800FM-12+031299999V0201401N002019999999N0200001N1-00461-00771101801ADDGF108991081001999999021999MA1999999097941MD1710121+9999REMSYN076AAXX  21121 35173 42998 81402 11046 21077 39794 40180 57012 8802/ 555 1/106;
0165351730999992000122115004+51610+069800FM-12+031299999V0201801N004019999999N0200001N1-00441-00711101691ADDAA199000091GF108991081051999999999999KA1999M-00361MD1710111+9999REMSYN070AAXX  21151 35173 32998 81804 11044 21071 40169 57011 885// 333 11036;EQDQ01  00002PRCP99
0199351730999992000122118004+51610+069800FM-12+031299999V0201801N002010042019N0010001N1-00241-00331101641ADDAA199000021AY151061AY221061GF108991081061004501999999KA1120M+99999MD1710021+9999MW1571REMSYN082AAXX  21181 35173 31494 81802 11024 21033 40164 57002 75752 886// 333 11036 93400;EQDQ01 -00362ATMX  
0150351730999992000122121004+51610+069800FM-12+031299999V0209999C000012200019N0200001N1-00461-00591101811ADDAY151031AY211031GA1001+999999999GF100991001001999999001001MD1310141+9999MW1011REMSYN060AAXX  21211 35173 41998 00000 11046 21059 40181 53014 70151;
0171351730999992000122200004+51610+069800FM-12+031299999V0209999C000019999999N0200001N1-00621-00741101911ADDAY151061AY211061GF108991081001999999021999MA1999999098021MD1210071+9999MW1031REMSYN082AAXX  22001 35173 41998 80000 11062 21074 39802 40191 52007 70351 8802/ 555 1/107;
0206351730999992000122203004+51610+069800FM-12+031299999V0209999C000010042019N0010001N1-00941-01061102131ADDAA112000491AJ100169199999999AY121031AY221031GF108991081061004501999999IA1249MD1210161+9999MW1101REMSYN098AAXX  22031 35173 /1494 80000 11094 21106 40213 52016 71022 886// 333 48016 555 21097 69942 7994/;
0152351730999992000122206004+51610+069800FM-12+031299999V0200901N002010042019N0040001N1-00421-00611102131ADDAA100000591GF108991081061004501999999KA1999N-00971MD1210081+9999REMSYN076AAXX  22061 35173 12496 80902 11042 21061 40213 52008 69940 886// 333 21097;
0112351730999992000122209004+51610+069800FM-12+031299999V0201101N002010075019N0040001N1-00311-00411102081ADDGF108991081051008001999999MD1810041+9999REMSYN060AAXX  22091 35173 42596 81102 11031 21041 40208 58004 885//;
0143351730999992000122212004+51610+069800FM-12+031299999V0201401N006010075019N0200001N1-00251-00411101931ADDGF108991081051008001999999MA1999999098091MD1710131+9999REMSYN076AAXX  22121 35173 42598 81406 11025 21041 39809 40193 57013 885// 555 1/103;
0165351730999992000122215004+51610+069800FM-12+031299999V0201401N004019999999N0200001N1-00551-00891101841ADDAA199000091GF108991081001999999021999KA1999M-00061MD1710131+9999REMSYN070AAXX  22151 35173 32998 81404 11055 21089 40184 57013 8802/ 333 11006;EQDQ01  00002PRCP99
0165351730999992000122218004+51610+069800FM-12+031299999V0201401N006010042019N0200001N1-01281+99999101621ADDAA199000091GF108991081061004501999999KA1999M-00061MD1710171+9999REMSYN070AAXX  22181 35173 32498 81406 11128 21044 40162 57017 886// 333 11006;EQDQ01  00002PRCP99
0112351730999992000122221004+51610+069800FM-12+031299999V0201401N006010042019N0200001N1-00122-00221101541ADDGF108991081061004501999999MD1710071+9999REMSYN060AAXX  22211 35173 42498 81406 11012 21022 40154 57007 886//;
0143351730999992000122300004+51610+069800FM-12+031299999V0202301N006010075019N0200001N1-00161-00301101551ADDGF108991081051008001999999MA1999999097731MD1310011+9999REMSYN076AAXX  23001 35173 42598 82306 11016 21030 39773 40155 53001 885// 555 1/103;
0191351730999992000122303004+51610+069800FM-12+031299999V0202301N010019999999N0200001N1-00521-00771101741ADDAA199000091AJ100169199999999GF108991081001999999071999IA1249MD1210131+9999REMSYN086AAXX  23031 35173 32998 82310 11052 21077 40174 52013 8807/ 333 48016 555 21055 7000/;EQDQ01  00002PRCP99
0209351730999992000122306004+51610+069800FM-12+031299999V0202501N010010042019N0040001N1-00821-01191102031ADDAA199000091AY131061AY221061GF105991051071004501001001KA1999N+99999MD1210241+9999MW1361REMSYN076AAXX  23061 35173 31496 52510 11082 21119 40203 52024 73632 85700 333 21055;EQDQ01  00002PRCP99Q02 -00552ATMN  
0140351730999992000122309004+51610+069800FM-12+031299999V0202501N008012200019N0040001N1-00941-01341102131ADDAY131031AY231031GF102991021071004501001001MD1210101+9999MW1361REMSYN066AAXX  23091 35173 41496 22508 11094 21134 40213 52010 73633 82700;
0171351730999992000122312004+51610+069800FM-12+031299999V0202301N006012200019N0200001N1-01231-01431102351ADDAY131061AY211061GF102991001001999999001061MA1999999098351MD1210151+9999MW1011REMSYN082AAXX  23121 35173 41998 22306 11123 21143 39835 40235 52015 70131 80006 555 1/114;
0165351730999992000122315004+51610+069800FM-12+031299999V0202001N006010042019N0200001N1-01051-01331102421ADDAA199000091GF106991061071004501001001KA1999M-00491MD1210101+9999REMSYN070AAXX  23151 35173 32498 62006 11105 21133 40242 52010 86700 333 11049;EQDQ01  00002PRCP99
0165351730999992000122318004+51610+069800FM-12+031299999V0202501N006010042019N0200001N1-00841-01121102481ADDAA199000091GF108991081061004501999999KA1999M-00491MD1210081+9999REMSYN070AAXX  23181 35173 32498 82506 11084 21112 40248 52008 886// 333 11049;EQDQ01  00002PRCP99
0112351730999992000122321004+51610+069800FM-12+031299999V0202501N004010075019N0200001N1-01071-01351102591ADDGF105991051051008001001001MD1210061+9999REMSYN060AAXX  23211 35173 42598 52504 11107 21135 40259 52006 85500;
0143351730999992000122400004+51610+069800FM-12+031299999V0202301N002012200019N0200001N1-01351-01551102821ADDGF103991031071004501001001MA1999999098781MD1210191+9999REMSYN076AAXX  24001 35173 42498 32302 11135 21155 39878 40282 52019 83700 555 1/115;
0206351730999992000122403004+51610+069800FM-12+031299999V0202301N002010075019N0010001N1-01121-01321102831ADDAA112999929AJ100169199999999AY171031AY211031GF108991081051008001999999IA1249MD1210041+9999MW1711REMSYN098AAXX  24031 35173 /1594 82302 11112 21132 40283 52004 77171 885// 333 48016 555 21141 69902 7990/;
0190351730999992000122406004+51610+069800FM-12+031299999V0202301N004012200019N0040001N1-01191-01461103051ADDAA100000791AY171061AY211061GA1001+999999999GF100991001001999999001001KA1999N-01411MD1210201+9999MW1011REMSYN076AAXX  24061 35173 11996 02304 11119 21146 40305 52020 69900 70171 333 21141;
0112351730999992000122409004+51610+069800FM-12+031299999V0202301N002010042019N0040001N1-01141-01421103061ADDGF105991051071004501001001MD1210031+9999REMSYN060AAXX  24091 35173 42496 52302 11114 21142 40306 52003 85700;
0143351730999992000122412004+51610+069800FM-12+031299999V0201801N002019999999N0200001N1-01481-01751103191ADDGF108991081001999999071999MA1999999099101MD1210051+9999REMSYN076AAXX  24121 35173 42998 81802 11148 21175 39910 40319 52005 8807/ 555 1/118;
0155351730999992000122415004+51610+069800FM-12+031299999V0201801N002012200019N0200001N1-01791-01981103201ADDGA1001+999999999GF100991001001999999001001KA1120M-01091MD1810021+9999REMSYN074AAXX  24151 35173 /2998 01802 11179 21198 40320 58002 333 11109 555 69902;
0170351730999992000122418004+51610+069800FM-12+031299999V0201801N002012200019N0200001N1-01641-01831103151ADDAA100000791AY111061AY211061GA1001+999999999GF100991001001999999001001KA1999M-01091MW1761REMSYN070AAXX  24181 35173 11998 01802 11164 21183 40315 69900 77611 333 11109;
0140351730999992000122421004+51610+069800FM-12+031299999V0202301N004019999999N0010001N1-01351-01481103081ADDAY171031AY211031GF108991081001999999021999MD1710031+9999MW1711REMSYN066AAXX  24211 35173 41994 82304 11135 21148 40308 57003 77171 8802/;
0171351730999992000122500004+51610+069800FM-12+031299999V0201801N004019999999N0200001N1-01461-01591103061ADDAY171061AY211061GF108991081001999999021999MA1999999099001MD1710031+9999MW1021REMSYN082AAXX  25001 35173 41998 81804 11146 21159 39900 40306 57003 70271 8802/ 555 1/116;
0178351730999992000122503004+51610+069800FM-12+031299999V0201801N002019999999N0200001N1-01441-01571103011ADDAA112000291AJ100169199999999GF108991081001999999071999IA1249MD1710051+9999REMSYN092AAXX  25031 35173 /2998 81802 11144 21157 40301 57005 8807/ 333 48016 555 21179 69922 7992/;
0152351730999992000122506004+51610+069800FM-12+031299999V0201801N002012200019N0040001N1-01691-01811103091ADDAA100000191GF103991001001999999001081KA1999N-01791MD1310031+9999REMSYN076AAXX  25061 35173 12996 31802 11169 21181 40309 53003 69920 80008 333 21179;
0112351730999992000122509004+51610+069800FM-12+031299999V0201801N002019999999N0040001N1-01571-01701102951ADDGF105991001001999999001081MD1810111+9999REMSYN060AAXX  25091 35173 42996 51802 11157 21170 40295 58011 80008;
0143351730999992000122512004+51610+069800FM-12+031299999V0201801N002012200019N0200001N1-01651-01781102951ADDGF102991001001999999001081MA1999999098871MD1410001+9999REMSYN076AAXX  25121 35173 42998 21802 11165 21178 39887 40295 54000 80008 555 1/117;
0175351730999992000122515004+51610+069800FM-12+031299999V0209999C000012200019N0200001N1-01941-02061102901ADDAA199000091GA1001+999999999GF100991001001999999001001KA1999M-01431MD1810101+9999REMSYN064AAXX  25151 35173 32998 00000 11194 21206 40290 58010 333 11143;EQDQ01  00002PRCP99
0175351730999992000122518004+51610+069800FM-12+031299999V0201801N002012200019N0200001N1-02111-02291102831ADDAA199000091GA1001+999999999GF100991001001999999001001KA1999M-01431MD1710101+9999REMSYN064AAXX  25181 35173 32998 01802 11211 21229 40283 57010 333 11143;EQDQ01  00002PRCP99
0122351730999992000122521004+51610+069800FM-12+031299999V0201401N002012200019N0200001N1-02151-02331102701ADDGA1001+999999999GF100991001001999999001001MD1710131+9999REMSYN054AAXX  25211 35173 42998 01402 11215 21233 40270 57013;
0143351730999992000122600004+51610+069800FM-12+031299999V0201601N002019999999N0200001N1-02031-02151102591ADDGF106991061001999999031001MA1999999098461MD1710081+9999REMSYN076AAXX  26001 35173 42998 61602 11203 21215 39846 40259 57008 86030 555 1/123;
0191351730999992000122603004+51610+069800FM-12+031299999V0201601N004019999999N0200001N1-01511-01641102351ADDAA199000091AJ100169199999999GF107991071001999999031001IA1249MD1710161+9999REMSYN086AAXX  26031 35173 32998 71604 11151 21164 40235 57016 87030 333 48016 555 21217 7000/;EQDQ01  00002PRCP99
0174351730999992000122606004+51610+069800FM-12+031299999V0201801N006019999999N0020001N1-01161-01291102251ADDAA199000021AY171061AY221061GF108991081001999999021999KA1999N-02171MD1710031+9999MW1731REMSYN076AAXX  26061 35173 31995 81806 11116 21129 40225 57003 77372 8802/ 333 21217;
0140351730999992000122609004+51610+069800FM-12+031299999V0201801N006019999999N0020001N1-00671-00791102071ADDAY171031AY221031GF108991081001999999021999MD1710101+9999MW1731REMSYN066AAXX  26091 35173 41995 81806 11067 21079 40207 57010 77372 8802/;
0171351730999992000122612004+51610+069800FM-12+031299999V0202501N004019999999N0010001N1-00431-00591102001ADDAY171061AY221061GF108991081001999999021999MA1999999098131MD1710041+9999MW1711REMSYN082AAXX  26121 35173 41994 82504 11043 21059 39813 40200 57004 77172 8802/ 555 1/105;
0173351730999992000122615004+51610+069800FM-12+031299999V0202701N004010075019N0010001N1-00561-00701102131ADDAY171031AY221031GF108991081051008001999999KA1120M-00341MD1310111+9999MW1711REMSYN086AAXX  26151 35173 /1594 82704 11056 21070 40213 53011 77172 885// 333 11034 555 60012;
0180351730999992000122618004+51610+069800FM-12+031299999V0202701N004010075019N0200001N1-00661-00781102321ADDAA100001091AY171061AY221061GF107991071051008001001001KA1999M-00341MD1210171+9999MW1021REMSYN082AAXX  26181 35173 11598 72704 11066 21078 40232 52017 60010 70272 87500 333 11034;
0112351730999992000122621004+51610+069800FM-12+031299999V0202701N002010075019N0200001N1-00741-00871102541ADDGF108991081051008001999999MD1210191+9999REMSYN060AAXX  26211 35173 42598 82702 11074 21087 40254 52019 885//;
0143351730999992000122700004+51610+069800FM-12+031299999V0202701N002019999999N0200001N1-00881-01031102681ADDGF108991081001999999021999MA1999999098701MD1210101+9999REMSYN076AAXX  27001 35173 42998 82702 11088 21103 39870 40268 52010 8802/ 555 1/110;
0210351730999992000122703004+51610+069800FM-12+031299999V0209999C000010001519N0001001N1-01021-01151102781ADDAA199000021AJ100209199999999AY141031AY221031GA1091+999999999GF109991091999999999999999IA1249MD1210091+9999MW1491REMSYN086AAXX  27031 35173 31/91 90000 11102 21115 40278 52009 74942 333 48020 555 21104 7001/;
0180351730999992000122706004+51610+069800FM-12+031299999V0202001N004019999999N0040001N1-00881-00881102701ADDAA100000791AY141061AY221061GF108991081001999999021999KA1999N-01041MD1810071+9999MW1021REMSYN082AAXX  27061 35173 11996 82004 11088 21088 40270 58007 69900 70242 8802/ 333 21104;
0112351730999992000122709004+51610+069800FM-12+031299999V0201801N006019999999N0040001N1-00651-00811102461ADDGF108991081001999999011999MD1710181+9999REMSYN060AAXX  27091 35173 42996 81806 11065 21081 40246 57018 8801/;
0171351730999992000122712004+51610+069800FM-12+031299999V0202001N008019999999N0010001N1-00561-00741102201ADDAY171061AY231061GF108991081001999999021999MA1999999098301MD1710241+9999MW1711REMSYN082AAXX  27121 35173 41994 82008 11056 21074 39830 40220 57024 77173 8802/ 555 1/106;
0192351730999992000122715004+51610+069800FM-12+031299999V0202301N010010042019N0005001N1-00451-00651101971ADDAY171031AY231031GF108991999071004501021999KA1120M-00391MD1710201+9999MW1731REMSYN086AAXX  27151 35173 /1493 82310 11045 21065 40197 57020 77373 8872/ 333 11039 555 69952;EQDQ01+000082SCOTLC
0180351730999992000122718004+51610+069800FM-12+031299999V0202501N008010042019N0200001N1-00341-00511101861ADDAA100000591AY171061AY231061GF108991081071004501999999KA1999M-00391MD1710091+9999MW1361REMSYN082AAXX  27181 35173 11498 82508 11034 21051 40186 57009 69950 73673 887// 333 11039;
0140351730999992000122721004+51610+069800FM-12+031299999V0202701N008010042019N0200001N1-00321-00491101771ADDAY131031AY231031GF108991081071004501999999MD1710091+9999MW1361REMSYN066AAXX  27211 35173 41498 82708 11032 21049 40177 57009 73633 887//;
0190351730999992000122800004+51610+069800FM-12+031299999V0202501N010010042019N0005001N1-00401-00521101941ADDAY171061AY231061GF108991999071004501021999MA1999999098081MD1310161+9999MW1731REMSYN082AAXX  28001 35173 41493 82510 11040 21052 39808 40194 53016 77373 8872/ 555 1/105;EQDQ01+000082SCOTLC
0225351730999992000122803004+51610+069800FM-12+031299999V0202701N010010042019N0005001N1-00431-00521102111ADDAA112002091AJ100199199999999AY171031AY231031GF108991999071004501021999IA1249MD1210161+9999MW1711REMSYN098AAXX  28031 35173 /1493 82710 11043 21052 40211 52016 77173 8872/ 333 48019 555 21046 60022 7003/;EQDQ01+000082SCOTLC
0180351730999992000122806004+51610+069800FM-12+031299999V0202501N004019999999N0040001N1-00291-00421102331ADDAA100002091AY171061AY231061GF108991081001999999021999KA1999N-00461MD1210221+9999MW1021REMSYN082AAXX  28061 35173 11996 82504 11029 21042 40233 52022 60020 70273 8802/ 333 21046;
0112351730999992000122809004+51610+069800FM-12+031299999V0202501N004019999999N0040001N1-00251-00381102401ADDGF108991081001999999071999MD1210081+9999REMSYN060AAXX  28091 35173 42996 82504 11025 21038 40240 52008 8807/;
0143351730999992000122812004+51610+069800FM-12+031299999V0202501N004010042019N0200001N1-00391-00581102601ADDGF108991081061004501999999MA1999999098701MD1210161+9999REMSYN076AAXX  28121 35173 42498 82504 11039 21058 39870 40260 52016 886// 555 1/105;
0173351730999992000122815004+51610+069800FM-12+031299999V0202301N002010075019N0010001N1-00471-00601102661ADDAY171031AY221031GF108991081051008001999999KA1120M-00241MD1210061+9999MW1711REMSYN086AAXX  28151 35173 /1594 82302 11047 21060 40266 52006 77172 885// 333 11024 555 69972;
0180351730999992000122818004+51610+069800FM-12+031299999V0202001N002019999999N0200001N1-00501-00631102721ADDAA100000891AY171061AY221061GF108991081001999999021999KA1999M-00241MD1210041+9999MW1021REMSYN082AAXX  28181 35173 11998 82002 11050 21063 40272 52004 69970 70272 8802/ 333 11024;
0140351730999992000122821004+51610+069800FM-12+031299999V0201801N002010021019N0010001N1-00451-00511102671ADDAY121031AY221031GF108991081061002501999999MD1810031+9999MW1101REMSYN066AAXX  28211 35173 41394 81802 11045 21051 40267 58003 71022 886//;
0143351730999992000122900004+51610+069800FM-12+031299999V0202301N004010042019N0200001N1-00251-00411102481ADDGF108991081071004501999999MA1999999098621MD1710151+9999REMSYN076AAXX  29001 35173 42498 82304 11025 21041 39862 40248 57015 887// 555 1/103;
0178351730999992000122903004+51610+069800FM-12+031299999V0202501N004010042019N0200001N1-00201-00511102161ADDAA112000291AJ100229199999999GF108991081071004501999999IA1249MD1710311+9999REMSYN092AAXX  29031 35173 /2498 82504 11020 21051 40216 57031 887// 333 48022 555 21054 69922 7999/;
0180351730999992000122906004+51610+069800FM-12+031299999V0202501N008019999999N0040001N1-00181-00321102001ADDAA100000191AY171061AY231061GF108991081001999999021999KA1999N-00541MD1710141+9999MW1711REMSYN082AAXX  29061 35173 11996 82508 11018 21032 40200 57014 69920 77173 8802/ 333 21054;
0140351730999992000122909004+51610+069800FM-12+031299999V0202301N010019999999N0020001N1-00251-00381101901ADDAY171031AY231031GF108991081001999999021999MD1710111+9999MW1731REMSYN066AAXX  29091 35173 41995 82310 11025 21038 40190 57011 77373 8802/;
0171351730999992000122912004+51610+069800FM-12+031299999V0202301N008019999999N0005001N1-00441-00531101921ADDAY171061AY231061GF108991081001999999021999MA1999999098061MD1410001+9999MW1731REMSYN082AAXX  29121 35173 41993 82308 11044 21053 39806 40192 54000 77373 8802/ 555 1/105;
0173351730999992000122915004+51610+069800FM-12+031299999V0202701N004019999999N0200001N1-00491-00621102511ADDAY171031AY231031GF108991081001999999021999KA1120M-00141MD1310061+9999MW1021REMSYN086AAXX  29151 35173 /1998 82704 11049 21062 40251 53006 70273 8802/ 333 11014 555 60052;
0180351730999992000122918004+51610+069800FM-12+031299999V0202701N002019999999N0200001N1-00581-00731102081ADDAA100005191AY171061AY231061GF108991081001999999021999KA1999M-00141MD1210071+9999MW1021REMSYN082AAXX  29181 35173 11998 82702 11058 21073 40208 52007 60050 70273 8802/ 333 11014;
0140351730999992000122921004+51610+069800FM-12+031299999V0203601N004010042019N0200001N1-01311-01741102551ADDAY171031AY221031GF106991061071004501001001MD1210331+9999MW1021REMSYN066AAXX  29211 35173 41498 63604 11131 21174 40255 52033 70272 86700;
0181351730999992000123000004+51610+069800FM-12+031299999V0203601N002012200019N0100001N1-01811-02311103021ADDAY171061AY211061GA1001+999999999GF100991001001999999001001MA1999999098901MD1210381+9999MW1011REMSYN076AAXX  30001 35173 41997 03602 11181 21231 39890 40302 52038 70171 555 1/120;
0188351730999992000123003004+51610+069800FM-12+031299999V0209999C000012200019N0200001N1-02131-02531103471ADDAA112001091AJ100249199999999GA1001+999999999GF100991001001999999001001IA1249MD1210391+9999REMSYN086AAXX  30031 35173 /2998 00000 11213 21253 40347 52039 333 48024 555 21216 60012 7006/;
0152351730999992000123006004+51610+069800FM-12+031299999V0209999C000012200019N0040001N1-02171-02571103781ADDAA100001091GF102991001001999999001081KA1999N-02161MD1210281+9999REMSYN076AAXX  30061 35173 12996 20000 11217 21257 40378 52028 60010 80008 333 21216;
0112351730999992000123009004+51610+069800FM-12+031299999V0209999C000012200019N0040001N1-01601-02021103691ADDGF103991001001999999001081MD1210011+9999REMSYN060AAXX  30091 35173 42996 30000 11160 21202 40369 52001 80008;
0143351730999992000123012004+51610+069800FM-12+031299999V0201401N002019999999N0200001N1-01711-02131103631ADDGF106991031001999999071051MA1999999099541MD1810041+9999REMSYN076AAXX  30121 35173 42998 61402 11171 21213 39954 40363 58004 83075 555 1/119;
0165351730999992000123015004+51610+069800FM-12+031299999V0201801N002019999999N0200001N1-01471-01741103581ADDAA199000091GF108991081001999999071999KA1999M-01411MD1710061+9999REMSYN070AAXX  30151 35173 32998 81802 11147 21174 40358 57006 8807/ 333 11141;EQDQ01  00002PRCP99
0181351730999992000123018004+51610+069800FM-12+031299999V0201801N004019999999N0200001N1-01021-01221103331ADDAA199000091GF108991081001999999021999KA1999M+99999MD1710161+9999REMSYN070AAXX  30181 35173 32998 81804 11102 21122 40333 57016 8802/ 333 11141;EQDQ01  00002PRCP99Q02 -01412ATMX  
0140351730999992000123021004+51610+069800FM-12+031299999V0201801N002019999999N0010001N1-00841-01031103111ADDAY171031AY221031GF108991081001999999021999MD1710181+9999MW1711REMSYN066AAXX  30211 35173 41994 81802 11084 21103 40311 57018 77172 8802/;
0171351730999992000123100004+51610+069800FM-12+031299999V0202001N004019999999N0200001N1-00421-00581102791ADDAY171061AY221061GF108991081001999999021999MA1999999098891MD1710251+9999MW1221REMSYN082AAXX  31001 35173 41998 82004 11042 21058 39889 40279 57025 72272 8802/ 555 1/106;
0178351730999992000123103004+51610+069800FM-12+031299999V0202501N006010075019N0200001N1-00041-00221102611ADDAA112003091AJ100279199999999GF108991081051008001999999IA1249MD1710121+9999REMSYN092AAXX  31031 35173 /2598 82506 11004 21022 40261 57012 885// 333 48027 555 21147 60032 7003/;
0196351730999992000123106004+51610+069800FM-12+031299999V0202701N004010003019N0002001N1-00081-00151102621ADDAA100003091AY141061AY221061GA1091+999999999GF109991091999999999999999KA1120N-01471MD1310011+9999MW1471REMSYN082AAXX  31061 35173 11/92 92704 11008 21015 40262 53001 60030 74742 333 21147 93400;
0140351730999992000123109004+51610+069800FM-12+031299999V0202901N006010042019N0040001N1-00121-00291102651ADDAY141031AY221031GF108991081061004501999999MD1210011+9999MW1021REMSYN066AAXX  31091 35173 41496 82906 11012 21029 40265 52001 70242 886//;
0171351730999992000123112004+51610+069800FM-12+031299999V0202901N002010042019N0200001N1-00241-00401102781ADDAY141061AY221061GF108991081061004501999999MA1999999098911MD1210121+9999MW1021REMSYN082AAXX  31121 35173 41498 82902 11024 21040 39891 40278 52012 70242 886// 555 1/103;
0203351730999992000123115004+51610+069800FM-12+031299999V0209999C000010001519N0001001N1-00201-00351102831ADDAA199000091AY141031AY221031GA1091+999999999GF109991091999999999999999KA1999M-00011MD1210051+9999MW1471REMSYN070AAXX  31151 35173 31/91 90000 11020 21035 40283 52005 74742 333 11001;EQDQ01  00002PRCP99
0203351730999992000123118004+51610+069800FM-12+031299999V0209999C000010001519N0001001N1-00231-00351102861ADDAA199000091AY141061AY241061GA1091+999999999GF109991091999999999999999KA1999M-00011MD1210031+9999MW1491REMSYN070AAXX  31181 35173 31/91 90000 11023 21035 40286 52003 74944 333 11001;EQDQ01  00002PRCP99
0150351730999992000123121004+51610+069800FM-12+031299999V0209999C000010001519N0001001N1-00281-00411102911ADDAY141031AY241031GA1091+999999999GF109991091999999999999999MD1210051+9999MW1491REMSYN060AAXX  31211 35173 41/91 90000 11028 21041 40291 52005 74944;
