0143407340999992000011109004+36500+051580FM-12-002099999V0200601N003010360019N0120001N1+01061+00341102461ADDGF106991011011008001031001MA1999999102691MD1810101+9999REMSYN076AAXX  11091 40734 42562 60603 10106 20034 30269 40246 58010 81130 90845 333;
0182407340999992000011500004+36500+051580FM-12-002099999V0209999C000010360019N0070001N1+00441+00401102971ADDAA106000591AY161061AY261061GF106991031051008001071001MA1999999103021MD1810101+9999MW1601REMSYN082    AAXX  15001 40734 11557 60000 10044 20040 30302 40297 58010 69961 76066 83570;
0182407340999992000011618004+36500+051580FM-12-002099999V0202601N006010360019N0080001N1+00481+00301102131ADDAA106000391AY181061AY261061GF108991041031008001021999MA1999999102361MD1210101+9999MW1211REMSYN082    AAXX  16181 40734 11558 82606 10048 20030 30236 40213 52010 69931 72186 8432/;
0183407340999992000012000004+36500+051580FM-12-002099999V0201701N003012200019N0100001N1+00641+00311101171ADDAA199000091GA1001+999999999GF100991001001999999001001MA1999999101401MD1210271+9999REMSYN070AAXX  20001 40734 32960 01703 10064 20031 30140 40117 52027 92345 333;EQDQ01  00002PRCP99
0201407340999992000012412004+36500+051580FM-12-002099999V0202901N003012200019N0120001N1+01061+00781102671ADDAA199000091GA1011+006009089GF103991011011999999071001MA1999999102901MD1610101+9999REMSYN088AAXX  24121 40734 32962 32903 10106 20078 30290 40267 56010 81170 91150 333 81820 83359;EQDQ01  00002PRCP99
0215407340999992000012418004+36500+051580FM-12-002099999V0209999C00001036001CN0120001N1+00761+00621102521ADDAA199000091GA1011+007509069GF107991011041008001071001GJ101509MA1999999102751MD1810051+9999REMSYN094AAXX  24181 40734 32562 70000 10076 20062 30275 40252 58005 81470 91750 333 55025 81625 87359;EQDQ01  00002PRCP99
0183407340999992000012500004+36500+051580FM-12-002099999V0209999C000012200019N0120001N1+00381+00281102221ADDAA199000091GA1001+999999999GF100991001001999999001001MA1999999102451MD1710151+9999REMSYN070AAXX  25001 40734 32962 00000 10038 20028 30245 40222 57015 92350 333;EQDQ01  00002PRCP99
0201407340999992000012506004+36500+051580FM-12-002099999V0209999C000012200019N0150001N1+01001+00461101971ADDAA124000091GA1001+999999999GF100991001001999999001001MA1999999102201MD1610081+9999REMSYN088AAXX  25061 40734 32965 00000 10100 20046 30220 40197 56008 90550 333 30102 50091 70000;EQDQ01  00002PRCP24
0195407340999992000012512004+36500+051580FM-12-002099999V0200301N002012200019N0120001N1+01301+00961101451ADDAA199000091GA1021+060009019GF102991001001999999001021MA1999999101681MD1810221+9999REMSYN082AAXX  25121 40734 32962 20302 10130 20096 30168 40145 58022 80002 91145 333 82070;EQDQ01  00002PRCP99
0189407340999992000012518004+36500+051580FM-12-002099999V0202101N003012200019N0100001N1+00621+00481101241ADDAA199000091GA1001+999999999GF100991001001999999001001MA1999999101481MD1810141+9999REMSYN076AAXX  25181 40734 32960 02103 10062 20048 30148 40124 58014 91745 333 55087;EQDQ01  00002PRCP99
0183407340999992000012600004+36500+051580FM-12-002099999V0201701N003012200019N0100001N1+00501+00251101071ADDAA199000091GA1001+999999999GF100991001001999999001001MA1999999101301MD1810061+9999REMSYN070AAXX  26001 40734 32960 01703 10050 20025 30130 40107 58006 92350 333;EQDQ01  00002PRCP99
0219407340999992000012606004+36500+051580FM-12-002099999V0201801N00301220001CN0100001N1+00901+00641101111ADDAA124000091GA1011+007509089GF106991011011008001001061MA1999999101341MD1010041+9999REMSYN106AAXX  26061 40734 32560 61803 10090 20064 30134 40111 50004 81106 90545 333 30000 50091 70000 81825 86268;EQDQ01  00002PRCP24
0183407340999992000020200004+36500+051580FM-12-002099999V0202101N002012200019N0100001N1+00461+00211101671ADDAA199000091GA1001+999999999GF100991001001999999001001MA1999999101901MD1310101+9999REMSYN070AAXX  02001 40734 32960 02102 10046 20021 30190 40167 53010 92350 333;EQDQ01  00002PRCP99
0189407340999992000020418004+36500+051580FM-12-002099999V0209999C000012200019N0100001N1+00461+00361101651ADDAA199000091GA1001+999999999GF100991001001999999001001MA1999999101881MD1110051+9999REMSYN076AAXX  04181 40734 32960 00000 10046 20036 30188 40165 51005 91750 333 55097;EQDQ01  00002PRCP99
0183407340999992000020500004+36500+051580FM-12-002099999V0209999C000012200019N0100001N1+00241+00031101651ADDAA199000091GA1001+999999999GF100991001001999999001001MA1999999101881MD1410001+9999REMSYN070AAXX  05001 40734 32960 00000 10024 20003 30188 40165 54000 92350 333;EQDQ01  00002PRCP99
0213407340999992000020506004+36500+051580FM-12-002099999V0202801N009012200019N0100001N1+00981+00631102121ADDAA124000091GA1011+009009029GF101991011011008001001011MA1999999102351MD1210231+9999REMSYN100AAXX  05061 40734 32560 12809 10098 20063 30235 40212 52023 81101 90550 333 31102 50131 70000 81830;EQDQ01  00002PRCP24
0234407340999992000020806004+36500+051580FM-12-002099999V0209999C00001036001CN0070001N1+00481+00341102671ADDAA106002091AY161061AY221061GA1031+004509079GF108991031071004501021999MA1999999102901MD1610101+9999MW1101REMSYN118AAXX  08061 40734 11457 80000 10048 20034 30290 40267 56010 60021 71062 8372/ 90550 333 32002 50331 70226 83715 88457;
0183407340999992000020900004+36500+051580FM-12-002099999V0209999C000012200019N0120001N1+00101-00011102171ADDAA199000091GA1001+999999999GF100991001001999999001001MA1999999102401MD1710121+9999REMSYN070AAXX  09001 40734 32962 00000 10010 21001 30240 40217 57012 92350 333;EQDQ01  00002PRCP99
0183407340999992000020912004+36500+051580FM-12-002099999V0200601N004012200019N0150001N1+01041+00101102211ADDAA199000091GA1001+999999999GF100991001001999999001001MA1999999102441MD1610051+9999REMSYN070AAXX  09121 40734 32965 00604 10104 20010 30244 40221 56005 91150 333;EQDQ01  00002PRCP99
0229407340999992000021206004+36500+051580FM-12-002099999V0203001N002012200019N0030001N1+00701+00701102421ADDAA124000091AY141061AY201061GA1001+999999999GF100991001001999999001001MA1999999102651MD1210151+9999MW1421REMSYN094AAXX  12061 40734 31930 03002 10070 20070 30265 40242 52015 74240 90550 333 31002 50091 70000;EQDQ01  00002PRCP24
0195407340999992000021212004+36500+051580FM-12-002099999V0202901N007012200019N0100001N1+01201+00751102481ADDAA199000091GA1011+006009029GF101991011011008001001001MA1999999102711MD1310021+9999REMSYN082AAXX  12121 40734 32560 12907 10120 20075 30271 40248 53002 81100 91150 333 81820;EQDQ01  00002PRCP99
0209407340999992000021218004+36500+051580FM-12-002099999V0202101N002012200019N0100001N1+00701+00611102461ADDAA199000091GA1011+060009019GF101991001001999999001021GJ104689MA1999999102691MD1810041+9999REMSYN088AAXX  12181 40734 32960 12102 10070 20061 30269 40246 58004 80002 91750 333 55078 81070;EQDQ01  00002PRCP99
0201407340999992000021300004+36500+051580FM-12-002099999V0209999C00001036001CN0100001N1+00781+00611102241ADDAA199000091GA1011+009009069GF105991011041008001071001MA1999999102471MD1710121+9999REMSYN088AAXX  13001 40734 32560 50000 10078 20061 30247 40224 57012 81470 92345 333 81630 85360;EQDQ01  00002PRCP99
0233407340999992000021318004+36500+051580FM-12-002099999V0209999C00001036001CN0100001N1+00841+00671101601ADDAA199000091GA1031+009009069GF108991031051008001021999GJ100909MA1999999101831REMSYN094AAXX  13181 40734 32560 80000 10084 20067 30183 40160 58000 8352/ 91750 333 55015 83630 88460;EQDQ01+000082APCTENQ02+000002APC3  Q03  00002PRCP99
0146407340999992000021321004+36500+051580FM-12-002099999V0202601N002019999999N0100001N1-00842+99999101511ADDGF108991999999999999999999MA1999999101741MD1810091+9999REMSYN060AAXX  13211 40734 42960 82602 11084 20067 30174 40151 58009;EQDQ01-000843ATOT  
0256407340999992000021406004+36500+051580FM-12-002099999V0202501N00501007501CN0060001N1+00701+00521101941ADDAA106002091AY161061AY261061GA1021+006009099GA2031+007509069GF108991041031004501021999MA1999999102171MD1210241+9999MW1601REMSYN124AAXX  14061 40734 11456 82505 10070 20052 30217 40194 52024 60021 76066 8432/ 90550 333 32003 50111 70048 82920 83625 88556;
0238407340999992000021412004+36500+051580FM-12-002099999V0202801N00801036001CN0100001N1+00781+00501102071ADDAA106001091AY161061AY261061GA1011+006009099GA2041+007509069GF108991041031008001021999MA1999999102301MD1510001+9999MW1021REMSYN106AAXX  14121 40734 11560 82808 10078 20050 30230 40207 55000 60011 70266 8432/ 91145 333 81920 84625 88458;
0252407340999992000021418004+36500+051580FM-12-002099999V0202401N00501036001CN0100001N1+00721+00451102371ADDAA106000191AY161061AY261061GA1011+006009099GA2041+007509069GF108991041031008001021999GJ100009MA1999999102601MD1210101+9999MW1021REMSYN112AAXX  14181 40734 11560 82405 10072 20045 30260 40237 52010 69921 70266 8432/ 91745 333 55000 81920 84625 88458;
0201407340999992000021500004+36500+051580FM-12-002099999V0209999C000012200019N0100001N1+00361+00321102331ADDAA199000091GA1011+007509099GF102991011031999999031001MA1999999102561MD1810041+9999REMSYN088AAXX  15001 40734 32960 20000 10036 20032 30256 40233 58004 81330 92350 333 81925 82360;EQDQ01  00002PRCP99
0194407340999992000021506004+36500+051580FM-12-002099999V0209999C000012200019N0100001N1+00781+00561102371ADDAA124001391GA1011+007509029GF101991011011008001031001MA1999999102601MD1110101+9999REMSYN100AAXX  15061 40734 32560 10000 10078 20056 30260 40237 51010 81130 90545 333 31002 50081 70012 81825;
0201407340999992000021512004+36500+051580FM-12-002099999V0200801N005012200019N0100001N1+01021+00581102171ADDAA199000091GA1021+009009089GF103991021011008001031001MA1999999102401MD1610151+9999REMSYN088AAXX  15121 40734 32560 30805 10102 20058 30240 40217 56015 82130 91150 333 82830 83360;EQDQ01  00002PRCP99
0215407340999992000021518004+36500+051580FM-12-002099999V0201501N003012200019N0100001N1+00661+00571102151ADDAA199000091GA1021+009009069GF104991021041008001071001GJ103009MA1999999102381MD1010021+9999REMSYN094AAXX  15181 40734 32560 41503 10066 20057 30238 40215 50002 82470 91745 333 55050 82630 84360;EQDQ01  00002PRCP99
0183407340999992000021600004+36500+051580FM-12-002099999V0209999C000012200019N0100001N1+00441+00401101901ADDAA199000091GA1001+999999999GF100991001001999999001001MA1999999102131MD1810101+9999REMSYN070AAXX  16001 40734 32960 00000 10044 20040 30213 40190 58010 92350 333;EQDQ01  00002PRCP99
0195407340999992000021700004+36500+051580FM-12-002099999V0209999C000012200019N0100001N1+00601+00511101431ADDAA199000091GA1011+060009019GF101991001001999999001011MA1999999101661MD1510021+9999REMSYN082AAXX  17001 40734 32960 10000 10060 20051 30166 40143 55002 80001 92350 333 81070;EQDQ01  00002PRCP99
0201407340999992000021706004+36500+051580FM-12-002099999V0200601N003012200019N0120001N1+99999+99999101481ADDAA124000091GA1001+999999999GF100991001001999999001001MA1999999101711MD1010001+9999REMSYN088AAXX  17061 40734 32962 00603 101/1 20075 30171 40148 50000 90565 333 31001 50091 70000;EQDQ01  00002PRCP24
0237407340999992000021718004+36500+051580FM-12-002099999V0202801N005010036019N0030001N1+00901+00821101571ADDAA199000091AY121061AY221061GA1081+003609059GF108991081061004501999999GJ104089MA1999999101801MD1110081+9999MW1101REMSYN094AAXX  17181 40734 31430 82805 10090 20082 30180 40157 51008 71022 886// 91750 333 55068 88612;EQDQ01  00002PRCP99
0248407340999992000021806004+36500+051580FM-12-002099999V0202701N005010090019N0080001N1+00941+00771102301ADDAA106007191AY161061GA1021+006009099GA2051+009009069GF108991051031999999021999MA1999999102531MD1210231+9999MW1111REMSYN124AAXX  18061 40734 11958 82705 10094 20077 30253 40230 52023 60071 7116/ 8532/ 90550 333 31007 50271 70071 82920 85630 88458;
0223407340999992000021812004+36500+051580FM-12-002099999V0203301N00301036001CN9999999N1+01081+00891999999ADDAA199000091GA1011+007509099GA2031+009009069GF105991031031008001071001MA1999999102501MD1610131+9999REMSYN094AAXX  18121 40734 3256/ 53303 10108 20089 30250 400/0 56013 83370 91145 333 81925 83630 85359;EQDQ01  00002PRCP99
0183407340999992000021900004+36500+051580FM-12-002099999V0201701N002012200019N0100001N1+00521+00481102151ADDAA199000091GA1001+999999999GF100991001001999999001001MA1999999102381MD1710101+9999REMSYN070AAXX  19001 40734 32960 01702 10052 20048 30238 40215 57010 92345 333;EQDQ01  00002PRCP99
0215407340999992000021918004+36500+051580FM-12-002099999V0209999C00001036001CN0100001N1+00941+00821101671ADDAA199000091GA1031+009009069GF105991031051008001071001GJ103309MA1999999101901MD1610081+9999REMSYN094AAXX  19181 40734 32560 50000 10094 20082 30190 40167 56008 83570 91745 333 55055 83630 85358;EQDQ01  00002PRCP99
0201407340999992000022000004+36500+051580FM-12-002099999V0202101N002012200019N0100001N1+00641+00601101371ADDAA199000091GA1031+006009069GF104991031051008001031001MA1999999101601MD1610031+9999REMSYN088AAXX  20001 40734 32560 42102 10064 20060 30160 40137 56003 83530 92350 333 83620 84360;EQDQ01  00002PRCP99
0230407340999992000022018004+36500+051580FM-12-002099999V0203001N004010045019N0080001N1+01001+00881101771ADDAA106002091AY161061AY221061GA1051+004509079GF108991051071004501021999GJ103849MA1999999102001MD1210301+9999MW1611REMSYN106AAXX  20181 40734 11458 83004 10100 20088 30200 40177 52030 60021 76162 8572/ 91750 333 55064 85715 88550;
0238407340999992000022100004+36500+051580FM-12-002099999V0202701N005010045019N0060001N1+00961+00841102061ADDAA106001091AY161061AY261061GA1051+004509079GA2011+006009099GF108991051031004501021999MA1999999102291MD1210191+9999MW1621REMSYN106AAXX  21001 40734 11456 82705 10096 20084 30229 40206 52019 60011 76266 8532/ 92350 333 85715 81920 88550;
0234407340999992000022106004+36500+051580FM-12-002099999V0200301N002012200019N0100001N1+01141+00861102221ADDAA106002091AY161061AY221061GA1011+007509069GF103991011041008001031001MA1999999102451MD1210071+9999MW1011REMSYN118AAXX  21061 40734 11560 30302 10114 20086 30245 40222 52007 60021 70162 81430 90550 333 31007 50141 70050 81625 83360;
0201407340999992000022206004+36500+051580FM-12-002099999V0200601N004012200019N0120001N1+01181+00591101551ADDAA124000091GA1001+999999999GF100991001001999999001001MA1999999101781MD1010011+9999REMSYN088AAXX  22061 40734 32962 00604 10118 20059 30178 40155 50001 90550 333 31001 50131 70000;EQDQ01  00002PRCP24
0183407340999992000022212004+36500+051580FM-12-002099999V0200901N005012200019N0150001N1+01401+00841101201ADDAA199000091GA1001+999999999GF100991001001999999001001MA1999999101431MD1610171+9999REMSYN070AAXX  22121 40734 32965 00905 10140 20084 30143 40120 56017 91150 333;EQDQ01  00002PRCP99
0189407340999992000022218004+36500+051580FM-12-002099999V0209999C000012200019N0150001N1+00821+00681101171ADDAA199000091GA1001+999999999GF100991001001999999001001MA1999999101401MD1110041+9999REMSYN076AAXX  22181 40734 32965 00000 10082 20068 30140 40117 51004 91745 333 55102;EQDQ01  00002PRCP99
0183407340999992000022300004+36500+051580FM-12-002099999V0209999C000012200019N0150001N1+00541+00481101071ADDAA199000091GA1001+999999999GF100991001001999999001001MA1999999101301MD1610061+9999REMSYN070AAXX  23001 40734 32965 00000 10054 20048 30130 40107 56006 92350 333;EQDQ01  00002PRCP99
0201407340999992000022306004+36500+051580FM-12-002099999V0203101N002012200019N0150001N1+01261+00961101271ADDAA124000091GA1001+999999999GF100991001001999999001001MA1999999101501MD1310171+9999REMSYN088AAXX  23061 40734 32965 03102 10126 20096 30150 40127 53017 90550 333 31003 50271 70000;EQDQ01  00002PRCP24
0183407340999992000022312004+36500+051580FM-12-002099999V0203601N003012200019N0100001N1+01321+00981101171ADDAA199000091GA1001+999999999GF100991001001999999001001MA1999999101401MD1610131+9999REMSYN070AAXX  23121 40734 32960 03603 10132 20098 30140 40117 56013 91150 333;EQDQ01  00002PRCP99
0189407340999992000022318004+36500+051580FM-12-002099999V0201201N002012200019N0100001N1+00901+00781101271ADDAA199000091GA1001+999999999GF100991001001999999001001MA1999999101501MD1310101-1021REMSYN076AAXX  23181 40734 32960 01202 10090 20078 30150 40127 53010 91745 333 59102;EQDQ01  00002PRCP99
0201407340999992000022400004+36500+051580FM-12-002099999V0202701N012010060019N0100001N1+00861+00781101671ADDAA199000091GA1051+006009079GF108991051071008001021999MA1999999101901MD1210401+9999REMSYN088AAXX  24001 40734 32560 82712 10086 20078 30190 40167 52040 8572/ 92350 333 85720 88458;EQDQ01  00002PRCP99
0241407340999992000022406004+36500+051580FM-12-002099999V0202701N00801036001CN0100001N1+01101+00681102371ADDAA124000091GA1011+006009089GA2031+007509069GF108991031081008001021999MA1999999102601MD1210301+9999REMSYN112AAXX  24061 40734 32560 82708 10110 20068 30260 40237 52030 8382/ 90550 333 30005 50271 70000 81820 83625 88458;EQDQ01  00002PRCP24
0223407340999992000022412004+36500+051580FM-12-002099999V0203301N00401036001CN0100001N1+01061+00871102441ADDAA199000091GA1031+004509079GA2011+007509099GF108991041031004501021999MA1999999102671MD1610021+9999REMSYN094AAXX  24121 40734 32460 83304 10106 20087 30267 40244 56002 8432/ 91145 333 83715 81925 88459;EQDQ01  00002PRCP99
0230407340999992000022418004+36500+051580FM-12-002099999V0202401N002010036019N0040001N1+00961+00931102561ADDAA106000591AY151061AY221061GA1051+003609079GF108991051071002501021999GJ100009MA1999999102791MD1310061+9999MW1511REMSYN106AAXX  24181 40734 11340 82402 10096 20093 30279 40256 53006 69941 75152 8572/ 91750 333 55000 85712 88458;
0216407340999992000022500004+36500+051580FM-12-002099999V0209999C00001036001CN0060001N1+00921+00841102471ADDAA106002091AY151061AY221061GA1031+004509079GF108991031071004501021999MA1999999102701MD1610051+9999MW1511REMSYN100AAXX  25001 40734 11456 80000 10092 20084 30270 40247 56005 60021 75152 8372/ 92350 333 83715 88458;
0234407340999992000022506004+36500+051580FM-12-002099999V0200901N008010036019N0060001N1+00921+00841102301ADDAA106001091AY151061AY251061GA1051+003609079GF108991051071004501021999MA1999999102531MD1610071+9999MW1201REMSYN118AAXX  25061 40734 11456 80908 10092 20084 30253 40230 56007 60011 72055 8572/ 90545 333 32008 50051 70036 85712 88458;
0216407340999992000022600004+36500+051580FM-12-002099999V0209999C000012200019N0070001N1+00741+00651101671ADDAA106002091AY151061AY211061GA1031+003009079GF104991031071004501071001MA1999999101901MD1110101+9999MW1011REMSYN100AAXX  26001 40734 11457 40000 10074 20065 30190 40167 51010 60021 70151 83770 92350 333 83710 84357;
0256407340999992000022606004+36500+051580FM-12-002099999V0202701N006010060019N0060001N1+00821+00601102071ADDAA106002091AY161061AY251061GA1041+003009079GA2021+006009099GF108991051031004501021999MA1999999102301MD1210201+9999MW1601REMSYN124AAXX  26061 40734 11456 82706 10082 20060 30230 40207 52020 60021 76065 8532/ 90550 333 32006 50171 70044 84710 82920 88556;
0238407340999992000022612004+36500+051580FM-12-002099999V0202701N00501036001CN0090001N1+00701+00611102171ADDAA106002091AY161061AY261061GA1011+006009099GA2031+007509069GF108991041031008001021999MA1999999102401MD1310101+9999MW1211REMSYN106AAXX  26121 40734 11559 82705 10070 20061 30240 40217 53010 60021 72166 8432/ 91145 333 81920 83625 88457;
0252407340999992000022618004+36500+051580FM-12-002099999V0201501N002010045019N0050001N1+00661+00571102071ADDAA106000591AY161061AY251061GA1051+004509079GA2011+007509099GF108991051031004501021999GJ100009MA1999999102301MD1610101+9999MW1211REMSYN112AAXX  26181 40734 11450 81502 10066 20057 30230 40207 56010 69941 72165 8532/ 91745 333 55000 85715 81925 88458;
0200407340999992000022706004+36500+051580FM-12-002099999V0200901N00501036001CN0120001N1+00861+00551101671ADDAA124003891GA1011+007509089GF107991011011008001071001MA1999999101901MD1410001+9999REMSYN106AAXX  27061 40734 32562 70905 10086 20055 30190 40167 54000 81170 90545 333 31005 50031 70038 81825 87359;
0201407340999992000022712004+36500+051580FM-12-002099999V0200801N00401036001CN0120001N1+00981+00441101641ADDAA199000091GA1031+009009069GF107991031041008001071001MA1999999101871MD1410001+9999REMSYN088AAXX  27121 40734 32562 70804 10098 20044 30187 40164 54000 83470 91150 333 83630 87359;EQDQ01  00002PRCP99
0215407340999992000022718004+36500+051580FM-12-002099999V0201501N00301036001CN0100001N1+00861+00651101961ADDAA199000091GA1031+009009069GF108991031051008001021999GJ100309MA1999999102191MD1210161+9999REMSYN094AAXX  27181 40734 32560 81503 10086 20065 30219 40196 52016 8352/ 91745 333 55005 83630 88459;EQDQ01  00002PRCP99
0201407340999992000022800004+36500+051580FM-12-002099999V0209999C00001036001CN0100001N1+00821+00651102071ADDAA199000091GA1021+009009069GF107991021041008001071001MA1999999102301MD1310081+9999REMSYN088AAXX  28001 40734 32560 70000 10082 20065 30230 40207 53008 82470 92350 333 82630 87459;EQDQ01  00002PRCP99
0241407340999992000022806004+36500+051580FM-12-002099999V0202701N00801036001CN0100001N1+00761+00351102531ADDAA124000091GA1011+007509099GA2031+009009069GF108991041031008001021999MA1999999102761MD1210301+9999REMSYN112AAXX  28061 40734 32560 82708 10076 20035 30276 40253 52030 8432/ 90550 333 30007 50091 70000 81925 83630 88459;EQDQ01  00002PRCP24
0223407340999992000022812004+36500+051580FM-12-002099999V0202701N01001036001CN0100001N1+00961+00221102871ADDAA199000091GA1011+007509099GA2031+009009069GF108991041031008001021999MA1999999103101MD1210171+9999REMSYN094AAXX  28121 40734 32560 82710 10096 20022 30310 40287 52017 8432/ 91145 333 81925 83630 88460;EQDQ01  00002PRCP99
0237407340999992000022818004+36500+051580FM-12-002099999V0202501N00501036001CN0100001N1+00701+00331103301ADDAA199000091GA1011+009009099GA2031+009909069GF106991031031008001071001GJ100009MA1999999103531MD1110181+9999REMSYN100AAXX  28181 40734 32560 62505 10070 20033 30353 40330 51018 83370 91750 333 55000 81930 83633 86460;EQDQ01  00002PRCP99
0238407340999992000022900004+36500+051580FM-12-002099999V0202701N00801007501CN0060001N1+00581+00441103401ADDAA106001091AY121061AY221061GA1021+006009099GA2031+007509069GF108991041031004501021999MA1999999103631MD1110061+9999MW1601REMSYN106AAXX  29001 40734 11456 82708 10058 20044 30363 40340 51006 60011 76022 8432/ 92350 333 82920 83625 88556;
0238407340999992000022912004+36500+051580FM-12-002099999V0202701N00501036001CN0080001N1+00581+00401103471ADDAA106000591AY161061AY261061GA1011+006009099GA2031+007509069GF108991031031008001021999MA1999999103701MD1610131+9999MW1611REMSYN106AAXX  29121 40734 11558 82705 10058 20040 30370 40347 56013 69941 76166 8332/ 91150 333 81920 83625 88557;
0228407340999992000030106004+36500+051580FM-12-002099999V0203001N00201036001CN0100001N1+00641+00461103071ADDAA106001091AY161061AY261061GA1021+007509089GF108991021011008001071001MA1999999103301MD1410001+9999MW1011REMSYN112AAXX  01061 40734 11560 83002 10064 20046 30330 40307 54000 69991 70166 82170 90550 333 32003 50031 82825 87359;
0201407340999992000030112004+36500+051580FM-12-002099999V0203201N00301036001CN0120001N1+00821+00511102571ADDAA199000091GA1021+007509069GF106991021041008001071001MA1999999102801MD1710301+9999REMSYN088AAXX  01121 40734 32562 63203 10082 20051 30280 40257 57030 82470 91145 333 82625 86360;EQDQ01  00002PRCP99
0215407340999992000030118004+36500+051580FM-12-002099999V0209999C00001036001CN0100001N1+00721+00581102251ADDAA199000091GA1021+009009069GF107991021041008001071001GJ100849MA1999999102481MD1710161+9999REMSYN094AAXX  01181 40734 32560 70000 10072 20058 30248 40225 57016 82470 91745 333 55014 82630 87459;EQDQ01  00002PRCP99
0238407340999992000030200004+36500+051580FM-12-002099999V0202601N00401036001CN0080001N1+00641+00551101821ADDAA106001091AY121061AY221061GA1011+007509099GA2031+009009069GF108991041031008001021999MA1999999102051MD1710221+9999MW1251REMSYN106AAXX  02001 40734 11558 82604 10064 20055 30205 40182 57022 60011 72522 8432/ 92350 333 81925 83630 88459;
0222407340999992000030206004+36500+051580FM-12-002099999V0209999C00001036001CN0100001N1+00721+00491101701ADDAA124001091GA1011+006009079GA2031+009009069GF108991041071008001021999MA1999999101931MD1010011+9999REMSYN112AAXX  02061 40734 32560 80000 10072 20049 30193 40170 50001 8472/ 90550 333 31006 50101 70010 81720 83630 88458;
0238407340999992000030212004+36500+051580FM-12-002099999V0202701N006010075019N0080001N1+00661+00481101771ADDAA106000191AY161061AY221061GA1041+006009079GA2011+007509099GF108991051031008001021999MA1999999102001MD1310101+9999MW1211REMSYN106AAXX  02121 40734 11558 82706 10066 20048 30200 40177 53010 69921 72162 8532/ 91450 333 84720 81925 88458;
0252407340999992000030218004+36500+051580FM-12-002099999V0202701N00501036001CN0090001N1+00701+00331102171ADDAA106000191AY161061AY221061GA1011+007509099GA2041+009009069GF108991041031008001021999GJ100009MA1999999102401MD1110101+9999MW1211REMSYN112AAXX  02181 40734 11559 82705 10070 20033 30240 40217 51010 69911 72162 8432/ 91745 333 55000 81925 84630 88458;
0204407340999992000030300004+36500+051580FM-12-002099999V0202501N00401036001CN0100001N1+00681+00361102271ADDAA199000021GA1011+006009089GA2031+009009069GF108991031081008001021999MA1999999102501MD1110011+9999REMSYN094AAXX  03001 40734 32560 82504 10068 20036 30250 40227 51001 8382/ 92350 333 81820 83630 88459;
0194407340999992000030306004+36500+051580FM-12-002099999V0202701N005012200019N0120001N1+00921+00251102631ADDAA124000391GA1011+009009029GF101991011011008001031001MA1999999102861MD1210161+9999REMSYN100AAXX  03061 40734 32562 12705 10092 20025 30286 40263 52016 81130 90550 333 31005 50031 70003 81830;
0189407340999992000030318004+36500+051580FM-12-002099999V0201501N002012200019N0150001N1+00561+00381102631ADDAA199000091GA1001+999999999GF100991001001999999001001MA1999999102861MD1810041+9999REMSYN076AAXX  03181 40734 32965 01502 10056 20038 30286 40263 58004 91750 333 55100;EQDQ01  00002PRCP99
0201407340999992000030406004+36500+051580FM-12-002099999V0200901N006012200019N0200001N1+01001-00261102141ADDAA124000091GA1001+999999999GF100991001001999999001001MA1999999102371MD1710061+9999REMSYN088AAXX  04061 40734 32970 00906 10100 21026 30237 40214 57006 90550 333 31102 50441 70000;EQDQ01  00002PRCP24
0211407340999992000030500004+36500+051580FM-12-002099999V0202401N003010570019N0100001N1+00701+00521101761ADDAA199000091GA1061+057009089GF106991999001999999001061MA1999999101991MD1310061+9999REMSYN082AAXX  05001 40734 32960 62403 10070 20052 30199 40176 53006 80006 92350 333 86269;EQDQ01+000002SCOTLCQ02  00002PRCP99
0219407340999992000030506004+36500+051580FM-12-002099999V0202901N00501090001CN0100001N1+01001+00711102161ADDAA124000091GA1021+030009039GF105991011011008001031081MA1999999102391MD1110171+9999REMSYN106AAXX  05061 40734 32560 52905 10100 20071 30239 40216 51017 81138 90550 333 30003 50181 70000 82360 85270;EQDQ01  00002PRCP24
0201407340999992000030512004+36500+051580FM-12-002099999V0203401N002012200019N0120001N1+01101+00721102131ADDAA199000091GA1021+006009089GF103991021011008001001011MA1999999102361MD1610031+9999REMSYN088AAXX  05121 40734 32562 33402 10110 20072 30236 40213 56003 82101 91150 333 82820 83070;EQDQ01  00002PRCP99
0189407340999992000030518004+36500+051580FM-12-002099999V0201201N002012200019N0120001N1+00721+00401102101ADDAA199000091GA1001+999999999GF100991001001999999001001MA1999999102331MD1810031+9999REMSYN076AAXX  05181 40734 32962 01202 10072 20040 30233 40210 58003 91750 333 55075;EQDQ01  00002PRCP99
0183407340999992000030600004+36500+051580FM-12-002099999V0201501N002012200019N0100001N1+00321+00051101701ADDAA199000091GA1001+999999999GF100991001001999999001001MA1999999102931MD1810241+9999REMSYN070AAXX  06001 40734 32960 01502 10032 20005 30293 40170 58024 92350 333;EQDQ01  00002PRCP99
0201407340999992000030606004+36500+051580FM-12-002099999V0200901N003012200019N0150001N1+01181+00501101611ADDAA124000091GA1001+999999999GF100991001001999999001001MA1999999101841MD1710061+9999REMSYN088AAXX  06061 40734 32965 00903 10118 20050 30184 40161 57006 90550 333 30002 50441 70000;EQDQ01  00002PRCP24
0205407340999992000030612004+36500+051580FM-12-002099999V0200901N008012200019N0150001N1+01421+00431101171ADDAA199000091GA1021+060009019GF102991999011999999051999MA1999999101401MD1710201+9999REMSYN076AAXX  06121 40734 32965 20908 10142 20043 30140 40117 57020 8/150 333 82070;EQDQ01+000002SCOHCGQ02  00002PRCP99
0209407340999992000030618004+36500+051580FM-12-002099999V0200901N002012200019N0150001N1+00941+00681100961ADDAA199000091GA1041+057009019GF104991001001999999001021GJ106009MA1999999101191MD1710111+9999REMSYN088AAXX  06181 40734 32965 40902 10094 20068 30119 40096 57011 80002 91745 333 55100 84069;EQDQ01  00002PRCP99
0183407340999992000030700004+36500+051580FM-12-002099999V0202301N003012200019N0120001N1+00681+00501100771ADDAA199000091GA1001+999999999GF100991001001999999001001MA1999999101001MD1510001+9999REMSYN070AAXX  07001 40734 32962 02303 10068 20050 30100 40077 55000 92350 333;EQDQ01  00002PRCP99
0213407340999992000030706004+36500+051580FM-12-002099999V0209999C000012200019N0150001N1+01661+00801101171ADDAA124000091GA1011+060009019GF101991001001999999001011MA1999999101401MD1210201+9999REMSYN100AAXX  07061 40734 32965 10000 10166 20080 30140 40117 52020 80001 90550 333 30004 50271 70000 81070;EQDQ01  00002PRCP24
0201407340999992000030712004+36500+051580FM-12-002099999V0203101N00501036001CN0100001N1+01201+01011101421ADDAA199000091GA1031+004509079GF106991031071004501021001MA1999999101651MD1110181+9999REMSYN088AAXX  07121 40734 32460 63105 10120 20101 30165 40142 51018 83720 91150 333 83715 86460;EQDQ01  00002PRCP99
0237407340999992000030718004+36500+051580FM-12-002099999V0202901N00201036001CN0100001N1+01081+00971101691ADDAA199000091GA1011+004509079GA2031+009009069GF108991041071004501021999GJ104509MA1999999101921MD1210141+9999REMSYN100AAXX  07181 40734 32460 82902 10108 20097 30192 40169 52014 8472/ 91745 333 55075 81715 83630 88459;EQDQ01  00002PRCP99
0201407340999992000030800004+36500+051580FM-12-002099999V0202601N00301036001CN0100001N1+01001+00881101771ADDAA199000091GA1031+009009069GF108991031051008001021999MA1999999102001MD1110061+9999REMSYN088AAXX  08001 40734 32560 82603 10100 20088 30200 40177 51006 8352/ 92350 333 83630 88459;EQDQ01  00002PRCP99
0234407340999992000030806004+36500+051580FM-12-002099999V0200901N005010024019N0020001N1+00941+00911101941ADDAA106000191AY151061AY221061GA1051+002409079GF108991051071002501021999MA1999999102171MD1010101+9999MW1511REMSYN118AAXX  08061 40734 11320 80905 10094 20091 30217 40194 50010 69911 75152 8572/ 90545 333 31009 50101 70001 85708 88458;
0216407340999992000030812004+36500+051580FM-12-002099999V0200801N004010024019N0070001N1+01001+00831101601ADDAA106000191AY151061AY221061GA1051+002409079GF108991051061002501021999MA1999999101531MD1810221+9999MW1101REMSYN100AAXX  08121 40734 11357 80804 10100 20083 30153 40160 58022 69921 71052 8562/ 91150 333 85708 88457;
0230407340999992000030818004+36500+051580FM-12-002099999V0209999C000010021019N0050001N1+00901+00821101641ADDAA106002091AY151061AY221061GA1061+002109079GF108991061061002501021999GJ100009MA1999999101871MD1310071+9999MW1511REMSYN106AAXX  08181 40734 11350 80000 10090 20082 30187 40164 53007 60021 75152 8662/ 91750 333 55000 86707 88457;
0216407340999992000030900004+36500+051580FM-12-002099999V0202701N00501036001CN0070001N1+00621+00531101571ADDAA106005191AY151061AY221061GA1041+003009079GF108991041071004501021999MA1999999101701MD1810101+9999MW1101REMSYN100AAXX  09001 40734 11457 82705 10062 20053 30170 40157 58010 60051 71052 8472/ 92350 333 84710 88457;
0275407340999992000030906004+36500+051580FM-12-002099999V0202701N010010060019N0040001N1+00381+00231102131ADDAA106016091AY161061AY261061GA1041+003009079GA2021+006009099GF108991051031004501021999MA1999999102361MD1210502+9999MW1631REMSYN124AAXX  09061 40734 11440 82710 10038 20023 30236 40213 52050 60161 76366 8532/ 90550 333 32005 50561 70232 84710 82920 88550;EQDQ01+000502APC3  
0210407340999992000030912004+36500+051580FM-12-002099999V0203001N005012200019N0100001N1+00901+00401102071ADDAA106006191AY161061AY261061GA1011+007509029GF103991011011008001001011MA1999999102301MD1610101+9999MW1011REMSYN094AAXX  09121 40734 11560 33005 10090 20040 30230 40207 56010 60061 70166 81101 91150 333 81825;
0170407340999992000030918004+36500+051580FM-12-002099999V0201501N003012200019N0150001N1+00541+00401101861ADDAA199000021GA1001+999999999GF100991001001999999001001MA1999999102091MD1710211+9999REMSYN076AAXX  09181 40734 32965 01503 10054 20040 30209 40186 57021 91750 333 55045;
0183407340999992000031000004+36500+051580FM-12-002099999V0209999C000012200019N0150001N1+00261+00161101421ADDAA199000091GA1001+999999999GF100991001001999999001001MA1999999101651MD1710151+9999REMSYN070AAXX  10001 40734 32965 00000 10026 20016 30165 40142 57015 92350 333;EQDQ01  00002PRCP99
0182407340999992000031006004+36500+051580FM-12-002099999V0209999C000012200019N0100001N1+01241+00651101371ADDAA124005691GA1001+999999999GF100991001001999999001001MA1999999101601MD1410001+9999REMSYN088AAXX  10061 40734 32960 00000 10124 20065 30160 40137 54000 90545 333 31102 50131 70057;
0183407340999992000031012004+36500+051580FM-12-002099999V0200901N003012200019N0100001N1+01421+00721100971ADDAA199000091GA1001+999999999GF100991001001999999001001MA1999999101201MD1710201+9999REMSYN070AAXX  10121 40734 32960 00903 10142 20072 30120 40097 57020 91150 333;EQDQ01  00002PRCP99
0189407340999992000031018004+36500+051580FM-12-002099999V0209999C000012200019N0100001N1+00841+00621100811ADDAA199000091GA1001+999999999GF100991001001999999001001MA1999999101041MD1510041+9999REMSYN076AAXX  10181 40734 32960 00000 10084 20062 30104 40081 55004 91745 333 55100;EQDQ01  00002PRCP99
0183407340999992000031100004+36500+051580FM-12-002099999V0202401N003012200019N0100001N1+00821+00451100971ADDAA199000091GA1001+999999999GF100991001001999999001001MA1999999101201MD1310201+9999REMSYN070AAXX  11001 40734 32960 02403 10082 20045 30120 40097 53020 92350 333;EQDQ01  00002PRCP99
0201407340999992000031106004+36500+051580FM-12-002099999V0200601N002012200019N0120001N1+01701+00501101171ADDAA124000091GA1001+999999999GF100991001001999999001001MA1999999101401MD1410001+9999REMSYN088AAXX  11061 40734 32962 00602 10170 20050 30140 40117 54000 90550 333 31001 50311 70000;EQDQ01  00002PRCP24
0183407340999992000031112004+36500+051580FM-12-002099999V0200601N004012200019N0200001N1+01701+00431100771ADDAA199000091GA1001+999999999GF100991001001999999001001MA1999999101001MD1610201+9999REMSYN070AAXX  11121 40734 32970 00604 10170 20043 30100 40077 56020 91150 333;EQDQ01  00002PRCP99
0209407340999992000031118004+36500+051580FM-12-002099999V0201201N002012200019N0150001N1+00981+00771100831ADDAA199000091GA1031+030009079GF103991031001999999031001GJ106189MA1999999101061MD1110031+9999REMSYN088AAXX  11181 40734 32965 31202 10098 20077 30106 40083 51003 83030 91750 333 55103 83360;EQDQ01  00002PRCP99
0251407340999992000031200004+36500+051580FM-12-002099999V0202701N004010021019N0040001N1+00921+00891101972ADDAA106003091AY151061AY221061GA1061+002109079GF108991061061002501021999MA1999999102202MD1210441+9999MW1511REMSYN100AAXX  12001 40734 11340 82704 10092 20089 30220 40197 52044 60031 75152 8662/ 92350 333 86707 88456;EQDQ01+102203APOSP Q02+101973APOSLP
0238407340999992000031212004+36500+051580FM-12-002099999V0203301N00301036001CN0090001N1+00901+00731102201ADDAA106001091AY161061AY261061GA1011+006009099GA2021+007509069GF108991021031008001021999MA1999999102431MD1710171+9999MW1211REMSYN106AAXX  12121 40734 11559 83303 10090 20073 30243 40220 57017 60011 72166 8232/ 91150 333 81920 82625 88459;
0252407340999992000031218004+36500+051580FM-12-002099999V0209999C000010030019N0070001N1+00821+00791102051ADDAA106001091AY151061AY221061GA1051+003009079GA2011+006009099GF108991051031004501021999GJ100009MA1999999102281MD1710051+9999MW1201REMSYN112AAXX  12181 40734 11457 80000 10082 20079 30228 40205 57005 60011 72052 8532/ 91750 333 55000 85710 81920 88458;
0204407340999992000031300004+36500+051580FM-12-002099999V0201101N00401036001CN0100001N1+00821+00541101671ADDAA199000021GA1011+006009099GA2021+007509069GF108991021031008001021999MA1999999101901MD1710201+9999REMSYN094AAXX  13001 40734 32560 81104 10082 20054 30190 40167 57020 8232/ 92350 333 81920 82625 88458;
0200407340999992000031306004+36500+051580FM-12-002099999V0200601N004012200019N0100001N1+01021+00731101401ADDAA124002091GA1011+007509099GF103991011031008001031001MA1999999101631MD1810071+9999REMSYN106AAXX  13061 40734 32560 30604 10102 20073 30163 40140 58007 81330 90550 333 31007 50201 70020 81925 83360;
0223407340999992000031312004+36500+051580FM-12-002099999V0200601N00301036001CN0100001N1+01041+00751101321ADDAA199000091GA1011+007509099GA2021+009009069GF107991021031008001071001MA1999999101551MD1610081+9999REMSYN094AAXX  13121 40734 32560 70603 10104 20075 30155 40132 56008 82370 91145 333 81925 82630 87359;EQDQ01  00002PRCP99
0229407340999992000031318004+36500+051580FM-12-002099999V0209999C00001036001CN0100001N1+00961+00791101451ADDAA199000091GA1011+007509099GA2021+009009069GF107991021031008001071001MA1999999101681MD1210101+9999REMSYN100AAXX  13181 40734 32560 70000 10096 20079 30168 40145 52010 82370 91745 333 50025 81925 82630 87359;EQDQ01  00002PRCP99
0223407340999992000031400004+36500+051580FM-12-002099999V0202201N00301036001CN0100001N1+00901+00731101671ADDAA199000091GA1011+007509099GA2031+009009069GF108991021031008001021999MA1999999101901MD1310061+9999REMSYN094AAXX  14001 40734 32560 82203 10090 20073 30190 40167 53006 8232/ 92345 333 81925 83630 88458;EQDQ01  00002PRCP99
0219407340999992000031406004+36500+051580FM-12-002099999V0202701N00601036001CN0100001N1+00981+00241101891ADDAA124000091GA1021+009009069GF108991021041008001021999MA1999999102121MD1210181+9999REMSYN106AAXX  14061 40734 32560 82706 10098 20024 30212 40189 52018 8242/ 90545 333 31007 50091 70000 82630 88458;EQDQ01  00002PRCP24
0201407340999992000031412004+36500+051580FM-12-002099999V0202901N00701036001CN0100001N1+00881+00571101901ADDAA199000091GA1021+007509099GF108991021031008001021999MA1999999102131MD1610071+9999REMSYN088AAXX  14121 40734 32560 82907 10088 20057 30213 40190 56007 8232/ 91150 333 82925 88458;EQDQ01  00002PRCP99
0252407340999992000031418004+36500+051580FM-12-002099999V0202501N00801006001CN0060001N1+00401+00301102501ADDAA106007991AY181061AY261061GA1031+004509079GA2021+006009099GF108991041031008001021999GJ100009MA1999999102731MD1210401+9999MW1611REMSYN112AAXX  14181 40734 11556 82508 10040 20030 30273 40250 52040 60081 76186 8432/ 91745 333 55000 83715 82920 88557;
0257407340999992000031500004+36500+051580FM-12-002099999V0201401N99999036001CN0060001N1+00341+00241102571ADDAA106005191AY161061AY261061GA1021+004509079GA2011+006009099GF108991021031004501021999MA1999999102801MD1410001+9999MW1611REMSYN106AAXX  15001 40734 11456 86404 10034 20024 30280 40257 54000 60051 76166 8232/ 92350 333 82715 81920 88557;EQDQ01+010401WOSPD 
0256407340999992000031506004+36500+051580FM-12-002099999V0202601N00401036001CN0060001N1+00401+00251102901ADDAA106005191AY161061AY261061GA1031+004509079GA2011+006009099GF108991031031004501021999MA1999999103131MD1210201+9999MW1611REMSYN124AAXX  15061 40734 11456 82604 10040 20025 30313 40290 52020 60051 76166 8332/ 90550 333 32003 50171 70175 83715 81920 88557;
0238407340999992000031512004+36500+051580FM-12-002099999V0201801N004010036019N0060001N1+00381+00061103151ADDAA106005191AY161061AY261061GA1051+003609079GA2011+006009099GF108991051031004501021999MA1999999103381MD1210171+9999MW1611REMSYN106AAXX  15121 40734 11456 81804 10038 20006 30338 40315 52017 60051 76166 8532/ 91150 333 85712 81920 88556;
0204407340999992000031518004+36500+051580FM-12-002099999V0201701N003012200019N0120001N1+00201+00101102871ADDAA106000791AY161061AY261061GA1001+999999999GF100991001001999999001001MA1999999103101MD1710131+9999MW1011REMSYN088AAXX  15181 40734 11962 01703 10020 20010 30310 40287 57013 69901 70166 91745 333 55000;
0164407340999992000031600004+36500+051580FM-12-002099999V0209999C000012200019N0120001N1+00101-00061102421ADDAA199000021GA1001+999999999GF100991001001999999001001MA1999999102651MD1710241+9999REMSYN070AAXX  16001 40734 32962 00000 10010 21006 30265 40242 57024 92345 333;
0172407340999992000031606004+36500+051580FM-12-002099999V0200701N004012200019N0150001N1+00681-00111102431ADDAA124005191GF101991011011008001001001MA1999999102661MD1310061+9999REMSYN094AAXX  16061 40734 32565 10704 10068 21011 30266 40243 53006 81100 90545 333 31104 5///1 70052;
0189407340999992000031618004+36500+051580FM-12-002099999V0201501N003012200019N0120001N1+00461+00371102171ADDAA199000091GA1001+999999999GF100991001001999999001001MA1999999102401MD1410001+9999REMSYN076AAXX  16181 40734 32962 01503 10046 20037 30240 40217 54000 91750 333 55107;EQDQ01  00002PRCP99
0201407340999992000031706004+36500+051580FM-12-002099999V0200701N003012200019N0120001N1+00921+00421101891ADDAA124000091GA1001+999999999GF100991001001999999001001MA1999999102051MD1010001+9999REMSYN088AAXX  17061 40734 32962 00703 10092 20042 30205 40189 50000 90550 333 31102 50181 70000;EQDQ01  00002PRCP24
0183407340999992000031712004+36500+051580FM-12-002099999V0200901N005012200019N0150001N1+01141+00471101541ADDAA199000091GA1001+999999999GF100991001001999999001001MA1999999101771MD1810161+9999REMSYN070AAXX  17121 40734 32965 00905 10114 20047 30177 40154 58016 91150 333;EQDQ01  00002PRCP99
0183407340999992000031800004+36500+051580FM-12-002099999V0209999C000012200019N0150001N1+00601+00511101271ADDAA199000091GA1001+999999999GF100991001001999999001001MA1999999101501MD1810131+9999REMSYN070AAXX  18001 40734 32965 00000 10060 20051 30150 40127 58013 92350 333;EQDQ01  00002PRCP99
0211407340999992000031812004+36500+051580FM-12-002099999V0200601N004012200019N0150001N1+01201+00941100871ADDAA199000091GA1041+057009089GF104991999001999999001061MA1999999101101MD1710201+9999REMSYN082AAXX  18121 40734 32965 40604 10120 20094 30110 40087 57020 80006 91150 333 84269;EQDQ01+000002SCOTLCQ02  00002PRCP99
0225407340999992000031818004+36500+051580FM-12-002099999V0209999C000010510019N0100001N1+01101+00941100801ADDAA199000091GA1081+051009089GF108991999001999999001071GJ105409MA1999999101031MD1810071+9999REMSYN088AAXX  18181 40734 32960 80000 10110 20094 30103 40080 58007 80007 91750 333 55090 88267;EQDQ01+000002SCOTLCQ02  00002PRCP99
0223407340999992000031900004+36500+051580FM-12-002099999V0203001N00801036001CN0100001N1+01141+00861100771ADDAA199000091GA1011+007509099GA2021+009009069GF108991021031008001021999MA1999999101001MD1310201+9999REMSYN094AAXX  19001 40734 32560 83008 10114 20086 30100 40077 53020 8232/ 92350 333 81925 82630 88459;EQDQ01  00002PRCP99
0183407340999992000031912004+36500+051580FM-12-002099999V0203401N004012200019N0100001N1+01741+00831101171ADDAA199000091GA1001+999999999GF100991001001999999001001MA1999999101401MD1210171+9999REMSYN070AAXX  19121 40734 32960 03404 10174 20083 30140 40117 52017 91145 333;EQDQ01  00002PRCP99
0213407340999992000032006004+36500+051580FM-12-002099999V0202901N006012200019N0100001N1+01201+00751102021ADDAA124000091GA1011+009009059GF101991011041008001001001MA1999999102251MD1110021+9999REMSYN100AAXX  20061 40734 32560 12906 10120 20075 30225 40202 51002 81400 90550 333 30009 50351 70000 81630;EQDQ01  00002PRCP24
0189407340999992000032018004+36500+051580FM-12-002099999V0200801N005012200019N0100001N1+01001+00881101661ADDAA199000091GA1001+999999999GF100991001001999999001001MA1999999101891MD1410001+9999REMSYN076AAXX  20181 40734 32960 00805 10100 20088 30189 40166 54000 91745 333 55093;EQDQ01  00002PRCP99
0223407340999992000032100004+36500+051580FM-12-002099999V0202601N00401036001CN0100001N1+01001+00881101671ADDAA199000091GA1011+007509099GA2021+009009069GF108991021031008001021999MA1999999101901MD1110111+9999REMSYN094AAXX  21001 40734 32560 82604 10100 20088 30190 40167 51011 8232/ 92350 333 81925 82630 88458;EQDQ01  00002PRCP99
0269407340999992000032106004+36500+051580FM-12-002099999V0203101N00401036001CN0040001N1+01081+00811101881ADDAA124000091AY121061AY221061GA1031+006009079GA2011+007509099GF108991031031008001021999MA1999999102211MD1210061+9999MW1101REMSYN118AAXX  21061 40734 31540 83104 10108 20081 30221 40188 52006 71022 8332/ 90545 333 30007 50271 70000 83720 81925 88458;EQDQ01  00002PRCP24
0229407340999992000032112004+36500+051580FM-12-002099999V0203601N00301036001CN0050001N1+01101+00941101771ADDAA199000091AY121061AY221061GA1021+004509079GF108991021071004501021999MA1999999102001MD1710201+9999MW1101REMSYN094AAXX  21121 40734 31450 83603 10110 20094 30200 40177 57020 71022 8272/ 91145 333 82715 88458;EQDQ01  00002PRCP99
0243407340999992000032118004+36500+051580FM-12-002099999V0200601N00201036001CN0040001N1+01001+00881101571ADDAA199000091AY121061AY221061GA1031+004509079GF108991031061004501021999GJ100009MA1999999101801MD1610101+9999MW1101REMSYN100AAXX  21181 40734 31440 80602 10100 20088 30180 40157 56010 71022 8362/ 91745 333 55000 83715 88457;EQDQ01  00002PRCP99
0178407340999992000032312004+36500+051580FM-12-002099999V0203501N002010042019N0060001N1+00961+00841101501ADDAA106000591AY151061AY221061GF108991051031004501021999MA1999999101731MD1810171+9999MW1501REMSYN078AAXX  23121 40734 11456 83502 10096 20084 30173 40150 58017 69941 75052 8532/;
0201407340999992000032812004+36500+051580FM-12-002099999V0200401N00401036001CN0100001N1+01241+00891102341ADDAA199000091GA1021+009009069GF105991021041008001031001MA1999999102571MD1710161+9999REMSYN088AAXX  28121 40734 32560 50404 10124 20089 30257 40234 57016 82430 91150 333 82630 84360;EQDQ01  00002PRCP99
0215407340999992000032818004+36500+051580FM-12-002099999V0209999C00001036001CN0100001N1+01101+00821102211ADDAA199000091GA1021+009009069GF105991021041008001071001GJ102709MA1999999102441MD1710061+9999REMSYN094AAXX  28181 40734 32560 50000 10110 20082 30244 40221 57006 82470 91750 333 55045 82630 85359;EQDQ01  00002PRCP99
0183407340999992000032900004+36500+051580FM-12-002099999V0209999C000012200019N0100001N1+00681+00651101951ADDAA199000091GA1001+999999999GF100991001001999999001001MA1999999102181MD1710121+9999REMSYN070AAXX  29001 40734 32960 00000 10068 20065 30218 40195 57012 92350 333;EQDQ01  00002PRCP99
0201407340999992000032906004+36500+051580FM-12-002099999V0203601N003012200019N0120001N1+01201+00911102001ADDAA124000091GA1001+999999999GF100991001001999999001001MA1999999102231MD1310031+9999REMSYN088AAXX  29061 40734 32962 03603 10120 20091 30223 40200 53003 90550 333 31005 50271 70000;EQDQ01  00002PRCP24
0189407340999992000032918004+36500+051580FM-12-002099999V0209999C000012200019N0100001N1+00981+00901101801ADDAA199000091GA1001+999999999GF100991001001999999001001MA1999999102031MD1110031+9999REMSYN076AAXX  29181 40734 32960 00000 10098 20090 30203 40180 51003 91750 333 55103;EQDQ01  00002PRCP99
0195407340999992000033000004+36500+051580FM-12-002099999V0209999C000012200019N0100001N1+00641+00581101631ADDAA199000091GA1031+030009079GF103991031001999999031001MA1999999101861MD1810071+9999REMSYN082AAXX  30001 40734 32960 30000 10064 20058 30186 40163 58007 83030 92350 333 83360;EQDQ01  00002PRCP99
0219407340999992000033006004+36500+051580FM-12-002099999V0203301N002012200019N0100001N1+01341+00101101971ADDAA124000091GA1011+007509089GF104991011011008001031021MA1999999102201MD1210271+9999REMSYN106AAXX  30061 40734 32560 43302 10134 20010 30220 40197 52027 81132 90550 333 30006 50221 70000 81825 84070;EQDQ01  00002PRCP24
0195407340999992000040212004+36500+051580FM-12-002099999V0202901N004010600019N0100001N1+01741+01051102071ADDAA199000091GA1051+060009019GF105991001001999999001011MA1999999102301MD1710131+9999REMSYN082AAXX  02121 40734 32960 52904 10174 20105 30230 40207 57013 80001 91150 333 85070;EQDQ01  00002PRCP99
0183407340999992000040300004+36500+051580FM-12-002099999V0209999C000012200019N0100001N1+00961+00881101871ADDAA199000091GA1001+999999999GF100991001001999999001001MA1999999102101MD1710111+9999REMSYN070AAXX  03001 40734 32960 00000 10096 20088 30210 40187 57011 92345 333;EQDQ01  00002PRCP99
0223407340999992000040312004+36500+051580FM-12-002099999V0203301N003012200019N0080001N1+01361+01211101811ADDAA199000091AY101061AY201061GA1041+054009089GF104991011001999999031061MA1999999102041MD1610081+9999MW1101REMSYN088AAXX  03121 40734 31958 43303 10136 20121 30204 40181 56008 71000 81036 91150 333 84268;EQDQ01  00002PRCP99
0253407340999992000040418004+36500+051580FM-12-002099999V0209999C000012200019N0060001N1+01321+01221101801ADDAA199000091AY111061AY211061GA1041+054009089GF104991999001008001001061GJ102709MA1999999102031MD1010001+9999MW1101REMSYN094AAXX  04181 40734 31556 40000 10132 20122 30203 40180 50000 71011 80006 91750 333 55045 84268;EQDQ01+000002SCOTLCQ02  00002PRCP99
0183407340999992000040500004+36500+051580FM-12-002099999V0209999C000012200019N0100001N1+01101+01071101551ADDAA199000091GA1001+999999999GF100991001001999999001001MA1999999101781MD1810121+9999REMSYN070AAXX  05001 40734 32960 00000 10110 20107 30178 40155 58012 92350 333;EQDQ01  00002PRCP99
0213407340999992000040506004+36500+051580FM-12-002099999V0200401N003010600019N0100001N1+01761+01331101571ADDAA124000091GA1061+060009019GF106991001001999999001011MA1999999101801MD1010001+9999REMSYN100AAXX  05061 40734 32960 60403 10176 20133 30180 40157 50000 80001 90545 333 30007 50181 70000 86070;EQDQ01  00002PRCP24
0201407340999992000040512004+36500+051580FM-12-002099999V0200801N005012200019N0100001N1+02001+01041101371ADDAA199000091GA1011+007509089GF103991011021008001001011MA1999999101601MD1710131+9999REMSYN088AAXX  05121 40734 32560 30805 10200 20104 30160 40137 57013 81201 91150 333 81825 83070;EQDQ01  00002PRCP99
0189407340999992000040518004+36500+051580FM-12-002099999V0201001N003012200019N0100001N1+01481+01191101271ADDAA199000091GA1001+999999999GF100991001001999999001001MA1999999101501MD1710071+9999REMSYN076AAXX  05181 40734 32960 01003 10148 20119 30150 40127 57007 91750 333 55080;EQDQ01  00002PRCP99
0195407340999992000040600004+36500+051580FM-12-002099999V0209999C000012200019N0100001N1+01241+01081101071ADDAA199000091GA1021+060009019GF102991001001999999001011MA1999999101301MD1710121+9999REMSYN082AAXX  06001 40734 32960 20000 10124 20108 30130 40107 57012 80001 92350 333 82070;EQDQ01  00002PRCP99
0213407340999992000040606004+36500+051580FM-12-002099999V0200101N002012200019N0100001N1+01621+01261101141ADDAA124000091GA1011+007509029GF101991011011008001001001MA1999999101371MD1110071+9999REMSYN100AAXX  06061 40734 32560 10102 10162 20126 30137 40114 51007 81100 90545 333 30008 50351 70000 81825;EQDQ01  00002PRCP24
0209407340999992000040618004+36500+051580FM-12-002099999V0209999C000012200019N0100001N1+01701+01541100871ADDAA199000091GA1011+030009079GF101991011001999999031001GJ106129MA1999999101101MD1410001+9999REMSYN088AAXX  06181 40734 32960 10000 10170 20154 30110 40087 54000 81030 91745 333 55102 81360;EQDQ01  00002PRCP99
0191407340999992000040706004+36500+051580FM-12-002099999V0200501N002012200019N0100001N1+02081+01381100841ADDAA124000091GF101991001001999999001011MA1999999101071MD1010011+9999REMSYN094AAXX  07061 40734 32960 10502 10208 20138 30107 40084 50001 80001 90545 333 30001 50351 70000;EQDQ01  00002PRCP24
0195407340999992000040712004+36500+051580FM-12-002099999V0200601N003012200019N0100001N1+02201+01491100471ADDAA199000091GA1041+060009019GF104991001001999999001011MA1999999100701MD1710201+9999REMSYN082AAXX  07121 40734 32960 40603 10220 20149 30070 40047 57020 80001 91145 333 84070;EQDQ01  00002PRCP99
0209407340999992000040718004+36500+051580FM-12-002099999V0209999C000012200019N0100001N1+01961+01461100471ADDAA199000091GA1041+060009019GF104991001001999999001011GJ105709MA1999999100701MD1110041+9999REMSYN088AAXX  07181 40734 32960 40000 10196 20146 30070 40047 51004 80001 91745 333 55095 84070;EQDQ01  00002PRCP99
0183407340999992000040800004+36500+051580FM-12-002099999V0200901N005012200019N0100001N1+02001+01461100441ADDAA199000091GA1001+999999999GF100991001001999999001001MA1999999100671MD1810031+9999REMSYN070AAXX  08001 40734 32960 00905 10200 20146 30067 40044 58003 92350 333;EQDQ01  00002PRCP99
0259407340999992000040818004+36500+051580FM-12-002099999V0202701N004010300019N0100001N1+01501+01341101171ADDAA199000091GA1011+009009099GA2021+012009069GA3041+030009039GF107991021031008001071061GJ100009MA1999999101401MD1210101+9999REMSYN106AAXX  08181 40734 32560 72704 10150 20134 30140 40117 52010 82376 91750 333 55000 81930 82640 84360 87270;EQDQ01  00002PRCP99
0195407340999992000040900004+36500+051580FM-12-002099999V0209999C000012200019N0100001N1+01261+01201100971ADDAA199000091GA1041+060009019GF104991001001999999001021MA1999999101201MD1710121+9999REMSYN082AAXX  09001 40734 32960 40000 10126 20120 30120 40097 57012 80002 92350 333 84070;EQDQ01  00002PRCP99
0237407340999992000040918004+36500+051580FM-12-002099999V0202701N01101009001CN0100001N1+01521+01231101071ADDAA199000091GA1021+007509099GA2031+009009069GF106991021091008001001061GJ102349MA1999999101301MD1310471+9999REMSYN100AAXX  09181 40734 32560 62711 10152 20123 30130 40107 53047 82906 91745 333 55039 82925 83630 86268;EQDQ01  00002PRCP99
0215407340999992000041000004+36500+051580FM-12-002099999V0201301N004012200019N0100001N1+01501+01251100212ADDAA199000091GA1001+999999999GF100991001001999999001001MA1999999100442MD1810361+9999REMSYN070AAXX  10001 40734 32960 01304 10150 20125 30044 40021 58036 92350 333;EQDQ01+100443APOSP Q02+100213APOSLPQ03  00002PRCP99
0235407340999992000041006004+36500+051580FM-12-002099999V0203001N012012200019N0100001N1+01661+01271100541ADDAA124000091GA1011+009009089GF103991021031008001031021MA1999999100801MD1210512+9999REMSYN106AAXX  10061 40734 32560 33012 10166 20127 30080 40054 52051 82332 90545 333 30013 50181 70000 81830 81935;EQDQ01+000512APC3  Q02  00002PRCP24
0201407340999992000041012004+36500+051580FM-12-002099999V0203301N005012200019N0100001N1+01641+01241100901ADDAA199000091GA1021+006009089GF104991021011004501031001MA1999999101131MD1210181+9999REMSYN088AAXX  10121 40734 32460 43305 10164 20124 30113 40090 52018 82130 91150 333 82820 84360;EQDQ01  00002PRCP99
0189407340999992000041018004+36500+051580FM-12-002099999V0209999C000012200019N0100001N1+01321+01221101301ADDAA199000091GA1001+999999999GF100991001001999999001001MA1999999101541MD1210231+9999REMSYN076AAXX  10181 40734 32960 00000 10132 20122 30154 40130 52023 91750 333 55070;EQDQ01  00002PRCP99
0201407340999992000041100004+36500+051580FM-12-002099999V0202701N00501036001CN0100001N1+01321+01171101471ADDAA199000091GA1021+009009069GF106991021041008001021001MA1999999101701MD1210131+9999REMSYN088AAXX  11001 40734 32560 62705 10132 20117 30170 40147 52013 82420 92350 333 82630 85460;EQDQ01  00002PRCP99
0191407340999992000041106004+36500+051580FM-12-002099999V0203101N004012200019N0100001N1+01541+01221101571ADDAA124000091GF101991011011008001001001MA1999999101801MD1410001+9999REMSYN094AAXX  11061 40734 32560 13104 10154 20122 30180 40157 54000 81100 90550 333 30011 50271 70000;EQDQ01  00002PRCP24
0183407340999992000041112004+36500+051580FM-12-002099999V0200901N004012200019N0100001N1+01581+01221101371ADDAA199000091GA1001+999999999GF100991001001999999001001MA1999999101601MD1710201+9999REMSYN070AAXX  11121 40734 32960 00904 10158 20122 30160 40137 57020 91150 333;EQDQ01  00002PRCP99
0209407340999992000041118004+36500+051580FM-12-002099999V0209999C000010030019N0100001N1+01361+01301101071ADDAA199000091GA1071+003009069GF107991071061012501001001GJ106189MA1999999101301MD1710111+9999REMSYN088AAXX  11181 40734 32660 70000 10136 20130 30130 40107 57011 87600 91745 333 55103 87710;EQDQ01  00002PRCP99
0183407340999992000041200004+36500+051580FM-12-002099999V0202701N003012200019N0100001N1+01241+01081101111ADDAA199000091GA1001+999999999GF100991001001999999001001MA1999999101341MD1610041+9999REMSYN070AAXX  12001 40734 32960 02703 10124 20108 30134 40111 56004 92350 333;EQDQ01  00002PRCP99
0241407340999992000041206004+36500+051580FM-12-002099999V0203301N004012200019N0080001N1+01461+01241101301ADDAA124000091AY121061AY211061GA1021+004509069GF102991021061004501001001MA1999999101531MD1010081+9999MW1101REMSYN106AAXX  12061 40734 31458 23304 10146 20124 30153 40130 50008 71021 82600 90550 333 30010 50531 70000 82715;EQDQ01  00002PRCP24
0183407340999992000041212004+36500+051580FM-12-002099999V0200901N006012200019N0120001N1+01721+01331101021ADDAA199000091GA1001+999999999GF100991001001999999001001MA1999999101251MD1710251+9999REMSYN070AAXX  12121 40734 32962 00906 10172 20133 30125 40102 57025 91145 333;EQDQ01  00002PRCP99
0225407340999992000041218004+36500+051580FM-12-002099999V0202701N005012200019N0100001N1+01521+01421100991ADDAA199000091GA1031+060009089GF103991999001999999001081GJ104569MA1999999101221MD1310101+9999REMSYN088AAXX  12181 40734 32960 32705 10152 20142 30122 40099 53010 80008 91745 333 55076 83270;EQDQ01+000002SCOTLCQ02  00002PRCP99
0183407340999992000041300004+36500+051580FM-12-002099999V0202601N005012200019N0100001N1+01421+01321101341ADDAA199000091GA1001+999999999GF100991001001999999001001MA1999999101571MD1110071+9999REMSYN070AAXX  13001 40734 32960 02605 10142 20132 30157 40134 51007 92350 333;EQDQ01  00002PRCP99
0241407340999992000041306004+36500+051580FM-12-002099999V0203601N003010030019N0040001N1+01461+01301101401ADDAA124000091AY121061AY221061GA1081+003009069GF108991081061002501999999MA1999999101631MD1610021+9999MW1101REMSYN106AAXX  13061 40734 31340 83603 10146 20130 30163 40140 56002 71022 886// 90545 333 30014 50181 70000 88710;EQDQ01  00002PRCP24
0239407340999992000041312004+36500+051580FM-12-002099999V0200601N002010030019N0050001N1+01561+01311101271ADDAA199000091AY121061AY221061GA1081+003009069GF199999081061002501999999MA1999999101501MD1610101+9999MW1101REMSYN088AAXX  13121 40734 31350 70602 10156 20131 30150 40127 56010 71022 886// 91145 333 88710;EQDQ01+000072SCOTCVQ02  00002PRCP99
0265407340999992000041318004+36500+051580FM-12-002099999V0209999C000010300019N0050001N1+01441+01311101401ADDAA199000091AY121061AY221061GA1031+003009079GA2031+030009039GF106991041061002501031061GJ100009MA1999999101631MD1210131+9999MW1101REMSYN106AAXX  13181 40734 31350 60000 10144 20131 30163 40140 52013 71022 84636 91745 333 55000 83710 83360 85270;EQDQ01  00002PRCP99
0223407340999992000041400004+36500+051580FM-12-002099999V0209999C000010021019N0030001N1+01421+01361101241ADDAA199000091AY121061AY221061GA1081+002109069GF108991081061002501999999MA1999999101471MD1610061+9999MW1101REMSYN088AAXX  14001 40734 31330 80000 10142 20136 30147 40124 56006 71022 886// 92345 333 88707;EQDQ01  00002PRCP99
0213407340999992000041406004+36500+051580FM-12-002099999V0202701N004010030019N0100001N1+01541+01381101301ADDAA124000091GA1081+003009069GF108991081061004501999999MA1999999101531MD1210101+9999REMSYN100AAXX  14061 40734 32460 82704 10154 20138 30153 40130 52010 886// 90550 333 30013 50271 70000 88710;EQDQ01  00002PRCP24
0225407340999992000041418004+36500+051580FM-12-002099999V0209999C000010510019N0100001N1+01421+01361100771ADDAA199000091GA1081+051009089GF108991999001999999001071GJ100189MA1999999101001MD1810101+9999REMSYN088AAXX  14181 40734 32960 80000 10142 20136 30100 40077 58010 80007 91750 333 55003 88267;EQDQ01+000002SCOTLCQ02  00002PRCP99
0223407340999992000041500004+36500+051580FM-12-002099999V0209999C000010045019N0020001N1+01421+01391100571ADDAA199000091AY121061AY221061GA1081+004509069GF108991081061004501999999MA1999999100801MD1510201+9999MW1101REMSYN088AAXX  15001 40734 31420 80000 10142 20139 30080 40057 55020 71022 886// 92350 333 88715;EQDQ01  00002PRCP99
0234407340999992000041506004+36500+051580FM-12-002099999V0202701N005010021019N0010001N1+01421+01391101031ADDAA106000791AY121061AY221061GA1061+002109079GF108991061061002501021999MA1999999101261MD1210211+9999MW1201REMSYN118AAXX  15061 40734 11310 82705 10142 20139 30126 40103 52021 69901 72022 8662/ 90550 333 31013 50131 79999 86707 88458;
0182407340999992000041512004+36500+051580FM-12-002099999V0202801N00501090001CN0120001N1+01641+01011101041ADDAA199000021GA1011+009009069GF108991011041008001001071MA1999999101271MD1510021+9999REMSYN088AAXX  15121 40734 32562 82805 10164 20101 30127 40104 55002 81407 91150 333 81630 88267;
0252407340999992000041518004+36500+051580FM-12-002099999V0201201N00201036001CN0100001N1+01521+01231101221ADDAA106000191AY181061AY221061GA1011+007509099GA2021+009009069GF108991031031008001021999GJ100009MA1999999101451MD1010161+9999MW1021REMSYN112AAXX  15181 40734 11560 81202 10152 20123 30145 40122 50016 69921 70282 8332/ 91750 333 55000 81925 82630 88459;
0211407340999992000041600004+36500+051580FM-12-002099999V0209999C000010600019N0100001N1+01201+01041101271ADDAA199000091GA1051+060009089GF105991999001999999001061MA1999999101501MD1110031+9999REMSYN082AAXX  16001 40734 32960 50000 10120 20104 30150 40127 51003 80006 92350 333 85270;EQDQ01+000002SCOTLCQ02  00002PRCP99
0222407340999992000041606004+36500+051580FM-12-002099999V0203301N00301090001CN0100001N1+01761+01141101471ADDAA124000391GA1021+009009089GA2031+030009039GF106991021011008001031061MA1999999101701MD1310071+9999REMSYN112AAXX  16061 40734 32560 63303 10176 20114 30170 40147 53007 82136 90550 333 30009 50181 70002 82830 83360 86270;
0273407340999992000041612004+36500+051580FM-12-002099999V0203101N00601007501CN0070001N1+01561+01271101271ADDAA199000091AY121061AY211061GA1021+006009099GA2031+007509069GA3041+030009039GF107991041031008001031061MA1999999101501MD1610101+9999MW1101REMSYN106AAXX  16121 40734 31557 73106 10156 20127 30150 40127 56010 71021 84336 91150 333 82920 83625 84360 85270;EQDQ01  00002PRCP99
0230407340999992000041618004+36500+051580FM-12-002099999V0202401N00301220001CN0070001N1+01381+01281101441ADDAA106002091AY181061AY221061GA1031+009009069GF105991031051008001001081GJ101809MA1999999101671MD1110201+9999MW1101REMSYN106AAXX  16181 40734 11557 52403 10138 20128 30167 40144 51020 60021 71082 83508 91750 333 55030 83630 85267;
0183407340999992000041700004+36500+051580FM-12-002099999V0202401N002012200019N0100001N1+01221+01061101571ADDAA199000091GA1001+999999999GF100991001001999999001001MA1999999101801MD1110041+9999REMSYN070AAXX  17001 40734 32960 02402 10122 20106 30180 40157 51004 92350 333;EQDQ01  00002PRCP99
0194407340999992000041706004+36500+051580FM-12-002099999V0200801N004012200019N0150001N1+01901+01171101771ADDAA124002391GA1011+060009019GF101991001001999999001011MA1999999102001MD1210071+9999REMSYN100AAXX  17061 40734 32965 10804 10190 20117 30200 40177 52007 80001 90545 333 31008 50311 70022 81070;
0211407340999992000041712004+36500+051580FM-12-002099999V0200301N003010540019N0120001N1+01741+01311101671ADDAA199000091GA1071+054009089GF107991999001999999001061MA1999999101901MD1610031+9999REMSYN082AAXX  17121 40734 32962 70303 10174 20131 30190 40167 56003 80006 91150 333 87268;EQDQ01+000002SCOTLCQ02  00002PRCP99
0225407340999992000041718004+36500+051580FM-12-002099999V0209999C000010510019N0120001N1+01501+01441101571ADDAA199000091GA1071+051009089GF107991999001999999001061GJ104689MA1999999101801MD1610021+9999REMSYN088AAXX  17181 40734 32962 70000 10150 20144 30180 40157 56002 80006 91750 333 55078 87267;EQDQ01+000002SCOTLCQ02  00002PRCP99
0211407340999992000041800004+36500+051580FM-12-002099999V0209999C000010510019N0120001N1+01361+01161101471ADDAA199000091GA1081+051009089GF108991999001999999001071MA1999999101701MD1610041+9999REMSYN082AAXX  18001 40734 32962 80000 10136 20116 30170 40147 56004 80007 92350 333 88267;EQDQ01+000002SCOTLCQ02  00002PRCP99
0213407340999992000041806004+36500+051580FM-12-002099999V0200401N003012200019N0100001N1+01621+01491101471ADDAA124000091GA1031+004509069GF103991031061004501001001MA1999999101701MD1410001+9999REMSYN100AAXX  18061 40734 32460 30403 10162 20149 30170 40147 54000 83600 90550 333 30011 50441 70000 83715;EQDQ01  00002PRCP24
0195407340999992000041812004+36500+051580FM-12-002099999V0200601N004012200019N0100001N1+01741+01351101371ADDAA199000091GA1031+060009019GF103991001001999999001011MA1999999101601MD1810091+9999REMSYN082AAXX  18121 40734 32960 30604 10174 20135 30160 40137 58009 80001 91150 333 83070;EQDQ01  00002PRCP99
0247407340999992000041906004+36500+051580FM-12-002099999V0203101N003010030019N0010001N1+01501+01441101331ADDAA124000091AY141061AY221061GA1051+003009079GF108991051061004501021999MA1999999101561MD1010031+9999MW1101REMSYN112AAXX  19061 40734 31410 83103 10150 20144 30156 40133 50003 71042 8562/ 90550 333 30010 50351 70000 85710 88457;EQDQ01  00002PRCP24
0229407340999992000041912004+36500+051580FM-12-002099999V0200501N004012200019N0100001N1+01881+01411101171ADDAA199000091AY111061AY211061GA1011+009009089GF103991011011008001001011MA1999999101401MD1710161+9999MW1031REMSYN094AAXX  19121 40734 31560 30504 10188 20141 30140 40117 57016 70311 81101 91150 333 81830 83070;EQDQ01  00002PRCP99
0209407340999992000041918004+36500+051580FM-12-002099999V0201301N003012200019N0100001N1+01621+01401100941ADDAA199000091GA1031+060009019GF103991001001999999001021GJ103429MA1999999101171MD1710111+9999REMSYN088AAXX  19181 40734 32960 31303 10162 20140 30117 40094 57011 80002 91745 333 55057 83070;EQDQ01  00002PRCP99
0211407340999992000042000004+36500+051580FM-12-002099999V0209999C000010570019N0100001N1+01501+01401100771ADDAA199000091GA1061+057009089GF106991999001999999001061MA1999999101001MD1510051+9999REMSYN082AAXX  20001 40734 32960 60000 10150 20140 30100 40077 55005 80006 92350 333 86269;EQDQ01+000002SCOTLCQ02  00002PRCP99
0213407340999992000042006004+36500+051580FM-12-002099999V0200301N003010600019N0100001N1+01901+01581100801ADDAA124000091GA1051+060009019GF105991001001999999001021MA1999999101031MD1110071+9999REMSYN100AAXX  20061 40734 32960 50303 10190 20158 30103 40080 51007 80002 90550 333 30012 50351 70000 85070;EQDQ01  00002PRCP24
0215407340999992000042018004+36500+051580FM-12-002099999V0202701N01001036001CN0100001N1+01861+01651100771ADDAA199000091GA1011+012009099GF107991011031012501031001GJ106009MA1999999101001MD1310201+9999REMSYN094AAXX  20181 40734 32660 72710 10186 20165 30100 40077 53020 81330 91750 333 55100 81940 87269;EQDQ01  00002PRCP99
0241407340999992000042106004+36500+051580FM-12-002099999V0202401N003010300019N0100001N1+02321+01851100571ADDAA124000091GA1011+009009099GA2041+030009039GF107991011031008001071061MA1999999100801MD1310101+9999REMSYN112AAXX  21061 40734 32560 72403 10232 20185 30080 40057 53010 81376 90545 333 30016 50351 70000 81930 84360 87268;EQDQ01  00002PRCP24
0230407340999992000042118004+36500+051580FM-12-002099999V0201001N002012200019N0100001N1+01921+01541100611ADDAA106003091AY181061AY221061GA1011+009009089GF103991011011008001031001GJ100909MA1999999100841MD1510061+9999MW1011REMSYN106AAXX  21181 40734 11560 31002 10192 20154 30084 40061 55006 60031 70182 81130 91745 333 55015 81830 83360;
0183407340999992000042200004+36500+051580FM-12-002099999V0209999C000012200019N0100001N1+01601+01381100571ADDAA199000091GA1001+999999999GF100991001001999999001001MA1999999100801MD1310051+9999REMSYN070AAXX  22001 40734 32960 00000 10160 20138 30080 40057 53005 92345 333;EQDQ01  00002PRCP99
0182407340999992000042206004+36500+051580FM-12-002099999V0202801N005012200019N0100001N1+02361+01491100871ADDAA124002891GA1001+999999999GF100991001001999999001001MA1999999101101MD1210151+9999REMSYN088AAXX  22061 40734 32960 02805 10236 20149 30110 40087 52015 90545 333 30013 50461 70028;
0189407340999992000042218004+36500+051580FM-12-002099999V0209999C000012200019N0100001N1+01801+01591100871ADDAA199000091GA1001+999999999GF100991001001999999001001MA1999999101101MD1110081+9999REMSYN076AAXX  22181 40734 32960 00000 10180 20159 30110 40087 51008 91750 333 55105;EQDQ01  00002PRCP99
0183407340999992000042300004+36500+051580FM-12-002099999V0202401N003012200019N0100001N1+01641+01391100871ADDAA199000091GA1001+999999999GF100991001001999999001001MA1999999101101MD1310021+9999REMSYN070AAXX  23001 40734 32960 02403 10164 20139 30110 40087 53002 92345 333;EQDQ01  00002PRCP99
0201407340999992000042306004+36500+051580FM-12-002099999V0200401N003012200019N0100001N1+02121+01621101071ADDAA124000091GA1001+999999999GF100991001001999999001001MA1999999101301MD1210121+9999REMSYN088AAXX  23061 40734 32960 00403 10212 20162 30130 40107 52012 90550 333 30013 50531 70000;EQDQ01  00002PRCP24
0195407340999992000042312004+36500+051580FM-12-002099999V0200601N004012200019N0100001N1+02321+01471101141ADDAA199000091GA1021+006009029GF102991021011008001001001MA1999999101371MD1810091+9999REMSYN082AAXX  23121 40734 32560 20604 10232 20147 30137 40114 58009 82100 91150 333 82820;EQDQ01  00002PRCP99
0189407340999992000042318004+36500+051580FM-12-002099999V0200601N002012200019N0100001N1+01841+01311101141ADDAA199000091GA1001+999999999GF100991001001999999001001MA1999999101271MD1610031+9999REMSYN076AAXX  23181 40734 32960 00602 10184 20131 30127 40114 56003 91745 333 55110;EQDQ01  00002PRCP99
0201407340999992000042406004+36500+051580FM-12-002099999V0202901N007012200019N0100001N1+02161+01531101151ADDAA124000091GA1001+999999999GF100991001001999999001001MA1999999101381MD1110081+9999REMSYN088AAXX  24061 40734 32960 02907 10216 20153 30138 40115 51008 90550 333 30013 50531 70000;EQDQ01  00002PRCP24
0183407340999992000042500004+36500+051580FM-12-002099999V0202301N002012200019N0100001N1+01561+01461101281ADDAA199000091GA1001+999999999GF100991001001999999001001MA1999999101511MD1610041+9999REMSYN070AAXX  25001 40734 32960 02302 10156 20146 30151 40128 56004 92345 333;EQDQ01  00002PRCP99
0191407340999992000042606004+36500+051580FM-12-002099999V0203301N003012200019N0100001N1+01901+01521101571ADDAA124000091GF101991011021008001001001MA1999999101801MD1210101+9999REMSYN094AAXX  26061 40734 32560 13303 10190 20152 30180 40157 52010 81200 90550 333 30011 50441 70000;EQDQ01  00002PRCP24
0201407340999992000042612004+36500+051580FM-12-002099999V0200601N00301036001CN0100001N1+01921+01701101571ADDAA199000091GA1011+006009089GF106991011011008001071001MA1999999101801MD1810041+9999REMSYN088AAXX  26121 40734 32560 60603 10192 20170 30180 40157 58004 81170 91145 333 81820 86360;EQDQ01  00002PRCP99
0189407340999992000042618004+36500+051580FM-12-002099999V0201801N002012200019N0100001N1+01701+01601101671ADDAA199000091GA1001+999999999GF100991001001999999001001MA1999999101901MD1110071+9999REMSYN076AAXX  26181 40734 32960 01802 10170 20160 30190 40167 51007 91745 333 55075;EQDQ01  00002PRCP99
0183407340999992000042700004+36500+051580FM-12-002099999V0209999C000012200019N0100001N1+01381+01321101581ADDAA199000091GA1001+999999999GF100991001001999999001001MA1999999101811MD1710091+9999REMSYN070AAXX  27001 40734 32960 00000 10138 20132 30181 40158 57009 92345 333;EQDQ01  00002PRCP99
0191407340999992000042706004+36500+051580FM-12-002099999V0200601N003012200019N0120001N1+01901+01631101771ADDAA124000091GF101991011011008001001001MA1999999102001MD1310111+9999REMSYN094AAXX  27061 40734 32562 10603 10190 20163 30200 40177 53011 81100 90550 333 30011 50271 70000;EQDQ01  00002PRCP24
0173407340999992000042712004+36500+051580FM-12-002099999V0200801N004012200019N0120001N1+02361+01721101711ADDAA199000091GF101991011011008001001001MA1999999101941MD1810041+9999REMSYN076AAXX  27121 40734 32562 10804 10236 20172 30194 40171 58004 81100 91150 333;EQDQ01  00002PRCP99
0223407340999992000042912004+36500+051580FM-12-002099999V0200401N00201012001CN0100001N1+02001+01851100771ADDAA199000091GA1021+010509099GA2031+012009069GF105991031031012501071001MA1999999101001MD1510101+9999REMSYN094AAXX  29121 40734 32660 50402 10200 20185 30100 40077 55010 83370 91145 333 82935 83640 85360;EQDQ01  00002PRCP99
0215407340999992000042918004+36500+051580FM-12-002099999V0202801N004012200019N0100001N1+01881+01711100701ADDAA199000091GA1011+007509099GF102991021031008001001001GJ104749MA1999999100931MD1310131+9999REMSYN094AAXX  29181 40734 32560 22804 10188 20171 30093 40070 53013 82300 91745 333 55079 81925 82630;EQDQ01  00002PRCP99
0195407340999992000043000004+36500+051580FM-12-002099999V0202401N003012200019N0100001N1+01761+01661100801ADDAA199000091GA1031+030009079GF103991031001999999031001MA1999999101031MD1810031+9999REMSYN082AAXX  30001 40734 32960 32403 10176 20166 30103 40080 58003 83030 92345 333 83360;EQDQ01  00002PRCP99
0201407340999992000043006004+36500+051580FM-12-002099999V0200401N004012200019N0100001N1+02201+01711100881ADDAA124000091GA1001+999999999GF100991001001999999001001MA1999999101101MD1510001+9999REMSYN088AAXX  30061 40734 32960 00404 10220 20171 30110 40088 55000 90550 333 30016 50441 70000;EQDQ01  00002PRCP24
0211407340999992000043012004+36500+051580FM-12-002099999V0200301N003010510019N0100001N1+02201+01781100571ADDAA199000091GA1061+051009089GF106991999001999999001071MA1999999100801MD1810101+9999REMSYN082AAXX  30121 40734 32960 60303 10220 20178 30080 40057 58010 80007 91150 333 86267;EQDQ01+000002SCOTLCQ02  00002PRCP99
0215407340999992000043018004+36500+051580FM-12-002099999V0201501N002012200019N0100001N1+02021+01801100801ADDAA199000091GA1031+009009069GF104991031041008001071001GJ104809MA1999999101031MD1110031+9999REMSYN094AAXX  30181 40734 32560 41502 10202 20180 30103 40080 51003 83470 91750 333 55080 83630 87267;EQDQ01  00002PRCP99
0201407340999992000050100004+36500+051580FM-12-002099999V0202501N003012200019N0100001N1+01901+01771101051ADDAA199000091GA1031+009009069GF104991031041008001031001MA1999999101281MD1110281+9999REMSYN088AAXX  01001 40734 32560 42503 10190 20177 30128 40105 51028 83430 92350 333 83630 84360;EQDQ01  00002PRCP99
0256407340999992000050106004+36500+051580FM-12-002099999V0203001N00201036001CN0080001N1+01781+01711101351ADDAA106002091AY181061AY221061GA1031+006009079GA2011+009009099GF108991041031008001021999MA1999999101581MD1210121+9999MW1251REMSYN124AAXX  01061 40734 11558 83002 10178 20171 30158 40135 52012 60021 72582 8432/ 90250 333 31017 50441 70022 83720 81930 88460;
0204407340999992000050112004+36500+051580FM-12-002099999V0200201N00301036001CN0100001N1+01981+01791101281ADDAA199000021GA1011+007509099GA2011+009009069GF108991021031008001021999MA1999999101511MD1810061+9999REMSYN094AAXX  01121 40734 32560 80203 10198 20179 30151 40128 58006 8232/ 91145 333 81925 81630 88460;
0170407340999992000050118004+36500+051580FM-12-002099999V0201801N002012200019N0100001N1+01701+01601101281ADDAA199000021GA1001+999999999GF100991001001999999001001MA1999999101511MD1010011+9999REMSYN076AAXX  01181 40734 32960 01802 10170 20160 30151 40128 50001 91745 333 55000;
0183407340999992000050200004+36500+051580FM-12-002099999V0209999C000012200019N0100001N1+01481+01421101121ADDAA199000091GA1001+999999999GF100991001001999999001001MA1999999101351MD1610081+9999REMSYN070AAXX  02001 40734 32960 00000 10148 20142 30135 40112 56008 92350 333;EQDQ01  00002PRCP99
0182407340999992000050206004+36500+051580FM-12-002099999V0200701N005012200019N0100001N1+02021+01681101271ADDAA124002391GA1001+999999999GF100991001001999999001001MA1999999101501MD1210061+9999REMSYN088AAXX  02061 40734 32960 00705 10202 20168 30150 40127 52006 90550 333 30012 50221 70022;
0183407340999992000050212004+36500+051580FM-12-002099999V0200901N005012200019N0100001N1+02201+01831101171ADDAA199000091GA1001+999999999GF100991001001999999001001MA1999999101401MD1710101+9999REMSYN070AAXX  02121 40734 32960 00905 10220 20183 30140 40117 57010 91150 333;EQDQ01  00002PRCP99
0189407340999992000050218004+36500+051580FM-12-002099999V0201501N002012200019N0100001N1+01881+01781101111ADDAA199000091GA1001+999999999GF100991001001999999001001MA1999999101341MD1410001+9999REMSYN076AAXX  02181 40734 32960 01502 10188 20178 30134 40111 54000 91745 333 55100;EQDQ01  00002PRCP99
0183407340999992000050300004+36500+051580FM-12-002099999V0202301N002012200019N0100001N1+01601+01501100671ADDAA199000091GA1001+999999999GF100991001001999999001001MA1999999100901MD1610141+9999REMSYN070AAXX  03001 40734 32960 02302 10160 20150 30090 40067 56014 92345 333;EQDQ01  00002PRCP99
0201407340999992000050306004+36500+051580FM-12-002099999V0203101N005012200019N0100001N1+01861+01691100741ADDAA124000091GA1001+999999999GF100991001001999999001001MA1999999100971MD1310041+9999REMSYN088AAXX  03061 40734 32960 03105 10186 20169 30097 40074 53004 90550 333 30012 50531 70000;EQDQ01  00002PRCP24
0195407340999992000050312004+36500+051580FM-12-002099999V0200301N002012200019N0120001N1+02721+02191100771ADDAA199000091GA1011+009009029GF101991011011008001001001MA1999999101001MD1710091+9999REMSYN082AAXX  03121 40734 32562 10302 10272 20219 30100 40077 57009 81100 91150 333 81830;EQDQ01  00002PRCP99
0209407340999992000050318004+36500+051580FM-12-002099999V0202701N002012200019N0100001N1+02141+01821100571ADDAA199000091GA1021+057009019GF102991001001999999001021GJ107029MA1999999100801MD1110021+9999REMSYN088AAXX  03181 40734 32960 22702 10214 20182 30080 40057 51002 80002 91750 333 55117 82069;EQDQ01  00002PRCP99
0289407340999992000050400004+36500+051580FM-12-002099999V0209999C000010045019N0040001N1+01761+01601101672ADDAA106002091AY161061AY211061GA1061+004509079GA2011+006009099GF108991061031004501021999MA1999999101902MD1210502+9999MW1531REMSYN106AAXX  04001 40734 11440 80000 10176 20160 30190 40167 52050 60021 75361 8632/ 92350 333 86715 81920 88457;EQDQ01+101903APOSP Q02+101673APOSLPQ03+000502APC3  
0234407340999992000050406004+36500+051580FM-12-002099999V0202701N005010024019N0015001N1+01541+01511102081ADDAA106006191AY161061AY251061GA1061+002409079GF108991061061002501021999MA1999999102311MD1210301+9999MW1511REMSYN118AAXX  04061 40734 11315 82705 10154 20151 30231 40208 52030 60061 75165 8662/ 90545 333 32017 50181 70080 86708 88456;
0191407340999992000050606004+36500+051580FM-12-002099999V0200901N005012200019N0120001N1+01921+01461101421ADDAA124000091GF101991011001999999031001MA1999999101651MD1710131+9999REMSYN094AAXX  06061 40734 32962 10905 10192 20146 30165 40142 57013 81030 90550 333 31010 50221 70000;EQDQ01  00002PRCP24
0195407340999992000050612004+36500+051580FM-12-002099999V0200901N005012200019N0120001N1+01941+01601101081ADDAA199000091GA1031+054009019GF103991011011008001001021MA1999999101311MD1810181+9999REMSYN082AAXX  06121 40734 32562 30905 10194 20160 30131 40108 58018 81102 91150 333 83068;EQDQ01  00002PRCP99
0237407340999992000050618004+36500+051580FM-12-002099999V0209999C00001007501CN0100001N1+01861+01691101401ADDAA199000091GA1021+006009099GA2031+007509069GF108991031031008001021999GJ106129MA1999999101631MD1210331+9999REMSYN100AAXX  06181 40734 32560 80000 10186 20169 30163 40140 52033 8332/ 91750 333 55102 82920 83625 88459;EQDQ01  00002PRCP99
0223407340999992000050700004+36500+051580FM-12-002099999V0209999C00001036001CN0100001N1+01821+01721100871ADDAA199000091GA1011+006009099GA2021+007509069GF108991021031008001021999MA1999999101101MD1610181+9999REMSYN094AAXX  07001 40734 32560 80000 10182 20172 30110 40087 56018 8232/ 92350 333 81920 82625 88459;EQDQ01  00002PRCP99
0223407340999992000050712004+36500+051580FM-12-002099999V0203101N00301007501CN0100001N1+01981+01831101371ADDAA199000091GA1021+006009099GA2031+007509069GF108991041031004501021999MA1999999101601MD1110031+9999REMSYN094AAXX  07121 40734 32460 83103 10198 20183 30160 40137 51003 8432/ 91145 333 82920 83625 88457;EQDQ01  00002PRCP99
0238407340999992000050800004+36500+051580FM-12-002099999V0203101N002010021019N0020001N1+01721+01691101411ADDAA106002091AY151061AY221061GA1061+002109079GA2011+007509099GF108991061031001501021999MA1999999101641MD1510001+9999MW1511REMSYN106AAXX  08001 40734 11220 83102 10172 20169 30164 40141 55000 60021 75152 8632/ 92350 333 86707 81925 88457;
0234407340999992000050806004+36500+051580FM-12-002099999V0200201N00201036001CN0100001N1+01801+01701101311ADDAA106000391AY151061AY221061GA1031+005409079GF108991031071004501021999MA1999999101541MD1810061+9999MW1021REMSYN118AAXX  08061 40734 11460 80202 10180 20170 30154 40131 58006 69931 70252 8372/ 90545 333 31017 50151 70024 83718 88459;
0182407340999992000050812004+36500+051580FM-12-002099999V0200501N00601090001CN0100001N1+02001+01741100871ADDAA199000021GA1011+006009089GF106991021081008001001021MA1999999101101MD1710391+9999REMSYN088AAXX  08121 40734 32560 60506 10200 20174 30110 40087 57039 82802 91150 333 81820 86267;
0215407340999992000050818004+36500+051580FM-12-002099999V0209999C00001036001CN0100001N1+01861+01791100771ADDAA199000091GA1031+004509079GF108991031061004501021999GJ101809MA1999999101001MD1610011+9999REMSYN094AAXX  08181 40734 32460 80000 10186 20179 30100 40077 56001 8362/ 91745 333 55030 83715 88459;EQDQ01  00002PRCP99
0238407340999992000050900004+36500+051580FM-12-002099999V0202701N003010045019N0050001N1+01781+01751100981ADDAA106001091AY161061AY221061GA1051+004509079GA2011+006009099GF108991051031004501021999MA1999999101211MD1210111+9999MW1611REMSYN106AAXX  09001 40734 11450 82703 10178 20175 30121 40098 52011 60011 76162 8532/ 92345 333 85715 81920 88556;
0256407340999992000050906004+36500+051580FM-12-002099999V0202701N013010024019N0030001N1+01481+01421101571ADDAA106006191AY161061AY251061GA1051+002409079GA2011+007509099GF108991051031002501021999MA1999999101801MD1210391+9999MW1511REMSYN124AAXX  09061 40734 11330 82713 10148 20142 30180 40157 52039 60061 75165 8532/ 90550 333 32015 50391 70074 85708 81925 88457;
0238407340999992000050912004+36500+051580FM-12-002099999V0202901N00601036001CN0060001N1+01501+01401101981ADDAA106000391AY151061AY221061GA1031+004509079GA2011+007509099GF108991041031004501021999MA1999999102211MD1110101+9999MW1501REMSYN106AAXX  09121 40734 11456 82906 10150 20140 30221 40198 51010 69931 75052 8432/ 91150 333 83715 81925 88458;
0184407340999992000050918004+36500+051580FM-12-002099999V0209999C000010021019N0030001N1+01341+01341102041ADDAA106007991AY151061AY251061GF108991061061002501021999MA1999999102271MD1310061+9999MW1511REMSYN084AAXX  09181 40734 11330 80000 10134 20134 30227 40204 53006 60081 75155 8662/ 91150;
0234407340999992000051006004+36500+051580FM-12-002099999V0209999C000010024019N0030001N1+01621+01361102071ADDAA106003091AY151061AY251061GA1061+002409079GF108991061061002501021999MA1999999102301MD1110041+9999MW1511REMSYN118AAXX  10061 40734 11330 80000 10162 20136 30230 40207 51004 60031 75155 8662/ 90545 333 32012 50081 70193 86708 88457;
0238407340999992000051012004+36500+051580FM-12-002099999V0200601N005012200019N0100001N1+01781+01461101871ADDAA106000791AY151061AY221061GA1011+006009099GA2031+007509089GF104991031031004501071001MA1999999102101MD1810101+9999MW1011REMSYN106AAXX  10121 40734 11460 40605 10178 20146 30210 40187 58010 69901 70152 83370 91145 333 81920 83825 84358;
0196407340999992000051018004+36500+051580FM-12-002099999V0201801N00301036001CN0100001N1+01681+01481101881ADDAA199000021GA1031+009009069GF107991031041008001071001GJ102169MA1999999102111MD1310031+9999REMSYN094AAXX  10181 40734 32560 71803 10168 20148 30211 40188 53003 83470 91745 333 55036 83630 87459;
0201407340999992000051100004+36500+051580FM-12-002099999V0209999C00001036001CN0100001N1+01581+01451101881ADDAA199000091GA1031+009009069GF108991031051008001021999MA1999999102111MD1410001+9999REMSYN088AAXX  11001 40734 32560 80000 10158 20145 30211 40188 54000 8352/ 92350 333 83630 88459;EQDQ01  00002PRCP99
0200407340999992000051106004+36500+051580FM-12-002099999V0202701N00601036001CN0100001N1+01761+01481101971ADDAA124000791GA1011+006009089GF108991011011008001021999MA1999999102201MD1210051+9999REMSYN106AAXX  11061 40734 32560 82706 10176 20148 30220 40197 52005 8112/ 90550 333 31015 50531 79999 81820 88459;
0189407340999992000051118004+36500+051580FM-12-002099999V0209999C000012200019N0150001N1+01501+01441101801ADDAA199000091GA1001+999999999GF100991001001999999001001MA1999999102031MD1310031+9999REMSYN076AAXX  11181 40734 32965 00000 10150 20144 30203 40180 53003 91750 333 55030;EQDQ01  00002PRCP99
0183407340999992000051200004+36500+051580FM-12-002099999V0209999C000012200019N0150001N1+01241+01181101711ADDAA199000091GA1001+999999999GF100991001001999999001001MA1999999101941MD1610061+9999REMSYN070AAXX  12001 40734 32965 00000 10124 20118 30194 40171 56006 92345 333;EQDQ01  00002PRCP99
0191407340999992000051206004+36500+051580FM-12-002099999V0203101N004012200019N0150001N1+01901+01521101671ADDAA124000091GF101991011011008001001001MA1999999101901MD1810041+9999REMSYN094AAXX  12061 40734 32565 13104 10190 20152 30190 40167 58004 81100 90550 333 31011 50181 70000;EQDQ01  00002PRCP24
0195407340999992000051212004+36500+051580FM-12-002099999V0203501N004012200019N0120001N1+02021+01641101451ADDAA199000091GA1011+009009029GF101991011011008001031001MA1999999101681MD1710171+9999REMSYN082AAXX  12121 40734 32562 13504 10202 20164 30168 40145 57017 81130 91150 333 81830;EQDQ01  00002PRCP99
0189407340999992000051218004+36500+051580FM-12-002099999V0209999C000012200019N0120001N1+01661+01561101271ADDAA199000091GA1001+999999999GF100991001001999999001001MA1999999101501MD1610021+9999REMSYN076AAXX  12181 40734 32962 00000 10166 20156 30150 40127 56002 91745 333 55118;EQDQ01  00002PRCP99
0183407340999992000051300004+36500+051580FM-12-002099999V0201701N003012200019N0120001N1+01441+01191100911ADDAA199000091GA1001+999999999GF100991001001999999001001MA1999999101141MD1710161+9999REMSYN070AAXX  13001 40734 32962 01703 10144 20119 30114 40091 57016 92345 333;EQDQ01  00002PRCP99
0191407340999992000051306004+36500+051580FM-12-002099999V0203301N004012200019N0100001N1+02021+01641101201ADDAA124000091GF101991011011008001001001MA1999999101431MD1010081+9999REMSYN094AAXX  13061 40734 32560 13304 10202 20164 30143 40120 50008 81100 90545 333 30010 50441 70000;EQDQ01  00002PRCP24
0195407340999992000051312004+36500+051580FM-12-002099999V0203601N003012200019N0150001N1+02181+01801101111ADDAA199000091GA1011+006009029GF101991011011008001001001MA1999999101341MD1810041+9999REMSYN082AAXX  13121 40734 32565 13603 10218 20180 30134 40111 58004 81100 91145 333 81820;EQDQ01  00002PRCP99
0189407340999992000051318004+36500+051580FM-12-002099999V0201501N002012200019N0100001N1+01821+01691101051ADDAA199000091GA1001+999999999GF100991001001999999001001MA1999999101281MD1810011+9999REMSYN076AAXX  13181 40734 32960 01502 10182 20169 30128 40105 58001 91745 333 55122;EQDQ01  00002PRCP99
0183407340999992000051400004+36500+051580FM-12-002099999V0202001N002012200019N0100001N1+01481+01421101151ADDAA199000091GA1001+999999999GF100991001001999999001001MA1999999101381MD1310081+9999REMSYN070AAXX  14001 40734 32960 02002 10148 20142 30138 40115 53008 92350 333;EQDQ01  00002PRCP99
0213407340999992000051406004+36500+051580FM-12-002099999V0202901N011012200019N0100001N1+02161+01781101771ADDAA124000091GA1011+007509029GF101991011021008001001001MA1999999102001MD1210221+9999REMSYN100AAXX  14061 40734 32560 12911 10216 20178 30200 40177 52022 81200 90550 333 30012 50441 70000 81825;EQDQ01  00002PRCP24
0238407340999992000051412004+36500+051580FM-12-002099999V0202601N00401036001CN0080001N1+01781+01651101771ADDAA106000791AY151061AY221061GA1011+006009089GA2031+007509069GF108991031081008001021999MA1999999102001MD1810101+9999MW1201REMSYN106AAXX  14121 40734 11558 82604 10178 20165 30200 40177 58010 69901 72052 8382/ 91145 333 81820 83625 88459;
0230407340999992000051418004+36500+051580FM-12-002099999V0202701N003010024019N0050001N1+01601+01541101641ADDAA106000591AY151061AY221061GA1051+002409079GF108991051061002501021999GJ102409MA1999999101871MD1410001+9999MW1101REMSYN106AAXX  14181 40734 11350 82703 10160 20154 30187 40164 54000 69941 71052 8562/ 91745 333 55040 85708 88457;
0216407340999992000051500004+36500+051580FM-12-002099999V0202701N005010021019N0030001N1+01501+01441101541ADDAA106002091AY151061AY251061GA1061+002109079GF108991061061002501021999MA1999999101771MD1610031+9999MW1511REMSYN100AAXX  15001 40734 11330 82705 10150 20144 30177 40154 56003 60021 75155 8662/ 92350 333 86707 88457;
0222407340999992000051506004+36500+051580FM-12-002099999V0202701N00601036001CN0100001N1+01581+01331101671ADDAA124002891GA1011+006009079GA2031+009009069GF108991041071008001021999MA1999999101901MD1110071+9999REMSYN112AAXX  15061 40734 32560 82706 10158 20133 30190 40167 51007 8472/ 90545 333 31012 50371 70028 81720 83630 88458;
0204407340999992000051512004+36500+051580FM-12-002099999V0203101N00501036001CN0120001N1+01801+01451101561ADDAA199000021GA1011+007509099GA2031+009009069GF107991031031008001071001MA1999999101791MD1810051+9999REMSYN094AAXX  15121 40734 32562 73105 10180 20145 30179 40156 58005 83370 91145 333 81925 83630 87459;
0215407340999992000051518004+36500+051580FM-12-002099999V0202501N00401036001CN0100001N1+01661+01431101781ADDAA199000091GA1031+009009069GF108991031051008001021999GJ100009MA1999999102011MD1210231+9999REMSYN094AAXX  15181 40734 32560 82504 10166 20143 30201 40178 52023 8352/ 91750 333 55000 83630 88459;EQDQ01  00002PRCP99
0223407340999992000051612004+36500+051580FM-12-002099999V0203401N00201036001CN0100001N1+01861+01481101481ADDAA199000091GA1011+006009099GA2031+007509069GF106991031031008001071001MA1999999101711MD1610041+9999REMSYN094AAXX  16121 40734 32560 63402 10186 20148 30171 40148 56004 83370 91150 333 81920 83625 86360;EQDQ01  00002PRCP99
0237407340999992000051618004+36500+051580FM-12-002099999V0202101N00301036001CN0100001N1+01621+01461101671ADDAA199000091GA1011+007509099GA2031+009009069GF107991031031008001071001GJ100009MA1999999101901MD1210131+9999REMSYN100AAXX  16181 40734 32560 72103 10162 20146 30190 40167 52013 83370 91745 333 55000 81925 83630 87359;EQDQ01  00002PRCP99
0238407340999992000051700004+36500+051580FM-12-002099999V0202101N00401036001CN0080001N1+01481+01421101521ADDAA106002091AY161061AY221061GA1011+006009099GA2031+007509069GF108991041031008001021999MA1999999101751MD1710091+9999MW1211REMSYN106AAXX  17001 40734 11558 82104 10148 20142 30175 40152 57009 60021 72162 8432/ 92350 333 81920 83625 88457;
0200407340999992000051706004+36500+051580FM-12-002099999V0209999C00001036001CN0100001N1+01821+01471101431ADDAA124002091GA1031+006009079GF107991031071008001071001MA1999999101661MD1610041+9999REMSYN106AAXX  17061 40734 32560 70000 10182 20147 30166 40143 56004 83770 90545 333 32014 50011 70020 83720 87458;
0182407340999992000051712004+36500+051580FM-12-002099999V0200601N005012200019N0100001N1+01981+01501101131ADDAA199000021GA1021+006009079GF104991021071008001071001MA1999999101361MD1810141+9999REMSYN088AAXX  17121 40734 32560 40605 10198 20150 30136 40113 58014 82770 91145 333 82720 84360;
0215407340999992000051718004+36500+051580FM-12-002099999V0202201N002010060019N0100001N1+01781+01651101321ADDAA199000091GA1061+006009079GF106991041061008001021001GJ101689MA1999999101551MD1210191+9999REMSYN094AAXX  17181 40734 32560 62202 10178 20165 30155 40132 52019 84620 91745 333 55028 86720 86459;EQDQ01  00002PRCP99
0216407340999992000051800004+36500+051580FM-12-002099999V0201501N002010030019N0060001N1+01621+01521101481ADDAA106000891AY151061AY221061GA1061+003009079GF108991061061004501021999MA1999999101711MD1110031+9999MW1501REMSYN100AAXX  18001 40734 11456 81502 10162 20152 30171 40148 51003 69981 75052 8662/ 92350 333 86710 88457;
0200407340999992000051806004+36500+051580FM-12-002099999V0200601N00301036001CN0100001N1+01861+01521101371ADDAA124000891GA1021+009009069GF107991021041008001071001MA1999999101601MD1710111+9999REMSYN106AAXX  18061 40734 32560 70603 10186 20152 30160 40137 57011 82470 90550 333 31014 50351 70008 82630 87360;
0237407340999992000051818004+36500+051580FM-12-002099999V0202101N00501036001CN0100001N1+01821+01701101071ADDAA199000091GA1011+007509099GA2031+009009069GF108991031031008001021999GJ101329MA1999999101301MD1210171+9999REMSYN100AAXX  18181 40734 32560 82105 10182 20170 30130 40107 52017 8332/ 91750 333 55022 81925 83630 88459;EQDQ01  00002PRCP99
0223407340999992000051900004+36500+051580FM-12-002099999V0209999C00001036001CN0100001N1+01741+01641101031ADDAA199000091GA1011+007509099GA2031+009009069GF108991031031008001021999MA1999999101261MD1810041+9999REMSYN094AAXX  19001 40734 32560 80000 10174 20164 30126 40103 58004 8332/ 92350 333 81925 83630 88459;EQDQ01  00002PRCP99
0241407340999992000051906004+36500+051580FM-12-002099999V0203201N00201007501CN0100001N1+01921+01701101071ADDAA124000091GA1021+006009099GA2031+007509069GF108991041031008001071999MA1999999101301MD1510001+9999REMSYN112AAXX  19061 40734 32560 83202 10192 20170 30130 40107 55000 8437/ 90550 333 30017 50441 70000 82920 83625 88457;EQDQ01  00002PRCP24
0216407340999992000051912004+36500+051580FM-12-002099999V0200601N00501036001CN0100001N1+01961+01701100901ADDAA106000591AY151061AY221061GA1031+003009079GF107991031071004501071001MA1999999101131MD1710221+9999MW1011REMSYN100AAXX  19121 40734 11460 70605 10196 20170 30113 40090 57022 69961 70152 83770 91145 333 83710 88358;
0237407340999992000051918004+36500+051580FM-12-002099999V0202701N00401036001CN0100001N1+01841+01711100871ADDAA199000091GA1011+007509099GA2021+009009069GF108991031031008001021999GJ100669MA1999999101101MD1110031+9999REMSYN100AAXX  19181 40734 32560 82704 10184 20171 30110 40087 51003 8332/ 91745 333 55011 81925 82630 88459;EQDQ01  00002PRCP99
0238407340999992000052000004+36500+051580FM-12-002099999V0202601N004010075019N0060001N1+01701+01671100981ADDAA106004191AY181061AY251061GA1041+004509079GA2011+007509099GF108991051031004501021999MA1999999101211MD1310061+9999MW1501REMSYN106AAXX  20001 40734 11456 82604 10170 20167 30121 40098 53006 60041 75085 8532/ 92345 333 84715 81925 88458;
0228407340999992000052006004+36500+051580FM-12-002099999V0202801N005010360019N0080001N1+01601+01541101171ADDAA106000891AY181061AY251061GA1031+004509069GF108991031071004501021999MA1999999101411MD1310101+9999MW1201REMSYN112AAXX  20061 40734 11458 82805 10160 20154 30141 40117 53010 69971 72085 8372/ 90550 333 31015 50261 70057 83715;
0223407340999992000052100004+36500+051580FM-12-002099999V0209999C00001007501CN0100001N1+01681+01581101671ADDAA199000091GA1021+006009099GA2031+007509069GF108991041031008001021999MA1999999101901MD1410001+9999REMSYN094AAXX  21001 40734 32560 80000 10168 20158 30190 40167 54000 8432/ 92345 333 82920 83625 88458;EQDQ01  00002PRCP99
0216407340999992000052106004+36500+051580FM-12-002099999V0200501N00301036001CN0100001N1+01921+01711101651ADDAA124000391GA1011+007509099GA2031+009009069GF108991031031008001021999MA1999999101881MD1410001+9999REMSYN106AAXX  21061 40734 32560 80503 10192 20171 30188 40165 54000 8332/ 90545 333 30016 70002 81925 83630 88458;
0201407340999992000052112004+36500+051580FM-12-002099999V0200601N00401090001CN0100001N1+02061+01741101511ADDAA199000091GA1021+007509089GF107991021021008001001061MA1999999101741MD1710091+9999REMSYN088AAXX  21121 40734 32560 70604 10206 20174 30174 40151 57009 82206 91145 333 82825 87270;EQDQ01  00002PRCP99
0189407340999992000052218004+36500+051580FM-12-002099999V0201201N002012200019N0100001N1+01921+01751101551ADDAA199000091GA1001+999999999GF100991001001999999001001MA1999999101781MD1310041+9999REMSYN076AAXX  22181 40734 32960 01202 10192 20175 30178 40155 53004 91745 333 55107;EQDQ01  00002PRCP99
0201407340999992000052300004+36500+051580FM-12-002099999V0203301N005012200019N9999999N1+02441+01751101101ADDAA199000091GA1021+009009029GF103991021021008001031001MA1999999101331MD1810111+9999REMSYN088AAXX  24121 40734 3256/ 33305 10244 20175 30133 40110 58011 82230 91150 333 82830 83360;EQDQ01  00002PRCP99
0237407340999992000052318004+36500+051580FM-12-002099999V0201201N00201036001CN9999999N1+02141+01781101001ADDAA199000091GA1011+010509099GA2021+012009069GF106991021031012501071001GJ105409MA1999999101231MD1810021+9999REMSYN100AAXX  23181 40734 3560/ 61202 10214 20178 30123 40100 58002 82370 91745 333 55090 81935 82640 86359;EQDQ01  00002PRCP99
0223407340999992000052400004+36500+051580FM-12-002099999V0209999C00001036001CN0100001N1+01941+01841101071ADDAA199000091GA1011+010509099GA2021+012009069GF107991021031012501071001MA1999999101301MD1510101+9999REMSYN094AAXX  24001 40734 32660 70000 10194 20184 30130 40107 55010 82370 92345 333 81935 82640 87360;EQDQ01  00002PRCP99
0129407340999992000052406004+36500+051580FM-12-002099999V0203001N006019999999N0100001N1+02341+99999999999ADDAA124000791GA1031+027009079GF105991999999008001999999REMSYN064AAXX  24061 40734 32560 53006 10234 333 30019 50571 79999 83359;
0189407340999992000052418004+36500+051580FM-12-002099999V0202101N003012200019N0100001N1+02001+01801101081ADDAA199000091GA1001+999999999GF100991001001999999001001MA1999999101311MD1310061+9999REMSYN076AAXX  24181 40734 32960 02103 1020/ 20180 30131 40108 53006 91745 333 55086;EQDQ01  00002PRCP99
0183407340999992000052500004+36500+051580FM-12-002099999V0202501N002012200019N0100001N1+01801+01561101051ADDAA199000091GA1001+999999999GF100991001001999999001001MA1999999101281MD1410001+9999REMSYN070AAXX  25001 40734 32960 02502 10180 20156 30128 40105 54000 92345 333;EQDQ01  00002PRCP99
0120407340999992000052506004+36500+051580FM-12-002099999V0203001N005012200019N0120001N1+02421+99999999999ADDAA199000091GA1001+999999999GF100991001001999999001001REMSYN036AAXX  25061 40734 32962 03005 10242;EQDQ01  00002PRCP99
0183407340999992000052512004+36500+051580FM-12-002099999V0200301N003012200019N0120001N1+02381+01881100871ADDAA199000091GA1001+999999999GF100991001001999999001001MA1999999101101MD1810081+9999REMSYN070AAXX  25121 40734 32962 00303 10238 20188 30110 40087 58008 91145 333;EQDQ01  00002PRCP99
0183407340999992000052600004+36500+051580FM-12-002099999V0202101N003012200019N0100001N1+01681+01521100621ADDAA199000091GA1001+999999999GF100991001001999999001001MA1999999100851MD1310021+9999REMSYN070AAXX  26001 40734 32960 02103 10168 20152 30085 40062 53002 92350 333;EQDQ01  00002PRCP99
0201407340999992000052606004+36500+051580FM-12-002099999V0202901N003012200019N0100001N1+02521+01861100671ADDAA124000091GA1001+999999999GF100991001001999999001001MA1999999100901MD1110021+9999REMSYN088AAXX  26061 40734 32960 02903 10252 20186 30090 40067 51002 90545 333 30014 50531 70000;EQDQ01  00002PRCP24
0183407340999992000052612004+36500+051580FM-12-002099999V0203601N003012200019N0100001N1+02851+01361100401ADDAA199000091GA1001+999999999GF100991001001999999001001MA1999999100631MD1710171+9999REMSYN070AAXX  26121 40734 32960 03603 10285 20136 30063 40040 57017 91145 333;EQDQ01  00002PRCP99
0110407340999992000052618004+36500+051580FM-12-002099999V0209999C000012200019N0100001N1+01981+01661999999ADDAA199000091GF101991999999008001999999REMSYN042AAXX  26181 40734 32560 10000 10198 20166;EQDQ01  00002PRCP99
0195407340999992000052700004+36500+051580FM-12-002099999V0209999C000012200019N9999999N1+01941+01601100421ADDAA199000091GA1011+009009059GF101991011041008001001001MA1999999100651MD1210051+9999REMSYN082AAXX  27001 40734 325// 10000 10194 20160 30065 40042 52005 81400 92345 333 81630;EQDQ01  00002PRCP99
0201407340999992000052812004+36500+051580FM-12-002099999V0200301N00501036001CN0120001N1+02401+01791101371ADDAA199000091GA1011+007509089GF107991021081008001071001MA1999999101601MD1110021+9999REMSYN088AAXX  28121 40734 32562 70305 10240 20179 30160 40137 51002 82870 91150 333 81825 87360;EQDQ01  00002PRCP99
0209407340999992000052818004+36500+051580FM-12-002099999V0202101N00101036001CN0100001N1+02161+01901999999ADDAA199000091GA1021+007509089GF107991021021008001071001GJ104929MA1999999101761MD1210131+9999REMSYN088AAXX  28181 40734 32560 72101 10216 20190 30176 52013 82270 91745 333 55082 82825 87359;EQDQ01  00002PRCP99
0183407340999992000052900004+36500+051580FM-12-002099999V0202101N002012200019N0100001N1+01801+99999101471ADDAA199000091GA1001+999999999GF100991001001999999001001MA1999999101701MD1510021+9999REMSYN070AAXX  29001 40734 32960 02102 10180 20659 30170 40147 55002 92345 333;EQDQ01  00002PRCP99
0191407340999992000052906004+36500+051580FM-12-002099999V0200801N008012200019N0120001N1+02601+01631101441ADDAA124000091GF101991011011008001001001MA1999999101671MD1810031+9999REMSYN094AAXX  29061 40734 32562 10808 10260 20163 30167 40144 58003 81100 90545 333 30014 50621 70000;EQDQ01  00002PRCP24
0173407340999992000052912004+36500+051580FM-12-002099999V0200601N004012200019N0120001N1+02621+01611101221ADDAA199000091GF101991011011008001001001MA1999999101451MD1610131+9999REMSYN076AAXX  29121 40734 32562 10604 10262 20161 30145 40122 56013 81100 91145 333;EQDQ01  00002PRCP99
0209407340999992000052918004+36500+051580FM-12-002099999V0201801N002012200019N0100001N1+02141+01921101161ADDAA199000091GA1011+009009059GF101991011041008001001001GJ107329MA1999999101391MD1310031+9999REMSYN088AAXX  29181 40734 32560 11802 10214 20192 30139 40116 53003 81400 91745 333 55122 81630;EQDQ01  00002PRCP99
0183407340999992000053000004+36500+051580FM-12-002099999V0209999C000012200019N0100001N1+01761+01631101011ADDAA199000091GA1001+999999999GF100991001001999999001001MA1999999101241MD1810061+9999REMSYN070AAXX  30001 40734 32960 00000 10176 20163 30124 40101 58006 92345 333;EQDQ01  00002PRCP99
0201407340999992000053006004+36500+051580FM-12-002099999V0209999C000012200019N0100001N1+02441+01791101071ADDAA124000091GA1001+999999999GF100991001001999999001001MA1999999101301MD1410001+9999REMSYN088AAXX  30061 40734 32960 00000 10244 20179 30130 40107 54000 90550 333 30014 50701 70000;EQDQ01  00002PRCP24
0183407340999992000053012004+36500+051580FM-12-002099999V0200501N004012200019N0120001N1+02541+01911100971ADDAA199000091GA1001+999999999GF100991001001999999001001MA1999999101201MD1610101+9999REMSYN070AAXX  30121 40734 32962 00504 10254 20191 30120 40097 56010 91145 333;EQDQ01  00002PRCP99
0189407340999992000053018004+36500+051580FM-12-002099999V0201701N002012200019N0100001N1+02161+01971100851ADDAA199000091GA1001+999999999GF100991001001999999001001MA1999999101081MD1110021+9999REMSYN076AAXX  30181 40734 32960 01702 10216 20197 30108 40085 51002 91745 333 55125;EQDQ01  00002PRCP99
0183407340999992000053100004+36500+051580FM-12-002099999V0209999C000012200019N0100001N1+01821+01691100771ADDAA199000091GA1001+999999999GF100991001001999999001001MA1999999101001MD1310011+9999REMSYN070AAXX  31001 40734 32960 00000 10182 20169 30100 40077 53001 92345 333;EQDQ01  00002PRCP99
0191407340999992000053106004+36500+051580FM-12-002099999V0203301N004012200019N0120001N1+02441+02051100871ADDAA124000091GF101991011011008001001001MA1999999101101MD1810091+9999REMSYN094AAXX  31061 40734 32562 13304 10244 20205 30110 40087 58009 81100 90545 333 30015 50621 70000;EQDQ01  00002PRCP24
0195407340999992000053112004+36500+051580FM-12-002099999V0200201N003012200019N0120001N1+02501+02051100771ADDAA199000091GA1011+007509029GF101991011011008001001001MA1999999101001MD1410001+9999REMSYN082AAXX  31121 40734 32562 10203 10250 20205 30100 40077 54000 81100 91145 333 81825;EQDQ01  00002PRCP99
0189407340999992000053118004+36500+051580FM-12-002099999V0201901N002012200019N0100001N1+02201+02051100801ADDAA199000091GA1001+999999999GF100991001001999999001001MA1999999101031MD1210131+9999REMSYN076AAXX  31181 40734 32960 01902 10220 20205 30103 40080 52013 91745 333 55118;EQDQ01  00002PRCP99
0183407340999992000060100004+36500+051580FM-12-002099999V0202101N005012200019N0100001N1+02221+01621100821ADDAA199000091GA1001+999999999GF100991001001999999001001MA1999999101051MD1310151+9999REMSYN070AAXX  01001 40734 32960 02105 10222 20162 30105 40082 53015 92350 333;EQDQ01  00002PRCP99
0201407340999992000060106004+36500+051580FM-12-002099999V0203401N003012200019N0120001N1+02501+02051100921ADDAA124000091GA1001+999999999GF100991001001999999001001MA1999999101151MD1110031+9999REMSYN088AAXX  01061 40734 32962 03403 10250 20205 30115 40092 51003 90545 333 30016 50531 70000;EQDQ01  00002PRCP24
0223407340999992000060112004+36500+051580FM-12-002099999V0202801N00901090001CN0100001N1+02441+01941101301ADDAA199000091GA1011+007509089GA2031+030009049GF106991011021008001071061MA1999999101531MD1210271+9999REMSYN094AAXX  01121 40734 32560 62809 10244 20194 30153 40130 52027 81276 91150 333 81825 83460 86268;EQDQ01  00002PRCP99
0237407340999992000060118004+36500+051580FM-12-002099999V0202501N002012200019N0100001N1+02201+01961101191ADDAA199000091GA1011+010509099GA2021+012009069GF103991021031012501071011GJ103909MA1999999101421MD1310011+9999REMSYN100AAXX  01181 40734 32660 32502 10220 20196 30142 40119 53001 82371 91745 333 55065 81935 82640 83360;EQDQ01  00002PRCP99
0183407340999992000060200004+36500+051580FM-12-002099999V0201901N003012200019N0100001N1+01861+01651101271ADDAA199000091GA1001+999999999GF100991001001999999001001MA1999999101501MD1410001+9999REMSYN070AAXX  02001 40734 32960 01903 10186 20165 30150 40127 54000 92345 333;EQDQ01  00002PRCP99
0201407340999992000060206004+36500+051580FM-12-002099999V0201301N003012200019N0150001N1+02461+01941101311ADDAA124000091GA1001+999999999GF100991001001999999001001MA1999999101541MD1310041+9999REMSYN088AAXX  02061 40734 32965 01303 10246 20194 30154 40131 53004 90545 333 30014 50531 70000;EQDQ01  00002PRCP24
0189407340999992000060218004+36500+051580FM-12-002099999V0209999C000012200019N0100001N1+02141+01951101301ADDAA199000091GA1001+999999999GF100991001001999999001001MA1999999101531MD1210061+9999REMSYN076AAXX  02181 40734 32960 00000 10214 20195 30153 40130 52006 91745 333 55125;EQDQ01  00002PRCP99
0183407340999992000060300004+36500+051580FM-12-002099999V0209999C000012200019N0100001N1+01801+01671101261ADDAA199000091GA1001+999999999GF100991001001999999001001MA1999999101491MD1510011+9999REMSYN070AAXX  03001 40734 32960 00000 10180 20167 30149 40126 55001 92345 333;EQDQ01  00002PRCP99
0195407340999992000060312004+36500+051580FM-12-002099999V0200801N005012200019N0150001N1+02581+02081101261ADDAA199000091GA1011+007509029GF101991011021008001001001MA1999999101491MD1710111+9999REMSYN082AAXX  03121 40734 32565 10805 10258 20208 30149 40126 57011 81200 91145 333 81825;EQDQ01  00002PRCP99
0189407340999992000060318004+36500+051580FM-12-002099999V0201601N002012200019N0100001N1+02281+02121101061ADDAA199000091GA1001+999999999GF100991001001999999001001MA1999999101291MD1610061+9999REMSYN076AAXX  03181 40734 32960 01602 10228 20212 30129 40106 56006 91745 333 55115;EQDQ01  00002PRCP99
0183407340999992000060400004+36500+051580FM-12-002099999V0202101N002012200019N0100001N1+02101+01981101041ADDAA199000091GA1001+999999999GF100991001001999999001001MA1999999101271MD1410001+9999REMSYN070AAXX  04001 40734 32960 02102 10210 20198 30127 40104 54000 92345 333;EQDQ01  00002PRCP99
0191407340999992000060406004+36500+051580FM-12-002099999V0203601N003012200019N0100001N1+02521+02251101081ADDAA124000091GF101991011011999999001001MA1999999101311MD1810071+9999REMSYN094AAXX  04061 40734 32960 13603 10252 20225 30131 40108 58007 81100 90545 333 30017 50621 70000;EQDQ01  00002PRCP24
0189407340999992000060418004+36500+051580FM-12-002099999V0209999C000012200019N0120001N1+02321+02201100411ADDAA199000091GA1001+999999999GF100991001001999999001001MA1999999100641MD1710141+9999REMSYN076AAXX  04181 40734 32962 00000 10232 20220 30064 40041 57014 91745 333 55113;EQDQ01  00002PRCP99
0211407340999992000060500004+36500+051580FM-12-002099999V0202701N003012200019N0120001N1+02141+02111100271ADDAA199000091GA1031+060009019GF199999001001999999001011MA1999999100501MD1310061+9999REMSYN082AAXX  05001 40734 32962 22703 10214 20211 30050 40027 53006 80001 92345 333 83070;EQDQ01+000022SCOTCVQ02  00002PRCP99
0195407340999992000060512004+36500+051580FM-12-002099999V0203201N005012200019N0100001N1+02701+02261100421ADDAA199000091GA1011+007509059GF101991011041008001001001MA1999999100651MD1710071+9999REMSYN082AAXX  05121 40734 32560 13205 10270 20226 30065 40042 57007 81400 91145 333 81625;EQDQ01  00002PRCP99
0183407340999992000060600004+36500+051580FM-12-002099999V0202501N004012200019N0100001N1+02221+01981100531ADDAA199000091GA1001+999999999GF100991001001999999001001MA1999999100761MD1310061+9999REMSYN070AAXX  06001 40734 32960 02504 10222 20198 30076 40053 53006 92345 333;EQDQ01  00002PRCP99
0213407340999992000060606004+36500+051580FM-12-002099999V0202601N007012200019N0100001N1+02641+01111100621ADDAA124000091GA1011+030009079GF101991011001999999031001MA1999999100851MD1810021+9999REMSYN100AAXX  06061 40734 32960 12607 10264 20111 30085 40062 58002 81030 90545 333 30019 50621 70000 81360;EQDQ01  00002PRCP24
0189407340999992000060618004+36500+051580FM-12-002099999V0201801N002012200019N0100001N1+02221+02081100701ADDAA199000091GA1001+999999999GF100991001001999999001001MA1999999100931MD1210131+9999REMSYN076AAXX  06181 40734 32960 01802 10222 20208 30093 40070 52013 91745 333 55112;EQDQ01  00002PRCP99
0183407340999992000060700004+36500+051580FM-12-002099999V0202401N002012200019N0100001N1+01981+01791100701ADDAA199000091GA1001+999999999GF100991001001999999001001MA1999999100931MD1710071+9999REMSYN070AAXX  07001 40734 32960 02402 10198 20179 30093 40070 57007 92350 333;EQDQ01  00002PRCP99
0183407340999992000060712004+36500+051580FM-12-002099999V0203101N004012200019N0100001N1+02721+01711100621ADDAA199000091GA1001+999999999GF100991001001999999001001MA1999999100851MD1810121+9999REMSYN070AAXX  07121 40734 32960 03104 10272 20171 30085 40062 58012 91145 333;EQDQ01  00002PRCP99
0201407340999992000060806004+36500+051580FM-12-002099999V0200701N004012200019N0100001N1+02641+02031100371ADDAA124000091GA1001+999999999GF100991001001999999001001MA1999999100601MD1410001+9999REMSYN088AAXX  08061 40734 32960 00704 10264 20203 30060 40037 54000 90545 333 30014 50701 70000;EQDQ01  00002PRCP24
0189407340999992000060818004+36500+051580FM-12-002099999V0201801N002012200019N0100001N1+02221+02071100581ADDAA199000091GA1001+999999999GF100991001001999999001001MA1999999100811MD1310161+9999REMSYN076AAXX  08181 40734 32960 01802 10222 20207 30081 40058 53016 91750 333 55119;EQDQ01  00002PRCP99
0183407340999992000060900004+36500+051580FM-12-002099999V0202101N003012200019N0100001N1+02021+01621100561ADDAA199000091GA1001+999999999GF100991001001999999001001MA1999999100791MD1410001+9999REMSYN070AAXX  09001 40734 32960 02103 10202 20162 30079 40056 54000 92350 333;EQDQ01  00002PRCP99
0183407340999992000060912004+36500+051580FM-12-002099999V0203101N012012200019N0100001N1+02721+01801100731ADDAA199000091GA1001+999999999GF100991001001999999001001MA1999999100961MD1610051+9999REMSYN070AAXX  09121 40734 32960 03112 10272 20180 30096 40073 56005 91145 333;EQDQ01  00002PRCP99
0189407340999992000060918004+36500+051580FM-12-002099999V0202701N004012200019N0100001N1+02401+02011100911ADDAA199000091GA1001+999999999GF100991001001999999001001MA1999999101141MD1210181+9999REMSYN076AAXX  09181 40734 32960 02704 10240 20201 30114 40091 52018 91745 333 55117;EQDQ01  00002PRCP99
0201407340999992000061000004+36500+051580FM-12-002099999V0202401N00601036001CN0100001N1+02341+01791101211ADDAA199000091GA1011+009009089GF105991011021008001071001MA1999999101441MD1110141+9999REMSYN088AAXX  10001 40734 32560 52406 10234 20179 30144 40121 51014 81270 92350 333 81830 85360;EQDQ01  00002PRCP99
0219407340999992000061006004+36500+051580FM-12-002099999V0202501N005012200019N0100001N1+02601+01901101391ADDAA124000091GA1011+009009069GF103991011041008001031001MA1999999101621MD1110081+9999REMSYN106AAXX  10061 40734 32560 32505 10260 20190 30162 40139 51008 81430 90545 333 30019 50881 70000 81630 83360;EQDQ01  00002PRCP24
0223407340999992000061012004+36500+051580FM-12-002099999V0202701N00901036001CN0100001N1+02281+01971101511ADDAA199000091GA1021+007509099GA2021+009009069GF107991041031008001071001MA1999999101741MD1110021+9999REMSYN094AAXX  10121 40734 32560 72709 10228 20197 30174 40151 51002 84370 91145 333 82925 82630 87459;EQDQ01  00002PRCP99
0237407340999992000061018004+36500+051580FM-12-002099999V0202401N00401036001CN0100001N1+02061+01701101671ADDAA199000091GA1011+007509099GA2021+009009069GF108991021031008001021999GJ101389MA1999999101901MD1210101+9999REMSYN100AAXX  10181 40734 32560 82404 10206 20170 30190 40167 52010 8232/ 91745 333 55023 81925 82630 88459;EQDQ01  00002PRCP99
0256407340999992000061106004+36500+051580FM-12-002099999V0202401N00301036001CN0100001N1+01981+01601101831ADDAA106000191AY181061AY221061GA1011+007509099GA2021+009009069GF108991021031008001021999MA1999999102061MD1310061+9999MW1021REMSYN124AAXX  11061 40734 11560 82403 10198 20160 30206 40183 53006 69911 70282 8232/ 90545 333 30019 50451 70001 81925 82630 88459;
0223407340999992000061112004+36500+051580FM-12-002099999V0202701N00401036001CN0100001N1+02061+01601101751ADDAA199000091GA1011+007509099GA2021+009009069GF108991021031008001021999MA1999999101981MD1710051+9999REMSYN094AAXX  11121 40734 32560 82704 10206 20160 30198 40175 57005 8232/ 91145 333 81925 82630 88459;EQDQ01  00002PRCP99
0215407340999992000061118004+36500+051580FM-12-002099999V0201801N00201036001CN0100001N1+01941+01721101841ADDAA199000091GA1021+009009069GF107991021041008001071001GJ100009MA1999999102071MD1210121+9999REMSYN094AAXX  11181 40734 32560 71802 10194 20172 30207 40184 52012 82470 91745 333 55000 82630 87460;EQDQ01  00002PRCP99
0223407340999992000061200004+36500+051580FM-12-002099999V0202101N00301036001CN0100001N1+01881+01501101691ADDAA199000091GA1011+007509099GA2011+009009069GF108991021031008001021999MA1999999101921MD1810091+9999REMSYN094AAXX  12001 40734 32560 82103 10188 20150 30192 40169 58009 8232/ 92345 333 81925 81630 88459;EQDQ01  00002PRCP99
0241407340999992000061206004+36500+051580FM-12-002099999V0202701N00501036001CN0100001N1+01941+01681101771ADDAA124000091GA1021+007509099GA2041+009009069GF108991041031008001021999MA1999999102001MD1110061+9999REMSYN112AAXX  12061 40734 32560 82705 10194 20168 30200 40177 51006 8432/ 90545 333 30017 50181 70000 82925 84630 88459;EQDQ01  00002PRCP24
0238407340999992000061212004+36500+051580FM-12-002099999V0202701N005010060019N0020001N1+01621+01591101871ADDAA106004191AY161061AY251061GA1041+003609079GA2011+006009099GF108991051031004501021999MA1999999102101MD1410001+9999MW1611REMSYN106AAXX  12121 40734 11420 82705 10162 20159 30210 40187 54000 60041 76165 8532/ 91145 333 84712 81920 88550;
0200407340999992000061306004+36500+051580FM-12-002099999V0200901N00501036001CN0100001N1+02021+01541102151ADDAA124030091GA1011+007509089GF105991011011008001031001MA1999999102381MD1110021+9999REMSYN106AAXX  13061 40734 32560 50905 10202 20154 30238 40215 51002 81130 90550 333 31014 50451 70300 81825 85360;
0195407340999992000061312004+36500+051580FM-12-002099999V0200301N004012200019N0120001N1+02241+01611101931ADDAA199000091GA1011+007509029GF101991011011008001031001MA1999999102161MD1710101+9999REMSYN082AAXX  13121 40734 32562 10304 10224 20161 30216 40193 57010 81130 91150 333 81825;EQDQ01  00002PRCP99
0189407340999992000061318004+36500+051580FM-12-002099999V0201801N003012200019N0120001N1+01761+01661101771ADDAA199000091GA1001+999999999GF100991001001999999001001MA1999999102001MD1810101+9999REMSYN076AAXX  13181 40734 32962 01803 10176 20166 30200 40177 58010 91745 333 55085;EQDQ01  00002PRCP99
0183407340999992000061400004+36500+051570FM-12-002099999V0201801N003012200019N0120001N1+01821+01241101211ADDAA199000091GA1001+999999999GF100991001001999999001001MA1999999101441MD1710361+9999REMSYN070AAXX  14001 40734 32962 01803 10182 20124 30144 40121 57036 92345 333;EQDQ01  00002PRCP99
0200407340999992000061500004+36500+051570FM-12-002099999V0201901N001010360019N0100001N1+01881+01711101601ADDAA199000091GA1011+007509089GF105991011021008001071001MA1999999101831MD1310031+9999REMSYN087AAXX  15001 40734 32560 51901 10188 20171 30183 40160 53003 81270 2350 333 81825 85359;EQDQ01  00002PRCP99
0241407340999992000061506004+36500+051570FM-12-002099999V0203101N00301036001CN0100001N1+02041+01821101801ADDAA124000091GA1011+007509099GA2021+009009069GF107991031031008001071001MA1999999102031MD1110111+9999REMSYN112AAXX  15061 40734 32560 73103 10204 20182 30203 40180 51011 83370 90545 333 31017 50531 70000 81925 82630 87359;EQDQ01  00002PRCP24
0201407340999992000061512004+36500+051570FM-12-002099999V0203101N002012200019N0120001N1+02181+01941101731ADDAA199000091GA1011+006009089GF103991011021008001031001MA1999999101961MD1810051+9999REMSYN088AAXX  15121 40734 32562 33102 10218 20194 30196 40173 58005 81230 91145 333 81820 83360;EQDQ01  00002PRCP99
0215407340999992000061518004+36500+051570FM-12-002099999V0209999C000012200019N0100001N1+02101+01911101881ADDAA199000091GA1011+007509099GF103991031031008001001001GJ100849MA1999999102111MD1310161+9999REMSYN094AAXX  15181 40734 32560 30000 10210 20191 30211 40188 53016 83300 91745 333 55014 81925 82630;EQDQ01  00002PRCP99
0195407340999992000061600004+36500+051570FM-12-002099999V0202201N003012200019N0100001N1+01821+01691101771ADDAA199000091GA1011+030009079GF101991011001999999031001MA1999999102001MD1410001+9999REMSYN082AAXX  16001 40734 32960 12203 10182 20169 30200 40177 54000 81030 92345 333 81360;EQDQ01  00002PRCP99
0139407340999992000061603004+36500+051570FM-12-002099999V0209999C000012200019N0100001N1+01861+01731101791ADDGF101991011011008001001001MA1999999102021MD1110021+9999REMSYN072AAXX  16031 40734 42560 10000 10186 20173 30202 40179 51002 81100 90250;
0201407340999992000061612004+36500+051570FM-12-002099999V0200401N004012200019N0100001N1+02441+01791101571ADDAA199000091GA1011+006009089GF103991011011008001071001MA1999999101801MD1710201+9999REMSYN088AAXX  16121 40734 32560 30404 10244 20179 30180 40157 57020 81170 91145 333 81820 83360;EQDQ01  00002PRCP99
0209407340999992000061618004+36500+051570FM-12-002099999V0201501N002012200019N0100001N1+02061+01941101471ADDAA199000091GA1011+007509059GF101991011041008001001001GJ105409MA1999999101701MD1510001+9999REMSYN088AAXX  16181 40734 32560 11502 10206 20194 30170 40147 55000 81400 91745 333 55090 81625;EQDQ01  00002PRCP99
0183407340999992000061700004+36500+051570FM-12-002099999V0209999C000012200019N0100001N1+01801+01731101321ADDAA199000091GA1001+999999999GF100991001001999999001001MA1999999101551MD1710071+9999REMSYN070AAXX  17001 40734 32960 00000 10180 20173 30155 40132 57007 92345 333;EQDQ01  00002PRCP99
0191407340999992000061706004+36500+051570FM-12-002099999V0203601N003012200019N0100001N1+02381+02071101381ADDAA124000091GF101991011011008001001001MA1999999101611MD1310031+9999REMSYN094AAXX  17061 40734 32560 13603 10238 20207 30161 40138 53003 81100 90545 333 30015 50531 70000;EQDQ01  00002PRCP24
0189407340999992000061718004+36500+051570FM-12-002099999V0201701N002012200019N0100001N1+02161+02081101081ADDAA199000091GA1001+999999999GF100991001001999999001001MA1999999101311MD1410001+9999REMSYN076AAXX  17181 40734 32960 01702 10216 20208 30131 40108 54000 91745 333 55121;EQDQ01  00002PRCP99
0183407340999992000061800004+36500+051570FM-12-002099999V0201901N003012200019N0100001N1+01821+01791100871ADDAA199000091GA1001+999999999GF100991001001999999001001MA1999999101101MD1610111+9999REMSYN070AAXX  18001 40734 32960 01903 10182 20179 30110 40087 56011 92350 333;EQDQ01  00002PRCP99
0201407340999992000061806004+36500+051570FM-12-002099999V0200301N003012200019N0120001N1+02481+02151100911ADDAA124000091GA1001+999999999GF100991001001999999001001MA1999999101141MD1610011+9999REMSYN088AAXX  18061 40734 32962 00303 10248 20215 30114 40091 56001 90545 333 30015 50531 70000;EQDQ01  00002PRCP24
0139407340999992000061815004+36500+051570FM-12-002099999V0200801N006012200019N0120001N1+02581+02251100471ADDGF101991011021008001001001MA1999999100701MD1710201+9999REMSYN072AAXX  18151 40734 42562 10806 10258 20225 30070 40047 57020 81200 91445;
0183407340999992000061900004+36500+051570FM-12-002099999V0201801N002012200019N0100001N1+02101+02031100391ADDAA199000091GA1001+999999999GF100991001001999999001001MA1999999100621MD1110121+9999REMSYN070AAXX  19001 40734 32960 01802 10210 20203 30062 40039 51012 92350 333;EQDQ01  00002PRCP99
0191407340999992000061906004+36500+051570FM-12-002099999V0203101N004012200019N0100001N1+02581+02291100431ADDAA124000091GF101991011011008001001001MA1999999100661MD1010001+9999REMSYN094AAXX  19061 40734 32560 13104 10258 20229 30066 40043 50000 81100 90550 333 30019 50701 70000;EQDQ01  00002PRCP24
0195407340999992000061912004+36500+051570FM-12-002099999V0203101N006012200019N0100001N1+02621+02271100651ADDAA199000091GA1011+007509029GF101991011011008001001021MA1999999100881MD1310111+9999REMSYN082AAXX  19121 40734 32560 13106 10262 20227 30088 40065 53011 81102 91150 333 81825;EQDQ01  00002PRCP99
0209407340999992000061918004+36500+051570FM-12-002099999V0202601N002012200019N0100001N1+02201+02131100771ADDAA199000091GA1021+054009019GF102991001001999999001021GJ105589MA1999999101001MD1310091+9999REMSYN088AAXX  19181 40734 32960 22602 10220 20213 30100 40077 53009 80002 91745 333 55093 82068;EQDQ01  00002PRCP99
0222407340999992000062006004+36500+051570FM-12-002099999V0202701N00401036001CN0100001N1+02181+01991100871ADDAA124000191GA1011+007509099GA2021+009009069GF108991021031008001021999MA1999999101101MD1410001+9999REMSYN112AAXX  20061 40734 32560 82704 10218 20199 30110 40087 54000 8232/ 90545 333 30020 50541 70001 81925 82630 88458;
0201407340999992000062012004+36500+051570FM-12-002099999V0209999C000019999999N0100001N1+02201+01961100771ADDAA199000091GA1021+007509069GF108991021041999999021999MA1999999101001MD1710051+9999REMSYN088AAXX  20121 40734 32960 80000 10220 20196 30100 40077 57005 8242/ 91145 333 82625 88458;EQDQ01  00002PRCP99
0281407340999992000062018004+36500+051570FM-12-002099999V0202801N00401036001CN0080001N1+02101+01981101301ADDAA199000091AY121061AY221061GA1011+007509099GA2031+009009069GF108991041031008001021999GJ100009MA1999999101531MD1210502+9999MW1101REMSYN106AAXX  20181 40734 31558 82804 10210 20198 30153 40130 52050 71022 8432/ 91750 333 55000 81925 83630 88458;EQDQ01+000502APC3  Q02  00002PRCP99
0216407340999992000062100004+36500+051570FM-12-002099999V0202201N00201036001CN0060001N1+01921+01821101591ADDAA106000391AY151061AY221061GA1041+003609079GF108991041071004501021999MA1999999101821MD1110101+9999MW1201REMSYN100AAXX  21001 40734 11456 82202 10192 20182 30182 40159 51010 69931 72052 8472/ 92350 333 84712 88458;
0216407340999992000062112004+36500+051570FM-12-002099999V0201801N00201036001CN0040001N1+02021+01951101571ADDAA106002091AY151061AY251061GA1041+004509079GF108991041071004501021999MA1999999101801MD1710151+9999MW1201REMSYN100AAXX  21121 40734 11440 81802 10202 20195 30180 40157 57015 60021 72055 8472/ 91150 333 84715 88458;
0252407340999992000062118004+36500+051570FM-12-002099999V0202101N00201036001CN0060001N1+01981+01951101551ADDAA106000891AY151061AY221061GA1031+004509079GA2011+007509099GF108991031031004501021999GJ100009MA1999999101781MD1510001+9999MW1601REMSYN112AAXX  21181 40734 11456 82102 10198 20195 30178 40155 55000 69971 76052 8332/ 91745 333 55000 83715 81925 88557;
0201407340999992000062212004+36500+051570FM-12-002099999V0200501N00301036001CN0100001N1+02361+02031101031ADDAA199000091GA1011+007509089GF106991011011008001031001MA1999999101261MD1710171+9999REMSYN088AAXX  22121 40734 32560 60503 10236 20203 30126 40103 57017 81130 91145 333 81825 86360;EQDQ01  00002PRCP99
0215407340999992000062218004+36500+051570FM-12-002099999V0200101N00301036001CN0100001N1+02221+02001101011ADDAA199000091GA1021+007509069GF107991021041008001071001GJ101089MA1999999101241MD1210121+9999REMSYN094AAXX  22181 40734 32560 70103 10222 20200 30124 40101 52012 82470 91745 333 55018 82625 87358;EQDQ01  00002PRCP99
0183407340999992000062300004+36500+051570FM-12-002099999V0209999C000012200019N0120001N1+01961+01891100921ADDAA199000091GA1001+999999999GF100991001001999999001001MA1999999101151MD1810051+9999REMSYN070AAXX  23001 40734 32962 00000 10196 20189 30115 40092 58005 92345 333;EQDQ01  00002PRCP99
0201407340999992000062306004+36500+051570FM-12-002099999V0200801N006012200019N0100001N1+02461+02031101001ADDAA124000091GA1001+999999999GF100991001001999999001001MA1999999101231MD1210031+9999REMSYN088AAXX  23061 40734 32960 00806 10246 20203 30123 40100 52003 90545 333 31017 50351 70000;EQDQ01  00002PRCP24
0209407340999992000062318004+36500+051570FM-12-002099999V0201801N002010300019N0100001N1+02261+02141100911ADDAA199000091GA1051+030009079GF105991051001999999031001GJ107509MA1999999101141MD1310151+9999REMSYN088AAXX  23181 40734 32960 51802 10226 20214 30114 40091 53015 85030 91745 333 55125 85360;EQDQ01  00002PRCP99
0201407340999992000062400004+36500+051570FM-12-002099999V0201901N002012200019N0100001N1+02061+01991100801ADDAA199000091GA1011+007509089GF103991011011008001031001MA1999999101031MD1810081+9999REMSYN088AAXX  24001 40734 32560 31902 10206 20199 30103 40080 58008 81130 92345 333 81825 83360;EQDQ01  00002PRCP99
0215407340999992000062418004+36500+051570FM-12-002099999V0201801N00301036001CN0100001N1+02021+01801101191ADDAA199000091GA1011+007509089GF108991011011008001021999GJ101089MA1999999101421MD1210181+9999REMSYN094AAXX  24181 40734 32560 81803 10202 20180 30142 40119 52018 8112/ 91745 333 55018 81825 88459;EQDQ01  00002PRCP99
0201407340999992000062500004+36500+051570FM-12-002099999V0201801N00301036001CN0100001N1+01961+01771101071ADDAA199000091GA1011+007509089GF107991011011008001071001MA1999999101301MD1710091+9999REMSYN088AAXX  25001 40734 32560 71803 10196 20177 30130 40107 57009 81170 92350 333 81825 87360;EQDQ01  00002PRCP99
0237407340999992000062518004+36500+051570FM-12-002099999V0209999C00001009001CN0100001N1+02161+02021100771ADDAA199000091GA1021+007509099GA2031+009009069GF108991031031008001021999GJ104089MA1999999101001MD1410001+9999REMSYN100AAXX  25181 40734 32560 80000 10216 20202 30100 40077 54000 8332/ 91745 333 55068 82925 83630 88459;EQDQ01  00002PRCP99
0223407340999992000062600004+36500+051570FM-12-002099999V0209999C00001036001CN0100001N1+02041+01971100671ADDAA199000091GA1011+007509099GA2011+009009069GF107991021031008001071001MA1999999100901MD1610101+9999REMSYN094AAXX  26001 40734 32560 70000 10204 20197 30090 40067 56010 82370 92345 333 81925 81630 87360;EQDQ01  00002PRCP99
0200407340999992000062606004+36500+051570FM-12-002099999V0200301N00201036001CN0100001N1+02421+02051100761ADDAA124001391GA1011+009009069GF107991011041008001071001MA1999999100991MD1210091+9999REMSYN106AAXX  26061 40734 32560 70302 10242 20205 30099 40076 52009 81470 90545 333 30019 50391 70012 81630 87359;
0201407340999992000062612004+36500+051570FM-12-002099999V0200301N00301036001CN0100001N1+02461+02091100761ADDAA199000091GA1011+006009089GF107991011011008001071001MA1999999100991MD1410001+9999REMSYN088AAXX  26121 40734 32560 70303 10246 20209 30099 40076 54000 81170 91145 333 81820 87360;EQDQ01  00002PRCP99
0209407340999992000062618004+36500+051570FM-12-002099999V0202101N002012200019N0100001N1+02141+02041100951ADDAA199000091GA1011+009009059GF101991011041008001031001GJ101989MA1999999101181MD1310181+9999REMSYN088AAXX  26181 40734 32560 12102 10214 20204 30118 40095 53018 81430 91750 333 55033 81630;EQDQ01  00002PRCP99
0201407340999992000062700004+36500+051570FM-12-002099999V0201801N00201036001CN0100001N1+02101+02001100971ADDAA199000091GA1031+009009069GF107991031041008001071001MA1999999101201MD1410001+9999REMSYN088AAXX  27001 40734 32560 71802 10210 20200 30120 40097 54000 83470 92350 333 83630 87359;EQDQ01  00002PRCP99
0213407340999992000062706004+36500+051570FM-12-002099999V0200701N003012200019N0100001N1+02501+02051101071ADDAA124000091GA1011+007509029GF102991011011008001031001MA1999999101301MD1110011+9999REMSYN100AAXX  27061 40734 32560 20703 10250 20205 30130 40107 51001 81130 90545 333 30019 50271 70000 81825;EQDQ01  00002PRCP24
0201407340999992000062712004+36500+051570FM-12-002099999V0200801N004012200019N0100001N1+02601+01921100861ADDAA199000091GA1011+007509089GF104991021081008001031001MA1999999101091MD1710111+9999REMSYN088AAXX  27121 40734 32560 40804 10260 20192 30109 40086 57011 82830 91145 333 81825 84360;EQDQ01  00002PRCP99
0179407340999992000062718004+36500+051570FM-12-002099999V0201901N003012200019N0100001N1+02281+02071100781ADDAA199000091GF101991011001999999031001MA1999999101011MD1410001+9999REMSYN082AAXX  27181 40734 32960 11903 10228 20207 30101 40078 54000 81030 91750 333 55075;EQDQ01  00002PRCP99
0213407340999992000062806004+36500+051570FM-12-002099999V0203301N003012200019N0120001N1+02501+02071100861ADDAA124000091GA1011+007509029GF101991011011008001001001MA1999999101091MD1110021+9999REMSYN100AAXX  28061 40734 32562 13303 10250 20207 30109 40086 51002 81100 90545 333 30017 50661 70000 81825;EQDQ01  00002PRCP24
0195407340999992000062812004+36500+051570FM-12-002099999V0200301N004012200019N0120001N1+02661+02221100811ADDAA199000091GA1011+007509059GF101991011041008001031001MA1999999101041MD1610061+9999REMSYN082AAXX  28121 40734 32562 10304 10266 20222 30104 40081 56006 81430 91145 333 81625;EQDQ01  00002PRCP99
0178407340999992000062818004+36500+051570FM-12-002099999V0209999C000012200019N0100001N1+02281+02191999999ADDAA199000091GF103991999999999999999999GJ107029MA1999999101001REMSYN087AAXX  28181 40734 32960 30000 10228 20219 30100 4007 54000 83030 91745 333 55117 83360;EQDQ01  00002PRCP99
0183407340999992000062900004+36500+051570FM-12-002099999V0209999C000012200019N0100001N1+02121+02051100911ADDAA199000091GA1001+999999999GF100991001001999999001001MA1999999101141MD1310041+9999REMSYN070AAXX  29001 40734 32960 00000 10212 20205 30114 40091 53004 92350 333;EQDQ01  00002PRCP99
0191407340999992000062906004+36500+051570FM-12-002099999V0203101N004012200019N0100001N1+02641+02251101111ADDAA124000091GF101991011011008001001001MA1999999101341MD1310041+9999REMSYN094AAXX  29061 40734 32560 13104 10264 20225 30134 40111 53004 81100 90545 333 30018 50701 70000;EQDQ01  00002PRCP24
0189407340999992000062918004+36500+051570FM-12-002099999V0202101N002012200019N0100001N1+02261+02141101071ADDAA199000091GA1001+999999999GF100991001001999999001001MA1999999101301MD1310081+9999REMSYN076AAXX  29181 40734 32960 02102 10226 20214 30130 40107 53008 91745 333 55110;EQDQ01  00002PRCP99
0153407340999992000063000004+36500+051570FM-12-002099999V0202101N002012200019N0100001N1+02181+02041999999ADDAA199000091GA1001+999999999GF100991001001999999001001REMSYN069AAXX  30001 40734 32960 02102 10218 20204 3012 40097 58006 92345 333;EQDQ01  00002PRCP99
0191407340999992000063006004+36500+051570FM-12-002099999V0202801N004012200019N0100001N1+02741+02121101021ADDAA124000091GF101991011001999999031001MA1999999101251MD1110021+9999REMSYN094AAXX  30061 40734 32960 12804 10274 20212 30125 40102 51002 81030 90545 333 30018 50701 70000;EQDQ01  00002PRCP24
0195407340999992000063012004+36500+051570FM-12-002099999V0203301N004012200019N0100001N1+02721+02351100891ADDAA199000091GA1021+030009079GF102991021001999999031001MA1999999101121MD1710131+9999REMSYN082AAXX  30121 40734 32960 23304 10272 20235 30112 40089 57013 82030 91145 333 82360;EQDQ01  00002PRCP99
0215407340999992000063018004+36500+051570FM-12-002099999V0209999C000012200019N0100001N1+02401+02241100871ADDAA199000091GA1011+009009089GF104991011021008001031001GJ106849MA1999999101101MD1310101+9999REMSYN094AAXX  30181 40734 32560 40000 10240 20224 30110 40087 53010 81230 91745 333 55114 81830 84360;EQDQ01  00002PRCP99
0201407340999992000070100004+36500+051570FM-12-002099999V0209999C000012200019N0100001N1+02201+02011100851ADDAA199000091GA1011+006009089GF104991041081008001001001MA1999999101081MD1410001+9999REMSYN088AAXX  01001 40734 32560 40000 10220 20201 30108 40085 54000 84800 92345 333 81820 84630;EQDQ01  00002PRCP99
0213407340999992000070106004+36500+051570FM-12-002099999V0202501N004012200019N0100001N1+02661+02241100981ADDAA124000091GA1021+009009059GF102991021041008001001001MA1999999101211MD1110111+9999REMSYN100AAXX  01061 40734 32560 22504 10266 20224 30121 40098 51011 82400 90545 333 30020 50661 70000 82630;EQDQ01  00002PRCP24
0211407340999992000070112004+36500+051570FM-12-002099999V0200501N003012200019N0100001N1+02761+02091100811ADDAA199000091GA1011+009009059GF102991999001999999001021MA1999999101041MD1710151+9999REMSYN082AAXX  01121 40734 32960 20503 10276 20209 30104 40081 57015 80002 91145 333 81630;EQDQ01+000002SCOTLCQ02  00002PRCP99
0209407340999992000070118004+36500+051570FM-12-002099999V0201901N002012200019N0100001N1+02421+02261100671ADDAA199000091GA1031+030009079GF103991031001999999031001GJ106009MA1999999100901MD1410001+9999REMSYN088AAXX  01181 40734 32960 31902 10242 20226 30090 40067 54000 83030 91745 333 55100 83360;EQDQ01  00002PRCP99
0211407340999992000070200004+36500+051570FM-12-002099999V0201201N002010540019N0100001N1+02281+02121100471ADDAA199000091GA1061+054009089GF106991999001999999001061MA1999999100701MD1610071+9999REMSYN082AAXX  02001 40734 32960 61202 10228 20212 30070 40047 56007 80006 92350 333 86268;EQDQ01+000002SCOTLCQ02  00002PRCP99
0213407340999992000070206004+36500+051570FM-12-002099999V0202901N007012200019N0100001N1+02721+02151100761ADDAA124000091GA1011+007509029GF102991011021008001031021MA1999999100991MD1210191+9999REMSYN100AAXX  02061 40734 32560 22907 10272 20215 30099 40076 52019 81232 90545 333 30021 50571 70000 81825;EQDQ01  00002PRCP24
0195407340999992000070212004+36500+051570FM-12-002099999V0202701N007012200019N0100001N1+02821+02291100791ADDAA199000091GA1011+007509029GF101991011011008001031001MA1999999101021MD1810031+9999REMSYN082AAXX  02121 40734 32560 12707 10282 20229 30102 40079 58003 81130 91145 333 81825;EQDQ01  00002PRCP99
0184407340999992000070218004+36500+051570FM-12-002099999V0201801N005012200019N0100001N1+02521+02191100881ADDAA199000091GF101991011041012501031001MA1999999101111MD1110131+9999REMSYN087AAXX  02181 40734 32660 11805 10252 20219 30111 40088 51013 81430 91745 333 5078 81360;EQDQ01  00002PRCP99
0256407340999992000070306004+36500+051570FM-12-002099999V0202701N00601036001CN0100001N1+02501+02071101191ADDAA106000391AY181061AY221061GA1011+007509099GA2021+009009069GF107991021031008001071001MA1999999101421MD1010001+9999MW1021REMSYN124AAXX  03061 40734 11560 72706 10250 20207 30142 40119 50000 69931 70282 82370 90545 333 30022 50691 70003 81925 82630 87359;
0201407340999992000070312004+36500+051570FM-12-002099999V0202801N00501036001CN0100001N1+02741+01871101081ADDAA199000091GA1011+007509089GF106991021081008001071001MA1999999101311MD1710141+9999REMSYN088AAXX  03121 40734 32560 62805 10274 20187 30131 40108 57014 82870 91150 333 81825 86360;EQDQ01  00002PRCP99
0201407340999992000070400004+36500+051570FM-12-002099999V0202101N002012200019N0100001N1+02321+01851101071ADDAA199000091GA1011+009009089GF103991011011008001031001MA1999999101301MD1410001+9999REMSYN088AAXX  04001 40734 32560 32102 10232 20185 30130 40107 54000 81130 92345 333 81830 83360;EQDQ01  00002PRCP99
0219407340999992000070406004+36500+051570FM-12-002099999V0202801N00501036001CN0100001N1+02541+02111101261ADDAA124000091GA1021+009009069GF105991021041008001071001MA1999999101491MD1110071+9999REMSYN106AAXX  04061 40734 32560 52805 10254 20211 30149 40126 51007 82470 90550 333 30020 50531 70000 82630 85360;EQDQ01  00002PRCP24
0201407340999992000070412004+36500+051570FM-12-002099999V0202801N00601036001CN0100001N1+02681+02111101171ADDAA199000091GA1031+010509069GF107991031041012501071001MA1999999101401MD1810081+9999REMSYN088AAXX  04121 40734 32660 72806 10268 20211 30140 40117 58008 83470 91150 333 83635 87360;EQDQ01  00002PRCP99
0237407340999992000070418004+36500+051570FM-12-002099999V0201601N00201036001CN0100001N1+02261+02081101071ADDAA199000091GA1011+009009099GA2021+012009069GF107991021031008001071001GJ100669MA1999999101301MD1410001+9999REMSYN100AAXX  04181 40734 32560 71602 10226 20208 30130 40107 54000 82370 91745 333 55011 81930 82640 87360;EQDQ01  00002PRCP99
0223407340999992000070500004+36500+051570FM-12-002099999V0209999C000012200019N0100001N1+02061+01961101021ADDAA199000091GA1011+009009099GA2011+012009069GF104991011031008001031001MA1999999101251MD1810051+9999REMSYN094AAXX  05001 40734 32560 40000 10206 20196 30125 40102 58005 81330 92345 333 81930 81640 83360;EQDQ01  00002PRCP99
0219407340999992000070506004+36500+051570FM-12-002099999V0203301N004012200019N0100001N1+02661+02131101121ADDAA124000091GA1011+000309019GF103991011011008001001011MA1999999101351MD1110031+9999REMSYN106AAXX  05061 40734 32560 33304 10266 20213 30135 40112 51003 81101 90545 333 30019 50661 70000 81830 83070;EQDQ01  00002PRCP24
0201407340999992000070512004+36500+051570FM-12-002099999V0203301N002012200019N0100001N1+02661+02311100901ADDAA199000091GA1021+009009019GF103991021011008001031001MA1999999101131MD1810171+9999REMSYN088AAXX  05121 40734 32560 33302 10266 20231 30113 40090 58017 82130 91145 333 82830 83360;EQDQ01  00002PRCP99
0209407340999992000070518004+36500+051570FM-12-002099999V0201701N002012200019N0100001N1+02341+02251100971ADDAA199000091GA1011+010509059GF102991011041012501031001GJ105529MA1999999101201MD1310081+9999REMSYN088AAXX  05181 40734 32660 21702 10234 20225 30120 40097 53008 81430 91750 333 55092 81635;EQDQ01  00002PRCP99
0195407340999992000070600004+36500+051570FM-12-002099999V0201901N002012200019N0100001N1+02121+02051100931ADDAA199000091GA1011+009009059GF102991011041008001031001MA1999999101161MD1410001+9999REMSYN082AAXX  06001 40734 32560 21902 10212 20205 30116 40093 54000 81430 92350 333 81630;EQDQ01  00002PRCP99
0219407340999992000070606004+36500+051570FM-12-002099999V0202601N005012200019N0100001N1+02661+02371101071ADDAA124000091GA1011+007509089GF104991041081008001001001MA1999999101301MD1010041+9999REMSYN106AAXX  06061 40734 32560 42605 10266 20237 30130 40107 50004 84800 90545 333 30019 50441 70000 81825 84630;EQDQ01  00002PRCP24
0223407340999992000070612004+36500+051570FM-12-002099999V0200601N00201036001CN0100001N1+02641+02351100991ADDAA199000091GA1011+007509099GA2021+009009069GF107991021031008001071001MA1999999101221MD1810081+9999REMSYN094AAXX  06121 40734 32560 70602 10264 20235 30122 40099 58008 82370 91145 333 81925 82630 87360;EQDQ01  00002PRCP99
0215407340999992000070618004+36500+051570FM-12-002099999V0202401N00201036001CN0100001N1+02401+02281100861ADDAA199000091GA1011+009009069GF106991011041008001031001GJ103249MA1999999101091MD1610011+9999REMSYN094AAXX  06181 40734 32560 62402 10240 20228 30109 40086 56001 81430 91745 333 55054 81630 86361;EQDQ01  00002PRCP99
0182407340999992000070706004+36500+051570FM-12-002099999V0200101N004012200019N0100001N1+02701+02351100641ADDAA124000591GA1001+999999999GF100991001001999999001001MA1999999100871MD1710081+9999REMSYN088AAXX  07061 40734 32960 00104 10270 20235 30087 40064 57008 90550 333 30021 50401 70005;
0195407340999992000070712004+36500+051570FM-12-002099999V0200601N005012200019N0100001N1+02841+02401100441ADDAA199000091GA1011+007509029GF101991011011008001001001MA1999999100671MD1710131+9999REMSYN082AAXX  07121 40734 32560 10605 10284 20240 30067 40044 57013 81100 91145 333 81825;EQDQ01  00002PRCP99
0179407340999992000070718004+36500+051570FM-12-002099999V0201801N003012200019N0100001N1+02521+02461100271ADDAA199000091GF101991011001999999031001MA1999999100501MD1610031+9999REMSYN082AAXX  07181 40734 32960 11803 10252 20246 30050 40027 56003 81030 91745 333 55108;EQDQ01  00002PRCP99
0183407340999992000070800004+36500+051570FM-12-002099999V0201201N002012200019N0100001N1+02281+02121100311ADDAA199000091GA1001+999999999GF100991001001999999001001MA1999999100541MD1710011+9999REMSYN070AAXX  08001 40734 32960 01202 10228 20212 30054 40031 57001 92345 333;EQDQ01  00002PRCP99
0241407340999992000070806004+36500+051570FM-12-002099999V0202801N01001036001CN0100001N1+02741+02371100471ADDAA124000091GA1011+006009089GA2011+009009099GF106991021031008001071001MA1999999100701MD1310101+9999REMSYN112AAXX  08061 40734 32560 62810 10274 20237 30070 40047 53010 82370 90545 333 30021 50531 70000 81820 81930 86360;EQDQ01  00002PRCP24
0201407340999992000070812004+36500+051570FM-12-002099999V0202701N00301036001CN0100001N1+02681+02111100521ADDAA199000091GA1011+007509089GF107991021081008001071001MA1999999100751MD1810061+9999REMSYN088AAXX  08121 40734 32560 72703 10268 20211 30075 40052 58006 82870 91145 333 81825 87359;EQDQ01  00002PRCP99
0237407340999992000070818004+36500+051570FM-12-002099999V0201501N00201036001CN0100001N1+02461+02231100701ADDAA199000091GA1011+007509099GA2021+009009069GF107991031031008001021001GJ102469MA1999999100931MD1010131+9999REMSYN100AAXX  08181 40734 32560 71502 10246 20223 30093 40070 50013 83320 91745 333 55041 81925 82630 87459;EQDQ01  00002PRCP99
0223407340999992000070900004+36500+051570FM-12-002099999V0202701N00401036001CN0100001N1+02421+02161100701ADDAA199000091GA1011+007509099GA2021+009009069GF107991031031008001021001MA1999999100931MD1310081+9999REMSYN094AAXX  09001 40734 32560 72704 10242 20216 30093 40070 53008 83320 92345 333 81925 82630 87459;EQDQ01  00002PRCP99
0215407340999992000070918004+36500+051570FM-12-002099999V0202401N00201036001CN0100001N1+02421+01991100791ADDAA199000091GA1011+006009089GF105991011021008001031001GJ105049MA1999999101021MD1310111+9999REMSYN094AAXX  09181 40734 32560 52402 10242 20199 30102 40079 53011 81230 91745 333 55084 81820 85360;EQDQ01  00002PRCP99
0195407340999992000071000004+36500+051570FM-12-002099999V0201901N002012200019N0100001N1+02241+02091100771ADDAA199000091GA1021+030009079GF102991021001999999031001MA1999999101001MD1610021+9999REMSYN082AAXX  10001 40734 32960 21902 10224 20209 30100 40077 56002 82030 92350 333 82360;EQDQ01  00002PRCP99
0213407340999992000071006004+36500+051570FM-12-002099999V0203201N005012200019N0100001N1+02641+02231100751ADDAA124000091GA1021+007509029GF102991021021008001001001MA1999999100981MD1810041+9999REMSYN100AAXX  10061 40734 32560 23205 10264 20223 30098 40075 58004 82200 90545 333 30019 50621 70000 82825;EQDQ01  00002PRCP24
0201407340999992000071012004+36500+051570FM-12-002099999V0203301N00301036001CN0120001N1+02701+02171100511ADDAA199000091GA1011+009009069GF105991011041008001031001MA1999999100741MD1710161+9999REMSYN088AAXX  10121 40734 32562 53303 10270 20217 30074 40051 57016 81430 91145 333 81630 85360;EQDQ01  00002PRCP99
0219407340999992000071106004+36500+051570FM-12-002099999V0209999C00001036001CN0100001N1+02661+02211100571ADDAA124000091GA1031+007509069GF107991031051008001071001MA1999999100801MD1010001+9999REMSYN106AAXX  11061 40734 32560 70000 10266 20221 30080 40057 50000 83570 90550 333 30022 50441 70000 83625 86359;EQDQ01  00002PRCP24
0201407340999992000071112004+36500+051570FM-12-002099999V0203601N006012200019N0100001N1+02741+02301100401ADDAA199000091GA1021+006009089GF104991021011008001031001MA1999999100631MD1710141+9999REMSYN088AAXX  11121 40734 32560 43606 10274 20230 30063 40040 57014 82130 91150 333 82820 84358;EQDQ01  00002PRCP99
0237407340999992000071118004+36500+051570FM-12-002099999V0202401N00401036001CN0100001N1+02481+02111100511ADDAA199000091GA1011+007509099GA2031+009009069GF107991031031008001061001GJ101269MA1999999100741MD1310091+9999REMSYN100AAXX  11181 40734 32560 72404 10248 20211 30074 40051 53009 83360 91745 333 55021 81925 83630 87359;EQDQ01  00002PRCP99
0195407340999992000071200004+36500+051570FM-12-002099999V0202301N002012200019N0100001N1+02341+02131100561ADDAA199000091GA1011+009009059GF101991011041008001001001MA1999999100791MD1310071+9999REMSYN082AAXX  12001 40734 32560 12302 10234 20213 30079 40056 53007 81400 92345 333 81630;EQDQ01  00002PRCP99
0219407340999992000071206004+36500+051570FM-12-002099999V0200201N003019999999N0100001N1+02821+02201100771ADDAA124000091GA1021+009009089GF105991021011999999031001MA1999999101001MD1110041+9999REMSYN106AAXX  12061 40734 32960 50203 10282 20220 30100 40077 51004 82130 90545 333 30022 50441 70000 82830 85360;EQDQ01  00002PRCP24
0201407340999992000071212004+36500+051570FM-12-002099999V0203301N00501036001CN0100001N1+02781+02161100921ADDAA199000091GA1021+009009089GF105991021011008001031001MA1999999101151MD1110021+9999REMSYN088AAXX  12121 40734 32560 53305 10278 20216 30115 40092 51002 82130 91145 333 82830 85360;EQDQ01  00002PRCP99
0237407340999992000071218004+36500+051570FM-12-002099999V0202601N00301090001CN0100001N1+02461+02171101121ADDAA199000091GA1011+010509069GA2031+027009039GF106991011041012501071061GJ102109MA1999999101351MD1310151+9999REMSYN100AAXX  12181 40734 32660 62603 10246 20217 30135 40112 53015 81476 91750 333 55035 81635 83359 86268;EQDQ01  00002PRCP99
0201407340999992000071300004+36500+051570FM-12-002099999V0202901N00201036001CN0100001N1+02461+02171101121ADDAA199000091GA1011+009009069GF106991011041008001071001MA1999999101351MD1410001+9999REMSYN088AAXX  13001 40734 32560 62902 10246 20217 30135 40112 54000 81470 92350 333 81630 86359;EQDQ01  00002PRCP99
0256407340999992000071306004+36500+051570FM-12-002099999V02099999999990180019N0080001N1+02241+02091100131ADDAA106002091AY181061AY221061GA1011+009009099GA2061+018009039GF107991031031008001021999MA1999999101551MD1310071+9999MW1251REMSYN124AAXX  13061 40734 11558 7203/ 10224 20209 30155 40013 53007 60021 72582 8332/ 90545 333 31021 50521 70021 81930 86356 88459;
0195407340999992000071312004+36500+051570FM-12-002099999V0203301N004012200019N0120001N1+02721+02191101192ADDAA199000021GA1011+009009059GF102991011041008001031001MA1999999101421MD1810121+9999REMSYN082AAXX  13121 40734 32562 23304 10272 20219 30142 40119 58012 81430 91145 333 81630;EQDQ01+101193APOSLP
0183407340999992000071400004+36500+051570FM-12-002099999V0202101N002012200019N0100001N1+02161+02021100971ADDAA199000091GA1001+999999999GF100991001001999999001001MA1999999101201MD1710141+9999REMSYN070AAXX  14001 40734 32960 02102 10216 20202 30120 40097 57014 92350 333;EQDQ01  00002PRCP99
0194407340999992000071406004+36500+051570FM-12-002099999V0200501N004012200019N0120001N1+02661+02021100801ADDAA124000021GA1011+006009029GF101991011011008001001001MA1999999101031MD1710131+9999REMSYN100AAXX  14061 40734 32562 10504 10266 20202 30103 40080 57013 81100 90545 333 30019 50401 70000 81820;
0201407340999992000071412004+36500+051570FM-12-002099999V0200701N00501036001CN0100001N1+02721+02221100591ADDAA199000091GA1011+007509089GF105991011021008001071001MA1999999100821MD1710121+9999REMSYN088AAXX  14121 40734 32560 50705 10272 20222 30082 40059 57012 81270 91145 333 81825 85359;EQDQ01  00002PRCP99
0189407340999992000071418004+36500+051570FM-12-002099999V0201601N002012200019N0100001N1+02421+02261100471ADDAA199000091GA1001+999999999GF100991001001999999001001MA1999999100701MD1310021+9999REMSYN076AAXX  14181 40734 32960 01602 10242 20226 30070 40047 53002 91750 333 55089;EQDQ01  00002PRCP99
0201407340999992000071500004+36500+051570FM-12-002099999V0202401N00201036001CN0100001N1+02401+02281100571ADDAA199000091GA1021+006009089GF105991021021008001071001MA1999999100801MD1510051+9999REMSYN088AAXX  15001 40734 32560 52402 10240 20228 30080 40057 55005 82270 92350 333 82820 85359;EQDQ01  00002PRCP99
0213407340999992000071506004+36500+051570FM-12-002099999V0203601N003012200019N0100001N1+02801+02251100801ADDAA124000091GA1021+006009029GF102991021011008001001001MA1999999101031MD1110131+9999REMSYN100AAXX  15061 40734 32560 23603 10280 20225 30103 40080 51013 82100 90550 333 30022 50531 70000 82820;EQDQ01  00002PRCP24
0195407340999992000071512004+36500+051570FM-12-002099999V0200101N004012200019N0100001N1+02861+02371100821ADDAA199000091GA1011+006009029GF101991011011008001001001MA1999999101051MD1810031+9999REMSYN082AAXX  15121 40734 32560 10104 10286 20237 30105 40082 58003 81100 91145 333 81820;EQDQ01  00002PRCP99
0195407340999992000071600004+36500+051570FM-12-002099999V0202101N002012200019N0100001N1+02301+02141100771ADDAA199000091GA1021+030009079GF102991021001999999031001MA1999999101001MD1410001+9999REMSYN082AAXX  16001 40734 32960 22102 10230 20214 30100 40077 54000 82030 92345 333 82360;EQDQ01  00002PRCP99
0213407340999992000071606004+36500+051570FM-12-002099999V0200301N003012200019N0120001N1+02801+02321100861ADDAA124000091GA1011+006009029GF101991011011008001001001MA1999999101091MD1110051+9999REMSYN100AAXX  16061 40734 32562 10303 10280 20232 30109 40086 51005 81100 90545 333 30020 50661 70000 81820;EQDQ01  00002PRCP24
0195407340999992000071612004+36500+051570FM-12-002099999V0203601N002012200019N0120001N1+02901+02391100891ADDAA199000091GA1011+009009059GF102991011041008001031001MA1999999101121MD1610021+9999REMSYN082AAXX  16121 40734 32562 23602 10290 20239 30112 40089 56002 81430 91145 333 81630;EQDQ01  00002PRCP99
0189407340999992000071618004+36500+051570FM-12-002099999V0201801N002012200019N0100001N1+02521+02431100881ADDAA199000091GA1001+999999999GF100991001001999999001001MA1999999101111MD1310081+9999REMSYN076AAXX  16181 40734 32960 01802 10252 20243 30111 40088 53008 91745 333 55118;EQDQ01  00002PRCP99
0195407340999992000071700004+36500+051570FM-12-002099999V0201801N002012200019N0100001N1+02421+02241100921ADDAA199000091GA1031+007509059GF103991031041008001001001MA1999999101151MD1310071+9999REMSYN082AAXX  17001 40734 32560 31802 10242 20224 30115 40092 53007 83400 92350 333 83625;EQDQ01  00002PRCP99
0201407340999992000071706004+36500+051570FM-12-002099999V0203601N003012200019N0120001N1+02861+02251101151ADDAA124000091GA1001+999999999GF100991001001999999001001MA1999999101371MD1210111+9999REMSYN088AAXX  17061 40734 32962 03603 10286 20225 30137 40115 52011 90550 333 30021 50531 70000;EQDQ01  00002PRCP24
0195407340999992000071712004+36500+051570FM-12-002099999V0200301N005012200019N0120001N1+03001+02461101001ADDAA199000091GA1031+006009029GF103991031011008001001001MA1999999101231MD1810031+9999REMSYN082AAXX  17121 40734 32562 30305 10300 20246 30123 40100 58003 83100 91150 333 83820;EQDQ01  00002PRCP99
0189407340999992000071718004+36500+051570FM-12-002099999V0201901N002012200019N0100001N1+02481+02341100971ADDAA199000091GA1001+999999999GF100991001001999999001001MA1999999101201MD1310051+9999REMSYN076AAXX  17181 40734 32960 01902 10248 20234 30120 40097 53005 91745 333 55122;EQDQ01  00002PRCP99
0183407340999992000071800004+36500+051570FM-12-002099999V0201801N003012200019N0100001N1+02241+02091100871ADDAA199000091GA1001+999999999GF100991001001999999001001MA1999999101101MD1610051+9999REMSYN070AAXX  18001 40734 32960 01803 10224 20209 30110 40087 56005 92350 333;EQDQ01  00002PRCP99
0195407340999992000071812004+36500+051570FM-12-002099999V0200301N004012200019N0100001N1+02961+02511100771ADDAA199000091GA1021+006009029GF102991021011008001001001MA1999999101001MD1810081+9999REMSYN082AAXX  18121 40734 32560 20304 10296 20251 30100 40077 58008 82100 91145 333 82820;EQDQ01  00002PRCP99
0213407340999992000071906004+36500+051570FM-12-002099999V0203601N003012200019N0100001N1+02821+02341100971ADDAA124000091GA1011+006009029GF101991011011008001001001MA1999999101201MD1210101+9999REMSYN100AAXX  19061 40734 32560 13603 10282 20234 30120 40097 52010 81100 90545 333 30019 50701 70000 81820;EQDQ01  00002PRCP24
0195407340999992000071912004+36500+051570FM-12-002099999V0200301N003012200019N0100001N1+02941+02361100841ADDAA199000091GA1011+006009029GF101991011011008001001001MA1999999101071MD1810081+9999REMSYN082AAXX  19121 40734 32560 10303 10294 20236 30107 40084 58008 81100 91145 333 81820;EQDQ01  00002PRCP99
0183407340999992000072000004+36500+051570FM-12-002099999V0201901N001012200019N0100001N1+02201+01981100601ADDAA199000091GA1001+999999999GF100991001001999999001001MA1999999100931MD1610071+9999REMSYN070AAXX  20001 40734 32960 01901 10220 20198 30093 40060 56007 92345 333;EQDQ01  00002PRCP99
0201407340999992000072006004+36500+051570FM-12-002099999V0203401N004012200019N0100001N1+02801+02341100781ADDAA124000091GA1001+999999999GF100991001001999999001001MA1999999101011MD1110021+9999REMSYN088AAXX  20061 40734 32960 03404 10280 20234 30101 40078 51002 90550 333 30019 50621 70000;EQDQ01  00002PRCP24
0183407340999992000072012004+36500+051570FM-12-002099999V0200401N003012200019N0100001N1+02961+02421100691ADDAA199000091GA1001+999999999GF100991001001999999001001MA1999999100921MD1810081+9999REMSYN070AAXX  20121 40734 32960 00403 10296 20242 30092 40069 58008 91150 333;EQDQ01  00002PRCP99
0303407340999992000072018004+36500+051570FM-12-002099999V0209999C000012200019N0100001N1+02521+02401100701ADDAA199000091GA1001+999999999GF100991001001999999001001GJ107329KA1120M+99999KA2120N+02161MA1999999100931MD1110031+9999REMSYN140AAXX  20181 40734 32960 00000 10252 20240 30093 40070 51003 91745 333 55122 40737 32960 00000 10234 20216 30059 40077 53013 91745 333 55125;EQDQ01  00002PRCP99Q02 +02342ATMX  
0183407340999992000072100004+36500+051570FM-12-002099999V0201901N002012200019N0100001N1+02201+02121100761ADDAA199000091GA1001+999999999GF100991001001999999001001MA1999999100991MD1510011+9999REMSYN070AAXX  21001 40734 32960 01902 10220 20212 30099 40076 55001 92345 333;EQDQ01  00002PRCP99
0201407340999992000072106004+36500+051570FM-12-002099999V0202701N005012200019N0120001N1+02881+02411100981ADDAA124000091GA1001+999999999GF100991001001999999001001MA1999999101211MD1210121+9999REMSYN088AAXX  21061 40734 32962 02705 10288 20241 30121 40098 52012 90545 333 30020 50621 70000;EQDQ01  00002PRCP24
0183407340999992000072412004+36500+051570FM-12-002099999V0203401N004012200019N0100001N1+03001+02481100941ADDAA199000091GA1001+999999999GF100991001001999999001001MA1999999101171MD1810031+9999REMSYN070AAXX  24121 40734 32960 03404 10300 20248 30117 40094 58003 91150 333;EQDQ01  00002PRCP99
0189407340999992000072418004+36500+051570FM-12-002099999V0201801N002012200019N0100001N1+02441+02261101001ADDAA199000091GA1001+999999999GF100991001001999999001001MA1999999101231MD1110031+9999REMSYN076AAXX  24181 40734 32960 01802 10244 20226 30123 40100 51003 91745 333 55126;EQDQ01  00002PRCP99
0153407340999992000072421004+36500+051570FM-12-002099999V0201701N002012200019N0100001N1+02181+01991101001ADDGA1001+999999999GF100991001001999999001001MA1999999101231MD1410001+9999REMSYN070AAXX  24211 40734 42960 01702 10218 20199 30123 40100 54000 92045 333;
0183407340999992000072500004+36500+051570FM-12-002099999V0202101N003012200019N0100001N1+02081+01861101001ADDAA199000091GA1001+999999999GF100991001001999999001001MA1999999101231MD1410001+9999REMSYN070AAXX  25001 40734 32960 02103 10208 20186 30123 40100 54000 92350 333;EQDQ01  00002PRCP99
0195407340999992000072512004+36500+051570FM-12-002099999V0203301N004012200019N0150001N1+03001+02531101271ADDAA199000091GA1011+006009029GF101991011011008001001001MA1999999101501MD1810051+9999REMSYN082AAXX  25121 40734 32565 13304 10300 20253 30150 40127 58005 81100 91150 333 81820;EQDQ01  00002PRCP99
0189407340999992000072518004+36500+051570FM-12-002099999V0201901N003012200019N0100001N1+02501+02321101301ADDAA199000091GA1001+999999999GF100991001001999999001001MA1999999101531MD1210081+9999REMSYN076AAXX  25181 40734 32960 01903 10250 20232 30153 40130 52008 91745 333 55117;EQDQ01  00002PRCP99
0183407340999992000072600004+36500+051570FM-12-002099999V0201701N003012200019N0100001N1+02221+01731101271ADDAA199000091GA1001+999999999GF100991001001999999001001MA1999999101501MD1610031+9999REMSYN070AAXX  26001 40734 32960 01703 10222 20173 30150 40127 56003 92345 333;EQDQ01  00002PRCP99
0201407340999992000072606004+36500+051570FM-12-002099999V0203601N004012200019N0100001N1+02921+02241101431ADDAA124000091GA1001+999999999GF100991001001999999001001MA1999999101661MD1110061+9999REMSYN088AAXX  26061 40734 32960 03604 10292 20224 30166 40143 51006 90550 333 30017 50701 70000;EQDQ01  00002PRCP24
0195407340999992000072612004+36500+051570FM-12-002099999V0200301N002012200019N0100001N1+02981+02321101271ADDAA199000091GA1011+006009029GF101991011011008001001001MA1999999101501MD1810141+9999REMSYN082AAXX  26121 40734 32560 10302 10298 20232 30150 40127 58014 81100 91145 333 81820;EQDQ01  00002PRCP99
0189407340999992000072618004+36500+051570FM-12-002099999V0201501N001012200019N0100001N1+02481+02341101261ADDAA199000091GA1001+999999999GF100991001001999999001001MA1999999101491MD1310091+9999REMSYN076AAXX  26181 40734 32960 01501 10248 20234 30149 40126 53009 91745 333 55123;EQDQ01  00002PRCP99
0183407340999992000072700004+36500+051570FM-12-002099999V0201801N002012200019N0100001N1+02301+02181101071ADDAA199000091GA1001+999999999GF100991001001999999001001MA1999999101301MD1610101+9999REMSYN070AAXX  27001 40734 32960 01802 10230 20218 30130 40107 56010 92345 333;EQDQ01  00002PRCP99
0201407340999992000072706004+36500+051570FM-12-002099999V0200301N003012200019N0100001N1+02861+02351101141ADDAA124000091GA1001+999999999GF100991001001999999001001MA1999999101371MD1010001+9999REMSYN088AAXX  27061 40734 32960 00303 10286 20235 30137 40114 50000 90550 333 30019 50531 70000;EQDQ01  00002PRCP24
0195407340999992000072712004+36500+051570FM-12-002099999V0200501N004012200019N0100001N1+03001+02291100971ADDAA199000091GA1011+006009029GF101991011011008001001001MA1999999101201MD1810101+9999REMSYN082AAXX  27121 40734 32560 10504 10300 20229 30120 40097 58010 81100 91145 333 81820;EQDQ01  00002PRCP99
0189407340999992000072718004+36500+051570FM-12-002099999V0201801N002012200019N0100001N1+02541+02401100911ADDAA199000091GA1001+999999999GF100991001001999999001001MA1999999101141MD1310031+9999REMSYN076AAXX  27181 40734 32960 01802 10254 20240 30114 40091 53003 91745 333 55123;EQDQ01  00002PRCP99
0183407340999992000072800004+36500+051570FM-12-002099999V0201701N003012200019N0100001N1+02041+01891100771ADDAA199000091GA1001+999999999GF100991001001999999001001MA1999999101001MD1610041+9999REMSYN070AAXX  28001 40734 32960 01703 10204 20189 30100 40077 56004 92345 333;EQDQ01  00002PRCP99
0201407340999992000072806004+36500+051570FM-12-002099999V0202901N005012200019N0120001N1+02941+02191100901ADDAA124000091GA1001+999999999GF100991001001999999001001MA1999999101131MD1110061+9999REMSYN088AAXX  28061 40734 32962 02905 10294 20219 30113 40090 51006 90550 333 30017 50661 70000;EQDQ01  00002PRCP24
0183407340999992000072812004+36500+051570FM-12-002099999V0200401N004012200019N0120001N1+03061+02481100771ADDAA199000091GA1001+999999999GF100991001001999999001001MA1999999101001MD1710081+9999REMSYN070AAXX  28121 40734 32962 00404 10306 20248 30100 40077 57008 91150 333;EQDQ01  00002PRCP99
0189407340999992000072818004+36500+051570FM-12-002099999V0201301N002012200019N0100001N1+02501+02241100711ADDAA199000091GA1001+999999999GF100991001001999999001001MA1999999100941MD1410001+9999REMSYN076AAXX  28181 40734 32960 01302 10250 20224 30094 40071 54000 91750 333 55126;EQDQ01  00002PRCP99
0183407340999992000072900004+36500+051570FM-12-002099999V0202001N003012200019N0120001N1+02001+01601100711ADDAA199000091GA1001+999999999GF100991001001999999001001MA1999999100941MD1410001+9999REMSYN070AAXX  29001 40734 32962 02003 10200 20160 30094 40071 54000 92345 333;EQDQ01  00002PRCP99
0201407340999992000072906004+36500+051570FM-12-002099999V0203101N005012200019N0120001N1+03041+02531101051ADDAA124000091GA1001+999999999GF100991001001999999001001MA1999999101281MD1110101+9999REMSYN088AAXX  29061 40734 32962 03105 10304 20253 30128 40105 51010 90545 333 30016 50661 70000;EQDQ01  00002PRCP24
0183407340999992000072912004+36500+051570FM-12-002099999V0203501N004012200019N0120001N1+03121+02611101111ADDAA199000091GA1001+999999999GF100991001001999999001001MA1999999101341MD1510021+9999REMSYN070AAXX  29121 40734 32962 03504 10312 20261 30134 40111 55002 91145 333;EQDQ01  00002PRCP99
0189407340999992000072918004+36500+051570FM-12-002099999V0209999C000012200019N0100001N1+02621+02331101231ADDAA199000091GA1001+999999999GF100991001001999999001001MA1999999101461MD1210121+9999REMSYN076AAXX  29181 40734 32960 00000 10262 20233 30146 40123 52012 91750 333 55125;EQDQ01  00002PRCP99
0183407340999992000073000004+36500+051570FM-12-002099999V0209999C000012200019N0100001N1+02221+01941101301ADDAA199000091GA1001+999999999GF100991001001999999001001MA1999999101531MD1110031+9999REMSYN070AAXX  30001 40734 32960 00000 10222 20194 30153 40130 51003 92350 333;EQDQ01  00002PRCP99
0201407340999992000073006004+36500+051570FM-12-002099999V0203001N005012200019N0100001N1+03021+02241101571ADDAA124000091GA1001+999999999GF100991001001999999001001MA1999999101801MD1210171+9999REMSYN088AAXX  30061 40734 32960 03005 10302 20224 30180 40157 52017 90450 333 30017 50901 70000;EQDQ01  00002PRCP24
0147407340999992000073012004+36500+051570FM-12-002099999V0203501N003019999999N0120001N1+03061+02591101501ADDAA199000091MA1999999101731MD1410001+9999REMSYN076AAXX  30121 40734 32562 /3503 10306 20259 30173 40150 54000 81100 91150 333;EQDQ01  00002PRCP99
0189407340999992000073018004+36500+051570FM-12-002099999V0209999C000012200019N0100001N1+02541+02421101461ADDAA199000091GA1001+999999999GF100991001001999999001001MA1999999101691MD1110041+9999REMSYN076AAXX  30181 40734 32960 00000 10254 20242 30169 40146 51004 91745 333 55122;EQDQ01  00002PRCP99
0183407340999992000073112004+36500+051570FM-12-002099999V0200301N002012200019N0150001N1+03161+02391101071ADDAA199000091GA1001+999999999GF100991001001999999001001MA1999999101301MD1810161+9999REMSYN070AAXX  31121 40734 32965 00302 10316 20239 30130 40107 58016 91145 333;EQDQ01  00002PRCP99
0201407340999992000080206004+36500+051570FM-12-002099999V0209999C000012200019N0150001N1+03081+02631100521ADDAA124000091GA1001+999999999GF100991001001999999001001MA1999999100751MD1110101+9999REMSYN088AAXX  02061 40734 32965 00000 10308 20263 30075 40052 51010 90545 333 30019 50701 70000;EQDQ01  00002PRCP24
0183407340999992000080212004+36500+051570FM-12-002099999V0200601N002012200019N0100001N1+03181+02791100401ADDAA199000091GA1001+999999999GF100991001001999999001001MA1999999100631MD1610021+9999REMSYN070AAXX  02121 40734 32960 00602 10318 20279 30063 40040 56002 91145 333;EQDQ01  00002PRCP99
0189407340999992000080218004+36500+051570FM-12-002099999V0201101N003012200019N0100001N1+02901+02661100121ADDAA199000091GA1001+999999999GF100991001001999999001001MA1999999100351MD1610071+9999REMSYN076AAXX  02181 40734 32960 01103 10290 20266 30035 40012 56007 91745 333 55119;EQDQ01  00002PRCP99
0183407340999992000080300004+36500+051570FM-12-002099999V0201801N002012200019N0100001N1+02401+02191099871ADDAA199000091GA1001+999999999GF100991001001999999001001MA1999999100101MD1710191+9999REMSYN070AAXX  03001 40734 32960 01802 10240 20219 30010 49987 57019 92345 333;EQDQ01  00002PRCP99
0201407340999992000080306004+36500+051570FM-12-002099999V0203601N003012200019N0120001N1+03061+02701099921ADDAA124000091GA1001+999999999GF100991001001999999001001MA1999999100201MD1110061+9999REMSYN088AAXX  03061 40734 32962 03603 10306 20270 30020 49992 51006 90550 333 30021 50661 70000;EQDQ01  00002PRCP24
0201407340999992000080312004+36500+051570FM-12-002099999V0203101N005012200019N0120001N1+03221+02731100051ADDAA199000091GA1031+006009089GF104991031011008001031001MA1999999100281MD1110031+9999REMSYN088AAXX  03121 40734 32562 43105 10322 20273 30028 40005 51003 83130 91145 333 83820 83360;EQDQ01  00002PRCP99
0215407340999992000080318004+36500+051570FM-12-002099999V0202101N00201036001CN0100001N1+02901+02681100301ADDAA199000091GA1011+006009089GF106991021011008001031001GJ105649MA1999999100531MD1210251+9999REMSYN094AAXX  03181 40734 32560 62102 10290 20268 30053 40030 52025 82130 91745 333 55094 81820 86360;EQDQ01  00002PRCP99
0223407340999992000080400004+36500+051570FM-12-002099999V0202701N00401036001CN0100001N1+02681+02561100571ADDAA199000091GA1011+006009099GA2031+007509069GF108991031031008001021999MA1999999100801MD1210121+9999REMSYN094AAXX  04001 40734 32560 82704 10268 20256 30080 40057 52012 8332/ 92350 333 81920 83625 88459;EQDQ01  00002PRCP99
0256407340999992000080406004+36500+051570FM-12-002099999V0202501N00401001201CN0080001N1+02621+02501100841ADDAA106002091AY181061AY221061GA1011+006009099GA2031+010509069GF107991071031001501021001MA1999999101071MD1110041+9999MW1251REMSYN124AAXX  04061 40734 11258 72504 10262 20250 30107 40084 51004 60021 72582 87320 90545 333 31026 50451 70018 81920 83635 87459;
0238407340999992000080412004+36500+051570FM-12-002099999V0202401N00501036001CN0100001N1+02681+02311100881ADDAA106002091AY181061AY221061GA1011+007509099GA2021+009009069GF107991031031008001071001MA1999999101111MD1410001+9999MW1021REMSYN106AAXX  04121 40734 11560 72405 10268 20231 30111 40088 54000 60021 70282 83370 91145 333 81925 82630 87459;
0252407340999992000080418004+36500+051570FM-12-002099999V0202401N00301036001CN0100001N1+02561+02381101011ADDAA106000191AY181061AY221061GA1011+007509099GA2031+009009069GF108991041031008001021999GJ100009MA1999999101241MD1210161+9999MW1021REMSYN112AAXX  04181 40734 11560 82403 10256 20238 30124 40101 52016 69921 70282 8432/ 91745 333 55000 81925 83630 88459;
0238407340999992000080500004+36500+051570FM-12-002099999V0202401N00601036001CN9999999N1+02361+02001101261ADDAA106003091AY161061AY251061GA1031+004509079GA2011+007509099GF108991041031008001021999MA1999999101491MD1110111+9999MW1211REMSYN106AAXX  05001 40734 1158/ 82406 10236 20200 30149 40126 51011 60031 72165 8432/ 92350 333 83715 81925 88458;
0222407340999992000080506004+36500+051570FM-12-002099999V0203101N00401036001CN0100001N1+02521+02231101491ADDAA124004891GA1011+007509099GA2021+009009069GF108991021031008001021999MA1999999101721MD1110131+9999REMSYN112AAXX  05061 40734 32560 83104 10252 20223 30172 40149 51013 8232/ 90545 333 31023 50601 70049 81925 82630 88459;
0204407340999992000080512004+36500+051570FM-12-002099999V0202601N00301036001CN0100001N1+02641+02231101401ADDAA199000021GA1011+007509099GA2021+009009069GF108991021031008001021999MA1999999101631MD1610021+9999REMSYN094AAXX  05121 40734 32560 82603 10264 20223 30163 40140 56002 8232/ 91145 333 81925 82630 88459;
0215407340999992000080518004+36500+051570FM-12-002099999V0201501N00201036001CN0100001N1+02481+02361101361ADDAA199000091GA1031+009009069GF108991031051012501021999GJ100009MA1999999101591MD1510041+9999REMSYN094AAXX  05181 40734 32660 81502 10248 20236 30159 40136 55004 8352/ 91745 333 55000 83630 88459;EQDQ01  00002PRCP99
0201407340999992000080600004+36500+051570FM-12-002099999V0201801N00201036001CN0100001N1+02401+02241101321ADDAA199000091GA1031+009009069GF108991031041008001021999MA1999999101551MD1610041+9999REMSYN088AAXX  06001 40734 32560 81802 10240 20224 30155 40132 56004 8342/ 92345 333 83630 88459;EQDQ01  00002PRCP99
0219407340999992000080606004+36500+051570FM-12-002099999V0203101N00501036001CN0100001N1+02861+02301101221ADDAA124000091GA1031+007509089GF105991031021008001031001MA1999999101451MD1710061+9999REMSYN106AAXX  06061 40734 32560 53105 10286 20230 30145 40122 57006 83230 90550 333 31023 50181 70000 83825 84360;EQDQ01  00002PRCP24
0223407340999992000080612004+36500+051570FM-12-002099999V0209999C00001036001CN0100001N1+02721+02281101121ADDAA199000091GA1021+006009099GA2041+007509069GF108991041031008001021999MA1999999101351MD1810131+9999REMSYN094AAXX  06121 40734 32560 80000 10272 20228 30135 40112 58013 8432/ 91145 333 82920 84625 88460;EQDQ01  00002PRCP99
0237407340999992000080618004+36500+051570FM-12-002099999V0201501N00201036001CN0100001N1+02541+02271101201ADDAA199000091GA1011+007509099GA2021+009009069GF108991021031008001021999GJ100429MA1999999101431MD1110131+9999REMSYN100AAXX  06181 40734 32560 81502 10254 20227 30143 40120 51013 8232/ 91745 333 55007 81925 82630 88459;EQDQ01  00002PRCP99
0223407340999992000080700004+36500+051570FM-12-002099999V0202201N00201036001CN0100001N1+02401+02241101251ADDAA199000091GA1011+006009099GA2031+009009069GF108991031031008001021999MA1999999101481MD1510021+9999REMSYN094AAXX  07001 40734 32560 82202 10240 20224 30148 40125 55002 8332/ 92345 333 81920 83630 88459;EQDQ01  00002PRCP99
0213407340999992000080706004+36500+051570FM-12-002099999V0202701N00501036001CN0100001N1+02701+02391101221ADDAA124000091GA1031+009009069GF107991031041008001071001MA1999999101451MD1110021+9999REMSYN100AAXX  07061 40734 32560 72705 10270 20239 30145 40122 51002 83470 90550 333 31023 70000 83630 87359;EQDQ01  00002PRCP24
0238407340999992000080712004+36500+051570FM-12-002099999V0202701N00901007501CN0030001N1+02281+02251101311ADDAA106002091AY181061AY221061GA1041+004509079GA2011+007509099GF108991041031004501021999MA1999999101541MD1310081+9999MW1511REMSYN106AAXX  07121 40734 11430 82709 10228 20225 30154 40131 53008 60021 75182 8432/ 91145 333 84715 81925 88458;
0252407340999992000080718004+36500+051570FM-12-002099999V0202101N00501007501CN0070001N1+02401+02031101401ADDAA106000191AY151061AY221061GA1021+006009099GA2031+007509069GF108991041031008001021999GJ100009MA1999999101631MD1210091+9999MW1101REMSYN112AAXX  07181 40734 11557 82105 10240 20203 30163 40140 52009 69921 71052 8432/ 91750 333 55000 82920 83625 88457;
0182407340999992000080800004+36500+051570FM-12-002099999V0202201N00201036001CN0100001N1+02401+02131101331ADDAA199000021GA1031+009009069GF108991031051008001021999MA1999999101561MD1610041+9999REMSYN088AAXX  08001 40734 32560 82202 10240 20213 30156 40133 56004 8352/ 92350 333 83630 88458;
0200407340999992000080806004+36500+051570FM-12-002099999V0202701N00601036001CN0120001N1+02861+01971101471ADDAA124002591GA1011+007509089GF105991011011008001051001MA1999999101701MD1110071+9999REMSYN106AAXX  08061 40734 32562 52706 10286 20197 30170 40147 51007 81150 90550 333 31023 50351 70026 81825 85360;
0215407340999992000080818004+36500+051570FM-12-002099999V0201801N00301036001CN0100001N1+02421+02091101501ADDAA199000091GA1011+009009069GF106991011041008001031001GJ102229MA1999999101731MD1310051+9999REMSYN094AAXX  08181 40734 32560 61803 10242 20209 30173 40150 53005 81430 91745 333 55037 81630 86360;EQDQ01  00002PRCP99
0195407340999992000080900004+36500+051570FM-12-002099999V0201901N003012200019N0100001N1+02281+01931101381ADDAA199000091GA1011+030009079GF101991011001999999031001MA1999999101611MD1610051+9999REMSYN082AAXX  09001 40734 32960 11903 10228 20193 30161 40138 56005 81030 92345 333 81360;EQDQ01  00002PRCP99
0219407340999992000080906004+36500+051570FM-12-002099999V0209999C000012200019N0100001N1+02781+02071101411ADDAA124000091GA1021+009009089GF103991021011999999031001MA1999999101641MD1110031+9999REMSYN106AAXX  09061 40734 32960 30000 10278 20207 30164 40141 51003 82130 90545 333 30021 50441 70000 82830 83360;EQDQ01  00002PRCP24
0201407340999992000080912004+36500+051570FM-12-002099999V0200301N002012200019N0100001N1+02981+01951101231ADDAA199000091GA1011+009009089GF103991021011008001031001MA1999999101461MD1810081+9999REMSYN088AAXX  09121 40734 32560 30302 10298 20195 30146 40123 58008 82130 91145 333 81830 83360;EQDQ01  00002PRCP99
0183407340999992000081000004+36500+051570FM-12-002099999V0209999C000012200019N0100001N1+02221+02031101071ADDAA199000091GA1001+999999999GF100991001001999999001001MA1999999101301MD1310051+9999REMSYN070AAXX  10001 40734 32960 00000 10222 20203 30130 40107 53005 92350 333;EQDQ01  00002PRCP99
0195407340999992000081012004+36500+051570FM-12-002099999V0200701N003012200019N0120001N1+02961+02231101001ADDAA199000091GA1021+060009019GF102991001001999999001011MA1999999101231MD1710141+9999REMSYN082AAXX  10121 40734 32962 20703 10296 20223 30123 40100 57014 80001 91145 333 82070;EQDQ01  00002PRCP99
0189407340999992000081018004+36500+051570FM-12-002099999V0209999C000012200019N0100001N1+02441+02281101071ADDAA199000091GA1001+999999999GF100991001001999999001001MA1999999101301MD1210101+9999REMSYN076AAXX  10181 40734 32960 00000 10244 20228 30130 40107 52010 91750 333 55080;EQDQ01  00002PRCP99
0219407340999992000081106004+36500+051570FM-12-002099999V0209999C00001036001CN0120001N1+02761+02281101171ADDAA124000091GA1021+009009069GF105991021041008001031001MA1999999101401MD1110101+9999REMSYN106AAXX  11061 40734 32562 50000 10276 20228 30140 40117 51010 82430 90550 333 30021 50441 70000 82630 84360;EQDQ01  00002PRCP24
0195407340999992000081112004+36500+051570FM-12-002099999V0203301N004012200019N0120001N1+02881+02391101051ADDAA199000091GA1031+030009079GF103991011011008001031001MA1999999101281MD1710091+9999REMSYN082AAXX  11121 40734 32562 33304 10288 20239 30128 40105 57009 81130 91145 333 83360;EQDQ01  00002PRCP99
0189407340999992000081118004+36500+051570FM-12-002099999V0209999C000012200019N0120001N1+02381+02261101091ADDAA199000091GA1001+999999999GF100991001001999999001001MA1999999101321MD1310101+9999REMSYN076AAXX  11181 40734 32962 00000 10238 20226 30132 40109 53010 91745 333 55025;EQDQ01  00002PRCP99
0227407340999992000081200004+36500+051570FM-12-002099999V0202701N002012200019N0100001N1+02101+01821999999ADDAA199000091GA1021+030009079GF102991021001999999031001MA1999999101301MD1810021+9999REMSYN082AAXX  12001 40734 32960 22702 10210 20182 30130 40707 58002 82030 92345 333 82360;EQDQ01+107073APOSLPQ02  00002PRCP99Q03 107073APOSLP
0201407340999992000081206004+36500+051570FM-12-002099999V0200601N004012200019N0150001N1+02821+02021101171ADDAA124000091GA1001+999999999GF100991001001999999001001MA1999999101401MD1210071+9999REMSYN088AAXX  12061 40734 32965 00604 10282 20202 30140 40117 52007 90550 333 30018 50410 70000;EQDQ01  00002PRCP24
0195407340999992000081212004+36500+051570FM-12-002099999V0203401N003012200019N0150001N1+02941+02321101071ADDAA199000091GA1011+006009029GF101991011011008001001001MA1999999101301MD1610101+9999REMSYN082AAXX  12121 40734 32565 13403 10294 20232 30130 40107 56010 81100 91150 333 81820;EQDQ01  00002PRCP99
0189407340999992000081218004+36500+051570FM-12-002099999V0209999C000012200019N0120001N1+02341+01931101171ADDAA199000091GA1001+999999999GF100991001001999999001001MA1999999101401MD1310101+9999REMSYN076AAXX  12181 40734 32962 00000 10234 20193 30140 40117 53010 91745 333 55120;EQDQ01  00002PRCP99
0183407340999992000081300004+36500+051570FM-12-002099999V0209999C000012200019N0120001N1+02081+01721101101ADDAA199000091GA1001+999999999GF100991001001999999001001MA1999999101331MD1710051+9999REMSYN070AAXX  13001 40734 32962 00000 10208 20172 30133 40110 57005 92345 333;EQDQ01  00002PRCP99
0201407340999992000081306004+36500+051570FM-12-002099999V0203401N003012200019N0120001N1+02861+02051101221ADDAA124000091GA1001+999999999GF100991001001999999001001MA1999999101451MD1310041+9999REMSYN088AAXX  13061 40734 32/62 03403 10286 20205 30145 40122 53004 90545 333 30017 50531 70000;EQDQ01  00002PRCP24
0189407340999992000081318004+36500+051570FM-12-002099999V0209999C000012200019N0120001N1+02481+02211101021ADDAA199000091GA1001+999999999GF100991001001999999001001MA1999999101251MD1310081+9999REMSYN076AAXX  13181 40734 32962 00000 10248 20221 30125 40102 53008 91750 333 55120;EQDQ01  00002PRCP99
0201407340999992000081406004+36500+051570FM-12-002099999V0203201N004012200019N0150001N1+02901+02281100971ADDAA124000091GA1001+999999999GF100991001001999999001001MA1999999101201MD1110021+9999REMSYN088AAXX  14061 40734 32965 03204 10290 20228 30120 40097 51002 90545 333 30017 50881 70000;EQDQ01  00002PRCP24
0189407340999992000081418004+36500+051570FM-12-002099999V0209999C000012200019N0100001N1+02541+02401100601ADDAA199000091GA1001+999999999GF100991001001999999001001MA1999999100831MD1410001+9999REMSYN076AAXX  14181 40734 32960 00000 10254 20240 30083 40060 54000 91745 333 55120;EQDQ01  00002PRCP99
0227407340999992000081500004+36500+051570FM-12-002099999V0202401N002010570019N0100001N1+02481+02301100751ADDAA199000091GA1051+057009089GF105991999001999999001061MA1999999100981MD1211202+9999REMSYN082AAXX  15001 40734 32960 52402 10248 20230 30098 40075 5212/ 80006 92345 333 85269;EQDQ01+000002SCOTLCQ02+001202APC3  Q03  00002PRCP99
0234407340999992000081606004+36500+051570FM-12-002099999V0202501N00301036001CN0080001N1+02441+02281101371ADDAA106002091AY181061AY221061GA1031+010509069GF107991041031008001071001MA1999999101601MD1110081+9999MW1251REMSYN118AAXX  16061 40734 11558 72503 10244 20228 30160 40137 51008 60021 72582 84370 90545 333 31023 50421 70024 83635 87460;
0196407340999992000081618004+36500+051570FM-12-002099999V0209999C00001036001CN0100001N1+02361+01991101441ADDAA199000021GA1031+009009099GF108991021031008001021999GJ100009MA1999999101671MD1310121+9999REMSYN094AAXX  16181 40734 32560 80000 10236 20199 30167 40144 53012 8232/ 91750 333 55000 83930 88458;
0195407340999992000081700004+36500+051570FM-12-002099999V0209999C000010360019N0100001N1+02341+02031101401ADDAA199000091GF108991021031008001021999MA1999999999999MD1610071+9999REMSYN066AAXX  17001 40734 32560 80000 10234 20203 30663 40140 56007 8232/;EQDQ01+096633APOSP Q02  00002PRCP99Q03 096633APOSP 
0194407340999992000081706004+36500+051570FM-12-002099999V0200501N002012200019N0100001N1+02861+02081101471ADDAA124001091GA1011+007509029GF102991011021008001031001MA1999999101701MD1210071+9999REMSYN100AAXX  17061 40734 32560 20502 10286 20208 30170 40147 52007 81230 90545 333 31022 50191 70010 81825;
0223407340999992000081712004+36500+051570FM-12-002099999V0201001N00401036001CN0100001N1+02901+02231101281ADDAA199000091GA1011+007509099GA2021+009009069GF107991031031008001071001MA1999999101511MD1710131+9999REMSYN094AAXX  17121 40734 32560 71004 10290 20223 30151 40128 57013 83370 91145 333 81925 82630 87359;EQDQ01  00002PRCP99
0215407340999992000081718004+36500+051570FM-12-002099999V0202401N00201036001CN0100001N1+02601+02331101321ADDAA199000091GA1021+009009069GF106991021041008001071001GJ103969MA1999999101551MD1310061+9999REMSYN094AAXX  17181 40734 32560 62402 10260 20233 30155 40132 53006 82470 91750 333 55066 82630 86360;EQDQ01  00002PRCP99
0183407340999992000081800004+36500+051570FM-12-002099999V0209999C000012200019N0100001N1+02261+02171101251ADDAA199000091GA1001+999999999GF100991001001999999001001MA1999999101481MD1810071+9999REMSYN070AAXX  18001 40734 32960 00000 10226 20217 30148 40125 58007 92350 333;EQDQ01  00002PRCP99
0219407340999992000081806004+36500+051570FM-12-002099999V0202701N002012200019N0100001N1+02761+02281101301ADDAA124000091GA1011+009009089GF103991011011008001031001MA1999999101531MD1310031+9999REMSYN106AAXX  18061 40734 32560 32702 10276 20228 30153 40130 53003 81130 90550 333 30020 50441 70000 81830 83360;EQDQ01  00002PRCP24
0189407340999992000081818004+36500+051570FM-12-002099999V0209999C000012200019N0100001N1+02421+02261101241ADDAA199000091GA1001+999999999GF100991001001999999001001MA1999999101471MD1310071+9999REMSYN076AAXX  18181 40734 32960 00000 10242 20226 30147 40124 53007 91745 333 55092;EQDQ01  00002PRCP99
0183407340999992000081900004+36500+051570FM-12-002099999V0209999C000012200019N0100001N1+02221+02081101221ADDAA199000091GA1001+999999999GF100991001001999999001001MA1999999101451MD1610051+9999REMSYN070AAXX  19001 40734 32960 00000 10222 20208 30145 40122 56005 92345 333;EQDQ01  00002PRCP99
0213407340999992000081906004+36500+051570FM-12-002099999V0203301N004012200019N0100001N1+02901+02321101361ADDAA124000091GA1011+007509029GF102991011011008001031001MA1999999101591MD1110021+9999REMSYN100AAXX  19061 40734 32560 23304 10290 20232 30159 40136 51002 81130 90545 333 30020 50441 70000 81825;EQDQ01  00002PRCP24
0195407340999992000081912004+36500+051570FM-12-002099999V0203301N005012200019N0120001N1+02961+02381101221ADDAA199000091GA1011+007509029GF101991011021008001001001MA1999999101451MD1610091+9999REMSYN082AAXX  19121 40734 32562 13305 10296 20238 30145 40122 56009 81200 91145 333 81825;EQDQ01  00002PRCP99
0209407340999992000081918004+36500+051570FM-12-002099999V0209999C000012200019N0100001N1+02501+02361101271ADDAA199000091GA1031+006009059GF103991031041008001001001GJ104509MA1999999101501MD1310101+9999REMSYN088AAXX  19181 40734 32560 30000 10250 20236 30150 40127 53010 83400 91445 333 55075 83620;EQDQ01  00002PRCP99
0195407340999992000082000004+36500+051570FM-12-002099999V0209999C000012200019N0100001N1+02421+02331101321ADDAA199000091GA1031+030009079GF103991031001999999031001MA1999999101551MD1310051+9999REMSYN082AAXX  20001 40734 32960 30000 10242 20233 30155 40132 53005 83030 92350 333 83360;EQDQ01  00002PRCP99
0195407340999992000082012004+36500+051570FM-12-002099999V0203501N005012200019N0120001N1+03021+02291101271ADDAA199000091GA1011+006009029GF101991011011008001001001MA1999999101501MD1710161+9999REMSYN082AAXX  20121 40734 32562 13505 10302 20229 30150 40127 57016 81100 91145 333 81820;EQDQ01  00002PRCP99
0189407340999992000082018004+36500+051570FM-12-002099999V0202101N002012200019N0100001N1+02561+02371101221ADDAA199000091GA1001+999999999GF100991001001999999001001MA1999999101451MD1310021+9999REMSYN076AAXX  20181 40734 32960 02102 10256 20237 30145 40122 53002 91745 333 55116;EQDQ01  00002PRCP99
0183407340999992000082100004+36500+051570FM-12-002099999V0201801N002012200019N0100001N1+02341+02221101111ADDAA199000091GA1001+999999999GF100991001001999999001001MA1999999101341MD1710111+9999REMSYN070AAXX  21001 40734 32960 01802 10234 20222 30134 40111 57011 92345 333;EQDQ01  00002PRCP99
0219407340999992000082106004+36500+051570FM-12-002099999V0202801N003012200019N0100001N1+02801+02201101171ADDAA124000091GA1011+006009089GF103991011011008001031001MA1999999101401MD1110021+9999REMSYN106AAXX  21061 40734 32560 32803 10280 20220 30140 40117 51002 81130 90545 333 30021 50621 70000 81820 83360;EQDQ01  00002PRCP24
0195407340999992000082112004+36500+051570FM-12-002099999V0203601N002012200019N0100001N1+02941+02261100941ADDAA199000091GA1021+006009029GF102991021011008001001001MA1999999101171MD1710161+9999REMSYN082AAXX  21121 40734 32560 23602 10294 20226 30117 40094 57016 82100 91145 333 82820;EQDQ01  00002PRCP99
0209407340999992000082118004+36500+051570FM-12-002099999V0209999C000012200019N0100001N1+02481+02211101051ADDAA199000091GA1031+030009079GF103991031001999999031001GJ104989MA1999999101281MD1310181+9999REMSYN088AAXX  21181 40734 32960 30000 10248 20221 30128 40105 53018 83030 91745 333 55083 83360;EQDQ01  00002PRCP99
0273407340999992000082200004+36500+051570FM-12-002099999V0201201N99999036001CN0080001N1+02601+02271101231ADDAA106000191AY181061AY211061GA1011+007509099GA2031+009009069GF108991031031008001021999MA1999999101461MD1210101+9999MW1251REMSYN106AAXX  22001 40734 11558 81240 10260 20227 30146 40123 52010 69911 72581 8332/ 92350 333 81925 83630 88458;EQDQ01+004003WOSPD Q020004003WOSPD 
0194407340999992000082206004+36500+051570FM-12-002099999V0202901N009012200019N0120001N1+02981+02091101361ADDAA124000191GA1011+007509029GF101991011021008001031001MA1999999101591MD1310091+9999REMSYN100AAXX  22061 40734 32562 12909 10298 20209 30159 40136 53009 81230 90550 333 30021 50541 70001 81825;
0204407340999992000082212004+36500+051570FM-12-002099999V0202901N00601036001CN0120001N1+02801+02401101321ADDAA199000021GA1011+007509099GA2021+009009069GF107991031031008001071001MA1999999101551MD1610041+9999REMSYN094AAXX  22121 40734 32562 72906 10280 20240 30155 40132 56004 83370 91150 333 81925 82630 87459;
0215407340999992000082218004+36500+051570FM-12-002099999V0209999C00001036001CN0100001N1+02581+02231101371ADDAA199000091GA1011+009009069GF106991011041008001031001GJ102589MA1999999101601MD1310031+9999REMSYN094AAXX  22181 40734 32560 60000 10258 20223 30160 40137 53003 81430 91745 333 55043 81630 86360;EQDQ01  00002PRCP99
0195407340999992000082300004+36500+051570FM-12-002099999V0203101N003012200019N0100001N1+02421+02111101341ADDAA199000091GA1011+030009079GF101991011001999999031001MA1999999101571MD1610071+9999REMSYN082AAXX  23001 40734 32960 13103 10242 20211 30157 40134 56007 81030 92345 333 81360;EQDQ01  00002PRCP99
0219407340999992000082306004+36500+051570FM-12-002099999V0203601N00201036001CN0100001N1+02901+01261101471ADDAA124000091GA1011+009009089GF105991011011008001071001MA1999999101701MD1310061+9999REMSYN106AAXX  23061 40734 32560 53602 10290 20126 30170 40147 53006 81170 90550 333 30021 50441 70000 81830 85360;EQDQ01  00002PRCP24
0201407340999992000082312004+36500+051570FM-12-002099999V0209999C000012200019N0100001N1+03001+02111101251ADDAA199000091GA1011+012009099GF103991011031999999071001MA1999999101481MD1710121+9999REMSYN088AAXX  23121 40734 32960 30000 10300 20211 30148 40125 57012 81370 91145 333 81940 83360;EQDQ01  00002PRCP99
0189407340999992000082318004+36500+051570FM-12-002099999V0209999C000012200019N0100001N1+02381+01991101131ADDAA199000091GA1001+999999999GF100991001001999999001001MA1999999101361MD1410001+9999REMSYN076AAXX  23181 40734 32960 00000 10238 20199 30136 40113 54000 91750 333 55046;EQDQ01  00002PRCP99
0195407340999992000082400004+36500+051570FM-12-002099999V0209999C000012200019N0100001N1+02241+01961101001ADDAA199000091GA1011+030009079GF101991011001999999031001MA1999999101231MD1610051+9999REMSYN082AAXX  24001 40734 32960 10000 10224 20196 30123 40100 56005 81030 92350 333 81360;EQDQ01  00002PRCP99
0219407340999992000082406004+36500+051570FM-12-002099999V0209999C000012200019N0150001N1+02881+02031100971ADDAA124000091GA1021+006009089GF103991021011999999031001MA1999999101201MD1610031+9999REMSYN106AAXX  24061 40734 32965 30000 10288 20203 30120 40097 56003 82130 90550 333 30019 50621 70000 82820 83360;EQDQ01  00002PRCP24
0189407340999992000082418004+36500+051570FM-12-002099999V0201801N002012200019N0120001N1+02461+02201100421ADDAA199000091GA1001+999999999GF100991001001999999001001MA1999999100651MD1710071+9999REMSYN076AAXX  24181 40734 32962 01802 10246 20220 30065 40042 57007 91745 333 55100;EQDQ01  00002PRCP99
0195407340999992000082500004+36500+051570FM-12-002099999V0209999C000010300019N0120001N1+02241+02051100291ADDAA199000091GA1051+030009079GF105991051001999999071001MA1999999100521MD1410001+9999REMSYN082AAXX  25001 40734 32962 50000 10224 20205 30052 40029 54000 85070 92345 333 85360;EQDQ01  00002PRCP99
0191407340999992000082506004+36500+051570FM-12-002099999V0202801N005012200019N0100001N1+02941+02381100341ADDAA124000091GF101991011011008001031001MA1999999100571MD1110051+9999REMSYN094AAXX  25061 40734 32560 12805 10294 20238 30057 40034 51005 81130 90545 333 30020 50441 70000;EQDQ01  00002PRCP24
0195407340999992000082512004+36500+051570FM-12-002099999V0203301N004012200019N0100001N1+03021+02661100361ADDAA199000091GA1011+007509029GF102991011021008001031001MA1999999100591MD1010001+9999REMSYN082AAXX  25121 40734 32560 23304 10302 20266 30059 40036 50000 81230 91145 333 81825;EQDQ01  00002PRCP99
0192407340999992000082515004+36500+051570FM-12-002099999V0209999C000012200019N9999999N1+03281+99999100111ADDGA1001+999999999GF100991001001999999001001KA1999M+03421MD1310021+9999REMSYN076AAXX  25151 40734 /5/// 00000 10328 20045 38843 40011 53002 91450 333 10342;EQDQ01+000453ATOD  Q02+088433APOSP 
0215407340999992000082518004+36500+051570FM-12-002099999V0209999C00001036001CN0100001N1+02761+02581100621ADDAA199000091GA1031+009009069GF107991031041008001071001GJ103609MA1999999100851MD1210221+9999REMSYN094AAXX  25181 40734 32560 70000 10276 20258 30085 40062 52022 83470 91745 333 55060 83630 87459;EQDQ01  00002PRCP99
0194407340999992000082606004+36500+051570FM-12-002099999V0203401N003012200019N0100001N1+02941+02431100891ADDAA124000791GA1021+030009079GF102991011021008001031001MA1999999101121MD1310051+9999REMSYN100AAXX  26061 40734 32560 23403 10294 20243 30112 40089 53005 81230 90550 333 30025 50441 79999 82360;
0201407340999992000082612004+36500+051570FM-12-002099999V0200601N00401036001CN0100001N1+03041+02501100661ADDAA199000091GA1011+006009089GF107991021081008001071001MA1999999100891MD1810111+9999REMSYN088AAXX  26121 40734 32560 70604 10304 20250 30089 40066 58011 82870 91150 333 81820 87360;EQDQ01  00002PRCP99
0215407340999992000082618004+36500+051570FM-12-002099999V0209999C00001036001CN0100001N1+02761+02541100691ADDAA199000091GA1031+009009069GF108991031051008001021999GJ102889MA1999999100921MD1310061+9999REMSYN094AAXX  26181 40734 32560 80000 10276 20254 30092 40069 53006 8352/ 91745 333 55048 83630 88459;EQDQ01  00002PRCP99
0201407340999992000082700004+36500+051570FM-12-002099999V0209999C00001036001CN0100001N1+02621+02501100791ADDAA199000091GA1021+009009069GF107991021041008001071001MA1999999101021MD1410001+9999REMSYN088AAXX  27001 40734 32560 70000 10262 20250 30102 40079 54000 82470 92345 333 82630 87460;EQDQ01  00002PRCP99
0219407340999992000082706004+36500+051570FM-12-002099999V0200301N002012200019N0120001N1+02941+02541100851ADDAA124000091GA1011+009009089GF103991011021008001031001MA1999999101081MD1110031+9999REMSYN106AAXX  27061 40734 32562 30302 10294 20254 30108 40085 51003 81230 90550 333 30024 50621 70000 81830 83360;EQDQ01  00002PRCP24
0223407340999992000082712004+36500+051570FM-12-002099999V0201501N00201007501CN0100001N1+02861+02621100501ADDAA199000091GA1021+006009099GA2031+007509069GF106991041031008001071001MA1999999100731MD1710271+9999REMSYN094AAXX  27121 40734 32560 61502 10286 20262 30073 40050 57027 84370 91150 333 82920 83625 85458;EQDQ01  00002PRCP99
0237407340999992000082718004+36500+051570FM-12-002099999V0202101N00201036001CN0100001N1+02741+02451100411ADDAA199000091GA1011+006009099GA2031+009009069GF108991031031008001021999GJ103609MA1999999100641MD1310041+9999REMSYN100AAXX  27181 40734 32560 82102 10274 20245 30064 40041 53004 8332/ 91745 333 55060 81920 83630 88458;EQDQ01  00002PRCP99
0183407340999992000082800004+36500+051570FM-12-002099999V0201801N002012200019N0100001N1+02501+02211100371ADDAA199000091GA1001+999999999GF100991001001999999001001MA1999999100601MD1610041+9999REMSYN070AAXX  28001 40734 32960 01802 10250 20221 30060 40037 56004 92350 333;EQDQ01  00002PRCP99
0213407340999992000082806004+36500+051570FM-12-002099999V0203301N003012200019N0100001N1+03021+02511100591ADDAA124000091GA1041+030009079GF104991011011008001031001MA1999999100821MD1310101+9999REMSYN100AAXX  28061 40734 32560 43303 10302 20251 30082 40059 53010 81130 90550 333 30021 50441 70000 84360;EQDQ01  00002PRCP24
0195407340999992000082812004+36500+051570FM-12-002099999V0200301N003012200019N0100001N1+03041+02571100451ADDAA199000091GA1011+007509029GF101991011011008001001001MA1999999100681MD1710121+9999REMSYN082AAXX  28121 40734 32560 10303 10304 20257 30068 40045 57012 81100 91150 333 81825;EQDQ01  00002PRCP99
0201407340999992000082900004+36500+051570FM-12-002099999V0201701N002012200019N0100001N1+02521+02251100371ADDAA199000091GA1011+009009069GF103991011041008001031001MA1999999100601MD1110021+9999REMSYN088AAXX  29001 40734 32560 31702 10252 20225 30060 40037 51002 81430 92345 333 81630 83360;EQDQ01  00002PRCP99
0256407340999992000082906004+36500+051570FM-12-002099999V0209999C00001036001CN0100001N1+02761+02561100571ADDAA106001091AY181061AY221061GA1011+007509099GA2021+009009069GF107991031031008001071001MA1999999100801MD1110081+9999MW1011REMSYN124AAXX  29061 40734 11560 70000 10276 20256 30080 40057 51008 69991 70182 83370 90545 333 31022 50491 70009 81925 82630 87359;
0201407340999992000082912004+36500+051570FM-12-002099999V0200201N003012200019N0100001N1+03001+02421100501ADDAA199000091GA1021+006009089GF103991021021008001031001MA1999999100731MD1810071+9999REMSYN088AAXX  29121 40734 32560 30203 10300 20242 30073 40050 58007 82230 91145 333 82820 83360;EQDQ01  00002PRCP99
0209407340999992000082918004+36500+051570FM-12-002099999V0202701N003012200019N0100001N1+02601+02421100631ADDAA199000091GA1031+007509059GF103991031041008001031001GJ101809MA1999999100861MD1110111+9999REMSYN088AAXX  29181 40734 32560 32703 10260 20242 30086 40063 51011 83430 91745 333 55030 83625;EQDQ01  00002PRCP99
0237407340999992000083018004+36500+051570FM-12-002099999V0202701N00401036001CN0100001N1+02501+02321100371ADDAA199000091GA1021+006009099GA2021+007509069GF108991031031008001021999GJ100609MA1999999100601MD1410001+9999REMSYN100AAXX  30181 40734 32560 82704 10250 20232 30060 40037 54000 8332/ 91745 333 55010 82920 82625 88458;EQDQ01  00002PRCP99
0223407340999992000083100004+36500+051570FM-12-002099999V0202701N00501007501CN0100001N1+02441+02261100371ADDAA199000091GA1021+006009099GA2031+007509069GF108991041031008001021999MA1999999100601MD1410001+9999REMSYN094AAXX  31001 40734 32560 82705 10244 20226 30060 40037 54000 8432/ 92345 333 82920 83625 88458;EQDQ01  00002PRCP99
0256407340999992000083106004+36500+051570FM-12-002099999V0202701N00601036001CN0100001N1+02521+02261100481ADDAA106000191AY181061AY221061GA1011+006009099GA2031+009009069GF108991031031008001021999MA1999999100711MD1310071+9999MW1021REMSYN124AAXX  31061 40734 11560 82706 10252 20226 30071 40048 53007 69921 70282 8332/ 90550 333 30023 50371 70002 81920 83630 88459;
0238407340999992000083112004+36500+051570FM-12-002099999V0203101N00301036001CN0100001N1+02481+02391100471ADDAA106001091AY181061AY221061GA1031+004509079GA2011+007509099GF108991041031004501021999MA1999999100701MD1610011+9999MW1021REMSYN106AAXX  31121 40734 11460 83103 10248 20239 30070 40047 56001 60011 70282 8432/ 91150 333 83715 81925 88459;
0252407340999992000083118004+36500+051570FM-12-002099999V0209999C00001036001CN0100001N1+02321+02291100571ADDAA106001091AY151061AY221061GA1031+003009079GA2011+006009099GF108991041031004501021999GJ100009MA1999999100801MD1310101+9999MW1021REMSYN112AAXX  31181 40734 11460 80000 10232 20229 30080 40057 53010 60011 70252 8432/ 91750 333 55000 83710 81920 88457;
0256407340999992000090106004+36500+051570FM-12-002099999V0202801N002010075019N0050001N1+02301+02141100671ADDAA106004191AY151061AY251061GA1031+006009099GA2051+007509069GF108991051031008001021999MA1999999100901MD1310041+9999MW1811REMSYN124AAXX  01061 40734 11550 82802 10230 20214 30090 40067 53004 60041 78155 8532/ 90545 333 31021 50151 70138 83920 85625 88457;
0238407340999992000090112004+36500+051570FM-12-002099999V0202701N005010036019N0050001N1+02241+02171100671ADDAA106002091AY161061AY251061GA1061+003609079GA2011+006009099GF108991061031004501021999MA1999999100901MD1410001+9999MW1511REMSYN106AAXX  01121 40734 11450 82705 10224 20217 30090 40067 54000 60021 75165 8632/ 91145 333 86712 81920 88458;
0252407340999992000090118004+36500+051570FM-12-002099999V0202101N005010036019N0030001N1+02161+02131100871ADDAA106006191AY161061AY261061GA1051+003609079GA2011+006009099GF108991051031004501021999GJ100009MA1999999101101MD1110011+9999MW1611REMSYN112AAXX  01181 40734 11430 82105 10216 20213 30110 40087 51001 60061 76166 8532/ 91745 333 55000 85712 81920 88550;
0238407340999992000090200004+36500+051570FM-12-002099999V0202701N004010045019N0050001N1+02101+02071100871ADDAA106008991AY161061AY261061GA1051+004509079GA2011+007509099GF108991051031004501021999MA1999999101101MD1410001+9999MW1611REMSYN106AAXX  02001 40734 11450 82704 10210 20207 30110 40087 54000 60091 76166 8532/ 92350 333 85715 81925 88556;
0256407340999992000090206004+36500+051570FM-12-002099999V0202701N005010030019N0070001N1+02141+02071101001ADDAA106011991AY151061AY251061GA1051+003009079GA2011+006009099GF108991051031004501021999MA1999999101231MD1310031+9999MW1501REMSYN124AAXX  02061 40734 11457 82705 10214 20207 30123 40100 53003 60121 75055 8532/ 90545 333 32021 50141 70294 85710 81920 88457;
0204407340999992000090212004+36500+051570FM-12-002099999V0203401N00201007501CN0100001N1+02461+02011100821ADDAA199000021GA1031+006009079GA2021+007509099GF107991041031008001021001MA1999999101051MD1110051+9999REMSYN094AAXX  02121 40734 32560 73402 10246 20201 30105 40082 51005 84320 91145 333 83720 82925 87458;
0218407340999992000090218004+36500+051570FM-12-002099999V0209999C00001009001CN0100001N1+02161+02081100971ADDAA199000021GA1021+007509099GA2031+009009069GF108991031031008001021999GJ100069MA1999999101201MD1110101+9999REMSYN100AAXX  02181 40734 32560 80000 10216 20208 30120 40097 51010 8332/ 91750 333 55001 82925 83630 88457;
0194407340999992000090306004+36500+051570FM-12-002099999V0203601N003012200019N0120001N1+02581+01971100861ADDAA124000021GA1011+007509029GF102991011011008001031001MA1999999101091MD1310061+9999REMSYN100AAXX  03061 40734 32562 23603 10258 20197 30109 40086 53006 81130 90550 333 31019 50271 70000 81825;
0238407340999992000090312004+36500+051570FM-12-002099999V0202101N00201036001CN0100001N1+02541+02211100801ADDAA106000791AY111061AY201061GA1011+007509099GA2021+009009069GF107991031031008001071001MA1999999101031MD1610031+9999MW1251REMSYN106AAXX  03121 40734 11560 72102 10254 20221 30103 40080 56003 69901 72510 83370 91150 333 81925 82630 86459;
0252407340999992000090318004+36500+051570FM-12-002099999V0201501N00301036001CN0070001N1+02241+02171100941ADDAA106000591AY191061AY221061GA1011+006009099GA2031+007509069GF106991031031008001071001GJ100909MA1999999101171MD1010141+9999MW1251REMSYN112AAXX  03181 40734 11557 61503 10224 20217 30117 40094 50014 69961 72592 83370 91745 333 55015 81920 83625 86457;
0164407340999992000090400004+36500+051570FM-12-002099999V0201801N002012200019N0100001N1+02121+01971100771ADDAA199000021GA1001+999999999GF100991001001999999001001MA1999999101001MD1410001+9999REMSYN070AAXX  04001 40734 32960 01802 10212 20197 30100 40077 54000 92345 333;
0200407340999992000090406004+36500+051570FM-12-002099999V0203001N005012200019N0120001N1+02661+02221100971ADDAA124000591GA1011+007509089GF104991011011008001071001MA1999999101201MD1210121+9999REMSYN106AAXX  04061 40734 32562 43005 10266 20222 30120 40097 52012 81170 90550 333 31019 50281 70006 81825 84359;
0223407340999992000090412004+36500+051570FM-12-002099999V0203101N00301090001CN0120001N1+02681+02331100891ADDAA199000091GA1011+006009089GA2011+007509099GF105991021031008001071011MA1999999101121MD1810081+9999REMSYN094AAXX  04121 40734 32562 53103 10268 20233 30112 40089 58008 82371 91145 333 81820 81925 84360;EQDQ01  00002PRCP99
0189407340999992000090418004+36500+051570FM-12-002099999V0202101N002012200019N0100001N1+02281+02161101041ADDAA199000091GA1001+999999999GF100991001001999999001001MA1999999101271MD1210091+9999REMSYN076AAXX  04181 40734 32960 02102 10228 20216 30127 40104 52009 91750 333 55037;EQDQ01  00002PRCP99
0201407340999992000090500004+36500+051570FM-12-002099999V0201901N00201036001CN0100001N1+02321+02161101081ADDAA199000091GA1031+009009069GF105991031041008001031001MA1999999101311MD1310041+9999REMSYN088AAXX  05001 40734 32560 51902 10232 20216 30131 40108 53004 83430 92350 333 83630 83359;EQDQ01  00002PRCP99
0223407340999992000090512004+36500+051570FM-12-002099999V0203601N002012200019N0100001N1+02841+02401101051ADDAA199000091GA1011+006009099GA2021+007509069GF104991031031008001031001MA1999999101281MD1610071+9999REMSYN094AAXX  05121 40734 32560 43602 10284 20240 30128 40105 56007 83330 91150 333 81920 82625 84360;EQDQ01  00002PRCP99
0237407340999992000090518004+36500+051570FM-12-002099999V0209999C00001036001CN0100001N1+02421+02151101071ADDAA199000091GA1011+007509099GA2021+009009069GF105991021031008001071001GJ103669MA1999999101301MD1110101+9999REMSYN100AAXX  05181 40734 32560 50000 10242 20215 30130 40107 51010 82370 91745 333 55061 81925 82630 85358;EQDQ01  00002PRCP99
0195407340999992000090600004+36500+051570FM-12-002099999V0201801N002012200019N0100001N1+02241+02021100971ADDAA199000091GA1011+007509029GF101991011011008001001001MA1999999101201MD1410001+9999REMSYN082AAXX  06001 40734 32560 11802 10224 20202 30120 40097 54000 81100 92345 333 81825;EQDQ01  00002PRCP99
0224407340999992000090618004+36500+051570FM-12-002099999V0200901N004012200019N0100001N1+02561+02371100531ADDAA106000591AY191061AY221061GA1031+007509059GF103991031041008001001001GJ105409MA1999999100761MD1010071+9999MW1011REMSYN100AAXX  06181 40734 11560 30904 10256 20237 30076 40053 50007 69941 70192 83400 91745 333 55090 83625;
0183407340999992000090700004+36500+051570FM-12-002099999V0209999C000012200019N0100001N1+02141+02021100271ADDAA199000091GA1001+999999999GF100991001001999999001001MA1999999100501MD1610101+9999REMSYN070AAXX  07001 40734 32960 00000 10214 20202 30050 40027 56010 92350 333;EQDQ01  00002PRCP99
0194407340999992000090706004+36500+051570FM-12-002099999V0203001N005012200019N0100001N1+02801+02341100471ADDAA124000591GA1011+006009069GF101991011011008001031001MA1999999100701MD1210101+9999REMSYN100AAXX  07061 40734 32560 13005 10280 20234 30070 40047 52010 81130 90550 333 30019 50481 70004 81720;
0209407340999992000090718004+36500+051570FM-12-002099999V0201901N002012200019N0100001N1+02461+02371100371ADDAA199000091GA1031+030009079GF103991031001999999031001GJ103489MA1999999100601MD1110101+9999REMSYN088AAXX  07181 40734 32960 31902 10246 20237 30060 40037 51010 83030 91745 333 55058 83360;EQDQ01  00002PRCP99
0195407340999992000090800004+36500+051570FM-12-002099999V0202101N002012200019N0100001N1+02261+02141100521ADDAA199000091GA1011+030009079GF101991011001999999031001MA1999999100751MD1310061+9999REMSYN082AAXX  08001 40734 32960 12102 10226 20214 30075 40052 53006 81030 92345 333 81360;EQDQ01  00002PRCP99
0213407340999992000090806004+36500+051570FM-12-002099999V0203601N003012200019N0100001N1+02821+02421100801ADDAA124000091GA1021+006009029GF102991021011008001001001MA1999999101031MD1210141+9999REMSYN100AAXX  08061 40734 32560 23603 10282 20242 30103 40080 52014 82100 90545 333 30020 50351 70000 82820;EQDQ01  00002PRCP24
0201407340999992000090812004+36500+051570FM-12-002099999V0202701N002012200019N0100001N1+02921+02341100821ADDAA199000091GA1021+006009089GF103991021011008001031001MA1999999101051MD1110021+9999REMSYN088AAXX  08121 40734 32560 32702 10292 20234 30105 40082 51002 82130 91150 333 82820 83360;EQDQ01  00002PRCP99
0237407340999992000090818004+36500+051570FM-12-002099999V0202701N00201007501CN0100001N1+02661+02481101131ADDAA199000091GA1021+006009099GA2031+007509069GF106991041031008001071001GJ104509MA1999999101361MD1210191+9999REMSYN100AAXX  08181 40734 32560 62702 10266 20248 30136 40113 52019 84370 91750 333 55075 82920 83625 86457;EQDQ01  00002PRCP99
0223407340999992000090900004+36500+051570FM-12-002099999V0202901N00601036001CN0100001N1+02601+02271101471ADDAA199000091GA1021+006009099GA2041+007509069GF108991041031008001021999MA1999999101701MD1210141+9999REMSYN094AAXX  09001 40734 32560 82906 10260 20227 30170 40147 52014 8432/ 92350 333 82920 84625 88457;EQDQ01  00002PRCP99
0256407340999992000090906004+36500+051570FM-12-002099999V0201401N00201036001CN0080001N1+02501+02381101741ADDAA106005191AY181061AY281061GA1011+007509099GA2031+009009069GF108991041031008001021999MA1999999101971MD1210091+9999MW1101REMSYN124AAXX  09061 40734 11558 81402 10250 20238 30197 40174 52009 60051 71088 8432/ 90550 333 31022 50481 70048 81925 83630 88458;
0216407340999992000090912004+36500+051570FM-12-002099999V0202601N00201036001CN0100001N1+02501+02271101631ADDAA106003091AY181061AY281061GA1011+007509089GF108991011021008001021999MA1999999101861MD1610111+9999MW1021REMSYN100AAXX  09121 40734 11560 82602 10250 20227 30186 40163 56011 60031 70288 8122/ 91145 333 81825 88459;
0201407340999992000091000004+36500+051570FM-12-002099999V0209999C00001036001CN0100001N1+02321+02201101531ADDAA199000091GA1041+006009069GF108991041051008001021999MA1999999101761MD1610041+9999REMSYN088AAXX  10001 40734 32560 80000 10232 20220 30176 40153 56004 8452/ 92350 333 84620 88458;EQDQ01  00002PRCP99
0234407340999992000091006004+36500+051570FM-12-002099999V0202101N00301036001CN0080001N1+02241+02161101521ADDAA106010991AY151061AY251061GA1021+007509069GF108991021051008001021999MA1999999101751MD1810011+9999MW1201REMSYN118AAXX  10061 40734 11558 82103 10224 20216 30175 40152 58001 60111 72055 8252/ 90545 333 32022 50121 70131 82625 88458;
0238407340999992000091012004+36500+051570FM-12-002099999V0201801N003010036019N0020001N1+02221+02141101371ADDAA106002091AY161061AY251061GA1061+003609079GA2011+006009099GF108991061031004501021999MA1999999101601MD1510001+9999MW1521REMSYN106AAXX  10121 40734 11420 81803 10222 20214 30160 40137 55000 60021 75265 8632/ 91145 333 86712 81920 88458;
0252407340999992000091018004+36500+051570FM-12-002099999V0202101N00401036001CN0080001N1+02241+02001101511ADDAA106005191AY181061AY261061GA1031+006009079GA2011+007509099GF108991041031008001021999GJ100009MA1999999101741MD1110111+9999MW1101REMSYN112AAXX  10181 40734 11558 82104 10224 20200 30174 40151 51011 60051 71086 8432/ 91750 333 55000 83720 81925 88458;
0273407340999992000091100004+36500+051570FM-12-002099999V0202401N003010036019N0030001N1+02001+01971999999ADDAA106032091AY181061AY281061GA1051+003609079GA2011+007509099GF108991051031004501021999MA1999999101811MD1410001+9999MW1611REMSYN106AAXX  11001 40734 11430 82403 10200 20197 30181 49158 54000 60321 76188 8532/ 92350 333 85712 81925 88557;EQDQ01+091583APOSLPQ02 091583APOSLP
0256407340999992000091106004+36500+051570FM-12-002099999V0202101N00401036001CN0070001N1+02061+01941101731ADDAA106011991AY161061AY261061GA1031+004509079GA2011+007509099GF108991041031004501021999MA1999999101961MD1210141+9999MW1601REMSYN124AAXX  11061 40734 11457 82104 10206 20194 30196 40173 52014 60121 76066 8432/ 90550 333 32020 50201 70504 83715 81925 88558;
0196407340999992000091118004+36500+051570FM-12-002099999V0209999C00001036001CN0100001N1+02041+01781101521ADDAA199000021GA1021+007509069GF107991021041008001071001GJ100009MA1999999101751MD1810051+9999REMSYN094AAXX  11181 40734 32560 70000 10204 20178 30175 40152 58005 82470 91745 333 55000 82625 87359;
0201407340999992000091200004+36500+051570FM-12-002099999V0209999C00001036001CN0120001N1+01901+01771101271ADDAA199000091GA1011+007509089GF107991011011008001071001MA1999999101501MD1710121+9999REMSYN088AAXX  12001 40734 32562 70000 10190 20177 30150 40127 57012 81170 92345 333 81825 87359;EQDQ01  00002PRCP99
0209407340999992000091218004+36500+051570FM-12-002099999V0209999C000012200019N0100001N1+01981+01911100681ADDAA199000091GA1011+009009059GF101991011041008001001001GJ101809MA1999999100901MD1410001+9999REMSYN088AAXX  12181 40734 32560 10000 10198 20191 30090 40068 54000 81400 91750 333 55030 81630;EQDQ01  00002PRCP99
0195407340999992000091300004+36500+051570FM-12-002099999V0209999C000010300019N0100001N1+02041+01891100571ADDAA199000091GA1061+030009079GF106991061001999999031001MA1999999100801MD1610031+9999REMSYN082AAXX  13001 40734 32960 60000 10204 20189 30080 40057 56003 86030 92350 333 86360;EQDQ01  00002PRCP99
0191407340999992000091306004+36500+051570FM-12-002099999V0209999C000012200019N0120001N1+02661+01921100691ADDAA124000091GF101991011011008001001001MA1999999100921MD1210071+9999REMSYN094AAXX  13061 40734 32562 10000 10266 20192 30092 40069 52007 81100 90550 333 31020 50271 70000;EQDQ01  00002PRCP24
0173407340999992000091312004+36500+051570FM-12-002099999V0200601N004012200019N0100001N1+02681+02061100621ADDAA199000091GF101991011011008001001001MA1999999100851MD1610051+9999REMSYN076AAXX  13121 40734 32560 10604 10268 20206 30085 40062 56005 81100 91150 333;EQDQ01  00002PRCP99
0189407340999992000091318004+36500+051570FM-12-002099999V0202101N003012200019N0100001N1+02221+02031100971ADDAA199000091GA1001+999999999GF100991001001999999001001MA1999999101201MD1210271+9999REMSYN076AAXX  13181 40734 32960 02103 10222 20203 30120 40097 52027 91750 333 55097;EQDQ01  00002PRCP99
0169407340999992000091500004+36500+051570FM-12-002099999V0209999C000010360019N0100001N1+02241+02091101421ADDAA199000091GF107991021031008001071001MA1999999101651MD1710051+9999REMSYN072AAXX  15001 40734 32560 70000 10224 20209 30165 40142 57005 82370 92345;EQDQ01  00002PRCP99
0219407340999992000091506004+36500+051570FM-12-002099999V0202701N00301036001CN0100001N1+02501+02111101401ADDAA124000091GA1021+009009069GF106991021041008001031001MA1999999101631MD1010011+9999REMSYN106AAXX  15061 40734 32560 62703 10250 20211 30163 40140 50001 82430 90550 333 31022 50221 70000 82630 85360;EQDQ01  00002PRCP24
0189407340999992000091518004+36500+051570FM-12-002099999V0201901N002012200019N0100001N1+02161+02081100971ADDAA199000091GA1001+999999999GF100991001001999999001001MA1999999101201MD1810041+9999REMSYN076AAXX  15181 40734 32960 01902 10216 20208 30120 40097 58004 91745 333 55002;EQDQ01  00002PRCP99
0195407340999992000091600004+36500+051570FM-12-002099999V0201801N002012200019N0100001N1+01981+01881100991ADDAA199000091GA1011+030009079GF101991011001999999031001MA1999999101221MD1310081+9999REMSYN082AAXX  16001 40734 32960 11802 10198 20188 30122 40099 53008 81030 92345 333 81360;EQDQ01  00002PRCP99
0201407340999992000091612004+36500+051570FM-12-002099999V0209999C000012200019N0100001N1+02621+02171100951ADDAA199000091GA1021+006009069GF103991021041008001061001MA1999999101181MD1610021+9999REMSYN088AAXX  16121 40734 32560 30000 10262 20217 30118 40095 56002 82460 91145 333 82620 83358;EQDQ01  00002PRCP99
0223407340999992000091700004+36500+051570FM-12-002099999V0202101N00201036001CN0100001N1+02261+02171101381ADDAA199000091GA1011+007509099GA2031+009009069GF108991031031008001021999MA1999999101611MD1210151+9999REMSYN094AAXX  17001 40734 32560 82102 10226 20217 30161 40138 52015 8332/ 92350 333 81925 83630 88459;EQDQ01  00002PRCP99
0219407340999992000091706004+36500+051570FM-12-002099999V0203301N00301036001CN0100001N1+02621+02231101581ADDAA124000091GA1011+009009069GF105991011041008001031001MA1999999101811MD1110071+9999REMSYN106AAXX  17061 40734 32560 53303 10262 20223 30181 40158 51007 81430 90550 333 30019 50271 70000 81630 85360;EQDQ01  00002PRCP24
0215407340999992000091718004+36500+051570FM-12-002099999V0209999C00001036001CN0100001N1+02321+02161101281ADDAA199000091GA1011+009009069GF107991011041008001071001GJ100069MA1999999101511MD1410001+9999REMSYN094AAXX  17181 40734 32560 70000 10232 20216 30151 40128 54000 81470 91745 333 55001 81630 87359;EQDQ01  00002PRCP99
0201407340999992000091800004+36500+051570FM-12-002099999V0209999C00001036001CN0100001N1+02241+02091101281ADDAA199000091GA1011+009009089GF107991011041008001071001MA1999999101511MD1410001+9999REMSYN088AAXX  18001 40734 32560 70000 10224 20209 30151 40128 54000 81470 92345 333 81830 87360;EQDQ01  00002PRCP99
0241407340999992000091806004+36500+051570FM-12-002099999V0202901N00301036001CN0100001N1+02501+02111101441ADDAA124000091GA1011+007509099GA2021+009009069GF107991031031008001071001MA1999999101671MD1310071+9999REMSYN112AAXX  18061 40734 32560 72903 10250 20211 30167 40144 53007 83370 90545 333 30021 50181 70000 81925 82630 87459;EQDQ01  00002PRCP24
0216407340999992000091812004+36500+051570FM-12-002099999V0203101N00201036001CN0100001N1+02561+02171101361ADDAA106000191AY181061AY221061GA1021+009009089GF107991021021008001071001MA1999999101591MD1610041+9999MW1021REMSYN100AAXX  18121 40734 11560 73102 10256 20217 30159 40136 56004 69921 70282 82270 91145 333 82830 87460;
0230407340999992000091818004+36500+051570FM-12-002099999V0209999C00001036001CN0080001N1+02341+02271101541ADDAA106000191AY181061AY221061GA1031+006009069GF108991031051008001021999GJ100009MA1999999101771MD1210181+9999MW1021REMSYN106AAXX  18181 40734 11558 80000 10234 20227 30177 40154 52018 69911 70282 8352/ 91750 333 55000 83620 88458;
0223407340999992000091900004+36500+051570FM-12-002099999V0209999C00001007501CN0100001N1+02261+02231101571ADDAA199000091GA1021+006009099GA2031+007509069GF108991031031008001021999MA1999999101801MD1310031+9999REMSYN094AAXX  19001 40734 32560 80000 10226 20223 30180 40157 53003 8332/ 92345 333 82920 83625 88458;EQDQ01  00002PRCP99
0169407340999992000091906004+36500+051570FM-12-002099999V0202601N004010360019N0100001N1+02281+02101101771ADDAA199000091GF108991031031008001021999MA1999999102001MD1010101+9999REMSYN072AAXX  19061 40734 32560 82604 10228 20210 30200 40177 50010 8332/ 90550;EQDQ01  00002PRCP99
0238407340999992000091912004+36500+051570FM-12-002099999V0202301N00301036001CN0100001N1+02321+02011101771ADDAA106001091AY181061AY261061GA1021+006009099GA2041+007509069GF108991041031008001021999MA1999999102001MD1410001+9999MW1021REMSYN106AAXX  19121 40734 11560 82303 10232 20201 30200 40177 54000 60011 70286 8432/ 91145 333 82920 84625 88457;
0252407340999992000091918004+36500+051570FM-12-002099999V0201501N00201036001CN0080001N1+02121+02021101891ADDAA106002091AY181061AY261061GA1031+004509079GA2011+006009099GF108991041031004501021999GJ100009MA1999999102121MD1110111+9999MW1211REMSYN112AAXX  19181 40734 11458 81502 10212 20202 30212 40189 51011 60021 72186 8432/ 91745 333 55000 83715 81920 88457;
0204407340999992000092000004+36500+051570FM-12-002099999V0201801N00201036001CN0100001N1+02081+01981101771ADDAA199000021GA1011+007509099GA2021+010509069GF108991031031008001021999MA1999999102001MD1610091+9999REMSYN094AAXX  20001 40734 32560 81802 10208 20198 30200 40177 56009 8332/ 92345 333 81925 82635 88459;
0200407340999992000092006004+36500+051570FM-12-002099999V0202801N00501036001CN0100001N1+02421+01951101801ADDAA124002091GA1011+006009089GF106991011011008001071001MA1999999102231MD1410001+9999REMSYN106AAXX  20061 40734 32560 62805 10242 20195 30223 40180 54000 81170 90550 333 31020 50211 70020 81820 86360;
0201407340999992000092012004+36500+051570FM-12-002099999V0202501N00301036001CN0100001N1+02301+01991101571ADDAA199000091GA1021+007509099GF107991021031008001071001MA1999999101801MD1710141+9999REMSYN088AAXX  20121 40734 32560 72503 10230 20199 30180 40157 57014 82370 91145 333 82925 87359;EQDQ01  00002PRCP99
0215407340999992000092018004+36500+051570FM-12-002099999V0209999C00001036001CN0100001N1+02161+02011101571ADDAA199000091GA1011+007509089GF107991021081008001071001GJ100249MA1999999101801MD1610061+9999REMSYN094AAXX  20181 40734 32560 70000 10216 20201 30180 40157 56006 82870 91745 333 55004 81825 87359;EQDQ01  00002PRCP99
0219407340999992000092106004+36500+051570FM-12-002099999V0203101N00501036001CN0100001N1+02421+01991101401ADDAA124000091GA1011+009009089GF106991011021008001071001MA1999999101631MD1110041+9999REMSYN106AAXX  21061 40734 32560 63105 10242 20199 30163 40140 51004 81270 90550 333 31020 50181 70000 81830 86360;EQDQ01  00002PRCP24
0139407340999992000092109004+36500+051570FM-12-002099999V0202801N005010360019N0100001N1+02541+02111101311ADDGF107991021041008001071001MA1999999101551MD1810091+9999REMSYN072AAXX  21091 40734 42560 72805 10254 20211 30155 40131 58009 82470 90850;
0215407340999992000092118004+36500+051570FM-12-002099999V0202101N00201036001CN0100001N1+02281+02101101241ADDAA199000091GA1021+009009069GF105991021041008001071001GJ100549MA1999999101471MD1210071+9999REMSYN094AAXX  21181 40734 32560 52102 10228 20210 30147 40124 52007 82470 91745 333 55009 82630 85359;EQDQ01  00002PRCP99
0201407340999992000092200004+36500+051570FM-12-002099999V0201801N00201036001CN0100001N1+02141+01951101261ADDAA199000091GA1021+009009069GF105991021041008001071001MA1999999101491MD1410001+9999REMSYN088AAXX  22001 40734 32560 51802 10214 20195 30149 40126 54000 82470 92345 333 82630 86359;EQDQ01  00002PRCP99
0219407340999992000092206004+36500+051570FM-12-002099999V0203101N00401036001CN0100001N1+02441+02261101351ADDAA124000091GA1021+007509089GF106991021021008001071001MA1999999101581MD1210071+9999REMSYN106AAXX  22061 40734 32560 63104 10244 20226 30158 40135 52007 82270 90545 333 31022 50181 70000 82825 86359;EQDQ01  00002PRCP24
0201407340999992000092212004+36500+051570FM-12-002099999V0200301N004012200019N0100001N1+02601+02101101211ADDAA199000091GA1011+006009089GF102991021031008001031001MA1999999101441MD1610061+9999REMSYN088AAXX  22121 40734 32560 20304 10260 20210 30144 40121 56006 82330 91145 333 81820 81940;EQDQ01  00002PRCP99
0215407340999992000092218004+36500+051570FM-12-002099999V0202301N00201036001CN0100001N1+02361+02201101321ADDAA199000091GA1011+006009089GF105991011021008001071001GJ103429MA1999999101551MD1210071+9999REMSYN094AAXX  22181 40734 32560 52302 10236 20220 30155 40132 52007 81270 91745 333 55057 81820 85359;EQDQ01  00002PRCP99
0195407340999992000092300004+36500+051570FM-12-002099999V0202101N002012200019N0100001N1+02061+01961101331ADDAA199000091GA1021+030009079GF102991021001999999031001MA1999999101561MD1110051+9999REMSYN082AAXX  23001 40734 32960 22102 10206 20196 30156 40133 51005 82030 92350 333 82360;EQDQ01  00002PRCP99
0201407340999992000092306004+36500+051570FM-12-002099999V0201201N003012200019N0100001N1+02781+02181101461ADDAA124000091GA1001+999999999GF100991001001999999001001MA1999999101731MD1010051+9999REMSYN088AAXX  23061 40734 32960 01203 10278 20218 30173 40146 50005 90550 333 30021 50391 70000;EQDQ01  00002PRCP24
0201407340999992000092312004+36500+051570FM-12-002099999V0200201N003012200019N0120001N1+02701+02261101471ADDAA199000091GA1011+006009089GF103991011011008001031021MA1999999101701MD1410001+9999REMSYN088AAXX  23121 40734 32562 30203 10270 20226 30170 40147 54000 81132 91150 333 81820 83360;EQDQ01  00002PRCP99
0209407340999992000092318004+36500+051570FM-12-002099999V0209999C000012200019N0100001N1+02121+01971101571ADDAA199000091GA1011+009009029GF101991011011008001031001GJ103669MA1999999101801MD1110101+9999REMSYN088AAXX  23181 40734 32560 10000 10212 20197 30180 40157 51010 81130 91745 333 55061 81830;EQDQ01  00002PRCP99
0256407340999992000092406004+36500+051570FM-12-002099999V0201501N00401036001CN0100001N1+01881+01811101771ADDAA106007191AY121061AY211061GA1011+007509099GA2031+009009069GF105991041031008001071001MA1999999102001MD1010301+9999MW1251REMSYN124AAXX  24061 40734 11560 51504 10188 20181 30200 40177 50030 60071 72521 84370 90545 333 31018 50421 70069 81925 83630 84459;
0182407340999992000092412004+36500+051570FM-12-002099999V0200601N005012200019N0120001N1+02461+01901101601ADDAA199000021GA1011+007509089GF104991011021008001031001MA1999999101831MD1410001+9999REMSYN088AAXX  24121 40734 32562 40605 10246 20190 30183 40160 54000 81230 91145 333 81825 84360;
0230407340999992000092418004+36500+051570FM-12-002099999V0201301N00501036001CN0050001N1+02181+02041101881ADDAA106011991AY181061AY221061GA1041+007509099GF108991041031008001021999GJ102589MA1999999102011MD1210121+9999MW1811REMSYN106AAXX  24181 40734 11550 81305 10218 20204 30201 40188 52012 60121 78182 8432/ 91750 333 55043 84925 88458;
0184407340999992000092500004+36500+051570FM-12-002099999V0201301N002010360019N0080001N1+02101+02001101771ADDAA106005191AY181061AY221061GF108991021031008001021999MA1999999102001MD1610081+9999MW1251REMSYN084AAXX  25001 40734 11558 81302 10210 20200 30200 40177 56008 60051 72582 8232/ 92350;
0222407340999992000092506004+36500+051570FM-12-002099999V0200901N00701036001CN0100001N1+02261+01751101871ADDAA124016891GA1011+007509099GA2021+009009069GF105991021031008001071001MA1999999102101MD1110101+9999REMSYN112AAXX  25061 40734 32560 50907 10226 20175 30210 40187 51010 82370 90550 333 31019 50361 70168 81925 82630 84359;
0176407340999992000092512004+36500+051570FM-12-002099999V0200701N007012200019N0100001N1+02461+01871101871ADDAA199000021GA1011+006009029GF101991011011008001001001MA1999999102101MD1410001+9999REMSYN082AAXX  25121 40734 32560 10707 10246 20187 30210 40187 54000 81100 91150 333 81820;
0209407340999992000092518004+36500+051570FM-12-002099999V0201601N003012200019N0100001N1+01971+01831101911ADDAA199000091GA1011+010509059GF101991011041012501001001GJ103909MA1999999102141MD1110041+9999REMSYN088AAXX  25181 40734 32660 11603 10197 20183 30214 40191 51004 81400 91745 333 55065 81635;EQDQ01  00002PRCP99
0183407340999992000092600004+36500+051570FM-12-002099999V0201701N002012200019N0100001N1+01761+01661101671ADDAA199000091GA1001+999999999GF100991001001999999001001MA1999999101901MD1710101+9999REMSYN070AAXX  26001 40734 32960 01702 10176 20166 30190 40167 57010 92350 333;EQDQ01  00002PRCP99
0213407340999992000092606004+36500+051570FM-12-002099999V0200901N005012200019N0120001N1+02381+01711101521ADDAA124000091GA1011+007509029GF101991011011008001031001MA1999999101751MD1810081+9999REMSYN100AAXX  26061 40734 32562 10905 10238 20171 30175 40152 58008 81130 90545 333 31016 50221 70000 81825;EQDQ01  00002PRCP24
0209407340999992000092618004+36500+051570FM-12-002099999V0209999C000012200019N0120001N1+01941+01811100971ADDAA199000091GA1021+030009079GF102991021001999999031001GJ105769MA1999999101201MD1110101+9999REMSYN088AAXX  26181 40734 32962 20000 10194 20181 30120 40097 51010 82030 91750 333 55096 82360;EQDQ01  00002PRCP99
0183407340999992000092700004+36500+051570FM-12-002099999V0209999C000012200019N0100001N1+01781+01681100931ADDAA199000091GA1001+999999999GF100991001001999999001001MA1999999101161MD1410001+9999REMSYN070AAXX  27001 40734 32960 00000 10178 20168 30116 40093 54000 92350 333;EQDQ01  00002PRCP99
0219407340999992000092706004+36500+051570FM-12-002099999V0202901N00301036001CN0100001N1+02401+01901101101ADDAA124000091GA1011+007509069GF106991011041008001031001MA1999999101331MD1110131+9999REMSYN106AAXX  27061 40734 32560 62903 10240 20190 30133 40110 51013 81430 90545 333 30016 50311 70000 81625 86358;EQDQ01  00002PRCP24
0201407340999992000092712004+36500+051570FM-12-002099999V0203301N00301036001CN0100001N1+02481+02051100961ADDAA199000091GA1011+007509089GF106991011021008001031001MA1999999101191MD1610061+9999REMSYN088AAXX  27121 40734 32560 63303 10248 20205 30119 40096 56006 81230 91150 333 81825 86359;EQDQ01  00002PRCP99
0215407340999992000092718004+36500+051570FM-12-002099999V0201801N00201036001CN0100001N1+02221+02001101191ADDAA199000091GA1011+007509099GF107991011031008001071001GJ101029MA1999999101401MD1210171+9999REMSYN094AAXX  27181 40734 32560 71802 10222 20200 30140 40119 52017 81370 91745 333 55017 81925 87359;EQDQ01  00002PRCP99
0201407340999992000092800004+36500+051570FM-12-002099999V0201101N00201036001CN0100001N1+02181+01991101171ADDAA199000091GA1021+007509099GF107991021031008001071001MA1999999101401MD1410001+9999REMSYN088AAXX  28001 40734 32560 71102 10218 20199 30140 40117 54000 82370 92345 333 82925 87359;EQDQ01  00002PRCP99
0219407340999992000092806004+36500+051570FM-12-002099999V0209999C00001036001CN0100001N1+02401+02091101371ADDAA124000091GA1011+007509089GF107991011021008001071001MA1999999101601MD1210121+9999REMSYN106AAXX  28061 40734 32560 70000 10240 20209 30160 40137 52012 81270 90545 333 30021 50271 70000 81825 87359;EQDQ01  00002PRCP24
0201407340999992000092912004+36500+051570FM-12-002099999V0201401N00401036001CN0100001N1+02341+01991101671ADDAA199000091GA1011+007509099GF107991011031008001071001MA1999999101901MD1810201+9999REMSYN088AAXX  29121 40734 32560 71404 10234 20199 30190 40167 58020 81370 91145 333 81925 87359;EQDQ01  00002PRCP99
0201407340999992000093000004+36500+051570FM-12-002099999V0201201N00301036001CN0100001N1+02021+01871101331ADDAA199000091GA1031+009009069GF108991031051008001021999MA1999999101561MD1710441+9999REMSYN088AAXX  30001 40734 32560 81203 10202 20187 30156 40133 57044 8352/ 92350 333 83630 88458;EQDQ01  00002PRCP99
0244407340999992000093006004+36500+051570FM-12-002099999V0200101N00201009001CN0100001N1+02301+01751101451ADDAA124000791GA1011+007509079GA2011+009009099GA3031+009009069GF107991041031008001071001MA1999999101651MD1010091+9999REMSYN118AAXX  30061 40734 32560 70102 10230 20175 30165 40145 50009 84370 90550 333 30017 50151 79999 81725 81930 83630 87470;
0216407340999992000093012004+36500+051570FM-12-002099999V0200601N00801007501CN0100001N1+02341+02131101281ADDAA106000591AY181061AY211061GA1021+006009099GF105991051031008001031001MA1999999101511MD1810071+9999MW1251REMSYN100AAXX  30121 40734 11560 50608 10234 20213 30151 40128 58007 69941 72581 85330 91150 333 82920 83630;
0230407340999992000093018004+36500+051570FM-12-002099999V0202701N00501036001CN0100001N1+02141+02071101271ADDAA106000191AY181061AY211061GA1021+004509079GF105991021071004501071001GJ101569MA1999999101501MD1410001+9999MW1011REMSYN106AAXX  30181 40734 11460 52705 10214 20207 30150 40127 54000 69921 70181 82770 91750 333 55026 82715 85358;
0238407340999992000100100004+36500+051570FM-12-002099999V0202701N00501036001CN0100001N1+02041+01701101471ADDAA106005191AY161061AY221061GA1021+006009099GA2021+007509069GF108991041031008001021999MA1999999101701MD1110101+9999MW1021REMSYN106AAXX  01001 40734 11560 82705 10204 20170 30170 40147 51010 60051 70262 8432/ 92350 333 82920 82625 88457;
0256407340999992000100106004+36500+051570FM-12-002099999V0203301N005010030019N0030001N1+01701+01701101911ADDAA106067191AY161061AY261061GA1051+003009079GA2021+006009099GF108991051031002501021999MA1999999102141MD1210141+9999MW1651REMSYN124AAXX  01061 40734 11330 83305 10170 20170 30214 40191 52014 60671 76566 8532/ 90545 333 32017 50281 70732 85710 82920 88550;
0238407340999992000100112004+36500+051570FM-12-002099999V0202401N005010030019N0030001N1+01621+01621102031ADDAA106096091AY161061AY261061GA1051+003009079GA2021+006009099GF108991051031002501021999MA1999999102261MD1310061+9999MW1651REMSYN106AAXX  01121 40734 11330 82405 10162 20162 30226 40203 53006 60961 76566 8532/ 91145 333 85710 82920 88550;
0238407340999992000100200004+36500+051570FM-12-002099999V0202301N00201036001CN0040001N1+01541+01481102181ADDAA106003091AY161061AY221061GA1031+004509079GA2011+007509099GF108991041031004501021999MA1999999102411MD1410001+9999MW1611REMSYN106AAXX  02001 40734 11440 82302 10154 20148 30241 40218 54000 60031 76162 8432/ 92350 333 83715 81925 88557;
0234407340999992000100206004+36500+051570FM-12-002099999V0203601N00201036001CN0040001N1+01541+01481102301ADDAA106007991AY161061AY261061GA1041+003009079GF108991041071004501021999MA1999999102531MD1310051+9999MW1611REMSYN118AAXX  02061 40734 11440 83602 10154 20148 30253 40230 53005 60081 76166 8472/ 90550 333 32014 50421 70123 84710 88556;
0238407340999992000100212004+36500+051570FM-12-002099999V0202101N00301006001CN0040001N1+01541+01391102301ADDAA106005191AY161061AY261061GA1031+003009079GA2021+006009099GF108991041031004501021999MA1999999102531MD1510001+9999MW1611REMSYN106AAXX  02121 40734 11440 82103 10154 20139 30253 40230 55000 60051 76166 8432/ 91150 333 83710 82920 88550;
0252407340999992000100218004+36500+051570FM-12-002099999V0201801N004010045019N0040001N1+01401+01341102451ADDAA106001091AY161061AY261061GA1051+004509079GA2011+006009099GF108991051031004501021999GJ100009MA1999999102681MD1310081+9999MW1611REMSYN112AAXX  02181 40734 11440 81804 10140 20134 30268 40245 53008 60011 76166 8532/ 91745 333 55000 85715 81920 88550;
0256407340999992000100306004+36500+051570FM-12-002099999V0202601N00201036001CN0080001N1+01541+01321102571ADDAA106004191AY161061AY261061GA1011+007509099GA2021+009009069GF108991041031008001021999MA1999999102801MD1110101+9999MW1211REMSYN124AAXX  03061 40734 11558 82602 10154 20132 30280 40257 51010 60041 72166 8432/ 90550 333 32014 50311 70119 81925 82630 88459;
0196407340999992000100318004+36500+051570FM-12-002099999V0201801N002012200019N0100001N1+01381+01281102371ADDAA199000021GA1031+007509069GF104991031051008001071001GJ100069MA1999999102601MD1010001+9999REMSYN094AAXX  03181 40734 32560 41802 10138 20128 30260 40237 50000 83570 91750 333 55001 83625 84358;
0201407340999992000100400004+36500+051570FM-12-002099999V0201701N00301036001CN0100001N1+01461+01071102271ADDAA199000091GA1031+007509069GF106991031051008001071001MA1999999102501MD1610061+9999REMSYN088AAXX  04001 40734 32560 61703 10146 20107 30250 40227 56006 83570 92350 333 83625 86360;EQDQ01  00002PRCP99
0223407340999992000100412004+36500+051570FM-12-002099999V0202401N00201036001CN0100001N1+02001+01411102401ADDAA199000091GA1011+007509099GA2021+009009069GF107991031031008001071001MA1999999102631MD1110091+9999REMSYN094AAXX  04121 40734 32560 72402 10200 20141 30263 40240 51009 83370 91145 333 81925 82630 87459;EQDQ01  00002PRCP99
0201407340999992000100500004+36500+051570FM-12-002099999V0201901N002012200019N0100001N1+01481+01261102431ADDAA199000091GA1011+007509099GF103991011031008001031001MA1999999102661MD1810081+9999REMSYN088AAXX  05001 40734 32560 31902 10148 20126 30266 40243 58008 81330 92350 333 81925 83360;EQDQ01  00002PRCP99
0200407340999992000100506004+36500+051570FM-12-002099999V0202901N00301036001CN0100001N1+01961+01461102471ADDAA124024691GA1021+007509089GF105991021021008001061001MA1999999102701MD1310031+9999REMSYN106AAXX  05061 40734 32560 52903 10196 20146 30270 40247 53003 82260 90545 333 32012 50271 70247 82825 84357;
0195407340999992000100512004+36500+051570FM-12-002099999V0200901N002012200019N0120001N1+02021+01391102281ADDAA199000091GA1011+006009029GF102991021081008001001001MA1999999102511MD1710101+9999REMSYN082AAXX  05121 40734 32562 20902 10202 20139 30251 40228 57010 82800 91145 333 81820;EQDQ01  00002PRCP99
0209407340999992000100518004+36500+051570FM-12-002099999V0201901N003012200019N0120001N1+01461+01361102281ADDAA199000091GA1011+007509029GF101991011011008001001001GJ104509MA1999999102511MD1410001+9999REMSYN088AAXX  05181 40734 32562 11903 10146 20136 30251 40228 54000 81100 91745 333 55075 81825;EQDQ01  00002PRCP99
0183407340999992000100600004+36500+051570FM-12-002099999V0202101N003012200019N0120001N1+01321+01171102111ADDAA199000091GA1001+999999999GF100991001001999999001001MA1999999102341MD1810061+9999REMSYN070AAXX  06001 40734 32962 02103 10132 20117 30234 40211 58006 92345 333;EQDQ01  00002PRCP99
0195407340999992000100612004+36500+051570FM-12-002099999V0200601N005012200019N0120001N1+02301+01261102211ADDAA199000091GA1011+007509029GF101991011021008001001001MA1999999102441MD1510031+9999REMSYN082AAXX  06121 40734 32562 10605 10230 20126 30244 40221 55003 81200 91145 333 81825;EQDQ01  00002PRCP99
0189407340999992000100618004+36500+051570FM-12-002099999V0201601N003012200019N0100001N1+01541+01391102361ADDAA199000091GA1001+999999999GF100991001001999999001001MA1999999102591MD1210071+9999REMSYN076AAXX  06181 40734 32960 01603 10154 20139 30259 40236 52007 91745 333 55099;EQDQ01  00002PRCP99
0183407340999992000100700004+36500+051570FM-12-002099999V0201801N002012200019N0100001N1+01341+01241102291ADDAA199000091GA1001+999999999GF100991001001999999001001MA1999999102521MD1610051+9999REMSYN070AAXX  07001 40734 32960 01802 10134 20124 30252 40229 56005 92345 333;EQDQ01  00002PRCP99
0201407340999992000100712004+36500+051570FM-12-002099999V0200701N005012200019N0150001N1+02281+01331102101ADDAA199000091GA1021+009009089GF103991021011008001001011MA1999999102401MD1810101+9999REMSYN088AAXX  07121 40734 32565 30705 10228 20133 30240 40210 58010 82101 91150 333 82830 83070;EQDQ01  00002PRCP99
0215407340999992000100718004+36500+051570FM-12-002099999V0209999C000012200019N0100001N1+01541+01291102231ADDAA199000091GA1031+009009069GF104991031041008001001011GJ105829MA1999999102461MD1310061+9999REMSYN094AAXX  07181 40734 32560 40000 10154 20129 30246 40223 53006 83401 91745 333 55097 83630 84070;EQDQ01  00002PRCP99
0201407340999992000100800004+36500+051570FM-12-002099999V0209999C00001036001CN0100001N1+01481+01331102101ADDAA199000091GA1031+009009069GF105991031051008001071001MA1999999102401MD1610061+9999REMSYN088AAXX  08001 40734 32560 50000 10148 20133 30240 40210 56006 83570 92350 333 83630 85360;EQDQ01  00002PRCP99
0213407340999992000100806004+36500+051570FM-12-002099999V0209999C000012200019N0120001N1+02221+01361102271ADDAA124000091GA1011+006009029GF101991011011008001001011MA1999999102501MD1110041+9999REMSYN100AAXX  08061 40734 32562 10000 10222 20136 30250 40227 51004 81101 90545 333 31010 50401 70000 81820;EQDQ01  00002PRCP24
0201407340999992000100812004+36500+051570FM-12-002099999V0209999C000012200019N0120001N1+02181+01581102021ADDAA199000091GA1011+006009089GF103991021081008001061011MA1999999102251MD1710091+9999REMSYN088AAXX  08121 40734 32562 30000 10218 20158 30225 40202 57009 82861 91145 333 81820 83359;EQDQ01  00002PRCP99
0209407340999992000100818004+36500+051570FM-12-002099999V0209999C000012200019N0120001N1+01641+01581101971ADDAA199000091GA1021+027009079GF102991021001008001031001GJ104029MA1999999102201MD1410001+9999REMSYN088AAXX  08181 40734 32562 20000 10164 20158 30220 40197 54000 82030 91750 333 55067 82359;EQDQ01  00002PRCP99
0183407340999992000100900004+36500+051570FM-12-002099999V0209999C000012200019N0100001N1+01461+01401101771ADDAA199000091GA1001+999999999GF100991001001999999001001MA1999999102001MD1610101+9999REMSYN070AAXX  09001 40734 32960 00000 10146 20140 30200 40177 56010 92350 333;EQDQ01  00002PRCP99
0213407340999992000100906004+36500+051570FM-12-002099999V0203301N003012200019N0120001N1+02121+01761101731ADDAA124000091GA1011+007509029GF101991011021008001001001MA1999999101961MD1810041+9999REMSYN100AAXX  09061 40734 32562 13303 10212 20176 30196 40173 58004 81200 90550 333 30012 50181 70000 81825;EQDQ01  00002PRCP24
0195407340999992000100912004+36500+051570FM-12-002099999V0200401N003012200019N0120001N1+02201+01671101411ADDAA199000091GA1011+009009059GF102991011041008001031021MA1999999101641MD1710101+9999REMSYN082AAXX  09121 40734 32562 20403 10220 20167 30164 40141 57010 81432 91145 333 81630;EQDQ01  00002PRCP99
0209407340999992000100918004+36500+051570FM-12-002099999V0209999C000012200019N0100001N1+01641+01511101431ADDAA199000091GA1041+030009079GF104991041001999999031001GJ104809MA1999999101661MD1110061+9999REMSYN088AAXX  09181 40734 32960 40000 10164 20151 30166 40143 51006 84030 91745 333 55080 84360;EQDQ01  00002PRCP99
0195407340999992000101000004+36500+051570FM-12-002099999V0209999C000012200019N0100001N1+01621+01491101401ADDAA199000091GA1031+030009079GF103991031001999999031001MA1999999101631MD1110031+9999REMSYN082AAXX  10001 40734 32960 30000 10162 20149 30163 40140 51003 83030 92345 333 83360;EQDQ01  00002PRCP99
0213407340999992000101006004+36500+051570FM-12-002099999V0209999C000012200019N0100001N1+02201+01571101471ADDAA124000091GA1011+006009029GF101991011011008001001001MA1999999101701MD1110031+9999REMSYN100AAXX  10061 40734 32560 10000 10220 20157 30170 40147 51003 81100 90545 333 30012 50271 70000 81820;EQDQ01  00002PRCP24
0195407340999992000101012004+36500+051570FM-12-002099999V0200201N002012200019N0100001N1+02201+01671101321ADDAA199000091GA1011+006009029GF101991011011008001001001MA1999999101551MD1710051+9999REMSYN082AAXX  10121 40734 32560 10202 10220 20167 30155 40132 57005 81100 91145 333 81820;EQDQ01  00002PRCP99
0209407340999992000101018004+36500+051570FM-12-002099999V0201801N002012200019N0100001N1+01641+01541101401ADDAA199000091GA1011+030009079GF101991011001999999031001GJ104629MA1999999101621MD1310031+9999REMSYN088AAXX  10181 40734 32960 11802 10164 20154 30162 40140 53003 81030 91745 333 55077 81360;EQDQ01  00002PRCP99
0183407340999992000101100004+36500+051570FM-12-002099999V0201901N002012200019N0100001N1+01561+01481101371ADDAA199000091GA1001+999999999GF100991001001999999001001MA1999999101601MD1410001+9999REMSYN070AAXX  11001 40734 32960 01902 10156 20148 30160 40137 54000 92350 333;EQDQ01  00002PRCP99
0195407340999992000101112004+36500+051570FM-12-002099999V0200301N003012200019N0100001N1+02321+01711101441ADDAA199000091GA1021+006009029GF102991021011008001001001MA1999999101571MD1410001+9999REMSYN082AAXX  11121 40734 32560 20303 10232 20171 30157 40144 54000 82100 91150 333 82820;EQDQ01  00002PRCP99
0189407340999992000101118004+36500+051570FM-12-002099999V0209999C000012200019N0100001N1+01681+01581101371ADDAA199000091GA1001+999999999GF100991001001999999001001MA1999999101601MD1410001+9999REMSYN076AAXX  11181 40734 32960 00000 10168 20158 30160 40137 54000 91745 333 55092;EQDQ01  00002PRCP99
0201407340999992000101200004+36500+051570FM-12-002099999V0201801N00201036001CN0100001N1+01641+01481101371ADDAA199000091GA1011+007509089GF107991021081008001071001MA1999999101601MD1310061+9999REMSYN088AAXX  12001 40734 32560 71802 10164 20148 30160 40137 53006 82870 92350 333 81825 87359;EQDQ01  00002PRCP99
0234407340999992000101206004+36500+051570FM-12-002099999V0202101N00201036001CN0100001N1+01961+01701101671ADDAA106000791AY161061AY221061GA1011+009009069GF107991021081008001071001MA1999999101901MD1110181+9999MW1021REMSYN118AAXX  12061 40734 11560 72102 10196 20170 30190 40167 51018 69901 70262 82870 90545 333 30012 50181 79999 81630 86360;
0223407340999992000101212004+36500+051570FM-12-002099999V0209999C00001007501CN0100001N1+02221+01801101631ADDAA199000091GA1021+006009099GA2031+007509069GF106991041031008001071001MA1999999101861MD1510001+9999REMSYN094AAXX  12121 40734 32560 60000 10222 20180 30186 40163 55000 84370 91145 333 82920 83625 86460;EQDQ01  00002PRCP99
0252407340999992000101218004+36500+051570FM-12-002099999V0200301N00401007501CN0100001N1+02121+01841101771ADDAA106000591AY181061AY221061GA1021+006009099GA2031+007509069GF106991031031008001071001GJ100909MA1999999102001MD1210301+9999MW1021REMSYN112AAXX  12181 40734 11560 60304 10212 20184 30200 40177 52030 69941 70282 83370 91745 333 55015 82920 83625 85357;
0223407340999992000101300004+36500+051570FM-12-002099999V0201601N00201036001CN0100001N1+01901+01801101771ADDAA199000091GA1011+006009099GA2031+007509069GF108991031031008001021999MA1999999102001MD1610021+9999REMSYN094AAXX  13001 40734 32560 81602 10190 20180 30200 40177 56002 8332/ 92345 333 81920 83625 88458;EQDQ01  00002PRCP99
0222407340999992000101306004+36500+051570FM-12-002099999V0202701N00301036001CN0100001N1+02061+01841101821ADDAA124000591GA1011+006009089GA2031+007509069GF107991031031008001071001MA1999999102051MD1110051+9999REMSYN112AAXX  13061 40734 32560 72703 10206 20184 30205 40182 51005 83370 90545 333 30013 50081 70004 81820 83625 87358;
0223407340999992000101312004+36500+051570FM-12-002099999V0202401N00501036001CN0100001N1+01921+01751101771ADDAA199000091GA1011+006009099GA2031+009009069GF108991031031008001021999MA1999999102001MD1410001+9999REMSYN094AAXX  13121 40734 32560 82405 10192 20175 30200 40177 54000 8332/ 91145 333 81920 83630 88458;EQDQ01  00002PRCP99
0252407340999992000101318004+36500+051570FM-12-002099999V0202701N004010030019N0010001N1+01681+01681101971ADDAA106005191AY161061AY221061GA1061+003009079GA2011+006009099GF108991061031004501021999GJ100009MA1999999102201MD1210101+9999MW1541REMSYN112AAXX  13181 40734 11410 82704 10168 20168 30220 40197 52010 60051 75462 8632/ 91745 333 55000 86710 81920 88456;
0216407340999992000101400004+36500+051570FM-12-002099999V0200301N002010036019N0010001N1+01681+01651101931ADDAA106009991AY161061AY251061GA1061+003609079GF108991061061004501021999MA1999999102161MD1410001+9999MW1531REMSYN100AAXX  14001 40734 11410 80302 10168 20165 30216 40193 54000 60101 75365 8662/ 92345 333 86712 88457;
0256407340999992000101406004+36500+051570FM-12-002099999V0202501N003010060019N0020001N1+01521+01491102271ADDAA106042991AY161061AY261061GA1041+003009079GA2021+006009099GF108991051031004501021999MA1999999102501MD1210251+9999MW1631REMSYN124AAXX  14061 40734 11420 82503 10152 20149 30250 40227 52025 60431 76366 8532/ 90550 333 32011 50141 70586 84710 82920 88550;
0238407340999992000101412004+36500+051570FM-12-002099999V0202101N003010060019N0040001N1+01521+01361102351ADDAA106008991AY161061AY261061GA1041+003009079GA2021+006009099GF108991051031004501021999MA1999999102581MD1310021+9999MW1101REMSYN106AAXX  14121 40734 11440 82103 10152 20136 30258 40235 53002 60091 71066 8532/ 91150 333 84710 82920 88550;
0252407340999992000101418004+36500+051570FM-12-002099999V0202701N003010060019N0050001N1+01401+01401102521ADDAA106005191AY161061AY261061GA1051+006009079GA2011+007509099GF108991051031008001021999GJ100009MA1999999102751MD1210151+9999MW1611REMSYN112AAXX  14181 40734 11550 82703 10140 20140 30275 40252 52015 60051 76166 8532/ 91745 333 55000 85720 81925 88556;
0238407340999992000101500004+36500+051570FM-12-002099999V0202401N003010036019N0010001N1+01341+01341102531ADDAA106016091AY161061AY261061GA1051+003609079GA2011+006009099GF108991051031004501021999MA1999999102761MD1110061+9999MW1611REMSYN106AAXX  15001 40734 11410 82403 10134 20134 30276 40253 51006 60161 76166 8532/ 92345 333 85712 81920 88550;
0238407340999992000101512004+36500+051570FM-12-002099999V0201801N00401036001CN0060001N1+01381+01231102771ADDAA106006191AY161061AY261061GA1011+006009079GA2011+007509099GF108991021031008001021999MA1999999103001MD1310041+9999MW1611REMSYN106AAXX  15121 40734 11556 81804 10138 20123 30300 40277 53004 60061 76166 8232/ 91150 333 81720 81925 88557;
0230407340999992000101518004+36500+051570FM-12-002099999V0209999C00001036001CN0070001N1+01261+01231102871ADDAA106001091AY161061AY221061GA1031+007509069GF106991031051004501071001GJ100009MA1999999103101MD1110041+9999MW1101REMSYN106AAXX  15181 40734 11457 60000 10126 20123 30310 40287 51004 60011 71062 83570 91750 333 55000 83625 86457;
0176407340999992000101600004+36500+051570FM-12-002099999V0209999C000012200019N0100001N1+00981+00951102651ADDAA199000021GA1021+009009059GF102991021041008001001001MA1999999102881MD1810121+9999REMSYN082AAXX  16001 40734 32560 20000 10098 20095 30288 40265 58012 82400 92350 333 82630;
0195407340999992000101612004+36500+051570FM-12-002099999V0201001N004012200019N0150001N1+01881+01111102171ADDAA199000091GA1011+009009059GF102991011041008001001021MA1999999102401MD1710141+9999REMSYN082AAXX  16121 40734 32565 21004 10188 20111 30240 40217 57014 81402 91445 333 81630;EQDQ01  00002PRCP99
0252407340999992000101618004+36500+051570FM-12-002099999V0201501N00201090001CN0100001N1+01481+01261101971ADDAA106000591AY111061AY211061GA1011+007509099GA2011+009009069GF105991021031008001031021GJ104809MA1999999102101MD1810201+9999MW1251REMSYN112AAXX  16181 40734 11560 51502 10148 20126 30210 40197 58020 69941 72511 82332 91750 333 55080 81925 81630 83360;
0200407340999992000101706004+36500+051570FM-12-002099999V0202401N00201090001CN0100001N1+01681+01371101861ADDAA124000591GA1011+007509089GF106991011021008001031061MA1999999102091MD1110061+9999REMSYN106AAXX  17061 40734 32560 62402 10168 20137 30209 40186 51006 81236 90545 333 31012 50151 70006 81825 86268;
0223407340999992000101712004+36500+051570FM-12-002099999V0202401N00201036001CN0120001N1+01941+01421101701ADDAA199000091GA1011+007509099GA2011+010509069GF108991021031008001031071MA1999999101931MD1610071+9999REMSYN094AAXX  17121 40734 32562 82402 10194 20142 30193 40170 56007 82337 91145 333 81925 81635 88267;EQDQ01  00002PRCP99
0232407340999992000101800004+36500+051570FM-12-002099999V0209999C00001036001CN0080001N1+99999+99999999999ADDAA106000191AY181061AY221061GA1011+007509099GA2031+009009069GF108991031031008001021999MA1999999102051MD1110051+9999MW1251REMSYN100AAXX  18001 40734 11558 80000 20145 30205 4/182 51005 69911 72582 8332/ 92345 333 81925 83630 88458;
0194407340999992000101806004+36500+051570FM-12-002099999V0203601N002012200019N0120001N1+01961+01561101871ADDAA124000191GA1011+009009029GF102991011011008001031001MA1999999102101MD1410001+9999REMSYN100AAXX  18061 40734 32562 23602 10196 20156 30210 40187 54000 81130 90545 333 31015 50141 70001 81830;
0176407340999992000101812004+36500+051570FM-12-002099999V0200801N004012200019N0120001N1+01981+01501101641ADDAA199000021GA1031+009009059GF103991031041008001001001MA1999999101871MD1610131+9999REMSYN082AAXX  18121 40734 32562 30804 10198 20150 30187 40164 56013 83400 91145 333 83630;
0189407340999992000101818004+36500+051570FM-12-002099999V0201701N002012200019N0100001N1+01481+01381101561ADDAA199000091GA1001+999999999GF100991001001999999001001MA1999999101791MD1610021+9999REMSYN076AAXX  18181 40734 32960 01702 10148 20138 30179 40156 56002 91745 333 55060;EQDQ01  00002PRCP99
0183407340999992000101900004+36500+051570FM-12-002099999V0202201N002012200019N0100001N1+01381+01321101551ADDAA199000091GA1001+999999999GF100991001001999999001001MA1999999101781MD1310041+9999REMSYN070AAXX  19001 40734 32960 02202 10138 20132 30178 40155 53004 92345 333;EQDQ01  00002PRCP99
0219407340999992000101906004+36500+051570FM-12-002099999V0209999C00001036001CN0100001N1+01881+01361101871ADDAA124000091GA1011+007509089GF107991011011008001071001MA1999999102101MD1010111+9999REMSYN106AAXX  19061 40734 32560 70000 10188 20136 30210 40187 50011 81170 90545 333 31010 50181 70000 81825 87359;EQDQ01  00002PRCP24
0223407340999992000101912004+36500+051570FM-12-002099999V0203101N00501006001CN0100001N1+01941+01681101871ADDAA199000091GA1041+004509079GA2011+006009099GF107991041031004501071001MA1999999102101MD1510001+9999REMSYN094AAXX  19121 40734 32460 73105 10194 20168 30210 40187 55000 84370 91150 333 84715 81920 87359;EQDQ01  00002PRCP99
0215407340999992000101918004+36500+051570FM-12-002099999V0209999C00001036001CN0100001N1+01621+99999101871ADDAA199000091GA1021+007509069GF107991021041008001071001GJ100369MA1999999102101MD1410001+9999REMSYN094AAXX  19181 40734 32560 70000 10162 20176 30210 40187 54000 82470 91750 333 55006 82625 87359;EQDQ01  00002PRCP99
0201407340999992000102000004+36500+051570FM-12-002099999V0202401N00301036001CN0100001N1+01601+01441101871ADDAA199000091GA1011+007509089GF107991011041008001071001MA1999999102101MD1410001+9999REMSYN088AAXX  20001 40734 32560 72403 10160 20144 30210 40187 54000 81470 92350 333 81825 87359;EQDQ01  00002PRCP99
0241407340999992000102006004+36500+051570FM-12-002099999V0202101N00201007501CN0100001N1+01801+01521102201ADDAA124000091GA1021+006009099GA2031+007509069GF108991041031008001021999MA1999999102431MD1210181+9999REMSYN112AAXX  20061 40734 32560 82102 10180 20152 30243 40220 52018 8432/ 90545 333 30016 50091 70000 82920 83625 88458;EQDQ01  00002PRCP24
0223407340999992000102012004+36500+051570FM-12-002099999V0202701N01001036001CN0100001N1+01901+01481102201ADDAA199000091GA1021+006009099GA2041+007509069GF107991041031008001071001MA1999999102431MD1310031+9999REMSYN094AAXX  20121 40734 32560 72710 10190 20148 30243 40220 53003 84370 91145 333 82920 84625 86358;EQDQ01  00002PRCP99
0252407340999992000102018004+36500+051570FM-12-002099999V0202701N007010075019N0060001N1+01621+01521102371ADDAA106000591AY181061AY221061GA1021+006009099GA2031+007509069GF108991051031004501021999GJ100009MA1999999102601MD1110101+9999MW1251REMSYN112AAXX  20181 40734 11456 82707 10162 20152 30260 40237 51010 69961 72582 8532/ 91750 333 55000 82920 83625 88457;
0194407340999992000102100004+36500+051570FM-12-002099999V0202701N005010360019N0070001N1+01521+01421102371ADDAA106007991AY151061AY251061GF108991021071004501021999MA1999999102601MD1610031+9999MW1101REMSYN094AAXX  21001 40734 11457 82705 10152 20142 30260 40237 56003 60081 71055 8272/ 92350 333 77457;
0200407340999992000102106004+36500+051570FM-12-002099999V0202701N00701036001CN0100001N1+01641+01581102421ADDAA124008191GA1041+003009079GF108991041071004501021999MA1999999102651MD1110051+9999REMSYN106AAXX  21061 40734 32460 82707 10164 20158 30265 40242 51005 8472/ 90550 333 31013 50161 70082 84710 88458;
0223407340999992000102112004+36500+051570FM-12-002099999V0203101N00501036001CN0100001N1+01821+01541102171ADDAA199000091GA1021+005409079GA2011+007509099GF108991031031008001021999MA1999999102401MD1610071+9999REMSYN094AAXX  21121 40734 32560 83105 10182 20154 30240 40217 56007 8332/ 91145 333 82718 81925 88458;EQDQ01  00002PRCP99
0230407340999992000102118004+36500+051570FM-12-002099999V0202601N00501036001CN0070001N1+01621+01491102321ADDAA106000191AY151061AY221061GA1041+003009079GF108991041061004501021999GJ100009MA1999999102551MD1110071+9999MW1101REMSYN106AAXX  21181 40734 11457 82605 10162 20149 30255 40232 51007 69921 71052 8462/ 91745 333 55000 84710 88457;
0201407340999992000102200004+36500+051570FM-12-002099999V0202701N00401036001CN0100001N1+01621+01461102241ADDAA199000091GA1021+003009079GF108991021071004501021999MA1999999102471MD1610031+9999REMSYN088AAXX  22001 40734 32460 82704 10162 20146 30247 40224 56003 8272/ 92345 333 82710 88458;EQDQ01  00002PRCP99
0222407340999992000102206004+36500+051570FM-12-002099999V0209999C00001036001CN0100001N1+01741+01471102301ADDAA124000391GA1031+004509079GA2011+006009099GF108991031031008001021999MA1999999102531MD1210061+9999REMSYN112AAXX  22061 40734 32560 80000 10174 20147 30253 40230 52006 8332/ 90545 333 31016 50111 70002 83715 81920 88458;
0238407340999992000102212004+36500+051570FM-12-002099999V0202401N002010045019N0080001N1+01701+01541102151ADDAA106000791AY121061AY221061GA1051+004509079GA2011+006009099GF108991051031004501021999MA1999999102381MD1610081+9999MW1601REMSYN106AAXX  22121 40734 11458 82402 10170 20154 30238 40215 56008 69901 76022 8532/ 91145 333 85715 81920 88558;
0213407340999992000102218004+36500+051570FM-12-002099999V0202101N00201036001CN0070001N1+01621+01461102101ADDAY121061AY261061GA1031+004509079GF108991031071004501021999GJ100009MA1999999102331MD1810031+9999MW1601REMSYN100AAXX  22181 40734 11457 82102 10162 20146 30233 40210 58003 76026 8372/ 91745 333 55000 83715 88558;
0238407340999992000102300004+36500+051570FM-12-002099999V0202101N00201036001CN0100001N1+01601+01441101941ADDAA106000791AY161061AY221061GA1011+006009079GA2031+009009069GF108991041071008001021999MA1999999102171MD1710081+9999MW1021REMSYN106AAXX  23001 40734 11560 82102 10160 20144 30217 40194 57008 69901 70262 8472/ 92345 333 81720 83630 88459;
0200407340999992000102306004+36500+051570FM-12-002099999V0202501N00201036001CN0100001N1+01741+01431101931ADDAA124000891GA1021+009009069GF107991021041008001071001MA1999999102161MD1110021+9999REMSYN106AAXX  23061 40734 32560 72502 10174 20143 30216 40193 51002 82470 90550 333 31015 50171 70008 82630 87459;
0260407340999992000102312004+36500+051570FM-12-002099999V0202701N006010090019N0060001N1+01721+01521101721ADDAA106001091AY121061AY221061GA1021+006009079GA2021+007509099GA3031+009009069GF108991051031008001021999MA1999999101951MD1610031+9999MW1801REMSYN112AAXX  23121 40734 11556 82706 10172 20152 30195 40172 56003 60011 78022 8532/ 91150 333 82720 82925 83630 88457;
0252407340999992000102318004+36500+051570FM-12-002099999V0209999C00001036001CN0100001N1+01621+01401101971ADDAA106000191AY181061AY221061GA1011+006009099GA2031+007509069GF108991031031008001021999GJ100009MA1999999102201MD1310101+9999MW1021REMSYN112AAXX  23181 40734 11560 80000 10162 20140 30220 40197 53010 69911 70282 8332/ 91745 333 55000 81920 83625 88458;
0238407340999992000102400004+36500+051570FM-12-002099999V0202701N00501007501CN0080001N1+01641+01541101971ADDAA106006191AY181061AY221061GA1021+006009099GA2031+007509069GF108991031031008001021999MA1999999102201MD1410001+9999MW1251REMSYN106AAXX  24001 40734 11558 82705 10164 20154 30220 40197 54000 60061 72582 8332/ 92345 333 82920 83625 88458;
0256407340999992000102406004+36500+051570FM-12-002099999V0202601N005010036019N0060001N1+01601+01541102051ADDAA106000591AY151061AY251061GA1051+003609079GA2011+006009099GF108991051031004501021999MA1999999102281MD1310081+9999MW1201REMSYN124AAXX  24061 40734 11456 82605 10160 20154 30228 40205 53008 69951 72055 8532/ 90550 333 32015 50041 70079 85712 81920 88458;
0238407340999992000102412004+36500+051570FM-12-002099999V0202101N00201036001CN0080001N1+01721+01591101911ADDAA106007991AY161061AY251061GA1031+006009079GA2011+007509099GF108991041031008001021999MA1999999102141MD1610061+9999MW1101REMSYN106AAXX  24121 40734 11558 82102 10172 20159 30214 40191 56006 60081 71065 8432/ 91145 333 83720 81925 88459;
0230407340999992000102418004+36500+051570FM-12-002099999V0201801N00201036001CN0070001N1+01601+01571102031ADDAA106001091AY151061AY221061GA1041+004509079GF108991041071004501021999GJ100009MA1999999102261MD1010021+9999MW1201REMSYN106AAXX  24181 40734 11457 81802 10160 20157 30226 40203 50002 60011 72052 8472/ 91745 333 55000 84715 88457;
0210407340999992000102500004+36500+051570FM-12-002099999V0209999C00001036001CN0070001N1+01561+01561101801ADDAA199000021AY121061AY221061GA1031+003009079GF108991031071004501021999MA1999999102031MD1810031+9999MW1101REMSYN094AAXX  25001 40734 31457 80000 10156 20156 30203 40180 58003 71022 8372/ 92350 333 83710 88457;
0200407340999992000102506004+36500+051570FM-12-002099999V0202701N00401036001CN0100001N1+01761+01631101871ADDAA124009491GA1011+006009089GF107991021081008001071001MA1999999102101MD1110021+9999REMSYN106AAXX  25061 40734 32560 72704 10176 20163 30210 40187 51002 82870 90545 333 32014 50061 70094 81820 87359;
0230407340999992000102518004+36500+051570FM-12-002099999V0202401N00301036001CN0100001N1+01581+01521101801ADDAA106000891AY181061AY221061GA1011+007509089GF105991011021008001071001GJ100129MA1999999102031MD1510071+9999MW1011REMSYN106AAXX  25181 40734 11560 52403 10158 20152 30203 40180 55007 69981 70182 81270 91745 333 55002 81825 85359;
0194407340999992000102606004+36500+051570FM-12-002099999V0202701N006012200019N0100001N1+01861+01641101821ADDAA124000591GA1031+007509059GF104991031041008001031001MA1999999102051MD1210201+9999REMSYN100AAXX  26061 40734 32560 42706 10186 20164 30205 40182 52020 83430 90545 333 31011 50141 70005 83625;
0201407340999992000102612004+36500+051570FM-12-002099999V0202901N00401036001CN0100001N1+01941+01601101771ADDAA199000091GA1031+009009069GF107991031041008001071001MA1999999102001MD1510021+9999REMSYN088AAXX  26121 40734 32560 72904 10194 20160 30200 40177 55002 83470 91145 333 83630 87459;EQDQ01  00002PRCP99
0215407340999992000102618004+36500+051570FM-12-002099999V0209999C00001036001CN0100001N1+01761+01651102071ADDAA199000091GA1021+007509069GF108991021041008001021999GJ100729MA1999999102301MD1210191+9999REMSYN094AAXX  26181 40734 32560 80000 10176 20165 30230 40207 52019 8242/ 91750 333 55012 82625 88458;EQDQ01  00002PRCP99
0201407340999992000102700004+36500+051570FM-12-002099999V0209999C00001036001CN0100001N1+01581+01421102171ADDAA199000091GA1011+007509089GF108991011041008001021999MA1999999102401MD1110081+9999REMSYN088AAXX  27001 40734 32560 80000 10158 20142 30240 40217 51008 8142/ 92350 333 81825 88458;EQDQ01  00002PRCP99
0219407340999992000102706004+36500+051570FM-12-002099999V0202801N003012200019N0100001N1+01921+01601102281ADDAA124000091GA1011+007509089GF103991011021008001031001MA1999999102511MD1110111+9999REMSYN106AAXX  27061 40734 32560 32803 10192 20160 30251 40228 51011 81230 90545 333 31013 50041 70000 81825 83360;EQDQ01  00002PRCP24
0238407340999992000102712004+36500+051570FM-12-002099999V0202701N006010030019N0040001N1+01681+01651102191ADDAA106006191AY181061AY221061GA1051+003009079GA2021+007509099GF108991051031002501021999MA1999999102421MD1610031+9999MW1501REMSYN106AAXX  27121 40734 11340 82706 10168 20165 30242 40219 56003 60061 75082 8532/ 91145 333 85710 82925 88458;
0230407340999992000102718004+36500+051570FM-12-002099999V0202801N00301036001CN0100001N1+01681+01481102271ADDAA106001091AY161061AY251061GA1021+006009079GF108991021071008001021999GJ100549MA1999999102501MD1110041+9999MW1021REMSYN106AAXX  27181 40734 11560 82803 10168 20148 30250 40227 51004 60011 70265 8272/ 91745 333 55009 82720 88459;
0216407340999992000102800004+36500+051570FM-12-002099999V0202401N002010036019N0050001N1+01601+01571102221ADDAA106001091AY161061AY221061GA1051+003609079GF108991051071004501021999MA1999999102451MD1610051+9999MW1501REMSYN100AAXX  28001 40734 11450 82402 10160 20157 30245 40222 56005 60011 75062 8572/ 92350 333 85712 88458;
0222407340999992000102806004+36500+051570FM-12-002099999V0202401N00201007501CN0100001N1+01681+01621102201ADDAA124008191GA1041+004509079GA2011+007509099GF108991041031004501021999MA1999999102431MD1110061+9999REMSYN112AAXX  28061 40734 32460 82402 10168 20162 30243 40220 51006 8432/ 90545 333 32014 50111 70081 84715 81925 88459;
0204407340999992000102812004+36500+051570FM-12-002099999V0203001N00401006001CN0100001N1+01821+01581101921ADDAA199000021GA1041+004509079GA2011+006009099GF108991041031004501021999MA1999999102151MD1510051+9999REMSYN094AAXX  28121 40734 32460 83004 10182 20158 30215 40192 55005 8432/ 91145 333 84715 81920 88459;
0252407340999992000102818004+36500+051570FM-12-002099999V0201501N003010090019N0060001N1+01641+01581102041ADDAA106008991AY181061AY221061GA1021+006009099GA2031+009009069GF108991051031008001021999GJ100069MA1999999102271MD1210111+9999MW1811REMSYN112AAXX  28181 40734 11556 81503 10164 20158 30227 40204 52011 60091 78182 8532/ 91745 333 55001 82920 83630 88557;
0198407340999992000102900004+36500+051570FM-12-002099999V0201801N002012200019N0100001N1+01461+01401101941ADDAA106002091AY181061AY221061GA1001+999999999GF100991001001999999001001MA1999999102171MD1810031+9999MW1011REMSYN082AAXX  29001 40734 11960 01802 10146 20140 30217 40194 58003 60021 70182 92350 333;
0176407340999992000102906004+36500+051570FM-12-002099999V0209999C000012200019N0150001N1+01761+99999102101ADDAA124010791GA1001+999999999GF100991001001999999001001MA1999999102331MD1110091+9999REMSYN082AAXX  29061 40734 32965 00000 10176 30233 40210 51009 90550 333 31010 50011 70107;
0195407340999992000102912004+36500+051570FM-12-002099999V0200501N004012200019N0150001N1+02001+01781101971ADDAA199000091GA1021+006009029GF102991021011008001001001MA1999999102201MD1610071+9999REMSYN082AAXX  29121 40734 32565 20504 10200 20178 30220 40197 56007 82100 91150 333 82820;EQDQ01  00002PRCP99
0209407340999992000102918004+36500+051570FM-12-002099999V0201601N003012200019N0120001N1+01521+01361102121ADDAA199000091GA1031+027009079GF103991011011008001031001GJ105409MA1999999102351MD1110051+9999REMSYN088AAXX  29181 40734 32562 31603 10152 20136 30235 40212 51005 81130 91745 333 55090 83359;EQDQ01  00002PRCP99
0183407340999992000103000004+36500+051570FM-12-002099999V0209999C000012200019N0100001N1+01201+01091102171ADDAA199000091GA1001+999999999GF100991001001999999001001MA1999999102401MD1110051+9999REMSYN070AAXX  30001 40734 32960 00000 10120 20109 30240 40217 51005 92350 333;EQDQ01  00002PRCP99
0215407340999992000103018004+36500+051570FM-12-002099999V0201501N00201036001CN0100001N1+01761+01591102471ADDAA199000091GA1031+007509069GF106991031051008001071001GJ100009MA1999999102701MD1110031+9999REMSYN094AAXX  30181 40734 32560 61502 10176 20159 30270 40247 51003 83570 91750 333 55000 83625 86458;EQDQ01  00002PRCP99
0201407340999992000103100004+36500+051570FM-12-002099999V0209999C00001036001CN0100001N1+01541+01481102241ADDAA199000091GA1031+009009069GF106991031051008001071001MA1999999102471MD1810081+9999REMSYN088AAXX  31001 40734 32560 60000 10154 20148 30247 40224 58008 83570 92350 333 83630 86458;EQDQ01  00002PRCP99
0213407340999992000103106004+36500+051570FM-12-002099999V0209999C000012200019N0120001N1+01901+01521102271ADDAA124000091GA1011+006009029GF101991011011008001001001MA1999999102501MD1410001+9999REMSYN100AAXX  31061 40734 32562 10000 10190 20152 30250 40227 54000 81100 90550 333 31012 50131 70000 81820;EQDQ01  00002PRCP24
0201407340999992000103112004+36500+051570FM-12-002099999V0203601N00201036001CN0120001N1+01921+01441102071ADDAA199000091GA1021+006009089GF107991021021008001071001MA1999999102301MD1410001+9999REMSYN088AAXX  31121 40734 32562 73602 10192 20144 30230 40207 54000 82270 91145 333 82820 87359;EQDQ01  00002PRCP99
0237407340999992000103118004+36500+051570FM-12-002099999V0203001N00201036001CN0100001N1+01681+01581102151ADDAA199000091GA1011+007509099GA2031+009009069GF108991031031008001021999GJ102049MA1999999102381MD1410001+9999REMSYN100AAXX  31181 40734 32560 83002 10168 20158 30238 40215 54000 8332/ 91750 333 55034 81925 83630 88459;EQDQ01  00002PRCP99
0201407340999992000110100004+36500+051570FM-12-002099999V0201801N00201036001CN0100001N1+01601+01441102151ADDAA199000091GA1021+009009069GF106991021041008001071001MA1999999102381MD1310041+9999REMSYN088AAXX  01001 40734 32560 61802 10160 20144 30238 40215 53004 82470 92345 333 82630 86459;EQDQ01  00002PRCP99
0219407340999992000110106004+36500+051570FM-12-002099999V0203601N003012200019N0100001N1+01841+01451102231ADDAA124000091GA1021+007509089GF104991021021008001071001MA1999999102461MD1110051+9999REMSYN106AAXX  01061 40734 32560 43603 10184 20145 30246 40223 51005 82270 90550 333 30015 50131 70000 82825 84360;EQDQ01  00002PRCP24
0201407340999992000110112004+36500+051570FM-12-002099999V0209999C00001036001CN0100001N1+01841+01521102121ADDAA199000091GA1031+007509069GF107991031051008001071001MA1999999102351MD1610051+9999REMSYN088AAXX  01121 40734 32560 70000 10184 20152 30235 40212 56005 83570 91150 333 83625 86460;EQDQ01  00002PRCP99
0223407340999992000110200004+36500+051570FM-12-002099999V0209999C00001036001CN0100001N1+01501+01341102171ADDAA199000091GA1011+007509099GA2021+009009069GF108991021031008001021999MA1999999102401MD1610011+9999REMSYN094AAXX  02001 40734 32560 80000 10150 20134 30240 40217 56001 8232/ 92345 333 81925 82630 88458;EQDQ01  00002PRCP99
0219407340999992000110206004+36500+051570FM-12-002099999V0202501N00301036001CN0100001N1+01701+01351102251ADDAA124000091GA1011+007509089GF107991011011008001071001MA1999999102481MD1110081+9999REMSYN106AAXX  02061 40734 32560 72503 10170 20135 30248 40225 51008 81170 90545 333 30014 50131 70000 81825 87359;EQDQ01  00002PRCP24
0201407340999992000110212004+36500+051570FM-12-002099999V0202901N00401036001CN0100001N1+01781+01331102081ADDAA199000091GA1021+007509099GF108991021031008001021999MA1999999102311MD1610091+9999REMSYN088AAXX  02121 40734 32560 82904 10178 20133 30231 40208 56009 8232/ 91145 333 82925 88458;EQDQ01  00002PRCP99
0215407340999992000110218004+36500+051570FM-12-002099999V0202601N00201036001CN0100001N1+01601+01441102131ADDAA199000091GA1031+009009069GF108991031041008001021999GJ100069MA1999999102361MD1110021+9999REMSYN094AAXX  02181 40734 32560 82602 10160 20144 30236 40213 51002 8342/ 91745 333 55001 83630 88458;EQDQ01  00002PRCP99
0238407340999992000110300004+36500+051570FM-12-002099999V0202401N002010090019N0080001N1+01561+01431102061ADDAA106000191AY151061AY221061GA1031+006009079GA2031+009009069GF108991051071008001021999MA1999999102291MD1610031+9999MW1101REMSYN106AAXX  03001 40734 11558 82402 10156 20143 30229 40206 56003 69911 71052 8572/ 92345 333 83720 83630 88459;
0200407340999992000110306004+36500+051570FM-12-002099999V0209999C00001036001CN0100001N1+01681+01451102171ADDAA124000391GA1011+007509089GF107991011081008001071001MA1999999102401MD1210111+9999REMSYN106AAXX  03061 40734 32560 70000 10168 20145 30240 40217 52011 81870 90545 333 31015 50181 70003 81825 87359;
0223407340999992000110312004+36500+051570FM-12-002099999V0202901N00301036001CN0100001N1+01801+01481102071ADDAA199000091GA1011+007509099GA2031+009009069GF108991031031008001021999MA1999999102301MD1610101+9999REMSYN094AAXX  03121 40734 32560 82903 10180 20148 30230 40207 56010 8332/ 91145 333 81925 83630 88459;EQDQ01  00002PRCP99
0215407340999992000110318004+36500+051570FM-12-002099999V0209999C00001036001CN0100001N1+01541+01441102271ADDAA199000091GA1021+007509069GF107991021041008001071001GJ100009MA1999999102501MD1110101+9999REMSYN094AAXX  03181 40734 32560 70000 10154 20144 30250 40227 51010 82470 91745 333 55000 82625 87359;EQDQ01  00002PRCP99
0216407340999992000110400004+36500+051570FM-12-002099999V0209999C00001036001CN0080001N1+01501+01441102311ADDAA106000791AY151061AY221061GA1011+006009089GF107991011011008001071001MA1999999102541MD1310041+9999MW1201REMSYN100AAXX  04001 40734 11558 70000 10150 20144 30254 40231 53004 69901 72052 81170 92345 333 81820 87359;
0194407340999992000110406004+36500+051570FM-12-002099999V0209999C000012200019N0150001N1+01841+01451102551ADDAA124000791GA1011+006009029GF101991011011008001001001MA1999999102781MD1210181+9999REMSYN100AAXX  04061 40734 32565 10000 10184 20145 30278 40255 52018 81100 90550 333 30011 50091 79999 81820;
0182407340999992000110412004+36500+051570FM-12-002099999V0203301N002012200019N0150001N1+01921+01541102501ADDAA199000021GA1031+006009089GF104991031021008001031001MA1999999102731MD1510001+9999REMSYN088AAXX  04121 40734 32565 43302 10192 20154 30273 40250 55000 83230 91150 333 83820 83360;
0215407340999992000110418004+36500+051570FM-12-002099999V0209999C00001036001CN0120001N1+01401+01341102571ADDAA199000091GA1011+007509069GF106991011041008001071001GJ103669MA1999999102801MD1410001+9999REMSYN094AAXX  04181 40734 32562 60000 10140 20134 30280 40257 54000 81470 91745 333 55061 81625 86360;EQDQ01  00002PRCP99
0201407340999992000110500004+36500+051570FM-12-002099999V0209999C00001036001CN0100001N1+01541+01481102551ADDAA199000091GA1021+007509069GF108991021041008001021999MA1999999102781MD1810021+9999REMSYN088AAXX  05001 40734 32560 80000 10154 20148 30278 40255 58002 8242/ 92345 333 82625 88459;EQDQ01  00002PRCP99
0256407340999992000110506004+36500+051570FM-12-002099999V0202701N003010030019N0020001N1+01541+01511102561ADDAA106021191AY161061AY261061GA1051+003009079GA2011+006009099GF108991061031002501021999MA1999999102791MD1310091+9999MW1611REMSYN124AAXX  05061 40734 11320 82703 10154 20151 30279 40256 53009 60211 76166 8632/ 90550 333 32012 50091 70211 85710 81920 88556;
0238407340999992000110512004+36500+051570FM-12-002099999V0202901N00301036001CN0060001N1+01561+01501102301ADDAA106004191AY181061AY261061GA1011+007509099GA2031+009009069GF108991041031008001021999MA1999999102531MD1610151+9999MW1611REMSYN106AAXX  05121 40734 11556 82903 10156 20150 30253 40230 56015 60041 76186 8432/ 91145 333 81925 83630 88557;
0252407340999992000110518004+36500+051570FM-12-002099999V0201701N00301007501CN0050001N1+01441+01341102311ADDAA106015091AY161061AY261061GA1021+006009099GA2031+007509069GF108991041031008001021999GJ100009MA1999999102541MD1110041+9999MW1611REMSYN112AAXX  05181 40734 11550 81703 10144 20134 30254 40231 51004 60151 76166 8432/ 91750 333 55000 82920 83625 88556;
0216407340999992000110600004+36500+051570FM-12-002099999V0202701N00201036001CN0050001N1+01381+01351102121ADDAA106008991AY161061AY261061GA1031+004509079GF108991031071004501021999MA1999999102361MD1610101+9999MW1611REMSYN100AAXX  06001 40734 11450 82702 10138 20135 30236 40212 56010 60091 76166 8372/ 92350 333 83715 88550;
0234407340999992000110606004+36500+051570FM-12-002099999V0202501N00301036001CN0040001N1+01481+01161102221ADDAA106008991AY161061AY261061GA1041+004509079GF108991041071004501021999MA1999999102451MD1210091+9999MW1611REMSYN118AAXX  06061 40734 11440 82503 10148 20116 30245 40222 52009 60091 76166 8472/ 90550 333 32012 50241 70376 84715 88550;
0216407340999992000110612004+36500+051570FM-12-002099999V0202701N00301036001CN0080001N1+01361+01261102071ADDAA106008991AY161061AY261061GA1031+004509079GF108991031071004501021999MA1999999102301MD1610101+9999MW1611REMSYN100AAXX  06121 40734 11458 82703 10136 20126 30230 40207 56010 60091 76166 8372/ 91145 333 83715 88556;
0230407340999992000110618004+36500+051570FM-12-002099999V0202401N00301036001CN0100001N1+01301+01081102171ADDAA106000591AY161061AY221061GA1011+009009069GF105991011041008001071001GJ100009MA1999999102401MD1110011+9999MW1021REMSYN106AAXX  06181 40734 11560 52403 10130 20108 30240 40217 51001 69941 70262 81470 91745 333 55000 81630 85360;
0182407340999992000110700004+36500+051570FM-12-002099999V0202401N00301036001CN0100001N1+01341+00951102141ADDAA199000021GA1011+006009089GF105991011011008001031001MA1999999102371MD1610031+9999REMSYN088AAXX  07001 40734 32560 52403 10134 20095 30237 40214 56003 81130 92345 333 81820 85360;
0256407340999992000110706004+36500+051570FM-12-002099999V0201201N00301006001CN0040001N1+01141+00981102351ADDAA106032091AY181061AY261061GA1031+003009079GA2021+006009099GF108991041031004501021999MA1999999102581MD1210161+9999MW1611REMSYN124AAXX  07061 40734 11440 81203 10114 20098 30258 40235 52016 60321 76186 8432/ 90550 333 32010 50131 70412 83710 82920 88556;
0216407340999992000110712004+36500+051570FM-12-002099999V0202801N00301036001CN0120001N1+01381+01071102271ADDAA106007191AY161061AY261061GA1011+007509089GF108991021081008001021999MA1999999102501MD1610061+9999MW1021REMSYN100AAXX  07121 40734 11562 82803 10138 20107 30250 40227 56006 60071 70266 8282/ 91145 333 81825 88458;
0196407340999992000110718004+36500+051570FM-12-002099999V0201801N00201036001CN0120001N1+01201+01011102471ADDAA199000021GA1011+007509089GF107991021081008001071001GJ100009MA1999999102701MD1110031+9999REMSYN094AAXX  07181 40734 32562 71802 10120 20101 30270 40247 51003 82870 91745 333 55000 81825 87359;
0201407340999992000110800004+36500+051570FM-12-002099999V0209999C00001036001CN0120001N1+01001+00881102471ADDAA199000091GA1011+007509089GF107991021081008001071001MA1999999102701MD1410001+9999REMSYN088AAXX  08001 40734 32562 70000 10100 20088 30270 40247 54000 82870 92345 333 81825 87359;EQDQ01  00002PRCP99
0200407340999992000110806004+36500+051570FM-12-002099999V0202701N00201090001CN0120001N1+01541+00951102611ADDAA124007191GA1011+007509089GF105991011011008001031061MA1999999102841MD1310041+9999REMSYN106AAXX  08061 40734 32562 52702 10154 20095 30284 40261 53004 81136 90550 333 32008 50181 70071 81825 85270;
0201407340999992000110812004+36500+051570FM-12-002099999V0203601N002012200019N0120001N1+01541+00951102551ADDAA199000091GA1021+007509089GF103991021021008001031081MA1999999102781MD1510021+9999REMSYN088AAXX  08121 40734 32562 33602 10154 20095 30278 40255 55002 82238 91150 333 82825 83270;EQDQ01  00002PRCP99
0215407340999992000110818004+36500+051570FM-12-002099999V0201801N002012200019N0100001N1+01281+01221102611ADDAA199000091GA1021+007509069GF104991021041008001031001GJ104329MA1999999102841MD1110041+9999REMSYN094AAXX  08181 40734 32560 41802 10128 20122 30284 40261 51004 82430 91750 333 55072 82625 84360;EQDQ01  00002PRCP99
0165407340999992000110821004+36500+051570FM-12-002099999V0209999C000012200019N0100001N1+01021+00851102511ADDGA1021+007509059GF102991021041008001001001MA1999999102741MD1810101+9999REMSYN082AAXX  08211 40734 42560 20000 10102 20085 30274 40251 58010 82400 92050 333 82625;
0195407340999992000110900004+36500+051570FM-12-002099999V0209999C000012200019N0100001N1+00941+00861102451ADDAA199000091GA1021+007509059GF102991021041008001001001MA1999999102681MD1610061+9999REMSYN082AAXX  09001 40734 32560 20000 10094 20086 30268 40245 56006 82400 92350 333 82625;EQDQ01  00002PRCP99
0213407340999992000110906004+36500+051570FM-12-002099999V0209999C000012200019N0120001N1+01461+00781102371ADDAA124000091GA1021+007509029GF102991021021008001031001MA1999999102601MD1010001+9999REMSYN100AAXX  09061 40734 32562 20000 10146 20078 30260 40237 50000 82230 90545 333 31005 50181 70000 82825;EQDQ01  00002PRCP24
0238407340999992000110912004+36500+051570FM-12-002099999V0203001N007010045019N0080001N1+01361+01111102371ADDAA106004191AY181061AY221061GA1051+004509079GA2021+007509099GF108991051031004501021999MA1999999102601MD1310101+9999MW1211REMSYN106AAXX  09121 40734 11458 83007 10136 20111 30260 40237 53010 60041 72182 8532/ 91150 333 85715 82925 88458;
0252407340999992000110918004+36500+051570FM-12-002099999V0202701N012010075019N0060001N1+00961+00751102921ADDAA106019191AY181061AY261061GA1031+006009079GA2021+007509099GF108991051031008001021999GJ103129MA1999999103151MD1110081+9999MW1811REMSYN112AAXX  09181 40734 11556 82712 10096 20075 30315 40292 51008 60191 78186 8532/ 91745 333 55052 83720 82925 88557;
0238407340999992000111000004+36500+051570FM-12-002099999V0202601N00401007501CN0060001N1+00841+00671102911ADDAA106009991AY161061AY261061GA1041+004509079GA2011+007509099GF108991041031004501021999MA1999999103141MD1610051+9999MW1611REMSYN106AAXX  10001 40734 11456 82604 10084 20067 30314 40291 56005 60101 76166 8432/ 92350 333 84715 81925 88556;
0256407340999992000111006004+36500+051570FM-12-002099999V0202701N00301036001CN0050001N1+00861+00781102971ADDAA106003091AY161061AY221061GA1031+004509079GA2011+006009099GF108991041031004501021999MA1999999103201MD1110061+9999MW1611REMSYN124AAXX  10061 40734 11450 82703 10086 20078 30320 40297 51006 60031 76162 8432/ 90550 333 32008 50351 70361 83715 81920 88556;
0238407340999992000111012004+36500+051570FM-12-002099999V0209999C000012200019N0100001N1+01141+00621102801ADDAA106001091AY161061AY221061GA1011+006009099GA2031+007509089GF104991031031008001071001MA1999999103031MD1610071+9999MW1011REMSYN106AAXX  10121 40734 11560 40000 10114 20062 30303 40280 56007 60011 70162 83370 91150 333 81920 83825 84357;
0209407340999992000111018004+36500+051570FM-12-002099999V0209999C000012200019N0100001N1+00621+00481102871ADDAA199000021GA1031+024009079GF103991031999999999071001GJ100609MA1999999103101MD1410001+9999REMSYN088AAXX  10181 40734 32960 30000 10062 20048 30310 40287 54000 83070 91750 333 55010 83358;EQDQ01    003SCOLCG
0201407340999992000111100004+36500+051570FM-12-002099999V0200301N999999999999N9999999N1+00601+00501102871ADDAA199000091GA1031+060009079MA1999999103101MD1410001+9999REMSYN082AAXX  11001 40734 3296/ /0333 10060 20050 30310 40287 54000 83030 92350 333 83370;EQDQ01+003303WOSPD Q02  00002PRCP99Q030003303WOSPD 
0200407340999992000111106004+36500+051570FM-12-002099999V0202401N00301036001CN0100001N1+01161+00521103141ADDAA124001091GA1021+007509089GF105991021021008001031001MA1999999103371MD1210171+9999REMSYN106AAXX  11061 40734 32560 52403 10116 20052 30337 40314 52017 82230 90545 333 32004 50191 70010 82825 85360;
0201407340999992000111112004+36500+051570FM-12-002099999V0203301N002012200019N0120001N1+01381+00741103011ADDAA199000091GA1031+009009039GF103991031031008001031001MA1999999103241MD1610141+9999REMSYN088AAXX  11121 40734 32562 33302 10138 20074 30324 40301 56014 83330 91145 333 81930 82635;EQDQ01  00002PRCP99
0209407340999992000111118004+36500+051570FM-12-002099999V0201501N003012200019N0100001N1+00881+00671102941ADDAA199000091GA1031+030009079GF103991031001999999071001GJ102709MA1999999103171MD1810071+9999REMSYN088AAXX  11181 40734 32960 31503 10088 20067 30317 40294 58007 83070 91750 333 55045 83360;EQDQ01  00002PRCP99
0183407340999992000111200004+36500+051570FM-12-002099999V0201501N003012200019N0100001N1+00621+00481102651ADDAA199000091GA1001+999999999GF100991001001999999001001MA1999999102881MD1810121+9999REMSYN070AAXX  12001 40734 32960 01503 10062 20048 30288 40265 58012 93350 333;EQDQ01  00002PRCP99
0201407340999992000111206004+36500+051570FM-12-002099999V0200901N005012200019N0150001N1+01321+00391102371ADDAA124000091GA1001+999999999GF100991001001999999001001MA1999999102601MD1710101+9999REMSYN088AAXX  12061 40734 32965 00905 10132 20039 30260 40237 57010 90545 333 31004 50181 70000;EQDQ01  00002PRCP24
0189407340999992000111218004+36500+051570FM-12-002099999V0209999C000012200019N0100001N1+00881+00761101771ADDAA199000091GA1001+999999999GF100991001001999999001001MA1999999102001MD1810031+9999REMSYN076AAXX  12181 40734 32960 00000 10088 20076 30200 40177 58003 91750 333 55091;EQDQ01  00002PRCP99
0195407340999992000111300004+36500+051570FM-12-002099999V0202401N005012200019N0100001N1+01221+01031101871ADDAA199000091GA1011+060009019GF101991001001999999001011MA1999999102101MD1210171+9999REMSYN082AAXX  13001 40734 32960 12405 10122 20103 30210 40187 52017 80001 92350 333 81070;EQDQ01  00002PRCP99
0263407340999992000111306004+36500+051570FM-12-002099999V0202501N00301010501CN0100001N1+01461+01001102261ADDAA124000091GA1021+007509099GA2031+010509069GA3041+030009039GF107991041031008001031071MA1999999102491MD1210271+9999REMSYN118AAXX  13061 40734 32560 72503 10146 20100 30249 40226 52027 84337 90550 333 30006 50131 70000 82925 83635 84360 87267;EQDQ01  00002PRCP24
0216407340999992000111312004+36500+051570FM-12-002099999V0209999C000010030019N0040001N1+01361+01301102371ADDAA106001091AY161061AY251061GA1051+003009079GF108991051061004501021999MA1999999102601MD1310041+9999MW1501REMSYN100AAXX  13121 40734 11440 80000 10136 20130 30260 40237 53004 60011 75065 8562/ 91150 333 85710 88456;
0230407340999992000111318004+36500+051570FM-12-002099999V0209999C00001036001CN0100001N1+01301+01241102391ADDAA106000591AY161061AY251061GA1021+006009069GF108991021041008001021999GJ100009MA1999999102621MD1010001+9999MW1021REMSYN106AAXX  13181 40734 11560 80000 10130 20124 30262 40239 50000 69951 70265 8242/ 91745 333 55000 82620 88457;
0238407340999992000111400004+36500+051570FM-12-002099999V0202301N006010036019N0080001N1+01261+01201102271ADDAA106020191AY161061AY261061GA1051+003609079GA2011+006009099GF108991051031004501021999MA1999999102501MD1610101+9999MW1211REMSYN106AAXX  14001 40734 11458 82306 10126 20120 30250 40227 56010 60201 72166 8532/ 92345 333 85712 81920 88457;
0256407340999992000111406004+36500+051570FM-12-002099999V0201201N00201036001CN0100001N1+01301+00811102551ADDAA106007991AY161061AY251061GA1011+006009079GA2031+010509069GF108991041071008001021999MA1999999102781MD1310131+9999MW1021REMSYN124AAXX  14061 40734 11560 81202 10130 20081 30278 40255 53013 60081 70265 8472/ 90550 333 32011 50181 70292 81720 83635 88459;
0182407340999992000111412004+36500+051570FM-12-002099999V0200901N00501036001CN0100001N1+01461+00781102441ADDAA199000021GA1031+010509069GF107991031041012501071001MA1999999102671MD1510031+9999REMSYN088AAXX  14121 40734 32660 70905 10146 20078 30267 40244 55003 83470 91145 333 83635 87459;
0215407340999992000111418004+36500+051570FM-12-002099999V0209999C00001036001CN0150001N1+01161+00971102531ADDAA199000091GA1031+010509069GF108991031051012501021999GJ100009MA1999999102761MD1110031+9999REMSYN094AAXX  14181 40734 32665 80000 10116 20097 30276 40253 51003 8352/ 91750 333 55000 83635 88459;EQDQ01  00002PRCP99
0201407340999992000111500004+36500+051570FM-12-002099999V0209999C00001036001CN0100001N1+01141+00901102501ADDAA199000091GA1031+012009069GF108991031051012501021999MA1999999102731MD1310031+9999REMSYN088AAXX  15001 40734 32660 80000 10114 20090 30273 40250 53003 8352/ 92350 333 83640 88458;EQDQ01  00002PRCP99
0201407340999992000111512004+36500+051570FM-12-002099999V0200801N00301036001CN0120001N1+01521+00891102641ADDAA199000091GA1021+007509089GF105991021081008001071001MA1999999102871MD1510031+9999REMSYN088AAXX  15121 40734 32562 50803 10152 20089 30287 40264 55003 82870 91145 333 82825 85360;EQDQ01  00002PRCP99
0201407340999992000111912004+36500+051570FM-12-002099999V0209999C000012200019N0150001N1+01541+00861102771ADDAA199000091GA1021+007509089GF103991021021008001031001MA1999999103001MD1610081+9999REMSYN088AAXX  19121 40734 32565 30000 10154 20086 30300 40277 56008 82230 91145 333 82825 83360;EQDQ01  00002PRCP99
0209407340999992000111918004+36500+051570FM-12-002099999V0209999C000012200019N0120001N1+00781+00611102771ADDAA199000091GA1031+030009079GF103991031001999999031001GJ104209MA1999999103001MD1410001+9999REMSYN088AAXX  19181 40734 32962 30000 10078 20061 30300 40277 54000 83030 91745 333 55070 83360;EQDQ01  00002PRCP99
0195407340999992000112000004+36500+051570FM-12-002099999V0209999C000012200019N0120001N1+00701+00561102671ADDAA199000091GA1031+030009079GF103991031001999999031001MA1999999102901MD1810101+9999REMSYN082AAXX  20001 40734 32962 30000 10070 20056 30290 40267 58010 83030 92345 333 83360;EQDQ01  00002PRCP99
0213407340999992000112006004+36500+051570FM-12-002099999V0209999C000012200019N0120001N1+01321+00831102621ADDAA124000091GA1011+007509029GF101991011011008001031001MA1999999102851MD1810021+9999REMSYN100AAXX  20061 40734 32562 10000 10132 20083 30285 40262 58002 81130 90550 333 30002 50091 70000 81825;EQDQ01  00002PRCP24
0195407340999992000112012004+36500+051570FM-12-002099999V0200801N003012200019N0120001N1+01501+00781102281ADDAA199000091GA1011+030009079GF103991011011008001031011MA1999999102511MD1610171+9999REMSYN082AAXX  20121 40734 32562 30803 10150 20078 30251 40228 56017 81131 91145 333 81360;EQDQ01  00002PRCP99
0209407340999992000112018004+36500+051570FM-12-002099999V0209999C000010600019N0100001N1+01061+00871102111ADDAA199000091GA1051+060009019GF105991001001999999001011GJ104209MA1999999102341MD1810101+9999REMSYN088AAXX  20181 40734 32960 50000 10106 20087 30234 40211 58010 80001 91750 333 55070 85070;EQDQ01  00002PRCP99
0198407340999992000112100004+36500+051570FM-12-002099999V0209999C000012200019N0100001N1+00901+00821102001ADDAA106002091AY161061AY221061GA1001+999999999GF100991001001999999001001MA1999999102231MD1610031+9999MW1011REMSYN082AAXX  21001 40734 11960 00000 10090 20082 30223 40200 56003 60021 70162 92350 333;
0194407340999992000112106004+36500+051570FM-12-002099999V0202301N002012200019N0120001N1+01321+00771102071ADDAA124002091GA1011+030009079GF101991011001999999031011MA1999999102301MD1110101+9999REMSYN100AAXX  21061 40734 32962 12302 10132 20077 30230 40207 51010 81031 90545 333 31004 50201 70020 81360;
0195407340999992000112112004+36500+051570FM-12-002099999V0209999C000012200019N0120001N1+01521+00981101871ADDAA199000091GA1021+007509029GF102991021081008001031001MA1999999102101MD1610051+9999REMSYN082AAXX  21121 40734 32562 20000 10152 20098 30210 40187 56005 82830 91145 333 82825;EQDQ01  00002PRCP99
0209407340999992000112118004+36500+051570FM-12-002099999V0201801N002012200019N0100001N1+00881+00761101951ADDAA199000091GA1011+030009079GF101991011001999999031001GJ104329MA1999999102181MD1110031+9999REMSYN088AAXX  21181 40734 32960 11802 10088 20076 30218 40195 51003 81030 91745 333 55072 81360;EQDQ01  00002PRCP99
0201407340999992000112200004+36500+051570FM-12-002099999V0202101N00201036001CN0100001N1+01101+00941101891ADDAA199000091GA1021+009009069GF107991021041008001071001MA1999999102121MD1610011+9999REMSYN088AAXX  22001 40734 32560 72102 10110 20094 30212 40189 56001 82470 92350 333 82630 87359;EQDQ01  00002PRCP99
0219407340999992000112206004+36500+051570FM-12-002099999V0209999C00001036001CN0100001N1+01301+01001102021ADDAA124000091GA1011+009009089GF107991011011008001071001MA1999999102251MD1210131+9999REMSYN106AAXX  22061 40734 32560 70000 10130 20100 30225 40202 52013 81170 90545 333 30006 50181 70000 81830 87360;EQDQ01  00002PRCP24
0223407340999992000112212004+36500+051570FM-12-002099999V0209999C00001036001CN0100001N1+01501+00961101871ADDAA199000091GA1021+006009089GA2011+007509099GF106991021031008001071001MA1999999102101MD1610101+9999REMSYN094AAXX  22121 40734 32560 60000 10150 20096 30210 40187 56010 82370 91145 333 82820 81925 86360;EQDQ01  00002PRCP99
0215407340999992000112218004+36500+051570FM-12-002099999V0209999C00001036001CN0100001N1+01221+01061102011ADDAA199000091GA1011+007509069GF107991011041008001071001GJ101029MA1999999102241MD1110041+9999REMSYN094AAXX  22181 40734 32560 70000 10122 20106 30224 40201 51004 81470 91745 333 55017 81625 87360;EQDQ01  00002PRCP99
0201407340999992000112300004+36500+051570FM-12-002099999V0209999C00001036001CN0100001N1+00901+00821101991ADDAA199000091GA1011+007509069GF107991011041008001071001MA1999999102221MD1410001+9999REMSYN088AAXX  23001 40734 32560 70000 10090 20082 30222 40199 54000 81470 92350 333 81625 87359;EQDQ01  00002PRCP99
0201407340999992000112312004+36500+051570FM-12-002099999V0202501N003012200019N0100001N1+01421+01081102071ADDAA199000091GA1011+007509089GF104991041081008001031001MA1999999102301MD1510021+9999REMSYN088AAXX  23121 40734 32560 42503 10142 20108 30230 40207 55002 84830 91145 333 81825 83635;EQDQ01  00002PRCP99
0215407340999992000112318004+36500+051570FM-12-002099999V0209999C00001036001CN0100001N1+01241+01051102201ADDAA199000091GA1031+009009069GF108991031051008001021999GJ102409MA1999999102431MD1210101+9999REMSYN094AAXX  23181 40734 32560 80000 10124 20105 30243 40220 52010 8352/ 91745 333 55040 83630 88458;EQDQ01  00002PRCP99
0201407340999992000112400004+36500+051570FM-12-002099999V0209999C00001036001CN0100001N1+01141+00981102231ADDAA199000091GA1031+009009069GF106991031051008001071001MA1999999102461MD1410001+9999REMSYN088AAXX  24001 40734 32560 60000 10114 20098 30246 40223 54000 83570 92350 333 83630 86458;EQDQ01  00002PRCP99
0213407340999992000112406004+36500+051570FM-12-002099999V0209999C000012200019N0100001N1+01541+00821102371ADDAA124000091GA1011+007509029GF102991011021008001031001MA1999999102601MD1210101+9999REMSYN100AAXX  24061 40734 32560 20000 10154 20082 30260 40237 52010 81230 90550 333 31006 50091 70000 81825;EQDQ01  00002PRCP24
0201407340999992000112412004+36500+051570FM-12-002099999V0203201N00201036001CN0100001N1+01501+01181102171ADDAA199000091GA1041+006009079GF107991041071008001071001MA1999999102401MD1710101+9999REMSYN088AAXX  24121 40734 32560 73202 10150 20118 30240 40217 57010 84770 91145 333 84720 87358;EQDQ01  00002PRCP99
0215407340999992000112418004+36500+051570FM-12-002099999V0209999C00001036001CN0100001N1+01341+01191102271ADDAA199000091GA1031+009009069GF107991031041008001071001GJ102289MA1999999102501MD1410001+9999REMSYN094AAXX  24181 40734 32560 70000 10134 20119 30250 40227 54000 83470 91745 333 55038 83630 87459;EQDQ01  00002PRCP99
0201407340999992000112500004+36500+051570FM-12-002099999V0209999C00001036001CN0100001N1+01341+01121102271ADDAA199000091GA1031+009009069GF107991031041008001071001MA1999999102501MD1110051+9999REMSYN088AAXX  25001 40734 32560 70000 10134 20112 30250 40227 51005 83470 92350 333 83630 87358;EQDQ01  00002PRCP99
0219407340999992000112506004+36500+051570FM-12-002099999V0209999C00001090001CN0100001N1+01321+01141102371ADDAA124000091GA1021+009009069GF105991021041008001031011MA1999999102601MD1210081+9999REMSYN106AAXX  25061 40734 32560 50000 10132 20114 30260 40237 52008 82431 90550 333 30012 50091 70000 82630 84360;EQDQ01  00002PRCP24
0223407340999992000112512004+36500+051570FM-12-002099999V0209999C00001007501CN0100001N1+01561+01201102341ADDAA199000091GA1021+006009099GA2031+007509069GF106991041031008001071001MA1999999102571MD1510001+9999REMSYN094AAXX  25121 40734 32560 60000 10156 20120 30257 40234 55000 84370 91150 333 82920 83625 86458;EQDQ01  00002PRCP99
0252407340999992000112518004+36500+051570FM-12-002099999V0209999C00001036001CN0100001N1+01321+01261102371ADDAA106000391AY181061AY221061GA1011+006009099GA2031+007509069GF107991031031008001071001GJ100909MA1999999102601MD1410001+9999MW1021REMSYN112AAXX  25181 40734 11560 70000 10132 20126 30260 40237 54000 69931 70282 83370 91745 333 55015 81920 83625 87359;
0201407340999992000112600004+36500+051570FM-12-002099999V0209999C00001036001CN0100001N1+00901+00781102291ADDAA199000091GA1011+007509069GF105991011041008001061001MA1999999102521MD1710081+9999REMSYN088AAXX  26001 40734 32560 50000 10090 20078 30252 40229 57008 81460 92345 333 81625 84358;EQDQ01  00002PRCP99
0201407340999992000112606004+36500+051570FM-12-002099999V0209999C000012200019N0100001N1+01461+01041102351ADDAA124000091GA1001+999999999GF100991001001999999001001MA1999999102581MD1110081+9999REMSYN088AAXX  26061 40734 32960 00000 10146 20104 30258 40235 51008 90845 333 30004 50041 70000;EQDQ01  00002PRCP24
0183407340999992000112612004+36500+051570FM-12-002099999V0200901N005012200019N0120001N1+01641+01161102071ADDAA199000091GA1001+999999999GF100991001001999999001001MA1999999102301MD1610091+9999REMSYN070AAXX  26121 40734 32962 00905 10164 20116 30230 40207 56009 91150 333;EQDQ01  00002PRCP99
0189407340999992000112618004+36500+051570FM-12-002099999V0209999C000012200019N0100001N1+00841+00671102171ADDAA199000091GA1001+999999999GF100991001001999999001001MA1999999102401MD1110031+9999REMSYN076AAXX  26181 40734 32960 00000 10084 20067 30240 40217 51003 91750 333 55085;EQDQ01  00002PRCP99
0183407340999992000112700004+36500+051570FM-12-002099999V0202401N005012200019N0100001N1+00661+00431102171ADDAA199000091GA1001+999999999GF100991001001999999001001MA1999999102401MD1410001+9999REMSYN070AAXX  27001 40734 32960 02405 10066 20043 30240 40217 54000 92350 333;EQDQ01  00002PRCP99
0219407340999992000112706004+36500+051570FM-12-002099999V0209999C000012200019N0100001N1+01201+00561102371ADDAA124000091GA1011+007509089GF104991041081008001001011MA1999999102601MD1210101+9999REMSYN106AAXX  27061 40734 32560 40000 10120 20056 30260 40237 52010 84801 90545 333 30003 50091 70000 81825 83630;EQDQ01  00002PRCP24
0195407340999992000112712004+36500+051570FM-12-002099999V0209999C000012200019N0100001N1+01541+01221101931ADDAA199000091GA1021+007509059GF103991021041008001061001MA1999999102161MD1710141+9999REMSYN082AAXX  27121 40734 32560 30000 10154 20122 30216 40193 57014 82460 91145 333 82625;EQDQ01  00002PRCP99
0189407340999992000112718004+36500+051570FM-12-002099999V0201601N002012200019N0100001N1+00921+00801101961ADDAA199000091GA1001+999999999GF100991001001999999001001MA1999999102191MD1410001+9999REMSYN076AAXX  27181 40734 32960 01602 10092 20080 30219 40196 54000 91745 333 55055;EQDQ01  00002PRCP99
0195407340999992000112800004+36500+051570FM-12-002099999V0202101N002010270019N0100001N1+00921+00711101981ADDAA199000091GA1051+027009079GF105991051001999999031001MA1999999102211MD1810021+9999REMSYN082AAXX  28001 40734 32960 52102 10092 20071 30221 40198 58002 85030 92350 333 85359;EQDQ01  00002PRCP99
0219407340999992000112806004+36500+051570FM-12-002099999V0209999C00001036001CN0100001N1+01161+00591102231ADDAA124000091GA1041+009009069GF105991041051008001031001MA1999999102461MD1210241+9999REMSYN106AAXX  28061 40734 32560 50000 10116 20059 30246 40223 52024 84530 90550 333 30004 50091 70000 84630 85360;EQDQ01  00002PRCP24
0169407340999992000112812004+36500+051570FM-12-002099999V0203101N003012200019N0100001N1+01561+01121102271ADDAA199000091GF104991031051008001031001MA1999999102501MD1310061+9999REMSYN072AAXX  28121 40734 32560 43103 10156 20112 30250 40227 53006 83530 91150;EQDQ01  00002PRCP99
0252407340999992000112818004+36500+051570FM-12-002099999V0202201N00201036001CN0100001N1+01301+01151102621ADDAA106001091AY161061AY221061GA1011+007509089GA2031+009009069GF108991031081008001021999GJ101329MA1999999102851MD1210151+9999MW1021REMSYN112AAXX  28181 40734 11560 82202 10130 20115 30285 40262 52015 69991 70262 8382/ 91745 333 55022 81825 83630 88458;
0201407340999992000112900004+36500+051570FM-12-002099999V0209999C00001036001CN0100001N1+01121+00841102771ADDAA199000091GA1021+007509069GF107991021041008001071001MA1999999103001MD1110051+9999REMSYN088AAXX  29001 40734 32560 70000 10112 20084 30300 40277 51005 82470 92345 333 82625 87359;EQDQ01  00002PRCP99
0256407340999992000112906004+36500+051570FM-12-002099999V0209999C00001036001CN0080001N1+01141+01061102931ADDAA106013091AY161061AY261061GA1011+007509099GA2021+009009069GF106991041031008001031001MA1999999103161MD1310161+9999MW1101REMSYN124AAXX  29061 40734 11558 60000 10114 20106 30316 40293 53016 60131 71066 84330 90550 333 32009 50251 70135 81925 82630 86360;
0215407340999992000112918004+36500+051570FM-12-002099999V0201501N002012200019N0100001N1+01061+00871102741ADDAA199000091GA1021+007509069GF103991021041008001071001GJ102409MA1999999102971MD1810031+9999REMSYN094AAXX  29181 40734 32560 31502 10106 20087 30297 40274 58003 82470 91750 333 55040 82625 83358;EQDQ01  00002PRCP99
0183407340999992000113000004+36500+051570FM-12-002099999V0209999C000012200019N0100001N1+00841+00751102571ADDAA199000091GA1001+999999999GF100991001001999999001001MA1999999102801MD1810101+9999REMSYN070AAXX  30001 40734 32960 00000 10084 20075 30280 40257 58010 92350 333;EQDQ01  00002PRCP99
0219407340999992000113006004+36500+051570FM-12-002099999V0202301N002019999999N0100001N1+01081+00891102471ADDAA124000091GA1011+030009039GF108991011001999999031071MA1999999102701MD1410001+9999REMSYN106AAXX  30061 40734 32960 82302 10108 20089 30270 40247 54000 81037 90545 333 31005 50181 70000 81360 88269;EQDQ01  00002PRCP24
0201407340999992000113012004+36500+051570FM-12-002099999V0209999C00001036001CN0100001N1+01341+01001102191ADDAA199000091GA1021+009009069GF108991021041008001021999MA1999999102401MD1610101+9999REMSYN088AAXX  30121 40734 32560 80000 10134 20100 30240 40219 56010 8242/ 91145 333 82630 88458;EQDQ01  00002PRCP99
0225407340999992000113018004+36500+051570FM-12-002099999V0201901N002010600019N0100001N1+00961+00751101951ADDAA199000091GA1061+060009089GF106991999001999999001061GJ100009MA1999999102181MD1510121+9999REMSYN088AAXX  30181 40734 32960 61902 10096 20075 30218 40195 55012 80006 91745 333 55000 86270;EQDQ01+000002SCOTLCQ02  00002PRCP99
0201407340999992000120100004+36500+051570FM-12-002099999V0202601N00201036001CN0100001N1+01021+00811101601ADDAA199000091GA1021+009009069GF108991021041008001021999MA1999999101831MD1610151+9999REMSYN088AAXX  01001 40734 32560 82602 10102 20081 30183 40160 56015 8242/ 92350 333 82630 88458;EQDQ01  00002PRCP99
0228407340999992000120106004+36500+051570FM-12-002099999V0209999C00001036001CN0080001N1+01181+00961102001ADDAA106000391AY181061AY221061GA1011+007509099GF108991011031008001021999MA1999999102231MD1110201+9999MW1251REMSYN112AAXX  01061 40734 11558 80000 10118 20096 30223 40200 51020 69931 72582 8132/ 333 31006 50121 70003 81925 88458;
0210407340999992000120112004+36500+051570FM-12-002099999V0202601N00601036001CN0050001N1+01381+01181102101ADDAA199000021AY121061AY221061GA1031+006009069GF108991031051008001021999MA1999999102331MD1310031+9999MW1101REMSYN094AAXX  01121 40734 31550 82606 10138 20118 30233 40210 53003 71022 8352/ 91150 333 83620 88457;
0252407340999992000120118004+36500+051570FM-12-002099999V0202401N00201006001CN0080001N1+01121+01041102571ADDAA106007191AY161061AY221061GA1041+004509079GA2011+006009099GF108991041031004501021999GJ100009MA1999999102801MD1210201+9999MW1211REMSYN112AAXX  01181 40734 11458 82402 10112 20104 30280 40257 52020 60071 72162 8432/ 91745 333 55000 84715 81920 88457;
0204407340999992000120200004+36500+051570FM-12-002099999V0203301N00301006001CN0100001N1+01221+01031102531ADDAA199000021GA1041+004509079GA2011+006009099GF108991041031004501021999MA1999999102761MD1410001+9999REMSYN094AAXX  02001 40734 32460 83303 10122 20103 30276 40253 54000 8432/ 92345 333 84715 81920 88457;
0200407340999992000120206004+36500+051570FM-12-002099999V0209999C00001036001CN0100001N1+01221+01031102501ADDAA124006991GA1031+009009069GF108991031051008001021999MA1999999102731MD1510001+9999REMSYN106AAXX  02061 40734 32560 80000 10122 20103 30273 40250 55000 8352/ 90545 333 32011 50071 70069 83630 88458;
0195407340999992000120212004+36500+051570FM-12-002099999V0209999C000012200019N0120001N1+01401+01061102271ADDAA199000091GA1011+007509059GF102991011041008001031011MA1999999102501MD1610101+9999REMSYN082AAXX  02121 40734 32562 20000 10140 20106 30250 40227 56010 81431 91145 333 81625;EQDQ01  00002PRCP99
0189407340999992000120218004+36500+051570FM-12-002099999V0201801N002012200019N0100001N1+00801+00771102241ADDAA199000091GA1001+999999999GF100991001001999999001001MA1999999102471MD1810061+9999REMSYN076AAXX  02181 40734 32960 01802 10080 20077 30247 40224 58006 91750 333 55010;EQDQ01  00002PRCP99
0183407340999992000120300004+36500+051570FM-12-002099999V0209999C000012200019N0100001N1+00601+00511102071ADDAA199000091GA1001+999999999GF100991001001999999001001MA1999999102301MD1610071+9999REMSYN070AAXX  03001 40734 32960 00000 10060 20051 30230 40207 56007 92350 333;EQDQ01  00002PRCP99
0201407340999992000120306004+36500+051570FM-12-002099999V0209999C000012200019N0120001N1+01181+00831102271ADDAA124000091GA1001+999999999GF100991001001999999001001MA1999999102501MD1210161+9999REMSYN088AAXX  03061 40734 32962 00000 10118 20083 30250 40227 52016 90545 333 31002 50131 70000;EQDQ01  00002PRCP24
0201407340999992000120312004+36500+051570FM-12-002099999V0203101N003012200019N0120001N1+01521+01101102461ADDAA199000091GA1021+007509069GF103991021041008001061011MA1999999102691MD1210191+9999REMSYN088AAXX  03121 40734 32562 33103 10152 20110 30269 40246 52019 82461 91145 333 82625 83070;EQDQ01  00002PRCP99
0209407340999992000120318004+36500+051570FM-12-002099999V0209999C000012200019N0100001N1+00981+00901102771ADDAA199000091GA1011+030009079GF101991011001999999031001GJ104329MA1999999103001MD1110101+9999REMSYN088AAXX  03181 40734 32960 10000 10098 20090 30300 40277 51010 81030 91745 333 55072 81360;EQDQ01  00002PRCP99
0213407340999992000120406004+36500+051570FM-12-002099999V0209999C000012200019N0100001N1+01321+00771103041ADDAA124000091GA1011+007509059GF102991011041008001031001MA1999999103271MD1210121+9999REMSYN100AAXX  04061 40734 32560 20000 10132 20077 30327 40304 52012 81430 90550 333 31006 50091 70000 81625;EQDQ01  00002PRCP24
0195407340999992000120412004+36500+051570FM-12-002099999V0200601N004012200019N0100001N1+01421+01081102831ADDAA199000091GA1021+006009029GF102991021011008001001001MA1999999103061MD1610111+9999REMSYN082AAXX  04121 40734 32560 20604 10142 20108 30306 40283 56011 82100 91150 333 82820;EQDQ01  00002PRCP99
0225407340999992000120418004+36500+051570FM-12-002099999V0209999C000012200019N0100001N1+00841+00811102771ADDAA199000091GA1041+054009089GF104991999001999999001061GJ103189MA1999999103001MD1610021+9999REMSYN088AAXX  04181 40734 32960 40000 10084 20081 30300 40277 56002 80006 91745 333 55053 84268;EQDQ01+000002SCOTLCQ02  00002PRCP99
0201407340999992000120506004+36500+051570FM-12-002099999V0202201N002012200019N0100001N1+01161+00711102671ADDAA124000091GA1001+999999999GF100991001001999999001001MA1999999102901MD1110051+9999REMSYN088AAXX  05061 40734 32960 02202 10116 20071 30290 40267 51005 90545 333 30002 50041 70000;EQDQ01  00002PRCP24
0183407340999992000120512004+36500+051570FM-12-002099999V0200501N003012200019N0120001N1+01481+00891102391ADDAA199000091GA1001+999999999GF100991001001999999001001MA1999999102621MD1710091+9999REMSYN070AAXX  05121 40734 32962 00503 10148 20089 30262 40239 57009 91145 333;EQDQ01  00002PRCP99
0209407340999992000120518004+36500+051570FM-12-002099999V0209999C000012200019N0100001N1+00941+00821102371ADDAA199000091GA1041+030009079GF104991041001999999031001GJ104809MA1999999102601MD1610021+9999REMSYN088AAXX  05181 40734 32960 40000 10094 20082 30260 40237 56002 84030 91750 333 55080 84360;EQDQ01  00002PRCP99
0195407340999992000120600004+36500+051570FM-12-002099999V0209999C000012200019N0100001N1+00841+00701102251ADDAA199000091GA1041+030009079GF104991041001999999031001MA1999999102481MD1610021+9999REMSYN082AAXX  06001 40734 32960 40000 10084 20070 30248 40225 56002 84030 92350 333 84360;EQDQ01  00002PRCP99
0201407340999992000120606004+36500+051570FM-12-002099999V0209999C000012200019N0100001N1+01201+00611102271ADDAA124000091GA1001+999999999GF100991001001999999001001MA1999999102501MD1110051+9999REMSYN088AAXX  06061 40734 32960 00000 10120 20061 30250 40227 51005 90545 333 30005 50181 70000;EQDQ01  00002PRCP24
0195407340999992000120612004+36500+051570FM-12-002099999V0209999C000012200019N0100001N1+01421+01001102071ADDAA199000091GA1011+007509029GF101991011011008001001001MA1999999102301MD1610101+9999REMSYN082AAXX  06121 40734 32560 10000 10142 20100 30230 40207 56010 81100 91145 333 81825;EQDQ01  00002PRCP99
0215407340999992000120618004+36500+051570FM-12-002099999V0209999C000010360019N0100001N1+00961+00841102231ADDAA199000091GA1011+006009089GF106991011011008001031001GJ104149MA1999999102461MD1210101+9999REMSYN094AAXX  06181 40734 32560 60000 10096 20084 30246 40223 52010 81130 91745 333 55069 81820 86362;EQDQ01  00002PRCP99
0201407340999992000120700004+36500+051570FM-12-002099999V0209999C00001036001CN0100001N1+01041+00921102231ADDAA199000091GA1021+009009069GF107991021041008001071001MA1999999102461MD1410001+9999REMSYN088AAXX  07001 40734 32560 70000 10104 20092 30246 40223 54000 82470 92350 333 82630 87359;EQDQ01  00002PRCP99
0219407340999992000120706004+36500+051570FM-12-002099999V0209999C00001036001CN0100001N1+01201+01011102231ADDAA124000091GA1021+009009069GF107991021041008001071001MA1999999102461MD1110061+9999REMSYN106AAXX  07061 40734 32560 70000 10120 20101 30246 40223 51006 82470 90545 333 30006 50131 70000 82630 87359;EQDQ01  00002PRCP24
0201407340999992000120712004+36500+051570FM-12-002099999V0200601N00401036001CN0100001N1+01461+01081102071ADDAA199000091GA1021+007509089GF107991021021008001071001MA1999999102301MD1610081+9999REMSYN088AAXX  07121 40734 32560 70604 10146 20108 30230 40207 56008 82270 91145 333 82825 87359;EQDQ01  00002PRCP99
0215407340999992000120718004+36500+051570FM-12-002099999V0209999C00001036001CN0100001N1+01141+00981102121ADDAA199000091GA1021+007509089GF107991021081008001071001GJ100969MA1999999102351MD1010021+9999REMSYN094AAXX  07181 40734 32560 70000 10114 20098 30235 40212 50002 82870 91750 333 55016 82825 87359;EQDQ01  00002PRCP99
0223407340999992000120800004+36500+051570FM-12-002099999V0209999C00001036001CN0100001N1+01161+01001102141ADDAA199000091GA1011+007509099GA2021+009009069GF108991021031008001021999MA1999999102371MD1110021+9999REMSYN094AAXX  08001 40734 32560 80000 10116 20100 30237 40214 51002 8232/ 92350 333 81925 82630 88458;EQDQ01  00002PRCP99
0241407340999992000120806004+36500+051570FM-12-002099999V0202401N002010090019N0100001N1+01241+00981102371ADDAA124000091GA1021+007509099GA2031+009009069GF107991051031008001071001MA1999999102601MD1110171+9999REMSYN112AAXX  08061 40734 32560 72402 10124 20098 30260 40237 51017 85370 90545 333 30009 50041 70000 82925 83630 87459;EQDQ01  00002PRCP24
0223407340999992000120812004+36500+051570FM-12-002099999V0202701N00701036001CN0100001N1+01261+00711102381ADDAA199000091GA1011+007509099GA2031+009009069GF108991041031008001021999MA1999999102611MD1310041+9999REMSYN094AAXX  08121 40734 32560 82707 10126 20071 30261 40238 53004 8432/ 91145 333 81925 83630 88459;EQDQ01  00002PRCP99
0237407340999992000120818004+36500+051570FM-12-002099999V0203301N00701036001CN0100001N1+01221+00771102571ADDAA199000091GA1011+007509099GA2031+009009069GF108991041031008001021999GJ100009MA1999999102801MD1210101+9999REMSYN100AAXX  08181 40734 32560 83307 10122 20077 30280 40257 52010 8432/ 91750 333 55000 81925 83630 88458;EQDQ01  00002PRCP99
0238407340999992000120900004+36500+051570FM-12-002099999V0203101N00801007501CN0060001N1+01021+00851102671ADDAA106007191AY161061AY221061GA1021+006009099GA2031+007509069GF108991041031004501021999MA1999999102901MD1310051+9999MW1611REMSYN106AAXX  09001 40734 11456 83108 10102 20085 30290 40267 53005 60071 76162 8432/ 92350 333 82920 83625 88556;
0256407340999992000120906004+36500+051570FM-12-002099999V0202401N00601036001CN0070001N1+00961+00841102971ADDAA106008991AY161061AY261061GA1011+006009099GA2031+007509069GF108991041031008001021999MA1999999103201MD1210201+9999MW1611REMSYN124AAXX  09061 40734 11557 82406 10096 20084 30320 40297 52020 60091 76166 8432/ 90550 333 32008 50231 70155 81920 83625 88556;
0238407340999992000120912004+36500+051570FM-12-002099999V0202701N004010036019N0070001N1+00981+00861102871ADDAA106002091AY161061AY261061GA1051+003609079GA2011+006009099GF108991051031004501021999MA1999999103101MD1610071+9999MW1611REMSYN106AAXX  09121 40734 11457 82704 10098 20086 30310 40287 56007 60021 76166 8532/ 91150 333 85712 81920 88556;
0252407340999992000120918004+36500+051570FM-12-002099999V0202501N004010030019N0040001N1+00881+00851103071ADDAA106005191AY161061AY251061GA1051+003009079GA2011+006009099GF108991051031002501021999GJ100009MA1999999103301MD1110041+9999MW1611REMSYN112AAXX  09181 40734 11340 82504 10088 20085 30330 40307 51004 60051 76165 8532/ 91750 333 55000 85710 81920 88557;
0238407340999992000121000004+36500+051570FM-12-002099999V0202701N002010045019N0060001N1+00881+00801102961ADDAA106006191AY161061AY261061GA1051+004509079GA2011+007509099GF108991051031004501021999MA1999999103191MD1610031+9999MW1611REMSYN106AAXX  10001 40734 11456 82702 10088 20080 30319 40296 56003 60061 76166 8532/ 92350 333 85715 81925 885/6;
0256407340999992000121006004+36500+051570FM-12-002099999V0202701N00501006001CN0040001N1+00901+00821102941ADDAA106004191AY161061AY261061GA1041+003009079GA2011+006009099GF107991041031004501021999MA1999999103171MD1210071+9999MW1611REMSYN124AAXX  10061 40734 11440 72705 10090 20082 30317 40294 52007 60041 76166 8432/ 90550 333 32008 50091 70167 84710 81920 88456;
0210407340999992000121012004+36500+051570FM-12-002099999V0202701N004010030019N0030001N1+00961+00931102731ADDAA106004191AY151061AY221061GA1061+003009079GF108991999999004501999999MA1999999102961MD1810101+9999MW1511REMSYN094AAXX  10121 40734 11430 82704 10096 20093 30296 40273 58010 60041 75152 91150 333 86710 88556;
0252407340999992000121018004+36500+051570FM-12-002099999V0202601N004010030019N0030001N1+00881+00831102601ADDAA106004191AY161061AY261061GA1051+003009079GA2011+006009099GF108991051031008001021999GJ100009MA1999999102831MD1710131+9999MW1611REMSYN112AAXX  10181 40734 11530 82604 10088 20083 30283 40260 57013 60041 76166 8532/ 91750 333 55000 85710 81920 88550;
0238407340999992000121100004+36500+051570FM-12-002099999V0202501N00201009001CN0070001N1+00881+00781102271ADDAA106003091AY161061AY261061GA1021+006009099GA2031+009009069GF108991041031008001021999MA1999999102501MD1710181+9999MW1611REMSYN106AAXX  11001 40734 11557 82502 10088 20078 30250 40227 57018 60031 76166 8432/ 92350 333 82920 83630 88550;
0256407340999992000121106004+36500+051570FM-12-002099999V0202701N00301036001CN0080001N1+00881+00761101961ADDAA106004191AY161061AY261061GA1011+006009099GA2021+009009069GF108991031031004501021999MA1999999102191MD1810101+9999MW1211REMSYN124AAXX  11061 40734 11458 82703 10088 20076 30219 40196 58010 60041 72166 8332/ 90550 333 32008 50101 70125 81920 82630 88457;
0238407340999992000121112004+36500+051570FM-12-002099999V0202701N00801036001CN0080001N1+00901+00821101771ADDAA106002091AY161061AY221061GA1031+004509079GA2011+006009099GF108991041031004501021999MA1999999102001MD1610051+9999MW1211REMSYN106AAXX  11121 40734 11458 82708 10090 20082 30200 40177 56005 60021 72162 8432/ 91145 333 83715 81920 88457;
0230407340999992000121118004+36500+051570FM-12-002099999V0202701N00301036001CN0050001N1+00821+00731101701ADDAA106004191AY161061AY261061GA1031+003009079GF108991031071004501021999GJ100009MA1999999101931MD1810071+9999MW1101REMSYN106AAXX  11181 40734 11450 82703 10082 20073 30193 40170 58007 60041 71066 8372/ 91750 333 55000 83710 88456;
0201407340999992000121200004+36500+051570FM-12-002099999V0201801N002019999999N0100001N1+00821+00681101641ADDAA199000021GA1031+009009069GF105991999041008001071001MA1999999101871MD1410001+9999REMSYN088AAXX  12001 40734 32560 51802 10082 20068 30187 40164 54000 86470 92350 333 83630 85360;EQDQ01+000062SCOTLC
0222407340999992000121206004+36500+051570FM-12-002099999V0202701N00501009001CN0120001N1+01001+00711101771ADDAA124005691GA1021+007509099GA2031+009009069GF107991031031008001071001MA1999999102001MD1610131+9999REMSYN112AAXX  12061 40734 32562 72705 10100 20071 30200 40177 56013 83370 90545 333 31005 50131 70057 82925 83630 87359;
0238407340999992000121212004+36500+051570FM-12-002099999V0203001N005010036019N0020001N1+00961+00881101871ADDAA106000891AY121061AY221061GA1061+003609079GA2021+006009099GF108991061031004501021999MA1999999102101MD1310101+9999MW1601REMSYN106AAXX  12121 40734 11420 83005 10096 20088 30210 40187 53010 69971 76022 8632/ 91145 333 86712 82920 88556;
0230407340999992000121218004+36500+051570FM-12-002099999V0209999C00001036001CN0060001N1+00881+00851101971ADDAA106003091AY161061AY251061GA1041+004509079GF108991041071004501021999GJ100429MA1999999102201MD1810051+9999MW1201REMSYN106AAXX  12181 40734 11456 80000 10088 20085 30220 40197 58005 60031 72065 8472/ 91750 333 55007 84715 88458;
0182407340999992000121300004+36500+051570FM-12-002099999V0209999C00001036001CN0100001N1+00861+00781102021ADDAA199000021GA1011+007509089GF105991011011008001031001MA1999999102251MD1110051+9999REMSYN088AAXX  13001 40734 32560 50000 10086 20078 30225 40202 51005 81130 92350 333 81825 85360;
0215407340999992000121318004+36500+051570FM-12-002099999V0209999C00001036001CN0120001N1+00981+00811102071ADDAA199000091GA1021+007509069GF107991021041008001071001GJ104089MA1999999102301MD1410001+9999REMSYN094AAXX  13181 40734 32562 70000 10098 20081 30230 40207 54000 82470 91745 333 55068 82625 87359;EQDQ01  00002PRCP99
0201407340999992000121400004+36500+051570FM-12-002099999V0209999C00001036001CN0120001N1+00801+00711101971ADDAA199000091GA1011+009009069GF107991011041008001071001MA1999999102201MD1410001+9999REMSYN088AAXX  14001 40734 32562 70000 10080 20071 30220 40197 54000 81470 92345 333 81630 87360;EQDQ01  00002PRCP99
0219407340999992000121406004+36500+051570FM-12-002099999V0209999C000012200019N0120001N1+01121+00701101921ADDAA124000091GA1021+036009039GF104991021001999999031021MA1999999102151MD1010041+9999REMSYN106AAXX  14061 40734 32962 40000 10112 20070 30215 40192 50004 82032 90545 333 30006 50181 70000 82362 84070;EQDQ01  00002PRCP24
0201407340999992000121412004+36500+051570FM-12-002099999V0200801N00401220001CN0100001N1+01261+00641101681ADDAA199000091GA1021+009009069GF106991021041008001001061MA1999999101911MD1610121+9999REMSYN088AAXX  14121 40734 32560 60804 10126 20064 30191 40168 56012 82406 91145 333 82630 86269;EQDQ01  00002PRCP99
0237407340999992000121418004+36500+051570FM-12-002099999V0201701N002010300019N0100001N1+00901+00691101771ADDAA199000091GA1011+009009069GA2041+030009039GF106991011041008001031081GJ102169MA1999999102001MD1410001+9999REMSYN100AAXX  14181 40734 32560 61702 10090 20069 30200 40177 54000 81438 91745 333 55036 81630 84360 86270;EQDQ01  00002PRCP99
0201407340999992000121500004+36500+051570FM-12-002099999V0209999C000012200019N0100001N1+00621+00531101621ADDAA199000091GA1021+030009039GF104991021001999999031021MA1999999101851MD1710081+9999REMSYN088AAXX  15001 40734 32960 40000 10062 20053 30185 40162 57008 82032 92345 333 82360 84070;EQDQ01  00002PRCP99
0219407340999992000121506004+36500+051570FM-12-002099999V0209999C00001036001CN0100001N1+00961+00671101571ADDAA124000091GA1021+009009069GF107991021041008001071001MA1999999101801MD1410001+9999REMSYN106AAXX  15061 40734 32560 70000 10096 20067 30180 40157 54000 82470 90545 333 31003 50091 70000 82630 87360;EQDQ01  00002PRCP24
0223407340999992000121512004+36500+051570FM-12-002099999V0203001N00501036001CN0100001N1+01181+00831101421ADDAA199000091GA1011+006009099GA2041+007509069GF108991041031008001021999MA1999999101651MD1510001+9999REMSYN094AAXX  15121 40734 32560 83005 10118 20083 30165 40142 55000 8432/ 91145 333 81920 84625 88458;EQDQ01  00002PRCP99
0252407340999992000121518004+36500+051570FM-12-002099999V0201801N00201036001CN0080001N1+00881+00801101581ADDAA106002091AY181061AY261061GA1021+005409079GA2011+006009099GF108991031031004501021999GJ100009MA1999999101811MD1310021+9999MW1211REMSYN112AAXX  15181 40734 11458 81802 10088 20080 30181 40158 53002 60021 72186 8332/ 91745 333 55000 82718 81920 88457;
0182407340999992000121600004+36500+051570FM-12-002099999V0202201N00201036001CN0100001N1+00801+00711101621ADDAA199000021GA1011+009009069GF106991011041008001031001MA1999999101851MD1310041+9999REMSYN088AAXX  16001 40734 32560 62202 10080 20071 30185 40162 53004 81430 92350 333 81630 86360;
0216407340999992000121606004+36500+051570FM-12-002099999V0209999C00001009001CN0100001N1+01001+99999102001ADDAA124001891GA1021+007509089GA2031+009009069GF107991041081008001071001MA1999999102231MD1210251+9999REMSYN106AAXX  16061 40734 32560 70000 10100 30223 40200 52025 84870 90550 333 31005 50011 70019 82825 83630 86359;
0210407340999992000121612004+36500+051570FM-12-002099999V0200901N003012200019N0100001N1+01341+00761101971ADDAA106001091AY181061AY221061GA1021+007509029GF102991021011008001001001MA1999999102201MD1310071+9999MW1011REMSYN094AAXX  16121 40734 11560 20903 10134 20076 30220 40197 53007 60011 70182 82100 91145 333 82825;
0189407340999992000121618004+36500+051570FM-12-002099999V0201201N002012200019N0120001N1+00681+00361101971ADDAA199000091GA1001+999999999GF100991001001999999001001MA1999999102201MD1810101+9999REMSYN076AAXX  16181 40734 32962 01202 10068 20036 30220 40197 58010 91745 333 55040;EQDQ01  00002PRCP99
0183407340999992000121700004+36500+051570FM-12-002099999V0209999C000012200019N0120001N1+00381+00061101821ADDAA199000091GA1001+999999999GF100991001001999999001001MA1999999102051MD1610051+9999REMSYN070AAXX  17001 40734 32962 00000 10038 20006 30205 40182 56005 92345 333;EQDQ01  00002PRCP99
0213407340999992000121706004+36500+051570FM-12-002099999V0209999C000010600019N0150001N1+01141+00411101831ADDAA124001391GA1051+060009089GF105991999001999999001061MA1999999102061MD1310061+9999REMSYN100AAXX  17061 40734 32965 50000 10114 20041 30206 40183 53006 80006 90550 333 31002 50121 70012 85270;EQDQ01+000002SCOTLC
0211407340999992000121712004+36500+051570FM-12-002099999V0209999C000010510019N0150001N1+01461+00481101571ADDAA199000091GA1051+051009089GF105991999001999999001061MA1999999101801MD1410001+9999REMSYN082AAXX  17121 40734 32965 50000 10146 20048 30180 40157 54000 80006 91150 333 85267;EQDQ01+000002SCOTLCQ02  00002PRCP99
0189407340999992000121718004+36500+051570FM-12-002099999V0209999C000012200019N0100001N1+00521+00171101671ADDAA199000091GA1001+999999999GF100991001001999999001001MA1999999101901MD1210051+9999REMSYN076AAXX  17181 40734 32960 00000 10052 20017 30190 40167 52005 91745 333 55075;EQDQ01  00002PRCP99
0183407340999992000121800004+36500+051570FM-12-002099999V0209999C000012200019N0100001N1+00381+00181101871ADDAA199000091GA1001+999999999GF100991001001999999001001MA1999999102101MD1210201+9999REMSYN070AAXX  18001 40734 32960 00000 10038 20018 30210 40187 52020 92350 333;EQDQ01  00002PRCP99
0213407340999992000121806004+36500+051570FM-12-002099999V0203001N007012200019N0150001N1+01401+00401102471ADDAA124000091GA1021+060009019GF102991001001999999001011MA1999999102701MD1210401+9999REMSYN100AAXX  18061 40734 32965 23007 10140 20040 30270 40247 52040 80001 90545 333 31002 50181 70000 82070;EQDQ01  00002PRCP24
0195407340999992000121812004+36500+051570FM-12-002099999V0209999C000012200019N0100001N1+01401+01021102291ADDAA199000091GA1021+030009079GF102991011011008001031001MA1999999102521MD1710131+9999REMSYN082AAXX  18121 40734 32560 20000 10140 20102 30252 40229 57013 81130 91145 333 82360;EQDQ01  00002PRCP99
0189407340999992000121818004+36500+051570FM-12-002099999V0209999C000012200019N0100001N1+00901+00781102041ADDAA199000091GA1001+999999999GF100991001001999999001001MA1999999102271MD1710151+9999REMSYN076AAXX  18181 40734 32960 00000 10090 20078 30227 40204 57015 91750 333 55084;EQDQ01  00002PRCP99
0183407340999992000121900004+36500+051570FM-12-002099999V0201501N003012200019N0100001N1+00621+00391101661ADDAA199000091GA1001+999999999GF100991001001999999001001MA1999999101891MD1610181+9999REMSYN070AAXX  19001 40734 32960 01503 10062 20039 30189 40166 56018 92350 333;EQDQ01  00002PRCP99
0200407340999992000121906004+36500+051570FM-12-002099999V0200901N005019999999N0100001N1+01101+00911101571ADDAA124999999GA1031+030009039GF105991031001999999051011MA1999999101801MD1110051+9999REMSYN106AAXX  19061 40734 32960 50905 10110 20091 30180 40157 51005 83051 90550 333 30001 50091 7000/ 83360 84068;
0201407340999992000121912004+36500+051570FM-12-002099999V0203301N002012200019N0100001N1+01301+00961101171ADDAA199000091GA1021+030009039GF104991021001999999041011MA1999999101401MD1610101+9999REMSYN088AAXX  19121 40734 32960 43302 10130 20096 30140 40117 56010 82041 91150 333 82360 84068;EQDQ01  00002PRCP99
0209407340999992000121918004+36500+051570FM-12-002099999V0200901N003010600019N0100001N1+00781+00751101021ADDAA199000091GA1051+060009019GF105991001001999999001011GJ102409MA1999999101251MD1810151+9999REMSYN088AAXX  19181 40734 32960 50903 10078 20075 30125 40102 58015 80001 91750 333 55040 85070;EQDQ01  00002PRCP99
0201407340999992000122000004+36500+051570FM-12-002099999V0202201N00201036001CN0100001N1+01041+00921101181ADDAA199000091GA1031+004509079GF108991031071004501021999MA1999999101411MD1210211+9999REMSYN088AAXX  20001 40734 32460 82202 10104 20092 30141 40118 52021 8372/ 92350 333 83715 88458;EQDQ01  00002PRCP99
0219407340999992000122006004+36500+051570FM-12-002099999V0202701N00301090001CN0100001N1+01021+00851101271ADDAA124000091GA1011+009009089GF106991011011008001031061MA1999999101501MD1310151+9999REMSYN106AAXX  20061 40734 32560 62703 10102 20085 30150 40127 53015 81136 90550 333 30007 50041 70000 81830 86268;EQDQ01  00002PRCP24
0201407340999992000122012004+36500+051570FM-12-002099999V0202801N00501220001CN0100001N1+01361+01141101421ADDAA199000091GA1021+004509079GF106991021071004501001061MA1999999101651MD1310181+9999REMSYN088AAXX  20121 40734 32460 62805 10136 20114 30165 40142 53018 82706 91150 333 82715 86268;EQDQ01  00002PRCP99
0189407340999992000122018004+36500+051570FM-12-002099999V0201701N002012200019N0100001N1+00821+00731101471ADDAA199000091GA1001+999999999GF100991001001999999001001MA1999999101701MD1810021+9999REMSYN076AAXX  20181 40734 32960 01702 10082 20073 30170 40147 58002 91745 333 55025;EQDQ01  00002PRCP99
0195407340999992000122100004+36500+051570FM-12-002099999V0201801N002019999999N0100001N1+00681+00591101241ADDAA199000091GA1021+009009069GF107991999999008001999999MA1999999101481MD1710101+9999REMSYN082AAXX  21001 40734 32560 71802 10068 20059 30148 40124 57010 92350 333 82630 87359;EQDQ01  00002PRCP99
0213407340999992000122106004+36500+051570FM-12-002099999V0209999V003012200019N0100001N1+01201+00791100871ADDAA124000091GA1011+009009029GF102991011081008001031021MA1999999101101MD1710131+9999REMSYN100AAXX  21061 40734 32560 29903 10120 20079 30110 40087 57013 81832 90545 333 30004 50091 70000 81830;EQDQ01  00002PRCP24
0173407340999992000122112004+36500+051570FM-12-002099999V0200901N005012200019N0100001N1+01361+01021100781ADDAA199000091GF101991011011008001001001MA1999999101011MD1410001+9999REMSYN076AAXX  21121 40734 32560 10905 10136 20102 30101 40078 54000 81100 91145 333;EQDQ01  00002PRCP99
0189407340999992000122118004+36500+051570FM-12-002099999V0202401N003012200019N0100001N1+00941+00821101171ADDAA199000091GA1001+999999999GF100991001001999999001001MA1999999101401MD1210271+9999REMSYN076AAXX  21181 40734 32960 02403 10094 20082 30140 40117 52027 91750 333 55080;EQDQ01  00002PRCP99
0238407340999992000122200004+36500+051570FM-12-002099999V0202401N00301036001CN0060001N1+01081+01001101771ADDAA106002091AY161061AY221061GA1011+007509099GA2021+009009069GF108991021031008001021999MA1999999102001MD1110201+9999MW1611REMSYN106AAXX  22001 40734 11556 82403 10108 20100 30200 40177 51020 60021 76162 8232/ 92350 333 81925 82630 88558;
0234407340999992000122206004+36500+051570FM-12-002099999V0202701N005010030019N0050001N1+01021+00941102071ADDAA106003091AY151061AY251061GA1051+003009079GF108991051061004501021999MA1999999102301MD1210251+9999MW1501REMSYN118AAXX  22061 40734 11450 82705 10102 20094 30230 40207 52025 60031 75055 8562/ 90550 333 32008 50051 70058 85710 88457;
0230407340999992000122218004+36500+051570FM-12-002099999V0209999C00001036001CN0100001N1+00781+00691102471ADDAA106000191AY161061AY251061GA1011+006009079GF108991011071008001021999GJ100009MA1999999102701MD1410001+9999MW1021REMSYN106AAXX  22181 40734 11560 80000 10078 20069 30270 40247 54000 69921 70265 8172/ 91745 333 55000 81720 88457;
0216407340999992000122300004+36500+051570FM-12-002099999V0209999C000010036019N0080001N1+00801+00711102371ADDAA106000191AY151061AY221061GA1051+003609079GF108991051061004501021999MA1999999102601MD1810061+9999MW1201REMSYN100AAXX  23001 40734 11458 80000 10080 20071 30260 40237 58006 69921 72052 8562/ 92345 333 85712 88458;
0200407340999992000122306004+36500+051570FM-12-002099999V0209999C00001036001CN0100001N1+00921+00751102371ADDAA124002391GA1021+009009069GF107991021041008001071001MA1999999102601MD1410001+9999REMSYN106AAXX  23061 40734 32560 70000 10092 20075 30260 40237 54000 82470 90545 333 32008 50061 70024 82630 87459;
0161407340999992000122312004+36500+051570FM-12-002099999V0209999C00001036001CN0100001N1+01041+00751102261ADDAA199000021GA1021+007509089GF107991021021008001071001MD1810011+9999REMSYN082AAXX  23121 40734 32560 70000 10104 20075 40226 58001 82270 91150 333 82825 87458;
0215407340999992000122318004+36500+051570FM-12-002099999V0209999C00001036001CN0100001N1+00861+00781102341ADDAA199000091GA1031+007509069GF106991031041008001071001GJ100009MA1999999102571MD1010041+9999REMSYN094AAXX  23181 40734 32560 60000 10086 20078 30257 40234 50004 83470 91750 333 55000 83625 86358;EQDQ01  00002PRCP99
0201407340999992000122400004+36500+051570FM-12-002099999V0209999C00001036001CN0100001N1+00801+00761102051ADDAA199000091GA1031+007509069GF105991031051008001071001MA1999999102881MD1810121+9999REMSYN088AAXX  24001 40734 32560 50000 10080 20076 30288 40205 58012 83570 92350 333 83625 85358;EQDQ01  00002PRCP99
0219407340999992000122406004+36500+051570FM-12-002099999V0209999C00001036001CN0100001N1+00941+00771101971ADDAA124000091GA1011+006009089GF108991021081008001071999MA1999999102001MD1410001+9999REMSYN106AAXX  24061 40734 32560 80000 10094 20077 30200 40197 54000 8287/ 90545 333 31008 50091 70000 81820 88458;EQDQ01  00002PRCP24
0223407340999992000122412004+36500+051570FM-12-002099999V0202801N003010045019N0100001N1+01061+00871101611ADDAA199000091GA1051+004509079GA2021+006009099GF108991051031004501021999MA1999999101841MD1710141+9999REMSYN094AAXX  24121 40734 32460 82803 10106 20087 30184 40161 57014 8532/ 91145 333 85715 82920 88458;EQDQ01  00002PRCP99
0209407340999992000122418004+36500+051570FM-12-002099999V0209999C000012200019N0100001N1+00721+00631101521ADDAA199000091GA1011+030009079GF101991011001999999031001GJ100129MA1999999101751MD1510091+9999REMSYN088AAXX  24181 40734 32960 10000 10072 20063 30175 40152 55009 81030 91745 333 55002 81360;EQDQ01  00002PRCP99
0199407340999992000122500004+36500+051570FM-12-002099999V0209999C000012200019N0100001N1+00561+00521101471ADDAA199000091GA1001+999999999GF100991001001999999001001MA1999999100702MD1610021+9999REMSYN070AAXX  25001 40734 32960 00000 10056 20052 30070 40147 56002 92350 333;EQDQ01+100703APOSP Q02  00002PRCP99
0219407340999992000122506004+36500+051570FM-12-002099999V0209999C000012200019N0120001N1+01021+00671101531ADDAA124000091GA1011+009009089GF103991011011008001001011MA1999999101761MD1310061+9999REMSYN106AAXX  25061 40734 32562 30000 10102 20067 30176 40153 53006 81101 90550 333 30001 50041 70000 81830 83070;EQDQ01  00002PRCP24
0201407340999992000122512004+36500+051570FM-12-002099999V0209999C00001036001CN0100001N1+01221+00871101501ADDAA199000091GA1031+009009089GF106991031021008001071001MA1999999101731MD1310031+9999REMSYN088AAXX  25121 40734 32560 60000 10122 20087 30173 40150 53003 83270 91145 333 83830 85360;EQDQ01  00002PRCP99
0215407340999992000122518004+36500+051570FM-12-002099999V0209999C00001036001CN0100001N1+00841+00701101871ADDAA199000091GA1011+007509069GF107991011041008001071001GJ102229MA1999999102101MD1110101+9999REMSYN094AAXX  25181 40734 32560 70000 10084 20070 30210 40187 51010 81470 91745 333 55037 81625 87359;EQDQ01  00002PRCP99
0201407340999992000122600004+36500+051570FM-12-002099999V0209999C00001036001CN0100001N1+00961+00841102121ADDAA199000091GA1021+007509069GF108991021041008001021999MA1999999102351MD1310031+9999REMSYN088AAXX  26001 40734 32560 80000 10096 20084 30235 40212 53003 8242/ 92350 333 82625 88458;EQDQ01  00002PRCP99
0238407340999992000122612004+36500+051570FM-12-002099999V0202701N00801036001CN0100001N1+01081+00891102281ADDAA106000391AY181061AY221061GA1011+006009099GA2031+009009069GF108991041031008001021999MA1999999102511MD1510011+9999MW1021REMSYN106AAXX  26121 40734 11560 82708 10108 20089 30251 40228 55001 69931 70282 8432/ 91145 333 81920 83630 88458;
0224407340999992000122618004+36500+051570FM-12-002099999V0201801N002012200019N0100001N1+00841+00751102401ADDAA106002091AY181061AY221061GA1031+007509059GF103991031041008001001001GJ100009MA1999999102631MD1110101+9999MW1011REMSYN100AAXX  26181 40734 11560 31802 10084 20075 30263 40240 51010 60021 70182 83400 91745 333 55000 83625;
0183407340999992000122700004+36500+051570FM-12-002099999V0201601N002012200019N0100001N1+00401+00361102331ADDAA199000091GA1001+999999999GF100991001001999999001001MA1999999102561MD1610041+9999REMSYN070AAXX  27001 40734 32960 01602 10040 20036 30256 40233 56004 92350 333;EQDQ01  00002PRCP99
0182407340999992000122706004+36500+051570FM-12-002099999V0209999C000012200019N0100001N1+01041+00691102221ADDAA124001891GA1001+999999999GF100991001001999999001001MA1999999102451MD1510001+9999REMSYN088AAXX  27061 40734 32960 00000 10104 20069 30245 40222 55000 90545 333 31001 50061 70019;
0173407340999992000122712004+36500+051570FM-12-002099999V0200401N002012200019N0120001N1+01321+00891102071ADDAA199000091GF101991001001999999001011MA1999999102301MD1410001+9999REMSYN076AAXX  27121 40734 32962 10402 10132 20089 30230 40207 54000 80001 91150 333;EQDQ01  00002PRCP99
0189407340999992000122718004+36500+051570FM-12-002099999V0209999C000012200019N0100001N1+00561+00421102071ADDAA199000091GA1001+999999999GF100991001001999999001001MA1999999102301MD1610051+9999REMSYN076AAXX  27181 40734 32960 00000 10056 20042 30230 40207 56005 91745 333 55084;EQDQ01  00002PRCP99
0183407340999992000122800004+36500+051570FM-12-002099999V0202101N003012200019N0100001N1+00461+00211102001ADDAA199000091GA1001+999999999GF100991001001999999001001MA1999999102231MD1410001+9999REMSYN070AAXX  28001 40734 32960 02103 10046 20021 30223 40200 54000 92350 333;EQDQ01  00002PRCP99
0213407340999992000122806004+36500+051570FM-12-002099999V0202601N002012200019N0100001N1+01101+00821102271ADDAA124000091GA1021+060009019GF102991001001999999001011MA1999999102501MD1210221+9999REMSYN100AAXX  28061 40734 32960 22602 10110 20082 30250 40227 52022 80001 90545 333 31000 50091 70000 82070;EQDQ01  00002PRCP24
0195407340999992000122812004+36500+051570FM-12-002099999V0200301N002012200019N0100001N1+01281+00981102241ADDAA199000091GA1021+060009019GF102991001001999999001011MA1999999102471MD1510031+9999REMSYN082AAXX  28121 40734 32960 20302 10128 20098 30247 40224 55003 80001 91145 333 82070;EQDQ01  00002PRCP99
0189407340999992000122818004+36500+051570FM-12-002099999V0201501N002012200019N0100001N1+00541+00401102301ADDAA199000091GA1001+999999999GF100991001001999999001001MA1999999102531MD1410001+9999REMSYN076AAXX  28181 40734 32960 01502 10054 20040 30253 40230 54000 91745 333 55087;EQDQ01  00002PRCP99
0183407340999992000122900004+36500+051570FM-12-002099999V0201501N002012200019N0100001N1+00221+00011102171ADDAA199000091GA1001+999999999GF100991001001999999001001MA1999999102401MD1610151+9999REMSYN070AAXX  29001 40734 32960 01502 10022 20001 30240 40217 56015 92350 333;EQDQ01  00002PRCP99
0213407340999992000122906004+36500+051570FM-12-002099999V0209999C000012200019N0120001N1+01061+00211102161ADDAA124000091GA1011+060009019GF101991001001999999001011MA1999999102391MD1210131+9999REMSYN100AAXX  29061 40734 32962 10000 10106 20021 30239 40216 52013 80001 90550 333 30101 50091 70000 81070;EQDQ01  00002PRCP24
0195407340999992000122912004+36500+051570FM-12-002099999V0200601N003012200019N0150001N1+01321+00771102001ADDAA199000091GA1021+060009019GF102991001001999999001011MA1999999102231MD1610071+9999REMSYN082AAXX  29121 40734 32965 20603 10132 20077 30223 40200 56007 80001 91150 333 82070;EQDQ01  00002PRCP99
0189407340999992000122918004+36500+051570FM-12-002099999V0209999C000012200019N0120001N1+00421+00221101971ADDAA199000091GA1001+999999999GF100991001001999999001001MA1999999102201MD1810131+9999REMSYN076AAXX  29181 40734 32962 00000 10042 20022 30220 40197 58013 91750 333 55088;EQDQ01  00002PRCP99
0183407340999992000123000004+36500+051570FM-12-002099999V0209999C000012200019N0150001N1+00301+00101101821ADDAA199000091GA1001+999999999GF100991001001999999001001MA1999999102051MD1810101+9999REMSYN070AAXX  30001 40734 32965 00000 10030 20010 30205 40182 58010 92350 333;EQDQ01  00002PRCP99
0195407340999992000123012004+36500+051570FM-12-002099999V0203301N003012200019N0150001N1+01361+00941101471ADDAA199000091GA1031+060009019GF103991001001999999001011MA1999999101701MD1510001+9999REMSYN082AAXX  30121 40734 32965 33303 10136 20094 30170 40147 55000 80001 91145 333 83070;EQDQ01  00002PRCP99
0209407340999992000123018004+36500+051570FM-12-002099999V0209999C000012200019N0100001N1+00561+00471101561ADDAA199000091GA1031+054009019GF103991001001999999001021GJ105169MA1999999101791MD1010011+9999REMSYN088AAXX  30181 40734 32960 30000 10056 20047 30179 40156 50001 80002 91750 333 55086 83068;EQDQ01  00002PRCP99
0183407340999992000123100004+36500+051570FM-12-002099999V0201501N003012200019N0100001N1+00601+00461101471ADDAA199000091GA1001+999999999GF100991001001999999001001MA1999999101701MD1610091+9999REMSYN070AAXX  31001 40734 32960 01503 10060 20046 30170 40147 56009 92350 333;EQDQ01  00002PRCP99
0213407340999992000123106004+36500+051570FM-12-002099999V0201501N002010540019N0150001N1+01061+00501101611ADDAA124000091GA1051+054009019GF105991001001999999001051MA1999999101841MD1210151+9999REMSYN100AAXX  31061 40734 32965 51502 10106 20050 30184 40161 52015 80005 90550 333 30000 50041 70000 85068;EQDQ01  00002PRCP24
0195407340999992000123112004+36500+051570FM-12-002099999V0200601N005012200019N0150001N1+01161+00901101201ADDAA199000091GA1031+051009019GF103991001001999999001021MA1999999101431MD1610071+9999REMSYN082AAXX  31121 40734 32965 30605 10116 20090 30143 40120 56007 80002 91150 333 83067;EQDQ01  00002PRCP99
0189407340999992000123118004+36500+051570FM-12-002099999V0202601N003012200019N0120001N1+00621+00581101271ADDAA199000091GA1001+999999999GF100991001001999999001001MA1999999101501MD1510001+9999REMSYN076AAXX  31181 40734 32962 02603 10062 20058 30150 40127 55000 91745 333 55076;EQDQ01  00002PRCP99
