0244471120999992000010100004+37480+126630FM-12+007099999V0200501N002119999999N0050001N1+00131-00011102671ADDAA106000091AY121061AY221061GF106991041001999999061041IA1019IA2999+00009KA1120N+00041MA1999999101811MD1210031+9999MW1101REMSYN094AAXX  01004 47112 31950 60504 10013 21001 30181 40267 52003 71022 84064 333 20004 30100 92022;EQDQ01  00002PRCP06
0191471120999992000010103004+37480+126630FM-12+007099999V0200501N002612200019N0050001N1+00121-00021102671ADDAA106000091AY111031AY211031GF103991001001999999001041MA1999999101811MD1710021+9999MW1101REMSYN072AAXX  01034 47112 31950 30505 10012 21002 30181 40267 57002 71011 80004;EQDQ01  00002PRCP06
0183471120999992000010106004+37480+126630FM-12+007099999V0201401N002112200019N0120001N1+01001-00171102231ADDAA106000091GA1001+999999999GF100991001001999999001001MA1999999101401MD1710261+9999REMSYN070AAXX  01064 47112 32962 01404 10100 21017 30140 40223 57026 333 92022;EQDQ01  00002PRCP06
0163471120999992000010109004+37480+126630FM-12+007099999V0201401N002119999999N0100001N1+00851-00191102191ADDAA106000091GF107991021001999999031021MA1999999101361MD1710041+9999REMSYN066AAXX  01094 47112 32960 71404 10085 21019 30136 40219 57004 82032;EQDQ01  00002PRCP06
0198471120999992000010112004+37480+126630FM-12+007099999V0201401N005119999999N0150001N1+00881+00271102211ADDAA106000091GF108991999999008001999999IA2999+00609KA1120M+01151MA1999999101381MD1710081+9999REMSYN076AAXX  01124 47112 31565 81410 10088 20027 30138 40221 57008 333 10115 3/006;EQDQ01  00002PRCP06
0163471120999992000010118004+37480+126630FM-12+007099999V0201401N005110075019N0170001N1+00801+00371101821ADDAA106000091GF106991061051008001001999MA1999999100981MD1710261+9999REMSYN066AAXX  01184 47112 32567 61410 10080 20037 30098 40182 57026 8650/;EQDQ01  00002PRCP06
0161471120999992000010121004+37480+126630FM-12+007099999V0201601N007710075019N0100001N1+00741+00431101421ADDAY161031AY221031GF108991061071008001021999MA1999999100591MD1710391+9999MW1601REMSYN072AAXX  01214 47112 41560 81615 10074 20043 30059 40142 57039 76062 8672/;
0237471120999992000010200004+37480+126630FM-12+007099999V0202701N007210042019N0030001N1+00641+00601101481ADDAA112005191AY161061AY261061GF108991061071004501021999IA1019IA2999+00609KA1120N+00591MA1999999100641MD1010061+9999MW1611REMSYN106AAXX  02004 47112 11430 82714 10064 20060 30064 40148 50006 60052 76166 8672/ 333 20059 30006 70049 92022;
0141471120999992000010203004+37480+126630FM-12+007099999V0202901N008210075019N0060001N1+00561+00451101561ADDAY121031AY221031GF107991061051008001021001MA1999999100731MW1101REMSYN066AAXX  02034 47112 41556 72916 10056 20045 30073 40156 71022 86520;
0143471120999992000010206004+37480+126630FM-12+007099999V0203201N007212200019N0120001N1+00601+00061101491ADDGF102991021051008001001001MA1999999100661MD1810041+9999REMSYN076AAXX  02064 47112 42562 23214 10060 20006 30066 40149 58004 82500 333 9203/;
0173471120999992000010209004+37480+126630FM-12+007099999V0203201N007712200019N0150001N1+00391-00131101731ADDAA106000091GA1001+999999999GF100991001001999999001001MA1999999100881MD1210231+9999REMSYN060AAXX  02094 47112 32965 03215 10039 21013 30088 40173 52023;EQDQ01  00002PRCP06
0225471120999992000010212004+37480+126630FM-12+007099999V0202901N006712200019N0200001N1+00141-00041101691ADDAA112000891GA1001+999999999GF100991001001999999001001IA1099IA2999+00109KA1120M+00841MA1999999100851MD1710041+9999REMSYN100AAXX  02124 47112 12970 02913 10014 21004 30085 40169 57004 69982 333 10084 31001 55035 70057 92044;
0173471120999992000010215004+37480+126630FM-12+007099999V0203401N006212200019N0200001N1+00001-00271101901ADDAA106000091GA1001+999999999GF100991001001999999001001MA1999999101041MD1210101+9999REMSYN060AAXX  02154 47112 32970 03412 10000 21027 30104 40190 52010;EQDQ01  00002PRCP06
0173471120999992000010218004+37480+126630FM-12+007099999V0203401N004612200019N0200001N1-00151-00431102001ADDAA106000091GF104991041051008001001001MA1999999101141MD1210101+9999REMSYN076AAXX  02184 47112 32570 43409 11015 21043 30114 40200 52010 84500 333 92044;EQDQ01  00002PRCP06
0173471120999992000010221004+37480+126630FM-12+007099999V0203401N004612200019N0200001N1-00271-00431102001ADDAA106000091GA1001+999999999GF100991001001999999001001MA1999999101141MD1210041+9999REMSYN060AAXX  02214 47112 32970 03409 11027 21043 30114 40200 52004;EQDQ01  00002PRCP06
0232471120999992000010300004+37480+126630FM-12+007099999V0203201N003612200019N0150001N1-00301-00901102331ADDAA106000091GA1001+999999999GF100991001001999999001001IA1149IA2999-00309KA1120N-00341MA1999999101461MD1210151+9999REMSYN088AAXX  03004 47112 32965 03207 11030 21090 30146 40233 52015 333 21034 34103 70010 92033;EQDQ01  00002PRCP06
0173471120999992000010303004+37480+126630FM-12+007099999V0203201N003612200019N0150001N1-00121-00921102381ADDAA106000091GA1001+999999999GF100991001001999999001001MA1999999101511MD1310061+9999REMSYN060AAXX  03034 47112 32965 03207 11012 21092 30151 40238 53006;EQDQ01  00002PRCP06
0173471120999992000010306004+37480+126630FM-12+007099999V0203401N004619999999N0130001N1-00031-00861102321ADDAA106000091GF106991001001999999001021MA1999999101451MD1210031+9999REMSYN076AAXX  03064 47112 32963 63409 11003 21086 30145 40232 52003 80002 333 92022;EQDQ01  00002PRCP06
0163471120999992000010309004+37480+126630FM-12+007099999V0203201N001012200019N0140001N1-00151-00871102401ADDAA106000091GF101991001001999999001011MA1999999101541MD1210111+9999REMSYN066AAXX  03094 47112 32964 13202 11015 21087 30154 40240 52011 80001;EQDQ01  00002PRCP06
0232471120999992000010312004+37480+126630FM-12+007099999V0203401N002612200019N0120001N1-00231-00781102441ADDAA106000091GA1001+999999999GF100991001001999999001001IA1149IA2999-00509KA1120M+00091MA1999999101571MD1010031+9999REMSYN088AAXX  03124 47112 32962 03405 11023 21078 30157 40244 50003 333 10009 34105 55078 92011;EQDQ01  00002PRCP06
0173471120999992000010315004+37480+126630FM-12+007099999V0203601N002112200019N0120001N1-00241-00751102531ADDAA106000091GA1001+999999999GF100991001001999999001001MA1999999101661MD1210091+9999REMSYN060AAXX  03154 47112 32962 03604 11024 21075 30166 40253 52009;EQDQ01  00002PRCP06
0183471120999992000010318004+37480+126630FM-12+007099999V0203601N002112200019N0120001N1-00341-00771102551ADDAA106000091GA1001+999999999GF100991001001999999001001MA1999999101681MD1210021+9999REMSYN070AAXX  03184 47112 32962 03604 11034 21077 30168 40255 52002 333 92011;EQDQ01  00002PRCP06
0173471120999992000010321004+37480+126630FM-12+007099999V0203601N001012200019N0120001N1-00371-00741102521ADDAA106000091GA1001+999999999GF100991001001999999001001MA1999999101641MD1710031+9999REMSYN060AAXX  03214 47112 32962 03602 11037 21074 30164 40252 57003;EQDQ01  00002PRCP06
0226471120999992000010400004+37480+126630FM-12+007099999V0203201N002112200019N0120001N1-00351-00671102641ADDAA106000091GA1001+999999999GF100991001001999999001001IA1019IA2999-00309KA1120N-00411MA1999999101761MD1710111+9999REMSYN082AAXX  04004 47112 32962 03204 11035 21067 30176 40264 57011 333 21041 30103 92022;EQDQ01  00002PRCP06
0173471120999992000010403004+37480+126630FM-12+007099999V0201401N001012200019N0100001N1+00231-00681102621ADDAA106000091GA1001+999999999GF100991001001999999001001MA1999999101761MD1310021+9999REMSYN060AAXX  04034 47112 32960 01402 10023 21068 30176 40262 53002;EQDQ01  00002PRCP06
0163471120999992000010409004+37480+126630FM-12+007099999V0203201N001510075019N0070001N1+00221-00501102461ADDAA106000091GF108991071051008001011999MA1999999101601MD1010001+9999REMSYN066AAXX  04094 47112 31557 83203 10022 21050 30160 40246 50000 8751/;EQDQ01  00002PRCP06
0250471120999992000010412004+37480+126630FM-12+007099999V0203401N001510075019N0070001N1+00201-00461102431ADDAA106000091AY121061AY221061GF106991061051008001001001IA1099IA2999+00109KA1120M+00421MA1999999101571MD1710031+9999MW1101REMSYN100AAXX  04124 47112 31557 63403 10020 21046 30157 40243 57003 71022 86500 333 10042 31001 55043 92011;EQDQ01  00002PRCP06
0191471120999992000010415004+37480+126630FM-12+007099999V0200201N002610075019N0120001N1+00141-00521102351ADDAA106000091AY121031AY221031GF108991051051008001011999MA1999999101491MD1710081+9999MW1101REMSYN072AAXX  04154 47112 31562 80205 10014 21052 30149 40235 57008 71022 8551/;EQDQ01  00002PRCP06
0201471120999992000010418004+37480+126630FM-12+007099999V0200201N003110075019N0080001N1+00161-00511102321ADDAA106000091AY121061AY221061GF108991061051008001011999MA1999999101461MD1810031+9999MW1101REMSYN082AAXX  04184 47112 31558 80206 10016 21051 30146 40232 58003 71022 8651/ 333 92022;EQDQ01  00002PRCP06
0161471120999992000010421004+37480+126630FM-12+007099999V0200901N003610075019N0040001N1+00231-00141102211ADDAY171031AY271031GF108991061071008001021999MA1999999101361MD1810101+9999MW1711REMSYN072AAXX  04214 47112 41540 80907 10023 21014 30136 40221 58010 77177 8672/;
0260471120999992000010500004+37480+126630FM-12+007099999V0200901N003610075019N0020001N1+00151+00121102131ADDAA112005191AJ100149199999999AY171061AY261061GF108991061071008001021999IA1099IA2999+00109KA1120N+00101MA1999999101271MD1710091+9999MW1611REMSYN112AAXX  05004 47112 11520 80907 10015 20012 30127 40213 57009 60052 76176 8672/ 333 20010 31001 41014 70051 92022;
0161471120999992000010503004+37480+126630FM-12+007099999V0200701N003110075019N0020001N1+00261+00211101991ADDAY161031AY261031GF108991061071008001021999MA1999999101141MD1710131+9999MW1611REMSYN072AAXX  05034 47112 41520 80706 10026 20021 30114 40199 57013 76166 8672/;
0161471120999992000010506004+37480+126630FM-12+007099999V0201101N005710075019N0080001N1+00441+00401101521ADDAY161061AY221061GF107991051051008001011001MA1999999100681MD1710361+9999MW1211REMSYN072AAXX  05064 47112 41558 71111 10044 20040 30068 40152 57036 72162 85510;
0161471120999992000010509004+37480+126630FM-12+007099999V0200901N003610075019N0030001N1+00531+00431101631ADDAY161031AY261031GF108991061071008001021999MA1999999100791MD1710111+9999MW1601REMSYN072AAXX  05094 47112 41530 80907 10053 20043 30079 40163 57011 76066 8672/;
0243471120999992000010512004+37480+126630FM-12+007099999V0200701N004610075019N0035001N1+00561+00441101551ADDAA112009991AY161061AY261061GF108991061071008001021999IA1099IA2999+00409KA1120M+00611MA1999999100711MD1710071+9999MW1601REMSYN112AAXX  05124 47112 11535 80709 10056 20044 30071 40155 57007 60102 76066 8672/ 333 10061 31004 55000 70153 92022;
0161471120999992000010515004+37480+126630FM-12+007099999V0200901N003610075019N0030001N1+00561+00531101301ADDAY161031AY261031GF108991061051008001021999MA1999999100461MD1710201+9999MW1611REMSYN072AAXX  05154 47112 41530 80907 10056 20053 30046 40130 57020 76166 8652/;
0161471120999992000010521004+37480+126630FM-12+007099999V0202901N002610360019N0035001N1+00381+00371101191ADDAY161031AY261031GF108991041051008001011999MA1999999100351MD1810061+9999MW1211REMSYN072AAXX  05214 47112 41535 82905 10038 20037 30035 40119 58006 72166 8451/;
0144471120999992000010603004+37480+126630FM-12+007099999V0203201N007710075019N0140001N1+00531+00241101621ADDAA106000021GF108991061051008001011999MA1999999100781MD1210121+9999REMSYN066AAXX  06034 47112 31564 83215 10053 20024 30078 40162 52012 8651/;
0163471120999992000010606004+37480+126630FM-12+007099999V0202901N009810360019N0100001N1+00351+00001101581ADDAA106000091GF108991041051008001011999MA1999999100731MD1710051+9999REMSYN066AAXX  06064 47112 32560 82919 10035 20000 30073 40158 57005 8451/;EQDQ01  00002PRCP06
0163471120999992000010609004+37480+126630FM-12+007099999V0203201N009812200019N0100001N1+00021-00621101891ADDAA106000091GF104991031051008001001011MA1999999101031MD1210301+9999REMSYN066AAXX  06094 47112 32560 43219 10002 21062 30103 40189 52030 83501;EQDQ01  00002PRCP06
0228471120999992000010612004+37480+126630FM-12+007099999V0203201N009310075019N0100001N1-00121-00901102061ADDAA106000091GF106991051051008001031001IA1099IA2999-00209KA1120M+00591MA1999999101201MD1210161+9999REMSYN100AAXX  06124 47112 32560 63218 11012 21090 30120 40206 52016 85530 333 10059 31102 55004 70138 92022;EQDQ01  00002PRCP06
0161471120999992000010615004+37480+126630FM-12+007099999V0203401N008210075019N0050001N1-00371-00811102061ADDAY171031AY221031GF108991061071008001021999MA1999999101191MD1010011+9999MW1711REMSYN072AAXX  06154 47112 41550 83416 11037 21081 30119 40206 50001 77172 8672/;
0143471120999992000010621004+37480+126630FM-12+007099999V0203601N003112200019N0120001N1-01051-01761102491ADDGA1001+999999999GF100991001001999999001001MA1999999101591MD1210151+9999REMSYN060AAXX  06214 47112 42962 03606 11105 21176 30159 40249 52015;
0209471120999992000010700004+37480+126630FM-12+007099999V0200501N003112200019N0200001N1-01091-01961102691ADDAA112000791GF102991021051008001001001IA1099IA2999-01009KA1120N-01121MA1999999101781MD1210191+9999REMSYN100AAXX  07004 47112 32570 20506 11109 21196 30178 40269 52019 69902 82500 333 21112 31110 79999 92022;
0173471120999992000010703004+37480+126630FM-12+007099999V0203401N002612200019N0200001N1-00791-01791102721ADDAA106000091GA1001+999999999GF100991001001999999001001MA1999999101821MD1710031+9999REMSYN060AAXX  07034 47112 32970 03405 11079 21179 30182 40272 57003;EQDQ01  00002PRCP06
0173471120999992000010706004+37480+126630FM-12+007099999V0203401N002610360019N0250001N1-00791-01791102721ADDAA106000091GF106991031051008001061001MA1999999101821MD1210031+9999REMSYN076AAXX  07064 47112 32575 63405 11079 21179 30182 40272 52003 83560 333 92033;EQDQ01  00002PRCP06
0163471120999992000010709004+37480+126630FM-12+007099999V0202501N001512200019N0150001N1-00681-01141102431ADDAA106000091GF101991011001999999041001MA1999999101541MD1810011+9999REMSYN066AAXX  07094 47112 32965 12503 11068 21114 30154 40243 58001 81040;EQDQ01  00002PRCP06
0209471120999992000010712004+37480+126630FM-12+007099999V0201601N003112200019N0180001N1-00601-01041102341ADDAA100000091GF102991021001999999041001IA1149IA2999-00709MA1999999101451MD1710091+9999REMSYN094AAXX  07124 47112 32968 21606 11060 21104 30145 40234 57009 6//// 82040 333 34107 55060 92022;EQDQ01  00002PRCP00
0180471120999992000010715004+37480+126630FM-12+007099999V0201601N003110075019N0060001N1-00581-00881102341ADDAY171031AY271031GF108991061071008001021999MA1999999101461MD1410001+9999MW1711REMSYN072AAXX  07154 47112 41556 81606 11058 21088 30146 40234 57000 77177 8672/;EQDQ01+000072APCTEN
0171471120999992000010718004+37480+126630FM-12+007099999V0201401N002610075019N0080001N1-00581-00751102311ADDAY171061AY271061GF106991051051008001011001MA1999999101431MD1710021+9999MW1711REMSYN082AAXX  07184 47112 41558 61405 11058 21075 30143 40231 57002 77177 85510 333 92022;
0161471120999992000010721004+37480+126630FM-12+007099999V0201401N002610075019N0050001N1-00471-00581102291ADDAY171031AY271031GF108991061071008001021999MA1999999101421MD1010021+9999MW1711REMSYN072AAXX  07214 47112 41550 81405 11047 21058 30142 40229 50002 77177 8672/;
0260471120999992000010800004+37480+126630FM-12+007099999V0201101N002610075019N0030001N1-00361-00471102361ADDAA112004191AJ100519199999999AY171061AY221061GF108991061071008001021999IA1099IA2999+00009KA1120N-00611MA1999999101491MD1210071+9999MW1711REMSYN112AAXX  08004 47112 11530 81105 11036 21047 30149 40236 52007 60042 77172 8672/ 333 21061 31000 41051 70046 92022;
0133471120999992000010803004+37480+126630FM-12+007099999V0203201N002610075019N0130001N1-00151-00481102421ADDGF105991051051008001001001MA1999999101551MD1310071+9999REMSYN066AAXX  08034 47112 42563 53205 11015 21048 30155 40242 53007 85500;
0153471120999992000010806004+37480+126630FM-12+007099999V0203201N002612200019N0250001N1-00011-00521102341ADDGA1001+999999999GF100991001001999999001001MA1999999101471MD1210081+9999REMSYN070AAXX  08064 47112 42975 03205 11001 21052 30147 40234 52008 333 92022;
0153471120999992000010809004+37480+126630FM-12+007099999V0203201N002612200019N0250001N1-00011-00521102341ADDAA106000091GA1001+999999999GF100991001001999999001001MA1999999101471REMSYN054AAXX  08094 47112 32975 03205 11001 21052 30147 40234;EQDQ01  00002PRCP06
0244471120999992000010812004+37480+126630FM-12+007099999V0203201N002612200019N0250001N1-00011-00521102341ADDAA106000091GA1001+999999999GF100991001001999999001001IA1149IA2999+00609KA1120M+00051MA1999999101471MD1410001+9999REMSYN100AAXX  08124 47112 32975 03205 11001 21052 30147 40234 54000 333 10005 34006 44/// 55055 70001 92022;EQDQ01  00002PRCP06
0189471120999992000010815004+37480+126630FM-12+007099999V0200901N003112200019N0200001N1-00301-00711102531ADDAA106000091GA1001+999999999GF100991001001999999001001MA1999999101651MD1710191+9999REMSYN060AAXX  08154 47112 32970 00906 11030 21071 30165 40253 57000;EQDQ01+000002APC3  Q02  00002PRCP06
0183471120999992000010818004+37480+126630FM-12+007099999V0209999C000012200019N0200001N1-00311-00771102501ADDAA106000091GA1001+999999999GF100991001001999999001001MA1999999101631MD1010031+9999REMSYN070AAXX  08184 47112 32970 00000 11031 21077 30163 40250 50003 333 92022;EQDQ01  00002PRCP06
0173471120999992000010821004+37480+126630FM-12+007099999V0200501N002112200019N0200001N1-00401-00621102491ADDAA106000091GA1001+999999999GF100991001001999999001001MA1999999101611MD1710021+9999REMSYN060AAXX  08214 47112 32970 00504 11040 21062 30161 40249 57002;EQDQ01  00002PRCP06
0216471120999992000010900004+37480+126630FM-12+007099999V0200901N002619999999N0100001N1-00321-00691102411ADDAA106000091GF106991001001999999001021IA1149IA2999-00409KA1120N-00421MA1999999101541MD1710181+9999REMSYN088AAXX  09004 47112 32960 60905 11032 21069 30154 40241 57018 80002 333 21042 34104 92022;EQDQ01  00002PRCP06
0163471120999992000010903004+37480+126630FM-12+007099999V0200901N003119999999N0120001N1+00061-00671102361ADDAA106000091GF106991001001999999001021MA1999999101501MD1310041+9999REMSYN066AAXX  09034 47112 32962 60906 10006 21067 30150 40236 53004 80002;EQDQ01  00002PRCP06
0163471120999992000010909004+37480+126630FM-12+007099999V0203201N002110360019N0130001N1+00081-00551102081ADDAA106000091GF108991031051008001011999MA1999999101221MD1710061+9999REMSYN066AAXX  09094 47112 32563 83204 10008 21055 30122 40208 57006 8351/;EQDQ01  00002PRCP06
0222471120999992000010912004+37480+126630FM-12+007099999V0201401N000510360019N0120001N1+00091-00471102101ADDAA106000091GF108991041051008001021999IA1099IA2999+00009KA1120M+00251MA1999999101251MD1310021+9999REMSYN094AAXX  09124 47112 32562 81401 10009 21047 30125 40210 53002 8452/ 333 10025 31100 55020 92011;EQDQ01  00002PRCP06
0161471120999992000010915004+37480+126630FM-12+007099999V0203201N001510075019N0100001N1+00081-00311102131ADDAY171031AY221031GF108991061051008001011999MA1999999101271MD1210031+9999MW1221REMSYN072AAXX  09154 47112 41560 83203 10008 21031 30127 40213 52003 72272 8651/;
0143471120999992000010918004+37480+126630FM-12+007099999V0201801N003110075019N0100001N1+00111-00201102131ADDGF107991061051008001011001MA1999999101271MD1010001+9999REMSYN076AAXX  09184 47112 42560 71806 10011 21020 30127 40213 50000 86510 333 92011;
0161471120999992000010921004+37480+126630FM-12+007099999V0203601N003110075019N0080001N1+00011-00181102291ADDAY171031AY221031GF106991061051008001011001MA1999999101431MD1210151+9999MW1221REMSYN072AAXX  09214 47112 41558 63606 10001 21018 30143 40229 52015 72272 86510;
0219471120999992000011000004+37480+126630FM-12+007099999V0203401N005112200019N0100001N1-00081-00381102531ADDAA112000191GA1001+999999999GF100991001001999999001001IA1149IA2999-00209KA1120N-00081MA1999999101661MD1210241+9999REMSYN094AAXX  10004 47112 12960 03410 11008 21038 30166 40253 52024 69912 333 21008 34102 70001 92022;
0154471120999992000011003004+37480+126630FM-12+007099999V0203201N006712200019N0200001N1+00071-00801102691ADDAA106000021GA1001+999999999GF100991001001999999001001MA1999999101831MD1310151+9999REMSYN060AAXX  10034 47112 32970 03213 10007 21080 30183 40269 53015;
0183471120999992000011006004+37480+126630FM-12+007099999V0203201N003612200019N0250001N1+00181-00931102611ADDAA106000091GA1001+999999999GF100991001001999999001001MA1999999101751MD1710081+9999REMSYN070AAXX  10064 47112 32975 03207 10018 21093 30175 40261 57008 333 92011;EQDQ01  00002PRCP06
0173471120999992000011009004+37480+126630FM-12+007099999V0203401N005112200019N0220001N1-00061-00881102741ADDAA106000091GA1001+999999999GF100991001001999999001001MA1999999101871MD1210121+9999REMSYN060AAXX  10094 47112 32972 03410 11006 21088 30187 40274 52012;EQDQ01  00002PRCP06
0232471120999992000011012004+37480+126630FM-12+007099999V0203401N004112200019N0150001N1-00291-00841102911ADDAA106000091GA1001+999999999GF100991001001999999001001IA1099IA2999-00509KA1120M+00191MA1999999102031MD1210161+9999REMSYN088AAXX  10124 47112 32965 03408 11029 21084 30203 40291 52016 333 10019 31105 70001 92033;EQDQ01  00002PRCP06
0173471120999992000011015004+37480+126630FM-12+007099999V0203401N003112200019N0130001N1-00481-00961102911ADDAA106000091GA1001+999999999GF100991001001999999001001MA1999999102021MD1510011+9999REMSYN060AAXX  10154 47112 32963 03406 11048 21096 30202 40291 55001;EQDQ01  00002PRCP06
0183471120999992000011018004+37480+126630FM-12+007099999V0200201N002612200019N0110001N1-00511-00971102891ADDAA106000091GA1001+999999999GF100991001001999999001001MA1999999102001MD1810021+9999REMSYN070AAXX  10184 47112 32961 00205 11051 21097 30200 40289 58002 333 92011;EQDQ01  00002PRCP06
0173471120999992000011021004+37480+126630FM-12+007099999V0200201N002612200019N0100001N1-00601-00911102841ADDAA106000091GA1001+999999999GF100991001001999999001001MA1999999101951MD1510051+9999REMSYN060AAXX  10214 47112 32960 00205 11060 21091 30195 40284 55005;EQDQ01  00002PRCP06
0216471120999992000011100004+37480+126630FM-12+007099999V0200201N002112200019N0100001N1-00521-00851102901ADDAA106000091GF103991001001999999001011IA1099IA2999-00509KA1120N-00641MA1999999102021MD1310071+9999REMSYN088AAXX  11004 47112 32960 30204 11052 21085 30202 40290 53007 80001 333 21064 31105 92011;EQDQ01  00002PRCP06
0183471120999992000011103004+37480+126630FM-12+007099999V0200901N003619999999N0080001N1+00231-00801102761ADDAA106000091AY121031GF105991001001999999001011MA1999999101901MD1710111+9999MW1101REMSYN072AAXX  11034 47112 32958 50907 10023 21080 30190 40276 57011 7102/ 80001;EQDQ01  00002PRCP06
0173471120999992000011106004+37480+126630FM-12+007099999V0200901N003110360019N0100001N1+00491-00671102561ADDAA106000091GF108991021051008001011999MA1999999101711MD1810191+9999REMSYN076AAXX  11064 47112 32560 80906 10049 21067 30171 40256 58019 8251/ 333 92011;EQDQ01  00002PRCP06
0163471120999992000011109004+37480+126630FM-12+007099999V0200701N003110360019N0120001N1+00401-00491102531ADDAA106000091GF108991041051008001011999MA1999999101681MD1810031+9999REMSYN066AAXX  11094 47112 32562 80706 10040 21049 30168 40253 58003 8451/;EQDQ01  00002PRCP06
0222471120999992000011112004+37480+126630FM-12+007099999V0200901N004110075019N0120001N1+00461-00511102461ADDAA106000091GF108991061051008001021999IA1099IA2999+00309KA1120M+00491MA1999999101611MD1710071+9999REMSYN094AAXX  11124 47112 32562 80908 10046 21051 30161 40246 57007 8652/ 333 10049 31003 55054 92022;EQDQ01  00002PRCP06
0163471120999992000011115004+37480+126630FM-12+007099999V0200701N002610075019N0120001N1+00341-00361102501ADDAA106000091GF108991061051008001021999MA1999999101651MD1310041+9999REMSYN066AAXX  11154 47112 32562 80705 10034 21036 30165 40250 53004 8652/;EQDQ01  00002PRCP06
0173471120999992000011118004+37480+126630FM-12+007099999V0200901N004119999999N0120001N1+00371-00291102321ADDAA106000091GF106991061051999999001001MA1999999101471MD1710181+9999REMSYN076AAXX  11184 47112 32962 60908 10037 21029 30147 40232 57018 86500 333 92022;EQDQ01  00002PRCP06
0163471120999992000011121004+37480+126630FM-12+007099999V0200701N003110075019N0120001N1+00401-00201102141ADDAA106000091GF108991051051008001021999MA1999999101291MD1710181+9999REMSYN066AAXX  11214 47112 32562 80706 10040 21020 30129 40214 57018 8552/;EQDQ01  00002PRCP06
0216471120999992000011200004+37480+126630FM-12+007099999V0203201N002110075019N0120001N1+00261-00151102181ADDAA106000091GF108991061051008001011999IA1099IA2999+00209KA1120N+00221MA1999999101331MD1210031+9999REMSYN088AAXX  12004 47112 31562 83204 10026 21015 30133 40218 52003 8651/ 333 20022 31002 92011;EQDQ01  00002PRCP06
0161471120999992000011203004+37480+126630FM-12+007099999V0200501N002610075019N0100001N1+00411+00031102171ADDAY161031AY261031GF108991061071008001021999MA1999999101321MD1710051+9999MW1601REMSYN072AAXX  12034 47112 41560 80505 10041 20003 30132 40217 57005 76066 8672/;
0171471120999992000011206004+37480+126630FM-12+007099999V0200901N004110075019N0100001N1+00451+00291101801ADDAY161061AY261061GF108991061071008001021999MA1999999100951MD1710051+9999MW1611REMSYN082AAXX  12064 47112 41560 80908 10045 20029 30095 40180 57005 76166 8672/ 333 92033;
0161471120999992000011209004+37480+126630FM-12+007099999V0200901N003610075019N0080001N1+00421+00331101721ADDAY161031AY261031GF108991061071008001021999MA1999999100881MD1710081+9999MW1611REMSYN072AAXX  12094 47112 41558 80907 10042 20033 30088 40172 57008 76166 8672/;
0243471120999992000011212004+37480+126630FM-12+007099999V0202701N001510075019N0050001N1+00361+00331101681ADDAA112004191AY161061AY261061GF108991061071008001021999IA1099IA2999+00309KA1120M+00501MA1999999100831MD1710051+9999MW1611REMSYN112AAXX  12124 47112 11550 82703 10036 20033 30083 40168 57005 60042 76166 8672/ 333 10050 31003 55000 70046 92011;
0161471120999992000011215004+37480+126630FM-12+007099999V0202901N003110075019N0070001N1+00231+00221101551ADDAY161031AY261031GF108991061071008001021999MA1999999100701MD1710131+9999MW1611REMSYN072AAXX  12154 47112 41557 82906 10023 20022 30070 40155 57013 76166 8672/;
0171471120999992000011218004+37480+126630FM-12+007099999V0203201N001510075019N0080001N1+00231+00231101531ADDAY161061AY221061GF108991061051008001021999MA1999999100681MD1510031+9999MW1211REMSYN082AAXX  12184 47112 41558 83203 10023 20023 30068 40153 55003 72162 8652/ 333 92011;
0161471120999992000011221004+37480+126630FM-12+007099999V0203201N000510075019N0080001N1+00241+00231101491ADDAY121031AY221031GF108991061051008001011999MA1999999100651MD1810031+9999MW1101REMSYN072AAXX  12214 47112 41558 83201 10024 20023 30065 40149 58003 71022 8651/;
0237471120999992000011300004+37480+126630FM-12+007099999V0203201N004610075019N0035001N1+00221+00191101551ADDAA112000591AY121061AY221061GF108991061051008001021999IA1099IA2999+00209KA1120N+00221MA1999999100701MD1710061+9999MW1101REMSYN106AAXX  13004 47112 11535 83209 10022 20019 30070 40155 57006 69942 71022 8652/ 333 20022 31002 70022 92022;
0180471120999992000011303004+37480+126630FM-12+007099999V0202901N006710075019N0035001N1+00211+00071101601ADDAY161031AY261031GF108991999061008001051021MA1999999100751MD1310031+9999MW1601REMSYN072AAXX  13034 47112 41535 82913 10021 20007 30075 40160 53003 76066 88652;EQDQ01+000082SCOTLC
0171471120999992000011306004+37480+126630FM-12+007099999V0202901N006210075019N0050001N1+00161-00151101581ADDAY121061AY221061GF108991051051008001021999MA1999999100731MD1810021+9999MW1101REMSYN082AAXX  13064 47112 41550 82912 10016 21015 30073 40158 58002 71022 8552/ 333 92033;
0161471120999992000011309004+37480+126630FM-12+007099999V0202901N006210075019N0090001N1+00031-00421101751ADDAY121031AY221031GF108991051051008001021999MA1999999100891MD1210171+9999MW1101REMSYN072AAXX  13094 47112 41559 82912 10003 21042 30089 40175 52017 71022 8552/;
0237471120999992000011312004+37480+126630FM-12+007099999V0203401N004610075019N0080001N1-00061-00391101921ADDAA112000791AY121061AY221061GF108991051051008001021999IA1099IA2999-00109KA1120M+00271MA1999999101061MD1210171+9999MW1101REMSYN106AAXX  13124 47112 41558 83409 11006 21039 30106 40192 52017 69902 71022 8552/ 333 10027 31101 70004 92033;
0191471120999992000011315004+37480+126630FM-12+007099999V0203401N002110360019N0090001N1-00111-00451101981ADDAA106000091AY121031AY221031GF108991021051008001011999MA1999999101111MD1210051+9999MW1101REMSYN072AAXX  13154 47112 32559 83404 11011 21045 30111 40198 52005 71022 8251/;EQDQ01  00002PRCP06
0201471120999992000011318004+37480+126630FM-12+007099999V0203401N000510360019N0090001N1-00151-00431102081ADDAA106000091AY121061AY221061GF108991021051008001011999MA1999999101211MD1210101+9999MW1101REMSYN082AAXX  13184 47112 31559 83401 11015 21043 30121 40208 52010 71022 8251/ 333 92000;EQDQ01  00002PRCP06
0195471120999992000011321004+37480+126630FM-12+007099999V0200201N001010360019N0090001N1-00151-00491102141ADDAA199000091AY121031AY221031GF108991031051008001011999MA1999999101271MD1010061+9999MW1101REMSYN076    AAXX  13214 47112 31559 80202 11015 21049 30127 40214 50006 71022 8351/;EQDQ01  00002PRCP99
0248471120999992000011400004+37480+126630FM-12+007099999V0201601N001010360019N0090001N1-00081-00471102241ADDAA199000091AY121061AY221061GF108991021051008001021999IA1099IA2999+00009KA1120N-00161MA1999999101381MD1210101+9999MW1101REMSYN098    AAXX  14004 47112 31559 81602 11008 21047 30138 40224 52010 71022 8252/ 333 21016 31100 92011;EQDQ01  00002PRCP99
0165471120999992000011403004+37480+126630FM-12+007099999V0202701N002610075019N0050001N1-00021-00331102291ADDAY171031AY221031GF108991061051008001021999MA1999999101431MD1310051+9999MW1221REMSYN076    AAXX  14034 47112 41550 82705 11002 21033 30143 40229 53005 72272 8652/;
0175471120999992000011406004+37480+126630FM-12+007099999V0203201N004110075019N0090001N1+00041-00371102241ADDAY121061AY221061GF108991051051008001021999MA1999999101371MD1010061+9999MW1101REMSYN086    AAXX  14064 47112 41559 83208 10004 21037 30137 40224 50006 71022 8552/ 333 92011;
0176471120999992000011409004+37480+126630FM-12+007099999V0203201N004110360019N0050001N1-00021-00461102411ADDAA199000021AY121031AY221031GF108991041051008001011999MA1999999101541MD1210231+9999MW1101REMSYN076    AAXX  14094 47112 31550 83208 11002 21046 30154 40241 52023 71022 8451/;
0247471120999992000011412004+37480+126630FM-12+007099999V0200201N001510075019N0050001N1-00061-00581102531ADDAA124000791AY121061AY221061GF107991051051008001011001IA1019IA2999-00209KA1120M+00101MA1999999101661MD1310111+9999MW1101REMSYN116    AAXX  14124 47112 31550 70203 11006 21058 30166 40253 53011 71022 85510 333 10010 30102 44/// 55000 79999 92022;
0176471120999992000011415004+37480+126630FM-12+007099999V0203201N004112200019N0050001N1-00021-00461102411ADDAA199000021AY111031AY211031GF102991021051008001001001MA1999999101541MD1210021+9999MW1101REMSYN076    AAXX  14154 47112 31550 23208 11002 21046 30154 40241 52002 71011 82500;
0187471120999992000011418004+37480+126630FM-12+007099999V0200201N001512200019N0100001N1-00171-00651102571ADDAA199000091GA1001+999999999GF100991001001999999001001MA1999999101701MD1210021+9999REMSYN074    AAXX  14184 47112 32960 00203 11017 21065 30170 40257 52002 333 92033;EQDQ01  00002PRCP99
0205471120999992000011421004+37480+126630FM-12+007099999V0203601N002112200019N0050001N1-00361-00671102651ADDAA199000091AY101031AY201031GA1001+999999999GF100991001001999999001001MA1999999101781MD1010051+9999MW1101REMSYN070    AAXX  14214 47112 31950 03604 11036 21067 30178 40265 50005 71000;EQDQ01  00002PRCP99
0241471120999992000011500004+37480+126630FM-12+007099999V0203401N002119999999N0090001N1-00251-00601102761ADDAA124000021AY121061AY221061GF107991001001999999001011IA1149IA2999+00009KA1120N-00371MA1999999101881MD1210111+9999MW1101REMSYN110    AAXX  15004 47112 32959 73404 11025 21060 30188 40276 52011 71022 80001 333 21037 34100 44/// 70000 92011;
0167471120999992000011503004+37480+126630FM-12+007099999V0203601N002619999999N0100001N1+00021-00621102701ADDAA199000091GF106991051001999999041011MA1999999101831MD1310051+9999REMSYN070    AAXX  15034 47112 32960 63605 10002 21062 30183 40270 53005 85041;EQDQ01  00002PRCP99
0205471120999992000011506004+37480+126630FM-12+007099999V0203401N004119999999N0090001N1+00191-00431102441ADDAA199000091AY121061AY221061GF105991001001999999001011MA1999999101581MD1710251+9999MW1101REMSYN086    AAXX  15064 47112 31959 53408 10019 21043 30158 40244 57025 71022 80001 333 92011;EQDQ01  00002PRCP99
0167471120999992000011509004+37480+126630FM-12+007099999V0203401N002619999999N0100001N1+00051-00551102501ADDAA199000091GF105991001001999999001011MA1999999101631MD1010051+9999REMSYN070    AAXX  15094 47112 32960 53405 10005 21055 30163 40250 50005 80001;EQDQ01  00002PRCP99
0226471120999992000011512004+37480+126630FM-12+007099999V0203401N003112200019N0100001N1-00101-00451102561ADDAA199000091GF102991001001999999001011IA1099IA2999-00309KA1120M+00251MA1999999101691MD1310051+9999REMSYN098    AAXX  15124 47112 32960 23406 11010 21045 30169 40256 53005 80001 333 10025 31103 55062 92011;EQDQ01  00002PRCP99
0195471120999992000011515004+37480+126630FM-12+007099999V0203201N003619999999N0090001N1-00131-00391102531ADDAA199000091AY121031AY221031GF106991001001999999001011MA1999999101661MD1710021+9999MW1101REMSYN076    AAXX  15154 47112 31959 63207 11013 21039 30166 40253 57002 71022 80001;EQDQ01  00002PRCP99
0205471120999992000011518004+37480+126630FM-12+007099999V0203201N003119999999N0080001N1-00161-00451102511ADDAA199000091AY121061AY221061GF105991001001999999001011MA1999999101641MD1010031+9999MW1101REMSYN086    AAXX  15184 47112 31958 53206 11016 21045 30164 40251 50003 71022 80001 333 92011;EQDQ01  00002PRCP99
0211471120999992000011521004+37480+126630FM-12+007099999V0203601N002612200019N0080001N1-00221-00461102421ADDAA199000091AY121031AY221031GF104991001001999999001011MA1999999101551MD1710091+9999MW1101REMSYN076    AAXX  15214 47112 31558 43605 11022 21046 30155 40242 57009 71022 80001;EQDQ01+008002SCOLCBQ02  00002PRCP99
0264471120999992000011600004+37480+126630FM-12+007099999V0203401N002612200019N0050001N1-00221-00401102521ADDAA199000091AY101061AY201061GA1001+999999999GF100991001001999999001001IA1019IA2999-00109KA1120N-00291MA1999999101641MD1210101+9999MW1101REMSYN098    AAXX  16004 47112 31950 03405 11022 21040 30164 40252 52010 71000 333 21029 30101 44/// 92033;EQDQ01  00002PRCP99
0177471120999992000011603004+37480+126630FM-12+007099999V0203401N003112200019N0150001N1+00151-00401102401ADDAA199000091GA1001+999999999GF100991001001999999001001MA1999999101541MD1710101+9999REMSYN064    AAXX  16034 47112 32965 03406 10015 21040 30154 40240 57010;EQDQ01  00002PRCP99
0177471120999992000011606004+37480+126630FM-12+007099999V0203401N002619999999N0250001N1-00281-00431102501ADDAA199000091GF106991001001999999001021MA1999999101631MD1710031+9999REMSYN080    AAXX  16064 47112 32975 63405 11028 21043 30163 40250 57003 80002 333 92033;EQDQ01  00002PRCP99
0167471120999992000011609004+37480+126630FM-12+007099999V0203401N003119999999N0170001N1+00151-00531102241ADDAA199000091GF106991001001999999001011MA1999999101381MD1810011+9999REMSYN070    AAXX  16094 47112 32967 63406 10015 21053 30138 40224 58001 80001;EQDQ01  00002PRCP99
0236471120999992000011612004+37480+126630FM-12+007099999V0203401N003112200019N0110001N1-00041-00531102271ADDAA199000091GA1001+999999999GF100991001001999999001001IA1149IA2999-00309KA1120M+00401MA1999999101411MD1810021+9999REMSYN092    AAXX  16124 47112 32961 03406 11004 21053 30141 40227 58002 333 10040 34103 44/// 92022;EQDQ01  00002PRCP99
0177471120999992000011615004+37480+126630FM-12+007099999V0200201N002612200019N0100001N1-00261-00741102231ADDAA199000091GA1001+999999999GF100991001001999999001001MA1999999101361MD1310041+9999REMSYN064    AAXX  16154 47112 32960 00205 11026 21074 30136 40223 53004;EQDQ01  00002PRCP99
0215471120999992000011618004+37480+126630FM-12+007099999V0203401N002112200019N0080001N1-00351-00681102211ADDAA199000091AY101061AY201061GA1001+999999999GF100991001001999999001001MA1999999101341MD1510031+9999MW1101REMSYN080    AAXX  16184 47112 31958 03404 11035 21068 30134 40221 55003 71000 333 92022;EQDQ01  00002PRCP99
0205471120999992000011621004+37480+126630FM-12+007099999V0203401N002612200019N0060001N1-00451-00691102151ADDAA199000091AY101031AY201031GA1001+999999999GF100991001001999999001001MA1999999101271MD1710061+9999MW1101REMSYN070    AAXX  16214 47112 31956 03405 11045 21069 30127 40215 57006 71000;EQDQ01  00002PRCP99
0248471120999992000011700004+37480+126630FM-12+007099999V0202901N000519999999N0050001N1-00331-00571102271ADDAA199000091AY121061AY221061GF107991021001999999041011IA1099IA2999-00209KA1120N-00471MA1999999101391MD1210121+9999MW1101REMSYN098    AAXX  17004 47112 31950 72901 11033 21057 30139 40227 52012 71022 82041 333 21047 31102 92011;EQDQ01  00002PRCP99
0167471120999992000011703004+37480+126630FM-12+007099999V0203201N002619999999N0100001N1+00071-00481102201ADDAA199000091GF105991001001999999001011MA1999999101341MD1510051+9999REMSYN070    AAXX  17034 47112 32960 53205 10007 21048 30134 40220 55005 80001;EQDQ01  00002PRCP99
0187471120999992000011706004+37480+126630FM-12+007099999V0203201N003612200019N0100001N1+00241-00511102031ADDAA199000091GA1001+999999999GF100991001001999999001001MA1999999101171MD1810161+9999REMSYN074    AAXX  17064 47112 32960 03207 10024 21051 30117 40203 58016 333 92011;EQDQ01  00002PRCP99
0177471120999992000011709004+37480+126630FM-12+007099999V0203201N004612200019N0100001N1+00081-00481102151ADDAA199000091GA1001+999999999GF100991001001999999001001MA1999999101291MD1210121+9999REMSYN064    AAXX  17094 47112 32960 03209 10008 21048 30129 40215 52012;EQDQ01  00002PRCP99
0242471120999992000011712004+37480+126630FM-12+007099999V0203401N003612200019N0120001N1-00081-00551102181ADDAA199000091GA1001+999999999GF100991001001999999001001IA1019IA2999-00309KA1120M+00301MA1999999101321MD1310021+9999REMSYN098    AAXX  17124 47112 32962 03407 11008 21055 30132 40218 53002 333 10030 30103 44/// 55074 92033;EQDQ01  00002PRCP99
0177471120999992000011715004+37480+126630FM-12+007099999V0203401N002612200019N0120001N1-00281-00651102231ADDAA199000091GA1001+999999999GF100991001001999999001001MA1999999101361MD1710081+9999REMSYN064    AAXX  17154 47112 32962 03405 11028 21065 30136 40223 57008;EQDQ01  00002PRCP99
0177471120999992000011721004+37480+126630FM-12+007099999V0203201N002612200019N0100001N1-00441-00791102191ADDAA199000091GA1001+999999999GF100991001001999999001001MA1999999101321MD1810061+9999REMSYN064    AAXX  17214 47112 32960 03205 11044 21079 30132 40219 58006;EQDQ01  00002PRCP99
0264471120999992000011800004+37480+126630FM-12+007099999V0203201N002612200019N0090001N1-00371-00751102281ADDAA199000091AY101061AY201061GA1001+999999999GF100991001001999999001001IA1289IA2999-00209KA1120N-00521MA1999999101401MD1310081+9999MW1101REMSYN098    AAXX  18004 47112 31959 03205 11037 21075 30140 40228 53008 71000 333 21052 3/102 44/// 92022;EQDQ01  00002PRCP99
0177471120999992000011803004+37480+126630FM-12+007099999V0203401N003112200019N0150001N1-00011-00781102271ADDAA199000091GA1001+999999999GF100991001001999999001001MA1999999101411MD1310011+9999REMSYN064    AAXX  18034 47112 32965 03406 11001 21078 30141 40227 53001;EQDQ01  00002PRCP99
0177471120999992000011806004+37480+126630FM-12+007099999V0202901N003612200019N0150001N1+00111-00681102231ADDAA199000091GA1001+999999999GF100991001001999999001001MA1999999101411MD1710031+9999REMSYN064    AAXX  18064 47112 32965 02907 10011 21068 30141 40223 57003;EQDQ01  00002PRCP99
0177471120999992000011809004+37480+126630FM-12+007099999V0203201N003612200019N0150001N1-00011-00841102131ADDAA199000091GA1001+999999999GF100991001001999999001001MA1999999101271MD1210021+9999REMSYN064    AAXX  18094 47112 32965 03207 11001 21084 30127 40213 52002;EQDQ01  00002PRCP99
0236471120999992000011812004+37480+126630FM-12+007099999V0202701N001512200019N0150001N1-00011-00631102151ADDAA199000091GA1001+999999999GF100991001001999999001001IA1099IA2999-00309KA1120M+00211MA1999999101291MD1310021+9999REMSYN092    AAXX  18124 47112 32965 02703 11001 21063 30129 40215 53002 333 10021 31103 55077 92011;EQDQ01  00002PRCP99
0167471120999992000011815004+37480+126630FM-12+007099999V0202901N000519999999N0130001N1+00011-00571102061ADDAA199000091GF107991071001999999011001MA1999999101201MD1710091+9999REMSYN070    AAXX  18154 47112 32963 72901 10001 21057 30120 40206 57009 87010;EQDQ01  00002PRCP99
0175471120999992000011818004+37480+126630FM-12+007099999V0202501N000510075019N0008001N1-00131-00171101951ADDAY171061AY271061GF108991061071008001021999MA1999999101091MD1710111+9999MW1731REMSYN086    AAXX  18184 47112 41508 82501 11013 21017 30109 40195 57011 77377 8672/ 333 92011;
0165471120999992000011821004+37480+126630FM-12+007099999V0203401N002610075019N0070001N1-00391-00421101821ADDAY171031AY221031GF108991051051008001011999MA1999999100951MD1710131+9999MW1221REMSYN076    AAXX  18214 47112 41557 83405 11039 21042 30095 40182 57013 72272 8551/;
0236471120999992000011900004+37480+126630FM-12+007099999V0203201N004612200019N0170001N1-00371-00791102021ADDAA112003091AJ100059199999999GF106991021051008001001011IA1099IA2999-00509KA1120N-00461MA1999999101141MD1210191+9999REMSYN110    AAXX  19004 47112 12567 63209 11037 21079 30114 40202 52019 60032 82501 333 21046 31105 42005 70032 92011;
0137471120999992000011903004+37480+126630FM-12+007099999V0203201N009310075019N0100001N1-00401-00871102121ADDGF107991071051008001001001MA1999999101241MD1210101+9999REMSYN070    AAXX  19034 47112 42560 73218 11040 21087 30124 40212 52010 87500;
0137471120999992000011909004+37480+126630FM-12+007099999V0203401N008210075019N0110001N1-00581-01101102311ADDGF105991051051008001001001MA1999999101431MD1210231+9999REMSYN070    AAXX  19094 47112 41561 53416 11058 21110 30143 40231 52023 85500;
0219471120999992000011912004+37480+126630FM-12+007099999V0203401N007212200019N0120001N1-00631-01231102531ADDAA112000191GF101991011051008001001001IA1279IA2999-00809KA1120M+00021MA1999999101641MD1210211+9999REMSYN110    AAXX  19124 47112 12562 13414 11063 21123 30164 40253 52021 69922 81500 333 10002 3/108 43/// 70033 92033;
0167471120999992000011915004+37480+126630FM-12+007099999V0203401N006212200019N0130001N1-00651-01211102581ADDAA199000091GF102991021051008001001001MA1999999101691MD1310051+9999REMSYN070    AAXX  19154 47112 32563 23412 11065 21121 30169 40258 53005 82500;EQDQ01  00002PRCP99
0163471120999992000011918004+37480+126630FM-12+007099999V0203201N006212200019N0170001N1-00741-01191102751ADDAA199000091GF103991031051008001001001MA1999999101861MD1210171+9999REMSYN066AAXX  19184 47112 32567 33212 11074 21119 30186 40275 52017 83500;EQDQ01  00002PRCP99
0173471120999992000011921004+37480+126630FM-12+007099999V0203401N007712200019N0250001N1-00851-01541102921ADDAA199000091GA1001+999999999GF100991001001999999001001MA1999999102021MD1210161+9999REMSYN060AAXX  19214 47112 32975 03415 11085 21154 30202 40292 52016;EQDQ01  00002PRCP99
0226471120999992000012000004+37480+126630FM-12+007099999V0203201N005712200019N0200001N1-00901-01541103221ADDAA124000191AJ100039199999999GF101991011051008001001001IA1099IA2999-00909KA1120N-00941MA1999999102321MD1210301+9999REMSYN100AAXX  20004 47112 32570 13211 11090 21154 30232 40322 52030 81500 333 21094 31109 41003 70001 92011;
0173471120999992000012006004+37480+126630FM-12+007099999V0203201N007212200019N0200001N1-00561-01461103281ADDAA199000091GF101991011051008001001001MA1999999102391MD1810031+9999REMSYN076AAXX  20064 47112 32570 13214 11056 21146 30239 40328 58003 81500 333 92022;EQDQ01  00002PRCP99
0173471120999992000012009004+37480+126630FM-12+007099999V0203201N005112200019N0200001N1-00621-01561103431ADDAA199000091GA1001+999999999GF100991001001999999001001MA1999999102531MD1210141+9999REMSYN060AAXX  20094 47112 32970 03210 11062 21156 30253 40343 52014;EQDQ01  00002PRCP99
0232471120999992000012012004+37480+126630FM-12+007099999V0203201N004612200019N0250001N1-00751-01371103621ADDAA199000091GA1001+999999999GF100991001001999999001001IA1019IA2999-00909KA1120M-00501MA1999999102721MD1210191+9999REMSYN088AAXX  20124 47112 32975 03209 11075 21137 30272 40362 52019 333 11050 30109 55092 92033;EQDQ01  00002PRCP99
0173471120999992000012015004+37480+126630FM-12+007099999V0203201N005112200019N0250001N1-00901-01511103701ADDAA199000091GA1001+999999999GF100991001001999999001001MA1999999102791MD1310071+9999REMSYN060AAXX  20154 47112 32975 03210 11090 21151 30279 40370 53007;EQDQ01  00002PRCP99
0183471120999992000012018004+37480+126630FM-12+007099999V0203401N002112200019N0250001N1-00981-01491103811ADDAA199000091GA1001+999999999GF100991001001999999001001MA1999999102901MD1210111+9999REMSYN070AAXX  20184 47112 32975 03404 11098 21149 30290 40381 52011 333 92033;EQDQ01  00002PRCP99
0173471120999992000012021004+37480+126630FM-12+007099999V0200201N001512200019N0200001N1-00981-01461103891ADDAA199000091GA1001+999999999GF100991001001999999001001MA1999999102981MD1210081+9999REMSYN060AAXX  20214 47112 32970 00203 11098 21146 30298 40389 52008;EQDQ01  00002PRCP99
0232471120999992000012100004+37480+126630FM-12+007099999V0200201N002112200019N0200001N1-00941-01751103981ADDAA199000091GA1001+999999999GF100991001001999999001001IA1279IA2999-00909KA1120N-01061MA1999999103071MD1210091+9999REMSYN088AAXX  21004 47112 32570 00204 11094 21175 30307 40398 52009 333 21106 3/109 43/// 92022;EQDQ01  00002PRCP99
0173471120999992000012103004+37480+126630FM-12+007099999V0202901N002112200019N0170001N1-00571-01511104011ADDAA199000091GA1001+999999999GF100991001001999999001001MA1999999103111MD1310041+9999REMSYN060AAXX  21034 47112 32967 02904 11057 21151 30311 40401 53004;EQDQ01  00002PRCP99
0173471120999992000012106004+37480+126630FM-12+007099999V0202701N004112200019N0160001N1-00381-01371103891ADDAA199000091GF102991001001999999001011MA1999999103001MD1810111+9999REMSYN076AAXX  21064 47112 32966 22708 11038 21137 30300 40389 58011 80001 333 92033;EQDQ01  00002PRCP99
0163471120999992000012109004+37480+126630FM-12+007099999V0202901N003112200019N0150001N1-00431-01311103971ADDAA199000091GF102991001001999999001011MA1999999103081MD1010081+9999REMSYN066AAXX  21094 47112 32965 22906 11043 21131 30308 40397 50008 80001;EQDQ01  00002PRCP99
0232471120999992000012112004+37480+126630FM-12+007099999V0201101N001012200019N0150001N1-00441-01171103871ADDAA199000091GA1001+999999999GF100991001001999999001001IA1099IA2999-00709KA1120M-00301MA1999999102981MD1710101+9999REMSYN088AAXX  21124 47112 32965 01102 11044 21117 30298 40387 57010 333 11030 31107 55089 92011;EQDQ01  00002PRCP99
0163471120999992000012115004+37480+126630FM-12+007099999V0201401N002112200019N0150001N1-00461-01151103771ADDAA199000091GF104991001001999999001011MA1999999102871MD1710101+9999REMSYN066AAXX  21154 47112 32965 41404 11046 21115 30287 40377 57010 80001;EQDQ01  00002PRCP99
0173471120999992000012118004+37480+126630FM-12+007099999V0201401N001019999999N0120001N1-00451-01091103691ADDAA199000091GF105991001001999999001011MA1999999102801MD1810071+9999REMSYN076AAXX  21184 47112 32962 51402 11045 21109 30280 40369 58007 80001 333 92011;EQDQ01  00002PRCP99
0163471120999992000012121004+37480+126630FM-12+007099999V0201101N002619999999N0100001N1-00431-00961103511ADDAA199000091GF106991001001999999001021MA1999999102621MD1710181+9999REMSYN066AAXX  21214 47112 32960 61105 11043 21096 30262 40351 57018 80002;EQDQ01  00002PRCP99
0244471120999992000012200004+37480+126630FM-12+007099999V0200901N003119999999N0050001N1-00361-01121103431ADDAA199000091AY121061AY221061GF106991021041999999001021IA1019IA2999-00409KA1120N-00501MA1999999102541MD1710081+9999MW1101REMSYN094AAXX  22004 47112 31950 60906 11036 21112 30254 40343 57008 71022 82402 333 21050 30104 92022;EQDQ01  00002PRCP99
0191471120999992000012203004+37480+126630FM-12+007099999V0200901N001519999999N0050001N1+00071-01201103171ADDAA199000091AY121031AY221031GF107991001001999999001021MA1999999102311MD1710241+9999MW1101REMSYN072AAXX  22034 47112 31950 70903 10007 21120 30231 40317 57024 71022 80002;EQDQ01  00002PRCP99
0161471120999992000012206004+37480+126630FM-12+007099999V0201401N003110075019N0120001N1+00121-00871102791ADDAY171061AY221061GF108991051071008001021999MA1999999101931MD1710381+9999MW1701REMSYN072AAXX  22064 47112 41562 81406 10012 21087 30193 40279 57038 77072 8572/;
0161471120999992000012209004+37480+126630FM-12+007099999V0201401N003110075019N0005001N1-00101-00171102771ADDAY171031AY271031GF108991061071008001021999MA1999999101901MD1510031+9999MW1711REMSYN072AAXX  22094 47112 41505 81406 11010 21017 30190 40277 55003 77177 8672/;
0231471120999992000012212004+37480+126630FM-12+007099999V0201101N002610075019N0005001N1-00041-00081102661ADDAA112002091AY171061AY271061GF108991051071008001021999IA2999+00009KA1120M+00231MA1999999101801MD1710111+9999MW1711REMSYN106AAXX  22124 47112 41505 81105 11004 21008 30180 40266 57011 60022 77177 8572/ 333 10023 3/100 70010 92011;
0161471120999992000012215004+37480+126630FM-12+007099999V0200901N003110075019N0003001N1-00011-00041102461ADDAY171031AY271031GF108991061071008001021999MA1999999101601MD1710201+9999MW1711REMSYN072AAXX  22154 47112 41503 80906 11001 21004 30160 40246 57020 77177 8672/;
0171471120999992000012218004+37480+126630FM-12+007099999V0200201N002110075019N0003001N1-00041-00061102311ADDAY171061AY271061GF108991061071008001021999MA1999999101451MD1710151+9999MW1711REMSYN082AAXX  22184 47112 41503 80204 11004 21006 30145 40231 57015 77177 8672/ 333 92022;
0161471120999992000012221004+37480+126630FM-12+007099999V0203601N002110075019N0002001N1-00031-00051102241ADDAY171031AY241031GF108991051071008001021999MA1999999101381MD1810071+9999MW1701REMSYN072AAXX  22214 47112 41502 83604 11003 21005 30138 40224 58007 77074 8572/;
0232471120999992000012300004+37480+126630FM-12+007099999V0203401N003610360019N0120001N1+00001-00061102421ADDAA112000891AJ100089199999999GF107991041051008001011001IA1099IA2999+00009KA1120N-00051MA1999999101551MD1210171+9999REMSYN106AAXX  23004 47112 12562 73407 10000 21006 30155 40242 52017 69972 84510 333 21005 31000 41008 70026 92011;
0164471120999992000012306004+37480+126630FM-12+007099999V0203201N004112200019N0150001N1+00631-00011102351ADDAA199000021GA1001+999999999GF100991001001999999001001MA1999999101511MD1710021+9999REMSYN070AAXX  23064 47112 32965 03208 10063 21001 30151 40235 57002 333 92011;
0133471120999992000012309004+37480+126630FM-12+007099999V0202901N005112200019N0120001N1+00371-00201102461ADDGF102991001001999999001021MA1999999101601MD1210101+9999REMSYN066AAXX  23094 47112 42962 22910 10037 21020 30160 40246 52010 80002;
0209471120999992000012312004+37480+126630FM-12+007099999V0203401N004612200019N0120001N1+00121-00171102621ADDAA124000891GF102991001001999999001021IA1099IA2999+00009KA1120M+00701MA1999999101761MD1210161+9999REMSYN100AAXX  23124 47112 32962 23409 10012 21017 30176 40262 52016 80002 333 10070 31000 55065 70007 92033;
0173471120999992000012315004+37480+126630FM-12+007099999V0203401N004112200019N0120001N1-00031-00341102711ADDAA199000091GA1001+999999999GF100991001001999999001001MA1999999101841MD1210081+9999REMSYN060AAXX  23154 47112 32962 03408 11003 21034 30184 40271 52008;EQDQ01  00002PRCP99
0183471120999992000012318004+37480+126630FM-12+007099999V0203201N004112200019N0200001N1-00151-00401102871ADDAA199000091GA1001+999999999GF100991001001999999001001MA1999999102001MD1210161+9999REMSYN070AAXX  23184 47112 32970 03208 11015 21040 30200 40287 52016 333 92033;EQDQ01  00002PRCP99
0173471120999992000012321004+37480+126630FM-12+007099999V0203201N003112200019N0120001N1-00261-00561102921ADDAA199000091GA1001+999999999GF100991001001999999001001MA1999999102041MD1010041+9999REMSYN060AAXX  23214 47112 32962 03206 11026 21056 30204 40292 50004;EQDQ01  00002PRCP99
0260471120999992000012400004+37480+126630FM-12+007099999V0203201N003112200019N0080001N1-00331-00641103041ADDAA199000091AY101061AY201061GA1001+999999999GF100991001001999999001001IA1149IA2999-00309KA1120N-00391MA1999999102161MD1210121+9999MW1101REMSYN094AAXX  24004 47112 32958 03206 11033 21064 30216 40304 52012 71000 333 21039 34103 44/// 92022;EQDQ01  00002PRCP99
0201471120999992000012403004+37480+126630FM-12+007099999V0202901N005112200019N0090001N1-00081-00821103071ADDAA199000091AY101031AY201031GA1001+999999999GF100991001001999999001001MA1999999102201MD1310041+9999MW1101REMSYN066AAXX  24034 47112 31959 02910 11008 21082 30220 40307 53004 71000;EQDQ01  00002PRCP99
0201471120999992000012406004+37480+126630FM-12+007099999V0203201N003619999999N0090001N1-00011-00841102961ADDAA199000091AY121061AY221061GF106991001001999999001021MA1999999102091MD1710111+9999MW1101REMSYN082AAXX  24064 47112 31959 63207 11001 21084 30209 40296 57011 71022 80002 333 92033;EQDQ01  00002PRCP99
0163471120999992000012409004+37480+126630FM-12+007099999V0202701N004119999999N0110001N1-00231-01091103031ADDAA199000091GF106991061001999999011001MA1999999102151MD1010061+9999REMSYN066AAXX  24094 47112 32961 62708 11023 21109 30215 40303 50006 86010;EQDQ01  00002PRCP99
0222471120999992000012412004+37480+126630FM-12+007099999V0203401N006219999999N0120001N1-00471-01341103071ADDAA199000091GF106991061001999999011001IA1099IA2999-00509KA1120M+00031MA1999999102181MD1210031+9999REMSYN094AAXX  24124 47112 32962 63412 11047 21134 30218 40307 52003 86010 333 10003 31105 55063 92022;EQDQ01  00002PRCP99
0173471120999992000012415004+37480+126630FM-12+007099999V0203201N003112200019N0120001N1-00651-01371103161ADDAA199000091GA1001+999999999GF100991001001999999001001MA1999999102271MD1310091+9999REMSYN060AAXX  24154 47112 32962 03206 11065 21137 30227 40316 53009;EQDQ01  00002PRCP99
0183471120999992000012418004+37480+126630FM-12+007099999V0203201N004612200019N0120001N1-00811-01611103161ADDAA199000091GA1001+999999999GF100991001001999999001001MA1999999102261MD1010011+9999REMSYN070AAXX  24184 47112 32962 03209 11081 21161 30226 40316 50001 333 92022;EQDQ01  00002PRCP99
0173471120999992000012421004+37480+126630FM-12+007099999V0203401N004612200019N0120001N1-00961-01701103191ADDAA199000091GA1001+999999999GF100991001001999999001001MA1999999102291MD1810031+9999REMSYN060AAXX  24214 47112 32962 03409 11096 21170 30229 40319 58003;EQDQ01  00002PRCP99
0226471120999992000012500004+37480+126630FM-12+007099999V0203601N003612200019N0250001N1-00931-01841103321ADDAA199000091GA1001+999999999GF100991001001999999001001IA1019IA2999-00809KA1120N-01031MA1999999102421MD1210131+9999REMSYN082AAXX  25004 47112 32975 03607 11093 21184 30242 40332 52013 333 21103 30108 92044;EQDQ01  00002PRCP99
0173471120999992000012503004+37480+126630FM-12+007099999V0203201N003612200019N0250001N1-00461-01811103271ADDAA199000091GA1001+999999999GF100991001001999999001001MA1999999102391MD1510031+9999REMSYN060AAXX  25034 47112 32975 03207 11046 21181 30239 40327 55003;EQDQ01  00002PRCP99
0183471120999992000012506004+37480+126630FM-12+007099999V0203201N004612200019N0250001N1-00331-01811103111ADDAA199000091GA1001+999999999GF100991001001999999001001MA1999999102231MD1710161+9999REMSYN070AAXX  25064 47112 32975 03209 11033 21181 30223 40311 57016 333 92044;EQDQ01  00002PRCP99
0173471120999992000012509004+37480+126630FM-12+007099999V0203201N006212200019N0220001N1-00491-01591103141ADDAA199000091GA1001+999999999GF100991001001999999001001MA1999999102251MD1810021+9999REMSYN060AAXX  25094 47112 32972 03212 11049 21159 30225 40314 58002;EQDQ01  00002PRCP99
0232471120999992000012512004+37480+126630FM-12+007099999V0203201N005112200019N0220001N1-00711-01411103251ADDAA199000091GA1001+999999999GF100991001001999999001001IA1149IA2999-00809KA1120M-00281MA1999999102351MD1210101+9999REMSYN088AAXX  25124 47112 32972 03210 11071 21141 30235 40325 52010 333 11028 34108 44/// 92033;EQDQ01  00002PRCP99
0173471120999992000012515004+37480+126630FM-12+007099999V0203201N004612200019N0200001N1-00881-01421103281ADDAA199000091GA1001+999999999GF100991001001999999001001MA1999999102381MD1210031+9999REMSYN060AAXX  25154 47112 32970 03209 11088 21142 30238 40328 52003;EQDQ01  00002PRCP99
0183471120999992000012518004+37480+126630FM-12+007099999V0203601N002612200019N0200001N1-00951-01421103291ADDAA199000091GA1001+999999999GF100991001001999999001001MA1999999102391MD1210011+9999REMSYN070AAXX  25184 47112 32570 03605 11095 21142 30239 40329 52001 333 92022;EQDQ01  00002PRCP99
0173471120999992000012521004+37480+126630FM-12+007099999V0203401N004112200019N0200001N1-00931-01661103131ADDAA199000091GA1001+999999999GF100991001001999999001001MA1999999102231MD1210011+9999REMSYN060AAXX  25214 47112 32970 03408 11093 21166 30223 40313 52001;EQDQ01  00002PRCP99
0226471120999992000012600004+37480+126630FM-12+007099999V0203201N003112200019N0220001N1-00851-01551103171ADDAA199000091GA1001+999999999GF100991001001999999001001IA1099IA2999-00709KA1120N-00981MA1999999102271MD1010041+9999REMSYN082AAXX  26004 47112 32972 03206 11085 21155 30227 40317 50004 333 21098 31107 92022;EQDQ01  00002PRCP99
0173471120999992000012603004+37480+126630FM-12+007099999V0203201N004112200019N0200001N1-00631-01591103141ADDAA199000091GA1001+999999999GF100991001001999999001001MA1999999102251MD1510021+9999REMSYN060AAXX  26034 47112 32970 03208 11063 21159 30225 40314 55002;EQDQ01  00002PRCP99
0183471120999992000012606004+37480+126630FM-12+007099999V0202901N003612200019N0150001N1-00511-01641102961ADDAA199000091GA1001+999999999GF100991001001999999001001MA1999999102081MD1710171+9999REMSYN070AAXX  26064 47112 32965 02907 11051 21164 30208 40296 57017 333 92022;EQDQ01  00002PRCP99
0173471120999992000012609004+37480+126630FM-12+007099999V0203401N004612200019N0150001N1-00551-01511103031ADDAA199000091GA1001+999999999GF100991001001999999001001MA1999999102141MD1210061+9999REMSYN060AAXX  26094 47112 32965 03409 11055 21151 30214 40303 52006;EQDQ01  00002PRCP99
0232471120999992000012612004+37480+126630FM-12+007099999V0203401N004612200019N0200001N1-00711-01451103121ADDAA199000091GA1001+999999999GF100991001001999999001001IA1019IA2999-00809KA1120M-00421MA1999999102231MD1210091+9999REMSYN088AAXX  26124 47112 32970 03409 11071 21145 30223 40312 52009 333 11042 30108 55092 92033;EQDQ01  00002PRCP99
0173471120999992000012615004+37480+126630FM-12+007099999V0203401N003612200019N0200001N1-00791-01431103171ADDAA199000091GA1001+999999999GF100991001001999999001001MA1999999102271MD1210041+9999REMSYN060AAXX  26154 47112 32970 03407 11079 21143 30227 40317 52004;EQDQ01  00002PRCP99
0183471120999992000012618004+37480+126630FM-12+007099999V0203601N003612200019N0200001N1-01091-01451103231ADDAA199000091GA1001+999999999GF100991001001999999001001MA1999999102331MD1510061+9999REMSYN070AAXX  26184 47112 32970 03607 11109 21145 30233 40323 55006 333 92044;EQDQ01  00002PRCP99
0173471120999992000012621004+37480+126630FM-12+007099999V0203601N002112200019N0200001N1-00971-01441103271ADDAA199000091GA1001+999999999GF100991001001999999001001MA1999999102361MD1710031+9999REMSYN060AAXX  26214 47112 32970 03604 11097 21144 30236 40327 57003;EQDQ01  00002PRCP99
0232471120999992000012700004+37480+126630FM-12+007099999V0200201N002112200019N0140001N1-00901-01471103391ADDAA199000091GA1001+999999999GF100991001001999999001001IA1149IA2999-00809KA1120N-01011MA1999999102491MD1210131+9999REMSYN088AAXX  27004 47112 32964 00204 11090 21147 30249 40339 52013 333 21101 34108 44/// 92022;EQDQ01  00002PRCP99
0247471120999992000012703004+37480+126630FM-12+007099999V0203201N003112200019N0130001N1-00351-00801999999ADDAA199000091GA1001+999999999GF100991001001999999001001MA1999999999999MD1710051+9999REMSYN070AAXX  27034 47112 32963 03206 11035 21080 30050 40133 57005 333 92033;EQDQ01+100503APOSP Q02+101333APOSLPQ03  00002PRCP99Q04 100503APOSP Q05 101333APOSLP
0205471120999992000012706004+37480+126630FM-12+007099999V0203201N003112200019N0180001N1-00091-01381103212ADDAA199000091GA1001+999999999GF100991001001999999001001MA1999999102342MD1810121+9999REMSYN060AAXX  27064 47112 32968 03206 11009 21138 30234 40321 58012;EQDQ01+102343APOSP Q02+103213APOSLPQ03  00002PRCP99
0173471120999992000012709004+37480+126630FM-12+007099999V0203201N004612200019N0180001N1-00311-01411103271ADDAA199000091GA1001+999999999GF100991001001999999001001MA1999999102391MD1210061+9999REMSYN060AAXX  27094 47112 32968 03209 11031 21141 30239 40327 52006;EQDQ01  00002PRCP99
0191471120999992000012715004+37480+126630FM-12+007099999V0200201N001012200019N0150001N1-00491-01101103331ADDAA199000091GA1001+999999999GF100991001001999999001001MA1999999102441REMSYN060AAXX  27154 47112 32965 00202 11049 21110 30244 40333 53000;EQDQ01+000032APCTENQ02+000002APC3  Q03  00002PRCP99
0183471120999992000012718004+37480+126630FM-12+007099999V0209999C000012200019N0150001N1-00511-01081103381ADDAA199000091GA1001+999999999GF100991001001999999001001MA1999999102491MD1010051+9999REMSYN070AAXX  27184 47112 32965 01600 11051 21108 30249 40338 50005 333 92011;EQDQ01  00002PRCP99
0173471120999992000012721004+37480+126630FM-12+007099999V0202501N000512200019N0120001N1-00661-00961103391ADDAA199000091GA1001+999999999GF100991001001999999001001MA1999999102501MD1010011+9999REMSYN060AAXX  27214 47112 32962 02501 11066 21096 30250 40339 50001;EQDQ01  00002PRCP99
0226471120999992000012800004+37480+126630FM-12+007099999V0201401N001012200019N0200001N1-00431-00831103481ADDAA199000091GA1001+999999999GF100991001001999999001001IA1019IA2999-00309KA1120N-00731MA1999999102591MD1210091+9999REMSYN082AAXX  28004 47112 32970 01402 11043 21083 30259 40348 52009 333 21073 30103 92033;EQDQ01  00002PRCP99
0205471120999992000012803004+37480+126630FM-12+007099999V0202701N003112200019N0200001N1-00081-00761103471ADDAA199000091GA1001+999999999GF100991001001999999001001MA1999999102591MD1710011+9999REMSYN060AAXX  28034 47112 32970 02706 11008 21076 30259 40347 53000;EQDQ01+000032APCTENQ02+000002APC3  Q03  00002PRCP99
0184471120999992000012806004+37480+126630FM-12+007099999V0202001N003112200019N0110001N1-00021+99999103301ADDAA199000091GA1001+999999999GF100991001001999999001001MD1210051+9999REMSYN070AAXX  28064 47112 32961 02006 11002 24302 34340 40330 52005 333 92022;EQDQ01+043401APOSP Q02  00002PRCP99
0173471120999992000012809004+37480+126630FM-12+007099999V0202701N003112200019N0140001N1-00011-00491103351ADDAA199000091GA1001+999999999GF100991001001999999001001MA1999999102481MD1010051+9999REMSYN060AAXX  28094 47112 32964 02706 11001 21049 30248 40335 50005;EQDQ01  00002PRCP99
0226471120999992000012812004+37480+126630FM-12+007099999V0203201N001012200019N0120001N1-00191-00431103411ADDAA199000091GA1001+999999999GF100991001001999999001001IA1019IA2999-00509KA1120M+00321MA1999999102531MD1210051+9999REMSYN082AAXX  28124 47112 32962 03202 11019 21043 30253 40341 52005 333 10032 30105 92011;EQDQ01  00002PRCP99
0173471120999992000012815004+37480+126630FM-12+007099999V0209999C000012200019N0090001N1-00131-00381103351ADDAA199000091GA1001+999999999GF100991001001999999001001MA1999999102481MD1710051+9999REMSYN060AAXX  28154 47112 31959 00000 11013 21038 30248 40335 57005;EQDQ01  00002PRCP99
0201471120999992000012818004+37480+126630FM-12+007099999V0203401N001010075019N0050001N1-00161-00301103341ADDAA199000091AY121061AY221061GF106991061051008001001001MA1999999102471MD1010011+9999MW1101REMSYN082AAXX  28184 47112 31550 63402 11016 21030 30247 40334 50001 71022 86500 333 92011;EQDQ01  00002PRCP99
0191471120999992000012821004+37480+126630FM-12+007099999V0200901N001510075019N0050001N1-00131-00461103311ADDAA199000091AY121031AY221031GF106991061051008001001001MA1999999102431MD1010031+9999MW1101REMSYN072AAXX  28214 47112 31550 60903 11013 21046 30243 40331 50003 71022 86500;EQDQ01  00002PRCP99
0244471120999992000012900004+37480+126630FM-12+007099999V0201401N001010360019N0050001N1-00041-00431103381ADDAA199000091AY121061AY221061GF108991041051008001011999IA1019IA2999-00109KA1120N-00211MA1999999102501MD1210071+9999MW1101REMSYN094AAXX  29004 47112 31550 81402 11004 21043 30250 40338 52007 71022 8451/ 333 21021 30101 92011;EQDQ01  00002PRCP99
0191471120999992000012903004+37480+126630FM-12+007099999V0202001N004110360019N0070001N1+00161-00361103311ADDAA199000091AY121031AY221031GF108991031051008001011999MA1999999102441MD1710061+9999MW1101REMSYN072AAXX  29034 47112 31557 82008 10016 21036 30244 40331 57006 71022 8351/;EQDQ01  00002PRCP99
0173471120999992000012906004+37480+126630FM-12+007099999V0202001N003610360019N0120001N1+00251-00341103151ADDAA199000091GF108991031051008001011999MA1999999102291MD1810161+9999REMSYN076AAXX  29064 47112 32562 82007 10025 21034 30229 40315 58016 8351/ 333 9202/;EQDQ01  00002PRCP99
0163471120999992000012909004+37480+126630FM-12+007099999V0202001N002612200019N0150001N1+00121-00251103131ADDAA199000091GF104991041001999999061001MA1999999102261MD1710021+9999REMSYN066AAXX  29094 47112 32965 42005 10012 21025 30226 40313 57002 84060;EQDQ01  00002PRCP99
0264471120999992000012912004+37480+126630FM-12+007099999V0201801N004112200019N0200001N1+00101-00181103121ADDAA199000091GA1001+999999999GF100991001001999999001001IA1019IA2999-00109KA1120M+00351MA1999999102261MD1710011+9999REMSYN088AAXX  29124 47112 32970 01808 10010 21018 30226 40312 53000 333 10035 30101 55020 92022;EQDQ01+000032APCTENQ02+000002APC3  Q03  00002PRCP99
0161471120999992000012915004+37480+126630FM-12+007099999V0201801N003110075019N0120001N1+00091+00001103051ADDAY171031AY271031GF106991051051008001021001MA1999999102181MD1510081+9999MW1221REMSYN072AAXX  29154 47112 41562 61806 10009 20000 30218 40305 55008 72277 85520;
0154471120999992000012918004+37480+126630FM-12+007099999V0203201N009810075019N0100001N1+00111-00291102971ADDAA199000021GF108991061051008001021999MA1999999102101MD1810081+9999REMSYN076AAXX  29184 47112 32560 83219 10011 21029 30210 40297 58008 8652/ 333 9203/;
0144471120999992000012921004+37480+126630FM-12+007099999V0203201N009810075019N0100001N1-00271-00641103101ADDAA199000021GF107991051051008001011001MA1999999102221MD1210121+9999REMSYN066AAXX  29214 47112 32560 73219 11027 21064 30222 40310 52012 85510;
0209471120999992000013000004+37480+126630FM-12+007099999V0203201N010312200019N0250001N1-00521-01051103381ADDAA112000191GF101991011051008001001001IA1289IA2999-00509KA1120N-00531MA1999999102491MD1210271+9999REMSYN100AAXX  30004 47112 32575 13220 11052 21105 30249 40338 52027 69912 81500 333 21053 3/105 44/// 92066;
0133471120999992000013003004+37480+126630FM-12+007099999V0203201N008212200019N0250001N1-00421-01111103521ADDGF102991021051008001001001MA1999999102631MD1310141+9999REMSYN066AAXX  30034 47112 42575 23216 11042 21111 30263 40352 53014 82500;
0143471120999992000013006004+37480+126630FM-12+007099999V0203201N007212200019N0200001N1-00291-01091103441ADDGF102991021051008001001001MA1999999102561MD1810081+9999REMSYN076AAXX  30064 47112 42570 23214 11029 21109 30256 40344 58008 82500 333 92055;
0133471120999992000013009004+37480+126630FM-12+007099999V0203201N008212200019N0150001N1-00471-01031103581ADDGF101991011051008001001001MA1999999102691MD1210141+9999REMSYN066AAXX  30094 47112 42565 13216 11047 21103 30269 40358 52014 81500;
0225471120999992000013012004+37480+126630FM-12+007099999V0203401N006212200019N0150001N1-00631-01241103731ADDAA112000791GA1001+999999999GF100991001001999999001001IA1019IA2999-00709KA1120M+00201MA1999999102831MD1210141+9999REMSYN100AAXX  30124 47112 12965 03412 11063 21124 30283 40373 52014 69902 333 10020 30107 55090 70001 92022;
0173471120999992000013015004+37480+126630FM-12+007099999V0203401N003612200019N0150001N1-00711-01291103801ADDAA199000091GA1001+999999999GF100991001001999999001001MA1999999102901MD1210071+9999REMSYN060AAXX  30154 47112 32965 03407 11071 21129 30290 40380 52007;EQDQ01  00002PRCP99
0183471120999992000013018004+37480+126630FM-12+007099999V0203401N005112200019N0120001N1-00751-01411103811ADDAA199000091GA1001+999999999GF100991001001999999001001MA1999999102901MD1510001+9999REMSYN070AAXX  30184 47112 32962 03410 11075 21141 30290 40381 55000 333 92022;EQDQ01  00002PRCP99
0173471120999992000013021004+37480+126630FM-12+007099999V0203401N004612200019N0120001N1-00881-01451103771ADDAA199000091GA1001+999999999GF100991001001999999001001MA1999999102861MD1810041+9999REMSYN060AAXX  30214 47112 32962 03409 11088 21145 30286 40377 58004;EQDQ01  00002PRCP99
0226471120999992000013100004+37480+126630FM-12+007099999V0203401N005112200019N0170001N1-00931-01621103881ADDAA199000091GA1001+999999999GF100991001001999999001001IA1019IA2999-00809KA1120N-00951MA1999999102971MD1210111+9999REMSYN082AAXX  31004 47112 32967 03410 11093 21162 30297 40388 52011 333 21095 30108 92033;EQDQ01  00002PRCP99
0173471120999992000013103004+37480+126630FM-12+007099999V0203201N004612200019N0200001N1-00651-01561103881ADDAA199000091GA1001+999999999GF100991001001999999001001MA1999999102981MD1310011+9999REMSYN060AAXX  31034 47112 32970 03209 11065 21156 30298 40388 53001;EQDQ01  00002PRCP99
0183471120999992000013106004+37480+126630FM-12+007099999V0203201N004612200019N0250001N1-00521-01751103681ADDAA199000091GA1001+999999999GF100991001001999999001001MA1999999102791MD1710191+9999REMSYN070AAXX  31064 47112 32975 03209 11052 21175 30279 40368 57019 333 92033;EQDQ01  00002PRCP99
0173471120999992000013109004+37480+126630FM-12+007099999V0203201N003112200019N0180001N1-00591-01601103671ADDAA199000091GA1001+999999999GF100991001001999999001001MA1999999102781MD1810011+9999REMSYN060AAXX  31094 47112 32968 03206 11059 21160 30278 40367 58001;EQDQ01  00002PRCP99
0226471120999992000013112004+37480+126630FM-12+007099999V0203201N002612200019N0150001N1-00671-01441103731ADDAA199000091GA1001+999999999GF100991001001999999001001IA1019IA2999-00809KA1120M-00431MA1999999102831MD1310051+9999REMSYN082AAXX  31124 47112 32965 03205 11067 21144 30283 40373 53005 333 11043 30108 92022;EQDQ01  00002PRCP99
0173471120999992000013115004+37480+126630FM-12+007099999V0203201N001012200019N0180001N1-00871-01501103641ADDAA199000091GA1001+999999999GF100991001001999999001001MA1999999102791MD1210031+9999REMSYN060AAXX  31154 47112 32968 03202 11087 21150 30279 40364 52003;EQDQ01  00002PRCP99
0183471120999992000013118004+37480+126630FM-12+007099999V0203401N002112200019N0150001N1-00931-01451103611ADDAA199000091GA1001+999999999GF100991001001999999001001MA1999999102711MD1710091+9999REMSYN070AAXX  31184 47112 32965 03404 11093 21145 30271 40361 57009 333 92022;EQDQ01  00002PRCP99
0173471120999992000013121004+37480+126630FM-12+007099999V0200201N001512200019N0150001N1-00961-01471103511ADDAA199000091GA1001+999999999GF100991001001999999001001MA1999999102611MD1710101+9999REMSYN060AAXX  31214 47112 32965 00203 11096 21147 30261 40351 57010;EQDQ01  00002PRCP99
0226471120999992000020100004+37480+126630FM-12+007099999V0202701N001012200019N0170001N1-00861-01491103511ADDAA199000091GA1001+999999999GF100991001001999999001001IA1019IA2999-00609KA1120N-01011MA1999999102611MD1010001+9999REMSYN082AAXX  01004 47112 32967 02702 11086 21149 30261 40351 50000 333 21101 30106 92011;EQDQ01  00002PRCP99
0163471120999992000020103004+37480+126630FM-12+007099999V0202301N003112200019N0170001N1-00341-01221103441ADDAA199000091GF104991001001999999001011MA1999999102561MD1710051+9999REMSYN066AAXX  01034 47112 32967 42306 11034 21122 30256 40344 57005 80001;EQDQ01  00002PRCP99
0173471120999992000020106004+37480+126630FM-12+007099999V0203201N004612200019N0170001N1-00251-01191103201ADDAA199000091GF104991001001999999001021MA1999999102321MD1710241+9999REMSYN076AAXX  01064 47112 32967 43209 11025 21119 30232 40320 57024 80002 333 92011;EQDQ01  00002PRCP99
0163471120999992000020109004+37480+126630FM-12+007099999V0202701N004112200019N0150001N1-00381-00831103121ADDAA199000091GF102991001001999999001021MA1999999102241MD1210081+9999REMSYN066AAXX  01094 47112 32965 22708 11038 21083 30224 40312 52008 80002;EQDQ01  00002PRCP99
0232471120999992000020112004+37480+126630FM-12+007099999V0202901N001012200019N0150001N1-00431-01681103151ADDAA199000091GA1001+999999999GF100991001001999999001001IA1019IA2999-00509KA1120M-00231MA1999999102271MD1210031+9999REMSYN088AAXX  01124 47112 32965 02902 11043 21168 30227 40315 52003 333 11023 30105 55075 92033;EQDQ01  00002PRCP99
0173471120999992000020115004+37480+126630FM-12+007099999V0203201N004612200019N0120001N1-00501-01621103131ADDAA199000091GA1001+999999999GF100991001001999999001001MA1999999102251MD1710021+9999REMSYN060AAXX  01154 47112 32962 03209 11050 21162 30225 40313 57002;EQDQ01  00002PRCP99
0183471120999992000020118004+37480+126630FM-12+007099999V0203601N001012200019N0100001N1-00631-00941103151ADDAA199000091GA1001+999999999GF100991001001999999001001MA1999999102271MD1210021+9999REMSYN070AAXX  01184 47112 32960 03602 11063 21094 30227 40315 52002 333 92033;EQDQ01  00002PRCP99
0173471120999992000020121004+37480+126630FM-12+007099999V0201101N001512200019N0100001N1-00641-00981103101ADDAA199000091GA1001+999999999GF100991001001999999001001MA1999999102221MD1710051+9999REMSYN060AAXX  01214 47112 32960 01103 11064 21098 30222 40310 57005;EQDQ01  00002PRCP99
0214471120999992000020200004+37480+126630FM-12+007099999V0209999C000012200019N0110001N1-00461-01001103161ADDAA199000091GA1001+999999999GF100991001001999999001001IA1099KA1120N-00671MA1999999102311MD1210051+9999REMSYN082AAXX  02004 47112 32961 00000 11046 21100 30231 40316 52005 333 21067 31087 92000;EQDQ01  00002PRCP99
0173471120999992000020203004+37480+126630FM-12+007099999V0203401N001512200019N0130001N1-00221-01021103281ADDAA199000091GA1001+999999999GF100991001001999999001001MA1999999102401MD1710031+9999REMSYN060AAXX  02034 47112 32963 03403 11022 21102 30240 40328 57003;EQDQ01  00002PRCP99
0173471120999992000020206004+37480+126630FM-12+007099999V0202501N003612200019N0150001N1+00051-00891103111ADDAA199000091GA1001+999999999GF100991001001999999001001MA1999999102241MD1710181+9999REMSYN060AAXX  02064 47112 32965 02507 10005 21089 30224 40311 57018;EQDQ01  00002PRCP99
0173471120999992000020209004+37480+126630FM-12+007099999V0202901N004112200019N0150001N1-00121-00721103011ADDAA199000091GA1001+999999999GF100991001001999999001001MA1999999102141MD1710101+9999REMSYN060AAXX  02094 47112 32965 02908 11012 21072 30214 40301 57010;EQDQ01  00002PRCP99
0222471120999992000020212004+37480+126630FM-12+007099999V0203401N001512200019N0120001N1-00241-00551103021ADDAA199000091GF102991001001999999001011IA1019IA2999-00509KA1120M+00141MA1999999102141MD1310011+9999REMSYN094AAXX  02124 47112 32962 23403 11024 21055 30214 40302 53001 80001 333 10014 30105 55068 92011;EQDQ01  00002PRCP99
0163471120999992000020215004+37480+126630FM-12+007099999V0200201N001010360019N0120001N1-00281-00611103001ADDAA199000091GF107991041051008001031001MA1999999102121MD1310021+9999REMSYN066AAXX  02154 47112 32562 70202 11028 21061 30212 40300 53002 84530;EQDQ01  00002PRCP99
0173471120999992000020218004+37480+126630FM-12+007099999V0203601N001010075019N0120001N1-00211-00551102961ADDAA199000091GF108991051051008001021999MA1999999102091MD1710031+9999REMSYN076AAXX  02184 47112 32562 83602 11021 21055 30209 40296 57003 8552/ 333 92011;EQDQ01  00002PRCP99
0161471120999992000020221004+37480+126630FM-12+007099999V0201101N002110075019N0100001N1-00221-00621102851ADDAY171031AY271031GF108991061051008001021999MA1999999101981MD1710111+9999MW1711REMSYN072AAXX  02214 47112 41560 81104 11022 21062 30198 40285 57011 77177 8652/;
0237471120999992000020300004+37480+126630FM-12+007099999V0201601N002610360019N0030001N1-00161-00411102861ADDAA112000191AY171061AY271061GF107991041051008001011001IA1099IA2999-00109KA1120N-00291MA1999999101991MD1210011+9999MW1101REMSYN106AAXX  03004 47112 11530 71605 11016 21041 30199 40286 52001 69912 71077 84510 333 21029 31101 70001 92033;
0171471120999992000020303004+37480+126630FM-12+007099999V0202001N004112200019N0030001N1+00171-00331102781ADDAY101031AY201031GA1001+999999999GF100991001001999999001001MA1999999101921MD1510071+9999MW1101REMSYN066AAXX  03034 47112 41930 02008 10017 21033 30192 40278 55007 71000;
0171471120999992000020306004+37480+126630FM-12+007099999V0202701N007210075019N0017001N1+00051-00261102661ADDAY171061AY271061GF108991061051008001021999MA1999999101791MD1710131+9999MW1701REMSYN082AAXX  03064 47112 41517 82714 10005 21026 30179 40266 57013 77077 8652/ 333 92033;
0144471120999992000020309004+37480+126630FM-12+007099999V0203401N004110360019N0110001N1-00011-00441102731ADDAA199000021GF106991031051008001011001MA1999999101861MD1210071+9999REMSYN066AAXX  03094 47112 32561 63408 11001 21044 30186 40273 52007 83510;
0213471120999992000020312004+37480+126630FM-12+007099999V0203401N003112200019N0080001N1-00151-00541102881ADDAA112000791GA1001+999999999GF100991001001999999001001IA1099IA2999-00309KA1120M+00351MA1999999102011MD1210151+9999REMSYN088AAXX  03124 47112 12958 03406 11015 21054 30201 40288 52015 69902 333 10035 31103 92022;
0154471120999992000020315004+37480+126630FM-12+007099999V0203201N003612200019N0090001N1-00321-00741102921ADDAA199000021GA1001+999999999GF100991001001999999001001MA1999999102041MD1310031+9999REMSYN060AAXX  03154 47112 32959 03207 11032 21074 30204 40292 53003;
0164471120999992000020318004+37480+126630FM-12+007099999V0202901N002612200019N0110001N1-00421-00911103031ADDAA199000021GA1001+999999999GF100991001001999999001001MA1999999102151MD1210111+9999REMSYN070AAXX  03184 47112 32961 02905 11042 21091 30215 40303 52011 333 92022;
0173471120999992000020321004+37480+126630FM-12+007099999V0203601N001012200019N0120001N1-00561-00971103061ADDAA199000091GA1001+999999999GF100991001001999999001001MA1999999102171MD1010031+9999REMSYN060AAXX  03214 47112 32962 03602 11056 21097 30217 40306 50003;EQDQ01  00002PRCP99
0226471120999992000020400004+37480+126630FM-12+007099999V0200201N001012200019N0120001N1-00401-00981103261ADDAA199000091GA1001+999999999GF100991001001999999001001IA1019IA2999-00209KA1120N-00591MA1999999102371MD1210201+9999REMSYN082AAXX  04004 47112 32962 00202 11040 21098 30237 40326 52020 333 21059 30102 92022;EQDQ01  00002PRCP99
0173471120999992000020403004+37480+126630FM-12+007099999V0200501N002112200019N0250001N1+00021-01131103231ADDAA199000091GA1001+999999999GF100991001001999999001001MA1999999102361MD1310021+9999REMSYN060AAXX  04034 47112 32975 00504 10002 21113 30236 40323 53002;EQDQ01  00002PRCP99
0183471120999992000020406004+37480+126630FM-12+007099999V0203201N003112200019N0250001N1+00171-01051102981ADDAA199000091GA1001+999999999GF100991001001999999001001MA1999999102111MD1710241+9999REMSYN070AAXX  04064 47112 32975 03206 10017 21105 30211 40298 57024 333 92022;EQDQ01  00002PRCP99
0189471120999992000020409004+37480+126630FM-12+007099999V0203201N002112200019N0250001N1-00031-00811102981ADDAA199000091GA1001+999999999GF100991001001999999001001MA1999999102111MD1410001+9999REMSYN060AAXX  04094 47112 32975 03204 11003 21081 30211 40298 58000;EQDQ01+000082APCTENQ02  00002PRCP99
0232471120999992000020412004+37480+126630FM-12+007099999V0202901N002612200019N0250001N1-00131-00611103001ADDAA199000091GA1001+999999999GF100991001001999999001001IA1019IA2999-00409KA1120M+00241MA1999999102121MD1210011+9999REMSYN088AAXX  04124 47112 32975 02905 11013 21061 30212 40300 52001 333 10024 30104 55092 92022;EQDQ01  00002PRCP99
0173471120999992000020415004+37480+126630FM-12+007099999V0200201N002612200019N0250001N1-00241-00801102961ADDAA199000091GA1001+999999999GF100991001001999999001001MA1999999102081MD1710041+9999REMSYN060AAXX  04154 47112 32975 00205 11024 21080 30208 40296 57004;EQDQ01  00002PRCP99
0183471120999992000020418004+37480+126630FM-12+007099999V0203601N001512200019N0200001N1-00341-00821102871ADDAA199000091GA1001+999999999GF100991001001999999001001MA1999999101991MD1710091+9999REMSYN070AAXX  04184 47112 32970 03603 11034 21082 30199 40287 57009 333 92022;EQDQ01  00002PRCP99
0173471120999992000020421004+37480+126630FM-12+007099999V0200201N001512200019N0150001N1-00521-01071102791ADDAA199000091GA1001+999999999GF100991001001999999001001MA1999999101901MD1710091+9999REMSYN060AAXX  04214 47112 32965 00203 11052 21107 30190 40279 57009;EQDQ01  00002PRCP99
0210471120999992000020500004+37480+126630FM-12+007099999V0200901N003112200019N0150001N1-00271-00781102681ADDAA199000091GF103991001001999999001011IA1099IA2999+00509KA1120N-00541MA1999999101851MD1710011+9999REMSYN082AAXX  05004 47112 32965 30906 11027 21078 30185 40268 57001 80001 333 21054 31005;EQDQ01  00002PRCP99
0191471120999992000020503004+37480+126630FM-12+007099999V0203201N001010360019N0090001N1+00171-00451102621ADDAA199000091AY121031AY221031GF108991041051008001011999MA1999999101751MD1610111+9999MW1101REMSYN072AAXX  05034 47112 31559 83202 10017 21045 30175 40262 56011 71022 8451/;EQDQ01  00002PRCP99
0173471120999992000020506004+37480+126630FM-12+007099999V0203401N003110360019N0100001N1+00201-00421102461ADDAA199000091GF108991031051008001011999MA1999999101601MD1710151+9999REMSYN076AAXX  05064 47112 32560 83406 10020 21042 30160 40246 57015 8351/ 333 92011;EQDQ01  00002PRCP99
0161471120999992000020509004+37480+126630FM-12+007099999V0202701N002610075019N0080001N1+00141-00291102271ADDAY171031AY271031GF108991061071008001021999MA1999999101411MD1710191+9999MW1701REMSYN072AAXX  05094 47112 41558 82705 10014 21029 30141 40227 57019 77077 8672/;
0266471120999992000020512004+37480+126630FM-12+007099999V0203201N002110075019N0050001N1-00051-00081102241ADDAA112000591AJ100019199999999AY171061AY271061GF108991061071008001021999IA1099IA2999-00109KA1120M+00301MA1999999101381MD1710041+9999MW1711REMSYN118AAXX  05124 47112 41550 83204 11005 21008 30138 40224 57004 69962 77177 8672/ 333 10030 31101 41001 55018 70006 92011;
0161471120999992000020515004+37480+126630FM-12+007099999V0203401N001010075019N0070001N1-00081-00111102181ADDAY171031AY221031GF108991051051008001021999MA1999999101311MD1710061+9999MW1221REMSYN072AAXX  05154 47112 41557 83402 11008 21011 30131 40218 57006 72272 8552/;
0171471120999992000020518004+37480+126630FM-12+007099999V0200501N000510075019N0080001N1-00091-00151102151ADDAY171061AY221061GF108991061051008001021999MA1999999101291MD1510021+9999MW1221REMSYN082AAXX  05184 47112 41558 80501 11009 21015 30129 40215 55002 72272 8652/ 333 92011;
0161471120999992000020521004+37480+126630FM-12+007099999V0202701N002610075019N0070001N1-00091-00141102081ADDAY171031AY271031GF108991061071008001021999MA1999999101221MD1710071+9999MW1711REMSYN072AAXX  05214 47112 41557 82705 11009 21014 30122 40208 57007 77177 8672/;
0243471120999992000020600004+37480+126630FM-12+007099999V0203201N002110075019N0080001N1-00021-00071102121ADDAA112000191AY171061AY221061GF108991051051008001021999IA1229IA2999+00109KA1120N-00101MA1999999101261MD1310041+9999MW1221REMSYN112AAXX  06004 47112 11558 83204 11002 21007 30126 40212 53004 69922 72272 8552/ 333 21010 3/001 46/// 70008 92000;
0144471120999992000020603004+37480+126630FM-12+007099999V0203401N003112200019N0140001N1+00181-00091102111ADDAA199000021GF102991021051008001001001MA1999999101251MD1310011+9999REMSYN066AAXX  06034 47112 32564 23406 10018 21009 30125 40211 53001 82500;
0171471120999992000020606004+37480+126630FM-12+007099999V0202901N004110075019N0080001N1+00091-00121101951ADDAY171061AY221061GF108991061071008001021999MA1999999101091MD1710161+9999MW1701REMSYN082AAXX  06064 47112 41558 82908 10009 21012 30109 40195 57016 77072 8672/ 333 92022;
0161471120999992000020609004+37480+126630FM-12+007099999V0203201N003110075019N0090001N1+00031-00151101991ADDAY121031AY221031GF106991061051008001001001MA1999999101131MD1210041+9999MW1101REMSYN072AAXX  06094 47112 41559 63206 10003 21015 30113 40199 52004 71022 86500;
0243471120999992000020612004+37480+126630FM-12+007099999V0202701N003110360019N0080001N1+00001-00101102031ADDAA112000791AY121061AY221061GF108991041051008001011999IA1149IA2999+00009KA1120M+00321MA1999999101171MD1210041+9999MW1101REMSYN112AAXX  06124 47112 11558 82706 11000 21010 30117 40203 52004 69902 71022 8451/ 333 10032 34100 44/// 70002 92022;
0172471120999992000020615004+37480+126630FM-12+007099999V0203201N002110075019N0080001N1-00021-00131101991ADDAA199000021AY121031AY221031GF106991061051008001001001MA1999999101131MD1510041+9999MW1101REMSYN072AAXX  06154 47112 31558 63204 11002 21013 30113 40199 55004 71022 86500;
0172471120999992000020618004+37480+126630FM-12+007099999V0200501N001010360019N0040001N1-00071-00141101971ADDAA199000021AY121061AY221061GF108991041051008001011999MA1999999101111MD1710011+9999MW1101REMSYN072AAXX  06184 47112 31540 80502 11007 21014 30111 40197 57001 71022 8451/;
0191471120999992000020621004+37480+126630FM-12+007099999V0200501N002110075019N0020001N1-00191-00401101861ADDAA199000091AY121031AY221031GF106991061051008001001001MA1999999101001MD1710111+9999MW1101REMSYN072AAXX  06214 47112 31520 60504 11019 21040 30100 40186 57011 71022 86500;EQDQ01  00002PRCP99
0244471120999992000020700004+37480+126630FM-12+007099999V0203601N001510075019N0050001N1-00141-00461101871ADDAA199000091AY121061AY221061GF108991051051008001011999IA1099IA2999+00009KA1120N-00221MA1999999101011MD1710051+9999MW1101REMSYN094AAXX  07004 47112 31550 83603 11014 21046 30101 40187 57005 71022 8551/ 333 21022 31000 92011;EQDQ01  00002PRCP99
0191471120999992000020703004+37480+126630FM-12+007099999V0202901N001510360019N0080001N1+00161-00461101641ADDAA199000091AY121031AY221031GF108991021051008001011999MA1999999100791MD1710031+9999MW1101REMSYN072AAXX  07034 47112 31558 82903 10016 21046 30079 40164 57003 71022 8251/;EQDQ01  00002PRCP99
0171471120999992000020706004+37480+126630FM-12+007099999V0202901N005710075019N0030001N1-00011-00261101441ADDAY171061AY221061GF108991061051008001021999MA1999999100581MD1710211+9999MW1221REMSYN082AAXX  07064 47112 41530 82911 11001 21026 30058 40144 57021 72272 8652/ 333 92011;
0161471120999992000020709004+37480+126630FM-12+007099999V0203401N006210075019N0035001N1-00091-00661101371ADDAY121031AY221031GF108991051051008001021999MA1999999100511MD1810071+9999MW1101REMSYN072AAXX  07094 47112 41535 83412 11009 21066 30051 40137 58007 71022 8552/;
0219471120999992000020712004+37480+126630FM-12+007099999V0203401N007712200019N0200001N1-00331-00851101501ADDAA124000021GA1001+999999999GF100991001001999999001001IA1019IA2999-00409KA1120M+00261MA1999999100641MD1210131+9999REMSYN094AAXX  07124 47112 32970 03415 11033 21085 30064 40150 52013 333 10026 30104 55012 70000 92044;
0143471120999992000020715004+37480+126630FM-12+007099999V0203401N007712200019N0200001N1-00451-01201101541ADDGA1001+999999999GF100991001001999999001001MA1999999100671MD1310031+9999REMSYN060AAXX  07154 47112 42970 03415 11045 21120 30067 40154 53003;
0164471120999992000020718004+37480+126630FM-12+007099999V0203201N006712200019N0200001N1-00601-01281101491ADDAA199000021GA1001+999999999GF100991001001999999001001MA1999999100621MD1810051+9999REMSYN070AAXX  07184 47112 32970 03213 11060 21128 30062 40149 58005 333 92044;
0173471120999992000020721004+37480+126630FM-12+007099999V0203401N008212200019N0200001N1-00681-01241101501ADDAA199000091GA1001+999999999GF100991001001999999001001MA1999999100631MD1010011+9999REMSYN060AAXX  07214 47112 32970 03416 11068 21124 30063 40150 50001;EQDQ01  00002PRCP99
0222471120999992000020800004+37480+126630FM-12+007099999V0203401N006712200019N0140001N1-00751-01361101671ADDAA199000091GF101991011051999999001001IA1149IA2999-00709KA1120N-00781MA1999999100791MD1210171+9999REMSYN094AAXX  08004 47112 32964 13413 11075 21136 30079 40167 52017 81500 333 21078 34107 44/// 92033;EQDQ01  00002PRCP99
0163471120999992000020803004+37480+126630FM-12+007099999V0203401N006212200019N0140001N1-00531-01451101761ADDAA199000091GF102991021051008001001001MA1999999100881MD1310091+9999REMSYN066AAXX  08034 47112 32564 23412 11053 21145 30088 40176 53009 82500;EQDQ01  00002PRCP99
0173471120999992000020806004+37480+126630FM-12+007099999V0203401N007712200019N0130001N1-00411-01471101731ADDAA199000091GF102991021051008001001001MA1999999100861MD1810021+9999REMSYN076AAXX  08064 47112 32563 23415 11041 21147 30086 40173 58002 82500 333 92033;EQDQ01  00002PRCP99
0173471120999992000020809004+37480+126630FM-12+007099999V0203401N006212200019N0150001N1-00521-01321101931ADDAA199000091GA1001+999999999GF100991001001999999001001MA1999999101051MD1210021+9999REMSYN060AAXX  08094 47112 32965 03412 11052 21132 30105 40193 52002;EQDQ01  00002PRCP99
0232471120999992000020812004+37480+126630FM-12+007099999V0203401N005712200019N0150001N1-00601-01311102191ADDAA199000091GA1001+999999999GF100991001001999999001001IA1099IA2999-00709KA1120M-00361MA1999999101311MD1210251+9999REMSYN088AAXX  08124 47112 32965 03411 11060 21131 30131 40219 52025 333 11036 31107 55082 92022;EQDQ01  00002PRCP99
0173471120999992000020815004+37480+126630FM-12+007099999V0203401N005712200019N0150001N1-00601-01361102241ADDAA199000091GA1001+999999999GF100991001001999999001001MA1999999101361MD1310051+9999REMSYN060AAXX  08154 47112 32965 03411 11060 21136 30136 40224 53005;EQDQ01  00002PRCP99
0183471120999992000020818004+37480+126630FM-12+007099999V0203401N003612200019N0150001N1-00671-01241102301ADDAA199000091GA1001+999999999GF100991001001999999001001MA1999999101421MD1210061+9999REMSYN070AAXX  08184 47112 32965 03407 11067 21124 30142 40230 52006 333 92022;EQDQ01  00002PRCP99
0173471120999992000020821004+37480+126630FM-12+007099999V0203401N005112200019N0150001N1-00721-01401102361ADDAA199000091GA1001+999999999GF100991001001999999001001MA1999999101471MD1210061+9999REMSYN060AAXX  08214 47112 32965 03410 11072 21140 30147 40236 52006;EQDQ01  00002PRCP99
0226471120999992000020900004+37480+126630FM-12+007099999V0203601N002112200019N0250001N1-00671-01331102431ADDAA199000091GA1001+999999999GF100991001001999999001001IA1019IA2999-00609KA1120N-00821MA1999999101551MD1210071+9999REMSYN082AAXX  09004 47112 32975 03604 11067 21133 30155 40243 52007 333 21082 30106 92033;EQDQ01  00002PRCP99
0173471120999992000020903004+37480+126630FM-12+007099999V0203401N002112200019N0250001N1-00341-01371102431ADDAA199000091GA1001+999999999GF100991001001999999001001MA1999999101561MD1310011+9999REMSYN060AAXX  09034 47112 32975 03404 11034 21137 30156 40243 53001;EQDQ01  00002PRCP99
0131471120999992000020909004+37480+126630FM-12+007099999V0202701N004619999999N9999999N1-00211-01181102291ADDAA199000091MA1999999101421MD1810031+9999REMSYN060AAXX  09094 47112 3//// /2709 11021 21118 30142 40229 58003;EQDQ01  00002PRCP99
0220471120999992000020912004+37480+126630FM-12+007099999V0203201N003612200019N0250001N1-00251-01571102291ADDAA199000091GA1001+999999999GF100991001001999999001001IA1019IA2999-00509KA1120M-00051MA1999999101421MD1510001+9999REMSYN076AAXX  09124 47112 32975 03207 11025 21157 30142 40229 55000 333 11005 30105;EQDQ01  00002PRCP99
0173471120999992000020915004+37480+126630FM-12+007099999V0203401N002112200019N0250001N1-00411-01251102311ADDAA199000091GA1001+999999999GF100991001001999999001001MA1999999101431MD1210011+9999REMSYN060AAXX  09154 47112 32975 03404 11041 21125 30143 40231 52001;EQDQ01  00002PRCP99
0183471120999992000020918004+37480+126630FM-12+007099999V0200201N001012200019N0250001N1-00491-01631102341ADDAA199000091GA1001+999999999GF100991001001999999001001MA1999999101461MD1210031+9999REMSYN070AAXX  09184 47112 32975 00202 11049 21163 30146 40234 52003 333 92000;EQDQ01  00002PRCP99
0173471120999992000020921004+37480+126630FM-12+007099999V0200501N000512200019N0220001N1-00611-01721102291ADDAA199000091GA1001+999999999GF100991001001999999001001MA1999999101401MD1710051+9999REMSYN060AAXX  09214 47112 32972 00501 11061 21172 30140 40229 57005;EQDQ01  00002PRCP99
0216471120999992000021000004+37480+126630FM-12+007099999V0201401N001010360019N0130001N1-00311-01721102351ADDAA199000091GF105991021051008001031001IA1019IA2999-00209KA1120N-00611MA1999999101481MD1210071+9999REMSYN088AAXX  10004 47112 32563 51402 11031 21172 30148 40235 52007 82530 333 21061 30102 92011;EQDQ01  00002PRCP99
0163471120999992000021003004+37480+126630FM-12+007099999V0202001N001510360019N0100001N1+00151-01541102251ADDAA199000091GF106991021051008001031001MA1999999101391MD1710081+9999REMSYN066AAXX  10034 47112 32560 62003 10015 21154 30139 40225 57008 82530;EQDQ01  00002PRCP99
0173471120999992000021006004+37480+126630FM-12+007099999V0202301N003112200019N0120001N1+00251-00881102011ADDAA199000091GF101991011051008001001001MA1999999101161MD1710241+9999REMSYN076AAXX  10064 47112 32562 12306 10025 21088 30116 40201 57024 81500 333 92011;EQDQ01  00002PRCP99
0173471120999992000021009004+37480+126630FM-12+007099999V0202501N003112200019N0200001N1+00041-00561102021ADDAA199000091GA1001+999999999GF100991001001999999001001MA1999999101161MD1010011+9999REMSYN060AAXX  10094 47112 32970 02506 10004 21056 30116 40202 50001;EQDQ01  00002PRCP99
0232471120999992000021012004+37480+126630FM-12+007099999V0201801N002612200019N0200001N1-00021-00321102011ADDAA199000091GA1001+999999999GF100991001001999999001001IA1019IA2999-00309KA1120M+00361MA1999999101151MD1510011+9999REMSYN088AAXX  10124 47112 32970 01805 11002 21032 30115 40201 55001 333 10036 30103 55065 92022;EQDQ01  00002PRCP99
0163471120999992000021015004+37480+126630FM-12+007099999V0201801N002110075019N0200001N1+00001-00281101981ADDAA199000091GF106991061051008001001001MA1999999101121MD1710031+9999REMSYN066AAXX  10154 47112 32570 61804 10000 21028 30112 40198 57003 86500;EQDQ01  00002PRCP99
0173471120999992000021018004+37480+126630FM-12+007099999V0201801N003110075019N0100001N1+00021-00281102001ADDAA199000091GF107991071051008001001001MA1999999101141MD1010021+9999REMSYN076AAXX  10184 47112 32560 71806 10002 21028 30114 40200 50002 87500 333 92022;EQDQ01  00002PRCP99
0191471120999992000021021004+37480+126630FM-12+007099999V0201801N002110075019N0050001N1+00011-00261101951ADDAA199000091AY121031AY221031GF106991061051008001001001MA1999999101091MD1010051+9999MW1101REMSYN072AAXX  10214 47112 31550 61804 10001 21026 30109 40195 50005 71022 86500;EQDQ01  00002PRCP99
0244471120999992000021100004+37480+126630FM-12+007099999V0202001N003612200019N0050001N1+00081-00181102011ADDAA199000091AY101061AY201061GF101991011051008001001001IA1019IA2999+00109KA1120N-00071MA1999999101151MD1010061+9999MW1101REMSYN094AAXX  11004 47112 32550 12007 10008 21018 30115 40201 50006 71000 81500 333 21007 30001 92022;EQDQ01  00002PRCP99
0131471120999992000021103004+37480+126630FM-12+007099999V0202701N003619999999N9999999N1+00401-00201102081ADDAA199000091MA1999999101231MD1210081+9999REMSYN060AAXX  11034 47112 3//// /2707 10040 21020 30123 40208 52008;EQDQ01  00002PRCP99
0173471120999992000021106004+37480+126630FM-12+007099999V0203201N005712200019N0110001N1+00431-00551101951ADDAA199000091GA1001+999999999GF100991001001999999001001MA1999999101111MD1810131+9999REMSYN060AAXX  11064 47112 32961 03211 10043 21055 30111 40195 58013;EQDQ01  00002PRCP99
0173471120999992000021109004+37480+126630FM-12+007099999V0202701N004112200019N0110001N1+00251-00401101971ADDAA199000091GA1001+999999999GF100991001001999999001001MA1999999101111MD1010011+9999REMSYN060AAXX  11094 47112 32961 02708 10025 21040 30111 40197 50001;EQDQ01  00002PRCP99
0232471120999992000021112004+37480+126630FM-12+007099999V0202701N004112200019N0120001N1+00141-00261102041ADDAA199000091GA1001+999999999GF100991001001999999001001IA1019IA2999+00009KA1120M+00551MA1999999101181MD1210071+9999REMSYN088AAXX  11124 47112 32962 02708 10014 21026 30118 40204 52007 333 10055 30000 55083 92011;EQDQ01  00002PRCP99
0173471120999992000021115004+37480+126630FM-12+007099999V0202901N003612200019N0120001N1+00111-00141102091ADDAA199000091GA1001+999999999GF100991001001999999001001MA1999999101231MD1310051+9999REMSYN060AAXX  11154 47112 32962 02907 10011 21014 30123 40209 53005;EQDQ01  00002PRCP99
0211471120999992000021118004+37480+126630FM-12+007099999V0202301N001012200019N0080001N1+00041-00091102031ADDAA199000091AY101061AY201061GA1001+999999999GF100991001001999999001001MA1999999101171MD1710061+9999MW1101REMSYN076AAXX  11184 47112 31958 02302 10004 21009 30117 40203 57006 71000 333 92011;EQDQ01  00002PRCP99
0201471120999992000021121004+37480+126630FM-12+007099999V0201801N002112200019N0070001N1-00021-00111102001ADDAA199000091AY101031AY201031GA1001+999999999GF100991001001999999001001MA1999999101131MD1810031+9999MW1101REMSYN066AAXX  11214 47112 31957 01804 11002 21011 30113 40200 58003 71000;EQDQ01  00002PRCP99
0254471120999992000021200004+37480+126630FM-12+007099999V0201801N003612200019N0012001N1+00081-00061102051ADDAA199000091AY101061AY201061GA1001+999999999GF100991001001999999001001IA1019IA2999+00109KA1120N-00031MA1999999101191MD1210051+9999MW1101REMSYN088AAXX  12004 47112 31912 01807 10008 21006 30119 40205 52005 71000 333 21003 30001 92022;EQDQ01  00002PRCP99
0191471120999992000021203004+37480+126630FM-12+007099999V0202001N004110075019N0012001N1+00481+00031102041ADDAA199000091AY121031AY221031GF107991051051008001011001MA1999999101201MD1310011+9999MW1101REMSYN072AAXX  12034 47112 31512 72008 10048 20003 30120 40204 53001 71022 85510;EQDQ01  00002PRCP99
0201471120999992000021206004+37480+126630FM-12+007099999V0202301N003112200019N0040001N1+00551+00001101851ADDAA199000091AY111061AY211061GF104991041051008001001001MA1999999101011MD1710191+9999MW1101REMSYN082AAXX  12064 47112 31540 42306 10055 20000 30101 40185 57019 71011 84500 333 92022;EQDQ01  00002PRCP99
0217471120999992000021209004+37480+126630FM-12+007099999V0202301N002612200019N0030001N1+00391+00041101861ADDAA199000091AY101031AY201031GA1001+999999999GF100991001001999999001001MA1999999101011MD1810011+9999MW1101REMSYN066AAXX  12094 47112 31930 02305 10039 20004 30101 40186 58000 71000;EQDQ01+000002APC3  Q02  00002PRCP99
0254471120999992000021212004+37480+126630FM-12+007099999V0203401N002612200019N0020001N1+00181+00001102001ADDAA199000091AY101061AY201061GA1001+999999999GF100991001001999999001001IA1019IA2999+00009KA1120M+00671MA1999999101151MD1210131+9999MW1101REMSYN088AAXX  12124 47112 31920 03405 10018 20000 30115 40200 52013 71000 333 10067 30100 92022;EQDQ01  00002PRCP99
0201471120999992000021215004+37480+126630FM-12+007099999V0202301N003112200019N0009001N1+00111+00031101981ADDAA199000091AY141031AY221031GA1001+999999999GF100991001001999999001001MA1999999101131MD1510021+9999MW1441REMSYN066AAXX  12154 47112 31909 02306 10011 20003 30113 40198 55002 74442;EQDQ01  00002PRCP99
0211471120999992000021218004+37480+126630FM-12+007099999V0202301N001012200019N0005001N1+00101+00061102011ADDAA199000091AY141061AY221061GA1001+999999999GF100991001001999999001001MA1999999101151MD1010031+9999MW1441REMSYN076AAXX  12184 47112 31905 02302 10010 20006 30115 40201 50003 74442 333 92022;EQDQ01  00002PRCP99
0201471120999992000021221004+37480+126630FM-12+007099999V0202701N001010001519N0001001N1-00091-00111102051ADDAA199000091AY141031AY241031GA1091+999999999GF109991091999999999999999MA1999999101191MD1210031+9999MW1451REMSYN066AAXX  12214 47112 31/01 92702 11009 21011 30119 40205 52003 74544;EQDQ01  00002PRCP99
0254471120999992000021300004+37480+126630FM-12+007099999V0202001N002610001519N0000001N1+00011+00001102151ADDAA199000091AY141061AY241061GA1091+999999999GF109991091999999999999999IA1019IA2999+00009KA1120N-00091MA1999999101291MD1210101+9999MW1471REMSYN088AAXX  13004 47112 31/00 92005 10001 20000 30129 40215 52010 74744 333 21009 30000 92011;EQDQ01  00002PRCP99
0201471120999992000021303004+37480+126630FM-12+007099999V0202301N003112200019N0007001N1+00291+00091102071ADDAA199000091AY141031AY241031GA1001+999999999GF100991001001999999001001MA1999999101221MD1710071+9999MW1441REMSYN066AAXX  13034 47112 31507 02306 10029 20009 30122 40207 57007 74444;EQDQ01  00002PRCP99
0201471120999992000021306004+37480+126630FM-12+007099999V0202301N003110075019N0040001N1+00451+00071101831ADDAA199000091AY141061AY221061GF106991061051008001001001MA1999999100991MD1710231+9999MW1281REMSYN082AAXX  13064 47112 31540 62306 10045 20007 30099 40183 57023 72842 86500 333 92011;EQDQ01  00002PRCP99
0149471120999992000021309004+37480+126630FM-12+007099999V0203401N002610006019N0006001N1+99999+99999999999ADDAA199000091GA1091+999999999GF109991091999999999999999REMSYN065AAXX  13094 47112 31/06 93405 1023 20014 30083 40168 57001 74744;EQDQ01  00002PRCP99
0260471120999992000021312004+37480+126630FM-12+007099999V0202701N000510003019N0005001N1+00081+00061101721ADDAA199000091AY141061AY241061GA1091+999999999GF109991091999999999999999IA1019IA2999+00009KA1120M+00521MA1999999100871MD1210031+9999MW1471REMSYN094AAXX  13124 47112 31/05 92701 10008 20006 30087 40172 52003 74744 333 10052 30000 55009 92022;EQDQ01  00002PRCP99
0201471120999992000021315004+37480+126630FM-12+007099999V0202501N001510003019N0005001N1+00081+00061101711ADDAA199000091AY141031AY241031GA1091+999999999GF109991091999999999999999MA1999999100851MD1710021+9999MW1451REMSYN066AAXX  13154 47112 31/05 92503 10008 20006 30085 40171 57002 74544;EQDQ01  00002PRCP99
0171471120999992000021318004+37480+126630FM-12+007099999V0203401N002110075019N0012001N1+00091+00051101591ADDAY171061AY271061GF108991061051008001021999MA1999999100731MD1710121+9999MW1711REMSYN082AAXX  13184 47112 41512 83404 10009 20005 30073 40159 57012 77177 8652/ 333 92022;
0161471120999992000021321004+37480+126630FM-12+007099999V0203401N002110075019N0012001N1+00051+00041101491ADDAY171031AY271031GF108991071071008001021999MA1999999100631MD1810101+9999MW1711REMSYN072AAXX  13214 47112 41512 83404 10005 20004 30063 40149 58010 77177 8772/;
0237471120999992000021400004+37480+126630FM-12+007099999V0203201N004610075019N0090001N1-00051-00241101571ADDAA112000591AY121061AY221061GF106991061051008001001001IA1149IA2999+00009KA1120N-00061MA1999999100711MD1210081+9999MW1101REMSYN106AAXX  14004 47112 11559 63209 11005 21024 30071 40157 52008 69962 71022 86500 333 21006 34000 42/// 70006;
0154471120999992000021403004+37480+126630FM-12+007099999V0203401N005712200019N0150001N1+00121-00491101581ADDAA199000021GA1001+999999999GF100991001001999999001001MA1999999100731MD1310021+9999REMSYN060AAXX  14034 47112 32965 03411 10012 21049 30073 40158 53002;
0154471120999992000021406004+37480+126630FM-12+007099999V0203201N007712200019N0150001N1+00141-00741101401ADDAA199000021GA1001+999999999GF100991001001999999001001MA1999999100551MD1710181+9999REMSYN060AAXX  14064 47112 32965 03215 10014 21074 30055 40140 57018;
0143471120999992000021409004+37480+126630FM-12+007099999V0203201N009812200019N0150001N1-00111-01081101501ADDGA1001+999999999GF100991001001999999001001MA1999999100641MD1010091+9999REMSYN060AAXX  14094 47112 42965 03219 11011 21108 30064 40150 50009;
0225471120999992000021412004+37480+126630FM-12+007099999V0203401N007212200019N0150001N1-00281-01211101731ADDAA112000591GA1001+999999999GF100991001001999999001001IA1019IA2999-00409KA1120M+00201MA1999999100861MD1210221+9999REMSYN100AAXX  14124 47112 42965 03414 11028 21121 30086 40173 52022 69962 333 10020 30104 55080 70006 92022;
0173471120999992000021415004+37480+126630FM-12+007099999V0203201N009812200019N0150001N1-00301-01171101791ADDAA199000091GA1001+999999999GF100991001001999999001001MA1999999100921MD1210061+9999REMSYN060AAXX  14154 47112 32965 03219 11030 21117 30092 40179 52006;EQDQ01  00002PRCP99
0183471120999992000021418004+37480+126630FM-12+007099999V0203401N006712200019N0150001N1-00531-01721101931ADDAA199000091GA1001+999999999GF100991001001999999001001MA1999999101051MD1210131+9999REMSYN070AAXX  14184 47112 32965 03413 11053 21172 30105 40193 52013 333 92022;EQDQ01  00002PRCP99
0173471120999992000021421004+37480+126630FM-12+007099999V0203401N005112200019N0150001N1-00621-01651101911ADDAA199000091GA1001+999999999GF100991001001999999001001MA1999999101031MD1010021+9999REMSYN060AAXX  14214 47112 32965 03410 11062 21165 30103 40191 50002;EQDQ01  00002PRCP99
0226471120999992000021500004+37480+126630FM-12+007099999V0203401N004112200019N0200001N1-00561-01551102031ADDAA199000091GA1001+999999999GF100991001001999999001001IA1019IA2999-00309KA1120N-00651MA1999999101151MD1210121+9999REMSYN082AAXX  15004 47112 32970 03408 11056 21155 30115 40203 52012 333 21065 30103 92044;EQDQ01  00002PRCP99
0173471120999992000021503004+37480+126630FM-12+007099999V0203201N009812200019N0200001N1-00341-01241101941ADDAA199000091GA1001+999999999GF100991001001999999001001MA1999999101071MD1510091+9999REMSYN060AAXX  15034 47112 32970 03219 11034 21124 30107 40194 55009;EQDQ01  00002PRCP99
0189471120999992000021506004+37480+126630FM-12+007099999V0203201N009312200019N0250001N1-00271-01401101771ADDAA199000091GF102991999021999999051001MA1999999100901MD1710171+9999REMSYN076AAXX  15064 47112 32975 23218 11027 21140 30090 40177 57017 88250 333 92033;EQDQ01+000082SCOTLCQ02  00002PRCP99
0163471120999992000021509004+37480+126630FM-12+007099999V0203201N008712200019N0250001N1-00361-01271101821ADDAA199000091GF102991021051008001001001MA1999999100951MD1210051+9999REMSYN066AAXX  15094 47112 32575 23217 11036 21127 30095 40182 52005 82500;EQDQ01  00002PRCP99
0216471120999992000021512004+37480+126630FM-12+007099999V0203201N008212200019N0250001N1-00481-01361102021ADDAA199000091GF101991011051008001001001IA1019IA2999-00609KA1120M-00211MA1999999101141MD1210191+9999REMSYN088AAXX  15124 47112 32575 13216 11048 21136 30114 40202 52019 81500 333 11021 30106 92066;EQDQ01  00002PRCP99
0173471120999992000021515004+37480+126630FM-12+007099999V0203401N004612200019N0220001N1-00511-01311102111ADDAA199000091GA1001+999999999GF100991001001999999001001MA1999999101231MD1210091+9999REMSYN060AAXX  15154 47112 32972 03409 11051 21131 30123 40211 52009;EQDQ01  00002PRCP99
0183471120999992000021518004+37480+126630FM-12+007099999V0203401N005712200019N0250001N1-00561-01541102141ADDAA199000091GA1001+999999999GF100991001001999999001001MA1999999101261MD1010031+9999REMSYN070AAXX  15184 47112 32975 03411 11056 21154 30126 40214 50003 333 92033;EQDQ01  00002PRCP99
0173471120999992000021521004+37480+126630FM-12+007099999V0203401N003612200019N0200001N1-00571-01631102131ADDAA199000091GA1001+999999999GF100991001001999999001001MA1999999101241MD1710011+9999REMSYN060AAXX  15214 47112 32570 03407 11057 21163 30124 40213 57001;EQDQ01  00002PRCP99
0226471120999992000021600004+37480+126630FM-12+007099999V0202901N002612200019N0200001N1-00381-01341102251ADDAA199000091GA1001+999999999GF100991001001999999001001IA1019IA2999+00109KA1120N-00601MA1999999101371MD1210131+9999REMSYN082AAXX  16004 47112 32970 02905 11038 21134 30137 40225 52013 333 21060 30001 92011;EQDQ01  00002PRCP99
0173471120999992000021603004+37480+126630FM-12+007099999V0203201N005112200019N0200001N1-00161-01231102241ADDAA199000091GA1001+999999999GF100991001001999999001001MA1999999101381MD1510001+9999REMSYN060AAXX  16034 47112 32970 03210 11016 21123 30138 40224 55000;EQDQ01  00002PRCP99
0173471120999992000021606004+37480+126630FM-12+007099999V0202901N008212200019N0200001N1-00091-01221102141ADDAA199000091GF102991021051008001001001MA1999999101281MD1710101+9999REMSYN076AAXX  16064 47112 32570 22916 11009 21122 30128 40214 57010 82500 333 92011;EQDQ01  00002PRCP99
0179471120999992000021609004+37480+126630FM-12+007099999V0202901N008712200019N0200001N1-00221-01111102151ADDAA199000091GF102991021051008001001001MA1999999101281MD1810011+9999REMSYN066AAXX  16094 47112 32570 22917 11022 21111 30128 40215 58000 82500;EQDQ01+000002APC3  Q02  00002PRCP99
0232471120999992000021612004+37480+126630FM-12+007099999V0203401N006212200019N0250001N1-00411-01131102251ADDAA199000091GA1001+999999999GF100991001001999999001001IA1019IA2999-00509KA1120M-00021MA1999999101381MD1210101+9999REMSYN088AAXX  16124 47112 32975 03412 11041 21113 30138 40225 52010 333 11002 30105 55099 92044;EQDQ01  00002PRCP99
0173471120999992000021615004+37480+126630FM-12+007099999V0203401N004112200019N0250001N1-00571-01421102411ADDAA199000091GA1001+999999999GF100991001001999999001001MA1999999101531MD1210151+9999REMSYN060AAXX  16154 47112 32975 03408 11057 21142 30153 40241 52015;EQDQ01  00002PRCP99
0183471120999992000021618004+37480+126630FM-12+007099999V0203201N003612200019N0200001N1-00531-01261102521ADDAA199000091GA1001+999999999GF100991001001999999001001MA1999999101631MD1210111+9999REMSYN070AAXX  16184 47112 32970 03207 11053 21126 30163 40252 52011 333 92033;EQDQ01  00002PRCP99
0173471120999992000021621004+37480+126630FM-12+007099999V0203201N002612200019N0200001N1-00531-01261102551ADDAA199000091GA1001+999999999GF100991001001999999001001MA1999999101671MD1010031+9999REMSYN060AAXX  16214 47112 32970 03205 11053 21126 30167 40255 50003;EQDQ01  00002PRCP99
0226471120999992000021700004+37480+126630FM-12+007099999V0203201N004112200019N0250001N1-00461-01351102711ADDAA199000091GA1001+999999999GF100991001001999999001001IA1019IA2999+00109KA1120N-00601MA1999999101821MD1210161+9999REMSYN082AAXX  17004 47112 32975 03208 11046 21135 30182 40271 52016 333 21060 30001 92033;EQDQ01  00002PRCP99
0173471120999992000021703004+37480+126630FM-12+007099999V0203201N003612200019N0250001N1-00131-01441102731ADDAA199000091GA1001+999999999GF100991001001999999001001MA1999999101861MD1310031+9999REMSYN060AAXX  17034 47112 32975 03207 11013 21144 30186 40273 53003;EQDQ01  00002PRCP99
0183471120999992000021706004+37480+126630FM-12+007099999V0203201N005112200019N0220001N1+00021-01491102561ADDAA199000091GA1001+999999999GF100991001001999999001001MA1999999101691MD1710171+9999REMSYN070AAXX  17064 47112 32972 03210 10002 21149 30169 40256 57017 333 92033;EQDQ01  00002PRCP99
0173471120999992000021709004+37480+126630FM-12+007099999V0202701N005712200019N0180001N1-00161-01101102551ADDAA199000091GA1001+999999999GF100991001001999999001001MA1999999101681MD1710021+9999REMSYN060AAXX  17094 47112 32968 02711 11016 21110 30168 40255 57002;EQDQ01  00002PRCP99
0232471120999992000021712004+37480+126630FM-12+007099999V0203201N006212200019N0180001N1-00161-01181102641ADDAA199000091GA1001+999999999GF100991001001999999001001IA1019IA2999-00309KA1120M+00081MA1999999101771MD1210081+9999REMSYN088AAXX  17124 47112 32968 03212 11016 21118 30177 40264 52008 333 10008 30103 55082 92011;EQDQ01  00002PRCP99
0173471120999992000021715004+37480+126630FM-12+007099999V0203401N003612200019N0180001N1-00361-01101102681ADDAA199000091GA1001+999999999GF100991001001999999001001MA1999999101801MD1310041+9999REMSYN060AAXX  17154 47112 32968 03407 11036 21110 30180 40268 53004;EQDQ01  00002PRCP99
0183471120999992000021718004+37480+126630FM-12+007099999V0203401N003612200019N0180001N1-00471-01261102761ADDAA199000091GA1001+999999999GF100991001001999999001001MA1999999101881MD1210071+9999REMSYN070AAXX  17184 47112 32968 03407 11047 21126 30188 40276 52007 333 92011;EQDQ01  00002PRCP99
0173471120999992000021721004+37480+126630FM-12+007099999V0209999C000012200019N0180001N1-00471-01331102751ADDAA199000091GA1001+999999999GF100991001001999999001001MA1999999101871MD1310011+9999REMSYN060AAXX  17214 47112 32968 00000 11047 21133 30187 40275 53001;EQDQ01  00002PRCP99
0220471120999992000021800004+37480+126630FM-12+007099999V0200901N001012200019N0220001N1-00151-01431102831ADDAA199000091GA1001+999999999GF100991001001999999001001IA1019IA2999+00509KA1120N-00541MA1999999101961MD1210091+9999REMSYN076AAXX  18004 47112 32972 00902 11015 21143 30196 40283 52009 333 21054 30005;EQDQ01  00002PRCP99
0173471120999992000021803004+37480+126630FM-12+007099999V0203401N002612200019N0220001N1+00071-01161102721ADDAA199000091GA1001+999999999GF100991001001999999001001MA1999999101861MD1510101+9999REMSYN060AAXX  18034 47112 32972 03405 10007 21116 30186 40272 55010;EQDQ01  00002PRCP99
0173471120999992000021806004+37480+126630FM-12+007099999V0202701N005712200019N0220001N1+00091-01401102591ADDAA199000091GA1001+999999999GF100991001001999999001001MA1999999101721MD1710131+9999REMSYN060AAXX  18064 47112 32972 02711 10009 21140 30172 40259 57013;EQDQ01  00002PRCP99
0163471120999992000021809004+37480+126630FM-12+007099999V0202901N002619999999N0200001N1-00021-01331102491ADDAA199000091GF106991001001999999001011MA1999999101631MD1810101+9999REMSYN066AAXX  18094 47112 32970 62905 11002 21133 30163 40249 58010 80001;EQDQ01  00002PRCP99
0210471120999992000021812004+37480+126630FM-12+007099999V0203601N001019999999N0180001N1-00151-01041102281ADDAA199000091GF106991001001999999001011IA1019IA2999-00309KA1120M+00251MA1999999101411MD1710211+9999REMSYN082AAXX  18124 47112 32968 63602 11015 21104 30141 40228 57021 80001 333 10025 30103;EQDQ01  00002PRCP99
0163471120999992000021815004+37480+126630FM-12+007099999V0203401N001519999999N0170001N1-00171-01121102311ADDAA199000091GF107991001001999999001011MA1999999101451MD1710041+9999REMSYN066AAXX  18154 47112 32967 73403 11017 21112 30145 40231 57004 80001;EQDQ01  00002PRCP99
0173471120999992000021818004+37480+126630FM-12+007099999V0200901N001019999999N0150001N1-00141-01001102151ADDAA199000091GF106991001001999999001011MA1999999101281MD1710171+9999REMSYN076AAXX  18184 47112 32965 60902 11014 21100 30128 40215 57017 80001 333 92011;EQDQ01  00002PRCP99
0163471120999992000021821004+37480+126630FM-12+007099999V0203601N002112200019N0140001N1-00341-00821102021ADDAA199000091GF103991031001999999041001MA1999999101151MD1710131+9999REMSYN066AAXX  18214 47112 32964 33604 11034 21082 30115 40202 57013 83040;EQDQ01  00002PRCP99
0216471120999992000021900004+37480+126630FM-12+007099999V0203201N001519999999N0120001N1-00191-00801101991ADDAA199000091GF106991001001999999001021IA1019IA2999+00009KA1120N-00361MA1999999101131MD1710021+9999REMSYN088AAXX  19004 47112 32962 63203 11019 21080 30113 40199 57002 80002 333 21036 30100 92011;EQDQ01  00002PRCP99
0163471120999992000021903004+37480+126630FM-12+007099999V0203201N003619999999N0120001N1+00371-01171101851ADDAA199000091GF105991001001999999001021MA1999999101011MD1710121+9999REMSYN066AAXX  19034 47112 32962 53207 10037 21117 30101 40185 57012 80002;EQDQ01  00002PRCP99
0173471120999992000021906004+37480+126630FM-12+007099999V0203401N003119999999N0200001N1+00581-01531101481ADDAA199000091GF106991001001999999001021MA1999999100651MD1710361+9999REMSYN076AAXX  19064 47112 32970 63406 10058 21153 30065 40148 57036 80002 333 92011;EQDQ01  00002PRCP99
0163471120999992000021909004+37480+126630FM-12+007099999V0203201N006719999999N0250001N1+00301-00961101581ADDAA199000091GF106991001001999999001021MA1999999100741MD1210091+9999REMSYN066AAXX  19094 47112 32975 63213 10030 21096 30074 40158 52009 80002;EQDQ01  00002PRCP99
0222471120999992000021912004+37480+126630FM-12+007099999V0203401N002612200019N0200001N1+00091-00291101491ADDAA199000091GF104991001001999999001021IA1019IA2999-00109KA1120M+00691MA1999999100631MD1710101+9999REMSYN094AAXX  19124 47112 32970 43405 10009 21029 30063 40149 57010 80002 333 10069 30101 55061 92022;EQDQ01  00002PRCP99
0173471120999992000021915004+37480+126630FM-12+007099999V0203201N003612200019N0200001N1-00011-00471101471ADDAA199000091GA1001+999999999GF100991001001999999001001MA1999999100611MD1710021+9999REMSYN060AAXX  19154 47112 32970 03207 11001 21047 30061 40147 57002;EQDQ01  00002PRCP99
0183471120999992000021918004+37480+126630FM-12+007099999V0203401N003612200019N0250001N1-00141-00431101521ADDAA199000091GA1001+999999999GF100991001001999999001001MA1999999100661MD1310051+9999REMSYN070AAXX  19184 47112 32975 03407 11014 21043 30066 40152 53005 333 92033;EQDQ01  00002PRCP99
0173471120999992000021921004+37480+126630FM-12+007099999V0203401N003612200019N0120001N1-00221-00491101541ADDAA199000091GA1001+999999999GF100991001001999999001001MA1999999100681MD1010011+9999REMSYN060AAXX  19214 47112 32962 03407 11022 21049 30068 40154 50001;EQDQ01  00002PRCP99
0226471120999992000022000004+37480+126630FM-12+007099999V0202901N003112200019N0120001N1-00171-00551101671ADDAA199000091GA1001+999999999GF100991001001999999001001IA1019IA2999+00409KA1120N-00311MA1999999100811MD1210131+9999REMSYN082AAXX  20004 47112 32962 02906 11017 21055 30081 40167 52013 333 21031 30004 92022;EQDQ01  00002PRCP99
0173471120999992000022003004+37480+126630FM-12+007099999V0203401N004612200019N0140001N1+00241-00811101581ADDAA199000091GA1001+999999999GF100991001001999999001001MA1999999100731MD1510071+9999REMSYN060AAXX  20034 47112 32964 03409 10024 21081 30073 40158 55007;EQDQ01  00002PRCP99
0183471120999992000022006004+37480+126630FM-12+007099999V0202901N006712200019N0150001N1+00291-00891101431ADDAA199000091GA1001+999999999GF100991001001999999001001MA1999999100591MD1810151+9999REMSYN070AAXX  20064 47112 32965 02913 10029 21089 30059 40143 58015 333 92022;EQDQ01  00002PRCP99
0173471120999992000022009004+37480+126630FM-12+007099999V0203201N008212200019N0150001N1+00101-00831101551ADDAA199000091GA1001+999999999GF100991001001999999001001MA1999999100701MD1210111+9999REMSYN060AAXX  20094 47112 32965 03216 10010 21083 30070 40155 52011;EQDQ01  00002PRCP99
0232471120999992000022012004+37480+126630FM-12+007099999V0203401N006212200019N0150001N1-00171-00901101751ADDAA199000091GA1001+999999999GF100991001001999999001001IA1019IA2999-00309KA1120M+00371MA1999999100881MD1210181+9999REMSYN088AAXX  20124 47112 32965 03412 11017 21090 30088 40175 52018 333 10037 30103 55102 92022;EQDQ01  00002PRCP99
0173471120999992000022015004+37480+126630FM-12+007099999V0203401N004612200019N0150001N1-00271-01101101871ADDAA199000091GA1001+999999999GF100991001001999999001001MA1999999101011MD1210121+9999REMSYN060AAXX  20154 47112 32965 03409 11027 21110 30101 40187 52012;EQDQ01  00002PRCP99
0183471120999992000022018004+37480+126630FM-12+007099999V0203401N004112200019N0150001N1-00321-00951101991ADDAA199000091GA1001+999999999GF100991001001999999001001MA1999999101121MD1210121+9999REMSYN070AAXX  20184 47112 32965 03408 11032 21095 30112 40199 52012 333 92022;EQDQ01  00002PRCP99
0173471120999992000022021004+37480+126630FM-12+007099999V0203201N005112200019N0150001N1-00321-00941102101ADDAA199000091GA1001+999999999GF100991001001999999001001MA1999999101231MD1210111+9999REMSYN060AAXX  20214 47112 32965 03210 11032 21094 30123 40210 52011;EQDQ01  00002PRCP99
0226471120999992000022100004+37480+126630FM-12+007099999V0203201N005112200019N0250001N1-00261-01241102281ADDAA199000091GA1001+999999999GF100991001001999999001001IA1019IA2999+00309KA1120N-00361MA1999999101411MD1210181+9999REMSYN082AAXX  21004 47112 32975 03210 11026 21124 30141 40228 52018 333 21036 30003 92033;EQDQ01  00002PRCP99
0173471120999992000022103004+37480+126630FM-12+007099999V0203201N006212200019N0250001N1+00061-01231102371ADDAA199000091GA1001+999999999GF100991001001999999001001MA1999999101511MD1310091+9999REMSYN060AAXX  21034 47112 32975 03212 10006 21123 30151 40237 53009;EQDQ01  00002PRCP99
0183471120999992000022106004+37480+126630FM-12+007099999V0203201N004612200019N0250001N1+00341-01161102131ADDAA199000091GA1001+999999999GF100991001001999999001001MA1999999101281MD1710221+9999REMSYN070AAXX  21064 47112 32975 03209 10034 21116 30128 40213 57022 333 92033;EQDQ01  00002PRCP99
0173471120999992000022109004+37480+126630FM-12+007099999V0203201N006212200019N0250001N1+00181-01101102091ADDAA199000091GA1001+999999999GF100991001001999999001001MA1999999101241MD1710041+9999REMSYN060AAXX  21094 47112 32975 03212 10018 21110 30124 40209 57004;EQDQ01  00002PRCP99
0226471120999992000022112004+37480+126630FM-12+007099999V0203401N004612200019N0170001N1-00091-01071102281ADDAA199000091GA1001+999999999GF100991001001999999001001IA1019IA2999-00309KA1120M+00341MA1999999101411MD1210171+9999REMSYN082AAXX  21124 47112 32967 03409 11009 21107 30141 40228 52017 333 10034 30103 92033;EQDQ01  00002PRCP99
0173471120999992000022115004+37480+126630FM-12+007099999V0203401N003612200019N0140001N1-00241-01071102431ADDAA199000091GA1001+999999999GF100991001001999999001001MA1999999101561MD1210141+9999REMSYN060AAXX  21154 47112 32964 03407 11024 21107 30156 40243 52014;EQDQ01  00002PRCP99
0183471120999992000022118004+37480+126630FM-12+007099999V0203201N002112200019N0150001N1-00361-01051102401ADDAA199000091GA1001+999999999GF100991001001999999001001MA1999999101521MD1810031+9999REMSYN070AAXX  21184 47112 32965 03204 11036 21105 30152 40240 58003 333 92022;EQDQ01  00002PRCP99
0173471120999992000022121004+37480+126630FM-12+007099999V0202501N002112200019N0180001N1-00411-00951102401ADDAA199000091GA1001+999999999GF100991001001999999001001MA1999999101521MD1010001+9999REMSYN060AAXX  21214 47112 32968 02504 11041 21095 30152 40240 50000;EQDQ01  00002PRCP99
0216471120999992000022200004+37480+126630FM-12+007099999V0203401N001519999999N0150001N1-00231-01021102501ADDAA199000091GF106991001001999999001021IA1019IA2999-00109KA1120N-00421MA1999999101631MD1210111+9999REMSYN088AAXX  22004 47112 32965 63403 11023 21102 30163 40250 52011 80002 333 21042 30101 92011;EQDQ01  00002PRCP99
0163471120999992000022203004+37480+126630FM-12+007099999V0203201N002619999999N0200001N1+00131-01641102551ADDAA199000091GF105991001001999999001021MA1999999101681MD1210051+9999REMSYN066AAXX  22034 47112 32970 53205 10013 21164 30168 40255 52005 80002;EQDQ01  00002PRCP99
0183471120999992000022206004+37480+126630FM-12+007099999V0202701N005112200019N0200001N1+00281-01271102381ADDAA199000091GA1001+999999999GF100991001001999999001001MA1999999101531MD1710161+9999REMSYN070AAXX  22064 47112 32970 02710 10028 21127 30153 40238 57016 333 92011;EQDQ01  00002PRCP99
0143471120999992000022209004+37480+126630FM-12+007099999V0202701N005112200019N0200001N1+99999+99999999999ADDAA199000091GA1001+999999999GF100991001001999999001001REMSYN059AAXX  22094 47112 32970 02710 1001 21110 30153 40239 52000;EQDQ01  00002PRCP99
0232471120999992000022212004+37480+126630FM-12+007099999V0202501N002612200019N0200001N1+00001-00551102411ADDAA199000091GA1001+999999999GF100991001001999999001001IA1019IA2999-00209KA1120M+00391MA1999999101551MD1710021+9999REMSYN088AAXX  22124 47112 32970 02505 11000 21055 30155 40241 57002 333 10039 30102 55087 92022;EQDQ01  00002PRCP99
0173471120999992000022215004+37480+126630FM-12+007099999V0202001N003112200019N0200001N1+00001-00361102381ADDAA199000091GA1001+999999999GF100991001001999999001001MA1999999101521MD1710031+9999REMSYN060AAXX  22154 47112 32970 02006 11000 21036 30152 40238 57003;EQDQ01  00002PRCP99
0173471120999992000022218004+37480+126630FM-12+007099999V0202001N003110075019N0200001N1+00001-00271102461ADDAA199000091GF106991061051008001001001MA1999999101591MD1210071+9999REMSYN076AAXX  22184 47112 32570 62006 11000 21027 30159 40246 52007 86500 333 92022;EQDQ01  00002PRCP99
0163471120999992000022221004+37480+126630FM-12+007099999V0203401N001010075019N0100001N1-00041-00271102391ADDAA199000091GF106991061051008001001001MA1999999101531MD1810071+9999REMSYN066AAXX  22214 47112 32560 63402 11004 21027 30153 40239 58007 86500;EQDQ01  00002PRCP99
0244471120999992000022300004+37480+126630FM-12+007099999V0201801N001510075019N0030001N1+00111-00301102391ADDAA199000091AY121061AY221061GF106991061051008001001001IA1019IA2999+00309KA1120N-00061MA1999999101531MD1510001+9999MW1101REMSYN094AAXX  23004 47112 31530 61803 10011 21030 30153 40239 55000 71022 86500 333 21006 30003 92022;EQDQ01  00002PRCP99
0161471120999992000022303004+37480+126630FM-12+007099999V0202301N003610075019N0130001N1+00371-00401102301ADDAY171031AY221031GF107991071051008001001001MA1999999101451MD1510081+9999MW1221REMSYN072AAXX  23034 47112 41563 72307 10037 21040 30145 40230 55008 72272 87500;
0144471120999992000022306004+37480+126630FM-12+007099999V0203401N004112200019N0130001N1+00391-00271102171ADDAA199000021GF104991041051008001001001MA1999999101321MD1710131+9999REMSYN066AAXX  23064 47112 32563 43408 10039 21027 30132 40217 57013 84500;
0163471120999992000022309004+37480+126630FM-12+007099999V0202701N005112200019N0120001N1+00241-00211102181ADDAA199000021GF102991021051008001001001MA1999999101331MD1810011+9999REMSYN066AAXX  23094 47112 32562 22710 10024 21021 30133 40218 58000 82500;EQDQ01+000002APC3  
0225471120999992000022312004+37480+126630FM-12+007099999V0203201N009812200019N0150001N1-00071-00891102371ADDAA112000791GA1001+999999999GF100991001001999999001001IA1019IA2999-00209KA1120M+00541MA1999999101501MD1210171+9999REMSYN100AAXX  23124 47112 12965 03219 11007 21089 30150 40237 52017 69902 333 10054 30102 55070 70000 92011;
0154471120999992000022315004+37480+126630FM-12+007099999V0203201N005712200019N0180001N1-00221-01181102591ADDAA199000021GA1001+999999999GF100991001001999999001001MA1999999101721MD1310221+9999REMSYN060AAXX  23154 47112 32968 03211 11022 21118 30172 40259 53022;
0183471120999992000022318004+37480+126630FM-12+007099999V0203201N004612200019N0180001N1-00361-01471102701ADDAA199000091GA1001+999999999GF100991001001999999001001MA1999999101821MD1210101+9999REMSYN070AAXX  23184 47112 32968 03209 11036 21147 30182 40270 52010 333 92022;EQDQ01  00002PRCP99
0173471120999992000022321004+37480+126630FM-12+007099999V0203401N004112200019N0180001N1-00441-01481102821ADDAA199000091GA1001+999999999GF100991001001999999001001MA1999999101941MD1210111+9999REMSYN060AAXX  23214 47112 32968 03408 11044 21148 30194 40282 52011;EQDQ01  00002PRCP99
0226471120999992000022400004+37480+126630FM-12+007099999V0203201N006212200019N0250001N1-00351-01721102991ADDAA199000091GA1001+999999999GF100991001001999999001001IA1019IA2999+00109KA1120N-00471MA1999999102111MD1210171+9999REMSYN082AAXX  24004 47112 32975 03212 11035 21172 30211 40299 52017 333 21047 30001 92044;EQDQ01  00002PRCP99
0173471120999992000022403004+37480+126630FM-12+007099999V0203401N004112200019N0250001N1-00011-01521103031ADDAA199000091GA1001+999999999GF100991001001999999001001MA1999999102161MD1310051+9999REMSYN060AAXX  24034 47112 32975 03408 11001 21152 30216 40303 53005;EQDQ01  00002PRCP99
0173471120999992000022406004+37480+126630FM-12+007099999V0202901N005112200019N0250001N1+00101-01271102771ADDAA199000091GF102991021051008001001001MA1999999101901MD1710261+9999REMSYN076AAXX  24064 47112 32575 22910 10010 21127 30190 40277 57026 82500 333 9203/;EQDQ01  00002PRCP99
0173471120999992000022409004+37480+126630FM-12+007099999V0203201N007712200019N0200001N1-00081-01521102641ADDAA199000091GA1001+999999999GF100991001001999999001001MA1999999101771MD1710131+9999REMSYN060AAXX  24094 47112 32970 03215 11008 21152 30177 40264 57013;EQDQ01  00002PRCP99
0226471120999992000022412004+37480+126630FM-12+007099999V0203401N006212200019N0200001N1-00311-01321102831ADDAA199000091GA1001+999999999GF100991001001999999001001IA1019IA2999-00409KA1120M+00131MA1999999101951MD1310181+9999REMSYN082AAXX  24124 47112 32970 03412 11031 21132 30195 40283 53018 333 10013 30104 92033;EQDQ01  00002PRCP99
0173471120999992000022415004+37480+126630FM-12+007099999V0203601N002112200019N0180001N1-00461-01341102841ADDAA199000091GA1001+999999999GF100991001001999999001001MA1999999101961MD1210011+9999REMSYN060AAXX  24154 47112 32968 03604 11046 21134 30196 40284 52001;EQDQ01  00002PRCP99
0131471120999992000022418004+37480+126630FM-12+007099999V0203201N001519999999N9999999N1-00461-01161102851ADDAA199000091MA1999999101961MD1510011+9999REMSYN060AAXX  24184 47112 3//// /3203 11046 21116 30196 40285 55001;EQDQ01  00002PRCP99
0173471120999992000022421004+37480+126630FM-12+007099999V0203401N001512200019N0200001N1-00491-01121102741ADDAA199000091GA1001+999999999GF100991001001999999001001MA1999999101861MD1710101+9999REMSYN060AAXX  24214 47112 32970 03403 11049 21112 30186 40274 57010;EQDQ01  00002PRCP99
0226471120999992000022500004+37480+126630FM-12+007099999V0203401N001512200019N0180001N1-00281-00971102811ADDAA199000091GA1001+999999999GF100991001001999999001001IA1019IA2999+00409KA1120N-00511MA1999999101931MD1210071+9999REMSYN082AAXX  25004 47112 32968 03403 11028 21097 30193 40281 52007 333 21051 30004 92011;EQDQ01  00002PRCP99
0163471120999992000022503004+37480+126630FM-12+007099999V0203401N003119999999N0200001N1+00011-01531102731ADDAA199000091GF107991071001999999011001MA1999999101861MD1510071+9999REMSYN066AAXX  25034 47112 32970 73406 10001 21153 30186 40273 55007 87010;EQDQ01  00002PRCP99
0173471120999992000022506004+37480+126630FM-12+007099999V0202701N003610360019N0150001N1+00081-01221102371ADDAA199000091GF108991041051008001011999MA1999999101511MD1810351+9999REMSYN076AAXX  25064 47112 32565 82707 10008 21122 30151 40237 58035 8451/ 333 92011;EQDQ01  00002PRCP99
0163471120999992000022509004+37480+126630FM-12+007099999V0202701N003110360019N0150001N1+00011-01011102261ADDAA199000091GF108991041051008001011999MA1999999101391MD1710121+9999REMSYN066AAXX  25094 47112 32565 82706 10001 21101 30139 40226 57012 8451/;EQDQ01  00002PRCP99
0238471120999992000022512004+37480+126630FM-12+007099999V0203401N002610075019N0150001N1-00091-00871102261ADDAA199000091GF108991061051008001011999IA1019IA2999-00209KA1120M+00311MA1999999101391MD1410001+9999REMSYN094AAXX  25124 47112 32565 83405 11009 21087 30139 40226 57000 8651/ 333 10031 30102 55043 92022;EQDQ01+000072APCTENQ02  00002PRCP99
0163471120999992000022515004+37480+126630FM-12+007099999V0203201N001510360019N0120001N1-00101-00671102171ADDAA199000091GF106991031051008001011001MA1999999101311MD1710091+9999REMSYN066AAXX  25154 47112 32562 63203 11010 21067 30131 40217 57009 83510;EQDQ01  00002PRCP99
0173471120999992000022518004+37480+126630FM-12+007099999V0200201N000510360019N0120001N1-00111-00761102041ADDAA199000091GF106991041051008001011001MA1999999101171MD1710131+9999REMSYN076AAXX  25184 47112 32562 60201 11011 21076 30117 40204 57013 84510 333 92022;EQDQ01  00002PRCP99
0163471120999992000022521004+37480+126630FM-12+007099999V0202001N002110360019N0120001N1-00091-00761101871ADDAA199000091GF106991031051008001011001MA1999999101011MD1710171+9999REMSYN066AAXX  25214 47112 32562 62004 11009 21076 30101 40187 57017 83510;EQDQ01  00002PRCP99
0244471120999992000022600004+37480+126630FM-12+007099999V0202301N002619999999N0040001N1+00041-00671101901ADDAA199000091AY121061AY221061GF106991061001999999011001IA1019IA2999+00409KA1120N-00161MA1999999101041MD1010031+9999MW1101REMSYN094AAXX  26004 47112 31940 62305 10004 21067 30104 40190 50003 71022 86010 333 21016 30004 92022;EQDQ01  00002PRCP99
0163471120999992000022603004+37480+126630FM-12+007099999V0202501N005112200019N0130001N1+00201-00431101901ADDAA199000091GF101991011051008001001001MA1999999101051MD1710011+9999REMSYN066AAXX  26034 47112 31563 12510 10020 21043 30105 40190 57001 81500;EQDQ01  00002PRCP99
0143471120999992000022606004+37480+126630FM-12+007099999V0202301N005710075019N0180001N1+00361-00481101771ADDGF105991051051008001001001MA1999999100921MD1710121+9999REMSYN076AAXX  26064 47112 42568 52311 10036 21048 30092 40177 57012 85500 333 92011;
0133471120999992000022609004+37480+126630FM-12+007099999V0202701N005710075019N0150001N1+00171-00111101791ADDGF106991061051008001001001MA1999999100941MD1810021+9999REMSYN066AAXX  26094 47112 42565 62711 10017 21011 30094 40179 58002 86500;
0215471120999992000022612004+37480+126630FM-12+007099999V0203201N005710075019N0120001N1+00141-00131101931ADDAA112000791GF105991051051008001001001IA1019IA2999+00009KA1120M+00411MA1999999101071MD1210131+9999REMSYN106AAXX  26124 47112 12562 53211 10014 21013 30107 40193 52013 69902 85500 333 10041 30000 55062 70000 92011;
0173471120999992000022615004+37480+126630FM-12+007099999V0203201N005112200019N0120001N1+00001-00571102121ADDAA199000091GA1001+999999999GF100991001001999999001001MA1999999101261MD1210191+9999REMSYN060AAXX  26154 47112 32962 03210 10000 21057 30126 40212 52019;EQDQ01  00002PRCP99
0183471120999992000022618004+37480+126630FM-12+007099999V0203201N004612200019N0120001N1-00031-00901102231ADDAA199000091GA1001+999999999GF100991001001999999001001MA1999999101361MD1210101+9999REMSYN070AAXX  26184 47112 32962 03209 11003 21090 30136 40223 52010 333 92011;EQDQ01  00002PRCP99
0173471120999992000022621004+37480+126630FM-12+007099999V0202501N001512200019N0130001N1-00091-00771102291ADDAA199000091GA1001+999999999GF100991001001999999001001MA1999999101421MD1010061+9999REMSYN060AAXX  26214 47112 32963 02503 11009 21077 30142 40229 50006;EQDQ01  00002PRCP99
0216471120999992000022700004+37480+126630FM-12+007099999V0202001N004112200019N0250001N1+00181-00651102371ADDAA199000091GF103991031051008001001001IA1019IA2999+00509KA1120N-00101MA1999999101521MD1210091+9999REMSYN088AAXX  27004 47112 32575 32008 10018 21065 30152 40237 52009 83500 333 21010 30005 92033;EQDQ01  00002PRCP99
0173471120999992000022703004+37480+126630FM-12+007099999V0202001N006712200019N0250001N1+00551-00241102321ADDAA199000091GA1001+999999999GF100991001001999999001001MA1999999101471MD1710041+9999REMSYN060AAXX  27034 47112 32975 02013 10055 21024 30147 40232 57004;EQDQ01  00002PRCP99
0183471120999992000022706004+37480+126630FM-12+007099999V0202301N006212200019N0250001N1+00651-00061102051ADDAA199000091GA1001+999999999GF100991001001999999001001MA1999999101211MD1710261+9999REMSYN070AAXX  27064 47112 32975 02312 10065 21006 30121 40205 57026 333 92033;EQDQ01  00002PRCP99
0163471120999992000022709004+37480+126630FM-12+007099999V0202301N006710360019N0200001N1+00461+00061101961ADDAA199000091GF108991041051008001011999MA1999999101121MD1710091+9999REMSYN066AAXX  27094 47112 32570 82313 10046 20006 30112 40196 57009 8451/;EQDQ01  00002PRCP99
0216471120999992000022712004+37480+126630FM-12+007099999V0202901N007712200019N0150001N1+00421+00161102001ADDAA199000091GF101991011051008001001001IA1019IA2999+00309KA1120M+00711MA1999999101151MD1010031+9999REMSYN088AAXX  27124 47112 32565 12915 10042 20016 30115 40200 50003 81500 333 10071 30003 92055;EQDQ01  00002PRCP99
0173471120999992000022715004+37480+126630FM-12+007099999V0203401N004612200019N0180001N1+00141-00631102271ADDAA199000091GA1001+999999999GF100991001001999999001001MA1999999101411MD1210261+9999REMSYN060AAXX  27154 47112 32968 03409 10014 21063 30141 40227 52026;EQDQ01  00002PRCP99
0173471120999992000022718004+37480+126630FM-12+007099999V0203201N006712200019N0220001N1-00191-01341102421ADDAA199000091GA1001+999999999GF100991001001999999001001MA1999999101551MD1210141+9999REMSYN060AAXX  27184 47112 32972 03213 11019 21134 30155 40242 52014;EQDQ01  00002PRCP99
0131471120999992000022721004+37480+126630FM-12+007099999V0203201N005719999999N9999999N1-00421-01561102621ADDAA199000091MA1999999101741MD1210191+9999REMSYN060AAXX  27214 47112 3//// /3211 11042 21156 30174 40262 52019;EQDQ01  00002PRCP99
0226471120999992000022800004+37480+126630FM-12+007099999V0203401N006212200019N0200001N1-00431-01651102861ADDAA199000091GA1001+999999999GF100991001001999999001001IA1019IA2999+00109KA1120N-00491MA1999999101981MD1210241+9999REMSYN082AAXX  28004 47112 32970 03412 11043 21165 30198 40286 52024 333 21049 30001 92011;EQDQ01  00002PRCP99
0173471120999992000022803004+37480+126630FM-12+007099999V0203201N004612200019N0200001N1-00101-01691102971ADDAA199000091GA1001+999999999GF100991001001999999001001MA1999999102101MD1210121+9999REMSYN060AAXX  28034 47112 32970 03209 11010 21169 30210 40297 52012;EQDQ01  00002PRCP99
0183471120999992000022806004+37480+126630FM-12+007099999V0203201N007212200019N0180001N1+00071-01681102831ADDAA199000091GA1001+999999999GF100991001001999999001001MA1999999101961MD1710141+9999REMSYN070AAXX  28064 47112 32968 03214 10007 21168 30196 40283 57014 333 92011;EQDQ01  00002PRCP99
0173471120999992000022809004+37480+126630FM-12+007099999V0203201N006712200019N0200001N1-00091-01641102901ADDAA199000091GA1001+999999999GF100991001001999999001001MA1999999102031MD1210061+9999REMSYN060AAXX  28094 47112 32970 03213 11009 21164 30203 40290 52006;EQDQ01  00002PRCP99
0213471120999992000022812004+37480+126630FM-12+007099999V0203401N005112200019N0200001N1-00311-01341103041ADDAA199000091GA1001+999999999GF100991001001999999001001IA1019IA2999-00509MA1999999102161MD1210141+9999REMSYN082AAXX  28124 47112 32970 03410 11031 21134 30216 40304 52014 333 30105 55106 92033;EQDQ01  00002PRCP99
0173471120999992000022815004+37480+126630FM-12+007099999V0203401N005112200019N0200001N1-00401-01281103131ADDAA199000091GA1001+999999999GF100991001001999999001001MA1999999102251MD1210081+9999REMSYN060AAXX  28154 47112 32970 03410 11040 21128 30225 40313 52008;EQDQ01  00002PRCP99
0131471120999992000022818004+37480+126630FM-12+007099999V0203401N003619999999N9999999N1-00441-01341103141ADDAA199000091MA1999999102261MD1310011+9999REMSYN060AAXX  28184 47112 3//// /3407 11044 21134 30226 40314 53001;EQDQ01  00002PRCP99
0173471120999992000022821004+37480+126630FM-12+007099999V0203401N002612200019N0200001N1-00441-01191103111ADDAA199000091GA1001+999999999GF100991001001999999001001MA1999999102231MD1710031+9999REMSYN060AAXX  28214 47112 32970 03405 11044 21119 30223 40311 57003;EQDQ01  00002PRCP99
0226471120999992000022900004+37480+126630FM-12+007099999V0203201N002612200019N0180001N1-00251-01191103231ADDAA199000091GA1001+999999999GF100991001001999999001001IA1019IA2999+00409KA1120N-00471MA1999999102351MD1210121+9999REMSYN082AAXX  29004 47112 32968 03205 11025 21119 30235 40323 52012 333 21047 30004 92022;EQDQ01  00002PRCP99
0173471120999992000022903004+37480+126630FM-12+007099999V0202701N004112200019N0200001N1+00091-01421103191ADDAA199000091GA1001+999999999GF100991001001999999001001MA1999999102331MD1510021+9999REMSYN060AAXX  29034 47112 32970 02708 10009 21142 30233 40319 55002;EQDQ01  00002PRCP99
0183471120999992000022906004+37480+126630FM-12+007099999V0202501N005112200019N0180001N1+00261-01471102991ADDAA199000091GA1001+999999999GF100991001001999999001001MA1999999102131MD1710201+9999REMSYN070AAXX  29064 47112 32968 02510 10026 21147 30213 40299 57020 333 92044;EQDQ01  00002PRCP99
0173471120999992000022909004+37480+126630FM-12+007099999V0202701N004612200019N0150001N1+00081-00601102941ADDAA199000091GA1001+999999999GF100991001001999999001001MA1999999102071MD1810051+9999REMSYN060AAXX  29094 47112 32965 02709 10008 21060 30207 40294 58005;EQDQ01  00002PRCP99
0232471120999992000022912004+37480+126630FM-12+007099999V0202501N003612200019N0150001N1+00041-00351103021ADDAA199000091GA1001+999999999GF100991001001999999001001IA1019IA2999-00109KA1120M+00341MA1999999102151MD1210081+9999REMSYN088AAXX  29124 47112 32965 02507 10004 21035 30215 40302 52008 333 10034 30101 55102 92011;EQDQ01  00002PRCP99
0173471120999992000022915004+37480+126630FM-12+007099999V0202701N003612200019N0150001N1+00071-00261103021ADDAA199000091GA1001+999999999GF100991001001999999001001MA1999999102151MD1210021+9999REMSYN060AAXX  29154 47112 32965 02707 10007 21026 30215 40302 52002;EQDQ01  00002PRCP99
0173471120999992000022921004+37480+126630FM-12+007099999V0209999C000012200019N0120001N1-00051-00181103031ADDAA199000091GA1001+999999999GF100991001001999999001001MA1999999102161MD1010051+9999REMSYN060AAXX  29214 47112 32962 00000 11005 21018 30216 40303 50005;EQDQ01  00002PRCP99
0244471120999992000030100004+37480+126630FM-12+007099999V0201601N002612200019N0050001N1+00131-00181103111ADDAA199000091AY111061AY211061GF101991011051008001001001IA1019IA2999+00509KA1120N-00141MA1999999102251MD1010091+9999MW1101REMSYN094AAXX  01004 47112 31550 11605 10013 21018 30225 40311 50009 71011 81500 333 21014 30005 92022;EQDQ01  00002PRCP99
0173471120999992000030103004+37480+126630FM-12+007099999V0202001N003612200019N0200001N1+00621-00321103081ADDAA199000091GA1001+999999999GF100991001001999999001001MA1999999102231MD1510011+9999REMSYN060AAXX  01034 47112 32970 02007 10062 21032 30223 40308 55001;EQDQ01  00002PRCP99
0173471120999992000030106004+37480+126630FM-12+007099999V0202501N003612200019N0150001N1+00631-00201102881ADDAA199000091GF102991021001999999041001MA1999999102041MD1710191+9999REMSYN076AAXX  01064 47112 32965 22507 10063 21020 30204 40288 57019 82040 333 9202/;EQDQ01  00002PRCP99
0173471120999992000030109004+37480+126630FM-12+007099999V0202301N003612200019N0190001N1+00331-00041102761ADDAA199000091GA1001+999999999GF100991001001999999001001MA1999999101901MD1710131+9999REMSYN060AAXX  01094 47112 32969 02307 10033 21004 30190 40276 57013;EQDQ01  00002PRCP99
0226471120999992000030112004+37480+126630FM-12+007099999V0202301N004612200019N0120001N1+00241+00051102791ADDAA199000091GA1001+999999999GF100991001001999999001001IA1019IA2999+00109KA1120M+00751MA1999999101931MD1210031+9999REMSYN082AAXX  01124 47112 32962 02309 10024 20005 30193 40279 52003 333 10075 30001 92033;EQDQ01  00002PRCP99
0163471120999992000030115004+37480+126630FM-12+007099999V0202001N004610075019N0120001N1+00241+00101102821ADDAA199000091GF105991051051008001001001MA1999999101961MD1310031+9999REMSYN066AAXX  01154 47112 31562 52009 10024 20010 30196 40282 53003 85500;EQDQ01  00002PRCP99
0191471120999992000030118004+37480+126630FM-12+007099999V0201601N001510360019N0012001N1+00241+00061102761ADDAA199000091AY121061AY221061GF108991021051008001011999MA1999999101901MD1710061+9999MW1101REMSYN072AAXX  01184 47112 31512 81603 10024 20006 30190 40276 57006 71022 8251/;EQDQ01  00002PRCP99
0191471120999992000030121004+37480+126630FM-12+007099999V0201601N002610075019N0005001N1+00251+00091102831ADDAA199000091AY141031AY241031GF107991071051008001001001MA1999999101971MD1010071+9999MW1451REMSYN072AAXX  01214 47112 31505 71605 10025 20009 30197 40283 50007 74544 87500;EQDQ01  00002PRCP99
0244471120999992000030200004+37480+126630FM-12+007099999V0201801N002612200019N0050001N1+00501+00171102881ADDAA199000091AY121061AY221061GF104991041051008001001001IA1019IA2999+01009KA1120N+00201MA1999999102031MD1210061+9999MW1101REMSYN094AAXX  02004 47112 31550 41805 10050 20017 30203 40288 52006 71022 84500 333 20020 30010 92011;EQDQ01  00002PRCP99
0173471120999992000030203004+37480+126630FM-12+007099999V0202001N004112200019N0100001N1+00821+00171102791ADDAA199000091GA1001+999999999GF100991001001999999001001MA1999999101951MD1510081+9999REMSYN060AAXX  02034 47112 32960 02008 10082 20017 30195 40279 55008;EQDQ01  00002PRCP99
0211471120999992000030206004+37480+126630FM-12+007099999V0202501N003612200019N0090001N1+00861+00231102661ADDAA199000091AY101061AY201061GA1001+999999999GF100991001001999999001001MA1999999101821MD1710131+9999MW1101REMSYN076AAXX  02064 47112 31959 02507 10086 20023 30182 40266 57013 71000 333 92011;EQDQ01  00002PRCP99
0173471120999992000030209004+37480+126630FM-12+007099999V0203401N002612200019N0100001N1+00551+00181102611ADDAA199000091GA1001+999999999GF100991001001999999001001MA1999999101761MD1710061+9999REMSYN060AAXX  02094 47112 32960 03405 10055 20018 30176 40261 57006;EQDQ01  00002PRCP99
0276471120999992000030212004+37480+126630FM-12+007099999V0201401N002612200019N0050001N1+00341+00201102621ADDAA199000091AY101061AY201061GA1001+999999999GF100991001001999999001001IA1019IA2999-00109KA1120M+00931MA1999999101761MD1310011+9999MW1101REMSYN094AAXX  02124 47112 31950 01405 10034 20020 30176 40262 53000 71000 333 10093 30101 55089 92022;EQDQ01+000002APC3  Q02  00002PRCP99
0201471120999992000030215004+37480+126630FM-12+007099999V0200901N002112200019N0012001N1+00321+00151102571ADDAA199000091AY101031AY201031GA1001+999999999GF100991001001999999001001MA1999999101721MD1510041+9999MW1101REMSYN066AAXX  02154 47112 31912 00904 10032 20015 30172 40257 55004 71000;EQDQ01  00002PRCP99
0211471120999992000030218004+37480+126630FM-12+007099999V0200501N001512200019N0012001N1+00201+00131102511ADDAA199000091AY101061AY201061GA1001+999999999GF100991001001999999001001MA1999999101651MD1710061+9999MW1101REMSYN076AAXX  02184 47112 31912 00503 10020 20013 30165 40251 57006 71000 333 92022;EQDQ01  00002PRCP99
0201471120999992000030221004+37480+126630FM-12+007099999V0201101N002612200019N0015001N1+00211+00081102471ADDAA199000091AY101031AY201031GA1001+999999999GF100991001001999999001001MA1999999101621MD1710031+9999MW1101REMSYN066AAXX  02214 47112 31915 01105 10021 20008 30162 40247 57003 71000;EQDQ01  00002PRCP99
0244471120999992000030300004+37480+126630FM-12+007099999V0200501N001012200019N0012001N1+00391+00011102401ADDAA199000091AY111061AY211061GF104991001001999999001011IA1019IA2999+00909KA1120N+00101MA1999999101551MD1010071+9999MW1101REMSYN094AAXX  03004 47112 31912 40502 10039 20001 30155 40240 50007 71011 80001 333 20010 30009 92011;EQDQ01  00002PRCP99
0207471120999992000030303004+37480+126630FM-12+007099999V0202301N002112200019N0012001N1+01411-00151102211ADDAA199000091AY101031AY201031GF102991001001999999001011MA1999999101391MD1710151+9999MW1101REMSYN072AAXX  03034 47112 31512 22304 10141 21015 30139 40221 57015 71000 80001;EQDQ01+008002SCOLCBQ02  00002PRCP99
0173471120999992000030306004+37480+126630FM-12+007099999V0202701N003619999999N0100001N1+01491-00941101941ADDAA199000091GF106991021001999999031011MA1999999101131MD1710271+9999REMSYN076AAXX  03064 47112 32960 62707 10149 21094 30113 40194 57027 82031 333 92033;EQDQ01  00002PRCP99
0191471120999992000030309004+37480+126630FM-12+007099999V0203401N002110360019N0060001N1+00911-00111101871ADDAA199000091AY121031AY221031GF106991021051008001031001MA1999999101041MD1710081+9999MW1101REMSYN072AAXX  03094 47112 31556 63404 10091 21011 30104 40187 57008 71022 82530;EQDQ01  00002PRCP99
0250471120999992000030312004+37480+126630FM-12+007099999V0201801N003110360019N0070001N1+00801-00151101851ADDAA199000091AY121061AY221061GF108991031051008001011999IA1019IA2999+00609KA1120M+01681MA1999999101021MD1810031+9999MW1101REMSYN100AAXX  03124 47112 31557 81806 10080 21015 30102 40185 58003 71022 8351/ 333 10168 30006 55071 92011;EQDQ01  00002PRCP99
0191471120999992000030315004+37480+126630FM-12+007099999V0202501N004110360019N0060001N1+00691-00151101831ADDAA199000091AY121031AY221031GF108991041051008001011999MA1999999100991MD1810031+9999MW1101REMSYN072AAXX  03154 47112 31556 82508 10069 21015 30099 40183 58003 71022 8451/;EQDQ01  00002PRCP99
0201471120999992000030318004+37480+126630FM-12+007099999V0202501N003110360019N0060001N1+00631-00121101721ADDAA199000091AY121061AY221061GF108991031051008001011999MA1999999100881MD1710111+9999MW1101REMSYN082AAXX  03184 47112 31556 82506 10063 21012 30088 40172 57011 71022 8351/ 333 92011;EQDQ01  00002PRCP99
0191471120999992000030321004+37480+126630FM-12+007099999V0203401N002110360019N0050001N1+00401+00081101671ADDAA199000091AY121031AY221031GF105991031051008001031001MA1999999100831MD1710051+9999MW1101REMSYN072AAXX  03214 47112 31550 53404 10040 20008 30083 40167 57005 71022 83530;EQDQ01  00002PRCP99
0260471120999992000030400004+37480+126630FM-12+007099999V0203401N001512200019N0030001N1+00601+00191101741ADDAA199000091AY111061AY211061GA1001+999999999GF100991001001999999001001IA1019IA2999+01209KA1120N+00381MA1999999100901MD1010071+9999MW1101REMSYN094AAXX  04004 47112 31930 03403 10060 20019 30090 40174 50007 71011 82040 333 20038 30012 92022;EQDQ01  00002PRCP99
0201471120999992000030403004+37480+126630FM-12+007099999V0203201N003612200019N0035001N1+01041-00091101641ADDAA199000091AY101031AY201031GA1001+999999999GF100991001001999999001001MA1999999100811MD1710091+9999MW1101REMSYN066AAXX  04034 47112 31935 03207 10104 21009 30081 40164 57009 71000;EQDQ01  00002PRCP99
0183471120999992000030406004+37480+126630FM-12+007099999V0202901N007712200019N0090001N1+01001+00191101521ADDAA199000091GA1001+999999999GF100991001001999999001001MA1999999100691MD1710121+9999REMSYN070AAXX  04064 47112 31959 02915 10100 20019 30069 40152 57012 333 92044;EQDQ01  00002PRCP99
0173471120999992000030409004+37480+126630FM-12+007099999V0202501N003112200019N0080001N1+00751+00341101531ADDAA199000091GA1001+999999999GF100991001001999999001001MA1999999100701MD1810011+9999REMSYN060AAXX  04094 47112 31958 02506 10075 20034 30070 40153 58001;EQDQ01  00002PRCP99
0226471120999992000030412004+37480+126630FM-12+007099999V0203201N003612200019N0120001N1+00541-00061101691ADDAA199000091GA1001+999999999GF100991001001999999001001IA1019IA2999+00309KA1120M+01221MA1999999100851MD1210151+9999REMSYN082AAXX  04124 47112 32962 03207 10054 21006 30085 40169 52015 333 10122 30003 92022;EQDQ01  00002PRCP99
0173471120999992000030415004+37480+126630FM-12+007099999V0203401N003112200019N0150001N1+00381-00331101801ADDAA199000091GA1001+999999999GF100991001001999999001001MA1999999100951MD1310101+9999REMSYN060AAXX  04154 47112 32965 03406 10038 21033 30095 40180 53010;EQDQ01  00002PRCP99
0153471120999992000030418004+37480+126630FM-12+007099999V0201401N002612200019N0180001N1+00271-00531999999ADDAA199000091GA1001+999999999GF100991001001999999001001REMSYN069AAXX  04184 47112 32968 01405 10027 21053 0088 40172 57008 333 92022;EQDQ01  00002PRCP99
0131471120999992000030421004+37480+126630FM-12+007099999V0203601N002619999999N9999999N1+00181-00731101761ADDAA199000091MA1999999100901MD1210031+9999REMSYN060AAXX  04214 47112 3//// /3605 10018 21073 30090 40176 52003;EQDQ01  00002PRCP99
0216471120999992000030500004+37480+126630FM-12+007099999V0203601N002110360019N0150001N1+00281-00651101811ADDAA199000091GF108991041051008001011999IA1019IA2999+00509KA1120N+00161MA1999999100961MD1210051+9999REMSYN088AAXX  05004 47112 32565 83604 10028 21065 30096 40181 52005 8451/ 333 20016 30005 92011;EQDQ01  00002PRCP99
0163471120999992000030503004+37480+126630FM-12+007099999V0203201N003619999999N0150001N1+00621-00671101711ADDAA199000091GF108991081001999999011999MA1999999100871MD1510081+9999REMSYN066AAXX  05034 47112 32965 83207 10062 21067 30087 40171 55008 8801/;EQDQ01  00002PRCP99
0173471120999992000030506004+37480+126630FM-12+007099999V0202301N003619999999N0180001N1+00871-00701101521ADDAA199000091GF106991061001999999031011MA1999999100691MD1710191+9999REMSYN076AAXX  05064 47112 32968 62307 10087 21070 30069 40152 57019 86031 333 92011;EQDQ01  00002PRCP99
0173471120999992000030509004+37480+126630FM-12+007099999V0202501N003612200019N0200001N1+00581-00711101471ADDAA199000091GA1001+999999999GF100991001001999999001001MA1999999100631MD1710061+9999REMSYN060AAXX  05094 47112 32970 02507 10058 21071 30063 40147 57006;EQDQ01  00002PRCP99
0232471120999992000030512004+37480+126630FM-12+007099999V0202301N004612200019N0200001N1+00301-00081101541ADDAA199000091GA1001+999999999GF100991001001999999001001IA1019IA2999+00109KA1120M+00991MA1999999100691MD1210061+9999REMSYN088AAXX  05124 47112 32970 02309 10030 21008 30069 40154 52006 333 10099 30001 55061 92033;EQDQ01  00002PRCP99
0173471120999992000030515004+37480+126630FM-12+007099999V0202001N003612200019N0200001N1+00231-00011101581ADDAA199000091GA1001+999999999GF100991001001999999001001MA1999999100731MD1310041+9999REMSYN060AAXX  05154 47112 32970 02007 10023 21001 30073 40158 53004;EQDQ01  00002PRCP99
0183471120999992000030518004+37480+126630FM-12+007099999V0202001N004612200019N0120001N1+00151+00051101521ADDAA199000091GA1001+999999999GF100991001001999999001001MA1999999100671MD1710061+9999REMSYN070AAXX  05184 47112 32962 02009 10015 20005 30067 40152 57006 333 92022;EQDQ01  00002PRCP99
0191471120999992000030521004+37480+126630FM-12+007099999V0201801N004112200019N0030001N1+00101+00041101501ADDAA199000091AY111031AY211031GF102991021051008001001001MA1999999100651MD1810021+9999MW1101REMSYN072AAXX  05214 47112 31530 21808 10010 20004 30065 40150 58002 71011 82500;EQDQ01  00002PRCP99
0226471120999992000030600004+37480+126630FM-12+007099999V0201801N003612200019N0090001N1+00351+00061101511ADDAA199000091GA1001+999999999GF100991001001999999001001IA1019IA2999+00709KA1120N+00091MA1999999100671MD1210021+9999REMSYN082AAXX  06004 47112 31959 01807 10035 20006 30067 40151 52002 333 20009 30007 92033;EQDQ01  00002PRCP99
0157471120999992000030603004+37480+126630FM-12+007099999V0202001N007219999999N0120001N1+00641+00181101421ADDAA199000091GF105991999999999999999999MA1999999100581MD1510091+9999REMSYN060AAXX  06034 47112 32962 52014 10064 20018 30058 40142 55009;EQDQ01  00002PRCP99
0173471120999992000030606004+37480+126630FM-12+007099999V0203201N008712200019N0120001N1+00701-00191101381ADDAA199000091GA1001+999999999GF100991001001999999001001MA1999999100551MD1210041+9999REMSYN060AAXX  06064 47112 32962 03217 10070 21019 30055 40138 52004;EQDQ01  00002PRCP99
0173471120999992000030609004+37480+126630FM-12+007099999V0203201N009312200019N0180001N1+00271-01031101571ADDAA199000091GA1001+999999999GF100991001001999999001001MA1999999100721MD1210181+9999REMSYN060AAXX  06094 47112 32968 03218 10027 21103 30072 40157 52018;EQDQ01  00002PRCP99
0232471120999992000030612004+37480+126630FM-12+007099999V0203201N009312200019N0180001N1-00021-01341101861ADDAA199000091GA1001+999999999GF100991001001999999001001IA1019IA2999-00109KA1120M+00711MA1999999101001MD1210271+9999REMSYN088AAXX  06124 47112 32968 03218 11002 21134 30100 40186 52027 333 10071 30101 55072 92022;EQDQ01  00002PRCP99
0173471120999992000030615004+37480+126630FM-12+007099999V0203401N006712200019N0150001N1-00101-01251102091ADDAA199000091GA1001+999999999GF100991001001999999001001MA1999999101221MD1210221+9999REMSYN060AAXX  06154 47112 32965 03413 11010 21125 30122 40209 52022;EQDQ01  00002PRCP99
0183471120999992000030618004+37480+126630FM-12+007099999V0203201N006212200019N0130001N1-00161-01391102201ADDAA199000091GA1001+999999999GF100991001001999999001001MA1999999101331MD1210111+9999REMSYN070AAXX  06184 47112 32963 03212 11016 21139 30133 40220 52011 333 92022;EQDQ01  00002PRCP99
0173471120999992000030621004+37480+126630FM-12+007099999V0203401N007212200019N0150001N1-00171-01581102241ADDAA199000091GA1001+999999999GF100991001001999999001001MA1999999101371MD1210031+9999REMSYN060AAXX  06214 47112 32965 03414 11017 21158 30137 40224 52003;EQDQ01  00002PRCP99
0226471120999992000030700004+37480+126630FM-12+007099999V0203401N005712200019N0120001N1-00131-01611102311ADDAA199000091GA1001+999999999GF100991001001999999001001IA1019IA2999+00309KA1120N-00191MA1999999101451MD1210081+9999REMSYN082AAXX  07004 47112 32962 03411 11013 21161 30145 40231 52008 333 21019 30003 92033;EQDQ01  00002PRCP99
0201471120999992000030703004+37480+126630FM-12+007099999V0203201N006212200019N0030001N1+00081-01501102211ADDAA199000091AY101031AY201031GA1001+999999999GF100991001001999999001001MA1999999101351MD1710101+9999MW1061REMSYN066AAXX  07034 47112 31930 03212 10008 21150 30135 40221 57010 70600;EQDQ01  00002PRCP99
0183471120999992000030706004+37480+126630FM-12+007099999V0203201N010312200019N0270001N1+00091-01501102031ADDAA199000091GA1001+999999999GF100991001001999999001001MA1999999101171MD1710181+9999REMSYN070AAXX  07064 47112 32977 03220 10009 21150 30117 40203 57018 333 92033;EQDQ01  00002PRCP99
0173471120999992000030709004+37480+126630FM-12+007099999V0203201N006712200019N0300001N1-00051-01321102031ADDAA199000091GA1001+999999999GF100991001001999999001001MA1999999101171MD1710011+9999REMSYN060AAXX  07094 47112 32980 03213 11005 21132 30117 40203 57001;EQDQ01  00002PRCP99
0226471120999992000030712004+37480+126630FM-12+007099999V0203401N006712200019N0250001N1-00261-01611102161ADDAA199000091GA1001+999999999GF100991001001999999001001IA1019IA2999-00409KA1120M+00151MA1999999101291MD1210131+9999REMSYN082AAXX  07124 47112 32975 03413 11026 21161 30129 40216 52013 333 10015 30104 92044;EQDQ01  00002PRCP99
0173471120999992000030715004+37480+126630FM-12+007099999V0203401N003112200019N0250001N1-00331-01331102211ADDAA199000091GA1001+999999999GF100991001001999999001001MA1999999101341MD1310051+9999REMSYN060AAXX  07154 47112 32975 03406 11033 21133 30134 40221 53005;EQDQ01  00002PRCP99
0173471120999992000030718004+37480+126630FM-12+007099999V0202901N002612200019N0250001N1-00231-01091102191ADDAA199000091GF103991031001999999031001MA1999999101321MD1310021+9999REMSYN076AAXX  07184 47112 32975 32905 11023 21109 30132 40219 53002 83030 333 92022;EQDQ01  00002PRCP99
0173471120999992000030721004+37480+126630FM-12+007099999V0203201N001012200019N0250001N1-00271-01041102151ADDAA199000091GA1001+999999999GF100991001001999999001001MA1999999101281MD1710041+9999REMSYN060AAXX  07214 47112 32975 03202 11027 21104 30128 40215 57004;EQDQ01  00002PRCP99
0216471120999992000030800004+37480+126630FM-12+007099999V0202001N002612200019N0200001N1+00151-01271102091ADDAA199000091GF102991021001999999031001IA1019IA2999+00809KA1120N-00331MA1999999101241MD1710041+9999REMSYN088AAXX  08004 47112 32970 22005 10015 21127 30124 40209 57004 82030 333 21033 30008 92011;EQDQ01  00002PRCP99
0172471120999992000030803004+37480+126630FM-12+007099999V0202901N007210075019N0150001N1+00301-00441102041ADDAA199000021AY171031AY221031GF106991061051008001001001MA1999999101191MD1510051+9999MW1221REMSYN072AAXX  08034 47112 31565 62914 10030 21044 30119 40204 55005 72272 86500;
0182471120999992000030806004+37480+126630FM-12+007099999V0202901N010810120019N0150001N1+00281-00661101961ADDAA199000021AY171061AY221061GF106991061081008001001001MA1999999101111MD1710081+9999MW1221REMSYN082AAXX  08064 47112 31565 62921 10028 21066 30111 40196 57008 72272 86800 333 92022;
0154471120999992000030809004+37480+126630FM-12+007099999V0203201N009812200019N0120001N1+00121-01231102001ADDAA199000021GA1001+999999999GF100991001001999999001001MA1999999101141MD1010031+9999REMSYN060AAXX  08094 47112 32962 03219 10012 21123 30114 40200 50003;
0225471120999992000030812004+37480+126630FM-12+007099999V0203401N006712200019N0200001N1-00031-01131102201ADDAA112000791GA1001+999999999GF100991001001999999001001IA1019IA2999-00209KA1120M+00371MA1999999101331MD1210191+9999REMSYN100AAXX  08124 47112 12970 03413 11003 21113 30133 40220 52019 69902 333 10037 30102 55079 70000 92033;
0154471120999992000030815004+37480+126630FM-12+007099999V0202901N003112200019N0200001N1-00101-01381102431ADDAA199000021GA1001+999999999GF100991001001999999001001MA1999999101561MD1210231+9999REMSYN060AAXX  08154 47112 32970 02906 11010 21138 30156 40243 52023;
0164471120999992000030818004+37480+126630FM-12+007099999V0203401N003112200019N0150001N1-00151-01041102591ADDAA199000021GA1001+999999999GF100991001001999999001001MA1999999101721MD1310161+9999REMSYN070AAXX  08184 47112 32965 03406 11015 21104 30172 40259 53016 333 92033;
0173471120999992000030821004+37480+126630FM-12+007099999V0203401N001012200019N0150001N1-00201-01081102591ADDAA199000091GA1001+999999999GF100991001001999999001001MA1999999101721MD1010001+9999REMSYN060AAXX  08214 47112 32965 03402 11020 21108 30172 40259 50000;EQDQ01  00002PRCP99
0226471120999992000030900004+37480+126630FM-12+007099999V0203201N005112200019N0250001N1+00191-00611102791ADDAA199000091GA1001+999999999GF100991001001999999001001IA1019IA2999+00709KA1120N-00241MA1999999101921MD1210211+9999REMSYN082AAXX  09004 47112 32975 03210 10019 21061 30192 40279 52021 333 21024 30007 92044;EQDQ01  00002PRCP99
0173471120999992000030903004+37480+126630FM-12+007099999V0203201N006712200019N0220001N1+00461-01001102751ADDAA199000091GA1001+999999999GF100991001001999999001001MA1999999101901MD1510021+9999REMSYN060AAXX  09034 47112 3//72 03213 10046 21100 30190 40275 55002;EQDQ01  00002PRCP99
0183471120999992000030906004+37480+126630FM-12+007099999V0203201N007212200019N0200001N1+00581-01311102581ADDAA199000091GA1001+999999999GF100991001001999999001001MA1999999101741MD1710161+9999REMSYN070AAXX  09064 47112 32970 03214 10058 21131 30174 40258 57016 333 92044;EQDQ01  00002PRCP99
0173471120999992000030909004+37480+126630FM-12+007099999V0202701N008212200019N0200001N1+00331-00801102611ADDAA199000091GA1001+999999999GF100991001001999999001001MA1999999101761MD1010021+9999REMSYN060AAXX  09094 47112 32970 02716 10033 21080 30176 40261 50002;EQDQ01  00002PRCP99
0232471120999992000030912004+37480+126630FM-12+007099999V0202901N005712200019N0180001N1+00231-00361102731ADDAA199000091GA1001+999999999GF100991001001999999001001IA1019IA2999+00109KA1120M+00631MA1999999101871MD1210111+9999REMSYN088AAXX  09124 47112 32968 02911 10023 21036 30187 40273 52011 333 10063 30001 55102 92011;EQDQ01  00002PRCP99
0173471120999992000030915004+37480+126630FM-12+007099999V0203601N002112200019N0180001N1+00031-01351102861ADDAA199000091GA1001+999999999GF100991001001999999001001MA1999999101991MD1210131+9999REMSYN060AAXX  09154 47112 32968 03604 10003 21135 30199 40286 52013;EQDQ01  00002PRCP99
0199471120999992000030918004+37480+126630FM-12+007099999V0201601N002112200019N0180001N1+00011-01341102871ADDAA199000091GA1001+999999999GF100991001001999999001001MA1999999102001MD1310011+9999REMSYN070AAXX  09184 47112 32968 01604 10001 21134 30200 40287 53000 333 92011;EQDQ01+000002APC3  Q02  00002PRCP99
0173471120999992000030921004+37480+126630FM-12+007099999V0201801N002612200019N0150001N1-00101-00841102801ADDAA199000091GA1001+999999999GF100991001001999999001001MA1999999101931MD1710071+9999REMSYN060AAXX  09214 47112 32965 01805 11010 21084 30193 40280 57007;EQDQ01  00002PRCP99
0226471120999992000031000004+37480+126630FM-12+007099999V0201801N002612200019N0120001N1+00331-00481102901ADDAA199000091GA1001+999999999GF100991001001999999001001IA1019IA2999+01009KA1120N-00121MA1999999102041MD1210111+9999REMSYN082AAXX  10004 47112 32962 01805 10033 21048 30204 40290 52011 333 21012 30010 92022;EQDQ01  00002PRCP99
0163471120999992000031003004+37480+126630FM-12+007099999V0202301N004612200019N0150001N1+00701-00121102781ADDAA199000091GF102991001001999999001021MA1999999101931MD1710111+9999REMSYN066AAXX  10034 47112 32965 22309 10070 21012 30193 40278 57011 80002;EQDQ01  00002PRCP99
0173471120999992000031006004+37480+126630FM-12+007099999V0202301N004110075019N0200001N1+00711+00031102491ADDAA199000091GF106991061051008001001001MA1999999101651MD1710281+9999REMSYN076AAXX  10064 47112 32570 62308 10071 20003 30165 40249 57028 86500 333 92022;EQDQ01  00002PRCP99
0163471120999992000031009004+37480+126630FM-12+007099999V0202501N004119999999N0120001N1+00521+00291102351ADDAA199000091GF108991011051999999011999MA1999999101501MD1710151+9999REMSYN066AAXX  10094 47112 32962 82508 10052 20029 30150 40235 57015 8151/;EQDQ01  00002PRCP99
0244471120999992000031012004+37480+126630FM-12+007099999V0202301N003110075019N0070001N1+00461+00381102351ADDAA199000091AY121061AY221061GF108991061051008001011999IA1019IA2999+00409KA1120M+00921MA1999999101501MD1510001+9999MW1101REMSYN094AAXX  10124 47112 31557 82306 10046 20038 30150 40235 55000 71022 8651/ 333 10092 30004 92022;EQDQ01  00002PRCP99
0163471120999992000031015004+37480+126630FM-12+007099999V0202001N004610360019N0025001N1+00451+00391102361ADDAA199000091GF108991021051008001011999MA1999999101511MD1510011+9999REMSYN066AAXX  10154 47112 31525 82009 10045 20039 30151 40236 55001 8251/;EQDQ01  00002PRCP99
0201471120999992000031018004+37480+126630FM-12+007099999V0201801N001510075019N0009001N1+00481+00441102261ADDAA199000091AY141061AY221061GF108991061051008001011999MA1999999101411MD1710101+9999MW1451REMSYN082AAXX  10184 47112 31509 81803 10048 20044 30141 40226 57010 74542 8651/ 333 92022;EQDQ01  00002PRCP99
0191471120999992000031021004+37480+126630FM-12+007099999V0202001N003610075019N0007001N1+00501+00431102081ADDAA199000091AY141031AY241031GF108991061051008001011999MA1999999101241MD1710171+9999MW1461REMSYN072AAXX  10214 47112 31507 82007 10050 20043 30124 40208 57017 74644 8651/;EQDQ01  00002PRCP99
0254471120999992000031100004+37480+126630FM-12+007099999V0202001N002610006019N0008001N1+00521+00471101991ADDAA199000091AY141061AY241061GA1091+999999999GF109991091999999999999999IA1019IA2999+00809KA1120N+00441MA1999999101151MD1710091+9999MW1431REMSYN088AAXX  11004 47112 31/08 92005 10052 20047 30115 40199 57009 74344 333 20044 30008 92011;EQDQ01  00002PRCP99
0191471120999992000031103004+37480+126630FM-12+007099999V0202301N004610360019N0050001N1+00591+00421101891ADDAA199000091AY121031AY221031GF108991041051008001021999MA1999999101051MD1710101+9999MW1101REMSYN072AAXX  11034 47112 31550 82309 10059 20042 30105 40189 57010 71022 8452/;EQDQ01  00002PRCP99
0171471120999992000031106004+37480+126630FM-12+007099999V0202001N003610075019N0030001N1+00661+00421101621ADDAY161061AY261061GF108991061051008001021999MA1999999100791MD1710261+9999MW1211REMSYN082AAXX  11064 47112 41530 82007 10066 20042 30079 40162 57026 72166 8652/ 333 92033;
0172471120999992000031109004+37480+126630FM-12+007099999V0202501N003110360019N0035001N1+00531+00301101541ADDAA199000021AY121031AY221031GF108991041051008001011999MA1999999100701MD1710091+9999MW1101REMSYN072AAXX  11094 47112 31535 82506 10053 20030 30070 40154 57009 71022 8451/;
0262471120999992000031112004+37480+126630FM-12+007099999V0202301N003119999999N0015001N1+00401+00301101541ADDAA112000791AY121061AY221061GF106991061001999999011001IA1019IA2999+00109KA1120M+00741MA1999999100701MD1410001+9999MW1101REMSYN112AAXX  11124 47112 11915 62306 10040 20030 30070 40154 52000 69902 71022 86010 333 10074 30001 55000 70000 92022;EQDQ01+000022APCTEN
0182471120999992000031115004+37480+126630FM-12+007099999V0203201N001510001519N0001001N1+00261+00251101561ADDAA199000021AY141031AY241031GA1091+999999999GF109991091999999999999999MA1999999100711MD1310021+9999MW1471REMSYN066AAXX  11154 47112 31/01 93203 10026 20025 30071 40156 53002 74744;
0192471120999992000031118004+37480+126630FM-12+007099999V0200501N001510003019N0003001N1+00231+00231101551ADDAA199000021AY141061AY241061GA1091+999999999GF109991091999999999999999MA1999999100701MD1810011+9999MW1431REMSYN076AAXX  11184 47112 31/03 90503 10023 20023 30070 40155 58001 74344 333 92022;
0201471120999992000031121004+37480+126630FM-12+007099999V0200501N001510003019N0003001N1+00291+00281101601ADDAA199000091AY141031AY241031GA1091+999999999GF109991091999999999999999MA1999999100751MD1810041+9999MW1451REMSYN066AAXX  11214 47112 31/03 90503 10029 20028 30075 40160 58004 74544;EQDQ01  00002PRCP99
0254471120999992000031200004+37480+126630FM-12+007099999V0200201N001510003019N0002001N1+00301+00231101641ADDAA199000091AY141061AY241061GA1091+999999999GF109991091999999999999999IA1019IA2999+00709KA1120N+00221MA1999999100791MD1210051+9999MW1451REMSYN088AAXX  12004 47112 31202 90203 10030 20023 30079 40164 52005 74544 333 20022 30007 92011;EQDQ01  00002PRCP99
0191471120999992000031203004+37480+126630FM-12+007099999V0202301N004610075019N0020001N1+00531+00161101621ADDAA199000091AY121031AY221031GF108991081061008001999999MA1999999100781MD1310021+9999MW1101REMSYN072AAXX  12034 47112 31520 82309 10053 20016 30078 40162 53002 71022 886//;EQDQ01  00002PRCP99
0191471120999992000031206004+37480+126630FM-12+007099999V0202701N006712200019N0040001N1+00601+00171101551ADDAA199000091AY101061AY201061GF102991021051008001001001MA1999999100711MD1810071+9999MW1101REMSYN072AAXX  12064 47112 31540 22713 10060 20017 30071 40155 58007 71000 82500;EQDQ01  00002PRCP99
0191471120999992000031209004+37480+126630FM-12+007099999V0202901N006212200019N0050001N1+00221+00041101621ADDAA199000091AY121031AY221031GF104991041051008001001001MA1999999100771MD1210061+9999MW1101REMSYN072AAXX  12094 47112 31550 42912 10022 20004 30077 40162 52006 71022 84500;EQDQ01  00002PRCP99
0250471120999992000031212004+37480+126630FM-12+007099999V0202701N004610360019N0050001N1+00241+00131101781ADDAA199000091AY121061AY221061GF108991031051008001011999IA1019IA2999+00209KA1120M+00781MA1999999100931MD1210161+9999MW1101REMSYN100AAXX  12124 47112 31550 82709 10024 20013 30093 40178 52016 71022 8351/ 333 10078 30002 55092 92011;EQDQ01  00002PRCP99
0201471120999992000031215004+37480+126630FM-12+007099999V0202301N004112200019N0050001N1+00241+00181101911ADDAA199000091AY101031AY201031GA1001+999999999GF100991001001999999001001MA1999999101051MD1210121+9999MW1101REMSYN066AAXX  12154 47112 31950 02308 10024 20018 30105 40191 52012 71000;EQDQ01  00002PRCP99
0201471120999992000031218004+37480+126630FM-12+007099999V0202901N003112200019N0090001N1+00311-00121102021ADDAA199000091AY111061AY211061GF102991021051999999001001MA1999999101171MD1210121+9999MW1101REMSYN082AAXX  12184 47112 31959 22906 10031 21012 30117 40202 52012 71011 82500 333 92011;EQDQ01  00002PRCP99
0201471120999992000031221004+37480+126630FM-12+007099999V0201801N002612200019N0060001N1+00101+00021102081ADDAA199000091AY101031AY201031GA1001+999999999GF100991001001999999001001MA1999999101221MD1010051+9999MW1101REMSYN066AAXX  12214 47112 31956 01805 10010 20002 30122 40208 50005 71000;EQDQ01  00002PRCP99
0254471120999992000031300004+37480+126630FM-12+007099999V0202001N002610003019N0002001N1+00091+00081102301ADDAA199000091AY141061AY241061GA1091+999999999GF109991091999999999999999IA1019IA2999+00509KA1120N-00011MA1999999101441MD1210221+9999MW1431REMSYN088AAXX  13004 47112 31/02 92005 10009 20008 30144 40230 52022 74344 333 21001 30005 92022;EQDQ01  00002PRCP99
0173471120999992000031303004+37480+126630FM-12+007099999V0200501N002112200019N0100001N1+00721-00791102321ADDAA199000091GA1001+999999999GF100991001001999999001001MA1999999101481MD1310041+9999REMSYN060AAXX  13034 47112 32960 00504 10072 21079 30148 40232 53004;EQDQ01  00002PRCP99
0183471120999992000031306004+37480+126630FM-12+007099999V0202301N004112200019N0250001N1+00911-00861102161ADDAA199000091GA1001+999999999GF100991001001999999001001MA1999999101321MD1710161+9999REMSYN070AAXX  13064 47112 32975 02308 10091 21086 30132 40216 57016 333 92022;EQDQ01  00002PRCP99
0163471120999992000031309004+37480+126630FM-12+007099999V0202501N003612200019N0250001N1+00621-00611102201ADDAA199000091GF102991001001999999001021MA1999999101351MD1210031+9999REMSYN066AAXX  13094 47112 32975 22507 10062 21061 30135 40220 52003 80002;EQDQ01  00002PRCP99
0226471120999992000031312004+37480+126630FM-12+007099999V0202901N003112200019N0270001N1+00431-00841102341ADDAA199000091GA1001+999999999GF100991001001999999001001IA1019IA2999+00109KA1120M+00991MA1999999101491MD1210131+9999REMSYN082AAXX  13124 47112 32977 02906 10043 21084 30149 40234 52013 333 10099 30001 92022;EQDQ01  00002PRCP99
0163471120999992000031315004+37480+126630FM-12+007099999V0202001N001519999999N0250001N1+00381-00761102371ADDAA199000091GF105991051001999999011001MA1999999101521MD1210031+9999REMSYN066AAXX  13154 47112 32975 52003 10038 21076 30152 40237 52003 85010;EQDQ01  00002PRCP99
0183471120999992000031318004+37480+126630FM-12+007099999V0202501N003612200019N0270001N1+00381-00341102381ADDAA199000091GA1001+999999999GF100991001001999999001001MA1999999101531MD1210011+9999REMSYN070AAXX  13184 47112 32977 02507 10038 21034 30153 40238 52001 333 92022;EQDQ01  00002PRCP99
0173471120999992000031321004+37480+126630FM-12+007099999V0203201N001512200019N0200001N1+00211+00011102441ADDAA199000091GA1001+999999999GF100991001001999999001001MA1999999101591MD1010051+9999REMSYN060AAXX  13214 47112 32970 03203 10021 20001 30159 40244 50005;EQDQ01  00002PRCP99
0226471120999992000031400004+37480+126630FM-12+007099999V0202301N003112200019N0200001N1+00501+00001102541ADDAA199000091GA1001+999999999GF100991001001999999001001IA1019IA2999+01709KA1120N+00211MA1999999101691MD1210101+9999REMSYN082AAXX  14004 47112 32970 02306 10050 21000 30169 40254 52010 333 20021 30017 92011;EQDQ01  00002PRCP99
0173471120999992000031403004+37480+126630FM-12+007099999V0202301N004612200019N0200001N1+00911-00721102521ADDAA199000091GA1001+999999999GF100991001001999999001001MA1999999101681MD1510011+9999REMSYN060AAXX  14034 47112 32970 02309 10091 21072 30168 40252 55001;EQDQ01  00002PRCP99
0183471120999992000031406004+37480+126630FM-12+007099999V0202301N005712200019N0200001N1+00851-00991102351ADDAA199000091GA1001+999999999GF100991001001999999001001MA1999999101521MD1710161+9999REMSYN070AAXX  14064 47112 32970 02311 10085 21099 30152 40235 57016 333 92011;EQDQ01  00002PRCP99
0173471120999992000031409004+37480+126630FM-12+007099999V0202501N003612200019N0150001N1+00761-00661102281ADDAA199000091GA1001+999999999GF100991001001999999001001MA1999999101441MD1810081+9999REMSYN060AAXX  14094 47112 32965 02507 10076 21066 30144 40228 58008;EQDQ01  00002PRCP99
0232471120999992000031412004+37480+126630FM-12+007099999V0202301N003112200019N0200001N1+00331-00141102341ADDAA199000091GA1001+999999999GF100991001001999999001001IA1019IA2999+00209KA1120M+01021MA1999999101491MD1010051+9999REMSYN088AAXX  14124 47112 32970 02306 10033 21014 30149 40234 50005 333 10102 30002 55107 92022;EQDQ01  00002PRCP99
0173471120999992000031415004+37480+126630FM-12+007099999V0201101N001012200019N0150001N1+00401-00581102261ADDAA199000091GA1001+999999999GF100991001001999999001001MA1999999101411MD1710081+9999REMSYN060AAXX  14154 47112 32965 01102 10040 21058 30141 40226 57008;EQDQ01  00002PRCP99
0131471120999992000031418004+37480+126630FM-12+007099999V0202301N003119999999N9999999N1+00251+00091102241ADDAA199000091MA1999999101381MD1710031+9999REMSYN060AAXX  14184 47112 3//// /2306 10025 20009 30138 40224 57003;EQDQ01  00002PRCP99
0173471120999992000031421004+37480+126630FM-12+007099999V0201401N003112200019N0100001N1+00231-00121102101ADDAA199000091GA1001+999999999GF100991001001999999001001MA1999999101241MD1710141+9999REMSYN060AAXX  14214 47112 32960 01406 10023 21012 30124 40210 57014;EQDQ01  00002PRCP99
0244471120999992000031500004+37480+126630FM-12+007099999V0201401N002619999999N0060001N1+00671-00721102011ADDAA199000091AY121061AY221061GF106991051001999999041021IA1019IA2999+00909KA1120N+00201MA1999999101171MD1710081+9999MW1101REMSYN094AAXX  15004 47112 31956 61405 10067 21072 30117 40201 57008 71022 85042 333 20020 30009 92022;EQDQ01  00002PRCP99
0157471120999992000031503004+37480+126630FM-12+007099999V0201801N003119999999N0120001N1+01321-00841101701ADDAA199000091GF107991999999999999999999MA1999999100891MD1710281+9999REMSYN060AAXX  15034 47112 32962 71806 10132 21084 30089 40170 57028;EQDQ01  00002PRCP99
0163471120999992000031506004+37480+126630FM-12+007099999V0202301N004119999999N0150001N1+01321-01001101331ADDAA199000091GF108991001001999999001021MA1999999100521MD1710371+9999REMSYN066AAXX  15064 47112 32965 82308 10132 21100 30052 40133 57037 80002;EQDQ01  00002PRCP99
0163471120999992000031509004+37480+126630FM-12+007099999V0202901N003119999999N0120001N1+01051-00771101241ADDAA199000091GF108991011051999999011999MA1999999100421MD1710101+9999REMSYN066AAXX  15094 47112 32962 82906 10105 21077 30042 40124 57010 8151/;EQDQ01  00002PRCP99
0222471120999992000031512004+37480+126630FM-12+007099999V0203401N003110360019N0120001N1+00851-00181101111ADDAA199000091GF108991021051008001011999IA1019IA2999+00809KA1120M+01571MA1999999100281MD1710141+9999REMSYN094AAXX  15124 47112 32562 83406 10085 21018 30028 40111 57014 8251/ 333 10157 30008 55041 92011;EQDQ01  00002PRCP99
0163471120999992000031515004+37480+126630FM-12+007099999V0203401N004110360019N0120001N1+00571+00081100961ADDAA199000091GF108991031051008001011999MA1999999100121MD1710161+9999REMSYN066AAXX  15154 47112 32562 83408 10057 20008 30012 40096 57016 8351/;EQDQ01  00002PRCP99
0173471120999992000031518004+37480+126630FM-12+007099999V0200501N001010075019N0100001N1+00461+00271100781ADDAA199000091GF108991051051008001021999MA1999999099951MD1710181+9999REMSYN076AAXX  15184 47112 32560 80502 10046 20027 39995 40078 57018 8552/ 333 92011;EQDQ01  00002PRCP99
0161471120999992000031521004+37480+126630FM-12+007099999V0202901N004610075019N0050001N1+00451+00361100671ADDAY161031AY221031GF108991051051008001021999MA1999999099841MD1710111+9999MW1211REMSYN072AAXX  15214 47112 41550 82909 10045 20036 39984 40067 57011 72162 8552/;
0209471120999992000031600004+37480+126630FM-12+007099999V0203401N005110075019N0100001N1+00401+00191100791ADDAA112000391GF106991061051008001001001IA1019IA2999+00909KA1120N+00321MA1999999099951MD1210111+9999REMSYN100AAXX  16004 47112 11560 63410 10040 20019 39995 40079 52011 69932 86500 333 20032 30009 70003 92033;
0144471120999992000031603004+37480+126630FM-12+007099999V0200501N005110075019N0120001N1+00671+00081100921ADDAA199000021GF106991061051008001001001MA1999999100091MD1210141+9999REMSYN066AAXX  16034 47112 32562 60510 10067 20008 30009 40092 52014 86500;
0154471120999992000031606004+37480+126630FM-12+007099999V0202701N005712200019N0200001N1+00861-00061100951ADDAA199000021GF102991021051008001001001MA1999999100121MD1010031+9999REMSYN076AAXX  16064 47112 32570 22711 10086 21006 30012 40095 50003 82500 333 92033;
0154471120999992000031609004+37480+126630FM-12+007099999V0202901N009312200019N0250001N1+00811-00251101031ADDAA199000021GA1001+999999999GF100991001001999999001001MA1999999100201MD1210071+9999REMSYN060AAXX  16094 47112 32975 02918 10081 21025 30020 40103 52007;
0213471120999992000031612004+37480+126630FM-12+007099999V0203201N007212200019N0120001N1+00521-00131101331ADDAA124000391GA1001+999999999GF100991001001999999001001IA1019IA2999+00409KA1120M+00941MA1999999100491MD1210291+9999REMSYN088AAXX  16124 47112 32962 03214 10052 21013 30049 40133 52029 333 10094 30004 70003 92055;
0173471120999992000031615004+37480+126630FM-12+007099999V0203201N005112200019N0110001N1+00421-00011101501ADDAA199000091GA1001+999999999GF100991001001999999001001MA1999999100651MD1210171+9999REMSYN060AAXX  16154 47112 32961 03210 10042 21001 30065 40150 52017;EQDQ01  00002PRCP99
0201471120999992000031618004+37480+126630FM-12+007099999V0203201N002612200019N0070001N1+00291+00151101611ADDAA199000091AY101061AY201061GA1001+999999999GF100991001001999999001001MA1999999100761MD1210111+9999MW1101REMSYN066AAXX  16184 47112 31957 03205 10029 20015 30076 40161 52011 71000;EQDQ01  00002PRCP99
0185471120999992000031621004+37480+126630FM-12+007099999V0202301N004619999999N0005001N1+00281+00251101751ADDAA199000091AY141031AY241031GF108991999999004501999999MA1999999100901MD1210141+9999MW1471REMSYN066AAXX  16214 47112 31405 82309 10028 20025 30090 40175 52014 74744;EQDQ01  00002PRCP99
0244471120999992000031700004+37480+126630FM-12+007099999V0201801N004610075019N0030001N1+00401+00241101881ADDAA199000091AY121061AY221061GF106991061051008001001001IA1019IA2999+00509KA1120N+00241MA1999999101031MD1210131+9999MW1101REMSYN094AAXX  17004 47112 31530 61809 10040 20024 30103 40188 52013 71022 86500 333 20024 30005 92011;EQDQ01  00002PRCP99
0201471120999992000031703004+37480+126630FM-12+007099999V0201801N004612200019N0080001N1+00971+00321101901ADDAA199000091AY101031AY201031GA1001+999999999GF100991001001999999001001MA1999999101071MD1310041+9999MW1101REMSYN066AAXX  17034 47112 31958 01809 10097 20032 30107 40190 53004 71000;EQDQ01  00002PRCP99
0183471120999992000031706004+37480+126630FM-12+007099999V0202301N005712200019N0100001N1+00971+00191101711ADDAA199000091GA1001+999999999GF100991001001999999001001MA1999999100881MD1710191+9999REMSYN070AAXX  17064 47112 32960 02311 10097 20019 30088 40171 57019 333 92011;EQDQ01  00002PRCP99
0179471120999992000031709004+37480+126630FM-12+007099999V0202301N003612200019N0120001N1+00921+00161101711ADDAA199000091GF101991011051999999001001MA1999999100881MD1410001+9999REMSYN066AAXX  17094 47112 32962 12307 10092 20016 30088 40171 58000 81500;EQDQ01+000082APCTENQ02  00002PRCP99
0232471120999992000031712004+37480+126630FM-12+007099999V0202001N005712200019N0150001N1+00781+00051101841ADDAA199000091GA1001+999999999GF100991001001999999001001IA1019IA2999+00609KA1120M+01311MA1999999101011MD1210131+9999REMSYN088AAXX  17124 47112 32965 02011 10078 20005 30101 40184 52013 333 10131 30006 55079 92033;EQDQ01  00002PRCP99
0163471120999992000031715004+37480+126630FM-12+007099999V0201801N003612200019N0120001N1+00761+00181101871ADDAA199000091GF103991031051008001001001MA1999999101041MD1210031+9999REMSYN066AAXX  17154 47112 32562 31807 10076 20018 30104 40187 52003 83500;EQDQ01  00002PRCP99
0163471120999992000031721004+37480+126630FM-12+007099999V0201801N006710075019N0120001N1+00781+00091101811ADDAA199000091GF107991061051008001011001MA1999999100981MD1710051+9999REMSYN066AAXX  17214 47112 32562 71813 10078 20009 30098 40181 57005 86510;EQDQ01  00002PRCP99
0216471120999992000031800004+37480+126630FM-12+007099999V0202001N007210075019N0200001N1+00901+00241101871ADDAA199000091GF106991061051008001001001IA1019IA2999+01109KA1120N+00741MA1999999101041MD1210061+9999REMSYN088AAXX  18004 47112 32570 62014 10090 20024 30104 40187 52006 86500 333 20074 30011 92044;EQDQ01  00002PRCP99
0133471120999992000031803004+37480+126630FM-12+007099999V0202001N005719999999N0200001N1+01261+99999999999ADDAA199000091GF106991999999008001999999REMSYN065AAXX  18034 47112 32570 62011 10126 2112 30096 40178 55007 86500;EQDQ01  00002PRCP99
0173471120999992000031806004+37480+126630FM-12+007099999V0202001N008710075019N0180001N1+01171+00031101561ADDAA199000091GF107991071051008001001001MA1999999100741MD1710231+9999REMSYN076AAXX  18064 47112 32568 72017 10117 20003 30074 40156 57023 87500 333 92011;EQDQ01  00002PRCP99
0163471120999992000031809004+37480+126630FM-12+007099999V0202001N006210075019N0180001N1+01071+00281101431ADDAA199000091GF107991061051008001011001MA1999999100611MD1810131+9999REMSYN066AAXX  18094 47112 32568 72012 10107 20028 30061 40143 58013 86510;EQDQ01  00002PRCP99
0222471120999992000031812004+37480+126630FM-12+007099999V0202701N004610075019N0150001N1+00911+00461101511ADDAA199000091GF107991051051008001011001IA1019IA2999+00909KA1120M+01381MA1999999100691MD1010081+9999REMSYN094AAXX  18124 47112 32565 72709 10091 20046 30069 40151 50008 85510 333 10138 30009 55022 92011;EQDQ01  00002PRCP99
0163471120999992000031815004+37480+126630FM-12+007099999V0202001N007710360019N0120001N1+00771+00491101481ADDAA199000091GF108991041051008001011999MA1999999100651MD1710041+9999REMSYN066AAXX  18154 47112 32562 82015 10077 20049 30065 40148 57004 8451/;EQDQ01  00002PRCP99
0171471120999992000031818004+37480+126630FM-12+007099999V0202701N006210075019N0050001N1+00561+00461101291ADDAY161061AY221061GF108991061071008001021999MA1999999100461MD1710191+9999MW1601REMSYN082AAXX  18184 47112 41550 82712 10056 20046 30046 40129 57019 76062 8672/ 333 92011;
0161471120999992000031821004+37480+126630FM-12+007099999V0202701N007210360019N0030001N1+00371+00121101341ADDAY121031AY221031GF108991041051008001011999MA1999999100501MD1210041+9999MW1101REMSYN072AAXX  18214 47112 41530 82714 10037 20012 30050 40134 52004 71022 8451/;
0209471120999992000031900004+37480+126630FM-12+007099999V0203201N005110075019N0150001N1+00451+00031101451ADDAA112000791GF106991061051008001001001IA1019IA2999+00709KA1120N+00341MA1999999100611MD1210111+9999REMSYN100AAXX  19004 47112 12565 63210 10045 20003 30061 40145 52011 69902 86500 333 20034 30007 70000 92033;
0144471120999992000031903004+37480+126630FM-12+007099999V0203201N006210075019N0200001N1+00731+00081101541ADDAA199000021GF106991061051008001001001MA1999999100711MD1210111+9999REMSYN066AAXX  19034 47112 32570 63212 10073 20008 30071 40154 52011 86500;
0154471120999992000031906004+37480+126630FM-12+007099999V0203401N004110075019N0250001N1+00881+00071101531ADDAA199000021GF106991051051008001011001MA1999999100701MD1510011+9999REMSYN076AAXX  19064 47112 32575 63408 10088 20007 30070 40153 55001 85510 333 92033;
0163471120999992000031909004+37480+126630FM-12+007099999V0202701N004110360019N0250001N1+00731+00111101661ADDAA199000091GF105991021051008001041001MA1999999100821MD1210121+9999REMSYN066AAXX  19094 47112 32575 52708 10073 20011 30082 40166 52012 82540;EQDQ01  00002PRCP99
0226471120999992000031912004+37480+126630FM-12+007099999V0202501N001512200019N0100001N1+00561+00221101871ADDAA199000091GA1001+999999999GF100991001001999999001001IA1019IA2999+00109KA1120M+01021MA1999999101031MD1210201+9999REMSYN082AAXX  19124 47112 32960 02503 10056 20022 30103 40187 52020 333 10102 30001 92022;EQDQ01  00002PRCP99
0173471120999992000031915004+37480+126630FM-12+007099999V0203401N001512200019N0130001N1+00431+00181101981ADDAA199000091GA1001+999999999GF100991001001999999001001MA1999999101141MD1310111+9999REMSYN060AAXX  19154 47112 32963 03403 10043 20018 30114 40198 53011;EQDQ01  00002PRCP99
0173471120999992000031918004+37480+126630FM-12+007099999V0201801N002612200019N0020001N1+00341+00221102041ADDAA199000091GA1001+999999999GF100991001001999999001001MA1999999101191MD1010051+9999REMSYN060AAXX  19184 47112 32920 01805 10034 20022 30119 40204 50005;EQDQ01  00002PRCP99
0201471120999992000031921004+37480+126630FM-12+007099999V0201801N003612200019N0012001N1+00271+00171102191ADDAA199000091AY101031AY201031GA1001+999999999GF100991001001999999001001MA1999999101331MD1210141+9999MW1101REMSYN066AAXX  19214 47112 31912 01807 10027 20017 30133 40219 52014 71000;EQDQ01  00002PRCP99
0254471120999992000032000004+37480+126630FM-12+007099999V0201601N003112200019N0050001N1+00571+00241102261ADDAA199000091AY101061AY201061GA1001+999999999GF100991001001999999001001IA1019IA2999+01109KA1120N+00241MA1999999101421MD1210081+9999MW1101REMSYN088AAXX  20004 47112 31950 01606 10057 20024 30142 40226 52008 71000 333 20024 30011 92011;EQDQ01  00002PRCP99
0173471120999992000032003004+37480+126630FM-12+007099999V0202001N003612200019N0100001N1+01081+00171102201ADDAA199000091GA1001+999999999GF100991001001999999001001MA1999999101381MD1710041+9999REMSYN060AAXX  20034 47112 32960 02007 10108 20017 30138 40220 57004;EQDQ01  00002PRCP99
0183471120999992000032006004+37480+126630FM-12+007099999V0202501N003612200019N0120001N1+01191-00091102011ADDAA199000091GA1001+999999999GF100991001001999999001001MA1999999101191MD1710191+9999REMSYN070AAXX  20064 47112 32962 02507 10119 21009 30119 40201 57019 333 92011;EQDQ01  00002PRCP99
0163471120999992000032009004+37480+126630FM-12+007099999V0203401N003612200019N0120001N1+00741-00511102021ADDAA199000091GF102991001001999999001011MA1999999101191MD1010001+9999REMSYN066AAXX  20094 47112 32962 23407 10074 21051 30119 40202 50000 80001;EQDQ01  00002PRCP99
0238471120999992000032012004+37480+126630FM-12+007099999V0202301N001512200019N0120001N1+00541-00351102031ADDAA199000091GF103991001001999999001021IA1019IA2999+00409KA1120M+01321MA1999999101181MD1710011+9999REMSYN094AAXX  20124 47112 32962 32303 10054 21035 30118 40203 57000 80002 333 10132 30004 55100 92022;EQDQ01+000002APC3  Q02  00002PRCP99
0163471120999992000032015004+37480+126630FM-12+007099999V0202001N003112200019N0050001N1+00481+00131101971ADDAA199000091GF104991001001999999001071MA1999999101121MD1710061+9999REMSYN066AAXX  20154 47112 31950 42006 10048 20013 30112 40197 57006 80007;EQDQ01  00002PRCP99
0201471120999992000032018004+37480+126630FM-12+007099999V0202001N002612200019N0050001N1+00441+00061102011ADDAA199000091AY111061AY211061GF102991001001999999001021MA1999999101171MD1310041+9999MW1101REMSYN082AAXX  20184 47112 31950 22005 10044 20006 30117 40201 53004 71011 80002 333 92022;EQDQ01  00002PRCP99
0191471120999992000032021004+37480+126630FM-12+007099999V0203401N002110075019N0035001N1+00391+00221102041ADDAA199000091AY121031AY221031GF107991051051008001011001MA1999999101191MD1010031+9999MW1101REMSYN072AAXX  20214 47112 31535 73404 10039 20022 30119 40204 50003 71022 85510;EQDQ01  00002PRCP99
0248471120999992000032100004+37480+126630FM-12+007099999V0203201N002110360019N0130001N1+00611-00011102031ADDAA199000091GF106991021051008001011001IA1019IA2999+00909KA1120N+00361MA1999999101191MD1710011+9999REMSYN088AAXX  21004 47112 32563 63204 10061 21001 30119 40203 52000 82510 333 20036 30009 92022;EQDQ01+000022APCTENQ02+000002APC3  Q03  00002PRCP99
0163471120999992000032103004+37480+126630FM-12+007099999V0203201N003619999999N0170001N1+00901-00311101981ADDAA199000091GF106991031051999999031001MA1999999101151MD1510041+9999REMSYN066AAXX  21034 47112 32967 63207 10090 21031 30115 40198 55004 83530;EQDQ01  00002PRCP99
0183471120999992000032106004+37480+126630FM-12+007099999V0202701N005112200019N0140001N1+01041+00061101791ADDAA199000091GA1001+999999999GF100991001001999999001001MA1999999100971MD1710181+9999REMSYN070AAXX  21064 47112 32964 02710 10104 20006 30097 40179 57018 333 92011;EQDQ01  00002PRCP99
0173471120999992000032109004+37480+126630FM-12+007099999V0202701N004612200019N0160001N1+00811-00371101861ADDAA199000091GA1001+999999999GF100991001001999999001001MA1999999101021MD1010061+9999REMSYN060AAXX  21094 47112 32966 02709 10081 21037 30102 40186 50006;EQDQ01  00002PRCP99
0232471120999992000032112004+37480+126630FM-12+007099999V0203401N003112200019N0150001N1+00561+00171102011ADDAA199000091GA1001+999999999GF100991001001999999001001IA1019IA2999+00409KA1120M+01171MA1999999101171MD1210141+9999REMSYN088AAXX  21124 47112 32965 03406 10056 20017 30117 40201 52014 333 10117 30004 55052 92011;EQDQ01  00002PRCP99
0163471120999992000032115004+37480+126630FM-12+007099999V0203401N001512200019N0120001N1+00561+00111102191ADDAA199000091GF102991021051008001001001MA1999999101351MD1210181+9999REMSYN066AAXX  21154 47112 32562 23403 10056 20011 30135 40219 52018 82500;EQDQ01  00002PRCP99
0211471120999992000032118004+37480+126630FM-12+007099999V0200201N002612200019N0080001N1+00551+00021102281ADDAA199000091AY101061AY201061GA1001+999999999GF100991001001999999001001MA1999999101441MD1210091+9999MW1101REMSYN076AAXX  21184 47112 31958 00205 10055 20002 30144 40228 52009 71000 333 92011;EQDQ01  00002PRCP99
0173471120999992000032121004+37480+126630FM-12+007099999V0200901N002612200019N0120001N1+00511-00171102371ADDAA199000091GA1001+999999999GF100991001001999999001001MA1999999101521MD1210091+9999REMSYN060AAXX  21214 47112 32962 00905 10051 21017 30152 40237 52009;EQDQ01  00002PRCP99
0226471120999992000032200004+37480+126630FM-12+007099999V0201401N004112200019N0120001N1+00951-00111102451ADDAA199000091GA1001+999999999GF100991001001999999001001IA1019IA2999+01709KA1120N+00351MA1999999101621MD1310091+9999REMSYN082AAXX  22004 47112 32962 01408 10095 21011 30162 40245 53009 333 20035 30017 92022;EQDQ01  00002PRCP99
0173471120999992000032203004+37480+126630FM-12+007099999V0201101N003612200019N0200001N1+01491-00171102401ADDAA199000091GA1001+999999999GF100991001001999999001001MA1999999101581MD1710041+9999REMSYN060AAXX  22034 47112 32970 01107 10149 21017 30158 40240 57004;EQDQ01  00002PRCP99
0183471120999992000032206004+37480+126630FM-12+007099999V0202501N004112200019N0250001N1+01681-00261102211ADDAA199000091GA1001+999999999GF100991001001999999001001MA1999999101401MD1710181+9999REMSYN070AAXX  22064 47112 32975 02508 10168 21026 30140 40221 57018 333 92022;EQDQ01  00002PRCP99
0172471120999992000032209004+37480+126630FM-12+007099999V0202701N005112200019N0250001N1+01311-00161102031ADDAA199000091GA1001+999999999GF100991001001999999001001MA1999999101211MD1710191+9999REMSYN059AAXX  22094 47112 3297502710 10131 21016 30121 40203 57019;EQDQ01  00002PRCP99
0216471120999992000032212004+37480+126630FM-12+007099999V0203201N002119999999N0120001N1+01061+00081101971ADDAA199000091GF107991001001999999001021IA1019IA2999+00909KA1120M+01801MA1999999101151MD1510061+9999REMSYN088AAXX  22124 47112 32962 73204 10106 20008 30115 40197 55006 80002 333 10180 30009 92011;EQDQ01  00002PRCP99
0163471120999992000032215004+37480+126630FM-12+007099999V0202501N003610360019N0110001N1+00911+00181102081ADDAA199000091GF108991021051008001011999MA1999999101251MD1310101+9999REMSYN066AAXX  22154 47112 32561 82507 10091 20018 30125 40208 53010 8251/;EQDQ01  00002PRCP99
0171471120999992000032218004+37480+126630FM-12+007099999V0202501N005710075019N0060001N1+00771+00321101941ADDAY161061AY221061GF108991051071008001021999MA1999999101111MD1710141+9999MW1601REMSYN082AAXX  22184 47112 41556 82511 10077 20032 30111 40194 57014 76062 8572/ 333 92044;
0161471120999992000032221004+37480+126630FM-12+007099999V0202301N004612200019N0090001N1+00621+00551101731ADDAY111031AY211031GF102991021051008001001001MA1999999100891MD1810211+9999MW1101REMSYN072AAXX  22214 47112 41559 22309 10062 20055 30089 40173 58021 71011 82500;
0237471120999992000032300004+37480+126630FM-12+007099999V0202701N005710075019N0050001N1+00651+00561101591ADDAA112001091AY161061AY221061GF108991061051008001021999IA1019IA2999+00709KA1120N+00611MA1999999100761MD1710141+9999MW1601REMSYN106AAXX  23004 47112 11550 82711 10065 20056 30076 40159 57014 60012 76062 8652/ 333 20061 30007 70010 92011;
0161471120999992000032303004+37480+126630FM-12+007099999V0202501N005110360019N0050001N1+00751+00621101391ADDAY121031AY221031GF108991041051008001011999MA1999999100561MD1710201+9999MW1061REMSYN072AAXX  23034 47112 41550 82510 10075 20062 30056 40139 57020 70622 8451/;
0171471120999992000032306004+37480+126630FM-12+007099999V0202701N007710360019N0030001N1+00771+00471101071ADDAY121061AY221061GF108991031051004501011999MA1999999100241MD1710321+9999MW1061REMSYN082AAXX  23064 47112 41430 82715 10077 20047 30024 40107 57032 70622 8351/ 333 92011;
0161471120999992000032309004+37480+126630FM-12+007099999V0202901N005710360019N0008001N1+00701+00341101011ADDAY121031AY221031GF108991031051008001021999MA1999999100181MD1710061+9999MW1061REMSYN072AAXX  23094 47112 41508 82911 10070 20034 30018 40101 57006 70622 8352/;
0224471120999992000032312004+37480+126630FM-12+007099999V0202901N007210360019N0012001N1+00611+00031101231ADDAA112000191AY121061AY221061GF107991021051008001011001IA1019IA2999+00509MA1999999100391MD1210211+9999MW1061REMSYN106AAXX  23124 47112 11512 72914 10061 20003 30039 40123 52021 69922 70622 82510 333 30005 55000 70012 92044;
0201471120999992000032315004+37480+126630FM-12+007099999V0202901N008212200019N0012001N1+00581-00141101261ADDAA199000091AY101031AY201031GA1001+999999999GF100991001001999999001001MA1999999100431MD1210031+9999MW1101REMSYN066AAXX  23154 47112 31912 02916 10058 21014 30043 40126 52003 71000;EQDQ01  00002PRCP99
0211471120999992000032318004+37480+126630FM-12+007099999V0203201N007212200019N0030001N1+00511-00351101281ADDAA199000091AY101061AY201061GA1001+999999999GF100991001001999999001001MA1999999100441MD1310021+9999MW1061REMSYN076AAXX  23184 47112 31930 03214 10051 21035 30044 40128 53002 70600 333 92044;EQDQ01  00002PRCP99
0217471120999992000032321004+37480+126630FM-12+007099999V0203201N010812200019N0030001N1+00461-00961101291ADDAA199000091AY101031AY201031GA1001+999999999GF100991001001999999001001MA1999999100451MD1710011+9999MW1061REMSYN066AAXX  23214 47112 31930 03221 10046 21096 30045 40129 57000 70600;EQDQ01+000002APC3  Q02  00002PRCP99
0241471120999992000032400004+37480+126630FM-12+007099999V0203201N010812200019N0130001N1+00481-01091101511ADDAA124000391AY101061AY201061GA1001+999999999GF100991001001999999001001IA1019IA2999+00909KA1120N+00401MA1999999100671MD1210221+9999MW1061REMSYN094AAXX  24004 47112 32963 03221 10048 21109 30067 40151 52022 70600 333 20040 30009 70002 92044;
0201471120999992000032403004+37480+126630FM-12+007099999V0203201N012312200019N0170001N1+00641-01251101561ADDAA199000091AY101031AY201031GA1001+999999999GF100991001001999999001001MA1999999100721MD1310051+9999MW1061REMSYN066AAXX  24034 47112 31967 03224 10064 21125 30072 40156 53005 70600;EQDQ01  00002PRCP99
0211471120999992000032406004+37480+126630FM-12+007099999V0203201N012312200019N0190001N1+00691-01271101551ADDAA199000091AY101061AY201061GA1001+999999999GF100991001001999999001001MA1999999100721MD1510001+9999MW1061REMSYN076AAXX  24064 47112 31969 03224 10069 21127 30072 40155 55000 70600 333 92066;EQDQ01  00002PRCP99
0173471120999992000032409004+37480+126630FM-12+007099999V0203201N009812200019N0170001N1+00591-01011101631ADDAA199000091GA1001+999999999GF100991001001999999001001MA1999999100791MD1210081+9999REMSYN060AAXX  24094 47112 32967 03219 10059 21101 30079 40163 52008;EQDQ01  00002PRCP99
0232471120999992000032412004+37480+126630FM-12+007099999V0203201N007212200019N0150001N1+00411-01021101881ADDAA199000091GA1001+999999999GF100991001001999999001001IA1019IA2999+00309KA1120M+00731MA1999999101031MD1210241+9999REMSYN088AAXX  24124 47112 32965 03214 10041 21102 30103 40188 52024 333 10073 30003 55102 92022;EQDQ01  00002PRCP99
0173471120999992000032415004+37480+126630FM-12+007099999V0203201N006212200019N0150001N1+00351-00691102041ADDAA199000091GA1001+999999999GF100991001001999999001001MA1999999101191MD1210161+9999REMSYN060AAXX  24154 47112 32965 03212 10035 21069 30119 40204 52016;EQDQ01  00002PRCP99
0183471120999992000032418004+37480+126630FM-12+007099999V0203201N005712200019N0150001N1+00351-00691102101ADDAA199000091GA1001+999999999GF100991001001999999001001MA1999999101251MD1310061+9999REMSYN070AAXX  24184 47112 32965 03211 10035 21069 30125 40210 53006 333 92022;EQDQ01  00002PRCP99
0173471120999992000032421004+37480+126630FM-12+007099999V0202701N003612200019N0150001N1+00301-00481102061ADDAA199000091GA1001+999999999GF100991001001999999001001MA1999999101211MD1810041+9999REMSYN060AAXX  24214 47112 32965 02707 10030 21048 30121 40206 58004;EQDQ01  00002PRCP99
0226471120999992000032500004+37480+126630FM-12+007099999V0202701N007712200019N0250001N1+00571-00101102111ADDAA199000091GA1001+999999999GF100991001001999999001001IA1019IA2999+01309KA1120N+00291MA1999999101261MD1210051+9999REMSYN082AAXX  25004 47112 32975 02715 10057 21010 30126 40211 52005 333 20029 30013 92033;EQDQ01  00002PRCP99
0158471120999992000032503004+37480+126630FM-12+007099999V0202301N005112200019N0250001N1+00911-00221999999ADDAA199000091GA1001+999999999GF100991001001999999001001MA1999999101141REMSYN059AAXX  25034 47112 32975 02310 10091 21022 30114 0197 57012;EQDQ01  00002PRCP99
0173471120999992000032506004+37480+126630FM-12+007099999V0202701N009312200019N0140001N1+00941+00221101671ADDAA199000091GF101991011051999999001001MA1999999100851MD1710301+9999REMSYN076AAXX  25064 47112 32964 12718 10094 20022 30085 40167 57030 81500 333 92055;EQDQ01  00002PRCP99
0173471120999992000032509004+37480+126630FM-12+007099999V0202701N007212200019N0160001N1+00791+00151101611ADDAA199000091GA1001+999999999GF100991001001999999001001MA1999999100781MD1810061+9999REMSYN060AAXX  25094 47112 32966 02714 10079 20015 30078 40161 58006;EQDQ01  00002PRCP99
0220471120999992000032512004+37480+126630FM-12+007099999V0203401N004612200019N0250001N1+00671-00421101861ADDAA199000091GA1001+999999999GF100991001001999999001001IA1019IA2999+00409KA1120M+01041MA1999999101021MD1210241+9999REMSYN076AAXX  25124 47112 3//75 03409 10067 21042 30102 40186 52024 333 10104 30004;EQDQ01  00002PRCP99
0173471120999992000032515004+37480+126630FM-12+007099999V0202701N004612200019N0220001N1+00531-00041101891ADDAA199000091GA1001+999999999GF100991001001999999001001MA1999999101041MD1210031+9999REMSYN060AAXX  25154 47112 32972 02709 10053 21004 30104 40189 52003;EQDQ01  00002PRCP99
0183471120999992000032518004+37480+126630FM-12+007099999V0203201N002112200019N0220001N1+00451-00071101891ADDAA199000091GA1001+999999999GF100991001001999999001001MA1999999101041MD1510001+9999REMSYN070AAXX  25184 47112 32972 03204 10045 21007 30104 40189 55000 333 92022;EQDQ01  00002PRCP99
0163471120999992000032521004+37480+126630FM-12+007099999V0202301N002112200019N0120001N1+00341+00051101871ADDAA199000091GF102991021051999999001001MA1999999101021MD1710021+9999REMSYN066AAXX  25214 47112 32962 22304 10034 20005 30102 40187 57002 82500;EQDQ01  00002PRCP99
0216471120999992000032600004+37480+126630FM-12+007099999V0202001N002112200019N0120001N1+00721+00071101891ADDAA199000091GF101991011051008001001001IA1019IA2999+01909KA1120N+00341MA1999999101051MD1210031+9999REMSYN088AAXX  26004 47112 32562 12004 10072 20007 30105 40189 52003 81500 333 20034 30019 92011;EQDQ01  00002PRCP99
0173471120999992000032603004+37480+126630FM-12+007099999V0202301N004612200019N0180001N1+01101-00561101741ADDAA199000091GA1001+999999999GF100991001001999999001001MA1999999100921MD1710131+9999REMSYN060AAXX  26034 47112 32968 02309 10110 21056 30092 40174 57013;EQDQ01  00002PRCP99
0183471120999992000032606004+37480+126630FM-12+007099999V0202301N004612200019N0120001N1+01331+00121101521ADDAA199000091GA1001+999999999GF100991001001999999001001MA1999999100711MD1710211+9999REMSYN070AAXX  26064 47112 32962 02309 10133 20012 30071 40152 57021 333 92011;EQDQ01  00002PRCP99
0201471120999992000032609004+37480+126630FM-12+007099999V0202001N003612200019N0080001N1+00871+00511101381ADDAA199000091AY101031AY201031GA1001+999999999GF100991001001999999001001MA1999999100551MD1710151+9999MW1101REMSYN066AAXX  26094 47112 31958 02007 10087 20051 30055 40138 57015 71000;EQDQ01  00002PRCP99
0260471120999992000032612004+37480+126630FM-12+007099999V0202001N003612200019N0050001N1+00671+00511101431ADDAA199000091AY101061AY201061GA1001+999999999GF100991001001999999001001IA1019IA2999+00509KA1120M+01361MA1999999100591MD1310041+9999MW1101REMSYN094AAXX  26124 47112 31950 02007 10067 20051 30059 40143 53004 71000 333 10136 30005 55101 92022;EQDQ01  00002PRCP99
0201471120999992000032615004+37480+126630FM-12+007099999V0201801N004112200019N0030001N1+00751+00511101361ADDAA199000091AY101031AY201031GA1001+999999999GF100991001001999999001001MA1999999100531MD1710061+9999MW1101REMSYN066AAXX  26154 47112 31930 01808 10075 20051 30053 40136 57006 71000;EQDQ01  00002PRCP99
0211471120999992000032618004+37480+126630FM-12+007099999V0201801N005712200019N0030001N1+00691+00451101271ADDAA199000091AY101061AY201061GA1001+999999999GF100991001001999999001001MA1999999100441MD1710091+9999MW1101REMSYN076AAXX  26184 47112 31930 01811 10069 20045 30044 40127 57009 71000 333 92033;EQDQ01  00002PRCP99
0201471120999992000032621004+37480+126630FM-12+007099999V0201601N004612200019N0030001N1+00721+00261101191ADDAA199000091AY101031AY201031GA1001+999999999GF100991001001999999001001MA1999999100361MD1810081+9999MW1101REMSYN066AAXX  26214 47112 31930 01609 10072 20026 30036 40119 58008 71000;EQDQ01  00002PRCP99
0226471120999992000032700004+37480+126630FM-12+007099999V0201801N007212200019N0080001N1+01111+00021101111ADDAA199000091GA1001+999999999GF100991001001999999001001IA1019IA2999+01509KA1120N+00651MA1999999100301MD1710061+9999REMSYN082AAXX  27004 47112 32958 01814 10111 20002 30030 40111 57006 333 20065 30015 92044;EQDQ01  00002PRCP99
0191471120999992000032703004+37480+126630FM-12+007099999V0202001N008712200019N0090001N1+01641+00261100951ADDAA199000091AY101031AY201031GF102991011001999999041011MA1999999100151MD1710141+9999MW1061REMSYN072AAXX  27034 47112 31959 22017 10164 20026 30015 40095 57014 70600 81041;EQDQ01  00002PRCP99
0201471120999992000032706004+37480+126630FM-12+007099999V0201801N006710360019N0090001N1+01821+00301100631ADDAA199000091AY121061AY221061GF108991021051008001011999MA1999999099841MD1710311+9999MW1061REMSYN082AAXX  27064 47112 31559 81813 10182 20030 39984 40063 57031 70622 8251/ 333 92044;EQDQ01  00002PRCP99
0191471120999992000032709004+37480+126630FM-12+007099999V0201801N007710360019N0090001N1+01601+00031100461ADDAA199000091AY121031AY221031GF108991031051008001011999MA1999999099661MD1710181+9999MW1061REMSYN072AAXX  27094 47112 31559 81815 10160 20003 39966 40046 57018 70622 8351/;EQDQ01  00002PRCP99
0250471120999992000032712004+37480+126630FM-12+007099999V0201801N007210360019N0090001N1+01531-00051100521ADDAA199000091AY121061AY221061GF108991031051008001021999IA1019IA2999+01409KA1120M+01851MA1999999099731MD1210071+9999MW1061REMSYN100AAXX  27124 47112 31559 81814 10153 21005 39973 40052 52007 70622 8352/ 333 10185 30014 55051 92022;EQDQ01  00002PRCP99
0161471120999992000032715004+37480+126630FM-12+007099999V0201801N011810360019N0100001N1+01201+00611100331ADDAY161031AY221031GF108991041051008001011999MA1999999099521MD1710211+9999MW1211REMSYN072AAXX  27154 47112 41560 81823 10120 20061 39952 40033 57021 72162 8451/;
0182471120999992000032718004+37480+126630FM-12+007099999V0201801N008710360019N0090001N1+01171+00671100171ADDAA199000021AY121061AY221061GF108991031051008001011999MA1999999099361MD1710161+9999MW1061REMSYN082AAXX  27184 47112 31559 81817 10117 20067 39936 40017 57016 70622 8351/ 333 92022;
0172471120999992000032721004+37480+126630FM-12+007099999V0201801N005710360019N0090001N1+01201+00591100031ADDAA199000021AY121031AY221031GF108991021051008001011999MA1999999099221MD1810141+9999MW1061REMSYN072AAXX  27214 47112 31559 81811 10120 20059 39922 40003 58014 70622 8251/;
0237471120999992000032800004+37480+126630FM-12+007099999V0202001N007210360019N0100001N1+01141+00721100001ADDAA112001091AY121061AY221061GF108991021051008001011999IA1019IA2999+01209KA1120N+01101MA1999999099191MD1510031+9999MW1061REMSYN106AAXX  28004 47112 11560 82014 10114 20072 39919 40000 55003 60012 70622 8251/ 333 20110 30012 70012 92044;
0191471120999992000032803004+37480+126630FM-12+007099999V0202301N004619999999N0120001N1+01011+00701100001ADDAA199000021AY121031AY221031GF106991061001999999011001MA1999999099191MD1410001+9999MW1061REMSYN072AAXX  28034 47112 31962 62309 10101 20070 39919 40000 53000 70622 86010;EQDQ01+000032APCTEN
0201471120999992000032806004+37480+126630FM-12+007099999V0202301N005710360019N0015001N1+00921+00571099961ADDAA199000091AY121061AY221061GF106991021051008001011001MA1999999099141MD1810051+9999MW1061REMSYN082AAXX  28064 47112 31515 62311 10092 20057 39914 49996 58005 70622 82510 333 92033;EQDQ01  00002PRCP99
0191471120999992000032809004+37480+126630FM-12+007099999V0203201N010310075019N0030001N1+00951+00491100071ADDAA199000091AY121031AY221031GF106991051051008001011001MA1999999099261MD1210121+9999MW1061REMSYN072AAXX  28094 47112 31530 63220 10095 20049 39926 40007 52012 70622 85510;EQDQ01  00002PRCP99
0231471120999992000032812004+37480+126630FM-12+007099999V0203201N007210360019N0070001N1+00701+00391100351ADDAA124001391AY121061AY221061GF108991021051008001011999IA1019IA2999+00709KA1120M+01281MA1999999099521MD1210261+9999MW1061REMSYN100AAXX  28124 47112 31557 83214 10070 20039 39952 40035 52026 70622 8251/ 333 10128 30007 70012 92044;
0191471120999992000032815004+37480+126630FM-12+007099999V0203201N007210075019N0100001N1+00571+00221100491ADDAA199000091AY121031AY221031GF107991071051008001001001MA1999999099661MD1210141+9999MW1101REMSYN072AAXX  28154 47112 31560 73214 10057 20022 39966 40049 52014 71022 87500;EQDQ01  00002PRCP99
0173471120999992000032818004+37480+126630FM-12+007099999V0203401N004612200019N0220001N1+00551+00041100651ADDAA199000091GF104991041051008001001001MA1999999099821MD1210161+9999REMSYN076AAXX  28184 47112 32572 43409 10055 20004 39982 40065 52016 84500 333 92044;EQDQ01  00002PRCP99
0173471120999992000032821004+37480+126630FM-12+007099999V0203401N004612200019N0200001N1+00491-00061100831ADDAA199000091GA1001+999999999GF100991001001999999001001MA1999999099991MD1210181+9999REMSYN060AAXX  28214 47112 32970 03409 10049 21006 39999 40083 52018;EQDQ01  00002PRCP99
0226471120999992000032900004+37480+126630FM-12+007099999V0203201N007212200019N0180001N1+00641-00091101051ADDAA199000091GA1001+999999999GF100991001001999999001001IA1019IA2999+01309KA1120N+00471MA1999999100221MD1210231+9999REMSYN082AAXX  29004 47112 32968 03214 10064 21009 30022 40105 52023 333 20047 30013 92022;EQDQ01  00002PRCP99
0163471120999992000032903004+37480+126630FM-12+007099999V0203201N006212200019N0150001N1+01001-00131101201ADDAA199000091GF102991021051008001001001MA1999999100381MD1210161+9999REMSYN066AAXX  29034 47112 32565 23212 10100 21013 30038 40120 52016 82500;EQDQ01  00002PRCP99
0183471120999992000032906004+37480+126630FM-12+007099999V0202901N009812200019N0150001N1+01041-00061101111ADDAA199000091GA1001+999999999GF100991001001999999001001MA1999999100291MD1710091+9999REMSYN070AAXX  29064 47112 32965 02919 10104 21006 30029 40111 57009 333 92022;EQDQ01  00002PRCP99
0173471120999992000032909004+37480+126630FM-12+007099999V0202901N006212200019N0120001N1+00891+00081101171ADDAA199000091GA1001+999999999GF100991001001999999001001MA1999999100341MD1210061+9999REMSYN060AAXX  29094 47112 32962 02912 10089 20008 30034 40117 52006;EQDQ01  00002PRCP99
0232471120999992000032912004+37480+126630FM-12+007099999V0203201N007212200019N0200001N1+00791-00241101331ADDAA199000091GA1001+999999999GF100991001001999999001001IA1019IA2999+00709KA1120M+01101MA1999999100501MD1210151+9999REMSYN088AAXX  29124 47112 32970 03214 10079 21024 30050 40133 52015 333 10110 30007 55106 92044;EQDQ01  00002PRCP99
0173471120999992000032915004+37480+126630FM-12+007099999V0203201N003612200019N0200001N1+00691-00111101411ADDAA199000091GA1001+999999999GF100991001001999999001001MA1999999100581MD1310081+9999REMSYN060AAXX  29154 47112 32970 03207 10069 21011 30058 40141 53008;EQDQ01  00002PRCP99
0131471120999992000032918004+37480+126630FM-12+007099999V0202901N007219999999N9999999N1+00651-00031101401ADDAA199000091MA1999999100561MD1510011+9999REMSYN060AAXX  29184 47112 3//// /2914 10065 21003 30056 40140 55001;EQDQ01  00002PRCP99
0173471120999992000032921004+37480+126630FM-12+007099999V0202301N002612200019N0120001N1+00461+00211101461ADDAA199000091GA1001+999999999GF100991001001999999001001MA1999999100621MD1210061+9999REMSYN060AAXX  29214 47112 32962 02305 10046 20021 30062 40146 52006;EQDQ01  00002PRCP99
0216471120999992000033000004+37480+126630FM-12+007099999V0200501N002119999999N0120001N1+00841+00151101571ADDAA199000091GF106991001001999999001011IA1019IA2999+01909KA1120N+00461MA1999999100741MD1210121+9999REMSYN088AAXX  30004 47112 32962 60504 10084 20015 30074 40157 52012 80001 333 20046 30019 92011;EQDQ01  00002PRCP99
0163471120999992000033003004+37480+126630FM-12+007099999V0202001N005712200019N0150001N1+01081+00281101451ADDAA199000091GF102991011001999999041011MA1999999100631MD1710111+9999REMSYN066AAXX  30034 47112 32965 22011 10108 20028 30063 40145 57011 81041;EQDQ01  00002PRCP99
0183471120999992000033006004+37480+126630FM-12+007099999V0202701N004112200019N0130001N1+01161-00421101311ADDAA199000091GA1001+999999999GF100991001001999999001001MA1999999100501MD1710131+9999REMSYN070AAXX  30064 47112 32963 02708 10116 21042 30050 40131 57013 333 92033;EQDQ01  00002PRCP99
0163471120999992000033009004+37480+126630FM-12+007099999V0202501N003619999999N0200001N1+00881-00081101221ADDAA199000091GF106991001001999999001021MA1999999100391MD1710111+9999REMSYN066AAXX  30094 47112 32970 62507 10088 21008 30039 40122 57011 80002;EQDQ01  00002PRCP99
0222471120999992000033012004+37480+126630FM-12+007099999V0202301N003119999999N0180001N1+00741+00431101231ADDAA199000091GF106991001001999999001021IA1019IA2999+00609KA1120M+01231MA1999999100401MD1010011+9999REMSYN094AAXX  30124 47112 32968 62306 10074 20043 30040 40123 50001 80002 333 10123 30006 55082 92011;EQDQ01  00002PRCP99
0163471120999992000033015004+37480+126630FM-12+007099999V0201801N004119999999N0180001N1+00781+00261101181ADDAA199000091GF105991021001999999031021MA1999999100351MD1510051+9999REMSYN066AAXX  30154 47112 32968 51808 10078 20026 30035 40118 55005 82032;EQDQ01  00002PRCP99
0173471120999992000033018004+37480+126630FM-12+007099999V0201401N002119999999N0180001N1+00801-00061101051ADDAA199000091GF105991001001999999001011MA1999999100231MD1810121+9999REMSYN076AAXX  30184 47112 32968 51404 10080 21006 30023 40105 58012 80001 333 92011;EQDQ01  00002PRCP99
0163471120999992000033021004+37480+126630FM-12+007099999V0200701N001019999999N0180001N1+00741-00311100951ADDAA199000091GF105991001001999999001011MA1999999100121MD1810111+9999REMSYN066AAXX  30214 47112 32968 50702 10074 21031 30012 40095 58011 80001;EQDQ01  00002PRCP99
0244471120999992000033100004+37480+126630FM-12+007099999V0203401N002110360019N0050001N1+00831+00161101021ADDAA199000091AY121061AY221061GF108991041051008001011999IA1019IA2999+01209KA1120N+00701MA1999999100191MD1210081+9999MW1101REMSYN094AAXX  31004 47112 31550 83404 10083 20016 30019 40102 52008 71022 8451/ 333 20070 30012 92022;EQDQ01  00002PRCP99
0163471120999992000033103004+37480+126630FM-12+007099999V0203201N003619999999N0120001N1+01311-00071101031ADDAA199000091GF106991031001999999061021MA1999999100221MD1310021+9999REMSYN066AAXX  31034 47112 31962 63207 10131 21007 30022 40103 53002 83062;EQDQ01  00002PRCP99
0183471120999992000033106004+37480+126630FM-12+007099999V0202901N004612200019N0150001N1+01471+00381100951ADDAA199000091GA1001+999999999GF100991001001999999001001MA1999999100151MD1810071+9999REMSYN070AAXX  31064 47112 32965 02909 10147 20038 30015 40095 58007 333 92022;EQDQ01  00002PRCP99
0179471120999992000033109004+37480+126630FM-12+007099999V0202901N005712200019N0250001N1+01281-00051101021ADDAA199000091GA1001+999999999GF100991001001999999001001MA1999999100211MD1210061+9999REMSYN066AAXX  31094 47112 32975 02911 10128 21005 30021 40102 52006 80001;EQDQ01  00002PRCP99
0220471120999992000033112004+37480+126630FM-12+007099999V0203401N005712200019N0250001N1+00931-00441101451ADDAA199000091GA1001+999999999GF100991001001999999001001IA1019IA2999+00709KA1120M+01571MA1999999100621MD1210411+9999REMSYN076AAXX  31124 47112 32975 03411 10093 21044 30062 40145 52041 333 10157 30007;EQDQ01  00002PRCP99
0173471120999992000033115004+37480+126630FM-12+007099999V0203401N004612200019N0250001N1+00741-00371101731ADDAA199000091GA1001+999999999GF100991001001999999001001MA1999999100901MD1210271+9999REMSYN060AAXX  31154 47112 32975 03409 10074 21037 30090 40173 52027;EQDQ01  00002PRCP99
0183471120999992000033118004+37480+126630FM-12+007099999V0203401N001512200019N0250001N1+00691-01061101831ADDAA199000091GA1001+999999999GF100991001001999999001001MA1999999100991MD1310091+9999REMSYN070AAXX  31184 47112 32975 03403 10069 21106 30099 40183 53009 333 92000;EQDQ01  00002PRCP99
0173471120999992000033121004+37480+126630FM-12+007099999V0203401N003612200019N0220001N1+00531-00011101991ADDAA199000091GA1001+999999999GF100991001001999999001001MA1999999101141MD1210151+9999REMSYN060AAXX  31214 47112 32972 03407 10053 21001 30114 40199 52015;EQDQ01  00002PRCP99
0226471120999992000040100004+37480+126630FM-12+007099999V0203201N001512200019N0150001N1+00921+00121102111ADDAA199000091GA1001+999999999GF100991001001999999001001IA1019IA2999+02109KA1120N+00451MA1999999101281MD1210141+9999REMSYN082AAXX  01004 47112 32965 03203 10092 20012 30128 40211 52014 333 20045 30021 92011;EQDQ01  00002PRCP99
0173471120999992000040103004+37480+126630FM-12+007099999V0202001N003612200019N0150001N1+01481-00881102111ADDAA199000091GA1001+999999999GF100991001001999999001001MA1999999101301MD1310021+9999REMSYN060AAXX  01034 47112 32965 02007 10148 21088 30130 40211 53002;EQDQ01  00002PRCP99
0173471120999992000040106004+37480+126630FM-12+007099999V0202701N004119999999N0250001N1+01461-01431101981ADDAA199000091GF106991001001999999001011MA1999999101161MD1710141+9999REMSYN076AAXX  01064 47112 32975 62708 10146 21143 30116 40198 57014 80001 333 92022;EQDQ01  00002PRCP99
0163471120999992000040109004+37480+126630FM-12+007099999V0203401N002610360019N0250001N1+01171-01541102021ADDAA199000091GF107991041051008001011001MA1999999101201MD1010041+9999REMSYN066AAXX  01094 47112 32575 73405 10117 21154 30120 40202 50004 84510;EQDQ01  00002PRCP99
0232471120999992000040112004+37480+126630FM-12+007099999V0203201N003612200019N0250001N1+00981-00791102141ADDAA199000091GA1001+999999999GF100991001001999999001001IA1019IA2999+00809KA1120M+01601MA1999999101311MD1210111+9999REMSYN088AAXX  01124 47112 32975 03207 10098 21079 30131 40214 52011 333 10160 30008 55097 92022;EQDQ01  00002PRCP99
0173471120999992000040115004+37480+126630FM-12+007099999V0202001N003112200019N0200001N1+00771+00051102191ADDAA199000091GA1001+999999999GF100991001001999999001001MA1999999101361MD1310051+9999REMSYN060AAXX  01154 47112 32970 02006 10077 20005 30136 40219 53005;EQDQ01  00002PRCP99
0131471120999992000040118004+37480+126630FM-12+007099999V0200901N001519999999N9999999N1+00851-00241102161ADDAA199000091MA1999999101331MD1510031+9999REMSYN060AAXX  01184 47112 3//// /0903 10085 21024 30133 40216 55003;EQDQ01  00002PRCP99
0163471120999992000040121004+37480+126630FM-12+007099999V0200501N001510075019N0120001N1+00771-00251102171ADDAA199000091GF108991051051008001011999MA1999999101331MD1010001+9999REMSYN066AAXX  01214 47112 32562 80503 10077 21025 30133 40217 50000 8551/;EQDQ01  00002PRCP99
0197471120999992000040200004+37480+126630FM-12+007099999V0200701N002119999999N0110001N1+00971-00331102281ADDAA199000091GF108991999999999999999999KA1120N+00741MA1999999101451MD1310111+9999REMSYN087AAXX  02004 47112 32961 80704 10097 21033 30145 40228 53011 8651 333 20074 30010 92022;EQDQ01  00002PRCP99
0163471120999992000040203004+37480+126630FM-12+007099999V0200701N002619999999N0110001N1+01281-00361102331ADDAA199000091GF108991031051999999011999MA1999999101511MD1310061+9999REMSYN066AAXX  02034 47112 32961 80705 10128 21036 30151 40233 53006 8351/;EQDQ01  00002PRCP99
0163471120999992000040206004+37480+126630FM-12+007099999V0200701N003112200019N0150001N1+01701-00251102031ADDAA199000091GF101991011051012501001001MA1999999101221MD1710291+9999REMSYN066AAXX  02064 47112 32665 10706 10170 21025 30122 40203 57029 81500;EQDQ01  00002PRCP99
0163471120999992000040209004+37480+126630FM-12+007099999V0200701N003112200019N0180001N1+01571-00031101991ADDAA199000091GF102991021001999999031001MA1999999101181MD1810041+9999REMSYN066AAXX  02094 47112 32968 20706 10157 21003 30118 40199 58004 82030;EQDQ01  00002PRCP99
0222471120999992000040212004+37480+126630FM-12+007099999V0203601N002612200019N0150001N1+01131+00281102131ADDAA199000091GF102991001001999999001011IA1019IA2999+00909KA1120M+01771MA1999999101301MD1010121+9999REMSYN094AAXX  02124 47112 32965 23605 10113 20028 30130 40213 50012 80001 333 10177 30009 55024 92011;EQDQ01  00002PRCP99
0173471120999992000040215004+37480+126630FM-12+007099999V0200201N001512200019N0150001N1+01011+00271102161ADDAA199000091GA1001+999999999GF100991001001999999001001MA1999999101331MD1210031+9999REMSYN060AAXX  02154 47112 32965 00203 10101 20027 30133 40216 52003;EQDQ01  00002PRCP99
0173471120999992000040218004+37480+126630FM-12+007099999V0200201N002619999999N0150001N1+00861+00201102121ADDAA199000091GF105991051001999999031001MA1999999101281MD1510051+9999REMSYN076AAXX  02184 47112 32965 50205 10086 20020 30128 40212 55005 85030 333 92011;EQDQ01  00002PRCP99
0173471120999992000040221004+37480+126630FM-12+007099999V0203601N002612200019N0180001N1+00841+00221102081ADDAA199000091GA1001+999999999GF100991001001999999001001MA1999999101241MD1710041+9999REMSYN060AAXX  02214 47112 32968 03605 10084 20022 30124 40208 57004;EQDQ01  00002PRCP99
0210471120999992000040300004+37480+126630FM-12+007099999V0200701N003119999999N0150001N1+01181+00351102191ADDAA199000091GF106991999999999999999999IA1019IA2999+02509KA1120N+00781MA1999999101371MD1210121+9999REMSYN082AAXX  03004 47112 32965 60706 10118 20035 30137 40219 52012 333 20078 30025 92022;EQDQ01  00002PRCP99
0173471120999992000040303004+37480+126630FM-12+007099999V0203601N003612200019N0200001N1+01691+00231102121ADDAA199000091GA1001+999999999GF100991001001999999001001MA1999999101311MD1510061+9999REMSYN060AAXX  03034 47112 32970 03607 10169 20023 30131 40212 55006;EQDQ01  00002PRCP99
0183471120999992000040306004+37480+126630FM-12+007099999V0202501N005712200019N0250001N1+01691+00181101891ADDAA199000091GA1001+999999999GF100991001001999999001001MA1999999101081MD1710231+9999REMSYN070AAXX  03064 47112 32975 02511 10169 20018 30108 40189 57023 333 92022;EQDQ01  00002PRCP99
0163471120999992000040309004+37480+126630FM-12+007099999V0202901N004119999999N0250001N1+01531+00311101731ADDAA199000091GF106991001001999999001021MA1999999100921MD1710161+9999REMSYN066AAXX  03094 47112 32975 62908 10153 20031 30092 40173 57016 80002;EQDQ01  00002PRCP99
0226471120999992000040312004+37480+126630FM-12+007099999V0200201N002612200019N0200001N1+01121+00321101831ADDAA199000091GA1001+999999999GF100991001001999999001001IA1019IA2999+00909KA1120M+01811MA1999999101011MD1210081+9999REMSYN082AAXX  03124 47112 32970 00205 10112 20032 30101 40183 52008 333 10181 30009 92011;EQDQ01  00002PRCP99
0163471120999992000040315004+37480+126630FM-12+007099999V0203401N002112200019N0200001N1+00981+00361101791ADDAA199000091GF102991001001999999001011MA1999999100961MD1710051+9999REMSYN066AAXX  03154 47112 32970 23404 10098 20036 30096 40179 57005 80001;EQDQ01  00002PRCP99
0173471120999992000040318004+37480+126630FM-12+007099999V0202001N004612200019N0130001N1+00811+00581101791ADDAA199000091GF102991021001999999041001MA1999999100961MD1010001+9999REMSYN076AAXX  03184 47112 32963 22009 10081 20058 30096 40179 50000 82040 333 92033;EQDQ01  00002PRCP99
0201471120999992000040321004+37480+126630FM-12+007099999V0201401N002112200019N0009001N1+00931+00471101711ADDAA199000091AY141031AY221031GA1001+999999999GF100991001001999999001001MA1999999100881MD1710081+9999MW1441REMSYN066AAXX  03214 47112 31509 01404 10093 20047 30088 40171 57008 74442;EQDQ01  00002PRCP99
0254471120999992000040400004+37480+126630FM-12+007099999V0201601N004112200019N0060001N1+01441+00321101721ADDAA199000091AY101061AY201061GA1001+999999999GF100991001001999999001001IA1019IA2999+02209KA1120N+00791MA1999999100901MD1010021+9999MW1101REMSYN088AAXX  04004 47112 31956 01608 10144 20032 30090 40172 50002 71000 333 20079 30022 92011;EQDQ01  00002PRCP99
0163471120999992000040403004+37480+126630FM-12+007099999V0202001N005119999999N0130001N1+01881+00271101641ADDAA199000091GF105991001001999999001021MA1999999100851MD1710061+9999REMSYN066AAXX  04034 47112 32963 52010 10188 20027 30085 40164 57006 80002;EQDQ01  00002PRCP99
0173471120999992000040406004+37480+126630FM-12+007099999V0202501N004619999999N0150001N1+01851+00051101421ADDAA199000091GF105991001001999999001011MA1999999100631MD1710221+9999REMSYN076AAXX  04064 47112 32965 52509 10185 20005 30063 40142 57022 80001 333 92011;EQDQ01  00002PRCP99
0163471120999992000040409004+37480+126630FM-12+007099999V0202901N004619999999N0150001N1+01461+00121101341ADDAA199000091GF106991001001999999001021MA1999999100531MD1710091+9999REMSYN066AAXX  04094 47112 32965 62909 10146 20012 30053 40134 57009 80002;EQDQ01  00002PRCP99
0209471120999992000040412004+37480+126630FM-12+007099999V0203601N000512200019N0150001N1+01121+00321101431ADDAA112000791GF103991001001999999001021IA1019IA2999+00609KA1120M+02051MA1999999100611MD1210071+9999REMSYN100AAXX  04124 47112 32965 33601 10112 20032 30061 40143 52007 69902 80002 333 10205 30006 55076 92022;
0163471120999992000040415004+37480+126630FM-12+007099999V0202501N003112200019N0150001N1+01031+00261101341ADDAA199000091GF102991001001999999001021MA1999999100521MD1510081+9999REMSYN066AAXX  04154 47112 32965 22506 10103 20026 30052 40134 55008 80002;EQDQ01  00002PRCP99
0173471120999992000040418004+37480+126630FM-12+007099999V0202001N004119999999N0120001N1+00871+00381101171ADDAA199000091GF107991031001999999041021MA1999999100341MD1710181+9999REMSYN076AAXX  04184 47112 32962 72008 10087 20038 30034 40117 57018 83042 333 92022;EQDQ01  00002PRCP99
0163471120999992000040421004+37480+126630FM-12+007099999V0203201N004110075019N0100001N1+00811+00701101201ADDAA199000091GF108991051051008001011999MA1999999100371MD1010031+9999REMSYN066AAXX  04214 47112 32560 83208 10081 20070 30037 40120 50003 8551/;EQDQ01  00002PRCP99
0203471120999992000040500004+37480+126630FM-12+007099999V0200501N005719999999N0120001N1+00941+00281101351ADDAA112000791GF106991001001999999001011IA1019IA2999+01709KA1120N+00791MA1999999100531MD1210161+9999REMSYN094AAXX  05004 47112 32962 60511 10094 20028 30053 40135 52016 69902 80001 333 20079 30017 92033;
0173471120999992000040503004+37480+126630FM-12+007099999V0203201N009312200019N0150001N1+01221-00541101311ADDAA199000091GA1001+999999999GF100991001001999999001001MA1999999100501MD1510031+9999REMSYN060AAXX  05034 47112 32965 03218 10122 21054 30050 40131 55003;EQDQ01  00002PRCP99
0183471120999992000040506004+37480+126630FM-12+007099999V0203401N009812200019N0200001N1+01311-00951101231ADDAA199000091GA1001+999999999GF100991001001999999001001MA1999999100421MD1710081+9999REMSYN070AAXX  05064 47112 32970 03419 10131 21095 30042 40123 57008 333 92055;EQDQ01  00002PRCP99
0131471120999992000040509004+37480+126630FM-12+007099999V0203201N010319999999N9999999N1+00961-00551101381ADDAA199000091MA1999999100561MD1210141+9999REMSYN060AAXX  05094 47112 3//// /3220 10096 21055 30056 40138 52014;EQDQ01  00002PRCP99
0232471120999992000040512004+37480+126630FM-12+007099999V0203201N005712200019N0180001N1+00781-00561101731ADDAA199000091GA1001+999999999GF100991001001999999001001IA1019IA2999+00609KA1120M+01321MA1999999100901MD1210341+9999REMSYN088AAXX  05124 47112 32968 03211 10078 21056 30090 40173 52034 333 10132 30006 55098 92022;EQDQ01  00002PRCP99
0173471120999992000040515004+37480+126630FM-12+007099999V0202901N006212200019N0180001N1+00661+00021101901ADDAA199000091GA1001+999999999GF100991001001999999001001MA1999999101061MD1210161+9999REMSYN060AAXX  05154 47112 32968 02912 10066 20002 30106 40190 52016;EQDQ01  00002PRCP99
0183471120999992000040518004+37480+126630FM-12+007099999V0202901N001012200019N0180001N1+00511+00211101931ADDAA199000091GA1001+999999999GF100991001001999999001001MA1999999101081MD1310021+9999REMSYN070AAXX  05184 47112 32968 02902 10051 20021 30108 40193 53002 333 92011;EQDQ01  00002PRCP99
0173471120999992000040521004+37480+126630FM-12+007099999V0203201N002612200019N0180001N1+00541+00071102011ADDAA199000091GA1001+999999999GF100991001001999999001001MA1999999101171MD1210091+9999REMSYN060AAXX  05214 47112 32968 03205 10054 20007 30117 40201 52009;EQDQ01  00002PRCP99
0226471120999992000040600004+37480+126630FM-12+007099999V0202001N004612200019N0200001N1+00821+00211102141ADDAA199000091GA1001+999999999GF100991001001999999001001IA1019IA2999+01809KA1120N+00501MA1999999101311MD1210141+9999REMSYN082AAXX  06004 47112 32970 02009 10082 20021 30131 40214 52014 333 20050 30018 92011;EQDQ01  00002PRCP99
0173471120999992000040603004+37480+126630FM-12+007099999V0202001N005712200019N0250001N1+01111-00011102131ADDAA199000091GA1001+999999999GF100991001001999999001001MA1999999101301MD1310011+9999REMSYN060AAXX  06034 47112 32975 02011 10111 21001 30130 40213 53001;EQDQ01  00002PRCP99
0183471120999992000040606004+37480+126630FM-12+007099999V0202301N005112200019N0250001N1+01221-00571101841ADDAA199000091GA1001+999999999GF100991001001999999001001MA1999999101021MD1710281+9999REMSYN070AAXX  06064 47112 32975 02310 10122 21057 30102 40184 57028 333 92033;EQDQ01  00002PRCP99
0173471120999992000040609004+37480+126630FM-12+007099999V0202501N006212200019N0250001N1+00901-00531101721ADDAA199000091GA1001+999999999GF100991001001999999001001MA1999999100891MD1710131+9999REMSYN060AAXX  06094 47112 32975 02512 10090 21053 30089 40172 57013;EQDQ01  00002PRCP99
0220471120999992000040612004+37480+126630FM-12+007099999V0202301N005112200019N0250001N1+00681-00361101751ADDAA199000091GA1001+999999999GF100991001001999999001001IA1019IA2999+00409KA1120M+01331MA1999999100921MD1010031+9999REMSYN076AAXX  06124 47112 32975 02310 10068 21036 30092 40175 50003 333 10133 30004;EQDQ01  00002PRCP99
0173471120999992000040615004+37480+126630FM-12+007099999V0202001N005712200019N0250001N1+00651-00131101761ADDAA199000091GA1001+999999999GF100991001001999999001001MA1999999100921MD1010001+9999REMSYN060AAXX  06154 47112 32975 02011 10065 21013 30092 40176 50000;EQDQ01  00002PRCP99
0167471120999992000040618004+37480+126630FM-12+007099999V0202001N008212200019N0200001N1+00591+00111101541ADDAA199000091GF102991999999999999999999MA1999999100701MD1710221+9999REMSYN070AAXX  06184 47112 32970 22016 10059 20011 30070 40154 57022 333 92044;EQDQ01  00002PRCP99
0163471120999992000040621004+37480+126630FM-12+007099999V0202301N010819999999N0200001N1+00771+00421101551ADDAA199000091GF108991021051999999011999MA1999999100711MD1310011+9999REMSYN066AAXX  06214 47112 32970 82321 10077 20042 30071 40155 53001 8251/;EQDQ01  00002PRCP99
0244471120999992000040700004+37480+126630FM-12+007099999V0202501N005719999999N0080001N1+00841+00461101711ADDAA199000091AY121061AY221061GF108991081001999999011001IA1019IA2999+01309KA1120N+00571MA1999999100881MD1210171+9999MW1061REMSYN094AAXX  07004 47112 31958 82511 10084 20046 30088 40171 52017 70622 88010 333 20057 30013 92022;EQDQ01  00002PRCP99
0207471120999992000040703004+37480+126630FM-12+007099999V0202701N008210075019N0060001N1+01121-00802101751ADDAA199000091AY121031AY221031GF105991051051008001001001MA1999999100931MD1310051+9999MW1061REMSYN072AAXX  07034 47112 31556 52716 10112 21080 30093 40175 53005 70622 85500;EQDQ01-000803ATOD  Q02  00002PRCP99
0211471120999992000040706004+37480+126630FM-12+007099999V0202701N012312200019N0040001N1+01001-00281101171ADDAA199000091AY101061AY201061GA1001+999999999GF100991001001999999001001MA1999999100951MD1010011+9999MW1061REMSYN076AAXX  07064 47112 31940 02724 10100 21028 30095 40117 50001 70600 333 92022;EQDQ01  00002PRCP99
0201471120999992000040709004+37480+126630FM-12+007099999V0202901N008212200019N0100001N1+01001-00551101871ADDAA199000091AY101031AY201031GA1001+999999999GF100991001001999999001001MA1999999101041MD1210091+9999MW1061REMSYN066AAXX  07094 47112 31960 02916 10100 21055 30104 40187 52009 70600;EQDQ01  00002PRCP99
0260471120999992000040712004+37480+126630FM-12+007099999V0202901N007712200019N0120001N1+00901-00661101921ADDAA199000091AY101061AY201061GA1001+999999999GF100991001001999999001001IA1019IA2999+00809KA1120M+01191MA1999999101091MD1710051+9999MW1061REMSYN094AAXX  07124 47112 32962 02915 10090 21066 30109 40192 57005 70600 333 10119 30008 55073 92033;EQDQ01  00002PRCP99
0181471120999992000040715004+37480+126630FM-12+007099999V0202901N007212200019N0120001N1+00691-00201102231ADDAA199000091AY101031AY201031GA1001+999999999GF100991001001999999001001MA1999999101391MW1061REMSYN060AAXX  07154 47112 32962 02914 10069 21020 30139 40223 70600;EQDQ01  00002PRCP99
0211471120999992000040718004+37480+126630FM-12+007099999V0203201N004612200019N0120001N1+00581+00111102311ADDAA199000091AY101061AY201061GA1001+999999999GF100991001001999999001001MA1999999101471MD1210081+9999MW1061REMSYN076AAXX  07184 47112 32962 03209 10058 20011 30147 40231 52008 70600 333 92033;EQDQ01  00002PRCP99
0201471120999992000040721004+37480+126630FM-12+007099999V0203201N001512200019N0120001N1+00431+00051102441ADDAA199000091AY101031AY201031GA1001+999999999GF100991001001999999001001MA1999999101591MD1210131+9999MW1061REMSYN066AAXX  07214 47112 32962 03203 10043 20005 30159 40244 52013 70600;EQDQ01  00002PRCP99
0254471120999992000040800004+37480+126630FM-12+007099999V0200901N003112200019N0120001N1+00921-00381102481ADDAA199000091AY101061AY201061GA1001+999999999GF100991001001999999001001IA1019IA2999+02109KA1120N+00411MA1999999101651MD1210061+9999MW1061REMSYN088AAXX  08004 47112 32962 00906 10092 21038 30165 40248 52006 70600 333 20041 30021 92022;EQDQ01  00002PRCP99
0201471120999992000040803004+37480+126630FM-12+007099999V0202301N003612200019N0110001N1+01281-00441102451ADDAA199000091AY121031AY221031GA1001+999999999GF100991001001999999001001MA1999999101621MD1310021+9999MW1061REMSYN066AAXX  08034 47112 32961 02307 10128 21044 30162 40245 53002 70622;EQDQ01  00002PRCP99
0211471120999992000040806004+37480+126630FM-12+007099999V0202701N006712200019N0110001N1+01241-00261102201ADDAA199000091AY121061AY221061GA1001+999999999GF100991001001999999001001MA1999999101381MD1710251+9999MW1061REMSYN076AAXX  08064 47112 31961 02713 10124 21026 30138 40220 57025 70622 333 92011;EQDQ01  00002PRCP99
0201471120999992000040809004+37480+126630FM-12+007099999V0202701N004612200019N0110001N1+01031-00541102161ADDAA199000091AY121031AY221031GA1001+999999999GF100991001001999999001001MA1999999101331MD1710051+9999MW1061REMSYN066AAXX  08094 47112 31961 02709 10103 21054 30133 40216 57005 70622;EQDQ01  00002PRCP99
0232471120999992000040812004+37480+126630FM-12+007099999V0203201N003112200019N0120001N1+00811-00361102241ADDAA199000091GA1001+999999999GF100991001001999999001001IA1019IA2999+00509KA1120M+01451MA1999999101401MD1810071+9999REMSYN088AAXX  08124 47112 32962 03206 10081 21036 30140 40224 58007 333 10145 30005 55102 92011;EQDQ01  00002PRCP99
0173471120999992000040815004+37480+126630FM-12+007099999V0201601N001012200019N0150001N1+00691-00051102091ADDAA199000091GA1001+999999999GF100991001001999999001001MA1999999101261MD1710151+9999REMSYN060AAXX  08154 47112 32965 01602 10069 21005 30126 40209 57015;EQDQ01  00002PRCP99
0173471120999992000040818004+37480+126630FM-12+007099999V0202001N003619999999N0120001N1+00641+00241102131ADDAA199000091GF105991001001999999001011MA1999999101291MD1010031+9999REMSYN076AAXX  08184 47112 32962 52007 10064 20024 30129 40213 50003 80001 333 92011;EQDQ01  00002PRCP99
0163471120999992000040821004+37480+126630FM-12+007099999V0201401N002619999999N0120001N1+00701-00391101951ADDAA199000091GF106991001001999999001011MA1999999101121MD1710171+9999REMSYN066AAXX  08214 47112 32962 61405 10070 21039 30112 40195 57017 80001;EQDQ01  00002PRCP99
0263471120999992000040900004+37480+126630FM-12+007099999V0201401N002619999999N0120001N1+01191-00411101901ADDAA199000091AY121061AY221061GF106991999001999999001001IA1019IA2999+02409MA1999999101081MD1510041+9999MW1061REMSYN094AAXX  09004 47112 31962 61405 10119 21041 30108 40190 55004 70622 88000 333 22063 30024 92022;EQDQ01+000082SCOTLCQ02+000002SCOTLCQ03  00002PRCP99
0163471120999992000040903004+37480+126630FM-12+007099999V0202501N002610360019N0150001N1+01551-00591101681ADDAA199000091GF107991041051008001011001MA1999999100881MD1710201+9999REMSYN066AAXX  09034 47112 32565 72505 10155 21059 30088 40168 57020 84510;EQDQ01  00002PRCP99
0173471120999992000040906004+37480+126630FM-12+007099999V0202001N003612200019N0200001N1+01711-00211101401ADDAA199000091GF103991001001999999001011MA1999999100601MD1710281+9999REMSYN076AAXX  09064 47112 32970 32007 10171 21021 30060 40140 57028 80001 333 92022;EQDQ01  00002PRCP99
0173471120999992000040909004+37480+126630FM-12+007099999V0202701N005712200019N0250001N1+01371-00301101301ADDAA199000091GA1001+999999999GF100991001001999999001001MA1999999100491MD1710111+9999REMSYN060AAXX  09094 47112 32975 02711 10137 21030 30049 40130 57011;EQDQ01  00002PRCP99
0232471120999992000040912004+37480+126630FM-12+007099999V0203201N002112200019N0170001N1+01141+00131101261ADDAA199000091GF102991999051999999001001IA1019IA2999+01009KA1120M+01761MA1999999100441MD1710041+9999REMSYN088AAXX  09124 47112 32967 23204 10114 20013 30044 40126 57004 83500 333 10176 30010 92022;EQDQ01+000032SCOTLCQ02  00002PRCP99
0161471120999992000040915004+37480+126630FM-12+007099999V0201601N002610075019N0050001N1+00941+00891101021ADDAY161031AY221031GF108991061051008001021999MA1999999100201MD1710251+9999MW1211REMSYN072AAXX  09154 47112 41550 81605 10094 20089 30020 40102 57025 72162 8652/;
0161471120999992000040918004+37480+126630FM-12+007099999V0202701N006710360019N0120001N1+00861+00841100821ADDAY161061AY221061GF108991041051008001021999MA1999999100001MD1710201+9999MW1211REMSYN072AAXX  09184 47112 41562 82713 10086 20084 30000 40082 57020 72162 8452/;
0133471120999992000040921004+37480+126630FM-12+007099999V0203201N008210075019N0150001N1+00421+00251100981ADDGF108991051051008001011999MA1999999100141MD1010141+9999REMSYN066AAXX  09214 47112 41565 83216 10042 20025 30014 40098 50014 8551/;
0219471120999992000041000004+37480+126630FM-12+007099999V0203401N009312200019N0180001N1+00421-00471101271ADDAA112005191GA1001+999999999GF100991001001999999001001IA1099IA2999+00909KA1120N+00331MA1999999100431MD1210291+9999REMSYN094AAXX  10004 47112 12968 03418 10042 21047 30043 40127 52029 60052 333 20033 31009 70051 92022;
0144471120999992000041003004+37480+126630FM-12+007099999V0203201N011312200019N0150001N1+00701-00901101381ADDAA199000021GF102991021051008001001001MA1999999100551MD1310121+9999REMSYN066AAXX  10034 47112 32565 23222 10070 21090 30055 40138 53012 82500;
0154471120999992000041006004+37480+126630FM-12+007099999V0202901N013412200019N0150001N1+00751-01021101361ADDAA199000021GF102991021051008001001001MA1999999100531MD1510021+9999REMSYN076AAXX  10064 47112 32565 22926 10075 21102 30053 40136 55002 82500 333 92022;
0173471120999992000041009004+37480+126630FM-12+007099999V0203201N011312200019N0130001N1+00641-00931101461ADDAA199000091GA1001+999999999GF100991001001999999001001MA1999999100621MD1210101+9999REMSYN060AAXX  10094 47112 32963 03222 10064 21093 30062 40146 52010;EQDQ01  00002PRCP99
0219471120999992000041012004+37480+126630FM-12+007099999V0203401N006212200019N0200001N1+00471-00581101661ADDAA124005191GA1001+999999999GF100991001001999999001001IA1019IA2999+00409KA1120M+00981MA1999999100821MD1210201+9999REMSYN094AAXX  10124 47112 32970 03412 10047 21058 30082 40166 52020 333 10098 30004 55105 70051 92044;
0173471120999992000041015004+37480+126630FM-12+007099999V0202901N005712200019N0200001N1+00461-00761101711ADDAA199000091GA1001+999999999GF100991001001999999001001MA1999999100871MD1210051+9999REMSYN060AAXX  10154 47112 32970 02911 10046 21076 30087 40171 52005;EQDQ01  00002PRCP99
0183471120999992000041018004+37480+126630FM-12+007099999V0202501N004112200019N0150001N1+00461-00621101581ADDAA199000091GA1001+999999999GF100991001001999999001001MA1999999100741MD1710131+9999REMSYN070AAXX  10184 47112 32965 02508 10046 21062 30074 40158 57013 333 92033;EQDQ01  00002PRCP99
0173471120999992000041021004+37480+126630FM-12+007099999V0202301N004112200019N0120001N1+00501-00141101501ADDAA199000091GA1001+999999999GF100991001001999999001001MA1999999100661MD1710071+9999REMSYN060AAXX  10214 47112 32962 02308 10050 21014 30066 40150 57007;EQDQ01  00002PRCP99
0226471120999992000041100004+37480+126630FM-12+007099999V0202001N007212200019N0120001N1+00851+00141101411ADDAA199000091GA1001+999999999GF100991001001999999001001IA1019IA2999+01509KA1120N+00371MA1999999100581MD1810081+9999REMSYN082AAXX  11004 47112 32962 02014 10085 20014 30058 40141 58008 333 20037 30015 92044;EQDQ01  00002PRCP99
0173471120999992000041103004+37480+126630FM-12+007099999V0202701N009812200019N0110001N1+01171+00241101201ADDAA199000091GA1001+999999999GF100991001001999999001001MA1999999100391MD1710191+9999REMSYN060AAXX  11034 47112 32961 02719 10117 20024 30039 40120 57019;EQDQ01  00002PRCP99
0173471120999992000041106004+37480+126630FM-12+007099999V0202701N012312200019N0100001N1+01281+00161100981ADDAA199000091GA1001+999999999GF100991001001999999001001MA1999999100171MD1710221+9999REMSYN060AAXX  11064 47112 32960 02724 10128 20016 30017 40098 57022;EQDQ01  00002PRCP99
0173471120999992000041109004+37480+126630FM-12+007099999V0202501N007212200019N0090001N1+01051+00401100951ADDAA199000091GA1001+999999999GF100991001001999999001001MA1999999100141MD1010041+9999REMSYN060AAXX  11094 47112 3//59 02514 10105 20040 30014 40095 50004;EQDQ01  00002PRCP99
0232471120999992000041112004+37480+126630FM-12+007099999V0202301N003612200019N0110001N1+00821+00531101021ADDAA199000091GA1001+999999999GF100991001001999999001001IA1019IA2999+00709KA1120M+01331MA1999999100191MD1010051+9999REMSYN088AAXX  11124 47112 32961 02307 10082 20053 30019 40102 50005 333 10133 30007 55102 92022;EQDQ01  00002PRCP99
0201471120999992000041115004+37480+126630FM-12+007099999V0201801N004112200019N0080001N1+00791+00491100971ADDAA199000091AY101031AY201031GA1001+999999999GF100991001001999999001001MA1999999100141MD1510051+9999MW1101REMSYN066AAXX  11154 47112 31958 01808 10079 20049 30014 40097 55005 71000;EQDQ01  00002PRCP99
0211471120999992000041118004+37480+126630FM-12+007099999V0202001N006212200019N0080001N1+00801+00491100921ADDAA199000091AY101061AY201061GA1001+999999999GF100991001001999999001001MA1999999100091MD1810051+9999MW1101REMSYN076AAXX  11184 47112 31958 02012 10080 20049 30009 40092 58005 71000 333 92011;EQDQ01  00002PRCP99
0201471120999992000041121004+37480+126630FM-12+007099999V0201801N005712200019N0090001N1+00751+00351100841ADDAA199000091AY101031AY201031GA1001+999999999GF100991001001999999001001MA1999999100021MD1710081+9999MW1101REMSYN066AAXX  11214 47112 31959 01811 10075 20035 30002 40084 57008 71000;EQDQ01  00002PRCP99
0232471120999992000041200004+37480+126630FM-12+007099999V0201801N005712200019N0100001N1+01061+00521100901ADDAA199000091GA1001+999999999GF100991001001999999001001IA1019IA2999+01409KA1120N+00741MA1999999100081MD1210061+9999REMSYN088AAXX  12004 47112 32960 01811 10106 20052 30008 40090 52006 80002 333 20074 30014 92033;EQDQ01  00002PRCP99
0163471120999992000041203004+37480+126630FM-12+007099999V0202001N005119999999N0120001N1+01351+00691100801ADDAA199000091GF106991001001999999001021MA1999999100001MD1710081+9999REMSYN066AAXX  12034 47112 32962 62010 10135 20069 30000 40080 57008 80002;EQDQ01  00002PRCP99
0173471120999992000041206004+37480+126630FM-12+007099999V0202301N005719999999N0100001N1+01341+00711100641ADDAA199000091GF106991001001999999001021MA1999999099831MD1710161+9999REMSYN076AAXX  12064 47112 32960 62311 10134 20071 39983 40064 57016 80002 333 92033;EQDQ01  00002PRCP99
0163471120999992000041209004+37480+126630FM-12+007099999V0202001N004119999999N0120001N1+01231+00751100561ADDAA199000091GF106991001001999999001021MA1999999099751MD1710081+9999REMSYN066AAXX  12094 47112 32962 62008 10123 20075 39975 40056 57008 80002;EQDQ01  00002PRCP99
0254471120999992000041212004+37480+126630FM-12+007099999V0202501N003112200019N0080001N1+00991+00791100741ADDAA199000091AY101061AY201061GA1001+999999999GF100991001001999999001001IA1019IA2999+00909KA1120M+01501MA1999999099921MD1210171+9999MW1101REMSYN088AAXX  12124 47112 31958 02506 10099 20079 39992 40074 52017 71000 333 10150 30009 92033;EQDQ01  00002PRCP99
0191471120999992000041215004+37480+126630FM-12+007099999V0202001N004610075019N0040001N1+01001+00851100761ADDAA199000091AY121031AY221031GF106991061051008001001001MA1999999099941MD1010031+9999MW1101REMSYN072AAXX  12154 47112 31540 62009 10100 20085 39994 40076 50003 71022 86500;EQDQ01  00002PRCP99
0217471120999992000041218004+37480+126630FM-12+007099999V0201801N003610075019N0012001N1+00941+00841100761ADDAA199000091AY121061AY221061GF106991061051008001001001MA1999999099941MD1410001+9999MW1101REMSYN082AAXX  12184 47112 31512 61807 10094 20084 39994 40076 52000 71022 86500 333 92033;EQDQ01+000022APCTENQ02  00002PRCP99
0207471120999992000041221004+37480+126630FM-12+007099999V0201601N002112200019N0020001N1+00981+00811100781ADDAA199000091AY121031AY221031GA1001+999999999GF100991001001999999001001MA1999999099971MD1010021+9999MW1101REMSYN072AAXX  12214 47112 31520 01604 10098 20081 39997 40078 50002 71022 86500;EQDQ01  00002PRCP99
0244471120999992000041300004+37480+126630FM-12+007099999V0201601N000510075019N0050001N1+01291+00881100891ADDAA199000091AY111061AY211061GF105991051051008001001001IA1019IA2999+02309KA1120N+00941MA1999999100081MD1210111+9999MW1101REMSYN094AAXX  13004 47112 31550 51601 10129 20088 30008 40089 52011 71011 85500 333 20094 30023 92011;EQDQ01  00002PRCP99
0191471120999992000041303004+37480+126630FM-12+007099999V0202301N004119999999N0090001N1+01591+00831100861ADDAA199000091AY121031AY221031GF105991001001999999001021MA1999999100061MD1310021+9999MW1101REMSYN072AAXX  13034 47112 31959 52308 10159 20083 30006 40086 53002 71022 80002;EQDQ01  00002PRCP99
0201471120999992000041306004+37480+126630FM-12+007099999V0202501N003619999999N0090001N1+01501+00931100711ADDAA199000091AY121061AY221061GF108991081001999999011999MA1999999099911MD1710151+9999MW1101REMSYN082AAXX  13064 47112 31959 82507 10150 20093 39991 40071 57015 71022 8801/ 333 92011;EQDQ01  00002PRCP99
0191471120999992000041309004+37480+126630FM-12+007099999V0202901N006210360019N0035001N1+01231+00841100761ADDAA199000091AY121031AY221031GF106991021051012501011001MA1999999099951MD1210041+9999MW1101REMSYN072AAXX  13094 47112 32635 62912 10123 20084 39995 40076 52004 71022 82510;EQDQ01  00002PRCP99
0250471120999992000041312004+37480+126630FM-12+007099999V0202901N005710360019N0050001N1+01121+00471101051ADDAA199000091AY121061AY221061GF106991031051008001011001IA1019IA2999+01009KA1120M+01681MA1999999100241MD1210291+9999MW1101REMSYN100AAXX  13124 47112 31550 62911 10112 20047 30024 40105 52029 71022 83510 333 10168 30010 55044 92033;EQDQ01  00002PRCP99
0163471120999992000041315004+37480+126630FM-12+007099999V0203401N004610075019N0100001N1+01081-00081101151ADDAA199000091GF106991061051008001001001MA1999999100331MD1210091+9999REMSYN066AAXX  13154 47112 32560 63409 10108 21008 30033 40115 52009 86500;EQDQ01  00002PRCP99
0173471120999992000041318004+37480+126630FM-12+007099999V0203201N004110075019N0100001N1+00971+00161101161ADDAA199000091GF106991061051008001001001MA1999999100341MD1010011+9999REMSYN076AAXX  13184 47112 32560 63208 10097 20016 30034 40116 50001 86500 333 92033;EQDQ01  00002PRCP99
0163471120999992000041321004+37480+126630FM-12+007099999V0200501N002612200019N0100001N1+00851+00191101291ADDAA199000091GF102991021051999999001001MA1999999100461MD1310121+9999REMSYN066AAXX  13214 47112 32960 20505 10085 20019 30046 40129 53012 82500;EQDQ01  00002PRCP99
0216471120999992000041400004+37480+126630FM-12+007099999V0203401N003119999999N0150001N1+01101-00041101431ADDAA199000091GF105991051001999999041001IA1019IA2999+02009KA1120N+00821MA1999999100611MD1210161+9999REMSYN088AAXX  14004 47112 32965 53406 10110 21004 30061 40143 52016 85040 333 20082 30020 92022;EQDQ01  00002PRCP99
0163471120999992000041403004+37480+126630FM-12+007099999V0203601N003612200019N0150001N1+01601-00091101311ADDAA199000091GF102991001001999999001011MA1999999100511MD1710101+9999REMSYN066AAXX  14034 47112 32965 23607 10160 21009 30051 40131 57010 80001;EQDQ01  00002PRCP99
0173471120999992000041406004+37480+126630FM-12+007099999V0202701N007219999999N0150001N1+01521+00021101201ADDAA199000091GF107991001001999999001061MA1999999100391MD1710121+9999REMSYN076AAXX  14064 47112 32965 72714 10152 20002 30039 40120 57012 80006 333 92055;EQDQ01  00002PRCP99
0143471120999992000041409004+37480+126630FM-12+007099999V0202701N004119999999N0160001N1+01341-00021101161ADDAA199000091GF108991081001999999011999MA1999999100351REMSYN060AAXX  14094 47112 32966 82708 10134 21002 30035 40116 8801/;EQDQ01  00002PRCP99
0163471120999992000041415004+37480+126630FM-12+007099999V0203401N004619999999N0150001N1+01131-00291101171ADDAA199000091GF108991081001999999011999MA1999999100351MD1710061+9999REMSYN066AAXX  14154 47112 32965 83409 10113 21029 30035 40117 57006 8801/;EQDQ01  00002PRCP99
0173471120999992000041418004+37480+126630FM-12+007099999V0203401N002619999999N0150001N1+00971+00281101091ADDAA199000091GF108991081001999999011999MA1999999100271MD1510081+9999REMSYN076AAXX  14184 47112 32965 83405 10097 20028 30027 40109 55008 8801/ 333 92011;EQDQ01  00002PRCP99
0163471120999992000041421004+37480+126630FM-12+007099999V0200501N003119999999N0150001N1+00911-00161101001ADDAA199000091GF106991041001999999031021MA1999999100181MD1810091+9999REMSYN066AAXX  14214 47112 32965 60506 10091 21016 30018 40100 58009 84032;EQDQ01  00002PRCP99
0216471120999992000041500004+37480+126630FM-12+007099999V0200701N003110075019N0120001N1+01121+00131101041ADDAA199000091GF108991051051008001011999IA1019IA2999+01609KA1120N+00901MA1999999100221MD1010051+9999REMSYN088AAXX  15004 47112 32562 80706 10112 20013 30022 40104 50005 8551/ 333 20090 30016 92022;EQDQ01  00002PRCP99
0163471120999992000041503004+37480+126630FM-12+007099999V0203401N004619999999N0150001N1+01551+00091101001ADDAA199000091GF106991001001999999001021MA1999999100201MD1510021+9999REMSYN066AAXX  15034 47112 32965 63409 10155 20009 30020 40100 55002 80002;EQDQ01  00002PRCP99
0163471120999992000041506004+37480+126630FM-12+007099999V0203201N005712200019N0140001N1+01741+00061100831ADDAA199000091GF102991021051008001001001MA1999999100041MD1710161+9999REMSYN066AAXX  15064 47112 32564 23211 10174 20006 30004 40083 57016 82500;EQDQ01  00002PRCP99
0163471120999992000041509004+37480+126630FM-12+007099999V0200701N003612200019N0200001N1+01491+00301100941ADDAA199000091GF102991021051999999001001MA1999999100141MD1210101+9999REMSYN066AAXX  15094 47112 32970 20707 10149 20030 30014 40094 52010 82500;EQDQ01  00002PRCP99
0226471120999992000041512004+37480+126630FM-12+007099999V0201101N004112200019N0180001N1+01181+00451101161ADDAA199000091GA1001+999999999GF100991001001999999001001IA1019IA2999+00809KA1120M+01821MA1999999100341MD1210211+9999REMSYN082AAXX  15124 47112 32968 01108 10118 20045 30034 40116 52021 333 10182 30008 92033;EQDQ01  00002PRCP99
0133471120999992000041515004+37480+126630FM-12+007099999V0202001N002110075019N0150001N1+01081+00671101281ADDGF106991061051008001001001MA1999999100461MD1210121+9999REMSYN066AAXX  15154 47112 41565 62004 10108 20067 30046 40128 52012 86500;
0181471120999992000041518004+37480+126630FM-12+007099999V0202001N002612200019N0070001N1+00921+00731101281ADDAY101061AY201061GA1001+999999999GF100991001001999999001001MA1999999100451MD1510001+9999MW1101REMSYN076AAXX  15184 47112 41957 02005 10092 20073 30045 40128 55000 71000 333 92022;
0143471120999992000041521004+37480+126630FM-12+007099999V0201801N002612200019N0110001N1+00791+00541101311ADDGA1001+999999999GF100991001001999999001001MA1999999100491MD1810031+9999REMSYN060AAXX  15214 47112 41961 01805 10079 20054 30049 40131 58003;
0219471120999992000041600004+37480+126630FM-12+007099999V0202001N004112200019N0120001N1+01181+00531101341ADDAA112000391GA1001+999999999GF100991001001999999001001IA1019IA2999+01609KA1120N+00781MA1999999100531MD1310041+9999REMSYN094AAXX  16004 47112 12962 02008 10118 20053 30053 40134 53004 69932 333 20078 30016 70003 92011;
0163471120999992000041603004+37480+126630FM-12+007099999V0202301N005710360019N0150001N1+01211+00411101361ADDAA199000091GF108991021051008001011999MA1999999100541MD1510021+9999REMSYN066AAXX  16034 47112 32565 82311 10121 20041 30054 40136 55002 8251/;EQDQ01  00002PRCP99
0173471120999992000041606004+37480+126630FM-12+007099999V0202301N004110075019N0120001N1+01411+00241101221ADDAA199000091GF106991061051008001001001MA1999999100421MD1710131+9999REMSYN076AAXX  16064 47112 32562 62308 10141 20024 30042 40122 57013 86500 333 92011;EQDQ01  00002PRCP99
0163471120999992000041609004+37480+126630FM-12+007099999V0202301N003612200019N0100001N1+01251+00191101151ADDAA199000091GF102991021001999999041001MA1999999100341MD1810081+9999REMSYN066AAXX  16094 47112 32960 22307 10125 20019 30034 40115 58008 82040;EQDQ01  00002PRCP99
0209471120999992000041612004+37480+126630FM-12+007099999V0202301N005112200019N0100001N1+01001+00571101231ADDAA124000391GF103991031001999999041001IA1019IA2999+01009KA1120M+01471MA1999999100411MD1210071+9999REMSYN100AAXX  16124 47112 32960 32310 10100 20057 30041 40123 52007 83040 333 10147 30010 55091 70003 92022;
0173471120999992000041615004+37480+126630FM-12+007099999V0201801N003112200019N0100001N1+00931+00621101261ADDAA199000091GA1001+999999999GF100991001001999999001001MA1999999100441MD1210031+9999REMSYN060AAXX  16154 47112 32960 01806 10093 20062 30044 40126 52003;EQDQ01  00002PRCP99
0211471120999992000041618004+37480+126630FM-12+007099999V0202001N004112200019N0050001N1+00941+00581101241ADDAA199000091AY101061AY201061GA1001+999999999GF100991001001999999001001MA1999999100421MD1810021+9999MW1101REMSYN076AAXX  16184 47112 31950 02008 10094 20058 30042 40124 58002 71000 333 92022;EQDQ01  00002PRCP99
0191471120999992000041621004+37480+126630FM-12+007099999V0201801N003612200019N0035001N1+00881+00651101291ADDAA199000091AY111031AY211031GF102991021001999999041001MA1999999100461MD1010041+9999MW1101REMSYN072AAXX  16214 47112 31935 21807 10088 20065 30046 40129 50004 71011 82040;EQDQ01  00002PRCP99
0254471120999992000041700004+37480+126630FM-12+007099999V0201801N003112200019N0040001N1+01251+00761101431ADDAA199000091AY101061AY201061GA1001+999999999GF100991001001999999001001IA1019IA2999+01709KA1120N+00871MA1999999100621MD1210151+9999MW1101REMSYN088AAXX  17004 47112 32940 01806 10125 20076 30062 40143 52015 71000 333 20087 30017 92033;EQDQ01  00002PRCP99
0201471120999992000041703004+37480+126630FM-12+007099999V0202001N003612200019N0090001N1+01671+00871101471ADDAA199000091AY101031AY201031GA1001+999999999GF100991001001999999001001MA1999999100671MD1310051+9999MW1101REMSYN066AAXX  17034 47112 32959 02007 10167 20087 30067 40147 53005 71000;EQDQ01  00002PRCP99
0143471120999992000041706004+37480+126630FM-12+007099999V0202301N005119999999N0100001N1+01401+00791101391ADDGF106991021001999999041011MA1999999100581MD1710091+9999REMSYN076AAXX  17064 47112 /1960 62310 10140 20079 30058 40139 57009 82041 333 92022;
0191471120999992000041709004+37480+126630FM-12+007099999V0202301N008712200019N0030001N1+01251+00851101431ADDAA199000091AY121031AY221031GF104991041001999999091001MA1999999100621MD1210041+9999MW1101REMSYN072AAXX  17094 47112 31930 42317 10125 20085 30062 40143 52004 71022 84090;EQDQ01  00002PRCP99
0250471120999992000041712004+37480+126630FM-12+007099999V0201801N004612200019N0070001N1+01241+00841101561ADDAA199000091AY111061AY211061GF104991001001999999001011IA1019IA2999+01109KA1120M+01701MA1999999100741MD1210131+9999MW1101REMSYN100AAXX  17124 47112 31957 41809 10124 20084 30074 40156 52013 71011 80001 333 10170 30011 55080 92011;EQDQ01  00002PRCP99
0201471120999992000041715004+37480+126630FM-12+007099999V0201801N004612200019N0050001N1+01181+00751101671ADDAA199000091AY101031AY201031GA1001+999999999GF100991001001999999001001MA1999999100851MD1210101+9999MW1101REMSYN066AAXX  17154 47112 31950 01809 10118 20075 30085 40167 52010 71000;EQDQ01  00002PRCP99
0201471120999992000041718004+37480+126630FM-12+007099999V0201801N005112200019N0030001N1+01141+00821101681ADDAA199000091AY111061AY211061GF104991041001999999041001MA1999999100861MD1210011+9999MW1101REMSYN082AAXX  17184 47112 31930 41810 10114 20082 30086 40168 52001 71011 84040 333 92011;EQDQ01  00002PRCP99
0191471120999992000041721004+37480+126630FM-12+007099999V0201801N004110075019N0080001N1+01171+00891101691ADDAA199000091AY121031AY221031GF107991051051008001011001MA1999999100871MD1010011+9999MW1101REMSYN072AAXX  17214 47112 31558 71808 10117 20089 30087 40169 50001 71022 85510;EQDQ01  00002PRCP99
0248471120999992000041800004+37480+126630FM-12+007099999V0201801N005112200019N0100001N1+01511+00631101671ADDAA199000091GF102991001001999999001021IA1019IA2999+02009KA1120N+01101MA1999999100861MD1710021+9999REMSYN088AAXX  18004 47112 32960 21810 10151 20063 30086 40167 57000 80002 333 20110 30020 92033;EQDQ01+000072APCTENQ02+000002APC3  Q03  00002PRCP99
0163471120999992000041803004+37480+126630FM-12+007099999V0202301N006210075019N0150001N1+01561+00531101691ADDAA199000091GF108991051051008001011999MA1999999100881MD1310021+9999REMSYN066AAXX  18034 47112 32565 82312 10156 20053 30088 40169 53002 8551/;EQDQ01  00002PRCP99
0173471120999992000041806004+37480+126630FM-12+007099999V0202001N004610075019N0120001N1+01621+00571101561ADDAA199000091GF108991061051008001021999MA1999999100761MD1710121+9999REMSYN076AAXX  18064 47112 32562 82009 10162 20057 30076 40156 57012 8652/ 333 92033;EQDQ01  00002PRCP99
0163471120999992000041809004+37480+126630FM-12+007099999V0201801N003110075019N0150001N1+01571+00671101461ADDAA199000091GF107991061051008001011001MA1999999100651MD1710111+9999REMSYN066AAXX  18094 47112 32565 71806 10157 20067 30065 40146 57011 86510;EQDQ01  00002PRCP99
0216471120999992000041812004+37480+126630FM-12+007099999V0201401N002610075019N0120001N1+01561+00701101451ADDAA199000091GF108991061051008001021999IA1019IA2999+01409KA1120M+01711MA1999999100641MD1810011+9999REMSYN088AAXX  18124 47112 32562 81405 10156 20070 30064 40145 58001 8652/ 333 10171 30014 92022;EQDQ01  00002PRCP99
0161471120999992000041815004+37480+126630FM-12+007099999V0200501N001510075019N0020001N1+01241+01131101431ADDAY161031AY261031GF108991061071008001021999MA1999999100611MD1710031+9999MW1611REMSYN072AAXX  18154 47112 41520 80503 10124 20113 30061 40143 57003 76166 8672/;
0171471120999992000041818004+37480+126630FM-12+007099999V0200901N003610075019N0030001N1+01261+01141101201ADDAY161061AY261061GF108991051071008001021999MA1999999100391MD1710221+9999MW1611REMSYN082AAXX  18184 47112 41530 80907 10126 20114 30039 40120 57022 76166 8572/ 333 92022;
0161471120999992000041821004+37480+126630FM-12+007099999V0200901N005710075019N0040001N1+01141+00921101021ADDAY161031AY261031GF108991061071008001021999MA1999999100211MD1710181+9999MW1611REMSYN072AAXX  18214 47112 41540 80911 10114 20092 30021 40102 57018 76166 8672/;
0237471120999992000041900004+37480+126630FM-12+007099999V0200901N003110360019N0100001N1+01301+01001100941ADDAA112007991AY161061AY261061GF108991031051008001021999IA1099IA2999+01409KA1120N+01131MA1999999100131MD1710071+9999MW1611REMSYN106AAXX  19004 47112 11560 80906 10130 20100 30013 40094 57007 60082 76166 8352/ 333 20113 31014 70083 92011;
0133471120999992000041903004+37480+126630FM-12+007099999V0200901N004610075019N0150001N1+01801+01051100901ADDGF106991061051008001001001MA1999999100111MD1510021+9999REMSYN066AAXX  19034 47112 42565 60909 10180 20105 30011 40090 55002 86500;
0143471120999992000041906004+37480+126630FM-12+007099999V0200701N003110075019N0130001N1+01841+00831100761ADDGF107991071051008001001001MA1999999099971MD1710141+9999REMSYN076AAXX  19064 47112 42563 70706 10184 20083 39997 40076 57014 87500 333 92011;
0133471120999992000041909004+37480+126630FM-12+007099999V0200701N002612200019N0130001N1+01951+00711100821ADDGF104991041051008001001001MA1999999100031MD1210061+9999REMSYN066AAXX  19094 47112 42563 40705 10195 20071 30003 40082 52006 84500;
0215471120999992000041912004+37480+126630FM-12+007099999V0201101N003112200019N0120001N1+01561+00691101121ADDAA112000191GF102991021051008001001001IA1019IA2999+01309KA1120M+02061MA1999999100321MD1210291+9999REMSYN106AAXX  19124 47112 12562 21106 10156 20069 30032 40112 52029 69912 82500 333 10206 30013 55022 70084 92033;
0173471120999992000041915004+37480+126630FM-12+007099999V0200901N003112200019N0120001N1+01411+00611101291ADDAA199000091GA1001+999999999GF100991001001999999001001MA1999999100491MD1210171+9999REMSYN060AAXX  19154 47112 32962 00906 10141 20061 30049 40129 52017;EQDQ01  00002PRCP99
0183471120999992000041918004+37480+126630FM-12+007099999V0200201N003112200019N0150001N1+01051+00641101331ADDAA199000091GA1001+999999999GF100991001001999999001001MA1999999100511MD1210021+9999REMSYN070AAXX  19184 47112 32965 00206 10105 20064 30051 40133 52002 333 92033;EQDQ01  00002PRCP99
0191471120999992000041921004+37480+126630FM-12+007099999V0203601N002112200019N0050001N1+01001+00651101371ADDAA199000091AY111031AY211031GF103991031051008001001001MA1999999100551MD1010041+9999MW1101REMSYN072AAXX  19214 47112 31550 33604 10100 20065 30055 40137 50004 71011 83500;EQDQ01  00002PRCP99
0203471120999992000042000004+37480+126630FM-12+007099999V0201101N005119999999N0140001N1+01561+00701101401ADDAA124000191GF105991001001999999001011IA1099IA2999+01909KA1120N+00951MA1999999100591MD1010041+9999REMSYN094AAXX  20004 47112 32964 51110 10156 20070 30059 40140 50004 80001 333 20095 31019 70001 92033;
0163471120999992000042003004+37480+126630FM-12+007099999V0201401N005712200019N0150001N1+01991+00711101221ADDAA199000091GF102991021001999999041001MA1999999100431MD1710161+9999REMSYN066AAXX  20034 47112 32965 21411 10199 20071 30043 40122 57016 82040;EQDQ01  00002PRCP99
0173471120999992000042006004+37480+126630FM-12+007099999V0202301N005112200019N0150001N1+02061+00881101051ADDAA199000091GF104991001001999999001021MA1999999100261MD1710171+9999REMSYN076AAXX  20064 47112 32965 42310 10206 20088 30026 40105 57017 80002 333 92033;EQDQ01  00002PRCP99
0163471120999992000042009004+37480+126630FM-12+007099999V0202701N006219999999N0150001N1+01471+00951101021ADDAA199000091GF106991021001999999031021MA1999999100221MD1810041+9999REMSYN066AAXX  20094 47112 32965 62712 10147 20095 30022 40102 58004 82032;EQDQ01  00002PRCP99
0222471120999992000042012004+37480+126630FM-12+007099999V0203401N001519999999N0150001N1+01261+00951101141ADDAA199000091GF106991041001999999031021IA1019IA2999+01209KA1120M+02251MA1999999100331MD1010111+9999REMSYN094AAXX  20124 47112 32965 63403 10126 20095 30033 40114 50011 84032 333 10225 30012 55062 92011;EQDQ01  00002PRCP99
0163471120999992000042015004+37480+126630FM-12+007099999V0203401N002110360019N0150001N1+01241+01001101081ADDAA199000091GF108991031051008001021999MA1999999100271MD1710061+9999REMSYN066AAXX  20154 47112 32565 83404 10124 20100 30027 40108 57006 8352/;EQDQ01  00002PRCP99
0171471120999992000042018004+37480+126630FM-12+007099999V0201801N002610075019N0100001N1+01181+01031100951ADDAY161061AY221061GF108991051071008001021999MA1999999100141MD1710131+9999MW1601REMSYN082AAXX  20184 47112 41560 81805 10118 20103 30014 40095 57013 76062 8572/ 333 92011;
0161471120999992000042021004+37480+126630FM-12+007099999V0201801N005110075019N0070001N1+01191+01021100701ADDAY161031AY221031GF108991061071008001021999MA1999999099891MD1710251+9999MW1601REMSYN072AAXX  20214 47112 41557 81810 10119 20102 39989 40070 57025 76062 8672/;
0161471120999992000042103004+37480+126630FM-12+007099999V0202501N003610360019N0030001N1+01141+01011100731ADDAY121031AY221031GF108991041051008001021999MA1999999099921MD1710021+9999MW1101REMSYN072AAXX  21034 47112 41530 82507 10114 20101 39992 40073 57002 71022 8452/;
0171471120999992000042106004+37480+126630FM-12+007099999V0202001N004110075019N0050001N1+01351+01101100581ADDAY121061AY221061GF108991061051008001011999MA1999999099771MD1710151+9999MW1101REMSYN082AAXX  21064 47112 41550 82008 10135 20110 39977 40058 57015 71022 8651/ 333 92033;
0133471120999992000042109004+37480+126630FM-12+007099999V0202301N004110075019N0120001N1+01201+00991100531ADDGF108991061051008001011999MA1999999099721MD1510051+9999REMSYN066AAXX  21094 47112 42562 82308 10120 20099 39972 40053 55005 8651/;
0237471120999992000042112004+37480+126630FM-12+007099999V0202501N005110075019N0020001N1+01021+00961100721ADDAA112003091AY161061AY221061GF108991061071008001021999IA1099IA2999+01109KA1120M+01431MA1999999099901MD1210181+9999MW1601REMSYN106AAXX  21124 47112 11520 82510 10102 20096 39990 40072 52018 60032 76062 8672/ 333 10143 31011 70072 92033;
0133471120999992000042115004+37480+126630FM-12+007099999V0202301N003110075019N0110001N1+00931+00791100791ADDGF107991071051008001001001MA1999999099971MD1210071+9999REMSYN066AAXX  21154 47112 42561 72306 10093 20079 39997 40079 52007 87500;
0201471120999992000042118004+37480+126630FM-12+007099999V0202001N004610075019N0050001N1+00811+00701100801ADDAA199000021AY121061AY221061GF108991051051008001011999MA1999999099971MD1210011+9999MW1101REMSYN082AAXX  21184 47112 32550 82009 10081 20070 39997 40080 52000 71022 8551/ 333 92033;EQDQ01+000002APC3  
0172471120999992000042121004+37480+126630FM-12+007099999V0201801N002110360019N0050001N1+00791+00711100741ADDAA199000021AY121031AY221031GF108991021051008001011999MA1999999099911MD1810061+9999MW1101REMSYN072AAXX  21214 47112 31550 81804 10079 20071 39991 40074 58006 71022 8251/;
0203471120999992000042200004+37480+126630FM-12+007099999V0202001N004612200019N0050001N1+01021+00711100591ADDAA124003391GF102991001001999999001041IA1019IA2999+01609KA1120N+00701MA1999999099781MD1710141+9999REMSYN094AAXX  22004 47112 31950 22009 10102 20071 39978 40059 57014 80004 333 20070 30016 70033 92033;
0161471120999992000042203004+37480+126630FM-12+007099999V0203201N003610075019N0050001N1+00861+00751100631ADDAY161031AY261031GF108991061051008001021999MA1999999099811MD1310041+9999MW1611REMSYN072AAXX  22034 47112 41550 83207 10086 20075 39981 40063 53004 76166 8652/;
0143471120999992000042206004+37480+126630FM-12+007099999V0202301N004610360019N0150001N1+01111+00791100341ADDGF107991041051008001011001MA1999999099531MD1710291+9999REMSYN076AAXX  22064 47112 42565 72309 10111 20079 39953 40034 57029 84510 333 92033;
0143471120999992000042209004+37480+126630FM-12+007099999V0202901N009812200019N0250001N1+01191+00191100251ADDGA1001+999999999GF100991001001999999001001MA1999999099441MD1810081+9999REMSYN060AAXX  22094 47112 42975 02919 10119 20019 39944 40025 58008;
0143471120999992000042215004+37480+126630FM-12+007099999V0202701N007212200019N0250001N1+00871+00481100501ADDGA1001+999999999GF100991001001999999001001MA1999999099681MD1210041+9999REMSYN060AAXX  22154 47112 42975 02714 10087 20048 39968 40050 52004;
0183471120999992000042218004+37480+126630FM-12+007099999V0202501N003612200019N0200001N1+00831+00531100471ADDAA199000091GA1001+999999999GF100991001001999999001001MA1999999099651MD1810031+9999REMSYN070AAXX  22184 47112 32970 02507 10083 20053 39965 40047 58003 333 92044;EQDQ01  00002PRCP99
0173471120999992000042221004+37480+126630FM-12+007099999V0202701N005712200019N0200001N1+00841+00591100521ADDAA199000091GA1001+999999999GF100991001001999999001001MA1999999099701MD1210051+9999REMSYN060AAXX  22214 47112 32970 02711 10084 20059 39970 40052 52005;EQDQ01  00002PRCP99
0213471120999992000042300004+37480+126630FM-12+007099999V0202701N006212200019N0180001N1+01101+00521100661ADDAA124001591GA1001+999999999GF100991001001999999001001IA1099IA2999+01709KA1120N+00821MA1999999099851MD1210151+9999REMSYN088AAXX  23004 47112 32968 02712 10110 20052 39985 40066 52015 333 20082 31017 70015 92033;
0191471120999992000042303004+37480+126630FM-12+007099999V0202701N009812200019N0160001N1+01301+00291100681ADDAA199000091AY111031AY211031GF102991021051008001001001MA1999999099881MD1310031+9999MW1061REMSYN072AAXX  23034 47112 31566 22719 10130 20029 39988 40068 53003 70611 82500;EQDQ01  00002PRCP99
0201471120999992000042306004+37480+126630FM-12+007099999V0202701N008712200019N0140001N1+01331+00431100581ADDAA199000091AY101061AY201061GA1001+999999999GF100991001001999999001001MA1999999099771MD1710101+9999MW1061REMSYN066AAXX  23064 47112 31964 02717 10133 20043 39977 40058 57010 70600;EQDQ01  00002PRCP99
0201471120999992000042309004+37480+126630FM-12+007099999V0202701N009812200019N0140001N1+01171+00221100601ADDAA199000091AY101031AY201031GA1001+999999999GF100991001001999999001001MA1999999099791MD1810021+9999MW1061REMSYN066AAXX  23094 47112 31964 02719 10117 20022 39979 40060 58002 70600;EQDQ01  00002PRCP99
0260471120999992000042312004+37480+126630FM-12+007099999V0202901N009312200019N0130001N1+01001+00421100761ADDAA199000091AY101061AY201061GA1001+999999999GF100991001001999999001001IA1019IA2999+00909KA1120M+01391MA1999999099941MD1210151+9999MW1061REMSYN094AAXX  23124 47112 31963 02918 10100 20042 39994 40076 52015 70600 333 10139 30009 55107 92011;EQDQ01  00002PRCP99
0163471120999992000042315004+37480+126630FM-12+007099999V0202701N005112200019N0120001N1+00891+00561100971ADDAA199000091GF102991021051008001001001MA1999999100151MD1210211+9999REMSYN066AAXX  23154 47112 32562 22710 10089 20056 30015 40097 52021 82500;EQDQ01  00002PRCP99
0211471120999992000042318004+37480+126630FM-12+007099999V0202301N004112200019N0080001N1+00831+00631100981ADDAA199000091AY101061AY201061GA1001+999999999GF100991001001999999001001MA1999999100161MD1310011+9999MW1101REMSYN076AAXX  23184 47112 31958 02308 10083 20063 30016 40098 53001 71000 333 92011;EQDQ01  00002PRCP99
0173471120999992000042321004+37480+126630FM-12+007099999V0202301N004112200019N0180001N1+00861+00581101011ADDAA199000091GA1001+999999999GF100991001001999999001001MA1999999100191MD1810031+9999REMSYN060AAXX  23214 47112 32968 02308 10086 20058 30019 40101 58003;EQDQ01  00002PRCP99
0226471120999992000042400004+37480+126630FM-12+007099999V0202501N002612200019N0250001N1+01281+00541101161ADDAA199000091GA1001+999999999GF100991001001999999001001IA1019IA2999+02209KA1120N+00801MA1999999100351MD1210161+9999REMSYN082AAXX  24004 47112 32975 02505 10128 20054 30035 40116 52016 333 20080 30022 92022;EQDQ01  00002PRCP99
0163471120999992000042403004+37480+126630FM-12+007099999V0202301N005119999999N0250001N1+01511+00321101181ADDAA199000091GF106991001001999999001021MA1999999100371MD1310021+9999REMSYN066AAXX  24034 47112 32975 62310 10151 20032 30037 40118 53002 80002;EQDQ01  00002PRCP99
0131471120999992000042406004+37480+126630FM-12+007099999V0202301N005719999999N9999999N1+01521+00491101101ADDAA199000091MA1999999100301MD1710081+9999REMSYN060AAXX  24064 47112 3//// /2311 10152 20049 30030 40110 57008;EQDQ01  00002PRCP99
0163471120999992000042409004+37480+126630FM-12+007099999V0202301N004612200019N0250001N1+01271+00561101081ADDAA199000091GF102991001001999999001011MA1999999100271MD1710031+9999REMSYN066AAXX  24094 47112 32975 22309 10127 20056 30027 40108 57003 80001;EQDQ01  00002PRCP99
0163471120999992000042415004+37480+126630FM-12+007099999V0201801N003619999999N0250001N1+01231+00171101181ADDAA199000091GF106991021051999999041001MA1999999100361MD1310011+9999REMSYN066AAXX  24154 47112 32975 61807 10123 20017 30036 40118 53001 82540;EQDQ01  00002PRCP99
0173471120999992000042418004+37480+126630FM-12+007099999V0201601N003119999999N0120001N1+01201-00111101111ADDAA199000091GF106991061001999999041001MA1999999100301MD1710061+9999REMSYN076AAXX  24184 47112 32962 61606 10120 21011 30030 40111 57006 86040 333 92022;EQDQ01  00002PRCP99
0163471120999992000042421004+37480+126630FM-12+007099999V0201601N005110360019N0100001N1+01301-00321101051ADDAA199000091GF108991041051008001011999MA1999999100231MD1710071+9999REMSYN066AAXX  24214 47112 32560 81610 10130 21032 30023 40105 57007 8451/;EQDQ01  00002PRCP99
0216471120999992000042500004+37480+126630FM-12+007099999V0201601N002610075019N0120001N1+01561+00041101051ADDAA199000091GF108991051051008001021999IA1019IA2999+01609KA1120N+01191MA1999999100251MD1310021+9999REMSYN088AAXX  25004 47112 32562 81605 10156 20004 30025 40105 53002 8552/ 333 20119 30016 92011;EQDQ01  00002PRCP99
0163471120999992000042503004+37480+126630FM-12+007099999V0201801N005110360019N0130001N1+01781+00531100861ADDAA199000091GF108991031051008001011999MA1999999100061MD1710191+9999REMSYN066AAXX  25034 47112 32563 81810 10178 20053 30006 40086 57019 8351/;EQDQ01  00002PRCP99
0163471120999992000042506004+37480+126630FM-12+007099999V0202301N004610360019N0130001N1+02031+00211100611ADDAA199000091GF108991021051008001011999MA1999999099831MD1710241+9999REMSYN066AAXX  25064 47112 32563 82309 10203 20021 39983 40061 57024 8251/;EQDQ01  00002PRCP99
0163471120999992000042509004+37480+126630FM-12+007099999V0202501N004110075019N0150001N1+01631+00391100511ADDAA199000091GF108991061051008001011999MA1999999099711MD1710111+9999REMSYN066AAXX  25094 47112 32565 82508 10163 20039 39971 40051 57011 8651/;EQDQ01  00002PRCP99
0243471120999992000042512004+37480+126630FM-12+007099999V0202701N003110075019N0120001N1+01551+00641100631ADDAA112000791AY161061AY261061GF108991061051008001021999IA1019IA2999+01409KA1120M+02141MA1999999099831MD1210121+9999MW1601REMSYN112AAXX  25124 47112 11562 82706 10155 20064 39983 40063 52012 69902 76066 8652/ 333 10214 30014 55001 70000 92033;
0161471120999992000042515004+37480+126630FM-12+007099999V0202001N004110075019N0030001N1+01371+00951100481ADDAY161031AY261031GF108991061071008001021999MA1999999099681MD1710151+9999MW1611REMSYN072AAXX  25154 47112 41530 82008 10137 20095 39968 40048 57015 76166 8672/;
0101471120999992000042518004+37480+126630FM-12+007099999V0203401N001519999999N9999999N1+01211+01081100311ADDMA1999999099501MD1710181+9999REMSYN060AAXX  25184 47112 4//// /3403 10121 20108 39950 40031 57018;
0161471120999992000042521004+37480+126630FM-12+007099999V0201601N002110075019N0012001N1+01211+01131100071ADDAY161031AY261031GF108991051051008001021999MA1999999099261MD1710241+9999MW1101REMSYN072AAXX  25214 47112 41512 81604 10121 20113 39926 40007 57024 71066 8552/;
0237471120999992000042600004+37480+126630FM-12+007099999V0201801N004610075019N0005001N1+01171+01131100031ADDAA112003091AY161061AY261061GF108991061071008001021999IA1099IA2999+01209KA1120N+01141MA1999999099221MD1710041+9999MW1611REMSYN106AAXX  26004 47112 11505 81809 10117 20113 39922 40003 57004 60032 76166 8672/ 333 20114 31012 70025 92033;
0161471120999992000042603004+37480+126630FM-12+007099999V0202501N004110360019N0012001N1+01031+00991100041ADDAY141031AY221031GF108991041051008001021999MA1999999099231MD1710011+9999MW1101REMSYN072AAXX  26034 47112 41512 82508 10103 20099 39923 40004 57001 71042 8452/;
0171471120999992000042606004+37480+126630FM-12+007099999V0202701N004110360019N0090001N1+01071+00891100081ADDAY121061AY221061GF108991031051008001021999MA1999999099271MD1210041+9999MW1061REMSYN082AAXX  26064 47112 41559 82708 10107 20089 39927 40008 52004 70622 8352/ 333 92033;
0161471120999992000042609004+37480+126630FM-12+007099999V0202301N004610360019N0070001N1+00971+00871100151ADDAY121031AY221031GF108991041051008001021999MA1999999099331MD1010061+9999MW1061REMSYN072AAXX  26094 47112 41557 82309 10097 20087 39933 40015 50006 70622 8452/;
0224471120999992000042612004+37480+126630FM-12+007099999V0202301N003110360019N0070001N1+00921+00881100331ADDAA112000891AY121061AY221061GF108991021051008001021999IA1099IA2999+01009MA1999999099511MD1210181+9999MW1061REMSYN106AAXX  26124 47112 11557 82306 10092 20088 39951 40033 52018 69982 70622 8252/ 333 31010 55000 70033 92011;
0191471120999992000042615004+37480+126630FM-12+007099999V0202501N003110360019N0060001N1+00891+00851100351ADDAA199000091AY121031AY221031GF108991021051008001011999MA1999999099531MD1510021+9999MW1061REMSYN072AAXX  26154 47112 31556 82506 10089 20085 39953 40035 55002 70622 8251/;EQDQ01  00002PRCP99
0201471120999992000042618004+37480+126630FM-12+007099999V0202001N005110360019N0060001N1+00951+00851100291ADDAA199000091AY121061AY221061GF108991021051008001011999MA1999999099471MD1710061+9999MW1061REMSYN082AAXX  26184 47112 31556 82010 10095 20085 39947 40029 57006 70622 8251/ 333 92011;EQDQ01  00002PRCP99
0161471120999992000042621004+37480+126630FM-12+007099999V0202001N004110075019N0030001N1+00941+00921100331ADDAY161031AY221031GF108991051051008001021999MA1999999099511MD1210041+9999MW1211REMSYN072AAXX  26214 47112 41530 82008 10094 20092 39951 40033 52004 72162 8552/;
0218471120999992000042700004+37480+126630FM-12+007099999V0203201N004110075019N0030001N1+01071+01021100451ADDAA112001091AY161061AY261061GF108991051051008001021999IA1099IA2999+01209MA1999999099641MD1210121+9999MW1211REMSYN100AAXX  27004 47112 11530 83208 10107 20102 39964 40045 52012 60012 72166 8552/ 333 31012 70022 92033;
0133471120999992000042703004+37480+126630FM-12+007099999V0200701N002110075019N0120001N1+01121+00941100611ADDGF108991061051008001021999MA1999999099801MD1210161+9999REMSYN066AAXX  27034 47112 42562 80704 10112 20094 39980 40061 52016 8652/;
0143471120999992000042706004+37480+126630FM-12+007099999V0200201N003610360019N0250001N1+01391+00861100681ADDGF107991041051008001011999MA1999999099881MD1210081+9999REMSYN076AAXX  27064 47112 42575 70207 10139 20086 39988 40068 52008 8451/ 333 92033;
0133471120999992000042709004+37480+126630FM-12+007099999V0200701N002110075019N0250001N1+01241+00711100801ADDGF106991061051008001001001MA1999999099991MD1210111+9999REMSYN066AAXX  27094 47112 42575 60704 10124 20071 39999 40080 52011 86500;
0209471120999992000042712004+37480+126630FM-12+007099999V0202901N001512200019N0250001N1+01091+00701101051ADDAA112000791GF101991011051008001001001IA1099IA2999+00909KA1120M+01551MA1999999100231MD1210241+9999REMSYN100AAXX  27124 47112 12575 12903 10109 20070 30023 40105 52024 69902 81500 333 10155 31009 70014 91022;
0173471120999992000042715004+37480+126630FM-12+007099999V0202901N002612200019N0250001N1+01001+00781101191ADDAA199000091GA1001+999999999GF100991001001999999001001MA1999999100371MD1210141+9999REMSYN060AAXX  27154 47112 32975 02905 10100 20078 30037 40119 52014;EQDQ01  00002PRCP99
0183471120999992000042718004+37480+126630FM-12+007099999V0202501N001512200019N0250001N1+00921+00831101231ADDAA199000091GA1001+999999999GF100991001001999999001001MA1999999100411MD1210041+9999REMSYN070AAXX  27184 47112 32975 02503 10092 20083 30041 40123 52004 333 92011;EQDQ01  00002PRCP99
0201471120999992000042721004+37480+126630FM-12+007099999V0201601N002112200019N0080001N1+00861+00811101271ADDAA199000091AY101031AY201031GA1001+999999999GF100991001001999999001001MA1999999100441MD1210041+9999MW1101REMSYN066AAXX  27214 47112 31958 01604 10086 20081 30044 40127 52004 71000;EQDQ01  00002PRCP99
0244471120999992000042800004+37480+126630FM-12+007099999V0201801N003112200019N0060001N1+01131+00851101491ADDAA199000091AY111061AY211061GF102991021051008001001001IA1099IA2999+01809KA1120N+00841MA1999999100671MD1210221+9999MW1101REMSYN094AAXX  28004 47112 31556 21806 10113 20085 30067 40149 52022 71011 82500 333 20084 31018 92011;EQDQ01  00002PRCP99
0173471120999992000042803004+37480+126630FM-12+007099999V0202301N005712200019N0110001N1+01441+00951101471ADDAA199000091GA1001+999999999GF100991001001999999001001MA1999999100661MD1510001+9999REMSYN060AAXX  28034 47112 32561 02311 10144 20095 30066 40147 55000;EQDQ01  00002PRCP99
0183471120999992000042806004+37480+126630FM-12+007099999V0202701N005112200019N0150001N1+01641+00651101421ADDAA199000091GA1001+999999999GF100991001001999999001001MA1999999100621MD1710041+9999REMSYN070AAXX  28064 47112 32565 02710 10164 20065 30062 40142 57004 333 92011;EQDQ01  00002PRCP99
0173471120999992000042809004+37480+126630FM-12+007099999V0202701N006212200019N0150001N1+01471+00481101431ADDAA199000091GA1001+999999999GF100991001001999999001001MA1999999100621MD1010001+9999REMSYN060AAXX  28094 47112 32965 02712 10147 20048 30062 40143 50000;EQDQ01  00002PRCP99
0232471120999992000042812004+37480+126630FM-12+007099999V0202301N002612200019N0150001N1+01231+00531101591ADDAA199000091GA1001+999999999GF100991001001999999001001IA1019IA2999+01109KA1120M+01741MA1999999100771MD1210151+9999REMSYN088AAXX  28124 47112 32965 02305 10123 20053 30077 40159 52015 333 10174 30011 55101 92022;EQDQ01  00002PRCP99
0173471120999992000042815004+37480+126630FM-12+007099999V0201801N002612200019N0120001N1+01111+00571101701ADDAA199000091GA1001+999999999GF100991001001999999001001MA1999999100871MD1210111+9999REMSYN060AAXX  28154 47112 32962 01805 10111 20057 30087 40170 52011;EQDQ01  00002PRCP99
0183471120999992000042818004+37480+126630FM-12+007099999V0201801N003112200019N0100001N1+01091+00611101751ADDAA199000091GA1001+999999999GF100991001001999999001001MA1999999100931MD1310051+9999REMSYN070AAXX  28184 47112 32960 01806 10109 20061 30093 40175 53005 333 92033;EQDQ01  00002PRCP99
0173471120999992000042821004+37480+126630FM-12+007099999V0201601N003112200019N0100001N1+01051+00451101771ADDAA199000091GA1001+999999999GF100991001001999999001001MA1999999100951MD1210021+9999REMSYN060AAXX  28214 47112 32960 01606 10105 20045 30095 40177 52002;EQDQ01  00002PRCP99
0226471120999992000042900004+37480+126630FM-12+007099999V0201601N003112200019N0120001N1+01691+00271101841ADDAA199000091GA1001+999999999GF100991001001999999001001IA1019IA2999+02309KA1120N+01011MA1999999101031MD1210081+9999REMSYN082AAXX  29004 47112 32962 01606 10169 20027 30103 40184 52008 333 20101 30023 92022;EQDQ01  00002PRCP99
0173471120999992000042903004+37480+126630FM-12+007099999V0202301N004612200019N0170001N1+01931+00341101811ADDAA199000091GA1001+999999999GF100991001001999999001001MA1999999101011MD1310021+9999REMSYN060AAXX  29034 47112 32967 02309 10193 20034 30101 40181 53002;EQDQ01  00002PRCP99
0173471120999992000042906004+37480+126630FM-12+007099999V0202501N003612200019N0180001N1+02011-00011101601ADDAA199000091GF102991001001999999001011MA1999999100811MD1710201+9999REMSYN076AAXX  29064 47112 32968 22507 10201 21001 30081 40160 57020 80001 333 92011;EQDQ01  00002PRCP99
0163471120999992000042909004+37480+126630FM-12+007099999V0202701N002119999999N0180001N1+01811+00211101471ADDAA199000091GF106991001001999999001021MA1999999100671MD1710141+9999REMSYN066AAXX  29094 47112 32968 62704 10181 20021 30067 40147 57014 80002;EQDQ01  00002PRCP99
0222471120999992000042912004+37480+126630FM-12+007099999V0203401N002119999999N0180001N1+01341+00471101521ADDAA199000091GF106991001001999999001011IA1019IA2999+01209KA1120M+02151MA1999999100701MD1010031+9999REMSYN094AAXX  29124 47112 32968 63404 10134 20047 30070 40152 50003 80001 333 10215 30012 55102 92011;EQDQ01  00002PRCP99
0163471120999992000042915004+37480+126630FM-12+007099999V0202001N001519999999N0150001N1+01311+00581101511ADDAA199000091GF106991001001999999001021MA1999999100701MD1510011+9999REMSYN066AAXX  29154 47112 32965 62003 10131 20058 30070 40151 55001 80002;EQDQ01  00002PRCP99
0173471120999992000042918004+37480+126630FM-12+007099999V0201601N003119999999N0150001N1+01261+00501101301ADDAA199000091GF108991081001999999011999MA1999999100491MD1710211+9999REMSYN076AAXX  29184 47112 32965 81606 10126 20050 30049 40130 57021 8801/ 333 92011;EQDQ01  00002PRCP99
0163471120999992000042921004+37480+126630FM-12+007099999V0201801N005110360019N0150001N1+01271+00651101121ADDAA199000091GF107991031051008001041001MA1999999100301MD1710181+9999REMSYN066AAXX  29214 47112 32565 71810 10127 20065 30030 40112 57018 83540;EQDQ01  00002PRCP99
0216471120999992000043000004+37480+126630FM-12+007099999V0202301N003610075019N0150001N1+01421+00661101231ADDAA199000091GF108991061051008001011999IA1019IA2999+01509KA1120N+01221MA1999999100421MD1210121+9999REMSYN088AAXX  30004 47112 32565 82307 10142 20066 30042 40123 52012 8651/ 333 20122 30015 92033;EQDQ01  00002PRCP99
0163471120999992000043003004+37480+126630FM-12+007099999V0202301N005112200019N0250001N1+01651+00871101141ADDAA199000091GF102991021051008001001001MA1999999100341MD1510081+9999REMSYN066AAXX  30034 47112 32575 22310 10165 20087 30034 40114 55008 82500;EQDQ01  00002PRCP99
0173471120999992000043006004+37480+126630FM-12+007099999V0202701N005710360019N0250001N1+01581+00811100981ADDAA199000091GF106991021051008001041001MA1999999100171MD1710171+9999REMSYN076AAXX  30064 47112 32575 62711 10158 20081 30017 40098 57017 82540 333 92033;EQDQ01  00002PRCP99
0163471120999992000043009004+37480+126630FM-12+007099999V0202501N003612200019N0250001N1+01321+01031100851ADDAA199000091GF102991021051008001001001MA1999999100041MD1710131+9999REMSYN066AAXX  30094 47112 32575 22507 10132 20103 30004 40085 57013 82500;EQDQ01  00002PRCP99
0216471120999992000043012004+37480+126630FM-12+007099999V0202501N003119999999N0110001N1+01111+01031101021ADDAA199000091GF108991031051999999011999IA1019IA2999+01209KA1120M+01661MA1999999100201MD1210161+9999REMSYN088AAXX  30124 47112 32961 82506 10111 20103 30020 40102 52016 8351/ 333 10166 30012 92022;EQDQ01  00002PRCP99
0191471120999992000043015004+37480+126630FM-12+007099999V0201801N004110360019N0080001N1+01071+00981101041ADDAA199000091AY121031AY221031GF108991041051008001011999MA1999999100221MD1210101+9999MW1101REMSYN072AAXX  30154 47112 31558 81808 10107 20098 30022 40104 52010 71022 8451/;EQDQ01  00002PRCP99
0201471120999992000043018004+37480+126630FM-12+007099999V0201801N003612200019N0080001N1+01181+01031100891ADDAA199000091AY111061AY211061GF104991041051008001001001MA1999999100071MD1810141+9999MW1101REMSYN082AAXX  30184 47112 31558 41807 10118 20103 30007 40089 58014 71011 84500 333 92033;EQDQ01  00002PRCP99
0191471120999992000043021004+37480+126630FM-12+007099999V0202301N001010360019N0070001N1+01191+00971100921ADDAA199000091AY121031AY221031GF108991031051008001011999MA1999999100111MD1810041+9999MW1101REMSYN072AAXX  30214 47112 31557 82302 10119 20097 30011 40092 58004 71022 8351/;EQDQ01  00002PRCP99
0231471120999992000050100004+37480+126630FM-12+007099999V0201801N005710120019N0100001N1+01551+00821100661ADDAA112000791AY161061AY221061GF106991061081008001001001IA1019IA2999+01909KA1120N+01031MA1999999099861MD1810251+9999MW1211REMSYN100AAXX  01004 47112 11560 61811 10155 20082 39986 40066 58025 69902 72162 86800 333 20103 30019 92011;
0133471120999992000050103004+37480+126630FM-12+007099999V0202001N007710075019N0110001N1+01661+01021100621ADDGF107991071051008001001001MA1999999099831MD1210041+9999REMSYN066AAXX  01034 47112 42561 72015 10166 20102 39983 40062 52004 87500;
0171471120999992000050106004+37480+126630FM-12+007099999V0202301N004612200019N0080001N1+01501+01031100461ADDAY111061AY211061GF102991011051008001001011MA1999999099661MD1710161+9999MW1101REMSYN082AAXX  01064 47112 41558 22309 10150 20103 39966 40046 57016 71011 81501 333 92011;
0133471120999992000050109004+37480+126630FM-12+007099999V0202901N006710075019N0120001N1+01451+01081100591ADDGF108991061051008001011999MA1999999099791MD1210131+9999REMSYN066AAXX  01094 47112 42562 82913 10145 20108 39979 40059 52013 8651/;
0209471120999992000050112004+37480+126630FM-12+007099999V0203401N004110075019N0120001N1+01361+01031100811ADDAA124000021GF106991061051008001001001IA1019IA2999+01409KA1120M+01761MA1999999100001MD1210211+9999REMSYN100AAXX  01124 47112 32562 63408 10136 20103 30000 40081 52021 86500 333 10176 30014 55054 70000 92033;
0163471120999992000050115004+37480+126630FM-12+007099999V0203401N002612200019N0120001N1+01141+00911100981ADDAA199000091GF104991021051008001041001MA1999999100171MD1210171+9999REMSYN066AAXX  01154 47112 32562 43405 10114 20091 30017 40098 52017 82540;EQDQ01  00002PRCP99
0183471120999992000050118004+37480+126630FM-12+007099999V0200501N003612200019N0150001N1+00961+00721101031ADDAA199000091GA1001+999999999GF100991001001999999001001MA1999999100211MD1210041+9999REMSYN070AAXX  01184 47112 32965 00507 10096 20072 30021 40103 52004 333 92033;EQDQ01  00002PRCP99
0173471120999992000050121004+37480+126630FM-12+007099999V0200501N003112200019N0200001N1+00911+00661101141ADDAA199000091GA1001+999999999GF100991001001999999001001MA1999999100321MD1210111+9999REMSYN060AAXX  01214 47112 32970 00506 10091 20066 30032 40114 52011;EQDQ01  00002PRCP99
0226471120999992000050200004+37480+126630FM-12+007099999V0200701N002112200019N0300001N1+01491+00721101331ADDAA199000091GA1001+999999999GF100991001001999999001001IA1019IA2999+02209KA1120N+00881MA1999999100521MD1210211+9999REMSYN082AAXX  02004 47112 32980 00704 10149 20072 30052 40133 52021 333 20088 30022 92022;EQDQ01  00002PRCP99
0163471120999992000050203004+37480+126630FM-12+007099999V0203401N004112200019N0280001N1+01841+00691101341ADDAA199000091GF101991011051999999001001MA1999999100541MD1310021+9999REMSYN066AAXX  02034 47112 32978 13408 10184 20069 30054 40134 53002 81500;EQDQ01  00002PRCP99
0173471120999992000050206004+37480+126630FM-12+007099999V0202701N007212200019N0250001N1+01611+00561101281ADDAA199000091GA1001+999999999GF100991001001999999001001MA1999999100481MD1710061+9999REMSYN060AAXX  02064 47112 32975 02714 10161 20056 30048 40128 57006;EQDQ01  00002PRCP99
0173471120999992000050209004+37480+126630FM-12+007099999V0202501N004112200019N0230001N1+01591+00721101261ADDAA199000091GA1001+999999999GF100991001001999999001001MA1999999100461MD1710021+9999REMSYN060AAXX  02094 47112 32973 02508 10159 20072 30046 40126 57002;EQDQ01  00002PRCP99
0232471120999992000050212004+37480+126630FM-12+007099999V0202501N002612200019N0200001N1+01241+00701101411ADDAA199000091GA1001+999999999GF100991001001999999001001IA1019IA2999+01209KA1120M+01861MA1999999100591MD1210141+9999REMSYN088AAXX  02124 47112 32970 02505 10124 20070 30059 40141 52014 333 10186 30012 55100 92011;EQDQ01  00002PRCP99
0173471120999992000050215004+37480+126630FM-12+007099999V0202001N003112200019N0180001N1+01141+00841101421ADDAA199000091GA1001+999999999GF100991001001999999001001MA1999999100611MD1310011+9999REMSYN060AAXX  02154 47112 32968 02006 10114 20084 30061 40142 53001;EQDQ01  00002PRCP99
0183471120999992000050218004+37480+126630FM-12+007099999V0202301N002112200019N0120001N1+01011+00851101361ADDAA199000091GA1001+999999999GF100991001001999999001001MA1999999100531MD1710071+9999REMSYN070AAXX  02184 47112 32962 02304 10101 20085 30053 40136 57007 333 92011;EQDQ01  00002PRCP99
0201471120999992000050221004+37480+126630FM-12+007099999V0201801N003112200019N0060001N1+01011+00941101411ADDAA199000091AY101031AY201031GA1001+999999999GF100991001001999999001001MA1999999100591MD1210051+9999MW1101REMSYN066AAXX  02214 47112 31556 01806 10101 20094 30059 40141 52005 71000;EQDQ01  00002PRCP99
0254471120999992000050300004+37480+126630FM-12+007099999V0202001N002612200019N0050001N1+01441+00991101501ADDAA199000091AY101061AY201061GA1001+999999999GF100991001001999999001001IA1019IA2999+02109KA1120N+00991MA1999999100691MD1210101+9999MW1101REMSYN088AAXX  03004 47112 31950 02005 10144 20099 30069 40150 52010 71000 333 20099 30021 92011;EQDQ01  00002PRCP99
0131471120999992000050303004+37480+126630FM-12+007099999V0202301N004619999999N9999999N1+01841+00861101511ADDAA199000091MA1999999100711MD1310021+9999REMSYN060AAXX  03034 47112 3//// /2309 10184 20086 30071 40151 53002;EQDQ01  00002PRCP99
0173471120999992000050306004+37480+126630FM-12+007099999V0202701N005712200019N0120001N1+01861+00631101411ADDAA199000091GF102991001001999999001021MA1999999100611MD1710101+9999REMSYN076AAXX  03064 47112 32962 22711 10186 20063 30061 40141 57010 80002 333 92011;EQDQ01  00002PRCP99
0173471120999992000050309004+37480+126630FM-12+007099999V0202701N003612200019N0120001N1+01771+00681101311ADDAA199000091GA1001+999999999GF100991001001999999001001MA1999999100511MD1710101+9999REMSYN060AAXX  03094 47112 32962 02707 10177 20068 30051 40131 57010;EQDQ01  00002PRCP99
0216471120999992000050312004+37480+126630FM-12+007099999V0202701N002112200019N0130001N1+01331+00591101491ADDAA199000091GF104991001001999999001021IA1019IA2999+01209KA1120M+02021MA1999999100681MD1210171+9999REMSYN088AAXX  03124 47112 32963 42704 10133 20059 30068 40149 52017 80002 333 10202 30012 92022;EQDQ01  00002PRCP99
0173471120999992000050315004+37480+126630FM-12+007099999V0200201N001012200019N0150001N1+01271+00751101541ADDAA199000091GA1001+999999999GF100991001001999999001001MA1999999100721MD1210051+9999REMSYN060AAXX  03154 47112 32965 00202 10127 20075 30072 40154 52005;EQDQ01  00002PRCP99
0173471120999992000050318004+37480+126630FM-12+007099999V0202001N002112200019N0150001N1+01231+00781101471ADDAA199000091GF102991021001999999031001MA1999999100661MD1210061+9999REMSYN076AAXX  03184 47112 32965 22004 10123 20078 30066 40147 52006 82030 333 92011;EQDQ01  00002PRCP99
0191471120999992000050321004+37480+126630FM-12+007099999V0201801N002112200019N0040001N1+01211+00781101461ADDAA199000091AY101031AY201031GF102991021001999999041001MA1999999100651MD1810011+9999MW1101REMSYN072AAXX  03214 47112 31940 21804 10121 20078 30065 40146 58001 71000 82040;EQDQ01  00002PRCP99
0244471120999992000050400004+37480+126630FM-12+007099999V0201601N003112200019N0050001N1+01841+00481101491ADDAA199000091AY111061AY211061GF102991021001999999031001IA1019IA2999+02309KA1120N+01201MA1999999100691MD1210041+9999MW1101REMSYN094AAXX  04004 47112 31950 21606 10184 20048 30069 40149 52004 71011 82030 333 20120 30023 92011;EQDQ01  00002PRCP99
0163471120999992000050403004+37480+126630FM-12+007099999V0202301N004610360019N0120001N1+01981+00621101431ADDAA199000091GF108991041051008001011999MA1999999100641MD1710051+9999REMSYN066AAXX  04034 47112 32562 82309 10198 20062 30064 40143 57005 8451/;EQDQ01  00002PRCP99
0183471120999992000050406004+37480+126630FM-12+007099999V0202501N003612200019N0130001N1+02241+00441101361ADDAA199000091GA1001+999999999GF100991001001999999001001MA1999999100571MD1710071+9999REMSYN070AAXX  04064 47112 32963 02507 10224 20044 30057 40136 57007 333 92011;EQDQ01  00002PRCP99
0173471120999992000050409004+37480+126630FM-12+007099999V0202301N002612200019N0150001N1+01891+00381101331ADDAA199000091GA1001+999999999GF100991001001999999001001MA1999999100531MD1710041+9999REMSYN060AAXX  04094 47112 32965 02305 10189 20038 30053 40133 57004;EQDQ01  00002PRCP99
0232471120999992000050412004+37480+126630FM-12+007099999V0201801N003612200019N0150001N1+01681+00551101411ADDAA199000091GA1001+999999999GF100991001001999999001001IA1019IA2999+01409KA1120M+02351MA1999999100611MD1010081+9999REMSYN088AAXX  04124 47112 32965 01807 10168 20055 30061 40141 50008 333 10235 30014 55078 92033;EQDQ01  00002PRCP99
0173471120999992000050415004+37480+126630FM-12+007099999V0201801N004112200019N0150001N1+01621+00311101511ADDAA199000091GA1001+999999999GF100991001001999999001001MA1999999100701MD1210091+9999REMSYN060AAXX  04154 47112 32965 01808 10162 20031 30070 40151 52009;EQDQ01  00002PRCP99
0183471120999992000050418004+37480+126630FM-12+007099999V0201601N004612200019N0150001N1+01611+00211101391ADDAA199000091GA1001+999999999GF100991001001999999001001MA1999999100591MD1710111+9999REMSYN070AAXX  04184 47112 32965 01609 10161 20021 30059 40139 57011 333 92033;EQDQ01  00002PRCP99
0163471120999992000050421004+37480+126630FM-12+007099999V0201801N003110075019N0120001N1+01671+00221101431ADDAA199000091GF108991061051008001011999MA1999999100631MD1810041+9999REMSYN066AAXX  04214 47112 32562 81806 10167 20022 30063 40143 58004 8651/;EQDQ01  00002PRCP99
0216471120999992000050500004+37480+126630FM-12+007099999V0201801N005112200019N0150001N1+01941+00321101431ADDAA199000091GF104991011051999999011001IA1019IA2999+02309KA1120N+01561MA1999999100631MD1310011+9999REMSYN088AAXX  05004 47112 32965 41810 10194 20032 30063 40143 53001 81510 333 20156 30023 92033;EQDQ01  00002PRCP99
0163471120999992000050503004+37480+126630FM-12+007099999V0202001N004110360019N0180001N1+01901+00621101471ADDAA199000091GF108991031051008001011999MA1999999100671MD1510041+9999REMSYN066AAXX  05034 47112 32568 82008 10190 20062 30067 40147 55004 8351/;EQDQ01  00002PRCP99
0163471120999992000050506004+37480+126630FM-12+007099999V0202301N003610360019N0180001N1+01961+00881101351ADDAA199000091GF108991031051008001011999MA1999999100561MD1710111+9999REMSYN066AAXX  05064 47112 32568 82307 10196 20088 30056 40135 57011 8351/;EQDQ01  00002PRCP99
0163471120999992000050509004+37480+126630FM-12+007099999V0202001N004110360019N0150001N1+01521+01071101271ADDAA199000091GF108991031051008001011999MA1999999100471MD1510091+9999REMSYN066AAXX  05094 47112 32565 82008 10152 20107 30047 40127 55009 8351/;EQDQ01  00002PRCP99
0222471120999992000050512004+37480+126630FM-12+007099999V0202501N004110360019N0120001N1+01361+01141101441ADDAA199000091GF108991031051008001011999IA1019IA2999+01409KA1120M+02261MA1999999100631MD1210161+9999REMSYN094AAXX  05124 47112 32562 82508 10136 20114 30063 40144 52016 8351/ 333 10226 30014 55004 92011;EQDQ01  00002PRCP99
0161471120999992000050515004+37480+126630FM-12+007099999V0202001N003610075019N0050001N1+01251+01191101451ADDAY161031AY261031GF108991061071008001021999MA1999999100631MD1710011+9999MW1611REMSYN072AAXX  05154 47112 41550 82007 10125 20119 30063 40145 57001 76166 8672/;
0171471120999992000050518004+37480+126630FM-12+007099999V0202301N003110075019N0030001N1+01201+01171101401ADDAY121061AY221061GF108991061051008001011999MA1999999100581MD1310051+9999MW1101REMSYN082AAXX  05184 47112 41530 82306 10120 20117 30058 40140 53005 71022 8651/ 333 92011;
0171471120999992000050521004+37480+126630FM-12+007099999V0202001N002610001519N0001001N1+01221+01201101421ADDAY141031AY241031GA1091+999999999GF109991091999999999999999MA1999999100601MD1310021+9999MW1471REMSYN066AAXX  05214 47112 41/01 92005 10122 20120 30060 40142 53002 74744;
0209471120999992000050600004+37480+126630FM-12+007099999V0203401N004112200019N0200001N1+01411+01061101521ADDAA112002091GF102991001001999999001011IA1099IA2999+02009KA1120N+01191MA1999999100701MD1210101+9999REMSYN100AAXX  06004 47112 12970 23408 10141 20106 30070 40152 52010 60022 80001 333 20119 31020 70023 92033;
0112471120999992000050603004+37480+126630FM-12+007099999V0203201N005719999999N9999999N1+01681+00751101531ADDAA199000021MA1999999100731MD1010021+9999REMSYN060AAXX  06034 47112 3//// /3211 10168 20075 30073 40153 50002;
0163471120999992000050606004+37480+126630FM-12+007099999V0202501N005712200019N0220001N1+01701+00771101441ADDAA199000091GF101991001001999999001011MA1999999100641MD1710091+9999REMSYN066AAXX  06064 47112 32972 12511 10170 20077 30064 40144 57009 80001;EQDQ01  00002PRCP99
0173471120999992000050609004+37480+126630FM-12+007099999V0203401N006712200019N0220001N1+01821+00511101371ADDAA199000091GA1001+999999999GF100991001001999999001001MA1999999100571MD1810061+9999REMSYN060AAXX  06094 47112 32972 03413 10182 20051 30057 40137 58006;EQDQ01  00002PRCP99
0213471120999992000050612004+37480+126630FM-12+007099999V0203201N005712200019N0220001N1+01461+00481101511ADDAA124002391GA1001+999999999GF100991001001999999001001IA1019IA2999+01409KA1120M+01951MA1999999100701MD1210131+9999REMSYN088AAXX  06124 47112 32972 03211 10146 20048 30070 40151 52013 333 10195 30014 70023 92044;
0173471120999992000050615004+37480+126630FM-12+007099999V0203601N001512200019N0220001N1+01331+00351101581ADDAA199000091GA1001+999999999GF100991001001999999001001MA1999999100771MD1210061+9999REMSYN060AAXX  06154 47112 32972 03603 10133 20035 30077 40158 52006;EQDQ01  00002PRCP99
0131471120999992000050618004+37480+126630FM-12+007099999V0202501N004619999999N9999999N1+01071+00801101621ADDAA199000091MA1999999100801MD1210031+9999REMSYN060AAXX  06184 47112 3//// /2509 10107 20080 30080 40162 52003;EQDQ01  00002PRCP99
0173471120999992000050621004+37480+126630FM-12+007099999V0202001N005112200019N0130001N1+01071+00821101601ADDAA199000091GA1001+999999999GF100991001001999999001001MA1999999100781MD1710021+9999REMSYN060AAXX  06214 47112 32963 02010 10107 20082 30078 40160 57002;EQDQ01  00002PRCP99
0226471120999992000050700004+37480+126630FM-12+007099999V0202001N006212200019N0150001N1+01441+00561101631ADDAA199000091GA1001+999999999GF100991001001999999001001IA1019IA2999+02709KA1120N+01041MA1999999100821MD1210041+9999REMSYN082AAXX  07004 47112 32965 02012 10144 20056 30082 40163 52004 333 20104 30027 92011;EQDQ01  00002PRCP99
0173471120999992000050703004+37480+126630FM-12+007099999V0202001N006712200019N0180001N1+01671+00611101611ADDAA199000091GA1001+999999999GF100991001001999999001001MA1999999100811MD1510021+9999REMSYN060AAXX  07034 47112 32968 02013 10167 20061 30081 40161 55002;EQDQ01  00002PRCP99
0183471120999992000050706004+37480+126630FM-12+007099999V0202301N006212200019N0150001N1+01591+00711101481ADDAA199000091GA1001+999999999GF100991001001999999001001MA1999999100671MD1710131+9999REMSYN070AAXX  07064 47112 32965 02312 10159 20071 30067 40148 57013 333 92011;EQDQ01  00002PRCP99
0173471120999992000050709004+37480+126630FM-12+007099999V0202301N006212200019N0130001N1+01471+00681101421ADDAA199000091GA1001+999999999GF100991001001999999001001MA1999999100611MD1710061+9999REMSYN060AAXX  07094 47112 32963 02312 10147 20068 30061 40142 57006;EQDQ01  00002PRCP99
0232471120999992000050712004+37480+126630FM-12+007099999V0202001N005112200019N0120001N1+01261+00801101511ADDAA199000091GA1001+999999999GF100991001001999999001001IA1019IA2999+01209KA1120M+01861MA1999999100701MD1210091+9999REMSYN088AAXX  07124 47112 32962 02010 10126 20080 30070 40151 52009 333 10186 30012 55108 92022;EQDQ01  00002PRCP99
0131471120999992000050715004+37480+126630FM-12+007099999V0202001N004619999999N9999999N1+01271+00851101571ADDAA199000091MA1999999100751MD1210051+9999REMSYN060AAXX  07154 47112 3//// /2009 10127 20085 30075 40157 52005;EQDQ01  00002PRCP99
0131471120999992000050718004+37480+126630FM-12+007099999V0202001N003619999999N9999999N1+01161+00891101631ADDAA199000091MA1999999100811MD1010051+9999REMSYN060AAXX  07184 47112 3//// /2007 10116 20089 30081 40163 50005;EQDQ01  00002PRCP99
0153471120999992000050721004+37480+126630FM-12+007099999V0201601N002112200019N0100001N1+01121+00721101651ADDAA199000091GA1001+999999999GF100991001001999999001001MA1999999100831REMSYN054AAXX  07214 47112 32960 01604 10112 20072 30083 40165;EQDQ01  00002PRCP99
0206471120999992000050800004+37480+126630FM-12+007099999V0201801N004112200019N0150001N1+01651+00711101791ADDAA199000091GA1001+999999999GF100991001001999999001001IA1019IA2999+03109KA1120N+01111MA1999999100981REMSYN076AAXX  08004 47112 32965 01808 10165 20071 30098 40179 333 20111 30031 92011;EQDQ01  00002PRCP99
0205471120999992000050803004+37480+126630FM-12+007099999V0202301N004612200019N0180001N1+01861+00701101781ADDAA199000091GA1001+999999999GF100991001001999999001001MA1999999100981MD1710011+9999REMSYN060AAXX  08034 47112 32968 02309 10186 20070 30098 40178 57000;EQDQ01+000072APCTENQ02+000002APC3  Q03  00002PRCP99
0173471120999992000050806004+37480+126630FM-12+007099999V0202301N004612200019N0200001N1+01791+00851101601ADDAA199000091GF104991001001999999001021MA1999999100801MD1710181+9999REMSYN076AAXX  08064 47112 32970 42309 10179 20085 30080 40160 57018 80002 333 92011;EQDQ01  00002PRCP99
0163471120999992000050809004+37480+126630FM-12+007099999V0202301N003612200019N0170001N1+01531+00981101551ADDAA199000091GF102991001001999999001011MA1999999100751MD1710051+9999REMSYN066AAXX  08094 47112 32967 22307 10153 20098 30075 40155 57005 80001;EQDQ01  00002PRCP99
0222471120999992000050812004+37480+126630FM-12+007099999V0202501N002619999999N0150001N1+01311+01021101661ADDAA199000091GF105991001001999999001011IA1019IA2999+01409KA1120M+01931MA1999999100841MD1210101+9999REMSYN094AAXX  08124 47112 32965 52505 10131 20102 30084 40166 52010 80001 333 10193 30014 55102 92011;EQDQ01  00002PRCP99
0163471120999992000050815004+37480+126630FM-12+007099999V0201601N002119999999N0120001N1+01371+01081101651ADDAA199000091GF106991001001999999001011MA1999999100831MD1310011+9999REMSYN066AAXX  08154 47112 32962 61604 10137 20108 30083 40165 53001 80001;EQDQ01  00002PRCP99
0201471120999992000050818004+37480+126630FM-12+007099999V0201401N001512200019N0050001N1+01341+01101101511ADDAA199000091AY121061AY221061GF104991001001999999001011MA1999999100691MD1710141+9999MW1101REMSYN082AAXX  08184 47112 31950 41403 10134 20110 30069 40151 57014 71022 80001 333 92011;EQDQ01  00002PRCP99
0191471120999992000050821004+37480+126630FM-12+007099999V0201401N001012200019N0080001N1+01311+01111101411ADDAA199000091AY121031AY221031GF104991001001999999001021MA1999999100601MD1710101+9999MW1101REMSYN072AAXX  08214 47112 31958 41402 10131 20111 30060 40141 57010 71022 80002;EQDQ01  00002PRCP99
0244471120999992000050900004+37480+126630FM-12+007099999V0203401N002119999999N0050001N1+01761+01271101391ADDAA199000091AY121061AY221061GF105991001001999999001021IA1019IA2999+02509KA1120N+01301MA1999999100591MD1510001+9999MW1101REMSYN094AAXX  09004 47112 31950 53404 10176 20127 30059 40139 55000 71022 80002 333 20130 30025 92022;EQDQ01  00002PRCP99
0191471120999992000050903004+37480+126630FM-12+007099999V0203201N003619999999N0050001N1+02211+01111101251ADDAA199000091AY121031AY221031GF106991031001999999011021MA1999999100461MD1710131+9999MW1101REMSYN072AAXX  09034 47112 31950 63207 10221 20111 30046 40125 57013 71022 83012;EQDQ01  00002PRCP99
0201471120999992000050906004+37480+126630FM-12+007099999V0203601N001510075019N0035001N1+02381+01251100901ADDAA199000091AY121061AY221061GF108991051051008001011999MA1999999100121MD1710341+9999MW1051REMSYN082AAXX  09064 47112 31535 83603 10238 20125 30012 40090 57034 70522 8551/ 333 92033;EQDQ01  00002PRCP99
0191471120999992000050909004+37480+126630FM-12+007099999V0202301N003110075019N0035001N1+01991+01311100881ADDAA199000091AY121031AY221031GF108991061051008001021999MA1999999100091MD1710031+9999MW1051REMSYN072AAXX  09094 47112 31535 82306 10199 20131 30009 40088 57003 70522 8652/;EQDQ01  00002PRCP99
0216471120999992000050912004+37480+126630FM-12+007099999V0202001N003110360019N0120001N1+01781+00431101021ADDAA199000091GF108991041051008001011999IA1019IA2999+01609KA1120M+02501MA1999999100231MD1210141+9999REMSYN088AAXX  09124 47112 32562 82006 10178 20043 30023 40102 52014 8451/ 333 10250 30016 92033;EQDQ01  00002PRCP99
0163471120999992000050915004+37480+126630FM-12+007099999V0201401N002610360019N0120001N1+01811+00161100911ADDAA199000091GF108991031051008001011999MA1999999100111MD1510111+9999REMSYN066AAXX  09154 47112 32562 81405 10181 20016 30011 40091 55011 8351/;EQDQ01  00002PRCP99
0173471120999992000050918004+37480+126630FM-12+007099999V0201601N004119999999N0150001N1+01921+00031100721ADDAA199000091GF108991041051999999011999MA1999999099931MD1710191+9999REMSYN076AAXX  09184 47112 32965 81608 10192 20003 39993 40072 57019 8451/ 333 92022;EQDQ01  00002PRCP99
0161471120999992000050921004+37480+126630FM-12+007099999V0201401N006710360019N0130001N1+01861+00901100411ADDAY161031AY261031GF108991021071008001021999MA1999999099621MD1710311+9999MW1611REMSYN072AAXX  09214 47112 41563 81413 10186 20090 39962 40041 57031 76166 8272/;
0237471120999992000051000004+37480+126630FM-12+007099999V0201601N007710075019N0050001N1+01561+01361100361ADDAA112005191AY161061AY261061GF108991061071008001021999IA1099IA2999+01509KA1120N+01521MA1999999099561MD1710061+9999MW1611REMSYN106AAXX  10004 47112 11550 81615 10156 20136 39956 40036 57006 60052 76166 8672/ 333 20152 31015 70054 92011;
0161471120999992000051003004+37480+126630FM-12+007099999V0202301N003610075019N0003001N1+01271+01241100501ADDAY161031AY261031GF108991061071008001021999MA1999999099691MD1210131+9999MW1631REMSYN072AAXX  10034 47112 41503 82307 10127 20124 39969 40050 52013 76366 8672/;
0171471120999992000051006004+37480+126630FM-12+007099999V0201801N003610075019N0030001N1+01251+01221100471ADDAY161061AY221061GF108991061051008001021999MA1999999099671MD1710031+9999MW1211REMSYN082AAXX  10064 47112 41530 81807 10125 20122 39967 40047 57003 72162 8652/ 333 92011;
0133471120999992000051009004+37480+126630FM-12+007099999V0202301N008710075019N0100001N1+01321+01061100491ADDGF108991051051008001011999MA1999999099681MD1010011+9999REMSYN066AAXX  10094 47112 42560 82317 10132 20106 39968 40049 50001 8551/;
0285471120999992000051012004+37480+126630FM-12+007099999V0202301N005710075019N0035001N1+01151+01071100621ADDAA112030091AJ199999999999999AY161061AY261061GF108991061051008001021999IA1099IA2999+01309KA1120M+01931MA1999999099811MD1210131+9999MW1601REMSYN118AAXX  10124 47112 11535 82311 10115 20107 39981 40062 52013 60302 76066 8652/ 333 10193 31013 40338 55000 70357 92033;EQDQ01  03382SNDP  
0161471120999992000051015004+37480+126630FM-12+007099999V0202001N005110075019N0015001N1+01091+01021100681ADDAY161031AY261031GF108991061051008001021999MA1999999099871MD1210061+9999MW1601REMSYN072AAXX  10154 47112 41515 82010 10109 20102 39987 40068 52006 76066 8652/;
0171471120999992000051018004+37480+126630FM-12+007099999V0202001N006210075019N0050001N1+01171+00991100551ADDAY161061AY221061GF108991061051008001021999MA1999999099741MD1710131+9999MW1101REMSYN082AAXX  10184 47112 41550 82012 10117 20099 39974 40055 57013 71062 8652/ 333 92033;
0161471120999992000051021004+37480+126630FM-12+007099999V0202301N005110075019N0030001N1+01121+01061100531ADDAY161031AY261031GF108991061051008001021999MA1999999099721MD1810031+9999MW1611REMSYN072AAXX  10214 47112 41530 82310 10112 20106 39972 40053 58003 76166 8652/;
0209471120999992000051100004+37480+126630FM-12+007099999V0202501N004110075019N0150001N1+01161+01041100581ADDAA112004191GF108991061051008001021999IA1099IA2999+01209KA1120N+01071MA1999999099771MD1210051+9999REMSYN100AAXX  11004 47112 12565 82508 10116 20104 39977 40058 52005 60042 8652/ 333 20107 31012 70334 92033;
0161471120999992000051103004+37480+126630FM-12+007099999V0202301N005110360019N0090001N1+01251+01081100561ADDAY121031AY221031GF108991031051008001021999MA1999999099761MD1310011+9999MW1101REMSYN072AAXX  11034 47112 41559 82310 10125 20108 39976 40056 53001 71022 8352/;
0171471120999992000051106004+37480+126630FM-12+007099999V0202501N005112200019N0080001N1+01481+01131100481ADDAY101061AY201061GF102991021051008001001001MA1999999099681MD1710081+9999MW1101REMSYN082AAXX  11064 47112 41558 22510 10148 20113 39968 40048 57008 71000 82500 333 92022;
0161471120999992000051109004+37480+126630FM-12+007099999V0202501N003110075019N0090001N1+01301+01071100531ADDAY121031AY221031GF107991071051008001001001MA1999999099721MD1010041+9999MW1101REMSYN072AAXX  11094 47112 41559 72506 10130 20107 39972 40053 50004 71022 87500;
0243471120999992000051112004+37480+126630FM-12+007099999V0202901N000512200019N0060001N1+01131+01051100671ADDAA112000191AY111061AY211061GF103991031051008001001001IA1019IA2999+01209KA1120M+01541MA1999999099861MD1210131+9999MW1101REMSYN112AAXX  11124 47112 11556 32901 10113 20105 39986 40067 52013 69922 71011 83500 333 10154 30012 55009 70044 92011;
0201471120999992000051118004+37480+126630FM-12+007099999V0201801N004119999999N0030001N1+01101+00991100711ADDAA199000091AY121061AY221061GF108991081001999999011999MA1999999099891MD1510061+9999MW1101REMSYN082AAXX  11184 47112 31930 81808 10110 20099 39989 40071 55006 71022 8801/ 333 92011;EQDQ01  00002PRCP99
0191471120999992000051121004+37480+126630FM-12+007099999V0201401N003110360019N0030001N1+01091+00971100751ADDAA199000091AY121031AY221031GF108991041051008001011999MA1999999099941MD1210051+9999MW1101REMSYN072AAXX  11214 47112 31530 81406 10109 20097 39994 40075 52005 71022 8451/;EQDQ01  00002PRCP99
0244471120999992000051200004+37480+126630FM-12+007099999V0201801N002610075019N0030001N1+01451+01091100871ADDAA199000091AY121061AY221061GF107991061051008001011001IA1099IA2999+01909KA1120N+01081MA1999999100061MD1310121+9999MW1101REMSYN094AAXX  12004 47112 31530 71805 10145 20109 30006 40087 53012 71022 86510 333 20108 31019 92022;EQDQ01  00002PRCP99
0191471120999992000051203004+37480+126630FM-12+007099999V0202501N003110360019N0050001N1+01531+01131100871ADDAA199000091AY121031AY221031GF107991041051008001011001MA1999999100071MD1310011+9999MW1101REMSYN072AAXX  12034 47112 31550 72506 10153 20113 30007 40087 53001 71022 84510;EQDQ01  00002PRCP99
0173471120999992000051206004+37480+126630FM-12+007099999V0202701N003612200019N0100001N1+01731+01081100801ADDAA199000091GF105991021051008001001011MA1999999100001MD1710071+9999REMSYN076AAXX  12064 47112 32560 52707 10173 20108 30000 40080 57007 82501 333 92022;EQDQ01  00002PRCP99
0191471120999992000051209004+37480+126630FM-12+007099999V0202901N002610360019N0050001N1+01631+01191100731ADDAA199000091AY121031AY221031GF107991031051008001011001MA1999999099931MD1810071+9999MW1101REMSYN072AAXX  12094 47112 31550 72905 10163 20119 39993 40073 58007 71022 83510;EQDQ01  00002PRCP99
0244471120999992000051212004+37480+126630FM-12+007099999V0200901N001512200019N0070001N1+01431+01151100851ADDAA199000091AY111061AY211061GF102991001001999999001011IA1099IA2999+01509KA1120M+01911MA1999999100051MD1210121+9999MW1101REMSYN094AAXX  12124 47112 31957 20903 10143 20115 30005 40085 52012 71011 80001 333 10191 31015 92011;EQDQ01  00002PRCP99
0191471120999992000051215004+37480+126630FM-12+007099999V0200901N001012200019N0025001N1+01391+01131100861ADDAA199000091AY111031AY211031GF102991021001999999031001MA1999999100061MD1210011+9999MW1101REMSYN072AAXX  12154 47112 31925 20902 10139 20113 30006 40086 52001 71011 82030;EQDQ01  00002PRCP99
0201471120999992000051218004+37480+126630FM-12+007099999V0200501N001512200019N0007001N1+01311+01101100831ADDAA199000091AY141061AY221061GF102991021001999999031001MA1999999100021MD1710031+9999MW1441REMSYN082AAXX  12184 47112 31907 20503 10131 20110 30002 40083 57003 74442 82030 333 92011;EQDQ01  00002PRCP99
0191471120999992000051221004+37480+126630FM-12+007099999V0200501N001512200019N0008001N1+01201+01121100891ADDAA199000091AY141031AY241031GF102991021001999999031001MA1999999100081MD1210061+9999MW1451REMSYN072AAXX  12214 47112 31908 20503 10120 20112 30008 40089 52006 74544 82030;EQDQ01  00002PRCP99
0254471120999992000051300004+37480+126630FM-12+007099999V0200201N001512200019N0030001N1+01661+01331101001ADDAA199000091AY101061AY201061GA1001+999999999GF100991001001999999001001IA1099IA2999+02109KA1120N+01171MA1999999100201MD1210121+9999MW1101REMSYN088AAXX  13004 47112 31930 00203 10166 20133 30020 40100 52012 71000 333 20117 31021 92011;EQDQ01  00002PRCP99
0191471120999992000051303004+37480+126630FM-12+007099999V0203601N003612200019N0070001N1+02171+01251100821ADDAA199000091AY111031AY211031GF102991021051008001001001MA1999999100041MD1710161+9999MW1101REMSYN072AAXX  13034 47112 31557 23607 10217 20125 30004 40082 57016 71011 82500;EQDQ01  00002PRCP99
0183471120999992000051306004+37480+126630FM-12+007099999V0203201N003612200019N0100001N1+02341+01221100711ADDAA199000091GA1001+999999999GF100991001001999999001001MA1999999099931MD1710111+9999REMSYN070AAXX  13064 47112 32960 03207 10234 20122 39993 40071 57011 333 92011;EQDQ01  00002PRCP99
0163471120999992000051309004+37480+126630FM-12+007099999V0202701N004112200019N0150001N1+02091+01141100751ADDAA199000091GF102991021051008001001001MA1999999099971MD1710041+9999REMSYN066AAXX  13094 47112 32565 22708 10209 20114 39997 40075 57004 82500;EQDQ01  00002PRCP99
0209471120999992000051312004+37480+126630FM-12+007099999V0203601N002112200019N0120001N1+01731+01131100891ADDAA112000791GF102991021051008001001001IA1019IA2999+01709KA1120M+02341MA1999999100091MD1210121+9999REMSYN100AAXX  13124 47112 32562 23604 10173 20113 30009 40089 52012 69902 82500 333 10234 30017 55100 92022;
0173471120999992000051315004+37480+126630FM-12+007099999V0200501N001512200019N0120001N1+01671+01091100961ADDAA199000091GA1001+999999999GF100991001001999999001001MA1999999100161MD1310071+9999REMSYN060AAXX  13154 47112 32962 00503 10167 20109 30016 40096 53007;EQDQ01  00002PRCP99
0131471120999992000051318004+37480+126630FM-12+007099999V0202501N002119999999N9999999N1+01401+01181101051ADDAA199000091MA1999999100251MD1210091+9999REMSYN060AAXX  13184 47112 3//// /2504 10140 20118 30025 40105 52009;EQDQ01  00002PRCP99
0191471120999992000051321004+37480+126630FM-12+007099999V0202001N000512200019N0012001N1+01401+01211101161ADDAA199000091AY111031AY211031GF103991031001999999061001MA1999999100361MD1210111+9999MW1101REMSYN072AAXX  13214 47112 31912 32001 10140 20121 30036 40116 52011 71011 83060;EQDQ01  00002PRCP99
0254471120999992000051400004+37480+126630FM-12+007099999V0202001N003612200019N0015001N1+01841+01211101261ADDAA199000091AY101061AY201061GA1001+999999999GF100991001001999999001001IA1019IA2999+02509KA1120N+01371MA1999999100461MD1310111+9999MW1101REMSYN088AAXX  14004 47112 31915 02007 10184 20121 30046 40126 53011 71000 333 20137 30025 92033;EQDQ01  00002PRCP99
0233471120999992000051403004+37480+126630FM-12+007099999V0202301N004112200019N0080001N1+02131+01031101251ADDAA199000091AY101031AY201031GA1001+999999999GF100991001001999999001001MA1999999100461MD1710011+9999MW1101REMSYN066AAXX  14034 47112 31958 02308 10213 20103 30046 40125 53000 71000;EQDQ01+000032APCTENQ02+000002APC3  Q03  00002PRCP99
0173471120999992000051406004+37480+126630FM-12+007099999V0202501N004119999999N0120001N1+02101+01131101121ADDAA199000091GF107991001001999999001021MA1999999100331MD1710121+9999REMSYN076AAXX  14064 47112 31962 72508 10210 20113 30033 40112 57012 80002 333 92022;EQDQ01  00002PRCP99
0163471120999992000051409004+37480+126630FM-12+007099999V0202501N004119999999N0100001N1+01711+01321101021ADDAA199000091GF106991001001999999001021MA1999999100221MD1710111+9999REMSYN066AAXX  14094 47112 32960 62508 10171 20132 30022 40102 57011 80002;EQDQ01  00002PRCP99
0222471120999992000051412004+37480+126630FM-12+007099999V0203201N002119999999N0100001N1+01531+00921101201ADDAA199000091GF106991001001999999001021IA1019IA2999+01609KA1120M+02261MA1999999100391MD1210171+9999REMSYN094AAXX  14124 47112 32960 63204 10153 20092 30039 40120 52017 80002 333 10226 30016 55073 92011;EQDQ01  00002PRCP99
0191471120999992000051415004+37480+126630FM-12+007099999V0202001N003610360019N0080001N1+01431+01221101161ADDAA199000091AY121031AY221031GF108991021051008001011999MA1999999100351MD1510041+9999MW1101REMSYN072AAXX  14154 47112 31558 82007 10143 20122 30035 40116 55004 71022 8251/;EQDQ01  00002PRCP99
0201471120999992000051418004+37480+126630FM-12+007099999V0202301N003619999999N0080001N1+01331+01021101201ADDAA199000091AY121061AY221061GF108991081001008001011999MA1999999100391MD1210031+9999MW1101REMSYN082AAXX  14184 47112 31558 82307 10133 20102 30039 40120 52003 71022 8801/ 333 92011;EQDQ01  00002PRCP99
0196471120999992000051421004+37480+126630FM-12+007099999V0200501N003110075019N0120001N1+01331+01121101191ADDAY161031AY221031GF108991051071008001021999MA1999999100381MD1710011+9999MW1601REMSYN072AAXX  14214 47112 41562 80506 10133 20112 30038 40119 57000 76062 8572/;EQDQ01+000072APCTENQ02+000002APC3  
0143471120999992000051500004+37480+126630FM-12+007099999V0202901N004119999999N0120001N1+01431+01001999999ADDGF108991999999008001999999REMSYN105AAXX  15004 47112 11562 82908 10143 20100 3051 40132 53013 69922 71066 8652/ 333 20132 31016 70002 92033;
0133471120999992000051503004+37480+126630FM-12+007099999V0202701N003610360019N0150001N1+01551+01071101291ADDGF108991041051008001011999MA1999999100491MD1510021+9999REMSYN066AAXX  15034 47112 42565 82707 10155 20107 30049 40129 55002 8451/;
0143471120999992000051506004+37480+126630FM-12+007099999V0202301N004119999999N0200001N1+01921+00961101101ADDGF105991051001999999061001MA1999999100301MD1710191+9999REMSYN076AAXX  15064 47112 42970 52308 10192 20096 30030 40110 57019 85060 333 92033;
0144471120999992000051509004+37480+126630FM-12+007099999V0202701N004612200019N0200001N1+01641+00991101071ADDAA199000021GF103991031001999999041001MA1999999100271MD1710031+9999REMSYN066AAXX  15094 47112 32970 32709 10164 20099 30027 40107 57003 83040;
0231471120999992000051512004+37480+126630FM-12+007099999V0203201N001012200019N0070001N1+01501+01121101221ADDAA124000391AY121061AY221061GF104991041001999999031001IA1019IA2999+01609KA1120M+01971MA1999999100421MD1210141+9999MW1101REMSYN100AAXX  15124 47112 31957 43202 10150 20112 30042 40122 52014 71022 84030 333 10197 30016 70002 92011;
0191471120999992000051515004+37480+126630FM-12+007099999V0202301N003119999999N0090001N1+01431+01271101251ADDAA199000091AY121031AY221031GF105991001001999999001021MA1999999100441MD1310031+9999MW1101REMSYN072AAXX  15154 47112 31959 52306 10143 20127 30044 40125 53003 71022 80002;EQDQ01  00002PRCP99
0171471120999992000051518004+37480+126630FM-12+007099999V0203201N002110360019N0060001N1+01451+01391101141ADDAY161061AY221061GF108991031051008001021999MA1999999100331MD1710111+9999MW1601REMSYN082AAXX  15184 47112 41556 83204 10145 20139 30033 40114 57011 76062 8352/ 333 92011;
0161471120999992000051521004+37480+126630FM-12+007099999V0202301N001010075019N0040001N1+01451+01411101131ADDAY121031AY221031GF107991071051008001001001MA1999999100331MD1810011+9999MW1101REMSYN072AAXX  15214 47112 41540 72302 10145 20141 30033 40113 58001 71022 87500;
0237471120999992000051600004+37480+126630FM-12+007099999V0202501N002610360019N0012001N1+01511+01401101181ADDAA112000591AY121061AY221061GF108991041051008001011999IA1099IA2999+01709KA1120N+01381MA1999999100371MD1210041+9999MW1101REMSYN106AAXX  16004 47112 11512 82505 10151 20140 30037 40118 52004 69952 71022 8451/ 333 20138 31017 70005 92011;
0161471120999992000051603004+37480+126630FM-12+007099999V0202301N004110075019N0090001N1+01981+01281101121ADDAY121031AY221031GF105991051051008001001001MA1999999100331MD1710041+9999MW1101REMSYN072AAXX  16034 47112 41559 52308 10198 20128 30033 40112 57004 71022 85500;
0143471120999992000051606004+37480+126630FM-12+007099999V0202501N003110360019N0110001N1+01971+01331101001ADDGF106991041051008001041001MA1999999100211MD1710121+9999REMSYN076AAXX  16064 47112 42561 62506 10197 20133 30021 40100 57012 84540 333 92011;
0133471120999992000051609004+37480+126630FM-12+007099999V0203201N004112200019N0110001N1+01751+01131100921ADDGF103991031051008001001001MA1999999100131MD1710081+9999REMSYN066AAXX  16094 47112 42561 33208 10175 20113 30013 40092 57008 83500;
0215471120999992000051612004+37480+126630FM-12+007099999V0202501N002612200019N0100001N1+01551+01241101001ADDAA112000191GF104991041051008001001001IA1019IA2999+01709KA1120M+02111MA1999999100201MD1210071+9999REMSYN106AAXX  16124 47112 12560 42505 10155 20124 30020 40100 52007 69912 84500 333 10211 30017 55040 70006 92022;
0207471120999992000051615004+37480+126630FM-12+007099999V0202301N002612200019N0030001N1+01321+01251101021ADDAA199000091AY111031AY211031GF103991999001999999061001MA1999999100211MD1510011+9999MW1101REMSYN072AAXX  16154 47112 31930 32305 10132 20125 30021 40102 55001 71011 84060;EQDQ01+000042SCOTLCQ02  00002PRCP99
0201471120999992000051618004+37480+126630FM-12+007099999V0202301N003612200019N0030001N1+01281+01241100961ADDAA199000091AY111061AY211061GF102991021051008001001001MA1999999100151MD1810061+9999MW1101REMSYN082AAXX  16184 47112 31530 22307 10128 20124 30015 40096 58006 71011 82500 333 92033;EQDQ01  00002PRCP99
0201471120999992000051621004+37480+126630FM-12+007099999V0202301N002610006019N0007001N1+01281+01241101021ADDAA199000091AY141031AY241031GA1091+999999999GF109991091999999999999999MA1999999100211MD1210061+9999MW1471REMSYN066AAXX  16214 47112 31/07 92305 10128 20124 30021 40102 52006 74744;EQDQ01  00002PRCP99
0231471120999992000051700004+37480+126630FM-12+007099999V0202301N002610042019N0007001N1+01511+01341101141ADDAA124000191AY141061AY241061GF106991061071004501001001IA1019IA2999+01809KA1120N+01251MA1999999100331MD1210121+9999MW1441REMSYN100AAXX  17004 47112 31407 62305 10151 20134 30033 40114 52012 74444 86700 333 20125 30018 70001 92033;
0201471120999992000051703004+37480+126630FM-12+007099999V0202301N004612200019N0013001N1+01781+01391101101ADDAA199000091AY101031AY201031GA1001+999999999GF100991001001999999001001MA1999999100311MD1310021+9999MW1101REMSYN066AAXX  17034 47112 31913 02309 10178 20139 30031 40110 53002 71000;EQDQ01  00002PRCP99
0209471120999992000051706004+37480+126630FM-12+007099999V0202301N004612200019N0090001N1+01801+01311100991ADDAA199000091AY101061GA1001+999999999GF100991001001999999001001MA1999999100201MD1710111+9999MW1101REMSYN082AAXX  17064 47112 31959 02309 10180 20131 30020 40099 57011 7100/ 8///0 333 92033;EQDQ01  00002PRCP99
0201471120999992000051709004+37480+126630FM-12+007099999V0202501N004112200019N0090001N1+01641+01291100921ADDAA199000091AY101031AY201031GA1001+999999999GF100991001001999999001001MA1999999100121MD1710071+9999MW1101REMSYN066AAXX  17094 47112 31959 02508 10164 20129 30012 40092 57007 71000;EQDQ01  00002PRCP99
0260471120999992000051712004+37480+126630FM-12+007099999V0200201N001512200019N0050001N1+01241+01171101121ADDAA199000091AY101061AY201061GA1001+999999999GF100991001001999999001001IA1019IA2999+01709KA1120M+02031MA1999999100301MD1210181+9999MW1101REMSYN094AAXX  17124 47112 31950 00203 10124 20117 30030 40112 52018 71000 333 10203 30017 55066 92011;EQDQ01  00002PRCP99
0201471120999992000051715004+37480+126630FM-12+007099999V0202501N003110001519N0001001N1+01161+01131101211ADDAA199000091AY141031AY241031GA1091+999999999GF109991091999999999999999MA1999999100401MD1210091+9999MW1451REMSYN066AAXX  17154 47112 31/01 92506 10116 20113 30040 40121 52009 74544;EQDQ01  00002PRCP99
0211471120999992000051718004+37480+126630FM-12+007099999V0202301N003610001519N0001001N1+01061+01041101181ADDAA199000091AY141061AY241061GA1091+999999999GF109991091999999999999999MA1999999100361MD1710041+9999MW1451REMSYN076AAXX  17184 47112 31/01 92307 10106 20104 30036 40118 57004 74544 333 92011;EQDQ01  00002PRCP99
0201471120999992000051721004+37480+126630FM-12+007099999V0202501N003610001519N0000001N1+01031+01021101251ADDAA199000091AY141031AY241031GA1091+999999999GF109991091999999999999999MA1999999100431MD1210071+9999MW1471REMSYN066AAXX  17214 47112 31/00 92507 10103 20102 30043 40125 52007 74744;EQDQ01  00002PRCP99
0254471120999992000051800004+37480+126630FM-12+007099999V0202001N002110006019N0006001N1+01151+01141101281ADDAA199000091AY141061AY241061GA1091+999999999GF109991091999999999999999IA1019IA2999+01609KA1120N+01021MA1999999100461MD1310041+9999MW1431REMSYN088AAXX  18004 47112 31/06 92004 10115 20114 30046 40128 53004 74344 333 20102 30016 92022;EQDQ01  00002PRCP99
0191471120999992000051803004+37480+126630FM-12+007099999V0201801N003112200019N0035001N1+01871+01331101011ADDAA199000091AY111031AY211031GF102991001001999999001011MA1999999100221MD1710241+9999MW1101REMSYN072AAXX  18034 47112 31935 21806 10187 20133 30022 40101 57024 71011 80001;EQDQ01  00002PRCP99
0201471120999992000051806004+37480+126630FM-12+007099999V0202701N005710360019N0012001N1+01671+01341100981ADDAA199000091AY121061AY221061GF107991041051008001011001MA1999999100181MD1510041+9999MW1101REMSYN082AAXX  18064 47112 31512 72711 10167 20134 30018 40098 55004 71022 84510 333 92033;EQDQ01  00002PRCP99
0191471120999992000051809004+37480+126630FM-12+007099999V0201801N001510075019N0015001N1+01521+01261100851ADDAA199000091AY121031AY221031GF108991061051008001011999MA1999999100041MD1710131+9999MW1101REMSYN072AAXX  18094 47112 31515 81803 10152 20126 30004 40085 57013 71022 8651/;EQDQ01  00002PRCP99
0231471120999992000051812004+37480+126630FM-12+007099999V0203401N002110075019N0015001N1+01541+01321100921ADDAA124000191AY121061AY221061GF108991051051008001021999IA1019IA2999+01709KA1120M+01941MA1999999100111MD1210071+9999MW1101REMSYN100AAXX  18124 47112 41515 83404 10154 20132 30011 40092 52007 71022 8552/ 333 10194 30017 70001 92022;
0161471120999992000051815004+37480+126630FM-12+007099999V0202501N003110075019N0090001N1+01401+01161101061ADDAY161031AY221031GF108991051051008001021999MA1999999100261MD1210141+9999MW1211REMSYN072AAXX  18154 47112 41559 82506 10140 20116 30026 40106 52014 72162 8552/;
0171471120999992000051818004+37480+126630FM-12+007099999V0201401N003110360019N0070001N1+01381+01181100731ADDAY121061AY221061GF108991041051008001011999MA1999999099921MD1710341+9999MW1101REMSYN082AAXX  18184 47112 41557 81406 10138 20118 39992 40073 57034 71022 8451/ 333 92022;
0161471120999992000051821004+37480+126630FM-12+007099999V0201401N003612200019N0060001N1+01431+01211100691ADDAY101031AY201031GF102991021051008001001001MA1999999099891MD1710031+9999MW1101REMSYN072AAXX  18214 47112 41556 21407 10143 20121 39989 40069 57003 71000 82500;
0237471120999992000051900004+37480+126630FM-12+007099999V0201801N004612200019N0080001N1+01921+01291100701ADDAA112000191AY111061AY211061GF103991021051008001031001IA1019IA2999+02309KA1120N+01331MA1999999099921MD1210031+9999MW1101REMSYN106AAXX  19004 47112 11558 31809 10192 20129 39992 40070 52003 69912 71011 82530 333 20133 30023 70001 92011;
0161471120999992000051903004+37480+126630FM-12+007099999V0202301N005710360019N0080001N1+01841+01271100721ADDAY121031AY221031GF108991031051008001011999MA1999999099931MD1310011+9999MW1101REMSYN072AAXX  19034 47112 41558 82311 10184 20127 39993 40072 53001 71022 8351/;
0171471120999992000051906004+37480+126630FM-12+007099999V0202501N001510075019N0060001N1+01531+01421100611ADDAY191061AY261061GF108991061051008001021999MA1999999099811MD1510111+9999MW1601REMSYN082AAXX  19064 47112 41556 82503 10153 20142 39981 40061 55011 76096 8652/ 333 92011;
0161471120999992000051909004+37480+126630FM-12+007099999V0201601N002110360019N0050001N1+01671+01541100431ADDAY121031AY221031GF108991041051008001011999MA1999999099631MD1710181+9999MW1101REMSYN072AAXX  19094 47112 41550 81604 10167 20154 39963 40043 57018 71022 8451/;
0243471120999992000051912004+37480+126630FM-12+007099999V0202501N004110075019N0004001N1+01521+01481100581ADDAA112005191AY191061AY281061GF108991061071008001021999IA1099IA2999+01709KA1120M+01951MA1999999099781MD1210151+9999MW1611REMSYN112AAXX  19124 47112 11504 82508 10152 20148 39978 40058 52015 60052 76198 8672/ 333 10195 31017 55018 70056 92033;
0155471120999992000051915004+37480+126630FM-12+007099999V0202701N001519999999N0003001N1+01461+01441100581ADDAY151031AY241031GF108991999999999999999999MA1999999099771MD1510001+9999MW1511REMSYN066AAXX  19154 47112 41/03 82703 10146 20144 39977 40058 55000 75154;
0181471120999992000051918004+37480+126630FM-12+007099999V0202701N002110003019N0004001N1+01411+01391100531ADDAY141061AY241061GA1091+999999999GF109991091999999999999999MA1999999099721MD1810051+9999MW1451REMSYN076AAXX  19184 47112 41/04 92704 10141 20139 39972 40053 58005 74544 333 92033;
0171471120999992000051921004+37480+126630FM-12+007099999V0200501N001010006019N0008001N1+01331+01321100641ADDAY141031AY241031GA1091+999999999GF109991091999999999999999MA1999999099831MD1210111+9999MW1431REMSYN066AAXX  19214 47112 41/08 90502 10133 20132 39983 40064 52011 74344;
0256471120999992000052000004+37480+126630FM-12+007099999V0203401N002119999999N0030001N1+01611+01321100801ADDAA106000591AY121061AY221061GF105991999051008001001001IA1099IA2999+02009KA1120N+01331MA1999999100001MD1210171+9999MW1101REMSYN106AAXX  20004 47112 11530 53404 10161 20132 30000 40080 52017 69961 71022 86500 333 20133 31020 70060 92033;EQDQ01+000062SCOTLC
0172471120999992000052003004+37480+126630FM-12+007099999V0202301N004610075019N0080001N1+01851+01431100821ADDAA199000021AY121031AY221031GF106991061051008001001001MA1999999100031MD1310031+9999MW1101REMSYN072AAXX  20034 47112 31558 62309 10185 20143 30003 40082 53003 71022 86500;
0201471120999992000052006004+37480+126630FM-12+007099999V0202501N006710120019N0090001N1+01641+01381100811ADDAA199000091AY121061AY221061GF105991051081008001001001MA1999999100011MD1010021+9999MW1101REMSYN082AAXX  20064 47112 31559 52513 10164 20138 30001 40081 50002 71022 85800 333 92022;EQDQ01  00002PRCP99
0191471120999992000052009004+37480+126630FM-12+007099999V0202301N003610075019N0050001N1+01281+01201100831ADDAA199000091AY121031AY221031GF108991051051008001011999MA1999999100021MD1010011+9999MW1101REMSYN072AAXX  20094 47112 31550 82307 10128 20120 30002 40083 50001 71022 8551/;EQDQ01  00002PRCP99
0237471120999992000052012004+37480+126630FM-12+007099999V0202301N004110360019N0030001N1+01221+01181101001ADDAA124000591AY121061AY221061GF108991031051008001011999IA1099IA2999+01609KA1120M+01931MA1999999100191MD1210171+9999MW1101REMSYN106AAXX  20124 47112 31530 82308 10122 20118 30019 40100 52017 71022 8351/ 333 10193 31016 55062 70006 92011;
0191471120999992000052015004+37480+126630FM-12+007099999V0202001N004110360019N0030001N1+01171+01131101171ADDAA199000091AY121031AY221031GF108991041051008001011999MA1999999100351MD1210171+9999MW1101REMSYN072AAXX  20154 47112 31530 82008 10117 20113 30035 40117 52017 71022 8451/;EQDQ01  00002PRCP99
0201471120999992000052018004+37480+126630FM-12+007099999V0202301N004119999999N0030001N1+01141+01111101191ADDAA199000091AY121061AY221061GF108991081001008001011999MA1999999100371MD1810021+9999MW1101REMSYN082AAXX  20184 47112 31530 82308 10114 20111 30037 40119 58002 71022 8801/ 333 92011;EQDQ01  00002PRCP99
0191471120999992000052021004+37480+126630FM-12+007099999V0202001N002610360019N0050001N1+01191+01101101251ADDAA199000091AY121031AY221031GF108991041051008001011999MA1999999100431MD1210061+9999MW1101REMSYN072AAXX  20214 47112 31550 82005 10119 20110 30043 40125 52006 71022 8451/;EQDQ01  00002PRCP99
0244471120999992000052100004+37480+126630FM-12+007099999V0202501N002610075019N0050001N1+01291+01161101401ADDAA199000091AY121061AY221061GF108991051051008001011999IA1099IA2999+01609KA1120N+01131MA1999999100581MD1210151+9999MW1101REMSYN094AAXX  21004 47112 31550 82505 10129 20116 30058 40140 52015 71022 8551/ 333 20113 31016 92033;EQDQ01  00002PRCP99
0191471120999992000052103004+37480+126630FM-12+007099999V0202001N004110360019N0050001N1+01861+01301101321ADDAA199000091AY121031AY221031GF107991041051008001011001MA1999999100521MD1710061+9999MW1101REMSYN072AAXX  21034 47112 31550 72008 10186 20130 30052 40132 57006 71022 84510;EQDQ01  00002PRCP99
0183471120999992000052106004+37480+126630FM-12+007099999V0202301N004112200019N0150001N1+02031+01311101151ADDAA199000091GA1001+999999999GF100991001001999999001001MA1999999100361MD1710161+9999REMSYN070AAXX  21064 47112 32965 02308 10203 20131 30036 40115 57016 333 92033;EQDQ01  00002PRCP99
0163471120999992000052109004+37480+126630FM-12+007099999V0202701N002610900019N0120001N1+01871+01371101091ADDAA199000091GF106991031051008001001021MA1999999100301MD1810071+9999REMSYN066AAXX  21094 47112 32562 62705 10187 20137 30030 40109 58007 83502;EQDQ01  00002PRCP99
0231471120999992000052112004+37480+126630FM-12+007099999V0202001N001510075019N0070001N1+01771+01211101161ADDAA112000791AY121061AY221061GF105991051051008001001001IA1019IA2999+01809KA1120M+02131MA1999999100361MD1010071+9999MW1101REMSYN100AAXX  21124 47112 11557 52003 10177 20121 30036 40116 50007 69902 71022 85500 333 10213 30018 92011;
0163471120999992000052115004+37480+126630FM-12+007099999V0202001N003112200019N0110001N1+01731+01151101151ADDAA199000091GF104991041051008001001001MA1999999100361MD1010011+9999REMSYN066AAXX  21154 47112 32561 42006 10173 20115 30036 40115 50001 84500;EQDQ01  00002PRCP99
0201471120999992000052118004+37480+126630FM-12+007099999V0202001N003110075019N0070001N1+01701+01071101111ADDAA199000091AY121061AY221061GF105991051051008001001001MA1999999100321MD1710041+9999MW1101REMSYN082AAXX  21184 47112 31557 52006 10170 20107 30032 40111 57004 71022 85500 333 92022;EQDQ01  00002PRCP99
0163471120999992000052121004+37480+126630FM-12+007099999V0202001N002610075019N0110001N1+01681+01171101151ADDAA199000091GF105991051051008001001001MA1999999100351MD1010041+9999REMSYN066AAXX  21214 47112 32561 52005 10168 20117 30035 40115 50004 85500;EQDQ01  00002PRCP99
0216471120999992000052200004+37480+126630FM-12+007099999V0202001N002610900019N0120001N1+01891+01381101261ADDAA199000091GF105991021051008001001021IA1019IA2999+02209KA1120N+01611MA1999999100461MD1210111+9999REMSYN088AAXX  22004 47112 32562 52005 10189 20138 30046 40126 52011 82502 333 20161 30022 92011;EQDQ01  00002PRCP99
0163471120999992000052203004+37480+126630FM-12+007099999V0202001N002612200019N0110001N1+02121+01441101301ADDAA199000091GF104991041051008001001001MA1999999100511MD1310051+9999REMSYN066AAXX  22034 47112 32561 42005 10212 20144 30051 40130 53005 84500;EQDQ01  00002PRCP99
0201471120999992000052206004+37480+126630FM-12+007099999V0202001N005110075019N0070001N1+02311+01571101121ADDAA199000091AY121061AY221061GF105991051051008001001001MA1999999100341MD1710171+9999MW1101REMSYN082AAXX  22064 47112 31557 52010 10231 20157 30034 40112 57017 71022 85500 333 92011;EQDQ01  00002PRCP99
0191471120999992000052209004+37480+126630FM-12+007099999V0202901N003112200019N0080001N1+01861+01491101151ADDAA199000091AY121031AY221031GF104991041001999999031001MA1999999100361MD1510011+9999MW1101REMSYN072AAXX  22094 47112 31958 42906 10186 20149 30036 40115 55001 71022 84030;EQDQ01  00002PRCP99
0260471120999992000052212004+37480+126630FM-12+007099999V0202501N003112200019N0050001N1+01661+01471101241ADDAA199000091AY101061AY201061GA1001+999999999GF100991001001999999001001IA1019IA2999+01909KA1120M+02331MA1999999100441MD1010081+9999MW1101REMSYN094AAXX  22124 47112 31950 02506 10166 20147 30044 40124 50008 71000 333 10233 30019 55042 92022;EQDQ01  00002PRCP99
0201471120999992000052215004+37480+126630FM-12+007099999V0202001N004112200019N0012001N1+01521+01411101291ADDAA199000091AY101031AY201031GA1001+999999999GF100991001001999999001001MA1999999100491MD1310051+9999MW1101REMSYN066AAXX  22154 47112 31912 02008 10152 20141 30049 40129 53005 71000;EQDQ01  00002PRCP99
0211471120999992000052218004+37480+126630FM-12+007099999V0202001N004110006019N0007001N1+01531+01501101281ADDAA199000091AY141061AY241061GA1091+999999999GF109991091999999999999999MA1999999100481MD1710011+9999MW1471REMSYN076AAXX  22184 47112 31/07 92008 10153 20150 30048 40128 57001 74744 333 92022;EQDQ01  00002PRCP99
0201471120999992000052221004+37480+126630FM-12+007099999V0202001N003110003019N0004001N1+01571+01521101361ADDAA199000091AY141031AY241031GA1091+999999999GF109991091999999999999999MA1999999100551MD1810071+9999MW1471REMSYN066AAXX  22214 47112 31/04 92006 10157 20152 30055 40136 58007 74744;EQDQ01  00002PRCP99
0237471120999992000052300004+37480+126630FM-12+007099999V0201801N003610075019N0012001N1+01651+01601101401ADDAA112000791AY121061AY221061GF108991051071008001021999IA1019IA2999+01809KA1120N+01461MA1999999100601MD1710041+9999MW1101REMSYN106AAXX  23004 47112 11512 81807 10165 20160 30060 40140 57004 69902 71022 8572/ 333 20146 30018 70000 92022;
0133471120999992000052303004+37480+126630FM-12+007099999V0202001N004610360019N0130001N1+02081+01651101321ADDGF108991021051008001011999MA1999999100531MD1510071+9999REMSYN066AAXX  23034 47112 42563 82009 10208 20165 30053 40132 55007 8251/;
0173471120999992000052306004+37480+126630FM-12+007099999V0202301N005712200019N0130001N1+02091+01701101161ADDAA199000091GF102991001001999999001091MA1999999100381MD1710151+9999REMSYN076AAXX  23064 47112 32963 22311 10209 20170 30038 40116 57015 80009 333 92033;EQDQ01  00002PRCP99
0191471120999992000052309004+37480+126630FM-12+007099999V0202301N004110360019N0080001N1+01791+01631101111ADDAA199000091AY121031AY221031GF108991031051008001011999MA1999999100311MD1810071+9999MW1101REMSYN072AAXX  23094 47112 31558 82308 10179 20163 30031 40111 58007 71022 8351/;EQDQ01  00002PRCP99
0225471120999992000052312004+37480+126630FM-12+007099999V0202501N003110360019N0050001N1+01601+01551101211ADDAA124000791AY121061AY221061GF108991041051008001021999IA1019IA2999+01909KA1120M+02261MA1999999100411MD1210101+9999MW1101REMSYN094AAXX  23124 47112 31550 82506 10160 20155 30041 40121 52010 71022 8452/ 333 10226 30019 79999;
0191471120999992000052315004+37480+126630FM-12+007099999V0202001N004110360019N0050001N1+01661+01581101281ADDAA199000091AY121031AY221031GF108991041051008001021999MA1999999100481MD1210071+9999MW1101REMSYN072AAXX  23154 47112 31550 82008 10166 20158 30048 40128 52007 71022 8452/;EQDQ01  00002PRCP99
0201471120999992000052318004+37480+126630FM-12+007099999V0202001N006210360019N0050001N1+01711+01611101241ADDAA199000091AY121061AY221061GF108991041051008001021999MA1999999100441MD1810031+9999MW1101REMSYN082AAXX  23184 47112 31550 82012 10171 20161 30044 40124 58003 71022 8452/ 333 92011;EQDQ01  00002PRCP99
0163471120999992000052321004+37480+126630FM-12+007099999V0201801N003110360019N0120001N1+01801+01611101351ADDAA199000091GF108991031051008001021999MA1999999100551MD1210111+9999REMSYN066AAXX  23214 47112 32562 81806 10180 20161 30055 40135 52011 8352/;EQDQ01  00002PRCP99
0207471120999992000052400004+37480+126630FM-12+007099999V0201801N004612200019N0180001N1+02121+01551101411ADDAA199000091GA1001+999999999GF100991001001999999001001IA1019IA2999+02709MA1999999100621MD1210071+9999REMSYN076AAXX  24004 47112 32968 01809 10212 20155 30062 40141 52007 333 30027 92022;EQDQ01  00002PRCP99
0173471120999992000052403004+37480+126630FM-12+007099999V0202301N005112200019N0250001N1+02281+01491101391ADDAA199000091GA1001+999999999GF100991001001999999001001MA1999999100601MD1710021+9999REMSYN060AAXX  24034 47112 32975 02310 10228 20149 30060 40139 57002;EQDQ01  00002PRCP99
0183471120999992000052406004+37480+126630FM-12+007099999V0202301N004112200019N0250001N1+02281+01621101291ADDAA199000091GA1001+999999999GF100991001001999999001001MA1999999100501MD1710101+9999REMSYN070AAXX  24064 47112 32975 02308 10228 20162 30050 40129 57010 333 92033;EQDQ01  00002PRCP99
0173471120999992000052409004+37480+126630FM-12+007099999V0202501N003112200019N0150001N1+02111+01701101221ADDAA199000091GA1001+999999999GF100991001001999999001001MA1999999100431MD1710071+9999REMSYN060AAXX  24094 47112 32965 02506 10211 20170 30043 40122 57007;EQDQ01  00002PRCP99
0238471120999992000052412004+37480+126630FM-12+007099999V0202701N003119999999N0007001N1+01721+01661101341ADDAA199000091AY141061AY221061GF108991999999008001999999IA1019IA2999+02009KA1120M+02401MA1999999100541MD1010111+9999MW1451REMSYN088AAXX  24124 47112 31507 82706 10172 20166 30054 40134 50011 74542 333 10240 30020 92033;EQDQ01  00002PRCP99
0161471120999992000052415004+37480+126630FM-12+007099999V0202001N003110012019N0002001N1+01781+01751101401ADDAY151031AY241031GF108991081071001501999999MA1999999100601MD1210061+9999MW1501REMSYN072AAXX  24154 47112 41202 82006 10178 20175 30060 40140 52006 75054 887//;
0201471120999992000052418004+37480+126630FM-12+007099999V0202001N003610075019N0011001N1+01781+01711101401ADDAA199000021AY121061AY221061GF106991061061008001001001MA1999999100611MD1410001+9999MW1101REMSYN082AAXX  24184 47112 31511 62007 10178 20171 30061 40140 53000 71022 86600 333 92033;EQDQ01+000032APCTEN
0172471120999992000052421004+37480+126630FM-12+007099999V0201601N001519999999N0030001N1+01841+01761101451ADDAA199000021AY121031AY221031GF108991081001999999011999MA1999999100651MD1210041+9999MW1101REMSYN072AAXX  24214 47112 31930 81603 10184 20176 30065 40145 52004 71022 8801/;
0197471120999992000052500004+37480+126630FM-12+007099999V0201801N002112200019N0100001N1+02261+01811101481ADDAA199000021GF104991041051008001001001IA1019IA2999+02809KA1120N+01761MA1999999100701MD1310051+9999REMSYN088AAXX  25004 47112 32560 41804 10226 20181 30070 40148 53005 84500 333 20176 30028 92011;
0139471120999992000052503004+37480+126630FM-12+007099999V0202501N002612200019N0100001N1+02541+01811101371ADDAA199000021GA1001+999999999GF100991001001999999001001MA1999999100591REMSYN059AAXX  25034 47112 32960 02505 10254 20181 30059 40137 7010;
0183471120999992000052506004+37480+126630FM-12+007099999V0202701N004112200019N0120001N1+02671+01831101201ADDAA199000091GA1001+999999999GF100991001001999999001001MA1999999100431MD1710161+9999REMSYN070AAXX  25064 47112 32962 02708 10267 20183 30043 40120 57016 333 92011;EQDQ01  00002PRCP99
0222471120999992000052512004+37480+126630FM-12+007099999V0203601N001012200019N0120001N1+02151+01671101151ADDAA199000091GF103991001001999999001011IA1019IA2999+02209KA1120M+02861MA1999999100371MD1210031+9999REMSYN094AAXX  25124 47112 32962 33602 10215 20167 30037 40115 52003 80001 333 10286 30022 55095 92011;EQDQ01  00002PRCP99
0163471120999992000052515004+37480+126630FM-12+007099999V0200901N001512200019N0120001N1+01931+01611101191ADDAA199000091GF102991001001999999001011MA1999999100401MD1210031+9999REMSYN066AAXX  25154 47112 32962 20903 10193 20161 30040 40119 52003 80001;EQDQ01  00002PRCP99
0173471120999992000052518004+37480+126630FM-12+007099999V0200501N000519999999N0100001N1+01871+01711101091ADDAA199000091GF105991001001999999001011MA1999999100301MD1710101+9999REMSYN076AAXX  25184 47112 32960 50501 10187 20171 30030 40109 57010 80001 333 92011;EQDQ01  00002PRCP99
0191471120999992000052521004+37480+126630FM-12+007099999V0200201N001512200019N0050001N1+01881+01741101051ADDAA199000091AY121031AY221031GF104991001001999999001011MA1999999100261MD1810041+9999MW1101REMSYN072AAXX  25214 47112 31950 40203 10188 20174 30026 40105 58004 71022 80001;EQDQ01  00002PRCP99
0244471120999992000052600004+37480+126630FM-12+007099999V0200201N001519999999N0040001N1+02321+01871100971ADDAA199000091AY121061AY221061GF105991001001999999001021IA1019IA2999+02609KA1120N+01821MA1999999100191MD1710071+9999MW1101REMSYN094AAXX  26004 47112 31940 50203 10232 20187 30019 40097 57007 71022 80002 333 20182 30026 92022;EQDQ01  00002PRCP99
0191471120999992000052603004+37480+126630FM-12+007099999V0202301N004119999999N0025001N1+02291+01731100951ADDAA199000091AY121031AY221031GF108991081001999999011999MA1999999100171MD1510021+9999MW1101REMSYN072AAXX  26034 47112 31925 82308 10229 20173 30017 40095 55002 71022 8801/;EQDQ01  00002PRCP99
0157471120999992000052606004+37480+126630FM-12+007099999V0202301N003619999999N0120001N1+02231+01611100851ADDAA199000091GF108991999999999999999999MA1999999100061MD1710111+9999REMSYN060AAXX  26064 47112 3//62 82307 10223 20161 30006 40085 57011;EQDQ01  00002PRCP99
0161471120999992000052609004+37480+126630FM-12+007099999V0200701N001010360019N0110001N1+02241+01571100751ADDAY161031AY221031GF108991021051008001011999MA1999999099971MD1710091+9999MW1211REMSYN072AAXX  26094 47112 41561 80702 10224 20157 39997 40075 57009 72162 8251/;
0197471120999992000052612004+37480+126630FM-12+007099999V0200701N001019999999N0140001N1+01991+01591100661ADDAA112000891GF108991999999999999999999IA1099IA2999+02109KA1120M+02421MA1999999099881MD1710091+9999REMSYN088AAXX  26124 47112 1//64 80702 10199 20159 39988 40066 57009 69972 333 10242 31021 70007;
0161471120999992000052615004+37480+126630FM-12+007099999V0200701N002110120019N0012001N1+01871+01761100481ADDAY161031AY261031GF108991061071012501021999MA1999999099691MD1710191+9999MW1611REMSYN072AAXX  26154 47112 41612 80704 10187 20176 39969 40048 57019 76166 8672/;
0171471120999992000052618004+37480+126630FM-12+007099999V0200701N001510042019N0005001N1+01801+01741100161ADDAY161061AY261061GF108991061071004501021999MA1999999099371MD1710311+9999MW1611REMSYN082AAXX  26184 47112 41405 80703 10180 20174 39937 40016 57031 76166 8672/ 333 92022;
0161471120999992000052621004+37480+126630FM-12+007099999V0200901N002110075019N0020001N1+01831+01771100001ADDAY161031AY241031GF108991051051008001021999MA1999999099211MD1710161+9999MW1201REMSYN072AAXX  26214 47112 41520 80904 10183 20177 39921 40000 57016 72064 8552/;
0237471120999992000052700004+37480+126630FM-12+007099999V0200901N000510075019N0030001N1+01871+01821099911ADDAA112005191AY161061AY261061GF108991061071008001021999IA1099IA2999+02109KA1120N+01771MA1999999099121MD1710091+9999MW1601REMSYN106AAXX  27004 47112 11530 80901 10187 20182 39912 49991 57009 60052 76066 8672/ 333 20177 31021 70055 92022;
0161471120999992000052703004+37480+126630FM-12+007099999V0200701N001510075019N0012001N1+01881+01851099841ADDAY161031AY261031GF108991061071008001021999MA1999999099061MD1710061+9999MW1601REMSYN072AAXX  27034 47112 41512 80703 10188 20185 39906 49984 57006 76066 8672/;
0171471120999992000052706004+37480+126630FM-12+007099999V0200701N002110075019N0012001N1+01851+01811099751ADDAY161061AY261061GF108991061071008001021999MA1999999098961MD1810101+9999MW1611REMSYN082AAXX  27064 47112 41512 80704 10185 20181 39896 49975 58010 76166 8672/ 333 92022;
0161471120999992000052709004+37480+126630FM-12+007099999V0200501N001510075019N0050001N1+01851+01811099751ADDAY161031AY261031GF108991051051008001021999MA1999999098961MD1010001+9999MW1211REMSYN072AAXX  27094 47112 41550 80503 10185 20181 39896 49975 50000 72166 8552/;
0243471120999992000052712004+37480+126630FM-12+007099999V0202701N003610075019N0050001N1+01781+01711099901ADDAA112008991AY161061AY261061GF106991061051008001001001IA1099IA2999+02009KA1120M+01951MA1999999099111MD1210151+9999MW1101REMSYN112AAXX  27124 47112 11550 62707 10178 20171 39911 49990 52015 60092 71066 86500 333 10195 31020 55000 70136 92033;
0180471120999992000052715004+37480+126630FM-12+007099999V0202001N005110075019N0030001N1+01511+01461099971ADDAY121031AY221031GF108991999051008001001001MA1999999099181MD1210061+9999MW1101REMSYN072AAXX  27154 47112 41530 82010 10151 20146 39918 49997 52006 71022 86500;EQDQ01+000062SCOTLC
0182471120999992000052718004+37480+126630FM-12+007099999V0202701N004610075019N0030001N1+01471+01351100031ADDAA199000021AY121061AY221061GF106991061051008001001001MA1999999099231MD1210061+9999MW1101REMSYN082AAXX  27184 47112 31530 62709 10147 20135 39923 40003 52006 71022 86500 333 92033;
0133471120999992000052721004+37480+126630FM-12+007099999V0203201N003610360019N0100001N1+01681+01351100201ADDGF107991031051008001011001MA1999999099411MD1210181+9999REMSYN066AAXX  27214 47112 42560 73207 10168 20135 39941 40020 52018 83510;
0209471120999992000052800004+37480+126630FM-12+007099999V0203201N005710120019N0180001N1+01871+01211100331ADDAA112000791GF105991051051012501001001IA1099IA2999+01909KA1120N+01461MA1999999099541MD1210131+9999REMSYN100AAXX  28004 47112 12668 53211 10187 20121 39954 40033 52013 69902 85500 333 20146 31019 70088 92044;
0173471120999992000052803004+37480+126630FM-12+007099999V0202701N007712200019N0200001N1+01981+01301100401ADDAA199000091GA1001+999999999GF100991001001999999001001MA1999999099621MD1210071+9999REMSYN060AAXX  28034 47112 32970 02715 10198 20130 39962 40040 52007;EQDQ01  00002PRCP99
0183471120999992000052806004+37480+126630FM-12+007099999V0202701N007212200019N0170001N1+02071+01251100391ADDAA199000091GA1001+999999999GF100991001001999999001001MA1999999099611MD1810011+9999REMSYN070AAXX  28064 47112 32967 02714 10207 20125 39961 40039 58001 333 92055;EQDQ01  00002PRCP99
0163471120999992000052809004+37480+126630FM-12+007099999V0202701N007212200019N0130001N1+02001+01281100471ADDAA199000091GF102991001001999999001011MA1999999099691MD1210081+9999REMSYN066AAXX  28094 47112 32963 22714 10200 20128 39969 40047 52008 80001;EQDQ01  00002PRCP99
0238471120999992000052812004+37480+126630FM-12+007099999V0202001N002112200019N0120001N1+01781+01341100771ADDAA124000091GA1001+999999999GF100991001001999999001001IA1019IA2999+01809KA1120M+02141MA1999999099981MD1210291+9999REMSYN094AAXX  28124 47112 32962 02004 10178 20134 39998 40077 52029 333 10214 30018 55087 70000 92022;EQDQ01  00002PRCP24
0173471120999992000052815004+37480+126630FM-12+007099999V0202901N003112200019N0120001N1+01911+01071100991ADDAA199000091GA1001+999999999GF100991001001999999001001MA1999999100201MD1210221+9999REMSYN060AAXX  28154 47112 32962 02906 10191 20107 30020 40099 52022;EQDQ01  00002PRCP99
0211471120999992000052818004+37480+126630FM-12+007099999V0201801N003112200019N0080001N1+01531+01311101061ADDAA199000091AY101061AY201061GA1001+999999999GF100991001001999999001001MA1999999100261MD1210061+9999MW1101REMSYN076AAXX  28184 47112 31958 01806 10153 20131 30026 40106 52006 71000 333 92022;EQDQ01  00002PRCP99
0191471120999992000052821004+37480+126630FM-12+007099999V0201801N003112200019N0060001N1+01461+01301101241ADDAA199000091AY111031AY211031GF102991001001999999001011MA1999999100431MD1210171+9999MW1101REMSYN072AAXX  28214 47112 31956 21806 10146 20130 30043 40124 52017 71011 80001;EQDQ01  00002PRCP99
0216471120999992000052900004+37480+126630FM-12+007099999V0202001N004112200019N0100001N1+01961+01401101291ADDAA199000091GF102991001001999999001011IA1019IA2999+02609KA1120N+01451MA1999999100501MD1310071+9999REMSYN088AAXX  29004 47112 32960 22008 10196 20140 30050 40129 53007 80001 333 20145 30026 92033;EQDQ01  00002PRCP99
0163471120999992000052903004+37480+126630FM-12+007099999V0202301N004119999999N0120001N1+02201+01321101261ADDAA199000091GF106991001001999999001021MA1999999100471MD1710031+9999REMSYN066AAXX  29034 47112 32962 62308 10220 20132 30047 40126 57003 80002;EQDQ01  00002PRCP99
0173471120999992000052906004+37480+126630FM-12+007099999V0202501N003119999999N0200001N1+02341+01171101211ADDAA199000091GF106991001001999999001021MA1999999100431MD1510051+9999REMSYN076AAXX  29064 47112 32970 62506 10234 20117 30043 40121 55005 80002 333 92033;EQDQ01  00002PRCP99
0163471120999992000052909004+37480+126630FM-12+007099999V0202501N003612200019N0250001N1+02171+01031101171ADDAA199000091GF102991001001999999001011MA1999999100381MD1710051+9999REMSYN066AAXX  29094 47112 32975 22507 10217 20103 30038 40117 57005 80001;EQDQ01  00002PRCP99
0226471120999992000052912004+37480+126630FM-12+007099999V0202001N004112200019N0170001N1+01881+01061101151ADDAA199000091GA1001+999999999GF100991001001999999001001IA1019IA2999+01909KA1120M+02411MA1999999100361MD1210021+9999REMSYN082AAXX  29124 47112 32967 02008 10188 20106 30036 40115 52002 333 10241 30019 92033;EQDQ01  00002PRCP99
0191471120999992000052915004+37480+126630FM-12+007099999V0202001N003112200019N0080001N1+01831+01321101111ADDAA199000091AY101031AY201031GF102991001001999999001011MA1999999100311MD1510051+9999MW1101REMSYN072AAXX  29154 47112 31958 22006 10183 20132 30031 40111 55005 71000 80001;EQDQ01  00002PRCP99
0211471120999992000052918004+37480+126630FM-12+007099999V0202001N003612200019N0035001N1+01741+01481101011ADDAA199000091AY101061AY201061GA1001+999999999GF100991001001999999001001MA1999999100211MD1710101+9999MW1101REMSYN076AAXX  29184 47112 31935 02007 10174 20148 30021 40101 57010 71000 333 92022;EQDQ01  00002PRCP99
0191471120999992000052921004+37480+126630FM-12+007099999V0201801N002619999999N0018001N1+01691+01561100961ADDAA199000091AY121031AY221031GF107991001001999999001021MA1999999100171MD1710051+9999MW1101REMSYN072AAXX  29214 47112 31918 71805 10169 20156 30017 40096 57005 71022 80002;EQDQ01  00002PRCP99
0244471120999992000053000004+37480+126630FM-12+007099999V0202001N003119999999N0030001N1+01901+01571100951ADDAA199000091AY121061AY221061GF108991081001999999011999IA1019IA2999+02009KA1120N+01661MA1999999100161MD1510011+9999MW1101REMSYN094AAXX  30004 47112 31930 82006 10190 20157 30016 40095 55001 71022 8801/ 333 20166 30020 92011;EQDQ01  00002PRCP99
0191471120999992000053003004+37480+126630FM-12+007099999V0202301N004610360019N0050001N1+01961+01431100921ADDAA199000091AY121031AY221031GF108991021051008001011999MA1999999100131MD1710031+9999MW1101REMSYN072AAXX  30034 47112 31550 82309 10196 20143 30013 40092 57003 71022 8251/;EQDQ01  00002PRCP99
0173471120999992000053006004+37480+126630FM-12+007099999V0203601N002110075019N0120001N1+01881+01441100811ADDAA199000091GF108991061051008001021999MA1999999100021MD1510111+9999REMSYN076AAXX  30064 47112 32562 83604 10188 20144 30002 40081 55011 8652/ 333 92011;EQDQ01  00002PRCP99
0161471120999992000053009004+37480+126630FM-12+007099999V0202701N003610075019N0120001N1+01861+01211100731ADDAY161031AY261031GF108991051051008001011999MA1999999099941MD1810081+9999MW1211REMSYN072AAXX  30094 47112 41562 82707 10186 20121 39994 40073 58008 72166 8551/;
0215471120999992000053012004+37480+126630FM-12+007099999V0202701N003610075019N0120001N1+01681+01151100721ADDAA112000791GF108991051051008001011999IA1019IA2999+01809KA1120M+02121MA1999999099921MD1810021+9999REMSYN106AAXX  30124 47112 12562 82707 10168 20115 39992 40072 58002 69902 8551/ 333 10212 30018 55001 70000 92033;
0133471120999992000053015004+37480+126630FM-12+007099999V0203201N000510075019N0120001N1+01631+01291100661ADDGF108991051051008001011999MA1999999099871MD1310051+9999REMSYN066AAXX  30154 47112 42562 83201 10163 20129 39987 40066 53005 8551/;
0112471120999992000053018004+37480+126630FM-12+007099999V0203201N001519999999N9999999N1+01661+01351100491ADDAA199000021MA1999999099691MD1710181+9999REMSYN060AAXX  30184 47112 3//// /3203 10166 20135 39969 40049 57018;
0144471120999992000053021004+37480+126630FM-12+007099999V0200201N000519999999N0150001N1+01661+01381100441ADDAA199000021GF106991061001999999011001MA1999999099641MD1810051+9999REMSYN066AAXX  30214 47112 32965 60201 10166 20138 39964 40044 58005 86010;
0210471120999992000053100004+37480+126630FM-12+007099999V0200701N001010075019N0200001N1+02021+01301100431ADDAA199000091GF107991071051008001001001IA1019IA2999+02109KA1120N+01611MA1999999099641MD1010001+9999REMSYN082AAXX  31004 47112 32570 70702 10202 20130 39964 40043 50000 87500 333 20161 30021;EQDQ01  00002PRCP99
0173471120999992000053103004+37480+126630FM-12+007099999V0200201N002612200019N0250001N1+02431+01351100451ADDAA199000091GA1001+999999999GF100991001001999999001001MA1999999099681MD1210041+9999REMSYN060AAXX  31034 47112 32975 00205 10243 20135 39968 40045 52004;EQDQ01  00002PRCP99
0183471120999992000053106004+37480+126630FM-12+007099999V0202901N006712200019N0180001N1+02311+01281100371ADDAA199000091GA1001+999999999GF100991001001999999001001MA1999999099591MD1810081+9999REMSYN070AAXX  31064 47112 32968 02913 10231 20128 39959 40037 58008 333 92044;EQDQ01  00002PRCP99
0232471120999992000053112004+37480+126630FM-12+007099999V0202301N002612200019N0130001N1+01741+01301100571ADDAA199000091GA1001+999999999GF100991001001999999001001IA1019IA2999+01809KA1120M+02491MA1999999099771MD1010111+9999REMSYN088AAXX  31124 47112 32963 02305 10174 20130 39977 40057 50011 333 10249 30018 55077 92011;EQDQ01  00002PRCP99
0163471120999992000053115004+37480+126630FM-12+007099999V0202301N001519999999N0120001N1+01731+01371100741ADDAA199000091GF105991051001999999031001MA1999999099941MD1210171+9999REMSYN066AAXX  31154 47112 32962 52303 10173 20137 39994 40074 52017 85030;EQDQ01  00002PRCP99
0201471120999992000053118004+37480+126630FM-12+007099999V0202001N002612200019N0080001N1+01511+01421100811ADDAA199000091AY111061AY211061GF104991001001999999001011MA1999999100011MD1310061+9999MW1101REMSYN082AAXX  31184 47112 31958 42005 10151 20142 30001 40081 53006 71011 80001 333 92011;EQDQ01  00002PRCP99
0191471120999992000053121004+37480+126630FM-12+007099999V0202301N003119999999N0030001N1+01421+01371101041ADDAA199000091AY121031AY221031GF106991001001999999001011MA1999999100241MD1210231+9999MW1101REMSYN072AAXX  31214 47112 31930 62306 10142 20137 30024 40104 52023 71022 80001;EQDQ01  00002PRCP99
0254471120999992000060100004+37480+126630FM-12+007099999V0202301N004112200019N0080001N1+01861+01431101111ADDAA199000091AY101061AY201061GA1001+999999999GF100991001001999999001001IA1019IA2999+02409KA1120N+01411MA1999999100311MD1010081+9999MW1101REMSYN088AAXX  01004 47112 31958 02308 10186 20143 30031 40111 50008 71000 333 20141 30024 92022;EQDQ01  00002PRCP99
0173471120999992000060103004+37480+126630FM-12+007099999V0202301N004112200019N0100001N1+02191+01381101241ADDAA199000091GA1001+999999999GF100991001001999999001001MA1999999100451MD1210141+9999REMSYN060AAXX  01034 47112 32960 02308 10219 20138 30045 40124 52014;EQDQ01  00002PRCP99
0173471120999992000060106004+37480+126630FM-12+007099999V0203201N004119999999N0200001N1+02061+01461101231ADDAA199000091GF106991001001999999001021MA1999999100441MD1010011+9999REMSYN076AAXX  01064 47112 32970 63208 10206 20146 30044 40123 50001 80002 333 92033;EQDQ01  00002PRCP99
0163471120999992000060109004+37480+126630FM-12+007099999V0203201N001510360019N0250001N1+02071+01541101191ADDAA199000091GF106991041051008001041001MA1999999100401MD1810041+9999REMSYN066AAXX  01094 47112 32575 63203 10207 20154 30040 40119 58004 84540;EQDQ01  00002PRCP99
0216471120999992000060112004+37480+126630FM-12+007099999V0202501N002112200019N0150001N1+01721+01511101301ADDAA199000091GF101991011051008001001001IA1019IA2999+02009KA1120M+02391MA1999999100501MD1210101+9999REMSYN088AAXX  01124 47112 32565 12504 10172 20151 30050 40130 52010 81500 333 10239 30020 92022;EQDQ01  00002PRCP99
0163471120999992000060115004+37480+126630FM-12+007099999V0203401N001010075019N0120001N1+01651+01461101411ADDAA199000091GF106991061051008001001001MA1999999100601MD1210101+9999REMSYN066AAXX  01154 47112 32562 63402 10165 20146 30060 40141 52010 86500;EQDQ01  00002PRCP99
0201471120999992000060118004+37480+126630FM-12+007099999V0202701N002612200019N0080001N1+01641+01481101391ADDAA199000091AY101061AY201061GF102991021051999999001001MA1999999100591MD1810021+9999MW1101REMSYN082AAXX  01184 47112 31958 22705 10164 20148 30059 40139 58002 71000 82500 333 92022;EQDQ01  00002PRCP99
0191471120999992000060121004+37480+126630FM-12+007099999V0203401N002112200019N0090001N1+01561+01501101461ADDAA199000091AY101031AY201031GF102991001001999999001011MA1999999100651MD1210071+9999MW1101REMSYN072AAXX  01214 47112 31959 23404 10156 20150 30065 40146 52007 71000 80001;EQDQ01  00002PRCP99
0216471120999992000060200004+37480+126630FM-12+007099999V0202901N002112200019N0130001N1+01911+01561101541ADDAA199000091GF103991021051008001001011IA1019IA2999+02109KA1120N+01551MA1999999100751MD1210091+9999REMSYN088AAXX  02004 47112 32563 32904 10191 20156 30075 40154 52009 82501 333 20155 30021 92011;EQDQ01  00002PRCP99
0191471120999992000060203004+37480+126630FM-12+007099999V0202301N004112200019N0090001N1+02251+01481101381ADDAA199000091AY111031AY211031GF103991001001999999001011MA1999999100601MD1710151+9999MW1101REMSYN072AAXX  02034 47112 31959 32308 10225 20148 30060 40138 57015 71011 80001;EQDQ01  00002PRCP99
0173471120999992000060206004+37480+126630FM-12+007099999V0202701N004119999999N0110001N1+02331+01581101231ADDAA199000091GF106991001001999999001011MA1999999100451MD1710151+9999REMSYN076AAXX  02064 47112 32961 62708 10233 20158 30045 40123 57015 80001 333 92011;EQDQ01  00002PRCP99
0163471120999992000060209004+37480+126630FM-12+007099999V0202501N003619999999N0120001N1+02201+01511101131ADDAA199000091GF106991001001999999001011MA1999999100341MD1710111+9999REMSYN066AAXX  02094 47112 32962 62507 10220 20151 30034 40113 57011 80001;EQDQ01  00002PRCP99
0222471120999992000060212004+37480+126630FM-12+007099999V0202701N002612200019N0120001N1+01931+01581101191ADDAA199000091GF102991001001999999001011IA1019IA2999+02109KA1120M+02501MA1999999100401MD1210051+9999REMSYN094AAXX  02124 47112 32962 22705 10193 20158 30040 40119 52005 80001 333 10250 30021 55074 92022;EQDQ01  00002PRCP99
0191471120999992000060215004+37480+126630FM-12+007099999V0200701N001012200019N0050001N1+01751+01511101281ADDAA199000091AY111031AY211031GF102991001001999999001011MA1999999100481MD1210081+9999MW1101REMSYN072AAXX  02154 47112 31950 20702 10175 20151 30048 40128 52008 71011 80001;EQDQ01  00002PRCP99
0131471120999992000060218004+37480+126630FM-12+007099999V0200501N001019999999N9999999N1+01741+01531101071ADDAA199000091MA1999999100271MD1710211+9999REMSYN060AAXX  02184 47112 3//// /0502 10174 20153 30027 40107 57021;EQDQ01  00002PRCP99
0131471120999992000060221004+37480+126630FM-12+007099999V0202901N001519999999N9999999N1+01701+01561101091ADDAA199000091MA1999999100291MD1010021+9999REMSYN060AAXX  02214 47112 3//// /2903 10170 20156 30029 40109 50002;EQDQ01  00002PRCP99
0254471120999992000060300004+37480+126630FM-12+007099999V0203601N001512200019N0050001N1+02201+01791101011ADDAA199000091AY101061AY201061GA1001+999999999GF100991001001999999001001IA1019IA2999+02409KA1120N+01651MA1999999100221MD1710061+9999MW1101REMSYN088AAXX  03004 47112 31950 03603 10220 20179 30022 40101 57006 71000 333 20165 30024 92022;EQDQ01  00002PRCP99
0201471120999992000060303004+37480+126630FM-12+007099999V0203601N002612200019N0040001N1+02791+02001100821ADDAA199000091AY101031AY201031GA1001+999999999GF100991001001999999001001MA1999999100051MD1710171+9999MW1101REMSYN066AAXX  03034 47112 31940 03605 10279 20200 30005 40082 57017 71000;EQDQ01  00002PRCP99
0173471120999992000060306004+37480+126630FM-12+007099999V0202501N004110075019N0110001N1+02871+01831100641ADDAA199000091GF106991061011008001001001MA1999999099871MD1710181+9999REMSYN076AAXX  03064 47112 32561 62508 10287 20183 39987 40064 57018 86100 333 92011;EQDQ01  00002PRCP99
0163471120999992000060309004+37480+126630FM-12+007099999V0202301N003610075019N0110001N1+02441+01831100651ADDAA199000091GF105991051041008001001001MA1999999099881MD1010011+9999REMSYN066AAXX  03094 47112 32561 52307 10244 20183 39988 40065 50001 85400;EQDQ01  00002PRCP99
0222471120999992000060312004+37480+126630FM-12+007099999V0200501N001012200019N0110001N1+02211+01711100761ADDAA199000091GF102991021051008001001001IA1019IA2999+02109KA1120M+03171MA1999999099981MD1210091+9999REMSYN094AAXX  03124 47112 32561 20502 10221 20171 39998 40076 52009 82500 333 10317 30021 55082 92011;EQDQ01  00002PRCP99
0163471120999992000060315004+37480+126630FM-12+007099999V0201601N003119999999N0100001N1+02281+01711100831ADDAA199000091GF106991001001999999001021MA1999999100051MD1510071+9999REMSYN066AAXX  03154 47112 32960 61606 10228 20171 30005 40083 55007 80002;EQDQ01  00002PRCP99
0217471120999992000060318004+37480+126630FM-12+007099999V0201101N001512200019N0090001N1+02191+01731100831ADDAA199000091AY111061AY211061GF102991001001999999001011MA1999999100051MD1410001+9999MW1101REMSYN082AAXX  03184 47112 31959 21103 10219 20173 30005 40083 53000 71011 80001 333 92011;EQDQ01+000032APCTENQ02  00002PRCP99
0163471120999992000060321004+37480+126630FM-12+007099999V0200901N001019999999N0100001N1+02161+01711100881ADDAA199000091GF105991001001999999001021MA1999999100101MD1210051+9999REMSYN066AAXX  03214 47112 32960 50902 10216 20171 30010 40088 52005 80002;EQDQ01  00002PRCP99
0231471120999992000060400004+37480+126630FM-12+007099999V0203401N001019999999N0080001N1+02551+01801100971ADDAA112000791AY121061AY221061GF107991041001999999061021IA1019IA2999+03909KA1120N+02071MA1999999100201MD1210101+9999MW1101REMSYN100AAXX  04004 47112 31958 73402 10255 20180 30020 40097 52010 69902 71022 84062 333 20207 30039 92022;
0163471120999992000060403004+37480+126630FM-12+007099999V0202501N003119999999N0150001N1+02971+00941100941ADDAA199000091GF106991001001999999001021MA1999999100171MD1710021+9999REMSYN066AAXX  04034 47112 32965 62506 10297 20094 30017 40094 57002 80002;EQDQ01  00002PRCP99
0173471120999992000060406004+37480+126630FM-12+007099999V0202701N004612200019N0150001N1+03051+00861100851ADDAA199000091GF103991001001999999001011MA1999999100091MD1710081+9999REMSYN076AAXX  04064 47112 32965 32709 10305 20086 30009 40085 57008 80001 333 92022;EQDQ01  00002PRCP99
0163471120999992000060409004+37480+126630FM-12+007099999V0202901N004612200019N0200001N1+02871+00621100791ADDAA199000091GF104991001001999999001011MA1999999100031MD1810061+9999REMSYN066AAXX  04094 47112 32970 42909 10287 20062 30003 40079 58006 80001;EQDQ01  00002PRCP99
0226471120999992000060412004+37480+126630FM-12+007099999V0203201N003112200019N0180001N1+02331+00851100931ADDAA199000091GA1001+999999999GF100991001001999999001001IA1019IA2999+02109KA1120M+03101MA1999999100151MD1210121+9999REMSYN082AAXX  04124 47112 32968 03206 10233 20085 30015 40093 52012 333 10310 30021 92033;EQDQ01  00002PRCP99
0163471120999992000060415004+37480+126630FM-12+007099999V0200701N001012200019N0180001N1+02141+01211100991ADDAA199000091GF102991001001999999001011MA1999999100201MD1210051+9999REMSYN066AAXX  04154 47112 32968 20702 10214 20121 30020 40099 52005 80001;EQDQ01  00002PRCP99
0183471120999992000060418004+37480+126630FM-12+007099999V0202501N002112200019N0150001N1+02021+01251100941ADDAA199000091GA1001+999999999GF100991001001999999001001MA1999999100151MD1710051+9999REMSYN070AAXX  04184 47112 32965 02504 10202 20125 30015 40094 57005 333 92011;EQDQ01  00002PRCP99
0191471120999992000060421004+37480+126630FM-12+007099999V0202001N003112200019N0070001N1+01741+01521101011ADDAA199000091AY101031AY201031GF102991001001999999001999MA1999999100211MD1210061+9999MW1101REMSYN072AAXX  04214 47112 31957 22006 10174 20152 30021 40101 52006 71000 8000/;EQDQ01  00002PRCP99
0244471120999992000060500004+37480+126630FM-12+007099999V0202901N001012200019N0070001N1+02431+01571101071ADDAA199000091AY101061AY201061GF101991001001999999001011IA1019IA2999+04009KA1120N+01731MA1999999100291MD1210081+9999MW1101REMSYN094AAXX  05004 47112 31957 12902 10243 20157 30029 40107 52008 71000 80001 333 20173 30040 92011;EQDQ01  00002PRCP99
0173471120999992000060503004+37480+126630FM-12+007099999V0202701N003612200019N0120001N1+02851+01251101001ADDAA199000091GA1001+999999999GF100991001001999999001001MA1999999100231MD1710061+9999REMSYN060AAXX  05034 47112 32962 02707 10285 20125 30023 40100 57006;EQDQ01  00002PRCP99
0173471120999992000060506004+37480+126630FM-12+007099999V0202901N006212200019N0110001N1+02811+01481100861ADDAA199000091GF101991001001999999001011MA1999999100101MD1710141+9999REMSYN076AAXX  05064 47112 32961 12912 10281 20148 30010 40086 57014 80001 333 92011;EQDQ01  00002PRCP99
0173471120999992000060509004+37480+126630FM-12+007099999V0202701N006712200019N0110001N1+02391+01201100781ADDAA199000091GA1001+999999999GF100991001001999999001001MA1999999100011MD1710091+9999REMSYN060AAXX  05094 47112 32961 02713 10239 20120 30001 40078 57009;EQDQ01  00002PRCP99
0248471120999992000060512004+37480+126630FM-12+007099999V0202501N000512200019N0150001N1+99999+99999100881ADDAA199000091GA1001+999999999GF100991001001999999001001IA1019IA2999+01809KA1120M+03031MA1999999100031MD1210081+9999REMSYN088AAXX  05124 47112 32965 02501 11190 20132 30003 40088 52008 333 10303 30018 5511/ 9202/;EQDQ01-001903ATOT  Q02  00002PRCP99
0173471120999992000060515004+37480+126630FM-12+007099999V0202301N003112200019N0100001N1+01861+01541100901ADDAA199000091GA1001+999999999GF100991001001999999001001MA1999999100111MD1510021+9999REMSYN060AAXX  05154 47112 32960 02306 10186 20154 30011 40090 55002;EQDQ01  00002PRCP99
0183471120999992000060518004+37480+126630FM-12+007099999V0202001N004112200019N0100001N1+01761+01651100871ADDAA199000091GA1001+999999999GF100991001001999999001001MA1999999100081MD1310031+9999REMSYN070AAXX  05184 47112 32960 02008 10176 20165 30008 40087 53003 333 92022;EQDQ01  00002PRCP99
0217471120999992000060521004+37480+126630FM-12+007099999V0202301N003610003019N0004001N1+01711+01661100871ADDAA199000091AY141031AY241031GA1091+999999999GF109991091999999999999999MA1999999100081MD1410001+9999MW1471REMSYN066AAXX  05214 47112 31/04 92307 10171 20166 30008 40087 58000 74744;EQDQ01+000082APCTENQ02  00002PRCP99
0254471120999992000060600004+37480+126630FM-12+007099999V0202001N004110003019N0003001N1+01711+01601100971ADDAA199000091AY141061AY241061GA1091+999999999GF109991091999999999999999IA1019IA2999+02209KA1120N+01651MA1999999100171MD1210091+9999MW1471REMSYN088AAXX  06004 47112 31303 92008 10171 20160 30017 40097 52009 74744 333 20165 30022 92033;EQDQ01  00002PRCP99
0163471120999992000060603004+37480+126630FM-12+007099999V0202301N003612200019N0120001N1+02211+01631100911ADDAA199000091GF102991001001999999001011MA1999999100131MD1810051+9999REMSYN066AAXX  06034 47112 32962 22307 10221 20163 30013 40091 58005 80001;EQDQ01  00002PRCP99
0183471120999992000060606004+37480+126630FM-12+007099999V0202301N005112200019N0100001N1+02401+01491100811ADDAA199000091GA1001+999999999GF100991001001999999001001MA1999999100031MD1710091+9999REMSYN070AAXX  06064 47112 32960 02310 10240 20149 30003 40081 57009 333 92033;EQDQ01  00002PRCP99
0163471120999992000060609004+37480+126630FM-12+007099999V0202301N004612200019N0120001N1+02101+01491100781ADDAA199000091GF101991001001999999001011MA1999999099991MD1710041+9999REMSYN066AAXX  06094 47112 32962 12309 10210 20149 39999 40078 57004 80001;EQDQ01  00002PRCP99
0232471120999992000060612004+37480+126630FM-12+007099999V0202001N002612200019N0120001N1+01821+01601100871ADDAA199000091GA1001+999999999GF100991001001999999001001IA1019IA2999+01709KA1120M+02481MA1999999100071MD1010081+9999REMSYN088AAXX  06124 47112 32962 02005 10182 20160 30007 40087 50008 333 10248 30017 55074 92011;EQDQ01  00002PRCP99
0163471120999992000060615004+37480+126630FM-12+007099999V0202001N005119999999N0100001N1+01881+01611100861ADDAA199000091GF105991001001999999001011MA1999999100071MD1510001+9999REMSYN066AAXX  06154 47112 32960 52010 10188 20161 30007 40086 55000 80001;EQDQ01  00002PRCP99
0201471120999992000060618004+37480+126630FM-12+007099999V0202001N004119999999N0080001N1+01831+01651100741ADDAA199000091AY121061AY221061GF105991001001999999001011MA1999999099951MD1710121+9999MW1101REMSYN082AAXX  06184 47112 31958 52008 10183 20165 39995 40074 57012 71022 80001 333 92011;EQDQ01  00002PRCP99
0191471120999992000060621004+37480+126630FM-12+007099999V0201801N003612200019N0060001N1+01871+01701100791ADDAA199000091AY121031AY221031GF104991001001999999001011MA1999999100001MD1210051+9999MW1101REMSYN072AAXX  06214 47112 31956 41807 10187 20170 30000 40079 52005 71022 80001;EQDQ01  00002PRCP99
0244471120999992000060700004+37480+126630FM-12+007099999V0202001N004619999999N0060001N1+02201+01781100791ADDAA199000091AY121061AY221061GF105991001001999999001021IA1019IA2999+03209KA1120N+01821MA1999999100011MD1710011+9999MW1101REMSYN094AAXX  07004 47112 31956 52009 10220 20178 30001 40079 57001 71022 80002 333 20182 30032 92022;EQDQ01  00002PRCP99
0191471120999992000060703004+37480+126630FM-12+007099999V0202001N005719999999N0080001N1+02401+01421100761ADDAA199000091AY121031AY221031GF106991001001999999001021MA1999999099981MD1710031+9999MW1101REMSYN072AAXX  07034 47112 31958 62011 10240 20142 39998 40076 57003 71022 80002;EQDQ01  00002PRCP99
0173471120999992000060706004+37480+126630FM-12+007099999V0202501N005119999999N0150001N1+02431+01181100711ADDAA199000091GF106991001001999999001021MA1999999099941MD1710051+9999REMSYN076AAXX  07064 47112 32965 62510 10243 20118 39994 40071 57005 80002 333 92033;EQDQ01  00002PRCP99
0163471120999992000060709004+37480+126630FM-12+007099999V0202301N004119999999N0200001N1+02171+01131100611ADDAA199000091GF106991001001999999001021MA1999999099821MD1710111+9999REMSYN066AAXX  07094 47112 32970 62308 10217 20113 39982 40061 57011 80002;EQDQ01  00002PRCP99
0216471120999992000060712004+37480+126630FM-12+007099999V0202001N002112200019N0220001N1+02011+01061100531ADDAA199000091GF104991021001999999031011IA1019IA2999+01809KA1120M+02501MA1999999099751MD1510081+9999REMSYN088AAXX  07124 47112 32972 42004 10201 20106 39975 40053 55008 82031 333 10250 30018 92011;EQDQ01  00002PRCP99
0163471120999992000060715004+37480+126630FM-12+007099999V0201801N002119999999N0170001N1+02041+01161100471ADDAA199000091GF106991061001999999011001MA1999999099691MD1710061+9999REMSYN066AAXX  07154 47112 32967 61804 10204 20116 39969 40047 57006 86010;EQDQ01  00002PRCP99
0173471120999992000060718004+37480+126630FM-12+007099999V0202301N002119999999N0200001N1+01971+01071100361ADDAA199000091GF106991001001999999001021MA1999999099581MD1710111+9999REMSYN076AAXX  07184 47112 32970 62304 10197 20107 39958 40036 57011 80002 333 92022;EQDQ01  00002PRCP99
0163471120999992000060721004+37480+126630FM-12+007099999V0202001N003610360019N0160001N1+01991+01031100301ADDAA199000091GF108991021051008001011999MA1999999099521MD1810061+9999REMSYN066AAXX  07214 47112 32566 82007 10199 20103 39952 40030 58006 8251/;EQDQ01  00002PRCP99
0216471120999992000060800004+37480+126630FM-12+007099999V0202001N003610075019N0130001N1+01971+01541100281ADDAA199000091GF108991051051008001021999IA1019IA2999+02109KA1120N+01931MA1999999099491MD1210031+9999REMSYN088AAXX  08004 47112 32563 82007 10197 20154 39949 40028 52003 8552/ 333 20193 30021 92022;EQDQ01  00002PRCP99
0133471120999992000060803004+37480+126630FM-12+007099999V0201801N004110075019N0100001N1+02361+01751100081ADDGF108991051051008001011999MA1999999099311MD1710181+9999REMSYN066AAXX  08034 47112 42560 81808 10236 20175 39931 40008 57018 8551/;
0171471120999992000060806004+37480+126630FM-12+007099999V0200501N001010075019N0070001N1+02251+01761099991ADDAY121061AY221061GF108991051051008001021999MA1999999099221MD1510091+9999MW1101REMSYN082AAXX  08064 47112 41557 80502 10225 20176 39922 49999 55009 71022 8552/ 333 92011;
0161471120999992000060809004+37480+126630FM-12+007099999V0200701N000510075019N0050001N1+01971+01861100031ADDAY121031AY221031GF108991061051008001021999MA1999999099251MD1010031+9999MW1101REMSYN072AAXX  08094 47112 41550 80701 10197 20186 39925 40003 50003 71022 8652/;
0243471120999992000060812004+37480+126630FM-12+007099999V0200701N001010075019N0035001N1+01851+01721100181ADDAA112002091AY161061AY261061GF108991061051008001021999IA1099IA2999+01909KA1120M+02381MA1999999099391MD1210141+9999MW1601REMSYN112AAXX  08124 47112 11535 80702 10185 20172 39939 40018 52014 60022 76066 8652/ 333 10238 31019 55000 70017 92033;
0161471120999992000060815004+37480+126630FM-12+007099999V0200701N001512200019N0015001N1+01791+01691100201ADDAY121031AY221031GF104991041051008001001001MA1999999099411MD1510021+9999MW1101REMSYN072AAXX  08154 47112 41515 40703 10179 20169 39941 40020 55002 71022 84500;
0171471120999992000060818004+37480+126630FM-12+007099999V0200701N001510075019N0030001N1+01531+01441100241ADDAY161061AY261061GF106991061051008001001001MA1999999099451MD1310031+9999MW1101REMSYN082AAXX  08184 47112 41530 60703 10153 20144 39945 40024 53003 71066 86500 333 92033;
0161471120999992000060821004+37480+126630FM-12+007099999V0200701N001519999999N0050001N1+01441+01231100451ADDAY121031AY221031GF106991061001999999061001MA1999999099651MD1210211+9999MW1101REMSYN072AAXX  08214 47112 41950 60703 10144 20123 39965 40045 52021 71022 86060;
0209471120999992000060900004+37480+126630FM-12+007099999V0200701N001012200019N0160001N1+01861+01371100631ADDAA112000191GF103991031051012501001001IA1099IA2999+02709KA1120N+01421MA1999999099841MD1210191+9999REMSYN100AAXX  09004 47112 32666 30702 10186 20137 39984 40063 52019 69912 83500 333 20142 31027 70018 92011;
0163471120999992000060903004+37480+126630FM-12+007099999V0200201N001510075019N0140001N1+02471+01491100651ADDAA199000091GF106991061051008001001001MA1999999099881MD1310041+9999REMSYN066AAXX  09034 47112 32564 60203 10247 20149 39988 40065 53004 86500;EQDQ01  00002PRCP99
0173471120999992000060906004+37480+126630FM-12+007099999V0203201N004110075019N0100001N1+02461+01471100591ADDAA199000091GF106991061051008001001001MA1999999099821MD1810061+9999REMSYN076AAXX  09064 47112 32560 63208 10246 20147 39982 40059 58006 86500 333 92033;EQDQ01  00002PRCP99
0163471120999992000060909004+37480+126630FM-12+007099999V0202901N004610075019N0120001N1+02351+01481100641ADDAA199000091GF106991061051008001001001MA1999999099861MD1010041+9999REMSYN066AAXX  09094 47112 32562 62909 10235 20148 39986 40064 50004 86500;EQDQ01  00002PRCP99
0215471120999992000060912004+37480+126630FM-12+007099999V0202501N004610075019N0110001N1+01881+01441100901ADDAA112000791GF105991051051008001001001IA1019IA2999+01809KA1120M+02621MA1999999100111MD1210251+9999REMSYN106AAXX  09124 47112 12561 52509 10188 20144 30011 40090 52025 69902 85500 333 10262 30018 55072 70001 92011;
0191471120999992000060915004+37480+126630FM-12+007099999V0202001N002612200019N0080001N1+01691+01541101011ADDAA199000091AY121031AY221031GF104991041051008001001001MA1999999100221MD1210101+9999MW1101REMSYN072AAXX  09154 47112 31558 42005 10169 20154 30022 40101 52010 71022 84500;EQDQ01  00002PRCP99
0201471120999992000060918004+37480+126630FM-12+007099999V0201801N004119999999N0050001N1+01841+01601101031ADDAA199000091AY121061AY221061GF108991081001999999011999MA1999999100231MD1510021+9999MW1101REMSYN082AAXX  09184 47112 31950 81808 10184 20160 30023 40103 55002 71022 8801/ 333 92011;EQDQ01  00002PRCP99
0161471120999992000060921004+37480+126630FM-12+007099999V0201601N000510075019N0050001N1+01831+01661101101ADDAY161031AY221031GF108991061051008001021999MA1999999100311MD1210081+9999MW1211REMSYN072AAXX  09214 47112 41550 81601 10183 20166 30031 40110 52008 72162 8652/;
0218471120999992000061000004+37480+126630FM-12+007099999V0202001N001510360019N0030001N1+02111+01671101121ADDAA112000191AY121061AY221061GF108991031051008001011999IA1019IA2999+02809MA1999999100331MD1310021+9999MW1101REMSYN100AAXX  10004 47112 11530 82003 10211 20167 30033 40112 53002 69912 71022 8351/ 333 30028 70001 92033;
0161471120999992000061003004+37480+126630FM-12+007099999V0202901N002612200019N0050001N1+02291+01551101031ADDAY111031AY211031GF103991031051008001001001MA1999999100251MD1710081+9999MW1101REMSYN072AAXX  10034 47112 41550 32905 10229 20155 30025 40103 57008 71011 83500;
0154471120999992000061006004+37480+126630FM-12+007099999V0202701N004112200019N0100001N1+02501+01541100861ADDAA199000021GF101991011011008001001001MA1999999100091MD1710161+9999REMSYN076AAXX  10064 47112 32560 12708 10250 20154 30009 40086 57016 81100 333 92033;
0154471120999992000061009004+37480+126630FM-12+007099999V0202501N003612200019N0150001N1+02341+01441100791ADDAA199000021GA1001+999999999GF100991001001999999001001MA1999999100021MD1710071+9999REMSYN060AAXX  10094 47112 32965 02507 10234 20144 30002 40079 57007;
0203471120999992000061012004+37480+126630FM-12+007099999V0200501N000512200019N0130001N1+01911+01521101001ADDAA124000191GF102991021001999999031001IA1019IA2999+01709KA1120M+02611MA1999999100211MD1210201+9999REMSYN094AAXX  10124 47112 32963 20501 10191 20152 30021 40100 52020 82030 333 10261 30017 70001 92011;
0173471120999992000061015004+37480+126630FM-12+007099999V0201401N002112200019N0150001N1+01951+01321101001ADDAA199000091GA1001+999999999GF100991001001999999001001MA1999999100211MD1510011+9999REMSYN060AAXX  10154 47112 32965 01404 10195 20132 30021 40100 55001;EQDQ01  00002PRCP99
0201471120999992000061018004+37480+126630FM-12+007099999V0201401N001510075019N0012001N1+01811+01611100961ADDAA199000091AY121061AY221061GF107991071051008001001001MA1999999100171MD1710041+9999MW1101REMSYN082AAXX  10184 47112 31512 71403 10181 20161 30017 40096 57004 71022 87500 333 92011;EQDQ01  00002PRCP99
0191471120999992000061021004+37480+126630FM-12+007099999V0201101N001510075019N0090001N1+01861+01571101021ADDAA199000091AY121031AY221031GF105991051061008001001001MA1999999100231MD1210061+9999MW1101REMSYN072AAXX  10214 47112 31559 51103 10186 20157 30023 40102 52006 71022 85600;EQDQ01  00002PRCP99
0216471120999992000061100004+37480+126630FM-12+007099999V0201101N001510075019N0120001N1+02271+01511101101ADDAA199000091GF107991071051008001001001IA1019IA2999+02909KA1120N+01711MA1999999100321MD1210091+9999REMSYN088AAXX  11004 47112 32562 71103 10227 20151 30032 40110 52009 87500 333 20171 30029 92011;EQDQ01  00002PRCP99
0163471120999992000061103004+37480+126630FM-12+007099999V0202701N002612200019N0130001N1+02361+01541101031ADDAA199000091GF104991041051008001001001MA1999999100261MD1710061+9999REMSYN066AAXX  11034 47112 32563 42705 10236 20154 30026 40103 57006 84500;EQDQ01  00002PRCP99
0173471120999992000061106004+37480+126630FM-12+007099999V0202701N004612200019N0100001N1+02501+01621100881ADDAA199000091GF103991031011008001001001MA1999999100111MD1710151+9999REMSYN076AAXX  11064 47112 32560 32709 10250 20162 30011 40088 57015 83100 333 92011;EQDQ01  00002PRCP99
0133471120999992000061109004+37480+126630FM-12+007099999V0203201N003612200019N0100001N1+02461+01631100801ADDGF102991021051008001001001MA1999999100031MD1710081+9999REMSYN066AAXX  11094 47112 42560 23207 10246 20163 30003 40080 57008 82500;
0219471120999992000061112004+37480+126630FM-12+007099999V0203401N002612200019N0100001N1+01951+01601100941ADDAA112000791GA1001+999999999GF100991001001999999001001IA1019IA2999+01809KA1120M+02601MA1999999100151MD1210121+9999REMSYN094AAXX  11124 47112 12960 03405 10195 20160 30015 40094 52012 69902 333 10260 30018 55083 92033;
0163471120999992000061115004+37480+126630FM-12+007099999V0201401N001010075019N0100001N1+02001+01621100961ADDAA199000091GF106991061051008001001001MA1999999100171MD1310021+9999REMSYN066AAXX  11154 47112 32560 61402 10200 20162 30017 40096 53002 86500;EQDQ01  00002PRCP99
0211471120999992000061118004+37480+126630FM-12+007099999V0202001N004112200019N0030001N1+01851+01721100921ADDAA199000091AY101061AY201061GA1001+999999999GF100991001001999999001001MA1999999100131MD1810041+9999MW1101REMSYN076AAXX  11184 47112 31930 02008 10185 20172 30013 40092 58004 71000 333 92033;EQDQ01  00002PRCP99
0191471120999992000061121004+37480+126630FM-12+007099999V0201601N001510900019N0035001N1+01801+01591101001ADDAA199000091AY121031AY221031GF106991021051008001001021MA1999999100211MD1210081+9999MW1101REMSYN072AAXX  11214 47112 31535 61603 10180 20159 30021 40100 52008 71022 82502;EQDQ01  00002PRCP99
0244471120999992000061200004+37480+126630FM-12+007099999V0203201N002112200019N0080001N1+02091+01611101011ADDAA199000091AY111061AY211061GF102991021081008001001001IA1019IA2999+02709KA1120N+01751MA1999999100231MD1010021+9999MW1101REMSYN094AAXX  12004 47112 31558 23204 10209 20161 30023 40101 50002 71011 82800 333 20175 30027 92022;EQDQ01  00002PRCP99
0153471120999992000061203004+37480+126630FM-12+007099999V0202701N004112200019N0120001N1+02451+01661100901ADDAA199000091GA1001+999999999GF100991001001999999001001MA1999999100131REMSYN054AAXX  12034 47112 32962 02708 10245 20166 30013 40090;EQDQ01  00002PRCP99
0163471120999992000061206004+37480+126630FM-12+007099999V0202901N006712200019N0100001N1+02551+01501100731ADDAA199000091GA1001+999999999GF100991001001999999001001MA1999999099961REMSYN064AAXX  12064 47112 32960 02913 10255 20150 39996 40073 333 92033;EQDQ01  00002PRCP99
0163471120999992000061209004+37480+126630FM-12+007099999V0202701N005112200019N0100001N1+02421+01301100631ADDAA199000091GF101991011051008001001001MA1999999099861MD1710101+9999REMSYN066AAXX  12094 47112 32560 12710 10242 20130 39986 40063 57010 81500;EQDQ01  00002PRCP99
0222471120999992000061212004+37480+126630FM-12+007099999V0202901N002112200019N0120001N1+02091+01081100721ADDAA199000091GF101991011051008001001001IA1019IA2999+01809KA1120M+02731MA1999999099931MD1010071+9999REMSYN094AAXX  12124 47112 32562 12904 10209 20108 39993 40072 50007 81500 333 10273 30018 55101 92011;EQDQ01  00002PRCP99
0163471120999992000061215004+37480+126630FM-12+007099999V0202301N003612200019N0110001N1+01881+01561100711ADDAA199000091GF101991001001999999001011MA1999999099921MD1510021+9999REMSYN066AAXX  12154 47112 32961 12307 10188 20156 39992 40071 55002 80001;EQDQ01  00002PRCP99
0183471120999992000061218004+37480+126630FM-12+007099999V0202001N003612200019N0120001N1+01771+01421100631ADDAA199000091GA1001+999999999GF100991001001999999001001MA1999999099831MD1710081+9999REMSYN070AAXX  12184 47112 32962 02007 10177 20142 39983 40063 57008 333 92011;EQDQ01  00002PRCP99
0163471120999992000061221004+37480+126630FM-12+007099999V0201801N003112200019N0180001N1+01751+01421100641ADDAA199000091GF102991021001999999031011MA1999999099851MD1010021+9999REMSYN066AAXX  12214 47112 32968 21806 10175 20142 39985 40064 50002 82031;EQDQ01  00002PRCP99
0226471120999992000061300004+37480+126630FM-12+007099999V0202301N003612200019N0200001N1+02171+01511100671ADDAA199000091GA1001+999999999GF100991001001999999001001IA1019IA2999+03709KA1120N+01691MA1999999099891MD1010041+9999REMSYN082AAXX  13004 47112 32970 02307 10217 20151 39989 40067 50004 333 20169 30037 92022;EQDQ01  00002PRCP99
0157471120999992000061303004+37480+126630FM-12+007099999V02099999999992200019N0200001N1+02721+01441100561ADDAA199000091GF103991999999999999999999MA1999999099791MD1710101+9999REMSYN060AAXX  13034 47112 32970 39505 10272 20144 39979 40056 57010;EQDQ01  00002PRCP99
0183471120999992000061306004+37480+126630FM-12+007099999V0202501N002612200019N0250001N1+02391+01671100731ADDAA199000091GA1001+999999999GF100991001001999999001001MA1999999099971MD1210051+9999REMSYN070AAXX  13064 47112 32975 02505 10239 20167 39997 40073 52005 333 92022;EQDQ01  00002PRCP99
0143471120999992000061309004+37480+126630FM-12+007099999V0202501N005719999999N0250001N1+02121+01631100341ADDAA199000091GF106991031001999999011021MA1999999099561REMSYN060AAXX  13094 47112 32975 62511 10212 20163 39956 40034 83012;EQDQ01  00002PRCP99
0209471120999992000061312004+37480+126630FM-12+007099999V0202001N005110075019N0100001N1+02041+01481100381ADDAA112000791GF108991061051008001011999IA1019IA2999+02009KA1120M+02751MA1999999099601MD1210041+9999REMSYN100AAXX  13124 47112 12560 82010 10204 20148 39960 40038 52004 69902 8651/ 333 10275 30020 70000 92044;
0191471120999992000061315004+37480+126630FM-12+007099999V0202001N003610075019N0060001N1+01961+01631100481ADDAA199000091AY121031AY221031GF106991061051008001001001MA1999999099691MD1210091+9999MW1101REMSYN072AAXX  13154 47112 31556 62007 10196 20163 39969 40048 52009 71022 86500;EQDQ01  00002PRCP99
0201471120999992000061318004+37480+126630FM-12+007099999V0201801N003110075019N0050001N1+02031+01531100411ADDAA199000091AY121061AY221061GF106991061051008001001001MA1999999099631MD1810061+9999MW1101REMSYN082AAXX  13184 47112 31550 61806 10203 20153 39963 40041 58006 71022 86500 333 92022;EQDQ01  00002PRCP99
0154471120999992000061321004+37480+126630FM-12+007099999V0201801N004619999999N0080001N1+02061+01631999999ADDAA199000091GF107991999999008001999999MA1999999099641REMSYN071AAXX  13214 47112 31558 71809 10206 20163 39964 4042 53001 71022 87500;EQDQ01  00002PRCP99
0203471120999992000061400004+37480+126630FM-12+007099999V0201801N005112200019N0110001N1+02401+01481100291ADDAA112000791GF104991021051008001001011IA1019IA2999+03109KA1120N+01941MA1999999099521MD1710121+9999REMSYN094AAXX  14004 47112 32561 41810 10240 20148 39952 40029 57012 69902 82501 333 20194 30031 92011;
0173471120999992000061403004+37480+126630FM-12+007099999V0202001N006212200019N0100001N1+02671+01611100261ADDAA199000091GA1001+999999999GF100991001001999999001001MA1999999099491MD1010031+9999REMSYN060AAXX  14034 47112 32960 02012 10267 20161 39949 40026 50003;EQDQ01  00002PRCP99
0201471120999992000061406004+37480+126630FM-12+007099999V0202301N005112200019N0080001N1+02441+01691100231ADDAA199000091AY111061AY211061GF102991021051008001001001MA1999999099461MD1710031+9999MW1101REMSYN082AAXX  14064 47112 31558 22310 10244 20169 39946 40023 57003 71011 82500 333 92011;EQDQ01  00002PRCP99
0207471120999992000061409004+37480+126630FM-12+007099999V0202001N004612200019N0080001N1+02451+01731100261ADDAA199000091AY111031AY211031GF103991001001999999001011MA1999999099491MD1010031+9999MW1101REMSYN072AAXX  14094 47112 31558 32009 10245 20173 39949 40026 50003 71011 80001;EQDQ01+008002SCOLCBQ02  00002PRCP99
0250471120999992000061412004+37480+126630FM-12+007099999V0202501N001512200019N0035001N1+02091+01771100521ADDAA199000091AY111061AY211061GF102991001001999999001011IA1019IA2999+02009KA1120M+02721MA1999999099741MD1210241+9999MW1101REMSYN100AAXX  14124 47112 31935 22503 10209 20177 39974 40052 52024 71011 80001 333 10272 30020 55100 92022;EQDQ01  00002PRCP99
0201471120999992000061415004+37480+126630FM-12+007099999V0202001N004612200019N0030001N1+02001+01751100661ADDAA199000091AY101031AY201031GA1001+999999999GF100991001001999999001001MA1999999099871MD1210131+9999MW1101REMSYN066AAXX  14154 47112 31930 02009 10200 20175 39987 40066 52013 71000;EQDQ01  00002PRCP99
0211471120999992000061418004+37480+126630FM-12+007099999V0202001N004612200019N0015001N1+01941+01811100771ADDAA199000091AY101061AY201061GA1001+999999999GF100991001001999999001001MA1999999099981MD1210111+9999MW1101REMSYN076AAXX  14184 47112 31915 02009 10194 20181 39998 40077 52011 71000 333 92022;EQDQ01  00002PRCP99
0201471120999992000061421004+37480+126630FM-12+007099999V0201801N002610006019N0006001N1+01951+01801100851ADDAA199000091AY141031AY241031GA1091+999999999GF109991091999999999999999MA1999999100061MD1210081+9999MW1471REMSYN066AAXX  14214 47112 31/06 91805 10195 20180 30006 40085 52008 74744;EQDQ01  00002PRCP99
0254471120999992000061500004+37480+126630FM-12+007099999V0201601N002610006019N0007001N1+02371+01841100941ADDAA199000091AY141061AY241061GA1091+999999999GF109991091999999999999999IA1019IA2999+03309KA1120N+01891MA1999999100161MD1310091+9999MW1451REMSYN088AAXX  15004 47112 31507 91605 10237 20184 30016 40094 53009 74544 333 20189 30033 92022;EQDQ01  00002PRCP99
0201471120999992000061503004+37480+126630FM-12+007099999V0202001N004112200019N0020001N1+02851+01901100911ADDAA199000091AY101031AY201031GA1001+999999999GF100991001001999999001001MA1999999100151MD1710011+9999MW1101REMSYN066AAXX  15034 47112 31920 02008 10285 20190 30015 40091 57001 71000;EQDQ01  00002PRCP99
0201471120999992000061506004+37480+126630FM-12+007099999V0202501N004112200019N0020001N1+02841+01861100871ADDAA199000091AY101061AY201061GF102991001001999999001011MA1999999100101MD1710051+9999MW1051REMSYN082AAXX  15064 47112 31920 22508 10284 20186 30010 40087 57005 70500 80001 333 92022;EQDQ01  00002PRCP99
0191471120999992000061509004+37480+126630FM-12+007099999V0202301N003112200019N0015001N1+02371+01831100921ADDAA199000091AY121031AY221031GF103991001001999999001021MA1999999100141MD1010041+9999MW1101REMSYN072AAXX  15094 47112 31915 32306 10237 20183 30014 40092 50004 71022 80002;EQDQ01  00002PRCP99
0250471120999992000061512004+37480+126630FM-12+007099999V0202301N005119999999N0012001N1+02151+01901101071ADDAA199000091AY121061AY221061GF105991001001999999001011IA1019IA2999+02109KA1120M+03041MA1999999100291MD1210141+9999MW1101REMSYN100AAXX  15124 47112 31912 52310 10215 20190 30029 40107 52014 71022 80001 333 10304 30021 55081 92011;EQDQ01  00002PRCP99
0191471120999992000061515004+37480+126630FM-12+007099999V0202001N003619999999N0015001N1+02111+01911101261ADDAA199000091AY121031AY221031GF105991001001999999001011MA1999999100471MD1210181+9999MW1101REMSYN072AAXX  15154 47112 31915 52007 10211 20191 30047 40126 52018 71022 80001;EQDQ01  00002PRCP99
0201471120999992000061518004+37480+126630FM-12+007099999V0202001N003119999999N0012001N1+02031+01891101311ADDAA199000091AY121061AY221061GF105991001001999999001011MA1999999100521MD1010051+9999MW1101REMSYN082AAXX  15184 47112 31912 52006 10203 20189 30052 40131 50005 71022 80001 333 92011;EQDQ01  00002PRCP99
0191471120999992000061521004+37480+126630FM-12+007099999V0202001N003119999999N0008001N1+01981+01851101381ADDAA199000091AY141031AY221031GF105991001001999999001011MA1999999100591MD1210071+9999MW1441REMSYN072AAXX  15214 47112 31908 52006 10198 20185 30059 40138 52007 74442 80001;EQDQ01  00002PRCP99
0218471120999992000061600004+37480+126630FM-12+007099999V0202301N002610360019N0015001N1+02291+01751101471ADDAA112000791AY121061AY221061GF108991021051008001011999IA1019IA2999+02809MA1999999100691MD1210101+9999MW1101REMSYN100AAXX  16004 47112 31515 82305 10229 20175 30069 40147 52010 69902 71022 8251/ 333 2/193 30028 92022;
0191471120999992000061603004+37480+126630FM-12+007099999V0202301N003610360019N0009001N1+02431+01771101411ADDAA199000091AY141031AY241031GF108991031051008001011999MA1999999100631MD1810061+9999MW1421REMSYN072AAXX  16034 47112 31509 82307 10243 20177 30063 40141 58006 74244 8351/;EQDQ01  00002PRCP99
0201471120999992000061606004+37480+126630FM-12+007099999V0200201N002119999999N0030001N1+02581+01961101251ADDAA199000091AY121061AY221061GF106991061001999999061001MA1999999100471MD1710151+9999MW1101REMSYN082AAXX  16064 47112 31930 60204 10258 20196 30047 40125 57015 71022 86060 333 92022;EQDQ01  00002PRCP99
0191471120999992000061609004+37480+126630FM-12+007099999V0203401N002619999999N0035001N1+02371+01851101121ADDAA199000091AY121031AY221031GF107991071001999999061001MA1999999100341MD1710141+9999MW1101REMSYN072AAXX  16094 47112 31935 73405 10237 20185 30034 40112 57014 71022 87060;EQDQ01  00002PRCP99
0237471120999992000061612004+37480+126630FM-12+007099999V0200201N000510360019N0013001N1+02281+01921101151ADDAA199000091AY121061AY221061GF108991041051008001011999IA2999+02209KA1120M+02711MA1999999100361MD1210031+9999MW1101REMSYN093AAXX  16124 47112 31513 80201 10228 20192 30036 40115 52003 71022 8451/ 333 10271 3/022 9201;EQDQ01  00002PRCP99
0163471120999992000061615004+37480+126630FM-12+007099999V0202001N003110075019N0130001N1+02051+01761101161ADDAA199000091GF107991071051008001001001MA1999999100371MD1510001+9999REMSYN066AAXX  16154 47112 32563 72006 10205 20176 30037 40116 55000 87500;EQDQ01  00002PRCP99
0211471120999992000061618004+37480+126630FM-12+007099999V0201101N001512200019N0030001N1+02161+01871101061ADDAA199000091AY101061AY201061GA1001+999999999GF100991001001999999001001MA1999999100281MD1710091+9999MW1101REMSYN076AAXX  16184 47112 31930 01103 10216 20187 30028 40106 57009 71000 333 92011;EQDQ01  00002PRCP99
0191471120999992000061621004+37480+126630FM-12+007099999V0201801N002119999999N0030001N1+02051+01841101141ADDAA199000091AY121031AY221031GF105991051001999999011001MA1999999100351MD1210071+9999MW1101REMSYN072AAXX  16214 47112 31930 51804 10205 20184 30035 40114 52007 71022 85010;EQDQ01  00002PRCP99
0241471120999992000061700004+37480+126630FM-12+007099999V0202301N003612200019N0015001N1+02461+01851101091ADDAA112000791AY101061AY201061GA1001+999999999GF100991001001999999001001IA1019IA2999+03209KA1120N+02031MA1999999100311MD1710041+9999MW1101REMSYN094AAXX  17004 47112 31915 02307 10246 20185 30031 40109 57004 69902 71000 333 20203 30032 92011;
0191471120999992000061703004+37480+126630FM-12+007099999V0202701N004119999999N0030001N1+02811+01691101101ADDAA199000091AY121031AY221031GF108991081001999999011999MA1999999100331MD1310021+9999MW1101REMSYN072AAXX  17034 47112 31930 82708 10281 20169 30033 40110 53002 71022 8801/;EQDQ01  00002PRCP99
0201471120999992000061706004+37480+126630FM-12+007099999V0202301N004619999999N0030001N1+02431+01751101011ADDAA199000091AY121061AY221061GF106991031001999999011011MA1999999100231MD1710101+9999MW1101REMSYN082AAXX  17064 47112 31930 62309 10243 20175 30023 40101 57010 71022 83011 333 92033;EQDQ01  00002PRCP99
0191471120999992000061709004+37480+126630FM-12+007099999V0202501N002619999999N0030001N1+02311+01671100961ADDAA199000091AY121031AY221031GF106991001001999999001021MA1999999100181MD1710051+9999MW1101REMSYN072AAXX  17094 47112 31930 62505 10231 20167 30018 40096 57005 71022 80002;EQDQ01  00002PRCP99
0210471120999992000061712004+37480+126630FM-12+007099999V0203401N002119999999N0110001N1+02121+01711101121ADDAA199000091GF105991001001999999001011IA1019IA2999+02109KA1120M+02881MA1999999100341MD1210151+9999REMSYN082AAXX  17124 47112 32961 53404 10212 20171 30034 40112 52015 80001 333 10288 30021;EQDQ01  00002PRCP99
0131471120999992000061715004+37480+126630FM-12+007099999V0201801N002119999999N9999999N1+02051+01791101051ADDAA199000091MA1999999100261MD1510081+9999REMSYN060AAXX  17154 47112 3//// /1804 10205 20179 30026 40105 55008;EQDQ01  00002PRCP99
0173471120999992000061718004+37480+126630FM-12+007099999V0202301N002112200019N0120001N1+02051+01791101081ADDAA199000091GF103991001001999999001011MA1999999100291MD1710031+9999REMSYN076AAXX  17184 47112 32962 32304 10205 20179 30029 40108 57003 80001 333 92033;EQDQ01  00002PRCP99
0163471120999992000061721004+37480+126630FM-12+007099999V0202901N000519999999N0120001N1+02061+01801101151ADDAA199000091GF107991071001999999061001MA1999999100361MD1210061+9999REMSYN066AAXX  17214 47112 32962 72901 10206 20180 30036 40115 52006 87060;EQDQ01  00002PRCP99
0241471120999992000061800004+37480+126630FM-12+007099999V0202301N002612200019N0035001N1+02441+01811101181ADDAA112000791AY101061AY201061GA1001+999999999GF100991001001999999001001IA1019IA2999+02709KA1120N+02031MA1999999100401MD1210041+9999MW1101REMSYN094AAXX  18004 47112 31935 02305 10244 20181 30040 40118 52004 69902 71000 333 20203 30027 92022;
0201471120999992000061803004+37480+126630FM-12+007099999V0202301N004612200019N0050001N1+02701+01781101111ADDAA199000091AY101031AY201031GA1001+999999999GF100991001001999999001001MA1999999100341MD1710071+9999MW1101REMSYN066AAXX  18034 47112 31050 02309 10270 20178 30034 40111 57007 71000;EQDQ01  00002PRCP99
0183471120999992000061806004+37480+126630FM-12+007099999V0202501N004612200019N0100001N1+02711+01831100961ADDAA199000091GA1001+999999999GF100991001001999999001001MA1999999100201MD1710141+9999REMSYN070AAXX  18064 47112 32960 02509 10271 20183 30020 40096 57014 333 92033;EQDQ01  00002PRCP99
0173471120999992000061809004+37480+126630FM-12+007099999V0202701N005712200019N0150001N1+02551+01651100881ADDAA199000091GA1001+999999999GF100991001001999999001001MA1999999100101MD1710091+9999REMSYN060AAXX  18094 47112 32965 02711 10255 20165 30010 40088 57009;EQDQ01  00002PRCP99
0232471120999992000061812004+37480+126630FM-12+007099999V0202301N004112200019N0100001N1+02101+01811100951ADDAA199000091GA1001+999999999GF100991001001999999001001IA1019IA2999+02109KA1120M+02861MA1999999100171MD1210061+9999REMSYN088AAXX  18124 47112 32960 02308 10210 20181 30017 40095 52006 333 10286 30021 55102 92011;EQDQ01  00002PRCP99
0173471120999992000061815004+37480+126630FM-12+007099999V0202001N003112200019N0100001N1+02051+01771101001ADDAA199000091GA1001+999999999GF100991001001999999001001MA1999999100211MD1310041+9999REMSYN060AAXX  18154 47112 32960 02006 10205 20177 30021 40100 53004;EQDQ01  00002PRCP99
0211471120999992000061818004+37480+126630FM-12+007099999V0202001N004112200019N0050001N1+01921+01801100991ADDAA199000091AY101061AY201061GA1001+999999999GF100991001001999999001001MA1999999100201MD1310011+9999MW1101REMSYN076AAXX  18184 47112 31950 02008 10192 20180 30020 40099 53001 71000 333 92011;EQDQ01  00002PRCP99
0201471120999992000061821004+37480+126630FM-12+007099999V0202001N002610003019N0002001N1+01851+01801101071ADDAA199000091AY141031AY241031GA1091+999999999GF109991091999999999999999MA1999999100281MD1210071+9999MW1451REMSYN066AAXX  18214 47112 31/02 92005 10185 20180 30028 40107 52007 74544;EQDQ01  00002PRCP99
0254471120999992000061900004+37480+126630FM-12+007099999V0202001N003612200019N0009001N1+02211+01841101101ADDAA199000091AY141061AY241061GA1001+999999999GF100991001001999999001001IA1019IA2999+02609KA1120N+01831MA1999999100321MD1310041+9999MW1421REMSYN088AAXX  19004 47112 31909 02007 10221 20184 30032 40110 53004 74244 333 20183 30026 92022;EQDQ01  00002PRCP99
0201471120999992000061903004+37480+126630FM-12+007099999V0202301N003612200019N0050001N1+02631+01841101041ADDAA199000091AY101031AY201031GA1001+999999999GF100991001001999999001001MA1999999100271MD1510051+9999MW1101REMSYN066AAXX  19034 47112 31950 02307 10263 20184 30027 40104 55005 71000;EQDQ01  00002PRCP99
0183471120999992000061906004+37480+126630FM-12+007099999V0202301N004612200019N0150001N1+02761+01931100931ADDAA199000091GA1001+999999999GF100991001001999999001001MA1999999100161MD1710111+9999REMSYN070AAXX  19064 47112 32965 02309 10276 20193 30016 40093 57011 333 92022;EQDQ01  00002PRCP99
0173471120999992000061909004+37480+126630FM-12+007099999V0202701N004112200019N0200001N1+02501+01981100871ADDAA199000091GA1001+999999999GF100991001001999999001001MA1999999100091MD1710071+9999REMSYN060AAXX  19094 47112 32970 02708 10250 20198 30009 40087 57007;EQDQ01  00002PRCP99
0244471120999992000061912004+37480+126630FM-12+007099999V0202701N001012200019N0050001N1+02131+02001100961ADDAA199000091AY111061AY211061GF103991001001999999001011IA1019IA2999+02109KA1120M+02841MA1999999100171MD1210081+9999MW1101REMSYN094AAXX  19124 47112 31950 32702 10213 20200 30017 40096 52008 71011 80001 333 10284 30021 92011;EQDQ01  00002PRCP99
0191471120999992000061915004+37480+126630FM-12+007099999V0202901N001012200019N0007001N1+02051+02001100991ADDAA199000091AY141031AY221031GF102991001001999999001011MA1999999100201MD1510031+9999MW1441REMSYN072AAXX  19154 47112 31907 22902 10205 20200 30020 40099 55003 74442 80001;EQDQ01  00002PRCP99
0211471120999992000061918004+37480+126630FM-12+007099999V0202001N001010001519N0001001N1+02001+01961100941ADDAA199000091AY141061AY241061GA1091+999999999GF109991091999999999999999MA1999999100151MD1710051+9999MW1471REMSYN076AAXX  19184 47112 31201 92002 10200 20196 30015 40094 57005 74744 333 92011;EQDQ01  00002PRCP99
0201471120999992000061921004+37480+126630FM-12+007099999V0201801N002110003019N0002001N1+01941+01911100961ADDAA199000091AY141031AY241031GA1091+999999999GF109991091999999999999999MA1999999100171MD1210021+9999MW1451REMSYN066AAXX  19214 47112 31202 91804 10194 20191 30017 40096 52002 74544;EQDQ01  00002PRCP99
0244471120999992000062000004+37480+126630FM-12+007099999V0202001N002619999999N0015001N1+02311+01961100981ADDAA199000091AY121061AY221061GF108991081001999999011999IA1019IA2999+02709KA1120N+01901MA1999999100201MD1310031+9999MW1101REMSYN094AAXX  20004 47112 31915 82005 10231 20196 30020 40098 53003 71022 8801/ 333 20190 30027 92011;EQDQ01  00002PRCP99
0191471120999992000062003004+37480+126630FM-12+007099999V0202301N001519999999N0030001N1+02661+02001100871ADDAA199000091AY121031AY221031GF106991001001999999001021MA1999999100111MD1710101+9999MW1101REMSYN072AAXX  20034 47112 31930 62303 10266 20200 30011 40087 57010 71022 80002;EQDQ01  00002PRCP99
0173471120999992000062006004+37480+126630FM-12+007099999V0202501N003619999999N0110001N1+02671+02021100771ADDAA199000091GF108991081001999999011999MA1999999100001MD1710111+9999REMSYN076AAXX  20064 47112 32961 82507 10267 20202 30000 40077 57011 8801/ 333 92011;EQDQ01  00002PRCP99
0163471120999992000062009004+37480+126630FM-12+007099999V0203601N000519999999N0120001N1+02581+01741100681ADDAA199000091GF106991001001999999001021MA1999999099911MD1710091+9999REMSYN066AAXX  20094 47112 32962 63601 10258 20174 39991 40068 57009 80002;EQDQ01  00002PRCP99
0209471120999992000062012004+37480+126630FM-12+007099999V0200701N000519999999N0120001N1+02251+01961100621ADDAA112000791GF106991061001999999011001IA1019IA2999+02309KA1120M+02981MA1999999099841MD1710071+9999REMSYN100AAXX  20124 47112 32962 60701 10225 20196 39984 40062 57007 69902 86010 333 10298 30023 55037 92022;
0191471120999992000062015004+37480+126630FM-12+007099999V0202301N002619999999N0050001N1+02271+01981100601ADDAA199000091AY121031AY221031GF106991061001999999011001MA1999999099821MD1710021+9999MW1101REMSYN072AAXX  20154 47112 31950 62305 10227 20198 39982 40060 57002 71022 86010;EQDQ01  00002PRCP99
0201471120999992000062018004+37480+126630FM-12+007099999V0202301N002612200019N0030001N1+02031+01901100641ADDAA199000091AY121061AY221061GF104991041001999999041001MA1999999099851MD1510031+9999MW1101REMSYN082AAXX  20184 47112 31930 42305 10203 20190 39985 40064 55003 71022 84040 333 92033;EQDQ01  00002PRCP99
0191471120999992000062021004+37480+126630FM-12+007099999V0202001N002112200019N0050001N1+01971+01871100721ADDAA199000091AY111031AY211031GF102991001001999999001041MA1999999099941MD1210081+9999MW1101REMSYN072AAXX  20214 47112 31950 22004 10197 20187 39994 40072 52008 71011 80004;EQDQ01  00002PRCP99
0216471120999992000062100004+37480+126630FM-12+007099999V0202301N004619999999N0120001N1+02311+01841100821ADDAA199000091GF106991011001999999031011IA1019IA2999+02809KA1120N+01941MA1999999100041MD1210101+9999REMSYN088AAXX  21004 47112 32962 62309 10231 20184 30004 40082 52010 81031 333 20194 30028 92033;EQDQ01  00002PRCP99
0195471120999992000062103004+37480+126630FM-12+007099999V0202301N004112200019N0130001N1+02621+01761100811ADDAA199000091GF103991031001999999031001MA1999999100041MD1710011+9999REMSYN066AAXX  21034 47112 32963 32308 10262 20176 30004 40081 57000 83030;EQDQ01+000072APCTENQ02+000002APC3  Q03  00002PRCP99
0189471120999992000062106004+37480+126630FM-12+007099999V0202301N003612200019N0140001N1+02601+01621100721ADDAA199000091GF103991001001999999001021MA1999999099951MD1810091+9999REMSYN076AAXX  21064 47112 32964 32307 10260 20162 39995 40072 58009 83002 333 92022;EQDQ01+000032SCOTLCQ02  00002PRCP99
0179471120999992000062109004+37480+126630FM-12+007099999V0202501N003619999999N0120001N1+02471+01711100721ADDAA199000091GF105991001001999999001011MA1999999099951MD1410001+9999REMSYN066AAXX  21094 47112 32962 52507 10247 20171 39995 40072 58000 80001;EQDQ01+000082APCTENQ02  00002PRCP99
0209471120999992000062112004+37480+126630FM-12+007099999V0209999C000019999999N0120001N1+02281+01611100751ADDAA112000791GF105991001001999999001011IA1019IA2999+02209KA1120M+02841MA1999999099971MD1210021+9999REMSYN100AAXX  21124 47112 32962 50000 10228 20161 39997 40075 52002 69902 80001 333 10284 30022 55081 92011;
0163471120999992000062115004+37480+126630FM-12+007099999V0209999C000012200019N0100001N1+02291+01481100731ADDAA199000091GF103991001001999999001011MA1999999099951MD1510021+9999REMSYN066AAXX  21154 47112 32960 30000 10229 20148 39995 40073 55002 80001;EQDQ01  00002PRCP99
0163471120999992000062118004+37480+126630FM-12+007099999V0200501N000519999999N0100001N1+02161+01741100671ADDAA199000091GF107991071001999999011001MA1999999099891MD1210021+9999REMSYN066AAXX  21184 47112 32960 70501 10216 20174 39989 40067 52002 87010;EQDQ01  00002PRCP99
0161471120999992000062121004+37480+126630FM-12+007099999V0202001N002610075019N0060001N1+01891+01811100731ADDAY161031AY221031GF108991061071008001021999MA1999999099941MD1010041+9999MW1611REMSYN072AAXX  21214 47112 41556 82005 10189 20181 39994 40073 50004 76162 8672/;
0237471120999992000062200004+37480+126630FM-12+007099999V0200901N002110075019N0009001N1+02141+02071100711ADDAA112005191AY161061AY261061GF108991061071008001021999IA1099IA2999+02209KA1120N+01881MA1999999099921MD1310021+9999MW1611REMSYN106AAXX  22004 47112 11509 80904 10214 20207 39992 40071 53002 60052 76166 8672/ 333 20188 31022 70052 92022;
0161471120999992000062203004+37480+126630FM-12+007099999V0200701N000510360019N0012001N1+02631+02051100541ADDAY161031AY241031GF108991041051008001021999MA1999999099781MD1710151+9999MW1101REMSYN072AAXX  22034 47112 41512 80701 10263 20205 39978 40054 57015 71064 8452/;
0171471120999992000062206004+37480+126630FM-12+007099999V0200901N002110075019N0035001N1+02611+01901100381ADDAY121061AY221061GF108991061051008001011999MA1999999099611MD1710171+9999MW1101REMSYN082AAXX  22064 47112 41535 80904 10261 20190 39961 40038 57017 71022 8651/ 333 92033;
0133471120999992000062209004+37480+126630FM-12+007099999V0201101N004110075019N0120001N1+02501+01851100301ADDGF108991061051008001021999MA1999999099541MD1810071+9999REMSYN066AAXX  22094 47112 42562 81108 10250 20185 39954 40030 58007 8652/;
0237471120999992000062212004+37480+126630FM-12+007099999V0200701N002610075019N0160001N1+02241+01981100351ADDAA112000191AY161061AY261061GF108991061051008001021999IA1099IA2999+02109KA1120M+02781MA1999999099571MD1510041+9999MW1601REMSYN106AAXX  22124 47112 11566 80705 10224 20198 39957 40035 55004 69922 76066 8652/ 333 10278 31021 70054 92022;
0161471120999992000062215004+37480+126630FM-12+007099999V0201101N000510075019N0080001N1+02191+01991100381ADDAY161031AY221031GF108991061071008001021999MA1999999099601MD1210031+9999MW1601REMSYN072AAXX  22154 47112 41558 81101 10219 20199 39960 40038 52003 76062 8672/;
0171471120999992000062218004+37480+126630FM-12+007099999V0209999C000010075019N0050001N1+02111+02041100361ADDAY121061AY221061GF108991061051008001021999MA1999999099581MD1810031+9999MW1101REMSYN082AAXX  22184 47112 41550 80000 10211 20204 39958 40036 58003 71022 8652/ 333 92011;
0133471120999992000062221004+37480+126630FM-12+007099999V0200201N001010360019N0130001N1+02131+01991100451ADDGF108991021061008001021999MA1999999099671MD1210091+9999REMSYN066AAXX  22214 47112 41563 80202 10213 20199 39967 40045 52009 8262/;
0237471120999992000062300004+37480+126630FM-12+007099999V0201101N001510075019N0100001N1+02211+02011100501ADDAA112000591AY161061AY221061GF108991061051008001021999IA1019IA2999+02209KA1120N+02071MA1999999099721MD1310051+9999MW1211REMSYN106AAXX  23004 47112 11560 81103 10221 20201 39972 40050 53005 69952 72162 8652/ 333 20207 30022 70007 92011;
0161471120999992000062303004+37480+126630FM-12+007099999V0201101N001010075019N0060001N1+02251+02101100521ADDAY161031AY221031GF108991061051008001021999MA1999999099741MD1710021+9999MW1601REMSYN072AAXX  23034 47112 41556 81102 10225 20210 39974 40052 57002 76062 8652/;
0171471120999992000062306004+37480+126630FM-12+007099999V0202301N003610075019N0090001N1+02231+02091100441ADDAY161061AY221061GF108991061051008001021999MA1999999099671MD1710081+9999MW1211REMSYN082AAXX  23064 47112 41559 82307 10223 20209 39967 40044 57008 72162 8652/ 333 92011;
0161471120999992000062309004+37480+126630FM-12+007099999V0202301N003110075019N0050001N1+02241+02111100381ADDAY121031AY221031GF108991061051008001021999MA1999999099601MD1810061+9999MW1101REMSYN072AAXX  23094 47112 41550 82306 10224 20211 39960 40038 58006 71022 8652/;
0243471120999992000062312004+37480+126630FM-12+007099999V0202001N003110075019N0030001N1+02211+02111100461ADDAA112000391AY121061AY221061GF108991061051008001021999IA1099IA2999+02209KA1120M+02351MA1999999099681MD1010081+9999MW1101REMSYN112AAXX  23124 47112 11530 82006 10221 20211 39968 40046 50008 69932 71022 8652/ 333 10235 31022 55000 70008 92033;
0161471120999992000062315004+37480+126630FM-12+007099999V0209999C000010360019N0012001N1+02101+02031100521ADDAY121031AY221031GF106991031051008001011001MA1999999099731MD1310051+9999MW1101REMSYN072AAXX  23154 47112 41512 61600 10210 20203 39973 40052 53005 71022 83510;
0182471120999992000062318004+37480+126630FM-12+007099999V0201601N001010075019N0012001N1+02161+02051100451ADDAA199000021AY121061AY221061GF108991051051008001011999MA1999999099671MD1710061+9999MW1101REMSYN082AAXX  23184 47112 31512 81602 10216 20205 39967 40045 57006 71022 8551/ 333 92022;
0191471120999992000062321004+37480+126630FM-12+007099999V0201101N001510075019N0012001N1+02161+02001100501ADDAA199000091AY121031AY221031GF108991061051008001011999MA1999999099721MD1010051+9999MW1101REMSYN072AAXX  23214 47112 31512 81103 10216 20200 39972 40050 50005 71022 8651/;EQDQ01  00002PRCP99
0184471120999992000062400004+37480+126630FM-12+007099999V0201101N001010075019N0130001N1+02371+01981100491ADDAA124000391GF108991061051008001021999IA1099IA2999+02309MA1999999099721MD1010001+9999REMSYN088AAXX  24004 47112 41563 81102 10237 20198 39972 40049 50000 8652/ 333 31023 70003 92022;
0163471120999992000062403004+37480+126630FM-12+007099999V0201601N003110075019N0110001N1+02601+02041100481ADDAA199000091GF107991071051008001001001MA1999999099711MD1510011+9999REMSYN066AAXX  24034 47112 32561 71606 10260 20204 39971 40048 55001 87500;EQDQ01  00002PRCP99
0173471120999992000062406004+37480+126630FM-12+007099999V0201801N003110075019N0150001N1+02651+02101100401ADDAA199000091GF108991061051008001011999MA1999999099631MD1710081+9999REMSYN076AAXX  24064 47112 32565 81806 10265 20210 39963 40040 57008 8651/ 333 92011;EQDQ01  00002PRCP99
0163471120999992000062409004+37480+126630FM-12+007099999V0202501N003110075019N0120001N1+02531+02131100391ADDAA199000091GF107991071051008001001001MA1999999099621MD1810011+9999REMSYN066AAXX  24094 47112 32562 72506 10253 20213 39962 40039 58001 87500;EQDQ01  00002PRCP99
0209471120999992000062412004+37480+126630FM-12+007099999V0202701N003110075019N0100001N1+02361+02131100541ADDAA112000791GF106991061051008001001001IA1019IA2999+02309KA1120M+02891MA1999999099761MD1010141+9999REMSYN100AAXX  24124 47112 32560 62706 10236 20213 39976 40054 50014 69902 86500 333 10289 30023 55005 92011;
0191471120999992000062415004+37480+126630FM-12+007099999V0200701N001512200019N0050001N1+02171+02101100591ADDAA199000091AY111031AY211031GF103991031051008001001001MA1999999099811MD1310041+9999MW1101REMSYN072AAXX  24154 47112 31550 30703 10217 20210 39981 40059 53004 71011 83500;EQDQ01  00002PRCP99
0201471120999992000062418004+37480+126630FM-12+007099999V0201601N000512200019N0050001N1+02241+02051100591ADDAA199000091AY121061AY221061GF103991031051008001001001MA1999999099811MD1810011+9999MW1101REMSYN082AAXX  24184 47112 31550 31601 10224 20205 39981 40059 58001 71022 83500 333 92011;EQDQ01  00002PRCP99
0163471120999992000062421004+37480+126630FM-12+007099999V0201601N001010075019N0130001N1+02271+01991100671ADDAA199000091GF107991071051008001001001MA1999999099891MD1210081+9999REMSYN066AAXX  24214 47112 32563 71602 10227 20199 39989 40067 52008 87500;EQDQ01  00002PRCP99
0231471120999992000062500004+37480+126630FM-12+007099999V0202001N002110360019N0050001N1+02521+02051100741ADDAA112000791AY121061AY221061GF106991021051008001011001IA1019IA2999+02809KA1120N+02161MA1999999099961MD1310071+9999MW1101REMSYN100AAXX  25004 47112 31550 62004 10252 20205 39996 40074 53007 69902 71022 82510 333 20216 30028 92022;
0191471120999992000062503004+37480+126630FM-12+007099999V0202501N003619999999N0050001N1+02781+02121100701ADDAA199000091AY121031AY221031GF106991061001999999011001MA1999999099941MD1710031+9999MW1101REMSYN072AAXX  25034 47112 31950 62507 10278 20212 39994 40070 57003 71022 86010;EQDQ01  00002PRCP99
0173471120999992000062506004+37480+126630FM-12+007099999V0202701N004610075019N0100001N1+02641+02101100701ADDAA199000091GF106991051051008001011001MA1999999099931MD1010001+9999REMSYN076AAXX  25064 47112 32560 62709 10264 20210 39993 40070 50000 85510 333 92022;EQDQ01  00002PRCP99
0163471120999992000062509004+37480+126630FM-12+007099999V0202501N002110075019N0130001N1+02541+02171100681ADDAA199000091GF108991061051008001011999MA1999999099911MD1210021+9999REMSYN066AAXX  25094 47112 32563 82504 10254 20217 39991 40068 52002 8651/;EQDQ01  00002PRCP99
0216471120999992000062512004+37480+126630FM-12+007099999V0202001N003112200019N0130001N1+02241+02081100721ADDAA199000091GF102991021001999999041001IA1019IA2999+02309KA1120M+02881MA1999999099941MD1210031+9999REMSYN088AAXX  25124 47112 32963 22006 10224 20208 39994 40072 52003 82040 333 10288 30023 92022;EQDQ01  00002PRCP99
0163471120999992000062515004+37480+126630FM-12+007099999V0202001N001510075019N0180001N1+02241+02061100751ADDAA199000091GF106991061051008001001001MA1999999099971MD1310031+9999REMSYN066AAXX  25154 47112 32568 62003 10224 20206 39997 40075 53003 86500;EQDQ01  00002PRCP99
0201471120999992000062518004+37480+126630FM-12+007099999V0202001N001510075019N0050001N1+02211+02071100681ADDAA199000091AY121061AY221061GF108991061051008001011999MA1999999099901MD1710071+9999MW1101REMSYN082AAXX  25184 47112 31550 82003 10221 20207 39990 40068 57007 71022 8651/ 333 92022;EQDQ01  00002PRCP99
0191471120999992000062521004+37480+126630FM-12+007099999V0201401N001010360019N0070001N1+02321+02161100661ADDAA199000091AY121031AY221031GF108991031051008001011999MA1999999099881MD1510021+9999MW1101REMSYN072AAXX  25214 47112 31557 81402 10232 20216 39988 40066 55002 71022 8351/;EQDQ01  00002PRCP99
0244471120999992000062600004+37480+126630FM-12+007099999V0201401N001010360019N0050001N1+02561+02221100691ADDAA199000091AY121061AY221061GF108991041051008001021999IA1019IA2999+02609KA1120N+02211MA1999999099911MD1210031+9999MW1101REMSYN094AAXX  26004 47112 32550 81402 10256 20222 39991 40069 52003 71022 8452/ 333 20221 30026 92011;EQDQ01  00002PRCP99
0161471120999992000062603004+37480+126630FM-12+007099999V0202701N002610075019N0012001N1+02461+02351100561ADDAY161031AY221031GF108991061051008001021999MA1999999099781MD1710131+9999MW1211REMSYN072AAXX  26034 47112 41512 82705 10246 20235 39978 40056 57013 72162 8652/;
0171471120999992000062606004+37480+126630FM-12+007099999V0202001N003610075019N0015001N1+02401+02321100391ADDAY161061AY221061GF108991061071008001021999MA1999999099621MD1710171+9999MW1611REMSYN082AAXX  26064 47112 41515 82007 10240 20232 39962 40039 57017 76162 8672/ 333 92011;
0161471120999992000062609004+37480+126630FM-12+007099999V0201801N004110075019N0080001N1+02411+02291100251ADDAY161031AY221031GF108991061051008001021999MA1999999099481MD1710141+9999MW1601REMSYN072AAXX  26094 47112 41558 81808 10241 20229 39948 40025 57014 76062 8652/;
0262471120999992000062612004+37480+126630FM-12+007099999V0202001N005710075019N0030001N1+02331+02261100251ADDAA112007191AY161061AY261061GF108991061051008001021999IA1099IA2999+02309KA1120M+02741MA1999999099481MD1410001+9999MW1611REMSYN112AAXX  26124 47112 11530 82011 10233 20226 39948 40025 58000 60072 76166 8652/ 333 10274 31023 55000 70072 92033;EQDQ01+000082APCTEN
0177471120999992000062615004+37480+126630FM-12+007099999V0202301N003610003019N0003001N1+02171+02131100211ADDAY161031AY261031GA1091+999999999GF109991091999999999999999MA1999999099441MD1510041+9999MW1611REMSYN072AAXX  26154 47112 41303 92307 10217 20213 39944 40021 55004 76166 8772/;
0101471120999992000062618004+37480+126630FM-12+007099999V0209999C000019999999N9999999N1+02161+02121100081ADDMA1999999099301MD1710131+9999REMSYN060AAXX  26184 47112 4//// /0000 10216 20212 39930 40008 57013;
0161471120999992000062621004+37480+126630FM-12+007099999V0201101N003110075019N0030001N1+02171+02141099991ADDAY161031AY261031GF108991061071008001021999MA1999999099221MD1710091+9999MW1611REMSYN072AAXX  26214 47112 41530 81106 10217 20214 39922 49999 57009 76166 8672/;
0237471120999992000062700004+37480+126630FM-12+007099999V0201101N004110360019N0180001N1+02231+02191099951ADDAA112011991AY161061AY221061GF108991041051008001021999IA1099IA2999+02409KA1120N+02061MA1999999099181MD1310041+9999MW1211REMSYN106AAXX  27004 47112 11568 81108 10223 20219 39918 49995 53004 60122 72162 8452/ 333 20206 31024 70192 92033;
0152471120999992000062703004+37480+126630FM-12+007099999V0200901N003610360019N0200001N1+02531+02081099951ADDGF108991041051008001011999MA1999999099181MD1410001+9999REMSYN066AAXX  27034 47112 42570 80907 10253 20208 39918 49995 57000 8451/;EQDQ01+000072APCTEN
0154471120999992000062706004+37480+126630FM-12+007099999V0200901N004110360019N0250001N1+02981+01951099971ADDAA199000021GF105991041051008001031001MA1999999099221MD1010041+9999REMSYN076AAXX  27064 47112 32575 50908 10298 20195 39922 49997 50004 84530 333 92044;
0144471120999992000062709004+37480+126630FM-12+007099999V0201101N003110075019N0250001N1+02771+01901100081ADDAA199000021GF107991071051008001001001MA1999999099321MD1210101+9999REMSYN066AAXX  27094 47112 32575 71106 10277 20190 39932 40008 52010 87500;
0209471120999992000062712004+37480+126630FM-12+007099999V0201101N002112200019N0200001N1+02521+01831100321ADDAA124022991GF103991031051008001001001IA1099IA2999+02309KA1120M+03021MA1999999099551MD1210231+9999REMSYN100AAXX  27124 47112 32570 31104 10252 20183 39955 40032 52023 83500 333 10302 31023 55013 70228 92011;
0163471120999992000062715004+37480+126630FM-12+007099999V0200901N002112200019N0180001N1+02361+01831100441ADDAA199000091GF102991021051008001001001MA1999999099661MD1210111+9999REMSYN066AAXX  27154 47112 32568 20904 10236 20183 39966 40044 52011 82500;EQDQ01  00002PRCP99
0131471120999992000062718004+37480+126630FM-12+007099999V0200501N000519999999N9999999N1+02121+01891100401ADDAA199000091MA1999999099621MD1710041+9999REMSYN060AAXX  27184 47112 3//// /0501 10212 20189 39962 40040 57004;EQDQ01  00002PRCP99
0173471120999992000062721004+37480+126630FM-12+007099999V0200701N000512200019N0150001N1+02001+01851100521ADDAA199000091GA1001+999999999GF100991001001999999001001MA1999999099741MD1210121+9999REMSYN060AAXX  27214 47112 32965 00701 10200 20185 39974 40052 52012;EQDQ01  00002PRCP99
0226471120999992000062800004+37480+126630FM-12+007099999V0201101N001012200019N0150001N1+02721+01851100521ADDAA199000091GA1001+999999999GF100991001001999999001001IA1019IA2999+03009KA1120N+01991MA1999999099751MD1310011+9999REMSYN082AAXX  28004 47112 32965 01102 10272 20185 39975 40052 53001 333 20199 30030 92033;EQDQ01  00002PRCP99
0173471120999992000062803004+37480+126630FM-12+007099999V0202701N004112200019N0170001N1+02841+01871100471ADDAA199000091GA1001+999999999GF100991001001999999001001MA1999999099711MD1710041+9999REMSYN060AAXX  28034 47112 32967 02708 10284 20187 39971 40047 57004;EQDQ01  00002PRCP99
0183471120999992000062806004+37480+126630FM-12+007099999V0202501N005112200019N0200001N1+02921+01971100431ADDAA199000091GA1001+999999999GF100991001001999999001001MA1999999099671MD1710041+9999REMSYN070AAXX  28064 47112 32970 02510 10292 20197 39967 40043 57004 333 92033;EQDQ01  00002PRCP99
0173471120999992000062809004+37480+126630FM-12+007099999V0202701N004112200019N0250001N1+02701+02001100361ADDAA199000091GA1001+999999999GF100991001001999999001001MA1999999099591MD1710081+9999REMSYN060AAXX  28094 47112 32975 02708 10270 20200 39959 40036 57008;EQDQ01  00002PRCP99
0213471120999992000062812004+37480+126630FM-12+007099999V0202701N003612200019N0150001N1+02281+02071100441ADDAA112000791GA1001+999999999GF100991001001999999001001IA1019IA2999+02309KA1120M+03041MA1999999099661MD1210071+9999REMSYN088AAXX  28124 47112 32965 02707 10228 20207 39966 40044 52007 69902 333 10304 30023 92022;
0191471120999992000062815004+37480+126630FM-12+007099999V0202501N002110075019N0009001N1+02181+02111100521ADDAA199000091AY141031AY221031GF108991081061008001999999MA1999999099741MD1310081+9999MW1441REMSYN072AAXX  28154 47112 32509 82504 10218 20211 39974 40052 53008 74442 886//;EQDQ01  00002PRCP99
0211471120999992000062818004+37480+126630FM-12+007099999V0202501N003610003019N0003001N1+02051+02011100461ADDAA199000091AY141061AY241061GA1091+999999999GF109991091999999999999999MA1999999099681MD1810061+9999MW1451REMSYN076AAXX  28184 47112 31303 92507 10205 20201 39968 40046 58006 74544 333 92033;EQDQ01  00002PRCP99
0163471120999992000062821004+37480+126630FM-12+007099999V0200901N001010075019N0110001N1+02101+02071100431ADDAA199000091GF105991051051008001001001MA1999999099641MD1710031+9999REMSYN066AAXX  28214 47112 32561 50902 10210 20207 39964 40043 57003 85500;EQDQ01  00002PRCP99
0244471120999992000062900004+37480+126630FM-12+007099999V0201401N001510360019N0060001N1+02511+02151100371ADDAA199000091AY121061AY221061GF108991021051008001011999IA1019IA2999+02709KA1120N+02051MA1999999099601MD1510041+9999MW1101REMSYN094AAXX  29004 47112 31556 81403 10251 20215 39960 40037 55004 71022 8251/ 333 20205 30027 92011;EQDQ01  00002PRCP99
0191471120999992000062903004+37480+126630FM-12+007099999V0201601N002110075019N0050001N1+02491+02091100371ADDAA199000091AY121031AY221031GF108991051051008001021999MA1999999099601MD1210011+9999MW1101REMSYN072AAXX  29034 47112 31550 81604 10249 20209 39960 40037 52001 71022 8552/;EQDQ01  00002PRCP99
0171471120999992000062906004+37480+126630FM-12+007099999V0201601N002110075019N0030001N1+02361+02211100011ADDAY161061AY221061GF108991061071008001021999MA1999999099241MD1710361+9999MW1611REMSYN082AAXX  29064 47112 41530 81604 10236 20221 39924 40001 57036 76162 8672/ 333 92011;
0180471120999992000062909004+37480+126630FM-12+007099999V0202501N003610075019N0030001N1+02331+02161100011ADDAY161031AY221031GF108991061071008001021999MA1999999099241MD1410001+9999MW1611REMSYN072AAXX  29094 47112 41530 82507 10233 20216 39924 40001 52000 76162 8672/;EQDQ01+000022APCTEN
0243471120999992000062912004+37480+126630FM-12+007099999V0201601N002610075019N0012001N1+02241+02181099961ADDAA112016091AY161061AY261061GF108991071071008001021999IA1099IA2999+02209KA1120M+02531MA1999999099191MD1810051+9999MW1631REMSYN112AAXX  29124 47112 11512 81605 10224 20218 39919 49996 58005 60162 76366 8772/ 333 10253 31022 55000 70163 92033;
0161471120999992000062915004+37480+126630FM-12+007099999V0202001N007210021019N0006001N1+02231+02191100001ADDAY161031AY261031GF108991071071002501021999MA1999999099231MD1310041+9999MW1611REMSYN072AAXX  29154 47112 41306 82014 10223 20219 39923 40000 53004 76166 8772/;
0171471120999992000062918004+37480+126630FM-12+007099999V0202301N006210075019N0012001N1+02091+02051100031ADDAY161061AY261061GF108991061071008001021999MA1999999099251MD1010021+9999MW1601REMSYN082AAXX  29184 47112 41512 82312 10209 20205 39925 40003 50002 76066 8672/ 333 92033;
0171471120999992000062921004+37480+126630FM-12+007099999V0202301N005710006019N0007001N1+02061+02031100211ADDAY141031AY241031GA1091+999999999GF109991091999999999999999MA1999999099431MD1210181+9999MW1471REMSYN066AAXX  29214 47112 41/07 92311 10206 20203 39943 40021 52018 74744;
0237471120999992000063000004+37480+126630FM-12+007099999V0202001N005110360019N0050001N1+02111+02081100421ADDAA112007991AY121061AY221061GF108991031051008001021999IA1099IA2999+02209KA1120N+02051MA1999999099641MD1210211+9999MW1101REMSYN106AAXX  30004 47112 11550 82010 10211 20208 39964 40042 52021 60082 71022 8352/ 333 20205 31022 70243 92044;
0161471120999992000063003004+37480+126630FM-12+007099999V0202301N004110075019N0090001N1+02361+02081100531ADDAY121031AY221031GF107991071051008001001001MA1999999099761MD1310121+9999MW1101REMSYN072AAXX  30034 47112 41559 72308 10236 20208 39976 40053 53012 71022 87500;
0143471120999992000063006004+37480+126630FM-12+007099999V0202501N004110075019N0120001N1+02431+02011100571ADDGF106991061051008001001001MA1999999099801MD1310041+9999REMSYN076AAXX  30064 47112 41562 62508 10243 20201 39980 40057 53004 86500 333 92033;
0143471120999992000063009004+37480+126630FM-12+007099999V0202701N004112200019N0150001N1+02481+01971100581ADDGA1001+999999999GF100991001001999999001001MA1999999099811MD1810011+9999REMSYN060AAXX  30094 47112 42965 02708 10248 20197 39981 40058 58001;
0225471120999992000063012004+37480+126630FM-12+007099999V0200201N000512200019N0120001N1+02151+02001100771ADDAA112000791GA1001+999999999GF100991001001999999001001IA1019IA2999+02209KA1120M+02581MA1999999099981MD1210171+9999REMSYN100AAXX  30124 47112 12962 00201 10215 20200 39998 40077 52017 69902 333 10258 30022 55015 70070 92011;
0173471120999992000063015004+37480+126630FM-12+007099999V0209999C000012200019N0120001N1+02191+01941100891ADDAA199000091GA1001+999999999GF100991001001999999001001MA1999999100111MD1210121+9999REMSYN060AAXX  30154 47112 32962 00000 10219 20194 30011 40089 52012;EQDQ01  00002PRCP99
0183471120999992000063018004+37480+126630FM-12+007099999V0200901N000512200019N0100001N1+02111+02021100881ADDAA199000091GA1001+999999999GF100991001001999999001001MA1999999100101MD1310011+9999REMSYN070AAXX  30184 47112 32960 00901 10211 20202 30010 40088 53001 333 92011;EQDQ01  00002PRCP99
0191471120999992000063021004+37480+126630FM-12+007099999V0202301N000512200019N0015001N1+02141+02051100961ADDAA199000091AY121031AY221031GF104991001001999999001021MA1999999100171MD1010071+9999MW1101REMSYN072AAXX  30214 47112 31915 42301 10214 20205 30017 40096 50007 71022 80002;EQDQ01  00002PRCP99
0260471120999992000070100004+37480+126630FM-12+007099999V0200901N001012200019N0012001N1+02521+02131101051ADDAA199000091AY111061AY211061GF102991001001999999001011IA1019IA2999+02609KA1120N+02081MA1999999100281MD1210101+9999MW1101REMSYN094AAXX  01004 47112 31512 20902 10252 20213 30028 40105 52010 71011 80001 333 20208 30026 92022;EQDQ01+008002SCOLCBQ02  00002PRCP99
0191471120999992000070103004+37480+126630FM-12+007099999V0202501N003119999999N0030001N1+02791+02151101081ADDAA199000091AY121031AY221031GF106991001001999999001021MA1999999100311MD1210041+9999MW1101REMSYN072AAXX  01034 47112 31930 62506 10279 20215 30031 40108 52004 71022 80002;EQDQ01  00002PRCP99
0173471120999992000070106004+37480+126630FM-12+007099999V0202501N003612200019N0180001N1+02891+01971101031ADDAA199000091GF102991001001999999001011MA1999999100271MD1710041+9999REMSYN076AAXX  01064 47112 32968 22507 10289 20197 30027 40103 57004 80001 333 92022;EQDQ01  00002PRCP99
0163471120999992000070109004+37480+126630FM-12+007099999V0202301N002119999999N0170001N1+02671+01971100981ADDAA199000091GF106991001001999999001011MA1999999100211MD1710061+9999REMSYN066AAXX  01094 47112 32967 62304 10267 20197 30021 40098 57006 80001;EQDQ01  00002PRCP99
0216471120999992000070112004+37480+126630FM-12+007099999V0202301N003110075019N0110001N1+02311+01991101141ADDAA199000091GF105991051051008001001001IA1019IA2999+02309KA1120M+02951MA1999999100361MD1210151+9999REMSYN088AAXX  01124 47112 32561 52306 10231 20199 30036 40114 52015 85500 333 10295 30023 92022;EQDQ01  00002PRCP99
0191471120999992000070115004+37480+126630FM-12+007099999V0202701N001010075019N0060001N1+02351+02231101241ADDAA199000091AY121031AY221031GF107991071051008001001001MA1999999100461MD1210101+9999MW1101REMSYN072AAXX  01154 47112 31556 72702 10235 20223 30046 40124 52010 71022 87500;EQDQ01  00002PRCP99
0201471120999992000070118004+37480+126630FM-12+007099999V0200701N000510360019N0040001N1+02391+02261101211ADDAA199000091AY121061AY221061GF108991041051008001011999MA1999999100431MD1510031+9999MW1101REMSYN082AAXX  01184 47112 31540 80701 10239 20226 30043 40121 55003 71022 8451/ 333 92022;EQDQ01  00002PRCP99
0191471120999992000070121004+37480+126630FM-12+007099999V0201401N000510075019N0045001N1+02431+02281101291ADDAA199000091AY121031AY221031GF108991051051008001011999MA1999999100521MD1210081+9999MW1101REMSYN072AAXX  01214 47112 31545 81401 10243 20228 30052 40129 52008 71022 8551/;EQDQ01  00002PRCP99
0244471120999992000070200004+37480+126630FM-12+007099999V0202001N003110075019N0070001N1+02691+02321101371ADDAA199000091AY121061AY221061GF106991061051008001001001IA1019IA2999+02909KA1120N+02311MA1999999100591MD1310081+9999MW1101REMSYN094AAXX  02004 47112 31557 62006 10269 20232 30059 40137 53008 71022 86500 333 20231 30029 92011;EQDQ01  00002PRCP99
0163471120999992000070203004+37480+126630FM-12+007099999V0202501N004112200019N0150001N1+02911+02331101331ADDAA199000091GF101991011011999999001001MA1999999100561MD1710031+9999REMSYN066AAXX  02034 47112 32965 12508 10291 20233 30056 40133 57003 81100;EQDQ01  00002PRCP99
0173471120999992000070206004+37480+126630FM-12+007099999V0202701N005112200019N0150001N1+02991+02301101241ADDAA199000091GF102991021011008001001001MA1999999100471MD1710091+9999REMSYN076AAXX  02064 47112 32565 22710 10299 20230 30047 40124 57009 82100 333 92011;EQDQ01  00002PRCP99
0163471120999992000070209004+37480+126630FM-12+007099999V0202701N003612200019N0130001N1+02721+02371101201ADDAA199000091GF104991021051008001001011MA1999999100431MD1810041+9999REMSYN066AAXX  02094 47112 32563 42707 10272 20237 30043 40120 58004 82501;EQDQ01  00002PRCP99
0260471120999992000070212004+37480+126630FM-12+007099999V0200201N001512200019N0030001N1+02331+02261101341ADDAA199000091AY101061AY201061GA1001+999999999GF100991001001999999001001IA1019IA2999+02409KA1120M+03171MA1999999100551MD1210121+9999MW1101REMSYN094AAXX  02124 47112 31930 00203 10233 20226 30055 40134 52012 71000 333 10317 30024 55090 92022;EQDQ01  00002PRCP99
0201471120999992000070215004+37480+126630FM-12+007099999V0200901N000510003019N0003001N1+02341+02301101361ADDAA199000091AY141031AY241031GA1091+999999999GF109991091999999999999999MA1999999100581MD1310021+9999MW1471REMSYN066AAXX  02154 47112 31/03 90901 10234 20230 30058 40136 53002 74744;EQDQ01  00002PRCP99
0201471120999992000070218004+37480+126630FM-12+007099999V0203201N000510075019N0015001N1+02371+02331101371ADDAA199000091AY141061AY241061GF106991061051008001001001MA1999999100591MD1010011+9999MW1281REMSYN082AAXX  02184 47112 31515 63201 10237 20233 30059 40137 50001 72844 86500 333 92022;EQDQ01  00002PRCP99
0191471120999992000070221004+37480+126630FM-12+007099999V0202001N001012200019N0015001N1+02361+02311101341ADDAA199000091AY121031AY221031GF106991021051008001001011MA1999999100561MD1710031+9999MW1101REMSYN072AAXX  02214 47112 31515 62002 10236 20231 30056 40134 57003 71022 82501;EQDQ01  00002PRCP99
0244471120999992000070300004+37480+126630FM-12+007099999V0203201N001512200019N0050001N1+02671+02431101361ADDAA199000091AY101061AY201061GF102991011051008001001011IA1019IA2999+02809KA1120N+02321MA1999999100591MD1010031+9999MW1101REMSYN094AAXX  03004 47112 31550 23203 10267 20243 30059 40136 50003 71000 81501 333 20232 30028 92011;EQDQ01  00002PRCP99
0163471120999992000070303004+37480+126630FM-12+007099999V0202501N003612200019N0140001N1+02941+02401101291ADDAA199000091GF102991021051008001001001MA1999999100531MD1710061+9999REMSYN066AAXX  03034 47112 32564 22507 10294 20240 30053 40129 57006 82500;EQDQ01  00002PRCP99
0183471120999992000070306004+37480+126630FM-12+007099999V0203401N003112200019N0200001N1+03231+02471101191ADDAA199000091GA1001+999999999GF100991001001999999001001MA1999999100441MD1710091+9999REMSYN070AAXX  03064 47112 32970 03406 10323 20247 30044 40119 57009 333 92022;EQDQ01  00002PRCP99
0173471120999992000070309004+37480+126630FM-12+007099999V0202901N004612200019N0180001N1+02841+02261101171ADDAA199000091GA1001+999999999GF100991001001999999001001MA1999999100401MD1710031+9999REMSYN060AAXX  03094 47112 32968 02909 10284 20226 30040 40117 57003;EQDQ01  00002PRCP99
0232471120999992000070312004+37480+126630FM-12+007099999V0203401N002612200019N0180001N1+02441+02251101261ADDAA199000091GA1001+999999999GF100991001001999999001001IA1019IA2999+02509KA1120M+03241MA1999999100481MD1210071+9999REMSYN088AAXX  03124 47112 32968 03405 10244 20225 30048 40126 52007 333 10324 30025 55112 92011;EQDQ01  00002PRCP99
0189471120999992000070315004+37480+126630FM-12+007099999V0203201N002112200019N0150001N1+02381+02241101261ADDAA199000091GA1001+999999999GF100991001001999999001001MA1999999100481MD1410001+9999REMSYN060AAXX  03154 47112 32965 03204 10238 20224 30048 40126 53000;EQDQ01+000032APCTENQ02  00002PRCP99
0183471120999992000070318004+37480+126630FM-12+007099999V0202301N001012200019N0120001N1+02361+02241101211ADDAA199000091GA1001+999999999GF100991001001999999001001MA1999999100431MD1710051+9999REMSYN070AAXX  03184 47112 32962 02302 10236 20224 30043 40121 57005 333 92011;EQDQ01  00002PRCP99
0201471120999992000070321004+37480+126630FM-12+007099999V0200201N001510001519N0001001N1+02241+02191101291ADDAA199000091AY141031AY241031GA1091+999999999GF109991091999999999999999MA1999999100511MD1210081+9999MW1471REMSYN066AAXX  03214 47112 31/01 90203 10224 20219 30051 40129 52008 74744;EQDQ01  00002PRCP99
0244471120999992000070400004+37480+126630FM-12+007099999V0202301N002119999999N0035001N1+02761+02341101251ADDAA199000091AY121061AY221061GF105991001001999999001021IA1019IA2999+02909KA1120N+02231MA1999999100481MD1710031+9999MW1101REMSYN094AAXX  04004 47112 31935 52304 10276 20234 30048 40125 57003 71022 80002 333 20223 30029 92022;EQDQ01  00002PRCP99
0191471120999992000070403004+37480+126630FM-12+007099999V0202501N003119999999N0035001N1+02951+02281101271ADDAA199000091AY121031AY221031GF106991041001999999011021MA1999999100501MD1710021+9999MW1101REMSYN072AAXX  04034 47112 31935 62506 10295 20228 30050 40127 57002 71022 84012;EQDQ01  00002PRCP99
0201471120999992000070406004+37480+126630FM-12+007099999V0203401N003619999999N0050001N1+03221+02391101151ADDAA199000091AY121061AY221061GF106991001001999999001011MA1999999100391MD1710111+9999MW1101REMSYN082AAXX  04064 47112 31950 63407 10322 20239 30039 40115 57011 71022 80001 333 92022;EQDQ01  00002PRCP99
0207471120999992000070409004+37480+126630FM-12+007099999V0203601N001512200019N0050001N1+03071+02341101151ADDAA199000091AY121031AY221031GA1001+999999999GF100991001001999999001001MA1999999100381MD1810011+9999MW1101REMSYN072AAXX  04094 47112 31950 03603 10307 20234 30038 40115 58001 71022 80002;EQDQ01  00002PRCP99
0226471120999992000070412004+37480+126630FM-12+007099999V0202501N003112200019N0100001N1+02561+02251101291ADDAA199000091GA1001+999999999GF100991001001999999001001IA1019IA2999+02609KA1120M+03271MA1999999100521MD1210131+9999REMSYN082AAXX  04124 47112 32960 02506 10256 20225 30052 40129 52013 333 10327 30026 92022;EQDQ01  00002PRCP99
0163471120999992000070415004+37480+126630FM-12+007099999V0200501N001019999999N0120001N1+02551+02211101311ADDAA199000091GF105991001001999999001011MA1999999100541MD1710021+9999REMSYN066AAXX  04154 47112 32962 50502 10255 20221 30054 40131 57002 80001;EQDQ01  00002PRCP99
0173471120999992000070418004+37480+126630FM-12+007099999V0202001N003112200019N0160001N1+02361+02231101301ADDAA199000091GF102991001001999999001011MA1999999100511MD1510021+9999REMSYN076AAXX  04184 47112 32966 22006 10236 20223 30051 40130 55002 80001 333 92022;EQDQ01  00002PRCP99
0254471120999992000070500004+37480+126630FM-12+007099999V0203201N002612200019N0090001N1+02741+02261101401ADDAA199000091AY101061AY201061GA1001+999999999GF100991001001999999001001IA1019IA2999+02909KA1120N+02351MA1999999100631MD1210041+9999MW1101REMSYN088AAXX  05004 47112 31959 03205 10274 20226 30063 40140 52004 71000 333 20235 30029 92011;EQDQ01  00002PRCP99
0191471120999992000070503004+37480+126630FM-12+007099999V0202501N003112200019N0080001N1+02991+02211101331ADDAA199000091AY111031AY211031GF102991001001999999001011MA1999999100561MD1710071+9999MW1101REMSYN072AAXX  05034 47112 31958 22506 10299 20221 30056 40133 57007 71011 80001;EQDQ01  00002PRCP99
0173471120999992000070506004+37480+126630FM-12+007099999V0202701N005112200019N0120001N1+03021+02251101161ADDAA199000091GF106991021051008001001011MA1999999100401MD1710161+9999REMSYN076AAXX  05064 47112 32562 62710 10302 20225 30040 40116 57016 82501 333 92011;EQDQ01  00002PRCP99
0163471120999992000070509004+37480+126630FM-12+007099999V0202701N002619999999N0150001N1+02761+02301101031ADDAA199000091GF106991001001999999001021MA1999999100261MD1710141+9999REMSYN066AAXX  05094 47112 32965 62705 10276 20230 30026 40103 57014 80002;EQDQ01  00002PRCP99
0250471120999992000070512004+37480+126630FM-12+007099999V0203601N001512200019N0050001N1+02501+02241101021ADDAA199000091AY111061AY211061GF102991001001999999001011IA1019IA2999+02509KA1120M+03181MA1999999100251MD1810011+9999MW1101REMSYN100AAXX  05124 47112 31950 23603 10250 20224 30025 40102 58001 71011 80001 333 10318 30025 55092 92022;EQDQ01  00002PRCP99
0201471120999992000070515004+37480+126630FM-12+007099999V0202001N002612200019N0030001N1+02321+02161101021ADDAA199000091AY101031AY201031GA1001+999999999GF100991001001999999001001MA1999999100241MD1210011+9999MW1101REMSYN066AAXX  05154 47112 31930 02005 10232 20216 30024 40102 52001 71000;EQDQ01  00002PRCP99
0211471120999992000070518004+37480+126630FM-12+007099999V0201601N001512200019N0030001N1+02311+02141100991ADDAA199000091AY101061AY201061GA1001+999999999GF100991001001999999001001MA1999999100211MD1010031+9999MW1101REMSYN076AAXX  05184 47112 31930 01603 10231 20214 30021 40099 50003 71000 333 92022;EQDQ01  00002PRCP99
0191471120999992000070521004+37480+126630FM-12+007099999V0202001N002612200019N0015001N1+02201+02121100981ADDAA199000091AY111031AY211031GF102991001001999999001011MA1999999100191MD1710021+9999MW1101REMSYN072AAXX  05214 47112 31915 22005 10220 20212 30019 40098 57002 71011 80001;EQDQ01  00002PRCP99
0226471120999992000070600004+37480+126630FM-12+007099999V0200201N001012200019N0150001N1+02811+02221100911ADDAA199000091GA1001+999999999GF100991001001999999001001IA1019IA2999+02909KA1120N+02191MA1999999100141MD1710051+9999REMSYN082AAXX  06004 47112 32965 00202 10281 20222 30014 40091 57005 333 20219 30029 92022;EQDQ01  00002PRCP99
0143471120999992000070603004+37480+126630FM-12+007099999V0202301N004612200019N0200001N1+02871+02251100831ADDGA1001+999999999GF100991001001999999001001MA1999999100071MD1710081+9999REMSYN060AAXX  06034 47112 4//70 02309 10287 20225 30007 40083 57008;
0173471120999992000070606004+37480+126630FM-12+007099999V0202501N006712200019N0250001N1+02951+02121100681ADDAA199000091GF102991001001999999001011MA1999999099921MD1710151+9999REMSYN076AAXX  06064 47112 32975 22513 10295 20212 39992 40068 57015 80001 333 92044;EQDQ01  00002PRCP99
0163471120999992000070609004+37480+126630FM-12+007099999V0202301N004612200019N0100001N1+02731+02241100521ADDAA199000091GF102991001001999999001011MA1999999099761MD1710161+9999REMSYN066AAXX  06094 47112 32960 22309 10273 20224 39976 40052 57016 80001;EQDQ01  00002PRCP99
0250471120999992000070612004+37480+126630FM-12+007099999V0202301N003612200019N0080001N1+02371+02191100551ADDAA199000091AY111061AY211061GF102991001001999999001011IA1019IA2999+02409KA1120M+03191MA1999999099781MD1810021+9999MW1101REMSYN100AAXX  06124 47112 31958 22307 10237 20219 39978 40055 58002 71011 80001 333 10319 30024 55125 92011;EQDQ01  00002PRCP99
0191471120999992000070615004+37480+126630FM-12+007099999V0201801N001012200019N0080001N1+02321+02191100541ADDAA199000091AY111031AY211031GF102991001001999999001011MA1999999099761MD1810011+9999MW1101REMSYN072AAXX  06154 47112 31958 21802 10232 20219 39976 40054 58001 71011 80001;EQDQ01  00002PRCP99
0201471120999992000070618004+37480+126630FM-12+007099999V0202001N000512200019N0060001N1+02311+02211100501ADDAA199000091AY111061AY211061GF102991001001999999001011MA1999999099721MD1510041+9999MW1101REMSYN082AAXX  06184 47112 31956 22001 10231 20221 39972 40050 55004 71011 80001 333 92011;EQDQ01  00002PRCP99
0191471120999992000070621004+37480+126630FM-12+007099999V0209999C000012200019N0025001N1+02331+02251100531ADDAA199000091AY111031AY211031GF104991001001999999001011MA1999999099761MD1010041+9999MW1101REMSYN072AAXX  06214 47112 31925 40000 10233 20225 39976 40053 50004 71011 80001;EQDQ01  00002PRCP99
0270471120999992000070700004+37480+126630FM-12+007099999V0202701N002112200019N0015001N1+02741+02281100531ADDAA199000091AY101061AY201061GA1001+999999999GF100991001001999999001001IA1019IA2999+02909KA1120N+02281MA1999999099761MD1410001+9999MW1101REMSYN088AAXX  07004 47112 31915 02704 10274 20228 39976 40053 52000 71000 333 20228 30029 92022;EQDQ01+000022APCTENQ02  00002PRCP99
0191471120999992000070703004+37480+126630FM-12+007099999V0201101N001510075019N0050001N1+03181+02201100431ADDAA199000091AY121031AY221031GF106991061051008001001001MA1999999099681MD1710081+9999MW1101REMSYN072AAXX  07034 47112 31550 61103 10318 20220 39968 40043 57008 71022 86500;EQDQ01  00002PRCP99
0173471120999992000070706004+37480+126630FM-12+007099999V0200901N001010075019N0120001N1+03171+02121100241ADDAA199000091GF107991051051008001011001MA1999999099491MD1710191+9999REMSYN076AAXX  07064 47112 32562 70902 10317 20212 39949 40024 57019 85510 333 92022;EQDQ01  00002PRCP99
0163471120999992000070709004+37480+126630FM-12+007099999V0200701N001510075019N0120001N1+03191+02061100171ADDAA199000091GF106991061051008001001001MA1999999099421MD1710071+9999REMSYN066AAXX  07094 47112 32562 60703 10319 20206 39942 40017 57007 86500;EQDQ01  00002PRCP99
0216471120999992000070712004+37480+126630FM-12+007099999V0200901N003112200019N0250001N1+02731+01851100361ADDAA199000091GF102991021051008001001001IA1019IA2999+02609KA1120M+03341MA1999999099591MD1210181+9999REMSYN088AAXX  07124 47112 32575 20906 10273 20185 39959 40036 52018 82500 333 10334 30026 92022;EQDQ01  00002PRCP99
0173471120999992000070715004+37480+126630FM-12+007099999V0201101N002112200019N0250001N1+02531+01761100461ADDAA199000091GA1001+999999999GF100991001001999999001001MA1999999099691MD1210101+9999REMSYN060AAXX  07154 47112 32975 01104 10253 20176 39969 40046 52010;EQDQ01  00002PRCP99
0163471120999992000070718004+37480+126630FM-12+007099999V0209999C000012200019N0170001N1+02311+01841100471ADDAA199000091GA1001+999999999GF100991001001999999001001MA1999999099691REMSYN064AAXX  07184 47112 32967 00000 10231 20184 39969 40047 333 92000;EQDQ01  00002PRCP99
0163471120999992000070721004+37480+126630FM-12+007099999V0201101N003110075019N0200001N1+02421+01621100521ADDAA199000091GF105991051051008001001001MA1999999099741MD1210051+9999REMSYN066AAXX  07214 47112 32570 51106 10242 20162 39974 40052 52005 85500;EQDQ01  00002PRCP99
0226471120999992000070800004+37480+126630FM-12+007099999V0201101N002112200019N0200001N1+02751+01591100561ADDAA199000091GA1001+999999999GF100991001001999999001001IA1019IA2999+03009KA1120N+02311MA1999999099791MD1210051+9999REMSYN082AAXX  08004 47112 32970 01104 10275 20159 39979 40056 52005 333 20231 30030 92011;EQDQ01  00002PRCP99
0163471120999992000070803004+37480+126630FM-12+007099999V0202301N003612200019N0220001N1+02921+01651100471ADDAA199000091GF101991011051008001001001MA1999999099711MD1710081+9999REMSYN066AAXX  08034 47112 32572 12307 10292 20165 39971 40047 57008 81500;EQDQ01  00002PRCP99
0173471120999992000070806004+37480+126630FM-12+007099999V0202501N005112200019N0250001N1+02941+01821100401ADDAA199000091GF102991021051008001001001MA1999999099641MD1710071+9999REMSYN076AAXX  08064 47112 32575 22510 10294 20182 39964 40040 57007 82500 333 92033;EQDQ01  00002PRCP99
0163471120999992000070809004+37480+126630FM-12+007099999V0202501N004112200019N0250001N1+02871+01721100411ADDAA199000091GF102991001001999999001011MA1999999099651MD1810011+9999REMSYN066AAXX  08094 47112 32975 22508 10287 20172 39965 40041 58001 80001;EQDQ01  00002PRCP99
0209471120999992000070812004+37480+126630FM-12+007099999V0202501N003612200019N0200001N1+02461+01841100611ADDAA112000791GF102991021001999999041001IA1019IA2999+02409KA1120M+03091MA1999999099831MD1210181+9999REMSYN100AAXX  08124 47112 32970 22507 10246 20184 39983 40061 52018 69902 82040 333 10309 30024 55112 92022;
0173471120999992000070815004+37480+126630FM-12+007099999V0202701N002612200019N0120001N1+02341+01931100701ADDAA199000091GA1001+999999999GF100991001001999999001001MA1999999099921MD1210091+9999REMSYN060AAXX  08154 47112 32962 02705 10234 20193 39992 40070 52009;EQDQ01  00002PRCP99
0183471120999992000070818004+37480+126630FM-12+007099999V0202001N003112200019N0120001N1+02291+02071100751ADDAA199000091GA1001+999999999GF100991001001999999001001MA1999999099971MD1210051+9999REMSYN070AAXX  08184 47112 32962 02006 10229 20207 39997 40075 52005 333 92022;EQDQ01  00002PRCP99
0201471120999992000070821004+37480+126630FM-12+007099999V0202001N002110006019N0007001N1+02261+02201100861ADDAA199000091AY141031AY241031GA1091+999999999GF109991091999999999999999MA1999999100081MD1210111+9999MW1471REMSYN066AAXX  08214 47112 31/07 92004 10226 20220 30008 40086 52011 74744;EQDQ01  00002PRCP99
0244471120999992000070900004+37480+126630FM-12+007099999V0202501N002110075019N0007001N1+02411+02241100971ADDAA199000091AY141061AY241061GF108991081061008001001001IA1019IA2999+02709KA1120N+02241MA1999999100191MD1210111+9999MW1421REMSYN094AAXX  09004 47112 31507 82504 10241 20224 30019 40097 52011 74244 88600 333 20224 30027 92022;EQDQ01  00002PRCP99
0205471120999992000070903004+37480+126630FM-12+007099999V0202701N003612200019N0120001N1+02841+02101100951ADDAA199000091GA1001+999999999GF100991001001999999001001MA1999999100191MD1710021+9999REMSYN060AAXX  09034 47112 32962 02707 10284 20210 30019 40095 53000;EQDQ01+000032APCTENQ02+000002APC3  Q03  00002PRCP99
0199471120999992000070906004+37480+126630FM-12+007099999V0202501N004112200019N0140001N1+02901+02081100951ADDAA199000091GA1001+999999999GF100991001001999999001001MA1999999100191MD1410001+9999REMSYN070AAXX  09064 47112 32964 02508 10290 20208 30019 40095 58000 333 92033;EQDQ01+000082APCTENQ02  00002PRCP99
0173471120999992000070909004+37480+126630FM-12+007099999V0202901N003112200019N0130001N1+02811+02051100971ADDAA199000091GA1001+999999999GF100991001001999999001001MA1999999100201MD1010021+9999REMSYN060AAXX  09094 47112 32963 02906 10281 20205 30020 40097 50002;EQDQ01  00002PRCP99
0232471120999992000070912004+37480+126630FM-12+007099999V0203601N001512200019N0100001N1+02451+02231101081ADDAA199000091GA1001+999999999GF100991001001999999001001IA1019IA2999+02409KA1120M+03031MA1999999100301MD1010101+9999REMSYN088AAXX  09124 47112 32960 03603 10245 20223 30030 40108 50010 333 10303 30024 55100 92011;EQDQ01  00002PRCP99
0201471120999992000070915004+37480+126630FM-12+007099999V0200901N001012200019N0080001N1+02381+02271101131ADDAA199000091AY101031AY201031GA1001+999999999GF100991001001999999001001MA1999999100351MD1310051+9999MW1101REMSYN066AAXX  09154 47112 31958 00902 10238 20227 30035 40113 53005 71000;EQDQ01  00002PRCP99
0211471120999992000070918004+37480+126630FM-12+007099999V0200201N000512200019N0060001N1+02321+02251101071ADDAA199000091AY101061AY201061GA1001+999999999GF100991001001999999001001MA1999999100291MD1710061+9999MW1101REMSYN076AAXX  09184 47112 31956 00201 10232 20225 30029 40107 57006 71000 333 92011;EQDQ01  00002PRCP99
0191471120999992000070921004+37480+126630FM-12+007099999V0200901N000512200019N0030001N1+02351+02211101131ADDAA199000091AY111031AY211031GF104991001001999999001011MA1999999100351MD1210071+9999MW1101REMSYN072AAXX  09214 47112 31930 40901 10235 20221 30035 40113 52007 71011 80001;EQDQ01  00002PRCP99
0241471120999992000071000004+37480+126630FM-12+007099999V0200201N000512200019N0035001N1+02891+02351101141ADDAA112000791AY101061AY201061GA1001+999999999GF100991001001999999001001IA1019IA2999+03009KA1120N+02301MA1999999100381MD1310021+9999MW1101REMSYN094AAXX  10004 47112 31935 00201 10289 20235 30038 40114 53002 69902 71000 333 20230 30030 92022;
0191471120999992000071003004+37480+126630FM-12+007099999V0202001N003610360019N0050001N1+03111+02151101051ADDAA199000091AY121031AY221031GF107991041051008001011001MA1999999100291MD1710091+9999MW1101REMSYN072AAXX  10034 47112 31550 72007 10311 20215 30029 40105 57009 71022 84510;EQDQ01  00002PRCP99
0173471120999992000071006004+37480+126630FM-12+007099999V0201401N002619999999N0170001N1+03521+01871100911ADDAA199000091GF106991001001999999001041MA1999999100161MD1710131+9999REMSYN076AAXX  10064 47112 32967 61405 10352 20187 30016 40091 57013 80004 333 92022;EQDQ01  00002PRCP99
0161471120999992000071009004+37480+126630FM-12+007099999V0202001N003610075019N0190001N1+02931+02041100871ADDAY161031AY221031GF108991051051008001021999MA1999999100111MD1710051+9999MW1211REMSYN072AAXX  10094 47112 41569 82007 10293 20204 30011 40087 57005 72162 8552/;
0237471120999992000071012004+37480+126630FM-12+007099999V0201401N002610075019N0150001N1+02701+02281100851ADDAA112000391AY161061AY261061GF107991051051008001011001IA1099IA2999+02709KA1120M+03521MA1999999100081MD1810031+9999MW1611REMSYN106AAXX  10124 47112 11565 71405 10270 20228 30008 40085 58003 69932 76166 85510 333 10352 31027 70003 92022;
0133471120999992000071015004+37480+126630FM-12+007099999V0201401N003610075019N0250001N1+02741+02221100701ADDGF105991051051008001001001MA1999999099941MD1710141+9999REMSYN066AAXX  10154 47112 41575 51407 10274 20222 39994 40070 57014 85500;
0171471120999992000071018004+37480+126630FM-12+007099999V0201401N004110075019N0250001N1+02461+02361100491ADDAY161061AY221061GF105991051051008001001001MA1999999099721MD1710221+9999MW1211REMSYN082AAXX  10184 47112 41575 51408 10246 20236 39972 40049 57022 72162 85500 333 92033;
0161471120999992000071021004+37480+126630FM-12+007099999V0201601N004610075019N0150001N1+02481+02361100361ADDAY161031AY261031GF108991061071008001021999MA1999999099591MD1710131+9999MW1611REMSYN072AAXX  10214 47112 41565 81609 10248 20236 39959 40036 57013 76166 8672/;
0237471120999992000071100004+37480+126630FM-12+007099999V0201801N008210075019N0120001N1+02571+02291100321ADDAA112004191AY161061AY221061GF108991051051008001021999IA1099IA2999+02509KA1120N+02461MA1999999099551MD1710041+9999MW1211REMSYN106AAXX  11004 47112 11562 81816 10257 20229 39955 40032 57004 60042 72162 8552/ 333 20246 31025 70043 92033;
0161471120999992000071103004+37480+126630FM-12+007099999V0202001N008210075019N0100001N1+02351+02261100351ADDAY161031AY221031GF108991061051008001021999MA1999999099581MD1210031+9999MW1211REMSYN072AAXX  11034 47112 42560 82016 10235 20226 39958 40035 52003 72162 8652/;
0171471120999992000071106004+37480+126630FM-12+007099999V0202001N010310075019N0012001N1+02231+02141100281ADDAY161061AY221061GF108991061071008001021999MA1999999099501MD1710081+9999MW1601REMSYN082AAXX  11064 47112 41512 82020 10223 20214 39950 40028 57008 76062 8672/ 333 92033;
0161471120999992000071109004+37480+126630FM-12+007099999V0202301N008210075019N0012001N1+02161+02101100231ADDAY161031AY221031GF108991061071008001021999MA1999999099451MD1810051+9999MW1601REMSYN072AAXX  11094 47112 41512 82316 10216 20210 39945 40023 58005 76062 8672/;
0224471120999992000071112004+37480+126630FM-12+007099999V0202301N006210075019N0030001N1+02191+02051100411ADDAA112003091AY161061AY261061GF107991061051008001021001IA1099IA2999+02209MA1999999099631MD1210181+9999MW1211REMSYN106AAXX  11124 47112 11530 72312 10219 20205 39963 40041 52018 60032 72166 86520 333 31022 55000 70073 92044;
0161471120999992000071115004+37480+126630FM-12+007099999V0202001N005710075019N0030001N1+02141+02081100391ADDAY161031AY261031GF108991061051008001021999MA1999999099611MD1510021+9999MW1611REMSYN072AAXX  11154 47112 41530 82011 10214 20208 39961 40039 55002 76166 8652/;
0171471120999992000071118004+37480+126630FM-12+007099999V0202301N007710075019N0035001N1+02211+02161100111ADDAY161061AY261061GF108991061051008001021999MA1999999099341MD1710281+9999MW1211REMSYN082AAXX  11184 47112 41535 82315 10221 20216 39934 40011 57028 72166 8652/ 333 92044;
0161471120999992000071121004+37480+126630FM-12+007099999V0202701N013910075019N0050001N1+02331+02131100091ADDAY121031AY221031GF108991061051008001021999MA1999999099311MD1710021+9999MW1101REMSYN072AAXX  11214 47112 41550 82727 10233 20213 39931 40009 57002 71022 8652/;
0218471120999992000071200004+37480+126630FM-12+007099999V0202701N008210075019N0020001N1+02421+02201100251ADDAA112006191AY121061AY221061GF107991071051008001001001IA1099IA2999+02409MA1999999099481MD1210171+9999MW1101REMSYN100AAXX  12004 47112 11520 72716 10242 20220 39948 40025 52017 60062 71022 87500 333 31024 70095 92055;
0172471120999992000071203004+37480+126630FM-12+007099999V0202501N006219999999N0060001N1+02571+02221100301ADDAA199000021AY121031AY221031GF107991011001999999031021MA1999999099531MD1710051+9999MW1101REMSYN072AAXX  12034 47112 31956 72512 10257 20222 39953 40030 57005 71022 81032;
0172471120999992000071206004+37480+126630FM-12+007099999V0202501N005119999999N0025001N1+02561+02241100211ADDAA199000021AY121061AY221061GF108991081001999999011999MA1999999099441MD1710091+9999MW1101REMSYN072AAXX  12064 47112 31925 82510 10256 20224 39944 40021 57009 71022 8801/;
0201471120999992000071209004+37480+126630FM-12+007099999V0202001N005112200019N0020001N1+02521+02181100201ADDAA199000091AY101031AY201031GA1001+999999999GF100991001001999999001001MA1999999099431MD1810011+9999MW1101REMSYN066AAXX  12094 47112 31920 02010 10252 20218 39943 40020 58001 71000;EQDQ01  00002PRCP99
0237471120999992000071212004+37480+126630FM-12+007099999V0202001N005712200019N0015001N1+02391+02261100321ADDAA124006191AY111061AY211061GF102991001001999999001011IA1099IA2999+02409KA1120M+02731MA1999999099551MD1210121+9999MW1101REMSYN106AAXX  12124 47112 11915 22011 10239 20226 39955 40032 52012 71011 80001 333 10273 31024 55027 70062 92022;
0191471120999992000071215004+37480+126630FM-12+007099999V0202001N005710360019N0025001N1+02391+02271100371ADDAA199000091AY121031AY221031GF108991021051008001011999MA1999999099591MD1210051+9999MW1101REMSYN072AAXX  12154 47112 31525 82011 10239 20227 39959 40037 52005 71022 8251/;EQDQ01  00002PRCP99
0201471120999992000071218004+37480+126630FM-12+007099999V0202001N004619999999N0015001N1+02361+02221100321ADDAA199000091AY121061AY221061GF108991081001999999011999MA1999999099551MD1710041+9999MW1101REMSYN082AAXX  12184 47112 31915 82009 10236 20222 39955 40032 57004 71022 8801/ 333 92022;EQDQ01  00002PRCP99
0201471120999992000071221004+37480+126630FM-12+007099999V0202001N004110006019N0008001N1+02341+02241100381ADDAA199000091AY141031AY221031GA1091+999999999GF109991091999999999999999MA1999999099611MD1010051+9999MW1451REMSYN066AAXX  12214 47112 31/08 92008 10234 20224 39961 40038 50005 74542;EQDQ01  00002PRCP99
0254471120999992000071300004+37480+126630FM-12+007099999V0202501N002610006019N0006001N1+02371+02241100481ADDAA199000091AY141061AY241061GA1091+999999999GF109991091999999999999999IA1019IA2999+02409KA1120N+02331MA1999999099701MD1210101+9999MW1451REMSYN088AAXX  13004 47112 31/06 92505 10237 20224 39970 40048 52010 74544 333 20233 30024 92022;EQDQ01  00002PRCP99
0191471120999992000071303004+37480+126630FM-12+007099999V0202301N003619999999N0009001N1+02901+02351100431ADDAA199000091AY141031AY241031GF106991001001999999001021MA1999999099671MD1710041+9999MW1431REMSYN072AAXX  13034 47112 31909 62307 10290 20235 39967 40043 57004 74344 80002;EQDQ01  00002PRCP99
0201471120999992000071306004+37480+126630FM-12+007099999V0202701N005112200019N0009001N1+02601+02231100481ADDAA199000091AY141061AY241061GF106991031071008001001011MA1999999099711MD1010041+9999MW1461REMSYN082AAXX  13064 47112 31509 62710 10260 20223 39971 40048 50004 74644 83701 333 92022;EQDQ01  00002PRCP99
0207471120999992000071309004+37480+126630FM-12+007099999V0202301N006219999999N0008001N1+02401+02121100481ADDAA199000091AY141031AY241031GF106991001001999999001011MA1999999099711MD1410001+9999MW1461REMSYN072AAXX  13094 47112 31908 62312 10240 20212 39971 40048 58000 74644 80001;EQDQ01+000082APCTENQ02  00002PRCP99
0244471120999992000071312004+37480+126630FM-12+007099999V0202301N003619999999N0015001N1+02301+02191100581ADDAA199000091AY121061AY221061GF107991001001999999001021IA1019IA2999+02309KA1120M+03001MA1999999099801MD1210091+9999MW1101REMSYN094AAXX  13124 47112 31915 72307 10230 20219 39980 40058 52009 71022 80002 333 10300 30023 92000;EQDQ01  00002PRCP99
0191471120999992000071315004+37480+126630FM-12+007099999V0202001N004110075019N0015001N1+02361+02231100631ADDAA199000091AY121031AY221031GF107991061051008001001011MA1999999099851MD1210061+9999MW1101REMSYN072AAXX  13154 47112 31515 72008 10236 20223 39985 40063 52006 71022 86501;EQDQ01  00002PRCP99
0217471120999992000071318004+37480+126630FM-12+007099999V0201801N002119999999N0020001N1+02341+02201100601ADDAA199000091AY121061AY221061GF106991999051008001001001MA1999999099821MD1510031+9999MW1101REMSYN082AAXX  13184 47112 31520 61804 10234 20220 39982 40060 55003 71022 87500 333 92011;EQDQ01+000072SCOTLCQ02  00002PRCP99
0163471120999992000071321004+37480+126630FM-12+007099999V0209999C000019999999N0100001N1+02371+02211100571ADDAA199000091GF108991081001999999011999MA1999999099791MD1810021+9999REMSYN066AAXX  13214 47112 32960 80000 10237 20221 39979 40057 58002 8801/;EQDQ01  00002PRCP99
0216471120999992000071400004+37480+126630FM-12+007099999V0201401N002110360019N0100001N1+02611+02261100581ADDAA199000091GF105991021051008001011001IA1019IA2999+02709KA1120N+02321MA1999999099811MD1310021+9999REMSYN088AAXX  14004 47112 32560 51404 10261 20226 39981 40058 53002 82510 333 20232 30027 92011;EQDQ01  00002PRCP99
0163471120999992000071403004+37480+126630FM-12+007099999V0201601N002110075019N0100001N1+02921+02301100531ADDAA199000091GF106991061051008001001001MA1999999099771MD1710041+9999REMSYN066AAXX  14034 47112 32560 61604 10292 20230 39977 40053 57004 86500;EQDQ01  00002PRCP99
0173471120999992000071406004+37480+126630FM-12+007099999V0201801N004110075019N0100001N1+03051+02281100491ADDAA199000091GF105991051051008001001001MA1999999099741MD1810031+9999REMSYN076AAXX  14064 47112 32560 51808 10305 20228 39974 40049 58003 85500 333 92011;EQDQ01  00002PRCP99
0163471120999992000071409004+37480+126630FM-12+007099999V0201801N003612200019N0150001N1+03021+02171100361ADDAA199000091GF102991021051008001001001MA1999999099601MD1710131+9999REMSYN066AAXX  14094 47112 32565 21807 10302 20217 39960 40036 57013 82500;EQDQ01  00002PRCP99
0222471120999992000071412004+37480+126630FM-12+007099999V0201801N003110360019N0150001N1+02731+02171100401ADDAA199000091GF107991041051008001041001IA1019IA2999+02609KA1120M+03141MA1999999099631MD1810031+9999REMSYN094AAXX  14124 47112 32565 71806 10273 20217 39963 40040 58003 84540 333 10314 30026 55061 92022;EQDQ01  00002PRCP99
0163471120999992000071415004+37480+126630FM-12+007099999V0201601N002610075019N0120001N1+02651+02111100481ADDAA199000091GF106991061051008001001001MA1999999099721MD1210081+9999REMSYN066AAXX  14154 47112 32562 61605 10265 20211 39972 40048 52008 86500;EQDQ01  00002PRCP99
0189471120999992000071418004+37480+126630FM-12+007099999V0201601N002110075019N0120001N1+02561+02161100481ADDAA199000091GF106991061051008001001001MA1999999099711MD1410001+9999REMSYN076AAXX  14184 47112 32562 61604 10256 20216 39971 40048 52000 86500 333 92022;EQDQ01+000022APCTENQ02  00002PRCP99
0163471120999992000071421004+37480+126630FM-12+007099999V0202001N003610075019N0150001N1+02451+02231100521ADDAA199000091GF108991061051008001011999MA1999999099751MD1210041+9999REMSYN066AAXX  14214 47112 32565 82007 10245 20223 39975 40052 52004 8651/;EQDQ01  00002PRCP99
0216471120999992000071500004+37480+126630FM-12+007099999V0201801N004110075019N0130001N1+02641+02211100601ADDAA199000091GF107991061051008001011001IA1019IA2999+02709KA1120N+02441MA1999999099841MD1210091+9999REMSYN088AAXX  15004 47112 32563 71808 10264 20221 39984 40060 52009 86510 333 20244 30027 92033;EQDQ01  00002PRCP99
0133471120999992000071503004+37480+126630FM-12+007099999V0202501N003110075019N0140001N1+02731+02261100721ADDGF108991051051008001011999MA1999999099961MD1210121+9999REMSYN066AAXX  15034 47112 42564 82506 10273 20226 39996 40072 52012 8551/;
0173471120999992000071506004+37480+126630FM-12+007099999V0202001N005112200019N0140001N1+02871+02311100701ADDAA199000091GF104991041051008001001001MA1999999099941MD1810011+9999REMSYN076AAXX  15064 47112 32564 42010 10287 20231 39994 40070 58001 84500 333 92011;EQDQ01  00002PRCP99
0163471120999992000071509004+37480+126630FM-12+007099999V0202301N004110075019N0150001N1+02571+02261100761ADDAA199000091GF106991061051008001001001MA1999999099991MD1310051+9999REMSYN066AAXX  15094 47112 32565 62308 10257 20226 39999 40076 53005 86500;EQDQ01  00002PRCP99
0216471120999992000071512004+37480+126630FM-12+007099999V0202001N002112200019N0180001N1+02431+02271100921ADDAA199000091GF104991021051008001031001IA1019IA2999+02509KA1120M+02951MA1999999100141MD1210151+9999REMSYN088AAXX  15124 47112 32568 42004 10243 20227 30014 40092 52015 82530 333 10295 30025 92011;EQDQ01  00002PRCP99
0173471120999992000071518004+37480+126630FM-12+007099999V0202301N002110075019N0150001N1+02361+02251101051ADDAA199000091GF106991061051008001001001MA1999999100271MD1210021+9999REMSYN076AAXX  15184 47112 32565 62304 10236 20225 30027 40105 52002 86500 333 92011;EQDQ01  00002PRCP99
0237471120999992000071600004+37480+126630FM-12+007099999V0202001N004110360019N0035001N1+02441+02271101151ADDAA112000591AY121061AY221061GF108991021051008001011999IA1019IA2999+02509KA1120N+02291MA1999999100371MD1210091+9999MW1101REMSYN106AAXX  16004 47112 11535 82008 10244 20227 30037 40115 52009 69952 71022 8251/ 333 20229 30025 70005 92033;
0133471120999992000071603004+37480+126630FM-12+007099999V0202501N003110075019N0170001N1+02621+02181101241ADDGF107991051051008001011001MA1999999100471MD1210091+9999REMSYN066AAXX  16034 47112 42567 72506 10262 20218 30047 40124 52009 85510;
0171471120999992000071606004+37480+126630FM-12+007099999V0202301N003110075019N0035001N1+02411+02301101271ADDAY161061AY261061GF108991061071008001021999MA1999999100491MD1210031+9999MW1601REMSYN082AAXX  16064 47112 41535 82306 10241 20230 30049 40127 52003 76066 8672/ 333 92033;
0161471120999992000071609004+37480+126630FM-12+007099999V0202301N002610075019N0035001N1+02441+02331101151ADDAY121031AY221031GF108991051051008001011999MA1999999100371MD1710121+9999MW1101REMSYN072AAXX  16094 47112 41535 82305 10244 20233 30037 40115 57012 71022 8551/;
0209471120999992000071612004+37480+126630FM-12+007099999V0202001N002612200019N0130001N1+02491+02371101131ADDAA112000191GF103991031051008001001001IA1019IA2999+02509KA1120M+02751MA1999999100361MD1810021+9999REMSYN100AAXX  16124 47112 12563 32005 10249 20237 30036 40113 58002 69912 83500 333 10275 30025 70006 92022;
0144471120999992000071615004+37480+126630FM-12+007099999V0201801N002110075019N0150001N1+02541+02411101151ADDAA199000021GF107991071051008001001001MA1999999100381MD1310021+9999REMSYN066AAXX  16154 47112 32565 71804 10254 20241 30038 40115 53002 87500;
0171471120999992000071618004+37480+126630FM-12+007099999V0201801N003110075019N0120001N1+02551+02431101091ADDAY161061AY221061GF108991051051008001021999MA1999999100321MD1710061+9999MW1601REMSYN082AAXX  16184 47112 41562 81806 10255 20243 30032 40109 57006 76062 8552/ 333 92022;
0161471120999992000071621004+37480+126630FM-12+007099999V0202001N003110360019N0020001N1+02451+02391101151ADDAY121031AY221031GF108991021051008001021999MA1999999100371MD1210051+9999MW1101REMSYN072AAXX  16214 47112 41520 82006 10245 20239 30037 40115 52005 71022 8252/;
0209471120999992000071700004+37480+126630FM-12+007099999V0202001N006210075019N0130001N1+02601+02401101161ADDAA112000391GF108991051051008001021999IA1019IA2999+02709KA1120N+02451MA1999999100391MD1210021+9999REMSYN100AAXX  17004 47112 12563 82012 10260 20240 30039 40116 52002 69932 8552/ 333 20245 30027 70004 92011;
0144471120999992000071703004+37480+126630FM-12+007099999V0202301N004610075019N0180001N1+02871+02401101111ADDAA199000021GF107991071051008001001001MA1999999100351MD1710041+9999REMSYN066AAXX  17034 47112 32568 72309 10287 20240 30035 40111 57004 87500;
0154471120999992000071706004+37480+126630FM-12+007099999V0202701N005110075019N0200001N1+02851+02241100991ADDAA199000021GF106991061051008001001001MA1999999100231MD1710121+9999REMSYN076AAXX  17064 47112 32570 62710 10285 20224 30023 40099 57012 86500 333 92011;
0163471120999992000071709004+37480+126630FM-12+007099999V0202301N003610360019N0150001N1+02851+02351100811ADDAA199000091GF105991041051008001031001MA1999999100051MD1710181+9999REMSYN066AAXX  17094 47112 32565 52307 10285 20235 30005 40081 57018 84530;EQDQ01  00002PRCP99
0209471120999992000071712004+37480+126630FM-12+007099999V0202501N002112200019N0120001N1+02541+02351100861ADDAA124000391GF104991041001999999041001IA1019IA2999+02509KA1120M+02971MA1999999100091MD1210041+9999REMSYN100AAXX  17124 47112 32962 42504 10254 20235 30009 40086 52004 84040 333 10297 30025 55048 70003 92022;
0163471120999992000071715004+37480+126630FM-12+007099999V0202001N001512200019N0100001N1+02491+02391100921ADDAA199000091GF102991021051008001001001MA1999999100141MD1310051+9999REMSYN066AAXX  17154 47112 32560 22003 10249 20239 30014 40092 53005 82500;EQDQ01  00002PRCP99
0131471120999992000071718004+37480+126630FM-12+007099999V0202001N003119999999N9999999N1+02521+02411100901ADDAA199000091MA1999999100131MD1310011+9999REMSYN060AAXX  17184 47112 3//// /2006 10252 20241 30013 40090 53001;EQDQ01  00002PRCP99
0191471120999992000071721004+37480+126630FM-12+007099999V0202001N002610075019N0050001N1+02541+02381100861ADDAA199000091AY121031AY221031GF108991061051008001011999MA1999999100081MD1810041+9999MW1101REMSYN072AAXX  17214 47112 31550 82005 10254 20238 30008 40086 58004 71022 8651/;EQDQ01  00002PRCP99
0216471120999992000071800004+37480+126630FM-12+007099999V0202001N003610075019N0190001N1+02831+02381100851ADDAA199000091GF107991071051008001001001IA1019IA2999+03009KA1120N+02491MA1999999100081MD1510001+9999REMSYN088AAXX  18004 47112 32569 72007 10283 20238 30008 40085 55000 87500 333 20249 30030 92033;EQDQ01  00002PRCP99
0195471120999992000071803004+37480+126630FM-12+007099999V0202001N004110075019N0190001N1+02991+02411100841ADDAA199000091GF107991051051008001011001MA1999999100081MD1710011+9999REMSYN066AAXX  18034 47112 32569 72008 10299 20241 30008 40084 57000 85510;EQDQ01+000072APCTENQ02+000002APC3  Q03  00002PRCP99
0189471120999992000071806004+37480+126630FM-12+007099999V0202501N004119999999N0200001N1+03061+02331100731ADDAA199000091GF106991999021008001001001MA1999999099971MD1710111+9999REMSYN076AAXX  18064 47112 32570 62508 10306 20233 39997 40073 57011 83200 333 92033;EQDQ01+000032SCOTLCQ02  00002PRCP99
0163471120999992000071809004+37480+126630FM-12+007099999V0202701N003612200019N0250001N1+03051+02301100611ADDAA199000091GF105991021051012501001011MA1999999099851MD1710111+9999REMSYN066AAXX  18094 47112 32675 52707 10305 20230 39985 40061 57011 82501;EQDQ01  00002PRCP99
0216471120999992000071812004+37480+126630FM-12+007099999V0203201N001510360019N0180001N1+02721+02331100701ADDAA199000091GF105991031051012501031001IA1019IA2999+02709KA1120M+03241MA1999999099941MD1210081+9999REMSYN088AAXX  18124 47112 32668 53203 10272 20233 39994 40070 52008 83530 333 10324 30027 92011;EQDQ01  00002PRCP99
0179471120999992000071815004+37480+126630FM-12+007099999V0202301N001010075019N0180001N1+02731+02371100701ADDAA199000091GF106991051051008001031001MA1999999099931MD1410001+9999REMSYN066AAXX  18154 47112 32568 62302 10273 20237 39993 40070 52000 85530;EQDQ01+000022APCTENQ02  00002PRCP99
0171471120999992000071818004+37480+126630FM-12+007099999V0201801N002610075019N0080001N1+02591+02501100671ADDAY161061AY221061GF108991061071008001021999MA1999999099901MD1210031+9999MW1601REMSYN082AAXX  18184 47112 41558 81805 10259 20250 39990 40067 52003 76062 8672/ 333 92011;
0161471120999992000071821004+37480+126630FM-12+007099999V0201401N002110075019N0060001N1+02571+02481100701ADDAY161031AY261031GF108991061071008001021999MA1999999099931MD1810031+9999MW1611REMSYN072AAXX  18214 47112 41556 81404 10257 20248 39993 40070 58003 76166 8672/;
0209471120999992000071900004+37480+126630FM-12+007099999V0201601N003619999999N0120001N1+02831+02511100631ADDAA112003091GF108991061051999999021999IA1099IA2999+02909KA1120N+02561MA1999999099861MD1710061+9999REMSYN100AAXX  19004 47112 12962 81607 10283 20251 39986 40063 57006 60032 8652/ 333 20256 31029 70033 92022;
0161471120999992000071903004+37480+126630FM-12+007099999V0201801N003110075019N0150001N1+02821+02501100711ADDAY161031AY261031GF108991061051008001021999MA1999999099951MD1310091+9999MW1601REMSYN072AAXX  19034 47112 41565 81806 10282 20250 39995 40071 53009 76066 8652/;
0171471120999992000071906004+37480+126630FM-12+007099999V0202001N004110075019N0170001N1+02891+02631100651ADDAY161061AY261061GF107991061051008001021001MA1999999099891MD1510061+9999MW1211REMSYN082AAXX  19064 47112 41567 72008 10289 20263 39989 40065 55006 72166 86520 333 92022;
0133471120999992000071909004+37480+126630FM-12+007099999V0202501N002610075019N0120001N1+02711+02451100681ADDGF108991061051008001021999MA1999999099921MD1510031+9999REMSYN066AAXX  19094 47112 42562 82505 10271 20245 39992 40068 55003 8652/;
0209471120999992000071912004+37480+126630FM-12+007099999V0202001N003110360019N0120001N1+02581+02511100841ADDAA112005191GF107991041051008001011001IA1099IA2999+02709KA1120M+03051MA1999999100061MD1010151+9999REMSYN100AAXX  19124 47112 12562 72006 10258 20251 30006 40084 50015 60052 84510 333 10305 31027 70084 92033;
0172471120999992000071915004+37480+126630FM-12+007099999V0202001N001510075019N0080001N1+02591+02491100901ADDAA199000021AY121031AY221031GF107991071051008001001001MA1999999100131MD1210071+9999MW1101REMSYN072AAXX  19154 47112 31558 72003 10259 20249 30013 40090 52007 71022 87500;
0171471120999992000071918004+37480+126630FM-12+007099999V0201801N003610360019N0060001N1+02641+02541100821ADDAY161061AY221061GF107991041051008001021001MA1999999100051MD1710081+9999MW1601REMSYN082AAXX  19184 47112 41556 71807 10264 20254 30005 40082 57008 76062 84520 333 92033;
0101471120999992000071921004+37480+126630FM-12+007099999V0202001N004619999999N9999999N1+02591+02521100931ADDMA1999999100161MD1210111+9999REMSYN060AAXX  19214 47112 4//// /2009 10259 20252 30016 40093 52011;
0190471120999992000072000004+37480+126630FM-12+007099999V0201801N004110075019N0120001N1+02771+02541100881ADDAA112000791GF108991051051008001021999IA1099IA2999+02809MA1999999100111MD1810041+9999REMSYN094AAXX  20004 47112 12562 81808 10277 20254 30011 40088 58004 69902 8552/ 333 31028 70051 92011;
0133471120999992000072003004+37480+126630FM-12+007099999V0202001N006210075019N0120001N1+03061+02501100921ADDGF107991051051008001011001MA1999999100161MD1310051+9999REMSYN066AAXX  20034 47112 42562 72012 10306 20250 30016 40092 53005 85510;
0143471120999992000072006004+37480+126630FM-12+007099999V0202301N005710075019N0130001N1+02991+02441100781ADDGF107991071051008001001001MA1999999100021MD1710141+9999REMSYN076AAXX  20064 47112 42563 72311 10299 20244 30002 40078 57014 87500 333 92011;
0179471120999992000072009004+37480+126630FM-12+007099999V0202301N004110075019N0130001N1+02781+02401100791ADDAA199000091GF107991051051008001021001MA1999999100021MD1310011+9999REMSYN066AAXX  20094 47112 32563 72308 10278 20240 30002 40079 53000 85520;EQDQ01+000002APC3  Q02  00002PRCP99
0215471120999992000072012004+37480+126630FM-12+007099999V0202001N005110075019N0120001N1+02651+02401100821ADDAA112000791GF107991061051008001011001IA1019IA2999+02709KA1120M+03221MA1999999100051MD1110031+9999REMSYN106AAXX  20124 47112 12562 72010 10265 20240 30005 40082 51003 69902 86510 333 10322 30027 55021 70001 92022;
0179471120999992000072015004+37480+126630FM-12+007099999V0202001N005110075019N0120001N1+02611+02441100821ADDAA199000091GF107991051051008001011001MA1999999100051MD1410001+9999REMSYN066AAXX  20154 47112 32562 72010 10261 20244 30005 40082 53000 85510;EQDQ01+000032APCTENQ02  00002PRCP99
0201471120999992000072018004+37480+126630FM-12+007099999V0202001N004110360019N0012001N1+02571+02421100771ADDAA199000091AY121061AY221061GF108991041051008001011999MA1999999100001MD1710051+9999MW1101REMSYN082AAXX  20184 47112 31512 82008 10257 20242 30000 40077 57005 71022 8451/ 333 92022;EQDQ01  00002PRCP99
0191471120999992000072021004+37480+126630FM-12+007099999V0202001N006210075019N0012001N1+02541+02401100731ADDAA199000091AY121031AY221031GF108991061051008001011999MA1999999099961MD1710041+9999MW1101REMSYN072AAXX  20214 47112 31512 82012 10254 20240 39996 40073 57004 71022 8651/;EQDQ01  00002PRCP99
0244471120999992000072100004+37480+126630FM-12+007099999V0202001N006710075019N0020001N1+02571+02431100651ADDAA199000091AY121061AY221061GF108991051061008001011999IA1019IA2999+02609KA1120N+02531MA1999999099881MD1710081+9999MW1101REMSYN094AAXX  21004 47112 31520 82013 10257 20243 39988 40065 57008 71022 8561/ 333 20253 30026 92044;EQDQ01  00002PRCP99
0191471120999992000072103004+37480+126630FM-12+007099999V0202001N008710360019N0090001N1+02661+02411100601ADDAA199000091AY121031AY221031GF108991031051008001011999MA1999999099831MD1510051+9999MW1101REMSYN072AAXX  21034 47112 31559 82017 10266 20241 39983 40060 55005 71022 8351/;EQDQ01  00002PRCP99
0173471120999992000072106004+37480+126630FM-12+007099999V0202301N005719999999N0120001N1+02901+02391100401ADDAA199000091GF105991051001999999031001MA1999999099641MD1710191+9999REMSYN076AAXX  21064 47112 32962 52311 10290 20239 39964 40040 57019 85030 333 92044;EQDQ01  00002PRCP99
0191471120999992000072109004+37480+126630FM-12+007099999V0202301N005712200019N0090001N1+02721+02391100271ADDAA199000091AY111031AY211031GF102991021001008001031001MA1999999099511MD1710131+9999MW1101REMSYN072AAXX  21094 47112 31559 22311 10272 20239 39951 40027 57013 71011 82030;EQDQ01  00002PRCP99
0250471120999992000072112004+37480+126630FM-12+007099999V0202001N006710360019N0080001N1+02561+02371100261ADDAA199000091AY121061AY221061GF107991021051008001011001IA1019IA2999+02509KA1120M+03001MA1999999099491MD1610021+9999MW1101REMSYN100AAXX  21124 47112 31558 72013 10256 20237 39949 40026 56002 71022 82510 333 10300 30025 55043 92022;EQDQ01  00002PRCP99
0191471120999992000072115004+37480+126630FM-12+007099999V0202001N005710075019N0060001N1+02551+02421100211ADDAA199000091AY121031AY221031GF108991061051008001021999MA1999999099451MD1610041+9999MW1101REMSYN072AAXX  21154 47112 31556 82011 10255 20242 39945 40021 56004 71022 8652/;EQDQ01  00002PRCP99
0201471120999992000072118004+37480+126630FM-12+007099999V0202001N007710075019N0050001N1+02541+02411099971ADDAA199000091AY121061AY221061GF108991061051008001021999MA1999999099201MD1710251+9999MW1101REMSYN082AAXX  21184 47112 31550 82015 10254 20241 39920 49997 57025 71022 8652/ 333 92033;EQDQ01  00002PRCP99
0191471120999992000072121004+37480+126630FM-12+007099999V0202001N010810075019N0050001N1+02531+02371099901ADDAA199000091AY121031AY221031GF108991051051008001021999MA1999999099131MD1710071+9999MW1101REMSYN072AAXX  21214 47112 31550 82021 10253 20237 39913 49990 57007 71022 8552/;EQDQ01  00002PRCP99
0237471120999992000072200004+37480+126630FM-12+007099999V0202501N006210021019N0003001N1+02401+02331099951ADDAA112004191AY161061AY261061GF108991061071002501021999IA1099IA2999+02409KA1120N+02381MA1999999099181MD1010051+9999MW1631REMSYN106AAXX  22004 47112 11303 82512 10240 20233 39918 49995 50005 60042 76366 8672/ 333 20238 31024 70040 92033;
0161471120999992000072203004+37480+126630FM-12+007099999V0202701N006710075019N0012001N1+02471+02431099811ADDAY161031AY261031GF108991061071008001021999MA1999999099041MD1710141+9999MW1611REMSYN072AAXX  22034 47112 41512 82713 10247 20243 39904 49981 57014 76166 8672/;
0171471120999992000072206004+37480+126630FM-12+007099999V0202301N004110075019N0005001N1+02451+02411099681ADDAY161061AY261061GF108991051071008001021999MA1999999098911MD1710131+9999MW1601REMSYN082AAXX  22064 47112 41505 82308 10245 20241 39891 49968 57013 76066 8572/ 333 92033;
0161471120999992000072209004+37480+126630FM-12+007099999V0203201N004110042019N0005001N1+02461+02421099601ADDAY161031AY261031GF108991061071004501021999MA1999999098841MD1510071+9999MW1631REMSYN072AAXX  22094 47112 41405 83208 10246 20242 39884 49960 55007 76366 8672/;
0241471120999992000072212004+37480+126630FM-12+007099999V0209999C000010003019N0002001N1+02411+02381099711ADDAA112043991AY141061AY241061GA1091+999999999GF109991091999999999999999IA2999+02409KA1120M+02591MA1999999098941MD1210101+9999MW1451REMSYN100AAXX  22124 47112 11202 90000 10241 20238 39894 49971 52010 60442 74544 333 10259 3/024 70480 92000;
0172471120999992000072215004+37480+126630FM-12+007099999V0202301N003110042019N0010001N1+02371+02341099781ADDAA199000021AY121031AY221031GF108991081061004501001001MA1999999099011MD1210071+9999MW1101REMSYN072AAXX  22154 47112 31410 82306 10237 20234 39901 49978 52007 71022 88600;
0182471120999992000072218004+37480+126630FM-12+007099999V0202301N000510003019N0002001N1+02381+02341099621ADDAA199000021AY141061AY241061GA1091+999999999GF109991091999999999999999MA1999999098861MD1710151+9999MW1451REMSYN066AAXX  22184 47112 31402 92301 10238 20234 39886 49962 57015 74544;
0172471120999992000072221004+37480+126630FM-12+007099999V0202001N004110075019N0007001N1+02341+02311099681ADDAA199000021AY141031AY241031GF108991081061008001999999MA1999999098921MD1110061+9999MW1421REMSYN072AAXX  22214 47112 31507 82008 10234 20231 39892 49968 51006 74244 886//;
0203471120999992000072300004+37480+126630FM-12+007099999V0201601N003612200019N0110001N1+02461+02201099731ADDAA124044291GF103991031051008001001001IA1099IA2999+02609KA1120N+02291MA1999999098971MD1010051+9999REMSYN094AAXX  23004 47112 32561 31607 10246 20220 39897 49973 50005 83500 333 20229 31026 70442 92011;
0163471120999992000072303004+37480+126630FM-12+007099999V0201801N004110075019N0200001N1+02761+02001099721ADDAA199000091GF106991061051008001001001MA1999999098961MD1510011+9999REMSYN066AAXX  23034 47112 32570 61808 10276 20200 39896 49972 55001 86500;EQDQ01  00002PRCP99
0173471120999992000072306004+37480+126630FM-12+007099999V0201801N004112200019N0150001N1+02951+02121099621ADDAA199000091GF103991021051008001031001MA1999999098871MD1510091+9999REMSYN076AAXX  23064 47112 32565 31808 10295 20212 39887 49962 55009 82530 333 92011;EQDQ01  00002PRCP99
0163471120999992000072309004+37480+126630FM-12+007099999V0202301N003619999999N0180001N1+02701+02071099621ADDAA199000091GF105991021001999999031091MA1999999098861MD1810011+9999REMSYN066AAXX  23094 47112 32968 52307 10270 20207 39886 49962 58001 82039;EQDQ01  00002PRCP99
0222471120999992000072312004+37480+126630FM-12+007099999V0201801N004112200019N0150001N1+02531+02261099721ADDAA199000091GF102991021001999999031001IA1019IA2999+02509KA1120M+02981MA1999999098961MD1010101+9999REMSYN094AAXX  23124 47112 32965 21808 10253 20226 39896 49972 50010 82030 333 10298 30025 55064 92022;EQDQ01  00002PRCP99
0163471120999992000072315004+37480+126630FM-12+007099999V0201801N002612200019N0120001N1+02411+02271099731ADDAA199000091GF104991041051008001001001MA1999999098971MD1310011+9999REMSYN066AAXX  23154 47112 32562 41805 10241 20227 39897 49973 53001 84500;EQDQ01  00002PRCP99
0201471120999992000072318004+37480+126630FM-12+007099999V0202301N002110075019N0015001N1+02361+02261099711ADDAA199000091AY121061AY221061GF105991051051008001001001MA1999999098941MD1510031+9999MW1101REMSYN082AAXX  23184 47112 31515 52304 10236 20226 39894 49971 55003 71022 85500 333 92022;EQDQ01  00002PRCP99
0183471120999992000072321004+37480+126630FM-12+007099999V0201101N000510360019N0030001N1+02391+02261099851ADDAA199000091AY121031GF108991021051008001011999MA1999999099081MD1210141+9999MW1101REMSYN072AAXX  23214 47112 31530 81101 10239 20226 39908 49985 52014 7102/ 8251/;EQDQ01  00002PRCP99
0244471120999992000072400004+37480+126630FM-12+007099999V0202001N002612200019N0080001N1+02681+02311099981ADDAA199000091AY101061AY201061GF101991011051012501001001IA1019IA2999+02909KA1120N+02341MA1999999099221MD1210141+9999MW1101REMSYN094AAXX  24004 47112 31658 12005 10268 20231 39922 49998 52014 71000 81500 333 20234 30029 92022;EQDQ01  00002PRCP99
0201471120999992000072403004+37480+126630FM-12+007099999V0202301N002612200019N0070001N1+02921+02401100031ADDAA199000091AY101031AY201031GA1001+999999999GF100991001001999999001001MA1999999099271MD1310051+9999MW1101REMSYN066AAXX  24034 47112 31957 02305 10292 20240 39927 40003 53005 71000;EQDQ01  00002PRCP99
0211471120999992000072406004+37480+126630FM-12+007099999V0202501N003612200019N0050001N1+02961+02421100001ADDAA199000091AY101061AY201061GA1001+999999999GF100991001001999999001001MA1999999099241MD1610031+9999MW1101REMSYN076AAXX  24064 47112 31950 02507 10296 20242 39924 40000 56003 71000 333 92022;EQDQ01  00002PRCP99
0201471120999992000072409004+37480+126630FM-12+007099999V0202901N005112200019N0030001N1+02781+02211100001ADDAA199000091AY101031AY201031GA1001+999999999GF100991001001999999001001MA1999999099241MD1010001+9999MW1101REMSYN066AAXX  24094 47112 31930 02910 10278 20221 39924 40000 50000 71000;EQDQ01  00002PRCP99
0250471120999992000072412004+37480+126630FM-12+007099999V0202301N003112200019N0050001N1+02411+02291100131ADDAA199000091AY101061AY201061GF101991011001999999031001IA1019IA2999+02509KA1120M+02991MA1999999099361MD1210121+9999MW1101REMSYN100AAXX  24124 47112 31950 12306 10241 20229 39936 40013 52012 71000 81030 333 10299 30025 55104 92011;EQDQ01  00002PRCP99
0201471120999992000072415004+37480+126630FM-12+007099999V0202001N003610001519N0001001N1+02211+02171100191ADDAA199000091AY141031AY211031GA1091+999999999GF109991091999999999999999MA1999999099421MD1210061+9999MW1471REMSYN066AAXX  24154 47112 31/01 92007 10221 20217 39942 40019 52006 74741;EQDQ01  00002PRCP99
0211471120999992000072418004+37480+126630FM-12+007099999V0202301N001510006019N0007001N1+02191+02161100191ADDAA199000091AY141061AY241061GA1091+999999999GF109991091999999999999999MA1999999099411MD1110011+9999MW1451REMSYN076AAXX  24184 47112 31/07 92303 10219 20216 39941 40019 51001 74544 333 92011;EQDQ01  00002PRCP99
0191471120999992000072421004+37480+126630FM-12+007099999V0201801N001010360019N0025001N1+02211+02121100211ADDAA199000091AY121031AY221031GF108991031051008001011999MA1999999099441MD1210031+9999MW1101REMSYN072AAXX  24214 47112 31525 81802 10221 20212 39944 40021 52003 71022 8351/;EQDQ01  00002PRCP99
0244471120999992000072500004+37480+126630FM-12+007099999V0202701N003110075019N0035001N1+02461+02171100321ADDAA199000091AY121061AY221061GF108991061051008001011999IA1019IA2999+02609KA1120N+02161MA1999999099551MD1210111+9999MW1101REMSYN094AAXX  25004 47112 31535 82706 10246 20217 39955 40032 52011 71022 8651/ 333 20216 30026 92022;EQDQ01  00002PRCP99
0191471120999992000072503004+37480+126630FM-12+007099999V0202701N003610075019N0050001N1+02651+02141100291ADDAA199000091AY121031AY221031GF108991061051008001011999MA1999999099521MD1710031+9999MW1101REMSYN072AAXX  25034 47112 31550 82707 10265 20214 39952 40029 57003 71022 8651/;EQDQ01  00002PRCP99
0193471120999992000072506004+37480+126630FM-12+007099999V0202701N00361036001CN0050001N1+02761+02181100191ADDAA199000091AY121061GF106991021051008001011999MA1999999099431MD1710091+9999MW1101REMSYN082AAXX  25064 47112 31550 62707 10276 20218 39943 40019 57009 7102/ 8251/ 333 9202/;EQDQ01  00002PRCP99
0163471120999992000072509004+37480+126630FM-12+007099999V0202501N003110360019N0110001N1+02671+02191100151ADDAA199000091GF106991041051008001031001MA1999999099391MD1610041+9999REMSYN066AAXX  25094 47112 32561 62506 10267 20219 39939 40015 56004 84530;EQDQ01  00002PRCP99
0254471120999992000072512004+37480+126630FM-12+007099999V0203201N001512200019N0060001N1+02411+02181100251ADDAA199000091AY101061AY201061GA1001+999999999GF100991001001999999001001IA1019IA2999+02409KA1120M+02871MA1999999099471MD1010081+9999MW1101REMSYN088AAXX  25124 47112 31956 03203 10241 20218 39947 40025 50008 71000 333 10287 30024 92011;EQDQ01  00002PRCP99
0201471120999992000072515004+37480+126630FM-12+007099999V0203401N000512200019N0035001N1+02341+02251100271ADDAA199000091AY101031AY201031GA1001+999999999GF100991001001999999001001MA1999999099501MD1310031+9999MW1101REMSYN066AAXX  25154 47112 31935 03401 10234 20225 39950 40027 53003 71000;EQDQ01  00002PRCP99
0211471120999992000072518004+37480+126630FM-12+007099999V0209999C000012200019N0012001N1+02261+02191100251ADDAA199000091AY101061AY201061GA1001+999999999GF100991001001999999001001MA1999999099471MD1810031+9999MW1101REMSYN076AAXX  25184 47112 31912 00000 10226 20219 39947 40025 58003 71000 333 92011;EQDQ01  00002PRCP99
0201471120999992000072521004+37480+126630FM-12+007099999V0209999C000010003019N0002001N1+02231+02181100321ADDAA199000091AY141031AY241031GA1091+999999999GF109991091999999999999999MA1999999099541MD1210071+9999MW1461REMSYN066AAXX  25214 47112 31902 90000 10223 20218 39954 40032 52007 74644;EQDQ01  00002PRCP99
0244471120999992000072600004+37480+126630FM-12+007099999V0201101N001012200019N0012001N1+02741+02271100391ADDAA199000091AY101061AY201061GF102991001001999999001011IA1019IA2999+02909KA1120N+02211MA1999999099621MD1210081+9999MW1101REMSYN094AAXX  26004 47112 31912 21102 10274 20227 39962 40039 52008 71000 80001 333 20221 30029 92011;EQDQ01  00002PRCP99
0191471120999992000072603004+37480+126630FM-12+007099999V0202701N004112200019N0012001N1+02771+02361100361ADDAA199000091AY111031AY211031GF104991041051008001001001MA1999999099591MD1610031+9999MW1101REMSYN072AAXX  26034 47112 31512 42708 10277 20236 39959 40036 56003 71011 84500;EQDQ01  00002PRCP99
0201471120999992000072606004+37480+126630FM-12+007099999V0202701N004110075019N0030001N1+02981+02181100251ADDAA199000091AY121061AY221061GF105991051051008001001001MA1999999099491MD1710101+9999MW1101REMSYN082AAXX  26064 47112 31530 52708 10298 20218 39949 40025 57010 71022 85500 333 92011;EQDQ01  00002PRCP99
0191471120999992000072609004+37480+126630FM-12+007099999V0203201N003612200019N0090001N1+02851+02201100201ADDAA199000091AY111031AY211031GF102991021051008001001001MA1999999099441MD1710051+9999MW1101REMSYN072AAXX  26094 47112 31559 23207 10285 20220 39944 40020 57005 71011 82500;EQDQ01  00002PRCP99
0260471120999992000072612004+37480+126630FM-12+007099999V0203201N002112200019N0050001N1+02611+02101100261ADDAA199000091AY101061AY201061GA1001+999999999GF100991001001999999001001IA1019IA2999+02509KA1120M+03061MA1999999099491MD1010051+9999MW1101REMSYN094AAXX  26124 47112 31950 03204 10261 20210 39949 40026 50005 71000 333 10306 30025 55027 92022;EQDQ01  00002PRCP99
0191471120999992000072615004+37480+126630FM-12+007099999V0202001N001512200019N0035001N1+02491+02341100331ADDAA199000091AY111031AY211031GF102991021051008001001001MA1999999099561MD1310071+9999MW1101REMSYN072AAXX  26154 47112 31535 22003 10249 20234 39956 40033 53007 71011 82500;EQDQ01  00002PRCP99
0201471120999992000072618004+37480+126630FM-12+007099999V0202501N000512200019N0030001N1+02411+02291100361ADDAA199000091AY111061AY211061GF103991021051008001041001MA1999999099581MD1810021+9999MW1101REMSYN082AAXX  26184 47112 31530 32501 10241 20229 39958 40036 58002 71011 82540 333 92022;EQDQ01  00002PRCP99
0201471120999992000072621004+37480+126630FM-12+007099999V0201801N001512200019N0012001N1+02411+02291100361ADDAA199000091AY101031AY201031GA1001+999999999GF100991001001999999001001MA1999999099591MD1010011+9999MW1101REMSYN066AAXX  26214 47112 31912 01803 10241 20229 39959 40036 50001 71000;EQDQ01  00002PRCP99
0254471120999992000072700004+37480+126630FM-12+007099999V0201801N002112200019N0006001N1+02801+02341100371ADDAA199000091AY141061AY241061GA1001+999999999GF100991001001999999001001IA1019IA2999+02909KA1120N+02391MA1999999099611MD1210021+9999MW1461REMSYN088AAXX  27004 47112 31906 01804 10280 20234 39961 40037 52002 74644 333 20239 30029 92022;EQDQ01  00002PRCP99
0191471120999992000072703004+37480+126630FM-12+007099999V0202301N004112200019N0015001N1+03041+02321100371ADDAA199000091AY101031AY201031GF101991011051012501001001MA1999999099621MD1310011+9999MW1101REMSYN072AAXX  27034 47112 31615 12308 10304 20232 39962 40037 53001 71000 81500;EQDQ01  00002PRCP99
0201471120999992000072706004+37480+126630FM-12+007099999V0202701N003612200019N0090001N1+03101+02171100281ADDAA199000091AY101061AY201061GF102991021051008001001001MA1999999099531MD1610091+9999MW1101REMSYN082AAXX  27064 47112 31559 22707 10310 20217 39953 40028 56009 71000 82500 333 92022;EQDQ01  00002PRCP99
0217471120999992000072709004+37480+126630FM-12+007099999V0203401N002112200019N0060001N1+02951+02161100291ADDAA199000091AY101031AY201031GA1001+999999999GF100991001001999999001001MA1999999099531MD1110011+9999MW1101REMSYN066AAXX  27094 47112 31956 03404 10295 20216 39953 40029 51000 71000;EQDQ01+000002APC3  Q02  00002PRCP99
0250471120999992000072712004+37480+126630FM-12+007099999V0203201N001512200019N0060001N1+02551+02151100391ADDAA199000091AY111061AY211061GF104991001001999999001011IA1019IA2999+02509KA1120M+03171MA1999999099621MD1210091+9999MW1101REMSYN100AAXX  27124 47112 31956 43203 10255 20215 39962 40039 52009 71011 80001 333 10317 30025 55087 92011;EQDQ01  00002PRCP99
0191471120999992000072715004+37480+126630FM-12+007099999V0209999C000019999999N0060001N1+02591+02191100401ADDAA199000091AY121031AY221031GF106991001001999999001021MA1999999099631MD1310011+9999MW1101REMSYN072AAXX  27154 47112 31956 60000 10259 20219 39963 40040 53001 71022 80002;EQDQ01  00002PRCP99
0201471120999992000072718004+37480+126630FM-12+007099999V0209999C000019999999N0060001N1+02691+02211100291ADDAA199000091AY121061AY221061GF108991081001999999011999MA1999999099521MD1810111+9999MW1101REMSYN082AAXX  27184 47112 31956 81400 10269 20221 39952 40029 58011 71022 8801/ 333 92011;EQDQ01  00002PRCP99
0163471120999992000072721004+37480+126630FM-12+007099999V0201401N001510360019N0100001N1+02661+02101100391ADDAA199000091GF108991021051008001011999MA1999999099621MD1210101+9999REMSYN066AAXX  27214 47112 32560 81403 10266 20210 39962 40039 52010 8251/;EQDQ01  00002PRCP99
0216471120999992000072800004+37480+126630FM-12+007099999V0201601N002610360019N0100001N1+02831+02151100451ADDAA199000091GF108991041051008001011999IA1019IA2999+02909KA1120N+02581MA1999999099681MD1310061+9999REMSYN088AAXX  28004 47112 32560 81605 10283 20215 39968 40045 53006 8451/ 333 20258 30029 92022;EQDQ01  00002PRCP99
0161471120999992000072803004+37480+126630FM-12+007099999V0202001N003110075019N0120001N1+02981+02221100471ADDAY161031AY261031GF108991061051008001021999MA1999999099711MD1310031+9999MW1601REMSYN072AAXX  28034 47112 41562 82006 10298 20222 39971 40047 53003 76066 8652/;
0143471120999992000072806004+37480+126630FM-12+007099999V0202501N003119999999N0120001N1+03041+02151100341ADDGF106991041001008001061041MA1999999099581MD1710131+9999REMSYN076AAXX  28064 47112 42562 62506 10304 20215 39958 40034 57013 84064 333 92022;
0144471120999992000072809004+37480+126630FM-12+007099999V0202701N004119999999N0120001N1+02971+02091100251ADDAA199000021GF106991001001999999001021MA1999999099491MD1710091+9999REMSYN066AAXX  28094 47112 32962 62708 10297 20209 39949 40025 57009 80002;
0231471120999992000072812004+37480+126630FM-12+007099999V0203401N001510075019N0080001N1+02681+02331100321ADDAA112000791AY121061AY221061GF105991051051008001001001IA1019IA2999+02709KA1120M+03201MA1999999099561MD1210071+9999MW1101REMSYN100AAXX  28124 47112 11558 53403 10268 20233 39956 40032 52007 69902 71022 85500 333 10320 30027 92011;
0172471120999992000072815004+37480+126630FM-12+007099999V0209999C000010075019N0040001N1+02661+02331100301ADDAA199000021AY101031AY201031GF106991061051008001001001MA1999999099531MD1310031+9999MW1101REMSYN072AAXX  28154 47112 31540 60000 10266 20233 39953 40030 53003 71000 86500;
0171471120999992000072818004+37480+126630FM-12+007099999V0201101N001510360019N0030001N1+02701+02311100111ADDAY121061AY221061GF106991041051008001011001MA1999999099341MD1710191+9999MW1211REMSYN082AAXX  28184 47112 41530 61103 10270 20231 39934 40011 57019 72122 84510 333 92022;
0161471120999992000072821004+37480+126630FM-12+007099999V0200901N000510075019N0040001N1+02661+02351100061ADDAY121031AY221031GF107991071051008001001001MA1999999099301MD1810041+9999MW1101REMSYN072AAXX  28214 47112 41540 70901 10266 20235 39930 40006 58004 71022 87500;
0203471120999992000072900004+37480+126630FM-12+007099999V0201801N003610075019N0100001N1+02921+02371100011ADDAA112000791GF107991071051008001001001IA1019IA2999+03009KA1120N+02611MA1999999099261MD1710041+9999REMSYN094AAXX  29004 47112 12560 71807 10292 20237 39926 40001 57004 69902 87500 333 20261 30030 92011;
0161471120999992000072903004+37480+126630FM-12+007099999V0201801N004610075019N0100001N1+02961+02441100001ADDAY161031AY221031GF107991061051008001021999MA1999999099241MD1710021+9999MW1601REMSYN072AAXX  29034 47112 41560 71809 10296 20244 39924 40000 57002 76062 8652/;
0171471120999992000072906004+37480+126630FM-12+007099999V0202301N003110075019N0150001N1+02831+02381099881ADDAY161061AY261061GF107991061051008001021001MA1999999099121MD1710121+9999MW1021REMSYN082AAXX  29064 47112 41565 72306 10283 20238 39912 49988 57012 70266 86520 333 92022;
0133471120999992000072909004+37480+126630FM-12+007099999V0203401N001510360019N0150001N1+02751+02451099791ADDGF107991041051008001011001MA1999999099031MD1710091+9999REMSYN066AAXX  29094 47112 42565 73403 10275 20245 39903 49979 57009 84510;
0243471120999992000072912004+37480+126630FM-12+007099999V0203401N001010075019N0050001N1+02651+02421099831ADDAA112001091AY121061AY221061GF107991051051008001021001IA1099IA2999+02609KA1120M+03041MA1999999099071MD1310041+9999MW1101REMSYN112AAXX  29124 47112 11550 73402 10265 20242 39907 49983 53004 60012 71022 85520 333 10304 31026 55003 70012 92022;
0135471120999992000072915004+37480+126630FM-12+007099999V0201801N001519999999N0030001N1+02691+02371099771ADDAA199000021GF106991999999008001999999MA1999999099011REMSYN071AAXX  29154 47112 31530 61803 10269 20237 39901 49977 7006 71022 85510;
0171471120999992000072918004+37480+126630FM-12+007099999V0201601N002112200019N0030001N1+02601+02451099621ADDAY111061AY211061GF102991021051008001001001MA1999999098851MD1710161+9999MW1101REMSYN082AAXX  29184 47112 41530 21604 10260 20245 39885 49962 57016 71011 82500 333 92022;
0165471120999992000072921004+37480+126630FM-12+007099999V0201601N002110075019N0050001N1+02621+02411099571ADDAY121031AY221031GF108991061051008001021999MD1710051+9999MW1101REMSYN072AAXX  29214 47112 41550 81604 10262 20241 39081 49957 57005 71022 8652/;EQDQ01+090813APOSP 
0237471120999992000073000004+37480+126630FM-12+007099999V0200501N004610210019N0190001N1+02081+02021099801ADDAA112006191AY161061AY261061GF108991061051022501021999IA1099IA2999+02109KA1120N+02061MA1999999099021MD1310141+9999MW1601REMSYN106AAXX  30004 47112 11869 80509 10208 20202 39902 49980 53014 60062 76066 8652/ 333 20206 31021 70074 92022;
0161471120999992000073003004+37480+126630FM-12+007099999V0200501N002110075019N0170001N1+02341+01961099821ADDAY161031AY261031GF108991061051008001021999MA1999999099051MD1310031+9999MW1601REMSYN072AAXX  30034 47112 41567 80504 10234 20196 39905 49982 53003 76066 8652/;
0154471120999992000073006004+37480+126630FM-12+007099999V0200901N002112200019N0190001N1+02761+02151099671ADDAA199000021GF104991011051008001031011MA1999999098911MD1710141+9999REMSYN076AAXX  30064 47112 32569 40904 10276 20215 39891 49967 57014 81531 333 92022;
0133471120999992000073009004+37480+126630FM-12+007099999V0200201N000510075019N0210001N1+02571+02141099691ADDGF108991081051008001999999MA1999999098921MD1310011+9999REMSYN066AAXX  30094 47112 42571 80201 10257 20214 39892 49969 53001 885//;
0215471120999992000073012004+37480+126630FM-12+007099999V0203601N001010075019N0180001N1+02421+02041099761ADDAA112000791GF106991061051008001001001IA1099IA2999+02409KA1120M+02791MA1999999099001MD1210081+9999REMSYN106AAXX  30124 47112 12568 63602 10242 20204 39900 49976 52008 69902 86500 333 10279 31024 55011 70062 92011;
0163471120999992000073015004+37480+126630FM-12+007099999V0200201N000510075019N0180001N1+02321+01941099771ADDAA199000021GF106991061051008001001001MA1999999099001MD1310011+9999REMSYN066AAXX  30154 47112 32568 60201 10232 20194 39900 49977 53000 86500;EQDQ01+000002APC3  
0173471120999992000073018004+37480+126630FM-12+007099999V0200201N000510075019N0180001N1+02241+01821099711ADDAA199000091GF108991051051008001011999MA1999999098941MD1710061+9999REMSYN076AAXX  30184 47112 32568 80201 10224 20182 39894 49971 57006 8551/ 333 92011;EQDQ01  00002PRCP99
0161471120999992000073021004+37480+126630FM-12+007099999V0200201N000510075019N0180001N1+02101+01921099771ADDAY161031AY221031GF106991061051008001001001MA1999999098991MD1010051+9999MW1211REMSYN072AAXX  30214 47112 41568 60201 10210 20192 39899 49977 50005 72162 86500;
0209471120999992000073100004+37480+126630FM-12+007099999V0200201N001012200019N0200001N1+02501+01981099851ADDAA112000191GF102991021001999999041001IA1019IA2999+02709KA1120N+02101MA1999999099081MD1210091+9999REMSYN100AAXX  31004 47112 12970 20202 10250 20198 39908 49985 52009 69912 82040 333 20210 30027 70001 92022;
0154471120999992000073103004+37480+126630FM-12+007099999V0203201N003112200019N0250001N1+02821+02101099911ADDAA199000021GA1001+999999999GF100991001001999999001001MA1999999099151MD1310071+9999REMSYN060AAXX  31034 47112 32975 03206 10282 20210 39915 49991 53007;
0164471120999992000073106004+37480+126630FM-12+007099999V0202701N005112200019N0270001N1+02921+02051099951ADDAA199000021GA1001+999999999GF100991001001999999001001MA1999999099191MD1210041+9999REMSYN070AAXX  31064 47112 32977 02710 10292 20205 39919 49995 52004 333 92022;
0154471120999992000073109004+37480+126630FM-12+007099999V0202701N005112200019N0270001N1+02751+02011100041ADDAA199000021GA1001+999999999GF100991001001999999001001MA1999999099281MD1210091+9999REMSYN060AAXX  31094 47112 32977 02710 10275 20201 39928 40004 52009;
0213471120999992000073112004+37480+126630FM-12+007099999V0202701N002112200019N0200001N1+02401+01961100281ADDAA124000191GA1001+999999999GF100991001001999999001001IA1019IA2999+02309KA1120M+03001MA1999999099501MD1210221+9999REMSYN088AAXX  31124 47112 32970 02704 10240 20196 39950 40028 52022 333 10300 30023 70001 92011;
0153471120999992000073115004+37480+126630FM-12+007099999V0202001N003612200019N0100001N1+02331+02161100441ADDAA199000091GA1001+999999999GF100991001001999999001001MA1999999099661REMSYN054AAXX  31154 47112 32960 02007 10233 20216 39966 40044;EQDQ01  00002PRCP99
0201471120999992000073118004+37480+126630FM-12+007099999V0201801N002612200019N0090001N1+02251+02141100501ADDAA199000091AY111061AY211061GF102991021051008001001001MA1999999099731MD1210031+9999MW1101REMSYN082AAXX  31184 47112 31559 21805 10225 20214 39973 40050 52003 71011 82500 333 92022;EQDQ01  00002PRCP99
0201471120999992000073121004+37480+126630FM-12+007099999V0201801N002112200019N0070001N1+02211+02091100621ADDAA199000091AY101031AY201031GA1001+999999999GF100991001001999999001001MA1999999099841MD1210111+9999MW1101REMSYN066AAXX  31214 47112 31957 01804 10221 20209 39984 40062 52011 71000;EQDQ01  00002PRCP99
0244471120999992000080100004+37480+126630FM-12+007099999V0202501N003610075019N0090001N1+02451+02161100801ADDAA199000091AY111061AY211061GF105991051051008001001001IA1019IA2999+02609KA1120N+02211MA1999999100031MD1210191+9999MW1101REMSYN094AAXX  01004 47112 31559 52507 10245 20216 30003 40080 52019 71011 85500 333 20221 30026 92011;EQDQ01  00002PRCP99
0163471120999992000080103004+37480+126630FM-12+007099999V0202501N003612200019N0120001N1+02771+01961100811ADDAA199000091GF101991011011008001001001MA1999999100041MD1310011+9999REMSYN066AAXX  01034 47112 32562 12507 10277 20196 30004 40081 53001 81100;EQDQ01  00002PRCP99
0183471120999992000080106004+37480+126630FM-12+007099999V0202701N005112200019N0120001N1+02861+02171100711ADDAA199000091GA1001+999999999GF100991001001999999001001MA1999999099951MD1710091+9999REMSYN070AAXX  01064 47112 32962 02710 10286 20217 39995 40071 57009 333 92011;EQDQ01  00002PRCP99
0173471120999992000080109004+37480+126630FM-12+007099999V0202701N003112200019N0110001N1+02841+02071100701ADDAA199000091GA1001+999999999GF100991001001999999001001MA1999999099931MD1710021+9999REMSYN060AAXX  01094 47112 32961 02706 10284 20207 39993 40070 57002;EQDQ01  00002PRCP99
0260471120999992000080112004+37480+126630FM-12+007099999V0203201N002112200019N0050001N1+02461+02151100861ADDAA199000091AY101061AY201061GA1001+999999999GF100991001001999999001001IA1019IA2999+02409KA1120M+02981MA1999999100081MD1210151+9999MW1101REMSYN094AAXX  01124 47112 31950 03204 10246 20215 30008 40086 52015 71000 333 10298 30024 55110 92022;EQDQ01  00002PRCP99
0201471120999992000080115004+37480+126630FM-12+007099999V0209999C000012200019N0030001N1+02401+02081100931ADDAA199000091AY101031AY201031GA1001+999999999GF100991001001999999001001MA1999999100161MD1210081+9999MW1101REMSYN066AAXX  01154 47112 31930 00000 10240 20208 30016 40093 52008 71000;EQDQ01  00002PRCP99
0211471120999992000080118004+37480+126630FM-12+007099999V0209999C000012200019N0030001N1+02411+02161100931ADDAA199000091AY101061AY201061GA1001+999999999GF100991001001999999001001MA1999999100151MD1810011+9999MW1101REMSYN076AAXX  01184 47112 31930 00000 10241 20216 30015 40093 58001 71000 333 92022;EQDQ01  00002PRCP99
0201471120999992000080121004+37480+126630FM-12+007099999V0209999C000012200019N0050001N1+02301+02201100981ADDAA199000091AY101031AY201031GA1001+999999999GF100991001001999999001001MA1999999100201MD1210051+9999MW1101REMSYN066AAXX  01214 47112 31950 03400 10230 20220 30020 40098 52005 71000;EQDQ01  00002PRCP99
0254471120999992000080200004+37480+126630FM-12+007099999V0203601N000512200019N0070001N1+02781+02411101041ADDAA199000091AY101061AY201061GA1001+999999999GF100991001001999999001001IA1019IA2999+02909KA1120N+02301MA1999999100271MD1810071+9999MW1101REMSYN088AAXX  02004 47112 31957 03601 10278 20241 30027 40104 58007 71000 333 20230 30029 92011;EQDQ01  00002PRCP99
0163471120999992000080203004+37480+126630FM-12+007099999V0203601N001512200019N0140001N1+03181+02281100941ADDAA199000091GF103991031051008001001001MA1999999100181MD1710091+9999REMSYN066AAXX  02034 47112 32564 33603 10318 20228 30018 40094 57009 83500;EQDQ01  00002PRCP99
0173471120999992000080206004+37480+126630FM-12+007099999V0200501N001012200019N0150001N1+03151+02071100731ADDAA199000091GF104991041011008001001001MA1999999099981MD1710201+9999REMSYN076AAXX  02064 47112 32565 40502 10315 20207 39998 40073 57020 84100 333 92011;EQDQ01  00002PRCP99
0163471120999992000080209004+37480+126630FM-12+007099999V0203201N002112200019N0160001N1+02931+02261100701ADDAA199000091GF106991021051008001001011MA1999999099941MD1710041+9999REMSYN066AAXX  02094 47112 32566 63204 10293 20226 39994 40070 57004 82501;EQDQ01  00002PRCP99
0222471120999992000080212004+37480+126630FM-12+007099999V0200201N000512200019N0120001N1+02741+02281100851ADDAA199000091GF103991031051008001001001IA1019IA2999+02609KA1120M+03341MA1999999100091MD1210151+9999REMSYN094AAXX  02124 47112 32562 30201 10274 20228 30009 40085 52015 83500 333 10334 30026 55055 92011;EQDQ01  00002PRCP99
0163471120999992000080215004+37480+126630FM-12+007099999V0201601N003112200019N0130001N1+02741+02181100951ADDAA199000091GF102991021051008001001001MA1999999100181MD1210091+9999REMSYN066AAXX  02154 47112 32563 21606 10274 20218 30018 40095 52009 82500;EQDQ01  00002PRCP99
0183471120999992000080218004+37480+126630FM-12+007099999V0203601N000512200019N0120001N1+02511+02201100981ADDAA199000091GA1001+999999999GF100991001001999999001001MA1999999100211MD1810031+9999REMSYN070AAXX  02184 47112 32962 03601 10251 20220 30021 40098 58003 333 92011;EQDQ01  00002PRCP99
0163471120999992000080221004+37480+126630FM-12+007099999V0200701N001512200019N0180001N1+02481+01861101031ADDAA199000091GF101991011051008001001001MA1999999100251MD1010041+9999REMSYN066AAXX  02214 47112 32568 10703 10248 20186 30025 40103 50004 81500;EQDQ01  00002PRCP99
0216471120999992000080300004+37480+126630FM-12+007099999V0200501N001012200019N0180001N1+02931+01911101091ADDAA199000091GF102991001001999999001011IA1019IA2999+03009KA1120N+02411MA1999999100331MD1210081+9999REMSYN088AAXX  03004 47112 32968 20502 10293 20191 30033 40109 52008 80001 333 20241 30030 92011;EQDQ01  00002PRCP99
0163471120999992000080303004+37480+126630FM-12+007099999V0201601N002610900019N0180001N1+03271+02091101051ADDAA199000091GF105991031011008001001021MA1999999100301MD1710031+9999REMSYN066AAXX  03034 47112 32568 51605 10327 20209 30030 40105 57003 83102;EQDQ01  00002PRCP99
0173471120999992000080306004+37480+126630FM-12+007099999V0201401N003119999999N0200001N1+03181+02111101001ADDAA199000091GF106991031081999999031001MA1999999100251MD1810051+9999REMSYN076AAXX  03064 47112 32970 61406 10318 20211 30025 40100 58005 83830 333 92011;EQDQ01  00002PRCP99
0163471120999992000080309004+37480+126630FM-12+007099999V0201401N003110900019N0200001N1+03091+02101100951ADDAA199000091GF105991021011008001001021MA1999999100191MD1810061+9999REMSYN066AAXX  03094 47112 32570 51406 10309 20210 30019 40095 58006 82102;EQDQ01  00002PRCP99
0216471120999992000080312004+37480+126630FM-12+007099999V0201601N003610360019N0250001N1+02891+02181101071ADDAA199000091GF106991031051008001041001IA1019IA2999+02809KA1120M+03371MA1999999100301MD1210111+9999REMSYN088AAXX  03124 47112 32575 61607 10289 20218 30030 40107 52011 83540 333 10337 30028 92011;EQDQ01  00002PRCP99
0163471120999992000080315004+37480+126630FM-12+007099999V0201401N003110360019N0250001N1+02771+02211101121ADDAA199000091GF107991041051008001031001MA1999999100361MD1210061+9999REMSYN066AAXX  03154 47112 32575 71406 10277 20221 30036 40112 52006 84530;EQDQ01  00002PRCP99
0171471120999992000080318004+37480+126630FM-12+007099999V0200901N002110075019N0220001N1+02501+02281101111ADDAY161061AY221061GF108991051051008001021999MA1999999100341MD1710021+9999MW1601REMSYN082AAXX  03184 47112 41572 80904 10250 20228 30034 40111 57002 76062 8552/ 333 92011;
0133471120999992000080321004+37480+126630FM-12+007099999V0200701N001510360019N0200001N1+02531+02211101171ADDGF106991041051008001041001MA1999999100391MD1010051+9999REMSYN066AAXX  03214 47112 42570 60703 10253 20221 30039 40117 50005 84540;
0209471120999992000080400004+37480+126630FM-12+007099999V0201101N002610075019N0200001N1+02541+02241101231ADDAA112000191GF108991061051008001021999IA1099IA2999+02609KA1120N+02501MA1999999100461MD1210071+9999REMSYN100AAXX  04004 47112 12570 81105 10254 20224 30046 40123 52007 69922 8652/ 333 20250 31026 70002 92011;
0161471120999992000080403004+37480+126630FM-12+007099999V0200901N003610075019N0170001N1+02801+02321101151ADDAY161031AY221031GF106991061051008001001001MA1999999100381MD1510081+9999MW1211REMSYN072AAXX  04034 47112 41567 60907 10280 20232 30038 40115 55008 72162 86500;
0143471120999992000080406004+37480+126630FM-12+007099999V0201401N003610120019N0200001N1+02981+02321101041ADDGF107991071081008001001001MA1999999100271MD1710111+9999REMSYN076AAXX  04064 47112 42570 71407 10298 20232 30027 40104 57011 87800 333 92011;
0161471120999992000080409004+37480+126630FM-12+007099999V0201401N003610075019N0060001N1+02461+02361101111ADDAY161031AY221031GF108991061071008001021999MA1999999100341MD1210071+9999MW1611REMSYN072AAXX  04094 47112 41556 81407 10246 20236 30034 40111 52007 76162 8672/;
0243471120999992000080412004+37480+126630FM-12+007099999V0201401N003610075019N0035001N1+02401+02341101201ADDAA112007991AY161061AY261061GF108991061071008001021999IA1099IA2999+02409KA1120M+03111MA1999999100421MD1210081+9999MW1611REMSYN112AAXX  04124 47112 11535 81407 10240 20234 30042 40120 52008 60082 76166 8672/ 333 10311 31024 55015 70079 92022;
0161471120999992000080415004+37480+126630FM-12+007099999V0201601N003110075019N0050001N1+02491+02311101271ADDAY121031AY221031GF108991061051008001021999MA1999999100501MD1210081+9999MW1101REMSYN072AAXX  04154 47112 41550 81606 10249 20231 30050 40127 52008 71022 8652/;
0112471120999992000080418004+37480+126630FM-12+007099999V0201801N002119999999N9999999N1+02481+02331101301ADDAA199000021MA1999999100521MD1810021+9999REMSYN060AAXX  04184 47112 3//// /1804 10248 20233 30052 40130 58002;
0161471120999992000080421004+37480+126630FM-12+007099999V0201801N001510075019N0030001N1+02451+02381101371ADDAY161031AY261031GF108991061071008001021999MA1999999100591MD1210071+9999MW1611REMSYN072AAXX  04214 47112 41530 81803 10245 20238 30059 40137 52007 76166 8672/;
0237471120999992000080500004+37480+126630FM-12+007099999V0201801N003110042019N0015001N1+02471+02391101441ADDAA112008991AY161061AY221061GF108991061071004501021999IA1119IA2999+02509KA1120N+02441MA1999999100661MD1810071+9999MW1811REMSYN106AAXX  05004 47112 11415 81806 10247 20239 30066 40144 58007 60092 78162 8672/ 333 20244 32025 70170 92022;
0180471120999992000080503004+37480+126630FM-12+007099999V0202301N001519999999N0180001N1+02821+02521101391ADDAY161031AY221031GF107991999021008001001001MA1999999100621MD1810041+9999MW1211REMSYN072AAXX  05034 47112 41568 72303 10282 20252 30062 40139 58004 72162 82200;EQDQ01+000022SCOTLC
0143471120999992000080506004+37480+126630FM-12+007099999V0202501N003610120019N0180001N1+02791+02371101361ADDGF107991071081008001001001MA1999999100591MD1710031+9999REMSYN076AAXX  05064 47112 42568 72507 10279 20237 30059 40136 57003 87800 333 92011;
0144471120999992000080509004+37480+126630FM-12+007099999V0202501N003110360019N0180001N1+02841+02331101371ADDAA199000021GF107991041051008001031001MA1999999100601MD1010011+9999REMSYN066AAXX  05094 47112 32568 72506 10284 20233 30060 40137 50001 84530;
0215471120999992000080512004+37480+126630FM-12+007099999V0202501N002610075019N0150001N1+02701+02341101391ADDAA112008991GF106991061051008001001001IA1099IA2999+02609KA1120M+03001MA1999999100621MD1810021+9999REMSYN106AAXX  05124 47112 12565 62505 10270 20234 30062 40139 58002 60092 86500 333 10300 31026 55012 70182 92011;
0180471120999992000080515004+37480+126630FM-12+007099999V0200201N001010075019N0120001N1+02571+02411101401ADDAY161031AY221031GF108991061051008001011999MA1999999100621MD1810011+9999MW1211REMSYN072AAXX  05154 47112 41562 80202 10257 20241 30062 40140 58000 72162 8651/;EQDQ01+000002APC3  
0171471120999992000080518004+37480+126630FM-12+007099999V0200701N001510075019N0050001N1+02531+02451101381ADDAY161061AY221061GF108991061071008001021999MA1999999100601MD1510021+9999MW1611REMSYN082AAXX  05184 47112 41550 80703 10253 20245 30060 40138 55002 76162 8672/ 333 92011;
0161471120999992000080521004+37480+126630FM-12+007099999V0209999C000010075019N0080001N1+02481+02391101351ADDAY161031AY221031GF108991061051008001021999MA1999999100571MD1810031+9999MW1601REMSYN072AAXX  05214 47112 41558 80000 10248 20239 30057 40135 58003 76062 8652/;
0237471120999992000080600004+37480+126630FM-12+007099999V0200701N001510075019N0050001N1+02531+02421101361ADDAA112002091AY161061AY261061GF108991061071008001021999IA1099IA2999+02509KA1120N+02471MA1999999100581MD1310011+9999MW1611REMSYN106AAXX  06004 47112 11550 80703 10253 20242 30058 40136 53001 60022 76166 8672/ 333 20247 31025 70105 92022;
0161471120999992000080603004+37480+126630FM-12+007099999V0200901N002110075019N0030001N1+02491+02421101391ADDAY161031AY261031GF108991061071008001021999MA1999999100611MD1310031+9999MW1611REMSYN072AAXX  06034 47112 41530 80904 10249 20242 30061 40139 53003 76166 8672/;
0171471120999992000080606004+37480+126630FM-12+007099999V0201101N001510360019N0050001N1+02691+02411101281ADDAY161061AY261061GF108991041051008001021999MA1999999100511MD1810101+9999MW1211REMSYN082AAXX  06064 47112 41550 81103 10269 20241 30051 40128 58010 72166 8452/ 333 92022;
0144471120999992000080609004+37480+126630FM-12+007099999V0201101N001510360019N0120001N1+02651+02391101171ADDAA199000021GF107991031051012501031001MA1999999100401MD1810111+9999REMSYN066AAXX  06094 47112 32662 71103 10265 20239 30040 40117 58011 83530;
0209471120999992000080612004+37480+126630FM-12+007099999V0200901N001010120019N0120001N1+02591+02351101251ADDAA112010991GF108991051051012501021999IA1099IA2999+02509KA1120M+02701MA1999999100471MD1210071+9999REMSYN100AAXX  06124 47112 12662 80902 10259 20235 30047 40125 52007 60112 8552/ 333 10270 31025 55000 70123;
0161471120999992000080615004+37480+126630FM-12+007099999V0201101N001510360019N0080001N1+02461+02361101231ADDAY161031AY221031GF107991031051008001031001MA1999999100451MD1710031+9999MW1211REMSYN072AAXX  06154 47112 41558 71103 10246 20236 30045 40123 57003 72162 83530;
0172471120999992000080618004+37480+126630FM-12+007099999V0200501N001010075019N0090001N1+02441+02361101231ADDAA199000021AY121061AY221061GF107991071051008001001001MA1999999100451MD1410001+9999MW1101REMSYN072AAXX  06184 47112 31559 70502 10244 20236 30045 40123 54000 71022 87500;
0133471120999992000080621004+37480+126630FM-12+007099999V0201401N001510075019N0120001N1+02411+02341101201ADDGF107991071051008001001001MA1999999100421MD1210011+9999REMSYN066AAXX  06214 47112 42562 71403 10241 20234 30042 40120 52001 87500;
0209471120999992000080700004+37480+126630FM-12+007099999V0201601N000510075019N0100001N1+02731+02451101281ADDAA106002091GF108991051051008001011999IA1099IA2999+02709KA1120N+02401MA1999999100511MD1210091+9999REMSYN100AAXX  07004 47112 12560 81601 10273 20245 30051 40128 52009 60021 8551/ 333 20240 31027 70127 92011;
0172471120999992000080703004+37480+126630FM-12+007099999V0202001N003610075019N0080001N1+02871+02371101241ADDAA199000021AY121031AY221031GF106991051051008001011001MA1999999100471MD1610041+9999MW1101REMSYN072AAXX  07034 47112 31558 62007 10287 20237 30047 40124 56004 71022 85510;
0173471120999992000080706004+37480+126630FM-12+007099999V0202701N004110120019N0120001N1+02841+02431101181ADDAA199000091GF107991051081008001031001MA1999999100421MD1810051+9999REMSYN076AAXX  07064 47112 32562 72708 10284 20243 30042 40118 58005 85830 333 92011;EQDQ01  00002PRCP99
0163471120999992000080709004+37480+126630FM-12+007099999V0203401N001510360019N0120001N1+02701+02451101131ADDAA199000091GF106991031051008001031001MA1999999100361MD1510061+9999REMSYN066AAXX  07094 47112 32562 63403 10270 20245 30036 40113 55006 83530;EQDQ01  00002PRCP99
0209471120999992000080712004+37480+126630FM-12+007099999V0201101N001512200019N0150001N1+02601+02391101231ADDAA124002091GF102991021051008001001001IA1099IA2999+02609KA1120M+03071MA1999999100451MD1210091+9999REMSYN100AAXX  07124 47112 32565 21103 10260 20239 30045 40123 52009 82500 333 10307 31026 55026 70021 92022;
0191471120999992000080715004+37480+126630FM-12+007099999V0203601N001010075019N0050001N1+02561+02411101271ADDAA199000091AY121031AY221031GF106991061051008001001001MA1999999100501MD1210051+9999MW1101REMSYN072AAXX  07154 47112 31550 63602 10256 20241 30050 40127 52005 71022 86500;EQDQ01  00002PRCP99
0201471120999992000080718004+37480+126630FM-12+007099999V0203401N001010360019N0030001N1+02491+02401101251ADDAA199000091AY121061AY221061GF106991021051008001041001MA1999999100471MD1810031+9999MW1101REMSYN082AAXX  07184 47112 31530 63402 10249 20240 30047 40125 58003 71022 82540 333 92022;EQDQ01  00002PRCP99
0191471120999992000080721004+37480+126630FM-12+007099999V0200701N001010360019N0015001N1+02451+02341101271ADDAA199000091AY121031AY221031GF106991021051008001011001MA1999999100491MD1810021+9999MW1101REMSYN072AAXX  07214 47112 31515 60702 10245 20234 30049 40127 58002 71022 82510;EQDQ01  00002PRCP99
0217471120999992000080800004+37480+126630FM-12+007099999V0200901N000510075019N0015001N1+02591+02381101321ADDAA112000191AY121061AY221061GF108991051051008001021999IA1099IA2999+02609KA1120N+02441MA1999999100551MW1101REMSYN100AAXX  08004 47112 11515 80901 10259 20238 30055 40132 69912 71022 8552/ 333 20244 31026 70001 92000;
0161471120999992000080803004+37480+126630FM-12+007099999V0203201N002110075019N0070001N1+02881+02571101301ADDAY121031AY221031GF107991071051008001001001MA1999999100531MD1510041+9999MW1101REMSYN072AAXX  08034 47112 42557 73204 10288 20257 30053 40130 55004 71022 87500;
0201471120999992000080806004+37480+126630FM-12+007099999V0203401N002112200019N0080001N1+03121+02541101161ADDAA199000091AY111061AY211061GF103991011081008001031001MA1999999100401MD1710131+9999MW1101REMSYN082AAXX  08064 47112 31558 33404 10312 20254 30040 40116 57013 71011 81830 333 92011;EQDQ01  00002PRCP99
0133471120999992000080809004+37480+126630FM-12+007099999V0203401N001512200019N0180001N1+03021+02381101121ADDGF104991021051008001001011MA1999999100351MD1710051+9999REMSYN066AAXX  08094 47112 42568 43403 10302 20238 30035 40112 57005 82501;
0215471120999992000080812004+37480+126630FM-12+007099999V0203401N001012200019N0150001N1+02691+02471101211ADDAA112000791GF105991021051008001001011IA1099IA2999+02709KA1120M+03191MA1999999100441MD1210041+9999REMSYN106AAXX  08124 47112 12565 53402 10269 20247 30044 40121 52004 69902 82501 333 10319 31027 55033 70001 92011;
0163471120999992000080815004+37480+126630FM-12+007099999V0200501N001519999999N0150001N1+02611+02411101221ADDAA199000091GF105991001001999999001021MA1999999100451MD1510011+9999REMSYN066AAXX  08154 47112 32965 50503 10261 20241 30045 40122 55001 80002;EQDQ01  00002PRCP99
0173471120999992000080818004+37480+126630FM-12+007099999V0201101N001012200019N0150001N1+02571+02311101181ADDAA199000091GF102991001001999999001011MA1999999100401MD1510051+9999REMSYN076AAXX  08184 47112 32965 21102 10257 20231 30040 40118 55005 80001 333 92011;EQDQ01  00002PRCP99
0163471120999992000080821004+37480+126630FM-12+007099999V0201101N001512200019N0150001N1+02501+02231101251ADDAA199000091GF102991001001999999001011MA1999999100481MD1010081+9999REMSYN066AAXX  08214 47112 32965 21103 10250 20223 30048 40125 50008 80001;EQDQ01  00002PRCP99
0216471120999992000080900004+37480+126630FM-12+007099999V0201401N002119999999N0150001N1+02871+02251101311ADDAA199000091GF106991001001999999001011IA1019IA2999+03009KA1120N+02491MA1999999100541MD1210061+9999REMSYN088AAXX  09004 47112 32965 61404 10287 20225 30054 40131 52006 80001 333 20249 30030 92022;EQDQ01  00002PRCP99
0163471120999992000080903004+37480+126630FM-12+007099999V0201801N002110075019N0120001N1+02981+02341101171ADDAA199000091GF106991061051008001011001MA1999999100411MD1510131+9999REMSYN066AAXX  09034 47112 32562 61804 10298 20234 30041 40117 55013 86510;EQDQ01  00002PRCP99
0163471120999992000080906004+37480+126630FM-12+007099999V0202701N004612200019N0150001N1+03111+02331101041ADDAA199000091GF103991031051008001001001MA1999999100281MD1710131+9999REMSYN066AAXX  09064 47112 32565 32709 10311 20233 30028 40104 57013 83500;EQDQ01  00002PRCP99
0163471120999992000080909004+37480+126630FM-12+007099999V0203201N002619999999N0120001N1+02931+02401100981ADDAA199000091GF106991001001999999001011MA1999999100221MD1810061+9999REMSYN066AAXX  09094 47112 32962 63205 10293 20240 30022 40098 58006 80001;EQDQ01  00002PRCP99
0216471120999992000080912004+37480+126630FM-12+007099999V0203401N001519999999N0120001N1+02681+02441101061ADDAA199000091GF106991001001999999001011IA1019IA2999+02609KA1120M+03151MA1999999100291MD1210071+9999REMSYN088AAXX  09124 47112 32962 63403 10268 20244 30029 40106 52007 80001 333 10315 30026 92011;EQDQ01  00002PRCP99
0163471120999992000080915004+37480+126630FM-12+007099999V0203401N001012200019N0120001N1+02611+02381101081ADDAA199000091GF102991001001999999001011MA1999999100311MD1210021+9999REMSYN066AAXX  09154 47112 32962 23402 10261 20238 30031 40108 52002 80001;EQDQ01  00002PRCP99
0201471120999992000080918004+37480+126630FM-12+007099999V0200901N001012200019N0030001N1+02581+02381101041ADDAA199000091AY101061AY201061GA1001+999999999GF100991001001999999001001MA1999999100271MD1710041+9999MW1101REMSYN066AAXX  09184 47112 31930 00902 10258 20238 30027 40104 57004 71000;EQDQ01  00002PRCP99
0191471120999992000080921004+37480+126630FM-12+007099999V0201101N001012200019N0015001N1+02521+02401101021ADDAA199000091AY101031AY201031GF102991021051012501001001MA1999999100251MD1510021+9999MW1101REMSYN072AAXX  09214 47112 31615 21102 10252 20240 30025 40102 55002 71000 82500;EQDQ01  00002PRCP99
0163471120999992000081003004+37480+126630FM-12+007099999V0202301N004112200019N0120001N1+03031+02401101031ADDAA199000091GF103991021011999999001011MA1999999100271MD1510031+9999REMSYN066AAXX  10034 47112 32962 32308 10303 20240 30027 40103 55003 82101;EQDQ01  00002PRCP99
0173471120999992000081006004+37480+126630FM-12+007099999V0202501N004119999999N0200001N1+03201+02171100921ADDAA199000091GF106991021001999999031091MA1999999100171MD1710101+9999REMSYN076AAXX  10064 47112 32970 62508 10320 20217 30017 40092 57010 82039 333 92011;EQDQ01  00002PRCP99
0163471120999992000081009004+37480+126630FM-12+007099999V0202901N003119999999N0180001N1+02961+02341100871ADDAA199000091GF106991021001999999031091MA1999999100111MD1710061+9999REMSYN066AAXX  10094 47112 32968 62906 10296 20234 30011 40087 57006 82039;EQDQ01  00002PRCP99
0222471120999992000081012004+37480+126630FM-12+007099999V0203601N000512200019N0180001N1+02661+02281100911ADDAA199000091GF102991001001999999001011IA1019IA2999+02609KA1120M+03271MA1999999100141MD1110031+9999REMSYN094AAXX  10124 47112 32968 23601 10266 20228 30014 40091 51003 80001 333 10327 30026 55078 92022;EQDQ01  00002PRCP99
0143471120999992000081015004+37480+126630FM-12+007099999V0203601N001012200019N0150001N1+02651+02251100901ADDAA199000091GF104991001001999999001011MA1999999100131REMSYN060AAXX  10154 47112 32965 43602 10265 20225 30013 40090 80001;EQDQ01  00002PRCP99
0153471120999992000081018004+37480+126630FM-12+007099999V0202701N001010075019N0120001N1+02651+02321100901ADDAA199000091GF106991061051008001001001MA1999999100131REMSYN070AAXX  10184 47112 32562 62702 10265 20232 30013 40090 86500 333 92022;EQDQ01  00002PRCP99
0207471120999992000081021004+37480+126630FM-12+007099999V0202001N001510075019N0080001N1+02591+02441100901ADDAA199000091AY111031AY211031GF105991051051008001031001MA1999999100131MD1410001+9999MW1101REMSYN072AAXX  10214 47112 31558 52003 10259 20244 30013 40090 58000 71011 85530;EQDQ01+000082APCTENQ02  00002PRCP99
0216471120999992000081100004+37480+126630FM-12+007099999V0202301N003110360019N0170001N1+02951+02411100961ADDAA199000091GF106991021051012501031001IA1019IA2999+03309KA1120N+02591MA1999999100201MD1210071+9999REMSYN088AAXX  11004 47112 32667 62306 10295 20241 30020 40096 52007 82530 333 20259 30033 92022;EQDQ01  00002PRCP99
0163471120999992000081103004+37480+126630FM-12+007099999V0202301N003612200019N0190001N1+03081+02461100931ADDAA199000091GF102991011011999999001011MA1999999100171MD1710031+9999REMSYN066AAXX  11034 47112 32969 22307 10308 20246 30017 40093 57003 81101;EQDQ01  00002PRCP99
0173471120999992000081106004+37480+126630FM-12+007099999V0202701N005112200019N0220001N1+03061+02351100861ADDAA199000091GF102991011011008001001011MA1999999100101MD1710071+9999REMSYN076AAXX  11064 47112 32572 22710 10306 20235 30010 40086 57007 81101 333 92033;EQDQ01  00002PRCP99
0232471120999992000081112004+37480+126630FM-12+007099999V0203201N003112200019N0120001N1+02611+02391100931ADDAA199000091GA1001+999999999GF100991001001999999001001IA1019IA2999+02609KA1120M+03191MA1999999100161MD1210141+9999REMSYN088AAXX  11124 47112 32962 03206 10261 20239 30016 40093 52014 333 10319 30026 55114 92011;EQDQ01  00002PRCP99
0173471120999992000081115004+37480+126630FM-12+007099999V0203401N001512200019N0120001N1+02531+02441100901ADDAA199000091GA1001+999999999GF100991001001999999001001MA1999999100131MD1810031+9999REMSYN060AAXX  11154 47112 32962 03403 10253 20244 30013 40090 58003;EQDQ01  00002PRCP99
0173471120999992000081118004+37480+126630FM-12+007099999V0203601N000512200019N0150001N1+02481+02421100881ADDAA199000091GF102991021051008001001001MA1999999100111MD1310021+9999REMSYN076AAXX  11184 47112 32565 23601 10248 20242 30011 40088 53002 82500 333 92011;EQDQ01  00002PRCP99
0163471120999992000081121004+37480+126630FM-12+007099999V0203401N000512200019N0120001N1+02501+02431100871ADDAA199000091GF103991021051008001031001MA1999999100101MD1010011+9999REMSYN066AAXX  11214 47112 32562 33401 10250 20243 30010 40087 50001 82530;EQDQ01  00002PRCP99
0163471120999992000081203004+37480+126630FM-12+007099999V0203201N003112200019N0150001N1+03081+02431100821ADDAA199000091GF103991031021008001001001MA1999999100061MD1710101+9999REMSYN066AAXX  12034 47112 32565 33206 10308 20243 30006 40082 57010 83200;EQDQ01  00002PRCP99
0183471120999992000081206004+37480+126630FM-12+007099999V0203201N004112200019N0220001N1+03281+02411100631ADDAA199000091GA1001+999999999GF100991001001999999001001MA1999999099881MD1710181+9999REMSYN070AAXX  12064 47112 32972 03208 10328 20241 39988 40063 57018 333 92022;EQDQ01  00002PRCP99
0163471120999992000081209004+37480+126630FM-12+007099999V0203201N004112200019N0180001N1+03001+02331100561ADDAA199000091GF102991001001999999001011MA1999999099801MD1710081+9999REMSYN066AAXX  12094 47112 32968 23208 10300 20233 39980 40056 57008 80001;EQDQ01  00002PRCP99
0216471120999992000081212004+37480+126630FM-12+007099999V0203401N001512200019N0220001N1+02691+02451100671ADDAA199000091GF104991041051999999001001IA1019IA2999+02709KA1120M+03321MA1999999099901MD1210101+9999REMSYN088AAXX  12124 47112 32972 43403 10269 20245 39990 40067 52010 84500 333 10332 30027 92022;EQDQ01  00002PRCP99
0173471120999992000081215004+37480+126630FM-12+007099999V0200201N000512200019N0180001N1+02681+02471100691ADDAA199000091GA1001+999999999GF100991001001999999001001MA1999999099921MD1310021+9999REMSYN060AAXX  12154 47112 32968 00201 10268 20247 39992 40069 53002;EQDQ01  00002PRCP99
0173471120999992000081218004+37480+126630FM-12+007099999V0203601N000512200019N0150001N1+02591+02321100671ADDAA199000091GF102991001001999999001011MA1999999099901MD1810021+9999REMSYN076AAXX  12184 47112 32965 23601 10259 20232 39990 40067 58002 80001 333 92011;EQDQ01  00002PRCP99
0163471120999992000081221004+37480+126630FM-12+007099999V0200501N001512200019N0180001N1+02481+02231100731ADDAA199000091GF104991001001999999001011MA1999999099961MD1210061+9999REMSYN066AAXX  12214 47112 32968 40503 10248 20223 39996 40073 52006 80001;EQDQ01  00002PRCP99
0216471120999992000081300004+37480+126630FM-12+007099999V0201101N001512200019N0200001N1+02941+02171100821ADDAA199000091GF103991021001999999031011IA1019IA2999+03009KA1120N+02471MA1999999100061MD1210101+9999REMSYN088AAXX  13004 47112 32970 31103 10294 20217 30006 40082 52010 82031 333 20247 30030 92011;EQDQ01  00002PRCP99
0163471120999992000081303004+37480+126630FM-12+007099999V0202701N000510120019N0180001N1+03191+02311100701ADDAA199000091GF105991051081008001001001MA1999999099951MD1510111+9999REMSYN066AAXX  13034 47112 32568 52701 10319 20231 39995 40070 55011 85800;EQDQ01  00002PRCP99
0173471120999992000081306004+37480+126630FM-12+007099999V0202701N003112200019N0170001N1+03251+02351100571ADDAA199000091GF102991021011008001001001MA1999999099821MD1710131+9999REMSYN076AAXX  13064 47112 32567 22706 10325 20235 39982 40057 57013 82100 333 92011;EQDQ01  00002PRCP99
0163471120999992000081309004+37480+126630FM-12+007099999V0203401N001512200019N0150001N1+03071+02381100511ADDAA199000091GF102991021051008001001001MA1999999099751MD1710071+9999REMSYN066AAXX  13094 47112 32565 23403 10307 20238 39975 40051 57007 82500;EQDQ01  00002PRCP99
0232471120999992000081312004+37480+126630FM-12+007099999V0203201N001012200019N0150001N1+02811+02321100651ADDAA199000091GA1001+999999999GF100991001001999999001001IA1019IA2999+02709KA1120M+03301MA1999999099881MD1210131+9999REMSYN088AAXX  13124 47112 32965 03202 10281 20232 39988 40065 52013 333 10330 30027 55090 92022;EQDQ01  00002PRCP99
0173471120999992000081315004+37480+126630FM-12+007099999V0202501N002112200019N0120001N1+02571+02401100711ADDAA199000091GA1001+999999999GF100991001001999999001001MA1999999099941MD1210061+9999REMSYN060AAXX  13154 47112 32962 02504 10257 20240 39994 40071 52006;EQDQ01  00002PRCP99
0201471120999992000081318004+37480+126630FM-12+007099999V0202001N002612200019N0030001N1+02541+02461100681ADDAA199000091AY121061AY221061GF104991041051008001001001MA1999999099911MD1510031+9999MW1101REMSYN082AAXX  13184 47112 31530 42005 10254 20246 39991 40068 55003 71022 84500 333 92022;EQDQ01  00002PRCP99
0191471120999992000081321004+37480+126630FM-12+007099999V0202001N002610075019N0030001N1+02521+02431100691ADDAA199000091AY121031AY221031GF107991071051008001001001MA1999999099921MD1110011+9999MW1101REMSYN072AAXX  13214 47112 31530 72005 10252 20243 39992 40069 51001 71022 87500;EQDQ01  00002PRCP99
0244471120999992000081400004+37480+126630FM-12+007099999V0202001N003610075019N0070001N1+02721+02441100681ADDAA199000091AY121061AY221061GF106991061021008001001001IA1019IA2999+02909KA1120N+02491MA1999999099911MD1810011+9999MW1101REMSYN094AAXX  14004 47112 31557 62007 10272 20244 39991 40068 58001 71022 86200 333 20249 30029 92033;EQDQ01  00002PRCP99
0195471120999992000081403004+37480+126630FM-12+007099999V0202301N003612200019N0180001N1+03051+02521100671ADDAA199000091GF101991011021008001001001MA1999999099911MD1710011+9999REMSYN066AAXX  14034 47112 32568 12307 10305 20252 39991 40067 53000 81200;EQDQ01+000032APCTENQ02+000002APC3  Q03  00002PRCP99
0173471120999992000081406004+37480+126630FM-12+007099999V0202501N004612200019N0220001N1+03091+02351100581ADDAA199000091GF101991011021999999001001MA1999999099821MD1710091+9999REMSYN076AAXX  14064 47112 32972 12509 10309 20235 39982 40058 57009 81200 333 92033;EQDQ01  00002PRCP99
0173471120999992000081409004+37480+126630FM-12+007099999V0202501N005112200019N0220001N1+02871+02301100511ADDAA199000091GA1001+999999999GF100991001001999999001001MA1999999099751MD1710071+9999REMSYN060AAXX  14094 47112 32972 02510 10287 20230 39975 40051 57007;EQDQ01  00002PRCP99
0222471120999992000081412004+37480+126630FM-12+007099999V0202301N003112200019N0200001N1+02591+02411100641ADDAA199000091GF101991011051008001001001IA1019IA2999+02609KA1120M+03131MA1999999099871MD1210121+9999REMSYN094AAXX  14124 47112 32570 12306 10259 20241 39987 40064 52012 81500 333 10313 30026 55091 92011;EQDQ01  00002PRCP99
0163471120999992000081415004+37480+126630FM-12+007099999V0202301N002610360019N0180001N1+02611+02401100701ADDAA199000091GF106991021051008001031001MA1999999099941MD1210071+9999REMSYN066AAXX  14154 47112 32568 62305 10261 20240 39994 40070 52007 82530;EQDQ01  00002PRCP99
0173471120999992000081418004+37480+126630FM-12+007099999V0201601N001510075019N0180001N1+02621+02331100591ADDAA199000091GF106991061051008001001001MA1999999099821MD1710121+9999REMSYN076AAXX  14184 47112 32568 61603 10262 20233 39982 40059 57012 86500 333 92011;EQDQ01  00002PRCP99
0216471120999992000081500004+37480+126630FM-12+007099999V0202001N003610075019N0120001N1+02891+02461100631ADDAA199000091GF106991061051008001001001IA1019IA2999+03009KA1120N+02571MA1999999099861MD1210081+9999REMSYN088AAXX  15004 47112 32562 62007 10289 20246 39986 40063 52008 86500 333 20257 30030 92022;EQDQ01  00002PRCP99
0163471120999992000081503004+37480+126630FM-12+007099999V0202301N004112200019N0120001N1+03061+02511100591ADDAA199000091GF103991031051008001001001MA1999999099831MD1310031+9999REMSYN066AAXX  15034 47112 32562 32308 10306 20251 39983 40059 53003 83500;EQDQ01  00002PRCP99
0163471120999992000081506004+37480+126630FM-12+007099999V0202501N005712200019N0150001N1+03081+02391100501ADDAA199000091GF102991021051008001001001MA1999999099751MD1710081+9999REMSYN066AAXX  15064 47112 32565 22511 10308 20239 39975 40050 57008 82500;EQDQ01  00002PRCP99
0173471120999992000081509004+37480+126630FM-12+007099999V0202701N003612200019N0150001N1+02941+02291100401ADDAA199000091GA1001+999999999GF100991001001999999001001MA1999999099641MD1810111+9999REMSYN060AAXX  15094 47112 32965 02707 10294 20229 39964 40040 58011;EQDQ01  00002PRCP99
0226471120999992000081512004+37480+126630FM-12+007099999V0203201N002112200019N0180001N1+02671+02441100481ADDAA199000091GA1001+999999999GF100991001001999999001001IA1019IA2999+02609KA1120M+03211MA1999999099711MD1010071+9999REMSYN082AAXX  15124 47112 32968 03204 10267 20244 39971 40048 50007 333 10321 30026 92022;EQDQ01  00002PRCP99
0173471120999992000081515004+37480+126630FM-12+007099999V0209999C000012200019N0150001N1+02631+02391100501ADDAA199000091GA1001+999999999GF100991001001999999001001MA1999999099731MD1010021+9999REMSYN060AAXX  15154 47112 32965 00000 10263 20239 39973 40050 50002;EQDQ01  00002PRCP99
0191471120999992000081521004+37480+126630FM-12+007099999V0201101N001012200019N0070001N1+02561+02411100401ADDAA199000091AY111031AY211031GF102991001001999999001011MA1999999099631MD1810051+9999MW1101REMSYN072AAXX  15214 47112 31957 21102 10256 20241 39963 40040 58005 71011 80001;EQDQ01  00002PRCP99
0244471120999992000081600004+37480+126630FM-12+007099999V0209999C000010075019N0060001N1+02801+02441100461ADDAA199000091AY121061AY221061GF108991061051008001011999IA1019IA2999+02809KA1120N+02531MA1999999099701MD1210071+9999MW1101REMSYN094AAXX  16004 47112 31556 80200 10280 20244 39970 40046 52007 71022 8651/ 333 20253 30028 92011;EQDQ01  00002PRCP99
0191471120999992000081603004+37480+126630FM-12+007099999V0200201N001010120019N0090001N1+03151+02541100401ADDAA199000091AY121031AY221031GF106991061081008001001001MA1999999099641MD1510061+9999MW1101REMSYN072AAXX  16034 47112 31559 60202 10315 20254 39964 40040 55006 71022 86800;EQDQ01  00002PRCP99
0143471120999992000081606004+37480+126630FM-12+007099999V0200201N001010120019N0120001N1+03111+02411100291ADDGF106991051081008001031001MA1999999099541MD1710101+9999REMSYN076AAXX  16064 47112 42562 60202 10311 20241 39954 40029 57010 85830 333 92011;
0133471120999992000081609004+37480+126630FM-12+007099999V0203601N000510120019N0120001N1+03271+02391100231ADDGF106991051081008001031001MA1999999099481MD1710061+9999REMSYN066AAXX  16094 47112 42562 63601 10327 20239 39948 40023 57006 85830;
0215471120999992000081612004+37480+126630FM-12+007099999V0201401N001512200019N0120001N1+02841+02111100401ADDAA112000791GF103991031051008001001001IA1099IA2999+02709KA1120M+03321MA1999999099641MD1210161+9999REMSYN106AAXX  16124 47112 12562 31403 10284 20211 39964 40040 52016 69902 83500 333 10332 31027 55032 70000 92022;
0131471120999992000081615004+37480+126630FM-12+007099999V0200701N000519999999N9999999N1+02721+02201100471ADDAA199000091MA1999999099711MD1210071+9999REMSYN060AAXX  16154 47112 3//// /0701 10272 20220 39971 40047 52007;EQDQ01  00002PRCP99
0173471120999992000081618004+37480+126630FM-12+007099999V0203601N000512200019N0120001N1+02561+02281100451ADDAA199000091GF103991031001999999061001MA1999999099681MD1810031+9999REMSYN076AAXX  16184 47112 32962 33601 10256 20228 39968 40045 58003 83060 333 92022;EQDQ01  00002PRCP99
0185471120999992000081621004+37480+126630FM-12+007099999V0200201N000512200019N0080001N1+02491+02321100521ADDAA199000091AY111031AY211031GF101991999999999999999999MA1999999099751MD1210071+9999MW1101REMSYN066AAXX  16214 47112 31958 10201 10249 20232 39975 40052 52007 71011;EQDQ01  00002PRCP99
0216471120999992000081700004+37480+126630FM-12+007099999V0200501N000512200019N0130001N1+03051+02321100601ADDAA199000091GF102991001001999999001011IA1019IA2999+03209KA1120N+02471MA1999999099841MD1210091+9999REMSYN088AAXX  17004 47112 32963 20501 10305 20232 39984 40060 52009 80001 333 20247 30032 92011;EQDQ01  00002PRCP99
0163471120999992000081703004+37480+126630FM-12+007099999V0200201N001012200019N0120001N1+03321+02231100561ADDAA199000091GF102991021021008001001001MA1999999099811MD1510031+9999REMSYN066AAXX  17034 47112 32562 20202 10332 20223 39981 40056 55003 82200;EQDQ01  00002PRCP99
0163471120999992000081706004+37480+126630FM-12+007099999V0203401N003612200019N0140001N1+03411+02491100451ADDAA199000091GF103991031041008001001001MA1999999099701MD1710111+9999REMSYN066AAXX  17064 47112 32564 33407 10341 20249 39970 40045 57011 83400;EQDQ01  00002PRCP99
0163471120999992000081709004+37480+126630FM-12+007099999V0202701N002612200019N0160001N1+03031+02351100521ADDAA199000091GF102991011001999999031011MA1999999099761MD1310061+9999REMSYN066AAXX  17094 47112 32966 22705 10303 20235 39976 40052 53006 81031;EQDQ01  00002PRCP99
0226471120999992000081712004+37480+126630FM-12+007099999V0200901N002112200019N0150001N1+02901+02241100641ADDAA199000091GA1001+999999999GF100991001001999999001001IA1019IA2999+02809KA1120M+03461MA1999999099871MD1110111+9999REMSYN082AAXX  17124 47112 32965 00904 10290 20224 39987 40064 51011 333 10346 30028 92011;EQDQ01  00002PRCP99
0173471120999992000081715004+37480+126630FM-12+007099999V0200501N001512200019N0150001N1+02791+02191100701ADDAA199000091GA1001+999999999GF100991001001999999001001MA1999999099941MD1210071+9999REMSYN060AAXX  17154 47112 32965 00503 10279 20219 39994 40070 52007;EQDQ01  00002PRCP99
0173471120999992000081718004+37480+126630FM-12+007099999V0200201N000512200019N0150001N1+02581+02261100701ADDAA199000091GF103991001001999999001011MA1999999099931MD1510011+9999REMSYN076AAXX  17184 47112 32965 30201 10258 20226 39993 40070 55001 80001 333 92011;EQDQ01  00002PRCP99
0163471120999992000081721004+37480+126630FM-12+007099999V0200701N002110075019N0170001N1+02661+02161100741ADDAA199000091GF106991061051008001001001MA1999999099971MD1810041+9999REMSYN066AAXX  17214 47112 32567 60704 10266 20216 39997 40074 58004 86500;EQDQ01  00002PRCP99
0216471120999992000081800004+37480+126630FM-12+007099999V0200201N000519999999N0200001N1+02951+02251100791ADDAA199000091GF106991021001999999061021IA1019IA2999+03009KA1120N+02481MA1999999100021MD1210051+9999REMSYN088AAXX  18004 47112 32970 60201 10295 20225 30002 40079 52005 82062 333 20248 30030 92022;EQDQ01  00002PRCP99
0163471120999992000081803004+37480+126630FM-12+007099999V0201101N001510900019N0250001N1+03471+02061100711ADDAA199000091GF106991021021008001001021MA1999999099961MD1710061+9999REMSYN066AAXX  18034 47112 32575 61103 10347 20206 39996 40071 57006 82202;EQDQ01  00002PRCP99
0161471120999992000081809004+37480+126630FM-12+007099999V0200501N001010360019N0120001N1+02701+02541100541ADDAY181031AY281031GF107991041051008001011001MA1999999099781MD1710061+9999MW1251REMSYN072AAXX  18094 47112 41562 70502 10270 20254 39978 40054 57006 72588 84510;
0144471120999992000081815004+37480+126630FM-12+007099999V0201101N001510075019N0120001N1+02631+02311100681ADDAA199000021GF108991051051008001021999MA1999999099911MD1310021+9999REMSYN066AAXX  18154 47112 32562 81103 10263 20231 39991 40068 53002 8552/;
0161471120999992000081821004+37480+126630FM-12+007099999V0201401N002110075019N0060001N1+02321+02211100521ADDAY161031AY261031GF108991051071008001021999MA1999999099741MD1810021+9999MW1611REMSYN072AAXX  18214 47112 41556 81404 10232 20221 39974 40052 58002 76166 8572/;
0237471120999992000081900004+37480+126630FM-12+007099999V0201101N001510075019N0030001N1+02301+02241100571ADDAA112018091AY161061AY261061GF108991061071008001021999IA1099IA2999+02309KA1120N+02301MA1999999099791MD1810051+9999MW1631REMSYN106AAXX  19004 47112 11530 81103 10230 20224 39979 40057 58005 60182 76366 8672/ 333 20230 31023 70299 92011;
0161471120999992000081903004+37480+126630FM-12+007099999V0201101N001510075019N0100001N1+02511+02411100501ADDAY161031AY221031GF108991061051008001021999MA1999999099731MD1510061+9999MW1211REMSYN072AAXX  19034 47112 41560 81103 10251 20241 39973 40050 55006 72162 8652/;
0143471120999992000081906004+37480+126630FM-12+007099999V0200901N002110075019N0120001N1+02591+02301100401ADDGF108991061051008001021999MA1999999099631MD1710101+9999REMSYN076AAXX  19064 47112 42562 80904 10259 20230 39963 40040 57010 8652/ 333 92022;
0133471120999992000081909004+37480+126630FM-12+007099999V0200901N002110360019N0100001N1+02591+02271100341ADDGF107991041051008001011001MA1999999099581MD1710051+9999REMSYN066AAXX  19094 47112 42560 70904 10259 20227 39958 40034 57005 84510;
0243471120999992000081912004+37480+126630FM-12+007099999V0200901N002110075019N0050001N1+02521+02221100451ADDAA112019191AY161061AY261061GF107991051051008001021001IA1099IA2999+02509KA1120M+02701MA1999999099681MD1110101+9999MW1101REMSYN112AAXX  19124 47112 11550 70904 10252 20222 39968 40045 51010 60192 71066 85520 333 10270 31025 55000 70366 92022;
0161471120999992000081915004+37480+126630FM-12+007099999V0201101N002110075019N0035001N1+02461+02261100391ADDAY161031AY261031GF108991061051008001021999MA1999999099621MD1510061+9999MW1211REMSYN072AAXX  19154 47112 41535 81104 10246 20226 39962 40039 55006 72166 8652/;
0171471120999992000081918004+37480+126630FM-12+007099999V0200201N000510075019N0035001N1+02341+02281100311ADDAY161061AY261061GF108991071071008001021999MA1999999099531MD1810091+9999MW1631REMSYN082AAXX  19184 47112 41535 80201 10234 20228 39953 40031 58009 76366 8772/ 333 92022;
0161471120999992000081921004+37480+126630FM-12+007099999V0200901N003110075019N0030001N1+02271+02221100211ADDAY161031AY261031GF108991061071008001021999MA1999999099441MD1810091+9999MW1611REMSYN072AAXX  19214 47112 41530 80906 10227 20222 39944 40021 58009 76166 8672/;
0237471120999992000082000004+37480+126630FM-12+007099999V0200201N000510042019N0006001N1+02241+02191100151ADDAA112041991AY161061AY261061GF108991061071004501021999IA1119IA2999+02209KA1120N+02231MA1999999099381MD1510061+9999MW1631REMSYN106AAXX  20004 47112 11406 80201 10224 20219 39938 40015 55006 60422 76366 8672/ 333 20223 32022 70589 92011;
0101471120999992000082003004+37480+126630FM-12+007099999V0200201N001019999999N9999999N1+02251+02211099971ADDMA1999999099191MD1710191+9999REMSYN060AAXX  20034 47112 4//// /0202 10225 20221 39919 49997 57019;
0171471120999992000082006004+37480+126630FM-12+007099999V0200701N002610075019N0120001N1+02331+02281099691ADDAY161061AY221061GF108991051051008001021999MA1999999098921MD1710271+9999MW1211REMSYN082AAXX  20064 47112 41562 80705 10233 20228 39892 49969 57027 72162 8552/ 333 92022;
0161471120999992000082009004+37480+126630FM-12+007099999V0209999C000010042019N0015001N1+02271+02221099621ADDAY161031AY261031GF108991061071004501021999MA1999999098851MD1610071+9999MW1611REMSYN072AAXX  20094 47112 41415 80200 10227 20222 39885 49962 56007 76166 8672/;
0243471120999992000082012004+37480+126630FM-12+007099999V0203401N002110075019N0080001N1+02201+02161099671ADDAA112032091AY161061AY221061GF108991061071008001021999IA1099IA2999+02209KA1120M+02491MA1999999098901MD1010051+9999MW1611REMSYN112AAXX  20124 47112 11558 83404 10220 20216 39890 49967 50005 60322 76162 8672/ 333 10249 31022 55000 70741 92022;
0161471120999992000082015004+37480+126630FM-12+007099999V0202701N004110075019N0060001N1+02121+02051099781ADDAY161031AY221031GF108991061071008001021999MA1999999099001MD1210101+9999MW1601REMSYN072AAXX  20154 47112 41556 82708 10212 20205 39900 49978 52010 76062 8672/;
0171471120999992000082018004+37480+126630FM-12+007099999V0202701N007710075019N0100001N1+02111+02041099921ADDAY161061AY221061GF106991061051008001001001MA1999999099151MD1210151+9999MW1211REMSYN082AAXX  20184 47112 41560 62715 10211 20204 39915 49992 52015 72162 86500 333 92022;
0161471120999992000082021004+37480+126630FM-12+007099999V0202001N007210075019N0150001N1+02241+02011100041ADDAY161031AY221031GF106991061051008001001001MA1999999099261MD1210111+9999MW1211REMSYN072AAXX  20214 47112 41565 62014 10224 20201 39926 40004 52011 72162 86500;
0237471120999992000082100004+37480+126630FM-12+007099999V0202501N006210075019N0150001N1+02341+02101100141ADDAA112008991AY161061AY261061GF108991061051008001011999IA1099IA2999+02209KA1120N+02061MA1999999099371MD1210111+9999MW1211REMSYN106AAXX  21004 47112 11565 82512 10234 20210 39937 40014 52011 60092 72166 8651/ 333 20206 31022 70403 92033;
0133471120999992000082103004+37480+126630FM-12+007099999V0202001N005710360019N0180001N1+02501+02091100241ADDGF106991021051008001011001MA1999999099471MD1210101+9999REMSYN066AAXX  21034 47112 42568 62011 10250 20209 39947 40024 52010 82510;
0154471120999992000082106004+37480+126630FM-12+007099999V0202301N006210360019N0200001N1+02621+02201100301ADDAA199000021GF106991021051008001041021MA1999999099531MD1310061+9999REMSYN076AAXX  21064 47112 32570 62312 10262 20220 39953 40030 53006 82542 333 92022;
0144471120999992000082109004+37480+126630FM-12+007099999V0202501N005710360019N0200001N1+02521+02111100421ADDAA199000021GF106991021051008001011001MA1999999099651MD1210121+9999REMSYN066AAXX  21094 47112 32570 62511 10252 20211 39965 40042 52012 82510;
0237471120999992000082112004+37480+126630FM-12+007099999V0202501N005710120019N0180001N1+02451+02131100581ADDAA112000191AY181061AY221061GF106991061051012501001001IA1099IA2999+02409KA1120M+02711MA1999999099811MD1210161+9999MW1251REMSYN106AAXX  21124 47112 11668 62511 10245 20213 39981 40058 52016 69912 72582 86500 333 10271 31024 70088 92044;
0144471120999992000082115004+37480+126630FM-12+007099999V0202701N006210360019N0200001N1+02371+02011100721ADDAA199000021GF106991021051012501031001MA1999999099941MD1210131+9999REMSYN066AAXX  21154 47112 32670 62712 10237 20201 39994 40072 52013 82530;
0144471120999992000082118004+37480+126630FM-12+007099999V0202701N006210360019N0220001N1+02331+02011100831ADDAA199000021GF105991041051012501031001MA1999999100051MD1210111+9999REMSYN066AAXX  21184 47112 32672 52712 10233 20201 30005 40083 52011 84530;
0133471120999992000082121004+37480+126630FM-12+007099999V0202901N005112200019N0150001N1+02351+02011100961ADDGF102991011021012501031001MA1999999100191MD1210141+9999REMSYN066AAXX  21214 47112 42665 22910 10235 20201 30019 40096 52014 81230;
0219471120999992000082200004+37480+126630FM-12+007099999V0202701N005112200019N0200001N1+02581+02021101121ADDAA112000191GA1001+999999999GF100991001001999999001001IA1099IA2999+02709KA1120N+02321MA1999999100351MD1210161+9999REMSYN094AAXX  22004 47112 12970 02710 10258 20202 30035 40112 52016 69912 333 20232 31027 70002 92011;
0163471120999992000082203004+37480+126630FM-12+007099999V0202301N002612200019N0180001N1+02771+02211101201ADDAA199000091GF102991021051999999001001MA1999999100431MD1210021+9999REMSYN066AAXX  22034 47112 32968 22305 10277 20221 30043 40120 52002 82500;EQDQ01  00002PRCP99
0173471120999992000082206004+37480+126630FM-12+007099999V0202701N005712200019N0180001N1+02801+02041101251ADDAA199000091GF101991011051008001001001MA1999999100481MD1210381+9999REMSYN076AAXX  22064 47112 32568 12711 10280 20204 30048 40125 52038 81500 333 92011;EQDQ01  00002PRCP99
0163471120999992000082209004+37480+126630FM-12+007099999V0202501N005112200019N0150001N1+02681+02061101291ADDAA199000091GF101991001001999999001011MA1999999100511MD1010031+9999REMSYN066AAXX  22094 47112 32965 12510 10268 20206 30051 40129 50003 80001;EQDQ01  00002PRCP99
0225471120999992000082212004+37480+126630FM-12+007099999V0202701N005112200019N0150001N1+02491+02121101411ADDAA112000791GA1001+999999999GF100991001001999999001001IA1019IA2999+02409KA1120M+02841MA1999999100641MD1210131+9999REMSYN100AAXX  22124 47112 32965 02710 10249 20212 30064 40141 52013 69902 333 10284 30024 55115 70000 92022;
0163471120999992000082215004+37480+126630FM-12+007099999V0202501N003112200019N0120001N1+02371+02251101441ADDAA199000091GF102991021051008001001001MA1999999100661MD1310021+9999REMSYN066AAXX  22154 47112 32562 22506 10237 20225 30066 40144 53002 82500;EQDQ01  00002PRCP99
0173471120999992000082218004+37480+126630FM-12+007099999V0201801N002612200019N0100001N1+02321+02221101421ADDAA199000091GF102991021051008001001001MA1999999100631MD1510031+9999REMSYN076AAXX  22184 47112 32560 21805 10232 20222 30063 40142 55003 82500 333 92022;EQDQ01  00002PRCP99
0191471120999992000082221004+37480+126630FM-12+007099999V0201601N000512200019N0080001N1+02241+02161101471ADDAA199000091AY111031AY211031GF102991021051008001001001MA1999999100681MD1210051+9999MW1101REMSYN072AAXX  22214 47112 31558 21601 10224 20216 30068 40147 52005 71011 82500;EQDQ01  00002PRCP99
0210471120999992000082300004+37480+126630FM-12+007099999V0201601N001512200019N0100001N1+02661+02221101541ADDAA199000091GF102991021051012501001001IA1099IA2999+02709KA1120N+02221MA1999999100761MD1310081+9999REMSYN082AAXX  23004 47112 32660 21603 10266 20222 30076 40154 53008 82500 333 20222 31027;EQDQ01  00002PRCP99
0195471120999992000082303004+37480+126630FM-12+007099999V0201801N003112200019N0150001N1+02791+02091101531ADDAA199000091GF105991011051008001001011MA1999999100761MD1710011+9999REMSYN066AAXX  23034 47112 32565 51806 10279 20209 30076 40153 53000 81501;EQDQ01+000032APCTENQ02+000002APC3  Q03  00002PRCP99
0153471120999992000082306004+37480+126630FM-12+007099999V0202301N003612200019N0180001N1+02861+02061101461ADDAA199000091GF104991011051012501031011MA1999999100691REMSYN070AAXX  23064 47112 32668 42307 10286 20206 30069 40146 81531 333 92033;EQDQ01  00002PRCP99
0143471120999992000082309004+37480+126630FM-12+007099999V0201801N003110075019N0180001N1+02801+02051101341ADDAA199000091GF107991071051008001001001MA1999999100571REMSYN060AAXX  23094 47112 32568 71806 10280 20205 30057 40134 87500;EQDQ01  00002PRCP99
0237471120999992000082312004+37480+126630FM-12+007099999V0202001N002610075019N0100001N1+02621+02101101401ADDAA112000791AY161061AY221061GF108991061051008001021999IA1019IA2999+02509KA1120M+03011MA1999999100631MD1210061+9999MW1601REMSYN106AAXX  23124 47112 11560 82005 10262 20210 30063 40140 52006 69902 76062 8652/ 333 10301 30025 55010 92011;
0127471120999992000082315004+37480+126630FM-12+007099999V0202001N002619999999N0080001N1+02221+02151101431ADDGF108991999999999999999999MA1999999100651MD1210021+9999REMSYN060AAXX  23154 47112 4//58 82005 10222 20215 30065 40143 52002;
0171471120999992000082318004+37480+126630FM-12+007099999V0201801N002110075019N0080001N1+02271+02211101371ADDAY161061AY221061GF108991061071008001021999MA1999999100591MD1710061+9999MW1611REMSYN082AAXX  23184 47112 41558 81804 10227 20221 30059 40137 57006 76162 8672/ 333 92011;
0161471120999992000082321004+37480+126630FM-12+007099999V0201601N001510075019N0060001N1+02251+02201101301ADDAY161031AY221031GF108991061051008001021999MA1999999100521MD1610071+9999MW1211REMSYN072AAXX  23214 47112 41556 81603 10225 20220 30052 40130 56007 72162 8652/;
0237471120999992000082400004+37480+126630FM-12+007099999V0201601N003110075019N0035001N1+02251+02201101491ADDAA112017091AY131061AY231061GF108991061071008001021999IA1099IA2999+02309KA1120N+02221MA1999999100701MD1210181+9999MW1631REMSYN106AAXX  24004 47112 11535 81606 10225 20220 30070 40149 52018 60172 76333 8672/ 333 20222 31023 70167 92033;
0161471120999992000082403004+37480+126630FM-12+007099999V0201601N005110075019N0035001N1+02321+02271101121ADDAY161031AY261031GF108991061071008001021999MA1999999100341MD1510361+9999MW1611REMSYN072AAXX  24034 47112 41535 81610 10232 20227 30034 40112 55036 76166 8672/;
0162471120999992000082406004+37480+126630FM-12+007099999V0200501N002110075019N0150001N1+02591+02241101121ADDGF108991061051008001011999MA1999999100341MD1410001+9999REMSYN076AAXX  24064 47112 42565 80504 10259 20224 30034 40112 57000 8651/ 333 92033;EQDQ01+000072APCTEN
0152471120999992000082409004+37480+126630FM-12+007099999V0200201N000519999999N0120001N1+02491+02211101091ADDGF108991001001999999001051MA1999999100311MD1010031+9999REMSYN066AAXX  24094 47112 42562 80201 10249 20221 30031 40109 50003 80005;EQDQ01+008002SCOLCB
0209471120999992000082412004+37480+126630FM-12+007099999V0202001N003610360019N0160001N1+02401+02201101271ADDAA112004191GF108991021051008001011999IA1099IA2999+02409KA1120M+02611MA1999999100491MD1210181+9999REMSYN100AAXX  24124 47112 32566 82007 10240 20220 30049 40127 52018 60042 8251/ 333 10261 31024 70204 92022;
0161471120999992000082415004+37480+126630FM-12+007099999V0201601N003610075019N0100001N1+02261+02161101091ADDAY161031AY261031GF108991051071008001021999MA1999999100311MD1710181+9999MW1611REMSYN072AAXX  24154 47112 41560 81607 10226 20216 30031 40109 57018 76166 8572/;
0161471120999992000082418004+37480+126630FM-12+007099999V0201401N001510075019N0080001N1+02161+02101101031ADDAY161061AY261061GF108991051071008001021999MA1999999100241MD1710071+9999MW1611REMSYN072AAXX  24184 47112 41558 81403 10216 20210 30024 40103 57007 76166 8572/;
0161471120999992000082421004+37480+126630FM-12+007099999V0201101N001510075019N0020001N1+02161+02121100811ADDAY161031AY261031GF108991061071008001021999MA1999999100031MD1710211+9999MW1631REMSYN072AAXX  24214 47112 41520 81103 10216 20212 30003 40081 57021 76366 8672/;
0237471120999992000082500004+37480+126630FM-12+007099999V0201401N003110075019N0008001N1+02251+02211100681ADDAA112074991AY161061AY261061GF108991061071008001021999IA1099IA2999+02209KA1120N+02141MA1999999099901MD1710131+9999MW1631REMSYN106AAXX  25004 47112 11508 81406 10225 20221 39990 40068 57013 60752 76366 8672/ 333 20214 31022 70783 92022;
0161471120999992000082503004+37480+126630FM-12+007099999V0200201N001010075019N0008001N1+02301+02261100491ADDAY161031AY261031GF108991061071008001021999MA1999999099711MD1710191+9999MW1651REMSYN072AAXX  25034 47112 41508 80202 10230 20226 39971 40049 57019 76566 8672/;
0143471120999992000082506004+37480+126630FM-12+007099999V0203601N000510075019N0150001N1+02501+02241100521ADDGF108991061051008001021999MA1999999099751MD1210041+9999REMSYN076AAXX  25064 47112 42565 83601 10250 20224 39975 40052 52004 8652/ 333 92022;
0132471120999992000082509004+37480+126630FM-12+007099999V0202501N003119999999N0170001N1+02501+02231100611ADDGF107991999999008001999999MA1999999099841MD1210091+9999REMSYN065AAXX  25094 47112 42567 72506 10250 20223 39984 40061 52009 8550;
0243471120999992000082512004+37480+126630FM-12+007099999V0201801N003110360019N0050001N1+02371+02261100791ADDAA112063091AY121061AY221061GF106991031051008001011001IA1099IA2999+02309KA1120M+02741MA1999999100021MD1210181+9999MW1101REMSYN112AAXX  25124 47112 11550 61806 10237 20226 30002 40079 52018 60632 71022 83510 333 10274 31023 55009 71376 92022;
0161471120999992000082515004+37480+126630FM-12+007099999V0202001N003110075019N0050001N1+02331+02211100821ADDAY121031AY221031GF107991061051008001011001MA1999999100051MD1810031+9999MW1101REMSYN072AAXX  25154 47112 41550 72006 10233 20221 30005 40082 58003 71022 86510;
0171471120999992000082518004+37480+126630FM-12+007099999V0201601N001510075019N0030001N1+02271+02211100761ADDAY161061AY261061GF108991061071008001021999MA1999999099981MD1610071+9999MW1211REMSYN082AAXX  25184 47112 41530 81603 10227 20221 39998 40076 56007 72166 8672/ 333 92022;
0161471120999992000082521004+37480+126630FM-12+007099999V0201101N001510075019N0020001N1+02211+02161100801ADDAY161031AY261031GF108991061071008001021999MA1999999100021MD1210041+9999MW1601REMSYN072AAXX  25214 47112 41520 81103 10221 20216 30002 40080 52004 76066 8672/;
0209471120999992000082600004+37480+126630FM-12+007099999V0200901N002610075019N0180001N1+02291+02231100761ADDAA112004191GF108991051051008001021999IA1099IA2999+02309KA1120N+02211MA1999999099991MD1310031+9999REMSYN100AAXX  26004 47112 11568 80905 10229 20223 39999 40076 53003 60042 8552/ 333 20221 31023 70654 92022;
0171471120999992000082606004+37480+126630FM-12+007099999V0200901N002110075019N0100001N1+02281+02211100621ADDAY161061AY221061GF108991061071008001021999MA1999999099841MD1310061+9999MW1611REMSYN082AAXX  26064 47112 41560 80904 10228 20221 39984 40062 53006 76162 8672/ 333 92022;
0161471120999992000082609004+37480+126630FM-12+007099999V0201101N004610075019N0120001N1+02211+02151100471ADDAY161031AY261031GF108991061071008001021999MA1999999099691MD1810151+9999MW1611REMSYN072AAXX  26094 47112 41562 81109 10221 20215 39969 40047 58015 76166 8672/;
0243471120999992000082612004+37480+126630FM-12+007099999V0200901N002110075019N0050001N1+02221+02181100491ADDAA112039191AY161061AY261061GF108991061071008001021999IA1099IA2999+02209KA1120M+02371MA1999999099721MD1010031+9999MW1631REMSYN112AAXX  26124 47112 11550 80904 10222 20218 39972 40049 50003 60392 76366 8672/ 333 10237 31022 55000 70436 92022;
0180471120999992000082615004+37480+126630FM-12+007099999V0201601N005110075019N0050001N1+02401+02361100491ADDAY161031AY261031GF108991061071008001021999MA1999999099721MD1410001+9999MW1611REMSYN072AAXX  26154 47112 41550 81610 10240 20236 39972 40049 52000 76166 8672/;EQDQ01+000022APCTEN
0171471120999992000082618004+37480+126630FM-12+007099999V0201601N005110075019N0100001N1+02391+02351100511ADDAY161061AY221061GF108991061071008001021999MA1999999099741MD1310021+9999MW1601REMSYN082AAXX  26184 47112 41560 81610 10239 20235 39974 40051 53002 76062 8672/ 333 92022;
0161471120999992000082621004+37480+126630FM-12+007099999V0201601N004610075019N0120001N1+02391+02341100551ADDAY161031AY221031GF108991061061008001021999MA1999999099781MD1210041+9999MW1021REMSYN072AAXX  26214 47112 41562 81609 10239 20234 39978 40055 52004 70262 8662/;
0237471120999992000082700004+37480+126630FM-12+007099999V0201601N004110075019N0120001N1+02441+02361100701ADDAA112020191AY161061AY261061GF108991061071008001021999IA1099IA2999+02409KA1120N+02391MA1999999099931MD1210151+9999MW1611REMSYN106AAXX  27004 47112 11562 81608 10244 20236 39993 40070 52015 60202 76166 8672/ 333 20239 31024 70589 92022;
0133471120999992000082703004+37480+126630FM-12+007099999V0201801N004610075019N0250001N1+02531+02411100811ADDGF108991061051008001011999MA1999999100041MD1210111+9999REMSYN066AAXX  27034 47112 42575 81809 10253 20241 30004 40081 52011 8651/;
0171471120999992000082706004+37480+126630FM-12+007099999V0201801N004110075019N0250001N1+02601+02471100771ADDAY161061AY261061GF108991061051008001021999MA1999999100001MD1510041+9999MW1601REMSYN082AAXX  27064 47112 41575 81808 10260 20247 30000 40077 55004 76066 8652/ 333 92033;
0161471120999992000082709004+37480+126630FM-12+007099999V0201801N004610075019N0200001N1+02611+02481100811ADDAY161031AY261031GF108991061051008001021999MA1999999100041MD1210041+9999MW1211REMSYN072AAXX  27094 47112 41570 81809 10261 20248 30004 40081 52004 72166 8652/;
0237471120999992000082712004+37480+126630FM-12+007099999V0202501N004610042019N0009001N1+02481+02431100961ADDAA112039991AY191061AY281061GF108991061091004501021999IA1119IA2999+02409KA1120M+02721MA1999999100191MD1210151+9999MW1951REMSYN106AAXX  27124 47112 11409 82509 10248 20243 30019 40096 52015 60402 79598 8692/ 333 10272 32024 70592 92033;
0180471120999992000082715004+37480+126630FM-12+007099999V0201601N004110042019N0005001N1+02511+02451101041ADDAY191031AY281031GF108991999091004501021999MA1999999100271MD1210081+9999MW1951REMSYN072AAXX  27154 47112 41405 81608 10251 20245 30027 40104 52008 79598 8892/;EQDQ01+000082SCOTLC
0171471120999992000082718004+37480+126630FM-12+007099999V0201601N002610075019N0130001N1+02451+02401101071ADDAY191061AY281061GF108991061071008001021999MA1999999100301MD1210031+9999MW1611REMSYN082AAXX  27184 47112 41563 81605 10245 20240 30030 40107 52003 76198 8672/ 333 92022;
0201471120999992000082800004+37480+126630FM-12+007099999V0201401N003610075019N0120001N1+02481+02401101131ADDAA101014091AY161061AY221061GF108991061071008001021999KA1999N+02391MA1999999100351MD1210031+9999MW1601REMSYN088AAXX  28004 47112 11562 81407 10248 20240 30035 40113 52003 60145 76062 8672/ 333 20239;
0161471120999992000082803004+37480+126630FM-12+007099999V0202001N000510075019N0100001N1+02551+02451101281ADDAY161031AY261031GF108991061071008001021999MA1999999100511MD1810411+9999MW1611REMSYN072AAXX  28034 47112 41560 82001 10255 20245 30051 40128 58041 76166 8672/;
0143471120999992000082806004+37480+126630FM-12+007099999V0202701N003110360019N0120001N1+02981+02551101211ADDGF106991021081008001031001MA1999999100441MD1610071+9999REMSYN076AAXX  28064 47112 42562 62706 10298 20255 30044 40121 56007 82830 333 92011;
0133471120999992000082809004+37480+126630FM-12+007099999V0209999C000010360019N0120001N1+02751+02501101251ADDGF106991021051008001031001MA1999999100481MD1210041+9999REMSYN066AAXX  28094 47112 42562 60000 10275 20250 30048 40125 52004 82530;
0243471120999992000082812004+37480+126630FM-12+007099999V0209999C000012200019N0050001N1+02581+02421101271ADDAA112003091AY111061AY211061GF102991021051008001001001IA1099IA2999+02509KA1120M+02991MA1999999100491MD1210021+9999MW1101REMSYN112AAXX  28124 47112 11550 20000 10258 20242 30049 40127 52002 60032 71011 82500 333 10299 31025 55007 71182 92022;
0172471120999992000082815004+37480+126630FM-12+007099999V0209999C000010075019N0012001N1+02581+02421101271ADDAA199000021AY121031AY221031GF106991061051008001001001MA1999999100491MD1410001+9999MW1101REMSYN072AAXX  28154 47112 31512 60000 10258 20242 30049 40127 54000 71022 86500;
0201471120999992000082818004+37480+126630FM-12+007099999V0209999C000010075019N0030001N1+02421+02371101301ADDAA199000091AY121061AY221061GF106991061051008001001001MA1999999100521MD1210031+9999MW1101REMSYN082AAXX  28184 47112 31530 60000 10242 20237 30052 40130 52003 71022 86500 333 92022;EQDQ01  00002PRCP99
0191471120999992000082821004+37480+126630FM-12+007099999V0209999C000012200019N0050001N1+02421+02371101301ADDAA199000091AY111031AY211031GF102991021001999999031001MA1999999100521MD1410001+9999MW1101REMSYN072AAXX  28214 47112 31950 20000 10242 20237 30052 40130 54000 71011 82030;EQDQ01  00002PRCP99
0225471120999992000082900004+37480+126630FM-12+007099999V0209999C000012200019N0080001N1+02831+02411101231ADDAA124002591AY101061AY201061GF102991001001999999001011IA1099IA2999+02809KA1120N+02511MA1999999100461MD1710071+9999MW1101REMSYN094AAXX  29004 47112 31958 20000 10283 20241 30046 40123 57007 71000 80001 333 20251 31028 70025;
0163471120999992000082903004+37480+126630FM-12+007099999V0209999C000012200019N0130001N1+03241+02391101211ADDAA199000091GF102991021011008001001001MA1999999100451MD1310011+9999REMSYN066AAXX  29034 47112 32563 20000 10324 20239 30045 40121 53001 82100;EQDQ01  00002PRCP99
0173471120999992000082906004+37480+126630FM-12+007099999V0202501N003110075019N0130001N1+03161+02401101111ADDAA199000091GF105991051021008001001001MA1999999100351MD1410001+9999REMSYN076AAXX  29064 47112 32563 52506 10316 20240 30035 40111 54000 85200 333 92011;EQDQ01  00002PRCP99
0179471120999992000082909004+37480+126630FM-12+007099999V0203201N002612200019N0100001N1+02841+02481101021ADDAA199000091GF102991001001999999001011MA1999999100251MD1810031+9999REMSYN066AAXX  29094 47112 32660 23205 10284 20248 30025 40102 58003 80001;EQDQ01+012502SCOLCBQ02  00002PRCP99
0222471120999992000082912004+37480+126630FM-12+007099999V0203601N000512200019N0100001N1+02561+02341101101ADDAA199000091GF102991001001999999001011IA1099IA2999+02509KA1120M+03341MA1999999100321MD1110071+9999REMSYN094AAXX  29124 47112 32960 23601 10256 20234 30032 40110 51007 80001 333 10334 31025 55081 92011;EQDQ01  00002PRCP99
0191471120999992000082915004+37480+126630FM-12+007099999V0203601N001010075019N0080001N1+02571+02291101141ADDAA199000091AY121031AY221031GF105991051051008001001001MA1999999100371MD1210051+9999MW1101REMSYN072AAXX  29154 47112 31558 53602 10257 20229 30037 40114 52005 71022 85500;EQDQ01  00002PRCP99
0173471120999992000082918004+37480+126630FM-12+007099999V0201101N002612200019N0100001N1+02701+02321101071ADDAA199000091GF104991041051008001001001MA1999999100301MD1610071+9999REMSYN076AAXX  29184 47112 32560 41105 10270 20232 30030 40107 56007 84500 333 92011;EQDQ01  00002PRCP99
0163471120999992000082921004+37480+126630FM-12+007099999V0200901N001512200019N0100001N1+02541+02311101081ADDAA199000091GF102991001001999999001011MA1999999100311MD1210011+9999REMSYN066AAXX  29214 47112 32960 20903 10254 20231 30031 40108 52001 80001;EQDQ01  00002PRCP99
0216471120999992000083000004+37480+126630FM-12+007099999V0201101N002619999999N0120001N1+02941+02181101101ADDAA199000091GF105991001001999999001011IA1019IA2999+02909KA1120N+02491MA1999999100341MD1210031+9999REMSYN088AAXX  30004 47112 32962 51105 10294 20218 30034 40110 52003 80001 333 20249 30029 92011;EQDQ01  00002PRCP99
0173471120999992000083003004+37480+126630FM-12+007099999V0201401N002612200019N0150001N1+03331+02151101021ADDAA199000091GA1001+999999999GF100991001001999999001001MA1999999100271MD1510071+9999REMSYN060AAXX  30034 47112 32965 01405 10333 20215 30027 40102 55007;EQDQ01  00002PRCP99
0173471120999992000083006004+37480+126630FM-12+007099999V0201101N002612200019N0200001N1+03421+02111100771ADDAA199000091GF102991021081008001001001MA1999999100021MD1710251+9999REMSYN076AAXX  30064 47112 32570 21105 10342 20211 30002 40077 57025 82800 333 92022;EQDQ01  00002PRCP99
0163471120999992000083009004+37480+126630FM-12+007099999V0201401N002119999999N0250001N1+03171+02081100701ADDAA199000091GF106991001001999999001021MA1999999099951MD1710071+9999REMSYN066AAXX  30094 47112 32975 61404 10317 20208 39995 40070 57007 80002;EQDQ01  00002PRCP99
0216471120999992000083012004+37480+126630FM-12+007099999V0201101N002119999999N0200001N1+03011+02141100791ADDAA199000091GF105991001001999999001011IA1099IA2999+02809KA1120M+03471MA1999999100031MD1010081+9999REMSYN088AAXX  30124 47112 32970 51104 10301 20214 30003 40079 50008 80001 333 10347 31028 92022;EQDQ01  00002PRCP99
0163471120999992000083015004+37480+126630FM-12+007099999V0201101N003119999999N0140001N1+02811+02111100801ADDAA199000091GF105991001001999999001011MA1999999100041MD1310011+9999REMSYN066AAXX  30154 47112 32964 51106 10281 20211 30004 40080 53001 80001;EQDQ01  00002PRCP99
0163471120999992000083018004+37480+126630FM-12+007099999V0200701N003112200019N0130001N1+02661+02051100621ADDAA199000091GF102991001001999999001011MA1999999099851MD1710191+9999REMSYN066AAXX  30184 47112 32963 20706 10266 20205 39985 40062 57019 80001;EQDQ01  00002PRCP99
0163471120999992000083021004+37480+126630FM-12+007099999V0200901N003119999999N0150001N1+02631+02071100481ADDAA199000091GF105991001001999999001011MA1999999099711MD1710141+9999REMSYN066AAXX  30214 47112 32965 50906 10263 20207 39971 40048 57014 80001;EQDQ01  00002PRCP99
0216471120999992000083100004+37480+126630FM-12+007099999V0200901N004110075019N0130001N1+02751+02091100291ADDAA199000091GF108991061051008001011999IA1019IA2999+02709KA1120N+02621MA1999999099531MD1710181+9999REMSYN088AAXX  31004 47112 32563 80908 10275 20209 39953 40029 57018 8651/ 333 20262 30027 92022;EQDQ01  00002PRCP99
0161471120999992000083103004+37480+126630FM-12+007099999V0200901N003110075019N0120001N1+02671+02281100141ADDAY161031AY221031GF108991061051008001021999MA1999999099381MD1710151+9999MW1611REMSYN072AAXX  31034 47112 41562 80906 10267 20228 39938 40014 57015 76162 8652/;
0171471120999992000083106004+37480+126630FM-12+007099999V0200701N005110075019N0100001N1+02511+02401099501ADDAY161061AY261061GF108991061071008001021999MA1999999098741MD1710641+9999MW1611REMSYN082AAXX  31064 47112 41560 80710 10251 20240 39874 49950 57064 76166 8672/ 333 92022;
0161471120999992000083109004+37480+126630FM-12+007099999V0201101N005710075019N0100001N1+02481+02371098931ADDAY161031AY261031GF108991061071008001021999MA1999999098171MD1710571+9999MW1631REMSYN072AAXX  31094 47112 41560 81111 10248 20237 39817 49893 57057 76366 8672/;
0243471120999992000083112004+37480+126630FM-12+007099999V0201401N011810075019N0012001N1+02531+02441098491ADDAA112039991AY161061AY261061GF108991071071008001021999IA1099IA2999+02509KA1120M+02831MA1999999097741MD1710431+9999MW1631REMSYN112AAXX  31124 47112 11512 81423 10253 20244 39774 49849 57043 60402 76366 8772/ 333 10283 31025 55000 70398 92055;
0161471120999992000083115004+37480+126630FM-12+007099999V0201801N016410075019N0030001N1+02461+02361098611ADDAY191031AY281031GF108991071071008001021999MA1999999097861MD1210121+9999MW1631REMSYN072AAXX  31154 47112 41530 81832 10246 20236 39786 49861 52012 76398 8772/;
0171471120999992000083118004+37480+126630FM-12+007099999V0202001N017010075019N0030001N1+02401+02321099311ADDAY161061AY261061GF108991061051008001021999MA1999999098541MD1210701+9999MW1611REMSYN082AAXX  31184 47112 41530 82033 10240 20232 39854 49931 52070 76166 8652/ 333 92055;
0161471120999992000083121004+37480+126630FM-12+007099999V0202501N011810075019N0050001N1+02421+02291099801ADDAY161031AY261031GF108991061051008001021999MA1999999099041MD1210501+9999MW1611REMSYN072AAXX  31214 47112 41550 82523 10242 20229 39904 49980 52050 76166 8652/;
0237471120999992000090100004+37480+126630FM-12+007099999V0202501N008210075019N0150001N1+02501+02301100111ADDAA112010991AY161061AY221061GF108991051051008001021999IA1099IA2999+02409KA1120N+02391MA1999999099351MD1210311+9999MW1021REMSYN106AAXX  01004 47112 11565 82516 10250 20230 39935 40011 52031 60112 70262 8552/ 333 20239 31024 70508 92033;
0144471120999992000090103004+37480+126630FM-12+007099999V0202501N007710360019N0110001N1+02531+02291100311ADDAA199000021GF108991041051012501021999MA1999999099541MD1210191+9999REMSYN066AAXX  01034 47112 32661 82515 10253 20229 39954 40031 52019 8452/;
0182471120999992000090106004+37480+126630FM-12+007099999V0202501N008210075019N0090001N1+02581+02351100341ADDAA199000021AY121061AY221061GF108991051051008001021999MA1999999099571MD1310031+9999MW1101REMSYN082AAXX  01064 47112 31559 82516 10258 20235 39957 40034 53003 71022 8552/ 333 92044;
0172471120999992000090109004+37480+126630FM-12+007099999V0202501N006210075019N0090001N1+02491+02321100431ADDAA199000021AY121031AY221031GF108991051051008001021999MA1999999099661MD1210091+9999MW1101REMSYN072AAXX  01094 47112 31559 82512 10249 20232 39966 40043 52009 71022 8552/;
0237471120999992000090112004+37480+126630FM-12+007099999V0202001N005110360019N0070001N1+02431+02311100551ADDAA124011791AY121061AY221061GF108991041051008001011999IA1099IA2999+02409KA1120M+02591MA1999999099781MD1210121+9999MW1101REMSYN106AAXX  01124 47112 31557 82010 10243 20231 39978 40055 52012 71022 8451/ 333 10259 31024 55000 70117 92011;
0191471120999992000090115004+37480+126630FM-12+007099999V0202001N004110075019N0070001N1+02441+02331100651ADDAA199000091AY121031AY221031GF106991061051008001001001MA1999999099881MD1210101+9999MW1101REMSYN072AAXX  01154 47112 31557 62008 10244 20233 39988 40065 52010 71022 86500;EQDQ01  00002PRCP99
0201471120999992000090118004+37480+126630FM-12+007099999V0202501N003110075019N0050001N1+02401+02321100731ADDAA199000091AY121061AY221061GF108991061051008001021999MA1999999099961MD1210081+9999MW1101REMSYN082AAXX  01184 47112 31550 82506 10240 20232 39996 40073 52008 71022 8652/ 333 92011;EQDQ01  00002PRCP99
0161471120999992000090121004+37480+126630FM-12+007099999V0202001N004110075019N0030001N1+02391+02311100851ADDAY121031AY221031GF108991061051008001021999MA1999999100081MD1210121+9999MW1101REMSYN072AAXX  01214 47112 41530 82008 10239 20231 30008 40085 52012 71022 8652/;
0237471120999992000090200004+37480+126630FM-12+007099999V0202001N003110075019N0050001N1+02551+02361100971ADDAA112000191AY121061AY221061GF107991071051008001001001IA1099IA2999+02509KA1120N+02391MA1999999100201MD1210121+9999MW1101REMSYN106AAXX  02004 47112 11550 72006 10255 20236 30020 40097 52012 69912 71022 87500 333 20239 31025 70001 92022;
0133471120999992000090203004+37480+126630FM-12+007099999V0202001N003112200019N0100001N1+02901+02341100951ADDGF102991021051008001001001MA1999999100191MD1310011+9999REMSYN066AAXX  02034 47112 42560 22006 10290 20234 30019 40095 53001 82500;
0173471120999992000090206004+37480+126630FM-12+007099999V0202301N004610360019N0100001N1+02801+02351100941ADDAA199000091GF106991021051008001041001MA1999999100181MD1210011+9999REMSYN076AAXX  02064 47112 32560 62309 10280 20235 30018 40094 52001 82540 333 92022;EQDQ01  00002PRCP99
0163471120999992000090209004+37480+126630FM-12+007099999V0202501N003110120019N0070001N1+02541+02331101001ADDAA199000091GF106991061051012501001001MA1999999100221MD1210041+9999REMSYN066AAXX  02094 47112 31657 62506 10254 20233 30022 40100 52004 86500;EQDQ01  00002PRCP99
0231471120999992000090212004+37480+126630FM-12+007099999V0202501N001510360019N0030001N1+02391+02291101161ADDAA112000791AY121061AY221061GF106991031051012501031001IA1099IA2999+02509KA1120M+02961MA1999999100381MD1210161+9999MW1101REMSYN100AAXX  02124 47112 11630 62503 10239 20229 30038 40116 52016 69902 71022 83530 333 10296 31025 70001;
0191471120999992000090215004+37480+126630FM-12+007099999V0202301N002610120019N0015001N1+02431+02301101241ADDAA199000091AY121031AY221031GF108991051051012501021999MA1999999100461MD1210081+9999MW1101REMSYN072AAXX  02154 47112 31615 82305 10243 20230 30046 40124 52008 71022 8552/;EQDQ01  00002PRCP99
0191471120999992000090218004+37480+126630FM-12+007099999V0203401N000512200019N0080001N1+02341+02271101201ADDAA199000091AY141061AY241061GF102991001001999999001011MA1999999100421MD1510041+9999MW1441REMSYN072AAXX  02184 47112 31958 23401 10234 20227 30042 40120 55004 74444 80001;EQDQ01  00002PRCP99
0191471120999992000090221004+37480+126630FM-12+007099999V0203201N001510360019N0020001N1+02331+02261101211ADDAA199000091AY121031AY221031GF108991031051012501021999MA1999999100431MD1810011+9999MW1101REMSYN072AAXX  02214 47112 31620 83203 10233 20226 30043 40121 58001 71022 8352/;EQDQ01  00002PRCP99
0244471120999992000090300004+37480+126630FM-12+007099999V0209999C000010075019N0050001N1+02451+02301101261ADDAA199000091AY121061AY221061GF108991051051008001011999IA1099IA2999+02509KA1120N+02311MA1999999100481MD1210051+9999MW1101REMSYN094AAXX  03004 47112 31550 80000 10245 20230 30048 40126 52005 71022 8551/ 333 20231 31025 92011;EQDQ01  00002PRCP99
0163471120999992000090303004+37480+126630FM-12+007099999V0203201N003612200019N0100001N1+02851+02241101141ADDAA199000091GF103991031051008001001001MA1999999100371MD1710111+9999REMSYN066AAXX  03034 47112 32560 33207 10285 20224 30037 40114 57011 83500;EQDQ01  00002PRCP99
0173471120999992000090306004+37480+126630FM-12+007099999V0202901N005112200019N0110001N1+02981+02341101001ADDAA199000091GF102991021011008001001001MA1999999100231MD1710141+9999REMSYN076AAXX  03064 47112 32561 22910 10298 20234 30023 40100 57014 82100 333 92011;EQDQ01  00002PRCP99
0153471120999992000090309004+37480+126630FM-12+007099999V0200901N002610075019N0130001N1+02541+02091101051ADDAY181031GF107991071021008001001001MA1999999100281MD1010051+9999MW1801REMSYN072AAXX  03094 47112 41563 70905 10254 20209 30028 40105 50005 7808/ 87200;
0243471120999992000090312004+37480+126630FM-12+007099999V0200701N001512200019N0050001N1+02421+02171101111ADDAA112000791AY181061AY281061GF102991021001008001041001IA1019IA2999+02509KA1120M+03071MA1999999100341MD1010061+9999MW1101REMSYN112AAXX  03124 47112 11550 20703 10242 20217 30034 40111 50006 69902 71088 82040 333 10307 30025 55079 70000 92022;
0174471120999992000090315004+37480+126630FM-12+007099999V0201401N002112200019N0050001N1+02431+02221101131ADDAA199000021AY101031GA1001+999999999GF100991001001999999001001MA1999999100351MD1010011+9999MW1101REMSYN066AAXX  03154 47112 31950 01404 10243 20222 30035 40113 50001 7100/;
0192471120999992000090318004+37480+126630FM-12+007099999V0200901N002612200019N0035001N1+02351+02161101081ADDAA199000021AY101061AY201061GA1001+999999999GF100991001001999999001001MA1999999100301MD1710051+9999MW1101REMSYN076AAXX  03184 47112 31935 00905 10235 20216 30030 40108 57005 71000 333 92022;
0182471120999992000090321004+37480+126630FM-12+007099999V0200901N002112200019N0050001N1+02221+01801101081ADDAA199000021AY101031AY201031GA1001+999999999GF100991001001999999001001MA1999999100291MD1810011+9999MW1101REMSYN066AAXX  03214 47112 31950 00904 10222 20180 30029 40108 58001 71000;
0213471120999992000090400004+37480+126630FM-12+007099999V0200901N003612200019N0180001N1+02561+01831101131ADDAA124000791GA1001+999999999GF100991001001999999001001IA1099IA2999+02509KA1120N+02191MA1999999100361MD1810071+9999REMSYN088AAXX  04004 47112 32968 00907 10256 20183 30036 40113 58007 333 20219 31025 79999 92022;
0173471120999992000090403004+37480+126630FM-12+007099999V0201401N003112200019N0200001N1+03001+01801101031ADDAA199000091GA1001+999999999GF100991001001999999001001MA1999999100271MD1610091+9999REMSYN060AAXX  04034 47112 32970 01406 10300 20180 30027 40103 56009;EQDQ01  00002PRCP99
0163471120999992000090406004+37480+126630FM-12+007099999V0200901N002612200019N0220001N1+02931+01581100871ADDAA199000091GF102991021051012501001001MA1999999100101MD1710171+9999REMSYN066AAXX  04064 47112 32672 20905 10293 20158 30010 40087 57017 82500;EQDQ01  00002PRCP99
0163471120999992000090409004+37480+126630FM-12+007099999V0203601N001512200019N0200001N1+02871+01741100821ADDAA199000091GF102991021051012501001001MA1999999100061MD1710041+9999REMSYN066AAXX  04094 47112 32670 23603 10287 20174 30006 40082 57004 82500;EQDQ01  00002PRCP99
0232471120999992000090412004+37480+126630FM-12+007099999V0200901N002112200019N0180001N1+02561+01491100891ADDAA199000091GA1001+999999999GF100991001001999999001001IA1019IA2999+02409KA1120M+03111MA1999999100111MD1010051+9999REMSYN088AAXX  04124 47112 32968 00904 10256 20149 30011 40089 50005 333 10311 30024 55100 92011;EQDQ01  00002PRCP99
0163471120999992000090415004+37480+126630FM-12+007099999V0200901N002612200019N0180001N1+02371+01531100871ADDAA199000091GF101991001001999999001011MA1999999100101MD1310011+9999REMSYN066AAXX  04154 47112 32968 10905 10237 20153 30010 40087 53001 80001;EQDQ01  00002PRCP99
0183471120999992000090418004+37480+126630FM-12+007099999V0200201N000512200019N0150001N1+02071+01711100911ADDAA199000091GA1001+999999999GF100991001001999999001001MA1999999100121MD1310021+9999REMSYN070AAXX  04184 47112 32965 00201 10207 20171 30012 40091 53002 333 92011;EQDQ01  00002PRCP99
0163471120999992000090421004+37480+126630FM-12+007099999V0203401N001512200019N0120001N1+01941+01691100861ADDAA199000091GF102991011051008001001011MA1999999100071MD1810051+9999REMSYN066AAXX  04214 47112 32562 23403 10194 20169 30007 40086 58005 81501;EQDQ01  00002PRCP99
0216471120999992000090500004+37480+126630FM-12+007099999V0201101N001519999999N0200001N1+02301+01631100861ADDAA199000091GF106991001001999999001011IA1019IA2999+02209KA1120N+01911MA1999999100081MD1310011+9999REMSYN088AAXX  05004 47112 32970 61103 10230 20163 30008 40086 53001 80001 333 20191 30022 92022;EQDQ01  00002PRCP99
0101471120999992000090503004+37480+126630FM-12+007099999V0202501N003119999999N9999999N1+02541+99999999999ADDAA199000091REMSYN059AAXX  05034 47112 3//// /2506 10254 0169 30002 40079 55006;EQDQ01  00002PRCP99
0183471120999992000090506004+37480+126630FM-12+007099999V0203201N003612200019N0250001N1+02831+01771100591ADDAA199000091GA1001+999999999GF100991001001999999001001MA1999999099831MD1710191+9999REMSYN070AAXX  05064 47112 32975 03207 10283 20177 39983 40059 57019 333 92022;EQDQ01  00002PRCP99
0173471120999992000090509004+37480+126630FM-12+007099999V0203201N003112200019N0250001N1+02561+01891100551ADDAA199000091GA1001+999999999GF100991001001999999001001MA1999999099781MD1810051+9999REMSYN060AAXX  05094 47112 32975 03206 10256 20189 39978 40055 58005;EQDQ01  00002PRCP99
0216471120999992000090512004+37480+126630FM-12+007099999V0202901N003612200019N0120001N1+02341+02071100601ADDAA199000091GF102991011001999999031011IA1019IA2999+02309KA1120M+02871MA1999999099821MD1010041+9999REMSYN088AAXX  05124 47112 32962 22907 10234 20207 39982 40060 50004 81031 333 10287 30023 92022;EQDQ01  00002PRCP99
0191471120999992000090515004+37480+126630FM-12+007099999V0202001N002110120019N0080001N1+02321+02221100551ADDAA199000091AY121031AY221031GF106991061051012501001001MA1999999099781MD1710041+9999MW1101REMSYN072AAXX  05154 47112 31658 62004 10232 20222 39978 40055 57004 71022 86500;EQDQ01  00002PRCP99
0191471120999992000090518004+37480+126630FM-12+007099999V0201601N002610360019N0050001N1+02261+02141100541ADDAA199000091AY121061AY221061GF107991021051012501031001MA1999999099771MD1110011+9999MW1101REMSYN072AAXX  05184 47112 31650 71605 10226 20214 39977 40054 51001 71022 82530;EQDQ01  00002PRCP99
0161471120999992000090521004+37480+126630FM-12+007099999V0200501N001010075019N0030001N1+02191+02131100591ADDAY161031AY261031GF108991061071008001021999MA1999999099811MD1810041+9999MW1631REMSYN072AAXX  05214 47112 41530 80502 10219 20213 39981 40059 58004 76366 8672/;
0209471120999992000090600004+37480+126630FM-12+007099999V0202501N003110075019N0120001N1+02231+02161100621ADDAA112014091GF108991061051008001021999IA1099IA2999+02309KA1120N+02121MA1999999099841MD1710031+9999REMSYN100AAXX  06004 47112 12562 82506 10223 20216 39984 40062 57003 60142 8652/ 333 20212 31023 70139 92022;
0144471120999992000090603004+37480+126630FM-12+007099999V0202001N004110360019N0170001N1+02521+02021100611ADDAA199000021GF106991031051008001031001MA1999999099841MD1510001+9999REMSYN066AAXX  06034 47112 32567 62008 10252 20202 39984 40061 55000 83530;
0154471120999992000090606004+37480+126630FM-12+007099999V0202001N004112200019N0170001N1+02641+02041100561ADDAA199000021GF102991021081008001001001MA1999999099801MD1710041+9999REMSYN076AAXX  06064 47112 32567 22008 10264 20204 39980 40056 57004 82800 333 92011;
0124471120999992000090609004+37480+126630FM-12+007099999V0202301N004110360019N0150001N1+02441+01891100561ADDAA199000021GF105991031051008001031001MA1999999099791REMSYN060AAXX  06094 47112 32565 52308 10244 20189 39979 40056 83530;
0209471120999992000090612004+37480+126630FM-12+007099999V0203601N001010075019N0120001N1+02141+01791100871ADDAA124014091GF108991051051008001011999IA1019IA2999+02209KA1120M+02681MA1999999100091MD1710311+9999REMSYN100AAXX  06124 47112 32562 83602 10214 20179 30009 40087 57031 8551/ 333 10268 30022 55038 70139 92033;
0163471120999992000090615004+37480+126630FM-12+007099999V0203601N001010360019N0120001N1+02021+01761100941ADDAA199000091GF106991021051008001011001MA1999999100151MD1210061+9999REMSYN066AAXX  06154 47112 32562 63602 10202 20176 30015 40094 52006 82510;EQDQ01  00002PRCP99
0173471120999992000090618004+37480+126630FM-12+007099999V0203601N000510360019N0100001N1+01981+01801100991ADDAA199000091GF105991021051008001011001MA1999999100201MD1210051+9999REMSYN076AAXX  06184 47112 32560 53601 10198 20180 30020 40099 52005 82510 333 92033;EQDQ01  00002PRCP99
0191471120999992000090621004+37480+126630FM-12+007099999V0201401N002110360019N0070001N1+02051+01891101051ADDAA199000091AY121031AY221031GF106991021051012501031001MA1999999100261MD1210061+9999MW1101REMSYN072AAXX  06214 47112 31657 61404 10205 20189 30026 40105 52006 71022 82530;EQDQ01  00002PRCP99
0203471120999992000090700004+37480+126630FM-12+007099999V0200901N003110120019N0110001N1+02141+01621101201ADDAA124001391GF107991051051012501031001IA1099IA2999+02109KA1120N+01981MA1999999100421MD1210161+9999REMSYN094AAXX  07004 47112 32661 70906 10214 20162 30042 40120 52016 85530 333 20198 31021 70012 92022;
0143471120999992000090703004+37480+126630FM-12+007099999V0201101N003110120019N0200001N1+02421+01601101271ADDAA199000091GF108991051051012501021999MA1999999100491REMSYN060AAXX  07034 47112 32670 81106 10242 20160 30049 40127 8552/;EQDQ01  00002PRCP99
0173471120999992000090706004+37480+126630FM-12+007099999V0200901N002110075019N0180001N1+02261+01601101221ADDAA199000091GF108991051051008001021999MA1999999100431MD1810041+9999REMSYN076AAXX  07064 47112 32568 80904 10226 20160 30043 40122 58004 8552/ 333 92022;EQDQ01  00002PRCP99
0163471120999992000090709004+37480+126630FM-12+007099999V0200901N002110360019N0180001N1+02211+01551101321ADDAA199000091GF108991041051008001011999MA1999999100541MD1210111+9999REMSYN066AAXX  07094 47112 32568 80904 10221 20155 30054 40132 52011 8451/;EQDQ01  00002PRCP99
0209471120999992000090712004+37480+126630FM-12+007099999V0200701N001510075019N0180001N1+02121+01591101431ADDAA112000791GF108991061051008001021999IA1099IA2999+02109KA1120M+02511MA1999999100641MD1110101+9999REMSYN100AAXX  07124 47112 12568 80703 10212 20159 30064 40143 51010 69902 8652/ 333 10251 31021 55002 92011;
0163471120999992000090715004+37480+126630FM-12+007099999V0201101N002610360019N0180001N1+02091+01611101471ADDAA199000091GF108991041051008001011999MA1999999100681MD1310041+9999REMSYN066AAXX  07154 47112 32568 81105 10209 20161 30068 40147 53004 8451/;EQDQ01  00002PRCP99
0173471120999992000090718004+37480+126630FM-12+007099999V0200901N002610075019N0180001N1+02061+01571101501ADDAA199000091GF108991051051008001021999MA1999999100711MD1310031+9999REMSYN076AAXX  07184 47112 32568 80905 10206 20157 30071 40150 53003 8552/ 333 92011;EQDQ01  00002PRCP99
0163471120999992000090721004+37480+126630FM-12+007099999V0200901N002110075019N0180001N1+02031+01611101551ADDAA199000091GF108991051051008001021999MA1999999100761MD1110051+9999REMSYN066AAXX  07214 47112 32568 80904 10203 20161 30076 40155 51005 8552/;EQDQ01  00002PRCP99
0237471120999992000090800004+37480+126630FM-12+007099999V0200701N002110075019N0150001N1+02011+01781101721ADDAA112000591AY161061AY261061GF108991061051008001021999IA1099IA2999+02009KA1120N+01891MA1999999100931MD1210171+9999MW1211REMSYN106AAXX  08004 47112 11565 80704 10201 20178 30093 40172 52017 69962 72166 8652/ 333 20189 31020 70007 92022;
0133471120999992000090803004+37480+126630FM-12+007099999V0201101N002110075019N0250001N1+02401+01851101671ADDGF107991051051008001011001MA1999999100891MD1710041+9999REMSYN066AAXX  08034 47112 42575 71104 10240 20185 30089 40167 57004 85510;
0154471120999992000090806004+37480+126630FM-12+007099999V0201101N002610075019N0250001N1+02511+01781101591ADDAA199000021GF107991051051008001011001MA1999999100811MD1610081+9999REMSYN076AAXX  08064 47112 32575 71105 10251 20178 30081 40159 56008 85510 333 92022;
0144471120999992000090809004+37480+126630FM-12+007099999V0201401N002110360019N0230001N1+02301+01711101611ADDAA199000021GF108991041051012501021999MA1999999100821MD1110011+9999REMSYN066AAXX  08094 47112 32673 81404 10230 20171 30082 40161 51001 8452/;
0197471120999992000090812004+37480+126630FM-12+007099999V0200901N002110120019N0180001N1+02191+01691101711ADDAA124000891GF108991051051012501021999IA1099IA2999+02109KA1120M+02591MA1999999100921MD1010101+9999REMSYN088AAXX  08124 47112 32668 80904 10219 20169 30092 40171 50010 8552/ 333 10259 31021 70007;
0161471120999992000090815004+37480+126630FM-12+007099999V0200901N002110075019N0180001N1+02061+01661101661ADDAY161031AY221031GF108991051071008001021999MA1999999100871MD1710051+9999MW1601REMSYN072AAXX  08154 47112 41568 80904 10206 20166 30087 40166 57005 76062 8572/;
0161471120999992000090818004+37480+126630FM-12+007099999V0200901N002610075019N0180001N1+01921+01661101591ADDAY161061AY261061GF108991061071008001021999MA1999999100801MD1710071+9999MW1611REMSYN072AAXX  08184 47112 41568 80905 10192 20166 30080 40159 57007 76166 8672/;
0144471120999992000090821004+37480+126630FM-12+007099999V0200201N000510075019N0200001N1+01911+01661101571ADDAA199000021GF108991061051008001021999MA1999999100771MD1810031+9999REMSYN066AAXX  08214 47112 32570 80201 10191 20166 30077 40157 58003 8652/;
0203471120999992000090900004+37480+126630FM-12+007099999V0200201N000510360019N0200001N1+02081+01631101561ADDAA112000791GF107991041051008001011001IA1099IA2999+02109KA1120N+01891MA1999999100771MD1510001+9999REMSYN094AAXX  09004 47112 12570 70201 10208 20163 30077 40156 55000 69902 84510 333 20189 31021 92011;
0144471120999992000090903004+37480+126630FM-12+007099999V0200501N002110360019N0200001N1+02421+01681101481ADDAA199000021GF107991041051008001011001MA1999999100701MD1510071+9999REMSYN066AAXX  09034 47112 32570 70504 10242 20168 30070 40148 55007 84510;
0154471120999992000090906004+37480+126630FM-12+007099999V0200501N002110075019N0250001N1+02391+01701101331ADDAA199000021GF108991061051008001011999MA1999999100551MD1710151+9999REMSYN076AAXX  09064 47112 32575 80504 10239 20170 30055 40133 57015 8651/ 333 92033;
0163471120999992000090909004+37480+126630FM-12+007099999V0200501N001010360019N0250001N1+02291+01671101321ADDAA199000091GF107991031051012501031001MA1999999100541MD1810011+9999REMSYN066AAXX  09094 47112 32675 70502 10229 20167 30054 40132 58001 83530;EQDQ01  00002PRCP99
0222471120999992000090912004+37480+126630FM-12+007099999V0200201N001510075019N0250001N1+02061+01591101501ADDAA199000091GF106991061051008001001001IA1099IA2999+02009KA1120M+02561MA1999999100711MD1210171+9999REMSYN094AAXX  09124 47112 32575 60203 10206 20159 30071 40150 52017 86500 333 10256 31020 55005 92022;EQDQ01  00002PRCP99
0163471120999992000090915004+37480+126630FM-12+007099999V0200201N001510075019N0250001N1+01871+01531101481ADDAA199000091GF106991061051008001001001MA1999999100681MD1810031+9999REMSYN066AAXX  09154 47112 32575 60203 10187 20153 30068 40148 58003 86500;EQDQ01  00002PRCP99
0173471120999992000090918004+37480+126630FM-12+007099999V0200201N001510075019N0200001N1+01751+01441101381ADDAA199000091GF108991051051008001011999MA1999999100591MD1510091+9999REMSYN076AAXX  09184 47112 32570 80203 10175 20144 30059 40138 55009 8551/ 333 92022;EQDQ01  00002PRCP99
0143471120999992000090921004+37480+126630FM-12+007099999V0203601N001510360019N0200001N1+01701+01421101371ADDAA199000091GF106991031051012501031001MA1999999100571REMSYN060AAXX  09214 47112 32670 63603 10170 20142 30057 40137 83530;EQDQ01  00002PRCP99
0210471120999992000091000004+37480+126630FM-12+007099999V0203601N001019999999N0250001N1+02051+01571101461ADDAA199000091GF106991021001999999031011IA1099IA2999+02209KA1120N+01681MA1999999100671MD1210101+9999REMSYN082AAXX  10004 47112 32975 63602 10205 20157 30067 40146 52010 82031 333 20168 31022;EQDQ01  00002PRCP99
0163471120999992000091003004+37480+126630FM-12+007099999V0200701N001512200019N0250001N1+02631+01391101381ADDAA199000091GF104991001001999999001011MA1999999100601MD1610071+9999REMSYN066AAXX  10034 47112 32975 40703 10263 20139 30060 40138 56007 80001;EQDQ01  00002PRCP99
0173471120999992000091006004+37480+126630FM-12+007099999V0203601N002112200019N0250001N1+02831+01591101141ADDAA199000091GF103991001001999999001011MA1999999100371MD1710231+9999REMSYN076AAXX  10064 47112 32975 33604 10283 20159 30037 40114 57023 80001 333 92022;EQDQ01  00002PRCP99
0163471120999992000091009004+37480+126630FM-12+007099999V0200201N001019999999N0230001N1+02531+01571101111ADDAA199000091GF106991041001999999031021MA1999999100331MD1810041+9999REMSYN066AAXX  10094 47112 32973 60202 10253 20157 30033 40111 58004 84032;EQDQ01  00002PRCP99
0222471120999992000091012004+37480+126630FM-12+007099999V0201601N001519999999N0200001N1+02361+01591101201ADDAA199000091GF106991001001999999001021IA1019IA2999+02209KA1120M+02861MA1999999100421MD1210091+9999REMSYN094AAXX  10124 47112 32970 61603 10236 20159 30042 40120 52009 80002 333 10286 30022 55092 92011;EQDQ01  00002PRCP99
0163471120999992000091015004+37480+126630FM-12+007099999V0200201N001019999999N0200001N1+02101+01651101251ADDAA199000091GF106991021001999999031021MA1999999100461MD1110041+9999REMSYN066AAXX  10154 47112 32970 60202 10210 20165 30046 40125 51004 82032;EQDQ01  00002PRCP99
0173471120999992000091018004+37480+126630FM-12+007099999V0203601N001019999999N0180001N1+01941+01701101171ADDAA199000091GF106991021001999999031021MA1999999100381MD1710081+9999REMSYN076AAXX  10184 47112 32968 63602 10194 20170 30038 40117 57008 82032 333 92011;EQDQ01  00002PRCP99
0163471120999992000091021004+37480+126630FM-12+007099999V0203601N001010360019N0180001N1+01821+01601101181ADDAA199000091GF106991021051008001031001MA1999999100391MD1010011+9999REMSYN066AAXX  10214 47112 32568 63602 10182 20160 30039 40118 50001 82530;EQDQ01  00002PRCP99
0210471120999992000091100004+37480+126630FM-12+007099999V0200901N002119999999N0200001N1+02081+01201101211ADDAA199000091GF107991031051999999031001IA1019IA2999+02109KA1120N+01811MA1999999100421MD1210031+9999REMSYN082AAXX  11004 47112 32970 70904 10208 20120 30042 40121 52003 83530 333 20181 30021;EQDQ01  00002PRCP99
0163471120999992000091103004+37480+126630FM-12+007099999V0200901N004112200019N0280001N1+02571+01331101261ADDAA199000091GF103991031051012501001001MA1999999100491MD1310071+9999REMSYN066AAXX  11034 47112 32678 30908 10257 20133 30049 40126 53007 83500;EQDQ01  00002PRCP99
0173471120999992000091106004+37480+126630FM-12+007099999V0201101N002612200019N0280001N1+02621+01251101201ADDAA199000091GF102991021051012501001001MA1999999100431MD1610061+9999REMSYN076AAXX  11064 47112 32678 21105 10262 20125 30043 40120 56006 82500 333 92022;EQDQ01  00002PRCP99
0173471120999992000091109004+37480+126630FM-12+007099999V0200701N003112200019N0280001N1+02521+01121101201ADDAA199000091GA1001+999999999GF100991001001999999001001MA1999999100431MD1510001+9999REMSYN060AAXX  11094 47112 32978 00706 10252 20112 30043 40120 55000;EQDQ01  00002PRCP99
0226471120999992000091112004+37480+126630FM-12+007099999V0200701N002112200019N0250001N1+02161+01071101351ADDAA199000091GA1001+999999999GF100991001001999999001001IA1019IA2999+01909KA1120M+02771MA1999999100561MD1110131+9999REMSYN082AAXX  11124 47112 32975 00704 10216 20107 30056 40135 51013 333 10277 30019 92022;EQDQ01  00002PRCP99
0179471120999992000091115004+37480+126630FM-12+007099999V0200901N003112200019N0250001N1+02051+01041101351ADDAA199000091GF102991021001999999031001MA1999999100561MD1410001+9999REMSYN066AAXX  11154 47112 32975 20906 10205 20104 30056 40135 53000 82030;EQDQ01+000032APCTENQ02  00002PRCP99
0173471120999992000091118004+37480+126630FM-12+007099999V0200201N001019999999N0250001N1+01801+01221101431ADDAA199000091GF106991021001999999031011MA1999999100631MD1210071+9999REMSYN076AAXX  11184 47112 32975 60202 10180 20122 30063 40143 52007 82031 333 92011;EQDQ01  00002PRCP99
0163471120999992000091121004+37480+126630FM-12+007099999V0200501N002119999999N0250001N1+01731+01111101481ADDAA199000091GF106991061001012501031001MA1999999100681MD1210051+9999REMSYN066AAXX  11214 47112 32675 60504 10173 20111 30068 40148 52005 86030;EQDQ01  00002PRCP99
0216471120999992000091200004+37480+126630FM-12+007099999V0200201N001010360019N0250001N1+01971+01141101521ADDAA199000091GF107991031051008001061001IA1019IA2999+02009KA1120N+01641MA1999999100731MD1210051+9999REMSYN088AAXX  12004 47112 32575 70202 10197 20114 30073 40152 52005 83560 333 20164 30020 92022;EQDQ01  00002PRCP99
0163471120999992000091203004+37480+126630FM-12+007099999V0200201N001010360019N0250001N1+02191+01391101591ADDAA199000091GF107991041051012501031001MA1999999100801MD1210071+9999REMSYN066AAXX  12034 47112 32675 70202 10219 20139 30080 40159 52007 84530;EQDQ01  00002PRCP99
0173471120999992000091206004+37480+126630FM-12+007099999V0200701N003110075019N0250001N1+02361+01061101411ADDAA199000091GF107991061051008001011001MA1999999100631MD1710171+9999REMSYN076AAXX  12064 47112 32575 70706 10236 20106 30063 40141 57017 86510 333 92022;EQDQ01  00002PRCP99
0163471120999992000091209004+37480+126630FM-12+007099999V0200701N003110120019N0250001N1+02231+01141101401ADDAA199000091GF107991061051012501011001MA1999999100611MD1810021+9999REMSYN066AAXX  12094 47112 32675 70706 10223 20114 30061 40140 58002 86510;EQDQ01  00002PRCP99
0222471120999992000091212004+37480+126630FM-12+007099999V0200701N002610075019N0200001N1+02091+01091101501ADDAA199000091GF108991061051008001011999IA1019IA2999+01909KA1120M+02411MA1999999100711MD1210101+9999REMSYN094AAXX  12124 47112 32570 80705 10209 20109 30071 40150 52010 8651/ 333 10241 30019 55012 92022;EQDQ01  00002PRCP99
0161471120999992000091215004+37480+126630FM-12+007099999V0200501N002110075019N0150001N1+01921+01191101471ADDAY161031AY261031GF108991061051008001021999MA1999999100681MD1510031+9999MW1211REMSYN072AAXX  12154 47112 41565 80504 10192 20119 30068 40147 55003 72166 8652/;
0171471120999992000091218004+37480+126630FM-12+007099999V0200701N001510075019N0120001N1+01681+01351101421ADDAY161061AY261061GF108991061051008001021999MA1999999100621MD1710061+9999MW1611REMSYN082AAXX  12184 47112 41562 80703 10168 20135 30062 40142 57006 76166 8652/ 333 92033;
0161471120999992000091221004+37480+126630FM-12+007099999V0200201N001010120019N0120001N1+01561+01401101511ADDAY161031AY261031GF108991061051012501021999MA1999999100701MD1210081+9999MW1611REMSYN072AAXX  12214 47112 41662 80202 10156 20140 30070 40151 52008 76166 8652/;
0237471120999992000091300004+37480+126630FM-12+007099999V0200701N001510075019N0150001N1+01651+01481101491ADDAA112004191AY161061AY261061GF108991061071008001021999IA1099IA2999+01609KA1120N+01531MA1999999100681MD1210021+9999MW1611REMSYN106AAXX  13004 47112 11565 80703 10165 20148 30068 40149 52002 60042 76166 8672/ 333 20153 31016 70039 92011;
0161471120999992000091303004+37480+126630FM-12+007099999V0200201N001510075019N0180001N1+01731+01541101521ADDAY161031AY221031GF108991061051008001021999MA1999999100721MD1110041+9999MW1601REMSYN072AAXX  13034 47112 41568 80203 10173 20154 30072 40152 51004 76062 8652/;
0190471120999992000091306004+37480+126630FM-12+007099999V0200201N001510075019N0170001N1+01701+01591101521ADDAY161061AY261061GF108991061071008001021999MA1999999100721MD1410001+9999MW1611REMSYN082AAXX  13064 47112 41567 80203 10170 20159 30072 40152 58000 76166 8672/ 333 92011;EQDQ01+000082APCTEN
0161471120999992000091309004+37480+126630FM-12+007099999V0200201N002110075019N0200001N1+01651+01531101351ADDAY161031AY221031GF108991061051008001021999MA1999999100541MD1810181+9999MW1611REMSYN072AAXX  13094 47112 41570 80204 10165 20153 30054 40135 58018 76162 8652/;
0204471120999992000091312004+37480+126630FM-12+007099999V0200201N002610075019N0200001N1+01701+01441101401ADDAA112006191GF107991051051008001011001KA1120N+99999MA1999999100601MD1010061+9999REMSYN094AAXX  13124 47112 12570 70205 10170 20144 30060 40140 50006 60062 85510 333 20312 70095 92011;EQDQ01 +03122ATMN  
0144471120999992000091315004+37480+126630FM-12+007099999V0200201N001510075019N0200001N1+01701+01391101341ADDAA199000021GF107991051051008001011001MA1999999100541MD1510061+9999REMSYN066AAXX  13154 47112 32570 70203 10170 20139 30054 40134 55006 85510;
0171471120999992000091318004+37480+126630FM-12+007099999V0200201N001510075019N0180001N1+01621+01361101221ADDAY161061AY221061GF108991061071008001021999MA1999999100421MD1710121+9999MW1611REMSYN082AAXX  13184 47112 41568 80203 10162 20136 30042 40122 57012 76162 8672/ 333 92011;
0161471120999992000091321004+37480+126630FM-12+007099999V0203601N001010075019N0150001N1+01561+01451101211ADDAY161031AY261031GF108991061071008001021999MA1999999100411MD1510011+9999MW1611REMSYN072AAXX  13214 47112 41565 83602 10156 20145 30041 40121 55001 76166 8672/;
0237471120999992000091400004+37480+126630FM-12+007099999V0200201N001510075019N0200001N1+01631+01521101201ADDAA112006191AY161061AY261061GF108991061051008001021999IA1099IA2999+01609KA1120N+01551MA1999999100391MD1810021+9999MW1611REMSYN106AAXX  14004 47112 11570 80203 10163 20152 30039 40120 58002 60062 76166 8652/ 333 20155 31016 70116 92033;
0161471120999992000091403004+37480+126630FM-12+007099999V0200201N001510075019N0200001N1+01771+01631101131ADDAY161031AY261031GF108991061051008001021999MA1999999100331MD1710061+9999MW1611REMSYN072AAXX  14034 47112 41570 80203 10177 20163 30033 40113 57006 76166 8652/;
0171471120999992000091406004+37480+126630FM-12+007099999V0200201N001510075019N0150001N1+01791+01691101041ADDAY161061AY261061GF108991061051008001021999MA1999999100241MD1710091+9999MW1611REMSYN082AAXX  14064 47112 41565 80203 10179 20169 30024 40104 57009 76166 8652/ 333 92022;
0161471120999992000091409004+37480+126630FM-12+007099999V0200201N001510075019N0250001N1+01781+01631100961ADDAY161031AY261031GF108991061051008001021999MA1999999100161MD1710081+9999MW1211REMSYN072AAXX  14094 47112 41575 80203 10178 20163 30016 40096 57008 72166 8652/;
0161471120999992000091415004+37480+126630FM-12+007099999V0200501N002110075019N0180001N1+01821+01531100841ADDAY161031AY221031GF108991051071008001021999MA1999999100051MD1710131+9999MW1601REMSYN072AAXX  14154 47112 41568 80504 10182 20153 30005 40084 57013 76062 8572/;
0171471120999992000091418004+37480+126630FM-12+007099999V0200201N001010075019N0150001N1+01751+01571100681ADDAY161061AY261061GF108991061071008001021999MA1999999099891MD1710161+9999MW1611REMSYN082AAXX  14184 47112 41565 80202 10175 20157 39989 40068 57016 76166 8672/ 333 92022;
0161471120999992000091421004+37480+126630FM-12+007099999V0200201N001510075019N0150001N1+01731+01641100521ADDAY161031AY261031GF108991061071008001021999MA1999999099731MD1710161+9999MW1611REMSYN072AAXX  14214 47112 41565 80203 10173 20164 39973 40052 57016 76166 8672/;
0237471120999992000091500004+37480+126630FM-12+007099999V0203601N001510075019N0120001N1+01751+01701100541ADDAA112009991AY161061AY261061GF108991061071008001021999IA1099IA2999+01709KA1120N+01711MA1999999099751MD1510021+9999MW1611REMSYN106AAXX  15004 47112 11562 83603 10175 20170 39975 40054 55002 60102 76166 8672/ 333 20171 31017 70168 92011;
0161471120999992000091503004+37480+126630FM-12+007099999V0200201N002110075019N0100001N1+01791+01731100461ADDAY161031AY261031GF108991061071008001021999MA1999999099671MD1710081+9999MW1631REMSYN072AAXX  15034 47112 41560 80204 10179 20173 39967 40046 57008 76366 8672/;
0161471120999992000091506004+37480+126630FM-12+007099999V0200201N003610075019N0100001N1+01831+01761100311ADDAY161061AY261061GF108991061071008001021999MA1999999099531MD1710141+9999MW1611REMSYN072AAXX  15064 47112 41560 80207 10183 20176 39953 40031 57014 76166 8672/;
0161471120999992000091509004+37480+126630FM-12+007099999V0200501N003610075019N0150001N1+01811+01591100201ADDAY161031AY221031GF108991061051008001021999MA1999999099411MD1710121+9999MW1601REMSYN072AAXX  15094 47112 41565 80507 10181 20159 39941 40020 57012 76062 8652/;
0243471120999992000091512004+37480+126630FM-12+007099999V0200201N003110075019N0100001N1+01641+01571100091ADDAA112042991AY161061AY261061GF108991071071008001021999IA1099IA2999+01609KA1120M+01861MA1999999099301MD1710111+9999MW1631REMSYN112AAXX  15124 47112 11560 80206 10164 20157 39930 40009 57011 60432 76366 8772/ 333 10186 31016 55000 70530 92044;
0161471120999992000091515004+37480+126630FM-12+007099999V0200201N002610075019N0030001N1+01611+01551099761ADDAY161031AY261031GF108991071071008001021999MA1999999098971MD1710331+9999MW1631REMSYN072AAXX  15154 47112 41530 80205 10161 20155 39897 49976 57033 76366 8772/;
0171471120999992000091518004+37480+126630FM-12+007099999V0203601N003610075019N0015001N1+01601+01561099481ADDAY161061AY261061GF108991071071008001021999MA1999999098691MD1710281+9999MW1631REMSYN082AAXX  15184 47112 41515 83607 10160 20156 39869 49948 57028 76366 8772/ 333 92044;
0161471120999992000091521004+37480+126630FM-12+007099999V0200201N006210075019N0030001N1+01581+01541099231ADDAY161031AY261031GF108991071071008001021999MA1999999098451MD1710241+9999MW1631REMSYN072AAXX  15214 47112 41530 80212 10158 20154 39845 49923 57024 76366 8772/;
0237471120999992000091600004+37480+126630FM-12+007099999V0203601N004110075019N0030001N1+01631+01581099101ADDAA112105991AY161061AY261061GF108991061071008001021999IA1119IA2999+01609KA1120N+01571MA1999999098311MD1710141+9999MW1631REMSYN106AAXX  16004 47112 11530 83608 10163 20158 39831 49910 57014 61062 76366 8672/ 333 20157 32016 71421 92033;
0161471120999992000091603004+37480+126630FM-12+007099999V0203401N004110075019N0170001N1+01751+01711099111ADDAY161031AY261031GF108991061071008001021999MA1999999098331MD1810021+9999MW1611REMSYN072AAXX  16034 47112 41567 83408 10175 20171 39833 49911 58002 76166 8672/;
0171471120999992000091606004+37480+126630FM-12+007099999V0203201N009310075019N0150001N1+01791+01641099281ADDAY161061AY261061GF108991061071008001021999MA1999999098501MD1210171+9999MW1611REMSYN082AAXX  16064 47112 41565 83218 10179 20164 39850 49928 52017 76166 8672/ 333 92055;
0161471120999992000091609004+37480+126630FM-12+007099999V0203201N008710075019N0180001N1+01851+01511099481ADDAY161031AY221031GF108991061051008001021999MA1999999098701MD1210201+9999MW1211REMSYN072AAXX  16094 47112 41568 83217 10185 20151 39870 49948 52020 72162 8652/;
0243471120999992000091612004+37480+126630FM-12+007099999V0203201N007710075019N0180001N1+01671+01401099771ADDAA112011991AY161061AY221061GF108991061051008001021999IA1099IA2999+01609KA1120M+01861MA1999999098981MD1210281+9999MW1211REMSYN112AAXX  16124 47112 11568 83215 10167 20140 39898 49977 52028 60122 72162 8652/ 333 10186 31016 55000 71172 92022;
0133471120999992000091615004+37480+126630FM-12+007099999V0203201N009810075019N0180001N1+01751+01221100031ADDGF106991061051008001001001MA1999999099241MD1210261+9999REMSYN066AAXX  16154 47112 42568 63219 10175 20122 39924 40003 52026 86500;
0154471120999992000091618004+37480+126630FM-12+007099999V0203201N005110075019N0150001N1+01831+01381100151ADDAA199000021GF106991061051008001001001MA1999999099371MD1210131+9999REMSYN076AAXX  16184 47112 32565 63210 10183 20138 39937 40015 52013 86500 333 92022;
0144471120999992000091621004+37480+126630FM-12+007099999V0203201N006712200019N0150001N1+01941+01501100291ADDAA199000021GF101991011051008001001001MA1999999099501MD1210131+9999REMSYN066AAXX  16214 47112 32565 13213 10194 20150 39950 40029 52013 81500;
0165471120999992000091700004+37480+126630FM-12+007099999V0203201N005119999999N9999999N1+02121+01411100481ADDAA112000791IA2999+02109KA1120N+01701MA1999999099701MD1210201+9999REMSYN088AAXX  17004 47112 1//// /3210 10212 20141 39970 40048 52020 69902 333 20170 3/021 70117;
0163471120999992000091703004+37480+126630FM-12+007099999V0202901N008212200019N0250001N1+02351+01381100511ADDAA199000091GF102991021051008001001001MA1999999099731MD1310031+9999REMSYN066AAXX  17034 47112 32575 22916 10235 20138 39973 40051 53003 82500;EQDQ01  00002PRCP99
0173471120999992000091706004+37480+126630FM-12+007099999V0202701N007212200019N0250001N1+02361+01371100471ADDAA199000091GF102991021051008001001001MA1999999099691MD1710041+9999REMSYN076AAXX  17064 47112 32575 22714 10236 20137 39969 40047 57004 82500 333 92033;EQDQ01  00002PRCP99
0173471120999992000091709004+37480+126630FM-12+007099999V0203201N005712200019N0270001N1+02151+01231100571ADDAA199000091GA1001+999999999GF100991001001999999001001MA1999999099791MD1210101+9999REMSYN060AAXX  17094 47112 32977 03211 10215 20123 39979 40057 52010;EQDQ01  00002PRCP99
0226471120999992000091712004+37480+126630FM-12+007099999V0203201N003112200019N0250001N1+01851+01171100761ADDAA199000091GA1001+999999999GF100991001001999999001001IA1099IA2999+01609KA1120M+02441MA1999999099971MD1210181+9999REMSYN082AAXX  17124 47112 32975 03206 10185 20117 39997 40076 52018 333 10244 31016 92022;EQDQ01  00002PRCP99
0173471120999992000091715004+37480+126630FM-12+007099999V0203201N003612200019N0230001N1+01781+01161100871ADDAA199000091GA1001+999999999GF100991001001999999001001MA1999999100081MD1210111+9999REMSYN060AAXX  17154 47112 32973 03207 10178 20116 30008 40087 52011;EQDQ01  00002PRCP99
0183471120999992000091718004+37480+126630FM-12+007099999V0203201N003112200019N0200001N1+01661+01221100971ADDAA199000091GA1001+999999999GF100991001001999999001001MA1999999100171MD1210011+9999REMSYN070AAXX  17184 47112 32970 03206 10166 20122 30017 40097 52001 333 92033;EQDQ01  00002PRCP99
0173471120999992000091721004+37480+126630FM-12+007099999V0203201N004112200019N0230001N1+01701+01251101081ADDAA199000091GA1001+999999999GF100991001001999999001001MA1999999100291MD1210121+9999REMSYN060AAXX  17214 47112 32973 03208 10170 20125 30029 40108 52012;EQDQ01  00002PRCP99
0226471120999992000091800004+37480+126630FM-12+007099999V0203401N002112200019N0250001N1+02001+01131101251ADDAA199000091GA1001+999999999GF100991001001999999001001IA1099IA2999+02009KA1120N+01631MA1999999100461MD1210171+9999REMSYN082AAXX  18004 47112 32975 03404 10200 20113 30046 40125 52017 333 20163 31020 92011;EQDQ01  00002PRCP99
0173471120999992000091803004+37480+126630FM-12+007099999V0203201N004112200019N0250001N1+02361+00881101301ADDAA199000091GA1001+999999999GF100991001001999999001001MA1999999100521MD1810061+9999REMSYN060AAXX  18034 47112 32975 03208 10236 20088 30052 40130 58006;EQDQ01  00002PRCP99
0173471120999992000091806004+37480+126630FM-12+007099999V0202901N004612200019N0200001N1+02391+01281101281ADDAA199000091GF102991021051008001001001MA1999999100501MD1810021+9999REMSYN076AAXX  18064 47112 32570 22909 10239 20128 30050 40128 58002 82500 333 92011;EQDQ01  00002PRCP99
0173471120999992000091809004+37480+126630FM-12+007099999V0202701N006712200019N0180001N1+02201+01371101331ADDAA199000091GA1001+999999999GF100991001001999999001001MA1999999100541MD1210041+9999REMSYN060AAXX  18094 47112 32968 02713 10220 20137 30054 40133 52004;EQDQ01  00002PRCP99
0232471120999992000091812004+37480+126630FM-12+007099999V0202901N003612200019N0150001N1+02011+01451101481ADDAA199000091GA1001+999999999GF100991001001999999001001IA1019IA2999+01809KA1120M+02491MA1999999100691MD1210151+9999REMSYN088AAXX  18124 47112 32965 02907 10201 20145 30069 40148 52015 333 10249 30018 55109 92022;EQDQ01  00002PRCP99
0173471120999992000091815004+37480+126630FM-12+007099999V0203601N000512200019N0150001N1+01681+01201101641ADDAA199000091GA1001+999999999GF100991001001999999001001MA1999999100841MD1210151+9999REMSYN060AAXX  18154 47112 32965 03601 10168 20120 30084 40164 52015;EQDQ01  00002PRCP99
0131471120999992000091818004+37480+126630FM-12+007099999V0203601N000519999999N9999999N1+01511+00801101781ADDAA199000091MA1999999100971MD1210131+9999REMSYN060AAXX  18184 47112 3//// /3601 10151 20080 30097 40178 52013;EQDQ01  00002PRCP99
0201471120999992000091821004+37480+126630FM-12+007099999V0201401N001012200019N0070001N1+01461+00991101851ADDAA199000091AY101031AY201031GA1001+999999999GF100991001001999999001001MA1999999101041MD1010071+9999MW1101REMSYN066AAXX  18214 47112 31957 01402 10146 20099 30104 40185 50007 71000;EQDQ01  00002PRCP99
0241471120999992000091900004+37480+126630FM-12+007099999V0201601N001512200019N0080001N1+02001+01111102021ADDAA112000791AY101061AY201061GA1001+999999999GF100991001001999999001001IA1019IA2999+01909KA1120N+01441MA1999999101221MD1210181+9999MW1101REMSYN094AAXX  19004 47112 11958 01603 10200 20111 30122 40202 52018 69902 71000 333 20144 30019 91011;
0173471120999992000091903004+37480+126630FM-12+007099999V0202001N003112200019N0120001N1+02471+01391102061ADDAA199000091GA1001+999999999GF100991001001999999001001MA1999999101281MD1310061+9999REMSYN060AAXX  19034 47112 32962 02006 10247 20139 30128 40206 53006;EQDQ01  00002PRCP99
0183471120999992000091906004+37480+126630FM-12+007099999V0202701N003612200019N0180001N1+02441+01231101971ADDAA199000091GA1001+999999999GF100991001001999999001001MA1999999101181MD1710101+9999REMSYN070AAXX  19064 47112 32968 02707 10244 20123 30118 40197 57010 333 91011;EQDQ01  00002PRCP99
0205471120999992000091909004+37480+126630FM-12+007099999V0202501N003112200019N0200001N1+02531+00731101961ADDAA199000091GA1001+999999999GF100991001001999999001001MA1999999101181MD1710011+9999REMSYN060AAXX  19094 47112 32970 02506 10253 20073 30118 40196 52000;EQDQ01+000022APCTENQ02+000002APC3  Q03  00002PRCP99
0232471120999992000091912004+37480+126630FM-12+007099999V0203601N001512200019N0180001N1+02031+01571102121ADDAA199000091GA1001+999999999GF100991001001999999001001IA1019IA2999+01709KA1120M+02611MA1999999101321MD1210161+9999REMSYN088AAXX  19124 47112 32968 03603 10203 20157 30132 40212 52016 333 10261 30017 55080 92011;EQDQ01  00002PRCP99
0173471120999992000091915004+37480+126630FM-12+007099999V0201401N001512200019N0150001N1+02041+01391102171ADDAA199000091GA1001+999999999GF100991001001999999001001MA1999999101371MD1210051+9999REMSYN060AAXX  19154 47112 32965 01403 10204 20139 30137 40217 52005;EQDQ01  00002PRCP99
0183471120999992000091918004+37480+126630FM-12+007099999V0200901N001512200019N0120001N1+01911+01511102201ADDAA199000091GA1001+999999999GF100991001001999999001001MA1999999101401MD1210031+9999REMSYN070AAXX  19184 47112 32962 00903 10191 20151 30140 40220 52003 333 92011;EQDQ01  00002PRCP99
0191471120999992000091921004+37480+126630FM-12+007099999V0200901N002112200019N0080001N1+01791+01491102261ADDAA199000091AY101031AY201031GF101991001001999999001011MA1999999101451MD1010051+9999MW1101REMSYN072AAXX  19214 47112 31958 10904 10179 20149 30145 40226 50005 71000 80001;EQDQ01  00002PRCP99
0244471120999992000092000004+37480+126630FM-12+007099999V0203601N000512200019N0080001N1+02091+01621102321ADDAA199000091AY121061AY221061GF104991001001999999001011IA1019IA2999+02109KA1120N+01741MA1999999101531MD1210081+9999MW1101REMSYN094AAXX  20004 47112 31958 43601 10209 20162 30153 40232 52008 71022 80001 333 20174 30021 92022;EQDQ01  00002PRCP99
0191471120999992000092003004+37480+126630FM-12+007099999V0203201N002612200019N0050001N1+02521+01851102241ADDAA199000091AY121031AY221031GF104991001001999999001011MA1999999101461MD1510071+9999MW1101REMSYN072AAXX  20034 47112 31950 43205 10252 20185 30146 40224 55007 71022 80001;EQDQ01  00002PRCP99
0173471120999992000092006004+37480+126630FM-12+007099999V0203401N002119999999N0120001N1+02731+01541102051ADDAA199000091GF105991001001999999001011MA1999999101281MD1710181+9999REMSYN076AAXX  20064 47112 32962 53404 10273 20154 30128 40205 57018 80001 333 92011;EQDQ01  00002PRCP99
0163471120999992000092009004+37480+126630FM-12+007099999V0203401N001519999999N0120001N1+02261+01751102061ADDAA199000091GF107991031051999999011001MA1999999101271MD1310011+9999REMSYN066AAXX  20094 47112 32962 73403 10226 20175 30127 40206 53001 83510;EQDQ01  00002PRCP99
0210471120999992000092012004+37480+126630FM-12+007099999V0203601N001519999999N0110001N1+02091+01761102121ADDAA199000091GF106991001001999999001021IA1019IA2999+01909KA1120M+02771MA1999999101331MD1010061+9999REMSYN082AAXX  20124 47112 32961 63603 10209 20176 30133 40212 50006 80002 333 10277 30019;EQDQ01  00002PRCP99
0191471120999992000092015004+37480+126630FM-12+007099999V0200901N000519999999N0070001N1+02131+01701102091ADDAA199000091AY121031AY221031GF107991001001999999001021MA1999999101301MD1710031+9999MW1101REMSYN072AAXX  20154 47112 31957 70901 10213 20170 30130 40209 57003 71022 80002;EQDQ01  00002PRCP99
0171471120999992000092018004+37480+126630FM-12+007099999V0209999C000019999999N0060001N1+02061+01791102131ADDAA199000091AY121061AY221061GF105991001001999999001011MA1999999101331MW1101REMSYN066AAXX  20184 47112 31956 50000 10206 20179 30133 40213 71022 80001;EQDQ01  00002PRCP99
0223471120999992000092021004+37480+126630FM-12+007099999V0201601N002110360019N0060001N1+02021+01571102081ADDAA199000091AY121031AY221031GF106991041051008001031001MA1999999101291MD1710051+9999MW1101REMSYN072AAXX  20214 47112 31556 61604 10202 20157 30129 40208 52000 71022 84530;EQDQ01+000022APCTENQ02+000002APC3  Q03  00002PRCP99
0216471120999992000092100004+37480+126630FM-12+007099999V0201601N002610360019N0120001N1+02101+01331102161ADDAA199000091GF107991031051008001031001IA1019IA2999+02009KA1120N+01971MA1999999101371MD1210081+9999REMSYN088AAXX  21004 47112 32562 71605 10210 20133 30137 40216 52008 83530 333 20197 30020 92011;EQDQ01  00002PRCP99
0163471120999992000092103004+37480+126630FM-12+007099999V0201601N002110360019N0120001N1+02621+01291102141ADDAA199000091GF106991021051008001031001MA1999999101361MD1210011+9999REMSYN066AAXX  21034 47112 32562 61604 10262 20129 30136 40214 52001 82530;EQDQ01  00002PRCP99
0173471120999992000092106004+37480+126630FM-12+007099999V0201801N003110360019N0130001N1+02481+01491101971ADDAA199000091GF106991021051008001031001MA1999999101191MD1710171+9999REMSYN076AAXX  21064 47112 32563 61806 10248 20149 30119 40197 57017 82530 333 92011;EQDQ01  00002PRCP99
0163471120999992000092109004+37480+126630FM-12+007099999V0201401N001519999999N0130001N1+02351+01271101951ADDAA199000091GF106991031001999999031091MA1999999101161MD1710031+9999REMSYN066AAXX  21094 47112 32963 61403 10235 20127 30116 40195 57003 83039;EQDQ01  00002PRCP99
0222471120999992000092112004+37480+126630FM-12+007099999V0201401N001012200019N0120001N1+02191+01531102021ADDAA199000091GF102991021001999999041001IA1019IA2999+02009KA1120M+02751MA1999999101231MD1010071+9999REMSYN094AAXX  21124 47112 32962 21402 10219 20153 30123 40202 50007 82040 333 10275 30020 55019 92022;EQDQ01  00002PRCP99
0163471120999992000092115004+37480+126630FM-12+007099999V0201401N000512200019N0100001N1+02131+01641102001ADDAA199000091GF102991021051008001001001MA1999999101211MD1310021+9999REMSYN066AAXX  21154 47112 32560 21401 10213 20164 30121 40200 53002 82500;EQDQ01  00002PRCP99
0173471120999992000092118004+37480+126630FM-12+007099999V0201401N000510075019N0120001N1+02101+01661101891ADDAA199000091GF106991061051008001001001MA1999999101101MD1710111+9999REMSYN076AAXX  21184 47112 32562 61401 10210 20166 30110 40189 57011 86500 333 92022;EQDQ01  00002PRCP99
0191471120999992000092121004+37480+126630FM-12+007099999V0203601N001510120019N0070001N1+01881+01651101831ADDAA199000091AY121031AY221031GF107991051051012501031001MA1999999101031MD1810071+9999MW1101REMSYN072AAXX  21214 47112 31657 73603 10188 20165 30103 40183 58007 71022 85530;EQDQ01  00002PRCP99
0235471120999992000092200004+37480+126630FM-12+007099999V0200201N000512200019N0070001N1+02181+01711101881ADDAA112000791AY101061AY201061GA1001+999999999GF100991001001999999001001IA1019IA2999+02209KA1120N+01821MA1999999101091MD1210061+9999MW1101REMSYN088AAXX  22004 47112 11957 00201 10218 20171 30109 40188 52006 69902 71000 333 20182 30022;
0163471120999992000092203004+37480+126630FM-12+007099999V0202501N002610075019N0100001N1+02501+01891101771ADDAA199000091GF105991051051008001001001MA1999999100991MD1710101+9999REMSYN066AAXX  22034 47112 32560 52505 10250 20189 30099 40177 57010 85500;EQDQ01  00002PRCP99
0163471120999992000092206004+37480+126630FM-12+007099999V0202301N003110120019N0120001N1+02451+01831101501ADDAA199000091GF106991061051012501001001MA1999999100721MD1710271+9999REMSYN066AAXX  22064 47112 32662 62306 10245 20183 30072 40150 57027 86500;EQDQ01  00002PRCP99
0191471120999992000092209004+37480+126630FM-12+007099999V0203201N003610360019N0080001N1+02241+01821101501ADDAA199000091AY121031AY221031GF106991021051012501031011MA1999999100711MD1810011+9999MW1101REMSYN072AAXX  22094 47112 31658 63207 10224 20182 30071 40150 58001 71022 82531;EQDQ01  00002PRCP99
0222471120999992000092212004+37480+126630FM-12+007099999V0202501N001512200019N0100001N1+02031+01671101581ADDAA199000091GF102991001001999999001011IA1019IA2999+01909KA1120M+02591MA1999999100791MD1210081+9999REMSYN094AAXX  22124 47112 32960 22503 10203 20167 30079 40158 52008 80001 333 10259 30019 55052 92011;EQDQ01  00002PRCP99
0191471120999992000092215004+37480+126630FM-12+007099999V0203201N002110075019N0080001N1+01991+01781101511ADDAA199000091AY121031AY221031GF105991051051008001001001MA1999999100711MD1510081+9999MW1101REMSYN072AAXX  22154 47112 31558 53204 10199 20178 30071 40151 55008 71022 85500;EQDQ01  00002PRCP99
0201471120999992000092218004+37480+126630FM-12+007099999V0202701N001510075019N0080001N1+01961+01831101411ADDAA199000091AY121061AY221061GF106991061051008001001001MA1999999100621MD1710091+9999MW1101REMSYN082AAXX  22184 47112 31558 62703 10196 20183 30062 40141 57009 71022 86500 333 92011;EQDQ01  00002PRCP99
0191471120999992000092221004+37480+126630FM-12+007099999V0203401N001012200019N0060001N1+01891+01811101441ADDAA199000091AY111031AY211031GF102991021051008001001001MA1999999100651MD1110031+9999MW1101REMSYN072AAXX  22214 47112 31556 23402 10189 20181 30065 40144 51003 71011 82500;EQDQ01  00002PRCP99
0254471120999992000092300004+37480+126630FM-12+007099999V0203401N001512200019N0012001N1+02061+01891101521ADDAA199000091AY101061AY201061GA1001+999999999GF100991001001999999001001IA1019IA2999+02109KA1120N+01861MA1999999100731MD1210081+9999MW1101REMSYN088AAXX  23004 47112 31912 03403 10206 20189 30073 40152 52008 71000 333 20186 30021 92022;EQDQ01  00002PRCP99
0173471120999992000092303004+37480+126630FM-12+007099999V0202501N004112200019N0100001N1+02411+01851101481ADDAA199000091GA1001+999999999GF100991001001999999001001MA1999999100701MD1510031+9999REMSYN060AAXX  23034 47112 32960 02508 10241 20185 30070 40148 55003;EQDQ01  00002PRCP99
0173471120999992000092306004+37480+126630FM-12+007099999V0202701N004612200019N0150001N1+02451+01841101271ADDAA199000091GA1001+999999999GF100991001001999999001001MA1999999100491MD1710211+9999REMSYN060AAXX  23064 47112 32965 02709 10245 20184 30049 40127 57021;EQDQ01  00002PRCP99
0173471120999992000092309004+37480+126630FM-12+007099999V0202901N004112200019N0180001N1+02161+01731101251ADDAA199000091GA1001+999999999GF100991001001999999001001MA1999999100471MD1810021+9999REMSYN060AAXX  23094 47112 32968 02908 10216 20173 30047 40125 58002;EQDQ01  00002PRCP99
0226471120999992000092312004+37480+126630FM-12+007099999V0202501N000512200019N0130001N1+01961+01681101401ADDAA199000091GA1001+999999999GF100991001001999999001001IA1019IA2999+01809KA1120M+02511MA1999999100611MD1210141+9999REMSYN082AAXX  23124 47112 32963 02501 10196 20168 30061 40140 52014 333 10251 30018 91011;EQDQ01  00002PRCP99
0163471120999992000092315004+37480+126630FM-12+007099999V0202901N001512200019N0130001N1+01941+01771101361ADDAA199000091GF102991001001999999001011MA1999999100571MD1610041+9999REMSYN066AAXX  23154 47112 32963 22903 10194 20177 30057 40136 56004 80001;EQDQ01  00002PRCP99
0173471120999992000092318004+37480+126630FM-12+007099999V0200201N000512200019N0100001N1+01881+01771101371ADDAA199000091GF101991011051008001001001MA1999999100571MD1510001+9999REMSYN076AAXX  23184 47112 32560 10201 10188 20177 30057 40137 55000 81500 333 92000;EQDQ01  00002PRCP99
0191471120999992000092321004+37480+126630FM-12+007099999V0201801N001510360019N0050001N1+01911+01811101331ADDAA199000091AY121031AY221031GF106991031051012501031001MA1999999100541MD1810031+9999MW1101REMSYN072AAXX  23214 47112 31650 61803 10191 20181 30054 40133 58003 71022 83530;EQDQ01  00002PRCP99
0244471120999992000092400004+37480+126630FM-12+007099999V0201801N003110120019N0120001N1+01961+01811101451ADDAA199000091AY121061AY221061GF107991071051012501001001IA1019IA2999+02009KA1120N+01861MA1999999100661MD1210121+9999MW1101REMSYN094AAXX  24004 47112 31662 71806 10196 20181 30066 40145 52012 71022 87500 333 20186 30020 91011;EQDQ01  00002PRCP99
0163471120999992000092403004+37480+126630FM-12+007099999V0202301N003112200019N0110001N1+02341+01711101371ADDAA199000091GF104991041041008001001001MA1999999100591MD1610071+9999REMSYN066AAXX  24034 47112 31561 42306 10234 20171 30059 40137 56007 84400;EQDQ01  00002PRCP99
0173471120999992000092406004+37480+126630FM-12+007099999V0202501N003612200019N0150001N1+02341+01771101191ADDAA199000091GF101991011051012501001001MA1999999100411MD1710181+9999REMSYN076AAXX  24064 47112 32665 12507 10234 20177 30041 40119 57018 81500 333 91011;EQDQ01  00002PRCP99
0163471120999992000092409004+37480+126630FM-12+007099999V0202901N002610075019N0150001N1+02141+01731101211ADDAA199000091GF107991071051008001001001MA1999999100421MD1210011+9999REMSYN066AAXX  24094 47112 32565 72905 10214 20173 30042 40121 52001 87500;EQDQ01  00002PRCP99
0260471120999992000092412004+37480+126630FM-12+007099999V0203201N001512200019N0050001N1+02011+01821101301ADDAA199000091AY101061AY201061GA1001+999999999GF100991001001999999001001IA1019IA2999+01909KA1120M+02461MA1999999100511MD1210091+9999MW1101REMSYN094AAXX  24124 47112 31950 03203 10201 20182 30051 40130 52009 71000 333 10246 30019 55049 92022;EQDQ01  00002PRCP99
0191471120999992000092415004+37480+126630FM-12+007099999V0202701N002110075019N0035001N1+02031+01891101311ADDAA199000091AY121031AY221031GF107991071051008001001001MA1999999100521MD1310011+9999MW1101REMSYN072AAXX  24154 47112 31535 72704 10203 20189 30052 40131 53001 71022 87500;EQDQ01  00002PRCP99
0201471120999992000092418004+37480+126630FM-12+007099999V0209999C000010075019N0035001N1+01971+01891101251ADDAA199000091AY121061AY221061GF106991061051008001001001MA1999999100461MD1710061+9999MW1101REMSYN082AAXX  24184 47112 31535 60000 10197 20189 30046 40125 57006 71022 86500 333 92022;EQDQ01  00002PRCP99
0191471120999992000092421004+37480+126630FM-12+007099999V0201401N001510120019N0030001N1+01961+01861101281ADDAA199000091AY121031AY221031GF107991061051012501031001MA1999999100491MD1010031+9999MW1101REMSYN072AAXX  24214 47112 31630 71403 10196 20186 30049 40128 50003 71022 86530;EQDQ01  00002PRCP99
0254471120999992000092500004+37480+126630FM-12+007099999V0203401N001510006019N0008001N1+01981+01871101451ADDAA199000091AY141061AY241061GA1091+999999999GF109991091999999999999999IA1019IA2999+02009KA1120N+01951MA1999999100661MD1210171+9999MW1451REMSYN088AAXX  25004 47112 31/08 93403 10198 20187 30066 40145 52017 74544 333 20195 30020 91011;EQDQ01  00002PRCP99
0163471120999992000092503004+37480+126630FM-12+007099999V0203401N002112200019N0180001N1+02361+01601101431ADDAA199000091GF102991021051012501001001MA1999999100641MD1610021+9999REMSYN066AAXX  25034 47112 32668 23404 10236 20160 30064 40143 56002 82500;EQDQ01  00002PRCP99
0173471120999992000092506004+37480+126630FM-12+007099999V0203201N003612200019N0230001N1+02491+01101101331ADDAA199000091GA1001+999999999GF100991001001999999001001MA1999999100561MD1710081+9999REMSYN060AAXX  25064 47112 32973 03207 10249 20110 30056 40133 57008;EQDQ01  00002PRCP99
0173471120999992000092509004+37480+126630FM-12+007099999V0202701N004612200019N0250001N1+02211+01321101361ADDAA199000091GA1001+999999999GF100991001001999999001001MA1999999100571MD1110011+9999REMSYN060AAXX  25094 47112 32975 02709 10221 20132 30057 40136 51001;EQDQ01  00002PRCP99
0219471120999992000092512004+37480+126630FM-12+007099999V0203401N002612200019N0200001N1+01931+01571101561ADDAA112000791GA1001+999999999GF100991001001999999001001IA1019IA2999+01809KA1120M+02531MA1999999100771MD1210201+9999REMSYN094AAXX  25124 47112 12970 03405 10193 20157 30077 40156 52020 69902 333 10253 30018 55080 92011;
0173471120999992000092515004+37480+126630FM-12+007099999V0203601N000512200019N0200001N1+01711+01211101621ADDAA199000091GA1001+999999999GF100991001001999999001001MA1999999100821MD1210051+9999REMSYN060AAXX  25154 47112 32970 03601 10171 20121 30082 40162 52005;EQDQ01  00002PRCP99
0183471120999992000092518004+37480+126630FM-12+007099999V0203601N001012200019N0180001N1+01651+01171101681ADDAA199000091GA1001+999999999GF100991001001999999001001MA1999999100881MD1210061+9999REMSYN070AAXX  25184 47112 32968 03602 10165 20117 30088 40168 52006 333 92011;EQDQ01  00002PRCP99
0173471120999992000092521004+37480+126630FM-12+007099999V0200201N000512200019N0180001N1+01521+01191101761ADDAA199000091GA1001+999999999GF100991001001999999001001MA1999999100951MD1010071+9999REMSYN060AAXX  25214 47112 32968 00201 10152 20119 30095 40176 50007;EQDQ01  00002PRCP99
0226471120999992000092600004+37480+126630FM-12+007099999V0200901N001512200019N0150001N1+02021+01381101931ADDAA199000091GA1001+999999999GF100991001001999999001001IA1019IA2999+02009KA1120N+01461MA1999999101131MD1210181+9999REMSYN082AAXX  26004 47112 32965 00903 10202 20138 30113 40193 52018 333 20146 30020 92022;EQDQ01  00002PRCP99
0173471120999992000092603004+37480+126630FM-12+007099999V0202001N001512200019N0250001N1+02591+01391101891ADDAA199000091GA1001+999999999GF100991001001999999001001MA1999999101111MD1510021+9999REMSYN060AAXX  26034 47112 32975 02003 10259 20139 30111 40189 55002;EQDQ01  00002PRCP99
0173471120999992000092606004+37480+126630FM-12+007099999V0202501N003612200019N0200001N1+02481+01351101791ADDAA199000091GF102991021051008001001001MA1999999101011MD1710101+9999REMSYN076AAXX  26064 47112 32570 22507 10248 20135 30101 40179 57010 82500 333 92022;EQDQ01  00002PRCP99
0173471120999992000092609004+37480+126630FM-12+007099999V0203201N003612200019N0200001N1+02201+01521101791ADDAA199000091GA1001+999999999GF100991001001999999001001MA1999999101001MD1010011+9999REMSYN060AAXX  26094 47112 32970 03207 10220 20152 30100 40179 50001;EQDQ01  00002PRCP99
0216471120999992000092612004+37480+126630FM-12+007099999V0203601N000519999999N0170001N1+01991+01621101901ADDAA199000091GF105991001001999999001011IA1019IA2999+01809KA1120M+02621MA1999999101111MD1210111+9999REMSYN088AAXX  26124 47112 32967 53601 10199 20162 30111 40190 52011 80001 333 10262 30018 92022;EQDQ01  00002PRCP99
0163471120999992000092615004+37480+126630FM-12+007099999V0203601N000519999999N0150001N1+01961+01301101911ADDAA199000091GF105991001001999999001011MA1999999101121MD1310011+9999REMSYN066AAXX  26154 47112 32965 53601 10196 20130 30112 40191 53001 80001;EQDQ01  00002PRCP99
0173471120999992000092618004+37480+126630FM-12+007099999V0200501N001012200019N0120001N1+01861+01301101891ADDAA199000091GF104991001001999999001011MA1999999101091MD1610031+9999REMSYN076AAXX  26184 47112 32962 40502 10186 20130 30109 40189 56003 80001 333 91011;EQDQ01  00002PRCP99
0163471120999992000092621004+37480+126630FM-12+007099999V0201101N002112200019N0120001N1+01781+01321101951ADDAA199000091GF104991001001999999001011MA1999999101151MD1210061+9999REMSYN066AAXX  26214 47112 32962 41104 10178 20132 30115 40195 52006 80001;EQDQ01  00002PRCP99
0216471120999992000092700004+37480+126630FM-12+007099999V0201101N001519999999N0110001N1+02131+01321102071ADDAA199000091GF105991031001999999031011IA1019IA2999+02109KA1120N+01731MA1999999101281MD1210131+9999REMSYN088AAXX  27004 47112 32961 51103 10213 20132 30128 40207 52013 83031 333 20173 30021 92011;EQDQ01  00002PRCP99
0163471120999992000092703004+37480+126630FM-12+007099999V0202001N003619999999N0120001N1+02511+01141102031ADDAA199000091GF105991001001999999001021MA1999999101251MD1510031+9999REMSYN066AAXX  27034 47112 32962 52007 10251 20114 30125 40203 55003 80002;EQDQ01  00002PRCP99
0173471120999992000092706004+37480+126630FM-12+007099999V0202501N002612200019N0150001N1+02571+01341101861ADDAA199000091GF101991001001999999001011MA1999999101081MD1710171+9999REMSYN076AAXX  27064 47112 32965 12505 10257 20134 30108 40186 57017 80001 333 92011;EQDQ01  00002PRCP99
0163471120999992000092709004+37480+126630FM-12+007099999V0203201N002612200019N0150001N1+02141+01411101861ADDAA199000091GF104991021001999999031021MA1999999101071MD1810011+9999REMSYN066AAXX  27094 47112 32965 43205 10214 20141 30107 40186 58001 82032;EQDQ01  00002PRCP99
0222471120999992000092712004+37480+126630FM-12+007099999V0203601N001012200019N0150001N1+02031+01431101911ADDAA199000091GF104991041001999999061001IA1019IA2999+01809KA1120M+02691MA1999999101121MD1110051+9999REMSYN094AAXX  27124 47112 32965 43602 10203 20143 30112 40191 51005 84060 333 10269 30018 55096 92011;EQDQ01  00002PRCP99
0163471120999992000092715004+37480+126630FM-12+007099999V0200901N001010360019N0120001N1+02051+01221101821ADDAA199000091GF107991041051008001011001MA1999999101021MD1610101+9999REMSYN066AAXX  27154 47112 32562 70902 10205 20122 30102 40182 56010 84510;EQDQ01  00002PRCP99
0131471120999992000092718004+37480+126630FM-12+007099999V0201401N001019999999N9999999N1+01961+01431101821ADDAA199000091MA1999999101031MD1310011+9999REMSYN060AAXX  27184 47112 3//// /1402 10196 20143 30103 40182 53001;EQDQ01  00002PRCP99
0161471120999992000092721004+37480+126630FM-12+007099999V0200701N001010120019N0080001N1+01841+01371101891ADDAY121031AY221031GF108991051051012501011999MA1999999101091MD1010061+9999MW1101REMSYN072AAXX  27214 47112 41658 80702 10184 20137 30109 40189 50006 71022 8551/;
0216471120999992000092800004+37480+126630FM-12+007099999V0202001N002110120019N0110001N1+01871+01271101981ADDAA199000091GF108991061051012501021999IA1019IA2999+01809KA1120N+01831MA1999999101181MD1210091+9999REMSYN088AAXX  28004 47112 32661 82004 10187 20127 30118 40198 52009 8652/ 333 20183 30018 91011;EQDQ01  00002PRCP99
0161471120999992000092803004+37480+126630FM-12+007099999V0200501N002110075019N0080001N1+01911+01241101881ADDAY161031AY261031GF108991061071008001021999MA1999999101091MD1510091+9999MW1601REMSYN072AAXX  28034 47112 41558 80504 10191 20124 30109 40188 55009 76066 8672/;
0171471120999992000092806004+37480+126630FM-12+007099999V0201401N002110075019N0120001N1+01771+01151101851ADDAY161061AY261061GF108991061071008001021999MA1999999101051MD1510041+9999MW1611REMSYN082AAXX  28064 47112 41562 81404 10177 20115 30105 40185 55004 76166 8672/ 333 91011;
0161471120999992000092809004+37480+126630FM-12+007099999V0200901N001510075019N0110001N1+01821+01131101841ADDAY161031AY261031GF108991061071008001021999MA1999999101041MD1810011+9999MW1611REMSYN072AAXX  28094 47112 41561 80903 10182 20113 30104 40184 58001 76166 8672/;
0215471120999992000092812004+37480+126630FM-12+007099999V0200201N002610075019N0120001N1+01831+01111101751ADDAA112001091GF108991051051008001011999IA1099IA2999+01709KA1120M+02071MA1999999100951MD1510091+9999REMSYN106AAXX  28124 47112 12562 80205 10183 20111 30095 40175 55009 60012 8551/ 333 10207 31017 55000 70012 92011;
0163471120999992000092815004+37480+126630FM-12+007099999V0200201N000510075019N0120001N1+01801+01121101751ADDAA199000021GF106991061051008001001001MA1999999100951MD1410001+9999REMSYN066AAXX  28154 47112 32562 60201 10180 20112 30095 40175 57000 86500;EQDQ01+000072APCTEN
0154471120999992000092818004+37480+126630FM-12+007099999V0200901N001012200019N0120001N1+01731+01101101691ADDAA199000021GF102991021001999999031001MA1999999100891MD1710061+9999REMSYN076AAXX  28184 47112 32962 20902 10173 20110 30089 40169 57006 82030 333 92011;
0203471120999992000092900004+37480+126630FM-12+007099999V0200901N002112200019N0200001N1+02161+01131101711ADDAA124001391GF102991001001999999001011IA1019IA2999+02109KA1120N+01521MA1999999100921MD1010041+9999REMSYN094AAXX  29004 47112 32970 20904 10216 20113 30092 40171 50004 80001 333 20152 30021 70012 92022;
0163471120999992000092903004+37480+126630FM-12+007099999V0200701N002112200019N0250001N1+02621+00731101581ADDAA199000091GF102991001001999999001011MA1999999100801MD1710121+9999REMSYN066AAXX  29034 47112 32975 20704 10262 20073 30080 40158 57012 80001;EQDQ01  00002PRCP99
0173471120999992000092906004+37480+126630FM-12+007099999V0202501N003112200019N0250001N1+02661+00741101391ADDAA199000091GF102991001001999999001011MA1999999100621MD1710181+9999REMSYN076AAXX  29064 47112 32975 22506 10266 20074 30062 40139 57018 80001 333 92022;EQDQ01  00002PRCP99
0163471120999992000092909004+37480+126630FM-12+007099999V0202501N002119999999N0250001N1+02251+01421101421ADDAA199000091GF106991001001999999001011MA1999999100631MD1810011+9999REMSYN066AAXX  29094 47112 32975 62504 10225 20142 30063 40142 58001 80001;EQDQ01  00002PRCP99
0203471120999992000092912004+37480+126630FM-12+007099999V0203601N001019999999N0200001N1+02091+01161101511ADDAA112000791GF105991001001999999001011IA1019IA2999+01809KA1120M+02741MA1999999100721MD1010091+9999REMSYN094AAXX  29124 47112 32970 53602 10209 20116 30072 40151 50009 69902 80001 333 10274 30018 91011;
0173471120999992000092915004+37480+126630FM-12+007099999V0201401N001012200019N0120001N1+01981+01411101521ADDAA199000091GA1001+999999999GF100991001001999999001001MA1999999100731MD1310011+9999REMSYN060AAXX  29154 47112 32962 01402 10198 20141 30073 40152 53001;EQDQ01  00002PRCP99
0173471120999992000092918004+37480+126630FM-12+007099999V0201401N000512200019N0080001N1+01911+01171101521ADDAA199000091GA1001+999999999GF100991001001999999001001MA1999999100731MD1410001+9999REMSYN060AAXX  29184 47112 31958 01401 10191 20117 30073 40152 54000;EQDQ01  00002PRCP99
0191471120999992000092921004+37480+126630FM-12+007099999V0200901N001510120019N0080001N1+01791+01311101491ADDAA199000091AY121031AY221031GF106991051051012501031001MA1999999100691MD1710041+9999MW1101REMSYN072AAXX  29214 47112 31658 60903 10179 20131 30069 40149 57004 71022 85530;EQDQ01  00002PRCP99
0244471120999992000093000004+37480+126630FM-12+007099999V0203601N001010360019N0080001N1+01891+01451101651ADDAA199000091AY121061AY221061GF106991021051008001031011IA1019IA2999+01909KA1120N+01781MA1999999100861MD1210171+9999MW1101REMSYN094AAXX  30004 47112 31558 63602 10189 20145 30086 40165 52017 71022 82531 333 20178 30019 92011;EQDQ01  00002PRCP99
0191471120999992000093003004+37480+126630FM-12+007099999V0203401N002619999999N0080001N1+02471+01541101621ADDAA199000091AY121031AY221031GF106991061001008001031001MA1999999100841MD1510021+9999MW1101REMSYN072AAXX  30034 47112 31558 63405 10247 20154 30084 40162 55002 71022 86030;EQDQ01  00002PRCP99
0173471120999992000093006004+37480+126630FM-12+007099999V0203201N002619999999N0150001N1+02631+01461101461ADDAA199000091GF106991001001999999001011MA1999999100691MD1710151+9999REMSYN076AAXX  30064 47112 32965 63205 10263 20146 30069 40146 57015 80001 333 92022;EQDQ01  00002PRCP99
0163471120999992000093009004+37480+126630FM-12+007099999V0202901N004119999999N0200001N1+02201+01691101501ADDAA199000091GF106991001001999999001011MA1999999100711MD1110021+9999REMSYN066AAXX  30094 47112 32970 62908 10220 20169 30071 40150 51002 80001;EQDQ01  00002PRCP99
0232471120999992000093012004+37480+126630FM-12+007099999V0202901N000512200019N0200001N1+01951+01661101611ADDAA199000091GA1001+999999999GF100991001001999999001001IA1019IA2999+01809KA1120M+02661MA1999999100821MD1210111+9999REMSYN088AAXX  30124 47112 32970 02901 10195 20166 30082 40161 52011 333 10266 30018 55066 92022;EQDQ01  00002PRCP99
0143471120999992000093015004+37480+126630FM-12+007099999V0209999C000019999999N0150001N1+01961+01801101671ADDAA199000091GF105991001001999999001011MA1999999100871REMSYN060AAXX  30154 47112 32965 50000 10196 20180 30087 40167 80001;EQDQ01  00002PRCP99
0183471120999992000093018004+37480+126630FM-12+007099999V0201401N001012200019N0120001N1+01871+01701101641ADDAA199000091GA1001+999999999GF100991001001999999001001MA1999999100851MD1610011+9999REMSYN070AAXX  30184 47112 32962 01402 10187 20170 30085 40164 56001 333 92022;EQDQ01  00002PRCP99
0201471120999992000093021004+37480+126630FM-12+007099999V0201401N001012200019N0050001N1+01751+01631101621ADDAA199000091AY101031AY201031GA1001+999999999GF100991001001999999001001MA1999999100821MD1110031+9999MW1101REMSYN066AAXX  30214 47112 31950 01402 10175 20163 30082 40162 51003 71000;EQDQ01  00002PRCP99
0244471120999992000100100004+37480+126630FM-12+007099999V0203401N001012200019N0030001N1+01941+01661101641ADDAA199000091AY111061AY211061GF103991021001999999031011IA1019IA2999+02009KA1120N+01711MA1999999100851MD1210031+9999MW1101REMSYN094AAXX  01004 47112 31930 33402 10194 20166 30085 40164 52003 71011 82031 333 20171 30020 92011;EQDQ01  00002PRCP99
0191471120999992000100103004+37480+126630FM-12+007099999V0202901N000519999999N0050001N1+02251+01741101571ADDAA199000091AY121031AY221031GF106991061001999999031001MA1999999100781MD1610071+9999MW1101REMSYN072AAXX  01034 47112 31950 62901 10225 20174 30078 40157 56007 71022 86030;EQDQ01  00002PRCP99
0173471120999992000100106004+37480+126630FM-12+007099999V0202701N003610360019N0100001N1+02441+01581101421ADDAA199000091GF106991021051008001031001MA1999999100641MD1710141+9999REMSYN076AAXX  01064 47112 32560 62707 10244 20158 30064 40142 57014 82530 333 92011;EQDQ01  00002PRCP99
0163471120999992000100109004+37480+126630FM-12+007099999V0203201N002110360019N0110001N1+02121+01681101371ADDAA199000091GF108991031051008001011999MA1999999100581MD1710061+9999REMSYN066AAXX  01094 47112 32561 83204 10212 20168 30058 40137 57006 8351/;EQDQ01  00002PRCP99
0250471120999992000100112004+37480+126630FM-12+007099999V0203201N001510360019N0080001N1+01991+01791101421ADDAA199000091AY121061AY221061GF106991031051008001031001IA1019IA2999+01909KA1120M+02491MA1999999100631MD1210051+9999MW1101REMSYN100AAXX  01124 47112 31558 63203 10199 20179 30063 40142 52005 71022 83530 333 10249 30019 55027 92011;EQDQ01  00002PRCP99
0191471120999992000100115004+37480+126630FM-12+007099999V0201801N001010360019N0080001N1+01951+01751101361ADDAA199000091AY121031AY221031GF106991021051008001031011MA1999999100561MD1710071+9999MW1101REMSYN072AAXX  01154 47112 31558 61802 10195 20175 30056 40136 57007 71022 82531;EQDQ01  00002PRCP99
0201471120999992000100118004+37480+126630FM-12+007099999V0209999C000010360019N0080001N1+01881+01751101291ADDAA199000091AY121061AY221061GF108991021051008001011999MA1999999100501MD1710061+9999MW1101REMSYN082AAXX  01184 47112 31558 80000 10188 20175 30050 40129 57006 71022 8251/ 333 92011;EQDQ01  00002PRCP99
0161471120999992000100121004+37480+126630FM-12+007099999V0200201N000510360019N0040001N1+01901+01791101231ADDAY161031AY221031GF108991021051008001021999MA1999999100441MD1710061+9999MW1211REMSYN072AAXX  01214 47112 41540 80201 10190 20179 30044 40123 57006 72162 8252/;
0237471120999992000100200004+37480+126630FM-12+007099999V0203401N000510360019N0030001N1+01931+01801101261ADDAA112000191AY161061AY261061GF108991031071008001021999IA1019IA2999+01909KA1120N+01871MA1999999100471MD1010031+9999MW1601REMSYN106AAXX  02004 47112 11530 83401 10193 20180 30047 40126 50003 69912 76066 8372/ 333 20187 30019 70001 92011;
0161471120999992000100203004+37480+126630FM-12+007099999V0202501N002110075019N0040001N1+02001+01831101221ADDAY161031AY261031GF108991051051008001021999MA1999999100431MD1710041+9999MW1211REMSYN072AAXX  02034 47112 41540 82504 10200 20183 30043 40122 57004 72166 8552/;
0101471120999992000100206004+37480+126630FM-12+007099999V0202301N004119999999N9999999N1+02201+01681101041ADDMA1999999100261MD1710171+9999REMSYN060AAXX  02064 47112 4//// /2308 10220 20168 30026 40104 57017;
0133471120999992000100209004+37480+126630FM-12+007099999V0202701N005712200019N0200001N1+02001+01711101071ADDGF103991031051012501001001MA1999999100281MD1210021+9999REMSYN066AAXX  02094 47112 42670 32711 10200 20171 30028 40107 52002 83500;
0209471120999992000100212004+37480+126630FM-12+007099999V0202701N002112200019N0130001N1+01951+01771101141ADDAA112000591GF102991021051008001001001IA1019IA2999+01809KA1120M+02291MA1999999100351MD1210071+9999REMSYN100AAXX  02124 47112 12563 22704 10195 20177 30035 40114 52007 69952 82500 333 10229 30018 70006 92022;
0154471120999992000100215004+37480+126630FM-12+007099999V0203601N001512200019N0150001N1+01771+01551101161ADDAA199000021GA1001+999999999GF100991001001999999001001MA1999999100361MD1010011+9999REMSYN060AAXX  02154 47112 32965 03603 10177 20155 30036 40116 50001;
0183471120999992000100218004+37480+126630FM-12+007099999V0203401N001012200019N0120001N1+01641+01501101181ADDAA199000091GA1001+999999999GF100991001001999999001001MA1999999100381MD1310021+9999REMSYN070AAXX  02184 47112 32962 03402 10164 20150 30038 40118 53002 333 91011;EQDQ01  00002PRCP99
0173471120999992000100221004+37480+126630FM-12+007099999V0203201N002112200019N0150001N1+01591+01431101221ADDAA199000091GA1001+999999999GF100991001001999999001001MA1999999100421MD1210041+9999REMSYN060AAXX  02214 47112 32965 03204 10159 20143 30042 40122 52004;EQDQ01  00002PRCP99
0213471120999992000100300004+37480+126630FM-12+007099999V0203401N002612200019N0200001N1+01871+00971101361ADDAA124000591GA1001+999999999GF100991001001999999001001IA1019IA2999+01809KA1120N+01511MA1999999100571MD1210151+9999REMSYN088AAXX  03004 47112 32970 03405 10187 20097 30057 40136 52015 333 20151 30018 70005 92011;
0173471120999992000100303004+37480+126630FM-12+007099999V0203401N003112200019N0200001N1+02181+01031101321ADDAA199000091GA1001+999999999GF100991001001999999001001MA1999999100531MD1510041+9999REMSYN060AAXX  03034 47112 32970 03406 10218 20103 30053 40132 55004;EQDQ01  00002PRCP99
0183471120999992000100306004+37480+126630FM-12+007099999V0203401N002612200019N0200001N1+02311+00701101271ADDAA199000091GA1001+999999999GF100991001001999999001001MA1999999100491MD1810041+9999REMSYN070AAXX  03064 47112 32970 03405 10231 20070 30049 40127 58004 333 92011;EQDQ01  00002PRCP99
0173471120999992000100309004+37480+126630FM-12+007099999V0203401N003612200019N0200001N1+01951+00571101311ADDAA199000091GA1001+999999999GF100991001001999999001001MA1999999100521MD1010031+9999REMSYN060AAXX  03094 47112 32970 03407 10195 20057 30052 40131 50003;EQDQ01  00002PRCP99
0222471120999992000100312004+37480+126630FM-12+007099999V0203601N002112200019N0200001N1+01701+00851101471ADDAA199000091GF102991001001999999001011IA1019IA2999+01509KA1120M+02311MA1999999100671MD1210151+9999REMSYN094AAXX  03124 47112 32970 23604 10170 20085 30067 40147 52015 80001 333 10231 30015 55108 92022;EQDQ01  00002PRCP99
0173471120999992000100315004+37480+126630FM-12+007099999V0203601N001512200019N0200001N1+01401+00881101531ADDAA199000091GA1001+999999999GF100991001001999999001001MA1999999100721MD1310051+9999REMSYN060AAXX  03154 47112 32970 03603 10140 20088 30072 40153 53005;EQDQ01  00002PRCP99
0183471120999992000100318004+37480+126630FM-12+007099999V0203601N000512200019N0200001N1+01351+00891101541ADDAA199000091GA1001+999999999GF100991001001999999001001MA1999999100731MD1010011+9999REMSYN070AAXX  03184 47112 32970 03601 10135 20089 30073 40154 50001 333 92033;EQDQ01  00002PRCP99
0173471120999992000100321004+37480+126630FM-12+007099999V0200201N001012200019N0120001N1+01371+00921101671ADDAA199000091GA1001+999999999GF100991001001999999001001MA1999999100851MD1210121+9999REMSYN060AAXX  03214 47112 32962 00202 10137 20092 30085 40167 52012;EQDQ01  00002PRCP99
0196471120999992000100400004+37480+126630FM-12+007099999V0200501N001012200019N0130001N1+01801+01071101761ADDAA199000091GF103991001001999999001011IA1019IA2999+01809KA1120N+01321MA1999999100961REMSYN082AAXX  04004 47112 32963 30502 10180 20107 30096 40176 80001 333 20132 30018 91011;EQDQ01  00002PRCP99
0143471120999992000100403004+37480+126630FM-12+007099999V0203201N002110360019N0150001N1+02081+00931101771ADDAA199000091GF108991021051012501011999MA1999999100981REMSYN060AAXX  04034 47112 32665 83204 10208 20093 30098 40177 8251/;EQDQ01  00002PRCP99
0173471120999992000100406004+37480+126630FM-12+007099999V0202901N002110360019N0150001N1+02041+01041101721ADDAA199000091GF107991041051012501031001MA1999999100931MD1810051+9999REMSYN076AAXX  04064 47112 32665 72904 10204 20104 30093 40172 58005 84530 333 91011;EQDQ01  00002PRCP99
0163471120999992000100409004+37480+126630FM-12+007099999V0202501N002610120019N0150001N1+01911+01301101801ADDAA199000091GF107991071051012501001001MA1999999101001MD1110071+9999REMSYN066AAXX  04094 47112 32665 72505 10191 20130 30100 40180 51007 87500;EQDQ01  00002PRCP99
0222471120999992000100412004+37480+126630FM-12+007099999V0202001N002610075019N0180001N1+01861+01311101851ADDAA199000091GF105991051051008001001001IA1019IA2999+01809KA1120M+02231MA1999999101051MD1010051+9999REMSYN094AAXX  04124 47112 32568 52005 10186 20131 30105 40185 50005 85500 333 10223 30018 55050 92011;EQDQ01  00002PRCP99
0163471120999992000100415004+37480+126630FM-12+007099999V0201801N001510075019N0180001N1+01871+01401101891ADDAA199000091GF107991051051008001011001MA1999999101091MD1810041+9999REMSYN066AAXX  04154 47112 32568 71803 10187 20140 30109 40189 58004 85510;EQDQ01  00002PRCP99
0189471120999992000100418004+37480+126630FM-12+007099999V0201601N001510075019N0120001N1+01821+01411101891ADDAA199000091GF107991071051008001001001MA1999999101091MD1410001+9999REMSYN076AAXX  04184 47112 32562 71603 10182 20141 30109 40189 51000 87500 333 92011;EQDQ01+000012APCTENQ02  00002PRCP99
0163471120999992000100421004+37480+126630FM-12+007099999V0201801N002610360019N0120001N1+01731+01411101951ADDAA199000091GF108991041051008001011999MA1999999101151MD1210061+9999REMSYN066AAXX  04214 47112 32562 81805 10173 20141 30115 40195 52006 8451/;EQDQ01  00002PRCP99
0172471120999992000100500004+37480+126630FM-12+007099999V0201601N002619999999N9999999N1+01891+01381102081ADDAA199000091IA2999+01909KA1120N+01731MA1999999101271MD1210121+9999REMSYN076AAXX  05004 47112 3//// /1605 10189 20138 30127 40208 52012 333 20173 3/019;EQDQ01  00002PRCP99
0163471120999992000100503004+37480+126630FM-12+007099999V0202001N002612200019N0150001N1+02311+01561102071ADDAA199000091GF104991021021008001001021MA1999999101281MD1310011+9999REMSYN066AAXX  05034 47112 32565 42005 10231 20156 30128 40207 53001 82202;EQDQ01  00002PRCP99
0163471120999992000100506004+37480+126630FM-12+007099999V0202301N003612200019N0150001N1+02271+01611101941ADDAA199000091GF102991021051012501001001MA1999999101151MD1810131+9999REMSYN066AAXX  05064 47112 32665 22307 10227 20161 30115 40194 58013 82500;EQDQ01  00002PRCP99
0189471120999992000100509004+37480+126630FM-12+007099999V0202301N003112200019N0150001N1+02041+01731101941ADDAA199000091GA1001+999999999GF100991001001999999001001MA1999999101151MD1410001+9999REMSYN060AAXX  05094 47112 32965 02306 10204 20173 30115 40194 58000;EQDQ01+000082APCTENQ02  00002PRCP99
0216471120999992000100512004+37480+126630FM-12+007099999V0202701N003112200019N0120001N1+01981+01741102031ADDAA199000091GF103991031051012501001001IA1019IA2999+01909KA1120M+02451MA1999999101241MD1210091+9999REMSYN088AAXX  05124 47112 32662 32706 10198 20174 30124 40203 52009 83500 333 10245 30019 91022;EQDQ01  00002PRCP99
0149471120999992000100515004+37480+126630FM-12+007099999V0202901N001512200019N0070001N1+01871+99999999999ADDAA199000091GA1001+999999999GF100991001001999999001001REMSYN065AAXX  05154 47112 31957 02903 10187 2014 30127 40207 53003 71000;EQDQ01  00002PRCP99
0201471120999992000100518004+37480+126630FM-12+007099999V0201601N001012200019N0018001N1+01801+01691102021ADDAA199000091AY111061AY211061GF102991021051008001001001MA1999999101221MD1710051+9999MW1101REMSYN082AAXX  05184 47112 31518 21602 10180 20169 30122 40202 57005 71011 82500 333 92011;EQDQ01  00002PRCP99
0201471120999992000100521004+37480+126630FM-12+007099999V0209999C000010003019N0004001N1+01731+01651102121ADDAA199000091AY141031AY241031GA1091+999999999GF109991091999999999999999MA1999999101311MD1110091+9999MW1471REMSYN066AAXX  05214 47112 31/04 90000 10173 20165 30131 40212 51009 74744;EQDQ01  00002PRCP99
0244471120999992000100600004+37480+126630FM-12+007099999V0201601N001510075019N0030001N1+01791+01691102231ADDAA199000091AY121061AY221061GF105991051051008001001001IA1019IA2999+01809KA1120N+01691MA1999999101421MD1210111+9999MW1101REMSYN094AAXX  06004 47112 31530 51603 10179 20169 30142 40223 52011 71022 85500 333 20169 30018 92011;EQDQ01  00002PRCP99
0191471120999992000100603004+37480+126630FM-12+007099999V0202501N002612200019N0050001N1+02311+01671102151ADDAA199000091AY111031AY211031GF102991021051008001001001MA1999999101361MD1510061+9999MW1101REMSYN072AAXX  06034 47112 31550 22505 10231 20167 30136 40215 55006 71011 82500;EQDQ01  00002PRCP99
0173471120999992000100606004+37480+126630FM-12+007099999V0202501N003112200019N0100001N1+02331+01451102021ADDAA199000091GF101991011051008001001001MA1999999101231MD1610131+9999REMSYN076AAXX  06064 47112 32560 12506 10233 20145 30123 40202 56013 81500 333 92011;EQDQ01  00002PRCP99
0173471120999992000100609004+37480+126630FM-12+007099999V0203401N001512200019N0120001N1+02121+01151102071ADDAA199000091GA1001+999999999GF100991001001999999001001MA1999999101271MD1110041+9999REMSYN060AAXX  06094 47112 32962 03403 10212 20115 30127 40207 51004;EQDQ01  00002PRCP99
0254471120999992000100612004+37480+126630FM-12+007099999V0203601N001012200019N0050001N1+01851+01681102181ADDAA199000091AY101061AY201061GA1001+999999999GF100991001001999999001001IA1019IA2999+01709KA1120M+02471MA1999999101381MD1210111+9999MW1101REMSYN088AAXX  06124 47112 31950 03602 10185 20168 30138 40218 52011 71000 333 10247 30017 92022;EQDQ01  00002PRCP99
0201471120999992000100615004+37480+126630FM-12+007099999V0200501N000512200019N0035001N1+01831+01561102171ADDAA199000091AY101031AY201031GA1001+999999999GF100991001001999999001001MA1999999101371MD1310011+9999MW1101REMSYN066AAXX  06154 47112 31935 00501 10183 20156 30137 40217 53001 71000;EQDQ01  00002PRCP99
0211471120999992000100618004+37480+126630FM-12+007099999V0200901N001012200019N0035001N1+01751+01521102121ADDAA199000091AY101061AY201061GA1001+999999999GF100991001001999999001001MA1999999101311MD1710061+9999MW1101REMSYN076AAXX  06184 47112 31935 00902 10175 20152 30131 40212 57006 71000 333 92022;EQDQ01  00002PRCP99
0207471120999992000100621004+37480+126630FM-12+007099999V0201101N002112200019N0030001N1+01681+01441102121ADDAA199000091AY111031AY211031GF102991021051012501001001MA1999999101311MD1410001+9999MW1101REMSYN072AAXX  06214 47112 32630 21104 10168 20144 30131 40212 52000 71011 82500;EQDQ01+000022APCTENQ02  00002PRCP99
0254471120999992000100700004+37480+126630FM-12+007099999V0201601N001512200019N0030001N1+02131+01411102171ADDAA199000091AY101061AY201061GA1001+999999999GF100991001001999999001001IA1019IA2999+02109KA1120N+01641MA1999999101381MD1210071+9999MW1101REMSYN088AAXX  07004 47112 31930 01603 10213 20141 30138 40217 52007 71000 333 20164 30021 91011;EQDQ01  00002PRCP99
0159471120999992000100703004+37480+126630FM-12+007099999V0202501N002119999999N0050001N1+02571+01631102001ADDAA199000091AY101031AY201031MA1999999101221MD1710161+9999MW1051REMSYN066AAXX  07034 47112 31950 /2504 10257 20163 30122 40200 57016 70500;EQDQ01  00002PRCP99
0183471120999992000100706004+37480+126630FM-12+007099999V0202301N002612200019N0120001N1+02571+01301101771ADDAA199000091GA1001+999999999GF100991001001999999001001MA1999999100991MD1710231+9999REMSYN070AAXX  07064 47112 32962 02305 10257 20130 30099 40177 57023 333 92011;EQDQ01  00002PRCP99
0163471120999992000100709004+37480+126630FM-12+007099999V0202701N002112200019N0120001N1+02241+01361101761ADDAA199000091GF102991001001999999001011MA1999999100971MD1710021+9999REMSYN066AAXX  07094 47112 32962 22704 10224 20136 30097 40176 57002 80001;EQDQ01  00002PRCP99
0222471120999992000100712004+37480+126630FM-12+007099999V0203601N001512200019N0120001N1+02011+01511101791ADDAA199000091GF102991001001999999001011IA1019IA2999+01809KA1120M+02671MA1999999100991MD1010021+9999REMSYN094AAXX  07124 47112 32962 23603 10201 20151 30099 40179 50002 80001 333 10267 30018 55102 92011;EQDQ01  00002PRCP99
0173471120999992000100715004+37480+126630FM-12+007099999V0200501N001012200019N0100001N1+01881+01631101641ADDAA199000091GA1001+999999999GF100991001001999999001001MA1999999100841MD1710151+9999REMSYN060AAXX  07154 47112 32960 00502 10188 20163 30084 40164 57015;EQDQ01  00002PRCP99
0211471120999992000100718004+37480+126630FM-12+007099999V0201101N001512200019N0080001N1+01741+01511101471ADDAA199000091AY101061AY201061GA1001+999999999GF100991001001999999001001MA1999999100671MD1710171+9999MW1101REMSYN076AAXX  07184 47112 31958 01103 10174 20151 30067 40147 57017 71000 333 92011;EQDQ01  00002PRCP99
0201471120999992000100721004+37480+126630FM-12+007099999V0203601N001512200019N0060001N1+01621+01471101491ADDAA199000091AY101031AY201031GA1001+999999999GF100991001001999999001001MA1999999100681MD1810011+9999MW1101REMSYN066AAXX  07214 47112 31956 03603 10162 20147 30068 40149 58001 71000;EQDQ01  00002PRCP99
0220471120999992000100800004+37480+126630FM-12+007099999V0201101N001012200019N0050001N1+02111+01541101481ADDAA199000091GA1001+999999999GF100991001001999999001001IA1019IA2999+02109KA1120N+01581MA1999999100691MD1710011+9999REMSYN076AAXX  08004 47112 31950 01102 10211 20154 30069 40148 57001 333 20158 30021;EQDQ01  00002PRCP99
0163471120999992000100803004+37480+126630FM-12+007099999V0202301N003112200019N0120001N1+02531+01521101221ADDAA199000091GF102991001001999999001011MA1999999100441MD1710251+9999REMSYN066AAXX  08034 47112 32962 22306 10253 20152 30044 40122 57025 80001;EQDQ01  00002PRCP99
0201471120999992000100806004+37480+126630FM-12+007099999V0202501N003619999999N0060001N1+02411+01551101051ADDAA199000091AY121061AY221061GF106991021001999999031011MA1999999100281MD1710161+9999MW1051REMSYN082AAXX  08064 47112 31956 62507 10241 20155 30028 40105 57016 70522 82031 333 91022;EQDQ01  00002PRCP99
0163471120999992000100809004+37480+126630FM-12+007099999V0203201N002112200019N0110001N1+02191+01371101001ADDAA199000091GF104991001001999999001011MA1999999100211MD1710071+9999REMSYN066AAXX  08094 47112 32961 43204 10219 20137 30021 40100 57007 80001;EQDQ01  00002PRCP99
0216471120999992000100812004+37480+126630FM-12+007099999V0203201N002112200019N0060001N1+01981+01601101101ADDAA199000091GF102991001001999999001011IA1019IA2999+01809KA1120M+02721MA1999999100311MD1010101+9999REMSYN088AAXX  08124 47112 31956 23204 10198 20160 30031 40110 50010 80001 333 10272 30018 91011;EQDQ01  00002PRCP99
0201471120999992000100815004+37480+126630FM-12+007099999V0209999C000012200019N0025001N1+01891+01641101081ADDAA199000091AY101031AY201031GA1001+999999999GF100991001001999999001001MA1999999100291MD1310021+9999MW1101REMSYN066AAXX  08154 47112 31925 00000 10189 20164 30029 40108 53002 71000;EQDQ01  00002PRCP99
0201471120999992000100818004+37480+126630FM-12+007099999V0203401N001012200019N0030001N1+01761+01591101081ADDAA199000091AY101061AY201061GA1001+999999999GF100991001001999999001001MA1999999100281MD1710011+9999MW1101REMSYN066AAXX  08184 47112 31930 03402 10176 20159 30028 40108 57001 71000;EQDQ01  00002PRCP99
0201471120999992000100821004+37480+126630FM-12+007099999V0203601N001012200019N0030001N1+01691+01561101221ADDAA199000091AY101031AY201031GA1001+999999999GF100991001001999999001001MA1999999100421MD1210141+9999MW1101REMSYN066AAXX  08214 47112 31930 03602 10169 20156 30042 40122 52014 71000;EQDQ01  00002PRCP99
0254471120999992000100900004+37480+126630FM-12+007099999V0203201N002112200019N0050001N1+01981+01661101441ADDAA199000091AY101061AY201061GA1001+999999999GF100991001001999999001001IA1019IA2999+02009KA1120N+01681MA1999999100641MD1210221+9999MW1101REMSYN088AAXX  09004 47112 31550 03204 10198 20166 30064 40144 52022 71000 333 20168 30020 92011;EQDQ01  00002PRCP99
0163471120999992000100903004+37480+126630FM-12+007099999V0203601N001012200019N0110001N1+02491+01411101341ADDAA199000091GF102991021051008001001001MA1999999100561MD1610081+9999REMSYN066AAXX  09034 47112 32561 23602 10249 20141 30056 40134 56008 82500;EQDQ01  00002PRCP99
0183471120999992000100906004+37480+126630FM-12+007099999V0202501N003612200019N0120001N1+02381+01571101201ADDAA199000091GA1001+999999999GF100991001001999999001001MA1999999100421MD1710141+9999REMSYN070AAXX  09064 47112 32962 02507 10238 20157 30042 40120 57014 333 92011;EQDQ01  00002PRCP99
0163471120999992000100909004+37480+126630FM-12+007099999V0203401N001512200019N0120001N1+02071+01561101311ADDAA199000091GF102991021001999999031001MA1999999100521MD1210101+9999REMSYN066AAXX  09094 47112 32962 23403 10207 20156 30052 40131 52010 82030;EQDQ01  00002PRCP99
0232471120999992000100912004+37480+126630FM-12+007099999V0202301N001512200019N0120001N1+01921+01641101391ADDAA199000091GA1001+999999999GF100991001001999999001001IA1019IA2999+01809KA1120M+02571MA1999999100601MD1210081+9999REMSYN088AAXX  09124 47112 32962 02303 10192 20164 30060 40139 52008 333 10257 30018 55085 92022;EQDQ01  00002PRCP99
0163471120999992000100915004+37480+126630FM-12+007099999V0202301N001512200019N0120001N1+01961+01731101441ADDAA199000091GF102991021051008001001001MA1999999100651MD1310051+9999REMSYN066AAXX  09154 47112 32562 22303 10196 20173 30065 40144 53005 82500;EQDQ01  00002PRCP99
0173471120999992000100918004+37480+126630FM-12+007099999V0201801N002112200019N0120001N1+01941+01761101421ADDAA199000091GF102991021051008001001001MA1999999100631MD1310021+9999REMSYN076AAXX  09184 47112 32562 21804 10194 20176 30063 40142 53002 82500 333 92022;EQDQ01  00002PRCP99
0163471120999992000100921004+37480+126630FM-12+007099999V0202501N003110210019N0120001N1+01951+01691101441ADDAA199000091GF107991071051022501001001MA1999999100651MD1010021+9999REMSYN066AAXX  09214 47112 32862 72506 10195 20169 30065 40144 50002 87500;EQDQ01  00002PRCP99
0237471120999992000101000004+37480+126630FM-12+007099999V0202501N002610075019N0150001N1+01941+01541101631ADDAA112000791AY161061AY221061GF108991061071008001021999IA1099IA2999+01909KA1120N+01931MA1999999100831MD1210181+9999MW1601REMSYN106AAXX  10004 47112 11565 82505 10194 20154 30083 40163 52018 69902 76062 8672/ 333 20193 31019 79999 91011;
0161471120999992000101003004+37480+126630FM-12+007099999V0202701N003110075019N0200001N1+01981+01291101601ADDAY161031AY221031GF108991051051008001021999MA1999999100801MD1510031+9999MW1021REMSYN072AAXX  10034 47112 41570 82706 10198 20129 30080 40160 55003 70262 8552/;
0154471120999992000101006004+37480+126630FM-12+007099999V0202301N002110120019N0230001N1+02031+01271101511ADDAA199000021GF108991061051012501021999MA1999999100711MD1710091+9999REMSYN076AAXX  10064 47112 32673 82304 10203 20127 30071 40151 57009 8652/ 333 91011;
0144471120999992000101009004+37480+126630FM-12+007099999V0203401N002110120019N0120001N1+01901+01361101561ADDAA199000021GF108991061051012501021999MA1999999100761MD1210051+9999REMSYN066AAXX  10094 47112 32662 83404 10190 20136 30076 40156 52005 8652/;
0209471120999992000101012004+37480+126630FM-12+007099999V0200901N001510075019N0150001N1+01771+01361101671ADDAA112000791GF108991051051008001011999IA1019IA2999+01709KA1120M+02041MA1999999100871MD1210111+9999REMSYN100AAXX  10124 47112 12565 80903 10177 20136 30087 40167 52011 69902 8551/ 333 10204 30017 55000 92011;
0161471120999992000101015004+37480+126630FM-12+007099999V0200701N000510075019N0100001N1+01691+01461101641ADDAY161031AY221031GF108991061051008001021999MA1999999100841MD1710031+9999MW1601REMSYN072AAXX  10154 47112 41560 80701 10169 20146 30084 40164 57003 76062 8652/;
0143471120999992000101018004+37480+126630FM-12+007099999V0200201N001510075019N0100001N1+01631+01471101581ADDGF108991051051008001011999MA1999999100771MD1810071+9999REMSYN076AAXX  10184 47112 42560 80203 10163 20147 30077 40158 58007 8551/ 333 92011;
0133471120999992000101021004+37480+126630FM-12+007099999V0200901N002110360019N0100001N1+01631+01451101551ADDGF108991021051008001021999MA1999999100751MD1710021+9999REMSYN066AAXX  10214 47112 42560 80904 10163 20145 30075 40155 57002 8252/;
0237471120999992000101100004+37480+126630FM-12+007099999V0200201N001010075019N0012001N1+01591+01481101631ADDAA112002091AY161061AY261061GF108991061071008001021999IA1099IA2999+01609KA1120N+01561MA1999999100821MD1210071+9999MW1631REMSYN106AAXX  11004 47112 11512 80202 10159 20148 30082 40163 52007 60022 76366 8672/ 333 20156 31016 70022 92022;
0133471120999992000101103004+37480+126630FM-12+007099999V0200201N001510075019N0200001N1+01721+01541101631ADDGF108991061051008001011999MA1999999100831MD1010011+9999REMSYN066AAXX  11034 47112 42570 80203 10172 20154 30083 40163 50001 8651/;
0171471120999992000101106004+37480+126630FM-12+007099999V0203601N003110075019N0200001N1+01691+01371101601ADDAY161061AY261061GF108991061051008001021999MA1999999100801MD1710031+9999MW1611REMSYN082AAXX  11064 47112 41570 83606 10169 20137 30080 40160 57003 76166 8652/ 333 92033;
0144471120999992000101109004+37480+126630FM-12+007099999V0203601N002610120019N0130001N1+01581+01291101701ADDAA199000021GF108991061051012501021999MA1999999100891MD1210071+9999REMSYN066AAXX  11094 47112 32663 83605 10158 20129 30089 40170 52007 8652/;
0237471120999992000101112004+37480+126630FM-12+007099999V0203201N004110075019N0080001N1+01511+01271101831ADDAA112000191AY161061AY261061GF108991061071008001021999IA1099IA2999+01409KA1120M+01731MA1999999101021MD1210131+9999MW1611REMSYN106AAXX  11124 47112 11558 83208 10151 20127 30102 40183 52013 69922 76166 8672/ 333 10173 31014 70025 91033;
0172471120999992000101115004+37480+126630FM-12+007099999V0203601N002110120019N0050001N1+01361+00931101881ADDAA199000021AY121031AY221031GF108991061051012501011999MA1999999101061MD1310041+9999MW1101REMSYN072AAXX  11154 47112 31650 83604 10136 20093 30106 40188 53004 71022 8651/;
0154471120999992000101118004+37480+126630FM-12+007099999V0203601N002110360019N0250001N1+01141+00231102021ADDAA199000021GF108991041051008001021999MA1999999101201MD1210141+9999REMSYN076AAXX  11184 47112 32575 83604 10114 20023 30120 40202 52014 8452/ 333 92033;
0144471120999992000101121004+37480+126630FM-12+007099999V0203601N003610360019N0250001N1+00991-00031102101ADDAA199000021GF106991041051012501031001MA1999999101281MD1210081+9999REMSYN066AAXX  11214 47112 32675 63607 10099 21003 30128 40210 52008 84530;
0209471120999992000101200004+37480+126630FM-12+007099999V0203601N004119999999N0250001N1+01041-00291102281ADDAA112000791GF105991031001999999031011IA1099IA2999+01109KA1120N+00901MA1999999101451MD1210171+9999REMSYN100AAXX  12004 47112 12975 53608 10104 21029 30145 40228 52017 69902 83031 333 20090 31011 70003 92022;
0163471120999992000101203004+37480+126630FM-12+007099999V0203601N003612200019N0250001N1+01451-00211102191ADDAA199000091GF102991021001999999031001MA1999999101371MD1710081+9999REMSYN066AAXX  12034 47112 32975 23607 10145 21021 30137 40219 57008 82030;EQDQ01  00002PRCP99
0173471120999992000101206004+37480+126630FM-12+007099999V0203201N004612200019N0250001N1+01561-00061102011ADDAA199000091GF102991021001999999031011MA1999999101201MD1710171+9999REMSYN076AAXX  12064 47112 32975 23209 10156 21006 30120 40201 57017 82031 333 92011;EQDQ01  00002PRCP99
0163471120999992000101209004+37480+126630FM-12+007099999V0203401N004119999999N0200001N1+01191-00101102051ADDAA199000091GF107991071001999999031001MA1999999101231MD1310031+9999REMSYN066AAXX  12094 47112 32970 73408 10119 21010 30123 40205 53003 87030;EQDQ01  00002PRCP99
0222471120999992000101212004+37480+126630FM-12+007099999V0203401N004119999999N0200001N1+00961+00051102191ADDAA199000091GF106991061001999999041001IA1019IA2999+00909KA1120M+01671MA1999999101361MD1210131+9999REMSYN094AAXX  12124 47112 32970 63408 10096 20005 30136 40219 52013 86040 333 10167 30009 55076 92044;EQDQ01  00002PRCP99
0163471120999992000101215004+37480+126630FM-12+007099999V0200201N001019999999N0200001N1+00841+00061102201ADDAA199000091GF106991001001999999001011MA1999999101361MD1510001+9999REMSYN066AAXX  12154 47112 32970 60202 10084 20006 30136 40220 55000 80001;EQDQ01  00002PRCP99
0173471120999992000101218004+37480+126630FM-12+007099999V0203601N002119999999N0200001N1+00821-00121102151ADDAA199000091GF106991001001999999001011MA1999999101321MD1610041+9999REMSYN076AAXX  12184 47112 32970 63604 10082 21012 30132 40215 56004 80001 333 92044;EQDQ01  00002PRCP99
0163471120999992000101221004+37480+126630FM-12+007099999V0203601N001512200019N0150001N1+00721-00031102161ADDAA199000091GF102991001001999999001011MA1999999101321MD1510001+9999REMSYN066AAXX  12214 47112 32965 23603 10072 21003 30132 40216 55000 80001;EQDQ01  00002PRCP99
0226471120999992000101300004+37480+126630FM-12+007099999V0203401N002612200019N0250001N1+01091-00251102301ADDAA199000091GA1001+999999999GF100991001001999999001001IA1019IA2999+01209KA1120N+00651MA1999999101471MD1210151+9999REMSYN082AAXX  13004 47112 32975 03405 10109 21025 30147 40230 52015 333 20065 30012 91011;EQDQ01  00002PRCP99
0163471120999992000101303004+37480+126630FM-12+007099999V0203601N002619999999N0250001N1+01451-00301102201ADDAA199000091GF106991031001999999031011MA1999999101391MD1510081+9999REMSYN066AAXX  13034 47112 32975 63605 10145 21030 30139 40220 55008 83031;EQDQ01  00002PRCP99
0173471120999992000101306004+37480+126630FM-12+007099999V0203401N003619999999N0200001N1+01491-00191102051ADDAA199000091GF106991021001999999031011MA1999999101241MD1710151+9999REMSYN076AAXX  13064 47112 32970 63407 10149 21019 30124 40205 57015 82031 333 91022;EQDQ01  00002PRCP99
0163471120999992000101309004+37480+126630FM-12+007099999V0203601N002619999999N0200001N1+01201-00111102061ADDAA199000091GF105991021001999999031011MA1999999101231MD1810011+9999REMSYN066AAXX  13094 47112 32970 53605 10120 21011 30123 40206 58001 82031;EQDQ01  00002PRCP99
0222471120999992000101312004+37480+126630FM-12+007099999V0203601N000519999999N0200001N1+01011+00001102201ADDAA199000091GF105991001001999999001011IA1019IA2999+00909KA1120M+01661MA1999999101371MD1210141+9999REMSYN094AAXX  13124 47112 32970 53601 10101 20000 30137 40220 52014 80001 333 10166 30009 55040 92011;EQDQ01  00002PRCP99
0163471120999992000101315004+37480+126630FM-12+007099999V0200201N001019999999N0200001N1+00991+00021102291ADDAA199000091GF106991001001999999001011MA1999999101461MD1810091+9999REMSYN066AAXX  13154 47112 32970 60202 10099 20002 30146 40229 58009 80001;EQDQ01  00002PRCP99
0173471120999992000101318004+37480+126630FM-12+007099999V0203601N001012200019N0180001N1+00851+00171102351ADDAA199000091GF103991001001999999001011MA1999999101511MD1310051+9999REMSYN076AAXX  13184 47112 32968 33602 10085 20017 30151 40235 53005 80001 333 92011;EQDQ01  00002PRCP99
0163471120999992000101321004+37480+126630FM-12+007099999V0201101N002119999999N0180001N1+00901+00201102321ADDAA199000091GF105991001001999999001011MA1999999101481MD1810031+9999REMSYN066AAXX  13214 47112 32968 51104 10090 20020 30148 40232 58003 80001;EQDQ01  00002PRCP99
0216471120999992000101400004+37480+126630FM-12+007099999V0201601N001019999999N0120001N1+01161+00171102401ADDAA199000091GF106991001001999999001011IA1019IA2999+01109KA1120N+00801MA1999999101571MD1210091+9999REMSYN088AAXX  14004 47112 32962 61602 10116 20017 30157 40240 52009 80001 333 20080 30011 92022;EQDQ01  00002PRCP99
0163471120999992000101403004+37480+126630FM-12+007099999V0202501N001519999999N0200001N1+01661+00111102341ADDAA199000091GF106991001001999999001011MA1999999101531MD1510041+9999REMSYN066AAXX  14034 47112 32970 62503 10166 20011 30153 40234 55004 80001;EQDQ01  00002PRCP99
0163471120999992000101406004+37480+126630FM-12+007099999V0202701N003112200019N0130001N1+01541+00491102201ADDAA199000091GF106991021051012501001011MA1999999101381MD1710151+9999REMSYN066AAXX  14064 47112 32663 62706 10154 20049 30138 40220 57015 82501;EQDQ01  00002PRCP99
0163471120999992000101409004+37480+126630FM-12+007099999V0202501N003110120019N0150001N1+01421+00731102201ADDAA199000091GF106991061051012501001001MA1999999101391MD1110011+9999REMSYN066AAXX  14094 47112 32665 62506 10142 20073 30139 40220 51001 86500;EQDQ01  00002PRCP99
0216471120999992000101412004+37480+126630FM-12+007099999V0202701N003112200019N0150001N1+01441+00711102281ADDAA199000091GF101991011051012501001001IA1019IA2999+01209KA1120M+01841MA1999999101461MD1210071+9999REMSYN088AAXX  14124 47112 32665 12706 10144 20071 30146 40228 52007 81500 333 10184 30012 91022;EQDQ01  00002PRCP99
0163471120999992000101415004+37480+126630FM-12+007099999V0203401N001012200019N0150001N1+01281+00781102361ADDAA199000091GF104991001001999999001011MA1999999101531MD1810071+9999REMSYN066AAXX  14154 47112 32965 43402 10128 20078 30153 40236 58007 80001;EQDQ01  00002PRCP99
0183471120999992000101418004+37480+126630FM-12+007099999V0202301N001012200019N0120001N1+01291+00801102391ADDAA199000091GA1001+999999999GF100991001001999999001001MA1999999101571MD1210041+9999REMSYN070AAXX  14184 47112 32962 02302 10129 20080 30157 40239 52004 333 91011;EQDQ01  00002PRCP99
0201471120999992000101421004+37480+126630FM-12+007099999V0201801N001512200019N0080001N1+01161+00871102471ADDAA199000091AY101031AY201031GA1001+999999999GF100991001001999999001001MA1999999101651MD1010081+9999MW1101REMSYN066AAXX  14214 47112 31958 01803 10116 20087 30165 40247 50008 71000;EQDQ01  00002PRCP99
0226471120999992000101500004+37480+126630FM-12+007099999V0202901N001512200019N0200001N1+01611+00521102611ADDAA199000091GA1001+999999999GF100991001001999999001001IA1019IA2999+01609KA1120N+01151MA1999999101801MD1210151+9999REMSYN082AAXX  15004 47112 32970 02903 10161 20052 30180 40261 52015 333 20115 30016 92022;EQDQ01  00002PRCP99
0163471120999992000101503004+37480+126630FM-12+007099999V0202901N002112200019N0250001N1+02031+00481102611ADDAA199000091GF102991021051008001001001MA1999999101811MD1310011+9999REMSYN066AAXX  15034 47112 32575 22904 10203 20048 30181 40261 53001 82500;EQDQ01  00002PRCP99
0183471120999992000101506004+37480+126630FM-12+007099999V0202901N004112200019N0250001N1+02051+00591102561ADDAA199000091GA1001+999999999GF100991001001999999001001MA1999999101771MD1810041+9999REMSYN070AAXX  15064 47112 32975 02908 10205 20059 30177 40256 58004 333 92033;EQDQ01  00002PRCP99
0173471120999992000101509004+37480+126630FM-12+007099999V0202901N004612200019N0200001N1+01751+01001102541ADDAA199000091GA1001+999999999GF100991001001999999001001MA1999999101741MD1610031+9999REMSYN060AAXX  15094 47112 32970 02909 10175 20100 30174 40254 56003;EQDQ01  00002PRCP99
0232471120999992000101512004+37480+126630FM-12+007099999V0203601N001512200019N0200001N1+01391+00361102691ADDAA199000091GA1001+999999999GF100991001001999999001001IA1019IA2999+01109KA1120M+02121MA1999999101871MD1210131+9999REMSYN088AAXX  15124 47112 32970 03603 10139 20036 30187 40269 52013 333 10212 30011 55090 92033;EQDQ01  00002PRCP99
0173471120999992000101515004+37480+126630FM-12+007099999V0203601N001512200019N0200001N1+01021+00171102831ADDAA199000091GA1001+999999999GF100991001001999999001001MA1999999102001MD1210131+9999REMSYN060AAXX  15154 47112 32970 03603 10102 20017 30200 40283 52013;EQDQ01  00002PRCP99
0173471120999992000101518004+37480+126630FM-12+007099999V0203601N000512200019N0200001N1+00801+00201102781ADDAA199000091GF102991001001999999001011MA1999999101941MD1710061+9999REMSYN076AAXX  15184 47112 32970 23601 10080 20020 30194 40278 57006 80001 333 92033;EQDQ01  00002PRCP99
0163471120999992000101521004+37480+126630FM-12+007099999V0209999C000012200019N0180001N1+00881+00081102831ADDAA199000091GF102991001001999999001011MA1999999101991MD1210051+9999REMSYN066AAXX  15214 47112 32968 20000 10088 20008 30199 40283 52005 80001;EQDQ01  00002PRCP99
0226471120999992000101600004+37480+126630FM-12+007099999V0203601N001012200019N0180001N1+01281+00231102841ADDAA199000091GA1001+999999999GF100991001001999999001001IA1019IA2999+01309KA1120N+00801MA1999999102021MD1210031+9999REMSYN082AAXX  16004 47112 32968 03602 10128 20023 30202 40284 52003 333 20080 30013 91011;EQDQ01  00002PRCP99
0173471120999992000101603004+37480+126630FM-12+007099999V0203401N001512200019N0220001N1+01681+00001102751ADDAA199000091GA1001+999999999GF100991001001999999001001MA1999999101941MD1510081+9999REMSYN060AAXX  16034 47112 32972 03403 10168 20000 30194 40275 55008;EQDQ01  00002PRCP99
0183471120999992000101606004+37480+126630FM-12+007099999V0202501N002612200019N0250001N1+01781+00281102431ADDAA199000091GA1001+999999999GF100991001001999999001001MA1999999101631MD1710311+9999REMSYN070AAXX  16064 47112 32975 02505 10178 20028 30163 40243 57031 333 91011;EQDQ01  00002PRCP99
0173471120999992000101609004+37480+126630FM-12+007099999V0202901N003112200019N0220001N1+01301+00221102341ADDAA199000091GA1001+999999999GF100991001001999999001001MA1999999101521MD1710111+9999REMSYN060AAXX  16094 47112 32972 02906 10130 20022 30152 40234 57011;EQDQ01  00002PRCP99
0222471120999992000101612004+37480+126630FM-12+007099999V0203201N002119999999N0200001N1+01171+00361102341ADDAA199000091GF106991061001999999031001IA1019IA2999+00909KA1120M+01841MA1999999101511MD1310011+9999REMSYN094AAXX  16124 47112 32970 63204 10117 20036 30151 40234 53001 86030 333 10184 30009 55090 92011;EQDQ01  00002PRCP99
0163471120999992000101615004+37480+126630FM-12+007099999V0202001N000519999999N0200001N1+01201+00481102221ADDAA199000091GF106991061001999999031001MA1999999101401MD1710111+9999REMSYN066AAXX  16154 47112 32970 62001 10120 20048 30140 40222 57011 86030;EQDQ01  00002PRCP99
0143471120999992000101618004+37480+126630FM-12+007099999V0201401N001019999999N0180001N1+01141+00451999999ADDAA199000091GF107991999999999999999999REMSYN075AAXX  16184 47112 32968 71402 10114 20045 0131 40213 57009 87010 333 92011;EQDQ01  00002PRCP99
0163471120999992000101621004+37480+126630FM-12+007099999V0201401N001510360019N0150001N1+01121+00491102041ADDAA199000091GF108991021051008001011999MA1999999101211MD1710101+9999REMSYN066AAXX  16214 47112 32565 81403 10112 20049 30121 40204 57010 8251/;EQDQ01  00002PRCP99
0216471120999992000101700004+37480+126630FM-12+007099999V0201401N001510075019N0100001N1+01281+00651101971ADDAA199000091GF108991061051008001011999IA1019IA2999+01309KA1120N+01111MA1999999101151MD1710061+9999REMSYN088AAXX  17004 47112 32560 81403 10128 20065 30115 40197 57006 8651/ 333 20111 30013 92022;EQDQ01  00002PRCP99
0163471120999992000101703004+37480+126630FM-12+007099999V0201601N003610360019N0150001N1+01551+00971101831ADDAA199000091GF108991041051008001011999MA1999999101021MD1610131+9999REMSYN066AAXX  17034 47112 32565 81607 10155 20097 30102 40183 56013 8451/;EQDQ01  00002PRCP99
0171471120999992000101706004+37480+126630FM-12+007099999V0202001N003610075019N0100001N1+01461+01311101681ADDAY161061AY261061GF108991061051008001021999MA1999999100871MD1710151+9999MW1211REMSYN082AAXX  17064 47112 41560 82007 10146 20131 30087 40168 57015 72166 8652/ 333 92033;
0161471120999992000101709004+37480+126630FM-12+007099999V0202901N005710360019N0030001N1+01731+01381101691ADDAY121031AY221031GF106991021051008001011001MA1999999100881MD1210011+9999MW1101REMSYN072AAXX  17094 47112 41530 62911 10173 20138 30088 40169 52001 71022 82510;
0209471120999992000101712004+37480+126630FM-12+007099999V0202901N004619999999N0130001N1+01661+01241101801ADDAA112002091GF106991001001999999001021IA1099IA2999+01509KA1120M+01761MA1999999101001MD1210121+9999REMSYN100AAXX  17124 47112 12963 62909 10166 20124 30100 40180 52012 60022 80002 333 10176 31015 70019 91033;
0172471120999992000101715004+37480+126630FM-12+007099999V0203401N003112200019N0060001N1+01511+01261101891ADDAA199000021AY101031AY201031GF104991001001999999001021MA1999999101081MD1210081+9999MW1101REMSYN072AAXX  17154 47112 31956 43406 10151 20126 30108 40189 52008 71000 80002;
0164471120999992000101718004+37480+126630FM-12+007099999V0203601N001012200019N0070001N1+01191+00951102091ADDAA199000021GA1001+999999999GF100991001001999999001001MA1999999101271MD1210191+9999REMSYN070AAXX  17184 47112 32957 03602 10119 20095 30127 40209 52019 333 92011;
0173471120999992000101721004+37480+126630FM-12+007099999V0203601N001512200019N0130001N1+01001+00751102171ADDAA199000091GA1001+999999999GF100991001001999999001001MA1999999101351MD1010081+9999REMSYN060AAXX  17214 47112 32963 03603 10100 20075 30135 40217 50008;EQDQ01  00002PRCP99
0231471120999992000101800004+37480+126630FM-12+007099999V0203601N001010075019N0050001N1+01221+00981102381ADDAA124001891AY121061AY221061GF105991051051008001001001IA1099IA2999+01309KA1120N+00951MA1999999101551MD1210201+9999MW1101REMSYN100AAXX  18004 47112 31550 53602 10122 20098 30155 40238 52020 71022 85500 333 20095 31013 70019 92011;
0191471120999992000101803004+37480+126630FM-12+007099999V0201401N002612200019N0080001N1+02031+01151102291ADDAA199000091AY111031AY211031GF102991021051008001001001MA1999999101491MD1510061+9999MW1101REMSYN072AAXX  18034 47112 31558 21405 10203 20115 30149 40229 55006 71011 82500;EQDQ01  00002PRCP99
0173471120999992000101806004+37480+126630FM-12+007099999V0202301N003112200019N0100001N1+01941+01021102101ADDAA199000091GF104991041051008001001001MA1999999101301MD1710191+9999REMSYN076AAXX  18064 47112 32560 42306 10194 20102 30130 40210 57019 84500 333 92011;EQDQ01  00002PRCP99
0191471120999992000101809004+37480+126630FM-12+007099999V0203401N002612200019N0080001N1+01651+01261102181ADDAA199000091AY101031AY201031GF101991011051008001001001MA1999999101371MD1210071+9999MW1101REMSYN072AAXX  18094 47112 31558 13405 10165 20126 30137 40218 52007 71000 81500;EQDQ01  00002PRCP99
0260471120999992000101812004+37480+126630FM-12+007099999V0200901N001512200019N0030001N1+01471+01161102231ADDAA199000091AY101061AY201061GA1001+999999999GF100991001001999999001001IA1019IA2999+01209KA1120M+02161MA1999999101421MD1210051+9999MW1101REMSYN094AAXX  18124 47112 31930 00903 10147 20116 30142 40223 52005 71000 333 10216 30012 55072 92022;EQDQ01  00002PRCP99
0173471120999992000101815004+37480+126630FM-12+007099999V0201601N002612200019N0100001N1+01371+00851102231ADDAA199000091GA1001+999999999GF100991001001999999001001MA1999999101411MD1310011+9999REMSYN060AAXX  18154 47112 32960 01605 10137 20085 30141 40223 53001;EQDQ01  00002PRCP99
0173471120999992000101818004+37480+126630FM-12+007099999V0201601N002110075019N0150001N1+01281+00761102281ADDAA199000091GF106991061051008001001001MA1999999101461MD1210051+9999REMSYN076AAXX  18184 47112 32565 61604 10128 20076 30146 40228 52005 86500 333 92022;EQDQ01  00002PRCP99
0173471120999992000101821004+37480+126630FM-12+007099999V0201401N002612200019N0120001N1+01201+00741102271ADDAA199000091GA1001+999999999GF100991001001999999001001MA1999999101451MD1210011+9999REMSYN060AAXX  18214 47112 32962 01405 10120 20074 30145 40227 52001;EQDQ01  00002PRCP99
0226471120999992000101900004+37480+126630FM-12+007099999V0201401N002112200019N0100001N1+01461+00851102271ADDAA199000091GA1001+999999999GF100991001001999999001001IA1019IA2999+01509KA1120N+01191MA1999999101461MD1310011+9999REMSYN082AAXX  19004 47112 32960 01404 10146 20085 30146 40227 53001 333 20119 30015 91011;EQDQ01  00002PRCP99
0163471120999992000101903004+37480+126630FM-12+007099999V0202301N003112200019N0110001N1+01781+01111102111ADDAA199000091GF104991041051012501001001MA1999999101301MD1710161+9999REMSYN066AAXX  19034 47112 32661 42306 10178 20111 30130 40211 57016 84500;EQDQ01  00002PRCP99
0173471120999992000101906004+37480+126630FM-12+007099999V0202301N002612200019N0110001N1+02031+00981101851ADDAA199000091GF102991021051008001001001MA1999999101051MD1710251+9999REMSYN076AAXX  19064 47112 32561 22305 10203 20098 30105 40185 57025 82500 333 92011;EQDQ01  00002PRCP99
0163471120999992000101909004+37480+126630FM-12+007099999V0202501N002112200019N0130001N1+01651+00971101821ADDAA199000091GF102991011051012501031011MA1999999101011MD1710041+9999REMSYN066AAXX  19094 47112 32663 22504 10165 20097 30101 40182 57004 81531;EQDQ01  00002PRCP99
0216471120999992000101912004+37480+126630FM-12+007099999V0202701N001519999999N0120001N1+01581+01141101831ADDAA199000091GF106991001001999999001011IA1019IA2999+01409KA1120M+02101MA1999999101021MD1310011+9999REMSYN088AAXX  19124 47112 32962 62703 10158 20114 30102 40183 53001 80001 333 10210 30014 92011;EQDQ01  00002PRCP99
0163471120999992000101915004+37480+126630FM-12+007099999V0209999C000019999999N0150001N1+01541+01031101791ADDAA199000091GF106991051001999999031011MA1999999100981MD1510041+9999REMSYN066AAXX  19154 47112 32965 60000 10154 20103 30098 40179 55004 85031;EQDQ01  00002PRCP99
0173471120999992000101918004+37480+126630FM-12+007099999V0203201N001010360019N0120001N1+01481+01071101771ADDAA199000091GF108991031051008001011999MA1999999100961MD1510021+9999REMSYN076AAXX  19184 47112 32562 83202 10148 20107 30096 40177 55002 8351/ 333 92011;EQDQ01  00002PRCP99
0191471120999992000101921004+37480+126630FM-12+007099999V0201801N001010360019N0080001N1+01421+01041101741ADDAA199000091AY121031AY221031GF107991021051008001011001MA1999999100931MD1810031+9999MW1101REMSYN072AAXX  19214 47112 31558 71802 10142 20104 30093 40174 58003 71022 82510;EQDQ01  00002PRCP99
0244471120999992000102000004+37480+126630FM-12+007099999V0201801N002612200019N0030001N1+01701+01221101901ADDAA199000091AY121061AY221061GF104991021051008001041001IA1019IA2999+01809KA1120N+01381MA1999999101101MD1210171+9999MW1101REMSYN094AAXX  20004 47112 31530 41805 10170 20122 30110 40190 52017 71022 82540 333 20138 30018 92022;EQDQ01  00002PRCP99
0131471120999992000102003004+37480+126630FM-12+007099999V0202501N002619999999N9999999N1+02101+01301101871ADDAA199000091MA1999999101081MD1510021+9999REMSYN060AAXX  20034 47112 3//// /2505 10210 20130 30108 40187 55002;EQDQ01  00002PRCP99
0173471120999992000102006004+37480+126630FM-12+007099999V0202701N005110075019N0150001N1+02011+01361101781ADDAA199000091GF106991061051008001001001MA1999999100981MD1710101+9999REMSYN076AAXX  20064 47112 32565 62710 10201 20136 30098 40178 57010 86500 333 92033;EQDQ01  00002PRCP99
0173471120999992000102009004+37480+126630FM-12+007099999V0202701N004112200019N0100001N1+01761+01391101901ADDAA199000091GA1001+999999999GF100991001001999999001001MA1999999101091MD1210111+9999REMSYN060AAXX  20094 47112 32960 02708 10176 20139 30109 40190 52011;EQDQ01  00002PRCP99
0254471120999992000102012004+37480+126630FM-12+007099999V0202501N002112200019N0080001N1+01631+01481102011ADDAA199000091AY101061AY201061GA1001+999999999GF100991001001999999001001IA1019IA2999+01509KA1120M+02271MA1999999101201MD1210111+9999MW1101REMSYN088AAXX  20124 47112 31958 02504 10163 20148 30120 40201 52011 71000 333 10227 30015 91011;EQDQ01  00002PRCP99
0173471120999992000102015004+37480+126630FM-12+007099999V0203601N001512200019N0150001N1+01351+00751102111ADDAA199000091GA1001+999999999GF100991001001999999001001MA1999999101301MD1210101+9999REMSYN060AAXX  20154 47112 32965 03603 10135 20075 30130 40211 52010;EQDQ01  00002PRCP99
0183471120999992000102018004+37480+126630FM-12+007099999V0203601N001012200019N0150001N1+01121+00461102251ADDAA199000091GA1001+999999999GF100991001001999999001001MA1999999101431MD1210131+9999REMSYN070AAXX  20184 47112 32965 03602 10112 20046 30143 40225 52013 333 91011;EQDQ01  00002PRCP99
0173471120999992000102021004+37480+126630FM-12+007099999V0203601N001012200019N0200001N1+01031+00481102381ADDAA199000091GA1001+999999999GF100991001001999999001001MA1999999101551MD1010121+9999REMSYN060AAXX  20214 47112 32970 03602 10103 20048 30155 40238 50012;EQDQ01  00002PRCP99
0216471120999992000102100004+37480+126630FM-12+007099999V0203201N001012200019N0130001N1+01531+00751102521ADDAA199000091GF103991001001999999001011IA1019IA2999+01509KA1120N+01001MA1999999101701MD1010151+9999REMSYN088AAXX  21004 47112 32963 33202 10153 20075 30170 40252 50015 80001 333 20100 30015 92011;EQDQ01  00002PRCP99
0163471120999992000102103004+37480+126630FM-12+007099999V0203401N002619999999N0170001N1+01961+00601102411ADDAA199000091GF105991001001999999001011MA1999999101611MD1710091+9999REMSYN066AAXX  21034 47112 32967 53405 10196 20060 30161 40241 57009 80001;EQDQ01  00002PRCP99
0173471120999992000102106004+37480+126630FM-12+007099999V0203401N002619999999N0200001N1+02021+00511102201ADDAA199000091GF106991041001999999061041MA1999999101401MD1710211+9999REMSYN076AAXX  21064 47112 32970 63405 10202 20051 30140 40220 57021 84064 333 92022;EQDQ01  00002PRCP99
0163471120999992000102109004+37480+126630FM-12+007099999V0203201N003112200019N0200001N1+01671+00831102231ADDAA199000091GF104991001001999999001011MA1999999101421MD1010021+9999REMSYN066AAXX  21094 47112 32970 43206 10167 20083 30142 40223 50002 80001;EQDQ01  00002PRCP99
0222471120999992000102112004+37480+126630FM-12+007099999V0203601N001019999999N0200001N1+01421+01021102371ADDAA199000091GF105991001001999999001011IA1019IA2999+01209KA1120M+02161MA1999999101551MD1210131+9999REMSYN094AAXX  21124 47112 32970 53602 10142 20102 30155 40237 52013 80001 333 10216 30012 55083 92022;EQDQ01  00002PRCP99
0163471120999992000102115004+37480+126630FM-12+007099999V0203601N001012200019N0150001N1+01321+00911102361ADDAA199000091GF102991001001999999001011MA1999999101541MD1310011+9999REMSYN066AAXX  21154 47112 32965 23602 10132 20091 30154 40236 53001 80001;EQDQ01  00002PRCP99
0189471120999992000102118004+37480+126630FM-12+007099999V0203601N001512200019N0120001N1+01191+00911102361ADDAA199000091GF102991001001999999001011MA1999999101541MD1410001+9999REMSYN076AAXX  21184 47112 32962 23603 10119 20091 30154 40236 51000 80001 333 92022;EQDQ01+000012APCTENQ02  00002PRCP99
0163471120999992000102121004+37480+126630FM-12+007099999V0203601N001519999999N0120001N1+01121+00741102381ADDAA199000091GF105991001001999999001011MA1999999101551MD1010011+9999REMSYN066AAXX  21214 47112 32962 53603 10112 20074 30155 40238 50001 80001;EQDQ01  00002PRCP99
0216471120999992000102200004+37480+126630FM-12+007099999V0200201N000510360019N0100001N1+01291+00841102401ADDAA199000091GF107991021051008001031001IA1019IA2999+01309KA1120N+01091MA1999999101581MD1010031+9999REMSYN088AAXX  22004 47112 32560 70201 10129 20084 30158 40240 50003 82530 333 20109 30013 92011;EQDQ01  00002PRCP99
0163471120999992000102203004+37480+126630FM-12+007099999V0200901N002110360019N0120001N1+01611+00581102271ADDAA199000091GF108991031051008001011999MA1999999101461MD1510121+9999REMSYN066AAXX  22034 47112 32562 80904 10161 20058 30146 40227 55012 8351/;EQDQ01  00002PRCP99
0173471120999992000102206004+37480+126630FM-12+007099999V0200701N003110360019N0120001N1+01801+00401101961ADDAA199000091GF107991041051008001011001MA1999999101151MD1710311+9999REMSYN076AAXX  22064 47112 32562 70706 10180 20040 30115 40196 57031 84510 333 92011;EQDQ01  00002PRCP99
0163471120999992000102209004+37480+126630FM-12+007099999V0200701N002610360019N0120001N1+01681+00461101941ADDAA199000091GF108991031051008001011999MA1999999101131MD1510021+9999REMSYN066AAXX  22094 47112 32562 80705 10168 20046 30113 40194 55002 8351/;EQDQ01  00002PRCP99
0222471120999992000102212004+37480+126630FM-12+007099999V0200901N003110360019N0120001N1+01641+00741101961ADDAA199000091GF108991041051008001011999IA1019IA2999+01609KA1120M+01841MA1999999101151MD1310021+9999REMSYN094AAXX  22124 47112 32562 80906 10164 20074 30115 40196 53002 8451/ 333 10184 30016 55000 92011;EQDQ01  00002PRCP99
0179471120999992000102215004+37480+126630FM-12+007099999V0201101N001510075019N0120001N1+01621+00861101961ADDAA199000091GF108991051051008001021999MA1999999101151MD1410001+9999REMSYN066AAXX  22154 47112 32562 81103 10162 20086 30115 40196 57000 8552/;EQDQ01+000072APCTENQ02  00002PRCP99
0171471120999992000102218004+37480+126630FM-12+007099999V0201101N002110075019N0120001N1+01371+01141101891ADDAY161061AY221061GF108991061051008001021999MA1999999101071MD1610081+9999MW1601REMSYN082AAXX  22184 47112 41562 81104 10137 20114 30107 40189 56008 76062 8652/ 333 92011;
0133471120999992000102221004+37480+126630FM-12+007099999V0201101N002110075019N0120001N1+01451+01011101791ADDGF108991061051008001021999MA1999999100981MD1810091+9999REMSYN066AAXX  22214 47112 42562 81104 10145 20101 30098 40179 58009 8652/;
0209471120999992000102300004+37480+126630FM-12+007099999V0201101N002110360019N0200001N1+01601+01001101881ADDAA112001091GF108991041051008001011999IA1099IA2999+01609KA1120N+01361MA1999999101071MD1210091+9999REMSYN100AAXX  23004 47112 12570 81104 10160 20100 30107 40188 52009 60012 8451/ 333 20136 31016 70013 92022;
0144471120999992000102303004+37480+126630FM-12+007099999V0200701N001519999999N0200001N1+02161+01051101781ADDAA199000021GF106991061001999999041001MA1999999100991MD1310081+9999REMSYN066AAXX  23034 47112 32970 60703 10216 20105 30099 40178 53008 86040;
0164471120999992000102306004+37480+126630FM-12+007099999V0203401N001512200019N0250001N1+02431+01171101581ADDAA199000021GA1001+999999999GF100991001001999999001001MA1999999100801MD1710191+9999REMSYN070AAXX  23064 47112 32975 03403 10243 20117 30080 40158 57019 333 92022;
0163471120999992000102309004+37480+126630FM-12+007099999V0203601N002112200019N0250001N1+01801+01331101671ADDAA199000091GF102991001001999999001021MA1999999100871MD1210071+9999REMSYN066AAXX  23094 47112 32975 23604 10180 20133 30087 40167 52007 80002;EQDQ01  00002PRCP99
0203471120999992000102312004+37480+126630FM-12+007099999V0200201N001512200019N0180001N1+01661+01111101771ADDAA124001391GF102991001001999999001011IA1019IA2999+01509KA1120M+02441MA1999999100961MD1210091+9999REMSYN094AAXX  23124 47112 32968 20203 10166 20111 30096 40177 52009 80001 333 10244 30015 70013 91011;
0173471120999992000102315004+37480+126630FM-12+007099999V0201101N001512200019N0130001N1+01621+01121101721ADDAA199000091GA1001+999999999GF100991001001999999001001MA1999999100921MD1510041+9999REMSYN060AAXX  23154 47112 32963 01103 10162 20112 30092 40172 55004;EQDQ01  00002PRCP99
0201471120999992000102318004+37480+126630FM-12+007099999V0201101N002112200019N0070001N1+01551+01211101761ADDAA199000091AY111061AY211061GF102991011051008001031001MA1999999100951MD1310031+9999MW1101REMSYN082AAXX  23184 47112 31557 21104 10155 20121 30095 40176 53003 71011 81530 333 92022;EQDQ01  00002PRCP99
0163471120999992000102321004+37480+126630FM-12+007099999V0201401N002612200019N0150001N1+01611+01291101771ADDAA199000091GF104991041051012501001001MA1999999100961MD1310011+9999REMSYN066AAXX  23214 47112 32665 41405 10161 20129 30096 40177 53001 84500;EQDQ01  00002PRCP99
0237471120999992000102400004+37480+126630FM-12+007099999V0201101N002610075019N0130001N1+01661+01331101861ADDAA112000191AY161061AY221061GF108991061071008001021999IA1099IA2999+01509KA1120N+01481MA1999999101061MD1210101+9999MW1611REMSYN106AAXX  24004 47112 11563 81105 10166 20133 30106 40186 52010 69922 76162 8672/ 333 20148 31015 70002 92011;
0161471120999992000102403004+37480+126630FM-12+007099999V0200901N001010075019N0080001N1+01631+01441101771ADDAY161031AY261031GF108991061071008001021999MA1999999100971MD1710091+9999MW1611REMSYN072AAXX  24034 47112 41558 80902 10163 20144 30097 40177 57009 76166 8672/;
0171471120999992000102406004+37480+126630FM-12+007099999V0200901N001510075019N0060001N1+01651+01541101531ADDAY161061AY261061GF108991061071008001021999MA1999999100721MD1710251+9999MW1611REMSYN082AAXX  24064 47112 41556 80903 10165 20154 30072 40153 57025 76166 8672/ 333 92011;
0161471120999992000102409004+37480+126630FM-12+007099999V0201401N001010075019N0060001N1+01651+01561101491ADDAY161031AY261031GF108991061071008001021999MA1999999100681MD1710041+9999MW1611REMSYN072AAXX  24094 47112 41556 81402 10165 20156 30068 40149 57004 76166 8672/;
0243471120999992000102412004+37480+126630FM-12+007099999V0201401N000510075019N0030001N1+01691+01611101501ADDAA112011991AY161061AY261061GF108991061071008001021999IA1099IA2999+01609KA1120M+01741MA1999999100701MD1210021+9999MW1611REMSYN112AAXX  24124 47112 11530 81401 10169 20161 30070 40150 52002 60122 76166 8672/ 333 10174 31016 55000 70117 92033;
0161471120999992000102415004+37480+126630FM-12+007099999V0202701N001010075019N0012001N1+01681+01621101451ADDAY161031AY261031GF108991071071008001021999MA1999999100651MD1710051+9999MW1611REMSYN072AAXX  24154 47112 41512 82702 10168 20162 30065 40145 57005 76166 8772/;
0190471120999992000102418004+37480+126630FM-12+007099999V0200201N001510075019N0003001N1+01581+01531101461ADDAY161061AY261061GF108991071071008001021999MA1999999100651MD1810011+9999MW1611REMSYN082AAXX  24184 47112 41503 80203 10158 20153 30065 40146 58000 76166 8772/ 333 92022;EQDQ01+000002APC3  
0161471120999992000102421004+37480+126630FM-12+007099999V0203401N004610120019N0060001N1+01521+01481101551ADDAY111031AY211031GF107991071051012501001001MA1999999100741MD1210091+9999MW1101REMSYN072AAXX  24214 47112 41656 73409 10152 20148 30074 40155 52009 71011 87500;
0209471120999992000102500004+37480+126630FM-12+007099999V0203401N003612200019N0150001N1+01461+01231101811ADDAA112003091GF102991021051012501001001IA1019IA2999+01409KA1120N+01431MA1999999101001MD1210261+9999REMSYN100AAXX  25004 47112 11665 23407 10146 20123 30100 40181 52026 60032 82500 333 20143 30014 70144 91022;
0154471120999992000102503004+37480+126630FM-12+007099999V0203601N002612200019N0220001N1+01791+01191101811ADDAA199000021GA1001+999999999GF100991001001999999001001MA1999999101011MD1710011+9999REMSYN060AAXX  25034 47112 32972 03605 10179 20119 30101 40181 57001;
0154471120999992000102506004+37480+126630FM-12+007099999V0203201N005112200019N0250001N1+01711+00701101751ADDAA199000021GF101991001001999999001011MA1999999100951MD1810061+9999REMSYN076AAXX  25064 47112 32975 13210 10171 20070 30095 40175 58006 80001 333 91033;
0173471120999992000102509004+37480+126630FM-12+007099999V0203401N004112200019N0230001N1+01391+00541101831ADDAA199000091GA1001+999999999GF100991001001999999001001MA1999999101011MD1010061+9999REMSYN060AAXX  25094 47112 32973 03408 10139 20054 30101 40183 50006;EQDQ01  00002PRCP99
0209471120999992000102512004+37480+126630FM-12+007099999V0203401N003619999999N0200001N1+01151+00281102031ADDAA124002891GF105991051001999999031001IA1099IA2999+01109KA1120M+01831MA1999999101211MD1210201+9999REMSYN100AAXX  25124 47112 32970 53407 10115 20028 30121 40203 52020 85030 333 10183 31011 55091 70029 92011;
0163471120999992000102515004+37480+126630FM-12+007099999V0203601N002112200019N0200001N1+01041+00061102181ADDAA199000091GF103991031001999999031001MA1999999101351MD1210141+9999REMSYN066AAXX  25154 47112 32970 33604 10104 20006 30135 40218 52014 83030;EQDQ01  00002PRCP99
0183471120999992000102518004+37480+126630FM-12+007099999V0203601N002112200019N0200001N1+00881-00121102241ADDAA199000091GA1001+999999999GF100991001001999999001001MA1999999101401MD1210051+9999REMSYN070AAXX  25184 47112 32970 03604 10088 21012 30140 40224 52005 333 92011;EQDQ01  00002PRCP99
0173471120999992000102521004+37480+126630FM-12+007099999V0203601N002612200019N0200001N1+00741-00481102351ADDAA199000091GA1001+999999999GF100991001001999999001001MA1999999101511MD1210111+9999REMSYN060AAXX  25214 47112 32970 03605 10074 21048 30151 40235 52011;EQDQ01  00002PRCP99
0226471120999992000102600004+37480+126630FM-12+007099999V0203601N003112200019N0300001N1+00911-00781102601ADDAA199000091GA1001+999999999GF100991001001999999001001IA1019IA2999+01109KA1120N+00691MA1999999101761MD1210251+9999REMSYN082AAXX  26004 47112 32980 03606 10091 21078 30176 40260 52025 333 20069 30011 92044;EQDQ01  00002PRCP99
0173471120999992000102603004+37480+126630FM-12+007099999V0203401N003612200019N0300001N1+01321-00391102531ADDAA199000091GA1001+999999999GF100991001001999999001001MA1999999101711MD1710051+9999REMSYN060AAXX  26034 47112 32980 03407 10132 21039 30171 40253 57005;EQDQ01  00002PRCP99
0183471120999992000102606004+37480+126630FM-12+007099999V0203601N002612200019N0300001N1+01591-00491102401ADDAA199000091GA1001+999999999GF100991001001999999001001MA1999999101581MD1710131+9999REMSYN070AAXX  26064 47112 32980 03605 10159 21049 30158 40240 57013 333 92033;EQDQ01  00002PRCP99
0173471120999992000102609004+37480+126630FM-12+007099999V0203601N001512200019N0250001N1+01141-00431102501ADDAA199000091GA1001+999999999GF100991001001999999001001MA1999999101671MD1210091+9999REMSYN060AAXX  26094 47112 32975 03603 10114 21043 30167 40250 52009;EQDQ01  00002PRCP99
0226471120999992000102612004+37480+126630FM-12+007099999V0203601N001512200019N0250001N1+00881-00151102591ADDAA199000091GA1001+999999999GF100991001001999999001001IA1019IA2999+00709KA1120M+01601MA1999999101761MD1210091+9999REMSYN082AAXX  26124 47112 32975 03603 10088 21015 30176 40259 52009 333 10160 30007 91011;EQDQ01  00002PRCP99
0189471120999992000102615004+37480+126630FM-12+007099999V0200201N002112200019N0250001N1+00741-00131102611ADDAA199000091GA1001+999999999GF100991001001999999001001MA1999999101761MD1310021+9999REMSYN060AAXX  26154 47112 32975 00204 10074 21013 30176 40261 53000;EQDQ01+000002APC3  Q02  00002PRCP99
0173471120999992000102618004+37480+126630FM-12+007099999V0203601N001512200019N0220001N1+00651-00061102671ADDAA199000091GA1001+999999999GF100991001001999999001001MA1999999101821MD1210061+9999REMSYN060AAXX  26184 47112 32972 03603 10065 21006 30182 40267 52006;EQDQ01  00002PRCP99
0173471120999992000102621004+37480+126630FM-12+007099999V0200201N001512200019N0200001N1+00591+00011102761ADDAA199000091GA1001+999999999GF100991001001999999001001MA1999999101911MD1210091+9999REMSYN060AAXX  26214 47112 32970 00203 10059 20001 30191 40276 52009;EQDQ01  00002PRCP99
0226471120999992000102700004+37480+126630FM-12+007099999V0200201N000512200019N0120001N1+01021+00241102861ADDAA199000091GA1001+999999999GF100991001001999999001001IA1019IA2999+01109KA1120N+00561MA1999999102021MD1210111+9999REMSYN082AAXX  27004 47112 32962 00201 10102 20024 30202 40286 52011 333 20056 30011 92011;EQDQ01  00002PRCP99
0173471120999992000102703004+37480+126630FM-12+007099999V0200901N001512200019N0130001N1+01731+00331102711ADDAA199000091GA1001+999999999GF100991001001999999001001MA1999999101901MD1710121+9999REMSYN060AAXX  27034 47112 32963 00903 10173 20033 30190 40271 57012;EQDQ01  00002PRCP99
0183471120999992000102706004+37480+126630FM-12+007099999V0203201N002612200019N0130001N1+01831+00591102501ADDAA199000091GA1001+999999999GF100991001001999999001001MA1999999101691MD1710211+9999REMSYN070AAXX  27064 47112 32963 03205 10183 20059 30169 40250 57021 333 92011;EQDQ01  00002PRCP99
0173471120999992000102709004+37480+126630FM-12+007099999V0203401N002612200019N0150001N1+01421+00871102501ADDAA199000091GA1001+999999999GF100991001001999999001001MA1999999101681MD1310011+9999REMSYN060AAXX  27094 47112 32965 03405 10142 20087 30168 40250 53001;EQDQ01  00002PRCP99
0222471120999992000102712004+37480+126630FM-12+007099999V0203601N001012200019N0150001N1+01251+00691102561ADDAA199000091GF102991021051008001001001IA1019IA2999+01009KA1120M+01871MA1999999101741MD1310061+9999REMSYN094AAXX  27124 47112 32565 23602 10125 20069 30174 40256 53006 82500 333 10187 30010 55091 92022;EQDQ01  00002PRCP99
0179471120999992000102715004+37480+126630FM-12+007099999V0200201N001519999999N0120001N1+01261+00751102531ADDAA199000091GF107991999001999999041001MA1999999101711MD1710031+9999REMSYN066AAXX  27154 47112 32962 70203 10126 20075 30171 40253 57003 86040;EQDQ01+000062SCOTLCQ02  00002PRCP99
0173471120999992000102718004+37480+126630FM-12+007099999V0203601N001010360019N0120001N1+01131+00751102421ADDAA199000091GF106991041051008001011001MA1999999101591MD1710121+9999REMSYN076AAXX  27184 47112 32562 63602 10113 20075 30159 40242 57012 84510 333 92022;EQDQ01  00002PRCP99
0191471120999992000102721004+37480+126630FM-12+007099999V0200201N001510360019N0060001N1+01091+00721102331ADDAA199000091AY121031AY221031GF108991041051012501021999MA1999999101501MD1710091+9999MW1101REMSYN072AAXX  27214 47112 31656 80203 10109 20072 30150 40233 57009 71022 8452/;EQDQ01  00002PRCP99
0244471120999992000102800004+37480+126630FM-12+007099999V0203601N001010120019N0070001N1+01131+00621102351ADDAA199000091AY121061AY221061GF108991051051012501021999IA1019IA2999+01209KA1120N+01041MA1999999101521MD1310021+9999MW1101REMSYN094AAXX  28004 47112 31657 83602 10113 20062 30152 40235 53002 71022 8552/ 333 20104 30012 91011;EQDQ01  00002PRCP99
0191471120999992000102803004+37480+126630FM-12+007099999V0203601N001510075019N0080001N1+01391+00661102201ADDAA199000091AY121031AY221031GF108991051051008001021999MA1999999101391MD1710131+9999MW1101REMSYN072AAXX  28034 47112 31558 83603 10139 20066 30139 40220 57013 71022 8552/;EQDQ01  00002PRCP99
0173471120999992000102806004+37480+126630FM-12+007099999V0203601N001010360019N0130001N1+01531+00521101981ADDAA199000091GF108991031051008001021999MA1999999101171MD1710221+9999REMSYN076AAXX  28064 47112 32563 83602 10153 20052 30117 40198 57022 8352/ 333 92011;EQDQ01  00002PRCP99
0163471120999992000102809004+37480+126630FM-12+007099999V0203601N001010360019N0120001N1+01291+00091101881ADDAA199000091GF108991031051008001021999MA1999999101061MD1710111+9999REMSYN066AAXX  28094 47112 32562 83602 10129 20009 30106 40188 57011 8352/;EQDQ01  00002PRCP99
0216471120999992000102812004+37480+126630FM-12+007099999V0203601N001010360019N0120001N1+01131+00281101891ADDAA199000091GF108991041051008001021999IA1019IA2999+01009KA1120M+01541MA1999999101071MD1310011+9999REMSYN088AAXX  28124 47112 32562 83602 10113 20028 30107 40189 53001 8452/ 333 10154 30010 92011;EQDQ01  00002PRCP99
0163471120999992000102815004+37480+126630FM-12+007099999V0203601N001010360019N0150001N1+01111+00341101771ADDAA199000091GF108991021051008001011999MA1999999100951MD1610121+9999REMSYN066AAXX  28154 47112 32565 83602 10111 20034 30095 40177 56012 8251/;EQDQ01  00002PRCP99
0173471120999992000102818004+37480+126630FM-12+007099999V0203601N001010075019N0120001N1+01021+00151101671ADDAA199000091GF108991051051008001021999MA1999999100851MD1710101+9999REMSYN076AAXX  28184 47112 32562 83602 10102 20015 30085 40167 57010 8552/ 333 92011;EQDQ01  00002PRCP99
0163471120999992000102821004+37480+126630FM-12+007099999V0203601N001510360019N0150001N1+00961+00031101561ADDAA199000091GF108991021051008001011999MA1999999100731MD1710121+9999REMSYN066AAXX  28214 47112 32565 83603 10096 20003 30073 40156 57012 8251/;EQDQ01  00002PRCP99
0216471120999992000102900004+37480+126630FM-12+007099999V0203601N000510120019N0150001N1+01081+00051101611ADDAA199000091GF108991051051012501021999IA1019IA2999+01009KA1120N+00921MA1999999100781MD1010051+9999REMSYN088AAXX  29004 47112 32665 83601 10108 20005 30078 40161 50005 8552/ 333 20092 30010 91011;EQDQ01  00002PRCP99
0163471120999992000102903004+37480+126630FM-12+007099999V0203601N001010120019N0150001N1+01351+00331101501ADDAA199000091GF108991051051012501021999MA1999999100681MD1710101+9999REMSYN066AAXX  29034 47112 32665 83602 10135 20033 30068 40150 57010 8552/;EQDQ01  00002PRCP99
0173471120999992000102906004+37480+126630FM-12+007099999V0203201N004110120019N0150001N1+01301+00261101381ADDAA199000091GF108991061051012501021999MA1999999100571MD1810111+9999REMSYN076AAXX  29064 47112 32665 83208 10130 20026 30057 40138 58011 8652/ 333 91022;EQDQ01  00002PRCP99
0163471120999992000102909004+37480+126630FM-12+007099999V0203201N004112200019N0180001N1+01241-00021101381ADDAA199000091GF102991021001999999031001MA1999999100561MD1810011+9999REMSYN066AAXX  29094 47112 32968 23208 10124 21002 30056 40138 58001 82030;EQDQ01  00002PRCP99
0226471120999992000102912004+37480+126630FM-12+007099999V0203601N002612200019N0180001N1+01021+00161101541ADDAA199000091GA1001+999999999GF100991001001999999001001IA1019IA2999+00809KA1120M+01391MA1999999100711MD1210151+9999REMSYN082AAXX  29124 47112 32968 03605 10102 20016 30071 40154 52015 333 10139 30008 91011;EQDQ01  00002PRCP99
0173471120999992000102915004+37480+126630FM-12+007099999V0200201N001012200019N0180001N1+00821+00001101691ADDAA199000091GA1001+999999999GF100991001001999999001001MA1999999100861MD1210151+9999REMSYN060AAXX  29154 47112 32968 00202 10082 20000 30086 40169 52015;EQDQ01  00002PRCP99
0183471120999992000102918004+37480+126630FM-12+007099999V0203601N001012200019N0180001N1+00601-00111101781ADDAA199000091GA1001+999999999GF100991001001999999001001MA1999999100951MD1810091+9999REMSYN070AAXX  29184 47112 32968 03602 10060 21011 30095 40178 58009 333 91011;EQDQ01  00002PRCP99
0173471120999992000102921004+37480+126630FM-12+007099999V0203601N001012200019N0200001N1+00491-00371101881ADDAA199000091GA1001+999999999GF100991001001999999001001MA1999999101041MD1110091+9999REMSYN060AAXX  29214 47112 32970 03602 10049 21037 30104 40188 51009;EQDQ01  00002PRCP99
0226471120999992000103000004+37480+126630FM-12+007099999V0203601N000512200019N0150001N1+00851-00181102101ADDAA199000091GA1001+999999999GF100991001001999999001001IA1019IA2999+00909KA1120N+00481MA1999999101271MD1210231+9999REMSYN082AAXX  30004 47112 32965 03601 10085 21018 30127 40210 52023 333 20048 30009 92011;EQDQ01  00002PRCP99
0173471120999992000103003004+37480+126630FM-12+007099999V0203201N002112200019N0170001N1+01411-00301102121ADDAA199000091GA1001+999999999GF100991001001999999001001MA1999999101311MD1310041+9999REMSYN060AAXX  30034 47112 32967 03204 10141 21030 30131 40212 53004;EQDQ01  00002PRCP99
0183471120999992000103006004+37480+126630FM-12+007099999V0202501N003112200019N0170001N1+01461-00521102071ADDAA199000091GA1001+999999999GF100991001001999999001001MA1999999101251MD1810061+9999REMSYN070AAXX  30064 47112 32967 02506 10146 21052 30125 40207 58006 333 92011;EQDQ01  00002PRCP99
0173471120999992000103009004+37480+126630FM-12+007099999V0203201N003612200019N0170001N1+01061-00271102121ADDAA199000091GA1001+999999999GF100991001001999999001001MA1999999101301MD1210051+9999REMSYN060AAXX  30094 47112 32967 03207 10106 21027 30130 40212 52005;EQDQ01  00002PRCP99
0232471120999992000103012004+37480+126630FM-12+007099999V0209999C000012200019N0150001N1+00911+00031102261ADDAA199000091GA1001+999999999GF100991001001999999001001IA1019IA2999+00709KA1120M+01591MA1999999101431MD1210131+9999REMSYN088AAXX  30124 47112 32965 00000 10091 20003 30143 40226 52013 333 10159 30007 55095 92033;EQDQ01  00002PRCP99
0173471120999992000103015004+37480+126630FM-12+007099999V0203601N000512200019N0150001N1+00851-00121102321ADDAA199000091GA1001+999999999GF100991001001999999001001MA1999999101491MD1210061+9999REMSYN060AAXX  30154 47112 32965 03601 10085 21012 30149 40232 52006;EQDQ01  00002PRCP99
0183471120999992000103018004+37480+126630FM-12+007099999V0201101N001012200019N0150001N1+00731-00081102391ADDAA199000091GA1001+999999999GF100991001001999999001001MA1999999101551MD1210061+9999REMSYN070AAXX  30184 47112 32965 01102 10073 21008 30155 40239 52006 333 92022;EQDQ01  00002PRCP99
0201471120999992000103021004+37480+126630FM-12+007099999V0200701N000512200019N0080001N1+00581+00121102351ADDAA199000091AY101031AY201031GA1001+999999999GF100991001001999999001001MA1999999101511MD1810041+9999MW1101REMSYN066AAXX  30214 47112 31958 00701 10058 20012 30151 40235 58004 71000;EQDQ01  00002PRCP99
0254471120999992000103100004+37480+126630FM-12+007099999V0201101N001512200019N0080001N1+00991+00151102421ADDAA199000091AY101061AY201061GA1001+999999999GF100991001001999999001001IA1019IA2999+01109KA1120N+00521MA1999999101591MD1810081+9999MW1101REMSYN088AAXX  31004 47112 31958 01103 10099 20015 30159 40242 58008 71000 333 20052 30011 91011;EQDQ01  00002PRCP99
0163471120999992000103103004+37480+126630FM-12+007099999V0200901N002119999999N0120001N1+01631-00021102301ADDAA199000091GF106991001001999999001011MA1999999101491MD1710101+9999REMSYN066AAXX  31034 47112 32962 60904 10163 21002 30149 40230 57010 80001;EQDQ01  00002PRCP99
0173471120999992000103106004+37480+126630FM-12+007099999V0203601N001510360019N0150001N1+01741-00081102171ADDAA199000091GF106991021051012501031001MA1999999101361MD1810131+9999REMSYN076AAXX  31064 47112 32665 63603 10174 21008 30136 40217 58013 82530 333 91011;EQDQ01  00002PRCP99
0163471120999992000103109004+37480+126630FM-12+007099999V0201401N001510360019N0150001N1+01421+00011102091ADDAA199000091GF108991041051012501021999MA1999999101281MD1710081+9999REMSYN066AAXX  31094 47112 32665 81403 10142 20001 30128 40209 57008 8452/;EQDQ01  00002PRCP99
0222471120999992000103112004+37480+126630FM-12+007099999V0203601N001510360019N0120001N1+01231+00511102111ADDAA199000091GF108991031051008001011999IA1019IA2999+01009KA1120M+01791MA1999999101291MD1110011+9999REMSYN094AAXX  31124 47112 32562 83603 10123 20051 30129 40211 51001 8351/ 333 10179 30010 55062 92011;EQDQ01  00002PRCP99
0163471120999992000103115004+37480+126630FM-12+007099999V0203601N000510360019N0150001N1+01131+00361102131ADDAA199000091GF108991031051008001011999MA1999999101301MD1210021+9999REMSYN066AAXX  31154 47112 32565 83601 10113 20036 30130 40213 52002 8351/;EQDQ01  00002PRCP99
0173471120999992000103118004+37480+126630FM-12+007099999V0203601N001510360019N0150001N1+01091+00501102021ADDAA199000091GF106991021051008001011001MA1999999101201MD1610081+9999REMSYN076AAXX  31184 47112 32565 63603 10109 20050 30120 40202 56008 82510 333 92011;EQDQ01  00002PRCP99
0163471120999992000103121004+37480+126630FM-12+007099999V0203601N001510360019N0120001N1+01031+00431102021ADDAA199000091GF108991021051008001011999MA1999999101191MD1810011+9999REMSYN066AAXX  31214 47112 32562 83603 10103 20043 30119 40202 58001 8251/;EQDQ01  00002PRCP99
0216471120999992000110100004+37480+126630FM-12+007099999V0203601N001510075019N0120001N1+01141+00491102071ADDAA199000091GF108991051051008001011999IA1019IA2999+01109KA1120N+00991MA1999999101251MD1310061+9999REMSYN088AAXX  01004 47112 32562 83603 10114 20049 30125 40207 53006 8551/ 333 20099 30011 92033;EQDQ01  00002PRCP99
0163471120999992000110103004+37480+126630FM-12+007099999V0203401N003110360019N0100001N1+01461+00731102021ADDAA199000091GF107991021051008001011001MA1999999101201MD1710051+9999REMSYN066AAXX  01034 47112 32560 73406 10146 20073 30120 40202 57005 82510;EQDQ01  00002PRCP99
0173471120999992000110106004+37480+126630FM-12+007099999V0203401N002610360019N0120001N1+01561+00761101851ADDAA199000091GF108991021051008001011999MA1999999101041MD1710161+9999REMSYN076AAXX  01064 47112 32562 83405 10156 20076 30104 40185 57016 8251/ 333 92022;EQDQ01  00002PRCP99
0163471120999992000110109004+37480+126630FM-12+007099999V0203601N001510120019N0120001N1+01361+00701101841ADDAA199000091GF108991061051012501021999MA1999999101031MD1510011+9999REMSYN066AAXX  01094 47112 32662 83603 10136 20070 30103 40184 55001 8652/;EQDQ01  00002PRCP99
0216471120999992000110112004+37480+126630FM-12+007099999V0203601N001510120019N0120001N1+01241+00751101861ADDAA199000091GF108991061051012501021999IA1019IA2999+01009KA1120M+01681MA1999999101041MD1310011+9999REMSYN088AAXX  01124 47112 32662 83603 10124 20075 30104 40186 53001 8652/ 333 10168 30010 91011;EQDQ01  00002PRCP99
0163471120999992000110115004+37480+126630FM-12+007099999V0203601N001510360019N0110001N1+01141+00761101851ADDAA199000091GF108991031051012501021999MA1999999101021MD1510021+9999REMSYN066AAXX  01154 47112 32661 83603 10114 20076 30102 40185 55002 8352/;EQDQ01  00002PRCP99
0131471120999992000110118004+37480+126630FM-12+007099999V0200201N001519999999N9999999N1+01081+00711101771ADDAA199000091MA1999999100941MD1710081+9999REMSYN060AAXX  01184 47112 3//// /0203 10108 20071 30094 40177 57008;EQDQ01  00002PRCP99
0173471120999992000110121004+37480+126630FM-12+007099999V0200201N001512200019N0150001N1+00941+00661101791ADDAA199000091GA1001+999999999GF100991001001999999001001MA1999999100971MD1810031+9999REMSYN060AAXX  01214 47112 32965 00203 10094 20066 30097 40179 58003;EQDQ01  00002PRCP99
0226471120999992000110200004+37480+126630FM-12+007099999V0200201N001512200019N0110001N1+01211+00771101971ADDAA199000091GA1001+999999999GF100991001001999999001001IA1019IA2999+01309KA1120N+00891MA1999999101151MD1210181+9999REMSYN082AAXX  02004 47112 32961 00203 10121 20077 30115 40197 52018 333 20089 30013 92011;EQDQ01  00002PRCP99
0173471120999992000110203004+37480+126630FM-12+007099999V0203401N003112200019N0120001N1+01911+00731101931ADDAA199000091GA1001+999999999GF100991001001999999001001MA1999999101131MD1510021+9999REMSYN060AAXX  02034 47112 32962 03406 10191 20073 30113 40193 55002;EQDQ01  00002PRCP99
0183471120999992000110206004+37480+126630FM-12+007099999V0203201N005112200019N0130001N1+01921+00611101841ADDAA199000091GA1001+999999999GF100991001001999999001001MA1999999101041MD1810091+9999REMSYN070AAXX  02064 47112 32963 03210 10192 20061 30104 40184 58009 333 92011;EQDQ01  00002PRCP99
0173471120999992000110209004+37480+126630FM-12+007099999V0203201N004612200019N0130001N1+01501+00661101961ADDAA199000091GA1001+999999999GF100991001001999999001001MA1999999101151MD1210111+9999REMSYN060AAXX  02094 47112 32963 03209 10150 20066 30115 40196 52011;EQDQ01  00002PRCP99
0232471120999992000110212004+37480+126630FM-12+007099999V0203601N001012200019N0120001N1+01191+00671102081ADDAA199000091GA1001+999999999GF100991001001999999001001IA1019IA2999+01009KA1120M+02041MA1999999101261MD1210111+9999REMSYN088AAXX  02124 47112 32962 03602 10119 20067 30126 40208 52011 333 10204 30010 55090 92033;EQDQ01  00002PRCP99
0173471120999992000110215004+37480+126630FM-12+007099999V0203601N001512200019N0120001N1+01051+00291102201ADDAA199000091GA1001+999999999GF100991001001999999001001MA1999999101371MD1210111+9999REMSYN060AAXX  02154 47112 32962 03603 10105 20029 30137 40220 52011;EQDQ01  00002PRCP99
0183471120999992000110218004+37480+126630FM-12+007099999V0203601N001512200019N0120001N1+00921+00271102241ADDAA199000091GA1001+999999999GF100991001001999999001001MA1999999101401MD1210031+9999REMSYN070AAXX  02184 47112 32962 03603 10092 20027 30140 40224 52003 333 92033;EQDQ01  00002PRCP99
0201471120999992000110221004+37480+126630FM-12+007099999V0203601N001512200019N0080001N1+00761+00331102341ADDAA199000091AY101031AY201031GA1001+999999999GF100991001001999999001001MA1999999101501MD1210101+9999MW1101REMSYN066AAXX  02214 47112 31958 03603 10076 20033 30150 40234 52010 71000;EQDQ01  00002PRCP99
0226471120999992000110300004+37480+126630FM-12+007099999V0200501N001012200019N0120001N1+01041+00541102461ADDAA199000091GA1001+999999999GF100991001001999999001001IA1019IA2999+01209KA1120N+00701MA1999999101631MD1210131+9999REMSYN082AAXX  03004 47112 32962 00502 10104 20054 30163 40246 52013 333 20070 30012 91011;EQDQ01  00002PRCP99
0201471120999992000110303004+37480+126630FM-12+007099999V0203201N001512200019N0080001N1+01721+00681102401ADDAA199000091AY101031AY201031GA1001+999999999GF100991001001999999001001MA1999999101591MD1310041+9999MW1051REMSYN066AAXX  03034 47112 31958 03203 10172 20068 30159 40240 53004 70500;EQDQ01  00002PRCP99
0183471120999992000110306004+37480+126630FM-12+007099999V0202701N003612200019N0160001N1+01851+00221102301ADDAA199000091GA1001+999999999GF100991001001999999001001MA1999999101501MD1710091+9999REMSYN070AAXX  03064 47112 32966 02707 10185 20022 30150 40230 57009 333 91022;EQDQ01  00002PRCP99
0173471120999992000110309004+37480+126630FM-12+007099999V0203401N001512200019N0120001N1+01361+00761102321ADDAA199000091GA1001+999999999GF100991001001999999001001MA1999999101511MD1110011+9999REMSYN060AAXX  03094 47112 32962 03403 10136 20076 30151 40232 51001;EQDQ01  00002PRCP99
0232471120999992000110312004+37480+126630FM-12+007099999V0200701N001012200019N0130001N1+01321+00571102331ADDAA199000091GA1001+999999999GF100991001001999999001001IA1019IA2999+01009KA1120M+01881MA1999999101511MD1510001+9999REMSYN088AAXX  03124 47112 32963 00702 10132 20057 30151 40233 55000 333 10188 30010 55086 92011;EQDQ01  00002PRCP99
0173471120999992000110315004+37480+126630FM-12+007099999V0201101N001012200019N0100001N1+01221+00611102291ADDAA199000091GA1001+999999999GF100991001001999999001001MA1999999101471MD1710041+9999REMSYN060AAXX  03154 47112 32960 01102 10122 20061 30147 40229 57004;EQDQ01  00002PRCP99
0211471120999992000110318004+37480+126630FM-12+007099999V0201601N001512200019N0080001N1+01261+00711102211ADDAA199000091AY101061AY201061GA1001+999999999GF100991001001999999001001MA1999999101391MD1710081+9999MW1101REMSYN076AAXX  03184 47112 31958 01603 10126 20071 30139 40221 57008 71000 333 92011;EQDQ01  00002PRCP99
0217471120999992000110321004+37480+126630FM-12+007099999V0201601N003112200019N0060001N1+01151+00781102211ADDAA199000091AY101031AY201031GA1001+999999999GF100991001001999999001001MA1999999101391MD1410001+9999MW1101REMSYN066AAXX  03214 47112 31956 01606 10115 20078 30139 40221 53000 71000;EQDQ01+000032APCTENQ02  00002PRCP99
0260471120999992000110400004+37480+126630FM-12+007099999V0201801N003612200019N0050001N1+01361+00991102211ADDAA199000091AY111061AY211061GF103991001001999999001011IA1019IA2999+01409KA1120N+01141MA1999999101391MD1410001+9999MW1101REMSYN094AAXX  04004 47112 31950 31807 10136 20099 30139 40221 53000 71011 80001 333 20114 30014 92022;EQDQ01+000032APCTENQ02  00002PRCP99
0163471120999992000110403004+37480+126630FM-12+007099999V0202001N005119999999N0120001N1+01741+01061101981ADDAA199000091GF105991001001999999001011MA1999999101181MD1710211+9999REMSYN066AAXX  04034 47112 32962 52010 10174 20106 30118 40198 57021 80001;EQDQ01  00002PRCP99
0173471120999992000110406004+37480+126630FM-12+007099999V0202701N004610120019N0150001N1+01631+00941101831ADDAA199000091GF106991051051012501001011MA1999999101021MD1710161+9999REMSYN076AAXX  04064 47112 32665 62709 10163 20094 30102 40183 57016 85501 333 91022;EQDQ01  00002PRCP99
0163471120999992000110409004+37480+126630FM-12+007099999V0202001N004612200019N0130001N1+01491+01051101741ADDAA199000091GF104991031051012501031001MA1999999100931MD1810091+9999REMSYN066AAXX  04094 47112 32663 42009 10149 20105 30093 40174 58009 83530;EQDQ01  00002PRCP99
0216471120999992000110412004+37480+126630FM-12+007099999V0202001N004110120019N0180001N1+01511+01211101761ADDAA199000091GF108991061051012501021999IA1019IA2999+01509KA1120M+01841MA1999999100951MD1310021+9999REMSYN088AAXX  04124 47112 32668 82008 10151 20121 30095 40176 53002 8652/ 333 10184 30015 91022;EQDQ01  00002PRCP99
0201471120999992000110415004+37480+126630FM-12+007099999V0203201N005112200019N0070001N1+01411+00991101841ADDAA199000091AY101031AY201031GA1001+999999999GF100991001001999999001001MA1999999101021MD1210071+9999MW1101REMSYN066AAXX  04154 47112 31957 03210 10141 20099 30102 40184 52007 71000;EQDQ01  00002PRCP99
0183471120999992000110418004+37480+126630FM-12+007099999V0203201N005112200019N0180001N1+01221+00621101871ADDAA199000091GA1001+999999999GF100991001001999999001001MA1999999101051MD1210031+9999REMSYN070AAXX  04184 47112 32968 03210 10122 20062 30105 40187 52003 333 92044;EQDQ01  00002PRCP99
0173471120999992000110421004+37480+126630FM-12+007099999V0203601N001012200019N0180001N1+00941+00561101891ADDAA199000091GA1001+999999999GF100991001001999999001001MA1999999101061MD1810011+9999REMSYN060AAXX  04214 47112 32968 03602 10094 20056 30106 40189 58001;EQDQ01  00002PRCP99
0226471120999992000110500004+37480+126630FM-12+007099999V0200201N000512200019N0150001N1+01191+00361102011ADDAA199000091GA1001+999999999GF100991001001999999001001IA1019IA2999+01209KA1120N+00871MA1999999101191MD1210131+9999REMSYN082AAXX  05004 47112 32965 00201 10119 20036 30119 40201 52013 333 20087 30012 92033;EQDQ01  00002PRCP99
0173471120999992000110503004+37480+126630FM-12+007099999V0202901N002112200019N0200001N1+01601-00581101961ADDAA199000091GA1001+999999999GF100991001001999999001001MA1999999101161MD1310031+9999REMSYN060AAXX  05034 47112 32970 02904 10160 21058 30116 40196 53003;EQDQ01  00002PRCP99
0183471120999992000110506004+37480+126630FM-12+007099999V0203401N003112200019N0250001N1+01711-00271101861ADDAA199000091GA1001+999999999GF100991001001999999001001MA1999999101061MD1810101+9999REMSYN070AAXX  05064 47112 32975 03406 10171 21027 30106 40186 58010 333 92033;EQDQ01  00002PRCP99
0173471120999992000110509004+37480+126630FM-12+007099999V0202501N002612200019N0250001N1+01231-00041101871ADDAA199000091GA1001+999999999GF100991001001999999001001MA1999999101051MD1810011+9999REMSYN060AAXX  05094 47112 32975 02505 10123 21004 30105 40187 58001;EQDQ01  00002PRCP99
0232471120999992000110512004+37480+126630FM-12+007099999V0200501N001012200019N0250001N1+01091+00071101891ADDAA199000091GA1001+999999999GF100991001001999999001001IA1019IA2999+00909KA1120M+01751MA1999999101061MD1310011+9999REMSYN088AAXX  05124 47112 32975 00502 10109 20007 30106 40189 53001 333 10175 30009 55084 92033;EQDQ01  00002PRCP99
0131471120999992000110515004+37480+126630FM-12+007099999V0200701N001519999999N9999999N1+01011-00031101901ADDAA199000091MA1999999101081MD1310021+9999REMSYN060AAXX  05154 47112 3//// /0703 10101 21003 30108 40190 53002;EQDQ01  00002PRCP99
0183471120999992000110518004+37480+126630FM-12+007099999V0200901N001512200019N0200001N1+00941-00061101781ADDAA199000091GA1001+999999999GF100991001001999999001001MA1999999100951MD1710131+9999REMSYN070AAXX  05184 47112 32970 00903 10094 21006 30095 40178 57013 333 92033;EQDQ01  00002PRCP99
0201471120999992000110521004+37480+126630FM-12+007099999V0200201N001012200019N0080001N1+00771+00151101821ADDAA199000091AY101031AY201031GA1001+999999999GF100991001001999999001001MA1999999100991MD1210041+9999MW1101REMSYN066AAXX  05214 47112 31958 00202 10077 20015 30099 40182 52004 71000;EQDQ01  00002PRCP99
0226471120999992000110600004+37480+126630FM-12+007099999V0201101N002112200019N0100001N1+01161+00001101881ADDAA199000091GA1001+999999999GF100991001001999999001001IA1019IA2999+01109KA1120N+00671MA1999999101061MD1210071+9999REMSYN082AAXX  06004 47112 32960 01104 10116 20000 30106 40188 52007 333 20067 30011 91011;EQDQ01  00002PRCP99
0163471120999992000110603004+37480+126630FM-12+007099999V0202301N002612200019N0120001N1+01841+00211101771ADDAA199000091GF103991001001999999001011MA1999999100971MD1310091+9999REMSYN066AAXX  06034 47112 32962 32305 10184 20021 30097 40177 53009 80001;EQDQ01  00002PRCP99
0173471120999992000110606004+37480+126630FM-12+007099999V0202001N003119999999N0130001N1+02081+00421101631ADDAA199000091GF105991001001999999001011MA1999999100841MD1810131+9999REMSYN076AAXX  06064 47112 32963 52006 10208 20042 30084 40163 58013 80001 333 91011;EQDQ01  00002PRCP99
0173471120999992000110609004+37480+126630FM-12+007099999V0202701N003112200019N0170001N1+01561+00751101731ADDAA199000091GA1001+999999999GF100991001001999999001001MA1999999100921MD1210081+9999REMSYN060AAXX  06094 47112 32967 02706 10156 20075 30092 40173 52008;EQDQ01  00002PRCP99
0220471120999992000110612004+37480+126630FM-12+007099999V0203601N001012200019N0150001N1+01241+01021101831ADDAA199000091GA1001+999999999GF100991001001999999001001IA1019IA2999+01109KA1120M+02121MA1999999101011MD1210091+9999REMSYN076AAXX  06124 47112 32965 03602 10124 20102 30101 40183 52009 333 10212 30011;EQDQ01  00002PRCP99
0191471120999992000110615004+37480+126630FM-12+007099999V0203401N001512200019N0080001N1+01211+01051101891ADDAA199000091AY101031AY201031GF101991001001999999001011MA1999999101071MD1210061+9999MW1101REMSYN072AAXX  06154 47112 31958 13403 10121 20105 30107 40189 52006 71000 80001;EQDQ01  00002PRCP99
0211471120999992000110618004+37480+126630FM-12+007099999V0201601N001012200019N0080001N1+01191+01061101861ADDAA199000091AY101061AY201061GA1001+999999999GF100991001001999999001001MA1999999101041MD1310031+9999MW1101REMSYN076AAXX  06184 47112 31958 01602 10119 20106 30104 40186 53003 71000 333 92011;EQDQ01  00002PRCP99
0191471120999992000110621004+37480+126630FM-12+007099999V0202001N004110075019N0050001N1+01221+01051101961ADDAA199000091AY121031AY221031GF106991061051008001001001MA1999999101141MD1210101+9999MW1101REMSYN072AAXX  06214 47112 31550 62008 10122 20105 30114 40196 52010 71022 86500;EQDQ01  00002PRCP99
0247471120999992000110700004+37480+126630FM-12+007099999V0200201N001512200019N0080001N1+01381+00781102121ADDAA112000191AY101061AY201061GA1001+999999999GF100991001001999999001001IA1099IA2999+01309KA1120N+01141MA1999999101311MD1210171+9999MW1101REMSYN100AAXX  07004 47112 11558 00203 10138 20078 30131 40212 52017 69912 71000 333 20114 31013 70001 92033;
0163471120999992000110703004+37480+126630FM-12+007099999V0203401N005119999999N0200001N1+01571+00101102161ADDAA199000091GF105991001001999999001011MA1999999101351MD1310041+9999REMSYN066AAXX  07034 47112 32970 53410 10157 20010 30135 40216 53004 80001;EQDQ01  00002PRCP99
0173471120999992000110706004+37480+126630FM-12+007099999V0203401N007219999999N0250001N1+01391-00741102281ADDAA199000091GF105991001001999999001011MA1999999101461MD1110111+9999REMSYN076AAXX  07064 47112 32975 53414 10139 21074 30146 40228 51011 80001 333 92044;EQDQ01  00002PRCP99
0163471120999992000110709004+37480+126630FM-12+007099999V0203401N005119999999N0250001N1+00891-00671102491ADDAA199000091GF106991001001999999001021MA1999999101661MD1210201+9999REMSYN066AAXX  07094 47112 32975 63410 10089 21067 30166 40249 52020 80002;EQDQ01  00002PRCP99
0203471120999992000110712004+37480+126630FM-12+007099999V0203601N004119999999N0250001N1+00431-00861102681ADDAA124000191GF106991001001999999001011IA1019IA2999+00409KA1120M+01681MA1999999101831MD1210171+9999REMSYN094AAXX  07124 47112 32975 63608 10043 21086 30183 40268 52017 80001 333 10168 30004 70001 91044;
0163471120999992000110715004+37480+126630FM-12+007099999V0203401N004112200019N0230001N1+00291-00801102771ADDAA199000091GF102991001001999999001011MA1999999101911MD1210081+9999REMSYN066AAXX  07154 47112 32973 23408 10029 21080 30191 40277 52008 80001;EQDQ01  00002PRCP99
0173471120999992000110718004+37480+126630FM-12+007099999V0203601N003112200019N0230001N1+00191-01281102871ADDAA199000091GF103991001001999999001011MA1999999102001MD1210091+9999REMSYN076AAXX  07184 47112 32973 33606 10019 21128 30200 40287 52009 80001 333 92044;EQDQ01  00002PRCP99
0163471120999992000110721004+37480+126630FM-12+007099999V0203601N002619999999N0230001N1+00131-01201102891ADDAA199000091GF106991051001999999031011MA1999999102021MD1310021+9999REMSYN066AAXX  07214 47112 32973 63605 10013 21120 30202 40289 53002 85031;EQDQ01  00002PRCP99
0173471120999992000110806004+37480+126630FM-12+007099999V0200201N001019999999N0180001N1+00611-01271102561ADDAA199000091GF105991001001999999001021MA1999999101711MD1710171+9999REMSYN076AAXX  08064 47112 32968 50202 10061 21127 30171 40256 57017 80002 333 92022;EQDQ01  00002PRCP99
0173471120999992000110809004+37480+126630FM-12+007099999V0203601N000512200019N0150001N1+00351-01171102581ADDAA199000091GA1001+999999999GF100991001001999999001001MA1999999101731MD1110021+9999REMSYN060AAXX  08094 47112 32965 03601 10035 21117 30173 40258 51002;EQDQ01  00002PRCP99
0226471120999992000110812004+37480+126630FM-12+007099999V0203601N001012200019N0200001N1+00301-01091102641ADDAA199000091GA1001+999999999GF100991001001999999001001IA1019IA2999-00109KA1120M+00751MA1999999101781MD1110051+9999REMSYN082AAXX  08124 47112 32970 03602 10030 21109 30178 40264 51005 333 10075 30101 92011;EQDQ01  00002PRCP99
0173471120999992000110815004+37480+126630FM-12+007099999V0203601N001512200019N0200001N1+00161-00811102601ADDAA199000091GA1001+999999999GF100991001001999999001001MA1999999101741MD1510041+9999REMSYN060AAXX  08154 47112 32970 03603 10016 21081 30174 40260 55004;EQDQ01  00002PRCP99
0183471120999992000110818004+37480+126630FM-12+007099999V0200201N001512200019N0200001N1+00111-00941102471ADDAA199000091GA1001+999999999GF100991001001999999001001MA1999999101611MD1710131+9999REMSYN070AAXX  08184 47112 32970 00203 10011 21094 30161 40247 57013 333 92022;EQDQ01  00002PRCP99
0173471120999992000110821004+37480+126630FM-12+007099999V0203601N001512200019N0200001N1+00021-00771102501ADDAA199000091GA1001+999999999GF100991001001999999001001MA1999999101631MD1010021+9999REMSYN060AAXX  08214 47112 32970 03603 10002 21077 30163 40250 50002;EQDQ01  00002PRCP99
0226471120999992000110900004+37480+126630FM-12+007099999V0209999C000012200019N0180001N1+00371-00781102621ADDAA199000091GA1001+999999999GF100991001001999999001001IA1019IA2999+00409KA1120N+00021MA1999999101771MD1210141+9999REMSYN082AAXX  09004 47112 32968 00000 10037 21078 30177 40262 52014 333 20002 30004 91011;EQDQ01  00002PRCP99
0163471120999992000110903004+37480+126630FM-12+007099999V0203601N001010360019N0130001N1+00721-00931102631ADDAA199000091GF107991031051012501031001MA1999999101781MD1310011+9999REMSYN066AAXX  09034 47112 32663 73602 10072 21093 30178 40263 53001 83530;EQDQ01  00002PRCP99
0163471120999992000110909004+37480+126630FM-12+007099999V0200201N001510360019N0180001N1+00661-00861102461ADDAA199000091GF107991031051012501031001MA1999999101621MD1010011+9999REMSYN066AAXX  09094 47112 32668 70203 10066 21086 30162 40246 50001 83530;EQDQ01  00002PRCP99
0216471120999992000110912004+37480+126630FM-12+007099999V0200201N001510120019N0200001N1+00661-00731102561ADDAA199000091GF105991051051012501001001IA1019IA2999+00609KA1120M+01071MA1999999101711MD1210091+9999REMSYN088AAXX  09124 47112 32670 50203 10066 21073 30171 40256 52009 85500 333 10107 30006 92022;EQDQ01  00002PRCP99
0163471120999992000110915004+37480+126630FM-12+007099999V0200201N001510075019N0220001N1+00621-00561102501ADDAA199000091GF107991071051008001001001MA1999999101661MD1710051+9999REMSYN066AAXX  09154 47112 32572 70203 10062 21056 30166 40250 57005 87500;EQDQ01  00002PRCP99
0163471120999992000110918004+37480+126630FM-12+007099999V0200201N002610360019N0220001N1+00551-00481102531ADDAA199000091GF108991021051008001011999MA1999999101681MD1510021+9999REMSYN066AAXX  09184 47112 32572 80205 10055 21048 30168 40253 55002 8251/;EQDQ01  00002PRCP99
0163471120999992000110921004+37480+126630FM-12+007099999V0200201N002610360019N0180001N1+00561-00481102471ADDAA199000091GF108991031051008001011999MA1999999101621MD1710061+9999REMSYN066AAXX  09214 47112 32568 80205 10056 21048 30162 40247 57006 8351/;EQDQ01  00002PRCP99
0237471120999992000111000004+37480+126630FM-12+007099999V0203601N002110075019N0120001N1+00531-00121102561ADDAA112000191AY161061AY261061GF108991061071008001021999IA1099IA2999+00409KA1120N+00521MA1999999101721MD1210101+9999MW1611REMSYN106AAXX  10004 47112 11562 83604 10053 21012 30172 40256 52010 69912 76166 8672/ 333 20052 31004 70001 92022;
0161471120999992000111003004+37480+126630FM-12+007099999V0203601N002610075019N0120001N1+00531+00251102521ADDAY161031AY221031GF108991061071008001021999MA1999999101671MD1510051+9999MW1611REMSYN072AAXX  10034 47112 41562 83605 10053 20025 30167 40252 55005 76162 8672/;
0171471120999992000111006004+37480+126630FM-12+007099999V0203601N001510075019N0100001N1+00371+00251102441ADDAY161061AY261061GF108991061051008001021999MA1999999101591MD1710081+9999MW1611REMSYN082AAXX  10064 47112 41560 83603 10037 20025 30159 40244 57008 76166 8652/ 333 92033;
0133471120999992000111009004+37480+126630FM-12+007099999V0203601N002610075019N0150001N1+00341+00141102571ADDGF106991061051008001001001MA1999999101721MD1210131+9999REMSYN066AAXX  10094 47112 42565 63605 10034 20014 30172 40257 52013 86500;
0200471120999992000111012004+37480+126630FM-12+007099999V0203601N003612200019N0200001N1+00201-00361102691ADDAA112003091GA1001+999999999GF100991001001999999001001IA1099IA2999+00009MA1999999101831MD1210111+9999REMSYN088AAXX  10124 47112 12970 03607 10020 21036 30183 40269 52011 60032 333 31000 70033 91022;
0144471120999992000111015004+37480+126630FM-12+007099999V0203601N002612200019N0230001N1+00091-00341102781ADDAA199000021GF102991001001999999001011MA1999999101921MD1210091+9999REMSYN066AAXX  10154 47112 32973 23605 10009 21034 30192 40278 52009 80001;
0164471120999992000111018004+37480+126630FM-12+007099999V0203401N004112200019N0180001N1+00051-00681102851ADDAA199000021GA1001+999999999GF100991001001999999001001MA1999999101991MD1210071+9999REMSYN070AAXX  10184 47112 32968 03408 10005 21068 30199 40285 52007 333 91033;
0163471120999992000111021004+37480+126630FM-12+007099999V0203601N002112200019N0200001N1-00131-00801102851ADDAA199000091GF102991001001999999001011MA1999999101981MD1710011+9999REMSYN066AAXX  10214 47112 32970 23604 11013 21080 30198 40285 57001 80001;EQDQ01  00002PRCP99
0203471120999992000111100004+37480+126630FM-12+007099999V0200201N001512200019N0250001N1+00101-00821102971ADDAA124003391GF102991001001999999001011IA1099IA2999+00009KA1120N-00191MA1999999102111MD1210131+9999REMSYN094AAXX  11004 47112 32975 20203 10010 21082 30211 40297 52013 80001 333 21019 31000 70032 92033;
0163471120999992000111103004+37480+126630FM-12+007099999V0203601N001519999999N0200001N1+00581-00621102801ADDAA199000091GF106991061001999999041001MA1999999101951MD1710161+9999REMSYN066AAXX  11034 47112 32970 63603 10058 21062 30195 40280 57016 86040;EQDQ01  00002PRCP99
0173471120999992000111106004+37480+126630FM-12+007099999V0203201N003610120019N0190001N1+00571-00671102571ADDAA199000091GF106991061051012501001001MA1999999101721MD1710231+9999REMSYN076AAXX  11064 47112 32669 63207 10057 21067 30172 40257 57023 86500 333 92022;EQDQ01  00002PRCP99
0163471120999992000111109004+37480+126630FM-12+007099999V0203201N003110075019N0200001N1+00381-00581102531ADDAA199000091GF106991051051008001061001MA1999999101681MD1710041+9999REMSYN066AAXX  11094 47112 32570 63206 10038 21058 30168 40253 57004 85560;EQDQ01  00002PRCP99
0232471120999992000111112004+37480+126630FM-12+007099999V0203601N001012200019N0200001N1+00261-00701102581ADDAA199000091GA1001+999999999GF100991001001999999001001IA1019IA2999+00109KA1120M+00741MA1999999101721MD1210041+9999REMSYN088AAXX  11124 47112 32970 03602 10026 21070 30172 40258 52004 333 10074 30001 55071 92022;EQDQ01  00002PRCP99
0173471120999992000111115004+37480+126630FM-12+007099999V0203601N000512200019N0200001N1+00081-00641102621ADDAA199000091GA1001+999999999GF100991001001999999001001MA1999999101751MD1310031+9999REMSYN060AAXX  11154 47112 32970 03601 10008 21064 30175 40262 53003;EQDQ01  00002PRCP99
0173471120999992000111118004+37480+126630FM-12+007099999V0200901N001019999999N0150001N1+00061-00701102531ADDAA199000091GF106991001001999999001021MA1999999101671MD1510081+9999REMSYN076AAXX  11184 47112 32965 60902 10006 21070 30167 40253 55008 80002 333 92022;EQDQ01  00002PRCP99
0161471120999992000111121004+37480+126630FM-12+007099999V0200901N000510075019N0120001N1+00191-00581102451ADDAY151031AY251031GF108991061051008001021999MA1999999101601MD1810071+9999MW1201REMSYN072AAXX  11214 47112 41562 80901 10019 21058 30160 40245 58007 72055 8652/;
0203471120999992000111200004+37480+126630FM-12+007099999V0201801N003110075019N0120001N1+00421-00761102491ADDAA112000791GF105991051051008001001001IA1019IA2999+00409KA1120N+00051MA1999999101641MD1810041+9999REMSYN094AAXX  12004 47112 12562 51806 10042 21076 30164 40249 58004 69902 85500 333 20005 30004 92011;
0161471120999992000111203004+37480+126630FM-12+007099999V0202301N003110075019N0150001N1+00651-00021102441ADDAY161031AY221031GF108991061051008001021999MA1999999101591MD1710051+9999MW1211REMSYN072AAXX  12034 47112 41565 82306 10065 21002 30159 40244 57005 72162 8652/;
0154471120999992000111206004+37480+126630FM-12+007099999V0202901N004610075019N0150001N1+00801+00021102341ADDAA199000021GF107991071051008001001001MA1999999101501MD1810091+9999REMSYN076AAXX  12064 47112 32565 72909 10080 20002 30150 40234 58009 87500 333 92022;
0144471120999992000111209004+37480+126630FM-12+007099999V0202901N003612200019N0150001N1+00671+00131102431ADDAA199000021GF102991021051008001001001MA1999999101591MD1210091+9999REMSYN066AAXX  12094 47112 32565 22907 10067 20013 30159 40243 52009 82500;
0203471120999992000111212004+37480+126630FM-12+007099999V0203401N002612200019N0180001N1+00601+00031102611ADDAA112000791GF102991021051008001001001IA1019IA2999+00309KA1120M+00941MA1999999101771MD1210181+9999REMSYN094AAXX  12124 47112 32568 23405 10060 20003 30177 40261 52018 69902 82500 333 10094 30003 92011;
0144471120999992000111215004+37480+126630FM-12+007099999V0203601N001012200019N0150001N1+00431-00041102751ADDAA199000021GF101991011051008001001001MA1999999101901MD1210131+9999REMSYN066AAXX  12154 47112 32565 13602 10043 21004 30190 40275 52013 81500;
0173471120999992000111218004+37480+126630FM-12+007099999V0201101N002110075019N0150001N1+00431-00071102781ADDAA199000091GF106991061051008001001001MA1999999101921MD1310021+9999REMSYN076AAXX  12184 47112 32565 61104 10043 21007 30192 40278 53002 86500 333 92011;EQDQ01  00002PRCP99
0163471120999992000111221004+37480+126630FM-12+007099999V0201401N002112200019N0120001N1+00411-00151102731ADDAA199000091GF102991021051008001001001MA1999999101881MD1710041+9999REMSYN066AAXX  12214 47112 32562 21404 10041 21015 30188 40273 57004 82500;EQDQ01  00002PRCP99
0216471120999992000111300004+37480+126630FM-12+007099999V0201601N001519999999N0100001N1+00681-00021102871ADDAA199000091GF106991041001999999041011IA1019IA2999+00609KA1120N+00361MA1999999102031MD1210151+9999REMSYN088AAXX  13004 47112 32960 61603 10068 21002 30203 40287 52015 84041 333 20036 30006 92033;EQDQ01  00002PRCP99
0207471120999992000111303004+37480+126630FM-12+007099999V0201601N003119999999N0080001N1+00841+00071102901ADDAA199000091AY121031AY221031GF106991999051008001001001MA1999999102061MD1310031+9999MW1101REMSYN072AAXX  13034 47112 31558 61606 10084 20007 30206 40290 53003 71022 87500;EQDQ01+000072SCOTLCQ02  00002PRCP99
0173471120999992000111306004+37480+126630FM-12+007099999V0202001N003110075019N0150001N1+01171+00061102751ADDAA199000091GF106991061051008001001001MA1999999101921MD1810141+9999REMSYN076AAXX  13064 47112 32565 62006 10117 20006 30192 40275 58014 86500 333 92033;EQDQ01  00002PRCP99
0148471120999992000111309004+37480+126630FM-12+007099999V0202001N002619999999N0200001N1+00971+00271999999ADDAA199000091GF106991999999012501999999MA1999999101941REMSYN065AAXX  13094 47112 32670 62005 10097 20027 30194 0277 51002 86500;EQDQ01  00002PRCP99
0216471120999992000111312004+37480+126630FM-12+007099999V0201801N002110120019N0180001N1+00951+00261102811ADDAA199000091GF107991071051012501001001IA1019IA2999+00809KA1120M+01421MA1999999101981MD1810041+9999REMSYN088AAXX  13124 47112 32668 71804 10095 20026 30198 40281 58004 87500 333 10142 30008 91011;EQDQ01  00002PRCP99
0173471120999992000111318004+37480+126630FM-12+007099999V0201401N002119999999N0120001N1+00731+00051102891ADDAA199000091GF105991001001999999001011MA1999999102051MD1010031+9999REMSYN076AAXX  13184 47112 32962 51404 10073 20005 30205 40289 50003 80001 333 92022;EQDQ01  00002PRCP99
0179471120999992000111321004+37480+126630FM-12+007099999V0201401N001519999999N0110001N1+00681+00131102891ADDAA199000091GF106991061001999999031001MA1999999102051MD1410001+9999REMSYN066AAXX  13214 47112 32961 61403 10068 20013 30205 40289 58000 86030;EQDQ01+000082APCTENQ02  00002PRCP99
0216471120999992000111400004+37480+126630FM-12+007099999V0201401N002110075019N0110001N1+00841+00041102931ADDAA199000091GF107991061051008001031001IA1019IA2999+00809KA1120N+00671MA1999999102091MD1010041+9999REMSYN088AAXX  14004 47112 32561 71404 10084 20004 30209 40293 50004 86530 333 20067 30008 92011;EQDQ01  00002PRCP99
0163471120999992000111403004+37480+126630FM-12+007099999V0201601N002112200019N0100001N1+01451+00161102801ADDAA199000091GF103991031001008001031001MA1999999101981MD1710111+9999REMSYN066AAXX  14034 47112 32560 31604 10145 20016 30198 40280 57011 83030;EQDQ01  00002PRCP99
0173471120999992000111406004+37480+126630FM-12+007099999V0202301N003112200019N0120001N1+01351+00221102661ADDAA199000091GF102991001001999999001011MA1999999101841MD1810141+9999REMSYN076AAXX  14064 47112 32962 22306 10135 20022 30184 40266 58014 80001 333 92011;EQDQ01  00002PRCP99
0163471120999992000111409004+37480+126630FM-12+007099999V0202501N001512200019N0120001N1+01071+00441102701ADDAA199000091GF103991021001999999031021MA1999999101861MD1010021+9999REMSYN066AAXX  14094 47112 32962 32503 10107 20044 30186 40270 50002 82032;EQDQ01  00002PRCP99
0222471120999992000111412004+37480+126630FM-12+007099999V0203601N000512200019N0120001N1+00951+00511102721ADDAA199000091GF104991041001999999061001IA1019IA2999+00709KA1120M+01541MA1999999101881MD1310021+9999REMSYN094AAXX  14124 47112 32962 43601 10095 20051 30188 40272 53002 84060 333 10154 30007 55064 92022;EQDQ01  00002PRCP99
0163471120999992000111415004+37480+126630FM-12+007099999V0203401N000510360019N0100001N1+00961+00661102761ADDAA199000091GF106991031051008001011001MA1999999101931MD1710051+9999REMSYN066AAXX  14154 47112 32560 63401 10096 20066 30193 40276 57005 83510;EQDQ01  00002PRCP99
0201471120999992000111418004+37480+126630FM-12+007099999V0203601N000510075019N0050001N1+00961+00581102681ADDAA199000091AY121061AY221061GF108991051051008001011999MA1999999101841MD1710091+9999MW1101REMSYN082AAXX  14184 47112 31550 83601 10096 20058 30184 40268 57009 71022 8551/ 333 92022;EQDQ01  00002PRCP99
0191471120999992000111421004+37480+126630FM-12+007099999V0203601N001519999999N0070001N1+00951+00591102741ADDAA199000091AY121031AY221031GF108991051051999999021999MA1999999101901MD1210061+9999MW1101REMSYN072AAXX  14214 47112 31957 83603 10095 20059 30190 40274 52006 71022 8552/;EQDQ01  00002PRCP99
0244471120999992000111500004+37480+126630FM-12+007099999V0200201N001510075019N0060001N1+00961+00621102911ADDAA199000091AY121061AY221061GF107991071051008001001001IA1019IA2999+01009KA1120N+00911MA1999999102071MD1210171+9999MW1101REMSYN094AAXX  15004 47112 31556 70203 10096 20062 30207 40291 52017 71022 87500 333 20091 30010 92011;EQDQ01  00002PRCP99
0163471120999992000111503004+37480+126630FM-12+007099999V0200201N002110360019N0100001N1+01261+00291102851ADDAA199000091GF108991021051012501011999MA1999999102021MD1310051+9999REMSYN066AAXX  15034 47112 32660 80204 10126 20029 30202 40285 53005 8251/;EQDQ01  00002PRCP99
0173471120999992000111506004+37480+126630FM-12+007099999V0203401N004119999999N0150001N1+01301-00481102721ADDAA199000091GF106991001001999999001011MA1999999101901MD1710121+9999REMSYN076AAXX  15064 47112 32965 63408 10130 21048 30190 40272 57012 80001 333 92033;EQDQ01  00002PRCP99
0163471120999992000111509004+37480+126630FM-12+007099999V0203401N004119999999N0150001N1+01011-00411102741ADDAA199000091GF106991021001999999031011MA1999999101901MD1010001+9999REMSYN066AAXX  15094 47112 32965 63408 10101 21041 30190 40274 50000 82031;EQDQ01  00002PRCP99
0222471120999992000111512004+37480+126630FM-12+007099999V0203601N002619999999N0180001N1+00691-00591102791ADDAA199000091GF105991041001999999031011IA1019IA2999+00509KA1120M+01381MA1999999101951MD1210051+9999REMSYN094AAXX  15124 47112 32968 53605 10069 21059 30195 40279 52005 84031 333 10138 30005 55010 92022;EQDQ01  00002PRCP99
0163471120999992000111515004+37480+126630FM-12+007099999V0200201N001519999999N0180001N1+00691-00451102751ADDAA199000091GF108991081001999999011999MA1999999101901MD1610051+9999REMSYN066AAXX  15154 47112 32968 80203 10069 21045 30190 40275 56005 8801/;EQDQ01  00002PRCP99
0173471120999992000111518004+37480+126630FM-12+007099999V0200901N003119999999N0180001N1+00921+00041102731ADDAA199000091GF105991001001999999001021MA1999999101891MD1310011+9999REMSYN076AAXX  15184 47112 32968 50906 10092 20004 30189 40273 53001 80002 333 92011;EQDQ01  00002PRCP99
0163471120999992000111521004+37480+126630FM-12+007099999V0200701N004110075019N0180001N1+00851-00021102691ADDAA199000091GF108991051051008001011999MA1999999101851MD1810041+9999REMSYN066AAXX  15214 47112 32568 80708 10085 21002 30185 40269 58004 8551/;EQDQ01  00002PRCP99
0212471120999992000111600004+37480+126630FM-12+007099999V0200701N003610075019N0200001N1+00901+00031102791ADDAA112000791AY161061AY261061GF108991061051008001021999IA1019IA2999+00809MA1999999101951MD1210101+9999MW1601REMSYN094AAXX  16004 47112 11570 80707 10090 20003 30195 40279 52010 69902 76066 8652/ 333 30008 92033;
0161471120999992000111603004+37480+126630FM-12+007099999V0200701N004110075019N0150001N1+00681+00451102711ADDAY161031AY261031GF108991061051008001021999MA1999999101861MD1710091+9999MW1611REMSYN072AAXX  16034 47112 41565 80708 10068 20045 30186 40271 57009 76166 8652/;
0171471120999992000111606004+37480+126630FM-12+007099999V0200901N004110120019N0080001N1+00581+00441102571ADDAY161061AY261061GF108991061051012501021999MA1999999101721MD1710141+9999MW1611REMSYN082AAXX  16064 47112 41658 80908 10058 20044 30172 40257 57014 76166 8652/ 333 92022;
0112471120999992000111609004+37480+126630FM-12+007099999V0200501N003119999999N9999999N1+00551+00411102551ADDAA199000021MA1999999101701MD1810021+9999REMSYN060AAXX  16094 47112 3//// /0506 10055 20041 30170 40255 58002;
0237471120999992000111612004+37480+126630FM-12+007099999V0200201N001510075019N0050001N1+00511+00391102471ADDAA112009991AY121061AY221061GF108991061051008001021999IA1099IA2999+00509KA1120M+00951MA1999999101621MD1710081+9999MW1101REMSYN106AAXX  16124 47112 11550 80203 10051 20039 30162 40247 57008 60102 71022 8652/ 333 10095 31005 70101 92011;
0172471120999992000111615004+37480+126630FM-12+007099999V0203601N002110075019N0080001N1+00461+00381102401ADDAA199000021AY121031AY221031GF106991061051008001001001MA1999999101551MD1510071+9999MW1101REMSYN072AAXX  16154 47112 31558 63604 10046 20038 30155 40240 55007 71022 86500;
0154471120999992000111618004+37480+126630FM-12+007099999V0200201N001010075019N0180001N1+00511+00441102361ADDAA199000021GF107991071051008001001001MA1999999101511MD1810041+9999REMSYN076AAXX  16184 47112 32568 70202 10051 20044 30151 40236 58004 87500 333 92011;
0163471120999992000111621004+37480+126630FM-12+007099999V0203601N001510075019N0180001N1+00511+00431102321ADDAA199000091GF107991071051008001001001MA1999999101471MD1810041+9999REMSYN066AAXX  16214 47112 32568 73603 10051 20043 30147 40232 58004 87500;EQDQ01  00002PRCP99
0184471120999992000111700004+37480+126630FM-12+007099999V0203401N004610075019N0180001N1+00611+00261102451ADDAA124010291GF105991051051008001001001IA1099IA2999+00509MA1999999101611MD1210141+9999REMSYN088AAXX  17004 47112 32568 53409 10061 20026 30161 40245 52014 85500 333 31005 70101 92022;
0163471120999992000111703004+37480+126630FM-12+007099999V0203401N004612200019N0150001N1+00811+00041102411ADDAA199000091GF102991021051008001001001MA1999999101571MD1310041+9999REMSYN066AAXX  17034 47112 32565 23409 10081 20004 30157 40241 53004 82500;EQDQ01  00002PRCP99
0173471120999992000111706004+37480+126630FM-12+007099999V0203201N004612200019N0150001N1+00861+00021102321ADDAA199000091GF101991011051008001001001MA1999999101491MD1810081+9999REMSYN076AAXX  17064 47112 32565 13209 10086 20002 30149 40232 58008 81500 333 92011;EQDQ01  00002PRCP99
0163471120999992000111709004+37480+126630FM-12+007099999V0203201N005110360019N0150001N1+00681+00031102441ADDAA199000091GF106991021051008001061001MA1999999101601MD1210111+9999REMSYN066AAXX  17094 47112 32565 63210 10068 20003 30160 40244 52011 82560;EQDQ01  00002PRCP99
0232471120999992000111712004+37480+126630FM-12+007099999V0203201N006212200019N0150001N1+00571-00031102651ADDAA199000091GA1001+999999999GF100991001001999999001001IA1019IA2999+00409KA1120M+00951MA1999999101801MD1210201+9999REMSYN088AAXX  17124 47112 32965 03212 10057 21003 30180 40265 52020 333 10095 30004 55052 92033;EQDQ01  00002PRCP99
0173471120999992000111715004+37480+126630FM-12+007099999V0203601N003612200019N0150001N1+00411-00261102781ADDAA199000091GA1001+999999999GF100991001001999999001001MA1999999101921MD1210121+9999REMSYN060AAXX  17154 47112 32965 03607 10041 21026 30192 40278 52012;EQDQ01  00002PRCP99
0131471120999992000111718004+37480+126630FM-12+007099999V0200201N001519999999N9999999N1+00191-00311102911ADDAA199000091MA1999999102051MD1210131+9999REMSYN060AAXX  17184 47112 3//// /0203 10019 21031 30205 40291 52013;EQDQ01  00002PRCP99
0173471120999992000111721004+37480+126630FM-12+007099999V0203601N003612200019N0150001N1+00071-00421103071ADDAA199000091GA1001+999999999GF100991001001999999001001MA1999999102201MD1210151+9999REMSYN060AAXX  17214 47112 32965 03607 10007 21042 30220 40307 52015;EQDQ01  00002PRCP99
0226471120999992000111800004+37480+126630FM-12+007099999V0200201N002112200019N0120001N1+00101-00561103231ADDAA199000091GA1001+999999999GF100991001001999999001001IA1019IA2999+00109KA1120N+00001MA1999999102371MD1210171+9999REMSYN082AAXX  18004 47112 32962 00204 10010 21056 30237 40323 52017 333 20000 30001 92022;EQDQ01  00002PRCP99
0191471120999992000111803004+37480+126630FM-12+007099999V0203601N002112200019N0120001N1+00631-00811103221ADDAA199000091GA1001+999999999GF100991001001999999001001MA1999999102371REMSYN060AAXX  18034 47112 32962 03604 10063 21081 30237 40322 53000;EQDQ01+000032APCTENQ02+000002APC3  Q03  00002PRCP99
0183471120999992000111806004+37480+126630FM-12+007099999V0203401N003112200019N0150001N1+00781-00641103141ADDAA199000091GA1001+999999999GF100991001001999999001001MA1999999102291MD1810081+9999REMSYN070AAXX  18064 47112 32965 03406 10078 21064 30229 40314 58008 333 92022;EQDQ01  00002PRCP99
0173471120999992000111809004+37480+126630FM-12+007099999V0203401N003112200019N0150001N1+00441-00871103251ADDAA199000091GA1001+999999999GF100991001001999999001001MA1999999102391MD1210101+9999REMSYN060AAXX  18094 47112 32965 03406 10044 21087 30239 40325 52010;EQDQ01  00002PRCP99
0232471120999992000111812004+37480+126630FM-12+007099999V0200201N002112200019N0180001N1+00221-00571103311ADDAA199000091GA1001+999999999GF100991001001999999001001IA1099IA2999+00109KA1120M+00831MA1999999102451MD1210061+9999REMSYN088AAXX  18124 47112 32968 00204 10022 21057 30245 40331 52006 333 10083 31001 55050 92011;EQDQ01  00002PRCP99
0163471120999992000111815004+37480+126630FM-12+007099999V0203601N002112200019N0200001N1+00171-00501103251ADDAA199000091GF104991031051008001001011MA1999999102391MD1810061+9999REMSYN066AAXX  18154 47112 32570 43604 10017 21050 30239 40325 58006 83501;EQDQ01  00002PRCP99
0173471120999992000111818004+37480+126630FM-12+007099999V0203601N002112200019N0150001N1+00131-00671103211ADDAA199000091GF104991001001999999001011MA1999999102351MD1810041+9999REMSYN076AAXX  18184 47112 32965 43604 10013 21067 30235 40321 58004 80001 333 92011;EQDQ01  00002PRCP99
0163471120999992000111821004+37480+126630FM-12+007099999V0200201N001519999999N0170001N1+00141-00541103111ADDAA199000091GF106991001001999999001021MA1999999102241MD1710111+9999REMSYN066AAXX  18214 47112 32967 60203 10014 21054 30224 40311 57011 80002;EQDQ01  00002PRCP99
0226471120999992000111900004+37480+126630FM-12+007099999V0201101N002612200019N0110001N1+00381-00491103001ADDAA199000091GA1001+999999999GF100991001001999999001001IA1019IA2999+00409KA1120N+00061MA1999999102141MD1710101+9999REMSYN082AAXX  19004 47112 32961 01105 10038 21049 30214 40300 57010 333 20006 30004 92022;EQDQ01  00002PRCP99
0163471120999992000111903004+37480+126630FM-12+007099999V0201401N002612200019N0140001N1+01171-00591102801ADDAA199000091GF104991021001999999031011MA1999999101981MD1510161+9999REMSYN066AAXX  19034 47112 32964 41405 10117 21059 30198 40280 55016 82031;EQDQ01  00002PRCP99
0173471120999992000111906004+37480+126630FM-12+007099999V0201601N001510120019N0130001N1+01171-00231102431ADDAA199000091GF108991051051012501021999MA1999999101601MD1710381+9999REMSYN076AAXX  19064 47112 32663 81603 10117 21023 30160 40243 57038 8552/ 333 92022;EQDQ01  00002PRCP99
0172471120999992000111909004+37480+126630FM-12+007099999V0203401N000510075019N0110001N1+01101-00041102401ADDAA199000021AY161031AY221031GF108991061071008001021999MA1999999101571MD1510031+9999MW1601REMSYN072AAXX  19094 47112 31561 83401 10110 21004 30157 40240 55003 76062 8672/;
0237471120999992000111912004+37480+126630FM-12+007099999V0203601N002110075019N0090001N1+00651+00291102321ADDAA112000591AY161061AY261061GF108991061071008001021999IA1099IA2999+00609KA1120M+01411MA1999999101481MD1710091+9999MW1611REMSYN106AAXX  19124 47112 11559 83604 10065 20029 30148 40232 57009 69962 76166 8672/ 333 10141 31006 70006 92022;
0161471120999992000111915004+37480+126630FM-12+007099999V0203601N001010075019N0050001N1+00581+00461102181ADDAY161031AY261031GF108991061071008001021999MA1999999101341MD1510141+9999MW1611REMSYN072AAXX  19154 47112 41550 83602 10058 20046 30134 40218 55014 76166 8672/;
0171471120999992000111918004+37480+126630FM-12+007099999V0203601N001010075019N0030001N1+00611+00521101741ADDAY161061AY261061GF108991061071008001021999MA1999999100911MD1710431+9999MW1611REMSYN082AAXX  19184 47112 41530 83602 10061 20052 30091 40174 57043 76166 8672/ 333 92011;
0161471120999992000111921004+37480+126630FM-12+007099999V0203601N003110075019N0015001N1+00471+00401101611ADDAY161031AY261031GF108991061071008001021999MA1999999100771MD1810141+9999MW1611REMSYN072AAXX  19214 47112 41515 83606 10047 20040 30077 40161 58014 76166 8672/;
0237471120999992000112000004+37480+126630FM-12+007099999V0203601N003110075019N0100001N1+00441+00371101591ADDAA112015091AY161061AY261061GF108991061071008001021999IA1119IA2999+00409KA1120N+00421MA1999999100751MD1210021+9999MW1611REMSYN106AAXX  20004 47112 11560 83606 10044 20037 30075 40159 52002 60152 76166 8672/ 333 20042 32004 70154 92022;
0161471120999992000112003004+37480+126630FM-12+007099999V0203401N002610075019N0150001N1+00541+00471101481ADDAY161031AY221031GF108991061051008001021999MA1999999100641MD1710111+9999MW1211REMSYN072AAXX  20034 47112 41565 83405 10054 20047 30064 40148 57011 72162 8652/;
0143471120999992000112006004+37480+126630FM-12+007099999V0203401N006210075019N0170001N1+00711+00361101501ADDGF105991051051008001001001MA1999999100661MD1010021+9999REMSYN076AAXX  20064 47112 42567 53412 10071 20036 30066 40150 50002 85500 333 92011;
0133471120999992000112009004+37480+126630FM-12+007099999V0203201N006210075019N0150001N1+00511+00001101751ADDGF105991051051008001001001MA1999999100911MD1210251+9999REMSYN066AAXX  20094 47112 42565 53212 10051 20000 30091 40175 52025 85500;
0209471120999992000112012004+37480+126630FM-12+007099999V0203201N008212200019N0150001N1+00341-00261101981ADDAA112001091GF102991021051012501001001IA2999+00209KA1120M+00741MA1999999101141MD1210231+9999REMSYN106AAXX  20124 47112 11665 23216 10034 21026 30114 40198 52023 60012 82500 333 10074 3/002 55002 70159 92022;
0144471120999992000112015004+37480+126630FM-12+007099999V0203401N007710075019N0150001N1+00291-00311102181ADDAA199000021GF107991071051008001001001MA1999999101331MD1210191+9999REMSYN066AAXX  20154 47112 32565 73415 10029 21031 30133 40218 52019 87500;
0173471120999992000112018004+37480+126630FM-12+007099999V0203401N006210075019N0200001N1+00101-00431102361ADDAA199000091GF106991061051008001001001MA1999999101501MD1210171+9999REMSYN076AAXX  20184 47112 32570 63412 10010 21043 30150 40236 52017 86500 333 92044;EQDQ01  00002PRCP99
0163471120999992000112021004+37480+126630FM-12+007099999V0203401N005712200019N0150001N1-00041-00561102531ADDAA199000091GF102991021051012501001001MA1999999101671MD1210171+9999REMSYN066AAXX  20214 47112 32665 23411 11004 21056 30167 40253 52017 82500;EQDQ01  00002PRCP99
0219471120999992000112100004+37480+126630FM-12+007099999V0203601N004112200019N0200001N1-00071-00691102841ADDAA124001091GA1001+999999999GF100991001001999999001001IA1149IA2999+00009KA1120N-00131MA1999999101971MD1210301+9999REMSYN094AAXX  21004 47112 32970 03608 11007 21069 30197 40284 52030 333 21013 34000 44/// 70011 92044;
0173471120999992000112103004+37480+126630FM-12+007099999V0203401N003612200019N0220001N1+00281-00851102871ADDAA199000091GA1001+999999999GF100991001001999999001001MA1999999102011MD1510041+9999REMSYN060AAXX  21034 47112 32972 03407 10028 21085 30201 40287 55004;EQDQ01  00002PRCP99
0183471120999992000112106004+37480+126630FM-12+007099999V0203401N003112200019N0280001N1+00461-01131102851ADDAA199000091GA1001+999999999GF100991001001999999001001MA1999999102001MD1810011+9999REMSYN070AAXX  21064 47112 32978 03406 10046 21113 30200 40285 58001 333 92033;EQDQ01  00002PRCP99
0173471120999992000112109004+37480+126630FM-12+007099999V0203601N003112200019N0250001N1+00111-01201102961ADDAA199000091GA1001+999999999GF100991001001999999001001MA1999999102091MD1210091+9999REMSYN060AAXX  21094 47112 32975 03606 10011 21120 30209 40296 52009;EQDQ01  00002PRCP99
0226471120999992000112112004+37480+126630FM-12+007099999V0203601N003112200019N0250001N1+00011-01131103101ADDAA199000091GA1001+999999999GF100991001001999999001001IA1019IA2999-00109KA1120M+00501MA1999999102231MD1210141+9999REMSYN082AAXX  21124 47112 32975 03606 10001 21113 30223 40310 52014 333 10050 30101 92011;EQDQ01  00002PRCP99
0173471120999992000112115004+37480+126630FM-12+007099999V0200201N001512200019N0250001N1-00161-00821103141ADDAA199000091GA1001+999999999GF100991001001999999001001MA1999999102271MD1210041+9999REMSYN060AAXX  21154 47112 32975 00203 11016 21082 30227 40314 52004;EQDQ01  00002PRCP99
0183471120999992000112118004+37480+126630FM-12+007099999V0203601N000512200019N0250001N1-00211-00821103171ADDAA199000091GA1001+999999999GF100991001001999999001001MA1999999102291MD1010021+9999REMSYN070AAXX  21184 47112 32975 03601 11021 21082 30229 40317 50002 333 92011;EQDQ01  00002PRCP99
0173471120999992000112121004+37480+126630FM-12+007099999V0200201N002112200019N0200001N1-00261-00681103161ADDAA199000091GA1001+999999999GF100991001001999999001001MA1999999102281MD1310011+9999REMSYN060AAXX  21214 47112 32970 00204 11026 21068 30228 40316 53001;EQDQ01  00002PRCP99
0226471120999992000112200004+37480+126630FM-12+007099999V0200201N000512200019N0200001N1-00071-00671103221ADDAA199000091GA1001+999999999GF100991001001999999001001IA1019IA2999+00209KA1120N-00341MA1999999102351MD1210071+9999REMSYN082AAXX  22004 47112 32970 00201 11007 21067 30235 40322 52007 333 21034 30002 92022;EQDQ01  00002PRCP99
0173471120999992000112203004+37480+126630FM-12+007099999V0200901N002112200019N0250001N1+00591-01391103061ADDAA199000091GA1001+999999999GF100991001001999999001001MA1999999102211MD1710141+9999REMSYN060AAXX  22034 47112 32975 00904 10059 21139 30221 40306 57014;EQDQ01  00002PRCP99
0183471120999992000112206004+37480+126630FM-12+007099999V0202701N003112200019N0200001N1+00731-01081102841ADDAA199000091GA1001+999999999GF100991001001999999001001MA1999999102001MD1710211+9999REMSYN070AAXX  22064 47112 32970 02706 10073 21108 30200 40284 57021 333 92011;EQDQ01  00002PRCP99
0173471120999992000112209004+37480+126630FM-12+007099999V0202701N002112200019N0180001N1+00511-00731102861ADDAA199000091GA1001+999999999GF100991001001999999001001MA1999999102011MD1510011+9999REMSYN060AAXX  22094 47112 32968 02704 10051 21073 30201 40286 55001;EQDQ01  00002PRCP99
0226471120999992000112212004+37480+126630FM-12+007099999V0203601N001512200019N0100001N1+00321-00861102821ADDAA199000091GA1001+999999999GF100991001001999999001001IA1019IA2999+00109KA1120M+00921MA1999999101971MD1810041+9999REMSYN082AAXX  22124 47112 32960 03603 10032 21086 30197 40282 58004 333 10092 30001 92011;EQDQ01  00002PRCP99
0173471120999992000112215004+37480+126630FM-12+007099999V0200501N001012200019N0110001N1+00231-00601102821ADDAA199000091GA1001+999999999GF100991001001999999001001MA1999999101961MD1510011+9999REMSYN060AAXX  22154 47112 32961 00502 10023 21060 30196 40282 55001;EQDQ01  00002PRCP99
0201471120999992000112218004+37480+126630FM-12+007099999V0203401N000512200019N0080001N1+00271-00761102801ADDAA199000091AY101061AY201061GA1001+999999999GF100991001001999999001001MA1999999101941MD1810021+9999MW1101REMSYN066AAXX  22184 47112 32958 03401 10027 21076 30194 40280 58002 71000;EQDQ01  00002PRCP99
0173471120999992000112221004+37480+126630FM-12+007099999V0201401N003112200019N0110001N1+00211-00671102691ADDAA199000091GA1001+999999999GF100991001001999999001001MA1999999101831MD1810111+9999REMSYN060AAXX  22214 47112 32961 01406 10021 21067 30183 40269 58011;EQDQ01  00002PRCP99
0216471120999992000112300004+37480+126630FM-12+007099999V0201601N002112200019N0110001N1+00501-00731102751ADDAA199000091GF101991011001008001031001IA1019IA2999+00509KA1120N+00191MA1999999101901MD1110071+9999REMSYN088AAXX  23004 47112 32561 11604 10050 21073 30190 40275 51007 81030 333 20019 30005 92011;EQDQ01  00002PRCP99
0163471120999992000112303004+37480+126630FM-12+007099999V0202001N002610360019N0120001N1+01001-00421102691ADDAA199000091GF106991021051008001031001MA1999999101861MD1510041+9999REMSYN066AAXX  23034 47112 32562 62005 10100 21042 30186 40269 55004 82530;EQDQ01  00002PRCP99
0173471120999992000112306004+37480+126630FM-12+007099999V0202001N001510360019N0130001N1+01031+00011102601ADDAA199000091GF107991041051008001031001MA1999999101771MD1710091+9999REMSYN076AAXX  23064 47112 32563 72003 10103 20001 30177 40260 57009 84530 333 92011;EQDQ01  00002PRCP99
0163471120999992000112309004+37480+126630FM-12+007099999V0201801N001510075019N0120001N1+00951+00341102561ADDAA199000091GF108991061051008001011999MA1999999101721MD1710051+9999REMSYN066AAXX  23094 47112 32562 81803 10095 20034 30172 40256 57005 8651/;EQDQ01  00002PRCP99
0222471120999992000112312004+37480+126630FM-12+007099999V0201801N003110075019N0120001N1+00971+00301102571ADDAA199000091GF106991051051008001011001IA1019IA2999+00809KA1120M+01081MA1999999101731MD1310011+9999REMSYN094AAXX  23124 47112 32562 61806 10097 20030 30173 40257 53001 85510 333 10108 30008 55021 92022;EQDQ01  00002PRCP99
0163471120999992000112315004+37480+126630FM-12+007099999V0201601N002610075019N0120001N1+00901+00321102551ADDAA199000091GF107991061051008001011001MA1999999101721MD1510011+9999REMSYN066AAXX  23154 47112 32562 71605 10090 20032 30172 40255 55001 86510;EQDQ01  00002PRCP99
0189471120999992000112318004+37480+126630FM-12+007099999V0201601N003110075019N0120001N1+00861-00051102551ADDAA199000091GF107991051051008001011001MA1999999101721MD1410001+9999REMSYN076AAXX  23184 47112 32562 71606 10086 21005 30172 40255 51000 85510 333 92033;EQDQ01+000012APCTENQ02  00002PRCP99
0191471120999992000112321004+37480+126630FM-12+007099999V0201601N002112200019N0080001N1+00751+00051102511ADDAA199000091AY111031AY211031GF102991021051012501001001MA1999999101671MD1810051+9999MW1101REMSYN072AAXX  23214 47112 31658 21604 10075 20005 30167 40251 58005 71011 82500;EQDQ01  00002PRCP99
0244471120999992000112400004+37480+126630FM-12+007099999V0201401N001010900019N0060001N1+00941+00121102571ADDAA199000091AY121061AY221061GF105991021051012501031011IA1019IA2999+00909KA1120N+00751MA1999999101741MD1210071+9999MW1101REMSYN094AAXX  24004 47112 31656 51402 10094 20012 30174 40257 52007 71022 82531 333 20075 30009 92011;EQDQ01  00002PRCP99
0163471120999992000112403004+37480+126630FM-12+007099999V0202001N003619999999N0100001N1+01241+00281102421ADDAA199000091GF106991031001999999031011MA1999999101601MD1610141+9999REMSYN066AAXX  24034 47112 32960 62007 10124 20028 30160 40242 56014 83031;EQDQ01  00002PRCP99
0173471120999992000112406004+37480+126630FM-12+007099999V0202001N004610360019N0130001N1+01121+00481102331ADDAA199000091GF107991021051012501031011MA1999999101501MD1810101+9999REMSYN076AAXX  24064 47112 32663 72009 10112 20048 30150 40233 58010 82531 333 92033;EQDQ01  00002PRCP99
0163471120999992000112409004+37480+126630FM-12+007099999V0202001N002110075019N0120001N1+01061+00591102341ADDAA199000091GF108991051051008001011999MA1999999101511MD1310011+9999REMSYN066AAXX  24094 47112 32562 82004 10106 20059 30151 40234 53001 8551/;EQDQ01  00002PRCP99
0222471120999992000112412004+37480+126630FM-12+007099999V0203401N001510075019N0120001N1+01011+00611102411ADDAA199000091GF107991071051008001001001IA1019IA2999+00909KA1120M+01361MA1999999101581MD1210071+9999REMSYN094AAXX  24124 47112 32562 73403 10101 20061 30158 40241 52007 87500 333 10136 30009 55006 92011;EQDQ01  00002PRCP99
0201471120999992000112415004+37480+126630FM-12+007099999V0200901N001512200019N0080001N1+00901+00541102381ADDAA199000091AY111031AY211031GA1001+999999999GF100991001001999999001001MA1999999101541MD1710041+9999MW1101REMSYN066AAXX  24154 47112 31958 00903 10090 20054 30154 40238 57004 71011;EQDQ01  00002PRCP99
0201471120999992000112418004+37480+126630FM-12+007099999V0200901N002112200019N0080001N1+00861+00531102351ADDAA199000091AY111061AY211061GF102991021051008001001001MA1999999101521MD1010021+9999MW1101REMSYN082AAXX  24184 47112 31558 20904 10086 20053 30152 40235 50002 71011 82500 333 92011;EQDQ01  00002PRCP99
0201471120999992000112421004+37480+126630FM-12+007099999V0200901N002612200019N0050001N1+00751+00421102301ADDAA199000091AY101031AY201031GA1001+999999999GF100991001001999999001001MA1999999101471MD1810051+9999MW1101REMSYN066AAXX  24214 47112 31550 00905 10075 20042 30147 40230 58005 71000;EQDQ01  00002PRCP99
0254471120999992000112500004+37480+126630FM-12+007099999V0200901N002612200019N0050001N1+00851+00451102321ADDAA199000091AY101061AY201061GA1001+999999999GF100991001001999999001001IA1019IA2999+00909KA1120N+00601MA1999999101491MD1810021+9999MW1101REMSYN088AAXX  25004 47112 31950 00905 10085 20045 30149 40232 58002 71000 333 20060 30009 92022;EQDQ01  00002PRCP99
0173471120999992000112503004+37480+126630FM-12+007099999V0201601N003612200019N0100001N1+01551+00381102141ADDAA199000091GA1001+999999999GF100991001001999999001001MA1999999101331MD1710161+9999REMSYN060AAXX  25034 47112 32960 01607 10155 20038 30133 40214 57016;EQDQ01  00002PRCP99
0183471120999992000112506004+37480+126630FM-12+007099999V0202001N003612200019N0130001N1+01561+00281102021ADDAA199000091GA1001+999999999GF100991001001999999001001MA1999999101211MD1810121+9999REMSYN070AAXX  25064 47112 32963 02007 10156 20028 30121 40202 58012 333 92022;EQDQ01  00002PRCP99
0173471120999992000112509004+37480+126630FM-12+007099999V0202001N001012200019N0120001N1+01061+00471102051ADDAA199000091GA1001+999999999GF100991001001999999001001MA1999999101221MD1310011+9999REMSYN060AAXX  25094 47112 32962 02002 10106 20047 30122 40205 53001;EQDQ01  00002PRCP99
0226471120999992000112512004+37480+126630FM-12+007099999V0202301N001512200019N0120001N1+00971+00691102081ADDAA199000091GA1001+999999999GF100991001001999999001001IA1019IA2999+00809KA1120M+01671MA1999999101251MD1010031+9999REMSYN082AAXX  25124 47112 32962 02303 10097 20069 30125 40208 50003 333 10167 30008 92011;EQDQ01  00002PRCP99
0201471120999992000112515004+37480+126630FM-12+007099999V0201601N002612200019N0080001N1+00911+00751102101ADDAA199000091AY101031AY201031GA1001+999999999GF100991001001999999001001MA1999999101261MD1510011+9999MW1101REMSYN066AAXX  25154 47112 31958 01605 10091 20075 30126 40210 55001 71000;EQDQ01  00002PRCP99
0191471120999992000112518004+37480+126630FM-12+007099999V0201801N002112200019N0030001N1+00881+00741102061ADDAA199000091AY101061AY201061GF102991021051012501001001MA1999999101231MD1710031+9999MW1101REMSYN072AAXX  25184 47112 31630 21804 10088 20074 30123 40206 57003 71000 82500;EQDQ01  00002PRCP99
0207471120999992000112521004+37480+126630FM-12+007099999V0201601N003110120019N0120001N1+00931+00741101971ADDAA199000091AY121031AY221031GF108991999051012501001001MA1999999101141MD1710091+9999MW1101REMSYN072AAXX  25214 47112 31662 81606 10093 20074 30114 40197 57009 71022 87500;EQDQ01+000072SCOTLCQ02  00002PRCP99
0237471120999992000112600004+37480+126630FM-12+007099999V0202501N000510021019N0003001N1+00881+00781102041ADDAA112001091AY161061AY241061GF108991071071002501021999IA1099IA2999+00809KA1120N+00851MA1999999101201MD1010061+9999MW1611REMSYN106AAXX  26004 47112 11303 82501 10088 20078 30120 40204 50006 60012 76164 8772/ 333 20085 31008 70011 92033;
0177471120999992000112603004+37480+126630FM-12+007099999V0203401N003610006019N0006001N1+00901+00831102111ADDAY141031AY241031GA1091+999999999GF109991091999999999999999MA1999999101281MD1310081+9999MW1431REMSYN072AAXX  26034 47112 41506 93407 10090 20083 30128 40211 53008 74344 887//;
0142471120999992000112606004+37480+126630FM-12+007099999V0202901N005710360019N0170001N1+00861+00301102091ADDGF106991021051008001041001MA1999999101261MD1810021+9999REMSYN075AAXX  26064 47112 42567 62911 10086 2003030126 40209 58002 82540 333 92033;
0133471120999992000112609004+37480+126630FM-12+007099999V0203201N006219999999N0200001N1+00761+00001102131ADDGF106991031001999999011011MA1999999101291MD1210031+9999REMSYN066AAXX  26094 47112 42970 63212 10076 20000 30129 40213 52003 83011;
0225471120999992000112612004+37480+126630FM-12+007099999V0203401N004112200019N0250001N1+00511-00321102241ADDAA112001091GA1001+999999999GF100991001001999999001001IA1019IA2999+00309KA1120M+01031MA1999999101391MD1210101+9999REMSYN100AAXX  26124 47112 12975 03408 10051 21032 30139 40224 52010 60012 333 10103 30003 55009 70023 92044;
0131471120999992000112615004+37480+126630FM-12+007099999V0203401N003619999999N9999999N1+00281-00391102371ADDAA199000091MA1999999101521MD1210131+9999REMSYN060AAXX  26154 47112 3//// /3407 10028 21039 30152 40237 52013;EQDQ01  00002PRCP99
0183471120999992000112618004+37480+126630FM-12+007099999V0203401N003612200019N0250001N1+00181-00501102411ADDAA199000091GA1001+999999999GF100991001001999999001001MA1999999101561MD1210041+9999REMSYN070AAXX  26184 47112 32975 03407 10018 21050 30156 40241 52004 333 92044;EQDQ01  00002PRCP99
0173471120999992000112621004+37480+126630FM-12+007099999V0203601N002112200019N0150001N1+00011-00601102451ADDAA199000091GA1001+999999999GF100991001001999999001001MA1999999101581MD1210021+9999REMSYN060AAXX  26214 47112 32965 03604 10001 21060 30158 40245 52002;EQDQ01  00002PRCP99
0219471120999992000112700004+37480+126630FM-12+007099999V0203601N003112200019N0230001N1+00231-00861102581ADDAA124001391GA1001+999999999GF100991001001999999001001IA1289IA2999+00309KA1120N+00001MA1999999101721MD1210141+9999REMSYN094AAXX  27004 47112 32973 03606 10023 21086 30172 40258 52014 333 20000 3/003 44/// 70012 92022;
0205471120999992000112703004+37480+126630FM-12+007099999V0203401N005112200019N0250001N1+00601-01021102561ADDAA199000091GA1001+999999999GF100991001001999999001001MA1999999101721MD1710021+9999REMSYN060AAXX  27034 47112 32975 03410 10060 21102 30172 40256 53000;EQDQ01+000032APCTENQ02+000002APC3  Q03  00002PRCP99
0183471120999992000112706004+37480+126630FM-12+007099999V0203401N004612200019N0250001N1+00771-00961102441ADDAA199000091GA1001+999999999GF100991001001999999001001MA1999999101601MD1710121+9999REMSYN070AAXX  27064 47112 32975 03409 10077 21096 30160 40244 57012 333 92044;EQDQ01  00002PRCP99
0173471120999992000112709004+37480+126630FM-12+007099999V0203401N003112200019N0250001N1+00541-01041102521ADDAA199000091GA1001+999999999GF100991001001999999001001MA1999999101671MD1110071+9999REMSYN060AAXX  27094 47112 32975 03406 10054 21104 30167 40252 51007;EQDQ01  00002PRCP99
0238471120999992000112712004+37480+126630FM-12+007099999V0203601N001512200019N0250001N1+00441-00841102571ADDAA199000091GA1001+999999999GF100991001001999999001001IA1099IA2999+00209KA1120M+00801MA1999999101721MD1210051+9999REMSYN094AAXX  27124 47112 32975 03603 10044 21084 30172 40257 52005 333 10080 31002 44/// 55090 92011;EQDQ01  00002PRCP99
0173471120999992000112715004+37480+126630FM-12+007099999V0203601N001512200019N0250001N1+00261-00821102601ADDAA199000091GA1001+999999999GF100991001001999999001001MA1999999101751MD1210031+9999REMSYN060AAXX  27154 47112 32975 03603 10026 21082 30175 40260 52003;EQDQ01  00002PRCP99
0173471120999992000112718004+37480+126630FM-12+007099999V0203601N001510360019N0200001N1+00311-00751102671ADDAA199000091GF108991021051008001011999MA1999999101811MD1010061+9999REMSYN076AAXX  27184 47112 32570 83603 10031 21075 30181 40267 50006 8251/ 333 92011;EQDQ01  00002PRCP99
0163471120999992000112721004+37480+126630FM-12+007099999V0203601N002112200019N0180001N1+00171-00671102701ADDAA199000091GF104991021051008001031001MA1999999101841MD1010031+9999REMSYN066AAXX  27214 47112 32568 43604 10017 21067 30184 40270 50003 82530;EQDQ01  00002PRCP99
0226471120999992000112800004+37480+126630FM-12+007099999V0203601N001512200019N0200001N1+00351-00801102821ADDAA199000091GA1001+999999999GF100991001001999999001001IA1019IA2999+00509KA1120N+00081MA1999999101961MD1210121+9999REMSYN082AAXX  28004 47112 32970 03603 10035 21080 30196 40282 52012 333 20008 30005 92022;EQDQ01  00002PRCP99
0173471120999992000112803004+37480+126630FM-12+007099999V0203401N002612200019N0250001N1+00681-00871102851ADDAA199000091GA1001+999999999GF100991001001999999001001MA1999999102001MD1310041+9999REMSYN060AAXX  28034 47112 32975 03405 10068 21087 30200 40285 53004;EQDQ01  00002PRCP99
0183471120999992000112806004+37480+126630FM-12+007099999V0203401N003612200019N0250001N1+00671-00901102621ADDAA199000091GA1001+999999999GF100991001001999999001001MA1999999101781MD1710221+9999REMSYN070AAXX  28064 47112 32975 03407 10067 21090 30178 40262 57022 333 92033;EQDQ01  00002PRCP99
0163471120999992000112809004+37480+126630FM-12+007099999V0203201N004112200019N0250001N1+00381-00751102761ADDAA199000091GF102991001001999999001011MA1999999101911MD1210131+9999REMSYN066AAXX  28094 47112 32975 23208 10038 21075 30191 40276 52013 80001;EQDQ01  00002PRCP99
0216471120999992000112812004+37480+126630FM-12+007099999V0203601N001012200019N0250001N1+00311-00651102701ADDAA199000091GF103991001001999999001011IA1019IA2999+00109KA1120M+00781MA1999999101851MD1510061+9999REMSYN088AAXX  28124 47112 32975 33602 10031 21065 30185 40270 55006 80001 333 10078 30001 92000;EQDQ01  00002PRCP99
0173471120999992000112815004+37480+126630FM-12+007099999V0200901N001012200019N0220001N1+00271-00771102701ADDAA199000091GA1001+999999999GF100991001001999999001001MA1999999101841MD1810011+9999REMSYN060AAXX  28154 47112 32972 00902 10027 21077 30184 40270 58001;EQDQ01  00002PRCP99
0183471120999992000112818004+37480+126630FM-12+007099999V0203601N001012200019N0150001N1+00061-00401102791ADDAA199000091GA1001+999999999GF100991001001999999001001MA1999999101931MD1010091+9999REMSYN070AAXX  28184 47112 32965 03602 10006 21040 30193 40279 50009 333 92011;EQDQ01  00002PRCP99
0173471120999992000112821004+37480+126630FM-12+007099999V0200201N001012200019N0180001N1-00061-00611102681ADDAA199000091GA1001+999999999GF100991001001999999001001MA1999999101821MD1810111+9999REMSYN060AAXX  28214 47112 32968 00202 11006 21061 30182 40268 58011;EQDQ01  00002PRCP99
0248471120999992000112900004+37480+126630FM-12+007099999V0201401N001012200019N0100001N1+00281-00671102671ADDAA199000091GF103991001001999999001021IA1019IA2999+00309KA1120N-00081MA1999999101821MD1710011+9999REMSYN088AAXX  29004 47112 32960 31402 10028 21067 30182 40267 57000 80002 333 21008 30003 92011;EQDQ01+000072APCTENQ02+000002APC3  Q03  00002PRCP99
0195471120999992000112903004+37480+126630FM-12+007099999V0203201N001512200019N0120001N1+00831-00481102661ADDAA199000091GF102991001001999999001021MA1999999101821MD1710011+9999REMSYN066AAXX  29034 47112 32962 23203 10083 21048 30182 40266 53000 80002;EQDQ01+000032APCTENQ02+000002APC3  Q03  00002PRCP99
0173471120999992000112906004+37480+126630FM-12+007099999V0202001N004112200019N0150001N1+00841-00201102521ADDAA199000091GF102991001001999999001011MA1999999101681MD1710141+9999REMSYN076AAXX  29064 47112 32965 22008 10084 21020 30168 40252 57014 80001 333 92011;EQDQ01  00002PRCP99
0163471120999992000112909004+37480+126630FM-12+007099999V0201801N003119999999N0150001N1+00661+00041102431ADDAA199000091GF105991001001999999001011MA1999999101591MD1710091+9999REMSYN066AAXX  29094 47112 32965 51806 10066 20004 30159 40243 57009 80001;EQDQ01  00002PRCP99
0222471120999992000112912004+37480+126630FM-12+007099999V0201601N003119999999N0150001N1+00661+00151102461ADDAA199000091GF105991001001999999001011IA1019IA2999+00509KA1120M+00961MA1999999101621MD1210031+9999REMSYN094AAXX  29124 47112 32965 51606 10066 20015 30162 40246 52003 80001 333 10096 30005 55076 92022;EQDQ01  00002PRCP99
0163471120999992000112915004+37480+126630FM-12+007099999V0201801N003112200019N0150001N1+00631+00141102471ADDAA199000091GF106991021051008001001011MA1999999101631MD1510011+9999REMSYN066AAXX  29154 47112 32565 61806 10063 20014 30163 40247 55001 82501;EQDQ01  00002PRCP99
0131471120999992000112918004+37480+126630FM-12+007099999V0200901N001019999999N9999999N1+00551+00031102531ADDAA199000091MA1999999101681MD1210051+9999REMSYN060AAXX  29184 47112 3//// /0902 10055 20003 30168 40253 52005;EQDQ01  00002PRCP99
0191471120999992000112921004+37480+126630FM-12+007099999V0203601N002110360019N0080001N1+00381+00111102541ADDAA199000091AY121031AY221031GF106991031051012501031001MA1999999101691MD1810011+9999MW1101REMSYN072AAXX  29214 47112 31658 63604 10038 20011 30169 40254 58001 71022 83530;EQDQ01  00002PRCP99
0244471120999992000113000004+37480+126630FM-12+007099999V0203601N001519999999N0080001N1+00371+00111102611ADDAA199000091AY121061AY221061GF106991021001999999031011IA1019IA2999+00409KA1120N+00311MA1999999101761MD1010071+9999MW1101REMSYN094AAXX  30004 47112 31958 63603 10037 20011 30176 40261 50007 71022 82031 333 20031 30004 92011;EQDQ01  00002PRCP99
0191471120999992000113003004+37480+126630FM-12+007099999V0200201N001519999999N0090001N1+00781+00141102531ADDAA199000091AY121031AY221031GF106991001001999999001011MA1999999101691MD1510071+9999MW1101REMSYN072AAXX  30034 47112 31959 60203 10078 20014 30169 40253 55007 71022 80001;EQDQ01  00002PRCP99
0191471120999992000113006004+37480+126630FM-12+007099999V0203401N002119999999N0090001N1+01011+00181102331ADDAA199000091AY121061AY221061GF106991011051999999031011MA1999999101491MD1710201+9999MW1051REMSYN072AAXX  30064 47112 31959 63404 10101 20018 30149 40233 57020 70522 81531;EQDQ01  00002PRCP99
0163471120999992000113009004+37480+126630FM-12+007099999V0203601N002610360019N0100001N1+00721+00121102411ADDAA199000091GF108991041051008001011999MA1999999101571MD1210081+9999REMSYN066AAXX  30094 47112 32560 83605 10072 20012 30157 40241 52008 8451/;EQDQ01  00002PRCP99
0222471120999992000113012004+37480+126630FM-12+007099999V0203601N002119999999N0120001N1+00581+00101102471ADDAA199000091GF105991001001999999001021IA1019IA2999+00409KA1120M+01131MA1999999101621MD1110051+9999REMSYN094AAXX  30124 47112 32962 53604 10058 20010 30162 40247 51005 80002 333 10113 30004 55020 92011;EQDQ01  00002PRCP99
0173471120999992000113015004+37480+126630FM-12+007099999V0203601N002112200019N0120001N1+00461+00021102471ADDAA199000091GA1001+999999999GF100991001001999999001001MA1999999101621MD1110051+9999REMSYN060AAXX  30154 47112 32962 03604 10046 20002 30162 40247 51005;EQDQ01  00002PRCP99
0183471120999992000113018004+37480+126630FM-12+007099999V0203601N002112200019N0120001N1+00221-00071102511ADDAA199000091GA1001+999999999GF100991001001999999001001MA1999999101661MD1210021+9999REMSYN070AAXX  30184 47112 32962 03604 10022 21007 30166 40251 52002 333 92011;EQDQ01  00002PRCP99
0189471120999992000113021004+37480+126630FM-12+007099999V0203601N002612200019N0150001N1+00171-00071102521ADDAA199000091GA1001+999999999GF100991001001999999001001MA1999999101661MD1810011+9999REMSYN060AAXX  30214 47112 32965 03605 10017 21007 30166 40252 58000;EQDQ01+000002APC3  Q02  00002PRCP99
0226471120999992000120100004+37480+126630FM-12+007099999V0200201N002112200019N0100001N1+00311+00001102661ADDAA199000091GA1001+999999999GF100991001001999999001001IA1019IA2999+00409KA1120N+00111MA1999999101811MD1210151+9999REMSYN082AAXX  01004 47112 32960 00204 10031 20000 30181 40266 52015 333 20011 30004 92011;EQDQ01  00002PRCP99
0201471120999992000120103004+37480+126630FM-12+007099999V0203401N002612200019N0060001N1+00921+00171102641ADDAA199000091AY101031AY201031GA1001+999999999GF100991001001999999001001MA1999999101811MD1510001+9999MW1101REMSYN066AAXX  01034 47112 31956 03405 10092 20017 30181 40264 55000 71000;EQDQ01  00002PRCP99
0173471120999992000120106004+37480+126630FM-12+007099999V0203401N002612200019N0150001N1+01151-00561102541ADDAA199000091GA1001+999999999GF100991001001999999001001MA1999999101721MD1710091+9999REMSYN060AAXX  01064 47112 32965 03405 10115 21056 30172 40254 57009;EQDQ01  00002PRCP99
0173471120999992000120109004+37480+126630FM-12+007099999V0203401N003112200019N0150001N1+00741-00071102601ADDAA199000091GA1001+999999999GF100991001001999999001001MA1999999101761MD1810041+9999REMSYN060AAXX  01094 47112 32965 03406 10074 21007 30176 40260 58004;EQDQ01  00002PRCP99
0232471120999992000120112004+37480+126630FM-12+007099999V0203201N003112200019N0150001N1+00631+00131102671ADDAA199000091GA1001+999999999GF100991001001999999001001IA1019IA2999+00309KA1120M+01161MA1999999101821MD1510061+9999REMSYN088AAXX  01124 47112 32965 03206 10063 20013 30182 40267 55006 333 10116 30003 55079 92022;EQDQ01  00002PRCP99
0173471120999992000120115004+37480+126630FM-12+007099999V0203601N001512200019N0120001N1+00521+00131102641ADDAA199000091GA1001+999999999GF100991001001999999001001MA1999999101791MD1710031+9999REMSYN060AAXX  01154 47112 32962 03603 10052 20013 30179 40264 57003;EQDQ01  00002PRCP99
0183471120999992000120118004+37480+126630FM-12+007099999V0203601N002112200019N0120001N1+00281-00221102591ADDAA199000091GA1001+999999999GF100991001001999999001001MA1999999101731MD1110021+9999REMSYN070AAXX  01184 47112 32962 03604 10028 21022 30173 40259 51002 333 92022;EQDQ01  00002PRCP99
0173471120999992000120121004+37480+126630FM-12+007099999V0203601N002112200019N0120001N1+00201-00271102661ADDAA199000091GA1001+999999999GF100991001001999999001001MA1999999101801MD1210071+9999REMSYN060AAXX  01214 47112 32962 03604 10020 21027 30180 40266 52007;EQDQ01  00002PRCP99
0189471120999992000120200004+37480+126630FM-12+007099999V0200501N000519999999N0080001N1+00441-00131999999ADDAA199000091GF106991999999999999999999KA1120N+00201MA1999999101791REMSYN093AAXX  02004 47112 32958 60501 10044 21013 30179 4026 55001 71022 80002 333 20020 30004 92011;EQDQ01  00002PRCP99
0191471120999992000120203004+37480+126630FM-12+007099999V0203201N001519999999N0060001N1+00871+00101102511ADDAA199000091AY121031AY221031GF106991001001999999001021MA1999999101671MD1610121+9999MW1101REMSYN072AAXX  02034 47112 31956 63203 10087 20010 30167 40251 56012 71022 80002;EQDQ01  00002PRCP99
0173471120999992000120206004+37480+126630FM-12+007099999V0202301N002619999999N0130001N1+01111+00301102491ADDAA199000091GF106991061001999999031001MA1999999102241MD1710051+9999REMSYN076AAXX  02064 47112 32963 62305 10111 20030 30224 40249 57005 86030 333 92011;EQDQ01  00002PRCP99
0163471120999992000120209004+37480+126630FM-12+007099999V0202701N003119999999N0130001N1+00811-00081102241ADDAA199000091GF107991071001008001011001MA1999999101402MD1710101+9999REMSYN066AAXX  02094 47112 32563 72706 10081 21008 30140 40224 57010 87010;EQDQ01  00002PRCP99
0254471120999992000120212004+37480+126630FM-12+007099999V0202501N003110360019N0150001N1+00881+00261102231ADDAA199000091GF108991031051008001011999IA1019IA2999+00809KA1120M+01151MA1999999101401MD1710011+9999REMSYN094AAXX  02124 47112 32565 82506 10088 20026 30140 40223 58000 8351/ 333 10115 30008 55040 92011;EQDQ01+000082APCTENQ02+000002APC3  Q03  00002PRCP99
0163471120999992000120215004+37480+126630FM-12+007099999V0200201N002110360019N0120001N1+00731+00401102161ADDAA199000091GF107991031051008001011001MA1999999101331MD1710071+9999REMSYN066AAXX  02154 47112 32562 70204 10073 20040 30133 40216 57007 83510;EQDQ01  00002PRCP99
0173471120999992000120218004+37480+126630FM-12+007099999V0203601N003110360019N0100001N1+00591+00201102221ADDAA199000091GF108991031051008001011999MA1999999101371MD1110041+9999REMSYN076AAXX  02184 47112 32560 83606 10059 20020 30137 40222 51004 8351/ 333 92022;EQDQ01  00002PRCP99
0163471120999992000120221004+37480+126630FM-12+007099999V0203401N003612200019N0120001N1+00271-00251102201ADDAA199000091GF103991031051012501001001MA1999999101351MD1810021+9999REMSYN066AAXX  02214 47112 32662 33407 10027 21025 30135 40220 58002 83500;EQDQ01  00002PRCP99
0226471120999992000120300004+37480+126630FM-12+007099999V0203401N003612200019N0200001N1+00201-00731102331ADDAA199000091GA1001+999999999GF100991001001999999001001IA1019IA2999+00509KA1120N+00111MA1999999101481MD1210131+9999REMSYN082AAXX  03004 47112 32970 03407 10020 21073 30148 40233 52013 333 20011 30005 92022;EQDQ01  00002PRCP99
0173471120999992000120303004+37480+126630FM-12+007099999V0203401N003612200019N0230001N1+00471-00941102231ADDAA199000091GA1001+999999999GF100991001001999999001001MA1999999101381MD1510101+9999REMSYN060AAXX  03034 47112 32973 03407 10047 21094 30138 40223 55010;EQDQ01  00002PRCP99
0183471120999992000120306004+37480+126630FM-12+007099999V0203401N005712200019N0250001N1+00461-01261102131ADDAA199000091GA1001+999999999GF100991001001999999001001MA1999999101281MD1710101+9999REMSYN070AAXX  03064 47112 32975 03411 10046 21126 30128 40213 57010 333 92055;EQDQ01  00002PRCP99
0173471120999992000120309004+37480+126630FM-12+007099999V0203401N004112200019N0220001N1+00241-01261102181ADDAA199000091GA1001+999999999GF100991001001999999001001MA1999999101331MD1010051+9999REMSYN060AAXX  03094 47112 32972 03408 10024 21126 30133 40218 50005;EQDQ01  00002PRCP99
0202471120999992000120312004+37480+126630FM-12+007099999V0203601N003112200019N0220001N1-00021-01391102261ADDAA199000091GA1001+999999999GF100991001001999999001001KA1120N-00991MA1999999101401MD1810071+9999REMSYN076AAXX  03124 47112 32972 03606 11002 21139 30140 40226 58007 333 21099 92033;EQDQ01  00002PRCP99
0173471120999992000120315004+37480+126630FM-12+007099999V0203601N002612200019N0200001N1-00191-01291102281ADDAA199000091GA1001+999999999GF100991001001999999001001MA1999999101411MD1310011+9999REMSYN060AAXX  03154 47112 32970 03605 11019 21129 30141 40228 53001;EQDQ01  00002PRCP99
0183471120999992000120318004+37480+126630FM-12+007099999V0203601N002112200019N0200001N1-00241-01261102281ADDAA199000091GA1001+999999999GF100991001001999999001001MA1999999101411MD1510001+9999REMSYN070AAXX  03184 47112 32970 03604 11024 21126 30141 40228 55000 333 92022;EQDQ01  00002PRCP99
0173471120999992000120321004+37480+126630FM-12+007099999V0203601N002112200019N0200001N1-00221-01441102251ADDAA199000091GA1001+999999999GF100991001001999999001001MA1999999101381MD1810031+9999REMSYN060AAXX  03214 47112 32970 03604 11022 21144 30138 40225 58003;EQDQ01  00002PRCP99
0258471120999992000120400004+37480+126630FM-12+007099999V0201401N001512200019N0150001N1+00061-01431102241ADDAA199000091GA1001+999999999GF100991001001999999001001IA1019IA2999+00309KA1120N-00301MA1999999101381MD1710011+9999REMSYN082AAXX  04004 47112 32965 01403 10006 21143 30138 40224 58000 333 21030 30003 92011;EQDQ01+000082APCTENQ02+000002APC3  Q03  00002PRCP99
0173471120999992000120403004+37480+126630FM-12+007099999V0202301N003612200019N0120001N1+00531-00991102111ADDAA199000091GA1001+999999999GF100991001001999999001001MA1999999101261MD1510121+9999REMSYN060AAXX  04034 47112 32962 02307 10053 21099 30126 40211 55012;EQDQ01  00002PRCP99
0131471120999992000120406004+37480+126630FM-12+007099999V0202501N003119999999N9999999N1+00651-00751101941ADDAA199000091MA1999999101101MD1710161+9999REMSYN060AAXX  04064 47112 3//// /2506 10065 21075 30110 40194 57016;EQDQ01  00002PRCP99
0173471120999992000120409004+37480+126630FM-12+007099999V0201601N003612200019N0200001N1+00411-00431101791ADDAA199000091GA1001+999999999GF100991001001999999001001MA1999999100951MD1710151+9999REMSYN060AAXX  04094 47112 32970 01607 10041 21043 30095 40179 57015;EQDQ01  00002PRCP99
0222471120999992000120412004+37480+126630FM-12+007099999V0201601N005110075019N0200001N1+00381-00401101611ADDAA199000091GF106991061051008001001001IA1019IA2999+00309KA1120M+00701MA1999999100761MD1710191+9999REMSYN094AAXX  04124 47112 32570 61610 10038 21040 30076 40161 57019 86500 333 10070 30003 55083 92033;EQDQ01  00002PRCP99
0161471120999992000120415004+37480+126630FM-12+007099999V0201801N005710075019N0200001N1+00521+00111101451ADDAY161031AY221031GF107991071051008001001001MA1999999100611MD1810151+9999MW1211REMSYN072AAXX  04154 47112 41570 71811 10052 20011 30061 40145 58015 72162 87500;
0164471120999992000120418004+37480+126630FM-12+007099999V0203201N008212200019N0200001N1+00841+00111101471ADDAA199000021GA1001+999999999GF100991001001999999001001MA1999999100641MD1010031+9999REMSYN070AAXX  04184 47112 32970 03216 10084 20011 30064 40147 50003 333 92044;
0154471120999992000120421004+37480+126630FM-12+007099999V0203401N005712200019N0200001N1+00341-00411101751ADDAA199000021GA1001+999999999GF100991001001999999001001MA1999999100901MD1210261+9999REMSYN060AAXX  04214 47112 32970 03411 10034 21041 30090 40175 52026;
0219471120999992000120500004+37480+126630FM-12+007099999V0203401N005112200019N0180001N1+00191-00331102061ADDAA112000791GA1001+999999999GF100991001001999999001001IA1019IA2999+00309KA1120N+00191MA1999999101211MD1210311+9999REMSYN094AAXX  05004 47112 12968 03410 10019 21033 30121 40206 52031 69902 333 20019 30003 79999 92055;
0154471120999992000120503004+37480+126630FM-12+007099999V0203201N005712200019N0130001N1+00241-00491102211ADDAA199000021GA1001+999999999GF100991001001999999001001MA1999999101361MD1810151+9999REMSYN060AAXX  05034 47112 32963 03211 10024 21049 30136 40221 58015;
0183471120999992000120506004+37480+126630FM-12+007099999V0203401N005712200019N0120001N1+00341-00681102241ADDAA199000091GA1001+999999999GF100991001001999999001001MA1999999101391MD1210031+9999REMSYN070AAXX  05064 47112 32962 03411 10034 21068 30139 40224 52003 333 92055;EQDQ01  00002PRCP99
0173471120999992000120509004+37480+126630FM-12+007099999V0203201N003612200019N0130001N1+00171-00561102391ADDAA199000091GA1001+999999999GF100991001001999999001001MA1999999101531MD1210141+9999REMSYN060AAXX  05094 47112 32963 03207 10017 21056 30153 40239 52014;EQDQ01  00002PRCP99
0232471120999992000120512004+37480+126630FM-12+007099999V0203401N004112200019N0130001N1+00011-00601102491ADDAA199000091GA1001+999999999GF100991001001999999001001IA1019IA2999-00109KA1120M+00961MA1999999101621MD1210091+9999REMSYN088AAXX  05124 47112 32963 03408 10001 21060 30162 40249 52009 333 10096 30101 55050 92011;EQDQ01  00002PRCP99
0173471120999992000120515004+37480+126630FM-12+007099999V0203601N002112200019N0150001N1-00271-00781102611ADDAA199000091GA1001+999999999GF100991001001999999001001MA1999999101731MD1210111+9999REMSYN060AAXX  05154 47112 32965 03604 11027 21078 30173 40261 52011;EQDQ01  00002PRCP99
0182471120999992000120518004+37480+126630FM-12+007099999V0203601N002112200019N0150001N1-00351-00861102721ADDAA199000091GA1001+999999999GF100991001001999999001001MA1999999101841MD1110111+9999REMSYN069AAXX  05184 47112 3296503604 11035 21086 30184 40272 51011 333 92011;EQDQ01  00002PRCP99
0131471120999992000120521004+37480+126630FM-12+007099999V0200201N002119999999N0150001N1-00361-00911102681ADDAA199000091MA1999999101801MD1710041+9999REMSYN060AAXX  05214 47112 32965 /0204 11036 21091 30180 40268 57004;EQDQ01  00002PRCP99
0226471120999992000120600004+37480+126630FM-12+007099999V0203601N001512200019N0150001N1-00221-00851102841ADDAA199000091GA1001+999999999GF100991001001999999001001IA1019IA2999+00109KA1120N-00421MA1999999101961MD1210161+9999REMSYN082AAXX  06004 47112 32965 03603 11022 21085 30196 40284 52016 333 21042 30001 92033;EQDQ01  00002PRCP99
0163471120999992000120603004+37480+126630FM-12+007099999V0203601N002612200019N0250001N1+00381-01271102831ADDAA199000091GF102991001001999999001011MA1999999101981MD1310021+9999REMSYN066AAXX  06034 47112 32975 23605 10038 21127 30198 40283 53002 80001;EQDQ01  00002PRCP99
0183471120999992000120606004+37480+126630FM-12+007099999V0200201N002112200019N0200001N1+00521-00941102671ADDAA199000091GA1001+999999999GF100991001001999999001001MA1999999101821MD1810161+9999REMSYN070AAXX  06064 47112 32970 00204 10052 21094 30182 40267 58016 333 92022;EQDQ01  00002PRCP99
0163471120999992000120609004+37480+126630FM-12+007099999V0203601N002112200019N0130001N1+00201-00811102831ADDAA199000091GF103991001001999999001011MA1999999101971MD1210151+9999REMSYN066AAXX  06094 47112 32963 33604 10020 21081 30197 40283 52015 80001;EQDQ01  00002PRCP99
0206471120999992000120612004+37480+126630FM-12+007099999V0200701N001012200019N0120001N1+00131-00821102841ADDAA199000091GA1001+999999999GF100991001001999999001001IA1019IA2999-00109KA1120M+00541MA1999999101971REMSYN076AAXX  06124 47112 32962 00702 10013 21082 30197 40284 333 10054 30101 92011;EQDQ01  00002PRCP99
0173471120999992000120615004+37480+126630FM-12+007099999V0203601N001012200019N0110001N1+00101-00641102901ADDAA199000091GA1001+999999999GF100991001001999999001001MA1999999102041MD1010071+9999REMSYN060AAXX  06154 47112 32961 03602 10010 21064 30204 40290 50007;EQDQ01  00002PRCP99
0163471120999992000120618004+37480+126630FM-12+007099999V0200701N001019999999N0120001N1+00111-00671102941ADDAA199000091GF106991001001999999001011MA1999999102081MD1510041+9999REMSYN066AAXX  06184 47112 32962 60702 10011 21067 30208 40294 55004 80001;EQDQ01  00002PRCP99
0163471120999992000120621004+37480+126630FM-12+007099999V0201401N003110075019N0120001N1+00181-00691102841ADDAA199000091GF107991071051008001001001MA1999999101981MD1710101+9999REMSYN066AAXX  06214 47112 32562 71406 10018 21069 30198 40284 57010 87500;EQDQ01  00002PRCP99
0244471120999992000120700004+37480+126630FM-12+007099999V0203401N001010075019N0090001N1+00271-00421102901ADDAA199000091AY121061AY221061GF106991061051008001001001IA1019IA2999+00209KA1120N+00041MA1999999102041MD1210061+9999MW1101REMSYN094AAXX  07004 47112 31559 63402 10027 21042 30204 40290 52006 71022 86500 333 20004 30002 92011;EQDQ01  00002PRCP99
0191471120999992000120703004+37480+126630FM-12+007099999V0203601N000510075019N0080001N1+00761-00641102781ADDAA199000091AY121031AY221031GF107991051051008001031001MA1999999101941MD1510101+9999MW1051REMSYN072AAXX  07034 47112 31558 73601 10076 21064 30194 40278 55010 70522 85530;EQDQ01  00002PRCP99
0201471120999992000120706004+37480+126630FM-12+007099999V0209999C000010360019N0080001N1+00751-00391102661ADDAA199000091AY121061AY221061GF108991041051008001021999MA1999999101821MD1810121+9999MW1051REMSYN082AAXX  07064 47112 31558 80000 10075 21039 30182 40266 58012 70522 8452/ 333 92011;EQDQ01  00002PRCP99
0191471120999992000120709004+37480+126630FM-12+007099999V0203601N000510075019N0050001N1+00591-00371102681ADDAA199000091AY121031AY221031GF106991061051008001001001MA1999999101831MD1110011+9999MW1101REMSYN072AAXX  07094 47112 31550 63601 10059 21037 30183 40268 51001 71022 86500;EQDQ01  00002PRCP99
0244471120999992000120712004+37480+126630FM-12+007099999V0201401N002612200019N0060001N1+00671-00471102651ADDAA199000091AY111061AY211061GF103991031051012501001001IA1019IA2999+00509KA1120M+00771MA1999999101811MD1610021+9999MW1101REMSYN094AAXX  07124 47112 32656 31405 10067 21047 30181 40265 56002 71011 83500 333 10077 30005 92022;EQDQ01  00002PRCP99
0191471120999992000120715004+37480+126630FM-12+007099999V0201601N002110075019N0040001N1+00671-00381102611ADDAA199000091AY121031AY221031GF107991071051008001001001MA1999999101771MD1610041+9999MW1101REMSYN072AAXX  07154 47112 31540 71604 10067 21038 30177 40261 56004 71022 87500;EQDQ01  00002PRCP99
0131471120999992000120718004+37480+126630FM-12+007099999V0201801N003119999999N9999999N1+00621-00421102571ADDAA199000091MA1999999101731MD1710041+9999REMSYN060AAXX  07184 47112 3//// /1806 10062 21042 30173 40257 57004;EQDQ01  00002PRCP99
0191471120999992000120721004+37480+126630FM-12+007099999V0201601N002610075019N0050001N1+00661-00351102491ADDAA199000091AY121031AY221031GF107991071051008001001001MA1999999101641MD1710091+9999MW1101REMSYN072AAXX  07214 47112 31550 71605 10066 21035 30164 40249 57009 71022 87500;EQDQ01  00002PRCP99
0244471120999992000120800004+37480+126630FM-12+007099999V0201601N003112200019N0080001N1+00721-00181102501ADDAA199000091AY101061AY201061GF102991021001999999031001IA1019IA2999+00709KA1120N+00581MA1999999101661MD1810021+9999MW1101REMSYN094AAXX  08004 47112 31958 21606 10072 21018 30166 40250 58002 71000 82030 333 20058 30007 92033;EQDQ01  00002PRCP99
0158471120999992000120803004+37480+126630FM-12+007099999V0202001N004112200019N0110001N1+01161+00131999999ADDAA199000091GA1001+999999999GF100991001001999999001001MA1999999101581REMSYN059AAXX  08034 47112 32961 02008 10116 20013 30158 4020 55008;EQDQ01  00002PRCP99
0173471120999992000120806004+37480+126630FM-12+007099999V0202301N003110120019N0120001N1+01251+00491102241ADDAA199000091GF105991051051012501001001MA1999999101421MD1810161+9999REMSYN076AAXX  08064 47112 32662 52306 10125 20049 30142 40224 58016 85500 333 92033;EQDQ01  00002PRCP99
0163471120999992000120809004+37480+126630FM-12+007099999V0202701N002110075019N0120001N1+00951+00531102271ADDAA199000091GF106991061051008001001001MA1999999101441MD1010021+9999REMSYN066AAXX  08094 47112 32562 62704 10095 20053 30144 40227 50002 86500;EQDQ01  00002PRCP99
0222471120999992000120812004+37480+126630FM-12+007099999V0201801N002110360019N0120001N1+00821+00501102291ADDAA199000091GF106991041051008001031001IA1019IA2999+00509KA1120M+01311MA1999999101451MD1810011+9999REMSYN094AAXX  08124 47112 32562 61804 10082 20050 30145 40229 58001 84530 333 10131 30005 55050 92011;EQDQ01  00002PRCP99
0173471120999992000120815004+37480+126630FM-12+007099999V0201401N001512200019N0120001N1+00781+00521102221ADDAA199000091GA1001+999999999GF100991001001999999001001MA1999999101381MD1510071+9999REMSYN060AAXX  08154 47112 32962 01403 10078 20052 30138 40222 55007;EQDQ01  00002PRCP99
0227471120999992000120818004+37480+126630FM-12+007099999V0201101N002112200019N0080001N1+00641+00481102221ADDAA199000091AY101061AY201061GA1001+999999999GF100991001001999999001001MA1999999101381MD1410001+9999MW1101REMSYN076AAXX  08184 47112 31958 01104 10064 20048 30138 40222 53000 71000 333 92011;EQDQ01+000032APCTENQ02  00002PRCP99
0217471120999992000120821004+37480+126630FM-12+007099999V0201801N002112200019N0040001N1+00551+00421102231ADDAA199000091AY101031AY201031GA1001+999999999GF100991001001999999001001MA1999999101381MD1310011+9999MW1101REMSYN066AAXX  08214 47112 31940 01804 10055 20042 30138 40223 53000 71000;EQDQ01+000002APC3  Q02  00002PRCP99
0276471120999992000120900004+37480+126630FM-12+007099999V0201401N003110360019N0030001N1+00671+00481102221ADDAA199000091AY121061AY221061GF107991021051008001011001IA1019IA2999+00509KA1120N+00541MA1999999101381MD1710011+9999MW1101REMSYN094AAXX  09004 47112 31530 71406 10067 20048 30138 40222 53000 71022 82510 333 20054 30005 92022;EQDQ01+000032APCTENQ02+000002APC3  Q03  00002PRCP99
0191471120999992000120903004+37480+126630FM-12+007099999V0201601N003619999999N0050001N1+01251+00311102071ADDAA199000091AY121031AY221031GF106991001001999999001021MA1999999101251MD1710131+9999MW1101REMSYN072AAXX  09034 47112 31950 61607 10125 20031 30125 40207 57013 71022 80002;EQDQ01  00002PRCP99
0191471120999992000120906004+37480+126630FM-12+007099999V0202301N003112200019N0080001N1+01381+00061101891ADDAA199000091AY101061AY201061GF101991011001999999031001MA1999999101081MD1810171+9999MW1051REMSYN072AAXX  09064 47112 31958 12306 10138 20006 30108 40189 58017 70500 81030;EQDQ01  00002PRCP99
0191471120999992000120909004+37480+126630FM-12+007099999V0202701N002110120019N0060001N1+00991+00251101861ADDAA199000091AY121031AY221031GF106991061051012501001001MA1999999101031MD1810051+9999MW1101REMSYN072AAXX  09094 47112 31656 62704 10099 20025 30103 40186 58005 71022 86500;EQDQ01  00002PRCP99
0244471120999992000120912004+37480+126630FM-12+007099999V0202301N001010120019N0060001N1+00921+00461101831ADDAA199000091AY121061AY221061GF108991051051012501021999IA1019IA2999+00809KA1120M+01471MA1999999101001MD1810031+9999MW1101REMSYN094AAXX  09124 47112 31656 82302 10092 20046 30100 40183 58003 71022 8552/ 333 10147 30008 92011;EQDQ01  00002PRCP99
0191471120999992000120915004+37480+126630FM-12+007099999V0201801N002110120019N0050001N1+00961+00261101721ADDAA199000091AY121031AY221031GF108991051051012501021999MA1999999100891MD1710111+9999MW1101REMSYN072AAXX  09154 47112 31650 81804 10096 20026 30089 40172 57011 71022 8552/;EQDQ01  00002PRCP99
0201471120999992000120918004+37480+126630FM-12+007099999V0201801N003110075019N0060001N1+00921+00301101651ADDAA199000091AY121061AY221061GF108991061051008001021999MA1999999100821MD1810071+9999MW1101REMSYN082AAXX  09184 47112 31556 81806 10092 20030 30082 40165 58007 71022 8652/ 333 92033;EQDQ01  00002PRCP99
0180471120999992000120921004+37480+126630FM-12+007099999V0203601N003110075019N9999999N1+00701+00571101661ADDAY161031AY261031GF108991061071008001021999MA1999999100821MD1710011+9999MW1611REMSYN072AAXX  09214 47112 415// 83606 10070 20057 30082 40166 57000 76166 8672/;EQDQ01+000002APC3  
0237471120999992000121000004+37480+126630FM-12+007099999V0203401N005110075019N0150001N1+00441+00171101921ADDAA112003091AY161061AY221061GF108991061051008001021999IA1099IA2999+00309KA1120N+00441MA1999999101081MD1210261+9999MW1021REMSYN106AAXX  10004 47112 11565 83410 10044 20017 30108 40192 52026 60032 70262 8652/ 333 20044 31003 70026 92033;
0133471120999992000121003004+37480+126630FM-12+007099999V0203401N006212200019N0250001N1+00321-00451102051ADDGF102991021001999999061001MA1999999101201MD1810121+9999REMSYN066AAXX  10034 47112 42975 23412 10032 21045 30120 40205 58012 82060;
0164471120999992000121006004+37480+126630FM-12+007099999V0203401N007212200019N0250001N1+00401-00571102101ADDAA199000021GA1001+999999999GF100991001001999999001001MA1999999101251MD1010051+9999REMSYN070AAXX  10064 47112 32975 03414 10040 21057 30125 40210 50005 333 92044;
0154471120999992000121009004+37480+126630FM-12+007099999V0203201N007712200019N0250001N1+00051-00981102391ADDAA199000021GA1001+999999999GF100991001001999999001001MA1999999101531MD1210281+9999REMSYN060AAXX  10094 47112 32975 03215 10005 21098 30153 40239 52028;
0225471120999992000121012004+37480+126630FM-12+007099999V0203401N006712200019N0250001N1-00261-01091102661ADDAA112000791GA1001+999999999GF100991001001999999001001IA1019IA2999-00409KA1120M+00991MA1999999101791MD1210261+9999REMSYN100AAXX  10124 47112 32975 03413 11026 21109 30179 40266 52026 69902 333 10099 30104 55050 70027 92055;
0173471120999992000121015004+37480+126630FM-12+007099999V0203401N006212200019N0300001N1-00401-01381102931ADDAA199000091GA1001+999999999GF100991001001999999001001MA1999999102051MD1210261+9999REMSYN060AAXX  10154 47112 32980 03412 11040 21138 30205 40293 52026;EQDQ01  00002PRCP99
0183471120999992000121018004+37480+126630FM-12+007099999V0203601N006212200019N0250001N1-00511-02021103111ADDAA199000091GA1001+999999999GF100991001001999999001001MA1999999102231MD1210181+9999REMSYN070AAXX  10184 47112 32975 03612 11051 21202 30223 40311 52018 333 92055;EQDQ01  00002PRCP99
0173471120999992000121021004+37480+126630FM-12+007099999V0203601N004612200019N0250001N1-00581-02001103211ADDAA199000091GA1001+999999999GF100991001001999999001001MA1999999102321MD1210091+9999REMSYN060AAXX  10214 47112 32975 03609 11058 21200 30232 40321 52009;EQDQ01  00002PRCP99
0213471120999992000121100004+37480+126630FM-12+007099999V0203601N005712200019N0280001N1-00581-02001103431ADDAA124000191GA1001+999999999GF100991001001999999001001IA1019IA2999-00409KA1120N-00611MA1999999102541MD1210221+9999REMSYN088AAXX  11004 47112 32978 03611 11058 21200 30254 40343 52022 333 21061 30104 70001 92055;
0173471120999992000121103004+37480+126630FM-12+007099999V0203401N007212200019N0280001N1-00361-01871103341ADDAA199000091GA1001+999999999GF100991001001999999001001MA1999999102461MD1510081+9999REMSYN060AAXX  11034 47112 32978 03414 11036 21187 30246 40334 55008;EQDQ01  00002PRCP99
0183471120999992000121106004+37480+126630FM-12+007099999V0203401N005712200019N0250001N1-00361-01961103261ADDAA199000091GA1001+999999999GF100991001001999999001001MA1999999102381MD1810081+9999REMSYN070AAXX  11064 47112 32975 03411 11036 21196 30238 40326 58008 333 92055;EQDQ01  00002PRCP99
0173471120999992000121109004+37480+126630FM-12+007099999V0203401N005112200019N0250001N1-00601-01881103331ADDAA199000091GA1001+999999999GF100991001001999999001001MA1999999102441MD1210061+9999REMSYN060AAXX  11094 47112 32975 03410 11060 21188 30244 40333 52006;EQDQ01  00002PRCP99
0232471120999992000121112004+37480+126630FM-12+007099999V0203401N005712200019N0250001N1-00721-01811103491ADDAA199000091GA1001+999999999GF100991001001999999001001IA1019IA2999-00809KA1120M-00271MA1999999102601MD1210161+9999REMSYN088AAXX  11124 47112 32975 03411 11072 21181 30260 40349 52016 333 11027 30108 55085 92022;EQDQ01  00002PRCP99
0173471120999992000121115004+37480+126630FM-12+007099999V0203601N002112200019N0250001N1-00781-01631103381ADDAA199000091GA1001+999999999GF100991001001999999001001MA1999999102481MD1710121+9999REMSYN060AAXX  11154 47112 32975 03604 11078 21163 30248 40338 57012;EQDQ01  00002PRCP99
0183471120999992000121118004+37480+126630FM-12+007099999V0203401N004112200019N0250001N1-00661-01661103301ADDAA199000091GA1001+999999999GF100991001001999999001001MA1999999102401MD1610081+9999REMSYN070AAXX  11184 47112 32975 03408 11066 21166 30240 40330 56008 333 92022;EQDQ01  00002PRCP99
0173471120999992000121121004+37480+126630FM-12+007099999V0203201N004112200019N0200001N1-00661-01601103241ADDAA199000091GA1001+999999999GF100991001001999999001001MA1999999102341MD1710061+9999REMSYN060AAXX  11214 47112 32970 03208 11066 21160 30234 40324 57006;EQDQ01  00002PRCP99
0197471120999992000121200004+37480+126630FM-12+007099999V0203601N002612200019N0250001N1-00591-01911103231ADDAA199000091GF102991001001999999001011IA1019IA2999-00209MA1999999102341MD1510001+9999REMSYN082AAXX  12004 47112 32975 23605 11059 21191 30234 40323 55000 80001 333 30102 92033;EQDQ01  00002PRCP99
0163471120999992000121203004+37480+126630FM-12+007099999V0203201N001012200019N0250001N1-00131-01861102991ADDAA199000091GF102991001001999999001011MA1999999102111MD1710231+9999REMSYN066AAXX  12034 47112 32975 23202 11013 21186 30211 40299 57023 80001;EQDQ01  00002PRCP99
0173471120999992000121206004+37480+126630FM-12+007099999V0202001N002610075019N0250001N1-00061-01251102751ADDAA199000091GF107991051051008001041001MA1999999101881MD1710231+9999REMSYN076AAXX  12064 47112 32575 72005 11006 21125 30188 40275 57023 85540 333 92033;EQDQ01  00002PRCP99
0172471120999992000121209004+37480+126630FM-12+007099999V0201801N003110120019N0180001N1-00151-00621102621ADDAA199000021AY171031AY271031GF108991061051012501021999MA1999999101741MD1710141+9999MW1711REMSYN072AAXX  12094 47112 31668 81806 11015 21062 30174 40262 57014 77177 8652/;
0262471120999992000121212004+37480+126630FM-12+007099999V0201601N003110120019N0150001N1-00131-00301102521ADDAA112000791AY171061AY221061GF108991999051012501001001IA1279IA2999-00209KA1120M+00121MA1999999101651MD1810091+9999MW1221REMSYN112AAXX  12124 47112 11665 81606 11013 21030 30165 40252 58009 69902 72272 86500 333 10012 3/102 43/// 79999 92022;EQDQ01+000062SCOTLC
0163471120999992000121215004+37480+126630FM-12+007099999V0201401N003112200019N0150001N1-00171-00521102521ADDAA199000021GF102991021051012501001001MA1999999101651MD1410001+9999REMSYN066AAXX  12154 47112 32665 21406 11017 21052 30165 40252 57000 82500;EQDQ01+000072APCTEN
0154471120999992000121218004+37480+126630FM-12+007099999V0209999C000012200019N0180001N1-00241-00571102431ADDAA199000021GF104991041051012501001001MA1999999101551MD1710101+9999REMSYN076AAXX  12184 47112 32668 40000 11024 21057 30155 40243 57010 84500 333 92000;
0144471120999992000121221004+37480+126630FM-12+007099999V0201401N001510120019N0150001N1-00141-00541102391ADDAA199000021GF107991071051012501001001MA1999999101531MD1510021+9999REMSYN066AAXX  12214 47112 32665 71403 11014 21054 30153 40239 55002 87500;
0225471120999992000121300004+37480+126630FM-12+007099999V0201401N002612200019N0060001N1-00061-00371102431ADDAA199000021AY111061AY211061GF104991041051008001001001IA1099IA2999-00109KA1120N-00251MA1999999101571MD1010041+9999MW1101REMSYN094AAXX  13004 47112 31556 41405 11006 21037 30157 40243 50004 71011 84500 333 21025 31101 92011;
0163471120999992000121303004+37480+126630FM-12+007099999V0201801N003612200019N0120001N1+00291-00391102371ADDAA199000091GF103991031051008001001001MA1999999101521MD1510051+9999REMSYN066AAXX  13034 47112 32562 31807 10029 21039 30152 40237 55005 83500;EQDQ01  00002PRCP99
0153471120999992000121306004+37480+126630FM-12+007099999V0201801N003112200019N0110001N1+00641-00141102211ADDGA1001+999999999GF100991001001999999001001MA1999999101371MD1710151+9999REMSYN070AAXX  13064 47112 42961 01806 10064 21014 30137 40221 57015 333 92011;
0163471120999992000121309004+37480+126630FM-12+007099999V0201601N002112200019N0110001N1+00351-00121102281ADDAA199000091GF103991031051008001001001MA1999999101431MD1810061+9999REMSYN066AAXX  13094 47112 32561 31604 10035 21012 30143 40228 58006 83500;EQDQ01  00002PRCP99
0247471120999992000121312004+37480+126630FM-12+007099999V0201401N002112200019N0080001N1+00251-00261102341ADDAA112000191AY101061AY201061GA1001+999999999GF100991001001999999001001IA1019IA2999-00109KA1120M+00651MA1999999101491MD1210061+9999MW1101REMSYN100AAXX  13124 47112 31958 01404 10025 21026 30149 40234 52006 69912 71000 333 10065 30101 70001 92000;
0191471120999992000121315004+37480+126630FM-12+007099999V0203601N002112200019N0030001N1+00041-00221102421ADDAA199000091AY111031AY211031GF102991021051008001001001MA1999999101561MD1210071+9999MW1101REMSYN072AAXX  13154 47112 31530 23604 10004 21022 30156 40242 52007 71011 82500;EQDQ01  00002PRCP99
0211471120999992000121318004+37480+126630FM-12+007099999V0201401N002112200019N0020001N1+00151+00001102481ADDAA199000091AY101061AY201061GA1001+999999999GF100991001001999999001001MA1999999101621MD1110061+9999MW1101REMSYN076AAXX  13184 47112 31920 01404 10015 20000 30162 40248 51006 71000 333 92022;EQDQ01  00002PRCP99
0201471120999992000121321004+37480+126630FM-12+007099999V0201401N003112200019N0030001N1+00131-00031102401ADDAA199000091AY101031AY201031GA1001+999999999GF100991001001999999001001MA1999999101551MD1810071+9999MW1101REMSYN066AAXX  13214 47112 31930 01406 10013 21003 30155 40240 58007 71000;EQDQ01  00002PRCP99
0212471120999992000121400004+37480+126630FM-12+007099999V0201601N003110120019N0050001N1+00261+00021102451ADDAA124000191AY121061AY221061GF105991051051012501001001IA1019IA2999+00109MA1999999101601MD1210051+9999MW1101REMSYN094AAXX  14004 47112 31650 51606 10026 20002 30160 40245 52005 71022 85500 333 30001 70001 92033;
0201471120999992000121406004+37480+126630FM-12+007099999V0201801N005112200019N0080001N1+00811+00211102251ADDAA199000091AY101061AY201061GF102991021051012501001001MA1999999101411MD1810091+9999MW1101REMSYN082AAXX  14064 47112 31658 21810 10081 20021 30141 40225 58009 71000 82500 333 92055;EQDQ01  00002PRCP99
0191471120999992000121409004+37480+126630FM-12+007099999V0201801N003110360019N0080001N1+00631+00221102321ADDAA199000091AY111031AY211031GF105991021051008001031001MA1999999101481MD1210071+9999MW1101REMSYN072AAXX  14094 47112 31558 51806 10063 20022 30148 40232 52007 71011 82530;EQDQ01  00002PRCP99
0250471120999992000121412004+37480+126630FM-12+007099999V0201801N005110360019N0080001N1+00641+00391102221ADDAA199000091AY121061AY221061GF105991021051008001031001IA1019IA2999+00509KA1120M+00881MA1999999101381MD1610101+9999MW1101REMSYN100AAXX  14124 47112 31558 51810 10064 20039 30138 40222 56010 71022 82530 333 10088 30005 55059 92011;EQDQ01  00002PRCP99
0161471120999992000121415004+37480+126630FM-12+007099999V0202301N004110075019N0080001N1+00791+00551102191ADDAY161031AY221031GF108991061051008001021999MA1999999101351MD1710031+9999MW1601REMSYN072AAXX  14154 47112 41558 82308 10079 20055 30135 40219 57003 76062 8652/;
0154471120999992000121418004+37480+126630FM-12+007099999V0202301N005712200019N0120001N1+00851+00401102201ADDAA199000021GF102991021051008001001001MA1999999101371MD1310021+9999REMSYN076AAXX  14184 47112 32562 22311 10085 20040 30137 40220 53002 82500 333 92022;
0161471120999992000121421004+37480+126630FM-12+007099999V0202701N006710120019N0060001N1+00681+00481102151ADDAY161031AY261031GF108991051051012501021999MA1999999101311MD1010061+9999MW1611REMSYN072AAXX  14214 47112 41656 82713 10068 20048 30131 40215 50006 76166 8552/;
0237471120999992000121500004+37480+126630FM-12+007099999V0202701N004610075019N0050001N1+00781+00531102251ADDAA112002091AY161061AY261061GF106991061051008001001001IA1099IA2999+00609KA1120N+00671MA1999999101421MD1210111+9999MW1101REMSYN106AAXX  15004 47112 11550 62709 10078 20053 30142 40225 52011 60022 71066 86500 333 20067 31006 70021 92033;
0182471120999992000121503004+37480+126630FM-12+007099999V0202501N004612200019N0035001N1+01011+00411102131ADDAA199000021AY101031AY201031GA1001+999999999GF100991001001999999001001MA1999999101301MD1510121+9999MW1101REMSYN066AAXX  15034 47112 31935 02509 10101 20041 30130 40213 55012 71000;
0182471120999992000121506004+37480+126630FM-12+007099999V0202301N005110075019N0050001N1+01021+00591102071ADDAA199000021AY121061AY221061GF106991061051008001001001MA1999999101241MD1810061+9999MW1101REMSYN082AAXX  15064 47112 31550 62310 10102 20059 30124 40207 58006 71022 86500 333 92033;
0172471120999992000121509004+37480+126630FM-12+007099999V0202301N006712200019N0030001N1+00961+00671102071ADDAA199000021AY101031AY201031GF102991021051012501001001MA1999999101251MD1510011+9999MW1101REMSYN072AAXX  15094 47112 31630 22313 10096 20067 30125 40207 55001 71000 82500;
0237471120999992000121512004+37480+126630FM-12+007099999V0202901N006710075019N0030001N1+00821+00441102141ADDAA112000591AY161061AY221061GF107991071051008001001001IA1099IA2999+00609KA1120M+01121MA1999999101301MD1010051+9999MW1101REMSYN106AAXX  15124 47112 11530 72913 10082 20044 30130 40214 50005 69952 71062 87500 333 10112 31006 70026 92066;
0183471120999992000121518004+37480+126630FM-12+007099999V0203401N005112200019N0180001N1+00031-01151102731ADDAA199000091GA1001+999999999GF100991001001999999001001MA1999999101871MD1210371+9999REMSYN070AAXX  15184 47112 32968 03410 10003 21115 30187 40273 52037 333 92055;EQDQ01  00002PRCP99
0173471120999992000121521004+37480+126630FM-12+007099999V0203601N002612200019N0200001N1-00201-01491102901ADDAA199000091GA1001+999999999GF100991001001999999001001MA1999999102021MD1210151+9999REMSYN060AAXX  15214 47112 32970 03605 11020 21149 30202 40290 52015;EQDQ01  00002PRCP99
0213471120999992000121600004+37480+126630FM-12+007099999V0203401N004612200019N0250001N1-00121-01611103091ADDAA124000591GA1001+999999999GF100991001001999999001001IA1099IA2999-00109KA1120N-00201MA1999999102221MD1210201+9999REMSYN088AAXX  16004 47112 32975 03409 11012 21161 30222 40309 52020 333 21020 31101 70005 92022;
0173471120999992000121603004+37480+126630FM-12+007099999V0203401N004112200019N0200001N1+00071-01561103031ADDAA199000091GA1001+999999999GF100991001001999999001001MA1999999102161MD1510061+9999REMSYN060AAXX  16034 47112 32970 03408 10007 21156 30216 40303 55006;EQDQ01  00002PRCP99
0173471120999992000121606004+37480+126630FM-12+007099999V0203601N002612200019N0250001N1+00281-01161102901ADDAA199000091GF102991001001999999001011MA1999999102041MD1710121+9999REMSYN076AAXX  16064 47112 32975 23605 10028 21116 30204 40290 57012 80001 333 92033;EQDQ01  00002PRCP99
0163471120999992000121609004+37480+126630FM-12+007099999V0203601N002112200019N0250001N1-00081-01371102911ADDAA199000091GF102991001001999999001011MA1999999102041MD1010001+9999REMSYN066AAXX  16094 47112 32975 23604 11008 21137 30204 40291 50000 80001;EQDQ01  00002PRCP99
0190471120999992000121612004+37480+126630FM-12+007099999V0203601N002112200019N0250001N1-00181-01211102941ADDAA124999999GF102991001001999999001011IA1019IA2999-00309MA1999999102071MD1810031+9999REMSYN094AAXX  16124 47112 32975 23604 11018 21121 30207 40294 58003 80001 333 30103 55083 7000/ 92022;
0173471120999992000121615004+37480+126630FM-12+007099999V0200201N002112200019N0250001N1-00311-01061102921ADDAA199000091GA1001+999999999GF100991001001999999001001MA1999999102041MD1710031+9999REMSYN060AAXX  16154 47112 32975 00204 11031 21106 30204 40292 57003;EQDQ01  00002PRCP99
0183471120999992000121618004+37480+126630FM-12+007099999V0200201N002112200019N0220001N1-00381-01091102901ADDAA199000091GA1001+999999999GF100991001001999999001001MA1999999102011MD1510031+9999REMSYN070AAXX  16184 47112 32972 00204 11038 21109 30201 40290 55003 333 92011;EQDQ01  00002PRCP99
0173471120999992000121621004+37480+126630FM-12+007099999V0200201N001512200019N0250001N1-00461-01131102931ADDAA199000091GA1001+999999999GF100991001001999999001001MA1999999102041MD1810031+9999REMSYN060AAXX  16214 47112 32975 00203 11046 21113 30204 40293 58003;EQDQ01  00002PRCP99
0216471120999992000121700004+37480+126630FM-12+007099999V0200201N001019999999N0150001N1-00291-01091102981ADDAA199000091GF106991021001999999031021IA1019IA2999-00209KA1120N-00471MA1999999102101MD1210061+9999REMSYN088AAXX  17004 47112 32965 60202 11029 21109 30210 40298 52006 82032 333 21047 30102 92011;EQDQ01  00002PRCP99
0163471120999992000121703004+37480+126630FM-12+007099999V0203601N001519999999N0130001N1+00301-01231102821ADDAA199000091GF106991001001999999001021MA1999999101961MD1510141+9999REMSYN066AAXX  17034 47112 32963 63603 10030 21123 30196 40282 55014 80002;EQDQ01  00002PRCP99
0173471120999992000121706004+37480+126630FM-12+007099999V0203601N002619999999N0150001N1+00421-00841102681ADDAA199000091GF106991001001999999001021MA1999999101831MD1810131+9999REMSYN076AAXX  17064 47112 32965 63605 10042 21084 30183 40268 58013 80002 333 92011;EQDQ01  00002PRCP99
0163471120999992000121709004+37480+126630FM-12+007099999V0203601N002112200019N0150001N1+00141-00761102701ADDAA199000091GF102991001001999999001011MA1999999101841MD1310011+9999REMSYN066AAXX  17094 47112 32965 23604 10014 21076 30184 40270 53001 80001;EQDQ01  00002PRCP99
0199471120999992000121712004+37480+126630FM-12+007099999V0203601N002612200019N0150001N1+00021-00631999999ADDAA199000091GA1001+999999999GF100991001001999999001001KA1120M+00561MA1999999101791REMSYN087AAXX  17124 47112 32965 03605 10002 21063 30179 4265 52005 333 10056 30101 55039 92011;EQDQ01  00002PRCP99
0173471120999992000121715004+37480+126630FM-12+007099999V0200901N002612200019N0150001N1+00051-00701102491ADDAA199000091GA1001+999999999GF100991001001999999001001MA1999999101631MD1710161+9999REMSYN060AAXX  17154 47112 32965 00905 10005 21070 30163 40249 57016;EQDQ01  00002PRCP99
0183471120999992000121718004+37480+126630FM-12+007099999V0200201N002112200019N0150001N1-00061-00621102461ADDAA199000091GA1001+999999999GF100991001001999999001001MA1999999101591MD1510041+9999REMSYN070AAXX  17184 47112 32965 00204 11006 21062 30159 40246 55004 333 92011;EQDQ01  00002PRCP99
0163471120999992000121721004+37480+126630FM-12+007099999V0203601N002119999999N0120001N1-00081-00641102321ADDAA199000091GF105991001001999999001011MA1999999101451MD1810141+9999REMSYN066AAXX  17214 47112 32962 53604 11008 21064 30145 40232 58014 80001;EQDQ01  00002PRCP99
0216471120999992000121800004+37480+126630FM-12+007099999V0200901N002619999999N0100001N1+00221-00571102261ADDAA199000091GF107991071001999999041001IA1019IA2999+00109KA1120N-00201MA1999999101411MD1610041+9999REMSYN088AAXX  18004 47112 32960 70905 10022 21057 30141 40226 56004 87040 333 21020 30001 92022;EQDQ01  00002PRCP99
0163471120999992000121803004+37480+126630FM-12+007099999V0200901N002610360019N0120001N1+00531-00471101971ADDAA199000091GF108991041051008001011999MA1999999101131MD1510281+9999REMSYN066AAXX  18034 47112 32562 80905 10053 21047 30113 40197 55028 8451/;EQDQ01  00002PRCP99
0171471120999992000121806004+37480+126630FM-12+007099999V0201401N003610075019N0050001N1+00501-00101101791ADDAY161061AY261061GF108991061051008001021999MA1999999100951MD1710181+9999MW1211REMSYN082AAXX  18064 47112 41550 81407 10050 21010 30095 40179 57018 72166 8652/ 333 92022;
0172471120999992000121809004+37480+126630FM-12+007099999V0201801N003110120019N0060001N1+00511+00251101781ADDAA199000021AY121031AY221031GF108991061051012501021999MA1999999100941MD1610011+9999MW1101REMSYN072AAXX  18094 47112 31656 81806 10051 20025 30094 40178 56001 71022 8652/;
0237471120999992000121812004+37480+126630FM-12+007099999V0201601N003610120019N0050001N1+00451+00301101751ADDAA112000791AY121061AY221061GF107991071051012501001001IA1019IA2999+00309KA1120M+00641MA1999999100911MD1710031+9999MW1101REMSYN106AAXX  18124 47112 11650 71607 10045 20030 30091 40175 57003 69902 71022 87500 333 10064 30003 79999 92033;
0161471120999992000121815004+37480+126630FM-12+007099999V0202501N003610075019N0030001N1+00541+00451101811ADDAY161031AY261031GF108991061071008001021999MA1999999100971MD1010061+9999MW1611REMSYN072AAXX  18154 47112 41530 82507 10054 20045 30097 40181 50006 76166 8672/;
0154471120999992000121818004+37480+126630FM-12+007099999V0202901N006212200019N0070001N1+00391+00191102081ADDAA199000021GF102991021051012501001001MA1999999101231MD1210261+9999REMSYN076AAXX  18184 47112 31657 22912 10039 20019 30123 40208 52026 82500 333 92066;
0154471120999992000121821004+37480+126630FM-12+007099999V0202901N007712200019N0100001N1+00081-00221102341ADDAA199000021GA1001+999999999GF100991001001999999001001MA1999999101481MD1210251+9999REMSYN060AAXX  18214 47112 32960 02915 10008 21022 30148 40234 52025;
0215471120999992000121900004+37480+126630FM-12+007099999V0200201N002110900019N0110001N1-00011-00361102651ADDAA112003091GF105991021051008001001021IA1099IA2999-00109KA1120N-00031MA1999999101781MD1210021+9999REMSYN106AAXX  19004 47112 12561 50204 11001 21036 30178 40265 52002 60032 82502 333 21003 31101 44/// 70028 92022;
0172471120999992000121903004+37480+126630FM-12+007099999V0203601N002612200019N0080001N1+00161-00411102731ADDAA199000021AY111031AY211031GF104991001001999999001021MA1999999101871MD1310091+9999MW1101REMSYN072AAXX  19034 47112 31958 43605 10016 21041 30187 40273 53009 71011 80002;
0201471120999992000121906004+37480+126630FM-12+007099999V0203401N004110360019N0080001N1+00201-00431102661ADDAA199000091AY121061AY221061GF107991031051008001011001MA1999999101801MD1810071+9999MW1101REMSYN082AAXX  19064 47112 31558 73408 10020 21043 30180 40266 58007 71022 83510 333 92011;EQDQ01  00002PRCP99
0191471120999992000121909004+37480+126630FM-12+007099999V0203401N002112200019N0070001N1+00081-00431102731ADDAA199000091AY111031AY211031GF104991011051008001001011MA1999999101861MD1010061+9999MW1101REMSYN072AAXX  19094 47112 31557 43404 10008 21043 30186 40273 50006 71011 81501;EQDQ01  00002PRCP99
0247471120999992000121912004+37480+126630FM-12+007099999V0203601N002112200019N0050001N1+00031-00481102821ADDAA124002891AY101061AY201061GA1001+999999999GF100991001001999999001001IA1019IA2999-00109KA1120M+00571MA1999999101951MD1010091+9999MW1101REMSYN100AAXX  19124 47112 31950 03604 10003 21048 30195 40282 50009 71000 333 10057 30101 55045 70029 92022;
0191471120999992000121915004+37480+126630FM-12+007099999V0200701N001019999999N0030001N1+00081-00401102731ADDAA199000091AY121031AY221031GF106991001001999999001021MA1999999101871MD1510081+9999MW1101REMSYN072AAXX  19154 47112 31930 60702 10008 21040 30187 40273 55008 71022 80002;EQDQ01  00002PRCP99
0201471120999992000121918004+37480+126630FM-12+007099999V0209999C000019999999N0050001N1+00061-00341102441ADDAA199000091AY121061AY221061GF106991001001999999001021MA1999999101581MD1710291+9999MW1101REMSYN082AAXX  19184 47112 31950 60000 10006 21034 30158 40244 57029 71022 80002 333 92011;EQDQ01  00002PRCP99
0191471120999992000121921004+37480+126630FM-12+007099999V0200201N001510360019N0030001N1-00031-00301102371ADDAA199000091AY121031AY221031GF108991021051008001011999MA1999999101511MD1810071+9999MW1101REMSYN072AAXX  19214 47112 31530 80203 11003 21030 30151 40237 58007 71022 8251/;EQDQ01  00002PRCP99
0250471120999992000122000004+37480+126630FM-12+007099999V0203401N001510120019N0015001N1+00061-00271102341ADDAA199000091AY121061AY221061GF108991061051012501021999IA1289IA2999+00009KA1120N-00071MA1999999101481MD1810031+9999MW1101REMSYN100AAXX  20004 47112 31615 83403 10006 21027 30148 40234 58003 71022 8652/ 333 21007 3/100 44/// 92011;EQDQ01  00002PRCP99
0172471120999992000122003004+37480+126630FM-12+007099999V0203401N003110075019N0030001N1+00111-00421102221ADDAA199000021AY171031AY221031GF108991061051008001021999MA1999999101361MD1710121+9999MW1711REMSYN072AAXX  20034 47112 31530 83406 10011 21042 30136 40222 57012 77172 8652/;
0154471120999992000122006004+37480+126630FM-12+007099999V0202501N002112200019N0130001N1+00331-00131102041ADDAA199000021GF102991011051012501001011MA1999999101191MD1710171+9999REMSYN076AAXX  20064 47112 32663 22504 10033 21013 30119 40204 57017 81501 333 92022;
0161471120999992000122009004+37480+126630FM-12+007099999V0201801N003110075019N0120001N1+00181+00031102071ADDAY161031AY221031GF108991061051008001021999MA1999999101211MD1210021+9999MW1681REMSYN072AAXX  20094 47112 41562 81806 10018 20003 30121 40207 52002 76862 8652/;
0215471120999992000122012004+37480+126630FM-12+007099999V0203601N001012200019N0120001N1+00141+00041102101ADDAA112000191GF103991031051008001001001IA1099IA2999+00009KA1120M+00361MA1999999101251MD1210041+9999REMSYN106AAXX  20124 47112 12562 33602 10014 20004 30125 40210 52004 69912 83500 333 10036 31100 55008 70001 92011;
0133471120999992000122015004+37480+126630FM-12+007099999V0203401N003612200019N0120001N1+00031-00181102201ADDGF102991021051008001001001MA1999999101341MD1210091+9999REMSYN066AAXX  20154 47112 42562 23407 10003 21018 30134 40220 52009 82500;
0164471120999992000122018004+37480+126630FM-12+007099999V0203401N003112200019N0120001N1-00021-00451102401ADDAA199000021GA1001+999999999GF100991001001999999001001MA1999999101541MD1210201+9999REMSYN070AAXX  20184 47112 32962 03406 11002 21045 30154 40240 52020 333 92011;
0154471120999992000122021004+37480+126630FM-12+007099999V0200201N001012200019N0120001N1-00181-00411102341ADDAA199000021GA1001+999999999GF100991001001999999001001MA1999999101471MD1710071+9999REMSYN060AAXX  20214 47112 32962 00202 11018 21041 30147 40234 57007;
0213471120999992000122100004+37480+126630FM-12+007099999V0209999C000012200019N0120001N1-00011-00451102371ADDAA124000191GA1001+999999999GF100991001001999999001001IA1019IA2999-00109KA1120N-00211MA1999999101501MD1210031+9999REMSYN088AAXX  21004 47112 32962 00000 11001 21045 30150 40237 52003 333 21021 30101 70001 92022;
0191471120999992000122103004+37480+126630FM-12+007099999V0203201N001012200019N0150001N1+00291-00631102361ADDAA199000091GA1001+999999999GF100991001001999999001001MA1999999101501REMSYN060AAXX  21034 47112 32965 03202 10029 21063 30150 40236 53000;EQDQ01+000032APCTENQ02+000002APC3  Q03  00002PRCP99
0183471120999992000122106004+37480+126630FM-12+007099999V0202301N003112200019N0170001N1+00531-00641102161ADDAA199000091GA1001+999999999GF100991001001999999001001MA1999999101321MD1710181+9999REMSYN070AAXX  21064 47112 32967 02306 10053 21064 30132 40216 57018 333 92022;EQDQ01  00002PRCP99
0189471120999992000122109004+37480+126630FM-12+007099999V0201801N003612200019N0180001N1+00301-00361102171ADDAA199000091GA1001+999999999GF100991001001999999001001MA1999999101321MD1310011+9999REMSYN060AAXX  21094 47112 32968 01807 10030 21036 30132 40217 53000;EQDQ01+000002APC3  Q02  00002PRCP99
0226471120999992000122112004+37480+126630FM-12+007099999V0201801N005112200019N0150001N1+00301-00421102161ADDAA199000091GA1001+999999999GF100991001001999999001001IA1099IA2999+00109KA1120M+00641MA1999999101301MD1510021+9999REMSYN082AAXX  21124 47112 32965 01810 10030 21042 30130 40216 55002 333 10064 31001 92055;EQDQ01  00002PRCP99
0163471120999992000122115004+37480+126630FM-12+007099999V0201601N005112200019N0150001N1+00261-00431102041ADDAA199000091GF102991021051012501001001MA1999999101191MD1710111+9999REMSYN066AAXX  21154 47112 32665 21610 10026 21043 30119 40204 57011 82500;EQDQ01  00002PRCP99
0183471120999992000122118004+37480+126630FM-12+007099999V0201801N006212200019N0180001N1+00331-00381101921ADDAA199000091GA1001+999999999GF100991001001999999001001MA1999999101071MD1710121+9999REMSYN070AAXX  21184 47112 32968 01812 10033 21038 30107 40192 57012 333 92055;EQDQ01  00002PRCP99
0131471120999992000122121004+37480+126630FM-12+007099999V0201601N006219999999N9999999N1+00231-00391101831ADDAA199000091MA1999999100981MD1810091+9999REMSYN060AAXX  21214 47112 3//// /1612 10023 21039 30098 40183 58009;EQDQ01  00002PRCP99
0216471120999992000122200004+37480+126630FM-12+007099999V0201801N005710075019N0120001N1+00351-00231101821ADDAA199000091GF106991061051008001001001IA1099IA2999+00309KA1120N+00221MA1999999100971MD1310011+9999REMSYN088AAXX  22004 47112 32562 61811 10035 21023 30097 40182 53001 86500 333 20022 31003 92022;EQDQ01  00002PRCP99
0173471120999992000122206004+37480+126630FM-12+007099999V0202001N007210360019N0130001N1+00901+00331101521ADDAA199000091GF108991041051008001011999MA1999999100691MD1710161+9999REMSYN076AAXX  22064 47112 32563 82014 10090 20033 30069 40152 57016 8451/ 333 92022;EQDQ01  00002PRCP99
0161471120999992000122209004+37480+126630FM-12+007099999V0201801N004610075019N0120001N1+00731+00371101481ADDAY161031AY261031GF106991061051008001011001MA1999999100651MD1710041+9999MW1211REMSYN072AAXX  22094 47112 41562 61809 10073 20037 30065 40148 57004 72166 86510;
0243471120999992000122212004+37480+126630FM-12+007099999V0201801N006210075019N0070001N1+00701+00431101441ADDAA112000791AY161061AY261061GF108991061051008001021999IA1019IA2999+00609KA1120M+00901MA1999999100611MD1710041+9999MW1601REMSYN112AAXX  22124 47112 11557 81812 10070 20043 30061 40144 57004 69902 76066 8652/ 333 10090 30006 55028 70000 92033;
0161471120999992000122215004+37480+126630FM-12+007099999V0201801N005710075019N0050001N1+00701+00461101321ADDAY161031AY261031GF108991061051008001021999MA1999999100491MD1710121+9999MW1611REMSYN072AAXX  22154 47112 41550 81811 10070 20046 30049 40132 57012 76166 8652/;
0171471120999992000122218004+37480+126630FM-12+007099999V0203601N000510075019N0012001N1+00561+00471101201ADDAY161061AY261061GF108991061071008001021999MA1999999100361MD1710131+9999MW1611REMSYN082AAXX  22184 47112 41512 83601 10056 20047 30036 40120 57013 76166 8672/ 333 92033;
0161471120999992000122221004+37480+126630FM-12+007099999V0203601N001010075019N0012001N1+00521+00441101031ADDAY161031AY261031GF108991061071008001021999MA1999999100201MD1810161+9999MW1611REMSYN072AAXX  22214 47112 41512 83602 10052 20044 30020 40103 58016 76166 8672/;
0237471120999992000122300004+37480+126630FM-12+007099999V0203201N003610075019N0015001N1+00371+00281101191ADDAA112011991AY161061AY221061GF106991061051008001001001IA1099IA2999+00309KA1120N+00361MA1999999100351MD1110151+9999MW1211REMSYN106AAXX  23004 47112 11515 63207 10037 20028 30035 40119 51015 60122 72162 86500 333 20036 31003 70118 90118;
0144471120999992000122303004+37480+126630FM-12+007099999V0203201N008712200019N0120001N1+00331-00161101381ADDAA199000021GF104991041051012501001001MA1999999100531MD1310181+9999REMSYN066AAXX  23034 47112 32662 43217 10033 21016 30053 40138 53018 84500;
0154471120999992000122306004+37480+126630FM-12+007099999V0203401N005712200019N0120001N1+00481-00271101461ADDAA199000021GF103991031051008001001001MA1999999100621MD1110091+9999REMSYN076AAXX  23064 47112 32562 33411 10048 21027 30062 40146 51009 83500 333 92022;
0144471120999992000122309004+37480+126630FM-12+007099999V0203201N008712200019N0150001N1+00271-00741101751ADDAA199000021GF102991021051008001001001MA1999999100901MD1210281+9999REMSYN066AAXX  23094 47112 32565 23217 10027 21074 30090 40175 52028 82500;
0215471120999992000122312004+37480+126630FM-12+007099999V0203401N004112200019N0180001N1+00151-00611102021ADDAA124011791GF103991031051008001001001IA1099IA2999+00009KA1120M+00731MA1999999101161MD1210261+9999REMSYN106AAXX  23124 47112 32568 33408 10015 21061 30116 40202 52026 83500 333 10073 31100 44/// 55058 70118 92011;
0173471120999992000122315004+37480+126630FM-12+007099999V0203201N003112200019N0180001N1+00121-00551102081ADDAA199000091GA1001+999999999GF100991001001999999001001MA1999999101231MD1210071+9999REMSYN060AAXX  23154 47112 32968 03206 10012 21055 30123 40208 52007;EQDQ01  00002PRCP99
0173471120999992000122318004+37480+126630FM-12+007099999V0203401N004610075019N0180001N1+00121-00581102071ADDAA199000091GF105991051051008001001001MA1999999101211MD1710021+9999REMSYN076AAXX  23184 47112 32568 53409 10012 21058 30121 40207 57002 85500 333 92011;EQDQ01  00002PRCP99
0131471120999992000122321004+37480+126630FM-12+007099999V0203601N003119999999N9999999N1-00041-00581102101ADDAA199000091MA1999999101241MD1210031+9999REMSYN060AAXX  23214 47112 3//// /3606 11004 21058 30124 40210 52003;EQDQ01  00002PRCP99
0203471120999992000122400004+37480+126630FM-12+007099999V0209999C000019999999N0150001N1-00041-00681102191ADDAA124000191GF105991051001999999031001IA1099IA2999-00109KA1120N-00171MA1999999101331MD1210091+9999REMSYN094AAXX  24004 47112 32965 50000 11004 21068 30133 40219 52009 85030 333 21017 31101 70001 92011;
0163471120999992000122403004+37480+126630FM-12+007099999V0203401N002112200019N0180001N1+00211-00781102211ADDAA199000091GF103991001001999999001021MA1999999101361MD1510031+9999REMSYN066AAXX  24034 47112 32968 33404 10021 21078 30136 40221 55003 80002;EQDQ01  00002PRCP99
0173471120999992000122406004+37480+126630FM-12+007099999V0203401N002119999999N0150001N1+00221-00531102031ADDAA199000091GF107991001001999999001021MA1999999101171MD1710191+9999REMSYN076AAXX  24064 47112 32965 73404 10022 21053 30117 40203 57019 80002 333 92022;EQDQ01  00002PRCP99
0172471120999992000122409004+37480+126630FM-12+007099999V0201401N001010120019N0150001N1+00091-00461101911ADDAA199000021AY171031AY221031GF108991061051012501021999MA1999999101051MD1710121+9999MW1221REMSYN072AAXX  24094 47112 31665 81402 10009 21046 30105 40191 57012 72272 8652/;
0225471120999992000122412004+37480+126630FM-12+007099999V0200201N002610075019N0130001N1-00041-00231101741ADDAA199000021AY171061AY221061GF108991061051008001021999IA1099IA2999-00109KA1120M+00251MA1999999100881MD1710171+9999MW1021REMSYN094AAXX  24124 47112 31563 80205 11004 21023 30088 40174 57017 70272 8652/ 333 10025 31101 92022;
0172471120999992000122415004+37480+126630FM-12+007099999V0203601N004110075019N0080001N1-00191-00251101721ADDAA199000021AY171031AY271031GF108991061071008001021999MA1999999100861MD1810021+9999MW1711REMSYN072AAXX  24154 47112 31558 83608 11019 21025 30086 40172 58002 77177 8672/;
0171471120999992000122418004+37480+126630FM-12+007099999V0203601N005710075019N0120001N1-00331-00561101901ADDAY171061AY221061GF106991061051008001001001MA1999999101031MD1010171+9999MW1701REMSYN082AAXX  24184 47112 41562 63611 11033 21056 30103 40190 50017 77072 86500 333 92055;
0144471120999992000122421004+37480+126630FM-12+007099999V0203401N004612200019N0180001N1-00451-01141102181ADDAA199000021GF102991021051008001001001MA1999999101301MD1210271+9999REMSYN066AAXX  24214 47112 32568 23409 11045 21114 30130 40218 52027 82500;
0215471120999992000122500004+37480+126630FM-12+007099999V0203401N005712200019N0200001N1-00531-01371102561ADDAA112001091GF102991021051008001001001IA1279IA2999-00609KA1120N-00561MA1999999101681MD1210381+9999REMSYN106AAXX  25004 47112 12570 23411 11053 21137 30168 40256 52038 60012 82500 333 21056 3/106 43/// 70014 92055;
0144471120999992000122503004+37480+126630FM-12+007099999V0203201N007712200019N0200001N1-00491-01581102741ADDAA199000021GF102991021051008001001001MA1999999101861MD1210181+9999REMSYN066AAXX  25034 47112 32570 23215 11049 21158 30186 40274 52018 82500;
0154471120999992000122506004+37480+126630FM-12+007099999V0203201N006712200019N0200001N1-00461-01201102811ADDAA199000021GF102991021051008001001001MA1999999101931MD1010071+9999REMSYN076AAXX  25064 47112 32570 23213 11046 21120 30193 40281 50007 82500 333 92011;
0163471120999992000122509004+37480+126630FM-12+007099999V0203201N007212200019N0200001N1-00591-01211102951ADDAA199000091GF102991021051008001001001MA1999999102061MD1210131+9999REMSYN066AAXX  25094 47112 32570 23214 11059 21121 30206 40295 52013 82500;EQDQ01  00002PRCP99
0219471120999992000122512004+37480+126630FM-12+007099999V0203401N005112200019N0250001N1-00711-01531103061ADDAA124000591GA1001+999999999GF100991001001999999001001IA1099IA2999-00809KA1120M-00201MA1999999102171MD1210111+9999REMSYN094AAXX  25124 47112 32975 03410 11071 21153 30217 40306 52011 333 11020 31108 55079 70005 92044;
0173471120999992000122515004+37480+126630FM-12+007099999V0200201N001012200019N0250001N1-00901-01441103161ADDAA199000091GA1001+999999999GF100991001001999999001001MA1999999102261MD1210091+9999REMSYN060AAXX  25154 47112 32975 00202 11090 21144 30226 40316 52009;EQDQ01  00002PRCP99
0183471120999992000122518004+37480+126630FM-12+007099999V0203601N002612200019N0250001N1-00921-01501103291ADDAA199000091GA1001+999999999GF100991001001999999001001MA1999999102381MD1210121+9999REMSYN070AAXX  25184 47112 32975 03605 11092 21150 30238 40329 52012 333 92022;EQDQ01  00002PRCP99
0158471120999992000122521004+37480+126630FM-12+007099999V0203601N002612200019N0250001N1-00941-01531999999ADDAA199000091GA1001+999999999GF100991001001999999001001MA1999999102441REMSYN059AAXX  25214 47112 32975 03605 11094 21153 30244 4034 52006;EQDQ01  00002PRCP99
0232471120999992000122600004+37480+126630FM-12+007099999V0203601N004112200019N0280001N1-00851-01801103501ADDAA199000091GA1001+999999999GF100991001001999999001001IA1309IA2999-00909KA1120N-00971MA1999999102591MD1210151+9999REMSYN088AAXX  26004 47112 32978 03608 11085 21180 30259 40350 52015 333 21097 3/109 42/// 92044;EQDQ01  00002PRCP99
0173471120999992000122603004+37480+126630FM-12+007099999V0200901N003112200019N0250001N1-00691-01681103511ADDAA199000091GA1001+999999999GF100991001001999999001001MA1999999102621MD1310031+9999REMSYN060AAXX  26034 47112 32975 00906 11069 21168 30262 40351 53003;EQDQ01  00002PRCP99
0183471120999992000122606004+37480+126630FM-12+007099999V0203201N003112200019N0250001N1-00531-01491103371ADDAA199000091GA1001+999999999GF100991001001999999001001MA1999999102481MD1710141+9999REMSYN070AAXX  26064 47112 32975 03206 11053 21149 30248 40337 57014 333 92033;EQDQ01  00002PRCP99
0173471120999992000122609004+37480+126630FM-12+007099999V0200201N001512200019N0250001N1-00661-01601103351ADDAA199000091GA1001+999999999GF100991001001999999001001MA1999999102461MD1210021+9999REMSYN060AAXX  26094 47112 32975 00203 11066 21160 30246 40335 52002;EQDQ01  00002PRCP99
0232471120999992000122612004+37480+126630FM-12+007099999V0200501N001012200019N0200001N1-00711-01601103401ADDAA199000091GA1001+999999999GF100991001001999999001001IA1099IA2999-00909KA1120M-00451MA1999999102501MD1310041+9999REMSYN088AAXX  26124 47112 32970 00502 11071 21160 30250 40340 53004 333 11045 31109 55055 92011;EQDQ01  00002PRCP99
0173471120999992000122615004+37480+126630FM-12+007099999V0201101N001512200019N0250001N1-00751-01471103351ADDAA199000091GA1001+999999999GF100991001001999999001001MA1999999102461MD1710041+9999REMSYN060AAXX  26154 47112 32975 01103 11075 21147 30246 40335 57004;EQDQ01  00002PRCP99
0199471120999992000122618004+37480+126630FM-12+007099999V0203601N000512200019N0200001N1-00781-01241103361ADDAA199000091GA1001+999999999GF100991001001999999001001MA1999999102461MD1110011+9999REMSYN070AAXX  26184 47112 32970 03601 11078 21124 30246 40336 51000 333 92011;EQDQ01+000002APC3  Q02  00002PRCP99
0163471120999992000122621004+37480+126630FM-12+007099999V0200201N000512200019N0150001N1-00741-01111103311ADDAA199000091GF102991001001999999001011MA1999999102421MD1610041+9999REMSYN066AAXX  26214 47112 32965 20201 11074 21111 30242 40331 56004 80001;EQDQ01  00002PRCP99
0244471120999992000122700004+37480+126630FM-12+007099999V0209999C000010075019N0050001N1-00551-01141103341ADDAA199000091AY121061AY221061GF108991051051008001011999IA1019IA2999-00509KA1120N-00861MA1999999102451MD1010031+9999MW1101REMSYN094AAXX  27004 47112 31550 80000 11055 21114 30245 40334 50003 71022 8551/ 333 21086 30105 92022;EQDQ01  00002PRCP99
0191471120999992000122703004+37480+126630FM-12+007099999V0200901N001012200019N0100001N1-00171-01401103171ADDAA199000091AY111031AY211031GF102991001001999999001041MA1999999102301MD1610151+9999MW1101REMSYN072AAXX  27034 47112 32960 20902 11017 21140 30230 40317 56015 71011 80004;EQDQ01  00002PRCP99
0183471120999992000122706004+37480+126630FM-12+007099999V0202001N002612200019N0120001N1+00111-01261102861ADDAA199000091GA1001+999999999GF100991001001999999001001MA1999999101991MD1710311+9999REMSYN070AAXX  27064 47112 32962 02005 10011 21126 30199 40286 57031 333 92022;EQDQ01  00002PRCP99
0163471120999992000122709004+37480+126630FM-12+007099999V0201601N002110120019N0120001N1-00071-00991102821ADDAA199000091GF106991061051012501001001MA1999999101951MD1610041+9999REMSYN066AAXX  27094 47112 32662 61604 11007 21099 30195 40282 56004 86500;EQDQ01  00002PRCP99
0243471120999992000122712004+37480+126630FM-12+007099999V0201401N001510120019N0120001N1+00001-01121102801ADDAA112000791AY171061AY221061GF107991071051012501001001IA1259IA2999-00109KA1120M+00161MA1999999101931MD1510021+9999MW1701REMSYN112AAXX  27124 47112 11662 71403 10000 21112 30193 40280 55002 69902 77072 87500 333 10016 3/101 41/// 79999 92011;
0161471120999992000122715004+37480+126630FM-12+007099999V0200201N001510075019N0120001N1-00101-00621102771ADDAY171031AY271031GF108991061051008001021999MA1999999101901MD1710031+9999MW1711REMSYN072AAXX  27154 47112 41562 80203 11010 21062 30190 40277 57003 77177 8652/;
0171471120999992000122718004+37480+126630FM-12+007099999V0203601N002110075019N0110001N1-00251-00441102871ADDAY171061AY221061GF108991061051008001021999MA1999999101991MD1010091+9999MW1021REMSYN082AAXX  27184 47112 41561 83604 11025 21044 30199 40287 50009 70272 8652/ 333 92022;
0144471120999992000122721004+37480+126630FM-12+007099999V0203601N003610075019N0150001N1-00271-00561102921ADDAA199000021GF107991071051008001001001MA1999999102041MD1110051+9999REMSYN066AAXX  27214 47112 32565 73607 11027 21056 30204 40292 51005 87500;
0219471120999992000122800004+37480+126630FM-12+007099999V0203601N003612200019N0120001N1-00301-00781103071ADDAA112000791GA1001+999999999GF100991001001999999001001IA1099IA2999-00309KA1120N-00371MA1999999102191MD1210151+9999REMSYN094AAXX  28004 47112 12962 03607 11030 21078 30219 40307 52015 69902 333 21037 31103 70000 92011;
0154471120999992000122803004+37480+126630FM-12+007099999V0203401N003112200019N0120001N1-00071-00701103071ADDAA199000021GA1001+999999999GF100991001001999999001001MA1999999102201MD1310011+9999REMSYN060AAXX  28034 47112 32962 03406 11007 21070 30220 40307 53001;
0183471120999992000122806004+37480+126630FM-12+007099999V0203401N003612200019N0120001N1+00011-01041102941ADDAA199000091GA1001+999999999GF100991001001999999001001MA1999999102071MD1810131+9999REMSYN070AAXX  28064 47112 32962 03407 10001 21104 30207 40294 58013 333 92011;EQDQ01  00002PRCP99
0173471120999992000122809004+37480+126630FM-12+007099999V0203401N003612200019N0100001N1-00171-00891102981ADDAA199000091GA1001+999999999GF100991001001999999001001MA1999999102101MD1110031+9999REMSYN060AAXX  28094 47112 32960 03407 11017 21089 30210 40298 51003;EQDQ01  00002PRCP99
0232471120999992000122812004+37480+126630FM-12+007099999V0200201N002112200019N0120001N1-00321-00801103011ADDAA199000091GA1001+999999999GF100991001001999999001001IA1019IA2999-00409KA1120M+00061MA1999999102131MD1310031+9999REMSYN088AAXX  28124 47112 32962 00204 11032 21080 30213 40301 53003 333 10006 30104 55084 92033;EQDQ01  00002PRCP99
0173471120999992000122815004+37480+126630FM-12+007099999V0203601N002112200019N0120001N1-00451-00811103051ADDAA199000091GA1001+999999999GF100991001001999999001001MA1999999102171MD1210041+9999REMSYN060AAXX  28154 47112 32962 03604 11045 21081 30217 40305 52004;EQDQ01  00002PRCP99
0183471120999992000122818004+37480+126630FM-12+007099999V0200201N002112200019N0100001N1-00571-00761102991ADDAA199000091GA1001+999999999GF100991001001999999001001MA1999999102101MD1710071+9999REMSYN070AAXX  28184 47112 32960 00204 11057 21076 30210 40299 57007 333 92022;EQDQ01  00002PRCP99
0201471120999992000122821004+37480+126630FM-12+007099999V0203601N001512200019N0060001N1-00711-00861102961ADDAA199000091AY101031AY201031GA1001+999999999GF100991001001999999001001MA1999999102071MD1710031+9999MW1101REMSYN066AAXX  28214 47112 31956 03603 11071 21086 30207 40296 57003 71000;EQDQ01  00002PRCP99
0260471120999992000122900004+37480+126630FM-12+007099999V0200901N001512200019N0035001N1-00501-00681102991ADDAA199000091AY101061AY201061GA1001+999999999GF100991001001999999001001IA1259IA2999-00609KA1120N-00731MA1999999102101MD1010031+9999MW1101REMSYN094AAXX  29004 47112 31935 00903 11050 21068 30210 40299 50003 71000 333 21073 3/106 41/// 92011;EQDQ01  00002PRCP99
0191471120999992000122903004+37480+126630FM-12+007099999V0203201N002612200019N0040001N1-00091-00501102921ADDAA199000091AY101031AY201031GF103991001001999999001021MA1999999102051MD1710051+9999MW1101REMSYN072AAXX  29034 47112 31940 33205 11009 21050 30205 40292 57005 71000 80002;EQDQ01  00002PRCP99
0201471120999992000122906004+37480+126630FM-12+007099999V0203401N002612200019N0080001N1+00161-00751102751ADDAA199000091AY101061AY201061GF103991001001999999001021MA1999999101891MD1710161+9999MW1101REMSYN082AAXX  29064 47112 31958 33405 10016 21075 30189 40275 57016 71000 80002 333 92022;EQDQ01  00002PRCP99
0163471120999992000122909004+37480+126630FM-12+007099999V0203601N002112200019N0120001N1-00091-01021102731ADDAA199000091GF102991021051008001001001MA1999999101861MD1710031+9999REMSYN066AAXX  29094 47112 32562 23604 11009 21102 30186 40273 57003 82500;EQDQ01  00002PRCP99
0228471120999992000122912004+37480+126630FM-12+007099999V0200201N001519999999N0120001N1-00131-01201102641ADDAA199000091GF105991001001999999001011IA1099IA2999-00509KA1120M+00211MA1999999101771MD1710091+9999REMSYN100AAXX  29124 47112 32962 50203 11013 21120 30177 40264 57009 80001 333 10021 31105 44/// 55078 92011;EQDQ01  00002PRCP99
0163471120999992000122915004+37480+126630FM-12+007099999V0203601N001512200019N0120001N1-00151-00881102571ADDAA199000091GF106991021051008001001011MA1999999101701MD1710071+9999REMSYN066AAXX  29154 47112 32562 63603 11015 21088 30170 40257 57007 82501;EQDQ01  00002PRCP99
0173471120999992000122918004+37480+126630FM-12+007099999V0200901N001510075019N0120001N1+00011-00681102471ADDAA199000091GF106991061051008001001001MA1999999101611MD1710091+9999REMSYN076AAXX  29184 47112 32562 60903 10001 21068 30161 40247 57009 86500 333 92011;EQDQ01  00002PRCP99
0191471120999992000122921004+37480+126630FM-12+007099999V0200901N002110120019N0080001N1-00091-00641102291ADDAA199000091AY121031AY221031GF106991061051012501001001MA1999999101431MD1710181+9999MW1101REMSYN072AAXX  29214 47112 32658 60904 11009 21064 30143 40229 57018 71022 86500;EQDQ01  00002PRCP99
0244471120999992000123000004+37480+126630FM-12+007099999V0201401N003112200019N0080001N1+00041-00711102211ADDAA199000091AY111061AY211061GF102991021051008001001001IA1019IA2999-00109KA1120N-00171MA1999999101351MD1710081+9999MW1101REMSYN094AAXX  30004 47112 31558 21406 10004 21071 30135 40221 57008 71011 82500 333 21017 30101 92011;EQDQ01  00002PRCP99
0163471120999992000123003004+37480+126630FM-12+007099999V0201601N004610075019N0120001N1+00441-01131102071ADDAA199000091GF107991071051008001001001MA1999999101231MD1610121+9999REMSYN066AAXX  30034 47112 32562 71609 10044 21113 30123 40207 56012 87500;EQDQ01  00002PRCP99
0173471120999992000123006004+37480+126630FM-12+007099999V0201801N004610075019N0120001N1+00571-00991101811ADDAA199000091GF107991071051008001001001MA1999999100971MD1710261+9999REMSYN076AAXX  30064 47112 32562 71809 10057 21099 30097 40181 57026 87500 333 92022;EQDQ01  00002PRCP99
0161471120999992000123009004+37480+126630FM-12+007099999V0202001N003110075019N0100001N1+00451-00181101781ADDAY171031AY261031GF108991061071008001021999MA1999999100941MD1810031+9999MW1611REMSYN072AAXX  30094 47112 41560 82006 10045 21018 30094 40178 58003 76176 8672/;
0237471120999992000123012004+37480+126630FM-12+007099999V0202501N003110075019N0080001N1+00531+00451101761ADDAA112000891AY161061AY221061GF108991061051008001021999IA1099IA2999+00409KA1120M+00761MA1999999100921MD1610021+9999MW1211REMSYN106AAXX  30124 47112 11558 82506 10053 20045 30092 40176 56002 69982 72162 8652/ 333 10076 31004 70008 92033;
0144471120999992000123015004+37480+126630FM-12+007099999V0203401N005712200019N0060001N1+00201-00121101871ADDAA199000021GF103991001001999999001011MA1999999101021MD1210101+9999REMSYN066AAXX  30154 47112 31956 33411 10020 21012 30102 40187 52010 80001;
0164471120999992000123018004+37480+126630FM-12+007099999V0203401N004612200019N0180001N1-00141-00481102011ADDAA199000021GA1001+999999999GF100991001001999999001001MA1999999101141MD1210121+9999REMSYN070AAXX  30184 47112 32968 03409 11014 21048 30114 40201 52012 333 92055;
0154471120999992000123021004+37480+126630FM-12+007099999V0203401N004112200019N0200001N1-00561-01121102091ADDAA199000021GA1001+999999999GF100991001001999999001001MA1999999101211MD1110071+9999REMSYN060AAXX  30214 47112 32970 03408 11056 21112 30121 40209 51007;
0219471120999992000123100004+37480+126630FM-12+007099999V0203601N005112200019N0200001N1-00631-01271102181ADDAA112000191GA1001+999999999GF100991001001999999001001IA1019IA2999-00709KA1120N-00631MA1999999101301MD1210091+9999REMSYN094AAXX  31004 47112 32970 03610 11063 21127 30130 40218 52009 69912 333 21063 30107 70010 92033;
0189471120999992000123103004+37480+126630FM-12+007099999V0203401N005712200019N0120001N1-00471-01271102271ADDAA199000091GA1001+999999999GF100991001001999999001001MA1999999101391MD1310091+9999REMSYN060AAXX  31034 47112 32962 03411 11047 21127 30139 40227 53121;EQDQ01+001212APC3  Q02  00002PRCP99
0183471120999992000123106004+37480+126630FM-12+007099999V0203401N004612200019N0150001N1-00281-01171102181ADDAA199000091GA1001+999999999GF100991001001999999001001MA1999999101311MD1210091+9999REMSYN070AAXX  31064 47112 32965 03409 11028 21117 30131 40218 52009 333 92033;EQDQ01  00002PRCP99
0131471120999992000123109004+37480+126630FM-12+007099999V0203401N004119999999N9999999N1-00421-01081102201ADDAA199000091MA1999999101321MD1210021+9999REMSYN060AAXX  31094 47112 3//// /3408 11042 21108 30132 40220 52002;EQDQ01  00002PRCP99
0208471120999992000123112004+37480+126630FM-12+007099999V0201401N002612200019N0120001N1-00631-01121102261ADDAA199000091GA1001+999999999GF100991001001999999001001KA1120M+00201MA1999999101371MD1210061+9999REMSYN082AAXX  31124 47112 32962 01405 11063 21112 30137 40226 52006 333 10020 55081 92033;EQDQ01  00002PRCP99
0153471120999992000123115004+37480+126630FM-12+007099999V0200201N001512200019N0120001N1-00771-01301102281ADDAA199000091GA1001+999999999GF100991001001999999001001MA1999999101391REMSYN054AAXX  31154 47112 32962 00203 11077 21130 30139 40228;EQDQ01  00002PRCP99
0117471120999992000123118004+37480+126630FM-12+007099999V0203601N001019999999N9999999N1-00851-01331102301ADDAA199000091MA1999999101411REMSYN060AAXX  31184 47112 3//// /3602 11085 21133 30141 40230 5////;EQDQ01  00002PRCP99
0173471120999992000123121004+37480+126630FM-12+007099999V0201401N001012200019N0120001N1-00801-01341102141ADDAA199000091GA1001+999999999GF100991001001999999001001MA1999999101251MD1710161+9999REMSYN060AAXX  31214 47112 32962 01402 11080 21134 30125 40214 57016;EQDQ01  00002PRCP99
