0137474905999992000010101004+42900+143170FM-15+0084RJCT V0209999C000012200019N0112651N1-00501-00901999999ADDGA1021+007509999GF102991999999999999999999MA1102001999999MW1001REMMET062RJCT 0100Z 00000KT 9999 FEW025 M05/M09 Q1020 RMK 1CU025 A3013;
0218474905999992000010322254+42900+143170FM-15+0084RJCT V0202301N002610090019N0112651N1-00301-00401999999ADDGA1021+004509999GA2021+007509999GA3081+009009999GF108991999999999999999999MA1101591999999MW1001REMMET092RJCT 032225Z 23005KT 9999 FEW015 SCT025 OVC030 M03/M04 Q1016 RMK 1ST015 3SC025 8SC030 A3001;EQDQ01+000000PRSWM2
0241474905999992000010323004+42900+143170FM-15+0084RJCT V0202401N002110090019N0112651N1-00301-00401999999ADDGA1021+004509999GA2021+007509999GA3081+009009999GF108991999999999999999999MA1101591999999MW1001REMMET115RJCT 2300Z 24004KT 9999 FEW015 SCT025 OVC030 M03/M04 Q1016 RMK 1ST015 3SC025 8SC030 A3001 FCST 2308 TEMPO 2301 -SN;EQDQ01+000000PRSWM2
0255474905999992000010400004+42900+143170FM-15+0084RJCT V0202501N002110090019N0112651N1-00201-00401999999ADDGA1021+004509999GA2071+009009999GA3071+030009999GF107991999999999999999999MA1101691999999MW1001REMMET129RJCT 0000Z 25004KT 9999 FEW015 BKN030 BKN100 M02/M04 Q1017 RMK 1ST015 7SC030 7AC100 A3003 FCST 0009 BECMG 0405 SCT040SC BKN080AC;EQDQ01+000000PRSWM2
0216474905999992000010401004+42900+143170FM-15+0084RJCT V0202701N002110090019N0112651N1-00101-00501999999ADDGA1021+004509999GA2071+009009999GA3071+030009999GF107991999999999999999999MA1101691999999MW1001REMMET090RJCT 0100Z 27004KT 9999 FEW015 BKN030 BKN100 M01/M05 Q1017 RMK 1ST015 5SC030 7AC100 A3003;EQDQ01+000000PRSWM2
0216474905999992000010402004+42900+143170FM-15+0084RJCT V0202601N001510105019N0112651N1+00001-00501999999ADDGA1021+003009999GA2071+010509999GA3071+030009999GF107991999999999999999999MA1101591999999MW1001REMMET090RJCT 0200Z 26003KT 9999 FEW010 BKN035 BKN100 M00/M05 Q1016 RMK 1ST010 6SC035 6AC100 A3002;EQDQ01+000000PRSWM2
0231474905999992000010403004+42900+143170FM-15+0084RJCT V0202601N002110600019N0112651N1+00101-00601999999ADDGA1021+003009999GA2021+009009999GA3071+060009999GF107991999999999999999999MA1101591999999MW1001REMMET105RJCT 0300Z 26004KT 9999 FEW010 SCT030 BKN200 01/M06 Q1016 RMK 1ST010 3SC030 6CI200 A3000 FCST 0312 NOSIG;EQDQ01+000000PRSWM2
0215474905999992000010404004+42900+143170FM-15+0084RJCT V0202801N002610600019N0112651N1+00101-00701999999ADDGA1021+004509999GA2021+009009999GA3071+060009999GF107991999999999999999999MA1101491999999MW1001REMMET089RJCT 0400Z 28005KT 9999 FEW015 SCT030 BKN200 01/M07 Q1015 RMK 1ST015 3SC030 6CI200 A2999;EQDQ01+000000PRSWM2
0215474905999992000010405004+42900+143170FM-15+0084RJCT V0202801N002110660019N0112651N1+00101-00601999999ADDGA1021+007509999GA2021+048009999GA3071+066009999GF107991999999999999999999MA1101491999999MW1001REMMET089RJCT 0500Z 28004KT 9999 FEW025 SCT160 BKN220 01/M06 Q1015 RMK 1CU025 3AC160 6CI220 A2999;EQDQ01+000000PRSWM2
0202474905999992000010406004+42900+143170FM-15+0084RJCT V0202701N002610660019N0112651N1+00001-00601999999ADDGA1021+007509999GA2071+066009999GF107991999999999999999999MA1101591999999MW1001REMMET092RJCT 0600Z 27005KT 9999 FEW025 BKN220 M00/M06 Q1016 RMK 1CU025 5CI220 A3000 FCST 0615 NOSIG;EQDQ01+000000PRSWM2
0216474905999992000010407004+42900+143170FM-15+0084RJCT V0202801N001510660019N0112651N1-00301-00501999999ADDGA1021+007509999GA2021+024009999GA3071+066009999GF107991999999999999999999MA1101591999999MW1001REMMET090RJCT 0700Z 28003KT 9999 FEW025 SCT080 BKN220 M03/M05 Q1016 RMK 1CU025 3AC080 5CI220 A3002;EQDQ01+000000PRSWM2
0202474905999992000010408004+42900+143170FM-15+0084RJCT V0203501N000512200019N0112651N1-00501-00701999999ADDGA1021+007509999GA2021+066009999GF104991999999999999999999MA1101691999999MW1001REMMET092RJCT 0800Z 35001KT 9999 FEW025 SCT220 M05/M07 Q1017 RMK 1CU025 4CI220 A3005 FCST 0817 NOSIG;EQDQ01+000000PRSWM2
0186474905999992000010422004+42900+143170FM-15+0084RJCT V0202901N001012200019N0112651N1-01001-01201999999ADDGA1021+009009999GA2021+024009999GF104991999999999999999999MA1102201999999MW1001REMMET076RJCT 2200Z 29002KT 9999 FEW030 SCT080 M10/M12 Q1022 RMK 2CU030 3AC080 A3018;EQDQ01+000000PRSWM2
0172474905999992000010423004+42900+143170FM-15+0084RJCT V0202701N001512200019N0112651N1-01101-01201999999ADDGA1021+009009999GF102991999999999999999999MA1102201999999MW1001REMMET078RJCT 2300Z 27003KT 9999 FEW030 M11/M12 Q1022 RMK 1CU030 A3019 FCST 2308 NOSIG;EQDQ01+000000PRSWM2
0172474905999992000010500004+42900+143170FM-15+0084RJCT V0202801N001012200019N0112651N1-00701-00901999999ADDGA1021+009009999GF102991999999999999999999MA1102301999999MW1001REMMET078RJCT 0000Z 28002KT 9999 FEW030 M07/M09 Q1023 RMK 1CU030 A3022 FCST 0009 NOSIG;EQDQ01+000000PRSWM2
0156474905999992000010501004+42900+143170FM-15+0084RJCT V0201701N000512200019N0112651N1-00401-00901999999ADDGA1021+009009999GF102991999999999999999999MA1102401999999MW1001REMMET062RJCT 0100Z 17001KT 9999 FEW030 M04/M09 Q1024 RMK 1CU030 A3024;EQDQ01+000000PRSWM2
0156474905999992000010502004+42900+143170FM-15+0084RJCT V0202001N000512200019N0112651N1-00201-00901999999ADDGA1021+009009999GF102991999999999999999999MA1102301999999MW1001REMMET062RJCT 0200Z 20001KT 9999 FEW030 M02/M09 Q1023 RMK 1CU030 A3022;EQDQ01+000000PRSWM2
0172474905999992000010503004+42900+143170FM-15+0084RJCT V0200301N001012200019N0112651N1-00101-00801999999ADDGA1021+009009999GF102991999999999999999999MA1102301999999MW1001REMMET078RJCT 0300Z 03002KT 9999 FEW030 M01/M08 Q1023 RMK 1CU030 A3021 FCST 0312 NOSIG;EQDQ01+000000PRSWM2
0156474905999992000010504004+42900+143170FM-15+0084RJCT V0201301N002112200019N0112651N1+00001-00801999999ADDGA1021+010509999GF102991999999999999999999MA1102201999999MW1001REMMET062RJCT 0400Z 13004KT 9999 FEW035 M00/M08 Q1022 RMK 1CU035 A3020;EQDQ01+000000PRSWM2
0156474905999992000010505004+42900+143170FM-15+0084RJCT V02099999999992200019N0112651N1+00001-00801999999ADDGA1021+010509999GF102991999999999999999999MA1102201999999MW1001REMMET062RJCT 0500Z VRB03KT 9999 FEW035 M00/M08 Q1022 RMK 1CU035 A3019;EQDQ01+000000PRSWM2
0171474905999992000010506004+42900+143170FM-15+0084RJCT V0202901N004112200019N0112651N1+00001-01001999999ADDGA1021+010509999GF102991999999999999999999MA1102301999999MW1001REMMET077RJCT 0600Z 29008KT 9999 FEW035 00/M10 Q1023 RMK 1CU035 A3021 FCST 0615 NOSIG;EQDQ01+000000PRSWM2
0156474905999992000010507004+42900+143170FM-15+0084RJCT V0202901N005112200019N0112651N1-00101-01001999999ADDGA1021+010509999GF102991999999999999999999MA1102301999999MW1001REMMET062RJCT 0700Z 29010KT 9999 FEW035 M01/M10 Q1023 RMK 1CU035 A3022;EQDQ01+000000PRSWM2
0172474905999992000010508004+42900+143170FM-15+0084RJCT V0203001N005112200019N0112651N1-00101-01001999999ADDGA1021+010509999GF102991999999999999999999MA1102301999999MW1001REMMET078RJCT 0800Z 30010KT 9999 FEW035 M01/M10 Q1023 RMK 1SC035 A3023 FCST 0817 NOSIG;EQDQ01+000000PRSWM2
0186474905999992000010522004+42900+143170FM-15+0084RJCT V0202201N000510660019N0112651N1-01801-02101999999ADDGA1021+007509999GA2071+066009999GF107991999999999999999999MA1102811999999MW1001REMMET076RJCT 2200Z 22001KT 9999 FEW025 BKN220 M18/M21 Q1028 RMK 1SC025 6CI220 A3035;EQDQ01+000000PRSWM2
0156474905999992000010601004+42900+143170FM-15+0084RJCT V0202501N002112200019N0112651N1-01001-01301999999ADDGA1021+066009999GF104991999999999999999999MA1102811999999MW1001REMMET062RJCT 0100Z 25004KT 9999 SCT220 M10/M13 Q1028 RMK 3CI220 A3036;EQDQ01+000000PRSWM2
0156474905999992000010602004+42900+143170FM-15+0084RJCT V0202701N001512200019N0112651N1-00701-01301999999ADDGA1021+060009999GF102991999999999999999999MA1102711999999MW1001REMMET062RJCT 0200Z 27003KT 9999 FEW200 M07/M13 Q1027 RMK 1CI200 A3034;EQDQ01+000000PRSWM2
0195474905999992000010603004+42900+143170FM-15+0084RJCT V02099999999992200019N0112651N1-00501-01201999999ADDGA1021+060009999GF102991999999999999999999MA1102611999999MW1001REMMET101RJCT 0300Z VRB02KT 9999 FEW200 M05/M12 Q1026 RMK 1CI200 A3032 FCST 0312 BECMG 0507 BKN040SC OVC080AC;EQDQ01+000000PRSWM2
0186474905999992000010604004+42900+143170FM-15+0084RJCT V0202401N000510600019N0112651N1-00501-01201999999ADDGA1021+009009999GA2071+060009999GF107991999999999999999999MA1102511999999MW1001REMMET076RJCT 0400Z 24001KT 9999 FEW030 BKN200 M05/M12 Q1025 RMK 1CU030 6CI200 A3029;EQDQ01+000000PRSWM2
0186474905999992000010605004+42900+143170FM-15+0084RJCT V0202501N002110600019N0112651N1-00501-01201999999ADDGA1021+012009999GA2071+060009999GF107991999999999999999999MA1102511999999MW1001REMMET076RJCT 0500Z 25004KT 9999 FEW040 BKN200 M05/M12 Q1025 RMK 1SC040 7CI200 A3029;EQDQ01+000000PRSWM2
0216474905999992000010607004+42900+143170FM-15+0084RJCT V0201901N000510300019N0112651N1-00701-01201999999ADDGA1021+012009999GA2071+030009999GA3071+060009999GF107991999999999999999999MA1102511999999MW1001REMMET090RJCT 0700Z 19001KT 9999 FEW040 BKN100 BKN200 M07/M12 Q1025 RMK 1SC040 6AC100 7CI200 A3027;EQDQ01+000000PRSWM2
0266474905999992000010608004+42900+143170FM-15+0084RJCT V0201701N001510300019N0112651N1-00701-01101999999ADDGA1021+009009999GA2071+030009999GA3071+060009999GF107991999999999999999999MA1102511999999MW1001REMMET140RJCT 0800Z 17003KT 9999 FEW030 BKN100 BKN200 M07/M11 Q1025 RMK 1SC030 6AC100 7CI200 A3027 FCST 0817 BECMG 1012 2000 -SHSN BKN008ST OVC015CU;EQDQ01+000000PRSWM2
0241474905999992000010623004+42900+143170FM-15+0084RJCT V0202601N00051000151CN0005001N1-00301-00401999999ADDGA1091+000159999GF109991999999000251999999MA1101391999999MW1731REMMET131RJCT 2300Z 26001KT 0500 SN VV004 M03/M04 Q1014 RMK A2995 FCST 2308 BECMG 0304 1200 -SHSN BKN008ST OVC015ST BECMG 0506 NSW BKN020CU;EQDQ01+000003PRSWM1Q02    003PRSWM1
0261474905999992000010700004+42900+143170FM-15+0084RJCT V0202801N00101000151CN0006001N1-00301-00401999999ADDGA1091+000159999GF109991999999000251999999MA1101291999999MW1731REMMET151RJCT 0000Z 28002KT 0600 SN VV004 M03/M04 Q1013 RMK A2993 FCST 0009 TEMPO 0103 1200 -SN BECMG 0304 1200 -SHSN BKN008ST OVC015ST BECMG 0506 NSW BKN020CU;EQDQ01+000003PRSWM1Q02    003PRSWM1
0167474905999992000010701004+42900+143170FM-15+0084RJCT V0203001N00261000151CN0006001N1-00101-00201999999ADDGA1091+000159999GF109991999999000251999999MA1101191999999MW1731REMMET057RJCT 0100Z 30005KT 0600 SN VV004 M01/M02 Q1012 RMK A2989;EQDQ01+000003PRSWM1Q02    003PRSWM1
0167474905999992000010702004+42900+143170FM-15+0084RJCT V0203101N00311000151CN0006001N1+00001-00101999999ADDGA1091+000159999GF109991999999000251999999MA1101081999999MW1731REMMET057RJCT 0200Z 31006KT 0600 SN VV004 M00/M01 Q1011 RMK A2985;EQDQ01+000003PRSWM1Q02    003PRSWM1
0243474905999992000010703004+42900+143170FM-15+0084RJCT V0203001N00261000151CN0008001N1+00101+00001999999ADDGA1091+000159999GF109991999999000251999999MA1100911999999MW1731REMMET133RJCT 0300Z 30005KT 0800 SN VV004 01/M00 Q1009 RMK A2980 P/FR FCST 0312 TEMPO 0305 1200 -SN BKN008ST OVC012ST BECMG 0506 NSW BKN020CU;EQDQ01+000003PRSWM1Q02    003PRSWM1
0183474905999992000010704004+42900+143170FM-15+0084RJCT V0203001N003110012019N0015001N1+00101+00001999999ADDGA1081+001209999GF108991999999999999999999MA1100611999999MW1101MW2711REMMET067RJCT 0400Z 30006KT 1500 -SN BR OVC004 01/00 Q1006 RMK 8ST004 A2972;EQDQ01+000003PRSWM1Q02    003PRSWM1
0208474905999992000010704424+42900+143170FM-16+0084RJCT V0203101N001510024019N0050001N1+00201+00001999999ADDGA1021+001509999GA2071+002409999GF107991999999999999999999MA1100611999999MW1851REMMET082RJCT 070442Z 31003KT 5000 -SHSN FEW005 BKN008 02/00 Q1006 RMK 1ST005 7ST008 A2971;EQDQ01+000003PRSWM1Q02    003PRSWM1
0214474905999992000010705004+42900+143170FM-15+0084RJCT V0202901N001510030019N0070001N1+00201+00001999999ADDGA1021+001509999GA2071+003009999GA3071+006009999GF107991999999999999999999MA1100611999999MW1001REMMET088RJCT 0500Z 29003KT 7000 FEW005 BKN010 BKN020 02/00 Q1006 RMK 1ST005 5ST010 7CU020 A2970;EQDQ01+000000PRSWM2
0266474905999992000010706004+42900+143170FM-15+0084RJCT V0202601N002610060019N0070001N1+00101+00001999999ADDGA1021+001509999GA2021+003009999GA3071+006009999GF107991999999999999999999MA1100511999999MW1001REMMET140RJCT 0600Z 26005KT 7000 FEW005 SCT010 BKN020 01/00 Q1005 RMK 1ST005 4ST010 7CU020 A2970 FCST 0615 BECMG 0809 SCT020CU TEMPO 0912 30010G20KT;EQDQ01+000000PRSWM2
0239474905999992000010706374+42900+143170FM-16+0084RJCT V0202801N002110060019N0112651N1+00101+00001999999ADDGA1021+001509999GA2071+006009999GA3071+024009999GF107991999999999999999999MA1100711999999MW1851REMMET097RJCT 070637Z 28004KT 9999 -SHSN FEW005 BKN020 BKN080 01/M00 Q1007 RMK 1ST005 6CU020 7AC080 A2973;EQDQ01+000003PRSWM1Q02    003PRSWM1
0215474905999992000010707004+42900+143170FM-15+0084RJCT V0203001N001510270019N0112651N1+00101+00001999999ADDGA1021+003009999GA2021+006009999GA3071+027009999GF107991999999999999999999MA1100611999999MW1001REMMET089RJCT 0700Z 30003KT 9999 FEW010 SCT020 BKN090 01/M00 Q1006 RMK 1ST010 4CU020 6AC090 A2973;EQDQ01+000000PRSWM2
0232474905999992000010708004+42900+143170FM-15+0084RJCT V0201601N002110600019N0112651N1-00101-00201999999ADDGA1021+007509999GA2021+024009999GA3071+060009999GF107991999999999999999999MA1100711999999MW1001REMMET106RJCT 0800Z 16004KT 9999 FEW025 SCT080 BKN200 M01/M02 Q1007 RMK 1CU025 3AC080 6CI200 A2973 FCST 0817 NOSIG;EQDQ01+000000PRSWM2
0186474905999992000011022004+42900+143170FM-15+0084RJCT V0202901N007212200019N0112651N1-00201-00901999999ADDGA1021+003009999GA2021+007509999GF104991999999999999999999MA1100511999999MW1001REMMET076RJCT 2200Z 29014KT 9999 FEW010 SCT025 M02/M09 Q1005 RMK 1ST010 3CU025 A2967;EQDQ01+000000PRSWM2
0188474905999992000011023004+42900+143170FM-15+0084RJCT V0203001N005112200019N0112651N1-00201-01001999999ADDGA1021+004509999GF102991999999999999999999MA1100511999999MW1001REMMET094RJCT 2300Z 30010KT 9999 FEW015 M02/M10 Q1005 RMK 1CU015 A2970 FCST 2308 TEMPO 0208 30015G27KT;EQDQ01+000000PRSWM2
0192474905999992000011100004+42900+143170FM-15+0084RJCT V0202901N006212200019N0112651N1-00101-01101999999ADDGA1021+006009999GF102991999999999999999999MA1100611999999MW1001REMMET098RJCT 0000Z RTD 29012KT 9999 FEW020 M01/M11 Q1006 RMK 1CU020 A2972 FCST 0009 TEMPO 0208 30015G27KT;EQDQ01+000000PRSWM2
0156474905999992000011101004+42900+143170FM-15+0084RJCT V0203001N004612200019N0112651N1-00101-01101999999ADDGA1021+007509999GF102991999999999999999999MA1100611999999MW1001REMMET062RJCT 0100Z 30009KT 9999 FEW025 M01/M11 Q1006 RMK 1CU025 A2973;EQDQ01+000000PRSWM2
0188474905999992000011103004+42900+143170FM-15+0084RJCT V0203001N007212200019N0112651N1-00101-01101999999ADDGA1021+007509999GF102991999999999999999999MA1100711999999MW1001REMMET094RJCT 0300Z 30014KT 9999 FEW025 M01/M11 Q1007 RMK 2CU025 A2973 FCST 0312 TEMPO 0309 30015G25KT;EQDQ01+000000PRSWM2
0156474905999992000011104004+42900+143170FM-15+0084RJCT V0203001N008212200019N0112651N1-00101-01001999999ADDGA1021+006009999GF102991999999999999999999MA1100711999999MW1001REMMET062RJCT 0400Z 30016KT 9999 FEW020 M01/M10 Q1007 RMK 2CU020 A2974;EQDQ01+000000PRSWM2
0156474905999992000011105004+42900+143170FM-15+0084RJCT V0203001N006712200019N0112651N1-00201-01001999999ADDGA1021+006009999GF102991999999999999999999MA1100711999999MW1001REMMET062RJCT 0500Z 30013KT 9999 FEW020 M02/M10 Q1007 RMK 2CU020 A2975;EQDQ01+000000PRSWM2
0172474905999992000011106004+42900+143170FM-15+0084RJCT V0203101N005712200019N0112651N1-00301-01101999999ADDGA1021+006009999GF102991999999999999999999MA1100811999999MW1001REMMET078RJCT 0600Z 31011KT 9999 FEW020 M03/M11 Q1008 RMK 2CU020 A2979 FCST 0615 NOSIG;EQDQ01+000000PRSWM2
0167474905999992000011107004+42900+143170FM-15+0084RJCT V0202901N006212200019N0112651N1-00401-01401999999ADDGA1021+006009999GF102991999999999999999999MA1100911999999MW1001OC101131REMMET065RJCT 0700Z 29012G22KT 9999 FEW020 M04/M14 Q1009 RMK 1CU020 A2982;EQDQ01+000000PRSWM2
0172474905999992000011108004+42900+143170FM-15+0084RJCT V0203001N003112200019N0112651N1-00501-01301999999ADDGA1021+006009999GF102991999999999999999999MA1101021999999MW1001REMMET078RJCT 0800Z 30006KT 9999 FEW020 M05/M13 Q1010 RMK 1CU020 A2984 FCST 0817 NOSIG;EQDQ01+000000PRSWM2
0156474905999992000011122004+42900+143170FM-15+0084RJCT V0203001N004112200019N0112651N1-00801-01401999999ADDGA1021+009009999GF102991999999999999999999MA1101901999999MW1001REMMET062RJCT 2200Z 30008KT 9999 FEW030 M08/M14 Q1019 RMK 1CU030 A3011;EQDQ01+000000PRSWM2
0177474905999992000011123004+42900+143170FM-15+0084RJCT V0203001N002112200019N0112651N1-00701-01401999999ADDGA1021+009009999GF102991999999999999999999MA1102201999999MW1001REMMET083RJCT 2300Z 30004KT 9999 FEW030 M07/M14 Q1022 RMK 1CU030 A3018 P/RR FCST 2308 NOSIG;EQDQ01+000000PRSWM2
0172474905999992000011200004+42900+143170FM-15+0084RJCT V0203101N001512200019N0112651N1-00601-01401999999ADDGA1021+009009999GF102991999999999999999999MA1102301999999MW1001REMMET078RJCT 0000Z 31003KT 9999 FEW030 M06/M14 Q1023 RMK 1CU030 A3021 FCST 0009 NOSIG;EQDQ01+000000PRSWM2
0156474905999992000011201004+42900+143170FM-15+0084RJCT V0203001N004612200019N0112651N1-00401-01301999999ADDGA1021+009009999GF102991999999999999999999MA1102301999999MW1001REMMET062RJCT 0100Z 30009KT 9999 FEW030 M04/M13 Q1023 RMK 1CU030 A3022;EQDQ01+000000PRSWM2
0156474905999992000011202004+42900+143170FM-15+0084RJCT V02099999999992200019N0112651N1-00301-01401999999ADDGA1021+009009999GF102991999999999999999999MA1102301999999MW1001REMMET062RJCT 0200Z VRB01KT 9999 FEW030 M03/M14 Q1023 RMK 1CU030 A3021;EQDQ01+000000PRSWM2
0172474905999992000011203004+42900+143170FM-15+0084RJCT V0202901N003612200019N0112651N1-00201-01301999999ADDGA1021+010509999GF102991999999999999999999MA1102201999999MW1001REMMET078RJCT 0300Z 29007KT 9999 FEW035 M02/M13 Q1022 RMK 1CU035 A3020 FCST 0312 NOSIG;EQDQ01+000000PRSWM2
0156474905999992000011204004+42900+143170FM-15+0084RJCT V0203101N005112200019N0112651N1-00301-01201999999ADDGA1021+009009999GF102991999999999999999999MA1102201999999MW1001REMMET062RJCT 0400Z 31010KT 9999 FEW030 M03/M12 Q1022 RMK 1CU030 A3020;EQDQ01+000000PRSWM2
0156474905999992000011205004+42900+143170FM-15+0084RJCT V0203401N003112200019N0112651N1-00301-01201999999ADDGA1021+007509999GF102991999999999999999999MA1102201999999MW1001REMMET062RJCT 0500Z 34006KT 9999 FEW025 M03/M12 Q1022 RMK 1CU025 A3020;EQDQ01+000000PRSWM2
0172474905999992000011206004+42900+143170FM-15+0084RJCT V0203301N004112200019N0112651N1-00301-01201999999ADDGA1021+007509999GF102991999999999999999999MA1102301999999MW1001REMMET078RJCT 0600Z 33008KT 9999 FEW025 M03/M12 Q1023 RMK 1CU025 A3022 FCST 0615 NOSIG;EQDQ01+000000PRSWM2
0156474905999992000011207004+42900+143170FM-15+0084RJCT V0202501N001512200019N0112651N1-00601-01201999999ADDGA1021+007509999GF102991999999999999999999MA1102401999999MW1001REMMET062RJCT 0700Z 25003KT 9999 FEW025 M06/M12 Q1024 RMK 1CU025 A3024;EQDQ01+000000PRSWM2
0172474905999992000011208004+42900+143170FM-15+0084RJCT V02099999999992200019N0112651N1-00701-01201999999ADDGA1021+004509999GF102991999999999999999999MA1102401999999MW1001REMMET078RJCT 0800Z VRB01KT 9999 FEW015 M07/M12 Q1024 RMK 1ST015 A3025 FCST 0817 NOSIG;EQDQ01+000000PRSWM2
0236474905999992000011222004+42900+143170FM-15+0084RJCT V0201901N000510075019N0080001N1-01101-01501999999ADDGA1021+004509999GA2071+007509999GA3081+012009999GF108991999999999999999999MA1102401999999MW1711REMMET094RJCT 2200Z 19001KT 8000 -SN SCT015 BKN025 OVC040 M11/M15 Q1024 RMK 3ST015 7SC025 8SC040 A3024;EQDQ01+000003PRSWM1Q02    003PRSWM1
0238474905999992000011222104+42900+143170FM-16+0084RJCT V0201901N000510045019N0040001N1-01101-01401999999ADDGA1021+003009999GA2071+004509999GA3081+007509999GF108991999999999999999999MA1102401999999MW1711REMMET096RJCT 122210Z 19001KT 4000 -SN FEW010 BKN015 OVC025 M11/M14 Q1024 RMK 1ST010 6ST015 8SC025 A3024;EQDQ01+000003PRSWM1Q02    003PRSWM1
0238474905999992000011222254+42900+143170FM-15+0084RJCT V0209999C000010030019N0011001N1-01101-01401999999ADDGA1021+001809999GA2071+003009999GA3081+004509999GF108991999999999999999999MA1102401999999MW1711REMMET096RJCT 122225Z 00000KT 1100 -SN FEW006 BKN010 OVC015 M11/M14 Q1024 RMK 1ST006 6ST010 8ST015 A3024;EQDQ01+000003PRSWM1Q02    003PRSWM1
0266474905999992000011223004+42900+143170FM-15+0084RJCT V0209999C000010027019N0011001N1-01101-01301999999ADDGA1021+001809999GA2071+002709999GA3081+004509999GF108991999999999999999999MA1102401999999MW1711REMMET124RJCT 2300Z 00000KT 1100 -SN FEW006 BKN009 OVC015 M11/M13 Q1024 RMK 1ST006 6ST009 8ST015 A3024 FCST 2308 TEMPO 0006 SN VV005;EQDQ01+000003PRSWM1Q02    003PRSWM1
0236474905999992000011300004+42900+143170FM-15+0084RJCT V0203101N001510027019N0012001N1-01001-01201999999ADDGA1021+001809999GA2081+002709999GF108991999999999999999999MA1102301999999MW1711REMMET110RJCT 0000Z 31003KT 1200 -SN FEW006 OVC009 M10/M12 Q1023 RMK 1ST006 8ST009 A3023 FCST 0009 TEMPO 0006 SN VV005;EQDQ01+000003PRSWM1Q02    003PRSWM1
0238474905999992000011300294+42900+143170FM-16+0084RJCT V0202701N001010027019N0015001N1-01001-01201999999ADDGA1021+001809999GA2071+002709999GA3081+007509999GF108991999999999999999999MA1102301999999MW1711REMMET096RJCT 130029Z 27002KT 1500 -SN FEW006 BKN009 OVC025 M10/M12 Q1023 RMK 1ST006 6ST009 8SC025 A3023;EQDQ01+000003PRSWM1Q02    003PRSWM1
0227474905999992000011301084+42900+143170FM-16+0084RJCT V0201901N000510024019N0012001N1-00901-01101999999ADDGA1021+001809999GA2081+002409999GF108991999999999999999999MA1102301999999MW1711REMMET085RJCT 130108Z 19001KT 1200 -SN BR SCT006 OVC008 M09/M11 Q1023 RMK 3ST006 8ST008 A3021;EQDQ01+000100PRSWM3Q02+000003PRSWM1Q03    003PRSWM1
0206474905999992000011302004+42900+143170FM-15+0084RJCT V0202501N000510024019N0010001N1-00801-01001999999ADDGA1021+001809999GA2081+002409999GF108991999999999999999999MA1102201999999MW1711REMMET080RJCT 0200Z 25001KT 1000 -SN SCT006 OVC008 M08/M10 Q1022 RMK 3ST006 8ST008 A3019;EQDQ01+000003PRSWM1Q02    003PRSWM1
0216474905999992000011322004+42900+143170FM-15+0084RJCT V0202901N001510240019N0112651N1-00501-00601999999ADDGA1021+006009999GA2071+024009999GA3071+060009999GF107991999999999999999999MA1100101999999MW1001REMMET090RJCT 2200Z 29003KT 9999 FEW020 BKN080 BKN200 M05/M06 Q1001 RMK 1SC020 5AC080 7CI200 A2956;EQDQ01+000000PRSWM2
0202474905999992000011323004+42900+143170FM-15+0084RJCT V0201101N000512200019N0112651N1-00601-00701999999ADDGA1021+009009999GA2021+024009999GF104991999999999999999999MA1100101999999MW1001REMMET092RJCT 2300Z 11001KT 9999 FEW030 SCT080 M06/M07 Q1001 RMK 1SC030 3AC080 A2957 FCST 2308 NOSIG;EQDQ01+000000PRSWM2
0172474905999992000011400004+42900+143170FM-15+0084RJCT V0203001N000512200019N0112651N1-00301-00501999999ADDGA1021+009009999GF102991999999999999999999MA1100101999999MW1001REMMET078RJCT 0000Z 30001KT 9999 FEW030 M03/M05 Q1001 RMK 1SC030 A2958 FCST 0009 NOSIG;EQDQ01+000000PRSWM2
0185474905999992000011401004+42900+143170FM-15+0084RJCT V0202601N002112200019N0112651N1+00101-00301999999ADDGA1021+009009999GA2021+060009999GF104991999999999999999999MA1100101999999MW1001REMMET075RJCT 0100Z 26004KT 9999 FEW030 SCT200 01/M03 Q1001 RMK 1SC030 3CI200 A2958;EQDQ01+000000PRSWM2
0185474905999992000011402004+42900+143170FM-15+0084RJCT V0203301N002112200019N0112651N1+00301-00301999999ADDGA1021+009009999GA2021+060009999GF104991999999999999999999MA1100001999999MW1001REMMET075RJCT 0200Z 33004KT 9999 FEW030 SCT200 03/M03 Q1000 RMK 1CU030 4CI200 A2955;EQDQ01+000000PRSWM2
0231474905999992000011403004+42900+143170FM-15+0084RJCT V0203501N001510240019N0112651N1+00301-00201999999ADDGA1021+009009999GA2071+024009999GA3071+060009999GF107991999999999999999999MA1100001999999MW1001REMMET105RJCT 0300Z 35003KT 9999 FEW030 BKN080 BKN200 03/M02 Q1000 RMK 1CU030 5AC080 6CI200 A2955 FCST 0312 NOSIG;EQDQ01+000000PRSWM2
0215474905999992000011404004+42900+143170FM-15+0084RJCT V0203301N002610105019N0112651N1+00301-00201999999ADDGA1021+007509999GA2071+010509999GA3071+024009999GF107991999999999999999999MA1100001999999MW1001REMMET089RJCT 0400Z 33005KT 9999 FEW025 BKN035 BKN080 03/M02 Q1000 RMK 1SC025 5SC035 6AC080 A2954;EQDQ01+000000PRSWM2
0215474905999992000011405004+42900+143170FM-15+0084RJCT V0203401N002610120019N0112651N1+00301-00301999999ADDGA1021+009009999GA2071+012009999GA3071+024009999GF107991999999999999999999MA1100101999999MW1001REMMET089RJCT 0500Z 34005KT 9999 FEW030 BKN040 BKN080 03/M03 Q1001 RMK 1SC030 5SC040 6AC080 A2956;EQDQ01+000000PRSWM2
0231474905999992000011406004+42900+143170FM-15+0084RJCT V0203201N003610105019N0112651N1+00301-00201999999ADDGA1021+007509999GA2071+010509999GA3071+024009999GF107991999999999999999999MA1100101999999MW1001REMMET105RJCT 0600Z 32007KT 9999 FEW025 BKN035 BKN080 03/M02 Q1001 RMK 1SC025 6SC035 6AC080 A2958 FCST 0615 NOSIG;EQDQ01+000000PRSWM2
0215474905999992000011407004+42900+143170FM-15+0084RJCT V0203401N003110105019N0112651N1+00201-00201999999ADDGA1021+006009999GA2071+010509999GA3071+013509999GF107991999999999999999999MA1100201999999MW1001REMMET089RJCT 0700Z 34006KT 9999 FEW020 BKN035 BKN045 02/M02 Q1002 RMK 1CU020 6SC035 7SC045 A2961;EQDQ01+000000PRSWM2
0239474905999992000011407244+42900+143170FM-16+0084RJCT V0203201N005710105019N0112651N1+00301-00301999999ADDGA1021+006009999GA2071+010509999GA3071+013509999GF107991999999999999999999MA1100311999999MW1851REMMET097RJCT 140724Z 32011KT 9999 -SHSN FEW020 BKN035 BKN045 03/M03 Q1003 RMK 1CU020 6SC035 7SC045 A2962;EQDQ01+000003PRSWM1Q02    003PRSWM1
0223474905999992000011408004+42900+143170FM-15+0084RJCT V0203201N004610075019N0060001N1+00201-00301999999ADDGA1021+006009999GA2081+007509999GF108991999999999999999999MA1100311999999MW1851REMMET097RJCT 0800Z 32009KT 6000 -SHSN SCT020 OVC025 02/M03 Q1003 RMK 3CU020 8CU025 A2963 FCST 0817 NOSIG;EQDQ01+000003PRSWM1Q02    003PRSWM1
0171474905999992000011503004+42900+143170FM-15+0084RJCT V02099999999992200019N0112651N1+00101-00601999999ADDGA1021+007509999GF102991999999999999999999MA1101691999999MW1001REMMET077RJCT 0300Z VRB03KT 9999 FEW025 01/M06 Q1017 RMK 1CU025 A3005 FCST 0312 NOSIG;EQDQ01+000000PRSWM2
0155474905999992000011504004+42900+143170FM-15+0084RJCT V0203101N005712200019N0112651N1+00101-00801999999ADDGA1021+007509999GF102991999999999999999999MA1101691999999MW1001REMMET061RJCT 0400Z 31011KT 9999 FEW025 01/M08 Q1017 RMK 1CU025 A3005;EQDQ01+000000PRSWM2
0210474905999992000011622004+42900+143170FM-15+0084RJCT V0202501N000512200019N0040001N1-01301-01501999999ADDGA1021+003009999GA2021+007509999GF104991999999999999999999MA1101291999999MW1101REMMET084RJCT 2200Z 25001KT 4000 BR FEW010 SCT025 M13/M15 Q1013 RMK 1ST010 4CU025 A2992 WS/E;EQDQ01+000003PRSWM1Q02    003PRSWM1
0172474905999992000011623004+42900+143170FM-15+0084RJCT V0209999C000012200019N0060001N1-01301-01501999999ADDGA1021+004509999GF102991999999999999999999MA1101291999999MW1001REMMET078RJCT 2300Z 00000KT 6000 FEW015 M13/M15 Q1013 RMK 1ST015 A2994 FCST 2308 NOSIG;EQDQ01+000000PRSWM2
0172474905999992000011700004+42900+143170FM-15+0084RJCT V02099999999992200019N0060001N1-01001-01201999999ADDGA1021+004509999GF102991999999999999999999MA1101391999999MW1001REMMET078RJCT 0000Z VRB01KT 6000 FEW015 M10/M12 Q1014 RMK 1ST015 A2995 FCST 0009 NOSIG;EQDQ01+000000PRSWM2
0156474905999992000011701004+42900+143170FM-15+0084RJCT V0200401N001012200019N0112651N1-00701-01001999999ADDGA1021+006009999GF102991999999999999999999MA1101391999999MW1001REMMET062RJCT 0100Z 04002KT 9999 FEW020 M07/M10 Q1014 RMK 1SC020 A2995;EQDQ01+000000PRSWM2
0156474905999992000011702004+42900+143170FM-15+0084RJCT V0202601N001012200019N0112651N1-00401-00901999999ADDGA1021+007509999GF102991999999999999999999MA1101291999999MW1001REMMET062RJCT 0200Z 26002KT 9999 FEW025 M04/M09 Q1013 RMK 1CU025 A2993;EQDQ01+000000PRSWM2
0172474905999992000011703004+42900+143170FM-15+0084RJCT V02099999999992200019N0112651N1-00401-00801999999ADDGA1021+007509999GF102991999999999999999999MA1101191999999MW1001REMMET078RJCT 0300Z VRB01KT 9999 FEW025 M04/M08 Q1012 RMK 1CU025 A2991 FCST 0312 NOSIG;EQDQ01+000000PRSWM2
0156474905999992000011704004+42900+143170FM-15+0084RJCT V0202501N001512200019N0112651N1-00201-00701999999ADDGA1021+007509999GF102991999999999999999999MA1101191999999MW1001REMMET062RJCT 0400Z 25003KT 9999 FEW025 M02/M07 Q1012 RMK 1CU025 A2989;EQDQ01+000000PRSWM2
0156474905999992000011705004+42900+143170FM-15+0084RJCT V0202001N001512200019N0112651N1-00101-00701999999ADDGA1021+007509999GF102991999999999999999999MA1101191999999MW1001REMMET062RJCT 0500Z 20003KT 9999 FEW025 M01/M07 Q1012 RMK 1CU025 A2989;EQDQ01+000000PRSWM2
0172474905999992000011706004+42900+143170FM-15+0084RJCT V0201701N002112200019N0112651N1-00101-00701999999ADDGA1021+007509999GF102991999999999999999999MA1101191999999MW1001REMMET078RJCT 0600Z 17004KT 9999 FEW025 M01/M07 Q1012 RMK 1CU025 A2989 FCST 0615 NOSIG;EQDQ01+000000PRSWM2
0156474905999992000011707004+42900+143170FM-15+0084RJCT V0202101N001512200019N0112651N1-00401-00801999999ADDGA1021+009009999GF102991999999999999999999MA1101191999999MW1001REMMET062RJCT 0700Z 21003KT 9999 FEW030 M04/M08 Q1012 RMK 1CU030 A2991;EQDQ01+000000PRSWM2
0172474905999992000011708004+42900+143170FM-15+0084RJCT V0201301N002112200019N0112651N1-00701-01001999999ADDGA1021+009009999GF102991999999999999999999MA1101291999999MW1001REMMET078RJCT 0800Z 13004KT 9999 FEW030 M07/M10 Q1013 RMK 1CU030 A2993 FCST 0817 NOSIG;EQDQ01+000000PRSWM2
0156474905999992000011709004+42900+143170FM-15+0084RJCT V0201201N001512200019N0112651N1-00901-01101999999ADDGA1021+009009999GF102991999999999999999999MA1101391999999MW1001REMMET062RJCT 0900Z 12003KT 9999 FEW030 M09/M11 Q1014 RMK 1CU030 A2995;EQDQ01+000000PRSWM2
0156474905999992000011722004+42900+143170FM-15+0084RJCT V0202601N001012200019N0112651N1-01901-02101999999ADDGA1021+009009999GF102991999999999999999999MA1101491999999MW1001REMMET062RJCT 2200Z 26002KT 9999 FEW030 M19/M21 Q1015 RMK 1CU030 A2998;EQDQ01+000000PRSWM2
0202474905999992000011723004+42900+143170FM-15+0084RJCT V0202501N000512200019N0112651N1-01901-02101999999ADDGA1021+009009999GA2021+024009999GF104991999999999999999999MA1101591999999MW1001REMMET092RJCT 2300Z 25001KT 9999 FEW030 SCT080 M19/M21 Q1016 RMK 1CU030 3AC080 A3001 FCST 2308 NOSIG;EQDQ01+000000PRSWM2
0188474905999992000011723114+42900+143170FM-16+0084RJCT V0201701N000510240019N0112651N1-01801-02001999999ADDGA1021+009009999GA2071+024009999GF107991999999999999999999MA1101591999999MW1001REMMET078RJCT 172311Z 17001KT 9999 SCT030 BKN080 M18/M20 Q1016 RMK 3SC030 5AC080 A3001;EQDQ01+000000PRSWM2
0246474905999992000011800004+42900+143170FM-15+0084RJCT V0202901N001010105019N0112651N1-01301-01401999999ADDGA1021+007509999GA2071+010509999GA3071+024009999GF107991999999999999999999MA1101591999999MW1001REMMET120RJCT 0000Z 29002KT 9999 SCT025 BKN035 BKN080 M13/M14 Q1016 RMK 3SC025 5SC035 5AC080 A3002 FCST 0009 BECMG 0102 SCT035SC;EQDQ01+000000PRSWM2
0216474905999992000011801004+42900+143170FM-15+0084RJCT V0203101N001010105019N0112651N1-01101-01301999999ADDGA1021+007509999GA2071+010509999GA3071+024009999GF107991999999999999999999MA1101591999999MW1001REMMET090RJCT 0100Z 31002KT 9999 SCT025 BKN035 BKN080 M11/M13 Q1016 RMK 4SC025 6SC035 6AC080 A3002;EQDQ01+000000PRSWM2
0240474905999992000011801334+42900+143170FM-16+0084RJCT V0202601N001510240019N0112651N1-00901-01301999999ADDGA1021+007509999GA2021+010509999GA3071+024009999GF107991999999999999999999MA1101591999999MW1851REMMET098RJCT 180133Z 26003KT 9999 -SHSN FEW025 SCT035 BKN080 M09/M13 Q1016 RMK 1CU025 4CU035 6AC080 A3001;EQDQ01+000003PRSWM1Q02    003PRSWM1
0208474905999992000011802004+42900+143170FM-15+0084RJCT V0202601N001012200019N0112651N1-00801-01301999999ADDGA1021+006009999GA2021+010509999GF104991999999999999999999MA1101491999999MW1851REMMET082RJCT 0200Z 26002KT 9999 -SHSN FEW020 SCT035 M08/M13 Q1015 RMK 1CU020 4CU035 A2999;EQDQ01+000003PRSWM1Q02    003PRSWM1
0172474905999992000011803004+42900+143170FM-15+0084RJCT V0202601N001012200019N0112651N1-00601-01101999999ADDGA1021+010509999GF102991999999999999999999MA1101391999999MW1001REMMET078RJCT 0300Z 26002KT 9999 FEW035 M06/M11 Q1014 RMK 1CU035 A2997 FCST 0312 NOSIG;EQDQ01+000000PRSWM2
0156474905999992000011804004+42900+143170FM-15+0084RJCT V0202601N001512200019N0112651N1-00401-01101999999ADDGA1021+007509999GF102991999999999999999999MA1101391999999MW1001REMMET062RJCT 0400Z 26003KT 9999 FEW025 M04/M11 Q1014 RMK 1CU025 A2994;EQDQ01+000000PRSWM2
0156474905999992000011805004+42900+143170FM-15+0084RJCT V0202501N000512200019N0112651N1-00301-01001999999ADDGA1021+007509999GF102991999999999999999999MA1101291999999MW1001REMMET062RJCT 0500Z 25001KT 9999 FEW025 M03/M10 Q1013 RMK 1CU025 A2992;EQDQ01+000000PRSWM2
0172474905999992000011806004+42900+143170FM-15+0084RJCT V0202501N001512200019N0112651N1-00301-01001999999ADDGA1021+007509999GF102991999999999999999999MA1101291999999MW1001REMMET078RJCT 0600Z 25003KT 9999 FEW025 M03/M10 Q1013 RMK 1CU025 A2994 FCST 0615 NOSIG;EQDQ01+000000PRSWM2
0156474905999992000011807004+42900+143170FM-15+0084RJCT V0202301N001512200019N0112651N1-00601-01101999999ADDGA1021+007509999GF102991999999999999999999MA1101391999999MW1001REMMET062RJCT 0700Z 23003KT 9999 FEW025 M06/M11 Q1014 RMK 1CU025 A2994;EQDQ01+000000PRSWM2
0172474905999992000011808004+42900+143170FM-15+0084RJCT V0202301N000512200019N0112651N1-01001-01201999999ADDGA1021+006009999GF102991999999999999999999MA1101491999999MW1001REMMET078RJCT 0800Z 23001KT 9999 FEW020 M10/M12 Q1015 RMK 1CU020 A2997 FCST 0817 NOSIG;EQDQ01+000000PRSWM2
0210474905999992000011821344+42900+143170FM-16+0084RJCT V0209999C000010120019N0112651N1-01301-01501999999ADDGA1021+007509999GA2071+012009999GF107991999999999999999999MA1101591999999MW1851REMMET084RJCT 182134Z 00000KT 9999 -SHSN SCT025 BKN040 M13/M15 Q1016 RMK 3SC025 7SC040 A3000;EQDQ01+000003PRSWM1Q02    003PRSWM1
0238474905999992000011822004+42900+143170FM-15+0084RJCT V0202101N001010105019N0112651N1-01301-01501999999ADDGA1021+007509999GA2071+010509999GA3071+013509999GF107991999999999999999999MA1101591999999MW1851REMMET096RJCT 2200Z 21002KT 9999 -SHSN FEW025 BKN035 BKN045 M13/M15 Q1016 RMK 2SC025 6SC035 7SC045 A3001;EQDQ01+000003PRSWM1Q02    003PRSWM1
0270474905999992000011823004+42900+143170FM-15+0084RJCT V0202601N000510090019N0112651N1-01101-01301999999ADDGA1021+006009999GA2071+009009999GA3081+013509999GF108991999999999999999999MA1101591999999MW1851REMMET128RJCT 2300Z 26001KT 9999 -SHSN FEW020 BKN030 OVC045 M11/M13 Q1016 RMK 1SC020 6SC030 8SC045 A3001 FCST 2308 TEMPO 0308 4000 -SHSN;EQDQ01+000003PRSWM1Q02    003PRSWM1
0210474905999992000011823024+42900+143170FM-16+0084RJCT V0202701N001010075019N0017001N1-01101-01201999999ADDGA1021+004509999GA2081+007509999GF108991999999999999999999MA1101591999999MW1851REMMET084RJCT 182302Z 27002KT 1700 -SHSN FEW015 OVC025 M11/M12 Q1016 RMK 2ST015 8SC025 A3001;EQDQ01+000003PRSWM1Q02    003PRSWM1
0219474905999992000011900004+42900+143170FM-15+0084RJCT V0202501N00051000151CN0009001N1-01001-01201999999ADDGA1091+000159999GF109991999999000251999999MA1101591999999MW1861REMMET109RJCT 0000Z 25001KT 0900 SHSN VV005 M10/M12 Q1016 RMK A3002 FCST 0009 TEMPO 0104 3000 -SHSN SCT005ST BKN010ST;EQDQ01+000003PRSWM1Q02    003PRSWM1
0169474905999992000011901004+42900+143170FM-15+0084RJCT V0209999C00001000151CN0008001N1-00801-01001999999ADDGA1091+000159999GF109991999999000251999999MA1101591999999MW1861REMMET059RJCT 0100Z 00000KT 0800 SHSN VV005 M08/M10 Q1016 RMK A3001;EQDQ01+000003PRSWM1Q02    003PRSWM1
0169474905999992000011902004+42900+143170FM-15+0084RJCT V0201201N00101000151CN0009001N1-00701-01001999999ADDGA1091+000159999GF109991999999000251999999MA1101591999999MW1861REMMET059RJCT 0200Z 12002KT 0900 SHSN VV005 M07/M10 Q1016 RMK A3001;EQDQ01+000003PRSWM1Q02    003PRSWM1
0240474905999992000011902314+42900+143170FM-16+0084RJCT V0209999C000010030019N0012001N1-00601-00901999999ADDGA1021+002109999GA2071+003009999GA3071+006009999GF107991999999999999999999MA1101491999999MW1851REMMET098RJCT 190231Z 00000KT 1200 -SHSN FEW007 BKN010 BKN020 M06/M09 Q1015 RMK 2ST007 5ST010 7SC020 A2999;EQDQ01+000003PRSWM1Q02    003PRSWM1
0254474905999992000011903004+42900+143170FM-15+0084RJCT V0209999C000010021019N0016001N1-00601-00801999999ADDGA1071+002109999GA2071+003009999GA3081+006009999GF108991999999999999999999MA1101491999999MW1851REMMET112RJCT 0300Z 00000KT 1600 -SHSN BKN007 BKN010 OVC020 M06/M08 Q1015 RMK 5ST007 6ST010 8SC020 A2999 FCST 0312 NOSIG;EQDQ01+000003PRSWM1Q02    003PRSWM1
0208474905999992000011904004+42900+143170FM-15+0084RJCT V0209999C000010012019N0015001N1-00501-00701999999ADDGA1071+001209999GA2071+004509999GF107991999999999999999999MA1101491999999MW1851REMMET082RJCT 0400Z 00000KT 1500 -SHSN BKN004 BKN015 M05/M07 Q1015 RMK 6ST004 7SC015 A2997;EQDQ01+000003PRSWM1Q02    003PRSWM1
0198474905999992000011905004+42900+143170FM-15+0084RJCT V0209999C00001220001CN0018001N1-00401-00701999999ADDGA1071+001509999GA2021+004509999MA1101391999999MW1851REMMET082RJCT 0500Z 00000KT 1800 -SHSN BKN005 SCT015 M04/M07 Q1014 RMK 5ST005 4SC015 A2996;EQDQ01+000042SCOTCVQ02+000003PRSWM1Q03    003PRSWM1
0263474905999992000011906004+42900+143170FM-15+0084RJCT V0202501N001010075019N0035001N1-00401-00701999999ADDGA1021+001809999GA2021+003609999GA3071+007509999GF107991999999999999999999MA1101391999999MW1851REMMET121RJCT 0600Z 25002KT 3500 -SHSN SCT006 SCT012 BKN025 M04/M07 Q1014 RMK 3ST006 3ST012 6SC025 A2996 FCST 0615 BECMG 0708 NSW;EQDQ01+000003PRSWM1Q02    003PRSWM1
0240474905999992000011906204+42900+143170FM-15+0084RJCT V0202401N001010075019N0050001N1-00401-00701999999ADDGA1021+001809999GA2021+003609999GA3071+007509999GF107991999999999999999999MA1101391999999MW1851REMMET098RJCT 190620Z 24002KT 5000 -SHSN FEW006 SCT012 BKN025 M04/M07 Q1014 RMK 1ST006 3ST012 6SC025 A2996;EQDQ01+000003PRSWM1Q02    003PRSWM1
0238474905999992000011907004+42900+143170FM-15+0084RJCT V0202501N001010075019N0050001N1-00501-00701999999ADDGA1021+001809999GA2021+003609999GA3071+007509999GF107991999999999999999999MA1101391999999MW1851REMMET096RJCT 0700Z 25002KT 5000 -SHSN FEW006 SCT012 BKN025 M05/M07 Q1014 RMK 1ST006 3ST012 7SC025 A2996;EQDQ01+000003PRSWM1Q02    003PRSWM1
0254474905999992000011908004+42900+143170FM-15+0084RJCT V0202501N001010075019N0050001N1-00501-00701999999ADDGA1021+001809999GA2021+003609999GA3071+007509999GF107991999999999999999999MA1101491999999MW1851REMMET112RJCT 0800Z 25002KT 5000 -SHSN FEW006 SCT012 BKN025 M05/M07 Q1015 RMK 1ST006 3ST012 7SC025 A2998 FCST 0817 NOSIG;EQDQ01+000003PRSWM1Q02    003PRSWM1
0206474905999992000011922004+42900+143170FM-15+0084RJCT V0209999C000010015019N0015001N1-00501-00601999999ADDGA1071+001509999GA2081+004509999GF108991999999999999999999MA1100811999999MW1711REMMET080RJCT 2200Z 00000KT 1500 -SN BKN005 OVC015 M05/M06 Q1008 RMK 6ST005 8NS015 A2978;EQDQ01+000003PRSWM1Q02    003PRSWM1
0308474905999992000011923004+42900+143170FM-15+0084RJCT V0202901N001510024019N0030001N1-00401-00601999999ADDGA1021+001509999GA2071+002409999GA3071+006009999GF107991999999999999999999MA1100811999999MW1711REMMET166RJCT 2300Z 29003KT 3000 -SN FEW005 BKN008 BKN020 M04/M06 Q1008 RMK 1ST005 5ST008 7NS020 A2978 W/E FCST 2308 TEMPO 0105 5000 SCT008ST BKN015CU BECMG 0708 NSW BKN015CU;EQDQ01+000003PRSWM1Q02    003PRSWM1
0218474905999992000011923204+42900+143170FM-15+0084RJCT V0203001N002610075019N0070001N1-00401-00601999999ADDGA1021+001509999GA2021+003009999GA3071+007509999GF107991999999999999999999MA1100811999999MW1001REMMET092RJCT 192320Z 30005KT 7000 FEW005 SCT010 BKN025 M04/M06 Q1008 RMK 1ST005 3ST010 7SC025 A2977;EQDQ01+000000PRSWM2
0316474905999992000012000004+42900+143170FM-15+0084RJCT V0202801N003110075019N0070001N1-00401-00601999999ADDGA1021+001809999GA2021+003009999GA3071+007509999GF107991999999999999999999MA1100811999999MW1851REMMET174RJCT 0000Z 28006KT 7000 -SHSN FEW006 SCT010 BKN025 M04/M06 Q1008 RMK 1ST006 3ST010 7SC025 A2977 FCST 0009 TEMPO 0204 3000 BKN008ST BKN015CU TEMPO 0407 1200 BKN006ST BKN015CU;EQDQ01+000003PRSWM1Q02    003PRSWM1
0238474905999992000012001004+42900+143170FM-15+0084RJCT V0202801N002610075019N0070001N1-00301-00501999999ADDGA1021+002109999GA2021+003609999GA3071+007509999GF107991999999999999999999MA1100711999999MW1851REMMET096RJCT 0100Z 28005KT 7000 -SHSN FEW007 SCT012 BKN025 M03/M05 Q1007 RMK 1ST007 3ST012 7SC025 A2975;EQDQ01+000003PRSWM1Q02    003PRSWM1
0258474905999992000012003004+42900+143170FM-15+0084RJCT V0203001N003610075019N0070001N1-00101-00401999999ADDGA1021+003609999GA2081+007509999GF108991999999999999999999MA1100511999999MW1851REMMET132RJCT 0300Z 30007KT 7000 -SHSN SCT012 OVC025 M01/M04 Q1005 RMK 3ST012 8SC025 A2968 FCST 0312 TEMPO 0508 3000 BKN008ST BECMG 0809 NSW;EQDQ01+000003PRSWM1Q02    003PRSWM1
0238474905999992000012004004+42900+143170FM-15+0084RJCT V0203001N003110075019N0070001N1-00101-00401999999ADDGA1021+003009999GA2021+003609999GA3081+007509999GF108991999999999999999999MA1100411999999MW1851REMMET096RJCT 0400Z 30006KT 7000 -SHSN FEW010 SCT012 OVC025 M01/M04 Q1004 RMK 1ST010 3ST012 8SC025 A2966;EQDQ01+000003PRSWM1Q02    003PRSWM1
0240474905999992000012004404+42900+143170FM-16+0084RJCT V0202901N003110030019N0035001N1-00101-00301999999ADDGA1021+001809999GA2071+003009999GA3081+006009999GF108991999999999999999999MA1100411999999MW1851REMMET098RJCT 200440Z 29006KT 3500 -SHSN FEW006 BKN010 OVC020 M01/M03 Q1004 RMK 1ST006 5ST010 8SC020 A2965;EQDQ01+000003PRSWM1Q02    003PRSWM1
0207474905999992000012005004+42900+143170FM-15+0084RJCT V0203201N002610015019N0011001N1-00101-00301999999ADDGA1021+000609999GA2081+001509999GF108991999999999999999999MA1100411999999MW1861REMMET081RJCT 0500Z 32005KT 1100 SHSN FEW002 OVC005 M01/M03 Q1004 RMK 2ST002 8ST005 A2965;EQDQ01+000003PRSWM1Q02    003PRSWM1
0281474905999992000012006004+42900+143170FM-15+0084RJCT V0209999C000010045019N0025001N1-00101-00301999999ADDGA1021+002109999GA2071+004509999GA3081+007509999GF108991999999999999999999MA1100411999999MW1851REMMET139RJCT 0600Z 00000KT 2500 -SHSN FEW007 BKN015 OVC025 M01/M03 Q1004 RMK 2ST007 5ST015 8CU025 A2965 FCST 0615 BECMG 0709 NSW SCT010ST OVC015CU;EQDQ01+000003PRSWM1Q02    003PRSWM1
0238474905999992000012007004+42900+143170FM-15+0084RJCT V0202201N002110030019N0018001N1-00201-00301999999ADDGA1021+000909999GA2071+003009999GA3081+007509999GF108991999999999999999999MA1100411999999MW1851REMMET096RJCT 0700Z 22004KT 1800 -SHSN FEW003 BKN010 OVC025 M02/M03 Q1004 RMK 2ST003 5ST010 8CU025 A2967;EQDQ01+000003PRSWM1Q02    003PRSWM1
0272474905999992000012008004+42900+143170FM-15+0084RJCT V0202201N002610030019N0017001N1-00201-00301999999ADDGA1021+000909999GA2071+003009999GA3081+007509999GF108991999999999999999999MA1100411999999MW1851REMMET130RJCT 0800Z 22005KT 1700 -SHSN FEW003 BKN010 OVC025 M02/M03 Q1004 RMK 2ST003 6ST010 8CU025 A2967 FCST 0817 BECMG 0910 NSW BKN015ST;EQDQ01+000003PRSWM1Q02    003PRSWM1
0186474905999992000012022004+42900+143170FM-15+0084RJCT V0203001N001010090019N0112651N1-00501-00801999999ADDGA1021+004509999GA2071+009009999GF107991999999999999999999MA1100811999999MW1001REMMET076RJCT 2200Z 30002KT 9999 FEW015 BKN030 M05/M08 Q1008 RMK 1ST015 6SC030 A2978;EQDQ01+000000PRSWM2
0238474905999992000012023004+42900+143170FM-15+0084RJCT V0203001N001010090019N0112651N1-00401-01001999999ADDGA1021+004509999GA2071+009009999GF107991999999999999999999MA1100911999999MW1001REMMET128RJCT 2300Z 30002KT 9999 FEW015 BKN030 M04/M10 Q1009 RMK 1ST015 6CU030 A2982 FCST 2308 TEMPO 0106 34010G20KT BECMG 0304 SCT030CU;EQDQ01+000000PRSWM2
0238474905999992000012100004+42900+143170FM-15+0084RJCT V0203101N001010090019N0112651N1-00301-01001999999ADDGA1021+004509999GA2071+009009999GF107991999999999999999999MA1101021999999MW1001REMMET128RJCT 0000Z 31002KT 9999 FEW015 BKN030 M03/M10 Q1010 RMK 1ST015 6CU030 A2984 FCST 0009 TEMPO 0102 SCT030CU TEMPO 0106 34010G20KT;EQDQ01+000000PRSWM2
0186474905999992000012101004+42900+143170FM-15+0084RJCT V0203201N002110090019N0112651N1-00301-01001999999ADDGA1021+006009999GA2071+009009999GF107991999999999999999999MA1101081999999MW1001REMMET076RJCT 0100Z 32004KT 9999 FEW020 BKN030 M03/M10 Q1011 RMK 1CU020 5CU030 A2987;EQDQ01+000000PRSWM2
0186474905999992000012102004+42900+143170FM-15+0084RJCT V0203001N003612200019N0112651N1-00301-01001999999ADDGA1021+009009999GA2021+030009999GF104991999999999999999999MA1101081999999MW1001REMMET076RJCT 0200Z 30007KT 9999 FEW030 SCT100 M03/M10 Q1011 RMK 2CU030 3AC100 A2986;EQDQ01+000000PRSWM2
0188474905999992000012103004+42900+143170FM-15+0084RJCT V0203001N003612200019N0112651N1-00201-01001999999ADDGA1021+009009999GF102991999999999999999999MA1101081999999MW1001REMMET094RJCT 0300Z 30007KT 9999 FEW030 M02/M10 Q1011 RMK 2CU030 A2986 FCST 0312 TEMPO 0408 34010G20KT;EQDQ01+000000PRSWM2
0186474905999992000012104004+42900+143170FM-15+0084RJCT V0203201N006712200019N0112651N1-00301-01101999999ADDGA1021+009009999GA2021+030009999GF104991999999999999999999MA1101081999999MW1001REMMET076RJCT 0400Z 32013KT 9999 FEW030 SCT100 M03/M11 Q1011 RMK 2CU030 3AC100 A2987;EQDQ01+000000PRSWM2
0265474905999992000012106004+42900+143170FM-15+0084RJCT V0203101N006210240019N0112651N1-00301-01201999999ADDGA1021+009009999GA2071+024009999GA3071+060009999GF107991999999999999999999MA1101291999999MW1001OC101291REMMET131RJCT 0600Z 31012G25KT 9999 FEW030 BKN080 BKN200 M03/M12 Q1013 RMK 2CU030 5AC080 6CI200 A2991 FCST 0615 BECMG 0708 34008KT SCT080AC;EQDQ01+000000PRSWM2
0227474905999992000012107004+42900+143170FM-15+0084RJCT V0203001N006710600019N0112651N1-00401-01201999999ADDGA1021+009009999GA2021+024009999GA3071+060009999GF107991999999999999999999MA1101291999999MW1001OC101231REMMET093RJCT 0700Z 30013G24KT 9999 FEW030 SCT080 BKN200 M04/M12 Q1013 RMK 1CU030 4AC080 6CI200 A2993;EQDQ01+000000PRSWM2
0202474905999992000012108004+42900+143170FM-15+0084RJCT V0203001N006712200019N0112651N1-00501-01401999999ADDGA1021+009009999GA2021+024009999GF104991999999999999999999MA1101391999999MW1001REMMET092RJCT 0800Z 30013KT 9999 FEW030 SCT080 M05/M14 Q1014 RMK 1CU030 4AC080 A2997 FCST 0817 NOSIG;EQDQ01+000000PRSWM2
0169474905999992000012321304+42900+143170FM-15+0084RJCT V0200301N00151000151CN0003001N1-00901-01001999999ADDGA1091+000159999GF109991999999000251999999MA1101491999999MW1451REMMET059RJCT 232130Z 03003KT 0300 FG VV001 M09/M10 Q1015 RMK A2997;EQDQ01+000003PRSWM1Q02    003PRSWM1
0167474905999992000012322004+42900+143170FM-15+0084RJCT V0203601N00051000151CN0004001N1-00901-01101999999ADDGA1091+000159999GF109991999999000251999999MA1101391999999MW1451REMMET057RJCT 2200Z 36001KT 0400 FG VV002 M09/M11 Q1014 RMK A2996;EQDQ01+000003PRSWM1Q02    003PRSWM1
0215474905999992000012323004+42900+143170FM-15+0084RJCT V0200201N00051000151CN0003001N1-00901-01101999999ADDGA1091+000159999GF109991999999000251999999MA1101391999999MW1451REMMET105RJCT 2300Z COR 02001KT 0300 FG VV001 M09/M11 Q1014 RMK A2997 FCST 2308 BECMG 0102 6000 FEW010ST SCT015CU;EQDQ01+000003PRSWM1Q02    003PRSWM1
0211474905999992000012400004+42900+143170FM-15+0084RJCT V0200501N00101000151CN0004001N1-00901-01001999999ADDGA1091+000159999GF109991999999000251999999MA1101391999999MW1451REMMET101RJCT 0000Z 05002KT 0400 FG VV002 M09/M10 Q1014 RMK A2996 FCST 0009 BECMG 0102 6000 FEW010ST SCT015CU;EQDQ01+000003PRSWM1Q02    003PRSWM1
0207474905999992000012402304+42900+143170FM-15+0084RJCT V0201701N000510009019N0012001N1-00601-00801999999ADDGA1021+000609999GA2071+000909999GF107991999999999999999999MA1101191999999MW1101REMMET081RJCT 240230Z 17001KT 1200 BR SCT002 BKN003 M06/M08 Q1012 RMK 3ST002 6ST003 A2989;EQDQ01+000003PRSWM1Q02    003PRSWM1
0207474905999992000012402394+42900+143170FM-16+0084RJCT V0202201N000510012019N0016001N1-00601-00701999999ADDGA1021+000609999GA2071+001209999GF107991999999999999999999MA1101191999999MW1101REMMET081RJCT 240239Z 22001KT 1600 BR FEW002 BKN004 M06/M07 Q1012 RMK 2ST002 5ST004 A2989;EQDQ01+000003PRSWM1Q02    003PRSWM1
0230474905999992000012403004+42900+143170FM-15+0084RJCT V0202801N001512200019N0022001N1-00501-00701999999ADDGA1021+000909999GA2021+009009999GF104991999999999999999999MA1101081999999MW1101REMMET104RJCT 0300Z 28003KT 2200 BR FEW003 SCT030 M05/M07 Q1011 RMK 1ST003 3CU030 A2988 FCST 0312 BECMG 0405 NSW;EQDQ01+000003PRSWM1Q02    003PRSWM1
0205474905999992000012404004+42900+143170FM-15+0084RJCT V0200901N000510075019N0025001N1-00501-00701999999ADDGA1021+004509999GA2071+007509999GF107991999999999999999999MA1101021999999MW1101REMMET079RJCT 0400Z 09001KT 2500 BR FEW015 BKN025 M05/M07 Q1010 RMK 1ST015 6CU025 A2983;EQDQ01+000003PRSWM1Q02    003PRSWM1
0205474905999992000012405004+42900+143170FM-15+0084RJCT V02099999999990090019N0030001N1-00401-00701999999ADDGA1021+004509999GA2071+009009999GF107991999999999999999999MA1100911999999MW1101REMMET079RJCT 0500Z VRB01KT 3000 BR FEW015 BKN030 M04/M07 Q1009 RMK 2ST015 6CU030 A2981;EQDQ01+000003PRSWM1Q02    003PRSWM1
0248474905999992000012406004+42900+143170FM-15+0084RJCT V02099999999990090019N0030001N1-00401-00601999999ADDGA1021+006009999GA2071+009009999GF107991999999999999999999MA1100911999999MW1101REMMET122RJCT 0600Z VRB03KT 3000 BR FEW020 BKN030 M04/M06 Q1009 RMK 2CU020 7CU030 A2980 FCST 0615 BECMG 0810 NSW FEW015ST SCT025CU;EQDQ01+000003PRSWM1Q02    003PRSWM1
0229474905999992000012406364+42900+143170FM-16+0084RJCT V02099999999990090019N0030001N1-00401-00701999999ADDGA1021+006009999GA2081+009009999GF108991999999999999999999MA1100911999999MW1851REMMET087RJCT 240636Z VRB03KT 3000 -SHSN BR FEW020 OVC030 M04/M07 Q1009 RMK 2CU020 8CU030 A2979;EQDQ01+000100PRSWM3Q02+000003PRSWM1Q03    003PRSWM1
0186474905999992000012407004+42900+143170FM-15+0084RJCT V02099999999990090019N0060001N1-00401-00701999999ADDGA1021+006009999GA2081+009009999GF108991999999999999999999MA1100911999999MW1001REMMET076RJCT 0700Z VRB02KT 6000 SCT020 OVC030 M04/M07 Q1009 RMK 4SC020 8CU030 A2980;EQDQ01+000000PRSWM2
0232474905999992000012408004+42900+143170FM-15+0084RJCT V0203101N005110600019N0112651N1-00501-01101999999ADDGA1021+006009999GA2021+009009999GA3071+060009999GF107991999999999999999999MA1100911999999MW1001REMMET106RJCT 0800Z 31010KT 9999 FEW020 SCT030 BKN200 M05/M11 Q1009 RMK 1SC020 4CU030 7CI200 A2980 FCST 0817 NOSIG;EQDQ01+000000PRSWM2
0172474905999992000012423004+42900+143170FM-15+0084RJCT V0202101N001012200019N0112651N1-01801-02401999999ADDGA1021+009009999GF102991999999999999999999MA1101191999999MW1001REMMET078RJCT 2300Z 21002KT 9999 FEW030 M18/M24 Q1012 RMK 2CU030 A2990 FCST 2308 NOSIG;EQDQ01+000000PRSWM2
0172474905999992000012500004+42900+143170FM-15+0084RJCT V0201401N000512200019N0112651N1-01301-01901999999ADDGA1021+009009999GF102991999999999999999999MA1101191999999MW1001REMMET078RJCT 0000Z 14001KT 9999 FEW030 M13/M19 Q1012 RMK 1CU030 A2991 FCST 0009 NOSIG;EQDQ01+000000PRSWM2
0156474905999992000012501004+42900+143170FM-15+0084RJCT V0200901N002112200019N0112651N1-01101-01901999999ADDGA1021+009009999GF102991999999999999999999MA1101191999999MW1001REMMET062RJCT 0100Z 09004KT 9999 FEW030 M11/M19 Q1012 RMK 1CU030 A2988;EQDQ01+000000PRSWM2
0156474905999992000012502004+42900+143170FM-15+0084RJCT V0202001N001012200019N0112651N1-00901-01801999999ADDGA1021+009009999GF102991999999999999999999MA1101081999999MW1001REMMET062RJCT 0200Z 20002KT 9999 FEW030 M09/M18 Q1011 RMK 2CU030 A2986;EQDQ01+000000PRSWM2
0172474905999992000012503004+42900+143170FM-15+0084RJCT V0202201N000512200019N0112651N1-00801-01701999999ADDGA1021+009009999GF102991999999999999999999MA1101021999999MW1001REMMET078RJCT 0300Z 22001KT 9999 FEW030 M08/M17 Q1010 RMK 2CU030 A2984 FCST 0312 NOSIG;EQDQ01+000000PRSWM2
0156474905999992000012504004+42900+143170FM-15+0084RJCT V0202501N003612200019N0112651N1-00701-01901999999ADDGA1021+009009999GF102991999999999999999999MA1100911999999MW1001REMMET062RJCT 0400Z 25007KT 9999 FEW030 M07/M19 Q1009 RMK 2CU030 A2980;EQDQ01+000000PRSWM2
0197474905999992000012505004+42900+143170FM-15+0084RJCT V0202801N006212200019N0112651N1-00701-01901999999ADDGA1021+006009999GA2021+009009999GF104991999999999999999999MA1100911999999MW1001OC101131REMMET079RJCT 0500Z 28012G22KT 9999 FEW020 SCT030 M07/M19 Q1009 RMK 1CU020 3CU030 A2980;EQDQ01+000000PRSWM2
0172474905999992000012506004+42900+143170FM-15+0084RJCT V0202601N003612200019N0112651N1-00701-02001999999ADDGA1021+006009999GF102991999999999999999999MA1100911999999MW1001REMMET078RJCT 0600Z 26007KT 9999 FEW020 M07/M20 Q1009 RMK 2CU020 A2981 FCST 0615 NOSIG;EQDQ01+000000PRSWM2
0170474905999992000012509004+42900+143170FM-15+0084RJCT V0203101N003112200019N0112651N1-01101-01701999999ADDGA1021+007509099GF102991999999999999999999MA1101081999999MW1001REMMET076RJCT 0900Z 31006KT 9999 FEW025CB M11/M17 Q1011 RMK 1CB025 A2986 CB W-N STNR;EQDQ01+000000PRSWM2
0156474905999992000012522004+42900+143170FM-15+0084RJCT V02099999999992200019N0112651N1-02801-03401999999ADDGA1021+009009999GF102991999999999999999999MA1101491999999MW1001REMMET062RJCT 2200Z VRB01KT 9999 FEW030 M28/M34 Q1015 RMK 2CU030 A2998;EQDQ01+000000PRSWM2
0172474905999992000012523004+42900+143170FM-15+0084RJCT V02099999999992200019N0112651N1-02601-03201999999ADDGA1021+009009999GF102991999999999999999999MA1101491999999MW1001REMMET078RJCT 2300Z VRB03KT 9999 FEW030 M26/M32 Q1015 RMK 1CU030 A2999 FCST 2308 NOSIG;EQDQ01+000000PRSWM2
0156474905999992000012602004+42900+143170FM-15+0084RJCT V0201901N000512200019N0112651N1-01401-02301999999ADDGA1021+009009999GF102991999999999999999999MA1101491999999MW1001REMMET062RJCT 0200Z 19001KT 9999 FEW030 M14/M23 Q1015 RMK 1CU030 A2999;EQDQ01+000000PRSWM2
0172474905999992000012603004+42900+143170FM-15+0084RJCT V0202201N002112200019N0112651N1-01201-02101999999ADDGA1021+007509999GF102991999999999999999999MA1101491999999MW1001REMMET078RJCT 0300Z 22004KT 9999 FEW025 M12/M21 Q1015 RMK 1CU025 A2998 FCST 0312 NOSIG;EQDQ01+000000PRSWM2
0156474905999992000012604004+42900+143170FM-15+0084RJCT V0202601N001512200019N0112651N1-01101-02001999999ADDGA1021+007509999GF102991999999999999999999MA1101391999999MW1001REMMET062RJCT 0400Z 26003KT 9999 FEW025 M11/M20 Q1014 RMK 1CU025 A2996;EQDQ01+000000PRSWM2
0156474905999992000012605004+42900+143170FM-15+0084RJCT V0202301N001512200019N0112651N1-01001-02001999999ADDGA1021+007509999GF102991999999999999999999MA1101491999999MW1001REMMET062RJCT 0500Z 23003KT 9999 FEW025 M10/M20 Q1015 RMK 1CU025 A2997;EQDQ01+000000PRSWM2
0172474905999992000012606004+42900+143170FM-15+0084RJCT V0202201N001012200019N0112651N1-01201-02101999999ADDGA1021+007509999GF102991999999999999999999MA1101491999999MW1001REMMET078RJCT 0600Z 22002KT 9999 FEW025 M12/M21 Q1015 RMK 1CU025 A2998 FCST 0615 NOSIG;EQDQ01+000000PRSWM2
0156474905999992000012607004+42900+143170FM-15+0084RJCT V0202501N001512200019N0112651N1-01201-02101999999ADDGA1021+007509999GF102991999999999999999999MA1101591999999MW1001REMMET062RJCT 0700Z 25003KT 9999 FEW025 M12/M21 Q1016 RMK 1CU025 A3000;EQDQ01+000000PRSWM2
0172474905999992000012608004+42900+143170FM-15+0084RJCT V0209999C000012200019N0112651N1-01701-02301999999ADDGA1021+009009999GF102991999999999999999999MA1101591999999MW1001REMMET078RJCT 0800Z 00000KT 9999 FEW030 M17/M23 Q1016 RMK 1CU030 A3001 FCST 0817 NOSIG;EQDQ01+000000PRSWM2
0156474905999992000012621004+42900+143170FM-15+0084RJCT V0200701N000512200019N0112651N1-02901-03501999999ADDGA1021+007509999GF102991999999999999999999MA1101901999999MW1001REMMET062RJCT 2100Z 07001KT 9999 FEW025 M29/M35 Q1019 RMK 1CU025 A3010;EQDQ01+000000PRSWM2
0156474905999992000012622004+42900+143170FM-15+0084RJCT V0203301N000512200019N0112651N1-03001-03601999999ADDGA1021+000909999GF102991999999999999999999MA1101901999999MW1001REMMET062RJCT 2200Z 33001KT 9999 FEW003 M30/M36 Q1019 RMK 1ST003 A3011;EQDQ01+000000PRSWM2
0172474905999992000012623004+42900+143170FM-15+0084RJCT V0201901N000512200019N0112651N1-02601-03201999999ADDGA1021+009009999GF102991999999999999999999MA1101901999999MW1001REMMET078RJCT 2300Z 19001KT 9999 FEW030 M26/M32 Q1019 RMK 1CU030 A3011 FCST 2308 NOSIG;EQDQ01+000000PRSWM2
0200474905999992000012700004+42900+143170FM-15+0084RJCT V0203101N000512200019N0050001N1-02201-02701999999ADDGA1021+009009999GF102991999999999999999999MA1102001999999MW1101REMMET090RJCT 0000Z 31001KT 5000 BR FEW030 M22/M27 Q1020 RMK 1CU030 A3013 FCST 0009 BECMG 0001 NSW;EQDQ01+000003PRSWM1Q02    003PRSWM1
0172474905999992000012701004+42900+143170FM-15+0084RJCT V0202801N001012200019N9999999N1-01901-02501999999ADDGA1021+009009999GF102991999999999999999999MA1101901999999MW1001REMMET062RJCT 0100Z 28002KT 7000 FEW030 M19/M25 Q1019 RMK 1CU030 A3011;EQDQ01+070002VODIS Q02+000000PRSWM2
0156474905999992000012702004+42900+143170FM-15+0084RJCT V0202401N000512200019N0080001N1-01601-02301999999ADDGA1021+009009999GF102991999999999999999999MA1101901999999MW1001REMMET062RJCT 0200Z 24001KT 8000 FEW030 M16/M23 Q1019 RMK 1CU030 A3009;EQDQ01+000000PRSWM2
0172474905999992000012703004+42900+143170FM-15+0084RJCT V0201601N000512200019N0080001N1-01301-02201999999ADDGA1021+009009999GF102991999999999999999999MA1101691999999MW1001REMMET078RJCT 0300Z 16001KT 8000 FEW030 M13/M22 Q1017 RMK 1CU030 A3005 FCST 0312 NOSIG;EQDQ01+000000PRSWM2
0130474905999992000012704004+42900+143170FM-15+0084RJCT V0202401N001012200019N0080001N1-01201-02001999999ADDGF100991999999999999999999MA1101691999999MW1001REMMET052RJCT 0400Z 24002KT 8000 SKC M12/M20 Q1017 RMK A3003;EQDQ01+000000PRSWM2
0156474905999992000012705004+42900+143170FM-15+0084RJCT V0202501N001012200019N0112651N1-01001-02101999999ADDGA1021+009009999GF102991999999999999999999MA1101591999999MW1001REMMET062RJCT 0500Z 25002KT 9999 FEW030 M10/M21 Q1016 RMK 1CU030 A3002;EQDQ01+000000PRSWM2
0156474905999992000012707004+42900+143170FM-15+0084RJCT V0202701N000512200019N0112651N1-01101-02101999999ADDGA1021+009009999GF102991999999999999999999MA1101591999999MW1001REMMET062RJCT 0700Z 27001KT 9999 FEW030 M11/M21 Q1016 RMK 1CU030 A3002;EQDQ01+000000PRSWM2
0172474905999992000012708004+42900+143170FM-15+0084RJCT V0203501N001012200019N0112651N1-01401-02201999999ADDGA1021+009009999GF102991999999999999999999MA1101691999999MW1001REMMET078RJCT 0800Z 35002KT 9999 FEW030 M14/M22 Q1017 RMK 1CU030 A3004 FCST 0817 NOSIG;EQDQ01+000000PRSWM2
0156474905999992000012715004+42900+143170FM-15+0084RJCT V0201801N001012200019N0112651N1-02501-03001999999ADDGA1021+004509999GF102991999999999999999999MA1101691999999MW1001REMMET062RJCT 1500Z 18002KT 9999 FEW015 M25/M30 Q1017 RMK 1ST015 A3005;EQDQ01+000000PRSWM2
0200474905999992000012800004+42900+143170FM-15+0084RJCT V0209999C000012200019N0050001N1-01901-02401999999ADDGA1021+009009999GF102991999999999999999999MA1102001999999MW1101REMMET090RJCT 0000Z 00000KT 5000 BR FEW030 M19/M24 Q1020 RMK 1CU030 A3014 FCST 0009 BECMG 0001 NSW;EQDQ01+000003PRSWM1Q02    003PRSWM1
0172474905999992000012801004+42900+143170FM-15+0084RJCT V0202801N001012200019N9999999N1-01501-02101999999ADDGA1021+009009999GF102991999999999999999999MA1102001999999MW1001REMMET062RJCT 0100Z 28002KT 6000 FEW030 M15/M21 Q1020 RMK 1CU030 A3014;EQDQ01+060002VODIS Q02+000000PRSWM2
0172474905999992000012802004+42900+143170FM-15+0084RJCT V0202901N001012200019N0112651N1-01101-01901999999ADDGA1021+009009999GF102991999999999999999999MA1102001999999MW1001REMMET062RJCT 0200Z 29002KT 7000 FEW030 M11/M19 Q1020 RMK 1CU030 A3013;EQDQ01+070002VODIS Q02+000000PRSWM2
0172474905999992000012803004+42900+143170FM-15+0084RJCT V0202501N000512200019N0112651N1-00901-01801999999ADDGA1021+009009999GF102991999999999999999999MA1102001999999MW1001REMMET078RJCT 0300Z 25001KT 9999 FEW030 M09/M18 Q1020 RMK 1CU030 A3012 FCST 0312 NOSIG;EQDQ01+000000PRSWM2
0156474905999992000012804004+42900+143170FM-15+0084RJCT V0202601N001012200019N0112651N1-00801-01701999999ADDGA1021+009009999GF102991999999999999999999MA1101901999999MW1001REMMET062RJCT 0400Z 26002KT 9999 FEW030 M08/M17 Q1019 RMK 1CU030 A3011;EQDQ01+000000PRSWM2
0156474905999992000012805004+42900+143170FM-15+0084RJCT V0202201N002612200019N0112651N1-00601-01401999999ADDGA1021+009009999GF102991999999999999999999MA1102001999999MW1001REMMET062RJCT 0500Z 22005KT 9999 FEW030 M06/M14 Q1020 RMK 1CU030 A3012;EQDQ01+000000PRSWM2
0172474905999992000012806004+42900+143170FM-15+0084RJCT V0201501N001512200019N0112651N1-00501-01401999999ADDGA1021+009009999GF102991999999999999999999MA1102001999999MW1001REMMET078RJCT 0600Z 15003KT 9999 FEW030 M05/M14 Q1020 RMK 1CU030 A3013 FCST 0615 NOSIG;EQDQ01+000000PRSWM2
0156474905999992000012807004+42900+143170FM-15+0084RJCT V0201401N001512200019N0112651N1-00601-01401999999ADDGA1021+009009999GF102991999999999999999999MA1102101999999MW1001REMMET062RJCT 0700Z 14003KT 9999 FEW030 M06/M14 Q1021 RMK 1CU030 A3016;EQDQ01+000000PRSWM2
0172474905999992000012808004+42900+143170FM-15+0084RJCT V02099999999992200019N0112651N1-00901-01501999999ADDGA1021+009009999GF102991999999999999999999MA1102201999999MW1001REMMET078RJCT 0800Z VRB02KT 9999 FEW030 M09/M15 Q1022 RMK 1CU030 A3019 FCST 0817 NOSIG;EQDQ01+000000PRSWM2
0186474905999992000013022004+42900+143170FM-15+0084RJCT V0203301N001510240019N0112651N1-01101-01601999999ADDGA1021+009009999GA2071+024009999GF107991999999999999999999MA1101391999999MW1001REMMET076RJCT 2200Z 33003KT 9999 FEW030 BKN080 M11/M16 Q1014 RMK 1SC030 6AC080 A2997;EQDQ01+000000PRSWM2
0218474905999992000013023004+42900+143170FM-15+0084RJCT V0203201N001012200019N0112651N1-01101-01501999999ADDGA1021+009009999GA2021+024009999GF104991999999999999999999MA1101491999999MW1001REMMET108RJCT 2300Z 32002KT 9999 FEW030 SCT080 M11/M15 Q1015 RMK 1SC030 3AC080 A2999 FCST 2308 TEMPO 0308 33012G22KT;EQDQ01+000000PRSWM2
0188474905999992000013100004+42900+143170FM-15+0084RJCT V0200301N002112200019N0112651N1-01101-01601999999ADDGA1021+021009999GF102991999999999999999999MA1101591999999MW1001REMMET094RJCT 0000Z 03004KT 9999 FEW070 M11/M16 Q1016 RMK 1AC070 A3000 FCST 0009 TEMPO 0308 33012G22KT;EQDQ01+000000PRSWM2
0156474905999992000013101004+42900+143170FM-15+0084RJCT V0200501N001012200019N0112651N1-00901-01601999999ADDGA1021+024009999GF102991999999999999999999MA1101591999999MW1001REMMET062RJCT 0100Z 05002KT 9999 FEW080 M09/M16 Q1016 RMK 1AC080 A3001;EQDQ01+000000PRSWM2
0156474905999992000013102004+42900+143170FM-15+0084RJCT V0200201N001012200019N0112651N1-00801-01601999999ADDGA1021+036009999GF102991999999999999999999MA1101491999999MW1001REMMET062RJCT 0200Z 02002KT 9999 FEW120 M08/M16 Q1015 RMK 1AC120 A2999;EQDQ01+000000PRSWM2
0162474905999992000013103004+42900+143170FM-15+0084RJCT V0200401N002112200019N0112651N1-00701-01601999999ADDGF100991999999999999999999MA1101491999999MW1001REMMET084RJCT 0300Z 04004KT 9999 SKC M07/M16 Q1015 RMK A2998 FCST 0312 TEMPO 0508 33012G22KT;EQDQ01+000000PRSWM2
0130474905999992000013104004+42900+143170FM-15+0084RJCT V0203001N005112200019N0112651N1-00601-01801999999ADDGF100991999999999999999999MA1101491999999MW1001REMMET052RJCT 0400Z 30010KT 9999 SKC M06/M18 Q1015 RMK A2997;EQDQ01+000000PRSWM2
0167474905999992000013105004+42900+143170FM-15+0084RJCT V0202901N007712200019N0112651N1-00601-01901999999ADDGA1021+007509999GF102991999999999999999999MA1101391999999MW1001OC101291REMMET065RJCT 0500Z 29015G25KT 9999 FEW025 M06/M19 Q1014 RMK 1CU025 A2996;EQDQ01+000000PRSWM2
0196474905999992000013106004+42900+143170FM-15+0084RJCT V0203101N006712200019N0112651N1-00601-01701999999ADDGA1021+007509999GF102991999999999999999999MA1101391999999MW1001OC101231REMMET094RJCT 0600Z 31013G24KT 9999 FEW025 M06/M17 Q1014 RMK 1CU025 A2996 FCST 0615 BECMG 0910 33008KT;EQDQ01+000000PRSWM2
0156474905999992000013107004+42900+143170FM-15+0084RJCT V0203001N007712200019N0112651N1-00701-01601999999ADDGA1021+007509999GF102991999999999999999999MA1101491999999MW1001REMMET062RJCT 0700Z 30015KT 9999 FEW025 M07/M16 Q1015 RMK 1CU025 A2998;EQDQ01+000000PRSWM2
0172474905999992000013108004+42900+143170FM-15+0084RJCT V0203101N005712200019N0112651N1-00701-01601999999ADDGA1021+007509999GF102991999999999999999999MA1101491999999MW1001REMMET078RJCT 0800Z 31011KT 9999 FEW025 M07/M16 Q1015 RMK 1CU025 A2998 FCST 0817 NOSIG;EQDQ01+000000PRSWM2
0156474905999992000013122004+42900+143170FM-15+0084RJCT V0201801N002112200019N0112651N1-01801-02301999999ADDGA1021+009009999GF102991999999999999999999MA1101191999999MW1001REMMET062RJCT 2200Z 18004KT 9999 FEW030 M18/M23 Q1012 RMK 1CU030 A2990;EQDQ01+000000PRSWM2
0188474905999992000013123004+42900+143170FM-15+0084RJCT V0202101N002112200019N0112651N1-01501-02101999999ADDGA1021+009009999GF102991999999999999999999MA1101291999999MW1001REMMET094RJCT 2300Z 21004KT 9999 FEW030 M15/M21 Q1013 RMK 1CU030 A2991 FCST 2308 TEMPO 0407 31010G20KT;EQDQ01+000000PRSWM2
0188474905999992000020100004+42900+143170FM-15+0084RJCT V0201701N002612200019N0112651N1-00901-01801999999ADDGA1021+009009999GF102991999999999999999999MA1101191999999MW1001REMMET094RJCT 0000Z 17005KT 9999 FEW030 M09/M18 Q1012 RMK 1CU030 A2991 FCST 0009 TEMPO 0407 31010G20KT;EQDQ01+000000PRSWM2
0156474905999992000020101004+42900+143170FM-15+0084RJCT V0201701N002612200019N0112651N1-00401-01401999999ADDGA1021+009009999GF102991999999999999999999MA1101191999999MW1001REMMET062RJCT 0100Z 17005KT 9999 FEW030 M04/M14 Q1012 RMK 1CU030 A2988;EQDQ01+000000PRSWM2
0156474905999992000020102004+42900+143170FM-15+0084RJCT V0201801N004112200019N0112651N1-00201-01201999999ADDGA1021+009009999GF102991999999999999999999MA1101081999999MW1001REMMET062RJCT 0200Z 18008KT 9999 FEW030 M02/M12 Q1011 RMK 1CU030 A2987;EQDQ01+000000PRSWM2
0187474905999992000020103004+42900+143170FM-15+0084RJCT V0202001N002112200019N0112651N1+00101-01101999999ADDGA1021+009009999GF102991999999999999999999MA1101021999999MW1001REMMET093RJCT 0300Z 20004KT 9999 FEW030 01/M11 Q1010 RMK 1CU030 A2984 FCST 0312 TEMPO 0407 31010G20KT;EQDQ01+000000PRSWM2
0166474905999992000020104004+42900+143170FM-15+0084RJCT V0203101N003112200019N0112651N1+00201-00901999999ADDGA1021+007509999GF102991999999999999999999MA1100911999999MW1001OC100821REMMET064RJCT 0400Z 31006G16KT 9999 FEW025 02/M09 Q1009 RMK 1CU025 A2981;EQDQ01+000000PRSWM2
0155474905999992000020105004+42900+143170FM-15+0084RJCT V0203001N001512200019N0112651N1+00201-00801999999ADDGA1021+007509999GF102991999999999999999999MA1100911999999MW1001REMMET061RJCT 0500Z 30003KT 9999 FEW025 02/M08 Q1009 RMK 1CU025 A2980;EQDQ01+000000PRSWM2
0195474905999992000020106004+42900+143170FM-15+0084RJCT V0203201N006712200019N0112651N1+00101-00801999999ADDGA1021+007509999GF102991999999999999999999MA1100911999999MW1001OC101341REMMET093RJCT 0600Z 32013G26KT 9999 FEW025 01/M08 Q1009 RMK 1CU025 A2979 FCST 0615 BECMG 0910 32008KT;EQDQ01+000000PRSWM2
0155474905999992000020107004+42900+143170FM-15+0084RJCT V0203201N006212200019N0112651N1+00001-00701999999ADDGA1021+007509999GF102991999999999999999999MA1100911999999MW1001REMMET061RJCT 0700Z 32012KT 9999 FEW025 00/M07 Q1009 RMK 1CU025 A2981;EQDQ01+000000PRSWM2
0196474905999992000020108004+42900+143170FM-15+0084RJCT V0203301N006212200019N0112651N1-00101-00701999999ADDGA1021+007509999GF102991999999999999999999MA1101021999999MW1001OC101131REMMET094RJCT 0800Z 33012G22KT 9999 FEW025 M01/M07 Q1010 RMK 1CU025 A2983 FCST 0817 BECMG 0910 32008KT;EQDQ01+000000PRSWM2
0167474905999992000020109004+42900+143170FM-15+0084RJCT V0203401N005712200019N0112651N1-00101-00901999999ADDGA1021+007509999GF102991999999999999999999MA1101081999999MW1001OC101131REMMET065RJCT 0900Z 34011G22KT 9999 FEW025 M01/M09 Q1011 RMK 1CU025 A2986;EQDQ01+000000PRSWM2
0186474905999992000020123004+42900+143170FM-15+0084RJCT V0203001N001012200019N0112651N1-01401-01601999999ADDGA1021+006009999GF104991999999999999999999MA1101591999999MW1001REMMET092RJCT 2300Z 30002KT 9999 SCT020 M14/M16 Q1016 RMK 4SC020 A3002 FCST 2308 TEMPO 2301 BKN020CU;EQDQ01+000000PRSWM2
0172474905999992000020200004+42900+143170FM-15+0084RJCT V0202601N001012200019N0112651N1-01101-01301999999ADDGA1021+006009999GF102991999999999999999999MA1101691999999MW1001REMMET078RJCT 0000Z 26002KT 9999 FEW020 M11/M13 Q1017 RMK 1SC020 A3003 FCST 0009 NOSIG;EQDQ01+000000PRSWM2
0156474905999992000020201004+42900+143170FM-15+0084RJCT V0203201N000512200019N0112651N1-00701-01201999999ADDGA1021+007509999GF102991999999999999999999MA1101691999999MW1001REMMET062RJCT 0100Z 32001KT 9999 FEW025 M07/M12 Q1017 RMK 1CU025 A3003;EQDQ01+000000PRSWM2
0156474905999992000020202004+42900+143170FM-15+0084RJCT V02099999999992200019N0112651N1-00601-01101999999ADDGA1021+009009999GF102991999999999999999999MA1101591999999MW1001REMMET062RJCT 0200Z VRB01KT 9999 FEW030 M06/M11 Q1016 RMK 1CU030 A3002;EQDQ01+000000PRSWM2
0172474905999992000020203004+42900+143170FM-15+0084RJCT V0209999C000012200019N0112651N1-00501-01101999999ADDGA1021+009009999GF102991999999999999999999MA1101591999999MW1001REMMET078RJCT 0300Z 00000KT 9999 FEW030 M05/M11 Q1016 RMK 1CU030 A3000 FCST 0312 NOSIG;EQDQ01+000000PRSWM2
0156474905999992000020204004+42900+143170FM-15+0084RJCT V0200601N001012200019N0112651N1-00301-01001999999ADDGA1021+010509999GF102991999999999999999999MA1101491999999MW1001REMMET062RJCT 0400Z 06002KT 9999 FEW035 M03/M10 Q1015 RMK 1CU035 A2999;EQDQ01+000000PRSWM2
0156474905999992000020205004+42900+143170FM-15+0084RJCT V0201601N001012200019N0112651N1-00301-01101999999ADDGA1021+010509999GF102991999999999999999999MA1101491999999MW1001REMMET062RJCT 0500Z 16002KT 9999 FEW035 M03/M11 Q1015 RMK 1CU035 A2998;EQDQ01+000000PRSWM2
0172474905999992000020206004+42900+143170FM-15+0084RJCT V0202301N002612200019N0112651N1-00301-01001999999ADDGA1021+009009999GF102991999999999999999999MA1101491999999MW1001REMMET078RJCT 0600Z 23005KT 9999 FEW030 M03/M10 Q1015 RMK 1CU030 A2999 FCST 0615 NOSIG;EQDQ01+000000PRSWM2
0156474905999992000020207004+42900+143170FM-15+0084RJCT V0202601N003112200019N0112651N1-00301-01101999999ADDGA1021+010509999GF102991999999999999999999MA1101591999999MW1001REMMET062RJCT 0700Z 26006KT 9999 FEW035 M03/M11 Q1016 RMK 1CU035 A3000;EQDQ01+000000PRSWM2
0172474905999992000020208004+42900+143170FM-15+0084RJCT V0203101N006212200019N0112651N1-00201-01001999999ADDGA1021+010509999GF102991999999999999999999MA1101591999999MW1001REMMET078RJCT 0800Z 31012KT 9999 FEW035 M02/M10 Q1016 RMK 1CU035 A3000 FCST 0817 NOSIG;EQDQ01+000000PRSWM2
0177474905999992000020221424+42900+143170FM-16+0084RJCT V0202401N001012200019N0005001N1-02201-02701999999ADDGA1021+000309999GF102991999999999999999999MA1102001999999MW1441REMMET067RJCT 022142Z 24002KT 0500 FG FEW001 M22/M27 Q1020 RMK 1ST001 A3013;EQDQ01+000003PRSWM1Q02    003PRSWM1
0175474905999992000020222004+42900+143170FM-15+0084RJCT V0202601N001012200019N0009001N1-02101-02701999999ADDGA1021+000309999GF102991999999999999999999MA1102001999999MW1441REMMET065RJCT 2200Z 26002KT 0900 FG FEW001 M21/M27 Q1020 RMK 2ST001 A3014;EQDQ01+000003PRSWM1Q02    003PRSWM1
0179474905999992000020222074+42900+143170FM-16+0084RJCT V0202801N001012200019N0017001N1-02101-02601999999ADDGA1021+010509999GF102991999999999999999999MA1102001999999MW1411REMMET069RJCT 022207Z 28002KT 1700 BCFG FEW035 M21/M26 Q1020 RMK 1SC035 A3014;EQDQ01+000003PRSWM1Q02    003PRSWM1
0158474905999992000020222324+42900+143170FM-16+0084RJCT V0202701N001512200019N0112651N1-02001-02501999999ADDGA1021+010509999GF102991999999999999999999MA1102001999999MW1001REMMET064RJCT 022232Z 27003KT 9999 FEW035 M20/M25 Q1020 RMK 1SC035 A3014;EQDQ01+000000PRSWM2
0172474905999992000020223004+42900+143170FM-15+0084RJCT V0203001N001012200019N0112651N1-01801-02201999999ADDGA1021+010509999GF102991999999999999999999MA1102101999999MW1001REMMET078RJCT 2300Z 30002KT 9999 FEW035 M18/M22 Q1021 RMK 1SC035 A3015 FCST 2308 NOSIG;EQDQ01+000000PRSWM2
0152474905999992000020300004+42900+143170FM-15+0084RJCT V0202701N000512200019N0060001N1-01501-01801999999ADDGF100991999999999999999999MA1102101999999MW1001REMMET074RJCT 0000Z 27001KT 6000 SKC M15/M18 Q1021 RMK A3015 2500E FCST 0009 NOSIG;EQDQ01+000000PRSWM2
0156474905999992000020301004+42900+143170FM-15+0084RJCT V0202801N000512200019N0112651N1-01201-01601999999ADDGA1021+009009999GF102991999999999999999999MA1102001999999MW1001REMMET062RJCT 0100Z 28001KT 9999 FEW030 M12/M16 Q1020 RMK 1CU030 A3014;EQDQ01+000000PRSWM2
0156474905999992000020302004+42900+143170FM-15+0084RJCT V0209999C000012200019N0112651N1-00801-01401999999ADDGA1021+009009999GF102991999999999999999999MA1102001999999MW1001REMMET062RJCT 0200Z 00000KT 9999 FEW030 M08/M14 Q1020 RMK 1CU030 A3012;EQDQ01+000000PRSWM2
0172474905999992000020303004+42900+143170FM-15+0084RJCT V0201401N000512200019N0112651N1-00601-01301999999ADDGA1021+009009999GF102991999999999999999999MA1101801999999MW1001REMMET078RJCT 0300Z 14001KT 9999 FEW030 M06/M13 Q1018 RMK 1CU030 A3008 FCST 0312 NOSIG;EQDQ01+000000PRSWM2
0156474905999992000020304004+42900+143170FM-15+0084RJCT V02099999999992200019N0112651N1-00501-01201999999ADDGA1021+010509999GF102991999999999999999999MA1101691999999MW1001REMMET062RJCT 0400Z VRB02KT 9999 FEW035 M05/M12 Q1017 RMK 1CU035 A3005;EQDQ01+000000PRSWM2
0156474905999992000020305004+42900+143170FM-15+0084RJCT V0209999C000012200019N0112651N1-00401-01201999999ADDGA1021+010509999GF102991999999999999999999MA1101591999999MW1001REMMET062RJCT 0500Z 00000KT 9999 FEW035 M04/M12 Q1016 RMK 1CU035 A3002;EQDQ01+000000PRSWM2
0172474905999992000020306004+42900+143170FM-15+0084RJCT V0202201N001512200019N0112651N1-00401-01201999999ADDGA1021+009009999GF102991999999999999999999MA1101591999999MW1001REMMET078RJCT 0600Z 22003KT 9999 FEW030 M04/M12 Q1016 RMK 1CU030 A3002 FCST 0615 NOSIG;EQDQ01+000000PRSWM2
0156474905999992000020307004+42900+143170FM-15+0084RJCT V0209999C000012200019N0112651N1-00501-01201999999ADDGA1021+009009999GF102991999999999999999999MA1101591999999MW1001REMMET062RJCT 0700Z 00000KT 9999 FEW030 M05/M12 Q1016 RMK 1CU030 A3002;EQDQ01+000000PRSWM2
0172474905999992000020308004+42900+143170FM-15+0084RJCT V0200301N000512200019N0112651N1-00801-01301999999ADDGA1021+009009999GF102991999999999999999999MA1101591999999MW1001REMMET078RJCT 0800Z 03001KT 9999 FEW030 M08/M13 Q1016 RMK 1CU030 A3002 FCST 0817 NOSIG;EQDQ01+000000PRSWM2
0216474905999992000020322004+42900+143170FM-15+0084RJCT V0202701N002110120019N0060001N1-01701-02001999999ADDGA1021+009009999GA2071+012009999GA3071+024009999GF107991999999999999999999MA1101591999999MW1001REMMET090RJCT 2200Z 27004KT 6000 SCT030 BKN040 BKN080 M17/M20 Q1016 RMK 3CU030 6CU040 6AC080 A3002;EQDQ01+000000PRSWM2
0255474905999992000020323004+42900+143170FM-15+0084RJCT V0200201N001010120019N0070001N1-01401-01801999999ADDGA1021+003009999GA2021+009009999GA3071+012009999GF107991999999999999999999MA1101691999999MW1001REMMET129RJCT 2300Z 02002KT 7000 FEW010 SCT030 BKN040 M14/M18 Q1017 RMK 1ST010 3CU030 5CU040 A3005 FCST 2308 BECMG 2300 FEW030CU SCT040CU;EQDQ01+000000PRSWM2
0230474905999992000020400004+42900+143170FM-15+0084RJCT V0200101N000512200019N0050001N1-01201-01401999999ADDGA1021+009009999GA2021+012009999GF104991999999999999999999MA1101801999999MW1101REMMET104RJCT 0000Z 01001KT 5000 BR FEW030 SCT040 M12/M14 Q1018 RMK 1CU030 3CU040 A3006 FCST 0009 BECMG 0001 NSW;EQDQ01+000003PRSWM1Q02    003PRSWM1
0172474905999992000020401004+42900+143170FM-15+0084RJCT V0209999C000012200019N9999999N1-00601-01201999999ADDGA1021+009009999GF102991999999999999999999MA1101801999999MW1001REMMET062RJCT 0100Z 00000KT 6000 FEW030 M06/M12 Q1018 RMK 1CU030 A3007;EQDQ01+060002VODIS Q02+000000PRSWM2
0202474905999992000020402004+42900+143170FM-15+0084RJCT V0202101N001010120019N0080001N1-00401-01001999999ADDGA1021+009009999GA2071+012009999GF107991999999999999999999MA1101801999999MW1001REMMET076RJCT 0200Z 21002KT 6000 FEW030 BKN040 M04/M10 Q1018 RMK 2CU030 5CU040 A3007;EQDQ01+060002VODIS Q02+000000PRSWM2
0204474905999992000020402224+42900+143170FM-16+0084RJCT V0203101N001012200019N0080001N1-00301-01001999999ADDGA1021+009009999GA2021+012009999GF104991999999999999999999MA1101801999999MW1001REMMET078RJCT 040222Z 31002KT 7000 FEW030 SCT040 M03/M10 Q1018 RMK 1CU030 3CU040 A3006;EQDQ01+070002VODIS Q02+000000PRSWM2
0172474905999992000020403004+42900+143170FM-15+0084RJCT V0202701N001512200019N0080001N1-00201-01001999999ADDGA1021+009009999GF102991999999999999999999MA1101691999999MW1001REMMET078RJCT 0300Z 27003KT 8000 FEW030 M02/M10 Q1017 RMK 1CU030 A3005 FCST 0312 NOSIG;EQDQ01+000000PRSWM2
0156474905999992000020404004+42900+143170FM-15+0084RJCT V0200901N000512200019N0090001N1-00201-01101999999ADDGA1021+010509999GF102991999999999999999999MA1101691999999MW1001REMMET062RJCT 0400Z 09001KT 9000 FEW035 M02/M11 Q1017 RMK 1CU035 A3004;EQDQ01+000000PRSWM2
0156474905999992000020405004+42900+143170FM-15+0084RJCT V0202201N002612200019N0112651N1-00201-01101999999ADDGA1021+010509999GF102991999999999999999999MA1101691999999MW1001REMMET062RJCT 0500Z 22005KT 9999 FEW035 M02/M11 Q1017 RMK 1CU035 A3005;EQDQ01+000000PRSWM2
0172474905999992000020406004+42900+143170FM-15+0084RJCT V0202201N002112200019N0112651N1-00201-01101999999ADDGA1021+010509999GF102991999999999999999999MA1101801999999MW1001REMMET078RJCT 0600Z 22004KT 9999 FEW035 M02/M11 Q1018 RMK 1CU035 A3006 FCST 0615 NOSIG;EQDQ01+000000PRSWM2
0156474905999992000020407004+42900+143170FM-15+0084RJCT V0202001N001512200019N0112651N1-00401-01201999999ADDGA1021+009009999GF102991999999999999999999MA1101801999999MW1001REMMET062RJCT 0700Z 20003KT 9999 FEW030 M04/M12 Q1018 RMK 1CU030 A3007;EQDQ01+000000PRSWM2
0172474905999992000020408004+42900+143170FM-15+0084RJCT V0202001N001012200019N0112651N1-00701-01201999999ADDGA1021+009009999GF102991999999999999999999MA1101801999999MW1001REMMET078RJCT 0800Z 20002KT 9999 FEW030 M07/M12 Q1018 RMK 1CU030 A3008 FCST 0817 NOSIG;EQDQ01+000000PRSWM2
0177474905999992000020423124+42900+143170FM-16+0084RJCT V02099999999992200019N0020001N1-01901-02301999999ADDGA1021+010509999GF102991999999999999999999MA1102101999999MW1101REMMET067RJCT 042312Z VRB01KT 2000 BR FEW035 M19/M23 Q1021 RMK 2SC035 A3015;EQDQ01+000003PRSWM1Q02    003PRSWM1
0175474905999992000020500004+42900+143170FM-15+0084RJCT V02099999999992200019N0050001N1-01601-02001999999ADDGA1021+012009999GF104991999999999999999999MA1102101999999MW1101REMMET065RJCT 0000Z VRB01KT 5000 BR SCT040 M16/M20 Q1021 RMK 3SC040 A3016;EQDQ01+000003PRSWM1Q02    003PRSWM1
0156474905999992000020501004+42900+143170FM-15+0084RJCT V0201901N000512200019N0080001N1-01301-01801999999ADDGA1021+012009999GF102991999999999999999999MA1102101999999MW1001REMMET062RJCT 0100Z 19001KT 8000 FEW040 M13/M18 Q1021 RMK 2CU040 A3016;EQDQ01+000000PRSWM2
0156474905999992000020502004+42900+143170FM-15+0084RJCT V0202801N001512200019N0080001N1-01001-01601999999ADDGA1021+010509999GF102991999999999999999999MA1102001999999MW1001REMMET062RJCT 0200Z 28003KT 8000 FEW035 M10/M16 Q1020 RMK 2CU035 A3013;EQDQ01+000000PRSWM2
0158474905999992000020503264+42900+143170FM-16+0084RJCT V0201001N000512200019N0112651N1-00601-01401999999ADDGA1021+010509999GF102991999999999999999999MA1101901999999MW1001REMMET064RJCT 050326Z 10001KT 9999 FEW035 M06/M14 Q1019 RMK 2CU035 A3010;EQDQ01+000000PRSWM2
0156474905999992000020504004+42900+143170FM-15+0084RJCT V0201201N000512200019N0112651N1-00601-01401999999ADDGA1021+012009999GF102991999999999999999999MA1101801999999MW1001REMMET062RJCT 0400Z 12001KT 9999 FEW040 M06/M14 Q1018 RMK 2CU040 A3008;EQDQ01+000000PRSWM2
0156474905999992000020505004+42900+143170FM-15+0084RJCT V0202501N000512200019N0112651N1-00501-01301999999ADDGA1021+012009999GF102991999999999999999999MA1101801999999MW1001REMMET062RJCT 0500Z 25001KT 9999 FEW040 M05/M13 Q1018 RMK 2CU040 A3007;EQDQ01+000000PRSWM2
0177474905999992000020522174+42900+143170FM-16+0084RJCT V0209999C000010003019N0020001N1-01701-02101999999ADDGA1071+000309999GF107991999999999999999999MA1101901999999MW1101REMMET067RJCT 052217Z 00000KT 2000 BR BKN001 M17/M21 Q1019 RMK 7ST001 A3011;EQDQ01+000003PRSWM1Q02    003PRSWM1
0218474905999992000020523004+42900+143170FM-15+0084RJCT V0202701N000510003019N0015001N1-01501-01801999999ADDGA1071+000309999GF107991999999999999999999MA1101901999999MW1101REMMET108RJCT 2300Z 27001KT 1500 BR BKN001 M15/M18 Q1019 RMK 7ST001 A3011 FCST 2308 BECMG 2300 NSW FEW001ST SCT040CU;EQDQ01+000003PRSWM1Q02    003PRSWM1
0177474905999992000020523304+42900+143170FM-15+0084RJCT V0209999C000010003019N0030001N1-01401-01601999999ADDGA1071+000309999GF107991999999999999999999MA1101901999999MW1101REMMET067RJCT 052330Z 00000KT 3000 BR BKN001 M14/M16 Q1019 RMK 6ST001 A3011;EQDQ01+000003PRSWM1Q02    003PRSWM1
0177474905999992000020523454+42900+143170FM-15+0084RJCT V0209999C000010006019N0015001N1-01301-01401999999ADDGA1071+000609999GF107991999999999999999999MA1101901999999MW1101REMMET067RJCT 052345Z 00000KT 1500 BR BKN002 M13/M14 Q1019 RMK 5ST002 A3011;EQDQ01+000003PRSWM1Q02    003PRSWM1
0200474905999992000020600004+42900+143170FM-15+0084RJCT V0209999C000012200019N0030001N1-01201-01401999999ADDGA1021+000909999GF104991999999999999999999MA1101901999999MW1101REMMET090RJCT 0000Z 00000KT 3000 BR SCT003 M12/M14 Q1019 RMK 4ST003 A3011 FCST 0009 BECMG 0001 NSW;EQDQ01+000003PRSWM1Q02    003PRSWM1
0177474905999992000020600094+42900+143170FM-16+0084RJCT V0202801N000512200019N0050001N1-01101-01301999999ADDGA1021+001809999GF104991999999999999999999MA1101901999999MW1101REMMET067RJCT 060009Z 28001KT 5000 BR SCT006 M11/M13 Q1019 RMK 3ST006 A3011;EQDQ01+000003PRSWM1Q02    003PRSWM1
0217474905999992000020601004+42900+143170FM-15+0084RJCT V0209999C000012200019N0070001N1-00801-01101999999ADDGA1021+002709999GA2021+015009999GF104991999999999999999999MA1101901999999MW1401REMMET091RJCT 0100Z 00000KT 7000 VCFG FEW009 SCT050 M08/M11 Q1019 RMK 2ST009 3CU050 A3009 FG BANK W;EQDQ01+000003PRSWM1Q02    003PRSWM1
0186474905999992000020602004+42900+143170FM-15+0084RJCT V0203101N001510600019N0080001N1-00501-01001999999ADDGA1021+015009999GA2071+060009999GF107991999999999999999999MA1101801999999MW1001REMMET076RJCT 0200Z 31003KT 8000 FEW050 BKN200 M05/M10 Q1018 RMK 2CU050 5CI200 A3006;EQDQ01+000000PRSWM2
0186474905999992000020622004+42900+143170FM-15+0084RJCT V0200401N001010105019N0090001N1-00801-01001999999ADDGA1021+006309999GA2071+010509999GF107991999999999999999999MA1100911999999MW1001REMMET076RJCT 2200Z 04002KT 9000 FEW021 BKN035 M08/M10 Q1009 RMK 2SC021 6SC035 A2980;EQDQ01+000000PRSWM2
0188474905999992000020622214+42900+143170FM-16+0084RJCT V0200101N001012200019N0112651N1-00801-01001999999ADDGA1021+006009999GA2021+010509999GF104991999999999999999999MA1100911999999MW1001REMMET078RJCT 062221Z 01002KT 9999 FEW020 SCT035 M08/M10 Q1009 RMK 1SC020 4SC035 A2979;EQDQ01+000000PRSWM2
0225474905999992000020623004+42900+143170FM-15+0084RJCT V02099999999990750019N0112651N1-00801-01101999999ADDGA1021+012009999GA2071+075009999GF107991999999999999999999MA1100911999999MW1001REMMET115RJCT 2300Z VRB01KT 9999 FEW040 BKN250 M08/M11 Q1009 RMK 1SC040 5CI250 A2979 FCST 2308 TEMPO 0508 BKN030CU BKN080AC;EQDQ01+000000PRSWM2
0225474905999992000020700004+42900+143170FM-15+0084RJCT V0203201N001510750019N0112651N1-00701-01201999999ADDGA1021+009009999GA2071+075009999GF107991999999999999999999MA1100811999999MW1001REMMET115RJCT 0000Z 32003KT 9999 FEW030 BKN250 M07/M12 Q1008 RMK 1CU030 5CI250 A2978 FCST 0009 TEMPO 0609 BKN030CU BKN080AC;EQDQ01+000000PRSWM2
0156474905999992000020701004+42900+143170FM-15+0084RJCT V0202801N000510750019N0112651N1-00501-01101999999ADDGA1071+075009999GF107991999999999999999999MA1100811999999MW1001REMMET062RJCT 0100Z 28001KT 9999 BKN250 M05/M11 Q1008 RMK 5CI250 A2977;EQDQ01+000000PRSWM2
0156474905999992000020702004+42900+143170FM-15+0084RJCT V02099999999992200019N0112651N1-00301-01101999999ADDGA1021+075009999GF104991999999999999999999MA1100711999999MW1001REMMET062RJCT 0200Z VRB02KT 9999 SCT250 M03/M11 Q1007 RMK 3CI250 A2974;EQDQ01+000000PRSWM2
0195474905999992000020703004+42900+143170FM-15+0084RJCT V0202601N002612200019N0112651N1-00201-01001999999ADDGA1021+075009999GF104991999999999999999999MA1100611999999MW1001REMMET101RJCT 0300Z 26005KT 9999 SCT250 M02/M10 Q1006 RMK 3CI250 A2972 FCST 0312 TEMPO 0812 BKN030CU BKN080AC;EQDQ01+000000PRSWM2
0156474905999992000020704004+42900+143170FM-15+0084RJCT V0202401N001512200019N0112651N1-00201-01001999999ADDGA1021+030009999GF102991999999999999999999MA1100511999999MW1001REMMET062RJCT 0400Z 24003KT 9999 FEW100 M02/M10 Q1005 RMK 1AC100 A2969;EQDQ01+000000PRSWM2
0156474905999992000020707004+42900+143170FM-15+0084RJCT V0202401N001512200019N0112651N1-00301-01101999999ADDGA1021+015009999GF102991999999999999999999MA1100511999999MW1001REMMET062RJCT 0700Z 24003KT 9999 FEW050 M03/M11 Q1005 RMK 1SC050 A2970;EQDQ01+000000PRSWM2
0201474905999992000020708004+42900+143170FM-15+0084RJCT V0202501N001512200019N0112651N1-00601-01101999999ADDGA1021+012009999GF102991999999999999999999MA1100611999999MW1001REMMET107RJCT 0800Z 25003KT 9999 FEW040 M06/M11 Q1006 RMK 1SC040 A2971 FCST 0817 BECMG 1516 BKN030CU TEMPO 1617 -SN;EQDQ01+000000PRSWM2
0156474905999992000020709004+42900+143170FM-15+0084RJCT V0202401N001512200019N0112651N1-00901-01301999999ADDGA1021+009009999GF102991999999999999999999MA1100611999999MW1001REMMET062RJCT 0900Z 24003KT 9999 FEW030 M09/M13 Q1006 RMK 1SC030 A2972;EQDQ01+000000PRSWM2
0188474905999992000020712294+42900+143170FM-16+0084RJCT V0200201N001012200019N0112651N1-01201-01401999999ADDGA1021+009009999GA2021+030009999GF104991999999999999999999MA1100711999999MW1001REMMET078RJCT 071229Z 02002KT 9999 FEW030 SCT100 M12/M14 Q1007 RMK 1SC030 3AC100 A2976;EQDQ01+000000PRSWM2
0188474905999992000020712464+42900+143170FM-16+0084RJCT V0200201N001012200019N0112651N1-01101-01301999999ADDGA1021+009009999GA2021+012009999GF104991999999999999999999MA1100711999999MW1001REMMET078RJCT 071246Z 02002KT 9999 FEW030 SCT040 M11/M13 Q1007 RMK 1SC030 3SC040 A2976;EQDQ01+000000PRSWM2
0186474905999992000020713004+42900+143170FM-15+0084RJCT V0200301N001512200019N0112651N1-01101-01301999999ADDGA1021+009009999GA2021+012009999GF104991999999999999999999MA1100711999999MW1001REMMET076RJCT 1300Z 03003KT 9999 FEW030 SCT040 M11/M13 Q1007 RMK 1SC030 3SC040 A2976;EQDQ01+000000PRSWM2
0293474905999992000020800004+42900+143170FM-15+0084RJCT V0202701N001510030019N0015001N1-01101-01301999999ADDGA1021+002109999GA2071+003009999GA3081+006009999GF108991999999999999999999MA1100511999999MW1101MW2711REMMET145RJCT 0000Z 27003KT 1500 -SN BR FEW007 BKN010 OVC020 M11/M13 Q1005 RMK 1ST007 6ST010 8SC020 A2968 FCST 0009 BECMG 0203 3000 -SN SCT010ST BKN020SC;EQDQ01+000003PRSWM1Q02    003PRSWM1
0240474905999992000020801004+42900+143170FM-15+0084RJCT V0202601N001010024019N0010001N1-00901-01201999999ADDGA1021+001809999GA2071+002409999GA3081+006009999GF108991999999999999999999MA1100411999999MW1711REMMET098RJCT 0100Z COR 26002KT 1000 -SN FEW006 BKN008 OVC020 M09/M12 Q1004 RMK 1ST006 6ST008 8SC020 A2966;EQDQ01+000003PRSWM1Q02    003PRSWM1
0236474905999992000020802004+42900+143170FM-15+0084RJCT V0202601N001010060019N0012001N1-00801-01101999999ADDGA1021+002709999GA2071+006009999GA3081+009009999GF108991999999999999999999MA1100311999999MW1711REMMET094RJCT 0200Z 26002KT 1200 -SN SCT009 BKN020 OVC030 M08/M11 Q1003 RMK 3ST009 6SC020 8SC030 A2963;EQDQ01+000003PRSWM1Q02    003PRSWM1
0281474905999992000020803004+42900+143170FM-15+0084RJCT V0202501N001510027019N0012001N1-00701-01001999999ADDGA1071+002709999GA2081+006009999GF108991999999999999999999MA1100201999999MW1101MW2711REMMET149RJCT 0300Z 25003KT 1200 -SN BR BKN009 OVC020 M07/M10 Q1002 RMK 6ST009 8SC020 A2959 FCST 0312 BECMG 0405 3000 -SN BR SCT010ST BKN020SC BECMG 0910 NSW;EQDQ01+000003PRSWM1Q02    003PRSWM1
0215474905999992000020804004+42900+143170FM-15+0084RJCT V0202701N000510030019N0012001N1-00601-00901999999ADDGA1021+001809999GA2081+003009999GF108991999999999999999999MA1100101999999MW1101MW2711REMMET083RJCT 0400Z 27001KT 1200 -SN BR SCT006 OVC010 M06/M09 Q1001 RMK 3ST006 8ST010 A2956;EQDQ01+000003PRSWM1Q02    003PRSWM1
0215474905999992000020805004+42900+143170FM-15+0084RJCT V0202701N001010030019N0013001N1-00601-00901999999ADDGA1021+001809999GA2081+003009999GF108991999999999999999999MA1100001999999MW1101MW2711REMMET083RJCT 0500Z 27002KT 1300 -SN BR SCT006 OVC010 M06/M09 Q1000 RMK 3ST006 8ST010 A2955;EQDQ01+000003PRSWM1Q02    003PRSWM1
0269474905999992000020806004+42900+143170FM-15+0084RJCT V0202701N001510018019N0010001N1-00601-00801999999ADDGA1021+000909999GA2081+001809999GF108991999999999999999999MA1100001999999MW1101MW2711REMMET137RJCT 0600Z 27003KT 1000 -SN BR SCT003 OVC006 M06/M08 Q1000 RMK 3ST003 8ST006 A2954 FCST 0615 BECMG 0607 SCT006ST BKN012ST BECMG 1011 NSW;EQDQ01+000003PRSWM1Q02    003PRSWM1
0215474905999992000020807004+42900+143170FM-15+0084RJCT V0202701N001510030019N0012001N1-00601-00801999999ADDGA1021+001509999GA2081+003009999GF108991999999999999999999MA1100001999999MW1101MW2711REMMET083RJCT 0700Z 27003KT 1200 -SN BR SCT005 OVC010 M06/M08 Q1000 RMK 3ST005 8ST010 A2953;EQDQ01+000003PRSWM1Q02    003PRSWM1
0249474905999992000020808004+42900+143170FM-15+0084RJCT V0202501N001510024019N0010001N1-00601-00801999999ADDGA1021+001809999GA2081+002409999GF108991999999999999999999MA1100001999999MW1101MW2711REMMET117RJCT 0800Z 25003KT 1000 -SN BR SCT006 OVC008 M06/M08 Q1000 RMK 3ST006 8ST008 A2953 FCST 0817 BECMG 1011 NSW BKN030CU;EQDQ01+000003PRSWM1Q02    003PRSWM1
0186474905999992000020822004+42900+143170FM-15+0084RJCT V0203001N001512200019N0112651N1-01601-02001999999ADDGA1021+009009999GA2021+060009999GF104991999999999999999999MA1099901999999MW1001REMMET076RJCT 2200Z 30003KT 9999 FEW030 SCT200 M16/M20 Q0999 RMK 1CU030 4CI200 A2951;EQDQ01+000000PRSWM2
0172474905999992000020823004+42900+143170FM-15+0084RJCT V0203101N001012200019N0112651N1-01501-01801999999ADDGA1021+009009999GF102991999999999999999999MA1099901999999MW1001REMMET078RJCT 2300Z 31002KT 9999 FEW030 M15/M18 Q0999 RMK 1CU030 A2952 FCST 2308 NOSIG;EQDQ01+000000PRSWM2
0172474905999992000020900004+42900+143170FM-15+0084RJCT V0202701N001012200019N0112651N1-01301-01701999999ADDGA1021+012009999GF102991999999999999999999MA1099901999999MW1001REMMET078RJCT 0000Z 27002KT 9999 FEW040 M13/M17 Q0999 RMK 1CU040 A2952 FCST 0009 NOSIG;EQDQ01+000000PRSWM2
0156474905999992000020901004+42900+143170FM-15+0084RJCT V0202601N000512200019N0112651N1-01101-01301999999ADDGA1021+012009999GF102991999999999999999999MA1099901999999MW1001REMMET062RJCT 0100Z 26001KT 9999 FEW040 M11/M13 Q0999 RMK 1CU040 A2952;EQDQ01+000000PRSWM2
0172474905999992000020903004+42900+143170FM-15+0084RJCT V0202501N002112200019N0112651N1-00601-01401999999ADDGA1021+012009999GF102991999999999999999999MA1099801999999MW1001REMMET078RJCT 0300Z 25004KT 9999 FEW040 M06/M14 Q0998 RMK 1CU040 A2949 FCST 0312 NOSIG;EQDQ01+000000PRSWM2
0156474905999992000020904004+42900+143170FM-15+0084RJCT V0202701N002612200019N0112651N1-00501-01401999999ADDGA1021+009009999GF102991999999999999999999MA1099801999999MW1001REMMET062RJCT 0400Z 27005KT 9999 FEW030 M05/M14 Q0998 RMK 1CU030 A2949;EQDQ01+000000PRSWM2
0186474905999992000020905004+42900+143170FM-15+0084RJCT V0202801N002612200019N0112651N1-00401-01401999999ADDGA1021+009009999GA2021+063009999GF104991999999999999999999MA1099801999999MW1001REMMET076RJCT 0500Z 28005KT 9999 FEW030 SCT210 M04/M14 Q0998 RMK 1CU030 3CI210 A2949;EQDQ01+000000PRSWM2
0156474905999992000020907004+42900+143170FM-15+0084RJCT V0201301N002612200019N0112651N1-00601-01501999999ADDGA1021+006009999GF102991999999999999999999MA1099901999999MW1001REMMET062RJCT 0700Z 13005KT 9999 FEW020 M06/M15 Q0999 RMK 1SC020 A2952;EQDQ01+000000PRSWM2
0172474905999992000020908004+42900+143170FM-15+0084RJCT V0201901N001012200019N0112651N1-00801-01501999999ADDGA1021+007509999GF102991999999999999999999MA1100001999999MW1001REMMET078RJCT 0800Z 19002KT 9999 FEW025 M08/M15 Q1000 RMK 1SC025 A2955 FCST 0817 NOSIG;EQDQ01+000000PRSWM2
0188474905999992000021000004+42900+143170FM-15+0084RJCT V02099999999992200019N0112651N1-01601-02001999999ADDGA1021+007509999GF102991999999999999999999MA1100511999999MW1001REMMET094RJCT 0000Z VRB01KT 9999 FEW025 M16/M20 Q1005 RMK 1CU025 A2969 FCST 0009 TEMPO 0408 32010G20KT;EQDQ01+000000PRSWM2
0156474905999992000021001004+42900+143170FM-15+0084RJCT V02099999999992200019N0112651N1-01301-01901999999ADDGA1021+007509999GF102991999999999999999999MA1100511999999MW1001REMMET062RJCT 0100Z VRB02KT 9999 FEW025 M13/M19 Q1005 RMK 1CU025 A2969;EQDQ01+000000PRSWM2
0202474905999992000021003004+42900+143170FM-15+0084RJCT V02099999999990540019N0112651N1-00701-01501999999ADDGA1021+007509999GA2071+054009999GF107991999999999999999999MA1100411999999MW1001REMMET092RJCT 0300Z VRB03KT 9999 FEW025 BKN180 M07/M15 Q1004 RMK 1CU025 6CI180 A2966 FCST 0312 NOSIG;EQDQ01+000000PRSWM2
0216474905999992000021004004+42900+143170FM-15+0084RJCT V0202601N001010540019N0112651N1-00601-01401999999ADDGA1021+007509999GA2021+030009999GA3071+054009999GF107991999999999999999999MA1100411999999MW1001REMMET090RJCT 0400Z 26002KT 9999 FEW025 SCT100 BKN180 M06/M14 Q1004 RMK 1CU025 3AC100 5CI180 A2966;EQDQ01+000000PRSWM2
0186474905999992000021005004+42900+143170FM-15+0084RJCT V0209999C000012200019N0112651N1-00701-01501999999ADDGA1021+007509999GA2021+030009999GF104991999999999999999999MA1100411999999MW1001REMMET076RJCT 0500Z 00000KT 9999 FEW025 SCT100 M07/M15 Q1004 RMK 2CU025 3AC100 A2965;EQDQ01+000000PRSWM2
0202474905999992000021006004+42900+143170FM-15+0084RJCT V0202901N001512200019N0112651N1-00601-01401999999ADDGA1021+009009999GA2021+030009999GF104991999999999999999999MA1100411999999MW1001REMMET092RJCT 0600Z 29003KT 9999 SCT030 SCT100 M06/M14 Q1004 RMK 3CU030 3AC100 A2966 FCST 0615 NOSIG;EQDQ01+000000PRSWM2
0186474905999992000021007004+42900+143170FM-15+0084RJCT V0202701N001512200019N0112651N1-00601-01301999999ADDGA1021+009009999GA2021+060009999GF104991999999999999999999MA1100511999999MW1001REMMET076RJCT 0700Z 27003KT 9999 FEW030 SCT200 M06/M13 Q1005 RMK 2CU030 3CI200 A2967;EQDQ01+000000PRSWM2
0172474905999992000021008004+42900+143170FM-15+0084RJCT V0203401N001012200019N0112651N1-00801-01301999999ADDGA1021+009009999GF102991999999999999999999MA1100511999999MW1001REMMET078RJCT 0800Z 34002KT 9999 FEW030 M08/M13 Q1005 RMK 2CU030 A2968 FCST 0817 NOSIG;EQDQ01+000000PRSWM2
0156474905999992000021322004+42900+143170FM-15+0084RJCT V02099999999992200019N0112651N1-01801-02301999999ADDGA1021+003009999GF102991999999999999999999MA1100911999999MW1001REMMET062RJCT 2200Z VRB03KT 9999 FEW010 M18/M23 Q1009 RMK 1ST010 A2979;EQDQ01+000000PRSWM2
0172474905999992000021323004+42900+143170FM-15+0084RJCT V02099999999992200019N0112651N1-01601-01901999999ADDGA1021+004509999GF102991999999999999999999MA1100811999999MW1001REMMET078RJCT 2300Z VRB02KT 9999 FEW015 M16/M19 Q1008 RMK 1ST015 A2978 FCST 2308 NOSIG;EQDQ01+000000PRSWM2
0172474905999992000021400004+42900+143170FM-15+0084RJCT V02099999999992200019N0112651N1-01301-01801999999ADDGA1021+006009999GF102991999999999999999999MA1100811999999MW1001REMMET078RJCT 0000Z VRB02KT 9999 FEW020 M13/M18 Q1008 RMK 1CU020 A2977 FCST 0009 NOSIG;EQDQ01+000000PRSWM2
0156474905999992000021401004+42900+143170FM-15+0084RJCT V02099999999992200019N0112651N1-00901-01501999999ADDGA1021+007509999GF102991999999999999999999MA1100711999999MW1001REMMET062RJCT 0100Z VRB02KT 9999 FEW025 M09/M15 Q1007 RMK 1CU025 A2975;EQDQ01+000000PRSWM2
0156474905999992000021402004+42900+143170FM-15+0084RJCT V02099999999992200019N0112651N1-00501-01301999999ADDGA1021+007509999GF102991999999999999999999MA1100611999999MW1001REMMET062RJCT 0200Z VRB01KT 9999 FEW025 M05/M13 Q1006 RMK 1CU025 A2972;EQDQ01+000000PRSWM2
0172474905999992000021403004+42900+143170FM-15+0084RJCT V02099999999992200019N0112651N1-00301-01301999999ADDGA1021+007509999GF102991999999999999999999MA1100511999999MW1001REMMET078RJCT 0300Z VRB02KT 9999 FEW025 M03/M13 Q1005 RMK 1CU025 A2969 FCST 0312 NOSIG;EQDQ01+000000PRSWM2
0156474905999992000021404004+42900+143170FM-15+0084RJCT V0201001N001012200019N0112651N1-00101-01301999999ADDGA1021+007509999GF102991999999999999999999MA1100411999999MW1001REMMET062RJCT 0400Z 10002KT 9999 FEW025 M01/M13 Q1004 RMK 1CU025 A2967;EQDQ01+000000PRSWM2
0156474905999992000021405004+42900+143170FM-15+0084RJCT V0201001N002112200019N0112651N1+00001-01301999999ADDGA1021+007509999GF102991999999999999999999MA1100411999999MW1001REMMET062RJCT 0500Z 10004KT 9999 FEW025 M00/M13 Q1004 RMK 1CU025 A2965;EQDQ01+000000PRSWM2
0216474905999992000021406004+42900+143170FM-15+0084RJCT V0201401N001010660019N0112651N1-00101-01301999999ADDGA1021+009009999GA2071+066009999GF107991999999999999999999MA1100311999999MW1001REMMET106RJCT 0600Z 14002KT 9999 FEW030 BKN220 M01/M13 Q1003 RMK 1CU030 6CI220 A2964 FCST 0615 TEMPO 1215 BKN030CU;EQDQ01+000000PRSWM2
0186474905999992000021407004+42900+143170FM-15+0084RJCT V0200401N001512200019N0112651N1-00201-01201999999ADDGA1021+007509999GA2021+066009999GF104991999999999999999999MA1100311999999MW1001REMMET076RJCT 0700Z 04003KT 9999 FEW025 SCT220 M02/M12 Q1003 RMK 1CU025 3CI220 A2963;EQDQ01+000000PRSWM2
0216474905999992000021408004+42900+143170FM-15+0084RJCT V0200701N001012200019N0112651N1-00401-01301999999ADDGA1021+007509999GA2021+066009999GF104991999999999999999999MA1100311999999MW1001REMMET106RJCT 0800Z 07002KT 9999 FEW025 SCT220 M04/M13 Q1003 RMK 1CU025 3CI220 A2963 FCST 0817 TEMPO 1217 BKN030CU;EQDQ01+000000PRSWM2
0272474905999992000021423004+42900+143170FM-15+0084RJCT V0202801N001010600019N0022001N1-00701-00901999999ADDGA1021+006009999GA2021+015009999GA3071+060009999GF107991999999999999999999MA1099591999999MW1101MW2851REMMET124RJCT 2300Z 28002KT 2200 -SHSN BR FEW020 SCT050 BKN200 M07/M09 Q0996 RMK 2CU020 3SC050 6CI200 A2943 FCST 2308 BECMG 0102 NSW;EQDQ01+000003PRSWM1Q02    003PRSWM1
0210474905999992000021423414+42900+143170FM-16+0084RJCT V0203101N001512200019N0050001N1-00601-00901999999ADDGA1021+004509999GA2021+012009999GF104991999999999999999999MA1099591999999MW1851REMMET084RJCT 142341Z 31003KT 5000 -SHSN FEW015 SCT040 M06/M09 Q0996 RMK 1CU015 3SC040 A2943;EQDQ01+000003PRSWM1Q02    003PRSWM1
0233474905999992000021500004+42900+143170FM-15+0084RJCT V0202701N002610150019N0080001N1-00601-00901999999ADDGA1021+002409999GA2071+015009999GF107991999999999999999999MA1099591999999MW1851REMMET107RJCT 0000Z 27005KT 8000 -SHSN FEW008 BKN050 M06/M09 Q0996 RMK 1ST008 5SC050 A2942 FCST 0009 BECMG 0102 NSW;EQDQ01+000003PRSWM1Q02    003PRSWM1
0188474905999992000021500234+42900+143170FM-16+0084RJCT V0203201N002112200019N0112651N1-00501-00901999999ADDGA1021+002409999GA2021+015009999GF104991999999999999999999MA1099491999999MW1001REMMET078RJCT 150023Z 32004KT 9999 FEW008 SCT050 M05/M09 Q0995 RMK 2ST008 3SC050 A2940;EQDQ01+000000PRSWM2
0156474905999992000021501004+42900+143170FM-15+0084RJCT V0203401N002112200019N0112651N1-00501-00901999999ADDGA1021+002409999GF102991999999999999999999MA1099491999999MW1001REMMET062RJCT 0100Z 34004KT 9999 FEW008 M05/M09 Q0995 RMK 1ST008 A2938;EQDQ01+000000PRSWM2
0210474905999992000021501404+42900+143170FM-16+0084RJCT V0203301N002110090019N0112651N1-00401-01001999999ADDGA1021+004509999GA2071+009009999GF107991999999999999999999MA1099391999999MW1851REMMET084RJCT 150140Z 33004KT 9999 -SHSN FEW015 BKN030 M04/M10 Q0994 RMK 1ST015 6CU030 A2936;EQDQ01+000003PRSWM1Q02    003PRSWM1
0208474905999992000021502004+42900+143170FM-15+0084RJCT V0203301N001510105019N0112651N1-00401-01001999999ADDGA1021+004509999GA2071+010509999GF107991999999999999999999MA1099291999999MW1851REMMET082RJCT 0200Z 33003KT 9999 -SHSN FEW015 BKN035 M04/M10 Q0993 RMK 1CU015 6SC035 A2934;EQDQ01+000003PRSWM1Q02    003PRSWM1
0188474905999992000021502254+42900+143170FM-15+0084RJCT V0203501N001012200019N0112651N1-00201-01101999999ADDGA1021+006009999GA2021+012009999GF104991999999999999999999MA1099291999999MW1001REMMET078RJCT 150225Z 35002KT 9999 FEW020 SCT040 M02/M11 Q0993 RMK 1CU020 3SC040 A2933;EQDQ01+000000PRSWM2
0172474905999992000021503004+42900+143170FM-15+0084RJCT V0203301N001512200019N0112651N1-00201-01101999999ADDGA1021+006009999GF102991999999999999999999MA1099191999999MW1001REMMET078RJCT 0300Z 33003KT 9999 FEW020 M02/M11 Q0992 RMK 1CU020 A2930 FCST 0312 NOSIG;EQDQ01+000000PRSWM2
0186474905999992000021504004+42900+143170FM-15+0084RJCT V0203101N001510450019N0112651N1-00301-01101999999ADDGA1021+009009999GA2071+045009999GF107991999999999999999999MA1099091999999MW1001REMMET076RJCT 0400Z 31003KT 9999 FEW030 BKN150 M03/M11 Q0991 RMK 1CU030 5AC150 A2927;EQDQ01+000000PRSWM2
0186474905999992000021505004+42900+143170FM-15+0084RJCT V0202901N002110450019N0112651N1-00201-01001999999ADDGA1021+009009999GA2071+045009999GF107991999999999999999999MA1099091999999MW1001REMMET076RJCT 0500Z 29004KT 9999 FEW030 BKN150 M02/M10 Q0991 RMK 1CU030 6AC150 A2926;EQDQ01+000000PRSWM2
0202474905999992000021506004+42900+143170FM-15+0084RJCT V0200501N001512200019N0112651N1-00201-01101999999ADDGA1021+009009999GA2021+015009999GF104991999999999999999999MA1098981999999MW1001REMMET092RJCT 0600Z 05003KT 9999 FEW030 SCT050 M02/M11 Q0990 RMK 1CU030 3SC050 A2925 FCST 0615 NOSIG;EQDQ01+000000PRSWM2
0186474905999992000021507004+42900+143170FM-15+0084RJCT V0200201N001510105019N0112651N1-00401-01201999999ADDGA1021+007509999GA2071+010509999GF107991999999999999999999MA1098981999999MW1001REMMET076RJCT 0700Z 02003KT 9999 FEW025 BKN035 M04/M12 Q0990 RMK 1SC025 6SC035 A2925;EQDQ01+000000PRSWM2
0202474905999992000021508004+42900+143170FM-15+0084RJCT V0200301N002110105019N0112651N1-00501-01201999999ADDGA1021+007509999GA2071+010509999GF107991999999999999999999MA1098981999999MW1001REMMET092RJCT 0800Z 03004KT 9999 FEW025 BKN035 M05/M12 Q0990 RMK 1SC025 6SC035 A2926 FCST 0817 NOSIG;EQDQ01+000000PRSWM2
0156474905999992000021522004+42900+143170FM-15+0084RJCT V0200101N001012200019N0112651N1-02201-02701999999ADDGA1021+021009999GF102991999999999999999999MA1099091999999MW1001REMMET062RJCT 2200Z 01002KT 9999 FEW070 M22/M27 Q0991 RMK 1AC070 A2928;EQDQ01+000000PRSWM2
0188474905999992000021523004+42900+143170FM-15+0084RJCT V0200901N001012200019N0112651N1-01901-02301999999ADDGA1021+009009999GF102991999999999999999999MA1099191999999MW1001REMMET094RJCT 2300Z 09002KT 9999 FEW030 M19/M23 Q0992 RMK 1CU030 A2930 FCST 2308 TEMPO 0308 32012G22KT;EQDQ01+000000PRSWM2
0218474905999992000021600004+42900+143170FM-15+0084RJCT V02099999999992200019N0112651N1-01501-01801999999ADDGA1021+009009999GA2021+060009999GF104991999999999999999999MA1099191999999MW1001REMMET108RJCT 0000Z VRB01KT 9999 FEW030 SCT200 M15/M18 Q0992 RMK 1SC030 3CI200 A2929 FCST 0009 TEMPO 0308 32012G22KT;EQDQ01+000000PRSWM2
0186474905999992000021601004+42900+143170FM-15+0084RJCT V02099999999992200019N0112651N1-00901-01601999999ADDGA1021+009009999GA2021+060009999GF104991999999999999999999MA1099091999999MW1001REMMET076RJCT 0100Z VRB01KT 9999 FEW030 SCT200 M09/M16 Q0991 RMK 1SC030 3CI200 A2928;EQDQ01+000000PRSWM2
0197474905999992000021602004+42900+143170FM-15+0084RJCT V0202901N008212200019N0112651N1-00301-01301999999ADDGA1021+007509999GA2021+060009999GF104991999999999999999999MA1099091999999MW1001OC101441REMMET079RJCT 0200Z 29016G28KT 9999 FEW025 SCT200 M03/M13 Q0991 RMK 1SC025 4CI200 A2926;EQDQ01+000000PRSWM2
0226474905999992000021603004+42900+143170FM-15+0084RJCT V0202901N010310600019N0112651N1-00301-01301999999ADDGA1021+007509999GA2071+060009999GF107991999999999999999999MA1099091999999MW1001OC101651REMMET108RJCT 0300Z 29020G32KT 9999 FEW025 BKN200 M03/M13 Q0991 RMK 1CU025 5CI200 A2927 FCST 0312 BECMG 0607 29008KT;EQDQ01+000000PRSWM2
0199474905999992000021603194+42900+143170FM-16+0084RJCT V0203101N011310600019N0112651N1-00201-01301999999ADDGA1021+007509999GA2071+060009999GF107991999999999999999999MA1099091999999MW1001OC101801REMMET081RJCT 160319Z 31022G35KT 9999 FEW025 BKN200 M02/M13 Q0991 RMK 1CU025 5CI200 A2927;EQDQ01+000000PRSWM2
0227474905999992000021605004+42900+143170FM-15+0084RJCT V0202901N010310300019N0112651N1-00201-01301999999ADDGA1021+007509999GA2071+030009999GA3071+060009999GF107991999999999999999999MA1099191999999MW1001OC101651REMMET093RJCT 0500Z 29020G32KT 9999 FEW025 BKN100 BKN200 M02/M13 Q0992 RMK 1CU025 5AC100 6CI200 A2931;EQDQ01+000000PRSWM2
0227474905999992000021607004+42900+143170FM-15+0084RJCT V0203001N006710270019N0112651N1-00301-01301999999ADDGA1021+006009999GA2071+027009999GA3071+060009999GF107991999999999999999999MA1099291999999MW1001OC101181REMMET093RJCT 0700Z 30013G23KT 9999 FEW020 BKN090 BKN200 M03/M13 Q0993 RMK 1CU020 6AC090 6CI200 A2935;EQDQ01+000000PRSWM2
0217474905999992000021703004+42900+143170FM-15+0084RJCT V0203501N002110330019N0112651N1+00201-00901999999ADDGA1021+009009999GA2071+033009999GF107991999999999999999999MA1100311999999MW1001REMMET107RJCT 0300Z 35004KT 9999 FEW030 BKN110 02/M09 Q1003 RMK 1CU030 5AC110 A2964 FCST 0312 TEMPO 0507 31015G25KT;EQDQ01+000000PRSWM2
0215474905999992000021704004+42900+143170FM-15+0084RJCT V0203201N004610630019N0112651N1+00201-00801999999ADDGA1021+007509999GA2021+030009999GA3071+063009999GF107991999999999999999999MA1100311999999MW1001REMMET089RJCT 0400Z 32009KT 9999 FEW025 SCT100 BKN210 02/M08 Q1003 RMK 1CU025 3AC100 6CI210 A2964;EQDQ01+000000PRSWM2
0215474905999992000021705004+42900+143170FM-15+0084RJCT V0203101N005110630019N0112651N1+00201-00801999999ADDGA1021+007509999GA2021+030009999GA3071+063009999GF107991999999999999999999MA1100311999999MW1001REMMET089RJCT 0500Z 31010KT 9999 FEW025 SCT100 BKN210 02/M08 Q1003 RMK 1CU025 3AC100 6CI210 A2963;EQDQ01+000000PRSWM2
0231474905999992000021706004+42900+143170FM-15+0084RJCT V0203201N004110300019N0112651N1+00201-00701999999ADDGA1021+007509999GA2071+030009999GA3071+063009999GF107991999999999999999999MA1100311999999MW1001REMMET105RJCT 0600Z 32008KT 9999 FEW025 BKN100 BKN210 02/M07 Q1003 RMK 1CU025 5AC100 7CI210 A2963 FCST 0615 NOSIG;EQDQ01+000000PRSWM2
0215474905999992000021707004+42900+143170FM-15+0084RJCT V0203201N004610630019N0112651N1+00101-00801999999ADDGA1021+009009999GA2021+030009999GA3071+063009999GF107991999999999999999999MA1100411999999MW1001REMMET089RJCT 0700Z 32009KT 9999 FEW030 SCT100 BKN210 01/M08 Q1004 RMK 1CU030 4AC100 5CI210 A2964;EQDQ01+000000PRSWM2
0201474905999992000021708004+42900+143170FM-15+0084RJCT V0203201N004110090019N0112651N1+00001-00701999999ADDGA1021+007509999GA2071+009009999GF107991999999999999999999MA1100411999999MW1001REMMET091RJCT 0800Z 32008KT 9999 FEW025 BKN030 00/M07 Q1004 RMK 1SC025 6SC030 A2966 FCST 0817 NOSIG;EQDQ01+000000PRSWM2
0186474905999992000021709004+42900+143170FM-15+0084RJCT V0203401N001010075019N0112651N1+00001-00701999999ADDGA1021+004509999GA2071+007509999GF107991999999999999999999MA1100511999999MW1001REMMET076RJCT 0900Z 34002KT 9999 FEW015 BKN025 M00/M07 Q1005 RMK 1ST015 7SC025 A2969;EQDQ01+000000PRSWM2
0210474905999992000021709384+42900+143170FM-16+0084RJCT V0200601N002110060019N0050001N1-00101-00501999999ADDGA1021+003009999GA2071+006009999GF107991999999999999999999MA1100511999999MW1851REMMET084RJCT 170938Z 06004KT 5000 -SHSN FEW010 BKN020 M01/M05 Q1005 RMK 2ST010 7SC020 A2970;EQDQ01+000003PRSWM1Q02    003PRSWM1
0216474905999992000021722004+42900+143170FM-15+0084RJCT V0209999C000010270019N0112651N1-00701-00801999999ADDGA1021+007509999GA2021+012009999GA3071+027009999GF107991999999999999999999MA1100811999999MW1001REMMET090RJCT 2200Z 00000KT 9999 FEW025 SCT040 BKN090 M07/M08 Q1008 RMK 2SC025 4SC040 6AC090 A2977;EQDQ01+000000PRSWM2
0292474905999992000021723004+42900+143170FM-15+0084RJCT V0200701N000510120019N0112651N1-00501-00701999999ADDGA1021+007509999GA2071+012009999GA3071+027009999GF107991999999999999999999MA1100811999999MW1851REMMET150RJCT 2300Z 07001KT 9999 -SHSN SCT025 BKN040 BKN090 M05/M07 Q1008 RMK 3SC025 6SC040 7AC090 A2978 FCST 2308 BECMG 2300 NSW BECMG 0406 FEW030CU SCT080AC;EQDQ01+000003PRSWM1Q02    003PRSWM1
0232474905999992000021800004+42900+143170FM-15+0084RJCT V0209999C000010630019N0112651N1-00401-00701999999ADDGA1021+007509999GA2021+012009999GA3071+063009999GF107991999999999999999999MA1100811999999MW1001REMMET106RJCT 0000Z 00000KT 9999 FEW025 SCT040 BKN210 M04/M07 Q1008 RMK 1CU025 3SC040 6CI210 A2977 FCST 0009 NOSIG;EQDQ01+000000PRSWM2
0186474905999992000021801004+42900+143170FM-15+0084RJCT V0209999C000010630019N0112651N1-00201-00701999999ADDGA1021+009009999GA2071+063009999GF107991999999999999999999MA1100811999999MW1001REMMET076RJCT 0100Z 00000KT 9999 FEW030 BKN210 M02/M07 Q1008 RMK 2CU030 5CI210 A2977;EQDQ01+000000PRSWM2
0186474905999992000021802004+42900+143170FM-15+0084RJCT V0202501N001510630019N0112651N1-00101-00801999999ADDGA1021+009009999GA2071+063009999GF107991999999999999999999MA1100711999999MW1001REMMET076RJCT 0200Z 25003KT 9999 FEW030 BKN210 M01/M08 Q1007 RMK 2CU030 6CI210 A2975;EQDQ01+000000PRSWM2
0202474905999992000021803004+42900+143170FM-15+0084RJCT V0201901N001510630019N0112651N1+00001-00801999999ADDGA1021+009009999GA2071+063009999GF107991999999999999999999MA1100711999999MW1001REMMET092RJCT 0300Z 19003KT 9999 FEW030 BKN210 M00/M08 Q1007 RMK 2CU030 6CI210 A2974 FCST 0312 NOSIG;EQDQ01+000000PRSWM2
0186474905999992000021804004+42900+143170FM-15+0084RJCT V0202401N001510630019N0112651N1-00101-00801999999ADDGA1021+009009999GA2071+063009999GF107991999999999999999999MA1100611999999MW1001REMMET076RJCT 0400Z 24003KT 9999 FEW030 BKN210 M01/M08 Q1006 RMK 2CU030 6CI210 A2972;EQDQ01+000000PRSWM2
0185474905999992000021805004+42900+143170FM-15+0084RJCT V0202101N001510630019N0112651N1+00001-00701999999ADDGA1021+009009999GA2071+063009999GF107991999999999999999999MA1100611999999MW1001REMMET075RJCT 0500Z 21003KT 9999 FEW030 BKN210 00/M07 Q1006 RMK 2CU030 6CI210 A2971;EQDQ01+000000PRSWM2
0201474905999992000021806004+42900+143170FM-15+0084RJCT V0202201N001510630019N0112651N1+00101-00701999999ADDGA1021+009009999GA2071+063009999GF107991999999999999999999MA1100611999999MW1001REMMET091RJCT 0600Z 22003KT 9999 FEW030 BKN210 01/M07 Q1006 RMK 2CU030 6CI210 A2972 FCST 0615 NOSIG;EQDQ01+000000PRSWM2
0185474905999992000021807004+42900+143170FM-15+0084RJCT V0203201N001510630019N0112651N1+00101-00801999999ADDGA1021+009009999GA2071+063009999GF107991999999999999999999MA1100611999999MW1001REMMET075RJCT 0700Z 32003KT 9999 FEW030 BKN210 01/M08 Q1006 RMK 2CU030 6CI210 A2973;EQDQ01+000000PRSWM2
0202474905999992000021808004+42900+143170FM-15+0084RJCT V0200401N001010630019N0112651N1-00101-00901999999ADDGA1021+009009999GA2071+063009999GF107991999999999999999999MA1100711999999MW1001REMMET092RJCT 0800Z 04002KT 9999 SCT030 BKN210 M01/M09 Q1007 RMK 3CU030 5CI210 A2975 FCST 0817 NOSIG;EQDQ01+000000PRSWM2
0215474905999992000022022004+42900+143170FM-15+0084RJCT V0202701N000510006019N0010001N1-00601-00801999999ADDGA1071+000609999GA2081+001509999GF108991999999999999999999MA1099801999999MW1101MW2711REMMET083RJCT 2200Z 27001KT 1000 -SN BR BKN002 OVC005 M06/M08 Q0998 RMK 5ST002 8ST005 A2949;EQDQ01+000003PRSWM1Q02    003PRSWM1
0227474905999992000022022374+42900+143170FM-16+0084RJCT V0202201N000510075019N0015001N1-00501-00701999999ADDGA1021+001509999GA2071+007509999GF107991999999999999999999MA1099901999999MW1711REMMET085RJCT 202237Z 22001KT 1500 -SN BR SCT005 BKN025 M05/M07 Q0999 RMK 3ST005 6CU025 A2950;EQDQ01+000100PRSWM3Q02+000003PRSWM1Q03    003PRSWM1
0258474905999992000022023004+42900+143170FM-15+0084RJCT V0202101N000510120019N0030001N1-00501-00701999999ADDGA1021+003009999GA2071+012009999GF107991999999999999999999MA1099901999999MW1101MW2711REMMET126RJCT 2300Z 21001KT 3000 -SN BR FEW010 BKN040 M05/M07 Q0999 RMK 1ST010 7CU040 A2950 FCST 2308 BECMG 0001 NSW FEW020CU SCT040SC;EQDQ01+000003PRSWM1Q02    003PRSWM1
0202474905999992000022100004+42900+143170FM-15+0084RJCT V0202601N000512200019N0060001N1-00301-00601999999ADDGA1021+003009999GA2021+012009999GF104991999999999999999999MA1099901999999MW1001REMMET092RJCT 0000Z 26001KT 6000 FEW010 SCT040 M03/M06 Q0999 RMK 1ST010 4SC040 A2950 FCST 0009 NOSIG;EQDQ01+000000PRSWM2
0188474905999992000022100364+42900+143170FM-16+0084RJCT V0200501N000510120019N0060001N1-00201-00601999999ADDGA1021+004509999GA2071+012009999GF107991999999999999999999MA1099801999999MW1001REMMET078RJCT 210036Z 05001KT 6000 FEW015 BKN040 M02/M06 Q0998 RMK 1ST015 6CU040 A2949;EQDQ01+000000PRSWM2
0186474905999992000022101004+42900+143170FM-15+0084RJCT V0200101N001010120019N0080001N1-00201-00601999999ADDGA1021+006009999GA2071+012009999GF107991999999999999999999MA1099801999999MW1001REMMET076RJCT 0100Z 01002KT 8000 FEW020 BKN040 M02/M06 Q0998 RMK 1CU020 6CU040 A2948;EQDQ01+000000PRSWM2
0186474905999992000022102004+42900+143170FM-15+0084RJCT V0203201N002110120019N0112651N1-00101-00601999999ADDGA1021+006009999GA2071+012009999GF107991999999999999999999MA1099801999999MW1001REMMET076RJCT 0200Z 32004KT 9999 FEW020 BKN040 M01/M06 Q0998 RMK 1CU020 6CU040 A2947;EQDQ01+000000PRSWM2
0233474905999992000022103004+42900+143170FM-15+0084RJCT V0202901N003610090019N0112651N1+00001-00501999999ADDGA1021+006009999GA2071+009009999GF107991999999999999999999MA1099701999999MW1001REMMET123RJCT 0300Z 29007KT 9999 FEW020 BKN030 M00/M05 Q0997 RMK 1CU020 7CU030 A2946 FCST 0312 TEMPO 0305 -SHSN BECMG 0506 SCT040SC;EQDQ01+000000PRSWM2
0185474905999992000022104004+42900+143170FM-15+0084RJCT V0202701N003110090019N0112651N1+00101-00601999999ADDGA1021+006009999GA2071+009009999GF107991999999999999999999MA1099701999999MW1001REMMET075RJCT 0400Z 27006KT 9999 FEW020 BKN030 01/M06 Q0997 RMK 1CU020 6CU030 A2944;EQDQ01+000000PRSWM2
0239474905999992000022104334+42900+143170FM-16+0084RJCT V0203101N003110090019N0112651N1+00101-00601999999ADDGA1021+006009999GA2071+009009999GA3071+030009999GF107991999999999999999999MA1099701999999MW1851REMMET097RJCT 210433Z 31006KT 9999 -SHSN FEW020 BKN030 BKN100 01/M06 Q0997 RMK 1CU020 6CU030 6AC100 A2945;EQDQ01+000003PRSWM1Q02    003PRSWM1
0237474905999992000022105004+42900+143170FM-15+0084RJCT V0203101N002110090019N0112651N1+00001-00601999999ADDGA1021+004509999GA2071+009009999GA3071+030009999GF107991999999999999999999MA1099701999999MW1851REMMET095RJCT 0500Z 31004KT 9999 -SHSN FEW015 BKN030 BKN100 00/M06 Q0997 RMK 1CU015 6CU030 6AC100 A2945;EQDQ01+000003PRSWM1Q02    003PRSWM1
0239474905999992000022105034+42900+143170FM-16+0084RJCT V0203101N001510075019N0040001N1+00001-00601999999ADDGA1021+004509999GA2071+007509999GA3071+030009999GF107991999999999999999999MA1099701999999MW1851REMMET097RJCT 210503Z 31003KT 4000 -SHSN FEW015 BKN025 BKN100 00/M06 Q0997 RMK 1CU015 6CU025 6AC100 A2945;EQDQ01+000003PRSWM1Q02    003PRSWM1
0240474905999992000022105174+42900+143170FM-16+0084RJCT V0200101N002110030019N0023001N1+00001-00501999999ADDGA1021+001509999GA2071+003009999GA3071+006009999GF107991999999999999999999MA1099701999999MW1851REMMET098RJCT 210517Z 01004KT 2300 -SHSN FEW005 BKN010 BKN020 M00/M05 Q0997 RMK 1ST005 5ST010 7CU020 A2946;EQDQ01+000003PRSWM1Q02    003PRSWM1
0240474905999992000022105384+42900+143170FM-16+0084RJCT V0200501N002110075019N0050001N1-00101-00601999999ADDGA1021+002709999GA2071+007509999GA3071+030009999GF107991999999999999999999MA1099701999999MW1851REMMET098RJCT 210538Z 05004KT 5000 -SHSN FEW009 BKN025 BKN100 M01/M06 Q0997 RMK 1ST009 6CU025 6AC100 A2944;EQDQ01+000003PRSWM1Q02    003PRSWM1
0297474905999992000022106004+42900+143170FM-15+0084RJCT V0200101N001510075019N0112651N1-00101-00701999999ADDGA1021+003009999GA2071+007509999GA3071+030009999GF107991999999999999999999MA1099701999999MW1851REMMET155RJCT 0600Z 01003KT 9999 -SHSN FEW010 BKN025 BKN100 M01/M07 Q0997 RMK 1ST010 6CU025 6AC100 A2947 FCST 0615 TEMPO 0608 4000 BECMG 0809 NSW FEW025CU SCT040SC;EQDQ01+000003PRSWM1Q02    003PRSWM1
0238474905999992000022107004+42900+143170FM-15+0084RJCT V0200201N004110075019N0112651N1-00201-00701999999ADDGA1021+003009999GA2071+007509999GA3071+030009999GF107991999999999999999999MA1099801999999MW1851REMMET096RJCT 0700Z 02008KT 9999 -SHSN FEW010 BKN025 BKN100 M02/M07 Q0998 RMK 1ST010 6CU025 7AC100 A2949;EQDQ01+000003PRSWM1Q02    003PRSWM1
0248474905999992000022108004+42900+143170FM-15+0084RJCT V0200401N002610090019N0112651N1-00201-00901999999ADDGA1021+004509999GA2071+009009999GA3071+030009999GF107991999999999999999999MA1099901999999MW1001REMMET122RJCT 0800Z 04005KT 9999 FEW015 BKN030 BKN100 M02/M09 Q0999 RMK 1ST015 6CU030 7AC100 A2951 FCST 0817 TEMPO 0810 4000 -SHSN;EQDQ01+000000PRSWM2
0156474905999992000022122004+42900+143170FM-15+0084RJCT V02099999999992200019N0112651N1-01801-02301999999ADDGA1021+004509999GF102991999999999999999999MA1100511999999MW1001REMMET062RJCT 2200Z VRB01KT 9999 FEW015 M18/M23 Q1005 RMK 1SC015 A2969;EQDQ01+000000PRSWM2
0188474905999992000022123004+42900+143170FM-15+0084RJCT V0203201N001012200019N0112651N1-01201-01801999999ADDGA1021+006009999GF102991999999999999999999MA1100511999999MW1001REMMET094RJCT 2300Z 32002KT 9999 FEW020 M12/M18 Q1005 RMK 1SC020 A2970 FCST 2308 TEMPO 0208 31014G27KT;EQDQ01+000000PRSWM2
0188474905999992000022200004+42900+143170FM-15+0084RJCT V0200901N001012200019N0112651N1-01001-01901999999ADDGA1021+007509999GF102991999999999999999999MA1100511999999MW1001REMMET094RJCT 0000Z 09002KT 9999 FEW025 M10/M19 Q1005 RMK 1CU025 A2970 FCST 0009 TEMPO 0208 31014G27KT;EQDQ01+000000PRSWM2
0156474905999992000022201004+42900+143170FM-15+0084RJCT V0201201N002112200019N0112651N1-00901-01801999999ADDGA1021+007509999GF102991999999999999999999MA1100511999999MW1001REMMET062RJCT 0100Z 12004KT 9999 FEW025 M09/M18 Q1005 RMK 1CU025 A2969;EQDQ01+000000PRSWM2
0167474905999992000022202004+42900+143170FM-15+0084RJCT V0203001N007712200019N0112651N1-00301-01501999999ADDGA1021+007509999GF102991999999999999999999MA1100511999999MW1001OC101341REMMET065RJCT 0200Z 30015G26KT 9999 FEW025 M03/M15 Q1005 RMK 1CU025 A2968;EQDQ01+000000PRSWM2
0183474905999992000022203004+42900+143170FM-15+0084RJCT V0203001N008712200019N0112651N1-00301-01401999999ADDGA1021+007509999GF102991999999999999999999MA1100411999999MW1001OC101441REMMET081RJCT 0300Z 30017G28KT 9999 FEW025 M03/M14 Q1004 RMK 1CU025 A2966 FCST 0312 NOSIG;EQDQ01+000000PRSWM2
0167474905999992000022204004+42900+143170FM-15+0084RJCT V0202901N009312200019N0112651N1-00301-01401999999ADDGA1021+007509999GF102991999999999999999999MA1100411999999MW1001OC101491REMMET065RJCT 0400Z 29018G29KT 9999 FEW025 M03/M14 Q1004 RMK 1CU025 A2965;EQDQ01+000000PRSWM2
0167474905999992000022205004+42900+143170FM-15+0084RJCT V0202901N009812200019N0112651N1-00301-01401999999ADDGA1021+007509999GF102991999999999999999999MA1100411999999MW1001OC101591REMMET065RJCT 0500Z 29019G31KT 9999 FEW025 M03/M14 Q1004 RMK 1CU025 A2966;EQDQ01+000000PRSWM2
0176474905999992000022206004+42900+143170FM-15+0084RJCT V0202901N009312200019N0112651N1-00301-01401999999ADDGA1021+007509999GF102991999999999999999999MA1100511999999MW1001REMMET082RJCT 0600Z COR 29018KT 9999 FEW025 M03/M14 Q1005 RMK 1CU025 A2968 FCST 0615 NOSIG;EQDQ01+000000PRSWM2
0202474905999992000022306004+42900+143170FM-15+0084RJCT V0203001N002610105019N0112651N1-00101-00901999999ADDGA1021+007509999GA2071+010509999GF107991999999999999999999MA1100911999999MW1001REMMET092RJCT 0600Z 30005KT 9999 FEW025 BKN035 M01/M09 Q1009 RMK 1CU025 5CU035 A2980 FCST 0615 NOSIG;EQDQ01+000000PRSWM2
0186474905999992000022307004+42900+143170FM-15+0084RJCT V0203101N003612200019N0112651N1-00201-01001999999ADDGA1021+009009999GA2021+012009999GF104991999999999999999999MA1100911999999MW1001REMMET076RJCT 0700Z 31007KT 9999 FEW030 SCT040 M02/M10 Q1009 RMK 1CU030 4CU040 A2981;EQDQ01+000000PRSWM2
0202474905999992000022308004+42900+143170FM-15+0084RJCT V0203001N004612200019N0112651N1-00401-01101999999ADDGA1021+007509999GA2021+010509999GF104991999999999999999999MA1100911999999MW1001REMMET092RJCT 0800Z 30009KT 9999 FEW025 SCT035 M04/M11 Q1009 RMK 1CU025 3CU035 A2982 FCST 0817 NOSIG;EQDQ01+000000PRSWM2
0216474905999992000022401004+42900+143170FM-15+0084RJCT V0202701N002610630019N0112651N1-00601-01301999999ADDGA1021+012009999GA2021+030009999GA3071+063009999GF107991999999999999999999MA1101021999999MW1001REMMET090RJCT 0100Z 27005KT 9999 FEW040 SCT100 BKN210 M06/M13 Q1010 RMK 2CU040 4AC100 6CI210 A2984;EQDQ01+000000PRSWM2
0216474905999992000022402004+42900+143170FM-15+0084RJCT V0201901N001010630019N0112651N1-00601-01301999999ADDGA1021+009009999GA2021+030009999GA3071+063009999GF107991999999999999999999MA1101021999999MW1001REMMET090RJCT 0200Z 19002KT 9999 FEW030 SCT100 BKN210 M06/M13 Q1010 RMK 1CU030 3AC100 5CI210 A2982;EQDQ01+000000PRSWM2
0186474905999992000022404004+42900+143170FM-15+0084RJCT V0202601N002112200019N0112651N1-00301-01201999999ADDGA1021+009009999GA2021+063009999GF104991999999999999999999MA1100711999999MW1001REMMET076RJCT 0400Z 26004KT 9999 FEW030 SCT210 M03/M12 Q1007 RMK 1CU030 3CI210 A2975;EQDQ01+000000PRSWM2
0186474905999992000022405004+42900+143170FM-15+0084RJCT V0203101N001512200019N0112651N1-00301-01301999999ADDGA1021+009009999GA2021+063009999GF104991999999999999999999MA1100711999999MW1001REMMET076RJCT 0500Z 31003KT 9999 FEW030 SCT210 M03/M13 Q1007 RMK 2CU030 3CI210 A2974;EQDQ01+000000PRSWM2
0244474905999992000022406004+42900+143170FM-15+0084RJCT V0209999V000510300019N0112651N1-00301-01401999999ADDGA1021+007509999GA2071+030009999GF107991999999999999999999MA1100711999999MW1001REMMET134RJCT 0600Z COR VRB01KT 9999 FEW025 BKN100 M03/M14 Q1007 RMK 1CU025 5AC100 A2974 FCST COR 0615 BECMG 0810 2000 -SHSN BKN010ST BKN020CU;EQDQ01+000000PRSWM2
0186474905999992000022407004+42900+143170FM-15+0084RJCT V0202701N002610300019N0112651N1-00401-01201999999ADDGA1021+007509999GA2071+030009999GF107991999999999999999999MA1100711999999MW1001REMMET076RJCT 0700Z 27005KT 9999 FEW025 BKN100 M04/M12 Q1007 RMK 2CU025 6AC100 A2974;EQDQ01+000000PRSWM2
0236474905999992000022408004+42900+143170FM-15+0084RJCT V0202701N002610300019N0112651N1-00501-01301999999ADDGA1021+007509999GA2071+030009999GF107991999999999999999999MA1100711999999MW1001REMMET126RJCT 0800Z 27005KT 9999 SCT025 BKN100 M05/M13 Q1007 RMK 3CU025 7AC100 A2975 FCST 0817 BECMG 0911 2000 -SHSN BKN010ST BKN020CU;EQDQ01+000000PRSWM2
0156474905999992000022422004+42900+143170FM-15+0084RJCT V0203401N001012200019N0112651N1-01801-02201999999ADDGA1021+003009999GF102991999999999999999999MA1101021999999MW1001REMMET062RJCT 2200Z 34002KT 9999 FEW010 M18/M22 Q1010 RMK 1ST010 A2983;EQDQ01+000000PRSWM2
0188474905999992000022423004+42900+143170FM-15+0084RJCT V02099999999992200019N0112651N1-01601-01901999999ADDGA1021+003009999GF102991999999999999999999MA1101021999999MW1001REMMET094RJCT 2300Z VRB02KT 9999 FEW010 M16/M19 Q1010 RMK 1ST010 A2984 FCST 2308 TEMPO 0407 31010G20KT;EQDQ01+000000PRSWM2
0188474905999992000022500004+42900+143170FM-15+0084RJCT V0209999C000012200019N0112651N1-01101-01701999999ADDGA1021+007509999GF102991999999999999999999MA1101021999999MW1001REMMET094RJCT 0000Z 00000KT 9999 FEW025 M11/M17 Q1010 RMK 1SC025 A2983 FCST 0009 TEMPO 0407 31010G20KT;EQDQ01+000000PRSWM2
0156474905999992000022501004+42900+143170FM-15+0084RJCT V0203001N000512200019N0112651N1-00901-01501999999ADDGA1021+007509999GF102991999999999999999999MA1100911999999MW1001REMMET062RJCT 0100Z 30001KT 9999 FEW025 M09/M15 Q1009 RMK 1CU025 A2982;EQDQ01+000000PRSWM2
0156474905999992000022502004+42900+143170FM-15+0084RJCT V0202701N001512200019N0112651N1-00601-01401999999ADDGA1021+009009999GF102991999999999999999999MA1100911999999MW1001REMMET062RJCT 0200Z 27003KT 9999 FEW030 M06/M14 Q1009 RMK 1CU030 A2980;EQDQ01+000000PRSWM2
0188474905999992000022503004+42900+143170FM-15+0084RJCT V0202701N002612200019N0112651N1-00401-01301999999ADDGA1021+007509999GF102991999999999999999999MA1100811999999MW1001REMMET094RJCT 0300Z 27005KT 9999 FEW025 M04/M13 Q1008 RMK 1CU025 A2977 FCST 0312 TEMPO 0407 31010G20KT;EQDQ01+000000PRSWM2
0186474905999992000022504004+42900+143170FM-15+0084RJCT V0203001N005112200019N0112651N1-00101-01301999999ADDGA1021+007509999GA2021+012009999GF104991999999999999999999MA1100711999999MW1001REMMET076RJCT 0400Z 30010KT 9999 FEW025 SCT040 M01/M13 Q1007 RMK 1CU025 3CU040 A2975;EQDQ01+000000PRSWM2
0186474905999992000022505004+42900+143170FM-15+0084RJCT V0203101N005712200019N0112651N1-00201-01301999999ADDGA1021+007509999GA2021+012009999GF104991999999999999999999MA1100711999999MW1001REMMET076RJCT 0500Z 31011KT 9999 FEW025 SCT040 M02/M13 Q1007 RMK 1CU025 4CU040 A2975;EQDQ01+000000PRSWM2
0202474905999992000022506004+42900+143170FM-15+0084RJCT V0203001N006212200019N0112651N1-00301-01201999999ADDGA1021+007509999GA2021+012009999GF104991999999999999999999MA1100711999999MW1001REMMET092RJCT 0600Z 30012KT 9999 FEW025 SCT040 M03/M12 Q1007 RMK 1CU025 4CU040 A2976 FCST 0615 NOSIG;EQDQ01+000000PRSWM2
0156474905999992000022507004+42900+143170FM-15+0084RJCT V0203001N004612200019N0112651N1-00301-01201999999ADDGA1021+007509999GF102991999999999999999999MA1100811999999MW1001REMMET062RJCT 0700Z 30009KT 9999 FEW025 M03/M12 Q1008 RMK 2CU025 A2976;EQDQ01+000000PRSWM2
0172474905999992000022508004+42900+143170FM-15+0084RJCT V0202901N005112200019N0112651N1-00401-01301999999ADDGA1021+007509999GF102991999999999999999999MA1100811999999MW1001REMMET078RJCT 0800Z 29010KT 9999 FEW025 M04/M13 Q1008 RMK 2CU025 A2977 FCST 0817 NOSIG;EQDQ01+000000PRSWM2
0172474905999992000022600004+42900+143170FM-15+0084RJCT V0200301N002112200019N0112651N1-00401-01201999999ADDGA1021+007509999GF102991999999999999999999MA1101291999999MW1001REMMET078RJCT 0000Z 03004KT 9999 FEW025 M04/M12 Q1013 RMK 1CU025 A2992 FCST 0009 NOSIG;EQDQ01+000000PRSWM2
0156474905999992000022601004+42900+143170FM-15+0084RJCT V0203101N004112200019N0112651N1-00201-01201999999ADDGA1021+007509999GF102991999999999999999999MA1101291999999MW1001REMMET062RJCT 0100Z 31008KT 9999 FEW025 M02/M12 Q1013 RMK 1CU025 A2992;EQDQ01+000000PRSWM2
0167474905999992000022602004+42900+143170FM-15+0084RJCT V0203001N006212200019N0112651N1-00101-01201999999ADDGA1021+009009999GF102991999999999999999999MA1101291999999MW1001OC101131REMMET065RJCT 0200Z 30012G22KT 9999 FEW030 M01/M12 Q1013 RMK 1CU030 A2991;EQDQ01+000000PRSWM2
0183474905999992000022603004+42900+143170FM-15+0084RJCT V0203001N006212200019N0112651N1+00001-01201999999ADDGA1021+007509999GF102991999999999999999999MA1101191999999MW1001OC101131REMMET081RJCT 0300Z 30012G22KT 9999 FEW025 M00/M12 Q1012 RMK 1CU025 A2990 FCST 0312 NOSIG;EQDQ01+000000PRSWM2
0166474905999992000022604004+42900+143170FM-15+0084RJCT V0203101N006212200019N0112651N1+00001-01201999999ADDGA1021+009009999GF102991999999999999999999MA1101191999999MW1001OC101131REMMET064RJCT 0400Z 31012G22KT 9999 FEW030 00/M12 Q1012 RMK 1CU030 A2988;EQDQ01+000000PRSWM2
0257474905999992000022800004+42900+143170FM-15+0084RJCT V0202701N001510120019N0112651N1-01001-01401999999ADDGA1021+006009999GA2021+009009999GA3071+012009999GF107991999999999999999999MA1101291999999MW1001REMMET131RJCT 0000Z 27003KT 9999 FEW020 SCT030 BKN040 M10/M14 Q1013 RMK 1CU020 3CU030 6SC040 A2993 FCST 0009 TEMPO 0208 3000 -SHSN BKN030CU;EQDQ01+000000PRSWM2
0216474905999992000022801004+42900+143170FM-15+0084RJCT V0202701N002110090019N0112651N1-00801-01301999999ADDGA1021+006009999GA2071+009009999GA3071+012009999GF107991999999999999999999MA1101291999999MW1001REMMET090RJCT 0100Z 27004KT 9999 FEW020 BKN030 BKN040 M08/M13 Q1013 RMK 1CU020 5CU030 7SC040 A2992;EQDQ01+000000PRSWM2
0240474905999992000022801124+42900+143170FM-16+0084RJCT V0202601N002610090019N0112651N1-00801-01301999999ADDGA1021+006009999GA2071+009009999GA3071+012009999GF107991999999999999999999MA1101291999999MW1851REMMET098RJCT 280112Z 26005KT 9999 -SHSN FEW020 BKN030 BKN040 M08/M13 Q1013 RMK 1CU020 6CU030 7SC040 A2991;EQDQ01+000003PRSWM1Q02    003PRSWM1
0208474905999992000022802004+42900+143170FM-15+0084RJCT V0202801N002610090019N0030001N1-00801-01301999999ADDGA1021+004509999GA2081+009009999GF108991999999999999999999MA1101291999999MW1851REMMET082RJCT 0200Z 28005KT 3000 -SHSN FEW015 OVC030 M08/M13 Q1013 RMK 1ST015 8CU030 A2991;EQDQ01+000003PRSWM1Q02    003PRSWM1
0210474905999992000022802124+42900+143170FM-16+0084RJCT V0202601N002610075019N0016001N1-00801-01101999999ADDGA1021+003009999GA2081+007509999GF108991999999999999999999MA1101191999999MW1851REMMET084RJCT 280212Z 26005KT 1600 -SHSN FEW010 OVC025 M08/M11 Q1012 RMK 1ST010 8CU025 A2990;EQDQ01+000003PRSWM1Q02    003PRSWM1
0249474905999992000022803004+42900+143170FM-15+0084RJCT V0202901N002110075019N0020001N1-00801-01101999999ADDGA1021+003009999GA2081+007509999GF108991999999999999999999MA1101081999999MW1851REMMET123RJCT 0300Z 29004KT 2000 -SHSN FEW010 OVC025 M08/M11 Q1011 RMK 1ST010 8CU025 A2988 FCST 0312 TEMPO 0508 3500 BECMG 0708 NSW;EQDQ01+000003PRSWM1Q02    003PRSWM1
0238474905999992000022803224+42900+143170FM-16+0084RJCT V0202801N002610024019N0012001N1-00801-01001999999ADDGA1021+001509999GA2071+002409999GA3071+004509999GF107991999999999999999999MA1101081999999MW1711REMMET096RJCT 280322Z 28005KT 1200 -SN SCT005 BKN008 BKN015 M08/M10 Q1011 RMK 3ST005 6ST008 7NS015 A2986;EQDQ01+000003PRSWM1Q02    003PRSWM1
0238474905999992000022803504+42900+143170FM-15+0084RJCT V0202701N002610024019N0016001N1-00801-01001999999ADDGA1021+001509999GA2071+002409999GA3071+004509999GF107991999999999999999999MA1101081999999MW1711REMMET096RJCT 280350Z 27005KT 1600 -SN FEW005 BKN008 BKN015 M08/M10 Q1011 RMK 2ST005 6ST008 7NS015 A2985;EQDQ01+000003PRSWM1Q02    003PRSWM1
0201474905999992000022808004+42900+143170FM-15+0084RJCT V0202401N00101000151CN0009001N1-00701-00901999999ADDGA1091+000159999GF109991999999000251999999MA1101081999999MW1731REMMET091RJCT 0800Z 24002KT 0900 SN VV004 M07/M09 Q1011 RMK A2986 FCST 0817 BECMG 1112 NSW BKN030CU;EQDQ01+000003PRSWM1Q02    003PRSWM1
0186474905999992000022822004+42900+143170FM-15+0084RJCT V0202901N001012200019N0112651N1-01501-02301999999ADDGA1021+009009999GA2021+042009999GF104991999999999999999999MA1101291999999MW1001REMMET076RJCT 2200Z 29002KT 9999 FEW030 SCT140 M15/M23 Q1013 RMK 1SC030 3AC140 A2993;EQDQ01+000000PRSWM2
0172474905999992000022823004+42900+143170FM-15+0084RJCT V0202701N001512200019N0112651N1-01101-01202999999ADDGA1021+012009999GF102991999999999999999999MA1101391999999MW1001REMMET078RJCT 2300Z 27003KT 9999 FEW040 M11/M12 Q1014 RMK 1SC040 A2996 FCST 2308 NOSIG;EQDQ01+000000PRSWM2
0172474905999992000022900004+42900+143170FM-15+0084RJCT V0202601N002112200019N0112651N1-00801-01201999999ADDGA1021+009009999GF102991999999999999999999MA1101491999999MW1001REMMET078RJCT 0000Z 26004KT 9999 FEW030 M08/M12 Q1015 RMK 1SC030 A2997 FCST 0009 NOSIG;EQDQ01+000000PRSWM2
0156474905999992000022901004+42900+143170FM-15+0084RJCT V0202601N003112200019N0112651N1-00601-01201999999ADDGA1021+009009999GF102991999999999999999999MA1101491999999MW1001REMMET062RJCT 0100Z 26006KT 9999 FEW030 M06/M12 Q1015 RMK 1SC030 A2997;EQDQ01+000000PRSWM2
0156474905999992000022902004+42900+143170FM-15+0084RJCT V0202001N001012200019N0112651N1-00501-01301999999ADDGA1021+009009999GF102991999999999999999999MA1101391999999MW1001REMMET062RJCT 0200Z 20002KT 9999 FEW030 M05/M13 Q1014 RMK 1CU030 A2997;EQDQ01+000000PRSWM2
0172474905999992000022903004+42900+143170FM-15+0084RJCT V0202601N001512200019N0112651N1-00401-01201999999ADDGA1021+009009999GF102991999999999999999999MA1101391999999MW1001REMMET078RJCT 0300Z 26003KT 9999 FEW030 M04/M12 Q1014 RMK 1CU030 A2996 FCST 0312 NOSIG;EQDQ01+000000PRSWM2
0156474905999992000022904004+42900+143170FM-15+0084RJCT V0200501N001512200019N0112651N1-00301-01201999999ADDGA1021+009009999GF102991999999999999999999MA1101391999999MW1001REMMET062RJCT 0400Z 05003KT 9999 FEW030 M03/M12 Q1014 RMK 1CU030 A2994;EQDQ01+000000PRSWM2
0156474905999992000022905004+42900+143170FM-15+0084RJCT V0200601N001012200019N0112651N1-00301-01201999999ADDGA1021+010509999GF102991999999999999999999MA1101291999999MW1001REMMET062RJCT 0500Z 06002KT 9999 FEW035 M03/M12 Q1013 RMK 1CU035 A2993;EQDQ01+000000PRSWM2
0172474905999992000022906004+42900+143170FM-15+0084RJCT V0202401N002612200019N0112651N1-00401-01201999999ADDGA1021+009009999GF102991999999999999999999MA1101291999999MW1001REMMET078RJCT 0600Z 24005KT 9999 FEW030 M04/M12 Q1013 RMK 1CU030 A2993 FCST 0615 NOSIG;EQDQ01+000000PRSWM2
0202474905999992000022908004+42900+143170FM-15+0084RJCT V0202201N001512200019N0112651N1-00601-01301999999ADDGA1021+010509999GA2021+063009999GF104991999999999999999999MA1101391999999MW1001REMMET092RJCT 0800Z 22003KT 9999 FEW035 SCT210 M06/M13 Q1014 RMK 1SC035 3CI210 A2995 FCST 0817 NOSIG;EQDQ01+000000PRSWM2
0156474905999992000022922004+42900+143170FM-15+0084RJCT V0200501N000512200019N0112651N1-02101-02601999999ADDGA1021+006009999GF102991999999999999999999MA1101591999999MW1001REMMET062RJCT 2200Z 05001KT 9999 FEW020 M21/M26 Q1016 RMK 1SC020 A3002;EQDQ01+000000PRSWM2
0172474905999992000022923004+42900+143170FM-15+0084RJCT V02099999999992200019N0112651N1-01601-02001999999ADDGA1021+007509999GF102991999999999999999999MA1101591999999MW1001REMMET078RJCT 2300Z VRB01KT 9999 FEW025 M16/M20 Q1016 RMK 1SC025 A3002 FCST 2308 NOSIG;EQDQ01+000000PRSWM2
0172474905999992000030100004+42900+143170FM-15+0084RJCT V0203101N000512200019N0112651N1-01101-01701999999ADDGA1021+009009999GF102991999999999999999999MA1101691999999MW1001REMMET078RJCT 0000Z 31001KT 9999 FEW030 M11/M17 Q1017 RMK 1CU030 A3003 FCST 0009 NOSIG;EQDQ01+000000PRSWM2
0156474905999992000030101004+42900+143170FM-15+0084RJCT V0201401N001512200019N0112651N1-00401-01401999999ADDGA1021+009009999GF102991999999999999999999MA1101491999999MW1001REMMET062RJCT 0100Z 14003KT 9999 FEW030 M04/M14 Q1015 RMK 1CU030 A2999;EQDQ01+000000PRSWM2
0156474905999992000030102004+42900+143170FM-15+0084RJCT V0201501N001512200019N0112651N1+00001-01201999999ADDGA1021+007509999GF102991999999999999999999MA1101491999999MW1001REMMET062RJCT 0200Z 15003KT 9999 FEW025 M00/M12 Q1015 RMK 1CU025 A2998;EQDQ01+000000PRSWM2
0172474905999992000030103004+42900+143170FM-15+0084RJCT V0202601N001012200019N0112651N1-00101-01101999999ADDGA1021+007509999GF102991999999999999999999MA1101391999999MW1001REMMET078RJCT 0300Z 26002KT 9999 FEW025 M01/M11 Q1014 RMK 2CU025 A2996 FCST 0312 NOSIG;EQDQ01+000000PRSWM2
0155474905999992000030104004+42900+143170FM-15+0084RJCT V0202701N004112200019N0112651N1+00201-01101999999ADDGA1021+007509999GF102991999999999999999999MA1101391999999MW1001REMMET061RJCT 0400Z 27008KT 9999 FEW025 02/M11 Q1014 RMK 1CU025 A2997;EQDQ01+000000PRSWM2
0166474905999992000030105004+42900+143170FM-15+0084RJCT V0202801N006212200019N0112651N1+00201-01101999999ADDGA1021+007509999GF102991999999999999999999MA1101391999999MW1001OC101131REMMET064RJCT 0500Z 28012G22KT 9999 FEW025 02/M11 Q1014 RMK 1CU025 A2996;EQDQ01+000000PRSWM2
0171474905999992000030106004+42900+143170FM-15+0084RJCT V0203101N005712200019N0112651N1+00201-01001999999ADDGA1021+007509999GF102991999999999999999999MA1101391999999MW1001REMMET077RJCT 0600Z 31011KT 9999 FEW025 02/M10 Q1014 RMK 1CU025 A2994 FCST 0615 NOSIG;EQDQ01+000000PRSWM2
0155474905999992000030107004+42900+143170FM-15+0084RJCT V0203301N004612200019N0112651N1+00101-01101999999ADDGA1021+007509999GF102991999999999999999999MA1101391999999MW1001REMMET061RJCT 0700Z 33009KT 9999 FEW025 01/M11 Q1014 RMK 1CU025 A2994;EQDQ01+000000PRSWM2
0171474905999992000030108004+42900+143170FM-15+0084RJCT V0203301N002112200019N0112651N1+00001-01101999999ADDGA1021+007509999GF102991999999999999999999MA1101391999999MW1001REMMET077RJCT 0800Z 33004KT 9999 FEW025 00/M11 Q1014 RMK 1CU025 A2994 FCST 0817 NOSIG;EQDQ01+000000PRSWM2
0253474905999992000030123004+42900+143170FM-15+0084RJCT V0202001N000512200019N0112651N1-00801-01201999999ADDGA1021+004509999GA2021+007509999GF104991999999999999999999MA1101191999999MW1001REMMET143RJCT 2300Z COR 20001KT 9999 FEW015 SCT025 M08/M12 Q1012 RMK 1ST015 3CU025 A2989 FCST 2308 TEMPO 0001 5000 -SHSN BKN025CU BECMG 0405 31012G25KT;EQDQ01+000000PRSWM2
0214474905999992000030200004+42900+143170FM-15+0084RJCT V0202101N001512200019N0112651N1-00301-01001999999ADDGA1021+006009999GF102991999999999999999999MA1101081999999MW1001REMMET120RJCT 0000Z 21003KT 9999 FEW020 M03/M10 Q1011 RMK 2CU020 A2987 FCST 0009 TEMPO 0001 -SHSN BKN025CU BECMG 0405 31012G25KT;EQDQ01+000000PRSWM2
0156474905999992000030201004+42900+143170FM-15+0084RJCT V0202101N001512200019N0112651N1-00101-00901999999ADDGA1021+007509999GF102991999999999999999999MA1101081999999MW1001REMMET062RJCT 0100Z 21003KT 9999 FEW025 M01/M09 Q1011 RMK 1CU025 A2987;EQDQ01+000000PRSWM2
0155474905999992000030202004+42900+143170FM-15+0084RJCT V02099999999992200019N0112651N1+00301-00701999999ADDGA1021+007509999GF102991999999999999999999MA1101081999999MW1001REMMET061RJCT 0200Z VRB02KT 9999 FEW025 03/M07 Q1011 RMK 2CU025 A2987;EQDQ01+000000PRSWM2
0182474905999992000030203004+42900+143170FM-15+0084RJCT V0203101N006212200019N0112651N1+00601-00501999999ADDGA1021+007509999GF102991999999999999999999MA1101021999999MW1001OC101131REMMET080RJCT 0300Z 31012G22KT 9999 FEW025 06/M05 Q1010 RMK 2CU025 A2985 FCST 0312 NOSIG;EQDQ01+000000PRSWM2
0166474905999992000030204004+42900+143170FM-15+0084RJCT V0203201N005712200019N0112651N1+00601-00601999999ADDGA1021+007509999GF104991999999999999999999MA1101021999999MW1001OC101081REMMET064RJCT 0400Z 32011G21KT 9999 SCT025 06/M06 Q1010 RMK 3CU025 A2984;EQDQ01+000000PRSWM2
0166474905999992000030205004+42900+143170FM-15+0084RJCT V0203301N006212200019N0112651N1+00501-00501999999ADDGA1021+007509999GF102991999999999999999999MA1101081999999MW1001OC101131REMMET064RJCT 0500Z 33012G22KT 9999 FEW025 05/M05 Q1011 RMK 2CU025 A2985;EQDQ01+000000PRSWM2
0156474905999992000030221004+42900+143170FM-15+0084RJCT V0201301N000512200019N0112651N1-01501-01701999999ADDGA1021+018009999GF102991999999999999999999MA1102101999999MW1001REMMET062RJCT 2100Z 13001KT 9999 FEW060 M15/M17 Q1021 RMK 1SC060 A3017;EQDQ01+000000PRSWM2
0130474905999992000030222004+42900+143170FM-15+0084RJCT V0203101N000512200019N0112651N1-01401-01601999999ADDGF100991999999999999999999MA1102201999999MW1001REMMET052RJCT 2200Z 31001KT 9999 SKC M14/M16 Q1022 RMK A3019;EQDQ01+000000PRSWM2
0146474905999992000030223004+42900+143170FM-15+0084RJCT V0203401N000512200019N0112651N1-01001-01201999999ADDGF100991999999999999999999MA1102301999999MW1001REMMET068RJCT 2300Z 34001KT 9999 SKC M10/M12 Q1023 RMK A3021 FCST 2308 NOSIG;EQDQ01+000000PRSWM2
0146474905999992000030300004+42900+143170FM-15+0084RJCT V0201301N000512200019N0112651N1-00601-01001999999ADDGF100991999999999999999999MA1102201999999MW1001REMMET068RJCT 0000Z 13001KT 9999 SKC M06/M10 Q1022 RMK A3020 FCST 0009 NOSIG;EQDQ01+000000PRSWM2
0130474905999992000030301004+42900+143170FM-15+0084RJCT V0201501N001512200019N0112651N1-00301-01001999999ADDGF100991999999999999999999MA1102201999999MW1001REMMET052RJCT 0100Z 15003KT 9999 SKC M03/M10 Q1022 RMK A3019;EQDQ01+000000PRSWM2
0130474905999992000030302004+42900+143170FM-15+0084RJCT V0202701N001012200019N0112651N1-00101-00801999999ADDGF100991999999999999999999MA1102101999999MW1001REMMET052RJCT 0200Z 27002KT 9999 SKC M01/M08 Q1021 RMK A3017;EQDQ01+000000PRSWM2
0145474905999992000030303004+42900+143170FM-15+0084RJCT V0203201N000512200019N0112651N1+00101-00801999999ADDGF100991999999999999999999MA1102001999999MW1001REMMET067RJCT 0300Z 32001KT 9999 SKC 01/M08 Q1020 RMK A3014 FCST 0312 NOSIG;EQDQ01+000000PRSWM2
0129474905999992000030304004+42900+143170FM-15+0084RJCT V0202101N001512200019N0112651N1+00201-00701999999ADDGF100991999999999999999999MA1101901999999MW1001REMMET051RJCT 0400Z 21003KT 9999 SKC 02/M07 Q1019 RMK A3011;EQDQ01+000000PRSWM2
0129474905999992000030305004+42900+143170FM-15+0084RJCT V0200901N000512200019N0112651N1+00401-00601999999ADDGF100991999999999999999999MA1101801999999MW1001REMMET051RJCT 0500Z 09001KT 9999 SKC 04/M06 Q1018 RMK A3008;EQDQ01+000000PRSWM2
0171474905999992000030306004+42900+143170FM-15+0084RJCT V0202701N001012200019N0112651N1+00401-00701999999ADDGA1021+090009999GF102991999999999999999999MA1101801999999MW1001REMMET077RJCT 0600Z 27002KT 9999 FEW300 04/M07 Q1018 RMK 2CI300 A3008 FCST 0615 NOSIG;EQDQ01+000000PRSWM2
0155474905999992000030307004+42900+143170FM-15+0084RJCT V0202601N002110840019N0112651N1+00301-00701999999ADDGA1071+084009999GF107991999999999999999999MA1101691999999MW1001REMMET061RJCT 0700Z 26004KT 9999 BKN280 03/M07 Q1017 RMK 5CI280 A3005;EQDQ01+000000PRSWM2
0201474905999992000030308004+42900+143170FM-15+0084RJCT V0202901N000510750019N0112651N1+00201-00601999999ADDGA1021+012009999GA2071+075009999GF107991999999999999999999MA1101691999999MW1001REMMET091RJCT 0800Z 29001KT 9999 FEW040 BKN250 02/M06 Q1017 RMK 1SC040 6CI250 A3005 FCST 0817 NOSIG;EQDQ01+000000PRSWM2
0201474905999992000030401004+42900+143170FM-15+0084RJCT V02099999999992200019N9999999N1+00301-00501999999ADDGA1021+009009999GA2021+030009999GF104991999999999999999999MA1100811999999MW1001REMMET075RJCT 0100Z VRB03KT 6000 FEW030 SCT100 03/M05 Q1008 RMK 1SC030 3AC100 A2979;EQDQ01+060002VODIS Q02+000000PRSWM2
0156474905999992000030522004+42900+143170FM-15+0084RJCT V0202001N001510720019N0112651N1-00901-01101999999ADDGA1071+072009999GF107991999999999999999999MA1101291999999MW1001REMMET062RJCT 2200Z 20003KT 9999 BKN240 M09/M11 Q1013 RMK 6CC240 A2993;EQDQ01+000000PRSWM2
0172474905999992000030523004+42900+143170FM-15+0084RJCT V0201701N001510720019N0112651N1-00601-01001999999ADDGA1071+072009999GF107991999999999999999999MA1101391999999MW1001REMMET078RJCT 2300Z 17003KT 9999 BKN240 M06/M10 Q1014 RMK 6CI240 A2994 FCST 2308 NOSIG;EQDQ01+000000PRSWM2
0172474905999992000030600004+42900+143170FM-15+0084RJCT V02099999999990720019N0112651N1-00401-01001999999ADDGA1071+072009999GF107991999999999999999999MA1101391999999MW1001REMMET078RJCT 0000Z VRB01KT 9999 BKN240 M04/M10 Q1014 RMK 6CI240 A2994 FCST 0009 NOSIG;EQDQ01+000000PRSWM2
0155474905999992000030601004+42900+143170FM-15+0084RJCT V0201501N003110720019N0112651N1+00001-00801999999ADDGA1071+072009999GF107991999999999999999999MA1101291999999MW1001REMMET061RJCT 0100Z 15006KT 9999 BKN240 00/M08 Q1013 RMK 6CI240 A2993;EQDQ01+000000PRSWM2
0185474905999992000030602004+42900+143170FM-15+0084RJCT V0201501N002610720019N0112651N1+00201-00801999999ADDGA1021+012009999GA2071+072009999GF107991999999999999999999MA1101291999999MW1001REMMET075RJCT 0200Z 15005KT 9999 FEW040 BKN240 02/M08 Q1013 RMK 1CU040 6CI240 A2992;EQDQ01+000000PRSWM2
0201474905999992000030603004+42900+143170FM-15+0084RJCT V0201601N002110720019N0112651N1+00301-00801999999ADDGA1021+012009999GA2071+072009999GF107991999999999999999999MA1101191999999MW1001REMMET091RJCT 0300Z 16004KT 9999 FEW040 BKN240 03/M08 Q1012 RMK 1CU040 5CI240 A2991 FCST 0312 NOSIG;EQDQ01+000000PRSWM2
0185474905999992000030604004+42900+143170FM-15+0084RJCT V0201801N003110720019N0112651N1+00401-01001999999ADDGA1021+010509999GA2071+072009999GF107991999999999999999999MA1101191999999MW1001REMMET075RJCT 0400Z 18006KT 9999 FEW035 BKN240 04/M10 Q1012 RMK 2CU035 5CI240 A2989;EQDQ01+000000PRSWM2
0185474905999992000030605004+42900+143170FM-15+0084RJCT V0201701N005110720019N0112651N1+00401-00901999999ADDGA1021+010509999GA2071+072009999GF107991999999999999999999MA1101081999999MW1001REMMET075RJCT 0500Z 17010KT 9999 FEW035 BKN240 04/M09 Q1011 RMK 1CU035 5CI240 A2987;EQDQ01+000000PRSWM2
0201474905999992000030606004+42900+143170FM-15+0084RJCT V0201501N005710720019N0112651N1+00301-00801999999ADDGA1021+012009999GA2071+072009999GF107991999999999999999999MA1101081999999MW1001REMMET091RJCT 0600Z 15011KT 9999 FEW040 BKN240 03/M08 Q1011 RMK 1CU040 6CI240 A2987 FCST 0615 NOSIG;EQDQ01+000000PRSWM2
0185474905999992000030607004+42900+143170FM-15+0084RJCT V0201801N003612200019N0112651N1+00201-00701999999ADDGA1021+013509999GA2021+072009999GF104991999999999999999999MA1101081999999MW1001REMMET075RJCT 0700Z 18007KT 9999 FEW045 SCT240 02/M07 Q1011 RMK 1CU045 4CI240 A2987;EQDQ01+000000PRSWM2
0201474905999992000030608004+42900+143170FM-15+0084RJCT V0201701N003112200019N0112651N1+00101-00701999999ADDGA1021+010509999GA2021+072009999GF104991999999999999999999MA1101081999999MW1001REMMET091RJCT 0800Z 17006KT 9999 FEW035 SCT240 01/M07 Q1011 RMK 1CU035 4CI240 A2986 FCST 0817 NOSIG;EQDQ01+000000PRSWM2
0271474905999992000030623004+42900+143170FM-15+0084RJCT V0202101N000510060019N0010001N1-00801-01001999999ADDGA1021+003009999GA2081+006009999GF108991999999999999999999MA1100411999999MW1851REMMET145RJCT 2300Z 21001KT 1000 -SHSN FEW010 OVC020 M08/M10 Q1004 RMK 2ST010 8CU020 A2966 FCST 2308 TEMPO 0104 BKN008ST BKN015ST BECMG 0507 NSW SCT020CU;EQDQ01+000003PRSWM1Q02    003PRSWM1
0210474905999992000030623094+42900+143170FM-16+0084RJCT V0202701N001510060019N0015001N1-00701-01001999999ADDGA1021+003009999GA2081+006009999GF108991999999999999999999MA1100411999999MW1851REMMET084RJCT 062309Z 27003KT 1500 -SHSN FEW010 OVC020 M07/M10 Q1004 RMK 2ST010 8CU020 A2966;EQDQ01+000003PRSWM1Q02    003PRSWM1
0271474905999992000030700004+42900+143170FM-15+0084RJCT V0203101N000510060019N0015001N1-00701-00901999999ADDGA1021+003009999GA2081+006009999GF108991999999999999999999MA1100311999999MW1851REMMET145RJCT 0000Z 31001KT 1500 -SHSN FEW010 OVC020 M07/M09 Q1003 RMK 2ST010 8CU020 A2962 FCST 0009 TEMPO 0104 BKN008ST BKN015ST BECMG 0507 NSW SCT020CU;EQDQ01+000003PRSWM1Q02    003PRSWM1
0210474905999992000030700144+42900+143170FM-16+0084RJCT V0202701N002610060019N0010001N1-00701-00901999999ADDGA1021+003009999GA2081+006009999GF108991999999999999999999MA1100201999999MW1851REMMET084RJCT 070014Z 27005KT 1000 -SHSN SCT010 OVC020 M07/M09 Q1002 RMK 4ST010 8CU020 A2961;EQDQ01+000003PRSWM1Q02    003PRSWM1
0238474905999992000030701004+42900+143170FM-15+0084RJCT V0202701N000510060019N0010001N1-00601-00801999999ADDGA1021+001509999GA2021+003009999GA3081+006009999GF108991999999999999999999MA1100101999999MW1851REMMET096RJCT 0100Z 27001KT 1000 -SHSN FEW005 SCT010 OVC020 M06/M08 Q1001 RMK 1ST005 3ST010 8CU020 A2958;EQDQ01+000003PRSWM1Q02    003PRSWM1
0239474905999992000030701404+42900+143170FM-16+0084RJCT V02099999999990042019N0008001N1-00501-00701999999ADDGA1021+001509999GA2071+004209999GA3081+005409999GF108991999999999999999999MA1100001999999MW1861REMMET097RJCT 070140Z VRB01KT 0800 SHSN SCT005 BKN014 OVC018 M05/M07 Q1000 RMK 3ST005 5ST014 8CU018 A2954;EQDQ01+000003PRSWM1Q02    003PRSWM1
0237474905999992000030702004+42900+143170FM-15+0084RJCT V0202101N000510030019N0005001N1-00501-00701999999ADDGA1021+001509999GA2071+003009999GA3081+005409999GF108991999999999999999999MA1100001999999MW1861REMMET095RJCT 0200Z 21001KT 0500 SHSN SCT005 BKN010 OVC018 M05/M07 Q1000 RMK 3ST005 5ST010 8CU018 A2953;EQDQ01+000003PRSWM1Q02    003PRSWM1
0293474905999992000030703004+42900+143170FM-15+0084RJCT V0202601N002610030019N0009001N1-00301-00601999999ADDGA1021+001509999GA2071+003009999GA3081+005409999GF108991999999999999999999MA1099801999999MW1861REMMET151RJCT 0300Z 26005KT 0900 SHSN SCT005 BKN010 OVC018 M03/M06 Q0998 RMK 3ST005 5ST010 8CU018 A2948 FCST 0312 BECMG 0507 NSW SCT020CU TEMPO 0812 27010G22KT;EQDQ01+000003PRSWM1Q02    003PRSWM1
0240474905999992000030703284+42900+143170FM-16+0084RJCT V0202901N001510060019N0020001N1-00101-00501999999ADDGA1021+001509999GA2021+003009999GA3071+006009999GF107991999999999999999999MA1099701999999MW1851REMMET098RJCT 070328Z 29003KT 2000 -SHSN FEW005 SCT010 BKN020 M01/M05 Q0997 RMK 2ST005 4ST010 7CU020 A2946;EQDQ01+000003PRSWM1Q02    003PRSWM1
0240474905999992000030703434+42900+143170FM-16+0084RJCT V0202801N001510090019N0050001N1+00001-00401999999ADDGA1021+001509999GA2021+003009999GA3071+009009999GF107991999999999999999999MA1099701999999MW1851REMMET098RJCT 070343Z 28003KT 5000 -SHSN FEW005 SCT010 BKN030 M00/M04 Q0997 RMK 1ST005 3ST010 5CU030 A2946;EQDQ01+000003PRSWM1Q02    003PRSWM1
0192474905999992000030704004+42900+143170FM-15+0084RJCT V0202801N002612200019N0060001N1+00001-00401999999ADDGA1021+003009999GA2021+009009999GF104991999999999999999999MA1099701999999MW1001REMMET082RJCT 0400Z 28005KT 6000 FEW010 SCT030 00/M04 Q0997 RESHSN RMK 1ST010 3CU030 A2945;EQDQ01+000000PRSWM2
0185474905999992000030705004+42900+143170FM-15+0084RJCT V0201301N000512200019N0112651N1+00101-00501999999ADDGA1021+004509999GA2021+009009999GF104991999999999999999999MA1099701999999MW1001REMMET075RJCT 0500Z 13001KT 9999 FEW015 SCT030 01/M05 Q0997 RMK 1ST015 4CU030 A2944;EQDQ01+000000PRSWM2
0201474905999992000030706004+42900+143170FM-15+0084RJCT V0202201N004112200019N0112651N1+00101-00501999999ADDGA1021+004509999GA2021+009009999GF104991999999999999999999MA1099701999999MW1001REMMET091RJCT 0600Z 22008KT 9999 FEW015 SCT030 01/M05 Q0997 RMK 1ST015 4CU030 A2944 FCST 0615 NOSIG;EQDQ01+000000PRSWM2
0185474905999992000030707004+42900+143170FM-15+0084RJCT V0202601N004112200019N0112651N1+00001-01001999999ADDGA1021+006009999GA2021+009009999GF104991999999999999999999MA1099701999999MW1001REMMET075RJCT 0700Z 26008KT 9999 FEW020 SCT030 00/M10 Q0997 RMK 1CU020 3CU030 A2945;EQDQ01+000000PRSWM2
0202474905999992000030708004+42900+143170FM-15+0084RJCT V0202201N005112200019N0112651N1-00101-01001999999ADDGA1021+006009999GA2021+009009999GF104991999999999999999999MA1099701999999MW1001REMMET092RJCT 0800Z 22010KT 9999 FEW020 SCT030 M01/M10 Q0997 RMK 1CU020 4CU030 A2946 FCST 0817 NOSIG;EQDQ01+000000PRSWM2
0186474905999992000030709004+42900+143170FM-15+0084RJCT V0202201N002610090019N0112651N1-00201-01001999999ADDGA1021+006009999GA2071+009009999GF107991999999999999999999MA1099801999999MW1001REMMET076RJCT 0900Z 22005KT 9999 FEW020 BKN030 M02/M10 Q0998 RMK 1CU020 5SC030 A2948;EQDQ01+000000PRSWM2
0186474905999992000030710004+42900+143170FM-15+0084RJCT V0202101N004612200019N0112651N1-00301-00801999999ADDGA1021+004509999GA2021+007509999GF104991999999999999999999MA1099801999999MW1001REMMET076RJCT 1000Z 21009KT 9999 FEW015 SCT025 M03/M08 Q0998 RMK 1ST015 3SC025 A2949;EQDQ01+000000PRSWM2
0238474905999992000030722004+42900+143170FM-15+0084RJCT V0201501N002610030019N0050001N1-00401-00901999999ADDGA1021+001809999GA2071+003009999GA3071+009009999GF107991999999999999999999MA1099491999999MW1851REMMET096RJCT 2200Z 15005KT 5000 -SHSN FEW006 BKN010 BKN030 M04/M09 Q0995 RMK 1ST006 5ST010 7CU030 A2939;EQDQ01+000003PRSWM1Q02    003PRSWM1
0233474905999992000030723004+42900+143170FM-15+0084RJCT V0201801N002612200019N0090001N1-00301-00801999999ADDGA1021+002109999GA2021+009009999GF104991999999999999999999MA1099491999999MW1851REMMET107RJCT 2300Z 18005KT 9000 -SHSN FEW007 SCT030 M03/M08 Q0995 RMK 2ST007 4CU030 A2938 FCST 2308 BECMG 2300 NSW;EQDQ01+000003PRSWM1Q02    003PRSWM1
0172474905999992000030800004+42900+143170FM-15+0084RJCT V0201901N005712200019N0112651N1-00101-00801999999ADDGA1021+007509999GF102991999999999999999999MA1099391999999MW1001REMMET078RJCT 0000Z 19011KT 9999 FEW025 M01/M08 Q0994 RMK 2CU025 A2937 FCST 0009 NOSIG;EQDQ01+000000PRSWM2
0185474905999992000030801004+42900+143170FM-15+0084RJCT V0201801N004612200019N0112651N1+00101-00801999999ADDGA1021+006009999GA2021+009009999GF104991999999999999999999MA1099391999999MW1001REMMET075RJCT 0100Z 18009KT 9999 FEW020 SCT030 01/M08 Q0994 RMK 1CU020 3CU030 A2936;EQDQ01+000000PRSWM2
0235474905999992000030802004+42900+143170FM-15+0084RJCT V0202501N005712200019N0112651N1+00201-01101999999ADDGA1021+004509999GA2021+007509099GA3021+009009999GF104991999999999999999999MA1099291999999MW1001REMMET109RJCT 0200Z 25011KT 9999 FEW015 FEW025CB SCT030 02/M11 Q0993 RMK 1CU015 1CB025 4CU030 A2934 CB 25KM NW MOV SE;EQDQ01+000000PRSWM2
0249474905999992000030803004+42900+143170FM-15+0084RJCT V0202501N005710120019N0112651N1+00201-00901999999ADDGA1021+006009999GA2071+012009999GF107991999999999999999999MA1099391999999MW1001REMMET139RJCT 0300Z 25011KT 9999 FEW020 BKN040 02/M09 Q0994 RMK 2CU020 5CU040 A2935 FCST 0312 TEMPO 0305 3000 -SHSN BKN030CU TEMPO 0408 27011G 21KT;EQDQ01+000000PRSWM2
0254474905999992000030803104+42900+143170FM-16+0084RJCT V0202501N005710120019N0112651N1+00101-00901999999ADDGA1021+003009999GA2021+007509099GA3071+012009999GF107991999999999999999999MA1099391999999MW1851REMMET112RJCT 080310Z 25011KT 9999 -SHSN FEW010 FEW025CB BKN040 01/M09 Q0994 RMK 1ST010 2CB025 5CU040 A2936 CB OVHD STNR;EQDQ01+000003PRSWM1Q02    003PRSWM1
0155474905999992000030804004+42900+143170FM-15+0084RJCT V0202301N004112200019N0112651N1+00201-00701999999ADDGA1021+007509999GF102991999999999999999999MA1099391999999MW1001REMMET061RJCT 0400Z 23008KT 9999 FEW025 02/M07 Q0994 RMK 2CU025 A2936;EQDQ01+000000PRSWM2
0217474905999992000030805004+42900+143170FM-15+0084RJCT V0203101N007212200019N0112651N1+00101-00901999999ADDGA1021+003009999GA2021+007509999GF104991999999999999999999MA1099391999999MW1161OC101291REMMET083RJCT 0500Z 31014G25KT 9999 VCSH FEW010 SCT025 01/M09 Q0994 RMK 1ST010 4CU025 A2937;EQDQ01+000003PRSWM1Q02    003PRSWM1
0250474905999992000030805214+42900+143170FM-16+0084RJCT V0203001N007710090019N0112651N1+00001-00701999999ADDGA1021+003009999GA2021+006009999GA3071+009009999GF107991999999999999999999MA1099491999999MW1851OC101391REMMET100RJCT 080521Z 30015G27KT 9999 -SHSN FEW010 SCT020 BKN030 00/M07 Q0995 RMK 1ST010 3CU020 6CU030 A2938;EQDQ01+000003PRSWM1Q02    003PRSWM1
0256474905999992000030806004+42900+143170FM-15+0084RJCT V0202801N007210300019N0112651N1+00001-00801999999ADDGA1021+003009999GA2021+007509999GA3071+030009999GF107991999999999999999999MA1099491999999MW1001REMMET130RJCT 0600Z 28014KT 9999 FEW010 SCT025 BKN100 00/M08 Q0995 RMK 1ST010 3CU025 5AC100 A2938 FCST 0615 TEMPO 0609 4000 -SHSN BKN030CU;EQDQ01+000000PRSWM2
0185474905999992000030807004+42900+143170FM-15+0084RJCT V0203101N003612200019N0112651N1+00001-00801999999ADDGA1021+006009999GA2021+010509999GF104991999999999999999999MA1099491999999MW1001REMMET075RJCT 0700Z 31007KT 9999 FEW020 SCT035 00/M08 Q0995 RMK 1CU020 3CU035 A2941;EQDQ01+000000PRSWM2
0202474905999992000030808004+42900+143170FM-15+0084RJCT V0203101N005112200019N0112651N1-00201-00701999999ADDGA1021+006009999GA2021+010509999GF104991999999999999999999MA1099701999999MW1001REMMET092RJCT 0800Z 31010KT 9999 FEW020 SCT035 M02/M07 Q0997 RMK 1CU020 3CU035 A2944 FCST 0817 NOSIG;EQDQ01+000000PRSWM2
0216474905999992000030822004+42900+143170FM-15+0084RJCT V0202901N000510090019N0112651N1-01001-01301999999ADDGA1021+006009999GA2071+009009999GA3071+024009999GF107991999999999999999999MA1100201999999MW1001REMMET090RJCT 2200Z 29001KT 9999 FEW020 BKN030 BKN080 M10/M13 Q1002 RMK 2CU020 6CU030 5AC080 A2959;EQDQ01+000000PRSWM2
0232474905999992000030823004+42900+143170FM-15+0084RJCT V0203301N001010240019N0112651N1-00701-01101999999ADDGA1021+006009999GA2021+018009999GA3071+024009999GF107991999999999999999999MA1100201999999MW1001REMMET106RJCT 2300Z 33002KT 9999 FEW020 SCT060 BKN080 M07/M11 Q1002 RMK 1CU020 3SC060 5AC080 A2960 FCST 2308 NOSIG;EQDQ01+000000PRSWM2
0232474905999992000030900004+42900+143170FM-15+0084RJCT V0203301N000510300019N0112651N1-00501-01101999999ADDGA1021+007509999GA2021+010509999GA3071+030009999GF107991999999999999999999MA1100311999999MW1001REMMET106RJCT 0000Z 33001KT 9999 FEW025 SCT035 BKN100 M05/M11 Q1003 RMK 1CU025 3CU035 7AC100 A2962 FCST 0009 NOSIG;EQDQ01+000000PRSWM2
0186474905999992000030901004+42900+143170FM-15+0084RJCT V0201801N000512200019N0112651N1-00301-01001999999ADDGA1021+007509999GA2021+030009999GF104991999999999999999999MA1100311999999MW1001REMMET076RJCT 0100Z 18001KT 9999 FEW025 SCT100 M03/M10 Q1003 RMK 1CU025 4AC100 A2962;EQDQ01+000000PRSWM2
0156474905999992000030902004+42900+143170FM-15+0084RJCT V0202701N001012200019N0112651N1-00101-00901999999ADDGA1021+007509999GF102991999999999999999999MA1100201999999MW1001REMMET062RJCT 0200Z 27002KT 9999 FEW025 M01/M09 Q1002 RMK 1CU025 A2961;EQDQ01+000000PRSWM2
0171474905999992000030903004+42900+143170FM-15+0084RJCT V0202901N001012200019N0112651N1+00001-00901999999ADDGA1021+007509999GF102991999999999999999999MA1100201999999MW1001REMMET077RJCT 0300Z 29002KT 9999 FEW025 00/M09 Q1002 RMK 1CU025 A2960 FCST 0312 NOSIG;EQDQ01+000000PRSWM2
0185474905999992000030904004+42900+143170FM-15+0084RJCT V0201501N002612200019N0112651N1+00101-01001999999ADDGA1021+007509999GA2021+036009999GF104991999999999999999999MA1100101999999MW1001REMMET075RJCT 0400Z 15005KT 9999 SCT025 SCT120 01/M10 Q1001 RMK 3CU025 3AC120 A2958;EQDQ01+000000PRSWM2
0189474905999992000030905004+42900+143170FM-15+0084RJCT V0202901N001510390019N0112651N1+00101-01201999999ADDGA1021+007509999GA2071+039009999GF107991999999999999999999MA1100101999999MW1001REMMET079RJCT 0500Z RTD 29003KT 9999 SCT025 BKN130 01/M12 Q1001 RMK 3CU025 5AC130 A2957;EQDQ01+000000PRSWM2
0231474905999992000030906004+42900+143170FM-15+0084RJCT V0202901N004110390019N0112651N1+00001-01001999999ADDGA1021+003009999GA2021+007509999GA3071+039009999GF107991999999999999999999MA1100101999999MW1001REMMET105RJCT 0600Z 29008KT 9999 FEW010 SCT025 BKN130 00/M10 Q1001 RMK 2SC010 4CU025 5AC130 A2958 FCST 0615 NOSIG;EQDQ01+000000PRSWM2
0239474905999992000030906094+42900+143170FM-16+0084RJCT V0203001N005110060019N0112651N1+00001-01001999999ADDGA1021+003009999GA2071+006009999GA3071+039009999GF107991999999999999999999MA1100201999999MW1161REMMET097RJCT 090609Z 30010KT 9999 VCSH SCT010 BKN020 BKN130 M00/M10 Q1002 RMK 3SC010 5CU020 5AC130 A2959;EQDQ01+000003PRSWM1Q02    003PRSWM1
0240474905999992000030906134+42900+143170FM-16+0084RJCT V0203001N006210060019N0080001N1-00101-00901999999ADDGA1021+003009999GA2071+006009999GA3071+039009999GF107991999999999999999999MA1100201999999MW1851REMMET098RJCT 090613Z 30012KT 8000 -SHSN SCT010 BKN020 BKN130 M01/M09 Q1002 RMK 3SC010 6CU020 6AC130 A2958;EQDQ01+000003PRSWM1Q02    003PRSWM1
0210474905999992000030906214+42900+143170FM-16+0084RJCT V0203001N006210036019N0015001N1-00101-00801999999ADDGA1021+001809999GA2071+003609999GF107991999999999999999999MA1100201999999MW1851REMMET084RJCT 090621Z 30012KT 1500 -SHSN SCT006 BKN012 M01/M08 Q1002 RMK 3ST006 7ST012 A2959;EQDQ01+000003PRSWM1Q02    003PRSWM1
0210474905999992000030906314+42900+143170FM-16+0084RJCT V0203001N005710054019N0030001N1-00201-00701999999ADDGA1021+001809999GA2071+005409999GF107991999999999999999999MA1100201999999MW1851REMMET084RJCT 090631Z 30011KT 3000 -SHSN SCT006 BKN018 M02/M07 Q1002 RMK 3ST006 6SC018 A2959;EQDQ01+000003PRSWM1Q02    003PRSWM1
0240474905999992000030906404+42900+143170FM-16+0084RJCT V0203101N004110390019N0070001N1-00101-00701999999ADDGA1021+002409999GA2021+007509999GA3071+039009999GF107991999999999999999999MA1100201999999MW1851REMMET098RJCT 090640Z 31008KT 7000 -SHSN SCT008 SCT025 BKN130 M01/M07 Q1002 RMK 3ST008 4CU025 5AC130 A2959;EQDQ01+000003PRSWM1Q02    003PRSWM1
0207474905999992000030907004+42900+143170FM-15+0084RJCT V0203001N005712200019N0112651N1-00201-00901999999ADDGA1021+003009999GA2021+006009999GF104991999999999999999999MA1100201999999MW1161REMMET081RJCT 0700Z 30011KT 9999 VCSH FEW010 SCT020 M02/M09 Q1002 RMK 2SC010 3CU020 A2960;EQDQ01+000003PRSWM1Q02    003PRSWM1
0232474905999992000030908004+42900+143170FM-15+0084RJCT V0203001N005710630019N0112651N1-00201-01101999999ADDGA1021+004509999GA2021+007509999GA3071+063009999GF107991999999999999999999MA1100201999999MW1001REMMET106RJCT 0800Z 30011KT 9999 FEW015 SCT025 BKN210 M02/M11 Q1002 RMK 1SC015 3CU025 5CI210 A2961 FCST 0817 NOSIG;EQDQ01+000000PRSWM2
0172474905999992000030923004+42900+143170FM-15+0084RJCT V0201601N001012200019N0112651N1-00701-01301999999ADDGA1021+009009999GF102991999999999999999999MA1101021999999MW1001REMMET078RJCT 2300Z 16002KT 9999 FEW030 M07/M13 Q1010 RMK 1CU030 A2985 FCST 2308 NOSIG;EQDQ01+000000PRSWM2
0202474905999992000031000004+42900+143170FM-15+0084RJCT V0201801N001512200019N0112651N1-00601-01301999999ADDGA1021+009009999GA2021+030009999GF104991999999999999999999MA1101081999999MW1001REMMET092RJCT 0000Z 18003KT 9999 FEW030 SCT100 M06/M13 Q1011 RMK 1CU030 3AC100 A2987 FCST 0009 NOSIG;EQDQ01+000000PRSWM2
0156474905999992000031001004+42900+143170FM-15+0084RJCT V0201601N002112200019N0112651N1-00401-01301999999ADDGA1021+007509999GF102991999999999999999999MA1101081999999MW1001REMMET062RJCT 0100Z 16004KT 9999 FEW025 M04/M13 Q1011 RMK 2CU025 A2987;EQDQ01+000000PRSWM2
0156474905999992000031002004+42900+143170FM-15+0084RJCT V0201701N002612200019N0112651N1-00201-01201999999ADDGA1021+006009999GF102991999999999999999999MA1101081999999MW1001REMMET062RJCT 0200Z 17005KT 9999 FEW020 M02/M12 Q1011 RMK 2CU020 A2986;EQDQ01+000000PRSWM2
0216474905999992000031003004+42900+143170FM-15+0084RJCT V0202601N002110090019N0112651N1-00101-01101999999ADDGA1021+004509999GA2071+009009999GF107991999999999999999999MA1101081999999MW1001REMMET106RJCT 0300Z 26004KT 9999 FEW015 BKN030 M01/M11 Q1011 RMK 2CU015 5CU030 A2986 FCST 0312 BECMG 0607 SCT030CU;EQDQ01+000000PRSWM2
0207474905999992000031004004+42900+143170FM-15+0084RJCT V0202601N006212200019N0112651N1+00001-01201999999ADDGA1021+004509999GA2021+007509999GF104991999999999999999999MA1101081999999MW1161REMMET081RJCT 0400Z 26012KT 9999 VCSH FEW015 SCT025 M00/M12 Q1011 RMK 2CU015 3CU025 A2986;EQDQ01+000003PRSWM1Q02    003PRSWM1
0177474905999992000031005004+42900+143170FM-15+0084RJCT V0202601N005112200019N0112651N1+00001-01401999999ADDGA1021+006009999GF102991999999999999999999MA1101021999999MW1161REMMET067RJCT 0500Z 26010KT 9999 VCSH FEW020 M00/M14 Q1010 RMK 2CU020 A2985;EQDQ01+000003PRSWM1Q02    003PRSWM1
0223474905999992000031006004+42900+143170FM-15+0084RJCT V0202801N005110090019N0112651N1-00201-01301999999ADDGA1021+006009999GA2071+009009999GF107991999999999999999999MA1101081999999MW1161REMMET097RJCT 0600Z 28010KT 9999 VCSH FEW020 BKN030 M02/M13 Q1011 RMK 1CU020 6CU030 A2985 FCST 0615 NOSIG;EQDQ01+000003PRSWM1Q02    003PRSWM1
0186474905999992000031007004+42900+143170FM-15+0084RJCT V0202901N003610090019N0112651N1-00201-01201999999ADDGA1021+006009999GA2071+009009999GF107991999999999999999999MA1101021999999MW1001REMMET076RJCT 0700Z 29007KT 9999 FEW020 BKN030 M02/M12 Q1010 RMK 1CU020 5CU030 A2985;EQDQ01+000000PRSWM2
0188474905999992000031007364+42900+143170FM-16+0084RJCT V0203001N003612200019N0112651N1-00301-01201999999ADDGA1021+006009999GA2021+007509999GF104991999999999999999999MA1101021999999MW1001REMMET078RJCT 100736Z 30007KT 9999 FEW020 SCT025 M03/M12 Q1010 RMK 1CU020 4CU025 A2984;EQDQ01+000000PRSWM2
0202474905999992000031008004+42900+143170FM-15+0084RJCT V0203101N003112200019N0112651N1-00301-01201999999ADDGA1021+006009999GA2021+009009999GF104991999999999999999999MA1101021999999MW1001REMMET092RJCT 0800Z 31006KT 9999 FEW020 SCT030 M03/M12 Q1010 RMK 2CU020 3CU030 A2985 FCST 0817 NOSIG;EQDQ01+000000PRSWM2
0264474905999992000031223004+42900+143170FM-15+0084RJCT V0202001N001010060019N0090001N1-00401-00601999999ADDGA1021+003009999GA2081+006009999GF108991999999999999999999MA1100311999999MW1851REMMET138RJCT 2300Z 20002KT 9000 -SHSN SCT010 OVC020 M04/M06 Q1003 RMK 3SC010 8CU020 A2964 FCST 2308 BECMG 0001 NSW SCT020CU TEMPO 0308 32010G20KT;EQDQ01+000003PRSWM1Q02    003PRSWM1
0249474905999992000031300004+42900+143170FM-15+0084RJCT V0201901N000510060019N0050001N1-00301-00601999999ADDGA1021+003009999GA2071+006009999GF107991999999999999999999MA1100311999999MW1851REMMET123RJCT 0000Z 19001KT 5000 -SHSN SCT010 BKN020 M03/M06 Q1003 RMK 4SC010 7CU020 A2963 FCST 0009 TEMPO 0001 4500 BECMG 0203 NSW;EQDQ01+000003PRSWM1Q02    003PRSWM1
0208474905999992000031301004+42900+143170FM-15+0084RJCT V0202601N001010090019N0112651N1-00201-00601999999ADDGA1021+003009999GA2071+009009999GF107991999999999999999999MA1100201999999MW1851REMMET082RJCT 0100Z 26002KT 9999 -SHSN FEW010 BKN030 M02/M06 Q1002 RMK 2SC010 6CU030 A2961;EQDQ01+000003PRSWM1Q02    003PRSWM1
0240474905999992000031301204+42900+143170FM-15+0084RJCT V0202801N002610075019N0045001N1-00201-00601999999ADDGA1021+003009999GA2021+004509999GA3071+007509999GF107991999999999999999999MA1100201999999MW1851REMMET098RJCT 130120Z 28005KT 4500 -SHSN FEW010 SCT015 BKN025 M02/M06 Q1002 RMK 2SC010 4SC015 6CU025 A2961;EQDQ01+000003PRSWM1Q02    003PRSWM1
0240474905999992000031301314+42900+143170FM-16+0084RJCT V0202601N002110075019N0070001N1-00201-00601999999ADDGA1021+003009999GA2021+004509999GA3071+007509999GF107991999999999999999999MA1100201999999MW1851REMMET098RJCT 130131Z 26004KT 7000 -SHSN FEW010 SCT015 BKN025 M02/M06 Q1002 RMK 2SC010 3SC015 6CU025 A2960;EQDQ01+000003PRSWM1Q02    003PRSWM1
0238474905999992000031302004+42900+143170FM-15+0084RJCT V0202701N001010360019N0112651N1-00101-00501999999ADDGA1021+003009999GA2021+007509999GA3071+036009999GF107991999999999999999999MA1100201999999MW1851REMMET096RJCT 0200Z 27002KT 9999 -SHSN FEW010 SCT025 BKN120 M01/M05 Q1002 RMK 1SC010 4CU025 6AC120 A2959;EQDQ01+000003PRSWM1Q02    003PRSWM1
0276474905999992000031303004+42900+143170FM-15+0084RJCT V0202501N002610360019N0112651N1+00101-00501999999ADDGA1021+004509999GA2021+010509999GA3071+036009999GF107991999999999999999999MA1100101999999MW1001REMMET150RJCT 0300Z 25005KT 9999 FEW015 SCT035 BKN120 01/M05 Q1001 RMK 1CU015 3CU035 5AC120 A2957 FCST 0312 BECMG 0304 SCT035CU SCT120AC TEMPO 0408 30010G20KT;EQDQ01+000000PRSWM2
0236474905999992000031304004+42900+143170FM-15+0084RJCT V0202401N002610180019N0112651N1+00101-00601999999ADDGA1021+006009999GA2021+010509999GA3071+018009999GF107991999999999999999999MA1100001999999MW1161REMMET094RJCT 0400Z 24005KT 9999 VCSH FEW020 SCT035 BKN060 01/M06 Q1000 RMK 1CU020 3CU035 5SC060 A2955;EQDQ01+000003PRSWM1Q02    003PRSWM1
0223474905999992000031304514+42900+143170FM-16+0084RJCT V0203001N005712200019N0112651N1+00101-00601999999ADDGA1021+006009099GA2021+009009999GF104991999999999999999999MA1100101999999MW1851REMMET097RJCT 130451Z 30011KT 9999 -SHSN FEW020CB SCT030 01/M06 Q1001 RMK 1CB020 4CU030 A2956 CB W-N STNR;EQDQ01+000003PRSWM1Q02    003PRSWM1
0221474905999992000031305004+42900+143170FM-15+0084RJCT V0203001N005712200019N0112651N1+00101-00601999999ADDGA1021+006009099GA2021+009009999GF104991999999999999999999MA1100101999999MW1851REMMET095RJCT 0500Z 30011KT 9999 -SHSN FEW020CB SCT030 01/M06 Q1001 RMK 1CB020 4CU030 A2956 CB W-N STNR;EQDQ01+000003PRSWM1Q02    003PRSWM1
0201474905999992000031305154+42900+143170FM-16+0084RJCT V0202801N007212200019N0112651N1+00101-00601999999ADDGA1021+006009099GA2021+007509999GF104991999999999999999999MA1100101999999MW1001REMMET091RJCT 130515Z 28014KT 9999 FEW020CB SCT025 01/M06 Q1001 RMK 1CB020 4CU025 A2957 CB W-N STNR;EQDQ01+000000PRSWM2
0242474905999992000031306004+42900+143170FM-15+0084RJCT V0202901N007710090019N0112651N1+00101-00701999999ADDGA1021+006009999GA2071+009009999GF107991999999999999999999MA1100101999999MW1001OC101291REMMET124RJCT 0600Z 29015G25KT 9999 FEW020 BKN030 01/M07 Q1001 RMK 1CU020 6CU030 A2958 FCST 0615 TEMPO 0608 -SHSN BECMG 1011 32008KT;EQDQ01+000000PRSWM2
0216474905999992000031307004+42900+143170FM-15+0084RJCT V0202901N007210210019N0112651N1-00101-00901999999ADDGA1021+006009999GA2021+009009999GA3071+021009999GF107991999999999999999999MA1100201999999MW1001REMMET090RJCT 0700Z 29014KT 9999 FEW020 SCT030 BKN070 M01/M09 Q1002 RMK 1CU020 3CU030 5AC070 A2961;EQDQ01+000000PRSWM2
0248474905999992000031308004+42900+143170FM-15+0084RJCT V0203001N006710210019N0112651N1-00201-01001999999ADDGA1021+006009999GA2021+009009999GA3071+021009999GF107991999999999999999999MA1100311999999MW1001REMMET122RJCT 0800Z 30013KT 9999 FEW020 SCT030 BKN070 M02/M10 Q1003 RMK 1CU020 3CU030 5AC070 A2963 FCST 0817 TEMPO 0811 30013G23KT;EQDQ01+000000PRSWM2
0216474905999992000031322004+42900+143170FM-15+0084RJCT V0201501N000510270019N0112651N1-00701-01301999999ADDGA1021+007509999GA2021+021009999GA3071+027009999GF107991999999999999999999MA1100811999999MW1001REMMET090RJCT 2200Z 15001KT 9999 FEW025 SCT070 BKN090 M07/M13 Q1008 RMK 1CU025 3AC070 5AC090 A2977;EQDQ01+000000PRSWM2
0248474905999992000031323004+42900+143170FM-15+0084RJCT V0202801N001510600019N0112651N1-00201-01001999999ADDGA1021+007509999GA2021+030009999GA3071+060009999GF107991999999999999999999MA1100811999999MW1001REMMET122RJCT 2300Z 28003KT 9999 FEW025 SCT100 BKN200 M02/M10 Q1008 RMK 1CU025 3AC100 5CI200 A2977 FCST 2308 TEMPO 0207 31012G25KT;EQDQ01+000000PRSWM2
0217474905999992000031400004+42900+143170FM-15+0084RJCT V0203101N003612200019N0112651N1+00101-00901999999ADDGA1021+007509999GA2021+030009999GF104991999999999999999999MA1100811999999MW1001REMMET107RJCT 0000Z 31007KT 9999 FEW025 SCT100 01/M09 Q1008 RMK 1CU025 3AC100 A2977 FCST 0009 TEMPO 0207 31012G25KT;EQDQ01+000000PRSWM2
0196474905999992000031401004+42900+143170FM-15+0084RJCT V0203001N005112200019N0112651N1+00201-00901999999ADDGA1021+007509999GA2021+060009999GF104991999999999999999999MA1100811999999MW1001OC101031REMMET078RJCT 0100Z 30010G20KT 9999 FEW025 SCT200 02/M09 Q1008 RMK 1CU025 3CI200 A2976;EQDQ01+000000PRSWM2
0185474905999992000031402004+42900+143170FM-15+0084RJCT V0202901N006212200019N0112651N1+00201-00901999999ADDGA1021+006009999GA2021+007509999GF104991999999999999999999MA1100711999999MW1001REMMET075RJCT 0200Z 29012KT 9999 FEW020 SCT025 02/M09 Q1007 RMK 1CU020 3CU025 A2975;EQDQ01+000000PRSWM2
0254474905999992000031403004+42900+143170FM-15+0084RJCT V0203301N004610090019N0112651N1+00201-00801999999ADDGA1021+006009999GA2071+009009999GF107991999999999999999999MA1100711999999MW1001REMMET144RJCT 0300Z 33009KT 9999 FEW020 BKN030 02/M08 Q1007 RMK 2CU020 5CU030 A2974 FCST 0312 TEMPO 0305 -SHSN BECMG 0506 FEW030CU TEMPO 0608 31012G25KT;EQDQ01+000000PRSWM2
0209474905999992000031403024+42900+143170FM-16+0084RJCT V0203301N004610090019N0112651N1+00201-00601999999ADDGA1021+006009999GA2071+009009999GF107991999999999999999999MA1100711999999MW1851REMMET083RJCT 140302Z 33009KT 9999 -SHSN FEW020 BKN030 02/M06 Q1007 RMK 2CU020 5CU030 A2974;EQDQ01+000003PRSWM1Q02    003PRSWM1
0198474905999992000031403264+42900+143170FM-16+0084RJCT V0203201N005710090019N0112651N1+00201-00601999999ADDGA1021+006009999GA2071+009009999GF107991999999999999999999MA1100711999999MW1001OC101131REMMET080RJCT 140326Z 32011G22KT 9999 FEW020 BKN030 02/M06 Q1007 RMK 2CU020 5CU030 A2974;EQDQ01+000000PRSWM2
0196474905999992000031404004+42900+143170FM-15+0084RJCT V0203201N005112200019N0112651N1+00101-00601999999ADDGA1021+006009999GA2021+009009999GF104991999999999999999999MA1100711999999MW1001OC101031REMMET078RJCT 0400Z 32010G20KT 9999 FEW020 SCT030 01/M06 Q1007 RMK 2CU020 4CU030 A2973;EQDQ01+000000PRSWM2
0209474905999992000031404484+42900+143170FM-16+0084RJCT V0203101N007210090019N0030001N1+00101-00601999999ADDGA1021+006009999GA2071+009009999GF107991999999999999999999MA1100711999999MW1851REMMET083RJCT 140448Z 31014KT 3000 -SHSN FEW020 BKN030 01/M06 Q1007 RMK 2CU020 6CU030 A2973;EQDQ01+000003PRSWM1Q02    003PRSWM1
0233474905999992000031405004+42900+143170FM-15+0084RJCT V0203101N007210090019N0050001N1+00001-00501999999ADDGA1021+006009099GA2071+009009999GF107991999999999999999999MA1100711999999MW1851OC101341REMMET099RJCT 0500Z 31014G26KT 5000 -SHSN FEW020CB BKN030 00/M05 Q1007 RMK 2CB020 6CU030 A2973 CB W-N MOV E;EQDQ01+000003PRSWM1Q02    003PRSWM1
0235474905999992000031405384+42900+143170FM-16+0084RJCT V0203001N006210630019N0112651N1+00101-00701999999ADDGA1021+006009099GA2021+009009999GA3071+063009999GF107991999999999999999999MA1100711999999MW1001REMMET109RJCT COR 140538Z 30012KT 9999 FEW020CB SCT030 BKN210 01/M07 Q1007 RMK 1CB020 4CU030 5CI210 A2973 CB NW MOV N;EQDQ01+000000PRSWM2
0215474905999992000031406004+42900+143170FM-15+0084RJCT V0203101N005712200019N0112651N1+00101-00701999999ADDGA1021+006009099GA2021+009009999GF104991999999999999999999MA1100711999999MW1001REMMET105RJCT 0600Z 31011KT 9999 FEW020CB SCT030 01/M07 Q1007 RMK 1CB020 3CU030 A2974 CB NW MOV N FCST 0615 NOSIG;EQDQ01+000000PRSWM2
0200474905999992000031407004+42900+143170FM-15+0084RJCT V0203001N007712200019N0112651N1+00001-00701999999ADDGA1021+006009099GA2021+009009999GF104991999999999999999999MA1100711999999MW1001REMMET090RJCT 0700Z 30015KT 9999 FEW020CB SCT030 M00/M07 Q1007 RMK 1CB020 3CU030 A2976 CB NW MOV N;EQDQ01+000000PRSWM2
0202474905999992000031408004+42900+143170FM-15+0084RJCT V0203001N007212200019N0112651N1-00101-00901999999ADDGA1021+006009999GA2021+012009999GF104991999999999999999999MA1100811999999MW1001REMMET092RJCT 0800Z 30014KT 9999 FEW020 SCT040 M01/M09 Q1008 RMK 1CU020 3CU040 A2978 FCST 0817 NOSIG;EQDQ01+000000PRSWM2
0156474905999992000031409004+42900+143170FM-15+0084RJCT V0203001N003112200019N0112651N1-00101-00901999999ADDGA1021+006009999GF102991999999999999999999MA1100911999999MW1001REMMET062RJCT 0900Z 30006KT 9999 FEW020 M01/M09 Q1009 RMK 2CU020 A2980;EQDQ01+000000PRSWM2
0156474905999992000031410004+42900+143170FM-15+0084RJCT V0203101N005712200019N0112651N1-00201-00901999999ADDGA1021+004509999GF102991999999999999999999MA1101021999999MW1001REMMET062RJCT 1000Z 31011KT 9999 FEW015 M02/M09 Q1010 RMK 1SC015 A2983;EQDQ01+000000PRSWM2
0186474905999992000031422004+42900+143170FM-15+0084RJCT V0201801N002110630019N0112651N1-00901-01301999999ADDGA1021+009009999GA2071+063009999GF107991999999999999999999MA1101291999999MW1001REMMET076RJCT 2200Z 18004KT 9999 FEW030 BKN210 M09/M13 Q1013 RMK 1CU030 6CI210 A2993;EQDQ01+000000PRSWM2
0202474905999992000031423004+42900+143170FM-15+0084RJCT V0201601N001510630019N0112651N1-00501-01301999999ADDGA1021+009009999GA2071+063009999GF107991999999999999999999MA1101391999999MW1001REMMET092RJCT 2300Z 16003KT 9999 FEW030 BKN210 M05/M13 Q1014 RMK 1CU030 6CI210 A2994 FCST 2308 NOSIG;EQDQ01+000000PRSWM2
0201474905999992000031500004+42900+143170FM-15+0084RJCT V0201701N002110630019N0112651N1+00001-01001999999ADDGA1021+009009999GA2071+063009999GF107991999999999999999999MA1101391999999MW1001REMMET091RJCT 0000Z 17004KT 9999 FEW030 BKN210 00/M10 Q1014 RMK 1CU030 6CI210 A2994 FCST 0009 NOSIG;EQDQ01+000000PRSWM2
0185474905999992000031501004+42900+143170FM-15+0084RJCT V0201201N001512200019N0112651N1+00201-01101999999ADDGA1021+007509999GA2021+063009999GF104991999999999999999999MA1101291999999MW1001REMMET075RJCT 0100Z 12003KT 9999 FEW025 SCT210 02/M11 Q1013 RMK 1CU025 4CI210 A2993;EQDQ01+000000PRSWM2
0185474905999992000031502004+42900+143170FM-15+0084RJCT V0201501N002612200019N0112651N1+00401-01001999999ADDGA1021+007509999GA2021+066009999GF104991999999999999999999MA1101291999999MW1001REMMET075RJCT 0200Z 15005KT 9999 FEW025 SCT220 04/M10 Q1013 RMK 1CU025 4CI220 A2992;EQDQ01+000000PRSWM2
0201474905999992000031503004+42900+143170FM-15+0084RJCT V0202401N000512200019N0112651N1+00401-01001999999ADDGA1021+007509999GA2021+066009999GF104991999999999999999999MA1101191999999MW1001REMMET091RJCT 0300Z 24001KT 9999 FEW025 SCT220 04/M10 Q1012 RMK 1CU025 3CI220 A2990 FCST 0312 NOSIG;EQDQ01+000000PRSWM2
0185474905999992000031504004+42900+143170FM-15+0084RJCT V0201501N001512200019N0112651N1+00401-01101999999ADDGA1021+007509999GA2021+066009999GF104991999999999999999999MA1101081999999MW1001REMMET075RJCT 0400Z 15003KT 9999 FEW025 SCT220 04/M11 Q1011 RMK 1CU025 4CI220 A2988;EQDQ01+000000PRSWM2
0185474905999992000031505004+42900+143170FM-15+0084RJCT V02099999999992200019N0112651N1+00401-01101999999ADDGA1021+007509999GA2021+066009999GF104991999999999999999999MA1101081999999MW1001REMMET075RJCT 0500Z VRB02KT 9999 FEW025 SCT220 04/M11 Q1011 RMK 2CU025 3CI220 A2986;EQDQ01+000000PRSWM2
0234474905999992000031506004+42900+143170FM-15+0084RJCT V0203001N002610105019N0112651N1+00401-00901999999ADDGA1021+007509099GA2071+010509999GF107991999999999999999999MA1101081999999MW1001REMMET124RJCT 0600Z 30005KT 9999 FEW025CB BKN035 04/M09 Q1011 RMK 1CB025 5CU035 A2987 CB 15KM NW MOV E FCST 0615 BECMG 0607 SCT035CU;EQDQ01+000000PRSWM2
0187474905999992000031506224+42900+143170FM-16+0084RJCT V0203001N004612200019N0112651N1+00401-00701999999ADDGA1021+006009999GA2021+010509999GF104991999999999999999999MA1101081999999MW1001REMMET077RJCT 150622Z 30009KT 9999 FEW020 SCT035 04/M07 Q1011 RMK 1CU020 3CU035 A2988;EQDQ01+000000PRSWM2
0155474905999992000031507004+42900+143170FM-15+0084RJCT V0203001N004112200019N0112651N1+00301-00701999999ADDGA1021+007509999GF102991999999999999999999MA1101191999999MW1001REMMET061RJCT 0700Z 30008KT 9999 FEW025 03/M07 Q1012 RMK 2CU025 A2988;EQDQ01+000000PRSWM2
0171474905999992000031508004+42900+143170FM-15+0084RJCT V0203001N005712200019N0112651N1+00201-00801999999ADDGA1021+007509999GF102991999999999999999999MA1101191999999MW1001REMMET077RJCT 0800Z 30011KT 9999 FEW025 02/M08 Q1012 RMK 1CU025 A2991 FCST 0817 NOSIG;EQDQ01+000000PRSWM2
0186474905999992000031522004+42900+143170FM-15+0084RJCT V0200101N000510630019N0112651N1-00701-01201999999ADDGA1021+007509999GA2071+063009999GF107991999999999999999999MA1101291999999MW1001REMMET076RJCT 2200Z 01001KT 9999 FEW025 BKN210 M07/M12 Q1013 RMK 2SC025 5CI210 A2993;EQDQ01+000000PRSWM2
0225474905999992000031523004+42900+143170FM-15+0084RJCT V0203301N001010630019N0112651N1-00501-01101999999ADDGA1021+007509999GA2071+063009999GF107991999999999999999999MA1101291999999MW1001REMMET115RJCT 2300Z 33002KT 9999 FEW025 BKN210 M05/M11 Q1013 RMK 2SC025 6CI210 A2993 FCST 2308 BECMG 0305 SCT040SC BKN080AC;EQDQ01+000000PRSWM2
0255474905999992000031600004+42900+143170FM-15+0084RJCT V02099999999990630019N0112651N1-00301-01001999999ADDGA1021+007509999GA2021+033009999GA3071+063009999GF107991999999999999999999MA1101291999999MW1001REMMET129RJCT 0000Z VRB01KT 9999 FEW025 SCT110 BKN210 M03/M10 Q1013 RMK 1SC025 3AC110 6CI210 A2994 FCST 0009 BECMG 0305 SCT040SC BKN080AC;EQDQ01+000000PRSWM2
0216474905999992000031601004+42900+143170FM-15+0084RJCT V0200301N001010630019N0112651N1-00101-00901999999ADDGA1021+009009999GA2021+036009999GA3071+063009999GF107991999999999999999999MA1101191999999MW1001REMMET090RJCT 0100Z 03002KT 9999 FEW030 SCT120 BKN210 M01/M09 Q1012 RMK 1SC030 3AC120 7CI210 A2990;EQDQ01+000000PRSWM2
0215474905999992000031602004+42900+143170FM-15+0084RJCT V02099999999990660019N0112651N1+00101-00801999999ADDGA1021+009009999GA2021+039009999GA3071+066009999GF107991999999999999999999MA1101081999999MW1001REMMET089RJCT 0200Z VRB02KT 9999 FEW030 SCT130 BKN220 01/M08 Q1011 RMK 1SC030 3AC130 7CI220 A2986;EQDQ01+000000PRSWM2
0185474905999992000031605004+42900+143170FM-15+0084RJCT V0202701N002610270019N0112651N1+00101-00701999999ADDGA1021+009009999GA2081+027009999GF108991999999999999999999MA1100811999999MW1001REMMET075RJCT 0500Z 27005KT 9999 FEW030 OVC090 01/M07 Q1008 RMK 1SC030 8AC090 A2979;EQDQ01+000000PRSWM2
0285474905999992000031606004+42900+143170FM-15+0084RJCT V0202001N000510150019N0112651N1+00201-00701999999ADDGA1021+009009999GA2071+015009999GA3081+033009999GF108991999999999999999999MA1100711999999MW1001REMMET159RJCT 0600Z 20001KT 9999 FEW030 BKN050 OVC110 02/M07 Q1007 RMK 1SC030 5SC050 8AS110 A2976 FCST 0615 BECMG 0809 4000 SCT020CU BKN030CU TEMPO 0912 -SHSN BKN020CU;EQDQ01+000000PRSWM2
0215474905999992000031607004+42900+143170FM-15+0084RJCT V0201201N003110090019N0112651N1+00101-00401999999ADDGA1071+009009999GA2071+015009999GA3081+024009999GF108991999999999999999999MA1100711999999MW1001REMMET089RJCT 0700Z 12006KT 9999 BKN030 BKN050 OVC080 01/M04 Q1007 RMK 5SC030 6SC050 8AC080 A2974;EQDQ01+000000PRSWM2
0247474905999992000031608004+42900+143170FM-15+0084RJCT V0201001N004110075019N0112651N1+00101-00401999999ADDGA1071+007509999GA2071+012009999GA3081+024009999GF108991999999999999999999MA1100711999999MW1001REMMET121RJCT 0800Z 10008KT 9999 BKN025 BKN040 OVC080 01/M04 Q1007 RMK 5SC025 7SC040 8AC080 A2973 FCST 0817 BECMG 0809 3000 -SHSN;EQDQ01+000000PRSWM2
0216474905999992000031622004+42900+143170FM-15+0084RJCT V0200401N004610300019N0112651N1-00201-00901999999ADDGA1021+004509999GA2021+008109999GA3071+030009999GF107991999999999999999999MA1100101999999MW1001REMMET090RJCT 2200Z 04009KT 9999 FEW015 SCT027 BKN100 M02/M09 Q1001 RMK 1ST015 4SC027 7AS100 A2958;EQDQ01+000000PRSWM2
0266474905999992000031623004+42900+143170FM-15+0084RJCT V0200301N003610300019N0112651N1-00201-00901999999ADDGA1021+004509999GA2021+008109999GA3071+030009999GF107991999999999999999999MA1100101999999MW1001OC100871REMMET132RJCT 2300Z 03007G17KT 9999 FEW015 SCT027 BKN100 M02/M09 Q1001 RMK 1ST015 4SC027 7AS100 A2957 FCST 2308 BECMG 0001 FEW030CU SCT100AC;EQDQ01+000000PRSWM2
0255474905999992000031700004+42900+143170FM-15+0084RJCT V0200301N002610300019N0112651N1-00101-00801999999ADDGA1021+004509999GA2021+008109999GA3081+030009999GF108991999999999999999999MA1100101999999MW1001REMMET129RJCT 0000Z 03005KT 9999 FEW015 SCT027 OVC100 M01/M08 Q1001 RMK 1ST015 3SC027 8AS100 A2958 FCST 0009 BECMG 0102 FEW030CU SCT100AC;EQDQ01+000000PRSWM2
0215474905999992000031701004+42900+143170FM-15+0084RJCT V0200301N003110600019N0112651N1+00001-00801999999ADDGA1021+008109999GA2021+030009999GA3081+060009999GF108991999999999999999999MA1100201999999MW1001REMMET089RJCT 0100Z 03006KT 9999 FEW027 SCT100 OVC200 00/M08 Q1002 RMK 1SC027 3AC100 8CS200 A2959;EQDQ01+000000PRSWM2
0185474905999992000031702004+42900+143170FM-15+0084RJCT V0200301N002610600019N0112651N1+00201-00801999999ADDGA1021+009009999GA2071+060009999GF107991999999999999999999MA1100201999999MW1001REMMET075RJCT 0200Z 03005KT 9999 FEW030 BKN200 02/M08 Q1002 RMK 1CU030 7CS200 A2959;EQDQ01+000000PRSWM2
0217474905999992000031703004+42900+143170FM-15+0084RJCT V0200401N004110600019N0112651N1+00201-01001999999ADDGA1021+009009999GA2071+060009999GF107991999999999999999999MA1100201999999MW1001REMMET107RJCT 0300Z 04008KT 9999 FEW030 BKN200 02/M10 Q1002 RMK 1CU030 7CI200 A2960 FCST 0312 TEMPO 0407 36010G20KT;EQDQ01+000000PRSWM2
0215474905999992000031704004+42900+143170FM-15+0084RJCT V0200501N003110660019N0112651N1+00201-00901999999ADDGA1021+009009999GA2021+039009999GA3071+066009999GF107991999999999999999999MA1100201999999MW1001REMMET089RJCT 0400Z 05006KT 9999 FEW030 SCT130 BKN220 02/M09 Q1002 RMK 1CU030 3AC130 7CS220 A2961;EQDQ01+000000PRSWM2
0185474905999992000031705004+42900+143170FM-15+0084RJCT V0200901N006210660019N0112651N1+00101-00801999999ADDGA1021+009009999GA2071+066009999GF107991999999999999999999MA1100311999999MW1001REMMET075RJCT 0500Z 09012KT 9999 FEW030 BKN220 01/M08 Q1003 RMK 2CU030 7CI220 A2962;EQDQ01+000000PRSWM2
0231474905999992000031706004+42900+143170FM-15+0084RJCT V0200801N004610660019N0112651N1+00101-00901999999ADDGA1021+007509999GA2021+015009999GA3071+066009999GF107991999999999999999999MA1100311999999MW1001REMMET105RJCT 0600Z 08009KT 9999 FEW025 SCT050 BKN220 01/M09 Q1003 RMK 1CU025 3SC050 7CI220 A2964 FCST 0615 NOSIG;EQDQ01+000000PRSWM2
0215474905999992000031707004+42900+143170FM-15+0084RJCT V0200301N002610660019N0112651N1+00001-01001999999ADDGA1021+007509999GA2021+015009999GA3071+066009999GF107991999999999999999999MA1100511999999MW1001REMMET089RJCT 0700Z 03005KT 9999 FEW025 SCT050 BKN220 00/M10 Q1005 RMK 1CU025 3SC050 6CI220 A2967;EQDQ01+000000PRSWM2
0232474905999992000031708004+42900+143170FM-15+0084RJCT V0200601N004610660019N0112651N1-00101-01001999999ADDGA1021+007509999GA2021+015009999GA3071+066009999GF107991999999999999999999MA1100611999999MW1001REMMET106RJCT 0800Z 06009KT 9999 FEW025 SCT050 BKN220 M01/M10 Q1006 RMK 1CU025 3SC050 6CI220 A2971 FCST 0817 NOSIG;EQDQ01+000000PRSWM2
0156474905999992000031723004+42900+143170FM-15+0084RJCT V0200601N002612200019N0112651N1-00101-00801999999ADDGA1021+009009999GF102991999999999999999999MA1101391999999MW1001REMMET062RJCT 2300Z 06005KT 9999 FEW030 M01/M08 Q1014 RMK 1CU030 A2995;EQDQ01+000000PRSWM2
0156474905999992000031800004+42900+143170FM-15+0084RJCT V0201201N001512200019N0112651N1+00001-00801999999ADDGA1021+009009999GF102991999999999999999999MA1101391999999MW1001REMMET062RJCT 0000Z 12003KT 9999 FEW030 M00/M08 Q1014 RMK 1CU030 A2997;EQDQ01+000000PRSWM2
0155474905999992000031801004+42900+143170FM-15+0084RJCT V0201601N002112200019N0112651N1+00101-00801999999ADDGA1021+009009999GF102991999999999999999999MA1101391999999MW1001REMMET061RJCT 0100Z 16004KT 9999 FEW030 01/M08 Q1014 RMK 1CU030 A2996;EQDQ01+000000PRSWM2
0156474905999992000032022004+42900+143170FM-15+0084RJCT V0200901N000512200019N0112651N1-00801-01301999999ADDGA1021+012009999GF102991999999999999999999MA1101491999999MW1001REMMET062RJCT 2200Z 09001KT 9999 FEW040 M08/M13 Q1015 RMK 1CU040 A2999;EQDQ01+000000PRSWM2
0172474905999992000032023004+42900+143170FM-15+0084RJCT V0201301N001512200019N0112651N1-00601-01101999999ADDGA1021+012009999GF102991999999999999999999MA1101491999999MW1001REMMET078RJCT 2300Z 13003KT 9999 FEW040 M06/M11 Q1015 RMK 1CU040 A2999 FCST 2308 NOSIG;EQDQ01+000000PRSWM2
0172474905999992000032100004+42900+143170FM-15+0084RJCT V0201001N001512200019N0112651N1-00101-01001999999ADDGA1021+012009999GF102991999999999999999999MA1101491999999MW1001REMMET078RJCT 0000Z 10003KT 9999 FEW040 M01/M10 Q1015 RMK 1CU040 A2999 FCST 0009 NOSIG;EQDQ01+000000PRSWM2
0155474905999992000032101004+42900+143170FM-15+0084RJCT V0203001N006212200019N0112651N1+00101-01001999999ADDGA1021+010509999GF102991999999999999999999MA1101491999999MW1001REMMET061RJCT 0100Z 30012KT 9999 FEW035 01/M10 Q1015 RMK 1CU035 A2998;EQDQ01+000000PRSWM2
0155474905999992000032102004+42900+143170FM-15+0084RJCT V0203001N008712200019N0112651N1+00201-01001999999ADDGA1021+010509999GF102991999999999999999999MA1101391999999MW1001REMMET061RJCT 0200Z 30017KT 9999 FEW035 02/M10 Q1014 RMK 2CU035 A2995;EQDQ01+000000PRSWM2
0254474905999992000032103004+42900+143170FM-15+0084RJCT V0203001N008712200019N0112651N1+00201-00901999999ADDGA1021+009009999GA2021+012009999GF104991999999999999999999MA1101391999999MW1001OC101541REMMET136RJCT 0300Z 30017G30KT 9999 FEW030 SCT040 02/M09 Q1014 RMK 2CU030 3CU040 A2994 FCST 0312 BECMG 0507 30010KT TEMPO 0912 SCT030CU BKN080AC;EQDQ01+000000PRSWM2
0166474905999992000032104004+42900+143170FM-15+0084RJCT V0203001N007712200019N0112651N1+00301-01001999999ADDGA1021+009009999GF102991999999999999999999MA1101291999999MW1001OC101291REMMET064RJCT 0400Z 30015G25KT 9999 FEW030 03/M10 Q1013 RMK 1CU030 A2992;EQDQ01+000000PRSWM2
0166474905999992000032105004+42900+143170FM-15+0084RJCT V0203001N007212200019N0112651N1+00301-00901999999ADDGA1021+010509999GF102991999999999999999999MA1101291999999MW1001OC101231REMMET064RJCT 0500Z 30014G24KT 9999 FEW035 03/M09 Q1013 RMK 1CU035 A2991;EQDQ01+000000PRSWM2
0195474905999992000032106004+42900+143170FM-15+0084RJCT V0203001N006712200019N0112651N1+00301-00901999999ADDGA1021+010509999GF102991999999999999999999MA1101191999999MW1001OC101181REMMET093RJCT 0600Z 30013G23KT 9999 FEW035 03/M09 Q1012 RMK 1CU035 A2991 FCST 0615 BECMG 0708 30010KT;EQDQ01+000000PRSWM2
0155474905999992000032107004+42900+143170FM-15+0084RJCT V0203001N007212200019N0112651N1+00201-00901999999ADDGA1021+012009999GF102991999999999999999999MA1101291999999MW1001REMMET061RJCT 0700Z 30014KT 9999 FEW040 02/M09 Q1013 RMK 1CU040 A2991;EQDQ01+000000PRSWM2
0171474905999992000032108004+42900+143170FM-15+0084RJCT V0203001N005112200019N0112651N1+00101-01001999999ADDGA1021+010509999GF102991999999999999999999MA1101291999999MW1001REMMET077RJCT 0800Z 30010KT 9999 FEW035 01/M10 Q1013 RMK 1CU035 A2993 FCST 0817 NOSIG;EQDQ01+000000PRSWM2
0172474905999992000032200004+42900+143170FM-15+0084RJCT V0201401N000512200019N0112651N1-00501-01101999999ADDGA1021+009009999GF102991999999999999999999MA1101801999999MW1001REMMET078RJCT 0000Z 14001KT 9999 FEW030 M05/M11 Q1018 RMK 1CU030 A3008 FCST 0009 NOSIG;EQDQ01+000000PRSWM2
0156474905999992000032201004+42900+143170FM-15+0084RJCT V0201601N001012200019N0112651N1-00301-01101999999ADDGA1021+009009999GF102991999999999999999999MA1101801999999MW1001REMMET062RJCT 0100Z 16002KT 9999 FEW030 M03/M11 Q1018 RMK 1CU030 A3008;EQDQ01+000000PRSWM2
0156474905999992000032202004+42900+143170FM-15+0084RJCT V0200401N002112200019N0112651N1-00101-01001999999ADDGA1021+012009999GF102991999999999999999999MA1101801999999MW1001REMMET062RJCT 0200Z 04004KT 9999 FEW040 M01/M10 Q1018 RMK 1CU040 A3007;EQDQ01+000000PRSWM2
0171474905999992000032203004+42900+143170FM-15+0084RJCT V02099999999992200019N0112651N1+00001-00901999999ADDGA1021+012009999GF102991999999999999999999MA1101801999999MW1001REMMET077RJCT 0300Z VRB02KT 9999 FEW040 00/M09 Q1018 RMK 1CU040 A3007 FCST 0312 NOSIG;EQDQ01+000000PRSWM2
0155474905999992000032204004+42900+143170FM-15+0084RJCT V0202101N002612200019N0112651N1+00001-01001999999ADDGA1021+012009999GF102991999999999999999999MA1101801999999MW1001REMMET061RJCT 0400Z 21005KT 9999 FEW040 00/M10 Q1018 RMK 1CU040 A3006;EQDQ01+000000PRSWM2
0155474905999992000032205004+42900+143170FM-15+0084RJCT V0202001N002612200019N0112651N1+00101-01001999999ADDGA1021+009009999GF102991999999999999999999MA1101801999999MW1001REMMET061RJCT 0500Z 20005KT 9999 FEW030 01/M10 Q1018 RMK 1CU030 A3006;EQDQ01+000000PRSWM2
0171474905999992000032206004+42900+143170FM-15+0084RJCT V02099999999992200019N0112651N1+00101-01101999999ADDGA1021+009009999GF102991999999999999999999MA1101801999999MW1001REMMET077RJCT 0600Z VRB02KT 9999 FEW030 01/M11 Q1018 RMK 1CU030 A3007 FCST 0615 NOSIG;EQDQ01+000000PRSWM2
0155474905999992000032207004+42900+143170FM-15+0084RJCT V0201701N002112200019N0112651N1+00101-01201999999ADDGA1021+009009999GF102991999999999999999999MA1101801999999MW1001REMMET061RJCT 0700Z 17004KT 9999 FEW030 01/M12 Q1018 RMK 1CU030 A3008;EQDQ01+000000PRSWM2
0172474905999992000032208004+42900+143170FM-15+0084RJCT V0201801N002612200019N0112651N1+00001-01101999999ADDGA1021+009009999GF102991999999999999999999MA1101901999999MW1001REMMET078RJCT 0800Z 18005KT 9999 FEW030 M00/M11 Q1019 RMK 1CU030 A3009 FCST 0817 NOSIG;EQDQ01+000000PRSWM2
0156474905999992000032222004+42900+143170FM-15+0084RJCT V02099999999992200019N0112651N1-01201-01401999999ADDGA1021+009009999GF102991999999999999999999MA1102401999999MW1001REMMET062RJCT 2200Z VRB01KT 9999 FEW030 M12/M14 Q1024 RMK 1SC030 A3026;EQDQ01+000000PRSWM2
0234474905999992000032223004+42900+143170FM-15+0084RJCT V0201101N001010660019N0112651N1-00701-01401999999ADDGA1021+009009999GA2071+066009999GF107991999999999999999999MA1102401999999MW1001REMMET124RJCT 2300Z 11002KT 9999 FEW030 BKN220 M07/M14 Q1024 RMK 1SC030 5CI220 A3024 FCST 2308 BECMG 0506 SCT030CU BKN080AC OVC200CI;EQDQ01+000000PRSWM2
0234474905999992000032300004+42900+143170FM-15+0084RJCT V0201201N000510660019N0112651N1-00701-01301999999ADDGA1021+010509999GA2071+066009999GF107991999999999999999999MA1102401999999MW1001REMMET124RJCT 0000Z 12001KT 9999 FEW035 BKN220 M07/M13 Q1024 RMK 1CU035 7CI220 A3024 FCST 0009 BECMG 0506 SCT030CU BKN080AC OVC200CI;EQDQ01+000000PRSWM2
0186474905999992000032301004+42900+143170FM-15+0084RJCT V0202601N001010660019N0112651N1-00401-01201999999ADDGA1021+010509999GA2071+066009999GF107991999999999999999999MA1102301999999MW1001REMMET076RJCT 0100Z 26002KT 9999 FEW035 BKN220 M04/M12 Q1023 RMK 1CU035 7CI220 A3023;EQDQ01+000000PRSWM2
0216474905999992000032302004+42900+143170FM-15+0084RJCT V0202501N001010630019N0112651N1-00301-01201999999ADDGA1021+010509999GA2021+039009999GA3071+063009999GF107991999999999999999999MA1102301999999MW1001REMMET090RJCT 0200Z 25002KT 9999 FEW035 SCT130 BKN210 M03/M12 Q1023 RMK 1CU035 3AC130 7CS210 A3022;EQDQ01+000000PRSWM2
0215474905999992000032304004+42900+143170FM-15+0084RJCT V0202701N001010630019N0112651N1+00001-01001999999ADDGA1021+010509999GA2021+036009999GA3081+063009999GF108991999999999999999999MA1102001999999MW1001REMMET089RJCT 0400Z 27002KT 9999 FEW035 SCT120 OVC210 00/M10 Q1020 RMK 1SC035 4AC120 8CS210 A3013;EQDQ01+000000PRSWM2
0215474905999992000032305004+42900+143170FM-15+0084RJCT V0200401N001510630019N0112651N1+00101-00901999999ADDGA1021+009009999GA2021+036009999GA3081+063009999GF108991999999999999999999MA1101901999999MW1001REMMET089RJCT 0500Z 04003KT 9999 FEW030 SCT120 OVC210 01/M09 Q1019 RMK 1CU030 4AC120 8CS210 A3010;EQDQ01+000000PRSWM2
0215474905999992000032307004+42900+143170FM-15+0084RJCT V0201501N003610300019N0112651N1+00001-00601999999ADDGA1021+009009999GA2071+030009999GA3081+060009999GF108991999999999999999999MA1101801999999MW1001REMMET089RJCT 0700Z 15007KT 9999 SCT030 BKN100 OVC200 00/M06 Q1018 RMK 3CU030 5AC100 8CS200 A3006;EQDQ01+000000PRSWM2
0246474905999992000032308004+42900+143170FM-15+0084RJCT V0201401N004110090019N0112651N1+00001-00601999999ADDGA1021+004509999GA2071+009009999GA3081+024009999GF108991999999999999999999MA1101691999999MW1001REMMET120RJCT 0800Z 14008KT 9999 FEW015 BKN030 OVC080 M00/M06 Q1017 RMK 1ST015 6SC030 8AS080 A3005 FCST 0817 BECMG 1213 3000 -SN;EQDQ01+000000PRSWM2
0216474905999992000032309004+42900+143170FM-15+0084RJCT V0201301N005110270019N0112651N1-00101-00501999999ADDGA1021+004509999GA2021+021009999GA3081+027009999GF108991999999999999999999MA1101691999999MW1001REMMET090RJCT 0900Z 13010KT 9999 FEW015 SCT070 OVC090 M01/M05 Q1017 RMK 1ST015 3AC070 8AS090 A3004;EQDQ01+000000PRSWM2
0218474905999992000032309444+42900+143170FM-16+0084RJCT V0201401N004110069019N0112651N1-00101-00601999999ADDGA1021+004509999GA2071+006909999GA3081+027009999GF108991999999999999999999MA1101691999999MW1001REMMET092RJCT 230944Z 14008KT 9999 FEW015 BKN023 OVC090 M01/M06 Q1017 RMK 1ST015 6SC023 8AS090 A3003;EQDQ01+000000PRSWM2
0179474905999992000032402004+42900+143170FM-15+0084RJCT V0203201N002610012019N0020001N1+00201+00101999999ADDGA1081+001209999GF108991999999999999999999MA1099091999999MW1711REMMET069RJCT 0200Z 32005KT 2000 -SN OVC004 02/01 Q0991 RMK 8ST004 A2927 P/FR;EQDQ01+000003PRSWM1Q02    003PRSWM1
0269474905999992000032403004+42900+143170FM-15+0084RJCT V0203201N003110018019N0070001N1+00201+00101999999ADDGA1021+001209999GA2081+001809999GF108991999999999999999999MA1098921999999MW1711REMMET143RJCT 0300Z 32006KT 7000 -SN SCT004 OVC006 02/01 Q0989 RMK 4ST004 8ST006 A2922 FCST 0312 BECMG 0406 NSW FEW025CU BKN040SC TEMPO 0812 27012G25KT;EQDQ01+000003PRSWM1Q02    003PRSWM1
0206474905999992000032404004+42900+143170FM-15+0084RJCT V0203301N002110021019N0070001N1+00301+00101999999ADDGA1021+001509999GA2081+002109999GF108991999999999999999999MA1098711999999MW1851REMMET080RJCT 0400Z 33004KT 7000 -SHSN SCT005 OVC007 03/01 Q0987 RMK 4ST005 8ST007 A2917;EQDQ01+000003PRSWM1Q02    003PRSWM1
0214474905999992000032405004+42900+143170FM-15+0084RJCT V0203101N002110012019N0070001N1+00201+00101999999ADDGA1071+001209999GA2081+001809999GF108991999999999999999999MA1098611999999MW1801MW2851REMMET082RJCT 0500Z 31004KT 7000 -SHRASN BKN004 OVC006 02/01 Q0986 RMK 5ST004 8ST006 A2913;EQDQ01+000003PRSWM1Q02    003PRSWM1
0275474905999992000032406004+42900+143170FM-15+0084RJCT V0203201N001510021019N0080001N1+00301+00201999999ADDGA1021+001209999GA2071+002109999GA3081+006009999GF108991999999999999999999MA1098511999999MW1001REMMET149RJCT 0600Z 32003KT 8000 SCT004 BKN007 OVC020 03/02 Q0985 RMK 3ST004 6ST007 8SC020 A2909 FCST 0615 BECMG 0607 SCT007ST BKN020SC TEMPO 0915 27012G25KT;EQDQ01+000000PRSWM2
0216474905999992000032406154+42900+143170FM-16+0084RJCT V0203201N001510060019N0112651N1+00301+00201999999ADDGA1021+001509999GA2021+002409999GA3071+006009999GF107991999999999999999999MA1098411999999MW1001REMMET090RJCT 240615Z 32003KT 9999 FEW005 SCT008 BKN020 03/02 Q0984 RMK 1ST005 4ST008 7SC020 A2906;EQDQ01+000000PRSWM2
0214474905999992000032407004+42900+143170FM-15+0084RJCT V0203101N004110075019N0112651N1+00401+00101999999ADDGA1021+002409999GA2071+007509999GA3071+063009999GF107991999999999999999999MA1098311999999MW1001REMMET088RJCT 0700Z 31008KT 9999 FEW008 BKN025 BKN210 04/01 Q0983 RMK 2ST008 5SC025 7CI210 A2905;EQDQ01+000000PRSWM2
0227474905999992000032407164+42900+143170FM-16+0084RJCT V0203101N006710630019N0112651N1+00501+00101999999ADDGA1021+003009999GA2021+009009999GA3071+063009999GF107991999999999999999999MA1098311999999MW1001OC101341REMMET093RJCT 240716Z 31013G26KT 9999 FEW010 SCT030 BKN210 05/01 Q0983 RMK 1ST010 4SC030 7CI210 A2904;EQDQ01+000000PRSWM2
0256474905999992000032408004+42900+143170FM-15+0084RJCT V0203101N007210090019N0112651N1+00501-00101999999ADDGA1021+003009999GA2071+009009999GA3071+063009999GF107991999999999999999999MA1098311999999MW1001OC101231REMMET122RJCT 0800Z 31014G24KT 9999 FEW010 BKN030 BKN210 05/M01 Q0983 RMK 2ST010 6SC030 7CI210 A2904 FCST 0817 BECMG 1113 FEW030CU;EQDQ01+000000PRSWM2
0156474905999992000032622004+42900+143170FM-15+0084RJCT V0202801N003612200019N0112651N1-00101-01001999999ADDGA1021+007509999GF102991999999999999999999MA1100411999999MW1001REMMET062RJCT 2200Z 28007KT 9999 FEW025 M01/M10 Q1004 RMK 1CU025 A2967;EQDQ01+000000PRSWM2
0187474905999992000032623004+42900+143170FM-15+0084RJCT V0203101N004112200019N0112651N1+00101-00801999999ADDGA1021+009009999GF102991999999999999999999MA1100511999999MW1001REMMET093RJCT 2300Z 31008KT 9999 FEW030 01/M08 Q1005 RMK 1CU030 A2969 FCST 2308 TEMPO 0107 32012G22KT;EQDQ01+000000PRSWM2
0187474905999992000032700004+42900+143170FM-15+0084RJCT V0203101N006712200019N0112651N1+00201-00601999999ADDGA1021+009009999GF102991999999999999999999MA1100611999999MW1001REMMET093RJCT 0000Z 31013KT 9999 FEW030 02/M06 Q1006 RMK 1CU030 A2972 FCST 0009 TEMPO 0107 32013G23KT;EQDQ01+000000PRSWM2
0155474905999992000032701004+42900+143170FM-15+0084RJCT V0203001N008212200019N0112651N1+00301-00701999999ADDGA1021+006009999GF102991999999999999999999MA1100611999999MW1001REMMET061RJCT 0100Z 30016KT 9999 FEW020 03/M07 Q1006 RMK 1CU020 A2972;EQDQ01+000000PRSWM2
0166474905999992000032702004+42900+143170FM-15+0084RJCT V0203101N007712200019N0112651N1+00401-00701999999ADDGA1021+007509999GF102991999999999999999999MA1100711999999MW1001OC101291REMMET064RJCT 0200Z 31015G25KT 9999 FEW025 04/M07 Q1007 RMK 1CU025 A2974;EQDQ01+000000PRSWM2
0187474905999992000032703004+42900+143170FM-15+0084RJCT V0203101N005112200019N0112651N1+00401-00701999999ADDGA1021+009009999GF102991999999999999999999MA1100711999999MW1001REMMET093RJCT 0300Z 31010KT 9999 FEW030 04/M07 Q1007 RMK 2CU030 A2975 FCST 0312 TEMPO 0305 31010G20KT;EQDQ01+000000PRSWM2
0155474905999992000032704004+42900+143170FM-15+0084RJCT V0203001N006712200019N0112651N1+00401-00601999999ADDGA1021+007509999GF102991999999999999999999MA1100811999999MW1001REMMET061RJCT 0400Z 30013KT 9999 FEW025 04/M06 Q1008 RMK 2CU025 A2977;EQDQ01+000000PRSWM2
0166474905999992000032705004+42900+143170FM-15+0084RJCT V0203001N007712200019N0112651N1+00401-00801999999ADDGA1021+007509999GF102991999999999999999999MA1100811999999MW1001OC101291REMMET064RJCT 0500Z 30015G25KT 9999 FEW025 04/M08 Q1008 RMK 2CU025 A2978;EQDQ01+000000PRSWM2
0195474905999992000032706004+42900+143170FM-15+0084RJCT V0203001N006712200019N0112651N1+00401-00801999999ADDGA1021+007509999GF102991999999999999999999MA1100911999999MW1001OC101181REMMET093RJCT 0600Z 30013G23KT 9999 FEW025 04/M08 Q1009 RMK 2CU025 A2980 FCST 0615 BECMG 0708 31008KT;EQDQ01+000000PRSWM2
0166474905999992000032707004+42900+143170FM-15+0084RJCT V0203001N007212200019N0112651N1+00301-00801999999ADDGA1021+007509999GF102991999999999999999999MA1100911999999MW1001OC101291REMMET064RJCT 0700Z 30014G25KT 9999 FEW025 03/M08 Q1009 RMK 2CU025 A2982;EQDQ01+000000PRSWM2
0171474905999992000032708004+42900+143170FM-15+0084RJCT V0203201N006212200019N0112651N1+00201-00801999999ADDGA1021+009009999GF102991999999999999999999MA1101021999999MW1001REMMET077RJCT 0800Z 32012KT 9999 FEW030 02/M08 Q1010 RMK 2CU030 A2984 FCST 0817 NOSIG;EQDQ01+000000PRSWM2
0216474905999992000032722004+42900+143170FM-15+0084RJCT V0203301N001010630019N0112651N1-00501-01201999999ADDGA1021+012009999GA2021+027009999GA3071+063009999GF107991999999999999999999MA1102001999999MW1001REMMET090RJCT 2200Z 33002KT 9999 FEW040 SCT090 BKN210 M05/M12 Q1020 RMK 1SC040 4AC090 7CI210 A3014;EQDQ01+000000PRSWM2
0232474905999992000032723004+42900+143170FM-15+0084RJCT V0203301N001510630019N0112651N1-00401-01101999999ADDGA1021+012009999GA2021+027009999GA3071+063009999GF107991999999999999999999MA1102101999999MW1001REMMET106RJCT 2300Z 33003KT 9999 FEW040 SCT090 BKN210 M04/M11 Q1021 RMK 1SC040 4AC090 7CI210 A3016 FCST 2308 NOSIG;EQDQ01+000000PRSWM2
0232474905999992000032800004+42900+143170FM-15+0084RJCT V0202701N001510630019N0112651N1-00101-01001999999ADDGA1021+012009999GA2021+027009999GA3071+063009999GF107991999999999999999999MA1102101999999MW1001REMMET106RJCT 0000Z 27003KT 9999 FEW040 SCT090 BKN210 M01/M10 Q1021 RMK 1SC040 3AC090 7CI210 A3017 FCST 0009 NOSIG;EQDQ01+000000PRSWM2
0215474905999992000032801004+42900+143170FM-15+0084RJCT V0202701N001510630019N0112651N1+00101-00901999999ADDGA1021+009009999GA2021+027009999GA3071+063009999GF107991999999999999999999MA1102101999999MW1001REMMET089RJCT 0100Z 27003KT 9999 FEW030 SCT090 BKN210 01/M09 Q1021 RMK 1CU030 3AC090 7CI210 A3017;EQDQ01+000000PRSWM2
0185474905999992000032802004+42900+143170FM-15+0084RJCT V0202401N001510630019N0112651N1+00201-00901999999ADDGA1021+009009999GA2071+063009999GF107991999999999999999999MA1102101999999MW1001REMMET075RJCT 0200Z 24003KT 9999 FEW030 BKN210 02/M09 Q1021 RMK 1CU030 7CI210 A3016;EQDQ01+000000PRSWM2
0201474905999992000032803004+42900+143170FM-15+0084RJCT V0202001N001510630019N0112651N1+00301-00901999999ADDGA1021+009009999GA2071+063009999GF107991999999999999999999MA1102101999999MW1001REMMET091RJCT 0300Z 20003KT 9999 FEW030 BKN210 03/M09 Q1021 RMK 1CU030 7CI210 A3016 FCST 0312 NOSIG;EQDQ01+000000PRSWM2
0185474905999992000032804004+42900+143170FM-15+0084RJCT V0202001N001510630019N0112651N1+00301-00801999999ADDGA1021+009009999GA2071+063009999GF107991999999999999999999MA1102001999999MW1001REMMET075RJCT 0400Z 20003KT 9999 FEW030 BKN210 03/M08 Q1020 RMK 1CU030 7CI210 A3014;EQDQ01+000000PRSWM2
0185474905999992000032805004+42900+143170FM-15+0084RJCT V0201701N001510630019N0112651N1+00401-00801999999ADDGA1021+010509999GA2071+063009999GF107991999999999999999999MA1102001999999MW1001REMMET075RJCT 0500Z 17003KT 9999 FEW035 BKN210 04/M08 Q1020 RMK 1CU035 7CI210 A3013;EQDQ01+000000PRSWM2
0171474905999992000032806004+42900+143170FM-15+0084RJCT V0201101N002610630019N0112651N1+00401-00501999999ADDGA1071+063009999GF107991999999999999999999MA1102001999999MW1001REMMET077RJCT 0600Z 11005KT 9999 BKN210 04/M05 Q1020 RMK 7CI210 A3013 FCST 0615 NOSIG;EQDQ01+000000PRSWM2
0155474905999992000032807004+42900+143170FM-15+0084RJCT V0201701N003110630019N0112651N1+00301-00601999999ADDGA1071+063009999GF107991999999999999999999MA1102001999999MW1001REMMET061RJCT 0700Z 17006KT 9999 BKN210 03/M06 Q1020 RMK 7CI210 A3013;EQDQ01+000000PRSWM2
0201474905999992000032808004+42900+143170FM-15+0084RJCT V0201701N003610630019N0112651N1+00201-00601999999ADDGA1021+010509999GA2071+063009999GF107991999999999999999999MA1102001999999MW1001REMMET091RJCT 0800Z 17007KT 9999 FEW035 BKN210 02/M06 Q1020 RMK 1SC035 7CI210 A3014 FCST 0817 NOSIG;EQDQ01+000000PRSWM2
0175474905999992000032822004+42900+143170FM-15+0084RJCT V0202701N002610009019N0007001N1-00201-00301999999ADDGA1081+000909999GF108991999999999999999999MA1100911999999MW1731REMMET065RJCT 2200Z 27005KT 0700 SN OVC003 M02/M03 Q1009 RMK 8ST003 A2982;EQDQ01+000003PRSWM1Q02    003PRSWM1
0239474905999992000032900004+42900+143170FM-15+0084RJCT V0202701N00311000151CN0006001N1-00101-00201999999ADDGA1091+000159999GF109991999999000251999999MA1100711999999MW1731REMMET129RJCT 0000Z 27006KT 0600 SN VV002 M01/M02 Q1007 RMK A2974 FCST 0009 BECMG 0203 3000 -RA BKN008ST OVC015CU BECMG 0506 NSW BKN030CU;EQDQ01+000003PRSWM1Q02    003PRSWM1
0172474905999992000032900354+42900+143170FM-16+0084RJCT V0202801N00311000151CN0012001N1+00001-00201999999ADDGA1091+000159999GF109991999999000251999999MA1100511999999MW1871REMMET062RJCT 290035Z 28006KT 1200 -SHGS VV002 M00/M02 Q1005 RMK A2969;EQDQ01+000003PRSWM1Q02    003PRSWM1
0169474905999992000032901114+42900+143170FM-16+0084RJCT V0202701N00311000151CN0006001N1+00001-00101999999ADDGA1091+000159999GF109991999999000251999999MA1100411999999MW1731REMMET059RJCT 290111Z 27006KT 0600 SN VV002 M00/M01 Q1004 RMK A2964;EQDQ01+000003PRSWM1Q02    003PRSWM1
0178474905999992000032901184+42900+143170FM-16+0084RJCT V0202901N00361000151CN0011001N1+00001-00101999999ADDGA1091+000159999GF109991999999000251999999MA1100311999999MW1611MW2711REMMET062RJCT 290118Z 29007KT 1100 -RASN VV002 M00/M01 Q1003 RMK A2962;EQDQ01+000003PRSWM1Q02    003PRSWM1
0281474905999992000032903004+42900+143170FM-15+0084RJCT V0202801N002610006019N0015001N1+00101+00001999999ADDGA1071+000609999GA2081+001209999GF108991999999999999999999MA1099901999999MW1101MW2611REMMET149RJCT 0300Z 28005KT 1500 -RA BR BKN002 OVC004 01/00 Q0999 RMK 6ST002 8ST004 A2950 FCST 0312 BECMG 0405 3000 BKN008ST OVC015CU BECMG 0507 NSW BKN025CU;EQDQ01+000003PRSWM1Q02    003PRSWM1
0241474905999992000032904294+42900+143170FM-16+0084RJCT V0202801N003110045019N0080001N1+00201+00101999999ADDGA1021+001209999GA2021+002409999GA3071+004509999GF107991999999999999999999MA1099491999999MW1611REMMET099RJCT 290429Z 28006KT 8000 -RA FEW004 SCT008 BKN015 02/01 Q0995 RMK 1ST004 4ST008 7SC015 A2938 P/FR;EQDQ01+000003PRSWM1Q02    003PRSWM1
0219474905999992000032905004+42900+143170FM-15+0084RJCT V0202901N002610075019N0112651N1+00301+00201999999ADDGA1021+001809999GA2021+003609999GA3071+007509999GF107991999999999999999999MA1099391999999MW1001REMMET093RJCT 0500Z 29005KT 9999 FEW006 SCT012 BKN025 03/02 Q0994 RMK 1ST006 4ST012 7SC025 A2936 P/FR;EQDQ01+000000PRSWM2
0221474905999992000032905394+42900+143170FM-16+0084RJCT V0200501N001010300019N0112651N1+00501+00201999999ADDGA1021+002409999GA2021+010509999GA3071+030009999GF107991999999999999999999MA1099191999999MW1001REMMET095RJCT 290539Z 05002KT 9999 FEW008 SCT035 BKN100 05/02 Q0992 RMK 1ST008 3SC035 5AC100 A2932 P/FR;EQDQ01+000000PRSWM2
0235474905999992000032906004+42900+143170FM-15+0084RJCT V0200501N001510420019N0112651N1+00601+00201999999ADDGA1021+002409999GA2021+010509999GA3071+042009999GF107991999999999999999999MA1099191999999MW1001REMMET109RJCT 0600Z 05003KT 9999 FEW008 SCT035 BKN140 06/02 Q0992 RMK 1ST008 3SC035 5AC140 A2929 P/FR FCST 0615 NOSIG;EQDQ01+000000PRSWM2
0216474905999992000032906484+42900+143170FM-16+0084RJCT V0201301N001510024019N0112651N1+00401+00201999999ADDGA1021+001509999GA2071+002409999GA3071+030009999GF107991999999999999999999MA1099091999999MW1001REMMET090RJCT 290648Z 13003KT 9999 FEW005 BKN008 BKN100 04/02 Q0991 RMK 1ST005 6ST008 6AC100 A2928;EQDQ01+000000PRSWM2
0214474905999992000032907004+42900+143170FM-15+0084RJCT V0201301N001510027019N0112651N1+00401+00201999999ADDGA1021+001809999GA2071+002709999GA3071+030009999GF107991999999999999999999MA1099091999999MW1001REMMET088RJCT 0700Z 13003KT 9999 FEW006 BKN009 BKN100 04/02 Q0991 RMK 1ST006 6ST009 6AC100 A2928;EQDQ01+000000PRSWM2
0216474905999992000032907364+42900+143170FM-16+0084RJCT V0202001N001010300019N0112651N1+00401+00201999999ADDGA1021+002709999GA2021+010509999GA3071+030009999GF107991999999999999999999MA1099091999999MW1001REMMET090RJCT 290736Z 20002KT 9999 SCT009 SCT035 BKN100 04/02 Q0991 RMK 3ST009 3SC035 7AC100 A2927;EQDQ01+000000PRSWM2
0230474905999992000032908004+42900+143170FM-15+0084RJCT V0202401N001010300019N0112651N1+00401+00201999999ADDGA1021+003009999GA2021+010509999GA3071+030009999GF107991999999999999999999MA1099091999999MW1001REMMET104RJCT 0800Z 24002KT 9999 FEW010 SCT035 BKN100 04/02 Q0991 RMK 1ST010 3SC035 7AC100 A2926 FCST 0817 NOSIG;EQDQ01+000000PRSWM2
0248474905999992000032922004+42900+143170FM-15+0084RJCT V0203101N012310300019N0112651N1+00401-00201999999ADDGA1021+004509999GA2021+009009999GA3071+030009999GF107991999999999999999999MA1098511999999MW1801OC102061REMMET098RJCT 2200Z 31024G40KT 9999 -SHRA FEW015 SCT030 BKN100 04/M02 Q0985 RMK 1ST015 3CU030 5AC100 A2911;EQDQ01+000003PRSWM1Q02    003PRSWM1
0228474905999992000032922304+42900+143170FM-15+0084RJCT V0203101N009810300019N0112651N1+00401-00301999999ADDGA1021+004509999GA2021+009009999GA3071+030009999GF107991999999999999999999MA1098611999999MW1001OC101701REMMET094RJCT 292230Z 31019G33KT 9999 FEW015 SCT030 BKN100 04/M03 Q0986 RMK 1ST015 3CU030 5AC100 A2914;EQDQ01+000000PRSWM2
0242474905999992000032923004+42900+143170FM-15+0084RJCT V0203101N009810300019N0112651N1+00401-00301999999ADDGA1021+006009999GA2021+009009999GA3071+030009999GF107991999999999999999999MA1098611999999MW1001OC101801REMMET108RJCT 2300Z 31019G35KT 9999 FEW020 SCT030 BKN100 04/M03 Q0986 RMK 1SC020 3CU030 5AC100 A2914 FCST 2308 NOSIG;EQDQ01+000000PRSWM2
0242474905999992000033000004+42900+143170FM-15+0084RJCT V0203201N011310300019N0112651N1+00301-00301999999ADDGA1021+006009999GA2021+009009999GA3071+030009999GF107991999999999999999999MA1098711999999MW1001OC101901REMMET108RJCT 0000Z 32022G37KT 9999 FEW020 SCT030 BKN100 03/M03 Q0987 RMK 1SC020 3CU030 5AC100 A2916 FCST 0009 NOSIG;EQDQ01+000000PRSWM2
0226474905999992000033001004+42900+143170FM-15+0084RJCT V0203101N010810300019N0112651N1+00401-00301999999ADDGA1021+006009999GA2021+012009999GA3071+030009999GF107991999999999999999999MA1098821999999MW1001OC101801REMMET092RJCT 0100Z 31021G35KT 9999 FEW020 SCT040 BKN100 04/M03 Q0988 RMK 1SC020 3CU040 5AC100 A2918;EQDQ01+000000PRSWM2
0196474905999992000033002004+42900+143170FM-15+0084RJCT V0203101N010312200019N0112651N1+00501-00301999999ADDGA1021+007509999GA2021+030009999GF104991999999999999999999MA1098821999999MW1001OC101591REMMET078RJCT 0200Z 31020G31KT 9999 FEW025 SCT100 05/M03 Q0988 RMK 1CU025 4AC100 A2918;EQDQ01+000000PRSWM2
0228474905999992000033003004+42900+143170FM-15+0084RJCT V0203001N009812200019N0112651N1+00601-00201999999ADDGA1021+006009999GA2021+009009999GF104991999999999999999999MA1098821999999MW1001OC101541REMMET110RJCT 0300Z 30019G30KT 9999 FEW020 SCT030 06/M02 Q0988 RMK 1CU020 3CU030 A2919 FCST 0312 TEMPO 0407 31018G37KT;EQDQ01+000000PRSWM2
0185474905999992000033004004+42900+143170FM-15+0084RJCT V0203001N009810090019N0112651N1+00701-00501999999ADDGA1021+006009999GA2071+009009999GF107991999999999999999999MA1098921999999MW1001REMMET075RJCT 0400Z 30019KT 9999 FEW020 BKN030 07/M05 Q0989 RMK 1CU020 5CU030 A2922;EQDQ01+000000PRSWM2
0185474905999992000033005004+42900+143170FM-15+0084RJCT V0203101N006710090019N0112651N1+00601-00301999999ADDGA1021+006009999GA2071+009009999GF107991999999999999999999MA1098981999999MW1001REMMET075RJCT 0500Z 31013KT 9999 FEW020 BKN030 06/M03 Q0990 RMK 1CU020 5CU030 A2924;EQDQ01+000000PRSWM2
0224474905999992000033006004+42900+143170FM-15+0084RJCT V0203001N008212200019N0112651N1+00601-00401999999ADDGA1021+006009999GA2021+009009999GF104991999999999999999999MA1098981999999MW1001OC101341REMMET106RJCT 0600Z 30016G26KT 9999 FEW020 SCT030 06/M04 Q0990 RMK 1CU020 3CU030 A2924 FCST 061 BECMG 1113 31010KT;EQDQ01+000000PRSWM2
0166474905999992000033007004+42900+143170FM-15+0084RJCT V0203001N010312200019N0112651N1+00501-00401999999ADDGA1021+006009999GF102991999999999999999999MA1099091999999MW1001OC101701REMMET064RJCT 0700Z 30020G33KT 9999 FEW020 05/M04 Q0991 RMK 1CU020 A2927;EQDQ01+000000PRSWM2
0200474905999992000033008004+42900+143170FM-15+0084RJCT V0203001N008712200019N0112651N1+00401-00501999999ADDGA1021+007509999GF102991999999999999999999MA1099291999999MW1001OC101441REMMET098RJCT 0800Z 30017G28KT 9999 FEW025 04/M05 Q0993 RMK 1CU025 A2933 P/RR FCST 0817 BECMG 1113 31010KT;EQDQ01+000000PRSWM2
0155474905999992000033022004+42900+143170FM-15+0084RJCT V0202901N005112200019N0112651N1+00501-00601999999ADDGA1021+007509999GF102991999999999999999999MA1100101999999MW1001REMMET061RJCT 2200Z 29010KT 9999 FEW025 05/M06 Q1001 RMK 1CU025 A2956;EQDQ01+000000PRSWM2
0171474905999992000033023004+42900+143170FM-15+0084RJCT V0202901N004612200019N0112651N1+00701-00501999999ADDGA1021+007509999GF102991999999999999999999MA1100101999999MW1001REMMET077RJCT 2300Z 29009KT 9999 FEW025 07/M05 Q1001 RMK 1CU025 A2956 FCST 2308 NOSIG;EQDQ01+000000PRSWM2
0187474905999992000033100004+42900+143170FM-15+0084RJCT V0203001N005712200019N0112651N1+00801-00501999999ADDGA1021+009009999GF102991999999999999999999MA1100101999999MW1001REMMET093RJCT 0000Z 30011KT 9999 FEW030 08/M05 Q1001 RMK 1CU030 A2956 FCST 0009 TEMPO 0005 30011G21KT;EQDQ01+000000PRSWM2
0155474905999992000033101004+42900+143170FM-15+0084RJCT V0203001N006212200019N0112651N1+00901-00501999999ADDGA1021+009009999GF102991999999999999999999MA1100101999999MW1001REMMET061RJCT 0100Z 30012KT 9999 FEW030 09/M05 Q1001 RMK 1CU030 A2956;EQDQ01+000000PRSWM2
0155474905999992000033102004+42900+143170FM-15+0084RJCT V0203001N005712200019N0112651N1+01101-00601999999ADDGA1021+009009999GF102991999999999999999999MA1100101999999MW1001REMMET061RJCT 0200Z 30011KT 9999 FEW030 11/M06 Q1001 RMK 1CU030 A2956;EQDQ01+000000PRSWM2
0201474905999992000033103004+42900+143170FM-15+0084RJCT V0203001N006712200019N0112651N1+01101-00701999999ADDGA1021+009009999GA2021+066009999GF104991999999999999999999MA1100001999999MW1001REMMET091RJCT 0300Z 30013KT 9999 FEW030 SCT220 11/M07 Q1000 RMK 1CU030 4CI220 A2955 FCST 0312 NOSIG;EQDQ01+000000PRSWM2
0185474905999992000033104004+42900+143170FM-15+0084RJCT V0202901N004612200019N0112651N1+01201-00701999999ADDGA1021+010509999GA2021+066009999GF104991999999999999999999MA1100001999999MW1001REMMET075RJCT 0400Z 29009KT 9999 FEW035 SCT220 12/M07 Q1000 RMK 2CU035 4CI220 A2955;EQDQ01+000000PRSWM2
0185474905999992000033105004+42900+143170FM-15+0084RJCT V0202901N004112200019N0112651N1+01201-00601999999ADDGA1021+010509999GA2021+021009999GF104991999999999999999999MA1100001999999MW1001REMMET075RJCT 0500Z 29008KT 9999 FEW035 SCT070 12/M06 Q1000 RMK 1CU035 3AC070 A2954;EQDQ01+000000PRSWM2
0201474905999992000033106004+42900+143170FM-15+0084RJCT V0202001N005112200019N0112651N1+01001-00401999999ADDGA1021+010509999GA2021+024009999GF104991999999999999999999MA1100001999999MW1001REMMET091RJCT 0600Z 20010KT 9999 FEW035 SCT080 10/M04 Q1000 RMK 1CU035 4AC080 A2954 FCST 0615 NOSIG;EQDQ01+000000PRSWM2
0185474905999992000033107004+42900+143170FM-15+0084RJCT V0202401N003610240019N0112651N1+00901-00201999999ADDGA1021+009009999GA2071+024009999GF107991999999999999999999MA1100001999999MW1001REMMET075RJCT 0700Z 24007KT 9999 FEW030 BKN080 09/M02 Q1000 RMK 1CU030 5AC080 A2955;EQDQ01+000000PRSWM2
0265474905999992000033108004+42900+143170FM-15+0084RJCT V0202601N004610660019N0112651N1+00601-00101999999ADDGA1021+009009999GA2021+024009999GA3071+066009999GF107991999999999999999999MA1100001999999MW1001REMMET139RJCT 0800Z 26009KT 9999 FEW030 SCT080 BKN220 06/M01 Q1000 RMK 1CU030 3AC080 7CI220 A2955 FCST 0817 BECMG 1214 3000 -SHSN BKN006ST BKN020CU;EQDQ01+000000PRSWM2
0215474905999992000033109004+42900+143170FM-15+0084RJCT V0202301N002110300019N0112651N1+00401-00101999999ADDGA1021+009009999GA2071+030009999GA3071+066009999GF107991999999999999999999MA1100001999999MW1001REMMET089RJCT 0900Z 23004KT 9999 FEW030 BKN100 BKN220 04/M01 Q1000 RMK 1CU030 5AC100 7CS220 A2955;EQDQ01+000000PRSWM2
0215474905999992000033122004+42900+143170FM-15+0084RJCT V0200401N001510009019N0016001N1+00101+00001999999ADDGA1071+000909999GA2081+001809999GF108991999999999999999999MA1099191999999MW1101MW2851REMMET083RJCT 2200Z 04003KT 1600 -SHSN BR BKN003 OVC006 01/00 Q0992 RMK 6ST003 8ST006 A2931;EQDQ01+000003PRSWM1Q02    003PRSWM1
0227474905999992000033122034+42900+143170FM-16+0084RJCT V0200301N002610009019N0030001N1+00101+00001999999ADDGA1071+000909999GA2081+001809999GF108991999999999999999999MA1099191999999MW1851REMMET085RJCT 312203Z 03005KT 3000 -SHSN BR BKN003 OVC006 01/00 Q0992 RMK 6ST003 8ST006 A2932;EQDQ01+000100PRSWM3Q02+000003PRSWM1Q03    003PRSWM1
0206474905999992000033123004+42900+143170FM-15+0084RJCT V0200101N001510009019N0025001N1+00201+00001999999ADDGA1071+000909999GA2081+001509999GF108991999999999999999999MA1099291999999MW1851REMMET080RJCT 2300Z 01003KT 2500 -SHSN BKN003 OVC005 02/00 Q0993 RMK 6ST003 8ST005 A2933;EQDQ01+000003PRSWM1Q02    003PRSWM1
0208474905999992000033123494+42900+143170FM-16+0084RJCT V0203301N001510090019N0112651N1+00201+00001999999ADDGA1021+004509999GA2081+009009999GF108991999999999999999999MA1099291999999MW1851REMMET082RJCT 312349Z 33003KT 9999 -SHSN SCT015 OVC030 02/00 Q0993 RMK 4ST015 8CU030 A2935;EQDQ01+000003PRSWM1Q02    003PRSWM1
0214474905999992000040100004+42900+143170FM-15+0084RJCT V0203301N001510045019N0112651N1+00301+00101999999ADDGA1021+002409999GA2071+004509999GA3081+007509999GF108991999999999999999999MA1099291999999MW1001REMMET088RJCT 0000Z 33003KT 9999 FEW008 BKN015 OVC025 03/01 Q0993 RMK 2ST008 5ST015 8CU025 A2934;EQDQ01+000000PRSWM2
0216474905999992000040100434+42900+143170FM-16+0084RJCT V0202901N003110210019N0112651N1+00301+00101999999ADDGA1021+004509999GA2021+007509999GA3081+021009999GF108991999999999999999999MA1099391999999MW1001REMMET090RJCT 010043Z 29006KT 9999 FEW015 SCT025 OVC070 03/01 Q0994 RMK 1ST015 4SC025 8AC070 A2936;EQDQ01+000000PRSWM2
0214474905999992000040101004+42900+143170FM-15+0084RJCT V0203001N003610210019N0112651N1+00301+00101999999ADDGA1021+004509999GA2021+007509999GA3081+021009999GF108991999999999999999999MA1099391999999MW1001REMMET088RJCT 0100Z 30007KT 9999 FEW015 SCT025 OVC070 03/01 Q0994 RMK 1SC015 3SC025 8AC070 A2937;EQDQ01+000000PRSWM2
0214474905999992000040102004+42900+143170FM-15+0084RJCT V0202801N002610210019N0112651N1+00601+00101999999ADDGA1021+004509999GA2021+007509999GA3071+021009999GF107991999999999999999999MA1099491999999MW1001REMMET088RJCT 0200Z 28005KT 9999 FEW015 SCT025 BKN070 06/01 Q0995 RMK 1SC015 3SC025 5AC070 A2939;EQDQ01+000000PRSWM2
0226474905999992000040103004+42900+143170FM-15+0084RJCT V0203001N005710090019N0112651N1+00601-00101999999ADDGA1021+006009999GA2071+009009999GF107991999999999999999999MA1099491999999MW1001OC101181REMMET108RJCT 0300Z 30011G23KT 9999 FEW020 BKN030 06/M01 Q0995 RMK 1CU020 5CU030 A2941 FCST 0312 BECMG 0405 SCT030CU;EQDQ01+000000PRSWM2
0247474905999992000040104004+42900+143170FM-15+0084RJCT V0203001N008210120019N0112651N1+00401-00301999999ADDGA1021+007509999GA2021+009009999GA3071+012009999GF107991999999999999999999MA1099591999999MW1161OC101341REMMET097RJCT 0400Z 30016G26KT 9999 VCSH FEW025 SCT030 BKN040 04/M03 Q0996 RMK 1CU025 3CU030 7CU040 A2943;EQDQ01+000003PRSWM1Q02    003PRSWM1
0226474905999992000040105004+42900+143170FM-15+0084RJCT V0203001N008710210019N0112651N1+00501-00401999999ADDGA1021+007509999GA2021+009009999GA3071+021009999GF107991999999999999999999MA1099701999999MW1001OC101391REMMET092RJCT 0500Z 30017G27KT 9999 FEW025 SCT030 BKN070 05/M04 Q0997 RMK 1CU025 3CU030 6AC070 A2946;EQDQ01+000000PRSWM2
0225474905999992000040106004+42900+143170FM-15+0084RJCT V0203001N010312200019N0112651N1+00501-00601999999ADDGA1021+007509999GA2021+013509999GF104991999999999999999999MA1099801999999MW1001OC101541REMMET107RJCT 0600Z 30020G30KT 9999 FEW025 SCT045 05/M06 Q0998 RMK 1CU025 3CU045 A2949 FCST 0615 BECMG 0910 30009KT;EQDQ01+000000PRSWM2
0155474905999992000040107004+42900+143170FM-15+0084RJCT V0203001N008712200019N0112651N1+00501-00701999999ADDGA1021+009009999GF102991999999999999999999MA1100001999999MW1001REMMET061RJCT 0700Z 30017KT 9999 FEW030 05/M07 Q1000 RMK 1CU030 A2953;EQDQ01+000000PRSWM2
0225474905999992000040108004+42900+143170FM-15+0084RJCT V0203101N005112200019N0112651N1+00401-00501999999ADDGA1021+009009999GA2021+030009999GF104991999999999999999999MA1100101999999MW1001OC101181REMMET107RJCT 0800Z 31010G23KT 9999 FEW030 SCT100 04/M05 Q1001 RMK 1CU030 3AC100 A2956 FCST 0817 BECMG 0910 30009KT;EQDQ01+000000PRSWM2
0185474905999992000040109004+42900+143170FM-15+0084RJCT V0203101N003612200019N0112651N1+00301-00601999999ADDGA1021+009009999GA2021+030009999GF104991999999999999999999MA1100201999999MW1001REMMET075RJCT 0900Z 31007KT 9999 FEW030 SCT100 03/M06 Q1002 RMK 1CU030 3AC100 A2959;EQDQ01+000000PRSWM2
0155474905999992000040110004+42900+143170FM-15+0084RJCT V0203201N003612200019N0112651N1+00201-00901999999ADDGA1021+009009999GF102991999999999999999999MA1100311999999MW1001REMMET061RJCT 1000Z 32007KT 9999 FEW030 02/M09 Q1003 RMK 1CU030 A2962;EQDQ01+000000PRSWM2
0186474905999992000040121004+42900+143170FM-15+0084RJCT V0200601N000510090019N0112651N1-00101-00501999999ADDGA1021+003009999GA2071+009009999GF107991999999999999999999MA1100911999999MW1001REMMET076RJCT 2100Z 06001KT 9999 FEW010 BKN030 M01/M05 Q1009 RMK 1ST010 6SC030 A2980;EQDQ01+000000PRSWM2
0240474905999992000040121214+42900+143170FM-16+0084RJCT V0203401N001010075019N0015001N1-00101-00401999999ADDGA1021+002409999GA2021+004809999GA3071+007509999GF107991999999999999999999MA1100911999999MW1851REMMET098RJCT 012121Z 34002KT 1500 -SHSN FEW008 SCT016 BKN025 M01/M04 Q1009 RMK 1ST008 4ST016 7CU025 A2982;EQDQ01+000003PRSWM1Q02    003PRSWM1
0238474905999992000040122004+42900+143170FM-15+0084RJCT V0203101N001510075019N0015001N1+00001-00201999999ADDGA1021+002109999GA2021+004509999GA3081+007509999GF108991999999999999999999MA1101021999999MW1851REMMET096RJCT 2200Z 31003KT 1500 -SHSN FEW007 SCT015 OVC025 M00/M02 Q1010 RMK 1ST007 4ST015 8CU025 A2983;EQDQ01+000003PRSWM1Q02    003PRSWM1
0209474905999992000040122154+42900+143170FM-16+0084RJCT V0202901N004110075019N0112651N1+00001-00201999999ADDGA1021+004509999GA2071+007509999GF107991999999999999999999MA1101021999999MW1851REMMET083RJCT 012215Z 29008KT 9999 -SHSN FEW015 BKN025 00/M02 Q1010 RMK 1ST015 5CU025 A2983;EQDQ01+000003PRSWM1Q02    003PRSWM1
0187474905999992000040122224+42900+143170FM-16+0084RJCT V0202901N005110075019N0112651N1+00001-00201999999ADDGA1021+004509999GA2071+007509999GF107991999999999999999999MA1101021999999MW1001REMMET077RJCT 012222Z 29010KT 9999 FEW015 BKN025 00/M02 Q1010 RMK 1ST015 5CU025 A2983;EQDQ01+000000PRSWM2
0201474905999992000040123004+42900+143170FM-15+0084RJCT V0203101N006712200019N0112651N1+00201-00401999999ADDGA1021+006009999GA2021+009009999GF104991999999999999999999MA1101021999999MW1001REMMET091RJCT 2300Z 31013KT 9999 FEW020 SCT030 02/M04 Q1010 RMK 1CU020 4CU030 A2983 FCST 2308 NOSIG;EQDQ01+000000PRSWM2
0201474905999992000040200004+42900+143170FM-15+0084RJCT V0203101N005712200019N0112651N1+00401-00501999999ADDGA1021+006009999GA2021+009009999GF104991999999999999999999MA1101021999999MW1001REMMET091RJCT 0000Z 31011KT 9999 FEW020 SCT030 04/M05 Q1010 RMK 1CU020 3CU030 A2984 FCST 0009 NOSIG;EQDQ01+000000PRSWM2
0185474905999992000040201004+42900+143170FM-15+0084RJCT V0203101N006212200019N0112651N1+00501-00601999999ADDGA1021+007509999GA2021+009009999GF104991999999999999999999MA1101081999999MW1001REMMET075RJCT 0100Z 31012KT 9999 FEW025 SCT030 05/M06 Q1011 RMK 1CU025 3CU030 A2986;EQDQ01+000000PRSWM2
0185474905999992000040202004+42900+143170FM-15+0084RJCT V0203101N006212200019N0112651N1+00601-00601999999ADDGA1021+006009999GA2021+009009999GF104991999999999999999999MA1101081999999MW1001REMMET075RJCT 0200Z 31012KT 9999 FEW020 SCT030 06/M06 Q1011 RMK 1CU020 3CU030 A2986;EQDQ01+000000PRSWM2
0201474905999992000040203004+42900+143170FM-15+0084RJCT V0203001N006212200019N0112651N1+00601-00701999999ADDGA1021+006009999GA2021+009009999GF104991999999999999999999MA1101081999999MW1001REMMET091RJCT 0300Z 30012KT 9999 FEW020 SCT030 06/M07 Q1011 RMK 1CU020 3CU030 A2986 FCST 0312 NOSIG;EQDQ01+000000PRSWM2
0166474905999992000040204004+42900+143170FM-15+0084RJCT V0203001N006712200019N0112651N1+00601-00701999999ADDGA1021+007509999GF102991999999999999999999MA1101081999999MW1001OC101181REMMET064RJCT 0400Z 30013G23KT 9999 FEW025 06/M07 Q1011 RMK 2CU025 A2986;EQDQ01+000000PRSWM2
0196474905999992000040205004+42900+143170FM-15+0084RJCT V0203001N007212200019N0112651N1+00601-00701999999ADDGA1021+007509999GA2021+010509999GF104991999999999999999999MA1101081999999MW1001OC101231REMMET078RJCT 0500Z 30014G24KT 9999 FEW025 SCT035 06/M07 Q1011 RMK 1CU025 3CU035 A2985;EQDQ01+000000PRSWM2
0185474905999992000040206004+42900+143170FM-15+0084RJCT V0203101N005712200019N0112651N1+00501-00501999999ADDGA1021+007509999GA2021+010509999GF104991999999999999999999MA1101081999999MW1001REMMET075RJCT 0600Z 31011KT 9999 FEW025 SCT035 05/M05 Q1011 RMK 2CU025 3CU035 A2988;EQDQ01+000000PRSWM2
0185474905999992000040207004+42900+143170FM-15+0084RJCT V0203101N007712200019N0112651N1+00401-00301999999ADDGA1021+007509999GA2021+010509999GF104991999999999999999999MA1101191999999MW1001REMMET075RJCT 0700Z 31015KT 9999 SCT025 SCT035 04/M03 Q1012 RMK 3CU025 3CU035 A2989;EQDQ01+000000PRSWM2
0155474905999992000040208004+42900+143170FM-15+0084RJCT V0203201N003612200019N0112651N1+00301-00301999999ADDGA1021+007509999GF102991999999999999999999MA1101191999999MW1001REMMET061RJCT 0800Z 32007KT 9999 FEW025 03/M03 Q1012 RMK 1CU025 A2990;EQDQ01+000000PRSWM2
0155474905999992000040209004+42900+143170FM-15+0084RJCT V0203101N003612200019N0112651N1+00301-00701999999ADDGA1021+007509999GF102991999999999999999999MA1101291999999MW1001REMMET061RJCT 0900Z 31007KT 9999 FEW025 03/M07 Q1013 RMK 1CU025 A2992;EQDQ01+000000PRSWM2
0155474905999992000040210004+42900+143170FM-15+0084RJCT V0203401N001512200019N0112651N1+00201-00701999999ADDGA1021+007509999GF102991999999999999999999MA1101391999999MW1001REMMET061RJCT 1000Z 34003KT 9999 FEW025 02/M07 Q1014 RMK 1CU025 A2995;EQDQ01+000000PRSWM2
0156474905999992000040221004+42900+143170FM-15+0084RJCT V0202701N003112200019N0112651N1-00101-00701999999ADDGA1021+009009999GF102991999999999999999999MA1101591999999MW1001REMMET062RJCT 2100Z 27006KT 9999 FEW030 M01/M07 Q1016 RMK 1CU030 A3002;EQDQ01+000000PRSWM2
0155474905999992000040222004+42900+143170FM-15+0084RJCT V0202801N005112200019N0112651N1+00301-00701999999ADDGA1021+009009999GF102991999999999999999999MA1101691999999MW1001REMMET061RJCT 2200Z 28010KT 9999 FEW030 03/M07 Q1017 RMK 1CU030 A3003;EQDQ01+000000PRSWM2
0171474905999992000040223004+42900+143170FM-15+0084RJCT V0202901N005112200019N0112651N1+00501-00701999999ADDGA1021+009009999GF102991999999999999999999MA1101691999999MW1001REMMET077RJCT 2300Z 29010KT 9999 FEW030 05/M07 Q1017 RMK 1CU030 A3004 FCST 2308 NOSIG;EQDQ01+000000PRSWM2
0171474905999992000040300004+42900+143170FM-15+0084RJCT V0202901N005712200019N0112651N1+00601-00701999999ADDGA1021+009009999GF102991999999999999999999MA1101691999999MW1001REMMET077RJCT 0000Z 29011KT 9999 FEW030 06/M07 Q1017 RMK 1CU030 A3005 FCST 0009 NOSIG;EQDQ01+000000PRSWM2
0155474905999992000040301004+42900+143170FM-15+0084RJCT V0203001N005712200019N0112651N1+00601-00801999999ADDGA1021+009009999GF102991999999999999999999MA1101691999999MW1001REMMET061RJCT 0100Z 30011KT 9999 FEW030 06/M08 Q1017 RMK 1CU030 A3005;EQDQ01+000000PRSWM2
0155474905999992000040302004+42900+143170FM-15+0084RJCT V0203001N006712200019N0112651N1+00701-00901999999ADDGA1021+009009999GF102991999999999999999999MA1101691999999MW1001REMMET061RJCT 0200Z 30013KT 9999 FEW030 07/M09 Q1017 RMK 1CU030 A3004;EQDQ01+000000PRSWM2
0171474905999992000040303004+42900+143170FM-15+0084RJCT V0203101N005712200019N0112651N1+00801-00901999999ADDGA1021+009009999GF102991999999999999999999MA1101691999999MW1001REMMET077RJCT 0300Z 31011KT 9999 FEW030 08/M09 Q1017 RMK 1CU030 A3004 FCST 0312 NOSIG;EQDQ01+000000PRSWM2
0155474905999992000040304004+42900+143170FM-15+0084RJCT V0203101N005712200019N0112651N1+00901-00801999999ADDGA1021+009009999GF102991999999999999999999MA1101591999999MW1001REMMET061RJCT 0400Z 31011KT 9999 FEW030 09/M08 Q1016 RMK 1CU030 A3002;EQDQ01+000000PRSWM2
0155474905999992000040305004+42900+143170FM-15+0084RJCT V0203001N006212200019N0112651N1+00901-00901999999ADDGA1021+009009999GF102991999999999999999999MA1101591999999MW1001REMMET061RJCT 0500Z 30012KT 9999 FEW030 09/M09 Q1016 RMK 1CU030 A3002;EQDQ01+000000PRSWM2
0171474905999992000040306004+42900+143170FM-15+0084RJCT V0203101N004612200019N0112651N1+00901-01001999999ADDGA1021+009009999GF102991999999999999999999MA1101591999999MW1001REMMET077RJCT 0600Z 31009KT 9999 FEW030 09/M10 Q1016 RMK 1CU030 A3002 FCST 0615 NOSIG;EQDQ01+000000PRSWM2
0155474905999992000040307004+42900+143170FM-15+0084RJCT V0203001N004612200019N0112651N1+00901-00901999999ADDGA1021+009009999GF102991999999999999999999MA1101691999999MW1001REMMET061RJCT 0700Z 30009KT 9999 FEW030 09/M09 Q1017 RMK 1CU030 A3003;EQDQ01+000000PRSWM2
0171474905999992000040308004+42900+143170FM-15+0084RJCT V0203101N003612200019N0112651N1+00801-00901999999ADDGA1021+009009999GF102991999999999999999999MA1101691999999MW1001REMMET077RJCT 0800Z 31007KT 9999 FEW030 08/M09 Q1017 RMK 1CU030 A3003 FCST 0817 NOSIG;EQDQ01+000000PRSWM2
0155474905999992000040309004+42900+143170FM-15+0084RJCT V0203101N002612200019N0112651N1+00601-00901999999ADDGA1021+009009999GF102991999999999999999999MA1101691999999MW1001REMMET061RJCT 0900Z 31005KT 9999 FEW030 06/M09 Q1017 RMK 1CU030 A3004;EQDQ01+000000PRSWM2
0155474905999992000040310004+42900+143170FM-15+0084RJCT V0202801N003612200019N0112651N1+00401-00901999999ADDGA1021+009009999GF102991999999999999999999MA1101691999999MW1001REMMET061RJCT 1000Z 28007KT 9999 FEW030 04/M09 Q1017 RMK 1CU030 A3005;EQDQ01+000000PRSWM2
0155474905999992000040311004+42900+143170FM-15+0084RJCT V0201801N001512200019N0112651N1+00201-00801999999ADDGA1021+009009999GF102991999999999999999999MA1101691999999MW1001REMMET061RJCT 1100Z 18003KT 9999 FEW030 02/M08 Q1017 RMK 1CU030 A3005;EQDQ01+000000PRSWM2
0130474905999992000040321004+42900+143170FM-15+0084RJCT V0200401N000512200019N0112651N1-00501-00901999999ADDGF100991999999999999999999MA1101901999999MW1001REMMET052RJCT 2100Z 04001KT 9999 SKC M05/M09 Q1019 RMK A3010;EQDQ01+000000PRSWM2
0130474905999992000040322004+42900+143170FM-15+0084RJCT V0201801N001012200019N0112651N1-00101-00701999999ADDGF100991999999999999999999MA1101901999999MW1001REMMET052RJCT 2200Z 18002KT 9999 SKC M01/M07 Q1019 RMK A3011;EQDQ01+000000PRSWM2
0145474905999992000040323004+42900+143170FM-15+0084RJCT V0202801N001012200019N0112651N1+00301-00801999999ADDGF100991999999999999999999MA1102001999999MW1001REMMET067RJCT 2300Z 28002KT 9999 SKC 03/M08 Q1020 RMK A3013 FCST 2308 NOSIG;EQDQ01+000000PRSWM2
0145474905999992000040400004+42900+143170FM-15+0084RJCT V0202701N001512200019N0112651N1+00501-00701999999ADDGF100991999999999999999999MA1102001999999MW1001REMMET067RJCT 0000Z 27003KT 9999 SKC 05/M07 Q1020 RMK A3014 FCST 0009 NOSIG;EQDQ01+000000PRSWM2
0129474905999992000040401004+42900+143170FM-15+0084RJCT V0202501N000512200019N0112651N1+00701-00901999999ADDGF100991999999999999999999MA1102001999999MW1001REMMET051RJCT 0100Z 25001KT 9999 SKC 07/M09 Q1020 RMK A3014;EQDQ01+000000PRSWM2
0129474905999992000040402004+42900+143170FM-15+0084RJCT V0202801N001512200019N0112651N1+00901-00801999999ADDGF100991999999999999999999MA1102001999999MW1001REMMET051RJCT 0200Z 28003KT 9999 SKC 09/M08 Q1020 RMK A3013;EQDQ01+000000PRSWM2
0145474905999992000040403004+42900+143170FM-15+0084RJCT V0202701N000512200019N0112651N1+01101-00901999999ADDGF100991999999999999999999MA1102001999999MW1001REMMET067RJCT 0300Z 27001KT 9999 SKC 11/M09 Q1020 RMK A3012 FCST 0312 NOSIG;EQDQ01+000000PRSWM2
0129474905999992000040404004+42900+143170FM-15+0084RJCT V0201001N001012200019N0112651N1+01301-00801999999ADDGF100991999999999999999999MA1101901999999MW1001REMMET051RJCT 0400Z 10002KT 9999 SKC 13/M08 Q1019 RMK A3010;EQDQ01+000000PRSWM2
0129474905999992000040405004+42900+143170FM-15+0084RJCT V0202401N002112200019N0112651N1+01301-00801999999ADDGF100991999999999999999999MA1101801999999MW1001REMMET051RJCT 0500Z 24004KT 9999 SKC 13/M08 Q1018 RMK A3008;EQDQ01+000000PRSWM2
0145474905999992000040406004+42900+143170FM-15+0084RJCT V0202401N002612200019N0112651N1+01301-00801999999ADDGF100991999999999999999999MA1101801999999MW1001REMMET067RJCT 0600Z 24005KT 9999 SKC 13/M08 Q1018 RMK A3006 FCST 0615 NOSIG;EQDQ01+000000PRSWM2
0129474905999992000040407004+42900+143170FM-15+0084RJCT V0202501N001512200019N0112651N1+01201-00901999999ADDGF100991999999999999999999MA1101691999999MW1001REMMET051RJCT 0700Z 25003KT 9999 SKC 12/M09 Q1017 RMK A3005;EQDQ01+000000PRSWM2
0171474905999992000040408004+42900+143170FM-15+0084RJCT V0202701N001512200019N0112651N1+01101-00801999999ADDGA1021+075009999GF102991999999999999999999MA1101691999999MW1001REMMET077RJCT 0800Z 27003KT 9999 FEW250 11/M08 Q1017 RMK 1CI250 A3005 FCST 0817 NOSIG;EQDQ01+000000PRSWM2
0159474905999992000040409004+42900+143170FM-15+0084RJCT V0202301N001012200019N0112651N1+00701-00601999999ADDGA1021+075009999GF102991999999999999999999MA1101691999999MW1001REMMET065RJCT 0900Z COR 23002KT 9999 FEW250 07/M06 Q1017 RMK 1CI250 A3005;EQDQ01+000000PRSWM2
0155474905999992000040410004+42900+143170FM-15+0084RJCT V0201801N000512200019N0112651N1+00301-00601999999ADDGA1021+075009999GF102991999999999999999999MA1101691999999MW1001REMMET061RJCT 1000Z 18001KT 9999 FEW250 03/M06 Q1017 RMK 1CI250 A3004;EQDQ01+000000PRSWM2
0186474905999992000040421004+42900+143170FM-15+0084RJCT V0201901N001510600019N0112651N1-00401-00801999999ADDGA1021+004509999GA2071+060009999GF107991999999999999999999MA1101591999999MW1001REMMET076RJCT 2100Z 19003KT 9999 FEW015 BKN200 M04/M08 Q1016 RMK 1ST015 6CI200 A3001;EQDQ01+000000PRSWM2
0216474905999992000040422004+42900+143170FM-15+0084RJCT V0202901N001010300019N0112651N1-00101-00801999999ADDGA1021+006009999GA2021+009009999GA3071+030009999GF107991999999999999999999MA1101591999999MW1001REMMET090RJCT 2200Z 29002KT 9999 FEW020 SCT030 BKN100 M01/M08 Q1016 RMK 1ST020 3SC030 5AC100 A3000;EQDQ01+000000PRSWM2
0269474905999992000040423004+42900+143170FM-15+0084RJCT V0202401N001010600019N0112651N1+00101-00701999999ADDGA1021+009009999GA2021+030009999GA3071+060009999GF107991999999999999999999MA1101491999999MW1001REMMET143RJCT 2300Z 24002KT 9999 FEW030 SCT100 BKN200 01/M07 Q1015 RMK 2SC030 4AC100 7CI200 A2999 FCST 2308 BECMG 0608 -SHRA FEW012ST BKN020CU OVC040SC;EQDQ01+000000PRSWM2
0244474905999992000040500004+42900+143170FM-15+0084RJCT V0202501N001010600019N0112651N1+00201-00101999999ADDGA1021+009009999GA2071+060009999GF107991999999999999999999MA1101491999999MW1001REMMET134RJCT 0000Z 25002KT 9999 FEW030 BKN200 02/M01 Q1015 RMK 2SC030 7CI200 A2997 FCST 0009 BECMG 0608 4000 -SHRA FEW012ST BKN020CU OVC040SC;EQDQ01+000000PRSWM2
0185474905999992000040501004+42900+143170FM-15+0084RJCT V0202801N000510600019N0112651N1+00301-00401999999ADDGA1021+009009999GA2081+060009999GF108991999999999999999999MA1101391999999MW1001REMMET075RJCT 0100Z 28001KT 9999 SCT030 OVC200 03/M04 Q1014 RMK 3SC030 8CI200 A2996;EQDQ01+000000PRSWM2
0239474905999992000040503364+42900+143170FM-16+0084RJCT V0201701N001510300019N0112651N1+00801-00201999999ADDGA1021+009009999GA2071+030009999GA3071+060009999GF107991999999999999999999MA1101191999999MW1801REMMET097RJCT 050336Z 17003KT 9999 -SHRA FEW030 BKN100 BKN200 08/M02 Q1012 RMK 2CU030 6AC100 7CI200 A2989;EQDQ01+000003PRSWM1Q02    003PRSWM1
0214474905999992000040505004+42900+143170FM-15+0084RJCT V0202401N001010600019N0112651N1+00801+00201999999ADDGA1021+004509999GA2021+009009999GA3071+060009999GF107991999999999999999999MA1101021999999MW1001REMMET088RJCT 0500Z 24002KT 9999 FEW015 SCT030 BKN200 08/02 Q1010 RMK 1ST015 3SC030 7CI200 A2985;EQDQ01+000000PRSWM2
0289474905999992000040506004+42900+143170FM-15+0084RJCT V02099999999990240019N0112651N1+00901+00301999999ADDGA1021+003009999GA2021+018009999GA3071+024009999GF107991999999999999999999MA1101021999999MW1801REMMET147RJCT 0600Z VRB01KT 9999 -SHRA SCT010 SCT060 BKN080 09/03 Q1010 RMK 3ST010 3SC060 7AC080 A2983 FCST 0615 BECMG 0608 4000 FEW010ST BKN020CU BKN040SC;EQDQ01+000003PRSWM1Q02    003PRSWM1
0238474905999992000040506074+42900+143170FM-16+0084RJCT V0200101N001010036019N0112651N1+00901+00201999999ADDGA1021+003009999GA2071+003609999GA3071+024009999GF107991999999999999999999MA1100911999999MW1801REMMET096RJCT 050607Z 01002KT 9999 -SHRA FEW010 BKN012 BKN080 09/02 Q1009 RMK 1ST010 6ST012 7AC080 A2982;EQDQ01+000003PRSWM1Q02    003PRSWM1
0206474905999992000040507004+42900+143170FM-15+0084RJCT V0203301N001010036019N0090001N1+00801+00201999999ADDGA1021+003009999GA2081+003609999GF108991999999999999999999MA1100911999999MW1801REMMET080RJCT 0700Z 33002KT 9000 -SHRA FEW010 OVC012 08/02 Q1009 RMK 2ST010 8ST012 A2980;EQDQ01+000003PRSWM1Q02    003PRSWM1
0288474905999992000040508004+42900+143170FM-15+0084RJCT V0202901N002610033019N0070001N1+00701+00301999999ADDGA1021+001209999GA2071+003309999GA3081+012009999GF108991999999999999999999MA1100811999999MW1801REMMET146RJCT 0800Z COR 29005KT 7000 -SHRA FEW004 BKN011 OVC040 07/03 Q1008 RMK 1ST004 7ST011 8SC040 A2977 FCST COR 0817 BECMG 0810 3000 BKN008ST OVC020SC;EQDQ01+000003PRSWM1Q02    003PRSWM1
0215474905999992000040509004+42900+143170FM-15+0084RJCT V0202701N001010033019N0030001N1+00401+00301999999ADDGA1021+001209999GA2081+003309999GF108991999999999999999999MA1100711999999MW1101MW2801REMMET083RJCT 0900Z 27002KT 3000 -SHRA BR FEW004 OVC011 04/03 Q1007 RMK 1ST004 8ST011 A2974;EQDQ01+000003PRSWM1Q02    003PRSWM1
0215474905999992000040510004+42900+143170FM-15+0084RJCT V0202801N002110027019N0016001N1+00401+00401999999ADDGA1021+001209999GA2081+002709999GF108991999999999999999999MA1100611999999MW1101MW2801REMMET083RJCT 1000Z 28004KT 1600 -SHRA BR SCT004 OVC009 04/04 Q1006 RMK 3ST004 8ST009 A2971;EQDQ01+000003PRSWM1Q02    003PRSWM1
0233474905999992000040521004+42900+143170FM-15+0084RJCT V0200801N002110600019N0003001N1+00401+00301999999ADDGA1021+006009999GA2021+030009999GA3071+060009999GF107991999999999999999999MA1099091999999MW1441REMMET091RJCT 2100Z 08004KT 0300 FG FEW020 SCT100 BKN200 04/03 Q0991 RMK 2CU020 3AC100 7CI200 A2928;EQDQ01+000003PRSWM1Q02    003PRSWM1
0243474905999992000040521224+42900+143170FM-16+0084RJCT V0201701N001510600019N0050001N1+00401+00401999999ADDGA1021+006009999GA2021+030009999GA3071+060009999GF107991999999999999999999MA1099091999999MW1101REMMET101RJCT 052122Z 17003KT 5000 BR SCT020 SCT100 BKN200 04/04 Q0991 RMK 3CU020 4AC100 5CI200 A2928 1600E-S;EQDQ01+000003PRSWM1Q02    003PRSWM1
0205474905999992000040521404+42900+143170FM-16+0084RJCT V0201501N003112200019N0006001N1+00401+00301999999ADDGA1021+006009999GA2021+030009999GF104991999999999999999999MA1099091999999MW1441REMMET079RJCT 052140Z 15006KT 0600 FG SCT020 SCT100 04/03 Q0991 RMK 3CU020 4AC100 A2927;EQDQ01+000003PRSWM1Q02    003PRSWM1
0205474905999992000040522004+42900+143170FM-15+0084RJCT V0202501N001512200019N0024001N1+00401+00301999999ADDGA1021+000309999GA2021+006009999GF104991999999999999999999MA1099091999999MW1411REMMET079RJCT 2200Z 25003KT 2400 BCFG FEW001 SCT020 04/03 Q0991 RMK 1ST001 3CU020 A2928;EQDQ01+000003PRSWM1Q02    003PRSWM1
0205474905999992000040522224+42900+143170FM-16+0084RJCT V02099999999992200019N0050001N1+00601+00501999999ADDGA1021+003009999GA2021+007509999GF104991999999999999999999MA1099091999999MW1101REMMET079RJCT 052222Z VRB02KT 5000 BR FEW010 SCT025 06/05 Q0991 RMK 1ST010 3CU025 A2929;EQDQ01+000003PRSWM1Q02    003PRSWM1
0299474905999992000040523004+42900+143170FM-15+0084RJCT V0203301N005710090019N0112651N1+00701+00401999999ADDGA1021+003009999GA2021+006009099GA3071+009009999GF107991999999999999999999MA1099291999999MW1001OC101341REMMET165RJCT 2300Z COR 33011G26KT 9999 FEW010 FEW020CB BKN030 07/04 Q0993 RMK 1ST010 2CB020 5CU030 A2933 CB E MOV SE FCST COR 2308 BECMG 2300 SCT030CU TEMPO 0105 31018G35KT;EQDQ01+000000PRSWM2
0249474905999992000040523124+42900+143170FM-16+0084RJCT V0203001N011310060019N0112651N1+00601+00101999999ADDGA1021+003009999GA2071+006009999GA3071+009009999GF107991999999999999999999MA1099391999999MW1801OC101951REMMET099RJCT 052312Z 30022G38KT 9999 -SHRA FEW010 BKN020 BKN030 06/01 Q0994 RMK 2ST010 6CU020 7CU030 A2936;EQDQ01+000003PRSWM1Q02    003PRSWM1
0227474905999992000040523444+42900+143170FM-16+0084RJCT V0203201N005710090019N0112651N1+00601+00101999999ADDGA1021+003009999GA2021+006009999GA3071+009009999GF107991999999999999999999MA1099491999999MW1001OC101081REMMET093RJCT 052344Z 32011G21KT 9999 FEW010 SCT020 BKN030 06/01 Q0995 RMK 1ST010 3CU020 5CU030 A2941;EQDQ01+000000PRSWM2
0267474905999992000040600004+42900+143170FM-15+0084RJCT V0203101N008710105019N0112651N1+00601+00001999999ADDGA1021+003009999GA2021+006009999GA3071+010509999GF107991999999999999999999MA1099491999999MW1001REMMET141RJCT 0000Z 31017KT 9999 FEW010 SCT020 BKN035 06/M00 Q0995 RMK 1ST010 3CU020 5CU035 A2941 FCST 0009 BECMG 0001 SCT030CU TEMPO 0107 31018G35KT;EQDQ01+000000PRSWM2
0185474905999992000040601004+42900+143170FM-15+0084RJCT V0203001N007210105019N0112651N1+00701+00001999999ADDGA1021+006009999GA2071+010509999GF107991999999999999999999MA1099801999999MW1001REMMET075RJCT 0100Z 30014KT 9999 FEW020 BKN035 07/M00 Q0998 RMK 1CU020 5CU035 A2947;EQDQ01+000000PRSWM2
0185474905999992000040602004+42900+143170FM-15+0084RJCT V0203001N008210105019N0112651N1+00801-00101999999ADDGA1021+006009999GA2071+010509999GF107991999999999999999999MA1099901999999MW1001REMMET075RJCT 0200Z 30016KT 9999 FEW020 BKN035 08/M01 Q0999 RMK 1CU020 5CU035 A2950;EQDQ01+000000PRSWM2
0212474905999992000040603004+42900+143170FM-15+0084RJCT V0202701N008210105019N0112651N1+00901-00401999999ADDGA1021+006009999GA2071+010509999GF107991999999999999999999MA1100001999999MW1001OC101341REMMET094RJCT 0300Z 27016G26KT 9999 FEW020 BKN035 09/M04 Q1000 RMK 1CU020 5CU035 A2954 FCST 0312 NOSIG;EQDQ01+000000PRSWM2
0198474905999992000040603444+42900+143170FM-16+0084RJCT V0202801N010810105019N0112651N1+00801-00501999999ADDGA1021+006009999GA2071+010509999GF107991999999999999999999MA1100001999999MW1001OC101851REMMET080RJCT 060344Z 28021G36KT 9999 FEW020 BKN035 08/M05 Q1000 RMK 1CU020 5CU035 A2955;EQDQ01+000000PRSWM2
0196474905999992000040604004+42900+143170FM-15+0084RJCT V0202801N011310105019N0112651N1+00801-00501999999ADDGA1021+007509999GA2071+010509999GF107991999999999999999999MA1100101999999MW1001OC102011REMMET078RJCT 0400Z 28022G39KT 9999 FEW025 BKN035 08/M05 Q1001 RMK 1CU025 5CU035 A2956;EQDQ01+000000PRSWM2
0220474905999992000040604264+42900+143170FM-16+0084RJCT V0203001N010310090019N0112651N1+00601-00101999999ADDGA1021+006009999GA2071+009009999GF107991999999999999999999MA1100001999999MW1851OC101591REMMET086RJCT 060426Z 30020G31KT 9999 -SHSN FEW020 BKN030 06/M01 Q1000 RMK 1CU020 5CU030 A2955;EQDQ01+000003PRSWM1Q02    003PRSWM1
0234474905999992000040604454+42900+143170FM-15+0084RJCT V0202901N010810075019N0080001N1+00501-00101999999ADDGA1021+003609999GA2071+007509999GF107991999999999999999999MA1100201999999MW1851OC101751REMMET100RJCT 060445Z 29021G34KT 8000 -SHSN FEW012 BKN025 05/M01 Q1002 RMK 1ST012 6CU025 A2959 P/RR 1500 W-N;EQDQ01+000003PRSWM1Q02    003PRSWM1
0196474905999992000040605004+42900+143170FM-15+0084RJCT V0203001N009810075019N0112651N1+00501+00001999999ADDGA1021+006009999GA2071+007509999GF107991999999999999999999MA1100201999999MW1001OC101751REMMET078RJCT 0500Z 30019G34KT 9999 FEW020 BKN025 05/M00 Q1002 RMK 1CU020 5CU025 A2959;EQDQ01+000000PRSWM2
0271474905999992000040606004+42900+143170FM-15+0084RJCT V0202801N007710090019N0112651N1+00601-00301999999ADDGA1021+006009999GA2071+009009999GF107991999999999999999999MA1100311999999MW1851OC101291REMMET137RJCT 0600Z 28015G25KT 9999 -SHSN FEW020 BKN030 06/M03 Q1003 RMK 1CU020 6CU030 A2963 FCST 0615 BECMG 0708 NSW SCT030CU BECMG 0911 30010KT;EQDQ01+000003PRSWM1Q02    003PRSWM1
0185474905999992000040607004+42900+143170FM-15+0084RJCT V0203001N006210090019N0112651N1+00401-00201999999ADDGA1021+006009999GA2071+009009999GF107991999999999999999999MA1100511999999MW1001REMMET075RJCT 0700Z 30012KT 9999 FEW020 BKN030 04/M02 Q1005 RMK 1CU020 6CU030 A2968;EQDQ01+000000PRSWM2
0215474905999992000040608004+42900+143170FM-15+0084RJCT V0202901N005710090019N0112651N1+00401-00301999999ADDGA1021+006009999GA2071+009009999GF107991999999999999999999MA1100611999999MW1001REMMET105RJCT 0800Z 29011KT 9999 FEW020 BKN030 04/M03 Q1006 RMK 1CU020 6CU030 A2972 FCST 0817 BECMG 0809 SCT030CU;EQDQ01+000000PRSWM2
0196474905999992000040609004+42900+143170FM-15+0084RJCT V0202801N008212200019N0112651N1+00201-00301999999ADDGA1021+006009999GA2021+009009999GF104991999999999999999999MA1100811999999MW1001OC101341REMMET078RJCT 0900Z 28016G26KT 9999 FEW020 SCT030 02/M03 Q1008 RMK 1CU020 4CU030 A2977;EQDQ01+000000PRSWM2
0185474905999992000040610004+42900+143170FM-15+0084RJCT V0203001N006712200019N0112651N1+00301-00601999999ADDGA1021+006009999GA2021+009009999GF104991999999999999999999MA1100911999999MW1001REMMET075RJCT 1000Z 30013KT 9999 FEW020 SCT030 03/M06 Q1009 RMK 1CU020 4CU030 A2981;EQDQ01+000000PRSWM2
0130474905999992000040622004+42900+143170FM-15+0084RJCT V0200901N000512200019N0112651N1-00101-00701999999ADDGF100991999999999999999999MA1101591999999MW1001REMMET052RJCT 2200Z 09001KT 9999 SKC M01/M07 Q1016 RMK A3002;EQDQ01+000000PRSWM2
0168474905999992000040623004+42900+143170FM-15+0084RJCT V0200801N000512200019N0112651N1+00401-00601999999ADDGF100991999999999999999999MA1101591999999MW1001REMMET090RJCT 2300Z 08001KT 9999 SKC 04/M06 Q1016 RMK A3002 FCST 2308 BECMG 0608 BKN030CU BKN080AC;EQDQ01+000000PRSWM2
0168474905999992000040700004+42900+143170FM-15+0084RJCT V0200901N000512200019N0112651N1+00601-00601999999ADDGF100991999999999999999999MA1101591999999MW1001REMMET090RJCT 0000Z 09001KT 9999 SKC 06/M06 Q1016 RMK A3002 FCST 0009 BECMG 0608 BKN030CU BKN080AC;EQDQ01+000000PRSWM2
0129474905999992000040701004+42900+143170FM-15+0084RJCT V0202901N001012200019N0112651N1+00801-00501999999ADDGF100991999999999999999999MA1101591999999MW1001REMMET051RJCT 0100Z 29002KT 9999 SKC 08/M05 Q1016 RMK A3002;EQDQ01+000000PRSWM2
0129474905999992000040702004+42900+143170FM-15+0084RJCT V0202601N000512200019N0112651N1+00901-00601999999ADDGF100991999999999999999999MA1101491999999MW1001REMMET051RJCT 0200Z 26001KT 9999 SKC 09/M06 Q1015 RMK A2999;EQDQ01+000000PRSWM2
0168474905999992000040703004+42900+143170FM-15+0084RJCT V0201101N002112200019N0112651N1+01101-00601999999ADDGF100991999999999999999999MA1101491999999MW1001REMMET090RJCT 0300Z 11004KT 9999 SKC 11/M06 Q1015 RMK A2998 FCST 0312 BECMG 0810 BKN030CU BKN080AC;EQDQ01+000000PRSWM2
0129474905999992000040704004+42900+143170FM-15+0084RJCT V0201501N002112200019N0112651N1+01201-00501999999ADDGF100991999999999999999999MA1101391999999MW1001REMMET051RJCT 0400Z 15004KT 9999 SKC 12/M05 Q1014 RMK A2995;EQDQ01+000000PRSWM2
0129474905999992000040705004+42900+143170FM-15+0084RJCT V0201401N004612200019N0112651N1+01201-00301999999ADDGF100991999999999999999999MA1101291999999MW1001REMMET051RJCT 0500Z 14009KT 9999 SKC 12/M03 Q1013 RMK A2991;EQDQ01+000000PRSWM2
0168474905999992000040706004+42900+143170FM-15+0084RJCT V0201601N005712200019N0112651N1+01001-00301999999ADDGF100991999999999999999999MA1101191999999MW1001REMMET090RJCT 0600Z 16011KT 9999 SKC 10/M03 Q1012 RMK A2989 FCST 0615 BECMG 1012 BKN030CU BKN080AC;EQDQ01+000000PRSWM2
0129474905999992000040707004+42900+143170FM-15+0084RJCT V02099999999992200019N0112651N1+01001-00401999999ADDGF100991999999999999999999MA1101081999999MW1001REMMET051RJCT 0700Z VRB03KT 9999 SKC 10/M04 Q1011 RMK A2987;EQDQ01+000000PRSWM2
0171474905999992000040708004+42900+143170FM-15+0084RJCT V0201501N003612200019N0112651N1+00801-00301999999ADDGA1021+009009999GF102991999999999999999999MA1101081999999MW1001REMMET077RJCT 0800Z 15007KT 9999 FEW030 08/M03 Q1011 RMK 1CU030 A2986 FCST 0817 NOSIG;EQDQ01+000000PRSWM2
0155474905999992000040709004+42900+143170FM-15+0084RJCT V0201301N001512200019N0112651N1+00601-00201999999ADDGA1021+007509999GF102991999999999999999999MA1101021999999MW1001REMMET061RJCT 0900Z 13003KT 9999 FEW025 06/M02 Q1010 RMK 1CU025 A2984;EQDQ01+000000PRSWM2
0155474905999992000040710004+42900+143170FM-15+0084RJCT V0203001N002112200019N0112651N1+00501-00101999999ADDGA1021+007509999GF102991999999999999999999MA1101021999999MW1001REMMET061RJCT 1000Z 30004KT 9999 FEW025 05/M01 Q1010 RMK 1CU025 A2984;EQDQ01+000000PRSWM2
0208474905999992000040721004+42900+143170FM-15+0084RJCT V0201301N001010630019N0050001N1+00001-00101999999ADDGA1021+004509999GA2071+063009999GF107991999999999999999999MA1100511999999MW1101REMMET082RJCT 2100Z COR 13002KT 5000 BR FEW015 BKN210 00/M01 Q1005 RMK 2ST015 5CI210 A2969;EQDQ01+000003PRSWM1Q02    003PRSWM1
0204474905999992000040722004+42900+143170FM-15+0084RJCT V0203001N002610630019N0050001N1+00201+00001999999ADDGA1021+004509999GA2071+063009999GF107991999999999999999999MA1100511999999MW1101REMMET078RJCT 2200Z 30005KT 5000 BR FEW015 BKN210 02/M00 Q1005 RMK 2ST015 5CI210 A2969;EQDQ01+000003PRSWM1Q02    003PRSWM1
0246474905999992000040723004+42900+143170FM-15+0084RJCT V0203001N002610630019N0060001N1+00401+00001999999ADDGA1021+003009999GA2021+006009999GA3071+063009999GF107991999999999999999999MA1100511999999MW1001REMMET120RJCT 2300Z 30005KT 6000 FEW010 SCT020 BKN210 04/00 Q1005 RMK 1ST010 3SC020 5CI210 A2969 FCST 2308 TEMPO 0408 31018G30KT;EQDQ01+000000PRSWM2
0247474905999992000040800004+42900+143170FM-15+0084RJCT V0202501N003610630019N0112651N1+00701-00101999999ADDGA1021+004509999GA2021+010509999GA3071+063009999GF107991999999999999999999MA1100511999999MW1001REMMET121RJCT 0000Z 25007KT 9999 FEW015 SCT035 BKN210 07/M01 Q1005 RMK 1ST015 3SC035 5CI210 A2968 FCST 0009 TEMPO 0408 31018G30KT;EQDQ01+000000PRSWM2
0215474905999992000040801004+42900+143170FM-15+0084RJCT V0203001N007210600019N0112651N1+01001-00101999999ADDGA1021+009009999GA2021+027009999GA3071+060009999GF107991999999999999999999MA1100411999999MW1001REMMET089RJCT 0100Z 30014KT 9999 FEW030 SCT090 BKN200 10/M01 Q1004 RMK 1CU030 3AC090 5CI200 A2967;EQDQ01+000000PRSWM2
0214474905999992000040802004+42900+143170FM-15+0084RJCT V0202901N006210630019N0112651N1+01101-00201999999ADDGA1021+009009999GA2021+027009999GA3071+063009999GF107991999999999999999999MA1100411999999MW1001REMMET088RJCT 0200Z 29012KT 9999 FEW030 SCT090 BKN210 11/M2 Q1004 RMK 1CU030 3AC090 5CI210 A2967;EQDQ01+000000PRSWM2
0217474905999992000040803004+42900+143170FM-15+0084RJCT V0203001N004112200019N0112651N1+01101-00101999999ADDGA1021+009009999GA2021+063009999GF104991999999999999999999MA1100511999999MW1001REMMET107RJCT 0300Z 30008KT 9999 FEW030 SCT210 11/M01 Q1005 RMK 2CU030 4CI210 A2968 FCST 0312 TEMPO 0408 31018G30KT;EQDQ01+000000PRSWM2
0185474905999992000040804004+42900+143170FM-15+0084RJCT V0203101N007210630019N0112651N1+00901+00001999999ADDGA1021+009009999GA2071+063009999GF107991999999999999999999MA1100511999999MW1001REMMET075RJCT 0400Z 31014KT 9999 SCT030 BKN210 09/M00 Q1005 RMK 3CU030 5CI210 A2969;EQDQ01+000000PRSWM2
0166474905999992000040805004+42900+143170FM-15+0084RJCT V0203201N009312200019N0112651N1+00801+00001999999ADDGA1021+009009999GF102991999999999999999999MA1100611999999MW1001OC101801REMMET064RJCT 0500Z 32018G35KT 9999 FEW030 08/M00 Q1006 RMK 2CU030 A2973;EQDQ01+000000PRSWM2
0166474905999992000040806004+42900+143170FM-15+0084RJCT V0203101N008212200019N0112651N1+00801-00101999999ADDGA1021+009009999GF102991999999999999999999MA1100711999999MW1001OC101441REMMET064RJCT 0600Z 31016G28KT 9999 FEW030 08/M01 Q1007 RMK 2CU030 A2975;EQDQ01+000000PRSWM2
0166474905999992000040807004+42900+143170FM-15+0084RJCT V0203201N007212200019N0112651N1+00701-00201999999ADDGA1021+007509999GF102991999999999999999999MA1100811999999MW1001OC101341REMMET064RJCT 0700Z 32014G26KT 9999 FEW025 07/M02 Q1008 RMK 1CU025 A2977;EQDQ01+000000PRSWM2
0171474905999992000040808004+42900+143170FM-15+0084RJCT V0203201N006212200019N0112651N1+00701-00301999999ADDGA1021+009009999GF102991999999999999999999MA1100911999999MW1001REMMET077RJCT 0800Z 32012KT 9999 FEW030 07/M03 Q1009 RMK 1CU030 A2981 FCST 0817 NOSIG;EQDQ01+000000PRSWM2
0155474905999992000040809004+42900+143170FM-15+0084RJCT V0203201N004612200019N0112651N1+00601-00301999999ADDGA1021+009009999GF102991999999999999999999MA1101021999999MW1001REMMET061RJCT 0900Z 32009KT 9999 FEW030 06/M03 Q1010 RMK 1CU030 A2983;EQDQ01+000000PRSWM2
0155474905999992000040810004+42900+143170FM-15+0084RJCT V0203101N006212200019N0112651N1+00501-00401999999ADDGA1021+009009999GF102991999999999999999999MA1101191999999MW1001REMMET061RJCT 1000Z 31012KT 9999 FEW030 05/M04 Q1012 RMK 2CU030 A2988;EQDQ01+000000PRSWM2
0156474905999992000040821004+42900+143170FM-15+0084RJCT V0202501N001512200019N0112651N1-00201-00701999999ADDGA1021+009009999GF102991999999999999999999MA1102001999999MW1001REMMET062RJCT 2100Z 25003KT 9999 FEW030 M02/M07 Q1020 RMK 1CU030 A3012;EQDQ01+000000PRSWM2
0155474905999992000040822004+42900+143170FM-15+0084RJCT V0202201N001512200019N0112651N1+00201-00701999999ADDGA1021+009009999GF102991999999999999999999MA1102001999999MW1001REMMET061RJCT 2200Z 22003KT 9999 FEW030 02/M07 Q1020 RMK 1CU030 A3013;EQDQ01+000000PRSWM2
0171474905999992000040823004+42900+143170FM-15+0084RJCT V0201201N000512200019N0112651N1+00401-00601999999ADDGA1021+009009999GF102991999999999999999999MA1101901999999MW1001REMMET077RJCT 2300Z 12001KT 9999 FEW030 04/M06 Q1019 RMK 1CU030 A3011 FCST 2308 NOSIG;EQDQ01+000000PRSWM2
0171474905999992000040900004+42900+143170FM-15+0084RJCT V0201501N000512200019N0112651N1+00701-00501999999ADDGA1021+009009999GF102991999999999999999999MA1102001999999MW1001REMMET077RJCT 0000Z 15001KT 9999 FEW030 07/M05 Q1020 RMK 1CU030 A3013 FCST 0009 NOSIG;EQDQ01+000000PRSWM2
0155474905999992000040901004+42900+143170FM-15+0084RJCT V0202301N003112200019N0112651N1+00801-00501999999ADDGA1021+009009999GF102991999999999999999999MA1102001999999MW1001REMMET061RJCT 0100Z 23006KT 9999 FEW030 08/M05 Q1020 RMK 1CU030 A3014;EQDQ01+000000PRSWM2
0155474905999992000040902004+42900+143170FM-15+0084RJCT V0202101N001012200019N0112651N1+01001-00601999999ADDGA1021+009009999GF102991999999999999999999MA1102001999999MW1001REMMET061RJCT 0200Z 21002KT 9999 FEW030 10/M06 Q1020 RMK 1CU030 A3012;EQDQ01+000000PRSWM2
0201474905999992000040903004+42900+143170FM-15+0084RJCT V0202801N001512200019N0112651N1+01101-00701999999ADDGA1021+009009999GA2021+063009999GF104991999999999999999999MA1101901999999MW1001REMMET091RJCT 0300Z 28003KT 9999 FEW030 SCT210 11/M07 Q1019 RMK 1CU030 3CI210 A3011 FCST 0312 NOSIG;EQDQ01+000000PRSWM2
0185474905999992000040904004+42900+143170FM-15+0084RJCT V0202001N002610630019N0112651N1+01201-00601999999ADDGA1021+009009999GA2071+063009999GF107991999999999999999999MA1101901999999MW1001REMMET075RJCT 0400Z 20005KT 9999 FEW030 BKN210 12/M06 Q1019 RMK 1CU030 5CI210 A3009;EQDQ01+000000PRSWM2
0185474905999992000040905004+42900+143170FM-15+0084RJCT V0202201N002610630019N0112651N1+01201-00701999999ADDGA1021+009009999GA2071+063009999GF107991999999999999999999MA1101901999999MW1001REMMET075RJCT 0500Z 22005KT 9999 FEW030 BKN210 12/M07 Q1019 RMK 1CU030 5CI210 A3009;EQDQ01+000000PRSWM2
0201474905999992000040906004+42900+143170FM-15+0084RJCT V0202001N002612200019N0112651N1+01201-00601999999ADDGA1021+009009999GA2021+063009999GF104991999999999999999999MA1101801999999MW1001REMMET091RJCT 0600Z 20005KT 9999 FEW030 SCT210 12/M06 Q1018 RMK 1CU030 3CI210 A3008 FCST 0615 NOSIG;EQDQ01+000000PRSWM2
0155474905999992000040907004+42900+143170FM-15+0084RJCT V0202101N003112200019N0112651N1+01201-00601999999ADDGA1021+009009999GF102991999999999999999999MA1101801999999MW1001REMMET061RJCT 0700Z 21006KT 9999 FEW030 12/M06 Q1018 RMK 1CU030 A3008;EQDQ01+000000PRSWM2
0171474905999992000040908004+42900+143170FM-15+0084RJCT V0202201N002612200019N0112651N1+01101-00501999999ADDGA1021+009009999GF102991999999999999999999MA1101901999999MW1001REMMET077RJCT 0800Z 22005KT 9999 FEW030 11/M05 Q1019 RMK 1CU030 A3010 FCST 0817 NOSIG;EQDQ01+000000PRSWM2
0185474905999992000040909004+42900+143170FM-15+0084RJCT V0202401N002112200019N0112651N1+00801-00401999999ADDGA1021+009009999GA2021+063009999GF104991999999999999999999MA1101901999999MW1001REMMET075RJCT 0900Z 24004KT 9999 FEW030 SCT210 08/M04 Q1019 RMK 1CU030 3CI210 A3011;EQDQ01+000000PRSWM2
0185474905999992000040910004+42900+143170FM-15+0084RJCT V02099999999992200019N0112651N1+00401-00401999999ADDGA1021+009009999GA2021+063009999GF104991999999999999999999MA1102001999999MW1001REMMET075RJCT 1000Z VRB02KT 9999 FEW030 SCT210 04/M04 Q1020 RMK 1CU030 4CI210 A3014;EQDQ01+000000PRSWM2
0216474905999992000040921004+42900+143170FM-15+0084RJCT V0202001N001010630019N0112651N1-00201-00401999999ADDGA1021+009009999GA2021+030009999GA3071+063009999GF107991999999999999999999MA1102001999999MW1001REMMET090RJCT 2100Z 20002KT 9999 FEW030 SCT100 BKN210 M02/M04 Q1020 RMK 1SC030 3AC100 6CI210 A3013;EQDQ01+000000PRSWM2
0215474905999992000040922004+42900+143170FM-15+0084RJCT V0209999C000010630019N0112651N1+00001-00301999999ADDGA1021+009009999GA2021+030009999GA3071+063009999GF107991999999999999999999MA1102001999999MW1001REMMET089RJCT 2200Z 00000KT 9999 FEW030 SCT100 BKN210 00/M03 Q1020 RMK 1SC030 3AC100 6CI210 A3013;EQDQ01+000000PRSWM2
0224474905999992000040923004+42900+143170FM-15+0084RJCT V0201301N000510630019N0112651N1+00301-00301999999ADDGA1021+009009999GA2071+063009999GF107991999999999999999999MA1102001999999MW1001REMMET114RJCT 2300Z 13001KT 9999 FEW030 BKN210 03/M03 Q1020 RMK 1SC030 5CI210 A3012 FCST 2308 BECMG 0608 BKN020CU BKN040SC;EQDQ01+000000PRSWM2
0224474905999992000041000004+42900+143170FM-15+0084RJCT V0200901N001510630019N0112651N1+00501-00101999999ADDGA1021+009009999GA2071+063009999GF107991999999999999999999MA1101901999999MW1001REMMET114RJCT 0000Z 09003KT 9999 FEW030 BKN210 05/M01 Q1019 RMK 1SC030 5CI210 A3010 FCST 0009 BECMG 0608 BKN020CU BKN040SC;EQDQ01+000000PRSWM2
0184474905999992000041002004+42900+143170FM-15+0084RJCT V02099999999990105019N0112651N1+00801+00101999999ADDGA1071+010509999GA2071+063009999GF107991999999999999999999MA1101691999999MW1001REMMET074RJCT 0200Z VRB01KT 9999 BKN035 BKN210 08/01 Q1017 RMK 5SC035 6CI210 A3005;EQDQ01+000000PRSWM2
0214474905999992000041004004+42900+143170FM-15+0084RJCT V0201501N002110105019N0112651N1+01501+00301999999ADDGA1021+004509999GA2021+006009999GA3071+010509999GF107991999999999999999999MA1101591999999MW1001REMMET088RJCT 0400Z 15004KT 9999 FEW015 SCT020 BKN035 15/03 Q1016 RMK 1ST015 3SC020 5SC035 A3000;EQDQ01+000000PRSWM2
0214474905999992000041005004+42900+143170FM-15+0084RJCT V0201901N002610105019N0112651N1+00901+00301999999ADDGA1021+004509999GA2071+010509999GA3071+063009999GF107991999999999999999999MA1101491999999MW1001REMMET088RJCT 0500Z 19005KT 9999 FEW015 BKN035 BKN210 09/03 Q1015 RMK 1ST015 5SC035 6CI210 A2997;EQDQ01+000000PRSWM2
0286474905999992000041008004+42900+143170FM-15+0084RJCT V0201701N002110042019N0112651N1+00801+00401999999ADDGA1021+002709999GA2071+004209999GA3071+005109999GF107991999999999999999999MA1101291999999MW1001REMMET160RJCT 0800Z COR 17004KT 9999 FEW009 BKN014 BKN017 08/04 Q1013 RMK 1ST009 5ST014 7ST017 A2993 FCST COR 0817 BECMG 0809 4000 BR BKN009ST BKN015CU TEMPO 1215 -SHRA;EQDQ01+000000PRSWM2
0184474905999992000041009004+42900+143170FM-15+0084RJCT V0201001N002110042019N0080001N1+00701+00501999999ADDGA1021+002709999GA2081+004209999GF108991999999999999999999MA1101191999999MW1001REMMET074RJCT 0900Z 10004KT 8000 SCT009 OVC014 07/05 Q1012 RMK 3ST009 8ST014 A2989;EQDQ01+000000PRSWM2
0234474905999992000041010004+42900+143170FM-15+0084RJCT V0201101N003610024019N0050001N1+00701+00501999999ADDGA1021+001509999GA2071+002409999GA3081+003909999GF108991999999999999999999MA1101081999999MW1611REMMET092RJCT 1000Z 11007KT 5000 -RA SCT005 BKN008 OVC013 07/05 Q1011 RMK 3ST005 6ST008 8ST013 A2986;EQDQ01+000003PRSWM1Q02    003PRSWM1
0246474905999992000041021004+42900+143170FM-15+0084RJCT V0201401N007710075019N0050001N1+00801+00701999999ADDGA1021+001509999GA2071+007509999GA3081+010509999GF108991999999999999999999MA1100001999999MW1811OC101291REMMET096RJCT 2100Z 14015G25KT 5000 SHRA SCT005 BKN025 OVC035 08/07 Q1000 RMK 3ST005 5SC025 8SC035 A2953;EQDQ01+000003PRSWM1Q02    003PRSWM1
0235474905999992000041022004+42900+143170FM-15+0084RJCT V0201401N005110015019N0040001N1+00701+00601999999ADDGA1071+001509999GA2071+003609999GA3081+006909999GF108991999999999999999999MA1099901999999MW1811REMMET093RJCT 2200Z 14010KT 4000 SHRA BKN005 BKN012 OVC023 07/06 Q0999 RMK 5ST005 7ST012 8SC023 A2952;EQDQ01+000003PRSWM1Q02    003PRSWM1
0295474905999992000041023004+42900+143170FM-15+0084RJCT V0201401N005110021019N0070001N1+00701+00601999999ADDGA1021+001509999GA2071+002109999GA3081+006009999GF108991999999999999999999MA1099901999999MW1801REMMET153RJCT 2300Z 14010KT 7000 -SHRA FEW005 BKN007 OVC020 07/06 Q0999 RMK 1ST005 5ST007 8SC020 A2950 FCST 2308 TEMPO 0002 4000 BECMG 0304 NSW SCT020CU BKN040SC;EQDQ01+000003PRSWM1Q02    003PRSWM1
0295474905999992000041100004+42900+143170FM-15+0084RJCT V0201301N001010021019N0060001N1+00601+00601999999ADDGA1021+001509999GA2071+002109999GA3081+006009999GF108991999999999999999999MA1099701999999MW1801REMMET153RJCT 0000Z 13002KT 6000 -SHRA FEW005 BKN007 OVC020 06/06 Q0997 RMK 1ST005 5ST007 8SC020 A2945 FCST 0009 TEMPO 0002 4000 BECMG 0304 NSW SCT020CU BKN040SC;EQDQ01+000003PRSWM1Q02    003PRSWM1
0245474905999992000041101004+42900+143170FM-15+0084RJCT V0202901N002610027019N0020001N1+00601+00501999999ADDGA1021+002109999GA2071+002709999GA3081+006009999GF108991999999999999999999MA1099591999999MW1101MW2801REMMET097RJCT 0100Z 29005KT 2000 -SHRA BR FEW007 BKN009 OVC020 06/05 Q0996 RMK 1ST007 5ST009 8SC020 A2942;EQDQ01+000003PRSWM1Q02    003PRSWM1
0196474905999992000041109004+42900+143170FM-15+0084RJCT V0203001N007210060019N0112651N1+00201-00201999999ADDGA1021+003009999GA2081+006009999GF108991999999999999999999MA1098821999999MW1001OC101231REMMET078RJCT 0900Z 30014G24KT 9999 FEW010 OVC020 02/M02 Q0988 RMK 1ST010 8SC020 A2919;EQDQ01+000000PRSWM2
0185474905999992000041110004+42900+143170FM-15+0084RJCT V0203001N006710090019N0112651N1+00301-00301999999ADDGA1021+006009999GA2081+009009999GF108991999999999999999999MA1098821999999MW1001REMMET075RJCT 1000Z 30013KT 9999 SCT020 OVC030 03/M03 Q0988 RMK 3ST020 8SC030 A2918;EQDQ01+000000PRSWM2
0215474905999992000041121004+42900+143170FM-15+0084RJCT V0201401N004110630019N0112651N1+00101-00301999999ADDGA1021+003009999GA2021+027009999GA3071+063009999GF107991999999999999999999MA1099391999999MW1001REMMET089RJCT 2100Z 14008KT 9999 FEW010 SCT090 BKN210 01/M03 Q0994 RMK 1ST010 4AC090 6CI210 A2937;EQDQ01+000000PRSWM2
0185474905999992000041122004+42900+143170FM-15+0084RJCT V0201301N003112200019N0112651N1+00101-00101999999ADDGA1021+004509999GA2021+063009999GF104991999999999999999999MA1099391999999MW1001REMMET075RJCT 2200Z 13006KT 9999 FEW015 SCT210 01/M01 Q0994 RMK 1ST015 4CI210 A2938;EQDQ01+000000PRSWM2
0245474905999992000041123004+42900+143170FM-15+0084RJCT V0201501N004610630019N0112651N1+00401-00101999999ADDGA1021+003009999GA2021+006009999GA3071+063009999GF107991999999999999999999MA1099491999999MW1001REMMET119RJCT 2300Z 15009KT 9999 FEW010 SCT020 BKN210 04/M01 Q0995 RMK 1ST010 3CU020 5CI210 A2939 FCST 2308 TEMPO 0005 BKN030CU;EQDQ01+000000PRSWM2
0271474905999992000041200004+42900+143170FM-15+0084RJCT V0201801N004610630019N0112651N1+00401+00001999999ADDGA1021+003009999GA2021+006009999GA3071+063009999GF107991999999999999999999MA1099491999999MW1001REMMET145RJCT 0000Z 18009KT 9999 FEW010 SCT020 BKN210 04/M00 Q0995 RMK 1ST010 3CU020 7CI210 A2940 FCST 0009 TEMPO 0002 -SHRA BKN020CU TEMPO 0205 BKN020CU;EQDQ01+000000PRSWM2
0184474905999992000041201004+42900+143170FM-15+0084RJCT V0201601N004110630019N0112651N1+00501+00001999999ADDGA1021+006009999GA2071+063009999GF107991999999999999999999MA1099491999999MW1001REMMET074RJCT 0100Z 16008KT 9999 FEW020 BKN210 05/00 Q0995 RMK 2CU020 6CI210 A2940;EQDQ01+000000PRSWM2
0184474905999992000041202004+42900+143170FM-15+0084RJCT V0201701N004110720019N0112651N1+00601+00001999999ADDGA1021+006009999GA2071+072009999GF107991999999999999999999MA1099491999999MW1001REMMET074RJCT 0200Z 17008KT 9999 FEW020 BKN240 06/00 Q0995 RMK 2CU020 5CI240 A2939;EQDQ01+000000PRSWM2
0190474905999992000041203004+42900+143170FM-15+0084RJCT V0201501N005712200019N0112651N1+00701+00101999999ADDGA1021+007509999GF102991999999999999999999MA1099491999999MW1001REMMET096RJCT 0300Z 15011KT 9999 FEW025 07/01 Q0995 RMK 2CU025 A2938 FCST 0312 TEMPO 0306 -SHRA BKN020CU;EQDQ01+000000PRSWM2
0154474905999992000041204004+42900+143170FM-15+0084RJCT V0201601N006212200019N0112651N1+00701+00101999999ADDGA1021+007509999GF102991999999999999999999MA1099491999999MW1001REMMET060RJCT 0400Z 16012KT 9999 FEW025 07/01 Q0995 RMK 1CU025 A2938;EQDQ01+000000PRSWM2
0184474905999992000041205004+42900+143170FM-15+0084RJCT V0201401N005112200019N0112651N1+00601+00001999999ADDGA1021+006009999GA2021+009009999GF104991999999999999999999MA1099491999999MW1001REMMET074RJCT 0500Z 14010KT 9999 FEW020 SCT030 06/00 Q0995 RMK 1CU020 3CU030 A2938;EQDQ01+000000PRSWM2
0231474905999992000041206004+42900+143170FM-15+0084RJCT V0201701N004110105019N0112651N1+00701+00001999999ADDGA1021+007509999GA2071+010509999GF107991999999999999999999MA1099491999999MW1001REMMET121RJCT 0600Z 17008KT 9999 FEW025 BKN035 07/00 Q0995 RMK 1CU025 5CU035 A2939 FCST 0615 TEMPO 0607 -SHRA BECMG 0708 SCT035CU;EQDQ01+000000PRSWM2
0185474905999992000041207004+42900+143170FM-15+0084RJCT V0202001N003612200019N0112651N1+00601+00001999999ADDGA1021+007509999GA2021+010509999GF104991999999999999999999MA1099491999999MW1001REMMET075RJCT 0700Z 20007KT 9999 FEW025 SCT035 06/M00 Q0995 RMK 1CU025 4CU035 A2940;EQDQ01+000000PRSWM2
0211474905999992000041208004+42900+143170FM-15+0084RJCT V0202401N003110120019N0112651N1+00501+00001999999ADDGA1021+007509999GA2071+012009999GF107991999999999999999999MA1099591999999MW1001REMMET101RJCT 0800Z 24006KT 9999 FEW025 BKN040 05/00 Q0996 RMK 1CU025 5SC040 A2943 FCST 0817 TEMPO 0814 -SHRA;EQDQ01+000000PRSWM2
0206474905999992000041209004+42900+143170FM-15+0084RJCT V0202901N001510120019N0112651N1+00401+00101999999ADDGA1021+007509999GA2071+012009999GF107991999999999999999999MA1099701999999MW1801REMMET080RJCT 0900Z 29003KT 9999 -SHRA FEW025 BKN040 04/01 Q0997 RMK 1CU025 5SC040 A2944;EQDQ01+000003PRSWM1Q02    003PRSWM1
0184474905999992000041210004+42900+143170FM-15+0084RJCT V0202801N002110120019N0112651N1+00301+00101999999ADDGA1021+007509999GA2071+012009999GF107991999999999999999999MA1099801999999MW1001REMMET074RJCT 1000Z 28004KT 9999 FEW025 BKN040 03/01 Q0998 RMK 1CU025 6SC040 A2947;EQDQ01+000000PRSWM2
0203474905999992000041221004+42900+143170FM-15+0084RJCT V0209999999999000901CN0002001N1+00101+00001999999ADDGA1071+000159999GA2071+000909999GF107991999999999999999999MA1100201999999MW1441REMMET077RJCT 2100Z VRB01KT 0200 FG BKN000 BKN003 01/00 Q1002 RMK 6ST000 6ST003 A2959;EQDQ01+000003PRSWM1Q02    003PRSWM1
0203474905999992000041222004+42900+143170FM-15+0084RJCT V0202201N00101000901CN0003001N1+00201+00101999999ADDGA1071+000159999GA2071+000909999GF107991999999999999999999MA1100201999999MW1441REMMET077RJCT 2200Z 22002KT 0300 FG BKN000 BKN003 02/01 Q1002 RMK 6ST000 7ST003 A2961;EQDQ01+000003PRSWM1Q02    003PRSWM1
0242474905999992000041223004+42900+143170FM-15+0084RJCT V02099999999990015019N0014001N1+00301+00201999999ADDGA1021+000309999GA2071+001509999GF107991999999999999999999MA1100311999999MW1101REMMET116RJCT 2300Z VRB01KT 1400 BR SCT001 BKN005 03/02 Q1003 RMK 3ST001 6ST005 A2962 FCST 2308 BECMG 2300 6000 NSW SCT015ST;EQDQ01+000003PRSWM1Q02    003PRSWM1
0205474905999992000041223064+42900+143170FM-16+0084RJCT V0201001N000510105019N0025001N1+00401+00301999999ADDGA1021+000609999GA2071+010509999GF107991999999999999999999MA1100311999999MW1101REMMET079RJCT 122306Z 10001KT 2500 BR SCT002 BKN035 04/03 Q1003 RMK 3ST002 5SC035 A2962;EQDQ01+000003PRSWM1Q02    003PRSWM1
0205474905999992000041223294+42900+143170FM-16+0084RJCT V02099999999990105019N0050001N1+00501+00201999999ADDGA1021+000909999GA2071+010509999GF107991999999999999999999MA1100311999999MW1101REMMET079RJCT 122329Z VRB01KT 5000 BR FEW003 BKN035 05/02 Q1003 RMK 1ST003 5SC035 A2963;EQDQ01+000003PRSWM1Q02    003PRSWM1
0200474905999992000041300004+42900+143170FM-15+0084RJCT V0202601N002112200019N0070001N1+00601+00101999999ADDGA1021+002409999GA2021+010509999GF104991999999999999999999MA1100311999999MW1001REMMET090RJCT 0000Z 26004KT 7000 FEW008 SCT035 06/01 Q1003 RMK 1ST008 4SC035 A2963 FCST 0009 NOSIG;EQDQ01+000000PRSWM2
0184474905999992000041301004+42900+143170FM-15+0084RJCT V0203101N002112200019N0090001N1+00801+00301999999ADDGA1021+004509999GA2021+010509999GF104991999999999999999999MA1100411999999MW1001REMMET074RJCT 0100Z 31004KT 9000 FEW015 SCT035 08/03 Q1004 RMK 2ST015 3SC035 A2964;EQDQ01+000000PRSWM2
0184474905999992000041302004+42900+143170FM-15+0084RJCT V0202701N002112200019N0112651N1+01001+00301999999ADDGA1021+004509999GA2021+009009999GF104991999999999999999999MA1100311999999MW1001REMMET074RJCT 0200Z 27004KT 9999 FEW015 SCT030 10/03 Q1003 RMK 1ST015 3CU030 A2963;EQDQ01+000000PRSWM2
0200474905999992000041303004+42900+143170FM-15+0084RJCT V0202601N003612200019N0112651N1+01001+00201999999ADDGA1021+004509999GA2021+010509999GF104991999999999999999999MA1100311999999MW1001REMMET090RJCT 0300Z 26007KT 9999 FEW015 SCT035 10/02 Q1003 RMK 2ST015 4CU035 A2964 FCST 0312 NOSIG;EQDQ01+000000PRSWM2
0184474905999992000041304004+42900+143170FM-15+0084RJCT V02099999999992200019N0112651N1+01201+00301999999ADDGA1021+004509999GA2021+010509999GF104991999999999999999999MA1100311999999MW1001REMMET074RJCT 0400Z VRB02KT 9999 FEW015 SCT035 12/03 Q1003 RMK 1ST015 3CU035 A2964;EQDQ01+000000PRSWM2
0214474905999992000041305004+42900+143170FM-15+0084RJCT V0203001N001010180019N0112651N1+01101+00301999999ADDGA1021+004509999GA2021+010509999GA3071+018009999GF107991999999999999999999MA1100411999999MW1001REMMET088RJCT 0500Z 30002KT 9999 FEW015 SCT035 BKN060 11/03 Q1004 RMK 1ST015 3CU035 5SC060 A2965;EQDQ01+000000PRSWM2
0230474905999992000041306004+42900+143170FM-15+0084RJCT V0202101N002110180019N0112651N1+01201+00101999999ADDGA1021+006009999GA2021+010509999GA3071+018009999GF107991999999999999999999MA1100411999999MW1001REMMET104RJCT 0600Z 21004KT 9999 FEW020 SCT035 BKN060 12/01 Q1004 RMK 1CU020 3CU035 6SC060 A2966 FCST 0615 NOSIG;EQDQ01+000000PRSWM2
0214474905999992000041307004+42900+143170FM-15+0084RJCT V0202801N001010150019N0112651N1+01201+00001999999ADDGA1021+006009999GA2021+010509999GA3071+015009999GF107991999999999999999999MA1100411999999MW1001REMMET088RJCT 0700Z 28002KT 9999 FEW020 SCT035 BKN050 12/00 Q1004 RMK 1CU020 3CU035 5CU050 A2967;EQDQ01+000000PRSWM2
0200474905999992000041308004+42900+143170FM-15+0084RJCT V0200101N000512200019N0112651N1+01001+00201999999ADDGA1021+007509999GA2021+012009999GF104991999999999999999999MA1100511999999MW1001REMMET090RJCT 0800Z 01001KT 9999 FEW025 SCT040 10/02 Q1005 RMK 1CU025 3CU040 A2968 FCST 0817 NOSIG;EQDQ01+000000PRSWM2
0214474905999992000041309004+42900+143170FM-15+0084RJCT V0200301N000510630019N0112651N1+00801+00101999999ADDGA1021+009009999GA2021+018009999GA3071+063009999GF107991999999999999999999MA1100511999999MW1001REMMET088RJCT 0900Z 03001KT 9999 FEW030 SCT060 BKN210 08/01 Q1005 RMK 2SC030 4SC060 5CI210 A2970;EQDQ01+000000PRSWM2
0184474905999992000041310004+42900+143170FM-15+0084RJCT V0200101N000512200019N0112651N1+00601+00101999999ADDGA1021+007509999GA2021+015009999GF104991999999999999999999MA1100611999999MW1001REMMET074RJCT 1000Z 01001KT 9999 FEW025 SCT050 06/01 Q1006 RMK 1SC025 4SC050 A2972;EQDQ01+000000PRSWM2
0185474905999992000041321004+42900+143170FM-15+0084RJCT V0202601N002610150019N0112651N1+00101+00001999999ADDGA1021+009009999GA2071+015009999GF107991999999999999999999MA1100911999999MW1001REMMET075RJCT 2100Z 26005KT 9999 SCT030 BKN050 01/M00 Q1009 RMK 3SC030 6SC050 A2979;EQDQ01+000000PRSWM2
0239474905999992000041321094+42900+143170FM-16+0084RJCT V0201601N001510090019N0112651N1+00101+00001999999ADDGA1021+007509999GA2071+009009999GA3071+015009999GF107991999999999999999999MA1100911999999MW1801REMMET097RJCT 132109Z 16003KT 9999 -SHRA SCT025 BKN030 BKN050 01/M00 Q1009 RMK 3SC025 5CU030 7SC050 A2980;EQDQ01+000003PRSWM1Q02    003PRSWM1
0257474905999992000041321374+42900+143170FM-16+0084RJCT V0201701N001510090019N0050001N1+00101+00001999999ADDGA1021+004509999GA2021+007509999GA3071+009009999GF107991999999999999999999MA1100911999999MW1801REMMET099RJCT 132137Z 17003KT 5000 -SHRA BR FEW015 SCT025 BKN030 01/00 Q1009 RMK 1ST015 4SC025 7CU030 A2980;EQDQ01+000100PRSWM3Q02+000003PRSWM1Q03    003PRSWM1
0245474905999992000041322004+42900+143170FM-15+0084RJCT V0203301N002110075019N0040001N1+00201+00001999999ADDGA1021+004509999GA2071+007509999GA3071+009009999GF107991999999999999999999MA1100911999999MW1101MW2801REMMET097RJCT 2200Z 33004KT 4000 -SHRA BR SCT015 BKN025 BKN030 02/00 Q1009 RMK 3ST015 5SC025 7CU030 A2980;EQDQ01+000003PRSWM1Q02    003PRSWM1
0257474905999992000041322074+42900+143170FM-16+0084RJCT V0200201N001510075019N0030001N1+00201+00101999999ADDGA1021+004509999GA2071+007509999GA3071+009009999GF107991999999999999999999MA1100811999999MW1801REMMET099RJCT 132207Z 02003KT 3000 -SHRA BR SCT015 BKN025 BKN030 02/01 Q1008 RMK 3ST015 5CU025 7CU030 A2978;EQDQ01+000100PRSWM3Q02+000003PRSWM1Q03    003PRSWM1
0271474905999992000041323004+42900+143170FM-15+0084RJCT V0203001N001510030019N0015001N1+00201+00101999999ADDGA1021+000909999GA2071+003009999GA3071+009009999GF107991999999999999999999MA1100911999999MW1101MW2801REMMET123RJCT 2300Z 30003KT 1500 -SHRA BR SCT003 BKN010 BKN030 02/01 Q1009 RMK 4ST003 5ST010 7CU030 A2980 FCST 2308 TEMPO 0205 4000;EQDQ01+000003PRSWM1Q02    003PRSWM1
0227474905999992000041323214+42900+143170FM-16+0084RJCT V0203301N001010009019N0010001N1+00201+00101999999ADDGA1071+000909999GA2071+003009999GF107991999999999999999999MA1100911999999MW1801REMMET085RJCT 132321Z 33002KT 1000 -SHRA BR BKN003 BKN010 02/01 Q1009 RMK 5ST003 7ST010 A2979;EQDQ01+000100PRSWM3Q02+000003PRSWM1Q03    003PRSWM1
0289474905999992000041400004+42900+143170FM-15+0084RJCT V0203001N003110015019N0015001N1+00201+00101999999ADDGA1021+000909999GA2071+001509999GA3071+003009999GF107991999999999999999999MA1100811999999MW1101MW2801REMMET141RJCT 0000Z 30006KT 1500 -SHRA BR SCT003 BKN005 BKN010 02/01 Q1008 RMK 4ST003 5ST005 7ST010 A2978 FCST 0009 TEMPO 0306 5000 BKN015ST BKN025CU;EQDQ01+000003PRSWM1Q02    003PRSWM1
0243474905999992000041402004+42900+143170FM-15+0084RJCT V0202601N001510006019N0015001N1+00201+00201999999ADDGA1021+000309999GA2071+000609999GA3081+001509999GF108991999999999999999999MA1100811999999MW1101MW2611REMMET095RJCT 0200Z 26003KT 1500 -RA BR FEW001 BKN002 OVC005 02/02 Q1008 RMK 2ST001 5ST002 8ST005 A2977;EQDQ01+000003PRSWM1Q02    003PRSWM1
0249474905999992000041402404+42900+143170FM-16+0084RJCT V0202801N002110006019N0012001N1+00201+00201999999ADDGA1021+000309999GA2071+000609999GA3081+001509999GF108991999999999999999999MA1100811999999MW1801MW2851REMMET101RJCT 140240Z 28004KT 1200 -SHRASN BR FEW001 BKN002 OVC005 02/02 Q1008 RMK 2ST001 5ST002 8ST005 A2977;EQDQ01+000100PRSWM4Q02+000003PRSWM1
0269474905999992000041403004+42900+143170FM-15+0084RJCT V0202801N002610006019N0012001N1+00201+00101999999ADDGA1021+000309999GA2071+000609999GA3081+001509999GF108991999999999999999999MA1100711999999MW1101MW2611MW3711REMMET131RJCT 0300Z 28005KT 1200 -RASN BR FEW001 BKN002 OVC005 02/01 Q1007 RMK 2ST001 5ST002 8ST005 A2976 FCST 0312 BECMG 1112 NSW BKN030CU;EQDQ01+000003PRSWM1
0213474905999992000041404004+42900+143170FM-15+0084RJCT V0202901N001510006019N0015001N1+00201+00101999999ADDGA1071+000609999GA2081+004509999GF108991999999999999999999MA1100711999999MW1101MW2611REMMET081RJCT 0400Z 29003KT 1500 -RA BR BKN002 OVC015 02/01 Q1007 RMK 6ST002 8NS015 A2974;EQDQ01+000003PRSWM1Q02    003PRSWM1
0243474905999992000041405004+42900+143170FM-15+0084RJCT V0203301N002610012019N0020001N1+00201+00101999999ADDGA1021+000609999GA2071+001209999GA3081+004509999GF108991999999999999999999MA1100611999999MW1101MW2611REMMET095RJCT 0500Z 33005KT 2000 -RA BR FEW002 BKN004 OVC015 02/01 Q1006 RMK 1ST002 6ST004 8NS015 A2973;EQDQ01+000003PRSWM1Q02    003PRSWM1
0269474905999992000041406004+42900+143170FM-15+0084RJCT V0203201N001510012019N0024001N1+00301+00201999999ADDGA1071+001209999GA2081+004509999GF108991999999999999999999MA1100611999999MW1101MW2611REMMET137RJCT 0600Z 32003KT 2400 -RA BR BKN004 OVC015 03/02 Q1006 RMK 6ST004 8NS015 A2972 FCST 0615 BECMG 0910 NSW BKN030CU TEMPO 1114 32010G20KT;EQDQ01+000003PRSWM1Q02    003PRSWM1
0243474905999992000041407004+42900+143170FM-15+0084RJCT V0203001N003610021019N0025001N1+00201+00201999999ADDGA1021+001209999GA2071+002109999GA3081+006009999GF108991999999999999999999MA1100611999999MW1101MW2611REMMET095RJCT 0700Z 30007KT 2500 -RA BR FEW004 BKN007 OVC020 02/02 Q1006 RMK 2ST004 6ST007 8NS020 A2972;EQDQ01+000003PRSWM1Q02    003PRSWM1
0301474905999992000041408004+42900+143170FM-15+0084RJCT V0203001N003110021019N0025001N1+00201+00101999999ADDGA1021+001209999GA2071+002109999GA3081+006009999GF108991999999999999999999MA1100711999999MW1101MW2801REMMET153RJCT 0800Z 30006KT 2500 -SHRA BR FEW004 BKN007 OVC020 02/01 Q1007 RMK 1ST004 5ST007 8NS020 A2974 FCST 0817 BECMG 0910 NSW BKN030CU TEMPO 1114 32010G20KT;EQDQ01+000003PRSWM1Q02    003PRSWM1
0203474905999992000041410004+42900+143170FM-15+0084RJCT V0203101N001510090019N0050001N1+00201+00201999999ADDGA1021+002409999GA2071+009009999GF107991999999999999999999MA1100711999999MW1101REMMET077RJCT 1000Z 31003KT 5000 BR SCT008 BKN030 02/02 Q1007 RMK 4ST008 6SC030 A2975;EQDQ01+000003PRSWM1Q02    003PRSWM1
0214474905999992000041421004+42900+143170FM-15+0084RJCT V0201001N000510027019N0080001N1+00101+00001999999ADDGA1021+001509999GA2071+002709999GA3071+007509999GF107991999999999999999999MA1100811999999MW1001REMMET088RJCT 2100Z 10001KT 8000 FEW005 BKN009 BKN025 01/00 Q1008 RMK 1ST005 5ST009 6SC025 A2977;EQDQ01+000000PRSWM2
0183474905999992000041422004+42900+143170FM-15+0084RJCT V0202501N001012200019N0112651N1+00201+00101999999ADDGA1021+003009999GA2021+009009999GF104991999999999999999999MA1100811999999MW1001REMMET073RJCT 2200Z 25002KT 9999 FEW010 SCT030 02/01 Q1008 RMK 2ST010 3SC30 A2977;EQDQ01+000000PRSWM2
0223474905999992000041423004+42900+143170FM-15+0084RJCT V0203101N001512200019N0112651N1+00501+00301999999ADDGA1021+002109999GA2021+006009999GF104991999999999999999999MA1100811999999MW1001REMMET113RJCT 2300Z 31003KT 9999 FEW007 SCT020 05/03 Q1008 RMK 2ST007 3CU020 A2978 FCST 2308 BECMG 0406 BKN010ST BKN020CU;EQDQ01+000000PRSWM2
0253474905999992000041500004+42900+143170FM-15+0084RJCT V0201801N001010630019N0112651N1+00701+00401999999ADDGA1021+003009999GA2021+006009999GA3071+063009999GF107991999999999999999999MA1100811999999MW1001REMMET127RJCT 0000Z 18002KT 9999 FEW010 SCT020 BKN210 07/04 Q1008 RMK 2ST010 4CU020 6CI210 A2977 FCST 0009 BECMG 0406 BKN010ST BKN020CU;EQDQ01+000000PRSWM2
0214474905999992000041501004+42900+143170FM-15+0084RJCT V0202401N001010075019N0112651N1+00701+00301999999ADDGA1021+004509999GA2071+007509999GA3071+012009999GF107991999999999999999999MA1100811999999MW1001REMMET088RJCT 0100Z 24002KT 9999 FEW015 BKN025 BKN040 07/03 Q1008 RMK 2ST015 5CU025 7SC040 A2978;EQDQ01+000000PRSWM2
0184474905999992000041502004+42900+143170FM-15+0084RJCT V0200901N001510090019N0112651N1+00801+00301999999ADDGA1021+006009999GA2071+009009999GF107991999999999999999999MA1100611999999MW1001REMMET074RJCT 0200Z 09003KT 9999 FEW020 BKN030 08/03 Q1006 RMK 1CU020 5CU030 A2973;EQDQ01+000000PRSWM2
0223474905999992000041503004+42900+143170FM-15+0084RJCT V0200901N001010090019N0112651N1+00901+00301999999ADDGA1021+006009999GA2071+009009999GF107991999999999999999999MA1100711999999MW1001REMMET113RJCT 0300Z 09002KT 9999 FEW020 BKN030 09/03 Q1007 RMK 2CU020 5CU030 A2974 FCST 0312 BECMG 0809 BKN009ST BKN020CU;EQDQ01+000000PRSWM2
0214474905999992000041504004+42900+143170FM-15+0084RJCT V0203101N001010105019N0112651N1+00901+00201999999ADDGA1021+006009999GA2071+010509999GA3071+013509999GF107991999999999999999999MA1100611999999MW1001REMMET088RJCT 0400Z 31002KT 9999 FEW020 BKN035 BKN045 09/02 Q1006 RMK 1CU020 5CU035 6SC045 A2973;EQDQ01+000000PRSWM2
0214474905999992000041505004+42900+143170FM-15+0084RJCT V0202901N001010105019N0112651N1+00901+00301999999ADDGA1021+006009999GA2071+010509999GA3071+013509999GF107991999999999999999999MA1100711999999MW1001REMMET088RJCT 0500Z 29002KT 9999 FEW020 BKN035 BKN045 09/03 Q1007 RMK 2CU020 5CU035 7SC045 A2973;EQDQ01+000000PRSWM2
0259474905999992000041506004+42900+143170FM-15+0084RJCT V0202201N001010105019N0112651N1+00901+00301999999ADDGA1021+007509999GA2071+010509999GA3071+013509999GF107991999999999999999999MA1100611999999MW1001REMMET133RJCT 0600Z 22002KT 9999 FEW025 BKN035 BKN045 09/03 Q1006 RMK 1CU025 5SC035 7SC045 A2972 FCST 0615 TEMPO 0812 -SHRA BKN008ST BKN020CU;EQDQ01+000000PRSWM2
0214474905999992000041507004+42900+143170FM-15+0084RJCT V0202201N001510105019N0112651N1+00901+00301999999ADDGA1021+006009999GA2071+010509999GA3081+013509999GF108991999999999999999999MA1100611999999MW1001REMMET088RJCT 0700Z 22003KT 9999 FEW020 BKN035 OVC045 09/03 Q1006 RMK 1CU020 6SC035 8SC045 A2972;EQDQ01+000000PRSWM2
0270474905999992000041508004+42900+143170FM-15+0084RJCT V0201201N002610024019N0112651N1+00701+00401999999ADDGA1021+001809999GA2071+002409999GA3081+006009999GF108991999999999999999999MA1100611999999MW1801REMMET128RJCT 0800Z 12005KT 9999 -SHRA FEW006 BKN008 OVC020 07/04 Q1006 RMK 1ST006 5ST008 8SC020 A2972 FCST 0817 BECMG 1112 NSW BKN030CU;EQDQ01+000003PRSWM1Q02    003PRSWM1
0214474905999992000041509004+42900+143170FM-15+0084RJCT V0200501N002610060019N0112651N1+00601+00201999999ADDGA1021+003609999GA2071+006009999GA3081+009009999GF108991999999999999999999MA1100611999999MW1001REMMET088RJCT 0900Z 05005KT 9999 FEW012 BKN020 OVC030 06/02 Q1006 RMK 1ST012 6SC020 8CU030 A2973;EQDQ01+000000PRSWM2
0214474905999992000041510004+42900+143170FM-15+0084RJCT V0200501N003110075019N0112651N1+00601+00101999999ADDGA1021+004509999GA2071+007509999GA3071+010509999GF107991999999999999999999MA1100711999999MW1001REMMET088RJCT 1000Z 05006KT 9999 FEW015 BKN025 BKN035 06/01 Q1007 RMK 1ST015 6SC025 7CU035 A2974;EQDQ01+000000PRSWM2
0206474905999992000041521004+42900+143170FM-15+0084RJCT V0200301N001010012019N0015001N1+00101+00001999999ADDGA1021+000609999GA2081+001209999GF108991999999999999999999MA1100411999999MW1851REMMET080RJCT 2100Z 03002KT 1500 -SHSN SCT002 OVC004 01/00 Q1004 RMK 3ST002 8ST004 A2966;EQDQ01+000003PRSWM1Q02    003PRSWM1
0206474905999992000041522004+42900+143170FM-15+0084RJCT V0200301N001010018019N0030001N1+00201+00101999999ADDGA1021+001209999GA2081+001809999GF108991999999999999999999MA1100511999999MW1851REMMET080RJCT 2200Z 03002KT 3000 -SHSN FEW004 OVC006 02/01 Q1005 RMK 2ST004 8ST006 A2969;EQDQ01+000003PRSWM1Q02    003PRSWM1
0255474905999992000041523004+42900+143170FM-15+0084RJCT V0200501N001010021019N0060001N1+00201+00101999999ADDGA1021+001509999GA2081+002109999GF108991999999999999999999MA1100311999999MW1611MW2711REMMET123RJCT 2300Z 05002KT 6000 -SNRA FEW005 OVC007 02/01 Q1003 RMK 2ST005 8ST007 A2964 FCST 2308 BECMG 0001 NSW SCT007ST BKN020CU;EQDQ01+000003PRSWM1Q02    003PRSWM1
0223474905999992000041600004+42900+143170FM-15+0084RJCT V0201001N001010024019N0112651N1+00301+00101999999ADDGA1021+001809999GA2081+002409999GF108991999999999999999999MA1100311999999MW1001REMMET113RJCT 0000Z 10002KT 9999 FEW006 OVC008 03/01 Q1003 RMK 2ST006 8ST008 A2964 FCST 0009 BECMG 0102 SCT010ST BKN020CU;EQDQ01+000000PRSWM2
0214474905999992000041601004+42900+143170FM-15+0084RJCT V0200801N001010090019N0112651N1+00401+00101999999ADDGA1021+002409999GA2021+003309999GA3081+009009999GF108991999999999999999999MA1100311999999MW1001REMMET088RJCT 0100Z 08002KT 9999 FEW008 SCT011 OVC030 04/01 Q1003 RMK 1ST008 4SC011 8CU030 A2963;EQDQ01+000000PRSWM2
0214474905999992000041602004+42900+143170FM-15+0084RJCT V02099999999990090019N0112651N1+00501+00101999999ADDGA1021+003009999GA2021+004209999GA3081+009009999GF108991999999999999999999MA1100201999999MW1001REMMET088RJCT 0200Z VRB01KT 9999 FEW010 SCT014 OVC030 05/01 Q1002 RMK 1ST010 3SC014 8CU030 A2961;EQDQ01+000000PRSWM2
0230474905999992000041603004+42900+143170FM-15+0084RJCT V0201401N000510090019N0112651N1+00601+00101999999ADDGA1021+003609999GA2021+004509999GA3071+009009999GF107991999999999999999999MA1100201999999MW1001REMMET104RJCT 0300Z 14001KT 9999 FEW012 SCT015 BKN030 06/01 Q1002 RMK 1ST012 3ST015 7CU030 A2958 FCST 0312 NOSIG;EQDQ01+000000PRSWM2
0236474905999992000041604004+42900+143170FM-15+0084RJCT V0201401N001510090019N0112651N1+00701+00201999999ADDGA1021+003609999GA2021+004509999GA3071+009009999GF107991999999999999999999MA1100101999999MW1801REMMET094RJCT 0400Z 14003KT 9999 -SHRA FEW012 SCT015 BKN030 07/02 Q1001 RMK 2ST012 3ST015 7CU030 A2958;EQDQ01+000003PRSWM1Q02    003PRSWM1
0236474905999992000041605004+42900+143170FM-15+0084RJCT V0201901N001010090019N0112651N1+00701+00201999999ADDGA1021+002109999GA2021+004509999GA3071+009009999GF107991999999999999999999MA1100001999999MW1801REMMET094RJCT 0500Z 19002KT 9999 -SHRA FEW007 SCT015 BKN030 07/02 Q1000 RMK 1ST007 3ST015 7CU030 A2955;EQDQ01+000003PRSWM1Q02    003PRSWM1
0296474905999992000041606004+42900+143170FM-15+0084RJCT V0202101N002110075019N0112651N1+00701+00301999999ADDGA1021+001509999GA2021+003009999GA3071+007509999GF107991999999999999999999MA1100001999999MW1801REMMET154RJCT 0600Z 21004KT 9999 -SHRA FEW005 SCT010 BKN025 07/03 Q1000 RMK 1ST005 3ST010 7SC025 A2955 FCST 0615 BECMG 0607 NSW TEMPO 0713 -SHRA BKN008ST OVC015CU;EQDQ01+000003PRSWM1Q02    003PRSWM1
0236474905999992000041607004+42900+143170FM-15+0084RJCT V0201301N002110075019N0112651N1+00601+00201999999ADDGA1021+001509999GA2021+002409999GA3071+007509999GF107991999999999999999999MA1100101999999MW1801REMMET094RJCT 0700Z 13004KT 9999 -SHRA FEW005 SCT008 BKN025 06/02 Q1001 RMK 1ST005 4ST008 7SC025 A2956;EQDQ01+000003PRSWM1Q02    003PRSWM1
0250474905999992000041608004+42900+143170FM-15+0084RJCT V0200501N002610135019N0112651N1+00401+00201999999ADDGA1021+003009999GA2021+009009999GA3071+013509999GF107991999999999999999999MA1100101999999MW1001REMMET124RJCT 0800Z 05005KT 9999 FEW010 SCT030 BKN045 04/02 Q1001 RMK 1ST010 3CU030 6CU045 A2957 FCST 0817 TEMPO 0812 -SHRA BKN030CU;EQDQ01+000000PRSWM2
0214474905999992000041609004+42900+143170FM-15+0084RJCT V0200701N002110090019N0112651N1+00401+00101999999ADDGA1021+003009999GA2071+009009999GA3071+012009999GF107991999999999999999999MA1100101999999MW1001REMMET088RJCT 0900Z 07004KT 9999 FEW010 BKN030 BKN040 04/01 Q1001 RMK 1ST010 5CU030 6CU040 A2958;EQDQ01+000000PRSWM2
0236474905999992000041610004+42900+143170FM-15+0084RJCT V0200401N003610090019N0050001N1+00301+00001999999ADDGA1021+001509999GA2021+004509999GA3071+009009999GF107991999999999999999999MA1100201999999MW1801REMMET094RJCT 1000Z 04007KT 5000 -SHRA FEW005 SCT015 BKN030 03/00 Q1002 RMK 1ST005 4ST015 7SC030 A2960;EQDQ01+000003PRSWM1Q02    003PRSWM1
0185474905999992000041621004+42900+143170FM-15+0084RJCT V0202901N005110300019N0112651N1+00201-00401999999ADDGA1021+003009999GA2071+030009999GF107991999999999999999999MA1100511999999MW1001REMMET075RJCT 2100Z 29010KT 9999 FEW010 BKN100 02/M04 Q1005 RMK 1ST010 6AC100 A2968;EQDQ01+000000PRSWM2
0185474905999992000041622004+42900+143170FM-15+0084RJCT V0203001N006210300019N0112651N1+00401-00401999999ADDGA1021+003009999GA2071+030009999GF107991999999999999999999MA1100511999999MW1001REMMET075RJCT 2200Z 30012KT 9999 FEW010 BKN100 04/M04 Q1005 RMK 1ST010 6AC100 A2969;EQDQ01+000000PRSWM2
0255474905999992000041623004+42900+143170FM-15+0084RJCT V0203101N005110660019N0112651N1+00501-00301999999ADDGA1021+003009999GA2021+030009999GA3071+066009999GF107991999999999999999999MA1100511999999MW1001OC101081REMMET121RJCT 2300Z 31010G21KT 9999 FEW010 SCT100 BKN220 05/M03 Q1005 RMK 1ST010 4AC100 6CI220 A2969 FCST 2308 BECMG 0405 30008KT;EQDQ01+000000PRSWM2
0255474905999992000041700004+42900+143170FM-15+0084RJCT V0203001N008210630019N0112651N1+00601-00301999999ADDGA1021+006009999GA2021+030009999GA3071+063009999GF107991999999999999999999MA1100611999999MW1001OC101341REMMET121RJCT 0000Z 30016G26KT 9999 FEW020 SCT100 BKN210 06/M03 Q1006 RMK 1CU020 3AC100 6CI210 A2971 FCST 0009 BECMG 0405 30008KT;EQDQ01+000000PRSWM2
0226474905999992000041701004+42900+143170FM-15+0084RJCT V0203001N007710630019N0112651N1+00701-00301999999ADDGA1021+006009999GA2021+015009999GA3071+063009999GF107991999999999999999999MA1100611999999MW1001OC101291REMMET092RJCT 0100Z 30015G25KT 9999 FEW020 SCT050 BKN210 07/M03 Q1006 RMK 1CU020 3SC050 6CI210 A2971;EQDQ01+000000PRSWM2
0226474905999992000041702004+42900+143170FM-15+0084RJCT V0203001N008210630019N0112651N1+00801-00301999999ADDGA1021+006009999GA2021+015009999GA3071+063009999GF107991999999999999999999MA1100611999999MW1001OC101341REMMET092RJCT 0200Z 30016G26KT 9999 FEW020 SCT050 BKN210 08/M03 Q1006 RMK 1CU020 3SC050 6CI210 A2971;EQDQ01+000000PRSWM2
0225474905999992000041703004+42900+143170FM-15+0084RJCT V0203101N007710630019N0112651N1+00801-00301999999ADDGA1021+010509999GA2071+063009999GF107991999999999999999999MA1100611999999MW1001OC101651REMMET107RJCT 0300Z 31015G32KT 9999 FEW035 BKN210 08/M03 Q1006 RMK 2CU035 7CI210 A2970 FCST 0312 BECMG 0607 30008KT;EQDQ01+000000PRSWM2
0226474905999992000041704004+42900+143170FM-15+0084RJCT V0203101N007210630019N0112651N1+00801-00301999999ADDGA1021+010509999GA2021+018009999GA3071+063009999GF107991999999999999999999MA1100611999999MW1001OC101291REMMET092RJCT 0400Z 31014G25KT 9999 FEW035 SCT060 BKN210 08/M03 Q1006 RMK 2CU035 3SC060 7CI210 A2971;EQDQ01+000000PRSWM2
0215474905999992000041705004+42900+143170FM-15+0084RJCT V0203201N006210630019N0112651N1+00801-00301999999ADDGA1021+010509999GA2021+030009999GA3071+063009999GF107991999999999999999999MA1100611999999MW1001REMMET089RJCT 0500Z 32012KT 9999 FEW035 SCT100 BKN210 08/M03 Q1006 RMK 2CU035 3AC100 7CI210 A2971;EQDQ01+000000PRSWM2
0231474905999992000041706004+42900+143170FM-15+0084RJCT V0203201N005710630019N0112651N1+00801-00201999999ADDGA1021+009009999GA2021+013509999GA3071+063009999GF107991999999999999999999MA1100611999999MW1001REMMET105RJCT 0600Z 32011KT 9999 FEW030 SCT045 BKN210 08/M02 Q1006 RMK 1CU030 4SC045 7CI210 A2972 FCST 0615 NOSIG;EQDQ01+000000PRSWM2
0215474905999992000041707004+42900+143170FM-15+0084RJCT V0203201N004610630019N0112651N1+00801-00201999999ADDGA1021+009009999GA2021+013509999GA3071+063009999GF107991999999999999999999MA1100711999999MW1001REMMET089RJCT 0700Z 32009KT 9999 FEW030 SCT045 BKN210 08/M02 Q1007 RMK 1CU030 3SC045 7CI210 A2974;EQDQ01+000000PRSWM2
0231474905999992000041708004+42900+143170FM-15+0084RJCT V0203301N004610630019N0112651N1+00701-00101999999ADDGA1021+009009999GA2021+030009999GA3071+063009999GF107991999999999999999999MA1100711999999MW1001REMMET105RJCT 0800Z 33009KT 9999 FEW030 SCT100 BKN210 07/M01 Q1007 RMK 1CU030 3AC100 7CI210 A2975 FCST 0817 NOSIG;EQDQ01+000000PRSWM2
0215474905999992000041709004+42900+143170FM-15+0084RJCT V0203201N002610630019N0112651N1+00601-00101999999ADDGA1021+009009999GA2021+039009999GA3071+063009999GF107991999999999999999999MA1100811999999MW1001REMMET089RJCT 0900Z 32005KT 9999 FEW030 SCT130 BKN210 06/M01 Q1008 RMK 1CU030 3AC130 5CI210 A2977;EQDQ01+000000PRSWM2
0215474905999992000041710004+42900+143170FM-15+0084RJCT V0203501N001510630019N0112651N1+00501-00101999999ADDGA1021+009009999GA2021+039009999GA3071+063009999GF107991999999999999999999MA1100911999999MW1001REMMET089RJCT 1000Z 35003KT 9999 FEW030 SCT130 BKN210 05/M01 Q1009 RMK 1CU030 3AC130 5CI210 A2980;EQDQ01+000000PRSWM2
0185474905999992000041721004+42900+143170FM-15+0084RJCT V0203201N002612200019N0112651N1+00301-00301999999ADDGA1021+003009999GA2021+063009999GF104991999999999999999999MA1101191999999MW1001REMMET075RJCT 2100Z 32005KT 9999 FEW010 SCT210 03/M03 Q1012 RMK 1ST010 3CI210 A2990;EQDQ01+000000PRSWM2
0185474905999992000041722004+42900+143170FM-15+0084RJCT V0203301N003112200019N0112651N1+00501-00301999999ADDGA1021+003609999GA2021+063009999GF104991999999999999999999MA1101291999999MW1001REMMET075RJCT 2200Z 33006KT 9999 FEW012 SCT210 05/M03 Q1013 RMK 1ST012 3CI210 A2992;EQDQ01+000000PRSWM2
0201474905999992000041723004+42900+143170FM-15+0084RJCT V0203101N004612200019N0112651N1+00701-00301999999ADDGA1021+003609999GA2021+063009999GF104991999999999999999999MA1101291999999MW1001REMMET091RJCT 2300Z 31009KT 9999 FEW012 SCT210 07/M03 Q1013 RMK 1ST012 3CI210 A2992 FCST 2308 NOSIG;EQDQ01+000000PRSWM2
0201474905999992000041800004+42900+143170FM-15+0084RJCT V0203101N003612200019N0112651N1+00801-00301999999ADDGA1021+004509999GA2021+063009999GF104991999999999999999999MA1101291999999MW1001REMMET091RJCT 0000Z 31007KT 9999 FEW015 SCT210 08/M03 Q1013 RMK 1ST015 3CI210 A2992 FCST 0009 NOSIG;EQDQ01+000000PRSWM2
0185474905999992000041801004+42900+143170FM-15+0084RJCT V0203101N004612200019N0112651N1+01001-00301999999ADDGA1021+006009999GA2021+063009999GF104991999999999999999999MA1101291999999MW1001REMMET075RJCT 0100Z 31009KT 9999 FEW020 SCT210 10/M03 Q1013 RMK 1SC020 3CI210 A2992;EQDQ01+000000PRSWM2
0185474905999992000041802004+42900+143170FM-15+0084RJCT V0203101N003112200019N0112651N1+01101-00201999999ADDGA1021+007509999GA2021+066009999GF104991999999999999999999MA1101291999999MW1001REMMET075RJCT 0200Z 31006KT 9999 FEW025 SCT220 11/M02 Q1013 RMK 1CU025 3CI220 A2991;EQDQ01+000000PRSWM2
0201474905999992000041803004+42900+143170FM-15+0084RJCT V0203001N003112200019N0112651N1+01101-00201999999ADDGA1021+007509999GA2021+012009999GF104991999999999999999999MA1101191999999MW1001REMMET091RJCT 0300Z 30006KT 9999 FEW025 SCT040 11/M02 Q1012 RMK 1CU025 3CU040 A2990 FCST 0312 NOSIG;EQDQ01+000000PRSWM2
0185474905999992000041804004+42900+143170FM-15+0084RJCT V0202301N003612200019N0112651N1+01301+00001999999ADDGA1021+007509999GA2021+010509999GF104991999999999999999999MA1101191999999MW1001REMMET075RJCT 0400Z 23007KT 9999 FEW025 SCT035 13/M00 Q1012 RMK 1CU025 4CU035 A2989;EQDQ01+000000PRSWM2
0155474905999992000041805004+42900+143170FM-15+0084RJCT V0202201N005112200019N0112651N1+01301-00101999999ADDGA1021+010509999GF104991999999999999999999MA1101081999999MW1001REMMET061RJCT 0500Z 22010KT 9999 SCT035 13/M01 Q1011 RMK 3CU035 A2988;EQDQ01+000000PRSWM2
0211474905999992000041805174+42900+143170FM-16+0084RJCT V0202201N003110105019N0112651N1+01201-00301999999ADDGA1021+009009029GA2071+010509999GF107991999999999999999999MA1101081999999MW1001REMMET101RJCT 180517Z 22006KT 9999 FEW030TCU BKN035 12/M03 Q1011 RMK 1TCU030 5CU035 A2988 TCU 10KM SE MOV UNK;EQDQ01+000000PRSWM2
0171474905999992000041806004+42900+143170FM-15+0084RJCT V0202401N004112200019N0112651N1+01201-00301999999ADDGA1021+009009999GF102991999999999999999999MA1101081999999MW1001REMMET077RJCT 0600Z 24008KT 9999 FEW030 12/M03 Q1011 RMK 1CU030 A2986 FCST 0615 NOSIG;EQDQ01+000000PRSWM2
0185474905999992000041807004+42900+143170FM-15+0084RJCT V0202201N003112200019N0112651N1+01001-00201999999ADDGA1021+006009999GA2021+010509999GF104991999999999999999999MA1101081999999MW1001REMMET075RJCT 0700Z 22006KT 9999 FEW020 SCT035 10/M02 Q1011 RMK 1CU020 4CU035 A2986;EQDQ01+000000PRSWM2
0217474905999992000041807104+42900+143170FM-16+0084RJCT V0202201N002110210019N0112651N1+01101-00201999999ADDGA1021+006009999GA2021+010509999GA3071+021009999GF107991999999999999999999MA1101081999999MW1001REMMET091RJCT 180710Z 22004KT 9999 FEW020 SCT035 BKN070 11/M02 Q1011 RMK 1CU020 4CU035 6AC070 A2986;EQDQ01+000000PRSWM2
0212474905999992000041808004+42900+143170FM-15+0084RJCT V0200501N002110120019N0112651N1+01001-00101999999ADDGA1021+004509999GA2071+012009999GF107991999999999999999999MA1101081999999MW1001REMMET102RJCT 0800Z 05004KT 9999 FEW015 BKN040 10/M01 Q1011 RMK 1CU015 5CU040 A2987 FCST 0817 TEMPO 0810 -SHRA;EQDQ01+000000PRSWM2
0185474905999992000041810004+42900+143170FM-15+0084RJCT V0200601N002612200019N0112651N1+00601-00101999999ADDGA1021+003009999GA2021+009009999GF104991999999999999999999MA1101191999999MW1001REMMET075RJCT 1000Z 06005KT 9999 FEW010 SCT030 06/M01 Q1012 RMK 1ST010 3CU030 A2989;EQDQ01+000000PRSWM2
0208474905999992000041821004+42900+143170FM-15+0084RJCT V0202801N002110090019N0112651N1+00101+00101999999ADDGA1021+003009999GA2071+009009999GF107991999999999999999999MA1101191999999MW1801REMMET082RJCT 182100Z 28004KT 9999 -SHRA FEW010 BKN030 01/01 Q1012 RMK 2ST010 5CU030 A2990;EQDQ01+000003PRSWM1Q02    003PRSWM1
0186474905999992000041822004+42900+143170FM-15+0084RJCT V0202801N002112200019N0112651N1+00201+00101999999ADDGA1021+003009999GA2021+009009999GF104991999999999999999999MA1101191999999MW1001REMMET076RJCT 182200Z 28004KT 9999 FEW010 SCT030 02/01 Q1012 RMK 1ST010 4CU030 A2991;EQDQ01+000000PRSWM2
0202474905999992000041823004+42900+143170FM-15+0084RJCT V0202101N001012200019N0112651N1+00501+00301999999ADDGA1021+004509999GA2021+009009999GF104991999999999999999999MA1101291999999MW1001REMMET092RJCT 182300Z 21002KT 9999 FEW015 SCT030 05/03 Q1013 RMK 1ST015 3CU030 A2994 FCST 2308 NOSIG;EQDQ01+000000PRSWM2
0202474905999992000041900004+42900+143170FM-15+0084RJCT V0200901N002110060019N0112651N1+00701+00401999999ADDGA1021+002409999GA2071+006009999GF107991999999999999999999MA1101391999999MW1001REMMET092RJCT 190000Z 09004KT 9999 FEW008 BKN020 07/04 Q1014 RMK 1ST008 6CU020 A2995 FCST 0009 NOSIG;EQDQ01+000000PRSWM2
0186474905999992000041902004+42900+143170FM-15+0084RJCT V0201501N001510081019N0112651N1+00801+00201999999ADDGA1021+004509999GA2071+008109999GF107991999999999999999999MA1101491999999MW1001REMMET076RJCT 190200Z 15003KT 9999 FEW015 BKN027 08/02 Q1015 RMK 1CU015 6CU027 A2997;EQDQ01+000000PRSWM2
0208474905999992000041902094+42900+143170FM-16+0084RJCT V0201601N002110081019N0112651N1+00801+00301999999ADDGA1021+004509999GA2071+008109999GF107991999999999999999999MA1101491999999MW1801REMMET082RJCT 190209Z 16004KT 9999 -SHRA FEW015 BKN027 08/03 Q1015 RMK 1CU015 6CU027 A2997;EQDQ01+000003PRSWM1Q02    003PRSWM1
0202474905999992000041903004+42900+143170FM-15+0084RJCT V0200701N003110081019N0112651N1+00901+00201999999ADDGA1021+006009999GA2071+008109999GF107991999999999999999999MA1101491999999MW1001REMMET092RJCT 190300Z 07006KT 9999 FEW020 BKN027 09/02 Q1015 RMK 1CU020 6CU027 A2997 FCST 0312 NOSIG;EQDQ01+000000PRSWM2
0186474905999992000041904004+42900+143170FM-15+0084RJCT V0200701N003610090019N0112651N1+01001+00301999999ADDGA1021+007509999GA2071+009009999GF107991999999999999999999MA1101491999999MW1001REMMET076RJCT 190400Z 07007KT 9999 FEW025 BKN030 10/03 Q1015 RMK 1CU025 5CU030 A2998;EQDQ01+000000PRSWM2
0186474905999992000041905004+42900+143170FM-15+0084RJCT V0200501N003110090019N0112651N1+01001+00101999999ADDGA1021+007509999GA2071+009009999GF107991999999999999999999MA1101491999999MW1001REMMET076RJCT 190500Z 05006KT 9999 FEW025 BKN030 10/01 Q1015 RMK 1CU025 5CU030 A2999;EQDQ01+000000PRSWM2
0202474905999992000041906004+42900+143170FM-15+0084RJCT V0200801N004112200019N0112651N1+01001+00101999999ADDGA1021+007509999GA2021+009009999GF104991999999999999999999MA1101591999999MW1001REMMET092RJCT 190600Z 08008KT 9999 FEW025 SCT030 10/01 Q1016 RMK 1CU025 4CU030 A3000 FCST 0615 NOSIG;EQDQ01+000000PRSWM2
0156474905999992000041907004+42900+143170FM-15+0084RJCT V0200901N003112200019N0112651N1+01001+00101999999ADDGA1021+009009999GF102991999999999999999999MA1101591999999MW1001REMMET062RJCT 190700Z 09006KT 9999 FEW030 10/01 Q1016 RMK 1CU030 A3001;EQDQ01+000000PRSWM2
0202474905999992000041908004+42900+143170FM-15+0084RJCT V0201601N005112200019N0112651N1+00801+00301999999ADDGA1021+004509999GA2021+009009999GF104991999999999999999999MA1101691999999MW1001REMMET092RJCT 190800Z 16010KT 9999 FEW015 SCT030 08/03 Q1017 RMK 1CU015 3CU030 A3004 FCST 0817 NOSIG;EQDQ01+000000PRSWM2
0186474905999992000041909004+42900+143170FM-15+0084RJCT V0201501N004612200019N0112651N1+00601+00101999999ADDGA1021+004509999GA2021+009009999GF104991999999999999999999MA1101801999999MW1001REMMET076RJCT 190900Z 15009KT 9999 FEW015 SCT030 06/01 Q1018 RMK 1ST015 3CU030 A3006;EQDQ01+000000PRSWM2
0186474905999992000041910004+42900+143170FM-15+0084RJCT V0201501N003612200019N0112651N1+00501+00001999999ADDGA1021+004509999GA2021+008109999GF104991999999999999999999MA1101901999999MW1001REMMET076RJCT 191000Z 15007KT 9999 FEW015 SCT027 05/00 Q1019 RMK 1ST015 3CU027 A3009;EQDQ01+000000PRSWM2
0187474905999992000041911004+42900+143170FM-15+0084RJCT V0201301N002610105019N0112651N1+00401+00001999999ADDGA1021+004509999GA2071+010509999GF107991999999999999999999MA1102001999999MW1001REMMET077RJCT 191100Z 13005KT 9999 FEW015 BKN035 04/M00 Q1020 RMK 1ST015 6SC035 A3013;EQDQ01+000000PRSWM2
0217474905999992000041921004+42900+143170FM-15+0084RJCT V0201001N002110075019N0112651N1+00201-00101999999ADDGA1021+003009999GA2071+007509999GA3081+009009999GF108991999999999999999999MA1102201999999MW1001REMMET091RJCT 192100Z 10004KT 9999 FEW010 BKN025 OVC030 02/M01 Q1022 RMK 1ST010 5SC025 8SC030 A3020;EQDQ01+000000PRSWM2
0217474905999992000041922004+42900+143170FM-15+0084RJCT V0200901N001510090019N0112651N1+00201-00101999999ADDGA1021+003009999GA2021+007509999GA3071+009009999GF107991999999999999999999MA1102301999999MW1001REMMET091RJCT 192200Z 09003KT 9999 SCT010 SCT025 BKN030 02/M01 Q1023 RMK 3ST010 3SC025 7SC030 A3022;EQDQ01+000000PRSWM2
0233474905999992000041923004+42900+143170FM-15+0084RJCT V0201101N001010036019N0112651N1+00301+00001999999ADDGA1071+003609999GA2021+007509999GA3071+009009999GF107991999999999999999999MA1102301999999MW1001REMMET107RJCT 192300Z 11002KT 9999 BKN012 SCT025 BKN030 03/M00 Q1023 RMK 5ST012 3SC025 7SC030 A3022 FCST 2308 NOSIG;EQDQ01+000000PRSWM2
0225474905999992000042000004+42900+143170FM-15+0084RJCT V0201401N001010045019N0112651N1+00401+00001999999ADDGA1071+004509999GA2071+009009999GF107991999999999999999999MA1102301999999MW1001REMMET115RJCT 200000Z 14002KT 9999 BKN015 BKN030 04/00 Q1023 RMK 5ST015 7SC030 A3022 FCST 0009 BECMG 0001 FEW015ST BKN035SC;EQDQ01+000000PRSWM2
0187474905999992000042001004+42900+143170FM-15+0084RJCT V02099999999990060019N0112651N1+00601-00101999999ADDGA1071+006009999GA2071+010509999GF107991999999999999999999MA1102301999999MW1001REMMET077RJCT 200100Z VRB03KT 9999 BKN020 BKN035 06/M01 Q1023 RMK 6SC020 7SC035 A3022;EQDQ01+000000PRSWM2
0171474905999992000042002004+42900+143170FM-15+0084RJCT V0201401N003110084019N0112651N1+99999+99999999999ADDGA1021+006009999GA2071+008409999GF107991999999999999999999MW1001REMMET076RJCT 200200Z 14006KT 9999 FEW020 BKN028 07M01 Q1023 RMK 1SC020 6SC028 A3022;EQDQ01+000000PRSWM2
0246474905999992000042003004+42900+143170FM-15+0084RJCT V0201401N004110084019N0112651N1+00701-00101999999ADDGA1021+006009999GA2071+008409999GF107991999999999999999999MA1102301999999MW1001REMMET136RJCT 200300Z 14008KT 9999 FEW020 BKN028 07/M01 Q1023 RMK 1SC020 7SC028 A3021 FCST 0312 TEMPO 0407 SCT030CU TEMPO 1012 BKN009ST BKN020SC;EQDQ01+000000PRSWM2
0187474905999992000042004004+42900+143170FM-15+0084RJCT V0201901N005710090019N0112651N1+00701-00101999999ADDGA1021+006009999GA2071+009009999GF107991999999999999999999MA1102301999999MW1001REMMET077RJCT 200400Z 19011KT 9999 FEW020 BKN030 07/M01 Q1023 RMK 1SC020 7SC030 A3021;EQDQ01+000000PRSWM2
0186474905999992000042005004+42900+143170FM-15+0084RJCT V0201901N004610099019N0112651N1+00701+00001999999ADDGA1021+006009999GA2071+009909999GF107991999999999999999999MA1102201999999MW1001REMMET076RJCT 200500Z 19009KT 9999 FEW020 BKN033 07/00 Q1022 RMK 1SC020 6CU033 A3020;EQDQ01+000000PRSWM2
0226474905999992000042006004+42900+143170FM-15+0084RJCT V0201801N003110105019N0112651N1+00701+00001999999ADDGA1021+007509999GA2071+010509999GF107991999999999999999999MA1102201999999MW1001REMMET116RJCT 200600Z 18006KT 9999 FEW025 BKN035 07/M00 Q1022 RMK 1SC025 5CU035 A3019 FCST 0615 TEMPO 1215 BKN010ST BKN020SC;EQDQ01+000000PRSWM2
0187474905999992000042007004+42900+143170FM-15+0084RJCT V0201401N005710096019N0112651N1+00701+00001999999ADDGA1021+006009999GA2071+009609999GF107991999999999999999999MA1102201999999MW1001REMMET077RJCT 200700Z 14011KT 9999 FEW020 BKN032 07/M00 Q1022 RMK 1SC020 7CU032 A3019;EQDQ01+000000PRSWM2
0196474905999992000042008004+42900+143170FM-15+0084RJCT V0201501N005110090019N0112651N1+00601+00001999999ADDGA1071+009009999GF107991999999999999999999MA1102201999999MW1001REMMET102RJCT 200800Z 15010KT 9999 BKN030 06/M00 Q1022 RMK 7SC030 A3020 FCST 0817 TEMPO 1217 BKN009ST BKN020SC;EQDQ01+000000PRSWM2
0156474905999992000042009004+42900+143170FM-15+0084RJCT V0201501N004610090019N0112651N1+00501+00001999999ADDGA1071+009009999GF107991999999999999999999MA1102201999999MW1001REMMET062RJCT 200900Z 15009KT 9999 BKN030 05/00 Q1022 RMK 7SC030 A3019;EQDQ01+000000PRSWM2
0186474905999992000042010004+42900+143170FM-15+0084RJCT V0201301N002610084019N0112651N1+00401+00001999999ADDGA1021+004509999GA2071+008409999GF107991999999999999999999MA1102201999999MW1001REMMET076RJCT 201000Z 13005KT 9999 FEW015 BKN028 04/00 Q1022 RMK 2ST015 7SC028 A3020;EQDQ01+000000PRSWM2
0186474905999992000042021004+42900+143170FM-15+0084RJCT V0201001N001010045019N0112651N1+00301+00101999999ADDGA1021+003009999GA2081+004509999GF108991999999999999999999MA1102301999999MW1001REMMET076RJCT 202100Z 10002KT 9999 FEW010 OVC015 03/01 Q1023 RMK 2ST010 8SC015 A3022;EQDQ01+000000PRSWM2
0215474905999992000042022414+42900+143170FM-16+0084RJCT V0209999C000010018019N0030001N1+00301+00201999999ADDGA1021+001209999GA2081+001809999GF108991999999999999999999MA1102301999999MW1101MW2511REMMET083RJCT 202241Z 00000KT 3000 BR -DZ FEW004 OVC006 03/02 Q1023 RMK 2ST004 8ST006 A3021;EQDQ01+000003PRSWM1Q02    003PRSWM1
0262474905999992000042023004+42900+143170FM-15+0084RJCT V0209999C000010015019N0025001N1+00301+00201999999ADDGA1021+000909999GA2081+001509999GF108991999999999999999999MA1102301999999MW1101MW2511REMMET130RJCT 202300Z COR 00000KT 2500 BR -DZ FEW003 OVC005 03/02 Q1023 RMK 2ST003 8ST005 A3021 FCST 2308 TEMPO 0104 NSW BKN010ST BKN015ST;EQDQ01+000003PRSWM1Q02    003PRSWM1
0185474905999992000042023304+42900+143170FM-15+0084RJCT V0209999C000010009019N0012001N1+00301+00201999999ADDGA1081+000909999GF108991999999999999999999MA1102301999999MW1101MW2511REMMET069RJCT 202330Z 00000KT 1200 -DZ BR OVC003 03/02 Q1023 RMK 8ST003 A3022;EQDQ01+000003PRSWM1Q02    003PRSWM1
0215474905999992000042101004+42900+143170FM-15+0084RJCT V0209999C000010012019N0013001N1+00301+00201999999ADDGA1021+000909999GA2081+001209999GF108991999999999999999999MA1102201999999MW1101MW2511REMMET083RJCT 210100Z 00000KT 1300 -DZ BR FEW003 OVC004 03/02 Q1022 RMK 2ST003 8ST004 A3019;EQDQ01+000003PRSWM1Q02    003PRSWM1
0215474905999992000042102004+42900+143170FM-15+0084RJCT V0209999C000010018019N0030001N1+00301+00301999999ADDGA1021+000909999GA2081+001809999GF108991999999999999999999MA1102201999999MW1101MW2511REMMET083RJCT 210200Z 00000KT 3000 -DZ BR FEW003 OVC006 03/03 Q1022 RMK 2ST003 8ST006 A3019;EQDQ01+000003PRSWM1Q02    003PRSWM1
0231474905999992000042103004+42900+143170FM-15+0084RJCT V0202201N000510015019N0030001N1+00401+00301999999ADDGA1021+000909999GA2081+001509999GF108991999999999999999999MA1102201999999MW1101MW2511REMMET099RJCT 210300Z 22001KT 3000 -DZ BR FEW003 OVC005 04/03 Q1022 RMK 2ST003 8ST005 A3018 FCST 0312 NOSIG;EQDQ01+000003PRSWM1Q02    003PRSWM1
0215474905999992000042104004+42900+143170FM-15+0084RJCT V0209999C000010015019N0030001N1+00401+00301999999ADDGA1021+000909999GA2081+001509999GF108991999999999999999999MA1102101999999MW1101MW2511REMMET083RJCT 210400Z 00000KT 3000 -DZ BR FEW003 OVC005 04/03 Q1021 RMK 2ST003 8ST005 A3016;EQDQ01+000003PRSWM1Q02    003PRSWM1
0231474905999992000042106004+42900+143170FM-15+0084RJCT V0202601N001510015019N0020001N1+00401+00401999999ADDGA1021+000909999GA2081+001509999GF108991999999999999999999MA1101901999999MW1101MW2511REMMET099RJCT 210600Z 26003KT 2000 -DZ BR SCT003 OVC005 04/04 Q1019 RMK 4ST003 8ST005 A3011 FCST 0615 NOSIG;EQDQ01+000003PRSWM1Q02    003PRSWM1
0215474905999992000042107004+42900+143170FM-15+0084RJCT V0202701N002110015019N0023001N1+00401+00401999999ADDGA1021+000909999GA2081+001509999GF108991999999999999999999MA1101901999999MW1101MW2511REMMET083RJCT 210700Z 27004KT 2300 -DZ BR SCT003 OVC005 04/04 Q1019 RMK 4ST003 8ST005 A3010;EQDQ01+000003PRSWM1Q02    003PRSWM1
0233474905999992000042108004+42900+143170FM-15+0084RJCT V0202701N001510015019N0022001N1+00401+00401999999ADDGA1021+000909999GA2081+001509999GF108991999999999999999999MA1101901999999MW1101MW2801REMMET101RJCT 210800Z 27003KT 2200 -SHRA BR SCT003 OVC005 04/04 Q1019 RMK 4ST003 8ST005 A3009 FCST 0817 NOSIG;EQDQ01+000003PRSWM1Q02    003PRSWM1
0217474905999992000042110004+42900+143170FM-15+0084RJCT V0202701N001510012019N0016001N1+00301+00301999999ADDGA1021+000609999GA2081+001209999GF108991999999999999999999MA1101801999999MW1101MW2801REMMET085RJCT 211000Z 27003KT 1600 -SHRA BR SCT002 OVC004 03/03 Q1018 RMK 4ST002 8ST004 A3007;EQDQ01+000003PRSWM1Q02    003PRSWM1
0187474905999992000042121004+42900+143170FM-15+0084RJCT V0202701N000510006019N0016001N1+00401+00401999999ADDGA1081+000609999GF108991999999999999999999MA1100711999999MW1101MW2801REMMET071RJCT 212100Z 27001KT 1600 -SHRA BR OVC002 04/04 Q1007 RMK 8ST002 A2976;EQDQ01+000003PRSWM1Q02    003PRSWM1
0187474905999992000042122004+42900+143170FM-15+0084RJCT V0203101N001010006019N0013001N1+00501+00501999999ADDGA1081+000609999GF108991999999999999999999MA1100611999999MW1101MW2801REMMET071RJCT 212200Z 31002KT 1300 -SHRA BR OVC002 05/05 Q1006 RMK 8ST002 A2972;EQDQ01+000003PRSWM1Q02    003PRSWM1
0246474905999992000042123004+42900+143170FM-15+0084RJCT V0202701N002610009019N0015001N1+00501+00501999999ADDGA1081+000909999GF108991999999999999999999MA1100511999999MW1101MW2801REMMET130RJCT 212300Z 27005KT 1500 -SHRA BR OVC003 05/05 Q1005 RMK 8ST003 A2968 FCST 2308 TEMPO 0306 1000 BECMG 0708 NSW SCT008ST BKN015CU;EQDQ01+000003PRSWM1Q02    003PRSWM1
0246474905999992000042200004+42900+143170FM-15+0084RJCT V0202601N001510012019N0015001N1+00501+00501999999ADDGA1081+001209999GF108991999999999999999999MA1100411999999MW1101MW2801REMMET130RJCT 220000Z 26003KT 1500 -SHRA BR OVC004 05/05 Q1004 RMK 8ST004 A2965 FCST 0009 TEMPO 0306 1000 BECMG 0708 NSW SCT008ST BKN015CU;EQDQ01+000003PRSWM1Q02    003PRSWM1
0238474905999992000042201004+42900+143170FM-15+0084RJCT V0201501N004610015019N0040001N1+00801+00801999999ADDGA1021+000909999GA2071+001509999GA3081+004509999GF108991999999999999999999MA1100311999999MW1801REMMET096RJCT 220100Z 15009KT 4000 -SHRA FEW003 BKN005 OVC015 08/08 Q1003 RMK 1ST003 5ST005 8ST015 A2964;EQDQ01+000003PRSWM1Q02    003PRSWM1
0249474905999992000042202004+42900+143170FM-15+0084RJCT V0201101N006210015019N0040001N1+00901+00901999999ADDGA1021+000909999GA2071+001509999GA3081+004509999GF108991999999999999999999MA1100201999999MW1801OC101181REMMET099RJCT 220200Z 11012G23KT 4000 -SHRA FEW003 BKN005 OVC015 09/09 Q1002 RMK 1ST003 5ST005 8ST015 A2961;EQDQ01+000003PRSWM1Q02    003PRSWM1
0278474905999992000042203004+42900+143170FM-15+0084RJCT V0201001N007710015019N0020001N1+00901+00801999999ADDGA1021+000909999GA2081+001509999GF108991999999999999999999MA1100101999999MW1811OC101391REMMET144RJCT 220300Z 10015G27KT 2000 SHRA SCT003 OVC005 09/08 Q1001 RMK 3ST003 8ST005 A2958 FCST 0312 BECMG 0607 -SHRA BECMG 0708 NSW SCT008ST BKN015CU;EQDQ01+000003PRSWM1Q02    003PRSWM1
0218474905999992000042204004+42900+143170FM-15+0084RJCT V0201001N007210015019N0020001N1+00901+00801999999ADDGA1021+000909999GA2081+001509999GF108991999999999999999999MA1100001999999MW1811OC101341REMMET084RJCT 220400Z 10014G26KT 2000 SHRA SCT003 OVC005 09/08 Q1000 RMK 3ST003 8ST005 A2955;EQDQ01+000003PRSWM1Q02    003PRSWM1
0212474905999992000042205004+42900+143170FM-15+0084RJCT V0200801N005110015019N0020001N1+00901+00801999999ADDGA1021+000909999GA2081+001509999GF108991999999999999999999MA1099801999999MW1811REMMET086RJCT 220500Z 08010KT 2000 SHRA SCT003 OVC005 09/08 Q0998 RMK 4ST003 8ST005 A2949 P/FR;EQDQ01+000003PRSWM1Q02    003PRSWM1
0267474905999992000042206004+42900+143170FM-15+0084RJCT V0202101N003110015019N0020001N1+00801+00801999999ADDGA1021+000909999GA2081+001509999GF108991999999999999999999MA1099801999999MW1811REMMET141RJCT 220600Z 21006KT 2000 SHRA SCT003 OVC005 08/08 Q0998 RMK 4ST003 8ST005 A2947 FCST 0615 BECMG 0607 -SHRA BECMG 0910 NSW SCT008ST BKN015CU;EQDQ01+000003PRSWM1Q02    003PRSWM1
0208474905999992000042207004+42900+143170FM-15+0084RJCT V0202501N002610030019N0040001N1+00701+00701999999ADDGA1021+001509999GA2081+003009999GF108991999999999999999999MA1099701999999MW1801REMMET082RJCT 220700Z 25005KT 4000 -SHRA FEW005 OVC010 07/07 Q0997 RMK 2ST005 8ST010 A2946;EQDQ01+000003PRSWM1Q02    003PRSWM1
0250474905999992000042208004+42900+143170FM-15+0084RJCT V0202701N004610024019N0020001N1+00601+00601999999ADDGA1021+000909999GA2081+002409999GF108991999999999999999999MA1099701999999MW1811REMMET124RJCT 220800Z 27009KT 2000 SHRA SCT003 OVC008 06/06 Q0997 RMK 3ST003 8ST008 A2944 FCST 0817 BECMG 1011 NSW SCT008ST BKN015SC;EQDQ01+000003PRSWM1Q02    003PRSWM1
0208474905999992000042209004+42900+143170FM-15+0084RJCT V0202701N004610018019N0015001N1+00601+00601999999ADDGA1021+000909999GA2081+001809999GF108991999999999999999999MA1099591999999MW1801REMMET082RJCT 220900Z 27009KT 1500 -SHRA SCT003 OVC006 06/06 Q0996 RMK 3ST003 8ST006 A2943;EQDQ01+000003PRSWM1Q02    003PRSWM1
0156474905999992000042221004+42900+143170FM-15+0084RJCT V0201701N001512200019N0112651N1+00401+00401999999ADDGA1021+009009999GF102991999999999999999999MA1099701999999MW1001REMMET062RJCT 222100Z 17003KT 9999 FEW030 04/04 Q0997 RMK 1CU030 A2945;EQDQ01+000000PRSWM2
0156474905999992000042222004+42900+143170FM-15+0084RJCT V0201501N001512200019N0112651N1+00701+00601999999ADDGA1021+009009999GF102991999999999999999999MA1099701999999MW1001REMMET062RJCT 222200Z 15003KT 9999 FEW030 07/06 Q0997 RMK 1CU030 A2946;EQDQ01+000000PRSWM2
0231474905999992000042223004+42900+143170FM-15+0084RJCT V02099999999990300019N0112651N1+01001+00601999999ADDGA1021+009009999GA2071+030009999GF107991999999999999999999MA1099701999999MW1001REMMET121RJCT 222300Z VRB02KT 9999 SCT030 BKN100 10/06 Q0997 RMK 3CU030 5AC100 A2944 FCST 2308 BECMG 0305 -SHRA BKN020ST OVC040SC;EQDQ01+000000PRSWM2
0231474905999992000042300004+42900+143170FM-15+0084RJCT V0203501N002112200019N0112651N1+01201+00701999999ADDGA1021+009009999GA2021+036009999GF104991999999999999999999MA1099701999999MW1001REMMET121RJCT 230000Z 35004KT 9999 FEW030 SCT120 12/07 Q0997 RMK 1CU030 3AC120 A2944 FCST 0009 BECMG 0305 -SHRA BKN020SC OVC040SC;EQDQ01+000000PRSWM2
0156474905999992000042301004+42900+143170FM-15+0084RJCT V0201301N002112200019N0112651N1+01301+00701999999ADDGA1021+010509999GF102991999999999999999999MA1099701999999MW1001REMMET062RJCT 230100Z 13004KT 9999 FEW035 13/07 Q0997 RMK 2CU035 A2945;EQDQ01+000000PRSWM2
0156474905999992000042302004+42900+143170FM-15+0084RJCT V0201401N004112200019N0112651N1+01501+00901999999ADDGA1021+010509999GF104991999999999999999999MA1099701999999MW1001REMMET062RJCT 230200Z 14008KT 9999 SCT035 15/09 Q0997 RMK 4CU035 A2944;EQDQ01+000000PRSWM2
0261474905999992000042303004+42900+143170FM-15+0084RJCT V0201701N004110360019N0112651N1+01701+00601999999ADDGA1021+009009999GA2021+010509999GA3071+036009999GF107991999999999999999999MA1099491999999MW1001REMMET135RJCT 230300Z 17008KT 9999 FEW030 SCT035 BKN120 17/06 Q0995 RMK 2CU030 4CU035 6AC120 A2941 FCST 0312 BECMG 0305 -SHRA BKN020SC OVC040SC;EQDQ01+000000PRSWM2
0216474905999992000042304004+42900+143170FM-15+0084RJCT V0202201N007210360019N0112651N1+01601+00601999999ADDGA1021+009009999GA2021+010509999GA3071+036009999GF107991999999999999999999MA1099491999999MW1001REMMET090RJCT 230400Z 22014KT 9999 FEW030 SCT035 BKN120 16/06 Q0995 RMK 1CU030 3CU035 6AC120 A2941;EQDQ01+000000PRSWM2
0216474905999992000042305004+42900+143170FM-15+0084RJCT V0201801N006210210019N0112651N1+01401+00401999999ADDGA1021+010509999GA2071+021009999GA3081+036009999GF108991999999999999999999MA1099491999999MW1001REMMET090RJCT 230500Z 18012KT 9999 FEW035 BKN070 OVC120 14/04 Q0995 RMK 2CU035 5AC070 8AC120 A2938;EQDQ01+000000PRSWM2
0216474905999992000042306004+42900+143170FM-15+0084RJCT V0201701N003110210019N0112651N1+01301+00501999999ADDGA1021+012009999GA2071+021009999GA3081+036009999GF108991999999999999999999MA1099491999999MW1001REMMET090RJCT 230600Z 17006KT 9999 FEW040 BKN070 OVC120 13/05 Q0995 RMK 2SC040 6AC070 8AC120 A2938;EQDQ01+000000PRSWM2
0238474905999992000042306144+42900+143170FM-16+0084RJCT V0201801N004110210019N0112651N1+01301+00401999999ADDGA1021+012009999GA2071+021009999GA3081+036009999GF108991999999999999999999MA1099491999999MW1801REMMET096RJCT 230614Z 18008KT 9999 -SHRA SCT040 BKN070 OVC120 13/04 Q0995 RMK 3SC040 7AC070 8AC120 A2939;EQDQ01+000003PRSWM1Q02    003PRSWM1
0208474905999992000042306404+42900+143170FM-16+0084RJCT V0201901N003110120019N0112651N1+01201+00501999999ADDGA1071+012009999GA2081+021009999GF108991999999999999999999MA1099491999999MW1801REMMET082RJCT 230640Z 19006KT 9999 -SHRA BKN040 OVC070 12/05 Q0995 RMK 5SC040 8AC070 A2938;EQDQ01+000003PRSWM1Q02    003PRSWM1
0208474905999992000042307004+42900+143170FM-15+0084RJCT V0202101N002110210019N0112651N1+01201+00501999999ADDGA1021+012009999GA2081+021009999GF108991999999999999999999MA1099491999999MW1801REMMET082RJCT 230700Z 21004KT 9999 -SHRA SCT040 OVC070 12/05 Q0995 RMK 4SC040 8AC070 A2939;EQDQ01+000003PRSWM1Q02    003PRSWM1
0233474905999992000042308004+42900+143170FM-15+0084RJCT V0200501N001510210019N0112651N1+01101+00601999999ADDGA1021+010509999GA2071+021009999GF107991999999999999999999MA1099491999999MW1801REMMET107RJCT 230800Z 05003KT 9999 -SHRA FEW035 BKN070 11/06 Q0995 RMK 2SC035 6AC070 A2938 FCST 0817 BECMG 0910 NSW;EQDQ01+000003PRSWM1Q02    003PRSWM1
0186474905999992000042308174+42900+143170FM-16+0084RJCT V0200701N004610210019N0112651N1+01001+00701999999ADDGA1021+012009999GA2071+021009999GF107991999999999999999999MA1099391999999MW1001REMMET076RJCT 230817Z 07009KT 9999 SCT040 BKN070 10/07 Q0994 RMK 3SC040 6AC070 A2936;EQDQ01+000000PRSWM2
0186474905999992000042309004+42900+143170FM-15+0084RJCT V0202201N001010210019N0112651N1+00901+00701999999ADDGA1021+010509999GA2071+021009999GF107991999999999999999999MA1099491999999MW1001REMMET076RJCT 230900Z 22002KT 9999 FEW035 BKN070 09/07 Q0995 RMK 2SC035 6AC070 A2939;EQDQ01+000000PRSWM2
0186474905999992000042310004+42900+143170FM-15+0084RJCT V0201401N001010210019N0112651N1+00801+00601999999ADDGA1021+012009999GA2071+021009999GF107991999999999999999999MA1099591999999MW1001REMMET076RJCT 231000Z 14002KT 9999 FEW040 BKN070 08/06 Q0996 RMK 1SC040 7AC070 A2941;EQDQ01+000000PRSWM2
0156474905999992000042321004+42900+143170FM-15+0084RJCT V0200401N000512200019N0112651N1+00401+00301999999ADDGA1021+021009999GF102991999999999999999999MA1099701999999MW1001REMMET062RJCT 232100Z 04001KT 9999 FEW070 04/03 Q0997 RMK 2AC070 A2946;EQDQ01+000000PRSWM2
0186474905999992000042322004+42900+143170FM-15+0084RJCT V0203201N001012200019N0112651N1+00501+00301999999ADDGA1021+015009999GA2021+021009999GF104991999999999999999999MA1099701999999MW1001REMMET076RJCT 232200Z 32002KT 9999 FEW050 SCT070 05/03 Q0997 RMK 1SC050 3AC070 A2946;EQDQ01+000000PRSWM2
0246474905999992000042323004+42900+143170FM-15+0084RJCT V0203101N000510210019N0112651N1+00601+00301999999ADDGA1021+004509999GA2021+015009999GA3071+021009999GF107991999999999999999999MA1099801999999MW1001REMMET120RJCT 232300Z 31001KT 9999 FEW015 SCT050 BKN070 06/03 Q0998 RMK 1ST015 3SC050 6AC070 A2947 FCST 2308 TEMPO 0006 BKN050CU;EQDQ01+000000PRSWM2
0255474905999992000042400004+42900+143170FM-15+0084RJCT V0202701N001510630019N0112651N1+00801+00301999999ADDGA1021+006009999GA2021+021009999GA3071+063009999GF107991999999999999999999MA1099801999999MW1001REMMET129RJCT 240000Z 27003KT 9999 FEW020 SCT070 BKN210 08/03 Q0998 RMK 1CU020 4AC070 6CI210 A2948 FCST 0009 TEMPO 0005 FEW030CU BKN070AC;EQDQ01+000000PRSWM2
0216474905999992000042401004+42900+143170FM-15+0084RJCT V0202601N001510630019N0112651N1+01001+00301999999ADDGA1021+006009999GA2021+009009999GA3071+063009999GF107991999999999999999999MA1099801999999MW1001REMMET090RJCT 240100Z 26003KT 9999 FEW020 SCT030 BKN210 10/03 Q0998 RMK 1CU020 3CU030 6CI210 A2949;EQDQ01+000000PRSWM2
0216474905999992000042402004+42900+143170FM-15+0084RJCT V0202801N002110300019N0112651N1+01101+00301999999ADDGA1021+006009999GA2021+009009999GA3071+030009999GF107991999999999999999999MA1099801999999MW1001REMMET090RJCT 240200Z 28004KT 9999 FEW020 SCT030 BKN100 11/03 Q0998 RMK 1CU020 3CU030 5AC100 A2948;EQDQ01+000000PRSWM2
0255474905999992000042403004+42900+143170FM-15+0084RJCT V0202801N002610300019N0112651N1+01201+00301999999ADDGA1021+007509999GA2021+015009999GA3071+030009999GF107991999999999999999999MA1099801999999MW1001REMMET129RJCT 240300Z 28005KT 9999 FEW025 SCT050 BKN100 12/03 Q0998 RMK 2CU025 3SC050 5AC100 A2949 FCST 0312 TEMPO 0408 BKN030SC BKN080AC;EQDQ01+000000PRSWM2
0186474905999992000042404004+42900+143170FM-15+0084RJCT V0202401N004112200019N0112651N1+01301+00301999999ADDGA1021+007509999GA2021+010509999GF104991999999999999999999MA1099801999999MW1001REMMET076RJCT 240400Z 24008KT 9999 FEW025 SCT035 13/03 Q0998 RMK 2CU025 3CU035 A2949;EQDQ01+000000PRSWM2
0186474905999992000042405004+42900+143170FM-15+0084RJCT V0202901N004610105019N0112651N1+01301+00201999999ADDGA1021+007509999GA2071+010509999GF107991999999999999999999MA1099901999999MW1001REMMET076RJCT 240500Z 29009KT 9999 FEW025 BKN035 13/02 Q0999 RMK 2CU025 5CU035 A2950;EQDQ01+000000PRSWM2
0216474905999992000042406004+42900+143170FM-15+0084RJCT V0203201N002612200019N0112651N1+01301+00201999999ADDGA1021+007509999GA2021+010509999GF104991999999999999999999MA1099801999999MW1001REMMET106RJCT 240600Z 32005KT 9999 FEW025 SCT035 13/02 Q0998 RMK 1CU025 3CU035 A2949 FCST 0615 TEMPO 0812 BKN040CU;EQDQ01+000000PRSWM2
0216474905999992000042407004+42900+143170FM-15+0084RJCT V0202501N002110630019N0112651N1+01301+00101999999ADDGA1021+010509999GA2021+018009999GA3071+063009999GF107991999999999999999999MA1099901999999MW1001REMMET090RJCT 240700Z 25004KT 9999 SCT035 SCT060 BKN210 13/01 Q0999 RMK 3CU035 3SC060 5CI210 A2950;EQDQ01+000000PRSWM2
0246474905999992000042408004+42900+143170FM-15+0084RJCT V0202901N004110630019N0112651N1+01201+00301999999ADDGA1021+010509999GA2021+033009999GA3071+063009999GF107991999999999999999999MA1099901999999MW1001REMMET120RJCT 240800Z 29008KT 9999 SCT035 SCT110 BKN210 12/03 Q0999 RMK 3CU035 3AC110 5CI210 A2952 FCST 0817 TEMPO 0912 BKN030CU;EQDQ01+000000PRSWM2
0216474905999992000042409004+42900+143170FM-15+0084RJCT V0203201N002610300019N0112651N1+01001+00301999999ADDGA1021+009009999GA2071+030009999GA3071+063009999GF107991999999999999999999MA1100001999999MW1001REMMET090RJCT 240900Z 32005KT 9999 SCT030 BKN100 BKN210 10/03 Q1000 RMK 3CU030 5AC100 5CI210 A2953;EQDQ01+000000PRSWM2
0216474905999992000042410004+42900+143170FM-15+0084RJCT V0203001N002110300019N0112651N1+00901+00201999999ADDGA1021+009009999GA2071+030009999GA3071+060009999GF107991999999999999999999MA1100001999999MW1001REMMET090RJCT 241000Z 30004KT 9999 SCT030 BKN100 BKN200 09/02 Q1000 RMK 4CU030 5AC100 5CI200 A2955;EQDQ01+000000PRSWM2
0216474905999992000042411004+42900+143170FM-15+0084RJCT V0200201N001010300019N0112651N1+00701+00301999999ADDGA1021+009009999GA2071+030009999GA3071+060009999GF107991999999999999999999MA1100101999999MW1001REMMET090RJCT 241100Z 02002KT 9999 SCT030 BKN100 BKN200 07/03 Q1001 RMK 4CU030 5AC100 5CI200 A2956;EQDQ01+000000PRSWM2
0156474905999992000042421004+42900+143170FM-15+0084RJCT V0201401N000512200019N0112651N1+00401+00301999999ADDGA1021+009009999GF102991999999999999999999MA1100101999999MW1001REMMET062RJCT 242100Z 14001KT 9999 FEW030 04/03 Q1001 RMK 2CU030 A2957;EQDQ01+000000PRSWM2
0156474905999992000042422004+42900+143170FM-15+0084RJCT V0202701N001012200019N0112651N1+00701+00401999999ADDGA1021+009009999GF102991999999999999999999MA1100101999999MW1001REMMET062RJCT 242200Z 27002KT 9999 FEW030 07/04 Q1001 RMK 2CU030 A2958;EQDQ01+000000PRSWM2
0248474905999992000042423004+42900+143170FM-15+0084RJCT V0202901N001010630019N0112651N1+00901+00401999999ADDGA1021+007509999GA2021+010509999GA3071+063009999GF107991999999999999999999MA1100101999999MW1001REMMET122RJCT 242300Z 29002KT 9999 FEW025 SCT035 BKN210 09/04 Q1001 RMK 1CU025 3SC035 5CI210 A2958 FCST 2308 TEMPO 0608 31012G25KT;EQDQ01+000000PRSWM2
0248474905999992000042500004+42900+143170FM-15+0084RJCT V0200401N000510630019N0112651N1+01001+00401999999ADDGA1021+007509999GA2021+010509999GA3071+063009999GF107991999999999999999999MA1100101999999MW1001REMMET122RJCT 250000Z 04001KT 9999 FEW025 SCT035 BKN210 10/04 Q1001 RMK 1CU025 3CU035 7CI210 A2958 FCST 0009 TEMPO 0608 31012G25KT;EQDQ01+000000PRSWM2
0186474905999992000042501004+42900+143170FM-15+0084RJCT V0200601N001010630019N0112651N1+01001+00301999999ADDGA1021+009009999GA2071+063009999GF107991999999999999999999MA1100101999999MW1001REMMET076RJCT 250100Z 06002KT 9999 FEW030 BKN210 10/03 Q1001 RMK 2CU030 7CI210 A2957;EQDQ01+000000PRSWM2
0216474905999992000042502004+42900+143170FM-15+0084RJCT V0200501N001510630019N0112651N1+01101+00301999999ADDGA1021+009009999GA2021+030009999GA3071+063009999GF107991999999999999999999MA1100101999999MW1001REMMET090RJCT 250200Z 05003KT 9999 FEW030 SCT100 BKN210 11/03 Q1001 RMK 2CU030 3AC100 7CI210 A2956;EQDQ01+000000PRSWM2
0232474905999992000042503004+42900+143170FM-15+0084RJCT V02099999999990630019N0112651N1+01301+00201999999ADDGA1021+007509999GA2021+010509999GA3071+063009999GF107991999999999999999999MA1100001999999MW1001REMMET106RJCT 250300Z VRB01KT 9999 FEW025 SCT035 BKN210 13/02 Q1000 RMK 1CU025 4CU035 5CI210 A2954 FCST 0312 NOSIG;EQDQ01+000000PRSWM2
0238474905999992000042503104+42900+143170FM-16+0084RJCT V0202301N002610105019N0112651N1+01301+00101999999ADDGA1021+007509999GA2071+010509999GA3071+063009999GF107991999999999999999999MA1100001999999MW1801REMMET096RJCT 250310Z 23005KT 9999 -SHRA FEW025 BKN035 BKN210 13/01 Q1000 RMK 1CU025 5CU035 6CI210 A2953;EQDQ01+000003PRSWM1Q02    003PRSWM1
0216474905999992000042504004+42900+143170FM-15+0084RJCT V0201501N002110105019N0112651N1+01401+00201999999ADDGA1021+007509999GA2071+010509999GA3071+063009999GF107991999999999999999999MA1099901999999MW1001REMMET090RJCT 250400Z 15004KT 9999 FEW025 BKN035 BKN210 14/02 Q0999 RMK 1CU025 5CU035 6CI210 A2952;EQDQ01+000000PRSWM2
0238474905999992000042504404+42900+143170FM-16+0084RJCT V0202801N004610105019N0112651N1+01101+00501999999ADDGA1021+007509999GA2071+010509999GA3071+063009999GF107991999999999999999999MA1099901999999MW1801REMMET096RJCT 250440Z 28009KT 9999 -SHRA FEW025 BKN035 BKN210 11/05 Q0999 RMK 1CU025 6CU035 7CI210 A2952;EQDQ01+000003PRSWM1Q02    003PRSWM1
0238474905999992000042505004+42900+143170FM-15+0084RJCT V0203001N002110630019N0112651N1+01101+00501999999ADDGA1021+006009999GA2021+010509999GA3071+063009999GF107991999999999999999999MA1099901999999MW1801REMMET096RJCT 250500Z 30004KT 9999 -SHRA FEW020 SCT035 BKN210 11/05 Q0999 RMK 1CU020 4CU035 7CI210 A2952;EQDQ01+000003PRSWM1Q02    003PRSWM1
0186474905999992000042505294+42900+143170FM-16+0084RJCT V0200201N002612200019N0112651N1+01201+00501999999ADDGA1021+006009999GA2021+010509999GF104991999999999999999999MA1099901999999MW1001REMMET076RJCT 250529Z 02005KT 9999 FEW020 SCT035 12/05 Q0999 RMK 1CU020 3CU035 A2951;EQDQ01+000000PRSWM2
0224474905999992000042506004+42900+143170FM-15+0084RJCT V0203201N002612200019N0112651N1+01101+00501999999ADDGA1021+006009999GA2021+010509999GF104991999999999999999999MA1099901999999MW1801REMMET098RJCT 250600Z 32005KT 9999 -SHRA FEW020 SCT035 11/05 Q0999 RMK 1CU020 4CU035 A2951 FCST 0615 NOSIG;EQDQ01+000003PRSWM1Q02    003PRSWM1
0211474905999992000042507004+42900+143170FM-15+0084RJCT V0203101N007212200019N0112651N1+00901+00201999999ADDGA1021+009009099GA2021+012009999GF104991999999999999999999MA1100001999999MW1001OC101291REMMET093RJCT 250700Z 31014G25KT 9999 FEW030CB SCT040 09/02 Q1000 RMK 1CB030 3CU040 A2953 CB SW MOV E;EQDQ01+000000PRSWM2
0226474905999992000042508004+42900+143170FM-15+0084RJCT V0203101N006212200019N0112651N1+00801+00101999999ADDGA1021+009009999GA2021+012009999GF104991999999999999999999MA1100001999999MW1001OC101131REMMET108RJCT 250800Z 31012G22KT 9999 FEW030 SCT040 08/01 Q1000 RMK 1CU030 3CU040 A2955 FCST 0817 BECMG 1112 35006KT;EQDQ01+000000PRSWM2
0186474905999992000042509004+42900+143170FM-15+0084RJCT V0203201N006212200019N0112651N1+00801+00101999999ADDGA1021+009009999GA2021+012009999GF104991999999999999999999MA1100101999999MW1001REMMET076RJCT 250900Z 32012KT 9999 FEW030 SCT040 08/01 Q1001 RMK 1CU030 3CU040 A2957;EQDQ01+000000PRSWM2
0156474905999992000042510004+42900+143170FM-15+0084RJCT V0203201N004612200019N0112651N1+00601+00101999999ADDGA1021+009009999GF102991999999999999999999MA1100201999999MW1001REMMET062RJCT 251000Z 32009KT 9999 FEW030 06/01 Q1002 RMK 1CU030 A2960;EQDQ01+000000PRSWM2
0167474905999992000042521004+42900+143170FM-15+0084RJCT V0203101N005712200019N0112651N1+00601+00001999999ADDGA1021+009009999GF102991999999999999999999MA1100711999999MW1001OC101081REMMET065RJCT 252100Z 31011G21KT 9999 FEW030 06/00 Q1007 RMK 1CU030 A2976;EQDQ01+000000PRSWM2
0167474905999992000042522004+42900+143170FM-15+0084RJCT V0203201N007212200019N0112651N1+00701+00001999999ADDGA1021+009009999GF102991999999999999999999MA1100811999999MW1001OC101231REMMET065RJCT 252200Z 32014G24KT 9999 FEW030 07/00 Q1008 RMK 1CU030 A2977;EQDQ01+000000PRSWM2
0196474905999992000042523004+42900+143170FM-15+0084RJCT V0203001N006712200019N0112651N1+00901+00101999999ADDGA1021+006009999GF102991999999999999999999MA1100811999999MW1001OC101181REMMET094RJCT 252300Z 30013G23KT 9999 FEW020 09/01 Q1008 RMK 1CU020 A2978 FCST 2308 BECMG 0304 32008KT;EQDQ01+000000PRSWM2
0196474905999992000042600004+42900+143170FM-15+0084RJCT V0203001N006712200019N0112651N1+01001+00001999999ADDGA1021+006009999GF102991999999999999999999MA1100911999999MW1001OC101181REMMET094RJCT 260000Z 30013G23KT 9999 FEW020 10/00 Q1009 RMK 1CU020 A2979 FCST 0009 BECMG 0304 32008KT;EQDQ01+000000PRSWM2
0156474905999992000042601004+42900+143170FM-15+0084RJCT V0203001N006212200019N0112651N1+01001+00001999999ADDGA1021+007509999GF102991999999999999999999MA1100911999999MW1001REMMET062RJCT 260100Z 30012KT 9999 FEW025 10/00 Q1009 RMK 2CU025 A2981;EQDQ01+000000PRSWM2
0156474905999992000042602004+42900+143170FM-15+0084RJCT V0203501N002612200019N0112651N1+01101+00101999999ADDGA1021+007509999GF102991999999999999999999MA1100911999999MW1001REMMET062RJCT 260200Z 35005KT 9999 FEW025 11/01 Q1009 RMK 2CU025 A2982;EQDQ01+000000PRSWM2
0202474905999992000042603004+42900+143170FM-15+0084RJCT V0200701N003112200019N0112651N1+01101+00301999999ADDGA1021+007509999GA2021+009009999GF104991999999999999999999MA1101021999999MW1001REMMET092RJCT 260300Z 07006KT 9999 FEW025 SCT030 11/03 Q1010 RMK 1CU025 3CU030 A2982 FCST 0312 NOSIG;EQDQ01+000000PRSWM2
0186474905999992000042604004+42900+143170FM-15+0084RJCT V0200601N002610105019N0112651N1+01201+00201999999ADDGA1021+009009999GA2071+010509999GF107991999999999999999999MA1101021999999MW1001REMMET076RJCT 260400Z 06005KT 9999 FEW030 BKN035 12/02 Q1010 RMK 1CU030 6CU035 A2983;EQDQ01+000000PRSWM2
0186474905999992000042605004+42900+143170FM-15+0084RJCT V0201201N004610105019N0112651N1+01101+00301999999ADDGA1021+009009999GA2071+010509999GF107991999999999999999999MA1101021999999MW1001REMMET076RJCT 260500Z 12009KT 9999 FEW030 BKN035 11/03 Q1010 RMK 1CU030 7CU035 A2984;EQDQ01+000000PRSWM2
0216474905999992000042606004+42900+143170FM-15+0084RJCT V0200601N004610105019N0112651N1+01001+00201999999ADDGA1021+009009999GA2071+010509999GF107991999999999999999999MA1101081999999MW1001REMMET106RJCT 260600Z 06009KT 9999 FEW030 BKN035 10/02 Q1011 RMK 2CU030 6CU035 A2985 FCST 0615 BECMG 0809 SCT035SC;EQDQ01+000000PRSWM2
0186474905999992000042607004+42900+143170FM-15+0084RJCT V0200701N004610105019N0112651N1+00801+00201999999ADDGA1021+007509999GA2071+010509999GF107991999999999999999999MA1101081999999MW1001REMMET076RJCT 260700Z 07009KT 9999 FEW025 BKN035 08/02 Q1011 RMK 1CU025 6CU035 A2987;EQDQ01+000000PRSWM2
0202474905999992000042608004+42900+143170FM-15+0084RJCT V0200701N004110105019N0112651N1+00701+00101999999ADDGA1021+007509999GA2071+010509999GF107991999999999999999999MA1101191999999MW1001REMMET092RJCT 260800Z 07008KT 9999 FEW025 BKN035 07/01 Q1012 RMK 1CU025 7CU035 A2988 FCST 0817 NOSIG;EQDQ01+000000PRSWM2
0186474905999992000042609004+42900+143170FM-15+0084RJCT V0200601N003110105019N0112651N1+00701+00101999999ADDGA1021+004509999GA2071+010509999GF107991999999999999999999MA1101191999999MW1001REMMET076RJCT 260900Z 06006KT 9999 FEW015 BKN035 07/01 Q1012 RMK 1SC015 7CU035 A2990;EQDQ01+000000PRSWM2
0187474905999992000042610004+42900+143170FM-15+0084RJCT V0200601N003610105019N0112651N1+00501+00001999999ADDGA1021+004509999GA2071+010509999GF107991999999999999999999MA1101291999999MW1001REMMET077RJCT 261000Z 06007KT 9999 FEW015 BKN035 05/M00 Q1013 RMK 1SC015 7SC035 A2993;EQDQ01+000000PRSWM2
0206474905999992000042621004+42900+143170FM-15+0084RJCT V0201501N003110021019N0030001N1+00101+00001999999ADDGA1021+000909999GA2081+002109999GF108991999999999999999999MA1101291999999MW1611REMMET080RJCT 262100Z 15006KT 3000 -RA FEW003 OVC007 01/00 Q1013 RMK 2ST003 8ST007 A2994;EQDQ01+000003PRSWM1Q02    003PRSWM1
0227474905999992000042623004+42900+143170FM-15+0084RJCT V0201401N002610021019N0030001N1+00101+00001999999ADDGA1021+000909999GA2081+002109999GF108991999999999999999999MA1101291999999MW1711REMMET101RJCT 262300Z COR 14005KT 3000 -SN FEW003 OVC007 01/M00 Q1013 RMK 2ST003 8ST007 A2992 FCST 2308 NOSIG;EQDQ01+000003PRSWM1Q02    003PRSWM1
0231474905999992000042700004+42900+143170FM-15+0084RJCT V0201401N002110018019N0015001N1+00101+00001999999ADDGA1021+000909999GA2081+001809999GF108991999999999999999999MA1101291999999MW1101MW2711REMMET099RJCT 270000Z 14004KT 1500 -SN BR SCT003 OVC006 01/00 Q1013 RMK 4ST003 8ST006 A2992 FCST 0009 NOSIG;EQDQ01+000003PRSWM1Q02    003PRSWM1
0215474905999992000042701004+42900+143170FM-15+0084RJCT V0201401N002110021019N0020001N1+00101+00101999999ADDGA1021+001209999GA2081+002109999GF108991999999999999999999MA1101191999999MW1101MW2711REMMET083RJCT 270100Z 14004KT 2000 -SN BR SCT004 OVC007 01/01 Q1012 RMK 4ST004 8ST007 A2991;EQDQ01+000003PRSWM1Q02    003PRSWM1
0244474905999992000042702004+42900+143170FM-15+0084RJCT V0201201N002110015019N0030001N1+00201+00101999999ADDGA1021+001209999GA2071+001509999GA3081+003609999GF108991999999999999999999MA1101191999999MW1611MW2711REMMET096RJCT 270200Z 12004KT 3000 -SNRA SCT004 BKN005 OVC012 02/01 Q1012 RMK 3ST004 5ST005 8ST012 A2990;EQDQ01+000003PRSWM1Q02    003PRSWM1
0262474905999992000042703004+42900+143170FM-15+0084RJCT V0201301N003110024019N0060001N1+00301+00101999999ADDGA1021+001509999GA2071+002409999GA3081+003609999GF108991999999999999999999MA1101081999999MW1611REMMET120RJCT 270300Z 13006KT 6000 -RA SCT005 BKN008 OVC012 03/01 Q1011 RMK 3ST005 5ST008 8ST012 A2987 FCST 0312 BECMG 0506 3000;EQDQ01+000003PRSWM1Q02    003PRSWM1
0245474905999992000042704004+42900+143170FM-15+0084RJCT V0201201N004110021019N0040001N1+00201+00101999999ADDGA1021+001509999GA2071+002109999GA3081+003009999GF108991999999999999999999MA1101081999999MW1101MW2611REMMET097RJCT 270400Z 12008KT 4000 -RA BR SCT005 BKN007 OVC010 02/01 Q1011 RMK 4ST005 6ST007 8ST010 A2985;EQDQ01+000003PRSWM1Q02    003PRSWM1
0245474905999992000042705004+42900+143170FM-15+0084RJCT V0201501N003610015019N0030001N1+00201+00101999999ADDGA1021+000909999GA2071+001509999GA3081+002109999GF108991999999999999999999MA1101021999999MW1101MW2711REMMET097RJCT 270500Z 15007KT 3000 -SN BR FEW003 BKN005 OVC007 02/01 Q1010 RMK 2ST003 5ST005 8ST007 A2983;EQDQ01+000003PRSWM1Q02    003PRSWM1
0261474905999992000042706004+42900+143170FM-15+0084RJCT V0201601N003110015019N0025001N1+00101+00001999999ADDGA1021+000909999GA2071+001509999GA3081+002109999GF108991999999999999999999MA1100911999999MW1101MW2711REMMET113RJCT 270600Z 16006KT 2500 -SN BR SCT003 BKN005 OVC007 01/00 Q1009 RMK 3ST003 6ST005 8ST007 A2982 FCST 0615 NOSIG;EQDQ01+000003PRSWM1Q02    003PRSWM1
0245474905999992000042707004+42900+143170FM-15+0084RJCT V0202001N002110015019N0030001N1+00101+00101999999ADDGA1021+000909999GA2071+001509999GA3081+003009999GF108991999999999999999999MA1100911999999MW1101MW2711REMMET097RJCT 270700Z 20004KT 3000 -SN BR FEW003 BKN005 OVC010 01/01 Q1009 RMK 2ST003 5ST005 8ST010 A2981;EQDQ01+000003PRSWM1Q02    003PRSWM1
0261474905999992000042708004+42900+143170FM-15+0084RJCT V0202001N001010030019N0020001N1+00101+00001999999ADDGA1021+000909999GA2021+001809999GA3081+003009999GF108991999999999999999999MA1100911999999MW1101MW2711REMMET113RJCT 270800Z 20002KT 2000 -SN BR FEW003 SCT006 OVC010 01/00 Q1009 RMK 2ST003 4ST006 8ST010 A2980 FCST 0817 NOSIG;EQDQ01+000003PRSWM1Q02    003PRSWM1
0216474905999992000042709004+42900+143170FM-15+0084RJCT V0209999C000010006019N0010001N1+00001+00001999999ADDGA1071+000609999GA2081+000909999GF108991999999999999999999MA1100911999999MW1101MW2711REMMET084RJCT 270900Z 00000KT 1000 -SN BR BKN002 OVC003 00/M00 Q1009 RMK 5ST002 8ST003 A2979;EQDQ01+000003PRSWM1Q02    003PRSWM1
0216474905999992000042710004+42900+143170FM-15+0084RJCT V0209999C000010006019N0010001N1+00001+00001999999ADDGA1071+000609999GA2081+001209999GF108991999999999999999999MA1100811999999MW1101MW2711REMMET084RJCT 271000Z 00000KT 1000 -SN BR BKN002 OVC004 00/M00 Q1008 RMK 5ST002 8ST004 A2978;EQDQ01+000003PRSWM1Q02    003PRSWM1
0236474905999992000042721004+42900+143170FM-15+0084RJCT V0203001N000510045019N0080001N1+00001+00001999999ADDGA1021+001509999GA2021+002409999GA3081+004509999GF108991999999999999999999MA1099901999999MW1611REMMET094RJCT 272100Z 30001KT 8000 -RA FEW005 SCT008 OVC015 00/00 Q0999 RMK 1ST005 4ST008 8SC015 A2952;EQDQ01+000003PRSWM1Q02    003PRSWM1
0236474905999992000042722004+42900+143170FM-15+0084RJCT V0203001N000510045019N0080001N1+00101+00101999999ADDGA1021+001209999GA2021+001809999GA3081+004509999GF108991999999999999999999MA1099901999999MW1611REMMET094RJCT 272200Z 30001KT 8000 -RA FEW004 SCT006 OVC015 01/01 Q0999 RMK 2ST004 3ST006 8SC015 A2951;EQDQ01+000003PRSWM1Q02    003PRSWM1
0278474905999992000042723004+42900+143170FM-15+0084RJCT V0203401N001010045019N0060001N1+00201+00101999999ADDGA1021+000909999GA2021+001809999GA3081+004509999GF108991999999999999999999MA1099801999999MW1611REMMET136RJCT 272300Z 34002KT 6000 -RA SCT003 SCT006 OVC015 02/01 Q0998 RMK 3ST003 3ST006 8SC015 A2949 FCST 2308 BECMG 0001 NSW TEMPO 0107 -SHRA;EQDQ01+000003PRSWM1Q02    003PRSWM1
0255474905999992000042723054+42900+143170FM-16+0084RJCT V0200601N001510045019N0030001N1+00101+00101999999ADDGA1021+000909999GA2021+001809999GA3081+004509999GF108991999999999999999999MA1099801999999MW1611REMMET097RJCT 272305Z 06003KT 3000 -RA BR SCT003 SCT006 OVC015 01/01 Q0998 RMK 3ST003 3ST006 8SC015 A2948;EQDQ01+000100PRSWM3Q02+000003PRSWM1Q03    003PRSWM1
0287474905999992000042800004+42900+143170FM-15+0084RJCT V0202401N000510036019N0025001N1+00201+00201999999ADDGA1021+000309999GA2021+001509999GA3081+003609999GF108991999999999999999999MA1099701999999MW1101MW2611REMMET139RJCT 280000Z 24001KT 2500 -RA BR FEW001 SCT005 OVC012 02/02 Q0997 RMK 1ST001 3ST005 8SC012 A2945 FCST 0009 BECMG 0102 NSW TEMPO 0208 -SHRA;EQDQ01+000003PRSWM1Q02    003PRSWM1
0245474905999992000042801004+42900+143170FM-15+0084RJCT V0203101N001510045019N0025001N1+00301+00201999999ADDGA1021+000309999GA2021+001509999GA3081+004509999GF108991999999999999999999MA1099591999999MW1101MW2611REMMET097RJCT 280100Z 31003KT 2500 -RA BR FEW001 SCT005 OVC015 03/02 Q0996 RMK 1ST001 4ST005 8NS015 A2943;EQDQ01+000003PRSWM1Q02    003PRSWM1
0215474905999992000042802004+42900+143170FM-15+0084RJCT V0203501N000510045019N0050001N1+00301+00201999999ADDGA1021+001509999GA2081+004509999GF108991999999999999999999MA1099591999999MW1101MW2611REMMET083RJCT 280200Z 35001KT 5000 -RA BR SCT005 OVC015 03/02 Q0996 RMK 3ST005 8NS015 A2941;EQDQ01+000003PRSWM1Q02    003PRSWM1
0280474905999992000042803004+42900+143170FM-15+0084RJCT V0202301N001510045019N0112651N1+00401+00401999999ADDGA1021+001509999GA2071+004509999GA3081+009009999GF108991999999999999999999MA1099391999999MW1801REMMET138RJCT 280300Z 23003KT 9999 -SHRA FEW005 BKN015 OVC030 04/04 Q0994 RMK 1ST005 5SC015 8SC030 A2937 FCST 0312 BECMG 0304 NSW TEMPO 0408 -SHRA;EQDQ01+000003PRSWM1Q02    003PRSWM1
0238474905999992000042804004+42900+143170FM-15+0084RJCT V0202701N000510090019N0112651N1+00501+00401999999ADDGA1021+004509999GA2071+009009999GA3071+024009999GF107991999999999999999999MA1099391999999MW1801REMMET096RJCT 280400Z 27001KT 9999 -SHRA SCT015 BKN030 BKN080 05/04 Q0994 RMK 3SC015 6SC030 7AC080 A2936;EQDQ01+000003PRSWM1Q02    003PRSWM1
0238474905999992000042805004+42900+143170FM-15+0084RJCT V0200301N002610090019N0112651N1+00501+00201999999ADDGA1021+004509999GA2071+009009999GA3071+024009999GF107991999999999999999999MA1099391999999MW1801REMMET096RJCT 280500Z 03005KT 9999 -SHRA FEW015 BKN030 BKN080 05/02 Q0994 RMK 2SC015 6SC030 7AC080 A2935;EQDQ01+000003PRSWM1Q02    003PRSWM1
0263474905999992000042806004+42900+143170FM-15+0084RJCT V0203001N004110090019N0112651N1+00401+00201999999ADDGA1021+004509999GA2071+009009999GA3071+024009999GF107991999999999999999999MA1099291999999MW1801REMMET121RJCT 280600Z 30008KT 9999 -SHRA FEW015 BKN030 BKN080 04/02 Q0993 RMK 2ST015 6SC030 7AC080 A2934 FCST 0615 BECMG 1112 NSW;EQDQ01+000003PRSWM1Q02    003PRSWM1
0238474905999992000042807004+42900+143170FM-15+0084RJCT V0203201N004110075019N0112651N1+00501+00101999999ADDGA1021+004509999GA2071+007509999GA3071+024009999GF107991999999999999999999MA1099391999999MW1801REMMET096RJCT 280700Z 32008KT 9999 -SHRA FEW015 BKN025 BKN080 05/01 Q0994 RMK 2ST015 5SC025 7AC080 A2935;EQDQ01+000003PRSWM1Q02    003PRSWM1
0244474905999992000042808004+42900+143170FM-15+0084RJCT V0203101N005110060019N0112651N1+00401+00001999999ADDGA1021+003009999GA2071+006009999GA3071+024009999GF107991999999999999999999MA1099391999999MW1001OC101131REMMET110RJCT 280800Z 31010G22KT 9999 FEW010 BKN020 BKN080 04/M00 Q0994 RMK 2ST010 5SC020 7AS080 A2937 FCST 0817 NOSIG;EQDQ01+000000PRSWM2
0217474905999992000042900004+42900+143170FM-15+0084RJCT V0203201N006710105019N0112651N1+00501-00201999999ADDGA1021+007509999GA2071+010509999GA3071+027009999GF107991999999999999999999MA1100311999999MW1001REMMET091RJCT 290000Z 32013KT 9999 FEW025 BKN035 BKN090 05/M02 Q1003 RMK 1CU025 5SC035 6AC090 A2962;EQDQ01+000000PRSWM2
0228474905999992000042901004+42900+143170FM-15+0084RJCT V0203101N008210105019N0112651N1+00701-00101999999ADDGA1021+007509999GA2071+010509999GA3071+027009999GF107991999999999999999999MA1100311999999MW1001OC101341REMMET094RJCT 290100Z 31016G26KT 9999 FEW025 BKN035 BKN090 07/M01 Q1003 RMK 1CU025 5SC035 6AC090 A2963;EQDQ01+000000PRSWM2
0227474905999992000042902004+42900+143170FM-15+0084RJCT V0203101N008710270019N0112651N1+00901+00001999999ADDGA1021+007509999GA2021+010509999GA3071+027009999GF107991999999999999999999MA1100311999999MW1001OC101491REMMET093RJCT 290200Z 31017G29KT 9999 FEW025 SCT035 BKN090 09/00 Q1003 RMK 1CU025 3SC035 5AC090 A2964;EQDQ01+000000PRSWM2
0225474905999992000050100004+42900+143170FM-15+0084RJCT V0200201N001010630019N0112651N1+00901+00301999999ADDGA1021+007509999GA2071+063009999GF107991999999999999999999MA1101391999999MW1001REMMET115RJCT 010000Z 02002KT 9999 FEW025 BKN210 09/03 Q1014 RMK 1SC025 6CI210 A2995 FCST 0009 BECMG 0507 SCT020CU BKN030CU;EQDQ01+000000PRSWM2
0186474905999992000050101004+42900+143170FM-15+0084RJCT V02099999999990660019N0112651N1+01101+00401999999ADDGA1021+007509999GA2071+066009999GF107991999999999999999999MA1101391999999MW1001REMMET076RJCT 010100Z VRB02KT 9999 FEW025 BKN220 11/04 Q1014 RMK 1SC025 6CI220 A2994;EQDQ01+000000PRSWM2
0186474905999992000050102004+42900+143170FM-15+0084RJCT V0201401N001510660019N0112651N1+01201+00301999999ADDGA1021+009009999GA2071+066009999GF107991999999999999999999MA1101291999999MW1001REMMET076RJCT 010200Z 14003KT 9999 FEW030 BKN220 12/03 Q1013 RMK 1SC030 7CI220 A2993;EQDQ01+000000PRSWM2
0255474905999992000050103004+42900+143170FM-15+0084RJCT V02099999999990660019N0112651N1+01301+00501999999ADDGA1021+009009999GA2021+033009999GA3071+066009999GF107991999999999999999999MA1101291999999MW1001REMMET129RJCT 010300Z VRB03KT 9999 FEW030 SCT110 BKN220 13/05 Q1013 RMK 1SC030 3AC110 6CI220 A2991 FCST 0312 BECMG 0507 SCT020CU BKN030CU;EQDQ01+000000PRSWM2
0216474905999992000050104004+42900+143170FM-15+0084RJCT V0201101N002110630019N0112651N1+01501+00601999999ADDGA1021+009009999GA2021+045009999GA3071+063009999GF107991999999999999999999MA1101191999999MW1001REMMET090RJCT 010400Z 11004KT 9999 FEW030 SCT150 BKN210 15/06 Q1012 RMK 1SC030 3AC150 7CI210 A2990;EQDQ01+000000PRSWM2
0216474905999992000050105004+42900+143170FM-15+0084RJCT V0201101N003610390019N0112651N1+01501+00601999999ADDGA1021+009009999GA2071+039009999GA3071+063009999GF107991999999999999999999MA1101191999999MW1001REMMET090RJCT 010500Z 11007KT 9999 FEW030 BKN130 BKN210 15/06 Q1012 RMK 1CU030 6AC130 7CI210 A2988;EQDQ01+000000PRSWM2
0275474905999992000050106004+42900+143170FM-15+0084RJCT V0201501N004110630019N0112651N1+01401+00601999999ADDGA1021+009009999GA2021+039009999GA3071+063009999GF107991999999999999999999MA1101191999999MW1001REMMET149RJCT 010600Z 15008KT 9999 FEW030 SCT130 BKN210 14/06 Q1012 RMK 1CU030 4AC130 6CI210 A2988 FCST 0615 BECMG 0607 FEW015ST BKN100AC TEMPO 1011 BKN015ST;EQDQ01+000000PRSWM2
0186474905999992000050107004+42900+143170FM-15+0084RJCT V0201301N003110390019N0112651N1+01401+00601999999ADDGA1021+009009999GA2071+039009999GF107991999999999999999999MA1101081999999MW1001REMMET076RJCT 010700Z 13006KT 9999 FEW030 BKN130 14/06 Q1011 RMK 1CU030 5AC130 A2988;EQDQ01+000000PRSWM2
0255474905999992000050108004+42900+143170FM-15+0084RJCT V0201601N004110390019N0112651N1+01201+00601999999ADDGA1021+009009999GA2071+039009999GA3071+063009999GF107991999999999999999999MA1101191999999MW1001REMMET129RJCT 010800Z 16008KT 9999 FEW030 BKN130 BKN210 12/06 Q1012 RMK 1CU030 5AC130 6CI210 A2988 FCST 0817 BECMG 1011 BKN015ST OVC100AC;EQDQ01+000000PRSWM2
0298474905999992000050123004+42900+143170FM-15+0084RJCT V0202801N001010015019N0025001N1+00801+00701999999ADDGA1071+001509999GA2071+003609999GA3081+006009999GF108991999999999999999999MA1101591999999MW1101REMMET156RJCT 012300Z 28002KT 2500 BR BKN005 BKN012 OVC020 08/07 Q1016 RMK 5ST005 6ST012 8SC020 A3001 FCST 2308 BECMG 0102 NSW BKN015SC TEMPO 0708 BKN008ST BKN015SC;EQDQ01+000003PRSWM1Q02    003PRSWM1
0298474905999992000050200004+42900+143170FM-15+0084RJCT V0200401N001010015019N0023001N1+00901+00701999999ADDGA1071+001509999GA2071+003609999GA3081+006009999GF108991999999999999999999MA1101591999999MW1101REMMET156RJCT 020000Z 04002KT 2300 BR BKN005 BKN012 OVC020 09/07 Q1016 RMK 5ST005 6ST012 8SC020 A3002 FCST 0009 BECMG 0102 NSW BKN015SC TEMPO 0709 BKN008ST BKN015SC;EQDQ01+000003PRSWM1Q02    003PRSWM1
0205474905999992000050201004+42900+143170FM-15+0084RJCT V0201801N000510018019N0035001N1+00901+00701999999ADDGA1071+001809999GA2081+003009999GF108991999999999999999999MA1101591999999MW1101REMMET079RJCT 020100Z 18001KT 3500 BR BKN006 OVC010 09/07 Q1016 RMK 5ST006 8ST010 A3002;EQDQ01+000003PRSWM1Q02    003PRSWM1
0205474905999992000050202004+42900+143170FM-15+0084RJCT V0201901N000510021019N0040001N1+01001+00801999999ADDGA1071+002109999GA2081+003609999GF108991999999999999999999MA1101591999999MW1101REMMET079RJCT 020200Z 19001KT 4000 BR BKN007 OVC012 10/08 Q1016 RMK 5ST007 8ST012 A3002;EQDQ01+000003PRSWM1Q02    003PRSWM1
0259474905999992000050203004+42900+143170FM-15+0084RJCT V0201601N002110045019N0040001N1+01201+00801999999ADDGA1021+002409999GA2081+004509999GF108991999999999999999999MA1101591999999MW1101REMMET133RJCT 020300Z 16004KT 4000 BR SCT008 OVC015 12/08 Q1016 RMK 4ST008 8ST015 A3001 FCST 0312 TEMPO 0407 NSW TEMPO 0712 BKN008ST OVC015SC;EQDQ01+000003PRSWM1Q02    003PRSWM1
0216474905999992000050203124+42900+143170FM-16+0084RJCT V0201201N002110045019N0070001N1+01201+00801999999ADDGA1021+002409999GA2071+004509999GA3071+006009999GF107991999999999999999999MA1101591999999MW1001REMMET090RJCT 020312Z 12004KT 7000 SCT008 BKN015 BKN020 12/08 Q1016 RMK 4ST008 6ST015 7SC020 A3001;EQDQ01+000000PRSWM2
0216474905999992000050204004+42900+143170FM-15+0084RJCT V0201501N002110045019N0070001N1+01301+00901999999ADDGA1021+002409999GA2071+004509999GA3071+006009999GF107991999999999999999999MA1101591999999MW1001REMMET090RJCT 020400Z 15004KT 7000 SCT008 BKN015 BKN020 13/09 Q1016 RMK 4ST008 6ST015 7SC020 A3001;EQDQ01+000000PRSWM2
0216474905999992000050205004+42900+143170FM-15+0084RJCT V0201401N002110045019N0070001N1+01401+00901999999ADDGA1021+002409999GA2071+004509999GA3071+006009999GF107991999999999999999999MA1101491999999MW1001REMMET090RJCT 020500Z 14004KT 7000 FEW008 BKN015 BKN020 14/09 Q1015 RMK 2ST008 5ST015 7SC020 A2999;EQDQ01+000000PRSWM2
0255474905999992000050206004+42900+143170FM-15+0084RJCT V0201201N001010075019N0112651N1+01401+00901999999ADDGA1021+002409999GA2021+003909999GA3071+007509999GF107991999999999999999999MA1101491999999MW1001REMMET129RJCT 020600Z 12002KT 9999 FEW008 SCT013 BKN025 14/09 Q1015 RMK 1ST008 3ST013 6SC025 A2999 FCST 0615 TEMPO 1015 BKN008ST OVC015SC;EQDQ01+000000PRSWM2
0255474905999992000050208004+42900+143170FM-15+0084RJCT V0201201N004110090019N0112651N1+01301+01001999999ADDGA1021+003009999GA2021+006009999GA3071+009009999GF107991999999999999999999MA1101491999999MW1001REMMET129RJCT 020800Z 12008KT 9999 FEW010 SCT020 BKN030 13/10 Q1015 RMK 1ST010 3SC020 5CU030 A2999 FCST 0817 TEMPO 1016 BKN008ST OVC015SC;EQDQ01+000000PRSWM2
0176474905999992000050222194+42900+143170FM-16+0084RJCT V0201401N001010009019N0060001N1+00901+00901999999ADDGA1081+000909999GF108991999999999999999999MA1101591999999MW1511REMMET066RJCT 022219Z 14002KT 6000 -DZ OVC003 09/09 Q1016 RMK 8ST003 A3000;EQDQ01+000003PRSWM1Q02    003PRSWM1
0228474905999992000050300004+42900+143170FM-15+0084RJCT V0201701N001510015019N0080001N1+01001+00901999999ADDGA1081+001509999GF108991999999999999999999MA1101591999999MW1511REMMET118RJCT 030000Z 17003KT 8000 -DZ OVC005 10/09 Q1016 RMK 8ST005 A3000 FCST 0009 TEMPO 0305 NSW SCT008ST BKN015ST OVC020SC;EQDQ01+000003PRSWM1Q02    003PRSWM1
0176474905999992000050301004+42900+143170FM-15+0084RJCT V0201901N001010015019N0070001N1+01001+00901999999ADDGA1081+001509999GF108991999999999999999999MA1101591999999MW1511REMMET066RJCT 030100Z 19002KT 7000 -DZ OVC005 10/09 Q1016 RMK 8ST005 A3000;EQDQ01+000003PRSWM1Q02    003PRSWM1
0176474905999992000050301114+42900+143170FM-16+0084RJCT V0201501N000510012019N0060001N1+01001+01001999999ADDGA1081+001209999GF108991999999999999999999MA1101591999999MW1511REMMET066RJCT 030111Z 15001KT 6000 -DZ OVC004 10/10 Q1016 RMK 8ST004 A3000;EQDQ01+000003PRSWM1Q02    003PRSWM1
0206474905999992000050302004+42900+143170FM-15+0084RJCT V0201601N001510015019N0070001N1+01001+01001999999ADDGA1071+001509999GA2081+002409999GF108991999999999999999999MA1101591999999MW1511REMMET080RJCT 030200Z 16003KT 7000 -DZ BKN005 OVC008 10/10 Q1016 RMK 6ST005 8ST008 A3000;EQDQ01+000003PRSWM1Q02    003PRSWM1
0176474905999992000050304004+42900+143170FM-15+0084RJCT V0201401N003110012019N0060001N1+01001+01001999999ADDGA1081+001209999GF108991999999999999999999MA1101491999999MW1511REMMET066RJCT 030400Z 14006KT 6000 -DZ OVC004 10/10 Q1015 RMK 8ST004 A2998;EQDQ01+000003PRSWM1Q02    003PRSWM1
0257474905999992000050305264+42900+143170FM-16+0084RJCT V0201501N002110012019N0050001N1+01001+01001999999ADDGA1071+001209999GA2071+002709999GA3081+003609999GF108991999999999999999999MA1101491999999MW1801REMMET099RJCT 030526Z 15004KT 5000 -SHRA BR BKN004 BKN009 OVC012 10/10 Q1015 RMK 6ST004 7ST009 8ST012 A2998;EQDQ01+000100PRSWM3Q02+000003PRSWM1Q03    003PRSWM1
0190474905999992000050322334+42900+143170FM-16+0084RJCT V0201501N001510018019N0060001N1+00601+00501999999ADDGA1071+001809999GA2071+003609999GF107991999999999999999999MA1101591999999MW1001REMMET080RJCT COR 032233Z 15003KT 6000 BKN006 BKN012 06/05 Q1016 RMK 6ST006 7ST012 A3002;EQDQ01+000000PRSWM2
0225474905999992000050323004+42900+143170FM-15+0084RJCT V0201501N001510024019N0080001N1+00601+00501999999ADDGA1071+002409999GA2071+003609999GF107991999999999999999999MA1101591999999MW1001REMMET115RJCT 032300Z 15003KT 8000 BKN008 BKN012 06/05 Q1016 RMK 6ST008 7ST012 A3000 FCST 2308 BECMG 0203 BKN015ST BKN025CU;EQDQ01+000000PRSWM2
0186474905999992000050422004+42900+143170FM-15+0084RJCT V0201901N001510024019N0060001N1+00801+00701999999ADDGA1071+002409999GA2071+003609999GF107991999999999999999999MA1101801999999MW1001REMMET076RJCT 042200Z 19003KT 6000 BKN008 BKN012 08/07 Q1018 RMK 6ST008 7ST012 A3007;EQDQ01+000000PRSWM2
0225474905999992000050423004+42900+143170FM-15+0084RJCT V0201401N001510030019N0070001N1+00801+00601999999ADDGA1071+003009999GA2071+004509999GF107991999999999999999999MA1101801999999MW1001REMMET115RJCT 042300Z 14003KT 7000 BKN010 BKN015 08/06 Q1018 RMK 5ST010 7ST015 A3007 FCST 2308 BECMG 0304 SCT020CU BKN035CU;EQDQ01+000000PRSWM2
0254474905999992000050500004+42900+143170FM-15+0084RJCT V0201401N003110024019N0080001N1+00801+00701999999ADDGA1071+002409999GA2071+003609999GF107991999999999999999999MA1101801999999MW1001REMMET144RJCT 050000Z 14006KT 8000 BKN008 BKN012 08/07 Q1018 RMK 6ST008 7ST012 A3008 FCST 0009 BECMG 0001 BKN012ST BKN020CU BECMG 0304 SCT020CU BKN035CU;EQDQ01+000000PRSWM2
0186474905999992000050500104+42900+143170FM-16+0084RJCT V0201401N003110036019N0090001N1+00801+00701999999ADDGA1021+002709999GA2071+003609999GF107991999999999999999999MA1101801999999MW1001REMMET076RJCT 050010Z 14006KT 9000 SCT009 BKN012 08/07 Q1018 RMK 4ST009 7ST012 A3008;EQDQ01+000000PRSWM2
0186474905999992000050501004+42900+143170FM-15+0084RJCT V0201601N003110060019N0112651N1+00901+00601999999ADDGA1021+004509999GA2071+006009999GF107991999999999999999999MA1101901999999MW1001REMMET076RJCT 050100Z 16006KT 9999 SCT015 BKN020 09/06 Q1019 RMK 4ST015 7SC020 A3009;EQDQ01+000000PRSWM2
0186474905999992000050502004+42900+143170FM-15+0084RJCT V0201601N003610060019N0112651N1+01101+00601999999ADDGA1071+006009999GA2071+009009999GF107991999999999999999999MA1101901999999MW1001REMMET076RJCT 050200Z 16007KT 9999 BKN020 BKN030 11/06 Q1019 RMK 5SC020 6SC030 A3009;EQDQ01+000000PRSWM2
0202474905999992000050503004+42900+143170FM-15+0084RJCT V0201301N003110075019N0112651N1+01201+00601999999ADDGA1021+006009999GA2071+007509999GF107991999999999999999999MA1101801999999MW1001REMMET092RJCT 050300Z 13006KT 9999 SCT020 BKN025 12/06 Q1018 RMK 3SC020 6SC025 A3008 FCST 0312 NOSIG;EQDQ01+000000PRSWM2
0220474905999992000050723004+42900+143170FM-15+0084RJCT V0200901N00101000151CN0011001N1+01101+01001999999ADDGA1091+000159999GF109991999999000251999999MA1101801999999MW1101MW2511REMMET104RJCT 072300Z 09002KT 1100 BR -DZ VV002 11/10 Q1018 RMK A3008 FCST 2308 TEMPO 0205 NSW BKN008ST BKN015ST;EQDQ01+000003PRSWM1Q02    003PRSWM1
0263474905999992000050803004+42900+143170FM-15+0084RJCT V0201001N001510024019N0030001N1+01301+01101999999ADDGA1021+001509999GA2071+002409999GF107991999999999999999999MA1101591999999MW1101REMMET137RJCT 080300Z COR 10003KT 3000 BR FEW005 BKN008 13/11 Q1016 RMK 2ST005 7ST008 A3002 FCST COR 0312 BECMG 0406 1200 -SHRA BKN004ST OVC008ST;EQDQ01+000003PRSWM1Q02    003PRSWM1
0186474905999992000050803494+42900+143170FM-16+0084RJCT V0200301N000510054019N0112651N1+01401+01201999999ADDGA1021+002409999GA2071+005409999GF107991999999999999999999MA1101491999999MW1001REMMET076RJCT 080349Z 03001KT 9999 SCT008 BKN018 14/12 Q1015 RMK 4ST008 6SC018 A2999;EQDQ01+000000PRSWM2
0186474905999992000050805004+42900+143170FM-15+0084RJCT V0203001N003110060019N0112651N1+01501+01201999999ADDGA1021+003609999GA2071+006009999GF107991999999999999999999MA1101391999999MW1001REMMET076RJCT 080500Z 30006KT 9999 SCT012 BKN020 15/12 Q1014 RMK 3ST012 7SC020 A2996;EQDQ01+000000PRSWM2
0235474905999992000050807004+42900+143170FM-15+0084RJCT V0203101N001010069019N0040001N1+01401+01201999999ADDGA1021+003009999GA2071+006909999GA3071+063009999GF107991999999999999999999MA1101291999999MW1101REMMET093RJCT 080700Z 31002KT 4000 BR SCT010 BKN023 BKN210 14/12 Q1013 RMK 3ST010 6SC023 7CI210 A2993;EQDQ01+000003PRSWM1Q02    003PRSWM1
0247474905999992000050807274+42900+143170FM-16+0084RJCT V0202901N001010060019N0035001N1+01401+01201999999ADDGA1021+002409999GA2071+006009999GA3081+024009999GF108991999999999999999999MA1101291999999MW1101MW2801REMMET099RJCT 080727Z 29002KT 3500 BR -SHRA SCT008 BKN020 OVC080 14/12 Q1013 RMK 3ST008 6SC020 8AC080 A2992;EQDQ01+000003PRSWM1Q02    003PRSWM1
0233474905999992000050808004+42900+143170FM-15+0084RJCT V0202301N001010024019N0035001N1+01301+01201999999ADDGA1071+002409999GA2081+006009999GF108991999999999999999999MA1101291999999MW1101MW2801REMMET101RJCT 080800Z 23002KT 3500 -SHRA BR BKN008 OVC020 13/12 Q1013 RMK 5ST008 8SC020 A2992 FCST 0817 NOSIG;EQDQ01+000003PRSWM1Q02    003PRSWM1
0205474905999992000050822004+42900+143170FM-15+0084RJCT V0203101N001010009019N0025001N1+01001+01001999999ADDGA1071+000909999GA2071+003009999GF107991999999999999999999MA1101391999999MW1101REMMET079RJCT 082200Z 31002KT 2500 BR BKN003 BKN010 10/10 Q1014 RMK 5ST003 7ST010 A2994;EQDQ01+000003PRSWM1Q02    003PRSWM1
0246474905999992000050823004+42900+143170FM-15+0084RJCT V0200401N001010630019N0070001N1+01101+01001999999ADDGA1021+001809999GA2021+007509999GA3071+063009999GF107991999999999999999999MA1101391999999MW1001REMMET120RJCT 082300Z 04002KT 7000 SCT006 SCT025 BKN210 11/10 Q1014 RMK 3ST006 4SC025 5CI210 A2994 FCST 2308 BECMG 0708 BKN020SC;EQDQ01+000000PRSWM2
0246474905999992000050900004+42900+143170FM-15+0084RJCT V0200301N000510630019N0112651N1+01401+01101999999ADDGA1021+003009999GA2021+007509999GA3071+063009999GF107991999999999999999999MA1101291999999MW1001REMMET120RJCT 090000Z 03001KT 9999 FEW010 SCT025 BKN210 14/11 Q1013 RMK 1ST010 4CU025 5CI210 A2992 FCST 0009 BECMG 0708 BKN020SC;EQDQ01+000000PRSWM2
0216474905999992000050901004+42900+143170FM-15+0084RJCT V0203301N001010630019N0112651N1+01501+01001999999ADDGA1021+005409999GA2021+007509999GA3071+063009999GF107991999999999999999999MA1101291999999MW1001REMMET090RJCT 090100Z 33002KT 9999 SCT018 SCT025 BKN210 15/10 Q1013 RMK 3ST018 4CU025 5CI210 A2992;EQDQ01+000000PRSWM2
0216474905999992000050902004+42900+143170FM-15+0084RJCT V02099999999990630019N0112651N1+01601+00901999999ADDGA1021+004509999GA2021+007509999GA3071+063009999GF107991999999999999999999MA1101291999999MW1001REMMET090RJCT 090200Z VRB03KT 9999 FEW015 SCT025 BKN210 16/09 Q1013 RMK 1ST015 4CU025 6CI210 A2992;EQDQ01+000000PRSWM2
0216474905999992000050903004+42900+143170FM-15+0084RJCT V02099999999990630019N0112651N1+01701+01001999999ADDGA1021+007509999GA2071+063009999GF107991999999999999999999MA1101291999999MW1001REMMET106RJCT 090300Z VRB03KT 9999 SCT025 BKN210 17/10 Q1013 RMK 3CU025 6CI210 A2992 FCST 0312 BECMG 0709 BKN020SC;EQDQ01+000000PRSWM2
0186474905999992000050904004+42900+143170FM-15+0084RJCT V0202201N001512200019N0112651N1+01801+01001999999ADDGA1021+007509999GA2021+030009999GF104991999999999999999999MA1101291999999MW1001REMMET076RJCT 090400Z 22003KT 9999 SCT025 SCT100 18/10 Q1013 RMK 4CU025 3AC100 A2992;EQDQ01+000000PRSWM2
0216474905999992000050905004+42900+143170FM-15+0084RJCT V02099999999990630019N0112651N1+01901+01001999999ADDGA1021+007509999GA2021+010509999GA3071+063009999GF107991999999999999999999MA1101191999999MW1001REMMET090RJCT 090500Z VRB03KT 9999 FEW025 SCT035 BKN210 19/10 Q1012 RMK 2CU025 3SC035 7CI210 A2991;EQDQ01+000000PRSWM2
0250474905999992000050906004+42900+143170FM-15+0084RJCT V0201901N003110630019N0112651N1+02001+00901999999ADDGA1021+007509999GA2021+012009999GA3071+063009999GF107991999999999999999999MA1101191999999MW1001REMMET124RJCT 090600Z COR 19006KT 9999 SCT025 SCT040 BKN210 20/09 Q1012 RMK 3CU025 3SC040 5CI210 A2990 FCST 0615 BECMG 0709 BKN020SC;EQDQ01+000000PRSWM2
0216474905999992000050907004+42900+143170FM-15+0084RJCT V0201701N004112200019N0112651N1+02001+01001999999ADDGA1021+007509029GA2021+063009999GF104991999999999999999999MA1101191999999MW1001REMMET106RJCT 090700Z 17008KT 9999 SCT025TCU SCT210 20/10 Q1012 RMK 3TCU025 4CI210 A2991 TCU 15KM NW AND OHD MOV E;EQDQ01+000000PRSWM2
0263474905999992000050908004+42900+143170FM-15+0084RJCT V0201601N006212200019N0112651N1+01601+01201999999ADDGA1021+003009999GA2021+007509029GA3021+009009999GF104991999999999999999999MA1101291999999MW1001REMMET137RJCT 090800Z 16012KT 9999 FEW010 FEW025TCU SCT030 16/12 Q1013 RMK 1SC010 2TCU025 4CU030 A2993 TCU OHD STNR FCST 0817 BECMG 0910 BKN025CU;EQDQ01+000000PRSWM2
0235474905999992000050921004+42900+143170FM-15+0084RJCT V0203401N000510009019N0025001N1+01101+01101999999ADDGA1021+000609999GA2071+000909999GA3081+006009999GF108991999999999999999999MA1101801999999MW1101REMMET093RJCT 092100Z 34001KT 2500 BR FEW002 BKN003 OVC020 11/11 Q1018 RMK 1ST002 6ST003 8SC020 A3008;EQDQ01+000003PRSWM1Q02    003PRSWM1
0216474905999992000050922004+42900+143170FM-15+0084RJCT V0203201N001010018019N0080001N1+01201+01101999999ADDGA1071+001809999GA2071+007509999GA3071+015009999GF107991999999999999999999MA1101901999999MW1001REMMET090RJCT 092200Z 32002KT 8000 BKN006 BKN025 BKN050 12/11 Q1019 RMK 5ST006 5SC025 6SC050 A3009;EQDQ01+000000PRSWM2
0186474905999992000050922334+42900+143170FM-16+0084RJCT V0203601N001010036019N0112651N1+01201+01001999999ADDGA1021+002409999GA2081+003609999GF108991999999999999999999MA1101901999999MW1001REMMET076RJCT 092233Z 36002KT 9999 SCT008 OVC012 12/10 Q1019 RMK 4ST008 8ST012 A3010;EQDQ01+000000PRSWM2
0216474905999992000050923004+42900+143170FM-15+0084RJCT V0200401N001510120019N0112651N1+01301+01001999999ADDGA1021+003009999GA2071+012009999GF107991999999999999999999MA1101901999999MW1001REMMET106RJCT 092300Z 04003KT 9999 SCT010 BKN040 13/10 Q1019 RMK 3ST010 7SC040 A3009 FCST 2308 BECMG 0103 SCT030CU;EQDQ01+000000PRSWM2
0186474905999992000050923154+42900+143170FM-16+0084RJCT V0200401N001010039019N0112651N1+01301+01001999999ADDGA1071+003909999GA2071+012009999GF107991999999999999999999MA1101901999999MW1001REMMET076RJCT 092315Z 04002KT 9999 BKN013 BKN040 13/10 Q1019 RMK 5ST013 7SC040 A3010;EQDQ01+000000PRSWM2
0216474905999992000051000004+42900+143170FM-15+0084RJCT V0200901N001510045019N0112651N1+01401+01101999999ADDGA1071+004509999GA2081+005409999GF108991999999999999999999MA1101901999999MW1001REMMET106RJCT 100000Z 09003KT 9999 BKN015 OVC018 14/11 Q1019 RMK 6ST015 8ST018 A3009 FCST 0009 BECMG 0103 SCT030CU;EQDQ01+000000PRSWM2
0186474905999992000051001004+42900+143170FM-15+0084RJCT V0201201N001010045019N0112651N1+01401+01101999999ADDGA1071+004509999GA2081+015009999GF108991999999999999999999MA1101901999999MW1001REMMET076RJCT 100100Z 12002KT 9999 BKN015 OVC050 14/11 Q1019 RMK 6ST015 8SC050 A3009;EQDQ01+000000PRSWM2
0216474905999992000051002004+42900+143170FM-15+0084RJCT V0201901N001510060019N0112651N1+01501+01101999999ADDGA1021+004509999GA2071+006009999GA3071+015009999GF107991999999999999999999MA1101901999999MW1001REMMET090RJCT 100200Z 19003KT 9999 SCT015 BKN020 BKN050 15/11 Q1019 RMK 3ST015 6CU020 7SC050 A3009;EQDQ01+000000PRSWM2
0232474905999992000051003004+42900+143170FM-15+0084RJCT V0201301N003110150019N0112651N1+01701+01201999999ADDGA1021+004509999GA2021+006009999GA3071+015009999GF107991999999999999999999MA1101801999999MW1001REMMET106RJCT 100300Z 13006KT 9999 FEW015 SCT020 BKN050 17/12 Q1018 RMK 1ST015 3CU020 5SC050 A3008 FCST 0312 NOSIG;EQDQ01+000000PRSWM2
0232474905999992000051006004+42900+143170FM-15+0084RJCT V0201901N004110090019N0112651N1+01601+01201999999ADDGA1021+004509999GA2021+006009999GA3071+009009999GF107991999999999999999999MA1101691999999MW1001REMMET106RJCT 100600Z 19008KT 9999 FEW015 SCT020 BKN030 16/12 Q1017 RMK 1SC015 3CU020 6CU030 A3005 FCST 0615 NOSIG;EQDQ01+000000PRSWM2
0216474905999992000051007004+42900+143170FM-15+0084RJCT V0201801N005110090019N0112651N1+01401+01101999999ADDGA1021+004509999GA2021+006009999GA3071+009009999GF107991999999999999999999MA1101691999999MW1001REMMET090RJCT 100700Z 18010KT 9999 FEW015 SCT020 BKN030 14/11 Q1017 RMK 1SC015 3CU020 6CU030 A3005;EQDQ01+000000PRSWM2
0232474905999992000051008004+42900+143170FM-15+0084RJCT V0201901N005110090019N0112651N1+01501+01101999999ADDGA1021+004509999GA2021+006009999GA3071+009009999GF107991999999999999999999MA1101691999999MW1001REMMET106RJCT 100800Z 19010KT 9999 FEW015 SCT020 BKN030 15/11 Q1017 RMK 1SC015 3CU020 5CU030 A3005 FCST 0817 NOSIG;EQDQ01+000000PRSWM2
0206474905999992000051022004+42900+143170FM-15+0084RJCT V0201401N003110030019N0060001N1+00901+00901999999ADDGA1021+001809999GA2071+003009999GF107991999999999999999999MA1101901999999MW1511REMMET080RJCT 102200Z 14006KT 6000 -DZ SCT006 BKN010 09/09 Q1019 RMK 3ST006 7ST010 A3009;EQDQ01+000003PRSWM1Q02    003PRSWM1
0240474905999992000051023004+42900+143170FM-15+0084RJCT V0201601N004110030019N0050001N1+00901+00901999999ADDGA1021+001809999GA2071+003009999GF107991999999999999999999MA1101901999999MW1101MW2511REMMET108RJCT 102300Z 16008KT 5000 BR -DZ SCT006 BKN010 09/09 Q1019 RMK 3ST006 7ST010 A3011 FCST 2308 BECMG 0002 NSW;EQDQ01+000003PRSWM1Q02    003PRSWM1
0186474905999992000051100364+42900+143170FM-16+0084RJCT V0201301N002610030019N0112651N1+01001+00901999999ADDGA1021+002109999GA2071+003009999GF107991999999999999999999MA1101901999999MW1001REMMET076RJCT 110036Z 13005KT 9999 SCT007 BKN010 10/09 Q1019 RMK 3ST007 7ST010 A3010;EQDQ01+000000PRSWM2
0206474905999992000051103244+42900+143170FM-16+0084RJCT V0201401N001510036019N0112651N1+01101+00901999999ADDGA1021+002409999GA2071+003609999GF107991999999999999999999MA1101801999999MW1511REMMET080RJCT 110324Z 14003KT 9999 -DZ SCT008 BKN012 11/09 Q1018 RMK 3ST008 7ST012 A3007;EQDQ01+000003PRSWM1Q02    003PRSWM1
0206474905999992000051103464+42900+143170FM-16+0084RJCT V0201401N001510027019N0070001N1+01001+00901999999ADDGA1021+002409999GA2081+002709999GF108991999999999999999999MA1101801999999MW1511REMMET080RJCT 110346Z 14003KT 7000 -DZ SCT008 OVC009 10/09 Q1018 RMK 3ST008 8ST009 A3007;EQDQ01+000003PRSWM1Q02    003PRSWM1
0245474905999992000051105004+42900+143170FM-15+0084RJCT V0201801N002110024019N0040001N1+01001+01001999999ADDGA1021+001209999GA2021+001509999GA3071+002409999GF107991999999999999999999MA1101801999999MW1101MW2511REMMET097RJCT 110500Z 18004KT 4000 BR -DZ FEW004 SCT005 BKN008 10/10 Q1018 RMK 2ST004 4ST005 7ST008 A3006;EQDQ01+000003PRSWM1Q02    003PRSWM1
0236474905999992000051105374+42900+143170FM-16+0084RJCT V0201901N002110027019N0060001N1+01001+01001999999ADDGA1021+001509999GA2021+002409999GA3071+002709999GF107991999999999999999999MA1101691999999MW1511REMMET094RJCT 110537Z 19004KT 6000 -DZ FEW005 SCT008 BKN009 10/10 Q1017 RMK 1ST005 3ST008 7ST009 A3005;EQDQ01+000003PRSWM1Q02    003PRSWM1
0314474905999992000051106004+42900+143170FM-15+0084RJCT V0201701N002610027019N0060001N1+01001+01001999999ADDGA1021+001509999GA2021+002409999GA3081+002709999GF108991999999999999999999MA1101691999999MW1511REMMET172RJCT 110600Z 17005KT 6000 -DZ SCT005 SCT008 OVC009 10/10 Q1017 RMK 3ST005 3ST008 8ST009 A3005 FCST 0615 TEMPO 0710 4000 SCT006ST BKN007ST BECMG 1011 4000 SCT004ST BKN006ST;EQDQ01+000003PRSWM1Q02    003PRSWM1
0216474905999992000051107004+42900+143170FM-15+0084RJCT V0201701N002110030019N0112651N1+01001+01001999999ADDGA1021+001809999GA2021+002409999GA3081+003009999GF108991999999999999999999MA1101691999999MW1001REMMET090RJCT 110700Z 17004KT 9999 FEW006 SCT008 OVC010 10/10 Q1017 RMK 1ST006 3ST008 8ST010 A3005;EQDQ01+000000PRSWM2
0236474905999992000051202004+42900+143170FM-15+0084RJCT V0202301N001510036019N0035001N1+00901+00901999999ADDGA1021+000909999GA2021+002409999GA3081+003609999GF108991999999999999999999MA1101691999999MW1611REMMET094RJCT 120200Z 23003KT 3500 -RA SCT003 SCT008 OVC012 09/09 Q1017 RMK 3ST003 4ST008 8ST012 A3005;EQDQ01+000003PRSWM1Q02    003PRSWM1
0275474905999992000051203004+42900+143170FM-15+0084RJCT V0201901N001510024019N0025001N1+01001+01001999999ADDGA1021+000909999GA2071+002409999GA3081+003609999GF108991999999999999999999MA1101691999999MW1101MW2511REMMET127RJCT 120300Z 19003KT 2500 -DZ BR SCT003 BKN008 OVC012 10/10 Q1017 RMK 3ST003 5ST008 8ST012 A3005 FCST 0312 TEMPO 0307 BKN012ST;EQDQ01+000003PRSWM1Q02    003PRSWM1
0245474905999992000051203504+42900+143170FM-15+0084RJCT V0202101N001010018019N0018001N1+01001+01001999999ADDGA1021+000909999GA2071+001809999GA3081+003009999GF108991999999999999999999MA1101691999999MW1101MW2511REMMET097RJCT 120350Z 21002KT 1800 -DZ BR SCT003 BKN006 OVC010 10/10 Q1017 RMK 3ST003 5ST006 8ST010 A3004;EQDQ01+000003PRSWM1Q02    003PRSWM1
0245474905999992000051204004+42900+143170FM-15+0084RJCT V0202201N001010015019N0018001N1+01001+01001999999ADDGA1021+000909999GA2071+001509999GA3081+003009999GF108991999999999999999999MA1101691999999MW1101MW2511REMMET097RJCT 120400Z 22002KT 1800 -DZ BR SCT003 BKN005 OVC010 10/10 Q1017 RMK 3ST003 5ST005 8ST010 A3004;EQDQ01+000003PRSWM1Q02    003PRSWM1
0245474905999992000051204254+42900+143170FM-15+0084RJCT V0201701N001010021019N0018001N1+01001+01001999999ADDGA1021+001209999GA2071+002109999GA3081+003609999GF108991999999999999999999MA1101691999999MW1101MW2611REMMET097RJCT 120425Z 17002KT 1800 -RA BR SCT004 BKN007 OVC012 10/10 Q1017 RMK 3ST004 5ST007 8ST012 A3004;EQDQ01+000003PRSWM1Q02    003PRSWM1
0261474905999992000051206004+42900+143170FM-15+0084RJCT V0201701N002610018019N0016001N1+01001+01001999999ADDGA1021+000909999GA2071+001809999GA3081+003009999GF108991999999999999999999MA1101591999999MW1101MW2611REMMET113RJCT 120600Z 17005KT 1600 -RA BR SCT003 BKN006 OVC010 10/10 Q1016 RMK 3ST003 5ST006 8ST010 A3002 FCST 0615 NOSIG;EQDQ01+000003PRSWM1Q02    003PRSWM1
0255474905999992000051206314+42900+143170FM-16+0084RJCT V0201601N003110018019N0012001N1+01001+01001999999ADDGA1021+000909999GA2071+001809999GA3081+003009999GF108991999999999999999999MA1101591999999MW1611REMMET097RJCT 120631Z 16006KT 1200 -RA BR SCT003 BKN006 OVC010 10/10 Q1016 RMK 4ST003 6ST006 8ST010 A3001;EQDQ01+000100PRSWM3Q02+000003PRSWM1Q03    003PRSWM1
0245474905999992000051207004+42900+143170FM-15+0084RJCT V0201601N002110015019N0016001N1+01001+01001999999ADDGA1021+000909999GA2071+001509999GA3081+003009999GF108991999999999999999999MA1101591999999MW1101MW2611REMMET097RJCT 120700Z 16004KT 1600 -RA BR SCT003 BKN005 OVC010 10/10 Q1016 RMK 4ST003 5ST005 8ST010 A3001;EQDQ01+000003PRSWM1Q02    003PRSWM1
0261474905999992000051208004+42900+143170FM-15+0084RJCT V0201401N002610015019N0020001N1+01001+01001999999ADDGA1021+000909999GA2071+001509999GA3081+003009999GF108991999999999999999999MA1101591999999MW1101MW2611REMMET113RJCT 120800Z 14005KT 2000 -RA BR SCT003 BKN005 OVC010 10/10 Q1016 RMK 4ST003 5ST005 8ST010 A3001 FCST 0817 NOSIG;EQDQ01+000003PRSWM1Q02    003PRSWM1
0217474905999992000051422004+42900+143170FM-15+0084RJCT V0202801N003610006019N0015001N1+01101+01101999999ADDGA1071+000609999GA2081+000909999GF108991999999999999999999MA1100711999999MW1101MW2801REMMET085RJCT 142200Z 28007KT 1500 -SHRA BR BKN002 OVC003 11/11 Q1007 RMK 5ST002 8ST003 A2976;EQDQ01+000003PRSWM1Q02    003PRSWM1
0294474905999992000051423004+42900+143170FM-15+0084RJCT V0202901N003110006019N0020001N1+01201+01201999999ADDGA1071+000609999GA2081+000909999GF108991999999999999999999MA1100711999999MW1101MW2801REMMET162RJCT 142300Z 29006KT 2000 -SHRA BR BKN002 OVC003 12/12 Q1007 RMK 6ST002 8ST003 A2975 FCST 2308 BECMG 0103 6000 NSW BKN010ST BKN015ST BECMG 0304 SCT015SC BKN020CU;EQDQ01+000003PRSWM1Q02    003PRSWM1
0257474905999992000051423214+42900+143170FM-16+0084RJCT V0202901N003110012019N0020001N1+01301+01301999999ADDGA1021+000609999GA2021+000909999GA3081+001209999GF108991999999999999999999MA1100711999999MW1801REMMET099RJCT 142321Z 29006KT 2000 -SHRA BR FEW002 SCT003 OVC004 13/13 Q1007 RMK 2ST002 4ST003 8ST004 A2974;EQDQ01+000100PRSWM3Q02+000003PRSWM1Q03    003PRSWM1
0324474905999992000051500004+42900+143170FM-15+0084RJCT V0203001N003110015019N0025001N1+01301+01301999999ADDGA1021+000609999GA2021+001209999GA3081+001509999GF108991999999999999999999MA1100711999999MW1101MW2801REMMET176RJCT 150000Z 30006KT 2500 -SHRA BR FEW002 SCT004 OVC005 13/13 Q1007 RMK 2ST002 4ST004 8ST005 A2974 FCST 0009 BECMG 0103 6000 NSW BKN010ST BKN015ST BECMG 0304 SCT015SC BKN020CU;EQDQ01+000003PRSWM1Q02    003PRSWM1
0247474905999992000051501004+42900+143170FM-15+0084RJCT V0203201N002610015019N0020001N1+01301+01301999999ADDGA1021+000609999GA2021+001209999GA3081+001509999GF108991999999999999999999MA1100711999999MW1101MW2801REMMET099RJCT 150100Z 32005KT 2000 -SHRA BR FEW002 SCT004 OVC005 13/13 Q1007 RMK 2ST002 4ST004 8ST005 A2974;EQDQ01+000003PRSWM1Q02    003PRSWM1
0247474905999992000051502004+42900+143170FM-15+0084RJCT V0202901N003110018019N0020001N1+01401+01301999999ADDGA1021+000909999GA2021+001209999GA3081+001809999GF108991999999999999999999MA1100611999999MW1101MW2801REMMET099RJCT 150200Z 29006KT 2000 -SHRA BR FEW003 SCT004 OVC006 14/13 Q1006 RMK 1ST003 4ST004 8ST006 A2973;EQDQ01+000003PRSWM1Q02    003PRSWM1
0236474905999992000051503004+42900+143170FM-15+0084RJCT V0203101N002610030019N0070001N1+01501+01301999999ADDGA1021+001509999GA2021+002409999GA3081+003009999GF108991999999999999999999MA1100611999999MW1001REMMET110RJCT 150300Z COR 31005KT 7000 FEW005 SCT008 OVC010 15/13 Q1006 RMK 1ST005 4ST008 8ST010 A2972 FCST 0312 NOSIG;EQDQ01+000000PRSWM2
0236474905999992000051504004+42900+143170FM-15+0084RJCT V0200301N001010030019N0112651N1+01501+01301999999ADDGA1021+001509999GA2021+002109999GA3071+003009999GF107991999999999999999999MA1100511999999MW1511REMMET094RJCT 150400Z 03002KT 9999 -DZ FEW005 SCT007 BKN010 15/13 Q1005 RMK 1ST005 3ST007 7ST010 A2970;EQDQ01+000003PRSWM1Q02    003PRSWM1
0216474905999992000051504414+42900+143170FM-16+0084RJCT V02099999999990075019N0112651N1+01601+01301999999ADDGA1021+002109999GA2021+003009999GA3071+007509999GF107991999999999999999999MA1100511999999MW1001REMMET090RJCT 150441Z VRB01KT 9999 FEW007 SCT010 BKN025 16/13 Q1005 RMK 1ST007 3ST010 7CU025 A2969;EQDQ01+000000PRSWM2
0216474905999992000051505004+42900+143170FM-15+0084RJCT V02099999999990075019N0112651N1+01601+01301999999ADDGA1021+002109999GA2021+003009999GA3071+007509999GF107991999999999999999999MA1100511999999MW1001REMMET090RJCT 150500Z VRB01KT 9999 FEW007 SCT010 BKN025 16/13 Q1005 RMK 1ST007 3ST010 7CU025 A2968;EQDQ01+000000PRSWM2
0238474905999992000051505114+42900+143170FM-16+0084RJCT V02099999999990075019N0060001N1+01601+01301999999ADDGA1021+001809999GA2021+003009999GA3071+007509999GF107991999999999999999999MA1100511999999MW1801REMMET096RJCT 150511Z VRB02KT 6000 -SHRA FEW006 SCT010 BKN025 16/13 Q1005 RMK 1ST006 3ST010 7CU025 A2968;EQDQ01+000003PRSWM1Q02    003PRSWM1
0232474905999992000051506004+42900+143170FM-15+0084RJCT V0201201N002110075019N0112651N1+01501+01401999999ADDGA1021+002109999GA2021+004509999GA3071+007509999GF107991999999999999999999MA1100411999999MW1001REMMET106RJCT 150600Z 12004KT 9999 FEW007 SCT015 BKN025 15/14 Q1004 RMK 1ST007 3SC015 7CU025 A2967 FCST 0615 NOSIG;EQDQ01+000000PRSWM2
0242474905999992000051506224+42900+143170FM-16+0084RJCT V0200601N002110090019N0112651N1+01501+01401999999ADDGA1021+002109999GA2021+004509999GA3071+009009999GF107991999999999999999999MA1100411999999MW1801REMMET100RJCT COR 150622Z 06004KT 9999 -SHRA FEW007 SCT015 BKN030 15/14 Q1004 RMK 1ST007 3SC015 7CU030 A2967;EQDQ01+000003PRSWM1Q02    003PRSWM1
0216474905999992000051507004+42900+143170FM-15+0084RJCT V0203301N002610105019N0112651N1+01601+01201999999ADDGA1021+001809999GA2021+004509999GA3071+010509999GF107991999999999999999999MA1100411999999MW1001REMMET090RJCT 150700Z 33005KT 9999 FEW006 SCT015 BKN035 16/12 Q1004 RMK 1ST006 3CU015 6CU035 A2967;EQDQ01+000000PRSWM2
0238474905999992000051507414+42900+143170FM-16+0084RJCT V0203201N004110090019N0112651N1+01501+01101999999ADDGA1021+001809999GA2021+004509999GA3071+009009999GF107991999999999999999999MA1100511999999MW1801REMMET096RJCT 150741Z 32008KT 9999 -SHRA FEW006 SCT015 BKN030 15/11 Q1005 RMK 1ST006 3CU015 6CU030 A2967;EQDQ01+000003PRSWM1Q02    003PRSWM1
0232474905999992000051508004+42900+143170FM-15+0084RJCT V0203201N003110090019N0112651N1+01501+01101999999ADDGA1021+001809999GA2021+004509999GA3071+009009999GF107991999999999999999999MA1100511999999MW1001REMMET106RJCT 150800Z 32006KT 9999 FEW006 SCT015 BKN030 15/11 Q1005 RMK 1ST006 3CU015 6CU030 A2968 FCST 0817 NOSIG;EQDQ01+000000PRSWM2
0216474905999992000051522004+42900+143170FM-15+0084RJCT V0200101N001510240019N0112651N1+01101+00701999999ADDGA1021+004509999GA2021+009009999GA3071+024009999GF107991999999999999999999MA1100611999999MW1001REMMET090RJCT 152200Z 01003KT 9999 FEW015 SCT030 BKN080 11/07 Q1006 RMK 1ST015 3CU030 5AC080 A2972;EQDQ01+000000PRSWM2
0255474905999992000051523004+42900+143170FM-15+0084RJCT V0203301N001510240019N0112651N1+01301+00801999999ADDGA1021+004509999GA2021+009009999GA3071+024009999GF107991999999999999999999MA1100711999999MW1001REMMET129RJCT 152300Z 33003KT 9999 FEW015 SCT030 BKN080 13/08 Q1007 RMK 1ST015 3CU030 5AC080 A2974 FCST 2308 BECMG 2300 FEW030CU SCT080AC;EQDQ01+000000PRSWM2
0202474905999992000051603004+42900+143170FM-15+0084RJCT V0202301N001012200019N0112651N1+01801+01001999999ADDGA1021+006009999GA2021+063009999GF104991999999999999999999MA1100511999999MW1001REMMET092RJCT 160300Z 23002KT 9999 FEW020 SCT210 18/10 Q1005 RMK 2CU020 3CI210 A2969 FCST 0312 NOSIG;EQDQ01+000000PRSWM2
0267474905999992000051604004+42900+143170FM-15+0084RJCT V0202901N00261009001CN0112651N1+01901+00901999999ADDGA1021+006009999GA2021+007509029GA3021+009009999GA4071+066009999GF107991999999999999999999MA1100411999999MW1001REMMET125RJCT 160400Z 29005KT 9999 FEW020 FEW025TCU SCT030 BKN220 19/09 Q1004 RMK 1CU020 1TCU025 4CU030 5CI220 A2967 TCU 4KM E MOV SE;EQDQ01+000000PRSWM2
0248474905999992000051606004+42900+143170FM-15+0084RJCT V0200801N005712200019N0112651N1+01801+01001999999ADDGA1021+007509029GA2021+009009999GF104991999999999999999999MA1100511999999MW1001OC101081REMMET130RJCT 160600Z 08011G21KT 9999 FEW025TCU SCT030 18/10 Q1005 RMK 1TCU025 3CU030 A2968 TCU 10KM S MOV SE FCST 0615 BECMG 0708 32008KT;EQDQ01+000000PRSWM2
0172474905999992000051608004+42900+143170FM-15+0084RJCT V0200801N004612200019N0112651N1+01501+00901999999ADDGA1021+007509999GF102991999999999999999999MA1100611999999MW1001REMMET078RJCT 160800Z 08009KT 9999 FEW025 15/09 Q1006 RMK 1CU025 A2971 FCST 0817 NOSIG;EQDQ01+000000PRSWM2
0186474905999992000051611004+42900+143170FM-15+0084RJCT V0200801N002112200019N0112651N1+01201+00801999999ADDGA1021+006009999GA2021+009009999GF104991999999999999999999MA1100811999999MW1001REMMET076RJCT 161100Z 08004KT 9999 FEW020 SCT030 12/08 Q1008 RMK 1SC020 3CU030 A2978;EQDQ01+000000PRSWM2
0156474905999992000051622004+42900+143170FM-15+0084RJCT V0203001N001012200019N0112651N1+01101+00801999999ADDGA1021+012009999GF102991999999999999999999MA1100911999999MW1001REMMET062RJCT 162200Z 30002KT 9999 FEW040 11/08 Q1009 RMK 1SC040 A2982;EQDQ01+000000PRSWM2
0172474905999992000051623004+42900+143170FM-15+0084RJCT V0201001N001012200019N0112651N1+01301+00901999999ADDGA1021+009009999GF102991999999999999999999MA1101021999999MW1001REMMET078RJCT 162300Z 10002KT 9999 FEW030 13/09 Q1010 RMK 1CU030 A2982 FCST 2308 NOSIG;EQDQ01+000000PRSWM2
0172474905999992000051700004+42900+143170FM-15+0084RJCT V0201101N001512200019N0112651N1+01501+00801999999ADDGA1021+009009999GF102991999999999999999999MA1100911999999MW1001REMMET078RJCT 170000Z 11003KT 9999 FEW030 15/08 Q1009 RMK 1CU030 A2982 FCST 0009 NOSIG;EQDQ01+000000PRSWM2
0156474905999992000051702004+42900+143170FM-15+0084RJCT V0201801N002112200019N0112651N1+01801+00801999999ADDGA1021+009009999GF102991999999999999999999MA1100911999999MW1001REMMET062RJCT 170200Z 18004KT 9999 FEW030 18/08 Q1009 RMK 1CU030 A2981;EQDQ01+000000PRSWM2
0172474905999992000051703004+42900+143170FM-15+0084RJCT V0201201N002612200019N0112651N1+01901+00901999999ADDGA1021+009009999GF102991999999999999999999MA1100911999999MW1001REMMET078RJCT 170300Z 12005KT 9999 FEW030 19/09 Q1009 RMK 2CU030 A2980 FCST 0312 NOSIG;EQDQ01+000000PRSWM2
0156474905999992000051704004+42900+143170FM-15+0084RJCT V0201601N003612200019N0112651N1+02001+01001999999ADDGA1021+009009999GF102991999999999999999999MA1100811999999MW1001REMMET062RJCT 170400Z 16007KT 9999 FEW030 20/10 Q1008 RMK 2CU030 A2978;EQDQ01+000000PRSWM2
0156474905999992000051705004+42900+143170FM-15+0084RJCT V0201501N003112200019N0112651N1+02001+00901999999ADDGA1021+009009999GF102991999999999999999999MA1100811999999MW1001REMMET062RJCT 170500Z 15006KT 9999 FEW030 20/09 Q1008 RMK 2CU030 A2977;EQDQ01+000000PRSWM2
0202474905999992000051708004+42900+143170FM-15+0084RJCT V0201701N003612200019N0112651N1+01801+00701999999ADDGA1021+009009999GA2021+021009999GF104991999999999999999999MA1100811999999MW1001REMMET092RJCT 170800Z 17007KT 9999 FEW030 SCT070 18/07 Q1008 RMK 2CU030 3AC070 A2978 FCST 0817 NOSIG;EQDQ01+000000PRSWM2
0156474905999992000051802004+42900+143170FM-15+0084RJCT V0201201N002612200019N0112651N1+02001+01001999999ADDGA1021+012009999GF102991999999999999999999MA1101081999999MW1001REMMET062RJCT 180200Z 12005KT 9999 FEW040 20/10 Q1011 RMK 1CU040 A2986;EQDQ01+000000PRSWM2
0172474905999992000051803004+42900+143170FM-15+0084RJCT V02099999999992200019N0112651N1+02101+00901999999ADDGA1021+012009999GF102991999999999999999999MA1101081999999MW1001REMMET078RJCT 180300Z VRB03KT 9999 FEW040 21/09 Q1011 RMK 1CU040 A2986 FCST 0312 NOSIG;EQDQ01+000000PRSWM2
0156474905999992000051804004+42900+143170FM-15+0084RJCT V0201201N003612200019N0112651N1+02201+00901999999ADDGA1021+012009999GF102991999999999999999999MA1101081999999MW1001REMMET062RJCT 180400Z 12007KT 9999 FEW040 22/09 Q1011 RMK 1CU040 A2985;EQDQ01+000000PRSWM2
0156474905999992000051805004+42900+143170FM-15+0084RJCT V0201201N003112200019N0112651N1+02201+00701999999ADDGA1021+013509999GF102991999999999999999999MA1101021999999MW1001REMMET062RJCT 180500Z 12006KT 9999 FEW045 22/07 Q1010 RMK 1CU045 A2985;EQDQ01+000000PRSWM2
0172474905999992000051806004+42900+143170FM-15+0084RJCT V0201601N005112200019N0112651N1+02101+00701999999ADDGA1021+013509999GF102991999999999999999999MA1101081999999MW1001REMMET078RJCT 180600Z 16010KT 9999 FEW045 21/07 Q1011 RMK 1CU045 A2985 FCST 0615 NOSIG;EQDQ01+000000PRSWM2
0172474905999992000051808004+42900+143170FM-15+0084RJCT V0201001N003112200019N0112651N1+02001+00701999999ADDGA1021+013509999GF102991999999999999999999MA1101081999999MW1001REMMET078RJCT 180800Z 10006KT 9999 FEW045 20/07 Q1011 RMK 1CU045 A2985 FCST 0817 NOSIG;EQDQ01+000000PRSWM2
0172474905999992000051900004+42900+143170FM-15+0084RJCT V0202301N001012200019N0112651N1+01801+00901999999ADDGA1021+006009999GF102991999999999999999999MA1101391999999MW1001REMMET078RJCT 190000Z 23002KT 9999 FEW020 18/09 Q1014 RMK 1CU020 A2996 FCST 0009 NOSIG;EQDQ01+000000PRSWM2
0156474905999992000051902004+42900+143170FM-15+0084RJCT V0201401N001512200019N0112651N1+02201+01001999999ADDGA1021+006009999GF102991999999999999999999MA1101391999999MW1001REMMET062RJCT 190200Z 14003KT 9999 FEW020 22/10 Q1014 RMK 1CU020 A2994;EQDQ01+000000PRSWM2
0172474905999992000051903004+42900+143170FM-15+0084RJCT V0202001N002112200019N0112651N1+02301+00901999999ADDGA1021+006009999GF102991999999999999999999MA1101291999999MW1001REMMET078RJCT 190300Z 20004KT 9999 FEW020 23/09 Q1013 RMK 1CU020 A2993 FCST 0312 NOSIG;EQDQ01+000000PRSWM2
0156474905999992000051905004+42900+143170FM-15+0084RJCT V0201601N003112200019N0112651N1+02501+00901999999ADDGA1021+009009999GF102991999999999999999999MA1101191999999MW1001REMMET062RJCT 190500Z 16006KT 9999 FEW030 25/09 Q1012 RMK 1CU030 A2989;EQDQ01+000000PRSWM2
0156474905999992000051907004+42900+143170FM-15+0084RJCT V0201301N005712200019N0112651N1+02301+00801999999ADDGA1021+010509999GF102991999999999999999999MA1101191999999MW1001REMMET062RJCT 190700Z 13011KT 9999 FEW035 23/08 Q1012 RMK 1CU035 A2990;EQDQ01+000000PRSWM2
0216474905999992000052201004+42900+143170FM-15+0084RJCT V0201501N002110210019N0112651N1+01601+01001999999ADDGA1021+006009999GA2021+009009999GA3071+021009999GF107991999999999999999999MA1101291999999MW1001REMMET090RJCT 220100Z 15004KT 9999 FEW020 SCT030 BKN070 16/10 Q1013 RMK 1CU020 3SC030 7AC070 A2994;EQDQ01+000000PRSWM2
0232474905999992000052203004+42900+143170FM-15+0084RJCT V02099999999990210019N0112651N1+01801+01001999999ADDGA1021+006009999GA2021+012009999GA3071+021009999GF107991999999999999999999MA1101191999999MW1001REMMET106RJCT 220300Z VRB03KT 9999 FEW020 SCT040 BKN070 18/10 Q1012 RMK 1CU020 3SC040 7AC070 A2990 FCST 0312 NOSIG;EQDQ01+000000PRSWM2
0186474905999992000052204004+42900+143170FM-15+0084RJCT V0201601N001010210019N0112651N1+01901+01001999999ADDGA1021+006009999GA2071+021009999GF107991999999999999999999MA1101081999999MW1001REMMET076RJCT 220400Z 16002KT 9999 FEW020 BKN070 19/10 Q1011 RMK 1CU020 7AC070 A2988;EQDQ01+000000PRSWM2
0232474905999992000052206004+42900+143170FM-15+0084RJCT V0201401N001510135019N0112651N1+01901+01101999999ADDGA1021+006009999GA2021+009009999GA3071+013509999GF107991999999999999999999MA1101081999999MW1001REMMET106RJCT 220600Z 14003KT 9999 FEW020 SCT030 BKN045 19/11 Q1011 RMK 1CU020 3CU030 6CU045 A2986 FCST 0615 NOSIG;EQDQ01+000000PRSWM2
0186474905999992000052207004+42900+143170FM-15+0084RJCT V0201101N003110135019N0112651N1+01901+01101999999ADDGA1021+007509999GA2071+013509999GF107991999999999999999999MA1101081999999MW1001REMMET076RJCT 220700Z 11006KT 9999 FEW025 BKN045 19/11 Q1011 RMK 1CU025 6SC045 A2986;EQDQ01+000000PRSWM2
0255474905999992000052208004+42900+143170FM-15+0084RJCT V0200901N002610105019N0112651N1+01801+01101999999ADDGA1021+007509999GA2071+010509999GA3071+013509999GF107991999999999999999999MA1101021999999MW1001REMMET129RJCT 220800Z 09005KT 9999 FEW025 BKN035 BKN045 18/11 Q1010 RMK 1CU025 5CU035 5SC045 A2985 FCST 0817 BECMG 1011 SCT015ST BKN020SC;EQDQ01+000000PRSWM2
0186474905999992000052209004+42900+143170FM-15+0084RJCT V0200801N002112200019N0112651N1+01501+01101999999ADDGA1021+007509999GA2021+010509999GF104991999999999999999999MA1101081999999MW1001REMMET076RJCT 220900Z 08004KT 9999 FEW025 SCT035 15/11 Q1011 RMK 1CU025 3CU035 A2986;EQDQ01+000000PRSWM2
0156474905999992000052210004+42900+143170FM-15+0084RJCT V0200701N002112200019N0112651N1+01201+01001999999ADDGA1021+006009999GF102991999999999999999999MA1101081999999MW1001REMMET062RJCT 221000Z 07004KT 9999 FEW020 12/10 Q1011 RMK 1CU020 A2986;EQDQ01+000000PRSWM2
0205474905999992000052222004+42900+143170FM-15+0084RJCT V0201601N001510018019N0040001N1+01101+01001999999ADDGA1021+001209999GA2071+001809999GF107991999999999999999999MA1101081999999MW1101REMMET079RJCT 222200Z 16003KT 4000 BR FEW004 BKN006 11/10 Q1011 RMK 2ST004 7ST006 A2986;EQDQ01+000003PRSWM1Q02    003PRSWM1
0246474905999992000052223004+42900+143170FM-15+0084RJCT V0202401N002110021019N0070001N1+01201+01101999999ADDGA1021+001509999GA2071+002109999GF107991999999999999999999MA1101081999999MW1001REMMET136RJCT 222300Z 24004KT 7000 FEW005 BKN007 12/11 Q1011 RMK 1ST005 7ST007 A2986 FCST 2308 BECMG 2300 BKN012ST BECMG 0304 SCT025CU BKN040 SC;EQDQ01+000000PRSWM2
0186474905999992000052223394+42900+143170FM-16+0084RJCT V02099999999990030019N0080001N1+01301+01101999999ADDGA1021+002109999GA2071+003009999GF107991999999999999999999MA1101081999999MW1001REMMET076RJCT 222339Z VRB02KT 8000 FEW007 BKN010 13/11 Q1011 RMK 1ST007 6ST010 A2985;EQDQ01+000000PRSWM2
0216474905999992000052300004+42900+143170FM-15+0084RJCT V02099999999992200019N0112651N1+01401+01201999999ADDGA1021+002409999GA2021+003609999GF104991999999999999999999MA1101021999999MW1001REMMET106RJCT 230000Z VRB03KT 9999 FEW008 SCT012 14/12 Q1010 RMK 1ST008 4ST012 A2985 FCST 0009 TEMPO 0407 BKN030CU;EQDQ01+000000PRSWM2
0210474905999992000052301004+42900+143170FM-15+0084RJCT V0200101N001512200019N0112651N1+01701+01201999999ADDGA1021+005409999GA2021+007509029GF102991999999999999999999MA1101021999999MW1001REMMET100RJCT 230100Z 01003KT 9999 FEW018 FEW025TCU 17/12 Q1010 RMK 2SC018 1TCU025 A2984 TCU 30KM NW-NE STNR;EQDQ01+000000PRSWM2
0210474905999992000052302004+42900+143170FM-15+0084RJCT V0201101N001512200019N0112651N1+01901+01201999999ADDGA1021+006009999GA2021+007509029GF102991999999999999999999MA1101021999999MW1001REMMET100RJCT 230200Z 11003KT 9999 FEW020 FEW025TCU 19/12 Q1010 RMK 1CU020 1TCU025 A2983 TCU 30KM NW-NE STNR;EQDQ01+000000PRSWM2
0226474905999992000052303004+42900+143170FM-15+0084RJCT V02099999999990210019N0112651N1+02001+01101999999ADDGA1021+007509029GA2071+021009999GF107991999999999999999999MA1100911999999MW1001REMMET116RJCT 230300Z VRB03KT 9999 FEW025TCU BKN070 20/11 Q1009 RMK 1TCU025 5AC070 A2981 TCU 25KM NW-E MOV E FCST 0312 NOSIG;EQDQ01+000000PRSWM2
0233474905999992000052305004+42900+143170FM-15+0084RJCT V0202501N002110180019N0112651N1+02101+00901999999ADDGA1021+006009999GA2021+007509029GA3071+018009999GF107991999999999999999999MA1100811999999MW1001REMMET107RJCT 230500Z 25004KT 9999 FEW020 FEW025TCU BKN060 21/09 Q1008 RMK 1CU020 2TCU025 5SC060 A2979 TCU OHD STNR;EQDQ01+000000PRSWM2
0216474905999992000052306004+42900+143170FM-15+0084RJCT V0201601N003112200019N0112651N1+02201+01301999999ADDGA1021+006009999GA2021+009009999GF104991999999999999999999MA1100811999999MW1001REMMET106RJCT 230600Z 16006KT 9999 FEW020 SCT030 22/13 Q1008 RMK 1CU020 3CU030 A2978 FCST 0615 BECMG 1011 BKN008ST;EQDQ01+000000PRSWM2
0186474905999992000052307004+42900+143170FM-15+0084RJCT V0200801N004112200019N0112651N1+02101+01301999999ADDGA1021+006009999GA2021+009009999GF104991999999999999999999MA1100811999999MW1001REMMET076RJCT 230700Z 08008KT 9999 FEW020 SCT030 21/13 Q1008 RMK 1CU020 3CU030 A2977;EQDQ01+000000PRSWM2
0216474905999992000052308004+42900+143170FM-15+0084RJCT V0200701N003112200019N0112651N1+01901+01201999999ADDGA1021+006009999GA2021+009009999GF104991999999999999999999MA1100811999999MW1001REMMET106RJCT 230800Z 07006KT 9999 FEW020 SCT030 19/12 Q1008 RMK 2CU020 3CU030 A2978 FCST 0817 BECMG 1011 BKN008ST;EQDQ01+000000PRSWM2
0216474905999992000052321004+42900+143170FM-15+0084RJCT V0201601N001510018019N0070001N1+01101+00901999999ADDGA1021+001209999GA2071+001809999GA3081+002709999GF108991999999999999999999MA1101081999999MW1001REMMET090RJCT 232100Z 16003KT 7000 FEW004 BKN006 OVC009 11/09 Q1011 RMK 1ST004 7ST006 8ST009 A2987;EQDQ01+000000PRSWM2
0225474905999992000052323004+42900+143170FM-15+0084RJCT V0201401N001510024019N0112651N1+01101+01001999999ADDGA1071+002409999GA2081+003609999GF108991999999999999999999MA1101081999999MW1001REMMET115RJCT 232300Z 14003KT 9999 BKN008 OVC012 11/10 Q1011 RMK 6ST008 8ST012 A2988 FCST 2308 BECMG 0001 SCT010ST BKN020SC;EQDQ01+000000PRSWM2
0225474905999992000052400004+42900+143170FM-15+0084RJCT V0201701N001010024019N0112651N1+01201+01001999999ADDGA1071+002409999GA2081+003609999GF108991999999999999999999MA1101081999999MW1001REMMET115RJCT 240000Z 17002KT 9999 BKN008 OVC012 12/10 Q1011 RMK 6ST008 8ST012 A2988 FCST 0009 BECMG 0102 SCT008ST BKN012ST;EQDQ01+000000PRSWM2
0186474905999992000052401334+42900+143170FM-16+0084RJCT V0209999C000010030019N0112651N1+01301+01001999999ADDGA1071+003009999GA2081+003609999GF108991999999999999999999MA1101081999999MW1001REMMET076RJCT 240133Z 00000KT 9999 BKN010 OVC012 13/10 Q1011 RMK 6ST010 8ST012 A2985;EQDQ01+000000PRSWM2
0216474905999992000052404004+42900+143170FM-15+0084RJCT V0201401N002610060019N0112651N1+01501+01101999999ADDGA1021+004809999GA2071+006009999GA3071+024009999GF107991999999999999999999MA1101021999999MW1001REMMET090RJCT 240400Z 14005KT 9999 SCT016 BKN020 BKN080 15/11 Q1010 RMK 4ST016 6CU020 6AC080 A2983;EQDQ01+000000PRSWM2
0216474905999992000052405004+42900+143170FM-15+0084RJCT V0201301N003110075019N0112651N1+01701+01201999999ADDGA1021+005409999GA2071+007509999GA3071+024009999GF107991999999999999999999MA1100911999999MW1001REMMET090RJCT 240500Z 13006KT 9999 SCT018 BKN025 BKN080 17/12 Q1009 RMK 4ST018 5CU025 6AC080 A2982;EQDQ01+000000PRSWM2
0246474905999992000052406004+42900+143170FM-15+0084RJCT V0201701N004610075019N0112651N1+01501+01201999999ADDGA1021+006009999GA2071+007509999GA3071+030009999GF107991999999999999999999MA1100911999999MW1001REMMET120RJCT 240600Z 17009KT 9999 SCT020 BKN025 BKN100 15/12 Q1009 RMK 3CU020 5CU025 5AC100 A2981 FCST 0615 TEMPO 0710 BKN009ST;EQDQ01+000000PRSWM2
0232474905999992000052408004+42900+143170FM-15+0084RJCT V0201501N002110300019N0112651N1+01501+01101999999ADDGA1021+006009999GA2071+030009999GA3071+063009999GF107991999999999999999999MA1100911999999MW1001REMMET106RJCT 240800Z 15004KT 9999 FEW020 BKN100 BKN210 15/11 Q1009 RMK 1SC020 6AC100 6CI210 A2982 FCST 0817 NOSIG;EQDQ01+000000PRSWM2
0205474905999992000052422234+42900+143170FM-16+0084RJCT V0201001N000510009019N0015001N1+01101+01101999999ADDGA1021+000609999GA2081+000909999GF108991999999999999999999MA1101191999999MW1101REMMET079RJCT 242223Z 10001KT 1500 BR SCT002 OVC003 11/11 Q1012 RMK 4ST002 8ST003 A2989;EQDQ01+000003PRSWM1Q02    003PRSWM1
0205474905999992000052422354+42900+143170FM-16+0084RJCT V0201501N000510018019N0025001N1+01101+01101999999ADDGA1021+000909999GA2081+001809999GF108991999999999999999999MA1101191999999MW1101REMMET079RJCT 242235Z 15001KT 2500 BR SCT003 OVC006 11/11 Q1012 RMK 4ST003 8ST006 A2990;EQDQ01+000003PRSWM1Q02    003PRSWM1
0269474905999992000052423004+42900+143170FM-15+0084RJCT V0201001N001010021019N0040001N1+01201+01101999999ADDGA1021+001209999GA2021+001509999GA3081+002109999GF108991999999999999999999MA1101191999999MW1101REMMET127RJCT 242300Z 10002KT 4000 BR FEW004 SCT005 OVC007 12/11 Q1012 RMK 2ST004 4ST005 8ST007 A2990 FCST 2308 BECMG 2300 NSW SCT010ST;EQDQ01+000003PRSWM1Q02    003PRSWM1
0202474905999992000052500004+42900+143170FM-15+0084RJCT V0201301N001512200019N0060001N1+01401+01101999999ADDGA1021+001809999GA2021+003009999GF104991999999999999999999MA1101191999999MW1001REMMET092RJCT 250000Z 13003KT 6000 FEW006 SCT010 14/11 Q1012 RMK 2ST006 4ST010 A2989 FCST 0009 NOSIG;EQDQ01+000000PRSWM2
0156474905999992000052501004+42900+143170FM-15+0084RJCT V0201401N001012200019N0112651N1+01701+01201999999ADDGA1021+004509999GF102991999999999999999999MA1101081999999MW1001REMMET062RJCT 250100Z 14002KT 9999 FEW015 17/12 Q1011 RMK 1ST015 A2988;EQDQ01+000000PRSWM2
0156474905999992000052502004+42900+143170FM-15+0084RJCT V0201201N001512200019N0112651N1+02001+01201999999ADDGA1021+004509999GF102991999999999999999999MA1101021999999MW1001REMMET062RJCT 250200Z 12003KT 9999 FEW015 20/12 Q1010 RMK 1SC015 A2985;EQDQ01+000000PRSWM2
0172474905999992000052503004+42900+143170FM-15+0084RJCT V0201301N002112200019N0112651N1+02301+01201999999ADDGA1021+006009999GF102991999999999999999999MA1101021999999MW1001REMMET078RJCT 250300Z 13004KT 9999 FEW020 23/12 Q1010 RMK 1CU020 A2983 FCST 0312 NOSIG;EQDQ01+000000PRSWM2
0186474905999992000052504004+42900+143170FM-15+0084RJCT V0201301N003110720019N0112651N1+02301+01201999999ADDGA1021+009009999GA2071+072009999GF107991999999999999999999MA1101021999999MW1001REMMET076RJCT 250400Z 13006KT 9999 FEW030 BKN240 23/12 Q1010 RMK 1CU030 7CI240 A2982;EQDQ01+000000PRSWM2
0186474905999992000052505004+42900+143170FM-15+0084RJCT V0201601N004610720019N0112651N1+02401+01301999999ADDGA1021+009009999GA2071+072009999GF107991999999999999999999MA1100911999999MW1001REMMET076RJCT 250500Z 16009KT 9999 FEW030 BKN240 24/13 Q1009 RMK 1CU030 7CI240 A2980;EQDQ01+000000PRSWM2
0156474905999992000052601004+42900+143170FM-15+0084RJCT V02099999999990690019N0112651N1+02201+01201999999ADDGA1071+069009999GF107991999999999999999999MA1100611999999MW1001REMMET062RJCT 260100Z VRB02KT 9999 BKN230 22/12 Q1006 RMK 7CI230 A2972;EQDQ01+000000PRSWM2
0156474905999992000052602004+42900+143170FM-15+0084RJCT V0201501N001510660019N0112651N1+02501+01201999999ADDGA1071+066009999GF107991999999999999999999MA1100611999999MW1001REMMET062RJCT 260200Z 15003KT 9999 BKN220 25/12 Q1006 RMK 7CI220 A2970;EQDQ01+000000PRSWM2
0156474905999992000052604004+42900+143170FM-15+0084RJCT V0201601N001510540019N0112651N1+02601+01401999999ADDGA1081+054009999GF108991999999999999999999MA1100511999999MW1001REMMET062RJCT 260400Z 16003KT 9999 OVC180 26/14 Q1005 RMK 8CS180 A2968;EQDQ01+000000PRSWM2
0156474905999992000052605004+42900+143170FM-15+0084RJCT V02099999999990540019N0112651N1+02801+01501999999ADDGA1081+054009999GF108991999999999999999999MA1100511999999MW1001REMMET062RJCT 260500Z VRB03KT 9999 OVC180 28/15 Q1005 RMK 8CS180 A2968;EQDQ01+000000PRSWM2
0156474905999992000052607004+42900+143170FM-15+0084RJCT V0203001N002610540019N0112651N1+02701+01401999999ADDGA1081+054009999GF108991999999999999999999MA1100511999999MW1001REMMET062RJCT 260700Z 30005KT 9999 OVC180 27/14 Q1005 RMK 8CS180 A2969;EQDQ01+000000PRSWM2
0202474905999992000052608004+42900+143170FM-15+0084RJCT V0203201N003610540019N0112651N1+02701+01301999999ADDGA1021+039009999GA2081+054009999GF108991999999999999999999MA1100511999999MW1001REMMET092RJCT 260800Z 32007KT 9999 FEW130 OVC180 27/13 Q1005 RMK 2AC130 8CS180 A2969 FCST 0817 NOSIG;EQDQ01+000000PRSWM2
0292474905999992000052900004+42900+143170FM-15+0084RJCT V0203101N007210300019N0112651N1+01601+00801999999ADDGA1021+004509999GA2021+009009999GA3071+030009999GF107991999999999999999999MA1099091999999MW1001OC101231REMMET158RJCT 290000Z COR 31014G24KT 9999 FEW015 SCT030 BKN100 16/08 Q0991 RMK 1SC015 4CU030 5AC100 A2929 FCST 0009 BECMG 0102 SCT030CU SCT100AC TEMPO 0207 32025G35KT;EQDQ01+000000PRSWM2
0227474905999992000052901004+42900+143170FM-15+0084RJCT V0203101N007210300019N0112651N1+01701+00901999999ADDGA1021+006009999GA2071+030009999GA3071+063009999GF107991999999999999999999MA1099191999999MW1001OC101231REMMET093RJCT 290100Z 31014G24KT 9999 FEW020 BKN100 BKN210 17/09 Q0992 RMK 1SC020 5AC100 6CI210 A2930;EQDQ01+000000PRSWM2
0227474905999992000052902004+42900+143170FM-15+0084RJCT V0203001N008210300019N0112651N1+01801+01001999999ADDGA1021+007509999GA2071+030009999GA3071+063009999GF107991999999999999999999MA1099191999999MW1001OC101491REMMET093RJCT 290200Z 30016G29KT 9999 FEW025 BKN100 BKN210 18/10 Q0992 RMK 1CU025 5AC100 6CI210 A2931;EQDQ01+000000PRSWM2
0248474905999992000052903004+42900+143170FM-15+0084RJCT V0202901N009312200019N0112651N1+02001+01001999999ADDGA1021+009009999GA2021+030009999GF104991999999999999999999MA1099191999999MW1001OC101591REMMET130RJCT 290300Z 29018G31KT 9999 FEW030 SCT100 20/10 Q0992 RMK 1CU030 3AC100 A2930 FCST 0312 TEMPO 0307 30020G35KT BECMG 0809 30010KT;EQDQ01+000000PRSWM2
0167474905999992000052904004+42900+143170FM-15+0084RJCT V0203001N008212200019N0112651N1+02201+01001999999ADDGA1021+009009999GF102991999999999999999999MA1099191999999MW1001OC101341REMMET065RJCT 290400Z 30016G26KT 9999 FEW030 22/10 Q0992 RMK 1CU030 A2931;EQDQ01+000000PRSWM2
0156474905999992000052905004+42900+143170FM-15+0084RJCT V0203301N002612200019N0112651N1+02301+01001999999ADDGA1021+009009999GF102991999999999999999999MA1099191999999MW1001REMMET062RJCT 290500Z 33005KT 9999 FEW030 23/10 Q0992 RMK 1CU030 A2931;EQDQ01+000000PRSWM2
0156474905999992000052907004+42900+143170FM-15+0084RJCT V0202701N002612200019N0112651N1+02701+00601999999ADDGA1021+010509999GF102991999999999999999999MA1099091999999MW1001REMMET062RJCT 290700Z 27005KT 9999 FEW035 27/06 Q0991 RMK 1CU035 A2927;EQDQ01+000000PRSWM2
0172474905999992000052908004+42900+143170FM-15+0084RJCT V0202801N004612200019N0112651N1+02501+00401999999ADDGA1021+010509999GF102991999999999999999999MA1098981999999MW1001REMMET078RJCT 290800Z 28009KT 9999 FEW035 25/04 Q0990 RMK 1CU035 A2925 FCST 0817 NOSIG;EQDQ01+000000PRSWM2
0156474905999992000052909004+42900+143170FM-15+0084RJCT V0202701N006712200019N0112651N1+02301+00601999999ADDGA1021+012009999GF102991999999999999999999MA1099091999999MW1001REMMET062RJCT 290900Z 27013KT 9999 FEW040 23/06 Q0991 RMK 1SC040 A2928;EQDQ01+000000PRSWM2
0167474905999992000052909394+42900+143170FM-16+0084RJCT V0202601N008212200019N0112651N1+02301+00501999999ADDGA1021+012009999GF102991999999999999999999MA1099191999999MW1001OC101701REMMET065RJCT 290939Z 26016G33KT 9999 FEW040 23/05 Q0992 RMK 1SC040 A2930;EQDQ01+000000PRSWM2
0167474905999992000052910004+42900+143170FM-15+0084RJCT V0202601N006712200019N0112651N1+02201+00501999999ADDGA1021+010509999GF102991999999999999999999MA1099191999999MW1001OC101181REMMET065RJCT 291000Z 26013G23KT 9999 FEW035 22/05 Q0992 RMK 1SC035 A2932;EQDQ01+000000PRSWM2
0229474905999992000052923004+42900+143170FM-15+0084RJCT V0200401N002610630019N0112651N1+01901+00901999999ADDGA1021+010509999GA2071+063009999GF107991999999999999999999MA1099591999999MW1001REMMET119RJCT 292300Z 04005KT 9999 FEW035 BKN210 19/09 Q0996 RMK 2SC035 5CI210 A2943 FCST 2308 TEMPO 2301 -RA BKN040SC BKN100AC;EQDQ01+000000PRSWM2
0197474905999992000053000114+42900+143170FM-16+0084RJCT V0202901N010310630019N0112651N1+02401+00401999999ADDGA1021+010509999GA2071+063009999GF107991999999999999999999MA1099701999999MW1001OC102011REMMET079RJCT 300011Z 29020G39KT 9999 FEW035 BKN210 24/04 Q0997 RMK 2CU035 5CI210 A2945;EQDQ01+000000PRSWM2
0233474905999992000053000374+42900+143170FM-16+0084RJCT V0202801N009312200019N0112651N1+02201+00401999999ADDGA1021+010509999GA2021+063009999GF104991999999999999999999MA1099701999999MW1001OC101491REMMET115RJCT 300037Z 28018G29KT 9999 FEW035 SCT210 22/04 Q0997 RMK 2CU035 4CI210 A2946 FCST AMD 0009 TEMPO 0003 30020G35KT;EQDQ01+000000PRSWM2
0197474905999992000053001004+42900+143170FM-15+0084RJCT V0203001N009312200019N0112651N1+02301+00501999999ADDGA1021+010509999GA2021+063009999GF104991999999999999999999MA1099701999999MW1001OC101851REMMET079RJCT 300100Z 30018G36KT 9999 FEW035 SCT210 23/05 Q0997 RMK 2CU035 4CI210 A2946;EQDQ01+000000PRSWM2
0197474905999992000053002004+42900+143170FM-15+0084RJCT V0202801N011812200019N0112651N1+02301+00401999999ADDGA1021+010509999GA2021+063009999GF104991999999999999999999MA1099801999999MW1001OC101951REMMET079RJCT 300200Z 28023G38KT 9999 FEW035 SCT210 23/04 Q0998 RMK 2CU035 4CI210 A2949;EQDQ01+000000PRSWM2
0167474905999992000053004004+42900+143170FM-15+0084RJCT V0202901N010812200019N0112651N1+02401+00101999999ADDGA1021+009009999GF102991999999999999999999MA1099801999999MW1001OC101701REMMET065RJCT 300400Z 29021G33KT 9999 FEW030 24/01 Q0998 RMK 1SC030 A2949;EQDQ01+000000PRSWM2
0196474905999992000053006004+42900+143170FM-15+0084RJCT V0202901N009312200019N0112651N1+02401+00001999999ADDGA1021+010509999GF102991999999999999999999MA1099901999999MW1001OC101541REMMET094RJCT 300600Z 29018G30KT 9999 FEW035 24/00 Q0999 RMK 1CU035 A2951 FCST 0615 BECMG 0809 30015KT;EQDQ01+000000PRSWM2
0167474905999992000053007004+42900+143170FM-15+0084RJCT V0202901N010312200019N0112651N1+02301+00001999999ADDGA1021+010509999GF102991999999999999999999MA1100001999999MW1001OC101591REMMET065RJCT 300700Z 29020G31KT 9999 FEW035 23/00 Q1000 RMK 1CU035 A2954;EQDQ01+000000PRSWM2
0196474905999992000053008004+42900+143170FM-15+0084RJCT V0203001N008712200019N0112651N1+02201+00001999999ADDGA1021+009009999GF102991999999999999999999MA1100101999999MW1001OC101541REMMET094RJCT 300800Z 30017G30KT 9999 FEW030 22/00 Q1001 RMK 1CU030 A2956 FCST 0817 BECMG 1011 30015KT;EQDQ01+000000PRSWM2
0275474905999992000053100004+42900+143170FM-15+0084RJCT V0201801N001010690019N0112651N1+01601+00601999999ADDGA1021+024009999GA2021+039009999GA3071+069009999GF107991999999999999999999MA1101021999999MW1001REMMET149RJCT 310000Z 18002KT 9999 FEW080 SCT130 BKN230 16/06 Q1010 RMK 2AC080 3AC130 7CI230 A2984 FCST 0009 BECMG 0304 FEW030CU BKN120AC TEMPO 0709 BKN015SC;EQDQ01+000000PRSWM2
0216474905999992000053100304+42900+143170FM-15+0084RJCT V0201101N001010240019N0112651N1+01701+00601999999ADDGA1071+024009999GA2071+039009999GA3071+069009999GF107991999999999999999999MA1101021999999MW1001REMMET090RJCT 310030Z 11002KT 9999 BKN080 BKN130 BKN230 17/06 Q1010 RMK 5AC080 5AC130 7CI230 A2984;EQDQ01+000000PRSWM2
0186474905999992000053101004+42900+143170FM-15+0084RJCT V0201301N001010240019N0112651N1+01801+00701999999ADDGA1071+024009999GA2071+066009999GF107991999999999999999999MA1101021999999MW1001REMMET076RJCT 310100Z 13002KT 9999 BKN080 BKN220 18/07 Q1010 RMK 6AC080 7CI220 A2984;EQDQ01+000000PRSWM2
0216474905999992000053102004+42900+143170FM-15+0084RJCT V02099999999990660019N0112651N1+02001+00801999999ADDGA1021+024009999GA2021+039009999GA3081+066009999GF108991999999999999999999MA1101021999999MW1001REMMET090RJCT 310200Z VRB02KT 9999 FEW080 SCT130 OVC220 20/08 Q1010 RMK 2AC080 4AC130 8CS220 A2984;EQDQ01+000000PRSWM2
0275474905999992000053103004+42900+143170FM-15+0084RJCT V0201501N002610660019N0112651N1+02101+00701999999ADDGA1021+024009999GA2021+036009999GA3081+066009999GF108991999999999999999999MA1101021999999MW1001REMMET149RJCT 310300Z 15005KT 9999 FEW080 SCT120 OVC220 21/07 Q1010 RMK 1AC080 3AC120 8CS220 A2983 FCST 0312 BECMG 0304 FEW030CU BKN100AC TEMPO 0812 BKN015SC;EQDQ01+000000PRSWM2
0216474905999992000053104004+42900+143170FM-15+0084RJCT V0201101N002610390019N0112651N1+02101+00801999999ADDGA1021+015009999GA2071+039009999GA3071+066009999GF107991999999999999999999MA1101021999999MW1001REMMET090RJCT 310400Z 11005KT 9999 FEW050 BKN130 BKN220 21/08 Q1010 RMK 1SC050 5AC130 7CI220 A2982;EQDQ01+000000PRSWM2
0216474905999992000053105004+42900+143170FM-15+0084RJCT V0201201N003610660019N0112651N1+02001+00601999999ADDGA1021+012009999GA2021+036009999GA3071+066009999GF107991999999999999999999MA1100911999999MW1001REMMET090RJCT 310500Z 12007KT 9999 FEW040 SCT120 BKN220 20/06 Q1009 RMK 1CU040 4AC120 7CI220 A2982;EQDQ01+000000PRSWM2
0300474905999992000053106224+42900+143170FM-16+0084RJCT V0201301N004610660019N0112651N1+01901+00701999999ADDGA1021+009009099GA2021+036009999GA3071+066009999GF107991999999999999999999MA1101021999999MW1171REMMET158RJCT COR 310622Z 13009KT 9999 TS FEW030CB SCT120 BKN220 19/07 Q1010 RMK 2CB030 3AC120 7CI220 A2983 TS 5KM S STNR FCST AMD 0615 TEMPO 0608 5000 -TSRA BKN030CU;EQDQ01+000003PRSWM1Q02    003PRSWM1
0264474905999992000053106484+42900+143170FM-16+0084RJCT V0201301N004610660019N0112651N1+01901+00701999999ADDGA1021+009009099GA2021+036009999GA3071+066009999GF107991999999999999999999MA1101021999999MW1801MW2951REMMET116RJCT 310648Z 13009KT 9999 -TSRA SCT030CB SCT120 BKN220 19/07 Q1010 RMK 3CB030 3AC120 7CI220 A2983 FBL TS OVHD MOV N;EQDQ01+000003PRSWM1Q02    003PRSWM1
0252474905999992000060100004+42900+143170FM-15+0084RJCT V0203001N002610090019N0080001N1+01201+01101999999ADDGA1021+003609999GA2081+009009999GF108991999999999999999999MA1100811999999MW1801REMMET126RJCT 010000Z 30005KT 8000 -SHRA FEW012 OVC030 12/11 Q1008 RMK 1ST012 8SC030 A2979 FCST 0009 TEMPO 0003 4500 BR BECMG 0506 NSW;EQDQ01+000003PRSWM1Q02    003PRSWM1
0206474905999992000060101004+42900+143170FM-15+0084RJCT V0203101N002110090019N0080001N1+01301+01201999999ADDGA1021+004509999GA2081+009009999GF108991999999999999999999MA1100811999999MW1611REMMET080RJCT 010100Z 31004KT 8000 -RA FEW015 OVC030 13/12 Q1008 RMK 1ST015 8SC030 A2978;EQDQ01+000003PRSWM1Q02    003PRSWM1
0208474905999992000060102004+42900+143170FM-15+0084RJCT V0202701N000510075019N0070001N1+01401+01201999999ADDGA1021+004509999GA2081+007509999GF108991999999999999999999MA1100811999999MW1801REMMET082RJCT 010200Z 27001KT 7000 -SHRA SCT015 OVC025 14/12 Q1008 RMK 3ST015 8SC025 A2977;EQDQ01+000003PRSWM1Q02    003PRSWM1
0172474905999992000060102104+42900+143170FM-16+0084RJCT V0202701N001510060019N0035001N1+99999+99999999999ADDGA1021+003009999GA2021+004509999GA3081+006009999GF108991999999999999999999MW1001MW2801REMMET055RJCT 010210Z 27003KT 3500 -SHRA FEW010 SCT015 OVC020 1;EQDQ01+000003PRSWM1
0238474905999992000060104004+42900+143170FM-15+0084RJCT V0202901N001510075019N0080001N1+01501+01401999999ADDGA1021+002709999GA2021+003909999GA3071+007509999GF107991999999999999999999MA1100711999999MW1801REMMET096RJCT 010400Z 29003KT 8000 -SHRA FEW009 SCT013 BKN025 15/14 Q1007 RMK 1ST009 3ST013 6SC025 A2974;EQDQ01+000003PRSWM1Q02    003PRSWM1
0291474905999992000060106004+42900+143170FM-15+0084RJCT V0202401N001010051019N0070001N1+01601+01401999999ADDGA1021+001809999GA2071+005109999GA3081+007509999GF108991999999999999999999MA1100611999999MW1801REMMET149RJCT 010600Z 24002KT 7000 -SHRA FEW006 BKN017 OVC025 16/14 Q1006 RMK 2ST006 5ST017 8SC025 A2973 FCST 0615 TEMPO 0812 4000 BR BKN008ST BECMG 1213 NSW;EQDQ01+000003PRSWM1Q02    003PRSWM1
0238474905999992000060107004+42900+143170FM-15+0084RJCT V0201401N004110054019N0080001N1+01401+01301999999ADDGA1021+001809999GA2071+005409999GA3081+007509999GF108991999999999999999999MA1100711999999MW1801REMMET096RJCT 010700Z 14008KT 8000 -SHRA FEW006 BKN018 OVC025 14/13 Q1007 RMK 2ST006 5ST018 8SC025 A2973;EQDQ01+000003PRSWM1Q02    003PRSWM1
0188474905999992000060108004+42900+143170FM-15+0084RJCT V0201301N002610054019N0090001N1+01401+99999999999ADDGA1021+002109999GA2071+005409999GA3081+007509999GF108991999999999999999999MW1801REMMET061RJCT 010800Z COR 13005KT 9000 -SHRA SCT007 BKN018 OVC025 14/;EQDQ01+000003PRSWM1Q02    003PRSWM1
0186474905999992000060122004+42900+143170FM-15+0084RJCT V0200801N001010039019N0112651N1+01001+00901999999ADDGA1021+002709999GA2081+003909999GF108991999999999999999999MA1100911999999MW1001REMMET076RJCT 012200Z 08002KT 9999 FEW009 OVC013 10/09 Q1009 RMK 2ST009 8SC013 A2980;EQDQ01+000000PRSWM2
0278474905999992000060123004+42900+143170FM-15+0084RJCT V0200801N001510033019N0112651N1+01101+00901999999ADDGA1021+002709999GA2081+003309999GF108991999999999999999999MA1100911999999MW1001REMMET168RJCT 012300Z 08003KT 9999 SCT009 OVC011 11/09 Q1009 RMK 4ST009 8SC011 A2981 FCST 2308 TEMPO 2300 BKN009ST BECMG 0001 BKN020SC BECMG 0102 SCT020CU TEMPO 0206 32010G20KT;EQDQ01+000000PRSWM2
0278474905999992000060200004+42900+143170FM-15+0084RJCT V0200901N001510030019N0112651N1+01201+01001999999ADDGA1021+002709999GA2081+003009999GF108991999999999999999999MA1100911999999MW1001REMMET168RJCT 020000Z 09003KT 9999 SCT009 OVC010 12/10 Q1009 RMK 4ST009 8SC010 A2981 FCST 0009 TEMPO 0001 BKN009ST BECMG 0102 BKN020SC BECMG 0203 SCT020CU TEMPO 0306 32010G20KT;EQDQ01+000000PRSWM2
0186474905999992000060202004+42900+143170FM-15+0084RJCT V0201001N001010039019N0112651N1+01301+01101999999ADDGA1021+003009999GA2081+003909999GF108991999999999999999999MA1101021999999MW1001REMMET076RJCT 020200Z 10002KT 9999 SCT010 OVC013 13/11 Q1010 RMK 4ST010 8SC013 A2982;EQDQ01+000000PRSWM2
0216474905999992000060204004+42900+143170FM-15+0084RJCT V0201601N002110036019N0112651N1+01401+01101999999ADDGA1021+003009999GA2071+003609999GA3081+005109999GF108991999999999999999999MA1100911999999MW1001REMMET090RJCT 020400Z 16004KT 9999 FEW010 BKN012 OVC017 14/11 Q1009 RMK 1ST010 5ST012 8ST017 A2981;EQDQ01+000000PRSWM2
0216474905999992000060205004+42900+143170FM-15+0084RJCT V0201101N002610045019N0112651N1+01401+01101999999ADDGA1021+003309999GA2071+004509999GA3071+006009999GF107991999999999999999999MA1100911999999MW1001REMMET090RJCT 020500Z 11005KT 9999 FEW011 BKN015 BKN020 14/11 Q1009 RMK 1ST011 5ST015 7SC020 A2980;EQDQ01+000000PRSWM2
0202474905999992000060206004+42900+143170FM-15+0084RJCT V0201601N003110075019N0112651N1+01501+01201999999ADDGA1021+004509999GA2071+007509999GF107991999999999999999999MA1100911999999MW1001REMMET092RJCT 020600Z 16006KT 9999 SCT015 BKN025 15/12 Q1009 RMK 4ST015 6SC025 A2981 FCST 0615 NOSIG;EQDQ01+000000PRSWM2
0232474905999992000060208004+42900+143170FM-15+0084RJCT V0201301N003110045019N0112651N1+01501+01101999999ADDGA1021+003609999GA2071+004509999GA3081+006009999GF108991999999999999999999MA1100911999999MW1001REMMET106RJCT 020800Z 13006KT 9999 FEW012 BKN015 OVC020 15/11 Q1009 RMK 1ST012 5ST015 8SC020 A2980 FCST 0817 NOSIG;EQDQ01+000000PRSWM2
0236474905999992000060401004+42900+143170FM-15+0084RJCT V0200401N002110030019N0112651N1+01101+01001999999ADDGA1021+001509999GA2071+003009999GA3081+006009999GF108991999999999999999999MA1100611999999MW1511REMMET094RJCT 040100Z 04004KT 9999 -DZ FEW005 BKN010 OVC020 11/10 Q1006 RMK 1ST005 6ST010 8CU020 A2972;EQDQ01+000003PRSWM1Q02    003PRSWM1
0186474905999992000060403004+42900+143170FM-15+0084RJCT V0200901N001010060019N0112651N1+01101+00901999999ADDGA1021+003609999GA2081+006009999GF108991999999999999999999MA1100611999999MW1001REMMET076RJCT 040300Z 09002KT 9999 FEW012 OVC020 11/09 Q1006 RMK 1ST012 8SC020 A2972;EQDQ01+000000PRSWM2
0275474905999992000060423004+42900+143170FM-15+0084RJCT V0201601N003610021019N0060001N1+01001+00901999999ADDGA1021+000909999GA2071+002109999GA3081+006009999GF108991999999999999999999MA1100911999999MW1001REMMET149RJCT 042300Z 16007KT 6000 FEW003 BKN007 OVC020 10/09 Q1009 RMK 1ST003 6ST007 8SC020 A2979 FCST 2308 BECMG 0001 BKN012ST BECMG 0304 SCT030CU BKN080AC;EQDQ01+000000PRSWM2
0216474905999992000060501004+42900+143170FM-15+0084RJCT V0201501N003610030019N0112651N1+01201+00901999999ADDGA1021+001509999GA2071+003009999GA3081+007509999GF108991999999999999999999MA1100911999999MW1001REMMET090RJCT 050100Z 15007KT 9999 FEW005 BKN010 OVC025 12/09 Q1009 RMK 1ST005 6ST010 8SC025 A2980;EQDQ01+000000PRSWM2
0216474905999992000060504004+42900+143170FM-15+0084RJCT V0201501N003610069019N0112651N1+01401+00901999999ADDGA1021+004509999GA2021+006009999GA3071+006909999GF107991999999999999999999MA1100711999999MW1001REMMET090RJCT 050400Z 15007KT 9999 FEW015 SCT020 BKN023 14/09 Q1007 RMK 1ST015 3SC020 6SC023 A2975;EQDQ01+000000PRSWM2
0246474905999992000060506004+42900+143170FM-15+0084RJCT V0201401N004110075019N0112651N1+01301+01001999999ADDGA1021+004509999GA2021+006009999GA3071+007509999GF107991999999999999999999MA1100611999999MW1001REMMET120RJCT 050600Z 14008KT 9999 FEW015 SCT020 BKN025 13/10 Q1006 RMK 2ST015 3SC020 7SC025 A2973 FCST 0615 TEMPO 0915 BKN009ST;EQDQ01+000000PRSWM2
0216474905999992000060507004+42900+143170FM-15+0084RJCT V0201501N002110042019N0112651N1+01301+01001999999ADDGA1021+002709999GA2021+003309999GA3071+004209999GF107991999999999999999999MA1100711999999MW1001REMMET090RJCT 050700Z 15004KT 9999 FEW009 SCT011 BKN014 13/10 Q1007 RMK 1ST009 3ST011 7ST014 A2973;EQDQ01+000000PRSWM2
0266474905999992000060508004+42900+143170FM-15+0084RJCT V0201501N002110042019N0112651N1+01201+01001999999ADDGA1021+002409999GA2021+003009999GA3071+004209999GF107991999999999999999999MA1100611999999MW1001REMMET140RJCT 050800Z 15004KT 9999 FEW008 SCT010 BKN014 12/10 Q1006 RMK 1ST008 3ST010 7ST014 A2972 FCST 0817 TEMPO 0912 BKN009ST BECMG 1213 BKN008ST;EQDQ01+000000PRSWM2
0205474905999992000060521004+42900+143170FM-15+0084RJCT V0200701N001010006019N0027001N1+00901+00901999999ADDGA1071+000609999GA2081+000909999GF108991999999999999999999MA1100411999999MW1101REMMET079RJCT 052100Z 07002KT 2700 BR BKN002 OVC003 09/09 Q1004 RMK 6ST002 8ST003 A2967;EQDQ01+000003PRSWM1Q02    003PRSWM1
0158474905999992000060522354+42900+143170FM-16+0084RJCT V0200401N000510015019N0050001N1+01001+00901999999ADDGA1081+001509999GF108991999999999999999999MA1100411999999MW1101REMMET048RJCT 052235Z 04001KT 5000 BR OVC005 10/09 Q1004;EQDQ01+000003PRSWM1Q02    003PRSWM1
0244474905999992000060523004+42900+143170FM-15+0084RJCT V0200701N001010015019N0060001N1+01101+00901999999ADDGA1071+001509999GF107991999999999999999999MA1100311999999MW1001REMMET150RJCT 052300Z 07002KT 6000 BKN005 11/09 Q1003 RMK 6ST005 A2964 FCST 2308 BECMG 2300 SCT008ST BKN015ST BECMG 0304 SCT020CU BKN080AC TEMPO 0708 BKN008ST;EQDQ01+000000PRSWM2
0186474905999992000060523134+42900+143170FM-16+0084RJCT V0200501N001010690019N0080001N1+01201+01001999999ADDGA1021+001809999GA2071+069009999GF107991999999999999999999MA1100311999999MW1001REMMET076RJCT 052313Z 05002KT 8000 SCT006 BKN230 12/10 Q1003 RMK 4ST006 5CI230 A2964;EQDQ01+000000PRSWM2
0292474905999992000060600004+42900+143170FM-15+0084RJCT V0201001N000510690019N0112651N1+01401+01001999999ADDGA1021+003009999GA2021+024009999GA3071+069009999GF107991999999999999999999MA1100311999999MW1001REMMET166RJCT 060000Z COR 10001KT 9999 FEW010 SCT080 BKN230 14/10 Q1003 RMK 1ST010 3AC080 5CI230 A2964 FCST COR 0009 BECMG 0304 FEW030CU BKN080AC TEMPO 0809 BKN015ST BKN020CU;EQDQ01+000000PRSWM2
0216474905999992000060601004+42900+143170FM-15+0084RJCT V0200901N001510690019N0112651N1+01601+01101999999ADDGA1021+004509999GA2021+024009999GA3071+069009999GF107991999999999999999999MA1100201999999MW1001REMMET090RJCT 060100Z 09003KT 9999 FEW015 SCT080 BKN230 16/11 Q1002 RMK 1CU015 4AC080 5CI230 A2961;EQDQ01+000000PRSWM2
0216474905999992000060602004+42900+143170FM-15+0084RJCT V0201601N001010690019N0112651N1+01901+01101999999ADDGA1021+006009999GA2021+036009999GA3071+069009999GF107991999999999999999999MA1100201999999MW1001REMMET090RJCT 060200Z 16002KT 9999 FEW020 SCT120 BKN230 19/11 Q1002 RMK 1CU020 4AC120 6CI230 A2960;EQDQ01+000000PRSWM2
0216474905999992000060605004+42900+143170FM-15+0084RJCT V0200401N001510360019N0112651N1+02501+01001999999ADDGA1021+010509999GA2071+036009999GA3071+066009999GF107991999999999999999999MA1099901999999MW1001REMMET090RJCT 060500Z 04003KT 9999 FEW035 BKN120 BKN220 25/10 Q0999 RMK 1CU035 5AC120 5CI220 A2952;EQDQ01+000000PRSWM2
0252474905999992000060606004+42900+143170FM-15+0084RJCT V0200901N003110360019N0112651N1+02601+01201999999ADDGA1021+010509999GA2071+036009999GA3071+066009999GF107991999999999999999999MA1099901999999MW1001REMMET126RJCT 060600Z 09006KT 9999 FEW035 BKN120 BKN220 26/12 Q0999 RMK 1CU035 5AC120 5CI220 A2951 FCST 0615 TEMPO 1215 -SHRA BKN020CU;EQDQ01+000000PRSWM2
0216474905999992000060607004+42900+143170FM-15+0084RJCT V0202201N002610330019N0112651N1+02501+01001999999ADDGA1021+010509999GA2071+033009999GA3071+066009999GF107991999999999999999999MA1099801999999MW1001REMMET090RJCT 060700Z 22005KT 9999 FEW035 BKN110 BKN220 25/10 Q0998 RMK 2CU035 5AC110 5CI220 A2949;EQDQ01+000000PRSWM2
0186474905999992000060622004+42900+143170FM-15+0084RJCT V0201201N002112200019N0112651N1+01701+01101999999ADDGA1021+007509999GA2021+009009999GF104991999999999999999999MA1099701999999MW1001REMMET076RJCT 062200Z 12004KT 9999 FEW025 SCT030 17/11 Q0997 RMK 1CU025 3CU030 A2946;EQDQ01+000000PRSWM2
0238474905999992000060700004+42900+143170FM-15+0084RJCT V0203101N002612200019N0112651N1+02101+01001999999ADDGA1021+006009029GA2021+010509999GF104991999999999999999999MA1099701999999MW1001REMMET128RJCT 070000Z 31005KT 9999 FEW020TCU SCT035 21/10 Q0997 RMK 2TCU020 3CU035 A2944 TCU NE STNR FCST 0009 TEMPO 0306 -SHRA BKN030CU;EQDQ01+000000PRSWM2
0203474905999992000060701004+42900+143170FM-15+0084RJCT V0203101N005112200019N0112651N1+02001+00801999999ADDGA1021+007509029GA2021+010509999GF104991999999999999999999MA1099701999999MW1001REMMET093RJCT 070100Z 31010KT 9999 FEW025TCU SCT035 20/08 Q0997 RMK 1TCU025 3CU035 A2944 TCU NE MOV E;EQDQ01+000000PRSWM2
0216474905999992000060703004+42900+143170FM-15+0084RJCT V0203101N007212200019N0112651N1+02101+00701999999ADDGA1021+010509999GF104991999999999999999999MA1099701999999MW1001OC101231REMMET114RJCT 070300Z 31014G24KT 9999 SCT035 21/07 Q0997 RMK 3CU035 A2946 FCST 0312 BECMG 0506 31008KT TEMPO 0609 BKN035CU;EQDQ01+000000PRSWM2
0186474905999992000060705004+42900+143170FM-15+0084RJCT V0203101N007212200019N0112651N1+02101+00601999999ADDGA1021+007509999GA2021+010509999GF104991999999999999999999MA1099901999999MW1001REMMET076RJCT 070500Z 31014KT 9999 FEW025 SCT035 21/06 Q0999 RMK 1CU025 3CU035 A2950;EQDQ01+000000PRSWM2
0226474905999992000060706004+42900+143170FM-15+0084RJCT V0203101N006212200019N0112651N1+01901+00801999999ADDGA1021+007509999GA2021+010509999GF104991999999999999999999MA1099901999999MW1001OC101181REMMET108RJCT 070600Z 31012G23KT 9999 FEW025 SCT035 19/08 Q0999 RMK 1CU025 3CU035 A2951 FCST 0615 BECMG 0708 31008KT;EQDQ01+000000PRSWM2
0186474905999992000060707364+42900+143170FM-16+0084RJCT V0203201N005110105019N0112651N1+01701+00801999999ADDGA1021+007509999GA2071+010509999GF107991999999999999999999MA1100101999999MW1001REMMET076RJCT 070736Z 32010KT 9999 FEW025 BKN035 17/08 Q1001 RMK 1CU025 6CU035 A2956;EQDQ01+000000PRSWM2
0226474905999992000060708004+42900+143170FM-15+0084RJCT V0203301N005110105019N0112651N1+01701+00801999999ADDGA1021+007509999GA2071+010509999GF107991999999999999999999MA1100101999999MW1001OC101031REMMET108RJCT 070800Z 33010G20KT 9999 FEW025 BKN035 17/08 Q1001 RMK 1CU025 6CU035 A2957 FCST 0817 BECMG 0809 30010KT;EQDQ01+000000PRSWM2
0216474905999992000060722004+42900+143170FM-15+0084RJCT V0201601N002110600019N0112651N1+01001+00901999999ADDGA1021+002409999GA2021+007509999GA3081+060009999GF108991999999999999999999MA1100911999999MW1001REMMET090RJCT 072200Z 16004KT 9999 FEW008 SCT025 OVC200 10/09 Q1009 RMK 2ST008 3SC025 8CI200 A2980;EQDQ01+000000PRSWM2
0238474905999992000060722134+42900+143170FM-16+0084RJCT V0201601N002110600019N0112651N1+01001+00801999999ADDGA1021+002409999GA2021+007509999GA3081+060009999GF108991999999999999999999MA1100911999999MW1801REMMET096RJCT 072213Z 16004KT 9999 -SHRA FEW008 SCT025 OVC200 10/08 Q1009 RMK 2ST008 3SC025 8CI200 A2980;EQDQ01+000003PRSWM1Q02    003PRSWM1
0216474905999992000060722434+42900+143170FM-16+0084RJCT V0201501N002610600019N0112651N1+01101+00901999999ADDGA1021+002409999GA2021+030009999GA3081+060009999GF108991999999999999999999MA1100911999999MW1001REMMET090RJCT 072243Z 15005KT 9999 SCT008 SCT100 OVC200 11/09 Q1009 RMK 3ST008 4AC100 8CI200 A2980;EQDQ01+000000PRSWM2
0269474905999992000060723004+42900+143170FM-15+0084RJCT V0201601N002610600019N0112651N1+01101+00801999999ADDGA1021+002409999GA2021+004509999GA3081+060009999GF108991999999999999999999MA1100911999999MW1001REMMET143RJCT 072300Z 16005KT 9999 FEW008 SCT015 OVC200 11/08 Q1009 RMK 1ST008 4SC015 8CI200 A2980 FCST 2308 TEMPO 2303 4500 -SHRA BR SCT008ST BKN015ST;EQDQ01+000000PRSWM2
0216474905999992000060723284+42900+143170FM-16+0084RJCT V0201701N001510030019N0112651N1+01101+00801999999ADDGA1071+003009999GA2071+027009999GA3081+060009999GF108991999999999999999999MA1100811999999MW1001REMMET090RJCT 072328Z 17003KT 9999 BKN010 BKN090 OVC200 11/08 Q1008 RMK 5ST010 6AC090 8CI200 A2979;EQDQ01+000000PRSWM2
0297474905999992000060800004+42900+143170FM-15+0084RJCT V0201601N002610030019N0112651N1+01101+00801999999ADDGA1021+002409999GA2071+003009999GA3071+027009999GF107991999999999999999999MA1100911999999MW1001REMMET171RJCT 080000Z 16005KT 9999 FEW008 BKN010 BKN090 11/08 Q1009 RMK 2ST008 6ST010 6AC090 A2980 FCST 0009 TEMPO 0003 4000 -SHRA BR BKN008ST OVC015ST TEMPO 0609 4000 BR BKN008ST;EQDQ01+000000PRSWM2
0216474905999992000060801004+42900+143170FM-15+0084RJCT V0201301N001510039019N0112651N1+01101+00901999999ADDGA1021+002409999GA2071+003909999GA3071+027009999GF107991999999999999999999MA1100911999999MW1001REMMET090RJCT 080100Z 13003KT 9999 FEW008 BKN013 BKN090 11/09 Q1009 RMK 2ST008 7ST013 7AC090 A2980;EQDQ01+000000PRSWM2
0208474905999992000060802004+42900+143170FM-15+0084RJCT V0201601N002110039019N0112651N1+01101+00901999999ADDGA1021+003309999GA2071+003909999GF107991999999999999999999MA1100911999999MW1801REMMET082RJCT 080200Z 16004KT 9999 -SHRA SCT011 BKN013 11/09 Q1009 RMK 4ST011 7ST013 A2980;EQDQ01+000003PRSWM1Q02    003PRSWM1
0338474905999992000060802284+42900+143170FM-16+0084RJCT V0201101N00211220001CN0112651N1+01101+00901999999ADDGA1021+002409999GA2021+003009999GA3071+003609999GA4021+006009099MA1100911999999MW1801REMMET190RJCT 080228Z 11004KT 9999 -SHRA FEW008 SCT010 BKN012 SCT020CB 11/09 Q1009 RMK 1ST008 3ST010 7ST012 4CB020 A2981 CB 15KM S-W MOV E FCST AMD 0209 TEMPO 0204 4000 TSRA TEMPO 0609 4000 BKN008ST;EQDQ01+000042SCOTCVQ02+000003PRSWM1Q03    003PRSWM1
0325474905999992000060803004+42900+143170FM-15+0084RJCT V0201601N001510027019N0070001N1+01001+00901999999ADDGA1021+001509999GA2021+002109999GA3071+002709999GA4071+006009099GF107991999999999999999999MA1101021999999MW1801REMMET167RJCT 080300Z 16003KT 7000 -SHRA FEW005 SCT007 BKN009 BKN020CB 10/09 Q1010 RMK 1ST005 3ST007 7ST009 6CB020 A2983 CB OHD MOV E FCST 0312 TEMPO 0304 4000 TEMPO 0612 4000;EQDQ01+000003PRSWM1Q02    003PRSWM1
0238474905999992000060803454+42900+143170FM-15+0084RJCT V0201401N002110075019N0080001N1+01001+01001999999ADDGA1021+000909999GA2021+001509999GA3081+007509999GF108991999999999999999999MA1100911999999MW1801REMMET096RJCT 080345Z 14004KT 8000 -SHRA FEW003 SCT005 OVC025 10/10 Q1009 RMK 1ST003 3ST005 8CU025 A2980;EQDQ01+000003PRSWM1Q02    003PRSWM1
0238474905999992000060804004+42900+143170FM-15+0084RJCT V0201201N000510075019N0080001N1+01001+00901999999ADDGA1021+000909999GA2021+001509999GA3081+007509999GF108991999999999999999999MA1100911999999MW1801REMMET096RJCT 080400Z 12001KT 8000 -SHRA FEW003 SCT005 OVC025 10/09 Q1009 RMK 1ST003 3ST005 8CU025 A2980;EQDQ01+000003PRSWM1Q02    003PRSWM1
0172474905999992000060804134+42900+143170FM-16+0084RJCT V0201201N001510018019N0090001N1+99999+99999999999ADDGA1021+000909999GA2071+001809999GA3071+007509999GF107991999999999999999999MW1001MW2801REMMET055RJCT 080413Z 12003KT 9000 -SHRA FEW003 BKN006 BKN025 1;EQDQ01+000003PRSWM1
0238474905999992000060805184+42900+143170FM-16+0084RJCT V0209999C000010075019N0080001N1+01101+01001999999ADDGA1021+001209999GA2021+002409999GA3081+007509999GF108991999999999999999999MA1100811999999MW1801REMMET096RJCT 080518Z 00000KT 8000 -SHRA FEW004 SCT008 OVC025 11/10 Q1008 RMK 2ST004 4ST008 8CU025 A2978;EQDQ01+000003PRSWM1Q02    003PRSWM1
0216474905999992000060807004+42900+143170FM-15+0084RJCT V0201201N001010075019N0112651N1+01201+01001999999ADDGA1021+001209999GA2021+004509999GA3081+007509999GF108991999999999999999999MA1100811999999MW1001REMMET090RJCT 080700Z 12002KT 9999 FEW004 SCT015 OVC025 12/10 Q1008 RMK 1ST004 3ST015 8CU025 A2978;EQDQ01+000000PRSWM2
0236474905999992000060807154+42900+143170FM-16+0084RJCT V0200701N001510030019N0112651N1+01101+01001999999ADDGA1021+001209999GA2071+003009999GA3081+004509999GF108991999999999999999999MA1100811999999MW1511REMMET094RJCT 080715Z 07003KT 9999 -DZ FEW004 BKN010 OVC015 11/10 Q1008 RMK 1ST004 6ST010 8ST015 A2978;EQDQ01+000003PRSWM1Q02    003PRSWM1
0245474905999992000060807454+42900+143170FM-15+0084RJCT V0200701N000510018019N0040001N1+01101+01001999999ADDGA1021+001209999GA2071+001809999GA3071+003009999GF107991999999999999999999MA1100811999999MW1101MW2511REMMET097RJCT 080745Z 07001KT 4000 -DZ BR FEW004 BKN006 BKN010 11/10 Q1008 RMK 1ST004 5ST006 7ST010 A2978;EQDQ01+000003PRSWM1Q02    003PRSWM1
0245474905999992000060901004+42900+143170FM-15+0084RJCT V0202001N001010090019N0035001N1+01201+01001999999ADDGA1021+000909999GA2021+002109999GA3071+009009999GF107991999999999999999999MA1100411999999MW1101MW2611REMMET097RJCT 090100Z 20002KT 3500 -RA BR FEW003 SCT007 BKN030 12/10 Q1004 RMK 2ST003 4ST007 7SC030 A2966;EQDQ01+000003PRSWM1Q02    003PRSWM1
0238474905999992000060903414+42900+143170FM-16+0084RJCT V0209999C000010024019N0080001N1+01201+01101999999ADDGA1021+001209999GA2071+002409999GA3071+009009999GF107991999999999999999999MA1100201999999MW1801REMMET096RJCT 090341Z 00000KT 8000 -SHRA FEW004 BKN008 BKN030 12/11 Q1002 RMK 2ST004 5ST008 7SC030 A2961;EQDQ01+000003PRSWM1Q02    003PRSWM1
0238474905999992000060904004+42900+143170FM-15+0084RJCT V0209999C000010024019N0090001N1+01201+01101999999ADDGA1021+001209999GA2071+002409999GA3081+009009999GF108991999999999999999999MA1100201999999MW1801REMMET096RJCT 090400Z 00000KT 9000 -SHRA FEW004 BKN008 OVC030 12/11 Q1002 RMK 2ST004 6ST008 8CU030 A2959;EQDQ01+000003PRSWM1Q02    003PRSWM1
0238474905999992000060905004+42900+143170FM-15+0084RJCT V0203201N000510027019N0112651N1+01201+01101999999ADDGA1021+001809999GA2071+002709999GA3071+009009999GF107991999999999999999999MA1100101999999MW1801REMMET096RJCT 090500Z 32001KT 9999 -SHRA FEW006 BKN009 BKN030 12/11 Q1001 RMK 1ST006 6ST009 7CU030 A2958;EQDQ01+000003PRSWM1Q02    003PRSWM1
0272474905999992000060906004+42900+143170FM-15+0084RJCT V0203001N001010030019N0112651N1+01201+01201999999ADDGA1021+002709999GA2071+003009999GA3071+009009999GF107991999999999999999999MA1100101999999MW1801REMMET130RJCT 090600Z 30002KT 9999 -SHRA SCT009 BKN010 BKN030 12/12 Q1001 RMK 3ST009 5ST010 7CU030 A2958 FCST 0615 BECMG 1112 NSW BKN020SC;EQDQ01+000003PRSWM1Q02    003PRSWM1
0238474905999992000060907004+42900+143170FM-15+0084RJCT V0202501N001010030019N0090001N1+01201+01201999999ADDGA1021+001809999GA2071+003009999GA3071+009009999GF107991999999999999999999MA1100101999999MW1801REMMET096RJCT 090700Z 25002KT 9000 -SHRA FEW006 BKN010 BKN030 12/12 Q1001 RMK 2ST006 5ST010 7CU030 A2956;EQDQ01+000003PRSWM1Q02    003PRSWM1
0238474905999992000060907224+42900+143170FM-16+0084RJCT V0202301N001510090019N0112651N1+01201+01201999999ADDGA1021+001809999GA2021+004509999GA3071+009009999GF107991999999999999999999MA1100001999999MW1801REMMET096RJCT 090722Z 23003KT 9999 -SHRA FEW006 SCT015 BKN030 12/12 Q1000 RMK 1ST006 3ST015 5SC030 A2955;EQDQ01+000003PRSWM1Q02    003PRSWM1
0216474905999992000061000004+42900+143170FM-15+0084RJCT V0200201N001010060019N0080001N1+01401+01201999999ADDGA1021+001509999GA2021+003009999GA3071+006009999GF107991999999999999999999MA1100711999999MW1001REMMET090RJCT 100000Z 02002KT 8000 FEW005 SCT010 BKN020 14/12 Q1007 RMK 1ST005 3ST010 6SC020 A2975;EQDQ01+000000PRSWM2
0186474905999992000061001004+42900+143170FM-15+0084RJCT V0202601N002112200019N0112651N1+01601+01201999999ADDGA1021+003009999GA2021+006009999GF104991999999999999999999MA1100711999999MW1001REMMET076RJCT 100100Z 26004KT 9999 FEW010 SCT020 16/12 Q1007 RMK 1ST010 3CU020 A2975;EQDQ01+000000PRSWM2
0186474905999992000061002004+42900+143170FM-15+0084RJCT V0202401N002112200019N0112651N1+01901+01301999999ADDGA1021+004509999GA2021+007509999GF104991999999999999999999MA1100711999999MW1001REMMET076RJCT 100200Z 24004KT 9999 FEW015 SCT025 19/13 Q1007 RMK 1ST015 3CU025 A2974;EQDQ01+000000PRSWM2
0186474905999992000061003004+42900+143170FM-15+0084RJCT V0202901N004612200019N0112651N1+02101+01101999999ADDGA1021+006009999GA2021+009009999GF104991999999999999999999MA1100711999999MW1001REMMET076RJCT 100300Z 29009KT 9999 FEW020 SCT030 21/11 Q1007 RMK 1CU020 3CU030 A2974;EQDQ01+000000PRSWM2
0186474905999992000061004004+42900+143170FM-15+0084RJCT V0203001N004612200019N0112651N1+02101+01001999999ADDGA1021+006009999GA2021+009009999GF104991999999999999999999MA1100711999999MW1001REMMET076RJCT 100400Z 30009KT 9999 FEW020 SCT030 21/10 Q1007 RMK 1CU020 3CU030 A2974;EQDQ01+000000PRSWM2
0156474905999992000061005004+42900+143170FM-15+0084RJCT V0203001N006212200019N0112651N1+02101+01001999999ADDGA1021+009009999GF102991999999999999999999MA1100711999999MW1001REMMET062RJCT 100500Z 30012KT 9999 FEW030 21/10 Q1007 RMK 2CU030 A2974;EQDQ01+000000PRSWM2
0167474905999992000061006004+42900+143170FM-15+0084RJCT V0203101N005112200019N0112651N1+02001+00901999999ADDGA1021+009009999GF102991999999999999999999MA1100711999999MW1001OC101081REMMET065RJCT 100600Z 31010G21KT 9999 FEW030 20/09 Q1007 RMK 2CU030 A2974;EQDQ01+000000PRSWM2
0167474905999992000061007004+42900+143170FM-15+0084RJCT V0203101N006712200019N0112651N1+02001+00801999999ADDGA1021+009009999GF102991999999999999999999MA1100811999999MW1001OC101291REMMET065RJCT 100700Z 31013G25KT 9999 FEW030 20/08 Q1008 RMK 2CU030 A2976;EQDQ01+000000PRSWM2
0156474905999992000061008004+42900+143170FM-15+0084RJCT V0203201N005112200019N0112651N1+02001+00701999999ADDGA1021+009009999GF102991999999999999999999MA1100811999999MW1001REMMET062RJCT 100800Z 32010KT 9999 FEW030 20/07 Q1008 RMK 2CU030 A2977;EQDQ01+000000PRSWM2
0156474905999992000061009004+42900+143170FM-15+0084RJCT V0203401N002112200019N0112651N1+01901+00701999999ADDGA1021+009009999GF102991999999999999999999MA1100911999999MW1001REMMET062RJCT 100900Z 34004KT 9999 FEW030 19/07 Q1009 RMK 1CU030 A2981;EQDQ01+000000PRSWM2
0186474905999992000061103524+42900+143170FM-16+0084RJCT V0201601N003610075019N0112651N1+01701+01101999999ADDGA1021+006009999GA2071+007509999GF107991999999999999999999MA1101081999999MW1001REMMET076RJCT 110352Z 16007KT 9999 SCT020 BKN025 17/11 Q1011 RMK 3SC020 6CU025 A2987;EQDQ01+000000PRSWM2
0186474905999992000061104004+42900+143170FM-15+0084RJCT V0201701N004110075019N0112651N1+01701+01101999999ADDGA1021+006009999GA2071+007509999GF107991999999999999999999MA1101081999999MW1001REMMET076RJCT 110400Z 17008KT 9999 SCT020 BKN025 17/11 Q1011 RMK 3SC020 6CU025 A2987;EQDQ01+000000PRSWM2
0186474905999992000061105004+42900+143170FM-15+0084RJCT V0201501N005110069019N0112651N1+01701+01201999999ADDGA1021+005409999GA2071+006909999GF107991999999999999999999MA1101081999999MW1001REMMET076RJCT 110500Z 15010KT 9999 FEW018 BKN023 17/12 Q1011 RMK 2SC018 6CU023 A2986;EQDQ01+000000PRSWM2
0186474905999992000061106004+42900+143170FM-15+0084RJCT V0201501N004610075019N0112651N1+01701+01201999999ADDGA1021+005409999GA2071+007509999GF107991999999999999999999MA1101021999999MW1001REMMET076RJCT 110600Z 15009KT 9999 SCT018 BKN025 17/12 Q1010 RMK 4SC018 5CU025 A2985;EQDQ01+000000PRSWM2
0155474905999992000061122004+42900+143170FM-15+0084RJCT V0201601N002110021019N0090001N1+01201+01101999999ADDGA1071+002109999GF107991999999999999999999MA1100911999999MW1001REMMET061RJCT 112200Z 16004KT 9000 BKN007 12/11 Q1009 RMK 7T007 A2981;EQDQ01+000000PRSWM2
0156474905999992000061122234+42900+143170FM-16+0084RJCT V0201301N002110024019N0090001N1+01301+01101999999ADDGA1071+002409999GF107991999999999999999999MA1100911999999MW1001REMMET062RJCT 112223Z 13004KT 9000 BKN008 13/11 Q1009 RMK 7ST008 A2980;EQDQ01+000000PRSWM2
0186474905999992000061122444+42900+143170FM-16+0084RJCT V0201401N002610030019N0112651N1+01301+01101999999ADDGA1021+002409999GA2071+003009999GF107991999999999999999999MA1100911999999MW1001REMMET076RJCT 112244Z 14005KT 9999 SCT008 BKN010 13/11 Q1009 RMK 4ST008 7ST010 A2980;EQDQ01+000000PRSWM2
0216474905999992000061123004+42900+143170FM-15+0084RJCT V0201301N002610033019N0112651N1+01301+01101999999ADDGA1021+002709999GA2071+003309999GF107991999999999999999999MA1100911999999MW1001REMMET106RJCT 112300Z 13005KT 9999 SCT009 BKN011 13/11 Q1009 RMK 4ST009 7ST011 A2980 FCST 2308 TEMPO 0205 SCT015SC;EQDQ01+000000PRSWM2
0246474905999992000061200004+42900+143170FM-15+0084RJCT V0200901N002110051019N0112651N1+01401+01101999999ADDGA1021+003609999GA2071+005109999GA3081+007509999GF108991999999999999999999MA1100811999999MW1001REMMET120RJCT 120000Z 09004KT 9999 FEW012 BKN017 OVC025 14/11 Q1008 RMK 1ST012 6ST017 8CU025 A2978 FCST 0009 TEMPO 0205 SCT025CU;EQDQ01+000000PRSWM2
0216474905999992000061201004+42900+143170FM-15+0084RJCT V0201401N003110054019N0112651N1+01401+01001999999ADDGA1021+004509999GA2071+005409999GA3081+007509999GF108991999999999999999999MA1100811999999MW1001REMMET090RJCT 120100Z 14006KT 9999 FEW015 BKN018 OVC025 14/10 Q1008 RMK 1ST015 5ST018 8CU025 A2977;EQDQ01+000000PRSWM2
0216474905999992000061202004+42900+143170FM-15+0084RJCT V0201801N001510054019N0112651N1+01501+01101999999ADDGA1021+004509999GA2071+005409999GA3071+007509999GF107991999999999999999999MA1100711999999MW1001REMMET090RJCT 120200Z 18003KT 9999 FEW015 BKN018 BKN025 15/11 Q1007 RMK 1ST015 5ST018 6CU025 A2976;EQDQ01+000000PRSWM2
0292474905999992000061203004+42900+143170FM-15+0084RJCT V0201101N003110270019N0112651N1+01501+01101999999ADDGA1021+004509999GA2021+007509999GA3071+027009999GF107991999999999999999999MA1100711999999MW1801REMMET150RJCT 120300Z 11006KT 9999 -SHRA FEW015 SCT025 BKN090 15/11 Q1007 RMK 1ST015 4CU025 5AC090 A2975 FCST 0312 BECMG 0303 NSW TEMPO 1112 SCT010ST BKN015ST;EQDQ01+000003PRSWM1Q02    003PRSWM1
0216474905999992000061204004+42900+143170FM-15+0084RJCT V0201601N001010075019N0112651N1+01701+01101999999ADDGA1021+004509999GA2071+007509999GA3071+027009999GF107991999999999999999999MA1100711999999MW1001REMMET090RJCT 120400Z 16002KT 9999 FEW015 BKN025 BKN090 17/11 Q1007 RMK 1ST015 5CU025 5AC090 A2974;EQDQ01+000000PRSWM2
0216474905999992000061205004+42900+143170FM-15+0084RJCT V0200701N001510270019N0112651N1+01801+01201999999ADDGA1021+006009999GA2021+009009999GA3071+027009999GF107991999999999999999999MA1100611999999MW1001REMMET090RJCT 120500Z 07003KT 9999 FEW020 SCT030 BKN090 18/12 Q1006 RMK 1CU020 4CU030 5AC090 A2972;EQDQ01+000000PRSWM2
0186474905999992000061207004+42900+143170FM-15+0084RJCT V0201201N002612200019N0112651N1+01801+01201999999ADDGA1021+009009999GA2021+027009999GF104991999999999999999999MA1100511999999MW1001REMMET076RJCT 120700Z 12005KT 9999 FEW030 SCT090 18/12 Q1005 RMK 1CU030 3AC090 A2969;EQDQ01+000000PRSWM2
0186474905999992000061208004+42900+143170FM-15+0084RJCT V0200901N002112200019N0112651N1+01801+01201999999ADDGA1021+004509999GF102991999999999999999999MA1100511999999MW1001REMMET092RJCT 120800Z 09004KT 9999 FEW015 18/12 Q1005 RMK 1CU015 A2967 FCST 0817 TEMPO 1217 BKN010ST;EQDQ01+000000PRSWM2
0229474905999992000061223004+42900+143170FM-15+0084RJCT V0201001N001010009019N0020001N1+01101+01101999999ADDGA1071+000909999GF107991999999999999999999MA1100611999999MW1101REMMET119RJCT 122300Z 10002KT 2000 BR BKN003 11/11 Q1006 RMK 7ST003 A2972 FCST 2308 BECMG 2300 NSW SCT010ST TEMPO 0308 BKN090AC;EQDQ01+000003PRSWM1Q02    003PRSWM1
0205474905999992000061223164+42900+143170FM-16+0084RJCT V0201501N001010630019N0050001N1+01201+01001999999ADDGA1021+001509999GA2071+063009999GF107991999999999999999999MA1100611999999MW1101REMMET079RJCT 122316Z 15002KT 5000 BR SCT005 BKN210 12/10 Q1006 RMK 4ST005 6CI210 A2972;EQDQ01+000003PRSWM1Q02    003PRSWM1
0186474905999992000061300004+42900+143170FM-15+0084RJCT V0201501N002110630019N0070001N1+01501+01201999999ADDGA1071+063009999GF107991999999999999999999MA1100611999999MW1001REMMET092RJCT 130000Z 15004KT 7000 BKN210 15/12 Q1006 RMK 6CI210 A2970 FCST 0009 TEMPO 0409 BKN120AC;EQDQ01+000000PRSWM2
0216474905999992000061303004+42900+143170FM-15+0084RJCT V0200801N002610630019N0112651N1+02201+01401999999ADDGA1021+006009999GA2071+063009999GF107991999999999999999999MA1100411999999MW1001REMMET106RJCT 130300Z 08005KT 9999 FEW020 BKN210 22/14 Q1004 RMK 1CU020 6CI210 A2966 FCST 0312 TEMPO 1112 BKN008ST;EQDQ01+000000PRSWM2
0186474905999992000061304004+42900+143170FM-15+0084RJCT V0200601N004610630019N0112651N1+02301+01501999999ADDGA1021+007509999GA2071+063009999GF107991999999999999999999MA1100311999999MW1001REMMET076RJCT 130400Z 06009KT 9999 FEW025 BKN210 23/15 Q1003 RMK 1CU025 7CI210 A2964;EQDQ01+000000PRSWM2
0216474905999992000061305004+42900+143170FM-15+0084RJCT V0200501N004110660019N0112651N1+02201+01501999999ADDGA1021+007509999GA2021+036009999GA3071+066009999GF107991999999999999999999MA1100311999999MW1001REMMET090RJCT 130500Z 05008KT 9999 FEW025 SCT120 BKN220 22/15 Q1003 RMK 1CU025 3AC120 6CI220 A2964;EQDQ01+000000PRSWM2
0254474905999992000061306004+42900+143170FM-15+0084RJCT V0200901N003610660019N0112651N1+02301+01501999999ADDGA1021+007509999GA2021+033009999GA3071+066009999GF107991999999999999999999MA1100311999999MW1001REMMET128RJCT 130600Z 09007KT 020V120 9999 FEW025 SCT110 BKN220 23/15 Q1003 RMK 1CU025 3AC110 6CI220 A2963 FCST 0615 TEMPO 1112 BKN008ST;EQDQ01+000000PRSWM2
0186474905999992000061322004+42900+143170FM-15+0084RJCT V0201201N001010024019N0080001N1+01501+01401999999ADDGA1021+001509999GA2071+002409999GF107991999999999999999999MA1100411999999MW1001REMMET076RJCT 132200Z 12002KT 8000 FEW005 BKN008 15/14 Q1004 RMK 2ST005 7ST008 A2967;EQDQ01+000000PRSWM2
0275474905999992000061323004+42900+143170FM-15+0084RJCT V02099999999990027019N0112651N1+01501+01401999999ADDGA1021+001809999GA2021+002109999GA3071+002709999GF107991999999999999999999MA1100511999999MW1001REMMET149RJCT 132300Z VRB02KT 9999 FEW006 SCT007 BKN009 15/14 Q1005 RMK 1ST006 3ST007 7ST009 A2967 FCST 2308 BECMG 2300 BKN012ST TEMPO 0306 SCT020SC BKN110AC;EQDQ01+000000PRSWM2
0216474905999992000061323154+42900+143170FM-16+0084RJCT V0200701N001510075019N0112651N1+01601+01401999999ADDGA1021+002109999GA2021+002709999GA3071+007509999GF107991999999999999999999MA1100411999999MW1001REMMET090RJCT 132315Z 07003KT 9999 FEW007 SCT009 BKN025 16/14 Q1004 RMK 1ST007 3ST009 5SC025 A2967;EQDQ01+000000PRSWM2
0255474905999992000061400004+42900+143170FM-15+0084RJCT V0200601N001510030019N0112651N1+01701+01401999999ADDGA1021+002109999GA2071+003009999GA3071+003909999GF107991999999999999999999MA1100411999999MW1001REMMET129RJCT 140000Z 06003KT 9999 FEW007 BKN010 BKN013 17/14 Q1004 RMK 1ST007 5ST010 6ST013 A2967 FCST 0009 TEMPO 0306 SCT020SC BKN100AC;EQDQ01+000000PRSWM2
0216474905999992000061401004+42900+143170FM-15+0084RJCT V0201001N002610054019N0112651N1+01801+01401999999ADDGA1021+003009999GA2021+003909999GA3071+005409999GF107991999999999999999999MA1100411999999MW1001REMMET090RJCT 140100Z 10005KT 9999 FEW010 SCT013 BKN018 18/14 Q1004 RMK 1ST010 3ST013 6SC018 A2967;EQDQ01+000000PRSWM2
0286474905999992000061403004+42900+143170FM-15+0084RJCT V0201001N002110630019N0112651N1+02101+01501999999ADDGA1021+003909999GA2021+006009999GA3071+063009999GF107991999999999999999999MA1100411999999MW1001REMMET160RJCT 140300Z 10004KT 9999 FEW013 SCT020 BKN210 21/15 Q1004 RMK 1ST013 4SC020 6CI210 A2965 FCST 0312 TEMPO 0308 BKN020CU BECMG 0809 BKN015SC TEMPO 0912 BKN008ST;EQDQ01+000000PRSWM2
0216474905999992000061404004+42900+143170FM-15+0084RJCT V0201201N003110630019N0112651N1+02001+01501999999ADDGA1021+004509999GA2021+006009999GA3071+063009999GF107991999999999999999999MA1100311999999MW1001REMMET090RJCT 140400Z 12006KT 9999 FEW015 SCT020 BKN210 20/15 Q1003 RMK 1ST015 4CU020 7CI210 A2963;EQDQ01+000000PRSWM2
0286474905999992000061406004+42900+143170FM-15+0084RJCT V0201201N003110600019N0112651N1+02001+01601999999ADDGA1021+004509999GA2021+006009999GA3071+060009999GF107991999999999999999999MA1100311999999MW1001REMMET160RJCT 140600Z 12006KT 9999 FEW015 SCT020 BKN200 20/16 Q1003 RMK 1ST015 4CU020 7CS200 A2963 FCST 0615 TEMPO 0608 BKN020CU BECMG 0910 BKN015SC TEMPO 1013 BKN008ST;EQDQ01+000000PRSWM2
0216474905999992000061407004+42900+143170FM-15+0084RJCT V0201601N004610600019N0112651N1+01901+01501999999ADDGA1021+004509999GA2021+006009999GA3071+060009999GF107991999999999999999999MA1100311999999MW1001REMMET090RJCT 140700Z 16009KT 9999 FEW015 SCT020 BKN200 19/15 Q1003 RMK 1ST015 4CU020 7CS200 A2963;EQDQ01+000000PRSWM2
0246474905999992000061408004+42900+143170FM-15+0084RJCT V0201501N004610600019N0112651N1+01701+01401999999ADDGA1021+004509999GA2021+006009999GA3071+060009999GF107991999999999999999999MA1100411999999MW1001REMMET120RJCT 140800Z 15009KT 9999 SCT015 SCT020 BKN200 17/14 Q1004 RMK 3ST015 3CU020 7CS200 A2965 FCST 0817 TEMPO 0915 BKN008ST;EQDQ01+000000PRSWM2
0235474905999992000061422004+42900+143170FM-15+0084RJCT V0202001N000510027019N0050001N1+01401+01401999999ADDGA1071+002709999GA2071+006009999GA3071+030009999GF107991999999999999999999MA1100911999999MW1101REMMET093RJCT 142200Z 20001KT 5000 BR BKN009 BKN020 BKN100 14/14 Q1009 RMK 5ST009 6SC020 7AC100 A2981;EQDQ01+000003PRSWM1Q02    003PRSWM1
0216474905999992000061422244+42900+143170FM-16+0084RJCT V0202701N000510540019N0080001N1+01501+01401999999ADDGA1021+003009999GA2021+030009999GA3071+054009999GF107991999999999999999999MA1100911999999MW1001REMMET090RJCT 142224Z 27001KT 8000 FEW010 SCT100 BKN180 15/14 Q1009 RMK 2ST010 3AC100 7AC180 A2981;EQDQ01+000000PRSWM2
0255474905999992000061423004+42900+143170FM-15+0084RJCT V0209999C000010600019N0112651N1+01601+01401999999ADDGA1021+012009999GA2021+030009999GA3071+060009999GF107991999999999999999999MA1100911999999MW1001REMMET129RJCT 142300Z 00000KT 9999 FEW040 SCT100 BKN200 16/14 Q1009 RMK 1SC040 3AC100 7CI200 A2981 FCST 2308 TEMPO 0004 FEW040SC BKN100AC;EQDQ01+000000PRSWM2
0255474905999992000061500004+42900+143170FM-15+0084RJCT V0201701N000510630019N0112651N1+01901+01501999999ADDGA1021+013509999GA2021+030009999GA3071+063009999GF107991999999999999999999MA1100911999999MW1001REMMET129RJCT 150000Z 17001KT 9999 FEW045 SCT100 BKN210 19/15 Q1009 RMK 1SC045 3AC100 7CI210 A2981 FCST 0009 TEMPO 0004 FEW040SC BKN100AC;EQDQ01+000000PRSWM2
0186474905999992000061501004+42900+143170FM-15+0084RJCT V02099999999990630019N0112651N1+02101+01501999999ADDGA1021+013509999GA2071+063009999GF107991999999999999999999MA1100911999999MW1001REMMET076RJCT 150100Z VRB02KT 9999 FEW045 BKN210 21/15 Q1009 RMK 1SC045 7CI210 A2982;EQDQ01+000000PRSWM2
0202474905999992000061503004+42900+143170FM-15+0084RJCT V0202401N002110630019N0112651N1+02501+01401999999ADDGA1021+010509999GA2071+063009999GF107991999999999999999999MA1100811999999MW1001REMMET092RJCT 150300Z 24004KT 9999 SCT035 BKN210 25/14 Q1008 RMK 3CU035 5CI210 A2979 FCST 0312 NOSIG;EQDQ01+000000PRSWM2
0259474905999992000061504004+42900+143170FM-15+0084RJCT V0203301N003110660019N0112651N1+02501+01301999999ADDGA1021+009009029GA2021+012009999GA3071+066009999GF107991999999999999999999MA1100811999999MW1001REMMET133RJCT 150400Z 33006KT 290V070 9999 FEW030TCU SCT040 BKN220 25/13 Q1008 RMK 2TCU030 3CU040 5CI220 A2977 TCU OHD AND ABT 12KM NW MOV NE;EQDQ01+000000PRSWM2
0209474905999992000061505004+42900+143170FM-15+0084RJCT V0203001N004612200019N0112651N1+02601+01301999999ADDGA1021+009009029GA2021+012009999GF104991999999999999999999MA1100811999999MW1001REMMET099RJCT 150500Z 30009KT 9999 FEW030TCU SCT040 26/13 Q1008 RMK 1TCU030 3CU040 A2977 TCU 15KM NW MOV SE;EQDQ01+000000PRSWM2
0240474905999992000061506004+42900+143170FM-15+0084RJCT V0202901N004612200019N0112651N1+02601+01301999999ADDGA1021+009009029GA2021+066009999GF104991999999999999999999MA1100811999999MW1001REMMET130RJCT 150600Z 29009KT 9999 FEW030TCU SCT220 26/13 Q1008 RMK 2TCU030 4CI220 A2977 TCU 20KM S-W MOV SE FCST 0615 TEMPO 1315 BKN008ST;EQDQ01+000000PRSWM2
0197474905999992000061507004+42900+143170FM-15+0084RJCT V0203101N004612200019N0112651N1+02501+01301999999ADDGA1021+009009999GA2021+066009999GF104991999999999999999999MA1100811999999MW1001OC101031REMMET079RJCT 150700Z 31009G20KT 9999 FEW030 SCT220 25/13 Q1008 RMK 2CU030 4CI220 A2978;EQDQ01+000000PRSWM2
0246474905999992000061508004+42900+143170FM-15+0084RJCT V0203201N005712200019N0112651N1+02401+01301999999ADDGA1021+009009999GA2021+066009999GF104991999999999999999999MA1100911999999MW1001OC101081REMMET128RJCT 150800Z 32011G21KT 9999 FEW030 SCT220 24/13 Q1009 RMK 2CU030 3CI220 A2979 FCST 0817 BECMG 1011 32008KT TEMPO 1517 BKN008ST;EQDQ01+000000PRSWM2
0216474905999992000061522004+42900+143170FM-15+0084RJCT V0202901N001010390019N0112651N1+01701+01501999999ADDGA1021+003009999GA2021+027009999GA3071+039009999GF107991999999999999999999MA1101191999999MW1001REMMET090RJCT 152200Z 29002KT 9999 FEW010 SCT090 BKN130 17/15 Q1012 RMK 2ST010 4AC090 7AC130 A2990;EQDQ01+000000PRSWM2
0255474905999992000061523004+42900+143170FM-15+0084RJCT V0202601N001010390019N0112651N1+01801+01501999999ADDGA1021+006009999GA2021+027009999GA3071+039009999GF107991999999999999999999MA1101191999999MW1001REMMET129RJCT 152300Z 26002KT 9999 FEW020 SCT090 BKN130 18/15 Q1012 RMK 1SC020 3AC090 5AC130 A2990 FCST 2308 BECMG 0001 FEW090AC SCT130AC;EQDQ01+000000PRSWM2
0259474905999992000061600004+42900+143170FM-15+0084RJCT V0203301N000510390019N0112651N1+02001+01501999999ADDGA1021+006009999GA2021+027009999GA3071+039009999GF107991999999999999999999MA1101191999999MW1001REMMET133RJCT 160000Z COR 33001KT 9999 FEW020 SCT090 BKN130 20/15 Q1012 RMK 1SC020 3AC090 5AC130 A2989 FCST 0009 BECMG 0001 FEW090AC SCT130AC;EQDQ01+000000PRSWM2
0186474905999992000061601004+42900+143170FM-15+0084RJCT V0200101N001012200019N0112651N1+02201+01401999999ADDGA1021+007509999GA2021+027009999GF104991999999999999999999MA1101191999999MW1001REMMET076RJCT 160100Z 01002KT 9999 FEW025 SCT090 22/14 Q1012 RMK 1CU025 4AC090 A2988;EQDQ01+000000PRSWM2
0186474905999992000061602004+42900+143170FM-15+0084RJCT V02099999999992200019N0112651N1+02301+01301999999ADDGA1021+007509999GA2021+012009999GF104991999999999999999999MA1101081999999MW1001REMMET076RJCT 160200Z VRB02KT 9999 FEW025 SCT040 23/13 Q1011 RMK 1CU025 3CU040 A2988;EQDQ01+000000PRSWM2
0202474905999992000061603004+42900+143170FM-15+0084RJCT V0201001N001012200019N0112651N1+02401+01401999999ADDGA1021+007509999GA2021+012009999GF104991999999999999999999MA1101081999999MW1001REMMET092RJCT 160300Z 10002KT 9999 FEW025 SCT040 24/14 Q1011 RMK 1CU025 3CU040 A2987 FCST 0312 NOSIG;EQDQ01+000000PRSWM2
0222474905999992000061603414+42900+143170FM-16+0084RJCT V0202701N001512200019N0112651N1+02501+01401999999ADDGA1021+007509999GA2021+012009999GF104991999999999999999999MA1101081999999MW1081REMMET096RJCT 160341Z 27003KT 9999 PO FEW025 SCT040 25/14 Q1011 RMK 1CU025 3CU040 A2986 PO 1KM NE MOV SE;EQDQ01+000003PRSWM1Q02    003PRSWM1
0186474905999992000061604004+42900+143170FM-15+0084RJCT V0202501N001512200019N0112651N1+02601+01501999999ADDGA1021+007509999GA2021+012009999GF104991999999999999999999MA1101081999999MW1001REMMET076RJCT 160400Z 25003KT 9999 FEW025 SCT040 26/15 Q1011 RMK 2CU025 4CU040 A2986;EQDQ01+000000PRSWM2
0186474905999992000061605004+42900+143170FM-15+0084RJCT V0201401N004610120019N0112651N1+02301+01601999999ADDGA1021+007509999GA2071+012009999GF107991999999999999999999MA1101081999999MW1001REMMET076RJCT 160500Z 14009KT 9999 FEW025 BKN040 23/16 Q1011 RMK 2CU025 5CU040 A2985;EQDQ01+000000PRSWM2
0202474905999992000061606004+42900+143170FM-15+0084RJCT V0201301N004612200019N0112651N1+02501+01601999999ADDGA1021+007509999GA2021+012009999GF104991999999999999999999MA1101021999999MW1001REMMET092RJCT 160600Z 13009KT 9999 FEW025 SCT040 25/16 Q1010 RMK 1CU025 3CU040 A2984 FCST 0615 NOSIG;EQDQ01+000000PRSWM2
0202474905999992000061608004+42900+143170FM-15+0084RJCT V0201601N005112200019N0112651N1+02301+01501999999ADDGA1021+007509999GA2021+069009999GF104991999999999999999999MA1101021999999MW1001REMMET092RJCT 160800Z 16010KT 9999 FEW025 SCT230 23/15 Q1010 RMK 1CU025 3CI230 A2984 FCST 0817 NOSIG;EQDQ01+000000PRSWM2
0156474905999992000061700004+42900+143170FM-15+0084RJCT V0201301N001512200019N0112651N1+02601+01601999999ADDGA1021+009009999GF102991999999999999999999MA1101081999999MW1001REMMET062RJCT 170000Z 13003KT 9999 FEW030 26/16 Q1011 RMK 1CU030 A2987;EQDQ01+000000PRSWM2
0156474905999992000061701004+42900+143170FM-15+0084RJCT V0201501N001512200019N0112651N1+02401+01501999999ADDGA1021+009009999GF102991999999999999999999MA1101081999999MW1001REMMET062RJCT 170100Z 15003KT 9999 FEW030 24/15 Q1011 RMK 1CU030 A2985;EQDQ01+000000PRSWM2
0156474905999992000061702004+42900+143170FM-15+0084RJCT V0201501N002112200019N0112651N1+02601+01501999999ADDGA1021+009009999GF102991999999999999999999MA1101021999999MW1001REMMET062RJCT 170200Z 15004KT 9999 FEW030 26/15 Q1010 RMK 1CU030 A2984;EQDQ01+000000PRSWM2
0167474905999992000061722004+42900+143170FM-15+0084RJCT V02099999999990001519N0005001N1+01301+01301999999ADDGA1091+000159999GF109991999999000251999999MA1100811999999MW1451REMMET057RJCT 172200Z VRB01KT 0500 FG VV000 13/13 Q1008 RMK A2979;EQDQ01+000003PRSWM1Q02    003PRSWM1
0230474905999992000061722264+42900+143170FM-16+0084RJCT V0203201N001010006019N0015001N1+01401+01401999999ADDGA1021+000309999GA2081+000609999GF108991999999999999999999MA1100811999999MW1101REMMET088RJCT COR 172226Z 32002KT 1500 BR BCFG SCT001 OVC002 14/14 Q1008 RMK 4ST001 8ST002 A2978;EQDQ01+000410PRSWM3Q02+000003PRSWM1Q03    003PRSWM1
0226474905999992000061722374+42900+143170FM-16+0084RJCT V0203201N000510009019N0030001N1+01401+01401999999ADDGA1021+000609999GA2071+000909999GF107991999999999999999999MA1100811999999MW1101REMMET084RJCT 172237Z 32001KT 3000 BR BCFG SCT002 BKN003 14/14 Q1008 RMK 4ST002 7ST003 A2978;EQDQ01+000410PRSWM3Q02+000003PRSWM1Q03    003PRSWM1
0226474905999992000061722514+42900+143170FM-16+0084RJCT V0202901N001010015019N0050001N1+01501+01401999999ADDGA1021+000909999GA2071+001509999GF107991999999999999999999MA1100811999999MW1101REMMET084RJCT 172251Z 29002KT 5000 BR BCFG SCT003 BKN005 15/14 Q1008 RMK 4ST003 5ST005 A2978;EQDQ01+000410PRSWM3Q02+000003PRSWM1Q03    003PRSWM1
0230474905999992000061723004+42900+143170FM-15+0084RJCT V0203001N001012200019N0050001N1+01501+01401999999ADDGA1021+000909999GA2021+001809999GF104991999999999999999999MA1100811999999MW1101REMMET104RJCT 172300Z 30002KT 5000 BR SCT003 SCT006 15/14 Q1008 RMK 3ST003 3ST006 A2978 FCST 2308 BECMG 2323 NSW;EQDQ01+000003PRSWM1Q02    003PRSWM1
0156474905999992000061723184+42900+143170FM-16+0084RJCT V02099999999992200019N0080001N1+01701+01501999999ADDGA1021+001809999GF102991999999999999999999MA1100811999999MW1001REMMET062RJCT 172318Z VRB01KT 8000 FEW006 17/15 Q1008 RMK 1ST006 A2977;EQDQ01+000000PRSWM2
0146474905999992000061800004+42900+143170FM-15+0084RJCT V0201001N000512200019N0112651N1+01901+01501999999ADDGF100991999999999999999999MA1100711999999MW1001REMMET068RJCT 180000Z 10001KT 9999 SKC 19/15 Q1007 RMK A2976 FCST 0009 NOSIG;EQDQ01+000000PRSWM2
0156474905999992000061801004+42900+143170FM-15+0084RJCT V0201001N001012200019N0112651N1+02201+01601999999ADDGA1021+027009999GF102991999999999999999999MA1100711999999MW1001REMMET062RJCT 180100Z 10002KT 9999 FEW090 22/16 Q1007 RMK 1AC090 A2974;EQDQ01+000000PRSWM2
0156474905999992000061802004+42900+143170FM-15+0084RJCT V0201001N001512200019N0112651N1+02501+01801999999ADDGA1021+010509999GF102991999999999999999999MA1100611999999MW1001REMMET062RJCT 180200Z 10003KT 9999 FEW035 25/18 Q1006 RMK 1CU035 A2972;EQDQ01+000000PRSWM2
0172474905999992000061803004+42900+143170FM-15+0084RJCT V0201001N002112200019N0112651N1+02801+01801999999ADDGA1021+010509999GF102991999999999999999999MA1100511999999MW1001REMMET078RJCT 180300Z 10004KT 9999 FEW035 28/18 Q1005 RMK 1CU035 A2969 FCST 0312 NOSIG;EQDQ01+000000PRSWM2
0156474905999992000061804004+42900+143170FM-15+0084RJCT V0201601N004612200019N0112651N1+02901+01501999999ADDGA1021+010509999GF102991999999999999999999MA1100411999999MW1001REMMET062RJCT 180400Z 16009KT 9999 FEW035 29/15 Q1004 RMK 1CU035 A2967;EQDQ01+000000PRSWM2
0156474905999992000061805004+42900+143170FM-15+0084RJCT V0201601N006212200019N0112651N1+02901+01501999999ADDGA1021+010509999GF102991999999999999999999MA1100411999999MW1001REMMET062RJCT 180500Z 16012KT 9999 FEW035 29/15 Q1004 RMK 1CU035 A2966;EQDQ01+000000PRSWM2
0156474905999992000061822004+42900+143170FM-15+0084RJCT V02099999999992200019N0060001N1+01701+01201999999ADDGA1021+001509999GF102991999999999999999999MA1100611999999MW1001REMMET062RJCT 182200Z VRB01KT 6000 FEW005 17/12 Q1006 RMK 1ST005 A2972;EQDQ01+000000PRSWM2
0215474905999992000061823004+42900+143170FM-15+0084RJCT V02099999999992200019N0112651N1+01901+01301999999ADDGA1021+036009999GF102991999999999999999999MA1100611999999MW1001REMMET121RJCT 182300Z VRB03KT 9999 FEW120 19/13 Q1006 RMK 1AC120 A2971 FCST 2308 TEMPO 0306 BKN100AC TEMPO 0608 BKN030CU BKN100AC;EQDQ01+000000PRSWM2
0215474905999992000061900004+42900+143170FM-15+0084RJCT V0200601N001512200019N0112651N1+02301+01301999999ADDGA1021+036009999GF102991999999999999999999MA1100511999999MW1001REMMET121RJCT 190000Z 06003KT 9999 FEW120 23/13 Q1005 RMK 1AC120 A2969 FCST 0009 TEMPO 0306 BKN100AC TEMPO 0609 BKN030CU BKN080AC;EQDQ01+000000PRSWM2
0186474905999992000061901004+42900+143170FM-15+0084RJCT V0201001N001010750019N0112651N1+02501+01201999999ADDGA1021+036009999GA2071+075009999GF107991999999999999999999MA1100511999999MW1001REMMET076RJCT 190100Z 10002KT 9999 FEW120 BKN250 25/12 Q1005 RMK 1AC120 5CI250 A2969;EQDQ01+000000PRSWM2
0216474905999992000061902004+42900+143170FM-15+0084RJCT V0201101N002610840019N0112651N1+02701+01201999999ADDGA1021+012009999GA2021+036009999GA3071+084009999GF107991999999999999999999MA1100511999999MW1001REMMET090RJCT 190200Z 11005KT 9999 FEW040 SCT120 BKN280 27/12 Q1005 RMK 1SC040 3AC120 6CI280 A2968;EQDQ01+000000PRSWM2
0216474905999992000061904004+42900+143170FM-15+0084RJCT V0200401N003110300019N0112651N1+02601+01301999999ADDGA1021+012009999GA2071+030009999GA3071+075009999GF107991999999999999999999MA1100411999999MW1001REMMET090RJCT 190400Z 04006KT 9999 SCT040 BKN100 BKN250 26/13 Q1004 RMK 4SC040 5AC100 7CI250 A2966;EQDQ01+000000PRSWM2
0238474905999992000061904324+42900+143170FM-16+0084RJCT V0200601N002110270019N0112651N1+02501+01301999999ADDGA1021+012009999GA2071+027009999GA3071+069009999GF107991999999999999999999MA1100411999999MW1801REMMET096RJCT 190432Z 06004KT 9999 -SHRA SCT040 BKN090 BKN230 25/13 Q1004 RMK 4SC040 5AC090 7CI230 A2965;EQDQ01+000003PRSWM1Q02    003PRSWM1
0216474905999992000061905004+42900+143170FM-15+0084RJCT V0200801N002610270019N0112651N1+02501+01301999999ADDGA1021+012009999GA2071+027009999GA3071+069009999GF107991999999999999999999MA1100411999999MW1001REMMET090RJCT 190500Z 08005KT 9999 SCT040 BKN090 BKN230 25/13 Q1004 RMK 4SC040 6AC090 7CI230 A2965;EQDQ01+000000PRSWM2
0246474905999992000061906004+42900+143170FM-15+0084RJCT V0200701N001510270019N0112651N1+02301+01301999999ADDGA1021+012009999GA2071+027009999GA3071+069009999GF107991999999999999999999MA1100411999999MW1001REMMET120RJCT 190600Z 07003KT 9999 SCT040 BKN090 BKN230 23/13 Q1004 RMK 4SC040 5AC090 7CI230 A2966 FCST 0615 TEMPO 0610 BKN030CU;EQDQ01+000000PRSWM2
0216474905999992000061907004+42900+143170FM-15+0084RJCT V0203601N002610270019N0112651N1+02401+01301999999ADDGA1021+012009999GA2071+027009999GA3071+069009999GF107991999999999999999999MA1100411999999MW1001REMMET090RJCT 190700Z 36005KT 9999 SCT040 BKN090 BKN230 24/13 Q1004 RMK 4SC040 5AC090 6CI230 A2967;EQDQ01+000000PRSWM2
0232474905999992000061908004+42900+143170FM-15+0084RJCT V0203601N001510270019N0112651N1+02201+01201999999ADDGA1021+013509999GA2071+027009999GA3071+069009999GF107991999999999999999999MA1100511999999MW1001REMMET106RJCT 190800Z 36003KT 9999 FEW045 BKN090 BKN230 22/12 Q1005 RMK 2SC045 5AC090 5CI230 A2968 FCST 0817 NOSIG;EQDQ01+000000PRSWM2
0186474905999992000061922004+42900+143170FM-15+0084RJCT V0200401N000510105019N0112651N1+01501+01301999999ADDGA1071+010509999GA2071+030009999GF107991999999999999999999MA1100811999999MW1001REMMET076RJCT 192200Z 04001KT 9999 BKN035 BKN100 15/13 Q1008 RMK 5SC035 6AC100 A2979;EQDQ01+000000PRSWM2
0202474905999992000061923004+42900+143170FM-15+0084RJCT V02099999999992200019N0112651N1+01701+01401999999ADDGA1021+009009999GA2021+063009999GF104991999999999999999999MA1100811999999MW1001REMMET092RJCT 192300Z VRB02KT 9999 FEW030 SCT210 17/14 Q1008 RMK 2CU030 4CI210 A2978 FCST 2308 NOSIG;EQDQ01+000000PRSWM2
0172474905999992000062000004+42900+143170FM-15+0084RJCT V0201501N002112200019N0112651N1+01901+01401999999ADDGA1021+009009999GF102991999999999999999999MA1100811999999MW1001REMMET078RJCT 200000Z 15004KT 9999 FEW030 19/14 Q1008 RMK 2CU030 A2978 FCST 0009 NOSIG;EQDQ01+000000PRSWM2
0156474905999992000062001004+42900+143170FM-15+0084RJCT V0201501N003112200019N0112651N1+02001+01401999999ADDGA1021+009009999GF102991999999999999999999MA1100811999999MW1001REMMET062RJCT 200100Z 15006KT 9999 FEW030 20/14 Q1008 RMK 1CU030 A2977;EQDQ01+000000PRSWM2
0156474905999992000062002004+42900+143170FM-15+0084RJCT V0201701N002112200019N0112651N1+02201+01601999999ADDGA1021+009009999GF102991999999999999999999MA1100711999999MW1001REMMET062RJCT 200200Z 17004KT 9999 FEW030 22/16 Q1007 RMK 1CU030 A2976;EQDQ01+000000PRSWM2
0172474905999992000062003004+42900+143170FM-15+0084RJCT V0201201N002612200019N0112651N1+02301+01601999999ADDGA1021+010509999GF102991999999999999999999MA1100711999999MW1001REMMET078RJCT 200300Z 12005KT 9999 FEW035 23/16 Q1007 RMK 1CU035 A2973 FCST 0312 NOSIG;EQDQ01+000000PRSWM2
0156474905999992000062004004+42900+143170FM-15+0084RJCT V0201301N003112200019N0112651N1+02501+01601999999ADDGA1021+010509999GF102991999999999999999999MA1100611999999MW1001REMMET062RJCT 200400Z 13006KT 9999 FEW035 25/16 Q1006 RMK 1CU035 A2971;EQDQ01+000000PRSWM2
0186474905999992000062006004+42900+143170FM-15+0084RJCT V0201101N003612200019N0112651N1+02501+01501999999ADDGA1021+009009999GF102991999999999999999999MA1100611999999MW1001REMMET092RJCT 200600Z 11007KT 9999 FEW030 25/15 Q1006 RMK 1CU030 A2970 FCST 0615 TEMPO 1215 BKN008ST;EQDQ01+000000PRSWM2
0186474905999992000062008004+42900+143170FM-15+0084RJCT V0201101N003112200019N0112651N1+02401+01501999999ADDGA1021+009009999GF102991999999999999999999MA1100511999999MW1001REMMET092RJCT 200800Z 11006KT 9999 FEW030 24/15 Q1005 RMK 1CU030 A2969 FCST 0817 BECMG 1112 BKN008ST;EQDQ01+000000PRSWM2
0186474905999992000062010004+42900+143170FM-15+0084RJCT V0201001N002612200019N0112651N1+01801+01501999999ADDGA1021+009009999GA2021+024009999GF104991999999999999999999MA1100611999999MW1001REMMET076RJCT 201000Z 10005KT 9999 FEW030 SCT080 18/15 Q1006 RMK 1CU030 4AC080 A2971;EQDQ01+000000PRSWM2
0186474905999992000062011004+42900+143170FM-15+0084RJCT V0200801N002112200019N0070001N1+01601+01401999999ADDGA1021+009009999GA2021+018009999GF104991999999999999999999MA1100711999999MW1001REMMET076RJCT 201100Z 08004KT 7000 FEW030 SCT060 16/14 Q1007 RMK 1CU030 3SC060 A2973;EQDQ01+000000PRSWM2
0186474905999992000062012004+42900+143170FM-15+0084RJCT V0201101N001512200019N0060001N1+01501+01401999999ADDGA1021+001209999GA2021+018009999GF104991999999999999999999MA1100711999999MW1001REMMET076RJCT 201200Z 11003KT 6000 FEW004 SCT060 15/14 Q1007 RMK 1ST004 3SC060 A2975;EQDQ01+000000PRSWM2
0205474905999992000062022004+42900+143170FM-15+0084RJCT V0209999C000012200019N0025001N1+01501+01401999999ADDGA1021+001509999GA2021+018009999GF104991999999999999999999MA1100611999999MW1101REMMET079RJCT 202200Z 00000KT 2500 BR FEW005 SCT060 15/14 Q1006 RMK 2ST005 3SC060 A2972;EQDQ01+000003PRSWM1Q02    003PRSWM1
0200474905999992000062023004+42900+143170FM-15+0084RJCT V0209999C000012200019N0050001N1+01901+01601999999ADDGA1021+012009999GF102991999999999999999999MA1100611999999MW1101REMMET090RJCT 202300Z 00000KT 5000 BR FEW040 19/16 Q1006 RMK 1CU040 A2971 FCST 2308 BECMG 2323 NSW;EQDQ01+000003PRSWM1Q02    003PRSWM1
0146474905999992000062100004+42900+143170FM-15+0084RJCT V0202401N001512200019N0112651N1+02201+01501999999ADDGF100991999999999999999999MA1100511999999MW1001REMMET068RJCT 210000Z 24003KT 9999 SKC 22/15 Q1005 RMK A2967 FCST 0009 NOSIG;EQDQ01+000000PRSWM2
0130474905999992000062101004+42900+143170FM-15+0084RJCT V0200601N002112200019N0112651N1+02601+01501999999ADDGF100991999999999999999999MA1100411999999MW1001REMMET052RJCT 210100Z 06004KT 9999 SKC 26/15 Q1004 RMK A2967;EQDQ01+000000PRSWM2
0172474905999992000062103004+42900+143170FM-15+0084RJCT V0201301N001512200019N0112651N1+02901+01501999999ADDGA1021+012009999GF102991999999999999999999MA1100311999999MW1001REMMET078RJCT 210300Z 13003KT 9999 FEW040 29/15 Q1003 RMK 1CU040 A2963 FCST 0312 NOSIG;EQDQ01+000000PRSWM2
0156474905999992000062104004+42900+143170FM-15+0084RJCT V0201301N001512200019N0112651N1+02901+01501999999ADDGA1021+012009999GF102991999999999999999999MA1100311999999MW1001REMMET062RJCT 210400Z 13003KT 9999 FEW040 29/15 Q1003 RMK 1CU040 A2962;EQDQ01+000000PRSWM2
0167474905999992000062104514+42900+143170FM-16+0084RJCT V0203301N003612200019N0112651N1+03001+01401999999ADDGA1021+012009999GF102991999999999999999999MA1100311999999MW1001OC101181REMMET065RJCT 210451Z 33007G23KT 9999 FEW040 30/14 Q1003 RMK 1CU040 A2961;EQDQ01+000000PRSWM2
0178474905999992000062106004+42900+143170FM-15+0084RJCT V0203201N005712200019N0112651N1+03001+01301999999ADDGF100991999999999999999999MA1100311999999MW1001OC101231REMMET092RJCT 210600Z 32011G24KT 290V360 9999 SKC 30/13 Q1003 RMK A2962 FCST 0615 BECMG 0809 32008KT;EQDQ01+000000PRSWM2
0141474905999992000062107004+42900+143170FM-15+0084RJCT V0203201N005712200019N0112651N1+02901+01301999999ADDGF100991999999999999999999MA1100311999999MW1001OC101081REMMET055RJCT 210700Z 32011G21KT 9999 SKC 29/13 Q1003 RMK A2963;EQDQ01+000000PRSWM2
0146474905999992000062108004+42900+143170FM-15+0084RJCT V0203101N005112200019N0112651N1+02801+01301999999ADDGF100991999999999999999999MA1100311999999MW1001REMMET068RJCT 210800Z 31010KT 9999 SKC 28/13 Q1003 RMK A2964 FCST 0817 NOSIG;EQDQ01+000000PRSWM2
0216474905999992000062122004+42900+143170FM-15+0084RJCT V0200901N001510210019N0112651N1+01701+01401999999ADDGA1021+003609999GA2021+013509999GA3081+021009999GF108991999999999999999999MA1100911999999MW1001REMMET090RJCT 212200Z 09003KT 9999 FEW012 SCT045 OVC070 17/14 Q1009 RMK 1ST012 3SC045 8AC070 A2980;EQDQ01+000000PRSWM2
0172474905999992000062122104+42900+143170FM-16+0084RJCT V0201101N001510210019N0112651N1+99999+99999999999ADDGA1021+003609999GA2021+013509999GA3081+021009999GF108991999999999999999999MW1001MW2801REMMET055RJCT 212210Z 11003KT 9999 -SHRA FEW012 SCT045 OVC070 1;EQDQ01+000003PRSWM1
0292474905999992000062123004+42900+143170FM-15+0084RJCT V0200701N001010075019N0070001N1+01601+01401999999ADDGA1021+003609999GA2071+007509999GA3081+010509999GF108991999999999999999999MA1100911999999MW1801REMMET150RJCT 212300Z 07002KT 7000 -SHRA SCT012 BKN025 OVC035 16/14 Q1009 RMK 4ST012 6SC025 8CU035 A2982 FCST 2308 TEMPO 2301 BKN012ST BKN025SC BECMG 0001 NSW;EQDQ01+000003PRSWM1Q02    003PRSWM1
0238474905999992000062123084+42900+143170FM-16+0084RJCT V0200801N001010105019N0112651N1+01601+01401999999ADDGA1021+003609999GA2021+007509999GA3081+010509999GF108991999999999999999999MA1101021999999MW1801REMMET096RJCT 212308Z 08002KT 9999 -SHRA FEW012 SCT025 OVC035 16/14 Q1010 RMK 2ST012 3SC025 8CU035 A2982;EQDQ01+000003PRSWM1Q02    003PRSWM1
0266474905999992000062200004+42900+143170FM-15+0084RJCT V0201101N002110210019N0090001N1+01601+01501999999ADDGA1021+004509999GA2021+010509999GA3081+021009999GF108991999999999999999999MA1100911999999MW1001REMMET140RJCT 220000Z 11004KT 9000 FEW015 SCT035 OVC070 16/15 Q1009 RMK 2ST015 4SC035 8AC070 A2982 FCST 0009 TEMPO 0103 BKN030CU TEMPO 0309 SCT070AC;EQDQ01+000000PRSWM2
0216474905999992000062201004+42900+143170FM-15+0084RJCT V0201901N001510210019N0090001N1+02001+01601999999ADDGA1021+004509999GA2021+010509999GA3071+021009999GF107991999999999999999999MA1100911999999MW1001REMMET090RJCT 220100Z 19003KT 9000 SCT015 SCT035 BKN070 20/16 Q1009 RMK 3ST015 4CU035 5AC070 A2981;EQDQ01+000000PRSWM2
0186474905999992000062202004+42900+143170FM-15+0084RJCT V0201601N002112200019N0112651N1+02101+01601999999ADDGA1021+004509999GA2021+007509999GF104991999999999999999999MA1100911999999MW1001REMMET076RJCT 220200Z 16004KT 9999 FEW015 SCT025 21/16 Q1009 RMK 2ST015 4CU025 A2980;EQDQ01+000000PRSWM2
0216474905999992000062203004+42900+143170FM-15+0084RJCT V0201501N003612200019N0112651N1+02301+01601999999ADDGA1021+006009999GA2021+007509999GF104991999999999999999999MA1100811999999MW1001REMMET106RJCT 220300Z 15007KT 9999 SCT020 SCT025 23/16 Q1008 RMK 3SC020 3CU025 A2978 FCST 0312 TEMPO 1112 BKN015ST;EQDQ01+000000PRSWM2
0186474905999992000062204004+42900+143170FM-15+0084RJCT V0201101N004610090019N0112651N1+02201+01601999999ADDGA1021+006009999GA2071+009009999GF107991999999999999999999MA1100811999999MW1001REMMET076RJCT 220400Z 11009KT 9999 SCT020 BKN030 22/16 Q1008 RMK 3CU020 6CU030 A2978;EQDQ01+000000PRSWM2
0186474905999992000062205004+42900+143170FM-15+0084RJCT V0201301N005112200019N0112651N1+02201+01601999999ADDGA1021+006009999GA2021+009009999GF104991999999999999999999MA1100811999999MW1001REMMET076RJCT 220500Z 13010KT 9999 FEW020 SCT030 22/16 Q1008 RMK 2CU020 4CU030 A2979;EQDQ01+000000PRSWM2
0214474905999992000062206004+42900+143170FM-15+0084RJCT V0201601N004612200019N0112651N1+02201+01501999999ADDGA1021+009009999GF102991999999999999999999MA1100811999999MW1001REMMET120RJCT 220600Z 16009KT 9999 FEW030 22/15 Q1008 RMK 1CU030 A2978 FCST 0615 TEMPO 1112 BKN009ST BECMG 1213 4000 BR BKN008ST;EQDQ01+000000PRSWM2
0185474905999992000062208004+42900+143170FM-15+0084RJCT V0201301N002112200019N0112651N1+02101+01401999999ADDGA1021+024009999GF102991999999999999999999MA1100811999999MW1001REMMET091RJCT 220800Z 13004KT 9999 FEW080 21/14 Q1008 RMK 2AC080 A2977 FCST 0817 BECMG 1213 4000 BR;EQDQ01+000000PRSWM2
0156474905999992000062209004+42900+143170FM-15+0084RJCT V0201001N002612200019N0112651N1+01901+01401999999ADDGA1021+024009999GF104991999999999999999999MA1100811999999MW1001REMMET062RJCT 220900Z 10005KT 9999 SCT080 19/14 Q1008 RMK 4AC080 A2979;EQDQ01+000000PRSWM2
0156474905999992000062210004+42900+143170FM-15+0084RJCT V0201601N002112200019N0112651N1+01701+01401999999ADDGA1021+024009999GF104991999999999999999999MA1100911999999MW1001REMMET062RJCT 221000Z 16004KT 9999 SCT080 17/14 Q1009 RMK 3AC080 A2980;EQDQ01+000000PRSWM2
0156474905999992000062211004+42900+143170FM-15+0084RJCT V0201101N002112200019N0112651N1+01601+01401999999ADDGA1021+018009999GF102991999999999999999999MA1100911999999MW1001REMMET062RJCT 221100Z 11004KT 9999 FEW060 16/14 Q1009 RMK 2SC060 A2981;EQDQ01+000000PRSWM2
0186474905999992000062221054+42900+143170FM-16+0084RJCT V0201001N001010036019N0112651N1+01601+01401999999ADDGA1021+003009999GA2081+003609999GF108991999999999999999999MA1101021999999MW1001REMMET076RJCT 222105Z 10002KT 9999 FEW010 OVC012 16/14 Q1010 RMK 1ST010 8ST012 A2983;EQDQ01+000000PRSWM2
0156474905999992000062222204+42900+143170FM-15+0084RJCT V0209999C000010045019N0112651N1+01801+01501999999ADDGA1071+004509999GF107991999999999999999999MA1101021999999MW1001REMMET062RJCT 222220Z 00000KT 9999 BKN015 18/15 Q1010 RMK 7ST015 A2983;EQDQ01+000000PRSWM2
0206474905999992000062303004+42900+143170FM-15+0084RJCT V0200501N002112200019N0112651N1+02601+01601999999ADDGA1021+007509999GF102991999999999999999999MA1100811999999MW1001REMMET112RJCT 230300Z 05004KT 9999 FEW025 26/16 Q1008 RMK 2CU025 A2977 FCST 0312 TEMPO 0609 BKN025CU TEMPO 0912 BKN015ST;EQDQ01+000000PRSWM2
0216474905999992000062522004+42900+143170FM-15+0084RJCT V0200401N001010051019N0090001N1+01201+01001999999ADDGA1021+002709999GA2021+003609999GA3071+005109999GF107991999999999999999999MA1101691999999MW1001REMMET090RJCT 252200Z 04002KT 9000 FEW009 SCT012 BKN017 12/10 Q1017 RMK 2ST009 3ST012 7SC017 A3005;EQDQ01+000000PRSWM2
0246474905999992000062523004+42900+143170FM-15+0084RJCT V0203001N001010051019N0112651N1+01301+01001999999ADDGA1021+003609999GA2021+004509999GA3071+005109999GF107991999999999999999999MA1101691999999MW1001REMMET120RJCT 252300Z 30002KT 9999 SCT012 SCT015 BKN017 13/10 Q1017 RMK 3ST012 3ST015 7SC017 A3004 FCST 2308 TEMPO 0206 SCT017SC;EQDQ01+000000PRSWM2
0246474905999992000062600004+42900+143170FM-15+0084RJCT V0202501N001010060019N0112651N1+01401+01001999999ADDGA1021+003609999GA2021+005409999GA3081+006009999GF108991999999999999999999MA1101691999999MW1001REMMET120RJCT 260000Z 25002KT 9999 SCT012 SCT018 OVC020 14/10 Q1017 RMK 3ST012 3SC018 8SC020 A3003 FCST 0009 TEMPO 0206 SCT020SC;EQDQ01+000000PRSWM2
0216474905999992000062601004+42900+143170FM-15+0084RJCT V0202401N001510060019N0112651N1+01401+01001999999ADDGA1021+003609999GA2021+004509999GA3081+006009999GF108991999999999999999999MA1101591999999MW1001REMMET090RJCT 260100Z 24003KT 9999 FEW012 SCT015 OVC020 14/10 Q1016 RMK 2ST012 3SC015 8SC020 A3002;EQDQ01+000000PRSWM2
0216474905999992000062602004+42900+143170FM-15+0084RJCT V02099999999990060019N0112651N1+01501+01101999999ADDGA1021+005409999GA2071+006009999GA3081+007509999GF108991999999999999999999MA1101591999999MW1001REMMET090RJCT 260200Z VRB02KT 9999 SCT018 BKN020 OVC025 15/11 Q1016 RMK 3SC018 6SC020 8SC025 A3002;EQDQ01+000000PRSWM2
0216474905999992000062603004+42900+143170FM-15+0084RJCT V0202101N002110066019N0112651N1+01501+01101999999ADDGA1021+004509999GA2081+006609999GF108991999999999999999999MA1101591999999MW1001REMMET106RJCT 260300Z 21004KT 9999 FEW015 OVC022 15/11 Q1016 RMK 2SC015 8SC022 A3001 FCST 0312 TEMPO 1012 BKN009ST;EQDQ01+000000PRSWM2
0186474905999992000062604004+42900+143170FM-15+0084RJCT V0201601N002610063019N0112651N1+01601+01201999999ADDGA1021+004509999GA2081+006309999GF108991999999999999999999MA1101491999999MW1001REMMET076RJCT 260400Z 16005KT 9999 FEW015 OVC021 16/12 Q1015 RMK 2SC015 8SC021 A2999;EQDQ01+000000PRSWM2
0186474905999992000062607004+42900+143170FM-15+0084RJCT V0201501N003110054019N0112651N1+01601+01201999999ADDGA1021+003609999GA2081+005409999GF108991999999999999999999MA1101491999999MW1001REMMET076RJCT 260700Z 15006KT 9999 FEW012 OVC018 16/12 Q1015 RMK 1ST012 8SC018 A2999;EQDQ01+000000PRSWM2
0216474905999992000062608004+42900+143170FM-15+0084RJCT V0201101N002110054019N0112651N1+01601+01201999999ADDGA1021+003609999GA2081+005409999GF108991999999999999999999MA1101491999999MW1001REMMET106RJCT 260800Z 11004KT 9999 FEW012 OVC018 16/12 Q1015 RMK 1ST012 8SC018 A2999 FCST 0817 BECMG 1011 BKN008ST;EQDQ01+000000PRSWM2
0186474905999992000062622004+42900+143170FM-15+0084RJCT V0201201N000510024019N0112651N1+01401+01401999999ADDGA1021+001509999GA2081+002409999GF108991999999999999999999MA1101391999999MW1001REMMET076RJCT 262200Z 12001KT 9999 SCT005 OVC008 14/14 Q1014 RMK 3ST005 8ST008 A2997;EQDQ01+000000PRSWM2
0206474905999992000062623154+42900+143170FM-16+0084RJCT V02099999999990036019N0112651N1+01501+01401999999ADDGA1021+002409999GA2081+003609999GF108991999999999999999999MA1101391999999MW1511REMMET080RJCT 262315Z VRB01KT 9999 -DZ SCT008 OVC012 15/14 Q1014 RMK 4ST008 8ST012 A2996;EQDQ01+000003PRSWM1Q02    003PRSWM1
0208474905999992000062701364+42900+143170FM-16+0084RJCT V02099999999990036019N0112651N1+01601+01401999999ADDGA1071+003609999GA2081+004509999GF108991999999999999999999MA1101391999999MW1801REMMET082RJCT 270136Z VRB02KT 9999 -SHRA BKN012 OVC015 16/14 Q1014 RMK 5ST012 8SC015 A2994;EQDQ01+000003PRSWM1Q02    003PRSWM1
0284474905999992000062703004+42900+143170FM-15+0084RJCT V02099999999990120019N0112651N1+01601+01401999999ADDGA1021+003009999GA2021+004509999GA3071+012009999GF107991999999999999999999MA1101291999999MW1001REMMET158RJCT 270300Z VRB02KT 9999 FEW010 SCT015 BKN040 16/14 Q1013 RMK 1ST010 3ST015 7CU040 A2992 FCST 0312 TEMPO 0407 BKN009ST OVC015SC TEMPO 0712 4000 -DZ BKN008ST;EQDQ01+000000PRSWM2
0216474905999992000062704004+42900+143170FM-15+0084RJCT V0202001N000510075019N0112651N1+01701+01401999999ADDGA1021+003609999GA2071+007509999GA3071+012009999GF107991999999999999999999MA1101291999999MW1001REMMET090RJCT 270400Z 20001KT 9999 FEW012 BKN025 BKN040 17/14 Q1013 RMK 1ST012 5SC025 7SC040 A2991;EQDQ01+000000PRSWM2
0238474905999992000062705364+42900+143170FM-16+0084RJCT V0201201N001010069019N0112651N1+01701+01501999999ADDGA1021+004509999GA2071+006909999GA3071+010509999GF107991999999999999999999MA1101191999999MW1801REMMET096RJCT 270536Z 12002KT 9999 -SHRA SCT015 BKN023 BKN035 17/15 Q1012 RMK 3ST015 5SC023 7SC035 A2989;EQDQ01+000003PRSWM1Q02    003PRSWM1
0285474905999992000062706004+42900+143170FM-15+0084RJCT V0201201N000510069019N0112651N1+01701+01501999999ADDGA1021+003909999GA2071+006909999GA3071+010509999GF107991999999999999999999MA1101191999999MW1801REMMET143RJCT 270600Z 12001KT 9999 -SHRA FEW013 BKN023 BKN035 17/15 Q1012 RMK 2ST013 6SC023 7SC035 A2989 FCST 0615 TEMPO 0915 4000 BR BKN009ST OVC012ST;EQDQ01+000003PRSWM1Q02    003PRSWM1
0238474905999992000062707004+42900+143170FM-15+0084RJCT V0201101N001010066019N0112651N1+01701+01501999999ADDGA1021+003609999GA2071+006609999GA3071+009009999GF107991999999999999999999MA1101191999999MW1801REMMET096RJCT 270700Z 11002KT 9999 -SHRA SCT012 BKN022 BKN030 17/15 Q1012 RMK 3ST012 6SC022 7SC030 A2988;EQDQ01+000003PRSWM1Q02    003PRSWM1
0285474905999992000062708004+42900+143170FM-15+0084RJCT V0201301N002610105019N0112651N1+01701+01501999999ADDGA1021+003609999GA2021+005709999GA3081+010509999GF108991999999999999999999MA1101081999999MW1801REMMET143RJCT 270800Z 13005KT 9999 -SHRA FEW012 SCT019 OVC035 17/15 Q1011 RMK 1ST012 3SC019 8SC035 A2987 FCST 0817 TEMPO 1016 4000 BR BKN009ST OVC012ST;EQDQ01+000003PRSWM1Q02    003PRSWM1
0218474905999992000062722004+42900+143170FM-15+0084RJCT V0200401N001010009019N0030001N1+01401+01401999999ADDGA1071+000909999GA2081+002409999GF108991999999999999999999MA1100411999999MW1101MW2631REMMET086RJCT 272200Z COR 04002KT 3000 RA BR BKN003 OVC008 14/14 Q1004 RMK 5ST003 8ST008 A2966;EQDQ01+000003PRSWM1Q02    003PRSWM1
0249474905999992000062803004+42900+143170FM-15+0084RJCT V0203401N000510012019N0030001N1+01601+01601999999ADDGA1071+001209999GA2081+003009999GF108991999999999999999999MA1100001999999MW1101MW2511REMMET117RJCT 280300Z 34001KT 3000 -DZ BR BKN004 OVC010 16/16 Q1000 RMK 5ST004 8ST010 A2954 FCST 0312 TEMPO 0406 NSW BKN010ST;EQDQ01+000003PRSWM1Q02    003PRSWM1
0245474905999992000062804004+42900+143170FM-15+0084RJCT V0203201N001010018019N0050001N1+01701+01601999999ADDGA1071+001809999GA2071+002409999GA3081+007509999GF108991999999999999999999MA1099901999999MW1101MW2511REMMET097RJCT 280400Z 32002KT 5000 -DZ BR BKN006 BKN008 OVC025 17/16 Q0999 RMK 5ST006 6ST008 8SC025 A2952;EQDQ01+000003PRSWM1Q02    003PRSWM1
0238474905999992000062804434+42900+143170FM-16+0084RJCT V0203101N001010036019N0080001N1+01801+01601999999ADDGA1021+001209999GA2021+002409999GA3081+003609999GF108991999999999999999999MA1099901999999MW1801REMMET096RJCT 280443Z 31002KT 8000 -SHRA SCT004 SCT008 OVC012 18/16 Q0999 RMK 3ST004 4ST008 8ST012 A2951;EQDQ01+000003PRSWM1Q02    003PRSWM1
0246474905999992000062806004+42900+143170FM-15+0084RJCT V0202601N002110045019N0112651N1+01801+01601999999ADDGA1021+001209999GA2021+002109999GA3071+004509999GF107991999999999999999999MA1099801999999MW1001REMMET120RJCT 280600Z 26004KT 9999 FEW004 SCT007 BKN015 18/16 Q0998 RMK 1ST004 3ST007 6ST015 A2949 FCST 0615 BECMG 1112 SCT020SC;EQDQ01+000000PRSWM2
0236474905999992000062806064+42900+143170FM-16+0084RJCT V0202801N002110045019N0112651N1+01801+01701999999ADDGA1021+001209999GA2021+002109999GA3071+004509999GF107991999999999999999999MA1099801999999MW1511REMMET094RJCT 280606Z 28004KT 9999 -DZ FEW004 SCT007 BKN015 18/17 Q0998 RMK 1ST004 4ST007 7ST015 A2948;EQDQ01+000003PRSWM1Q02    003PRSWM1
0236474905999992000062807004+42900+143170FM-15+0084RJCT V0200701N001010021019N0112651N1+01801+01701999999ADDGA1021+001509999GA2071+002109999GA3081+007509999GF108991999999999999999999MA1099801999999MW1511REMMET094RJCT 280700Z 07002KT 9999 -DZ FEW005 BKN007 OVC025 18/17 Q0998 RMK 1ST005 5ST007 8SC025 A2948;EQDQ01+000003PRSWM1Q02    003PRSWM1
0232474905999992000062808004+42900+143170FM-15+0084RJCT V0209999C000010036019N0112651N1+01801+01601999999ADDGA1021+002109999GA2071+003609999GA3081+007509999GF108991999999999999999999MA1099801999999MW1001REMMET106RJCT 280800Z 00000KT 9999 FEW007 BKN012 OVC025 18/16 Q0998 RMK 1ST007 5ST012 8SC025 A2947 FCST 0817 NOSIG;EQDQ01+000000PRSWM2
0172474905999992000062823004+42900+143170FM-15+0084RJCT V0203001N002112200019N0112651N1+02201+01501999999ADDGA1021+004509999GF102991999999999999999999MA1100201999999MW1001REMMET078RJCT 282300Z 30004KT 9999 FEW015 22/15 Q1002 RMK 1SC015 A2959 FCST 2308 NOSIG;EQDQ01+000000PRSWM2
0188474905999992000062900004+42900+143170FM-15+0084RJCT V0203201N003112200019N0112651N1+02401+01501999999ADDGA1021+005409999GF102991999999999999999999MA1100201999999MW1001REMMET094RJCT 290000Z 32006KT 9999 FEW018 24/15 Q1002 RMK 1SC018 A2959 FCST 0009 TEMPO 0105 32008G20KT;EQDQ01+000000PRSWM2
0156474905999992000062902004+42900+143170FM-15+0084RJCT V0203301N002612200019N0112651N1+02701+01501999999ADDGA1021+007509999GF102991999999999999999999MA1100201999999MW1001REMMET062RJCT 290200Z 33005KT 9999 FEW025 27/15 Q1002 RMK 1CU025 A2960;EQDQ01+000000PRSWM2
0182474905999992000062903004+42900+143170FM-15+0084RJCT V0202701N003612200019N0112651N1+02801+01601999999ADDGA1021+007509999GF102991999999999999999999MA1100201999999MW1001REMMET088RJCT 290300Z 27007KT 9999 FEW025 28/16 Q1002 RMK 1CU025 A2960 FCST 0312 0307 32010G20KT;EQDQ01+000000PRSWM2
0186474905999992000062904004+42900+143170FM-15+0084RJCT V0202101N002612200019N0112651N1+02801+01801999999ADDGA1021+012009999GA2021+018009999GF104991999999999999999999MA1100201999999MW1001REMMET076RJCT 290400Z 21005KT 9999 FEW040 SCT060 28/18 Q1002 RMK 1CU040 3CU060 A2959;EQDQ01+000000PRSWM2
0186474905999992000062905004+42900+143170FM-15+0084RJCT V02099999999992200019N0112651N1+02801+01701999999ADDGA1021+012009999GA2021+015009999GF104991999999999999999999MA1100201999999MW1001REMMET076RJCT 290500Z VRB02KT 9999 FEW040 SCT050 28/17 Q1002 RMK 2CU040 4CU050 A2959;EQDQ01+000000PRSWM2
0225474905999992000062906004+42900+143170FM-15+0084RJCT V0201601N004612200019N0112651N1+02601+01901999999ADDGA1021+010509999GA2021+013509999GF104991999999999999999999MA1100201999999MW1001REMMET115RJCT 290600Z 16009KT 9999 FEW035 SCT045 26/19 Q1002 RMK 1CU035 4CU045 A2960 FCST 0615 TEMPO 0610 FEW015ST BKN035CU;EQDQ01+000000PRSWM2
0186474905999992000062907004+42900+143170FM-15+0084RJCT V0201501N005112200019N0112651N1+02601+01901999999ADDGA1021+010509999GA2021+013509999GF104991999999999999999999MA1100311999999MW1001REMMET076RJCT 290700Z 15010KT 9999 FEW035 SCT045 26/19 Q1003 RMK 1CU035 4CU045 A2962;EQDQ01+000000PRSWM2
0186474905999992000062922004+42900+143170FM-15+0084RJCT V0201201N001010018019N0080001N1+01701+01601999999ADDGA1071+001809999GA2081+002409999GF108991999999999999999999MA1100911999999MW1001REMMET076RJCT 292200Z 12002KT 8000 BKN006 OVC008 17/16 Q1009 RMK 6ST006 8ST008 A2980;EQDQ01+000000PRSWM2
0225474905999992000063000004+42900+143170FM-15+0084RJCT V0202401N000510030019N0112651N1+01801+01601999999ADDGA1071+003009999GA2081+003609999GF108991999999999999999999MA1100911999999MW1001REMMET115RJCT 300000Z 24001KT 9999 BKN010 OVC012 18/16 Q1009 RMK 6ST010 8ST012 A2980 FCST 0009 BECMG 0203 SCT030CU BKN040SC;EQDQ01+000000PRSWM2
0216474905999992000063001004+42900+143170FM-15+0084RJCT V0201201N001510045019N0112651N1+02001+01601999999ADDGA1021+003609999GA2071+004509999GA3071+007509999GF107991999999999999999999MA1100911999999MW1001REMMET090RJCT 300100Z 12003KT 9999 FEW012 BKN015 BKN025 20/16 Q1009 RMK 1ST012 6ST015 7SC025 A2979;EQDQ01+000000PRSWM2
0216474905999992000063001154+42900+143170FM-16+0084RJCT V0201701N002110270019N0112651N1+02001+01601999999ADDGA1021+004509999GA2071+027009999GA3071+066009999GF107991999999999999999999MA1100811999999MW1001REMMET090RJCT 300115Z 17004KT 9999 SCT015 BKN090 BKN220 20/16 Q1008 RMK 4ST015 5AC090 6CI220 A2979;EQDQ01+000000PRSWM2
0216474905999992000063002004+42900+143170FM-15+0084RJCT V02099999999990270019N0112651N1+02101+01701999999ADDGA1021+004509999GA2071+027009999GA3071+066009999GF107991999999999999999999MA1100811999999MW1001REMMET090RJCT 300200Z VRB02KT 9999 FEW015 BKN090 BKN220 21/17 Q1008 RMK 1ST015 6AC090 5CI220 A2977;EQDQ01+000000PRSWM2
0216474905999992000063004004+42900+143170FM-15+0084RJCT V0201501N001010240019N0112651N1+02301+01701999999ADDGA1021+006009999GA2071+024009999GA3071+066009999GF107991999999999999999999MA1100711999999MW1001REMMET090RJCT 300400Z 15002KT 9999 FEW020 BKN080 BKN220 23/17 Q1007 RMK 1SC020 6AC080 6CI220 A2974;EQDQ01+000000PRSWM2
0216474905999992000063005004+42900+143170FM-15+0084RJCT V0201401N001010660019N0112651N1+02401+01801999999ADDGA1021+006009999GA2021+024009999GA3071+066009999GF107991999999999999999999MA1100711999999MW1001REMMET090RJCT 300500Z 14002KT 9999 FEW020 SCT080 BKN220 24/18 Q1007 RMK 1SC020 4AC080 7CI220 A2974;EQDQ01+000000PRSWM2
0232474905999992000063006004+42900+143170FM-15+0084RJCT V0201801N002110240019N0112651N1+02401+01901999999ADDGA1021+006009999GA2071+024009999GA3071+066009999GF107991999999999999999999MA1100711999999MW1001REMMET106RJCT 300600Z 18004KT 9999 FEW020 BKN080 BKN220 24/19 Q1007 RMK 1SC020 5AC080 7CI220 A2973 FCST 0615 NOSIG;EQDQ01+000000PRSWM2
0216474905999992000063007004+42900+143170FM-15+0084RJCT V0201501N003110240019N0112651N1+02501+02001999999ADDGA1021+006009999GA2071+024009999GA3071+066009999GF107991999999999999999999MA1100611999999MW1001REMMET090RJCT 300700Z 15006KT 9999 FEW020 BKN080 BKN220 25/20 Q1006 RMK 1SC020 6AC080 7CI220 A2973;EQDQ01+000000PRSWM2
0186474905999992000063023004+42900+143170FM-15+0084RJCT V0201001N001010075019N0112651N1+02001+01801999999ADDGA1021+003309999GA2071+007509999GF107991999999999999999999MA1100811999999MW1001REMMET076RJCT 302300Z 10002KT 9999 SCT011 BKN025 20/18 Q1008 RMK 3ST011 6SC025 A2977;EQDQ01+000000PRSWM2
0186474905999992000070101004+42900+143170FM-15+0084RJCT V0200601N000512200019N0112651N1+02501+02001999999ADDGA1021+003609999GA2021+007509999GF104991999999999999999999MA1100711999999MW1001REMMET076RJCT 010100Z 06001KT 9999 FEW012 SCT025 25/20 Q1007 RMK 2ST012 4CU025 A2976;EQDQ01+000000PRSWM2
0186474905999992000070103004+42900+143170FM-15+0084RJCT V0200701N001012200019N0112651N1+02701+01901999999ADDGA1021+005409999GA2021+009909999GF104991999999999999999999MA1100711999999MW1001REMMET076RJCT 010300Z 07002KT 9999 FEW018 SCT033 27/19 Q1007 RMK 1CU018 3CU033 A2974;EQDQ01+000000PRSWM2
0186474905999992000070104004+42900+143170FM-15+0084RJCT V0202501N002112200019N0112651N1+02901+02001999999ADDGA1021+006009999GA2021+010509999GF104991999999999999999999MA1100611999999MW1001REMMET076RJCT 010400Z 25004KT 9999 FEW020 SCT035 29/20 Q1006 RMK 1CU020 4CU035 A2973;EQDQ01+000000PRSWM2
0186474905999992000070105004+42900+143170FM-15+0084RJCT V0202901N001510105019N0112651N1+02801+02001999999ADDGA1021+006009999GA2071+010509999GF107991999999999999999999MA1100611999999MW1001REMMET076RJCT 010500Z 29003KT 9999 FEW020 BKN035 28/20 Q1006 RMK 2CU020 5CU035 A2972;EQDQ01+000000PRSWM2
0167474905999992000070122004+42900+143170FM-15+0084RJCT V0200901N00101000151CN0009001N1+01801+01801999999ADDGA1091+000159999GF109991999999000251999999MA1100911999999MW1451REMMET057RJCT 012200Z 09002KT 0900 FG VV003 18/18 Q1009 RMK A2982;EQDQ01+000003PRSWM1Q02    003PRSWM1
0186474905999992000070200004+42900+143170FM-15+0084RJCT V0201501N001512200019N0112651N1+02201+01901999999ADDGA1021+002709999GA2021+063009999GF104991999999999999999999MA1100911999999MW1001REMMET076RJCT 020000Z 15003KT 9999 FEW009 SCT210 22/19 Q1009 RMK 1ST009 4CI210 A2981;EQDQ01+000000PRSWM2
0186474905999992000070201004+42900+143170FM-15+0084RJCT V0201501N001512200019N0112651N1+02501+02001999999ADDGA1021+004509999GA2021+066009999GF104991999999999999999999MA1100911999999MW1001REMMET076RJCT 020100Z 15003KT 9999 FEW015 SCT220 25/20 Q1009 RMK 1CU015 3CI220 A2981;EQDQ01+000000PRSWM2
0156474905999992000070202004+42900+143170FM-15+0084RJCT V02099999999992200019N0112651N1+02801+02001999999ADDGA1021+007509999GF102991999999999999999999MA1100811999999MW1001REMMET062RJCT 020200Z VRB03KT 9999 FEW025 28/20 Q1008 RMK 2CU025 A2979;EQDQ01+000000PRSWM2
0156474905999992000070203004+42900+143170FM-15+0084RJCT V0201401N002612200019N0112651N1+02801+01901999999ADDGA1021+007509999GF102991999999999999999999MA1100811999999MW1001REMMET062RJCT 020300Z 14005KT 9999 FEW025 28/19 Q1008 RMK 1CU025 A2978;EQDQ01+000000PRSWM2
0186474905999992000070204004+42900+143170FM-15+0084RJCT V0201201N002612200019N0112651N1+03001+01901999999ADDGA1021+009009999GA2021+010509999GF104991999999999999999999MA1100811999999MW1001REMMET076RJCT 020400Z 12005KT 9999 FEW030 SCT035 30/19 Q1008 RMK 1CU030 3CU035 A2977;EQDQ01+000000PRSWM2
0186474905999992000070205004+42900+143170FM-15+0084RJCT V0201301N002612200019N0112651N1+03001+01901999999ADDGA1021+007509999GA2021+010509999GF104991999999999999999999MA1100811999999MW1001REMMET076RJCT 020500Z 13005KT 9999 FEW025 SCT035 30/19 Q1008 RMK 1CU025 3CU035 A2976;EQDQ01+000000PRSWM2
0204474905999992000070206004+42900+143170FM-15+0084RJCT V0201601N004612200019N0112651N1+03001+02101999999ADDGA1021+007509999GA2021+009009029GF102991999999999999999999MA1100711999999MW1001REMMET094RJCT 020600Z 16009KT 9999 FEW025 FEW030TCU 30/21 Q1007 RMK 1CU025 2TCU030 A2976 TCU OHD MOV E;EQDQ01+000000PRSWM2
0156474905999992000070207004+42900+143170FM-15+0084RJCT V0201401N005112200019N0112651N1+02801+02001999999ADDGA1021+007509999GF102991999999999999999999MA1100811999999MW1001REMMET062RJCT 020700Z 14010KT 9999 FEW025 28/20 Q1008 RMK 1CU025 A2977;EQDQ01+000000PRSWM2
0172474905999992000070300104+42900+143170FM-16+0084RJCT V0200901N001010027019N0035001N1+99999+99999999999ADDGA1021+001509999GA2081+002709999GF108991999999999999999999MW1811MW2951REMMET055RJCT COR 030010Z 09002KT 3500 TSRA BR FEW005 OVC009 19;EQDQ01+000100PRSWM4Q02+000003PRSWM1
0234474905999992000070301004+42900+143170FM-15+0084RJCT V0201201N001010024019N0035001N1+01801+01801999999ADDGA1021+001509999GA2071+002409999GF107991999999999999999999MA1101191999999MW1101MW2811MW3951REMMET112RJCT 030100Z COR 12002KT 3500 TSRA BR FEW005 BKN008 18/18 Q1012 RMK 2ST005 7ST008 A2990 FBL TS ABT 20KM S MOV E;EQDQ01+000003PRSWM1
0216474905999992000070305004+42900+143170FM-15+0084RJCT V0201201N001510030019N0112651N1+02101+01901999999ADDGA1021+001809999GA2021+002409999GA3071+003009999GF107991999999999999999999MA1101191999999MW1001REMMET090RJCT 030500Z 12003KT 9999 FEW006 SCT008 BKN010 21/19 Q1012 RMK 1ST006 3ST008 7ST010 A2989;EQDQ01+000000PRSWM2
0232474905999992000070400004+42900+143170FM-15+0084RJCT V0200901N000510030019N0112651N1+01901+01701999999ADDGA1021+001809999GA2071+003009999GA3081+006009999GF108991999999999999999999MA1101491999999MW1001REMMET106RJCT 040000Z 09001KT 9999 SCT006 BKN010 OVC020 19/17 Q1015 RMK 3ST006 6ST010 8SC020 A2999 FCST 0009 NOSIG;EQDQ01+000000PRSWM2
0232474905999992000070403004+42900+143170FM-15+0084RJCT V0201001N001510045019N0112651N1+02201+01801999999ADDGA1021+001809999GA2071+004509999GA3071+007509999GF107991999999999999999999MA1101491999999MW1001REMMET106RJCT 040300Z 10003KT 9999 FEW006 BKN015 BKN025 22/18 Q1015 RMK 2ST006 5ST015 6SC025 A2998 FCST 0312 NOSIG;EQDQ01+000000PRSWM2
0186474905999992000070404004+42900+143170FM-15+0084RJCT V0201601N002610045019N0112651N1+02201+01801999999ADDGA1021+002409999GA2071+004509999GF107991999999999999999999MA1101491999999MW1001REMMET076RJCT 040400Z 16005KT 9999 FEW008 BKN015 22/18 Q1015 RMK 1ST008 6ST015 A2997;EQDQ01+000000PRSWM2
0216474905999992000070423154+42900+143170FM-16+0084RJCT V0201101N001510030019N0112651N1+01801+01601999999ADDGA1021+002109999GA2071+003009999GA3081+006009999GF108991999999999999999999MA1101491999999MW1001REMMET090RJCT 042315Z 11003KT 9999 FEW007 BKN010 OVC020 18/16 Q1015 RMK 1ST007 6ST010 8SC020 A2998;EQDQ01+000000PRSWM2
0186474905999992000070501004+42900+143170FM-15+0084RJCT V0201301N001510030019N0112651N1+01901+01601999999ADDGA1071+003009999GA2081+006009999GF108991999999999999999999MA1101391999999MW1001REMMET076RJCT 050100Z 13003KT 9999 BKN010 OVC020 19/16 Q1014 RMK 5ST010 8SC020 A2996;EQDQ01+000000PRSWM2
0186474905999992000070502004+42900+143170FM-15+0084RJCT V0201301N002110045019N0112651N1+02001+01701999999ADDGA1071+004509999GA2081+007509999GF108991999999999999999999MA1101391999999MW1001REMMET076RJCT 050200Z 13004KT 9999 BKN015 OVC025 20/17 Q1014 RMK 6ST015 8SC025 A2995;EQDQ01+000000PRSWM2
0232474905999992000070503004+42900+143170FM-15+0084RJCT V0201401N002610045019N0112651N1+02101+01701999999ADDGA1021+003009999GA2071+004509999GA3071+007509999GF107991999999999999999999MA1101291999999MW1001REMMET106RJCT 050300Z 14005KT 9999 FEW010 BKN015 BKN025 21/17 Q1013 RMK 1ST010 6ST015 7SC025 A2994 FCST 0312 NOSIG;EQDQ01+000000PRSWM2
0216474905999992000070504004+42900+143170FM-15+0084RJCT V0201501N004110045019N0112651N1+01901+01701999999ADDGA1021+003609999GA2071+004509999GA3071+006009999GF107991999999999999999999MA1101291999999MW1001REMMET090RJCT 050400Z 15008KT 9999 FEW012 BKN015 BKN020 19/17 Q1013 RMK 1ST012 5ST015 6CU020 A2993;EQDQ01+000000PRSWM2
0216474905999992000070505004+42900+143170FM-15+0084RJCT V0201401N003610045019N0112651N1+02001+01701999999ADDGA1021+003609999GA2071+004509999GA3071+006009999GF107991999999999999999999MA1101291999999MW1001REMMET090RJCT 050500Z 14007KT 9999 FEW012 BKN015 BKN020 20/17 Q1013 RMK 1ST012 6ST015 6CU020 A2993;EQDQ01+000000PRSWM2
0243474905999992000070506004+42900+143170FM-15+0084RJCT V0201201N002610045019N0112651N1+02001+01701999999ADDGA1021+003609999GA2071+004509999GA3071+006009999GF107991999999999999999999MA1101291999999MW1001REMMET117RJCT 050600Z 12005KT 9999 FEW012 BKN015 BKN020 20/17 Q1013 RMK 1ST012 5ST015 7CU020 A2992 FCST 0615 TEMPO 0709 -SHRA;EQDQ01+000000PRSWM2
0216474905999992000070507004+42900+143170FM-15+0084RJCT V0201301N003110045019N0112651N1+02001+01701999999ADDGA1021+003609999GA2071+004509999GA3071+006009999GF107991999999999999999999MA1101291999999MW1001REMMET090RJCT 050700Z 13006KT 9999 FEW012 BKN015 BKN020 20/17 Q1013 RMK 1ST012 6ST015 7CU020 A2992;EQDQ01+000000PRSWM2
0246474905999992000070508004+42900+143170FM-15+0084RJCT V0201601N003110045019N0112651N1+01901+01701999999ADDGA1021+003609999GA2071+004509999GA3071+006009999GF107991999999999999999999MA1101291999999MW1001REMMET120RJCT 050800Z 16006KT 9999 FEW012 BKN015 BKN020 19/17 Q1013 RMK 1ST012 6ST015 7CU020 A2991 FCST 0817 BECMG 1012 OVC008ST;EQDQ01+000000PRSWM2
0210474905999992000070522004+42900+143170FM-15+0084RJCT V0201101N001010018019N0112651N1+01601+01501999999ADDGA1021+001509999GA2071+001809999GF107991999999999999999999MA1101291999999MW1511REMMET084RJCT 052200Z COR 11002KT 9999 -DZ FEW005 BKN006 16/15 Q1013 RMK 1ST005 7ST006 A2993;EQDQ01+000003PRSWM1Q02    003PRSWM1
0225474905999992000070523004+42900+143170FM-15+0084RJCT V0201801N001510024019N0112651N1+01701+01601999999ADDGA1021+001809999GA2071+002409999GF107991999999999999999999MA1101291999999MW1001REMMET115RJCT 052300Z 18003KT 9999 FEW006 BKN008 17/16 Q1013 RMK 1ST006 7ST008 A2992 FCST 2308 BECMG 2300 BKN010ST BKN020CU;EQDQ01+000000PRSWM2
0216474905999992000070601004+42900+143170FM-15+0084RJCT V02099999999990045019N0112651N1+02001+01801999999ADDGA1021+002409999GA2021+003009999GA3071+004509999GF107991999999999999999999MA1101191999999MW1001REMMET090RJCT 060100Z VRB01KT 9999 FEW008 SCT010 BKN015 20/18 Q1012 RMK 1ST008 3ST010 6ST015 A2990;EQDQ01+000000PRSWM2
0216474905999992000070602004+42900+143170FM-15+0084RJCT V02099999999990060019N0112651N1+02001+01601999999ADDGA1021+002709999GA2021+004509999GA3071+006009999GF107991999999999999999999MA1101191999999MW1001REMMET090RJCT 060200Z VRB02KT 9999 FEW009 SCT015 BKN020 20/16 Q1012 RMK 1ST009 3ST015 5CU020 A2988;EQDQ01+000000PRSWM2
0202474905999992000070603004+42900+143170FM-15+0084RJCT V0201501N001510075019N0112651N1+02201+01701999999ADDGA1021+004509999GA2071+007509999GF107991999999999999999999MA1101081999999MW1001REMMET092RJCT 060300Z 15003KT 9999 FEW015 BKN025 22/17 Q1011 RMK 1CU015 5CU025 A2986 FCST 0312 NOSIG;EQDQ01+000000PRSWM2
0186474905999992000070604004+42900+143170FM-15+0084RJCT V0201301N002610075019N0112651N1+02401+01701999999ADDGA1021+004509999GA2071+007509999GF107991999999999999999999MA1101021999999MW1001REMMET076RJCT 060400Z 13005KT 9999 FEW015 BKN025 24/17 Q1010 RMK 2CU015 6CU025 A2985;EQDQ01+000000PRSWM2
0205474905999992000070622324+42900+143170FM-16+0084RJCT V02099999999990006019N0018001N1+01601+01601999999ADDGA1021+000309999GA2081+000609999GF108991999999999999999999MA1101081999999MW1101REMMET079RJCT 062232Z VRB01KT 1800 BR FEW001 OVC002 16/16 Q1011 RMK 1ST001 8ST002 A2986;EQDQ01+000003PRSWM1Q02    003PRSWM1
0250474905999992000070623004+42900+143170FM-15+0084RJCT V02099999999990009019N0050001N1+01701+01601999999ADDGA1021+000609999GA2081+000909999GF108991999999999999999999MA1101081999999MW1101REMMET124RJCT 062300Z VRB02KT 5000 BR FEW002 OVC003 17/16 Q1011 RMK 1ST002 8ST003 A2986 FCST 2308 BECMG 2323 NSW BECMG 0001 SCT015SC;EQDQ01+000003PRSWM1Q02    003PRSWM1
0216474905999992000070700004+42900+143170FM-15+0084RJCT V02099999999990027019N0080001N1+01801+01601999999ADDGA1021+002109999GA2081+002709999GF108991999999999999999999MA1101081999999MW1001REMMET106RJCT 070000Z VRB01KT 8000 SCT007 OVC009 18/16 Q1011 RMK 3ST007 8ST009 A2985 FCST 0009 BECMG 0001 SCT015SC;EQDQ01+000000PRSWM2
0162474905999992000070700134+42900+143170FM-16+0084RJCT V02099999999990030019N0080001N1+01901+01701999999ADDGA1021+002409999GA2071+003009999GF107991999999999999999999MA1101081999999MW1001REMMET052RJCT 070013Z VRB01KT 8000 FEW008 BKN010 19/17 Q1011;EQDQ01+000000PRSWM2
0156474905999992000070702004+42900+143170FM-15+0084RJCT V0201501N002612200019N0112651N1+02201+01801999999ADDGA1021+003609999GF104991999999999999999999MA1101021999999MW1001REMMET062RJCT 070200Z 15005KT 9999 SCT012 22/18 Q1010 RMK 4ST012 A2984;EQDQ01+000000PRSWM2
0215474905999992000070703004+42900+143170FM-15+0084RJCT V0201701N002612200019N0112651N1+02301+01801999999ADDGA1021+003909999GF104991999999999999999999MA1100911999999MW1001REMMET121RJCT 070300Z 17005KT 9999 SCT013 23/18 Q1009 RMK 4ST013 A2982 FCST 0312 TEMPO 0609 BKN012SC TEMPO 0912 BKN008ST OVC012ST;EQDQ01+000000PRSWM2
0186474905999992000070705004+42900+143170FM-15+0084RJCT V0201401N001512200019N0112651N1+02501+01801999999ADDGA1021+004809999GA2021+006009999GF104991999999999999999999MA1100811999999MW1001REMMET076RJCT 070500Z 14003KT 9999 FEW016 SCT020 25/18 Q1008 RMK 1SC016 4CU020 A2978;EQDQ01+000000PRSWM2
0256474905999992000070706004+42900+143170FM-15+0084RJCT V0201201N003612200019N0112651N1+02501+01901999999ADDGA1021+006009999GA2021+007509999GF104991999999999999999999MA1100711999999MW1001REMMET146RJCT 070600Z 12007KT 9999 FEW020 SCT025 25/19 Q1007 RMK 1CU020 3CU025 A2974 FCST 0615 TEMPO 0709 BKN020SC TEMPO 0911 BKN010ST BECMG 1011 BKN008ST;EQDQ01+000000PRSWM2
0186474905999992000070707004+42900+143170FM-15+0084RJCT V0201101N004112200019N0112651N1+02401+01801999999ADDGA1021+006009999GA2021+007509999GF104991999999999999999999MA1100811999999MW1001REMMET076RJCT 070700Z 11008KT 9999 FEW020 SCT025 24/18 Q1008 RMK 1CU020 4CU025 A2978;EQDQ01+000000PRSWM2
0202474905999992000070708004+42900+143170FM-15+0084RJCT V0201101N003610630019N0112651N1+02301+01701999999ADDGA1021+006009999GA2071+063009999GF107991999999999999999999MA1100811999999MW1001REMMET092RJCT 070800Z 11007KT 9999 FEW020 BKN210 23/17 Q1008 RMK 1CU020 5CI210 A2977 FCST 0817 NOSIG;EQDQ01+000000PRSWM2
0255474905999992000070723214+42900+143170FM-16+0084RJCT V0200301N000510012019N0028001N1+01701+01701999999ADDGA1021+000909999GA2071+001209999GA3081+001809999GF108991999999999999999999MA1100711999999MW1511REMMET097RJCT 072321Z 03001KT 2800 -DZ BR FEW003 BKN004 OVC006 17/17 Q1007 RMK 1ST003 6ST004 8ST006 A2975;EQDQ01+000100PRSWM3Q02+000003PRSWM1Q03    003PRSWM1
0245474905999992000070800004+42900+143170FM-15+0084RJCT V0201101N001010006019N0028001N1+01701+01701999999ADDGA1071+000609999GA2071+001209999GA3081+001809999GF108991999999999999999999MA1100711999999MW1101MW2511REMMET097RJCT 080000Z 11002KT 2800 -DZ BR BKN002 BKN004 OVC006 17/17 Q1007 RMK 5ST002 7ST004 8ST006 A2975;EQDQ01+000003PRSWM1Q02    003PRSWM1
0238474905999992000070821004+42900+143170FM-15+0084RJCT V0203601N001510240019N0112651N1+01801+01401999999ADDGA1021+006009999GA2021+015009999GA3071+024009999GF107991999999999999999999MA1099491999999MW1801REMMET096RJCT 082100Z 36003KT 9999 -SHRA FEW020 SCT050 BKN080 18/14 Q0995 RMK 1SC020 3SC050 6AC080 A2941;EQDQ01+000003PRSWM1Q02    003PRSWM1
0238474905999992000070901004+42900+143170FM-15+0084RJCT V0203101N003610240019N0112651N1+01901+01501999999ADDGA1021+007509999GA2071+024009999GA3071+060009999GF107991999999999999999999MA1099901999999MW1801REMMET096RJCT 090100Z 31007KT 9999 -SHRA FEW025 BKN080 BKN200 19/15 Q0999 RMK 2SC025 6AC080 7CI200 A2952;EQDQ01+000003PRSWM1Q02    003PRSWM1
0238474905999992000070902004+42900+143170FM-15+0084RJCT V0200101N001010240019N0112651N1+01901+01501999999ADDGA1021+003009999GA2071+024009999GA3071+060009999GF107991999999999999999999MA1100001999999MW1801REMMET096RJCT 090200Z 01002KT 9999 -SHRA FEW010 BKN080 BKN200 19/15 Q1000 RMK 2ST010 6AC080 7CI200 A2955;EQDQ01+000003PRSWM1Q02    003PRSWM1
0216474905999992000070904004+42900+143170FM-15+0084RJCT V0203201N002610360019N0112651N1+02001+01501999999ADDGA1021+006009999GA2021+024009999GA3071+036009999GF107991999999999999999999MA1100101999999MW1001REMMET090RJCT 090400Z 32005KT 9999 FEW020 SCT080 BKN120 20/15 Q1001 RMK 2SC020 3AC080 6AC120 A2957;EQDQ01+000000PRSWM2
0216474905999992000070905004+42900+143170FM-15+0084RJCT V0203501N001510360019N0112651N1+02101+01501999999ADDGA1021+006009999GA2021+030009999GA3071+036009999GF107991999999999999999999MA1100101999999MW1001REMMET090RJCT 090500Z 35003KT 9999 FEW020 SCT100 BKN120 21/15 Q1001 RMK 1SC020 3AC100 5AC120 A2958;EQDQ01+000000PRSWM2
0156474905999992000070922004+42900+143170FM-15+0084RJCT V02099999999992200019N0112651N1+01501+01401999999ADDGA1021+001509999GF102991999999999999999999MA1101081999999MW1001REMMET062RJCT 092200Z VRB01KT 9999 FEW005 15/14 Q1011 RMK 2ST005 A2988;EQDQ01+000000PRSWM2
0172474905999992000070923004+42900+143170FM-15+0084RJCT V0200901N001012200019N0112651N1+01801+01401999999ADDGA1021+001809999GF102991999999999999999999MA1101191999999MW1001REMMET078RJCT 092300Z 09002KT 9999 FEW006 18/14 Q1012 RMK 1ST006 A2989 FCST 2308 NOSIG;EQDQ01+000000PRSWM2
0156474905999992000071001004+42900+143170FM-15+0084RJCT V0201601N001512200019N0112651N1+02201+01601999999ADDGA1021+007509999GF102991999999999999999999MA1101081999999MW1001REMMET062RJCT 100100Z 16003KT 9999 FEW025 22/16 Q1011 RMK 1CU025 A2985;EQDQ01+000000PRSWM2
0156474905999992000071002004+42900+143170FM-15+0084RJCT V02099999999992200019N0112651N1+02401+01601999999ADDGA1021+009009999GF102991999999999999999999MA1101021999999MW1001REMMET062RJCT 100200Z VRB02KT 9999 FEW030 24/16 Q1010 RMK 1CU030 A2984;EQDQ01+000000PRSWM2
0156474905999992000071004004+42900+143170FM-15+0084RJCT V0201701N001512200019N0112651N1+02701+01701999999ADDGA1021+009009999GF102991999999999999999999MA1100911999999MW1001REMMET062RJCT 100400Z 17003KT 9999 FEW030 27/17 Q1009 RMK 1CU030 A2981;EQDQ01+000000PRSWM2
0156474905999992000071005004+42900+143170FM-15+0084RJCT V02099999999992200019N0112651N1+02801+01801999999ADDGA1021+009009999GF102991999999999999999999MA1100911999999MW1001REMMET062RJCT 100500Z VRB02KT 9999 FEW030 28/18 Q1009 RMK 1CU030 A2980;EQDQ01+000000PRSWM2
0172474905999992000071006004+42900+143170FM-15+0084RJCT V0201201N001512200019N0112651N1+02801+01901999999ADDGA1021+012009999GF102991999999999999999999MA1100811999999MW1001REMMET078RJCT 100600Z 12003KT 9999 FEW040 28/19 Q1008 RMK 1CU040 A2978 FCST 0615 NOSIG;EQDQ01+000000PRSWM2
0156474905999992000071007004+42900+143170FM-15+0084RJCT V0201201N004612200019N0112651N1+02801+01901999999ADDGA1021+012009999GF102991999999999999999999MA1100811999999MW1001REMMET062RJCT 100700Z 12009KT 9999 FEW040 28/19 Q1008 RMK 1CU040 A2977;EQDQ01+000000PRSWM2
0172474905999992000071008004+42900+143170FM-15+0084RJCT V0201501N003112200019N0112651N1+02601+01801999999ADDGA1021+069009999GF102991999999999999999999MA1100811999999MW1001REMMET078RJCT 100800Z 15006KT 9999 FEW230 26/18 Q1008 RMK 1CI230 A2977 FCST 0817 NOSIG;EQDQ01+000000PRSWM2
0156474905999992000071009004+42900+143170FM-15+0084RJCT V0201601N003612200019N0112651N1+02401+01801999999ADDGA1021+045009999GF102991999999999999999999MA1100811999999MW1001REMMET062RJCT 100900Z 16007KT 9999 FEW150 24/18 Q1008 RMK 1AC150 A2977;EQDQ01+000000PRSWM2
0156474905999992000071010004+42900+143170FM-15+0084RJCT V0201301N001012200019N0112651N1+02201+01701999999ADDGA1021+045009999GF102991999999999999999999MA1100811999999MW1001REMMET062RJCT 101000Z 13002KT 9999 FEW150 22/17 Q1008 RMK 1AC150 A2978;EQDQ01+000000PRSWM2
0156474905999992000071011004+42900+143170FM-15+0084RJCT V02099999999992200019N0112651N1+02001+01701999999ADDGA1021+075009999GF102991999999999999999999MA1100911999999MW1001REMMET062RJCT 101100Z VRB02KT 9999 FEW250 20/17 Q1009 RMK 1CI250 A2980;EQDQ01+000000PRSWM2
0156474905999992000071012004+42900+143170FM-15+0084RJCT V0200401N000512200019N0112651N1+01901+01601999999ADDGA1021+075009999GF102991999999999999999999MA1101021999999MW1001REMMET062RJCT 101200Z 04001KT 9999 FEW250 19/16 Q1010 RMK 1CI250 A2982;EQDQ01+000000PRSWM2
0130474905999992000071021004+42900+143170FM-15+0084RJCT V0202501N001012200019N0112651N1+01901+01701999999ADDGF100991999999999999999999MA1100811999999MW1001REMMET052RJCT 102100Z 25002KT 9999 SKC 19/17 Q1008 RMK A2978;EQDQ01+000000PRSWM2
0156474905999992000071022004+42900+143170FM-15+0084RJCT V0201601N001012200019N0112651N1+02301+01801999999ADDGA1021+069009999GF102991999999999999999999MA1100811999999MW1001REMMET062RJCT 102200Z 16002KT 9999 FEW230 23/18 Q1008 RMK 1CI230 A2977;EQDQ01+000000PRSWM2
0172474905999992000071023004+42900+143170FM-15+0084RJCT V0202601N001012200019N0112651N1+02601+01701999999ADDGA1021+069009999GF102991999999999999999999MA1100811999999MW1001REMMET078RJCT 102300Z 26002KT 9999 FEW230 26/17 Q1008 RMK 1CI230 A2976 FCST 2308 NOSIG;EQDQ01+000000PRSWM2
0202474905999992000071100004+42900+143170FM-15+0084RJCT V0201901N001012200019N0112651N1+02801+01601999999ADDGA1021+012009999GA2021+069009999GF104991999999999999999999MA1100711999999MW1001REMMET092RJCT 110000Z 19002KT 9999 FEW040 SCT230 28/16 Q1007 RMK 1CU040 3CI230 A2975 FCST 0009 NOSIG;EQDQ01+000000PRSWM2
0156474905999992000071102004+42900+143170FM-15+0084RJCT V0202401N001512200019N0112651N1+03001+01801999999ADDGA1021+012009999GF102991999999999999999999MA1100611999999MW1001REMMET062RJCT 110200Z 24003KT 9999 FEW040 30/18 Q1006 RMK 1CU040 A2972;EQDQ01+000000PRSWM2
0186474905999992000071105004+42900+143170FM-15+0084RJCT V0203201N004610750019N0112651N1+03301+01801999999ADDGA1021+013509999GA2071+075009999GF107991999999999999999999MA1100411999999MW1001REMMET076RJCT 110500Z 32009KT 9999 FEW045 BKN250 33/18 Q1004 RMK 1CU045 5CI250 A2965;EQDQ01+000000PRSWM2
0202474905999992000071106004+42900+143170FM-15+0084RJCT V0202901N003110750019N0112651N1+03301+01801999999ADDGA1021+013509999GA2071+075009999GF107991999999999999999999MA1100311999999MW1001REMMET092RJCT 110600Z 29006KT 9999 FEW045 BKN250 33/18 Q1003 RMK 1CU045 6CI250 A2964 FCST 0615 NOSIG;EQDQ01+000000PRSWM2
0156474905999992000071107004+42900+143170FM-15+0084RJCT V0202901N005110750019N0112651N1+03201+01801999999ADDGA1071+075009999GF107991999999999999999999MA1100311999999MW1001REMMET062RJCT 110700Z 29010KT 9999 BKN250 32/18 Q1003 RMK 6CI250 A2963;EQDQ01+000000PRSWM2
0232474905999992000071108004+42900+143170FM-15+0084RJCT V0203001N002610900019N0112651N1+03001+01601999999ADDGA1021+030009999GA2021+045009999GA3071+090009999GF107991999999999999999999MA1100311999999MW1001REMMET106RJCT 110800Z 30005KT 9999 FEW100 SCT150 BKN300 30/16 Q1003 RMK 1AC100 3AC150 6CI300 A2961 FCST 0817 NOSIG;EQDQ01+000000PRSWM2
0227474905999992000071109004+42900+143170FM-15+0084RJCT V0203101N004610900019N0112651N1+02901+01901999999ADDGA1021+036009999GA2021+048009999GA3071+090009999GF107991999999999999999999MA1100311999999MW1001OC101031REMMET093RJCT 110900Z 31009G20KT 9999 FEW120 SCT160 BKN300 29/19 Q1003 RMK 1AC120 3AC160 6CI300 A2962;EQDQ01+000000PRSWM2
0186474905999992000071122004+42900+143170FM-15+0084RJCT V0201801N001010300019N0112651N1+02101+01801999999ADDGA1021+024009999GA2071+030009999GF107991999999999999999999MA1100311999999MW1001REMMET076RJCT 112200Z 18002KT 9999 SCT080 BKN100 21/18 Q1003 RMK 3AC080 6AC100 A2964;EQDQ01+000000PRSWM2
0280474905999992000071123004+42900+143170FM-15+0084RJCT V0202301N001010300019N0112651N1+02301+01701999999ADDGA1021+012009999GA2021+021009999GA3071+030009999GF107991999999999999999999MA1100311999999MW1001REMMET154RJCT 112300Z COR 23002KT 9999 FEW040 SCT070 BKN100 23/17 Q1003 RMK 1SC040 3AC070 6AC100 A2963 FCST COR 2308 TEMPO 0106 -SHRA BECMG 0304 SCT020CU BKN030CU;EQDQ01+000000PRSWM2
0238474905999992000071200034+42900+143170FM-16+0084RJCT V0202101N002110300019N0112651N1+02301+01901999999ADDGA1021+012009999GA2021+021009999GA3071+030009999GF107991999999999999999999MA1100311999999MW1801REMMET096RJCT 120003Z 21004KT 9999 -SHRA FEW040 SCT070 BKN100 23/19 Q1003 RMK 2CU040 3AC070 7AC100 A2963;EQDQ01+000003PRSWM1Q02    003PRSWM1
0186474905999992000071200354+42900+143170FM-16+0084RJCT V0202001N001510300019N0112651N1+02301+02001999999ADDGA1021+012009999GA2071+030009999GF107991999999999999999999MA1100311999999MW1001REMMET076RJCT 120035Z 20003KT 9999 FEW040 BKN100 23/20 Q1003 RMK 2CU040 7AC100 A2963;EQDQ01+000000PRSWM2
0216474905999992000071201004+42900+143170FM-15+0084RJCT V0202801N001510540019N0112651N1+02401+01801999999ADDGA1021+013509999GA2021+030009999GA3081+054009999GF108991999999999999999999MA1100311999999MW1001REMMET090RJCT 120100Z 28003KT 9999 FEW045 SCT100 OVC180 24/18 Q1003 RMK 1CU045 3AC100 8CS180 A2963;EQDQ01+000000PRSWM2
0272474905999992000071203004+42900+143170FM-15+0084RJCT V02099999999990300019N0112651N1+02701+02001999999ADDGA1021+010509999GA2071+030009999GA3071+048009999GF107991999999999999999999MA1100311999999MW1001REMMET146RJCT 120300Z VRB01KT 9999 FEW035 BKN100 BKN160 27/20 Q1003 RMK 1CU035 5AC100 7AS160 A2962 FCST 0312 BECMG 0507 SCT020CU BKN030CU TEMPO 0609 -SHRA;EQDQ01+000000PRSWM2
0216474905999992000071204004+42900+143170FM-15+0084RJCT V02099999999990240019N0112651N1+02901+02001999999ADDGA1021+010509999GA2071+024009999GA3071+048009999GF107991999999999999999999MA1100311999999MW1001REMMET090RJCT 120400Z VRB02KT 9999 FEW035 BKN080 BKN160 29/20 Q1003 RMK 1CU035 5AC080 6AC160 A2961;EQDQ01+000000PRSWM2
0186474905999992000071205004+42900+143170FM-15+0084RJCT V0201101N002112200019N0112651N1+02901+01801999999ADDGA1021+010509999GA2021+048009999GF104991999999999999999999MA1100201999999MW1001REMMET076RJCT 120500Z 11004KT 9999 FEW035 SCT160 29/18 Q1002 RMK 1CU035 3AC160 A2960;EQDQ01+000000PRSWM2
0195474905999992000071206004+42900+143170FM-15+0084RJCT V0201401N002612200019N0112651N1+02901+01901999999ADDGA1021+012009999GF102991999999999999999999MA1100201999999MW1001REMMET101RJCT 120600Z 14005KT 9999 FEW040 29/19 Q1002 RMK 2CU040 A2960 FCST 0615 BECMG 0809 BKN040SC BKN080AC;EQDQ01+000000PRSWM2
0172474905999992000071208004+42900+143170FM-15+0084RJCT V0200901N002610150019N0112651N1+02901+02201999999ADDGA1071+015009999GF107991999999999999999999MA1100201999999MW1001REMMET078RJCT 120800Z 09005KT 9999 BKN050 29/22 Q1002 RMK 5CU050 A2959 FCST 0817 NOSIG;EQDQ01+000000PRSWM2
0156474905999992000071209004+42900+143170FM-15+0084RJCT V0201001N002112200019N0112651N1+02701+02001999999ADDGA1021+013509999GF104991999999999999999999MA1100201999999MW1001REMMET062RJCT 120900Z 10004KT 9999 SCT045 27/20 Q1002 RMK 3CU045 A2960;EQDQ01+000000PRSWM2
0235474905999992000071222004+42900+143170FM-15+0084RJCT V0200401N001010300019N0040001N1+01901+01901999999ADDGA1021+001509999GA2021+009009999GA3071+030009999GF107991999999999999999999MA1100311999999MW1101REMMET093RJCT 122200Z 04002KT 4000 BR FEW005 SCT030 BKN100 19/19 Q1003 RMK 2ST005 4SC030 7AC100 A2963;EQDQ01+000003PRSWM1Q02    003PRSWM1
0261474905999992000071223004+42900+143170FM-15+0084RJCT V0200701N002110300019N0060001N1+02001+01901999999ADDGA1021+003009999GA2021+009009999GA3071+030009999GF107991999999999999999999MA1100201999999MW1001REMMET135RJCT 122300Z 07004KT 6000 FEW010 SCT030 BKN100 20/19 Q1002 RMK 1ST010 3SC030 6AC100 A2961 FCST 2308 TEMPO 0206 -SHRA BKN030CU BKN080AC;EQDQ01+000000PRSWM2
0243474905999992000071300004+42900+143170FM-15+0084RJCT V0200601N001510045019N0070001N1+02101+01901999999ADDGA1071+004509999GA2071+009009999GA3071+030009999GF107991999999999999999999MA1100201999999MW1001REMMET117RJCT 130000Z 06003KT 7000 BKN015 BKN030 BKN100 21/19 Q1002 RMK 5ST015 5SC030 7AC100 A2959 FCST 0009 TEMPO 0206 -SHRA;EQDQ01+000000PRSWM2
0205474905999992000071301004+42900+143170FM-15+0084RJCT V0200601N002610036019N0050001N1+02101+01901999999ADDGA1071+003609999GA2081+009009999GF108991999999999999999999MA1100201999999MW1101REMMET079RJCT 130100Z 06005KT 5000 BR BKN012 OVC030 21/19 Q1002 RMK 5ST012 8SC030 A2960;EQDQ01+000003PRSWM1Q02    003PRSWM1
0235474905999992000071301124+42900+143170FM-16+0084RJCT V0200701N002110021019N0040001N1+02101+01901999999ADDGA1021+001509999GA2071+002109999GA3071+009009999GF107991999999999999999999MA1100201999999MW1101REMMET093RJCT 130112Z 07004KT 4000 BR SCT005 BKN007 BKN030 21/19 Q1002 RMK 3ST005 5ST007 7SC030 A2960;EQDQ01+000003PRSWM1Q02    003PRSWM1
0205474905999992000071302004+42900+143170FM-15+0084RJCT V0200801N002110015019N0030001N1+02001+01901999999ADDGA1071+001509999GA2081+002109999GF108991999999999999999999MA1100201999999MW1101REMMET079RJCT 130200Z 08004KT 3000 BR BKN005 OVC007 20/19 Q1002 RMK 5ST005 8ST007 A2959;EQDQ01+000003PRSWM1Q02    003PRSWM1
0222474905999992000071303004+42900+143170FM-15+0084RJCT V0200901N001510015019N0030001N1+02001+01901999999ADDGA1081+001509999GF108991999999999999999999MA1100201999999MW1101REMMET112RJCT 130300Z 09003KT 3000 BR OVC005 20/19 Q1002 RMK 8ST005 A2959 FCST 0312 TEMPO 0407 5000 BR SCT007ST BKN010ST;EQDQ01+000003PRSWM1Q02    003PRSWM1
0205474905999992000071304004+42900+143170FM-15+0084RJCT V02099999999990018019N0050001N1+02001+01901999999ADDGA1021+001509999GA2071+001809999GF107991999999999999999999MA1100101999999MW1101REMMET079RJCT 130400Z VRB03KT 5000 BR SCT005 BKN006 20/19 Q1001 RMK 3ST005 7ST006 A2956;EQDQ01+000003PRSWM1Q02    003PRSWM1
0186474905999992000071305004+42900+143170FM-15+0084RJCT V0200701N001510024019N0080001N1+02101+01901999999ADDGA1021+001809999GA2071+002409999GF107991999999999999999999MA1100001999999MW1001REMMET076RJCT 130500Z 07003KT 8000 SCT006 BKN008 21/19 Q1000 RMK 3ST006 7ST008 A2955;EQDQ01+000000PRSWM2
0186474905999992000071305224+42900+143170FM-16+0084RJCT V0200701N001510030019N0112651N1+02201+01901999999ADDGA1021+002109999GA2071+003009999GF107991999999999999999999MA1100001999999MW1001REMMET076RJCT 130522Z 07003KT 9999 FEW007 BKN010 22/19 Q1000 RMK 1ST007 6ST010 A2955;EQDQ01+000000PRSWM2
0224474905999992000071306004+42900+143170FM-15+0084RJCT V02099999999990036019N0112651N1+02301+01901999999ADDGA1021+002109999GA2071+003609999GF107991999999999999999999MA1100001999999MW1001REMMET114RJCT 130600Z VRB03KT 9999 FEW007 BKN012 23/19 Q1000 RMK 1ST007 6ST012 A2955 FCST 0615 BECMG 0709 3000 BR OVC007ST;EQDQ01+000000PRSWM2
0216474905999992000071307004+42900+143170FM-15+0084RJCT V0200801N002110060019N0112651N1+02201+01901999999ADDGA1021+003009999GA2021+004509999GA3071+006009999GF107991999999999999999999MA1100001999999MW1001REMMET090RJCT 130700Z 08004KT 9999 FEW010 SCT015 BKN020 22/19 Q1000 RMK 1ST010 3ST015 5SC020 A2954;EQDQ01+000000PRSWM2
0214474905999992000071308004+42900+143170FM-15+0084RJCT V0200901N00151220001CN0112651N1+02101+01901999999ADDGA1071+004509999GA2021+013509999MA1100001999999MW1001REMMET114RJCT 130800Z 09003KT 9999 BKN015 SCT045 21/19 Q1000 RMK 5ST015 3CU045 A2954 FCST 0817 BECMG 0910 5000 BR BKN010ST;EQDQ01+000042SCOTCVQ02+000000PRSWM2
0186474905999992000071322004+42900+143170FM-15+0084RJCT V0202001N002112200019N0112651N1+02301+02001999999ADDGA1021+004509999GA2021+090009999GF104991999999999999999999MA1100411999999MW1001REMMET076RJCT 132200Z 20004KT 9999 FEW015 SCT300 23/20 Q1004 RMK 1ST015 3CI300 A2967;EQDQ01+000000PRSWM2
0172474905999992000071323004+42900+143170FM-15+0084RJCT V0202701N002112200019N0112651N1+02601+02001999999ADDGA1021+009009999GF102991999999999999999999MA1100411999999MW1001REMMET078RJCT 132300Z 27004KT 9999 FEW030 26/20 Q1004 RMK 1CU030 A2967 FCST 2308 NOSIG;EQDQ01+000000PRSWM2
0172474905999992000071400004+42900+143170FM-15+0084RJCT V0202601N002112200019N0112651N1+02801+02001999999ADDGA1021+012009999GF102991999999999999999999MA1100411999999MW1001REMMET078RJCT 140000Z 26004KT 9999 FEW040 28/20 Q1004 RMK 1CU040 A2967 FCST 0009 NOSIG;EQDQ01+000000PRSWM2
0156474905999992000071401004+42900+143170FM-15+0084RJCT V0202801N001512200019N0112651N1+02901+02001999999ADDGA1021+012009999GF102991999999999999999999MA1100511999999MW1001REMMET062RJCT 140100Z 28003KT 9999 FEW040 29/20 Q1005 RMK 1CU040 A2967;EQDQ01+000000PRSWM2
0172474905999992000071403004+42900+143170FM-15+0084RJCT V0202501N001512200019N0112651N1+03201+02101999999ADDGA1021+012009999GF102991999999999999999999MA1100411999999MW1001REMMET078RJCT 140300Z 25003KT 9999 FEW040 32/21 Q1004 RMK 1CU040 A2966 FCST 0312 NOSIG;EQDQ01+000000PRSWM2
0156474905999992000071404004+42900+143170FM-15+0084RJCT V0202801N002112200019N0112651N1+03201+02001999999ADDGA1021+013509999GF102991999999999999999999MA1100411999999MW1001REMMET062RJCT 140400Z 28004KT 9999 FEW045 32/20 Q1004 RMK 1CU045 A2966;EQDQ01+000000PRSWM2
0156474905999992000071405004+42900+143170FM-15+0084RJCT V0202901N005712200019N0112651N1+03401+01801999999ADDGA1021+012009999GF102991999999999999999999MA1100411999999MW1001REMMET062RJCT 140500Z 29011KT 9999 FEW040 34/18 Q1004 RMK 2CU040 A2966;EQDQ01+000000PRSWM2
0189474905999992000071406004+42900+143170FM-15+0084RJCT V0202901N007212200019N0112651N1+03301+01801999999ADDGA1021+010509029GF102991999999999999999999MA1100411999999MW1001REMMET095RJCT 140600Z 29014KT 9999 FEW035TCU 33/18 Q1004 RMK 1TCU035 A2966 TCU NE MOV E FCST 0615 NOSIG;EQDQ01+000000PRSWM2
0156474905999992000071407004+42900+143170FM-15+0084RJCT V0203001N003612200019N0112651N1+03301+01801999999ADDGA1021+009009999GF102991999999999999999999MA1100411999999MW1001REMMET062RJCT 140700Z 30007KT 9999 FEW030 33/18 Q1004 RMK 1CU030 A2966;EQDQ01+000000PRSWM2
0156474905999992000071422004+42900+143170FM-15+0084RJCT V02099999999992200019N0080001N1+02201+01901999999ADDGA1021+030009999GF104991999999999999999999MA1100711999999MW1001REMMET062RJCT 142200Z VRB02KT 8000 SCT100 22/19 Q1007 RMK 3AC100 A2975;EQDQ01+000000PRSWM2
0186474905999992000071423004+42900+143170FM-15+0084RJCT V02099999999990750019N0112651N1+02301+01901999999ADDGA1021+036009999GA2071+075009999GF107991999999999999999999MA1100711999999MW1001REMMET076RJCT 142300Z VRB01KT 9999 FEW120 BKN250 23/19 Q1007 RMK 2AC120 6CI250 A2975;EQDQ01+000000PRSWM2
0186474905999992000071500004+42900+143170FM-15+0084RJCT V02099999999990750019N0112651N1+02601+02001999999ADDGA1021+036009999GA2071+075009999GF107991999999999999999999MA1100711999999MW1001REMMET076RJCT 150000Z VRB02KT 9999 FEW120 BKN250 26/20 Q1007 RMK 1AC120 7CI250 A2974;EQDQ01+000000PRSWM2
0186474905999992000071502004+42900+143170FM-15+0084RJCT V02099999999990750019N0112651N1+03001+02101999999ADDGA1021+036009999GA2071+075009999GF107991999999999999999999MA1100711999999MW1001REMMET076RJCT 150200Z VRB02KT 9999 FEW120 BKN250 30/21 Q1007 RMK 1AC120 7CI250 A2973;EQDQ01+000000PRSWM2
0216474905999992000071503004+42900+143170FM-15+0084RJCT V02099999999990750019N0112651N1+03101+02001999999ADDGA1021+010509999GA2021+030009999GA3071+075009999GF107991999999999999999999MA1100611999999MW1001REMMET090RJCT 150300Z VRB03KT 9999 FEW035 SCT100 BKN250 31/20 Q1006 RMK 1CU035 3AC100 7CS250 A2972;EQDQ01+000000PRSWM2
0216474905999992000071505004+42900+143170FM-15+0084RJCT V0200201N002610750019N0112651N1+03101+02101999999ADDGA1021+010509999GA2021+030009999GA3071+075009999GF107991999999999999999999MA1100611999999MW1001REMMET090RJCT 150500Z 02005KT 9999 FEW035 SCT100 BKN250 31/21 Q1006 RMK 1CU035 4AC100 7CS250 A2970;EQDQ01+000000PRSWM2
0186474905999992000071508004+42900+143170FM-15+0084RJCT V0203301N001512200019N0112651N1+03001+02001999999ADDGA1021+018009999GA2021+075009999GF104991999999999999999999MA1100611999999MW1001REMMET076RJCT 150800Z 33003KT 9999 FEW060 SCT250 30/20 Q1006 RMK 1CU060 3CI250 A2972;EQDQ01+000000PRSWM2
0186474905999992000071509004+42900+143170FM-15+0084RJCT V0203301N001510180019N0112651N1+02801+02001999999ADDGA1021+013509999GA2071+018009999GF107991999999999999999999MA1100611999999MW1001REMMET076RJCT 150900Z 33003KT 9999 FEW045 BKN060 28/20 Q1006 RMK 1CU045 6CU060 A2973;EQDQ01+000000PRSWM2
0216474905999992000071522004+42900+143170FM-15+0084RJCT V0202901N001010390019N0112651N1+01701+01501999999ADDGA1021+003009999GA2021+027009999GA3071+039009999GF107991999999999999999999MA1101191999999MW1001REMMET090RJCT 152200Z 29002KT 9999 FEW010 SCT090 BKN130 17/15 Q1012 RMK 2ST010 4AC090 7AC130 A2990;EQDQ01+000000PRSWM2
0235474905999992000071523004+42900+143170FM-15+0084RJCT V0201601N003610300019N0050001N1+02301+02001999999ADDGA1021+003009999GA2021+009009999GA3071+030009999GF107991999999999999999999MA1100811999999MW1101REMMET093RJCT 152300Z 16007KT 5000 BR FEW010 SCT030 BKN100 23/20 Q1008 RMK 2ST010 3CU030 5AC100 A2979;EQDQ01+000003PRSWM1Q02    003PRSWM1
0235474905999992000071600004+42900+143170FM-15+0084RJCT V0201501N003610300019N0050001N1+02501+02101999999ADDGA1021+003009999GA2021+009009999GA3071+030009999GF107991999999999999999999MA1100811999999MW1101REMMET093RJCT 160000Z 15007KT 5000 BR FEW010 SCT030 BKN100 25/21 Q1008 RMK 2ST010 3CU030 5AC100 A2978;EQDQ01+000003PRSWM1Q02    003PRSWM1
0216474905999992000071606004+42900+143170FM-15+0084RJCT V0201101N002610150019N0112651N1+02801+02201999999ADDGA1021+004509999GA2021+009009999GA3071+015009999GF107991999999999999999999MA1100511999999MW1001REMMET090RJCT 160600Z 11005KT 9999 FEW015 SCT030 BKN050 28/22 Q1005 RMK 1ST015 3CU030 5CU050 A2970;EQDQ01+000000PRSWM2
0229474905999992000071607004+42900+143170FM-15+0084RJCT V0201101N003110300019N0112651N1+02701+02201999999ADDGA1021+009009099GA2021+012009999GA3071+030009999GF107991999999999999999999MA1100511999999MW1001REMMET103RJCT 160700Z 11006KT 9999 FEW030CB SCT040 BKN100 27/22 Q1005 RMK 1CB030 3CU040 5AC100 A2970 CB N MOV E;EQDQ01+000000PRSWM2
0216474905999992000071622004+42900+143170FM-15+0084RJCT V0203101N004110300019N0112651N1+02401+01701999999ADDGA1021+012009999GA2071+030009999GA3071+045009999GF107991999999999999999999MA1100611999999MW1001REMMET090RJCT 162200Z 31008KT 9999 FEW040 BKN100 BKN150 24/17 Q1006 RMK 1SC040 5AC100 6AC150 A2972;EQDQ01+000000PRSWM2
0232474905999992000071623004+42900+143170FM-15+0084RJCT V0203401N004110300019N0112651N1+02501+01701999999ADDGA1021+005409999GA2071+030009999GA3071+063009999GF107991999999999999999999MA1100611999999MW1001REMMET106RJCT 162300Z 34008KT 9999 FEW018 BKN100 BKN210 25/17 Q1006 RMK 1CU018 5AC100 7CI210 A2972 FCST 2308 NOSIG;EQDQ01+000000PRSWM2
0232474905999992000071700004+42900+143170FM-15+0084RJCT V0203601N001510630019N0112651N1+02601+01701999999ADDGA1021+006009999GA2021+030009999GA3071+063009999GF107991999999999999999999MA1100611999999MW1001REMMET106RJCT 170000Z 36003KT 9999 FEW020 SCT100 BKN210 26/17 Q1006 RMK 2CU020 3AC100 6CI210 A2973 FCST 0009 NOSIG;EQDQ01+000000PRSWM2
0216474905999992000071702004+42900+143170FM-15+0084RJCT V0201301N003110630019N0112651N1+02601+02001999999ADDGA1021+006009999GA2021+036009999GA3071+063009999GF107991999999999999999999MA1100611999999MW1001REMMET090RJCT 170200Z 13006KT 9999 FEW020 SCT120 BKN210 26/20 Q1006 RMK 2CU020 3AC120 7CI210 A2973;EQDQ01+000000PRSWM2
0264474905999992000071703004+42900+143170FM-15+0084RJCT V0201201N002610360019N0112651N1+02601+02001999999ADDGA1021+006009999GA2071+036009999GA3071+063009999GF107991999999999999999999MA1100611999999MW1001REMMET138RJCT 170300Z 12005KT 9999 SCT020 BKN120 BKN210 26/20 Q1006 RMK 3CU020 5AC120 7CI210 A2973 FCST 0312 BECMG 0507 FEW012ST BKN020CU BKN080AC;EQDQ01+000000PRSWM2
0234474905999992000071704004+42900+143170FM-15+0084RJCT V0201401N003610360019N0112651N1+02601+02101999999ADDGA1021+005109999GA2021+007509029GA3071+036009999GF107991999999999999999999MA1100611999999MW1001REMMET108RJCT 170400Z 14007KT 9999 SCT017 SCT025TCU BKN120 26/21 Q1006 RMK 3CU017 3TCU025 5AC120 A2972 TCU OHD MOV E;EQDQ01+000000PRSWM2
0252474905999992000071704194+42900+143170FM-16+0084RJCT V0201801N004610090019N0112651N1+02501+02101999999ADDGA1021+007509999GA2071+009009099GA3071+045009999GF107991999999999999999999MA1100611999999MW1811REMMET110RJCT 170419Z 18009KT 9999 SHRA FEW025 BKN030CB BKN150 25/21 Q1006 RMK 1CU025 6CB030 5AC150 A2971 CB OHD MOV E;EQDQ01+000003PRSWM1Q02    003PRSWM1
0253474905999992000071705534+42900+143170FM-16+0084RJCT V0201101N002610045019N0035001N1+02101+02001999999ADDGA1021+003909999GA2071+004509099GA3071+045009999GF107991999999999999999999MA1100611999999MW1801REMMET111RJCT 170553Z 11005KT 3500 -SHRA SCT013 BKN015CB BKN150 21/20 Q1006 RMK 4CU013 5CB015 5AC150 A2972 CB OHD MOV E;EQDQ01+000003PRSWM1Q02    003PRSWM1
0278474905999992000071706004+42900+143170FM-15+0084RJCT V0201201N002610045019N0040001N1+02101+02001999999ADDGA1021+003909999GA2071+004509099GA3071+045009999GF107991999999999999999999MA1100611999999MW1801REMMET136RJCT 170600Z 12005KT 4000 -SHRA SCT013 BKN015CB BKN150 21/20 Q1006 RMK 4CU013 6CB015 5AC150 A2972 CB OHD MOV E FCST 0615 TEMPO 0610 NSW;EQDQ01+000003PRSWM1Q02    003PRSWM1
0166474905999992000071706084+42900+143170FM-16+0084RJCT V0201201N002610039019N0020001N1+02101+02001999999ADDGA1071+003909999GA2071+005109099GF107991999999999999999999MW1811REMMET055RJCT 170608Z 12005KT 2000 SHRA BKN013 BKN017CB 21/20 Q;EQDQ01+000003PRSWM1Q02    003PRSWM1
0241474905999992000071706284+42900+143170FM-16+0084RJCT V0201001N002610030019N0016001N1+02001+02001999999ADDGA1071+003009999GA2081+004509099GF108991999999999999999999MA1100711999999MW1811REMMET099RJCT 170628Z 10005KT 1600 SHRA BR BKN010 OVC015CB 20/20 Q1007 RMK 5ST010 8CB015 A2973 CB OHD MOV E;EQDQ01+000100PRSWM3Q02+000003PRSWM1Q03    003PRSWM1
0247474905999992000071706384+42900+143170FM-16+0084RJCT V0200901N002110045019N0018001N1+02001+02001999999ADDGA1021+003009999GA2071+004509099GF107991999999999999999999MA1100711999999MW1801REMMET105RJCT 170638Z 09004KT 1800 -SHRA BR SCT010 BKN015CB 20/20 Q1007 RERA RMK 4ST010 7CB015 A2973 CB OHD MOV E;EQDQ01+000100PRSWM3Q02+000003PRSWM1Q03    003PRSWM1
0262474905999992000071707004+42900+143170FM-15+0084RJCT V0200901N002610060019N0025001N1+02101+02001999999ADDGA1021+004509999GA2071+006009099GA3071+009009999GF107991999999999999999999MA1100611999999MW1101MW2801REMMET114RJCT 170700Z 09005KT 2500 -SHRA BR SCT015 BKN020CB BKN030 21/20 Q1006 RMK 3CU015 5CB020 7CU030 A2973 CB OHD MOV E;EQDQ01+000003PRSWM1Q02    003PRSWM1
0266474905999992000071708004+42900+143170FM-15+0084RJCT V0200901N002610135019N0112651N1+02001+01901999999ADDGA1021+002109999GA2021+006009999GA3081+013509999GF108991999999999999999999MA1100711999999MW1001REMMET140RJCT 170800Z 09005KT 9999 FEW007 SCT020 OVC045 20/19 Q1007 RMK 2ST007 3CU020 8SC045 A2974 FCST 0817 TEMPO 0913 -SHRA 2500 BKN012ST BKN020CU;EQDQ01+000000PRSWM2
0245474905999992000071721004+42900+143170FM-15+0084RJCT V0200201N001010018019N0040001N1+01601+01601999999ADDGA1021+000909999GA2071+001809999GA3081+004509999GF108991999999999999999999MA1100411999999MW1101MW2611REMMET097RJCT 172100Z 02002KT 4000 -RA BR FEW003 BKN006 OVC015 16/16 Q1004 RMK 2ST003 6ST006 8NS015 A2964;EQDQ01+000003PRSWM1Q02    003PRSWM1
0245474905999992000071722004+42900+143170FM-15+0084RJCT V0200201N001010021019N0050001N1+01601+01501999999ADDGA1021+001509999GA2071+002109999GA3081+004509999GF108991999999999999999999MA1100411999999MW1101MW2611REMMET097RJCT 172200Z 02002KT 5000 -RA BR FEW005 BKN007 OVC015 16/15 Q1004 RMK 2ST005 6ST007 8NS015 A2965;EQDQ01+000003PRSWM1Q02    003PRSWM1
0308474905999992000071723004+42900+143170FM-15+0084RJCT V0200401N000510021019N0112651N1+01701+01601999999ADDGA1021+001509999GA2071+002109999GA3071+036009999GF107991999999999999999999MA1100311999999MW1611REMMET166RJCT 172300Z 04001KT 9999 -RA FEW005 BKN007 BKN120 17/16 Q1003 RMK 1ST005 5ST007 7AS120 A2964 FCST 2308 BECMG 0102 NSW BKN010ST BKN040SC BECMG 0608 SCT025CU BKN040SC;EQDQ01+000003PRSWM1Q02    003PRSWM1
0292474905999992000071800004+42900+143170FM-15+0084RJCT V02099999999990030019N0112651N1+01701+01501999999ADDGA1021+002109999GA2071+003009999GA3071+030009999GF107991999999999999999999MA1100311999999MW1801REMMET150RJCT 180000Z VRB01KT 9999 -SHRA FEW007 BKN010 BKN100 17/15 Q1003 RMK 1ST007 6ST010 7AC100 A2964 FCST 0009 BECMG 0102 NSW BECMG 0708 SCT025CU BKN040SC;EQDQ01+000003PRSWM1Q02    003PRSWM1
0216474905999992000071801004+42900+143170FM-15+0084RJCT V02099999999990042019N0112651N1+01901+01501999999ADDGA1071+004209999GA2021+036009999GA3071+075009999GF107991999999999999999999MA1100311999999MW1001REMMET090RJCT 180100Z VRB03KT 9999 BKN014 SCT120 BKN250 19/15 Q1003 RMK 6CU014 3AC120 6CI250 A2963;EQDQ01+000000PRSWM2
0186474905999992000071802004+42900+143170FM-15+0084RJCT V0200501N001510054019N0112651N1+02001+01601999999ADDGA1071+005409999GA2071+075009999GF107991999999999999999999MA1100201999999MW1001REMMET076RJCT 180200Z 05003KT 9999 BKN018 BKN250 20/16 Q1002 RMK 6CU018 6CI250 A2961;EQDQ01+000000PRSWM2
0216474905999992000071804004+42900+143170FM-15+0084RJCT V0200801N001010066019N0112651N1+02001+01601999999ADDGA1021+005109999GA2021+006009999GA3071+006609999GF107991999999999999999999MA1100201999999MW1001REMMET090RJCT 180400Z 08002KT 9999 FEW017 SCT020 BKN022 20/16 Q1002 RMK 1CU017 3CU020 6CU022 A2960;EQDQ01+000000PRSWM2
0206474905999992000071804114+42900+143170FM-16+0084RJCT V0200801N001010066019N0112651N1+02001+01601999999ADDGA1021+006009999GA2071+006609999GF107991999999999999999999MA1100201999999MW1511REMMET080RJCT 180411Z 08002KT 9999 -DZ SCT020 BKN022 20/16 Q1002 RMK 4CU020 7CU022 A2961;EQDQ01+000003PRSWM1Q02    003PRSWM1
0224474905999992000071804274+42900+143170FM-16+0084RJCT V0202701N001510039019N0050001N1+01901+01701999999ADDGA1021+003009999GA2071+003909999GF107991999999999999999999MA1100201999999MW1631REMMET082RJCT 180427Z 27003KT 5000 RA BR SCT010 BKN013 19/17 Q1002 RMK 4CU010 7CU013 A2961;EQDQ01+000100PRSWM3Q02+000003PRSWM1Q03    003PRSWM1
0233474905999992000071804304+42900+143170FM-15+0084RJCT V0203301N000510036019N0015001N1+01901+01701999999ADDGA1021+001809999GA2081+003609099GF108991999999999999999999MA1100201999999MW1101MW2631REMMET101RJCT COR 180430Z 33001KT 1500 RA BR SCT006 OVC012CB 19/17 Q1002 RMK 4ST006 8CB012 A2961 CB OHD MOV E;EQDQ01+000003PRSWM1Q02    003PRSWM1
0266474905999992000071805004+42900+143170FM-15+0084RJCT V0203201N001010021019N0016001N1+01801+01701999999ADDGA1021+001209999GA2071+002109999GA3081+004509099GF108991999999999999999999MA1100201999999MW1101MW2811REMMET118RJCT 180500Z 32002KT 1600 SHRA BR SCT004 BKN007 OVC015CB 18/17 Q1002 RMK 3ST004 6ST007 8CB015 A2961 CB ALL QUAD MOV E;EQDQ01+000003PRSWM1Q02    003PRSWM1
0304474905999992000071806004+42900+143170FM-15+0084RJCT V0203001N000510021019N0020001N1+01801+01701999999ADDGA1021+001509999GA2071+002109999GA3081+005409999GF108991999999999999999999MA1100311999999MW1101MW2801REMMET156RJCT 180600Z 30001KT 2000 -SHRA BR SCT005 BKN007 OVC018 18/17 Q1003 RERA RMK 3ST005 6ST007 8CU018 A2962 FCST 0615 BECMG 0708 NSW SCT012ST BKN020CU BKN040SC;EQDQ01+000003PRSWM1Q02    003PRSWM1
0247474905999992000071807004+42900+143170FM-15+0084RJCT V02099999999990021019N0050001N1+01801+01701999999ADDGA1021+001509999GA2071+002109999GA3081+005409999GF108991999999999999999999MA1100311999999MW1101MW2801REMMET099RJCT 180700Z VRB01KT 5000 -SHRA BR SCT005 BKN007 OVC018 18/17 Q1003 RMK 4ST005 6ST007 8CU018 A2963;EQDQ01+000003PRSWM1Q02    003PRSWM1
0238474905999992000071807334+42900+143170FM-16+0084RJCT V0200301N001010024019N0112651N1+01701+01701999999ADDGA1021+001509999GA2071+002409999GA3071+006009999GF107991999999999999999999MA1100311999999MW1801REMMET096RJCT 180733Z 03002KT 9999 -SHRA SCT005 BKN008 BKN020 17/17 Q1003 RMK 3ST005 5ST008 7CU020 A2963;EQDQ01+000003PRSWM1Q02    003PRSWM1
0281474905999992000071808004+42900+143170FM-15+0084RJCT V0200501N002110027019N0080001N1+01701+01601999999ADDGA1021+001509999GA2071+002709999GA3071+006009999GF107991999999999999999999MA1100311999999MW1801REMMET139RJCT 180800Z 05004KT 8000 -SHRA SCT005 BKN009 BKN020 17/16 Q1003 RMK 3ST005 5ST009 7CU020 A2964 FCST 0817 BECMG 0910 NSW BKN015ST OVC040SC;EQDQ01+000003PRSWM1Q02    003PRSWM1
0247474905999992000071809004+42900+143170FM-15+0084RJCT V0200601N003610027019N0050001N1+01601+01601999999ADDGA1021+001809999GA2071+002709999GA3081+006009999GF108991999999999999999999MA1100411999999MW1101MW2801REMMET099RJCT 180900Z 06007KT 5000 -SHRA BR SCT006 BKN009 OVC020 16/16 Q1004 RMK 4ST006 5ST009 8CU020 A2966;EQDQ01+000003PRSWM1Q02    003PRSWM1
0236474905999992000071809454+42900+143170FM-15+0084RJCT V0200801N003110054019N0080001N1+01601+01501999999ADDGA1021+001509999GA2071+005409999GA3081+007509999GF108991999999999999999999MA1100511999999MW1511REMMET094RJCT 180945Z 08006KT 8000 -DZ FEW005 BKN018 OVC025 16/15 Q1005 RMK 2ST005 5ST018 8CU025 A2968;EQDQ01+000003PRSWM1Q02    003PRSWM1
0236474905999992000071810004+42900+143170FM-15+0084RJCT V0200801N003610048019N0070001N1+01601+01501999999ADDGA1021+001509999GA2071+004809999GA3081+007509999GF108991999999999999999999MA1100511999999MW1511REMMET094RJCT 181000Z 08007KT 7000 -DZ FEW005 BKN016 OVC025 16/15 Q1005 RMK 2ST005 5ST016 8CU025 A2968;EQDQ01+000003PRSWM1Q02    003PRSWM1
0236474905999992000071811004+42900+143170FM-15+0084RJCT V0200801N001510045019N0060001N1+01501+01401999999ADDGA1021+001509999GA2071+004509999GA3081+006609999GF108991999999999999999999MA1100611999999MW1511REMMET094RJCT 181100Z 08003KT 6000 -DZ FEW005 BKN015 OVC022 15/14 Q1006 RMK 2ST005 5ST015 8CU022 A2971;EQDQ01+000003PRSWM1Q02    003PRSWM1
0216474905999992000071821004+42900+143170FM-15+0084RJCT V0201001N001010045019N0112651N1+01501+01401999999ADDGA1021+002709999GA2071+004509999GA3071+008109999GF107991999999999999999999MA1100911999999MW1001REMMET090RJCT 182100Z 10002KT 9999 FEW009 BKN015 BKN027 15/14 Q1009 RMK 2ST009 5ST015 6SC027 A2980;EQDQ01+000000PRSWM2
0216474905999992000071822004+42900+143170FM-15+0084RJCT V0200901N001010090019N0112651N1+01501+01401999999ADDGA1021+003609999GA2021+007509999GA3071+009009999GF107991999999999999999999MA1100911999999MW1001REMMET090RJCT 182200Z 09002KT 9999 SCT012 SCT025 BKN030 15/14 Q1009 RMK 3ST012 4SC025 6SC030 A2982;EQDQ01+000000PRSWM2
0255474905999992000071900004+42900+143170FM-15+0084RJCT V02099999999990075019N0112651N1+01801+01401999999ADDGA1021+003009999GA2021+004809999GA3071+007509999GF107991999999999999999999MA1101021999999MW1001REMMET129RJCT 190000Z VRB02KT 9999 FEW010 SCT016 BKN025 18/14 Q1010 RMK 2ST010 3SC016 6SC025 A2984 FCST 0009 TEMPO 0307 SCT030CU BKN080AC;EQDQ01+000000PRSWM2
0202474905999992000071903004+42900+143170FM-15+0084RJCT V0200301N001010075019N0112651N1+02001+01501999999ADDGA1071+007509999GA2071+009009999GF107991999999999999999999MA1101021999999MW1001REMMET092RJCT 190300Z 03002KT 9999 BKN025 BKN030 20/15 Q1010 RMK 5SC025 7SC030 A2985 FCST 0312 NOSIG;EQDQ01+000000PRSWM2
0186474905999992000071904004+42900+143170FM-15+0084RJCT V0201401N001510075019N0112651N1+02001+01501999999ADDGA1071+007509999GA2071+009009999GF107991999999999999999999MA1101021999999MW1001REMMET076RJCT 190400Z 14003KT 9999 BKN025 BKN030 20/15 Q1010 RMK 5SC025 7SC030 A2984;EQDQ01+000000PRSWM2
0216474905999992000071905004+42900+143170FM-15+0084RJCT V0201701N002610075019N0112651N1+02001+01601999999ADDGA1021+006009999GA2071+007509999GA3071+009009999GF107991999999999999999999MA1101081999999MW1001REMMET090RJCT 190500Z 17005KT 9999 FEW020 BKN025 BKN030 20/16 Q1011 RMK 2CU020 5SC025 7SC030 A2986;EQDQ01+000000PRSWM2
0232474905999992000071906004+42900+143170FM-15+0084RJCT V0201101N003110075019N0112651N1+02001+01601999999ADDGA1021+006009999GA2071+007509999GA3071+009009999GF107991999999999999999999MA1101081999999MW1001REMMET106RJCT 190600Z 11006KT 9999 SCT020 BKN025 BKN030 20/16 Q1011 RMK 3CU020 6CU025 7SC030 A2986 FCST 0615 NOSIG;EQDQ01+000000PRSWM2
0216474905999992000071907004+42900+143170FM-15+0084RJCT V0201601N004610060019N0112651N1+01801+01501999999ADDGA1021+004809999GA2071+006009999GA3071+009009999GF107991999999999999999999MA1101081999999MW1001REMMET090RJCT 190700Z 16009KT 9999 SCT016 BKN020 BKN030 18/15 Q1011 RMK 3CU016 5CU020 7SC030 A2987;EQDQ01+000000PRSWM2
0186474905999992000071921004+42900+143170FM-15+0084RJCT V0201401N001010021019N0112651N1+01501+01401999999ADDGA1021+001509999GA2071+002109999GF107991999999999999999999MA1101391999999MW1001REMMET076RJCT 192100Z 14002KT 9999 FEW005 BKN007 15/14 Q1014 RMK 2ST005 7ST007 A2996;EQDQ01+000000PRSWM2
0186474905999992000071922004+42900+143170FM-15+0084RJCT V0201101N002110027019N0112651N1+01601+01401999999ADDGA1021+001809999GA2071+002709999GF107991999999999999999999MA1101391999999MW1001REMMET076RJCT 192200Z 11004KT 9999 FEW006 BKN009 16/14 Q1014 RMK 2ST006 7ST009 A2995;EQDQ01+000000PRSWM2
0186474905999992000071923004+42900+143170FM-15+0084RJCT V0201401N002110030019N0112651N1+01601+01401999999ADDGA1021+002109999GA2071+003009999GF107991999999999999999999MA1101391999999MW1001REMMET076RJCT 192300Z 14004KT 9999 FEW007 BKN010 16/14 Q1014 RMK 2ST007 7ST010 A2995;EQDQ01+000000PRSWM2
0186474905999992000072001004+42900+143170FM-15+0084RJCT V0201501N003110060019N0112651N1+02001+01501999999ADDGA1021+004509999GA2071+006009999GF107991999999999999999999MA1101291999999MW1001REMMET076RJCT 200100Z 15006KT 9999 SCT015 BKN020 20/15 Q1013 RMK 3SC015 7CU020 A2993;EQDQ01+000000PRSWM2
0186474905999992000072002004+42900+143170FM-15+0084RJCT V0201701N004610075019N0112651N1+01901+01501999999ADDGA1021+006009999GA2071+007509999GF107991999999999999999999MA1101291999999MW1001REMMET076RJCT 200200Z 17009KT 9999 SCT020 BKN025 19/15 Q1013 RMK 3CU020 7CU025 A2992;EQDQ01+000000PRSWM2
0186474905999992000072003004+42900+143170FM-15+0084RJCT V0201301N002110075019N0112651N1+02001+01601999999ADDGA1021+006009999GA2071+007509999GF107991999999999999999999MA1101291999999MW1001REMMET076RJCT 200300Z 13004KT 9999 SCT020 BKN025 20/16 Q1013 RMK 3CU020 7CU025 A2992;EQDQ01+000000PRSWM2
0186474905999992000072004004+42900+143170FM-15+0084RJCT V0201501N003110081019N0112651N1+02001+01501999999ADDGA1021+006009999GA2071+008109999GF107991999999999999999999MA1101291999999MW1001REMMET076RJCT 200400Z 15006KT 9999 FEW020 BKN027 20/15 Q1013 RMK 2CU020 7CU027 A2992;EQDQ01+000000PRSWM2
0186474905999992000072005004+42900+143170FM-15+0084RJCT V0201401N003110075019N0112651N1+02001+01501999999ADDGA1021+006009999GA2071+007509999GF107991999999999999999999MA1101291999999MW1001REMMET076RJCT 200500Z 14006KT 9999 FEW020 BKN025 20/15 Q1013 RMK 1CU020 7CU025 A2992;EQDQ01+000000PRSWM2
0217474905999992000072022004+42900+143170FM-15+0084RJCT V0201201N003010009019N0035001N1+01501+01401999999ADDGA1071+000909999GA2081+001809999GF108991999999999999999999MA1101021999999MW1101MW2801REMMET085RJCT 202200Z 12003KT 3500 -SHRA BR BKN003 OVC006 15/14 Q1010 RMK 6ST003 8ST006 A2983;EQDQ01+000003PRSWM1Q02    003PRSWM1
0208474905999992000072022384+42900+143170FM-16+0084RJCT V0201201N004010009019N0060001N1+01501+01501999999ADDGA1071+000909999GA2081+001809999GF108991999999999999999999MA1101021999999MW1801REMMET082RJCT 202238Z 12004KT 6000 -SHRA BKN003 OVC006 15/15 Q1010 RMK 6ST003 8ST006 A2983;EQDQ01+000003PRSWM1Q02    003PRSWM1
0280474905999992000072023004+42900+143170FM-15+0084RJCT V0201301N003010009019N0060001N1+01501+01501999999ADDGA1071+000909999GA2081+002409999GF108991999999999999999999MA1101021999999MW1801REMMET154RJCT 202300Z 13003KT 6000 -SHRA BKN003 OVC008 15/15 Q1010 RMK 5ST003 8ST008 A2982 FCST 2308 BECMG 0102 NSW BKN020CU BKN040SC BECMG 0304 SCT030CU BKN050SC;EQDQ01+000003PRSWM1Q02    003PRSWM1
0238474905999992000072023224+42900+143170FM-16+0084RJCT V0201301N003010015019N0070001N1+01501+01501999999ADDGA1071+001509999GA2071+002409999GA3081+006009999GF108991999999999999999999MA1100911999999MW1801REMMET096RJCT 202322Z 13003KT 7000 -SHRA BKN005 BKN008 OVC020 15/15 Q1009 RMK 5ST005 6ST008 8CU020 A2982;EQDQ01+000003PRSWM1Q02    003PRSWM1
0238474905999992000072101004+42900+143170FM-15+0084RJCT V0200901N003010024019N0112651N1+01601+01501999999ADDGA1021+001509999GA2071+002409999GA3081+006009999GF108991999999999999999999MA1100911999999MW1801REMMET096RJCT 210100Z 09003KT 9999 -SHRA SCT005 BKN008 OVC020 16/15 Q1009 RMK 3ST005 5ST008 8CU020 A2981;EQDQ01+000003PRSWM1Q02    003PRSWM1
0236474905999992000072102004+42900+143170FM-15+0084RJCT V0200901N002010015019N0090001N1+01601+01501999999ADDGA1071+001509999GA2071+002409999GA3081+006009999GF108991999999999999999999MA1100911999999MW1511REMMET094RJCT 210200Z 09002KT 9000 -DZ BKN005 BKN008 OVC020 16/15 Q1009 RMK 6ST005 6ST008 8CU020 A2981;EQDQ01+000003PRSWM1Q02    003PRSWM1
0186474905999992000072104004+42900+143170FM-15+0084RJCT V02099999999990021019N0112651N1+01701+01501999999ADDGA1021+001509999GA2081+002109999GF108991999999999999999999MA1100711999999MW1001REMMET076RJCT 210400Z VRB01KT 9999 FEW005 OVC007 17/15 Q1007 RMK 2ST005 8ST007 A2976;EQDQ01+000000PRSWM2
0232474905999992000072106004+42900+143170FM-15+0084RJCT V02099999999990030019N0112651N1+01801+01601999999ADDGA1021+002109999GA2071+003009999GA3071+045009999GF107991999999999999999999MA1100611999999MW1001REMMET106RJCT 210600Z VRB01KT 9999 FEW007 BKN010 BKN150 18/16 Q1006 RMK 1ST007 7SC010 6AC150 A2972 FCST 0615 NOSIG;EQDQ01+000000PRSWM2
0216474905999992000072107004+42900+143170FM-15+0084RJCT V02099999999990030019N0112651N1+01901+01601999999ADDGA1021+002109999GA2071+003009999GA3071+045009999GF107991999999999999999999MA1100511999999MW1001REMMET090RJCT 210700Z VRB01KT 9999 FEW007 BKN010 BKN150 19/16 Q1005 RMK 1ST007 7SC010 6AC150 A2970;EQDQ01+000000PRSWM2
0216474905999992000072107354+42900+143170FM-16+0084RJCT V0201701N003010450019N0112651N1+01901+01601999999ADDGA1021+002709999GA2021+003909999GA3071+045009999GF107991999999999999999999MA1100511999999MW1001REMMET090RJCT 210735Z 17003KT 9999 FEW009 SCT013 BKN150 19/16 Q1005 RMK 2ST009 4SC013 5AC150 A2970;EQDQ01+000000PRSWM2
0186474905999992000072107514+42900+143170FM-16+0084RJCT V0201601N005010036019N0112651N1+01901+01701999999ADDGA1021+002709999GA2071+003609999GF107991999999999999999999MA1100511999999MW1001REMMET076RJCT 210751Z 16005KT 9999 FEW009 BKN012 19/17 Q1005 RMK 2ST009 7SC012 A2970;EQDQ01+000000PRSWM2
0224474905999992000072108004+42900+143170FM-15+0084RJCT V0201501N004010036019N0112651N1+01901+01701999999ADDGA1021+002709999GA2071+003609999GF107991999999999999999999MA1100511999999MW1001REMMET114RJCT 210800Z 15004KT 9999 FEW009 BKN012 19/17 Q1005 RMK 2ST009 7SC012 A2970 FCST 0817 BECMG 1011 4000 BR BKN008ST;EQDQ01+000000PRSWM2
0209474905999992000072122004+42900+143170FM-15+0084RJCT V0200701N001010015019N0035001N1+01701+01701999999ADDGA1021+001209999GA2071+001509999GF107991999999999999999999MA1100001999999MW1101REMMET083RJCT 212200Z COR 07002KT 3500 BR SCT004 BKN005 17/17 Q1000 RMK 3ST004 7ST005 A2955;EQDQ01+000003PRSWM1Q02    003PRSWM1
0205474905999992000072123004+42900+143170FM-15+0084RJCT V0201001N000510015019N0035001N1+01801+01701999999ADDGA1021+001209999GA2071+001509999GF107991999999999999999999MA1100001999999MW1101REMMET079RJCT 212300Z 10001KT 3500 BR SCT004 BKN005 18/17 Q1000 RMK 3ST004 7ST005 A2953;EQDQ01+000003PRSWM1Q02    003PRSWM1
0205474905999992000072202004+42900+143170FM-15+0084RJCT V02099999999990030019N0050001N1+02101+01801999999ADDGA1021+002109999GA2071+003009999GF107991999999999999999999MA1099801999999MW1101REMMET079RJCT 220200Z VRB01KT 5000 BR FEW007 BKN010 21/18 Q0998 RMK 2ST007 6ST010 A2947;EQDQ01+000003PRSWM1Q02    003PRSWM1
0216474905999992000072203004+42900+143170FM-15+0084RJCT V0203501N002610630019N0090001N1+02301+01901999999ADDGA1021+002409999GA2021+007509999GA3071+063009999GF107991999999999999999999MA1099801999999MW1001REMMET090RJCT 220300Z 35005KT 9000 FEW008 SCT025 BKN210 23/19 Q0998 RMK 1ST008 3SC025 5CI210 A2947;EQDQ01+000000PRSWM2
0216474905999992000072205004+42900+143170FM-15+0084RJCT V0203001N001010450019N0112651N1+02601+02101999999ADDGA1021+004509999GA2021+012009999GA3071+045009999GF107991999999999999999999MA1099701999999MW1001REMMET090RJCT 220500Z 30002KT 9999 FEW015 SCT040 BKN150 26/21 Q0997 RMK 1SC015 3CU040 5AC150 A2944;EQDQ01+000000PRSWM2
0216474905999992000072221004+42900+143170FM-15+0084RJCT V0201201N002110018019N0070001N1+01901+01901999999ADDGA1021+000909999GA2071+001809999GA3081+007509999GF108991999999999999999999MA1099701999999MW1001REMMET090RJCT 222100Z 12004KT 7000 FEW003 BKN006 OVC025 19/19 Q0997 RMK 1ST003 5ST006 8SC025 A2946;EQDQ01+000000PRSWM2
0216474905999992000072222154+42900+143170FM-16+0084RJCT V0200701N001010240019N0112651N1+02101+02001999999ADDGA1021+001509999GA2021+002409999GA3071+024009999GF107991999999999999999999MA1099801999999MW1001REMMET090RJCT 222215Z 07002KT 9999 FEW005 SCT008 BKN080 21/20 Q0998 RMK 1ST005 3ST008 5AC080 A2947;EQDQ01+000000PRSWM2
0216474905999992000072222314+42900+143170FM-16+0084RJCT V0200601N001010030019N0112651N1+02201+02001999999ADDGA1021+001509999GA2071+003009999GA3071+024009999GF107991999999999999999999MA1099801999999MW1001REMMET090RJCT 222231Z 06002KT 9999 FEW005 BKN010 BKN080 22/20 Q0998 RMK 1ST005 6ST010 5AC080 A2947;EQDQ01+000000PRSWM2
0238474905999992000072222414+42900+143170FM-16+0084RJCT V0201001N001510030019N0112651N1+02201+02001999999ADDGA1021+001509999GA2071+003009999GA3071+024009999GF107991999999999999999999MA1099801999999MW1801REMMET096RJCT 222241Z 10003KT 9999 -SHRA FEW005 BKN010 BKN080 22/20 Q0998 RMK 1ST005 5ST010 5AC080 A2947;EQDQ01+000003PRSWM1Q02    003PRSWM1
0172474905999992000072223024+42900+143170FM-16+0084RJCT V0200801N001010240019N0112651N1+99999+99999999999ADDGA1021+001809999GA2021+003009999GA3071+024009999GF107991999999999999999999MW1001MW2801REMMET055RJCT 222302Z 08002KT 9999 -SHRA FEW006 SCT010 BKN080 2;EQDQ01+000003PRSWM1
0257474905999992000072300004+42900+143170FM-15+0084RJCT V0201201N001010027019N0112651N1+02301+02101999999ADDGA1071+002709999GA2021+010509029GA3071+024009999GF107991999999999999999999MA1099701999999MW1801REMMET115RJCT 230000Z 12002KT 9999 -SHRA BKN009 SCT035TCU BKN080 23/21 Q0997 RMK 5ST009 3TCU035 6AC080 A2947 TCU SW MOV UNK;EQDQ01+000003PRSWM1Q02    003PRSWM1
0216474905999992000072300374+42900+143170FM-16+0084RJCT V02099999999990030019N0112651N1+02401+02101999999ADDGA1071+003009999GA2021+010509999GA3071+024009999GF107991999999999999999999MA1099701999999MW1001REMMET090RJCT 230037Z VRB03KT 9999 BKN010 SCT035 BKN080 24/21 Q0997 RMK 6ST010 3CU035 6AC080 A2947;EQDQ01+000000PRSWM2
0216474905999992000072301004+42900+143170FM-15+0084RJCT V02099999999990030019N0112651N1+02301+02101999999ADDGA1071+003009999GA2021+010509999GA3071+024009999GF107991999999999999999999MA1099701999999MW1001REMMET090RJCT 230100Z VRB02KT 9999 BKN010 SCT035 BKN080 23/21 Q0997 RMK 7ST010 4CU035 6AC080 A2947;EQDQ01+000000PRSWM2
0178474905999992000072301404+42900+143170FM-16+0084RJCT V0200601N001010036019N0112651N1+02401+02101999999ADDGA1081+003609999GF108991999999999999999999MA1099801999999MW1801REMMET068RJCT 230140Z 06002KT 9999 -SHRA OVC012 24/21 Q0998 RMK 8ST012 A2947;EQDQ01+000003PRSWM1Q02    003PRSWM1
0208474905999992000072303004+42900+143170FM-15+0084RJCT V0203501N001010039019N0112651N1+02401+02101999999ADDGA1071+003909999GA2071+010509999GF107991999999999999999999MA1099801999999MW1801REMMET082RJCT 230300Z 35002KT 9999 -SHRA BKN013 BKN035 24/21 Q0998 RMK 6ST013 5CU035 A2947;EQDQ01+000003PRSWM1Q02    003PRSWM1
0238474905999992000072303054+42900+143170FM-16+0084RJCT V0200401N001510300019N0112651N1+02401+02101999999ADDGA1021+003909999GA2021+010509999GA3071+030009999GF107991999999999999999999MA1099701999999MW1801REMMET096RJCT 230305Z 04003KT 9999 -SHRA SCT013 SCT035 BKN100 24/21 Q0997 RMK 3ST013 4CU035 7AC100 A2947;EQDQ01+000003PRSWM1Q02    003PRSWM1
0216474905999992000072305004+42900+143170FM-15+0084RJCT V02099999999990120019N0112651N1+02501+02201999999ADDGA1021+003009999GA2071+012009999GA3071+030009999GF107991999999999999999999MA1099701999999MW1001REMMET090RJCT 230500Z VRB02KT 9999 FEW010 BKN040 BKN100 25/22 Q0997 RMK 1ST010 5CU040 6AC100 A2946;EQDQ01+000000PRSWM2
0238474905999992000072306004+42900+143170FM-15+0084RJCT V0202901N001510105019N0060001N1+02501+02301999999ADDGA1021+003009999GA2071+010509999GA3071+030009999GF107991999999999999999999MA1099701999999MW1801REMMET096RJCT 230600Z 29003KT 6000 -SHRA FEW010 BKN035 BKN100 25/23 Q0997 RMK 1ST010 6CU035 7AC100 A2947;EQDQ01+000003PRSWM1Q02    003PRSWM1
0202474905999992000072323004+42900+143170FM-15+0084RJCT V0200401N000510630019N0112651N1+02501+02101999999ADDGA1021+009009999GA2071+063009999GF107991999999999999999999MA1100311999999MW1001REMMET092RJCT 232300Z 04001KT 9999 FEW030 BKN210 25/21 Q1003 RMK 1CU030 6CI210 A2963 FCST 2308 NOSIG;EQDQ01+000000PRSWM2
0202474905999992000072400004+42900+143170FM-15+0084RJCT V0200701N001010630019N0112651N1+02701+02201999999ADDGA1021+009009999GA2071+063009999GF107991999999999999999999MA1100311999999MW1001REMMET092RJCT 240000Z 07002KT 9999 FEW030 BKN210 27/22 Q1003 RMK 1CU030 5CI210 A2963 FCST 0009 NOSIG;EQDQ01+000000PRSWM2
0186474905999992000072401004+42900+143170FM-15+0084RJCT V02099999999990690019N0112651N1+02901+02401999999ADDGA1021+009009999GA2071+069009999GF107991999999999999999999MA1100311999999MW1001REMMET076RJCT 240100Z VRB03KT 9999 FEW030 BKN230 29/24 Q1003 RMK 1CU030 5CI230 A2964;EQDQ01+000000PRSWM2
0202474905999992000072403004+42900+143170FM-15+0084RJCT V02099999999992200019N0112651N1+03201+02501999999ADDGA1021+009009999GA2021+069009999GF104991999999999999999999MA1100201999999MW1001REMMET092RJCT 240300Z VRB03KT 9999 FEW030 SCT230 32/25 Q1002 RMK 2CU030 3CI230 A2960 FCST 0312 NOSIG;EQDQ01+000000PRSWM2
0186474905999992000072404004+42900+143170FM-15+0084RJCT V0200901N004612200019N0112651N1+03101+02401999999ADDGA1021+009009999GA2021+069009999GF104991999999999999999999MA1100201999999MW1001REMMET076RJCT 240400Z 09009KT 9999 FEW030 SCT230 31/24 Q1002 RMK 2CU030 3CI230 A2960;EQDQ01+000000PRSWM2
0156474905999992000072405004+42900+143170FM-15+0084RJCT V0201101N003612200019N0112651N1+03301+02401999999ADDGA1021+009009999GF102991999999999999999999MA1100201999999MW1001REMMET062RJCT 240500Z 11007KT 9999 FEW030 33/24 Q1002 RMK 2CU030 A2960;EQDQ01+000000PRSWM2
0172474905999992000072406004+42900+143170FM-15+0084RJCT V0201101N003112200019N0112651N1+03201+02401999999ADDGA1021+009009999GF102991999999999999999999MA1100201999999MW1001REMMET078RJCT 240600Z 11006KT 9999 FEW030 32/24 Q1002 RMK 2CU030 A2961 FCST 0615 NOSIG;EQDQ01+000000PRSWM2
0186474905999992000072407004+42900+143170FM-15+0084RJCT V0201001N002612200019N0112651N1+03001+02301999999ADDGA1021+009009999GA2021+069009999GF104991999999999999999999MA1100311999999MW1001REMMET076RJCT 240700Z 10005KT 9999 FEW030 SCT230 30/23 Q1003 RMK 2CU030 3CI230 A2962;EQDQ01+000000PRSWM2
0202474905999992000072408004+42900+143170FM-15+0084RJCT V0200901N002612200019N0112651N1+02801+02301999999ADDGA1021+009009999GA2021+069009999GF104991999999999999999999MA1100311999999MW1001REMMET092RJCT 240800Z 09005KT 9999 FEW030 SCT230 28/23 Q1003 RMK 1CU030 4CI230 A2962 FCST 0817 NOSIG;EQDQ01+000000PRSWM2
0218474905999992000072423004+42900+143170FM-15+0084RJCT V0201001N001510015019N0030001N1+02001+01801999999ADDGA1081+001509999GF108991999999999999999999MA1100511999999MW1101REMMET108RJCT 242300Z 10003KT 3000 BR OVC005 20/18 Q1005 RMK 8ST005 A2970 FCST 2308 BECMG 0002 NSW SCT025CU BKN080AC;EQDQ01+000003PRSWM1Q02    003PRSWM1
0175474905999992000072502004+42900+143170FM-15+0084RJCT V0201201N001010018019N0040001N1+02101+01901999999ADDGA1081+001809999GF108991999999999999999999MA1100511999999MW1101REMMET065RJCT 250200Z 12002KT 4000 BR OVC006 21/19 Q1005 RMK 8ST006 A2969;EQDQ01+000003PRSWM1Q02    003PRSWM1
0186474905999992000072504004+42900+143170FM-15+0084RJCT V02099999999990033019N0112651N1+02301+02001999999ADDGA1021+002409999GA2071+003309999GF107991999999999999999999MA1100411999999MW1001REMMET076RJCT 250400Z VRB03KT 9999 FEW008 BKN011 23/20 Q1004 RMK 1ST008 7ST011 A2967;EQDQ01+000000PRSWM2
0186474905999992000072505004+42900+143170FM-15+0084RJCT V02099999999990036019N0112651N1+02401+02001999999ADDGA1021+002409999GA2071+003609999GF107991999999999999999999MA1100311999999MW1001REMMET076RJCT 250500Z VRB03KT 9999 FEW008 BKN012 24/20 Q1003 RMK 1ST008 7SC012 A2964;EQDQ01+000000PRSWM2
0224474905999992000072506004+42900+143170FM-15+0084RJCT V0201101N001510033019N0112651N1+02301+02101999999ADDGA1021+002409999GA2081+003309999GF108991999999999999999999MA1100311999999MW1001REMMET114RJCT 250600Z 11003KT 9999 FEW008 OVC011 23/21 Q1003 RMK 1ST008 8ST011 A2964 FCST 0615 BECMG 0709 4000 BR BKN008ST;EQDQ01+000000PRSWM2
0186474905999992000072507004+42900+143170FM-15+0084RJCT V0200901N002610024019N0112651N1+02201+02001999999ADDGA1021+001809999GA2081+002409999GF108991999999999999999999MA1100311999999MW1001REMMET076RJCT 250700Z 09005KT 9999 FEW006 OVC008 22/20 Q1003 RMK 2ST006 8ST008 A2964;EQDQ01+000000PRSWM2
0219474905999992000072508004+42900+143170FM-15+0084RJCT V0201001N003110015019N0060001N1+02101+01901999999ADDGA1021+000909999GA2081+001509999GF108991999999999999999999MA1100411999999MW1001REMMET109RJCT 250800Z 10006KT 6000 FEW003 OVC005 21/19 Q1004 RMK 2ST003 8ST005 A2965 FCST 0817 BECMG 0809 4000 -DZ BR;EQDQ01+000000PRSWM2
0175474905999992000072522004+42900+143170FM-15+0084RJCT V02099999999990006019N0018001N1+01901+01901999999ADDGA1081+000609999GF108991999999999999999999MA1100711999999MW1101REMMET065RJCT 252200Z VRB01KT 1800 BR OVC002 19/19 Q1007 RMK 8ST002 A2974;EQDQ01+000003PRSWM1Q02    003PRSWM1
0272474905999992000072523004+42900+143170FM-15+0084RJCT V0200401N001010012019N0040001N1+01901+01901999999ADDGA1021+000609999GA2071+001209999GF107991999999999999999999MA1100711999999MW1101MW2801REMMET140RJCT 252300Z 04002KT 4000 BR -SHRA FEW002 BKN004 19/19 Q1007 RMK 2ST002 7ST004 A2975 FCST 2308 BECMG 0102 OVC008ST TEMPO 0406 6000 BKN010ST;EQDQ01+000003PRSWM1Q02    003PRSWM1
0186474905999992000072600334+42900+143170FM-16+0084RJCT V0200501N001510015019N0112651N1+02001+01901999999ADDGA1021+000909999GA2071+001509999GF107991999999999999999999MA1100711999999MW1001REMMET076RJCT 260033Z 05003KT 9999 FEW003 BKN005 20/19 Q1007 RMK 2ST003 7ST005 A2976;EQDQ01+000000PRSWM2
0186474905999992000072601004+42900+143170FM-15+0084RJCT V0200701N001010015019N0112651N1+02001+01901999999ADDGA1021+001209999GA2071+001509999GF107991999999999999999999MA1100811999999MW1001REMMET076RJCT 260100Z 07002KT 9999 FEW004 BKN005 20/19 Q1008 RMK 1ST004 7ST005 A2977;EQDQ01+000000PRSWM2
0235474905999992000072622004+42900+143170FM-15+0084RJCT V0201401N000510018019N0040001N1+01901+01901999999ADDGA1021+000909999GA2071+001809999GA3071+006009999GF107991999999999999999999MA1100911999999MW1101REMMET093RJCT 262200Z 14001KT 4000 BR SCT003 BKN006 BKN020 19/19 Q1009 RMK 3ST003 6ST006 7SC020 A2980;EQDQ01+000003PRSWM1Q02    003PRSWM1
0233474905999992000072623004+42900+143170FM-15+0084RJCT V0209999V000510240019N0080001N1+02201+02001999999ADDGA1021+002409999GA2071+024009999GF107991999999999999999999MA1100911999999MW1001REMMET123RJCT 262300Z COR VRB01KT 8000 SCT008 BKN080 22/20 Q1009 RMK 4ST008 6AC080 A2981 FCST COR 2308 TEMPO 2308 BKN008ST BKN080AC;EQDQ01+000000PRSWM2
0255474905999992000072700004+42900+143170FM-15+0084RJCT V02099999999990630019N0112651N1+02401+02001999999ADDGA1021+003609999GA2021+024009999GA3071+063009999GF107991999999999999999999MA1100911999999MW1001REMMET129RJCT 270000Z VRB01KT 9999 SCT012 SCT080 BKN210 24/20 Q1009 RMK 3ST012 4AC080 6CI210 A2981 FCST 0009 BECMG 0607 BKN020CU BKN040SC;EQDQ01+000000PRSWM2
0216474905999992000072701004+42900+143170FM-15+0084RJCT V0201101N001510630019N0112651N1+02501+02001999999ADDGA1021+003609999GA2021+006009999GA3071+063009999GF107991999999999999999999MA1100911999999MW1001REMMET090RJCT 270100Z 11003KT 9999 FEW012 SCT020 BKN210 25/20 Q1009 RMK 1ST012 3CU020 7CI210 A2982;EQDQ01+000000PRSWM2
0186474905999992000072702004+42900+143170FM-15+0084RJCT V02099999999990630019N0112651N1+02701+02101999999ADDGA1021+007509999GA2071+063009999GF107991999999999999999999MA1100911999999MW1001REMMET076RJCT 270200Z VRB03KT 9999 FEW025 BKN210 27/21 Q1009 RMK 2CU025 7CI210 A2981;EQDQ01+000000PRSWM2
0202474905999992000072703004+42900+143170FM-15+0084RJCT V02099999999990630019N0112651N1+02801+02001999999ADDGA1021+007509999GA2071+063009999GF107991999999999999999999MA1100911999999MW1001REMMET092RJCT 270300Z VRB03KT 9999 FEW025 BKN210 28/20 Q1009 RMK 2CU025 7CI210 A2981 FCST 0312 NOSIG;EQDQ01+000000PRSWM2
0186474905999992000072704004+42900+143170FM-15+0084RJCT V0201401N001510630019N0112651N1+02901+02001999999ADDGA1021+007509999GA2071+063009999GF107991999999999999999999MA1100911999999MW1001REMMET076RJCT 270400Z 14003KT 9999 SCT025 BKN210 29/20 Q1009 RMK 3CU025 6CI210 A2981;EQDQ01+000000PRSWM2
0186474905999992000072705004+42900+143170FM-15+0084RJCT V0201301N002110630019N0112651N1+02901+02001999999ADDGA1021+007509999GA2071+063009999GF107991999999999999999999MA1100911999999MW1001REMMET076RJCT 270500Z 13004KT 9999 SCT025 BKN210 29/20 Q1009 RMK 3CU025 6CI210 A2981;EQDQ01+000000PRSWM2
0202474905999992000072706004+42900+143170FM-15+0084RJCT V0201101N003610630019N0112651N1+02801+02101999999ADDGA1021+009009999GA2071+063009999GF107991999999999999999999MA1100911999999MW1001REMMET092RJCT 270600Z 11007KT 9999 SCT030 BKN210 28/21 Q1009 RMK 3CU030 6CI210 A2981 FCST 0615 NOSIG;EQDQ01+000000PRSWM2
0186474905999992000072707004+42900+143170FM-15+0084RJCT V0201101N003110630019N0112651N1+02701+02101999999ADDGA1021+009009999GA2071+063009999GF107991999999999999999999MA1100911999999MW1001REMMET076RJCT 270700Z 11006KT 9999 FEW030 BKN210 27/21 Q1009 RMK 2CU030 5CI210 A2982;EQDQ01+000000PRSWM2
0232474905999992000072723004+42900+143170FM-15+0084RJCT V0201001N001510045019N0112651N1+02101+02001999999ADDGA1021+002409999GA2071+004509999GA3081+009009999GF108991999999999999999999MA1100911999999MW1001REMMET106RJCT 272300Z 10003KT 9999 FEW008 BKN015 OVC030 21/20 Q1009 RMK 1ST008 5ST015 8SC030 A2982 FCST 2308 NOSIG;EQDQ01+000000PRSWM2
0216474905999992000072802004+42900+143170FM-15+0084RJCT V0201301N001510090019N0112651N1+02301+02001999999ADDGA1021+003009999GA2021+004509999GA3071+009009999GF107991999999999999999999MA1100911999999MW1001REMMET090RJCT 280200Z 13003KT 9999 FEW010 SCT015 BKN030 23/20 Q1009 RMK 1ST010 4ST015 7SC030 A2980;EQDQ01+000000PRSWM2
0232474905999992000072803004+42900+143170FM-15+0084RJCT V0201701N002110120019N0112651N1+02401+02001999999ADDGA1021+003009999GA2021+006009999GA3071+012009999GF107991999999999999999999MA1100911999999MW1001REMMET106RJCT 280300Z 17004KT 9999 FEW010 SCT020 BKN040 24/20 Q1009 RMK 1ST010 4CU020 7SC040 A2979 FCST 0312 NOSIG;EQDQ01+000000PRSWM2
0216474905999992000072804004+42900+143170FM-15+0084RJCT V0201301N001510330019N0112651N1+02501+02001999999ADDGA1021+006009999GA2021+013509999GA3071+033009999GF107991999999999999999999MA1100811999999MW1001REMMET090RJCT 280400Z 13003KT 9999 SCT020 SCT045 BKN110 25/20 Q1008 RMK 4CU020 3SC045 7AC110 A2978;EQDQ01+000000PRSWM2
0216474905999992000072805004+42900+143170FM-15+0084RJCT V0201201N002110240019N0112651N1+02501+02001999999ADDGA1021+006009999GA2071+024009999GA3071+033009999GF107991999999999999999999MA1100811999999MW1001REMMET090RJCT 280500Z 12004KT 9999 SCT020 BKN080 BKN110 25/20 Q1008 RMK 4CU020 5AC080 7AC110 A2977;EQDQ01+000000PRSWM2
0252474905999992000072808004+42900+143170FM-15+0084RJCT V0201301N002610690019N0112651N1+02401+02101999999ADDGA1021+006009999GA2021+045009999GA3071+069009999GF107991999999999999999999MA1100711999999MW1001REMMET126RJCT 280800Z 13005KT 9999 FEW020 SCT150 BKN230 24/21 Q1007 RMK 1CU020 4AC150 6CI230 A2975 FCST 0817 TEMPO 0910 -SHRA BKN020CU;EQDQ01+000000PRSWM2
0186474905999992000072900004+42900+143170FM-15+0084RJCT V0201601N001510024019N0112651N1+01801+01701999999ADDGA1071+002409999GA2081+003609999GF108991999999999999999999MA1100911999999MW1001REMMET076RJCT 290000Z 16003KT 9999 BKN008 OVC012 18/17 Q1009 RMK 6ST008 8ST012 A2981;EQDQ01+000000PRSWM2
0186474905999992000072901004+42900+143170FM-15+0084RJCT V0201801N002110024019N0112651N1+01901+01701999999ADDGA1071+002409999GA2081+003609999GF108991999999999999999999MA1100911999999MW1001REMMET076RJCT 290100Z 18004KT 9999 BKN008 OVC012 19/17 Q1009 RMK 6ST008 8ST012 A2981;EQDQ01+000000PRSWM2
0186474905999992000072901234+42900+143170FM-16+0084RJCT V0201501N002110030019N0112651N1+01901+01701999999ADDGA1071+003009999GA2071+004509999GF107991999999999999999999MA1100911999999MW1001REMMET076RJCT 290123Z 15004KT 9999 BKN010 BKN015 19/17 Q1009 RMK 6ST010 7ST015 A2982;EQDQ01+000000PRSWM2
0186474905999992000072903004+42900+143170FM-15+0084RJCT V0201301N002110033019N0112651N1+02001+01701999999ADDGA1071+003309999GA2071+004809999GF107991999999999999999999MA1100911999999MW1001REMMET076RJCT 290300Z 13004KT 9999 BKN011 BKN016 20/17 Q1009 RMK 6ST011 7ST016 A2981;EQDQ01+000000PRSWM2
0186474905999992000072904004+42900+143170FM-15+0084RJCT V0201301N001510036019N0112651N1+02001+01701999999ADDGA1071+003609999GA2071+005409999GF107991999999999999999999MA1100911999999MW1001REMMET076RJCT 290400Z 13003KT 9999 BKN012 BKN018 20/17 Q1009 RMK 6ST012 7ST018 A2981;EQDQ01+000000PRSWM2
0186474905999992000072905004+42900+143170FM-15+0084RJCT V0201301N001510036019N0112651N1+02001+01701999999ADDGA1071+003609999GA2071+005409999GF107991999999999999999999MA1100911999999MW1001REMMET076RJCT 290500Z 13003KT 9999 BKN012 BKN018 20/17 Q1009 RMK 6ST012 7ST018 A2980;EQDQ01+000000PRSWM2
0186474905999992000072906004+42900+143170FM-15+0084RJCT V0201401N001510036019N0112651N1+02001+01701999999ADDGA1071+003609999GA2081+005109999GF108991999999999999999999MA1100911999999MW1001REMMET076RJCT 290600Z 14003KT 9999 BKN012 OVC017 20/17 Q1009 RMK 6ST012 8ST017 A2981;EQDQ01+000000PRSWM2
0205474905999992000073021204+42900+143170FM-15+0084RJCT V0200301N000510006019N0016001N1+02001+02001999999ADDGA1071+000609999GA2081+000909999GF108991999999999999999999MA1100811999999MW1101REMMET079RJCT 302120Z 03001KT 1600 BR BKN002 OVC003 20/20 Q1008 RMK 6ST002 8ST003 A2978;EQDQ01+000003PRSWM1Q02    003PRSWM1
0186474905999992000073022274+42900+143170FM-16+0084RJCT V0200501N000510015019N0060001N1+02101+02001999999ADDGA1071+001509999GA2081+002109999GF108991999999999999999999MA1100811999999MW1001REMMET076RJCT 302227Z 05001KT 6000 BKN005 OVC007 21/20 Q1008 RMK 6ST005 8ST007 A2978;EQDQ01+000000PRSWM2
0229474905999992000073023004+42900+143170FM-15+0084RJCT V0203501N000510021019N0080001N1+02101+02001999999ADDGA1071+002109999GA2081+003009999GF108991999999999999999999MA1100811999999MW1001REMMET119RJCT 302300Z COR 35001KT 8000 BKN007 OVC010 21/20 Q1008 RMK 6ST007 8ST010 A2978 FCST 2308 BECMG 0001 FEW012ST SCT025CU;EQDQ01+000000PRSWM2
0156474905999992000073023454+42900+143170FM-15+0084RJCT V0200601N000510027019N0112651N1+02201+02001999999ADDGA1081+002709999GF108991999999999999999999MA1100811999999MW1001REMMET062RJCT 302345Z 06001KT 9999 OVC009 22/20 Q1008 RMK 8ST009 A2978;EQDQ01+000000PRSWM2
0195474905999992000073100004+42900+143170FM-15+0084RJCT V0200501N001010027019N0112651N1+02201+01901999999ADDGA1071+002709999GF107991999999999999999999MA1100811999999MW1001REMMET101RJCT 310000Z 05002KT 9999 BKN009 22/19 Q1008 RMK 7ST009 A2978 FCST 0009 BECMG 0001 FEW012ST SCT025CU;EQDQ01+000000PRSWM2
0186474905999992000073100154+42900+143170FM-16+0084RJCT V0200701N001010033019N0112651N1+02301+02001999999ADDGA1021+002709999GA2071+003309999GF107991999999999999999999MA1100811999999MW1001REMMET076RJCT 310015Z 07002KT 9999 SCT009 BKN011 23/20 Q1008 RMK 3ST009 7ST011 A2978;EQDQ01+000000PRSWM2
0186474905999992000073101004+42900+143170FM-15+0084RJCT V0201401N001010036019N0112651N1+02501+02101999999ADDGA1021+003009999GA2071+003609999GF107991999999999999999999MA1100811999999MW1001REMMET076RJCT 310100Z 14002KT 9999 FEW010 BKN012 25/21 Q1008 RMK 1ST010 5ST012 A2978;EQDQ01+000000PRSWM2
0156474905999992000073101424+42900+143170FM-16+0084RJCT V0201401N001012200019N0112651N1+02601+02101999999ADDGA1021+003609999GF102991999999999999999999MA1100811999999MW1001REMMET062RJCT 310142Z 14002KT 9999 FEW012 26/21 Q1008 RMK 1ST012 A2977;EQDQ01+000000PRSWM2
0172474905999992000073103004+42900+143170FM-15+0084RJCT V0201001N001012200019N0112651N1+02801+02201999999ADDGA1021+004509999GF102991999999999999999999MA1100811999999MW1001REMMET078RJCT 310300Z 10002KT 9999 FEW015 28/22 Q1008 RMK 1ST015 A2976 FCST 0312 NOSIG;EQDQ01+000000PRSWM2
0156474905999992000073105004+42900+143170FM-15+0084RJCT V0201501N001512200019N0112651N1+03101+02401999999ADDGA1021+009009999GF102991999999999999999999MA1100711999999MW1001REMMET062RJCT 310500Z 15003KT 9999 FEW030 31/24 Q1007 RMK 1CU030 A2974;EQDQ01+000000PRSWM2
0172474905999992000073106004+42900+143170FM-15+0084RJCT V02099999999992200019N0112651N1+03201+02401999999ADDGA1021+012009999GF102991999999999999999999MA1100611999999MW1001REMMET078RJCT 310600Z VRB01KT 9999 FEW040 32/24 Q1006 RMK 1CU040 A2972 FCST 0615 NOSIG;EQDQ01+000000PRSWM2
0172474905999992000073108004+42900+143170FM-15+0084RJCT V0200601N002612200019N0112651N1+03001+02501999999ADDGA1021+009009999GF102991999999999999999999MA1100611999999MW1001REMMET078RJCT 310800Z 06005KT 9999 FEW030 30/25 Q1006 RMK 1CU030 A2973 FCST 0817 NOSIG;EQDQ01+000000PRSWM2
0156474905999992000073109004+42900+143170FM-15+0084RJCT V0201101N003112200019N0112651N1+02801+02401999999ADDGA1021+009009999GF102991999999999999999999MA1100711999999MW1001REMMET062RJCT 310900Z 11006KT 9999 FEW030 28/24 Q1007 RMK 1CU030 A2974;EQDQ01+000000PRSWM2
0156474905999992000073110004+42900+143170FM-15+0084RJCT V0200901N002612200019N0112651N1+02501+02201999999ADDGA1021+009009999GF102991999999999999999999MA1100711999999MW1001REMMET062RJCT 311000Z 09005KT 9999 FEW030 25/22 Q1007 RMK 1CU030 A2975;EQDQ01+000000PRSWM2
0156474905999992000073111004+42900+143170FM-15+0084RJCT V0200901N001512200019N0112651N1+02301+02101999999ADDGA1021+009009999GF102991999999999999999999MA1100811999999MW1001REMMET062RJCT 311100Z 09003KT 9999 FEW030 23/21 Q1008 RMK 1CU030 A2978;EQDQ01+000000PRSWM2
0156474905999992000073122004+42900+143170FM-15+0084RJCT V0200301N000510012019N0060001N1+02001+01901999999ADDGA1081+001209999GF108991999999999999999999MA1100911999999MW1001REMMET062RJCT 312200Z 03001KT 6000 OVC004 20/19 Q1009 RMK 8ST004 A2980;EQDQ01+000000PRSWM2
0156474905999992000073122204+42900+143170FM-15+0084RJCT V02099999999990018019N0080001N1+02001+01901999999ADDGA1081+001809999GF108991999999999999999999MA1100911999999MW1001REMMET062RJCT 312220Z VRB01KT 8000 OVC006 20/19 Q1009 RMK 8ST006 A2980;EQDQ01+000000PRSWM2
0206474905999992000073123004+42900+143170FM-15+0084RJCT V0201301N000510024019N0080001N1+02101+01901999999ADDGA1081+002409999GF108991999999999999999999MA1100911999999MW1001REMMET112RJCT 312300Z 13001KT 8000 OVC008 21/19 Q1009 RMK 8ST008 A2980 FCST 2308 BECMG 2300 BKN010ST BECMG 0001 SCT012ST;EQDQ01+000000PRSWM2
0206474905999992000080100004+42900+143170FM-15+0084RJCT V0201201N000510021019N0080001N1+02201+01901999999ADDGA1081+002109999GF108991999999999999999999MA1100911999999MW1001REMMET112RJCT 010000Z 12001KT 8000 OVC007 22/19 Q1009 RMK 8ST007 A2980 FCST 0009 BECMG 0001 BKN010ST BECMG 0102 SCT012ST;EQDQ01+000000PRSWM2
0186474905999992000080100244+42900+143170FM-16+0084RJCT V0201501N001010027019N0112651N1+02301+01901999999ADDGA1021+002409999GA2081+002709999GF108991999999999999999999MA1100911999999MW1001REMMET076RJCT 010024Z 15002KT 9999 SCT008 OVC009 23/19 Q1009 RMK 4ST008 8ST009 A2980;EQDQ01+000000PRSWM2
0186474905999992000080100534+42900+143170FM-16+0084RJCT V0201201N000510030019N0112651N1+02401+02001999999ADDGA1021+002709999GA2071+003009999GF107991999999999999999999MA1100911999999MW1001REMMET076RJCT 010053Z 12001KT 9999 SCT009 BKN010 24/20 Q1009 RMK 3ST009 5ST010 A2980;EQDQ01+000000PRSWM2
0186474905999992000080101284+42900+143170FM-16+0084RJCT V0201101N002112200019N0112651N1+02401+02101999999ADDGA1021+002709999GA2021+003009999GF104991999999999999999999MA1100911999999MW1001REMMET076RJCT 010128Z 11004KT 9999 SCT009 SCT010 24/21 Q1009 RMK 3ST009 4ST010 A2979;EQDQ01+000000PRSWM2
0186474905999992000080102004+42900+143170FM-15+0084RJCT V0200801N001512200019N0112651N1+02501+02101999999ADDGA1021+003009999GA2021+003909999GF104991999999999999999999MA1100811999999MW1001REMMET076RJCT 010200Z 08003KT 9999 FEW010 SCT013 25/21 Q1008 RMK 1ST010 3ST013 A2979;EQDQ01+000000PRSWM2
0172474905999992000080103004+42900+143170FM-15+0084RJCT V0200801N001012200019N0112651N1+02801+02301999999ADDGA1021+007509999GF102991999999999999999999MA1100811999999MW1001REMMET078RJCT 010300Z 08002KT 9999 FEW025 28/23 Q1008 RMK 1CU025 A2978 FCST 0312 NOSIG;EQDQ01+000000PRSWM2
0156474905999992000080104004+42900+143170FM-15+0084RJCT V02099999999992200019N0112651N1+03001+02401999999ADDGA1021+007509999GF102991999999999999999999MA1100711999999MW1001REMMET062RJCT 010400Z VRB03KT 9999 FEW025 30/24 Q1007 RMK 1CU025 A2975;EQDQ01+000000PRSWM2
0156474905999992000080105004+42900+143170FM-15+0084RJCT V02099999999992200019N0112651N1+03201+02501999999ADDGA1021+009009999GF102991999999999999999999MA1100711999999MW1001REMMET062RJCT 010500Z VRB02KT 9999 FEW030 32/25 Q1007 RMK 1CU030 A2974;EQDQ01+000000PRSWM2
0156474905999992000080107004+42900+143170FM-15+0084RJCT V0200801N002112200019N0112651N1+03101+02601999999ADDGA1021+009009999GF102991999999999999999999MA1100711999999MW1001REMMET062RJCT 010700Z 08004KT 9999 FEW030 31/26 Q1007 RMK 1CU030 A2974;EQDQ01+000000PRSWM2
0156474905999992000080122004+42900+143170FM-15+0084RJCT V0209999C000012200019N0112651N1+02601+02301999999ADDGA1021+009009999GF102991999999999999999999MA1101081999999MW1001REMMET062RJCT 012200Z 00000KT 9999 FEW030 26/23 Q1011 RMK 1CU030 A2985;EQDQ01+000000PRSWM2
0172474905999992000080123004+42900+143170FM-15+0084RJCT V0203101N001512200019N0112651N1+02801+02401999999ADDGA1021+009009999GF102991999999999999999999MA1101021999999MW1001REMMET078RJCT 012300Z 31003KT 9999 FEW030 28/24 Q1010 RMK 1CU030 A2984 FCST 2308 NOSIG;EQDQ01+000000PRSWM2
0172474905999992000080200004+42900+143170FM-15+0084RJCT V02099999999992200019N0112651N1+03101+02401999999ADDGA1021+009009999GF102991999999999999999999MA1101021999999MW1001REMMET078RJCT 020000Z VRB01KT 9999 FEW030 31/24 Q1010 RMK 1CU030 A2984 FCST 0009 NOSIG;EQDQ01+000000PRSWM2
0186474905999992000080201004+42900+143170FM-15+0084RJCT V02099999999992200019N0112651N1+03201+02401999999ADDGA1021+009009999GA2021+015009999GF104991999999999999999999MA1101021999999MW1001REMMET076RJCT 020100Z VRB01KT 9999 FEW030 SCT050 32/24 Q1010 RMK 1CU030 4SC050 A2984;EQDQ01+000000PRSWM2
0186474905999992000080202004+42900+143170FM-15+0084RJCT V0203201N001512200019N0112651N1+03301+02401999999ADDGA1021+009009999GA2021+015009999GF104991999999999999999999MA1101021999999MW1001REMMET076RJCT 020200Z 32003KT 9999 FEW030 SCT050 33/24 Q1010 RMK 1CU030 3SC050 A2983;EQDQ01+000000PRSWM2
0192474905999992000080203004+42900+143170FM-15+0084RJCT V0200301N002112200019N0112651N1+03501+02501999999ADDGA1021+009009029GF102991999999999999999999MA1100911999999MW1001REMMET098RJCT 020300Z 03004KT 9999 FEW030TCU 35/25 Q1009 RMK 1TCU030 A2981 TCU 20KM W STNR FCST 0312 NOSIG;EQDQ01+000000PRSWM2
0156474905999992000080204004+42900+143170FM-15+0084RJCT V0200901N001512200019N0112651N1+03401+02501999999ADDGA1021+009009999GF102991999999999999999999MA1100911999999MW1001REMMET062RJCT 020400Z 09003KT 9999 FEW030 34/25 Q1009 RMK 2CU030 A2980;EQDQ01+000000PRSWM2
0156474905999992000080205004+42900+143170FM-15+0084RJCT V0200801N002612200019N0112651N1+03401+02601999999ADDGA1021+009009999GF102991999999999999999999MA1100811999999MW1001REMMET062RJCT 020500Z 08005KT 9999 FEW030 34/26 Q1008 RMK 2CU030 A2978;EQDQ01+000000PRSWM2
0225474905999992000080205494+42900+143170FM-16+0084RJCT V0201001N002610120019N0112651N1+03401+02601999999ADDGA1021+009009099GA2071+012009999GF107991999999999999999999MA1100811999999MW1801REMMET099RJCT 020549Z 10005KT 9999 -SHRA SCT030CB BKN040 34/26 Q1008 RMK 3CB030 5CU040 A2977 CB OHD MOV UNK;EQDQ01+000003PRSWM1Q02    003PRSWM1
0259474905999992000080206004+42900+143170FM-15+0084RJCT V0201101N003610105019N0112651N1+03301+02701999999ADDGA1021+009009099GA2071+010509999GF107991999999999999999999MA1100811999999MW1801REMMET133RJCT 020600Z 11007KT 9999 -SHRA SCT030CB BKN035 33/27 Q1008 RMK 4CB030 6CU035 A2977 CB OHD MOV UNK FCST 0615 BECMG 0607 NSW SCT030CU;EQDQ01+000003PRSWM1Q02    003PRSWM1
0233474905999992000080206174+42900+143170FM-16+0084RJCT V0200901N001510105019N0112651N1+03101+02701999999ADDGA1021+009009099GA2071+010509999GF107991999999999999999999MA1100811999999MW1801MW2951REMMET101RJCT 020617Z 09003KT 9999 -TSRA SCT030CB BKN035 31/27 Q1008 RMK 4CB030 5CU035 A2977 FBL TS S MOV UNK;EQDQ01+000003PRSWM1Q02    003PRSWM1
0235474905999992000080206334+42900+143170FM-16+0084RJCT V0201201N002610090019N0112651N1+03001+02801999999ADDGA1021+006009999GA2071+009009099GF107991999999999999999999MA1100811999999MW1801REMMET109RJCT 020633Z 12005KT 9999 -SHRA FEW020 BKN030CB 30/28 Q1008 RETS RMK 1CU020 6CB030 A2977 CB ALL QUAD MOV UNK;EQDQ01+000003PRSWM1Q02    003PRSWM1
0232474905999992000080207004+42900+143170FM-15+0084RJCT V0200401N001510090019N0112651N1+03001+02701999999ADDGA1021+004509999GA2071+009009099GF107991999999999999999999MA1100811999999MW1801REMMET106RJCT 020700Z 04003KT 9999 -SHRA FEW015 BKN030CB 30/27 Q1008 RETS RMK 1ST015 6CB030 A2978 CB ALL QUAD STNR;EQDQ01+000003PRSWM1Q02    003PRSWM1
0242474905999992000080207464+42900+143170FM-16+0084RJCT V0200701N002110090019N0112651N1+02701+02601999999ADDGA1021+004509999GA2071+009009099GF107991999999999999999999MA1100911999999MW1801REMMET116RJCT 020746Z 07004KT 9999 -SHRA FEW015 BKN030CB 27/26 Q1009 RERA RMK 1ST015 7CB030 A2980 3000NE-SE CB ALL QUAD STNR;EQDQ01+000003PRSWM1Q02    003PRSWM1
0275474905999992000080208004+42900+143170FM-15+0084RJCT V0201001N002110090019N0112651N1+02801+02701999999ADDGA1021+004509999GA2071+009009099GF107991999999999999999999MA1100811999999MW1801REMMET149RJCT 020800Z COR 10004KT 9999 -SHRA FEW015 BKN030CB 28/27 Q1008 RERA RMK 1ST015 5CB030 A2978 CB ALL QUAD MOV E FCST COR 0817 BECMG 0809 NSW SCT030CU;EQDQ01+000003PRSWM1Q02    003PRSWM1
0209474905999992000080208134+42900+143170FM-16+0084RJCT V0200501N001512200019N0112651N1+02801+02601999999ADDGA1021+004509999GA2021+009009099GF104991999999999999999999MA1100811999999MW1001REMMET099RJCT 020813Z 05003KT 9999 FEW015 SCT030CB 28/26 Q1008 RERA RMK 2ST015 3CB030 A2978 CB 30KM N MOV E;EQDQ01+000000PRSWM2
0175474905999992000080221004+42900+143170FM-15+0084RJCT V0201201N001010003019N0006001N1+02101+02101999999ADDGA1081+000309999GF108991999999999999999999MA1101291999999MW1441REMMET065RJCT 022100Z 12002KT 0600 FG OVC001 21/21 Q1013 RMK 8ST001 A2992;EQDQ01+000003PRSWM1Q02    003PRSWM1
0177474905999992000080221164+42900+143170FM-16+0084RJCT V0201201N001512200019N0012001N1+02201+02101999999ADDGA1021+000309999GF102991999999999999999999MA1101291999999MW1411REMMET067RJCT 022116Z 12003KT 1200 BCFG FEW001 22/21 Q1013 RMK 2ST001 A2992;EQDQ01+000003PRSWM1Q02    003PRSWM1
0175474905999992000080221344+42900+143170FM-16+0084RJCT V0201701N001512200019N0050001N1+02301+02101999999ADDGA1021+000309999GF102991999999999999999999MA1101291999999MW1101REMMET065RJCT 022134Z 17003KT 5000 BR FEW001 23/21 Q1013 RMK 1ST001 A2993;EQDQ01+000003PRSWM1Q02    003PRSWM1
0156474905999992000080222004+42900+143170FM-15+0084RJCT V0201301N001012200019N0112651N1+02401+02101999999ADDGA1021+000909999GF102991999999999999999999MA1101291999999MW1001REMMET062RJCT 022200Z 13002KT 9999 FEW003 24/21 Q1013 RMK 1ST003 A2993;EQDQ01+000000PRSWM2
0172474905999992000080223004+42900+143170FM-15+0084RJCT V0200201N001512200019N0112651N1+02601+02101999999ADDGA1021+003009999GF102991999999999999999999MA1101291999999MW1001REMMET078RJCT 022300Z 02003KT 9999 FEW010 26/21 Q1013 RMK 1ST010 A2993 FCST 2308 NOSIG;EQDQ01+000000PRSWM2
0156474905999992000080302004+42900+143170FM-15+0084RJCT V0203101N001012200019N0112651N1+03001+02101999999ADDGA1021+007509999GF102991999999999999999999MA1101291999999MW1001REMMET062RJCT 030200Z 31002KT 9999 FEW025 30/21 Q1013 RMK 1CU025 A2991;EQDQ01+000000PRSWM2
0172474905999992000080303004+42900+143170FM-15+0084RJCT V02099999999992200019N0112651N1+03101+02001999999ADDGA1021+007509999GF102991999999999999999999MA1101191999999MW1001REMMET078RJCT 030300Z VRB01KT 9999 FEW025 31/20 Q1012 RMK 1CU025 A2990 FCST 0312 NOSIG;EQDQ01+000000PRSWM2
0156474905999992000080304004+42900+143170FM-15+0084RJCT V02099999999992200019N0112651N1+03101+02101999999ADDGA1021+007509999GF102991999999999999999999MA1101191999999MW1001REMMET062RJCT 030400Z VRB03KT 9999 FEW025 31/21 Q1012 RMK 2CU025 A2989;EQDQ01+000000PRSWM2
0186474905999992000080306004+42900+143170FM-15+0084RJCT V0201301N004612200019N0112651N1+03001+02301999999ADDGA1021+009009999GF104991999999999999999999MA1101191999999MW1001REMMET092RJCT 030600Z 13009KT 9999 SCT030 30/23 Q1012 RMK 3CU030 A2990 FCST 0615 TEMPO 0608 BKN030CU;EQDQ01+000000PRSWM2
0179474905999992000080307004+42900+143170FM-15+0084RJCT V0201401N004112200019N0112651N1+02901+02201999999ADDGA1021+009009029GF102991999999999999999999MA1101191999999MW1001REMMET085RJCT 030700Z 14008KT 9999 FEW030TCU 29/22 Q1012 RMK 2TCU030 A2991 TCU 20KM NW-N STNR;EQDQ01+000000PRSWM2
0195474905999992000080308004+42900+143170FM-15+0084RJCT V0201301N003612200019N0112651N1+02801+02201999999ADDGA1021+009009029GF102991999999999999999999MA1101291999999MW1001REMMET101RJCT 030800Z 13007KT 9999 FEW030TCU 28/22 Q1013 RMK 2TCU030 A2991 TCU 20KM NW-N STNR FCST 0817 NOSIG;EQDQ01+000000PRSWM2
0186474905999992000080309004+42900+143170FM-15+0084RJCT V0201601N003112200019N0112651N1+02701+02101999999ADDGA1021+009009999GA2021+045009999GF104991999999999999999999MA1101291999999MW1001REMMET076RJCT 030900Z 16006KT 9999 FEW030 SCT150 27/21 Q1013 RMK 2CU030 3AC150 A2993;EQDQ01+000000PRSWM2
0186474905999992000080310004+42900+143170FM-15+0084RJCT V0200801N003112200019N0112651N1+02501+02201999999ADDGA1021+009009999GA2021+045009999GF104991999999999999999999MA1101391999999MW1001REMMET076RJCT 031000Z 08006KT 9999 FEW030 SCT150 25/22 Q1014 RMK 1CU030 3AC150 A2996;EQDQ01+000000PRSWM2
0186474905999992000080311004+42900+143170FM-15+0084RJCT V0200901N002610450019N0112651N1+02401+02101999999ADDGA1021+009009999GA2071+045009999GF107991999999999999999999MA1101491999999MW1001REMMET076RJCT 031100Z 09005KT 9999 SCT030 BKN150 24/21 Q1015 RMK 4CU030 6AC150 A2998;EQDQ01+000000PRSWM2
0208474905999992000080322004+42900+143170FM-15+0084RJCT V0201501N001510024019N0025001N1+02101+02101999999ADDGA1021+000909999GA2081+002409999GF108991999999999999999999MA1101691999999MW1801REMMET082RJCT 032200Z 15003KT 2500 -SHRA SCT003 OVC008 21/21 Q1017 RMK 3ST003 8ST008 A3004;EQDQ01+000003PRSWM1Q02    003PRSWM1
0302474905999992000080323004+42900+143170FM-15+0084RJCT V0200401N001510009019N0020001N1+02001+02001999999ADDGA1071+000909999GA2081+002409999GF108991999999999999999999MA1101691999999MW1101MW2801REMMET170RJCT 032300Z 04003KT 2000 -SHRA BR BKN003 OVC008 20/20 Q1017 RMK 5ST003 8ST008 A3005 FCST 2308 BECMG 0203 NSW TEMPO 0306 SCT008ST BKN010ST TEMPO 0608 4000 -SHRA BKN008ST;EQDQ01+000003PRSWM1Q02    003PRSWM1
0332474905999992000080400004+42900+143170FM-15+0084RJCT V0200401N001010015019N0040001N1+02001+02001999999ADDGA1021+000909999GA2071+001509999GA3081+003009999GF108991999999999999999999MA1101801999999MW1801REMMET190RJCT 040000Z 04002KT 4000 -SHRA FEW003 BKN005 OVC010 20/20 Q1018 RMK 1ST003 5ST005 8ST010 A3006 FCST 0009 BECMG 0102 NSW TEMPO 0206 SCT008ST BKN012ST TEMPO 0609 4000 -SHRA BKN008ST OVC012ST;EQDQ01+000003PRSWM1Q02    003PRSWM1
0208474905999992000080400194+42900+143170FM-16+0084RJCT V0200401N001510024019N0112651N1+02001+02001999999ADDGA1021+001509999GA2081+002409999GF108991999999999999999999MA1101801999999MW1801REMMET082RJCT 040019Z 04003KT 9999 -SHRA SCT005 OVC008 20/20 Q1018 RMK 4ST005 8ST008 A3006;EQDQ01+000003PRSWM1Q02    003PRSWM1
0208474905999992000080400334+42900+143170FM-16+0084RJCT V0200401N001010030019N0090001N1+02001+01901999999ADDGA1021+001809999GA2081+003009999GF108991999999999999999999MA1101801999999MW1801REMMET082RJCT 040033Z 04002KT 9000 -SHRA SCT006 OVC010 20/19 Q1018 RMK 4ST006 8ST010 A3006;EQDQ01+000003PRSWM1Q02    003PRSWM1
0208474905999992000080401004+42900+143170FM-15+0084RJCT V0200401N001510018019N0080001N1+02001+02001999999ADDGA1071+001809999GA2081+003609999GF108991999999999999999999MA1101801999999MW1801REMMET082RJCT 040100Z 04003KT 8000 -SHRA BKN006 OVC012 20/20 Q1018 RMK 6ST006 8ST012 A3007;EQDQ01+000003PRSWM1Q02    003PRSWM1
0236474905999992000080402004+42900+143170FM-15+0084RJCT V0201401N001510012019N0060001N1+02001+02001999999ADDGA1021+000909999GA2071+001209999GA3081+003609999GF108991999999999999999999MA1101801999999MW1511REMMET094RJCT 040200Z 14003KT 6000 -DZ FEW003 BKN004 OVC012 20/20 Q1018 RMK 1ST003 6ST004 8ST012 A3006;EQDQ01+000003PRSWM1Q02    003PRSWM1
0262474905999992000080403004+42900+143170FM-15+0084RJCT V0201501N001510012019N0030001N1+02001+02001999999ADDGA1021+000909999GA2071+001209999GA3081+003609999GF108991999999999999999999MA1101801999999MW1511REMMET120RJCT 040300Z 15003KT 3000 -DZ FEW003 BKN004 OVC012 20/20 Q1018 RMK 2ST003 6ST004 8ST012 A3007 FCST 0312 TEMPO 0406 5000;EQDQ01+000003PRSWM1Q02    003PRSWM1
0245474905999992000080404004+42900+143170FM-15+0084RJCT V0201101N001510018019N0035001N1+02101+02001999999ADDGA1021+001209999GA2071+001809999GA3081+003009999GF108991999999999999999999MA1101801999999MW1101MW2511REMMET097RJCT 040400Z 11003KT 3500 -DZ BR SCT004 BKN006 OVC010 21/20 Q1018 RMK 4ST004 6ST006 8ST010 A3006;EQDQ01+000003PRSWM1Q02    003PRSWM1
0261474905999992000080406004+42900+143170FM-15+0084RJCT V0201501N002110018019N0030001N1+02001+02001999999ADDGA1021+000909999GA2071+001809999GA3081+003009999GF108991999999999999999999MA1101691999999MW1101MW2511REMMET113RJCT 040600Z 15004KT 3000 -DZ BR SCT003 BKN006 OVC010 20/20 Q1017 RMK 3ST003 6ST006 8ST010 A3006 FCST 0615 NOSIG;EQDQ01+000003PRSWM1Q02    003PRSWM1
0261474905999992000080408004+42900+143170FM-15+0084RJCT V0201901N002110009019N0016001N1+02001+01901999999ADDGA1071+000909999GA2071+001509999GA3081+002409999GF108991999999999999999999MA1101801999999MW1101MW2511REMMET113RJCT 040800Z 19004KT 1600 -DZ BR BKN003 BKN005 OVC008 20/19 Q1018 RMK 5ST003 6ST005 8ST008 A3006 FCST 0817 NOSIG;EQDQ01+000003PRSWM1Q02    003PRSWM1
0271474905999992000080423004+42900+143170FM-15+0084RJCT V0201101N002610018019N0035001N1+01801+01801999999ADDGA1021+000909999GA2071+001809999GA3071+002409999GF107991999999999999999999MA1101901999999MW1101MW2511REMMET123RJCT 042300Z 11005KT 3500 -DZ BR SCT003 BKN006 BKN008 18/18 Q1019 RMK 3ST003 6ST006 7ST008 A3009 FCST 2308 TEMPO 0205 5000;EQDQ01+000003PRSWM1Q02    003PRSWM1
0236474905999992000080501004+42900+143170FM-15+0084RJCT V0201101N002110018019N0080001N1+01901+01801999999ADDGA1021+001509999GA2071+001809999GA3071+002409999GF107991999999999999999999MA1101901999999MW1511REMMET094RJCT 050100Z 11004KT 8000 -DZ FEW005 BKN006 BKN008 19/18 Q1019 RMK 2ST005 6ST006 7ST008 A3009;EQDQ01+000003PRSWM1Q02    003PRSWM1
0216474905999992000080502004+42900+143170FM-15+0084RJCT V0201201N002110021019N0112651N1+01901+01801999999ADDGA1021+001809999GA2071+002109999GA3071+003009999GF107991999999999999999999MA1101801999999MW1001REMMET090RJCT 050200Z 12004KT 9999 FEW006 BKN007 BKN010 19/18 Q1018 RMK 2ST006 6ST007 7ST010 A3008;EQDQ01+000000PRSWM2
0265474905999992000080503004+42900+143170FM-15+0084RJCT V0201101N002110021019N0112651N1+01901+01801999999ADDGA1021+001809999GA2071+002109999GA3071+003009999GF107991999999999999999999MA1101801999999MW1511REMMET123RJCT 050300Z 11004KT 9999 -DZ FEW006 BKN007 BKN010 19/18 Q1018 RMK 2ST006 6ST007 7ST010 A3007 FCST 0312 TEMPO 0309 3500 BR;EQDQ01+000003PRSWM1Q02    003PRSWM1
0255474905999992000080523004+42900+143170FM-15+0084RJCT V0201501N001010030019N0112651N1+01901+01801999999ADDGA1021+001209999GA2071+003009999GA3071+009009999GF107991999999999999999999MA1101491999999MW1001REMMET129RJCT 052300Z 15002KT 9999 FEW004 BKN010 BKN030 19/18 Q1015 RMK 1ST004 5ST010 5SC030 A2999 FCST 2308 BECMG 0405 SCT020CU BKN040CU;EQDQ01+000000PRSWM2
0255474905999992000080600004+42900+143170FM-15+0084RJCT V0201301N000510030019N0112651N1+02001+01801999999ADDGA1021+001809999GA2071+003009999GA3071+009009999GF107991999999999999999999MA1101491999999MW1001REMMET129RJCT 060000Z 13001KT 9999 FEW006 BKN010 BKN030 20/18 Q1015 RMK 1ST006 6ST010 7SC030 A2999 FCST 0009 BECMG 0405 SCT020CU BKN035CU;EQDQ01+000000PRSWM2
0216474905999992000080601004+42900+143170FM-15+0084RJCT V0209999C000010036019N0112651N1+02101+01801999999ADDGA1021+001809999GA2071+003609999GA3071+010509999GF107991999999999999999999MA1101491999999MW1001REMMET090RJCT 060100Z 00000KT 9999 FEW006 BKN012 BKN035 21/18 Q1015 RMK 1ST006 5ST012 6CU035 A2999;EQDQ01+000000PRSWM2
0246474905999992000080623004+42900+143170FM-15+0084RJCT V02099999999990030019N0112651N1+02101+01901999999ADDGA1021+001809999GA2021+002409999GA3071+003009999GF107991999999999999999999MA1101391999999MW1001REMMET120RJCT 062300Z VRB02KT 9999 SCT006 SCT008 BKN010 21/19 Q1014 RMK 3ST006 4ST008 7ST010 A2996 FCST 2308 TEMPO 0206 SCT020CU;EQDQ01+000000PRSWM2
0216474905999992000080701004+42900+143170FM-15+0084RJCT V02099999999990300019N0112651N1+02401+02001999999ADDGA1021+003009999GA2021+006009999GA3071+030009999GF107991999999999999999999MA1101391999999MW1001REMMET090RJCT 070100Z VRB01KT 9999 SCT010 SCT020 BKN100 24/20 Q1014 RMK 3ST010 4CU020 7AC100 A2996;EQDQ01+000000PRSWM2
0186474905999992000080702004+42900+143170FM-15+0084RJCT V02099999999990450019N0112651N1+02601+02101999999ADDGA1021+006009999GA2071+045009999GF107991999999999999999999MA1101391999999MW1001REMMET076RJCT 070200Z VRB03KT 9999 SCT020 BKN150 26/21 Q1014 RMK 3CU020 7AC150 A2995;EQDQ01+000000PRSWM2
0236474905999992000080703004+42900+143170FM-15+0084RJCT V0201401N002610450019N0112651N1+02701+02101999999ADDGA1021+006009999GA2071+045009999GF107991999999999999999999MA1101291999999MW1001REMMET126RJCT 070300Z 14005KT 9999 SCT020 BKN150 27/21 Q1013 RMK 4CU020 7AC150 A2993 FCST 0312 TEMPO 0406 BKN020CU TEMPO 0612 BKN015SC;EQDQ01+000000PRSWM2
0216474905999992000080704004+42900+143170FM-15+0084RJCT V0201501N001510450019N0112651N1+02701+02101999999ADDGA1021+004509999GA2021+006009999GA3071+045009999GF107991999999999999999999MA1101291999999MW1001REMMET090RJCT 070400Z 15003KT 9999 FEW015 SCT020 BKN150 27/21 Q1013 RMK 1ST015 4CU020 7AC150 A2992;EQDQ01+000000PRSWM2
0216474905999992000080705004+42900+143170FM-15+0084RJCT V0201001N001010060019N0112651N1+02701+02101999999ADDGA1021+004509999GA2071+006009999GA3071+045009999GF107991999999999999999999MA1101291999999MW1001REMMET090RJCT 070500Z 10002KT 9999 FEW015 BKN020 BKN150 27/21 Q1013 RMK 1ST015 5CU020 7AC150 A2991;EQDQ01+000000PRSWM2
0205474905999992000080722004+42900+143170FM-15+0084RJCT V0202901N001510009019N0025001N1+02101+02101999999ADDGA1071+000909999GA2071+009009999GF107991999999999999999999MA1101291999999MW1101REMMET079RJCT 072200Z 29003KT 2500 BR BKN003 BKN030 21/21 Q1013 RMK 6ST003 5CU030 A2992;EQDQ01+000003PRSWM1Q02    003PRSWM1
0205474905999992000080722184+42900+143170FM-16+0084RJCT V0202801N001010660019N0035001N1+02201+02101999999ADDGA1021+001209999GA2071+066009999GF107991999999999999999999MA1101291999999MW1101REMMET079RJCT 072218Z 28002KT 3500 BR SCT004 BKN220 22/21 Q1013 RMK 4ST004 6CI220 A2993;EQDQ01+000003PRSWM1Q02    003PRSWM1
0205474905999992000080722304+42900+143170FM-15+0084RJCT V0202701N000510075019N0040001N1+02201+02101999999ADDGA1021+001209999GA2071+007509999GF107991999999999999999999MA1101291999999MW1101REMMET079RJCT 072230Z 27001KT 4000 BR FEW004 BKN025 22/21 Q1013 RMK 2ST004 6SC025 A2993;EQDQ01+000003PRSWM1Q02    003PRSWM1
0185474905999992000080723004+42900+143170FM-15+0084RJCT V0200701N001010090019N0050001N1+02401+02101999999ADDGA1021+001809999GA2071+009009999GF107991999999999999999999MA1101291999999MW1101REMMET059RJCT 072300Z COR 07002KT 5000 BR FEW006 BKN030 24/21 Q1013;EQDQ01+000003PRSWM1Q02    003PRSWM1
0236474905999992000080800004+42900+143170FM-15+0084RJCT V0200501N001510075019N0080001N1+02601+02101999999ADDGA1021+002409999GA2071+007509999GF107991999999999999999999MA1101291999999MW1001REMMET126RJCT 080000Z 05003KT 8000 FEW008 BKN025 26/21 Q1013 RMK 1ST008 6CU025 A2993 FCST 0009 TEMPO 0205 SCT025CU BECMG 0506 SCT030CU;EQDQ01+000000PRSWM2
0216474905999992000080801004+42900+143170FM-15+0084RJCT V0200201N001510075019N0112651N1+02701+02101999999ADDGA1021+002409999GA2071+007509999GA3071+024009999GF107991999999999999999999MA1101291999999MW1001REMMET090RJCT 080100Z 02003KT 9999 FEW008 BKN025 BKN080 27/21 Q1013 RMK 1ST008 5CU025 6AC080 A2992;EQDQ01+000000PRSWM2
0216474905999992000080802004+42900+143170FM-15+0084RJCT V0200401N003110075019N0112651N1+02601+02101999999ADDGA1021+003009999GA2071+007509999GA3071+027009999GF107991999999999999999999MA1101291999999MW1001REMMET090RJCT 080200Z 04006KT 9999 FEW010 BKN025 BKN090 26/21 Q1013 RMK 1ST010 5CU025 5AC090 A2991;EQDQ01+000000PRSWM2
0243474905999992000080803004+42900+143170FM-15+0084RJCT V0200401N003610090019N0112651N1+02801+02001999999ADDGA1021+004509999GA2071+009009999GA3071+030009999GF107991999999999999999999MA1101191999999MW1001REMMET117RJCT 080300Z 04007KT 9999 FEW015 BKN030 BKN100 28/20 Q1012 RMK 1ST015 5CU030 7AC100 A2990 FCST 0312 TEMPO 0308 -SHRA;EQDQ01+000000PRSWM2
0236474905999992000080804004+42900+143170FM-15+0084RJCT V0200701N002610090019N0112651N1+02701+02101999999ADDGA1021+006009099GA2071+009009999GA3071+030009999GF107991999999999999999999MA1101191999999MW1001REMMET110RJCT 080400Z 07005KT 9999 FEW020CB BKN030 BKN100 27/21 Q1012 RMK 1CB020 5CU030 7AC100 A2990 CB ABT 20KM MOV N;EQDQ01+000000PRSWM2
0236474905999992000080805004+42900+143170FM-15+0084RJCT V0200501N003610090019N0112651N1+02701+02001999999ADDGA1021+006009099GA2071+009009999GA3071+030009999GF107991999999999999999999MA1101191999999MW1001REMMET110RJCT 080500Z 05007KT 9999 FEW020CB BKN030 BKN100 27/20 Q1012 RMK 2CB020 5CU030 7AC100 A2991 CB 10KM W-N MOV E;EQDQ01+000000PRSWM2
0274474905999992000080806004+42900+143170FM-15+0084RJCT V0200501N004110300019N0112651N1+02601+02001999999ADDGA1021+006009099GA2021+009009999GA3071+030009999GF107991999999999999999999MA1101291999999MW1001REMMET148RJCT 080600Z 05008KT 9999 FEW020CB SCT030 BKN100 26/20 Q1013 RMK 1CB020 4CU030 5AC100 A2992 CB 20KM NW MOV N FCST 0615 BECMG 0809 SCT030CU SCT100AC;EQDQ01+000000PRSWM2
0235474905999992000080807004+42900+143170FM-15+0084RJCT V0200601N004110300019N0112651N1+02501+01901999999ADDGA1021+006009099GA2021+009009999GA3071+030009999GF107991999999999999999999MA1101291999999MW1001REMMET109RJCT 080700Z 06008KT 9999 FEW020CB SCT030 BKN100 25/19 Q1013 RMK 1CB020 4CU030 7AC100 A2993 CB 20KM NW MOV E;EQDQ01+000000PRSWM2
0273474905999992000080808004+42900+143170FM-15+0084RJCT V0200701N002110090019N0112651N1+02401+02001999999ADDGA1021+006009099GA2071+009009999GA3071+030009999GF107991999999999999999999MA1101291999999MW1001REMMET147RJCT 080800Z 07004KT 9999 FEW020CB BKN030 BKN100 24/20 Q1013 RMK 1CB020 5CU030 7AC100 A2994 CB 20KM NW STNR FCST 0817 BECMG 0910 SCT030CU SCT100AC;EQDQ01+000000PRSWM2
0186474905999992000080822004+42900+143170FM-15+0084RJCT V0200401N001510066019N0112651N1+02101+01901999999ADDGA1021+003009999GA2071+006609999GF107991999999999999999999MA1101591999999MW1001REMMET076RJCT 082200Z 04003KT 9999 FEW010 BKN022 21/19 Q1016 RMK 2ST010 7SC022 A3001;EQDQ01+000000PRSWM2
0216474905999992000080823004+42900+143170FM-15+0084RJCT V0200901N001010060019N0112651N1+02201+01801999999ADDGA1021+003009999GA2071+006009999GF107991999999999999999999MA1101591999999MW1001REMMET106RJCT 082300Z 09002KT 9999 FEW010 BKN020 22/18 Q1016 RMK 2ST010 6SC020 A3002 FCST 2308 BECMG 0102 SCT020CU;EQDQ01+000000PRSWM2
0266474905999992000080900004+42900+143170FM-15+0084RJCT V0200901N001510045019N0112651N1+02201+01901999999ADDGA1021+003009999GA2071+004509999GA3071+006909999GF107991999999999999999999MA1101591999999MW1001REMMET140RJCT 090000Z 09003KT 9999 FEW010 BKN015 BKN023 22/19 Q1016 RMK 2ST010 5ST015 7SC023 A3003 FCST 0009 BECMG 0203 SCT020CU TEMPO 0309 BKN020CU;EQDQ01+000000PRSWM2
0216474905999992000080901004+42900+143170FM-15+0084RJCT V0201101N002110045019N0112651N1+02201+01901999999ADDGA1021+002409999GA2071+004509999GA3071+006909999GF107991999999999999999999MA1101591999999MW1001REMMET090RJCT 090100Z 11004KT 9999 FEW008 BKN015 BKN023 22/19 Q1016 RMK 2ST008 5ST015 6SC023 A3002;EQDQ01+000000PRSWM2
0186474905999992000080902004+42900+143170FM-15+0084RJCT V0201501N005110030019N0080001N1+02301+02001999999ADDGA1021+002109999GA2071+003009999GF107991999999999999999999MA1101591999999MW1001REMMET076RJCT 090200Z 15010KT 8000 FEW007 BKN010 23/20 Q1016 RMK 2ST007 6ST010 A3001;EQDQ01+000000PRSWM2
0186474905999992000080903164+42900+143170FM-16+0084RJCT V0201501N004610030019N0112651N1+02301+02001999999ADDGA1021+001509999GA2071+003009999GF107991999999999999999999MA1101491999999MW1001REMMET076RJCT 090316Z 15009KT 9999 FEW005 BKN010 23/20 Q1015 RMK 2ST005 6ST010 A2999;EQDQ01+000000PRSWM2
0186474905999992000080904004+42900+143170FM-15+0084RJCT V0201501N004110045019N0112651N1+02301+01901999999ADDGA1021+002109999GA2071+004509999GF107991999999999999999999MA1101491999999MW1001REMMET076RJCT 090400Z 15008KT 9999 FEW007 BKN015 23/19 Q1015 RMK 2ST007 6ST015 A2998;EQDQ01+000000PRSWM2
0186474905999992000080905004+42900+143170FM-15+0084RJCT V0201401N004610036019N0112651N1+02201+01901999999ADDGA1021+002109999GA2071+003609999GF107991999999999999999999MA1101391999999MW1001REMMET076RJCT 090500Z 14009KT 9999 FEW007 BKN012 22/19 Q1014 RMK 2ST007 7ST012 A2996;EQDQ01+000000PRSWM2
0245474905999992000080906004+42900+143170FM-15+0084RJCT V0201601N004610045019N0112651N1+02201+01801999999ADDGA1021+002109999GA2071+004509999GF107991999999999999999999MA1101391999999MW1001REMMET135RJCT 090600Z 16009KT 9999 FEW007 BKN015 22/18 Q1014 RMK 2ST007 7ST015 A2995 FCST 0615 TEMPO 0710 BKN009ST TEMPO 1015 4000 -DZ BKN006ST;EQDQ01+000000PRSWM2
0186474905999992000080907004+42900+143170FM-15+0084RJCT V0201001N003110048019N0112651N1+02101+01801999999ADDGA1021+002109999GA2071+004809999GF107991999999999999999999MA1101291999999MW1001REMMET076RJCT 090700Z 10006KT 9999 FEW007 BKN016 21/18 Q1013 RMK 1ST007 7ST016 A2994;EQDQ01+000000PRSWM2
0246474905999992000080908004+42900+143170FM-15+0084RJCT V0201201N003110039019N0112651N1+02101+01801999999ADDGA1021+002109999GA2071+003909999GA3081+006009999GF108991999999999999999999MA1101291999999MW1001REMMET120RJCT 090800Z 12006KT 9999 FEW007 BKN013 OVC020 21/18 Q1013 RMK 1ST007 6ST013 8SC020 A2993 FCST 0817 BECMG 0910 BKN008ST;EQDQ01+000000PRSWM2
0205474905999992000080922004+42900+143170FM-15+0084RJCT V02099999999990012019N0030001N1+01901+01801999999ADDGA1021+000909999GA2081+001209999GF108991999999999999999999MA1101081999999MW1101REMMET079RJCT 092200Z VRB02KT 3000 BR SCT003 OVC004 19/18 Q1011 RMK 3ST003 8ST004 A2987;EQDQ01+000003PRSWM1Q02    003PRSWM1
0266474905999992000080923004+42900+143170FM-15+0084RJCT V02099999999990021019N0080001N1+02001+01801999999ADDGA1021+001509999GA2071+002109999GA3071+006009999GF107991999999999999999999MA1101081999999MW1001REMMET140RJCT 092300Z VRB02KT 8000 SCT005 BKN007 BKN020 20/18 Q1011 RMK 3ST005 6ST007 7SC020 A2986 FCST 2308 BECMG 2300 BKN012ST BECMG 0001 SCT020CU;EQDQ01+000000PRSWM2
0216474905999992000080923204+42900+143170FM-15+0084RJCT V02099999999990030019N0112651N1+02001+01801999999ADDGA1021+001809999GA2021+002409999GA3071+003009999GF107991999999999999999999MA1101081999999MW1001REMMET090RJCT 092320Z VRB02KT 9999 SCT006 SCT008 BKN010 20/18 Q1011 RMK 3ST006 4ST008 6ST010 A2985;EQDQ01+000000PRSWM2
0216474905999992000081000004+42900+143170FM-15+0084RJCT V02099999999990060019N0112651N1+02201+01901999999ADDGA1021+003009999GA2071+006009999GF107991999999999999999999MA1101021999999MW1001REMMET106RJCT 100000Z VRB02KT 9999 FEW010 BKN020 22/19 Q1010 RMK 1ST010 5SC020 A2984 FCST 0009 BECMG 0001 SCT020CU;EQDQ01+000000PRSWM2
0186474905999992000081001004+42900+143170FM-15+0084RJCT V02099999999992200019N0112651N1+02501+01901999999ADDGA1021+006009999GA2021+060009999GF104991999999999999999999MA1100911999999MW1001REMMET076RJCT 100100Z VRB03KT 9999 FEW020 SCT200 25/19 Q1009 RMK 1CU020 3CI200 A2981;EQDQ01+000000PRSWM2
0186474905999992000081002004+42900+143170FM-15+0084RJCT V02099999999992200019N0112651N1+02601+02001999999ADDGA1021+006009999GA2021+060009999GF104991999999999999999999MA1100911999999MW1001REMMET076RJCT 100200Z VRB02KT 9999 FEW020 SCT200 26/20 Q1009 RMK 1CU020 3CI200 A2979;EQDQ01+000000PRSWM2
0202474905999992000081003004+42900+143170FM-15+0084RJCT V02099999999990600019N0112651N1+02701+01901999999ADDGA1021+006009999GA2071+060009999GF107991999999999999999999MA1100811999999MW1001REMMET092RJCT 100300Z VRB03KT 9999 FEW020 BKN200 27/19 Q1008 RMK 1CU020 5CI200 A2977 FCST 0312 NOSIG;EQDQ01+000000PRSWM2
0186474905999992000081004004+42900+143170FM-15+0084RJCT V0200701N002110600019N0112651N1+02701+02001999999ADDGA1021+006009999GA2071+060009999GF107991999999999999999999MA1100711999999MW1001REMMET076RJCT 100400Z 07004KT 9999 FEW020 BKN200 27/20 Q1007 RMK 2CU020 6CI200 A2975;EQDQ01+000000PRSWM2
0202474905999992000081006004+42900+143170FM-15+0084RJCT V0201101N003110600019N0112651N1+02801+02001999999ADDGA1021+006009999GA2071+060009999GF107991999999999999999999MA1100611999999MW1001REMMET092RJCT 100600Z 11006KT 9999 FEW020 BKN200 28/20 Q1006 RMK 1CU020 5CI200 A2971 FCST 0615 NOSIG;EQDQ01+000000PRSWM2
0186474905999992000081006154+42900+143170FM-16+0084RJCT V0201201N002110300019N0112651N1+02701+02101999999ADDGA1021+006009999GA2071+030009999GF107991999999999999999999MA1100511999999MW1001REMMET076RJCT 100615Z 12004KT 9999 FEW020 BKN100 27/21 Q1005 RMK 1CU020 5AC100 A2970;EQDQ01+000000PRSWM2
0231474905999992000081008004+42900+143170FM-15+0084RJCT V0201001N002610030019N0112651N1+02601+02101999999ADDGA1071+003009999GA2021+007509999GA3071+063009999GF107991999999999999999999MA1100511999999MW1001REMMET105RJCT 100800Z 10005KT 9999 FEW025 BKN10 BKN210 26/21 Q1005 RMK 1CU025 5AC130 5CI210 A2970 FCST 0817 NOSIG;EQDQ01+000000PRSWM2
0215474905999992000081022004+42900+143170FM-15+0084RJCT V0200501N001010006019N0020001N1+01901+01901999999ADDGA1071+000609999GA2081+003009999GF108991999999999999999999MA1100001999999MW1101MW2511REMMET083RJCT 102200Z 05002KT 2000 -DZ BR BKN002 OVC010 19/19 Q1000 RMK 6ST002 8ST010 A2953;EQDQ01+000003PRSWM1Q02    003PRSWM1
0308474905999992000081023004+42900+143170FM-15+0084RJCT V0209999C000010015019N0020001N1+02001+01901999999ADDGA1021+000909999GA2071+001509999GA3071+004509999GF107991999999999999999999MA1099901999999MW1101MW2511REMMET160RJCT 102300Z 00000KT 2000 -DZ BR SCT003 BKN005 BKN015 20/19 Q0999 RMK 3ST003 6ST005 7ST015 A2950 FCST 2308 BECMG 0102 BKN015ST BKN030CU BECMG 0305 NSW SCT040SC;EQDQ01+000003PRSWM1Q02    003PRSWM1
0315474905999992000081100004+42900+143170FM-15+0084RJCT V0209999C000010300019N0050001N1+02001+02001999999ADDGA1021+003009999GA2021+012009999GA3081+030009999GF108991999999999999999999MA1099701999999MW1101MW2801REMMET167RJCT 110000Z 00000KT 5000 -SHRA BR FEW010 SCT040 OVC100 20/20 Q0997 RMK 2ST010 4CU040 8AC100 A2946 FCST 0009 TEMPO 0003 4000 BKN008ST OVC020SC BECMG 0305 NSW SCT040SC;EQDQ01+000003PRSWM1Q02    003PRSWM1
0257474905999992000081100134+42900+143170FM-16+0084RJCT V0203501N000510120019N0040001N1+02101+02001999999ADDGA1021+001509999GA2021+003009999GA3071+012009999GF107991999999999999999999MA1099701999999MW1801REMMET099RJCT 110013Z 35001KT 4000 -SHRA BR FEW005 SCT010 BKN040 21/20 Q0997 RMK 1ST005 3ST010 5CU040 A2945;EQDQ01+000100PRSWM3Q02+000003PRSWM1Q03    003PRSWM1
0247474905999992000081101004+42900+143170FM-15+0084RJCT V0203601N000510030019N0030001N1+02001+02001999999ADDGA1021+001509999GA2071+003009999GA3071+009009999GF107991999999999999999999MA1099591999999MW1101MW2801REMMET099RJCT 110100Z 36001KT 3000 -SHRA BR SCT005 BKN010 BKN030 20/20 Q0996 RMK 3ST005 5ST010 6CU030 A2942;EQDQ01+000003PRSWM1Q02    003PRSWM1
0246474905999992000081103004+42900+143170FM-15+0084RJCT V0203301N001510300019N0060001N1+02101+02001999999ADDGA1021+003009999GA2021+009009999GA3071+030009999GF107991999999999999999999MA1099491999999MW1001REMMET120RJCT 110300Z 33003KT 6000 SCT010 SCT030 BKN100 21/20 Q0995 RMK 3ST010 4CU030 7AC100 A2940 FCST 0312 BECMG 0304 SCT040SC;EQDQ01+000000PRSWM2
0186474905999992000081104004+42900+143170FM-15+0084RJCT V0202001N001012200019N0090001N1+02401+02001999999ADDGA1021+003609999GA2021+007509999GF104991999999999999999999MA1099491999999MW1001REMMET076RJCT 110400Z 20002KT 9000 SCT012 SCT025 24/20 Q0995 RMK 3ST012 4CU025 A2939;EQDQ01+000000PRSWM2
0156474905999992000081105004+42900+143170FM-15+0084RJCT V0202301N002112200019N0112651N1+02701+02201999999ADDGA1021+004509999GF102991999999999999999999MA1099391999999MW1001REMMET062RJCT 110500Z 23004KT 9999 FEW015 27/22 Q0994 RMK 1ST015 A2937;EQDQ01+000000PRSWM2
0183474905999992000081106004+42900+143170FM-15+0084RJCT V0202801N006712200019N0112651N1+02901+01901999999ADDGA1021+007509999GF102991999999999999999999MA1099391999999MW1001OC101181REMMET081RJCT 110600Z 28013G23KT 9999 FEW025 29/19 Q0994 RMK 2CU025 A2938 FCST 0615 NOSIG;EQDQ01+000000PRSWM2
0156474905999992000081107004+42900+143170FM-15+0084RJCT V0203101N005112200019N0112651N1+02701+01901999999ADDGA1021+007509999GF104991999999999999999999MA1099491999999MW1001REMMET062RJCT 110700Z 31010KT 9999 SCT025 27/19 Q0995 RMK 3CU025 A2940;EQDQ01+000000PRSWM2
0223474905999992000081108004+42900+143170FM-15+0084RJCT V0203001N007210075019N0112651N1+02501+01801999999ADDGA1071+007509999GF107991999999999999999999MA1099591999999MW1801OC101231REMMET105RJCT 110800Z 30014G24KT 9999 -SHRA BKN025 25/18 Q0996 RMK 6CU025 A2943 FCST 0817 BECMG 0809 NSW SCT025CU;EQDQ01+000003PRSWM1Q02    003PRSWM1
0156474905999992000081200004+42900+143170FM-15+0084RJCT V0203101N005712200019N0112651N1+02301+01301999999ADDGA1021+007509999GF102991999999999999999999MA1100611999999MW1001REMMET062RJCT 120000Z 31011KT 9999 FEW025 23/13 Q1006 RMK 1CU025 A2970;EQDQ01+000000PRSWM2
0156474905999992000081201004+42900+143170FM-15+0084RJCT V0203101N005712200019N0112651N1+02501+01301999999ADDGA1021+007509999GF102991999999999999999999MA1100611999999MW1001REMMET062RJCT 120100Z 31011KT 9999 FEW025 25/13 Q1006 RMK 2CU025 A2972;EQDQ01+000000PRSWM2
0156474905999992000081223004+42900+143170FM-15+0084RJCT V02099999999992200019N0112651N1+01901+01501999999ADDGA1021+012009999GF102991999999999999999999MA1101191999999MW1001REMMET062RJCT 122300Z VRB01KT 9999 FEW040 19/15 Q1012 RMK 1CU040 A2989;EQDQ01+000000PRSWM2
0156474905999992000081300004+42900+143170FM-15+0084RJCT V0202101N001012200019N0112651N1+02201+01601999999ADDGA1021+012009999GF102991999999999999999999MA1101081999999MW1001REMMET062RJCT 130000Z 21002KT 9999 FEW040 22/16 Q1011 RMK 1CU040 A2987;EQDQ01+000000PRSWM2
0156474905999992000081301004+42900+143170FM-15+0084RJCT V02099999999992200019N0112651N1+02401+01701999999ADDGA1021+012009999GF102991999999999999999999MA1101081999999MW1001REMMET062RJCT 130100Z VRB01KT 9999 FEW040 24/17 Q1011 RMK 1CU040 A2986;EQDQ01+000000PRSWM2
0186474905999992000081322004+42900+143170FM-15+0084RJCT V0201601N002112200019N0060001N1+01801+01601999999ADDGA1021+002409999GA2021+063009999GF104991999999999999999999MA1100911999999MW1001REMMET076RJCT 132200Z 16004KT 6000 FEW008 SCT210 18/16 Q1009 RMK 1ST008 3CI210 A2982;EQDQ01+000000PRSWM2
0202474905999992000081323004+42900+143170FM-15+0084RJCT V0201301N002112200019N0070001N1+01901+01701999999ADDGA1021+002409999GA2021+063009999GF104991999999999999999999MA1101021999999MW1001REMMET092RJCT 132300Z 13004KT 7000 FEW008 SCT210 19/17 Q1010 RMK 2ST008 3CI210 A2983 FCST 2308 NOSIG;EQDQ01+000000PRSWM2
0186474905999992000081401004+42900+143170FM-15+0084RJCT V0201001N001510630019N0112651N1+02501+01901999999ADDGA1021+007509999GA2071+063009999GF107991999999999999999999MA1100911999999MW1001REMMET076RJCT 140100Z 10003KT 9999 FEW025 BKN210 25/19 Q1009 RMK 1CU025 5CI210 A2981;EQDQ01+000000PRSWM2
0202474905999992000081403004+42900+143170FM-15+0084RJCT V0201001N002612200019N0112651N1+02801+01901999999ADDGA1021+009009999GA2021+063009999GF104991999999999999999999MA1100811999999MW1001REMMET092RJCT 140300Z 10005KT 9999 FEW030 SCT210 28/19 Q1008 RMK 1CU030 4CI210 A2979 FCST 0312 NOSIG;EQDQ01+000000PRSWM2
0186474905999992000081405004+42900+143170FM-15+0084RJCT V0201301N004110630019N0112651N1+02801+01201999999ADDGA1021+009009999GA2071+063009999GF107991999999999999999999MA1100811999999MW1001REMMET076RJCT 140500Z 13008KT 9999 FEW030 BKN210 28/12 Q1008 RMK 1CU030 5CI210 A2978;EQDQ01+000000PRSWM2
0202474905999992000081408004+42900+143170FM-15+0084RJCT V0201101N002110630019N0112651N1+02401+01501999999ADDGA1021+012009999GA2071+063009999GF107991999999999999999999MA1100811999999MW1001REMMET092RJCT 140800Z 11004KT 9999 FEW040 BKN210 24/15 Q1008 RMK 1CU040 6CI210 A2978 FCST 0817 NOSIG;EQDQ01+000000PRSWM2
0243474905999992000081500004+42900+143170FM-15+0084RJCT V02099999999990075019N0070001N1+01901+01701999999ADDGA1021+003009999GA2071+007509999GA3071+030009999GF107991999999999999999999MA1100911999999MW1001REMMET117RJCT 150000Z VRB01KT 7000 FEW010 BKN025 BKN100 19/17 Q1009 RMK 2ST010 5SC025 7AC100 A2981 FCST 0009 TEMPO 0408 -SHRA;EQDQ01+000000PRSWM2
0216474905999992000081502004+42900+143170FM-15+0084RJCT V0200801N001010075019N0112651N1+02201+01801999999ADDGA1021+003009999GA2071+007509999GA3071+030009999GF107991999999999999999999MA1100911999999MW1001REMMET090RJCT 150200Z 08002KT 9999 FEW010 BKN025 BKN100 22/18 Q1009 RMK 1ST010 5SC025 7AC100 A2980;EQDQ01+000000PRSWM2
0232474905999992000081503004+42900+143170FM-15+0084RJCT V02099999999990075019N0112651N1+02401+01801999999ADDGA1021+003009999GA2071+007509999GA3071+030009999GF107991999999999999999999MA1100811999999MW1001REMMET106RJCT 150300Z VRB01KT 9999 FEW010 BKN025 BKN100 24/18 Q1008 RMK 1ST010 5CU025 7AC100 A2979 FCST 0312 NOSIG;EQDQ01+000000PRSWM2
0186474905999992000081504004+42900+143170FM-15+0084RJCT V0201301N001010075019N0112651N1+02501+01801999999ADDGA1021+006009999GA2071+007509999GF107991999999999999999999MA1100811999999MW1001REMMET076RJCT 150400Z 13002KT 9999 FEW020 BKN025 25/18 Q1008 RMK 1SC020 7CU025 A2978;EQDQ01+000000PRSWM2
0216474905999992000081505004+42900+143170FM-15+0084RJCT V0201001N002610075019N0112651N1+02401+01901999999ADDGA1021+004509999GA2021+005409999GA3081+007509999GF108991999999999999999999MA1100811999999MW1001REMMET090RJCT 150500Z 10005KT 9999 FEW015 SCT018 OVC025 24/19 Q1008 RMK 1ST015 4SC018 8SC025 A2978;EQDQ01+000000PRSWM2
0243474905999992000081506004+42900+143170FM-15+0084RJCT V0201201N002610054019N0112651N1+02201+01901999999ADDGA1021+004509999GA2071+005409999GA3081+007509999GF108991999999999999999999MA1100811999999MW1001REMMET117RJCT 150600Z 12005KT 9999 FEW015 BKN018 OVC025 22/19 Q1008 RMK 1ST015 5SC018 8SC025 A2978 FCST 0615 TEMPO 0609 -SHRA;EQDQ01+000000PRSWM2
0206474905999992000081506174+42900+143170FM-16+0084RJCT V0201301N002610033019N0112651N1+02201+01901999999ADDGA1071+003309999GA2081+004509999GF108991999999999999999999MA1100811999999MW1511REMMET080RJCT 150617Z 13005KT 9999 -DZ BKN011 OVC015 22/19 Q1008 RMK 5ST011 8ST015 A2978;EQDQ01+000003PRSWM1Q02    003PRSWM1
0236474905999992000081507004+42900+143170FM-15+0084RJCT V0201701N001510033019N0070001N1+02101+02001999999ADDGA1021+002709999GA2071+003309999GA3081+005409999GF108991999999999999999999MA1100811999999MW1511REMMET094RJCT 150700Z 17003KT 7000 -DZ SCT009 BKN011 OVC018 21/20 Q1008 RMK 3ST009 6ST011 8SC018 A2978;EQDQ01+000003PRSWM1Q02    003PRSWM1
0231474905999992000081508004+42900+143170FM-15+0084RJCT V0201301N001010009019N0015001N1+02101+02001999999ADDGA1071+000909999GA2081+002109999GF108991999999999999999999MA1100811999999MW1101MW2511REMMET099RJCT 150800Z 13002KT 1500 -DZ BR BKN003 OVC007 21/20 Q1008 RMK 6ST003 8ST007 A2979 FCST 0817 NOSIG;EQDQ01+000003PRSWM1Q02    003PRSWM1
0245474905999992000081523004+42900+143170FM-15+0084RJCT V0201101N000510009019N0070001N1+01901+01901999999ADDGA1021+000609999GA2071+000909999GF107991999999999999999999MA1101191999999MW1001REMMET135RJCT 152300Z 11001KT 7000 SCT002 BKN003 19/19 Q1012 RMK 4ST002 7ST003 A2990 FCST 2308 BECMG 0001 BKN012ST BKN020CU TEMPO 0306 SCT030CU;EQDQ01+000000PRSWM2
0206474905999992000081523274+42900+143170FM-16+0084RJCT V0201301N001010009019N0080001N1+02001+01901999999ADDGA1021+000609999GA2081+000909999GF108991999999999999999999MA1101191999999MW1511REMMET080RJCT 152327Z 13002KT 8000 -DZ SCT002 OVC003 20/19 Q1012 RMK 4ST002 8ST003 A2991;EQDQ01+000003PRSWM1Q02    003PRSWM1
0249474905999992000081600004+42900+143170FM-15+0084RJCT V0201101N001010012019N0090001N1+02001+01901999999ADDGA1021+000909999GA2081+001209999GF108991999999999999999999MA1101291999999MW1511REMMET123RJCT 160000Z 11002KT 9000 -DZ SCT003 OVC004 20/19 Q1013 RMK 3ST003 8ST004 A2991 FCST 0009 BECMG 0102 NSW BKN010ST BKN020CU;EQDQ01+000003PRSWM1Q02    003PRSWM1
0216474905999992000081600144+42900+143170FM-16+0084RJCT V02099999999990015019N0090001N1+02001+02001999999ADDGA1021+000909999GA2021+001209999GA3081+001509999GF108991999999999999999999MA1101291999999MW1001REMMET090RJCT 160014Z VRB01KT 9000 FEW003 SCT004 OVC005 20/20 Q1013 RMK 1ST003 3ST004 8ST005 A2991;EQDQ01+000000PRSWM2
0216474905999992000081600384+42900+143170FM-16+0084RJCT V0201701N001510024019N0090001N1+02101+02001999999ADDGA1021+001509999GA2021+001809999GA3071+002409999GF107991999999999999999999MA1101291999999MW1001REMMET090RJCT 160038Z 17003KT 9000 FEW005 SCT006 BKN008 21/20 Q1013 RMK 1ST005 4ST006 6ST008 A2992;EQDQ01+000000PRSWM2
0216474905999992000081601004+42900+143170FM-15+0084RJCT V0201601N002110030019N0112651N1+02101+02001999999ADDGA1021+001509999GA2021+002409999GA3071+003009999GF107991999999999999999999MA1101291999999MW1001REMMET090RJCT 160100Z 16004KT 9999 FEW005 SCT008 BKN010 21/20 Q1013 RMK 1ST005 3ST008 5ST010 A2992;EQDQ01+000000PRSWM2
0216474905999992000081602494+42900+143170FM-16+0084RJCT V0201701N002610105019N0112651N1+02301+02001999999ADDGA1021+003009999GA2021+004209999GA3071+010509999GF107991999999999999999999MA1101191999999MW1001REMMET090RJCT 160249Z 17005KT 9999 FEW010 SCT014 BKN035 23/20 Q1012 RMK 2ST010 3ST014 7CU035 A2990;EQDQ01+000000PRSWM2
0236474905999992000081603154+42900+143170FM-16+0084RJCT V0201601N003110045019N0112651N1+02301+02001999999ADDGA1021+003009999GA2071+004509999GA3071+010509999GF107991999999999999999999MA1101191999999MW1511REMMET094RJCT 160315Z 16006KT 9999 -DZ FEW010 BKN015 BKN035 23/20 Q1012 RMK 1ST010 5ST015 7CU035 A2990;EQDQ01+000003PRSWM1Q02    003PRSWM1
0216474905999992000081604004+42900+143170FM-15+0084RJCT V0201901N002610090019N0112651N1+02301+02001999999ADDGA1021+003009999GA2021+004509999GA3071+009009999GF107991999999999999999999MA1101191999999MW1001REMMET090RJCT 160400Z 19005KT 9999 FEW010 SCT015 BKN030 23/20 Q1012 RMK 1ST010 4ST015 7CU030 A2989;EQDQ01+000000PRSWM2
0216474905999992000081605054+42900+143170FM-16+0084RJCT V0201701N003610075019N0112651N1+02401+02001999999ADDGA1021+003009999GA2021+004509999GA3071+007509999GF107991999999999999999999MA1101191999999MW1001REMMET090RJCT 160505Z 17007KT 9999 FEW010 SCT015 BKN025 24/20 Q1012 RMK 1ST010 3ST015 7CU025 A2988;EQDQ01+000000PRSWM2
0172474905999992000081606004+42900+143170FM-15+0084RJCT V0201601N005112200019N0112651N1+02401+02001999999ADDGA1021+003009999GF102991999999999999999999MA1101191999999MW1001REMMET078RJCT 160600Z 16010KT 9999 FEW010 24/20 Q1012 RMK 1ST010 A2988 FCST 0615 NOSIG;EQDQ01+000000PRSWM2
0156474905999992000081623144+42900+143170FM-16+0084RJCT V0202301N000512200019N0112651N1+02001+01801999999ADDGA1021+009009999GF102991999999999999999999MA1101391999999MW1001REMMET062RJCT 162314Z 23001KT 9999 FEW030 20/18 Q1014 RMK 1CU030 A2995;EQDQ01+000000PRSWM2
0202474905999992000081700004+42900+143170FM-15+0084RJCT V0202401N001512200019N0112651N1+02201+01801999999ADDGA1021+009009999GA2021+069009999GF104991999999999999999999MA1101391999999MW1001REMMET092RJCT 170000Z 24003KT 9999 FEW030 SCT230 22/18 Q1014 RMK 1CU030 3CI230 A2994 FCST 0009 NOSIG;EQDQ01+000000PRSWM2
0186474905999992000081702004+42900+143170FM-15+0084RJCT V0202901N002612200019N0112651N1+02501+01301999999ADDGA1021+009009999GA2021+069009999GF104991999999999999999999MA1101191999999MW1001REMMET076RJCT 170200Z 29005KT 9999 FEW030 SCT230 25/13 Q1012 RMK 1CU030 3CI230 A2990;EQDQ01+000000PRSWM2
0156474905999992000081704004+42900+143170FM-15+0084RJCT V0201601N002612200019N0112651N1+02801+01401999999ADDGA1021+010509999GF102991999999999999999999MA1101081999999MW1001REMMET062RJCT 170400Z 16005KT 9999 FEW035 28/14 Q1011 RMK 1CU035 A2987;EQDQ01+000000PRSWM2
0186474905999992000081705004+42900+143170FM-15+0084RJCT V0201801N001512200019N0112651N1+02801+01501999999ADDGA1021+010509999GA2021+075009999GF104991999999999999999999MA1101081999999MW1001REMMET076RJCT 170500Z 18003KT 9999 FEW035 SCT250 28/15 Q1011 RMK 1CU035 3CI250 A2986;EQDQ01+000000PRSWM2
0202474905999992000081706004+42900+143170FM-15+0084RJCT V0201801N003112200019N0112651N1+02801+01501999999ADDGA1021+010509999GA2021+075009999GF104991999999999999999999MA1101021999999MW1001REMMET092RJCT 170600Z 18006KT 9999 FEW035 SCT250 28/15 Q1010 RMK 1CU035 4CI250 A2985 FCST 0615 NOSIG;EQDQ01+000000PRSWM2
0186474905999992000081707004+42900+143170FM-15+0084RJCT V0201601N003612200019N0112651N1+02701+01701999999ADDGA1021+009009999GA2021+060009999GF104991999999999999999999MA1101021999999MW1001REMMET076RJCT 170700Z 16007KT 9999 FEW030 SCT200 27/17 Q1010 RMK 1CU030 3CI200 A2984;EQDQ01+000000PRSWM2
0202474905999992000081708004+42900+143170FM-15+0084RJCT V0201501N002112200019N0112651N1+02601+01601999999ADDGA1021+009009999GA2021+075009999GF104991999999999999999999MA1101021999999MW1001REMMET092RJCT 170800Z 15004KT 9999 FEW030 SCT250 26/16 Q1010 RMK 1CU030 4CI250 A2983 FCST 0817 NOSIG;EQDQ01+000000PRSWM2
0186474905999992000081721004+42900+143170FM-15+0084RJCT V0203201N001010135019N0112651N1+01601+01501999999ADDGA1021+010509999GA2071+013509999GF107991999999999999999999MA1101081999999MW1001REMMET076RJCT 172100Z 32002KT 9999 FEW035 BKN045 16/15 Q1011 RMK 1SC035 7SC045 A2987;EQDQ01+000000PRSWM2
0186474905999992000081722004+42900+143170FM-15+0084RJCT V0202501N001010150019N0112651N1+01601+01501999999ADDGA1021+010509999GA2071+015009999GF107991999999999999999999MA1101081999999MW1001REMMET076RJCT 172200Z 25002KT 9999 FEW035 BKN050 16/15 Q1011 RMK 1SC035 7SC050 A2988;EQDQ01+000000PRSWM2
0225474905999992000081723004+42900+143170FM-15+0084RJCT V0202801N001510180019N0112651N1+01801+01601999999ADDGA1021+010509999GA2071+018009999GF107991999999999999999999MA1101081999999MW1001REMMET115RJCT 172300Z 28003KT 9999 FEW035 BKN060 18/16 Q1011 RMK 1SC035 7SC060 A2987 FCST 2308 BECMG 0204 FEW030CU SCT080AC;EQDQ01+000000PRSWM2
0216474905999992000081801004+42900+143170FM-15+0084RJCT V0201201N001010150019N0112651N1+02201+01601999999ADDGA1021+009009999GA2071+015009999GA3071+021009999GF107991999999999999999999MA1101081999999MW1001REMMET090RJCT 180100Z 12002KT 9999 FEW030 BKN050 BKN070 22/16 Q1011 RMK 1CU030 5SC050 6AC070 A2986;EQDQ01+000000PRSWM2
0216474905999992000081805004+42900+143170FM-15+0084RJCT V0201601N002610150019N0112651N1+02501+01701999999ADDGA1021+006009999GA2021+009009999GA3071+015009999GF107991999999999999999999MA1100911999999MW1001REMMET090RJCT 180500Z 16005KT 9999 FEW020 SCT030 BKN050 25/17 Q1009 RMK 1CU020 3SC030 6SC050 A2981;EQDQ01+000000PRSWM2
0186474905999992000081807004+42900+143170FM-15+0084RJCT V0201801N002610210019N0112651N1+02501+01901999999ADDGA1021+009009999GA2071+021009999GF107991999999999999999999MA1100911999999MW1001REMMET076RJCT 180700Z 18005KT 9999 FEW030 BKN070 25/19 Q1009 RMK 2CU030 5AC070 A2980;EQDQ01+000000PRSWM2
0202474905999992000081808004+42900+143170FM-15+0084RJCT V0201801N002110120019N0112651N1+02401+01901999999ADDGA1021+004509999GA2071+012009999GF107991999999999999999999MA1100911999999MW1001REMMET092RJCT 180800Z 18004KT 9999 FEW015 BKN040 24/19 Q1009 RMK 1ST015 5SC040 A2980 FCST 0817 NOSIG;EQDQ01+000000PRSWM2
0172474905999992000081903004+42900+143170FM-15+0084RJCT V02099999999992200019N0112651N1+02601+01901999999ADDGA1021+006009999GF104991999999999999999999MA1100811999999MW1001REMMET078RJCT 190300Z VRB02KT 9999 SCT020 26/19 Q1008 RMK 4SC020 A2977 FCST 0312 NOSIG;EQDQ01+000000PRSWM2
0156474905999992000081904004+42900+143170FM-15+0084RJCT V02099999999992200019N0112651N1+02801+01901999999ADDGA1021+006009999GF104991999999999999999999MA1100711999999MW1001REMMET062RJCT 190400Z VRB03KT 9999 SCT020 28/19 Q1007 RMK 3SC020 A2975;EQDQ01+000000PRSWM2
0156474905999992000081905004+42900+143170FM-15+0084RJCT V02099999999992200019N0112651N1+02801+01901999999ADDGA1021+009009999GF104991999999999999999999MA1100711999999MW1001REMMET062RJCT 190500Z VRB02KT 9999 SCT030 28/19 Q1007 RMK 3SC030 A2974;EQDQ01+000000PRSWM2
0172474905999992000081906004+42900+143170FM-15+0084RJCT V02099999999992200019N0112651N1+02901+01901999999ADDGA1021+009009999GF102991999999999999999999MA1100611999999MW1001REMMET078RJCT 190600Z VRB03KT 9999 FEW030 29/19 Q1006 RMK 2SC030 A2972 FCST 0615 NOSIG;EQDQ01+000000PRSWM2
0216474905999992000081922004+42900+143170FM-15+0084RJCT V0209999C000010600019N0112651N1+02001+01801999999ADDGA1021+006309999GA2021+021009999GA3071+060009999GF107991999999999999999999MA1101021999999MW1001REMMET090RJCT 192200Z 00000KT 9999 SCT021 SCT070 BKN200 20/18 Q1010 RMK 3SC021 3AC070 5CI200 A2984;EQDQ01+000000PRSWM2
0202474905999992000081923004+42900+143170FM-15+0084RJCT V02099999999990600019N0112651N1+02301+01901999999ADDGA1021+007509999GA2071+060009999GF107991999999999999999999MA1101021999999MW1001REMMET092RJCT 192300Z VRB02KT 9999 FEW025 BKN200 23/19 Q1010 RMK 1SC025 6CI200 A2983 FCST 2308 NOSIG;EQDQ01+000000PRSWM2
0202474905999992000082000004+42900+143170FM-15+0084RJCT V02099999999990690019N0112651N1+02401+01801999999ADDGA1021+007509999GA2071+069009999GF107991999999999999999999MA1101021999999MW1001REMMET092RJCT 200000Z VRB01KT 9999 FEW025 BKN230 24/18 Q1010 RMK 2CU025 6CI230 A2983 FCST 0009 NOSIG;EQDQ01+000000PRSWM2
0186474905999992000082001004+42900+143170FM-15+0084RJCT V02099999999992200019N0112651N1+02601+01901999999ADDGA1021+007509999GA2021+015009999GF104991999999999999999999MA1101021999999MW1001REMMET076RJCT 200100Z VRB02KT 9999 SCT025 SCT050 26/19 Q1010 RMK 3CU025 4SC050 A2983;EQDQ01+000000PRSWM2
0216474905999992000082002004+42900+143170FM-15+0084RJCT V02099999999990090019N0112651N1+02601+01901999999ADDGA1021+007509999GA2071+009009999GA3071+015009999GF107991999999999999999999MA1100911999999MW1001REMMET090RJCT 200200Z VRB01KT 9999 FEW025 BKN030 BKN050 26/19 Q1009 RMK 1CU025 5CU030 5SC050 A2982;EQDQ01+000000PRSWM2
0186474905999992000082002464+42900+143170FM-16+0084RJCT V02099999999992200019N0112651N1+02701+01901999999ADDGA1021+007509999GA2021+009009999GF104991999999999999999999MA1100911999999MW1001REMMET076RJCT 200246Z VRB02KT 9999 FEW025 SCT030 27/19 Q1009 RMK 2CU025 4CU030 A2981;EQDQ01+000000PRSWM2
0202474905999992000082003004+42900+143170FM-15+0084RJCT V02099999999992200019N0112651N1+02801+01901999999ADDGA1021+007509999GA2021+009009999GF104991999999999999999999MA1100911999999MW1001REMMET092RJCT 200300Z VRB02KT 9999 FEW025 SCT030 28/19 Q1009 RMK 2CU025 4CU030 A2981 FCST 0312 NOSIG;EQDQ01+000000PRSWM2
0186474905999992000082004004+42900+143170FM-15+0084RJCT V0203001N002112200019N0112651N1+02701+01901999999ADDGA1021+010509999GA2021+012009999GF104991999999999999999999MA1100911999999MW1001REMMET076RJCT 200400Z 30004KT 9999 FEW035 SCT040 27/19 Q1009 RMK 2CU035 4CU040 A2981;EQDQ01+000000PRSWM2
0186474905999992000082005004+42900+143170FM-15+0084RJCT V0202101N003112200019N0112651N1+02901+02001999999ADDGA1021+010509999GA2021+012009999GF104991999999999999999999MA1100811999999MW1001REMMET076RJCT 200500Z 21006KT 9999 FEW035 SCT040 29/20 Q1008 RMK 1CU035 4CU040 A2979;EQDQ01+000000PRSWM2
0186474905999992000082022004+42900+143170FM-15+0084RJCT V0201301N001010024019N0112651N1+02101+01901999999ADDGA1071+002409999GA2081+006009999GF108991999999999999999999MA1101191999999MW1001REMMET076RJCT 202200Z 13002KT 9999 BKN008 OVC020 21/19 Q1012 RMK 5ST008 8SC020 A2990;EQDQ01+000000PRSWM2
0225474905999992000082023004+42900+143170FM-15+0084RJCT V0201301N002110030019N0112651N1+02201+02001999999ADDGA1071+003009999GA2081+007509999GF108991999999999999999999MA1101291999999MW1001REMMET115RJCT 202300Z 13004KT 9999 BKN010 OVC025 22/20 Q1013 RMK 6ST010 8SC025 A2991 FCST 2308 TEMPO 0206 SCT020SC BKN080AC;EQDQ01+000000PRSWM2
0255474905999992000082100004+42900+143170FM-15+0084RJCT V0201001N001510036019N0112651N1+02301+01901999999ADDGA1021+002409999GA2071+003609999GA3071+009009999GF107991999999999999999999MA1101291999999MW1001REMMET129RJCT 210000Z 10003KT 9999 FEW008 BKN012 BKN030 23/19 Q1013 RMK 1ST008 5ST012 7SC030 A2992 FCST 0009 TEMPO 0306 SCT030SC BKN080AC;EQDQ01+000000PRSWM2
0216474905999992000082101004+42900+143170FM-15+0084RJCT V0201501N001510045019N0112651N1+02401+01901999999ADDGA1021+003009999GA2071+004509999GA3071+009009999GF107991999999999999999999MA1101291999999MW1001REMMET090RJCT 210100Z 15003KT 9999 FEW010 BKN015 BKN030 24/19 Q1013 RMK 1ST010 5ST015 7SC030 A2992;EQDQ01+000000PRSWM2
0216474905999992000082102004+42900+143170FM-15+0084RJCT V0201401N002110060019N0112651N1+02501+02001999999ADDGA1021+004509999GA2071+006009999GA3071+009009999GF107991999999999999999999MA1101291999999MW1001REMMET090RJCT 210200Z 14004KT 9999 FEW015 BKN020 BKN030 25/20 Q1013 RMK 2ST015 6CU020 7SC030 A2991;EQDQ01+000000PRSWM2
0246474905999992000082103004+42900+143170FM-15+0084RJCT V0201401N002610066019N0112651N1+02701+02001999999ADDGA1021+004509999GA2071+006609999GA3071+009009999GF107991999999999999999999MA1101191999999MW1001REMMET120RJCT 210300Z 14005KT 9999 FEW015 BKN022 BKN030 27/20 Q1012 RMK 2ST015 6CU022 6CU030 A2990 FCST 0312 TEMPO 0406 SCT030CU;EQDQ01+000000PRSWM2
0216474905999992000082104004+42900+143170FM-15+0084RJCT V0201301N003110090019N0112651N1+02601+02001999999ADDGA1021+004509999GA2021+006009999GA3071+009009999GF107991999999999999999999MA1101191999999MW1001REMMET090RJCT 210400Z 13006KT 9999 FEW015 SCT020 BKN030 26/20 Q1012 RMK 1ST015 4CU020 6CU030 A2990;EQDQ01+000000PRSWM2
0216474905999992000082105004+42900+143170FM-15+0084RJCT V0201201N003610105019N0112651N1+02601+02001999999ADDGA1021+004509999GA2021+007509999GA3071+010509999GF107991999999999999999999MA1101191999999MW1001REMMET090RJCT 210500Z 12007KT 9999 FEW015 SCT025 BKN035 26/20 Q1012 RMK 1ST015 3CU025 6CU035 A2989;EQDQ01+000000PRSWM2
0216474905999992000082107004+42900+143170FM-15+0084RJCT V0201201N003610120019N0112651N1+02501+02001999999ADDGA1021+006009999GA2021+009009999GA3071+012009999GF107991999999999999999999MA1101291999999MW1001REMMET090RJCT 210700Z 12007KT 9999 FEW020 SCT030 BKN040 25/20 Q1013 RMK 1CU020 3CU030 5CU040 A2991;EQDQ01+000000PRSWM2
0186474905999992000082122004+42900+143170FM-15+0084RJCT V0201301N001512200019N0112651N1+02101+01901999999ADDGA1021+001809999GA2021+007509999GF104991999999999999999999MA1101491999999MW1001REMMET076RJCT 212200Z 13003KT 9999 SCT006 SCT025 21/19 Q1015 RMK 4ST006 4CU025 A2998;EQDQ01+000000PRSWM2
0216474905999992000082200004+42900+143170FM-15+0084RJCT V0201101N001012200019N0112651N1+02401+01901999999ADDGA1021+003009999GA2021+004509999GF104991999999999999999999MA1101491999999MW1001REMMET106RJCT 220000Z 11002KT 9999 FEW010 SCT015 24/19 Q1015 RMK 1ST010 4ST015 A2997 FCST 0009 TEMPO 0609 BKN020SC;EQDQ01+000000PRSWM2
0186474905999992000082200354+42900+143170FM-16+0084RJCT V0201401N001010075019N0112651N1+02401+02001999999ADDGA1021+004509999GA2071+007509999GF107991999999999999999999MA1101491999999MW1001REMMET076RJCT 220035Z 14002KT 9999 SCT015 BKN025 24/20 Q1015 RMK 3ST015 5CU025 A2997;EQDQ01+000000PRSWM2
0216474905999992000082203004+42900+143170FM-15+0084RJCT V0201101N002612200019N0112651N1+02601+02101999999ADDGA1021+006009999GA2021+009009999GF104991999999999999999999MA1101391999999MW1001REMMET106RJCT 220300Z 11005KT 9999 FEW020 SCT030 26/21 Q1014 RMK 2CU020 4CU030 A2995 FCST 0312 TEMPO 0612 BKN020SC;EQDQ01+000000PRSWM2
0236474905999992000082206004+42900+143170FM-15+0084RJCT V0201201N003110450019N0112651N1+02501+02101999999ADDGA1021+009009999GA2071+045009999GF107991999999999999999999MA1101391999999MW1001REMMET126RJCT 220600Z 12006KT 9999 SCT030 BKN150 25/21 Q1014 RMK 3CU030 5AC150 A2995 FCST 0615 TEMPO 0812 BKN020SC BECMG 1213 BKN010ST;EQDQ01+000000PRSWM2
0186474905999992000082207004+42900+143170FM-15+0084RJCT V0201301N003612200019N0112651N1+02501+02001999999ADDGA1021+009009999GA2021+045009999GF104991999999999999999999MA1101391999999MW1001REMMET076RJCT 220700Z 13007KT 9999 FEW030 SCT150 25/20 Q1014 RMK 2CU030 4AC150 A2996;EQDQ01+000000PRSWM2
0186474905999992000082208004+42900+143170FM-15+0084RJCT V0201101N003112200019N0112651N1+02401+02001999999ADDGA1021+045009999GF102991999999999999999999MA1101391999999MW1001REMMET092RJCT 220800Z 11006KT 9999 FEW150 24/20 Q1014 RMK 2AC150 A2996 FCST 0817 BECMG 1213 BKN010ST;EQDQ01+000000PRSWM2
0216474905999992000082222444+42900+143170FM-16+0084RJCT V02099999999990018019N0112651N1+01901+01801999999ADDGA1021+001209999GA2071+001809999GA3081+002409999GF108991999999999999999999MA1101391999999MW1001REMMET090RJCT 222244Z VRB03KT 9999 SCT004 BKN006 OVC008 19/18 Q1014 RMK 3ST004 7ST006 8ST008 A2994;EQDQ01+000000PRSWM2
0286474905999992000082300004+42900+143170FM-15+0084RJCT V02099999999990024019N0112651N1+02001+01901999999ADDGA1021+001809999GA2071+002409999GA3071+003009999GF107991999999999999999999MA1101391999999MW1001REMMET160RJCT 230000Z VRB01KT 9999 FEW006 BKN008 BKN010 20/19 Q1014 RMK 2ST006 6ST008 7ST010 A2994 FCST 0009 BECMG 0001 BKN010ST BECMG 0102 SCT020CU TEMPO 0208 BKN020CU;EQDQ01+000000PRSWM2
0216474905999992000082300404+42900+143170FM-16+0084RJCT V02099999999990030019N0112651N1+02101+01901999999ADDGA1021+001809999GA2021+002409999GA3071+003009999GF107991999999999999999999MA1101291999999MW1001REMMET090RJCT 230040Z VRB01KT 9999 FEW006 SCT008 BKN010 21/19 Q1013 RMK 2ST006 3ST008 7ST010 A2992;EQDQ01+000000PRSWM2
0216474905999992000082301004+42900+143170FM-15+0084RJCT V02099999999990030019N0112651N1+02101+01901999999ADDGA1021+001809999GA2021+002409999GA3071+003009999GF107991999999999999999999MA1101291999999MW1001REMMET090RJCT 230100Z VRB03KT 9999 FEW006 SCT008 BKN010 21/19 Q1013 RMK 2ST006 3ST008 7ST010 A2993;EQDQ01+000000PRSWM2
0216474905999992000082302004+42900+143170FM-15+0084RJCT V02099999999990036019N0112651N1+02301+02001999999ADDGA1021+002409999GA2071+003609999GA3071+006009999GF107991999999999999999999MA1101191999999MW1001REMMET090RJCT 230200Z VRB03KT 9999 FEW008 BKN012 BKN020 23/20 Q1012 RMK 2ST008 5ST012 6CU020 A2990;EQDQ01+000000PRSWM2
0246474905999992000082303004+42900+143170FM-15+0084RJCT V0201701N001510060019N0112651N1+02401+02001999999ADDGA1021+003009999GA2021+004509999GA3071+006009999GF107991999999999999999999MA1101191999999MW1001REMMET120RJCT 230300Z 17003KT 9999 FEW010 SCT015 BKN020 24/20 Q1012 RMK 1ST010 4ST015 6CU020 A2990 FCST 0312 TEMPO 0507 SCT020CU;EQDQ01+000000PRSWM2
0156474905999992000082304004+42900+143170FM-15+0084RJCT V0201101N001512200019N0112651N1+02601+02101999999ADDGA1021+003009999GF102991999999999999999999MA1101191999999MW1001REMMET062RJCT 230400Z 11003KT 9999 FEW010 26/21 Q1012 RMK 1ST010 A2988;EQDQ01+000000PRSWM2
0156474905999992000082305004+42900+143170FM-15+0084RJCT V0200901N001512200019N0112651N1+02701+02101999999ADDGA1021+003009999GF102991999999999999999999MA1101081999999MW1001REMMET062RJCT 230500Z 09003KT 9999 FEW010 27/21 Q1011 RMK 1ST010 A2987;EQDQ01+000000PRSWM2
0202474905999992000082308004+42900+143170FM-15+0084RJCT V0201001N001512200019N0112651N1+02501+02101999999ADDGA1021+004509999GA2021+015009999GF104991999999999999999999MA1101021999999MW1001REMMET092RJCT 230800Z 10003KT 9999 FEW015 SCT050 25/21 Q1010 RMK 1ST015 4CU050 A2984 FCST 0817 NOSIG;EQDQ01+000000PRSWM2
0167474905999992000082321004+42900+143170FM-15+0084RJCT V0202901N00051000151CN0004001N1+01801+01701999999ADDGA1091+000159999GF109991999999000251999999MA1101191999999MW1451REMMET057RJCT 232100Z 29001KT 0400 FG VV002 18/17 Q1012 RMK A2990;EQDQ01+000003PRSWM1Q02    003PRSWM1
0207474905999992000082322004+42900+143170FM-15+0084RJCT V0209999C000010006019N0011001N1+01801+01801999999ADDGA1021+000309999GA2071+000609999GF107991999999999999999999MA1101191999999MW1411REMMET081RJCT 232200Z 00000KT 1100 PRFG FEW001 BKN002 18/18 Q1012 RMK 1ST001 7ST002 A2990;EQDQ01+000003PRSWM1Q02    003PRSWM1
0177474905999992000082322084+42900+143170FM-16+0084RJCT V0201001N000510006019N0013001N1+01901+01901999999ADDGA1071+000609999GF107991999999999999999999MA1101191999999MW1411REMMET067RJCT 232208Z 10001KT 1300 BCFG BKN002 19/19 Q1012 RMK 7ST002 A2990;EQDQ01+000003PRSWM1Q02    003PRSWM1
0177474905999992000082322154+42900+143170FM-16+0084RJCT V0201101N000510006019N0016001N1+01901+01901999999ADDGA1071+000609999GF107991999999999999999999MA1101191999999MW1411REMMET067RJCT 232215Z 11001KT 1600 BCFG BKN002 19/19 Q1012 RMK 5ST002 A2990;EQDQ01+000003PRSWM1Q02    003PRSWM1
0175474905999992000082322214+42900+143170FM-16+0084RJCT V0209999C000012200019N0030001N1+02001+01901999999ADDGA1021+000609999GF104991999999999999999999MA1101191999999MW1101REMMET065RJCT 232221Z 00000KT 3000 BR SCT002 20/19 Q1012 RMK 4ST002 A2989;EQDQ01+000003PRSWM1Q02    003PRSWM1
0175474905999992000082322324+42900+143170FM-16+0084RJCT V0200901N000512200019N0050001N1+02201+01901999999ADDGA1021+000909999GF102991999999999999999999MA1101191999999MW1101REMMET065RJCT 232232Z 09001KT 5000 BR FEW003 22/19 Q1012 RMK 1ST003 A2989;EQDQ01+000003PRSWM1Q02    003PRSWM1
0172474905999992000082323004+42900+143170FM-15+0084RJCT V0201801N000512200019N0070001N1+02201+01901999999ADDGA1021+000909999GF102991999999999999999999MA1101191999999MW1001REMMET078RJCT 232300Z 18001KT 7000 FEW003 22/19 Q1012 RMK 1ST003 A2989 FCST 2308 NOSIG;EQDQ01+000000PRSWM2
0156474905999992000082401004+42900+143170FM-15+0084RJCT V0201601N001512200019N0112651N1+02701+02001999999ADDGA1021+006009999GF102991999999999999999999MA1101081999999MW1001REMMET062RJCT 240100Z 16003KT 9999 FEW020 27/20 Q1011 RMK 1CU020 A2987;EQDQ01+000000PRSWM2
0186474905999992000082402004+42900+143170FM-15+0084RJCT V0201301N001012200019N0112651N1+02901+02001999999ADDGA1021+007509999GA2021+010509999GF104991999999999999999999MA1101081999999MW1001REMMET076RJCT 240200Z 13002KT 9999 FEW025 SCT035 29/20 Q1011 RMK 1SC025 3CU035 A2986;EQDQ01+000000PRSWM2
0186474905999992000082404004+42900+143170FM-15+0084RJCT V0201201N002112200019N0112651N1+02901+02001999999ADDGA1021+007509999GA2021+010509999GF104991999999999999999999MA1101021999999MW1001REMMET076RJCT 240400Z 12004KT 9999 FEW025 SCT035 29/20 Q1010 RMK 1CU025 4CU035 A2982;EQDQ01+000000PRSWM2
0202474905999992000082406004+42900+143170FM-15+0084RJCT V0201701N003112200019N0112651N1+02901+02101999999ADDGA1021+007509999GA2021+010509999GF104991999999999999999999MA1100911999999MW1001REMMET092RJCT 240600Z 17006KT 9999 FEW025 SCT035 29/21 Q1009 RMK 1CU025 3CU035 A2981 FCST 0615 NOSIG;EQDQ01+000000PRSWM2
0186474905999992000082407004+42900+143170FM-15+0084RJCT V0201601N003612200019N0112651N1+02901+02101999999ADDGA1021+006009999GA2021+010509999GF104991999999999999999999MA1100911999999MW1001REMMET076RJCT 240700Z 16007KT 9999 FEW020 SCT035 29/21 Q1009 RMK 1CU020 3CU035 A2981;EQDQ01+000000PRSWM2
0186474905999992000082501004+42900+143170FM-15+0084RJCT V0201701N002110300019N0112651N1+02701+02001999999ADDGA1071+030009999GA2071+066009999GF107991999999999999999999MA1101081999999MW1001REMMET076RJCT 250100Z 17004KT 9999 BKN100 BKN220 27/20 Q1011 RMK 5AC100 6CI220 A2987;EQDQ01+000000PRSWM2
0186474905999992000082502004+42900+143170FM-15+0084RJCT V0202101N001010660019N0112651N1+02901+01901999999ADDGA1021+030009999GA2071+066009999GF107991999999999999999999MA1101081999999MW1001REMMET076RJCT 250200Z 21002KT 9999 FEW100 BKN220 29/19 Q1011 RMK 2AC100 6CI220 A2986;EQDQ01+000000PRSWM2
0275474905999992000082503004+42900+143170FM-15+0084RJCT V0200401N001010660019N0112651N1+03001+01801999999ADDGA1021+010509999GA2021+030009999GA3071+066009999GF107991999999999999999999MA1101021999999MW1001REMMET149RJCT 250300Z 04002KT 9999 FEW035 SCT100 BKN220 30/18 Q1010 RMK 1CU035 3AC100 6CI220 A2984 FCST 0312 TEMPO 0408 BKN100AC TEMPO 0812 BKN030CU BKN080AC;EQDQ01+000000PRSWM2
0186474905999992000082504004+42900+143170FM-15+0084RJCT V0201801N001510660019N0112651N1+02901+01801999999ADDGA1021+009009999GA2071+066009999GF107991999999999999999999MA1101021999999MW1001REMMET076RJCT 250400Z 18003KT 9999 FEW030 BKN220 29/18 Q1010 RMK 2CU030 6CI220 A2983;EQDQ01+000000PRSWM2
0216474905999992000082505004+42900+143170FM-15+0084RJCT V0201801N001510660019N0112651N1+03001+01901999999ADDGA1021+009009999GA2021+030009999GA3071+066009999GF107991999999999999999999MA1100911999999MW1001REMMET090RJCT 250500Z 18003KT 9999 FEW030 SCT100 BKN220 30/19 Q1009 RMK 2CU030 3AC100 6CI220 A2982;EQDQ01+000000PRSWM2
0272474905999992000082506004+42900+143170FM-15+0084RJCT V0201401N002110300019N0112651N1+02901+02001999999ADDGA1021+009009999GA2071+030009999GA3071+066009999GF107991999999999999999999MA1100911999999MW1001REMMET146RJCT 250600Z 14004KT 9999 FEW030 BKN100 BKN220 29/20 Q1009 RMK 2CU030 5AC100 7CI220 A2981 FCST 0615 TEMPO 0812 BKN030CU TEMPO 1215 -SHRA BKN020CU;EQDQ01+000000PRSWM2
0216474905999992000082507004+42900+143170FM-15+0084RJCT V0201401N004110300019N0112651N1+02701+01901999999ADDGA1021+009009999GA2071+030009999GA3071+066009999GF107991999999999999999999MA1100911999999MW1001REMMET090RJCT 250700Z 14008KT 9999 FEW030 BKN100 BKN220 27/19 Q1009 RMK 1CU030 6AC100 7CI220 A2982;EQDQ01+000000PRSWM2
0217474905999992000082521304+42900+143170FM-15+0084RJCT V0200901N000510012019N0027001N1+02001+01901999999ADDGA1071+001209999GA2081+001809999GF108991999999999999999999MA1100911999999MW1101MW2801REMMET085RJCT 252130Z 09001KT 2700 -SHRA BR BKN004 OVC006 20/19 Q1009 RMK 6ST004 8ST006 A2980;EQDQ01+000003PRSWM1Q02    003PRSWM1
0217474905999992000082522004+42900+143170FM-15+0084RJCT V0201101N001510015019N0015001N1+02001+01901999999ADDGA1071+001509999GA2081+002109999GF108991999999999999999999MA1100911999999MW1101MW2801REMMET085RJCT 252200Z 11003KT 1500 -SHRA BR BKN005 OVC007 20/19 Q1009 RMK 7ST005 8ST007 A2980;EQDQ01+000003PRSWM1Q02    003PRSWM1
0217474905999992000082522454+42900+143170FM-15+0084RJCT V0200901N001510009019N0017001N1+01901+01901999999ADDGA1071+000909999GA2081+001509999GF108991999999999999999999MA1100811999999MW1101MW2801REMMET085RJCT 252245Z 09003KT 1700 -SHRA BR BKN003 OVC005 19/19 Q1008 RMK 6ST003 8ST005 A2978;EQDQ01+000003PRSWM1Q02    003PRSWM1
0276474905999992000082523004+42900+143170FM-15+0084RJCT V0201001N001510009019N0023001N1+01901+01901999999ADDGA1071+000909999GA2081+001509999GF108991999999999999999999MA1100811999999MW1101MW2801REMMET144RJCT 252300Z 10003KT 2300 -SHRA BR BKN003 OVC005 19/19 Q1008 RMK 6ST003 8ST005 A2978 FCST 2308 TEMPO 0307 5000 BECMG 0708 NSW BKN010ST BKN020CU;EQDQ01+000003PRSWM1Q02    003PRSWM1
0216474905999992000082601004+42900+143170FM-15+0084RJCT V0200401N001010018019N0070001N1+02101+02001999999ADDGA1071+001809999GA2071+003009999GA3081+007509999GF108991999999999999999999MA1100811999999MW1001REMMET090RJCT 260100Z 04002KT 7000 BKN006 BKN010 OVC025 21/20 Q1008 RMK 5ST006 6ST010 8CU025 A2978;EQDQ01+000000PRSWM2
0238474905999992000082601044+42900+143170FM-16+0084RJCT V0200501N001010018019N0060001N1+02101+01901999999ADDGA1071+001809999GA2071+002709999GA3081+007509999GF108991999999999999999999MA1100811999999MW1801REMMET096RJCT 260104Z 05002KT 6000 -SHRA BKN006 BKN009 OVC025 21/19 Q1008 RMK 5ST006 6ST009 8CU025 A2978;EQDQ01+000003PRSWM1Q02    003PRSWM1
0238474905999992000082602004+42900+143170FM-15+0084RJCT V0200901N001010042019N0070001N1+02101+02001999999ADDGA1021+001809999GA2071+004209999GA3071+007509999GF107991999999999999999999MA1100811999999MW1801REMMET096RJCT 260200Z 09002KT 7000 -SHRA SCT006 BKN014 BKN025 21/20 Q1008 RMK 3ST006 6ST014 7CU025 A2977;EQDQ01+000003PRSWM1Q02    003PRSWM1
0257474905999992000082603164+42900+143170FM-16+0084RJCT V0200701N000510024019N0030001N1+02101+01901999999ADDGA1021+001809999GA2071+002409999GA3081+003609999GF108991999999999999999999MA1100711999999MW1801REMMET099RJCT 260316Z 07001KT 3000 -SHRA BR FEW006 BKN008 OVC012 21/19 Q1007 RMK 2ST006 6ST008 8ST012 A2975;EQDQ01+000100PRSWM3Q02+000003PRSWM1Q03    003PRSWM1
0247474905999992000082604004+42900+143170FM-15+0084RJCT V0202901N001010036019N0040001N1+02101+02001999999ADDGA1021+001509999GA2071+003609999GA3081+007509999GF108991999999999999999999MA1100711999999MW1101MW2801REMMET099RJCT 260400Z 29002KT 4000 -SHRA BR FEW005 BKN012 OVC025 21/20 Q1007 RMK 2ST005 6ST012 8CU025 A2975;EQDQ01+000003PRSWM1Q02    003PRSWM1
0257474905999992000082604044+42900+143170FM-16+0084RJCT V0202701N000510024019N0030001N1+02101+02001999999ADDGA1021+000909999GA2071+002409999GA3071+003609999GF107991999999999999999999MA1100711999999MW1801REMMET099RJCT 260404Z 27001KT 3000 -SHRA BR FEW003 BKN008 BKN012 21/20 Q1007 RMK 2ST003 5ST008 7ST012 A2975;EQDQ01+000100PRSWM3Q02+000003PRSWM1Q03    003PRSWM1
0247474905999992000082605004+42900+143170FM-15+0084RJCT V0202401N002110036019N0028001N1+02101+02101999999ADDGA1021+000909999GA2071+003609999GA3081+009009999GF108991999999999999999999MA1100811999999MW1101MW2801REMMET099RJCT 260500Z 24004KT 2800 -SHRA BR SCT003 BKN012 OVC030 21/21 Q1008 RMK 4ST003 6ST012 8CU030 A2976;EQDQ01+000003PRSWM1Q02    003PRSWM1
0235474905999992000082605234+42900+143170FM-16+0084RJCT V0202101N002110090019N0045001N1+02101+02101999999ADDGA1021+000909999GA2021+003609999GA3071+009009999GF107991999999999999999999MA1100711999999MW1101REMMET093RJCT 260523Z 21004KT 4500 BR FEW003 SCT012 BKN030 21/21 Q1007 RMK 2ST003 3ST012 6CU030 A2974;EQDQ01+000003PRSWM1Q02    003PRSWM1
0232474905999992000082606004+42900+143170FM-15+0084RJCT V0201801N002610090019N0112651N1+02201+02101999999ADDGA1021+001209999GA2071+009009999GA3071+066009999GF107991999999999999999999MA1100711999999MW1001REMMET106RJCT 260600Z 18005KT 9999 FEW004 BKN030 BKN220 22/21 Q1007 RMK 2ST004 5CU030 6CI220 A2974 FCST 0615 NOSIG;EQDQ01+000000PRSWM2
0255474905999992000082700004+42900+143170FM-15+0084RJCT V02099999999990120019N0112651N1+02301+01701999999ADDGA1021+009009999GA2071+012009999GA3071+030009999GF107991999999999999999999MA1101691999999MW1001REMMET129RJCT 270000Z VRB03KT 9999 SCT030 BKN040 BKN100 23/17 Q1017 RMK 3CU030 6SC040 7AC100 A3003 FCST 0009 BECMG 0103 SCT030CU BKN100AC;EQDQ01+000000PRSWM2
0216474905999992000082701004+42900+143170FM-15+0084RJCT V02099999999990120019N0112651N1+02301+01801999999ADDGA1021+009009999GA2071+012009999GA3071+030009999GF107991999999999999999999MA1101691999999MW1001REMMET090RJCT 270100Z VRB02KT 9999 FEW030 BKN040 BKN100 23/18 Q1017 RMK 2CU030 6SC040 7AC100 A3003;EQDQ01+000000PRSWM2
0186474905999992000082705004+42900+143170FM-15+0084RJCT V0200901N002110600019N0112651N1+02601+01801999999ADDGA1021+009009999GA2071+060009999GF107991999999999999999999MA1101591999999MW1001REMMET076RJCT 270500Z 09004KT 9999 FEW030 BKN200 26/18 Q1016 RMK 2CU030 5CI200 A3002;EQDQ01+000000PRSWM2
0206474905999992000082722004+42900+143170FM-15+0084RJCT V0201301N002110021019N0080001N1+01801+01701999999ADDGA1021+001509999GA2071+002109999GF107991999999999999999999MA1102001999999MW1511REMMET080RJCT 272200Z 13004KT 8000 -DZ SCT005 BKN007 18/17 Q1020 RMK 4ST005 7ST007 A3013;EQDQ01+000003PRSWM1Q02    003PRSWM1
0216474905999992000082722474+42900+143170FM-16+0084RJCT V0201301N001510027019N0112651N1+01801+01701999999ADDGA1021+001509999GA2021+001809999GA3081+002709999GF108991999999999999999999MA1102001999999MW1001REMMET090RJCT 272247Z 13003KT 9999 FEW005 SCT006 OVC009 18/17 Q1020 RMK 2ST005 3ST006 8ST009 A3013;EQDQ01+000000PRSWM2
0284474905999992000082723004+42900+143170FM-15+0084RJCT V0201301N001510027019N0112651N1+01801+01701999999ADDGA1021+001509999GA2021+001809999GA3081+002709999GF108991999999999999999999MA1102001999999MW1001REMMET158RJCT 272300Z 13003KT 9999 FEW005 SCT006 OVC009 18/17 Q1020 RMK 2ST005 3ST006 8ST009 A3013 FCST 2308 BECMG 0102 SCT006ST BKN012ST TEMPO 0308 4000 -DZ BKN008ST;EQDQ01+000000PRSWM2
0216474905999992000082802004+42900+143170FM-15+0084RJCT V0201401N003610027019N0112651N1+01901+01701999999ADDGA1021+002109999GA2071+002709999GA3081+003609999GF108991999999999999999999MA1101901999999MW1001REMMET090RJCT 280200Z 14007KT 9999 FEW007 BKN009 OVC012 19/17 Q1019 RMK 2ST007 6ST009 8ST012 A3009;EQDQ01+000000PRSWM2
0288474905999992000082803004+42900+143170FM-15+0084RJCT V0201501N003610033019N0112651N1+01901+01701999999ADDGA1021+002709999GA2071+003309999GA3081+003909999GF108991999999999999999999MA1101801999999MW1001REMMET162RJCT 280300Z 15007KT 9999 SCT009 BKN011 OVC013 19/17 Q1018 RMK 3ST009 5ST011 8ST013 A3009 FCST 0312 TEMPO 0407 4000 -SHRA BKN008ST BECMG 0708 4000 -SHRA BKN008ST;EQDQ01+000000PRSWM2
0238474905999992000082804434+42900+143170FM-16+0084RJCT V0201401N003110021019N0030001N1+01801+01701999999ADDGA1021+001509999GA2071+002109999GA3081+003009999GF108991999999999999999999MA1101801999999MW1801REMMET096RJCT 280443Z 14006KT 3000 -SHRA SCT005 BKN007 OVC010 18/17 Q1018 RMK 3ST005 6ST007 8ST010 A3007;EQDQ01+000003PRSWM1Q02    003PRSWM1
0208474905999992000082805004+42900+143170FM-15+0084RJCT V0201401N003110024019N0030001N1+01801+01701999999ADDGA1021+001509999GA2081+002409999GF108991999999999999999999MA1101801999999MW1801REMMET082RJCT 280500Z 14006KT 3000 -SHRA SCT005 OVC008 18/17 Q1018 RMK 4ST005 8ST008 A3006;EQDQ01+000003PRSWM1Q02    003PRSWM1
0238474905999992000082805434+42900+143170FM-16+0084RJCT V0201101N002110024019N0060001N1+01801+01701999999ADDGA1021+001509999GA2071+002409999GA3081+003609999GF108991999999999999999999MA1101691999999MW1801REMMET096RJCT 280543Z 11004KT 6000 -SHRA SCT005 BKN008 OVC012 18/17 Q1017 RMK 3ST005 6ST008 8ST012 A3004;EQDQ01+000003PRSWM1Q02    003PRSWM1
0263474905999992000082808004+42900+143170FM-15+0084RJCT V0201401N002610024019N0040001N1+01801+01701999999ADDGA1021+001509999GA2071+002409999GA3081+003009999GF108991999999999999999999MA1101591999999MW1801REMMET121RJCT 280800Z 14005KT 4000 -SHRA FEW005 BKN008 OVC010 18/17 Q1016 RMK 2ST005 7ST008 8ST010 A3002 FCST 0817 BECMG 1213 NSW;EQDQ01+000003PRSWM1Q02    003PRSWM1
0172474905999992000082823004+42900+143170FM-15+0084RJCT V0201001N000512200019N0080001N1+02001+01801999999ADDGA1021+003009999GF102991999999999999999999MA1101591999999MW1001REMMET078RJCT 282300Z 10001KT 8000 FEW010 20/18 Q1016 RMK 1ST010 A3002 FCST 2308 NOSIG;EQDQ01+000000PRSWM2
0172474905999992000082900004+42900+143170FM-15+0084RJCT V0209999C000012200019N0112651N1+02301+01801999999ADDGA1021+004509999GF102991999999999999999999MA1101591999999MW1001REMMET078RJCT 290000Z 00000KT 9999 FEW015 23/18 Q1016 RMK 1ST015 A3002 FCST 0009 NOSIG;EQDQ01+000000PRSWM2
0186474905999992000082902004+42900+143170FM-15+0084RJCT V0201001N001512200019N0112651N1+02501+01801999999ADDGA1021+006009999GA2021+063009999GF104991999999999999999999MA1101591999999MW1001REMMET076RJCT 290200Z 10003KT 9999 FEW020 SCT210 25/18 Q1016 RMK 2CU020 4CI210 A3001;EQDQ01+000000PRSWM2
0202474905999992000082903004+42900+143170FM-15+0084RJCT V0201301N002610630019N0112651N1+02601+01801999999ADDGA1021+007509999GA2071+063009999GF107991999999999999999999MA1101591999999MW1001REMMET092RJCT 290300Z 13005KT 9999 FEW025 BKN210 26/18 Q1016 RMK 2CU025 5CI210 A3001 FCST 0312 NOSIG;EQDQ01+000000PRSWM2
0186474905999992000082904004+42900+143170FM-15+0084RJCT V0201101N002610630019N0112651N1+02601+01901999999ADDGA1021+007509999GA2071+063009999GF107991999999999999999999MA1101591999999MW1001REMMET076RJCT 290400Z 11005KT 9999 FEW025 BKN210 26/19 Q1016 RMK 2CU025 6CI210 A3000;EQDQ01+000000PRSWM2
0186474905999992000082905004+42900+143170FM-15+0084RJCT V0201001N002610630019N0112651N1+02701+01801999999ADDGA1021+007509999GA2071+063009999GF107991999999999999999999MA1101491999999MW1001REMMET076RJCT 290500Z 10005KT 9999 FEW025 BKN210 27/18 Q1015 RMK 2CU025 5CI210 A2998;EQDQ01+000000PRSWM2
0186474905999992000082907004+42900+143170FM-15+0084RJCT V02099999999990750019N0112651N1+02601+01601999999ADDGA1021+007509999GA2071+075009999GF107991999999999999999999MA1101491999999MW1001REMMET076RJCT 290700Z VRB02KT 9999 FEW025 BKN250 26/16 Q1015 RMK 2CU025 6CC250 A2999;EQDQ01+000000PRSWM2
0232474905999992000082908004+42900+143170FM-15+0084RJCT V0201101N002610750019N0112651N1+02401+01801999999ADDGA1021+007509999GA2021+015009999GA3071+075009999GF107991999999999999999999MA1101491999999MW1001REMMET106RJCT 290800Z 11005KT 9999 FEW025 SCT050 BKN250 24/18 Q1015 RMK 2CU025 3SC050 6CC250 A2999 FCST 0817 NOSIG;EQDQ01+000000PRSWM2
0216474905999992000082909004+42900+143170FM-15+0084RJCT V0201301N002610750019N0112651N1+02201+01801999999ADDGA1021+006009999GA2021+015009999GA3071+075009999GF107991999999999999999999MA1101591999999MW1001REMMET090RJCT 290900Z 13005KT 9999 FEW020 SCT050 BKN250 22/18 Q1016 RMK 2SC020 4SC050 6CI250 A3001;EQDQ01+000000PRSWM2
0186474905999992000082922004+42900+143170FM-15+0084RJCT V0201101N001010105019N0112651N1+01701+01601999999ADDGA1021+004509999GA2071+010509999GF107991999999999999999999MA1101901999999MW1001REMMET076RJCT 292200Z 11002KT 9999 FEW015 BKN035 17/16 Q1019 RMK 2ST015 7SC035 A3011;EQDQ01+000000PRSWM2
0216474905999992000083001004+42900+143170FM-15+0084RJCT V0201201N001510039019N0112651N1+01901+01701999999ADDGA1021+002409999GA2071+003909999GA3081+010509999GF108991999999999999999999MA1101901999999MW1001REMMET090RJCT 300100Z 12003KT 9999 FEW008 BKN013 OVC035 19/17 Q1019 RMK 1ST008 5ST013 8SC035 A3011;EQDQ01+000000PRSWM2
0232474905999992000083003004+42900+143170FM-15+0084RJCT V0200901N002110120019N0112651N1+02101+01701999999ADDGA1021+002409999GA2021+006009999GA3071+012009999GF107991999999999999999999MA1101801999999MW1001REMMET106RJCT 300300Z 09004KT 9999 FEW008 SCT020 BKN040 21/17 Q1018 RMK 1ST008 3SC020 7SC040 A3008 FCST 0312 NOSIG;EQDQ01+000000PRSWM2
0232474905999992000083008004+42900+143170FM-15+0084RJCT V0201501N004610090019N0112651N1+02001+01401999999ADDGA1021+007509999GA2071+009009999GA3071+015009999GF107991999999999999999999MA1101691999999MW1001REMMET106RJCT 300800Z 15009KT 9999 FEW025 BKN030 BKN050 20/14 Q1017 RMK 2CU025 5SC030 6SC050 A3005 FCST 0817 NOSIG;EQDQ01+000000PRSWM2
0186474905999992000083022004+42900+143170FM-15+0084RJCT V0200401N000510027019N0112651N1+01801+01601999999ADDGA1021+001509999GA2071+002709999GF107991999999999999999999MA1101591999999MW1001REMMET076RJCT 302200Z 04001KT 9999 FEW005 BKN009 18/16 Q1016 RMK 1ST005 5ST009 A3001;EQDQ01+000000PRSWM2
0186474905999992000083022394+42900+143170FM-16+0084RJCT V0200901N000512200019N0112651N1+01901+01601999999ADDGA1021+001509999GA2021+003609999GF104991999999999999999999MA1101591999999MW1001REMMET076RJCT 302239Z 09001KT 9999 FEW005 SCT012 19/16 Q1016 RMK 1ST005 4ST012 A3001;EQDQ01+000000PRSWM2
0172474905999992000083100004+42900+143170FM-15+0084RJCT V02099999999992200019N0112651N1+02201+01701999999ADDGA1021+003609999GF102991999999999999999999MA1101591999999MW1001REMMET078RJCT 310000Z VRB02KT 9999 FEW012 22/17 Q1016 RMK 2ST012 A3000 FCST 0009 NOSIG;EQDQ01+000000PRSWM2
0202474905999992000083103004+42900+143170FM-15+0084RJCT V0201401N001510690019N0112651N1+02601+01801999999ADDGA1021+006009999GA2071+069009999GF107991999999999999999999MA1101391999999MW1001REMMET092RJCT 310300Z 14003KT 9999 FEW020 BKN230 26/18 Q1014 RMK 1CU020 7CI230 A2995 FCST 0312 NOSIG;EQDQ01+000000PRSWM2
0186474905999992000083104004+42900+143170FM-15+0084RJCT V0201301N002610690019N0112651N1+02701+01801999999ADDGA1021+006009999GA2071+069009999GF107991999999999999999999MA1101291999999MW1001REMMET076RJCT 310400Z 13005KT 9999 FEW020 BKN230 27/18 Q1013 RMK 1CU020 6CI230 A2993;EQDQ01+000000PRSWM2
0186474905999992000083105004+42900+143170FM-15+0084RJCT V0201301N002610690019N0112651N1+02801+01901999999ADDGA1021+006009999GA2071+069009999GF107991999999999999999999MA1101291999999MW1001REMMET076RJCT 310500Z 13005KT 9999 FEW020 BKN230 28/19 Q1013 RMK 1CU020 7CI230 A2991;EQDQ01+000000PRSWM2
0216474905999992000083106004+42900+143170FM-15+0084RJCT V0201101N002610690019N0112651N1+02801+02001999999ADDGA1021+006009999GA2071+069009999GF107991999999999999999999MA1101191999999MW1001REMMET106RJCT 310600Z 11005KT 9999 FEW020 BKN230 28/20 Q1012 RMK 1CU020 7CI230 A2990 FCST 0615 TEMPO 1115 BKN010ST;EQDQ01+000000PRSWM2
0186474905999992000083107004+42900+143170FM-15+0084RJCT V02099999999990690019N0112651N1+02701+02101999999ADDGA1021+006009999GA2071+069009999GF107991999999999999999999MA1101191999999MW1001REMMET076RJCT 310700Z VRB03KT 9999 FEW020 BKN230 27/21 Q1012 RMK 1CU020 7CI230 A2990;EQDQ01+000000PRSWM2
0216474905999992000083108004+42900+143170FM-15+0084RJCT V0201101N002110690019N0112651N1+02601+02101999999ADDGA1021+013509999GA2071+069009999GF107991999999999999999999MA1101191999999MW1001REMMET106RJCT 310800Z 11004KT 9999 FEW045 BKN230 26/21 Q1012 RMK 1SC045 7CI230 A2989 FCST 0817 TEMPO 1117 BKN010ST;EQDQ01+000000PRSWM2
0186474905999992000083109004+42900+143170FM-15+0084RJCT V0200501N001510690019N0060001N1+02301+02101999999ADDGA1021+003009999GA2071+069009999GF107991999999999999999999MA1101191999999MW1001REMMET076RJCT 310900Z 05003KT 6000 FEW010 BKN230 23/21 Q1012 RMK 1ST010 7CI230 A2989;EQDQ01+000000PRSWM2
0190474905999992000090102004+42900+143170FM-15+0084RJCT V0200201N001010030019N0060001N1+02201+02001999999ADDGA1071+003009999GA2081+003909999GF108991999999999999999999MA1100911999999MW1001REMMET080RJCT 010200Z COR 02002KT 6000 BKN010 OVC013 22/20 Q1009 RMK 6ST010 8ST013 A2981;EQDQ01+000000PRSWM2
0258474905999992000090103004+42900+143170FM-15+0084RJCT V0202501N001010036019N0080001N1+02201+02001999999ADDGA1071+003609999GA2081+006009999GF108991999999999999999999MA1100811999999MW1001REMMET148RJCT 010300Z 25002KT 8000 BKN012 OVC020 22/20 Q1008 RMK 6ST012 8SC020 A2979 FCST 0312 TEMPO 0406 3000 -SHRA BKN008ST BECMG 0607 3000 -SHRA BKN005ST;EQDQ01+000000PRSWM2
0186474905999992000090104004+42900+143170FM-15+0084RJCT V0201701N001010045019N0080001N1+02301+02001999999ADDGA1071+004509999GA2081+007509999GF108991999999999999999999MA1100811999999MW1001REMMET076RJCT 010400Z 17002KT 8000 BKN015 OVC025 23/20 Q1008 RMK 6ST015 8SC025 A2978;EQDQ01+000000PRSWM2
0208474905999992000090104374+42900+143170FM-16+0084RJCT V0202601N001510045019N0080001N1+02301+02001999999ADDGA1071+004509999GA2081+007509999GF108991999999999999999999MA1100811999999MW1801REMMET082RJCT 010437Z 26003KT 8000 -SHRA BKN015 OVC025 23/20 Q1008 RMK 6ST015 8SC025 A2978;EQDQ01+000003PRSWM1Q02    003PRSWM1
0208474905999992000090105004+42900+143170FM-15+0084RJCT V0202701N001510075019N0070001N1+02301+02001999999ADDGA1021+004509999GA2071+007509999GF107991999999999999999999MA1100811999999MW1801REMMET082RJCT 010500Z 27003KT 7000 -SHRA SCT015 BKN025 23/20 Q1008 RMK 4ST015 7SC025 A2977;EQDQ01+000003PRSWM1Q02    003PRSWM1
0313474905999992000090106004+42900+143170FM-15+0084RJCT V0202601N001510120019N0050001N1+02201+02101999999ADDGA1021+004509999GA2021+007509999GA3071+012009999GF107991999999999999999999MA1100711999999MW1101MW2801REMMET165RJCT 010600Z 26003KT 5000 -SHRA BR FEW015 SCT025 BKN040 22/21 Q1007 RMK 2ST015 3SC025 7SC040 A2976 FCST 0615 TEMPO 0608 4000 BKN025CU TEMPO 0814 3000 -SHRA BKN008ST;EQDQ01+000003PRSWM1Q02    003PRSWM1
0247474905999992000090107004+42900+143170FM-15+0084RJCT V0202701N001010120019N0040001N1+02201+02101999999ADDGA1021+004509999GA2021+007509999GA3071+012009999GF107991999999999999999999MA1100711999999MW1101MW2801REMMET099RJCT 010700Z 27002KT 4000 -SHRA BR FEW015 SCT025 BKN040 22/21 Q1007 RMK 2ST015 4SC025 7SC040 A2974;EQDQ01+000003PRSWM1Q02    003PRSWM1
0277474905999992000090108004+42900+143170FM-15+0084RJCT V0202701N000510075019N0030001N1+02101+02101999999ADDGA1021+004509999GA2071+007509999GA3081+012009999GF108991999999999999999999MA1100711999999MW1101MW2801REMMET129RJCT 010800Z 27001KT 3000 -SHRA BR FEW015 BKN025 OVC040 21/21 Q1007 RMK 1ST015 6SC025 8SC040 A2974 FCST 0817 BECMG 0809 BKN008ST;EQDQ01+000003PRSWM1Q02    003PRSWM1
0156474905999992000090322004+42900+143170FM-15+0084RJCT V02099999999992200019N0112651N1+01801+01401999999ADDGA1021+006009999GF102991999999999999999999MA1101191999999MW1001REMMET062RJCT 032200Z VRB02KT 9999 FEW020 18/14 Q1012 RMK 1CU020 A2990;EQDQ01+000000PRSWM2
0172474905999992000090323004+42900+143170FM-15+0084RJCT V02099999999992200019N0112651N1+01901+01401999999ADDGA1021+006009999GF102991999999999999999999MA1101191999999MW1001REMMET078RJCT 032300Z VRB02KT 9999 FEW020 19/14 Q1012 RMK 1CU020 A2990 FCST 2308 NOSIG;EQDQ01+000000PRSWM2
0172474905999992000090400004+42900+143170FM-15+0084RJCT V02099999999992200019N0112651N1+02101+01301999999ADDGA1021+007509999GF104991999999999999999999MA1101191999999MW1001REMMET078RJCT 040000Z VRB03KT 9999 SCT025 21/13 Q1012 RMK 3CU025 A2989 FCST 0009 NOSIG;EQDQ01+000000PRSWM2
0156474905999992000090401004+42900+143170FM-15+0084RJCT V0202901N002110075019N0112651N1+02201+01301999999ADDGA1071+007509999GF107991999999999999999999MA1101191999999MW1001REMMET062RJCT 040100Z 29004KT 9999 BKN025 22/13 Q1012 RMK 5CU025 A2989;EQDQ01+000000PRSWM2
0156474905999992000090402004+42900+143170FM-15+0084RJCT V0202401N002112200019N0112651N1+02201+01401999999ADDGA1021+007509999GF104991999999999999999999MA1101191999999MW1001REMMET062RJCT 040200Z 24004KT 9999 SCT025 22/14 Q1012 RMK 4CU025 A2988;EQDQ01+000000PRSWM2
0172474905999992000090403004+42900+143170FM-15+0084RJCT V02099999999992200019N0112651N1+02301+01401999999ADDGA1021+009009999GF104991999999999999999999MA1101191999999MW1001REMMET078RJCT 040300Z VRB02KT 9999 SCT030 23/14 Q1012 RMK 3CU030 A2988 FCST 0312 NOSIG;EQDQ01+000000PRSWM2
0156474905999992000090404004+42900+143170FM-15+0084RJCT V0200401N002112200019N0112651N1+02401+01301999999ADDGA1021+009009999GF102991999999999999999999MA1101191999999MW1001REMMET062RJCT 040400Z 04004KT 9999 FEW030 24/13 Q1012 RMK 2CU030 A2988;EQDQ01+000000PRSWM2
0156474905999992000090405004+42900+143170FM-15+0084RJCT V0200401N002112200019N0112651N1+02401+01301999999ADDGA1021+009009999GF102991999999999999999999MA1101081999999MW1001REMMET062RJCT 040500Z 04004KT 9999 FEW030 24/13 Q1011 RMK 2CU030 A2986;EQDQ01+000000PRSWM2
0172474905999992000090406004+42900+143170FM-15+0084RJCT V0200601N002112200019N0112651N1+02401+01301999999ADDGA1021+009009999GF102991999999999999999999MA1101081999999MW1001REMMET078RJCT 040600Z 06004KT 9999 FEW030 24/13 Q1011 RMK 1CU030 A2985 FCST 0615 NOSIG;EQDQ01+000000PRSWM2
0156474905999992000090407004+42900+143170FM-15+0084RJCT V0200501N001512200019N0112651N1+02401+01301999999ADDGA1021+012009999GF102991999999999999999999MA1101021999999MW1001REMMET062RJCT 040700Z 05003KT 9999 FEW040 24/13 Q1010 RMK 1CU040 A2984;EQDQ01+000000PRSWM2
0172474905999992000090408004+42900+143170FM-15+0084RJCT V02099999999992200019N0112651N1+02201+01401999999ADDGA1021+009009999GF102991999999999999999999MA1101021999999MW1001REMMET078RJCT 040800Z VRB03KT 9999 FEW030 22/14 Q1010 RMK 1CU030 A2984 FCST 0817 NOSIG;EQDQ01+000000PRSWM2
0177474905999992000090422004+42900+143170FM-15+0084RJCT V0200801N00051000151CN0001001N1+01201+01201999999ADDGA1091+000159999GF109991999999000251999999MA1101081999999MW1451MW2511REMMET061RJCT 042200Z 08001KT 0100 -DZ FG VV001 12/12 Q1011 RMK A2986;EQDQ01+000003PRSWM1Q02    003PRSWM1
0242474905999992000090423004+42900+143170FM-15+0084RJCT V0201401N00101000151CN0006001N1+01301+01301999999ADDGA1091+000159999GF109991999999000251999999MA1101081999999MW1451MW2511REMMET126RJCT 042300Z 14002KT 0600 -DZ FG VV001 13/13 Q1011 RMK A2987 FCST 2308 BECMG 2300 NSW BECMG 0001 BKN012ST BECMG 0102 SCT015ST;EQDQ01+000003PRSWM1Q02    003PRSWM1
0195474905999992000090423244+42900+143170FM-16+0084RJCT V0201401N001010006019N0016001N1+01301+01301999999ADDGA1081+000609999GF108991999999999999999999MA1101081999999MW1511REMMET069RJCT 042324Z 14002KT 1600 -DZ BR OVC002 13/13 Q1011 RMK 8ST002 A2986;EQDQ01+000100PRSWM3Q02+000003PRSWM1Q03    003PRSWM1
0229474905999992000090500004+42900+143170FM-15+0084RJCT V0200801N001010009019N0030001N1+01401+01301999999ADDGA1081+000909999GF108991999999999999999999MA1101081999999MW1101REMMET119RJCT 050000Z 08002KT 3000 BR OVC003 14/13 Q1011 RMK 8ST003 A2987 FCST 0009 BECMG 0001 NSW BKN010ST BECMG 0102 SCT015ST;EQDQ01+000003PRSWM1Q02    003PRSWM1
0175474905999992000090500294+42900+143170FM-16+0084RJCT V0201201N000512200019N0050001N1+01501+01301999999ADDGA1021+001509999GF104991999999999999999999MA1101081999999MW1101REMMET065RJCT 050029Z 12001KT 5000 BR SCT005 15/13 Q1011 RMK 4ST005 A2986;EQDQ01+000003PRSWM1Q02    003PRSWM1
0156474905999992000090501004+42900+143170FM-15+0084RJCT V0200601N001012200019N0070001N1+01701+01401999999ADDGA1021+001809999GF102991999999999999999999MA1101081999999MW1001REMMET062RJCT 050100Z 06002KT 7000 FEW006 17/14 Q1011 RMK 1ST006 A2986;EQDQ01+000000PRSWM2
0156474905999992000090502004+42900+143170FM-15+0084RJCT V0200501N001512200019N0112651N1+02001+01501999999ADDGA1021+003009999GF102991999999999999999999MA1101021999999MW1001REMMET062RJCT 050200Z 05003KT 9999 FEW010 20/15 Q1010 RMK 1ST010 A2984;EQDQ01+000000PRSWM2
0194474905999992000090503004+42900+143170FM-15+0084RJCT V0200901N001512200019N0112651N1+02301+01701999999ADDGA1021+003009999GF102991999999999999999999MA1101021999999MW1001REMMET100RJCT 050300Z 09003KT 9999 FEW010 23/17 Q1010 RMK 1ST010 A2983 FCST 0312 BECMG 1011 4000 BR BKN010ST;EQDQ01+000000PRSWM2
0156474905999992000090504004+42900+143170FM-15+0084RJCT V0200801N001512200019N0112651N1+02401+01701999999ADDGA1021+006009999GF102991999999999999999999MA1100911999999MW1001REMMET062RJCT 050400Z 08003KT 9999 FEW020 24/17 Q1009 RMK 2CU020 A2981;EQDQ01+000000PRSWM2
0156474905999992000090505004+42900+143170FM-15+0084RJCT V0200801N001512200019N0112651N1+02401+01701999999ADDGA1021+006009999GF102991999999999999999999MA1100911999999MW1001REMMET062RJCT 050500Z 08003KT 9999 FEW020 24/17 Q1009 RMK 2CU020 A2980;EQDQ01+000000PRSWM2
0194474905999992000090506004+42900+143170FM-15+0084RJCT V0201601N002612200019N0112651N1+02501+01801999999ADDGA1021+006009999GF104991999999999999999999MA1100911999999MW1001REMMET100RJCT 050600Z 16005KT 9999 SCT020 25/18 Q1009 RMK 3CU020 A2980 FCST 0615 BECMG 1011 4000 BR BKN010ST;EQDQ01+000000PRSWM2
0156474905999992000090507004+42900+143170FM-15+0084RJCT V0201601N004612200019N0112651N1+02301+01501999999ADDGA1021+006009999GF102991999999999999999999MA1100911999999MW1001REMMET062RJCT 050700Z 16009KT 9999 FEW020 23/15 Q1009 RMK 1CU020 A2979;EQDQ01+000000PRSWM2
0194474905999992000090508004+42900+143170FM-15+0084RJCT V0201701N003112200019N0112651N1+02101+01601999999ADDGA1021+006009999GF102991999999999999999999MA1100911999999MW1001REMMET100RJCT 050800Z 17006KT 9999 FEW020 21/16 Q1009 RMK 1CU020 A2980 FCST 0817 BECMG 1011 4000 BR BKN010ST;EQDQ01+000000PRSWM2
0257474905999992000090522244+42900+143170FM-16+0084RJCT V0209999C000010030019N0015001N1+01501+01501999999ADDGA1021+001809999GA2071+003009999GA3081+006009999GF108991999999999999999999MA1101081999999MW1801REMMET099RJCT 052224Z 00000KT 1500 -SHRA BR SCT006 BKN010 OVC020 15/15 Q1011 RMK 4ST006 6ST010 8SC020 A2986;EQDQ01+000100PRSWM3Q02+000003PRSWM1Q03    003PRSWM1
0217474905999992000090523454+42900+143170FM-15+0084RJCT V0201201N000510018019N0015001N1+01501+01401999999ADDGA1071+001809999GA2081+006009999GF108991999999999999999999MA1101081999999MW1101MW2801REMMET085RJCT 052345Z 12001KT 1500 -SHRA BR BKN006 OVC020 15/14 Q1011 RMK 5ST006 8SC020 A2986;EQDQ01+000003PRSWM1Q02    003PRSWM1
0290474905999992000090600004+42900+143170FM-15+0084RJCT V0201201N000510018019N0015001N1+01501+01501999999ADDGA1071+001809999GA2081+006009999GF108991999999999999999999MA1101081999999MW1101MW2801REMMET158RJCT 060000Z 12001KT 1500 -SHRA BR BKN006 OVC020 15/15 Q1011 RMK 5ST006 8SC020 A2986 FCST 0009 BECMG 0102 NSW BKN010ST TEMPO 0204 4000 -SHRA TEMPO 0409 -SHRA;EQDQ01+000003PRSWM1Q02    003PRSWM1
0257474905999992000090600114+42900+143170FM-16+0084RJCT V0200701N000510009019N0015001N1+01501+01501999999ADDGA1071+000909999GA2071+003009999GA3081+006009999GF108991999999999999999999MA1101081999999MW1801REMMET099RJCT 060011Z 07001KT 1500 -SHRA BR BKN003 BKN010 OVC020 15/15 Q1011 RMK 6ST003 7ST010 8SC020 A2986;EQDQ01+000100PRSWM3Q02+000003PRSWM1Q03    003PRSWM1
0217474905999992000090601004+42900+143170FM-15+0084RJCT V0200801N001510012019N0016001N1+01601+01501999999ADDGA1071+001209999GA2081+007509999GF108991999999999999999999MA1101021999999MW1101MW2801REMMET085RJCT 060100Z 08003KT 1600 -SHRA BR BKN004 OVC025 16/15 Q1010 RMK 5ST004 8SC025 A2984;EQDQ01+000003PRSWM1Q02    003PRSWM1
0217474905999992000090602004+42900+143170FM-15+0084RJCT V0200501N001010012019N0016001N1+01601+01501999999ADDGA1071+001209999GA2081+007509999GF108991999999999999999999MA1101021999999MW1101MW2801REMMET085RJCT 060200Z 05002KT 1600 -SHRA BR BKN004 OVC025 16/15 Q1010 RMK 6ST004 8SC025 A2982;EQDQ01+000003PRSWM1Q02    003PRSWM1
0266474905999992000090603004+42900+143170FM-15+0084RJCT V0200801N001010015019N0016001N1+01601+01501999999ADDGA1071+001509999GA2081+007809999GF108991999999999999999999MA1100911999999MW1101MW2511REMMET134RJCT 060300Z 08002KT 1600 -DZ BR BKN005 OVC026 16/15 Q1009 RMK 5ST005 8SC026 A2981 FCST 0312 BECMG 0506 NSW BKN010ST TEMPO 0612 -SHRA;EQDQ01+000003PRSWM1Q02    003PRSWM1
0236474905999992000090604004+42900+143170FM-15+0084RJCT V0200901N001010036019N0080001N1+01601+01501999999ADDGA1021+002409999GA2071+003609999GA3081+007509999GF108991999999999999999999MA1100811999999MW1511REMMET094RJCT 060400Z 09002KT 8000 -DZ FEW008 BKN012 OVC025 16/15 Q1008 RMK 1ST008 6ST012 8SC025 A2978;EQDQ01+000003PRSWM1Q02    003PRSWM1
0236474905999992000090605004+42900+143170FM-15+0084RJCT V02099999999990030019N0112651N1+01601+01501999999ADDGA1021+001809999GA2071+003009999GA3081+007509999GF108991999999999999999999MA1100811999999MW1511REMMET094RJCT 060500Z VRB01KT 9999 -DZ FEW006 BKN010 OVC025 16/15 Q1008 RMK 1ST006 6ST010 8SC025 A2977;EQDQ01+000003PRSWM1Q02    003PRSWM1
0282474905999992000090606004+42900+143170FM-15+0084RJCT V0203501N000510030019N0112651N1+01601+01501999999ADDGA1021+001509999GA2071+003009999GA3081+007509999GF108991999999999999999999MA1100811999999MW1801REMMET140RJCT 060600Z 35001KT 9999 -SHRA FEW005 BKN010 OVC025 16/15 Q1008 RMK 2ST005 6ST010 8SC025 A2978 FCST 0615 TEMPO 0608 4500 BR BECMG 1012 NSW;EQDQ01+000003PRSWM1Q02    003PRSWM1
0238474905999992000090607004+42900+143170FM-15+0084RJCT V02099999999990030019N0112651N1+01601+01501999999ADDGA1021+001509999GA2071+003009999GA3081+007509999GF108991999999999999999999MA1100811999999MW1801REMMET096RJCT 060700Z VRB01KT 9999 -SHRA FEW005 BKN010 OVC025 16/15 Q1008 RMK 2ST005 5ST010 8SC025 A2976;EQDQ01+000003PRSWM1Q02    003PRSWM1
0232474905999992000090608004+42900+143170FM-15+0084RJCT V02099999999990060019N0112651N1+01701+01601999999ADDGA1021+001509999GA2071+006009999GA3071+010509999GF107991999999999999999999MA1100711999999MW1001REMMET106RJCT 060800Z VRB01KT 9999 FEW005 BKN020 BKN035 17/16 Q1007 RMK 1ST005 5CU020 7SC035 A2975 FCST 0817 NOSIG;EQDQ01+000000PRSWM2
0177474905999992000090622004+42900+143170FM-15+0084RJCT V0209999C00001000151CN0006001N1+01501+01501999999ADDGA1091+000159999GF109991999999000251999999MA1101021999999MW1451MW2511REMMET061RJCT 062200Z 00000KT 0600 -DZ FG VV008 15/15 Q1010 RMK A2984;EQDQ01+000003PRSWM1Q02    003PRSWM1
0177474905999992000090622474+42900+143170FM-16+0084RJCT V0209999999999000151CN0006001N1+01501+01501999999ADDGA1091+000159999GF109991999999000251999999MA1101021999999MW1451MW2511REMMET061RJCT 062247Z VRB02KT 0600 -DZ FG VV002 15/15 Q1010 RMK A2984;EQDQ01+000003PRSWM1Q02    003PRSWM1
0260474905999992000090623004+42900+143170FM-15+0084RJCT V0209999999999000151CN0006001N1+01501+01501999999ADDGA1091+000159999GF109991999999000251999999MA1101021999999MW1451MW2511REMMET144RJCT 062300Z VRB01KT 0600 -DZ FG VV002 15/15 Q1010 RMK A2984 FCST 2308 BECMG 2300 NSW BKN010ST BECMG 0001 SCT010ST TEMPO 0608 SCT030CU BKN100AC;EQDQ01+000003PRSWM1Q02    003PRSWM1
0205474905999992000090623124+42900+143170FM-16+0084RJCT V02099999999990009019N0009001N1+01501+01501999999ADDGA1021+000609999GA2071+000909999GF107991999999999999999999MA1101021999999MW1441REMMET079RJCT 062312Z VRB02KT 0900 FG SCT002 BKN003 15/15 Q1010 RMK 3ST002 7ST003 A2983;EQDQ01+000003PRSWM1Q02    003PRSWM1
0235474905999992000090623344+42900+143170FM-16+0084RJCT V02099999999990012019N0016001N1+01601+01601999999ADDGA1021+000909999GA2071+001209999GA3071+002709999GF107991999999999999999999MA1101021999999MW1101REMMET093RJCT 062334Z VRB02KT 1600 BR SCT003 BKN004 BKN009 16/16 Q1010 RMK 3ST003 5ST004 7ST009 A2983;EQDQ01+000003PRSWM1Q02    003PRSWM1
0309474905999992000090700004+42900+143170FM-15+0084RJCT V02099999999990060019N0018001N1+01701+01601999999ADDGA1021+001209999GA2021+001809999GA3071+006009999GF107991999999999999999999MA1101021999999MW1101REMMET167RJCT 070000Z VRB02KT 1800 BR FEW004 SCT006 BKN020 17/16 Q1010 RMK 1ST004 3ST006 6CU020 A2984 FCST 0009 BECMG 0000 NSW BECMG 0001 SCT020CU TEMPO 0609 SCT030CU BKN100AC;EQDQ01+000003PRSWM1Q02    003PRSWM1
0205474905999992000090700254+42900+143170FM-15+0084RJCT V02099999999992200019N0025001N1+01901+01701999999ADDGA1021+001509999GA2021+007509999GF104991999999999999999999MA1101021999999MW1101REMMET079RJCT 070025Z VRB01KT 2500 BR FEW005 SCT025 19/17 Q1010 RMK 1ST005 3CU025 A2984;EQDQ01+000003PRSWM1Q02    003PRSWM1
0186474905999992000090700494+42900+143170FM-16+0084RJCT V02099999999992200019N0080001N1+02001+01701999999ADDGA1021+007509999GA2021+024009999GF104991999999999999999999MA1101021999999MW1001REMMET076RJCT 070049Z VRB01KT 8000 FEW025 SCT080 20/17 Q1010 RMK 1CU025 3AC080 A2983;EQDQ01+000000PRSWM2
0186474905999992000090701004+42900+143170FM-15+0084RJCT V02099999999992200019N0080001N1+02101+01801999999ADDGA1021+007509999GA2021+024009999GF104991999999999999999999MA1101021999999MW1001REMMET076RJCT 070100Z VRB01KT 8000 FEW025 SCT080 21/18 Q1010 RMK 1CU025 3AC080 A2983;EQDQ01+000000PRSWM2
0156474905999992000090702004+42900+143170FM-15+0084RJCT V02099999999992200019N0112651N1+02401+01801999999ADDGA1021+009009999GF102991999999999999999999MA1100911999999MW1001REMMET062RJCT 070200Z VRB03KT 9999 FEW030 24/18 Q1009 RMK 1CU030 A2981;EQDQ01+000000PRSWM2
0232474905999992000090703004+42900+143170FM-15+0084RJCT V0201601N002110540019N0112651N1+02401+01901999999ADDGA1021+009009999GA2021+024009999GA3071+054009999GF107991999999999999999999MA1100911999999MW1001REMMET106RJCT 070300Z 16004KT 9999 FEW030 SCT080 BKN180 24/19 Q1009 RMK 1CU030 3AC080 5CI180 A2981 FCST 0312 NOSIG;EQDQ01+000000PRSWM2
0216474905999992000090704004+42900+143170FM-15+0084RJCT V0201401N001510540019N0112651N1+02501+02001999999ADDGA1021+010509999GA2021+030009999GA3071+054009999GF107991999999999999999999MA1100911999999MW1001REMMET090RJCT 070400Z 14003KT 9999 FEW035 SCT100 BKN180 25/20 Q1009 RMK 2CU035 3AC100 6CI180 A2980;EQDQ01+000000PRSWM2
0216474905999992000090705004+42900+143170FM-15+0084RJCT V02099999999990750019N0112651N1+02501+02001999999ADDGA1021+009009999GA2021+045009999GA3071+075009999GF107991999999999999999999MA1100911999999MW1001REMMET090RJCT 070500Z VRB02KT 9999 FEW030 SCT150 BKN250 25/20 Q1009 RMK 1CU030 3AC150 6CI250 A2980;EQDQ01+000000PRSWM2
0232474905999992000090706004+42900+143170FM-15+0084RJCT V02099999999990750019N0112651N1+02601+02001999999ADDGA1021+010509999GA2021+042009999GA3071+075009999GF107991999999999999999999MA1100911999999MW1001REMMET106RJCT 070600Z VRB01KT 9999 FEW035 SCT140 BKN250 26/20 Q1009 RMK 1CU035 3AC140 7CI250 A2980 FCST 0615 NOSIG;EQDQ01+000000PRSWM2
0216474905999992000090707004+42900+143170FM-15+0084RJCT V0201201N002610750019N0112651N1+02501+02101999999ADDGA1021+009009999GA2021+042009999GA3071+075009999GF107991999999999999999999MA1100911999999MW1001REMMET090RJCT 070700Z 12005KT 9999 FEW030 SCT140 BKN250 25/21 Q1009 RMK 1CU030 4AC140 6CI250 A2981;EQDQ01+000000PRSWM2
0232474905999992000090708004+42900+143170FM-15+0084RJCT V0200201N002110750019N0112651N1+02401+02101999999ADDGA1021+007509999GA2021+042009999GA3071+075009999GF107991999999999999999999MA1100911999999MW1001REMMET106RJCT 070800Z 02004KT 9999 FEW025 SCT140 BKN250 24/21 Q1009 RMK 1CU025 3AC140 6CI250 A2981 FCST 0817 NOSIG;EQDQ01+000000PRSWM2
0186474905999992000090722004+42900+143170FM-15+0084RJCT V0202901N002612200019N0112651N1+01801+01301999999ADDGA1021+004509999GA2021+060009999GF104991999999999999999999MA1101691999999MW1001REMMET076RJCT 072200Z 29005KT 9999 FEW015 SCT200 18/13 Q1017 RMK 2SC015 4CC200 A3005;EQDQ01+000000PRSWM2
0216474905999992000090723004+42900+143170FM-15+0084RJCT V0203001N002112200019N0112651N1+01901+01301999999ADDGA1021+009009999GA2021+018009999GF104991999999999999999999MA1101801999999MW1001REMMET106RJCT 072300Z 30004KT 9999 FEW030 SCT060 19/13 Q1018 RMK 2SC030 3SC060 A3006 FCST 2308 TEMPO 0308 BKN100AC;EQDQ01+000000PRSWM2
0172474905999992000090800004+42900+143170FM-15+0084RJCT V02099999999992200019N0112651N1+02101+01501999999ADDGA1021+009009999GF102991999999999999999999MA1101801999999MW1001REMMET078RJCT 080000Z VRB02KT 9999 FEW030 21/15 Q1018 RMK 1CU030 A3007 FCST 0009 NOSIG;EQDQ01+000000PRSWM2
0156474905999992000090801004+42900+143170FM-15+0084RJCT V02099999999992200019N0112651N1+02301+01501999999ADDGA1021+009009999GF104991999999999999999999MA1101801999999MW1001REMMET062RJCT 080100Z VRB02KT 9999 SCT030 23/15 Q1018 RMK 3CU030 A3008;EQDQ01+000000PRSWM2
0186474905999992000090802004+42900+143170FM-15+0084RJCT V02099999999992200019N0112651N1+02301+01501999999ADDGA1021+009009999GA2021+048009999GF104991999999999999999999MA1101801999999MW1001REMMET076RJCT 080200Z VRB02KT 9999 SCT030 SCT160 23/15 Q1018 RMK 3CU030 4AC160 A3008;EQDQ01+000000PRSWM2
0172474905999992000090803004+42900+143170FM-15+0084RJCT V02099999999992200019N0112651N1+02401+01601999999ADDGA1021+009009999GF104991999999999999999999MA1101801999999MW1001REMMET078RJCT 080300Z VRB02KT 9999 SCT030 24/16 Q1018 RMK 3CU030 A3007 FCST 0312 NOSIG;EQDQ01+000000PRSWM2
0186474905999992000090803394+42900+143170FM-16+0084RJCT V0202201N002610480019N0112651N1+02501+01501999999ADDGA1021+010509999GA2071+048009999GF107991999999999999999999MA1101801999999MW1001REMMET076RJCT 080339Z 22005KT 9999 FEW035 BKN160 25/15 Q1018 RMK 2CU035 5AC160 A3006;EQDQ01+000000PRSWM2
0194474905999992000090804344+42900+143170FM-16+0084RJCT V0201601N002112200019N0112651N1+02501+01401999999ADDGA1021+010509999GA2021+048009999GF104991999999999999999999MA1101801999999MW1001REMMET084RJCT 080434Z 16004KT 080V240 9999 FEW035 SCT160 25/14 Q1018 RMK 1CU035 3AC160 A3006;EQDQ01+000000PRSWM2
0224474905999992000090805004+42900+143170FM-15+0084RJCT V0202201N002110480019N0112651N1+02501+01401999999ADDGA1021+009009999GA2021+018009999GA3071+048009999GF107991999999999999999999MA1101801999999MW1001REMMET098RJCT 080500Z 22004KT 150V300 9999 FEW030 SCT060 BKN160 25/14 Q1018 RMK 1CU030 3SC060 5AC160 A3006;EQDQ01+000000PRSWM2
0266474905999992000090806004+42900+143170FM-15+0084RJCT V0201601N004610480019N0112651N1+02301+01701999999ADDGA1021+009009999GA2021+024009999GA3071+048009999GF107991999999999999999999MA1101801999999MW1001REMMET140RJCT 080600Z 16009KT 9999 FEW030 SCT080 BKN160 23/17 Q1018 RMK 1CU030 4AC080 5AC160 A3007 FCST 0615 TEMPO 0609 BKN080AC TEMPO 0915 BKN010ST;EQDQ01+000000PRSWM2
0216474905999992000090807004+42900+143170FM-15+0084RJCT V0201701N004110240019N0112651N1+02101+01701999999ADDGA1021+009009999GA2071+024009999GA3071+048009999GF107991999999999999999999MA1101801999999MW1001REMMET090RJCT 080700Z 17008KT 9999 FEW030 BKN080 BKN160 21/17 Q1018 RMK 1CU030 5AC080 6AC160 A3008;EQDQ01+000000PRSWM2
0254474905999992000090808004+42900+143170FM-15+0084RJCT V0201601N002610240019N0112651N1+02001+01701999999ADDGA1021+009009999GA2071+024009999GA3071+048009999GF107991999999999999999999MA1101901999999MW1001REMMET128RJCT 080800Z 16005KT 9999 FEW030 BKN080 BKN160 20/17 Q1019 RMK 1CU030 5AC080 6AC160 A3009 FCST 0817 BECMG 1011 4000 BR BKN010ST;EQDQ01+000000PRSWM2
0245474905999992000090822004+42900+143170FM-15+0084RJCT V02099999999990060019N0030001N1+01401+01401999999ADDGA1021+001809999GA2021+003609999GA3081+006009999GF108991999999999999999999MA1102201999999MW1101MW2511REMMET097RJCT 082200Z VRB01KT 3000 -DZ BR FEW006 SCT012 OVC020 14/14 Q1022 RMK 2ST006 4ST012 8SC020 A3020;EQDQ01+000003PRSWM1Q02    003PRSWM1
0255474905999992000090822134+42900+143170FM-16+0084RJCT V0201801N001010027019N0030001N1+01501+01401999999ADDGA1021+000909999GA2071+002709999GA3081+006009999GF108991999999999999999999MA1102201999999MW1511REMMET097RJCT 082213Z 18002KT 3000 -DZ BR SCT003 BKN009 OVC020 15/14 Q1022 RMK 3ST003 5ST009 8SC020 A3020;EQDQ01+000100PRSWM3Q02+000003PRSWM1Q03    003PRSWM1
0247474905999992000090823004+42900+143170FM-15+0084RJCT V0201001N000510024019N0016001N1+01501+01401999999ADDGA1021+000909999GA2071+002409999GA3081+006009999GF108991999999999999999999MA1102301999999MW1101MW2801REMMET099RJCT 082300Z 10001KT 1600 -SHRA BR SCT003 BKN008 OVC020 15/14 Q1023 RMK 3ST003 6ST008 8SC020 A3021;EQDQ01+000003PRSWM1Q02    003PRSWM1
0257474905999992000090823274+42900+143170FM-16+0084RJCT V02099999999990027019N0012001N1+01501+01401999999ADDGA1021+001509999GA2071+002709999GA3081+004509999GF108991999999999999999999MA1102301999999MW1801REMMET099RJCT 082327Z VRB01KT 1200 -SHRA BR SCT005 BKN009 OVC015 15/14 Q1023 RMK 3ST005 6ST009 8SC015 A3022;EQDQ01+000100PRSWM3Q02+000003PRSWM1Q03    003PRSWM1
0257474905999992000090823334+42900+143170FM-16+0084RJCT V02099999999990027019N0015001N1+01501+01401999999ADDGA1021+001509999GA2071+002709999GA3081+004509999GF108991999999999999999999MA1102301999999MW1801REMMET099RJCT 082333Z VRB01KT 1500 -SHRA BR SCT005 BKN009 OVC015 15/14 Q1023 RMK 3ST005 6ST009 8SC015 A3022;EQDQ01+000100PRSWM3Q02+000003PRSWM1Q03    003PRSWM1
0216474905999992000090901344+42900+143170FM-16+0084RJCT V0201101N001510060019N0090001N1+01501+01401999999ADDGA1021+001809999GA2021+002409999GA3081+006009999GF108991999999999999999999MA1102201999999MW1001REMMET090RJCT 090134Z 11003KT 9000 FEW006 SCT008 OVC020 15/14 Q1022 RMK 1ST006 4ST008 8SC020 A3020;EQDQ01+000000PRSWM2
0216474905999992000090902004+42900+143170FM-15+0084RJCT V0201301N002610054019N0112651N1+01601+01401999999ADDGA1021+002109999GA2021+002709999GA3081+005409999GF108991999999999999999999MA1102201999999MW1001REMMET090RJCT 090200Z 13005KT 9999 FEW007 SCT009 OVC018 16/14 Q1022 RMK 1ST007 4ST009 8SC018 A3020;EQDQ01+000000PRSWM2
0186474905999992000091004004+42900+143170FM-15+0084RJCT V0201001N001510045019N0112651N1+01701+01301999999ADDGA1021+003609999GA2071+004509999GF107991999999999999999999MA1101291999999MW1001REMMET076RJCT 100400Z 10003KT 9999 SCT012 BKN015 17/13 Q1013 RMK 4SC012 7SC015 A2993;EQDQ01+000000PRSWM2
0216474905999992000091005004+42900+143170FM-15+0084RJCT V0200901N001510045019N0112651N1+01701+01301999999ADDGA1021+003609999GA2071+004509999GA3081+006009999GF108991999999999999999999MA1101291999999MW1001REMMET090RJCT 100500Z 09003KT 9999 FEW012 BKN015 OVC020 17/13 Q1013 RMK 2SC012 6SC015 8SC020 A2992;EQDQ01+000000PRSWM2
0246474905999992000091023004+42900+143170FM-15+0084RJCT V0200901N000510030019N0112651N1+01601+01401999999ADDGA1021+002409999GA2071+003009999GA3071+012009999GF107991999999999999999999MA1101591999999MW1001REMMET120RJCT 102300Z 09001KT 9999 FEW008 BKN010 BKN040 16/14 Q1016 RMK 2ST008 6ST010 6SC040 A3000 FCST 2308 TEMPO 2301 BKN008ST;EQDQ01+000000PRSWM2
0216474905999992000091100004+42900+143170FM-15+0084RJCT V0202301N001010036019N0112651N1+01601+01501999999ADDGA1021+002409999GA2071+003609999GF107991999999999999999999MA1101591999999MW1001REMMET106RJCT 110000Z 23002KT 9999 FEW008 BKN012 16/15 Q1016 RMK 1ST008 7SC012 A3002 FCST 0009 TEMPO 0809 BKN008ST;EQDQ01+000000PRSWM2
0186474905999992000091101004+42900+143170FM-15+0084RJCT V0202101N001510039019N0112651N1+01701+01401999999ADDGA1021+003009999GA2071+003909999GF107991999999999999999999MA1101591999999MW1001REMMET076RJCT 110100Z 21003KT 9999 FEW010 BKN013 17/14 Q1016 RMK 2ST010 7ST013 A3002;EQDQ01+000000PRSWM2
0186474905999992000091102004+42900+143170FM-15+0084RJCT V0201801N002110045019N0112651N1+01901+01501999999ADDGA1021+003909999GA2071+004509999GF107991999999999999999999MA1101591999999MW1001REMMET076RJCT 110200Z 18004KT 9999 FEW013 BKN015 19/15 Q1016 RMK 2ST013 7SC015 A3002;EQDQ01+000000PRSWM2
0246474905999992000091108004+42900+143170FM-15+0084RJCT V0201101N002110045019N0112651N1+01701+01501999999ADDGA1021+003009999GA2071+004509999GA3081+009009999GF108991999999999999999999MA1101691999999MW1001REMMET120RJCT 110800Z 11004KT 9999 SCT010 BKN015 OVC030 17/15 Q1017 RMK 3ST010 6SC015 8SC030 A3003 FCST 0817 BECMG 0910 BKN008ST;EQDQ01+000000PRSWM2
0215474905999992000091122004+42900+143170FM-15+0084RJCT V0202901N002110060019N0025001N1+01501+01501999999ADDGA1021+000609999GA2081+006009999GF108991999999999999999999MA1101591999999MW1101MW2611REMMET083RJCT 112200Z 29004KT 2500 -RA BR SCT002 OVC020 15/15 Q1016 RMK 4ST002 8SC020 A3000;EQDQ01+000003PRSWM1Q02    003PRSWM1
0279474905999992000091200004+42900+143170FM-15+0084RJCT V0202801N001510060019N0030001N1+01501+01501999999ADDGA1021+001209999GA2081+006009999GF108991999999999999999999MA1101491999999MW1101MW2801REMMET147RJCT 120000Z 28003KT 3000 -SHRA BR SCT004 OVC020 15/15 Q1015 RMK 4ST004 8SC020 A2999 FCST 0009 TEMPO 0001 BKN004ST BECMG 0102 NSW TEMPO 0203 -SHRA;EQDQ01+000003PRSWM1Q02    003PRSWM1
0217474905999992000091201004+42900+143170FM-15+0084RJCT V0202501N001010060019N0050001N1+01601+01501999999ADDGA1021+001809999GA2071+006009999GF107991999999999999999999MA1101491999999MW1101MW2801REMMET085RJCT 120100Z 25002KT 5000 -SHRA BR SCT006 BKN020 16/15 Q1015 RMK 3ST006 7SC020 A2999;EQDQ01+000003PRSWM1Q02    003PRSWM1
0216474905999992000091202004+42900+143170FM-15+0084RJCT V0201301N000510060019N0112651N1+01701+01501999999ADDGA1021+000609999GA2021+001809999GA3071+006009999GF107991999999999999999999MA1101491999999MW1001REMMET090RJCT 120200Z 13001KT 9999 FEW002 SCT006 BKN020 17/15 Q1015 RMK 1ST002 4ST006 6SC020 A2997;EQDQ01+000000PRSWM2
0232474905999992000091203004+42900+143170FM-15+0084RJCT V0202101N000510090019N0112651N1+01801+01501999999ADDGA1021+000909999GA2021+002109999GA3071+009009999GF107991999999999999999999MA1101391999999MW1001REMMET106RJCT 120300Z 21001KT 9999 FEW003 SCT007 BKN030 18/15 Q1014 RMK 1ST003 3ST007 5SC030 A2997 FCST 0312 NOSIG;EQDQ01+000000PRSWM2
0216474905999992000091204004+42900+143170FM-15+0084RJCT V02099999999990240019N0112651N1+02001+01501999999ADDGA1021+002409999GA2021+009009999GA3071+024009999GF107991999999999999999999MA1101491999999MW1001REMMET090RJCT 120400Z VRB01KT 9999 FEW008 SCT030 BKN080 20/15 Q1015 RMK 1ST008 3CU030 6AC080 A2997;EQDQ01+000000PRSWM2
0186474905999992000091205004+42900+143170FM-15+0084RJCT V0201501N001010600019N0112651N1+02001+01501999999ADDGA1021+005109999GA2071+060009999GF107991999999999999999999MA1101391999999MW1001REMMET076RJCT 120500Z 15002KT 9999 SCT017 BKN200 20/15 Q1014 RMK 3CU017 6CI200 A2996;EQDQ01+000000PRSWM2
0202474905999992000091206004+42900+143170FM-15+0084RJCT V0202401N002110600019N0112651N1+02101+01501999999ADDGA1021+005409999GA2071+060009999GF107991999999999999999999MA1101391999999MW1001REMMET092RJCT 120600Z 24004KT 9999 FEW018 BKN200 21/15 Q1014 RMK 1CU018 6CI200 A2995 FCST 0615 NOSIG;EQDQ01+000000PRSWM2
0186474905999992000091207004+42900+143170FM-15+0084RJCT V0202101N002110600019N0112651N1+02001+01401999999ADDGA1021+005409999GA2071+060009999GF107991999999999999999999MA1101391999999MW1001REMMET076RJCT 120700Z 21004KT 9999 FEW018 BKN200 20/14 Q1014 RMK 1CU018 6CI200 A2996;EQDQ01+000000PRSWM2
0202474905999992000091208004+42900+143170FM-15+0084RJCT V0201501N001510600019N0112651N1+01801+01501999999ADDGA1021+007509999GA2071+060009999GF107991999999999999999999MA1101491999999MW1001REMMET092RJCT 120800Z 15003KT 9999 FEW025 BKN200 18/15 Q1015 RMK 1SC025 5CI200 A2997 FCST 0817 NOSIG;EQDQ01+000000PRSWM2
0235474905999992000091222004+42900+143170FM-15+0084RJCT V02099999999990018019N0050001N1+01501+01401999999ADDGA1021+001209999GA2071+001809999GA3071+006009999GF107991999999999999999999MA1102001999999MW1101REMMET093RJCT 122200Z VRB01KT 5000 BR FEW004 BKN006 BKN020 15/14 Q1020 RMK 1ST004 6ST006 7SC020 A3013;EQDQ01+000003PRSWM1Q02    003PRSWM1
0266474905999992000091223004+42900+143170FM-15+0084RJCT V0202601N001510360019N0070001N1+01701+01501999999ADDGA1021+001809999GA2021+012009999GA3071+036009999GF107991999999999999999999MA1102001999999MW1001REMMET140RJCT 122300Z 26003KT 7000 FEW006 SCT040 BKN120 17/15 Q1020 RMK 2ST006 4SC040 6AC120 A3013 FCST 2308 TEMPO 2300 BKN008ST TEMPO 0608 BKN030CU;EQDQ01+000000PRSWM2
0216474905999992000091223134+42900+143170FM-16+0084RJCT V0202601N001010018019N0070001N1+01701+01501999999ADDGA1071+001809999GA2071+012009999GA3071+036009999GF107991999999999999999999MA1102001999999MW1001REMMET090RJCT 122313Z 26002KT 7000 BKN006 BKN040 BKN120 17/15 Q1020 RMK 6ST006 5SC040 6AC120 A3014;EQDQ01+000000PRSWM2
0216474905999992000091300004+42900+143170FM-15+0084RJCT V0202801N001510024019N0090001N1+01801+01501999999ADDGA1071+002409999GA2071+012009999GF107991999999999999999999MA1102101999999MW1001REMMET106RJCT 130000Z 28003KT 9000 BKN008 BKN040 18/15 Q1021 RMK 6ST008 7SC040 A3015 FCST 0009 BECMG 0001 BKN012ST;EQDQ01+000000PRSWM2
0186474905999992000091300324+42900+143170FM-16+0084RJCT V02099999999990030019N0112651N1+01801+01501999999ADDGA1071+003009999GA2071+012009999GF107991999999999999999999MA1102101999999MW1001REMMET076RJCT 130032Z VRB02KT 9999 BKN010 BKN040 18/15 Q1021 RMK 6ST010 7SC040 A3015;EQDQ01+000000PRSWM2
0186474905999992000091301004+42900+143170FM-15+0084RJCT V02099999999990036019N0112651N1+01801+01401999999ADDGA1071+003609999GA2071+012009999GF107991999999999999999999MA1102101999999MW1001REMMET076RJCT 130100Z VRB01KT 9999 BKN012 BKN040 18/14 Q1021 RMK 6ST012 7SC040 A3016;EQDQ01+000000PRSWM2
0186474905999992000091302004+42900+143170FM-15+0084RJCT V0203001N001010045019N0112651N1+01801+01501999999ADDGA1071+004509999GA2071+012009999GF107991999999999999999999MA1102001999999MW1001REMMET076RJCT 130200Z 30002KT 9999 BKN015 BKN040 18/15 Q1020 RMK 6ST015 7SC040 A3014;EQDQ01+000000PRSWM2
0243474905999992000091303004+42900+143170FM-15+0084RJCT V0201701N001510060019N0112651N1+01801+01501999999ADDGA1021+004509999GA2071+006009999GA3071+012009999GF107991999999999999999999MA1102001999999MW1001REMMET117RJCT 130300Z 17003KT 9999 FEW015 BKN020 BKN040 18/15 Q1020 RMK 2ST015 5SC020 6SC040 A3012 FCST 0312 TEMPO 0306 -SHRA;EQDQ01+000000PRSWM2
0238474905999992000091303534+42900+143170FM-16+0084RJCT V0201701N001510135019N0112651N1+01801+01501999999ADDGA1021+004209999GA2021+006009999GA3071+013509999GF107991999999999999999999MA1102001999999MW1801REMMET096RJCT 130353Z 17003KT 9999 -SHRA SCT014 SCT020 BKN045 18/15 Q1020 RMK 3ST014 4SC020 7SC045 A3012;EQDQ01+000003PRSWM1Q02    003PRSWM1
0238474905999992000091304004+42900+143170FM-15+0084RJCT V0201601N001510135019N0112651N1+01801+01501999999ADDGA1021+004209999GA2021+006009999GA3071+013509999GF107991999999999999999999MA1102001999999MW1801REMMET096RJCT 130400Z 16003KT 9999 -SHRA SCT014 SCT020 BKN045 18/15 Q1020 RMK 3ST014 4SC020 7SC045 A3012;EQDQ01+000003PRSWM1Q02    003PRSWM1
0238474905999992000091305004+42900+143170FM-15+0084RJCT V02099999999990150019N0112651N1+01801+01601999999ADDGA1021+004209999GA2021+007509999GA3081+015009999GF108991999999999999999999MA1101901999999MW1801REMMET096RJCT 130500Z VRB02KT 9999 -SHRA FEW014 SCT025 OVC050 18/16 Q1019 RMK 1ST014 3SC025 8SC050 A3011;EQDQ01+000003PRSWM1Q02    003PRSWM1
0268474905999992000091306004+42900+143170FM-15+0084RJCT V0209999C000010270019N0112651N1+01801+01501999999ADDGA1021+006009999GA2021+012009999GA3081+027009999GF108991999999999999999999MA1101901999999MW1801REMMET126RJCT 130600Z 00000KT 9999 -SHRA FEW020 SCT040 OVC090 18/15 Q1019 RMK 2CU020 3SC040 8AC090 A3011 FCST 0615 BECMG 0809 BKN020CU;EQDQ01+000003PRSWM1Q02    003PRSWM1
0238474905999992000091307004+42900+143170FM-15+0084RJCT V0200401N000510270019N0112651N1+01801+01601999999ADDGA1021+006009999GA2021+021009999GA3081+027009999GF108991999999999999999999MA1102001999999MW1801REMMET096RJCT 130700Z 04001KT 9999 -SHRA FEW020 SCT070 OVC090 18/16 Q1020 RMK 2CU020 3AC070 8AC090 A3012;EQDQ01+000003PRSWM1Q02    003PRSWM1
0267474905999992000091308004+42900+143170FM-15+0084RJCT V0200801N000510210019N0112651N1+01701+01601999999ADDGA1021+004509999GA2071+021009999GA3081+027009999GF108991999999999999999999MA1102001999999MW1801REMMET125RJCT 130800Z 08001KT 9999 -SHRA FEW015 BKN070 OVC090 17/16 Q1020 RMK 1ST015 5AC070 8AC090 A3012 FCST 0817 BECMG 0809 4000 BR;EQDQ01+000003PRSWM1Q02    003PRSWM1
0216474905999992000091401004+42900+143170FM-15+0084RJCT V0203501N001010054019N0060001N1+01601+01401999999ADDGA1021+001509999GA2021+002409999GA3071+005409999GF107991999999999999999999MA1101691999999MW1001REMMET090RJCT 140100Z 35002KT 6000 FEW005 SCT008 BKN018 16/14 Q1017 RMK 1ST005 3ST008 5SC018 A3004;EQDQ01+000000PRSWM2
0236474905999992000091401074+42900+143170FM-16+0084RJCT V0200201N001510054019N0060001N1+01601+01401999999ADDGA1021+001509999GA2021+002409999GA3071+005409999GF107991999999999999999999MA1101691999999MW1511REMMET094RJCT 140107Z 02003KT 6000 -DZ FEW005 SCT008 BKN018 16/14 Q1017 RMK 1ST005 3ST008 6SC018 A3004;EQDQ01+000003PRSWM1Q02    003PRSWM1
0255474905999992000091401354+42900+143170FM-16+0084RJCT V0200201N001010060019N0030001N1+01501+01401999999ADDGA1021+002409999GA2021+004509999GA3071+006009999GF107991999999999999999999MA1101691999999MW1511REMMET097RJCT 140135Z 02002KT 3000 -DZ BR FEW008 SCT015 BKN020 15/14 Q1017 RMK 1ST008 3ST015 6SC020 A3004;EQDQ01+000100PRSWM3Q02+000003PRSWM1Q03    003PRSWM1
0247474905999992000091402004+42900+143170FM-15+0084RJCT V0200401N001510045019N0020001N1+01501+01401999999ADDGA1021+002409999GA2071+004509999GA3071+006009999GF107991999999999999999999MA1101691999999MW1101MW2801REMMET099RJCT 140200Z 04003KT 2000 -SHRA BR FEW008 BKN015 BKN020 15/14 Q1017 RMK 1ST008 7ST015 7SC020 A3003;EQDQ01+000003PRSWM1Q02    003PRSWM1
0275474905999992000091403004+42900+143170FM-15+0084RJCT V0200501N001510036019N0020001N1+01501+01401999999ADDGA1021+000909999GA2021+002109999GA3071+003609999GF107991999999999999999999MA1101591999999MW1101MW2511REMMET127RJCT 140300Z 05003KT 2000 -DZ BR FEW003 SCT007 BKN012 15/14 Q1016 RMK 1ST003 4ST007 6ST012 A3000 FCST 0312 BECMG 0304 BKN005ST;EQDQ01+000003PRSWM1Q02    003PRSWM1
0245474905999992000091404004+42900+143170FM-15+0084RJCT V0201401N001010075019N0040001N1+01501+01401999999ADDGA1021+000909999GA2021+002109999GA3071+007509999GF107991999999999999999999MA1101491999999MW1101MW2511REMMET097RJCT 140400Z 14002KT 4000 -DZ BR FEW003 SCT007 BKN025 15/14 Q1015 RMK 1ST003 3ST007 6SC025 A2999;EQDQ01+000003PRSWM1Q02    003PRSWM1
0216474905999992000091405004+42900+143170FM-15+0084RJCT V0200101N000510075019N0060001N1+01501+01401999999ADDGA1021+000909999GA2021+002409999GA3071+007509999GF107991999999999999999999MA1101491999999MW1001REMMET090RJCT 140500Z 01001KT 6000 FEW003 SCT008 BKN025 15/14 Q1015 RMK 2ST003 4ST008 6SC025 A2999;EQDQ01+000000PRSWM2
0255474905999992000091406004+42900+143170FM-15+0084RJCT V0203201N000510180019N0080001N1+01501+01401999999ADDGA1021+001209999GA2021+002409999GA3071+018009999GF107991999999999999999999MA1101491999999MW1001REMMET129RJCT 140600Z 32001KT 8000 FEW004 SCT008 BKN060 15/14 Q1015 RMK 2ST004 4ST008 7SC060 A2997 FCST 0615 TEMPO 0610 4000 -DZ BKN008ST;EQDQ01+000000PRSWM2
0216474905999992000091407004+42900+143170FM-15+0084RJCT V0202801N000510027019N0080001N1+01601+01401999999ADDGA1021+001509999GA2071+002709999GA3071+018009999GF107991999999999999999999MA1101491999999MW1001REMMET090RJCT 140700Z 28001KT 8000 FEW005 BKN009 BKN060 16/14 Q1015 RMK 2ST005 6ST009 7SC060 A2997;EQDQ01+000000PRSWM2
0236474905999992000091407214+42900+143170FM-16+0084RJCT V0202601N001010030019N0060001N1+01501+01401999999ADDGA1021+001509999GA2071+003009999GA3071+018009999GF107991999999999999999999MA1101491999999MW1511REMMET094RJCT 140721Z 26002KT 6000 -DZ FEW005 BKN010 BKN060 15/14 Q1015 RMK 2ST005 6ST010 7SC060 A2997;EQDQ01+000003PRSWM1Q02    003PRSWM1
0271474905999992000091423004+42900+143170FM-15+0084RJCT V0201901N002110015019N0020001N1+01501+01401999999ADDGA1021+000909999GA2071+001509999GA3071+006009999GF107991999999999999999999MA1101591999999MW1101MW2511REMMET123RJCT 142300Z 19004KT 2000 -DZ BR FEW003 BKN005 BKN020 15/14 Q1016 RMK 2ST003 5ST005 7SC020 A3001 FCST 2308 TEMPO 0205 5000;EQDQ01+000003PRSWM1Q02    003PRSWM1
0280474905999992000091500004+42900+143170FM-15+0084RJCT V0202001N001510015019N0050001N1+01501+01501999999ADDGA1021+000909999GA2071+001509999GA3071+006009999GF107991999999999999999999MA1101591999999MW1101MW2511REMMET132RJCT 150000Z 20003KT 5000 -DZ BR FEW003 BKN005 BKN020 15/15 Q1016 RMK 1ST003 5ST005 7SC020 A3002 FCST 0009 TEMPO 0205 5000 BKN010ST;EQDQ01+000003PRSWM1Q02    003PRSWM1
0249474905999992000091523004+42900+143170FM-15+0084RJCT V0203001N001010009019N0017001N1+01501+01501999999ADDGA1071+000909999GA2081+002409999GF108991999999999999999999MA1101291999999MW1101MW2511REMMET117RJCT 152300Z 30002KT 1700 -DZ BR BKN003 OVC008 15/15 Q1013 RMK 6ST003 8ST008 A2993 FCST 2308 TEMPO 0206 NSW BKN010ST;EQDQ01+000003PRSWM1Q02    003PRSWM1
0235474905999992000091523364+42900+143170FM-16+0084RJCT V0202801N000510024019N0035001N1+01501+01501999999ADDGA1021+000909999GA2071+002409999GA3081+003609999GF108991999999999999999999MA1101291999999MW1101REMMET093RJCT 152336Z 28001KT 3500 BR FEW003 BKN008 OVC012 15/15 Q1013 RMK 2ST003 6ST008 8ST012 A2993;EQDQ01+000003PRSWM1Q02    003PRSWM1
0280474905999992000091600004+42900+143170FM-15+0084RJCT V0209999C000010024019N0050001N1+01601+01501999999ADDGA1021+001209999GA2071+002409999GA3081+004509999GF108991999999999999999999MA1101291999999MW1101REMMET138RJCT 160000Z 00000KT 5000 BR SCT004 BKN008 OVC015 16/15 Q1013 RMK 3ST004 5ST008 8ST015 A2993 FCST 0009 BECMG 0000 NSW TEMPO 0206 BKN010ST;EQDQ01+000003PRSWM1Q02    003PRSWM1
0216474905999992000091601004+42900+143170FM-15+0084RJCT V0202801N000510030019N0060001N1+01601+01501999999ADDGA1021+001209999GA2071+003009999GA3081+007509999GF108991999999999999999999MA1101291999999MW1001REMMET090RJCT 160100Z 28001KT 6000 FEW004 BKN010 OVC025 16/15 Q1013 RMK 2ST004 5ST010 8SC025 A2992;EQDQ01+000000PRSWM2
0216474905999992000091602004+42900+143170FM-15+0084RJCT V0202701N000510075019N0080001N1+01701+01501999999ADDGA1021+001209999GA2021+003009999GA3081+007509999GF108991999999999999999999MA1101191999999MW1001REMMET090RJCT 160200Z 27001KT 8000 FEW004 SCT010 OVC025 17/15 Q1012 RMK 1ST004 3ST010 8SC025 A2990;EQDQ01+000000PRSWM2
0246474905999992000091603004+42900+143170FM-15+0084RJCT V0201401N000510030019N0112651N1+01801+01501999999ADDGA1021+001509999GA2071+003009999GA3081+007509999GF108991999999999999999999MA1101191999999MW1001REMMET120RJCT 160300Z 14001KT 9999 FEW005 BKN010 OVC025 18/15 Q1012 RMK 1ST005 5ST010 8SC025 A2988 FCST 0312 TEMPO 0612 BKN008ST;EQDQ01+000000PRSWM2
0216474905999992000091604004+42900+143170FM-15+0084RJCT V0200801N000510036019N0112651N1+01801+01601999999ADDGA1021+001809999GA2071+003609999GA3081+007509999GF108991999999999999999999MA1101081999999MW1001REMMET090RJCT 160400Z 08001KT 9999 FEW006 BKN012 OVC025 18/16 Q1011 RMK 1ST006 5ST012 8SC025 A2987;EQDQ01+000000PRSWM2
0236474905999992000091604344+42900+143170FM-16+0084RJCT V0201201N001010036019N0080001N1+01801+01601999999ADDGA1021+001809999GA2071+003609999GA3081+007509999GF108991999999999999999999MA1101081999999MW1511REMMET094RJCT 160434Z 12002KT 8000 -DZ SCT006 BKN012 OVC025 18/16 Q1011 RMK 3ST006 6ST012 8SC025 A2985;EQDQ01+000003PRSWM1Q02    003PRSWM1
0236474905999992000091605004+42900+143170FM-15+0084RJCT V0201401N001010030019N0080001N1+01801+01601999999ADDGA1021+001809999GA2071+003009999GA3081+007509999GF108991999999999999999999MA1101081999999MW1511REMMET094RJCT 160500Z 14002KT 8000 -DZ FEW006 BKN010 OVC025 18/16 Q1011 RMK 1ST006 6ST010 8SC025 A2985;EQDQ01+000003PRSWM1Q02    003PRSWM1
0205474905999992000091622004+42900+143170FM-15+0084RJCT V0209999C000010012019N0006001N1+01801+01801999999ADDGA1071+001209999GA2081+002109999GF108991999999999999999999MA1100611999999MW1441REMMET079RJCT 162200Z 00000KT 0600 FG BKN004 OVC007 18/18 Q1006 RMK 5ST004 8ST007 A2972;EQDQ01+000003PRSWM1Q02    003PRSWM1
0250474905999992000091623004+42900+143170FM-15+0084RJCT V0202801N000510015019N0015001N1+01801+01801999999ADDGA1071+001509999GA2081+003609999GF108991999999999999999999MA1100611999999MW1101REMMET124RJCT 162300Z 28001KT 1500 BR BKN005 OVC012 18/18 Q1006 RMK 5ST005 8ST012 A2971 FCST 2308 BECMG 2300 NSW BECMG 0001 BKN010ST;EQDQ01+000003PRSWM1Q02    003PRSWM1
0239474905999992000091700004+42900+143170FM-15+0084RJCT V0200301N000510021019N0035001N1+02001+01901999999ADDGA1071+002109999GA2081+004509999GF108991999999999999999999MA1100511999999MW1101REMMET113RJCT 170000Z 03001KT 3500 BR BKN007 OVC015 20/19 Q1005 RMK 5ST007 8ST015 A2970 FCST 0009 BECMG 0001 NSW BKN010ST;EQDQ01+000003PRSWM1Q02    003PRSWM1
0235474905999992000091700204+42900+143170FM-15+0084RJCT V0201101N001010030019N0040001N1+02101+01901999999ADDGA1021+002109999GA2071+003009999GA3071+004509999GF107991999999999999999999MA1100511999999MW1101REMMET093RJCT 170020Z 11002KT 4000 BR SCT007 BKN010 BKN015 21/19 Q1005 RMK 4ST007 5ST010 7ST015 A2970;EQDQ01+000003PRSWM1Q02    003PRSWM1
0216474905999992000091702004+42900+143170FM-15+0084RJCT V0200701N000510024019N0060001N1+02201+02001999999ADDGA1071+002409999GA2071+003009999GA3071+004509999GF107991999999999999999999MA1100411999999MW1001REMMET090RJCT 170200Z 07001KT 6000 BKN008 BKN010 BKN015 22/20 Q1004 RMK 5ST008 5ST010 7ST015 A2966;EQDQ01+000000PRSWM2
0216474905999992000091702134+42900+143170FM-16+0084RJCT V0201201N001010030019N0070001N1+02101+02001999999ADDGA1021+002409999GA2071+003009999GA3071+004509999GF107991999999999999999999MA1100411999999MW1001REMMET090RJCT 170213Z 12002KT 7000 SCT008 BKN010 BKN015 21/20 Q1004 RMK 4ST008 5ST010 7ST015 A2967;EQDQ01+000000PRSWM2
0290474905999992000091703004+42900+143170FM-15+0084RJCT V0200701N000510036019N0060001N1+02201+02001999999ADDGA1021+002409999GA2071+003609999GA3071+005409999GF107991999999999999999999MA1100411999999MW1801REMMET148RJCT 170300Z 07001KT 6000 -SHRA SCT008 BKN012 BKN018 22/20 Q1004 RMK 3ST008 5ST012 7SC018 A2966 FCST 0312 BECMG 0304 NSW TEMPO 0409 -DZ BR BKN008ST;EQDQ01+000003PRSWM1Q02    003PRSWM1
0257474905999992000091703264+42900+143170FM-16+0084RJCT V0209999C000010024019N0040001N1+02101+02001999999ADDGA1021+001209999GA2071+002409999GA3071+005409999GF107991999999999999999999MA1100411999999MW1801REMMET099RJCT 170326Z 00000KT 4000 -SHRA BR FEW004 BKN008 BKN018 21/20 Q1004 RMK 1ST004 5ST008 7SC018 A2965;EQDQ01+000100PRSWM3Q02+000003PRSWM1Q03    003PRSWM1
0235474905999992000091704004+42900+143170FM-15+0084RJCT V0209999C000010027019N0050001N1+02201+02001999999ADDGA1021+001209999GA2071+002709999GA3071+005409999GF107991999999999999999999MA1100411999999MW1101REMMET093RJCT 170400Z 00000KT 5000 BR FEW004 BKN009 BKN018 22/20 Q1004 RMK 1ST004 5ST009 7SC018 A2966;EQDQ01+000003PRSWM1Q02    003PRSWM1
0235474905999992000091704154+42900+143170FM-16+0084RJCT V0209999C000010054019N0050001N1+02201+02001999999ADDGA1021+001209999GA2021+002709999GA3071+005409999GF107991999999999999999999MA1100411999999MW1101REMMET093RJCT 170415Z 00000KT 5000 BR FEW004 SCT009 BKN018 22/20 Q1004 RMK 1ST004 4ST009 7SC018 A2965;EQDQ01+000003PRSWM1Q02    003PRSWM1
0185474905999992000091722004+42900+143170FM-15+0084RJCT V0203601N001010027019N0005001N1+02001+02001999999ADDGA1081+002709999GF108991999999999999999999MA1100101999999MW1441MW2511REMMET069RJCT 172200Z 36002KT 0500 -DZ FG OVC009 20/20 Q1001 RMK 8ST009 A2958;EQDQ01+000003PRSWM1Q02    003PRSWM1
0309474905999992000091723004+42900+143170FM-15+0084RJCT V0203401N001010036019N0020001N1+02101+02101999999ADDGA1021+002709999GA2071+003609999GA3081+006009999GF108991999999999999999999MA1100101999999MW1101MW2801REMMET161RJCT 172300Z 34002KT 2000 -SHRA BR SCT009 BKN012 OVC020 21/21 Q1001 RMK 3ST009 7ST012 8SC020 A2958 FCST 2308 BECMG 2300 NSW TEMPO 0002 -SHRA BECMG 0304 SCT025CU;EQDQ01+000003PRSWM1Q02    003PRSWM1
0236474905999992000091723454+42900+143170FM-15+0084RJCT V0203301N002110054019N0112651N1+02101+02001999999ADDGA1021+002709999GA2071+005409999GA3071+012009999GF107991999999999999999999MA1100101999999MW1511REMMET094RJCT 172345Z 33004KT 9999 -DZ FEW009 BKN018 BKN040 21/20 Q1001 RMK 1ST009 5SC018 7SC040 A2958;EQDQ01+000003PRSWM1Q02    003PRSWM1
0300474905999992000091800004+42900+143170FM-15+0084RJCT V0203301N002610054019N0112651N1+02101+02001999999ADDGA1021+002709999GA2071+005409999GA3071+012009999GF107991999999999999999999MA1100101999999MW1511REMMET158RJCT 180000Z COR 33005KT 9999 -DZ FEW009 BKN018 BKN040 21/20 Q1001 RMK 1ST009 5SC018 7SC040 A2957 FCST COR 0009 BECMG 0001 NSW BKN080AC TEMPO 0107 32015G25KT;EQDQ01+000003PRSWM1Q02    003PRSWM1
0216474905999992000091800434+42900+143170FM-16+0084RJCT V0203101N002610075019N0112651N1+02201+01901999999ADDGA1021+005409999GA2071+007509999GA3071+012009999GF107991999999999999999999MA1100101999999MW1001REMMET090RJCT 180043Z 31005KT 9999 FEW018 BKN025 BKN040 22/19 Q1001 RMK 2SC018 5SC025 7SC040 A2957;EQDQ01+000000PRSWM2
0216474905999992000091801004+42900+143170FM-15+0084RJCT V0203101N004110075019N0112651N1+02201+01801999999ADDGA1021+005409999GA2071+007509999GA3071+012009999GF107991999999999999999999MA1100101999999MW1001REMMET090RJCT 180100Z 31008KT 9999 FEW018 BKN025 BKN040 22/18 Q1001 RMK 2SC018 5SC025 6SC040 A2956;EQDQ01+000000PRSWM2
0227474905999992000091801154+42900+143170FM-16+0084RJCT V0203101N004610075019N0112651N1+02201+01801999999ADDGA1021+005409999GA2071+007509999GA3071+012009999GF107991999999999999999999MA1100101999999MW1001OC100981REMMET093RJCT 180115Z 31009G19KT 9999 FEW018 BKN025 BKN040 22/18 Q1001 RMK 1ST018 6SC025 7CU040 A2956;EQDQ01+000000PRSWM2
0186474905999992000091802004+42900+143170FM-15+0084RJCT V0203201N004610075019N0112651N1+02101+01601999999ADDGA1071+007509999GA2071+012009999GF107991999999999999999999MA1100101999999MW1001REMMET076RJCT 180200Z 32009KT 9999 BKN025 BKN040 21/16 Q1001 RMK 5SC025 6CU040 A2957;EQDQ01+000000PRSWM2
0285474905999992000091803004+42900+143170FM-15+0084RJCT V0203001N007210090019N0112651N1+02301+01401999999ADDGA1021+006009999GA2071+009009999GA3071+012009999GF107991999999999999999999MA1100101999999MW1001OC101291REMMET151RJCT 180300Z 30014G25KT 9999 FEW020 BKN030 BKN040 23/14 Q1001 RMK 1CU020 5SC030 5CU040 A2958 FCST 0312 TEMPO 0407 SCT030CU BECMG 0708 32010KT SCT030CU;EQDQ01+000000PRSWM2
0197474905999992000091804004+42900+143170FM-15+0084RJCT V0203001N006712200019N0112651N1+02501+01501999999ADDGA1021+006009999GA2021+013509999GF104991999999999999999999MA1100201999999MW1001OC101341REMMET079RJCT 180400Z 30013G26KT 9999 FEW020 SCT045 25/15 Q1002 RMK 1CU020 3SC045 A2959;EQDQ01+000000PRSWM2
0167474905999992000091805004+42900+143170FM-15+0084RJCT V0203201N006212200019N0112651N1+02601+01501999999ADDGA1021+009009999GF102991999999999999999999MA1100201999999MW1001OC101231REMMET065RJCT 180500Z 32012G24KT 9999 FEW030 26/15 Q1002 RMK 1CU030 A2961;EQDQ01+000000PRSWM2
0196474905999992000091806004+42900+143170FM-15+0084RJCT V0203101N005712200019N0112651N1+02501+01401999999ADDGA1021+009009999GF102991999999999999999999MA1100311999999MW1001OC101181REMMET094RJCT 180600Z 31011G23KT 9999 FEW030 25/14 Q1003 RMK 1CU030 A2964 FCST 0615 BECMG 0809 31010KT;EQDQ01+000000PRSWM2
0156474905999992000091807004+42900+143170FM-15+0084RJCT V0203101N004612200019N0112651N1+02401+01301999999ADDGA1021+009009999GF102991999999999999999999MA1100411999999MW1001REMMET062RJCT 180700Z 31009KT 9999 FEW030 24/13 Q1004 RMK 1CU030 A2967;EQDQ01+000000PRSWM2
0172474905999992000091808004+42900+143170FM-15+0084RJCT V0203101N004112200019N0112651N1+02201+01201999999ADDGA1021+009009999GF102991999999999999999999MA1100611999999MW1001REMMET078RJCT 180800Z 31008KT 9999 FEW030 22/12 Q1006 RMK 1CU030 A2971 FCST 0817 NOSIG;EQDQ01+000000PRSWM2
0156474905999992000091822004+42900+143170FM-15+0084RJCT V02099999999992200019N0112651N1+01301+01101999999ADDGA1021+009009999GF102991999999999999999999MA1101491999999MW1001REMMET062RJCT 182200Z VRB01KT 9999 FEW030 13/11 Q1015 RMK 1SC030 A2999;EQDQ01+000000PRSWM2
0172474905999992000091823004+42900+143170FM-15+0084RJCT V0201901N001512200019N0112651N1+01801+01301999999ADDGA1021+009009999GF102991999999999999999999MA1101591999999MW1001REMMET078RJCT 182300Z 19003KT 9999 FEW030 18/13 Q1016 RMK 1SC030 A3000 FCST 2308 NOSIG;EQDQ01+000000PRSWM2
0172474905999992000091900004+42900+143170FM-15+0084RJCT V0203201N001512200019N0112651N1+02001+01201999999ADDGA1021+009009999GF102991999999999999999999MA1101591999999MW1001REMMET078RJCT 190000Z 32003KT 9999 FEW030 20/12 Q1016 RMK 1CU030 A3001 FCST 0009 NOSIG;EQDQ01+000000PRSWM2
0156474905999992000091901004+42900+143170FM-15+0084RJCT V02099999999992200019N0112651N1+02201+01001999999ADDGA1021+009009999GF102991999999999999999999MA1101591999999MW1001REMMET062RJCT 190100Z VRB02KT 9999 FEW030 22/10 Q1016 RMK 1CU030 A3001;EQDQ01+000000PRSWM2
0156474905999992000091902004+42900+143170FM-15+0084RJCT V02099999999992200019N0112651N1+02401+01001999999ADDGA1021+009009999GF102991999999999999999999MA1101591999999MW1001REMMET062RJCT 190200Z VRB02KT 9999 FEW030 24/10 Q1016 RMK 1CU030 A3000;EQDQ01+000000PRSWM2
0202474905999992000091903004+42900+143170FM-15+0084RJCT V0203101N001012200019N0112651N1+02401+01101999999ADDGA1021+009009999GA2021+069009999GF104991999999999999999999MA1101491999999MW1001REMMET092RJCT 190300Z 31002KT 9999 FEW030 SCT230 24/11 Q1015 RMK 1CU030 3CC230 A2999 FCST 0312 NOSIG;EQDQ01+000000PRSWM2
0186474905999992000091904004+42900+143170FM-15+0084RJCT V0202901N002112200019N0112651N1+02501+01001999999ADDGA1021+009009999GA2021+069009999GF104991999999999999999999MA1101491999999MW1001REMMET076RJCT 190400Z 29004KT 9999 FEW030 SCT230 25/10 Q1015 RMK 1CU030 4CI230 A2998;EQDQ01+000000PRSWM2
0186474905999992000091905004+42900+143170FM-15+0084RJCT V0203201N002612200019N0112651N1+02401+01001999999ADDGA1021+009009999GA2021+069009999GF104991999999999999999999MA1101491999999MW1001REMMET076RJCT 190500Z 32005KT 9999 FEW030 SCT230 24/10 Q1015 RMK 1CU030 4CC230 A2999;EQDQ01+000000PRSWM2
0172474905999992000091906004+42900+143170FM-15+0084RJCT V0203401N002112200019N0112651N1+02401+01001999999ADDGA1021+009009999GF102991999999999999999999MA1101491999999MW1001REMMET078RJCT 190600Z 34004KT 9999 FEW030 24/10 Q1015 RMK 1CU030 A2999 FCST 0615 NOSIG;EQDQ01+000000PRSWM2
0156474905999992000091907004+42900+143170FM-15+0084RJCT V0203201N003112200019N0112651N1+02401+01001999999ADDGA1021+012009999GF102991999999999999999999MA1101591999999MW1001REMMET062RJCT 190700Z 32006KT 9999 FEW040 24/10 Q1016 RMK 2CU040 A3000;EQDQ01+000000PRSWM2
0172474905999992000091908004+42900+143170FM-15+0084RJCT V0203201N002612200019N0112651N1+02201+01001999999ADDGA1021+012009999GF102991999999999999999999MA1101591999999MW1001REMMET078RJCT 190800Z 32005KT 9999 FEW040 22/10 Q1016 RMK 2CU040 A3001 FCST 0817 NOSIG;EQDQ01+000000PRSWM2
0186474905999992000091922004+42900+143170FM-15+0084RJCT V0201801N000512200019N0112651N1+01501+01201999999ADDGA1021+009009999GA2021+015009999GF104991999999999999999999MA1102101999999MW1001REMMET076RJCT 192200Z 18001KT 9999 FEW030 SCT050 15/12 Q1021 RMK 1CU030 3SC050 A3016;EQDQ01+000000PRSWM2
0172474905999992000091923004+42900+143170FM-15+0084RJCT V0200301N000512200019N0112651N1+01701+01201999999ADDGA1021+009009999GF102991999999999999999999MA1102101999999MW1001REMMET078RJCT 192300Z 03001KT 9999 FEW030 17/12 Q1021 RMK 1CU030 A3016 FCST 2308 NOSIG;EQDQ01+000000PRSWM2
0172474905999992000092000004+42900+143170FM-15+0084RJCT V0202501N001012200019N0112651N1+01901+01201999999ADDGA1021+009009999GF102991999999999999999999MA1102101999999MW1001REMMET078RJCT 200000Z 25002KT 9999 FEW030 19/12 Q1021 RMK 1CU030 A3017 FCST 0009 NOSIG;EQDQ01+000000PRSWM2
0186474905999992000092001004+42900+143170FM-15+0084RJCT V0203001N002112200019N0112651N1+02201+01201999999ADDGA1021+009009999GA2021+024009999GF104991999999999999999999MA1102101999999MW1001REMMET076RJCT 200100Z 30004KT 9999 FEW030 SCT080 22/12 Q1021 RMK 2CU030 3AC080 A3016;EQDQ01+000000PRSWM2
0186474905999992000092002004+42900+143170FM-15+0084RJCT V0203101N004612200019N0112651N1+02301+01201999999ADDGA1021+007509999GA2021+021009999GF104991999999999999999999MA1102101999999MW1001REMMET076RJCT 200200Z 31009KT 9999 FEW025 SCT070 23/12 Q1021 RMK 2CU025 4AC070 A3015;EQDQ01+000000PRSWM2
0172474905999992000092003004+42900+143170FM-15+0084RJCT V0203101N004112200019N0112651N1+02401+01201999999ADDGA1021+007509999GF102991999999999999999999MA1102001999999MW1001REMMET078RJCT 200300Z 31008KT 9999 FEW025 24/12 Q1020 RMK 2CU025 A3014 FCST 0312 NOSIG;EQDQ01+000000PRSWM2
0186474905999992000092004004+42900+143170FM-15+0084RJCT V0203101N004612200019N0112651N1+02301+01201999999ADDGA1021+009009999GA2021+010509999GF104991999999999999999999MA1102001999999MW1001REMMET076RJCT 200400Z 31009KT 9999 FEW030 SCT035 23/12 Q1020 RMK 1CU030 3CU035 A3013;EQDQ01+000000PRSWM2
0197474905999992000092005004+42900+143170FM-15+0084RJCT V0203401N003112200019N0112651N1+02401+01201999999ADDGA1021+009009999GA2021+010509999GF104991999999999999999999MA1102001999999MW1001OC100821REMMET079RJCT 200500Z 34006G16KT 9999 FEW030 SCT035 24/12 Q1020 RMK 1CU030 3CU035 A3012;EQDQ01+000000PRSWM2
0202474905999992000092006004+42900+143170FM-15+0084RJCT V0203101N003612200019N0112651N1+02401+01201999999ADDGA1021+009009999GA2021+012009999GF104991999999999999999999MA1102001999999MW1001REMMET092RJCT 200600Z 31007KT 9999 FEW030 SCT040 24/12 Q1020 RMK 1CU030 3CU040 A3012 FCST 0615 NOSIG;EQDQ01+000000PRSWM2
0156474905999992000092007004+42900+143170FM-15+0084RJCT V0203101N005112200019N0112651N1+02301+01101999999ADDGA1021+013509999GF102991999999999999999999MA1102001999999MW1001REMMET062RJCT 200700Z 31010KT 9999 FEW045 23/11 Q1020 RMK 1CU045 A3014;EQDQ01+000000PRSWM2
0172474905999992000092008004+42900+143170FM-15+0084RJCT V0203101N002612200019N0112651N1+02201+01101999999ADDGA1021+012009999GF102991999999999999999999MA1102001999999MW1001REMMET078RJCT 200800Z 31005KT 9999 FEW040 22/11 Q1020 RMK 1CU040 A3014 FCST 0817 NOSIG;EQDQ01+000000PRSWM2
0156474905999992000092022004+42900+143170FM-15+0084RJCT V0202101N001012200019N0112651N1+01301+01101999999ADDGA1021+060009999GF104991999999999999999999MA1102001999999MW1001REMMET062RJCT 202200Z 21002KT 9999 SCT200 13/11 Q1020 RMK 4CI200 A3012;EQDQ01+000000PRSWM2
0188474905999992000092023004+42900+143170FM-15+0084RJCT V0201801N001510600019N0112651N1+01701+01201999999ADDGA1071+060009999GF107991999999999999999999MA1102001999999MW1001REMMET094RJCT 202300Z 18003KT 9999 BKN200 17/12 Q1020 RMK 5CI200 A3012 FCST 2308 TEMPO 0307 21012G25KT;EQDQ01+000000PRSWM2
0218474905999992000092100004+42900+143170FM-15+0084RJCT V0201201N001512200019N0112651N1+02001+01401999999ADDGA1021+009009999GA2021+066009999GF104991999999999999999999MA1101901999999MW1001REMMET108RJCT 210000Z 12003KT 9999 FEW030 SCT220 20/14 Q1019 RMK 1SC030 4CI220 A3011 FCST 0009 TEMPO 0307 21012G25KT;EQDQ01+000000PRSWM2
0186474905999992000092101004+42900+143170FM-15+0084RJCT V0202901N004110660019N0112651N1+02401+01401999999ADDGA1021+007509999GA2071+066009999GF107991999999999999999999MA1101801999999MW1001REMMET076RJCT 210100Z 29008KT 9999 FEW025 BKN220 24/14 Q1018 RMK 1SC025 5CI220 A3009;EQDQ01+000000PRSWM2
0197474905999992000092101304+42900+143170FM-15+0084RJCT V0203001N006710660019N0112651N1+02501+01301999999ADDGA1021+007509999GA2071+066009999GF107991999999999999999999MA1101801999999MW1001OC101181REMMET079RJCT 210130Z 30013G23KT 9999 FEW025 BKN220 25/13 Q1018 RMK 2CU025 5CI220 A3007;EQDQ01+000000PRSWM2
0197474905999992000092102004+42900+143170FM-15+0084RJCT V0203001N006712200019N0112651N1+02501+01201999999ADDGA1021+009009999GA2021+075009999GF104991999999999999999999MA1101801999999MW1001OC101181REMMET079RJCT 210200Z 30013G23KT 9999 FEW030 SCT250 25/12 Q1018 RMK 2CU030 3CI250 A3007;EQDQ01+000000PRSWM2
0218474905999992000092103004+42900+143170FM-15+0084RJCT V0202901N005112200019N0112651N1+02501+01201999999ADDGA1021+009009999GA2021+075009999GF104991999999999999999999MA1101691999999MW1001REMMET108RJCT 210300Z 29010KT 9999 FEW030 SCT250 25/12 Q1017 RMK 2CU030 4CI250 A3005 FCST 0312 TEMPO 0407 21010G25KT;EQDQ01+000000PRSWM2
0197474905999992000092103394+42900+143170FM-16+0084RJCT V0202801N006712200019N0112651N1+02601+01101999999ADDGA1021+009009999GA2021+066009999GF104991999999999999999999MA1101591999999MW1001OC101181REMMET079RJCT 210339Z 28013G23KT 9999 FEW030 SCT220 26/11 Q1016 RMK 1CU030 3CI220 A3003;EQDQ01+000000PRSWM2
0197474905999992000092104004+42900+143170FM-15+0084RJCT V0202901N007212200019N0112651N1+02601+01001999999ADDGA1021+009009999GA2021+066009999GF104991999999999999999999MA1101591999999MW1001OC101231REMMET079RJCT 210400Z 29014G24KT 9999 FEW030 SCT220 26/10 Q1016 RMK 1CU030 3CI220 A3002;EQDQ01+000000PRSWM2
0167474905999992000092105004+42900+143170FM-15+0084RJCT V0203001N006712200019N0112651N1+02601+01001999999ADDGA1021+009009999GF102991999999999999999999MA1101591999999MW1001OC101231REMMET065RJCT 210500Z 30013G24KT 9999 FEW030 26/10 Q1016 RMK 1CU030 A3000;EQDQ01+000000PRSWM2
0196474905999992000092106004+42900+143170FM-15+0084RJCT V0203101N005112200019N0112651N1+02501+01001999999ADDGA1021+009009999GF102991999999999999999999MA1101491999999MW1001OC101131REMMET094RJCT 210600Z 31010G22KT 9999 FEW030 25/10 Q1015 RMK 1CU030 A3000 FCST 0615 BECMG 0709 31008KT;EQDQ01+000000PRSWM2
0167474905999992000092107004+42900+143170FM-15+0084RJCT V0203101N006212200019N0112651N1+02401+00901999999ADDGA1021+009009999GF102991999999999999999999MA1101491999999MW1001OC101131REMMET065RJCT 210700Z 31012G22KT 9999 FEW030 24/09 Q1015 RMK 1CU030 A2999;EQDQ01+000000PRSWM2
0226474905999992000092108004+42900+143170FM-15+0084RJCT V0203401N002612200019N0112651N1+02201+00701999999ADDGA1021+009009999GA2021+066009999GF104991999999999999999999MA1101591999999MW1001OC100821REMMET108RJCT 210800Z 34005G16KT 9999 FEW030 SCT220 22/07 Q1016 RMK 1CU030 3CI220 A3000 FCST 0817 BECMG 0809 34008KT;EQDQ01+000000PRSWM2
0186474905999992000092109004+42900+143170FM-15+0084RJCT V0203301N004612200019N0112651N1+02101+00401999999ADDGA1021+009009999GA2021+066009999GF104991999999999999999999MA1101691999999MW1001REMMET076RJCT 210900Z 33009KT 9999 FEW030 SCT220 21/04 Q1017 RMK 1CU030 4CI220 A3003;EQDQ01+000000PRSWM2
0186474905999992000092110004+42900+143170FM-15+0084RJCT V0203001N005712200019N0112651N1+01901+00401999999ADDGA1021+009009999GA2021+066009999GF104991999999999999999999MA1101691999999MW1001REMMET076RJCT 211000Z 30011KT 9999 FEW030 SCT220 19/04 Q1017 RMK 2CU030 4CI220 A3005;EQDQ01+000000PRSWM2
0202474905999992000092200004+42900+143170FM-15+0084RJCT V0203101N000512200019N0112651N1+01701+00701999999ADDGA1021+012009999GA2021+066009999GF104991999999999999999999MA1102101999999MW1001REMMET092RJCT 220000Z 31001KT 9999 FEW040 SCT220 17/07 Q1021 RMK 1SC040 3CI220 A3016 FCST 0009 NOSIG;EQDQ01+000000PRSWM2
0186474905999992000092201004+42900+143170FM-15+0084RJCT V0200501N001512200019N0112651N1+02001+00801999999ADDGA1021+012009999GA2021+066009999GF104991999999999999999999MA1102001999999MW1001REMMET076RJCT 220100Z 05003KT 9999 FEW040 SCT220 20/08 Q1020 RMK 1SC040 3CI220 A3014;EQDQ01+000000PRSWM2
0156474905999992000092202004+42900+143170FM-15+0084RJCT V0201801N001012200019N0112651N1+02101+00801999999ADDGA1021+012009999GF102991999999999999999999MA1102001999999MW1001REMMET062RJCT 220200Z 18002KT 9999 FEW040 21/08 Q1020 RMK 1CU040 A3012;EQDQ01+000000PRSWM2
0202474905999992000092203004+42900+143170FM-15+0084RJCT V0201001N000512200019N0112651N1+02301+00801999999ADDGA1021+009009999GA2021+066009999GF104991999999999999999999MA1101901999999MW1001REMMET092RJCT 220300Z 10001KT 9999 FEW030 SCT220 23/08 Q1019 RMK 1CU030 3CI220 A3011 FCST 0312 NOSIG;EQDQ01+000000PRSWM2
0186474905999992000092204004+42900+143170FM-15+0084RJCT V0202201N001512200019N0112651N1+02301+00701999999ADDGA1021+009009999GA2021+066009999GF104991999999999999999999MA1101901999999MW1001REMMET076RJCT 220400Z 22003KT 9999 FEW030 SCT220 23/07 Q1019 RMK 1CU030 4CI220 A3010;EQDQ01+000000PRSWM2
0186474905999992000092205004+42900+143170FM-15+0084RJCT V0201801N001510660019N0112651N1+02401+00701999999ADDGA1021+009009999GA2071+066009999GF107991999999999999999999MA1101901999999MW1001REMMET076RJCT 220500Z 18003KT 9999 FEW030 BKN220 24/07 Q1019 RMK 1CU030 5CI220 A3009;EQDQ01+000000PRSWM2
0202474905999992000092206004+42900+143170FM-15+0084RJCT V0201801N001512200019N0112651N1+02301+00701999999ADDGA1021+009009999GA2021+066009999GF104991999999999999999999MA1101901999999MW1001REMMET092RJCT 220600Z 18003KT 9999 FEW030 SCT220 23/07 Q1019 RMK 1CU030 4CI220 A3010 FCST 0615 NOSIG;EQDQ01+000000PRSWM2
0186474905999992000092207004+42900+143170FM-15+0084RJCT V0201601N003612200019N0112651N1+02101+00701999999ADDGA1021+009009999GA2021+066009999GF104991999999999999999999MA1101901999999MW1001REMMET076RJCT 220700Z 16007KT 9999 FEW030 SCT220 21/07 Q1019 RMK 1CU030 3CI220 A3010;EQDQ01+000000PRSWM2
0202474905999992000092208004+42900+143170FM-15+0084RJCT V0201701N002610660019N0112651N1+01801+00801999999ADDGA1021+009009999GA2071+066009999GF107991999999999999999999MA1102001999999MW1001REMMET092RJCT 220800Z 17005KT 9999 FEW030 BKN220 18/08 Q1020 RMK 1CU030 5CI220 A3012 FCST 0817 NOSIG;EQDQ01+000000PRSWM2
0216474905999992000092304004+42900+143170FM-15+0084RJCT V0201001N002610084019N0112651N1+01701+01301999999ADDGA1021+003609999GA2071+008409999GA3071+012009999GF107991999999999999999999MA1102101999999MW1001REMMET090RJCT 230400Z 10005KT 9999 FEW012 BKN028 BKN040 17/13 Q1021 RMK 1SC012 5SC028 7SC040 A3016;EQDQ01+000000PRSWM2
0217474905999992000092422004+42900+143170FM-15+0084RJCT V0203001N002110009019N0040001N1+01201+01201999999ADDGA1071+000909999GA2081+002409999GF108991999999999999999999MA1101021999999MW1101MW2801REMMET085RJCT 242200Z 30004KT 4000 -SHRA BR BKN003 OVC008 12/12 Q1010 RMK 5ST003 8ST008 A2984;EQDQ01+000003PRSWM1Q02    003PRSWM1
0265474905999992000092423004+42900+143170FM-15+0084RJCT V0202901N002610009019N0040001N1+01201+01201999999ADDGA1071+000909999GA2081+003009999GF108991999999999999999999MA1101021999999MW1101MW2801REMMET133RJCT 242300Z 29005KT 4000 -SHRA BR BKN003 OVC010 12/12 Q1010 RMK 6ST003 8ST010 A2982 FCST 2308 BECMG 0103 6000 NSW SCT008ST BKN012ST;EQDQ01+000003PRSWM1Q02    003PRSWM1
0257474905999992000092423404+42900+143170FM-16+0084RJCT V0203001N002110030019N0050001N1+01201+01201999999ADDGA1021+000909999GA2071+003009999GA3081+006009999GF108991999999999999999999MA1100911999999MW1801REMMET099RJCT 242340Z 30004KT 5000 -SHRA BR FEW003 BKN010 OVC020 12/12 Q1009 RMK 2ST003 6ST010 8SC020 A2981;EQDQ01+000100PRSWM3Q02+000003PRSWM1Q03    003PRSWM1
0208474905999992000092502004+42900+143170FM-15+0084RJCT V0203101N002610090019N0070001N1+01301+01301999999ADDGA1021+002409999GA2071+009009999GF107991999999999999999999MA1100711999999MW1801REMMET082RJCT 250200Z 31005KT 7000 -SHRA FEW008 BKN030 13/13 Q1007 RMK 2ST008 7SC030 A2974;EQDQ01+000003PRSWM1Q02    003PRSWM1
0263474905999992000092503004+42900+143170FM-15+0084RJCT V0203201N002110036019N0090001N1+01401+01301999999ADDGA1021+001509999GA2071+003609999GA3081+009909999GF108991999999999999999999MA1100611999999MW1801REMMET121RJCT 250300Z 32004KT 9000 -SHRA FEW005 BKN012 OVC033 14/13 Q1006 RMK 2ST005 5ST012 8SC033 A2971 FCST 0312 BECMG 0506 NSW;EQDQ01+000003PRSWM1Q02    003PRSWM1
0208474905999992000092504224+42900+143170FM-16+0084RJCT V0203201N001510075019N0112651N1+01501+01201999999ADDGA1021+003009999GA2071+007509999GF107991999999999999999999MA1100411999999MW1801REMMET082RJCT 250422Z 32003KT 9999 -SHRA SCT010 BKN025 15/12 Q1004 RMK 4ST010 7SC025 A2967;EQDQ01+000003PRSWM1Q02    003PRSWM1
0186474905999992000092505004+42900+143170FM-15+0084RJCT V02099999999990090019N0112651N1+01601+01201999999ADDGA1021+003009999GA2071+009009999GF107991999999999999999999MA1100411999999MW1001REMMET076RJCT 250500Z VRB01KT 9999 SCT010 BKN030 16/12 Q1004 RMK 4ST010 7SC030 A2966;EQDQ01+000000PRSWM2
0232474905999992000092506004+42900+143170FM-15+0084RJCT V0202901N001510075019N0112651N1+01601+01201999999ADDGA1021+003009999GA2071+007509999GA3071+015009999GF107991999999999999999999MA1100311999999MW1001REMMET106RJCT 250600Z 29003KT 9999 FEW010 BKN025 BKN050 16/12 Q1003 RMK 1ST010 6SC025 7CU050 A2964 FCST 0615 NOSIG;EQDQ01+000000PRSWM2
0238474905999992000092507004+42900+143170FM-15+0084RJCT V0202901N001010060019N0112651N1+01501+01301999999ADDGA1021+003009999GA2071+006009999GA3071+015009999GF107991999999999999999999MA1100311999999MW1801REMMET096RJCT 250700Z 29002KT 9999 -SHRA FEW010 BKN020 BKN050 15/13 Q1003 RMK 1ST010 5SC020 6CU050 A2964;EQDQ01+000003PRSWM1Q02    003PRSWM1
0232474905999992000092508004+42900+143170FM-15+0084RJCT V0202501N000510060019N0112651N1+01501+01401999999ADDGA1021+003009999GA2071+006009999GA3071+024009999GF107991999999999999999999MA1100311999999MW1001REMMET106RJCT 250800Z 25001KT 9999 FEW010 BKN020 BKN080 15/14 Q1003 RMK 1ST010 5SC020 6AC080 A2964 FCST 0817 NOSIG;EQDQ01+000000PRSWM2
0208474905999992000092522304+42900+143170FM-15+0084RJCT V0203601N000510090019N0050001N1+01301+01201999999ADDGA1021+004509999GA2081+009009999GF108991999999999999999999MA1100411999999MW1801REMMET082RJCT 252230Z 36001KT 5000 -SHRA SCT015 OVC030 13/12 Q1004 RMK 4ST015 8SC030 A2965;EQDQ01+000003PRSWM1Q02    003PRSWM1
0263474905999992000092600004+42900+143170FM-15+0084RJCT V0202701N001010060019N0070001N1+01401+01301999999ADDGA1021+002409999GA2071+006009999GA3081+024009999GF108991999999999999999999MA1100411999999MW1801REMMET121RJCT 260000Z 27002KT 7000 -SHRA FEW008 BKN020 OVC080 14/13 Q1004 RMK 1ST008 5SC020 8AC080 A2966 FCST 0009 BECMG 0102 NSW;EQDQ01+000003PRSWM1Q02    003PRSWM1
0238474905999992000092601004+42900+143170FM-15+0084RJCT V0202601N004110060019N0070001N1+01401+01301999999ADDGA1021+002409999GA2071+006009999GA3081+015009999GF108991999999999999999999MA1100411999999MW1801REMMET096RJCT 260100Z 26008KT 7000 -SHRA FEW008 BKN020 OVC050 14/13 Q1004 RMK 2ST008 5SC020 8SC050 A2967;EQDQ01+000003PRSWM1Q02    003PRSWM1
0186474905999992000092602004+42900+143170FM-15+0084RJCT V0202901N002110090019N0112651N1+01601+01401999999ADDGA1021+003009999GA2071+009009999GF107991999999999999999999MA1100411999999MW1001REMMET076RJCT 260200Z 29004KT 9999 SCT010 BKN030 16/14 Q1004 RMK 3ST010 6SC030 A2965;EQDQ01+000000PRSWM2
0202474905999992000092603004+42900+143170FM-15+0084RJCT V0203101N002110150019N0112651N1+01701+01401999999ADDGA1021+004509999GA2071+015009999GF107991999999999999999999MA1100411999999MW1001REMMET092RJCT 260300Z 31004KT 9999 SCT015 BKN050 17/14 Q1004 RMK 4SC015 6CU050 A2964 FCST 0312 NOSIG;EQDQ01+000000PRSWM2
0186474905999992000092604004+42900+143170FM-15+0084RJCT V0202901N001010150019N0112651N1+01701+01401999999ADDGA1021+004509999GA2071+015009999GF107991999999999999999999MA1100311999999MW1001REMMET076RJCT 260400Z 29002KT 9999 SCT015 BKN050 17/14 Q1003 RMK 4SC015 6CU050 A2964;EQDQ01+000000PRSWM2
0208474905999992000092604234+42900+143170FM-16+0084RJCT V0200201N001510150019N0112651N1+01801+01301999999ADDGA1021+004509999GA2071+015009999GF107991999999999999999999MA1100611999999MW1801REMMET082RJCT 260423Z 02003KT 9999 -SHRA SCT015 BKN050 18/13 Q1006 RMK 3CU015 6SC050 A2971;EQDQ01+000003PRSWM1Q02    003PRSWM1
0238474905999992000092605004+42900+143170FM-15+0084RJCT V0203501N001510060019N0112651N1+01801+01301999999ADDGA1021+002409999GA2071+006009999GA3071+015009999GF107991999999999999999999MA1100311999999MW1801REMMET096RJCT 260500Z 35003KT 9999 -SHRA FEW008 BKN020 BKN050 18/13 Q1003 RMK 1ST008 5CU020 6SC050 A2964;EQDQ01+000003PRSWM1Q02    003PRSWM1
0281474905999992000092606004+42900+143170FM-15+0084RJCT V0203301N002610075019N0112651N1+01801+01101999999ADDGA1021+003009999GA2071+007509999GA3071+015009999GF107991999999999999999999MA1100411999999MW1801REMMET139RJCT 260600Z 33005KT 9999 -SHRA FEW010 BKN025 BKN050 18/11 Q1004 RMK 1ST010 5SC025 6SC050 A2965 FCST 0615 BECMG 0708 NSW SCT025CU BKN040SC;EQDQ01+000003PRSWM1Q02    003PRSWM1
0216474905999992000092607004+42900+143170FM-15+0084RJCT V0200101N001510060019N0112651N1+01701+01101999999ADDGA1021+003009999GA2071+006009999GA3071+015009999GF107991999999999999999999MA1100411999999MW1001REMMET090RJCT 260700Z 01003KT 9999 FEW010 BKN020 BKN050 17/11 Q1004 RMK 1ST010 5SC020 6SC050 A2966;EQDQ01+000000PRSWM2
0232474905999992000092608004+42900+143170FM-15+0084RJCT V0200401N001510060019N0112651N1+01601+01301999999ADDGA1021+003009999GA2071+006009999GA3071+015009999GF107991999999999999999999MA1100411999999MW1001REMMET106RJCT 260800Z 04003KT 9999 FEW010 BKN020 BKN050 16/13 Q1004 RMK 1ST010 5SC020 6SC050 A2967 FCST 0817 NOSIG;EQDQ01+000000PRSWM2
0216474905999992000092609004+42900+143170FM-15+0084RJCT V0203501N001510090019N0112651N1+01601+01101999999ADDGA1021+003009999GA2071+009009999GA3071+021009999GF107991999999999999999999MA1100511999999MW1001REMMET090RJCT 260900Z 35003KT 9999 FEW010 BKN030 BKN070 16/11 Q1005 RMK 1ST010 5SC030 6AC070 A2968;EQDQ01+000000PRSWM2
0186474905999992000092610004+42900+143170FM-15+0084RJCT V0203501N001510090019N0112651N1+01501+01101999999ADDGA1071+009009999GA2071+021009999GF107991999999999999999999MA1100511999999MW1001REMMET076RJCT 261000Z 35003KT 9999 BKN030 BKN070 15/11 Q1005 RMK 5SC030 6AC070 A2970;EQDQ01+000000PRSWM2
0216474905999992000092611004+42900+143170FM-15+0084RJCT V0203501N002110210019N0112651N1+01501+01101999999ADDGA1021+003009999GA2021+009009999GA3071+021009999GF107991999999999999999999MA1100611999999MW1001REMMET090RJCT 261100Z 35004KT 9999 FEW010 SCT030 BKN070 15/11 Q1006 RMK 1ST010 4SC030 7AC070 A2971;EQDQ01+000000PRSWM2
0186474905999992000092619214+42900+143170FM-16+0084RJCT V0201501N001012200019N0112651N1+00901+00801999999ADDGA1021+021009999GA2021+066009999GF104991999999999999999999MA1100511999999MW1001REMMET076RJCT 261921Z 15002KT 9999 FEW070 SCT220 09/08 Q1005 RMK 1AC070 4CI220 A2969;EQDQ01+000000PRSWM2
0216474905999992000092620004+42900+143170FM-15+0084RJCT V0202001N001010660019N0112651N1+00901+00801999999ADDGA1021+012009999GA2021+021009999GA3071+066009999GF107991999999999999999999MA1100511999999MW1001REMMET090RJCT 262000Z 20002KT 9999 FEW040 SCT070 BKN220 09/08 Q1005 RMK 1SC040 3AC070 6CI220 A2969;EQDQ01+000000PRSWM2
0216474905999992000092621004+42900+143170FM-15+0084RJCT V0201501N001510660019N0112651N1+00901+00901999999ADDGA1021+012009999GA2021+036009999GA3071+066009999GF107991999999999999999999MA1100511999999MW1001REMMET090RJCT 262100Z 15003KT 9999 FEW040 SCT120 BKN220 09/09 Q1005 RMK 1CU040 3AC120 6CI220 A2970;EQDQ01+000000PRSWM2
0263474905999992000092623004+42900+143170FM-15+0084RJCT V0203001N003610300019N0112651N1+01501+01101999999ADDGA1021+009009999GA2071+030009999GA3071+066009999GF107991999999999999999999MA1100511999999MW1801REMMET121RJCT 262300Z 30007KT 9999 -SHRA SCT030 BKN100 BKN220 15/11 Q1005 RMK 3SC030 6AS100 6CI220 A2970 FCST 2308 BECMG 0001 NSW;EQDQ01+000003PRSWM1Q02    003PRSWM1
0263474905999992000092700004+42900+143170FM-15+0084RJCT V0203201N003110300019N0112651N1+01601+01001999999ADDGA1021+006009999GA2021+009009999GA3071+030009999GF107991999999999999999999MA1100511999999MW1801REMMET121RJCT 270000Z 32006KT 9999 -SHRA FEW020 SCT030 BKN100 16/10 Q1005 RMK 1CU020 3SC030 7AS100 A2970 FCST 0009 BECMG 0001 NSW;EQDQ01+000003PRSWM1Q02    003PRSWM1
0238474905999992000092701004+42900+143170FM-15+0084RJCT V0202901N002610300019N0112651N1+01701+01101999999ADDGA1021+006009999GA2021+009009999GA3071+030009999GF107991999999999999999999MA1100511999999MW1801REMMET096RJCT 270100Z 29005KT 9999 -SHRA FEW020 SCT030 BKN100 17/11 Q1005 RMK 1CU020 3SC030 7AS100 A2969;EQDQ01+000003PRSWM1Q02    003PRSWM1
0227474905999992000092701314+42900+143170FM-16+0084RJCT V0203001N005110390019N0112651N1+01701+01001999999ADDGA1021+009009999GA2021+018009999GA3071+039009999GF107991999999999999999999MA1100511999999MW1001OC101131REMMET093RJCT 270131Z 30010G22KT 9999 FEW030 SCT060 BKN130 17/10 Q1005 RMK 1CU030 3SC060 6AC130 A2968;EQDQ01+000000PRSWM2
0227474905999992000092702004+42900+143170FM-15+0084RJCT V0202901N006710660019N0112651N1+01801+01001999999ADDGA1021+009009999GA2021+030009999GA3071+066009999GF107991999999999999999999MA1100411999999MW1001OC101231REMMET093RJCT 270200Z 29013G24KT 9999 FEW030 SCT100 BKN220 18/10 Q1004 RMK 1CU030 3AC100 7CS220 A2967;EQDQ01+000000PRSWM2
0256474905999992000092703004+42900+143170FM-15+0084RJCT V0203001N005110660019N0112651N1+01901+01001999999ADDGA1021+009009999GA2021+015009999GA3071+066009999GF107991999999999999999999MA1100411999999MW1001OC101031REMMET122RJCT 270300Z 30010G20KT 9999 FEW030 SCT050 BKN220 19/10 Q1004 RMK 2CU030 3SC050 6CI220 A2966 FCST 0312 BECMG 0608 31010KT;EQDQ01+000000PRSWM2
0186474905999992000092704004+42900+143170FM-15+0084RJCT V0203001N005110600019N0112651N1+01901+01101999999ADDGA1021+009009999GA2071+060009999GF107991999999999999999999MA1100411999999MW1001REMMET076RJCT 270400Z 30010KT 9999 FEW030 BKN200 19/11 Q1004 RMK 2CU030 7CI200 A2964;EQDQ01+000000PRSWM2
0216474905999992000092705004+42900+143170FM-15+0084RJCT V0203101N004610660019N0112651N1+02001+01001999999ADDGA1021+009009999GA2021+015009999GA3071+066009999GF107991999999999999999999MA1100311999999MW1001REMMET090RJCT 270500Z 31009KT 9999 FEW030 SCT050 BKN220 20/10 Q1003 RMK 2CU030 4SC050 7CI220 A2963;EQDQ01+000000PRSWM2
0202474905999992000092706004+42900+143170FM-15+0084RJCT V0203201N002610150019N0112651N1+01901+01101999999ADDGA1021+009009999GA2071+015009999GF107991999999999999999999MA1100311999999MW1001REMMET092RJCT 270600Z 32005KT 9999 FEW030 BKN050 19/11 Q1003 RMK 2CU030 7SC050 A2963 FCST 0615 NOSIG;EQDQ01+000000PRSWM2
0216474905999992000092707004+42900+143170FM-15+0084RJCT V0203001N002610300019N0112651N1+01801+01101999999ADDGA1021+004509999GA2071+030009999GA3071+066009999GF107991999999999999999999MA1100311999999MW1001REMMET090RJCT 270700Z 30005KT 9999 FEW015 BKN100 BKN220 18/11 Q1003 RMK 1SC015 6AC100 7CI220 A2963;EQDQ01+000000PRSWM2
0232474905999992000092708004+42900+143170FM-15+0084RJCT V0202801N002610300019N0112651N1+01701+01201999999ADDGA1021+004509999GA2071+030009999GA3071+066009999GF107991999999999999999999MA1100311999999MW1001REMMET106RJCT 270800Z 28005KT 9999 FEW015 BKN100 BKN220 17/12 Q1003 RMK 2SC015 5AC100 6CI220 A2963 FCST 0817 NOSIG;EQDQ01+000000PRSWM2
0238474905999992000092709004+42900+143170FM-15+0084RJCT V0202801N002110300019N0112651N1+01501+01301999999ADDGA1021+004509999GA2071+030009999GA3071+066009999GF107991999999999999999999MA1100311999999MW1801REMMET096RJCT 270900Z 28004KT 9999 -SHRA SCT015 BKN100 BKN220 15/13 Q1003 RMK 3SC015 6AC100 6CI220 A2963;EQDQ01+000003PRSWM1Q02    003PRSWM1
0238474905999992000092710004+42900+143170FM-15+0084RJCT V0202701N001510150019N0112651N1+01401+01201999999ADDGA1021+004509999GA2071+015009999GA3071+024009999GF107991999999999999999999MA1100311999999MW1801REMMET096RJCT 271000Z 27003KT 9999 -SHRA SCT015 BKN050 BKN080 14/12 Q1003 RMK 3ST015 6SC050 7AC080 A2964;EQDQ01+000003PRSWM1Q02    003PRSWM1
0216474905999992000092711004+42900+143170FM-15+0084RJCT V0202501N001010135019N0112651N1+01401+01201999999ADDGA1021+004509999GA2071+013509999GA3071+024009999GF107991999999999999999999MA1100311999999MW1001REMMET090RJCT 271100Z 25002KT 9999 SCT015 BKN045 BKN080 14/12 Q1003 RMK 3ST015 6SC045 7AC080 A2964;EQDQ01+000000PRSWM2
0238474905999992000092719304+42900+143170FM-15+0084RJCT V0203101N001510090019N0112651N1+01201+01001999999ADDGA1021+002409999GA2071+009009999GA3071+024009999GF107991999999999999999999MA1100511999999MW1801REMMET096RJCT 271930Z 31003KT 9999 -SHRA FEW008 BKN030 BKN080 12/10 Q1005 RMK 2ST008 5SC030 7AC080 A2970;EQDQ01+000003PRSWM1Q02    003PRSWM1
0220474905999992000092720004+42900+143170FM-15+0084RJCT V0209999V000510120019N0112651N1+01101+01001999999ADDGA1021+009009999GA2071+012009999GA3071+024009999GF107991999999999999999999MA1100511999999MW1001REMMET094RJCT 272000Z RTD VRB01KT 9999 FEW030 BKN040 BKN080 11/10 Q1005 RMK 1CU030 5SC040 6AC080 A2970;EQDQ01+000000PRSWM2
0186474905999992000092721004+42900+143170FM-15+0084RJCT V0201801N000512200019N0112651N1+01001+01001999999ADDGA1021+003009999GA2021+021009999GF104991999999999999999999MA1100611999999MW1001REMMET076RJCT 272100Z 18001KT 9999 FEW010 SCT070 10/10 Q1006 RMK 1ST010 4AC070 A2971;EQDQ01+000000PRSWM2
0186474905999992000092722004+42900+143170FM-15+0084RJCT V0203501N001512200019N0112651N1+01501+01101999999ADDGA1021+003609999GA2021+024009999GF104991999999999999999999MA1100611999999MW1001REMMET076RJCT 272200Z 35003KT 9999 FEW012 SCT080 15/11 Q1006 RMK 1ST012 4AC080 A2972;EQDQ01+000000PRSWM2
0218474905999992000092723004+42900+143170FM-15+0084RJCT V0203201N003612200019N0112651N1+01701+01101999999ADDGA1021+003009999GA2021+012009999GF104991999999999999999999MA1100711999999MW1001REMMET108RJCT 272300Z 32007KT 9999 FEW010 SCT040 17/11 Q1007 RMK 1ST010 3SC040 A2973 FCST 2308 TEMPO 0407 31012G25KT;EQDQ01+000000PRSWM2
0188474905999992000092800004+42900+143170FM-15+0084RJCT V0203101N004612200019N0112651N1+01701+01001999999ADDGA1021+007509999GF102991999999999999999999MA1100711999999MW1001REMMET094RJCT 280000Z 31009KT 9999 FEW025 17/10 Q1007 RMK 1CU025 A2974 FCST 0009 TEMPO 0407 31012G25KT;EQDQ01+000000PRSWM2
0167474905999992000092800454+42900+143170FM-15+0084RJCT V0203201N005112200019N0112651N1+01801+01001999999ADDGA1021+007509999GF102991999999999999999999MA1100711999999MW1001OC101031REMMET065RJCT 280045Z 32010G20KT 9999 FEW025 18/10 Q1007 RMK 2CU025 A2975;EQDQ01+000000PRSWM2
0156474905999992000092801004+42900+143170FM-15+0084RJCT V0203201N005112200019N0112651N1+01901+01101999999ADDGA1021+007509999GF102991999999999999999999MA1100711999999MW1001REMMET062RJCT 280100Z 32010KT 9999 FEW025 19/11 Q1007 RMK 2CU025 A2975;EQDQ01+000000PRSWM2
0156474905999992000092802004+42900+143170FM-15+0084RJCT V0203101N005112200019N0112651N1+01901+01001999999ADDGA1021+009009999GF102991999999999999999999MA1100711999999MW1001REMMET062RJCT 280200Z 31010KT 9999 FEW030 19/10 Q1007 RMK 2CU030 A2975;EQDQ01+000000PRSWM2
0218474905999992000092803004+42900+143170FM-15+0084RJCT V0203101N004612200019N0112651N1+02001+01101999999ADDGA1021+006009999GA2021+012009999GF104991999999999999999999MA1100711999999MW1001REMMET108RJCT 280300Z 31009KT 9999 FEW020 SCT040 20/11 Q1007 RMK 1CU020 3CU040 A2975 FCST 0312 TEMPO 0407 31012G25KT;EQDQ01+000000PRSWM2
0186474905999992000092804004+42900+143170FM-15+0084RJCT V0203001N005112200019N0112651N1+02001+01101999999ADDGA1021+006009999GA2021+012009999GF104991999999999999999999MA1100711999999MW1001REMMET076RJCT 280400Z 30010KT 9999 FEW020 SCT040 20/11 Q1007 RMK 1CU020 3CU040 A2974;EQDQ01+000000PRSWM2
0186474905999992000092804384+42900+143170FM-16+0084RJCT V0203101N005110120019N0112651N1+01901+01001999999ADDGA1021+006009999GA2071+012009999GF107991999999999999999999MA1100711999999MW1001REMMET076RJCT 280438Z 31010KT 9999 FEW020 BKN040 19/10 Q1007 RMK 1CU020 6CU040 A2975;EQDQ01+000000PRSWM2
0186474905999992000092805004+42900+143170FM-15+0084RJCT V0203101N005110120019N0112651N1+01901+01001999999ADDGA1021+006009999GA2071+012009999GF107991999999999999999999MA1100711999999MW1001REMMET076RJCT 280500Z 31010KT 9999 FEW020 BKN040 19/10 Q1007 RMK 1CU020 6CU040 A2975;EQDQ01+000000PRSWM2
0273474905999992000092806004+42900+143170FM-15+0084RJCT V0203101N00411220001CN0112651N1+01901+01001999999ADDGA1021+004509999GA2021+010509099GA3071+010509999MA1100711999999MW1001OC101031REMMET149RJCT 280600Z 31008G20KT 9999 FEW015 BKN035 FEW035CB 19/10 Q1007 RMK 1ST015 6CU035 2CB035 A2976 CB 10KM N MOV E FCST 0615 BECMG 0708 31010KT SCT040SC;EQDQ01+000022SCOTCVQ02+000000PRSWM2
0186474905999992000092807004+42900+143170FM-15+0084RJCT V02099999999990105019N0112651N1+01701+01001999999ADDGA1021+006009999GA2071+010509999GF107991999999999999999999MA1100811999999MW1001REMMET076RJCT 280700Z VRB02KT 9999 FEW020 BKN035 17/10 Q1008 RMK 1CU020 6CU035 A2979;EQDQ01+000000PRSWM2
0202474905999992000092808004+42900+143170FM-15+0084RJCT V0203301N002610105019N0112651N1+01701+01001999999ADDGA1021+004509999GA2071+010509999GF107991999999999999999999MA1100911999999MW1001REMMET092RJCT 280800Z 33005KT 9999 FEW015 BKN035 17/10 Q1009 RMK 2ST015 6SC035 A2981 FCST 0817 NOSIG;EQDQ01+000000PRSWM2
0186474905999992000092809004+42900+143170FM-15+0084RJCT V0203301N003610105019N0112651N1+01601+00901999999ADDGA1021+003009999GA2071+010509999GF107991999999999999999999MA1101021999999MW1001REMMET076RJCT 280900Z 33007KT 9999 FEW010 BKN035 16/09 Q1010 RMK 1ST010 7SC035 A2984;EQDQ01+000000PRSWM2
0186474905999992000092810004+42900+143170FM-15+0084RJCT V0203201N003110120019N0112651N1+01601+00901999999ADDGA1021+006009999GA2071+012009999GF107991999999999999999999MA1101081999999MW1001REMMET076RJCT 281000Z 32006KT 9999 FEW020 BKN040 16/09 Q1011 RMK 1CU020 6SC040 A2986;EQDQ01+000000PRSWM2
0156474905999992000092811004+42900+143170FM-15+0084RJCT V0203501N001012200019N0112651N1+01401+00901999999ADDGA1021+009009999GF102991999999999999999999MA1101081999999MW1001REMMET062RJCT 281100Z 35002KT 9999 FEW030 14/09 Q1011 RMK 1SC030 A2987;EQDQ01+000000PRSWM2
0156474905999992000092819274+42900+143170FM-16+0084RJCT V0201401N001012200019N0112651N1+00601+00501999999ADDGA1021+003009999GF102991999999999999999999MA1101291999999MW1001REMMET062RJCT 281927Z 14002KT 9999 FEW010 06/05 Q1013 RMK 1ST010 A2994;EQDQ01+000000PRSWM2
0156474905999992000092820004+42900+143170FM-15+0084RJCT V0201901N000512200019N0112651N1+00501+00401999999ADDGA1021+003009999GF102991999999999999999999MA1101291999999MW1001REMMET062RJCT 282000Z 19001KT 9999 FEW010 05/04 Q1013 RMK 1ST010 A2993;EQDQ01+000000PRSWM2
0156474905999992000092821004+42900+143170FM-15+0084RJCT V0200201N000512200019N0112651N1+00501+00501999999ADDGA1021+003009999GF102991999999999999999999MA1101391999999MW1001REMMET062RJCT 282100Z 02001KT 9999 FEW010 05/05 Q1014 RMK 1ST010 A2994;EQDQ01+000000PRSWM2
0156474905999992000092822004+42900+143170FM-15+0084RJCT V0200101N000512200019N0112651N1+00901+00701999999ADDGA1021+012009999GF102991999999999999999999MA1101391999999MW1001REMMET062RJCT 282200Z 01001KT 9999 FEW040 09/07 Q1014 RMK 1SC040 A2994;EQDQ01+000000PRSWM2
0172474905999992000092823004+42900+143170FM-15+0084RJCT V0201701N000512200019N0112651N1+01101+00801999999ADDGA1021+004509999GF102991999999999999999999MA1101391999999MW1001REMMET078RJCT 282300Z 17001KT 9999 FEW015 11/08 Q1014 RMK 1ST015 A2996 FCST 2308 NOSIG;EQDQ01+000000PRSWM2
0172474905999992000092900004+42900+143170FM-15+0084RJCT V0203401N000512200019N0112651N1+01401+01001999999ADDGA1021+012009999GF102991999999999999999999MA1101291999999MW1001REMMET078RJCT 290000Z 34001KT 9999 FEW040 14/10 Q1013 RMK 1CU040 A2994 FCST 0009 NOSIG;EQDQ01+000000PRSWM2
0156474905999992000092901004+42900+143170FM-15+0084RJCT V0201301N001512200019N0112651N1+01701+01101999999ADDGA1021+012009999GF102991999999999999999999MA1101291999999MW1001REMMET062RJCT 290100Z 13003KT 9999 FEW040 17/11 Q1013 RMK 1CU040 A2992;EQDQ01+000000PRSWM2
0186474905999992000092902004+42900+143170FM-15+0084RJCT V0201301N001010660019N0112651N1+01901+01101999999ADDGA1021+012009999GA2071+066009999GF107991999999999999999999MA1101191999999MW1001REMMET076RJCT 290200Z 13002KT 9999 FEW040 BKN220 19/11 Q1012 RMK 1CU040 7CI220 A2990;EQDQ01+000000PRSWM2
0202474905999992000092903004+42900+143170FM-15+0084RJCT V02099999999990660019N0112651N1+01901+01101999999ADDGA1021+010509999GA2071+066009999GF107991999999999999999999MA1101191999999MW1001REMMET092RJCT 290300Z VRB01KT 9999 FEW035 BKN220 19/11 Q1012 RMK 1CU035 7CI220 A2988 FCST 0312 NOSIG;EQDQ01+000000PRSWM2
0186474905999992000092904004+42900+143170FM-15+0084RJCT V02099999999990630019N0112651N1+02001+01101999999ADDGA1021+010509999GA2071+063009999GF107991999999999999999999MA1101081999999MW1001REMMET076RJCT 290400Z VRB01KT 9999 FEW035 BKN210 20/11 Q1011 RMK 1CU035 7CI210 A2987;EQDQ01+000000PRSWM2
0186474905999992000092905004+42900+143170FM-15+0084RJCT V02099999999990630019N0112651N1+02101+01101999999ADDGA1021+009009999GA2071+063009999GF107991999999999999999999MA1101081999999MW1001REMMET076RJCT 290500Z VRB03KT 9999 FEW030 BKN210 21/11 Q1011 RMK 1CU030 7CI210 A2986;EQDQ01+000000PRSWM2
0202474905999992000092906004+42900+143170FM-15+0084RJCT V02099999999990630019N0112651N1+02101+01201999999ADDGA1021+009009999GA2071+063009999GF107991999999999999999999MA1101081999999MW1001REMMET092RJCT 290600Z VRB03KT 9999 FEW030 BKN210 21/12 Q1011 RMK 2CU030 7CI210 A2986 FCST 0615 NOSIG;EQDQ01+000000PRSWM2
0216474905999992000092907004+42900+143170FM-15+0084RJCT V0203601N001510630019N0112651N1+02001+01301999999ADDGA1021+006009999GA2021+010509999GA3071+063009999GF107991999999999999999999MA1101081999999MW1001REMMET090RJCT 290700Z 36003KT 9999 FEW020 SCT035 BKN210 20/13 Q1011 RMK 1CU020 4CU035 7CI210 A2987;EQDQ01+000000PRSWM2
0232474905999992000092908004+42900+143170FM-15+0084RJCT V0203001N005110630019N0112651N1+02001+01101999999ADDGA1021+006009999GA2021+010509999GA3071+063009999GF107991999999999999999999MA1101191999999MW1001REMMET106RJCT 290800Z 30010KT 9999 FEW020 SCT035 BKN210 20/11 Q1012 RMK 1CU020 3CU035 7CI210 A2988 FCST 0817 NOSIG;EQDQ01+000000PRSWM2
0186474905999992000100103034+42900+143170FM-16+0084RJCT V0201001N001010105019N0112651N1+01801+01201999999ADDGA1021+004509999GA2071+010509999GF107991999999999999999999MA1101691999999MW1001REMMET076RJCT 010303Z 10002KT 9999 FEW015 BKN035 18/12 Q1017 RMK 1ST015 6CU035 A3005;EQDQ01+000000PRSWM2
0186474905999992000100104004+42900+143170FM-15+0084RJCT V0201301N002610090019N0112651N1+01801+01201999999ADDGA1021+004509999GA2071+009009999GF107991999999999999999999MA1101691999999MW1001REMMET076RJCT 010400Z 13005KT 9999 FEW015 BKN030 18/12 Q1017 RMK 1ST015 7CU030 A3003;EQDQ01+000000PRSWM2
0235474905999992000100122004+42900+143170FM-15+0084RJCT V0202901N001010024019N0030001N1+01401+01301999999ADDGA1021+000909999GA2071+002409999GA3081+007509999GF108991999999999999999999MA1101691999999MW1101REMMET093RJCT 012200Z 29002KT 3000 BR SCT003 BKN008 OVC025 14/13 Q1017 RMK 3ST003 5ST008 8SC025 A3003;EQDQ01+000003PRSWM1Q02    003PRSWM1
0260474905999992000100123004+42900+143170FM-15+0084RJCT V0209999C000010060019N0040001N1+01401+01301999999ADDGA1021+001509999GA2021+002409999GA3071+006009999GF107991999999999999999999MA1101691999999MW1101REMMET118RJCT 012300Z 00000KT 4000 BR FEW005 SCT008 BKN020 14/13 Q1017 RMK 1ST005 4ST008 6SC020 A3004 FCST 2308 BECMG 0001 NSW;EQDQ01+000003PRSWM1Q02    003PRSWM1
0260474905999992000100200004+42900+143170FM-15+0084RJCT V0201601N000510090019N0050001N1+01501+01301999999ADDGA1021+001809999GA2021+003009999GA3071+009009999GF107991999999999999999999MA1101691999999MW1101REMMET118RJCT 020000Z 16001KT 5000 BR FEW006 SCT010 BKN030 15/13 Q1017 RMK 1ST006 3ST010 7SC030 A3004 FCST 0009 BECMG 0001 NSW;EQDQ01+000003PRSWM1Q02    003PRSWM1
0186474905999992000100201004+42900+143170FM-15+0084RJCT V0201301N000510090019N0070001N1+01501+01301999999ADDGA1021+003009999GA2071+009009999GF107991999999999999999999MA1101691999999MW1001REMMET076RJCT 020100Z 13001KT 7000 FEW010 BKN030 15/13 Q1017 RMK 1ST010 7SC030 A3003;EQDQ01+000000PRSWM2
0216474905999992000100202004+42900+143170FM-15+0084RJCT V0209999C000010045019N0080001N1+01601+01301999999ADDGA1021+002409999GA2071+004509999GA3071+009009999GF107991999999999999999999MA1101591999999MW1001REMMET090RJCT 020200Z 00000KT 8000 FEW008 BKN015 BKN030 16/13 Q1016 RMK 1ST008 5ST015 7SC030 A3002;EQDQ01+000000PRSWM2
0232474905999992000100203004+42900+143170FM-15+0084RJCT V0202901N001010045019N0090001N1+01701+01301999999ADDGA1021+003009999GA2071+004509999GA3071+009909999GF107991999999999999999999MA1101591999999MW1001REMMET106RJCT 020300Z 29002KT 9000 FEW010 BKN015 BKN033 17/13 Q1016 RMK 1ST010 5ST015 6SC033 A3001 FCST 0312 NOSIG;EQDQ01+000000PRSWM2
0216474905999992000100204004+42900+143170FM-15+0084RJCT V0203201N001510045019N0090001N1+01701+01301999999ADDGA1021+003009999GA2071+004509999GA3071+009009999GF107991999999999999999999MA1101491999999MW1001REMMET090RJCT 020400Z 32003KT 9000 FEW010 BKN015 BKN030 17/13 Q1015 RMK 1ST010 5ST015 6SC030 A2998;EQDQ01+000000PRSWM2
0216474905999992000100205004+42900+143170FM-15+0084RJCT V0203401N001510054019N0112651N1+01801+01401999999ADDGA1021+003609999GA2071+005409999GA3071+009009999GF107991999999999999999999MA1101491999999MW1001REMMET090RJCT 020500Z 34003KT 9999 FEW012 BKN018 BKN030 18/14 Q1015 RMK 1ST012 5ST018 7SC030 A2997;EQDQ01+000000PRSWM2
0238474905999992000100205204+42900+143170FM-15+0084RJCT V0200101N001010054019N0112651N1+01801+01401999999ADDGA1021+003609999GA2071+005409999GA3071+009009999GF107991999999999999999999MA1101391999999MW1801REMMET096RJCT 020520Z 01002KT 9999 -SHRA FEW012 BKN018 BKN030 18/14 Q1014 RMK 1ST012 6ST018 7SC030 A2997;EQDQ01+000003PRSWM1Q02    003PRSWM1
0232474905999992000100206004+42900+143170FM-15+0084RJCT V0200501N001510054019N0112651N1+01801+01401999999ADDGA1021+003609999GA2071+005409999GA3071+009909999GF107991999999999999999999MA1101391999999MW1001REMMET106RJCT 020600Z 05003KT 9999 FEW012 BKN018 BKN033 18/14 Q1014 RMK 1ST012 5ST018 7SC033 A2997 FCST 0615 NOSIG;EQDQ01+000000PRSWM2
0238474905999992000100206104+42900+143170FM-16+0084RJCT V0200701N001510060019N0112651N1+01801+01401999999ADDGA1021+003609999GA2071+006009999GA3071+010509999GF107991999999999999999999MA1101491999999MW1801REMMET096RJCT 020610Z 07003KT 9999 -SHRA FEW012 BKN020 BKN035 18/14 Q1015 RMK 1ST012 5SC020 7SC035 A2997;EQDQ01+000003PRSWM1Q02    003PRSWM1
0238474905999992000100222004+42900+143170FM-15+0084RJCT V0203101N001010135019N0112651N1+01301+01201999999ADDGA1021+010509999GA2071+013509999GA3081+027009999GF108991999999999999999999MA1101021999999MW1801REMMET096RJCT 022200Z 31002KT 9999 -SHRA FEW035 BKN045 OVC090 13/12 Q1010 RMK 2SC035 6SC045 8AC090 A2984;EQDQ01+000003PRSWM1Q02    003PRSWM1
0238474905999992000100222234+42900+143170FM-16+0084RJCT V0203301N001010090019N0112651N1+01301+01201999999ADDGA1021+006009999GA2071+009009999GA3081+027009999GF108991999999999999999999MA1101021999999MW1801REMMET096RJCT 022223Z 33002KT 9999 -SHRA FEW020 BKN030 OVC090 13/12 Q1010 RMK 1SC020 6SC030 8AC090 A2983;EQDQ01+000003PRSWM1Q02    003PRSWM1
0272474905999992000100223004+42900+143170FM-15+0084RJCT V0203401N001010090019N0112651N1+01401+01201999999ADDGA1021+006009999GA2071+009009999GA3081+027009999GF108991999999999999999999MA1100911999999MW1801REMMET130RJCT 022300Z COR 34002KT 9999 -SHRA FEW020 BKN030 OVC090 14/12 Q1009 RMK 1SC020 6SC030 8AC090 A2982 FCST COR 2308 TEMPO 0003 4000;EQDQ01+000003PRSWM1Q02    003PRSWM1
0254474905999992000100300004+42900+143170FM-15+0084RJCT V0203601N001010090019N0112651N1+01401+01301999999ADDGA1021+006009999GA2071+009009999GA3081+027009999GF108991999999999999999999MA1100911999999MW1801REMMET112RJCT 030000Z 36002KT 9999 -SHRA FEW020 BKN030 OVC090 14/13 Q1009 RMK 1SC020 6SC030 8AC090 A2980 FCST 0009 NOSIG;EQDQ01+000003PRSWM1Q02    003PRSWM1
0238474905999992000100301004+42900+143170FM-15+0084RJCT V0200101N001010090019N0112651N1+01501+01301999999ADDGA1021+006009999GA2071+009009999GA3081+027009999GF108991999999999999999999MA1100811999999MW1801REMMET096RJCT 030100Z 01002KT 9999 -SHRA FEW020 BKN030 OVC090 15/13 Q1008 RMK 1SC020 6SC030 8AC090 A2978;EQDQ01+000003PRSWM1Q02    003PRSWM1
0238474905999992000100302004+42900+143170FM-15+0084RJCT V0200201N001010075019N0045001N1+01501+01301999999ADDGA1021+003009999GA2071+007509999GA3081+012009999GF108991999999999999999999MA1100811999999MW1801REMMET096RJCT 030200Z 02002KT 4500 -SHRA FEW010 BKN025 OVC040 15/13 Q1008 RMK 2ST010 6SC025 8SC040 A2978;EQDQ01+000003PRSWM1Q02    003PRSWM1
0238474905999992000100302214+42900+143170FM-16+0084RJCT V0200201N001010090019N0070001N1+01501+01301999999ADDGA1021+003009999GA2071+009009999GA3081+013509999GF108991999999999999999999MA1100711999999MW1801REMMET096RJCT 030221Z 02002KT 7000 -SHRA FEW010 BKN030 OVC045 15/13 Q1007 RMK 2ST010 6SC030 8SC045 A2975;EQDQ01+000003PRSWM1Q02    003PRSWM1
0278474905999992000100303004+42900+143170FM-15+0084RJCT V0203501N001010075019N0070001N1+01501+01301999999ADDGA1021+003009999GA2071+007509999GA3081+012009999GF108991999999999999999999MA1100711999999MW1801REMMET136RJCT 030300Z 35002KT 7000 -SHRA FEW010 BKN025 OVC040 15/13 Q1007 RMK 2ST010 6SC025 8SC040 A2973 FCST 0312 TEMPO 0306 450 BECMG 0910 NSW;EQDQ01+000003PRSWM1Q02    003PRSWM1
0238474905999992000100303484+42900+143170FM-16+0084RJCT V0200701N001010024019N0060001N1+01501+01401999999ADDGA1021+001509999GA2071+002409999GA3071+007509999GF107991999999999999999999MA1100611999999MW1801REMMET096RJCT 030348Z 07002KT 6000 -SHRA FEW005 BKN008 BKN025 15/14 Q1006 RMK 1ST005 6ST008 7SC025 A2972;EQDQ01+000003PRSWM1Q02    003PRSWM1
0238474905999992000100304004+42900+143170FM-15+0084RJCT V0200601N001510024019N0080001N1+01501+01401999999ADDGA1021+001509999GA2071+002409999GA3071+007509999GF107991999999999999999999MA1100611999999MW1801REMMET096RJCT 030400Z 06003KT 8000 -SHRA FEW005 BKN008 BKN025 15/14 Q1006 RMK 1ST005 5ST008 6SC025 A2971;EQDQ01+000003PRSWM1Q02    003PRSWM1
0238474905999992000100304104+42900+143170FM-16+0084RJCT V0200301N001510120019N0080001N1+01501+01401999999ADDGA1021+001509999GA2021+002409999GA3081+012009999GF108991999999999999999999MA1100611999999MW1801REMMET096RJCT 030410Z 03003KT 8000 -SHRA FEW005 SCT008 OVC040 15/14 Q1006 RMK 1ST005 3ST008 8SC040 A2971;EQDQ01+000003PRSWM1Q02    003PRSWM1
0238474905999992000100305004+42900+143170FM-15+0084RJCT V0203501N001010135019N0112651N1+01501+01401999999ADDGA1021+001509999GA2021+010509999GA3081+013509999GF108991999999999999999999MA1100511999999MW1801REMMET096RJCT 030500Z 35002KT 9999 -SHRA FEW005 SCT035 OVC045 15/14 Q1005 RMK 1ST005 3SC035 8SC045 A2970;EQDQ01+000003PRSWM1Q02    003PRSWM1
0262474905999992000100306004+42900+143170FM-15+0084RJCT V0203501N000510120019N0112651N1+01501+01401999999ADDGA1021+001809999GA2071+012009999GA3081+021009999GF108991999999999999999999MA1100511999999MW1801REMMET120RJCT 030600Z 35001KT 9999 -SHRA FEW06 BKN040 OVC070 15/14 Q1005 RMK 1ST006 6SC040 8AC070 A2969 FCST 0615 BECMG 0708 NSW;EQDQ01+000003PRSWM1Q02    003PRSWM1
0238474905999992000100307004+42900+143170FM-15+0084RJCT V0202801N002110135019N0080001N1+01501+01401999999ADDGA1021+002409999GA2021+009009999GA3081+013509999GF108991999999999999999999MA1100511999999MW1801REMMET096RJCT 030700Z 28004KT 8000 -SHRA FEW008 SCT030 OVC045 15/14 Q1005 RMK 1ST008 3SC030 8SC045 A2968;EQDQ01+000003PRSWM1Q02    003PRSWM1
0263474905999992000100308004+42900+143170FM-15+0084RJCT V0202501N002110120019N0070001N1+01401+01401999999ADDGA1021+002409999GA2071+012009999GA3081+021009999GF108991999999999999999999MA1100511999999MW1801REMMET121RJCT 030800Z 25004KT 7000 -SHRA FEW008 BKN040 OVC070 14/14 Q1005 RMK 1ST008 6SC040 8AC070 A2968 FCST 0817 BECMG 0910 NSW;EQDQ01+000003PRSWM1Q02    003PRSWM1
0186474905999992000100322004+42900+143170FM-15+0084RJCT V0201701N001512200019N0060001N1+01401+01401999999ADDGA1021+000909999GA2021+006009999GF104991999999999999999999MA1100811999999MW1001REMMET076RJCT 032200Z 17003KT 6000 FEW003 SCT020 14/14 Q1008 RMK 2ST003 3SC020 A2978;EQDQ01+000000PRSWM2
0186474905999992000100322304+42900+143170FM-15+0084RJCT V0201401N001010060019N0112651N1+01501+01401999999ADDGA1021+001209999GA2071+006009999GF107991999999999999999999MA1100811999999MW1001REMMET076RJCT 032230Z 14002KT 9999 SCT004 BKN020 15/14 Q1008 RMK 3ST004 7SC020 A2979;EQDQ01+000000PRSWM2
0216474905999992000100323004+42900+143170FM-15+0084RJCT V0201101N000510060019N0112651N1+01501+01401999999ADDGA1021+001209999GA2071+006009999GF107991999999999999999999MA1100911999999MW1001REMMET106RJCT 032300Z 11001KT 9999 FEW004 BKN020 15/14 Q1009 RMK 1ST004 6SC020 A2980 FCST 2308 BECMG 0001 SCT025CU;EQDQ01+000000PRSWM2
0216474905999992000100400004+42900+143170FM-15+0084RJCT V0201601N000510060019N0112651N1+01601+01301999999ADDGA1021+004509999GA2071+006009999GF107991999999999999999999MA1100911999999MW1001REMMET106RJCT 040000Z 16001KT 9999 FEW015 BKN020 16/13 Q1009 RMK 2SC015 5CU020 A2981 FCST 0009 BECMG 0001 SCT025CU;EQDQ01+000000PRSWM2
0186474905999992000100400204+42900+143170FM-15+0084RJCT V02099999999992200019N0112651N1+01801+01301999999ADDGA1021+004509999GA2021+006009999GF104991999999999999999999MA1100911999999MW1001REMMET076RJCT 040020Z VRB01KT 9999 FEW015 SCT020 18/13 Q1009 RMK 1SC015 4CU020 A2981;EQDQ01+000000PRSWM2
0186474905999992000100401004+42900+143170FM-15+0084RJCT V0201401N001512200019N0112651N1+02001+01401999999ADDGA1021+005109999GA2021+006609999GF104991999999999999999999MA1100911999999MW1001REMMET076RJCT 040100Z 14003KT 9999 FEW017 SCT022 20/14 Q1009 RMK 1CU017 3CU022 A2980;EQDQ01+000000PRSWM2
0156474905999992000100402004+42900+143170FM-15+0084RJCT V02099999999992200019N0112651N1+02001+01301999999ADDGA1021+007509999GF104991999999999999999999MA1100911999999MW1001REMMET062RJCT 040200Z VRB02KT 9999 SCT025 20/13 Q1009 RMK 3CU025 A2980;EQDQ01+000000PRSWM2
0172474905999992000100403004+42900+143170FM-15+0084RJCT V02099999999992200019N0112651N1+02101+01301999999ADDGA1021+007509999GF102991999999999999999999MA1100811999999MW1001REMMET078RJCT 040300Z VRB02KT 9999 FEW025 21/13 Q1008 RMK 2CU025 A2979 FCST 0312 NOSIG;EQDQ01+000000PRSWM2
0186474905999992000100404004+42900+143170FM-15+0084RJCT V0201301N002112200019N0112651N1+02201+01201999999ADDGA1021+006009999GA2021+009009999GF104991999999999999999999MA1100811999999MW1001REMMET076RJCT 040400Z 13004KT 9999 FEW020 SCT030 22/12 Q1008 RMK 1CU020 3CU030 A2978;EQDQ01+000000PRSWM2
0186474905999992000100405004+42900+143170FM-15+0084RJCT V0202701N001012200019N0112651N1+02201+01101999999ADDGA1021+006009999GA2021+009009999GF104991999999999999999999MA1100911999999MW1001REMMET076RJCT 040500Z 27002KT 9999 FEW020 SCT030 22/11 Q1009 RMK 1CU020 3CU030 A2980;EQDQ01+000000PRSWM2
0202474905999992000100406004+42900+143170FM-15+0084RJCT V0202101N001012200019N0112651N1+01901+01301999999ADDGA1021+006009999GA2021+009009999GF104991999999999999999999MA1100911999999MW1001REMMET092RJCT 040600Z 21002KT 9999 FEW020 SCT030 19/13 Q1009 RMK 1CU020 3CU030 A2981 FCST 0615 NOSIG;EQDQ01+000000PRSWM2
0186474905999992000100407004+42900+143170FM-15+0084RJCT V0202701N003612200019N0112651N1+01901+01101999999ADDGA1021+006009999GA2021+009009999GF104991999999999999999999MA1101021999999MW1001REMMET076RJCT 040700Z 27007KT 9999 FEW020 SCT030 19/11 Q1010 RMK 1CU020 3CU030 A2983;EQDQ01+000000PRSWM2
0172474905999992000100408004+42900+143170FM-15+0084RJCT V0202501N001012200019N0112651N1+01501+01001999999ADDGA1021+006009999GF102991999999999999999999MA1101081999999MW1001REMMET078RJCT 040800Z 25002KT 9999 FEW020 15/10 Q1011 RMK 1CU020 A2985 FCST 0817 NOSIG;EQDQ01+000000PRSWM2
0186474905999992000100422004+42900+143170FM-15+0084RJCT V0201801N000512200019N0112651N1+00901+00701999999ADDGA1021+009009999GA2021+045009999GF104991999999999999999999MA1101591999999MW1001REMMET076RJCT 042200Z 18001KT 9999 FEW030 SCT150 09/07 Q1016 RMK 1CU030 3AC150 A3002;EQDQ01+000000PRSWM2
0202474905999992000100423004+42900+143170FM-15+0084RJCT V0203501N000512200019N0112651N1+01201+00801999999ADDGA1021+007509999GA2021+039009999GF104991999999999999999999MA1101591999999MW1001REMMET092RJCT 042300Z 35001KT 9999 FEW025 SCT130 12/08 Q1016 RMK 1CU025 3AC130 A3002 FCST 2308 NOSIG;EQDQ01+000000PRSWM2
0232474905999992000100500004+42900+143170FM-15+0084RJCT V0200901N000510690019N0112651N1+01501+00801999999ADDGA1021+009009999GA2021+039009999GA3071+069009999GF107991999999999999999999MA1101591999999MW1001REMMET106RJCT 050000Z 09001KT 9999 FEW030 SCT130 BKN230 15/08 Q1016 RMK 1CU030 3AC130 5CC230 A3003 FCST 0009 NOSIG;EQDQ01+000000PRSWM2
0156474905999992000100501004+42900+143170FM-15+0084RJCT V0200501N001012200019N0112651N1+01701+00801999999ADDGA1021+007509999GF102991999999999999999999MA1101591999999MW1001REMMET062RJCT 050100Z 05002KT 9999 FEW025 17/08 Q1016 RMK 1CU025 A3002;EQDQ01+000000PRSWM2
0156474905999992000100502004+42900+143170FM-15+0084RJCT V0201101N001512200019N0112651N1+01901+00901999999ADDGA1021+007509999GF102991999999999999999999MA1101591999999MW1001REMMET062RJCT 050200Z 11003KT 9999 FEW025 19/09 Q1016 RMK 1CU025 A3002;EQDQ01+000000PRSWM2
0172474905999992000100503004+42900+143170FM-15+0084RJCT V0200301N001512200019N0112651N1+02001+00901999999ADDGA1021+009009999GF102991999999999999999999MA1101591999999MW1001REMMET078RJCT 050300Z 03003KT 9999 FEW030 20/09 Q1016 RMK 2CU030 A3000 FCST 0312 NOSIG;EQDQ01+000000PRSWM2
0186474905999992000100504004+42900+143170FM-15+0084RJCT V0201101N001512200019N0112651N1+02001+00801999999ADDGA1021+007509999GA2021+009009999GF104991999999999999999999MA1101491999999MW1001REMMET076RJCT 050400Z 11003KT 9999 FEW025 SCT030 20/08 Q1015 RMK 1CU025 3CU030 A2999;EQDQ01+000000PRSWM2
0156474905999992000100505004+42900+143170FM-15+0084RJCT V0201101N001512200019N0112651N1+02101+00901999999ADDGA1021+009009999GF102991999999999999999999MA1101491999999MW1001REMMET062RJCT 050500Z 11003KT 9999 FEW030 21/09 Q1015 RMK 2CU030 A2998;EQDQ01+000000PRSWM2
0216474905999992000100506004+42900+143170FM-15+0084RJCT V0201001N003612200019N0112651N1+01901+01001999999ADDGA1021+007509999GA2021+010509999GF104991999999999999999999MA1101491999999MW1001REMMET106RJCT 050600Z 10007KT 9999 FEW025 SCT035 19/10 Q1015 RMK 1CU025 3CU035 A2998 FCST 0615 TEMPO 0713 BKN030CU;EQDQ01+000000PRSWM2
0186474905999992000100507004+42900+143170FM-15+0084RJCT V0203301N002610105019N0112651N1+01701+00901999999ADDGA1021+007509999GA2071+010509999GF107991999999999999999999MA1101591999999MW1001REMMET076RJCT 050700Z 33005KT 9999 FEW025 BKN035 17/09 Q1016 RMK 2CU025 6CU035 A3001;EQDQ01+000000PRSWM2
0216474905999992000100508004+42900+143170FM-15+0084RJCT V0203301N002612200019N0112651N1+01501+00801999999ADDGA1021+007509999GA2021+010509999GF104991999999999999999999MA1101691999999MW1001REMMET106RJCT 050800Z 33005KT 9999 FEW025 SCT035 15/08 Q1017 RMK 2CU025 4CU035 A3003 FCST 0817 TEMPO 0811 BKN030CU;EQDQ01+000000PRSWM2
0186474905999992000100509004+42900+143170FM-15+0084RJCT V0203401N001012200019N0112651N1+01201+00901999999ADDGA1021+007509999GA2021+010509999GF104991999999999999999999MA1101691999999MW1001REMMET076RJCT 050900Z 34002KT 9999 FEW025 SCT035 12/09 Q1017 RMK 1CU025 3SC035 A3004;EQDQ01+000000PRSWM2
0156474905999992000100510004+42900+143170FM-15+0084RJCT V02099999999992200019N0112651N1+01101+00901999999ADDGA1021+010509999GF104991999999999999999999MA1101691999999MW1001REMMET062RJCT 051000Z VRB01KT 9999 SCT035 11/09 Q1017 RMK 3SC035 A3006;EQDQ01+000000PRSWM2
0156474905999992000100522004+42900+143170FM-15+0084RJCT V0202401N001012200019N0112651N1+00701+00601999999ADDGA1021+009009999GF102991999999999999999999MA1102101999999MW1001REMMET062RJCT 052200Z 24002KT 9999 FEW030 07/06 Q1021 RMK 1SC030 A3015;EQDQ01+000000PRSWM2
0172474905999992000100523004+42900+143170FM-15+0084RJCT V0202601N000512200019N0112651N1+01101+00801999999ADDGA1021+007509999GF102991999999999999999999MA1102101999999MW1001REMMET078RJCT 052300Z 26001KT 9999 FEW025 11/08 Q1021 RMK 1SC025 A3016 FCST 2308 NOSIG;EQDQ01+000000PRSWM2
0172474905999992000100600004+42900+143170FM-15+0084RJCT V0202601N001012200019N0112651N1+01401+00901999999ADDGA1021+009009999GF102991999999999999999999MA1102001999999MW1001REMMET078RJCT 060000Z 26002KT 9999 FEW030 14/09 Q1020 RMK 1SC030 A3014 FCST 0009 NOSIG;EQDQ01+000000PRSWM2
0156474905999992000100601004+42900+143170FM-15+0084RJCT V0202601N001012200019N0112651N1+01701+00801999999ADDGA1021+010509999GF102991999999999999999999MA1102001999999MW1001REMMET062RJCT 060100Z 26002KT 9999 FEW035 17/08 Q1020 RMK 1CU035 A3012;EQDQ01+000000PRSWM2
0156474905999992000100602004+42900+143170FM-15+0084RJCT V0202801N002612200019N0112651N1+01901+00801999999ADDGA1021+012009999GF102991999999999999999999MA1101901999999MW1001REMMET062RJCT 060200Z 28005KT 9999 FEW040 19/08 Q1019 RMK 2CU040 A3010;EQDQ01+000000PRSWM2
0172474905999992000100603004+42900+143170FM-15+0084RJCT V0203001N004612200019N0112651N1+01901+00601999999ADDGA1021+012009999GF102991999999999999999999MA1101801999999MW1001REMMET078RJCT 060300Z 30009KT 9999 FEW040 19/06 Q1018 RMK 1CU040 A3009 FCST 0312 NOSIG;EQDQ01+000000PRSWM2
0156474905999992000100604004+42900+143170FM-15+0084RJCT V0203001N004112200019N0112651N1+01901+00601999999ADDGA1021+007509999GF102991999999999999999999MA1101801999999MW1001REMMET062RJCT 060400Z 30008KT 9999 FEW025 19/06 Q1018 RMK 1CU025 A3007;EQDQ01+000000PRSWM2
0156474905999992000100605004+42900+143170FM-15+0084RJCT V0203101N003612200019N0112651N1+01901+00601999999ADDGA1021+009009999GF102991999999999999999999MA1101801999999MW1001REMMET062RJCT 060500Z 31007KT 9999 FEW030 19/06 Q1018 RMK 1CU030 A3007;EQDQ01+000000PRSWM2
0172474905999992000100606004+42900+143170FM-15+0084RJCT V0203001N003112200019N0112651N1+01901+00601999999ADDGA1021+009009999GF102991999999999999999999MA1101801999999MW1001REMMET078RJCT 060600Z 30006KT 9999 FEW030 19/06 Q1018 RMK 2CU030 A3008 FCST 0615 NOSIG;EQDQ01+000000PRSWM2
0156474905999992000100607004+42900+143170FM-15+0084RJCT V0203101N005112200019N0112651N1+01701+00701999999ADDGA1021+009009999GF102991999999999999999999MA1101801999999MW1001REMMET062RJCT 060700Z 31010KT 9999 FEW030 17/07 Q1018 RMK 2CU030 A3009;EQDQ01+000000PRSWM2
0172474905999992000100608004+42900+143170FM-15+0084RJCT V0203001N003612200019N0112651N1+01501+00701999999ADDGA1021+009009999GF102991999999999999999999MA1101801999999MW1001REMMET078RJCT 060800Z 30007KT 9999 FEW030 15/07 Q1018 RMK 1CU030 A3008 FCST 0817 NOSIG;EQDQ01+000000PRSWM2
0156474905999992000100622004+42900+143170FM-15+0084RJCT V0202901N001012200019N0112651N1+00701+00501999999ADDGA1021+010509999GF102991999999999999999999MA1102101999999MW1001REMMET062RJCT 062200Z 29002KT 9999 FEW035 07/05 Q1021 RMK 1CU035 A3017;EQDQ01+000000PRSWM2
0172474905999992000100623004+42900+143170FM-15+0084RJCT V0202801N001012200019N0112651N1+00901+00601999999ADDGA1021+002409999GF102991999999999999999999MA1102201999999MW1001REMMET078RJCT 062300Z 28002KT 9999 FEW008 09/06 Q1022 RMK 1ST008 A3019 FCST 2308 NOSIG;EQDQ01+000000PRSWM2
0172474905999992000100700004+42900+143170FM-15+0084RJCT V02099999999992200019N0112651N1+01301+00801999999ADDGA1021+001809999GF102991999999999999999999MA1102201999999MW1001REMMET078RJCT 070000Z VRB01KT 9999 FEW006 13/08 Q1022 RMK 1ST006 A3018 FCST 0009 NOSIG;EQDQ01+000000PRSWM2
0156474905999992000100701004+42900+143170FM-15+0084RJCT V02099999999992200019N0112651N1+01601+00901999999ADDGA1021+012009999GF102991999999999999999999MA1102101999999MW1001REMMET062RJCT 070100Z VRB01KT 9999 FEW040 16/09 Q1021 RMK 1CU040 A3017;EQDQ01+000000PRSWM2
0156474905999992000100702004+42900+143170FM-15+0084RJCT V02099999999992200019N0112651N1+01801+00801999999ADDGA1021+012009999GF102991999999999999999999MA1102101999999MW1001REMMET062RJCT 070200Z VRB02KT 9999 FEW040 18/08 Q1021 RMK 1CU040 A3015;EQDQ01+000000PRSWM2
0172474905999992000100703004+42900+143170FM-15+0084RJCT V02099999999992200019N0112651N1+01801+00701999999ADDGA1021+012009999GF102991999999999999999999MA1102001999999MW1001REMMET078RJCT 070300Z VRB02KT 9999 FEW040 18/07 Q1020 RMK 1CU040 A3013 FCST 0312 NOSIG;EQDQ01+000000PRSWM2
0156474905999992000100704004+42900+143170FM-15+0084RJCT V02099999999992200019N0112651N1+01901+00701999999ADDGA1021+012009999GF102991999999999999999999MA1101901999999MW1001REMMET062RJCT 070400Z VRB03KT 9999 FEW040 19/07 Q1019 RMK 1CU040 A3011;EQDQ01+000000PRSWM2
0156474905999992000100705004+42900+143170FM-15+0084RJCT V02099999999992200019N0112651N1+01901+00701999999ADDGA1021+012009999GF102991999999999999999999MA1101901999999MW1001REMMET062RJCT 070500Z VRB02KT 9999 FEW040 19/07 Q1019 RMK 1CU040 A3010;EQDQ01+000000PRSWM2
0172474905999992000100706004+42900+143170FM-15+0084RJCT V02099999999992200019N0112651N1+01901+00701999999ADDGA1021+012009999GF102991999999999999999999MA1101901999999MW1001REMMET078RJCT 070600Z VRB01KT 9999 FEW040 19/07 Q1019 RMK 2CU040 A3011 FCST 0615 NOSIG;EQDQ01+000000PRSWM2
0238474905999992000100722004+42900+143170FM-15+0084RJCT V0201201N000510240019N0112651N1+00901+00901999999ADDGA1021+009009999GA2021+012009999GA3081+024009999GF108991999999999999999999MA1101901999999MW1801REMMET096RJCT 072200Z 12001KT 9999 -SHRA FEW030 SCT040 OVC080 09/09 Q1019 RMK 1SC030 3SC040 8AC080 A3011;EQDQ01+000003PRSWM1Q02    003PRSWM1
0216474905999992000100802294+42900+143170FM-16+0084RJCT V0202901N000510120019N0070001N1+01201+01001999999ADDGA1021+001509999GA2071+012009999GA3071+021009999GF107991999999999999999999MA1101801999999MW1001REMMET090RJCT 080229Z 29001KT 7000 FEW005 BKN040 BKN070 12/10 Q1018 RMK 2ST005 6SC040 7AC070 A3006;EQDQ01+000000PRSWM2
0216474905999992000100803004+42900+143170FM-15+0084RJCT V0202601N001010135019N0070001N1+01201+01001999999ADDGA1021+002109999GA2071+013509999GA3071+021009999GF107991999999999999999999MA1101801999999MW1001REMMET090RJCT 080300Z 26002KT 7000 FEW007 BKN045 BKN070 12/10 Q1018 RMK 2ST007 6SC045 7AC070 A3006;EQDQ01+000000PRSWM2
0186474905999992000100804004+42900+143170FM-15+0084RJCT V0203101N001010135019N0070001N1+01301+01101999999ADDGA1021+002109999GA2071+013509999GF107991999999999999999999MA1101691999999MW1001REMMET076RJCT 080400Z 31002KT 7000 SCT007 BKN045 13/11 Q1017 RMK 3ST007 7SC045 A3003;EQDQ01+000000PRSWM2
0186474905999992000100805004+42900+143170FM-15+0084RJCT V0203001N001510105019N0080001N1+01301+01101999999ADDGA1021+002109999GA2071+010509999GF107991999999999999999999MA1101691999999MW1001REMMET076RJCT 080500Z 30003KT 8000 FEW007 BKN035 13/11 Q1017 RMK 1ST007 7CU035 A3003;EQDQ01+000000PRSWM2
0156474905999992000100806004+42900+143170FM-15+0084RJCT V0202501N001512200019N0112651N1+01401+01101999999ADDGA1021+002109999GF102991999999999999999999MA1101591999999MW1001REMMET062RJCT 080600Z 25003KT 9999 FEW007 14/11 Q1016 RMK 1ST007 A3002;EQDQ01+000000PRSWM2
0216474905999992000100822004+42900+143170FM-15+0084RJCT V0209999C000010150019N0070001N1+00901+00801999999ADDGA1021+010509999GA2071+015009999GA3081+060009999GF108991999999999999999999MA1101391999999MW1001REMMET090RJCT 082200Z 00000KT 7000 FEW035 BKN050 OVC200 09/08 Q1014 RMK 1SC035 6SC050 8CS200 A2995;EQDQ01+000000PRSWM2
0216474905999992000100823004+42900+143170FM-15+0084RJCT V02099999999990150019N0060001N1+01001+00901999999ADDGA1021+002409999GA2071+015009999GA3081+060009999GF108991999999999999999999MA1101391999999MW1001REMMET090RJCT 082300Z VRB02KT 6000 FEW008 BKN050 OVC200 10/09 Q1014 RMK 1ST008 7SC050 8CI200 A2994;EQDQ01+000000PRSWM2
0232474905999992000100900004+42900+143170FM-15+0084RJCT V02099999999990150019N0060001N1+01101+01001999999ADDGA1021+003009999GA2071+015009999GA3071+027009999GF107991999999999999999999MA1101291999999MW1001REMMET106RJCT 090000Z VRB01KT 6000 FEW010 BKN050 BKN090 11/10 Q1013 RMK 1ST010 5SC050 7AS090 A2994 FCST 0009 NOSIG;EQDQ01+000000PRSWM2
0216474905999992000100901004+42900+143170FM-15+0084RJCT V0203101N001010270019N0070001N1+01201+01101999999ADDGA1021+003009999GA2021+015009999GA3081+027009999GF108991999999999999999999MA1101291999999MW1001REMMET090RJCT 090100Z 31002KT 7000 FEW010 SCT050 OVC090 12/11 Q1013 RMK 1ST010 4SC050 8AS090 A2991;EQDQ01+000000PRSWM2
0156474905999992000100921004+42900+143170FM-15+0084RJCT V0203601N001512200019N0112651N1+01301+00401999999ADDGA1021+006009999GF102991999999999999999999MA1101021999999MW1001REMMET062RJCT 092100Z 36003KT 9999 FEW020 13/04 Q1010 RMK 1CU020 A2983;EQDQ01+000000PRSWM2
0156474905999992000100922004+42900+143170FM-15+0084RJCT V0203401N002612200019N0112651N1+01401+00401999999ADDGA1021+006009999GF102991999999999999999999MA1101021999999MW1001REMMET062RJCT 092200Z 34005KT 9999 FEW020 14/04 Q1010 RMK 1CU020 A2983;EQDQ01+000000PRSWM2
0188474905999992000100923004+42900+143170FM-15+0084RJCT V0203401N003112200019N0112651N1+01501+00501999999ADDGA1021+007509999GF102991999999999999999999MA1101021999999MW1001REMMET094RJCT 092300Z 34006KT 9999 FEW025 15/05 Q1010 RMK 1CU025 A2984 FCST 2308 TEMPO 0007 31012G25KT;EQDQ01+000000PRSWM2
0188474905999992000101000004+42900+143170FM-15+0084RJCT V0203301N003612200019N0112651N1+01701+00401999999ADDGA1021+007509999GF102991999999999999999999MA1101081999999MW1001REMMET094RJCT 100000Z 33007KT 9999 FEW025 17/04 Q1011 RMK 1CU025 A2985 FCST 0009 TEMPO 0007 31012G25KT;EQDQ01+000000PRSWM2
0186474905999992000101001004+42900+143170FM-15+0084RJCT V0203201N004110690019N0112651N1+01701+00501999999ADDGA1021+007509999GA2071+069009999GF107991999999999999999999MA1101021999999MW1001REMMET076RJCT 100100Z 32008KT 9999 FEW025 BKN230 17/05 Q1010 RMK 1CU025 5CI230 A2984;EQDQ01+000000PRSWM2
0167474905999992000101002004+42900+143170FM-15+0084RJCT V0203201N003112200019N0112651N1+01801+00501999999ADDGA1021+007509999GF102991999999999999999999MA1101021999999MW1001OC100821REMMET065RJCT 100200Z 32006G16KT 9999 FEW025 18/05 Q1010 RMK 1CU025 A2983;EQDQ01+000000PRSWM2
0188474905999992000101003004+42900+143170FM-15+0084RJCT V0203301N003112200019N0112651N1+01901+00601999999ADDGA1021+007509999GF102991999999999999999999MA1100911999999MW1001REMMET094RJCT 100300Z 33006KT 9999 FEW025 19/06 Q1009 RMK 1CU025 A2982 FCST 0312 TEMPO 0307 32008G20KT;EQDQ01+000000PRSWM2
0156474905999992000101004004+42900+143170FM-15+0084RJCT V0203001N003112200019N0112651N1+02101+00501999999ADDGA1021+009009999GF102991999999999999999999MA1100911999999MW1001REMMET062RJCT 100400Z 30006KT 9999 FEW030 21/05 Q1009 RMK 1CU030 A2980;EQDQ01+000000PRSWM2
0156474905999992000101005004+42900+143170FM-15+0084RJCT V0202701N002612200019N0112651N1+02101+00501999999ADDGA1021+010509999GF102991999999999999999999MA1100911999999MW1001REMMET062RJCT 100500Z 27005KT 9999 FEW035 21/05 Q1009 RMK 1CU035 A2980;EQDQ01+000000PRSWM2
0172474905999992000101006004+42900+143170FM-15+0084RJCT V0203101N004612200019N0112651N1+02001+00301999999ADDGA1021+010509999GF102991999999999999999999MA1100911999999MW1001REMMET078RJCT 100600Z 31009KT 9999 FEW035 20/03 Q1009 RMK 1CU035 A2982 FCST 0615 NOSIG;EQDQ01+000000PRSWM2
0156474905999992000101007004+42900+143170FM-15+0084RJCT V0203301N003612200019N0112651N1+01801+00301999999ADDGA1021+010509999GF102991999999999999999999MA1101021999999MW1001REMMET062RJCT 100700Z 33007KT 9999 FEW035 18/03 Q1010 RMK 1CU035 A2983;EQDQ01+000000PRSWM2
0172474905999992000101008004+42900+143170FM-15+0084RJCT V0203401N003112200019N0112651N1+01601+00401999999ADDGA1021+010509999GF102991999999999999999999MA1101021999999MW1001REMMET078RJCT 100800Z 34006KT 9999 FEW035 16/04 Q1010 RMK 1CU035 A2984 FCST 0817 NOSIG;EQDQ01+000000PRSWM2
0156474905999992000101022004+42900+143170FM-15+0084RJCT V0209999C000012200019N0112651N1+00501+00201999999ADDGA1021+009009999GF102991999999999999999999MA1101591999999MW1001REMMET062RJCT 102200Z 00000KT 9999 FEW030 05/02 Q1016 RMK 1CU030 A3000;EQDQ01+000000PRSWM2
0225474905999992000101023004+42900+143170FM-15+0084RJCT V0202301N000512200019N0112651N1+00801+00401999999ADDGA1021+009009999GA2021+072009999GF104991999999999999999999MA1101591999999MW1001REMMET115RJCT 102300Z 23001KT 9999 FEW030 SCT240 08/04 Q1016 RMK 1SC030 3CI240 A3000 FCST 2308 BECMG 0607 BKN030CU BKN080AC;EQDQ01+000000PRSWM2
0225474905999992000101100004+42900+143170FM-15+0084RJCT V0201401N001010720019N0112651N1+01201+00401999999ADDGA1021+009009999GA2071+072009999GF107991999999999999999999MA1101491999999MW1001REMMET115RJCT 110000Z 14002KT 9999 FEW030 BKN240 12/04 Q1015 RMK 1SC030 6CI240 A2998 FCST 0009 BECMG 0607 BKN030CU BKN080AC;EQDQ01+000000PRSWM2
0186474905999992000101101004+42900+143170FM-15+0084RJCT V0201501N002110720019N0112651N1+01501+00701999999ADDGA1021+009009999GA2071+072009999GF107991999999999999999999MA1101391999999MW1001REMMET076RJCT 110100Z 15004KT 9999 FEW030 BKN240 15/07 Q1014 RMK 1SC030 6CI240 A2997;EQDQ01+000000PRSWM2
0186474905999992000101102004+42900+143170FM-15+0084RJCT V02099999999990690019N0112651N1+01601+00701999999ADDGA1021+009009999GA2071+069009999GF107991999999999999999999MA1101291999999MW1001REMMET076RJCT 110200Z VRB03KT 9999 FEW030 BKN230 16/07 Q1013 RMK 1SC030 7CI230 A2992;EQDQ01+000000PRSWM2
0225474905999992000101103004+42900+143170FM-15+0084RJCT V0201801N001510690019N0112651N1+01801+00801999999ADDGA1021+009009999GA2071+069009999GF107991999999999999999999MA1101191999999MW1001REMMET115RJCT 110300Z 18003KT 9999 FEW030 BKN230 18/08 Q1012 RMK 1SC030 6CS230 A2989 FCST 0312 BECMG 0607 BKN030CU BKN080AC;EQDQ01+000000PRSWM2
0216474905999992000101104004+42900+143170FM-15+0084RJCT V0201601N002110300019N0112651N1+01701+00801999999ADDGA1021+009009999GA2071+030009999GA3071+069009999GF107991999999999999999999MA1101081999999MW1001REMMET090RJCT 110400Z 16004KT 9999 FEW030 BKN100 BKN230 17/08 Q1011 RMK 1SC030 5AC100 7CS230 A2985;EQDQ01+000000PRSWM2
0216474905999992000101105004+42900+143170FM-15+0084RJCT V0201001N002610690019N0112651N1+01701+00901999999ADDGA1021+009009999GA2021+030009999GA3081+069009999GF108991999999999999999999MA1100911999999MW1001REMMET090RJCT 110500Z 10005KT 9999 FEW030 SCT100 OVC230 17/09 Q1009 RMK 1SC030 3AC100 8CS230 A2981;EQDQ01+000000PRSWM2
0255474905999992000101106004+42900+143170FM-15+0084RJCT V0201001N002610390019N0112651N1+01601+00801999999ADDGA1021+009009999GA2071+039009999GA3081+069009999GF108991999999999999999999MA1100911999999MW1001REMMET129RJCT 110600Z 10005KT 9999 FEW030 BKN130 OVC230 16/08 Q1009 RMK 1SC030 6AC130 8CS230 A2980 FCST 0615 BECMG 0910 BKN030CU BKN080AC;EQDQ01+000000PRSWM2
0216474905999992000101107004+42900+143170FM-15+0084RJCT V0200701N001510390019N0112651N1+01501+00801999999ADDGA1021+009009999GA2021+013509999GA3071+039009999GF107991999999999999999999MA1100911999999MW1001REMMET090RJCT 110700Z 07003KT 9999 FEW030 SCT045 BKN130 15/08 Q1009 RMK 1SC030 4SC045 7AC130 A2980;EQDQ01+000000PRSWM2
0243474905999992000101108004+42900+143170FM-15+0084RJCT V0201001N001510300019N0112651N1+01401+00701999999ADDGA1021+009009999GA2021+013509999GA3071+030009999GF107991999999999999999999MA1100811999999MW1001REMMET117RJCT 110800Z 10003KT 9999 FEW030 SCT045 BKN100 14/07 Q1008 RMK 1SC030 4SC045 6AC100 A2977 FCST 0817 TEMPO 0915 -SHRA;EQDQ01+000000PRSWM2
0183474905999992000101200004+42900+143170FM-15+0084RJCT V0203001N007712200019N0112651N1+01401+00201999999ADDGA1021+010509999GF102991999999999999999999MA1100311999999MW1001OC101391REMMET081RJCT 120000Z 30015G27KT 9999 FEW035 14/02 Q1003 RMK 2SC035 A2962 FCST 0009 NOSIG;EQDQ01+000000PRSWM2
0197474905999992000101201004+42900+143170FM-15+0084RJCT V0203001N007712200019N0112651N1+01501+00201999999ADDGA1021+010509999GA2021+039009999GF104991999999999999999999MA1100311999999MW1001OC101441REMMET079RJCT 120100Z 30015G28KT 9999 FEW035 SCT130 15/02 Q1003 RMK 2SC035 3AC130 A2962;EQDQ01+000000PRSWM2
0197474905999992000101202004+42900+143170FM-15+0084RJCT V0202801N009312200019N0112651N1+01501+00101999999ADDGA1021+010509999GA2021+039009999GF104991999999999999999999MA1100311999999MW1001OC101541REMMET079RJCT 120200Z 28018G30KT 9999 SCT035 SCT130 15/01 Q1003 RMK 3CU035 3AC130 A2964;EQDQ01+000000PRSWM2
0213474905999992000101203004+42900+143170FM-15+0084RJCT V0202701N009812200019N0112651N1+01501+00101999999ADDGA1021+010509999GA2021+039009999GF104991999999999999999999MA1100311999999MW1001OC101701REMMET095RJCT 120300Z 27019G33KT 9999 SCT035 SCT130 15/01 Q1003 RMK 3CU035 3AC130 A2963 FCST 0312 NOSIG;EQDQ01+000000PRSWM2
0183474905999992000101206004+42900+143170FM-15+0084RJCT V0203101N005112200019N0112651N1+01401+00101999999ADDGA1021+010509999GF102991999999999999999999MA1100411999999MW1001OC101031REMMET081RJCT 120600Z 31010G20KT 9999 FEW035 14/01 Q1004 RMK 2CU035 A2967 FCST 0615 NOSIG;EQDQ01+000000PRSWM2
0156474905999992000101207004+42900+143170FM-15+0084RJCT V0203501N002112200019N0112651N1+01101+00201999999ADDGA1021+010509999GF104991999999999999999999MA1100511999999MW1001REMMET062RJCT 120700Z 35004KT 9999 SCT035 11/02 Q1005 RMK 3CU035 A2969;EQDQ01+000000PRSWM2
0202474905999992000101208004+42900+143170FM-15+0084RJCT V0203601N002112200019N0112651N1+01001+00201999999ADDGA1021+007509999GA2021+010509999GF104991999999999999999999MA1100611999999MW1001REMMET092RJCT 120800Z 36004KT 9999 FEW025 SCT035 10/02 Q1006 RMK 1SC025 4CU035 A2971 FCST 0817 NOSIG;EQDQ01+000000PRSWM2
0186474905999992000101208374+42900+143170FM-16+0084RJCT V0203301N002110105019N0112651N1+01001+00201999999ADDGA1021+006009999GA2071+010509999GF107991999999999999999999MA1100711999999MW1001REMMET076RJCT 120837Z 33004KT 9999 FEW020 BKN035 10/02 Q1007 RMK 1SC020 5CU035 A2974;EQDQ01+000000PRSWM2
0186474905999992000101209004+42900+143170FM-15+0084RJCT V0203101N002610105019N0112651N1+01001+00201999999ADDGA1021+006009999GA2071+010509999GF107991999999999999999999MA1100711999999MW1001REMMET076RJCT 120900Z 31005KT 9999 FEW020 BKN035 10/02 Q1007 RMK 1SC020 5CU035 A2974;EQDQ01+000000PRSWM2
0216474905999992000101221004+42900+143170FM-15+0084RJCT V0203301N001510690019N0112651N1+00701+00201999999ADDGA1021+006009999GA2021+027009999GA3071+069009999GF107991999999999999999999MA1101081999999MW1001REMMET090RJCT 122100Z 33003KT 9999 FEW020 SCT090 BKN230 07/02 Q1011 RMK 1CU020 3AC090 5CI230 A2987;EQDQ01+000000PRSWM2
0156474905999992000101221454+42900+143170FM-15+0084RJCT V0201201N001512200019N0112651N1+00601+00201999999ADDGA1021+006009999GF102991999999999999999999MA1101191999999MW1001REMMET062RJCT 122145Z 12003KT 9999 FEW020 06/02 Q1012 RMK 1CU020 A2988;EQDQ01+000000PRSWM2
0156474905999992000101222004+42900+143170FM-15+0084RJCT V0202901N001012200019N0112651N1+00601+00201999999ADDGA1021+006009999GF102991999999999999999999MA1101191999999MW1001REMMET062RJCT 122200Z 29002KT 9999 FEW020 06/02 Q1012 RMK 1CU020 A2989;EQDQ01+000000PRSWM2
0172474905999992000101223004+42900+143170FM-15+0084RJCT V0203501N001512200019N0112651N1+01001+00201999999ADDGA1021+006009999GF102991999999999999999999MA1101081999999MW1001REMMET078RJCT 122300Z 35003KT 9999 FEW020 10/02 Q1011 RMK 1CU020 A2987 FCST 2308 NOSIG;EQDQ01+000000PRSWM2
0172474905999992000101300004+42900+143170FM-15+0084RJCT V0202901N004112200019N0112651N1+01201+00101999999ADDGA1021+007509999GF102991999999999999999999MA1101191999999MW1001REMMET078RJCT 130000Z 29008KT 9999 FEW025 12/01 Q1012 RMK 1CU025 A2988 FCST 0009 NOSIG;EQDQ01+000000PRSWM2
0156474905999992000101301004+42900+143170FM-15+0084RJCT V0203101N004112200019N0112651N1+01401+00101999999ADDGA1021+010509999GF104991999999999999999999MA1101191999999MW1001REMMET062RJCT 130100Z 31008KT 9999 SCT035 14/01 Q1012 RMK 3CU035 A2989;EQDQ01+000000PRSWM2
0168474905999992000101302004+42900+143170FM-15+0084RJCT V0203001N004112200019N0112651N1+01301+00001999999ADDGA1021+010509999GF104991999999999999999999MA1101191999999MW1001OC100931REMMET066RJCT 130200Z 30008G18KT 9999 SCT035 13/M00 Q1012 RMK 3CU035 A2988;EQDQ01+000000PRSWM2
0173474905999992000101303004+42900+143170FM-15+0084RJCT V0202801N005712200019N0112651N1+01501-00101999999ADDGA1021+012009999GF104991999999999999999999MA1101081999999MW1001REMMET079RJCT 130300Z 28011KT 9999 SCT040 15/M01 Q1011 RMK 3CU040 A2987 FCST 0312 NOSIG;EQDQ01+000000PRSWM2
0157474905999992000101304004+42900+143170FM-15+0084RJCT V0202801N002612200019N0112651N1+01501-00101999999ADDGA1021+012009999GF102991999999999999999999MA1101021999999MW1001REMMET063RJCT 130400Z 28005KT 9999 FEW040 15/M01 Q1010 RMK 2CU040 A2985;EQDQ01+000000PRSWM2
0157474905999992000101305004+42900+143170FM-15+0084RJCT V0203001N002112200019N0112651N1+01501-00101999999ADDGA1021+012009999GF102991999999999999999999MA1101021999999MW1001REMMET063RJCT 130500Z 30004KT 9999 FEW040 15/M01 Q1010 RMK 2CU040 A2985;EQDQ01+000000PRSWM2
0173474905999992000101306004+42900+143170FM-15+0084RJCT V0202301N001512200019N0112651N1+01401+00001999999ADDGA1021+012009999GF102991999999999999999999MA1101021999999MW1001REMMET079RJCT 130600Z 23003KT 9999 FEW040 14/M00 Q1010 RMK 2CU040 A2984 FCST 0615 NOSIG;EQDQ01+000000PRSWM2
0156474905999992000101307004+42900+143170FM-15+0084RJCT V0202601N000512200019N0112651N1+01101+00301999999ADDGA1021+013509999GF104991999999999999999999MA1101021999999MW1001REMMET062RJCT 130700Z 26001KT 9999 SCT045 11/03 Q1010 RMK 3CU045 A2985;EQDQ01+000000PRSWM2
0172474905999992000101308004+42900+143170FM-15+0084RJCT V0202501N001512200019N0112651N1+00801+00301999999ADDGA1021+013509999GF102991999999999999999999MA1101081999999MW1001REMMET078RJCT 130800Z 25003KT 9999 FEW045 08/03 Q1011 RMK 1CU045 A2985 FCST 0817 NOSIG;EQDQ01+000000PRSWM2
0186474905999992000101323004+42900+143170FM-15+0084RJCT V0209999C000012200019N0112651N1+00801+00401999999ADDGA1021+015009999GA2021+033009999GF104991999999999999999999MA1101491999999MW1001REMMET076RJCT 132300Z 00000KT 9999 FEW050 SCT110 08/04 Q1015 RMK 2SC050 4AC110 A2997;EQDQ01+000000PRSWM2
0186474905999992000101400004+42900+143170FM-15+0084RJCT V0201201N000512200019N0112651N1+01101+00501999999ADDGA1021+015009999GA2021+027009999GF104991999999999999999999MA1101491999999MW1001REMMET076RJCT 140000Z 12001KT 9999 FEW050 SCT090 11/05 Q1015 RMK 2SC050 3AC090 A2999;EQDQ01+000000PRSWM2
0156474905999992000101401004+42900+143170FM-15+0084RJCT V02099999999992200019N0112651N1+01301+00401999999ADDGA1021+013509999GF102991999999999999999999MA1101491999999MW1001REMMET062RJCT 140100Z VRB02KT 9999 FEW045 13/04 Q1015 RMK 2CU045 A3000;EQDQ01+000000PRSWM2
0186474905999992000101402004+42900+143170FM-15+0084RJCT V0200101N001512200019N0112651N1+01601+00301999999ADDGA1021+013509999GA2021+015009999GF104991999999999999999999MA1101491999999MW1001REMMET076RJCT 140200Z 01003KT 9999 FEW045 SCT050 16/03 Q1015 RMK 1CU045 3CU050 A2999;EQDQ01+000000PRSWM2
0156474905999992000101403004+42900+143170FM-15+0084RJCT V0202901N002112200019N0112651N1+01701+00301999999ADDGA1021+013509999GF102991999999999999999999MA1101491999999MW1001REMMET062RJCT 140300Z 29004KT 9999 FEW045 17/03 Q1015 RMK 2CU045 A2998;EQDQ01+000000PRSWM2
0156474905999992000101404004+42900+143170FM-15+0084RJCT V0203301N002612200019N0112651N1+01601+00201999999ADDGA1021+013509999GF104991999999999999999999MA1101491999999MW1001REMMET062RJCT 140400Z 33005KT 9999 SCT045 16/02 Q1015 RMK 3CU045 A2998;EQDQ01+000000PRSWM2
0156474905999992000101405004+42900+143170FM-15+0084RJCT V0203101N003612200019N0112651N1+01601+00201999999ADDGA1021+013509999GF104991999999999999999999MA1101491999999MW1001REMMET062RJCT 140500Z 31007KT 9999 SCT045 16/02 Q1015 RMK 3CU045 A2999;EQDQ01+000000PRSWM2
0156474905999992000101406004+42900+143170FM-15+0084RJCT V0203101N003612200019N0112651N1+01501+00201999999ADDGA1021+015009999GF102991999999999999999999MA1101591999999MW1001REMMET062RJCT 140600Z 31007KT 9999 FEW050 15/02 Q1016 RMK 2CU050 A3001;EQDQ01+000000PRSWM2
0156474905999992000101422004+42900+143170FM-15+0084RJCT V0200201N000512200019N0112651N1+00301+00201999999ADDGA1021+007509999GF102991999999999999999999MA1102001999999MW1001REMMET062RJCT 142200Z 02001KT 9999 FEW025 03/02 Q1020 RMK 1CU025 A3013;EQDQ01+000000PRSWM2
0156474905999992000101423004+42900+143170FM-15+0084RJCT V0200501N000512200019N0112651N1+00601+00301999999ADDGA1021+007509999GF102991999999999999999999MA1102001999999MW1001REMMET062RJCT 142300Z 05001KT 9999 FEW025 06/03 Q1020 RMK 1CU025 A3013;EQDQ01+000000PRSWM2
0156474905999992000101500004+42900+143170FM-15+0084RJCT V0200601N001012200019N0112651N1+01001+00401999999ADDGA1021+009009999GF102991999999999999999999MA1102001999999MW1001REMMET062RJCT 150000Z 06002KT 9999 FEW030 10/04 Q1020 RMK 1CU030 A3012;EQDQ01+000000PRSWM2
0156474905999992000101501004+42900+143170FM-15+0084RJCT V0200401N000512200019N0112651N1+01201+00501999999ADDGA1021+009009999GF102991999999999999999999MA1101901999999MW1001REMMET062RJCT 150100Z 04001KT 9999 FEW030 12/05 Q1019 RMK 1CU030 A3010;EQDQ01+000000PRSWM2
0156474905999992000101502004+42900+143170FM-15+0084RJCT V0200501N001512200019N0112651N1+01501+00601999999ADDGA1021+009009999GF102991999999999999999999MA1101801999999MW1001REMMET062RJCT 150200Z 05003KT 9999 FEW030 15/06 Q1018 RMK 2CU030 A3007;EQDQ01+000000PRSWM2
0156474905999992000101503004+42900+143170FM-15+0084RJCT V02099999999992200019N0112651N1+01701+00701999999ADDGA1021+010509999GF104991999999999999999999MA1101691999999MW1001REMMET062RJCT 150300Z VRB03KT 9999 SCT035 17/07 Q1017 RMK 3CU035 A3003;EQDQ01+000000PRSWM2
0156474905999992000101504004+42900+143170FM-15+0084RJCT V0200901N001012200019N0112651N1+01901+00501999999ADDGA1021+010509999GF104991999999999999999999MA1101491999999MW1001REMMET062RJCT 150400Z 09002KT 9999 SCT035 19/05 Q1015 RMK 3CU035 A2999;EQDQ01+000000PRSWM2
0156474905999992000101505004+42900+143170FM-15+0084RJCT V02099999999992200019N0112651N1+01901+00401999999ADDGA1021+010509999GF104991999999999999999999MA1101391999999MW1001REMMET062RJCT 150500Z VRB03KT 9999 SCT035 19/04 Q1014 RMK 3CU035 A2996;EQDQ01+000000PRSWM2
0157474905999992000101522004+42900+143170FM-15+0084RJCT V0203401N002112200019N0112651N1+00801-00301999999ADDGA1021+009009999GF102991999999999999999999MA1102101999999MW1001REMMET063RJCT 152200Z 34004KT 9999 FEW030 08/M03 Q1021 RMK 1CU030 A3017;EQDQ01+000000PRSWM2
0197474905999992000101523004+42900+143170FM-15+0084RJCT V0203101N004112200019N0112651N1+00901-00201999999ADDGA1021+009009999GF102991999999999999999999MA1102201999999MW1001OC100931REMMET095RJCT 152300Z 31008G18KT 9999 FEW030 09/M02 Q1022 RMK 1CU030 A3019 FCST 2308 BECMG 2300 31008KT;EQDQ01+000000PRSWM2
0172474905999992000101600004+42900+143170FM-15+0084RJCT V0203201N004612200019N0112651N1+01101+00101999999ADDGA1021+009009999GF102991999999999999999999MA1102201999999MW1001REMMET078RJCT 160000Z 32009KT 9999 FEW030 11/01 Q1022 RMK 1CU030 A3020 FCST 0009 NOSIG;EQDQ01+000000PRSWM2
0157474905999992000101601004+42900+143170FM-15+0084RJCT V0203101N004612200019N0112651N1+01201-00101999999ADDGA1021+009009999GF102991999999999999999999MA1102201999999MW1001REMMET063RJCT 160100Z 31009KT 9999 FEW030 12/M01 Q1022 RMK 1CU030 A3020;EQDQ01+000000PRSWM2
0157474905999992000101602004+42900+143170FM-15+0084RJCT V0203101N004112200019N0112651N1+01301-00101999999ADDGA1021+009009999GF102991999999999999999999MA1102201999999MW1001REMMET063RJCT 160200Z 31008KT 9999 FEW030 13/M01 Q1022 RMK 1CU030 A3019;EQDQ01+000000PRSWM2
0173474905999992000101603004+42900+143170FM-15+0084RJCT V0203001N003112200019N0112651N1+01301-00101999999ADDGA1021+009009999GF102991999999999999999999MA1102101999999MW1001REMMET079RJCT 160300Z 30006KT 9999 FEW030 13/M01 Q1021 RMK 1CU030 A3017 FCST 0312 NOSIG;EQDQ01+000000PRSWM2
0157474905999992000101604004+42900+143170FM-15+0084RJCT V0202601N002112200019N0112651N1+01401+00001999999ADDGA1021+009009999GF102991999999999999999999MA1102101999999MW1001REMMET063RJCT 160400Z 26004KT 9999 FEW030 14/M00 Q1021 RMK 1SC030 A3015;EQDQ01+000000PRSWM2
0156474905999992000101605004+42900+143170FM-15+0084RJCT V0201901N001512200019N0112651N1+01401+00001999999ADDGA1021+009009999GF102991999999999999999999MA1102001999999MW1001REMMET062RJCT 160500Z 19003KT 9999 FEW030 14/00 Q1020 RMK 1SC030 A3014;EQDQ01+000000PRSWM2
0172474905999992000101606004+42900+143170FM-15+0084RJCT V0201801N002112200019N0112651N1+01401+00001999999ADDGA1021+009009999GF102991999999999999999999MA1102001999999MW1001REMMET078RJCT 160600Z 18004KT 9999 FEW030 14/00 Q1020 RMK 1SC030 A3014 FCST 0615 NOSIG;EQDQ01+000000PRSWM2
0130474905999992000101607004+42900+143170FM-15+0084RJCT V0202001N000512200019N0112651N1+01201+00401999999ADDGF100991999999999999999999MA1102001999999MW1001REMMET052RJCT 160700Z 20001KT 9999 SKC 12/04 Q1020 RMK A3014;EQDQ01+000000PRSWM2
0146474905999992000101608004+42900+143170FM-15+0084RJCT V0201601N002612200019N0112651N1+01001+00301999999ADDGF100991999999999999999999MA1102101999999MW1001REMMET068RJCT 160800Z 16005KT 9999 SKC 10/03 Q1021 RMK A3015 FCST 0817 NOSIG;EQDQ01+000000PRSWM2
0157474905999992000101622004+42900+143170FM-15+0084RJCT V0200801N001012200019N0112651N1+00101+00001999999ADDGA1021+009009999GF102991999999999999999999MA1101901999999MW1001REMMET063RJCT 162200Z 08002KT 9999 FEW030 01/M00 Q1019 RMK 1SC030 A3011;EQDQ01+000000PRSWM2
0172474905999992000101623004+42900+143170FM-15+0084RJCT V0201601N001012200019N0112651N1+00701+00201999999ADDGA1021+010509999GF102991999999999999999999MA1101901999999MW1001REMMET078RJCT 162300Z 16002KT 9999 FEW035 07/02 Q1019 RMK 1SC035 A3009 FCST 2308 NOSIG;EQDQ01+000000PRSWM2
0172474905999992000101700004+42900+143170FM-15+0084RJCT V0209999C000012200019N0112651N1+00901+00301999999ADDGA1021+009009999GF102991999999999999999999MA1101801999999MW1001REMMET078RJCT 170000Z 00000KT 9999 FEW030 09/03 Q1018 RMK 1SC030 A3008 FCST 0009 NOSIG;EQDQ01+000000PRSWM2
0156474905999992000101701004+42900+143170FM-15+0084RJCT V0201501N001012200019N0112651N1+01301+00401999999ADDGA1021+009009999GF102991999999999999999999MA1101691999999MW1001REMMET062RJCT 170100Z 15002KT 9999 FEW030 13/04 Q1017 RMK 1SC030 A3005;EQDQ01+000000PRSWM2
0156474905999992000101702004+42900+143170FM-15+0084RJCT V02099999999992200019N0112651N1+01501+00301999999ADDGA1021+069009999GF102991999999999999999999MA1101591999999MW1001REMMET062RJCT 170200Z VRB03KT 9999 FEW230 15/03 Q1016 RMK 1CI230 A3003;EQDQ01+000000PRSWM2
0172474905999992000101703004+42900+143170FM-15+0084RJCT V0200901N001512200019N0112651N1+01601+00401999999ADDGA1021+069009999GF104991999999999999999999MA1101491999999MW1001REMMET078RJCT 170300Z 09003KT 9999 SCT230 16/04 Q1015 RMK 4CI230 A2997 FCST 0312 NOSIG;EQDQ01+000000PRSWM2
0186474905999992000101704004+42900+143170FM-15+0084RJCT V02099999999990660019N0112651N1+01601+00401999999ADDGA1021+012009999GA2071+066009999GF107991999999999999999999MA1101291999999MW1001REMMET076RJCT 170400Z VRB02KT 9999 FEW040 BKN220 16/04 Q1013 RMK 1CU040 6CS220 A2993;EQDQ01+000000PRSWM2
0186474905999992000101705004+42900+143170FM-15+0084RJCT V0201101N002610540019N0112651N1+01601+00401999999ADDGA1021+012009999GA2071+054009999GF107991999999999999999999MA1101191999999MW1001REMMET076RJCT 170500Z 11005KT 9999 FEW040 BKN180 16/04 Q1012 RMK 1CU040 6AC180 A2989;EQDQ01+000000PRSWM2
0202474905999992000101706004+42900+143170FM-15+0084RJCT V0200501N001010540019N0112651N1+01601+00401999999ADDGA1021+012009999GA2071+054009999GF107991999999999999999999MA1101081999999MW1001REMMET092RJCT 170600Z 05002KT 9999 FEW040 BKN180 16/04 Q1011 RMK 1CU040 6AC180 A2987 FCST 0615 NOSIG;EQDQ01+000000PRSWM2
0216474905999992000101707004+42900+143170FM-15+0084RJCT V0200501N000510450019N0112651N1+01401+00601999999ADDGA1021+010509999GA2071+045009999GA3071+060009999GF107991999999999999999999MA1101081999999MW1001REMMET090RJCT 170700Z 05001KT 9999 FEW035 BKN150 BKN200 14/06 Q1011 RMK 1CU035 5AC150 6CS200 A2986;EQDQ01+000000PRSWM2
0232474905999992000101708004+42900+143170FM-15+0084RJCT V0203201N001510450019N0112651N1+01101+00601999999ADDGA1021+010509999GA2071+045009999GA3071+060009999GF107991999999999999999999MA1101021999999MW1001REMMET106RJCT 170800Z 32003KT 9999 FEW035 BKN150 BKN200 11/06 Q1010 RMK 1CU035 6AC150 7CS200 A2984 FCST 0817 NOSIG;EQDQ01+000000PRSWM2
0168474905999992000101722004+42900+143170FM-15+0084RJCT V0202801N008212200019N0112651N1+00601-00301999999ADDGA1021+002409999GF102991999999999999999999MA1100101999999MW1001OC101591REMMET066RJCT 172200Z 28016G31KT 9999 FEW008 06/M03 Q1001 RMK 1ST008 A2957;EQDQ01+000000PRSWM2
0168474905999992000101722144+42900+143170FM-16+0084RJCT V0202801N010312200019N0112651N1+00701-00401999999ADDGA1021+002409999GF102991999999999999999999MA1100101999999MW1001OC101901REMMET066RJCT 172214Z 28020G37KT 9999 FEW008 07/M04 Q1001 RMK 1ST008 A2958;EQDQ01+000000PRSWM2
0231474905999992000101723004+42900+143170FM-15+0084RJCT V0202801N008712200019N0112651N1+00601-00401999999ADDGA1021+001509999GF102991999999999999999999MA1100201999999MW1001OC101701REMMET129RJCT 172300Z 28017G33KT 9999 FEW005 06/M04 Q1002 RMK 1ST005 A2959 FCST 2308 TEMPO 2302 31020G40KT TEMPO 0206 31020G37KT BKN030CU;EQDQ01+000000PRSWM2
0168474905999992000101723024+42900+143170FM-16+0084RJCT V0202801N011312200019N0112651N1+00601-00301999999ADDGA1021+001509999GF102991999999999999999999MA1100201999999MW1001OC102111REMMET066RJCT 172302Z 28022G41KT 9999 FEW005 06/M03 Q1002 RMK 1ST005 A2961;EQDQ01+000000PRSWM2
0231474905999992000101800004+42900+143170FM-15+0084RJCT V0202801N011312200019N0112651N1+00601-00401999999ADDGA1021+001509999GF102991999999999999999999MA1100311999999MW1001OC101951REMMET129RJCT 180000Z 28022G38KT 9999 FEW005 06/M04 Q1003 RMK 1ST005 A2963 FCST 0009 BECMG 0001 31018G28KT TEMPO 0106 31020G40KT BKN030CU;EQDQ01+000000PRSWM2
0220474905999992000101800384+42900+143170FM-16+0084RJCT V0202901N009810075019N0112651N1+00601-00401999999ADDGA1021+001509999GA2071+007509999GF107991999999999999999999MA1100411999999MW1851OC101901REMMET086RJCT 180038Z 29019G37KT 9999 -SHSN FEW005 BKN025 06/M04 Q1004 RMK 1ST005 5CU025 A2965;EQDQ01+000003PRSWM1Q02    003PRSWM1
0220474905999992000101801004+42900+143170FM-15+0084RJCT V0202801N007712200019N0112651N1+00601-00301999999ADDGA1021+001509999GA2021+007509999GF104991999999999999999999MA1100411999999MW1851OC101441REMMET086RJCT 180100Z 28015G28KT 9999 -SHSN FEW005 SCT025 06/M03 Q1004 RMK 1ST005 3CU025 A2966;EQDQ01+000003PRSWM1Q02    003PRSWM1
0220474905999992000101801264+42900+143170FM-16+0084RJCT V0202901N010310075019N0112651N1+00601-00401999999ADDGA1021+001509999GA2071+007509999GF107991999999999999999999MA1100511999999MW1851OC101801REMMET086RJCT 180126Z 29020G35KT 9999 -SHSN FEW005 BKN025 06/M04 Q1005 RMK 2ST005 5CU025 A2969;EQDQ01+000003PRSWM1Q02    003PRSWM1
0241474905999992000101802004+42900+143170FM-15+0084RJCT V0203001N009810060019N0070001N1+00501-00401999999ADDGA1021+001209999GA2071+006009099GF107991999999999999999999MA1100511999999MW1851OC101851REMMET107RJCT 180200Z 30019G36KT 7000 -SHSN SCT004 BKN020CB 05/M04 Q1005 RMK 3ST004 7CB020 A2970 CB ALL QUAD MOV SE;EQDQ01+000003PRSWM1Q02    003PRSWM1
0272474905999992000101802294+42900+143170FM-16+0084RJCT V0203101N006210075019N0090001N1+00501-00201999999ADDGA1021+001209999GA2021+006009099GA3071+007509999GF107991999999999999999999MA1100611999999MW1851OC101341REMMET122RJCT 180229Z 31012G26KT 9000 -SHSN FEW004 SCT020CB BKN025 05/M02 Q1006 RMK 2ST004 3CB020 5CU025 A2973 CB 8KM NW-NE MOV SE;EQDQ01+000003PRSWM1Q02    003PRSWM1
0315474905999992000101803004+42900+143170FM-15+0084RJCT V0203101N006710075019N0080001N1+00401-00201999999ADDGA1021+001209999GA2021+006009099GA3071+007509999GF107991999999999999999999MA1100611999999MW1851OC101291REMMET165RJCT 180300Z 31013G25KT 8000 -SHSN FEW004 FEW020CB BKN025 04/M02 Q1006 RMK 2ST004 2CB020 5CU025 A2973 CB 10KM NW-NE MOV SE FCST 0312 BECMG 0304 NSW TEMPO 0409 -SHSN;EQDQ01+000003PRSWM1Q02    003PRSWM1
0265474905999992000101804004+42900+143170FM-15+0084RJCT V0203201N006710075019N0080001N1+00401-00301999999ADDGA1021+001509999GA2021+006009099GA3071+007509999GF107991999999999999999999MA1100711999999MW1851OC101341REMMET115RJCT 180400Z 32013G26KT 8000 -SHSN FEW005 FEW020CB BKN025 04/M03 Q1007 RMK 1ST005 2CB020 5CU025 A2975 CB NW MOV SE;EQDQ01+000003PRSWM1Q02    003PRSWM1
0168474905999992000101805004+42900+143170FM-15+0084RJCT V0202801N008712200019N0112651N1+00401-00401999999ADDGA1021+007509999GF102991999999999999999999MA1100811999999MW1001OC101391REMMET066RJCT 180500Z 28017G27KT 9999 FEW025 04/M04 Q1008 RMK 2CU025 A2976;EQDQ01+000000PRSWM2
0200474905999992000101806004+42900+143170FM-15+0084RJCT V0202801N010312200019N0112651N1+00501-00601999999ADDGA1021+007509999GF102991999999999999999999MA1100911999999MW1001OC101801REMMET098RJCT 180600Z 28020G35KT 9999 FEW025 05/M06 Q1009 RMK 2CU025 A2980 FCST 0615 BECMG 0607 28015G25KT;EQDQ01+000000PRSWM2
0168474905999992000101807004+42900+143170FM-15+0084RJCT V0202901N007212200019N0112651N1+00301-00601999999ADDGA1021+006009999GF102991999999999999999999MA1101021999999MW1001OC101231REMMET066RJCT 180700Z 29014G24KT 9999 FEW020 03/M06 Q1010 RMK 1CU020 A2985;EQDQ01+000000PRSWM2
0173474905999992000101808004+42900+143170FM-15+0084RJCT V0203101N005112200019N0112651N1+00201-00501999999ADDGA1021+006009999GF102991999999999999999999MA1101081999999MW1001REMMET079RJCT 180800Z 31010KT 9999 FEW020 02/M05 Q1011 RMK 1CU020 A2987 FCST 0817 NOSIG;EQDQ01+000000PRSWM2
0173474905999992000101903004+42900+143170FM-15+0084RJCT V0202601N001512200019N0112651N1+01201+00001999999ADDGA1021+009009999GF102991999999999999999999MA1101691999999MW1001REMMET079RJCT 190300Z 26003KT 9999 FEW030 12/M00 Q1017 RMK 1CU030 A3006 FCST 0312 NOSIG;EQDQ01+000000PRSWM2
0156474905999992000101904004+42900+143170FM-15+0084RJCT V0202501N002612200019N0112651N1+01401+00001999999ADDGA1021+012009999GF102991999999999999999999MA1101801999999MW1001REMMET062RJCT 190400Z 25005KT 9999 FEW040 14/00 Q1018 RMK 1CU040 A3006;EQDQ01+000000PRSWM2
0157474905999992000101905004+42900+143170FM-15+0084RJCT V0202301N002612200019N0112651N1+01401+00001999999ADDGA1021+012009999GF102991999999999999999999MA1101801999999MW1001REMMET063RJCT 190500Z 23005KT 9999 FEW040 14/M00 Q1018 RMK 1CU040 A3006;EQDQ01+000000PRSWM2
0203474905999992000101906004+42900+143170FM-15+0084RJCT V0203201N002612200019N0112651N1+01401+00001999999ADDGA1021+010509999GA2021+075009999GF104991999999999999999999MA1101801999999MW1001REMMET093RJCT 190600Z 32005KT 9999 FEW035 SCT250 14/M00 Q1018 RMK 1CU035 3CI250 A3007 FCST 0615 NOSIG;EQDQ01+000000PRSWM2
0186474905999992000101907004+42900+143170FM-15+0084RJCT V0203101N003110690019N0112651N1+01201+00101999999ADDGA1021+045009999GA2071+069009999GF107991999999999999999999MA1101901999999MW1001REMMET076RJCT 190700Z 31006KT 9999 FEW150 BKN230 12/01 Q1019 RMK 1AC150 5CI230 A3010;EQDQ01+000000PRSWM2
0202474905999992000101908004+42900+143170FM-15+0084RJCT V02099999999992200019N0112651N1+00901+00101999999ADDGA1021+012009999GA2021+066009999GF104991999999999999999999MA1102001999999MW1001REMMET092RJCT 190800Z VRB01KT 9999 FEW040 SCT220 09/01 Q1020 RMK 1SC040 3CI220 A3013 FCST 0817 NOSIG;EQDQ01+000000PRSWM2
0218474905999992000101921004+42900+143170FM-15+0084RJCT V0202501N000510690019N0112651N1-00201-00301999999ADDGA1021+009009999GA2021+039009999GA3071+069009999GF107991999999999999999999MA1102401999999MW1001REMMET092RJCT 192100Z 25001KT 9999 FEW030 SCT130 BKN230 M02/M03 Q1024 RMK 1CU030 3AC130 7CI230 A3024;EQDQ01+000000PRSWM2
0217474905999992000101922004+42900+143170FM-15+0084RJCT V0202001N001010690019N0112651N1+00001-00101999999ADDGA1021+009009999GA2021+039009999GA3071+069009999GF107991999999999999999999MA1102401999999MW1001REMMET091RJCT 192200Z 20002KT 9999 FEW030 SCT130 BKN230 00/M01 Q1024 RMK 1SC030 3AC130 7CI230 A3024;EQDQ01+000000PRSWM2
0247474905999992000101923004+42900+143170FM-15+0084RJCT V0202901N000510660019N0112651N1+00301+00001999999ADDGA1021+007509999GA2021+036009999GA3071+066009999GF107991999999999999999999MA1102401999999MW1001REMMET121RJCT 192300Z 29001KT 9999 FEW025 SCT120 BKN220 03/M00 Q1024 RMK 1SC025 3AC120 7CI220 A3023 FCST 2308 TEMPO 0608 BKN080AC;EQDQ01+000000PRSWM2
0186474905999992000101923484+42900+143170FM-16+0084RJCT V0202801N001010069019N0112651N1+00501+00001999999ADDGA1071+006909999GA2071+066009999GF107991999999999999999999MA1102301999999MW1001REMMET076RJCT 192348Z 28002KT 9999 BKN023 BKN220 05/00 Q1023 RMK 5SC023 7CI220 A3022;EQDQ01+000000PRSWM2
0216474905999992000102002004+42900+143170FM-15+0084RJCT V0200401N000510075019N0112651N1+00901+00101999999ADDGA1021+006009999GA2071+007509999GA3071+063009999GF107991999999999999999999MA1102101999999MW1001REMMET090RJCT 200200Z 04001KT 9999 FEW020 BKN025 BKN210 09/01 Q1021 RMK 1SC020 7SC025 6CI210 A3016;EQDQ01+000000PRSWM2
0266474905999992000102003004+42900+143170FM-15+0084RJCT V0200701N001010300019N0112651N1+01001+00301999999ADDGA1021+007509999GA2071+030009999GA3071+063009999GF107991999999999999999999MA1102001999999MW1001REMMET140RJCT 200300Z 07002KT 9999 FEW025 BKN100 BKN210 10/03 Q1020 RMK 1SC025 6AC100 7CI210 A3013 FCST 0312 TEMPO 0508 BKN025CU BECMG 0809 BKN025CU;EQDQ01+000000PRSWM2
0216474905999992000102003394+42900+143170FM-16+0084RJCT V02099999999990090019N0112651N1+01201+00401999999ADDGA1021+006009999GA2071+009009999GA3071+030009999GF107991999999999999999999MA1101901999999MW1001REMMET090RJCT 200339Z VRB01KT 9999 FEW020 BKN030 BKN100 12/04 Q1019 RMK 1SC020 5SC030 7AC100 A3011;EQDQ01+000000PRSWM2
0216474905999992000102004004+42900+143170FM-15+0084RJCT V02099999999990075019N0112651N1+01101+00501999999ADDGA1021+006009999GA2071+007509999GA3071+030009999GF107991999999999999999999MA1101901999999MW1001REMMET090RJCT 200400Z VRB02KT 9999 FEW020 BKN025 BKN100 11/05 Q1019 RMK 1SC020 6SC025 7AC100 A3010;EQDQ01+000000PRSWM2
0186474905999992000102005004+42900+143170FM-15+0084RJCT V0203201N001510075019N0112651N1+01101+00401999999ADDGA1071+007509999GA2071+030009999GF107991999999999999999999MA1101801999999MW1001REMMET076RJCT 200500Z 32003KT 9999 BKN025 BKN100 11/04 Q1018 RMK 6SC025 7AC100 A3006;EQDQ01+000000PRSWM2
0186474905999992000102007004+42900+143170FM-15+0084RJCT V0203301N001010060019N0112651N1+01101+00501999999ADDGA1021+004509999GA2071+006009999GF107991999999999999999999MA1101691999999MW1001REMMET076RJCT 200700Z 33002KT 9999 FEW015 BKN020 11/05 Q1017 RMK 1ST015 7SC020 A3005;EQDQ01+000000PRSWM2
0206474905999992000102007434+42900+143170FM-16+0084RJCT V0203401N000510060019N0060001N1+01001+00801999999ADDGA1021+004509999GA2071+006009999GF107991999999999999999999MA1101691999999MW1611REMMET080RJCT 200743Z 34001KT 6000 -RA FEW015 BKN020 10/08 Q1017 RMK 2ST015 7SC020 A3004;EQDQ01+000003PRSWM1Q02    003PRSWM1
0241474905999992000102008004+42900+143170FM-15+0084RJCT V0200101N000510060019N0060001N1+00901+00701999999ADDGA1021+004509999GA2081+006009999GF108991999999999999999999MA1101691999999MW1611REMMET115RJCT 200800Z 01001KT 6000 -RA SCT015 OVC020 09/07 Q1017 RMK 3ST015 8SC020 A3003 FCST 0817 BECMG 0910 4000 BKN008ST;EQDQ01+000003PRSWM1Q02    003PRSWM1
0205474905999992000102022004+42900+143170FM-15+0084RJCT V0201601N001010090019N0017001N1+00901+00901999999ADDGA1021+006009999GA2071+009009999GF107991999999999999999999MA1101081999999MW1101REMMET079RJCT 202200Z 16002KT 1700 BR FEW020 BKN030 09/09 Q1011 RMK 1CU020 6CU030 A2987;EQDQ01+000003PRSWM1Q02    003PRSWM1
0197474905999992000102104004+42900+143170FM-15+0084RJCT V0203201N005112200019N0112651N1+01801+00701999999ADDGA1021+006009999GA2021+010509999GF104991999999999999999999MA1101021999999MW1001OC101081REMMET079RJCT 210400Z 32010G21KT 9999 FEW020 SCT035 18/07 Q1010 RMK 1CU020 3CU035 A2983;EQDQ01+000000PRSWM2
0156474905999992000102105004+42900+143170FM-15+0084RJCT V0203101N004612200019N0112651N1+01701+00501999999ADDGA1021+010509999GF102991999999999999999999MA1101021999999MW1001REMMET062RJCT 210500Z 31009KT 9999 FEW035 17/05 Q1010 RMK 2CU035 A2983;EQDQ01+000000PRSWM2
0156474905999992000102121004+42900+143170FM-15+0084RJCT V0200701N001012200019N0112651N1+00401+00001999999ADDGA1021+000909999GF102991999999999999999999MA1102001999999MW1001REMMET062RJCT 212100Z 07002KT 9999 FEW003 04/00 Q1020 RMK 1ST003 A3012;EQDQ01+000000PRSWM2
0188474905999992000102123004+42900+143170FM-15+0084RJCT V0201401N000512200019N0112651N1+00801+00101999999ADDGA1021+007509999GF102991999999999999999999MA1102001999999MW1001REMMET094RJCT 212300Z 14001KT 9999 FEW025 08/01 Q1020 RMK 1SC025 A3014 FCST 2308 TEMPO 0206 30010G20KT;EQDQ01+000000PRSWM2
0188474905999992000102200004+42900+143170FM-15+0084RJCT V0202901N001512200019N0112651N1+01101+00001999999ADDGA1021+013509999GF102991999999999999999999MA1102001999999MW1001REMMET094RJCT 220000Z 29003KT 9999 FEW045 11/00 Q1020 RMK 1CU045 A3014 FCST 0009 TEMPO 0206 30010G20KT;EQDQ01+000000PRSWM2
0157474905999992000102201004+42900+143170FM-15+0084RJCT V0202701N005112200019N0112651N1+01201-00101999999ADDGA1021+013509999GF102991999999999999999999MA1102001999999MW1001REMMET063RJCT 220100Z 27010KT 9999 FEW045 12/M01 Q1020 RMK 2CU045 A3014;EQDQ01+000000PRSWM2
0168474905999992000102201124+42900+143170FM-16+0084RJCT V0202901N006712200019N0112651N1+01301-00101999999ADDGA1021+013509999GF104991999999999999999999MA1102001999999MW1001OC101291REMMET066RJCT 220112Z 29013G25KT 9999 SCT045 13/M01 Q1020 RMK 3CU045 A3013;EQDQ01+000000PRSWM2
0168474905999992000102202004+42900+143170FM-15+0084RJCT V0203001N006712200019N0112651N1+01301-00101999999ADDGA1021+013509999GF102991999999999999999999MA1102001999999MW1001OC101231REMMET066RJCT 220200Z 30013G24KT 9999 FEW045 13/M01 Q1020 RMK 2CU045 A3013;EQDQ01+000000PRSWM2
0189474905999992000102203004+42900+143170FM-15+0084RJCT V0202901N006712200019N0112651N1+01301-00101999999ADDGA1021+015009999GF102991999999999999999999MA1101901999999MW1001REMMET095RJCT 220300Z 29013KT 9999 FEW050 13/M01 Q1019 RMK 2CU050 A3011 FCST 0312 TEMPO 0306 30013G23KT;EQDQ01+000000PRSWM2
0157474905999992000102204004+42900+143170FM-15+0084RJCT V0202801N006712200019N0112651N1+01301-00101999999ADDGA1021+015009999GF102991999999999999999999MA1101901999999MW1001REMMET063RJCT 220400Z 28013KT 9999 FEW050 13/M01 Q1019 RMK 2SC050 A3009;EQDQ01+000000PRSWM2
0168474905999992000102205004+42900+143170FM-15+0084RJCT V0202801N006212200019N0112651N1+01301-00201999999ADDGA1021+015009999GF102991999999999999999999MA1101901999999MW1001OC101231REMMET066RJCT 220500Z 28012G24KT 9999 FEW050 13/M02 Q1019 RMK 2CU050 A3009;EQDQ01+000000PRSWM2
0197474905999992000102206004+42900+143170FM-15+0084RJCT V0202801N008212200019N0112651N1+01301-00301999999ADDGA1021+015009999GF102991999999999999999999MA1101901999999MW1001OC101441REMMET095RJCT 220600Z 28016G28KT 9999 FEW050 13/M03 Q1019 RMK 1CU050 A3010 FCST 0615 BECMG 0708 30010KT;EQDQ01+000000PRSWM2
0188474905999992000102222004+42900+143170FM-15+0084RJCT V0201701N000510660019N0112651N1-00101-00301999999ADDGA1021+009009999GA2071+066009999GF107991999999999999999999MA1102301999999MW1001REMMET078RJCT 222200Z 17001KT 9999 FEW030 BKN220 M01/M03 Q1023 RMK 1SC030 6CI220 A3023;EQDQ01+000000PRSWM2
0203474905999992000102223004+42900+143170FM-15+0084RJCT V0209999C000010660019N0112651N1+00301-00101999999ADDGA1021+010509999GA2071+066009999GF107991999999999999999999MA1102401999999MW1001REMMET093RJCT 222300Z 00000KT 9999 FEW035 BKN220 03/M01 Q1024 RMK 1CU035 5CI220 A3023 FCST 2308 NOSIG;EQDQ01+000000PRSWM2
0172474905999992000102300004+42900+143170FM-15+0084RJCT V0201001N000512200019N0112651N1+00701+00101999999ADDGA1021+066009999GF104991999999999999999999MA1102301999999MW1001REMMET078RJCT 230000Z 10001KT 9999 SCT220 07/01 Q1023 RMK 4CI220 A3023 FCST 0009 NOSIG;EQDQ01+000000PRSWM2
0186474905999992000102301004+42900+143170FM-15+0084RJCT V0201701N002610690019N0080001N1+01101+00101999999ADDGA1021+030009999GA2071+069009999GF107991999999999999999999MA1102201999999MW1001REMMET076RJCT 230100Z 17005KT 8000 FEW100 BKN230 11/01 Q1022 RMK 1AC100 7CS230 A3020;EQDQ01+000000PRSWM2
0186474905999992000102302004+42900+143170FM-15+0084RJCT V0201701N003110600019N0112651N1+01201+00001999999ADDGA1021+030009999GA2071+060009999GF107991999999999999999999MA1102201999999MW1001REMMET076RJCT 230200Z 17006KT 9999 FEW100 BKN200 12/00 Q1022 RMK 1AC100 7CS200 A3019;EQDQ01+000000PRSWM2
0225474905999992000102303004+42900+143170FM-15+0084RJCT V0201601N002610600019N0112651N1+01301+00001999999ADDGA1021+030009999GA2071+060009999GF107991999999999999999999MA1102101999999MW1001REMMET115RJCT 230300Z 16005KT 9999 SCT100 BKN200 13/00 Q1021 RMK 3AC100 6CS200 A3015 FCST 0312 BECMG 0709 BKN030CU BKN080AC;EQDQ01+000000PRSWM2
0186474905999992000102305004+42900+143170FM-15+0084RJCT V0201601N003110600019N0112651N1+01301+00001999999ADDGA1021+015009999GA2071+060009999GF107991999999999999999999MA1102001999999MW1001REMMET076RJCT 230500Z 16006KT 9999 FEW050 BKN200 13/00 Q1020 RMK 2SC050 6CS200 A3012;EQDQ01+000000PRSWM2
0225474905999992000102306004+42900+143170FM-15+0084RJCT V0201201N001510300019N0112651N1+01301+00001999999ADDGA1021+015009999GA2071+030009999GF107991999999999999999999MA1102001999999MW1001REMMET115RJCT 230600Z 12003KT 9999 FEW050 BKN100 13/00 Q1020 RMK 1SC050 7AC100 A3012 FCST 0615 BECMG 0910 BKN040CU BKN080AC;EQDQ01+000000PRSWM2
0216474905999992000102307004+42900+143170FM-15+0084RJCT V0201601N003610300019N0112651N1+01101+00301999999ADDGA1021+015009999GA2021+024009999GA3071+030009999GF107991999999999999999999MA1102001999999MW1001REMMET090RJCT 230700Z 16007KT 9999 FEW050 SCT080 BKN100 11/03 Q1020 RMK 1SC050 3AC080 7AC100 A3014;EQDQ01+000000PRSWM2
0225474905999992000102308004+42900+143170FM-15+0084RJCT V0201301N002610210019N0112651N1+01001+00301999999ADDGA1021+015009999GA2081+021009999GF108991999999999999999999MA1102101999999MW1001REMMET115RJCT 230800Z 13005KT 9999 FEW050 OVC070 10/03 Q1021 RMK 2SC050 8AC070 A3015 FCST 0817 BECMG 0910 BKN040CU BKN080AC;EQDQ01+000000PRSWM2
0131474905999992000102322004+42900+143170FM-15+0084RJCT V0202601N000512200019N0112651N1+00001-00101999999ADDGF100991999999999999999999MA1102301999999MW1001REMMET053RJCT 232200Z 26001KT 9999 SKC 00/M01 Q1023 RMK A3023;EQDQ01+000000PRSWM2
0146474905999992000102323004+42900+143170FM-15+0084RJCT V0203001N001012200019N0112651N1+00401+00101999999ADDGF100991999999999999999999MA1102401999999MW1001REMMET068RJCT 232300Z 30002KT 9999 SKC 04/01 Q1024 RMK A3024 FCST 2308 NOSIG;EQDQ01+000000PRSWM2
0150474905999992000102400004+42900+143170FM-15+0084RJCT V0209999V000512200019N0112651N1+00701+00201999999ADDGF100991999999999999999999MA1102401999999MW1001REMMET072RJCT 240000Z COR VRB01KT 9999 SKC 07/02 Q1024 RMK A3025 FCST 0009 NOSIG;EQDQ01+000000PRSWM2
0130474905999992000102401004+42900+143170FM-15+0084RJCT V02099999999992200019N0112651N1+01001+00301999999ADDGF100991999999999999999999MA1102401999999MW1001REMMET052RJCT 240100Z VRB01KT 9999 SKC 10/03 Q1024 RMK A3025;EQDQ01+000000PRSWM2
0130474905999992000102402004+42900+143170FM-15+0084RJCT V0200401N000512200019N0112651N1+01301+00201999999ADDGF100991999999999999999999MA1102401999999MW1001REMMET052RJCT 240200Z 04001KT 9999 SKC 13/02 Q1024 RMK A3024;EQDQ01+000000PRSWM2
0173474905999992000102403004+42900+143170FM-15+0084RJCT V0201401N002112200019N0112651N1+01401-00201999999ADDGA1021+075009999GF102991999999999999999999MA1102301999999MW1001REMMET079RJCT 240300Z 14004KT 9999 FEW250 14/M02 Q1023 RMK 1CI250 A3021 FCST 0312 NOSIG;EQDQ01+000000PRSWM2
0156474905999992000102404004+42900+143170FM-15+0084RJCT V0201201N002112200019N0112651N1+01501+00301999999ADDGA1021+075009999GF102991999999999999999999MA1102201999999MW1001REMMET062RJCT 240400Z 12004KT 9999 FEW250 15/03 Q1022 RMK 1CI250 A3020;EQDQ01+000000PRSWM2
0156474905999992000102405004+42900+143170FM-15+0084RJCT V0201301N001512200019N0112651N1+01501+00401999999ADDGA1021+069009999GF104991999999999999999999MA1102201999999MW1001REMMET062RJCT 240500Z 13003KT 9999 SCT230 15/04 Q1022 RMK 4CI230 A3020;EQDQ01+000000PRSWM2
0172474905999992000102406004+42900+143170FM-15+0084RJCT V0201201N002110690019N0112651N1+01501+00401999999ADDGA1071+069009999GF107991999999999999999999MA1102201999999MW1001REMMET078RJCT 240600Z 12004KT 9999 BKN230 15/04 Q1022 RMK 5CI230 A3020 FCST 0615 NOSIG;EQDQ01+000000PRSWM2
0186474905999992000102407004+42900+143170FM-15+0084RJCT V0201601N004110690019N0112651N1+01201+00401999999ADDGA1021+036009999GA2071+069009999GF107991999999999999999999MA1102301999999MW1001REMMET076RJCT 240700Z 16008KT 9999 FEW120 BKN230 12/04 Q1023 RMK 1AC120 6CI230 A3022;EQDQ01+000000PRSWM2
0202474905999992000102408004+42900+143170FM-15+0084RJCT V0201601N003110600019N0112651N1+01001+00501999999ADDGA1021+036009999GA2071+060009999GF107991999999999999999999MA1102301999999MW1001REMMET092RJCT 240800Z 16006KT 9999 FEW120 BKN200 10/05 Q1023 RMK 2AC120 7CS200 A3023 FCST 0817 NOSIG;EQDQ01+000000PRSWM2
0186474905999992000102409004+42900+143170FM-15+0084RJCT V0201301N001510600019N0112651N1+00901+00601999999ADDGA1021+036009999GA2071+060009999GF107991999999999999999999MA1102401999999MW1001REMMET076RJCT 240900Z 13003KT 9999 FEW120 BKN200 09/06 Q1024 RMK 1AC120 7CS200 A3025;EQDQ01+000000PRSWM2
0206474905999992000102422324+42900+143170FM-16+0084RJCT V0202701N001010042019N0040001N1+00701+00501999999ADDGA1071+004209999GA2081+007509999GF108991999999999999999999MA1101491999999MW1511REMMET080RJCT 242232Z 27002KT 4000 -DZ BKN014 OVC025 07/05 Q1015 RMK 7ST014 8SC025 A2999;EQDQ01+000003PRSWM1Q02    003PRSWM1
0249474905999992000102423004+42900+143170FM-15+0084RJCT V0202801N002110039019N0040001N1+00601+00501999999ADDGA1071+003909999GF107991999999999999999999MA1101491999999MW1511REMMET139RJCT 242300Z 28004KT 4000 -DZ BKN013 06/05 Q1015 RMK 7ST013 A2997 FCST 2308 BECMG 2300 NSW TEMPO 0306 -SHRA TEMPO 0608 4000 -SHRA BKN008ST;EQDQ01+000003PRSWM1Q02    003PRSWM1
0249474905999992000102500004+42900+143170FM-15+0084RJCT V0202501N000510036019N0050001N1+00701+00501999999ADDGA1071+003609999GF107991999999999999999999MA1101291999999MW1511REMMET139RJCT 250000Z 25001KT 5000 -DZ BKN012 07/05 Q1013 RMK 7ST012 A2994 FCST 0009 BECMG 0001 NSW TEMPO 0105 -SHRA TEMPO 0509 4000 -SHRA BKN009ST;EQDQ01+000003PRSWM1Q02    003PRSWM1
0156474905999992000102500124+42900+143170FM-16+0084RJCT V0202701N000510042019N0060001N1+00701+00501999999ADDGA1071+004209999GF107991999999999999999999MA1101291999999MW1001REMMET062RJCT 250012Z 27001KT 6000 BKN014 07/05 Q1013 RMK 7ST014 A2991;EQDQ01+000000PRSWM2
0206474905999992000102500434+42900+143170FM-16+0084RJCT V0202501N001510045019N0050001N1+00801+00501999999ADDGA1021+003009999GA2081+004509999GF108991999999999999999999MA1101291999999MW1611REMMET080RJCT 250043Z 25003KT 5000 -RA FEW010 OVC015 08/05 Q1013 RMK 2ST010 8ST015 A2991;EQDQ01+000003PRSWM1Q02    003PRSWM1
0206474905999992000102501004+42900+143170FM-15+0084RJCT V0202701N001010042019N0040001N1+00801+00501999999ADDGA1021+003009999GA2081+004209999GF108991999999999999999999MA1101191999999MW1611REMMET080RJCT 250100Z 27002KT 4000 -RA FEW010 OVC014 08/05 Q1012 RMK 2ST010 8ST014 A2989;EQDQ01+000003PRSWM1Q02    003PRSWM1
0235474905999992000102502094+42900+143170FM-16+0084RJCT V02099999999990600019N0050001N1+01101+00701999999ADDGA1021+003009999GA2021+004509999GA3071+060009999GF107991999999999999999999MA1101021999999MW1101REMMET093RJCT 250209Z VRB01KT 5000 BR FEW010 SCT015 BKN200 11/07 Q1010 RMK 1ST010 3ST015 6CI200 A2983;EQDQ01+000003PRSWM1Q02    003PRSWM1
0238474905999992000102504004+42900+143170FM-15+0084RJCT V0202101N001010105019N0070001N1+01201+00801999999ADDGA1021+003609999GA2021+006009999GA3071+010509999GF107991999999999999999999MA1100811999999MW1801REMMET096RJCT 250400Z 21002KT 7000 -SHRA FEW012 SCT020 BKN035 12/08 Q1008 RMK 1ST012 3ST020 6CU035 A2977;EQDQ01+000003PRSWM1Q02    003PRSWM1
0208474905999992000102505004+42900+143170FM-15+0084RJCT V0203001N002110105019N0080001N1+01201+00901999999ADDGA1021+006009999GA2071+010509999GF107991999999999999999999MA1100711999999MW1801REMMET082RJCT 250500Z 30004KT 8000 -SHRA SCT020 BKN035 12/09 Q1007 RMK 3ST020 7CU035 A2974;EQDQ01+000003PRSWM1Q02    003PRSWM1
0258474905999992000102506004+42900+143170FM-15+0084RJCT V0201301N000510240019N0060001N1+01201+00901999999ADDGA1021+012009999GA2071+024009999GF107991999999999999999999MA1100611999999MW1801REMMET132RJCT 250600Z 13001KT 6000 -SHRA SCT040 BKN080 12/09 Q1006 RMK 4SC040 7AC080 A2972 FCST 0615 TEMPO 0811 4500 BKN015ST BECMG 1112 NSW;EQDQ01+000003PRSWM1Q02    003PRSWM1
0208474905999992000102507004+42900+143170FM-15+0084RJCT V0201801N001510240019N0060001N1+01101+01001999999ADDGA1021+013509999GA2081+024009999GF108991999999999999999999MA1100611999999MW1801REMMET082RJCT 250700Z 18003KT 6000 -SHRA SCT045 OVC080 11/10 Q1006 RMK 4SC045 8AC080 A2971;EQDQ01+000003PRSWM1Q02    003PRSWM1
0209474905999992000102507444+42900+143170FM-16+0084RJCT V0201701N001510240019N0035001N1+01001+00901999999ADDGA1021+018009999GA2071+024009999GF107991999999999999999999MA1100611999999MW1101REMMET083RJCT COR 250744Z 17003KT 3500 BR SCT060 BKN080 10/09 Q1006 RMK 3SC060 7AC080 A2971;EQDQ01+000003PRSWM1Q02    003PRSWM1
0221474905999992000102508004+42900+143170FM-15+0084RJCT V0201801N001010240019N0030001N1+01001+00901999999ADDGA1021+018009999GA2071+024009999GF107991999999999999999999MA1100511999999MW1101REMMET095RJCT 250800Z 18002KT 3000 BR SCT060 BKN080 10/09 Q1005 RMK 3SC060 7AC080 A2969 FCST 0817 NOSIG;EQDQ01+000003PRSWM1Q02    003PRSWM1
0217474905999992000102521004+42900+143170FM-15+0084RJCT V0203201N005110300019N0112651N1+01001+00001999999ADDGA1021+009009999GA2021+024009999GA3071+030009999GF107991999999999999999999MA1100201999999MW1001REMMET091RJCT 252100Z 32010KT 9999 FEW030 SCT080 BKN100 10/M00 Q1002 RMK 1CU030 4AC080 6AC100 A2960;EQDQ01+000000PRSWM2
0187474905999992000102521244+42900+143170FM-16+0084RJCT V0203201N003612200019N0112651N1+00901-00101999999ADDGA1021+009009999GA2021+024009999GF104991999999999999999999MA1100311999999MW1001REMMET077RJCT 252124Z 32007KT 9999 FEW030 SCT080 09/M01 Q1003 RMK 1CU030 3AC080 A2961;EQDQ01+000000PRSWM2
0198474905999992000102521464+42900+143170FM-16+0084RJCT V0203101N006212200019N0112651N1+00901-00201999999ADDGA1021+009009999GA2021+030009999GF104991999999999999999999MA1100311999999MW1001OC101181REMMET080RJCT 252146Z 31012G23KT 9999 FEW030 SCT100 09/M02 Q1003 RMK 1CU030 3AC100 A2962;EQDQ01+000000PRSWM2
0168474905999992000102522004+42900+143170FM-15+0084RJCT V0203101N008212200019N0112651N1+00901-00201999999ADDGA1021+009009999GF102991999999999999999999MA1100311999999MW1001OC101441REMMET066RJCT 252200Z 31016G28KT 9999 FEW030 09/M02 Q1003 RMK 1CU030 A2962;EQDQ01+000000PRSWM2
0220474905999992000102523004+42900+143170FM-15+0084RJCT V0203001N008212200019N0112651N1+01001-00201999999ADDGA1021+009009999GF102991999999999999999999MA1100411999999MW1001OC101491REMMET118RJCT 252300Z 30016G29KT 9999 FEW030 10/M02 Q1004 RMK 1CU030 A2965 FCST 2308 TEMPO 0106 32020G35KT TEMPO 0608 BKN030CU;EQDQ01+000000PRSWM2
0168474905999992000102523434+42900+143170FM-16+0084RJCT V0202801N010312200019N0112651N1+01001-00201999999ADDGA1021+009009999GF102991999999999999999999MA1100411999999MW1001OC101901REMMET066RJCT 252343Z 28020G37KT 9999 FEW030 10/M02 Q1004 RMK 1CU030 A2966;EQDQ01+000000PRSWM2
0242474905999992000102600004+42900+143170FM-15+0084RJCT V0202701N010312200019N0112651N1+01001-00201999999ADDGA1021+009009999GF102991999999999999999999MA1100411999999MW1001OC101801REMMET140RJCT 260000Z 27020G35KT 9999 FEW030 10/M02 Q1004 RMK 1CU030 A2966 FCST 0009 BECMG 0001 27018G28KT TEMPO 0106 30020G35KT TEMPO 0608 BKN030CU;EQDQ01+000000PRSWM2
0168474905999992000102600324+42900+143170FM-16+0084RJCT V0202801N010312200019N0112651N1+01101-00201999999ADDGA1021+009009999GF102991999999999999999999MA1100411999999MW1001OC101701REMMET066RJCT 260032Z 28020G33KT 9999 FEW030 11/M02 Q1004 RMK 1CU030 A2967;EQDQ01+000000PRSWM2
0168474905999992000102600354+42900+143170FM-16+0084RJCT V0202801N010312200019N0112651N1+01101-00301999999ADDGA1021+009009999GF102991999999999999999999MA1100411999999MW1001OC101801REMMET066RJCT 260035Z 28020G35KT 9999 FEW030 11/M03 Q1004 RMK 1CU030 A2967;EQDQ01+000000PRSWM2
0168474905999992000102601004+42900+143170FM-15+0084RJCT V0202701N010312200019N0112651N1+01101-00201999999ADDGA1021+009009999GF102991999999999999999999MA1100511999999MW1001OC101851REMMET066RJCT 260100Z 27020G36KT 9999 FEW030 11/M02 Q1005 RMK 1CU030 A2967;EQDQ01+000000PRSWM2
0168474905999992000102602004+42900+143170FM-15+0084RJCT V0202701N009812200019N0112651N1+01001-00201999999ADDGA1021+009009999GF102991999999999999999999MA1100511999999MW1001OC101651REMMET066RJCT 260200Z 27019G32KT 9999 FEW030 10/M02 Q1005 RMK 2CU030 A2969;EQDQ01+000000PRSWM2
0168474905999992000102602014+42900+143170FM-16+0084RJCT V0202801N010312200019N0112651N1+01001-00201999999ADDGA1021+009009999GF102991999999999999999999MA1100511999999MW1001OC101801REMMET066RJCT 260201Z 28020G35KT 9999 FEW030 10/M02 Q1005 RMK 2CU030 A2970;EQDQ01+000000PRSWM2
0200474905999992000102603004+42900+143170FM-15+0084RJCT V0202901N010312200019N0112651N1+00901-00201999999ADDGA1021+009009999GF102991999999999999999999MA1100511999999MW1001OC101801REMMET098RJCT 260300Z 29020G35KT 9999 FEW030 09/M02 Q1005 RMK 2CU030 A2969 FCST 0312 BECMG 0506 30018G28KT;EQDQ01+000000PRSWM2
0168474905999992000102603254+42900+143170FM-15+0084RJCT V0202801N010312200019N0112651N1+00901-00401999999ADDGA1021+009009999GF102991999999999999999999MA1100511999999MW1001OC101701REMMET066RJCT 260325Z 28020G33KT 9999 FEW030 09/M04 Q1005 RMK 1CU030 A2970;EQDQ01+000000PRSWM2
0168474905999992000102603384+42900+143170FM-16+0084RJCT V0202801N010312200019N0112651N1+00901-00401999999ADDGA1021+009009999GF102991999999999999999999MA1100611999999MW1001OC101801REMMET066RJCT 260338Z 28020G35KT 9999 FEW030 09/M04 Q1006 RMK 1CU030 A2971;EQDQ01+000000PRSWM2
0168474905999992000102604004+42900+143170FM-15+0084RJCT V0203001N010812200019N0112651N1+00801-00501999999ADDGA1021+009009999GF102991999999999999999999MA1100611999999MW1001OC101751REMMET066RJCT 260400Z 30021G34KT 9999 FEW030 08/M05 Q1006 RMK 1CU030 A2972;EQDQ01+000000PRSWM2
0168474905999992000102604474+42900+143170FM-16+0084RJCT V0202901N010812200019N0112651N1+00801-00501999999ADDGA1021+009009999GF102991999999999999999999MA1100611999999MW1001OC101851REMMET066RJCT 260447Z 29021G36KT 9999 FEW030 08/M05 Q1006 RMK 1CU030 A2973;EQDQ01+000000PRSWM2
0168474905999992000102605004+42900+143170FM-15+0084RJCT V0202901N011312200019N0112651N1+00801-00401999999ADDGA1021+009009999GF102991999999999999999999MA1100611999999MW1001OC101801REMMET066RJCT 260500Z 29022G35KT 9999 FEW030 08/M04 Q1006 RMK 1CU030 A2973;EQDQ01+000000PRSWM2
0168474905999992000102605364+42900+143170FM-16+0084RJCT V0203001N007712200019N0112651N1+00601-00301999999ADDGA1021+009009999GF102991999999999999999999MA1100711999999MW1001OC101341REMMET066RJCT 260536Z 30015G26KT 9999 FEW030 06/M03 Q1007 RMK 1CU030 A2975;EQDQ01+000000PRSWM2
0189474905999992000102606004+42900+143170FM-15+0084RJCT V0203001N007712200019N0112651N1+00601-00301999999ADDGA1021+009009999GF102991999999999999999999MA1100811999999MW1001REMMET095RJCT 260600Z 30015KT 9999 FEW030 06/M03 Q1008 RMK 1CU030 A2976 FCST 0615 TEMPO 0612 32010G20KT;EQDQ01+000000PRSWM2
0168474905999992000102606314+42900+143170FM-16+0084RJCT V0203001N006212200019N0112651N1+00601-00301999999ADDGA1021+009009999GF102991999999999999999999MA1100811999999MW1001OC101291REMMET066RJCT 260631Z 30012G25KT 9999 FEW030 06/M03 Q1008 RMK 1CU030 A2977;EQDQ01+000000PRSWM2
0157474905999992000102607004+42900+143170FM-15+0084RJCT V0203001N005112200019N0112651N1+00501-00401999999ADDGA1021+009009999GF102991999999999999999999MA1100811999999MW1001REMMET063RJCT 260700Z 30010KT 9999 FEW030 05/M04 Q1008 RMK 1CU030 A2978;EQDQ01+000000PRSWM2
0228474905999992000102608004+42900+143170FM-15+0084RJCT V02099999999992200019N0112651N1+00501-00401999999ADDGA1021+003609999GA2021+009009999GF104991999999999999999999MA1100911999999MW1001REMMET118RJCT 260800Z VRB02KT 9999 FEW012 SCT030 05/M04 Q1009 RMK 1ST012 3CU030 A2981 FCST 0817 TEMPO 0915 30010G20KT BKN030CU;EQDQ01+000000PRSWM2
0187474905999992000102622004+42900+143170FM-15+0084RJCT V0203101N003112200019N0112651N1+00501-00401999999ADDGA1021+009009999GA2021+010509999GF104991999999999999999999MA1101491999999MW1001REMMET077RJCT 262200Z 31006KT 9999 FEW030 SCT035 05/M04 Q1015 RMK 1CU030 3CU035 A3000;EQDQ01+000000PRSWM2
0198474905999992000102622334+42900+143170FM-16+0084RJCT V0202901N006712200019N0112651N1+00701-00301999999ADDGA1021+010509999GA2021+012009999GF104991999999999999999999MA1101591999999MW1001OC101181REMMET080RJCT 262233Z 29013G23KT 9999 FEW035 SCT040 07/M03 Q1016 RMK 1CU035 3CU040 A3002;EQDQ01+000000PRSWM2
0228474905999992000102623004+42900+143170FM-15+0084RJCT V0202901N006712200019N0112651N1+00701-00301999999ADDGA1021+009009999GA2021+012009999GF104991999999999999999999MA1101591999999MW1001REMMET118RJCT 262300Z 29013KT 9999 FEW030 SCT040 07/M03 Q1016 RMK 1CU030 3CU040 A3003 FCST 2308 TEMPO 0006 30013G25KT BKN030CU;EQDQ01+000000PRSWM2
0168474905999992000102623314+42900+143170FM-16+0084RJCT V0203001N007212200019N0112651N1+00801-00301999999ADDGA1021+012009999GF104991999999999999999999MA1101591999999MW1001OC101291REMMET066RJCT 262331Z 30014G25KT 9999 SCT040 08/M03 Q1016 RMK 4CU040 A3002;EQDQ01+000000PRSWM2
0217474905999992000102700004+42900+143170FM-15+0084RJCT V0203001N006212200019N0112651N1+00801-00301999999ADDGA1021+012009999GF104991999999999999999999MA1101591999999MW1001OC101341REMMET115RJCT 270000Z 30012G26KT 9999 SCT040 08/M03 Q1016 RMK 4CU040 A3002 FCST 0009 TEMPO 0006 BKN040CU BECMG 0607 31010KT;EQDQ01+000000PRSWM2
0168474905999992000102701004+42900+143170FM-15+0084RJCT V0202901N006712200019N0112651N1+00901-00301999999ADDGA1021+012009999GF104991999999999999999999MA1101591999999MW1001OC101181REMMET066RJCT 270100Z 29013G23KT 9999 SCT040 09/M03 Q1016 RMK 4CU040 A3001;EQDQ01+000000PRSWM2
0168474905999992000102702004+42900+143170FM-15+0084RJCT V0202901N009312200019N0112651N1+01001-00301999999ADDGA1021+012009999GF104991999999999999999999MA1101491999999MW1001OC101591REMMET066RJCT 270200Z 29018G31KT 9999 SCT040 10/M03 Q1015 RMK 3CU040 A2999;EQDQ01+000000PRSWM2
0217474905999992000102703004+42900+143170FM-15+0084RJCT V0203001N007712200019N0112651N1+01101-00301999999ADDGA1021+010509999GF104991999999999999999999MA1101491999999MW1001OC101651REMMET115RJCT 270300Z 30015G32KT 9999 SCT035 11/M03 Q1015 RMK 3CU035 A2998 FCST 0312 TEMPO 0407 BKN035CU BECMG 0708 31010KT;EQDQ01+000000PRSWM2
0168474905999992000102704004+42900+143170FM-15+0084RJCT V0202901N008712200019N0112651N1+01101-00301999999ADDGA1021+009009999GF102991999999999999999999MA1101491999999MW1001OC101491REMMET066RJCT 270400Z 29017G29KT 9999 FEW030 11/M03 Q1015 RMK 2CU030 A2997;EQDQ01+000000PRSWM2
0168474905999992000102705004+42900+143170FM-15+0084RJCT V0203001N007712200019N0112651N1+01101-00301999999ADDGA1021+009009999GF102991999999999999999999MA1101491999999MW1001OC101441REMMET066RJCT 270500Z 30015G28KT 9999 FEW030 11/M03 Q1015 RMK 2CU030 A2998;EQDQ01+000000PRSWM2
0197474905999992000102706004+42900+143170FM-15+0084RJCT V0202901N007212200019N0112651N1+01001-00301999999ADDGA1021+010509999GF102991999999999999999999MA1101491999999MW1001OC101231REMMET095RJCT 270600Z 29014G24KT 9999 FEW035 10/M03 Q1015 RMK 1CU035 A2999 FCST 0615 BECMG 0708 31010KT;EQDQ01+000000PRSWM2
0157474905999992000102707004+42900+143170FM-15+0084RJCT V0202901N005712200019N0112651N1+00901-00301999999ADDGA1021+010509999GF102991999999999999999999MA1101491999999MW1001REMMET063RJCT 270700Z 29011KT 9999 FEW035 09/M03 Q1015 RMK 1CU035 A3000;EQDQ01+000000PRSWM2
0197474905999992000102708004+42900+143170FM-15+0084RJCT V0203001N007712200019N0112651N1+00801-00401999999ADDGA1021+009009999GF102991999999999999999999MA1101491999999MW1001OC101341REMMET095RJCT 270800Z 30015G26KT 9999 FEW030 08/M04 Q1015 RMK 1CU030 A3000 FCST 0817 BECMG 0810 31010KT;EQDQ01+000000PRSWM2
0157474905999992000102722004+42900+143170FM-15+0084RJCT V0203001N004612200019N0112651N1+00701-00401999999ADDGA1021+010509999GF102991999999999999999999MA1101691999999MW1001REMMET063RJCT 272200Z 30009KT 9999 FEW035 07/M04 Q1017 RMK 1CU035 A3003;EQDQ01+000000PRSWM2
0168474905999992000102801004+42900+143170FM-15+0084RJCT V0202901N007212200019N0112651N1+01101-00301999999ADDGA1021+010509999GF102991999999999999999999MA1101591999999MW1001OC101291REMMET066RJCT 280100Z 29014G25KT 9999 FEW035 11/M03 Q1016 RMK 1CU035 A3002;EQDQ01+000000PRSWM2
0168474905999992000102802004+42900+143170FM-15+0084RJCT V0202901N007212200019N0112651N1+01101-00401999999ADDGA1021+010509999GF102991999999999999999999MA1101591999999MW1001OC101291REMMET066RJCT 280200Z 29014G25KT 9999 FEW035 11/M04 Q1016 RMK 1CU035 A3000;EQDQ01+000000PRSWM2
0197474905999992000102803004+42900+143170FM-15+0084RJCT V0203101N006712200019N0112651N1+01201-00501999999ADDGA1021+010509999GF102991999999999999999999MA1101491999999MW1001OC101341REMMET095RJCT 280300Z 31013G26KT 9999 FEW035 12/M05 Q1015 RMK 1CU035 A2997 FCST 0312 BECMG 0608 31010KT;EQDQ01+000000PRSWM2
0157474905999992000102804004+42900+143170FM-15+0084RJCT V0203001N005112200019N0112651N1+01201-00501999999ADDGA1021+010509999GF102991999999999999999999MA1101391999999MW1001REMMET063RJCT 280400Z 30010KT 9999 FEW035 12/M05 Q1014 RMK 1CU035 A2994;EQDQ01+000000PRSWM2
0168474905999992000102804074+42900+143170FM-16+0084RJCT V0203101N006712200019N0112651N1+01201-00501999999ADDGA1021+010509999GF102991999999999999999999MA1101291999999MW1001OC101231REMMET066RJCT 280407Z 31013G24KT 9999 FEW035 12/M05 Q1013 RMK 1CU035 A2993;EQDQ01+000000PRSWM2
0168474905999992000102805004+42900+143170FM-15+0084RJCT V0203101N005712200019N0112651N1+01201-00501999999ADDGA1021+012009999GF102991999999999999999999MA1101291999999MW1001OC101231REMMET066RJCT 280500Z 31011G24KT 9999 FEW040 12/M05 Q1013 RMK 1CU040 A2992;EQDQ01+000000PRSWM2
0203474905999992000102806004+42900+143170FM-15+0084RJCT V0203101N004612200019N0112651N1+01201-00501999999ADDGA1021+012009999GA2021+075009999GF104991999999999999999999MA1101291999999MW1001REMMET093RJCT 280600Z 31009KT 9999 FEW040 SCT250 12/M05 Q1013 RMK 1CU040 4CI250 A2991 FCST 0615 NOSIG;EQDQ01+000000PRSWM2
0217474905999992000102922004+42900+143170FM-15+0084RJCT V02099999999990690019N0112651N1+00101-00201999999ADDGA1021+006009999GA2021+054009999GA3071+069009999GF107991999999999999999999MA1101021999999MW1001REMMET091RJCT 292200Z VRB01KT 9999 FEW020 SCT180 BKN230 01/M02 Q1010 RMK 1SC020 3AC180 6CI230 A2983;EQDQ01+000000PRSWM2
0189474905999992000102923004+42900+143170FM-15+0084RJCT V0209999C000012200019N0112651N1+00301-00101999999ADDGA1021+012009999GF102991999999999999999999MA1101081999999MW1001REMMET095RJCT 292300Z 00000KT 9999 FEW040 03/M01 Q1011 RMK 1CU040 A2985 FCST 2308 TEMPO 0306 32010G20KT;EQDQ01+000000PRSWM2
0189474905999992000103000004+42900+143170FM-15+0084RJCT V0203101N002112200019N0112651N1+00801-00301999999ADDGA1021+015009999GF102991999999999999999999MA1101081999999MW1001REMMET095RJCT 300000Z 31004KT 9999 FEW050 08/M03 Q1011 RMK 1CU050 A2986 FCST 0009 TEMPO 0206 32010G20KT;EQDQ01+000000PRSWM2
0157474905999992000103001004+42900+143170FM-15+0084RJCT V0203101N003112200019N0112651N1+01001-00301999999ADDGA1021+015009999GF102991999999999999999999MA1101081999999MW1001REMMET063RJCT 300100Z 31006KT 9999 FEW050 10/M03 Q1011 RMK 1CU050 A2986;EQDQ01+000000PRSWM2
0157474905999992000103002004+42900+143170FM-15+0084RJCT V0203101N004112200019N0112651N1+01001-00301999999ADDGA1021+013509999GF104991999999999999999999MA1101081999999MW1001REMMET063RJCT 300200Z 31008KT 9999 SCT045 10/M03 Q1011 RMK 4CU045 A2987;EQDQ01+000000PRSWM2
0189474905999992000103003004+42900+143170FM-15+0084RJCT V0203201N005712200019N0112651N1+01001-00301999999ADDGA1021+015009999GF104991999999999999999999MA1101081999999MW1001REMMET095RJCT 300300Z 32011KT 9999 SCT050 10/M03 Q1011 RMK 3CU050 A2987 FCST 0312 TEMPO 0306 32010G20KT;EQDQ01+000000PRSWM2
0157474905999992000103004004+42900+143170FM-15+0084RJCT V0203201N005112200019N0112651N1+01101-00201999999ADDGA1021+015009999GF102991999999999999999999MA1101081999999MW1001REMMET063RJCT 300400Z 32010KT 9999 FEW050 11/M02 Q1011 RMK 2CU050 A2987;EQDQ01+000000PRSWM2
0168474905999992000103005004+42900+143170FM-15+0084RJCT V0203201N005112200019N0112651N1+01101-00401999999ADDGA1021+015009999GF102991999999999999999999MA1101081999999MW1001OC101031REMMET066RJCT 300500Z 32010G20KT 9999 FEW050 11/M04 Q1011 RMK 1CU050 A2988;EQDQ01+000000PRSWM2
0173474905999992000103006004+42900+143170FM-15+0084RJCT V0203101N004112200019N0112651N1+01001-00401999999ADDGA1021+015009999GF102991999999999999999999MA1101191999999MW1001REMMET079RJCT 300600Z 31008KT 9999 FEW050 10/M04 Q1012 RMK 2CU050 A2990 FCST 0615 NOSIG;EQDQ01+000000PRSWM2
0157474905999992000103007004+42900+143170FM-15+0084RJCT V0203001N004612200019N0112651N1+00901-00501999999ADDGA1021+015009999GF102991999999999999999999MA1101291999999MW1001REMMET063RJCT 300700Z 30009KT 9999 FEW050 09/M05 Q1013 RMK 2CU050 A2993;EQDQ01+000000PRSWM2
0173474905999992000103008004+42900+143170FM-15+0084RJCT V0203101N002612200019N0112651N1+00701-00301999999ADDGA1021+013509999GF102991999999999999999999MA1101391999999MW1001REMMET079RJCT 300800Z 31005KT 9999 FEW045 07/M03 Q1014 RMK 1SC045 A2996 FCST 0817 NOSIG;EQDQ01+000000PRSWM2
0158474905999992000103021004+42900+143170FM-15+0084RJCT V0201801N002612200019N0112651N1-00201-00601999999ADDGA1021+012009999GF102991999999999999999999MA1102001999999MW1001REMMET064RJCT 302100Z 18005KT 9999 FEW040 M02/M06 Q1020 RMK 1SC040 A3012;EQDQ01+000000PRSWM2
0158474905999992000103022004+42900+143170FM-15+0084RJCT V0200901N001012200019N0112651N1-00101-00501999999ADDGA1021+012009999GF102991999999999999999999MA1102001999999MW1001REMMET064RJCT 302200Z 09002KT 9999 FEW040 M01/M05 Q1020 RMK 1CU040 A3014;EQDQ01+000000PRSWM2
0173474905999992000103023004+42900+143170FM-15+0084RJCT V0200801N001012200019N0112651N1+00201-00401999999ADDGA1021+012009999GF102991999999999999999999MA1102001999999MW1001REMMET079RJCT 302300Z 08002KT 9999 FEW040 02/M04 Q1020 RMK 1CU040 A3014 FCST 2308 NOSIG;EQDQ01+000000PRSWM2
0173474905999992000103100004+42900+143170FM-15+0084RJCT V0201701N002112200019N0112651N1+00701-00301999999ADDGA1021+012009999GF102991999999999999999999MA1102101999999MW1001REMMET079RJCT 310000Z 17004KT 9999 FEW040 07/M03 Q1021 RMK 1CU040 A3015 FCST 0009 NOSIG;EQDQ01+000000PRSWM2
0157474905999992000103101004+42900+143170FM-15+0084RJCT V0201501N002112200019N0112651N1+01101-00101999999ADDGA1021+012009999GF102991999999999999999999MA1102001999999MW1001REMMET063RJCT 310100Z 15004KT 9999 FEW040 11/M01 Q1020 RMK 1CU040 A3013;EQDQ01+000000PRSWM2
0157474905999992000103102004+42900+143170FM-15+0084RJCT V0202001N001012200019N0112651N1+01401-00101999999ADDGA1021+012009999GF104991999999999999999999MA1102001999999MW1001REMMET063RJCT 310200Z 20002KT 9999 SCT040 14/M01 Q1020 RMK 4CU040 A3012;EQDQ01+000000PRSWM2
0187474905999992000103103004+42900+143170FM-15+0084RJCT V0202701N004612200019N0112651N1+01401-00201999999ADDGA1021+012009999GF102991999999999999999999MA1101901999999MW1001REMMET093RJCT 310300Z 27009KT 9999 FEW040 14/M02 Q1019 RMK 2CU040 A3011 FCST 0312 TEMPO 0612 BKN040CU;EQDQ01+000000PRSWM2
0157474905999992000103104004+42900+143170FM-15+0084RJCT V0203201N005712200019N0112651N1+01301-00101999999ADDGA1021+012009999GF102991999999999999999999MA1101901999999MW1001REMMET063RJCT 310400Z 32011KT 9999 FEW040 13/M01 Q1019 RMK 2CU040 A3011;EQDQ01+000000PRSWM2
0157474905999992000103105004+42900+143170FM-15+0084RJCT V0203101N004112200019N0112651N1+01401-00101999999ADDGA1021+012009999GF102991999999999999999999MA1101901999999MW1001REMMET063RJCT 310500Z 31008KT 9999 FEW040 14/M01 Q1019 RMK 2CU040 A3011;EQDQ01+000000PRSWM2
0177474905999992000103106004+42900+143170FM-15+0084RJCT V0202901N003112200019N0112651N1+01401-00201999999ADDGA1021+013509999GF102991999999999999999999MA1102001999999MW1001REMMET083RJCT 310600Z RTD 29006KT 9999 FEW045 14/M02 Q1020 RMK 2CU045 A3012 FCST 0615 NOSIG;EQDQ01+000000PRSWM2
0157474905999992000103107004+42900+143170FM-15+0084RJCT V0203201N002612200019N0112651N1+01301-00201999999ADDGA1021+015009999GF104991999999999999999999MA1102001999999MW1001REMMET063RJCT 310700Z 32005KT 9999 SCT050 13/M02 Q1020 RMK 3CU050 A3013;EQDQ01+000000PRSWM2
0203474905999992000103108004+42900+143170FM-15+0084RJCT V0203101N003110660019N0112651N1+01101-00101999999ADDGA1021+015009999GA2071+066009999GF107991999999999999999999MA1102001999999MW1001REMMET093RJCT 310800Z 31006KT 9999 SCT050 BKN220 11/M01 Q1020 RMK 3CU050 5CI220 A3014 FCST 0817 NOSIG;EQDQ01+000000PRSWM2
0216474905999992000103122004+42900+143170FM-15+0084RJCT V02099999999990210019N0112651N1+00301+00001999999ADDGA1021+008409999GA2071+021009999GA3081+060009999GF108991999999999999999999MA1101801999999MW1001REMMET090RJCT 312200Z VRB03KT 9999 SCT028 BKN070 OVC200 03/00 Q1018 RMK 4SC028 5AC070 8CI200 A3007;EQDQ01+000000PRSWM2
0216474905999992000103122514+42900+143170FM-16+0084RJCT V02099999999990300019N0112651N1+00501+00201999999ADDGA1021+010509999GA2021+015009999GA3071+030009999GF107991999999999999999999MA1101801999999MW1001REMMET090RJCT 312251Z VRB01KT 9999 SCT035 SCT050 BKN100 05/02 Q1018 RMK 4SC035 3SC050 7AS100 A3006;EQDQ01+000000PRSWM2
0216474905999992000103123234+42900+143170FM-16+0084RJCT V02099999999990105019N0112651N1+00501+00101999999ADDGA1071+010509999GA2021+015009999GA3081+030009999GF108991999999999999999999MA1101801999999MW1001REMMET090RJCT 312323Z VRB02KT 9999 BKN035 SCT050 OVC100 05/01 Q1018 RMK 5CU035 4SC050 8AS100 A3008;EQDQ01+000000PRSWM2
0238474905999992000103123314+42900+143170FM-16+0084RJCT V02099999999990105019N0112651N1+00601+00201999999ADDGA1071+010509999GA2021+015009999GA3081+030009999GF108991999999999999999999MA1101801999999MW1801REMMET096RJCT 312331Z VRB01KT 9999 -SHRA BKN035 SCT050 OVC100 06/02 Q1018 RMK 5CU035 4SC050 8AS100 A3008;EQDQ01+000003PRSWM1Q02    003PRSWM1
0216474905999992000110102004+42900+143170FM-15+0084RJCT V0201701N001010510019N0112651N1+00901+00601999999ADDGA1021+010509999GA2021+012009999GA3081+051009999GF108991999999999999999999MA1101801999999MW1001REMMET090RJCT 010200Z 17002KT 9999 FEW035 SCT040 OVC170 09/06 Q1018 RMK 1CU035 3CU040 8AS170 A3006;EQDQ01+000000PRSWM2
0232474905999992000110106004+42900+143170FM-15+0084RJCT V0203001N005110210019N0112651N1+01301+00201999999ADDGA1021+010509999GA2071+021009999GA3081+030009999GF108991999999999999999999MA1101591999999MW1001REMMET106RJCT 010600Z 30010KT 9999 FEW035 BKN070 OVC100 13/02 Q1016 RMK 1CU035 7AC070 8AC100 A3000 FCST 0615 NOSIG;EQDQ01+000000PRSWM2
0216474905999992000110107004+42900+143170FM-15+0084RJCT V02099999999990300019N0112651N1+01201+00101999999ADDGA1021+012009999GA2021+021009999GA3081+030009999GF108991999999999999999999MA1101591999999MW1001REMMET090RJCT 010700Z VRB03KT 9999 FEW040 SCT070 OVC100 12/01 Q1016 RMK 1SC040 3AC070 8AS100 A3000;EQDQ01+000000PRSWM2
0202474905999992000110123004+42900+143170FM-15+0084RJCT V0200101N001010090019N0112651N1+00601+00201999999ADDGA1071+009009999GA2081+027009999GF108991999999999999999999MA1102201999999MW1001REMMET092RJCT 012300Z 01002KT 9999 BKN030 OVC090 06/02 Q1022 RMK 6SC030 8AC090 A3020 FCST 2308 NOSIG;EQDQ01+000000PRSWM2
0202474905999992000110200004+42900+143170FM-15+0084RJCT V0202501N001510090019N0112651N1+00701+00001999999ADDGA1071+009009999GA2081+027009999GF108991999999999999999999MA1102301999999MW1001REMMET092RJCT 020000Z 25003KT 9999 BKN030 OVC090 07/00 Q1023 RMK 6SC030 8AC090 A3021 FCST 0009 NOSIG;EQDQ01+000000PRSWM2
0186474905999992000110201004+42900+143170FM-15+0084RJCT V0202601N001010300019N0112651N1+00701+00101999999ADDGA1021+010509999GA2081+030009999GF108991999999999999999999MA1102301999999MW1001REMMET076RJCT 020100Z 26002KT 9999 SCT035 OVC100 07/01 Q1023 RMK 4SC035 8AC100 A3022;EQDQ01+000000PRSWM2
0256474905999992000110203004+42900+143170FM-15+0084RJCT V0203601N000510300019N0112651N1+00801+00001999999ADDGA1021+010509999GA2021+024009999GA3081+030009999GF108991999999999999999999MA1102201999999MW1001REMMET130RJCT 020300Z 36001KT 9999 FEW035 SCT080 OVC100 08/M00 Q1022 RMK 2SC035 3AC080 8AC100 A3019 FCST 0312 TEMPO 0812 BKN030CU BKN100AC;EQDQ01+000000PRSWM2
0202474905999992000110206004+42900+143170FM-15+0084RJCT V0200901N002610450019N0112651N1+00801+00001999999ADDGA1021+030009999GA2081+045009999GF108991999999999999999999MA1102101999999MW1001REMMET092RJCT 020600Z 09005KT 9999 SCT100 OVC150 08/00 Q1021 RMK 3AC100 8AS150 A3017 FCST 0615 NOSIG;EQDQ01+000000PRSWM2
0186474905999992000110207004+42900+143170FM-15+0084RJCT V0200901N001510240019N0112651N1+00801+00001999999ADDGA1071+024009999GA2081+042009999GF108991999999999999999999MA1102101999999MW1001REMMET076RJCT 020700Z 09003KT 9999 BKN080 OVC140 08/00 Q1021 RMK 6AS080 8AS140 A3017;EQDQ01+000000PRSWM2
0232474905999992000110208004+42900+143170FM-15+0084RJCT V0200901N000510210019N0112651N1+00701+00101999999ADDGA1021+015009999GA2071+021009999GA3081+042009999GF108991999999999999999999MA1102201999999MW1001REMMET106RJCT 020800Z 09001KT 9999 FEW050 BKN070 OVC140 07/01 Q1022 RMK 1SC050 6AS070 8AS140 A3019 FCST 0817 NOSIG;EQDQ01+000000PRSWM2
0186474905999992000110501004+42900+143170FM-15+0084RJCT V0200301N001510051019N0112651N1+00801+00301999999ADDGA1071+005109999GA2081+010509999GF108991999999999999999999MA1101191999999MW1001REMMET076RJCT 050100Z 03003KT 9999 BKN017 OVC035 08/03 Q1012 RMK 7SC017 8SC035 A2989;EQDQ01+000000PRSWM2
0186474905999992000110502004+42900+143170FM-15+0084RJCT V0201701N000510048019N0112651N1+00901+00401999999ADDGA1071+004809999GA2081+006009999GF108991999999999999999999MA1101021999999MW1001REMMET076RJCT 050200Z 17001KT 9999 BKN016 OVC020 09/04 Q1010 RMK 7SC016 8SC020 A2984;EQDQ01+000000PRSWM2
0131474905999992000110522004+42900+143170FM-15+0084RJCT V0202901N004612200019N0112651N1+00901-00401999999ADDGF100991999999999999999999MA1101491999999MW1001REMMET053RJCT 052200Z 29009KT 9999 SKC 09/M04 Q1015 RMK A2997;EQDQ01+000000PRSWM2
0163474905999992000110523004+42900+143170FM-15+0084RJCT V0202901N004112200019N0112651N1+01001-00301999999ADDGF100991999999999999999999MA1101391999999MW1001REMMET085RJCT 052300Z 29008KT 9999 SKC 10/M03 Q1014 RMK A2997 FCST 2308 TEMPO 0004 30010G20KT;EQDQ01+000000PRSWM2
0189474905999992000110600004+42900+143170FM-15+0084RJCT V0202901N005112200019N0112651N1+01201-00201999999ADDGA1021+012009999GF102991999999999999999999MA1101391999999MW1001REMMET095RJCT 060000Z 29010KT 9999 FEW040 12/M02 Q1014 RMK 1SC040 A2996 FCST 0009 TEMPO 0004 30010G20KT;EQDQ01+000000PRSWM2
0157474905999992000110601004+42900+143170FM-15+0084RJCT V0203001N006712200019N0112651N1+01301-00201999999ADDGA1021+012009999GF102991999999999999999999MA1101391999999MW1001REMMET063RJCT 060100Z 30013KT 9999 FEW040 13/M02 Q1014 RMK 1SC040 A2996;EQDQ01+000000PRSWM2
0168474905999992000110602004+42900+143170FM-15+0084RJCT V0202801N009812200019N0112651N1+01301-00301999999ADDGA1021+012009999GF102991999999999999999999MA1101391999999MW1001OC101591REMMET066RJCT 060200Z 28019G31KT 9999 FEW040 13/M03 Q1014 RMK 1SC040 A2994;EQDQ01+000000PRSWM2
0197474905999992000110603004+42900+143170FM-15+0084RJCT V0202901N007212200019N0112651N1+01401-00401999999ADDGA1021+015009999GF102991999999999999999999MA1101291999999MW1001OC101391REMMET095RJCT 060300Z 29014G27KT 9999 FEW050 14/M04 Q1013 RMK 1SC050 A2993 FCST 0312 BECMG 0506 30010KT;EQDQ01+000000PRSWM2
0168474905999992000110604004+42900+143170FM-15+0084RJCT V0202901N008212200019N0112651N1+01501-00401999999ADDGA1021+015009999GF102991999999999999999999MA1101291999999MW1001OC101341REMMET066RJCT 060400Z 29016G26KT 9999 FEW050 15/M04 Q1013 RMK 1SC050 A2994;EQDQ01+000000PRSWM2
0157474905999992000110605004+42900+143170FM-15+0084RJCT V0203001N006712200019N0112651N1+01401-00401999999ADDGA1021+015009999GF102991999999999999999999MA1101391999999MW1001REMMET063RJCT 060500Z 30013KT 9999 FEW050 14/M04 Q1014 RMK 1SC050 A2996;EQDQ01+000000PRSWM2
0173474905999992000110606004+42900+143170FM-15+0084RJCT V0202901N005112200019N0112651N1+01401-00401999999ADDGA1021+015009999GF102991999999999999999999MA1101491999999MW1001REMMET079RJCT 060600Z 29010KT 9999 FEW050 14/M04 Q1015 RMK 1SC050 A2998 FCST 0615 NOSIG;EQDQ01+000000PRSWM2
0157474905999992000110607004+42900+143170FM-15+0084RJCT V0202901N005112200019N0112651N1+01301-00401999999ADDGA1021+015009999GF102991999999999999999999MA1101591999999MW1001REMMET063RJCT 060700Z 29010KT 9999 FEW050 13/M04 Q1016 RMK 1SC050 A3000;EQDQ01+000000PRSWM2
0173474905999992000110608004+42900+143170FM-15+0084RJCT V0201001N001012200019N0112651N1+01101-00401999999ADDGA1021+015009999GF102991999999999999999999MA1101691999999MW1001REMMET079RJCT 060800Z 10002KT 9999 FEW050 11/M04 Q1017 RMK 1SC050 A3003 FCST 0817 NOSIG;EQDQ01+000000PRSWM2
0158474905999992000110621004+42900+143170FM-15+0084RJCT V0202201N001012200019N0112651N1-00301-00601999999ADDGA1021+001509999GF102991999999999999999999MA1101591999999MW1001REMMET064RJCT 062100Z 22002KT 9999 FEW005 M03/M06 Q1016 RMK 1ST005 A3003;EQDQ01+000000PRSWM2
0158474905999992000110622004+42900+143170FM-15+0084RJCT V0202001N001012200019N0112651N1-00301-00401999999ADDGA1021+002409999GF102991999999999999999999MA1101591999999MW1001REMMET064RJCT 062200Z 20002KT 9999 FEW008 M03/M04 Q1016 RMK 1ST008 A3002;EQDQ01+000000PRSWM2
0216474905999992000110623004+42900+143170FM-15+0084RJCT V0209999C000010021019N0112651N1+00101-00201999999ADDGA1071+002109999GF107991999999999999999999MA1101491999999MW1001REMMET122RJCT 062300Z 00000KT 9999 BKN007 01/M02 Q1015 RMK 6ST007 A3000 FCST 2308 BECMG 0001 SCT007ST TEMPO 0608 BKN025CU BKN080AC;EQDQ01+000000PRSWM2
0157474905999992000110623364+42900+143170FM-16+0084RJCT V0203101N000512200019N0112651N1+00301-00101999999ADDGA1021+002109999GF102991999999999999999999MA1101491999999MW1001REMMET063RJCT 062336Z 31001KT 9999 FEW007 03/M01 Q1015 RMK 2ST007 A2998;EQDQ01+000000PRSWM2
0216474905999992000110700004+42900+143170FM-15+0084RJCT V0202501N000512200019N0112651N1+00401-00101999999ADDGA1021+001509999GF102991999999999999999999MA1101491999999MW1001REMMET122RJCT 070000Z 25001KT 9999 FEW005 04/M01 Q1015 RMK 1ST005 A2997 FCST 0009 BECMG 0506 SCT025CU BKN080AC TEMPO 0609 BKN025CU;EQDQ01+000000PRSWM2
0156474905999992000110701004+42900+143170FM-15+0084RJCT V02099999999992200019N0112651N1+00801+00201999999ADDGA1021+030009999GF102991999999999999999999MA1101291999999MW1001REMMET062RJCT 070100Z VRB01KT 9999 FEW100 08/02 Q1013 RMK 1AC100 A2993;EQDQ01+000000PRSWM2
0156474905999992000110702004+42900+143170FM-15+0084RJCT V0202601N000512200019N0112651N1+01101+00301999999ADDGA1021+030009999GF102991999999999999999999MA1101191999999MW1001REMMET062RJCT 070200Z 26001KT 9999 FEW100 11/03 Q1012 RMK 1AC100 A2990;EQDQ01+000000PRSWM2
0245474905999992000110703004+42900+143170FM-15+0084RJCT V0201301N002612200019N0112651N1+01401+00401999999ADDGA1021+036009999GA2021+066009999GF104991999999999999999999MA1101021999999MW1001REMMET135RJCT 070300Z 13005KT 9999 FEW120 SCT220 14/04 Q1010 RMK 1AC120 3CI220 A2983 FCST 0312 BECMG 0506 SCT025CU BKN100AC TEMPO 0612 BKN025CU;EQDQ01+000000PRSWM2
0191474905999992000110704004+42900+143170FM-15+0084RJCT V0200301N001512200019N0112651N1+01501+00501999999ADDGA1021+030009999GA2021+066009999GF104991999999999999999999MA1100811999999MW1001REMMET081RJCT 070400Z 03003KT 9999 FEW100 SCT220 15/05 Q1008 RMK 2AC100 3CI220 A2978 P/FR;EQDQ01+000000PRSWM2
0216474905999992000110705004+42900+143170FM-15+0084RJCT V0203001N002610660019N0112651N1+01501+00401999999ADDGA1021+010509999GA2021+036009999GA3071+066009999GF107991999999999999999999MA1100811999999MW1001REMMET090RJCT 070500Z 30005KT 9999 FEW035 SCT120 BKN220 15/04 Q1008 RMK 2SC035 3AC120 6CI220 A2979;EQDQ01+000000PRSWM2
0186474905999992000110709004+42900+143170FM-15+0084RJCT V02099999999992200019N0112651N1+01401+00401999999ADDGA1021+010509999GA2021+036009999GF104991999999999999999999MA1100311999999MW1001REMMET076RJCT 070900Z VRB02KT 9999 FEW035 SCT120 14/04 Q1003 RMK 1SC035 4AC120 A2963;EQDQ01+000000PRSWM2
0198474905999992000110722004+42900+143170FM-15+0084RJCT V0202901N006212200019N0112651N1+00101-00601999999ADDGA1021+003609999GA2021+007509999GF104991999999999999999999MA1100811999999MW1001OC101441REMMET080RJCT 072200Z 29012G28KT 9999 FEW012 SCT025 01/M06 Q1008 RMK 2ST012 3CU025 A2977;EQDQ01+000000PRSWM2
0230474905999992000110723004+42900+143170FM-15+0084RJCT V0202801N008712200019N0112651N1+00301-00901999999ADDGA1021+004509999GA2021+010509999GF104991999999999999999999MA1100811999999MW1001OC101391REMMET112RJCT 072300Z 28017G27KT 9999 FEW015 SCT035 03/M09 Q1008 RMK 2ST015 3CU035 A2979 FCST 2308 TEMPO 0206 30018G35KT;EQDQ01+000000PRSWM2
0198474905999992000110723074+42900+143170FM-16+0084RJCT V0202701N009312200019N0112651N1+00301-00901999999ADDGA1021+004509999GA2021+010509999GF104991999999999999999999MA1100811999999MW1001OC101901REMMET080RJCT 072307Z 27018G37KT 9999 FEW015 SCT035 03/M09 Q1008 RMK 2ST015 3CU035 A2979;EQDQ01+000000PRSWM2
0198474905999992000110723254+42900+143170FM-15+0084RJCT V0202801N008712200019N0112651N1+00401-00901999999ADDGA1021+006009999GA2021+010509999GF104991999999999999999999MA1100911999999MW1001OC101391REMMET080RJCT 072325Z 28017G27KT 9999 FEW020 SCT035 04/M09 Q1009 RMK 2SC020 3CU035 A2979;EQDQ01+000000PRSWM2
0198474905999992000110801004+42900+143170FM-15+0084RJCT V0202801N009812200019N0112651N1+00401-00801999999ADDGA1021+007509999GA2021+010509999GF104991999999999999999999MA1100911999999MW1001OC101701REMMET080RJCT 080100Z 28019G33KT 9999 FEW025 SCT035 04/M08 Q1009 RMK 2CU025 3CU035 A2981;EQDQ01+000000PRSWM2
0198474905999992000110801504+42900+143170FM-15+0084RJCT V0202801N010312200019N0112651N1+00501-00801999999ADDGA1021+007509999GA2021+010509999GF104991999999999999999999MA1100911999999MW1001OC101801REMMET080RJCT 080150Z 28020G35KT 9999 FEW025 SCT035 05/M08 Q1009 RMK 2SC025 3CU035 A2981;EQDQ01+000000PRSWM2
0198474905999992000110802004+42900+143170FM-15+0084RJCT V0202801N010312200019N0112651N1+00501-00801999999ADDGA1021+007509999GA2021+010509999GF104991999999999999999999MA1100911999999MW1001OC101801REMMET080RJCT 080200Z 28020G35KT 9999 FEW025 SCT035 05/M08 Q1009 RMK 2SC025 3CU035 A2980;EQDQ01+000000PRSWM2
0198474905999992000110802254+42900+143170FM-15+0084RJCT V0202801N007212200019N0112651N1+00401-00501999999ADDGA1021+007509999GA2021+010509999GF104991999999999999999999MA1100911999999MW1001OC101231REMMET080RJCT 080225Z 28014G24KT 9999 FEW025 SCT035 04/M05 Q1009 RMK 2SC025 3CU035 A2980;EQDQ01+000000PRSWM2
0168474905999992000110804004+42900+143170FM-15+0084RJCT V0202901N009312200019N0112651N1+00501-00801999999ADDGA1021+007509999GF102991999999999999999999MA1100911999999MW1001OC101801REMMET066RJCT 080400Z 29018G35KT 9999 FEW025 05/M08 Q1009 RMK 2CU025 A2981;EQDQ01+000000PRSWM2
0168474905999992000110805004+42900+143170FM-15+0084RJCT V0202901N010312200019N0112651N1+00301-00601999999ADDGA1021+007509999GF102991999999999999999999MA1101021999999MW1001OC101701REMMET066RJCT 080500Z 29020G33KT 9999 FEW025 03/M06 Q1010 RMK 2CU025 A2983;EQDQ01+000000PRSWM2
0190474905999992000110805284+42900+143170FM-16+0084RJCT V0202801N008212200019N0112651N1+00301-00501999999ADDGA1021+007509999GF102991999999999999999999MA1101021999999MW1851OC101341REMMET072RJCT 080528Z 28016G26KT 9999 -SHSN FEW025 03/M05 Q1010 RMK 2CU025 A2985;EQDQ01+000003PRSWM1Q02    003PRSWM1
0204474905999992000110806004+42900+143170FM-15+0084RJCT V0202901N007212200019N0112651N1+00201-00701999999ADDGA1021+007509999GF102991999999999999999999MA1101081999999MW1851REMMET094RJCT 080600Z 29014KT 9999 -SHSN FEW025 02/M07 Q1011 RMK 2CU025 A2986 FCST 0615 BECMG 0708 NSW;EQDQ01+000003PRSWM1Q02    003PRSWM1
0179474905999992000110807004+42900+143170FM-15+0084RJCT V0203001N005112200019N0112651N1+00001-00401999999ADDGA1021+007509999GF102991999999999999999999MA1101081999999MW1851REMMET069RJCT 080700Z 30010KT 9999 -SHSN FEW025 00/M04 Q1011 RMK 1CU025 A2988;EQDQ01+000003PRSWM1Q02    003PRSWM1
0173474905999992000110808004+42900+143170FM-15+0084RJCT V0203001N004612200019N0112651N1+00001-00501999999ADDGA1021+007509999GF102991999999999999999999MA1101191999999MW1001REMMET079RJCT 080800Z 30009KT 9999 FEW025 00/M05 Q1012 RMK 2CU025 A2991 FCST 0817 NOSIG;EQDQ01+000000PRSWM2
0158474905999992000110822004+42900+143170FM-15+0084RJCT V0203001N003612200019N0112651N1+00001-00701999999ADDGA1021+009009999GF102991999999999999999999MA1101901999999MW1001REMMET064RJCT 082200Z 30007KT 9999 FEW030 M00/M07 Q1019 RMK 1SC030 A3009;EQDQ01+000000PRSWM2
0219474905999992000110823004+42900+143170FM-15+0084RJCT V0202701N002110630019N0112651N1+00101-00601999999ADDGA1021+009009999GA2071+063009999GF107991999999999999999999MA1101901999999MW1001REMMET109RJCT 082300Z 27004KT 9999 FEW030 BKN210 01/M06 Q1019 RMK 1CU030 5CI210 A3010 FCST 2308 TEMPO 0006 27010G20KT;EQDQ01+000000PRSWM2
0219474905999992000110900004+42900+143170FM-15+0084RJCT V0200401N001010630019N0112651N1+00301-00501999999ADDGA1021+009009999GA2071+063009999GF107991999999999999999999MA1101901999999MW1001REMMET109RJCT 090000Z 04002KT 9999 FEW030 BKN210 03/M05 Q1019 RMK 1CU030 5CI210 A3010 FCST 0009 TEMPO 0106 27010G20KT;EQDQ01+000000PRSWM2
0187474905999992000110901004+42900+143170FM-15+0084RJCT V0203401N000512200019N0112651N1+00501-00501999999ADDGA1021+009009999GA2021+063009999GF104991999999999999999999MA1102001999999MW1001REMMET077RJCT 090100Z 34001KT 9999 FEW030 SCT210 05/M05 Q1020 RMK 2CU030 4CI210 A3012;EQDQ01+000000PRSWM2
0187474905999992000110902004+42900+143170FM-15+0084RJCT V0202801N004112200019N0112651N1+00601-00701999999ADDGA1021+006009999GA2021+009009999GF104991999999999999999999MA1101801999999MW1001REMMET077RJCT 090200Z 28008KT 9999 FEW020 SCT030 06/M07 Q1018 RMK 1CU020 3CU030 A3008;EQDQ01+000000PRSWM2
0219474905999992000110903004+42900+143170FM-15+0084RJCT V0202701N004612200019N0112651N1+00701-00801999999ADDGA1021+006009999GA2021+009009999GF104991999999999999999999MA1101801999999MW1001REMMET109RJCT 090300Z 27009KT 9999 FEW020 SCT030 07/M08 Q1018 RMK 1CU020 3CU030 A3008 FCST 0312 TEMPO 0306 28010G20KT;EQDQ01+000000PRSWM2
0217474905999992000110904004+42900+143170FM-15+0084RJCT V0202901N005710540019N0112651N1+00601-00901999999ADDGA1021+009009999GA2021+012009999GA3071+054009999GF107991999999999999999999MA1101801999999MW1001REMMET091RJCT 090400Z 29011KT 9999 FEW030 SCT040 BKN180 06/M09 Q1018 RMK 1CU030 3CU040 6CI180 A3008;EQDQ01+000000PRSWM2
0203474905999992000110906004+42900+143170FM-15+0084RJCT V0202801N003610540019N0112651N1+00501-00901999999ADDGA1021+010509999GA2071+054009999GF107991999999999999999999MA1101801999999MW1001REMMET093RJCT 090600Z 28007KT 9999 FEW035 BKN180 05/M09 Q1018 RMK 1CU035 6CI180 A3006 FCST 0615 NOSIG;EQDQ01+000000PRSWM2
0187474905999992000110907004+42900+143170FM-15+0084RJCT V0202901N001010540019N0112651N1+00301-00801999999ADDGA1021+010509999GA2071+054009999GF107991999999999999999999MA1101801999999MW1001REMMET077RJCT 090700Z 29002KT 9999 FEW035 BKN180 03/M08 Q1018 RMK 1SC035 5CI180 A3007;EQDQ01+000000PRSWM2
0203474905999992000110908004+42900+143170FM-15+0084RJCT V0200601N001012200019N0112651N1+00001-00801999999ADDGA1021+010509999GA2021+054009999GF104991999999999999999999MA1101801999999MW1001REMMET093RJCT 090800Z 06002KT 9999 FEW035 SCT180 00/M08 Q1018 RMK 1SC035 4CI180 A3008 FCST 0817 NOSIG;EQDQ01+000000PRSWM2
0198474905999992000110922004+42900+143170FM-15+0084RJCT V0203201N003610600019N0112651N1+00201-00601999999ADDGA1021+009009999GA2071+060009999GF107991999999999999999999MA1101901999999MW1001OC100931REMMET080RJCT 092200Z 32007G18KT 9999 FEW030 BKN200 02/M06 Q1019 RMK 1SC030 7CI200 A3009;EQDQ01+000000PRSWM2
0203474905999992000110923004+42900+143170FM-15+0084RJCT V0203101N002612200019N0112651N1+00401-00501999999ADDGA1021+007509999GA2021+060009999GF104991999999999999999999MA1101901999999MW1001REMMET093RJCT 092300Z 31005KT 9999 FEW025 SCT200 04/M05 Q1019 RMK 1CU025 3CI200 A3009 FCST 2308 NOSIG;EQDQ01+000000PRSWM2
0071474905999992000110923484+42900+143170FM-16+0084RJCT V0203101N005712200019N0090001N1+99999+99999999999ADDMW1001OC101081REMMET026RJCT 092348Z 31011G21KT 9;EQDQ01+000000PRSWM2
0189474905999992000111000004+42900+143170FM-15+0084RJCT V0203101N005712200019N0112651N1+00501-00601999999ADDGA1021+007509999GF102991999999999999999999MA1101801999999MW1001REMMET095RJCT 100000Z 31011KT 9999 FEW025 05/M06 Q1018 RMK 1CU025 A3008 FCST 0009 TEMPO 0004 30012G22KT;EQDQ01+000000PRSWM2
0157474905999992000111001004+42900+143170FM-15+0084RJCT V0203101N006212200019N0112651N1+00501-00401999999ADDGA1021+009009999GF102991999999999999999999MA1101801999999MW1001REMMET063RJCT 100100Z 31012KT 9999 FEW030 05/M04 Q1018 RMK 1CU030 A3007;EQDQ01+000000PRSWM2
0157474905999992000111002004+42900+143170FM-15+0084RJCT V0203101N006712200019N0112651N1+00501-00601999999ADDGA1021+010509999GF102991999999999999999999MA1101691999999MW1001REMMET063RJCT 100200Z 31013KT 9999 FEW035 05/M06 Q1017 RMK 1CU035 A3006;EQDQ01+000000PRSWM2
0168474905999992000111002094+42900+143170FM-16+0084RJCT V0203101N007712200019N0112651N1+00601-00601999999ADDGA1021+010509999GF102991999999999999999999MA1101691999999MW1001OC101291REMMET066RJCT 100209Z 31015G25KT 9999 FEW035 06/M06 Q1017 RMK 1CU035 A3005;EQDQ01+000000PRSWM2
0157474905999992000111004004+42900+143170FM-15+0084RJCT V0203101N005712200019N0112651N1+00601-00701999999ADDGA1021+010509999GF102991999999999999999999MA1101591999999MW1001REMMET063RJCT 100400Z 31011KT 9999 FEW035 06/M07 Q1016 RMK 1CU035 A3003;EQDQ01+000000PRSWM2
0168474905999992000111004204+42900+143170FM-15+0084RJCT V0203101N005712200019N0112651N1+00601-00701999999ADDGA1021+010509999GF102991999999999999999999MA1101691999999MW1001OC101231REMMET066RJCT 100420Z 31011G24KT 9999 FEW035 06/M07 Q1017 RMK 1CU035 A3003;EQDQ01+000000PRSWM2
0198474905999992000111005004+42900+143170FM-15+0084RJCT V0203301N006212200019N0112651N1+00501-00701999999ADDGA1021+010509999GA2021+063009999GF104991999999999999999999MA1101691999999MW1001OC101181REMMET080RJCT 100500Z 33012G23KT 9999 FEW035 SCT210 05/M07 Q1017 RMK 1CU035 3CI210 A3003;EQDQ01+000000PRSWM2
0227474905999992000111006004+42900+143170FM-15+0084RJCT V0203301N005712200019N0112651N1+00401-00701999999ADDGA1021+010509999GA2021+054009999GF104991999999999999999999MA1101691999999MW1001OC101081REMMET109RJCT 100600Z 33011G21KT 9999 FEW035 SCT180 04/M07 Q1017 RMK 1CU035 3CI180 A3003 FCST 0615 BECMG 0607 30012KT;EQDQ01+000000PRSWM2
0187474905999992000111007004+42900+143170FM-15+0084RJCT V0203301N002612200019N0112651N1+00301-00701999999ADDGA1021+010509999GA2021+054009999GF104991999999999999999999MA1101691999999MW1001REMMET077RJCT 100700Z 33005KT 9999 FEW035 SCT180 03/M07 Q1017 RMK 1CU035 3CI180 A3004;EQDQ01+000000PRSWM2
0214474905999992000111008004+42900+143170FM-15+0084RJCT V0203101N006712200019N0112651N1+00201-00701999999ADDGA1021+010509999GA2021+054009999GF104991999999999999999999MA1101691999999MW1001OC101291REMMET096RJCT 100800Z 31013G25KT 9999 FEW035 SCT180 02/M07 Q1017 RMK 1CU035 3CI180 A3003 FCST 0817 NOSIG;EQDQ01+000000PRSWM2
0218474905999992000111022454+42900+143170FM-15+0084RJCT V0202901N001010330019N0112651N1-00101-00501999999ADDGA1021+010509999GA2021+024009999GA3071+033009999GF107991999999999999999999MA1101391999999MW1001REMMET092RJCT 102245Z 29002KT 9999 FEW035 SCT080 BKN110 M01/M05 Q1014 RMK 1SC035 3AC080 6AC110 A2995;EQDQ01+000000PRSWM2
0203474905999992000111100004+42900+143170FM-15+0084RJCT V0203301N001512200019N0112651N1+00301-00501999999ADDGA1021+009009999GA2021+030009999GF104991999999999999999999MA1101391999999MW1001REMMET093RJCT 110000Z 33003KT 9999 FEW030 SCT100 03/M05 Q1014 RMK 1SC030 4AC100 A2994 FCST 0009 NOSIG;EQDQ01+000000PRSWM2
0157474905999992000111101004+42900+143170FM-15+0084RJCT V0203001N005112200019N0112651N1+00401-00501999999ADDGA1021+009009999GF102991999999999999999999MA1101391999999MW1001REMMET063RJCT 110100Z 30010KT 9999 FEW030 04/M05 Q1014 RMK 1CU030 A2994;EQDQ01+000000PRSWM2
0157474905999992000111102004+42900+143170FM-15+0084RJCT V0203101N005712200019N0112651N1+00501-00401999999ADDGA1021+009009999GF102991999999999999999999MA1101291999999MW1001REMMET063RJCT 110200Z 31011KT 9999 FEW030 05/M04 Q1013 RMK 1CU030 A2994;EQDQ01+000000PRSWM2
0113474905999992000111205004+42900+143170FM-15+0084RJCT V02099999999992200019N0112651N1+99999+99999999999ADDMW1001REMMET076RJCT 12500Z 15005KT 9999 FEW038 SCT150 08/M05 Q1015 RMK 2CU038 3AC150 A3000;EQDQ01+000000PRSWM2
0217474905999992000111206004+42900+143170FM-15+0084RJCT V0200901N001010450019N0112651N1+00701-00401999999ADDGA1021+009009999GA2021+012009999GA3071+045009999GF107991999999999999999999MA1101491999999MW1001REMMET091RJCT 120600Z 09002KT 9999 FEW030 SCT040 BKN150 07/M04 Q1015 RMK 1CU030 3CU040 5AC150 A2997;EQDQ01+000000PRSWM2
0157474905999992000111221004+42900+143170FM-15+0084RJCT V0203301N004612200019N0112651N1+00301-00201999999ADDGA1021+007509999GF104991999999999999999999MA1101491999999MW1001REMMET063RJCT 122100Z 33009KT 9999 SCT025 03/M02 Q1015 RMK 3CU025 A2997;EQDQ01+000000PRSWM2
0168474905999992000111222004+42900+143170FM-15+0084RJCT V0203101N005712200019N0112651N1+00301-00301999999ADDGA1021+009009999GF102991999999999999999999MA1101591999999MW1001OC101081REMMET066RJCT 122200Z 31011G21KT 9999 FEW030 03/M03 Q1016 RMK 1CU030 A3000;EQDQ01+000000PRSWM2
0197474905999992000111223004+42900+143170FM-15+0084RJCT V0202901N007712200019N0112651N1+00401-00401999999ADDGA1021+010509999GF102991999999999999999999MA1101591999999MW1001OC101291REMMET095RJCT 122300Z 29015G25KT 9999 FEW035 04/M04 Q1016 RMK 1CU035 A3002 FCST 2308 BECMG 0506 29010KT;EQDQ01+000000PRSWM2
0198474905999992000111301004+42900+143170FM-15+0084RJCT V0203101N005712200019N0112651N1+00501-00401999999ADDGA1021+009009999GA2021+012009999GF104991999999999999999999MA1101691999999MW1001OC101131REMMET080RJCT 130100Z 31011G22KT 9999 FEW030 SCT040 05/M04 Q1017 RMK 1CU030 3CU040 A3006;EQDQ01+000000PRSWM2
0168474905999992000111302004+42900+143170FM-15+0084RJCT V0203101N005112200019N0112651N1+00501-00301999999ADDGA1021+009009999GF102991999999999999999999MA1101801999999MW1001OC101031REMMET066RJCT 130200Z 31010G20KT 9999 FEW030 05/M03 Q1018 RMK 2CU030 A3008;EQDQ01+000000PRSWM2
0197474905999992000111303004+42900+143170FM-15+0084RJCT V0203101N007212200019N0112651N1+00601-00601999999ADDGA1021+009009999GF102991999999999999999999MA1101901999999MW1001OC101391REMMET095RJCT 130300Z 31014G27KT 9999 FEW030 06/M06 Q1019 RMK 2CU030 A3009 FCST 0312 BECMG 0506 29010KT;EQDQ01+000000PRSWM2
0168474905999992000111304004+42900+143170FM-15+0084RJCT V0203001N007212200019N0112651N1+00601-00501999999ADDGA1021+009009999GF104991999999999999999999MA1101901999999MW1001OC101231REMMET066RJCT 130400Z 30014G24KT 9999 SCT030 06/M05 Q1019 RMK 3CU030 A3010;EQDQ01+000000PRSWM2
0168474905999992000111305004+42900+143170FM-15+0084RJCT V0203101N005112200019N0112651N1+00601-00701999999ADDGA1021+009009999GF104991999999999999999999MA1102001999999MW1001OC101081REMMET066RJCT 130500Z 31010G21KT 9999 SCT030 06/M07 Q1020 RMK 3CU030 A3013;EQDQ01+000000PRSWM2
0157474905999992000111307004+42900+143170FM-15+0084RJCT V0203101N006712200019N0112651N1+00401-00601999999ADDGA1021+009009999GF104991999999999999999999MA1102201999999MW1001REMMET063RJCT 130700Z 31013KT 9999 SCT030 04/M06 Q1022 RMK 3CU030 A3018;EQDQ01+000000PRSWM2
0173474905999992000111308004+42900+143170FM-15+0084RJCT V0202901N005112200019N0112651N1+00301-00701999999ADDGA1021+009009999GF102991999999999999999999MA1102201999999MW1001REMMET079RJCT 130800Z 29010KT 9999 FEW030 03/M07 Q1022 RMK 2SC030 A3019 FCST 0817 NOSIG;EQDQ01+000000PRSWM2
0157474905999992000111309004+42900+143170FM-15+0084RJCT V0203201N002612200019N0112651N1+00301-00701999999ADDGA1021+009009999GF102991999999999999999999MA1102301999999MW1001REMMET063RJCT 130900Z 32005KT 9999 FEW030 03/M07 Q1023 RMK 2SC030 A3023;EQDQ01+000000PRSWM2
0158474905999992000111322004+42900+143170FM-15+0084RJCT V0201801N001012200019N0112651N1-00701-00901999999ADDGA1021+009009999GF102991999999999999999999MA1102911999999MW1001REMMET064RJCT 132200Z 18002KT 9999 FEW030 M07/M09 Q1029 RMK 2SC030 A3039;EQDQ01+000000PRSWM2
0197474905999992000111323004+42900+143170FM-15+0084RJCT V0202601N000512200019N0112651N1-00101-00701999999ADDGA1021+009009999GF102991999999999999999999MA1102911999999MW1001REMMET103RJCT 132300Z 26001KT 9999 FEW030 M01/M07 Q1029 RMK 1SC030 A3040 FCST 2308 BECMG 0608 BKN030CU BKN080AC;EQDQ01+000000PRSWM2
0187474905999992000111401004+42900+143170FM-15+0084RJCT V0200501N001012200019N0112651N1+00501-00601999999ADDGA1021+009009999GA2021+039009999GF104991999999999999999999MA1102811999999MW1001REMMET077RJCT 140100Z 05002KT 9999 FEW030 SCT130 05/M06 Q1028 RMK 1SC030 3AC130 A3038;EQDQ01+000000PRSWM2
0157474905999992000111402004+42900+143170FM-15+0084RJCT V0201601N001012200019N0112651N1+00701-00501999999ADDGA1021+013509999GF102991999999999999999999MA1102811999999MW1001REMMET063RJCT 140200Z 16002KT 9999 FEW045 07/M05 Q1028 RMK 1SC045 A3036;EQDQ01+000000PRSWM2
0226474905999992000111403004+42900+143170FM-15+0084RJCT V02099999999992200019N0112651N1+00701-00501999999ADDGA1021+013509999GA2021+039009999GF104991999999999999999999MA1102711999999MW1001REMMET116RJCT 140300Z VRB01KT 9999 FEW045 SCT130 07/M05 Q1027 RMK 1SC045 3AC130 A3034 FCST 0312 BECMG 0608 BKN030CU BKN080AC;EQDQ01+000000PRSWM2
0187474905999992000111404004+42900+143170FM-15+0084RJCT V02099999999990300019N0112651N1+00901-00401999999ADDGA1021+013509999GA2071+030009999GF107991999999999999999999MA1102611999999MW1001REMMET077RJCT 140400Z VRB03KT 9999 FEW045 BKN100 09/M04 Q1026 RMK 1SC045 6AC100 A3031;EQDQ01+000000PRSWM2
0187474905999992000111405004+42900+143170FM-15+0084RJCT V0202701N001510270019N0112651N1+00701-00401999999ADDGA1021+013509999GA2071+027009999GF107991999999999999999999MA1102611999999MW1001REMMET077RJCT 140500Z 27003KT 9999 FEW045 BKN090 07/M04 Q1026 RMK 1SC045 6AC090 A3029;EQDQ01+000000PRSWM2
0250474905999992000111406004+42900+143170FM-15+0084RJCT V02099999999990180019N9999999N1+00601-00301999999ADDGA1071+018009999GA2071+024009999GF107991999999999999999999MA1102611999999MW1001REMMET124RJCT 140600Z 88WOPO/3EW025 BKN060 BKN080 06/M03 Q1026 RMK 1SC025 5SC060 6AC080 A3029 FCST 0615 BECMG 0608 BKN030CU BKN080AC;EQDQ01+030002VODIS Q02+000000PRSWM2
0217474905999992000111407004+42900+143170FM-15+0084RJCT V0202501N000510150019N0112651N1+00501-00201999999ADDGA1021+006009999GA2071+015009999GA3071+021009999GF107991999999999999999999MA1102611999999MW1001REMMET091RJCT 140700Z 25001KT 9999 FEW020 BKN050 BKN070 05/M02 Q1026 RMK 1SC020 5SC050 6AC070 A3029;EQDQ01+000000PRSWM2
0264474905999992000111408004+42900+143170FM-15+0084RJCT V0202801N000510120019N0112651N1+00501-00301999999ADDGA1021+006009999GA2071+012009999GA3071+021009999GF107991999999999999999999MA1102611999999MW1801REMMET122RJCT 140800Z 28001KT 9999 -SHRA SCT020 BKN040 BKN070 05/M03 Q1026 RMK 3SC020 5SC040 7AC070 A3030 FCST 0817 BECMG 0810 NSW;EQDQ01+000003PRSWM1Q02    003PRSWM1
0187474905999992000111408214+42900+143170FM-16+0084RJCT V02099999999992200019N0112651N1+00301-00201999999ADDGA1021+006009999GA2021+018009999GF104991999999999999999999MA1102511999999MW1001REMMET077RJCT 140821Z VRB02KT 9999 FEW020 SCT060 03/M02 Q1025 RMK 1SC020 4SC060 A3027;EQDQ01+000000PRSWM2
0217474905999992000111422004+42900+143170FM-15+0084RJCT V0202201N000510120019N0112651N1+00101-00101999999ADDGA1021+007509999GA2071+012009999GA3071+063009999GF107991999999999999999999MA1101691999999MW1001REMMET091RJCT 142200Z 22001KT 9999 FEW025 BKN040 BKN210 01/M01 Q1017 RMK 1SC025 6SC040 6CI210 A3006;EQDQ01+000000PRSWM2
0219474905999992000111423004+42900+143170FM-15+0084RJCT V02099999999992200019N0112651N1+00201-00101999999ADDGA1021+007509999GA2021+048009999GF104991999999999999999999MA1101691999999MW1001REMMET109RJCT 142300Z VRB02KT 9999 FEW025 SCT160 02/M01 Q1017 RMK 1SC025 3AC160 A3005 FCST 2308 TEMPO 0006 27015G25KT;EQDQ01+000000PRSWM2
0188474905999992000111500004+42900+143170FM-15+0084RJCT V02099999999992200019N0112651N1+00601+00101999999ADDGA1021+012009999GF102991999999999999999999MA1101691999999MW1001REMMET094RJCT 150000Z VRB02KT 9999 FEW040 06/01 Q1017 RMK 1SC040 A3003 FCST 0009 TEMPO 0006 27015G25KT;EQDQ01+000000PRSWM2
0186474905999992000111501004+42900+143170FM-15+0084RJCT V0201501N001512200019N0112651N1+01001+00201999999ADDGA1021+012009999GA2021+063009999GF104991999999999999999999MA1101591999999MW1001REMMET076RJCT 150100Z 15003KT 9999 FEW040 SCT210 10/02 Q1016 RMK 1CU040 3CI210 A3000;EQDQ01+000000PRSWM2
0195474905999992000111502004+42900+143170FM-15+0084RJCT V0203101N002612200019N0112651N1+01301+00001999999ADDGA1021+012009999GA2021+063009999GF104991999999999999999999MA1101391999999MW1001REMMET085RJCT 150200Z 31005KT 260V010 9999 FEW040 SCT210 13/M00 Q1014 RMK 1CU040 3CI210 A2997;EQDQ01+000000PRSWM2
0164474905999992000111502154+42900+143170FM-16+0084RJCT V0202901N006212200019N0112651N1+01301-00101999999ADDGA1021+012009999GF102991999999999999999999MA1101391999999MW1001OC101131REMMET062RJCT 150215Z 29012G22KT 9999 FEW040 13/M01 Q1014 RMK 1C88PXOU;EQDQ01+000000PRSWM2
0214474905999992000111503004+42900+143170FM-15+0084RJCT V0202901N005712200019N0112651N1+01301-00101999999ADDGA1021+012009999GA2021+063009999GF104991999999999999999999MA1101291999999MW1001OC101131REMMET096RJCT 150300Z 29011G22KT 9999 FEW040 SCT210 13/M01 Q1013 RMK 1CU040 3CI210 A2993 FCST 0312 NOSIG;EQDQ01+000000PRSWM2
0198474905999992000111504004+42900+143170FM-15+0084RJCT V0202701N007710630019N0112651N1+01301-00201999999ADDGA1021+010509999GA2071+063009999GF107991999999999999999999MA1101291999999MW1001OC101291REMMET080RJCT 150400Z 27015G25KT 9999 FEW035 BKN210 13/M02 Q1013 RMK 2CU035 5CI210 A2992;EQDQ01+000000PRSWM2
0197474905999992000111505004+42900+143170FM-15+0084RJCT V0203201N006212200019N0112651N1+01001+00101999999ADDGA1021+010509999GA2021+012009999GF104991999999999999999999MA1101291999999MW1001OC101181REMMET079RJCT 150500Z 32012G23KT 9999 FEW035 SCT040 10/01 Q1013 RMK 1CU035 3CU040 A2992;EQDQ01+000000PRSWM2
0214474905999992000111506004+42900+143170FM-15+0084RJCT V0203001N006712200019N0112651N1+00901+00001999999ADDGA1021+010509999GA2021+012009999GF104991999999999999999999MA1101291999999MW1001OC101181REMMET096RJCT 150600Z 30013G23KT 9999 FEW035 SCT040 09/M00 Q1013 RMK 1CU035 3CU040 A2992 FCST 0615 NOSIG;EQDQ01+000000PRSWM2
0220474905999992000111506404+42900+143170FM-16+0084RJCT V0203001N007712200019N0112651N1+00801-00101999999ADDGA1021+009009999GA2021+012009999GF104991999999999999999999MA1101391999999MW1801OC101291REMMET086RJCT 150640Z 30015G25KT 9999 -SHRA FEW030 SCT040 08/M01 Q1014 RMK 1CU030 3CU040 A2994;EQDQ01+000003PRSWM1Q02    003PRSWM1
0173474905999992000111508004+42900+143170FM-15+0084RJCT V0202901N006712200019N0112651N1+00701-00401999999ADDGA1021+007509999GF102991999999999999999999MA1101391999999MW1001REMMET079RJCT 150800Z 29013KT 9999 FEW025 07/M04 Q1014 RMK 2SC025 A2995 FCST 0817 NOSIG;EQDQ01+000000PRSWM2
0188474905999992000111522004+42900+143170FM-15+0084RJCT V0203101N004610105019N0112651N1-00101-00801999999ADDGA1021+004509999GA2071+010509999GF107991999999999999999999MA1102511999999MW1001REMMET078RJCT 152200Z 31009KT 9999 FEW015 BKN035 M01/M08 Q1025 RMK 2ST015 5CU035 A3026;EQDQ01+000000PRSWM2
0199474905999992000111522434+42900+143170FM-16+0084RJCT V0203201N005712200019N0112651N1+00001-00701999999ADDGA1021+004509999GA2021+010509999GF104991999999999999999999MA1102511999999MW1001OC101181REMMET081RJCT 152243Z 32011G23KT 9999 FEW015 SCT035 M00/M07 Q1025 RMK 2ST015 3CU035 A3028;EQDQ01+000000PRSWM2
0228474905999992000111523004+42900+143170FM-15+0084RJCT V0203301N006712200019N0112651N1+00001-00701999999ADDGA1021+004509999GA2021+009009999GF104991999999999999999999MA1102511999999MW1001OC101181REMMET110RJCT 152300Z 33013G23KT 9999 FEW015 SCT030 M00/M07 Q1025 RMK 1ST015 3CU030 A3028 FCST 2308 BECMG 0608 34010KT;EQDQ01+000000PRSWM2
0168474905999992000111601004+42900+143170FM-15+0084RJCT V0203101N007712200019N0112651N1+00101-00801999999ADDGA1021+009009999GF104991999999999999999999MA1102611999999MW1001OC101391REMMET066RJCT 160100Z 31015G27KT 9999 SCT030 01/M08 Q1026 RMK 3CU030 A3030;EQDQ01+000000PRSWM2
0168474905999992000111602004+42900+143170FM-15+0084RJCT V0203101N007712200019N0112651N1+00101-01001999999ADDGA1021+009009999GF102991999999999999999999MA1102611999999MW1001OC101391REMMET066RJCT 160200Z 31015G27KT 9999 FEW030 01/M10 Q1026 RMK 2CU030 A3030;EQDQ01+000000PRSWM2
0168474905999992000111604004+42900+143170FM-15+0084RJCT V0203301N007212200019N0112651N1+00201-01001999999ADDGA1021+009009999GF102991999999999999999999MA1102511999999MW1001OC101341REMMET066RJCT 160400Z 33014G26KT 9999 FEW030 02/M10 Q1025 RMK 1CU030 A3029;EQDQ01+000000PRSWM2
0187474905999992000111607004+42900+143170FM-15+0084RJCT V0203201N003612200019N0112651N1+00001-01001999999ADDGA1021+012009999GA2021+072009999GF104991999999999999999999MA1102611999999MW1001REMMET077RJCT 160700Z 32007KT 9999 FEW040 SCT240 00/M10 Q1026 RMK 1SC040 3CI240 A3032;EQDQ01+000000PRSWM2
0158474905999992000111622004+42900+143170FM-15+0084RJCT V0203501N001012200019N0112651N1-00701-01001999999ADDGA1021+009009999GF102991999999999999999999MA1102511999999MW1001REMMET064RJCT 162200Z 35002KT 9999 FEW030 M07/M10 Q1025 RMK 1SC030 A3026;EQDQ01+000000PRSWM2
0174474905999992000111623004+42900+143170FM-15+0084RJCT V0203501N001512200019N0112651N1-00401-00901999999ADDGA1021+009009999GF102991999999999999999999MA1102511999999MW1001REMMET080RJCT 162300Z 35003KT 9999 FEW030 M04/M09 Q1025 RMK 1SC030 A3026 FCST 2308 NOSIG;EQDQ01+000000PRSWM2
0174474905999992000111700004+42900+143170FM-15+0084RJCT V0200501N001012200019N0112651N1-00101-00801999999ADDGA1021+009009999GF102991999999999999999999MA1102401999999MW1001REMMET080RJCT 170000Z 05002KT 9999 FEW030 M01/M08 Q1024 RMK 1SC030 A3025 FCST 0009 NOSIG;EQDQ01+000000PRSWM2
0157474905999992000111701004+42900+143170FM-15+0084RJCT V02099999999992200019N0112651N1+00101-00701999999ADDGA1021+009009999GF102991999999999999999999MA1102401999999MW1001REMMET063RJCT 170100Z VRB02KT 9999 FEW030 01/M07 Q1024 RMK 1SC030 A3025;EQDQ01+000000PRSWM2
0157474905999992000111702004+42900+143170FM-15+0084RJCT V0200401N001012200019N0112651N1+00301-00701999999ADDGA1021+009009999GF102991999999999999999999MA1102201999999MW1001REMMET063RJCT 170200Z 04002KT 9999 FEW030 03/M07 Q1022 RMK 1CU030 A3020;EQDQ01+000000PRSWM2
0196474905999992000111703004+42900+143170FM-15+0084RJCT V0203101N000512200019N0112651N1+00401-00701999999ADDGA1021+009009999GF102991999999999999999999MA1102101999999MW1001REMMET102RJCT 170300Z 31001KT 9999 FEW030 04/M07 Q1021 RMK 1CU030 A3016 FCST 0312 BECMG 0608 BKN030SC BKN080AC;EQDQ01+000000PRSWM2
0157474905999992000111704004+42900+143170FM-15+0084RJCT V0201401N002112200019N0112651N1+00401-00601999999ADDGA1021+018009999GF102991999999999999999999MA1102001999999MW1001REMMET063RJCT 170400Z 14004KT 9999 FEW060 04/M06 Q1020 RMK 2SC060 A3014;EQDQ01+000000PRSWM2
0157474905999992000111705004+42900+143170FM-15+0084RJCT V0201701N003112200019N0112651N1+00401-00601999999ADDGA1021+018009999GF102991999999999999999999MA1101901999999MW1001REMMET063RJCT 170500Z 17006KT 9999 FEW060 04/M06 Q1019 RMK 2SC060 A3011;EQDQ01+000000PRSWM2
0173474905999992000111706004+42900+143170FM-15+0084RJCT V0201801N002610180019N0112651N1+00301-00601999999ADDGA1071+018009999GF107991999999999999999999MA1101901999999MW1001REMMET079RJCT 170600Z 18005KT 9999 BKN060 03/M06 Q1019 RMK 6SC060 A3011 FCST 0615 NOSIG;EQDQ01+000000PRSWM2
0187474905999992000111707004+42900+143170FM-15+0084RJCT V0202301N001510180019N0112651N1+00201-00601999999ADDGA1071+018009999GA2071+024009999GF107991999999999999999999MA1101901999999MW1001REMMET077RJCT 170700Z 23003KT 9999 BKN060 BKN080 02/M06 Q1019 RMK 6SC060 6AC080 A3011;EQDQ01+000000PRSWM2
0214474905999992000111708004+42900+143170FM-15+0084RJCT V0202301N001510150019N0112651N1+00101-00501999999ADDGA1071+015009999GA2071+024009999GF107991999999999999999999MA1101901999999MW1001REMMET104RJCT 170800Z 23003KT 9999 BKN050 BKN080 01/M05 Q1019 RMK 6SC050 7AC080 A3010 FCST 0817 TEMPO 1517 -SHSN;EQDQ01+000000PRSWM2
0158474905999992000111822004+42900+143170FM-15+0084RJCT V0203101N003112200019N0112651N1-00301-00701999999ADDGA1021+006009999GF102991999999999999999999MA1102101999999MW1001REMMET064RJCT 182200Z 31006KT 9999 FEW020 M03/M07 Q1021 RMK 2CU020 A3017;EQDQ01+000000PRSWM2
0158474905999992000111900004+42900+143170FM-15+0084RJCT V0203101N006212200019N0112651N1-00101-00901999999ADDGA1021+006009999GF102991999999999999999999MA1102301999999MW1001REMMET064RJCT 190000Z 31012KT 9999 FEW020 M01/M09 Q1023 RMK 2CU020 A3022;EQDQ01+000000PRSWM2
0157474905999992000111902004+42900+143170FM-15+0084RJCT V0203001N006212200019N0112651N1+00001-01001999999ADDGA1021+007509999GF102991999999999999999999MA1102301999999MW1001REMMET063RJCT 190200Z 30012KT 9999 FEW025 00/M10 Q1023 RMK 2CU025 A3023;EQDQ01+000000PRSWM2
0157474905999992000111904004+42900+143170FM-15+0084RJCT V0203001N005112200019N0112651N1+00001-01001999999ADDGA1021+007509999GF104991999999999999999999MA1102301999999MW1001REMMET063RJCT 190400Z 30010KT 9999 SCT025 00/M10 Q1023 RMK 3CU025 A3023;EQDQ01+000000PRSWM2
0161474905999992000111905004+42900+143170FM-15+0084RJCT V0203101N005112200019N0112651N1+00101-01001999999ADDGA1021+007509999GF104991999999999999999999MA1102401999999MW1001REMMET067RJCT 190500Z COR 31010KT 9999 SCT025 01/M10 Q1024 RMK 3CU025 A3024;EQDQ01+000000PRSWM2
0188474905999992000111907004+42900+143170FM-15+0084RJCT V0203001N004612200019N0112651N1-00101-01101999999ADDGA1021+006009999GA2021+012009999GF104991999999999999999999MA1102511999999MW1001REMMET078RJCT 190700Z 30009KT 9999 FEW020 SCT040 M01/M11 Q1025 RMK 2CU020 4CU040 A3028;EQDQ01+000000PRSWM2
0188474905999992000111922004+42900+143170FM-15+0084RJCT V0201701N001510510019N0112651N1-00801-01201999999ADDGA1021+021009999GA2071+051009999GF107991999999999999999999MA1102711999999MW1001REMMET078RJCT 192200Z 17003KT 9999 FEW070 BKN170 M08/M12 Q1027 RMK 2AC070 7CI170 A3034;EQDQ01+000000PRSWM2
0257474905999992000111923004+42900+143170FM-15+0084RJCT V0209999C000010510019N0112651N1-00701-01101999999ADDGA1021+015009999GA2021+021009999GA3071+051009999GF107991999999999999999999MA1102711999999MW1001REMMET131RJCT 192300Z 00000KT 9999 FEW050 SCT070 BKN170 M07/M11 Q1027 RMK 1CU050 3AC070 5CI170 A3035 FCST 2308 TEMPO 0608 BKN025CU BKN070AC;EQDQ01+000000PRSWM2
0257474905999992000112000004+42900+143170FM-15+0084RJCT V0209999C000010570019N0112651N1-00401-01001999999ADDGA1021+015009999GA2021+030009999GA3071+057009999GF107991999999999999999999MA1102711999999MW1001REMMET131RJCT 200000Z 00000KT 9999 FEW050 SCT100 BKN190 M04/M10 Q1027 RMK 1CU050 3AC100 6CI190 A3034 FCST 0009 TEMPO 0609 BKN025CU BKN070AC;EQDQ01+000000PRSWM2
0217474905999992000112004004+42900+143170FM-15+0084RJCT V02099999999990480019N0112651N1+00201-00801999999ADDGA1021+012009999GA2021+036009999GA3081+048009999GF108991999999999999999999MA1102401999999MW1001REMMET091RJCT 200400Z VRB02KT 9999 FEW040 SCT120 OVC160 02/M08 Q1024 RMK 1SC040 3AC120 8AS160 A3025;EQDQ01+000000PRSWM2
0247474905999992000112007204+42900+143170FM-15+0084RJCT V0203001N001510210019N0040001N1+00001-00601999999ADDGA1021+006009999GA2021+010509999GA3081+021009999GF108991999999999999999999MA1102201999999MW1101MW2711REMMET099RJCT 200720Z 30003KT 4000 -SN BR FEW020 SCT035 OVC070 M00/M06 Q1022 RMK 1SC020 4SC035 8AS070 A3018;EQDQ01+000003PRSWM1Q02    003PRSWM1
0217474905999992000112007384+42900+143170FM-16+0084RJCT V0202901N002110090019N0024001N1-00101-00501999999ADDGA1021+004509999GA2081+009009999GF108991999999999999999999MA1102201999999MW1101MW2711REMMET085RJCT 200738Z 29004KT 2400 -SN BR FEW015 OVC030 M01/M05 Q1022 RMK 1ST015 8SC030 A3018;EQDQ01+000003PRSWM1Q02    003PRSWM1
0247474905999992000112008004+42900+143170FM-15+0084RJCT V0202401N002110090019N0018001N1-00101-00401999999ADDGA1021+004509999GA2081+009009999GF108991999999999999999999MA1102201999999MW1101MW2711REMMET115RJCT 200800Z 24004KT 1800 -SN BR FEW015 OVC030 M01/M04 Q1022 RMK 2ST015 8SC030 A3020 FCST 0817 BECMG 1012 BKN008ST;EQDQ01+000003PRSWM1Q02    003PRSWM1
0217474905999992000112022004+42900+143170FM-15+0084RJCT V0209999C000010660019N0112651N1+00001-00101999999ADDGA1021+001509999GA2021+048009999GA3071+066009999GF107991999999999999999999MA1099491999999MW1001REMMET091RJCT 202200Z 00000KT 9999 FEW005 SCT160 BKN220 00/M01 Q0995 RMK 1ST005 4AC160 6CC220 A2938;EQDQ01+000000PRSWM2
0283474905999992000112023004+42900+143170FM-15+0084RJCT V0209999C000010660019N0040001N1+00001-00101999999ADDGA1021+001509999GA2021+045009999GA3071+066009999GF107991999999999999999999MA1099391999999MW1101REMMET141RJCT 202300Z 00000KT 4000 BR FEW005 SCT150 BKN220 00/M01 Q0994 RMK 1ST005 3AC150 5CI220 A2937 FCST 2308 BECMG 0001 NSW TEMPO 0508 30016G30KT;EQDQ01+000003PRSWM1Q02    003PRSWM1
0206474905999992000112023184+42900+143170FM-16+0084RJCT V0209999C000010660019N0003001N1+00001-00101999999ADDGA1021+000909999GA2071+066009999GF107991999999999999999999MA1099391999999MW1441REMMET080RJCT 202318Z 00000KT 0300 FG SCT003 BKN220 00/M01 Q0994 RMK 3ST003 5CI220 A2935;EQDQ01+000003PRSWM1Q02    003PRSWM1
0206474905999992000112023394+42900+143170FM-16+0084RJCT V0209999C000012200019N0020001N1+00101-00101999999ADDGA1021+000909999GA2021+066009999GF104991999999999999999999MA1099291999999MW1101REMMET080RJCT 202339Z 00000KT 2000 BR FEW003 SCT220 01/M01 Q0993 RMK 2ST003 3CI220 A2935;EQDQ01+000003PRSWM1Q02    003PRSWM1
0253474905999992000112100004+42900+143170FM-15+0084RJCT V0209999C000012200019N0050001N1+00101+00001999999ADDGA1021+000909999GA2021+007509999GF104991999999999999999999MA1099391999999MW1101REMMET127RJCT 210000Z 00000KT 5000 BR FEW003 SCT025 01/M00 Q0994 RMK 1ST003 3CU025 A2936 FCST 0009 BECMG 0001 NSW TEMPO 0408 30016G30KT;EQDQ01+000003PRSWM1Q02    003PRSWM1
0167474905999992000112102004+42900+143170FM-15+0084RJCT V0202501N005712200019N0112651N1+01001+00201999999ADDGA1021+007509999GF102991999999999999999999MA1099291999999MW1001OC101081REMMET065RJCT 210200Z 25011G21KT 9999 FEW025 10/02 Q0993 RMK 1CU025 A2934;EQDQ01+000000PRSWM2
0218474905999992000112103004+42900+143170FM-15+0084RJCT V0202901N006712200019N0112651N1+00901+00001999999ADDGA1021+006009999GA2021+010509999GF104991999999999999999999MA1099491999999MW1001OC101181REMMET100RJCT 210300Z 29013G23KT 9999 FEW020 SCT035 09/00 Q0995 RMK 1CU020 3CU035 A2939 P/RR FCST 0312 NOSIG;EQDQ01+000000PRSWM2
0198474905999992000112104004+42900+143170FM-15+0084RJCT V0202801N010312200019N0112651N1+00901-00301999999ADDGA1021+006009999GA2021+010509999GF104991999999999999999999MA1099591999999MW1001OC101651REMMET080RJCT 210400Z 28020G32KT 9999 FEW020 SCT035 09/M03 Q0996 RMK 1CU020 3CU035 A2943;EQDQ01+000000PRSWM2
0173474905999992000112105004+42900+143170FM-15+0084RJCT V0202801N009312200019N0112651N1+00701-00201999999ADDGA1021+009009999GF102991999999999999999999MA1099901999999MW1001OC101441REMMET071RJCT 210500Z 28018G28KT 9999 FEW030 07/M02 Q0999 RMK 2CU030 A2950 P/RR;EQDQ01+000000PRSWM2
0219474905999992000112106004+42900+143170FM-15+0084RJCT V0202901N009812200019N0112651N1+00501-00201999999ADDGA1021+006009999GA2021+010509999GF104991999999999999999999MA1100201999999MW1001OC102061REMMET101RJCT 210600Z 29019G40KT 9999 FEW020 SCT035 05/M02 Q1002 RMK 2CU020 4CU035 A2959 P/RR FCST 0615 NOSIG;EQDQ01+000000PRSWM2
0162474905999992000112107004+42900+143170FM-15+0084RJCT V0203001N005112200019N0112651N1+00301-00201999999ADDGA1021+009009999GF102991999999999999999999MA1100411999999MW1001REMMET068RJCT 210700Z 30010KT 9999 FEW030 03/M02 Q1004 RMK 2CU030 A2964 P/RR;EQDQ01+000000PRSWM2
0173474905999992000112108004+42900+143170FM-15+0084RJCT V0203101N004612200019N0112651N1+00301-00201999999ADDGA1021+009009999GF102991999999999999999999MA1100511999999MW1001REMMET079RJCT 210800Z 31009KT 9999 FEW030 03/M02 Q1005 RMK 2CU030 A2969 FCST 0817 NOSIG;EQDQ01+000000PRSWM2
0188474905999992000112122004+42900+143170FM-15+0084RJCT V0203201N002112200019N0112651N1-00101-00801999999ADDGA1021+009009999GA2021+024009999GF104991999999999999999999MA1101691999999MW1001REMMET078RJCT 212200Z 32004KT 9999 FEW030 SCT080 M01/M08 Q1017 RMK 2CU030 3AC080 A3005;EQDQ01+000000PRSWM2
0189474905999992000112123004+42900+143170FM-15+0084RJCT V0203001N002612200019N0112651N1+00001-00901999999ADDGA1021+009009999GF104991999999999999999999MA1101901999999MW1001REMMET095RJCT 212300Z 30005KT 9999 SCT030 00/M09 Q1019 RMK 3CU030 A3009 FCST 2308 TEMPO 0006 31016G30KT;EQDQ01+000000PRSWM2
0218474905999992000112200004+42900+143170FM-15+0084RJCT V0203101N004612200019N0112651N1+00101-00801999999ADDGA1021+009009999GA2021+024009999GF104991999999999999999999MA1102001999999MW1001REMMET108RJCT 220000Z 31009KT 9999 FEW030 SCT080 01/M08 Q1020 RMK 1CU030 3AC080 A3012 FCT 0009 TEMPO 0006 31016G30KT;EQDQ01+000000PRSWM2
0168474905999992000112201004+42900+143170FM-15+0084RJCT V0202901N006712200019N0112651N1+00201-00901999999ADDGA1021+009009999GF102991999999999999999999MA1102001999999MW1001OC101181REMMET066RJCT 220100Z 29013G23KT 9999 FEW030 02/M09 Q1020 RMK 1CU030 A3014;EQDQ01+000000PRSWM2
0168474905999992000112202004+42900+143170FM-15+0084RJCT V0202901N007212200019N0112651N1+00201-00901999999ADDGA1021+009009999GF102991999999999999999999MA1102001999999MW1001OC101231REMMET066RJCT 220200Z 29014G24KT 9999 FEW030 02/M09 Q1020 RMK 1CU030 A3014;EQDQ01+000000PRSWM2
0197474905999992000112203004+42900+143170FM-15+0084RJCT V0202901N007712200019N0112651N1+00201-00801999999ADDGA1021+009009999GF102991999999999999999999MA1102001999999MW1001OC101291REMMET095RJCT 220300Z 29015G25KT 9999 FEW030 02/M08 Q1020 RMK 1CU030 A3014 FCST 0312 BECMG 0506 31010KT;EQDQ01+000000PRSWM2
0173474905999992000112206004+42900+143170FM-15+0084RJCT V0203201N003112200019N0112651N1+00101-00801999999ADDGA1021+010509999GF102991999999999999999999MA1102301999999MW1001REMMET079RJCT 220600Z 32006KT 9999 FEW035 01/M08 Q1023 RMK 1CU035 A3022 FCST 0615 NOSIG;EQDQ01+000000PRSWM2
0158474905999992000112207004+42900+143170FM-15+0084RJCT V0200201N001012200019N0112651N1-00101-00801999999ADDGA1021+009009999GF102991999999999999999999MA1102401999999MW1001REMMET064RJCT 220700Z 02002KT 9999 FEW030 M01/M08 Q1024 RMK 1CU030 A3024;EQDQ01+000000PRSWM2
0174474905999992000112208004+42900+143170FM-15+0084RJCT V0203201N003612200019N0112651N1-00101-00801999999ADDGA1021+010509999GF102991999999999999999999MA1102401999999MW1001REMMET080RJCT 220800Z 32007KT 9999 FEW035 M01/M08 Q1024 RMK 1CU035 A3025 FCST 0817 NOSIG;EQDQ01+000000PRSWM2
0268474905999992000112322004+42900+143170FM-15+0084RJCT V0200301N001010105019N0112651N1-00201-00401999999ADDGA1021+007509999GA2071+010509999GF107991999999999999999999MA1101591999999MW1001REMMET158RJCT 232200Z 03002KT 9999 FEW025 BKN035 M02/M04 Q1016 RMK 1CU025 5CU035 A3008NLO P-ZQ 9999 FEW040 M00/M02 Q1022 RMK 1SC040 A3020 FCST 2207 BECHG 0405 16010KT;EQDQ01+000000PRSWM2
0189474905999992000112323004+42900+143170FM-15+0084RJCT V0203101N005112200019N0112651N1+00301-00301999999ADDGA1021+007509999GF102991999999999999999999MA1101591999999MW1001REMMET095RJCT 232300Z 31010KT 9999 FEW025 03/M03 Q1016 RMK 1CU025 A3002 FCST 2308 TEMPO 0006 30015G25KT;EQDQ01+000000PRSWM2
0189474905999992000112400004+42900+143170FM-15+0084RJCT V0203001N005112200019N0112651N1+00401-00301999999ADDGA1021+007509999GF102991999999999999999999MA1101591999999MW1001REMMET095RJCT 240000Z 30010KT 9999 FEW025 04/M03 Q1016 RMK 1CU025 A3002 FCST 0009 TEMPO 0006 30010G20KT;EQDQ01+000000PRSWM2
0157474905999992000112401004+42900+143170FM-15+0084RJCT V0203101N007212200019N0112651N1+00401-00401999999ADDGA1021+009009999GF102991999999999999999999MA1101591999999MW1001REMMET063RJCT 240100Z 31014KT 9999 FEW030 04/M04 Q1016 RMK 1CU030 A3002;EQDQ01+000000PRSWM2
0168474905999992000112402004+42900+143170FM-15+0084RJCT V0202901N008212200019N0112651N1+00501-00601999999ADDGA1021+010509999GF102991999999999999999999MA1101591999999MW1001OC101341REMMET066RJCT 240200Z 29016G26KT 9999 FEW035 05/M06 Q1016 RMK 1CU035 A3002;EQDQ01+000000PRSWM2
0197474905999992000112403004+42900+143170FM-15+0084RJCT V0203001N008712200019N0112651N1+00501-00701999999ADDGA1021+010509999GF102991999999999999999999MA1101591999999MW1001OC101491REMMET095RJCT 240300Z 30017G29KT 9999 FEW035 05/M07 Q1016 RMK 1CU035 A3001 FCST 0312 BECMG 0708 30008KT;EQDQ01+000000PRSWM2
0157474905999992000112405004+42900+143170FM-15+0084RJCT V0203101N007712200019N0112651N1+00301-00701999999ADDGA1021+009009999GF102991999999999999999999MA1101691999999MW1001REMMET063RJCT 240500Z 31015KT 9999 FEW030 03/M07 Q1017 RMK 1CU030 A3004;EQDQ01+000000PRSWM2
0173474905999992000112406004+42900+143170FM-15+0084RJCT V0203301N004112200019N0112651N1+00301-00701999999ADDGA1021+009009999GF102991999999999999999999MA1101801999999MW1001REMMET079RJCT 240600Z 33008KT 9999 FEW030 03/M07 Q1018 RMK 1CU030 A3007 FCST 0615 NOSIG;EQDQ01+000000PRSWM2
0157474905999992000112407004+42900+143170FM-15+0084RJCT V0203201N003112200019N0112651N1+00201-00801999999ADDGA1021+009009999GF102991999999999999999999MA1101801999999MW1001REMMET063RJCT 240700Z 32006KT 9999 FEW030 02/M08 Q1018 RMK 1CU030 A3008;EQDQ01+000000PRSWM2
0159474905999992000112408004+42900+143170FM-15+0084RJCT V0203201N003612200019N0112651N1+00101-00801999999ADDGA1021+009009999GF102991999999999999999999MA1101901999999MW1001REMMET065RJCT 240800Z 32007KT 9999 FEW030 01/M08 Q1019 RMK 1CU030 X7O8NPP;EQDQ01+000000PRSWM2
0158474905999992000112422004+42900+143170FM-15+0084RJCT V0200201N001512200019N0112651N1-00401-01001999999ADDGA1021+009009999GF102991999999999999999999MA1102301999999MW1001REMMET064RJCT 242200Z 02003KT 9999 FEW030 M04/M10 Q1023 RMK 1SC030 A3022;EQDQ01+000000PRSWM2
0158474905999992000112423004+42900+143170FM-15+0084RJCT V0203501N001512200019N0112651N1-00101-00901999999ADDGA1021+009009999GF102991999999999999999999MA1102401999999MW1001REMMET064RJCT 242300Z 35003KT 9999 FEW030 M01/M09 Q1024 RMK 1CU030 A3024;EQDQ01+000000PRSWM2
0157474905999992000112500004+42900+143170FM-15+0084RJCT V0203201N004112200019N0112651N1+00101-00901999999ADDGA1021+009009999GF102991999999999999999999MA1102401999999MW1001REMMET063RJCT 250000Z 32008KT 9999 FEW030 01/M09 Q1024 RMK 1CU030 A3025;EQDQ01+000000PRSWM2
0157474905999992000112501004+42900+143170FM-15+0084RJCT V0203001N005712200019N0112651N1+00201-00901999999ADDGA1021+009009999GF102991999999999999999999MA1102401999999MW1001REMMET063RJCT 250100Z 30011KT 9999 FEW030 02/M09 Q1024 RMK 1CU030 A3025;EQDQ01+000000PRSWM2
0173474905999992000112502004+42900+143170FM-15+0084RJCT V0203101N008712200019N0112651N1+00201-00801999999ADDGA1021+009009999GF102991999999999999999999MA1102201999999MW1001OC101441REMMET071RJCT 250200Z 31017G28KT 9999 FEW030 02/M08 Q1022 RMK 1CU030 A3019 P/FR;EQDQ01+000000PRSWM2
0207474905999992000112523004+42900+143170FM-15+0084RJCT V0209999C000010012019N0010001N1-00301-00501999999ADDGA1071+001209999GA2081+004509999GF108991999999999999999999MA1101491999999MW1731REMMET081RJCT 252300Z 00000KT 1000 SN BKN004 OVC015 M03/M05 Q1015 RMK 5ST004 8NS015 A3000;EQDQ01+000003PRSWM1Q02    003PRSWM1
0238474905999992000112600004+42900+143170FM-15+0084RJCT V0202901N001510036019N0025001N1-00301-00401999999ADDGA1021+001509999GA2071+003609999GA3081+006009999GF108991999999999999999999MA1101491999999MW1711REMMET096RJCT 260000Z 29003KT 2500 -SN FEW005 BKN012 OVC020 M03/M04 Q1015 RMK 1ST005 5ST012 8NS020 A2997;EQDQ01+000003PRSWM1Q02    003PRSWM1
0232474905999992000112601004+42900+143170FM-15+0084RJCT V0202801N001510075019N0040001N1-00101-00301999999ADDGA1021+002109999GA2021+004509999GA3071+007509999GF107991999999999999999999MW1611MW2711REMMET099RJCT 260100Z 28003KT 4000 -RASN FEW007 SCT015 BKN025 M01/M03 Q101WNPPPP71ST007 4ST015 7NS025 A2993;EQDQ01+000003PRSWM1Q02    003PRSWM1
0207474905999992000112602004+42900+143170FM-15+0084RJCT V0202401N000510210019N0070001N1+99999+99999999999ADDGA1021+002409999GA2021+004509999GA3071+021009999GF107991999999999999999999MW1001MW2611REMMET090RJCT 260200Z 24001KT 7000 -RA FEW008 SCT015 BKN078> K RMK 2ST008 3ST015 7SC030 A2985 P/FR;EQDQ01+000003PRSWM1
0240474905999992000112603004+42900+143170FM-15+0084RJCT V0202701N002110105019N0060001N1+00001-00201999999ADDGA1021+002109999GA2021+004509999GA3071+010509999GF107991999999999999999999MA1101021999999MW1661REMMET098RJCT 260300Z 27004KT 6000 -FZRA SCT007 SCT015 BKN035 M00/M02 Q1010 RMK 3ST007 3ST015 7NS035 A2985;EQDQ01+000003PRSWM1Q02    003PRSWM1
0237474905999992000112604004+42900+143170FM-15+0084RJCT V0201901N001510090019N0070001N1+00001-00201999999ADDGA1021+002409999GA2021+006009999GA3071+009009999GF107991999999999999999999MA1100911999999MW1611REMMET095RJCT 260400Z 19003KT 7000 -RA FEW008 SCT020 BKN030 00/M02 Q1009 RMK 1ST008 4SC020 7NS030 A2981;EQDQ01+000003PRSWM1Q02    003PRSWM1
0237474905999992000112605004+42900+143170FM-15+0084RJCT V02099999999990105019N0070001N1+00101-00101999999ADDGA1021+002409999GA2021+006009999GA3071+010509999GF107991999999999999999999MA1100911999999MW1611REMMET095RJCT 260500Z VRB02KT 7000 -RA FEW008 SCT020 BKN035 01/M01 Q1009 RMK 1ST008 3SC020 7SC035 A2980;EQDQ01+000003PRSWM1Q02    003PRSWM1
0197474905999992000112623004+42900+143170FM-15+0084RJCT V0209999C000012200019N0112651N1-00601-00801999999ADDGA1021+010509999GF102991999999999999999999MA1101491999999MW1001REMMET103RJCT 262300Z 00000KT 9999 FEW035 M06/M08 Q1015 RMK 2CU035 A2998 FCST 2308 BECMG 0608 FEW020CU BKN040SC;EQDQ01+000000PRSWM2
0158474905999992000112700434+42900+143170FM-16+0084RJCT V0200101N001012200019N0112651N1-00101-00601999999ADDGA1021+012009999GF104991999999999999999999MA1101491999999MW1001REMMET064RJCT 270043Z 01002KT 9999 SCT040 M01/M06 Q1015 RMK 3CU040 A2998;EQDQ01+000000PRSWM2
0157474905999992000112701004+42900+143170FM-15+0084RJCT V0203501N001012200019N0112651N1+00001-00501999999ADDGA1021+012009999GF102991999999999999999999MA1101491999999MW1001REMMET063RJCT 270100Z 35002KT 9999 FEW040 00/M05 Q1015 RMK 2CU040 A2998;EQDQ01+000000PRSWM2
0157474905999992000112702004+42900+143170FM-15+0084RJCT V0200501N001012200019N0112651N1+00201-00501999999ADDGA1021+009009999GF102991999999999999999999MA1101391999999MW1001REMMET063RJCT 270200Z 05002KT 9999 FEW030 02/M05 Q1014 RMK 1CU030 A2995;EQDQ01+000000PRSWM2
0196474905999992000112703004+42900+143170FM-15+0084RJCT V0203001N001012200019N0112651N1+00401-00401999999ADDGA1021+009009999GF102991999999999999999999MA1101291999999MW1001REMMET102RJCT 270300Z 30002KT 9999 FEW030 04/M04 Q1013 RMK 1CU030 A2993 FCST 0312 BECMG 0608 FEW025CU BKN040SC;EQDQ01+000000PRSWM2
0187474905999992000112705004+42900+143170FM-15+0084RJCT V0202501N001512200019N0112651N1+00301-00401999999ADDGA1021+007509999GA2021+012009999GF104991999999999999999999MA1101191999999MW1001REMMET077RJCT 270500Z 25003KT 9999 FEW025 SCT040 03/M04 Q1012 RMK 1CU025 4SC040 A2990;EQDQ01+000000PRSWM2
0203474905999992000112706004+42900+143170FM-15+0084RJCT V0202501N001010105019N0112651N1+00201-00401999999ADDGA1021+007509999GA2071+010509999GF107991999999999999999999MA1101191999999MW1001REMMET093RJCT 270600Z 25002KT 9999 FEW025 BKN035 02/M04 Q1012 RMK 1CU025 5SC035 A2990 FCST 0615 NOSIG;EQDQ01+000000PRSWM2
0203474905999992000112708004+42900+143170FM-15+0084RJCT V0203101N001510090019N0112651N1+00001-00401999999ADDGA1021+006009999GA2071+009009999GF107991999999999999999999MA1101191999999MW1001REMMET093RJCT 270800Z 31003KT 9999 FEW020 BKN030 00/M04 Q1012 RMK 1CU020 5CU030 A2990 FCST 0817 NOSIG;EQDQ01+000000PRSWM2
0210474905999992000112708264+42900+143170FM-16+0084RJCT V0202801N001510090019N0112651N1+00001-00401999999ADDGA1021+004509999GA2071+009009999GF107991999999999999999999MA1101291999999MW1851REMMET084RJCT 270826Z 28003KT 9999 -SHSN FEW015 BKN030 M00/M04 Q1013 RMK 2ST015 7CU030 A2991;EQDQ01+000003PRSWM1Q02    003PRSWM1
0158474905999992000112722004+42900+143170FM-15+0084RJCT V0203001N005112200019N0112651N1-00201-00801999999ADDGA1021+012009999GF102991999999999999999999MA1101021999999MW1001REMMET064RJCT 272200Z 30010KT 9999 FEW040 M02/M08 Q1010 RMK 1SC040 A2984;EQDQ01+000000PRSWM2
0190474905999992000112723004+42900+143170FM-15+0084RJCT V0202901N006212200019N0112651N1-00101-00801999999ADDGA1021+012009999GF102991999999999999999999MA1101081999999MW1001REMMET096RJCT 272300Z 29012KT 9999 FEW040 M01/M08 Q1011 RMK 1SC040 A2986 FCST 2308 TEMPO 0008 31014G30KT;EQDQ01+000000PRSWM2
0189474905999992000112800004+42900+143170FM-15+0084RJCT V0202901N006712200019N0112651N1+00001-00801999999ADDGA1021+009009999GF102991999999999999999999MA1101081999999MW1001REMMET095RJCT 280000Z 29013KT 9999 FEW030 00/M08 Q1011 RMK 1CU030 A2987 FCST 0009 TEMPO 0008 31014G30KT;EQDQ01+000000PRSWM2
0157474905999992000112801004+42900+143170FM-15+0084RJCT V0202901N004612200019N0112651N1+00101-00801999999ADDGA1021+009009999GF102991999999999999999999MA1101191999999MW1001REMMET063RJCT 280100Z 29009KT 9999 FEW030 01/M08 Q1012 RMK 1CU030 A2988;EQDQ01+000000PRSWM2
0168474905999992000112801394+42900+143170FM-16+0084RJCT V0203001N006712200019N0112651N1+00101-00801999999ADDGA1021+009009999GF102991999999999999999999MA1101081999999MW1001OC101181REMMET066RJCT 280139Z 30013G23KT 9999 FEW030 01/M08 Q1011 RMK 1CU030 A2987;EQDQ01+000000PRSWM2
0168474905999992000112802004+42900+143170FM-15+0084RJCT V0203101N006212200019N0112651N1+00101-00801999999ADDGA1021+009009999GF102991999999999999999999MA1101081999999MW1001OC101131REMMET066RJCT 280200Z 31012G22KT 9999 FEW030 01/M08 Q1011 RMK 1CU030 A2987;EQDQ01+000000PRSWM2
0189474905999992000112803004+42900+143170FM-15+0084RJCT V0203101N005712200019N0112651N1+00201-00801999999ADDGA1021+009009999GF102991999999999999999999MA1101081999999MW1001REMMET095RJCT 280300Z 31011KT 9999 FEW030 02/M08 Q1011 RMK 1CU030 A2985 FCST 0312 TEMPO 0308 31014G30KT;EQDQ01+000000PRSWM2
0187474905999992000112805004+42900+143170FM-15+0084RJCT V0203101N006210090019N0112651N1+00101-00801999999ADDGA1021+004509999GA2071+009009999GF107991999999999999999999MA1101081999999MW1001REMMET077RJCT 280500Z 31012KT 9999 FEW015 BKN030 01/M08 Q1011 RMK 1CU015 5CU030 A2986;EQDQ01+000000PRSWM2
0220474905999992000112805124+42900+143170FM-16+0084RJCT V0203101N007210090019N0112651N1+00001-00601999999ADDGA1021+004509999GA2071+009009999GF107991999999999999999999MA1101081999999MW1851OC101341REMMET086RJCT 280512Z 31014G26KT 9999 -SHSN FEW015 BKN030 00/M06 Q1011 RMK 1CU015 5CU030 A2987;EQDQ01+000003PRSWM1Q02    003PRSWM1
0158474905999992000112807004+42900+143170FM-15+0084RJCT V0203101N004612200019N0112651N1-00201-00901999999ADDGA1021+009009999GF102991999999999999999999MA1101191999999MW1001REMMET064RJCT 280700Z 31009KT 9999 FEW030 M02/M09 Q1012 RMK 1CU030 A2989;EQDQ01+000000PRSWM2
0174474905999992000112808004+42900+143170FM-15+0084RJCT V0203101N003612200019N0112651N1-00301-00701999999ADDGA1021+007509999GF102991999999999999999999MA1101291999999MW1001REMMET080RJCT 280800Z 31007KT 9999 FEW025 M03/M07 Q1013 RMK 1CU025 A2992 FCST 0817 NOSIG;EQDQ01+000000PRSWM2
0188474905999992000112822004+42900+143170FM-15+0084RJCT V0203301N006212200019N0112651N1-00601-01201999999ADDGA1021+009009999GA2021+024009999GF104991999999999999999999MA1101801999999MW1001REMMET078RJCT 282200Z 33012KT 9999 FEW030 SCT080 M06/M12 Q1018 RMK 1CU030 3AC080 A3009;EQDQ01+000000PRSWM2
0198474905999992000112823004+42900+143170FM-15+0084RJCT V0203101N005112200019N0112651N1-00501-01201999999ADDGA1021+009009999GF102991999999999999999999MA1101901999999MW1001OC101231REMMET096RJCT 282300Z 31010G24KT 9999 FEW030 M05/M12 Q1019 RMK 1CU030 A3011 FCST 2308 BECMG 0506 34008KT;EQDQ01+000000PRSWM2
0198474905999992000112900004+42900+143170FM-15+0084RJCT V0203201N005712200019N0112651N1-00401-01201999999ADDGA1021+009009999GF102991999999999999999999MA1102001999999MW1001OC101081REMMET096RJCT 290000Z 32011G21KT 9999 FEW030 M04/M12 Q1020 RMK 1CU030 A3012 FCST 0009 BECMG 0506 34008KT;EQDQ01+000000PRSWM2
0158474905999992000112901004+42900+143170FM-15+0084RJCT V0203101N005112200019N0112651N1-00301-01201999999ADDGA1021+012009999GF102991999999999999999999MA1102001999999MW1001REMMET064RJCT 290100Z 31010KT 9999 FEW040 M03/M12 Q1020 RMK 1CU040 A3012;EQDQ01+000000PRSWM2
0158474905999992000112902004+42900+143170FM-15+0084RJCT V0203101N004612200019N0112651N1-00201-01101999999ADDGA1021+012009999GF102991999999999999999999MA1101901999999MW1001REMMET064RJCT 290200Z 31009KT 9999 FEW040 M02/M11 Q1019 RMK 1CU040 A3010;EQDQ01+000000PRSWM2
0174474905999992000112903004+42900+143170FM-15+0084RJCT V0202901N003612200019N0112651N1-00101-01001999999ADDGA1021+012009999GF102991999999999999999999MA1101901999999MW1001REMMET080RJCT 290300Z 29007KT 9999 FEW040 M01/M10 Q1019 RMK 1CU040 A3011 FCST 0312 NOSIG;EQDQ01+000000PRSWM2
0158474905999992000112905004+42900+143170FM-15+0084RJCT V0202301N001512200019N0112651N1+00001-01101999999ADDGA1021+012009999GF102991999999999999999999MA1101801999999MW1001REMMET064RJCT 290500Z 23003KT 9999 FEW040 M00/M11 Q1018 RMK 1CU040 A3008;EQDQ01+000000PRSWM2
0158474905999992000112907004+42900+143170FM-15+0084RJCT V0201601N001512200019N0112651N1-00401-01201999999ADDGA1021+009009999GF102991999999999999999999MA1101801999999MW1001REMMET064RJCT 290700Z 16003KT 9999 FEW030 M04/M12 Q1018 RMK 1CU030 A3008;EQDQ01+000000PRSWM2
0174474905999992000112908004+42900+143170FM-15+0084RJCT V0202001N000512200019N0112651N1-00601-01201999999ADDGA1021+009009999GF102991999999999999999999MA1101901999999MW1001REMMET080RJCT 290800Z 20001KT 9999 FEW030 M06/M12 Q1019 RMK 1CU030 A3009 FCST 0817 NOSIG;EQDQ01+000000PRSWM2
0188474905999992000112922004+42900+143170FM-15+0084RJCT V0201501N000512200019N0112651N1-01201-01401999999ADDGA1021+010509999GA2021+030009999GF104991999999999999999999MA1101491999999MW1001REMMET078RJCT 292200Z 15001KT 9999 FEW035 SCT100 M12/M14 Q1015 RMK 2SC035 4AC100 A2997;EQDQ01+000000PRSWM2
0220474905999992000112923004+42900+143170FM-15+0084RJCT V0201301N000512200019N0112651N1-00901-01201999999ADDGA1021+010509999GA2021+036009999GF104991999999999999999999MA1101491999999MW1001REMMET110RJCT 292300Z 13001KT 9999 FEW035 SCT120 M09/M12 Q1015 RMK 2SC035 4AC120 A2998 FCST 2308 TEMPO 0206 32014G25KT;EQDQ01+000000PRSWM2
0240474905999992000113000384+42900+143170FM-16+0084RJCT V0202201N002110360019N0112651N1-00501-01001999999ADDGA1021+012009999GA2021+024009999GA3071+036009999GF107991999999999999999999MA1101491999999MW1851REMMET098RJCT 300038Z 22004KT 9999 -SHSN SCT040 SCT080 BKN120 M05/M10 Q1015 RMK 4CU040 3AC080 5AC120 A2999;EQDQ01+000003PRSWM1Q02    003PRSWM1
0218474905999992000113000484+42900+143170FM-16+0084RJCT V0202701N002610360019N0112651N1-00401-00901999999ADDGA1021+010509999GA2021+024009999GA3071+036009999GF107991999999999999999999MA1101491999999MW1001REMMET092RJCT 300048Z 27005KT 9999 FEW035 SCT080 BKN120 M04/M09 Q1015 RMK 2CU035 3AC080 5AC120 A2999;EQDQ01+000000PRSWM2
0218474905999992000113001004+42900+143170FM-15+0084RJCT V0202901N002610540019N0112651N1-00301-00801999999ADDGA1021+010509999GA2021+036009999GA3071+054009999GF107991999999999999999999MA1101591999999MW1001REMMET092RJCT 300100Z 29005KT 9999 FEW035 SCT120 BKN180 M03/M08 Q1016 RMK 1CU035 4AC120 6CI180 A3000;EQDQ01+000000PRSWM2
0199474905999992000113001394+42900+143170FM-16+0084RJCT V0203101N006712200019N0112651N1+00001-00801999999ADDGA1021+010509999GA2021+054009999GF104991999999999999999999MA1101491999999MW1001OC101391REMMET081RJCT 300139Z 31013G27KT 9999 FEW035 SCT180 M00/M08 Q1015 RMK 1CU035 4CI180 A2998;EQDQ01+000000PRSWM2
0168474905999992000113002004+42900+143170FM-15+0084RJCT V0203001N008212200019N0112651N1+00001-00801999999ADDGA1021+010509999GF102991999999999999999999MA1101491999999MW1001OC101341REMMET066RJCT 300200Z 30016G26KT 9999 FEW035 00/M08 Q1015 RMK 2CU035 A2999;EQDQ01+000000PRSWM2
0197474905999992000113003004+42900+143170FM-15+0084RJCT V0203101N006712200019N0112651N1+00101-00801999999ADDGA1021+009009999GF102991999999999999999999MA1101491999999MW1001OC101341REMMET095RJCT 300300Z 31013G26KT 9999 FEW030 01/M08 Q1015 RMK 2CU030 A2998 FCST 0312 BECMG 0708 34010KT;EQDQ01+000000PRSWM2
0168474905999992000113005004+42900+143170FM-15+0084RJCT V0203201N006712200019N0112651N1+00101-00801999999ADDGA1021+009009999GF102991999999999999999999MA1101491999999MW1001OC101181REMMET066RJCT 300500Z 32013G23KT 9999 FEW030 01/M08 Q1015 RMK 2CU030 A2999;EQDQ01+000000PRSWM2
0190474905999992000113005164+42900+143170FM-16+0084RJCT V0203201N006712200019N0112651N1+00001-00901999999ADDGA1021+009009999GF104991999999999999999999MA1101591999999MW1851OC101391REMMET072RJCT 300516Z 32013G27KT 9999 -SHSN SCT030 00/M09 Q1016 RMK 4CU030 A3000;EQDQ01+000003PRSWM1Q02    003PRSWM1
0228474905999992000113006004+42900+143170FM-15+0084RJCT V0203201N006212200019N0112651N1-00101-00901999999ADDGA1021+006009999GA2021+009009999GF104991999999999999999999MA1101691999999MW1001OC101231REMMET110RJCT 300600Z 32012G24KT 9999 FEW020 SCT030 M01/M09 Q1017 RMK 1CU020 4CU030 A3003 FCST 0615 BECMG 0708 34010KT;EQDQ01+000000PRSWM2
0199474905999992000113007004+42900+143170FM-15+0084RJCT V0203201N006712200019N0112651N1-00201-00901999999ADDGA1021+006009999GA2021+009009999GF104991999999999999999999MA1101801999999MW1001OC101291REMMET081RJCT 300700Z 32013G25KT 9999 FEW020 SCT030 M02/M09 Q1018 RMK 1CU020 3CU030 A3008;EQDQ01+000000PRSWM2
0236474905999992000113008004+42900+143170FM-15+0084RJCT V0203001N007712200019N0112651N1-00301-01101999999ADDGA1021+006009999GA2021+009009999GF104991999999999999999999MA1101901999999MW1001OC101341REMMET118RJCT 300800Z COR 30015G26KT 9999 FEW020 SCT030 M03/M11 Q1019 RMK 1CU020 3CU030 A3011 FCST COR 0817 BECMG 0810 32010KT;EQDQ01+000000PRSWM2
0169474905999992000113009004+42900+143170FM-15+0084RJCT V0203001N007212200019N0112651N1-00401-01201999999ADDGA1021+009009999GF102991999999999999999999MA1102001999999MW1001OC101231REMMET067RJCT 300900Z 30014G24KT 9999 FEW030 M04/M12 Q1020 RMK 2CU030 A3012;EQDQ01+000000PRSWM2
0158474905999992000113022004+42900+143170FM-15+0084RJCT V0201501N002112200019N0112651N1-01601-01901999999ADDGA1021+009009999GF102991999999999999999999MA1102301999999MW1001REMMET064RJCT 302200Z 15004KT 9999 FEW030 M16/M19 Q1023 RMK 1CU030 A3022;EQDQ01+000000PRSWM2
0204474905999992000120100004+42900+143170FM-15+0084RJCT V0201201N000512200019N0112651N1-00701-01401999999ADDGA1021+009009999GA2021+060009999GF104991999999999999999999MA1102301999999MW1001REMMET094RJCT 010000Z 12001KT 9999 FEW030 SCT200 M07/M14 Q1023 RMK 1CU030 3CI200 A3022 FCST 0009 NOSIG;EQDQ01+000000PRSWM2
0188474905999992000120101004+42900+143170FM-15+0084RJCT V0201501N001012200019N0112651N1-00401-01201999999ADDGA1021+007509999GA2021+060009999GF104991999999999999999999MA1102301999999MW1001REMMET078RJCT 010100Z 15002KT 9999 FEW025 SCT200 M04/M12 Q1023 RMK 1CU025 3CI200 A3022;EQDQ01+000000PRSWM2
0188474905999992000120102004+42900+143170FM-15+0084RJCT V0201301N001510600019N0112651N1-00101-01001999999ADDGA1021+009009999GA2071+060009999GF107991999999999999999999MA1102201999999MW1001REMMET078RJCT 010200Z 13003KT 9999 FEW030 BKN200 M01/M10 Q1022 RMK 1CU030 5CI200 A3019;EQDQ01+000000PRSWM2
0203474905999992000120103004+42900+143170FM-15+0084RJCT V0201901N002110630019N0112651N1+00101-01101999999ADDGA1021+009009999GA2071+063009999GF107991999999999999999999MA1102101999999MW1001REMMET093RJCT 010300Z 19004KT 9999 FEW030 BKN210 01/M11 Q1021 RMK 1CU030 5CI210 A3017 FCST 0312 NOSIG;EQDQ01+000000PRSWM2
0187474905999992000120104004+42900+143170FM-15+0084RJCT V0202101N003112200019N0112651N1+00201-01001999999ADDGA1021+012009999GA2021+063009999GF104991999999999999999999MA1102101999999MW1001REMMET077RJCT 010400Z 21006KT 9999 FEW040 SCT210 02/M10 Q1021 RMK 1CU040 3CI210 A3016;EQDQ01+000000PRSWM2
0187474905999992000120105004+42900+143170FM-15+0084RJCT V0202101N002612200019N0112651N1+00201-01001999999ADDGA1021+010509999GA2021+066009999GF104991999999999999999999MA1102001999999MW1001REMMET077RJCT 010500Z 21005KT 9999 FEW035 SCT220 02/M10 Q1020 RMK 1CU035 3CI220 A3012;EQDQ01+000000PRSWM2
0173474905999992000120106004+42900+143170FM-15+0084RJCT V0202501N001512200019N0112651N1+00101-01001999999ADDGA1021+010509999GF102991999999999999999999MA1102101999999MW1001REMMET079RJCT 010600Z 25003KT 9999 FEW035 01/M10 Q1021 RMK 2CU035 A3015 FCST 0615 NOSIG;EQDQ01+000000PRSWM2
0158474905999992000120107004+42900+143170FM-15+0084RJCT V0202301N002112200019N0112651N1-00201-01101999999ADDGA1021+010509999GF102991999999999999999999MA1102001999999MW1001REMMET064RJCT 010700Z 23004KT 9999 FEW035 M02/M11 Q1020 RMK 1CU035 A3014;EQDQ01+000000PRSWM2
0174474905999992000120108004+42900+143170FM-15+0084RJCT V0202501N001512200019N0112651N1-00401-01101999999ADDGA1021+010509999GF102991999999999999999999MA1102101999999MW1001REMMET080RJCT 010800Z 25003KT 9999 FEW035 M04/M11 Q1021 RMK 1CU035 A3015 FCST 0817 NOSIG;EQDQ01+000000PRSWM2
0158474905999992000120123004+42900+143170FM-15+0084RJCT V0203201N000512200019N0112651N1-01101-01301999999ADDGA1021+013509999GF102991999999999999999999MA1102301999999MW1001REMMET064RJCT 012300Z 32001KT 9999 FEW045 M11/M13 Q1023 RMK 1SC045 A3023;EQDQ01+000000PRSWM2
0158474905999992000120200004+42900+143170FM-15+0084RJCT V0202801N000512200019N0112651N1-00701-01201999999ADDGA1021+013509999GF102991999999999999999999MA1102401999999MW1001REMMET064RJCT 020000Z 28001KT 9999 FEW045 M07/M12 Q1024 RMK 1SC045 A3024;EQDQ01+000000PRSWM2
0158474905999992000120201004+42900+143170FM-15+0084RJCT V0200501N001012200019N0112651N1-00301-01101999999ADDGA1021+013509999GF102991999999999999999999MA1102301999999MW1001REMMET064RJCT 020100Z 05002KT 9999 FEW045 M03/M11 Q1023 RMK 1SC045 A3022;EQDQ01+000000PRSWM2
0135474905999992000120202004+42900+143170FM-15+0084RJCT V0200201N000512200019N0112651N1-00101+99999999999ADDGA1021+013509999GF102991999999999999999999MW1001REMMET040RJCT 020200Z 02001KT 9999 FEW045 M01/M1;EQDQ01-000103ATOD  Q02+000000PRSWM2
0157474905999992000120203004+42900+143170FM-15+0084RJCT V0200101N001012200019N0112651N1+00101-00901999999ADDGA1021+013509999GF102991999999999999999999MA1102101999999MW1001REMMET063RJCT 020300Z 01002KT 9999 FEW045 01/M09 Q1021 RMK 1SC045 A3017;EQDQ01+000000PRSWM2
0157474905999992000120204004+42900+143170FM-15+0084RJCT V0201501N001512200019N0112651N1+00301-00801999999ADDGA1021+012009999GF102991999999999999999999MA1102001999999MW1001REMMET063RJCT 020400Z 15003KT 9999 FEW040 03/M08 Q1020 RMK 1SC040 A3012;EQDQ01+000000PRSWM2
0157474905999992000120205004+42900+143170FM-15+0084RJCT V0202601N001012200019N0112651N1+00201-00701999999ADDGA1021+012009999GF102991999999999999999999MA1101901999999MW1001REMMET063RJCT 020500Z 26002KT 9999 FEW040 02/M07 Q1019 RMK 1SC040 A3011;EQDQ01+000000PRSWM2
0158474905999992000120322004+42900+143170FM-15+0084RJCT V0203501N001512200019N0112651N1-00601-01401999999ADDGA1021+009009999GF102991999999999999999999MA1100811999999MW1001REMMET064RJCT 032200Z 35003KT 9999 FEW030 M06/M14 Q1008 RMK 1CU030 A2978;EQDQ01+000000PRSWM2
0190474905999992000120323004+42900+143170FM-15+0084RJCT V0203601N002612200019N0112651N1-00501-01401999999ADDGA1021+004509999GF102991999999999999999999MA1100811999999MW1001REMMET096RJCT 032300Z 36005KT 9999 FEW015 M05/M14 Q1008 RMK 1ST015 A2978 FCST 2308 TEMPO 0206 31014G25KT;EQDQ01+000000PRSWM2
0169474905999992000120401004+42900+143170FM-15+0084RJCT V0203301N007212200019N0112651N1-00301-01401999999ADDGA1021+007509999GF102991999999999999999999MA1100711999999MW1001OC101391REMMET067RJCT 040100Z 33014G27KT 9999 FEW025 M03/M14 Q1007 RMK 1CU025 A2976;EQDQ01+000000PRSWM2
0169474905999992000120402004+42900+143170FM-15+0084RJCT V0203301N006712200019N0112651N1-00201-01401999999ADDGA1021+007509999GF102991999999999999999999MA1100711999999MW1001OC101341REMMET067RJCT 040200Z 33013G26KT 9999 FEW025 M02/M14 Q1007 RMK 1CU025 A2974;EQDQ01+000000PRSWM2
0198474905999992000120408004+42900+143170FM-15+0084RJCT V0203001N008712200019N0112651N1-00301-01301999999ADDGA1021+006009999GF102991999999999999999999MA1100811999999MW1001OC101491REMMET096RJCT 040800Z 30017G29KT 9999 FEW020 M03/M13 Q1008 RMK 1CU020 A2977 FCST 0817 BECMG 0810 31010KT;EQDQ01+000000PRSWM2
0222474905999992000120422004+42900+143170FM-15+0084RJCT V0202601N001510240019N0112651N1-01201-01601999999ADDGA1021+009009999GA2021+012009999GA3071+024009999GF107991999999999999999999MA1100511999999MW1001REMMET096RJCT 042200Z COR 26003KT 9999 FEW030 SCT040 BKN080 M12/M16 Q1005 RMK 1CU030 4SC040 6AC080 A2969;EQDQ01+000000PRSWM2
0238474905999992000120422494+42900+143170FM-16+0084RJCT V0202801N000510120019N0112651N1-01201-01601999999ADDGA1021+009009999GA2071+012009999GA3071+024009999GF107991999999999999999999MA1100411999999MW1711REMMET096RJCT 042249Z 28001KT 9999 -SN FEW030 BKN040 BKN080 M12/M16 Q1004 RMK 1CU030 5SC040 7AC080 A2967;EQDQ01+000003PRSWM1Q02    003PRSWM1
0293474905999992000120423004+42900+143170FM-15+0084RJCT V0209999C000010120019N0112651N1-00801-01301999999ADDGA1021+009009999GA2071+012009999GA3071+024009999GF107991999999999999999999MA1100511999999MW1711REMMET151RJCT 042300Z 00000KT 9999 -SN FEW030 BKN040 BKN080 M08/M13 Q1005 RMK 1CU030 5SC040 7AC080 A2967 FCST 2308 BECMG 2300 2000 BKN020SC TEMPO 0205 BKN008ST;EQDQ01+000003PRSWM1Q02    003PRSWM1
0238474905999992000120423274+42900+143170FM-16+0084RJCT V0202901N000510090019N0030001N1-00601-01101999999ADDGA1021+004509999GA2071+009009999GA3071+024009999GF107991999999999999999999MA1100411999999MW1711REMMET096RJCT 042327Z 29001KT 3000 -SN FEW015 BKN030 BKN080 M06/M11 Q1004 RMK 1ST015 5SC030 7AC080 A2966;EQDQ01+000003PRSWM1Q02    003PRSWM1
0238474905999992000120423384+42900+143170FM-16+0084RJCT V0202701N000510090019N0020001N1-00601-01001999999ADDGA1021+004509999GA2071+009009999GA3081+024009999GF108991999999999999999999MA1100411999999MW1711REMMET096RJCT 042338Z 27001KT 2000 -SN FEW015 BKN030 OVC080 M06/M10 Q1004 RMK 2ST015 6SC030 8AC080 A2966;EQDQ01+000003PRSWM1Q02    003PRSWM1
0238474905999992000120501004+42900+143170FM-15+0084RJCT V0209999C000010120019N0015001N1-00401-00701999999ADDGA1021+002409999GA2021+006009999GA3081+012009999GF108991999999999999999999MA1100311999999MW1711REMMET096RJCT 050100Z 00000KT 1500 -SN SCT008 SCT020 OVC040 M04/M07 Q1003 RMK 3ST008 4SC020 8SC040 A2964;EQDQ01+000003PRSWM1Q02    003PRSWM1
0238474905999992000120502004+42900+143170FM-15+0084RJCT V0202601N001510090019N0015001N1-00401-00601999999ADDGA1021+002409999GA2021+006009999GA3081+009009999GF108991999999999999999999MA1100201999999MW1711REMMET096RJCT 050200Z 26003KT 1500 -SN SCT008 SCT020 OVC030 M04/M06 Q1002 RMK 3ST008 4SC020 8SC030 A2958;EQDQ01+000003PRSWM1Q02    003PRSWM1
0248474905999992000120502254+42900+143170FM-15+0084RJCT V0203101N002110090019N0025001N1-00401-00601999999ADDGA1021+002409999GA2071+009009999GA3071+012009999GF107991999999999999999999MA1100101999999MW1101MW2711REMMET100RJCT 050225Z 31004KT 2500 -BR -SN FEW008 BKN030 BKN040 M04/M06 Q1001 RMK 2ST008 5SC030 7SC040 A2957;EQDQ01+000003PRSWM1Q02    003PRSWM1
0252474905999992000120502274+42900+143170FM-16+0084RJCT V0203101N002110090019N0025001N1-00401-00601999999ADDGA1021+002409999GA2071+009009999GA3071+012009999GF107991999999999999999999MA1100101999999MW1101MW2711REMMET104RJCT COR 050227Z 31004KT 2500 -SN -BR FEW008 BKN030 BKN040 M04/M06 Q1001 RMK 2ST008 5SC030 7SC040 A2957;EQDQ01+000003PRSWM1Q02    003PRSWM1
0251474905999992000120502294+42900+143170FM-16+0084RJCT V0203101N002110090019N0025001N1-00401-00601999999ADDGA1021+002409999GA2071+009009999GA3071+012009999GF107991999999999999999999MA1100101999999MW1101MW2711REMMET103RJCT COR 050229Z 31004KT 2500 BR -SN FEW008 BKN030 BKN040 M04/M06 Q1001 RMK 2ST008 5SC030 7SC040 A2957;EQDQ01+000003PRSWM1Q02    003PRSWM1
0248474905999992000120503004+42900+143170FM-15+0084RJCT V0202901N002110090019N0012001N1+99999+99999999999ADDGA1021+002409999GA2071+009009999GA3081+012009999GF108991999999999999999999MW1001MW2101MW3711REMMET125RJCT 050300Z 29004KT 1200 -SN BR SCT008 BKN030 OVC040 M03/M0 6 Q1000 RMK 3ST008 5SC030 8SC040 A2955 FCST 0312 BECMG 0405 NSW;EQDQ01+000003PRSWM1
0238474905999992000120503254+42900+143170FM-15+0084RJCT V0203001N002610075019N0025001N1-00301-00501999999ADDGA1021+002409999GA2071+007509999GA3071+012009999GF107991999999999999999999MA1100001999999MW1711REMMET096RJCT 050325Z 30005KT 2500 -SN SCT008 BKN025 BKN040 M03/M05 Q1000 RMK 3ST008 5SC025 5CU040 A2954;EQDQ01+000003PRSWM1Q02    003PRSWM1
0238474905999992000120503474+42900+143170FM-16+0084RJCT V0203101N002110360019N0060001N1-00201-00501999999ADDGA1021+002709999GA2021+007509999GA3071+036009999GF107991999999999999999999MA1100001999999MW1711REMMET096RJCT 050347Z 31004KT 6000 -SN FEW009 SCT025 BKN120 M02/M05 Q1000 RMK 1ST009 3SC025 5AC120 A2953;EQDQ01+000003PRSWM1Q02    003PRSWM1
0218474905999992000120504174+42900+143170FM-16+0084RJCT V0209999C000010600019N0112651N1+00001-00501999999ADDGA1021+003009999GA2021+007509999GA3071+060009999GF107991999999999999999999MA1099901999999MW1001REMMET092RJCT 050417Z 00000KT 9999 FEW010 SCT025 BKN200 M00/M05 Q0999 RMK 1ST010 3SC025 5CI200 A2950;EQDQ01+000000PRSWM2
0204474905999992000120508004+42900+143170FM-15+0084RJCT V0201701N001010300019N0112651N1-00601-00801999999ADDGA1021+009009999GA2071+030009999GF107991999999999999999999MA1099801999999MW1001REMMET094RJCT 050800Z 17002KT 9999 SCT030 BKN100 M06/M08 Q0998 RMK 3CU030 5AC100 A2948 FCST 0817 NOSIG;EQDQ01+000000PRSWM2
0158474905999992000120522004+42900+143170FM-15+0084RJCT V0203001N005112200019N0112651N1-00701-01701999999ADDGA1021+010509999GF102991999999999999999999MA1100411999999MW1001REMMET064RJCT 052200Z 30010KT 9999 FEW035 M07/M17 Q1004 RMK 1CU035 A2965;EQDQ01+000000PRSWM2
0185474905999992000120523004+42900+143170FM-15+0084RJCT V0202901N005712200019N0112651N1-00601-01601999999ADDGA1021+010509999GF102991999999999999999999MA1100411999999MW1001OC101081REMMET083RJCT 052300Z 29011G21KT 9999 FEW035 M06/M16 Q1004 RMK 1SC035 A2965 FCST 2308 NOSIG;EQDQ01+000000PRSWM2
0190474905999992000120600004+42900+143170FM-15+0084RJCT V0202501N005112200019N0112651N1-00501-01501999999ADDGA1021+007509999GF102991999999999999999999MA1100411999999MW1001REMMET096RJCT 060000Z 25010KT 9999 FEW025 M05/M15 Q1004 RMK 2CU025 A2965 FCST 0009 BECMG 0002 31016G36KT;EQDQ01+000000PRSWM2
0158474905999992000120601004+42900+143170FM-15+0084RJCT V0203201N003612200019N0112651N1-00401-01401999999ADDGA1021+007509999GF102991999999999999999999MA1100411999999MW1001REMMET064RJCT 060100Z 32007KT 9999 FEW025 M04/M14 Q1004 RMK 2CU025 A2966;EQDQ01+000000PRSWM2
0158474905999992000120602174+42900+143170FM-16+0084RJCT V0202901N007212200019N0112651N1-00401-01501999999ADDGA1021+006009999GF102991999999999999999999MA1100411999999MW1001REMMET064RJCT 060217Z 29014KT 9999 FEW020 M04/M15 Q1004 RMK 2CU020 A2965;EQDQ01+000000PRSWM2
0190474905999992000120603004+42900+143170FM-15+0084RJCT V0202901N007712200019N0112651N1-00401-01601999999ADDGA1021+006009999GF104991999999999999999999MA1100311999999MW1001REMMET096RJCT 060300Z 29015KT 9999 SCT020 M04/M16 Q1003 RMK 3CU020 A2964 FCST 0312 BECMG 0305 31016G33KT;EQDQ01+000000PRSWM2
0129474905999992000120604004+42900+143170FM-15+0084RJCT V02099999999992200019N0014001N1+99999+99999999999ADDMA1100411999999MW1001REMMET077RJCT 060400Z 308 OPO=K>M9FEW015 BKN020 M06/M14 Q1004 RMK 1ST015 6CU020 A2966;EQDQ01+000000PRSWM2
0158474905999992000120605004+42900+143170FM-15+0084RJCT V0202801N005712200019N0112651N1-00601-01401999999ADDGA1021+006009999GF104991999999999999999999MA1100411999999MW1001REMMET064RJCT 060500Z 28011KT 9999 SCT020 M06/M14 Q1004 RMK 3CU020 A2967;EQDQ01+000000PRSWM2
0190474905999992000120606004+42900+143170FM-15+0084RJCT V0202801N004112200019N0112651N1-00601-01701999999ADDGA1021+007509999GF102991999999999999999999MA1100511999999MW1001REMMET096RJCT 060600Z 28008KT 9999 FEW025 M06/M17 Q1005 RMK 2CU025 A2970 FCST 0615 TEMPO 0712 31016G30KT;EQDQ01+000000PRSWM2
0165474905999992000120606154+42900+143170FM-16+0084RJCT V02099999999992200019N0112651N1-00701-01701999999ADDGA1021+007509999GF102991999999999999999999MA1100611999999MW1001REMMET071RJCT 060615Z 060  POCO 19KT 9999 FEW025 M07/M17 Q1006 RMK 1CU025 A2971;EQDQ01+000000PRSWM2
0158474905999992000120607004+42900+143170FM-15+0084RJCT V0203101N002612200019N0112651N1-00801-01601999999ADDGA1021+007509999GF102991999999999999999999MA1100711999999MW1001REMMET064RJCT 060700Z 31005KT 9999 FEW025 M08/M16 Q1007 RMK 1CU025 A2973;EQDQ01+000000PRSWM2
0174474905999992000120608004+42900+143170FM-15+0084RJCT V0203001N003612200019N0112651N1-00801-01501999999ADDGA1021+007509999GF102991999999999999999999MA1100811999999MW1001REMMET080RJCT 060800Z 30007KT 9999 FEW025 M08/M15 Q1008 RMK 1CU025 A2977 FCST 0817 NOSIG;EQDQ01+000000PRSWM2
0169474905999992000120621004+42900+143170FM-15+0084RJCT V0202901N006212200019N0112651N1-00401-01101999999ADDGA1021+007509999GF102991999999999999999999MA1101691999999MW1001OC101131REMMET067RJCT 062100Z 29012G22KT 9999 FEW025 M04/M11 Q1017 RMK 1CU025 A3005;EQDQ01+000000PRSWM2
0190474905999992000120623004+42900+143170FM-15+0084RJCT V0202901N005712200019N0112651N1-00301-01101999999ADDGA1021+007509999GF102991999999999999999999MA1101901999999MW1001REMMET096RJCT 062300Z 29011KT 9999 FEW025 M03/M11 Q1019 RMK 1CU025 A3011 FCST 2308 TEMPO 2303 30010G20KT;EQDQ01+000000PRSWM2
0174474905999992000120700004+42900+143170FM-15+0084RJCT V0203001N004112200019N0112651N1-00101-01001999999ADDGA1021+009009999GF102991999999999999999999MA1102001999999MW1001REMMET080RJCT 070000Z 30008KT 9999 FEW030 M01/M10 Q1020 RMK 1CU030 A3013 FCST 0009 NOSIG;EQDQ01+000000PRSWM2
0158474905999992000120701004+42900+143170FM-15+0084RJCT V0202901N005112200019N0112651N1+00001-01001999999ADDGA1021+009009999GF102991999999999999999999MA1102001999999MW1001REMMET064RJCT 070100Z 29010KT 9999 FEW030 M00/M10 Q1020 RMK 1CU030 A3013;EQDQ01+000000PRSWM2
0157474905999992000120702004+42900+143170FM-15+0084RJCT V0202901N006712200019N0112651N1+00101-01001999999ADDGA1021+009009999GF102991999999999999999999MA1102001999999MW1001REMMET063RJCT 070200Z 29013KT 9999 FEW030 01/M10 Q1020 RMK 1CU030 A3012;EQDQ01+000000PRSWM2
0189474905999992000120703004+42900+143170FM-15+0084RJCT V0203001N006712200019N0112651N1+00101-01001999999ADDGA1021+009009999GF102991999999999999999999MA1101901999999MW1001REMMET095RJCT 070300Z 30013KT 9999 FEW030 01/M10 Q1019 RMK 1CU030 A3011 FCST 0312 TEMPO 0306 30013G23KT;EQDQ01+000000PRSWM2
0168474905999992000120703014+42900+143170FM-16+0084RJCT V0202901N007212200019N0112651N1+00101-01101999999ADDGA1021+009009999GF102991999999999999999999MA1101901999999MW1001OC101231REMMET066RJCT 070301Z 29014G24KT 9999 FEW030 01/M11 Q1019 RMK 1CU030 A3011;EQDQ01+000000PRSWM2
0157474905999992000120705004+42900+143170FM-15+0084RJCT V0202901N008212200019N0112651N1+00001-00901999999ADDGA1021+010509999GF102991999999999999999999MA1101901999999MW1001REMMET063RJCT 070500Z 29016KT 9999 FEW035 00/M09 Q1019 RMK 1CU035 A3010;EQDQ01+000000PRSWM2
0174474905999992000120706004+42900+143170FM-15+0084RJCT V0203001N005112200019N0112651N1-00101-01001999999ADDGA1021+010509999GF102991999999999999999999MA1102001999999MW1001REMMET080RJCT 070600Z 30010KT 9999 FEW035 M01/M10 Q1020 RMK 1CU035 A3013 FCST 0615 NOSIG;EQDQ01+000000PRSWM2
0218474905999992000120707004+42900+143170FM-15+0084RJCT V0203001N005710600019N0112651N1-00101-01001999999ADDGA1021+009009999GA2021+036009999GA3071+060009999GF107991999999999999999999MA1102001999999MW1001REMMET092RJCT 070700Z 30011KT 9999 FEW030 SCT120 BKN200 M01/M10 Q1020 RMK 1CU030 3AC120 6CI200 A3013;EQDQ01+000000PRSWM2
0234474905999992000120708004+42900+143170FM-15+0084RJCT V0203001N003610600019N0112651N1-00201-00901999999ADDGA1021+009009999GA2021+036009999GA3071+060009999GF107991999999999999999999MA1102001999999MW1001REMMET108RJCT 070800Z 30007KT 9999 FEW030 SCT120 BKN200 M02/M09 Q1020 RMK 1CU030 3AC120 7CI200 A3014 FCST 0817 NOSIG;EQDQ01+000000PRSWM2
0201474905999992000120722004+42900+143170FM-15+0084RJCT V0202001N000512200019N0070001N1-00901-01101999999ADDGA1021+003009999GA2021+009009999GF104991999999999999999999MA1101291999999MW1851REMMET075RJCT 072200Z 20001KT 7000 -SHSN FEW010 SCT030 M09/M11 Q1013 R 8SU030 A2992;EQDQ01+000003PRSWM1Q02    003PRSWM1
0190474905999992000120723004+42900+143170FM-15+0084RJCT V0202701N002112200019N0112651N1-00801-01001999999ADDGA1021+003009999GF102991999999999999999999MA1101291999999MW1001REMMET096RJCT 072300Z 27004KT 9999 FEW010 M08/M10 Q1013 RMK 2ST010 A2992 FCST 2308 TEMPO 0307 31010G20KT;EQDQ01+000000PRSWM2
0187474905999992000120802004+42900+143170FM-15+0084RJCT V0202901N004610630019N0112651N1+00201-00801999999ADDGA1021+009009999GA2071+063009999GF107991999999999999999999MA1101081999999MW1001REMMET077RJCT 080200Z 29009KT 9999 FEW030 BKN210 02/M08 Q1011 RMK 2CU030 7CI210 A2987;EQDQ01+000000PRSWM2
0219474905999992000120803004+42900+143170FM-15+0084RJCT V0200801N003110630019N0112651N1+00401-00801999999ADDGA1021+009009999GA2071+063009999GF107991999999999999999999MA1101021999999MW1001REMMET109RJCT 080300Z 08006KT 9999 FEW030 BKN210 04/M08 Q1010 RMK 2CU030 7CI210 A2984 FCST 0312 TEMPO 0307 31010G20KT;EQDQ01+000000PRSWM2
0228474905999992000120805004+42900+143170FM-15+0084RJCT V0202901N007210600019N0112651N1+00101-00901999999ADDGA1021+009009999GA2021+036009999GA3071+060009999GF107991999999999999999999MA1101021999999MW1001OC101231REMMET094RJCT 080500Z 29014G24KT 9999 FEW030 SCT120 BKN200 01/M09 Q1010 RMK 1CU030 3AC120 5CI200 A2984;EQDQ01+000000PRSWM2
0227474905999992000120806004+42900+143170FM-15+0084RJCT V0202801N007710600019N0112651N1+00001-00901999999ADDGA1021+009009999GA2071+060009999GF107991999999999999999999MA1101081999999MW1001OC101291REMMET109RJCT 080600Z 28015G25KT 9999 FEW030 BKN200 00/M09 Q1011 RMK 2CU030 5CI200 A2986 FCST 0615 BECMG 0708 28008KT;EQDQ01+000000PRSWM2
0188474905999992000120807004+42900+143170FM-15+0084RJCT V0202801N007212200019N0112651N1-00101-01001999999ADDGA1021+009009999GA2021+060009999GF104991999999999999999999MA1101081999999MW1001REMMET078RJCT 080700Z 28014KT 9999 FEW030 SCT200 M01/M10 Q1011 RMK 1CU030 3CI200 A2987;EQDQ01+000000PRSWM2
0174474905999992000120808004+42900+143170FM-15+0084RJCT V0202901N006212200019N0112651N1-00101-01001999999ADDGA1021+009009999GF102991999999999999999999MA1101191999999MW1001REMMET080RJCT 080800Z 29012KT 9999 FEW030 M01/M10 Q1012 RMK 1CU030 A2989 FCST 0817 NOSIG;EQDQ01+000000PRSWM2
0158474905999992000120822004+42900+143170FM-15+0084RJCT V0203101N003112200019N0112651N1-00601-00901999999ADDGA1021+006009999GF102991999999999999999999MA1101291999999MW1001REMMET064RJCT 082200Z 31006KT 9999 FEW020 M06/M09 Q1013 RMK 1CU020 A2993;EQDQ01+000000PRSWM2
0158474905999992000120823004+42900+143170FM-15+0084RJCT V0203201N003112200019N0112651N1-00301-00901999999ADDGA1021+007509999GF102991999999999999999999MA1101391999999MW1001REMMET064RJCT 082300Z 32006KT 9999 FEW025 M03/M09 Q1014 RMK 1CU025 A2994;EQDQ01+000000PRSWM2
0146474905999992000120901004+42900+143170FM-15+0084RJCT V0203201N003612200019N0112651N1+00101-00901999999ADDGA1021+009009999GF102991999999999999999999MA1101391999999MW1001REMMET052RJCT 090100Z 32007KT 9999 FEW030 01/M09 Q1014 RM87X;EQDQ01+000000PRSWM2
0168474905999992000120902004+42900+143170FM-15+0084RJCT V0203101N006212200019N0112651N1+00101-00901999999ADDGA1021+009009999GF102991999999999999999999MA1101391999999MW1001OC101131REMMET066RJCT 090200Z 31012G22KT 9999 FEW030 01/M09 Q1014 RMK 1CU030 A2995;EQDQ01+000000PRSWM2
0168474905999992000120903004+42900+143170FM-15+0084RJCT V0203001N006712200019N0112651N1+00101-01001999999ADDGA1021+007509999GF102991999999999999999999MA1101291999999MW1001OC101291REMMET066RJCT 090300Z 30013G25KT 9999 FEW025 01/M10 Q1013 RMK 1CU025 A2993;EQDQ01+000000PRSWM2
0157474905999992000120904004+42900+143170FM-15+0084RJCT V0203201N005712200019N0112651N1+00101-00801999999ADDGA1021+009009999GF102991999999999999999999MA1101291999999MW1001REMMET063RJCT 090400Z 32011KT 9999 FEW030 01/M08 Q1013 RMK 1CU030 A2992;EQDQ01+000000PRSWM2
0169474905999992000120905004+42900+143170FM-15+0084RJCT V0203201N006212200019N0112651N1-00101-00801999999ADDGA1021+009009999GF102991999999999999999999MA1101291999999MW1001OC101131REMMET067RJCT 090500Z 32012G22KT 9999 FEW030 M01/M08 Q1013 RMK 1CU030 A2994;EQDQ01+000000PRSWM2
0210474905999992000120923004+42900+143170FM-15+0084RJCT V0203101N001510060019N0010001N1-00501-00801999999ADDGA1021+004509999GA2081+006009999GF108991999999999999999999MA1100311999999MW1851REMMET084RJCT 092300Z 31003KT 1000 -SHSN FEW015 OVC020 M05/M08 Q1003 RMK 2ST015 8CU020 A2963;EQDQ01+000003PRSWM1Q02    003PRSWM1
0210474905999992000120923164+42900+143170FM-16+0084RJCT V0202501N001010060019N0015001N1-00501-00701999999ADDGA1021+003609999GA2081+006009999GF108991999999999999999999MA1100311999999MW1851REMMET084RJCT 092316Z 25002KT 1500 -SHSN FEW012 OVC020 M05/M07 Q1003 RMK 2ST012 8CU020 A2963;EQDQ01+000003PRSWM1Q02    003PRSWM1
0209474905999992000120923354+42900+143170FM-16+0084RJCT V0202601N003110060019N0007001N1-00501-00701999999ADDGA1021+003609999GA2081+006009999GF108991999999999999999999MA1100411999999MW1861REMMET083RJCT 092335Z 26006KT 0700 SHSN SCT012 OVC020 M05/M07 Q1004 RMK 3ST012 8CU020 A2965;EQDQ01+000003PRSWM1Q02    003PRSWM1
0219474905999992000121000154+42900+143170FM-16+0084RJCT V0202401N001510060019N0020001N1-00301-00501999999ADDGA1021+004509999GA2081+006009999GF108991999999999999999999MA1100311999999MW1101MW2851REMMET087RJCT 100015Z 24003KT 2000 -SHSN BR FEW015 OVC020 M03/M05 Q1003 RMK 1ST015 8CU020 A2963;EQDQ01+000003PRSWM1Q02    003PRSWM1
0219474905999992000121001004+42900+143170FM-15+0084RJCT V0201901N001510060019N0040001N1-00201-00401999999ADDGA1021+005409999GA2081+006009999GF108991999999999999999999MA1100311999999MW1101MW2851REMMET087RJCT 100100Z 19003KT 4000 -SHSN BR SCT018 OVC020 M02/M04 Q1003 RMK 3SC018 8CU020 A2963;EQDQ01+000003PRSWM1Q02    003PRSWM1
0240474905999992000121001134+42900+143170FM-16+0084RJCT V0201901N001010060019N0080001N1-00101-00401999999ADDGA1021+004509999GA2071+006009999GA3081+021009999GF108991999999999999999999MA1100311999999MW1851REMMET098RJCT 100113Z 19002KT 8000 -SHSN FEW015 BKN020 OVC070 M01/M04 Q1003 RMK 1SC015 5CU020 8AC070 A2961;EQDQ01+000003PRSWM1Q02    003PRSWM1
0218474905999992000121001504+42900+143170FM-15+0084RJCT V0201301N001010060019N0112651N1+00001-00401999999ADDGA1021+004509999GA2071+006009999GA3081+024009999GF108991999999999999999999MA1100201999999MW1001REMMET092RJCT 100150Z 13002KT 9999 FEW015 BKN020 OVC080 M00/M04 Q1002 RMK 1SC015 5CU020 8AC080 A2959;EQDQ01+000000PRSWM2
0218474905999992000121002004+42900+143170FM-15+0084RJCT V02099999999990240019N0112651N1-00101-00401999999ADDGA1021+006009999GA2021+010509999GA3081+024009999GF108991999999999999999999MA1100201999999MW1001REMMET092RJCT 100200Z VRB01KT 9999 SCT020 SCT035 OVC080 M01/M04 Q1002 RMK 4CU020 3SC035 8AC080 A2959;EQDQ01+000000PRSWM2
0187474905999992000121003004+42900+143170FM-15+0084RJCT V02099999999990240019N0112651N1+00101-00401999999ADDGA1021+007509999GA2071+024009999GF107991999999999999999999MA1100101999999MW1001REMMET077RJCT 100300Z VRB03KT 9999 FEW025 BKN080 01/M04 Q1001 RMK 2SC025 7AC080 A2956;EQDQ01+000000PRSWM2
0158474905999992000121022004+42900+143170FM-15+0084RJCT V0202801N004612200019N0112651N1-00601-01101999999ADDGA1021+006009999GF102991999999999999999999MA1100101999999MW1001REMMET064RJCT 102200Z 28009KT 9999 FEW020 M06/M11 Q1001 RMK 1SC020 A2957;EQDQ01+000000PRSWM2
0207474905999992000121100004+42900+143170FM-15+0084RJCT V0203001N004612200019N0112651N1-00501-01301999999ADDGA1021+007509999GF102991999999999999999999MA1100201999999MW1001REMMET113RJCT 110000Z 30009KT 9999 FEW025 M05/M13 Q1002 RMK 2CU025 A2959 FCST 0009 BECMG 0001 31016G32KT TEMPO 0406 -SHSN;EQDQ01+000000PRSWM2
0158474905999992000121101004+42900+143170FM-15+0084RJCT V0203101N003112200019N0112651N1-00401-01301999999ADDGA1021+007509999GF104991999999999999999999MA1100201999999MW1001REMMET064RJCT 110100Z 31006KT 9999 SCT025 M04/M13 Q1002 RMK 4CU025 A2960;EQDQ01+000000PRSWM2
0136474905999992000121102004+42900+143170FM-15+0084RJCT V0202701N007212200019N0112651N1-00401-01701999999ADDGA1021+009009999GF104991999999999999999999MW1001OC101391REMMET049RJCT 110200Z 27014G27KT 9999 SCT030 M04/M17CONPP;EQDQ01+000000PRSWM2
0210474905999992000121104494+42900+143170FM-16+0084RJCT V0202901N007210105019N0112651N1-00601-01501999999ADDGA1021+009009999GA2071+010509999GF107991999999999999999999MA1099901999999MW1851REMMET084RJCT 110449Z 29014KT 9999 -SHSN SCT030 BKN035 M06/M15 Q0999 RMK 3CU030 5SC035 A2952;EQDQ01+000003PRSWM1Q02    003PRSWM1
0360474905999992000121105004+42900+143170FM-15+0084RJCT V0202801N006710105019N0112651N1-00601-01501999999ADDGA1021+009009999GA2071+010509999GF107991999999999999999999MA1099901999999MW1001REMMET250RJCT 110500Z 28013KT 9999 SCT030 BKN035 M06/M15 Q0999 RMK 3CU030 5SC035 A2952NLO PW012KT 8000 -SHSN FEW010 BKN025 02/M03 Q1007 RMK 1CU010 7CU025 A2975 VIS W-NW 6KM FCST 0511 TEMPO 0507 30015G25KT 4000 -SHSN BKN010CU BKN025CU TEMPO 0711 32018G30KT 200EQDQ01+000000PRSWM2
0199474905999992000121105344+42900+143170FM-16+0084RJCT V0202901N007712200019N0112651N1-00701-01601999999ADDGA1021+007509999GA2021+010509999GF104991999999999999999999MA1100001999999MW1001OC101341REMMET081RJCT 110534Z 29015G26KT 9999 SCT025 SCT035 M07/M16 Q1000 RMK 3CU025 4SC035 A2953;EQDQ01+000000PRSWM2
0220474905999992000121106004+42900+143170FM-15+0084RJCT V0202801N007712200019N0112651N1-00701-01601999999ADDGA1021+009009999GA2021+010509999GF104991999999999999999999MA1100001999999MW1001REMMET110RJCT 110600Z 28015KT 9999 FEW030 SCT035 M07/M16 Q1000 RMK 2CU030 3SC035 A2953 FCST 0615 TEMPO 0612 30012G25KT;EQDQ01+000000PRSWM2
0158474905999992000121107004+42900+143170FM-15+0084RJCT V0203201N002612200019N0112651N1-00801-01501999999ADDGA1021+007509999GF102991999999999999999999MA1100001999999MW1001REMMET064RJCT 110700Z 32005KT 9999 FEW025 M08/M15 Q1000 RMK 2CU025 A2954;EQDQ01+000000PRSWM2
0158474905999992000121122004+42900+143170FM-15+0084RJCT V0202901N004112200019N0112651N1-00801-01601999999ADDGA1021+009009999GF102991999999999999999999MA1100001999999MW1001REMMET064RJCT 112200Z 29008KT 9999 FEW030 M08/M16 Q1000 RMK 2CU030 A2954;EQDQ01+000000PRSWM2
0190474905999992000121123004+42900+143170FM-15+0084RJCT V0202801N004112200019N0112651N1-00801-01601999999ADDGA1021+009009999GF102991999999999999999999MA1100001999999MW1001REMMET096RJCT 112300Z 28008KT 9999 FEW030 M08/M16 Q1000 RMK 2CU030 A2955 FCST 2308 BECMG 0001 31014G30KT;EQDQ01+000000PRSWM2
0169474905999992000121123504+42900+143170FM-15+0084RJCT V0202601N006712200019N0112651N1-00601-01701999999ADDGA1021+009009999GF102991999999999999999999MA1100001999999MW1001OC101181REMMET067RJCT 112350Z 26013G23KT 9999 FEW030 M06/M17 Q1000 RMK 2CU030 A2955;EQDQ01+000000PRSWM2
0220474905999992000121203004+42900+143170FM-15+0084RJCT V0202901N006712200019N0112651N1-00501-01701999999ADDGA1021+006009999GA2021+009009999GF104991999999999999999999MA1099901999999MW1001REMMET110RJCT 120300Z 29013KT 9999 FEW020 SCT030 M05/M17 Q0999 RMK 2CU020 3SC030 A2951 FCST 0312 TEMPO 0309 31014G30KT;EQDQ01+000000PRSWM2
0218474905999992000121206004+42900+143170FM-15+0084RJCT V0202701N006712200019N0112651N1-00701-02001999999ADDGA1021+006009099GF102991999999999999999999MA1100001999999MW1001OC101231REMMET116RJCT 120600Z COR 27013G24KT 9999 FEW020CB M07/M20 Q1000 RMK 1CB020 A2955 CB 20KM W-N STONPPPPG8.2 +CMG 1012 30010KT;EQDQ01+000000PRSWM2
0158474905999992000121207004+42900+143170FM-15+0084RJCT V0202901N005712200019N0112651N1-00801-01901999999ADDGA1021+006009999GF102991999999999999999999MA1100101999999MW1001REMMET064RJCT 120700Z 29011KT 9999 FEW020 M08/M19 Q1001 RMK 1CU020 A2956;EQDQ01+000000PRSWM2
0204474905999992000121208004+42900+143170FM-15+0084RJCT V0202801N004112200019N0112651N1-00801-01901999999ADDGA1021+006009999GA2021+010509999GF104991999999999999999999MA1100101999999MW1001REMMET094RJCT 120800Z 28008KT 9999 FEW020 SCT035 M08/M19 Q1001 RMK 1CU020 3CU035 A2958 FCST 0817 NOSIG;EQDQ01+000000PRSWM2
0065474905999992000121209004+42900+143170FM-15+0084RJCT V0202901N004112200019N0112651N1+99999+99999999999ADDMW1001REMMET028RJCT 120900Z 29008KTPOOOOG8;EQDQ01+000000PRSWM2
0158474905999992000121222004+42900+143170FM-15+0084RJCT V0201901N001012200019N0112651N1-01101-01601999999ADDGA1021+009009999GF102991999999999999999999MA1100911999999MW1001REMMET064RJCT 122200Z 19002KT 9999 FEW030 M11/M16 Q1009 RMK 1CU030 A2980;EQDQ01+000000PRSWM2
0190474905999992000121300004+42900+143170FM-15+0084RJCT V0201701N001512200019N0112651N1-00501-01501999999ADDGA1021+009009999GF102991999999999999999999MA1101081999999MW1001REMMET096RJCT 130000Z 17003KT 9999 FEW030 M05/M15 Q1011 RMK 1CU030 A2986 FCST 0009 TEMPO 0105 29010G20KT;EQDQ01+000000PRSWM2
0158474905999992000121301004+42900+143170FM-15+0084RJCT V0203001N001512200019N0112651N1-00501-01501999999ADDGA1021+009009999GF102991999999999999999999MA1101081999999MW1001REMMET064RJCT 130100Z 30003KT 9999 FEW030 M05/M15 Q1011 RMK 1CU030 A2986;EQDQ01+000000PRSWM2
0158474905999992000121302004+42900+143170FM-15+0084RJCT V0202301N002112200019N0112651N1-00301-01501999999ADDGA1021+009009999GF102991999999999999999999MA1101081999999MW1001REMMET064RJCT 130200Z 23004KT 9999 FEW030 M03/M15 Q1011 RMK 1CU030 A2986;EQDQ01+000000PRSWM2
0174474905999992000121303004+42900+143170FM-15+0084RJCT V0202901N006712200019N0112651N1-00301-01501999999ADDGA1021+009009999GF102991999999999999999999MA1101081999999MW1001REMMET080RJCT 130300Z 29013KT 9999 FEW030 M03/M15 Q1011 RMK 1CU030 A2986 FCST 0312 NOSIG;EQDQ01+000000PRSWM2
0158474905999992000121305004+42900+143170FM-15+0084RJCT V0203101N006212200019N0112651N1-00301-01501999999ADDGA1021+009009999GF102991999999999999999999MA1101191999999MW1001REMMET064RJCT 130500Z 31012KT 9999 FEW030 M03/M15 Q1012 RMK 1CU030 A2988;EQDQ01+000000PRSWM2
0190474905999992000121306004+42900+143170FM-15+0084RJCT V0203101N005112200019N0112651N1-00401-01401999999ADDGA1021+009009999GF102991999999999999999999MA1101291999999MW1001REMMET096RJCT 130600Z 31010KT 9999 FEW030 M04/M14 Q1013 RMK 1CU030 A2992 FCST 0615 TEMPO 0608 32010G20KT;EQDQ01+000000PRSWM2
0158474905999992000121307004+42900+143170FM-15+0084RJCT V0203201N003112200019N0112651N1-00501-01401999999ADDGA1021+009009999GF102991999999999999999999MA1101391999999MW1001REMMET064RJCT 130700Z 32006KT 9999 FEW030 M05/M14 Q1014 RMK 1CU030 A2994;EQDQ01+000000PRSWM2
0166474905999992000121308004+42900+143170FM-15+0084RJCT V0203001N004112200019N0112651N1-00601-01401999999ADDGA1021+009009999GF102991999999999999999999MA1101391999999MW1001REMMET072RJCT 130800Z 30008KT 9999 FEW030 M06/M14 Q1014 RMK 1CU030 A2996 FCSP8PO;EQDQ01+000000PRSWM2
0158474905999992000121322004+42900+143170FM-15+0084RJCT V02099999999992200019N0112651N1-01901-02201999999ADDGA1021+009009999GF102991999999999999999999MA1101691999999MW1001REMMET064RJCT 132200Z VRB01KT 9999 FEW030 M19/M22 Q1017 RMK 1SC030 A3005;EQDQ01+000000PRSWM2
0166474905999992000121323004+42900+143170FM-15+0084RJCT V0200201N001012200019N0112651N1-01501-01801999999ADDGA1021+009009999GF102991999999999999999999MA1101801999999MW1001REMMET072RJCT 132300Z 02002KT 9999 FEW030 M15/M18 Q1018 PPPPM007 FCST 2308 NOSIG;EQDQ01+000000PRSWM2
0174474905999992000121400004+42900+143170FM-15+0084RJCT V0209999C000012200019N0112651N1-01101-01601999999ADDGA1021+010509999GF102991999999999999999999MA1101801999999MW1001REMMET080RJCT 140000Z 00000KT 9999 FEW035 M11/M16 Q1018 RMK 1CU035 A3006 FCST 0009 NOSIG;EQDQ01+000000PRSWM2
0158474905999992000121401004+42900+143170FM-15+0084RJCT V0201501N001012200019N0112651N1-00801-01601999999ADDGA1021+010509999GF102991999999999999999999MA1101691999999MW1001REMMET064RJCT 140100Z 15002KT 9999 FEW035 M08/M16 Q1017 RMK 1CU035 A3005;EQDQ01+000000PRSWM2
0158474905999992000121402004+42900+143170FM-15+0084RJCT V0202201N000512200019N0112651N1-00501-01401999999ADDGA1021+010509999GF102991999999999999999999MA1101591999999MW1001REMMET064RJCT 140200Z 22001KT 9999 FEW035 M05/M14 Q1016 RMK 1CU035 A3002;EQDQ01+000000PRSWM2
0157474905999992000121404004+42900+143170FM-15+0084RJCT V02099999999992200019N0112651N1+00101-01301999999ADDGA1021+010509999GF102991999999999999999999MA1101491999999MW1001REMMET063RJCT 140400Z VRB01KT 9999 FEW035 01/M13 Q1015 RMK 1CU035 A2997;EQDQ01+000000PRSWM2
0174474905999992000121406004+42900+143170FM-15+0084RJCT V0201401N002112200019N0112651N1-00101-01301999999ADDGA1021+009009999GF102991999999999999999999MA1101491999999MW1001REMMET080RJCT 140600Z 14004KT 9999 FEW030 M01/M13 Q1015 RMK 1CU030 A2997 FCST 0615 NOSIG;EQDQ01+000000PRSWM2
0158474905999992000121407004+42900+143170FM-15+0084RJCT V0202001N001012200019N0112651N1-00201-01301999999ADDGA1021+007509999GF102991999999999999999999MA1101491999999MW1001REMMET064RJCT 140700Z 20002KT 9999 FEW025 M02/M13 Q1015 RMK 1CU025 A2997;EQDQ01+000000PRSWM2
0174474905999992000121408004+42900+143170FM-15+0084RJCT V0201501N001012200019N0112651N1-00501-01301999999ADDGA1021+007509999GF102991999999999999999999MA1101491999999MW1001REMMET080RJCT 140800Z 15002KT 9999 FEW025 M05/M13 Q1015 RMK 1CU025 A2997 FCST 0817 NOSIG;EQDQ01+000000PRSWM2
0174474905999992000121423004+42900+143170FM-15+0084RJCT V0202901N002612200019N0112651N1-01201-01501999999ADDGA1021+009009999GF102991999999999999999999MA1101901999999MW1001REMMET080RJCT 142300Z 29005KT 9999 FEW030 M12/M15 Q1019 RMK 1SC030 A3011 FCST 2308 NOSIG;EQDQ01+000000PRSWM2
0174474905999992000121500004+42900+143170FM-15+0084RJCT V0203001N002112200019N0112651N1-00202-01101999999ADDGA1021+009009999GF102991999999999999999999MA1101901999999MW1001REMMET080RJCT 150000Z 30004KT 9999 FEW030 M02/M11 Q1019 RMK 1CU030 A3011 FCST 0009 NOSIG;EQDQ01+000000PRSWM2
0158474905999992000121501004+42900+143170FM-15+0084RJCT V0201301N001512200019N0112651N1-00301-01201999999ADDGA1021+009009999GF102991999999999999999999MA1101901999999MW1001REMMET064RJCT 150100Z 13003KT 9999 FEW030 M03/M12 Q1019 RMK 1CU030 A3011;EQDQ01+000000PRSWM2
0157474905999992000121502004+42900+143170FM-15+0084RJCT V0201601N001512200019N0112651N1+00001-01001999999ADDGA1021+010509999GF102991999999999999999999MA1101801999999MW1001REMMET063RJCT 150200Z 16003KT 9999 FEW035 00/M10 Q1018 RMK 1CU035 A3007;EQDQ01+000000PRSWM2
0173474905999992000121503004+42900+143170FM-15+0084RJCT V0203201N002612200019N0112651N1+00201-01001999999ADDGA1021+010509999GF102991999999999999999999MA1101691999999MW1001REMMET079RJCT 150300Z 32005KT 9999 FEW035 02/M10 Q1017 RMK 1CU035 A3005 FCST 0312 NOSIG;EQDQ01+000000PRSWM2
0157474905999992000121504004+42900+143170FM-15+0084RJCT V0202901N001012200019N0112651N1+00201-01001999999ADDGA1021+010509999GF102991999999999999999999MA1101691999999MW1001REMMET063RJCT 150400Z 29002KT 9999 FEW035 02/M10 Q1017 RMK 1CU035 A3003;EQDQ01+000000PRSWM2
0157474905999992000121505004+42900+143170FM-15+0084RJCT V0201401N003612200019N0112651N1+00101-01001999999ADDGA1021+010509999GF102991999999999999999999MA1101591999999MW1001REMMET063RJCT 150500Z 14007KT 9999 FEW035 01/M10 Q1016 RMK 1CU035 A3002;EQDQ01+000000PRSWM2
0175474905999992000121506004+42900+143170FM-15+0084RJCT V0201801N001512200019N0112651N1+00001-01101999999ADDGA1021+010509999GF102991999999999999999999MA1101691999999MW1001REMMET081RJCT 150600Z 18003KT 9999 FEW035 00/M11 Q1017 RMK 1CU035 A388NPPPP,ST 0615 NOSIG;EQDQ01+000000PRSWM2
0228474905999992000121508004+42900+143170FM-15+0084RJCT V0201901N001012200019N0112651N1-00601-01101999999ADDGA1021+010509999GF102991999999999999999999MA1101591999999MW1001REMMET134RJCT 150800Z 19002KT 9999 FEW035 M06/M11 Q1016 RMK 1CU035 A3003 FCST 0817 BECMG 1112 SCT035CU BKN100AC BECMG 1617 3000 -SHSN BKN025CU;EQDQ01+000000PRSWM2
0158474905999992000121722004+42900+143170FM-15+0084RJCT V02099999999992200019N0112651N1-01601-01901999999ADDGA1021+012009999GF102991999999999999999999MA1102401999999MW1001REMMET064RJCT 172200Z VRB01KT 9999 FEW040 M16/M19 Q1024 RMK 1SC040 A3025;EQDQ01+000000PRSWM2
0174474905999992000121723004+42900+143170FM-15+0084RJCT V02099999999992200019N0112651N1-01401-01801999999ADDGA1021+012009999GF102991999999999999999999MA1102401999999MW1001REMMET080RJCT 172300Z VRB02KT 9999 FEW040 M14/M18 Q1024 RMK 1SC040 A3026 FCST 2308 NOSIG;EQDQ01+000000PRSWM2
0174474905999992000121800004+42900+143170FM-15+0084RJCT V0202001N001012200019N0112651N1-00801-01501999999ADDGA1021+012009999GF102991999999999999999999MA1102511999999MW1001REMMET080RJCT 180000Z 20002KT 9999 FEW040 M08/M15 Q1025 RMK 1CU040 A3026 FCST 0009 NOSIG;EQDQ01+000000PRSWM2
0158474905999992000121801004+42900+143170FM-15+0084RJCT V02099999999992200019N0112651N1-00501-01301999999ADDGA1021+010509999GF102991999999999999999999MA1102401999999MW1001REMMET064RJCT 180100Z VRB01KT 9999 FEW035 M05/M13 Q1024 RMK 1CU035 A3026;EQDQ01+000000PRSWM2
0158474905999992000121802004+42900+143170FM-15+0084RJCT V02099999999992200019N0112651N1-00101-01101999999ADDGA1021+010509999GF102991999999999999999999MA1102401999999MW1001REMMET064RJCT 180200Z VRB01KT 9999 FEW035 M01/M11 Q1024 RMK 1CU035 A3024;EQDQ01+000000PRSWM2
0173474905999992000121803004+42900+143170FM-15+0084RJCT V02099999999992200019N0112651N1+00101-01101999999ADDGA1021+010509999GF102991999999999999999999MA1102201999999MW1001REMMET079RJCT 180300Z VRB02KT 9999 FEW035 01/M11 Q1022 RMK 1CU035 A3020 FCST 0312 NOSIG;EQDQ01+000000PRSWM2
0157474905999992000121804004+42900+143170FM-15+0084RJCT V0201201N001012200019N0112651N1+00201-01001999999ADDGA1021+010509999GF102991999999999999999999MA1102201999999MW1001REMMET063RJCT 180400Z 12002KT 9999 FEW035 02/M10 Q1022 RMK 1CU035 A3018;EQDQ01+000000PRSWM2
0157474905999992000121805004+42900+143170FM-15+0084RJCT V0201401N001012200019N0112651N1+00101-01001999999ADDGA1021+010509999GF102991999999999999999999MA1102101999999MW1001REMMET063RJCT 180500Z 14002KT 9999 FEW035 01/M10 Q1021 RMK 1CU035 A3017;EQDQ01+000000PRSWM2
0174474905999992000121806004+42900+143170FM-15+0084RJCT V0201501N001512200019N0112651N1+00001-01101999999ADDGA1021+010509999GF102991999999999999999999MA1102201999999MW1001REMMET080RJCT 180600Z 15003KT 9999 FEW035 M00/M11 Q1022 RMK 1CU035 A3018 FCST 0615 NOSIG;EQDQ01+000000PRSWM2
0158474905999992000121807004+42900+143170FM-15+0084RJCT V0201601N001012200019N0112651N1-00301-01101999999ADDGA1021+009009999GF102991999999999999999999MA1102201999999MW1001REMMET064RJCT 180700Z 16002KT 9999 FEW030 M03/M11 Q1022 RMK 1CU030 A3020;EQDQ01+000000PRSWM2
0174474905999992000121808004+42900+143170FM-15+0084RJCT V0203201N001012200019N0112651N1-00501-01101999999ADDGA1021+009009999GF102991999999999999999999MA1102201999999MW1001REMMET080RJCT 180800Z 32002KT 9999 FEW030 M05/M11 Q1022 RMK 1CU030 A3020 FCST 0817 NOSIG;EQDQ01+000000PRSWM2
0208474905999992000121822274+42900+143170FM-16+0084RJCT V0202401N001010090019N0030001N1-00801-01001999999ADDGA1021+003009999GA2081+009009999GF108991999999999999999999MA1101591999999MW1711REMMET082RJCT 182227Z 24002KT 3000 -SN FEW010 OVC030 M08/M10 Q1016 RMK 2ST010 8NS030 A3001;EQDQ01+000003PRSWM1Q02    003PRSWM1
0237474905999992000121822424+42900+143170FM-16+0084RJCT V0209999C000010030019N0009001N1-00701-01001999999ADDGA1021+001509999GA2071+003009999GA3081+009009999GF108991999999999999999999MA1101591999999MW1731REMMET095RJCT 182242Z 00000KT 0900 SN FEW005 BKN010 OVC030 M07/M10 Q1016 RMK 1ST005 5ST010 8NS030 A3001;EQDQ01+000003PRSWM1Q02    003PRSWM1
0288474905999992000121823004+42900+143170FM-15+0084RJCT V0209999C000010030019N0009001N1-00701-00901999999ADDGA1021+001509999GA2071+003009999GA3081+009009999GF108991999999999999999999MA1101591999999MW1731REMMET146RJCT 182300Z 00000KT 0900 SN FEW005 BKN010 OVC030 M07/M09 Q1016 RMK 1ST005 5ST010 8NS030 A3002 FCST 2308 BECMG 2300 2000 TEMPO 0008 1000 BKN008ST;EQDQ01+000003PRSWM1Q02    003PRSWM1
0236474905999992000121903004+42900+143170FM-15+0084RJCT V0202701N003610009019N0005001N1-00501-00601999999ADDGA1081+000909999GF108991999999999999999999MA1100712999999MW1731REMMET110RJCT 190300Z COR 27007KT 0500 SN OVC003 M05/M06 Q1007 RMK 8ST003 A2975 P/FR FCST 0312 BECMG 1112 NSW BKN020CU;EQDQ01+100713APOA  Q02+000003PRSWM1Q03    003PRSWM1
0169474905999992000121904004+42900+143170FM-15+0084RJCT V0202901N00311000151CN0004001N1-00401-00501999999ADDGA1091+000159999GF109991999999000251999999MA1100511999999MW1731REMMET059RJCT 190400Z 29006KT 0400 SN VV002 M04/M05 Q1005 RMK A2969;EQDQ01+000003PRSWM1Q02    003PRSWM1
0169474905999992000121905004+42900+143170FM-15+0084RJCT V0203101N00211000151CN0005001N1-00201-00401999999ADDGA1091+000159999GF109991999999000251999999MA1100311999999MW1731REMMET059RJCT 190500Z 31004KT 0500 SN VV003 M02/M04 Q1003 RMK A2964;EQDQ01+000003PRSWM1Q02    003PRSWM1
0203474905999992000121906004+42900+143170FM-15+0084RJCT V0203001N00211000151CN0008001N1-00201-00301999999ADDGA1091+000159999GF109991999999000251999999MA1100311999999MW1731REMMET093RJCT 190600Z 30004KT 0800 SN VV004 M02/M03 Q1003 RMK A2963 FCST 0615 BECMG 1213 NSW BKN020CU;EQDQ01+000003PRSWM1Q02    003PRSWM1
0203474905999992000121908004+42900+143170FM-15+0084RJCT V0202901N00151000151CN0005001N1-00101-00301999999ADDGA1091+000159999GF109991999999000251999999MA1100311999999MW1731REMMET093RJCT 190800Z 29003KT 0500 SN VV003 M01/M03 Q1003 RMK A2964 FCST 0817 BECMG 1213 NSW BKN020CU;EQDQ01+000003PRSWM1Q02    003PRSWM1
0158474905999992000121922004+42900+143170FM-15+0084RJCT V0202001N001012200019N0112651N1-01401-01601999999ADDGA1021+054009999GF104991999999999999999999MA1102201999999MW1001REMMET064RJCT 192200Z 20002KT 9999 SCT180 M14/M16 Q1022 RMK 3CI180 A3019;EQDQ01+000000PRSWM2
0174474905999992000121923004+42900+143170FM-15+0084RJCT V0201301N001012200019N0112651N1-01301-01601999999ADDGA1021+066009999GF104991999999999999999999MA1102201999999MW1001REMMET080RJCT 192300Z 13002KT 9999 SCT220 M13/M16 Q1022 RMK 3CI220 A3020 FCST 2308 NOSIG;EQDQ01+000000PRSWM2
0188474905999992000122001004+42900+143170FM-15+0084RJCT V0209999C000010660019N0112651N1-00801-01101999999ADDGA1021+054009999GA2071+066009999GF107991999999999999999999MA1102301999999MW1001REMMET078RJCT 200100Z 00000KT 9999 SCT180 BKN220 M08/M11 Q1023 RMK 3AC180 5CI220 A3022;EQDQ01+000000PRSWM2
0158474905999992000122002004+42900+143170FM-15+0084RJCT V0203601N000510540019N0112651N1-00601-01001999999ADDGA1081+054009999GF108991999999999999999999MA1102201999999MW1001REMMET064RJCT 200200Z 36001KT 9999 OVC180 M06/M10 Q1022 RMK 8AC180 A3019;EQDQ01+000000PRSWM2
0188474905999992000122004004+42900+143170FM-15+0084RJCT V02099999999990240019N0112651N1-00401-00901999999ADDGA1021+009009999GA2071+024009999GF107991999999999999999999MA1102101999999MW1001REMMET078RJCT 200400Z VRB01KT 9999 FEW030 BKN080 M04/M09 Q1021 RMK 2SC030 5AC080 A3015;EQDQ01+000000PRSWM2
0218474905999992000122005004+42900+143170FM-15+0084RJCT V0203101N001010240019N0112651N1-00401-00801999999ADDGA1021+006009999GA2021+012009999GA3071+024009999GF107991999999999999999999MA1102001999999MW1001REMMET092RJCT 200500Z 31002KT 9999 FEW020 SCT040 BKN080 M04/M08 Q1020 RMK 2SC020 3SC040 7AC080 A3014;EQDQ01+000000PRSWM2
0218474905999992000122005324+42900+143170FM-16+0084RJCT V0203101N001010060019N0112651N1-00401-00801999999ADDGA1071+006009999GA2071+012009999GA3081+024009999GF108991999999999999999999MA1102101999999MW1001REMMET092RJCT 200532Z 31002KT 9999 BKN020 BKN040 OVC080 M04/M08 Q1021 RMK 5SC020 6SC040 8AC080 A3015;EQDQ01+000000PRSWM2
0257474905999992000122006004+42900+143170FM-15+0084RJCT V0209999C000010240019N0112651N1-00401-00801999999ADDGA1021+006009999GA2021+012009999GA3071+024009999GF107991999999999999999999MA1102001999999MW1001REMMET131RJCT 200600Z 00000KT 9999 SCT020 SCT040 BKN080 M04/M08 Q1020 RMK 3SC020 4SC040 7AC080 A3014 FCST 0615 BECMG 0608 BKN020SC OVC040SC;EQDQ01+000000PRSWM2
0237474905999992000122007004+42900+143170FM-15+0084RJCT V0202701N000510054019N0050001N1-00501-00801999999ADDGA1071+005409999GA2071+012009999GA3071+024009999GF107991999999999999999999MA1102001999999MW1101REMMET095RJCT 200700Z 27001KT 5000 BR BKN018 BKN040 BKN080 M05/M08 Q1020 RMK 5SC018 6SC040 7AC080 A3014;EQDQ01+000003PRSWM1Q02    003PRSWM1
0208474905999992000122022004+42900+143170FM-15+0084RJCT V0202801N001510024019N0010001N1-00401-00501999999ADDGA1071+002409999GA2081+003009999GF108991999999999999999999MA1100311999999MW1711REMMET082RJCT 202200Z 28003KT 1000 -SN BKN008 OVC010 M04/M05 Q1003 RMK 6ST008 8ST010 A2962;EQDQ01+000003PRSWM1Q02    003PRSWM1
0169474905999992000122022124+42900+143170FM-16+0084RJCT V0202701N00151000151CN0006001N1-00401-00501999999ADDGA1091+000159999GF109991999999000251999999MA1100201999999MW1731REMMET059RJCT 202212Z 27003KT 0600 SN VV005 M04/M05 Q1002 RMK A2960;EQDQ01+000003PRSWM1Q02    003PRSWM1
0243474905999992000122022334+42900+143170FM-16+0084RJCT V0202801N001510024019N0012001N1-00401-00501999999ADDGA1021+001209999GA2071+002409999GA3081+004509999GF108991999999999999999999MA1100101999999MW1711REMMET101RJCT 202233Z 28003KT 1200 -SN FEW004 BKN008 OVC015 M04/M05 Q1001 RESN RMK 2ST004 6ST008 8ST015 A2958;EQDQ01+000003PRSWM1Q02    003PRSWM1
0288474905999992000122023004+42900+143170FM-15+0084RJCT V0202801N002110024019N0011001N1-00301-00501999999ADDGA1021+001209999GA2071+002409999GA3081+004509999GF108991999999999999999999MA1100101999999MW1711REMMET146RJCT 202300Z 28004KT 1100 -SN FEW004 BKN008 OVC015 M03/M05 Q1001 RESN RMK 2ST004 6ST008 8ST015 A2958 FCST 2308 BECMG 0406 31016G30KT NSW SCT030CU;EQDQ01+000003PRSWM1Q02    003PRSWM1
0238474905999992000122101004+42900+143170FM-15+0084RJCT V0202801N002610024019N0014001N1-00201-00401999999ADDGA1021+001509999GA2071+002409999GA3081+004509999GF108991999999999999999999MA1099901999999MW1711REMMET096RJCT 210100Z 28005KT 1400 -SN FEW005 BKN008 OVC015 M02/M04 Q0999 RMK 1ST005 6ST008 8ST015 A2951;EQDQ01+000003PRSWM1Q02    003PRSWM1
0169474905999992000122101484+42900+143170FM-16+0084RJCT V0202801N00311000151CN0005001N1-00101-00201999999ADDGA1091+000159999GF109991999999000251999999MA1099801999999MW1731REMMET059RJCT 210148Z 28006KT 0500 SN VV005 M01/M02 Q0998 RMK A2947;EQDQ01+000003PRSWM1Q02    003PRSWM1
0245474905999992000122102064+42900+143170FM-16+0084RJCT V0202901N001510060019N0012001N1+00001-00201999999ADDGA1021+001509999GA2021+002409999GA3071+006009999GF107991999999999999999999MA1099701999999MW1851REMMET103RJCT 210206Z 29003KT 1200 -SHSN FEW005 SCT008 BKN020 M00/M02 Q0997 RESN RMK 1ST005 3ST008 5CU020 A2945;EQDQ01+000003PRSWM1Q02    003PRSWM1
0216474905999992000122102144+42900+143170FM-16+0084RJCT V0202501N001012200019N0017001N1+00101-00101999999ADDGA1021+000909999GA2021+006009999GF104991999999999999999999MA1099701999999MW1711REMMET090RJCT COR 210214Z 25002KT 1700 -SN FEW003 SCT020 01/M01 Q0997 RESN RMK 1ST003 3CU020 A2945;EQDQ01+000003PRSWM1Q02    003PRSWM1
0181474905999992000122102254+42900+143170FM-15+0084RJCT V0202401N001012200019N0050001N1+00201-00101999999ADDGA1021+000909999GF102991999999999999999999MA1099701999999MW1101REMMET071RJCT 210225Z 24002KT 5000 BR FEW003 02/M01 Q0997 RESN RMK 1ST003 A2944;EQDQ01+000003PRSWM1Q02    003PRSWM1
0209474905999992000122104424+42900+143170FM-16+0084RJCT V0202001N002610075019N0080001N1+00101-00201999999ADDGA1021+002109999GA2081+007509999GF108991999999999999999999MA1099491999999MW1851REMMET083RJCT 210442Z 20005KT 8000 -SHSN FEW007 OVC025 01/M02 Q0995 RMK 1ST007 8CU025 A2939;EQDQ01+000003PRSWM1Q02    003PRSWM1
0209474905999992000122105004+42900+143170FM-15+0084RJCT V0201701N002610090019N0112651N1+00101-00201999999ADDGA1021+002409999GA2071+009009999GF107991999999999999999999MA1099491999999MW1851REMMET083RJCT 210500Z 17005KT 9999 -SHSN FEW008 BKN030 01/M02 Q0995 RMK 1ST008 7CU030 A2939;EQDQ01+000003PRSWM1Q02    003PRSWM1
0241474905999992000122106004+42900+143170FM-15+0084RJCT V02099999999992200019N0112651N1+00101-00301999999ADDGA1021+002409999GA2021+009009999GF104991999999999999999999MA1099491999999MW1851REMMET115RJCT 210600Z VRB02KT 9999 -SHSN FEW008 SCT030 01/M03 Q0995 RMK 1ST008 4CU030 A2938 FCST 0615 BECMG 0708 31016G30KT;EQDQ01+000003PRSWM1Q02    003PRSWM1
0188474905999992000122107004+42900+143170FM-15+0084RJCT V0202301N003612200019N0112651N1-00101-00301999999ADDGA1021+002409999GA2021+009009999GF104991999999999999999999MA1099491999999MW1001REMMET078RJCT 210700Z 23007KT 9999 FEW008 SCT030 M01/M03 Q0995 RMK 1ST008 3CU030 A2940;EQDQ01+000000PRSWM2
0220474905999992000122107464+42900+143170FM-16+0084RJCT V0202701N008210090019N0112651N1+00101-00301999999ADDGA1021+002409999GA2071+009009999GF107991999999999999999999MA1099591999999MW1851OC101651REMMET086RJCT 210746Z 27016G32KT 9999 -SHSN SCT008 BKN030 01/M03 Q0996 RMK 3ST008 6CU030 A2943;EQDQ01+000003PRSWM1Q02    003PRSWM1
0284474905999992000122108004+42900+143170FM-15+0084RJCT V0202701N008710090019N0070001N1+00101-00201999999ADDGA1021+002409999GA2021+007509999GA3071+009009999GF107991999999999999999999MA1099591999999MW1851OC101391REMMET134RJCT 210800Z 27017G27KT 7000 -SHSN FEW008 SCT025 BKN030 01/M02 Q0996 RMK 1ST008 4SC025 5CU030 A2943 FCST 0817 BECMG 1011 NSW SCT030CU;EQDQ01+000003PRSWM1Q02    003PRSWM1
0158474905999992000122122004+42900+143170FM-15+0084RJCT V0203101N003112200019N0112651N1-00601-01401999999ADDGA1021+009009999GF102991999999999999999999MA1101081999999MW1001REMMET064RJCT 212200Z 31006KT 9999 FEW030 M06/M14 Q1011 RMK 2SC030 A2986;EQDQ01+000000PRSWM2
0190474905999992000122123004+42900+143170FM-15+0084RJCT V0203001N007212200019N0112651N1-00501-01401999999ADDGA1021+009009999GF104991999999999999999999MA1101191999999MW1001REMMET096RJCT 212300Z 30014KT 9999 SCT030 M05/M14 Q1012 RMK 3SC030 A2989 FCST 2308 TEMPO 2305 30015G25KT;EQDQ01+000000PRSWM2
0169474905999992000122123464+42900+143170FM-16+0084RJCT V0203101N007212200019N0112651N1-00401-01401999999ADDGA1021+009009999GF102991999999999999999999MA1101291999999MW1001OC101291REMMET067RJCT 212346Z 31014G25KT 9999 FEW030 M04/M14 Q1013 RMK 2SC030 A2993;EQDQ01+000000PRSWM2
0158474905999992000122201004+42900+143170FM-15+0084RJCT V0203001N008212200019N0112651N1-00301-01301999999ADDGA1021+007509999GF102991999999999999999999MA1101391999999MW1001REMMET064RJCT 220100Z 30016KT 9999 FEW025 M03/M13 Q1014 RMK 1CU025 A2995;EQDQ01+000000PRSWM2
0158474905999992000122202004+42900+143170FM-15+0084RJCT V0202901N007212200019N0112651N1-00201-01301999999ADDGA1021+007509999GF102991999999999999999999MA1101391999999MW1001REMMET064RJCT 220200Z 29014KT 9999 FEW025 M02/M13 Q1014 RMK 2CU025 A2996;EQDQ01+000000PRSWM2
0169474905999992000122204004+42900+143170FM-15+0084RJCT V0203001N007712200019N0112651N1-00201-01301999999ADDGA1021+007509999GF102991999999999999999999MA1101391999999MW1001OC101441REMMET067RJCT 220400Z 30015G28KT 9999 FEW025 M02/M13 Q1014 RMK 1CU025 A2996;EQDQ01+000000PRSWM2
0198474905999992000122206004+42900+143170FM-15+0084RJCT V0203101N006712200019N0112651N1-00201-01401999999ADDGA1021+009009999GF102991999999999999999999MA1101591999999MW1001OC101181REMMET096RJCT 220600Z 31013G23KT 9999 FEW030 M02/M14 Q1016 RMK 1CU030 A3002 FCST 0615 BECMG 0708 31010KT;EQDQ01+000000PRSWM2
0158474905999992000122207004+42900+143170FM-15+0084RJCT V0203001N004612200019N0112651N1-00401-01401999999ADDGA1021+009009999GF102991999999999999999999MA1101691999999MW1001REMMET064RJCT 220700Z 30009KT 9999 FEW030 M04/M14 Q1017 RMK 1CU030 A3004;EQDQ01+000000PRSWM2
0158474905999992000122422004+42900+143170FM-15+0084RJCT V0202401N001512200019N0112651N1-01001-01501999999ADDGA1021+007509999GF102991999999999999999999MA1100511999999MW1001REMMET064RJCT 242200Z 24003KT 9999 FEW025 M10/M15 Q1005 RMK 1CU025 A2969;EQDQ01+000000PRSWM2
0174474905999992000122423004+42900+143170FM-15+0084RJCT V0201301N000512200019N0112651N1-01201-01601999999ADDGA1021+007509999GF102991999999999999999999MA1100611999999MW1001REMMET080RJCT 242300Z 13001KT 9999 FEW025 M12/M16 Q1006 RMK 1CU025 A2970 FCST 2308 NOSIG;EQDQ01+000000PRSWM2
0174474905999992000122500004+42900+143170FM-15+0084RJCT V0202701N004112200019N0112651N1-00501-01301999999ADDGA1021+009009999GF102991999999999999999999MA1100611999999MW1001REMMET080RJCT 250000Z 27008KT 9999 FEW030 M05/M13 Q1006 RMK 1CU030 A2971 FCST 0009 NOSIG;EQDQ01+000000PRSWM2
0158474905999992000122501004+42900+143170FM-15+0084RJCT V0202601N006712200019N0112651N1-00301-01401999999ADDGA1021+010509999GF102991999999999999999999MA1100511999999MW1001REMMET064RJCT 250100Z 26013KT 9999 FEW035 M03/M14 Q1005 RMK 1CU035 A2970;EQDQ01+000000PRSWM2
0158474905999992000122502004+42900+143170FM-15+0084RJCT V0202601N005112200019N0112651N1-00201-01401999999ADDGA1021+010509999GF102991999999999999999999MA1100411999999MW1001REMMET064RJCT 250200Z 26010KT 9999 FEW035 M02/M14 Q1004 RMK 1CU035 A2966;EQDQ01+000000PRSWM2
0158474905999992000122505004+42900+143170FM-15+0084RJCT V0202901N005112200019N0112651N1-00201-01401999999ADDGA1021+010509999GF102991999999999999999999MA1100311999999MW1001REMMET064RJCT 250500Z 29010KT 9999 FEW035 M02/M14 Q1003 RMK 1CU035 A2961;EQDQ01+000000PRSWM2
0158474905999992000122507004+42900+143170FM-15+0084RJCT V0202601N003112200019N0112651N1-00601-01501999999ADDGA1021+010509999GF102991999999999999999999MA1100311999999MW1001REMMET064RJCT 250700Z 26006KT 9999 FEW035 M06/M15 Q1003 RMK 1CU035 A2962;EQDQ01+000000PRSWM2
0174474905999992000122508004+42900+143170FM-15+0084RJCT V0201101N001512200019N0112651N1-01001-01601999999ADDGA1021+009009999GF102991999999999999999999MA1100311999999MW1001REMMET080RJCT 250800Z 11003KT 9999 FEW030 M10/M16 Q1003 RMK 1CU030 A2962 FCST 0817 NOSIG;EQDQ01+000000PRSWM2
0158474905999992000122522004+42900+143170FM-15+0084RJCT V0202501N003612200019N0112651N1-01101-01701999999ADDGA1021+006009999GF102991999999999999999999MA1100101999999MW1001REMMET064RJCT 252200Z 25007KT 9999 FEW020 M11/M17 Q1001 RMK 1SC020 A2956;EQDQ01+000000PRSWM2
0212474905999992000122523004+42900+143170FM-15+0084RJCT V0202401N002612200019N0112651N1-01101-01901999999ADDGA1021+006009999GF102991999999999999999999MA1100101999999MW1001REMMET118RJCT 252300Z 24005KT 9999 FEW020 M11/M19 Q1001 RMK 1CU020 A2956 FCST 2308 TEMPO 0106 27015G25KT TEMPO 0608 32020G30KT;EQDQ01+000000PRSWM2
0212474905999992000122600004+42900+143170FM-15+0084RJCT V0202701N003112200019N0112651N1-00801-01801999999ADDGA1021+006009999GF102991999999999999999999MA1100101999999MW1001REMMET118RJCT 260000Z 27006KT 9999 FEW020 M08/M18 Q1001 RMK 1CU020 A2957 FCST 0009 TEMPO 0206 27015G25KT TEMPO 0609 32020G30KT;EQDQ01+000000PRSWM2
0158474905999992000122601004+42900+143170FM-15+0084RJCT V0202701N004612200019N0112651N1-00701-01801999999ADDGA1021+007509999GF102991999999999999999999MA1100101999999MW1001REMMET064RJCT 260100Z 27009KT 9999 FEW025 M07/M18 Q1001 RMK 1CU025 A2956;EQDQ01+000000PRSWM2
0158474905999992000122602004+42900+143170FM-15+0084RJCT V0202901N006712200019N0112651N1-00601-01901999999ADDGA1021+009009999GF102991999999999999999999MA1100001999999MW1001REMMET064RJCT 260200Z 29013KT 9999 FEW030 M06/M19 Q1000 RMK 1CU030 A2953;EQDQ01+000000PRSWM2
0185474905999992000122603004+42900+143170FM-15+0084RJCT V0202801N008212200019N0112651N1-00601-01801999999ADDGA1021+009009999GF102991999999999999999999MA1099901999999MW1001OC101491REMMET083RJCT 260300Z 28016G29KT 9999 FEW030 M06/M18 Q0999 RMK 1CU030 A2951 FCST 0312 NOSIG;EQDQ01+000000PRSWM2
0188474905999992000122604004+42900+143170FM-15+0084RJCT V0203001N007712200019N0112651N1-00701-01901999999ADDGA1021+007509999GA2021+054009999GF104991999999999999999999MA1099901999999MW1001REMMET078RJCT 260400Z 30015KT 9999 FEW025 SCT180 M07/M19 Q0999 RMK 2CU025 3CI180 A2950;EQDQ01+000000PRSWM2
0199474905999992000122604084+42900+143170FM-16+0084RJCT V0202901N005712200019N0112651N1-00701-01901999999ADDGA1021+007509999GA2021+054009999GF104991999999999999999999MA1099901999999MW1001OC101081REMMET081RJCT 260408Z 29011G21KT 9999 FEW025 SCT180 M07/M19 Q0999 RMK 2CU025 3CI180 A2950;EQDQ01+000000PRSWM2
0188474905999992000122605004+42900+143170FM-15+0084RJCT V0203001N006210540019N0112651N1-00701-01801999999ADDGA1021+007509999GA2071+054009999GF107991999999999999999999MA1099901999999MW1001REMMET078RJCT 260500Z 30012KT 9999 FEW025 BKN180 M07/M18 Q0999 RMK 1CU025 5CI180 A2950;EQDQ01+000000PRSWM2
0218474905999992000122607004+42900+143170FM-15+0084RJCT V0203001N005710240019N0112651N1-00801-01801999999ADDGA1021+007509999GA2071+024009999GA3071+054009999GF107991999999999999999999MA1099801999999MW1001REMMET092RJCT 260700Z 30011KT 9999 FEW025 BKN080 BKN180 M08/M18 Q0998 RMK 1CU025 6AC080 5CI180 A2948;EQDQ01+000000PRSWM2
0265474905999992000122608004+42900+143170FM-15+0084RJCT V0203001N007710240019N0112651N1-00801-01701999999ADDGA1021+007509999GA2071+024009999GA3071+054009999GF107991999999999999999999MA1099801999999MW1001OC101291REMMET131RJCT 260800Z 30015G25KT 9999 FEW025 BKN080 BKN180 M08/M17 Q0998 RMK 2CU025 6AC080 6CI180 A2947 FCST 0817 TEMPO 0912 -SHSN BKN030CU;EQDQ01+000000PRSWM2
0158474905999992000122622004+42900+143170FM-15+0084RJCT V0203001N006212200019N0112651N1-00401-01201999999ADDGA1021+009009999GF102991999999999999999999MA1101081999999MW1001REMMET064RJCT 262200Z 30012KT 9999 FEW030 M04/M12 Q1011 RMK 1CU030 A2987;EQDQ01+000000PRSWM2
0169474905999992000122700164+42900+143170FM-16+0084RJCT V0203001N007212200019N0112651N1-00201-01101999999ADDGA1021+009009999GF102991999999999999999999MA1101291999999MW1001OC101231REMMET067RJCT 270016Z 30014G24KT 9999 FEW030 M02/M11 Q1013 RMK 1CU030 A2993;EQDQ01+000000PRSWM2
0169474905999992000122701004+42900+143170FM-15+0084RJCT V0203001N008212200019N0112651N1-00201-01101999999ADDGA1021+009009999GF102991999999999999999999MA1101391999999MW1001OC101341REMMET067RJCT 270100Z 30016G26KT 9999 FEW030 M02/M11 Q1014 RMK 1CU030 A2995;EQDQ01+000000PRSWM2
0169474905999992000122702004+42900+143170FM-15+0084RJCT V0202901N008712200019N0112651N1-00201-01101999999ADDGA1021+009009999GF102991999999999999999999MA1101291999999MW1001OC101541REMMET067RJCT 270200Z 29017G30KT 9999 FEW030 M02/M11 Q1013 RMK 1CU030 A2994;EQDQ01+000000PRSWM2
0187474905999992000122703004+42900+143170FM-15+0084RJCT V0202901N009812200019N0112651N1-00201-01101999999ADDGA1021+007509999GF102991999999999999999999MA1101291999999MW1001REMMET093RJCT 270300Z 29019KT 9999 FEW025 M02/M11 Q1013 RMK 1CU025 A2993 FCST 0312 BECMG 0607 30010KT;EQDQ01+000000PRSWM2
0169474905999992000122704004+42900+143170FM-15+0084RJCT V0203101N006712200019N0112651N1-00201-01101999999ADDGA1021+007509999GF102991999999999999999999MA1101291999999MW1001OC101231REMMET067RJCT 270400Z 31013G24KT 9999 FEW025 M02/M11 Q1013 RMK 1CU025 A2993;EQDQ01+000000PRSWM2
0169474905999992000122705004+42900+143170FM-15+0084RJCT V0203001N007712200019N0112651N1-00201-01101999999ADDGA1021+009009999GF102991999999999999999999MA1101391999999MW1001OC101291REMMET067RJCT 270500Z 30015G25KT 9999 FEW030 M02/M11 Q1014 RMK 1CU030 A2994;EQDQ01+000000PRSWM2
0192474905999992000122706004+42900+143170FM-15+0084RJCT V0203001N007212200019N0112651N1-00301-01101999999ADDGA1021+009009999GF102991999999999999999999MA1101391999999MW1001OC101231REMMET090RJCT 270600Z 30014G24KT 9999 FEW030 M03/M11 Q1014 RMK 1CU030 A2996 PG P8 >Q8J0608 30010KT;EQDQ01+000000PRSWM2
0169474905999992000122707004+42900+143170FM-15+0084RJCT V0203001N006712200019N0112651N1-00401-01201999999ADDGA1021+007509999GF102991999999999999999999MA1101491999999MW1001OC101181REMMET067RJCT 270700Z 30013G23KT 9999 FEW025 M04/M12 Q1015 RMK 1CU025 A2998;EQDQ01+000000PRSWM2
0174474905999992000122708004+42900+143170FM-15+0084RJCT V0203101N006212200019N0112651N1-00401-01201999999ADDGA1021+007509999GF102991999999999999999999MA1101491999999MW1001REMMET080RJCT 270800Z 31012KT 9999 FEW025 M04/M12 Q1015 RMK 1CU025 A2999 FCST 0817 NOSIG;EQDQ01+000000PRSWM2
0204474905999992000122723004+42900+143170FM-15+0084RJCT V0201001N000510240019N0112651N1-01701-01901999999ADDGA1021+012009999GA2071+024009999GF107991999999999999999999MA1101801999999MW1001REMMET094RJCT 272300Z 10001KT 9999 FEW040 BKN080 M17/M19 Q1018 RMK 1SC040 6AC080 A3007 FCST 2308 NOSIG;EQDQ01+000000PRSWM2
0204474905999992000122800004+42900+143170FM-15+0084RJCT V02099999999992200019N0112651N1-01201-01701999999ADDGA1021+009009999GA2021+024009999GF104991999999999999999999MA1101801999999MW1001REMMET094RJCT 280000Z VRB02KT 9999 FEW030 SCT080 M12/M17 Q1018 RMK 1CU030 4AC080 A3007 FCST 0009 NOSIG;EQDQ01+000000PRSWM2
0158474905999992000122801004+42900+143170FM-15+0084RJCT V02099999999992200019N0112651N1-01001-01601999999ADDGA1021+009009999GF102991999999999999999999MA1101801999999MW1001REMMET064RJCT 280100Z VRB01KT 9999 FEW030 M10/M16 Q1018 RMK 1CU030 A3007;EQDQ01+000000PRSWM2
0188474905999992000122802004+42900+143170FM-15+0084RJCT V02099999999992200019N0112651N1-00601-01401999999ADDGA1021+009009999GA2021+024009999GF104991999999999999999999MA1101691999999MW1001REMMET078RJCT 280200Z VRB02KT 9999 FEW030 SCT080 M06/M14 Q1017 RMK 1CU030 3AC080 A3005;EQDQ01+000000PRSWM2
0174474905999992000122803004+42900+143170FM-15+0084RJCT V0202701N001012200019N0112651N1-00601-01401999999ADDGA1021+009009999GF102991999999999999999999MA1101591999999MW1001REMMET080RJCT 280300Z 27002KT 9999 FEW030 M06/M14 Q1016 RMK 1CU030 A3002 FCST 0312 NOSIG;EQDQ01+000000PRSWM2
0158474905999992000122804004+42900+143170FM-15+0084RJCT V0202201N001012200019N0112651N1-00601-01401999999ADDGA1021+012009999GF102991999999999999999999MA1101591999999MW1001REMMET064RJCT 280400Z 22002KT 9999 FEW040 M06/M14 Q1016 RMK 2SC040 A3001;EQDQ01+000000PRSWM2
0188474905999992000122805004+42900+143170FM-15+0084RJCT V0202201N001512200019N0112651N1-00601-01401999999ADDGA1021+009009999GA2021+063009999GF104991999999999999999999MA1101591999999MW1001REMMET078RJCT 280500Z 22003KT 9999 FEW030 SCT210 M06/M14 Q1016 RMK 1CU030 3CI210 A3000;EQDQ01+000000PRSWM2
0204474905999992000122806004+42900+143170FM-15+0084RJCT V0201901N002612200019N0112651N1-00601-01301999999ADDGA1021+009009999GA2021+063009999GF104991999999999999999999MA1101591999999MW1001REMMET094RJCT 280600Z 19005KT 9999 FEW030 SCT210 M06/M13 Q1016 RMK 1CU030 3CI210 A3001 FCST 0615 NOSIG;EQDQ01+000000PRSWM2
0188474905999992000122807004+42900+143170FM-15+0084RJCT V0201001N001012200019N0112651N1-00801-01401999999ADDGA1021+009009999GA2021+063009999GF104991999999999999999999MA1101591999999MW1001REMMET078RJCT 280700Z 10002KT 9999 FEW030 SCT210 M08/M14 Q1016 RMK 2SC030 3CI210 A3002;EQDQ01+000000PRSWM2
0174474905999992000122808004+42900+143170FM-15+0084RJCT V0202101N001512200019N0112651N1-01201-01501999999ADDGA1021+009009999GF102991999999999999999999MA1101591999999MW1001REMMET080RJCT 280800Z 21003KT 9999 FEW030 M12/M15 Q1016 RMK 1SC030 A3002 FCST 0817 NOSIG;EQDQ01+000000PRSWM2
