0224483310999992000010100004+18770+100770FM-12+0201VTCN V0209999C000010001519N0001001N1+01451+01441101481ADDAA106000091AY101061AY201061GA1091+999999999GF109991091999999999999999KA1120N+01361MA1999999099091MD1999999+0041MW1471REMSYN076AAXX  01004 48331 31/01 90000 10145 20144 39909 40148 74700 333 20136 58004;EQDQ01  00002PRCP06
0205483310999992000010103004+18770+100770FM-12+0201VTCN V0209999C000012200019N0060001N1+02121+01761101561ADDAA106000091AY141031AY201031GA1001+999999999GF100991001001999999001001MA1999999099221MD1999999+0061MW1101REMSYN070AAXX  01034 48331 31956 00000 10212 20176 39922 40156 71040 333 58006;EQDQ01  00002PRCP06
0167483310999992000010106004+18770+100770FM-12+0201VTCN V0209999C000012200019N0150001N1+02991+01911101121ADDAA106000091GF101991011011008001001001MA1999999098851MD1999999-0061REMSYN070AAXX  01064 48331 32565 10000 10299 20191 39885 40112 81100 333 59006;EQDQ01  00002PRCP06
0167483310999992000010109004+18770+100770FM-12+0201VTCN V0209999C000012200019N0150001N1+03201+01911100861ADDAA106000091GF101991011011008001001011MA1999999098621MD1999999-0081REMSYN070AAXX  01094 48331 32565 10000 10320 20191 39862 40086 81101 333 59008;EQDQ01  00002PRCP06
0177483310999992000010115004+18770+100770FM-12+0201VTCN V0209999C000012200019N0100001N1+02051+01891101291ADDAA106000091GA1001+999999999GF100991001001999999001001MA1999999098951MD1999999-0091REMSYN064AAXX  01154 48331 32960 00000 10205 20189 39895 40129 333 59009;EQDQ01  00002PRCP06
0177483310999992000010118004+18770+100770FM-12+0201VTCN V0209999C000012200019N0100001N1+01831+01731101321ADDAA106000091GA1001+999999999GF100991001001999999001001MA1999999098961MD1999999-0061REMSYN064AAXX  01184 48331 32960 00000 10183 20173 39896 40132 333 59006;EQDQ01  00002PRCP06
0195483310999992000010121004+18770+100770FM-12+0201VTCN V0209999C000012200019N0080001N1+01651+01561101311ADDAA106000091AY101031AY201031GF102991001001999999001011MA1999999098941MD1999999-0011MW1101REMSYN076AAXX  01214 48331 31958 20000 10165 20156 39894 40131 71000 80001 333 59001;EQDQ01  00002PRCP06
0224483310999992000010200004+18770+100770FM-12+0201VTCN V0209999C000010003019N0002001N1+01511+01501101441ADDAA106000091AY101061AY201061GA1091+999999999GF109991091999999999999999KA1120N+01451MA1999999099041MD1999999-0041MW1471REMSYN076AAXX  02004 48331 31/02 90000 10151 20150 39904 40144 74700 333 20145 59004;EQDQ01  00002PRCP06
0205483310999992000010203004+18770+100770FM-12+0201VTCN V0209999C000012200019N0080001N1+02201+01841101571ADDAA106000091AY141031AY201031GA1001+999999999GF100991001001999999001001MA1999999099231MD1999999+0011MW1101REMSYN070AAXX  02034 48331 31958 00000 10220 20184 39923 40157 71040 333 58001;EQDQ01  00002PRCP06
0195483310999992000010206004+18770+100770FM-12+0201VTCN V0209999C000012200019N0150001N1+03001+01851101171ADDAA106000091AY141061AY201061GF101991011011008001001001MA1999999098911MD1999999+0051MW1031REMSYN076AAXX  02064 48331 31565 10000 10300 20185 39891 40117 70340 81100 333 58005;EQDQ01  00002PRCP06
0167483310999992000010209004+18770+100770FM-12+0201VTCN V0209999C000012200019N0150001N1+03231+01981100851ADDAA106000091GF102991021021008001001001MA1999999098611MD1999999-0011REMSYN070AAXX  02094 48331 32565 20000 10323 20198 39861 40085 82200 333 59001;EQDQ01  00002PRCP06
0196483310999992000010212004+18770+100770FM-12+0201VTCN V0209999C000012200019N0120001N1+02461+02061101031ADDAA106000091GA1001+999999999GF100991001001999999001001KA1120M+03311MA1999999098731MD1999999-0041REMSYN070AAXX  02124 48331 32962 00000 10246 20206 39873 40103 333 10331 59004;EQDQ01  00002PRCP06
0177483310999992000010215004+18770+100770FM-12+0201VTCN V0209999C000012200019N0100001N1+02101+01911101271ADDAA106000091GA1001+999999999GF100991001001999999001001MA1999999098931MD1999999-0021REMSYN064AAXX  02154 48331 32960 00000 10210 20191 39893 40127 333 59002;EQDQ01  00002PRCP06
0177483310999992000010218004+18770+100770FM-12+0201VTCN V0209999C000012200019N0100001N1+01901+01821101291ADDAA106000091GA1001+999999999GF100991001001999999001001MA1999999098941MD1999999-0031REMSYN064AAXX  02184 48331 32960 00000 10190 20182 39894 40129 333 59003;EQDQ01  00002PRCP06
0205483310999992000010221004+18770+100770FM-12+0201VTCN V0209999C000012200019N0080001N1+01731+01641101221ADDAA106000091AY101031AY201031GA1001+999999999GF100991001001999999001001MA1999999098861MD1999999-0091MW1101REMSYN070AAXX  02214 48331 31958 00000 10173 20164 39886 40122 71000 333 59009;EQDQ01  00002PRCP06
0230483310999992000010300004+18770+100770FM-12+0201VTCN V0209999C000012200019N0006001N1+01571+01531101331ADDAA106000091AY101061AY201061GA1001+999999999GF100991001001999999001001KA1120N+01491MA1999999098991MD1999999-0061MW1461REMSYN082AAXX  03004 48331 31906 00000 10157 20153 39899 40133 74600 8//// 333 20149 59006;EQDQ01  00002PRCP06
0211483310999992000010306004+18770+100770FM-12+0201VTCN V0209999C000012200019N0120001N1+02981+01861101101ADDAA106000091AY141061AY201061GA1001+999999999GF100991001001999999001001MA1999999098841MD1999999-0071MW1021REMSYN076AAXX  03064 48331 31962 00000 10298 20186 39884 40110 70240 8//// 333 59007;EQDQ01  00002PRCP06
0167483310999992000010309004+18770+100770FM-12+0201VTCN V0209999C000012200019N0120001N1+03201+01891100801ADDAA106000091GF101991011011008001001001MA1999999098551MD1999999-0051REMSYN070AAXX  03094 48331 32562 10000 10320 20189 39855 40080 81100 333 59005;EQDQ01  00002PRCP06
0196483310999992000010312004+18770+100770FM-12+0201VTCN V0209999C000012200019N0100001N1+02421+02021100941ADDAA106000091GA1001+999999999GF100991001001999999001001KA1120M+03261MA1999999098641MD1999999-0091REMSYN070AAXX  03124 48331 32960 00000 10242 20202 39864 40094 333 10326 59009;EQDQ01  00002PRCP06
0177483310999992000010315004+18770+100770FM-12+0201VTCN V0209999C000012200019N0100001N1+01971+01821101151ADDAA106000091GA1001+999999999GF100991001001999999001001MA1999999098811MD1999999-0121REMSYN064AAXX  03154 48331 32960 00000 10197 20182 39881 40115 333 59012;EQDQ01  00002PRCP06
0177483310999992000010318004+18770+100770FM-12+0201VTCN V0209999C000012200019N0100001N1+01761+01691101201ADDAA106000091GA1001+999999999GF100991001001999999001001MA1999999098841MD1999999-0091REMSYN064AAXX  03184 48331 32960 00000 10176 20169 39884 40120 333 59009;EQDQ01  00002PRCP06
0177483310999992000010321004+18770+100770FM-12+0201VTCN V0209999C000012200019N0100001N1+01601+01541101131ADDAA106000091GA1001+999999999GF100991001001999999001001MA1999999098761MD1999999-0091REMSYN064AAXX  03214 48331 32960 00000 10160 20154 39876 40113 333 59009;EQDQ01  00002PRCP06
0224483310999992000010400004+18770+100770FM-12+0201VTCN V0209999C000010001519N0001001N1+01581+01571101281ADDAA106000091AY141061AY201061GA1091+999999999GF109991091999999999999999KA1120N+01451MA1999999098901MD1999999-0111MW1471REMSYN076AAXX  04004 48331 31/01 90000 10158 20157 39890 40128 74740 333 20145 59011;EQDQ01  00002PRCP06
0195483310999992000010403004+18770+100770FM-12+0201VTCN V0209999C000012200019N0020001N1+01971+01811101431ADDAA106000091AY141031AY241031GF102991021061004501001011MA1999999099081MD1999999-0071MW1281REMSYN076AAXX  04034 48331 31420 20000 10197 20181 39908 40143 72844 82601 333 59007;EQDQ01  00002PRCP06
0195483310999992000010406004+18770+100770FM-12+0201VTCN V0209999C000012200019N0120001N1+02951+01881101041ADDAA106000091AY141061AY201061GF101991011021008001001001MA1999999098781MD1999999-0061MW1011REMSYN076AAXX  04064 48331 31562 10000 10295 20188 39878 40104 70140 81200 333 59006;EQDQ01  00002PRCP06
0167483310999992000010409004+18770+100770FM-12+0201VTCN V0209999C000012200019N0150001N1+03231+02081100771ADDAA106000091GF101991011021008001001001MA1999999098531MD1999999-0031REMSYN070AAXX  04094 48331 32565 10000 10323 20208 39853 40077 81200 333 59003;EQDQ01  00002PRCP06
0196483310999992000010412004+18770+100770FM-12+0201VTCN V0209999C000012200019N0100001N1+02491+02081100921ADDAA106000091GA1001+999999999GF100991001001999999001001KA1120M+03291MA1999999098621MD1999999-0021REMSYN070AAXX  04124 48331 32960 00000 10249 20208 39862 40092 333 10329 59002;EQDQ01  00002PRCP06
0177483310999992000010415004+18770+100770FM-12+0201VTCN V0209999C000012200019N0100001N1+02131+01991101181ADDAA106000091GA1001+999999999GF100991001001999999001001MA1999999098841MD1999999+0031REMSYN064AAXX  04154 48331 32960 00000 10213 20199 39884 40118 333 58003;EQDQ01  00002PRCP06
0177483310999992000010418004+18770+100770FM-12+0201VTCN V0209999C000012200019N0100001N1+01871+01801101241ADDAA106000091GA1001+999999999GF100991001001999999001001MA1999999098891MD1999999+0041REMSYN064AAXX  04184 48331 32960 00000 10187 20180 39889 40124 333 58004;EQDQ01  00002PRCP06
0224483310999992000010500004+18770+100770FM-12+0201VTCN V0209999C000010001519N0001001N1+01621+01581101301ADDAA106000091AY141061AY201061GA1091+999999999GF109991091999999999999999KA1120N+01541MA1999999098931MD1999999+0021MW1471REMSYN076AAXX  05004 48331 31/01 90000 10162 20158 39893 40130 74740 333 20154 58002;EQDQ01  00002PRCP06
0221483310999992000010503004+18770+100770FM-12+0201VTCN V0209999C000012200019N0040001N1+02251+01851101401ADDAA106000091AY141031AY201031GA1001+999999999GF100991001001999999001001MA1999999098072MD1999999-0031MW1101REMSYN070AAXX  05034 48331 31940 00000 10225 20185 39807 40140 71040 333 59003;EQDQ01+098073APOSP Q02  00002PRCP06
0212483310999992000010506004+18770+100770FM-12+0201VTCN V0201501N001512200019N0130001N1+03001+02021101011ADDAA106000091AY141061AY201061GA1001+999999999GF100991001001999999001001MD1999999-0031MW1021REMSYN076AAXX  05064 48331 31563 01503 10300 20202 39741 40101 70240 81100 333 59003;EQDQ01+097413APOSP Q02  00002PRCP06
0167483310999992000010509004+18770+100770FM-12+0201VTCN V0209999C000012200019N0150001N1+03351+02431100711ADDAA106000091GF101991011011008001001001MA1999999098481MD1999999-0061REMSYN070AAXX  05094 48331 32565 10000 10335 20243 39848 40071 81100 333 59006;EQDQ01  00002PRCP06
0196483310999992000010512004+18770+100770FM-12+0201VTCN V0209999C000012200019N0120001N1+02581+02161100851ADDAA106000091GA1001+999999999GF100991001001999999001001KA1120M+03371MA1999999098561MD1999999-0071REMSYN070AAXX  05124 48331 32962 00000 10258 20216 39856 40085 333 10337 59007;EQDQ01  00002PRCP06
0177483310999992000010515004+18770+100770FM-12+0201VTCN V0209999C000012200019N0100001N1+02201+02061101061ADDAA106000091GA1001+999999999GF100991001001999999001001MA1999999098741MD1999999-0121REMSYN064AAXX  05154 48331 32960 00000 10220 20206 39874 40106 333 59012;EQDQ01  00002PRCP06
0177483310999992000010518004+18770+100770FM-12+0201VTCN V0209999C000012200019N0100001N1+01981+01871101121ADDAA106000091GA1001+999999999GF100991001001999999001001MA1999999098781MD1999999-0121REMSYN064AAXX  05184 48331 32960 00000 10198 20187 39878 40112 333 59012;EQDQ01  00002PRCP06
0195483310999992000010521004+18770+100770FM-12+0201VTCN V0209999C000012200019N0080001N1+01811+01741101071ADDAA106000091AY101031AY201031GF102991021051008001001001MA1999999098721MD1999999-0101MW1101REMSYN076AAXX  05214 48331 31558 20000 10181 20174 39872 40107 71000 82500 333 59010;EQDQ01  00002PRCP06
0205483310999992000010603004+18770+100770FM-12+0201VTCN V0209999C000012200019N0030001N1+02151+01911101331ADDAA106000091AY141031AY201031GA1001+999999999GF100991001001999999001001MA1999999099001MD1999999-0071MW1101REMSYN070AAXX  06034 48331 31930 00000 10215 20191 39900 40133 71040 333 59007;EQDQ01  00002PRCP06
0177483310999992000010606004+18770+100770FM-12+0201VTCN V0209999C000012200019N0120001N1+03061+02071100931ADDAA106000091GA1001+999999999GF100991001001999999001001MA1999999098681MD1999999-0081REMSYN064AAXX  06064 48331 32962 00000 10306 20207 39868 40093 333 59008;EQDQ01  00002PRCP06
0167483310999992000010609004+18770+100770FM-12+0201VTCN V0209999C000012200019N0120001N1+03311+02211100671ADDAA106000091GF102991011021008001001011MA1999999098431MD1999999-0041REMSYN070AAXX  06094 48331 32562 20000 10331 20221 39843 40067 81201 333 59004;EQDQ01  00002PRCP06
0186483310999992000010612004+18770+100770FM-12+0201VTCN V0209999C000012200019N0120001N1+02621+02141100831ADDAA106000091GF101991011011008001001011KA1120M+03401MA1999999098541MD1999999-0021REMSYN076AAXX  06124 48331 32562 10000 10262 20214 39854 40083 81101 333 10340 59002;EQDQ01  00002PRCP06
0177483310999992000010615004+18770+100770FM-12+0201VTCN V0209999C000012200019N0100001N1+02231+02111101091ADDAA106000091GA1001+999999999GF100991001001999999001001MA1999999098771MD1999999+0031REMSYN064AAXX  06154 48331 32960 00000 10223 20211 39877 40109 333 58003;EQDQ01  00002PRCP06
0205483310999992000010621004+18770+100770FM-12+0201VTCN V0209999C000012200019N0080001N1+01871+01791101091ADDAA106000091AY101031AY201031GA1001+999999999GF100991001001999999001001MA1999999098741MD1999999+0021MW1101REMSYN070AAXX  06214 48331 31958 00000 10187 20179 39874 40109 71000 333 58002;EQDQ01  00002PRCP06
0214483310999992000010700004+18770+100770FM-12+0201VTCN V0209999C000012200019N0060001N1+01741+01671101141ADDAA106000091AY101061AY201061GF102991001001999999001011KA1120N+01651MA1999999098781MD1999999-0031MW1101REMSYN082AAXX  07004 48331 31956 20000 10174 20167 39878 40114 71000 80001 333 20165 59003;EQDQ01  00002PRCP06
0195483310999992000010703004+18770+100770FM-12+0201VTCN V0209999C000012200019N0080001N1+02351+01901101321ADDAA106000091AY101031AY201031GF101991001001999999001011MA1999999099001MD1999999-0011MW1101REMSYN076AAXX  07034 48331 31958 10000 10235 20190 39900 40132 71000 80001 333 59001;EQDQ01  00002PRCP06
0167483310999992000010706004+18770+100770FM-12+0201VTCN V0209999C000012200019N0130001N1+03101+02111101011ADDAA106000091GF101991001001999999001011MA1999999098761MD1999999+0081REMSYN070AAXX  07064 48331 32963 10000 10310 20211 39876 40101 80001 333 58008;EQDQ01  00002PRCP06
0167483310999992000010709004+18770+100770FM-12+0201VTCN V0209999C000012200019N0140001N1+03251+02131100711ADDAA106000091GF101991001001999999001011MA1999999098481MD1999999+0041REMSYN070AAXX  07094 48331 32964 10000 10325 20213 39848 40071 80001 333 58004;EQDQ01  00002PRCP06
0186483310999992000010712004+18770+100770FM-12+0201VTCN V0209999C000012200019N0120001N1+02691+02181100901ADDAA106000091GF102991021011999999001011KA1120M+03351MA1999999098611MD1999999+0071REMSYN076AAXX  07124 48331 32962 20000 10269 20218 39861 40090 82101 333 10335 58007;EQDQ01  00002PRCP06
0167483310999992000010715004+18770+100770FM-12+0201VTCN V0209999C000012200019N0120001N1+02431+02171101101ADDAA106000091GF103991031051008001001051MA1999999098791MD1999999+0011REMSYN070AAXX  07154 48331 32562 30000 10243 20217 39879 40110 83505 333 58001;EQDQ01  00002PRCP06
0167483310999992000010718004+18770+100770FM-12+0201VTCN V0209999C000012200019N0100001N1+02181+02011101101ADDAA106000091GF103991031051008001001001MA1999999098771MD1999999-0081REMSYN070AAXX  07184 48331 32560 30000 10218 20201 39877 40110 83500 333 59008;EQDQ01  00002PRCP06
0167483310999992000010721004+18770+100770FM-12+0201VTCN V0209999C000010075019N0100001N1+02071+01961101061ADDAA106000091GF105991051051008001001051MA1999999098731MD1999999-0031REMSYN070AAXX  07214 48331 32560 50000 10207 20196 39873 40106 85505 333 59003;EQDQ01  00002PRCP06
0214483310999992000010800004+18770+100770FM-12+0201VTCN V0209999C000012200019N0080001N1+02001+01921101131ADDAA106000091AY101061AY201061GF102991011011008001001021KA1120N+01891MA1999999098791MD1999999-0011MW1101REMSYN082AAXX  08004 48331 31558 20000 10200 20192 39879 40113 71000 81102 333 20189 59001;EQDQ01  00002PRCP06
0167483310999992000010803004+18770+100770FM-12+0201VTCN V0209999C000012200019N0120001N1+02501+02041101311ADDAA106000091GF103991021051008001001011MA1999999099001MD1999999-0011REMSYN070AAXX  08034 48331 32562 30000 10250 20204 39900 40131 82501 333 59001;EQDQ01  00002PRCP06
0167483310999992000010806004+18770+100770FM-12+0201VTCN V0200901N001012200019N0120001N1+03131+02201100951ADDAA106000091GF102991011011008001001011MA1999999098701MD1999999-0061REMSYN070AAXX  08064 48331 32562 20902 10313 20220 39870 40095 81101 333 59006;EQDQ01  00002PRCP06
0167483310999992000010809004+18770+100770FM-12+0201VTCN V0209999C000012200019N0120001N1+03301+02121100661ADDAA106000091GF104991021051008001001051MA1999999098421MD1999999-0051REMSYN070AAXX  08094 48331 32562 40000 10330 20212 39842 40066 82505 333 59005;EQDQ01  00002PRCP06
0186483310999992000010812004+18770+100770FM-12+0201VTCN V0209999C000012200019N0120001N1+02641+02141100801ADDAA106000091GF103991021051008001001051KA1120M+03371MA1999999098521MD1999999-0101REMSYN076AAXX  08124 48331 32562 30000 10264 20214 39852 40080 82505 333 10337 59010;EQDQ01  00002PRCP06
0167483310999992000010815004+18770+100770FM-12+0201VTCN V0209999C000012200019N0120001N1+02301+02071101081ADDAA106000091GF102991021051008001001001MA1999999098761MD1999999-0021REMSYN070AAXX  08154 48331 32562 20000 10230 20207 39876 40108 82500 333 59002;EQDQ01  00002PRCP06
0167483310999992000010818004+18770+100770FM-12+0201VTCN V0209999C000012200019N0100001N1+02151+01991101101ADDAA106000091GF102991021051008001001001MA1999999098771MD1999999+0001REMSYN070AAXX  08184 48331 32560 20000 10215 20199 39877 40110 82500 333 58000;EQDQ01  00002PRCP06
0195483310999992000010821004+18770+100770FM-12+0201VTCN V0209999C000012200019N0080001N1+01961+01861101041ADDAA106000091AY101031AY201031GF102991021001999999021021MA1999999098701MD1999999-0021MW1101REMSYN076AAXX  08214 48331 31958 20000 10196 20186 39870 40104 71000 82022 333 59002;EQDQ01  00002PRCP06
0177483310999992000010903004+18770+100770FM-12+0201VTCN V0209999C000012200019N0100001N1+02421+02031101361ADDAA106000091GA1001+999999999GF100991001001999999001001MA1999999099031MD1999999+0051REMSYN064AAXX  09034 48331 32960 00000 10242 20203 39903 40136 333 58005;EQDQ01  00002PRCP06
0167483310999992000010909004+18770+100770FM-12+0201VTCN V0209999C000010075019N0120001N1+03311+01931100701ADDAA106000091GF106991061051008001051011MA1999999098471MD1999999+0041REMSYN070AAXX  09094 48331 32562 60000 10331 20193 39847 40070 86551 333 58004;EQDQ01  00002PRCP06
0186483310999992000010912004+18770+100770FM-12+0201VTCN V0209999C000010450019N0120001N1+02671+02081100831ADDAA106000091GF105991031051008001051011KA1120M+03401MA1999999098551MD1999999+0031REMSYN076AAXX  09124 48331 32562 50000 10267 20208 39855 40083 83551 333 10340 58003;EQDQ01  00002PRCP06
0167483310999992000010915004+18770+100770FM-12+0201VTCN V0209999C000012200019N0120001N1+02311+02061101051ADDAA106000091GF103991031051008001051011MA1999999098731MD1999999+0031REMSYN070AAXX  09154 48331 32562 30000 10231 20206 39873 40105 83551 333 58003;EQDQ01  00002PRCP06
0167483310999992000010918004+18770+100770FM-12+0201VTCN V0209999C000012200019N0100001N1+02101+01941101111ADDAA106000091GF104991041051008001051011MA1999999098781MD1999999+0011REMSYN070AAXX  09184 48331 32560 40000 10210 20194 39878 40111 84551 333 58001;EQDQ01  00002PRCP06
0195483310999992000010921004+18770+100770FM-12+0201VTCN V0209999C000012200019N0080001N1+01991+01881100991ADDAA106000091AY101031AY201031GF102991021051008001001001MA1999999098651MD1999999-0051MW1101REMSYN076AAXX  09214 48331 31558 20000 10199 20188 39865 40099 71000 82500 333 59005;EQDQ01  00002PRCP06
0186483310999992000011000004+18770+100770FM-12+0201VTCN V0209999C000012200019N0100001N1+01851+01771101121ADDAA106000091GF102991001001999999001051KA1120N+01761MA1999999098771MD1999999-0141REMSYN076AAXX  10004 48331 32960 20000 10185 20177 39877 40112 80005 333 20176 59014;EQDQ01  00002PRCP06
0177483310999992000011003004+18770+100770FM-12+0201VTCN V0209999C000012200019N0120001N1+02501+02031101271ADDAA106000091GA1001+999999999GF100991001001999999001001MA1999999098961MD1999999-0091REMSYN064AAXX  10034 48331 32962 00000 10250 20203 39896 40127 333 59009;EQDQ01  00002PRCP06
0167483310999992000011006004+18770+100770FM-12+0201VTCN V0209999C000012200019N0130001N1+03251+02061100961ADDAA106000091GF101991011011008001001001MA1999999098711MD1999999-0021REMSYN070AAXX  10064 48331 32563 10000 10325 20206 39871 40096 81100 333 59002;EQDQ01  00002PRCP06
0167483310999992000011009004+18770+100770FM-12+0201VTCN V0209999C000012200019N0130001N1+03441+02061100691ADDAA106000091GF101991011011008001001001MA1999999098471MD1999999-0011REMSYN070AAXX  10094 48331 32563 10000 10344 20206 39847 40069 81100 333 59001;EQDQ01  00002PRCP06
0186483310999992000011012004+18770+100770FM-12+0201VTCN V0209999C000012200019N0120001N1+02651+01951100801ADDAA106000091GF102991021021008001001001KA1120M+03481MA1999999098511MD1999999-0031REMSYN076AAXX  10124 48331 32562 20000 10265 20195 39851 40080 82200 333 10348 59003;EQDQ01  00002PRCP06
0167483310999992000011015004+18770+100770FM-12+0201VTCN V0209999C000012200019N0120001N1+02151+01911101071ADDAA106000091GF101991011011008001001001MA1999999098751MD1999999+0021REMSYN070AAXX  10154 48331 32562 10000 10215 20191 39875 40107 81100 333 58002;EQDQ01  00002PRCP06
0167483310999992000011018004+18770+100770FM-12+0201VTCN V0209999C000012200019N0100001N1+01941+01821101131ADDAA106000091GF102991011011008001001011MA1999999098791MD1999999+0021REMSYN070AAXX  10184 48331 32560 20000 10194 20182 39879 40113 81101 333 58002;EQDQ01  00002PRCP06
0177483310999992000011021004+18770+100770FM-12+0201VTCN V0209999C000012200019N0100001N1+01751+01661101101ADDAA106000091GA1001+999999999GF100991001001999999001001MA1999999098751MD1999999+0011REMSYN064AAXX  10214 48331 32960 00000 10175 20166 39875 40110 333 58001;EQDQ01  00002PRCP06
0224483310999992000011100004+18770+100770FM-12+0201VTCN V0209999C000012200019N0060001N1+01651+01561101311ADDAA106000091AY101061AY201061GA1001+999999999GF100991001001999999001001KA1120N+01591MA1999999098951MD1999999+0181MW1101REMSYN076AAXX  11004 48331 31956 00000 10165 20156 39895 40131 71000 333 20159 58018;EQDQ01  00002PRCP06
0211483310999992000011103004+18770+100770FM-12+0201VTCN V0209999C000012200019N0080001N1+02251+01851101411ADDAA106000091AY101031AY201031GA1001+999999999GF100991001001999999001001MA1999999099081MD1999999+0141MW1101REMSYN076AAXX  11034 48331 31958 00000 10225 20185 39908 40141 71000 8//// 333 58014;EQDQ01  00002PRCP06
0177483310999992000011106004+18770+100770FM-12+0201VTCN V0209999C000012200019N0100001N1+03131+02051101001ADDAA106000091GA1001+999999999GF100991001001999999001001MA1999999098881MD1999999+0041REMSYN064AAXX  11064 48331 32960 00000 10313 20205 39888 40100 333 58004;EQDQ01  00002PRCP06
0167483310999992000011109004+18770+100770FM-12+0201VTCN V0209999C000012200019N0120001N1+03401+02091100721ADDAA106000091GF101991011021008001001001MA1999999098491MD1999999+0031REMSYN070AAXX  11094 48331 32562 10000 10340 20209 39849 40072 81200 333 58003;EQDQ01  00002PRCP06
0186483310999992000011112004+18770+100770FM-12+0201VTCN V0209999C000012200019N0120001N1+02701+02161100821ADDAA106000091GF101991011011008001001001KA1120M+03431MA1999999098541MD1999999+0021REMSYN076AAXX  11124 48331 32562 10000 10270 20216 39854 40082 81100 333 10343 58002;EQDQ01  00002PRCP06
0177483310999992000011115004+18770+100770FM-12+0201VTCN V0209999C000012200019N0100001N1+02271+02071101051ADDAA106000091GA1001+999999999GF100991001001999999001001MA1999999098731MD1999999-0021REMSYN064AAXX  11154 48331 32960 00000 10227 20207 39873 40105 333 59002;EQDQ01  00002PRCP06
0205483310999992000011121004+18770+100770FM-12+0201VTCN V0209999C000012200019N0080001N1+01771+01701101091ADDAA106000091AY101031AY201031GA1001+999999999GF100991001001999999001001MA1999999098731MD1999999-0011MW1101REMSYN070AAXX  11214 48331 31958 00000 10177 20170 39873 40109 71000 333 59001;EQDQ01  00002PRCP06
0224483310999992000011200004+18770+100770FM-12+0201VTCN V0209999C000010001519N0001001N1+01671+01631101201ADDAA106000091AY141061AY201061GA1091+999999999GF109991091999999999999999KA1120N+01571MA1999999098841MD1999999-0111MW1471REMSYN076AAXX  12004 48331 31/01 90000 10167 20163 39884 40120 74740 333 20157 59011;EQDQ01  00002PRCP06
0205483310999992000011203004+18770+100770FM-12+0201VTCN V0209999C000012200019N0040001N1+02151+01811101381ADDAA106000091AY101031AY201031GA1001+999999999GF100991001001999999001001MA1999999099051MD1999999-0031MW1101REMSYN070AAXX  12034 48331 31940 00000 10215 20181 39905 40138 71000 333 59003;EQDQ01  00002PRCP06
0177483310999992000011206004+18770+100770FM-12+0201VTCN V0209999C000012200019N0120001N1+03051+02011100971ADDAA106000091GA1001+999999999GF100991001001999999001001MA1999999098711MD1999999-0031REMSYN064AAXX  12064 48331 32962 00000 10305 20201 39871 40097 333 59003;EQDQ01  00002PRCP06
0167483310999992000011209004+18770+100770FM-12+0201VTCN V0209999C000012200019N0120001N1+03341+01931100721ADDAA106000091GF101991011021008001001001MA1999999098481MD1999999+0001REMSYN070AAXX  12094 48331 32562 10000 10334 20193 39848 40072 81200 333 58000;EQDQ01  00002PRCP06
0196483310999992000011212004+18770+100770FM-12+0201VTCN V0209999C000012200019N0120001N1+02461+01931100841ADDAA106000091GA1001+999999999GF100991001001999999001001KA1120M+03401MA1999999098541MD1999999+0021REMSYN070AAXX  12124 48331 32962 00000 10246 20193 39854 40084 333 10340 58002;EQDQ01  00002PRCP06
0177483310999992000011215004+18770+100770FM-12+0201VTCN V0209999C000012200019N0100001N1+01951+01701101071ADDAA106000091GA1001+999999999GF100991001001999999001001MA1999999098731MD1999999+0021REMSYN064AAXX  12154 48331 32960 00000 10195 20170 39873 40107 333 58002;EQDQ01  00002PRCP06
0177483310999992000011218004+18770+100770FM-12+0201VTCN V0209999C000012200019N0100001N1+01651+01511101131ADDAA106000091GA1001+999999999GF100991001001999999001001MA1999999098771MD1999999+0051REMSYN064AAXX  12184 48331 32960 00000 10165 20151 39877 40113 333 58005;EQDQ01  00002PRCP06
0177483310999992000011221004+18770+100770FM-12+0201VTCN V0209999C000012200019N0100001N1+01451+01361101091ADDAA106000091GA1001+999999999GF100991001001999999001001MA1999999098711MD1999999+0001REMSYN064AAXX  12214 48331 32960 00000 10145 20136 39871 40109 333 58000;EQDQ01  00002PRCP06
0196483310999992000011300004+18770+100770FM-12+0201VTCN V0209999C000012200019N0100001N1+01301+01221101231ADDAA106000091GA1001+999999999GF100991001001999999001001KA1120N+01191MA1999999098831MD1999999+0031REMSYN070AAXX  13004 48331 32960 00000 10130 20122 39883 40123 333 20119 58003;EQDQ01  00002PRCP06
0177483310999992000011303004+18770+100770FM-12+0201VTCN V0209999C000012200019N0110001N1+02041+01591101331ADDAA106000091GA1001+999999999GF100991001001999999001001MA1999999098991MD1999999-0051REMSYN064AAXX  13034 48331 32961 00000 10204 20159 39899 40133 333 59005;EQDQ01  00002PRCP06
0177483310999992000011306004+18770+100770FM-12+0201VTCN V0209999C000012200019N0120001N1+02861+01691100971ADDAA106000091GA1001+999999999GF100991001001999999001001MA1999999098701MD1999999+0001REMSYN064AAXX  13064 48331 32962 00000 10286 20169 39870 40097 333 58000;EQDQ01  00002PRCP06
0177483310999992000011309004+18770+100770FM-12+0201VTCN V0209999C000012200019N0120001N1+03301+01841100641ADDAA106000091GA1001+999999999GF100991001001999999001001MA1999999098411MD1999999-0081REMSYN064AAXX  13094 48331 32962 00000 10330 20184 39841 40064 333 59008;EQDQ01  00002PRCP06
0196483310999992000011312004+18770+100770FM-12+0201VTCN V0209999C000012200019N0100001N1+02481+02001100771ADDAA106000091GA1001+999999999GF100991001001999999001001KA1120M+03351MA1999999098481MD1999999-0071REMSYN070AAXX  13124 48331 32960 00000 10248 20200 39848 40077 333 10335 59007;EQDQ01  00002PRCP06
0177483310999992000011315004+18770+100770FM-12+0201VTCN V0209999C000012200019N0100001N1+01951+01791101011ADDAA106000091GA1001+999999999GF100991001001999999001001MA1999999098671MD1999999-0061REMSYN064AAXX  13154 48331 32960 00000 10195 20179 39867 40101 333 59006;EQDQ01  00002PRCP06
0206483310999992000011318004+18770+100770FM-12+0201VTCN V0209999C000012200019N0080001N1+01661+01551101071ADDAA106000091AY101061AY201061GA1001+999999999GF100991001001999999001001MD1999999-0061MW1101REMSYN070AAXX  13184 48331 31958 00000 10166 20155 39671 40107 71000 333 59006;EQDQ01+096713APOSP Q02  00002PRCP06
0209483310999992000011321004+18770+100770FM-12+020199999V0209999C00001220001CN0080001N1+01441+01361101051ADDAA199000091AY101031AY201031GA1001+999999999GF100991001001999999001001MA1999999098661MD1999999-0041MW1101REMSYN074    AAXX  13214 48331 31958 00000 10144 20136 39866 40105 71000 333 59004;EQDQ01  00002PRCP99
0228483310999992000011400004+18770+100770FM-12+020199999V0209999C00001000151CN0000001N1+01261+01251101191ADDAA199000091AY141061AY201061GA1091+999999999GF109991091999999999999999KA1120N+01161MA1999999098801MD1999999-0041MW1471REMSYN080    AAXX  14004 48331 31/00 90000 10126 20125 39880 40119 74740 333 20116 59004;EQDQ01  00002PRCP99
0209483310999992000011403004+18770+100770FM-12+020199999V0209999C00001220001CN0060001N1+01901+01561101291ADDAA199000091AY141031AY201031GA1001+999999999GF100991001001999999001001MA1999999098941MD1999999-0041MW1101REMSYN074    AAXX  14034 48331 31956 00000 10190 20156 39894 40129 71040 333 59004;EQDQ01  00002PRCP99
0209483310999992000011406004+18770+100770FM-12+020199999V0209999C00001220001CN0120001N1+02901+01681100941ADDAA199000091AY141061AY201061GA1001+999999999GF100991001001999999001001MA1999999098681MD1999999-0031MW1021REMSYN074    AAXX  14064 48331 31962 00000 10290 20168 39868 40094 70240 333 59003;EQDQ01  00002PRCP99
0181483310999992000011409004+18770+100770FM-12+020199999V0209999C00001220001CN0120001N1+03201+01771100601ADDAA199000091GA1001+999999999GF100991001001999999001001MA1999999098351MD1999999-0041REMSYN068    AAXX  14094 48331 32962 00000 10320 20177 39835 40060 333 59004;EQDQ01  00002PRCP99
0200483310999992000011412004+18770+100770FM-12+020199999V0209999C00001220001CN0120001N1+02401+01831100711ADDAA199000091GA1001+999999999GF100991001001999999001001KA1120M+03301MA1999999098411MD1999999-0061REMSYN074    AAXX  14124 48331 32962 00000 10240 20183 39841 40071 333 10330 59006;EQDQ01  00002PRCP99
0181483310999992000011415004+18770+100770FM-12+020199999V0209999C00001220001CN0100001N1+01911+01731100991ADDAA199000091GA1001+999999999GF100991001001999999001001MA1999999098641MD1999999-0021REMSYN068    AAXX  14154 48331 32960 00000 10191 20173 39864 40099 333 59002;EQDQ01  00002PRCP99
0209483310999992000011418004+18770+100770FM-12+020199999V0209999C00001220001CN0080001N1+01591+01461101081ADDAA199000091AY101061AY201061GA1001+999999999GF100991001001999999001001MA1999999098701MD1999999+0011MW1101REMSYN074    AAXX  14184 48331 31958 00000 10159 20146 39870 40108 71000 333 58001;EQDQ01  00002PRCP99
0209483310999992000011421004+18770+100770FM-12+020199999V0209999C00001220001CN0070001N1+01411+01331101051ADDAA199000091AY101031AY201031GA1001+999999999GF100991001001999999001001MA1999999098661MD1999999+0001MW1101REMSYN074    AAXX  14214 48331 31957 00000 10141 20133 39866 40105 71000 333 58000;EQDQ01  00002PRCP99
0228483310999992000011500004+18770+100770FM-12+020199999V0209999C00001000301CN0002001N1+01271+01231101271ADDAA199000091AY101061AY201061GA1091+999999999GF109991091999999999999999KA1120N+01151MA1999999098871MD1999999+0041MW1471REMSYN080    AAXX  15004 48331 31/02 90000 10127 20123 39887 40127 74700 333 20115 58004;EQDQ01  00002PRCP99
0215483310999992000011503004+18770+100770FM-12+020199999V0209999C00001220001CN0050001N1+01881+01491101411ADDAA199000091AY141031AY201031GA1001+999999999GF100991001001999999001001MA1999999099051MD1999999+0121MW1101REMSYN080    AAXX  15034 48331 31950 00000 10188 20149 39905 40141 71040 8//// 333 58012;EQDQ01  00002PRCP99
0181483310999992000011506004+18770+100770FM-12+020199999V0201101N00101220001CN0120001N1+02871+01641101011ADDAA199000091GA1001+999999999GF100991001001999999001001MA1999999098731MD1999999+0071REMSYN068    AAXX  15064 48331 32962 01102 10287 20164 39873 40101 333 58007;EQDQ01  00002PRCP99
0181483310999992000011509004+18770+100770FM-12+020199999V0209999C00001220001CN0120001N1+03241+01481100721ADDAA199000091GA1001+999999999GF100991001001999999001001MA1999999098481MD1999999+0121REMSYN068    AAXX  15094 48331 32962 00000 10324 20148 39848 40072 333 58012;EQDQ01  00002PRCP99
0209483310999992000011515004+18770+100770FM-12+020199999V0209999C00001220001CN0080001N1+01801+01631101241ADDAA199000091AY101031AY201031GA1001+999999999GF100991001001999999001001MA1999999098881MD1999999+0251MW1101REMSYN074    AAXX  15154 48331 31958 00000 10180 20163 39888 40124 71000 333 58025;EQDQ01  00002PRCP99
0209483310999992000011518004+18770+100770FM-12+020199999V0209999C00001220001CN0060001N1+01501+01411101301ADDAA199000091AY101061AY201061GA1001+999999999GF100991001001999999001001MA1999999098911MD1999999+0221MW1101REMSYN074    AAXX  15184 48331 31956 00000 10150 20141 39891 40130 71000 333 58022;EQDQ01  00002PRCP99
0209483310999992000011521004+18770+100770FM-12+020199999V0209999C00001220001CN0060001N1+01321+01241101281ADDAA199000091AY101031AY201031GA1001+999999999GF100991001001999999001001MA1999999098881MD1999999+0231MW1101REMSYN074    AAXX  15214 48331 31956 00000 10132 20124 39888 40128 71000 333 58023;EQDQ01  00002PRCP99
0218483310999992000011600004+18770+100770FM-12+020199999V0209999C00001220001CN0030001N1+01151+01111101311ADDAA199000091AY101061AY201061GF102991021061004501001001KA1120N+01051MA1999999098911MD1999999+0041MW1101REMSYN086    AAXX  16004 48331 31430 20000 10115 20111 39891 40131 71000 82600 333 20105 58004;EQDQ01  00002PRCP99
0209483310999992000011603004+18770+100770FM-12+020199999V0209999C00001220001CN0080001N1+01941+01441101611ADDAA199000091AY101031AY201031GA1001+999999999GF100991001001999999001001MA1999999099251MD1999999+0201MW1101REMSYN074    AAXX  16034 48331 31958 00000 10194 20144 39925 40161 71000 333 58020;EQDQ01  00002PRCP99
0181483310999992000011606004+18770+100770FM-12+020199999V0209999C00001220001CN0120001N1+02891+01561101131ADDAA199000091GA1001+999999999GF100991001001999999001001MA1999999098871MD1999999+0121REMSYN068    AAXX  16064 48331 32962 00000 10289 20156 39887 40113 333 58012;EQDQ01  00002PRCP99
0181483310999992000011609004+18770+100770FM-12+020199999V0209999C00001220001CN0120001N1+03281+01661100811ADDAA199000091GA1001+999999999GF100991001001999999001001MA1999999098571MD1999999+0091REMSYN068    AAXX  16094 48331 32962 00000 10328 20166 39857 40081 333 58009;EQDQ01  00002PRCP99
0200483310999992000011612004+18770+100770FM-12+020199999V0209999C00001220001CN0120001N1+02391+01851100991ADDAA199000091GA1001+999999999GF100991001001999999001001KA1120M+03301MA1999999098681MD1999999+0071REMSYN074    AAXX  16124 48331 32962 00000 10239 20185 39868 40099 333 10330 58007;EQDQ01  00002PRCP99
0209483310999992000011615004+18770+100770FM-12+020199999V0209999C00001220001CN0080001N1+01871+01651101261ADDAA199000091AY101031AY201031GA1001+999999999GF100991001001999999001001MA1999999098911MD1999999+0021MW1101REMSYN074    AAXX  16154 48331 31958 00000 10187 20165 39891 40126 71000 333 58002;EQDQ01  00002PRCP99
0209483310999992000011621004+18770+100770FM-12+020199999V0209999C00001220001CN0060001N1+01351+01251101281ADDAA199000091AY101031AY201031GA1001+999999999GF100991001001999999001001MA1999999098891MD1999999+0001MW1101REMSYN074    AAXX  16214 48331 31956 00000 10135 20125 39889 40128 71000 333 58000;EQDQ01  00002PRCP99
0218483310999992000011700004+18770+100770FM-12+020199999V0209999C00001220001CN0006001N1+01171+01111101421ADDAA199000091AY101061AY201061GF102991001001999999001011KA1120N+01071MA1999999099011MD1999999+0111MW1401REMSYN086    AAXX  17004 48331 31906 20000 10117 20111 39901 40142 74000 80001 333 20107 58011;EQDQ01  00002PRCP99
0199483310999992000011703004+18770+100770FM-12+020199999V0209999C00001220001CN0040001N1+01851+01471101571ADDAA199000091AY141031AY201031GF101991001001999999001011MA1999999099211MD1999999-0041MW1101REMSYN080    AAXX  17034 48331 31940 10000 10185 20147 39921 40157 71040 80001 333 59004;EQDQ01  00002PRCP99
0209483310999992000011706004+18770+100770FM-12+020199999V0209999C00001220001CN0120001N1+02861+01651101701ADDAA199000091AY141061AY201061GA1001+999999999GF100991001001999999001001MA1999999098901MD1999999+0001MW1021REMSYN074    AAXX  17064 48331 31962 00000 10286 20165 39890 40170 70240 333 58000;EQDQ01  00002PRCP99
0197483310999992000011709004+18770+100770FM-12+020199999V0209999C00001220001CN0140001N1+03251+01701100852ADDAA199000091GA1001+999999999GF100991001001999999001001MA1999999098611MD1999999+0041REMSYN068    AAXX  17094 48331 32964 00000 10325 20170 39861 40085 333 58004;EQDQ01+100853APOSLPQ02  00002PRCP99
0200483310999992000011712004+18770+100770FM-12+020199999V0209999C00001220001CN0100001N1+02341+01801101011ADDAA199000091GA1001+999999999GF100991001001999999001001KA1120M+03351MA1999999098691MD1999999+0021REMSYN074    AAXX  17124 48331 32960 00000 10234 20180 39869 40101 333 10335 58002;EQDQ01  00002PRCP99
0181483310999992000011715004+18770+100770FM-12+020199999V0209999C00001220001CN0100001N1+01831+01631101251ADDAA199000091GA1001+999999999GF100991001001999999001001MA1999999098901MD1999999-0011REMSYN068    AAXX  17154 48331 32960 00000 10183 20163 39890 40125 333 59001;EQDQ01  00002PRCP99
0209483310999992000011718004+18770+100770FM-12+020199999V0209999C00001220001CN0080001N1+01521+01431101311ADDAA199000091AY101061AY201061GA1001+999999999GF100991001001999999001001MA1999999098931MD1999999+0041MW1101REMSYN074    AAXX  17184 48331 31958 00000 10152 20143 39893 40131 71000 333 58004;EQDQ01  00002PRCP99
0209483310999992000011721004+18770+100770FM-12+020199999V0209999C00001220001CN0080001N1+01351+01251101301ADDAA199000091AY101031AY201031GA1001+999999999GF100991001001999999001001MA1999999098911MD1999999+0021MW1101REMSYN074    AAXX  17214 48331 31958 00000 10135 20125 39891 40130 71000 333 58002;EQDQ01  00002PRCP99
0218483310999992000011800004+18770+100770FM-12+020199999V0209999C00001220001CN0040001N1+01201+01101101461ADDAA199000091AY101061AY201061GF103991001001999999001011KA1120N+01101MA1999999099041MD1999999+0041MW1101REMSYN086    AAXX  18004 48331 31940 30000 10120 20110 39904 40146 71000 80001 333 20110 58004;EQDQ01  00002PRCP99
0209483310999992000011803004+18770+100770FM-12+020199999V0209999C00001220001CN0060001N1+01851+01491101531ADDAA199000091AY101031AY201031GA1001+999999999GF100991001001999999001001MA1999999099161MD1999999-0041MW1101REMSYN074    AAXX  18034 48331 31956 00000 10185 20149 39916 40153 71000 333 59004;EQDQ01  00002PRCP99
0181483310999992000011806004+18770+100770FM-12+020199999V0201501N00151220001CN0120001N1+02901+01821101171ADDAA199000091GA1001+999999999GF100991001001999999001001MA1999999098901MD1999999+0001REMSYN068    AAXX  18064 48331 32962 01503 10290 20182 39890 40117 333 58000;EQDQ01  00002PRCP99
0181483310999992000011809004+18770+100770FM-12+020199999V0209999C00001220001CN0130001N1+03151+01881100881ADDAA199000091GA1001+999999999GF100991001001999999001001MA1999999098631MD1999999+0031REMSYN068    AAXX  18094 48331 32963 00000 10315 20188 39863 40088 333 58003;EQDQ01  00002PRCP99
0200483310999992000011812004+18770+100770FM-12+020199999V0209999C00001220001CN0120001N1+02471+01971100991ADDAA199000091GA1001+999999999GF100991001001999999001001KA1120M+03201MA1999999098691MD1999999-0021REMSYN074    AAXX  18124 48331 32962 00000 10247 20197 39869 40099 333 10320 59002;EQDQ01  00002PRCP99
0181483310999992000011815004+18770+100770FM-12+020199999V0209999C00001220001CN0100001N1+02051+01821101231ADDAA199000091GA1001+999999999GF100991001001999999001001MA1999999098901MD1999999-0021REMSYN068    AAXX  18154 48331 32960 00000 10205 20182 39890 40123 333 59002;EQDQ01  00002PRCP99
0209483310999992000011818004+18770+100770FM-12+020199999V0209999C00001220001CN0080001N1+01821+01701101341ADDAA199000091AY101061AY201061GA1001+999999999GF100991001001999999001001MA1999999098991MD1999999+0031MW1101REMSYN074    AAXX  18184 48331 31958 00000 10182 20170 39899 40134 71000 333 58003;EQDQ01  00002PRCP99
0199483310999992000011821004+18770+100770FM-12+020199999V0209999C00001220001CN0070001N1+01721+01631101271ADDAA199000091AY101031AY201031GF103991031051008001001001MA1999999098911MD1999999-0031MW1101REMSYN080    AAXX  18214 48331 31557 30000 10172 20163 39891 40127 71000 83500 333 59003;EQDQ01  00002PRCP99
0218483310999992000011900004+18770+100770FM-12+020199999V0209999C00001007501CN0080001N1+01731+01631101421ADDAA199000091AY111061AY201061GF106991061051008001001001KA1120N+01621MA1999999099051MD1999999-0041MW1101REMSYN086    AAXX  19004 48331 31558 60000 10173 20163 39905 40142 71010 86500 333 20162 59004;EQDQ01  00002PRCP99
0199483310999992000011903004+18770+100770FM-12+020199999V0209999C00001105001CN0080001N1+02201+01851101591ADDAA199000091AY121031AY221031GF106991031051008001001051MA1999999099251MD1999999+0061MW1101REMSYN080    AAXX  19034 48331 31558 60000 10220 20185 39925 40159 71022 83505 333 58006;EQDQ01  00002PRCP99
0199483310999992000011906004+18770+100770FM-12+020199999V0209999C00001007501CN0090001N1+02601+01721101321ADDAA199000091AY101061AY201061GF108991081051008001999999MA1999999099021MD1999999+0151MW1051REMSYN080    AAXX  19064 48331 31559 80000 10260 20172 39902 40132 70500 885// 333 58015;EQDQ01  00002PRCP99
0171483310999992000011909004+18770+100770FM-12+020199999V0209999C00001007501CN0110001N1+02601+01701101151ADDAA199000091GF106991061041008001001001MA1999999098851MD1999999+0271REMSYN074    AAXX  19094 48331 32561 60000 10260 20170 39885 40115 86400 333 58027;EQDQ01  00002PRCP99
0200483310999992000011912004+18770+100770FM-12+020199999V0209999C00001220001CN0100001N1+02201+01711101211ADDAA199000091GA1001+999999999GF100991001001999999001001KA1120M+02651MA1999999098881MD1999999+0221REMSYN074    AAXX  19124 48331 32960 00000 10220 20171 39888 40121 333 10265 58022;EQDQ01  00002PRCP99
0171483310999992000011915004+18770+100770FM-12+020199999V0209999C00001999999CN0100001N1+01951+01621101421ADDAA199000091GF105991051001999999031001MA1999999099071MD1999999+0191REMSYN074    AAXX  19154 48331 32960 50000 10195 20162 39907 40142 85030 333 58019;EQDQ01  00002PRCP99
0167483310999992000011918004+18770+100770FM-12+0201VTCN V0209999C000010450019N0100001N1+01851+01651101461ADDAA199000091GF106991021051008001051001MA1999999099101MD1999999+0131REMSYN070AAXX  19184 48331 32560 60000 10185 20165 39910 40146 82550 333 58013;EQDQ01  00002PRCP99
0182483310999992000011921004+18770+100770FM-12+0201VTCN V0209999C000010450019N0100001N1+01851+01701101391ADDAA101000191AY121031AY221031GF106991031051008001071001MA1999999099031MD1999999+0121MW1211REMSYN082AAXX  19214 48331 21560 60000 10185 20170 39903 40139 72122 83570 333 58012 69915;
0195483310999992000012000004+18770+100770FM-12+0201VTCN V0209999C000010075019N0070001N1+01771+01651101531ADDAA199000021AY121061AY221061GF107991061051008001071061KA1120N+01681MA1999999099151MD1999999+0111MW1101REMSYN082AAXX  20004 48331 31557 70000 10177 20165 39915 40153 71022 86576 333 20168 58011;
0148483310999992000012003004+18770+100770FM-12+0201VTCN V0201801N002610075019N0100001N1+02201+01531101641ADDAA199000021GF106991061051008001071061MA1999999099301MD1999999+0051REMSYN070AAXX  20034 48331 32560 61805 10220 20153 39930 40164 86576 333 58005;
0154483310999992000012006004+18770+100770FM-12+0201VTCN V0201601N003610120019N0100001N1+02601+01331101371ADDAA124000191GF106991051081008001071061MA1999999099061MD1999999+0051REMSYN076AAXX  20064 48331 32560 61607 10260 20133 39906 40137 85876 333 58005 70001;
0148483310999992000012009004+18770+100770FM-12+0201VTCN V0201501N002110075019N0120001N1+02551+01481101171ADDAA199000021GF108991061051008001071061MA1999999098881MD1999999+0021REMSYN070AAXX  20094 48331 32562 81504 10255 20148 39888 40117 86576 333 58002;
0173483310999992000012012004+18770+100770FM-12+0201VTCN V0209999C000010075019N0120001N1+02121+01591101381ADDAA124000191GF107991061051008001071061KA1120M+02731MA1999999099031MD1999999+0171REMSYN082AAXX  20124 48331 32562 70000 10212 20159 39903 40138 86576 333 10273 58017 70001;
0167483310999992000012015004+18770+100770FM-12+0201VTCN V0209999C000012200019N0100001N1+01801+01451101631ADDAA199000091GF104991041051008001041051MA1999999099261MD1999999+0211REMSYN070AAXX  20154 48331 32560 40000 10180 20145 39926 40163 84545 333 58021;EQDQ01  00002PRCP99
0195483310999992000012021004+18770+100770FM-12+0201VTCN V0209999C000010075019N0080001N1+01821+01581101691ADDAA199000091AY121031AY221031GF108991061051008001071061MA1999999099321MD1999999+0301MW1101REMSYN076AAXX  20214 48331 31558 80000 10182 20158 39932 40169 71022 86576 333 58030;EQDQ01  00002PRCP99
0214483310999992000012100004+18770+100770FM-12+0201VTCN V0209999C000010120019N0090001N1+01811+01621101791ADDAA199000091AY121061AY221061GF108991051051012501071999KA1120N+01661MA1999999099421MD1999999+0261MW1101REMSYN082AAXX  21004 48331 31659 80000 10181 20162 39942 40179 71022 8557/ 333 20166 58026;EQDQ01  00002PRCP99
0195483310999992000012103004+18770+100770FM-12+0201VTCN V0209999C000010120019N0090001N1+02171+01641101971ADDAA199000091AY121031AY221031GF107991051051012501071001MA1999999099621MD1999999+0331MW1101REMSYN076AAXX  21034 48331 31659 70000 10217 20164 39962 40197 71022 85570 333 58033;EQDQ01  00002PRCP99
0167483310999992000012106004+18770+100770FM-12+0201VTCN V0209999C000010450019N0120001N1+02691+01661101621ADDAA199000091GF106991041081008001051051MA1999999099321MD1999999+0251REMSYN070AAXX  21064 48331 32562 60000 10269 20166 39932 40162 84855 333 58025;EQDQ01  00002PRCP99
0167483310999992000012109004+18770+100770FM-12+0201VTCN V0209999C000010450019N0120001N1+02731+01691101371ADDAA199000091GF106991021051008001051011MA1999999099081MD1999999+0201REMSYN070AAXX  21094 48331 32562 60000 10273 20169 39908 40137 82551 333 58020;EQDQ01  00002PRCP99
0186483310999992000012112004+18770+100770FM-12+0201VTCN V0209999C000010450019N0100001N1+02361+01801101481ADDAA199000091GF105991041021008001051011KA1120M+02811MA1999999099161MD1999999+0101REMSYN076AAXX  21124 48331 32560 50000 10236 20180 39916 40148 84251 333 10281 58010;EQDQ01  00002PRCP99
0177483310999992000012115004+18770+100770FM-12+0201VTCN V0209999C000012200019N0100001N1+01981+01751101711ADDAA199000091GA1001+999999999GF100991001001999999001001MA1999999099351MD1999999+0081REMSYN064AAXX  21154 48331 32960 00000 10198 20175 39935 40171 333 58008;EQDQ01  00002PRCP99
0167483310999992000012118004+18770+100770FM-12+0201VTCN V0209999C000012200019N0100001N1+01801+01661101711ADDAA199000091GF103991031001999999071001MA1999999099341MD1999999+0011REMSYN070AAXX  21184 48331 32960 30000 10180 20166 39934 40171 83070 333 58001;EQDQ01  00002PRCP99
0167483310999992000012121004+18770+100770FM-12+0201VTCN V0209999C000012200019N0100001N1+01701+01591101601ADDAA199000091GF103991021051012501051001MA1999999099231MD1999999-0091REMSYN070AAXX  21214 48331 32660 30000 10170 20159 39923 40160 82550 333 59009;EQDQ01  00002PRCP99
0214483310999992000012200004+18770+100770FM-12+0201VTCN V0209999C000010450019N0040001N1+01611+01541101531ADDAA199000091AY111061AY201061GF106991041051008001051061KA1120N+01501MA1999999099151MD1999999-0261MW1101REMSYN082AAXX  22004 48331 31540 60000 10161 20154 39915 40153 71010 84556 333 20150 59026;EQDQ01  00002PRCP99
0195483310999992000012203004+18770+100770FM-12+0201VTCN V0209999C000012200019N0080001N1+02171+01731101841ADDAA199000091AY111031AY201031GF102991021051012501001011MA1999999099501MD1999999-0131MW1101REMSYN076AAXX  22034 48331 31658 20000 10217 20173 39950 40184 71010 82501 333 59013;EQDQ01  00002PRCP99
0137483310999992000012206004+18770+100770FM-12+0201VTCN V0200901N002112200019N0120001N1+02811+99999999999ADDAA199000091GF102991999999008001999999REMSYN069AAXX  22064 48331 32562 20904 10281 2075 39915 40145 82800 333 59017;EQDQ01  00002PRCP99
0167483310999992000012209004+18770+100770FM-12+0201VTCN V0209999C000012200019N0120001N1+02951+01721101131ADDAA199000091GF102991021081008001001001MA1999999098871MD1999999-0241REMSYN070AAXX  22094 48331 32562 20000 10295 20172 39887 40113 82800 333 59024;EQDQ01  00002PRCP99
0196483310999992000012212004+18770+100770FM-12+0201VTCN V0209999C000012200019N0120001N1+02421+01831101211ADDAA199000091GA1001+999999999GF100991001001999999001001KA1120M+03051MA1999999098911MD1999999-0271REMSYN070AAXX  22124 48331 32962 00000 10242 20183 39891 40121 333 10305 59027;EQDQ01  00002PRCP99
0177483310999992000012215004+18770+100770FM-12+0201VTCN V0209999C000012200019N0100001N1+01971+01771101461ADDAA199000091GA1001+999999999GF100991001001999999001001MA1999999099101MD1999999-0251REMSYN064AAXX  22154 48331 32960 00000 10197 20177 39910 40146 333 59025;EQDQ01  00002PRCP99
0195483310999992000012221004+18770+100770FM-12+0201VTCN V0209999C000012200019N0080001N1+01621+01531101421ADDAA199000091AY101031AY201031GF103991031051008001001001MA1999999099041MD1999999-0181MW1101REMSYN076AAXX  22214 48331 31558 30000 10162 20153 39904 40142 71000 83500 333 59018;EQDQ01  00002PRCP99
0214483310999992000012300004+18770+100770FM-12+0201VTCN V0209999C000010450019N0080001N1+01531+01471101531ADDAA199000091AY121061AY201061GF105991021051012501051001KA1120N+01421MA1999999099141MD1999999+0001MW1101REMSYN082AAXX  23004 48331 31658 50000 10153 20147 39914 40153 71020 82550 333 20142 58000;EQDQ01  00002PRCP99
0195483310999992000012303004+18770+100770FM-12+0201VTCN V0209999C000012200019N0090001N1+02081+01791101691ADDAA199000091AY101031AY201031GF102991011051012501051001MA1999999099351MD1999999-0151MW1101REMSYN076AAXX  23034 48331 31659 20000 10208 20179 39935 40169 71000 81550 333 59015;EQDQ01  00002PRCP99
0167483310999992000012306004+18770+100770FM-12+0201VTCN V0209999C000012200019N0120001N1+02811+01841101321ADDAA199000091GF104991021051008001051011MA1999999099041MD1999999-0131REMSYN070AAXX  23064 48331 32562 40000 10281 20184 39904 40132 82551 333 59013;EQDQ01  00002PRCP99
0167483310999992000012309004+18770+100770FM-12+0201VTCN V0209999C000012200019N0120001N1+02931+01861101051ADDAA199000091GF104991021021008001051011MA1999999098781MD1999999-0081REMSYN070AAXX  23094 48331 32562 40000 10293 20186 39878 40105 82251 333 59008;EQDQ01  00002PRCP99
0186483310999992000012312004+18770+100770FM-12+0201VTCN V0209999C000012200019N0100001N1+02431+01961101151ADDAA199000091GF104991021051012501051011KA1120M+03051MA1999999098841MD1999999-0061REMSYN076AAXX  23124 48331 32660 40000 10243 20196 39884 40115 82551 333 10305 59006;EQDQ01  00002PRCP99
0205483310999992000012315004+18770+100770FM-12+0201VTCN V0209999C000012200019N0080001N1+02051+01861101361ADDAA199000091AY101031AY201031GA1001+999999999GF100991001001999999001001MA1999999099021MD1999999-0101MW1101REMSYN070AAXX  23154 48331 31958 00000 10205 20186 39902 40136 71000 333 59010;EQDQ01  00002PRCP99
0205483310999992000012318004+18770+100770FM-12+0201VTCN V0209999C000012200019N0080001N1+01801+01681101401ADDAA199000091AY101061AY201061GA1001+999999999GF100991001001999999001001MA1999999099041MD1999999-0051MW1101REMSYN070AAXX  23184 48331 31958 00000 10180 20168 39904 40140 71000 333 59005;EQDQ01  00002PRCP99
0195483310999992000012321004+18770+100770FM-12+0201VTCN V0209999C000010450019N0080001N1+01671+01601101401ADDAA199000091AY111031AY201031GF106991021051012501051001MA1999999099021MD1999999-0021MW1101REMSYN076AAXX  23214 48331 31658 60000 10167 20160 39902 40140 71010 82550 333 59002;EQDQ01  00002PRCP99
0214483310999992000012400004+18770+100770FM-12+0201VTCN V0209999C000012200019N0004001N1+01571+01511101601ADDAA199000091AY111061AY201061GF102991021051008001001001KA1120N+01481MA1999999099211MD1999999+0071MW1461REMSYN082AAXX  24004 48331 31504 20000 10157 20151 39921 40160 74610 82500 333 20148 58007;EQDQ01  00002PRCP99
0195483310999992000012403004+18770+100770FM-12+0201VTCN V0209999C000012200019N0060001N1+02101+01781101731ADDAA199000091AY141031AY201031GF101991011011008001001001MA1999999099381MD1999999+0041MW1101REMSYN076AAXX  24034 48331 31556 10000 10210 20178 39938 40173 71040 81100 333 58004;EQDQ01  00002PRCP99
0195483310999992000012406004+18770+100770FM-12+0201VTCN V0209999C000012200019N0120001N1+03041+01881101341ADDAA199000091AY141061AY201061GF102991021021008001001001MA1999999099071MD1999999+0021MW1031REMSYN076AAXX  24064 48331 31562 20000 10304 20188 39907 40134 70340 82200 333 58002;EQDQ01  00002PRCP99
0167483310999992000012409004+18770+100770FM-12+0201VTCN V0209999C000012200019N0120001N1+03231+01521101061ADDAA199000091GF101991011011008001001001MA1999999098811MD1999999+0011REMSYN070AAXX  24094 48331 32562 10000 10323 20152 39881 40106 81100 333 58001;EQDQ01  00002PRCP99
0196483310999992000012412004+18770+100770FM-12+0201VTCN V0209999C000012200019N0120001N1+02451+01731101191ADDAA199000091GA1001+999999999GF100991001001999999001001KA1120M+03301MA1999999098891MD1999999+0041REMSYN070AAXX  24124 48331 32962 00000 10245 20173 39889 40119 333 10330 58004;EQDQ01  00002PRCP99
0177483310999992000012415004+18770+100770FM-12+0201VTCN V0209999C000012200019N0100001N1+01921+01631101501ADDAA199000091GA1001+999999999GF100991001001999999001001MA1999999099141MD1999999+0141REMSYN064AAXX  24154 48331 32960 00000 10192 20163 39914 40150 333 58014;EQDQ01  00002PRCP99
0195483310999992000012418004+18770+100770FM-12+0201VTCN V0209999C000012200019N0080001N1+01681+01541101571ADDAA199000091AY101061AY201061GF101991011011008001001001MA1999999099191MD1999999+0171MW1101REMSYN076AAXX  24184 48331 31558 10000 10168 20154 39919 40157 71000 81100 333 58017;EQDQ01  00002PRCP99
0195483310999992000012421004+18770+100770FM-12+0201VTCN V0209999C000012200019N0080001N1+01571+01461101551ADDAA199000091AY101031AY201031GF102991021011008001001001MA1999999099161MD1999999+0151MW1101REMSYN076AAXX  24214 48331 31558 20000 10157 20146 39916 40155 71000 82100 333 58015;EQDQ01  00002PRCP99
0214483310999992000012500004+18770+100770FM-12+0201VTCN V0209999C000012200019N0080001N1+01451+01361101681ADDAA199000091AY101061AY201061GF102991011011012501001051KA1120N+01351MA1999999099281MD1999999+0081MW1101REMSYN082AAXX  25004 48331 31658 20000 10145 20136 39928 40168 71000 81105 333 20135 58008;EQDQ01  00002PRCP99
0205483310999992000012503004+18770+100770FM-12+0201VTCN V0209999C000012200019N0080001N1+02061+01661101851ADDAA199000091AY101031AY201031GA1001+999999999GF100991001001999999001001MA1999999099501MD1999999+0121MW1101REMSYN070AAXX  25034 48331 31958 00000 10206 20166 39950 40185 71000 333 58012;EQDQ01  00002PRCP99
0177483310999992000012506004+18770+100770FM-12+0201VTCN V0202401N000512200019N0120001N1+03001+01851101401ADDAA199000091GA1001+999999999GF100991001001999999001001MA1999999099131MD1999999+0061REMSYN064AAXX  25064 48331 32962 02401 10300 20185 39913 40140 333 58006;EQDQ01  00002PRCP99
0167483310999992000012509004+18770+100770FM-12+0201VTCN V0209999C000012200019N0120001N1+03201+01831101151ADDAA199000091GF102991021021008001001001MA1999999098901MD1999999+0091REMSYN070AAXX  25094 48331 32562 20000 10320 20183 39890 40115 82200 333 58009;EQDQ01  00002PRCP99
0186483310999992000012512004+18770+100770FM-12+0201VTCN V0209999C000012200019N0100001N1+02551+01961101341ADDAA199000091GF102991021051008001051051KA1120M+03241MA1999999099041MD1999999+0151REMSYN076AAXX  25124 48331 32560 20000 10255 20196 39904 40134 82555 333 10324 58015;EQDQ01  00002PRCP99
0167483310999992000012515004+18770+100770FM-12+0201VTCN V0209999C000012200019N0100001N1+02231+01911101571ADDAA199000091GF102991021011008001001011MA1999999099241MD1999999+0071REMSYN070AAXX  25154 48331 32560 20000 10223 20191 39924 40157 82101 333 58007;EQDQ01  00002PRCP99
0167483310999992000012518004+18770+100770FM-12+0201VTCN V0209999C000012200019N0100001N1+01971+01771101611ADDAA199000091GF103991031051012501001001MA1999999099251MD1999999+0041REMSYN070AAXX  25184 48331 32660 30000 10197 20177 39925 40161 83500 333 58004;EQDQ01  00002PRCP99
0167483310999992000012521004+18770+100770FM-12+0201VTCN V0209999C000012200019N0100001N1+01801+01701101611ADDAA199000091GF104991031051012501051001MA1999999099241MD1999999+0061REMSYN070AAXX  25214 48331 32660 40000 10180 20170 39924 40161 83550 333 58006;EQDQ01  00002PRCP99
0186483310999992000012600004+18770+100770FM-12+0201VTCN V0209999C000012200019N0100001N1+01701+01611101811ADDAA199000091GF103991031051008001001001KA1120N+01601MA1999999099431MD1999999+0131REMSYN076AAXX  26004 48331 32560 30000 10170 20161 39943 40181 83500 333 20160 58013;EQDQ01  00002PRCP99
0167483310999992000012603004+18770+100770FM-12+0201VTCN V0209999C000012200019N0100001N1+02401+01831101901ADDAA199000091GF101991011011008001001001MA1999999099571MD1999999+0051REMSYN070AAXX  26034 48331 32560 10000 10240 20183 39957 40190 81100 333 58005;EQDQ01  00002PRCP99
0167483310999992000012606004+18770+100770FM-12+0201VTCN V0202101N001512200019N0150001N1+03001+01951101481ADDAA199000091GF102991021021008001001001MA1999999099211MD1999999+0081REMSYN070AAXX  26064 48331 32565 22103 10300 20195 39921 40148 82200 333 58008;EQDQ01  00002PRCP99
0167483310999992000012609004+18770+100770FM-12+0201VTCN V0209999C000012200019N0150001N1+03181+01841101231ADDAA199000091GF102991021021008001001001MA1999999098991MD1999999+0081REMSYN070AAXX  26094 48331 32565 20000 10318 20184 39899 40123 82200 333 58008;EQDQ01  00002PRCP99
0186483310999992000012612004+18770+100770FM-12+0201VTCN V0209999C000012200019N0120001N1+02651+01901101341ADDAA199000091GF101991011011008001001001KA1120M+03231MA1999999099041MD1999999+0001REMSYN076AAXX  26124 48331 32562 10000 10265 20190 39904 40134 81100 333 10323 58000;EQDQ01  00002PRCP99
0167483310999992000012618004+18770+100770FM-12+0201VTCN V0209999C000012200019N0100001N1+01931+01761101611ADDAA199000091GF101991011011008001001001MA1999999099241MD1999999+0001REMSYN070AAXX  26184 48331 32560 10000 10193 20176 39924 40161 81100 333 58000;EQDQ01  00002PRCP99
0177483310999992000012621004+18770+100770FM-12+0201VTCN V0209999C000012200019N0100001N1+01651+01561101691ADDAA199000091GA1001+999999999GF100991001001999999001001MA1999999099311MD1999999+0081REMSYN064AAXX  26214 48331 32960 00000 10165 20156 39931 40169 333 58008;EQDQ01  00002PRCP99
0186483310999992000012700004+18770+100770FM-12+0201VTCN V0209999C000012200019N0100001N1+01581+01491101841ADDAA199000091GF102991011001999999051011KA1120N+01491MA1999999099451MD1999999+0031REMSYN076AAXX  27004 48331 32960 20000 10158 20149 39945 40184 81051 333 20149 58003;EQDQ01  00002PRCP99
0177483310999992000012703004+18770+100770FM-12+0201VTCN V0201801N001012200019N0120001N1+02301+01451101971ADDAA199000091GA1001+999999999GF100991001001999999001001MA1999999099641MD1999999+0071REMSYN064AAXX  27034 48331 32962 01802 10230 20145 39964 40197 333 58007;EQDQ01  00002PRCP99
0167483310999992000012706004+18770+100770FM-12+0201VTCN V0201801N001512200019N0150001N1+02751+01571101641ADDAA199000091GF102991021081008001051011MA1999999099341MD1999999+0161REMSYN070AAXX  27064 48331 32565 21803 10275 20157 39934 40164 82851 333 58016;EQDQ01  00002PRCP99
0167483310999992000012709004+18770+100770FM-12+0201VTCN V0201801N001012200019N0150001N1+02921+01601101381ADDAA199000091GF102991021021008001001001MA1999999099111MD1999999+0151REMSYN070AAXX  27094 48331 32565 21802 10292 20160 39911 40138 82200 333 58015;EQDQ01  00002PRCP99
0186483310999992000012712004+18770+100770FM-12+0201VTCN V0201401N001012200019N0120001N1+02301+01551101601ADDAA199000091GF102991021001999999041061KA1120M+02971MA1999999099271MD1999999+0261REMSYN076AAXX  27124 48331 32962 21402 10230 20155 39927 40160 82046 333 10297 58026;EQDQ01  00002PRCP99
0167483310999992000012715004+18770+100770FM-12+0201VTCN V0209999C000012200019N0100001N1+01941+01531101751ADDAA199000091GF102991021001999999051001MA1999999099391MD1999999+0111REMSYN070AAXX  27154 48331 32960 20000 10194 20153 39939 40175 82050 333 58011;EQDQ01  00002PRCP99
0177483310999992000012718004+18770+100770FM-12+0201VTCN V0209999C000012200019N0100001N1+01651+01471101821ADDAA199000091GA1001+999999999GF100991001001999999001001MA1999999099431MD1999999+0161REMSYN064AAXX  27184 48331 32960 00000 10165 20147 39943 40182 333 58016;EQDQ01  00002PRCP99
0177483310999992000012721004+18770+100770FM-12+0201VTCN V0209999C000012200019N0100001N1+01481+01391101751ADDAA199000091GA1001+999999999GF100991001001999999001001MA1999999099351MD1999999+0061REMSYN064AAXX  27214 48331 32960 00000 10148 20139 39935 40175 333 58006;EQDQ01  00002PRCP99
0186483310999992000012800004+18770+100770FM-12+0201VTCN V0209999C000010120019N0100001N1+01321+01261101981ADDAA199000091GF105991051051012501001001KA1120N+01231MA1999999099571MD1999999+0141REMSYN076AAXX  28004 48331 32660 50000 10132 20126 39957 40198 85500 333 20123 58014;EQDQ01  00002PRCP99
0167483310999992000012803004+18770+100770FM-12+0201VTCN V0209999C000010075019N0120001N1+02001+01391102131ADDAA199000091GF105991051051008001051001MA1999999099761MD1999999+0161REMSYN070AAXX  28034 48331 32562 50000 10200 20139 39976 40213 85550 333 58016;EQDQ01  00002PRCP99
0167483310999992000012806004+18770+100770FM-12+0201VTCN V0209999C000010075019N0120001N1+02551+01401101731ADDAA199000091GF106991051051008001041051MA1999999099421MD1999999+0091REMSYN070AAXX  28064 48331 32562 60000 10255 20140 39942 40173 85545 333 58009;EQDQ01  00002PRCP99
0167483310999992000012809004+18770+100770FM-12+0201VTCN V0200601N001512200019N0120001N1+02811+01371101381ADDAA199000091GF101991011011008001001001MA1999999099081MD1999999+0001REMSYN070AAXX  28094 48331 32562 10603 10281 20137 39908 40138 81100 333 58000;EQDQ01  00002PRCP99
0196483310999992000012812004+18770+100770FM-12+0201VTCN V0209999C000012200019N0120001N1+02221+01551101501ADDAA199000091GA1001+999999999GF100991001001999999001001KA1120M+02891MA1999999099161MD1999999-0101REMSYN070AAXX  28124 48331 32962 00000 10222 20155 39916 40150 333 10289 59010;EQDQ01  00002PRCP99
0177483310999992000012815004+18770+100770FM-12+0201VTCN V0209999C000012200019N0120001N1+01811+01451101721ADDAA199000091GA1001+999999999GF100991001001999999001001MA1999999099351MD1999999-0031REMSYN064AAXX  28154 48331 32962 00000 10181 20145 39935 40172 333 59003;EQDQ01  00002PRCP99
0177483310999992000012818004+18770+100770FM-12+0201VTCN V0209999C000012200019N0100001N1+01531+01381101791ADDAA199000091GA1001+999999999GF100991001001999999001001MA1999999099391MD1999999-0031REMSYN064AAXX  28184 48331 32960 00000 10153 20138 39939 40179 333 59003;EQDQ01  00002PRCP99
0205483310999992000012821004+18770+100770FM-12+0201VTCN V0209999C000012200019N0080001N1+01341+01261101791ADDAA199000091AY101031AY201031GA1001+999999999GF100991001001999999001001MA1999999099381MD1999999+0041MW1101REMSYN070AAXX  28214 48331 31958 00000 10134 20126 39938 40179 71000 333 58004;EQDQ01  00002PRCP99
0186483310999992000012900004+18770+100770FM-12+0201VTCN V0209999C000012200019N0100001N1+01241+01161102021ADDAA199000091GF102991021001999999051001KA1120N+01121MA1999999099611MD1999999+0041REMSYN076AAXX  29004 48331 32960 20000 10124 20116 39961 40202 82050 333 20112 58004;EQDQ01  00002PRCP99
0177483310999992000012903004+18770+100770FM-12+0201VTCN V0209999C000012200019N0120001N1+01961+01481102131ADDAA199000091GA1001+999999999GF100991001001999999001001MA1999999099761MD1999999+0001REMSYN064AAXX  29034 48331 32962 00000 10196 20148 39976 40213 333 58000;EQDQ01  00002PRCP99
0177483310999992000012906004+18770+100770FM-12+0201VTCN V0209999C000012200019N0120001N1+02601+01401101741ADDAA199000091GA1001+999999999GF100991001001999999001001MA1999999099431MD1999999+0011REMSYN064AAXX  29064 48331 32962 00000 10260 20140 39943 40174 333 58001;EQDQ01  00002PRCP99
0177483310999992000012909004+18770+100770FM-12+0201VTCN V0209999C000012200019N0120001N1+02931+01491101451ADDAA199000091GA1001+999999999GF100991001001999999001001MA1999999099171MD1999999+0071REMSYN064AAXX  29094 48331 32962 00000 10293 20149 39917 40145 333 58007;EQDQ01  00002PRCP99
0196483310999992000012912004+18770+100770FM-12+0201VTCN V0209999C000012200019N0120001N1+02311+01541101631ADDAA199000091GA1001+999999999GF100991001001999999001001KA1120M+02971MA1999999099301MD1999999+0131REMSYN070AAXX  29124 48331 32962 00000 10231 20154 39930 40163 333 10297 58013;EQDQ01  00002PRCP99
0177483310999992000012915004+18770+100770FM-12+0201VTCN V0209999C000012200019N0120001N1+01851+01451101861ADDAA199000091GA1001+999999999GF100991001001999999001001MA1999999099501MD1999999+0141REMSYN064AAXX  29154 48331 32962 00000 10185 20145 39950 40186 333 58014;EQDQ01  00002PRCP99
0177483310999992000012918004+18770+100770FM-12+0201VTCN V0209999C000012200019N0100001N1+01521+01371101921ADDAA199000091GA1001+999999999GF100991001001999999001001MA1999999099531MD1999999+0131REMSYN064AAXX  29184 48331 32960 00000 10152 20137 39953 40192 333 58013;EQDQ01  00002PRCP99
0177483310999992000012921004+18770+100770FM-12+0201VTCN V0209999C000012200019N0100001N1+01351+01251101931ADDAA199000091GA1001+999999999GF100991001001999999001001MA1999999099531MD1999999+0141REMSYN064AAXX  29214 48331 32960 00000 10135 20125 39953 40193 333 58014;EQDQ01  00002PRCP99
0186483310999992000013000004+18770+100770FM-12+0201VTCN V0209999C000012200019N0100001N1+01251+01191102041ADDAA199000091GF102991021001999999051001KA1120N+01141MA1999999099611MD1999999+0011REMSYN076AAXX  30004 48331 32960 20000 10125 20119 39961 40204 82050 333 20114 58001;EQDQ01  00002PRCP99
0177483310999992000013003004+18770+100770FM-12+0201VTCN V0201801N001512200019N0100001N1+02101+01351102111ADDAA199000091GA1001+999999999GF100991001001999999001001MA1999999099751MD1999999-0021REMSYN064AAXX  30034 48331 32960 01803 10210 20135 39975 40211 333 59002;EQDQ01  00002PRCP99
0167483310999992000013006004+18770+100770FM-12+0201VTCN V0202001N002612200019N0150001N1+02781+01351101701ADDAA199000091GF101991011011008001001001MA1999999099401MD1999999-0041REMSYN070AAXX  30064 48331 32565 12005 10278 20135 39940 40170 81100 333 59004;EQDQ01  00002PRCP99
0167483310999992000013009004+18770+100770FM-12+0201VTCN V0201801N001512200019N0150001N1+02841+01561101461ADDAA199000091GF101991011011008001001001MA1999999099181MD1999999+0011REMSYN070AAXX  30094 48331 32565 11803 10284 20156 39918 40146 81100 333 58001;EQDQ01  00002PRCP99
0196483310999992000013012004+18770+100770FM-12+0201VTCN V0201301N001012200019N0120001N1+02251+01391101651ADDAA199000091GA1001+999999999GF100991001001999999001001KA1120M+02891MA1999999099311MD1999999+0021REMSYN070AAXX  30124 48331 32962 01302 10225 20139 39931 40165 333 10289 58002;EQDQ01  00002PRCP99
0177483310999992000013015004+18770+100770FM-12+0201VTCN V0209999C000012200019N0120001N1+01831+01391101951ADDAA199000091GA1001+999999999GF100991001001999999001001MA1999999099571MD1999999+0091REMSYN064AAXX  30154 48331 32962 00000 10183 20139 39957 40195 333 58009;EQDQ01  00002PRCP99
0177483310999992000013018004+18770+100770FM-12+0201VTCN V0209999C000012200019N0100001N1+01571+01351101991ADDAA199000091GA1001+999999999GF100991001001999999001001MA1999999099591MD1999999+0071REMSYN064AAXX  30184 48331 32960 00000 10157 20135 39959 40199 333 58007;EQDQ01  00002PRCP99
0177483310999992000013021004+18770+100770FM-12+0201VTCN V0209999C000012200019N0100001N1+01401+01271101991ADDAA199000091GA1001+999999999GF100991001001999999001001MA1999999099581MD1999999+0061REMSYN064AAXX  30214 48331 32960 00000 10140 20127 39958 40199 333 58006;EQDQ01  00002PRCP99
0224483310999992000013100004+18770+100770FM-12+0201VTCN V0209999C000012200019N0080001N1+01251+01151102161ADDAA199000091AY101061AY201061GA1001+999999999GF100991001001999999001001KA1120N+01151MA1999999099731MD1999999+0121MW1101REMSYN076AAXX  31004 48331 31958 00000 10125 20115 39973 40216 71000 333 20115 58012;EQDQ01  00002PRCP99
0205483310999992000013103004+18770+100770FM-12+0201VTCN V0209999C000012200019N0080001N1+02051+01351102271ADDAA199000091AY101031AY201031GA1001+999999999GF100991001001999999001001MA1999999099911MD1999999+0161MW1101REMSYN070AAXX  31034 48331 31958 00000 10205 20135 39991 40227 71000 333 58016;EQDQ01  00002PRCP99
0177483310999992000013106004+18770+100770FM-12+0201VTCN V0209999C000012200019N0120001N1+02631+01311101911ADDAA199000091GA1001+999999999GF100991001001999999001001MA1999999099611MD1999999+0211REMSYN064AAXX  31064 48331 32962 00000 10263 20131 39961 40191 333 58021;EQDQ01  00002PRCP99
0167483310999992000013109004+18770+100770FM-12+0201VTCN V0209999C000012200019N0120001N1+02901+01441101531ADDAA199000091GF101991011011008001001001MA1999999099251MD1999999+0071REMSYN070AAXX  31094 48331 32562 10000 10290 20144 39925 40153 81100 333 58007;EQDQ01  00002PRCP99
0186483310999992000013112004+18770+100770FM-12+0201VTCN V0209999C000012200019N0100001N1+02261+01631101641ADDAA199000091GF101991011051008001001001KA1120M+02961MA1999999099301MD1999999-0011REMSYN076AAXX  31124 48331 32560 10000 10226 20163 39930 40164 81500 333 10296 59001;EQDQ01  00002PRCP99
0205483310999992000013115004+18770+100770FM-12+0201VTCN V0209999C000012200019N0080001N1+01901+01471101911ADDAA199000091AY101031AY201031GA1001+999999999GF100991001001999999001001MA1999999099551MD1999999-0041MW1101REMSYN070AAXX  31154 48331 31958 00000 10190 20147 39955 40191 71000 333 59004;EQDQ01  00002PRCP99
0195483310999992000013118004+18770+100770FM-12+0201VTCN V0209999C000012200019N0080001N1+01631+01431101991ADDAA199000091AY101061AY201061GF101991011011008001001001MA1999999099601MD1999999+0001MW1101REMSYN076AAXX  31184 48331 31558 10000 10163 20143 39960 40199 71000 81100 333 58000;EQDQ01  00002PRCP99
0205483310999992000013121004+18770+100770FM-12+0201VTCN V0209999C000012200019N0080001N1+01401+01301101941ADDAA199000091AY101031AY201031GA1001+999999999GF100991001001999999001001MA1999999099541MD1999999-0051MW1101REMSYN070AAXX  31214 48331 31958 00000 10140 20130 39954 40194 71000 333 59005;EQDQ01  00002PRCP99
0224483310999992000020100004+18770+100770FM-12+0201VTCN V0209999C000012200019N0080001N1+01291+01211102151ADDAA199000091AY101061AY201061GA1001+999999999GF100991001001999999001001KA1120N+01171MA1999999099721MD1999999-0011MW1101REMSYN076AAXX  01004 48331 31958 00000 10129 20121 39972 40215 71000 333 20117 59001;EQDQ01  00002PRCP99
0177483310999992000020103004+18770+100770FM-12+0201VTCN V0209999C000012200019N0100001N1+02001+01331102251ADDAA199000091GA1001+999999999GF100991001001999999001001MA1999999099881MD1999999-0021REMSYN064AAXX  01034 48331 32960 00000 10200 20133 39988 40225 333 59002;EQDQ01  00002PRCP99
0167483310999992000020106004+18770+100770FM-12+0201VTCN V0209999C000012200019N0100001N1+02541+01321101871ADDAA199000091GF102991021021008001001001MA1999999099561MD1999999-0041REMSYN070AAXX  01064 48331 32560 20000 10254 20132 39956 40187 82200 333 59004;EQDQ01  00002PRCP99
0167483310999992000020109004+18770+100770FM-12+0201VTCN V0209999C000012200019N0120001N1+02741+01221101501ADDAA199000091GF101991011051008001001001MA1999999099201MD1999999-0031REMSYN070AAXX  01094 48331 32562 10000 10274 20122 39920 40150 81500 333 59003;EQDQ01  00002PRCP99
0196483310999992000020112004+18770+100770FM-12+0201VTCN V0209999C000012200019N0120001N1+02131+01451101581ADDAA199000091GA1001+999999999GF100991001001999999001001KA1120M+02811MA1999999099231MD1999999-0061REMSYN070AAXX  01124 48331 32962 00000 10213 20145 39923 40158 333 10281 59006;EQDQ01  00002PRCP99
0177483310999992000020115004+18770+100770FM-12+0201VTCN V0209999C000012200019N0100001N1+01671+01311101851ADDAA199000091GA1001+999999999GF100991001001999999001001MA1999999099471MD1999999-0061REMSYN064AAXX  01154 48331 32960 00000 10167 20131 39947 40185 333 59006;EQDQ01  00002PRCP99
0205483310999992000020121004+18770+100770FM-12+0201VTCN V0209999C000012200019N0080001N1+01201+01101101891ADDAA199000091AY101031AY201031GA1001+999999999GF100991001001999999001001MA1999999099471MD1999999-0051MW1101REMSYN070AAXX  01214 48331 31958 00000 10120 20110 39947 40189 71000 333 59005;EQDQ01  00002PRCP99
0224483310999992000020200004+18770+100770FM-12+0201VTCN V0209999C000012200019N0060001N1+01051+01001102091ADDAA199000091AY101061AY201061GA1001+999999999GF100991001001999999001001KA1120N+00951MA1999999099651MD1999999-0061MW1101REMSYN076AAXX  02004 48331 31956 00000 10105 20100 39965 40209 71000 333 20095 59006;EQDQ01  00002PRCP99
0205483310999992000020203004+18770+100770FM-12+0201VTCN V0209999C000012200019N0090001N1+01901+01281102191ADDAA199000091AY101031AY201031GA1001+999999999GF100991001001999999001001MA1999999099811MD1999999-0061MW1101REMSYN070AAXX  02034 48331 31959 00000 10190 20128 39981 40219 71000 333 59006;EQDQ01  00002PRCP99
0177483310999992000020206004+18770+100770FM-12+0201VTCN V0202001N001012200019N0120001N1+02601+01171101831ADDAA199000091GA1001+999999999GF100991001001999999001001MA1999999099511MD1999999-0041REMSYN064AAXX  02064 48331 32962 02002 10260 20117 39951 40183 333 59004;EQDQ01  00002PRCP99
0177483310999992000020209004+18770+100770FM-12+0201VTCN V0201401N000512200019N0150001N1+02801+01201101411ADDAA199000091GA1001+999999999GF100991001001999999001001MA1999999099121MD1999999-0091REMSYN064AAXX  02094 48331 32965 01401 10280 20120 39912 40141 333 59009;EQDQ01  00002PRCP99
0196483310999992000020212004+18770+100770FM-12+0201VTCN V0209999C000012200019N0120001N1+02101+01331101481ADDAA199000091GA1001+999999999GF100991001001999999001001KA1120M+02851MA1999999099141MD1999999-0101REMSYN070AAXX  02124 48331 32962 00000 10210 20133 39914 40148 333 10285 59010;EQDQ01  00002PRCP99
0177483310999992000020215004+18770+100770FM-12+0201VTCN V0209999C000012200019N0100001N1+01651+01301101731ADDAA199000091GA1001+999999999GF100991001001999999001001MA1999999099351MD1999999-0121REMSYN064AAXX  02154 48331 32960 00000 10165 20130 39935 40173 333 59012;EQDQ01  00002PRCP99
0177483310999992000020218004+18770+100770FM-12+0201VTCN V0209999C000012200019N0100001N1+01351+01211101821ADDAA199000091GA1001+999999999GF100991001001999999001001MA1999999099411MD1999999-0101REMSYN064AAXX  02184 48331 32960 00000 10135 20121 39941 40182 333 59010;EQDQ01  00002PRCP99
0205483310999992000020221004+18770+100770FM-12+0201VTCN V0209999C000012200019N0080001N1+01171+01091101771ADDAA199000091AY101031AY201031GA1001+999999999GF100991001001999999001001MA1999999099351MD1999999-0121MW1101REMSYN070AAXX  02214 48331 31958 00000 10117 20109 39935 40177 71000 333 59012;EQDQ01  00002PRCP99
0214483310999992000020300004+18770+100770FM-12+0201VTCN V0209999C000012200019N0070001N1+01041+00971101981ADDAA199000091AY101061AY201061GF101991001001999999001011KA1120N+00941MA1999999099541MD1999999-0111MW1101REMSYN082AAXX  03004 48331 31957 10000 10104 20097 39954 40198 71000 80001 333 20094 59011;EQDQ01  00002PRCP99
0205483310999992000020303004+18770+100770FM-12+0201VTCN V0209999C000012200019N0090001N1+01801+01261102111ADDAA199000091AY101031AY201031GA1001+999999999GF100991001001999999001001MA1999999099721MD1999999-0081MW1101REMSYN070AAXX  03034 48331 31959 00000 10180 20126 39972 40211 71000 333 59008;EQDQ01  00002PRCP99
0177483310999992000020306004+18770+100770FM-12+0201VTCN V0201801N001012200019N0120001N1+02691+01171101691ADDAA199000091GA1001+999999999GF100991001001999999001001MA1999999099401MD1999999-0141REMSYN064AAXX  03064 48331 32962 01802 10269 20117 39940 40169 333 59014;EQDQ01  00002PRCP99
0177483310999992000020309004+18770+100770FM-12+0201VTCN V0209999C000012200019N0120001N1+02981+01371101291ADDAA199000091GA1001+999999999GF100991001001999999001001MA1999999099011MD1999999-0121REMSYN064AAXX  03094 48331 32962 00000 10298 20137 39901 40129 333 59012;EQDQ01  00002PRCP99
0196483310999992000020312004+18770+100770FM-12+0201VTCN V0209999C000012200019N0120001N1+02221+01511101361ADDAA199000091GA1001+999999999GF100991001001999999001001KA1120M+03021MA1999999099031MD1999999-0121REMSYN070AAXX  03124 48331 32962 00000 10222 20151 39903 40136 333 10302 59012;EQDQ01  00002PRCP99
0177483310999992000020315004+18770+100770FM-12+0201VTCN V0209999C000012200019N0100001N1+01751+01411101551ADDAA199000091GA1001+999999999GF100991001001999999001001MA1999999099181MD1999999-0181REMSYN064AAXX  03154 48331 32960 00000 10175 20141 39918 40155 333 59018;EQDQ01  00002PRCP99
0177483310999992000020318004+18770+100770FM-12+0201VTCN V0209999C000012200019N0100001N1+01471+01341101631ADDAA199000091GA1001+999999999GF100991001001999999001001MA1999999099231MD1999999-0191REMSYN064AAXX  03184 48331 32960 00000 10147 20134 39923 40163 333 59019;EQDQ01  00002PRCP99
0205483310999992000020321004+18770+100770FM-12+0201VTCN V0209999C000012200019N0080001N1+01241+01161101581ADDAA199000091AY101031AY201031GA1001+999999999GF100991001001999999001001MA1999999099161MD1999999-0191MW1101REMSYN070AAXX  03214 48331 31958 00000 10124 20116 39916 40158 71000 333 59019;EQDQ01  00002PRCP99
0230483310999992000020400004+18770+100770FM-12+0201VTCN V0209999C000012200019N0080001N1+01101+01031101671ADDAA199000091AY101061AY201061GA1001+999999999GF100991001001999999001001KA1120N+00991MA1999999099241MD1999999-0311MW1101REMSYN082AAXX  04004 48331 31958 00000 10110 20103 39924 40167 71000 8//// 333 20099 59031;EQDQ01  00002PRCP99
0205483310999992000020403004+18770+100770FM-12+0201VTCN V0209999C000012200019N0080001N1+01941+01421101751ADDAA199000091AY101031AY201031GA1001+999999999GF100991001001999999001001MA1999999099381MD1999999-0361MW1101REMSYN070AAXX  04034 48331 31958 00000 10194 20142 39938 40175 71000 333 59036;EQDQ01  00002PRCP99
0177483310999992000020406004+18770+100770FM-12+0201VTCN V0209999C000012200019N0100001N1+02791+01321101311ADDAA199000091GA1001+999999999GF100991001001999999001001MA1999999099021MD1999999-0381REMSYN064AAXX  04064 48331 32960 00000 10279 20132 39902 40131 333 59038;EQDQ01  00002PRCP99
0177483310999992000020409004+18770+100770FM-12+0201VTCN V0209999C000012200019N0100001N1+03141+01411100901ADDAA199000091GA1001+999999999GF100991001001999999001001MA1999999098651MD1999999-0391REMSYN064AAXX  04094 48331 32960 00000 10314 20141 39865 40090 333 59039;EQDQ01  00002PRCP99
0196483310999992000020412004+18770+100770FM-12+0201VTCN V0209999C000012200019N0100001N1+02341+01481101011ADDAA199000091GA1001+999999999GF100991001001999999001001KA1120M+03211MA1999999098691MD1999999-0351REMSYN070AAXX  04124 48331 32960 00000 10234 20148 39869 40101 333 10321 59035;EQDQ01  00002PRCP99
0177483310999992000020415004+18770+100770FM-12+0201VTCN V0209999C000012200019N0100001N1+01821+01541101291ADDAA199000091GA1001+999999999GF100991001001999999001001MA1999999098931MD1999999-0261REMSYN064AAXX  04154 48331 32960 00000 10182 20154 39893 40129 333 59026;EQDQ01  00002PRCP99
0205483310999992000020418004+18770+100770FM-12+0201VTCN V0209999C000012200019N0080001N1+01531+01361101341ADDAA199000091AY101061AY201061GA1001+999999999GF100991001001999999001001MA1999999098961MD1999999-0291MW1101REMSYN070AAXX  04184 48331 31958 00000 10153 20136 39896 40134 71000 333 59029;EQDQ01  00002PRCP99
0205483310999992000020421004+18770+100770FM-12+0201VTCN V0209999C000012200019N0060001N1+01351+01251101331ADDAA199000091AY101031AY201031GA1001+999999999GF100991001001999999001001MA1999999098941MD1999999-0251MW1101REMSYN070AAXX  04214 48331 31956 00000 10135 20125 39894 40133 71000 333 59025;EQDQ01  00002PRCP99
0214483310999992000020500004+18770+100770FM-12+0201VTCN V0209999C000012200019N0080001N1+01191+01111101541ADDAA199000091AY101061AY201061GF102991001001999999001011KA1120N+01081MA1999999099121MD1999999-0131MW1101REMSYN082AAXX  05004 48331 31958 20000 10119 20111 39912 40154 71000 80001 333 20108 59013;EQDQ01  00002PRCP99
0205483310999992000020503004+18770+100770FM-12+0201VTCN V0209999C000012200019N0080001N1+01971+01511101641ADDAA199000091AY101031AY201031GA1001+999999999GF100991001001999999001001MA1999999099281MD1999999-0111MW1101REMSYN070AAXX  05034 48331 31958 00000 10197 20151 39928 40164 71000 333 59011;EQDQ01  00002PRCP99
0167483310999992000020506004+18770+100770FM-12+0201VTCN V0201501N001012200019N0120001N1+03011+01641101231ADDAA199000091GF101991011011008001001001MA1999999098961MD1999999-0081REMSYN070AAXX  05064 48331 32562 11502 10301 20164 39896 40123 81100 333 59008;EQDQ01  00002PRCP99
0167483310999992000020509004+18770+100770FM-12+0201VTCN V0209999C000012200019N0120001N1+03271+01201100871ADDAA199000091GF101991011011008001001001MA1999999098631MD1999999-0031REMSYN070AAXX  05094 48331 32562 10000 10327 20120 39863 40087 81100 333 59003;EQDQ01  00002PRCP99
0196483310999992000020512004+18770+100770FM-12+0201VTCN V0209999C000012200019N0120001N1+02501+01501100931ADDAA199000091GA1001+999999999GF100991001001999999001001KA1120M+03341MA1999999098641MD1999999-0081REMSYN070AAXX  05124 48331 32962 00000 10250 20150 39864 40093 333 10334 59008;EQDQ01  00002PRCP99
0177483310999992000020515004+18770+100770FM-12+0201VTCN V0209999C000012200019N0100001N1+01901+01451101251ADDAA199000091GA1001+999999999GF100991001001999999001001MA1999999098891MD1999999-0041REMSYN064AAXX  05154 48331 32960 00000 10190 20145 39889 40125 333 59004;EQDQ01  00002PRCP99
0177483310999992000020518004+18770+100770FM-12+0201VTCN V0209999C000012200019N0100001N1+01581+01351101331ADDAA199000091GA1001+999999999GF100991001001999999001001MA1999999098951MD1999999-0011REMSYN064AAXX  05184 48331 32960 00000 10158 20135 39895 40133 333 59001;EQDQ01  00002PRCP99
0177483310999992000020521004+18770+100770FM-12+0201VTCN V0209999C000012200019N0100001N1+01381+01251101341ADDAA199000091GA1001+999999999GF100991001001999999001001MA1999999098941MD1999999+0011REMSYN064AAXX  05214 48331 32960 00000 10138 20125 39894 40134 333 58001;EQDQ01  00002PRCP99
0224483310999992000020600004+18770+100770FM-12+0201VTCN V0209999C000012200019N0080001N1+01251+01151101491ADDAA199000091AY101061AY201061GA1001+999999999GF100991001001999999001001KA1120N+01141MA1999999099081MD1999999-0051MW1101REMSYN076AAXX  06004 48331 31958 00000 10125 20115 39908 40149 71000 333 20114 59005;EQDQ01  00002PRCP99
0205483310999992000020603004+18770+100770FM-12+0201VTCN V0209999C000012200019N0080001N1+02001+01411101531ADDAA199000091AY101031AY201031GA1001+999999999GF100991001001999999001001MA1999999099181MD1999999-0111MW1101REMSYN070AAXX  06034 48331 31958 00000 10200 20141 39918 40153 71000 333 59011;EQDQ01  00002PRCP99
0177483310999992000020606004+18770+100770FM-12+0201VTCN V0209999C000012200019N0120001N1+03001+01611101091ADDAA199000091GA1001+999999999GF100991001001999999001001MA1999999098831MD1999999-0141REMSYN064AAXX  06064 48331 32962 00000 10300 20161 39883 40109 333 59014;EQDQ01  00002PRCP99
0177483310999992000020609004+18770+100770FM-12+0201VTCN V0209999C000012200019N0120001N1+03281+01571100771ADDAA199000091GA1001+999999999GF100991001001999999001001MA1999999098531MD1999999-0101REMSYN064AAXX  06094 48331 32962 00000 10328 20157 39853 40077 333 59010;EQDQ01  00002PRCP99
0196483310999992000020612004+18770+100770FM-12+0201VTCN V0209999C000012200019N0120001N1+02421+01651100881ADDAA199000091GA1001+999999999GF100991001001999999001001KA1120M+03301MA1999999098571MD1999999-0051REMSYN070AAXX  06124 48331 32962 00000 10242 20165 39857 40088 333 10330 59005;EQDQ01  00002PRCP99
0177483310999992000020615004+18770+100770FM-12+0201VTCN V0209999C000012200019N0120001N1+01951+01581101181ADDAA199000091GA1001+999999999GF100991001001999999001001MA1999999098841MD1999999-0071REMSYN064AAXX  06154 48331 32962 00000 10195 20158 39884 40118 333 59007;EQDQ01  00002PRCP99
0177483310999992000020618004+18770+100770FM-12+0201VTCN V0209999C000012200019N0100001N1+01601+01421101261ADDAA199000091GA1001+999999999GF100991001001999999001001MA1999999098891MD1999999-0071REMSYN064AAXX  06184 48331 32960 00000 10160 20142 39889 40126 333 59007;EQDQ01  00002PRCP99
0205483310999992000020621004+18770+100770FM-12+0201VTCN V0209999C000012200019N0080001N1+01401+01301101221ADDAA199000091AY101031AY201031GA1001+999999999GF100991001001999999001001MA1999999098831MD1999999-0121MW1101REMSYN070AAXX  06214 48331 31958 00000 10140 20130 39883 40122 71000 333 59012;EQDQ01  00002PRCP99
0214483310999992000020700004+18770+100770FM-12+0201VTCN V0209999C000012200019N0080001N1+01321+01241101371ADDAA199000091AY101061AY201061GF102991001001999999001051KA1120N+01201MA1999999098971MD1999999-0121MW1101REMSYN082AAXX  07004 48331 31958 20000 10132 20124 39897 40137 71000 80005 333 20120 59012;EQDQ01  00002PRCP99
0205483310999992000020703004+18770+100770FM-12+0201VTCN V0209999C000012200019N0080001N1+02041+01551101501ADDAA199000091AY101031AY201031GA1001+999999999GF100991001001999999001001MA1999999099151MD1999999-0031MW1101REMSYN070AAXX  07034 48331 31958 00000 10204 20155 39915 40150 71000 333 59003;EQDQ01  00002PRCP99
0177483310999992000020706004+18770+100770FM-12+0201VTCN V0209999C000012200019N0120001N1+02931+01701101061ADDAA199000091GA1001+999999999GF100991001001999999001001MA1999999098791MD1999999-0031REMSYN064AAXX  07064 48331 32962 00000 10293 20170 39879 40106 333 59003;EQDQ01  00002PRCP99
0177483310999992000020709004+18770+100770FM-12+0201VTCN V0209999C000012200019N0120001N1+03201+01571100691ADDAA199000091GA1001+999999999GF100991001001999999001001MA1999999098451MD1999999-0081REMSYN064AAXX  07094 48331 32962 00000 10320 20157 39845 40069 333 59008;EQDQ01  00002PRCP99
0196483310999992000020712004+18770+100770FM-12+0201VTCN V0209999C000012200019N0120001N1+02381+01741100811ADDAA199000091GA1001+999999999GF100991001001999999001001KA1120M+03241MA1999999098501MD1999999-0071REMSYN070AAXX  07124 48331 32962 00000 10238 20174 39850 40081 333 10324 59007;EQDQ01  00002PRCP99
0177483310999992000020715004+18770+100770FM-12+0201VTCN V0209999C000012200019N0120001N1+01941+01561101091ADDAA199000091GA1001+999999999GF100991001001999999001001MA1999999098741MD1999999-0091REMSYN064AAXX  07154 48331 32962 00000 10194 20156 39874 40109 333 59009;EQDQ01  00002PRCP99
0205483310999992000020718004+18770+100770FM-12+0201VTCN V0209999C000012200019N0080001N1+01651+01531101131ADDAA199000091AY101061AY201061GA1001+999999999GF100991001001999999001001MA1999999098771MD1999999-0131MW1101REMSYN070AAXX  07184 48331 31958 00000 10165 20153 39877 40113 71000 333 59013;EQDQ01  00002PRCP99
0205483310999992000020721004+18770+100770FM-12+0201VTCN V0209999C000012200019N0080001N1+01481+01391101121ADDAA199000091AY101031AY201031GA1001+999999999GF100991001001999999001001MA1999999098741MD1999999-0101MW1101REMSYN070AAXX  07214 48331 31958 00000 10148 20139 39874 40112 71000 333 59010;EQDQ01  00002PRCP99
0224483310999992000020800004+18770+100770FM-12+0201VTCN V0209999C000012200019N0060001N1+01391+01311101281ADDAA199000091AY101061AY201061GA1001+999999999GF100991001001999999001001KA1120N+01271MA1999999098881MD1999999-0091MW1101REMSYN076AAXX  08004 48331 31956 00000 10139 20131 39888 40128 71000 333 20127 59009;EQDQ01  00002PRCP99
0177483310999992000020803004+18770+100770FM-12+0201VTCN V0201801N001012200019N0100001N1+02221+01511101421ADDAA199000091GA1001+999999999GF100991001001999999001001MA1999999099091MD1999999-0081REMSYN064AAXX  08034 48331 32960 01802 10222 20151 39909 40142 333 59008;EQDQ01  00002PRCP99
0177483310999992000020806004+18770+100770FM-12+0201VTCN V0202101N001512200019N0120001N1+02791+01431101121ADDAA199000091GA1001+999999999GF100991001001999999001001MA1999999098841MD1999999+0061REMSYN064AAXX  08064 48331 32962 02103 10279 20143 39884 40112 333 58006;EQDQ01  00002PRCP99
0161483310999992000020809004+18770+100770FM-12+0201VTCN V0201301N001512200019N0150001N1+02971+01521100801ADDAA199000091GF102991999999999999999999MA1999999098541MD1999999+0111REMSYN064AAXX  08094 48331 32965 21303 10297 20152 39854 40080 333 58011;EQDQ01  00002PRCP99
0186483310999992000020812004+18770+100770FM-12+0201VTCN V0209999C000012200019N0100001N1+02431+01741100911ADDAA199000091GF102991001001999999001011KA1120M+03001MA1999999098611MD1999999+0101REMSYN076AAXX  08124 48331 32960 20000 10243 20174 39861 40091 80001 333 10300 58010;EQDQ01  00002PRCP99
0177483310999992000020815004+18770+100770FM-12+0201VTCN V0209999C000012200019N0100001N1+01981+01651101131ADDAA199000091GA1001+999999999GF100991001001999999001001MA1999999098791MD1999999+0041REMSYN064AAXX  08154 48331 32960 00000 10198 20165 39879 40113 333 58004;EQDQ01  00002PRCP99
0177483310999992000020818004+18770+100770FM-12+0201VTCN V0209999C000012200019N0100001N1+01681+01541101171ADDAA199000091GA1001+999999999GF100991001001999999001001MA1999999098811MD1999999+0041REMSYN064AAXX  08184 48331 32960 00000 10168 20154 39881 40117 333 58004;EQDQ01  00002PRCP99
0177483310999992000020821004+18770+100770FM-12+0201VTCN V0209999C000012200019N0100001N1+01501+01411101141ADDAA199000091GA1001+999999999GF100991001001999999001001MA1999999098751MD1999999+0021REMSYN064AAXX  08214 48331 32960 00000 10150 20141 39875 40114 333 58002;EQDQ01  00002PRCP99
0214483310999992000020900004+18770+100770FM-12+0201VTCN V0209999C000012200019N0070001N1+01381+01321101271ADDAA199000091AY101061AY201061GF101991001001999999001011KA1120N+01271MA1999999098881MD1999999-0011MW1101REMSYN082AAXX  09004 48331 31957 10000 10138 20132 39888 40127 71000 80001 333 20127 59001;EQDQ01  00002PRCP99
0177483310999992000020903004+18770+100770FM-12+0201VTCN V0209999C000012200019N0100001N1+02101+01781101401ADDAA199000091GA1001+999999999GF100991001001999999001001MA1999999099061MD1999999-0021REMSYN064AAXX  09034 48331 32960 00000 10210 20178 39906 40140 333 59002;EQDQ01  00002PRCP99
0167483310999992000020909004+18770+100770FM-12+0201VTCN V0209999C000012200019N0120001N1+03101+01601100621ADDAA199000091GF101991011021008001001001MA1999999098371MD1999999-0181REMSYN070AAXX  09094 48331 32562 10000 10310 20160 39837 40062 81200 333 59018;EQDQ01  00002PRCP99
0186483310999992000020912004+18770+100770FM-12+0201VTCN V0209999C000012200019N0120001N1+02491+01621100771ADDAA199000091GF101991011011008001001001KA1120M+03151MA1999999098481MD1999999-0141REMSYN076AAXX  09124 48331 32562 10000 10249 20162 39848 40077 81100 333 10315 59014;EQDQ01  00002PRCP99
0167483310999992000020915004+18770+100770FM-12+0201VTCN V0209999C000012200019N0100001N1+02031+01601100991ADDAA199000091GF101991011011008001001001MA1999999098651MD1999999-0141REMSYN070AAXX  09154 48331 32560 10000 10203 20160 39865 40099 81100 333 59014;EQDQ01  00002PRCP99
0177483310999992000020918004+18770+100770FM-12+0201VTCN V0209999C000012200019N0100001N1+01751+01541101111ADDAA199000091GA1001+999999999GF100991001001999999001001MA1999999098751MD1999999-0061REMSYN064AAXX  09184 48331 32960 00000 10175 20154 39875 40111 333 59006;EQDQ01  00002PRCP99
0177483310999992000020921004+18770+100770FM-12+0201VTCN V0209999C000012200019N0100001N1+01551+01421101081ADDAA199000091GA1001+999999999GF100991001001999999001001MA1999999098711MD1999999-0061REMSYN064AAXX  09214 48331 32960 00000 10155 20142 39871 40108 333 59006;EQDQ01  00002PRCP99
0214483310999992000021000004+18770+100770FM-12+0201VTCN V0209999C000012200019N0080001N1+01421+01321101281ADDAA199000091AY101061AY201061GF102991001001999999001011KA1120N+01301MA1999999098891MD1999999+0011MW1101REMSYN082AAXX  10004 48331 31958 20000 10142 20132 39889 40128 71000 80001 333 20130 58001;EQDQ01  00002PRCP99
0205483310999992000021003004+18770+100770FM-12+0201VTCN V0201601N000512200019N0060001N1+02201+01621101421ADDAA199000091AY101031AY201031GA1001+999999999GF100991001001999999001001MA1999999099091MD1999999+0021MW1101REMSYN070AAXX  10034 48331 31956 01601 10220 20162 39909 40142 71000 333 58002;EQDQ01  00002PRCP99
0178483310999992000021006004+18770+100770FM-12+0201VTCN V0209999C000012200019N0120001N1+03011+01561101071ADDAA199000091GA1001+999999999GF100991001001999999001001MD1999999+0051REMSYN064AAXX  10064 48331 32962 00000 10301 20156 39981 40107 333 58005;EQDQ01+099813APOSP Q02  00002PRCP99
0167483310999992000021009004+18770+100770FM-12+0201VTCN V0209999C000012200019N0120001N1+03261+01411100741ADDAA199000091GF101991011011008001001001MA1999999098501MD1999999+0121REMSYN070AAXX  10094 48331 32562 10000 10326 20141 39850 40074 81100 333 58012;EQDQ01  00002PRCP99
0196483310999992000021012004+18770+100770FM-12+0201VTCN V0209999C000012200019N0100001N1+02431+01531100881ADDAA199000091GA1001+999999999GF100991001001999999001001KA1120M+03301MA1999999098581MD1999999+0111REMSYN070AAXX  10124 48331 32960 00000 10243 20153 39858 40088 333 10330 58011;EQDQ01  00002PRCP99
0177483310999992000021015004+18770+100770FM-12+0201VTCN V0209999C000012200019N0100001N1+01901+01541101101ADDAA199000091GA1001+999999999GF100991001001999999001001MA1999999098751MD1999999+0121REMSYN064AAXX  10154 48331 32960 00000 10190 20154 39875 40110 333 58012;EQDQ01  00002PRCP99
0177483310999992000021018004+18770+100770FM-12+0201VTCN V0209999C000012200019N0100001N1+01571+01411101221ADDAA199000091GA1001+999999999GF100991001001999999001001MA1999999098841MD1999999+0111REMSYN064AAXX  10184 48331 32960 00000 10157 20141 39884 40122 333 58011;EQDQ01  00002PRCP99
0205483310999992000021021004+18770+100770FM-12+0201VTCN V0209999C000012200019N0080001N1+01401+01291101171ADDAA199000091AY101031AY201031GA1001+999999999GF100991001001999999001001MA1999999098781MD1999999+0091MW1101REMSYN070AAXX  10214 48331 31958 00000 10140 20129 39878 40117 71000 333 58009;EQDQ01  00002PRCP99
0214483310999992000021100004+18770+100770FM-12+0201VTCN V0209999C000012200019N0060001N1+01281+01181101341ADDAA199000091AY101061AY201061GF102991001001999999001011KA1120N+01171MA1999999098951MD1999999+0061MW1101REMSYN082AAXX  11004 48331 31956 20000 10128 20118 39895 40134 71000 80001 333 20117 58006;EQDQ01  00002PRCP99
0167483310999992000021103004+18770+100770FM-12+0201VTCN V0209999C000012200019N0100001N1+02081+01371101441ADDAA199000091GF102991001001999999001011MA1999999099101MD1999999-0021REMSYN070AAXX  11034 48331 32960 20000 10208 20137 39910 40144 80001 333 59002;EQDQ01  00002PRCP99
0167483310999992000021106004+18770+100770FM-12+0201VTCN V0209999C000012200019N0100001N1+02851+01381101081ADDAA199000091GF104991011011008001001061MA1999999098891MD1999999+0011REMSYN070AAXX  11064 48331 32560 40000 10285 20138 39889 40108 81106 333 58001;EQDQ01  00002PRCP99
0167483310999992000021109004+18770+100770FM-12+0201VTCN V0209999C000012200019N0100001N1+03211+01241100741ADDAA199000091GF105991021011008001001061MA1999999098501MD1999999+0001REMSYN070AAXX  11094 48331 32560 50000 10321 20124 39850 40074 82106 333 58000;EQDQ01  00002PRCP99
0186483310999992000021112004+18770+100770FM-12+0201VTCN V0209999C000012200019N0100001N1+02461+01631100821ADDAA199000091GF104991011011008001001051KA1120M+03251MA1999999098521MD1999999-0061REMSYN076AAXX  11124 48331 32560 40000 10246 20163 39852 40082 81105 333 10325 59006;EQDQ01  00002PRCP99
0167483310999992000021115004+18770+100770FM-12+0201VTCN V0209999C000012200019N0100001N1+01931+01561101131ADDAA199000091GF102991001001999999001011MA1999999098781MD1999999+0031REMSYN070AAXX  11154 48331 32960 20000 10193 20156 39878 40113 80001 333 58003;EQDQ01  00002PRCP99
0195483310999992000021118004+18770+100770FM-12+0201VTCN V0209999C000012200019N0080001N1+01641+01441101151ADDAA199000091AY101061AY201061GF102991001001999999001011MA1999999098771MD1999999-0071MW1101REMSYN076AAXX  11184 48331 31958 20000 10164 20144 39877 40115 71000 80001 333 59007;EQDQ01  00002PRCP99
0205483310999992000021121004+18770+100770FM-12+0201VTCN V0209999C000012200019N0070001N1+01461+01351101121ADDAA199000091AY101031AY201031GA1001+999999999GF100991001001999999001001MA1999999098741MD1999999-0051MW1101REMSYN070AAXX  11214 48331 31957 00000 10146 20135 39874 40112 71000 333 59005;EQDQ01  00002PRCP99
0214483310999992000021200004+18770+100770FM-12+0201VTCN V0209999C000012200019N0080001N1+01321+01221101261ADDAA199000091AY101061AY201061GF102991001001999999001051KA1120N+01221MA1999999098881MD1999999-0081MW1101REMSYN082AAXX  12004 48331 31958 20000 10132 20122 39888 40126 71000 80005 333 20122 59008;EQDQ01  00002PRCP99
0205483310999992000021203004+18770+100770FM-12+0201VTCN V0209999C000012200019N0080001N1+02081+01471101381ADDAA199000091AY101031AY201031GA1001+999999999GF100991001001999999001001MA1999999099041MD1999999-0061MW1101REMSYN070AAXX  12034 48331 31958 00000 10208 20147 39904 40138 71000 333 59006;EQDQ01  00002PRCP99
0167483310999992000021206004+18770+100770FM-12+0201VTCN V0209999C000012200019N0100001N1+03031+01401100981ADDAA199000091GF102991001001999999001021MA1999999098721MD1999999-0101REMSYN070AAXX  12064 48331 32960 20000 10303 20140 39872 40098 80002 333 59010;EQDQ01  00002PRCP99
0167483310999992000021209004+18770+100770FM-12+0201VTCN V0209999C000012200019N0120001N1+03321+01451100631ADDAA199000091GF102991001001999999001021MA1999999098391MD1999999-0111REMSYN070AAXX  12094 48331 32962 20000 10332 20145 39839 40063 80002 333 59011;EQDQ01  00002PRCP99
0186483310999992000021212004+18770+100770FM-12+0201VTCN V0209999C000012200019N0120001N1+02521+01841100791ADDAA199000091GF103991001001999999001051KA1120M+03421MA1999999098491MD1999999-0031REMSYN076AAXX  12124 48331 32962 30000 10252 20184 39849 40079 80005 333 10342 59003;EQDQ01  00002PRCP99
0167483310999992000021215004+18770+100770FM-12+0201VTCN V0209999C000012200019N0100001N1+02081+01741101021ADDAA199000091GF102991001001999999001021MA1999999098691MD1999999-0111REMSYN070AAXX  12154 48331 32960 20000 10208 20174 39869 40102 80002 333 59011;EQDQ01  00002PRCP99
0167483310999992000021218004+18770+100770FM-12+0201VTCN V0209999C000012200019N0080001N1+01771+01621101061ADDAA199000091GF102991001001999999001051MA1999999098711MD1999999-0091REMSYN070AAXX  12184 48331 32958 20000 10177 20162 39871 40106 80005 333 59009;EQDQ01  00002PRCP99
0195483310999992000021221004+18770+100770FM-12+0201VTCN V0209999C000012200019N0060001N1+01561+01451101001ADDAA199000091AY101031AY201031GF102991001001999999001051MA1999999098631MD1999999-0121MW1101REMSYN076AAXX  12214 48331 31956 20000 10156 20145 39863 40100 71000 80005 333 59012;EQDQ01  00002PRCP99
0224483310999992000021300004+18770+100770FM-12+0201VTCN V0209999C000012200019N0060001N1+01381+01301101151ADDAA199000091AY101061AY201061GA1001+999999999GF100991001001999999001001KA1120N+01271MA1999999098761MD1999999-0111MW1101REMSYN076AAXX  13004 48331 31956 00000 10138 20130 39876 40115 71000 333 20127 59011;EQDQ01  00002PRCP99
0205483310999992000021303004+18770+100770FM-12+0201VTCN V0209999C000012200019N0060001N1+02101+01601101281ADDAA199000091AY101031AY201031GA1001+999999999GF100991001001999999001001MA1999999098941MD1999999-0101MW1101REMSYN070AAXX  13034 48331 31956 00000 10210 20160 39894 40128 71000 333 59010;EQDQ01  00002PRCP99
0177483310999992000021306004+18770+100770FM-12+0201VTCN V0209999C000012200019N0100001N1+03051+01641100861ADDAA199000091GA1001+999999999GF100991001001999999001001MA1999999098611MD1999999-0121REMSYN064AAXX  13064 48331 32960 00000 10305 20164 39861 40086 333 59012;EQDQ01  00002PRCP99
0177483310999992000021309004+18770+100770FM-12+0201VTCN V0209999C000012200019N0120001N1+03551+01511100511ADDAA199000091GA1001+999999999GF100991001001999999001001MA1999999098301MD1999999-0121REMSYN064AAXX  13094 48331 32962 00000 10355 20151 39830 40051 333 59012;EQDQ01  00002PRCP99
0196483310999992000021312004+18770+100770FM-12+0201VTCN V0209999C000012200019N0100001N1+02621+01761100631ADDAA199000091GA1001+999999999GF100991001001999999001001KA1120M+03621MA1999999098351MD1999999-0161REMSYN070AAXX  13124 48331 32960 00000 10262 20176 39835 40063 333 10362 59016;EQDQ01  00002PRCP99
0205483310999992000021315004+18770+100770FM-12+0201VTCN V0209999C000012200019N0080001N1+02101+01781100921ADDAA199000091AY101031AY201031GA1001+999999999GF100991001001999999001001MA1999999098591MD1999999-0101MW1101REMSYN070AAXX  13154 48331 31958 00000 10210 20178 39859 40092 71000 333 59010;EQDQ01  00002PRCP99
0205483310999992000021318004+18770+100770FM-12+0201VTCN V0209999C000012200019N0080001N1+01801+01631100971ADDAA199000091AY101061AY201061GA1001+999999999GF100991001001999999001001MA1999999098611MD1999999-0091MW1101REMSYN070AAXX  13184 48331 31958 00000 10180 20163 39861 40097 71000 333 59009;EQDQ01  00002PRCP99
0205483310999992000021321004+18770+100770FM-12+0201VTCN V0209999C000012200019N0080001N1+01601+01461100981ADDAA199000091AY101031AY201031GA1001+999999999GF100991001001999999001001MA1999999098611MD1999999-0021MW1101REMSYN070AAXX  13214 48331 31958 00000 10160 20146 39861 40098 71000 333 59002;EQDQ01  00002PRCP99
0214483310999992000021400004+18770+100770FM-12+0201VTCN V0209999C000012200019N0080001N1+01441+01361101171ADDAA199000091AY101061AY201061GF102991001001999999001011KA1120N+01331MA1999999098781MD1999999+0021MW1101REMSYN082AAXX  14004 48331 31958 20000 10144 20136 39878 40117 71000 80001 333 20133 58002;EQDQ01  00002PRCP99
0205483310999992000021403004+18770+100770FM-12+0201VTCN V0209999C000012200019N0080001N1+02251+01681101281ADDAA199000091AY101031AY201031GA1001+999999999GF100991001001999999001001MA1999999098961MD1999999+0001MW1101REMSYN070AAXX  14034 48331 31958 00000 10225 20168 39896 40128 71000 333 58000;EQDQ01  00002PRCP99
0177483310999992000021406004+18770+100770FM-12+0201VTCN V0209999C000012200019N0120001N1+03131+01681100931ADDAA199000091GA1001+999999999GF100991001001999999001001MA1999999098681MD1999999+0071REMSYN064AAXX  14064 48331 32962 00000 10313 20168 39868 40093 333 58007;EQDQ01  00002PRCP99
0196483310999992000021412004+18770+100770FM-12+0201VTCN V0209999C000012200019N0100001N1+02711+01901100721ADDAA199000091GA1001+999999999GF100991001001999999001001KA1120M+03651MA1999999098431MD1999999+0091REMSYN070AAXX  14124 48331 32960 00000 10271 20190 39843 40072 333 10365 58009;EQDQ01  00002PRCP99
0177483310999992000021415004+18770+100770FM-12+0201VTCN V0209999C000012200019N0100001N1+02171+01821100981ADDAA199000091GA1001+999999999GF100991001001999999001001MA1999999098651MD1999999+0061REMSYN064AAXX  14154 48331 32960 00000 10217 20182 39865 40098 333 58006;EQDQ01  00002PRCP99
0177483310999992000021418004+18770+100770FM-12+0201VTCN V0209999C000012200019N0100001N1+01831+01561101061ADDAA199000091GA1001+999999999GF100991001001999999001001MA1999999098691MD1999999+0091REMSYN064AAXX  14184 48331 32960 00000 10183 20156 39869 40106 333 58009;EQDQ01  00002PRCP99
0205483310999992000021421004+18770+100770FM-12+0201VTCN V0209999C000012200019N0080001N1+01681+01571101031ADDAA199000091AY101031AY201031GA1001+999999999GF100991001001999999001001MA1999999098651MD1999999+0051MW1101REMSYN070AAXX  14214 48331 31958 00000 10168 20157 39865 40103 71000 333 58005;EQDQ01  00002PRCP99
0224483310999992000021500004+18770+100770FM-12+0201VTCN V0209999C000012200019N0060001N1+01551+01461101171ADDAA199000091AY101061AY201061GA1001+999999999GF100991001001999999001001KA1120N+01451MA1999999098791MD1999999+0001MW1101REMSYN076AAXX  15004 48331 31956 00000 10155 20146 39879 40117 71000 333 20145 58000;EQDQ01  00002PRCP99
0205483310999992000021503004+18770+100770FM-12+0201VTCN V0209999C000012200019N0080001N1+02251+01731101341ADDAA199000091AY101031AY201031GA1001+999999999GF100991001001999999001001MA1999999099011MD1999999+0061MW1101REMSYN070AAXX  15034 48331 31958 00000 10225 20173 39901 40134 71000 333 58006;EQDQ01  00002PRCP99
0167483310999992000021506004+18770+100770FM-12+0201VTCN V0201901N001012200019N0120001N1+03221+01721100921ADDAA199000091GF102991001001999999001011MA1999999098681MD1999999-0011REMSYN070AAXX  15064 48331 32962 21902 10322 20172 39868 40092 80001 333 59001;EQDQ01  00002PRCP99
0167483310999992000021509004+18770+100770FM-12+0201VTCN V0201601N001512200019N0120001N1+03431+01701100631ADDAA199000091GF102991001001999999001011MA1999999098411MD1999999+0041REMSYN070AAXX  15094 48331 32962 21603 10343 20170 39841 40063 80001 333 58004;EQDQ01  00002PRCP99
0186483310999992000021512004+18770+100770FM-12+0201VTCN V0209999C000012200019N0100001N1+02781+01971100751ADDAA199000091GF102991001001999999001011KA1120M+03471MA1999999098481MD1999999+0021REMSYN076AAXX  15124 48331 32960 20000 10278 20197 39848 40075 80001 333 10347 58002;EQDQ01  00002PRCP99
0167483310999992000021515004+18770+100770FM-12+0201VTCN V0209999C000012200019N0100001N1+02401+01861101041ADDAA199000091GF102991001001999999001011MA1999999098731MD1999999+0061REMSYN070AAXX  15154 48331 32960 20000 10240 20186 39873 40104 80001 333 58006;EQDQ01  00002PRCP99
0195483310999992000021518004+18770+100770FM-12+0201VTCN V0209999C000019999999N0080001N1+02131+01891101041ADDAA199000091AY111061AY201061GF105991031001999999051061MA1999999098711MD1999999+0001MW1101REMSYN076AAXX  15184 48331 31958 50000 10213 20189 39871 40104 71010 83056 333 58000;EQDQ01  00002PRCP99
0195483310999992000021521004+18770+100770FM-12+0201VTCN V0209999C000012200019N0080001N1+02001+01841100961ADDAA199000091AY101031AY201031GF103991021051008001051011MA1999999098631MD1999999-0061MW1101REMSYN076AAXX  15214 48331 31558 30000 10200 20184 39863 40096 71000 82551 333 59006;EQDQ01  00002PRCP99
0214483310999992000021600004+18770+100770FM-12+0201VTCN V0209999C000010450019N0050001N1+02021+01821101191ADDAA199000091AY121061AY221061GF106991031051008001041061KA1120N+01871MA1999999098851MD1999999+0011MW1101REMSYN082AAXX  16004 48331 31550 60000 10202 20182 39885 40119 71022 83546 333 20187 58001;EQDQ01  00002PRCP99
0195483310999992000021603004+18770+100770FM-12+0201VTCN V0209999C000010450019N0060001N1+02431+01881101331ADDAA199000091AY121031AY221031GF107991041051008001071061MA1999999099011MD1999999-0011MW1101REMSYN076AAXX  16034 48331 31556 70000 10243 20188 39901 40133 71022 84576 333 59001;EQDQ01  00002PRCP99
0167483310999992000021606004+18770+100770FM-12+0201VTCN V0209999C000010450019N0100001N1+02951+01761101041ADDAA199000091GF107991041051008001071061MA1999999098781MD1999999+0121REMSYN070AAXX  16064 48331 32560 70000 10295 20176 39878 40104 84576 333 58012;EQDQ01  00002PRCP99
0167483310999992000021609004+18770+100770FM-12+0201VTCN V0201801N002610450019N0100001N1+03001+01891100791ADDAA199000091GF107991041051008001071061MA1999999098531MD1999999+0161REMSYN070AAXX  16094 48331 32560 71805 10300 20189 39853 40079 84576 333 58016;EQDQ01  00002PRCP99
0186483310999992000021612004+18770+100770FM-12+0201VTCN V0209999C000010450019N0100001N1+02631+01971100861ADDAA199000091GF107991041051008001071061KA1120M+03051MA1999999098571MD1999999+0111REMSYN076AAXX  16124 48331 32560 70000 10263 20197 39857 40086 84576 333 10305 58011;EQDQ01  00002PRCP99
0195483310999992000021615004+18770+100770FM-12+0201VTCN V0209999C000010450019N0080001N1+02351+01881101071ADDAA199000091AY121031AY221031GF106991031051008001041061MA1999999098761MD1999999+0031MW1101REMSYN076AAXX  16154 48331 31558 60000 10235 20188 39876 40107 71022 83546 333 58003;EQDQ01  00002PRCP99
0195483310999992000021618004+18770+100770FM-12+0201VTCN V0209999C000012200019N0060001N1+02101+01891101061ADDAA199000091AY121061AY211061GF104991031001999999051061MA1999999098731MD1999999+0021MW1101REMSYN076AAXX  16184 48331 31956 40000 10210 20189 39873 40106 71021 83056 333 58002;EQDQ01  00002PRCP99
0195483310999992000021621004+18770+100770FM-12+0201VTCN V0209999C000012200019N0060001N1+02021+01861101021ADDAA199000091AY111031AY211031GF104991021051008001041051MA1999999098681MD1999999+0061MW1101REMSYN076AAXX  16214 48331 31556 40000 10202 20186 39868 40102 71011 82545 333 58006;EQDQ01  00002PRCP99
0214483310999992000021700004+18770+100770FM-12+0201VTCN V0209999C000011050019N0060001N1+01881+01801101161ADDAA199000091AY121061AY211061GF106991021051008001051061KA1120N+01771MA1999999098811MD1999999-0031MW1101REMSYN082AAXX  17004 48331 31556 60000 10188 20180 39881 40116 71021 82556 333 20177 59003;EQDQ01  00002PRCP99
0195483310999992000021703004+18770+100770FM-12+0201VTCN V0209999C000011050019N0080001N1+02491+01891101281ADDAA199000091AY121031AY221031GF105991021051012501051011MA1999999098971MD1999999-0051MW1101REMSYN076AAXX  17034 48331 31658 50000 10249 20189 39897 40128 71022 82551 333 59005;EQDQ01  00002PRCP99
0167483310999992000021706004+18770+100770FM-12+0201VTCN V0201501N001012200019N0100001N1+03171+01961100901ADDAA199000091GF104991021051012501051021MA1999999098651MD1999999-0141REMSYN070AAXX  17064 48331 32660 41502 10317 20196 39865 40090 82552 333 59014;EQDQ01  00002PRCP99
0167483310999992000021709004+18770+100770FM-12+0201VTCN V0201401N001012200019N0100001N1+03361+02021100501ADDAA199000091GF102991021011008001051011MA1999999098271MD1999999-0291REMSYN070AAXX  17094 48331 32560 21402 10336 20202 39827 40050 82151 333 59029;EQDQ01  00002PRCP99
0186483310999992000021712004+18770+100770FM-12+0201VTCN V0209999C000012200019N0100001N1+02851+02101100601ADDAA199000091GF103991021051008001001051KA1120M+03401MA1999999098341MD1999999-0261REMSYN076AAXX  17124 48331 32560 30000 10285 20210 39834 40060 82505 333 10340 59026;EQDQ01  00002PRCP99
0167483310999992000021715004+18770+100770FM-12+0201VTCN V0209999C000010075019N0100001N1+02601+02051100881ADDAA199000091GF107991051051008001071061MA1999999098591MD1999999-0191REMSYN070AAXX  17154 48331 32560 70000 10260 20205 39859 40088 85576 333 59019;EQDQ01  00002PRCP99
0194483310999992000021718004+18770+100770FM-12+0201VTCN V0209999C000010075019N0080001N1+02321+02061101001ADDAA102000191AY161061AY221061GF108991051051008001071999MA1999999098681MD1999999-0061MW1291REMSYN094AAXX  17184 48331 /1558 80000 10232 20206 39868 40100 69923 72962 8557/ 333 59006 69926 70002;
0167483310999992000021721004+18770+100770FM-12+0201VTCN V0209999C000010450019N0100001N1+02201+02041100901ADDAA199000091GF108991021051008001071999MA1999999098581MD1999999-0121REMSYN070AAXX  17214 48331 32560 80000 10220 20204 39858 40090 8257/ 333 59012;EQDQ01  00002PRCP99
0213483310999992000021800004+18770+100770FM-12+0201VTCN V0209999C000010042019N0040001N1+02161+02071101051ADDAA101001091AY161061AY221061GF108991061051004501071999KA1120N+02041MA1999999098731MD1999999-0111MW1021REMSYN100AAXX  18004 48331 /1440 80000 10216 20207 39873 40105 60014 70262 8657/ 333 20204 59011 60015 70014;
0195483310999992000021803004+18770+100770FM-12+0201VTCN V0209999C000010075019N0080001N1+02411+02171101281ADDAA199000091AY121031AY221031GF108991061051008001071999MA1999999098971MD1999999+0001MW1101REMSYN076AAXX  18034 48331 31558 80000 10241 20217 39897 40128 71022 8657/ 333 58000;EQDQ01  00002PRCP99
0182483310999992000021806004+18770+100770FM-12+0201VTCN V0202101N002610075019N0080001N1+02651+02111101061ADDAA124001591AY121061AY221061GF108991051051008001071999MA1999999098781MD1999999+0161MW1101REMSYN082AAXX  18064 48331 31558 82105 10265 20211 39878 40106 71022 8557/ 333 58016 70014;
0195483310999992000021809004+18770+100770FM-12+0201VTCN V0201401N001510450019N0080001N1+02861+02041100681ADDAA199000091AY121031AY221031GF105991021051008001041051MA1999999098421MD1999999+0181MW1051REMSYN076AAXX  18094 48331 31558 51403 10286 20204 39842 40068 70522 82545 333 58018;EQDQ01  00002PRCP99
0213483310999992000021812004+18770+100770FM-12+0201VTCN V0209999C000010075019N0060001N1+02571+02231100771ADDAA101000791AY121061AY221061GF108991061051008001071999KA1120M+02981MA1999999098481MD1999999+0171MW1211REMSYN100AAXX  18124 48331 /1556 80000 10257 20223 39848 40077 69902 72122 8657/ 333 10298 58017 69905 70014;
0176483310999992000021815004+18770+100770FM-12+0201VTCN V0209999C000010450019N0060001N1+02421+02181100971ADDAA199000021AY121031AY221031GF107991031051008001061061MA1999999098671MD1999999+0091MW1101REMSYN076AAXX  18154 48331 31556 70000 10242 20218 39867 40097 71022 83566 333 58009;
0182483310999992000021818004+18770+100770FM-12+0201VTCN V0209999C000011050019N0060001N1+02301+02151100941ADDAA124001391AY121061AY221061GF106991021051008001051061MA1999999098631MD1999999-0061MW1101REMSYN082AAXX  18184 48331 31556 60000 10230 20215 39863 40094 71022 82556 333 59006 70012;
0176483310999992000021821004+18770+100770FM-12+0201VTCN V0209999C000012200019N0060001N1+02121+02041100861ADDAA199000021AY101031AY201031GF101991011051008001001001MA1999999098531MD1999999-0041MW1101REMSYN076AAXX  18214 48331 31556 10000 10212 20204 39853 40086 71000 81500 333 59004;
0201483310999992000021900004+18770+100770FM-12+0201VTCN V0209999C000012200019N0060001N1+02031+01951100981ADDAA124000791AY111061AY201061GF103991011051008001051011KA1120N+01921MA1999999098651MD1999999-0071MW1101REMSYN088AAXX  19004 48331 11556 30000 10203 20195 39865 40098 69904 71010 81551 333 20192 59007;
0195483310999992000021903004+18770+100770FM-12+0201VTCN V0209999C000012200019N0080001N1+02651+02201101111ADDAA199000091AY101031AY201031GF102991021011008001001001MA1999999098821MD1999999-0171MW1101REMSYN076AAXX  19034 48331 31558 20000 10265 20220 39882 40111 71000 82100 333 59017;EQDQ01  00002PRCP99
0154483310999992000021906004+18770+100770FM-12+0201VTCN V0209999C000010075019N0100001N1+03051+02161100821ADDAA124000791GF106991051031008001051011MA1999999098571MD1999999-0241REMSYN076AAXX  19064 48331 32560 60000 10305 20216 39857 40082 85351 333 59024 79999;
0182483310999992000021909004+18770+100770FM-12+0201VTCN V0209999C000010450019N0080001N1+02851+02311100611ADDAA101000191AY121031AY221031GF108991041071008001071999MA1999999098351MD1999999-0071MW1211REMSYN082AAXX  19094 48331 21558 80000 10285 20231 39835 40061 72122 8477/ 333 59007 69915;
0207483310999992000021912004+18770+100770FM-12+0201VTCN V0209999C000010450019N0080001N1+02521+02201100721ADDAA112000191AY161061AY221061GF107991041051008001051001KA1120M+03351MA1999999098431MD1999999-0051MW1101REMSYN094AAXX  19124 48331 11558 70000 10252 20220 39843 40072 69912 71062 84550 333 10335 59005 70001;
0176483310999992000021915004+18770+100770FM-12+0201VTCN V0209999C000010450019N0080001N1+02431+02291100931ADDAA199000021AY121031AY221031GF108991031051008001071999MA1999999098621MD1999999-0041MW1101REMSYN076AAXX  19154 48331 31558 80000 10243 20229 39862 40093 71022 8357/ 333 59004;
0182483310999992000021918004+18770+100770FM-12+0201VTCN V0209999C000010450019N0080001N1+02351+02201100911ADDAA124000191AY121061AY221061GF108991031051008001071999MA1999999098601MD1999999-0031MW1101REMSYN082AAXX  19184 48331 31558 80000 10235 20220 39860 40091 71022 8357/ 333 59003 70001;
0176483310999992000021921004+18770+100770FM-12+0201VTCN V0209999C000010450019N0080001N1+02301+02221100781ADDAA199000021AY121031AY221031GF108991031051008001071999MA1999999098471MD1999999-0081MW1101REMSYN076AAXX  19214 48331 31558 80000 10230 20222 39847 40078 71022 8357/ 333 59008;
0207483310999992000022000004+18770+100770FM-12+0201VTCN V0209999C000010450019N0060001N1+02221+02131100911ADDAA124000191AY121061AY221061GF107991031051008001051061KA1120N+02101MA1999999098591MD1999999-0071MW1101REMSYN094AAXX  20004 48331 11556 70000 10222 20213 39859 40091 69914 71022 83556 333 20210 59007 70001;
0195483310999992000022003004+18770+100770FM-12+0201VTCN V0202101N001511050019N0080001N1+02721+02231101071ADDAA199000091AY121031AY221031GF106991021051008001041061MA1999999098791MD1999999-0041MW1101REMSYN076AAXX  20034 48331 31558 62103 10272 20223 39879 40107 71022 82546 333 59004;EQDQ01  00002PRCP99
0195483310999992000022006004+18770+100770FM-12+0201VTCN V0209999C000010450019N0080001N1+03151+02211100791ADDAA199000091AY121061AY221061GF108991041051008001071061MA1999999098541MD1999999-0031MW1051REMSYN076AAXX  20064 48331 31558 80000 10315 20221 39854 40079 70522 84576 333 59003;EQDQ01  00002PRCP99
0167483310999992000022009004+18770+100770FM-12+0201VTCN V0201801N001511050019N0120001N1+03331+01991100481ADDAA199000091GF105991021051008001041061MA1999999098261MD1999999-0131REMSYN070AAXX  20094 48331 32562 51803 10333 20199 39826 40048 82546 333 59013;EQDQ01  00002PRCP99
0186483310999992000022012004+18770+100770FM-12+0201VTCN V0209999C000011050019N0120001N1+02901+02241100551ADDAA199000091GF105991021051008001041061KA1120M+03381MA1999999098301MD1999999-0171REMSYN076AAXX  20124 48331 32562 50000 10290 20224 39830 40055 82546 333 10338 59017;EQDQ01  00002PRCP99
0167483310999992000022015004+18770+100770FM-12+0201VTCN V0209999C000011050019N0120001N1+02651+02201100821ADDAA199000091GF105991021051008001041061MA1999999098541MD1999999-0111REMSYN070AAXX  20154 48331 32562 50000 10265 20220 39854 40082 82546 333 59011;EQDQ01  00002PRCP99
0167483310999992000022018004+18770+100770FM-12+0201VTCN V0209999C000010075019N0100001N1+02461+02161100861ADDAA199000091GF108991051051008001071061MA1999999098561MD1999999-0051REMSYN070AAXX  20184 48331 32560 80000 10246 20216 39856 40086 85576 333 59005;EQDQ01  00002PRCP99
0167483310999992000022021004+18770+100770FM-12+0201VTCN V0209999C000010075019N0100001N1+02301+02151100831ADDAA199000091GF108991061051008001071999MA1999999098511MD1999999+0051REMSYN070AAXX  20214 48331 32560 80000 10230 20215 39851 40083 8657/ 333 58005;EQDQ01  00002PRCP99
0214483310999992000022100004+18770+100770FM-12+0201VTCN V0209999C000010450019N0090001N1+02251+02101100981ADDAA199000091AY121061AY221061GF106991021051008001051021KA1120N+02151MA1999999098661MD1999999+0071MW1101REMSYN082AAXX  21004 48331 31559 60000 10225 20210 39866 40098 71022 82552 333 20215 58007;EQDQ01  00002PRCP99
0167483310999992000022103004+18770+100770FM-12+0201VTCN V0209999C000019999999N0100001N1+02821+02161101111ADDAA199000091GF105991041001999999051011MA1999999098841MD1999999+0041REMSYN070AAXX  21034 48331 32960 50000 10282 20216 39884 40111 84051 333 58004;EQDQ01  00002PRCP99
0167483310999992000022106004+18770+100770FM-12+0201VTCN V0201201N001510450019N0120001N1+03451+02151100811ADDAA199000091GF105991031091008001051031MA1999999098581MD1999999+0021REMSYN070AAXX  21064 48331 32562 51203 10345 20215 39858 40081 83953 333 58002;EQDQ01  00002PRCP99
0167483310999992000022109004+18770+100770FM-12+0201VTCN V0201201N001012200019N0120001N1+03571+01941100441ADDAA199000091GF104991031031008001051011MA1999999098231MD1999999-0041REMSYN070AAXX  21094 48331 32562 41202 10357 20194 39823 40044 83351 333 59004;EQDQ01  00002PRCP99
0186483310999992000022112004+18770+100770FM-12+0201VTCN V0209999C000012200019N0100001N1+03041+02141100491ADDAA199000091GF103991021051008001051011KA1120M+03611MA1999999098241MD1999999-0061REMSYN076AAXX  21124 48331 32560 30000 10304 20214 39824 40049 82551 333 10361 59006;EQDQ01  00002PRCP99
0167483310999992000022115004+18770+100770FM-12+0201VTCN V0209999C000012200019N0100001N1+02571+02131100821ADDAA199000091GF102991021001999999051011MA1999999098531MD1999999+0001REMSYN070AAXX  21154 48331 32960 20000 10257 20213 39853 40082 82051 333 58000;EQDQ01  00002PRCP99
0167483310999992000022118004+18770+100770FM-12+0201VTCN V0209999C000012200019N0100001N1+02351+02091100891ADDAA199000091GF102991021001999999051001MA1999999098581MD1999999+0031REMSYN070AAXX  21184 48331 32960 20000 10235 20209 39858 40089 82050 333 58003;EQDQ01  00002PRCP99
0167483310999992000022121004+18770+100770FM-12+0201VTCN V0209999C000012200019N0100001N1+02201+02031100821ADDAA199000091GF102991001001999999001011MA1999999098501MD1999999-0011REMSYN070AAXX  21214 48331 32960 20000 10220 20203 39850 40082 80001 333 59001;EQDQ01  00002PRCP99
0214483310999992000022200004+18770+100770FM-12+0201VTCN V0209999C000012200019N0080001N1+02091+01951101001ADDAA199000091AY101061AY201061GF102991021001999999051051KA1120N+01981MA1999999098671MD1999999+0021MW1101REMSYN082AAXX  22004 48331 31958 20000 10209 20195 39867 40100 71000 82055 333 20198 58002;EQDQ01  00002PRCP99
0167483310999992000022203004+18770+100770FM-12+0201VTCN V0209999C000012200019N0120001N1+02751+02131101191ADDAA199000091GF104991031001999999051051MA1999999098921MD1999999+0081REMSYN070AAXX  22034 48331 32962 40000 10275 20213 39892 40119 83055 333 58008;EQDQ01  00002PRCP99
0167483310999992000022206004+18770+100770FM-12+0201VTCN V0209999C000012200019N0120001N1+03451+02221100891ADDAA199000091GF104991031001999999051051MA1999999098591MD1999999+0081REMSYN070AAXX  22064 48331 32962 40000 10345 20222 39859 40089 83055 333 58008;EQDQ01  00002PRCP99
0186483310999992000022212004+18770+100770FM-12+0201VTCN V0209999C000012200019N0120001N1+03041+02151100551ADDAA199000091GF104991031001999999041051KA1120M+03731MA1999999098301MD1999999+0061REMSYN076AAXX  22124 48331 32962 40000 10304 20215 39830 40055 83045 333 10373 58006;EQDQ01  00002PRCP99
0167483310999992000022215004+18770+100770FM-12+0201VTCN V0209999C000012200019N0120001N1+02591+02121100801ADDAA199000091GF102991001001999999001051MA1999999098511MD1999999-0011REMSYN070AAXX  22154 48331 32962 20000 10259 20212 39851 40080 80005 333 59001;EQDQ01  00002PRCP99
0195483310999992000022218004+18770+100770FM-12+0201VTCN V0209999C000012200019N0080001N1+02351+02041100841ADDAA199000091AY101061AY201061GF102991001001999999001011MA1999999098541MD1999999-0051MW1101REMSYN076AAXX  22184 48331 31958 20000 10235 20204 39854 40084 71000 80001 333 59005;EQDQ01  00002PRCP99
0211483310999992000022221004+18770+100770FM-12+0201VTCN V0209999C000012200019N0060001N1+02191+01991100821ADDAA199000091AY101031AY201031GA1001+999999999GF100991001001999999001001MA1999999098501MD1999999+0001MW1101REMSYN076AAXX  22214 48331 31956 00000 10219 20199 39850 40082 71000 8//// 333 58000;EQDQ01  00002PRCP99
0214483310999992000022300004+18770+100770FM-12+0201VTCN V0209999C000012200019N0080001N1+02051+01891100961ADDAA199000091AY101061AY201061GF102991011011008001051011KA1120N+01951MA1999999098631MD1999999-0041MW1101REMSYN082AAXX  23004 48331 31558 20000 10205 20189 39863 40096 71000 81151 333 20195 59004;EQDQ01  00002PRCP99
0195483310999992000022303004+18770+100770FM-12+0201VTCN V0209999C000012200019N0080001N1+02801+01951101091ADDAA199000091AY101031AY201031GF102991001001999999001061MA1999999098811MD1999999-0101MW1051REMSYN076AAXX  23034 48331 31958 20000 10280 20195 39881 40109 70500 80006 333 59010;EQDQ01  00002PRCP99
0167483310999992000022306004+18770+100770FM-12+0201VTCN V0201901N000512200019N0100001N1+03451+02251100781ADDAA199000091GF102991021011008001001001MA1999999098551MD1999999-0031REMSYN070AAXX  23064 48331 32560 21901 10345 20225 39855 40078 82100 333 59003;EQDQ01  00002PRCP99
0167483310999992000022309004+18770+100770FM-12+0201VTCN V0209999C000012200019N0100001N1+03631+02191100431ADDAA199000091GF102991021031008001001001MA1999999098221MD1999999-0051REMSYN070AAXX  23094 48331 32560 20000 10363 20219 39822 40043 82300 333 59005;EQDQ01  00002PRCP99
0186483310999992000022312004+18770+100770FM-12+0201VTCN V0209999C000012200019N0100001N1+03071+02281100481ADDAA199000091GF102991011011008001001021KA1120M+03651MA1999999098231MD1999999-0071REMSYN076AAXX  23124 48331 32560 20000 10307 20228 39823 40048 81102 333 10365 59007;EQDQ01  00002PRCP99
0205483310999992000022315004+18770+100770FM-12+0201VTCN V0209999C000012200019N0080001N1+02631+02261100791ADDAA199000091AY101031AY201031GA1001+999999999GF100991001001999999001001MA1999999098511MD1999999-0011MW1101REMSYN070AAXX  23154 48331 31958 00000 10263 20226 39851 40079 71000 333 59001;EQDQ01  00002PRCP99
0205483310999992000022318004+18770+100770FM-12+0201VTCN V0209999C000012200019N0050001N1+02391+02161100851ADDAA199000091AY101061AY201061GA1001+999999999GF100991001001999999001001MA1999999098541MD1999999+0011MW1101REMSYN070AAXX  23184 48331 31950 00000 10239 20216 39854 40085 71000 333 58001;EQDQ01  00002PRCP99
0205483310999992000022321004+18770+100770FM-12+0201VTCN V0209999C000012200019N0080001N1+02251+02101100821ADDAA199000091AY101031AY201031GA1001+999999999GF100991001001999999001001MA1999999098501MD1999999+0001MW1101REMSYN070AAXX  23214 48331 31958 00000 10225 20210 39850 40082 71000 333 58000;EQDQ01  00002PRCP99
0230483310999992000022400004+18770+100770FM-12+0201VTCN V0209999C000012200019N0080001N1+02121+02011101061ADDAA199000091AY101061AY201061GA1001+999999999GF100991001001999999001001KA1120N+02001MA1999999098731MD1999999+0101MW1101REMSYN082AAXX  24004 48331 31958 00000 10212 20201 39873 40106 71000 8//// 333 20200 58010;EQDQ01  00002PRCP99
0205483310999992000022403004+18770+100770FM-12+0201VTCN V0209999C000012200019N0080001N1+02831+02191101161ADDAA199000091AY101031AY201031GA1001+999999999GF100991001001999999001001MA1999999098881MD1999999+0071MW1101REMSYN070AAXX  24034 48331 31958 00000 10283 20219 39888 40116 71000 333 58007;EQDQ01  00002PRCP99
0177483310999992000022406004+18770+100770FM-12+0201VTCN V0209999C000012200019N0100001N1+03461+02051100781ADDAA199000091GA1001+999999999GF100991001001999999001001MA1999999098561MD1999999+0001REMSYN064AAXX  24064 48331 32960 00000 10346 20205 39856 40078 333 58000;EQDQ01  00002PRCP99
0177483310999992000022409004+18770+100770FM-12+0201VTCN V0209999C000012200019N0120001N1+03721+02121100381ADDAA199000091GA1001+999999999GF100991001001999999001001MA1999999098191MD1999999-0051REMSYN064AAXX  24094 48331 32962 00000 10372 20212 39819 40038 333 59005;EQDQ01  00002PRCP99
0196483310999992000022412004+18770+100770FM-12+0201VTCN V0209999C000012200019N0120001N1+03101+02351100391ADDAA199000091GA1001+999999999GF100991001001999999001001KA1120M+03751MA1999999098151MD1999999-0091REMSYN070AAXX  24124 48331 32962 00000 10310 20235 39815 40039 333 10375 59009;EQDQ01  00002PRCP99
0177483310999992000022415004+18770+100770FM-12+0201VTCN V0209999C000012200019N0120001N1+02711+02331100721ADDAA199000091GA1001+999999999GF100991001001999999001001MA1999999098441MD1999999-0071REMSYN064AAXX  24154 48331 32962 00000 10271 20233 39844 40072 333 59007;EQDQ01  00002PRCP99
0205483310999992000022418004+18770+100770FM-12+0201VTCN V0209999C000012200019N0080001N1+02421+02181100881ADDAA199000091AY101061AY201061GA1001+999999999GF100991001001999999001001MA1999999098581MD1999999+0031MW1101REMSYN070AAXX  24184 48331 31958 00000 10242 20218 39858 40088 71000 333 58003;EQDQ01  00002PRCP99
0205483310999992000022421004+18770+100770FM-12+0201VTCN V0209999C000012200019N0060001N1+02281+02131100871ADDAA199000091AY101031AY201031GA1001+999999999GF100991001001999999001001MA1999999098561MD1999999+0051MW1101REMSYN070AAXX  24214 48331 31956 00000 10228 20213 39856 40087 71000 333 58005;EQDQ01  00002PRCP99
0214483310999992000022500004+18770+100770FM-12+0201VTCN V0209999C000012200019N0060001N1+02171+02061101041ADDAA199000091AY101061AY201061GF103991011051008001051061KA1120N+02051MA1999999098711MD1999999-0021MW1101REMSYN082AAXX  25004 48331 31556 30000 10217 20206 39871 40104 71000 81556 333 20205 59002;EQDQ01  00002PRCP99
0195483310999992000022503004+18770+100770FM-12+0201VTCN V0209999C000012200019N0080001N1+02711+02201101171ADDAA199000091AY101031AY201031GF102991021001999999051011MA1999999098891MD1999999+0011MW1101REMSYN076AAXX  25034 48331 31958 20000 10271 20220 39889 40117 71000 82051 333 58001;EQDQ01  00002PRCP99
0167483310999992000022506004+18770+100770FM-12+0201VTCN V0201801N001512200019N0100001N1+03371+02211100871ADDAA199000091GF104991031031008001001011MA1999999098641MD1999999+0091REMSYN070AAXX  25064 48331 32560 41803 10337 20221 39864 40087 83301 333 58009;EQDQ01  00002PRCP99
0167483310999992000022509004+18770+100770FM-12+0201VTCN V0201401N002112200019N0100001N1+03501+02231100531ADDAA199000091GF103991021091008001051031MA1999999098311MD1999999+0151REMSYN070AAXX  25094 48331 32560 31404 10350 20223 39831 40053 82953 333 58015;EQDQ01  00002PRCP99
0186483310999992000022512004+18770+100770FM-12+0201VTCN V0201501N001512200019N0100001N1+03031+02221100591ADDAA199000091GF104991021021008001051061KA1120M+03551MA1999999098341MD1999999+0201REMSYN076AAXX  25124 48331 32560 41503 10303 20222 39834 40059 82256 333 10355 58020;EQDQ01  00002PRCP99
0167483310999992000022518004+18770+100770FM-12+0201VTCN V0209999C000011050019N0100001N1+02551+02171100961ADDAA199000091GF105991021051008001051011MA1999999098671MD1999999+0081REMSYN070AAXX  25184 48331 32560 50000 10255 20217 39867 40096 82551 333 58008;EQDQ01  00002PRCP99
0182483310999992000022521004+18770+100770FM-12+0201VTCN V0209999C000010450019N0080001N1+02501+02201100911ADDAA101000791AY121031AY221031GF108991041071008001071999MA1999999098611MD1999999+0041MW1211REMSYN082AAXX  25214 48331 21558 80000 10250 20220 39861 40091 72122 8477/ 333 58004 69905;
0179483310999992000022600004+18770+100770FM-12+0201VTCN V0209999C000010075019N0100001N1+02441+02071101081ADDAA124000791GF108991051051008001071061KA1120N+02301MA1999999098781MD1999999+0041REMSYN088AAXX  26004 48331 12560 80000 10244 20207 39878 40108 69904 85576 333 20230 58004 79999;
0148483310999992000022603004+18770+100770FM-12+0201VTCN V0202101N003610450019N0120001N1+02701+01841101241ADDAA199000021GF106991041051008001041061MA1999999098961MD1999999+0071REMSYN070AAXX  26034 48331 32562 62107 10270 20184 39896 40124 84546 333 58007;
0154483310999992000022606004+18770+100770FM-12+0201VTCN V0201501N004110075019N0120001N1+02941+01871101001ADDAA124000791GF108991051051008001071061MA1999999098731MD1999999+0131REMSYN076AAXX  26064 48331 32562 81508 10294 20187 39873 40100 85576 333 58013 79999;
0182483310999992000022609004+18770+100770FM-12+0201VTCN V0201301N003111050019N0120001N1+02551+01841100911ADDAA102000591AY161031AY221031GF106991021051008001041061MA1999999098621MD1999999+0381MW1011REMSYN082AAXX  26094 48331 21562 61306 10255 20184 39862 40091 70162 82546 333 58038 69956;
0207483310999992000022612004+18770+100770FM-12+0201VTCN V0209999C000010075019N0120001N1+02351+01741101001ADDAA112000591AY161061AY221061GF108991051051008001071999KA1120M+03021MA1999999098701MD1999999+0411MW1031REMSYN094AAXX  26124 48331 11562 80000 10235 20174 39870 40100 69952 70362 8557/ 333 10302 58041 70005;
0167483310999992000022615004+18770+100770FM-12+0201VTCN V0209999C000010450019N0100001N1+02231+01691101291ADDAA199000091GF106991031051008001041061MA1999999098971MD1999999+0311REMSYN070AAXX  26154 48331 32560 60000 10223 20169 39897 40129 83546 333 58031;EQDQ01  00002PRCP99
0154483310999992000022618004+18770+100770FM-12+0201VTCN V0209999C000010450019N0100001N1+02081+01691101351ADDAA124000591GF108991041051008001071999MA1999999099011MD1999999+0391REMSYN076AAXX  26184 48331 32560 80000 10208 20169 39901 40135 8457/ 333 58039 70005;
0167483310999992000022621004+18770+100770FM-12+0201VTCN V0209999C000010450019N0100001N1+01851+01601101261ADDAA199000091GF108991041051008001071999MA1999999098911MD1999999+0351REMSYN070AAXX  26214 48331 32560 80000 10185 20160 39891 40126 8457/ 333 58035;EQDQ01  00002PRCP99
0179483310999992000022700004+18770+100770FM-12+0201VTCN V0209999C000010450019N0120001N1+01851+01611101381ADDAA124000591GF108991041071008001021999KA1120N+01711MA1999999099021MD1999999+0301REMSYN088AAXX  27004 48331 12562 80000 10185 20161 39902 40138 69954 8472/ 333 20171 58030 70005;
0182483310999992000022703004+18770+100770FM-12+0201VTCN V0202001N001510450019N0080001N1+01831+01591101631ADDAA102000391AY161031AY221031GF108991031071008001011999MA1999999099271MD1999999+0391MW1101REMSYN082AAXX  27034 48331 21558 82003 10183 20159 39927 40163 71062 8371/ 333 58039 69936;
0194483310999992000022706004+18770+100770FM-12+0201VTCN V0202601N001010075019N0060001N1+01731+01631101511ADDAA102001091AY161061AY261061GF108991051071008001021999MA1999999099141MD1999999+0511MW1611REMSYN094AAXX  27064 48331 /1556 82602 10173 20163 39914 40151 60011 76166 8572/ 333 58051 60016 70018;
0182483310999992000022709004+18770+100770FM-12+0201VTCN V0209999C000010450019N0060001N1+01801+01651101321ADDAA101000191AY161031AY221031GF108991041071008001021999MA1999999098961MD1999999+0411MW1601REMSYN082AAXX  27094 48331 21556 80000 10180 20165 39896 40132 76062 8472/ 333 58041 69925;
0213483310999992000022712004+18770+100770FM-12+0201VTCN V0209999C000010450019N0060001N1+01821+01671101371ADDAA102000191AY161061AY261061GF108991041051008001071999KA1120M+01901MA1999999099011MD1999999+0371MW1211REMSYN100AAXX  27124 48331 /1556 80000 10182 20167 39901 40137 60022 72166 8457/ 333 10190 58037 69916 70016;
0176483310999992000022715004+18770+100770FM-12+0201VTCN V0209999C000010120019N0080001N1+01831+01711101521ADDAA199000021AY121031AY221031GF108991051081008001071999MA1999999099161MD1999999+0231MW1101REMSYN076AAXX  27154 48331 31558 80000 10183 20171 39916 40152 71022 8587/ 333 58023;
0182483310999992000022718004+18770+100770FM-12+0201VTCN V0209999C000010450019N0080001N1+01831+01691101561ADDAA124001591AY121061AY221061GF108991041081008001071999MA1999999099191MD1999999+0211MW1101REMSYN082AAXX  27184 48331 31558 80000 10183 20169 39919 40156 71022 8487/ 333 58021 70016;
0176483310999992000022721004+18770+100770FM-12+0201VTCN V0209999C000010450019N0080001N1+01781+01731101441ADDAA199000021AY121031AY221031GF108991041051008001071999MA1999999099071MD1999999+0181MW1101REMSYN076AAXX  27214 48331 31558 80000 10178 20173 39907 40144 71022 8457/ 333 58018;
0207483310999992000022800004+18770+100770FM-12+0201VTCN V0209999C000010450019N0080001N1+01811+01711101521ADDAA124002091AY121061AY221061GF106991041051008001041061KA1120N+01681MA1999999099151MD1999999+0141MW1101REMSYN094AAXX  28004 48331 11558 60000 10181 20171 39915 40152 60024 71022 84546 333 20168 58014 70016;
0167483310999992000022803004+18770+100770FM-12+0201VTCN V0209999C000010450019N0120001N1+02121+01761101641ADDAA199000091GF108991041051008001071061MA1999999099291MD1999999+0011REMSYN070AAXX  28034 48331 32562 80000 10212 20176 39929 40164 84576 333 58001;EQDQ01  00002PRCP99
0154483310999992000022806004+18770+100770FM-12+0201VTCN V0209999C000010450019N0120001N1+02401+01761101361ADDAA124001391GF108991041051008001071061MA1999999099031MD1999999-0151REMSYN076AAXX  28064 48331 32562 80000 10240 20176 39903 40136 84576 333 59015 70013;
0167483310999992000022809004+18770+100770FM-12+0201VTCN V0209999C000010450019N0120001N1+02621+01831101101ADDAA199000091GF106991031051008001041061MA1999999098811MD1999999-0221REMSYN070AAXX  28094 48331 32562 60000 10262 20183 39881 40110 83546 333 59022;EQDQ01  00002PRCP99
0186483310999992000022812004+18770+100770FM-12+0201VTCN V0203301N001510075019N0120001N1+02341+01761101181ADDAA199000091GF108991051051008001071999KA1120M+02721MA1999999098861MD1999999-0111REMSYN076AAXX  28124 48331 32562 83303 10234 20176 39886 40118 8557/ 333 10272 59011;EQDQ01  00002PRCP99
0195483310999992000022815004+18770+100770FM-12+0201VTCN V0209999C000010450019N0060001N1+02421+02181100971ADDAA199000091AY121031AY221031GF107991031051008001061061MA1999999098671MD1999999+0091MW1101REMSYN076AAXX  28154 48331 31556 70000 10242 20218 39867 40097 71022 83566 333 58009;EQDQ01  00002PRCP99
0194483310999992000022818004+18770+100770FM-12+0201VTCN V0209999C000010075019N0040001N1+01901+01871101361ADDAA103010991AY161061AY221061GF108991081071008001999999MA1999999099001MD1999999-0201MW1211REMSYN094AAXX  28184 48331 /1540 80000 10190 20187 39900 40136 60123 72162 887// 333 59020 60117 70116;
0176483310999992000022821004+18770+100770FM-12+0201VTCN V0209999C000010450019N0080001N1+01871+01801101281ADDAA199000021AY121031AY221031GF108991041051008001071061MA1999999098931MD1999999-0161MW1101REMSYN076AAXX  28214 48331 31558 80000 10187 20180 39893 40128 71022 84576 333 59016;
0179483310999992000022900004+18770+100770FM-12+0201VTCN V0209999C000010075019N0120001N1+01851+01771101341ADDAA124011991GF108991051071008001071999KA1120N+01721MA1999999099001MD1999999-0181REMSYN088AAXX  29004 48331 12562 80000 10185 20177 39900 40134 60124 8577/ 333 20172 59018 70116;
0182483310999992000022903004+18770+100770FM-12+0201VTCN V0209999C000010075019N0120001N1+02081+01821101551ADDAA103000791AY161031AY221031GF107991051021008001071001MA1999999099201MD1999999-0091MW1011REMSYN082AAXX  29034 48331 21562 70000 10208 20182 39920 40155 70162 85270 333 59009 69907;
0160483310999992000022906004+18770+100770FM-12+0201VTCN V0209999C000012200019N0120001N1+02641+01941101191ADDAA106000791GF102991021021008001001021MA1999999098901MD1999999-0171REMSYN082AAXX  29064 48331 12562 20000 10264 20194 39890 40119 69901 82202 333 59017 70116;
0167483310999992000022909004+18770+100770FM-12+0201VTCN V0209999C000010075019N0150001N1+02681+02011100841ADDAA199000091GF108991051031008001071999MA1999999098561MD1999999-0261REMSYN070AAXX  29094 48331 32565 80000 10268 20201 39856 40084 8537/ 333 59026;EQDQ01  00002PRCP99
0213483310999992000022912004+18770+100770FM-12+0201VTCN V0209999C000010450019N0100001N1+02211+02071101021ADDAA103002091AY161061AY221061GF108991031051008001071999KA1120M+02821MA1999999098691MD1999999-0161MW1021REMSYN100AAXX  29124 48331 /1560 80000 10221 20207 39869 40102 60022 70262 8357/ 333 10282 59016 60027 70140;
0182483310999992000022915004+18770+100770FM-12+0201VTCN V0209999C000010075019N0080001N1+02151+02071101251ADDAA103000891AY161031AY261031GF108991051071008001021999MA1999999098921MD1999999-0201MW1601REMSYN082AAXX  29154 48331 21558 80000 10215 20207 39892 40125 76066 8572/ 333 59020 69987;
0194483310999992000022918004+18770+100770FM-12+0201VTCN V0209999C000010450019N0100001N1+02051+01971101271ADDAA103003091AY161061AY261061GF108991041071008001071999MA1999999098931MD1999999+0041MW1211REMSYN094AAXX  29184 48331 /1560 80000 10205 20197 39893 40127 60063 72166 8477/ 333 58004 60037 70061;
0176483310999992000022921004+18770+100770FM-12+0201VTCN V0209999C000012200019N0060001N1+02051+01971101221ADDAA199000021AY121031AY211031GF103991021061004501001011MA1999999098881MD1999999-0061MW1101REMSYN076AAXX  29214 48331 31456 30000 10205 20197 39888 40122 71021 82601 333 59006;
0179483310999992000030100004+18770+100770FM-12+0201VTCN V0209999C000010042019N0100001N1+01901+01821101411ADDAA124006191GF108991061051004501071999KA1120N+01771MA1999999099051MD1999999+0071REMSYN088AAXX  01004 48331 12460 80000 10190 20182 39905 40141 60064 8657/ 333 20177 58007 70061;
0148483310999992000030103004+18770+100770FM-12+0201VTCN V0209999C000010075019N0120001N1+02151+01811101551ADDAA199000021GF108991051051008001071061MA1999999099211MD1999999+0001REMSYN070AAXX  01034 48331 32562 80000 10215 20181 39921 40155 85576 333 58000;
0154483310999992000030106004+18770+100770FM-12+0201VTCN V0209999C000010075019N0120001N1+02401+01761101331ADDAA124006191GF108991051051008001071999MA1999999099011MD1999999+0141REMSYN076AAXX  01064 48331 32562 80000 10240 20176 39901 40133 8557/ 333 58014 70061;
0167483310999992000030109004+18770+100770FM-12+0201VTCN V0209999C000012200019N0120001N1+02561+01851101031ADDAA199000091GF103991021051008001001021MA1999999098741MD1999999+0191REMSYN070AAXX  01094 48331 32562 30000 10256 20185 39874 40103 82502 333 58019;EQDQ01  00002PRCP99
0173483310999992000030112004+18770+100770FM-12+0201VTCN V0209999C000010450019N0120001N1+02271+01661101131ADDAA124003891GF106991031051008001041061KA1120M+02631MA1999999098821MD1999999+0111REMSYN082AAXX  01124 48331 32562 60000 10227 20166 39882 40113 83546 333 10263 58011 70037;
0167483310999992000030115004+18770+100770FM-12+0201VTCN V0209999C000010450019N0120001N1+02091+01611101421ADDAA199000091GF108991041051008001071061MA1999999099081MD1999999+0171REMSYN070AAXX  01154 48331 32562 80000 10209 20161 39908 40142 84576 333 58017;EQDQ01  00002PRCP99
0167483310999992000030118004+18770+100770FM-12+0201VTCN V0209999C000010450019N0100001N1+02001+01871101441ADDAA199000091GF106991031051008001041061MA1999999099091MD1999999+0171REMSYN070AAXX  01184 48331 32560 60000 10200 20187 39909 40144 83546 333 58017;EQDQ01  00002PRCP99
0167483310999992000030121004+18770+100770FM-12+0201VTCN V0209999C000010450019N0100001N1+01951+01631101381ADDAA199000091GF106991031051008001041061MA1999999099021MD1999999+0161REMSYN070AAXX  01214 48331 32560 60000 10195 20163 39902 40138 83546 333 58016;EQDQ01  00002PRCP99
0186483310999992000030200004+18770+100770FM-12+0201VTCN V0209999C000010450019N0100001N1+01901+01701101521ADDAA199000091GF106991021021008001071011KA1120N+01771MA1999999099161MD1999999+0111REMSYN076AAXX  02004 48331 32560 60000 10190 20170 39916 40152 82271 333 20177 58011;EQDQ01  00002PRCP99
0167483310999992000030203004+18770+100770FM-12+0201VTCN V0209999C000012200019N0120001N1+02431+01741101591ADDAA199000091GF104991031011008001001021MA1999999099281MD1999999+0041REMSYN070AAXX  02034 48331 32562 40000 10243 20174 39928 40159 83102 333 58004;EQDQ01  00002PRCP99
0167483310999992000030206004+18770+100770FM-12+0201VTCN V0201101N001012200019N0150001N1+02841+01841101261ADDAA199000091GF102991021011008001001001MA1999999098981MD1999999-0071REMSYN070AAXX  02064 48331 32565 21102 10284 20184 39898 40126 82100 333 59007;EQDQ01  00002PRCP99
0167483310999992000030209004+18770+100770FM-12+0201VTCN V0209999C000012200019N0150001N1+03201+01831100861ADDAA199000091GF102991021021008001001011MA1999999098611MD1999999-0171REMSYN070AAXX  02094 48331 32565 20000 10320 20183 39861 40086 82201 333 59017;EQDQ01  00002PRCP99
0186483310999992000030212004+18770+100770FM-12+0201VTCN V0209999C000012200019N0120001N1+02671+01991100881ADDAA199000091GF101991011011008001001001KA1120M+03241MA1999999098601MD1999999-0251REMSYN076AAXX  02124 48331 32562 10000 10267 20199 39860 40088 81100 333 10324 59025;EQDQ01  00002PRCP99
0167483310999992000030215004+18770+100770FM-12+0201VTCN V0209999C000012200019N0120001N1+02281+01921101221ADDAA199000091GF102991001001999999001011MA1999999098891MD1999999-0201REMSYN070AAXX  02154 48331 32962 20000 10228 20192 39889 40122 80001 333 59020;EQDQ01  00002PRCP99
0177483310999992000030218004+18770+100770FM-12+0201VTCN V0209999C000012200019N0120001N1+02001+01851101281ADDAA199000091GA1001+999999999GF100991001001999999001001MA1999999098941MD1999999-0161REMSYN064AAXX  02184 48331 32962 00000 10200 20185 39894 40128 333 59016;EQDQ01  00002PRCP99
0177483310999992000030221004+18770+100770FM-12+0201VTCN V0209999C000012200019N0120001N1+01901+01771101271ADDAA199000091GA1001+999999999GF100991001001999999001001MA1999999098911MD1999999-0111REMSYN064AAXX  02214 48331 32962 00000 10190 20177 39891 40127 333 59011;EQDQ01  00002PRCP99
0186483310999992000030300004+18770+100770FM-12+0201VTCN V0209999C000010450019N0100001N1+01891+01771101411ADDAA199000091GF106991041051008001041061KA1120N+01711MA1999999099051MD1999999-0111REMSYN076AAXX  03004 48331 32560 60000 10189 20177 39905 40141 84546 333 20171 59011;EQDQ01  00002PRCP99
0167483310999992000030303004+18770+100770FM-12+0201VTCN V0209999C000012200019N0120001N1+02341+01881101561ADDAA199000091GF103991021051008001041051MA1999999099231MD1999999+0031REMSYN070AAXX  03034 48331 32562 30000 10234 20188 39923 40156 82545 333 58003;EQDQ01  00002PRCP99
0167483310999992000030306004+18770+100770FM-12+0201VTCN V0209999C000012200019N0120001N1+03131+02051101171ADDAA199000091GF101991011011008001001001MA1999999098921MD1999999-0091REMSYN070AAXX  03064 48331 32562 10000 10313 20205 39892 40117 81100 333 59009;EQDQ01  00002PRCP99
0167483310999992000030309004+18770+100770FM-12+0201VTCN V0209999C000012200019N0150001N1+03351+01931100741ADDAA199000091GF101991011011008001001001MA1999999098511MD1999999-0121REMSYN070AAXX  03094 48331 32565 10000 10335 20193 39851 40074 81100 333 59012;EQDQ01  00002PRCP99
0186483310999992000030312004+18770+100770FM-12+0201VTCN V0209999C000012200019N0150001N1+02751+01951100781ADDAA199000091GF102991021021008001001001KA1120M+03451MA1999999098541MD1999999-0101REMSYN076AAXX  03124 48331 32565 20000 10275 20195 39854 40078 82200 333 10345 59010;EQDQ01  00002PRCP99
0167483310999992000030315004+18770+100770FM-12+0201VTCN V0209999C000012200019N0120001N1+02241+01821101061ADDAA199000091GF102991021021008001001001MA1999999098741MD1999999-0161REMSYN070AAXX  03154 48331 32562 20000 10224 20182 39874 40106 82200 333 59016;EQDQ01  00002PRCP99
0177483310999992000030318004+18770+100770FM-12+0201VTCN V0209999C000012200019N0100001N1+01981+01791101111ADDAA199000091GA1001+999999999GF100991001001999999001001MA1999999098771MD1999999-0171REMSYN064AAXX  03184 48331 32960 00000 10198 20179 39877 40111 333 59017;EQDQ01  00002PRCP99
0147483310999992000030321004+18770+100770FM-12+0201VTCN V0209999C000012200019N0100001N1+99999+99999999999ADDAA199000091GA1001+999999999GF100991001001999999001001REMSYN063AAXX  03214 48331 32960 00000 1185 20173 39877 40111 333 59016;EQDQ01  00002PRCP99
0186483310999992000030400004+18770+100770FM-12+0201VTCN V0209999C000012200019N0100001N1+01731+01641101351ADDAA199000091GF102991011011008001001011KA1120N+01601MA1999999098981MD1999999-0061REMSYN076AAXX  04004 48331 32560 20000 10173 20164 39898 40135 81101 333 20160 59006;EQDQ01  00002PRCP99
0177483310999992000030403004+18770+100770FM-12+0201VTCN V0209999C000012200019N0100001N1+02531+01891101431ADDAA199000091GA1001+999999999GF100991001001999999001001MA1999999099131MD1999999-0131REMSYN064AAXX  04034 48331 32960 00000 10253 20189 39913 40143 333 59013;EQDQ01  00002PRCP99
0167483310999992000030406004+18770+100770FM-12+0201VTCN V0209999C000012200019N0120001N1+03281+01991101041ADDAA199000091GF102991021021008001001001MA1999999098791MD1999999-0131REMSYN070AAXX  04064 48331 32562 20000 10328 20199 39879 40104 82200 333 59013;EQDQ01  00002PRCP99
0167483310999992000030409004+18770+100770FM-12+0201VTCN V0209999C000012200019N0120001N1+03401+01801100651ADDAA199000091GF103991021091008001051031MA1999999098431MD1999999-0091REMSYN070AAXX  04094 48331 32562 30000 10340 20180 39843 40065 82953 333 59009;EQDQ01  00002PRCP99
0186483310999992000030412004+18770+100770FM-12+0201VTCN V0209999C000012200019N0100001N1+02801+01871100741ADDAA199000091GF102991021051008001001001KA1120M+03521MA1999999098461MD1999999-0041REMSYN076AAXX  04124 48331 32560 20000 10280 20187 39846 40074 82500 333 10352 59004;EQDQ01  00002PRCP99
0167483310999992000030415004+18770+100770FM-12+0201VTCN V0209999C000012200019N0100001N1+02251+01851101001ADDAA199000091GF102991021001999999051001MA1999999098681MD1999999-0061REMSYN070AAXX  04154 48331 32960 20000 10225 20185 39868 40100 82050 333 59006;EQDQ01  00002PRCP99
0177483310999992000030418004+18770+100770FM-12+0201VTCN V0209999C000012200019N0100001N1+01981+01681101011ADDAA199000091GA1001+999999999GF100991001001999999001001MA1999999098671MD1999999-0101REMSYN064AAXX  04184 48331 32960 00000 10198 20168 39867 40101 333 59010;EQDQ01  00002PRCP99
0177483310999992000030421004+18770+100770FM-12+0201VTCN V0209999C000012200019N0100001N1+01751+01581100991ADDAA199000091GA1001+999999999GF100991001001999999001001MA1999999098631MD1999999-0121REMSYN064AAXX  04214 48331 32960 00000 10175 20158 39863 40099 333 59012;EQDQ01  00002PRCP99
0224483310999992000030500004+18770+100770FM-12+0201VTCN V0209999C000012200019N0060001N1+01601+01511101141ADDAA199000091AY101061AY201061GA1001+999999999GF100991001001999999001001KA1120N+01491MA1999999098771MD1999999-0211MW1101REMSYN076AAXX  05004 48331 31956 00000 10160 20151 39877 40114 71000 333 20149 59021;EQDQ01  00002PRCP99
0205483310999992000030503004+18770+100770FM-12+0201VTCN V0209999C000012200019N0080001N1+02281+01661101261ADDAA199000091AY101031AY201031GA1001+999999999GF100991001001999999001001MA1999999098951MD1999999-0171MW1101REMSYN070AAXX  05034 48331 31958 00000 10228 20166 39895 40126 71000 333 59017;EQDQ01  00002PRCP99
0177483310999992000030506004+18770+100770FM-12+0201VTCN V0209999C000012200019N0100001N1+03231+01751100871ADDAA199000091GA1001+999999999GF100991001001999999001001MA1999999098621MD1999999-0181REMSYN064AAXX  05064 48331 32960 00000 10323 20175 39862 40087 333 59018;EQDQ01  00002PRCP99
0167483310999992000030509004+18770+100770FM-12+0201VTCN V0209999C000012200019N0100001N1+03481+01521100491ADDAA199000091GF102991021051008001001001MA1999999098261MD1999999-0161REMSYN070AAXX  05094 48331 32560 20000 10348 20152 39826 40049 82500 333 59016;EQDQ01  00002PRCP99
0186483310999992000030512004+18770+100770FM-12+0201VTCN V0209999C000012200019N0100001N1+02781+01731100521ADDAA199000091GF101991011011008001001001KA1120M+03551MA1999999098261MD1999999-0221REMSYN076AAXX  05124 48331 32560 10000 10278 20173 39826 40052 81100 333 10355 59022;EQDQ01  00002PRCP99
0177483310999992000030515004+18770+100770FM-12+0201VTCN V0209999C000012200019N0100001N1+02201+01751100851ADDAA199000091GA1001+999999999GF100991001001999999001001MA1999999098521MD1999999-0151REMSYN064AAXX  05154 48331 32960 00000 10220 20175 39852 40085 333 59015;EQDQ01  00002PRCP99
0205483310999992000030518004+18770+100770FM-12+0201VTCN V0209999C000012200019N0060001N1+01881+01591100921ADDAA199000091AY101061AY201061GA1001+999999999GF100991001001999999001001MA1999999098571MD1999999-0091MW1101REMSYN070AAXX  05184 48331 31956 00000 10188 20159 39857 40092 71000 333 59009;EQDQ01  00002PRCP99
0205483310999992000030521004+18770+100770FM-12+0201VTCN V0209999C000012200019N0060001N1+01691+01511100901ADDAA199000091AY101031AY201031GA1001+999999999GF100991001001999999001001MA1999999098541MD1999999-0091MW1101REMSYN070AAXX  05214 48331 31956 00000 10169 20151 39854 40090 71000 333 59009;EQDQ01  00002PRCP99
0214483310999992000030600004+18770+100770FM-12+0201VTCN V0209999C000012200019N0080001N1+01531+01421101051ADDAA199000091AY101061AY201061GF102991001001999999001011KA1120N+01421MA1999999098671MD1999999-0091MW1101REMSYN082AAXX  06004 48331 31958 20000 10153 20142 39867 40105 71000 80001 333 20142 59009;EQDQ01  00002PRCP99
0205483310999992000030606004+18770+100770FM-12+0201VTCN V0209999C000012200019N0090001N1+03101+01601100841ADDAA199000091AY101061AY201061GA1001+999999999GF100991001001999999001001MA1999999098581MD1999999-0031MW1051REMSYN070AAXX  06064 48331 31959 00000 10310 20160 39858 40084 70500 333 59003;EQDQ01  00002PRCP99
0177483310999992000030609004+18770+100770FM-12+0201VTCN V0209999C000012200019N0100001N1+03501+01511100461ADDAA199000091GA1001+999999999GF100991001001999999001001MA1999999098211MD1999999-0031REMSYN064AAXX  06094 48331 32960 00000 10350 20151 39821 40046 333 59003;EQDQ01  00002PRCP99
0224483310999992000030612004+18770+100770FM-12+0201VTCN V0209999C000012200019N0080001N1+02781+01861100581ADDAA199000091AY101061AY201061GA1001+999999999GF100991001001999999001001KA1120M+03571MA1999999098311MD1999999+0061MW1051REMSYN076AAXX  06124 48331 31958 00000 10278 20186 39831 40058 70500 333 10357 58006;EQDQ01  00002PRCP99
0205483310999992000030615004+18770+100770FM-12+0201VTCN V0209999C000012200019N0080001N1+02271+01791100891ADDAA199000091AY101031AY201031GA1001+999999999GF100991001001999999001001MA1999999098581MD1999999+0041MW1101REMSYN070AAXX  06154 48331 31958 00000 10227 20179 39858 40089 71000 333 58004;EQDQ01  00002PRCP99
0205483310999992000030618004+18770+100770FM-12+0201VTCN V0209999C000012200019N0080001N1+01931+01631100961ADDAA199000091AY101061AY201061GA1001+999999999GF100991001001999999001001MA1999999098621MD1999999+0041MW1101REMSYN070AAXX  06184 48331 31958 00000 10193 20163 39862 40096 71000 333 58004;EQDQ01  00002PRCP99
0205483310999992000030621004+18770+100770FM-12+0201VTCN V0209999C000012200019N0080001N1+01731+01521100961ADDAA199000091AY101031AY201031GA1001+999999999GF100991001001999999001001MA1999999098601MD1999999+0061MW1101REMSYN070AAXX  06214 48331 31958 00000 10173 20152 39860 40096 71000 333 58006;EQDQ01  00002PRCP99
0214483310999992000030700004+18770+100770FM-12+0201VTCN V0209999C000012200019N0040001N1+01591+01431101111ADDAA199000091AY101061AY201061GF101991001001999999001011KA1120N+01471MA1999999098741MD1999999+0061MW1101REMSYN082AAXX  07004 48331 31940 10000 10159 20143 39874 40111 71000 80001 333 20147 58006;EQDQ01  00002PRCP99
0205483310999992000030703004+18770+100770FM-12+0201VTCN V0209999C000012200019N0050001N1+02301+01551101221ADDAA199000091AY101031AY201031GA1001+999999999GF100991001001999999001001MA1999999098911MD1999999+0011MW1051REMSYN070AAXX  07034 48331 31950 00000 10230 20155 39891 40122 70500 333 58001;EQDQ01  00002PRCP99
0211483310999992000030706004+18770+100770FM-12+0201VTCN V0209999C000012200019N0060001N1+03081+01641100891ADDAA199000091AY101061AY201061GA1001+999999999GF100991001001999999001001MA1999999098631MD1999999+0051MW1051REMSYN076AAXX  07064 48331 31956 00000 10308 20164 39863 40089 70500 8//// 333 58005;EQDQ01  00002PRCP99
0205483310999992000030709004+18770+100770FM-12+0201VTCN V0209999C000012200019N0060001N1+03401+01701100511ADDAA199000091AY101031AY201031GA1001+999999999GF100991001001999999001001MA1999999098291MD1999999+0051MW1051REMSYN070AAXX  07094 48331 31956 00000 10340 20170 39829 40051 70500 333 58005;EQDQ01  00002PRCP99
0224483310999992000030712004+18770+100770FM-12+0201VTCN V0209999C000012200019N0060001N1+02751+01981100571ADDAA199000091AY101061AY201061GA1001+999999999GF100991001001999999001001KA1120M+03461MA1999999098311MD1999999-0011MW1051REMSYN076AAXX  07124 48331 31956 00000 10275 20198 39831 40057 70500 333 10346 59001;EQDQ01  00002PRCP99
0205483310999992000030715004+18770+100770FM-12+0201VTCN V0209999C000012200019N0060001N1+02311+01871100821ADDAA199000091AY101031AY201031GA1001+999999999GF100991001001999999001001MA1999999098511MD1999999-0071MW1101REMSYN070AAXX  07154 48331 31956 00000 10231 20187 39851 40082 71000 333 59007;EQDQ01  00002PRCP99
0153483310999992000030718004+18770+100770FM-12+0201VTCN V0209999C000012200019N0060001N1+02001+01771999999ADDAA199000091GA1001+999999999GF100991001001999999001001REMSYN069AAXX  07184 48331 31956 00000 10200 20177 3987 40091 71000 333 59005;EQDQ01  00002PRCP99
0205483310999992000030721004+18770+100770FM-12+0201VTCN V0209999C000012200019N0040001N1+01831+01661100921ADDAA199000091AY101031AY201031GA1001+999999999GF100991001001999999001001MA1999999098571MD1999999-0041MW1101REMSYN070AAXX  07214 48331 31940 00000 10183 20166 39857 40092 71000 333 59004;EQDQ01  00002PRCP99
0224483310999992000030800004+18770+100770FM-12+0201VTCN V0209999C000012200019N0060001N1+01671+01561101061ADDAA199000091AY101061AY201061GA1001+999999999GF100991001001999999001001KA1120N+01561MA1999999098701MD1999999-0051MW1101REMSYN076AAXX  08004 48331 31956 00000 10167 20156 39870 40106 71000 333 20156 59005;EQDQ01  00002PRCP99
0205483310999992000030803004+18770+100770FM-12+0201VTCN V0209999C000012200019N0060001N1+02271+01741101161ADDAA199000091AY101031AY201031GA1001+999999999GF100991001001999999001001MA1999999098841MD1999999-0061MW1101REMSYN070AAXX  08034 48331 31956 00000 10227 20174 39884 40116 71000 333 59006;EQDQ01  00002PRCP99
0205483310999992000030806004+18770+100770FM-12+0201VTCN V0201501N000512200019N0080001N1+03161+01761100791ADDAA199000091AY101061AY201061GA1001+999999999GF100991001001999999001001MA1999999098551MD1999999-0101MW1051REMSYN070AAXX  08064 48331 31958 01501 10316 20176 39855 40079 70500 333 59010;EQDQ01  00002PRCP99
0211483310999992000030809004+18770+100770FM-12+0201VTCN V0209999C000012200019N0080001N1+03481+01751100391ADDAA199000091AY101031AY201031GA1001+999999999GF100991001001999999001001MA1999999098181MD1999999-0121MW1051REMSYN076AAXX  08094 48331 31958 00000 10348 20175 39818 40039 70500 8//// 333 59012;EQDQ01  00002PRCP99
0230483310999992000030812004+18770+100770FM-12+0201VTCN V0209999C000012200019N0060001N1+02901+01621100471ADDAA199000091AY101061AY201061GA1001+999999999GF100991001001999999001001KA1120M+03531MA1999999098211MD1999999-0101MW1051REMSYN082AAXX  08124 48331 31956 00000 10290 20162 39821 40047 70500 8//// 333 10353 59010;EQDQ01  00002PRCP99
0205483310999992000030815004+18770+100770FM-12+0201VTCN V0209999C000012200019N0060001N1+02221+01751100721ADDAA199000091AY101031AY201031GA1001+999999999GF100991001001999999001001MA1999999098401MD1999999-0101MW1101REMSYN070AAXX  08154 48331 31956 00000 10222 20175 39840 40072 71000 333 59010;EQDQ01  00002PRCP99
0205483310999992000030818004+18770+100770FM-12+0201VTCN V0209999C000012200019N0060001N1+01941+01651100811ADDAA199000091AY101061AY201061GA1001+999999999GF100991001001999999001001MA1999999098471MD1999999-0101MW1101REMSYN070AAXX  08184 48331 31956 00000 10194 20165 39847 40081 71000 333 59010;EQDQ01  00002PRCP99
0205483310999992000030821004+18770+100770FM-12+0201VTCN V0209999C000012200019N0050001N1+01731+01541100821ADDAA199000091AY101031AY201031GA1001+999999999GF100991001001999999001001MA1999999098461MD1999999-0101MW1101REMSYN070AAXX  08214 48331 31950 00000 10173 20154 39846 40082 71000 333 59010;EQDQ01  00002PRCP99
0224483310999992000030900004+18770+100770FM-12+0201VTCN V0209999C000012200019N0020001N1+01601+01461101031ADDAA199000091AY101061AY201061GA1001+999999999GF100991001001999999001001KA1120N+01481MA1999999098661MD1999999-0031MW1101REMSYN076AAXX  09004 48331 31920 00000 10160 20146 39866 40103 71000 333 20148 59003;EQDQ01  00002PRCP99
0205483310999992000030906004+18770+100770FM-12+0201VTCN V0201901N001512200019N0040001N1+03411+01581100731ADDAA199000091AY101061AY201061GA1001+999999999GF100991001001999999001001MA1999999098501MD1999999-0061MW1051REMSYN070AAXX  09064 48331 31940 01903 10341 20158 39850 40073 70500 333 59006;EQDQ01  00002PRCP99
0205483310999992000030909004+18770+100770FM-12+0201VTCN V0201901N003112200019N0080001N1+03551+00911100431ADDAA199000091AY101031AY201031GA1001+999999999GF100991001001999999001001MA1999999098231MD1999999+0041MW1051REMSYN070AAXX  09094 48331 31958 01906 10355 20091 39823 40043 70500 333 58004;EQDQ01  00002PRCP99
0224483310999992000030912004+18770+100770FM-12+0201VTCN V0209999C000012200019N0080001N1+03071+01621100491ADDAA199000091AY101061AY201061GA1001+999999999GF100991001001999999001001KA1120M+03601MA1999999098261MD1999999+0021MW1051REMSYN076AAXX  09124 48331 31958 00000 10307 20162 39826 40049 70500 333 10360 58002;EQDQ01  00002PRCP99
0211483310999992000030915004+18770+100770FM-12+0201VTCN V0209999C000012200019N0060001N1+02301+01821100801ADDAA199000091AY101031AY201031GA1001+999999999GF100991001001999999001001MA1999999098491MD1999999+0081MW1101REMSYN076AAXX  09154 48331 31956 00000 10230 20182 39849 40080 71000 8//// 333 58008;EQDQ01  00002PRCP99
0211483310999992000030918004+18770+100770FM-12+0201VTCN V0209999C000012200019N0040001N1+01921+01551100901ADDAA199000091AY101061AY201061GA1001+999999999GF100991001001999999001001MA1999999098751MD1999999+0091MW1101REMSYN076AAXX  09184 48331 31940 00000 10192 20155 39875 40090 71000 8//// 333 58009;EQDQ01  00002PRCP99
0205483310999992000030921004+18770+100770FM-12+0201VTCN V0209999C000012200019N0040001N1+01711+01441100881ADDAA199000091AY101031AY201031GA1001+999999999GF100991001001999999001001MA1999999098521MD1999999+0061MW1101REMSYN070AAXX  09214 48331 31940 00000 10171 20144 39852 40088 71000 333 58006;EQDQ01  00002PRCP99
0224483310999992000031000004+18770+100770FM-12+0201VTCN V0209999C000012200019N0040001N1+01601+01421101041ADDAA199000091AY101061AY201061GA1001+999999999GF100991001001999999001001KA1120N+01471MA1999999098671MD1999999+0011MW1101REMSYN076AAXX  10004 48331 31940 00000 10160 20142 39867 40104 71000 333 20147 58001;EQDQ01  00002PRCP99
0205483310999992000031003004+18770+100770FM-12+0201VTCN V0209999C000012200019N0050001N1+02461+01551101141ADDAA199000091AY101031AY201031GA1001+999999999GF100991001001999999001001MA1999999098841MD1999999+0051MW1101REMSYN070AAXX  10034 48331 31950 00000 10246 20155 39884 40114 71000 333 58005;EQDQ01  00002PRCP99
0195483310999992000031006004+18770+100770FM-12+0201VTCN V0201301N001512200019N0080001N1+03401+01501100771ADDAA199000091AY101061AY201061GF101991011011008001001001MA1999999098541MD1999999+0041MW1051REMSYN076AAXX  10064 48331 31558 11303 10340 20150 39854 40077 70500 81100 333 58004;EQDQ01  00002PRCP99
0224483310999992000031012004+18770+100770FM-12+0201VTCN V0209999C000012200019N0060001N1+02841+01451100531ADDAA199000091AY101061AY201061GA1001+999999999GF100991001001999999001001KA1120M+03561MA1999999098271MD1999999+0041MW1051REMSYN076AAXX  10124 48331 31956 00000 10284 20145 39827 40053 70500 333 10356 58004;EQDQ01  00002PRCP99
0205483310999992000031015004+18770+100770FM-12+0201VTCN V0209999C000012200019N0060001N1+02201+01601100821ADDAA199000091AY101031AY201031GA1001+999999999GF100991001001999999001001MA1999999098501MD1999999+0021MW1101REMSYN070AAXX  10154 48331 31956 00000 10220 20160 39850 40082 71000 333 58002;EQDQ01  00002PRCP99
0205483310999992000031021004+18770+100770FM-12+0201VTCN V0209999C000012200019N0050001N1+01701+01511100801ADDAA199000091AY101031AY201031GA1001+999999999GF100991001001999999001001MA1999999098441MD1999999-0081MW1101REMSYN070AAXX  10214 48331 31950 00000 10170 20151 39844 40080 71000 333 59008;EQDQ01  00002PRCP99
0224483310999992000031100004+18770+100770FM-12+0201VTCN V0209999C000012200019N0020001N1+01551+01371101021ADDAA199000091AY101061AY201061GA1001+999999999GF100991001001999999001001KA1120N+01431MA1999999098651MD1999999-0021MW1101REMSYN076AAXX  11004 48331 31920 00000 10155 20137 39865 40102 71000 333 20143 59002;EQDQ01  00002PRCP99
0205483310999992000031103004+18770+100770FM-12+0201VTCN V0209999C000012200019N0020001N1+02351+01611101071ADDAA199000091AY101031AY201031GA1001+999999999GF100991001001999999001001MA1999999098761MD1999999-0071MW1051REMSYN070AAXX  11034 48331 31920 00000 10235 20161 39876 40107 70500 333 59007;EQDQ01  00002PRCP99
0211483310999992000031106004+18770+100770FM-12+0201VTCN V0209999C000012200019N0040001N1+03371+01611100701ADDAA199000091AY101061AY201061GA1001+999999999GF100991001001999999001001MA1999999098471MD1999999-0071MW1051REMSYN076AAXX  11064 48331 31940 00000 10337 20161 39847 40070 70500 8//// 333 59007;EQDQ01  00002PRCP99
0205483310999992000031109004+18770+100770FM-12+0201VTCN V0209999C000012200019N0060001N1+03561+01251100331ADDAA199000091AY101031AY201031GA1001+999999999GF100991001001999999001001MA1999999098131MD1999999-0101MW1051REMSYN070AAXX  11094 48331 31956 00000 10356 20125 39813 40033 70500 333 59010;EQDQ01  00002PRCP99
0224483310999992000031112004+18770+100770FM-12+0201VTCN V0209999C000012200019N0040001N1+02891+01451100451ADDAA199000091AY101061AY201061GA1001+999999999GF100991001001999999001001KA1120M+03611MA1999999098251MD1999999-0081MW1051REMSYN076AAXX  11124 48331 31940 00000 10289 20145 39825 40045 70500 333 10361 59008;EQDQ01  00002PRCP99
0205483310999992000031115004+18770+100770FM-12+0201VTCN V0209999C000012200019N0040001N1+02271+01611100701ADDAA199000091AY101031AY201031GA1001+999999999GF100991001001999999001001MA1999999098391MD1999999-0121MW1101REMSYN070AAXX  11154 48331 31940 00000 10227 20161 39839 40070 71000 333 59012;EQDQ01  00002PRCP99
0205483310999992000031118004+18770+100770FM-12+0201VTCN V0209999C000012200019N0040001N1+02051+01211100771ADDAA199000091AY101061AY201061GA1001+999999999GF100991001001999999001001MA1999999098441MD1999999-0071MW1101REMSYN070AAXX  11184 48331 31940 00000 10205 20121 39844 40077 71000 333 59007;EQDQ01  00002PRCP99
0205483310999992000031121004+18770+100770FM-12+0201VTCN V0209999C000012200019N0030001N1+01801+01551100791ADDAA199000091AY101031AY201031GA1001+999999999GF100991001001999999001001MA1999999098441MD1999999-0011MW1101REMSYN070AAXX  11214 48331 31930 00000 10180 20155 39844 40079 71000 333 59001;EQDQ01  00002PRCP99
0214483310999992000031200004+18770+100770FM-12+0201VTCN V0209999C000012200019N0030001N1+01651+01471100961ADDAA199000091AY101061AY201061GF101991001001999999001011KA1120N+01531MA1999999098591MD1999999-0061MW1101REMSYN082AAXX  12004 48331 31930 10000 10165 20147 39859 40096 71000 80001 333 20153 59006;EQDQ01  00002PRCP99
0205483310999992000031203004+18770+100770FM-12+0201VTCN V0209999C000012200019N0030001N1+02511+01591100991ADDAA199000091AY101031AY201031GA1001+999999999GF100991001001999999001001MA1999999098691MD1999999-0081MW1051REMSYN070AAXX  12034 48331 31930 00000 10251 20159 39869 40099 70500 333 59008;EQDQ01  00002PRCP99
0169483310999992000031206004+18770+100770FM-12+0201VTCN V02099999999999999999N0080001N1+03421+01311100621ADDAA199000091AY101061AY201061MA1999999098391MD1999999-0081MW1051REMSYN076AAXX  12064 48331 31558 ///// 10342 20131 39839 40062 70500 82200 333 59008;EQDQ01  00002PRCP99
0195483310999992000031209004+18770+100770FM-12+0201VTCN V0209999C000012200019N0060001N1+03551+01491100291ADDAA199000091AY101031AY201031GF101991011011008001001001MA1999999098081MD1999999-0041MW1051REMSYN076AAXX  12094 48331 31556 10000 10355 20149 39808 40029 70500 81100 333 59004;EQDQ01  00002PRCP99
0224483310999992000031212004+18770+100770FM-12+0201VTCN V0209999C000012200019N0030001N1+02771+01701100371ADDAA199000091AY101061AY201061GA1001+999999999GF100991001001999999001001KA1120M+03581MA1999999098111MD1999999-0081MW1051REMSYN076AAXX  12124 48331 31930 00000 10277 20170 39811 40037 70500 333 10358 59008;EQDQ01  00002PRCP99
0205483310999992000031215004+18770+100770FM-12+0201VTCN V0209999C000012200019N0030001N1+02221+01701100701ADDAA199000091AY101031AY201031GA1001+999999999GF100991001001999999001001MA1999999098371MD1999999+0001MW1101REMSYN070AAXX  12154 48331 31930 00000 10222 20170 39837 40070 71000 333 58000;EQDQ01  00002PRCP99
0205483310999992000031218004+18770+100770FM-12+0201VTCN V0209999C000012200019N0030001N1+01921+01631100771ADDAA199000091AY101061AY201061GA1001+999999999GF100991001001999999001001MA1999999098431MD1999999+0001MW1101REMSYN070AAXX  12184 48331 31930 00000 10192 20163 39843 40077 71000 333 58000;EQDQ01  00002PRCP99
0205483310999992000031221004+18770+100770FM-12+0201VTCN V0209999C000012200019N0020001N1+01751+01511100791ADDAA199000091AY101031AY201031GA1001+999999999GF100991001001999999001001MA1999999098431MD1999999+0001MW1101REMSYN070AAXX  12214 48331 31920 00000 10175 20151 39843 40079 71000 333 58000;EQDQ01  00002PRCP99
0224483310999992000031300004+18770+100770FM-12+0201VTCN V0209999C000012200019N0010001N1+01611+01471101031ADDAA199000091AY101061AY201061GA1001+999999999GF100991001001999999001001KA1120N+01481MA1999999098661MD1999999+0071MW1101REMSYN076AAXX  13004 48331 31910 00000 10161 20147 39866 40103 71000 333 20148 58007;EQDQ01  00002PRCP99
0205483310999992000031303004+18770+100770FM-12+0201VTCN V0209999C000012200019N0020001N1+02371+01481101131ADDAA199000091AY101031AY201031GA1001+999999999GF100991001001999999001001MA1999999098821MD1999999+0141MW1051REMSYN070AAXX  13034 48331 31920 00000 10237 20148 39882 40113 70500 333 58014;EQDQ01  00002PRCP99
0205483310999992000031306004+18770+100770FM-12+0201VTCN V0209999C000012200019N0030001N1+03321+01591100761ADDAA199000091AY101061AY201061GA1001+999999999GF100991001001999999001001MA1999999098521MD1999999+0141MW1051REMSYN070AAXX  13064 48331 31930 00000 10332 20159 39852 40076 70500 333 58014;EQDQ01  00002PRCP99
0205483310999992000031309004+18770+100770FM-12+0201VTCN V0209999C000012200019N0060001N1+03541+01351100411ADDAA199000091AY101031AY201031GA1001+999999999GF100991001001999999001001MA1999999098201MD1999999+0121MW1051REMSYN070AAXX  13094 48331 31956 00000 10354 20135 39820 40041 70500 333 58012;EQDQ01  00002PRCP99
0224483310999992000031312004+18770+100770FM-12+0201VTCN V0209999C000012200019N0060001N1+02771+01511100571ADDAA199000091AY101061AY201061GA1001+999999999GF100991001001999999001001KA1120M+03601MA1999999098311MD1999999+0201MW1051REMSYN076AAXX  13124 48331 31956 00000 10277 20151 39831 40057 70500 333 10360 58020;EQDQ01  00002PRCP99
0211483310999992000031315004+18770+100770FM-12+0201VTCN V0209999C000012200019N0040001N1+02231+01581100871ADDAA199000091AY101031AY201031GA1001+999999999GF100991001001999999001001MA1999999098551MD1999999+0171MW1101REMSYN076AAXX  13154 48331 31940 00000 10223 20158 39855 40087 71000 8//// 333 58017;EQDQ01  00002PRCP99
0211483310999992000031318004+18770+100770FM-12+0201VTCN V0209999C000012200019N0040001N1+01891+01571100951ADDAA199000091AY101061AY201061GA1001+999999999GF100991001001999999001001MA1999999098601MD1999999+0181MW1101REMSYN076AAXX  13184 48331 31940 00000 10189 20157 39860 40095 71000 8//// 333 58018;EQDQ01  00002PRCP99
0211483310999992000031321004+18770+100770FM-12+0201VTCN V0209999C000012200019N0030001N1+01691+01481100971ADDAA199000091AY101031AY201031GA1001+999999999GF100991001001999999001001MA1999999098611MD1999999+0221MW1101REMSYN076AAXX  13214 48331 31930 00000 10169 20148 39861 40097 71000 8//// 333 58022;EQDQ01  00002PRCP99
0224483310999992000031400004+18770+100770FM-12+0201VTCN V0209999C000012200019N0030001N1+01541+01381101201ADDAA199000091AY101061AY201061GA1001+999999999GF100991001001999999001001KA1120N+01421MA1999999098821MD1999999+0171MW1101REMSYN076AAXX  14004 48331 31930 00000 10154 20138 39882 40120 71000 333 20142 58017;EQDQ01  00002PRCP99
0205483310999992000031403004+18770+100770FM-12+0201VTCN V0209999C000012200019N0025001N1+02251+01591101251ADDAA199000091AY101031AY201031GA1001+999999999GF100991001001999999001001MA1999999098921MD1999999+0121MW1101REMSYN070AAXX  14034 48331 31925 00000 10225 20159 39892 40125 71000 333 58012;EQDQ01  00002PRCP99
0205483310999992000031406004+18770+100770FM-12+0201VTCN V0209999C000012200019N0040001N1+03221+01451100801ADDAA199000091AY101061AY201061GA1001+999999999GF100991001001999999001001MA1999999098551MD1999999+0041MW1051REMSYN070AAXX  14064 48331 31940 00000 10322 20145 39855 40080 70500 333 58004;EQDQ01  00002PRCP99
0205483310999992000031409004+18770+100770FM-12+0201VTCN V0209999C000012200019N0050001N1+03621+01171100431ADDAA199000091AY101031AY201031GA1001+999999999GF100991001001999999001001MA1999999098331MD1999999+0021MW1051REMSYN070AAXX  14094 48331 31950 00000 10362 20117 39833 40043 70500 333 58002;EQDQ01  00002PRCP99
0224483310999992000031412004+18770+100770FM-12+0201VTCN V0209999C000012200019N0040001N1+02821+01721100541ADDAA199000091AY101061AY201061GA1001+999999999GF100991001001999999001001KA1120M+03671MA1999999098281MD1999999-0031MW1051REMSYN076AAXX  14124 48331 31940 00000 10282 20172 39828 40054 70500 333 10367 59003;EQDQ01  00002PRCP99
0205483310999992000031415004+18770+100770FM-12+0201VTCN V0209999C000012200019N0030001N1+02251+01681100871ADDAA199000091AY101031AY201031GA1001+999999999GF100991001001999999001001MA1999999098551MD1999999+0001MW1101REMSYN070AAXX  14154 48331 31930 00000 10225 20168 39855 40087 71000 333 58000;EQDQ01  00002PRCP99
0205483310999992000031418004+18770+100770FM-12+0201VTCN V0209999C000012200019N0030001N1+01851+01521100901ADDAA199000091AY101061AY201061GA1001+999999999GF100991001001999999001001MA1999999098551MD1999999-0051MW1101REMSYN070AAXX  14184 48331 31930 00000 10185 20152 39855 40090 71000 333 59005;EQDQ01  00002PRCP99
0205483310999992000031421004+18770+100770FM-12+0201VTCN V0209999C000012200019N0030001N1+01651+01441100911ADDAA199000091AY101031AY201031GA1001+999999999GF100991001001999999001001MA1999999098551MD1999999-0061MW1101REMSYN070AAXX  14214 48331 31930 00000 10165 20144 39855 40091 71000 333 59006;EQDQ01  00002PRCP99
0230483310999992000031500004+18770+100770FM-12+0201VTCN V0209999C000012200019N0010001N1+01531+01361101091ADDAA199000091AY101061AY201061GA1001+999999999GF100991001001999999001001KA1120N+01401MA1999999098711MD1999999-0111MW1101REMSYN082AAXX  15004 48331 31910 00000 10153 20136 39871 40109 71000 8//// 333 20140 59011;EQDQ01  00002PRCP99
0205483310999992000031503004+18770+100770FM-12+0201VTCN V0209999C000012200019N0020001N1+02251+01511101141ADDAA199000091AY101031AY201031GA1001+999999999GF100991001001999999001001MA1999999098831MD1999999-0111MW1051REMSYN070AAXX  15034 48331 31920 00000 10225 20151 39883 40114 70500 333 59011;EQDQ01  00002PRCP99
0211483310999992000031506004+18770+100770FM-12+0201VTCN V0209999C000012200019N0030001N1+03281+01531100751ADDAA199000091AY101061AY201061GA1001+999999999GF100991001001999999001001MA1999999098511MD1999999-0051MW1051REMSYN076AAXX  15064 48331 31930 00000 10328 20153 39851 40075 70500 8//// 333 59005;EQDQ01  00002PRCP99
0205483310999992000031509004+18770+100770FM-12+0201VTCN V0209999C000012200019N0040001N1+03601+01541100331ADDAA199000091AY101031AY201031GA1001+999999999GF100991001001999999001001MA1999999098121MD1999999-0101MW1051REMSYN070AAXX  15094 48331 31940 00000 10360 20154 39812 40033 70500 333 59010;EQDQ01  00002PRCP99
0224483310999992000031512004+18770+100770FM-12+0201VTCN V0209999C000012200019N0040001N1+02901+01781100441ADDAA199000091AY101061AY201061GA1001+999999999GF100991001001999999001001KA1120M+03641MA1999999098191MD1999999-0101MW1051REMSYN076AAXX  15124 48331 31940 00000 10290 20178 39819 40044 70500 333 10364 59010;EQDQ01  00002PRCP99
0205483310999992000031515004+18770+100770FM-12+0201VTCN V0209999C000012200019N0040001N1+02361+01821100721ADDAA199000091AY101031AY201031GA1001+999999999GF100991001001999999001001MA1999999098421MD1999999-0151MW1101REMSYN070AAXX  15154 48331 31940 00000 10236 20182 39842 40072 71000 333 59015;EQDQ01  00002PRCP99
0205483310999992000031518004+18770+100770FM-12+0201VTCN V0209999C000012200019N0030001N1+02001+01721100771ADDAA199000091AY101061AY201061GA1001+999999999GF100991001001999999001001MA1999999098431MD1999999-0131MW1101REMSYN070AAXX  15184 48331 31930 00000 10200 20172 39843 40077 71000 333 59013;EQDQ01  00002PRCP99
0205483310999992000031521004+18770+100770FM-12+0201VTCN V0209999C000012200019N0020001N1+01811+01641100721ADDAA199000091AY101031AY201031GA1001+999999999GF100991001001999999001001MA1999999098371MD1999999-0191MW1101REMSYN070AAXX  15214 48331 31920 00000 10181 20164 39837 40072 71000 333 59019;EQDQ01  00002PRCP99
0214483310999992000031600004+18770+100770FM-12+0201VTCN V0209999C000012200019N0020001N1+01701+01521100881ADDAA199000091AY101061AY201061GF102991021001999999051001KA1120N+01571MA1999999098521MD1999999-0211MW1101REMSYN082AAXX  16004 48331 31920 20000 10170 20152 39852 40088 71000 82050 333 20157 59021;EQDQ01  00002PRCP99
0153483310999992000031603004+18770+100770FM-12+0201VTCN V0209999C000012200019N0020001N1+02431+99999999999ADDAA199000091GA1001+999999999GF100991001001999999001001REMSYN069AAXX  16034 48331 31920 00000 10243 2074 39870 40101 71000 333 59013;EQDQ01  00002PRCP99
0205483310999992000031606004+18770+100770FM-12+0201VTCN V0209999C000012200019N0040001N1+03351+01671100661ADDAA199000091AY101061AY201061GA1001+999999999GF100991001001999999001001MA1999999098431MD1999999-0091MW1051REMSYN070AAXX  16064 48331 31940 00000 10335 20167 39843 40066 70500 333 59009;EQDQ01  00002PRCP99
0211483310999992000031609004+18770+100770FM-12+0201VTCN V0209999C000012200019N0050001N1+03531+01861100251ADDAA199000091AY101031AY201031GA1001+999999999GF100991001001999999001001MA1999999098051MD1999999-0081MW1051REMSYN076AAXX  16094 48331 31950 00000 10353 20186 39805 40025 70500 8//// 333 59008;EQDQ01  00002PRCP99
0208483310999992000031612004+18770+100770FM-12+0201VTCN V0209999C000012200019N0030001N1+02881+01911100321ADDAA199000091AY101061AY201061GF102991999999999999999999KA1120M+03621MA1999999098071MD1999999-0121MW1051REMSYN076AAXX  16124 48331 31930 20000 10288 20191 39807 40032 70500 333 10362 59012;EQDQ01  00002PRCP99
0195483310999992000031615004+18770+100770FM-12+0201VTCN V0209999C000012200019N0020001N1+02421+01881100581ADDAA199000091AY101031AY201031GF104991021051999999051001MA1999999098281MD1999999-0141MW1101REMSYN076AAXX  16154 48331 31920 40000 10242 20188 39828 40058 71000 82550 333 59014;EQDQ01  00002PRCP99
0195483310999992000031618004+18770+100770FM-12+0201VTCN V0209999C000010450019N0020001N1+02201+01881100621ADDAA199000091AY111061AY201061GF106991021051012501051001MA1999999098311MD1999999-0151MW1101REMSYN076AAXX  16184 48331 31620 60000 10220 20188 39831 40062 71010 82550 333 59015;EQDQ01  00002PRCP99
0195483310999992000031621004+18770+100770FM-12+0201VTCN V0209999C000012200019N0020001N1+01981+01771100591ADDAA199000091AY101031AY201031GF102991001001999999001061MA1999999098261MD1999999-0131MW1101REMSYN076AAXX  16214 48331 31920 20000 10198 20177 39826 40059 71000 80006 333 59013;EQDQ01  00002PRCP99
0224483310999992000031700004+18770+100770FM-12+0201VTCN V0209999C000012200019N0010001N1+01901+01681100791ADDAA199000091AY101061AY201061GA1001+999999999GF100991001001999999001001KA1120N+01751MA1999999098451MD1999999-0091MW1101REMSYN076AAXX  17004 48331 31910 00000 10190 20168 39845 40079 71000 333 20175 59009;EQDQ01  00002PRCP99
0205483310999992000031703004+18770+100770FM-12+0201VTCN V0209999C000012200019N0013001N1+02601+01811100871ADDAA199000091AY101031AY201031GA1001+999999999GF100991001001999999001001MA1999999098581MD1999999-0141MW1051REMSYN070AAXX  17034 48331 31913 00000 10260 20181 39858 40087 70500 333 59014;EQDQ01  00002PRCP99
0205483310999992000031706004+18770+100770FM-12+0201VTCN V0209999C000012200019N0030001N1+03511+01801100461ADDAA199000091AY101061AY201061GA1001+999999999GF100991001001999999001001MA1999999098251MD1999999-0201MW1051REMSYN070AAXX  17064 48331 31930 00000 10351 20180 39825 40046 70500 333 59020;EQDQ01  00002PRCP99
0205483310999992000031709004+18770+100770FM-12+0201VTCN V0209999C000012200019N0030001N1+03651+01591100161ADDAA199000091AY101031AY201031GA1001+999999999GF100991001001999999001001MA1999999097971MD1999999-0091MW1051REMSYN070AAXX  17094 48331 31930 00000 10365 20159 39797 40016 70500 333 59009;EQDQ01  00002PRCP99
0224483310999992000031712004+18770+100770FM-12+0201VTCN V0209999C000012200019N0030001N1+03021+01601100241ADDAA199000091AY101061AY201061GA1001+999999999GF100991001001999999001001KA1120M+03681MA1999999097991MD1999999-0081MW1051REMSYN076AAXX  17124 48331 31930 00000 10302 20160 39799 40024 70500 333 10368 59008;EQDQ01  00002PRCP99
0205483310999992000031715004+18770+100770FM-12+0201VTCN V0209999C000012200019N0030001N1+02351+01701100531ADDAA199000091AY101031AY201031GA1001+999999999GF100991001001999999001001MA1999999098241MD1999999-0051MW1101REMSYN070AAXX  17154 48331 31930 00000 10235 20170 39824 40053 71000 333 59005;EQDQ01  00002PRCP99
0205483310999992000031721004+18770+100770FM-12+0201VTCN V0209999C000012200019N0020001N1+01831+01561100581ADDAA199000091AY101031AY201031GA1001+999999999GF100991001001999999001001MA1999999098241MD1999999-0011MW1101REMSYN070AAXX  17214 48331 31920 00000 10183 20156 39824 40058 71000 333 59001;EQDQ01  00002PRCP99
0214483310999992000031800004+18770+100770FM-12+0201VTCN V0209999C000012200019N0030001N1+01721+01511100831ADDAA199000091AY101061AY201061GF102991001001999999001011KA1120N+01601MA1999999098471MD1999999+0041MW1101REMSYN082AAXX  18004 48331 31930 20000 10172 20151 39847 40083 71000 80001 333 20160 58004;EQDQ01  00002PRCP99
0205483310999992000031803004+18770+100770FM-12+0201VTCN V0209999C000012200019N0030001N1+02551+01661100961ADDAA199000091AY101031AY201031GA1001+999999999GF100991001001999999001001MA1999999098671MD1999999+0091MW1051REMSYN070AAXX  18034 48331 31930 00000 10255 20166 39867 40096 70500 333 58009;EQDQ01  00002PRCP99
0205483310999992000031809004+18770+100770FM-12+0201VTCN V0202001N001012200019N0050001N1+03691+01131100211ADDAA199000091AY101031AY201031GA1001+999999999GF100991001001999999001001MA1999999098011MD1999999+0051MW1051REMSYN070AAXX  18094 48331 31950 02002 10369 20113 39801 40021 70500 333 58005;EQDQ01  00002PRCP99
0214483310999992000031812004+18770+100770FM-12+0201VTCN V0209999C000012200019N0040001N1+03051+01571100321ADDAA199000091AY101061AY201061GF102991001001999999001061KA1120M+03751MA1999999098081MD1999999+0081MW1051REMSYN082AAXX  18124 48331 31940 20000 10305 20157 39808 40032 70500 80006 333 10375 58008;EQDQ01  00002PRCP99
0205483310999992000031815004+18770+100770FM-12+0201VTCN V0209999C000012200019N0040001N1+02301+01491100651ADDAA199000091AY101031AY201031GA1001+999999999GF100991001001999999001001MA1999999098341MD1999999+0121MW1051REMSYN070AAXX  18154 48331 31940 00000 10230 20149 39834 40065 70500 333 58012;EQDQ01  00002PRCP99
0205483310999992000031818004+18770+100770FM-12+0201VTCN V0209999C000012200019N0040001N1+01971+01601100731ADDAA199000091AY101061AY201061GA1001+999999999GF100991001001999999001001MA1999999098401MD1999999+0141MW1101REMSYN070AAXX  18184 48331 31940 00000 10197 20160 39840 40073 71000 333 58014;EQDQ01  00002PRCP99
0205483310999992000031821004+18770+100770FM-12+0201VTCN V0209999C000012200019N0020001N1+01821+01491100731ADDAA199000091AY101031AY201031GA1001+999999999GF100991001001999999001001MA1999999098381MD1999999+0151MW1101REMSYN070AAXX  18214 48331 31920 00000 10182 20149 39838 40073 71000 333 58015;EQDQ01  00002PRCP99
0214483310999992000031900004+18770+100770FM-12+0201VTCN V0209999C000012200019N0020001N1+01751+01471100971ADDAA199000091AY101061AY201061GF102991001001999999001021KA1120N+01601MA1999999098611MD1999999+0141MW1101REMSYN082AAXX  19004 48331 31920 20000 10175 20147 39861 40097 71000 80002 333 20160 58014;EQDQ01  00002PRCP99
0205483310999992000031903004+18770+100770FM-12+0201VTCN V0209999C000012200019N0020001N1+02491+01621101051ADDAA199000091AY101031AY201031GA1001+999999999GF100991001001999999001001MA1999999098761MD1999999+0091MW1051REMSYN070AAXX  19034 48331 31920 00000 10249 20162 39876 40105 70500 333 58009;EQDQ01  00002PRCP99
0205483310999992000031906004+18770+100770FM-12+0201VTCN V0209999C000012200019N0030001N1+03451+01661100711ADDAA199000091AY101061AY201061GA1001+999999999GF100991001001999999001001MA1999999098481MD1999999+0181MW1051REMSYN070AAXX  19064 48331 31930 00000 10345 20166 39848 40071 70500 333 58018;EQDQ01  00002PRCP99
0205483310999992000031909004+18770+100770FM-12+0201VTCN V0209999C000012200019N0030001N1+03671+01601100361ADDAA199000091AY101031AY201031GA1001+999999999GF100991001001999999001001MA1999999098161MD1999999-0151MW1051REMSYN070AAXX  19094 48331 31930 00000 10367 20160 39816 40036 70500 333 59015;EQDQ01  00002PRCP99
0224483310999992000031912004+18770+100770FM-12+0201VTCN V0209999C000012200019N0030001N1+02921+01851100461ADDAA199000091AY101061AY201061GA1001+999999999GF100991001001999999001001KA1120M+03731MA1999999098201MD1999999+0141MW1051REMSYN076AAXX  19124 48331 31930 00000 10292 20185 39820 40046 70500 333 10373 58014;EQDQ01  00002PRCP99
0205483310999992000031915004+18770+100770FM-12+0201VTCN V0209999C000012200019N0030001N1+02401+01721100781ADDAA199000091AY101031AY201031GA1001+999999999GF100991001001999999001001MA1999999098471MD1999999+0131MW1101REMSYN070AAXX  19154 48331 31930 00000 10240 20172 39847 40078 71000 333 58013;EQDQ01  00002PRCP99
0205483310999992000031918004+18770+100770FM-12+0201VTCN V0209999C000012200019N0030001N1+02071+01691100831ADDAA199000091AY101061AY201061GA1001+999999999GF100991001001999999001001MA1999999098501MD1999999+0101MW1101REMSYN070AAXX  19184 48331 31930 00000 10207 20169 39850 40083 71000 333 58010;EQDQ01  00002PRCP99
0205483310999992000031921004+18770+100770FM-12+0201VTCN V0209999C000012200019N0020001N1+01851+01601100811ADDAA199000091AY101031AY201031GA1001+999999999GF100991001001999999001001MA1999999098461MD1999999+0081MW1101REMSYN070AAXX  19214 48331 31920 00000 10185 20160 39846 40081 71000 333 58008;EQDQ01  00002PRCP99
0224483310999992000032000004+18770+100770FM-12+0201VTCN V0209999C000012200019N0030001N1+01701+01521100971ADDAA199000091AY101061AY201061GA1001+999999999GF100991001001999999001001KA1120N+01591MA1999999098611MD1999999+0001MW1101REMSYN076AAXX  20004 48331 31930 00000 10170 20152 39861 40097 71000 333 20159 58000;EQDQ01  00002PRCP99
0195483310999992000032006004+18770+100770FM-12+0201VTCN V0201301N001012200019N0040001N1+03432+01681100691ADDAA199000091AY101061AY201061GF102991001001999999001061MA1999999098471MD1999999-0021MW1051REMSYN076AAXX  20064 48331 31940 21302 10343 20168 39847 40069 70500 80006 333 59002;EQDQ01  00002PRCP99
0214483310999992000032012004+18770+100770FM-12+0201VTCN V0209999C000012200019N0030001N1+03001+01891100421ADDAA199000091AY101061AY201061GF102991001001999999001011KA1120M+03801MA1999999098171MD1999999-0041MW1051REMSYN082AAXX  20124 48331 31930 20000 10300 20189 39817 40042 70500 80001 333 10380 59004;EQDQ01  00002PRCP99
0195483310999992000032015004+18770+100770FM-12+0201VTCN V0209999C000012200019N0030001N1+02401+01881100781ADDAA199000091AY101031AY201031GF104991001001999999001061MA1999999098481MD1999999+0001MW1101REMSYN076AAXX  20154 48331 31930 40000 10240 20188 39848 40078 71000 80006 333 58000;EQDQ01  00002PRCP99
0195483310999992000032018004+18770+100770FM-12+0201VTCN V0209999C000012200019N0020001N1+02051+01721100861ADDAA199000091AY101061AY201061GF103991001001999999001061MA1999999098531MD1999999+0031MW1101REMSYN076AAXX  20184 48331 31920 30000 10205 20172 39853 40086 71000 80006 333 58003;EQDQ01  00002PRCP99
0195483310999992000032021004+18770+100770FM-12+0201VTCN V0209999C000019999999N0020001N1+01871+01581100881ADDAA199000091AY111031AY201031GF105991001001999999001061MA1999999098531MD1999999+0071MW1101REMSYN076AAXX  20214 48331 31920 50000 10187 20158 39853 40088 71010 80006 333 58007;EQDQ01  00002PRCP99
0224483310999992000032100004+18770+100770FM-12+0201VTCN V0209999C000012200019N0020001N1+01791+01581101061ADDAA199000091AY101061AY201061GA1001+999999999GF100991001001999999001001KA1120N+01641MA1999999098701MD1999999+0091MW1101REMSYN076AAXX  21004 48331 31920 00000 10179 20158 39870 40106 71000 333 20164 58009;EQDQ01  00002PRCP99
0205483310999992000032103004+18770+100770FM-12+0201VTCN V0209999C000012200019N0020001N1+02571+01651101161ADDAA199000091AY101031AY201031GA1001+999999999GF100991001001999999001001MA1999999098871MD1999999+0101MW1051REMSYN070AAXX  21034 48331 31920 00000 10257 20165 39887 40116 70500 333 58010;EQDQ01  00002PRCP99
0205483310999992000032106004+18770+100770FM-12+0201VTCN V0209999C000012200019N0030001N1+03451+01861100801ADDAA199000091AY101061AY201061GA1001+999999999GF100991001001999999001001MA1999999098581MD1999999+0111MW1051REMSYN070AAXX  21064 48331 31930 00000 10345 20186 39858 40080 70500 333 58011;EQDQ01  00002PRCP99
0205483310999992000032109004+18770+100770FM-12+0201VTCN V0209999C000012200019N0030001N1+03781+01531100421ADDAA199000091AY101031AY201031GA1001+999999999GF100991001001999999001001MA1999999098231MD1999999+0101MW1051REMSYN070AAXX  21094 48331 31930 00000 10378 20153 39823 40042 70500 333 58010;EQDQ01  00002PRCP99
0224483310999992000032112004+18770+100770FM-12+0201VTCN V0209999C000012200019N0030001N1+02991+01871100481ADDAA199000091AY101061AY201061GA1001+999999999GF100991001001999999001001KA1120M+03821MA1999999098231MD1999999+0061MW1051REMSYN076AAXX  21124 48331 31930 00000 10299 20187 39823 40048 70500 333 10382 58006;EQDQ01  00002PRCP99
0205483310999992000032115004+18770+100770FM-12+0201VTCN V0209999C000012200019N0020001N1+02991+01871100481ADDAA199000091AY101031AY201031GA1001+999999999GF100991001001999999001001MA1999999098231MD1999999+0061MW1101REMSYN070AAXX  21154 48331 31920 00000 10299 20187 39823 40048 71000 333 58006;EQDQ01  00002PRCP99
0205483310999992000032118004+18770+100770FM-12+0201VTCN V0209999C000012200019N0020001N1+02151+01741100851ADDAA199000091AY101061AY201061GA1001+999999999GF100991001001999999001001MA1999999098521MD1999999-0011MW1101REMSYN070AAXX  21184 48331 31920 00000 10215 20174 39852 40085 71000 333 59001;EQDQ01  00002PRCP99
0205483310999992000032121004+18770+100770FM-12+0201VTCN V0209999C000012200019N0020001N1+01931+01631100851ADDAA199000091AY101031AY201031GA1001+999999999GF100991001001999999001001MA1999999098511MD1999999-0031MW1101REMSYN070AAXX  21214 48331 31920 00000 10193 20163 39851 40085 71000 333 59003;EQDQ01  00002PRCP99
0224483310999992000032200004+18770+100770FM-12+0201VTCN V0209999C000012200019N0020001N1+01841+01601101021ADDAA199000091AY101061AY201061GA1001+999999999GF100991001001999999001001KA1120N+01701MA1999999098671MD1999999-0041MW1101REMSYN076AAXX  22004 48331 31920 00000 10184 20160 39867 40102 71000 333 20170 59004;EQDQ01  00002PRCP99
0205483310999992000032203004+18770+100770FM-12+0201VTCN V0209999C000012200019N0020001N1+02661+01721101131ADDAA199000091AY101031AY201031GA1001+999999999GF100991001001999999001001MA1999999098841MD1999999-0031MW1051REMSYN070AAXX  22034 48331 31920 00000 10266 20172 39884 40113 70500 333 59003;EQDQ01  00002PRCP99
0205483310999992000032206004+18770+100770FM-12+0201VTCN V0209999C000012200019N0040001N1+03491+01881100781ADDAA199000091AY101061AY201061GA1001+999999999GF100991001001999999001001MA1999999098551MD1999999-0021MW1051REMSYN070AAXX  22064 48331 31940 00000 10349 20188 39855 40078 70500 333 59002;EQDQ01  00002PRCP99
0205483310999992000032209004+18770+100770FM-12+0201VTCN V0209999C000012200019N0040001N1+03701+02041100411ADDAA199000091AY101031AY201031GA1001+999999999GF100991001001999999001001MA1999999098211MD1999999-0011MW1051REMSYN070AAXX  22094 48331 31940 00000 10370 20204 39821 40041 70500 333 59001;EQDQ01  00002PRCP99
0214483310999992000032212004+18770+100770FM-12+0201VTCN V0209999C000012200019N0030001N1+03051+02161100481ADDAA199000091AY101061AY201061GF102991001001999999001011KA1120M+03751MA1999999098241MD1999999+0001MW1051REMSYN082AAXX  22124 48331 31930 20000 10305 20216 39824 40048 70500 80001 333 10375 58000;EQDQ01  00002PRCP99
0195483310999992000032215004+18770+100770FM-12+0201VTCN V0209999C000012200019N0020001N1+02661+02161100811ADDAA199000091AY111031AY201031GF104991021001999999051061MA1999999098531MD1999999+0001MW1101REMSYN076AAXX  22154 48331 31920 40000 10266 20216 39853 40081 71010 82056 333 58000;EQDQ01  00002PRCP99
0195483310999992000032218004+18770+100770FM-12+0201VTCN V0209999C000012200019N0020001N1+02401+02011100911ADDAA199000091AY111061AY211061GF104991001001999999001061MA1999999098601MD1999999+0061MW1101REMSYN076AAXX  22184 48331 31920 40000 10240 20201 39860 40091 71011 80006 333 58006;EQDQ01  00002PRCP99
0195483310999992000032221004+18770+100770FM-12+0201VTCN V0209999C000012200019N0020001N1+02241+01971100901ADDAA199000091AY111031AY201031GF104991001001999999001061MA1999999098581MD1999999+0051MW1101REMSYN076AAXX  22214 48331 31920 40000 10224 20197 39858 40090 71010 80006 333 58005;EQDQ01  00002PRCP99
0214483310999992000032300004+18770+100770FM-12+0201VTCN V0209999C000012200019N0010001N1+02181+01981101071ADDAA199000091AY101061AY201061GF102991001001999999001051KA1120N+02041MA1999999098751MD1999999+0051MW1101REMSYN082AAXX  23004 48331 31910 20000 10218 20198 39875 40107 71000 80005 333 20204 58005;EQDQ01  00002PRCP99
0211483310999992000032303004+18770+100770FM-12+0201VTCN V0209999C000012200019N0020001N1+02991+02061101161ADDAA199000091AY101031AY201031GA1001+999999999GF100991001001999999001001MA1999999098901MD1999999+0031MW1051REMSYN076AAXX  23034 48331 31920 00000 10299 20206 39890 40116 70500 8//// 333 58003;EQDQ01  00002PRCP99
0205483310999992000032306004+18770+100770FM-12+0201VTCN V0209999C000012200019N0030001N1+03601+02151100811ADDAA199000091AY101061AY201061GA1001+999999999GF100991001001999999001001MA1999999098601MD1999999+0031MW1051REMSYN070AAXX  23064 48331 31930 00000 10360 20215 39860 40081 70500 333 58003;EQDQ01  00002PRCP99
0205483310999992000032309004+18770+100770FM-12+0201VTCN V0209999C000012200019N0030001N1+03771+02221100481ADDAA199000091AY101031AY201031GA1001+999999999GF100991001001999999001001MA1999999098291MD1999999+0071MW1051REMSYN070AAXX  23094 48331 31930 00000 10377 20222 39829 40048 70500 333 58007;EQDQ01  00002PRCP99
0214483310999992000032312004+18770+100770FM-12+0201VTCN V0209999C000012200019N0030001N1+03251+02391100621ADDAA199000091AY101061AY201061GF103991001001999999001051KA1120M+03831MA1999999098381MD1999999+0141MW1051REMSYN082AAXX  23124 48331 31930 30000 10325 20239 39838 40062 70500 80005 333 10383 58014;EQDQ01  00002PRCP99
0195483310999992000032315004+18770+100770FM-12+0201VTCN V0209999C000012200019N0030001N1+02901+02221100911ADDAA199000091AY101031AY201031GF103991001001999999001051MA1999999098641MD1999999+0101MW1101REMSYN076AAXX  23154 48331 31930 30000 10290 20222 39864 40091 71000 80005 333 58010;EQDQ01  00002PRCP99
0195483310999992000032318004+18770+100770FM-12+0201VTCN V0209999C000012200019N0030001N1+02701+02261100911ADDAA199000091AY101061AY201061GF104991001001999999001061MA1999999098631MD1999999+0001MW1101REMSYN076AAXX  23184 48331 31930 40000 10270 20226 39863 40091 71000 80006 333 58000;EQDQ01  00002PRCP99
0195483310999992000032321004+18770+100770FM-12+0201VTCN V0209999C000019999999N0020001N1+02601+02231100901ADDAA199000091AY101031AY201031GF105991001001999999001061MA1999999098611MD1999999+0001MW1101REMSYN076AAXX  23214 48331 31920 50000 10260 20223 39861 40090 71000 80006 333 58000;EQDQ01  00002PRCP99
0213483310999992000032400004+18770+100770FM-12+0201VTCN V0209999C000010075019N0050001N1+02401+01981101221ADDAA103000591AY191061AY261061GF108991051091008001071999KA1120N+02251MA1999999098901MD1999999+0151MW1171REMSYN100AAXX  24004 48331 /1550 80000 10240 20198 39890 40122 69944 71796 8597/ 333 20225 58015 69947 70004;
0195483310999992000032403004+18770+100770FM-12+0201VTCN V0203101N001510450019N0050001N1+02951+02091101361ADDAA199000091AY191031AY221031GF106991041051008001051011MA1999999099081MD1999999+0201MW1101REMSYN076AAXX  24034 48331 31550 63103 10295 20209 39908 40136 71092 84551 333 58020;EQDQ01  00002PRCP99
0195483310999992000032409004+18770+100770FM-12+0201VTCN V0201501N001510450019N0050001N1+03111+02061100791ADDAA199000091AY121031AY221031GF108991041051008001071999MA1999999098541MD1999999+0311MW1051REMSYN076AAXX  24094 48331 31550 81503 10311 20206 39854 40079 70522 8457/ 333 58031;EQDQ01  00002PRCP99
0214483310999992000032412004+18770+100770FM-12+0201VTCN V0209999C000011050019N0040001N1+02801+02141100931ADDAA199000091AY121061AY221061GF105991021051008001051061KA1120M+03331MA1999999098661MD1999999+0311MW1101REMSYN082AAXX  24124 48331 31540 50000 10280 20214 39866 40093 71022 82556 333 10333 58031;EQDQ01  00002PRCP99
0195483310999992000032509004+18770+100770FM-12+0201VTCN V0209999C000012200019N0060001N1+03451+01981100791ADDAA199000091AY101031AY201031GF103991031051008001001001MA1999999098571MD1999999+0001MW1051REMSYN076AAXX  25094 48331 31556 30000 10345 20198 39857 40079 70500 83500 333 58000;EQDQ01  00002PRCP99
0214483310999992000032512004+18770+100770FM-12+0201VTCN V0209999C000012200019N0060001N1+03001+02151100961ADDAA199000091AY101061AY201061GF103991031051008001001001KA1120M+03511MA1999999098701MD1999999+0031MW1051REMSYN082AAXX  25124 48331 31556 30000 10300 20215 39870 40096 70500 83500 333 10351 58003;EQDQ01  00002PRCP99
0195483310999992000032515004+18770+100770FM-12+0201VTCN V0209999C000012200019N0060001N1+02741+02021101251ADDAA199000091AY101031AY201031GF103991031051008001001001MA1999999098971MD1999999-0021MW1051REMSYN076AAXX  25154 48331 31556 30000 10274 20202 39897 40125 70500 83500 333 59002;EQDQ01  00002PRCP99
0195483310999992000032518004+18770+100770FM-12+0201VTCN V0209999C000012200019N0060001N1+02611+02081101311ADDAA199000091AY101061AY201061GF103991031051008001001001MA1999999099001MD1999999+0051MW1101REMSYN076AAXX  25184 48331 31556 30000 10261 20208 39900 40131 71000 83500 333 58005;EQDQ01  00002PRCP99
0195483310999992000032521004+18770+100770FM-12+0201VTCN V0209999C000011050019N0060001N1+02451+02081101231ADDAA199000091AY121031AY201031GF105991021051008001001051MA1999999098931MD1999999+0091MW1101REMSYN076AAXX  25214 48331 31556 50000 10245 20208 39893 40123 71020 82505 333 58009;EQDQ01  00002PRCP99
0214483310999992000032600004+18770+100770FM-12+0201VTCN V0209999C000010450019N0080001N1+02471+01871101401ADDAA199000091AY121061AY211061GF106991031051012501051061KA1120N+02321MA1999999099091MD1999999+0111MW1101REMSYN082AAXX  26004 48331 31658 60000 10247 20187 39909 40140 71021 83556 333 20232 58011;EQDQ01  00002PRCP99
0195483310999992000032603004+18770+100770FM-12+0201VTCN V0209999C000012200019N0080001N1+02931+01661101551ADDAA199000091AY111031AY201031GF102991001001999999001061MA1999999099271MD1999999+0161MW1051REMSYN076AAXX  26034 48331 31958 20000 10293 20166 39927 40155 70510 80006 333 58016;EQDQ01  00002PRCP99
0167483310999992000032606004+18770+100770FM-12+0201VTCN V0201201N001010075019N0100001N1+03131+01781101271ADDAA199000091GF108991051051008001071999MA1999999099011MD1999999+0201REMSYN070AAXX  26064 48331 32560 81202 10313 20178 39901 40127 8557/ 333 58020;EQDQ01  00002PRCP99
0167483310999992000032609004+18770+100770FM-12+0201VTCN V0200501N001010450019N0100001N1+03171+01691101031ADDAA199000091GF106991041051008001051061MA1999999098781MD1999999+0241REMSYN070AAXX  26094 48331 32560 60502 10317 20169 39878 40103 84556 333 58024;EQDQ01  00002PRCP99
0214483310999992000032612004+18770+100770FM-12+0201VTCN V0209999C000012200019N0080001N1+02831+01811101161ADDAA199000091AY121061AY211061GF104991021051012501051061KA1120M+03221MA1999999098881MD1999999+0201MW1051REMSYN082AAXX  26124 48331 31658 40000 10283 20181 39888 40116 70521 82556 333 10322 58020;EQDQ01  00002PRCP99
0195483310999992000032615004+18770+100770FM-12+0201VTCN V0209999C000010450019N0060001N1+02611+01891101431ADDAA199000091AY121031AY211031GF106991041051008001071061MA1999999099131MD1999999+0181MW1051REMSYN076AAXX  26154 48331 31556 60000 10261 20189 39913 40143 70521 84576 333 58018;EQDQ01  00002PRCP99
0195483310999992000032618004+18770+100770FM-12+0201VTCN V0209999C000011050019N0060001N1+02471+01961101411ADDAA199000091AY121061AY221061GF105991021051012501051061MA1999999099101MD1999999+0101MW1101REMSYN076AAXX  26184 48331 31656 50000 10247 20196 39910 40141 71022 82556 333 58010;EQDQ01  00002PRCP99
0195483310999992000032621004+18770+100770FM-12+0201VTCN V0209999C000012200019N0060001N1+02251+01941101321ADDAA199000091AY111031AY201031GF102991001001999999001011MA1999999098991MD1999999+0091MW1101REMSYN076AAXX  26214 48331 31956 20000 10225 20194 39899 40132 71010 80001 333 58009;EQDQ01  00002PRCP99
0214483310999992000032700004+18770+100770FM-12+0201VTCN V0209999C000012200019N0020001N1+02151+01911101511ADDAA199000091AY101061AY201061GF103991011051008001041051KA1120N+01991MA1999999099181MD1999999+0111MW1101REMSYN082AAXX  27004 48331 31520 30000 10215 20191 39918 40151 71000 81545 333 20199 58011;EQDQ01  00002PRCP99
0211483310999992000032703004+18770+100770FM-12+0201VTCN V0209999C000012200019N0030001N1+02861+01881101491ADDAA199000091AY101031AY201031GA1001+999999999GF100991001001999999001001MA1999999099211MD1999999-0061MW1051REMSYN076AAXX  27034 48331 31930 00000 10286 20188 39921 40149 70500 8//// 333 59006;EQDQ01  00002PRCP99
0195483310999992000032706004+18770+100770FM-12+0201VTCN V0209999C000012200019N0060001N1+03321+01831101041ADDAA199000091AY101061AY201061GF102991021051008001001001MA1999999098811MD1999999-0231MW1051REMSYN076AAXX  27064 48331 31556 20000 10332 20183 39881 40104 70500 82500 333 59023;EQDQ01  00002PRCP99
0195483310999992000032709004+18770+100770FM-12+0201VTCN V0209999C000012200019N0060001N1+03471+01801100731ADDAA199000091AY101031AY201031GF103991031051008001001001MA1999999098501MD1999999-0301MW1051REMSYN076AAXX  27094 48331 31556 30000 10347 20180 39850 40073 70500 83500 333 59030;EQDQ01  00002PRCP99
0214483310999992000032712004+18770+100770FM-12+0201VTCN V0209999C000012200019N0060001N1+02981+02011100901ADDAA199000091AY101061AY201061GF101991011051008001001001KA1120M+03541MA1999999098641MD1999999-0261MW1051REMSYN082AAXX  27124 48331 31556 10000 10298 20201 39864 40090 70500 81500 333 10354 59026;EQDQ01  00002PRCP99
0195483310999992000032715004+18770+100770FM-12+0201VTCN V0209999C000012200019N0060001N1+02601+01971101211ADDAA199000091AY101031AY201031GF102991021051008001001001MA1999999098921MD1999999-0221MW1101REMSYN076AAXX  27154 48331 31556 20000 10260 20197 39892 40121 71000 82500 333 59022;EQDQ01  00002PRCP99
0205483310999992000032718004+18770+100770FM-12+0201VTCN V0209999C000012200019N0040001N1+02351+01961101211ADDAA199000091AY101061AY201061GA1001+999999999GF100991001001999999001001MA1999999098911MD1999999-0201MW1101REMSYN070AAXX  27184 48331 31940 00000 10235 20196 39891 40121 71000 333 59020;EQDQ01  00002PRCP99
0205483310999992000032721004+18770+100770FM-12+0201VTCN V0209999C000012200019N0040001N1+02161+01911101101ADDAA199000091AY101031AY201031GA1001+999999999GF100991001001999999001001MA1999999098781MD1999999-0221MW1101REMSYN070AAXX  27214 48331 31940 00000 10216 20191 39878 40110 71000 333 59022;EQDQ01  00002PRCP99
0214483310999992000032800004+18770+100770FM-12+0201VTCN V0209999C000019999999N0060001N1+02101+01911101251ADDAA199000091AY111061AY201061GF106991051001999999051011KA1120N+01951MA1999999098921MD1999999-0261MW1101REMSYN082AAXX  28004 48331 31956 60000 10210 20191 39892 40125 71010 85051 333 20195 59026;EQDQ01  00002PRCP99
0205483310999992000032803004+18770+100770FM-12+0201VTCN V0209999C000012200019N0060001N1+02941+01931101271ADDAA199000091AY101031AY201031GA1001+999999999GF100991001001999999001001MA1999999098991MD1999999-0221MW1051REMSYN070AAXX  28034 48331 31956 00000 10294 20193 39899 40127 70500 333 59022;EQDQ01  00002PRCP99
0167483310999992000032806004+18770+100770FM-12+0201VTCN V0209999C000012200019N0100001N1+03511+01781100931ADDAA199000091GF103991021001999999051011MA1999999098711MD1999999-0111REMSYN070AAXX  28064 48331 32960 30000 10351 20178 39871 40093 82051 333 59011;EQDQ01  00002PRCP99
0167483310999992000032809004+18770+100770FM-12+0201VTCN V0209999C000011050019N0100001N1+03601+01861100641ADDAA199000091GF105991021051012501031011MA1999999098421MD1999999-0091REMSYN070AAXX  28094 48331 32660 50000 10360 20186 39842 40064 82531 333 59009;EQDQ01  00002PRCP99
0214483310999992000032812004+18770+100770FM-12+0201VTCN V0209999C000011050019N0100001N1+03061+02001100781ADDAA199000091AY121061AY211061GF105991021051012501051061KA1120M+03731MA1999999098521MD1999999-0121MW1051REMSYN082AAXX  28124 48331 31660 50000 10306 20200 39852 40078 70521 82556 333 10373 59012;EQDQ01  00002PRCP99
0195483310999992000032815004+18770+100770FM-12+0201VTCN V0209999C000011050019N0080001N1+02801+02041101081ADDAA199000091AY121031AY221031GF106991021051012501051061MA1999999098801MD1999999-0131MW1051REMSYN076AAXX  28154 48331 31658 60000 10280 20204 39880 40108 70522 82556 333 59013;EQDQ01  00002PRCP99
0195483310999992000032818004+18770+100770FM-12+0201VTCN V0209999C000012200019N0060001N1+02551+02091101141ADDAA199000091AY121061AY201061GF102991001001999999001011MA1999999098841MD1999999-0071MW1101REMSYN076AAXX  28184 48331 31956 20000 10255 20209 39884 40114 71020 80001 333 59007;EQDQ01  00002PRCP99
0214483310999992000032900004+18770+100770FM-12+0201VTCN V0209999C000012200019N0020001N1+02251+02001101321ADDAA199000091AY101061AY201061GF102991001001999999001061KA1120N+02091MA1999999098991MD1999999+0071MW1101REMSYN082AAXX  29004 48331 31920 20000 10225 20200 39899 40132 71000 80006 333 20209 58007;EQDQ01  00002PRCP99
0195483310999992000032903004+18770+100770FM-12+0201VTCN V0209999C000012200019N0030001N1+03121+01691101331ADDAA199000091AY101031AY201031GF102991001001999999001051MA1999999099061MD1999999+0061MW1051REMSYN076AAXX  29034 48331 31930 20000 10312 20169 39906 40133 70500 80005 333 58006;EQDQ01  00002PRCP99
0195483310999992000032906004+18770+100770FM-12+0201VTCN V0202401N001512200019N0060001N1+03661+01491100901ADDAA199000091AY101061AY201061GF102991001001999999001051MA1999999098691MD1999999-0031MW1051REMSYN076AAXX  29064 48331 31956 22403 10366 20149 39869 40090 70500 80005 333 59003;EQDQ01  00002PRCP99
0195483310999992000032909004+18770+100770FM-12+0201VTCN V0209999C000012200019N0060001N1+03701+01571100601ADDAA199000091AY101031AY201031GF102991001001999999001051MA1999999098391MD1999999-0041MW1051REMSYN076AAXX  29094 48331 31956 20000 10370 20157 39839 40060 70500 80005 333 59004;EQDQ01  00002PRCP99
0224483310999992000032912004+18770+100770FM-12+0201VTCN V0209999C000012200019N0060001N1+03151+01841100711ADDAA199000091AY101061AY201061GA1001+999999999GF100991001001999999001001KA1120M+03741MA1999999098461MD1999999-0071MW1051REMSYN076AAXX  29124 48331 31956 00000 10315 20184 39846 40071 70500 333 10374 59007;EQDQ01  00002PRCP99
0205483310999992000032915004+18770+100770FM-12+0201VTCN V0209999C000012200019N0060001N1+02851+01851100941ADDAA199000091AY101031AY201031GA1001+999999999GF100991001001999999001001MA1999999098671MD1999999-0141MW1051REMSYN070AAXX  29154 48331 31956 00000 10285 20185 39867 40094 70500 333 59014;EQDQ01  00002PRCP99
0205483310999992000032918004+18770+100770FM-12+0201VTCN V0209999C000012200019N0040001N1+02481+01971101011ADDAA199000091AY101061AY201061GA1001+999999999GF100991001001999999001001MA1999999098711MD1999999-0131MW1051REMSYN070AAXX  29184 48331 31940 00000 10248 20197 39871 40101 70500 333 59013;EQDQ01  00002PRCP99
0195483310999992000032921004+18770+100770FM-12+0201VTCN V0209999C000012200019N0040001N1+02381+01931100941ADDAA199000091AY101031AY201031GF103991031051008001001001MA1999999098641MD1999999-0121MW1101REMSYN076AAXX  29214 48331 31540 30000 10238 20193 39864 40094 71000 83500 333 59012;EQDQ01  00002PRCP99
0213483310999992000033000004+18770+100770FM-12+0201VTCN V0209999C000010450019N0060001N1+02311+02021101031ADDAA101000791AY121061AY201061GF107991041021008001051061KA1120N+02181MA1999999098721MD1999999-0291MW1211REMSYN100AAXX  30004 48331 /1556 70000 10231 20202 39872 40103 69904 72120 84256 333 20218 59029 69905 79999;
0176483310999992000033003004+18770+100770FM-12+0201VTCN V0209999C000010120019N0050001N1+02711+02121101191ADDAA199000021AY121031AY221031GF108991061081008001071999MA1999999098901MD1999999-0141MW1101REMSYN076AAXX  30034 48331 31550 80000 10271 20212 39890 40119 71022 8687/ 333 59014;
0182483310999992000033006004+18770+100770FM-12+0201VTCN V0209999C000010450019N0060001N1+03401+01991100801ADDAA124000791AY121061AY221061GF106991031051008001051061MA1999999098571MD1999999-0101MW1051REMSYN082AAXX  30064 48331 31556 60000 10340 20199 39857 40080 70522 83556 333 59010 79999;
0176483310999992000033009004+18770+100770FM-12+0201VTCN V0209999C000010450019N0060001N1+03381+02131100471ADDAA199000021AY121031AY221031GF105991031021008001051061MA1999999098251MD1999999-0131MW1051REMSYN076AAXX  30094 48331 31556 50000 10338 20213 39825 40047 70522 83256 333 59013;
0201483310999992000033012004+18770+100770FM-12+0201VTCN V0209999C000011050019N0060001N1+03031+02251100501ADDAA124000791AY121061AY221061GF105991021051012501051061KA1120M+03461MA1999999098251MD1999999-0191MW1051REMSYN088AAXX  30124 48331 31656 50000 10303 20225 39825 40050 70522 82556 333 10346 59019 79999;
0195483310999992000033015004+18770+100770FM-12+0201VTCN V0209999C000012200019N0050001N1+02761+02271100731ADDAA199000091AY121031AY211031GF104991021051012501051061MA1999999098461MD1999999-0211MW1101REMSYN076AAXX  30154 48331 31650 40000 10276 20227 39846 40073 71021 82556 333 59021;EQDQ01  00002PRCP99
0194483310999992000033018004+18770+100770FM-12+0201VTCN V0209999C000010075019N0040001N1+02501+02261100781ADDAA102001091AY191061AY261061GF108991061021008001071999MA1999999098481MD1999999-0231MW1801REMSYN094AAXX  30184 48331 /1540 80000 10250 20226 39848 40078 60013 78096 8627/ 333 59023 60016 70010;
0182483310999992000033021004+18770+100770FM-12+0201VTCN V0209999C000010075019N0040001N1+02451+02271100741ADDAA103002091AY191031AY281031GF108991051051008001071999MA1999999098441MD1999999-0201MW1101REMSYN082AAXX  30214 48331 21540 80000 10245 20227 39844 40074 71098 8557/ 333 59020 60027;
0207483310999992000033100004+18770+100770FM-12+0201VTCN V0209999C000010450019N0060001N1+02451+02301100851ADDAA124003091AY121061AY221061GF106991031051008001051061KA1120N+02261MA1999999098551MD1999999-0181MW1101REMSYN094AAXX  31004 48331 11556 60000 10245 20230 39855 40085 60034 71022 83556 333 20226 59018 70029;
0176483310999992000033103004+18770+100770FM-12+0201VTCN V0209999C000012200019N0080001N1+02841+02251100981ADDAA199000021AY121031AY201031GF103991031051008001001001MA1999999098711MD1999999-0211MW1101REMSYN076AAXX  31034 48331 31558 30000 10284 20225 39871 40098 71020 83500 333 59021;
0154483310999992000033106004+18770+100770FM-12+0201VTCN V0209999C000012200019N0120001N1+03481+02371100571ADDAA124002891GF103991031051008001001001MA1999999098351MD1999999-0231REMSYN076AAXX  31064 48331 32562 30000 10348 20237 39835 40057 83500 333 59023 70029;
0167483310999992000033109004+18770+100770FM-12+0201VTCN V0209999C000012200019N0120001N1+03741+02071100181ADDAA199000091GF103991031081008001001001MA1999999097981MD1999999-0291REMSYN070AAXX  31094 48331 32562 30000 10374 20207 39798 40018 83800 333 59029;EQDQ01  00002PRCP99
0173483310999992000033112004+18770+100770FM-12+0201VTCN V0209999C000012200019N0120001N1+03251+02261100261ADDAA124002891GF102991021051008001001001KA1120M+03761MA1999999098021MD1999999-0241REMSYN082AAXX  31124 48331 32562 20000 10325 20226 39802 40026 82500 333 10376 59024 70029;
0167483310999992000033115004+18770+100770FM-12+0201VTCN V0209999C000012200019N0120001N1+02751+02151100631ADDAA199000091GF102991021021008001001001MA1999999098331MD1999999-0101REMSYN070AAXX  31154 48331 32562 20000 10275 20215 39833 40063 82200 333 59010;EQDQ01  00002PRCP99
0195483310999992000033121004+18770+100770FM-12+0201VTCN V0209999C000012200019N0080001N1+02301+01921100531ADDAA199000091AY121031AY201031GF102991021051008001001001MA1999999098231MD1999999-0211MW1101REMSYN076AAXX  31214 48331 31558 20000 10230 20192 39823 40053 71020 82500 333 59021;EQDQ01  00002PRCP99
0186483310999992000040100004+18770+100770FM-12+0201VTCN V0209999C000012200019N0100001N1+02201+01901100701ADDAA199000091GF102991011001999999051011KA1120N+02021MA1999999098391MD1999999-0281REMSYN076AAXX  01004 48331 32960 20000 10220 20190 39839 40070 81051 333 20202 59028;EQDQ01  00002PRCP99
0167483310999992000040103004+18770+100770FM-12+0201VTCN V0209999C000012200019N0120001N1+03101+02081100761ADDAA199000091GF102991001001999999001051MA1999999098511MD1999999-0221REMSYN070AAXX  01034 48331 32962 20000 10310 20208 39851 40076 80005 333 59022;EQDQ01  00002PRCP99
0167483310999992000040106004+18770+100770FM-12+0201VTCN V0209999C000012200019N0150001N1+03701+01801100401ADDAA199000091GF102991021021008001001001MA1999999098201MD1999999-0171REMSYN070AAXX  01064 48331 32565 20000 10370 20180 39820 40040 82200 333 59017;EQDQ01  00002PRCP99
0186483310999992000040112004+18770+100770FM-12+0201VTCN V0209999C000012200019N0150001N1+03241+01801100101ADDAA199000091GF101991011011008001001001KA1120M+03921MA1999999097881MD1999999-0161REMSYN076AAXX  01124 48331 32565 10000 10324 20180 39788 40010 81100 333 10392 59016;EQDQ01  00002PRCP99
0167483310999992000040115004+18770+100770FM-12+0201VTCN V0209999C000012200019N0120001N1+02681+01921100421ADDAA199000091GF102991001001999999001011MA1999999098151MD1999999-0211REMSYN070AAXX  01154 48331 32962 20000 10268 20192 39815 40042 80001 333 59021;EQDQ01  00002PRCP99
0167483310999992000040118004+18770+100770FM-12+0201VTCN V0209999C000012200019N0120001N1+02401+01851100461ADDAA199000091GF102991001001999999001011MA1999999098161MD1999999-0111REMSYN070AAXX  01184 48331 32962 20000 10240 20185 39816 40046 80001 333 59011;EQDQ01  00002PRCP99
0167483310999992000040121004+18770+100770FM-12+0201VTCN V0209999C000012200019N0100001N1+02221+01791100471ADDAA199000091GF102991001001999999001011MA1999999098161MD1999999-0061REMSYN070AAXX  01214 48331 32960 20000 10222 20179 39816 40047 80001 333 59006;EQDQ01  00002PRCP99
0224483310999992000040200004+18770+100770FM-12+0201VTCN V0209999C000012200019N0080001N1+02121+01851100681ADDAA199000091AY101061AY201061GA1001+999999999GF100991001001999999001001KA1120N+01951MA1999999098351MD1999999-0021MW1101REMSYN076AAXX  02004 48331 31958 00000 10212 20185 39835 40068 71000 333 20195 59002;EQDQ01  00002PRCP99
0205483310999992000040203004+18770+100770FM-12+0201VTCN V0209999C000012200019N0050001N1+03181+02031100741ADDAA199000091AY101031AY201031GA1001+999999999GF100991001001999999001001MA1999999098491MD1999999-0021MW1051REMSYN070AAXX  02034 48331 31950 00000 10318 20203 39849 40074 70500 333 59002;EQDQ01  00002PRCP99
0167483310999992000040206004+18770+100770FM-12+0201VTCN V0201801N001512200019N0120001N1+03681+02011100381ADDAA199000091GF104991041081008001001001MA1999999098171MD1999999-0021REMSYN070AAXX  02064 48331 32562 41803 10368 20201 39817 40038 84800 333 59002;EQDQ01  00002PRCP99
0167483310999992000040209004+18770+100770FM-12+0201VTCN V0209999C000012200019N0120001N1+03831+01671100081ADDAA199000091GF102991021021008001001001MA1999999097871MD1999999+0061REMSYN070AAXX  02094 48331 32562 20000 10383 20167 39787 40008 82200 333 58006;EQDQ01  00002PRCP99
0186483310999992000040212004+18770+100770FM-12+0201VTCN V0209999C000012200019N0120001N1+03391+01901100121ADDAA199000091GF102991021051008001001001KA1120M+03921MA1999999097911MD1999999+0021REMSYN076AAXX  02124 48331 32562 20000 10339 20190 39791 40012 82500 333 10392 58002;EQDQ01  00002PRCP99
0167483310999992000040215004+18770+100770FM-12+0201VTCN V0209999C000012200019N0120001N1+02871+02071100471ADDAA199000091GF102991021021008001001001MA1999999098221MD1999999+0051REMSYN070AAXX  02154 48331 32562 20000 10287 20207 39822 40047 82200 333 58005;EQDQ01  00002PRCP99
0214483310999992000040300004+18770+100770FM-12+0201VTCN V0209999C000012200019N0060001N1+02251+01971100791ADDAA199000091AY111061AY201061GF103991021051008001051051KA1120N+02071MA1999999098471MD1999999+0111MW1101REMSYN082AAXX  03004 48331 31556 30000 10225 20197 39847 40079 71010 82555 333 20207 58011;EQDQ01  00002PRCP99
0205483310999992000040303004+18770+100770FM-12+0201VTCN V0209999C000012200019N0080001N1+03261+02061101011ADDAA199000091AY101031AY201031GA1001+999999999GF100991001001999999001001MA1999999098771MD1999999-0271MW1051REMSYN070AAXX  03034 48331 31958 00000 10326 20206 39877 40101 70500 333 59027;EQDQ01  00002PRCP99
0167483310999992000040306004+18770+100770FM-12+0201VTCN V0209999C000012200019N0120001N1+03931+01601100541ADDAA199000091GF102991021021008001001011MA1999999098351MD1999999+0161REMSYN070AAXX  03064 48331 32562 20000 10393 20160 39835 40054 82201 333 58016;EQDQ01  00002PRCP99
0167483310999992000040309004+18770+100770FM-12+0201VTCN V0209999C000012200019N0120001N1+03961+01741100161ADDAA199000091GF101991011011008001001001MA1999999097991MD1999999+0081REMSYN070AAXX  03094 48331 32562 10000 10396 20174 39799 40016 81100 333 58008;EQDQ01  00002PRCP99
0186483310999992000040312004+18770+100770FM-12+0201VTCN V0209999C000012200019N0120001N1+03281+01821100241ADDAA199000091GF101991011011008001001001KA1120M+04051MA1999999098011MD1999999+0121REMSYN076AAXX  03124 48331 32562 10000 10328 20182 39801 40024 81100 333 10405 58012;EQDQ01  00002PRCP99
0177483310999992000040315004+18770+100770FM-12+0201VTCN V0209999C000012200019N0100001N1+02751+01931100491ADDAA199000091GA1001+999999999GF100991001001999999001001MA1999999098231MD1999999+0021REMSYN064AAXX  03154 48331 32960 00000 10275 20193 39823 40049 333 58002;EQDQ01  00002PRCP99
0205483310999992000040321004+18770+100770FM-12+0201VTCN V0209999C000012200019N0080001N1+02151+01831100561ADDAA199000091AY101031AY201031GA1001+999999999GF100991001001999999001001MA1999999098261MD1999999+0021MW1101REMSYN070AAXX  03214 48331 31958 00000 10215 20183 39826 40056 71000 333 58002;EQDQ01  00002PRCP99
0224483310999992000040400004+18770+100770FM-12+0201VTCN V0209999C000012200019N0080001N1+02001+01801100771ADDAA199000091AY101061AY201061GA1001+999999999GF100991001001999999001001KA1120N+01851MA1999999098441MD1999999-0021MW1101REMSYN076AAXX  04004 48331 31958 00000 10200 20180 39844 40077 71000 333 20185 59002;EQDQ01  00002PRCP99
0221483310999992000040403004+18770+100770FM-12+0201VTCN V0209999C000012200019N0060001N1+03132+01761100821ADDAA199000091AY101031AY201031GA1001+999999999GF100991001001999999001001MA1999999098581MD1999999+0191MW1051REMSYN070AAXX  04034 48331 31956 00000 10313 20176 39858 40082 70500 333 58019;EQDQ01+003133ATOT  Q02  00002PRCP99
0167483310999992000040406004+18770+100770FM-12+0201VTCN V0202001N001512200019N0100001N1+03871+01801100401ADDAA199000091GF102991021021008001001001MA1999999098211MD1999999-0141REMSYN070AAXX  04064 48331 32560 22003 10387 20180 39821 40040 82200 333 59014;EQDQ01  00002PRCP99
0167483310999992000040409004+18770+100770FM-12+0201VTCN V0202001N001512200019N0120001N1+04011+01291100051ADDAA199000091GF102991021011008001001001MA1999999097881MD1999999-0111REMSYN070AAXX  04094 48331 32562 22003 10401 20129 39788 40005 82100 333 59011;EQDQ01  00002PRCP99
0196483310999992000040412004+18770+100770FM-12+0201VTCN V0209999C000012200019N0100001N1+03301+01701100191ADDAA199000091GA1001+999999999GF100991001001999999001001KA1120M+04071MA1999999097971MD1999999-0051REMSYN070AAXX  04124 48331 32960 00000 10330 20170 39797 40019 333 10407 59005;EQDQ01  00002PRCP99
0177483310999992000040415004+18770+100770FM-12+0201VTCN V0209999C000012200019N0100001N1+02611+01621100531ADDAA199000091GA1001+999999999GF100991001001999999001001MA1999999098251MD1999999+0041REMSYN064AAXX  04154 48331 32960 00000 10261 20162 39825 40053 333 58004;EQDQ01  00002PRCP99
0205483310999992000040418004+18770+100770FM-12+0201VTCN V0209999C000012200019N0080001N1+02251+01591100581ADDAA199000091AY101061AY201061GA1001+999999999GF100991001001999999001001MA1999999098271MD1999999+0001MW1101REMSYN070AAXX  04184 48331 31958 00000 10225 20159 39827 40058 71000 333 58000;EQDQ01  00002PRCP99
0205483310999992000040421004+18770+100770FM-12+0201VTCN V0209999C000012200019N0050001N1+02071+01671100541ADDAA199000091AY101031AY201031GA1001+999999999GF100991001001999999001001MA1999999098221MD1999999-0021MW1101REMSYN070AAXX  04214 48331 31950 00000 10207 20167 39822 40054 71000 333 59002;EQDQ01  00002PRCP99
0224483310999992000040500004+18770+100770FM-12+0201VTCN V0209999C000012200019N0020001N1+02001+01651100771ADDAA199000091AY101061AY201061GA1001+999999999GF100991001001999999001001KA1120N+01821MA1999999098431MD1999999+0001MW1101REMSYN076AAXX  05004 48331 31920 00000 10200 20165 39843 40077 71000 333 20182 58000;EQDQ01  00002PRCP99
0221483310999992000040503004+18770+100770FM-12+0201VTCN V0209999C000012200019N0020001N1+03102+01621100831ADDAA199000091AY101031AY201031GA1001+999999999GF100991001001999999001001MA1999999098571MD1999999+0011MW1051REMSYN070AAXX  05034 48331 31920 00000 10310 20162 39857 40083 70500 333 58001;EQDQ01+003103ATOT  Q02  00002PRCP99
0205483310999992000040506004+18770+100770FM-12+0201VTCN V0201801N002612200019N0060001N1+03811+01721100441ADDAA199000091AY101061AY201061GA1001+999999999GF100991001001999999001001MA1999999098251MD1999999+0041MW1051REMSYN070AAXX  05064 48331 31956 01805 10381 20172 39825 40044 70500 333 58004;EQDQ01  00002PRCP99
0205483310999992000040509004+18770+100770FM-12+0201VTCN V0209999C000012200019N0060001N1+03951+01291100091ADDAA199000091AY101031AY201031GA1001+999999999GF100991001001999999001001MA1999999097921MD1999999+0041MW1051REMSYN070AAXX  05094 48331 31956 00000 10395 20129 39792 40009 70500 333 58004;EQDQ01  00002PRCP99
0205483310999992000040515004+18770+100770FM-12+0201VTCN V0209999C000012200019N0060001N1+02651+01701100531ADDAA199000091AY101031AY201031GA1001+999999999GF100991001001999999001001MA1999999098261MD1999999+0001MW1051REMSYN070AAXX  05154 48331 31956 00000 10265 20170 39826 40053 70500 333 58000;EQDQ01  00002PRCP99
0205483310999992000040518004+18770+100770FM-12+0201VTCN V0209999C000012200019N0040001N1+02261+01671100611ADDAA199000091AY101061AY201061GA1001+999999999GF100991001001999999001001MA1999999098311MD1999999+0031MW1101REMSYN070AAXX  05184 48331 31940 00000 10226 20167 39831 40061 71000 333 58003;EQDQ01  00002PRCP99
0205483310999992000040521004+18770+100770FM-12+0201VTCN V0209999C000012200019N0020001N1+02101+01671100681ADDAA199000091AY101031AY201031GA1001+999999999GF100991001001999999001001MA1999999098351MD1999999+0141MW1101REMSYN070AAXX  05214 48331 31920 00000 10210 20167 39835 40068 71000 333 58014;EQDQ01  00002PRCP99
0224483310999992000040600004+18770+100770FM-12+0201VTCN V0209999C000012200019N0015001N1+02051+01691100881ADDAA199000091AY101061AY201061GA1001+999999999GF100991001001999999001001KA1120N+01891MA1999999098551MD1999999+0111MW1101REMSYN076AAXX  06004 48331 31915 00000 10205 20169 39855 40088 71000 333 20189 58011;EQDQ01  00002PRCP99
0221483310999992000040603004+18770+100770FM-12+0201VTCN V0209999C000012200019N0020001N1+03202+02111100981ADDAA199000091AY101031AY201031GA1001+999999999GF100991001001999999001001MA1999999098721MD1999999+0151MW1051REMSYN070AAXX  06034 48331 31920 00000 10320 20211 39872 40098 70500 333 58015;EQDQ01+003203ATOT  Q02  00002PRCP99
0195483310999992000040606004+18770+100770FM-12+0201VTCN V0201801N002112200019N0060001N1+03751+02161100601ADDAA199000091AY101061AY201061GF103991031081008001001011MA1999999098391MD1999999+0161MW1051REMSYN076AAXX  06064 48331 31556 31804 10375 20216 39839 40060 70500 83801 333 58016;EQDQ01  00002PRCP99
0195483310999992000040609004+18770+100770FM-12+0201VTCN V0202101N003110120019N0060001N1+03931+01821100231ADDAA199000091AY111031AY201031GF105991051081008001001011MA1999999098051MD1999999+0141MW1051REMSYN076AAXX  06094 48331 31556 52106 10393 20182 39805 40023 70510 85801 333 58014;EQDQ01  00002PRCP99
0214483310999992000040612004+18770+100770FM-12+0201VTCN V0209999C000012200019N0060001N1+03451+02151100381ADDAA199000091AY111061AY201061GF102991021081008001001001KA1120M+04001MA1999999098171MD1999999+0161MW1051REMSYN082AAXX  06124 48331 31556 20000 10345 20215 39817 40038 70510 82800 333 10400 58016;EQDQ01  00002PRCP99
0195483310999992000040615004+18770+100770FM-12+0201VTCN V0209999C000012200019N0060001N1+02961+02121100711ADDAA199000091AY101031AY201031GF102991021021008001001001MA1999999098451MD1999999+0181MW1051REMSYN076AAXX  06154 48331 31556 20000 10296 20212 39845 40071 70500 82200 333 58018;EQDQ01  00002PRCP99
0195483310999992000040618004+18770+100770FM-12+0201VTCN V0209999C000012200019N0040001N1+02741+02241100821ADDAA199000091AY101061AY201061GF102991021051008001001001MA1999999098531MD1999999+0211MW1101REMSYN076AAXX  06184 48331 31540 20000 10274 20224 39853 40082 71000 82500 333 58021;EQDQ01  00002PRCP99
0195483310999992000040621004+18770+100770FM-12+0201VTCN V0209999C000012200019N0030001N1+02551+02171100831ADDAA199000091AY101031AY201031GF104991041051008001001001MA1999999098541MD1999999+0151MW1101REMSYN076AAXX  06214 48331 31530 40000 10255 20217 39854 40083 71000 84500 333 58015;EQDQ01  00002PRCP99
0214483310999992000040700004+18770+100770FM-12+0201VTCN V0209999C000019999999N0070001N1+02461+02131101051ADDAA199000091AY121061AY211061GF106991021051999999051011KA1120N+02301MA1999999098741MD1999999+0171MW1101REMSYN082AAXX  07004 48331 31957 60000 10246 20213 39874 40105 71021 82551 333 20230 58017;EQDQ01  00002PRCP99
0195483310999992000040703004+18770+100770FM-12+0201VTCN V0209999C000012200019N0090001N1+03261+02251101161ADDAA199000091AY111031AY201031GF102991021051008001001001MA1999999098911MD1999999+0201MW1051REMSYN076AAXX  07034 48331 31559 20000 10326 20225 39891 40116 70510 82500 333 58020;EQDQ01  00002PRCP99
0167483310999992000040706004+18770+100770FM-12+0201VTCN V0209999C000012200019N0120001N1+03671+02201100821ADDAA199000091GF104991031021008001051001MA1999999098611MD1999999+0221REMSYN070AAXX  07064 48331 32562 40000 10367 20220 39861 40082 83250 333 58022;EQDQ01  00002PRCP99
0167483310999992000040709004+18770+100770FM-12+0201VTCN V0209999C000012200019N0120001N1+03881+02141100431ADDAA199000091GF102991021021008001001001MA1999999098251MD1999999+0201REMSYN070AAXX  07094 48331 32562 20000 10388 20214 39825 40043 82200 333 58020;EQDQ01  00002PRCP99
0205483310999992000040715004+18770+100770FM-12+0201VTCN V0209999C000012200019N0080001N1+02821+02111100831ADDAA199000091AY101031AY201031GA1001+999999999GF100991001001999999001001MA1999999098531MD1999999+0091MW1101REMSYN070AAXX  07154 48331 31958 00000 10282 20211 39853 40083 71000 333 58009;EQDQ01  00002PRCP99
0205483310999992000040718004+18770+100770FM-12+0201VTCN V0209999C000012200019N0080001N1+02601+02071100841ADDAA199000091AY101061AY201061GA1001+999999999GF100991001001999999001001MA1999999098561MD1999999+0131MW1101REMSYN070AAXX  07184 48331 31958 00000 10260 20207 39856 40084 71000 333 58013;EQDQ01  00002PRCP99
0205483310999992000040721004+18770+100770FM-12+0201VTCN V0209999C000012200019N0060001N1+02471+02141100821ADDAA199000091AY101031AY201031GA1001+999999999GF100991001001999999001001MA1999999098531MD1999999+0011MW1101REMSYN070AAXX  07214 48331 31956 00000 10247 20214 39853 40082 71000 333 58001;EQDQ01  00002PRCP99
0214483310999992000040800004+18770+100770FM-12+0201VTCN V0209999C000012200019N0020001N1+02391+02101100931ADDAA199000091AY101061AY201061GF102991021051008001001001KA1120N+02251MA1999999098621MD1999999-0121MW1101REMSYN082AAXX  08004 48331 31520 20000 10239 20210 39862 40093 71000 82500 333 20225 59012;EQDQ01  00002PRCP99
0195483310999992000040803004+18770+100770FM-12+0201VTCN V0209999C000012200019N0040001N1+03251+02241100911ADDAA199000091AY101031AY201031GF102991021051008001001001MA1999999098681MD1999999-0251MW1051REMSYN076AAXX  08034 48331 31540 20000 10325 20224 39868 40091 70500 82500 333 59025;EQDQ01  00002PRCP99
0205483310999992000040806004+18770+100770FM-12+0201VTCN V0209999C000012200019N0080001N1+03711+02221100611ADDAA199000091AY101061AY201061GA1001+999999999GF100991001001999999001001MA1999999098401MD1999999-0211MW1051REMSYN070AAXX  08064 48331 31958 00000 10371 20222 39840 40061 70500 333 59021;EQDQ01  00002PRCP99
0205483310999992000040809004+18770+100770FM-12+0201VTCN V0209999C000012200019N0060001N1+03861+02211100211ADDAA199000091AY101031AY201031GA1001+999999999GF100991001001999999001001MA1999999098031MD1999999-0221MW1051REMSYN070AAXX  08094 48331 31956 00000 10386 20221 39803 40021 70500 333 59022;EQDQ01  00002PRCP99
0224483310999992000040812004+18770+100770FM-12+0201VTCN V0209999C000012200019N0060001N1+03351+02361100271ADDAA199000091AY101061AY201061GA1001+999999999GF100991001001999999001001KA1120M+03921MA1999999098061MD1999999-0211MW1051REMSYN076AAXX  08124 48331 31956 00000 10335 20236 39806 40027 70500 333 10392 59021;EQDQ01  00002PRCP99
0205483310999992000040815004+18770+100770FM-12+0201VTCN V0209999C000012200019N0040001N1+03011+02181100551ADDAA199000091AY101031AY201031GA1001+999999999GF100991001001999999001001MA1999999098311MD1999999-0251MW1051REMSYN070AAXX  08154 48331 31940 00000 10301 20218 39831 40055 70500 333 59025;EQDQ01  00002PRCP99
0205483310999992000040818004+18770+100770FM-12+0201VTCN V0209999C000012200019N0040001N1+02751+02201100601ADDAA199000091AY101061AY201061GA1001+999999999GF100991001001999999001001MA1999999098331MD1999999-0241MW1101REMSYN070AAXX  08184 48331 31940 00000 10275 20220 39833 40060 71000 333 59024;EQDQ01  00002PRCP99
0224483310999992000040900004+18770+100770FM-12+0201VTCN V0209999C000012200019N0040001N1+02431+02171100771ADDAA199000091AY101061AY201061GA1001+999999999GF100991001001999999001001KA1120N+02261MA1999999098461MD1999999-0161MW1101REMSYN076AAXX  09004 48331 31940 00000 10243 20217 39846 40077 71000 333 20226 59016;EQDQ01  00002PRCP99
0195483310999992000040906004+18770+100770FM-12+0201VTCN V0209999C000012200019N0080001N1+03851+02201100471ADDAA199000091AY101061AY201061GF102991021081008001001001MA1999999098291MD1999999-0141MW1051REMSYN076AAXX  09064 48331 31558 20000 10385 20220 39829 40047 70500 82800 333 59014;EQDQ01  00002PRCP99
0195483310999992000040909004+18770+100770FM-12+0201VTCN V0209999C000012200019N0080001N1+03981+01921100151ADDAA199000091AY101031AY201031GF102991021081008001001011MA1999999097981MD1999999-0061MW1051REMSYN076AAXX  09094 48331 31558 20000 10398 20192 39798 40015 70500 82801 333 59006;EQDQ01  00002PRCP99
0214483310999992000040912004+18770+100770FM-12+0201VTCN V0209999C000012200019N0070001N1+03481+02171100261ADDAA199000091AY101061AY201061GF104991021021008001001051KA1120M+04031MA1999999098051MD1999999-0011MW1051REMSYN082AAXX  09124 48331 31557 40000 10348 20217 39805 40026 70500 82205 333 10403 59001;EQDQ01  00002PRCP99
0195483310999992000040918004+18770+100770FM-12+0201VTCN V0209999C000012200019N0060001N1+02851+02201100671ADDAA199000091AY101061AY201061GF102991021051008001001001MA1999999098401MD1999999+0071MW1101REMSYN076AAXX  09184 48331 31556 20000 10285 20220 39840 40067 71000 82500 333 58007;EQDQ01  00002PRCP99
0214483310999992000041000004+18770+100770FM-12+0201VTCN V0209999C000012200019N0060001N1+02551+02171100791ADDAA199000091AY101061AY201061GF103991021051012501001051KA1120N+02371MA1999999098501MD1999999+0021MW1101REMSYN082AAXX  10004 48331 31656 30000 10255 20217 39850 40079 71000 82505 333 20237 58002;EQDQ01  00002PRCP99
0205483310999992000041003004+18770+100770FM-12+0201VTCN V0209999C000012200019N0080001N1+03401+02241100871ADDAA199000091AY101031AY201031GA1001+999999999GF100991001001999999001001MA1999999098641MD1999999+0051MW1051REMSYN070AAXX  10034 48331 31958 00000 10340 20224 39864 40087 70500 333 58005;EQDQ01  00002PRCP99
0167483310999992000041006004+18770+100770FM-12+0201VTCN V0202101N001012200019N0100001N1+03901+02241100521ADDAA199000091GF102991021021008001001011MA1999999098331MD1999999+0051REMSYN070AAXX  10064 48331 32560 22102 10390 20224 39833 40052 82201 333 58005;EQDQ01  00002PRCP99
0167483310999992000041009004+18770+100770FM-12+0201VTCN V0209999C000010075019N0100001N1+03641+02311100141ADDAA199000091GF106991051091008001071031MA1999999097951MD1999999-0011REMSYN070AAXX  10094 48331 32560 60000 10364 20231 39795 40014 85973 333 59001;EQDQ01  00002PRCP99
0214483310999992000041012004+18770+100770FM-12+0201VTCN V0203101N001010075019N0080001N1+03001+01931100541ADDAA199000091AY191061AY221061GF108991061091008001071061KA1120M+04041MA1999999098291MD1999999+0281MW1171REMSYN082AAXX  10124 48331 31558 83102 10300 20193 39829 40054 71792 86976 333 10404 58028;EQDQ01  00002PRCP99
0195483310999992000041015004+18770+100770FM-12+0201VTCN V0209999C000010075019N0080001N1+02721+02131100851ADDAA199000091AY121031AY221031GF108991051091008001071999MA1999999098581MD1999999+0221MW1131REMSYN076AAXX  10154 48331 31558 80000 10272 20213 39858 40085 71322 8597/ 333 58022;EQDQ01  00002PRCP99
0182483310999992000041021004+18770+100770FM-12+0201VTCN V0209999C000010120019N0100001N1+02401+02171100901ADDAA103000191AY191031AY281031GF108991051081008001071999MA1999999098601MD1999999+0331MW1021REMSYN082AAXX  10214 48331 21560 80000 10240 20217 39860 40090 70298 8587/ 333 58033 69927;
0207483310999992000041100004+18770+100770FM-12+0201VTCN V0209999C000012200019N0060001N1+02421+02241101101ADDAA124002091AY111061AY201061GF104991021051008001041051KA1120N+02251MA1999999098791MD1999999+0311MW1101REMSYN094AAXX  11004 48331 11556 40000 10242 20224 39879 40110 60024 71010 82545 333 20225 58031 70022;
0167483310999992000041103004+18770+100770FM-12+0201VTCN V0209999C000010450019N0100001N1+02901+02251101301ADDAA199000091GF106991041051008001061061MA1999999099011MD1999999+0531REMSYN070AAXX  11034 48331 32560 60000 10290 20225 39901 40130 84566 333 58053;EQDQ01  00002PRCP99
0154483310999992000041106004+18770+100770FM-12+0201VTCN V0209999C000010450019N0120001N1+03201+02181100991ADDAA124002391GF106991041051008001071061MA1999999098751MD1999999+0471REMSYN076AAXX  11064 48331 32562 60000 10320 20218 39875 40099 84576 333 58047 70022;
0167483310999992000041109004+18770+100770FM-12+0201VTCN V0209999C000010450019N0120001N1+03311+02121100711ADDAA199000091GF105991031051008001041061MA1999999098481MD1999999+0071REMSYN070AAXX  11094 48331 32562 50000 10331 20212 39848 40071 83546 333 58007;EQDQ01  00002PRCP99
0186483310999992000041112004+18770+100770FM-12+0201VTCN V0209999C000012200019N0120001N1+02941+02001100761ADDAA199000091GF102991011051008001001051KA1120M+03361MA1999999098491MD1999999-0221REMSYN076AAXX  11124 48331 32562 20000 10294 20200 39849 40076 81505 333 10336 59022;EQDQ01  00002PRCP99
0167483310999992000041115004+18770+100770FM-12+0201VTCN V0209999C000012200019N0120001N1+02621+02041101081ADDAA199000091GF102991001001999999001051MA1999999098791MD1999999+0231REMSYN070AAXX  11154 48331 32962 20000 10262 20204 39879 40108 80005 333 58023;EQDQ01  00002PRCP99
0154483310999992000041118004+18770+100770FM-12+0201VTCN V0209999C000012200019N0100001N1+02551+02091101031ADDAA124000391GF102991021021008001001001MA1999999098731MD1999999+0121REMSYN076AAXX  11184 48331 32560 20000 10255 20209 39873 40103 82200 333 58012 70002;
0177483310999992000041121004+18770+100770FM-12+0201VTCN V0209999C000012200019N0100001N1+02351+02121100941ADDAA199000091GA1001+999999999GF100991001001999999001001MA1999999098631MD1999999+0041REMSYN064AAXX  11214 48331 32960 00000 10235 20212 39863 40094 333 58004;EQDQ01  00002PRCP99
0186483310999992000041200004+18770+100770FM-12+0201VTCN V0209999C000010450019N0120001N1+02301+02081101061ADDAA199000091GF105991021051008001051051KA1120N+02151MA1999999098751MD1999999-0041REMSYN076AAXX  12004 48331 32562 50000 10230 20208 39875 40106 82555 333 20215 59004;EQDQ01  00002PRCP99
0167483310999992000041203004+18770+100770FM-12+0201VTCN V0209999C000010450019N0150001N1+02871+02141101111ADDAA199000091GF105991031051008001051051MA1999999098841MD1999999-0191REMSYN070AAXX  12034 48331 32565 50000 10287 20214 39884 40111 83555 333 59019;EQDQ01  00002PRCP99
0167483310999992000041206004+18770+100770FM-12+0201VTCN V0209999C000010450019N0150001N1+03341+02141100761ADDAA199000091GF106991041081008001071061MA1999999098521MD1999999-0231REMSYN070AAXX  12064 48331 32565 60000 10334 20214 39852 40076 84876 333 59023;EQDQ01  00002PRCP99
0182483310999992000041209004+18770+100770FM-12+0201VTCN V0209999C000010075019N0120001N1+02951+02291100471ADDAA101000791AY191031AY221031GF108991061091008001071061MA1999999098231MD1999999-0241MW1601REMSYN082AAXX  12094 48331 21562 80000 10295 20229 39823 40047 76092 86976 333 59024 69905;
0213483310999992000041212004+18770+100770FM-12+0201VTCN V0202701N003110075019N0100001N1+02621+02151100731ADDAA103000791AY191061AY261061GF108991061091008001071999KA1120M+03451MA1999999098441MD1999999-0031MW1171REMSYN100AAXX  12124 48331 /1560 82706 10262 20215 39844 40073 69902 71796 8697/ 333 10345 59003 69907 79999;
0182483310999992000041215004+18770+100770FM-12+0201VTCN V0209999C000010075019N0010001N1+02311+02221101011ADDAA102006191AY191031AY261031GF108991081071008001999999MA1999999098691MD1999999-0071MW1611REMSYN082AAXX  12154 48331 21510 80000 10231 20222 39869 40101 76196 887// 333 59007 60066;
0194483310999992000041218004+18770+100770FM-12+0201VTCN V0209999C000010075019N0030001N1+02301+02221100911ADDAA103002091AY191061AY261061GF108991081071008001999999MA1999999098601MD1999999-0121MW1611REMSYN094AAXX  12184 48331 /1530 80000 10230 20222 39860 40091 60083 76196 887// 333 59012 60027 70080;
0182483310999992000041221004+18770+100770FM-12+0201VTCN V0209999C000010075019N0080001N1+02301+02221100691ADDAA103000191AY161031AY221031GF108991081071008001999999MA1999999098371MD1999999-0251MW1101REMSYN082AAXX  12214 48331 21558 80000 10230 20222 39837 40069 71062 887// 333 59025 69927;
0207483310999992000041300004+18770+100770FM-12+0201VTCN V0209999C000010450019N0060001N1+02301+02181100831ADDAA124007991AY161061AY221061GF107991031051008001051001KA1120N+02141MA1999999098521MD1999999-0221MW1101REMSYN094AAXX  13004 48331 11556 70000 10230 20218 39852 40083 60084 71062 83550 333 20214 59022 70082;
0148483310999992000041303004+18770+100770FM-12+0201VTCN V0209999C000010450019N0100001N1+02651+02281100931ADDAA199000021GF108991041021008001071999MA1999999098641MD1999999-0181REMSYN070AAXX  13034 48331 32560 80000 10265 20228 39864 40093 8427/ 333 59018;
0154483310999992000041306004+18770+100770FM-12+0201VTCN V0201201N001010450019N0100001N1+03021+02311100651ADDAA124008191GF106991031011008001071011MA1999999098401MD1999999-0111REMSYN076AAXX  13064 48331 32560 61202 10302 20231 39840 40065 83171 333 59011 70082;
0167483310999992000041309004+18770+100770FM-12+0201VTCN V0201801N001010450019N0150001N1+03131+02261100291ADDAA199000091GF106991021051008001071011MA1999999098051MD1999999-0161REMSYN070AAXX  13094 48331 32565 61802 10313 20226 39805 40029 82571 333 59016;EQDQ01  00002PRCP99
0173483310999992000041312004+18770+100770FM-12+0201VTCN V0209999C000010450019N0120001N1+02871+02251100381ADDAA124008191GF106991021051008001071011KA1120M+03241MA1999999098121MD1999999-0351REMSYN082AAXX  13124 48331 32562 60000 10287 20225 39812 40038 82571 333 10324 59035 70082;
0167483310999992000041315004+18770+100770FM-12+0201VTCN V0209999C000012200019N0120001N1+02681+02251100661ADDAA199000091GF104991021051008001051011MA1999999098381MD1999999-0351REMSYN070AAXX  13154 48331 32562 40000 10268 20225 39838 40066 82551 333 59035;EQDQ01  00002PRCP99
0154483310999992000041318004+18770+100770FM-12+0201VTCN V0209999C000011050019N0120001N1+02551+02271100591ADDAA124000391GF106991021051008001071061MA1999999098301MD1999999-0321REMSYN076AAXX  13184 48331 32562 60000 10255 20227 39830 40059 82576 333 59032 70002;
0167483310999992000041321004+18770+100770FM-12+0201VTCN V0209999C000010450019N0120001N1+02501+02341100491ADDAA199000091GF106991041051008001051061MA1999999098201MD1999999-0201REMSYN070AAXX  13214 48331 32562 60000 10250 20234 39820 40049 84556 333 59020;EQDQ01  00002PRCP99
0186483310999992000041400004+18770+100770FM-12+0201VTCN V0209999C000012200019N0100001N1+02421+02271100671ADDAA199000091GF103991021051008001001051KA1120N+02281MA1999999098361MD1999999-0161REMSYN076AAXX  14004 48331 32560 30000 10242 20227 39836 40067 82505 333 20228 59016;EQDQ01  00002PRCP99
0167483310999992000041403004+18770+100770FM-12+0201VTCN V0209999C000012200019N0120001N1+03051+02241100701ADDAA199000091GF104991021051008001041061MA1999999098451MD1999999-0231REMSYN070AAXX  14034 48331 32562 40000 10305 20224 39845 40070 82546 333 59023;EQDQ01  00002PRCP99
0167483310999992000041406004+18770+100770FM-12+0201VTCN V0209999C000012200019N0150001N1+03431+02261100411ADDAA199000091GF103991021051008001001051MA1999999098191MD1999999-0241REMSYN070AAXX  14064 48331 32565 30000 10343 20226 39819 40041 82505 333 59024;EQDQ01  00002PRCP99
0167483310999992000041409004+18770+100770FM-12+0201VTCN V0209999C000012200019N0150001N1+03581+02071100051ADDAA199000091GF103991021051008001001051MA1999999097851MD1999999-0241REMSYN070AAXX  14094 48331 32565 30000 10358 20207 39785 40005 82505 333 59024;EQDQ01  00002PRCP99
0167483310999992000041415004+18770+100770FM-12+0201VTCN V0209999C000012200019N0120001N1+02781+02291100621ADDAA199000091GF102991021051008001001001MA1999999098271MD1999999-0041REMSYN070AAXX  14154 48331 32562 20000 10278 20229 39827 40062 82500 333 59004;EQDQ01  00002PRCP99
0167483310999992000041418004+18770+100770FM-12+0201VTCN V0209999C000010450019N0120001N1+02631+02211100641ADDAA199000091GF106991021051008001051051MA1999999098351MD1999999+0051REMSYN070AAXX  14184 48331 32562 60000 10263 20221 39835 40064 82555 333 58005;EQDQ01  00002PRCP99
0167483310999992000041421004+18770+100770FM-12+0201VTCN V0209999C000012200019N0100001N1+02541+02241100591ADDAA199000091GF102991021001999999051001MA1999999098301MD1999999+0101REMSYN070AAXX  14214 48331 32960 20000 10254 20224 39830 40059 82050 333 58010;EQDQ01  00002PRCP99
0186483310999992000041500004+18770+100770FM-12+0201VTCN V0209999C000010450019N0120001N1+02431+02091100911ADDAA199000091GF105991021051008001051051KA1120N+02321MA1999999098611MD1999999+0241REMSYN076AAXX  15004 48331 32562 50000 10243 20209 39861 40091 82555 333 20232 58024;EQDQ01  00002PRCP99
0167483310999992000041503004+18770+100770FM-12+0201VTCN V0209999C000010075019N0150001N1+03001+02331101001ADDAA199000091GF106991061051008001051051MA1999999098741MD1999999+0301REMSYN070AAXX  15034 48331 32565 60000 10300 20233 39874 40100 86555 333 58030;EQDQ01  00002PRCP99
0167483310999992000041506004+18770+100770FM-12+0201VTCN V0209999C000012200019N0150001N1+03441+02171100691ADDAA199000091GF104991031081008001001011MA1999999098461MD1999999+0281REMSYN070AAXX  15064 48331 32565 40000 10344 20217 39846 40069 83801 333 58028;EQDQ01  00002PRCP99
0167483310999992000041509004+18770+100770FM-12+0201VTCN V0209999C000012200019N0150001N1+03471+02101100291ADDAA199000091GF102991021081008001001011MA1999999098081MD1999999+0241REMSYN070AAXX  15094 48331 32565 20000 10347 20210 39808 40029 82801 333 58024;EQDQ01  00002PRCP99
0186483310999992000041512004+18770+100770FM-12+0201VTCN V0201801N001010450019N0150001N1+03231+02131100451ADDAA199000091GF105991041081008001041011KA1120M+03651MA1999999098221MD1999999+0181REMSYN076AAXX  15124 48331 32565 51802 10323 20213 39822 40045 84841 333 10365 58018;EQDQ01  00002PRCP99
0167483310999992000041515004+18770+100770FM-12+0201VTCN V0209999C000012200019N0150001N1+02821+02201100801ADDAA199000091GF102991021001008001051001MA1999999098531MD1999999+0181REMSYN070AAXX  15154 48331 32565 20000 10282 20220 39853 40080 82050 333 58018;EQDQ01  00002PRCP99
0167483310999992000041518004+18770+100770FM-12+0201VTCN V0209999C000012200019N0120001N1+02601+02211100881ADDAA199000091GF101991011001999999051001MA1999999098591MD1999999+0241REMSYN070AAXX  15184 48331 32962 10000 10260 20221 39859 40088 81050 333 58024;EQDQ01  00002PRCP99
0167483310999992000041521004+18770+100770FM-12+0201VTCN V0209999C000010450019N0120001N1+02531+02221100771ADDAA199000091GF105991031051008001051001MA1999999098471MD1999999+0181REMSYN070AAXX  15214 48331 32562 50000 10253 20222 39847 40077 83550 333 58018;EQDQ01  00002PRCP99
0186483310999992000041600004+18770+100770FM-12+0201VTCN V0209999C000010120019N0150001N1+02551+02221100961ADDAA199000091GF107991051081008001071061KA1120N+02461MA1999999098661MD1999999+0101REMSYN076AAXX  16004 48331 32565 70000 10255 20222 39866 40096 85876 333 20246 58010;EQDQ01  00002PRCP99
0167483310999992000041603004+18770+100770FM-12+0201VTCN V0209999C000010120019N0150001N1+03051+02191101101ADDAA199000091GF107991051081008001071061MA1999999098841MD1999999+0101REMSYN070AAXX  16034 48331 32565 70000 10305 20219 39884 40110 85876 333 58010;EQDQ01  00002PRCP99
0167483310999992000041606004+18770+100770FM-12+0201VTCN V0201501N002110450019N0150001N1+03441+02121100831ADDAA199000091GF105991031081008001071021MA1999999098611MD1999999+0141REMSYN070AAXX  16064 48331 32565 51504 10344 20212 39861 40083 83872 333 58014;EQDQ01  00002PRCP99
0167483310999992000041609004+18770+100770FM-12+0201VTCN V0201501N001010450019N0150001N1+03401+02051100581ADDAA199000091GF105991031031008001051061MA1999999098361MD1999999+0291REMSYN070AAXX  16094 48331 32565 51502 10340 20205 39836 40058 83356 333 58029;EQDQ01  00002PRCP99
0186483310999992000041612004+18770+100770FM-12+0201VTCN V0201501N002610120019N0150001N1+02851+01961100771ADDAA199000091GF107991051081008001051061KA1120M+03511MA1999999098501MD1999999+0321REMSYN076AAXX  16124 48331 32565 71505 10285 20196 39850 40077 85856 333 10351 58032;EQDQ01  00002PRCP99
0167483310999992000041615004+18770+100770FM-12+0201VTCN V0202201N001011050019N0150001N1+02601+01981101161ADDAA199000091GF105991021051008001051011MA1999999098861MD1999999+0361REMSYN070AAXX  16154 48331 32565 52202 10260 20198 39886 40116 82551 333 58036;EQDQ01  00002PRCP99
0167483310999992000041618004+18770+100770FM-12+0201VTCN V0209999C000010450019N0150001N1+02501+02011101091ADDAA199000091GF108991021051008001071999MA1999999098791MD1999999+0211REMSYN070AAXX  16184 48331 32565 80000 10250 20201 39879 40109 8257/ 333 58021;EQDQ01  00002PRCP99
0167483310999992000041621004+18770+100770FM-12+0201VTCN V0209999C000010450019N0150001N1+02461+01981100971ADDAA199000091GF108991031051008001071999MA1999999098661MD1999999+0201REMSYN070AAXX  16214 48331 32565 80000 10246 20198 39866 40097 8357/ 333 58020;EQDQ01  00002PRCP99
0186483310999992000041700004+18770+100770FM-12+0201VTCN V0209999C000010075019N0120001N1+02451+01971101001ADDAA199000091GF108991051051008001071999KA1120N+02371MA1999999098801MD1999999+0141REMSYN076AAXX  17004 48331 32562 80000 10245 20197 39880 40100 8557/ 333 20237 58014;EQDQ01  00002PRCP99
0167483310999992000041703004+18770+100770FM-12+0201VTCN V0209999C000010075019N0150001N1+02651+01991101221ADDAA199000091GF108991061071008001071999MA1999999098941MD1999999+0121REMSYN070AAXX  17034 48331 32565 80000 10265 20199 39894 40122 8677/ 333 58012;EQDQ01  00002PRCP99
0167483310999992000041706004+18770+100770FM-12+0201VTCN V0209999C000010120019N0150001N1+03051+02041100931ADDAA199000091GF106991051081008001071061MA1999999098681MD1999999+0101REMSYN070AAXX  17064 48331 32565 60000 10305 20204 39868 40093 85876 333 58010;EQDQ01  00002PRCP99
0167483310999992000041709004+18770+100770FM-12+0201VTCN V0209999C000010450019N0150001N1+03351+02091100611ADDAA199000091GF106991041091008001041061MA1999999098381MD1999999+0031REMSYN070AAXX  17094 48331 32565 60000 10335 20209 39838 40061 84946 333 58003;EQDQ01  00002PRCP99
0186483310999992000041712004+18770+100770FM-12+0201VTCN V0209999C000012200019N0150001N1+02951+02091100711ADDAA199000091GF102991011011008001041011KA1120M+03401MA1999999098451MD1999999-0061REMSYN076AAXX  17124 48331 32565 20000 10295 20209 39845 40071 81141 333 10340 59006;EQDQ01  00002PRCP99
0167483310999992000041715004+18770+100770FM-12+0201VTCN V0209999C000012200019N0150001N1+02661+02121101001ADDAA199000091GF101991011011008001001001MA1999999098721MD1999999-0161REMSYN070AAXX  17154 48331 32565 10000 10266 20212 39872 40100 81100 333 59016;EQDQ01  00002PRCP99
0167483310999992000041721004+18770+100770FM-12+0201VTCN V0209999C000012200019N0150001N1+02461+02141100931ADDAA199000091GF102991021051008001001011MA1999999098631MD1999999-0041REMSYN070AAXX  17214 48331 32565 20000 10246 20214 39863 40093 82501 333 59004;EQDQ01  00002PRCP99
0186483310999992000041800004+18770+100770FM-12+0201VTCN V0209999C000012200019N0150001N1+02341+02111101121ADDAA199000091GF104991021051012501051011KA1120N+02291MA1999999098801MD1999999+0021REMSYN076AAXX  18004 48331 32665 40000 10234 20211 39880 40112 82551 333 20229 58002;EQDQ01  00002PRCP99
0167483310999992000041803004+18770+100770FM-12+0201VTCN V0202001N001012200019N0150001N1+03101+02171101181ADDAA199000091GF104991021031008001051061MA1999999098931MD1999999-0041REMSYN070AAXX  18034 48331 32565 42002 10310 20217 39893 40118 82356 333 59004;EQDQ01  00002PRCP99
0167483310999992000041806004+18770+100770FM-12+0201VTCN V0201801N001012200019N0150001N1+03541+02101100811ADDAA199000091GF103991021031008001051011MA1999999098591MD1999999-0121REMSYN070AAXX  18064 48331 32565 31802 10354 20210 39859 40081 82351 333 59012;EQDQ01  00002PRCP99
0167483310999992000041809004+18770+100770FM-12+0201VTCN V0209999C000012200019N0150001N1+03801+02041100421ADDAA199000091GF103991021091008001051031MA1999999098231MD1999999-0191REMSYN070AAXX  18094 48331 32565 30000 10380 20204 39823 40042 82953 333 59019;EQDQ01  00002PRCP99
0186483310999992000041812004+18770+100770FM-12+0201VTCN V0201801N001010450019N0150001N1+03051+02311100571ADDAA199000091GF106991041091008001051061KA1120M+03821MA1999999098321MD1999999-0141REMSYN076AAXX  18124 48331 32565 61802 10305 20231 39832 40057 84956 333 10382 59014;EQDQ01  00002PRCP99
0167483310999992000041815004+18770+100770FM-12+0201VTCN V0209999C000010075019N0150001N1+02871+02191100891ADDAA199000091GF106991061051008001051061MA1999999098621MD1999999-0111REMSYN070AAXX  18154 48331 32565 60000 10287 20219 39862 40089 86556 333 59011;EQDQ01  00002PRCP99
0167483310999992000041818004+18770+100770FM-12+0201VTCN V0209999C000010075019N0150001N1+02691+02321100871ADDAA199000091GF105991051051008001051061MA1999999098591MD1999999-0111REMSYN070AAXX  18184 48331 32565 50000 10269 20232 39859 40087 85556 333 59011;EQDQ01  00002PRCP99
0167483310999992000041821004+18770+100770FM-12+0201VTCN V0209999C000012200019N0150001N1+02601+02301100821ADDAA199000091GF103991031051008001001011MA1999999098531MD1999999-0111REMSYN070AAXX  18214 48331 32565 30000 10260 20230 39853 40082 83501 333 59011;EQDQ01  00002PRCP99
0186483310999992000041900004+18770+100770FM-12+0201VTCN V0209999C000012200019N0120001N1+02541+02251100961ADDAA199000091GF103991011051012501071011KA1120N+02451MA1999999098661MD1999999-0161REMSYN076AAXX  19004 48331 32662 30000 10254 20225 39866 40096 81571 333 20245 59016;EQDQ01  00002PRCP99
0167483310999992000041903004+18770+100770FM-12+0201VTCN V0209999C000012200019N0120001N1+03251+02291101001ADDAA199000091GF105991021021008001001061MA1999999098761MD1999999-0181REMSYN070AAXX  19034 48331 32562 50000 10325 20229 39876 40100 82206 333 59018;EQDQ01  00002PRCP99
0167483310999992000041906004+18770+100770FM-12+0201VTCN V0209999C000012200019N0120001N1+03621+02241100671ADDAA199000091GF104991031091008001051031MA1999999098461MD1999999-0141REMSYN070AAXX  19064 48331 32562 40000 10362 20224 39846 40067 83953 333 59014;EQDQ01  00002PRCP99
0167483310999992000041909004+18770+100770FM-12+0201VTCN V0209999C000010450019N0150001N1+03631+02241100301ADDAA199000091GF106991031091008001041061MA1999999098101MD1999999-0121REMSYN070AAXX  19094 48331 32565 60000 10363 20224 39810 40030 83946 333 59012;EQDQ01  00002PRCP99
0186483310999992000041912004+18770+100770FM-12+0201VTCN V0209999C000010450019N0120001N1+02851+02151100611ADDAA199000091GF108991031091008001071071KA1120M+03841MA1999999098341MD1999999+0041REMSYN076AAXX  19124 48331 32562 80000 10285 20215 39834 40061 83977 333 10384 58004;EQDQ01  00002PRCP99
0167483310999992000041915004+18770+100770FM-12+0201VTCN V0209999C000010450019N0120001N1+02771+02281100831ADDAA199000091GF108991031091008001071999MA1999999098561MD1999999-0061REMSYN070AAXX  19154 48331 32562 80000 10277 20228 39856 40083 8397/ 333 59006;EQDQ01  00002PRCP99
0167483310999992000041918004+18770+100770FM-12+0201VTCN V0209999C000010450019N0120001N1+02601+02261100741ADDAA199000091GF107991021011008001051061MA1999999098451MD1999999-0131REMSYN070AAXX  19184 48331 32562 70000 10260 20226 39845 40074 82156 333 59013;EQDQ01  00002PRCP99
0167483310999992000041921004+18770+100770FM-12+0201VTCN V0209999C000019999999N0120001N1+02501+02261100671ADDAA199000091GF105991021001999999051061MA1999999098381MD1999999-0151REMSYN070AAXX  19214 48331 32962 50000 10250 20226 39838 40067 82056 333 59015;EQDQ01  00002PRCP99
0186483310999992000042000004+18770+100770FM-12+0201VTCN V0209999C000011050019N0120001N1+02521+02251100771ADDAA199000091GF106991011051008001051061KA1120N+02381MA1999999098471MD1999999-0191REMSYN076AAXX  20004 48331 32562 60000 10252 20225 39847 40077 81556 333 20238 59019;EQDQ01  00002PRCP99
0167483310999992000042003004+18770+100770FM-12+0201VTCN V0209999C000012200019N0150001N1+03201+02301100851ADDAA199000091GF102991001001999999001021MA1999999098601MD1999999-0151REMSYN070AAXX  20034 48331 32965 20000 10320 20230 39860 40085 80002 333 59015;EQDQ01  00002PRCP99
0167483310999992000042006004+18770+100770FM-12+0201VTCN V0201201N002612200019N0100001N1+03771+02331100481ADDAA199000091GF102991021091008001001031MA1999999098251MD1999999-0191REMSYN070AAXX  20064 48331 32560 21205 10377 20233 39825 40048 82903 333 59019;EQDQ01  00002PRCP99
0182483310999992000042009004+18770+100770FM-12+0201VTCN V0201201N002610075019N0120001N1+02851+02131100441ADDAA101000791AY121031AY221031GF108991061091008001071071MA1999999098191MD1999999+0141MW1951REMSYN082AAXX  20094 48331 21562 81205 10285 20213 39819 40044 79522 86977 333 58014 69905;
0207483310999992000042012004+18770+100770FM-12+0201VTCN V0209999C000010450019N0120001N1+02811+02221100551ADDAA112000791AY191061AY221061GF108991041091008001071071KA1120M+03781MA1999999098291MD1999999-0061MW1021REMSYN094AAXX  20124 48331 11562 80000 10281 20222 39829 40055 69902 70292 84977 333 10378 59006 79999;
0148483310999992000042015004+18770+100770FM-12+0201VTCN V0209999C000010450019N0120001N1+02711+02301100801ADDAA199000021GF106991031081008001041061MA1999999098521MD1999999-0031REMSYN070AAXX  20154 48331 32562 60000 10271 20230 39852 40080 83846 333 59003;
0154483310999992000042018004+18770+100770FM-12+0201VTCN V0209999C000010450019N0120001N1+02551+02271100691ADDAA124000791GF106991031051008001071061MA1999999098401MD1999999-0051REMSYN076AAXX  20184 48331 32562 60000 10255 20227 39840 40069 83576 333 59005 79999;
0167483310999992000042103004+18770+100770FM-12+0201VTCN V0209999C000010450019N0150001N1+03151+02281100861ADDAA199000091GF105991021011008001041051MA1999999098621MD1999999+0011REMSYN070AAXX  21034 48331 32565 50000 10315 20228 39862 40086 82145 333 58001;EQDQ01  00002PRCP99
0154483310999992000042106004+18770+100770FM-12+0201VTCN V0209999C000010450019N0150001N1+03471+02241100651ADDAA124000791GF106991031091008001041061MA1999999098421MD1999999+0171REMSYN076AAXX  21064 48331 32565 60000 10347 20224 39842 40065 83946 333 58017 79999;
0167483310999992000042109004+18770+100770FM-12+0201VTCN V0209999C000010075019N0150001N1+03531+02231100301ADDAA199000091GF107991061091008001071061MA1999999098091MD1999999-0141REMSYN070AAXX  21094 48331 32565 70000 10353 20223 39809 40030 86976 333 59014;EQDQ01  00002PRCP99
0186483310999992000042112004+18770+100770FM-12+0201VTCN V0209999C000010075019N0150001N1+03111+02201100451ADDAA199000091GF108991061091008001071061KA1120M+03801MA1999999098211MD1999999-0101REMSYN076AAXX  21124 48331 32565 80000 10311 20220 39821 40045 86976 333 10380 59010;EQDQ01  00002PRCP99
0167483310999992000042115004+18770+100770FM-12+0201VTCN V0209999C000010120019N0150001N1+02851+02231100781ADDAA199000091GF105991051081008001041061MA1999999098521MD1999999-0021REMSYN070AAXX  21154 48331 32565 50000 10285 20223 39852 40078 85846 333 59002;EQDQ01  00002PRCP99
0167483310999992000042118004+18770+100770FM-12+0201VTCN V0209999C000012200019N0120001N1+02691+02261100701ADDAA199000091GF103991011011008001001051MA1999999098411MD1999999+0011REMSYN070AAXX  21184 48331 32562 30000 10269 20226 39841 40070 81105 333 58001;EQDQ01  00002PRCP99
0167483310999992000042121004+18770+100770FM-12+0201VTCN V0209999C000012200019N0120001N1+02561+02261100711ADDAA199000091GF103991011011008001051051MA1999999098421MD1999999+0161REMSYN070AAXX  21214 48331 32562 30000 10256 20226 39842 40071 81155 333 58016;EQDQ01  00002PRCP99
0186483310999992000042200004+18770+100770FM-12+0201VTCN V0209999C000012200019N0120001N1+02571+02301100891ADDAA199000091GF104991031001999999051011KA1120N+02501MA1999999098601MD1999999+0061REMSYN076AAXX  22004 48331 32962 40000 10257 20230 39860 40089 83051 333 20250 58006;EQDQ01  00002PRCP99
0167483310999992000042203004+18770+100770FM-12+0201VTCN V0200301N001011050019N0120001N1+03201+02341101001ADDAA199000091GF106991021081008001051061MA1999999098751MD1999999+0141REMSYN070AAXX  22034 48331 32562 60302 10320 20234 39875 40100 82856 333 58014;EQDQ01  00002PRCP99
0167483310999992000042206004+18770+100770FM-12+0201VTCN V0209999C000010075019N0150001N1+03121+02001100741ADDAA199000091GF108991051091008001071061MA1999999098501MD1999999+0091REMSYN070AAXX  22064 48331 32565 80000 10312 20200 39850 40074 85976 333 58009;EQDQ01  00002PRCP99
0182483310999992000042209004+18770+100770FM-12+0201VTCN V0209999C000010075019N0150001N1+02901+02281100561ADDAA102000791AY161031AY221031GF108991051091008001071999MA1999999098301MD1999999+0261MW1021REMSYN082AAXX  22094 48331 21565 80000 10290 20228 39830 40056 70262 8597/ 333 58026 69906;
0167483310999992000042215004+18770+100770FM-12+0201VTCN V0209999C000010120019N0120001N1+02601+02301100941ADDAA199000091GF108991051081008001071999MA1999999098651MD1999999+0161REMSYN070AAXX  22154 48331 32562 80000 10260 20230 39865 40094 8587/ 333 58016;EQDQ01  00002PRCP99
0154483310999992000042218004+18770+100770FM-12+0201VTCN V0209999C000011050019N0120001N1+02501+02261100821ADDAA124000791GF106991021051008001051061MA1999999098531MD1999999+0121REMSYN076AAXX  22184 48331 32562 60000 10250 20226 39853 40082 82556 333 58012 79999;
0167483310999992000042221004+18770+100770FM-12+0201VTCN V0209999C000011050019N0120001N1+02401+02221100771ADDAA199000091GF106991021051012501051061MA1999999098471MD1999999+0061REMSYN070AAXX  22214 48331 32662 60000 10240 20222 39847 40077 82556 333 58006;EQDQ01  00002PRCP99
0186483310999992000042300004+18770+100770FM-12+0201VTCN V0209999C000012200019N0120001N1+02371+02221100911ADDAA199000091GF101991001001999999001011KA1120N+02311MA1999999098601MD1999999+0021REMSYN076AAXX  23004 48331 32962 10000 10237 20222 39860 40091 80001 333 20231 58002;EQDQ01  00002PRCP99
0167483310999992000042303004+18770+100770FM-12+0201VTCN V0209999C000012200019N0120001N1+03081+02151100951ADDAA199000091GF102991021021008001001001MA1999999098701MD1999999-0051REMSYN070AAXX  23034 48331 32562 20000 10308 20215 39870 40095 82200 333 59005;EQDQ01  00002PRCP99
0154483310999992000042306004+18770+100770FM-12+0201VTCN V0209999C000010450019N0150001N1+03441+02131100711ADDAA124000791GF106991041081008001041061MA1999999098481MD1999999-0031REMSYN076AAXX  23064 48331 32565 60000 10344 20213 39848 40071 84846 333 59003 79999;
0167483310999992000042309004+18770+100770FM-12+0201VTCN V0209999C000012200019N0150001N1+03581+02161100401ADDAA199000091GF102991021081008001001001MA1999999098201MD1999999-0161REMSYN070AAXX  23094 48331 32565 20000 10358 20216 39820 40040 82800 333 59016;EQDQ01  00002PRCP99
0186483310999992000042312004+18770+100770FM-12+0201VTCN V0209999C000012200019N0150001N1+03181+02181100451ADDAA199000091GF103991021051008001001051KA1120M+03631MA1999999098221MD1999999-0281REMSYN076AAXX  23124 48331 32565 30000 10318 20218 39822 40045 82505 333 10363 59028;EQDQ01  00002PRCP99
0167483310999992000042315004+18770+100770FM-12+0201VTCN V0209999C000012200019N0120001N1+02871+02251100761ADDAA199000091GF103991031051008001001001MA1999999098491MD1999999-0181REMSYN070AAXX  23154 48331 32562 30000 10287 20225 39849 40076 83500 333 59018;EQDQ01  00002PRCP99
0167483310999992000042318004+18770+100770FM-12+0201VTCN V0209999C000010450019N0120001N1+02651+02281100771ADDAA199000091GF106991031051008001051061MA1999999098481MD1999999-0051REMSYN070AAXX  23184 48331 32562 60000 10265 20228 39848 40077 83556 333 59005;EQDQ01  00002PRCP99
0167483310999992000042321004+18770+100770FM-12+0201VTCN V0209999C000012200019N0120001N1+02521+02251100631ADDAA199000091GF101991001001999999001011MA1999999098331MD1999999-0141REMSYN070AAXX  23214 48331 32962 10000 10252 20225 39833 40063 80001 333 59014;EQDQ01  00002PRCP99
0186483310999992000042400004+18770+100770FM-12+0201VTCN V0209999C000012200019N0120001N1+02481+02271100771ADDAA199000091GF103991001001999999001051KA1120N+02421MA1999999098481MD1999999-0141REMSYN076AAXX  24004 48331 32962 30000 10248 20227 39848 40077 80005 333 20242 59014;EQDQ01  00002PRCP99
0167483310999992000042403004+18770+100770FM-12+0201VTCN V0209999C000012200019N0150001N1+03281+02381100831ADDAA199000091GF103991031051008001001011MA1999999098601MD1999999-0121REMSYN070AAXX  24034 48331 32565 30000 10328 20238 39860 40083 83501 333 59012;EQDQ01  00002PRCP99
0167483310999992000042406004+18770+100770FM-12+0201VTCN V0209999C000010450019N0150001N1+03531+02261100571ADDAA199000091GF105991031081008001041011MA1999999098351MD1999999-0141REMSYN070AAXX  24064 48331 32565 50000 10353 20226 39835 40057 83841 333 59014;EQDQ01  00002PRCP99
0167483310999992000042409004+18770+100770FM-12+0201VTCN V0209999C000010450019N0150001N1+03701+02181100161ADDAA199000091GF105991031081008001041011MA1999999097961MD1999999-0241REMSYN070AAXX  24094 48331 32565 50000 10370 20218 39796 40016 83841 333 59024;EQDQ01  00002PRCP99
0167483310999992000042415004+18770+100770FM-12+0201VTCN V0209999C000011050019N0150001N1+03011+02361100441ADDAA199000091GF106991021051008001071061MA1999999098191MD1999999-0321REMSYN070AAXX  24154 48331 32565 60000 10301 20236 39819 40044 82576 333 59032;EQDQ01  00002PRCP99
0167483310999992000042418004+18770+100770FM-12+0201VTCN V0209999C000012200019N0120001N1+02821+02351100431ADDAA199000091GF102991001001999999001051MA1999999098171MD1999999-0341REMSYN070AAXX  24184 48331 32962 20000 10282 20235 39817 40043 80005 333 59034;EQDQ01  00002PRCP99
0167483310999992000042421004+18770+100770FM-12+0201VTCN V0209999C000012200019N0120001N1+02601+02321100441ADDAA199000091GF101991001001999999001011MA1999999098161MD1999999-0191REMSYN070AAXX  24214 48331 32962 10000 10260 20232 39816 40044 80001 333 59019;EQDQ01  00002PRCP99
0196483310999992000042500004+18770+100770FM-12+0201VTCN V0209999C000012200019N0100001N1+02581+02321100621ADDAA199000091GA1001+999999999GF100991001001999999001001KA1120N+02481MA1999999098341MD1999999-0151REMSYN070AAXX  25004 48331 32960 00000 10258 20232 39834 40062 333 20248 59015;EQDQ01  00002PRCP99
0161483310999992000042503004+18770+100770FM-12+0201VTCN V0201201N001512200019N0120001N1+03411+02341100661ADDAA199000091GF102991999999008001999999MA1999999098441MD1999999-0171REMSYN064AAXX  25034 48331 32562 21203 10341 20234 39844 40066 333 59017;EQDQ01  00002PRCP99
0167483310999992000042506004+18770+100770FM-12+0201VTCN V0202301N001012200019N0120001N1+03741+02181100281ADDAA199000091GF104991031091008001001031MA1999999098091MD1999999-0291REMSYN070AAXX  25064 48331 32562 42302 10374 20218 39809 40028 83903 333 59029;EQDQ01  00002PRCP99
0182483310999992000042509004+18770+100770FM-12+0201VTCN V0200301N002610075019N0150001N1+02951+02211100221ADDAA103000791AY161031AY221031GF106991051091008001061031MA1999999097971MD1999999-0061MW1031REMSYN082AAXX  25094 48331 21565 60305 10295 20221 39797 40022 70362 85963 333 59006 69907;
0213483310999992000042512004+18770+100770FM-12+0201VTCN V0209999C000010450019N0120001N1+02501+02341100491ADDAA102005191AY191061AY261061GF106991041091008001071061KA1120M+03751MA1999999098201MD1999999+0261MW1601REMSYN100AAXX  25124 48331 /1562 60000 10250 20234 39820 40049 60052 76096 84976 333 10375 58026 60056 70045;
0182483310999992000042515004+18770+100770FM-12+0201VTCN V0209999C000010450019N0100001N1+02501+02341100661ADDAA103000191AY161031AY221031GF108991021051008001071999MA1999999098371MD1999999+0221MW1031REMSYN082AAXX  25154 48331 21560 80000 10250 20234 39837 40066 70362 8257/ 333 58022 69917;
0188483310999992000042518004+18770+100770FM-12+0201VTCN V0209999C000011050019N0100001N1+02451+02321100641ADDAA118005191AY161061AY221061GF106991021051008001071061MA1999999098341MD1999999+0211MW1011REMSYN088AAXX  25184 48331 11560 60000 10245 20232 39834 40064 60053 70162 82576 333 58021 70046;
0148483310999992000042521004+18770+100770FM-12+0201VTCN V0209999C000010450019N0100001N1+02411+02311100581ADDAA199000021GF108991031051008001071999MA1999999098281MD1999999+0141REMSYN070AAXX  25214 48331 32560 80000 10241 20231 39828 40058 8357/ 333 58014;
0179483310999992000042600004+18770+100770FM-12+0201VTCN V0209999C000010450019N0100001N1+02431+02301100751ADDAA124005191GF106991041051008001071061KA1120N+02341MA1999999098441MD1999999+0131REMSYN088AAXX  26004 48331 12560 60000 10243 20230 39844 40075 60054 84576 333 20234 58013 70064;
0167483310999992000042603004+18770+100770FM-12+0201VTCN V0209999C000010450019N0150001N1+03031+02331100851ADDAA199000091GF106991041051008001071061MA1999999098591MD1999999+0191REMSYN070AAXX  26034 48331 32565 60000 10303 20233 39859 40085 84576 333 58019;EQDQ01  00002PRCP99
0154483310999992000042606004+18770+100770FM-12+0201VTCN V0209999C000010450019N0150001N1+03281+02381100611ADDAA124004691GF106991031081008001041061MA1999999098371MD1999999+0431REMSYN076AAXX  26064 48331 32565 60000 10328 20238 39837 40061 83846 333 58043 70046;
0167483310999992000042609004+18770+100770FM-12+0201VTCN V0209999C000012200019N0150001N1+03481+02371100251ADDAA199000091GF104991031091008001041031MA1999999098001MD1999999+0031REMSYN070AAXX  26094 48331 32565 40000 10348 20237 39800 40025 83943 333 58003;EQDQ01  00002PRCP99
0213483310999992000042612004+18770+100770FM-12+0201VTCN V0209999C000010042019N0100001N1+02561+02391100761ADDAA102001091AY191061AY221061GF108991051091004501071999KA1120M+03491MA1999999098471MD1999999+0271MW1291REMSYN100AAXX  26124 48331 /1460 80000 10256 20239 39847 40076 60012 72992 8597/ 333 10349 58027 60016 70013;
0182483310999992000042615004+18770+100770FM-12+0201VTCN V0209999C000010042019N0020001N1+02471+02371101021ADDAA103006191AY191031AY221031GF108991061091004501071999MA1999999098721MD1999999+0361MW1951REMSYN082AAXX  26154 48331 21420 80000 10247 20237 39872 40102 79592 8697/ 333 58036 60067;
0194483310999992000042618004+18770+100770FM-12+0201VTCN V0209999C000010042019N0010001N1+02411+02341100891ADDAA103005191AY191061AY261061GF108991081071004501999999MA1999999098591MD1999999+0251MW1611REMSYN094AAXX  26184 48331 /1410 80000 10241 20234 39859 40089 60123 76196 887// 333 58025 60057 70121;
0182483310999992000042621004+18770+100770FM-12+0201VTCN V0209999C000010042019N0030001N1+02401+02331100711ADDAA103001091AY161031AY261031GF108991061051004501071999MA1999999098401MD1999999+0131MW1611REMSYN082AAXX  26214 48331 21430 80000 10240 20233 39840 40071 76166 8657/ 333 58013 60017;
0213483310999992000042700004+18770+100770FM-12+0201VTCN V0209999C000010075019N0080001N1+02451+02331100871ADDAA103000791AY161061AY221061GF108991081071008001999999KA1120N+02351MA1999999098571MD1999999+0121MW1101REMSYN100AAXX  27004 48331 /1558 80000 10245 20233 39857 40087 60134 71062 887// 333 20235 58012 69907 70131;
0148483310999992000042703004+18770+100770FM-12+0201VTCN V0209999C000010075019N0150001N1+02731+02351100961ADDAA199000021GF108991061051008001071061MA1999999098671MD1999999+0111REMSYN070AAXX  27034 48331 32565 80000 10273 20235 39867 40096 86576 333 58011;
0154483310999992000042706004+18770+100770FM-12+0201VTCN V0209999C000010450019N0150001N1+03271+02381100641ADDAA124013291GF106991031081008001041051MA1999999098401MD1999999+0031REMSYN076AAXX  27064 48331 32565 60000 10327 20238 39840 40064 83845 333 58003 70131;
0148483310999992000042709004+18770+100770FM-12+0201VTCN V0202101N002110075019N0150001N1+03301+02371100361ADDAA199000021GF106991051091008001071061MA1999999098131MD1999999+0111REMSYN070AAXX  27094 48331 32565 62104 10330 20237 39813 40036 85976 333 58011;
0201483310999992000042712004+18770+100770FM-12+0201VTCN V0209999C000010075019N0150001N1+02921+02241100551ADDAA124011991AY191061AY221061GF108991061091008001071061KA1120M+03451MA1999999098291MD1999999-0211MW1171REMSYN088AAXX  27124 48331 31565 80000 10292 20224 39829 40055 71792 86976 333 10345 59021 70119;
0182483310999992000042715004+18770+100770FM-12+0201VTCN V0209999C000010042019N0020001N1+02501+02381100891ADDAA102004191AY191031AY221031GF108991071091004501071999MA1999999098591MD1999999-0131MW1951REMSYN082AAXX  27154 48331 21420 80000 10250 20238 39859 40089 79592 8797/ 333 59013 60046;
0176483310999992000042721004+18770+100770FM-12+0201VTCN V0209999C000010075019N0080001N1+02451+02361100731ADDAA199000021AY121031AY221031GF108991081071008001999999MA1999999098441MD1999999+0021MW1101REMSYN076AAXX  27214 48331 31558 80000 10245 20236 39844 40073 71022 887// 333 58002;
0213483310999992000042800004+18770+100770FM-12+0201VTCN V0209999C000010075019N0100001N1+02471+02411100861ADDAA102000191AY161061AY221061GF108991061051008001071999KA1120N+02401MA1999999098561MD1999999-0011MW1021REMSYN100AAXX  28004 48331 /1560 80000 10247 20241 39856 40086 60094 70262 8657/ 333 20240 59001 69926 70094;
0148483310999992000042803004+18770+100770FM-12+0201VTCN V0209999C000010450019N0150001N1+02741+02421101021ADDAA199000021GF106991041051008001041061MA1999999098731MD1999999+0061REMSYN070AAXX  28034 48331 32565 60000 10274 20242 39873 40102 84546 333 58006;
0154483310999992000042806004+18770+100770FM-12+0201VTCN V0209999C000010450019N0150001N1+03171+02431100771ADDAA124009491GF106991031051008001041061MA1999999098521MD1999999+0131REMSYN076AAXX  28064 48331 32565 60000 10317 20243 39852 40077 83546 333 58013 70094;
0167483310999992000042809004+18770+100770FM-12+0201VTCN V0209999C000012200019N0150001N1+03401+02471100391ADDAA199000091GF103991031081008001001001MA1999999098181MD1999999+0031REMSYN070AAXX  28094 48331 32565 30000 10340 20247 39818 40039 83800 333 58003;EQDQ01  00002PRCP99
0173483310999992000042812004+18770+100770FM-12+0201VTCN V0209999C000012200019N0150001N1+03061+02431100491ADDAA124009491GF103991031081008001001001KA1120M+03471MA1999999098251MD1999999-0061REMSYN082AAXX  28124 48331 32565 30000 10306 20243 39825 40049 83800 333 10347 59006 70094;
0167483310999992000042815004+18770+100770FM-12+0201VTCN V0209999C000012200019N0120001N1+02831+02221100821ADDAA199000091GF104991031081008001001031MA1999999098541MD1999999+0001REMSYN070AAXX  28154 48331 32562 40000 10283 20222 39854 40082 83803 333 58000;EQDQ01  00002PRCP99
0154483310999992000042818004+18770+100770FM-12+0201VTCN V0209999C000010075019N0100001N1+02701+02261100871ADDAA124000391GF108991061051008001071999MA1999999098591MD1999999+0141REMSYN076AAXX  28184 48331 32560 80000 10270 20226 39859 40087 8657/ 333 58014 70002;
0167483310999992000042821004+18770+100770FM-12+0201VTCN V0209999C000010075019N0100001N1+02551+02241100851ADDAA199000091GF108991061051008001071061MA1999999098561MD1999999+0121REMSYN070AAXX  28214 48331 32560 80000 10255 20224 39856 40085 86576 333 58012;EQDQ01  00002PRCP99
0186483310999992000042900004+18770+100770FM-12+0201VTCN V0209999C000010450019N0150001N1+02551+02281101061ADDAA199000091GF106991031051008001051061KA1120N+02451MA1999999098771MD1999999+0201REMSYN076AAXX  29004 48331 32565 60000 10255 20228 39877 40106 83556 333 20245 58020;EQDQ01  00002PRCP99
0167483310999992000042903004+18770+100770FM-12+0201VTCN V0209999C000010075019N0150001N1+03151+02361101111ADDAA199000091GF106991051051008001051061MA1999999098871MD1999999+0091REMSYN070AAXX  29034 48331 32565 60000 10315 20236 39887 40111 85556 333 58009;EQDQ01  00002PRCP99
0195483310999992000042906004+18770+100770FM-12+0201VTCN V0201801N005110075019N0150001N1+03041+02381100971ADDAA199000091AY121061AY221061GF107991061091008001071061MA1999999098711MD1999999+0201MW1151REMSYN076AAXX  29064 48331 31565 71810 10304 20238 39871 40097 71522 86976 333 58020;EQDQ01  00002PRCP99
0182483310999992000042909004+18770+100770FM-12+0201VTCN V0209999C000010450019N0150001N1+02971+02381100781ADDAA103001091AY161031AY221031GF106991041091008001071061MA1999999098521MD1999999+0391MW1151REMSYN082AAXX  29094 48331 21565 60000 10297 20238 39852 40078 71562 84976 333 58039 60017;
0213483310999992000042912004+18770+100770FM-12+0201VTCN V0209999C000010075019N0030001N1+02551+02391101111ADDAA102003091AY161061AY221061GF108991071091008001071999KA1120M+03351MA1999999098811MD1999999+0621MW1951REMSYN100AAXX  29124 48331 /1530 80000 10255 20239 39881 40111 60042 79562 8797/ 333 10335 58062 60036 70040;
0182483310999992000042915004+18770+100770FM-12+0201VTCN V0209999C000010075019N0150001N1+02451+02381101211ADDAA103005191AY191031AY261031GF108991071071008001071999MA1999999098911MD1999999+0391MW1021REMSYN082AAXX  29154 48331 21565 80000 10245 20238 39891 40121 70296 8777/ 333 58039 60057;
0188483310999992000042918004+18770+100770FM-12+0201VTCN V0209999C000010075019N0120001N1+02401+02331101171ADDAA118008991AY191061AY261061GF108991061071008001071999MA1999999098861MD1999999+0301MW1021REMSYN088AAXX  29184 48331 11562 80000 10240 20233 39886 40117 60093 70296 8677/ 333 58030 70085;
0152483310999992000042921004+18770+100770FM-12+0201VTCN V0209999C000010075019N0100001N1+02401+02301101061ADDAA199000021GF106991061051008001071061MD1999999+0211REMSYN070AAXX  29214 48331 32560 60000 10240 20230 39975 40106 86576 333 58021;EQDQ01+099753APOSP 
0179483310999992000043000004+18770+100770FM-12+0201VTCN V0209999C000010075019N0120001N1+02421+02331101201ADDAA124008991GF108991051051008001071061KA1120N+02341MA1999999098891MD1999999+0141REMSYN088AAXX  30004 48331 12562 80000 10242 20233 39889 40120 60094 85576 333 20234 58014 70085;
0167483310999992000043003004+18770+100770FM-12+0201VTCN V0209999C000010450019N0150001N1+02781+02371101261ADDAA199000091GF106991031051008001041061MA1999999098981MD1999999+0151REMSYN070AAXX  30034 48331 32565 60000 10278 20237 39898 40126 83546 333 58015;EQDQ01  00002PRCP99
0167483310999992000043006004+18770+100770FM-12+0201VTCN V0209999C000010450019N0150001N1+03161+02401101051ADDAA199000091GF106991031051008001041061MA1999999098811MD1999999+0081REMSYN070AAXX  30064 48331 32565 60000 10316 20240 39881 40105 83546 333 58008;EQDQ01  00002PRCP99
0182483310999992000043009004+18770+100770FM-12+0201VTCN V0209999C000010450019N0150001N1+02851+02571100711ADDAA101003091AY191031AY221031GF106991041091004501041061MA1999999098441MD1999999-0071MW1291REMSYN082AAXX  30094 48331 21465 60000 10285 20257 39844 40071 72992 84946 333 59007 60035;
0201483310999992000043012004+18770+100770FM-12+0201VTCN V0209999C000010450019N0150001N1+02851+02451100761ADDAA124007191AY191061AY221061GF106991041091004501071061KA1120M+03421MA1999999098501MD1999999-0351MW1021REMSYN088AAXX  30124 48331 31465 60000 10285 20245 39850 40076 70292 84976 333 10342 59035 70072;
0195483310999992000043015004+18770+100770FM-12+0201VTCN V0209999C000010450019N0150001N1+02711+02501101081ADDAA199000091AY121031AY221031GF108991041091004501071999MA1999999098801MD1999999-0131MW1131REMSYN076AAXX  30154 48331 31465 80000 10271 20250 39880 40108 71322 8497/ 333 59013;EQDQ01  00002PRCP99
0154483310999992000043018004+18770+100770FM-12+0201VTCN V0209999C000010450019N0120001N1+02631+02351100951ADDAA124002891GF108991041051008001071071MA1999999098661MD1999999-0221REMSYN076AAXX  30184 48331 32562 80000 10263 20235 39866 40095 84577 333 59022 70027;
0167483310999992000043021004+18770+100770FM-12+0201VTCN V0209999C000010075019N0120001N1+02541+02321100881ADDAA199000091GF108991051051008001071999MA1999999098581MD1999999-0181REMSYN070AAXX  30214 48331 32562 80000 10254 20232 39858 40088 8557/ 333 59018;EQDQ01  00002PRCP99
0179483310999992000050100004+18770+100770FM-12+0201VTCN V0209999C000010450019N0150001N1+02551+02361101031ADDAA124003091GF107991031081008001071011KA1120N+02461MA1999999098741MD1999999-0171REMSYN088AAXX  01004 48331 12565 70000 10255 20236 39874 40103 60034 83871 333 20246 59017 70027;
0167483310999992000050103004+18770+100770FM-12+0201VTCN V0201501N001010450019N0150001N1+03141+02311101091ADDAA199000091GF106991021011008001071021MA1999999098831MD1999999-0171REMSYN070AAXX  01034 48331 32565 61502 10314 20231 39883 40109 82172 333 59017;EQDQ01  00002PRCP99
0154483310999992000050106004+18770+100770FM-12+0201VTCN V0201101N001010450019N0150001N1+03301+02321100861ADDAA124002891GF105991031091008001051031MA1999999098621MD1999999-0191REMSYN076AAXX  01064 48331 32565 51102 10330 20232 39862 40086 83953 333 59019 70027;
0186483310999992000050109004+18770+100770FM-12+0201VTCN V0209999C000010450019N0120001N1+02751+02421100611ADDAA102006191AY191031AY261031GF107991041091008001071061MD1999999-0101MW1171REMSYN082AAXX  01094 48331 21562 70000 10275 20242 39334 40061 71796 84976 333 59010 60066;EQDQ01+093343APOSP 
0207483310999992000050112004+18770+100770FM-12+0201VTCN V0201801N001010450019N0120001N1+02651+02341100751ADDAA112006191AY191061AY261061GF106991031091008001071061KA1120M+03411MA1999999098471MD1999999-0011MW1291REMSYN094AAXX  01124 48331 11562 61802 10265 20234 39847 40075 60062 72996 83976 333 10341 59001 70061;
0167483310999992000050115004+18770+100770FM-12+0201VTCN V0209999C000011050019N0150001N1+02531+02321101081ADDAA199000091GF105991021051008001071061MA1999999098781MD1999999+0001REMSYN070AAXX  01154 48331 32565 50000 10253 20232 39878 40108 82576 333 58000;EQDQ01  00002PRCP99
0164483310999992000050118004+18770+100770FM-12+0201VTCN V0209999C000012200019N0150001N1+02401+02251100941ADDAA124006191GA1001+999999999GF100991001001999999001001MA1999999098641MD1999999-0011REMSYN070AAXX  01184 48331 32965 00000 10240 20225 39864 40094 333 59001 70061;
0179483310999992000050200004+18770+100770FM-12+0201VTCN V0209999C000010450019N0150001N1+02401+02311101041ADDAA124006191GF105991031051008001041051KA1120N+02311MA1999999098731MD1999999+0011REMSYN088AAXX  02004 48331 12565 50000 10240 20231 39873 40104 60064 83545 333 20231 58001 70061;
0167483310999992000050203004+18770+100770FM-12+0201VTCN V0209999C000012200019N0150001N1+02941+02311101141ADDAA199000091GF104991021051008001041051MA1999999098871MD1999999+0051REMSYN070AAXX  02034 48331 32565 40000 10294 20231 39887 40114 82545 333 58005;EQDQ01  00002PRCP99
0154483310999992000050206004+18770+100770FM-12+0201VTCN V0209999C000012200019N0150001N1+03431+02421100931ADDAA124006191GF102991021051008001001001MA1999999098701MD1999999+0071REMSYN076AAXX  02064 48331 32565 20000 10343 20242 39870 40093 82500 333 58007 70061;
0167483310999992000050209004+18770+100770FM-12+0201VTCN V0209999C000012200019N0150001N1+03501+02351100611ADDAA199000091GF102991021091008001001031MA1999999098381MD1999999+0001REMSYN070AAXX  02094 48331 32565 20000 10350 20235 39838 40061 82903 333 58000;EQDQ01  00002PRCP99
0186483310999992000050212004+18770+100770FM-12+0201VTCN V0209999C000010450019N0150001N1+02861+02261100771ADDAA199000091GF106991021091008001041051KA1120M+03541MA1999999098511MD1999999+0021REMSYN076AAXX  02124 48331 32565 60000 10286 20226 39851 40077 82945 333 10354 58002;EQDQ01  00002PRCP99
0195483310999992000050215004+18770+100770FM-12+0201VTCN V0209999C000010450019N0150001N1+02661+02291101111ADDAA199000091AY121031AY221031GF106991031091004501041061MA1999999098831MD1999999+0031MW1131REMSYN076AAXX  02154 48331 31465 60000 10266 20229 39883 40111 71322 83946 333 58003;EQDQ01  00002PRCP99
0167483310999992000050218004+18770+100770FM-12+0201VTCN V0209999C000010450019N0150001N1+02581+02321101041ADDAA199000091GF106991041051008001041061MA1999999098751MD1999999+0101REMSYN070AAXX  02184 48331 32565 60000 10258 20232 39875 40104 84546 333 58010;EQDQ01  00002PRCP99
0186483310999992000050300004+18770+100770FM-12+0201VTCN V0209999C000010450019N0150001N1+02541+02331101031ADDAA199000091GF105991031051008001051051KA1120N+02401MA1999999098731MD1999999-0011REMSYN076AAXX  03004 48331 32565 50000 10254 20233 39873 40103 83555 333 20240 59001;EQDQ01  00002PRCP99
0167483310999992000050303004+18770+100770FM-12+0201VTCN V0209999C000012200019N0150001N1+03181+02391101131ADDAA199000091GF102991021021008001001011MA1999999098891MD1999999-0011REMSYN070AAXX  03034 48331 32565 20000 10318 20239 39889 40113 82201 333 59001;EQDQ01  00002PRCP99
0194483310999992000050306004+18770+100770FM-12+0201VTCN V0202101N003110075019N0020001N1+02651+02301100841ADDAA101007991AY191061AY221061GF108991061091008001071061MA1999999098561MD1999999-0091MW1951REMSYN094AAXX  03064 48331 /1520 82106 10265 20230 39856 40084 60081 79592 86976 333 59009 60085 70081;
0182483310999992000050309004+18770+100770FM-12+0201VTCN V0209999C000010075019N0120001N1+02701+02291100781ADDAA103000891AY191031AY291031GF107991061091008001071061MA1999999098491MD1999999+0171MW1171REMSYN082AAXX  03094 48331 21562 70000 10270 20229 39849 40078 71799 86976 333 58017 69977;
0213483310999992000050312004+18770+100770FM-12+0201VTCN V0209999C000010075019N0120001N1+02451+02321100691ADDAA102000591AY191061AY221061GF108991061091008001071999KA1120M+03471MA1999999098661MD1999999+0081MW1031REMSYN100AAXX  03124 48331 /1562 80000 10245 20232 39866 40069 60092 70392 8697/ 333 10347 58008 69946 70092;
0148483310999992000050315004+18770+100770FM-12+0201VTCN V0209999C000010075019N0120001N1+02451+02301101101ADDAA199000021GF108991061071008001071061MA1999999098801MD1999999-0011REMSYN070AAXX  03154 48331 32562 80000 10245 20230 39880 40110 86776 333 59001;
0167483310999992000050318004+18770+100770FM-12+0201VTCN V0209999C000012200019N0120001N1+02451+02301101101ADDAA199000021GF104991999051008001071061MA1999999098801MD1999999+0131REMSYN070AAXX  03184 48331 32562 40000 10245 20230 39880 40110 86576 333 58013;EQDQ01+000062SCOTLC
0167483310999992000050321004+18770+100770FM-12+0201VTCN V0209999C000010450019N0120001N1+02381+02321100971ADDAA199000091GF108991041051008001071061MA1999999098671MD1999999-0021REMSYN070AAXX  03214 48331 32562 80000 10238 20232 39867 40097 84576 333 59002;EQDQ01  00002PRCP99
0179483310999992000050400004+18770+100770FM-12+0201VTCN V0209999C000010450019N0150001N1+02391+02291101121ADDAA124008991GF107991041081008001071061KA1120N+02321MA1999999098811MD1999999+0091REMSYN088AAXX  04004 48331 12565 70000 10239 20229 39881 40112 60094 84876 333 20232 58009 70092;
0167483310999992000050406004+18770+100770FM-12+0201VTCN V0202001N001010450019N0150001N1+03351+02431100871ADDAA199000091GF105991031091008001051031MA1999999098631MD1999999+0031REMSYN070AAXX  04064 48331 32565 52002 10335 20243 39863 40087 83953 333 58003;EQDQ01  00002PRCP99
0167483310999992000050409004+18770+100770FM-12+0201VTCN V0202001N001010450019N0150001N1+03241+02211100661ADDAA199000091GF106991031091008001071031MA1999999098421MD1999999-0121REMSYN070AAXX  04094 48331 32565 62002 10324 20221 39842 40066 83973 333 59012;EQDQ01  00002PRCP99
0173483310999992000050412004+18770+100770FM-12+0201VTCN V0209999C000010450019N0150001N1+02931+02301100751ADDAA124009191GF106991041051008001051011KA1120M+03331MA1999999098491MD1999999+0061REMSYN082AAXX  04124 48331 32565 60000 10293 20230 39849 40075 84551 333 10333 58006 70092;
0195483310999992000050415004+18770+100770FM-12+0201VTCN V0209999C000012200019N0150001N1+02751+02311101101ADDAA199000091AY121031AY211031GF104991021091008001051011MA1999999098811MD1999999+0001MW1131REMSYN076AAXX  04154 48331 31565 40000 10275 20231 39881 40110 71321 82951 333 58000;EQDQ01  00002PRCP99
0194483310999992000050418004+18770+100770FM-12+0201VTCN V0209999C000010075019N0120001N1+02481+02361101091ADDAA102007191AY181061AY221061GF108991051051008001071999MA1999999098781MD1999999-0011MW1031REMSYN094AAXX  04184 48331 /1562 80000 10248 20236 39878 40109 60073 70382 8557/ 333 59001 60076 70067;
0182483310999992000050421004+18770+100770FM-12+0201VTCN V0203301N001510042019N0002001N1+02351+02301101071ADDAA102029091AY191031AY261031GF108991061091004501021999MA1999999098761MD1999999+0101MW1971REMSYN082AAXX  04214 48331 21402 83303 10235 20230 39876 40107 79796 8692/ 333 58010 60296;
0213483310999992000050500004+18770+100770FM-12+0201VTCN V0209999C000010042019N0100001N1+02251+02201101261ADDAA103029091AY191061AY221061GF108991081071004501999999KA1120N+02151MA1999999098951MD1999999+0141MW1611REMSYN100AAXX  05004 48331 /1460 80000 10225 20220 39895 40126 60654 76192 887// 333 20215 58014 60297 70645;
0182483310999992000050503004+18770+100770FM-12+0201VTCN V0209999C000010042019N0120001N1+02451+02301101381ADDAA103000591AY161031AY221031GF108991061051004501071999MA1999999099121MD1999999+0361MW1021REMSYN082AAXX  05034 48331 21462 80000 10245 20230 39912 40138 70262 8657/ 333 58036 69947;
0188483310999992000050506004+18770+100770FM-12+0201VTCN V0209999C000012200019N0150001N1+03041+02381101071ADDAA106000591AY161061AY221061GF102991021091004501001031MA1999999098811MD1999999+0201MW1011REMSYN088AAXX  05064 48331 11465 20000 10304 20238 39881 40107 69941 70162 82903 333 58020 70645;
0148483310999992000050509004+18770+100770FM-12+0201VTCN V0209999C000012200019N0150001N1+03311+02411100671ADDAA199000021GF102991021091008001001031MA1999999098431MD1999999+0011REMSYN070AAXX  05094 48331 32565 20000 10331 20241 39843 40067 82903 333 58001;
0201483310999992000050512004+18770+100770FM-12+0201VTCN V0209999C000011050019N0150001N1+02701+02261100861ADDAA124065091AY191061AY221061GF105991021091008001041061KA1120M+03341MA1999999098581MD1999999+0011MW1031REMSYN088AAXX  05124 48331 31565 50000 10270 20226 39858 40086 70392 82946 333 10334 58001 70649;
0167483310999992000050515004+18770+100770FM-12+0201VTCN V0209999C000010450019N0150001N1+02601+02371101201ADDAA199000091GF105991031091008001041061MA1999999098911MD1999999+0101REMSYN070AAXX  05154 48331 32565 50000 10260 20237 39891 40120 83946 333 58010;EQDQ01  00002PRCP99
0154483310999992000050518004+18770+100770FM-12+0201VTCN V0209999C000010450019N0120001N1+02551+02381101161ADDAA124058291GF105991031091008001041061MA1999999098871MD1999999+0071REMSYN076AAXX  05184 48331 32562 50000 10255 20238 39887 40116 83946 333 58007 70582;
0167483310999992000050521004+18770+100770FM-12+0201VTCN V0209999C000010450019N0120001N1+02501+02361101111ADDAA199000091GF105991031051008001051061MA1999999098811MD1999999+0041REMSYN070AAXX  05214 48331 32562 50000 10250 20236 39881 40111 83556 333 58004;EQDQ01  00002PRCP99
0173483310999992000050600004+18770+100770FM-12+0201VTCN V0209999C000010075019N0150001N1+02501+02361101191ADDAA124000591GF106991051051008001071061KA1120N+02421MA1999999098901MD1999999-0071REMSYN082AAXX  06004 48331 32565 60000 10250 20236 39890 40119 85576 333 20242 59007 70004;
0167483310999992000050603004+18770+100770FM-12+0201VTCN V0209999C000010075019N0150001N1+02901+02391101311ADDAA199000091GF106991051051008001041061MA1999999099021MD1999999-0071REMSYN070AAXX  06034 48331 32565 60000 10290 20239 39902 40131 85546 333 59007;EQDQ01  00002PRCP99
0167483310999992000050606004+18770+100770FM-12+0201VTCN V0209999C000012200019N0150001N1+03351+02271100991ADDAA199000091GF104991021091008001041031MA1999999098761MD1999999-0081REMSYN070AAXX  06064 48331 32565 40000 10335 20227 39876 40099 82943 333 59008;EQDQ01  00002PRCP99
0182483310999992000050609004+18770+100770FM-12+0201VTCN V0209999C000010075019N0150001N1+03151+02511100721ADDAA101000791AY121031AY221031GF106991051091008001041061MA1999999098481MD1999999+0061MW1211REMSYN082AAXX  06094 48331 21565 60000 10315 20251 39848 40072 72122 85946 333 58006 69905;
0207483310999992000050612004+18770+100770FM-12+0201VTCN V0209999C000012200019N0150001N1+03001+02391100851ADDAA112000791AY161061AY221061GF104991031091008001041051KA1120M+03451MA1999999098591MD1999999-0021MW1011REMSYN094AAXX  06124 48331 11565 40000 10300 20239 39859 40085 69902 70162 83945 333 10345 59002 79999;
0176483310999992000050615004+18770+100770FM-12+0201VTCN V0209999C000012200019N0150001N1+02801+02381101071ADDAA199000021AY101031AY201031GF103991021091008001041011MA1999999098801MD1999999-0131MW1131REMSYN076AAXX  06154 48331 31565 30000 10280 20238 39880 40107 71300 82941 333 59013;
0154483310999992000050618004+18770+100770FM-12+0201VTCN V0209999C000010450019N0150001N1+02681+02421101101ADDAA124000791GF105991041081008001041051MA1999999098811MD1999999-0061REMSYN076AAXX  06184 48331 32565 50000 10268 20242 39881 40110 84845 333 59006 79999;
0182483310999992000050621004+18770+100770FM-12+0201VTCN V0209999C000010450019N0120001N1+02641+02471100991ADDAA101000791AY191031AY221031GF105991031081008001041051MA1999999098701MD1999999-0121MW1211REMSYN082AAXX  06214 48331 21562 50000 10264 20247 39870 40099 72192 83845 333 59012 69905;
0179483310999992000050700004+18770+100770FM-12+0201VTCN V0209999C000011050019N0150001N1+02551+02351101161ADDAA124000791GF106991021091008001051061KA1120N+02521MA1999999098861MD1999999-0031REMSYN088AAXX  07004 48331 12565 60000 10255 20235 39886 40116 69904 82956 333 20252 59003 79999;
0148483310999992000050703004+18770+100770FM-12+0201VTCN V0201401N001012200019N0150001N1+03151+02431101201ADDAA199000021GF103991021011008001001011MA1999999098941MD1999999-0111REMSYN070AAXX  07034 48331 32565 31402 10315 20243 39894 40120 82101 333 59011;
0148483310999992000050706004+18770+100770FM-12+0201VTCN V0202101N000512200019N0150001N1+03431+02401100901ADDAA199000021GF103991021091008001051031MA1999999098671MD1999999-0091REMSYN070AAXX  07064 48331 32565 32101 10343 20240 39867 40090 82953 333 59009;
0148483310999992000050709004+18770+100770FM-12+0201VTCN V0201501N001512200019N0150001N1+03611+02381100511ADDAA199000021GF102991011091008001051031MA1999999098301MD1999999-0181REMSYN070AAXX  07094 48331 32565 21503 10361 20238 39830 40051 81953 333 59018;
0186483310999992000050712004+18770+100770FM-12+0201VTCN V0209999C000012200019N0150001N1+03231+02481100551ADDAA199000091GF103991021031008001051061KA1120M+03671MA1999999098321MD1999999-0301REMSYN076AAXX  07124 48331 32565 30000 10323 20248 39832 40055 82356 333 10367 59030;EQDQ01  00002PRCP99
0167483310999992000050715004+18770+100770FM-12+0201VTCN V0209999C000012200019N0150001N1+02901+02391100861ADDAA199000091GF103991021051008001051011MA1999999098591MD1999999-0211REMSYN070AAXX  07154 48331 32565 30000 10290 20239 39859 40086 82551 333 59021;EQDQ01  00002PRCP99
0195483310999992000050718004+18770+100770FM-12+0201VTCN V0209999C000010075019N0120001N1+02781+02421100841ADDAA199000091AY121061AY201061GF106991051091008001071031MA1999999098571MD1999999-0261MW1171REMSYN076AAXX  07184 48331 31562 60000 10278 20242 39857 40084 71720 85973 333 59026;EQDQ01  00002PRCP99
0182483310999992000050721004+18770+100770FM-12+0201VTCN V0209999C000012200019N0120001N1+02551+02351100791ADDAA103000591AY191031AY281031GF103991021051008001051011MA1999999098501MD1999999-0201MW1011REMSYN082AAXX  07214 48331 21562 30000 10255 20235 39850 40079 70198 82551 333 59020 69957;
0179483310999992000050800004+18770+100770FM-12+0201VTCN V0209999C000011050019N0150001N1+02591+02371100901ADDAA124000591GF106991021051008001051061KA1120N+02451MA1999999098611MD1999999-0261REMSYN088AAXX  08004 48331 12565 60000 10259 20237 39861 40090 69954 82556 333 20245 59026 70005;
0167483310999992000050803004+18770+100770FM-12+0201VTCN V0209999C000012200019N0150001N1+03151+02431100931ADDAA199000091GF102991021021008001001001MA1999999098691MD1999999-0271REMSYN070AAXX  08034 48331 32565 20000 10315 20243 39869 40093 82200 333 59027;EQDQ01  00002PRCP99
0154483310999992000050806004+18770+100770FM-12+0201VTCN V0209999C000012200019N0150001N1+03501+02481100691ADDAA124000591GF104991031081008001041061MA1999999098471MD1999999-0211REMSYN076AAXX  08064 48331 32565 40000 10350 20248 39847 40069 83846 333 59021 70005;
0167483310999992000050809004+18770+100770FM-12+0201VTCN V0200301N002612200019N0150001N1+03251+02551100481ADDAA199000091GF104991031091008001001031MA1999999098261MD1999999-0021REMSYN070AAXX  08094 48331 32565 40305 10325 20255 39826 40048 83903 333 59002;EQDQ01  00002PRCP99
0173483310999992000050812004+18770+100770FM-12+0201VTCN V0209999C000012200019N0150001N1+03151+02541100451ADDAA124000591GF103991031091008001001001KA1120M+03581MA1999999098221MD1999999-0101REMSYN082AAXX  08124 48331 32565 30000 10315 20254 39822 40045 83900 333 10358 59010 70005;
0167483310999992000050815004+18770+100770FM-12+0201VTCN V0209999C000012200019N0150001N1+02851+02421100741ADDAA199000091GF103991031091008001001001MA1999999098481MD1999999-0121REMSYN070AAXX  08154 48331 32565 30000 10285 20242 39848 40074 83900 333 59012;EQDQ01  00002PRCP99
0167483310999992000050818004+18770+100770FM-12+0201VTCN V0209999C000012200019N0150001N1+02651+02421100651ADDAA199000091GF101991011011008001001001MA1999999098361MD1999999-0191REMSYN070AAXX  08184 48331 32565 10000 10265 20242 39836 40065 81100 333 59019;EQDQ01  00002PRCP99
0167483310999992000050821004+18770+100770FM-12+0201VTCN V0209999C000012200019N0150001N1+02541+02381100551ADDAA199000091GF101991011011008001001001MA1999999098271MD1999999-0241REMSYN070AAXX  08214 48331 32565 10000 10254 20238 39827 40055 81100 333 59024;EQDQ01  00002PRCP99
0186483310999992000050900004+18770+100770FM-12+0201VTCN V0209999C000012200019N0120001N1+02551+02361100791ADDAA199000091GF104991041051008001001051KA1120N+02421MA1999999098501MD1999999-0111REMSYN076AAXX  09004 48331 32562 40000 10255 20236 39850 40079 84505 333 20242 59011;EQDQ01  00002PRCP99
0167483310999992000050903004+18770+100770FM-12+0201VTCN V0209999C000012200019N0150001N1+03161+02481100801ADDAA199000091GF102991021011008001001011MA1999999098551MD1999999-0131REMSYN070AAXX  09034 48331 32565 20000 10316 20248 39855 40080 82101 333 59013;EQDQ01  00002PRCP99
0167483310999992000050906004+18770+100770FM-12+0201VTCN V0209999C000012200019N0150001N1+03511+02451100471ADDAA199000091GF104991041081008001001011MA1999999098261MD1999999-0221REMSYN070AAXX  09064 48331 32565 40000 10351 20245 39826 40047 84801 333 59022;EQDQ01  00002PRCP99
0167483310999992000050909004+18770+100770FM-12+0201VTCN V0209999C000012200019N0150001N1+03701+02371100171ADDAA199000091GF102991021091008001001011MA1999999097981MD1999999-0321REMSYN070AAXX  09094 48331 32565 20000 10370 20237 39798 40017 82901 333 59032;EQDQ01  00002PRCP99
0186483310999992000050912004+18770+100770FM-12+0201VTCN V0209999C000012200019N0150001N1+03301+02521100191ADDAA199000091GF103991021091008001001051KA1120M+03741MA1999999097971MD1999999-0261REMSYN076AAXX  09124 48331 32565 30000 10330 20252 39797 40019 82905 333 10374 59026;EQDQ01  00002PRCP99
0167483310999992000050915004+18770+100770FM-12+0201VTCN V0209999C000012200019N0150001N1+02981+02431100411ADDAA199000091GF101991011011008001001011MA1999999098171MD1999999-0331REMSYN070AAXX  09154 48331 32565 10000 10298 20243 39817 40041 81101 333 59033;EQDQ01  00002PRCP99
0177483310999992000050918004+18770+100770FM-12+0201VTCN V0209999C000012200019N0150001N1+02811+02431100411ADDAA199000091GA1001+999999999GF100991001001999999001001MA1999999098151MD1999999-0241REMSYN064AAXX  09184 48331 32965 00000 10281 20243 39815 40041 333 59024;EQDQ01  00002PRCP99
0177483310999992000050921004+18770+100770FM-12+0201VTCN V0209999C000012200019N0120001N1+02601+02381100391ADDAA199000091GA1001+999999999GF100991001001999999001001MA1999999098111MD1999999-0161REMSYN064AAXX  09214 48331 32962 00000 10260 20238 39811 40039 333 59016;EQDQ01  00002PRCP99
0186483310999992000051000004+18770+100770FM-12+0201VTCN V0209999C000011050019N0120001N1+02591+02401100531ADDAA199000091GF106991011051008001051061KA1120N+02501MA1999999098251MD1999999-0261REMSYN076AAXX  10004 48331 32562 60000 10259 20240 39825 40053 81556 333 20250 59026;EQDQ01  00002PRCP99
0167483310999992000051003004+18770+100770FM-12+0201VTCN V0201201N001512200019N0150001N1+03281+02471100561ADDAA199000091GF104991011011008001001061MA1999999098331MD1999999-0241REMSYN070AAXX  10034 48331 32565 41203 10328 20247 39833 40056 81106 333 59024;EQDQ01  00002PRCP99
0167483310999992000051006004+18770+100770FM-12+0201VTCN V0209999C000012200019N0150001N1+03571+02431100291ADDAA199000091GF103991021091008001051031MA1999999098091MD1999999-0181REMSYN070AAXX  10064 48331 32565 30000 10357 20243 39809 40029 82953 333 59018;EQDQ01  00002PRCP99
0214483310999992000051012004+18770+100770FM-12+0201VTCN V0209999C000012200019N0150001N1+03061+02471100051ADDAA199000091AY191061AY221061GF102991021091008001001031KA1120M+03681MA1999999097811MD1999999-0141MW1011REMSYN082AAXX  10124 48331 31565 20000 10306 20247 39781 40005 70192 82903 333 10368 59014;EQDQ01  00002PRCP99
0167483310999992000051015004+18770+100770FM-12+0201VTCN V0209999C000012200019N0150001N1+02831+02491100361ADDAA199000091GF104991011051008001001061MA1999999098101MD1999999-0051REMSYN070AAXX  10154 48331 32565 40000 10283 20249 39810 40036 81506 333 59005;EQDQ01  00002PRCP99
0195483310999992000051018004+18770+100770FM-12+0201VTCN V0209999C000011050019N0150001N1+02651+02451100381ADDAA199000091AY111061AY211061GF105991021091008001071031MA1999999098111MD1999999-0031MW1131REMSYN076AAXX  10184 48331 31565 50000 10265 20245 39811 40038 71311 82973 333 59003;EQDQ01  00002PRCP99
0195483310999992000051021004+18770+100770FM-12+0201VTCN V0209999C000012200019N0150001N1+02601+02441100271ADDAA199000091AY111031AY201031GF104991021091008001051031MA1999999097991MD1999999-0081MW1131REMSYN076AAXX  10214 48331 31565 40000 10260 20244 39799 40027 71310 82953 333 59008;EQDQ01  00002PRCP99
0186483310999992000051100004+18770+100770FM-12+0201VTCN V0209999C000010450019N0150001N1+02601+02411100471ADDAA199000091GF106991031051008001041061KA1120N+02481MA1999999098191MD1999999-0061REMSYN076AAXX  11004 48331 32565 60000 10260 20241 39819 40047 83546 333 20248 59006;EQDQ01  00002PRCP99
0195483310999992000051106004+18770+100770FM-12+0201VTCN V0209999C000011050019N0150001N1+02911+02331100461ADDAA199000091AY191061AY221061GF106991021091008001041061MA1999999098211MD1999999+0171MW1021REMSYN076AAXX  11064 48331 31565 60000 10291 20233 39821 40046 70292 82946 333 58017;EQDQ01  00002PRCP99
0167483310999992000051109004+18770+100770FM-12+0201VTCN V0209999C000011050019N0150001N1+03021+02341100171ADDAA199000091GF106991021091008001041061MA1999999097921MD1999999+0011REMSYN070AAXX  11094 48331 32565 60000 10302 20234 39792 40017 82946 333 58001;EQDQ01  00002PRCP99
0186483310999992000051112004+18770+100770FM-12+0201VTCN V0209999C000012200019N0150001N1+02851+02421100121ADDAA199000091GF103991021051008001001051KA1120M+03061MA1999999097871MD1999999+0071REMSYN076AAXX  11124 48331 32565 30000 10285 20242 39787 40012 82505 333 10306 58007;EQDQ01  00002PRCP99
0167483310999992000051118004+18770+100770FM-12+0201VTCN V0209999C000012200019N0150001N1+02591+02431100441ADDAA199000091GF104991021051008001041051MA1999999098161MD1999999+0061REMSYN070AAXX  11184 48331 32565 40000 10259 20243 39816 40044 82545 333 58006;EQDQ01  00002PRCP99
0167483310999992000051121004+18770+100770FM-12+0201VTCN V0209999C000012200019N0150001N1+02501+02341100351ADDAA199000091GF103991021051008001001051MA1999999098071MD1999999+0081REMSYN070AAXX  11214 48331 32565 30000 10250 20234 39807 40035 82505 333 58008;EQDQ01  00002PRCP99
0213483310999992000051200004+18770+100770FM-12+0201VTCN V0209999C000010075019N0120001N1+02511+02371100481ADDAA103000891AY161061AY221061GF106991051071008001071061KA1120N+02431MA1999999098191MD1999999+0011MW1031REMSYN100AAXX  12004 48331 /1562 60000 10251 20237 39819 40048 69984 70362 85776 333 20243 58001 69987 70008;
0182483310999992000051203004+18770+100770FM-12+0201VTCN V0209999C000010075019N0020001N1+02201+02171100731ADDAA102024991AY191031AY221031GF108991071091008001071999MA1999999098411MD1999999+0101MW1951REMSYN082AAXX  12034 48331 21520 80000 10220 20217 39841 40073 79592 8797/ 333 58010 60256;
0194483310999992000051206004+18770+100770FM-12+0201VTCN V0209999C000010120019N0150001N1+02601+02301100521ADDAA103002091AY191061AY261061GF106991051081008001071051MA1999999098241MD1999999+0061MW1011REMSYN094AAXX  12064 48331 /1565 60000 10260 20230 39824 40052 60271 70196 85875 333 58006 60027 70278;
0148483310999992000051209004+18770+100770FM-12+0201VTCN V0209999C000010450019N0150001N1+02931+02391100221ADDAA199000021GF105991031091008001041061MA1999999097961MD1999999+0051REMSYN070AAXX  12094 48331 32565 50000 10293 20239 39796 40022 83946 333 58005;
0173483310999992000051212004+18770+100770FM-12+0201VTCN V0209999C000010075019N0120001N1+02701+02411100281ADDAA124027791GF107991061091008001071051KA1120M+03031MA1999999098121MD1999999+0161REMSYN082AAXX  12124 48331 32562 70000 10270 20241 39812 40028 86975 333 10303 58016 70278;
0148483310999992000051215004+18770+100770FM-12+0201VTCN V0209999C000010075019N0120001N1+02601+02441100561ADDAA199000021GF108991061051008001071061MA1999999098281MD1999999+0141REMSYN070AAXX  12154 48331 32562 80000 10260 20244 39828 40056 86576 333 58014;
0154483310999992000051218004+18770+100770FM-12+0201VTCN V0209999C000010075019N0120001N1+02551+02431100551ADDAA124027791GF106991061051008001071061MA1999999098271MD1999999+0111REMSYN076AAXX  12184 48331 32562 60000 10255 20243 39827 40055 86576 333 58011 70278;
0167483310999992000051221004+18770+100770FM-12+0201VTCN V0209999C000010075019N0120001N1+02461+02341100451ADDAA199000091GF106991051051008001071061MA1999999098161MD1999999+0101REMSYN070AAXX  12214 48331 32562 60000 10246 20234 39816 40045 85576 333 58010;EQDQ01  00002PRCP99
0179483310999992000051300004+18770+100770FM-12+0201VTCN V0209999C000010450019N0120001N1+02461+02281100591ADDAA124026991GF107991031051008001071061KA1120N+02371MA1999999098301MD1999999+0111REMSYN088AAXX  13004 48331 12562 70000 10246 20228 39830 40059 60274 83576 333 20237 58011 70270;
0182483310999992000051303004+18770+100770FM-12+0201VTCN V0201401N002610075019N0050001N1+02531+02321100721ADDAA101000191AY161031AY221031GF108991051071008001071999MA1999999098431MD1999999-0011MW1601REMSYN082AAXX  13034 48331 21550 81405 10253 20232 39843 40072 76062 8577/ 333 59001 69925;
0194483310999992000051306004+18770+100770FM-12+0201VTCN V0209999C000010450019N0100001N1+02691+02461100571ADDAA103016091AY161061AY261061GF107991031021004501071061MA1999999098301MD1999999+0051MW1011REMSYN094AAXX  13064 48331 /1460 70000 10269 20246 39830 40057 60171 70166 83276 333 58005 60167 70185;
0176483310999992000051309004+18770+100770FM-12+0201VTCN V0200301N001010450019N0100001N1+02851+02341100271ADDAA199000021AY121031AY221031GF106991041031008001051061MA1999999098011MD1999999+0051MW1151REMSYN076AAXX  13094 48331 31560 60302 10285 20234 39801 40027 71522 84356 333 58005;
0173483310999992000051312004+18770+100770FM-12+0201VTCN V0209999C000010450019N0100001N1+02601+02271100371ADDAA124016591GF107991031051008001071061KA1120M+02981MA1999999098091MD1999999+0091REMSYN082AAXX  13124 48331 32560 70000 10260 20227 39809 40037 83576 333 10298 58009 70165;
0182483310999992000051315004+18770+100770FM-12+0201VTCN V0209999C000010450019N0080001N1+02481+02291100611ADDAA101000591AY121031AY221031GF108991041051008001071999MA1999999098311MD1999999+0051MW1211REMSYN082AAXX  13154 48331 21558 80000 10248 20229 39831 40061 72122 8457/ 333 58005 69965;
0188483310999992000051318004+18770+100770FM-12+0201VTCN V0209999C000010450019N0100001N1+02421+02321100621ADDAA118017091AY161061AY221061GF108991031051008001071999MA1999999098321MD1999999+0071MW1021REMSYN088AAXX  13184 48331 11560 80000 10242 20232 39832 40062 60173 70262 8357/ 333 58007 70171;
0182483310999992000051321004+18770+100770FM-12+0201VTCN V0209999C000010075019N0080001N1+02401+02331100491ADDAA101000591AY121031AY221031GF108991051021008001071999MA1999999098191MD1999999+0041MW1601REMSYN082AAXX  13214 48331 21558 80000 10240 20233 39819 40049 76022 8527/ 333 58004 69945;
0179483310999992000051400004+18770+100770FM-12+0201VTCN V0209999C000010075019N0120001N1+02411+02311100661ADDAA124018091GF108991051051008001071071KA1120N+02341MA1999999098361MD1999999+0071REMSYN088AAXX  14004 48331 12562 80000 10241 20231 39836 40066 60184 85577 333 20234 58007 70175;
0148483310999992000051403004+18770+100770FM-12+0201VTCN V0209999C000010450019N0150001N1+02841+02371100751ADDAA199000021GF105991031051008001041061MA1999999098471MD1999999+0031REMSYN070AAXX  14034 48331 32565 50000 10284 20237 39847 40075 83546 333 58003;
0154483310999992000051406004+18770+100770FM-12+0201VTCN V0202401N000510450019N0120001N1+03251+02391100451ADDAA124001091GF106991031091008001051031MA1999999098221MD1999999-0121REMSYN076AAXX  14064 48331 32562 62401 10325 20239 39822 40045 83953 333 59012 70010;
0182483310999992000051409004+18770+100770FM-12+0201VTCN V0209999C000012200019N0150001N1+03041+02481100311ADDAA102000591AY161031AY221031GF104991031091008001041031MA1999999098071MD1999999+0041MW1011REMSYN082AAXX  14094 48331 21565 40000 10304 20248 39807 40031 70162 83943 333 58004 69966;
0207483310999992000051412004+18770+100770FM-12+0201VTCN V0209999C000010450019N0150001N1+02711+02361100431ADDAA112000591AY161061AY221061GF108991031091008001071061KA1120M+03271MA1999999098171MD1999999+0061MW1031REMSYN094AAXX  14124 48331 11565 80000 10271 20236 39817 40043 69962 70362 83976 333 10327 58006 70016;
0182483310999992000051415004+18770+100770FM-12+0201VTCN V0209999C000010075019N0100001N1+02611+02361100711ADDAA101000791AY121031AY221031GF108991051051008001071999MA1999999098421MD1999999+0101MW1601REMSYN082AAXX  14154 48331 21560 80000 10261 20236 39842 40071 76022 8557/ 333 58010 69905;
0194483310999992000051418004+18770+100770FM-12+0201VTCN V0209999C000010042019N0030001N1+02351+02271100701ADDAA103018091AY191061AY221061GF108991061051004501071999MA1999999098391MD1999999+0081MW1611REMSYN094AAXX  14184 48331 /1430 80000 10235 20227 39839 40070 60183 76192 8657/ 333 58008 60187 70185;
0182483310999992000051421004+18770+100770FM-12+0201VTCN V0209999C000010075019N0100001N1+02341+02281100621ADDAA103001091AY161031AY221031GF108991051051008001071999MA1999999098321MD1999999+0131MW1021REMSYN082AAXX  14214 48331 21560 80000 10234 20228 39832 40062 70262 8557/ 333 58013 60017;
0207483310999992000051500004+18770+100770FM-12+0201VTCN V0209999C000010075019N0120001N1+02401+02311100691ADDAA124019191AY161061AY221061GF108991051051008001071061KA1120N+02271MA1999999098381MD1999999+0031MW1021REMSYN094AAXX  15004 48331 11562 80000 10240 20231 39838 40069 60194 70262 85576 333 20227 58003 70193;
0148483310999992000051503004+18770+100770FM-12+0201VTCN V0209999C000010075019N0150001N1+02801+02441100771ADDAA199000021GF108991061051008001071061MA1999999098501MD1999999+0021REMSYN070AAXX  15034 48331 32565 80000 10280 20244 39850 40077 86576 333 58002;
0154483310999992000051506004+18770+100770FM-12+0201VTCN V0209999C000012200019N0150001N1+03171+02461100521ADDAA124019391GF102991021021008001001051MA1999999098291MD1999999+0071REMSYN076AAXX  15064 48331 32565 20000 10317 20246 39829 40052 82205 333 58007 70193;
0182483310999992000051509004+18770+100770FM-12+0201VTCN V0209999C000010075019N0150001N1+03201+02521100201ADDAA103003091AY161031AY221031GF106991051091008001071061MA1999999097971MD1999999-0111MW1031REMSYN082AAXX  15094 48331 21565 60000 10320 20252 39797 40020 70362 85976 333 59011 60037;
0213483310999992000051512004+18770+100770FM-12+0201VTCN V0209999C000010075019N0150001N1+02631+02431100381ADDAA103004191AY191061AY261061GF108991061091008001071999KA1120M+03201MA1999999098101MD1999999-0051MW1211REMSYN100AAXX  15124 48331 /1565 80000 10263 20243 39810 40038 60072 72196 8697/ 333 10320 59005 60047 70257;
0148483310999992000051515004+18770+100770FM-12+0201VTCN V0209999C000010075019N0120001N1+02551+02391100681ADDAA199000021GF108991061071008001071061MA1999999098391MD1999999-0031REMSYN070AAXX  15154 48331 32562 80000 10255 20239 39839 40068 86776 333 59003;
0194483310999992000051518004+18770+100770FM-12+0201VTCN V0209999C000010075019N0120001N1+02461+02391100621ADDAA102007191AY161061AY221061GF108991061071008001071999MA1999999098331MD1999999-0081MW1021REMSYN094AAXX  15184 48331 /1562 80000 10246 20239 39833 40062 60143 70262 8677/ 333 59008 60076 70147;
0182483310999992000051521004+18770+100770FM-12+0201VTCN V0209999C000010075019N0100001N1+02451+02391100511ADDAA103003091AY161031AY221031GF108991081071008001999999MA1999999098231MD1999999-0111MW1021REMSYN082AAXX  15214 48331 21560 80000 10245 20239 39823 40051 70262 887// 333 59011 60037;
0213483310999992000051600004+18770+100770FM-12+0201VTCN V0209999C000010042019N0080001N1+02461+02391100561ADDAA103003091AY161061AY261061GF108991051071004501071999KA1120N+02361MA1999999098271MD1999999-0131MW1021REMSYN100AAXX  16004 48331 /1458 80000 10246 20239 39827 40056 60204 70266 8577/ 333 20236 59013 60037 70197;
0182483310999992000051603004+18770+100770FM-12+0201VTCN V0209999C000010450019N0080001N1+02551+02441100671ADDAA103003091AY161031AY261031GF108991041071004501021999MA1999999098381MD1999999-0101MW1211REMSYN082AAXX  16034 48331 21458 80000 10255 20244 39838 40067 72166 8472/ 333 59010 60037;
0188483310999992000051606004+18770+100770FM-12+0201VTCN V0209999C000010450019N0150001N1+02921+02491100491ADDAA106003091AY161061AY221061GF107991041021008001071001MA1999999098211MD1999999-0031MW1011REMSYN088AAXX  16064 48331 11565 70000 10292 20249 39821 40049 60031 70162 84270 333 59003 70229;
0148483310999992000051609004+18770+100770FM-12+0201VTCN V0209999C000010450019N0150001N1+03151+02511100151ADDAA199000021GF106991031031008001071061MA1999999097921MD1999999-0051REMSYN070AAXX  16094 48331 32565 60000 10315 20251 39792 40015 83376 333 59005;
0173483310999992000051612004+18770+100770FM-12+0201VTCN V0209999C000011050019N0150001N1+02931+02581100211ADDAA124016091GF106991021021008001051061KA1120M+03201MA1999999097961MD1999999-0181REMSYN082AAXX  16124 48331 32565 60000 10293 20258 39796 40021 82256 333 10320 59018 70159;
0182483310999992000051615004+18770+100770FM-12+0201VTCN V0209999C000010450019N0100001N1+02621+02431100511ADDAA103001091AY161031AY261031GF108991041071008001021999MA1999999098231MD1999999-0171MW1211REMSYN082AAXX  16154 48331 21560 80000 10262 20243 39823 40051 72166 8472/ 333 59017 69997;
0160483310999992000051618004+18770+100770FM-12+0201VTCN V0209999C000010450019N0120001N1+02571+02461100451ADDAA118004191GF108991021051008001021999MA1999999098171MD1999999-0191REMSYN082AAXX  16184 48331 12562 80000 10257 20246 39817 40045 60043 8252/ 333 59019 70103;
0148483310999992000051621004+18770+100770FM-12+0201VTCN V0209999C000010450019N0120001N1+02551+02461100351ADDAA199000021GF107991021051008001071061MA1999999098071MD1999999-0161REMSYN070AAXX  16214 48331 32562 70000 10255 20246 39807 40035 82576 333 59016;
0179483310999992000051700004+18770+100770FM-12+0201VTCN V0209999C000010450019N0150001N1+02551+02471100431ADDAA124004191GF106991031051008001051061KA1120N+02451MA1999999098151MD1999999-0131REMSYN088AAXX  17004 48331 12565 60000 10255 20247 39815 40043 60044 83556 333 20245 59013 70041;
0148483310999992000051703004+18770+100770FM-12+0201VTCN V0209999C000010075019N0150001N1+02841+02501100581ADDAA199000021GF108991051051008001071071MA1999999098321MD1999999-0091REMSYN070AAXX  17034 48331 32565 80000 10284 20250 39832 40058 85577 333 59009;
0194483310999992000051706004+18770+100770FM-12+0201VTCN V0209999C000011050019N0150001N1+03051+02601100361ADDAA102002091AY161061AY221061GF105991021051008001041061MA1999999098121MD1999999-0131MW1211REMSYN094AAXX  17064 48331 /1565 50000 10305 20260 39812 40036 60021 72162 82546 333 59013 60026 70033;
0148483310999992000051709004+18770+100770FM-12+0201VTCN V0201601N003112200019N0150001N1+03301+02481100051ADDAA199000021GF103991031091008001001001MA1999999097831MD1999999-0101REMSYN070AAXX  17094 48331 32565 31606 10330 20248 39783 40005 83900 333 59010;
0167483310999992000051712004+18770+100770FM-12+0201VTCN V0209999C000010075019N0150001N1+02851+02351100191ADDAA199000021GF108991051051008001071061KA1120M+03311MA1999999097941MD1999999-0021REMSYN076AAXX  17124 48331 32565 80000 10285 20235 39794 40019 85576 333 10331 59002;
0176483310999992000051715004+18770+100770FM-12+0201VTCN V0209999C000010075019N0150001N1+02651+02361100541ADDAA199000021AY121031AY221031GF106991051091008001041061MA1999999098281MD1999999+0031MW1131REMSYN076AAXX  17154 48331 31565 60000 10265 20236 39828 40054 71322 85946 333 58003;
0154483310999992000051718004+18770+100770FM-12+0201VTCN V0209999C000010450019N0150001N1+02591+02371100561ADDAA124002391GF106991031051008001041061MA1999999098281MD1999999+0111REMSYN076AAXX  17184 48331 32565 60000 10259 20237 39828 40056 83546 333 58011 70024;
0167483310999992000051721004+18770+100770FM-12+0201VTCN V0209999C000010450019N0150001N1+02551+02391100401ADDAA199000091GF108991041051008001071999MA1999999098131MD1999999+0051REMSYN070AAXX  17214 48331 32565 80000 10255 20239 39813 40040 8457/ 333 58005;EQDQ01  00002PRCP99
0179483310999992000051800004+18770+100770FM-12+0201VTCN V0209999C000010450019N0120001N1+02601+02441100521ADDAA124002091GF106991031051008001071061KA1120N+02481MA1999999098251MD1999999+0091REMSYN088AAXX  18004 48331 12562 60000 10260 20244 39825 40052 60024 83576 333 20248 58009 70024;
0167483310999992000051803004+18770+100770FM-12+0201VTCN V0201901N001510075019N0150001N1+03201+02441100551ADDAA199000091GF105991051051008001001011MA1999999098321MD1999999-0031REMSYN070AAXX  18034 48331 32565 51903 10320 20244 39832 40055 85501 333 59003;EQDQ01  00002PRCP99
0167483310999992000051806004+18770+100770FM-12+0201VTCN V0209999C000010450019N0150001N1+03331+02391100361ADDAA199000091GF106991041081008001041051MA1999999098141MD1999999+0001REMSYN070AAXX  18064 48331 32565 60000 10333 20239 39814 40036 84845 333 58000;EQDQ01  00002PRCP99
0167483310999992000051809004+18770+100770FM-12+0201VTCN V0209999C000010450019N0150001N1+03301+02491100041ADDAA199000091GF106991041091008001041031MA1999999097821MD1999999-0011REMSYN070AAXX  18094 48331 32565 60000 10330 20249 39782 40004 84943 333 59001;EQDQ01  00002PRCP99
0213483310999992000051812004+18770+100770FM-12+0201VTCN V0209999C000010075019N0120001N1+02701+02411100291ADDAA103000391AY121061AY221061GF107991061091008001071061KA1120M+03451MA1999999098031MD1999999+0101MW1171REMSYN100AAXX  18124 48331 /1562 70000 10270 20241 39803 40029 69932 71722 86976 333 10345 58010 69937 70003;
0195483310999992000051815004+18770+100770FM-12+0201VTCN V0209999C000012200019N0120001N1+02601+02441100571ADDAA199000091AY191031AY221031GF103991021051008001041051MA1999999098291MD1999999+0031MW1011REMSYN076AAXX  18154 48331 31562 30000 10260 20244 39829 40057 70192 82545 333 58003;EQDQ01  00002PRCP99
0154483310999992000051818004+18770+100770FM-12+0201VTCN V0209999C000011050019N0120001N1+02551+02411100561ADDAA124000391GF105991021051008001041061MA1999999098281MD1999999+0001REMSYN076AAXX  18184 48331 32562 50000 10255 20241 39828 40056 82546 333 58000 70003;
0167483310999992000051821004+18770+100770FM-12+0201VTCN V0209999C000010075019N0100001N1+02511+02421100431ADDAA199000091GF108991071071008001071999MA1999999098151MD1999999+0031REMSYN070AAXX  18214 48331 32560 80000 10251 20242 39815 40043 8777/ 333 58003;EQDQ01  00002PRCP99
0207483310999992000051900004+18770+100770FM-12+0201VTCN V0209999C000010450019N0080001N1+02551+02441100571ADDAA124000391AY121061AY221061GF108991031051008001071999KA1120N+02461MA1999999098291MD1999999+0051MW1101REMSYN094AAXX  19004 48331 11558 80000 10255 20244 39829 40057 69934 71022 8357/ 333 20246 58005 70003;
0167483310999992000051903004+18770+100770FM-12+0201VTCN V0209999C000010450019N0120001N1+02921+02411100641ADDAA199000091GF108991041081008001071999MA1999999098381MD1999999+0091REMSYN070AAXX  19034 48331 32562 80000 10292 20241 39838 40064 8487/ 333 58009;EQDQ01  00002PRCP99
0154483310999992000051906004+18770+100770FM-12+0201VTCN V0201901N001510450019N0150001N1+03221+02481100351ADDAA124000391GF107991031091008001071061MA1999999098121MD1999999-0011REMSYN076AAXX  19064 48331 32565 71903 10322 20248 39812 40035 83976 333 59001 70003;
0182483310999992000051909004+18770+100770FM-12+0201VTCN V0203601N001010075019N0150001N1+02971+02591100131ADDAA103002091AY161031AY221031GF107991061071008001071061MA1999999098321MD1999999+0071MW1101REMSYN082AAXX  19094 48331 21565 73602 10297 20259 39832 40013 71062 86776 333 58007 60027;
0179483310999992000051912004+18770+100770FM-12+0201VTCN V0200301N001510450019N0150001N1+02551+02191100421ADDAA112000391GF108991031081008001071061KA1120M+03231MA1999999098131MD1999999+0131REMSYN088AAXX  19124 48331 12565 80303 10255 20219 39813 40042 69932 83876 333 10323 58013 70003;
0182483310999992000051915004+18770+100770FM-12+0201VTCN V0209999C000010075019N0060001N1+02321+02211100701ADDAA103013091AY161031AY261031GF108991051071008001021999MA1999999098401MD1999999+0131MW1611REMSYN082AAXX  19154 48331 21556 80000 10232 20221 39840 40070 76166 8572/ 333 58013 60137;
0194483310999992000051918004+18770+100770FM-12+0201VTCN V0200101N001010042019N0040001N1+02201+02141100661ADDAA103019191AY161061AY261061GF108991051071004501021999MA1999999098341MD1999999+0101MW1631REMSYN094AAXX  19184 48331 /1440 80102 10220 20214 39834 40066 60323 76366 8572/ 333 58010 60197 70317;
0182483310999992000051921004+18770+100770FM-12+0201VTCN V0209999C000010450019N0060001N1+02191+02131100541ADDAA103003091AY161031AY261031GF108991041071004501021999MA1999999098231MD1999999+0111MW1601REMSYN082AAXX  19214 48331 21456 80000 10219 20213 39823 40054 76066 8472/ 333 58011 60037;
0213483310999992000052000004+18770+100770FM-12+0201VTCN V0209999C000010042019N0020001N1+02151+02101100671ADDAA102005191AY161061AY221061GF108991061071004501071999KA1120N+02101MA1999999098351MD1999999+0101MW1611REMSYN100AAXX  20004 48331 /1420 80000 10215 20210 39835 40067 60404 76162 8677/ 333 20210 58010 60056 70396;
0182483310999992000052003004+18770+100770FM-12+0201VTCN V0209999C000010042019N0040001N1+02271+02151100821ADDAA103004191AY161031AY261031GF108991061051004501071999MA1999999098511MD1999999+0181MW1611REMSYN082AAXX  20034 48331 21440 80000 10227 20215 39851 40082 76166 8657/ 333 58018 60047;
0194483310999992000052006004+18770+100770FM-12+0201VTCN V0209999C000010042019N0030001N1+02261+02141100721ADDAA103003091AY161061AY261061GF108991071051004501071999MA1999999098511MD1999999+0371MW1611REMSYN094AAXX  20064 48331 /1430 80000 10226 20214 39851 40072 60071 76166 8757/ 333 58037 60037 70467;
0182483310999992000052009004+18770+100770FM-12+0201VTCN V0209999C000010042019N0040001N1+02241+02091100551ADDAA103004191AY161031AY261031GF108991081071004501999999MA1999999098241MD1999999+0331MW1611REMSYN082AAXX  20094 48331 21440 80000 10224 20209 39824 40055 76166 887// 333 58033 60047;
0213483310999992000052012004+18770+100770FM-12+0201VTCN V0209999C000010042019N0050001N1+02121+02011100681ADDAA103003091AY161061AY261061GF108991071051004501071999KA1120M+02301MA1999999098351MD1999999+0261MW1611REMSYN100AAXX  20124 48331 /1450 80000 10212 20201 39835 40068 60142 76166 8757/ 333 10230 58026 60037 70530;
0182483310999992000052015004+18770+100770FM-12+0201VTCN V0209999C000010042019N0050001N1+02041+01941100861ADDAA103000891AY161031AY261031GF108991071051004501071999MA1999999098521MD1999999+0161MW1611REMSYN082AAXX  20154 48331 21450 80000 10204 20194 39852 40086 76166 8757/ 333 58016 69977;
0194483310999992000052018004+18770+100770FM-12+0201VTCN V0209999C000010042019N0020001N1+02011+01941100841ADDAA103003091AY161061AY261061GF108991071051004501071999MA1999999098501MD1999999+0181MW1611REMSYN094AAXX  20184 48331 /1420 80000 10201 20194 39850 40084 60173 76166 8757/ 333 58018 60037 70248;
0182483310999992000052021004+18770+100770FM-12+0201VTCN V0209999C000010042019N0030001N1+02001+01951100811ADDAA103003091AY161031AY261031GF108991081071004501999999MA1999999098471MD1999999+0271MW1611REMSYN082AAXX  20214 48331 21430 80000 10200 20195 39847 40081 76166 887// 333 58027 60037;
0213483310999992000052100004+18770+100770FM-12+0201VTCN V0209999C000010042019N0050001N1+02051+01971100871ADDAA103000591AY161061AY251061GF108991081071004501999999KA1120N+01951MA1999999098541MD1999999+0201MW1511REMSYN100AAXX  21004 48331 /1450 80000 10205 20197 39854 40087 60204 75165 887// 333 20195 58020 69967 70202;
0182483310999992000052103004+18770+100770FM-12+0201VTCN V0209999C000010042019N0030001N1+02171+02041101021ADDAA103000191AY151031AY251031GF108991081071004501999999MA1999999098701MD1999999+0201MW1511REMSYN082AAXX  21034 48331 21430 80000 10217 20204 39870 40102 75155 887// 333 58020 69927;
0148483310999992000052109004+18770+100770FM-12+0201VTCN V0200901N002610120019N0150001N1+02601+02071100661ADDAA199000021GF108991061081008001071061MA1999999098371MD1999999+0111REMSYN070AAXX  21094 48331 32565 80905 10260 20207 39837 40066 86876 333 58011;
0173483310999992000052112004+18770+100770FM-12+0201VTCN V0209999C000010075019N0120001N1+02451+02071100721ADDAA124013791GF108991061071008001021999KA1120M+02621MA1999999098421MD1999999+0041REMSYN082AAXX  21124 48331 32562 80000 10245 20207 39842 40072 8672/ 333 10262 58004 70137;
0148483310999992000052115004+18770+100770FM-12+0201VTCN V0209999C000010075019N0100001N1+02351+02141100971ADDAA199000021GF108991061071008001021999MA1999999098671MD1999999+0111REMSYN070AAXX  21154 48331 32560 80000 10235 20214 39867 40097 8672/ 333 58011;
0154483310999992000052118004+18770+100770FM-12+0201VTCN V0209999C000010075019N0100001N1+02281+02141100891ADDAA124004191GF106991051051008001041061MA1999999098571MD1999999+0051REMSYN076AAXX  21184 48331 32560 60000 10228 20214 39857 40089 85546 333 58005 70040;
0195483310999992000052121004+18770+100770FM-12+0201VTCN V0209999C000010075019N0080001N1+02251+02141100871ADDAA199000091AY121031AY221031GF108991061071008001021999MA1999999098551MD1999999+0061MW1101REMSYN076AAXX  21214 48331 31558 80000 10225 20214 39855 40087 71022 8672/ 333 58006;EQDQ01  00002PRCP99
0179483310999992000052200004+18770+100770FM-12+0201VTCN V0209999C000010450019N0120001N1+02271+02101100871ADDAA124000891GF107991031021008001071061KA1120N+02171MA1999999098561MD1999999+0001REMSYN088AAXX  22004 48331 12562 70000 10227 20210 39856 40087 69974 83276 333 20217 58000 70007;
0167483310999992000052203004+18770+100770FM-12+0201VTCN V0209999C000011050019N0150001N1+02701+02091101051ADDAA199000091GF106991021011008001051061MA1999999098761MD1999999+0031REMSYN070AAXX  22034 48331 32565 60000 10270 20209 39876 40105 82156 333 58003;EQDQ01  00002PRCP99
0167483310999992000052206004+18770+100770FM-12+0201VTCN V0209999C000011050019N0150001N1+03031+02191100851ADDAA199000091GF105991021011008001051061MA1999999098591MD1999999-0021REMSYN070AAXX  22064 48331 32565 50000 10303 20219 39859 40085 82156 333 59002;EQDQ01  00002PRCP99
0167483310999992000052209004+18770+100770FM-12+0201VTCN V0209999C000011050019N0150001N1+03131+02191100681ADDAA199000091GF105991021031008001051011MA1999999098441MD1999999+0021REMSYN070AAXX  22094 48331 32565 50000 10313 20219 39844 40068 82351 333 58002;EQDQ01  00002PRCP99
0186483310999992000052212004+18770+100770FM-12+0201VTCN V0209999C000010075019N0150001N1+02801+02511100711ADDAA199000091GF107991051051008001071011KA1120M+03161MA1999999098441MD1999999-0011REMSYN076AAXX  22124 48331 32565 70000 10280 20251 39844 40071 85571 333 10316 59001;EQDQ01  00002PRCP99
0167483310999992000052215004+18770+100770FM-12+0201VTCN V0209999C000012200019N0150001N1+02601+02381100911ADDAA199000091GF103991021051008001051011MA1999999098621MD1999999-0061REMSYN070AAXX  22154 48331 32565 30000 10260 20238 39862 40091 82551 333 59006;EQDQ01  00002PRCP99
0167483310999992000052218004+18770+100770FM-12+0201VTCN V0209999C000010450019N0120001N1+02501+02341100891ADDAA199000091GF108991041051008001071999MA1999999098601MD1999999+0001REMSYN070AAXX  22184 48331 32562 80000 10250 20234 39860 40089 8457/ 333 58000;EQDQ01  00002PRCP99
0167483310999992000052221004+18770+100770FM-12+0201VTCN V0209999C000010075019N0120001N1+02451+02321100851ADDAA199000091GF108991051051008001071999MA1999999098551MD1999999-0021REMSYN070AAXX  22214 48331 32562 80000 10245 20232 39855 40085 8557/ 333 59002;EQDQ01  00002PRCP99
0186483310999992000052300004+18770+100770FM-12+0201VTCN V0209999C000010450019N0150001N1+02471+02321100951ADDAA199000091GF106991041051008001051061KA1120N+02361MA1999999098651MD1999999+0081REMSYN076AAXX  23004 48331 32565 60000 10247 20232 39865 40095 84556 333 20236 58008;EQDQ01  00002PRCP99
0182483310999992000052303004+18770+100770FM-12+0201VTCN V0209999C000010075019N0150001N1+02611+02381101061ADDAA101001091AY121031AY221031GF108991061051008001071999MA1999999098771MD1999999+0011MW1601REMSYN082AAXX  23034 48331 21565 80000 10261 20238 39877 40106 76022 8657/ 333 58001 60015;
0188483310999992000052306004+18770+100770FM-12+0201VTCN V0209999C000010075019N0150001N1+02951+02351100851ADDAA106001091AY161061AY221061GF107991061051008001071999MA1999999098591MD1999999+0001MW1011REMSYN088AAXX  23064 48331 11565 70000 10295 20235 39859 40085 60011 70162 8657/ 333 58000 70011;
0148483310999992000052309004+18770+100770FM-12+0201VTCN V0209999C000012200019N0150001N1+03161+02321100521ADDAA199000021GF102991021091008001001001MA1999999098291MD1999999-0161REMSYN070AAXX  23094 48331 32565 20000 10316 20232 39829 40052 82900 333 59016;
0173483310999992000052312004+18770+100770FM-12+0201VTCN V0209999C000012200019N0150001N1+02941+02451100541ADDAA124001091GF101991011011008001041011KA1120M+03241MA1999999098281MD1999999-0171REMSYN082AAXX  23124 48331 32565 10000 10294 20245 39828 40054 81141 333 10324 59017 70011;
0182483310999992000052315004+18770+100770FM-12+0201VTCN V0209999C000010075019N0120001N1+02701+02471100901ADDAA101000791AY111031AY201031GF106991051091008001071061MA1999999098611MD1999999-0011MW1601REMSYN082AAXX  23154 48331 21562 60000 10270 20247 39861 40090 76010 85976 333 59001 69905;
0148483310999992000052321004+18770+100770FM-12+0201VTCN V0209999C000010075019N0100001N1+02491+02361100771ADDAA199000021GF107991061051008001071061MA1999999098481MD1999999-0081REMSYN070AAXX  23214 48331 32560 70000 10249 20236 39848 40077 86576 333 59008;
0207483310999992000052400004+18770+100770FM-12+0201VTCN V0209999C000010450019N0080001N1+02511+02391100831ADDAA124001091AY121061AY221061GF106991041061004501051011KA1120N+02401MA1999999098541MD1999999-0121MW1101REMSYN094AAXX  24004 48331 11458 60000 10251 20239 39854 40083 60014 71022 84651 333 20240 59012 70011;
0148483310999992000052403004+18770+100770FM-12+0201VTCN V0201801N001010450019N0150001N1+03061+02441100851ADDAA199000021GF106991041021008001051011MA1999999098591MD1999999-0211REMSYN070AAXX  24034 48331 32565 61802 10306 20244 39859 40085 84251 333 59021;
0154483310999992000052406004+18770+100770FM-12+0201VTCN V0202001N001512200019N0150001N1+03351+02331100591ADDAA124000791GF103991021091008001001031MA1999999098361MD1999999-0261REMSYN076AAXX  24064 48331 32565 32003 10335 20233 39836 40059 82903 333 59026 79999;
0167483310999992000052409004+18770+100770FM-12+0201VTCN V0202301N001512200019N0150001N1+03461+02261100341ADDAA199000091GF103991021031008001001061MA1999999098121MD1999999-0181REMSYN070AAXX  24094 48331 32565 32303 10346 20226 39812 40034 82306 333 59018;EQDQ01  00002PRCP99
0173483310999992000052412004+18770+100770FM-12+0201VTCN V0209999C000012200019N0150001N1+03081+02391100421ADDAA124000791GF103991011051008001041011KA1120M+03501MA1999999098181MD1999999-0121REMSYN082AAXX  24124 48331 32565 30000 10308 20239 39818 40042 81541 333 10350 59012 79999;
0167483310999992000052415004+18770+100770FM-12+0201VTCN V0209999C000012200019N0150001N1+02791+02431100671ADDAA199000091GF102991021001999999051011MA1999999098401MD1999999-0231REMSYN070AAXX  24154 48331 32965 20000 10279 20243 39840 40067 82051 333 59023;EQDQ01  00002PRCP99
0167483310999992000052418004+18770+100770FM-12+0201VTCN V0209999C000012200019N0150001N1+02681+02441100651ADDAA199000091GF104991021051008001051011MA1999999098381MD1999999-0131REMSYN070AAXX  24184 48331 32565 40000 10268 20244 39838 40065 82551 333 59013;EQDQ01  00002PRCP99
0167483310999992000052421004+18770+100770FM-12+0201VTCN V0209999C000012200019N0150001N1+02541+02401100571ADDAA199000091GF106991021051008001001061MA1999999098291MD1999999-0201REMSYN070AAXX  24214 48331 32565 60000 10254 20240 39829 40057 82506 333 59020;EQDQ01  00002PRCP99
0186483310999992000052500004+18770+100770FM-12+0201VTCN V0209999C000011050019N0150001N1+02551+02361100691ADDAA199000091GF106991021051008001041061KA1120N+02431MA1999999098391MD1999999-0141REMSYN076AAXX  25004 48331 32565 60000 10255 20236 39839 40069 82546 333 20243 59014;EQDQ01  00002PRCP99
0167483310999992000052503004+18770+100770FM-12+0201VTCN V0201601N002611050019N0150001N1+03051+02491100731ADDAA199000091GF105991021081008001041061MA1999999098481MD1999999-0121REMSYN070AAXX  25034 48331 32565 51605 10305 20249 39848 40073 82846 333 59012;EQDQ01  00002PRCP99
0167483310999992000052506004+18770+100770FM-12+0201VTCN V0202101N002610075019N0150001N1+03381+02441100451ADDAA199000091GF106991051091008001041061MA1999999098231MD1999999-0131REMSYN070AAXX  25064 48331 32565 62105 10338 20244 39823 40045 85946 333 59013;EQDQ01  00002PRCP99
0167483310999992000052509004+18770+100770FM-12+0201VTCN V0209999C000012200019N0150001N1+03351+02431100281ADDAA199000091GF104991021091008001001031MA1999999098051MD1999999-0061REMSYN070AAXX  25094 48331 32565 40000 10335 20243 39805 40028 82903 333 59006;EQDQ01  00002PRCP99
0186483310999992000052512004+18770+100770FM-12+0201VTCN V0209999C000012200019N0150001N1+02901+02361100311ADDAA199000091GF104991021091008001041051KA1120M+03471MA1999999098061MD1999999-0111REMSYN076AAXX  25124 48331 32565 40000 10290 20236 39806 40031 82945 333 10347 59011;EQDQ01  00002PRCP99
0167483310999992000052515004+18770+100770FM-12+0201VTCN V0209999C000012200019N0150001N1+02751+02421100561ADDAA199000091GF104991021051008001041061MA1999999098301MD1999999-0111REMSYN070AAXX  25154 48331 32565 40000 10275 20242 39830 40056 82546 333 59011;EQDQ01  00002PRCP99
0167483310999992000052518004+18770+100770FM-12+0201VTCN V0209999C000012200019N0150001N1+02671+02401100541ADDAA199000091GF102991021081008001001011MA1999999098271MD1999999-0111REMSYN070AAXX  25184 48331 32565 20000 10267 20240 39827 40054 82801 333 59011;EQDQ01  00002PRCP99
0167483310999992000052521004+18770+100770FM-12+0201VTCN V0209999C000012200019N0120001N1+02601+02321100491ADDAA199000091GF102991021051008001001011MA1999999098211MD1999999-0081REMSYN070AAXX  25214 48331 32562 20000 10260 20232 39821 40049 82501 333 59008;EQDQ01  00002PRCP99
0167483310999992000052603004+18770+100770FM-12+0201VTCN V0201801N001510450019N0150001N1+03021+02341100721ADDAA199000091GF107991031081008001051061MA1999999098471MD1999999-0011REMSYN070AAXX  26034 48331 32565 71803 10302 20234 39847 40072 83856 333 59001;EQDQ01  00002PRCP99
0182483310999992000052609004+18770+100770FM-12+0201VTCN V0202101N001010075019N0050001N1+02951+02481100291ADDAA101005191AY121031AY221031GF106991051031008001051061MA1999999098041MD1999999+0011MW1811REMSYN082AAXX  26094 48331 21550 62102 10295 20248 39804 40029 78122 85356 333 58001 60055;
0213483310999992000052612004+18770+100770FM-12+0201VTCN V0209999C000011050019N0120001N1+02701+02551100381ADDAA103007991AY181061AY281061GF105991021091008001071061KA1120M+03511MA1999999098111MD1999999+0071MW1011REMSYN100AAXX  26124 48331 /1562 50000 10270 20255 39811 40038 60132 70188 82976 333 10351 58007 60087 70130;
0182483310999992000052615004+18770+100770FM-12+0201VTCN V0201501N001010450019N0080001N1+02451+02331100701ADDAA101003091AY181031AY221031GF107991041021008001071061MA1999999098411MD1999999+0141MW1601REMSYN082AAXX  26154 48331 21558 71502 10245 20233 39841 40070 76082 84276 333 58014 60035;
0194483310999992000052618004+18770+100770FM-12+0201VTCN V0209999C000010450019N0100001N1+02361+02301100641ADDAA103003091AY161061AY221061GF108991041051008001071999MA1999999098341MD1999999+0101MW1021REMSYN094AAXX  26184 48331 /1560 80000 10236 20230 39834 40064 60183 70262 8457/ 333 58010 60037 70184;
0148483310999992000052621004+18770+100770FM-12+0201VTCN V0209999C000010042019N0100001N1+02371+02301100581ADDAA199000021GF107991051061004501071061MA1999999098281MD1999999+0091REMSYN070AAXX  26214 48331 32460 70000 10237 20230 39828 40058 85676 333 58009;
0201483310999992000052700004+18770+100770FM-12+0201VTCN V0209999C000010450019N0080001N1+02411+02321100691ADDAA124018391AY121061AY211061GF105991041051008001071061KA1120N+02301MA1999999098391MD1999999+0061MW1101REMSYN088AAXX  27004 48331 31558 50000 10241 20232 39839 40069 71021 84576 333 20230 58006 70184;
0148483310999992000052703004+18770+100770FM-12+0201VTCN V0209999C000010450019N0150001N1+02901+02421100741ADDAA199000021GF105991021081008001041051MA1999999098471MD1999999+0021REMSYN070AAXX  27034 48331 32565 50000 10290 20242 39847 40074 82845 333 58002;
0154483310999992000052706004+18770+100770FM-12+0201VTCN V0209999C000010450019N0150001N1+03231+02351100571ADDAA124018391GF105991031081008001041051MA1999999098331MD1999999+0071REMSYN076AAXX  27064 48331 32565 50000 10323 20235 39833 40057 83845 333 58007 70184;
0167483310999992000052709004+18770+100770FM-12+0201VTCN V0201901N001510075019N0150001N1+03281+02411100231ADDAA199000091GF106991051091008001071061MA1999999098011MD1999999-0061REMSYN070AAXX  27094 48331 32565 61903 10328 20241 39801 40023 85976 333 59006;EQDQ01  00002PRCP99
0213483310999992000052712004+18770+100770FM-12+0201VTCN V0209999C000010075019N0150001N1+02401+02341100491ADDAA102052191AY191061AY221061GF108991061091008001071061KA1120M+03451MA1999999098201MD1999999+0111MW1291REMSYN100AAXX  27124 48331 /1565 80000 10240 20234 39820 40049 60522 72992 86976 333 10345 58011 60526 70576;
0182483310999992000052715004+18770+100770FM-12+0201VTCN V0209999C000010120019N0120001N1+02451+02381100721ADDAA103000191AY161031AY221031GF108991051081008001071999MA1999999098421MD1999999+0021MW1021REMSYN082AAXX  27154 48331 21562 80000 10245 20238 39842 40072 70262 8587/ 333 58002 69927;
0188483310999992000052718004+18770+100770FM-12+0201VTCN V0209999C000010075019N0100001N1+02401+02331100611ADDAA118052191AY161061AY221061GF108991061051008001071061MA1999999098311MD1999999-0031MW1021REMSYN088AAXX  27184 48331 11560 80000 10240 20233 39831 40061 60523 70262 86576 333 59003 70524;
0195483310999992000052721004+18770+100770FM-12+0201VTCN V0209999C000010075019N0080001N1+02401+02331100571ADDAA199000091AY121031AY221031GF108991071071008001071999MA1999999098271MD1999999-0011MW1101REMSYN076AAXX  27214 48331 31558 80000 10240 20233 39827 40057 71022 8777/ 333 59001;EQDQ01  00002PRCP99
0207483310999992000052800004+18770+100770FM-12+0201VTCN V0209999C000010450019N0080001N1+02451+02381100711ADDAA124052191AY121061AY221061GF108991041051004501071999KA1120N+02331MA1999999098411MD1999999+0021MW1101REMSYN094AAXX  28004 48331 11458 80000 10245 20238 39841 40071 60524 71022 8457/ 333 20233 58002 70524;
0167483310999992000052803004+18770+100770FM-12+0201VTCN V0209999C000010450019N0120001N1+02751+02431100811ADDAA199000091GF108991041021008001071999MA1999999098541MD1999999+0071REMSYN070AAXX  28034 48331 32562 80000 10275 20243 39854 40081 8427/ 333 58007;EQDQ01  00002PRCP99
0154483310999992000052806004+18770+100770FM-12+0201VTCN V0201501N001012200019N0150001N1+03231+02551100551ADDAA124052391GF103991021031008001041011MA1999999098311MD1999999-0021REMSYN076AAXX  28064 48331 32565 31502 10323 20255 39831 40055 82341 333 59002 70524;
0167483310999992000052809004+18770+100770FM-12+0201VTCN V0209999C000011050019N0150001N1+02991+02321100331ADDAA199000091GF105991021091008001071031MA1999999098091MD1999999+0101REMSYN070AAXX  28094 48331 32565 50000 10299 20232 39809 40033 82973 333 58010;EQDQ01  00002PRCP99
0173483310999992000052812004+18770+100770FM-12+0201VTCN V0209999C000012200019N0150001N1+02841+02451100391ADDAA124000391GF104991021051008001051061KA1120M+03381MA1999999098131MD1999999-0101REMSYN082AAXX  28124 48331 32565 40000 10284 20245 39813 40039 82556 333 10338 59010 70002;
0167483310999992000052815004+18770+100770FM-12+0201VTCN V0209999C000012200019N0150001N1+02721+02541100911ADDAA199000091GF103991021001999999051061MA1999999098341MD1999999-0111REMSYN070AAXX  28154 48331 32965 30000 10272 20254 39834 40091 82056 333 59011;EQDQ01  00002PRCP99
0183483310999992000052818004+18770+100770FM-12+0201VTCN V0209999C000012200019N0100001N1+02611+02501100621ADDAA199000091GF102991999051008001051011MA1999999098341MD1999999+0011REMSYN070AAXX  28184 48331 32560 20000 10261 20250 39834 40062 84551 333 58001;EQDQ01+000042SCOTLCQ02  00002PRCP99
0167483310999992000052821004+18770+100770FM-12+0201VTCN V0209999C000012200019N0100001N1+02511+02421100571ADDAA199000091GF102991021001999999051011MA1999999098281MD1999999+0001REMSYN070AAXX  28214 48331 32960 20000 10251 20242 39828 40057 82051 333 58000;EQDQ01  00002PRCP99
0186483310999992000052900004+18770+100770FM-12+0201VTCN V0209999C000010450019N0150001N1+02541+02431100741ADDAA199000091GF106991041051008001041061KA1120N+02401MA1999999098441MD1999999+0031REMSYN076AAXX  29004 48331 32565 60000 10254 20243 39844 40074 84546 333 20240 58003;EQDQ01  00002PRCP99
0167483310999992000052903004+18770+100770FM-12+0201VTCN V0209999C000012200019N0150001N1+03101+02531100741ADDAA199000091GF103991031051008001001001MA1999999098491MD1999999-0071REMSYN070AAXX  29034 48331 32565 30000 10310 20253 39849 40074 83500 333 59007;EQDQ01  00002PRCP99
0195483310999992000052906004+18770+100770FM-12+0201VTCN V0209999C000012200019N0150001N1+03461+02621100451ADDAA199000091AY101061AY201061GF103991031091008001001001MA1999999098241MD1999999-0101MW1171REMSYN076AAXX  29064 48331 31565 30000 10346 20262 39824 40045 71700 83900 333 59010;EQDQ01  00002PRCP99
0182483310999992000052909004+18770+100770FM-12+0201VTCN V0209999C000010075019N0150001N1+02641+02481100471ADDAA103026991AY191031AY221031GF108991051091008001071999MA1999999098191MD1999999+0141MW1031REMSYN082AAXX  29094 48331 21565 80000 10264 20248 39819 40047 70392 8597/ 333 58014 60277;
0207483310999992000052912004+18770+100770FM-12+0201VTCN V0209999C000010450019N0150001N1+02771+02571100461ADDAA112026991AY191061AY221061GF106991031051008001041061KA1120M+03461MA1999999098201MD1999999+0071MW1011REMSYN094AAXX  29124 48331 11565 60000 10277 20257 39820 40046 60272 70192 83546 333 10346 58007 70271;
0167483310999992000052915004+18770+100770FM-12+0201VTCN V0209999C000010075019N0150001N1+02651+02461100741ADDAA199000091GF108991051051008001071061MA1999999098451MD1999999+0131REMSYN070AAXX  29154 48331 32565 80000 10265 20246 39845 40074 85576 333 58013;EQDQ01  00002PRCP99
0154483310999992000052918004+18770+100770FM-12+0201VTCN V0209999C000010450019N0120001N1+02551+02391100691ADDAA124027291GF106991031051008001041061MA1999999098411MD1999999+0071REMSYN076AAXX  29184 48331 32562 60000 10255 20239 39841 40069 83546 333 58007 70271;
0195483310999992000052921004+18770+100770FM-12+0201VTCN V0209999C000010450019N0120001N1+02521+02411100631ADDAA199000091AY121031AY221031GF106991041091008001041061MA1999999098331MD1999999+0061MW1171REMSYN076AAXX  29214 48331 31562 60000 10252 20241 39833 40063 71722 84946 333 58006;EQDQ01  00002PRCP99
0201483310999992000053000004+18770+100770FM-12+0201VTCN V0209999C000010075019N0150001N1+02531+02351100591ADDAA124027291AY191061AY221061GF108991061071008001071061KA1120N+02431MA1999999098301MD1999999-0151MW1031REMSYN088AAXX  30004 48331 31565 80000 10253 20235 39830 40059 70392 86776 333 20243 59015 70271;
0167483310999992000053003004+18770+100770FM-12+0201VTCN V0209999C000012200019N0150001N1+03051+02401100701ADDAA199000091GF104991031081008001001051MA1999999098451MD1999999-0041REMSYN070AAXX  30034 48331 32565 40000 10305 20240 39845 40070 83805 333 59004;EQDQ01  00002PRCP99
0154483310999992000053006004+18770+100770FM-12+0201VTCN V0209999C000010075019N0150001N1+03211+02651100471ADDAA124027291GF107991061091008001071061MA1999999098241MD1999999+0021REMSYN076AAXX  30064 48331 32565 70000 10321 20265 39824 40047 86976 333 58002 70271;
0195483310999992000053009004+18770+100770FM-12+0201VTCN V0201801N003110042019N0150001N1+02901+02451100351ADDAA199000091AY191031AY221031GF108991061091004501071061MA1999999098091MD1999999-0121MW1171REMSYN076AAXX  30094 48331 31465 81806 10290 20245 39809 40035 71792 86976 333 59012;EQDQ01  00002PRCP99
0213483310999992000053012004+18770+100770FM-12+0201VTCN V0209999C000010075019N0060001N1+02601+02371100461ADDAA103000791AY191061AY221061GF108991051091008001071061KA1120M+03251MA1999999098181MD1999999+0001MW1021REMSYN100AAXX  30124 48331 /1556 80000 10260 20237 39818 40046 69902 70292 85976 333 10325 58000 69907 79999;
0182483310999992000053015004+18770+100770FM-12+0201VTCN V0209999C000010075019N0120001N1+02571+02401100681ADDAA103000791AY161031AY221031GF108991061051008001071061MA1999999098391MD1999999-0061MW1021REMSYN082AAXX  30154 48331 21562 80000 10257 20240 39839 40068 70262 86576 333 59006 69907;
0167483310999992000053021004+18770+100770FM-12+0201VTCN V0209999C000010075019N0120001N1+02521+02411100491ADDAA199000091GF108991061051008001071061MA1999999098211MD1999999-0141REMSYN070AAXX  30214 48331 32562 80000 10252 20241 39821 40049 86576 333 59014;EQDQ01  00002PRCP99
0186483310999992000053100004+18770+100770FM-12+0201VTCN V0209999C000010075019N0100001N1+02511+02371100701ADDAA199000091GF108991051061008001071999KA1120N+02431MA1999999098411MD1999999+0111REMSYN076AAXX  31004 48331 32560 80000 10251 20237 39841 40070 8567/ 333 20243 58011;EQDQ01  00002PRCP99
0167483310999992000053103004+18770+100770FM-12+0201VTCN V0209999C000010450019N0100001N1+02991+02491100651ADDAA199000091GF106991031011008001051011MA1999999098391MD1999999-0051REMSYN070AAXX  31034 48331 32560 60000 10299 20249 39839 40065 83151 333 59005;EQDQ01  00002PRCP99
0167483310999992000053106004+18770+100770FM-12+0201VTCN V0209999C000012200019N0150001N1+03351+02511100351ADDAA199000091GF104991021091008001001031MA1999999098121MD1999999-0121REMSYN070AAXX  31064 48331 32565 40000 10335 20251 39812 40035 82903 333 59012;EQDQ01  00002PRCP99
0167483310999992000053109004+18770+100770FM-12+0201VTCN V0203101N002110450019N0150001N1+03071+02421100091ADDAA199000091GF107991041091008001071061MA1999999097851MD1999999-0261REMSYN070AAXX  31094 48331 32565 73104 10307 20242 39785 40009 84976 333 59026;EQDQ01  00002PRCP99
0186483310999992000053112004+18770+100770FM-12+0201VTCN V0209999C000010450019N0120001N1+02881+02401100151ADDAA199000091GF108991021051008001051061KA1120M+03441MA1999999097901MD1999999-0311REMSYN076AAXX  31124 48331 32562 80000 10288 20240 39790 40015 82556 333 10344 59031;EQDQ01  00002PRCP99
0195483310999992000053115004+18770+100770FM-12+0201VTCN V0209999C000012200019N0100001N1+02721+02481100391ADDAA199000091AY111031AY201031GF102991011091008001001031MA1999999098121MD1999999-0291MW1131REMSYN076AAXX  31154 48331 31560 20000 10272 20248 39812 40039 71310 81903 333 59029;EQDQ01  00002PRCP99
0195483310999992000053118004+18770+100770FM-12+0201VTCN V0202001N001512200019N0100001N1+02541+02301100441ADDAA199000091AY121061AY201061GF104991031091008001051031MA1999999098151MD1999999-0131MW1131REMSYN076AAXX  31184 48331 31560 42003 10254 20230 39815 40044 71320 83953 333 59013;EQDQ01  00002PRCP99
0182483310999992000053121004+18770+100770FM-12+0201VTCN V0209999C000012200019N0100001N1+02481+02361100371ADDAA103000391AY161031AY211031GF104991021051008001051061MA1999999098091MD1999999-0121MW1021REMSYN082AAXX  31214 48331 21560 40000 10248 20236 39809 40037 70261 82556 333 59012 69937;
0179483310999992000060100004+18770+100770FM-12+0201VTCN V0209999C000012200019N0150001N1+02511+02391100471ADDAA124000391GF103991031051008001041051KA1120N+02381MA1999999098181MD1999999-0231REMSYN088AAXX  01004 48331 12565 30000 10251 20239 39818 40047 69934 83545 333 20238 59023 70003;
0167483310999992000060103004+18770+100770FM-12+0201VTCN V0209999C000010450019N0150001N1+02951+02451100591ADDAA199000091GF106991031051008001041061MA1999999098331MD1999999-0061REMSYN070AAXX  01034 48331 32565 60000 10295 20245 39833 40059 83546 333 59006;EQDQ01  00002PRCP99
0154483310999992000060106004+18770+100770FM-12+0201VTCN V0209999C000012200019N0150001N1+03351+02471100301ADDAA124000391GF102991021091008001001031MA1999999098081MD1999999-0051REMSYN076AAXX  01064 48331 32565 20000 10335 20247 39808 40030 82903 333 59005 70003;
0167483310999992000060109004+18770+100770FM-12+0201VTCN V0209999C000012200019N0150001N1+03461+02421099951ADDAA199000091GF102991021091008001001031MA1999999097741MD1999999-0041REMSYN070AAXX  01094 48331 32565 20000 10346 20242 39774 49995 82903 333 59004;EQDQ01  00002PRCP99
0173483310999992000060112004+18770+100770FM-12+0201VTCN V0209999C000012200019N0150001N1+03131+02631100111ADDAA124000391GF102991021091008001001031KA1120M+03541MA1999999097871MD1999999-0041REMSYN082AAXX  01124 48331 32565 20000 10313 20263 39787 40011 82903 333 10354 59004 70003;
0195483310999992000060115004+18770+100770FM-12+0201VTCN V0209999C000010450019N0150001N1+02821+02381100441ADDAA199000091AY121031AY201031GF105991041091008001041051MA1999999098181MD1999999+0051MW1131REMSYN076AAXX  01154 48331 31565 50000 10282 20238 39818 40044 71320 84945 333 58005;EQDQ01  00002PRCP99
0194483310999992000060118004+18770+100770FM-12+0201VTCN V0209999C000010042019N0020001N1+02651+02491100451ADDAA102002091AY191061AY221061GF108991061091004501071999MA1999999098181MD1999999+0011MW1951REMSYN094AAXX  01184 48331 /1420 80000 10265 20249 39818 40045 60023 79592 8697/ 333 58001 60026 70016;
0182483310999992000060121004+18770+100770FM-12+0201VTCN V0209999C000010075019N0120001N1+02601+02511100391ADDAA103000191AY191031AY221031GF108991051051008001051061MA1999999098111MD1999999+0021MW1021REMSYN082AAXX  01214 48331 21562 80000 10260 20251 39811 40039 70292 85556 333 58002 69927;
0213483310999992000060200004+18770+100770FM-12+0201VTCN V0209999C000010450019N0100001N1+02601+02511100441ADDAA103002091AY191061AY261061GF108991041051008001071061KA1120N+02501MA1999999098161MD1999999-0031MW1021REMSYN100AAXX  02004 48331 /1560 80000 10260 20251 39816 40044 60044 70296 84576 333 20250 59003 60027 70041;
0148483310999992000060203004+18770+100770FM-12+0201VTCN V0209999C000010120019N0150001N1+02941+02501100541ADDAA199000021GF106991051081008001041051MA1999999098281MD1999999-0051REMSYN070AAXX  02034 48331 32565 60000 10294 20250 39828 40054 85845 333 59005;
0154483310999992000060206004+18770+100770FM-12+0201VTCN V0209999C000010450019N0150001N1+03271+02491100311ADDAA124004191GF106991041081008001041061MA1999999098091MD1999999+0011REMSYN076AAXX  02064 48331 32565 60000 10327 20249 39809 40031 84846 333 58001 70041;
0182483310999992000060209004+18770+100770FM-12+0201VTCN V0209999C000010075019N0150001N1+03001+02361100021ADDAA102001091AY191031AY221031GF107991061091008001071061MA1999999097921MD1999999+0051MW1021REMSYN082AAXX  02094 48331 21565 70000 10300 20236 39792 40002 70292 86976 333 58005 60016;
0213483310999992000060212004+18770+100770FM-12+0201VTCN V0209999C000010075019N0150001N1+02701+02491100281ADDAA102000791AY191061AY261061GF108991061091008001071061KA1120M+03251MA1999999098021MD1999999+0171MW1031REMSYN100AAXX  02124 48331 /1565 80000 10270 20249 39802 40028 60012 70396 86976 333 10325 58017 69906 70051;
0167483310999992000060215004+18770+100770FM-12+0201VTCN V0209999C000010075019N0120001N1+02651+02491100501ADDAA199000091GF108991061071008001071999MA1999999098231MD1999999+0061REMSYN070AAXX  02154 48331 32562 80000 10265 20249 39823 40050 8677/ 333 58006;EQDQ01  00002PRCP99
0154483310999992000060218004+18770+100770FM-12+0201VTCN V0209999C000012200019N0100001N1+02551+02411100471ADDAA124005191GF104991031051008001041051MA1999999098191MD1999999+0021REMSYN076AAXX  02184 48331 32560 40000 10255 20241 39819 40047 83545 333 58002 70051;
0182483310999992000060221004+18770+100770FM-12+0201VTCN V0209999C000010075019N0080001N1+02501+02421100401ADDAA102000591AY161031AY221031GF108991061071008001071061MA1999999098111MD1999999+0011MW1101REMSYN082AAXX  02214 48331 21558 80000 10250 20242 39811 40040 71062 86776 333 58001 69956;
0213483310999992000060300004+18770+100770FM-12+0201VTCN V0209999C000010450019N0080001N1+02551+02441100501ADDAA103000591AY161061AY261061GF106991031061004501071061KA1120N+02341MA1999999098221MD1999999+0061MW1101REMSYN100AAXX  03004 48331 /1458 60000 10255 20244 39822 40050 60024 71066 83676 333 20234 58006 69957 70020;
0167483310999992000060303004+18770+100770FM-12+0201VTCN V0209999C000010075019N0120001N1+02901+02481100541ADDAA199000091GF107991061021008001071061MA1999999098281MD1999999+0001REMSYN070AAXX  03034 48331 32562 70000 10290 20248 39828 40054 86276 333 58000;EQDQ01  00002PRCP99
0154483310999992000060306004+18770+100770FM-12+0201VTCN V0202401N001011050019N0150001N1+03141+02531100411ADDAA124002091GF106991021021008001071061MA1999999098181MD1999999+0101REMSYN076AAXX  03064 48331 32565 62402 10314 20253 39818 40041 82276 333 58010 70020;
0195483310999992000060309004+18770+100770FM-12+0201VTCN V0209999C000010450019N0150001N1+03221+02561100171ADDAA199000091AY121031AY221031GF105991031091008001071031MA1999999097941MD1999999+0151MW1151REMSYN076AAXX  03094 48331 31565 50000 10322 20256 39794 40017 71522 83973 333 58015;EQDQ01  00002PRCP99
0213483310999992000060312004+18770+100770FM-12+0201VTCN V0209999C000010450019N0080001N1+02751+02451100351ADDAA101000791AY191061AY221061GF106991031051008001071061KA1120M+03251MA1999999098081MD1999999+0071MW1601REMSYN100AAXX  03124 48331 /1558 60000 10275 20245 39808 40035 69902 76092 83576 333 10325 58007 69905 70010;
0182483310999992000060315004+18770+100770FM-12+0201VTCN V0209999C000011050019N0100001N1+02621+02431100571ADDAA103000891AY161031AY221031GF105991021051008001051061MA1999999098291MD1999999+0061MW1031REMSYN082AAXX  03154 48331 21560 50000 10262 20243 39829 40057 70362 82556 333 58006 69977;
0159483310999992000060318004+18770+100770FM-12+0201VTCN V0209999C000010450019N0100001N1+02601+02521100611ADDAA118000891GF106991031081008001051061MA1999999098331MD1999999+0141REMSYN081AAXX  03184 48331 12560 60000 10260 20252 39833 40061 69973 83856 333 58014 7001;
0148483310999992000060321004+18770+100770FM-12+0201VTCN V0209999C000011050019N0100001N1+02551+02471100591ADDAA199000021GF106991021051008001051061MA1999999098311MD1999999+0191REMSYN070AAXX  03214 48331 32560 60000 10255 20247 39831 40059 82556 333 58019;
0179483310999992000060400004+18770+100770FM-12+0201VTCN V0209999C000010450019N0150001N1+02601+02441100711ADDAA124000891GF106991031051008001041061KA1120N+02471MA1999999098421MD1999999+0211REMSYN088AAXX  04004 48331 12565 60000 10260 20244 39842 40071 69974 83546 333 20247 58021 70007;
0154483310999992000060406004+18770+100770FM-12+0201VTCN V0209999C000010450019N0150001N1+03031+02471100671ADDAA124000891GF106991041091008001061061MA1999999098411MD1999999+0261REMSYN076AAXX  04064 48331 32565 60000 10303 20247 39841 40067 84966 333 58026 70007;
0167483310999992000060409004+18770+100770FM-12+0201VTCN V0209999C000012200019N0150001N1+03401+02351100281ADDAA199000091GF103991031091008001001001MA1999999098071MD1999999+0111REMSYN070AAXX  04094 48331 32565 30000 10340 20235 39807 40028 83900 333 58011;EQDQ01  00002PRCP99
0201483310999992000060412004+18770+100770FM-12+0201VTCN V0209999C000010450019N0150001N1+02801+02321100431ADDAA124000891AY191061AY221061GF106991031091008001041061KA1120M+03421MA1999999098171MD1999999+0081MW1031REMSYN088AAXX  04124 48331 31565 60000 10280 20232 39817 40043 70392 83946 333 10342 58008 70007;
0182483310999992000060415004+18770+100770FM-12+0201VTCN V0209999C000010075019N0020001N1+02631+02441100691ADDAA101000891AY121031AY221031GF108991051051008001071999MA1999999098401MD1999999+0121MW1601REMSYN082AAXX  04154 48331 21520 80000 10263 20244 39840 40069 76022 8557/ 333 58012 69985;
0194483310999992000060418004+18770+100770FM-12+0201VTCN V0209999C000010450019N0150001N1+02561+02471100691ADDAA103000591AY161061AY221061GF106991041051008001041061MA1999999098401MD1999999+0081MW1011REMSYN094AAXX  04184 48331 /1565 60000 10256 20247 39840 40069 60013 70162 84546 333 58008 69947 70012;
0182483310999992000060421004+18770+100770FM-12+0201VTCN V0209999C000012200019N0150001N1+02491+02431100721ADDAA103006191AY161031AY221031GF104991031051008001041051MA1999999098421MD1999999+0131MW1211REMSYN082AAXX  04214 48331 21565 40000 10249 20243 39842 40072 72162 83545 333 58013 60067;
0179483310999992000060500004+18770+100770FM-12+0201VTCN V0209999C000011050019N0150001N1+02571+02461100811ADDAA124007191GF106991021061004501071061KA1120N+02411MA1999999098521MD1999999+0101REMSYN088AAXX  05004 48331 12465 60000 10257 20246 39852 40081 60074 82676 333 20241 58010 70067;
0148483310999992000060503004+18770+100770FM-12+0201VTCN V0202401N001011050019N0150001N1+02951+02431100811ADDAA199000021GF105991021021008001051011MA1999999098551MD1999999+0031REMSYN070AAXX  05034 48331 32565 52402 10295 20243 39855 40081 82251 333 58003;
0154483310999992000060506004+18770+100770FM-12+0201VTCN V0201901N001012200019N0150001N1+03131+02541100621ADDAA124006691GF104991021091008001051031MA1999999098381MD1999999-0051REMSYN076AAXX  05064 48331 32565 41902 10313 20254 39838 40062 82953 333 59005 70067;
0148483310999992000060509004+18770+100770FM-12+0201VTCN V0201901N001510450019N0150001N1+03401+02431100381ADDAA199000021GF106991031091008001051031MA1999999098161MD1999999+0101REMSYN070AAXX  05094 48331 32565 61903 10340 20243 39816 40038 83953 333 58010;
0167483310999992000060515004+18770+100770FM-12+0201VTCN V0209999C000012200019N0120001N1+02651+02431100761ADDAA199000091GF102991021001999999051061MA1999999098471MD1999999+0071REMSYN070AAXX  05154 48331 32962 20000 10265 20243 39847 40076 82056 333 58007;EQDQ01  00002PRCP99
0154483310999992000060518004+18770+100770FM-12+0201VTCN V0209999C000012200019N0120001N1+02561+02471100751ADDAA124005691GF104991021051008001051011MA1999999098461MD1999999+0061REMSYN076AAXX  05184 48331 32562 40000 10256 20247 39846 40075 82551 333 58006 70055;
0167483310999992000060521004+18770+100770FM-12+0201VTCN V0209999C000010075019N0120001N1+02531+02471100711ADDAA199000091GF107991051051008001071061MA1999999098411MD1999999-0011REMSYN070AAXX  05214 48331 32562 70000 10253 20247 39841 40071 85576 333 59001;EQDQ01  00002PRCP99
0186483310999992000060600004+18770+100770FM-12+0201VTCN V0209999C000010450019N0150001N1+02571+02451100851ADDAA199000091GF106991031051008001051061KA1120N+02451MA1999999098561MD1999999+0041REMSYN076AAXX  06004 48331 32565 60000 10257 20245 39856 40085 83556 333 20245 58004;EQDQ01  00002PRCP99
0167483310999992000060603004+18770+100770FM-12+0201VTCN V0209999C000012200019N0150001N1+03061+02471100871ADDAA199000091GF103991031051008001001001MA1999999098621MD1999999+0061REMSYN070AAXX  06034 48331 32565 30000 10306 20247 39862 40087 83500 333 58006;EQDQ01  00002PRCP99
0194483310999992000060606004+18770+100770FM-12+0201VTCN V0209999C000012200019N0150001N1+03121+02451100751ADDAA103005191AY161061AY221061GF104991041081008001001001MA1999999098491MD1999999+0131MW1031REMSYN094AAXX  06064 48331 /1565 40000 10312 20245 39849 40075 60051 70362 84800 333 58013 60057 70047;
0167483310999992000060609004+18770+100770FM-12+0201VTCN V0209999C000012200019N0150001N1+03261+02451100461ADDAA199000091GF104991041051008001001001MA1999999098231MD1999999+0081REMSYN070AAXX  06094 48331 32565 40000 10326 20245 39823 40046 84500 333 58008;EQDQ01  00002PRCP99
0173483310999992000060612004+18770+100770FM-12+0201VTCN V0209999C000012200019N0150001N1+03001+02441100511ADDAA124004891GF101991011011008001001001KA1120M+03351MA1999999098261MD1999999-0021REMSYN082AAXX  06124 48331 32565 10000 10300 20244 39826 40051 81100 333 10335 59002 70047;
0167483310999992000060615004+18770+100770FM-12+0201VTCN V0209999C000012200019N0150001N1+02751+02461100781ADDAA199000091GF102991001001999999001011MA1999999098511MD1999999+0021REMSYN070AAXX  06154 48331 32965 20000 10275 20246 39851 40078 80001 333 58002;EQDQ01  00002PRCP99
0167483310999992000060618004+18770+100770FM-12+0201VTCN V0209999C000012200019N0150001N1+02601+02401100831ADDAA199000091GF102991021051008001001001MA1999999098541MD1999999+0081REMSYN070AAXX  06184 48331 32565 20000 10260 20240 39854 40083 82500 333 58008;EQDQ01  00002PRCP99
0167483310999992000060621004+18770+100770FM-12+0201VTCN V0209999C000010450019N0150001N1+02561+02391100791ADDAA199000091GF106991031051008001041061MA1999999098501MD1999999+0081REMSYN070AAXX  06214 48331 32565 60000 10256 20239 39850 40079 83546 333 58008;EQDQ01  00002PRCP99
0179483310999992000060700004+18770+100770FM-12+0201VTCN V0209999C000012200019N0150001N1+02551+02361100891ADDAA124005191GF103991021011008001051011KA1120N+02451MA1999999098591MD1999999+0041REMSYN088AAXX  07004 48331 12565 30000 10255 20236 39859 40089 60054 82151 333 20245 58004 70047;
0167483310999992000060703004+18770+100770FM-12+0201VTCN V0209999C000012200019N0150001N1+03151+02361100851ADDAA199000091GF103991021011008001001011MA1999999098601MD1999999-0021REMSYN070AAXX  07034 48331 32565 30000 10315 20236 39860 40085 82101 333 59002;EQDQ01  00002PRCP99
0167483310999992000060709004+18770+100770FM-12+0201VTCN V0202101N001510450019N0150001N1+03351+02271100441ADDAA199000091GF106991031031008001051061MA1999999098211MD1999999-0021REMSYN070AAXX  07094 48331 32565 62103 10335 20227 39821 40044 83356 333 59002;EQDQ01  00002PRCP99
0213483310999992000060712004+18770+100770FM-12+0201VTCN V0209999C000010450019N0120001N1+02881+02551100481ADDAA102000591AY161061AY221061GF107991041031008001071061KA1120M+03551MA1999999098221MD1999999-0031MW1031REMSYN100AAXX  07124 48331 /1562 70000 10288 20255 39822 40048 69962 70362 84376 333 10355 59003 69966 70006;
0195483310999992000060715004+18770+100770FM-12+0201VTCN V0209999C000010450019N0100001N1+02781+02601100751ADDAA199000091AY121031AY221031GF107991041091008001071061MA1999999098471MD1999999-0031MW1131REMSYN076AAXX  07154 48331 31560 70000 10278 20260 39847 40075 71322 84976 333 59003;EQDQ01  00002PRCP99
0154483310999992000060718004+18770+100770FM-12+0201VTCN V0209999C000010450019N0100001N1+02721+02591100681ADDAA124000591GF106991031051008001071061MA1999999098401MD1999999-0151REMSYN076AAXX  07184 48331 32560 60000 10272 20259 39840 40068 83576 333 59015 70006;
0167483310999992000060721004+18770+100770FM-12+0201VTCN V0209999C000010075019N0100001N1+02681+02561100701ADDAA199000091GF108991051051008001071999MA1999999098421MD1999999-0091REMSYN070AAXX  07214 48331 32560 80000 10268 20256 39842 40070 8557/ 333 59009;EQDQ01  00002PRCP99
0173483310999992000060800004+18770+100770FM-12+0201VTCN V0209999C000010450019N0150001N1+02551+02501100811ADDAA124000591GF108991041051008001041061KA1120N+02401MA1999999098511MD1999999-0081REMSYN082AAXX  08004 48331 12565 80000 10255 20250 39851 40081 69964 84546 333 20240 59008;
0167483310999992000060803004+18770+100770FM-12+0201VTCN V0209999C000012200019N0150001N1+03031+02491100871ADDAA199000091GF104991021051008001041051MA1999999098611MD1999999+0021REMSYN070AAXX  08034 48331 32565 40000 10303 20249 39861 40087 82545 333 58002;EQDQ01  00002PRCP99
0182483310999992000060806004+18770+100770FM-12+0201VTCN V0209999C000010450019N0150001N1+03221+02481100691ADDAA124000591AY191061AY221061GF106991031091008001041061MA1999999098451MD1999999+0051MW1031REMSYN082AAXX  08064 48331 31565 60000 10322 20248 39845 40069 70392 83946 333 58005 70006;
0167483310999992000060809004+18770+100770FM-12+0201VTCN V0209999C000012200019N0150001N1+03131+02411100391ADDAA199000091GF104991031091008001041031MA1999999098811MD1999999-0051REMSYN070AAXX  08094 48331 32565 40000 10313 20241 39881 40039 83943 333 59005;EQDQ01  00002PRCP99
0213483310999992000060812004+18770+100770FM-12+0201VTCN V0209999C000010075019N0030001N1+02671+02351100521ADDAA101000791AY121061AY221061GF108991051051008001071061KA1120M+03451MA1999999098251MD1999999+0041MW1601REMSYN100AAXX  08124 48331 /1530 80000 10267 20235 39825 40052 69902 76022 85576 333 10345 58004 69905 79999;
0182483310999992000060815004+18770+100770FM-12+0201VTCN V0209999C000010450019N0120001N1+02551+02311100721ADDAA103000791AY161031AY221031GF106991031091008001061061MA1999999098431MD1999999-0031MW1011REMSYN082AAXX  08154 48331 21562 60000 10255 20231 39843 40072 70162 83966 333 59003 69907;
0194483310999992000060818004+18770+100770FM-12+0201VTCN V0202401N003610075019N0030001N1+02461+02361100711ADDAA101002091AY121061AY221061GF108991051091008001071071MA1999999098411MD1999999+0031MW1951REMSYN094AAXX  08184 48331 /1530 82407 10246 20236 39841 40071 60023 79522 85977 333 58003 60025 70022;
0182483310999992000060821004+18770+100770FM-12+0201VTCN V0209999C000010042019N0030001N1+02451+02391100681ADDAA103003091AY191031AY221031GF108991081071004501999999MA1999999098381MD1999999-0021MW1611REMSYN082AAXX  08214 48331 21430 80000 10245 20239 39838 40068 76192 887// 333 59002 60037;
0213483310999992000060900004+18770+100770FM-12+0201VTCN V0209999C000010042019N0080001N1+02471+02401100831ADDAA103002091AY191061AY261061GF108991051061004501021999KA1120N+02351MA1999999098531MD1999999+0021MW1611REMSYN100AAXX  09004 48331 /1458 80000 10247 20240 39853 40083 60084 76196 8562/ 333 20235 58002 60027 70080;
0182483310999992000060903004+18770+100770FM-12+0201VTCN V0209999C000010450019N0120001N1+02701+02471100821ADDAA103000191AY161031AY221031GF108991041081008001071999MA1999999098541MD1999999-0051MW1021REMSYN082AAXX  09034 48331 21562 80000 10270 20247 39854 40082 70262 8487/ 333 59005 69927;
0160483310999992000060906004+18770+100770FM-12+0201VTCN V0201801N001010450019N0150001N1+03081+02501100601ADDAA106000191GF107991041081008001071061MA1999999098351MD1999999-0091REMSYN082AAXX  09064 48331 12565 71802 10308 20250 39835 40060 69921 84876 333 59009 70082;
0148483310999992000060909004+18770+100770FM-12+0201VTCN V0201601N001011050019N0150001N1+03061+02491100401ADDAA199000021GF106991021081008001051061MA1999999098161MD1999999+0011REMSYN070AAXX  09094 48331 32565 61602 10306 20249 39816 40040 82856 333 58001;
0173483310999992000060912004+18770+100770FM-12+0201VTCN V0209999C000010450019N0150001N1+02871+02531100451ADDAA124008191GF107991021051008001051061KA1120M+03101MA1999999098191MD1999999-0071REMSYN082AAXX  09124 48331 32565 70000 10287 20253 39819 40045 82556 333 10310 59007 70082;
0167483310999992000060915004+18770+100770FM-12+0201VTCN V0209999C000010450019N0150001N1+02731+02561100651ADDAA199000091GF108991031051008001071061MA1999999098381MD1999999-0071REMSYN070AAXX  09154 48331 32565 80000 10273 20256 39838 40065 83576 333 59007;EQDQ01  00002PRCP99
0154483310999992000060918004+18770+100770FM-12+0201VTCN V0209999C000012200019N0150001N1+02651+02451100601ADDAA124006191GF104991021051008001051061MA1999999098321MD1999999-0111REMSYN076AAXX  09184 48331 32565 40000 10265 20245 39832 40060 82556 333 59011 70060;
0167483310999992000060921004+18770+100770FM-12+0201VTCN V0209999C000010075019N0120001N1+02581+02441100551ADDAA199000091GF108991051051008001071999MA1999999098271MD1999999-0131REMSYN070AAXX  09214 48331 32562 80000 10258 20244 39827 40055 8557/ 333 59013;EQDQ01  00002PRCP99
0173483310999992000061000004+18770+100770FM-12+0201VTCN V0209999C000010075019N0150001N1+02551+02381100721ADDAA124000391GF108991061051008001071061KA1120N+02471MA1999999098431MD1999999-0111REMSYN082AAXX  10004 48331 32565 80000 10255 20238 39843 40072 86576 333 20247 59011 70002;
0167483310999992000061003004+18770+100770FM-12+0201VTCN V0209999C000010075019N0150001N1+02851+02461100871ADDAA199000091GF108991061071008001071061MA1999999098601MD1999999+0051REMSYN070AAXX  10034 48331 32565 80000 10285 20246 39860 40087 86776 333 58005;EQDQ01  00002PRCP99
0167483310999992000061006004+18770+100770FM-12+0201VTCN V0209999C000010120019N0150001N1+03161+02481100631ADDAA199000091GF108991061081008001071061MA1999999098381MD1999999+0031REMSYN070AAXX  10064 48331 32565 80000 10316 20248 39838 40063 86876 333 58003;EQDQ01  00002PRCP99
0167483310999992000061009004+18770+100770FM-12+0201VTCN V0201601N003110075019N0150001N1+03211+02471100381ADDAA199000091GF108991061091008001071061MA1999999098151MD1999999-0021REMSYN070AAXX  10094 48331 32565 81606 10321 20247 39815 40038 86976 333 59002;EQDQ01  00002PRCP99
0186483310999992000061012004+18770+100770FM-12+0201VTCN V0209999C000010450019N0150001N1+02851+02431100501ADDAA199000091GF108991021091008001041061KA1120M+03281MA1999999098241MD1999999+0051REMSYN076AAXX  10124 48331 32565 80000 10285 20243 39824 40050 82946 333 10328 58005;EQDQ01  00002PRCP99
0167483310999992000061015004+18770+100770FM-12+0201VTCN V0209999C000010120019N0150001N1+02651+02521100661ADDAA199000091GF108991061081008001071061MA1999999098381MD1999999+0011REMSYN070AAXX  10154 48331 32565 80000 10265 20252 39838 40066 86876 333 58001;EQDQ01  00002PRCP99
0167483310999992000061018004+18770+100770FM-12+0201VTCN V0209999C000010120019N0150001N1+02651+02521100661ADDAA199000091GF106991051081008001071061MA1999999098511MD1999999+0061REMSYN070AAXX  10184 48331 32565 60000 10265 20252 39851 40066 85876 333 58006;EQDQ01  00002PRCP99
0186483310999992000061100004+18770+100770FM-12+0201VTCN V0209999C000010450019N0150001N1+02501+02341100731ADDAA199000091GF106991031051008001041061KA1120N+02391MA1999999098431MD1999999+0011REMSYN076AAXX  11004 48331 32565 60000 10250 20234 39843 40073 83546 333 20239 58001;EQDQ01  00002PRCP99
0167483310999992000061103004+18770+100770FM-12+0201VTCN V0209999C000010450019N0150001N1+03011+02341100781ADDAA199000091GF106991031051008001041061MA1999999098521MD1999999-0091REMSYN070AAXX  11034 48331 32565 60000 10301 20234 39852 40078 83546 333 59009;EQDQ01  00002PRCP99
0167483310999992000061106004+18770+100770FM-12+0201VTCN V0209999C000010450019N0150001N1+03101+02461100581ADDAA199000091GF106991031051008001041061MA1999999098331MD1999999-0051REMSYN070AAXX  11064 48331 32565 60000 10310 20246 39833 40058 83546 333 59005;EQDQ01  00002PRCP99
0167483310999992000061109004+18770+100770FM-12+0201VTCN V0209999C000010450019N0150001N1+03151+02501100391ADDAA199000091GF106991031051008001041061MA1999999098161MD1999999+0011REMSYN070AAXX  11094 48331 32565 60000 10315 20250 39816 40039 83546 333 58001;EQDQ01  00002PRCP99
0214483310999992000061112004+18770+100770FM-12+0201VTCN V0209999C000010450019N0150001N1+02701+02461100521ADDAA199000091AY191061AY221061GF108991041091008001071061KA1120M+03251MA1999999098251MD1999999+0021MW1031REMSYN082AAXX  11124 48331 31565 80000 10270 20246 39825 40052 70392 84976 333 10325 58002;EQDQ01  00002PRCP99
0167483310999992000061115004+18770+100770FM-12+0201VTCN V0209999C000010075019N0150001N1+02631+02501100761ADDAA199000091GF108991051051008001071061MA1999999098471MD1999999+0101REMSYN070AAXX  11154 48331 32565 80000 10263 20250 39847 40076 85576 333 58010;EQDQ01  00002PRCP99
0167483310999992000061118004+18770+100770FM-12+0201VTCN V0209999C000010450019N0120001N1+02591+02431100681ADDAA199000091GF108991031051008001061071MA1999999098391MD1999999+0021REMSYN070AAXX  11184 48331 32562 80000 10259 20243 39839 40068 83567 333 58002;EQDQ01  00002PRCP99
0167483310999992000061121004+18770+100770FM-12+0201VTCN V0209999C000010450019N0120001N1+02541+02291100611ADDAA199000091GF108991041051008001071061MA1999999098321MD1999999+0021REMSYN070AAXX  11214 48331 32562 80000 10254 20229 39832 40061 84576 333 58002;EQDQ01  00002PRCP99
0186483310999992000061200004+18770+100770FM-12+0201VTCN V0209999C000010450019N0150001N1+02511+02291100731ADDAA199000091GF106991011011008001051011KA1120N+02431MA1999999098441MD1999999+0001REMSYN076AAXX  12004 48331 32565 60000 10251 20229 39844 40073 81151 333 20243 58000;EQDQ01  00002PRCP99
0167483310999992000061203004+18770+100770FM-12+0201VTCN V0201501N001010450019N0150001N1+02911+02341100771ADDAA199000091GF106991011011008001051011MA1999999098511MD1999999-0011REMSYN070AAXX  12034 48331 32565 61502 10291 20234 39851 40077 81151 333 59001;EQDQ01  00002PRCP99
0167483310999992000061206004+18770+100770FM-12+0201VTCN V0201701N001510450019N0150001N1+03171+02391100571ADDAA199000091GF107991031091008001071061MA1999999098331MD1999999-0011REMSYN070AAXX  12064 48331 32565 71703 10317 20239 39833 40057 83976 333 59001;EQDQ01  00002PRCP99
0195483310999992000061209004+18770+100770FM-12+0201VTCN V0202601N001010075019N0150001N1+03101+02461100331ADDAA199000091AY121031AY221031GF107991051091008001071061MA1999999098091MD1999999-0061MW1151REMSYN076AAXX  12094 48331 31565 72602 10310 20246 39809 40033 71522 85976 333 59006;EQDQ01  00002PRCP99
0186483310999992000061212004+18770+100770FM-12+0201VTCN V0209999C000010450019N0150001N1+02841+02451100421ADDAA199000091GF106991041081008001051011KA1120M+03231MA1999999098161MD1999999-0101REMSYN076AAXX  12124 48331 32565 60000 10284 20245 39816 40042 84851 333 10323 59010;EQDQ01  00002PRCP99
0167483310999992000061215004+18770+100770FM-12+0201VTCN V0201401N001010450019N0150001N1+02641+02281100671ADDAA199000091GF106991021051008001071011MA1999999098391MD1999999-0091REMSYN070AAXX  12154 48331 32565 61402 10264 20228 39839 40067 82571 333 59009;EQDQ01  00002PRCP99
0167483310999992000061218004+18770+100770FM-12+0201VTCN V0201801N000510450019N0150001N1+02551+02301100641ADDAA199000091GF106991031051008001051011MA1999999098351MD1999999-0041REMSYN070AAXX  12184 48331 32565 61801 10255 20230 39835 40064 83551 333 59004;EQDQ01  00002PRCP99
0167483310999992000061221004+18770+100770FM-12+0201VTCN V0209999C000010120019N0150001N1+02491+02281100611ADDAA199000091GF108991051081008001071999MA1999999098321MD1999999+0001REMSYN070AAXX  12214 48331 32565 80000 10249 20228 39832 40061 8587/ 333 58000;EQDQ01  00002PRCP99
0186483310999992000061300004+18770+100770FM-12+0201VTCN V0209999C000010075019N0150001N1+02491+02271100731ADDAA199000091GF108991051071008001071999KA1120N+02401MA1999999098431MD1999999+0001REMSYN076AAXX  13004 48331 32565 80000 10249 20227 39843 40073 8577/ 333 20240 58000;EQDQ01  00002PRCP99
0167483310999992000061306004+18770+100770FM-12+0201VTCN V0209999C000010120019N0150001N1+03141+02421100611ADDAA199000091GF106991051081008001041061MA1999999098361MD1999999+0041REMSYN070AAXX  13064 48331 32565 60000 10314 20242 39836 40061 85846 333 58004;EQDQ01  00002PRCP99
0167483310999992000061309004+18770+100770FM-12+0201VTCN V0201801N002610450019N0150001N1+03191+02401100421ADDAA199000091GF105991031081008001041051MA1999999098191MD1999999+0091REMSYN070AAXX  13094 48331 32565 51805 10319 20240 39819 40042 83845 333 58009;EQDQ01  00002PRCP99
0186483310999992000061312004+18770+100770FM-12+0201VTCN V0209999C000010450019N0150001N1+02801+02281100531ADDAA199000091GF105991041081008001041051KA1120M+03231MA1999999098261MD1999999+0111REMSYN076AAXX  13124 48331 32565 50000 10280 20228 39826 40053 84845 333 10323 58011;EQDQ01  00002PRCP99
0167483310999992000061315004+18770+100770FM-12+0201VTCN V0209999C000010075019N0150001N1+02601+02371100771ADDAA199000091GF106991061051008001071061MA1999999098481MD1999999+0101REMSYN070AAXX  13154 48331 32565 60000 10260 20237 39848 40077 86576 333 58010;EQDQ01  00002PRCP99
0167483310999992000061318004+18770+100770FM-12+0201VTCN V0209999C000010450019N0150001N1+02591+02371100721ADDAA199000091GF105991041051008001041051MA1999999098431MD1999999+0081REMSYN070AAXX  13184 48331 32565 50000 10259 20237 39843 40072 84545 333 58008;EQDQ01  00002PRCP99
0167483310999992000061321004+18760+100770FM-12+0201VTCN V0209999C000010075019N0150001N1+02551+02391100551ADDAA199000091GF108991061051008001071061MA1999999098271MD1999999-0061REMSYN070AAXX  13214 48331 32565 80000 10255 20239 39827 40055 86576 333 59006;EQDQ01  00002PRCP99
0186483310999992000061400004+18760+100770FM-12+0201VTCN V0209999C000010450019N0150001N1+02571+02411100671ADDAA199000091GF108991031051008001071071KA1120N+02461MA1999999098381MD1999999-0061REMSYN076AAXX  14004 48331 32565 80000 10257 20241 39838 40067 83577 333 20246 59006;EQDQ01  00002PRCP99
0167483310999992000061403004+18760+100770FM-12+0201VTCN V0209999C000010450019N0150001N1+02961+02381100701ADDAA199000091GF108991041051008001071061MA1999999098441MD1999999-0131REMSYN070AAXX  14034 48331 32565 80000 10296 20238 39844 40070 84576 333 59013;EQDQ01  00002PRCP99
0167483310999992000061406004+18760+100770FM-12+0201VTCN V0209999C000010450019N0150001N1+03181+02441100531ADDAA199000091GF106991031091008001041061MA1999999098301MD1999999-0081REMSYN070AAXX  14064 48331 32565 60000 10318 20244 39830 40053 83946 333 59008;EQDQ01  00002PRCP99
0167483310999992000061409004+18760+100770FM-12+0201VTCN V0209999C000010450019N0150001N1+03301+02451100291ADDAA199000091GF106991031051008001041061MA1999999098061MD1999999-0131REMSYN070AAXX  14094 48331 32565 60000 10330 20245 39806 40029 83546 333 59013;EQDQ01  00002PRCP99
0186483310999992000061412004+18760+100770FM-12+0201VTCN V0209999C000010075019N0150001N1+02951+02511100221ADDAA199000091GF108991051051008001071061KA1120M+03351MA1999999098111MD1999999-0311REMSYN076AAXX  14124 48331 32565 80000 10295 20251 39811 40022 85576 333 10335 59031;EQDQ01  00002PRCP99
0182483310999992000061415004+18760+100770FM-12+0201VTCN V0209999C000010075019N0050001N1+02641+02451100651ADDAA103001091AY161031AY221031GF108991061051008001071999MA1999999098361MD1999999-0121MW1611REMSYN082AAXX  14154 48331 21550 80000 10264 20245 39836 40065 76162 8657/ 333 59012 60017;
0194483310999992000061418004+18760+100770FM-12+0201VTCN V0209999C000010450019N0120001N1+02551+02391100521ADDAA103002091AY161061AY221061GF106991041051008001061061MA1999999098241MD1999999-0201MW1011REMSYN094AAXX  14184 48331 /1562 60000 10255 20239 39824 40052 60033 70162 84566 333 59020 60027 70030;
0148483310999992000061421004+18760+100770FM-12+0201VTCN V0209999C000010450019N0120001N1+02521+02441100471ADDAA199000021GF106991031051008001041061MA1999999098191MD1999999-0081REMSYN070AAXX  14214 48331 32562 60000 10252 20244 39819 40047 83546 333 59008;
0179483310999992000061500004+18760+100770FM-12+0201VTCN V0209999C000010450019N0150001N1+02551+02391100541ADDAA124003091GF107991031061008001071011KA1120N+02451MA1999999098261MD1999999-0131REMSYN088AAXX  15004 48331 12565 70000 10255 20239 39826 40054 60034 83671 333 20245 59013 70030;
0148483310999992000061503004+18760+100770FM-12+0201VTCN V0202301N001010120019N0150001N1+02901+02441100591ADDAA199000021GF107991051081008001071011MA1999999098331MD1999999-0111REMSYN070AAXX  15034 48331 32565 72302 10290 20244 39833 40059 85871 333 59011;
0194483310999992000061506004+18760+100770FM-12+0201VTCN V0201401N002112200019N0150001N1+03051+02521100401ADDAA103000791AY161061AY221061GF104991021091008001051031MA1999999098161MD1999999-0131MW1011REMSYN094AAXX  15064 48331 /1565 41404 10305 20252 39816 40040 69901 70162 82953 333 59013 69907 70030;
0182483310999992000061509004+18760+100770FM-12+0201VTCN V0209999C000010075019N0100001N1+02481+02411100311ADDAA102007991AY191031AY261031GF108991051071008001021999MA1999999098021MD1999999+0021MW1601REMSYN082AAXX  15094 48331 21560 80000 10248 20241 39802 40031 76096 8572/ 333 58002 60086;
0213483310999992000061512004+18760+100770FM-12+0201VTCN V0209999C000010450019N0120001N1+02551+02431100321ADDAA103000191AY191061AY261061GF108991031051008001071999KA1120M+03101MA1999999098041MD1999999-0031MW1021REMSYN100AAXX  15124 48331 /1562 80000 10255 20243 39804 40032 60082 70296 8357/ 333 10310 59003 69917 70106;
0182483310999992000061515004+18760+100770FM-12+0201VTCN V0209999C000010450019N0120001N1+02511+02431100491ADDAA102000591AY161031AY221031GF107991021051008001071061MA1999999098201MD1999999-0161MW1011REMSYN082AAXX  15154 48331 21562 70000 10251 20243 39820 40049 70162 82576 333 59016 69956;
0160483310999992000061518004+18760+100770FM-12+0201VTCN V0209999C000010450019N0120001N1+02501+02421100491ADDAA118007991GF108991031051008001071999MA1999999098201MD1999999-0031REMSYN082AAXX  15184 48331 12562 80000 10250 20242 39820 40049 60083 8357/ 333 59003 70081;
0148483310999992000061521004+18760+100770FM-12+0201VTCN V0209999C000010450019N0120001N1+02501+02421100371ADDAA199000021GF108991041051008001071999MA1999999098091MD1999999-0101REMSYN070AAXX  15214 48331 32562 80000 10250 20242 39809 40037 8457/ 333 59010;
0173483310999992000061600004+18760+100770FM-12+0201VTCN V0209999C000010450019N0150001N1+02551+02391100471ADDAA124008191GF106991041051008001041051KA1120N+02401MA1999999098191MD1999999-0071REMSYN082AAXX  16004 48331 32565 60000 10255 20239 39819 40047 84545 333 20240 59007 70081;
0167483310999992000061603004+18760+100770FM-12+0201VTCN V0201801N002610075019N0150001N1+03001+02441100521ADDAA199000091GF106991051051008001051051MA1999999098281MD1999999-0071REMSYN070AAXX  16034 48331 32565 61805 10300 20244 39828 40052 85555 333 59007;EQDQ01  00002PRCP99
0194483310999992000061606004+18760+100770FM-12+0201VTCN V0209999C000010120019N0100001N1+03151+02421100371ADDAA101000791AY121061AY221061GF107991061081008001071061MA1999999098141MD1999999-0031MW1601REMSYN094AAXX  16064 48331 /1560 70000 10315 20242 39814 40037 69901 76022 86876 333 59003 69905 70081;
0182483310999992000061609004+18760+100770FM-12+0201VTCN V0209999C000010075019N0150001N1+03101+02381100141ADDAA103000791AY161031AY221031GF106991051091008001071061MA1999999097901MD1999999-0171MW1011REMSYN082AAXX  16094 48331 21565 60000 10310 20238 39790 40014 70162 85976 333 59017 69907;
0173483310999992000061612004+18760+100770FM-12+0201VTCN V0209999C000010450019N0150001N1+02801+02421100221ADDAA124000791GF108991041051008001071061KA1120M+03241MA1999999097951MD1999999-0101REMSYN082AAXX  16124 48331 32565 80000 10280 20242 39795 40022 84576 333 10324 59010 79999;
0148483310999992000061615004+18760+100770FM-12+0201VTCN V0209999C000010450019N0150001N1+02641+02421100501ADDAA199000021GF105991031051008001041051MA1999999098231MD1999999+0011REMSYN070AAXX  16154 48331 32565 50000 10264 20242 39823 40050 83545 333 58001;
0167483310999992000061621004+18760+100770FM-12+0201VTCN V0209999C000010075019N0120001N1+02521+02401100371ADDAA199000091GF108991071051008001071061MA1999999098081MD1999999+0001REMSYN070AAXX  16214 48331 32562 80000 10252 20240 39808 40037 87576 333 58000;EQDQ01  00002PRCP99
0179483310999992000061700004+18760+100770FM-12+0201VTCN V0209999C000010075019N0120001N1+02561+02441100471ADDAA124000791GF108991061051008001071071KA1120N+02451MA1999999098191MD1999999+0001REMSYN088AAXX  17004 48331 12562 80000 10256 20244 39819 40047 69904 86577 333 20245 58000 79999;
0167483310999992000061703004+18760+100770FM-12+0201VTCN V0209999C000010075019N0120001N1+02761+02381100611ADDAA199000091GF108991061051008001071061MA1999999098331MD1999999+0091REMSYN070AAXX  17034 48331 32562 80000 10276 20238 39833 40061 86576 333 58009;EQDQ01  00002PRCP99
0154483310999992000061706004+18760+100770FM-12+0201VTCN V0209999C000010450019N0120001N1+02991+02441100471ADDAA124000791GF106991031051008001041061MA1999999098221MD1999999+0101REMSYN076AAXX  17064 48331 32562 60000 10299 20244 39822 40047 83546 333 58010 79999;
0167483310999992000061709004+18760+100770FM-12+0201VTCN V0209999C000012200019N0150001N1+03041+02481100231ADDAA199000091GF104991021051008001041031MA1999999098001MD1999999+0091REMSYN070AAXX  17094 48331 32565 40000 10304 20248 39800 40023 82543 333 58009;EQDQ01  00002PRCP99
0186483310999992000061712004+18760+100770FM-12+0201VTCN V0209999C000012200019N0120001N1+02871+02331100281ADDAA199000091GF103991031091008001001001KA1120M+03201MA1999999098031MD1999999+0061REMSYN076AAXX  17124 48331 32562 30000 10287 20233 39803 40028 83900 333 10320 58006;EQDQ01  00002PRCP99
0195483310999992000061715004+18760+100770FM-12+0201VTCN V0209999C000010450019N0120001N1+02601+02371100591ADDAA199000091AY121031AY201031GF106991041091008001041061MA1999999098311MD1999999+0091MW1131REMSYN076AAXX  17154 48331 31562 60000 10260 20237 39831 40059 71320 84946 333 58009;EQDQ01  00002PRCP99
0167483310999992000061721004+18760+100770FM-12+0201VTCN V0209999C000010075019N0120001N1+02461+02371100571ADDAA199000091GF108991051051008001071999MA1999999098281MD1999999+0201REMSYN070AAXX  17214 48331 32562 80000 10246 20237 39828 40057 8557/ 333 58020;EQDQ01  00002PRCP99
0186483310999992000061800004+18760+100770FM-12+0201VTCN V0209999C000010450019N0100001N1+02531+02371100681ADDAA199000091GF107991021051008001071011KA1120N+02401MA1999999098391MD1999999+0211REMSYN076AAXX  18004 48331 32560 70000 10253 20237 39839 40068 82571 333 20240 58021;EQDQ01  00002PRCP99
0167483310999992000061803004+18760+100770FM-12+0201VTCN V0202101N001010450019N0150001N1+03041+02411100681ADDAA199000091GF106991021011008001051021MA1999999098421MD1999999+0071REMSYN070AAXX  18034 48331 32565 62102 10304 20241 39842 40068 82152 333 58007;EQDQ01  00002PRCP99
0167483310999992000061806004+18760+100770FM-12+0201VTCN V0201501N001010450019N0150001N1+03181+02441100511ADDAA199000091GF106991031091008001071061MA1999999098271MD1999999+0041REMSYN070AAXX  18064 48331 32565 61502 10318 20244 39827 40051 83976 333 58004;EQDQ01  00002PRCP99
0167483310999992000061809004+18760+100770FM-12+0201VTCN V0203101N001510450019N0150001N1+03201+02511100281ADDAA199000091GF106991031091008001051031MA1999999098051MD1999999+0051REMSYN070AAXX  18094 48331 32565 63103 10320 20251 39805 40028 83953 333 58005;EQDQ01  00002PRCP99
0186483310999992000061812004+18760+100770FM-12+0201VTCN V0209999C000011050019N0150001N1+02861+02461100341ADDAA199000091GF106991021021008001051061KA1120M+03281MA1999999098081MD1999999+0061REMSYN076AAXX  18124 48331 32565 60000 10286 20246 39808 40034 82256 333 10328 58006;EQDQ01  00002PRCP99
0167483310999992000061815004+18760+100770FM-12+0201VTCN V0209999C000010450019N0150001N1+02701+02471100571ADDAA199000091GF107991021041008001071061MA1999999098291MD1999999-0021REMSYN070AAXX  18154 48331 32565 70000 10270 20247 39829 40057 82476 333 59002;EQDQ01  00002PRCP99
0195483310999992000061818004+18760+100770FM-12+0201VTCN V0209999C000010075019N0120001N1+02631+02431100541ADDAA199000091AY121061AY221061GF108991051091008001071061MA1999999098261MD1999999-0051MW1171REMSYN076AAXX  18184 48331 31562 80000 10263 20243 39826 40054 71722 85976 333 59005;EQDQ01  00002PRCP99
0182483310999992000061821004+18760+100770FM-12+0201VTCN V0209999C000010450019N0060001N1+02591+02511100501ADDAA102002091AY191031AY291031GF108991041091008001071999MA1999999098221MD1999999-0071MW1611REMSYN082AAXX  18214 48331 21556 80000 10259 20251 39822 40050 76199 8497/ 333 59007 60026;
0213483310999992000061900004+18760+100770FM-12+0201VTCN V0209999C000010042019N0020001N1+02451+02441100651ADDAA103036191AY191061AY261061GF108991061091004501071999KA1120N+02401MA1999999098351MD1999999-0081MW1951REMSYN100AAXX  19004 48331 /1420 80000 10245 20244 39835 40065 60384 79596 8697/ 333 20240 59008 60367 70379;
0182483310999992000061903004+18760+100770FM-12+0201VTCN V0209999C000010042019N0030001N1+02371+02361100811ADDAA103036191AY191031AY261031GF108991081071004501999999MA1999999098511MD1999999+0131MW1611REMSYN082AAXX  19034 48331 21430 80000 10237 20236 39851 40081 76196 887// 333 58013 60367;
0194483310999992000061906004+18760+100770FM-12+0201VTCN V0209999C000010075019N0080001N1+02541+02431100681ADDAA103005191AY191061AY261061GF108991061071008001071999MA1999999098381MD1999999+0171MW1611REMSYN094AAXX  19064 48331 /1558 80000 10254 20243 39838 40068 60411 76196 8677/ 333 58017 60057 70787;
0182483310999992000061909004+18760+100770FM-12+0201VTCN V0209999C000010075019N0150001N1+02851+02521100361ADDAA103000791AY161031AY221031GF107991051051008001071061MA1999999098101MD1999999+0081MW1011REMSYN082AAXX  19094 48331 21565 70000 10285 20252 39810 40036 70162 85576 333 58008 69907;
0207483310999992000061912004+18760+100770FM-12+0201VTCN V0209999C000010450019N0150001N1+02731+02531100361ADDAA112040991AY161061AY221061GF105991041091008001041051KA1120M+02851MA1999999098091MD1999999+0021MW1011REMSYN094AAXX  19124 48331 11565 50000 10273 20253 39809 40036 60412 70162 84945 333 10285 58002 70787;
0148483310999992000061915004+18760+100770FM-12+0201VTCN V0209999C000012200019N0150001N1+02561+02481100631ADDAA199000021GF103991031051008001041011MA1999999098331MD1999999+0061REMSYN070AAXX  19154 48331 32565 30000 10256 20248 39833 40063 83541 333 58006;
0154483310999992000061918004+18760+100770FM-12+0201VTCN V0209999C000010450019N0120001N1+02501+02421100571ADDAA124078791GF105991041051008001041061MA1999999098291MD1999999+0031REMSYN076AAXX  19184 48331 32562 50000 10250 20242 39829 40057 84546 333 58003 70787;
0195483310999992000061921004+18760+100770FM-12+0201VTCN V0209999C000010042019N0040001N1+02471+02441100511ADDAA199000091AY141031AY221031GF108991081061004501999999MA1999999098221MD1999999+0011MW1101REMSYN076AAXX  19214 48331 31440 80000 10247 20244 39822 40051 71042 886// 333 58001;EQDQ01  00002PRCP99
0179483310999992000062000004+18760+100770FM-12+0201VTCN V0209999C000010450019N0120001N1+02551+02441100621ADDAA124040991GF108991041051008001071061KA1120N+02411MA1999999098331MD1999999-0031REMSYN088AAXX  20004 48331 12562 80000 10255 20244 39833 40062 60414 84576 333 20241 59003 70408;
0167483310999992000062003004+18760+100770FM-12+0201VTCN V0209999C000010450019N0150001N1+02941+02511100721ADDAA199000091GF106991031051008001041061MA1999999098451MD1999999-0091REMSYN070AAXX  20034 48331 32565 60000 10294 20251 39845 40072 83546 333 59009;EQDQ01  00002PRCP99
0154483310999992000062006004+18760+100770FM-12+0201VTCN V0209999C000010450019N0150001N1+03231+02491100481ADDAA124004891GF106991041051008001041061MA1999999098251MD1999999-0201REMSYN076AAXX  20064 48331 32565 60000 10323 20249 39825 40048 84546 333 59020 70048;
0182483310999992000062009004+18760+100770FM-12+0201VTCN V0209999C000010075019N0100001N1+02771+02361100411ADDAA101000191AY121031AY221031GF108991061091008001071999MA1999999098151MD1999999+0051MW1951REMSYN082AAXX  20094 48331 21560 80000 10277 20236 39815 40041 79522 8697/ 333 58005 69925;
0213483310999992000062012004+18760+100770FM-12+0201VTCN V0209999C000010075019N0120001N1+02531+02351100511ADDAA102002091AY191061AY221061GF108991051051008001071061KA1120M+03311MA1999999098211MD1999999-0151MW1021REMSYN100AAXX  20124 48331 /1562 80000 10253 20235 39821 40051 60032 70292 85576 333 10331 59015 60026 70026;
0182483310999992000062015004+18760+100770FM-12+0201VTCN V0209999C000010075019N0100001N1+02491+02391100731ADDAA103000591AY161031AY221031GF108991061051008001071999MA1999999098431MD1999999+0101MW1021REMSYN082AAXX  20154 48331 21560 80000 10249 20239 39843 40073 70262 8657/ 333 58010 69957;
0148483310999992000062021004+18760+100770FM-12+0201VTCN V0209999C000010450019N0120001N1+02441+02381100641ADDAA199000021GF108991041051008001071061MA1999999098331MD1999999+0131REMSYN070AAXX  20214 48331 32562 80000 10244 20238 39833 40064 84576 333 58013;
0207483310999992000062100004+18760+100770FM-12+0201VTCN V0209999C000010450019N0080001N1+02521+02401100701ADDAA124003091AY121061AY221061GF107991031061004501071061KA1120N+02361MA1999999098411MD1999999+0081MW1101REMSYN094AAXX  21004 48331 11458 70000 10252 20240 39841 40070 60034 71022 83676 333 20236 58008 70031;
0167483310999992000062103004+18760+100770FM-12+0201VTCN V0209999C000010450019N0120001N1+02901+02531100811ADDAA199000091GF106991041051008001041061MA1999999098541MD1999999-0091REMSYN070AAXX  21034 48331 32562 60000 10290 20253 39854 40081 84546 333 59009;EQDQ01  00002PRCP99
0194483310999992000062106004+18760+100770FM-12+0201VTCN V0201801N001510075019N0060001N1+02551+02471100691ADDAA101007191AY161061AY221061GF108991061091008001021999MA1999999098411MD1999999+0231MW1951REMSYN094AAXX  21064 48331 /1556 81803 10255 20247 39841 40069 60071 79562 8692/ 333 58023 60075 70097;
0182483310999992000062109004+18760+100770FM-12+0201VTCN V0209999C000010450019N0150001N1+02821+02571100481ADDAA103003091AY191031AY261031GF108991021021008001071061MA1999999098221MD1999999+0071MW1021REMSYN082AAXX  21094 48331 21565 80000 10282 20257 39822 40048 70296 82276 333 58007 60037;
0207483310999992000062112004+18760+100770FM-12+0201VTCN V0209999C000010450019N0150001N1+02731+02441100631ADDAA112009991AY191061AY221061GF108991021051008001051071KA1120M+03101MA1999999098351MD1999999+0141MW1021REMSYN094AAXX  21124 48331 11565 80000 10273 20244 39835 40063 60102 70292 82557 333 10310 58014 70127;
0148483310999992000062115004+18760+100770FM-12+0201VTCN V0209999C000010450019N0150001N1+02571+02411100811ADDAA199000021GF108991021051008001071061MA1999999098521MD1999999+0081REMSYN070AAXX  21154 48331 32565 80000 10257 20241 39852 40081 82576 333 58008;
0154483310999992000062118004+18760+100770FM-12+0201VTCN V0209999C000010450019N0150001N1+02521+02411100781ADDAA124009991GF108991021051008001071999MA1999999098491MD1999999+0081REMSYN076AAXX  21184 48331 32565 80000 10252 20241 39849 40078 8257/ 333 58008 70098;
0167483310999992000062121004+18760+100770FM-12+0201VTCN V0209999C000010450019N0150001N1+02501+02421100751ADDAA199000091GF108991041051008001071999MA1999999098451MD1999999+0111REMSYN070AAXX  21214 48331 32565 80000 10250 20242 39845 40075 8457/ 333 58011;EQDQ01  00002PRCP99
0213483310999992000062200004+18760+100770FM-12+0201VTCN V0209999C000010075019N0060001N1+02501+02421100901ADDAA101000791AY121061AY221061GF108991081071008001999999KA1120N+02421MA1999999098601MD1999999+0201MW1601REMSYN100AAXX  22004 48331 /1556 80000 10250 20242 39860 40090 60104 76022 887// 333 20242 58020 69905 70098;
0182483310999992000062203004+18760+100770FM-12+0201VTCN V0202001N001510075019N0150001N1+02871+02451100921ADDAA103000791AY161031AY221031GF107991061051008001071061MA1999999098651MD1999999+0111MW1011REMSYN082AAXX  22034 48331 21565 72003 10287 20245 39865 40092 70162 86576 333 58011 69907;
0188483310999992000062206004+18760+100770FM-12+0201VTCN V0209999C000010120019N0150001N1+03131+02471100791ADDAA106000791AY161061AY221061GF107991061081008001071061MA1999999098541MD1999999+0091MW1021REMSYN088AAXX  22064 48331 11565 70000 10313 20247 39854 40079 69901 70262 86876 333 58009 70032;
0148483310999992000062209004+18760+100770FM-12+0201VTCN V0209999C000010450019N0150001N1+03161+02481100551ADDAA199000021GF106991031091008001041061MA1999999098321MD1999999+0071REMSYN070AAXX  22094 48331 32565 60000 10316 20248 39832 40055 83946 333 58007;
0173483310999992000062212004+18760+100770FM-12+0201VTCN V0209999C000010075019N0150001N1+03031+02411100531ADDAA124000791GF106991051091008001041061KA1120M+03221MA1999999098281MD1999999-0101REMSYN082AAXX  22124 48331 32565 60000 10303 20241 39828 40053 85946 333 10322 59010 79999;
0167483310999992000062215004+18760+100770FM-12+0201VTCN V0209999C000010075019N0150001N1+02791+02501100791ADDAA199000091GF106991051051008001041061MA1999999098511MD1999999-0021REMSYN070AAXX  22154 48331 32565 60000 10279 20250 39851 40079 85546 333 59002;EQDQ01  00002PRCP99
0154483310999992000062218004+18760+100770FM-12+0201VTCN V0209999C000010075019N0150001N1+02651+02361100721ADDAA124000791GF106991061051008001041061MA1999999098441MD1999999-0061REMSYN076AAXX  22184 48331 32565 60000 10265 20236 39844 40072 86546 333 59006 79999;
0167483310999992000062221004+18760+100770FM-12+0201VTCN V0209999C000010075019N0150001N1+02561+02391100691ADDAA199000091GF107991061051008001071061MA1999999098401MD1999999-0061REMSYN070AAXX  22214 48331 32565 70000 10256 20239 39840 40069 86576 333 59006;EQDQ01  00002PRCP99
0179483310999992000062300004+18760+100770FM-12+0201VTCN V0209999C000010450019N0150001N1+02591+02401100831ADDAA124000791GF108991041051008001061071KA1120N+02471MA1999999098541MD1999999-0071REMSYN088AAXX  23004 48331 12565 80000 10259 20240 39854 40083 69904 84567 333 20247 59007 79999;
0167483310999992000062303004+18760+100770FM-12+0201VTCN V0209999C000010450019N0150001N1+02891+02401100871ADDAA199000091GF106991031051008001041061MA1999999098601MD1999999-0051REMSYN070AAXX  23034 48331 32565 60000 10289 20240 39860 40087 83546 333 59005;EQDQ01  00002PRCP99
0154483310999992000062306004+18760+100770FM-12+0201VTCN V0209999C000010450019N0150001N1+03071+02311100671ADDAA124000791GF106991031051008001041061MA1999999098421MD1999999-0121REMSYN076AAXX  23064 48331 32565 60000 10307 20231 39842 40067 83546 333 59012 79999;
0167483310999992000062309004+18760+100770FM-12+0201VTCN V0209999C000010450019N0150001N1+03101+02501100321ADDAA199000091GF106991031051008001041061MA1999999098091MD1999999-0231REMSYN070AAXX  23094 48331 32565 60000 10310 20250 39809 40032 83546 333 59023;EQDQ01  00002PRCP99
0213483310999992000062312004+18760+100770FM-12+0201VTCN V0209999C000010075019N0060001N1+02601+02481100521ADDAA103006191AY161061AY221061GF108991061051008001071999KA1120M+03241MA1999999098251MD1999999-0011MW1611REMSYN100AAXX  23124 48331 /1556 80000 10260 20248 39825 40052 60062 76162 8657/ 333 10324 59001 60067 70056;
0182483310999992000062315004+18760+100770FM-12+0201VTCN V0209999C000010042019N0040001N1+02531+02481100691ADDAA103003091AY161031AY261031GF106991061051004501071999MA1999999098391MD1999999-0101MW1611REMSYN082AAXX  23154 48331 21440 60000 10253 20248 39839 40069 76166 8657/ 333 59010 60037;
0182483310999992000062321004+18760+100770FM-12+0201VTCN V0209999C000010042019N0040001N1+02471+02411100541ADDAA101000791AY121031AY221031GF108991061051004501071999MA1999999098261MD1999999-0151MW1601REMSYN082AAXX  23214 48331 21440 80000 10247 20241 39826 40054 76022 8657/ 333 59015 69905;
0213483310999992000062400004+18760+100770FM-12+0201VTCN V0209999C000010450019N0100001N1+02451+02381100661ADDAA101000591AY161061AY221061GF108991031051008001021999KA1120N+02351MA1999999098371MD1999999-0171MW1601REMSYN100AAXX  24004 48331 /1560 80000 10245 20238 39837 40066 60114 76062 8352/ 333 20235 59017 69945 70109;
0182483310999992000062403004+18760+100770FM-12+0201VTCN V0201601N001510450019N0150001N1+02771+02421100691ADDAA103000191AY161031AY221031GF107991031051008001071061MA1999999098421MD1999999-0181MW1011REMSYN082AAXX  24034 48331 21565 71603 10277 20242 39842 40069 70162 83576 333 59018 69917;
0160483310999992000062406004+18760+100770FM-12+0201VTCN V0201801N002610450019N0150001N1+03071+02441100531ADDAA106000191GF106991031031008001071061MA1999999098281MD1999999-0141REMSYN082AAXX  24064 48331 12565 61805 10307 20244 39828 40053 69911 83376 333 59014 70110;
0148483310999992000062409004+18760+100770FM-12+0201VTCN V0209999C000012200019N0150001N1+03251+02311100201ADDAA199000021GF104991021021008001051021MA1999999097971MD1999999-0121REMSYN070AAXX  24094 48331 32565 40000 10325 20231 39797 40020 82252 333 59012;
0173483310999992000062412004+18760+100770FM-12+0201VTCN V0201501N001510450019N0150001N1+02851+02421100271ADDAA124005391GF106991021051008001051011KA1120M+03261MA1999999098011MD1999999-0251REMSYN082AAXX  24124 48331 32565 61503 10285 20242 39801 40027 82551 333 10326 59025 70054;
0167483310999992000062415004+18760+100770FM-12+0201VTCN V0209999C000010450019N0150001N1+02651+02361100541ADDAA199000091GF106991021051008001051011MA1999999098261MD1999999-0151REMSYN070AAXX  24154 48331 32565 60000 10265 20236 39826 40054 82551 333 59015;EQDQ01  00002PRCP99
0154483310999992000062418004+18760+100770FM-12+0201VTCN V0209999C000010075019N0150001N1+02601+02401100471ADDAA124000591GF108991051051008001071999MA1999999098191MD1999999-0111REMSYN076AAXX  24184 48331 32565 80000 10260 20240 39819 40047 8557/ 333 59011 70006;
0167483310999992000062421004+18760+100770FM-12+0201VTCN V0209999C000010450019N0150001N1+02531+02321100431ADDAA199000091GF108991041051008001071999MA1999999098151MD1999999-0111REMSYN070AAXX  24214 48331 32565 80000 10253 20232 39815 40043 8457/ 333 59011;EQDQ01  00002PRCP99
0173483310999992000062500004+18760+100770FM-12+0201VTCN V0209999C000010075019N0150001N1+02521+02301100531ADDAA124000191GF107991061071008001071061KA1120N+02421MA1999999098251MD1999999-0131REMSYN082AAXX  25004 48331 32565 70000 10252 20230 39825 40053 86776 333 20242 59013 70001;
0167483310999992000062503004+18760+100770FM-12+0201VTCN V0209999C000010075019N0150001N1+02911+02341100641ADDAA199000091GF107991061051008001071061MA1999999098371MD1999999-0051REMSYN070AAXX  25034 48331 32565 70000 10291 20234 39837 40064 86576 333 59005;EQDQ01  00002PRCP99
0167483310999992000062506004+18760+100770FM-12+0201VTCN V0209999C000010120019N0150001N1+03151+02431100491ADDAA199000091GF106991051081008001071061MA1999999098261MD1999999-0041REMSYN070AAXX  25064 48331 32565 60000 10315 20243 39826 40049 85876 333 59004;EQDQ01  00002PRCP99
0167483310999992000062509004+18760+100770FM-12+0201VTCN V0201801N002110450019N0150001N1+03131+02431100271ADDAA199000091GF106991041091008001041051MA1999999098031MD1999999+0071REMSYN070AAXX  25094 48331 32565 61804 10313 20243 39803 40027 84945 333 58007;EQDQ01  00002PRCP99
0186483310999992000062512004+18760+100770FM-12+0201VTCN V0209999C000012200019N0150001N1+02901+02481100321ADDAA199000091GF104991031091008001041051KA1120M+03221MA1999999098071MD1999999+0051REMSYN076AAXX  25124 48331 32565 40000 10290 20248 39807 40032 83945 333 10322 58005;EQDQ01  00002PRCP99
0167483310999992000062515004+18760+100770FM-12+0201VTCN V0209999C000012200019N0150001N1+02721+02431100531ADDAA199000091GF102991021051008001001011MA1999999098261MD1999999-0011REMSYN070AAXX  25154 48331 32565 20000 10272 20243 39826 40053 82501 333 59001;EQDQ01  00002PRCP99
0167483310999992000062518004+18760+100770FM-12+0201VTCN V0201801N001512200019N0150001N1+02601+02301100511ADDAA199000091GF103991031051008001001011MA1999999098231MD1999999+0041REMSYN070AAXX  25184 48331 32565 31803 10260 20230 39823 40051 83501 333 58004;EQDQ01  00002PRCP99
0167483310999992000062521004+18760+100770FM-12+0201VTCN V0209999C000010075019N0150001N1+02561+02271100451ADDAA199000091GF106991051051008001071051MA1999999098181MD1999999+0021REMSYN070AAXX  25214 48331 32565 60000 10256 20227 39818 40045 85575 333 58002;EQDQ01  00002PRCP99
0186483310999992000062600004+18760+100770FM-12+0201VTCN V0201601N001510450019N0150001N1+02531+02241100681ADDAA199000091GF108991031051008001041071KA1120N+02431MA1999999098381MD1999999+0151REMSYN076AAXX  26004 48331 32565 81603 10253 20224 39838 40068 83547 333 20243 58015;EQDQ01  00002PRCP99
0167483310999992000062603004+18760+100770FM-12+0201VTCN V0201601N001510450019N0150001N1+02701+02271100741ADDAA199000091GF108991041051008001071999MA1999999098451MD1999999+0101REMSYN070AAXX  26034 48331 32565 81603 10270 20227 39845 40074 8457/ 333 58010;EQDQ01  00002PRCP99
0167483310999992000062606004+18760+100770FM-12+0201VTCN V0201401N002110450019N0150001N1+02951+02371100551ADDAA199000091GF106991041051008001041061MA1999999098301MD1999999+0061REMSYN070AAXX  26064 48331 32565 61404 10295 20237 39830 40055 84546 333 58006;EQDQ01  00002PRCP99
0167483310999992000062609004+18760+100770FM-12+0201VTCN V0209999C000010450019N0150001N1+03001+02411100391ADDAA199000091GF106991031091008001041061MA1999999098141MD1999999+0121REMSYN070AAXX  26094 48331 32565 60000 10300 20241 39814 40039 83946 333 58012;EQDQ01  00002PRCP99
0186483310999992000062612004+18760+100770FM-12+0201VTCN V0209999C000010450019N0150001N1+02801+02411100441ADDAA199000091GF105991031051008001041051KA1120M+03011MA1999999098161MD1999999+0121REMSYN076AAXX  26124 48331 32565 50000 10280 20241 39816 40044 83545 333 10301 58012;EQDQ01  00002PRCP99
0182483310999992000062615004+18760+100770FM-12+0201VTCN V0209999C000010075019N0040001N1+02561+02471100721ADDAA103004191AY161031AY221031GF108991081071008001999999MA1999999098431MD1999999+0191MW1611REMSYN082AAXX  26154 48331 21540 80000 10256 20247 39843 40072 76162 887// 333 58019 60047;
0194483310999992000062618004+18760+100770FM-12+0201VTCN V0209999C000010042019N0020001N1+02451+02421100671ADDAA103009991AY161061AY221061GF108991081071004501999999MA1999999098371MD1999999+0161MW1611REMSYN094AAXX  26184 48331 /1420 80000 10245 20242 39837 40067 60143 76162 887// 333 58016 60107 70135;
0182483310999992000062621004+18760+100770FM-12+0201VTCN V0209999C000010075019N0040001N1+02411+02311100611ADDAA103006191AY161031AY261031GF108991051051008001071071MA1999999098321MD1999999+0161MW1611REMSYN082AAXX  26214 48331 21540 80000 10241 20231 39832 40061 76166 85577 333 58016 60067;
0213483310999992000062700004+18760+100770FM-12+0201VTCN V0209999C000010450019N0080001N1+02341+02281100791ADDAA103007191AY161061AY261061GF108991041061008001021999KA1120N+02251MA1999999098481MD1999999+0111MW1611REMSYN100AAXX  27004 48331 /1558 80000 10234 20228 39848 40079 60274 76166 8462/ 333 20225 58011 60077 70266;
0182483310999992000062703004+18760+100770FM-12+0201VTCN V0209999C000010450019N0080001N1+02441+02341100881ADDAA103002091AY161031AY261031GF108991021061004501021999MA1999999098581MD1999999+0141MW1611REMSYN082AAXX  27034 48331 21458 80000 10244 20234 39858 40088 76166 8262/ 333 58014 60027;
0194483310999992000062706004+18760+100770FM-12+0201VTCN V0201801N001010042019N0120001N1+02621+02391100751ADDAA103001091AY161061AY261061GF108991051061004501071999MA1999999098471MD1999999+0201MW1021REMSYN094AAXX  27064 48331 /1462 81802 10262 20239 39847 40075 60031 70266 8567/ 333 58020 60017 70300;
0182483310999992000062709004+18760+100770FM-12+0201VTCN V0202001N002110450019N0150001N1+02851+02341100651ADDAA103000391AY161031AY221031GF106991031031008001071061MA1999999098381MD1999999+0261MW1011REMSYN082AAXX  27094 48331 21565 62004 10285 20234 39838 40065 70162 83376 333 58026 69937;
0179483310999992000062712004+18760+100770FM-12+0201VTCN V0209999C000011050019N0150001N1+02681+02411100561ADDAA112004191GF106991021081008001051061KA1120M+02921MA1999999098291MD1999999+0141REMSYN088AAXX  27124 48331 12565 60000 10268 20241 39829 40056 60042 82856 333 10292 58014 70303;
0148483310999992000062715004+18760+100770FM-12+0201VTCN V0209999C000010450019N0150001N1+02601+02441100801ADDAA199000021GF108991031051008001071999MA1999999098521MD1999999+0081REMSYN070AAXX  27154 48331 32565 80000 10260 20244 39852 40080 8357/ 333 58008;
0154483310999992000062718004+18760+100770FM-12+0201VTCN V0209999C000010450019N0150001N1+02521+02401100801ADDAA124016891GF108991031051008001071999MA1999999098501MD1999999+0131REMSYN076AAXX  27184 48331 32565 80000 10252 20240 39850 40080 8357/ 333 58013 70168;
0167483310999992000062721004+18760+100770FM-12+0201VTCN V0209999C000010450019N0150001N1+02501+02411100751ADDAA199000091GF108991031051008001071999MA1999999098451MD1999999+0141REMSYN070AAXX  27214 48331 32565 80000 10250 20241 39845 40075 8357/ 333 58014;EQDQ01  00002PRCP99
0173483310999992000062800004+18760+100770FM-12+0201VTCN V0209999C000010075019N0150001N1+02471+02341100851ADDAA124003891GF108991061051008001071061KA1120N+02371MA1999999098551MD1999999+0061REMSYN082AAXX  28004 48331 32565 80000 10247 20234 39855 40085 86576 333 20237 58006 70037;
0167483310999992000062803004+18760+100770FM-12+0201VTCN V0209999C000010075019N0150001N1+02981+02371100921ADDAA199000091GF106991061051008001041061MA1999999098661MD1999999+0041REMSYN070AAXX  28034 48331 32565 60000 10298 20237 39866 40092 86546 333 58004;EQDQ01  00002PRCP99
0182483310999992000062806004+18760+100770FM-12+0201VTCN V0209999C000012200019N0150001N1+03001+02361100731ADDAA124000391AY121061AY221061GF104991041081008001001051MA1999999098471MD1999999-0021MW1151REMSYN082AAXX  28064 48331 31565 40000 10300 20236 39847 40073 71522 84805 333 59002 70003;
0167483310999992000062809004+18760+100770FM-12+0201VTCN V0209999C000010450019N0150001N1+03281+02241100431ADDAA199000091GF105991031091008001041031MA1999999098201MD1999999-0221REMSYN070AAXX  28094 48331 32565 50000 10328 20224 39820 40043 83943 333 59022;EQDQ01  00002PRCP99
0186483310999992000062812004+18760+100770FM-12+0201VTCN V0209999C000012200019N0150001N1+02951+02351100421ADDAA199000091GF103991021091008001041031KA1120M+03241MA1999999098181MD1999999-0141REMSYN076AAXX  28124 48331 32565 30000 10295 20235 39818 40042 82943 333 10324 59014;EQDQ01  00002PRCP99
0167483310999992000062815004+18760+100770FM-12+0201VTCN V0209999C000012200019N0150001N1+02691+02461100711ADDAA199000091GF102991001001999999001051MA1999999098431MD1999999-0091REMSYN070AAXX  28154 48331 32965 20000 10269 20246 39843 40071 80005 333 59009;EQDQ01  00002PRCP99
0177483310999992000062818004+18760+100770FM-12+0201VTCN V0209999C000012200019N0150001N1+02561+02401100701ADDAA199000091GA1001+999999999GF100991001001999999001001MA1999999098411MD1999999-0101REMSYN064AAXX  28184 48331 32965 00000 10256 20240 39841 40070 333 59010;EQDQ01  00002PRCP99
0182483310999992000062821004+18760+100770FM-12+0201VTCN V0209999C000010075019N0100001N1+02531+02391100641ADDAA101000791AY111031AY201031GF106991051051008001071051MA1999999098341MD1999999-0111MW1601REMSYN082AAXX  28214 48331 21560 60000 10253 20239 39834 40064 76010 85575 333 59011 69905;
0179483310999992000062900004+18760+100770FM-12+0201VTCN V0209999C000012200019N0150001N1+02571+02381100701ADDAA124000791GF103991031051008001001001KA1120N+02421MA1999999098411MD1999999-0151REMSYN088AAXX  29004 48331 12565 30000 10257 20238 39841 40070 69904 83500 333 20242 59015 79999;
0148483310999992000062903004+18760+100770FM-12+0201VTCN V0209999C000012200019N0150001N1+03091+02401100701ADDAA199000021GF103991021051008001001051MA1999999098441MD1999999-0221REMSYN070AAXX  29034 48331 32565 30000 10309 20240 39844 40070 82505 333 59022;
0154483310999992000062906004+18760+100770FM-12+0201VTCN V0209999C000012200019N0150001N1+03371+02411100451ADDAA124000791GF104991031091008001041031MA1999999098231MD1999999-0281REMSYN076AAXX  29064 48331 32565 40000 10337 20241 39823 40045 83943 333 59028 79999;
0148483310999992000062909004+18760+100770FM-12+0201VTCN V0209999C000012200019N0150001N1+03301+02521100191ADDAA199000021GF102991021091008001001001MA1999999097971MD1999999-0241REMSYN070AAXX  29094 48331 32565 20000 10330 20252 39797 40019 82900 333 59024;
0195483310999992000062915004+18760+100770FM-12+0201VTCN V0209999C000010450019N0150001N1+02801+02521100571ADDAA199000091AY121031AY201031GF105991031091008001041031MA1999999098311MD1999999-0141MW1171REMSYN076AAXX  29154 48331 31565 50000 10280 20252 39831 40057 71720 83943 333 59014;EQDQ01  00002PRCP99
0194483310999992000062918004+18760+100770FM-12+0201VTCN V0209999C000010075019N0020001N1+02631+02521100571ADDAA102002091AY191061AY221061GF108991061051008001071999MA1999999098291MD1999999-0131MW1611REMSYN094AAXX  29184 48331 /1520 80000 10263 20252 39829 40057 60023 76192 8657/ 333 59013 60026 70024;
0182483310999992000062921004+18760+100770FM-12+0201VTCN V0209999C000010075019N0120001N1+02581+02471100481ADDAA103000591AY161031AY221031GF108991051051008001071999MA1999999098191MD1999999-0161MW1021REMSYN082AAXX  29214 48331 21562 80000 10258 20247 39819 40048 70262 8557/ 333 59016 69957;
0207483310999992000063000004+18760+100770FM-12+0201VTCN V0209999C000010450019N0120001N1+02551+02441100601ADDAA124003091AY161061AY221061GF108991021011008001071999KA1120N+02451MA1999999098311MD1999999-0101MW1021REMSYN094AAXX  30004 48331 11562 80000 10255 20244 39831 40060 60034 70262 8217/ 333 20245 59010 70029;
0148483310999992000063003004+18760+100770FM-12+0201VTCN V0209999C000010450019N0120001N1+02751+02481100731ADDAA199000021GF108991021081008001071999MA1999999098451MD1999999+0031REMSYN070AAXX  30034 48331 32562 80000 10275 20248 39845 40073 8287/ 333 58003;
0154483310999992000063006004+18760+100770FM-12+0201VTCN V0209999C000010450019N0150001N1+03141+02621100561ADDAA124002891GF107991011031008001071061MA1999999098321MD1999999+0111REMSYN076AAXX  30064 48331 32565 70000 10314 20262 39832 40056 81376 333 58011 70029;
0167483310999992000063009004+18760+100770FM-12+0201VTCN V0209999C000011050019N0150001N1+03271+02491100271ADDAA199000091GF106991011031008001011061MA1999999098051MD1999999+0081REMSYN070AAXX  30094 48331 32565 60000 10327 20249 39805 40027 81316 333 58008;EQDQ01  00002PRCP99
0173483310999992000063012004+18760+100770FM-12+0201VTCN V0209999C000011050019N0150001N1+02961+02531100361ADDAA124002891GF106991011021008001051061KA1120M+03301MA1999999098111MD1999999+0111REMSYN082AAXX  30124 48331 32565 60000 10296 20253 39811 40036 81256 333 10330 58011 70029;
0195483310999992000063015004+18760+100770FM-12+0201VTCN V0201801N002610075019N0100001N1+02771+02411100731ADDAA199000091AY121031AY221031GF108991051091008001071999MA1999999098451MD1999999+0161MW1171REMSYN076AAXX  30154 48331 31560 81805 10277 20241 39845 40073 71722 8597/ 333 58016;EQDQ01  00002PRCP99
0194483310999992000063018004+18760+100770FM-12+0201VTCN V0209999C000010450019N0120001N1+02351+02121100711ADDAA103000791AY191061AY261061GF108991041051008001071999MA1999999098411MD1999999+0141MW1021REMSYN094AAXX  30184 48331 /1562 80000 10235 20212 39841 40071 69903 70296 8457/ 333 58014 69907 70005;
0167483310999992000063021004+18760+100770FM-12+0201VTCN V0209999C000011050019N0120001N1+02351+02201100641ADDAA199000091GF106991021051008001071061MA1999999098341MD1999999+0161REMSYN070AAXX  30214 48331 32562 60000 10235 20220 39834 40064 82576 333 58016;EQDQ01  00002PRCP99
0201483310999992000070100004+18760+100770FM-12+0201VTCN V0209999C000010042019N0060001N1+02311+02221100741ADDAA124000791AY121061AY221061GF106991061061004501071051KA1120N+02201MA1999999098431MD1999999+0141MW1101REMSYN088AAXX  01004 48331 31456 60000 10231 20222 39843 40074 71022 86675 333 20220 58014 79999;
0167483310999992000070103004+18760+100770FM-12+0201VTCN V0209999C000012200019N0150001N1+02821+02321100741ADDAA199000091GF102991021011008001001011MA1999999098461MD1999999+0011REMSYN070AAXX  01034 48331 32565 20000 10282 20232 39846 40074 82101 333 58001;EQDQ01  00002PRCP99
0154483310999992000070106004+18760+100770FM-12+0201VTCN V0209999C000012200019N0150001N1+03271+02471100491ADDAA124000791GF102991021021008001001011MA1999999098261MD1999999-0071REMSYN076AAXX  01064 48331 32565 20000 10327 20247 39826 40049 82201 333 59007 79999;
0167483310999992000070109004+18760+100770FM-12+0201VTCN V0209999C000012200019N0150001N1+03551+02411100161ADDAA199000091GF103991021091008001041031MA1999999097961MD1999999-0111REMSYN070AAXX  01094 48331 32565 30000 10355 20241 39796 40016 82943 333 59011;EQDQ01  00002PRCP99
0173483310999992000070112004+18760+100770FM-12+0201VTCN V0209999C000012200019N0150001N1+02801+02361100231ADDAA124000791GF102991021091008001001011KA1120M+03601MA1999999097971MD1999999-0131REMSYN082AAXX  01124 48331 32565 20000 10280 20236 39797 40023 82901 333 10360 59013 79999;
0167483310999992000070115004+18760+100770FM-12+0201VTCN V0209999C000012200019N0150001N1+02631+02381100501ADDAA199000091GF101991001001999999001011MA1999999098221MD1999999-0231REMSYN070AAXX  01154 48331 32965 10000 10263 20238 39822 40050 80001 333 59023;EQDQ01  00002PRCP99
0177483310999992000070118004+18760+100770FM-12+0201VTCN V0209999C000012200019N0120001N1+02551+02391100501ADDAA199000091GA1001+999999999GF100991001001999999001001MA1999999098231MD1999999-0211REMSYN064AAXX  01184 48331 32962 00000 10255 20239 39823 40050 333 59021;EQDQ01  00002PRCP99
0177483310999992000070121004+18760+100770FM-12+0201VTCN V0209999C000012200019N0120001N1+02471+02371100491ADDAA199000091GA1001+999999999GF100991001001999999001001MA1999999098201MD1999999-0151REMSYN064AAXX  01214 48331 32962 00000 10247 20237 39820 40049 333 59015;EQDQ01  00002PRCP99
0186483310999992000070200004+18760+100770FM-12+0201VTCN V0209999C000010450019N0120001N1+02491+02401100591ADDAA199000091GF106991041051008001041061KA1120N+02441MA1999999098301MD1999999-0151REMSYN076AAXX  02004 48331 32562 60000 10249 20240 39830 40059 84546 333 20244 59015;EQDQ01  00002PRCP99
0167483310999992000070203004+18760+100770FM-12+0201VTCN V0209999C000012200019N0150001N1+02951+02491100631ADDAA199000091GF102991021051008001001001MA1999999098371MD1999999-0111REMSYN070AAXX  02034 48331 32565 20000 10295 20249 39837 40063 82500 333 59011;EQDQ01  00002PRCP99
0167483310999992000070206004+18760+100770FM-12+0201VTCN V0209999C000012200019N0150001N1+03361+02201100311ADDAA199000091GF102991021051008001001001MA1999999098101MD1999999-0181REMSYN070AAXX  02064 48331 32565 20000 10336 20220 39810 40031 82500 333 59018;EQDQ01  00002PRCP99
0167483310999992000070209004+18760+100770FM-12+0201VTCN V0209999C000012200019N0150001N1+03601+02331100021ADDAA199000091GF102991021091008001001001MA1999999097821MD1999999-0141REMSYN070AAXX  02094 48331 32565 20000 10360 20233 39782 40002 82900 333 59014;EQDQ01  00002PRCP99
0186483310999992000070212004+18760+100770FM-12+0201VTCN V0209999C000012200019N0150001N1+03251+02391100031ADDAA199000091GF103991031081008001001001KA1120M+03681MA1999999097811MD1999999-0201REMSYN076AAXX  02124 48331 32565 30000 10325 20239 39781 40003 83800 333 10368 59020;EQDQ01  00002PRCP99
0195483310999992000070215004+18760+100770FM-12+0201VTCN V0209999C000012200019N0150001N1+02901+02471100251ADDAA199000091AY111031AY201031GF104991041091008001001001MA1999999098001MD1999999-0251MW1131REMSYN076AAXX  02154 48331 31565 40000 10290 20247 39800 40025 71310 84900 333 59025;EQDQ01  00002PRCP99
0195483310999992000070218004+18760+100770FM-12+0201VTCN V0209999C000012200019N0120001N1+02751+02521100321ADDAA199000091AY111061AY211061GF104991041091008001001001MA1999999098061MD1999999-0181MW1131REMSYN076AAXX  02184 48331 31562 40000 10275 20252 39806 40032 71311 84900 333 59018;EQDQ01  00002PRCP99
0195483310999992000070221004+18760+100770FM-12+0201VTCN V0209999C000010450019N0120001N1+02681+02451100351ADDAA199000091AY121031AY211031GF108991041091008001061071MA1999999098081MD1999999-0141MW1131REMSYN076AAXX  02214 48331 31562 80000 10268 20245 39808 40035 71321 84967 333 59014;EQDQ01  00002PRCP99
0214483310999992000070300004+18760+100770FM-12+0201VTCN V0200301N001011050019N0150001N1+02561+02311100461ADDAA199000091AY191061AY291061GF105991021061008001071061KA1120N+02411MA1999999098181MD1999999-0131MW1011REMSYN082AAXX  03004 48331 31565 50302 10256 20231 39818 40046 70199 82676 333 20241 59013;EQDQ01  00002PRCP99
0167483310999992000070303004+18760+100770FM-12+0201VTCN V0203101N001012200019N0150001N1+03141+02421100451ADDAA199000091GF102991011021008001051011MA1999999098211MD1999999-0181REMSYN070AAXX  03034 48331 32565 23102 10314 20242 39821 40045 81251 333 59018;EQDQ01  00002PRCP99
0167483310999992000070306004+18760+100770FM-12+0201VTCN V0209999C000012200019N0150001N1+03431+02401100231ADDAA199000091GF101991011031008001001011MA1999999098021MD1999999-0081REMSYN070AAXX  03064 48331 32565 10000 10343 20240 39802 40023 81301 333 59008;EQDQ01  00002PRCP99
0167483310999992000070309004+18760+100770FM-12+0201VTCN V0209999C000012200019N0150001N1+03651+02311099931ADDAA199000091GF102991021091008001001031MA1999999097741MD1999999-0091REMSYN070AAXX  03094 48331 32565 20000 10365 20231 39774 49993 82903 333 59009;EQDQ01  00002PRCP99
0186483310999992000070312004+18760+100770FM-12+0201VTCN V0209999C000012200019N0120001N1+03221+02481099981ADDAA199000091GF103991021051008001041011KA1120M+03691MA1999999097761MD1999999-0051REMSYN076AAXX  03124 48331 32562 30000 10322 20248 39776 49998 82541 333 10369 59005;EQDQ01  00002PRCP99
0167483310999992000070315004+18760+100770FM-12+0201VTCN V0209999C000012200019N0120001N1+02901+02591100261ADDAA199000091GF102991001001999999001011MA1999999098011MD1999999+0011REMSYN070AAXX  03154 48331 32962 20000 10290 20259 39801 40026 80001 333 58001;EQDQ01  00002PRCP99
0177483310999992000070318004+18760+100770FM-12+0201VTCN V0209999C000012200019N0120001N1+02701+02491100311ADDAA199000091GA1001+999999999GF100991001001999999001001MA1999999098041MD1999999-0011REMSYN064AAXX  03184 48331 32962 00000 10270 20249 39804 40031 333 59001;EQDQ01  00002PRCP99
0167483310999992000070321004+18760+100770FM-12+0201VTCN V0209999C000012200019N0120001N1+02611+02441100301ADDAA199000091GF102991021001999999051001MA1999999098021MD1999999-0051REMSYN070AAXX  03214 48331 32962 20000 10261 20244 39802 40030 82050 333 59005;EQDQ01  00002PRCP99
0214483310999992000070400004+18760+100770FM-12+0201VTCN V0209999C000010042019N0060001N1+02601+02481100341ADDAA199000091AY111061AY201061GF107991071061004501001051KA1120N+02491MA1999999098071MD1999999-0121MW1101REMSYN082AAXX  04004 48331 31456 70000 10260 20248 39807 40034 71010 87605 333 20249 59012;EQDQ01  00002PRCP99
0167483310999992000070403004+18760+100770FM-12+0201VTCN V0209999C000012200019N0150001N1+03171+02581100361ADDAA199000091GF102991021011008001001011MA1999999098131MD1999999-0091REMSYN070AAXX  04034 48331 32565 20000 10317 20258 39813 40036 82101 333 59009;EQDQ01  00002PRCP99
0167483310999992000070406004+18760+100770FM-12+0201VTCN V0209999C000012200019N0150001N1+03391+02561100191ADDAA199000091GF104991041081008001001011MA1999999097971MD1999999-0041REMSYN070AAXX  04064 48331 32565 40000 10339 20256 39797 40019 84801 333 59004;EQDQ01  00002PRCP99
0214483310999992000070412004+18760+100770FM-12+0201VTCN V0209999C000010075019N0150001N1+03001+02311100021ADDAA199000091AY191061AY221061GF106991051051008001071061KA1120M+03541MA1999999097781MD1999999+0041MW1031REMSYN082AAXX  04124 48331 31565 60000 10300 20231 39778 40002 70392 85576 333 10354 58004;EQDQ01  00002PRCP99
0167483310999992000070415004+18760+100770FM-12+0201VTCN V0209999C000012200019N0150001N1+02751+02401100291ADDAA199000091GF104991041051008001001051MA1999999098031MD1999999+0031REMSYN070AAXX  04154 48331 32565 40000 10275 20240 39803 40029 84505 333 58003;EQDQ01  00002PRCP99
0194483310999992000070418004+18760+100770FM-12+0201VTCN V0209999C000010075019N0040001N1+02641+02391100291ADDAA101000591AY121061AY221061GF108991061091008001071999MA1999999098021MD1999999-0021MW1951REMSYN094AAXX  04184 48331 /1540 80000 10264 20239 39802 40029 69943 79522 8697/ 333 59002 69945 70004;
0207483310999992000070500004+18760+100770FM-12+0201VTCN V0209999C000010075019N0150001N1+02341+02281100531ADDAA124020191AY191061AY221061GF108991051051008001071999KA1120N+02251MA1999999098231MD1999999+0191MW1021REMSYN094AAXX  05004 48331 11565 80000 10234 20228 39823 40053 60204 70292 8557/ 333 20225 58019 70199;
0148483310999992000070503004+18760+100770FM-12+0201VTCN V0209999C000010450019N0150001N1+02711+02391100591ADDAA199000021GF107991041051008001041061MA1999999098301MD1999999+0231REMSYN070AAXX  05034 48331 32565 70000 10271 20239 39830 40059 84546 333 58023;
0154483310999992000070506004+18760+100770FM-12+0201VTCN V0209999C000010450019N0150001N1+02941+02471100411ADDAA124019891GF106991031051008001041061MA1999999098151MD1999999+0221REMSYN076AAXX  05064 48331 32565 60000 10294 20247 39815 40041 83546 333 58022 70199;
0167483310999992000070509004+18760+100770FM-12+0201VTCN V0209999C000010450019N0150001N1+03121+02461100111ADDAA199000091GF105991031051008001041061MA1999999097871MD1999999+0171REMSYN070AAXX  05094 48331 32565 50000 10312 20246 39787 40011 83546 333 58017;EQDQ01  00002PRCP99
0173483310999992000070512004+18760+100770FM-12+0201VTCN V0209999C000012200019N0150001N1+02851+02521100201ADDAA124019891GF104991021051008001041051KA1120M+03171MA1999999097951MD1999999-0181REMSYN082AAXX  05124 48331 32565 40000 10285 20252 39795 40020 82545 333 10317 59018 70199;
0167483310999992000070515004+18760+100770FM-12+0201VTCN V0209999C000012200019N0150001N1+02681+02441100401ADDAA199000091GF104991031051008001041051MA1999999098131MD1999999+0151REMSYN070AAXX  05154 48331 32565 40000 10268 20244 39813 40040 83545 333 58015;EQDQ01  00002PRCP99
0186483310999992000070600004+18760+100770FM-12+0201VTCN V0209999C000010075019N0120001N1+02521+02401100561ADDAA199000091GF108991051061008001071999KA1120N+02401MA1999999098271MD1999999+0031REMSYN076AAXX  06004 48331 32562 80000 10252 20240 39827 40056 8567/ 333 20240 58003;EQDQ01  00002PRCP99
0167483310999992000070603004+18760+100770FM-12+0201VTCN V0209999C000010120019N0120001N1+02871+02411100601ADDAA199000091GF108991061081008001071999MA1999999098371MD1999999+0011REMSYN070AAXX  06034 48331 32562 80000 10287 20241 39837 40060 8687/ 333 58001;EQDQ01  00002PRCP99
0167483310999992000070606004+18760+100770FM-12+0201VTCN V0201401N001011050019N0150001N1+03171+02461100451ADDAA199000091GF106991021011008001071061MA1999999098211MD1999999+0041REMSYN070AAXX  06064 48331 32565 61402 10317 20246 39821 40045 82176 333 58004;EQDQ01  00002PRCP99
0167483310999992000070609004+18760+100770FM-12+0201VTCN V0201601N001011050019N0150001N1+03301+02451100181ADDAA199000091GF105991021021008001041061MA1999999097961MD1999999+0071REMSYN070AAXX  06094 48331 32565 51602 10330 20245 39796 40018 82246 333 58007;EQDQ01  00002PRCP99
0167483310999992000070615004+18760+100770FM-12+0201VTCN V0209999C000011050019N0150001N1+02751+02461100551ADDAA199000091GF106991021051008001051061MA1999999098281MD1999999+0151REMSYN070AAXX  06154 48331 32565 60000 10275 20246 39828 40055 82556 333 58015;EQDQ01  00002PRCP99
0167483310999992000070618004+18760+100770FM-12+0201VTCN V0209999C000011050019N0150001N1+02601+02301100521ADDAA199000091GF106991021061008001071061MA1999999098241MD1999999+0081REMSYN070AAXX  06184 48331 32565 60000 10260 20230 39824 40052 82676 333 58008;EQDQ01  00002PRCP99
0167483310999992000070621004+18760+100770FM-12+0201VTCN V0209999C000012200019N0150001N1+02501+02261100531ADDAA199000091GF103991021051008001051061MA1999999098241MD1999999+0131REMSYN070AAXX  06214 48331 32565 30000 10250 20226 39824 40053 82556 333 58013;EQDQ01  00002PRCP99
0186483310999992000070700004+18760+100770FM-12+0201VTCN V0209999C000012200019N0150001N1+02531+02321100631ADDAA199000091GF102991011011008001001011KA1120N+02351MA1999999098341MD1999999+0071REMSYN076AAXX  07004 48331 32565 20000 10253 20232 39834 40063 81101 333 20235 58007;EQDQ01  00002PRCP99
0167483310999992000070703004+18760+100770FM-12+0201VTCN V0209999C000012200019N0150001N1+03101+02381100621ADDAA199000091GF103991031051008001001011MA1999999098371MD1999999+0021REMSYN070AAXX  07034 48331 32565 30000 10310 20238 39837 40062 83501 333 58002;EQDQ01  00002PRCP99
0167483310999992000070706004+18760+100770FM-12+0201VTCN V0201801N001512200019N0150001N1+03271+02271100401ADDAA199000091GF104991041081008001001011MA1999999098181MD1999999-0051REMSYN070AAXX  07064 48331 32565 41803 10327 20227 39818 40040 84801 333 59005;EQDQ01  00002PRCP99
0167483310999992000070709004+18760+100770FM-12+0201VTCN V0209999C000012200019N0150001N1+03391+02291100131ADDAA199000091GF104991031081008001001011MA1999999097921MD1999999-0051REMSYN070AAXX  07094 48331 32565 40000 10339 20229 39792 40013 83801 333 59005;EQDQ01  00002PRCP99
0186483310999992000070712004+18760+100770FM-12+0201VTCN V0209999C000012200019N0150001N1+02881+02391100211ADDAA199000091GF103991021081008001001011KA1120M+03421MA1999999097961MD1999999-0061REMSYN076AAXX  07124 48331 32565 30000 10288 20239 39796 40021 82801 333 10342 59006;EQDQ01  00002PRCP99
0167483310999992000070715004+18760+100770FM-12+0201VTCN V0209999C000012200019N0150001N1+02661+02381100481ADDAA199000091GF104991041051008001001011MA1999999098221MD1999999-0071REMSYN070AAXX  07154 48331 32565 40000 10266 20238 39822 40048 84501 333 59007;EQDQ01  00002PRCP99
0167483310999992000070718004+18760+100770FM-12+0201VTCN V0209999C000010075019N0150001N1+02631+02401100461ADDAA199000091GF106991061051008001041051MA1999999098191MD1999999-0061REMSYN070AAXX  07184 48331 32565 60000 10263 20240 39819 40046 86545 333 59006;EQDQ01  00002PRCP99
0167483310999992000070721004+18760+100770FM-12+0201VTCN V0209999C000010075019N0150001N1+02611+02421100381ADDAA199000091GF106991061051008001071061MA1999999098101MD1999999-0151REMSYN070AAXX  07214 48331 32565 60000 10261 20242 39810 40038 86576 333 59015;EQDQ01  00002PRCP99
0186483310999992000070800004+18760+100770FM-12+0201VTCN V0201501N001510450019N0150001N1+02601+02351100451ADDAA199000091GF107991041051008001071061KA1120N+02501MA1999999098171MD1999999-0181REMSYN076AAXX  08004 48331 32565 71503 10260 20235 39817 40045 84576 333 20250 59018;EQDQ01  00002PRCP99
0167483310999992000070803004+18760+100770FM-12+0201VTCN V0201201N001010450019N0150001N1+02981+02431100481ADDAA199000091GF106991041051008001051061MA1999999098221MD1999999-0141REMSYN070AAXX  08034 48331 32565 61202 10298 20243 39822 40048 84556 333 59014;EQDQ01  00002PRCP99
0167483310999992000070806004+18760+100770FM-12+0201VTCN V0202001N001510075019N0150001N1+03081+02391100331ADDAA199000091GF108991051021008001071999MA1999999098091MD1999999-0071REMSYN070AAXX  08064 48331 32565 82003 10308 20239 39809 40033 8527/ 333 59007;EQDQ01  00002PRCP99
0182483310999992000070809004+18760+100770FM-12+0201VTCN V0202101N001010450019N0150001N1+03121+02451100041ADDAA103000791AY161031AY221031GF106991031081008001051061MA1999999097811MD1999999-0091MW1011REMSYN082AAXX  08094 48331 21565 62102 10312 20245 39781 40004 70162 83856 333 59009 69907;
0213483310999992000070812004+18760+100770FM-12+0201VTCN V0201601N001010450019N0120001N1+02811+02511100131ADDAA102003091AY181061AY221061GF107991041021008001071061KA1120M+03151MA1999999097881MD1999999+0111MW1251REMSYN100AAXX  08124 48331 /1562 71602 10281 20251 39788 40013 60032 72582 84276 333 10315 58011 60036 70034;
0182483310999992000070815004+18760+100770FM-12+0201VTCN V0209999C000010450019N0080001N1+02481+02421100441ADDAA102005191AY161031AY221031GF108991041071008001021999MA1999999098151MD1999999-0041MW1611REMSYN082AAXX  08154 48331 21558 80000 10248 20242 39815 40044 76162 8472/ 333 59004 60056;
0194483310999992000070818004+18760+100770FM-12+0201VTCN V0209999C000010450019N0080001N1+02451+02381100351ADDAA103005191AY161061AY261061GF108991031051008001021999MA1999999098061MD1999999-0111MW1611REMSYN094AAXX  08184 48331 /1558 80000 10245 20238 39806 40035 60143 76166 8352/ 333 59011 60057 70137;
0182483310999992000070821004+18760+100770FM-12+0201VTCN V0209999C000010450019N0120001N1+02451+02411100251ADDAA103001091AY161031AY221031GF108991021061004501021999MA1999999097971MD1999999-0131MW1021REMSYN082AAXX  08214 48331 21462 80000 10245 20241 39797 40025 70262 8262/ 333 59013 60017;
0213483310999992000070900004+18760+100770FM-12+0201VTCN V0209999C000010042019N0100001N1+02441+02381100331ADDAA103000591AY161061AY221061GF108991081071004501999999KA1120N+02351MA1999999098041MD1999999-0121MW1611REMSYN100AAXX  09004 48331 /1460 80000 10244 20238 39804 40033 60154 76162 887// 333 20235 59012 69947 70152;
0182483310999992000070903004+18760+100770FM-12+0201VTCN V0209999C000010042019N0150001N1+02601+02371100381ADDAA103000591AY161031AY261031GF108991081071004501999999MA1999999098101MD1999999-0101MW1611REMSYN082AAXX  09034 48331 21465 80000 10260 20237 39810 40038 76166 887// 333 59010 69947;
0194483310999992000070906004+18760+100770FM-12+0201VTCN V0209999C000010042019N0040001N1+02621+02431100361ADDAA103000891AY161061AY221061GF108991081071004501999999MA1999999098081MD1999999+0031MW1611REMSYN094AAXX  09064 48331 /1440 80000 10262 20243 39808 40036 60011 76162 887// 333 58003 69987 70164;
0182483310999992000070909004+18760+100770FM-12+0201VTCN V0209999C000010042019N0040001N1+02611+02491100151ADDAA103003091AY161031AY261031GF108991081071004501999999MA1999999097881MD1999999+0111MW1611REMSYN082AAXX  09094 48331 21440 80000 10261 20249 39788 40015 76166 887// 333 58011 60037;
0176483310999992000070915004+18760+100770FM-12+0201VTCN V0209999C000010042019N0080001N1+02561+02471100311ADDAA199000021AY121031AY221031GF108991071071004501071999MA1999999098041MD1999999-0131MW1101REMSYN076AAXX  09154 48331 31458 80000 10256 20247 39804 40031 71022 8777/ 333 59013;
0182483310999992000070918004+18760+100770FM-12+0201VTCN V0209999C000010042019N0080001N1+02531+02421100251ADDAA124006191AY121061AY221061GF108991071071004501071999MA1999999097971MD1999999-0101MW1101REMSYN082AAXX  09184 48331 31458 80000 10253 20242 39797 40025 71022 8777/ 333 59010 70062;
0176483310999992000070921004+18760+100770FM-12+0201VTCN V0209999C000010042019N0080001N1+02501+02391100171ADDAA199000021AY121031AY221031GF108991071071004501071999MA1999999097881MD1999999-0081MW1101REMSYN076AAXX  09214 48331 31458 80000 10250 20239 39788 40017 71022 8777/ 333 59008;
0213483310999992000071000004+18760+100770FM-12+0201VTCN V0209999C000010450019N0120001N1+02461+02361100271ADDAA101000791AY121061AY221061GF108991021081008001071999KA1120N+02381MA1999999097981MD1999999-0061MW1601REMSYN100AAXX  10004 48331 /1562 80000 10246 20236 39798 40027 60054 76022 8287/ 333 20238 59006 69905 70047;
0182483310999992000071003004+18760+100770FM-12+0201VTCN V0201601N001010450019N0150001N1+02711+02401100331ADDAA102000791AY161031AY221031GF108991021051008001071999MA1999999098061MD1999999-0051MW1021REMSYN082AAXX  10034 48331 21565 81602 10271 20240 39806 40033 70262 8257/ 333 59005 69906;
0148483310999992000071009004+18760+100770FM-12+0201VTCN V0201801N001010450019N0150001N1+03021+02451100001ADDAA199000021GF107991041081008001071061MA1999999097771MD1999999-0151REMSYN070AAXX  10094 48331 32565 71802 10302 20245 39777 40000 84876 333 59015;
0173483310999992000071012004+18760+100770FM-12+0201VTCN V0209999C000011050019N0150001N1+02871+02481100081ADDAA124000791GF106991021051008001051061KA1120M+03111MA1999999097831MD1999999-0061REMSYN082AAXX  10124 48331 32565 60000 10287 20248 39783 40008 82556 333 10311 59006 79999;
0167483310999992000071015004+18760+100770FM-12+0201VTCN V0209999C000010450019N0120001N1+02701+02501100361ADDAA199000091GF108991031051008001071999MA1999999098091MD1999999+0051REMSYN070AAXX  10154 48331 32562 80000 10270 20250 39809 40036 8357/ 333 58005;EQDQ01  00002PRCP99
0154483310999992000071018004+18760+100770FM-12+0201VTCN V0209999C000010450019N0120001N1+02611+02481100361ADDAA124000791GF108991031051008001071999MA1999999098071MD1999999+0111REMSYN076AAXX  10184 48331 32562 80000 10261 20248 39807 40036 8357/ 333 58011 79999;
0167483310999992000071021004+18760+100770FM-12+0201VTCN V0209999C000010450019N0120001N1+02551+02391100281ADDAA199000091GF108991031051008001071999MA1999999098001MD1999999+0111REMSYN070AAXX  10214 48331 32562 80000 10255 20239 39800 40028 8357/ 333 58011;EQDQ01  00002PRCP99
0173483310999992000071100004+18760+100770FM-12+0201VTCN V0209999C000010075019N0120001N1+02531+02391100411ADDAA124000791GF108991061071008001071999KA1120N+02431MA1999999098121MD1999999+0141REMSYN082AAXX  11004 48331 32562 80000 10253 20239 39812 40041 8677/ 333 20243 58014 79999;
0182483310999992000071103004+18760+100770FM-12+0201VTCN V0209999C000010042019N0150001N1+02771+02451100491ADDAA102000791AY161031AY221031GF108991081071004501999999MA1999999098231MD1999999+0161MW1021REMSYN082AAXX  11034 48331 21465 80000 10277 20245 39823 40049 70262 887// 333 58016 69906;
0188483310999992000071106004+18760+100770FM-12+0201VTCN V0201901N002610120019N0150001N1+03051+02481100331ADDAA106000791AY161061AY221061GF106991051081008001071061MA1999999098091MD1999999+0081MW1011REMSYN088AAXX  11064 48331 11565 61905 10305 20248 39809 40033 69901 70162 85876 333 58008 79999;
0167483310999992000071109004+18760+100770FM-12+0201VTCN V0202101N002110075019N0150001N1+03161+02451100141ADDAA199000091GF106991051091008001041061MA1999999097911MD1999999+0141REMSYN070AAXX  11094 48331 32565 62104 10316 20245 39791 40014 85946 333 58014;EQDQ01  00002PRCP99
0213483310999992000071112004+18760+100770FM-12+0201VTCN V0209999C000010075019N0020001N1+02701+02431100381ADDAA101000891AY191061AY221061GF108991061091008001071999KA1120M+03221MA1999999098111MD1999999+0301MW1951REMSYN100AAXX  11124 48331 /1520 80000 10270 20243 39811 40038 69982 79592 8697/ 333 10322 58030 69985 70008;
0182483310999992000071115004+18760+100770FM-12+0201VTCN V0209999C000010075019N0020001N1+02451+02381100651ADDAA103015091AY191031AY291031GF108991051091008001071999MA1999999098351MD1999999+0291MW1951REMSYN082AAXX  11154 48331 21520 80000 10245 20238 39835 40065 79599 8597/ 333 58029 60157;
0194483310999992000071118004+18760+100770FM-12+0201VTCN V0209999C000010075019N0020001N1+02451+02381100601ADDAA103007191AY191061AY291061GF108991081071008001999999MA1999999098311MD1999999+0241MW1911REMSYN094AAXX  11184 48331 /1520 80000 10245 20238 39831 40060 60233 79199 887// 333 58024 60077 70230;
0182483310999992000071121004+18760+100770FM-12+0201VTCN V0209999C000010075019N0015001N1+02401+02361100511ADDAA103014091AY161031AY261031GF108991081071008001999999MA1999999098221MD1999999+0231MW1611REMSYN082AAXX  11214 48331 21515 80000 10240 20236 39822 40051 76166 887// 333 58023 60147;
0213483310999992000071200004+18760+100770FM-12+0201VTCN V0209999C000010450019N0060001N1+02371+02341100601ADDAA103007991AY161061AY261061GF108991041061004501021999KA1120N+02301MA1999999098301MD1999999+0191MW1611REMSYN100AAXX  12004 48331 /1456 80000 10237 20234 39830 40060 60454 76166 8462/ 333 20230 58019 60087 70445;
0182483310999992000071203004+18760+100770FM-12+0201VTCN V0209999C000010042019N0080001N1+02401+02271100731ADDAA103005191AY161031AY261031GF108991051071004501021999MA1999999098431MD1999999+0241MW1611REMSYN082AAXX  12034 48331 21458 80000 10240 20227 39843 40073 76166 8572/ 333 58024 60057;
0194483310999992000071206004+18760+100770FM-12+0201VTCN V0202101N001010042019N0080001N1+02521+02411100611ADDAA103004191AY161061AY261061GF108991051071004501021999MA1999999098321MD1999999+0281MW1611REMSYN094AAXX  12064 48331 /1458 82102 10252 20241 39832 40061 60091 76166 8572/ 333 58028 60047 70094;
0213483310999992000071212004+18760+100770FM-12+0201VTCN V0201701N001010450019N0080001N1+02421+02381100541ADDAA103002091AY161061AY261061GF108991041071004501021999KA1120M+02521MA1999999098251MD1999999+1061MW1611REMSYN100AAXX  12124 48331 /1458 81702 10242 20238 39825 40054 60222 76166 8472/ 333 10252 58106 60027 70660;
0182483310999992000071215004+18760+100770FM-12+0201VTCN V0209999C000010042019N0080001N1+02351+02281100761ADDAA103005191AY161031AY261031GF108991051071004501021999MA1999999098451MD1999999+0111MW1611REMSYN082AAXX  12154 48331 21458 80000 10235 20228 39845 40076 76166 8572/ 333 58011 60057;
0194483310999992000071218004+18760+100770FM-12+0201VTCN V0209999C000010075019N0100001N1+02331+02281100671ADDAA101000591AY161061AY221061GF108991051071008001021999MA1999999098361MD1999999+0071MW1601REMSYN094AAXX  12184 48331 /1560 80000 10233 20228 39836 40067 60273 76062 8572/ 333 58007 69955 70489;
0182483310999992000071221004+18760+100770FM-12+0201VTCN V0209999C000010042019N0060001N1+02281+02231100611ADDAA103007191AY161031AY261031GF108991051071004501021999MA1999999098301MD1999999+0101MW1611REMSYN082AAXX  12214 48331 21456 80000 10228 20223 39830 40061 76166 8572/ 333 58010 60077;
0213483310999992000071300004+18760+100770FM-12+0201VTCN V0209999C000010042019N0030001N1+02261+02251100741ADDAA103004191AY161061AY261061GF108991081071004501999999KA1120N+02181MA1999999098431MD1999999+0141MW1611REMSYN100AAXX  13004 48331 /1430 80000 10226 20225 39843 40074 60384 76166 887// 333 20218 58014 60047 70379;
0182483310999992000071303004+18760+100770FM-12+0201VTCN V0209999C000010042019N0040001N1+02411+02371100821ADDAA103007991AY161031AY261031GF108991061071004501071999MA1999999098521MD1999999+0091MW1611REMSYN082AAXX  13034 48331 21440 80000 10241 20237 39852 40082 76166 8677/ 333 58009 60087;
0194483310999992000071306004+18760+100770FM-12+0201VTCN V0209999C000010075019N0120001N1+02721+02401100651ADDAA103000391AY161061AY261061GF108991051051008001071061MA1999999098371MD1999999+0041MW1021REMSYN094AAXX  13064 48331 /1562 80000 10272 20240 39837 40065 69931 70266 85576 333 58004 69937 70364;
0148483310999992000071309004+18760+100770FM-12+0201VTCN V0209999C000010450019N0150001N1+03001+02461100371ADDAA199000021GF106991041081008001041061MA1999999098121MD1999999-0121REMSYN070AAXX  13094 48331 32565 60000 10300 20246 39812 40037 84846 333 59012;
0213483310999992000071312004+18760+100770FM-12+0201VTCN V0209999C000010075019N0120001N1+02721+02541100381ADDAA101000791AY121061AY221061GF108991051051008001071999KA1120M+03031MA1999999098121MD1999999+0161MW1211REMSYN100AAXX  13124 48331 /1562 80000 10272 20254 39812 40038 60082 72122 8557/ 333 10303 58016 69905 70235;
0148483310999992000071315004+18760+100770FM-12+0201VTCN V0209999C000010450019N0120001N1+02571+02381100551ADDAA199000021GF105991021051008001041051MA1999999098271MD1999999-0211REMSYN070AAXX  13154 48331 32562 50000 10257 20238 39827 40055 82545 333 59021;
0154483310999992000071318004+18760+100770FM-12+0201VTCN V0209999C000011050019N0120001N1+02501+02381100551ADDAA124018391GF106991021051008001041061MA1999999098261MD1999999-0121REMSYN076AAXX  13184 48331 32562 60000 10250 20238 39826 40055 82546 333 59012 70184;
0148483310999992000071321004+18760+100770FM-12+0201VTCN V0209999C000010075019N0120001N1+02451+02361100411ADDAA199000021GF108991051051008001071061MA1999999098131MD1999999-0201REMSYN070AAXX  13214 48331 32562 80000 10245 20236 39813 40041 85576 333 59020;
0173483310999992000071400004+18760+100770FM-12+0201VTCN V0209999C000012200019N0150001N1+02441+02291100541ADDAA124007991GF104991031051008001051051KA1120N+02301MA1999999098251MD1999999-0201REMSYN082AAXX  14004 48331 32565 40000 10244 20229 39825 40054 83555 333 20230 59020 70079;
0154483310999992000071406004+18760+100770FM-12+0201VTCN V0209999C000010450019N0150001N1+03251+02411100321ADDAA124000791GF105991041081008001041051MA1999999098101MD1999999-0331REMSYN076AAXX  14064 48331 32565 50000 10325 20241 39810 40032 84845 333 59033 79999;
0182483310999992000071409004+18760+100770FM-12+0201VTCN V0209999C000010120019N0120001N1+02751+02551100201ADDAA102004191AY161031AY221031GF106991051081008001071061MA1999999097941MD1999999-0171MW1601REMSYN082AAXX  14094 48331 21562 60000 10275 20255 39794 40020 76062 85876 333 59017 60046;
0207483310999992000071412004+18760+100770FM-12+0201VTCN V0209999C000010120019N0150001N1+02751+02521100151ADDAA112004191AY161061AY221061GF106991051081008001071061KA1120M+03321MA1999999097891MD1999999-0231MW1021REMSYN094AAXX  14124 48331 11565 60000 10275 20252 39789 40015 60042 70262 85876 333 10332 59023 70037;
0148483310999992000071415004+18760+100770FM-12+0201VTCN V0209999C000010450019N0120001N1+02651+02491100291ADDAA199000021GF105991041051008001041061MA1999999098021MD1999999-0261REMSYN070AAXX  14154 48331 32562 50000 10265 20249 39802 40029 84546 333 59026;
0154483310999992000071418004+18760+100770FM-12+0201VTCN V0209999C000012200019N0100001N1+02571+02461100271ADDAA124003891GF103991021051008001001051MA1999999097991MD1999999-0281REMSYN076AAXX  14184 48331 32560 30000 10257 20246 39799 40027 82505 333 59028 70037;
0176483310999992000071421004+18760+100770FM-12+0201VTCN V0209999C000010075019N0070001N1+02511+02451100191ADDAA199000021AY111031AY201031GF106991051071008001071061MA1999999097911MD1999999-0221MW1101REMSYN076AAXX  14214 48331 31557 60000 10251 20245 39791 40019 71010 85776 333 59022;
0207483310999992000071500004+18760+100770FM-12+0201VTCN V0209999C000010450019N0080001N1+02501+02421100251ADDAA124004191AY121061AY211061GF107991021061004501071061KA1120N+02401MA1999999097971MD1999999-0291MW1101REMSYN094AAXX  15004 48331 11458 70000 10250 20242 39797 40025 60044 71021 82676 333 20240 59029 70037;
0167483310999992000071503004+18760+100770FM-12+0201VTCN V0202101N001010450019N0120001N1+02881+02431100321ADDAA199000091GF107991011011008001071061MA1999999098061MD1999999-0161REMSYN070AAXX  15034 48331 32562 72102 10288 20243 39806 40032 81176 333 59016;EQDQ01  00002PRCP99
0154483310999992000071506004+18760+100770FM-12+0201VTCN V0201501N001011050019N0150001N1+03231+02511100131ADDAA124003891GF106991011011008001051061MA1999999097901MD1999999-0191REMSYN076AAXX  15064 48331 32565 61502 10323 20251 39790 40013 81156 333 59019 70037;
0167483310999992000071509004+18760+100770FM-12+0201VTCN V0201301N001510450019N0150001N1+03431+02551099831ADDAA199000091GF106991041091008001051031MA1999999097631MD1999999-0371REMSYN070AAXX  15094 48331 32565 61303 10343 20255 39763 49983 84953 333 59037;EQDQ01  00002PRCP99
0214483310999992000071512004+18760+100770FM-12+0201VTCN V0209999C000010450019N0120001N1+03001+02531099971ADDAA199000091AY121061AY221061GF106991041091008001051031KA1120M+03451MA1999999097731MD1999999-0181MW1171REMSYN082AAXX  15124 48331 31562 60000 10300 20253 39773 49997 71722 84953 333 10345 59018;EQDQ01  00002PRCP99
0195483310999992000071515004+18760+100770FM-12+0201VTCN V0209999C000010450019N0120001N1+02761+02461100231ADDAA199000091AY121031AY221031GF108991021091008001051071MA1999999097971MD1999999-0061MW1131REMSYN076AAXX  15154 48331 31562 80000 10276 20246 39797 40023 71322 82957 333 59006;EQDQ01  00002PRCP99
0167483310999992000071518004+18760+100770FM-12+0201VTCN V0209999C000010450019N0120001N1+02621+02391100251ADDAA199000091GF108991021051008001071071MA1999999097981MD1999999-0021REMSYN070AAXX  15184 48331 32562 80000 10262 20239 39798 40025 82577 333 59002;EQDQ01  00002PRCP99
0186483310999992000071600004+18760+100770FM-12+0201VTCN V0209999C000010450019N0120001N1+02541+02331100271ADDAA199000091GF107991041051008001041061KA1120N+02431MA1999999097981MD1999999+0021REMSYN076AAXX  16004 48331 32562 70000 10254 20233 39798 40027 84546 333 20243 58002;EQDQ01  00002PRCP99
0167483310999992000071603004+18760+100770FM-12+0201VTCN V0209999C000012200019N0150001N1+02941+02361100401ADDAA199000091GF104991021051008001041041MA1999999098141MD1999999+0081REMSYN070AAXX  16034 48331 32565 40000 10294 20236 39814 40040 82544 333 58008;EQDQ01  00002PRCP99
0167483310999992000071606004+18760+100770FM-12+0201VTCN V0201501N003110450019N0150001N1+03051+02481100251ADDAA199000091GF107991041051008001061061MA1999999098011MD1999999+0121REMSYN070AAXX  16064 48331 32565 71506 10305 20248 39801 40025 84566 333 58012;EQDQ01  00002PRCP99
0167483310999992000071609004+18760+100770FM-12+0201VTCN V0209999C000011050019N0150001N1+03131+02461100061ADDAA199000091GF106991021091008001041031MA1999999097781MD1999999+0231REMSYN070AAXX  16094 48331 32565 60000 10313 20246 39778 40006 82943 333 58023;EQDQ01  00002PRCP99
0186483310999992000071612004+18760+100770FM-12+0201VTCN V0209999C000010450019N0150001N1+02831+02441100181ADDAA199000091GF107991031051008001041071KA1120M+03211MA1999999097921MD1999999+0211REMSYN076AAXX  16124 48331 32565 70000 10283 20244 39792 40018 83547 333 10321 58021;EQDQ01  00002PRCP99
0167483310999992000071615004+18760+100770FM-12+0201VTCN V0209999C000010075019N0120001N1+02661+02411100481ADDAA199000091GF108991051051008001071999MA1999999098211MD1999999+0251REMSYN070AAXX  16154 48331 32562 80000 10266 20241 39821 40048 8557/ 333 58025;EQDQ01  00002PRCP99
0167483310999992000071618004+18760+100770FM-12+0201VTCN V0209999C000010450019N0120001N1+02601+02411100431ADDAA199000091GF106991041051008001041061MA1999999098151MD1999999+0181REMSYN070AAXX  16184 48331 32562 60000 10260 20241 39815 40043 84546 333 58018;EQDQ01  00002PRCP99
0186483310999992000071700004+18760+100770FM-12+0201VTCN V0209999C000010075019N0120001N1+02501+02291100471ADDAA199000091GF108991061051008001071061KA1120N+02401MA1999999098191MD1999999+0201REMSYN076AAXX  17004 48331 32562 80000 10250 20229 39819 40047 86576 333 20240 58020;EQDQ01  00002PRCP99
0167483310999992000071703004+18760+100770FM-12+0201VTCN V0201801N002610075019N0150001N1+02771+02281100551ADDAA199000091GF107991061051008001071061MA1999999098291MD1999999+0151REMSYN070AAXX  17034 48331 32565 71805 10277 20228 39829 40055 86576 333 58015;EQDQ01  00002PRCP99
0167483310999992000071706004+18760+100770FM-12+0201VTCN V0201301N003110075019N0150001N1+02741+02311100451ADDAA199000091GF108991071071008001071061MA1999999098181MD1999999+0301REMSYN070AAXX  17064 48331 32565 81306 10274 20231 39818 40045 87776 333 58030;EQDQ01  00002PRCP99
0167483310999992000071709004+18760+100770FM-12+0201VTCN V0201401N002610120019N0150001N1+02851+02421100271ADDAA199000091GF108991061081008001071061MA1999999098021MD1999999+0211REMSYN070AAXX  17094 48331 32565 81405 10285 20242 39802 40027 86876 333 58021;EQDQ01  00002PRCP99
0213483310999992000071712004+18760+100770FM-12+0201VTCN V0209999C000010075019N0030001N1+02611+02481100381ADDAA102003091AY191061AY261061GF108991081071008001999999KA1120M+02911MA1999999098111MD1999999+0201MW1611REMSYN100AAXX  17124 48331 /1530 80000 10261 20248 39811 40038 60032 76196 887// 333 10291 58020 60036 70027;
0182483310999992000071715004+18760+100770FM-12+0201VTCN V0209999C000010075019N0030001N1+02541+02481100691ADDAA103004191AY161031AY261031GF108991081071008001999999MA1999999098391MD1999999+0211MW1611REMSYN082AAXX  17154 48331 21530 80000 10254 20248 39839 40069 76166 887// 333 58021 60047;
0182483310999992000071721004+18760+100770FM-12+0201VTCN V0209999C000010075019N0040001N1+02401+02341100571ADDAA103002091AY161031AY261031GF108991081071008001999999MA1999999098271MD1999999+0181MW1611REMSYN082AAXX  17214 48331 21540 80000 10240 20234 39827 40057 76166 887// 333 58018 60027;
0213483310999992000071800004+18760+100770FM-12+0201VTCN V0209999C000010450019N0080001N1+02401+02351100631ADDAA101000791AY161061AY261061GF108991041061004501071999KA1120N+02301MA1999999098331MD1999999+0161MW1601REMSYN100AAXX  18004 48331 /1458 80000 10240 20235 39833 40063 60124 76066 8467/ 333 20230 58016 69905 70116;
0182483310999992000071803004+18760+100770FM-12+0201VTCN V0201401N001010450019N0080001N1+02511+02421100781ADDAA103001091AY161031AY261031GF108991031071004501021999MA1999999098491MD1999999+0231MW1611REMSYN082AAXX  18034 48331 21458 81402 10251 20242 39849 40078 76166 8372/ 333 58023 60017;
0194483310999992000071806004+18760+100770FM-12+0201VTCN V0201801N001010450019N0090001N1+02721+02401100711ADDAA103000191AY161061AY261061GF108991031081008001071999MA1999999098431MD1999999+0261MW1601REMSYN094AAXX  18064 48331 /1559 81802 10272 20240 39843 40071 60021 76066 8387/ 333 58026 69927 70132;
0182483310999992000071809004+18760+100770FM-12+0201VTCN V0201801N001010450019N0120001N1+02801+02441100461ADDAA103000191AY161031AY221031GF108991031081008001071999MA1999999098191MD1999999+0191MW1021REMSYN082AAXX  18094 48331 21562 81802 10280 20244 39819 40046 70262 8387/ 333 58019 69927;
0179483310999992000071812004+18760+100770FM-12+0201VTCN V0209999C000010450019N0120001N1+02651+02421100391ADDAA112002091GF106991031051008001051011KA1120M+02801MA1999999098121MD1999999+0011REMSYN088AAXX  18124 48331 12562 60000 10265 20242 39812 40039 60022 83551 333 10280 58001 70107;
0148483310999992000071815004+18760+100770FM-12+0201VTCN V0209999C000010450019N0120001N1+02541+02401100571ADDAA199000021GF107991041051008001071061MA1999999098281MD1999999-0121REMSYN070AAXX  18154 48331 32562 70000 10254 20240 39828 40057 84576 333 59012;
0154483310999992000071818004+18760+100770FM-12+0201VTCN V0209999C000010075019N0120001N1+02501+02341100511ADDAA124003391GF108991051051008001071999MA1999999098221MD1999999-0131REMSYN076AAXX  18184 48331 32562 80000 10250 20234 39822 40051 8557/ 333 59013 70034;
0167483310999992000071821004+18760+100770FM-12+0201VTCN V0209999C000010450019N0120001N1+02441+02371100401ADDAA199000091GF108991041051008001071999MA1999999098111MD1999999-0171REMSYN070AAXX  18214 48331 32562 80000 10244 20237 39811 40040 8457/ 333 59017;EQDQ01  00002PRCP99
0179483310999992000071900004+18760+100770FM-12+0201VTCN V0209999C000010450019N0120001N1+02441+02321100451ADDAA124002091GF108991041051008001071999KA1120N+02331MA1999999098161MD1999999-0181REMSYN088AAXX  19004 48331 12562 80000 10244 20232 39816 40045 60024 8457/ 333 20233 59018 70018;
0167483310999992000071903004+18760+100770FM-12+0201VTCN V0209999C000010075019N0120001N1+02691+02401100501ADDAA199000091GF108991051051008001071999MA1999999098231MD1999999-0281REMSYN070AAXX  19034 48331 32562 80000 10269 20240 39823 40050 8557/ 333 59028;EQDQ01  00002PRCP99
0154483310999992000071906004+18760+100770FM-12+0201VTCN V0209999C000010450019N0150001N1+03061+02411100371ADDAA124000391GF107991041051008001071061MA1999999098131MD1999999-0341REMSYN076AAXX  19064 48331 32565 70000 10306 20241 39813 40037 84576 333 59034 70002;
0182483310999992000071909004+18760+100770FM-12+0201VTCN V0209999C000010075019N0150001N1+02901+02541100241ADDAA102000891AY161031AY221031GF108991051051008001071999MA1999999097991MD1999999-0221MW1031REMSYN082AAXX  19094 48331 21565 80000 10290 20254 39799 40024 70362 8557/ 333 59022 69986;
0201483310999992000071912004+18760+100770FM-12+0201VTCN V0209999C000010075019N0150001N1+02751+02491100221ADDAA112000891AY161061AY221061GF108991051051008001071999KA1120M+03071MA1999999097961MD1999999-0171MW1021REMSYN088AAXX  19124 48331 11565 80000 10275 20249 39796 40022 69982 70262 8557/ 333 10307 59017;
0167483310999992000071915004+18760+100770FM-12+0201VTCN V0209999C000010450019N0150001N1+02551+02311100461ADDAA199000091GF106991041051008001041061MA1999999098191MD1999999-0111REMSYN070AAXX  19154 48331 32565 60000 10255 20231 39819 40046 84546 333 59011;EQDQ01  00002PRCP99
0154483310999992000071918004+18760+100770FM-12+0201VTCN V0209999C000010075019N0120001N1+02501+02361100401ADDAA124000891GF108991051051008001071999MA1999999098111MD1999999-0111REMSYN076AAXX  19184 48331 32562 80000 10250 20236 39811 40040 8557/ 333 59011 70008;
0167483310999992000071921004+18760+100770FM-12+0201VTCN V0209999C000010075019N0120001N1+02501+02411100361ADDAA199000091GF108991051051008001071999MA1999999098081MD1999999-0041REMSYN070AAXX  19214 48331 32562 80000 10250 20241 39808 40036 8557/ 333 59004;EQDQ01  00002PRCP99
0173483310999992000072000004+18760+100770FM-12+0201VTCN V0209999C000010075019N0120001N1+02501+02391100441ADDAA124000891GF108991051071008001071061KA1120N+02401MA1999999098161MD1999999-0011REMSYN082AAXX  20004 48331 32562 80000 10250 20239 39816 40044 85776 333 20240 59001 70008;
0167483310999992000072003004+18760+100770FM-12+0201VTCN V0209999C000010075019N0150001N1+02801+02071100551ADDAA199000091GF108991061071008001071061MA1999999098291MD1999999+0051REMSYN070AAXX  20034 48331 32565 80000 10280 20207 39829 40055 86776 333 58005;EQDQ01  00002PRCP99
0154483310999992000072006004+18760+100770FM-12+0201VTCN V0209999C000010075019N0150001N1+03051+02341100431ADDAA124000891GF108991061051008001071061MA1999999098201MD1999999+0061REMSYN076AAXX  20064 48331 32565 80000 10305 20234 39820 40043 86576 333 58006 70008;
0167483310999992000072009004+18760+100770FM-12+0201VTCN V0202101N002610075019N0150001N1+03131+02441100201ADDAA199000091GF106991051091008001041061MA1999999097961MD1999999-0041REMSYN070AAXX  20094 48331 32565 62105 10313 20244 39796 40020 85946 333 59004;EQDQ01  00002PRCP99
0214483310999992000072012004+18760+100770FM-12+0201VTCN V0209999C000010075019N0150001N1+02931+02381100281ADDAA199000091AY191061AY221061GF107991061091008001071061KA1120M+03201MA1999999098031MD1999999+0061MW1151REMSYN082AAXX  20124 48331 31565 70000 10293 20238 39803 40028 71592 86976 333 10320 58006;EQDQ01  00002PRCP99
0167483310999992000072015004+18760+100770FM-12+0201VTCN V0209999C000010075019N0120001N1+02651+02341100521ADDAA199000091GF106991051051008001071061MA1999999098251MD1999999+0061REMSYN070AAXX  20154 48331 32562 60000 10265 20234 39825 40052 85576 333 58006;EQDQ01  00002PRCP99
0167483310999992000072018004+18760+100770FM-12+0201VTCN V0209999C000010075019N0120001N1+02561+02341100601ADDAA199000091GF108991071051008001071061MA1999999098321MD1999999+0201REMSYN070AAXX  20184 48331 32562 80000 10256 20234 39832 40060 87576 333 58020;EQDQ01  00002PRCP99
0167483310999992000072021004+18760+100770FM-12+0201VTCN V0209999C000010075019N0120001N1+02521+02331100521ADDAA199000091GF107991061051008001071061MA1999999098241MD1999999+0161REMSYN070AAXX  20214 48331 32562 70000 10252 20233 39824 40052 86576 333 58016;EQDQ01  00002PRCP99
0186483310999992000072100004+18760+100770FM-12+0201VTCN V0209999C000010450019N0120001N1+02501+02341100631ADDAA199000091GF108991031061004501071999KA1120N+02401MA1999999098341MD1999999+0191REMSYN076AAXX  21004 48331 32462 80000 10250 20234 39834 40063 8367/ 333 20240 58019;EQDQ01  00002PRCP99
0167483310999992000072103004+18760+100770FM-12+0201VTCN V0201401N001510450019N0150001N1+02841+02341100721ADDAA199000091GF108991041081008001071999MA1999999098461MD1999999+0171REMSYN070AAXX  21034 48331 32565 81403 10284 20234 39846 40072 8487/ 333 58017;EQDQ01  00002PRCP99
0194483310999992000072106004+18760+100770FM-12+0201VTCN V0201601N000510120019N0150001N1+03001+02421100611ADDAA101000791AY121061AY221061GF108991051081008001071999MA1999999098351MD1999999+0281MW1211REMSYN094AAXX  21064 48331 /1565 81601 10300 20242 39835 40061 69901 72122 8587/ 333 58028 69905 79999;
0182483310999992000072109004+18760+100770FM-12+0201VTCN V0209999C000010450019N0120001N1+02531+02411100471ADDAA103018091AY161031AY221031GF108991041091008001071999MA1999999098191MD1999999+0271MW1021REMSYN082AAXX  21094 48331 21562 80000 10253 20241 39819 40047 70262 8497/ 333 58027 60187;
0179483310999992000072112004+18760+100770FM-12+0201VTCN V0209999C000010450019N0100001N1+02551+02431100511ADDAA112018091GF106991031021004501051061KA1120M+03031MA1999999098231MD1999999+0231REMSYN088AAXX  21124 48331 12460 60000 10255 20243 39823 40051 60182 83256 333 10303 58023 70180;
0175483310999992000072115004+18760+100770FM-12+0201VTCN V0209999C000010075019N0080001N1+02521+02441100771ADDAA199000021AY121031AY221031GF108991051051008001071999MA1999999098481MD1999999+0251MW1101REMSYN075AAXX  21154 48331 31558 80000 10252 20244 39848 40077 710228557/ 333 58025;
0182483310999992000072118004+18760+100770FM-12+0201VTCN V0209999C000010450019N0080001N1+02501+02421100681ADDAA124018091AY121061AY221061GF106991031051008001051061MA1999999098391MD1999999+0081MW1101REMSYN082AAXX  21184 48331 31558 60000 10250 20242 39839 40068 71022 83556 333 58008 70180;
0195483310999992000072121004+18760+100770FM-12+0201VTCN V0209999C000010450019N0080001N1+02451+02381100581ADDAA199000091AY121031AY221031GF107991021051008001071061MA1999999098281MD1999999+0061MW1101REMSYN076AAXX  21214 48331 31558 70000 10245 20238 39828 40058 71022 82576 333 58006;EQDQ01  00002PRCP99
0207483310999992000072200004+18760+100770FM-12+0201VTCN V0209999C000010042019N0010001N1+02451+02411100671ADDAA124018091AY121061AY221061GF106991061061004501071061KA1120N+02341MA1999999098371MD1999999+0041MW1101REMSYN094AAXX  22004 48331 11410 60000 10245 20241 39837 40067 60184 71022 86676 333 20234 58004 70180;
0167483310999992000072203004+18760+100770FM-12+0201VTCN V0209999C000010450019N0100001N1+02821+02341100731ADDAA199000091GF106991031051008001041061MA1999999098451MD1999999+0011REMSYN070AAXX  22034 48331 32560 60000 10282 20234 39845 40073 83546 333 58001;EQDQ01  00002PRCP99
0154483310999992000072206004+18760+100770FM-12+0201VTCN V0201701N002110450019N0150001N1+03081+02361100541ADDAA124018091GF106991041081008001041061MA1999999098301MD1999999-0071REMSYN076AAXX  22064 48331 32565 61704 10308 20236 39830 40054 84846 333 59007 70180;
0167483310999992000072209004+18760+100770FM-12+0201VTCN V0202101N003110450019N0150001N1+03151+02421100271ADDAA199000091GF106991031091008001041061MA1999999098041MD1999999-0201REMSYN070AAXX  22094 48331 32565 62106 10315 20242 39804 40027 83946 333 59020;EQDQ01  00002PRCP99
0213483310999992000072212004+18760+100770FM-12+0201VTCN V0209999C000010042019N0100001N1+02741+02271100431ADDAA101000791AY121061AY221061GF108991061091004501071999KA1120M+03241MA1999999098161MD1999999-0081MW1951REMSYN100AAXX  22124 48331 /1460 80000 10274 20227 39816 40043 69902 79522 8697/ 333 10324 59008 69905 79999;
0182483310999992000072215004+18760+100770FM-12+0201VTCN V0209999C000010450019N0120001N1+02551+02411100701ADDAA103000891AY191031AY221031GF106991041051008001071061MA1999999098411MD1999999-0071MW1011REMSYN082AAXX  22154 48331 21562 60000 10255 20241 39841 40070 70192 84576 333 59007 69987;
0188483310999992000072218004+18760+100770FM-12+0201VTCN V0209999C000010075019N0100001N1+02501+02351100531ADDAA118000891AY191061AY221061GF108991051051008001071061MA1999999098251MD1999999-0151MW1031REMSYN088AAXX  22184 48331 11560 80000 10250 20235 39825 40053 69983 70392 85576 333 59015 70008;
0148483310999992000072221004+18760+100770FM-12+0201VTCN V0209999C000010075019N0100001N1+02471+02381100441ADDAA199000021GF108991061051008001071999MA1999999098151MD1999999-0141REMSYN070AAXX  22214 48331 32560 80000 10247 20238 39815 40044 8657/ 333 59014;
0173483310999992000072300004+18760+100770FM-12+0201VTCN V0209999C000010450019N0120001N1+02471+02371100511ADDAA124000891GF106991041051008001071061KA1120N+02351MA1999999098231MD1999999-0161REMSYN082AAXX  23004 48331 32562 60000 10247 20237 39823 40051 84576 333 20235 59016 70008;
0167483310999992000072303004+18760+100770FM-12+0201VTCN V0201501N002610450019N0150001N1+02951+02351100491ADDAA199000091GF106991041051008001041051MA1999999098241MD1999999-0241REMSYN070AAXX  23034 48331 32565 61505 10295 20235 39824 40049 84545 333 59024;EQDQ01  00002PRCP99
0154483310999992000072306004+18760+100770FM-12+0201VTCN V0201801N001510075019N0150001N1+03071+02301100371ADDAA124000891GF108991061051008001071061MA1999999098131MD1999999-0171REMSYN076AAXX  23064 48331 32565 81803 10307 20230 39813 40037 86576 333 59017 70008;
0167483310999992000072309004+18760+100770FM-12+0201VTCN V0201201N003110450019N0150001N1+03241+02381100131ADDAA199000091GF106991031091008001041061MA1999999098001MD1999999-0141REMSYN070AAXX  23094 48331 32565 61206 10324 20238 39800 40013 83946 333 59014;EQDQ01  00002PRCP99
0213483310999992000072312004+18760+100770FM-12+0201VTCN V0209999C000010450019N0150001N1+02761+02521100241ADDAA102000191AY161061AY221061GF106991041081008001071061KA1120M+03251MA1999999097981MD1999999-0191MW1031REMSYN100AAXX  23124 48331 /1565 60000 10276 20252 39798 40024 69922 70362 84876 333 10325 59019 69926 70010;
0194483310999992000072318004+18760+100770FM-12+0201VTCN V0209999C000010075019N0120001N1+02521+02411100411ADDAA103001091AY191061AY221061GF108991081071008001999999MA1999999098121MD1999999-0121MW1021REMSYN094AAXX  23184 48331 /1562 80000 10252 20241 39812 40041 60013 70292 887// 333 59012 69997 70011;
0179483310999992000072321004+18760+100770FM-12+0201VTCN V0209999C000010450019N0120001N1+02501+02391100571ADDAA124001091GF108991031051008001071999KA1120N+02371MA1999999098281MD1999999+0061REMSYN088AAXX  23214 48331 12562 80000 10250 20239 39828 40057 60014 8357/ 333 20237 58006 70011;
0167483310999992000072403004+18760+100770FM-12+0201VTCN V0202001N001510450019N0120001N1+02891+02371100561ADDAA199000091GF106991021051008001051021MA1999999098301MD1999999+0071REMSYN070AAXX  24034 48331 32562 62003 10289 20237 39830 40056 82552 333 58007;EQDQ01  00002PRCP99
0154483310999992000072406004+18760+100770FM-12+0201VTCN V0202301N001010450019N0150001N1+03151+02401100391ADDAA124001091GF106991041091008001051031MA1999999098151MD1999999+0021REMSYN076AAXX  24064 48331 32565 62302 10315 20240 39815 40039 84953 333 58002 70011;
0167483310999992000072409004+18760+100770FM-12+0201VTCN V0201201N001010450019N0150001N1+03171+02531100241ADDAA199000091GF106991031091008001071031MA1999999098011MD1999999+0111REMSYN070AAXX  24094 48331 32565 61202 10317 20253 39801 40024 83973 333 58011;EQDQ01  00002PRCP99
0201483310999992000072412004+18760+100770FM-12+0201VTCN V0201401N001010075019N0120001N1+02951+02521100301ADDAA124001091AY121061AY221061GF107991051091008001051031KA1120M+03311MA1999999098051MD1999999+0061MW1151REMSYN088AAXX  24124 48331 31562 71402 10295 20252 39805 40030 71522 85953 333 10331 58006 70009;
0182483310999992000072415004+18760+100770FM-12+0201VTCN V0209999C000010450019N0040001N1+02371+02341100721ADDAA103031091AY191031AY261031GF108991041071008001021999MA1999999098411MD1999999+0191MW1631REMSYN082AAXX  24154 48331 21540 80000 10237 20234 39841 40072 76396 8472/ 333 58019 60317;
0194483310999992000072418004+18760+100770FM-12+0201VTCN V0209999C000010450019N0100001N1+02351+02321100611ADDAA103005191AY191061AY261061GF108991031061004501021999MA1999999098311MD1999999+0201MW1211REMSYN094AAXX  24184 48331 /1460 80000 10235 20232 39831 40061 60363 72196 8362/ 333 58020 60057 70358;
0148483310999992000072421004+18760+100770FM-12+0201VTCN V0209999C000010450019N0120001N1+02331+02281100631ADDAA199000021GF108991031061004501071999MA1999999098331MD1999999+0201REMSYN070AAXX  24214 48331 32462 80000 10233 20228 39833 40063 8367/ 333 58020;
0213483310999992000072500004+18760+100770FM-12+0201VTCN V0209999C000010042019N0080001N1+02361+02311100751ADDAA103000191AY161061AY221061GF108991051061004501071999KA1120N+02231MA1999999098451MD1999999+0181MW1021REMSYN100AAXX  25004 48331 /1458 80000 10236 20231 39845 40075 60364 70262 8567/ 333 20223 58018 69927 70360;
0148483310999992000072503004+18760+100770FM-12+0201VTCN V0209999C000010075019N0150001N1+02661+02371100751ADDAA199000021GF106991061051008001071061MA1999999098471MD1999999+0191REMSYN070AAXX  25034 48331 32565 60000 10266 20237 39847 40075 86576 333 58019;
0154483310999992000072506004+18760+100770FM-12+0201VTCN V0209999C000010450019N0150001N1+03001+02461100541ADDAA124036191GF106991041051008001041061MA1999999098291MD1999999+0151REMSYN076AAXX  25064 48331 32565 60000 10300 20246 39829 40054 84546 333 58015 70360;
0167483310999992000072509004+18760+100770FM-12+0201VTCN V0209999C000012200019N0150001N1+03261+02451100251ADDAA199000091GF104991031051008001041051MA1999999098031MD1999999+0011REMSYN070AAXX  25094 48331 32565 40000 10326 20245 39803 40025 83545 333 58001;EQDQ01  00002PRCP99
0173483310999992000072512004+18760+100770FM-12+0201VTCN V0209999C000010450019N0150001N1+02951+02461100261ADDAA124036191GF105991031051008001041061KA1120M+03311MA1999999098011MD1999999-0041REMSYN082AAXX  25124 48331 32565 50000 10295 20246 39801 40026 83546 333 10331 59004 70360;
0195483310999992000072515004+18760+100770FM-12+0201VTCN V0209999C000010075019N0100001N1+02641+02281100621ADDAA199000091AY121031AY221031GF108991061091008001071999MA1999999098331MD1999999-0101MW1171REMSYN076AAXX  25154 48331 31560 80000 10264 20228 39833 40062 71722 8697/ 333 59010;EQDQ01  00002PRCP99
0195483310999992000072521004+18760+100770FM-12+0201VTCN V0209999C000010450019N0080001N1+02431+02341100591ADDAA199000091AY121031AY221031GF105991031051008001041061MA1999999098291MD1999999-0041MW1101REMSYN076AAXX  25214 48331 31558 50000 10243 20234 39829 40059 71022 83546 333 59004;EQDQ01  00002PRCP99
0201483310999992000072600004+18760+100770FM-12+0201VTCN V0209999C000010075019N0080001N1+02501+02341100711ADDAA124001091AY121061AY211061GF105991051051008001041061KA1120N+02331MA1999999098411MD1999999-0041MW1101REMSYN088AAXX  26004 48331 31558 50000 10250 20234 39841 40071 71021 85546 333 20233 59004 70011;
0167483310999992000072603004+18760+100770FM-12+0201VTCN V0209999C000010075019N0150001N1+02851+02371100781ADDAA199000091GF106991051071008001071061MA1999999098511MD1999999+0031REMSYN070AAXX  26034 48331 32565 60000 10285 20237 39851 40078 85776 333 58003;EQDQ01  00002PRCP99
0182483310999992000072606004+18760+100770FM-12+0201VTCN V0209999C000010450019N0150001N1+03261+02391100511ADDAA124001091AY121061AY221061GF105991041031008001041051MA1999999098281MD1999999-0031MW1151REMSYN082AAXX  26064 48331 31565 50000 10326 20239 39828 40051 71522 84345 333 59003 70011;
0182483310999992000072609004+18760+100770FM-12+0201VTCN V0209999C000010075019N0040001N1+02791+02431100391ADDAA101000591AY191031AY221031GF108991061091008001071061MA1999999098131MD1999999+0141MW1951REMSYN082AAXX  26094 48331 21540 80000 10279 20243 39813 40039 79592 86976 333 58014 69955;
0213483310999992000072612004+18760+100770FM-12+0201VTCN V0209999C000010450019N0150001N1+02591+02451100391ADDAA103002091AY191061AY261061GF106991041091008001071061KA1120M+03231MA1999999098111MD1999999+0131MW1171REMSYN100AAXX  26124 48331 /1565 60000 10259 20245 39811 40039 60022 71796 84976 333 10323 58013 60027 70034;
0148483310999992000072615004+18760+100770FM-12+0201VTCN V0209999C000012200019N0120001N1+02471+02351100591ADDAA199000021GF104991041051008001041051MA1999999098301MD1999999-0041REMSYN070AAXX  26154 48331 32562 40000 10247 20235 39830 40059 84545 333 59004;
0182483310999992000072618004+18760+100770FM-12+0201VTCN V0209999C000012200019N0120001N1+02461+02371100561ADDAA124002391AY191061AY221061GF103991021051008001041051MA1999999098271MD1999999-0071MW1011REMSYN082AAXX  26184 48331 31562 30000 10246 20237 39827 40056 70192 82545 333 59007 70023;
0148483310999992000072621004+18760+100770FM-12+0201VTCN V0209999C000012200019N0100001N1+02411+02341100421ADDAA199000021GF102991021051008001001051MA1999999098131MD1999999-0171REMSYN070AAXX  26214 48331 32560 20000 10241 20234 39813 40042 82505 333 59017;
0207483310999992000072700004+18760+100770FM-12+0201VTCN V0209999C000012200019N0080001N1+02451+02361100501ADDAA124002091AY101061AY201061GF102991021061004501001001KA1120N+02301MA1999999098211MD1999999-0211MW1101REMSYN094AAXX  27004 48331 11458 20000 10245 20236 39821 40050 60024 71000 82600 333 20230 59021 70023;
0167483310999992000072703004+18760+100770FM-12+0201VTCN V0200701N001012200019N0120001N1+02861+02331100551ADDAA199000091GF105991031021008001001061MA1999999098291MD1999999-0231REMSYN070AAXX  27034 48331 32562 50702 10286 20233 39829 40055 83206 333 59023;EQDQ01  00002PRCP99
0154483310999992000072706004+18760+100770FM-12+0201VTCN V0209999C000012200019N0150001N1+03151+02361100341ADDAA124002391GF104991021021008001051001MA1999999098111MD1999999-0171REMSYN076AAXX  27064 48331 32565 40000 10315 20236 39811 40034 82250 333 59017 70023;
0167483310999992000072709004+18760+100770FM-12+0201VTCN V0209999C000011050019N0150001N1+03351+02431100021ADDAA199000091GF106991021021008001051061MA1999999097871MD1999999-0371REMSYN070AAXX  27094 48331 32565 60000 10335 20243 39787 40002 82256 333 59037;EQDQ01  00002PRCP99
0186483310999992000072712004+18760+100770FM-12+0201VTCN V0209999C000012200019N0150001N1+02901+02391100091ADDAA199000091GF104991011051008001051061KA1120M+03531MA1999999097841MD1999999-0301REMSYN076AAXX  27124 48331 32565 40000 10290 20239 39784 40009 81556 333 10353 59030;EQDQ01  00002PRCP99
0167483310999992000072715004+18760+100770FM-12+0201VTCN V0209999C000012200019N0150001N1+02701+02521100361ADDAA199000091GF103991001001999999001061MA1999999098091MD1999999-0231REMSYN070AAXX  27154 48331 32965 30000 10270 20252 39809 40036 80006 333 59023;EQDQ01  00002PRCP99
0167483310999992000072718004+18760+100770FM-12+0201VTCN V0209999C000012200019N0150001N1+02601+02441100311ADDAA199000091GF104991021001999999051061MA1999999098041MD1999999-0251REMSYN070AAXX  27184 48331 32965 40000 10260 20244 39804 40031 82056 333 59025;EQDQ01  00002PRCP99
0152483310999992000072721004+18760+100770FM-12+0201VTCN V0209999C000019999999N0120001N1+02501+02421999999ADDAA199000091GF105991999999004501999999MA1999999098011REMSYN069AAXX  27214 48331 32462 50000 10250 20242 39801 4029 85600 333 59013;EQDQ01  00002PRCP99
0186483310999992000072800004+18760+100770FM-12+0201VTCN V0209999C000012200019N0120001N1+02521+02411100471ADDAA199000091GF103991021051008001001051KA1120N+02411MA1999999098181MD1999999-0031REMSYN076AAXX  28004 48331 32562 30000 10252 20241 39818 40047 82505 333 20241 59003;EQDQ01  00002PRCP99
0167483310999992000072803004+18760+100770FM-12+0201VTCN V0209999C000012200019N0120001N1+02521+02411100471ADDAA199000091GF103991031051008001001001MA1999999098231MD1999999-0081REMSYN070AAXX  28034 48331 32562 30000 10252 20241 39823 40047 83500 333 59008;EQDQ01  00002PRCP99
0167483310999992000072806004+18760+100770FM-12+0201VTCN V0209999C000012200019N0150001N1+03391+02591100251ADDAA199000091GF103991021021008001001021MA1999999098031MD1999999-0091REMSYN070AAXX  28064 48331 32565 30000 10339 20259 39803 40025 82202 333 59009;EQDQ01  00002PRCP99
0195483310999992000072809004+18760+100770FM-12+0201VTCN V0209999C000010450019N0150001N1+02881+02251100161ADDAA199000091AY191031AY221031GF105991031091008001041031MA1999999097911MD1999999+0071MW1031REMSYN076AAXX  28094 48331 31565 50000 10288 20225 39791 40016 70392 83943 333 58007;EQDQ01  00002PRCP99
0214483310999992000072812004+18760+100770FM-12+0201VTCN V0209999C000012200019N0150001N1+02831+02431100191ADDAA199000091AY191061AY221061GF103991031051008001001001KA1120M+03401MA1999999097931MD1999999+0101MW1011REMSYN082AAXX  28124 48331 31565 30000 10283 20243 39793 40019 70192 83500 333 10340 58010;EQDQ01  00002PRCP99
0167483310999992000072815004+18760+100770FM-12+0201VTCN V0209999C000010450019N0120001N1+02691+02481100461ADDAA199000091GF106991041091008001041061MA1999999098191MD1999999+0101REMSYN070AAXX  28154 48331 32562 60000 10269 20248 39819 40046 84946 333 58010;EQDQ01  00002PRCP99
0167483310999992000072821004+18760+100770FM-12+0201VTCN V0209999C000012200019N0120001N1+02531+02411100441ADDAA199000091GF102991021051008001001001MA1999999098161MD1999999+0151REMSYN070AAXX  28214 48331 32562 20000 10253 20241 39816 40044 82500 333 58015;EQDQ01  00002PRCP99
0214483310999992000072900004+18760+100770FM-12+0201VTCN V0209999C000010075019N0080001N1+02551+02441100591ADDAA199000091AY111061AY201061GF108991061051008001071061KA1120N+02451MA1999999098311MD1999999+0121MW1101REMSYN082AAXX  29004 48331 31558 80000 10255 20244 39831 40059 71010 86576 333 20245 58012;EQDQ01  00002PRCP99
0182483310999992000072903004+18760+100770FM-12+0201VTCN V0209999C000010075019N0120001N1+02821+02501100621ADDAA103000191AY161031AY221031GF108991061071008001071061MA1999999098351MD1999999+0151MW1021REMSYN082AAXX  29034 48331 21562 80000 10282 20250 39835 40062 70262 86776 333 58015 69927;
0188483310999992000072906004+18760+100770FM-12+0201VTCN V0209999C000010450019N0150001N1+02961+02291100451ADDAA106000191AY161061AY221061GF106991041091008001041061MA1999999098201MD1999999+0201MW1171REMSYN088AAXX  29064 48331 11565 60000 10296 20229 39820 40045 69921 71762 84946 333 58020 70002;
0195483310999992000072909004+18760+100770FM-12+0201VTCN V0209999C000010075019N0120001N1+02731+02321100421ADDAA199000091AY191031AY221031GF108991061091008001071061MA1999999098151MD1999999+0261MW1171REMSYN076AAXX  29094 48331 31562 80000 10273 20232 39815 40042 71792 86976 333 58026;EQDQ01  00002PRCP99
0213483310999992000072912004+18760+100770FM-12+0201VTCN V0209999C000010075019N0040001N1+02501+02381100511ADDAA102002091AY191061AY261061GF108991081071008001999999KA1120M+03171MA1999999098221MD1999999+0321MW1611REMSYN100AAXX  29124 48331 /1540 80000 10250 20238 39822 40051 60022 76196 887// 333 10317 58032 60026 70022;
0182483310999992000072915004+18760+100770FM-12+0201VTCN V0209999C000010450019N0120001N1+02401+02331100761ADDAA103000591AY161031AY221031GF105991041051008001041051MA1999999098461MD1999999+0301MW1011REMSYN082AAXX  29154 48331 21562 50000 10240 20233 39846 40076 70162 84545 333 58030 69957;
0188483310999992000072918004+18760+100770FM-12+0201VTCN V0209999C000012200019N0120001N1+02431+02331100331ADDAA118003091AY161061AY221061GF104991041051008001001051MA1999999098431MD1999999+0281MW1011REMSYN088AAXX  29184 48331 11562 40000 10243 20233 39843 40033 60033 70162 84505 333 58028 70027;
0176483310999992000072921004+18760+100770FM-12+0201VTCN V0209999C000012200019N0080001N1+02401+02331100711ADDAA199000021AY101031AY201031GF103991031061004501001011MA1999999098411MD1999999+0271MW1101REMSYN076AAXX  29214 48331 31458 30000 10240 20233 39841 40071 71000 83601 333 58027;
0207483310999992000073000004+18760+100770FM-12+0201VTCN V0209999C000011050019N0080001N1+02401+02331100801ADDAA124003091AY111061AY201061GF106991021061004501051061KA1120N+02291MA1999999098501MD1999999+0211MW1101REMSYN094AAXX  30004 48331 11458 60000 10240 20233 39850 40080 60034 71010 82656 333 20229 58021 70027;
0167483310999992000073003004+18760+100770FM-12+0201VTCN V0209999C000010450019N0120001N1+02881+02361100871ADDAA199000091GF106991021021008001071011MA1999999098601MD1999999+0271REMSYN070AAXX  30034 48331 32562 60000 10288 20236 39860 40087 82271 333 58027;EQDQ01  00002PRCP99
0154483310999992000073006004+18760+100770FM-12+0201VTCN V0209999C000012200019N0150001N1+03031+02411100661ADDAA124002591GF106991041021008001001011MA1999999098411MD1999999+0211REMSYN076AAXX  30064 48331 32565 60000 10303 20241 39841 40066 84201 333 58021 70025;
0167483310999992000073009004+18760+100770FM-12+0201VTCN V0209999C000011050019N0150001N1+03351+02511100361ADDAA199000091GF105991031091008001001031MA1999999098141MD1999999-0061REMSYN070AAXX  30094 48331 32565 50000 10335 20251 39814 40036 83903 333 59006;EQDQ01  00002PRCP99
0173483310999992000073012004+18760+100770FM-12+0201VTCN V0209999C000011050019N0150001N1+03021+02491100401ADDAA124000591GF105991021091008001041031KA1120M+03401MA1999999098161MD1999999-0111REMSYN082AAXX  30124 48331 32565 50000 10302 20249 39816 40040 82943 333 10340 59011 70005;
0182483310999992000073015004+18760+100770FM-12+0201VTCN V0209999C000010075019N0100001N1+02701+02411100751ADDAA101000791AY191031AY291031GF107991051091008001071031MA1999999098471MD1999999-0011MW1951REMSYN082AAXX  30154 48331 21560 70000 10270 20241 39847 40075 79599 85973 333 59001 69905;
0194483310999992000073018004+18760+100770FM-12+0201VTCN V0209999C000012200019N0100001N1+02501+02451100661ADDAA103023191AY191061AY291061GF102991011011008001001011MA1999999098371MD1999999-0081MW1011REMSYN094AAXX  30184 48331 /1560 20000 10250 20245 39837 40066 60233 70199 81101 333 59008 60237 70232;
0148483310999992000073021004+18760+100770FM-12+0201VTCN V0209999C000012200019N0100001N1+02451+02441100621ADDAA199000021GF104991021061004501001061MA1999999098331MD1999999-0091REMSYN070AAXX  30214 48331 32460 40000 10245 20244 39833 40062 82606 333 59009;
0207483310999992000073100004+18760+100770FM-12+0201VTCN V0209999C000010042019N0080001N1+02471+02441100731ADDAA124023191AY121061AY221061GF108991061051004501071999KA1120N+02351MA1999999098431MD1999999-0071MW1101REMSYN094AAXX  31004 48331 11458 80000 10247 20244 39843 40073 60234 71022 8657/ 333 20235 59007 70232;
0148483310999992000073103004+18760+100770FM-12+0201VTCN V0209999C000010075019N0150001N1+02941+02501100751ADDAA199000021GF106991051051008001071061MA1999999098481MD1999999-0121REMSYN070AAXX  31034 48331 32565 60000 10294 20250 39848 40075 85576 333 59012;
0194483310999992000073106004+18760+100770FM-12+0201VTCN V0209999C000010075019N0150001N1+02921+02581100521ADDAA101001091AY121061AY221061GF106991061091008001071061MA1999999098271MD1999999-0141MW1291REMSYN094AAXX  31064 48331 /1565 60000 10292 20258 39827 40052 60011 72922 86976 333 59014 60015 70244;
0182483310999992000073109004+18760+100770FM-12+0201VTCN V0209999C000010075019N0150001N1+03111+02471100331ADDAA103000891AY161031AY221031GF108991051051008001071071MA1999999098091MD1999999-0031MW1031REMSYN082AAXX  31094 48331 21565 80000 10311 20247 39809 40033 70362 85577 333 59003 69987;
0213483310999992000073112004+18760+100770FM-12+0201VTCN V0209999C000010075019N0100001N1+02801+02481100411ADDAA101000791AY161061AY221061GF108991051051008001071999KA1120M+03231MA1999999098141MD1999999+0011MW1601REMSYN100AAXX  31124 48331 /1560 80000 10280 20248 39814 40041 60022 76062 8557/ 333 10323 58001 69905 70252;
0182483310999992000073115004+18760+100770FM-12+0201VTCN V0209999C000010042019N0030001N1+02501+02381100801ADDAA101003091AY161031AY221031GF108991061091004501071999MA1999999098501MD1999999+0051MW1951REMSYN082AAXX  31154 48331 21430 80000 10250 20238 39850 40080 79562 8697/ 333 58005 60035;
0194483310999992000073118004+18760+100770FM-12+0201VTCN V0209999C000010450019N0120001N1+02451+02381100681ADDAA103002091AY191061AY221061GF108991041051008001071061MA1999999098381MD1999999+0021MW1211REMSYN094AAXX  31184 48331 /1562 80000 10245 20238 39838 40068 60073 72192 84576 333 58002 60027 70065;
0148483310999992000073121004+18760+100770FM-12+0201VTCN V0209999C000010075019N0120001N1+02421+02361100571ADDAA199000021GF108991051051008001071999MA1999999098281MD1999999-0051REMSYN070AAXX  31214 48331 32562 80000 10242 20236 39828 40057 8557/ 333 59005;
0201483310999992000080100004+18760+100770FM-12+0201VTCN V0209999C000010075019N0050001N1+02431+02371100671ADDAA124006691AY121061AY221061GF108991071071008001071999KA1120N+02331MA1999999098371MD1999999-0061MW1101REMSYN088AAXX  01004 48331 31550 80000 10243 20237 39837 40067 71022 8777/ 333 20233 59006 70065;
0148483310999992000080103004+18760+100770FM-12+0201VTCN V0209999C000010075019N0120001N1+02741+02421100741ADDAA199000021GF108991061071008001071061MA1999999098461MD1999999-0011REMSYN070AAXX  01034 48331 32562 80000 10274 20242 39846 40074 86776 333 59001;
0154483310999992000080106004+18760+100770FM-12+0201VTCN V0209999C000010120019N0150001N1+03021+02491100631ADDAA124005391GF107991061081008001071061MA1999999098371MD1999999+0111REMSYN076AAXX  01064 48331 32565 70000 10302 20249 39837 40063 86876 333 58011 70053;
0182483310999992000080109004+18760+100770FM-12+0201VTCN V0209999C000010075019N0150001N1+02781+02461100461ADDAA103004191AY191031AY261031GF107991061091008001071061MA1999999098201MD1999999+0131MW1291REMSYN082AAXX  01094 48331 21565 70000 10278 20246 39820 40046 72996 86976 333 58013 60047;
0207483310999992000080112004+18760+100770FM-12+0201VTCN V0209999C000010075019N0120001N1+02551+02311100491ADDAA112004191AY191061AY261061GF108991071091008001071061KA1120M+03051MA1999999098211MD1999999+0081MW1171REMSYN094AAXX  01124 48331 11562 80000 10255 20231 39821 40049 60042 71796 87976 333 10305 58008 70080;
0195483310999992000080115004+18760+100770FM-12+0201VTCN V0209999C000010120019N0100001N1+02471+02371100721ADDAA199000091AY191031AY221031GF108991071081008001071061MA1999999098421MD1999999-0081MW1021REMSYN076AAXX  01154 48331 31560 80000 10247 20237 39842 40072 70292 87876 333 59008;EQDQ01  00002PRCP99
0182483310999992000080118004+18760+100770FM-12+0201VTCN V0209999C000010075019N0100001N1+02461+02371100681ADDAA124003691AY191061AY221061GF106991051071008001071051MA1999999098381MD1999999+0001MW1011REMSYN082AAXX  01184 48331 31560 60000 10246 20237 39838 40068 70192 85775 333 58000 70035;
0195483310999992000080121004+18760+100770FM-12+0201VTCN V0209999C000010075019N0080001N1+02411+02321100601ADDAA199000091AY121031AY221031GF107991051071008001071061MA1999999098311MD1999999+0031MW1101REMSYN076AAXX  01214 48331 31558 70000 10241 20232 39831 40060 71022 85776 333 58003;EQDQ01  00002PRCP99
0207483310999992000080200004+18760+100770FM-12+0201VTCN V0209999C000010450019N0080001N1+02451+02331100701ADDAA124004191AY121061AY221061GF108991031061004501071999KA1120N+02331MA1999999098411MD1999999+0031MW1101REMSYN094AAXX  02004 48331 11458 80000 10245 20233 39841 40070 60044 71022 8367/ 333 20233 58003 70035;
0167483310999992000080203004+18760+100770FM-12+0201VTCN V0209999C000010450019N0100001N1+02801+02471100751ADDAA199000091GF107991021061004501071011MA1999999098481MD1999999+0011REMSYN070AAXX  02034 48331 32460 70000 10280 20247 39848 40075 82671 333 58001;EQDQ01  00002PRCP99
0154483310999992000080206004+18760+100770FM-12+0201VTCN V0201101N001010450019N0150001N1+03121+02521100591ADDAA124003691GF106991031021008001051061MA1999999098351MD1999999-0041REMSYN076AAXX  02064 48331 32565 61102 10312 20252 39835 40059 83256 333 59004 70035;
0182483310999992000080209004+18760+100770FM-12+0201VTCN V0209999C000010450019N0080001N1+02501+02411100471ADDAA101022191AY191031AY221031GF107991031091008001071031MA1999999098181MD1999999+0011MW1951REMSYN082AAXX  02094 48331 21558 70000 10250 20241 39818 40047 79592 83973 333 58001 60225;
0213483310999992000080212004+18760+100770FM-12+0201VTCN V0209999C000011050019N0120001N1+02531+02441100431ADDAA103002091AY191061AY291061GF106991021061004501051061KA1120M+03241MA1999999098141MD1999999-0061MW1011REMSYN100AAXX  02124 48331 /1462 60000 10253 20244 39814 40043 60242 70199 82656 333 10324 59006 60027 70239;
0182483310999992000080215004+18760+100770FM-12+0201VTCN V0209999C000010450019N0100001N1+02501+02421100611ADDAA101000191AY121031AY221031GF108991021061004501071999MA1999999098321MD1999999-0091MW1211REMSYN082AAXX  02154 48331 21460 80000 10250 20242 39832 40061 72122 8267/ 333 59009 69925;
0160483310999992000080218004+18760+100770FM-12+0201VTCN V0209999C000010450019N0100001N1+02401+02281100571ADDAA118023991GF108991041051008001071999MA1999999098271MD1999999-0111REMSYN082AAXX  02184 48331 12560 80000 10240 20228 39827 40057 60243 8457/ 333 59011 70241;
0182483310999992000080221004+18760+100770FM-12+0201VTCN V0209999C000010450019N0060001N1+02401+02331100531ADDAA101000791AY121031AY221031GF108991041051008001021999MA1999999098231MD1999999-0071MW1601REMSYN082AAXX  02214 48331 21556 80000 10240 20233 39823 40053 76022 8452/ 333 59007 69905;
0213483310999992000080300004+18760+100770FM-12+0201VTCN V0209999C000010042019N0050001N1+02401+02371100571ADDAA103002091AY161061AY221061GF108991061051004501071999KA1120N+02301MA1999999098281MD1999999-0131MW1611REMSYN100AAXX  03004 48331 /1450 80000 10240 20237 39828 40057 60264 76162 8657/ 333 20230 59013 60027 70258;
0182483310999992000080303004+18760+100770FM-12+0201VTCN V0209999C000010075019N0120001N1+02621+02421100721ADDAA103000591AY161031AY221031GF108991061051008001071999MA1999999098431MD1999999-0031MW1021REMSYN082AAXX  03034 48331 21562 80000 10262 20242 39843 40072 70262 8657/ 333 59003 69947;
0188483310999992000080306004+18760+100770FM-12+0201VTCN V0201601N002610075019N0120001N1+02921+02461100591ADDAA106000591AY161061AY221061GF108991061051008001071061MA1999999098331MD1999999+0001MW1021REMSYN088AAXX  03064 48331 11562 81605 10292 20246 39833 40059 69941 70262 86576 333 58000 70262;
0148483310999992000080309004+18760+100770FM-12+0201VTCN V0209999C000010450019N0150001N1+03041+02511100341ADDAA199000021GF106991041051008001061061MA1999999098091MD1999999-0131REMSYN070AAXX  03094 48331 32565 60000 10304 20251 39809 40034 84566 333 59013;
0173483310999992000080312004+18760+100770FM-12+0201VTCN V0209999C000010075019N0150001N1+02821+02541100321ADDAA124002391GF108991051051008001071061KA1120M+03041MA1999999098061MD1999999-0111REMSYN082AAXX  03124 48331 32565 80000 10282 20254 39806 40032 85576 333 10304 59011 70023;
0167483310999992000080315004+18760+100770FM-12+0201VTCN V0209999C000010450019N0120001N1+02671+02481100461ADDAA199000091GF105991031051008001041061MA1999999098191MD1999999-0151REMSYN070AAXX  03154 48331 32562 50000 10267 20248 39819 40046 83546 333 59015;EQDQ01  00002PRCP99
0154483310999992000080318004+18760+100770FM-12+0201VTCN V0209999C000010450019N0120001N1+02591+02451100421ADDAA124002091GF106991031051008001041061MA1999999098151MD1999999-0151REMSYN076AAXX  03184 48331 32562 60000 10259 20245 39815 40042 83546 333 59015 70021;
0182483310999992000080321004+18760+100770FM-12+0201VTCN V0209999C000010075019N0100001N1+02411+02321100431ADDAA103003091AY161031AY221031GF108991061051008001071999MA1999999098141MD1999999-0101MW1031REMSYN082AAXX  03214 48331 21560 80000 10241 20232 39814 40043 70362 8657/ 333 59010 60037;
0207483310999992000080400004+18760+100770FM-12+0201VTCN V0209999C000010075019N0080001N1+02371+02301100501ADDAA124003091AY161061AY221061GF108991061051008001071061KA1120N+02271MA1999999098211MD1999999-0071MW1101REMSYN094AAXX  04004 48331 11558 80000 10237 20230 39821 40050 60034 71062 86576 333 20227 59007 70033;
0154483310999992000080406004+18760+100770FM-12+0201VTCN V0201401N001510120019N0120001N1+02981+02461100491ADDAA124002891GF108991071081008001071061MA1999999098241MD1999999-0101REMSYN076AAXX  04064 48331 32562 81403 10298 20246 39824 40049 87876 333 59010 70029;
0167483310999992000080409004+18760+100770FM-12+0201VTCN V0209999C000010120019N0150001N1+03021+02541100301ADDAA199000091GF108991061081008001071061MA1999999098051MD1999999-0041REMSYN070AAXX  04094 48331 32565 80000 10302 20254 39805 40030 86876 333 59004;EQDQ01  00002PRCP99
0201483310999992000080412004+18760+100770FM-12+0201VTCN V0209999C000010075019N0150001N1+02841+02561100331ADDAA124002891AY191061AY221061GF108991061091008001071061KA1120M+03081MA1999999098091MD1999999+0011MW1291REMSYN088AAXX  04124 48331 31565 80000 10284 20256 39809 40033 72992 86976 333 10308 58001 70029;
0167483310999992000080415004+18760+100770FM-12+0201VTCN V0209999C000010450019N0120001N1+02641+02451100501ADDAA199000091GF105991021051008001041051MA1999999098221MD1999999+0041REMSYN070AAXX  04154 48331 32562 50000 10264 20245 39822 40050 82545 333 58004;EQDQ01  00002PRCP99
0154483310999992000080418004+18760+100770FM-12+0201VTCN V0209999C000012200019N0120001N1+02591+02451100491ADDAA124002891GF103991021051008001001051MA1999999098211MD1999999+0071REMSYN076AAXX  04184 48331 32562 30000 10259 20245 39821 40049 82505 333 58007 70029;
0167483310999992000080421004+18760+100770FM-12+0201VTCN V0209999C000012200019N0120001N1+02541+02431100401ADDAA199000091GF103991031051008001001051MA1999999098111MD1999999-0031REMSYN070AAXX  04214 48331 32562 30000 10254 20243 39811 40040 83505 333 59003;EQDQ01  00002PRCP99
0186483310999992000080500004+18760+100770FM-12+0201VTCN V0209999C000010450019N0120001N1+02551+02431100511ADDAA199000091GF107991021051008001071011KA1120N+02431MA1999999098221MD1999999+0011REMSYN076AAXX  05004 48331 32562 70000 10255 20243 39822 40051 82571 333 20243 58001;EQDQ01  00002PRCP99
0167483310999992000080503004+18760+100770FM-12+0201VTCN V0201401N001510450019N0150001N1+02941+02451100581ADDAA199000091GF106991021051008001071011MA1999999098231MD1999999-0061REMSYN070AAXX  05034 48331 32565 61403 10294 20245 39823 40058 82571 333 59006;EQDQ01  00002PRCP99
0194483310999992000080506004+18760+100770FM-12+0201VTCN V0201501N000510450019N0150001N1+03021+02551100431ADDAA101000791AY121061AY221061GF108991031051008001071999MA1999999098191MD1999999-0061MW1211REMSYN094AAXX  05064 48331 /1565 81501 10302 20255 39819 40043 69901 72122 8357/ 333 59006 69905 79999;
0148483310999992000080509004+18760+100770FM-12+0201VTCN V0201501N001011050019N0150001N1+03151+02501100231ADDAA199000021GF106991021091008001051031MA1999999097991MD1999999-0071REMSYN070AAXX  05094 48331 32565 61502 10315 20250 39799 40023 82953 333 59007;
0173483310999992000080512004+18760+100770FM-12+0201VTCN V0209999C000010450019N0150001N1+02811+02461100251ADDAA124000791GF108991041081008001071999KA1120M+03181MA1999999097991MD1999999-0081REMSYN082AAXX  05124 48331 32565 80000 10281 20246 39799 40025 8487/ 333 10318 59008 79999;
0148483310999992000080515004+18760+100770FM-12+0201VTCN V0209999C000010450019N0120001N1+02681+02481100551ADDAA199000021GF108991031051008001071999MA1999999098281MD1999999+0051REMSYN070AAXX  05154 48331 32562 80000 10268 20248 39828 40055 8357/ 333 58005;
0154483310999992000080518004+18760+100770FM-12+0201VTCN V0209999C000012200019N0120001N1+02601+02441100511ADDAA124000791GF102991011051008001041011MA1999999098231MD1999999+0021REMSYN076AAXX  05184 48331 32562 20000 10260 20244 39823 40051 81541 333 58002 79999;
0167483310999992000080521004+18760+100770FM-12+0201VTCN V0209999C000010450019N0120001N1+02541+02401100481ADDAA199000091GF106991031051008001071061MA1999999098201MD1999999+0081REMSYN070AAXX  05214 48331 32562 60000 10254 20240 39820 40048 83576 333 58008;EQDQ01  00002PRCP99
0179483310999992000080600004+18760+100770FM-12+0201VTCN V0209999C000010075019N0120001N1+02541+02421100591ADDAA124000791GF108991051051008001071999KA1120N+02431MA1999999098301MD1999999+0081REMSYN088AAXX  06004 48331 12562 80000 10254 20242 39830 40059 69904 8557/ 333 20243 58008 79999;
0167483310999992000080603004+18760+100770FM-12+0201VTCN V0209999C000010075019N0120001N1+02811+02401100691ADDAA199000091GF108991051051008001071999MA1999999098411MD1999999+0111REMSYN070AAXX  06034 48331 32562 80000 10281 20240 39841 40069 8557/ 333 58011;EQDQ01  00002PRCP99
0167483310999992000080606004+18760+100770FM-12+0201VTCN V0209999C000010075019N0120001N1+02901+02471100571ADDAA199000091GF108991051051008001071061MA1999999098311MD1999999+0141REMSYN070AAXX  06064 48331 32562 80000 10290 20247 39831 40057 85576 333 58014;EQDQ01  00002PRCP99
0167483310999992000080609004+18760+100770FM-12+0201VTCN V0209999C000012200019N0150001N1+03121+02371100291ADDAA199000091GF104991041081008001001051MA1999999098061MD1999999+0061REMSYN070AAXX  06094 48331 32565 40000 10312 20237 39806 40029 84805 333 58006;EQDQ01  00002PRCP99
0186483310999992000080612004+18760+100770FM-12+0201VTCN V0209999C000010075019N0150001N1+02861+02491100351ADDAA199000091GF106991051091008001041061KA1120M+03151MA1999999098101MD1999999+0101REMSYN076AAXX  06124 48331 32565 60000 10286 20249 39810 40035 85946 333 10315 58010;EQDQ01  00002PRCP99
0167483310999992000080615004+18760+100770FM-12+0201VTCN V0209999C000010075019N0120001N1+02651+02371100681ADDAA199000091GF105991051051008001001051MA1999999098391MD1999999+0131REMSYN070AAXX  06154 48331 32562 50000 10265 20237 39839 40068 85505 333 58013;EQDQ01  00002PRCP99
0194483310999992000080618004+18760+100770FM-12+0201VTCN V0209999C000010075019N0100001N1+02561+02451100681ADDAA103000391AY161061AY221061GF106991051051008001041051MA1999999098391MD1999999+0171MW1031REMSYN094AAXX  06184 48331 /1560 60000 10256 20245 39839 40068 69933 70362 85545 333 58017 69937 70003;
0182483310999992000080621004+18760+100770FM-12+0201VTCN V0209999C000010075019N0050001N1+02511+02421100581ADDAA101000891AY121031AY221031GF108991061071008001071061MA1999999098291MD1999999+0101MW1601REMSYN082AAXX  06214 48331 21550 80000 10251 20242 39829 40058 76022 86776 333 58010 69975;
0213483310999992000080700004+18760+100770FM-12+0201VTCN V0209999C000010075019N0120001N1+02511+02421100651ADDAA103000791AY161061AY221061GF108991051071008001071061KA1120N+02321MA1999999098351MD1999999+0061MW1021REMSYN100AAXX  07004 48331 /1562 80000 10251 20242 39835 40065 60014 70262 85776 333 20232 58006 69907 70010;
0182483310999992000080703004+18760+100770FM-12+0201VTCN V0209999C000010075019N0100001N1+02721+02431100781ADDAA101000791AY161031AY221031GF108991071071008001071999MA1999999098491MD1999999+0091MW1601REMSYN082AAXX  07034 48331 21560 80000 10272 20243 39849 40078 76062 8777/ 333 58009 69905;
0194483310999992000080706004+18760+100770FM-12+0201VTCN V0209999C000010075019N0050001N1+02901+02541100631ADDAA103000891AY161061AY221061GF108991071071008001071999MA1999999098361MD1999999+0061MW1611REMSYN094AAXX  07064 48331 /1550 80000 10290 20254 39836 40063 69971 76162 8777/ 333 58006 69977 70017;
0182483310999992000080709004+18760+100770FM-12+0201VTCN V0209999C000010120019N0150001N1+02961+02521100381ADDAA103010991AY161031AY221031GF105991051081008001041051MA1999999098131MD1999999+0091MW1011REMSYN082AAXX  07094 48331 21565 50000 10296 20252 39813 40038 70162 85845 333 58009 60117;
0207483310999992000080712004+18760+100770FM-12+0201VTCN V0209999C000010450019N0150001N1+02801+02511100391ADDAA112011991AY161061AY221061GF106991041051008001041061KA1120M+03001MA1999999098131MD1999999+0041MW1031REMSYN094AAXX  07124 48331 11565 60000 10280 20251 39813 40039 60122 70362 84546 333 10300 58004 70127;
0148483310999992000080715004+18760+100770FM-12+0201VTCN V0209999C000012200019N0150001N1+02651+02491100641ADDAA199000021GF103991031051008001001001MA1999999098351MD1999999-0041REMSYN070AAXX  07154 48331 32565 30000 10265 20249 39835 40064 83500 333 59004;
0154483310999992000080718004+18760+100770FM-12+0201VTCN V0209999C000010450019N0120001N1+02561+02471100631ADDAA124012491GF105991031051008001041051MA1999999098341MD1999999+0051REMSYN076AAXX  07184 48331 32562 50000 10256 20247 39834 40063 83545 333 58005 70124;
0182483310999992000080721004+18760+100770FM-12+0201VTCN V0209999C000010042019N0020001N1+02521+02431100641ADDAA101000591AY121031AY221031GF108991081071004501999999MA1999999098341MD1999999+0061MW1601REMSYN082AAXX  07214 48331 21420 80000 10252 20243 39834 40064 76022 887// 333 58006 69945;
0213483310999992000080800004+18760+100770FM-12+0201VTCN V0202101N002110450019N0060001N1+02421+02361100791ADDAA103009991AY161061AY221061GF108991041071004501021999KA1120N+02301MA1999999098491MD1999999+0141MW1611REMSYN100AAXX  08004 48331 /1456 82104 10242 20236 39849 40079 60224 76162 8472/ 333 20230 58014 60107 70217;
0194483310999992000080806004+18760+100770FM-12+0201VTCN V0209999C000010450019N0100001N1+02651+02421100771ADDAA103000191AY161061AY261061GF107991041061004501071011MA1999999098491MD1999999+0141MW1601REMSYN094AAXX  08064 48331 /1460 70000 10265 20242 39849 40077 60151 76066 84671 333 58014 69927 70356;
0148483310999992000080809004+18760+100770FM-12+0201VTCN V0209999C000012200019N0150001N1+03001+02361100431ADDAA199000021GF103991021031008001051011MA1999999098181MD1999999+0051REMSYN070AAXX  08094 48331 32565 30000 10300 20236 39818 40043 82351 333 58005;
0173483310999992000080812004+18760+100770FM-12+0201VTCN V0209999C000012200019N0150001N1+02701+02471100521ADDAA124024691GF102991011091008001051031KA1120M+03031MA1999999098251MD1999999+0131REMSYN082AAXX  08124 48331 32565 20000 10270 20247 39825 40052 81953 333 10303 58013 70246;
0194483310999992000080818004+18760+100770FM-12+0201VTCN V0209999C000010450019N0100001N1+02451+02381100861ADDAA102009991AY161061AY221061GF108991041061004501071999MA1999999098561MD1999999+0231MW1211REMSYN094AAXX  08184 48331 /1460 80000 10245 20238 39856 40086 60253 72162 8467/ 333 58023 60106 70346;
0148483310999992000080821004+18760+100770FM-12+0201VTCN V0209999C000010450019N0100001N1+02401+02331100791ADDAA199000021GF108991031051008001071999MA1999999098491MD1999999+0151REMSYN070AAXX  08214 48331 32560 80000 10240 20233 39849 40079 8357/ 333 58015;
0213483310999992000080900004+18760+100770FM-12+0201VTCN V0209999C000010042019N0080001N1+02281+02231100981ADDAA103014091AY161061AY221061GF108991061071004501071999KA1120N+02171MA1999999098661MD1999999+0191MW1021REMSYN100AAXX  09004 48331 /1458 80000 10228 20223 39866 40098 60394 70262 8677/ 333 20217 58019 60147 70389;
0148483310999992000080903004+18760+100770FM-12+0201VTCN V0209999C000010450019N0120001N1+02601+02321101011ADDAA199000021GF108991041051008001071061MA1999999098711MD1999999+0061REMSYN070AAXX  09034 48331 32562 80000 10260 20232 39871 40101 84576 333 58006;
0154483310999992000080906004+18760+100770FM-12+0201VTCN V0209999C000012200019N0150001N1+03071+02301100791ADDAA124024491GF103991031051008001001001MA1999999098541MD1999999+0021REMSYN076AAXX  09064 48331 32565 30000 10307 20230 39854 40079 83500 333 58002 70245;
0167483310999992000080909004+18760+100770FM-12+0201VTCN V0209999C000012200019N0150001N1+03271+02301100541ADDAA199000091GF103991021021008001001021MA1999999098301MD1999999+0061REMSYN070AAXX  09094 48331 32565 30000 10327 20230 39830 40054 82202 333 58006;EQDQ01  00002PRCP99
0173483310999992000080912004+18760+100770FM-12+0201VTCN V0209999C000012200019N0150001N1+02901+02441100551ADDAA124024491GF102991021021008001001001KA1120M+03341MA1999999098301MD1999999+0031REMSYN082AAXX  09124 48331 32565 20000 10290 20244 39830 40055 82200 333 10334 58003 70243;
0167483310999992000080915004+18760+100770FM-12+0201VTCN V0209999C000011050019N0150001N1+02681+02471100941ADDAA199000091GF106991021051008001051061MA1999999098661MD1999999+0061REMSYN070AAXX  09154 48331 32565 60000 10268 20247 39866 40094 82556 333 58006;EQDQ01  00002PRCP99
0194483310999992000080918004+18760+100770FM-12+0201VTCN V0209999C000010450019N0120001N1+02391+02221101021ADDAA102000891AY161061AY221061GF106991031051008001071061MA1999999098711MD1999999+0161MW1021REMSYN094AAXX  09184 48331 /1562 60000 10239 20222 39871 40102 69983 70262 83576 333 58016 69986 70151;
0167483310999992000080921004+18760+100770FM-12+0201VTCN V0209999C000010075019N0100001N1+02381+02261101011ADDAA199000091GF108991051051008001071999MA1999999098701MD1999999+0221REMSYN070AAXX  09214 48331 32560 80000 10238 20226 39870 40101 8557/ 333 58022;EQDQ01  00002PRCP99
0173483310999992000081000004+18760+100770FM-12+0201VTCN V0209999C000010075019N0120001N1+02401+02281101061ADDAA124000891GF106991061051008001071061KA1120N+02281MA1999999098751MD1999999+0081REMSYN082AAXX  10004 48331 32562 60000 10240 20228 39875 40106 86576 333 20228 58008 70008;
0167483310999992000081003004+18760+100770FM-12+0201VTCN V0209999C000010450019N0150001N1+02781+02331101111ADDAA199000091GF105991031051008001041051MA1999999098831MD1999999+0101REMSYN070AAXX  10034 48331 32565 50000 10278 20233 39883 40111 83545 333 58010;EQDQ01  00002PRCP99
0154483310999992000081006004+18760+100770FM-12+0201VTCN V0209999C000010450019N0150001N1+03201+02411100861ADDAA124000891GF105991041081008001041051MA1999999098621MD1999999+0071REMSYN076AAXX  10064 48331 32565 50000 10320 20241 39862 40086 84845 333 58007 70008;
0167483310999992000081009004+18760+100770FM-12+0201VTCN V0209999C000010075019N0150001N1+03201+02401100551ADDAA199000091GF106991051091008001041061MA1999999098321MD1999999+0011REMSYN070AAXX  10094 48331 32565 60000 10320 20240 39832 40055 85946 333 58001;EQDQ01  00002PRCP99
0173483310999992000081012004+18760+100770FM-12+0201VTCN V0209999C000012200019N0150001N1+02931+02461100541ADDAA124000891GF103991021081008001041051KA1120M+03321MA1999999098291MD1999999-0011REMSYN082AAXX  10124 48331 32565 30000 10293 20246 39829 40054 82845 333 10332 59001 70008;
0167483310999992000081015004+18760+100770FM-12+0201VTCN V0209999C000012200019N0150001N1+02601+02381100851ADDAA199000091GF102991021051008001001051MA1999999098561MD1999999-0091REMSYN070AAXX  10154 48331 32565 20000 10260 20238 39856 40085 82505 333 59009;EQDQ01  00002PRCP99
0167483310999992000081018004+18760+100770FM-12+0201VTCN V0209999C000012200019N0120001N1+02531+02371100751ADDAA199000091GF101991011011008001001001MA1999999098451MD1999999-0271REMSYN070AAXX  10184 48331 32562 10000 10253 20237 39845 40075 81100 333 59027;EQDQ01  00002PRCP99
0167483310999992000081021004+18760+100770FM-12+0201VTCN V0209999C000012200019N0100001N1+02501+02361100631ADDAA199000091GF104991041061004501001001MA1999999098331MD1999999-0381REMSYN070AAXX  10214 48331 32460 40000 10250 20236 39833 40063 84600 333 59038;EQDQ01  00002PRCP99
0186483310999992000081100004+18760+100770FM-12+0201VTCN V0209999C000011050019N0100001N1+02531+02371100721ADDAA199000091GF105991021061004501051011KA1120N+02351MA1999999098431MD1999999-0341REMSYN076AAXX  11004 48331 32460 50000 10253 20237 39843 40072 82651 333 20235 59034;EQDQ01  00002PRCP99
0167483310999992000081103004+18760+100770FM-12+0201VTCN V0209999C000012200019N0150001N1+03051+02431100781ADDAA199000091GF104991021011008001051021MA1999999098531MD1999999-0331REMSYN070AAXX  11034 48331 32565 40000 10305 20243 39853 40078 82152 333 59033;EQDQ01  00002PRCP99
0207483310999992000081112004+18760+100770FM-12+0201VTCN V0209999C000010450019N0120001N1+02521+02411100491ADDAA112019191AY191061AY261061GF107991021051008001071061KA1120M+03471MA1999999098201MD1999999-0051MW1031REMSYN094AAXX  11124 48331 11562 70000 10252 20241 39820 40049 60192 70396 82576 333 10347 59005 70188;
0182483310999992000081115004+18760+100770FM-12+0201VTCN V0209999C000010075019N0100001N1+02381+02261100751ADDAA103001091AY161031AY261031GF108991051051008001071999MA1999999098451MD1999999-0101MW1601REMSYN082AAXX  11154 48331 21560 80000 10238 20226 39845 40075 76066 8557/ 333 59010 60017;
0160483310999992000081118004+18760+100770FM-12+0201VTCN V0209999C000010450019N0120001N1+02551+02271100751ADDAA118020191GF108991041051008001071999MA1999999098441MD1999999+0001REMSYN082AAXX  11184 48331 12562 80000 10255 20227 39844 40075 60203 8457/ 333 58000 70199;
0179483310999992000081200004+18760+100770FM-12+0201VTCN V0209999C000012200019N0120001N1+02401+02251100771ADDAA124020191GF102991021051008001001001KA1120N+02201MA1999999098461MD1999999+0051REMSYN088AAXX  12004 48331 12562 20000 10240 20225 39846 40077 60204 82500 333 20220 58005 70199;
0148483310999992000081203004+18760+100770FM-12+0201VTCN V0209999C000012200019N0150001N1+02931+02431100831ADDAA199000021GF102991021051008001001001MA1999999098561MD1999999+0051REMSYN070AAXX  12034 48331 32565 20000 10293 20243 39856 40083 82500 333 58005;
0194483310999992000081206004+18760+100770FM-12+0201VTCN V0209999C000012200019N0150001N1+03221+02401100631ADDAA101000791AY101061AY201061GF102991021091008001001001MA1999999098391MD1999999+0111MW1291REMSYN094AAXX  12064 48331 /1565 20000 10322 20240 39839 40063 69901 72900 82900 333 58011 69905 70199;
0173483310999992000081212004+18760+100770FM-12+0201VTCN V0209999C000010075019N0150001N1+02651+02361100591ADDAA124001091GF108991061091008001071061KA1120M+03471MA1999999098321MD1999999+0101REMSYN082AAXX  12124 48331 32565 80000 10265 20236 39832 40059 86976 333 10347 58010 70011;
0154483310999992000081218004+18760+100770FM-12+0201VTCN V0209999C000012200019N0120001N1+02451+02291100931ADDAA124000791GF104991031051008001001031MA1999999098631MD1999999+0181REMSYN076AAXX  12184 48331 32562 40000 10245 20229 39863 40093 83503 333 58018 79999;
0167483310999992000081221004+18760+100770FM-12+0201VTCN V0209999C000010075019N0120001N1+02381+02291100891ADDAA199000091GF108991051051008001071061MA1999999098591MD1999999+0231REMSYN070AAXX  12214 48331 32562 80000 10238 20229 39859 40089 85576 333 58023;EQDQ01  00002PRCP99
0201483310999992000081300004+18760+100770FM-12+0201VTCN V0209999C000012200019N0080001N1+02391+02291100951ADDAA124000791AY121061AY211061GF104991031061004501001051KA1120N+02281MA1999999098651MD1999999+0181MW1101REMSYN088AAXX  13004 48331 31458 40000 10239 20229 39865 40095 71021 83605 333 20228 58018 79999;
0167483310999992000081303004+18760+100770FM-12+0201VTCN V0209999C000011050019N0150001N1+02721+02341101021ADDAA199000091GF105991031051008001001051MA1999999098741MD1999999+0191REMSYN070AAXX  13034 48331 32565 50000 10272 20234 39874 40102 83505 333 58019;EQDQ01  00002PRCP99
0167483310999992000081306004+18760+100770FM-12+0201VTCN V0201301N002612200019N0150001N1+03171+02461100771ADDAA199000091GF104991031081008001001011MA1999999098531MD1999999+0141REMSYN070AAXX  13064 48331 32565 41305 10317 20246 39853 40077 83801 333 58014;EQDQ01  00002PRCP99
0195483310999992000081309004+18760+100770FM-12+0201VTCN V0201801N002110075019N0150001N1+03251+02361100481ADDAA199000091AY121031AY221031GF107991061091008001071061MA1999999098261MD1999999+0041MW1171REMSYN076AAXX  13094 48331 31565 71804 10325 20236 39826 40048 71722 86976 333 58004;EQDQ01  00002PRCP99
0213483310999992000081312004+18760+100770FM-12+0201VTCN V0209999C000011050019N0120001N1+02561+02471100571ADDAA103021191AY191061AY221061GF106991021091008001041061KA1120M+03361MA1999999098291MD1999999-0021MW1011REMSYN100AAXX  13124 48331 /1562 60000 10256 20247 39829 40057 60212 70192 82946 333 10336 59002 60217 70208;
0182483310999992000081315004+18760+100770FM-12+0201VTCN V0209999C000010075019N0100001N1+02561+02501100871ADDAA101000791AY121031AY221031GF107991061071008001071061MA1999999098571MD1999999-0041MW1601REMSYN082AAXX  13154 48331 21560 70000 10256 20250 39857 40087 76022 86776 333 59004 69905;
0194483310999992000081318004+18760+100770FM-12+0201VTCN V0209999C000010075019N0100001N1+02501+02381100861ADDAA103000791AY161061AY221061GF108991061071008001071061MA1999999098561MD1999999-0071MW1031REMSYN094AAXX  13184 48331 /1560 80000 10250 20238 39856 40086 60213 70362 86776 333 59007 69907 70208;
0176483310999992000081321004+18760+100770FM-12+0201VTCN V0209999C000010450019N0080001N1+02461+02371100801ADDAA199000021AY121031AY221031GF105991041051008001041051MA1999999098501MD1999999-0091MW1101REMSYN076AAXX  13214 48331 31558 50000 10246 20237 39850 40080 71022 84545 333 59009;
0179483310999992000081400004+18760+100770FM-12+0201VTCN V0209999C000010450019N0120001N1+02501+02391100821ADDAA124021191GF107991021051008001071001KA1120N+02351MA1999999098531MD1999999-0131REMSYN088AAXX  14004 48331 12562 70000 10250 20239 39853 40082 60214 82570 333 20235 59013 70208;
0148483310999992000081403004+18760+100770FM-12+0201VTCN V0201401N001010450019N0150001N1+02871+02411100881ADDAA199000021GF107991021081008001051021MA1999999098611MD1999999-0141REMSYN070AAXX  14034 48331 32565 71402 10287 20241 39861 40088 82852 333 59014;
0154483310999992000081406004+18760+100770FM-12+0201VTCN V0209999C000010075019N0150001N1+03081+02391100691ADDAA124020891GF106991051031008001071011MA1999999098441MD1999999-0081REMSYN076AAXX  14064 48331 32565 60000 10308 20239 39844 40069 85371 333 59008 70208;
0167483310999992000081409004+18760+100770FM-12+0201VTCN V0202301N001511050019N0150001N1+03261+02321100391ADDAA199000091GF106991021091008001051031MA1999999098161MD1999999-0091REMSYN070AAXX  14094 48331 32565 62303 10326 20232 39816 40039 82953 333 59009;EQDQ01  00002PRCP99
0173483310999992000081412004+18760+100770FM-12+0201VTCN V0209999C000010120019N0150001N1+02831+02391100441ADDAA124000791GF107991051081008001071061KA1120M+03301MA1999999098181MD1999999-0131REMSYN082AAXX  14124 48331 32565 70000 10283 20239 39818 40044 85876 333 10330 59013 79999;
0167483310999992000081415004+18760+100770FM-12+0201VTCN V0209999C000010450019N0150001N1+02651+02461100761ADDAA199000091GF106991021051008001071011MA1999999098481MD1999999-0111REMSYN070AAXX  14154 48331 32565 60000 10265 20246 39848 40076 82571 333 59011;EQDQ01  00002PRCP99
0167483310999992000081418004+18760+100770FM-12+0201VTCN V0201801N001511050019N0150001N1+02611+02331100711ADDAA199000091GF106991021051008001071061MA1999999098431MD1999999-0151REMSYN070AAXX  14184 48331 32565 61803 10261 20233 39843 40071 82576 333 59015;EQDQ01  00002PRCP99
0167483310999992000081421004+18760+100770FM-12+0201VTCN V0209999C000011050019N0150001N1+02481+02331100621ADDAA199000091GF106991011051008001041061MA1999999098331MD1999999-0181REMSYN070AAXX  14214 48331 32565 60000 10248 20233 39833 40062 81546 333 59018;EQDQ01  00002PRCP99
0186483310999992000081500004+18760+100770FM-12+0201VTCN V0209999C000010450019N0150001N1+02451+02321100731ADDAA199000091GF106991031051008001041061KA1120N+02331MA1999999098431MD1999999-0091REMSYN076AAXX  15004 48331 32565 60000 10245 20232 39843 40073 83546 333 20233 59009;EQDQ01  00002PRCP99
0167483310999992000081503004+18760+100770FM-12+0201VTCN V0209999C000010450019N0150001N1+02861+02331100821ADDAA199000091GF106991031051008001041061MA1999999098551MD1999999-0061REMSYN070AAXX  15034 48331 32565 60000 10286 20233 39855 40082 83546 333 59006;EQDQ01  00002PRCP99
0167483310999992000081506004+18760+100770FM-12+0201VTCN V0209999C000010450019N0150001N1+03151+02401100621ADDAA199000091GF106991031051008001041061MA1999999098371MD1999999-0071REMSYN070AAXX  15064 48331 32565 60000 10315 20240 39837 40062 83546 333 59007;EQDQ01  00002PRCP99
0167483310999992000081509004+18760+100770FM-12+0201VTCN V0209999C000010450019N0150001N1+03201+02401100311ADDAA199000091GF107991041051008001071061MA1999999098081MD1999999-0081REMSYN070AAXX  15094 48331 32565 70000 10320 20240 39808 40031 84576 333 59008;EQDQ01  00002PRCP99
0186483310999992000081512004+18760+100770FM-12+0201VTCN V0209999C000010450019N0150001N1+02941+02451100301ADDAA199000091GF106991041051008001051061KA1120M+03341MA1999999098051MD1999999-0141REMSYN076AAXX  15124 48331 32565 60000 10294 20245 39805 40030 84556 333 10334 59014;EQDQ01  00002PRCP99
0167483310999992000081515004+18760+100770FM-12+0201VTCN V0209999C000010075019N0150001N1+02701+02361100581ADDAA199000091GF108991061051008001071061MA1999999098311MD1999999-0181REMSYN070AAXX  15154 48331 32565 80000 10270 20236 39831 40058 86576 333 59018;EQDQ01  00002PRCP99
0167483310999992000081521004+18760+100770FM-12+0201VTCN V0209999C000010450019N0120001N1+02521+02411100421ADDAA199000091GF105991021051008001041051MA1999999098141MD1999999-0201REMSYN070AAXX  15214 48331 32562 50000 10252 20241 39814 40042 82545 333 59020;EQDQ01  00002PRCP99
0186483310999992000081600004+18760+100770FM-12+0201VTCN V0209999C000010450019N0120001N1+02511+02391100481ADDAA199000091GF105991041051008001041051KA1120N+02381MA1999999098191MD1999999-0251REMSYN076AAXX  16004 48331 32562 50000 10251 20239 39819 40048 84545 333 20238 59025;EQDQ01  00002PRCP99
0167483310999992000081603004+18760+100770FM-12+0201VTCN V0202101N002110075019N0150001N1+03001+02381100551ADDAA199000091GF106991051071008001071061MA1999999098311MD1999999-0271REMSYN070AAXX  16034 48331 32565 62104 10300 20238 39831 40055 85776 333 59027;EQDQ01  00002PRCP99
0167483310999992000081606004+18760+100770FM-12+0201VTCN V0201801N003110120019N0150001N1+03201+02461100391ADDAA199000091GF107991061081008001071061MA1999999098151MD1999999-0231REMSYN070AAXX  16064 48331 32565 71806 10320 20246 39815 40039 86876 333 59023;EQDQ01  00002PRCP99
0182483310999992000081609004+18760+100770FM-12+0201VTCN V0209999C000010120019N0150001N1+02851+02521100181ADDAA103000191AY161031AY221031GF107991061081008001071061MA1999999097921MD1999999-0131MW1021REMSYN082AAXX  16094 48331 21565 70000 10285 20252 39792 40018 70262 86876 333 59013 69927;
0207483310999992000081612004+18760+100770FM-12+0201VTCN V0209999C000010075019N0120001N1+02761+02521100211ADDAA112000191AY161061AY221061GF107991051091008001071061KA1120M+03231MA1999999097951MD1999999-0091MW1131REMSYN094AAXX  16124 48331 11562 70000 10276 20252 39795 40021 69922 71362 85976 333 10323 59009 70002;
0167483310999992000081615004+18760+100770FM-12+0201VTCN V0209999C000010450019N0120001N1+02651+02481100421ADDAA199000091GF106991041051008001071061MA1999999098151MD1999999-0161REMSYN070AAXX  16154 48331 32562 60000 10265 20248 39815 40042 84576 333 59016;EQDQ01  00002PRCP99
0182483310999992000081621004+18760+100770FM-12+0201VTCN V0209999C000010075019N0120001N1+02511+02371100311ADDAA103000791AY161031AY221031GF108991061071008001071061MA1999999098031MD1999999-0111MW1021REMSYN082AAXX  16214 48331 21562 80000 10251 20237 39803 40031 70262 86776 333 59011 69907;
0179483310999992000081700004+18760+100770FM-12+0201VTCN V0209999C000010450019N0120001N1+02551+02431100421ADDAA124000191GF108991031051008001071999KA1120N+02411MA1999999098141MD1999999-0061REMSYN088AAXX  17004 48331 12562 80000 10255 20243 39814 40042 69924 8357/ 333 20241 59006 70002;
0167483310999992000081703004+18760+100770FM-12+0201VTCN V0201901N001010450019N0150001N1+02821+02371100521ADDAA199000091GF108991041021008001071999MA1999999098261MD1999999-0031REMSYN070AAXX  17034 48331 32565 81902 10282 20237 39826 40052 8427/ 333 59003;EQDQ01  00002PRCP99
0154483310999992000081706004+18760+100770FM-12+0201VTCN V0209999C000010450019N0150001N1+03151+02401100351ADDAA124000391GF106991031091008001051031MA1999999098111MD1999999-0041REMSYN076AAXX  17064 48331 32565 60000 10315 20240 39811 40035 83953 333 59004 70002;
0167483310999992000081709004+18760+100770FM-12+0201VTCN V0209999C000010450019N0150001N1+03221+02571100131ADDAA199000091GF106991031091008001051031MA1999999097901MD1999999-0051REMSYN070AAXX  17094 48331 32565 60000 10322 20257 39790 40013 83953 333 59005;EQDQ01  00002PRCP99
0173483310999992000081712004+18760+100770FM-12+0201VTCN V0209999C000011050019N0150001N1+02881+02541100181ADDAA124000791GF106991021091008001051061KA1120M+03321MA1999999097931MD1999999-0031REMSYN082AAXX  17124 48331 32565 60000 10288 20254 39793 40018 82956 333 10332 59003 79999;
0167483310999992000081715004+18760+100770FM-12+0201VTCN V0209999C000010450019N0120001N1+02751+02581100531ADDAA199000091GF108991031091008001071999MA1999999098261MD1999999+0111REMSYN070AAXX  17154 48331 32562 80000 10275 20258 39826 40053 8397/ 333 58011;EQDQ01  00002PRCP99
0182483310999992000081718004+18760+100770FM-12+0201VTCN V0209999C000010450019N0120001N1+02661+02531100521ADDAA124000791AY121061AY221061GF108991041091008001071999MA1999999098241MD1999999+0091MW1131REMSYN082AAXX  17184 48331 31562 80000 10266 20253 39824 40052 71322 8497/ 333 58009 79999;
0182483310999992000081721004+18760+100770FM-12+0201VTCN V0209999C000010075019N0005001N1+02441+02381100551ADDAA102013091AY191031AY261031GF108991051071008001021999MA1999999098251MD1999999+0241MW1601REMSYN082AAXX  17214 48331 21505 80000 10244 20238 39825 40055 76096 8572/ 333 58024 60136;
0213483310999992000081800004+18760+100770FM-12+0201VTCN V0209999C000010450019N0120001N1+02431+02391100691ADDAA103007991AY191061AY221061GF108991041051004501071999KA1120N+02321MA1999999098381MD1999999+0271MW1021REMSYN100AAXX  18004 48331 /1462 80000 10243 20239 39838 40069 60214 70292 8457/ 333 20232 58027 60087 70214;
0148483310999992000081803004+18760+100770FM-12+0201VTCN V0209999C000010075019N0120001N1+02601+02441100821ADDAA199000021GF108991061051008001071999MA1999999098531MD1999999+0301REMSYN070AAXX  18034 48331 32562 80000 10260 20244 39853 40082 8657/ 333 58030;
0173483310999992000081812004+18760+100770FM-12+0201VTCN V0209999C000010450019N0150001N1+02981+02661100481ADDAA124021391GF106991031051008001041061KA1120M+03301MA1999999098231MD1999999+0301REMSYN082AAXX  18124 48331 32565 60000 10298 20266 39823 40048 83546 333 10330 58030 70214;
0167483310999992000081815004+18760+100770FM-12+0201VTCN V0209999C000012200019N0150001N1+02671+02411100801ADDAA199000091GF103991011051008001001031MA1999999098511MD1999999+0271REMSYN070AAXX  18154 48331 32565 30000 10267 20241 39851 40080 81503 333 58027;EQDQ01  00002PRCP99
0167483310999992000081821004+18760+100770FM-12+0201VTCN V0209999C000010450019N0150001N1+02511+02421100661ADDAA199000091GF106991041051008001051061MA1999999098371MD1999999+0111REMSYN070AAXX  18214 48331 32565 60000 10251 20242 39837 40066 84556 333 58011;EQDQ01  00002PRCP99
0213483310999992000081900004+18760+100770FM-12+0201VTCN V0209999C000010042019N0006001N1+02411+02401100791ADDAA101023191AY121061AY221061GF108991071091004501071999KA1120N+02351MA1999999098491MD1999999+0101MW1951REMSYN100AAXX  19004 48331 /1406 80000 10241 20240 39849 40079 60234 79522 8797/ 333 20235 58010 60235 70230;
0182483310999992000081903004+18760+100770FM-12+0201VTCN V0209999C000010042019N0120001N1+02551+02441100901ADDAA103022191AY191031AY261031GF108991071071004501071999MA1999999098611MD1999999+0081MW1211REMSYN082AAXX  19034 48331 21462 80000 10255 20244 39861 40090 72196 8777/ 333 58008 60227;
0188483310999992000081906004+18760+100770FM-12+0201VTCN V0209999C000010120019N0150001N1+02911+02521100561ADDAA106022191AY191061AY261061GF108991061081008001071061MA1999999098311MD1999999-0081MW1021REMSYN088AAXX  19064 48331 11565 80000 10291 20252 39831 40056 60221 70296 86876 333 59008 70447;
0176483310999992000081909004+18760+100770FM-12+0201VTCN V0209999C000010075019N0150001N1+03181+02581100331ADDAA199000021AY121031AY221031GF107991061091008001071061MA1999999098101MD1999999-0071MW1171REMSYN076AAXX  19094 48331 31565 70000 10318 20258 39810 40033 71722 86976 333 59007;
0201483310999992000081912004+18760+100770FM-12+0201VTCN V0209999C000010120019N0150001N1+02721+02451100431ADDAA124044791AY191061AY221061GF106991051081008001041061KA1120M+03261MA1999999098161MD1999999-0051MW1011REMSYN088AAXX  19124 48331 31565 60000 10272 20245 39816 40043 70192 85846 333 10326 59005 70447;
0148483310999992000081915004+18760+100770FM-12+0201VTCN V0209999C000010075019N0150001N1+02621+02461100691ADDAA199000021GF106991061051008001071061MA1999999098391MD1999999-0111REMSYN070AAXX  19154 48331 32565 60000 10262 20246 39839 40069 86576 333 59011;
0154483310999992000081918004+18760+100770FM-12+0201VTCN V0209999C000010075019N0120001N1+02561+02451100671ADDAA124044791GF107991061051008001071061MA1999999098381MD1999999-0081REMSYN076AAXX  19184 48331 32562 70000 10256 20245 39838 40067 86576 333 59008 70447;
0167483310999992000081921004+18760+100770FM-12+0201VTCN V0209999C000010075019N0120001N1+02551+02461100521ADDAA199000091GF106991051051008001071061MA1999999098251MD1999999-0141REMSYN070AAXX  19214 48331 32562 60000 10255 20246 39825 40052 85576 333 59014;EQDQ01  00002PRCP99
0207483310999992000082000004+18760+100770FM-12+0201VTCN V0209999C000010042019N0080001N1+02551+02441100551ADDAA124022191AY121061AY221061GF108991051061004501071999KA1120N+02451MA1999999098261MD1999999-0241MW1101REMSYN094AAXX  20004 48331 11458 80000 10255 20244 39826 40055 60224 71022 8567/ 333 20245 59024 70217;
0167483310999992000082003004+18760+100770FM-12+0201VTCN V0209999C000010450019N0120001N1+02971+02511100631ADDAA199000091GF105991041021008001051011MA1999999098371MD1999999-0271REMSYN070AAXX  20034 48331 32562 50000 10297 20251 39837 40063 84251 333 59027;EQDQ01  00002PRCP99
0167483310999992000082006004+18760+100770FM-12+0201VTCN V0209999C000012200019N0150001N1+03331+02511100381ADDAA199000091GF103991021091008001051061MA1999999098151MD1999999-0181REMSYN070AAXX  20064 48331 32565 30000 10333 20251 39815 40038 82956 333 59018;EQDQ01  00002PRCP99
0195483310999992000082009004+18760+100770FM-12+0201VTCN V0201501N000511050019N0150001N1+03201+02491100111ADDAA199000091AY121031AY211031GF105991021091008001071031MA1999999097881MD1999999-0221MW1291REMSYN076AAXX  20094 48331 31565 51501 10320 20249 39788 40011 72921 82973 333 59022;EQDQ01  00002PRCP99
0186483310999992000082012004+18760+100770FM-12+0201VTCN V0209999C000011050019N0150001N1+02931+02531100171ADDAA199000091GF105991011091008001051061KA1120M+03471MA1999999097921MD1999999-0261REMSYN076AAXX  20124 48331 32565 50000 10293 20253 39792 40017 81956 333 10347 59026;EQDQ01  00002PRCP99
0167483310999992000082015004+18760+100770FM-12+0201VTCN V0209999C000012200019N0100001N1+02711+02511100411ADDAA199000091GF102991011051008001051061MA1999999098141MD1999999-0281REMSYN070AAXX  20154 48331 32560 20000 10271 20251 39814 40041 81556 333 59028;EQDQ01  00002PRCP99
0167483310999992000082018004+18760+100770FM-12+0201VTCN V0209999C000012200019N0100001N1+02571+02451100421ADDAA199000091GF103991011051008001051061MA1999999098141MD1999999-0261REMSYN070AAXX  20184 48331 32560 30000 10257 20245 39814 40042 81556 333 59026;EQDQ01  00002PRCP99
0167483310999992000082021004+18760+100770FM-12+0201VTCN V0209999C000011050019N0100001N1+02501+02421100341ADDAA199000091GF106991021051008001071061MA1999999098051MD1999999-0181REMSYN070AAXX  20214 48331 32560 60000 10250 20242 39805 40034 82576 333 59018;EQDQ01  00002PRCP99
0214483310999992000082100004+18760+100770FM-12+0201VTCN V0209999C000010450019N0080001N1+02491+02371100431ADDAA199000091AY121061AY221061GF106991041051008001071061KA1120N+02381MA1999999098141MD1999999-0121MW1101REMSYN082AAXX  21004 48331 31558 60000 10249 20237 39814 40043 71022 84576 333 20238 59012;EQDQ01  00002PRCP99
0167483310999992000082103004+18760+100770FM-12+0201VTCN V0209999C000012200019N0150001N1+03001+02471100431ADDAA199000091GF104991041051008001001051MA1999999098191MD1999999-0201REMSYN070AAXX  21034 48331 32565 40000 10300 20247 39819 40043 84505 333 59020;EQDQ01  00002PRCP99
0167483310999992000082106004+18760+100770FM-12+0201VTCN V0209999C000012200019N0150001N1+03341+02541100181ADDAA199000091GF103991031031008001001011MA1999999097961MD1999999-0201REMSYN070AAXX  21064 48331 32565 30000 10334 20254 39796 40018 83301 333 59020;EQDQ01  00002PRCP99
0195483310999992000082109004+18760+100770FM-12+0201VTCN V0209999C000010075019N0150001N1+03571+02561099931ADDAA199000091AY121031AY211031GF106991051091008001071061MA1999999097721MD1999999-0181MW1171REMSYN076AAXX  21094 48331 31565 60000 10357 20256 39772 49993 71721 85976 333 59018;EQDQ01  00002PRCP99
0214483310999992000082112004+18760+100770FM-12+0201VTCN V0209999C000012200019N0150001N1+02871+02411100031ADDAA199000091AY191061AY221061GF102991021091008001041011KA1120M+03601MA1999999097781MD1999999-0141MW1011REMSYN082AAXX  21124 48331 31565 20000 10287 20241 39778 40003 70192 82941 333 10360 59014;EQDQ01  00002PRCP99
0167483310999992000082115004+18760+100770FM-12+0201VTCN V0209999C000012200019N0150001N1+02661+02401100291ADDAA199000091GF102991021051008001001011MA1999999098021MD1999999-0121REMSYN070AAXX  21154 48331 32565 20000 10266 20240 39802 40029 82501 333 59012;EQDQ01  00002PRCP99
0195483310999992000082118004+18760+100770FM-12+0201VTCN V0209999C000010450019N0120001N1+02551+02391100321ADDAA199000091AY111061AY201061GF105991041091008001071061MA1999999098041MD1999999-0101MW1171REMSYN076AAXX  21184 48331 31562 50000 10255 20239 39804 40032 71710 84976 333 59010;EQDQ01  00002PRCP99
0182483310999992000082121004+18760+100770FM-12+0201VTCN V0209999C000012200019N0120001N1+02301+02221100371ADDAA101009991AY191031AY221031GF103991031051008001041051MA1999999098071MD1999999+0031MW1951REMSYN082AAXX  21214 48331 21562 30000 10230 20222 39807 40037 79592 83545 333 58003 60105;
0179483310999992000082200004+18760+100770FM-12+0201VTCN V0209999C000010450019N0150001N1+02341+02281100461ADDAA124009991GF107991021061008001071061KA1120N+02201MA1999999098161MD1999999+0031REMSYN088AAXX  22004 48331 12565 70000 10234 20228 39816 40046 60104 82676 333 20220 58003 70100;
0148483310999992000082203004+18760+100770FM-12+0201VTCN V0209999C000011050019N0150001N1+02721+02371100461ADDAA199000021GF106991021061008001071061MA1999999098191MD1999999+0031REMSYN070AAXX  22034 48331 32565 60000 10272 20237 39819 40046 82676 333 58003;
0154483310999992000082206004+18760+100770FM-12+0201VTCN V0209999C000010450019N0150001N1+03201+02571100211ADDAA124009991GF106991021031008001071011MA1999999097981MD1999999+0031REMSYN076AAXX  22064 48331 32565 60000 10320 20257 39798 40021 82371 333 58003 70100;
0148483310999992000082209004+18760+100770FM-12+0201VTCN V0201701N001010450019N0150001N1+03281+02681099971ADDAA199000021GF107991031031008001071061MA1999999097751MD1999999+0041REMSYN070AAXX  22094 48331 32565 71702 10328 20268 39775 49997 83376 333 58004;
0213483310999992000082212004+18760+100770FM-12+0201VTCN V0209999C000010450019N0120001N1+02751+02431100141ADDAA102000591AY191061AY221061GF108991041051008001071999KA1120M+03331MA1999999097881MD1999999+0111MW1031REMSYN100AAXX  22124 48331 /1562 80000 10275 20243 39788 40014 69962 70392 8457/ 333 10333 58011 69966 70106;
0167483310999992000082215004+18760+100770FM-12+0201VTCN V0209999C000010075019N0120001N1+02701+02471100341ADDAA199000091GF108991061051008001071999MA1999999098071MD1999999+0051REMSYN070AAXX  22154 48331 32562 80000 10270 20247 39807 40034 8657/ 333 58005;EQDQ01  00002PRCP99
0154483310999992000082218004+18760+100770FM-12+0201VTCN V0209999C000010450019N0100001N1+02601+02441100301ADDAA124010791GF108991041051008001071999MA1999999098021MD1999999-0021REMSYN076AAXX  22184 48331 32560 80000 10260 20244 39802 40030 8457/ 333 59002 70106;
0182483310999992000082221004+18760+100770FM-12+0201VTCN V0209999C000010450019N0040001N1+02501+02421100191ADDAA103001091AY161031AY221031GF108991041051008001071999MA1999999097911MD1999999-0181MW1211REMSYN082AAXX  22214 48331 21540 80000 10250 20242 39791 40019 72162 8457/ 333 59018 60017;
0207483310999992000082300004+18760+100770FM-12+0201VTCN V0209999C000010450019N0060001N1+02511+02431100281ADDAA124002091AY161061AY221061GF108991041051008001071061KA1120N+02401MA1999999098001MD1999999-0181MW1101REMSYN094AAXX  23004 48331 11556 80000 10251 20243 39800 40028 60024 71062 84576 333 20240 59018 70018;
0148483310999992000082303004+18760+100770FM-12+0201VTCN V0209999C000010075019N0120001N1+02801+02471100371ADDAA199000021GF108991061071008001071061MA1999999098111MD1999999-0091REMSYN070AAXX  23034 48331 32562 80000 10280 20247 39811 40037 86776 333 59009;
0194483310999992000082306004+18760+100770FM-12+0201VTCN V0209999C000010120019N0080001N1+03061+02551100211ADDAA101000791AY121061AY221061GF108991061081008001071061MA1999999097981MD1999999+0001MW1601REMSYN094AAXX  23064 48331 /1558 80000 10306 20255 39798 40021 69901 76022 86876 333 58000 69905 70018;
0182483310999992000082309004+18760+100770FM-12+0201VTCN V0209999C000010450019N0150001N1+03121+02571099971ADDAA103000791AY161031AY221031GF106991031031004501041061MA1999999097741MD1999999+0001MW1011REMSYN082AAXX  23094 48331 21465 60000 10312 20257 39774 49997 70162 83346 333 58000 69907;
0207483310999992000082312004+18760+100770FM-12+0201VTCN V0209999C000010075019N0150001N1+02971+02631100061ADDAA112000791AY161061AY221061GF106991051051008001041061KA1120M+03181MA1999999097811MD1999999-0081MW1021REMSYN094AAXX  23124 48331 11565 60000 10297 20263 39781 40006 69902 70262 85546 333 10318 59008 70012;
0148483310999992000082315004+18760+100770FM-12+0201VTCN V0209999C000010075019N0120001N1+02801+02561100271ADDAA199000021GF105991051051008001041061MA1999999098011MD1999999-0071REMSYN070AAXX  23154 48331 32562 50000 10280 20256 39801 40027 85546 333 59007;
0194483310999992000082318004+18760+100770FM-12+0201VTCN V0209999C000010075019N0120001N1+02651+02491100251ADDAA102000791AY191061AY221061GF107991051091008001071061MA1999999097981MD1999999-0051MW1131REMSYN094AAXX  23184 48331 /1562 70000 10265 20249 39798 40025 69903 71392 85976 333 59005 69906 70012;
0182483310999992000082321004+18760+100770FM-12+0201VTCN V0209999C000010042019N0020001N1+02301+02221100321ADDAA103015091AY191031AY221031GF108991071091004501071091MA1999999098021MD1999999+0131MW1951REMSYN082AAXX  23214 48331 21420 80000 10230 20222 39802 40032 79592 87979 333 58013 60157;
0213483310999992000082400004+18760+100770FM-12+0201VTCN V0209999C000010450019N0150001N1+02341+02281100351ADDAA103000191AY191061AY221061GF105991031051008001041051KA1120N+02211MA1999999098051MD1999999+0071MW1011REMSYN100AAXX  24004 48331 /1565 50000 10234 20228 39805 40035 60154 70192 83545 333 20221 58007 69927 70147;
0148483310999992000082403004+18760+100770FM-12+0201VTCN V0209999C000010450019N0150001N1+02821+02351100391ADDAA199000021GF105991031051008001041051MA1999999098131MD1999999+0021REMSYN070AAXX  24034 48331 32565 50000 10282 20235 39813 40039 83545 333 58002;
0153483310999992000082406004+18760+100770FM-12+0201VTCN V0209999C000012200019N0150001N1+03181+02501999999ADDAA199000021GF102991999999008001999999MA1999999097901MD1999999-0081REMSYN075AAXX  24064 48331 32565 20000 10318 20250 39790 0013 82500 333 59008 70147;
0148483310999992000082409004+18760+100770FM-12+0201VTCN V0209999C000012200019N0150001N1+03261+02621099891ADDAA199000021GF102991021051008001001051MA1999999097671MD1999999-0081REMSYN070AAXX  24094 48331 32565 20000 10326 20262 39767 49989 82505 333 59008;
0201483310999992000082412004+18760+100770FM-12+0201VTCN V0209999C000010450019N0120001N1+02981+02401099991ADDAA124014791AY121061AY201061GF106991041091004501041061KA1120M+03381MA1999999097751MD1999999-0071MW1171REMSYN088AAXX  24124 48331 31462 60000 10298 20240 39775 49999 71720 84946 333 10338 59007 70147;
0182483310999992000082415004+18760+100770FM-12+0201VTCN V0209999C000010042019N0020001N1+02341+02281100521ADDAA103016091AY191031AY221031GF108991061091004501071999MA1999999098221MD1999999+0251MW1951REMSYN082AAXX  24154 48331 21420 80000 10234 20228 39822 40052 79592 8697/ 333 58025 60167;
0194483310999992000082418004+18760+100770FM-12+0201VTCN V0209999C000010042019N0030001N1+02371+02341100491ADDAA103002091AY191061AY221061GF108991081071004501999999MA1999999098191MD1999999+0241MW1611REMSYN094AAXX  24184 48331 /1430 80000 10237 20234 39819 40049 60183 76192 887// 333 58024 60027 70325;
0182483310999992000082421004+18760+100770FM-12+0201VTCN V0209999C000010042019N0080001N1+02381+02351100461ADDAA103000191AY161031AY221031GF108991061051004501071999MA1999999098171MD1999999+0141MW1101REMSYN082AAXX  24214 48331 21458 80000 10238 20235 39817 40046 71062 8657/ 333 58014 69927;
0207483310999992000082500004+18760+100770FM-12+0201VTCN V0209999C000010042019N0080001N1+02411+02351100541ADDAA124018091AY161061AY221061GF108991051061004501071999KA1120N+02221MA1999999098241MD1999999+0191MW1101REMSYN094AAXX  25004 48331 11458 80000 10241 20235 39824 40054 60184 71062 8567/ 333 20222 58019 70180;
0148483310999992000082503004+18760+100770FM-12+0201VTCN V0209999C000010042019N0120001N1+02681+02371100651ADDAA199000021GF107991061061004501071061MA1999999098381MD1999999+0261REMSYN070AAXX  25034 48331 32462 70000 10268 20237 39838 40065 86676 333 58026;
0154483310999992000082506004+18760+100770FM-12+0201VTCN V0202101N001012200019N0150001N1+03101+02461100391ADDAA124018091GF103991021031008001051011MA1999999098151MD1999999+0261REMSYN076AAXX  25064 48331 32565 32102 10310 20246 39815 40039 82351 333 58026 70180;
0167483310999992000082509004+18760+100770FM-12+0201VTCN V0201401N001012200019N0150001N1+03351+02581100061ADDAA199000091GF103991011031008001071011MA1999999097841MD1999999+0171REMSYN070AAXX  25094 48331 32565 31402 10335 20258 39784 40006 81371 333 58017;EQDQ01  00002PRCP99
0173483310999992000082512004+18760+100770FM-12+0201VTCN V0209999C000012200019N0120001N1+02971+02591100191ADDAA124018091GF102991011051008001051011KA1120M+03371MA1999999097941MD1999999+0201REMSYN082AAXX  25124 48331 32562 20000 10297 20259 39794 40019 81551 333 10337 58020 70180;
0167483310999992000082515004+18760+100770FM-12+0201VTCN V0209999C000010450019N0120001N1+02721+02461100461ADDAA199000091GF106991041051008001071061MA1999999098191MD1999999-0061REMSYN070AAXX  25154 48331 32562 60000 10272 20246 39819 40046 84576 333 59006;EQDQ01  00002PRCP99
0182483310999992000082518004+18760+100770FM-12+0201VTCN V0209999C000010075019N0100001N1+02671+02481100481ADDAA124000391AY121061AY211061GF108991051091008001071999MA1999999098201MD1999999-0011MW1131REMSYN082AAXX  25184 48331 31560 80000 10267 20248 39820 40048 71321 8597/ 333 59001 70002;
0182483310999992000082521004+18760+100770FM-12+0201VTCN V0209999C000010075019N0080001N1+02351+02351100441ADDAA103049091AY191031AY291031GF108991061091008001071999MA1999999098141MD1999999-0021MW1971REMSYN082AAXX  25214 48331 21558 80000 10235 20235 39814 40044 79799 8697/ 333 59002 60497;
0213483310999992000082600004+18760+100770FM-12+0201VTCN V0209999C000010042019N0010001N1+02401+02401100591ADDAA103021191AY191061AY221061GF108991061091004501071999KA1120N+02281MA1999999098301MD1999999+0051MW1951REMSYN100AAXX  26004 48331 /1410 80000 10240 20240 39830 40059 60704 79592 8697/ 333 20228 58005 60217 70699;
0182483310999992000082603004+18760+100770FM-12+0201VTCN V0209999C000010042019N0080001N1+02551+02501100691ADDAA103007191AY191031AY261031GF108991071071004501071999MA1999999098401MD1999999+0041MW1611REMSYN082AAXX  26034 48331 21458 80000 10255 20250 39840 40069 76196 8777/ 333 58004 60077;
0194483310999992000082606004+18760+100770FM-12+0201VTCN V0209999C000010120019N0150001N1+02801+02511100501ADDAA103000591AY191061AY261061GF108991061081008001071061MA1999999098241MD1999999+0111MW1021REMSYN094AAXX  26064 48331 /1565 80000 10280 20251 39824 40050 60071 70296 86876 333 58011 69957 70772;
0148483310999992000082609004+18760+100770FM-12+0201VTCN V0209999C000010075019N0150001N1+03061+02581100221ADDAA199000021GF107991061091008001071061MA1999999097981MD1999999+0161REMSYN070AAXX  26094 48331 32565 70000 10306 20258 39798 40022 86976 333 58016;
0173483310999992000082612004+18760+100770FM-12+0201VTCN V0209999C000010075019N0120001N1+02781+02551100341ADDAA124077291GF108991051091008001071061KA1120M+03081MA1999999098081MD1999999+0151REMSYN082AAXX  26124 48331 32562 80000 10278 20255 39808 40034 85976 333 10308 58015 70772;
0148483310999992000082615004+18760+100770FM-12+0201VTCN V0209999C000010075019N0120001N1+02631+02471100631ADDAA199000021GF106991051051008001041061MA1999999098341MD1999999+0171REMSYN070AAXX  26154 48331 32562 60000 10263 20247 39834 40063 85546 333 58017;
0154483310999992000082618004+18760+100770FM-12+0201VTCN V0209999C000010075019N0120001N1+02571+02481100551ADDAA124077291GF106991051051008001071061MA1999999098271MD1999999+0071REMSYN076AAXX  26184 48331 32562 60000 10257 20248 39827 40055 85576 333 58007 70772;
0167483310999992000082621004+18760+100770FM-12+0201VTCN V0209999C000010075019N0100001N1+02561+02471100411ADDAA199000091GF106991061071008001071061MA1999999098141MD1999999-0031REMSYN070AAXX  26214 48331 32560 60000 10256 20247 39814 40041 86776 333 59003;EQDQ01  00002PRCP99
0207483310999992000082700004+18760+100770FM-12+0201VTCN V0209999C000010042019N0080001N1+02571+02491100511ADDAA124007191AY121061AY221061GF108991051061004501071061KA1120N+02461MA1999999098231MD1999999-0081MW1101REMSYN094AAXX  27004 48331 11458 80000 10257 20249 39823 40051 60074 71022 85676 333 20246 59008 70073;
0167483310999992000082703004+18760+100770FM-12+0201VTCN V0209999C000010075019N0120001N1+02821+02501100591ADDAA199000091GF108991071051008001071071MA1999999098321MD1999999-0101REMSYN070AAXX  27034 48331 32562 80000 10282 20250 39832 40059 87577 333 59010;EQDQ01  00002PRCP99
0167483310999992000082706004+18760+100770FM-12+0201VTCN V0209999C000010450019N0150001N1+03171+02531100371ADDAA199000091GF106991041081008001041061MA1999999098141MD1999999-0131REMSYN070AAXX  27064 48331 32565 60000 10317 20253 39814 40037 84846 333 59013;EQDQ01  00002PRCP99
0195483310999992000082709004+18760+100770FM-12+0201VTCN V0209999C000010042019N0150001N1+03001+02581100211ADDAA199000091AY121031AY221031GF108991061091004501071999MA1999999097971MD1999999-0011MW1171REMSYN076AAXX  27094 48331 31465 80000 10300 20258 39797 40021 71722 8697/ 333 59001;EQDQ01  00002PRCP99
0186483310999992000082712004+18760+100770FM-12+0201VTCN V0209999C000010450019N0120001N1+02801+02581100431ADDAA199000091GF106991041091004501071061KA1120M+03241MA1999999098171MD1999999+0091REMSYN076AAXX  27124 48331 32462 60000 10280 20258 39817 40043 84976 333 10324 58009;EQDQ01  00002PRCP99
0182483310999992000082715004+18760+100770FM-12+0201VTCN V0209999C000010042019N0040001N1+02701+02551100531ADDAA101000591AY191031AY221031GF108991061091004501071999MA1999999098261MD1999999-0101MW1951REMSYN082AAXX  27154 48331 21440 80000 10270 20255 39826 40053 79592 8697/ 333 59010 69965;
0194483310999992000082718004+18760+100770FM-12+0201VTCN V0209999C000010450019N0120001N1+02641+02521100551ADDAA103000191AY191061AY221061GF106991041051008001071061MA1999999098271MD1999999+0001MW1011REMSYN094AAXX  27184 48331 /1562 60000 10264 20252 39827 40055 69983 70192 84576 333 58000 69927 70008;
0148483310999992000082721004+18760+100770FM-12+0201VTCN V0209999C000010450019N0120001N1+02591+02451100401ADDAA199000021GF106991031051008001041061MA1999999098121MD1999999-0011REMSYN070AAXX  27214 48331 32562 60000 10259 20245 39812 40040 83546 333 59001;
0173483310999992000082800004+18760+100770FM-12+0201VTCN V0209999C000010075019N0120001N1+02531+02351100541ADDAA124000891GF108991061071008001071061KA1120N+02431MA1999999098251MD1999999+0031REMSYN082AAXX  28004 48331 32562 80000 10253 20235 39825 40054 86776 333 20243 58003 70008;
0148483310999992000082803004+18760+100770FM-12+0201VTCN V0202401N002610450019N0150001N1+02731+02381100671ADDAA199000021GF107991041071008001071061MA1999999098391MD1999999+0081REMSYN070AAXX  28034 48331 32565 72405 10273 20238 39839 40067 84776 333 58008;
0182483310999992000082806004+18760+100770FM-12+0201VTCN V0201801N003110120019N0150001N1+03031+02441100471ADDAA124000891AY121061AY221061GF107991061081008001071061MA1999999098231MD1999999+0101MW1151REMSYN082AAXX  28064 48331 31565 71806 10303 20244 39823 40047 71522 86876 333 58010 70008;
0182483310999992000082809004+18760+100770FM-12+0201VTCN V0209999C000010120019N0100001N1+03011+02471100241ADDAA101000791AY121031AY221031GF107991061081008001071061MA1999999098001MD1999999+0031MW1601REMSYN082AAXX  28094 48331 21560 70000 10301 20247 39800 40024 76022 86876 333 58003 69905;
0213483310999992000082812004+18760+100770FM-12+0201VTCN V0209999C000010042019N0030001N1+02651+02521100371ADDAA103004191AY161061AY221061GF108991071071004501071999KA1120M+03151MA1999999098101MD1999999-0061MW1601REMSYN100AAXX  28124 48331 /1430 80000 10265 20252 39810 40037 60042 76062 8777/ 333 10315 59006 60047 70048;
0182483310999992000082815004+18760+100770FM-12+0201VTCN V0209999C000010042019N0040001N1+02481+02411100661ADDAA103004191AY161031AY261031GF108991081071004501999999MA1999999098381MD1999999+0131MW1611REMSYN082AAXX  28154 48331 21440 80000 10248 20241 39838 40066 76166 887// 333 58013 60047;
0194483310999992000082818004+18760+100770FM-12+0201VTCN V0209999C000010042019N0080001N1+02461+02391100641ADDAA103000591AY161061AY221061GF108991061071004501071999MA1999999098341MD1999999+0091MW1211REMSYN094AAXX  28184 48331 /1458 80000 10246 20239 39834 40064 60083 72162 8677/ 333 58009 69957 70083;
0176483310999992000082821004+18760+100770FM-12+0201VTCN V0209999C000010450019N0080001N1+02411+02321100501ADDAA199000021AY121031AY221031GF106991041071004501071061MA1999999098211MD1999999+0081MW1101REMSYN076AAXX  28214 48331 31458 60000 10241 20232 39821 40050 71022 84776 333 58008;
0179483310999992000082900004+18760+100770FM-12+0201VTCN V0209999C000010450019N0120001N1+02411+02321100601ADDAA124007991GF108991041051008001051061KA1120N+02281MA1999999098301MD1999999+0061REMSYN088AAXX  29004 48331 12562 80000 10241 20232 39830 40060 60084 84556 333 20228 58006 70083;
0148483310999992000082903004+18760+100770FM-12+0201VTCN V0209999C000010450019N0120001N1+02751+02371100651ADDAA199000021GF107991041051008001071061MA1999999098381MD1999999-0021REMSYN070AAXX  29034 48331 32562 70000 10275 20237 39838 40065 84576 333 59002;
0194483310999992000082906004+18760+100770FM-12+0201VTCN V0209999C000010075019N0100001N1+03001+02421100501ADDAA101000791AY121061AY221061GF108991061051008001071061MA1999999098251MD1999999+0031MW1601REMSYN094AAXX  29064 48331 /1560 80000 10300 20242 39825 40050 69901 76022 86576 333 58003 69905 70083;
0182483310999992000082909004+18760+100770FM-12+0201VTCN V0209999C000010450019N0100001N1+02961+02441100151ADDAA103002091AY161031AY221031GF106991041051008001051061MA1999999097911MD1999999-0091MW1601REMSYN082AAXX  29094 48331 21560 60000 10296 20244 39791 40015 76062 84556 333 59009 60027;
0207483310999992000082912004+18760+100770FM-12+0201VTCN V0209999C000010075019N0120001N1+02741+02341100281ADDAA112002091AY161061AY221061GF108991051051008001071999KA1120M+03041MA1999999098011MD1999999-0091MW1031REMSYN094AAXX  29124 48331 11562 80000 10274 20234 39801 40028 60022 70362 8557/ 333 10304 59009 70063;
0148483310999992000082915004+18760+100770FM-12+0201VTCN V0209999C000010075019N0120001N1+02631+02431100541ADDAA199000021GF108991051051008001071061MA1999999098261MD1999999-0121REMSYN070AAXX  29154 48331 32562 80000 10263 20243 39826 40054 85576 333 59012;
0154483310999992000082918004+18760+100770FM-12+0201VTCN V0209999C000010075019N0120001N1+02551+02391100471ADDAA124002091GF108991051051008001071999MA1999999098191MD1999999-0171REMSYN076AAXX  29184 48331 32562 80000 10255 20239 39819 40047 8557/ 333 59017 70020;
0173483310999992000083000004+18760+100770FM-12+0201VTCN V0209999C000010075019N0120001N1+02461+02341100461ADDAA124002091GF108991061071008001071061KA1120N+02351MA1999999098181MD1999999-0041REMSYN082AAXX  30004 48331 32562 80000 10246 20234 39818 40046 86776 333 20235 59004 70020;
0167483310999992000083003004+18760+100770FM-12+0201VTCN V0209999C000010120019N0150001N1+02851+02341100601ADDAA199000091GF107991051081008001071061MA1999999098331MD1999999-0051REMSYN070AAXX  30034 48331 32565 70000 10285 20234 39833 40060 85876 333 59005;EQDQ01  00002PRCP99
0154483310999992000083006004+18760+100770FM-12+0201VTCN V0209999C000010120019N0150001N1+03131+02331100391ADDAA124002091GF106991061081008001071061MA1999999098151MD1999999-0111REMSYN076AAXX  30064 48331 32565 60000 10313 20233 39815 40039 86876 333 59011 70020;
0167483310999992000083009004+18760+100770FM-12+0201VTCN V0209999C000010120019N0150001N1+03161+02431100231ADDAA199000091GF105991051081008001071061MA1999999098001MD1999999+0081REMSYN070AAXX  30094 48331 32565 50000 10316 20243 39800 40023 85876 333 58008;EQDQ01  00002PRCP99
0214483310999992000083012004+18760+100770FM-12+0201VTCN V0209999C000010075019N0150001N1+02961+02441100201ADDAA199000091AY121061AY221061GF106991051091008001071061KA1120M+03211MA1999999097951MD1999999-0081MW1151REMSYN082AAXX  30124 48331 31565 60000 10296 20244 39795 40020 71522 85976 333 10321 59008;EQDQ01  00002PRCP99
0167483310999992000083015004+18760+100770FM-12+0201VTCN V0209999C000010450019N0150001N1+02721+02461100471ADDAA199000091GF105991041051008001041061MA1999999098201MD1999999-0071REMSYN070AAXX  30154 48331 32565 50000 10272 20246 39820 40047 84546 333 59007;EQDQ01  00002PRCP99
0167483310999992000083018004+18760+100770FM-12+0201VTCN V0209999C000010075019N0120001N1+02581+02391100411ADDAA199000091GF105991051051008001041061MA1999999098131MD1999999-0061REMSYN070AAXX  30184 48331 32562 50000 10258 20239 39813 40041 85546 333 59006;EQDQ01  00002PRCP99
0167483310999992000083021004+18760+100770FM-12+0201VTCN V0209999C000012200019N0120001N1+02521+02381100351ADDAA199000091GF104991031051008001041051MA1999999098071MD1999999-0041REMSYN070AAXX  30214 48331 32562 40000 10252 20238 39807 40035 83545 333 59004;EQDQ01  00002PRCP99
0186483310999992000083100004+18760+100770FM-12+0201VTCN V0209999C000010450019N0120001N1+02521+02381100471ADDAA199000091GF108991041051008001071061KA1120N+02401MA1999999098181MD1999999+0011REMSYN076AAXX  31004 48331 32562 80000 10252 20238 39818 40047 84576 333 20240 58001;EQDQ01  00002PRCP99
0167483310999992000083103004+18760+100770FM-12+0201VTCN V0209999C000010450019N0120001N1+03081+02431100461ADDAA199000091GF105991021051008001041051MA1999999098221MD1999999-0141REMSYN070AAXX  31034 48331 32562 50000 10308 20243 39822 40046 82545 333 59014;EQDQ01  00002PRCP99
0167483310999992000083106004+18760+100770FM-12+0201VTCN V0209999C000010450019N0150001N1+03141+02441100301ADDAA199000091GF106991041051008001041061MA1999999098061MD1999999-0091REMSYN070AAXX  31064 48331 32565 60000 10314 20244 39806 40030 84546 333 59009;EQDQ01  00002PRCP99
0167483310999992000083109004+18760+100770FM-12+0201VTCN V0209999C000010075019N0150001N1+03281+02431100081ADDAA199000091GF106991051051008001041061MA1999999097861MD1999999-0151REMSYN070AAXX  31094 48331 32565 60000 10328 20243 39786 40008 85546 333 59015;EQDQ01  00002PRCP99
0186483310999992000083112004+18760+100770FM-12+0201VTCN V0202401N004610075019N0120001N1+02681+02281100281ADDAA199000091GF108991061091008001071999KA1120M+03351MA1999999098001MD1999999+0081REMSYN076AAXX  31124 48331 32562 82409 10268 20228 39800 40028 8697/ 333 10335 58008;EQDQ01  00002PRCP99
0182483310999992000083115004+18760+100770FM-12+0201VTCN V0209999C000010042019N0120001N1+02501+02411100551ADDAA103002091AY161031AY221031GF108991061051004501071999MA1999999098261MD1999999+0081MW1211REMSYN082AAXX  31154 48331 21462 80000 10250 20241 39826 40055 72162 8657/ 333 58008 60027;
0188483310999992000083118004+18760+100770FM-12+0201VTCN V0209999C000010075019N0120001N1+02501+02421100481ADDAA118002091AY161061AY221061GF108991051051008001071061MA1999999098201MD1999999+0071MW1021REMSYN088AAXX  31184 48331 11562 80000 10250 20242 39820 40048 60023 70262 85576 333 58007 70016;
0148483310999992000083121004+18760+100770FM-12+0201VTCN V0209999C000010075019N0120001N1+02501+02411100411ADDAA199000021GF108991051051008001071061MA1999999098131MD1999999+0061REMSYN070AAXX  31214 48331 32562 80000 10250 20241 39813 40041 85576 333 58006;
0179483310999992000090100004+18760+100770FM-12+0201VTCN V0209999C000010075019N0120001N1+02501+02381100571ADDAA124002091GF108991051051008001071999KA1120N+02381MA1999999098281MD1999999+0101REMSYN088AAXX  01004 48331 12562 80000 10250 20238 39828 40057 60024 8557/ 333 20238 58010 70016;
0152483310999992000090103004+18760+100770FM-12+0201VTCN V0209999C000010450019N0120001N1+02761+02381100641ADDAA199000021GF107991021061008001071061MD1999999+0181REMSYN070AAXX  01034 48331 32562 70000 10276 20238 39902 40064 82676 333 58018;EQDQ01+099023APOSP 
0154483310999992000090106004+18760+100770FM-12+0201VTCN V0209999C000010450019N0150001N1+02901+02421100511ADDAA124001591GF108991031081008001071999MA1999999098251MD1999999+0211REMSYN076AAXX  01064 48331 32565 80000 10290 20242 39825 40051 8387/ 333 58021 70016;
0167483310999992000090109004+18760+100770FM-12+0201VTCN V0209999C000010450019N0150001N1+02921+02381100311ADDAA199000091GF107991031081008001071061MA1999999098061MD1999999+0231REMSYN070AAXX  01094 48331 32565 70000 10292 20238 39806 40031 83876 333 58023;EQDQ01  00002PRCP99
0173483310999992000090112004+18760+100770FM-12+0201VTCN V0209999C000010075019N0120001N1+02751+02451100341ADDAA124001591GF108991051051008001071999KA1120M+03021MA1999999098081MD1999999+0061REMSYN082AAXX  01124 48331 32562 80000 10275 20245 39808 40034 8557/ 333 10302 58006 70016;
0167483310999992000090115004+18760+100770FM-12+0201VTCN V0209999C000010450019N0120001N1+02671+02471100581ADDAA199000091GF108991041051008001071999MA1999999098301MD1999999+0031REMSYN070AAXX  01154 48331 32562 80000 10267 20247 39830 40058 8457/ 333 58003;EQDQ01  00002PRCP99
0194483310999992000090118004+18760+100770FM-12+0201VTCN V0201701N001010450019N0120001N1+02481+02291100531ADDAA102000191AY161061AY221061GF108991041051008001071999MA1999999098241MD1999999+0051MW1021REMSYN094AAXX  01184 48331 /1562 81702 10248 20229 39824 40053 69923 70262 8457/ 333 58005 69926 70018;
0167483310999992000090121004+18760+100770FM-12+0201VTCN V0209999C000010450019N0120001N1+02451+02321100451ADDAA199000091GF108991041051008001071999MA1999999098161MD1999999+0041REMSYN070AAXX  01214 48331 32562 80000 10245 20232 39816 40045 8457/ 333 58004;EQDQ01  00002PRCP99
0173483310999992000090200004+18760+100770FM-12+0201VTCN V0209999C000010075019N0120001N1+02461+02331100491ADDAA124000391GF106991051071008001071061KA1120N+02331MA1999999098211MD1999999-0091REMSYN082AAXX  02004 48331 32562 60000 10246 20233 39821 40049 85776 333 20233 59009 70002;
0167483310999992000090203004+18760+100770FM-12+0201VTCN V0209999C000010075019N0150001N1+02651+02361100591ADDAA199000091GF108991061071008001071061MA1999999098321MD1999999-0051REMSYN070AAXX  02034 48331 32565 80000 10265 20236 39832 40059 86776 333 59005;EQDQ01  00002PRCP99
0182483310999992000090209004+18760+100770FM-12+0201VTCN V0209999C000010075019N0120001N1+02931+02581100181ADDAA101005191AY121031AY221031GF108991061091008001071061MA1999999097931MD1999999-0131MW1211REMSYN082AAXX  02094 48331 21562 80000 10293 20258 39793 40018 72122 86976 333 59013 60055;
0207483310999992000090212004+18760+100770FM-12+0201VTCN V0209999C000010120019N0120001N1+02651+02361100351ADDAA112005191AY161061AY221061GF108991061081008001071061KA1120M+03181MA1999999098081MD1999999+0011MW1021REMSYN094AAXX  02124 48331 11562 80000 10265 20236 39808 40035 60052 70262 86876 333 10318 58001 70056;
0148483310999992000090215004+18760+100770FM-12+0201VTCN V0209999C000010075019N0100001N1+02551+02391100591ADDAA199000021GF108991071071008001071999MA1999999098321MD1999999+0011REMSYN070AAXX  02154 48331 32560 80000 10255 20239 39832 40059 8777/ 333 58001;
0148483310999992000090221004+18760+100770FM-12+0201VTCN V0209999C000010075019N0100001N1+02401+02311100511ADDAA199000021GF108991051071008001071999MA1999999098221MD1999999+0061REMSYN070AAXX  02214 48331 32560 80000 10240 20231 39822 40051 8577/ 333 58006;
0179483310999992000090300004+18760+100770FM-12+0201VTCN V0209999C000010075019N0100001N1+02401+02301100591ADDAA124006191GF108991051071008001071999KA1120N+02291MA1999999098301MD1999999+0101REMSYN088AAXX  03004 48331 12560 80000 10240 20230 39830 40059 60064 8577/ 333 20229 58010 70060;
0167483310999992000090303004+18760+100770FM-12+0201VTCN V0209999C000010450019N0120001N1+02651+02361100771ADDAA199000091GF106991041051008001051061MA1999999098491MD1999999+0181REMSYN070AAXX  03034 48331 32562 60000 10265 20236 39849 40077 84556 333 58018;EQDQ01  00002PRCP99
0154483310999992000090306004+18760+100770FM-12+0201VTCN V0201801N003110075019N0150001N1+02911+02431100671ADDAA124006191GF108991051051008001071061MA1999999098401MD1999999+0251REMSYN076AAXX  03064 48331 32565 81806 10291 20243 39840 40067 85576 333 58025 70060;
0167483310999992000090309004+18760+100770FM-12+0201VTCN V0209999C000011050019N0150001N1+02901+02411100461ADDAA199000091GF106991021051008001041061MA1999999098201MD1999999+0281REMSYN070AAXX  03094 48331 32565 60000 10290 20241 39820 40046 82546 333 58028;EQDQ01  00002PRCP99
0213483310999992000090312004+18760+100770FM-12+0201VTCN V0209999C000010042019N0020001N1+02511+02421100691ADDAA101007191AY121061AY221061GF108991081071004501999999KA1120M+02961MA1999999098391MD1999999+0371MW1601REMSYN100AAXX  03124 48331 /1420 80000 10251 20242 39839 40069 60072 76022 887// 333 10296 58037 60075 70079;
0182483310999992000090315004+18760+100770FM-12+0201VTCN V0209999C000010042019N0100001N1+02451+02391100891ADDAA103000891AY161031AY221031GF108991081071004501999999MA1999999098591MD1999999+0301MW1021REMSYN082AAXX  03154 48331 21460 80000 10245 20239 39859 40089 70262 887// 333 58030 69977;
0194483310999992000090318004+18760+100770FM-12+0201VTCN V0209999C000010042019N0010001N1+02401+02361100841ADDAA102003091AY161061AY221061GF108991081071004501999999MA1999999098531MD1999999+0281MW1611REMSYN094AAXX  03184 48331 /1410 80000 10240 20236 39853 40084 60113 76162 887// 333 58028 60036 70111;
0182483310999992000090321004+18760+100770FM-12+0201VTCN V0209999C000010042019N0020001N1+02401+02341100741ADDAA103002091AY161031AY261031GF108991081071004501999999MA1999999098431MD1999999+0231MW1611REMSYN082AAXX  03214 48331 21420 80000 10240 20234 39843 40074 76166 887// 333 58023 60027;
0213483310999992000090400004+18760+100770FM-12+0201VTCN V0209999C000010042019N0100001N1+02421+02381100821ADDAA102000891AY161061AY261061GF108991051061004501021999KA1120N+02301MA1999999098521MD1999999+0231MW1021REMSYN100AAXX  04004 48331 /1460 80000 10242 20238 39852 40082 60144 70266 8562/ 333 20230 58023 69986 70139;
0148483310999992000090403004+18760+100770FM-12+0201VTCN V0201901N001510075019N0120001N1+02711+02421100911ADDAA199000021GF108991051021008001071999MA1999999098631MD1999999+0141REMSYN070AAXX  04034 48331 32562 81903 10271 20242 39863 40091 8527/ 333 58014;
0154483310999992000090406004+18760+100770FM-12+0201VTCN V0201901N001010450019N0150001N1+03061+02441100681ADDAA124014091GF107991041031008001071061MA1999999098431MD1999999+0011REMSYN076AAXX  04064 48331 32565 71902 10306 20244 39843 40068 84376 333 58001 70139;
0182483310999992000090409004+18760+100770FM-12+0201VTCN V0209999C000010450019N0080001N1+02901+02511100461ADDAA101001091AY121031AY221031GF107991041031008001071061MA1999999098201MD1999999+0001MW1601REMSYN082AAXX  04094 48331 21558 70000 10290 20251 39820 40046 76022 84376 333 58000 60015;
0213483310999992000090412004+18760+100770FM-12+0201VTCN V0209999C000010450019N0060001N1+02631+02461100601ADDAA103002091AY161061AY221061GF108991041071008001021999KA1120M+03131MA1999999098321MD1999999-0091MW1611REMSYN100AAXX  04124 48331 /1556 80000 10263 20246 39832 40060 60032 76162 8472/ 333 10313 59009 60027 70094;
0182483310999992000090415004+18760+100770FM-12+0201VTCN V0209999C000010450019N0100001N1+02501+02391100821ADDAA103002091AY161031AY221031GF108991041051008001071999MA1999999098521MD1999999-0071MW1211REMSYN082AAXX  04154 48331 21560 80000 10250 20239 39852 40082 72162 8457/ 333 59007 60027;
0194483310999992000090418004+18760+100770FM-12+0201VTCN V0209999C000010450019N0100001N1+02451+02381100661ADDAA103000591AY161061AY261061GF108991031061004501071999MA1999999098361MD1999999-0181MW1021REMSYN094AAXX  04184 48331 /1460 80000 10245 20238 39836 40066 60053 70266 8367/ 333 59018 69957 70077;
0182483310999992000090421004+18760+100770FM-12+0201VTCN V0209999C000010450019N0100001N1+02451+02351100621ADDAA102000391AY161031AY221031GF108991041071008001071999MA1999999098321MD1999999-0121MW1021REMSYN082AAXX  04214 48331 21560 80000 10245 20235 39832 40062 70262 8477/ 333 59012 69936;
0213483310999992000090500004+18760+100770FM-12+0201VTCN V0209999C000010075019N0050001N1+02441+02351100711ADDAA101000791AY161061AY221061GF108991071071008001071999KA1120N+02331MA1999999098401MD1999999-0111MW1601REMSYN100AAXX  05004 48331 /1550 80000 10244 20235 39840 40071 60054 76062 8777/ 333 20233 59011 69905 70052;
0182483310999992000090503004+18760+100770FM-12+0201VTCN V0209999C000010075019N0120001N1+02651+02361100811ADDAA103000391AY161031AY221031GF108991061071008001071999MA1999999098531MD1999999-0101MW1021REMSYN082AAXX  05034 48331 21562 80000 10265 20236 39853 40081 70262 8677/ 333 59010 69937;
0193483310999992000090506004+18760+100770FM-12+0201VTCN V0209999C000010120019N0150001N1+02861+02461100551ADDAA102000791AY161061AY221061GF108991061081008001071061MA1999999098301MD1999999-0131MW1021REMSYN093AAXX  05064 48331 /1565 80000 10286 20246 39830 40055 69931 70262 86876 333 5901369906 70055;
0182483310999992000090509004+18760+100770FM-12+0201VTCN V0209999C000010075019N0040001N1+02851+02451100351ADDAA101000791AY121031AY221031GF108991061071008001071061MA1999999098091MD1999999-0111MW1601REMSYN082AAXX  05094 48331 21540 80000 10285 20245 39809 40035 76022 86776 333 59011 69905;
0213483310999992000090512004+18760+100770FM-12+0201VTCN V0209999C000010075019N0120001N1+02651+02371100411ADDAA103003091AY161061AY221061GF108991061071008001071061KA1120M+03041MA1999999098141MD1999999-0191MW1021REMSYN100AAXX  05124 48331 /1562 80000 10265 20237 39814 40041 60032 70262 86776 333 10304 59019 60037 70057;
0148483310999992000090515004+18760+100770FM-12+0201VTCN V0209999C000010075019N0120001N1+02541+02321100721ADDAA199000021GF108991051051008001071061MA1999999098431MD1999999-0101REMSYN070AAXX  05154 48331 32562 80000 10254 20232 39843 40072 85576 333 59010;
0154483310999992000090518004+18760+100770FM-12+0201VTCN V0209999C000010075019N0120001N1+02461+02311100631ADDAA124003691GF108991061071008001071061MA1999999098341MD1999999-0031REMSYN076AAXX  05184 48331 32562 80000 10246 20231 39834 40063 86776 333 59003 70036;
0182483310999992000090521004+18760+100770FM-12+0201VTCN V0209999C000010075019N0050001N1+02401+02251100571ADDAA101000191AY121031AY221031GF108991071071008001071999MA1999999098281MD1999999-0051MW1601REMSYN082AAXX  05214 48331 21550 80000 10240 20225 39828 40057 76022 8777/ 333 59005 69925;
0213483310999992000090600004+18760+100770FM-12+0201VTCN V0209999C000010042019N0100001N1+02371+02261100691ADDAA103000791AY161061AY221061GF108991051071004501071999KA1120N+02271MA1999999098381MD1999999-0021MW1021REMSYN100AAXX  06004 48331 /1460 80000 10237 20226 39838 40069 60094 70262 8577/ 333 20227 59002 69907 70035;
0148483310999992000090603004+18760+100770FM-12+0201VTCN V0201901N003110075019N0150001N1+02681+02331100721ADDAA199000021GF108991051051008001061061MA1999999098431MD1999999-0091REMSYN070AAXX  06034 48331 32565 81906 10268 20233 39843 40072 85566 333 59009;
0154483310999992000090606004+18760+100770FM-12+0201VTCN V0209999C000010120019N0150001N1+03001+02331100501ADDAA124003391GF108991051081008001071061MA1999999098251MD1999999-0051REMSYN076AAXX  06064 48331 32565 80000 10300 20233 39825 40050 85876 333 59005 70032;
0148483310999992000090609004+18760+100770FM-12+0201VTCN V0202101N003110450019N0150001N1+02981+02341100311ADDAA199000021GF106991041051008001071061MA1999999098071MD1999999-0041REMSYN070AAXX  06094 48331 32565 62106 10298 20234 39807 40031 84576 333 59004;
0173483310999992000090612004+18760+100770FM-12+0201VTCN V0209999C000010450019N0150001N1+02661+02321100471ADDAA124000391GF106991031051008001041071KA1120M+03071MA1999999098201MD1999999+0061REMSYN082AAXX  06124 48331 32565 60000 10266 20232 39820 40047 83547 333 10307 58006 70002;
0167483310999992000090615004+18760+100770FM-12+0201VTCN V0209999C000010075019N0150001N1+02551+02281100711ADDAA199000091GF106991051051008001061071MA1999999098421MD1999999-0011REMSYN070AAXX  06154 48331 32565 60000 10255 20228 39842 40071 85567 333 59001;EQDQ01  00002PRCP99
0154483310999992000090618004+18760+100770FM-12+0201VTCN V0209999C000010450019N0120001N1+02501+02311100721ADDAA124000391GF106991041051008001041061MA1999999098431MD1999999+0091REMSYN076AAXX  06184 48331 32562 60000 10250 20231 39843 40072 84546 333 58009 70002;
0167483310999992000090621004+18760+100770FM-12+0201VTCN V0209999C000010450019N0120001N1+02451+02321100671ADDAA199000091GF106991041051008001051061MA1999999098371MD1999999+0101REMSYN070AAXX  06214 48331 32562 60000 10245 20232 39837 40067 84556 333 58010;EQDQ01  00002PRCP99
0186483310999992000090700004+18760+100770FM-12+0201VTCN V0209999C000010450019N0120001N1+02451+02301100761ADDAA199000091GF107991031081008001051001KA1120N+02321MA1999999098461MD1999999+0041REMSYN076AAXX  07004 48331 32562 70000 10245 20230 39846 40076 83850 333 20232 58004;EQDQ01  00002PRCP99
0167483310999992000090703004+18760+100770FM-12+0201VTCN V0209999C000010450019N0150001N1+02881+02321100851ADDAA199000091GF106991041021008001051061MA1999999098581MD1999999+0131REMSYN070AAXX  07034 48331 32565 60000 10288 20232 39858 40085 84256 333 58013;EQDQ01  00002PRCP99
0167483310999992000090706004+18760+100770FM-12+0201VTCN V0202301N001010450019N0150001N1+03101+02381100611ADDAA199000091GF105991031031008001051011MA1999999098361MD1999999+0111REMSYN070AAXX  07064 48331 32565 52302 10310 20238 39836 40061 83351 333 58011;EQDQ01  00002PRCP99
0195483310999992000090709004+18760+100770FM-12+0201VTCN V0203001N002610075019N0150001N1+03301+02461100381ADDAA199000091AY121031AY221031GF107991051091008001071031MA1999999098151MD1999999+0071MW1151REMSYN076AAXX  07094 48331 31565 73005 10330 20246 39815 40038 71522 85973 333 58007;EQDQ01  00002PRCP99
0213483310999992000090712004+18760+100770FM-12+0201VTCN V0209999C000010450019N0100001N1+02641+02381100631ADDAA101000791AY161061AY221061GF107991041091008001071031KA1120M+03331MA1999999098351MD1999999+0161MW1291REMSYN100AAXX  07124 48331 /1560 70000 10264 20238 39835 40063 69902 72962 84973 333 10333 58016 69905 79999;
0167483310999992000090715004+18760+100770FM-12+0201VTCN V0209999C000010450019N0100001N1+02531+02351100881ADDAA199000091GF108991041051008001071061MA1999999098591MD1999999+0161REMSYN070AAXX  07154 48331 32560 80000 10253 20235 39859 40088 84576 333 58016;EQDQ01  00002PRCP99
0167483310999992000090718004+18760+100770FM-12+0201VTCN V0209999C000010450019N0120001N1+02501+02341100831ADDAA199000091GF108991031051008001071999MA1999999098531MD1999999+0111REMSYN070AAXX  07184 48331 32562 80000 10250 20234 39853 40083 8357/ 333 58011;EQDQ01  00002PRCP99
0167483310999992000090721004+18760+100770FM-12+0201VTCN V0209999C000010450019N0100001N1+02471+02371100741ADDAA199000091GF108991031051008001071999MA1999999098451MD1999999+0071REMSYN070AAXX  07214 48331 32560 80000 10247 20237 39845 40074 8357/ 333 58007;EQDQ01  00002PRCP99
0201483310999992000090800004+18760+100770FM-12+0201VTCN V0209999C000010075019N0080001N1+02501+02381100821ADDAA124000791AY121061AY221061GF108991051071008001071999KA1120N+02361MA1999999098521MD1999999+0061MW1101REMSYN088AAXX  08004 48331 31558 80000 10250 20238 39852 40082 71022 8577/ 333 20236 58006 79999;
0167483310999992000090803004+18760+100770FM-12+0201VTCN V0209999C000010075019N0150001N1+02741+02421100991ADDAA199000091GF107991061071008001071061MA1999999098701MD1999999+0141REMSYN070AAXX  08034 48331 32565 70000 10274 20242 39870 40099 86776 333 58014;EQDQ01  00002PRCP99
0154483310999992000090806004+18760+100770FM-12+0201VTCN V0209999C000010120019N0150001N1+03181+02421100671ADDAA124000791GF105991051081008001041051MA1999999098431MD1999999+0061REMSYN076AAXX  08064 48331 32565 50000 10318 20242 39843 40067 85845 333 58006 79999;
0213483310999992000090812004+18760+100770FM-12+0201VTCN V0209999C000010450019N0150001N1+02651+02451100591ADDAA103000791AY191061AY221061GF105991031081008001041051KA1120M+03281MA1999999098321MD1999999-0041MW1011REMSYN100AAXX  08124 48331 /1565 50000 10265 20245 39832 40059 69902 70192 83845 333 10328 59004 69907 79999;
0195483310999992000090815004+18760+100770FM-12+0201VTCN V0209999C000012200019N0150001N1+02541+02361100851ADDAA199000091AY111031AY201031GF102991021091008001041011MA1999999098551MD1999999-0031MW1131REMSYN076AAXX  08154 48331 31565 20000 10254 20236 39855 40085 71310 82941 333 59003;EQDQ01  00002PRCP99
0154483310999992000090818004+18760+100770FM-12+0201VTCN V0209999C000012200019N0120001N1+02461+02371100771ADDAA124000791GF104991041051008001041051MA1999999098481MD1999999-0061REMSYN076AAXX  08184 48331 32562 40000 10246 20237 39848 40077 84545 333 59006 79999;
0195483310999992000090821004+18760+100770FM-12+0201VTCN V0209999C000010075019N0080001N1+02441+02371100731ADDAA199000091AY121031AY211031GF108991061071008001071061MA1999999098421MD1999999-0011MW1101REMSYN076AAXX  08214 48331 31558 80000 10244 20237 39842 40073 71021 86776 333 59001;EQDQ01  00002PRCP99
0179483310999992000090900004+18760+100770FM-12+0201VTCN V0209999C000010450019N0100001N1+02451+02381100831ADDAA124000791GF108991041051008001061071KA1120N+02341MA1999999098531MD1999999+0011REMSYN088AAXX  09004 48331 12560 80000 10245 20238 39853 40083 69904 84567 333 20234 58001 79999;
0167483310999992000090903004+18760+100770FM-12+0201VTCN V0209999C000010075019N0120001N1+02801+02441100901ADDAA199000091GF108991051051008001061071MA1999999098621MD1999999-0091REMSYN070AAXX  09034 48331 32562 80000 10280 20244 39862 40090 85567 333 59009;EQDQ01  00002PRCP99
0167483310999992000090906004+18760+100770FM-12+0201VTCN V0209999C000012200019N0150001N1+03201+02411100551ADDAA199000091GF103991031051008001001001MA1999999098311MD1999999-0121REMSYN070AAXX  09064 48331 32565 30000 10320 20241 39831 40055 83500 333 59012;EQDQ01  00002PRCP99
0167483310999992000090909004+18760+100770FM-12+0201VTCN V0209999C000012200019N0150001N1+03371+02411100231ADDAA199000091GF102991021021008001001001MA1999999098021MD1999999-0261REMSYN070AAXX  09094 48331 32565 20000 10337 20241 39802 40023 82200 333 59026;EQDQ01  00002PRCP99
0186483310999992000090912004+18760+100770FM-12+0201VTCN V0209999C000010450019N0150001N1+02981+02541100371ADDAA199000091GF106991031051008001041061KA1120M+03461MA1999999098121MD1999999-0221REMSYN076AAXX  09124 48331 32565 60000 10298 20254 39812 40037 83546 333 10346 59022;EQDQ01  00002PRCP99
0167483310999992000090915004+18760+100770FM-12+0201VTCN V0209999C000010075019N0120001N1+02651+02371100701ADDAA199000091GF108991051051008001071999MA1999999098421MD1999999-0151REMSYN070AAXX  09154 48331 32562 80000 10265 20237 39842 40070 8557/ 333 59015;EQDQ01  00002PRCP99
0167483310999992000090918004+18760+100770FM-12+0201VTCN V0209999C000010450019N0120001N1+02551+02391100631ADDAA199000091GF106991041051008001041061MA1999999098331MD1999999-0141REMSYN070AAXX  09184 48331 32562 60000 10255 20239 39833 40063 84546 333 59014;EQDQ01  00002PRCP99
0167483310999992000090921004+18760+100770FM-12+0201VTCN V0209999C000012200019N0120001N1+02451+02361100501ADDAA199000091GF104991031051008001041051MA1999999098211MD1999999-0231REMSYN070AAXX  09214 48331 32562 40000 10245 20236 39821 40050 83545 333 59023;EQDQ01  00002PRCP99
0214483310999992000091000004+18760+100770FM-12+0201VTCN V0209999C000010450019N0080001N1+02401+02331100511ADDAA199000091AY121061AY221061GF108991031061004501071999KA1120N+02301MA1999999098211MD1999999+0281MW1101REMSYN082AAXX  10004 48331 31458 80000 10240 20233 39821 40051 71022 8367/ 333 20230 58028;EQDQ01  00002PRCP99
0167483310999992000091003004+18760+100770FM-12+0201VTCN V0202701N001510450019N0120001N1+02771+02441100601ADDAA199000091GF108991041021008001071999MA1999999098331MD1999999-0301REMSYN070AAXX  10034 48331 32562 82703 10277 20244 39833 40060 8427/ 333 59030;EQDQ01  00002PRCP99
0167483310999992000091006004+18760+100770FM-12+0201VTCN V0209999C000010450019N0150001N1+03171+02471100351ADDAA199000091GF107991031081008001071071MA1999999098111MD1999999-0201REMSYN070AAXX  10064 48331 32565 70000 10317 20247 39811 40035 83877 333 59020;EQDQ01  00002PRCP99
0167483310999992000091009004+18760+100770FM-12+0201VTCN V0209999C000010450019N0150001N1+03201+02641100081ADDAA199000091GF108991021051008001051071MA1999999097861MD1999999-0151REMSYN070AAXX  10094 48331 32565 80000 10320 20264 39786 40008 82557 333 59015;EQDQ01  00002PRCP99
0186483310999992000091012004+18760+100770FM-12+0201VTCN V0209999C000010450019N0120001N1+02921+02621100111ADDAA199000091GF108991021051008001071071KA1120M+03301MA1999999097861MD1999999-0261REMSYN076AAXX  10124 48331 32562 80000 10292 20262 39786 40011 82577 333 10330 59026;EQDQ01  00002PRCP99
0167483310999992000091015004+18760+100770FM-12+0201VTCN V0209999C000010450019N0120001N1+02751+02521100291ADDAA199000091GF108991021051008001071071MA1999999098021MD1999999-0411REMSYN070AAXX  10154 48331 32562 80000 10275 20252 39802 40029 82577 333 59041;EQDQ01  00002PRCP99
0182483310999992000091021004+18760+100770FM-12+0201VTCN V0209999C000010450019N0100001N1+02451+02381100141ADDAA103000591AY191031AY221031GF108991041051008001071999MA1999999097861MD1999999-0361MW1021REMSYN082AAXX  10214 48331 21560 80000 10245 20238 39786 40014 70292 8457/ 333 59036 69947;
0213483310999992000091100004+18760+100770FM-12+0201VTCN V0209999C000010075019N0050001N1+02471+02411100211ADDAA101000591AY161061AY221061GF108991071071008001071999KA1120N+02341MA1999999097921MD1999999-0291MW1601REMSYN100AAXX  11004 48331 /1550 80000 10247 20241 39792 40021 60074 76062 8777/ 333 20234 59029 69945 70068;
0156483310999992000091101004+18760+100770FM-12+0201VTCN V0209999C000010042019N0060001N1+02571+02461100301ADDAA199000021AY161999AY221999GF108991051071004501021999MA1999999098021MW1601REMSYN070AAXX  11014 48331 31456 80000 10257 20246 39802 40030 76062 8572/ 333;
0156483310999992000091102004+18760+100770FM-12+0201VTCN V0209999C000010042019N0060001N1+02631+02501100371ADDAA199000021AY161999AY261999GF108991071071004501071999MA1999999098091MW1611REMSYN070AAXX  11024 48331 31456 80000 10263 20250 39809 40037 76166 8777/ 333;
0182483310999992000091103004+18760+100770FM-12+0201VTCN V0209999C000010075019N0120001N1+02821+02501100271ADDAA103000891AY161031AY221031GF106991061071008001071061MA1999999098011MD1999999-0331MW1011REMSYN082AAXX  11034 48331 21562 60000 10282 20250 39801 40027 70162 86776 333 59033 69977;
0128483310999992000091104004+18760+100770FM-12+0201VTCN V0209999C000010120019N0150001N1+02951+02451100261ADDAA199000021GF106991051081008001041061MA1999999098021REMSYN064AAXX  11044 48331 32565 60000 10295 20245 39802 40026 85846 333;
0156483310999992000091105004+18760+100770FM-12+0201VTCN V0200301N002610120019N0150001N1+03051+02401100211ADDAA199000021AY161999AY221999GF106991051081008001041061MA1999999097981MW1021REMSYN070AAXX  11054 48331 31565 60305 10305 20240 39798 40021 70262 85846 333;
0194483310999992000091106004+18760+100770FM-12+0201VTCN V0203601N002610075019N0150001N1+03001+02381100141ADDAA102000891AY161061AY221061GF107991061071008001071061MA1999999097901MD1999999-0211MW1031REMSYN094AAXX  11064 48331 /1565 73605 10300 20238 39790 40014 69971 70362 86776 333 59021 69976 70075;
0128483310999992000091107004+18760+100770FM-12+0201VTCN V0209999C000010075019N0150001N1+03011+02421100041ADDAA199000021GF107991061071008001071061MA1999999097801REMSYN064AAXX  11074 48331 32565 70000 10301 20242 39780 40004 86776 333;
0128483310999992000091108004+18760+100770FM-12+0201VTCN V0209999C000010075019N0150001N1+03011+02401099961ADDAA199000021GF107991061071008001071061MA1999999097721REMSYN064AAXX  11084 48331 32565 70000 10301 20240 39772 49996 86776 333;
0148483310999992000091109004+18760+100770FM-12+0201VTCN V0209999C000010120019N0150001N1+03051+02481099931ADDAA199000021GF106991051081008001071051MA1999999097691MD1999999-0151REMSYN070AAXX  11094 48331 32565 60000 10305 20248 39769 49993 85875 333 59015;
0128483310999992000091110004+18760+100770FM-12+0201VTCN V0209999C000010120019N0150001N1+02951+02461099921ADDAA199000021GF106991051081008001071061MA1999999097691REMSYN064AAXX  11104 48331 32565 60000 10295 20246 39769 49992 85876 333;
0128483310999992000091111004+18760+100770FM-12+0201VTCN V0209999C000010120019N0150001N1+02811+02421099991ADDAA199000021GF107991061081008001071061MA1999999097731REMSYN064AAXX  11114 48331 32565 70000 10281 20242 39773 49999 86876 333;
0173483310999992000091112004+18760+100770FM-12+0201VTCN V0209999C000010075019N0120001N1+02761+02581100041ADDAA124007691GF107991051071008001071061KA1120M+03051MA1999999097781MD1999999-0071REMSYN082AAXX  11124 48331 32562 70000 10276 20258 39778 40004 85776 333 10305 59007 70075;
0156483310999992000091113004+18760+100770FM-12+0201VTCN V0209999C000010042019N0100001N1+02711+02471100161ADDAA199000021AY121999AY221999GF108991061051004501071999MA1999999097891MW1601REMSYN070AAXX  11134 48331 31460 80000 10271 20247 39789 40016 76022 8657/ 333;
0128483310999992000091114004+18760+100770FM-12+0201VTCN V0209999C000010042019N0100001N1+02611+02441100301ADDAA199000021GF108991061071004501071999MA1999999098031REMSYN064AAXX  11144 48331 32460 80000 10261 20244 39803 40030 8677/ 333;
0148483310999992000091115004+18760+100770FM-12+0201VTCN V0209999C000019999999N0060001N1+02551+02431999999ADDGF108991999999004501999999MA1999999098111MD1999999+0091REMSYN081AAXX  11154 48331 21456 80000 10255 20243 39811 4008 76062 8777/ 333 58009 60017;
0176483310999992000091121004+18760+100770FM-12+0201VTCN V0209999C000010042019N0080001N1+02491+02421100271ADDAA199000021AY121031AY221031GF105991051071004501071061MA1999999097981MD1999999+0131MW1101REMSYN076AAXX  11214 48331 31458 50000 10249 20242 39798 40027 71022 85776 333 58013;
0213483310999992000091200004+18760+100770FM-12+0201VTCN V0209999C000010042019N0060001N1+02511+02431100411ADDAA102000891AY161061AY221061GF108991061061004501071999KA1120N+02391MA1999999098131MD1999999+0141MW1611REMSYN100AAXX  12004 48331 /1456 80000 10251 20243 39813 40041 60034 76162 8667/ 333 20239 58014 69986 70029;
0182483310999992000091203004+18760+100770FM-12+0201VTCN V0209999C000010042019N0100001N1+02621+02541100661ADDAA103002091AY161031AY221031GF108991081071004501999999MA1999999098371MD1999999+0391MW1021REMSYN082AAXX  12034 48331 21460 80000 10262 20254 39837 40066 70262 887// 333 58039 60027;
0194483310999992000091206004+18760+100770FM-12+0201VTCN V0209999C000010042019N0040001N1+02601+02481100591ADDAA103007191AY161061AY221061GF108991081071004501999999MA1999999098311MD1999999+0451MW1611REMSYN094AAXX  12064 48331 /1440 80000 10260 20248 39831 40059 60091 76162 887// 333 58045 60077 70114;
0182483310999992000091209004+18760+100770FM-12+0201VTCN V0209999C000010042019N0060001N1+02601+02461100501ADDAA103005191AY161031AY261031GF108991081071004501999999MA1999999098231MD1999999+0571MW1611REMSYN082AAXX  12094 48331 21456 80000 10260 20246 39823 40050 76166 887// 333 58057 60057;
0213483310999992000091212004+18760+100770FM-12+0201VTCN V0209999C000010042019N0060001N1+02441+02381100631ADDAA103007991AY161061AY261061GF108991081071004501999999KA1120M+02751MA1999999098341MD1999999+0591MW1611REMSYN100AAXX  12124 48331 /1456 80000 10244 20238 39834 40063 60232 76166 887// 333 10275 58059 60087 70255;
0148483310999992000091215004+18760+100770FM-12+0201VTCN V0209999C000010075019N0100001N1+02441+02381100931ADDAA199000021GF108991081071008001999999MA1999999098631MD1999999+0551REMSYN070AAXX  12154 48331 32560 80000 10244 20238 39863 40093 887// 333 58055;
0194483310999992000091218004+18760+100770FM-12+0201VTCN V0209999C000010042019N0020001N1+02391+02331100891ADDAA103008991AY161061AY221061GF108991081071004501999999MA1999999098581MD1999999+0581MW1611REMSYN094AAXX  12184 48331 /1420 80000 10239 20233 39858 40089 60333 76162 887// 333 58058 60097 70333;
0182483310999992000091221004+18760+100770FM-12+0201VTCN V0209999C000010042019N0020001N1+02381+02341100811ADDAA103002091AY161031AY261031GF108991081071004501999999MA1999999098501MD1999999+0541MW1611REMSYN082AAXX  12214 48331 21420 80000 10238 20234 39850 40081 76166 887// 333 58054 60027;
0213483310999992000091300004+18760+100770FM-12+0201VTCN V0209999C000010042019N0040001N1+02301+02271101021ADDAA103019191AY161061AY261061GF108991061071004501021999KA1120N+02201MA1999999098701MD1999999+0611MW1631REMSYN100AAXX  13004 48331 /1440 80000 10230 20227 39870 40102 60534 76366 8672/ 333 20220 58061 60197 70530;
0182483310999992000091303004+18760+100770FM-12+0201VTCN V0209999C000010450019N0080001N1+02451+02351101161ADDAA103004191AY161031AY261031GF108991041071004501071999MA1999999098851MD1999999+0501MW1601REMSYN082AAXX  13034 48331 21458 80000 10245 20235 39885 40116 76066 8477/ 333 58050 60047;
0194483310999992000091306004+18760+100770FM-12+0201VTCN V0209999C000010450019N0120001N1+02681+02521101011ADDAA103000391AY161061AY261061GF108991041031008001071999MA1999999098731MD1999999+0421MW1601REMSYN094AAXX  13064 48331 /1562 80000 10268 20252 39873 40101 60041 76066 8437/ 333 58042 69937 70548;
0182483310999992000091309004+18760+100770FM-12+0201VTCN V0209999C000010450019N0100001N1+02651+02451100731ADDAA103001091AY161031AY221031GF107991041071008001071061MA1999999098451MD1999999+0231MW1601REMSYN082AAXX  13094 48331 21560 70000 10265 20245 39845 40073 76062 84776 333 58023 60017;
0179483310999992000091312004+18760+100770FM-12+0201VTCN V0209999C000010450019N0120001N1+02521+02381100811ADDAA112005191GF106991021051008001051011KA1120M+02781MA1999999098521MD1999999+0181REMSYN088AAXX  13124 48331 12562 60000 10252 20238 39852 40081 60052 82551 333 10278 58018 70345;
0148483310999992000091315004+18760+100770FM-12+0201VTCN V0209999C000012200019N0120001N1+02391+02301101071ADDAA199000021GF102991021051008001051001MA1999999098771MD1999999+0141REMSYN070AAXX  13154 48331 32562 20000 10239 20230 39877 40107 82550 333 58014;
0182483310999992000091318004+18760+100770FM-12+0201VTCN V0209999C000012200019N0006001N1+02351+02271101031ADDAA124025491AY101061AY201061GF102991011051008001051011MA1999999098721MD1999999+0151MW1401REMSYN082AAXX  13184 48331 31506 20000 10235 20227 39872 40103 74000 81551 333 58015 70253;
0176483310999992000091321004+18760+100770FM-12+0201VTCN V0209999C000010450019N0120001N1+02351+02291100911ADDAA199000021AY141031AY221031GF108991021061004501071999MA1999999098601MD1999999+0101MW1031REMSYN076AAXX  13214 48331 31462 80000 10235 20229 39860 40091 70342 8267/ 333 58010;
0201483310999992000091400004+18760+100770FM-12+0201VTCN V0209999C000010042019N0080001N1+02341+02281101051ADDAA124004891AY121061AY221061GF107991061071004501071061KA1120N+02221MA1999999098721MD1999999+0031MW1101REMSYN088AAXX  14004 48331 31458 70000 10234 20228 39872 40105 71022 86776 333 20222 58003 70048;
0167483310999992000091403004+18760+100770FM-12+0201VTCN V0209999C000010075019N0120001N1+02701+02331101131ADDAA199000091GF105991051051008001071051MA1999999098851MD1999999-0031REMSYN070AAXX  14034 48331 32562 50000 10270 20233 39885 40113 85575 333 59003;EQDQ01  00002PRCP99
0154483310999992000091406004+18760+100770FM-12+0201VTCN V0209999C000012200019N0150001N1+03101+02381100821ADDAA124001091GF104991031081008001041051MA1999999098571MD1999999-0191REMSYN076AAXX  14064 48331 32565 40000 10310 20238 39857 40082 83845 333 59019 70010;
0182483310999992000091409004+18760+100770FM-12+0201VTCN V0209999C000010075019N0030001N1+03001+02421100631ADDAA101000791AY121031AY221031GF108991061051008001071999MA1999999098371MD1999999-0101MW1601REMSYN082AAXX  14094 48331 21530 80000 10300 20242 39837 40063 76022 8657/ 333 59010 69905;
0213483310999992000091412004+18760+100770FM-12+0201VTCN V0209999C000010075019N0120001N1+02561+02471100711ADDAA103006191AY161061AY221061GF105991051051008001071061KA1120M+03281MA1999999098421MD1999999-0101MW1011REMSYN100AAXX  14124 48331 /1562 50000 10256 20247 39842 40071 60062 70162 85576 333 10328 59010 60067 70055;
0148483310999992000091415004+18760+100770FM-12+0201VTCN V0209999C000010075019N0120001N1+02521+02411100931ADDAA199000021GF108991051051008001051061MA1999999098641MD1999999-0141REMSYN070AAXX  14154 48331 32562 80000 10252 20241 39864 40093 85556 333 59014;
0154483310999992000091418004+18760+100770FM-12+0201VTCN V0209999C000010075019N0100001N1+02451+02381100901ADDAA124005691GF106991051051008001071061MA1999999098611MD1999999-0131REMSYN076AAXX  14184 48331 32560 60000 10245 20238 39861 40090 85576 333 59013 70055;
0176483310999992000091421004+18760+100770FM-12+0201VTCN V0209999C000010042019N0070001N1+02381+02341100811ADDAA199000021AY121031AY221031GF107991061061004501071061MA1999999098511MD1999999-0101MW1101REMSYN076AAXX  14214 48331 31457 70000 10238 20234 39851 40081 71022 86676 333 59010;
0207483310999992000091500004+18760+100770FM-12+0201VTCN V0209999C000010042019N0080001N1+02381+02321100931ADDAA124006191AY121061AY221061GF108991051071004501071071KA1120N+02261MA1999999098621MD1999999-0121MW1101REMSYN094AAXX  15004 48331 11458 80000 10238 20232 39862 40093 60064 71022 85777 333 20226 59012 70055;
0167483310999992000091503004+18760+100770FM-12+0201VTCN V0209999C000010450019N0120001N1+02801+02441100971ADDAA199000091GF105991031051008001041061MA1999999098701MD1999999-0161REMSYN070AAXX  15034 48331 32562 50000 10280 20244 39870 40097 83546 333 59016;EQDQ01  00002PRCP99
0154483310999992000091506004+18760+100770FM-12+0201VTCN V0209999C000012200019N0120001N1+03131+02351100701ADDAA124005691GF102991021021008001001001MA1999999098461MD1999999-0121REMSYN076AAXX  15064 48331 32562 20000 10313 20235 39846 40070 82200 333 59012 70055;
0167483310999992000091509004+18760+100770FM-12+0201VTCN V0209999C000012200019N0150001N1+03271+02231100431ADDAA199000091GF102991021021008001001001MA1999999098201MD1999999-0201REMSYN070AAXX  15094 48331 32565 20000 10327 20223 39820 40043 82200 333 59020;EQDQ01  00002PRCP99
0186483310999992000091512004+18760+100770FM-12+0201VTCN V0209999C000010450019N0120001N1+02851+02401100561ADDAA199000091GF106991031051008001041061KA1120M+03341MA1999999098311MD1999999-0151REMSYN076AAXX  15124 48331 32562 60000 10285 20240 39831 40056 83546 333 10334 59015;EQDQ01  00002PRCP99
0167483310999992000091515004+18760+100770FM-12+0201VTCN V0209999C000012200019N0120001N1+02521+02311100941ADDAA199000091GF102991021051008001001001MA1999999098651MD1999999+0011REMSYN070AAXX  15154 48331 32562 20000 10252 20231 39865 40094 82500 333 58001;EQDQ01  00002PRCP99
0167483310999992000091518004+18760+100770FM-12+0201VTCN V0209999C000012200019N0020001N1+02351+02241100991ADDAA199000091GF101991011011008001001001MA1999999098681MD1999999+0091REMSYN070AAXX  15184 48331 32520 10000 10235 20224 39868 40099 81100 333 58009;EQDQ01  00002PRCP99
0195483310999992000091521004+18760+100770FM-12+0201VTCN V0209999C000012200019N0020001N1+02241+02181100971ADDAA199000091AY101031AY201031GF101991011011008001001011MA1999999098651MD1999999+0161MW1101REMSYN076AAXX  15214 48331 31520 10000 10224 20218 39865 40097 71000 81101 333 58016;EQDQ01  00002PRCP99
0214483310999992000091600004+18760+100770FM-12+0201VTCN V0209999C000012200019N0060001N1+02151+02061101121ADDAA199000091AY101061AY201061GF102991021061004501001001KA1120N+02051MA1999999098791MD1999999+0191MW1101REMSYN082AAXX  16004 48331 31456 20000 10215 20206 39879 40112 71000 82600 333 20205 58019;EQDQ01  00002PRCP99
0195483310999992000091603004+18760+100770FM-12+0201VTCN V0209999C000012200019N0080001N1+02721+02151101161ADDAA199000091AY101031AY201031GF102991021061004501001001MA1999999098871MD1999999+0191MW1101REMSYN076AAXX  16034 48331 31458 20000 10272 20215 39887 40116 71000 82600 333 58019;EQDQ01  00002PRCP99
0167483310999992000091606004+18760+100770FM-12+0201VTCN V0209999C000012200019N0120001N1+03131+02131100901ADDAA199000091GF101991011031008001001001MA1999999098651MD1999999+0201REMSYN070AAXX  16064 48331 32562 10000 10313 20213 39865 40090 81300 333 58020;EQDQ01  00002PRCP99
0167483310999992000091609004+18760+100770FM-12+0201VTCN V0209999C000012200019N0120001N1+03301+02161100691ADDAA199000091GF102991021001008001051001MA1999999098501MD1999999+0261REMSYN070AAXX  16094 48331 32562 20000 10330 20216 39850 40069 82050 333 58026;EQDQ01  00002PRCP99
0202483310999992000091612004+18760+100770FM-12+0201VTCN V0209999C000012200019N0100001N1+02801+02381100851ADDAA199000091GF102991001001999999001011KA1120M+03331MA1999999098581MD1999999+0291REMSYN076AAXX  16124 48331 32560 20000 10280 20238 39858 40085 80001 333 10333 58029;EQDQ01+008002SCOLCBQ02  00002PRCP99
0195483310999992000091615004+18760+100770FM-12+0201VTCN V0209999C000012200019N0080001N1+02481+02211101191ADDAA199000091AY101031AY201031GF102991001001999999001011MA1999999098891MD1999999+0251MW1101REMSYN076AAXX  16154 48331 31958 20000 10248 20221 39889 40119 71000 80001 333 58025;EQDQ01  00002PRCP99
0205483310999992000091618004+18760+100770FM-12+0201VTCN V0209999C000012200019N0015001N1+02271+02121101211ADDAA199000091AY101061AY201061GA1001+999999999GF100991001001999999001001MA1999999098881MD1999999+0221MW1101REMSYN070AAXX  16184 48331 31915 00000 10227 20212 39888 40121 71000 333 58022;EQDQ01  00002PRCP99
0205483310999992000091621004+18760+100770FM-12+0201VTCN V0209999C000012200019N0001001N1+02201+02141101171ADDAA199000091AY141031AY201031GA1001+999999999GF100991001001999999001001MA1999999098851MD1999999+0201MW1441REMSYN070AAXX  16214 48331 31901 00000 10220 20214 39885 40117 74440 333 58020;EQDQ01  00002PRCP99
0214483310999992000091700004+18760+100770FM-12+0201VTCN V0209999C000012200019N0020001N1+02131+02041101301ADDAA199000091AY141061AY201061GF104991041061004501001001KA1120N+02051MA1999999098971MD1999999+0181MW1101REMSYN082AAXX  17004 48331 31420 40000 10213 20204 39897 40130 71040 84600 333 20205 58018;EQDQ01  00002PRCP99
0177483310999992000091703004+18760+100770FM-12+0201VTCN V0209999C000012200019N0100001N1+02581+02111101351ADDAA199000091GA1001+999999999GF100991001001999999001001MA1999999099041MD1999999+0191REMSYN064AAXX  17034 48331 32560 00000 10258 20211 39904 40135 333 58019;EQDQ01  00002PRCP99
0177483310999992000091706004+18760+100770FM-12+0201VTCN V0209999C000012200019N0100001N1+03141+02151101031ADDAA199000091GA1001+999999999GF100991001001999999001001MA1999999098781MD1999999+0131REMSYN064AAXX  17064 48331 32960 00000 10314 20215 39878 40103 333 58013;EQDQ01  00002PRCP99
0196483310999992000091712004+18760+100770FM-12+0201VTCN V0209999C000012200019N0100001N1+02771+02301100901ADDAA199000091GA1001+999999999GF100991001001999999001001KA1120M+03321MA1999999098621MD1999999+0051REMSYN070AAXX  17124 48331 32960 00000 10277 20230 39862 40090 333 10332 58005;EQDQ01  00002PRCP99
0177483310999992000091715004+18760+100770FM-12+0201VTCN V0209999C000012200019N0100001N1+02501+02261101111ADDAA199000091GA1001+999999999GF100991001001999999001001MA1999999098811MD1999999-0081REMSYN064AAXX  17154 48331 32960 00000 10250 20226 39881 40111 333 59008;EQDQ01  00002PRCP99
0205483310999992000091721004+18760+100770FM-12+0201VTCN V0209999C000012200019N0060001N1+02211+02101101051ADDAA199000091AY101031AY201031GA1001+999999999GF100991001001999999001001MA1999999098721MD1999999-0121MW1101REMSYN070AAXX  17214 48331 31956 00000 10221 20210 39872 40105 71000 333 59012;EQDQ01  00002PRCP99
0214483310999992000091800004+18760+100770FM-12+0201VTCN V0209999C000012200019N0050001N1+02161+02071101191ADDAA199000091AY101061AY201061GF103991031061004501001001KA1120N+02051MA1999999098861MD1999999-0111MW1101REMSYN082AAXX  18004 48331 31450 30000 10216 20207 39886 40119 71000 83600 333 20205 59011;EQDQ01  00002PRCP99
0205483310999992000091803004+18760+100770FM-12+0201VTCN V0209999C000012200019N0060001N1+02581+02171101201ADDAA199000091AY101031AY201031GA1001+999999999GF100991001001999999001001MA1999999098911MD1999999-0151MW1101REMSYN070AAXX  18034 48331 31956 00000 10258 20217 39891 40120 71000 333 59015;EQDQ01  00002PRCP99
0205483310999992000091806004+18760+100770FM-12+0201VTCN V0209999C000012200019N0080001N1+03171+02291100891ADDAA199000091AY101061AY201061GA1001+999999999GF100991001001999999001001MA1999999098651MD1999999-0141MW1051REMSYN070AAXX  18064 48331 31958 00000 10317 20229 39865 40089 70500 333 59014;EQDQ01  00002PRCP99
0205483310999992000091809004+18760+100770FM-12+0201VTCN V0209999C000012200019N0080001N1+03301+02141100691ADDAA199000091AY101031AY201031GA1001+999999999GF100991001001999999001001MA1999999098451MD1999999-0101MW1051REMSYN070AAXX  18094 48331 31958 00000 10330 20214 39845 40069 70500 333 59010;EQDQ01  00002PRCP99
0214483310999992000091812004+18760+100770FM-12+0201VTCN V0209999C000012200019N0060001N1+02721+02381100831ADDAA199000091AY101061AY201061GF101991001001999999001011KA1120M+03361MA1999999098541MD1999999-0071MW1101REMSYN082AAXX  18124 48331 31956 10000 10272 20238 39854 40083 71000 80001 333 10336 59007;EQDQ01  00002PRCP99
0195483310999992000091815004+18760+100770FM-12+0201VTCN V0209999C000012200019N0050001N1+02501+02261101051ADDAA199000091AY101031AY201031GF102991001001999999001051MA1999999098751MD1999999-0061MW1101REMSYN076AAXX  18154 48331 31950 20000 10250 20226 39875 40105 71000 80005 333 59006;EQDQ01  00002PRCP99
0205483310999992000091818004+18760+100770FM-12+0201VTCN V0209999C000012200019N0010001N1+02351+02201101041ADDAA199000091AY101061AY201061GA1001+999999999GF100991001001999999001001MA1999999098731MD1999999-0011MW1101REMSYN070AAXX  18184 48331 31910 00000 10235 20220 39873 40104 71000 333 59001;EQDQ01  00002PRCP99
0205483310999992000091821004+18760+100770FM-12+0201VTCN V0209999C000012200019N0010001N1+02251+02161101011ADDAA199000091AY101031AY201031GA1001+999999999GF100991001001999999001001MA1999999098701MD1999999-0041MW1101REMSYN070AAXX  18214 48331 31910 00000 10225 20216 39870 40101 71000 333 59004;EQDQ01  00002PRCP99
0224483310999992000091900004+18760+100770FM-12+0201VTCN V0209999C000010003019N0003001N1+02181+02131101141ADDAA199000091AY141061AY201061GA1091+999999999GF109991091999999999999999KA1120N+02101MA1999999098811MD1999999-0041MW1471REMSYN076AAXX  19004 48331 31/03 90000 10218 20213 39881 40114 74740 333 20210 59004;EQDQ01  00002PRCP99
0195483310999992000091903004+18760+100770FM-12+0201VTCN V0209999C000012200019N0050001N1+02701+02211101231ADDAA199000091AY141031AY201031GF101991001001999999001011MA1999999098941MD1999999+0031MW1101REMSYN076AAXX  19034 48331 31950 10000 10270 20221 39894 40123 71040 80001 333 58003;EQDQ01  00002PRCP99
0195483310999992000091906004+18760+100770FM-12+0201VTCN V0209999C000012200019N0080001N1+03201+02231100971ADDAA199000091AY141061AY211061GF104991001001999999001061MA1999999098721MD1999999+0081MW1051REMSYN076AAXX  19064 48331 31958 40000 10320 20223 39872 40097 70541 80006 333 58008;EQDQ01  00002PRCP99
0167483310999992000091909004+18760+100770FM-12+0201VTCN V0209999C000012200019N0100001N1+03301+02071100731ADDAA199000091GF102991011001999999051061MA1999999098491MD1999999+0041REMSYN070AAXX  19094 48331 32960 20000 10330 20207 39849 40073 81056 333 58004;EQDQ01  00002PRCP99
0214483310999992000091912004+18760+100770FM-12+0201VTCN V0209999C000012200019N0060001N1+02801+02301100881ADDAA199000091AY111061AY201061GF104991021051999999001061KA1120M+03351MA1999999098611MD1999999+0051MW1101REMSYN082AAXX  19124 48331 31956 40000 10280 20230 39861 40088 71010 82506 333 10335 58005;EQDQ01  00002PRCP99
0195483310999992000091915004+18760+100770FM-12+0201VTCN V0209999C000012200019N0050001N1+02621+02361101101ADDAA199000091AY111031AY201031GF104991021001999999051061MA1999999098811MD1999999+0051MW1101REMSYN076AAXX  19154 48331 31950 40000 10262 20236 39881 40110 71010 82056 333 58005;EQDQ01  00002PRCP99
0195483310999992000091918004+18760+100770FM-12+0201VTCN V0209999C000012200019N0030001N1+02451+02271101071ADDAA199000091AY101061AY201061GF102991001001999999001011MA1999999098761MD1999999+0031MW1101REMSYN076AAXX  19184 48331 31930 20000 10245 20227 39876 40107 71000 80001 333 58003;EQDQ01  00002PRCP99
0205483310999992000091921004+18760+100770FM-12+0201VTCN V0209999C000012200019N0030001N1+02351+02201101071ADDAA199000091AY101031AY201031GA1001+999999999GF100991001001999999001001MA1999999098761MD1999999+0061MW1101REMSYN070AAXX  19214 48331 31930 00000 10235 20220 39876 40107 71000 333 58006;EQDQ01  00002PRCP99
0214483310999992000092000004+18760+100770FM-12+0201VTCN V0209999C000012200019N0050001N1+02311+02191101171ADDAA199000091AY101061AY201061GF103991031051008001001011KA1120N+02221MA1999999098861MD1999999+0031MW1101REMSYN082AAXX  20004 48331 31550 30000 10231 20219 39886 40117 71000 83501 333 20222 58003;EQDQ01  00002PRCP99
0195483310999992000092003004+18760+100770FM-12+0201VTCN V0209999C000010075019N0060001N1+02781+02311101301ADDAA199000091AY111031AY201031GF108991051071008001071061MA1999999099011MD1999999+0071MW1101REMSYN076AAXX  20034 48331 31556 80000 10278 20231 39901 40130 71010 85776 333 58007;EQDQ01  00002PRCP99
0195483310999992000092006004+18760+100770FM-12+0201VTCN V0209999C000011050019N0080001N1+03151+02291101041ADDAA199000091AY121061AY221061GF106991021051008001051061MA1999999098801MD1999999+0071MW1051REMSYN076AAXX  20064 48331 31558 60000 10315 20229 39880 40104 70522 82556 333 58007;EQDQ01  00002PRCP99
0195483310999992000092009004+18760+100770FM-12+0201VTCN V0209999C000012200019N0080001N1+03261+02321100771ADDAA199000091AY111031AY201031GF103991021021008001001051MA1999999098531MD1999999+0041MW1051REMSYN076AAXX  20094 48331 31558 30000 10326 20232 39853 40077 70510 82205 333 58004;EQDQ01  00002PRCP99
0214483310999992000092012004+18760+100770FM-12+0201VTCN V0209999C000012200019N0060001N1+02861+02491100881ADDAA199000091AY111061AY201061GF103991011021008001001051KA1120M+03331MA1999999098611MD1999999+0001MW1101REMSYN082AAXX  20124 48331 31556 30000 10286 20249 39861 40088 71010 81205 333 10333 58000;EQDQ01  00002PRCP99
0195483310999992000092015004+18760+100770FM-12+0201VTCN V0209999C000011050019N0050001N1+02671+02411101201ADDAA199000091AY111031AY201031GF105991021051008001001051MA1999999098921MD1999999+0101MW1101REMSYN076AAXX  20154 48331 31550 50000 10267 20241 39892 40120 71010 82505 333 58010;EQDQ01  00002PRCP99
0195483310999992000092018004+18760+100770FM-12+0201VTCN V0209999C000011050019N0050001N1+02551+02331101131ADDAA199000091AY111061AY201061GF105991031051008001001051MA1999999098841MD1999999+0061MW1101REMSYN076AAXX  20184 48331 31550 50000 10255 20233 39884 40113 71010 83505 333 58006;EQDQ01  00002PRCP99
0195483310999992000092021004+18760+100770FM-12+0201VTCN V0209999C000010075019N0050001N1+02481+02301101111ADDAA199000091AY121031AY211031GF106991051051008001051061MA1999999098811MD1999999+0041MW1101REMSYN076AAXX  20214 48331 31550 60000 10248 20230 39881 40111 71021 85556 333 58004;EQDQ01  00002PRCP99
0214483310999992000092100004+18760+100770FM-12+0201VTCN V0209999C000010450019N0060001N1+02471+02321101251ADDAA199000091AY121061AY221061GF107991031051008001051061KA1120N+02351MA1999999098951MD1999999+0081MW1101REMSYN082AAXX  21004 48331 31556 70000 10247 20232 39895 40125 71022 83556 333 20235 58008;EQDQ01  00002PRCP99
0195483310999992000092103004+18760+100770FM-12+0201VTCN V0209999C000019999999N0080001N1+02921+02351101341ADDAA199000091AY121031AY221031GF106991041001999999051061MA1999999099071MD1999999+0041MW1101REMSYN076AAXX  21034 48331 31958 60000 10292 20235 39907 40134 71022 84056 333 58004;EQDQ01  00002PRCP99
0167483310999992000092106004+18760+100770FM-12+0201VTCN V0209999C000012200019N0100001N1+03231+02301101081ADDAA199000091GF103991021021008001001011MA1999999098831MD1999999+0041REMSYN070AAXX  21064 48331 32560 30000 10323 20230 39883 40108 82201 333 58004;EQDQ01  00002PRCP99
0167483310999992000092109004+18760+100770FM-12+0201VTCN V0203301N001011050019N0100001N1+03101+02411100851ADDAA199000091GF106991021051008001051061MA1999999098601MD1999999+0081REMSYN070AAXX  21094 48331 32560 63302 10310 20241 39860 40085 82556 333 58008;EQDQ01  00002PRCP99
0214483310999992000092112004+18760+100770FM-12+0201VTCN V0209999C000011050019N0060001N1+02761+02401100961ADDAA199000091AY121061AY211061GF105991021051008001051061KA1120M+03351MA1999999098681MD1999999+0081MW1101REMSYN082AAXX  21124 48331 31556 50000 10276 20240 39868 40096 71021 82556 333 10335 58008;EQDQ01  00002PRCP99
0195483310999992000092115004+18760+100770FM-12+0201VTCN V0209999C000012200019N0050001N1+02601+02371101301ADDAA199000091AY111031AY201031GF103991021001999999051011MA1999999099001MD1999999+0101MW1101REMSYN076AAXX  21154 48331 31950 30000 10260 20237 39900 40130 71010 82051 333 58010;EQDQ01  00002PRCP99
0195483310999992000092118004+18760+100770FM-12+0201VTCN V0209999C000012200019N0050001N1+02451+02301101311ADDAA199000091AY101061AY201061GF102991001001999999001011MA1999999099001MD1999999+0181MW1101REMSYN076AAXX  21184 48331 31950 20000 10245 20230 39900 40131 71000 80001 333 58018;EQDQ01  00002PRCP99
0195483310999992000092121004+18760+100770FM-12+0201VTCN V0209999C000012200019N0050001N1+02371+02261101211ADDAA199000091AY111031AY201031GF104991011051008001051011MA1999999098901MD1999999+0101MW1101REMSYN076AAXX  21214 48331 31550 40000 10237 20226 39890 40121 71010 81551 333 58010;EQDQ01  00002PRCP99
0214483310999992000092200004+18760+100770FM-12+0201VTCN V0209999C000011050019N0050001N1+02411+02291101341ADDAA199000091AY111061AY201061GF105991021051008001001051KA1120N+02251MA1999999099021MD1999999+0091MW1101REMSYN082AAXX  22004 48331 31550 50000 10241 20229 39902 40134 71010 82505 333 20225 58009;EQDQ01  00002PRCP99
0195483310999992000092203004+18760+100770FM-12+0201VTCN V0209999C000012200019N0080001N1+02951+02291101381ADDAA199000091AY111031AY201031GF102991011011008001001051MA1999999099101MD1999999+0041MW1101REMSYN076AAXX  22034 48331 31558 20000 10295 20229 39910 40138 71010 81105 333 58004;EQDQ01  00002PRCP99
0167483310999992000092206004+18760+100770FM-12+0201VTCN V0209999C000012200019N0100001N1+03151+02431101131ADDAA199000091GF103991031081008001001011MA1999999098891MD1999999+0051REMSYN070AAXX  22064 48331 32560 30000 10315 20243 39889 40113 83801 333 58005;EQDQ01  00002PRCP99
0195483310999992000092209004+18760+100770FM-12+0201VTCN V0200601N003610075019N0100001N1+03291+02361100831ADDAA199000091AY191031AY221031GF106991051091008001041061MA1999999098591MD1999999-0021MW1031REMSYN076AAXX  22094 48331 31560 60607 10329 20236 39859 40083 70392 85946 333 59002;EQDQ01  00002PRCP99
0214483310999992000092212004+18760+100770FM-12+0201VTCN V0209999C000012200019N0100001N1+02671+02271101011ADDAA199000091AY191061AY221061GF104991021081008001041051KA1120M+03431MA1999999098731MD1999999+0051MW1011REMSYN082AAXX  22124 48331 31560 40000 10267 20227 39873 40101 70192 82845 333 10343 58005;EQDQ01  00002PRCP99
0167483310999992000092215004+18760+100770FM-12+0201VTCN V0209999C000012200019N0100001N1+02551+02351101271ADDAA199000091GF101991001001999999001011MA1999999098981MD1999999-0031REMSYN070AAXX  22154 48331 32960 10000 10255 20235 39898 40127 80001 333 59003;EQDQ01  00002PRCP99
0205483310999992000092218004+18760+100770FM-12+0201VTCN V0209999C000012200019N0080001N1+02411+02291101261ADDAA199000091AY101061AY201061GA1001+999999999GF100991001001999999001001MA1999999098951MD1999999-0051MW1101REMSYN070AAXX  22184 48331 31958 00000 10241 20229 39895 40126 71000 333 59005;EQDQ01  00002PRCP99
0205483310999992000092221004+18760+100770FM-12+0201VTCN V0209999C000012200019N0008001N1+02321+02261101201ADDAA199000091AY101031AY201031GA1001+999999999GF100991001001999999001001MA1999999098881MD1999999-0011MW1461REMSYN070AAXX  22214 48331 31908 00000 10232 20226 39888 40120 74600 333 59001;EQDQ01  00002PRCP99
0214483310999992000092300004+18760+100770FM-12+0201VTCN V0209999C000010075019N0050001N1+02341+02251101341ADDAA199000091AY121061AY201061GF106991061061008001001001KA1120N+02211MA1999999099011MD1999999+0001MW1101REMSYN082AAXX  23004 48331 31550 60000 10234 20225 39901 40134 71020 86600 333 20221 58000;EQDQ01  00002PRCP99
0195483310999992000092303004+18760+100770FM-12+0201VTCN V0209999C000012200019N0080001N1+02861+02401101391ADDAA199000091AY101031AY201031GF103991031051008001001001MA1999999099101MD1999999+0011MW1101REMSYN076AAXX  23034 48331 31558 30000 10286 20240 39910 40139 71000 83500 333 58001;EQDQ01  00002PRCP99
0167483310999992000092306004+18760+100770FM-12+0201VTCN V0209999C000012200019N0100001N1+03321+02311101031ADDAA199000091GF103991031051008001001001MA1999999098791MD1999999-0101REMSYN070AAXX  23064 48331 32560 30000 10332 20231 39879 40103 83500 333 59010;EQDQ01  00002PRCP99
0167483310999992000092309004+18760+100770FM-12+0201VTCN V0209999C000010450019N0120001N1+03171+02411100741ADDAA199000091GF105991031091008001041031MA1999999098491MD1999999-0091REMSYN070AAXX  23094 48331 32562 50000 10317 20241 39849 40074 83943 333 59009;EQDQ01  00002PRCP99
0186483310999992000092312004+18760+100770FM-12+0201VTCN V0209999C000012200019N0120001N1+02861+02431100941ADDAA199000091GF104991031051008001041051KA1120M+03401MA1999999098671MD1999999-0071REMSYN076AAXX  23124 48331 32562 40000 10286 20243 39867 40094 83545 333 10340 59007;EQDQ01  00002PRCP99
0167483310999992000092315004+18760+100770FM-12+0201VTCN V0209999C000010450019N0120001N1+02701+02411101231ADDAA199000091GF106991031051008001051061MA1999999098951MD1999999-0041REMSYN070AAXX  23154 48331 32562 60000 10270 20241 39895 40123 83556 333 59004;EQDQ01  00002PRCP99
0195483310999992000092318004+18760+100770FM-12+0201VTCN V0209999C000010075019N0080001N1+02611+02441101271ADDAA199000091AY121061AY221061GF108991051051008001051061MA1999999098981MD1999999+0011MW1101REMSYN076AAXX  23184 48331 31558 80000 10261 20244 39898 40127 71022 85556 333 58001;EQDQ01  00002PRCP99
0182483310999992000092321004+18760+100770FM-12+0201VTCN V0209999C000012200019N0080001N1+02431+02311101021ADDAA103002091AY161031AY221031GF103991031051008001001001MA1999999098711MD1999999-0181MW1101REMSYN082AAXX  23214 48331 21558 30000 10243 20231 39871 40102 71062 83500 333 59018 60027;
0179483310999992000092400004+18760+100770FM-12+0201VTCN V0209999C000010450019N0100001N1+02451+02381101181ADDAA124002091GF108991041051008001071999KA1120N+02321MA1999999098871MD1999999-0161REMSYN088AAXX  24004 48331 12560 80000 10245 20238 39887 40118 60024 8457/ 333 20232 59016 70015;
0182483310999992000092403004+18760+100770FM-12+0201VTCN V0209999C000010450019N0100001N1+02641+02351101261ADDAA102000191AY161031AY221031GF105991031091008001051031MA1999999098971MD1999999-0131MW1101REMSYN082AAXX  24034 48331 21560 50000 10264 20235 39897 40126 71062 83953 333 59013 69916;
0160483310999992000092406004+18760+100770FM-12+0201VTCN V0201301N001010450019N0120001N1+02861+02331101011ADDAA106000191GF106991041091008001071061MA1999999098741MD1999999-0021REMSYN082AAXX  24064 48331 12562 61302 10286 20233 39874 40101 69911 84976 333 59002 70016;
0195483310999992000092409004+18760+100770FM-12+0201VTCN V0202101N000510450019N0120001N1+02851+02341100771ADDAA199000091AY121031AY221031GF106991031091008001071061MA1999999098501MD1999999+0031MW1151REMSYN076AAXX  24094 48331 31562 62101 10285 20234 39850 40077 71522 83976 333 58003;EQDQ01  00002PRCP99
0186483310999992000092412004+18760+100770FM-12+0201VTCN V0209999C000010450019N0100001N1+02641+02331100881ADDAA199000091GF108991031021008001071999KA1120M+03051MA1999999098591MD1999999+0081REMSYN076AAXX  24124 48331 32560 80000 10264 20233 39859 40088 8327/ 333 10305 58008;EQDQ01  00002PRCP99
0195483310999992000092415004+18760+100770FM-12+0201VTCN V0209999C000010075019N0080001N1+02551+02391101181ADDAA199000091AY121031AY221031GF108991051051008001071999MA1999999098881MD1999999-0041MW1101REMSYN076AAXX  24154 48331 31558 80000 10255 20239 39888 40118 71022 8557/ 333 59004;EQDQ01  00002PRCP99
0182483310999992000092418004+18760+100770FM-12+0201VTCN V0209999C000012200019N0080001N1+02501+02351101031ADDAA124001591AY121061AY211061GF104991021061004501051011MA1999999098731MD1999999-0101MW1101REMSYN082AAXX  24184 48331 31458 40000 10250 20235 39873 40103 71021 82651 333 59010 70016;
0182483310999992000092421004+18760+100770FM-12+0201VTCN V0209999C000010450019N0020001N1+02401+02391100951ADDAA102016091AY161031AY221031GF108991041071004501021999MA1999999098641MD1999999-0071MW1621REMSYN082AAXX  24214 48331 21420 80000 10240 20239 39864 40095 76262 8472/ 333 59007 60166;
0213483310999992000092500004+18760+100770FM-12+0201VTCN V0209999C000010042019N0003001N1+02351+02341101091ADDAA103025991AY161061AY221061GF108991081071004501999999KA1120N+02251MA1999999098781MD1999999-0091MW1291REMSYN100AAXX  25004 48331 /1403 80000 10235 20234 39878 40109 60424 72962 887// 333 20225 59009 60267 70421;
0182483310999992000092503004+18760+100770FM-12+0201VTCN V0209999C000010042019N0020001N1+02341+02281101321ADDAA103023991AY191031AY261031GF108991081071004501999999MA1999999098991MD1999999+0061MW1611REMSYN082AAXX  25034 48331 21420 80000 10234 20228 39899 40132 76196 887// 333 58006 60247;
0194483310999992000092506004+18760+100770FM-12+0201VTCN V0209999C000010042019N0060001N1+02401+02331101101ADDAA103005191AY191061AY261061GF108991081071004501999999MA1999999098791MD1999999+0091MW1611REMSYN094AAXX  25064 48331 /1456 80000 10240 20233 39879 40110 60291 76196 887// 333 58009 60057 70711;
0182483310999992000092509004+18760+100770FM-12+0201VTCN V0209999C000010042019N0080001N1+02481+02351100881ADDAA103001091AY161031AY221031GF108991081071004501999999MA1999999098581MD1999999+0111MW1101REMSYN082AAXX  25094 48331 21458 80000 10248 20235 39858 40088 71062 887// 333 58011 60017;
0207483310999992000092512004+18760+100770FM-12+0201VTCN V0209999C000010042019N0060001N1+02441+02371100871ADDAA112030091AY161061AY221061GF108991081071004501999999KA1120M+02501MA1999999098561MD1999999-0011MW1101REMSYN094AAXX  25124 48331 11456 80000 10244 20237 39856 40087 60302 71062 887// 333 10250 59001 70721;
0176483310999992000092515004+18760+100770FM-12+0201VTCN V0209999C000010042019N0060001N1+02381+02341101091ADDAA199000021AY121031AY221031GF107991061071004501071061MA1999999098781MD1999999-0091MW1101REMSYN076AAXX  25154 48331 31456 70000 10238 20234 39878 40109 71022 86776 333 59009;
0182483310999992000092518004+18760+100770FM-12+0201VTCN V0209999C000010042019N0030001N1+02361+02331101011ADDAA124072191AY121061AY221061GF108991071071004501071999MA1999999098701MD1999999-0021MW1101REMSYN082AAXX  25184 48331 31430 80000 10236 20233 39870 40101 71022 8777/ 333 59002 70721;
0195483310999992000092521004+18760+100770FM-12+0201VTCN V0209999C000010042019N0020001N1+02351+02321100901ADDAA199000091AY121031AY221031GF108991071071004501071999MA1999999098591MD1999999-0051MW1101REMSYN076AAXX  25214 48331 31420 80000 10235 20232 39859 40090 71022 8777/ 333 59005;EQDQ01  00002PRCP99
0207483310999992000092600004+18760+100770FM-12+0201VTCN V0209999C000010042019N0060001N1+02361+02311101071ADDAA124030091AY121061AY221061GF108991061061004501071999KA1120N+02241MA1999999098761MD1999999-0021MW1101REMSYN094AAXX  26004 48331 11456 80000 10236 20231 39876 40107 60304 71022 8667/ 333 20224 59002 70301;
0195483310999992000092603004+18760+100770FM-12+0201VTCN V0209999C000010042019N0060001N1+02551+02331101191ADDAA199000091AY121031AY221031GF108991061061004501071999MA1999999098901MD1999999-0131MW1101REMSYN076AAXX  26034 48331 31456 80000 10255 20233 39890 40119 71022 8667/ 333 59013;EQDQ01  00002PRCP99
0154483310999992000092606004+18760+100770FM-12+0201VTCN V0209999C000012200019N0150001N1+03041+02411100931ADDAA124001091GF103991031051008001001001MA1999999098671MD1999999-0171REMSYN076AAXX  26064 48331 32565 30000 10304 20241 39867 40093 83500 333 59017 70010;
0167483310999992000092609004+18760+100770FM-12+0201VTCN V0209999C000012200019N0150001N1+03241+02431100611ADDAA199000091GF104991041091008001001001MA1999999098371MD1999999-0271REMSYN070AAXX  26094 48331 32565 40000 10324 20243 39837 40061 84900 333 59027;EQDQ01  00002PRCP99
0186483310999992000092612004+18760+100770FM-12+0201VTCN V0209999C000012200019N0150001N1+02831+02501100671ADDAA199000091GF103991031051008001001001KA1120M+03271MA1999999098391MD1999999-0201REMSYN076AAXX  26124 48331 32565 30000 10283 20250 39839 40067 83500 333 10327 59020;EQDQ01  00002PRCP99
0167483310999992000092615004+18760+100770FM-12+0201VTCN V0209999C000012200019N0120001N1+02621+02451100951ADDAA199000091GF101991011011008001001001MA1999999098661MD1999999-0141REMSYN070AAXX  26154 48331 32562 10000 10262 20245 39866 40095 81100 333 59014;EQDQ01  00002PRCP99
0167483310999992000092618004+18760+100770FM-12+0201VTCN V0209999C000012200019N0120001N1+02501+02381100881ADDAA199000091GF103991021051008001001031MA1999999098581MD1999999-0131REMSYN070AAXX  26184 48331 32562 30000 10250 20238 39858 40088 82503 333 59013;EQDQ01  00002PRCP99
0195483310999992000092621004+18760+100770FM-12+0201VTCN V0209999C000010042019N0060001N1+02431+02361100811ADDAA199000091AY121031AY221031GF108991051061004501071071MA1999999098511MD1999999-0091MW1101REMSYN076AAXX  26214 48331 31456 80000 10243 20236 39851 40081 71022 85677 333 59009;EQDQ01  00002PRCP99
0224483310999992000092700004+18760+100770FM-12+0201VTCN V0209999C000010006019N0008001N1+02421+02351100961ADDAA199000091AY141061AY221061GA1091+999999999GF109991091999999999999999KA1120N+02301MA1999999098661MD1999999-0111MW1431REMSYN076AAXX  27004 48331 31/08 90000 10242 20235 39866 40096 74342 333 20230 59011;EQDQ01  00002PRCP99
0195483310999992000092703004+18760+100770FM-12+0201VTCN V0209999C000010042019N0080001N1+02611+02411101041ADDAA199000091AY121031AY221031GF107991051061004501051061MA1999999098751MD1999999+0151MW1101REMSYN076AAXX  27034 48331 31458 70000 10261 20241 39875 40104 71022 85656 333 58015;EQDQ01  00002PRCP99
0167483310999992000092705004+18760+100770FM-12+0201VTCN V0209999C000011050019N0120001N1+03021+02511100691ADDAA199000091GF106991021031008001051061MA1999999098441MD1999999-0241REMSYN070AAXX  27054 48331 32562 60000 10302 20251 39844 40069 82356 333 59024;EQDQ01  00002PRCP99
0167483310999992000092706004+18760+100770FM-12+0201VTCN V0209999C000011050019N0120001N1+03021+02511100691ADDAA199000091GF106991021031008001051061MA1999999098441MD1999999-0241REMSYN070AAXX  27064 48331 32562 60000 10302 20251 39844 40069 82356 333 59024;EQDQ01  00002PRCP99
0195483310999992000092709004+18760+100770FM-12+0201VTCN V0209999C000010450019N0120001N1+03301+02451100421ADDAA199000091AY121031AY221031GF106991041091008001071031MA1999999098201MD1999999-0191MW1151REMSYN076AAXX  27094 48331 31562 60000 10330 20245 39820 40042 71522 84973 333 59019;EQDQ01  00002PRCP99
0213483310999992000092712004+18760+100770FM-12+0201VTCN V0209999C000010450019N0100001N1+02731+02461100681ADDAA101000191AY191061AY221061GF108991041051008001071999KA1120M+03371MA1999999098401MD1999999+0011MW1601REMSYN100AAXX  27124 48331 /1560 80000 10273 20246 39840 40068 69912 76092 8457/ 333 10337 58001 69915 70001;
0148483310999992000092715004+18760+100770FM-12+0201VTCN V0209999C000012200019N0100001N1+02511+02331100881ADDAA199000021GF103991031051008001001001MA1999999098581MD1999999-0071REMSYN070AAXX  27154 48331 32560 30000 10251 20233 39858 40088 83500 333 59007;
0154483310999992000092718004+18760+100770FM-12+0201VTCN V0209999C000010450019N0100001N1+02481+02361100901ADDAA124000191GF106991031061004501071061MA1999999098601MD1999999+0021REMSYN076AAXX  27184 48331 32460 60000 10248 20236 39860 40090 83676 333 58002 70001;
0176483310999992000092721004+18760+100770FM-12+0201VTCN V0209999C000012200019N0080001N1+02441+02371100821ADDAA199000021AY121031AY201031GF103991021061004501001011MA1999999098521MD1999999+0011MW1101REMSYN076AAXX  27214 48331 31458 30000 10244 20237 39852 40082 71020 82601 333 58001;
0201483310999992000092800004+18760+100770FM-12+0201VTCN V0209999C000010042019N0030001N1+02451+02361100931ADDAA124000191AY121061AY211061GF108991071071004501071061KA1120N+02331MA1999999098631MD1999999-0031MW1101REMSYN088AAXX  28004 48331 31430 80000 10245 20236 39863 40093 71021 87776 333 20233 59003 70001;
0182483310999992000092803004+18760+100770FM-12+0201VTCN V0209999C000010120019N0150001N1+02641+02381100981ADDAA103002091AY161031AY221031GF106991051081008001071061MA1999999098691MD1999999-0061MW1011REMSYN082AAXX  28034 48331 21565 60000 10264 20238 39869 40098 70162 85876 333 59006 60027;
0188483310999992000092806004+18760+100770FM-12+0201VTCN V0209999C000010450019N0150001N1+03041+02411100781ADDAA106002091AY161061AY221061GF106991041081008001041061MA1999999098521MD1999999+0091MW1151REMSYN088AAXX  28064 48331 11565 60000 10304 20241 39852 40078 60021 71562 84846 333 58009 70016;
0182483310999992000092809004+18760+100770FM-12+0201VTCN V0209999C000010120019N0150001N1+02601+02441100581ADDAA103005191AY191031AY221031GF105991051081008001041061MA1999999098311MD1999999+0161MW1011REMSYN082AAXX  28094 48331 21565 50000 10260 20244 39831 40058 70192 85846 333 58016 60057;
0207483310999992000092812004+18760+100770FM-12+0201VTCN V0209999C000012200019N0120001N1+02551+02441100751ADDAA112007191AY191061AY221061GF103991031051008001041051KA1120M+03131MA1999999098461MD1999999+0071MW1011REMSYN094AAXX  28124 48331 11562 30000 10255 20244 39846 40075 60072 70192 83545 333 10313 58007 70067;
0167483310999992000092815004+18760+100770FM-12+0201VTCN V0209999C000012200019N0100001N1+02501+02411101031ADDAA199000091GF103991031051008001001051MA1999999098731MD1999999+0151REMSYN070AAXX  28154 48331 32560 30000 10250 20241 39873 40103 83505 333 58015;EQDQ01  00002PRCP99
0182483310999992000092818004+18760+100770FM-12+0201VTCN V0209999C000012200019N0080001N1+02451+02381100971ADDAA103006191AY101061AY201061GF104991041061004501001051MA1999999098671MD1999999+0071MW1101REMSYN082AAXX  28184 48331 21458 40000 10245 20238 39867 40097 71000 84605 333 58007 60067;
0195483310999992000092821004+18760+100770FM-12+0201VTCN V0209999C000012200019N0060001N1+02351+02271100911ADDAA199000091AY101031AY201031GF103991031061004501001051MA1999999098611MD1999999+0091MW1101REMSYN076AAXX  28214 48331 31456 30000 10235 20227 39861 40091 71000 83605 333 58009;EQDQ01  00002PRCP99
0201483310999992000092900004+18760+100770FM-12+0201VTCN V0209999C000010042019N0040001N1+02351+02291100961ADDAA124006691AY121061AY221061GF108991051061004501061071KA1120N+02211MA1999999098741MD1999999+0031MW1101REMSYN088AAXX  29004 48331 31440 80000 10235 20229 39874 40096 71022 85667 333 20221 58003 70067;
0167483310999992000092903004+18760+100770FM-12+0201VTCN V0209999C000010450019N0120001N1+02751+02321101191ADDAA199000091GF106991041051008001041061MA1999999098911MD1999999+0211REMSYN070AAXX  29034 48331 32562 60000 10275 20232 39891 40119 84546 333 58021;EQDQ01  00002PRCP99
0154483310999992000092906004+18760+100770FM-12+0201VTCN V0209999C000012200019N0150001N1+03141+02361100911ADDAA124005191GF103991031091008001001001MA1999999098661MD1999999+0131REMSYN076AAXX  29064 48331 32565 30000 10314 20236 39866 40091 83900 333 58013 70052;
0167483310999992000092909004+18760+100770FM-12+0201VTCN V0209999C000012200019N0150001N1+03261+02411100661ADDAA199000091GF103991031091008001001001MA1999999098421MD1999999+0081REMSYN070AAXX  29094 48331 32565 30000 10326 20241 39842 40066 83900 333 58008;EQDQ01  00002PRCP99
0213483310999992000092912004+18760+100770FM-12+0201VTCN V0209999C000010042019N0100001N1+02621+02321100921ADDAA102000391AY161061AY221061GF108991061091004501071999KA1120M+03321MA1999999098631MD1999999+0171MW1211REMSYN100AAXX  29124 48331 /1460 80000 10262 20232 39863 40092 69932 72162 8697/ 333 10332 58017 69936 70003;
0165483310999992000092918004+18760+100770FM-12+0201VTCN V0209999C000019999999N0120001N1+02401+02311101111ADDAA118002091GF108991999999008001999999MA1999999098801MD1999999+0141REMSYN087AAXX  29184 48331 11562 80000 10240 20231 39880 40111 60023 0262 85576 333 58014 70015;
0148483310999992000092921004+18760+100770FM-12+0201VTCN V0209999C000010042019N0100001N1+02371+02281101051ADDAA199000021GF105991051061004501001001MA1999999098741MD1999999+0141REMSYN070AAXX  29214 48331 32460 50000 10237 20228 39874 40105 85600 333 58014;
0179483310999992000093000004+18760+100770FM-12+0201VTCN V0209999C000010450019N0100001N1+02361+02271101231ADDAA124002091GF108991041081008001071999KA1120N+02251MA1999999098921MD1999999+0271REMSYN088AAXX  30004 48331 12560 80000 10236 20227 39892 40123 60024 8487/ 333 20225 58027 70015;
0167483310999992000093003004+18760+100770FM-12+0201VTCN V0209999C000010450019N0150001N1+02851+02431101341ADDAA199000091GF106991021021008001071011MA1999999099061MD1999999+0151REMSYN070AAXX  30034 48331 32565 60000 10285 20243 39906 40134 82271 333 58015;EQDQ01  00002PRCP99
0182483310999992000093006004+18760+100770FM-12+0201VTCN V0209999C000010075019N0120001N1+02951+02291101071ADDAA124001591AY121061AY221061GF106991051091008001071031MA1999999098801MD1999999+0161MW1151REMSYN082AAXX  30064 48331 31562 60000 10295 20229 39880 40107 71522 85973 333 58016 70015;
0167483310999992000093009004+18760+100770FM-12+0201VTCN V0201001N001011050019N0150001N1+03151+02391100801ADDAA199000091GF105991021091008001051061MA1999999098561MD1999999+0141REMSYN070AAXX  30094 48331 32565 51002 10315 20239 39856 40080 82956 333 58014;EQDQ01  00002PRCP99
0173483310999992000093012004+18760+100770FM-12+0201VTCN V0209999C000010450019N0120001N1+02711+02471101111ADDAA124001391GF106991031091008001071061KA1120M+03211MA1999999098831MD1999999+0191REMSYN082AAXX  30124 48331 32562 60000 10271 20247 39883 40111 83976 333 10321 58019 70012;
0182483310999992000093015004+18760+100770FM-12+0201VTCN V0209999C000010450019N0060001N1+02401+02301101471ADDAA103002091AY191031AY261031GF108991041071008001071999MA1999999099151MD1999999+0251MW1611REMSYN082AAXX  30154 48331 21556 80000 10240 20230 39915 40147 76196 8477/ 333 58025 60027;
0194483310999992000093018004+18760+100770FM-12+0201VTCN V0209999C000010450019N0120001N1+02351+02271101401ADDAA103001091AY191061AY261061GF105991031051008001071011MA1999999099071MD1999999+0291MW1011REMSYN094AAXX  30184 48331 /1562 50000 10235 20227 39907 40140 60033 70196 83571 333 58029 60017 70032;
0148483310999992000093021004+18760+100770FM-12+0201VTCN V0209999C000010450019N0120001N1+02331+02281101341ADDAA199000021GF106991031051008001071011MA1999999099021MD1999999+0291REMSYN070AAXX  30214 48331 32562 60000 10233 20228 39902 40134 83571 333 58029;
0201483310999992000100100004+18760+100770FM-12+0201VTCN V0209999C000010075019N0080001N1+02301+02221101451ADDAA124003391AY121061AY221061GF108991061051008001071061KA1120N+02201MA1999999099121MD1999999+0221MW1101REMSYN088AAXX  01004 48331 31558 80000 10230 20222 39912 40145 71022 86576 333 20220 58022 70032;
0148483310999992000100103004+18760+100770FM-12+0201VTCN V0209999C000012200019N0150001N1+02701+02331101531ADDAA199000021GF104991031051008001041011MA1999999099241MD1999999+0191REMSYN070AAXX  01034 48331 32565 40000 10270 20233 39924 40153 83541 333 58019;
0154483310999992000100106004+18760+100770FM-12+0201VTCN V0209999C000012200019N0150001N1+03151+02431101191ADDAA124003391GF104991021031008001001011MA1999999098951MD1999999+0121REMSYN076AAXX  01064 48331 32565 40000 10315 20243 39895 40119 82301 333 58012 70032;
0167483310999992000100109004+18760+100770FM-12+0201VTCN V0209999C000012200019N0150001N1+03261+02391100911ADDAA199000091GF102991021011008001001011MA1999999098671MD1999999+0111REMSYN070AAXX  01094 48331 32565 20000 10326 20239 39867 40091 82101 333 58011;EQDQ01  00002PRCP99
0186483310999992000100112004+18760+100770FM-12+0201VTCN V0209999C000012200019N0120001N1+02901+02351101051ADDAA199000091GF101991011011008001001011KA1120M+03351MA1999999098791MD1999999-0061REMSYN076AAXX  01124 48331 32562 10000 10290 20235 39879 40105 81101 333 10335 59006;EQDQ01  00002PRCP99
0167483310999992000100115004+18760+100770FM-12+0201VTCN V0209999C000012200019N0120001N1+02651+02421101421ADDAA199000091GF104991021051008001041051MA1999999099121MD1999999-0051REMSYN070AAXX  01154 48331 32562 40000 10265 20242 39912 40142 82545 333 59005;EQDQ01  00002PRCP99
0167483310999992000100118004+18760+100770FM-12+0201VTCN V0209999C000012200019N0100001N1+02401+02251101391ADDAA199000091GF102991021051008001001001MA1999999099071MD1999999-0011REMSYN070AAXX  01184 48331 32560 20000 10240 20225 39907 40139 82500 333 59001;EQDQ01  00002PRCP99
0195483310999992000100121004+18760+100770FM-12+0201VTCN V0209999C000012200019N0080001N1+02351+02211101341ADDAA199000091AY101031AY201031GF101991011011008001001001MA1999999099021MD1999999+0001MW1101REMSYN076AAXX  01214 48331 31558 10000 10235 20221 39902 40134 71000 81100 333 58000;EQDQ01  00002PRCP99
0186483310999992000100200004+18760+100770FM-12+0201VTCN V0209999C000010450019N0120001N1+02401+02251101391ADDAA199000091GF106991031051008001041061KA1120N+02211MA1999999099071MD1999999-0061REMSYN076AAXX  02004 48331 32562 60000 10240 20225 39907 40139 83546 333 20221 59006;EQDQ01  00002PRCP99
0167483310999992000100203004+18760+100770FM-12+0201VTCN V0209999C000012200019N0150001N1+02901+02321101391ADDAA199000091GF102991021021008001001001MA1999999099111MD1999999-0141REMSYN070AAXX  02034 48331 32565 20000 10290 20232 39911 40139 82200 333 59014;EQDQ01  00002PRCP99
0167483310999992000100206004+18760+100770FM-12+0201VTCN V0209999C000012200019N0150001N1+03201+02411101081ADDAA199000091GF102991021091008001001001MA1999999098831MD1999999-0111REMSYN070AAXX  02064 48331 32565 20000 10320 20241 39883 40108 82900 333 59011;EQDQ01  00002PRCP99
0167483310999992000100209004+18760+100770FM-12+0201VTCN V0209999C000010450019N0150001N1+03311+02501100831ADDAA199000091GF106991031091008001041031MA1999999098591MD1999999-0081REMSYN070AAXX  02094 48331 32565 60000 10331 20250 39859 40083 83943 333 59008;EQDQ01  00002PRCP99
0186483310999992000100212004+18760+100770FM-12+0201VTCN V0209999C000012200019N0150001N1+02901+02571100911ADDAA199000091GF101991011011008001001001KA1120M+03441MA1999999098641MD1999999-0141REMSYN076AAXX  02124 48331 32565 10000 10290 20257 39864 40091 81100 333 10344 59014;EQDQ01  00002PRCP99
0167483310999992000100215004+18760+100770FM-12+0201VTCN V0209999C000012200019N0120001N1+02681+02501101191ADDAA199000091GF101991011011008001001001MA1999999098911MD1999999-0231REMSYN070AAXX  02154 48331 32562 10000 10268 20250 39891 40119 81100 333 59023;EQDQ01  00002PRCP99
0167483310999992000100218004+18760+100770FM-12+0201VTCN V0209999C000012200019N0120001N1+02501+02411101201ADDAA199000091GF103991021051008001001021MA1999999098911MD1999999-0191REMSYN070AAXX  02184 48331 32562 30000 10250 20241 39891 40120 82502 333 59019;EQDQ01  00002PRCP99
0183483310999992000100221004+18760+100770FM-12+0201VTCN V0209999C000010006019N0008001N1+02461+02351101061ADDAA199000091GA1091+999999999GF109991091999999999999999MA1999999098751MD1999999-0281REMSYN070AAXX  02214 48331 31/08 90000 10246 20235 39875 40106 7//// 333 59028;EQDQ01  00002PRCP99
0214483310999992000100300004+18760+100770FM-12+0201VTCN V0209999C000010042019N0050001N1+02401+02331101191ADDAA199000091AY141061AY241061GF108991081061004501999999KA1120N+02301MA1999999098881MD1999999-0201MW1101REMSYN082AAXX  03004 48331 31450 80000 10240 20233 39888 40119 71044 886// 333 20230 59020;EQDQ01  00002PRCP99
0167483310999992000100303004+18760+100770FM-12+0201VTCN V0209999C000010042019N0100001N1+02671+02401101281ADDAA199000091GF107991071061004501001001MA1999999098991MD1999999-0111REMSYN070AAXX  03034 48331 32460 70000 10267 20240 39899 40128 87600 333 59011;EQDQ01  00002PRCP99
0167483310999992000100306004+18760+100770FM-12+0201VTCN V0209999C000010450019N0150001N1+03231+02481100891ADDAA199000091GF106991031091008001051031MA1999999098651MD1999999-0191REMSYN070AAXX  03064 48331 32565 60000 10323 20248 39865 40089 83953 333 59019;EQDQ01  00002PRCP99
0167483310999992000100309004+18760+100770FM-12+0201VTCN V0209999C000010450019N0150001N1+03251+02441100701ADDAA199000091GF106991031091008001071061MA1999999098471MD1999999-0131REMSYN070AAXX  03094 48331 32565 60000 10325 20244 39847 40070 83976 333 59013;EQDQ01  00002PRCP99
0186483310999992000100312004+18760+100770FM-12+0201VTCN V0209999C000011050019N0120001N1+02781+02421100841ADDAA199000091GF105991021051008001041061KA1120M+03411MA1999999098571MD1999999-0071REMSYN076AAXX  03124 48331 32562 50000 10278 20242 39857 40084 82546 333 10341 59007;EQDQ01  00002PRCP99
0167483310999992000100315004+18760+100770FM-12+0201VTCN V0209999C000012200019N0100001N1+02601+02401101051ADDAA199000091GF102991011051008001001011MA1999999098761MD1999999-0141REMSYN070AAXX  03154 48331 32560 20000 10260 20240 39876 40105 81501 333 59014;EQDQ01  00002PRCP99
0167483310999992000100318004+18760+100770FM-12+0201VTCN V0209999C000012200019N0100001N1+02471+02351101051ADDAA199000091GF102991011051008001051011MA1999999098751MD1999999-0151REMSYN070AAXX  03184 48331 32560 20000 10247 20235 39875 40105 81551 333 59015;EQDQ01  00002PRCP99
0205483310999992000100321004+18760+100770FM-12+0201VTCN V0209999C000010003019N0005001N1+02421+02381100951ADDAA199000091AY101031AY201031GA1091+999999999GF109991091999999999999999MA1999999098651MD1999999-0111MW1471REMSYN070AAXX  03214 48331 31/05 90000 10242 20238 39865 40095 74700 333 59011;EQDQ01  00002PRCP99
0214483310999992000100400004+18760+100770FM-12+0201VTCN V0209999C000010042019N0020001N1+02421+02331101111ADDAA199000091AY141061AY221061GF106991061061004501001051KA1120N+02301MA1999999098801MD1999999-0081MW1101REMSYN082AAXX  04004 48331 31420 60000 10242 20233 39880 40111 71042 86605 333 20230 59008;EQDQ01  00002PRCP99
0167483310999992000100403004+18760+100770FM-12+0201VTCN V0209999C000012200019N0100001N1+02651+02361101211ADDAA199000091GF103991031061004501001011MA1999999098921MD1999999-0071REMSYN070AAXX  04034 48331 32460 30000 10265 20236 39892 40121 83601 333 59007;EQDQ01  00002PRCP99
0167483310999992000100406004+18760+100770FM-12+0201VTCN V0209999C000012200019N0150001N1+03241+02531100821ADDAA199000091GF102991021091008001001031MA1999999098581MD1999999-0071REMSYN070AAXX  04064 48331 32565 20000 10324 20253 39858 40082 82903 333 59007;EQDQ01  00002PRCP99
0195483310999992000100409004+18760+100770FM-12+0201VTCN V0209999C000011050019N0150001N1+03271+02281100581ADDAA199000091AY191031AY211031GF106991021091008001041061MA1999999098341MD1999999-0121MW1031REMSYN076AAXX  04094 48331 31565 60000 10327 20228 39834 40058 70391 82946 333 59012;EQDQ01  00002PRCP99
0214483310999992000100412004+18760+100770FM-12+0201VTCN V0209999C000012200019N0120001N1+02951+02551100791ADDAA199000091AY191061AY211061GF103991021091008001041031KA1120M+03451MA1999999098531MD1999999-0051MW1131REMSYN082AAXX  04124 48331 31562 30000 10295 20255 39853 40079 71391 82943 333 10345 59005;EQDQ01  00002PRCP99
0195483310999992000100415004+18760+100770FM-12+0201VTCN V0209999C000012200019N0120001N1+02581+02161101171ADDAA199000091AY101031AY201031GF103991021091008001041031MA1999999098881MD1999999+0121MW1131REMSYN076AAXX  04154 48331 31562 30000 10258 20216 39888 40117 71300 82943 333 58012;EQDQ01  00002PRCP99
0195483310999992000100418004+18760+100770FM-12+0201VTCN V0209999C000012200019N0100001N1+02451+02231101061ADDAA199000091AY101061AY201061GF102991021091008001001031MA1999999098761MD1999999+0011MW1131REMSYN076AAXX  04184 48331 31560 20000 10245 20223 39876 40106 71300 82903 333 58001;EQDQ01  00002PRCP99
0182483310999992000100421004+18760+100770FM-12+0201VTCN V0209999C000010075019N0040001N1+02371+02261101101ADDAA103003091AY161031AY211031GF107991051071008001071061MA1999999098791MD1999999+0151MW1611REMSYN082AAXX  04214 48331 21540 70000 10237 20226 39879 40110 76161 85776 333 58015 60037;
0213483310999992000100500004+18760+100770FM-12+0201VTCN V0209999C000010042019N0120001N1+02361+02271101231ADDAA103001091AY161061AY221061GF108991051051004501071061KA1120N+02231MA1999999098921MD1999999+0121MW1031REMSYN100AAXX  05004 48331 /1462 80000 10236 20227 39892 40123 60044 70362 85576 333 20223 58012 60017 70043;
0148483310999992000100503004+18760+100770FM-12+0201VTCN V0209999C000012200019N0150001N1+02821+02311101241ADDAA199000021GF102991021051008001001001MA1999999098961MD1999999+0031REMSYN070AAXX  05034 48331 32565 20000 10282 20231 39896 40124 82500 333 58003;
0154483310999992000100506004+18760+100770FM-12+0201VTCN V0209999C000012200019N0150001N1+03181+02331100891ADDAA124004391GF103991031051008001001001MA1999999098651MD1999999+0071REMSYN076AAXX  05064 48331 32565 30000 10318 20233 39865 40089 83500 333 58007 70043;
0148483310999992000100509004+18760+100770FM-12+0201VTCN V0209999C000012200019N0150001N1+03051+02401100651ADDAA199000021GF102991021051008001001001MA1999999098391MD1999999+0071REMSYN070AAXX  05094 48331 32565 20000 10305 20240 39839 40065 82500 333 58007;
0173483310999992000100512004+18760+100770FM-12+0201VTCN V0209999C000012200019N0150001N1+02741+02391100871ADDAA124004391GF103991031081008001001001KA1120M+03341MA1999999098591MD1999999+0081REMSYN082AAXX  05124 48331 32565 30000 10274 20239 39859 40087 83800 333 10334 58008 70043;
0167483310999992000100515004+18760+100770FM-12+0201VTCN V0209999C000010450019N0120001N1+02591+02371101131ADDAA199000091GF106991031051008001041061MA1999999098841MD1999999-0041REMSYN070AAXX  05154 48331 32562 60000 10259 20237 39884 40113 83546 333 59004;EQDQ01  00002PRCP99
0154483310999992000100518004+18760+100770FM-12+0201VTCN V0209999C000012200019N0120001N1+02541+02401101121ADDAA124004391GF104991031041008001041051MA1999999098821MD1999999+0061REMSYN076AAXX  05184 48331 32562 40000 10254 20240 39882 40112 83445 333 58006 70043;
0167483310999992000100521004+18760+100770FM-12+0201VTCN V0209999C000012200019N0100001N1+02481+02361101041ADDAA199000091GF102991021021008001001001MA1999999098741MD1999999-0061REMSYN070AAXX  05214 48331 32560 20000 10248 20236 39874 40104 82200 333 59006;EQDQ01  00002PRCP99
0186483310999992000100600004+18760+100770FM-12+0201VTCN V0209999C000011050019N0120001N1+02451+02351101241ADDAA199000091GF105991021081008001051061KA1120N+02321MA1999999098931MD1999999+0011REMSYN076AAXX  06004 48331 32562 50000 10245 20235 39893 40124 82856 333 20232 58001;EQDQ01  00002PRCP99
0167483310999992000100603004+18760+100770FM-12+0201VTCN V0209999C000010075019N0120001N1+02651+02361101431ADDAA199000091GF108991061071008001071999MA1999999099131MD1999999+0191REMSYN070AAXX  06034 48331 32562 80000 10265 20236 39913 40143 8677/ 333 58019;EQDQ01  00002PRCP99
0194483310999992000100606004+18760+100770FM-12+0201VTCN V0203101N001010450019N0150001N1+02811+02361101131ADDAA102000791AY161061AY221061GF106991031031008001071061MA1999999098851MD1999999+0241MW1011REMSYN094AAXX  06064 48331 /1565 63102 10281 20236 39885 40113 69901 70162 83376 333 58024 69906 79999;
0195483310999992000100609004+18760+100770FM-12+0201VTCN V0203601N001011050019N0150001N1+02831+02321100841ADDAA199000091AY121031AY221031GF106991021091008001071031MA1999999098571MD1999999+0191MW1151REMSYN076AAXX  06094 48331 31565 63602 10283 20232 39857 40084 71522 82973 333 58019;EQDQ01  00002PRCP99
0173483310999992000100612004+18760+100770FM-12+0201VTCN V0209999C000010450019N0120001N1+02611+02361101041ADDAA124000791GF106991041051008001071011KA1120M+02901MA1999999098751MD1999999+0171REMSYN082AAXX  06124 48331 32562 60000 10261 20236 39875 40104 84571 333 10290 58017 79999;
0167483310999992000100615004+18760+100770FM-12+0201VTCN V0209999C000012200019N0120001N1+02471+02321101201ADDAA199000091GF103991021051008001051011MA1999999098901MD1999999+0071REMSYN070AAXX  06154 48331 32562 30000 10247 20232 39890 40120 82551 333 58007;EQDQ01  00002PRCP99
0167483310999992000100621004+18760+100770FM-12+0201VTCN V0209999C000010450019N0120001N1+02371+02261101101ADDAA199000091GF107991031051008001071061MA1999999098791MD1999999+0061REMSYN070AAXX  06214 48331 32562 70000 10237 20226 39879 40110 83576 333 58006;EQDQ01  00002PRCP99
0173483310999992000100700004+18760+100770FM-12+0201VTCN V0209999C000012200019N0100001N1+02371+02261101231ADDAA124000791GF104991031051008001041011KA1120N+02251MA1999999098931MD1999999-0011REMSYN082AAXX  07004 48331 32560 40000 10237 20226 39893 40123 83541 333 20225 59001 79999;
0167483310999992000100703004+18760+100770FM-12+0201VTCN V0209999C000010075019N0150001N1+02661+02311101331ADDAA199000091GF105991051051008001041051MA1999999099041MD1999999-0101REMSYN070AAXX  07034 48331 32565 50000 10266 20231 39904 40133 85545 333 59010;EQDQ01  00002PRCP99
0195483310999992000100706004+18760+100770FM-12+0201VTCN V0209999C000010450019N0150001N1+03151+02431100951ADDAA199000091AY111061AY201061GF105991041091008001041031MA1999999098701MD1999999-0181MW1151REMSYN076AAXX  07064 48331 31565 50000 10315 20243 39870 40095 71510 84943 333 59018;EQDQ01  00002PRCP99
0195483310999992000100709004+18760+100770FM-12+0201VTCN V0209999C000012200019N0150001N1+03101+02301100771ADDAA199000091AY191031AY221031GF103991021091008001041051MA1999999098521MD1999999-0071MW1011REMSYN076AAXX  07094 48331 31565 30000 10310 20230 39852 40077 70192 82945 333 59007;EQDQ01  00002PRCP99
0214483310999992000100712004+18760+100770FM-12+0201VTCN V0209999C000012200019N0120001N1+02701+02331100921ADDAA199000091AY191061AY221061GF102991021051008001001011KA1120M+03251MA1999999098641MD1999999-0121MW1011REMSYN082AAXX  07124 48331 31562 20000 10270 20233 39864 40092 70192 82501 333 10325 59012;EQDQ01  00002PRCP99
0167483310999992000100715004+18760+100770FM-12+0201VTCN V0209999C000012200019N0120001N1+02501+02261101171ADDAA199000091GF102991021051008001001011MA1999999098871MD1999999-0031REMSYN070AAXX  07154 48331 32562 20000 10250 20226 39887 40117 82501 333 59003;EQDQ01  00002PRCP99
0167483310999992000100718004+18760+100770FM-12+0201VTCN V0209999C000010075019N0120001N1+02451+02301101051ADDAA199000091GF106991051051008001071051MA1999999098751MD1999999-0051REMSYN070AAXX  07184 48331 32562 60000 10245 20230 39875 40105 85575 333 59005;EQDQ01  00002PRCP99
0167483310999992000100721004+18760+100770FM-12+0201VTCN V0209999C000010075019N0120001N1+02401+02281100981ADDAA199000091GF106991061051008001071061MA1999999098671MD1999999-0121REMSYN070AAXX  07214 48331 32562 60000 10240 20228 39867 40098 86576 333 59012;EQDQ01  00002PRCP99
0214483310999992000100800004+18760+100770FM-12+0201VTCN V0209999C000010075019N0080001N1+02431+02311101101ADDAA199000091AY121061AY221061GF106991051051008001071061KA1120N+02281MA1999999098791MD1999999-0131MW1101REMSYN082AAXX  08004 48331 31558 60000 10243 20231 39879 40110 71022 85576 333 20228 59013;EQDQ01  00002PRCP99
0167483310999992000100803004+18760+100770FM-12+0201VTCN V0209999C000012200019N0120001N1+02961+02431101051ADDAA199000091GF102991021051008001001001MA1999999098791MD1999999-0281REMSYN070AAXX  08034 48331 32562 20000 10296 20243 39879 40105 82500 333 59028;EQDQ01  00002PRCP99
0167483310999992000100806004+18760+100770FM-12+0201VTCN V0209999C000012200019N0150001N1+03251+02391100671ADDAA199000091GF102991021021008001001001MA1999999098441MD1999999-0281REMSYN070AAXX  08064 48331 32565 20000 10325 20239 39844 40067 82200 333 59028;EQDQ01  00002PRCP99
0167483310999992000100809004+18760+100770FM-12+0201VTCN V0209999C000010450019N0150001N1+03001+02361100531ADDAA199000091GF105991041091008001041031MA1999999098281MD1999999-0241REMSYN070AAXX  08094 48331 32565 50000 10300 20236 39828 40053 84943 333 59024;EQDQ01  00002PRCP99
0186483310999992000100812004+18760+100770FM-12+0201VTCN V0209999C000012200019N0150001N1+02771+02441100711ADDAA199000091GF103991031091008001001001KA1120M+03341MA1999999098431MD1999999-0211REMSYN076AAXX  08124 48331 32565 30000 10277 20244 39843 40071 83900 333 10334 59021;EQDQ01  00002PRCP99
0167483310999992000100815004+18760+100770FM-12+0201VTCN V0209999C000012200019N0120001N1+02551+02331100871ADDAA199000091GF102991021021008001001001MA1999999098581MD1999999-0301REMSYN070AAXX  08154 48331 32562 20000 10255 20233 39858 40087 82200 333 59030;EQDQ01  00002PRCP99
0167483310999992000100818004+18760+100770FM-12+0201VTCN V0209999C000012200019N0100001N1+02401+02301100791ADDAA199000091GF101991011011008001001001MA1999999098491MD1999999-0261REMSYN070AAXX  08184 48331 32560 10000 10240 20230 39849 40079 81100 333 59026;EQDQ01  00002PRCP99
0195483310999992000100821004+18760+100770FM-12+0201VTCN V0209999C000012200019N0080001N1+02351+02261100771ADDAA199000091AY101031AY201031GF103991021051008001041051MA1999999098461MD1999999-0211MW1101REMSYN076AAXX  08214 48331 31558 30000 10235 20226 39846 40077 71000 82545 333 59021;EQDQ01  00002PRCP99
0214483310999992000100900004+18760+100770FM-12+0201VTCN V0209999C000010042019N0008001N1+02301+02241100931ADDAA199000091AY141061AY221061GF108991081061004501999999KA1120N+02201MA1999999098621MD1999999-0071MW1401REMSYN082AAXX  09004 48331 31408 80000 10230 20224 39862 40093 74042 886// 333 20220 59007;EQDQ01  00002PRCP99
0167483310999992000100903004+18760+100770FM-12+0201VTCN V0209999C000012200019N0120001N1+02801+02331101011ADDAA199000091GF103991031061008001051001MA1999999098741MD1999999-0041REMSYN070AAXX  09034 48331 32562 30000 10280 20233 39874 40101 83650 333 59004;EQDQ01  00002PRCP99
0167483310999992000100906004+18760+100770FM-12+0201VTCN V0209999C000012200019N0150001N1+03251+02391100641ADDAA199000091GF102991021091008001051031MA1999999098401MD1999999-0031REMSYN070AAXX  09064 48331 32565 20000 10325 20239 39840 40064 82953 333 59003;EQDQ01  00002PRCP99
0167483310999992000100909004+18760+100770FM-12+0201VTCN V0209999C000012200019N0150001N1+03251+02341100361ADDAA199000091GF103991021091008001051031MA1999999098131MD1999999-0171REMSYN070AAXX  09094 48331 32565 30000 10325 20234 39813 40036 82953 333 59017;EQDQ01  00002PRCP99
0186483310999992000100912004+18760+100770FM-12+0201VTCN V0209999C000012200019N0120001N1+02751+02391100631ADDAA199000091GF103991021051008001041021KA1120M+03381MA1999999098361MD1999999-0081REMSYN076AAXX  09124 48331 32562 30000 10275 20239 39836 40063 82542 333 10338 59008;EQDQ01  00002PRCP99
0167483310999992000100915004+18760+100770FM-12+0201VTCN V0209999C000012200019N0120001N1+02571+02371100841ADDAA199000091GF102991021001999999041011MA1999999098551MD1999999-0041REMSYN070AAXX  09154 48331 32962 20000 10257 20237 39855 40084 82041 333 59004;EQDQ01  00002PRCP99
0167483310999992000100918004+18760+100770FM-12+0201VTCN V0209999C000012200019N0100001N1+02451+02321100781ADDAA199000091GF102991021001999999041061MA1999999098481MD1999999-0011REMSYN070AAXX  09184 48331 32960 20000 10245 20232 39848 40078 82046 333 59001;EQDQ01  00002PRCP99
0167483310999992000100921004+18760+100770FM-12+0201VTCN V0209999C000010450019N0100001N1+02401+02311100741ADDAA199000091GF108991031051008001071999MA1999999098441MD1999999-0031REMSYN070AAXX  09214 48331 32560 80000 10240 20231 39844 40074 8357/ 333 59003;EQDQ01  00002PRCP99
0214483310999992000101000004+18760+100770FM-12+0201VTCN V0209999C000012200019N0060001N1+02301+02221100901ADDAA199000091AY121061AY211061GF104991041061004501041011KA1120N+02201MA1999999098581MD1999999-0041MW1101REMSYN082AAXX  10004 48331 31456 40000 10230 20222 39858 40090 71021 84641 333 20220 59004;EQDQ01  00002PRCP99
0167483310999992000101003004+18760+100770FM-12+0201VTCN V0209999C000012200019N0120001N1+02851+02351100981ADDAA199000091GF103991021081008001001011MA1999999098721MD1999999-0031REMSYN070AAXX  10034 48331 32562 30000 10285 20235 39872 40098 82801 333 59003;EQDQ01  00002PRCP99
0195483310999992000101006004+18760+100770FM-12+0201VTCN V0209999C000010450019N0150001N1+03271+02461100671ADDAA199000091AY111061AY201061GF105991041091008001041031MA1999999098431MD1999999+0031MW1151REMSYN076AAXX  10064 48331 31565 50000 10327 20246 39843 40067 71510 84943 333 58003;EQDQ01  00002PRCP99
0195483310999992000101009004+18760+100770FM-12+0201VTCN V0209999C000011050019N0150001N1+03071+02421100471ADDAA199000091AY191031AY221031GF105991021091008001041061MA1999999098231MD1999999+0111MW1021REMSYN076AAXX  10094 48331 31565 50000 10307 20242 39823 40047 70292 82946 333 58011;EQDQ01  00002PRCP99
0214483310999992000101012004+18760+100770FM-12+0201VTCN V0209999C000012200019N0150001N1+02791+02461100611ADDAA199000091AY191061AY221061GF103991021091008001041011KA1120M+03311MA1999999098331MD1999999-0021MW1011REMSYN082AAXX  10124 48331 31565 30000 10279 20246 39833 40061 70192 82941 333 10331 59002;EQDQ01  00002PRCP99
0167483310999992000101015004+18760+100770FM-12+0201VTCN V0209999C000012200019N0120001N1+02571+02411100851ADDAA199000091GF101991011011008001001001MA1999999098561MD1999999+0021REMSYN070AAXX  10154 48331 32562 10000 10257 20241 39856 40085 81100 333 58002;EQDQ01  00002PRCP99
0195483310999992000101018004+18760+100770FM-12+0201VTCN V0209999C000010042019N0080001N1+02471+02371100831ADDAA199000091AY111061AY201061GF106991051061004501071061MA1999999098531MD1999999+0051MW1101REMSYN076AAXX  10184 48331 31458 60000 10247 20237 39853 40083 71010 85676 333 58005;EQDQ01  00002PRCP99
0195483310999992000101021004+18760+100770FM-12+0201VTCN V0209999C000010042019N0080001N1+02451+02331100791ADDAA199000091AY121031AY221031GF106991061061004501071061MA1999999098491MD1999999+0041MW1101REMSYN076AAXX  10214 48331 31458 60000 10245 20233 39849 40079 71022 86676 333 58004;EQDQ01  00002PRCP99
0214483310999992000101100004+18760+100770FM-12+0201VTCN V0209999C000010075019N0080001N1+02411+02321100911ADDAA199000091AY121061AY221061GF106991061061008001001001KA1120N+02301MA1999999098601MD1999999+0011MW1101REMSYN082AAXX  11004 48331 31558 60000 10241 20232 39860 40091 71022 86600 333 20230 58001;EQDQ01  00002PRCP99
0167483310999992000101103004+18760+100770FM-12+0201VTCN V0209999C000012200019N0120001N1+02841+02411100921ADDAA199000091GF103991031051008001001001MA1999999098641MD1999999-0061REMSYN070AAXX  11034 48331 32562 30000 10284 20241 39864 40092 83500 333 59006;EQDQ01  00002PRCP99
0167483310999992000101106004+18760+100770FM-12+0201VTCN V0209999C000012200019N0150001N1+03281+02571100621ADDAA199000091GF102991021081008001001001MA1999999098381MD1999999-0051REMSYN070AAXX  11064 48331 32565 20000 10328 20257 39838 40062 82800 333 59005;EQDQ01  00002PRCP99
0167483310999992000101109004+18760+100770FM-12+0201VTCN V0209999C000012200019N0150001N1+03341+02351100431ADDAA199000091GF102991021021008001001001MA1999999098201MD1999999-0041REMSYN070AAXX  11094 48331 32565 20000 10334 20235 39820 40043 82200 333 59004;EQDQ01  00002PRCP99
0186483310999992000101112004+18760+100770FM-12+0201VTCN V0209999C000012200019N0120001N1+02941+02591100601ADDAA199000091GF103991031051008001001001KA1120M+03471MA1999999098331MD1999999-0011REMSYN076AAXX  11124 48331 32562 30000 10294 20259 39833 40060 83500 333 10347 59001;EQDQ01  00002PRCP99
0167483310999992000101115004+18760+100770FM-12+0201VTCN V0209999C000011050019N0120001N1+02661+02471100871ADDAA199000091GF105991021051008001001071MA1999999098591MD1999999+0021REMSYN070AAXX  11154 48331 32562 50000 10266 20247 39859 40087 82507 333 58002;EQDQ01  00002PRCP99
0195483310999992000101118004+18760+100770FM-12+0201VTCN V0209999C000019999999N0080001N1+02451+02301100891ADDAA199000091AY121061AY221061GF105991001001999999001071MA1999999098591MD1999999+0061MW1101REMSYN076AAXX  11184 48331 31958 50000 10245 20230 39859 40089 71022 80007 333 58006;EQDQ01  00002PRCP99
0195483310999992000101121004+18760+100770FM-12+0201VTCN V0209999C000012200019N0080001N1+02311+02131100831ADDAA199000091AY121031AY211031GF104991011051008001001051MA1999999098511MD1999999+0041MW1101REMSYN076AAXX  11214 48331 31558 40000 10231 20213 39851 40083 71021 81505 333 58004;EQDQ01  00002PRCP99
0214483310999992000101200004+18760+100770FM-12+0201VTCN V0209999C000010450019N0080001N1+02251+02171100951ADDAA199000091AY121061AY211061GF107991021061008001051061KA1120N+02131MA1999999098641MD1999999+0041MW1101REMSYN082AAXX  12004 48331 31558 70000 10225 20217 39864 40095 71021 82656 333 20213 58004;EQDQ01  00002PRCP99
0167483310999992000101203004+18760+100770FM-12+0201VTCN V0209999C000011050019N0100001N1+02701+02211100991ADDAA199000091GF106991021051008001051061MA1999999098711MD1999999+0071REMSYN070AAXX  12034 48331 32560 60000 10270 20221 39871 40099 82556 333 58007;EQDQ01  00002PRCP99
0167483310999992000101206004+18760+100770FM-12+0201VTCN V0203301N001012200019N0150001N1+03101+02381100671ADDAA199000091GF106991011021008001001061MA1999999098421MD1999999+0051REMSYN070AAXX  12064 48331 32565 63302 10310 20238 39842 40067 81206 333 58005;EQDQ01  00002PRCP99
0167483310999992000101209004+18760+100770FM-12+0201VTCN V0203301N000512200019N0150001N1+03181+02301100391ADDAA199000091GF105991011031008001001061MA1999999098151MD1999999-0041REMSYN070AAXX  12094 48331 32565 53301 10318 20230 39815 40039 81306 333 59004;EQDQ01  00002PRCP99
0186483310999992000101212004+18760+100770FM-12+0201VTCN V0209999C000011050019N0100001N1+02801+02511100471ADDAA199000091GF105991021051008001041061KA1120M+03251MA1999999098201MD1999999-0131REMSYN076AAXX  12124 48331 32560 50000 10280 20251 39820 40047 82546 333 10325 59013;EQDQ01  00002PRCP99
0167483310999992000101215004+18760+100770FM-12+0201VTCN V0209999C000012200019N0100001N1+02621+02431100751ADDAA199000091GF104991021041999999001061MA1999999098471MD1999999-0121REMSYN070AAXX  12154 48331 32960 40000 10262 20243 39847 40075 82406 333 59012;EQDQ01  00002PRCP99
0167483310999992000101218004+18760+100770FM-12+0201VTCN V0209999C000012200019N0100001N1+02451+02361100721ADDAA199000091GF103991001001999999001061MA1999999098421MD1999999-0171REMSYN070AAXX  12184 48331 32960 30000 10245 20236 39842 40072 80006 333 59017;EQDQ01  00002PRCP99
0195483310999992000101221004+18760+100770FM-12+0201VTCN V0209999C000012200019N0080001N1+02351+02241100661ADDAA199000091AY101031AY201031GF102991001001999999001011MA1999999098391MD1999999-0171MW1101REMSYN076AAXX  12214 48331 31958 20000 10235 20224 39839 40066 71000 80001 333 59017;EQDQ01  00002PRCP99
0214483310999992000101300004+18760+100770FM-12+0201VTCN V0209999C000012200019N0040001N1+02301+02221100791ADDAA199000091AY111061AY201061GF106991021061004501001061KA1120N+02201MA1999999098471MD1999999-0061MW1101REMSYN082AAXX  13004 48331 31440 60000 10230 20222 39847 40079 71010 82606 333 20220 59006;EQDQ01  00002PRCP99
0167483310999992000101303004+18760+100770FM-12+0201VTCN V0209999C000012200019N0100001N1+02901+02321100751ADDAA199000091GF102991011021008001001051MA1999999098481MD1999999-0241REMSYN070AAXX  13034 48331 32560 20000 10290 20232 39848 40075 81205 333 59024;EQDQ01  00002PRCP99
0167483310999992000101306004+18760+100770FM-12+0201VTCN V0209999C000012200019N0150001N1+03251+02241100411ADDAA199000091GF103991021021008001001011MA1999999098191MD1999999-0261REMSYN070AAXX  13064 48331 32565 30000 10325 20224 39819 40041 82201 333 59026;EQDQ01  00002PRCP99
0167483310999992000101309004+18760+100770FM-12+0201VTCN V0209999C000012200019N0150001N1+03291+02291100181ADDAA199000091GF102991011091008001001011MA1999999097961MD1999999-0161REMSYN070AAXX  13094 48331 32565 20000 10329 20229 39796 40018 81901 333 59016;EQDQ01  00002PRCP99
0186483310999992000101312004+18760+100770FM-12+0201VTCN V0209999C000012200019N0120001N1+02831+02431100311ADDAA199000091GF103991011011008001001021KA1120M+03401MA1999999098051MD1999999-0161REMSYN076AAXX  13124 48331 32562 30000 10283 20243 39805 40031 81102 333 10340 59016;EQDQ01  00002PRCP99
0167483310999992000101315004+18760+100770FM-12+0201VTCN V0209999C000012200019N0120001N1+02581+02381100591ADDAA199000091GF103991011011008001001021MA1999999098311MD1999999-0161REMSYN070AAXX  13154 48331 32562 30000 10258 20238 39831 40059 81102 333 59016;EQDQ01  00002PRCP99
0167483310999992000101318004+18760+100770FM-12+0201VTCN V0209999C000012200019N0120001N1+02401+02251100631ADDAA199000091GF101991011011008001001011MA1999999098331MD1999999-0091REMSYN070AAXX  13184 48331 32562 10000 10240 20225 39833 40063 81101 333 59009;EQDQ01  00002PRCP99
0214483310999992000101400004+18760+100770FM-12+0201VTCN V0209999C000012200019N0080001N1+02221+02131100791ADDAA199000091AY111061AY201061GF104991031051008001001051KA1120N+02101MA1999999098471MD1999999+0001MW1101REMSYN082AAXX  14004 48331 31558 40000 10222 20213 39847 40079 71010 83505 333 20210 58000;EQDQ01  00002PRCP99
0195483310999992000101403004+18760+100770FM-12+0201VTCN V0209999C000012200019N0080001N1+02761+02181100821ADDAA199000091AY101031AY201031GF103991001001999999001021MA1999999098541MD1999999+0071MW1101REMSYN076AAXX  14034 48331 31958 30000 10276 20218 39854 40082 71000 80002 333 58007;EQDQ01  00002PRCP99
0167483310999992000101406004+18760+100770FM-12+0201VTCN V0209999C000012200019N0150001N1+03301+02211100471ADDAA199000091GF101991011011008001001001MA1999999098251MD1999999+0061REMSYN070AAXX  14064 48331 32565 10000 10330 20221 39825 40047 81100 333 58006;EQDQ01  00002PRCP99
0167483310999992000101409004+18760+100770FM-12+0201VTCN V0209999C000010075019N0150001N1+03211+02281100291ADDAA199000091GF106991051051008001041061MA1999999098061MD1999999+0111REMSYN070AAXX  14094 48331 32565 60000 10321 20228 39806 40029 85546 333 58011;EQDQ01  00002PRCP99
0186483310999992000101412004+18760+100770FM-12+0201VTCN V0209999C000010450019N0150001N1+02851+02151100481ADDAA199000091GF106991041051008001051061KA1120M+03421MA1999999098231MD1999999+0171REMSYN076AAXX  14124 48331 32565 60000 10285 20215 39823 40048 84556 333 10342 58017;EQDQ01  00002PRCP99
0167483310999992000101415004+18760+100770FM-12+0201VTCN V0209999C000010450019N0150001N1+02631+02211100791ADDAA199000091GF106991041051008001051061MA1999999098501MD1999999+0201REMSYN070AAXX  14154 48331 32565 60000 10263 20221 39850 40079 84556 333 58020;EQDQ01  00002PRCP99
0167483310999992000101418004+18760+100770FM-12+0201VTCN V0209999C000010075019N0120001N1+02441+02261100791ADDAA199000091GF106991051051008001051061MA1999999098481MD1999999+0161REMSYN070AAXX  14184 48331 32562 60000 10244 20226 39848 40079 85556 333 58016;EQDQ01  00002PRCP99
0214483310999992000101500004+18760+100770FM-12+0201VTCN V0209999C000010075019N0090001N1+02301+02181100981ADDAA199000091AY121061AY221061GF108991051051008001071999KA1120N+02161MA1999999098671MD1999999+0191MW1101REMSYN082AAXX  15004 48331 31559 80000 10230 20218 39867 40098 71022 8557/ 333 20216 58019;EQDQ01  00002PRCP99
0167483310999992000101503004+18760+100770FM-12+0201VTCN V0209999C000010450019N0120001N1+02621+02221101131ADDAA199000091GF106991021051008001051011MA1999999098841MD1999999+0311REMSYN070AAXX  15034 48331 32562 60000 10262 20222 39884 40113 82551 333 58031;EQDQ01  00002PRCP99
0167483310999992000101506004+18760+100770FM-12+0201VTCN V0200201N001510450019N0150001N1+03101+01971100831ADDAA199000091GF106991041021008001051011MA1999999098581MD1999999+0361REMSYN070AAXX  15064 48331 32565 60203 10310 20197 39858 40083 84251 333 58036;EQDQ01  00002PRCP99
0167483310999992000101509004+18760+100770FM-12+0201VTCN V0200501N001010450019N0150001N1+03101+02011100691ADDAA199000091GF106991031091008001051031MA1999999098441MD1999999+0401REMSYN070AAXX  15094 48331 32565 60502 10310 20201 39844 40069 83953 333 58040;EQDQ01  00002PRCP99
0186483310999992000101512004+18760+100770FM-12+0201VTCN V0209999C000010450019N0120001N1+02721+02081100851ADDAA199000091GF106991031051008001051011KA1120M+03211MA1999999098571MD1999999+0371REMSYN076AAXX  15124 48331 32562 60000 10272 20208 39857 40085 83551 333 10321 58037;EQDQ01  00002PRCP99
0167483310999992000101515004+18760+100770FM-12+0201VTCN V0209999C000010450019N0120001N1+02551+02241101111ADDAA199000091GF106991021051008001051011MA1999999098811MD1999999+0321REMSYN070AAXX  15154 48331 32562 60000 10255 20224 39881 40111 82551 333 58032;EQDQ01  00002PRCP99
0167483310999992000101518004+18760+100770FM-12+0201VTCN V0209999C000010450019N0120001N1+02341+02181101161ADDAA199000091GF106991041051008001051011MA1999999098841MD1999999+0371REMSYN070AAXX  15184 48331 32562 60000 10234 20218 39884 40116 84551 333 58037;EQDQ01  00002PRCP99
0167483310999992000101521004+18760+100770FM-12+0201VTCN V0209999C000010075019N0120001N1+02251+02111101101ADDAA199000091GF108991061051008001071999MA1999999098781MD1999999+0361REMSYN070AAXX  15214 48331 32562 80000 10225 20211 39878 40110 8657/ 333 58036;EQDQ01  00002PRCP99
0186483310999992000101600004+18760+100770FM-12+0201VTCN V0209999C000010075019N0100001N1+02281+02101101261ADDAA199000091GF108991061051008001071061KA1120N+02151MA1999999098941MD1999999+0281REMSYN076AAXX  16004 48331 32560 80000 10228 20210 39894 40126 86576 333 20215 58028;EQDQ01  00002PRCP99
0167483310999992000101603004+18760+100770FM-12+0201VTCN V0209999C000010075019N0120001N1+02501+02121101391ADDAA199000091GF108991061051008001071061MA1999999099071MD1999999+0261REMSYN070AAXX  16034 48331 32562 80000 10250 20212 39907 40139 86576 333 58026;EQDQ01  00002PRCP99
0167483310999992000101606004+18760+100770FM-12+0201VTCN V0200501N002610075019N0150001N1+02951+02081101071ADDAA199000091GF107991051051008001071061MA1999999098811MD1999999+0241REMSYN070AAXX  16064 48331 32565 70505 10295 20208 39881 40107 85576 333 58024;EQDQ01  00002PRCP99
0167483310999992000101609004+18760+100770FM-12+0201VTCN V0209999C000010075019N0150001N1+02801+02121100931ADDAA199000091GF108991061051008001071061MA1999999098661MD1999999+0241REMSYN070AAXX  16094 48331 32565 80000 10280 20212 39866 40093 86576 333 58024;EQDQ01  00002PRCP99
0186483310999992000101612004+18760+100770FM-12+0201VTCN V0209999C000010075019N0150001N1+02571+02191101001ADDAA199000091GF106991051051008001071061KA1120M+03011MA1999999098711MD1999999+0151REMSYN076AAXX  16124 48331 32565 60000 10257 20219 39871 40100 85576 333 10301 58015;EQDQ01  00002PRCP99
0167483310999992000101615004+18760+100770FM-12+0201VTCN V0209999C000010075019N0150001N1+02441+02181101191ADDAA199000091GF106991051051008001051061MA1999999098881MD1999999+0081REMSYN070AAXX  16154 48331 32565 60000 10244 20218 39888 40119 85556 333 58008;EQDQ01  00002PRCP99
0167483310999992000101618004+18760+100770FM-12+0201VTCN V0209999C000010075019N0120001N1+02371+02191101201ADDAA199000091GF106991051051008001071061MA1999999098891MD1999999+0041REMSYN070AAXX  16184 48331 32562 60000 10237 20219 39889 40120 85576 333 58004;EQDQ01  00002PRCP99
0167483310999992000101621004+18760+100770FM-12+0201VTCN V0209999C000010075019N0120001N1+02341+02141101091ADDAA199000091GF108991071051008001071061MA1999999098781MD1999999-0011REMSYN070AAXX  16214 48331 32562 80000 10234 20214 39878 40109 87576 333 59001;EQDQ01  00002PRCP99
0186483310999992000101700004+18760+100770FM-12+0201VTCN V0209999C000012200019N0100001N1+02341+02191101111ADDAA199000091GF101991011011008001001001KA1120N+02201MA1999999098791MD1999999-0151REMSYN076AAXX  17004 48331 32560 10000 10234 20219 39879 40111 81100 333 20220 59015;EQDQ01  00002PRCP99
0167483310999992000101703004+18760+100770FM-12+0201VTCN V0203601N001512200019N0120001N1+02851+02101101121ADDAA199000091GF104991021051008001051001MA1999999098861MD1999999-0271REMSYN070AAXX  17034 48331 32562 43603 10285 20210 39886 40112 82550 333 59027;EQDQ01  00002PRCP99
0167483310999992000101706004+18760+100770FM-12+0201VTCN V0209999C000010450019N0150001N1+03151+02141100841ADDAA199000091GF105991031051008001041051MA1999999098591MD1999999-0231REMSYN070AAXX  17064 48331 32565 50000 10315 20214 39859 40084 83545 333 59023;EQDQ01  00002PRCP99
0167483310999992000101709004+18760+100770FM-12+0201VTCN V0209999C000010450019N0150001N1+02981+02281100721ADDAA199000091GF105991031051008001041061MA1999999098461MD1999999-0211REMSYN070AAXX  17094 48331 32565 50000 10298 20228 39846 40072 83546 333 59021;EQDQ01  00002PRCP99
0213483310999992000101712004+18760+100770FM-12+0201VTCN V0209999C000010042019N0100001N1+02511+02351100891ADDAA103003091AY161061AY221061GF108991061051004501071999KA1120M+03181MA1999999098591MD1999999-0111MW1211REMSYN100AAXX  17124 48331 /1460 80000 10251 20235 39859 40089 60032 72162 8657/ 333 10318 59011 60037 70032;
0148483310999992000101715004+18760+100770FM-12+0201VTCN V0209999C000010450019N0120001N1+02471+02371101031ADDAA199000021GF106991031051008001041061MA1999999098731MD1999999-0161REMSYN070AAXX  17154 48331 32562 60000 10247 20237 39873 40103 83546 333 59016;
0154483310999992000101718004+18760+100770FM-12+0201VTCN V0209999C000010450019N0100001N1+02451+02351100971ADDAA124003391GF108991041051008001071999MA1999999098671MD1999999-0231REMSYN076AAXX  17184 48331 32560 80000 10245 20235 39867 40097 8457/ 333 59023 70032;
0182483310999992000101721004+18760+100770FM-12+0201VTCN V0209999C000010075019N0100001N1+02381+02281100891ADDAA101000191AY121031AY221031GF108991051051008001071999MA1999999098581MD1999999-0021MW1211REMSYN082AAXX  17214 48331 21560 80000 10238 20228 39858 40089 72122 8557/ 333 59002 69925;
0213483310999992000101800004+18760+100770FM-12+0201VTCN V0209999C000010450019N0080001N1+02351+02261101001ADDAA102002091AY161061AY261061GF106991041061004501071061KA1120N+02221MA1999999098691MD1999999-0111MW1211REMSYN100AAXX  18004 48331 /1458 60000 10235 20226 39869 40100 60054 72166 84676 333 20222 59011 60026 70049;
0148483310999992000101803004+18760+100770FM-12+0201VTCN V0209999C000010450019N0120001N1+02701+02331100991ADDAA199000021GF106991041061008001071011MA1999999098701MD1999999-0131REMSYN070AAXX  18034 48331 32562 60000 10270 20233 39870 40099 84671 333 59013;
0154483310999992000101806004+18760+100770FM-12+0201VTCN V0209999C000010450019N0150001N1+02881+02321100741ADDAA124004891GF107991031021008001071011MA1999999098471MD1999999-0101REMSYN076AAXX  18064 48331 32565 70000 10288 20232 39847 40074 83271 333 59010 70049;
0148483310999992000101809004+18760+100770FM-12+0201VTCN V0209999C000012200019N0150001N1+03001+02271100481ADDAA199000021GF103991021021008001051011MA1999999098231MD1999999-0241REMSYN070AAXX  18094 48331 32565 30000 10300 20227 39823 40048 82251 333 59024;
0173483310999992000101812004+18760+100770FM-12+0201VTCN V0209999C000012200019N0120001N1+02651+02421100641ADDAA124001891GF103991011051008001051061KA1120M+03031MA1999999098361MD1999999-0251REMSYN082AAXX  18124 48331 32562 30000 10265 20242 39836 40064 81556 333 10303 59025 70017;
0182483310999992000101815004+18760+100770FM-12+0201VTCN V0209999C000010450019N0120001N1+02551+02351100861ADDAA102000791AY161031AY221031GF108991041051008001071999MA1999999098561MD1999999-0171MW1031REMSYN082AAXX  18154 48331 21562 80000 10255 20235 39856 40086 70362 8457/ 333 59017 69906;
0160483310999992000101818004+18760+100770FM-12+0201VTCN V0209999C000010450019N0100001N1+02501+02361100851ADDAA118000791GF108991041051008001071999MA1999999098551MD1999999-0121REMSYN082AAXX  18184 48331 12560 80000 10250 20236 39855 40085 69903 8457/ 333 59012 70017;
0167483310999992000101821004+18760+100770FM-12+0201VTCN V0209999C000012200019N0100001N1+02401+02271100771ADDAA199000091GF103991011051008001051011MA1999999098471MD1999999-0121REMSYN070AAXX  18214 48331 32560 30000 10240 20227 39847 40077 81551 333 59012;EQDQ01  00002PRCP99
0173483310999992000101900004+18760+100770FM-12+0201VTCN V0209999C000012200019N0100001N1+02251+02111100881ADDAA124000791GF102991021061008001001011KA1120N+02151MA1999999098561MD1999999-0121REMSYN082AAXX  19004 48331 32560 20000 10225 20211 39856 40088 82601 333 20215 59012 79999;
0167483310999992000101903004+18760+100770FM-12+0201VTCN V0200301N002112200019N0150001N1+02871+02171100971ADDAA199000091GF102991011021008001001011MA1999999098701MD1999999-0021REMSYN070AAXX  19034 48331 32565 20304 10287 20217 39870 40097 81201 333 59002;EQDQ01  00002PRCP99
0154483310999992000101906004+18760+100770FM-12+0201VTCN V0209999C000012200019N0150001N1+03211+02181100671ADDAA124000791GF101991011011008001001011MA1999999098421MD1999999-0071REMSYN076AAXX  19064 48331 32565 10000 10321 20218 39842 40067 81101 333 59007 79999;
0167483310999992000101909004+18760+100770FM-12+0201VTCN V0209999C000012200019N0150001N1+03271+02271100391ADDAA199000091GF101991011011008001001001MA1999999098171MD1999999-0091REMSYN070AAXX  19094 48331 32565 10000 10327 20227 39817 40039 81100 333 59009;EQDQ01  00002PRCP99
0173483310999992000101912004+18760+100770FM-12+0201VTCN V0209999C000012200019N0150001N1+02831+02581100521ADDAA124000791GF101991011011008001001001KA1120M+03401MA1999999098261MD1999999-0121REMSYN082AAXX  19124 48331 32565 10000 10283 20258 39826 40052 81100 333 10340 59012 79999;
0167483310999992000101915004+18760+100770FM-12+0201VTCN V0209999C000012200019N0120001N1+02581+02381100801ADDAA199000091GF101991011011008001001001MA1999999098511MD1999999-0061REMSYN070AAXX  19154 48331 32562 10000 10258 20238 39851 40080 81100 333 59006;EQDQ01  00002PRCP99
0167483310999992000101918004+18760+100770FM-12+0201VTCN V0209999C000012200019N0120001N1+02451+02321100781ADDAA199000091GF101991011011008001001001MA1999999098491MD1999999-0071REMSYN070AAXX  19184 48331 32562 10000 10245 20232 39849 40078 81100 333 59007;EQDQ01  00002PRCP99
0205483310999992000101921004+18760+100770FM-12+0201VTCN V0209999C000012200019N0080001N1+02321+02241100791ADDAA199000091AY101031AY201031GA1001+999999999GF100991001001999999001001MA1999999098481MD1999999+0021MW1101REMSYN070AAXX  19214 48331 31958 00000 10232 20224 39848 40079 71000 333 58002;EQDQ01  00002PRCP99
0167483310999992000102003004+18760+100770FM-12+0201VTCN V0209999C000012200019N0120001N1+02841+02331101041ADDAA199000091GF103991011051008001051001MA1999999098761MD1999999+0071REMSYN070AAXX  20034 48331 32562 30000 10284 20233 39876 40104 81550 333 58007;EQDQ01  00002PRCP99
0167483310999992000102006004+18760+100770FM-12+0201VTCN V0209999C000012200019N0150001N1+03311+02361100661ADDAA199000091GF102991021021008001001001MA1999999098421MD1999999-0011REMSYN070AAXX  20064 48331 32565 20000 10331 20236 39842 40066 82200 333 59001;EQDQ01  00002PRCP99
0167483310999992000102009004+18760+100770FM-12+0201VTCN V0209999C000012200019N0150001N1+03351+02361100411ADDAA199000091GF102991021021008001001021MA1999999098201MD1999999+0021REMSYN070AAXX  20094 48331 32565 20000 10335 20236 39820 40041 82202 333 58002;EQDQ01  00002PRCP99
0186483310999992000102012004+18760+100770FM-12+0201VTCN V0209999C000012200019N0150001N1+02921+02461100561ADDAA199000091GF102991021021008001001021KA1120M+03501MA1999999098311MD1999999+0041REMSYN076AAXX  20124 48331 32565 20000 10292 20246 39831 40056 82202 333 10350 58004;EQDQ01  00002PRCP99
0167483310999992000102015004+18760+100770FM-12+0201VTCN V0209999C000012200019N0120001N1+02651+02391100821ADDAA199000091GF102991021021008001001001MA1999999098541MD1999999+0021REMSYN070AAXX  20154 48331 32562 20000 10265 20239 39854 40082 82200 333 58002;EQDQ01  00002PRCP99
0167483310999992000102018004+18760+100770FM-12+0201VTCN V0209999C000012200019N0120001N1+02541+02381100821ADDAA199000091GF102991011011008001001011MA1999999098531MD1999999+0041REMSYN070AAXX  20184 48331 32562 20000 10254 20238 39853 40082 81101 333 58004;EQDQ01  00002PRCP99
0167483310999992000102021004+18760+100770FM-12+0201VTCN V0209999C000012200019N0120001N1+02421+02321100781ADDAA199000091GF102991021051008001001001MA1999999098471MD1999999-0011REMSYN070AAXX  20214 48331 32562 20000 10242 20232 39847 40078 82500 333 59001;EQDQ01  00002PRCP99
0224483310999992000102100004+18760+100770FM-12+0201VTCN V0209999C000010003019N0005001N1+02401+02331100931ADDAA199000091AY141061AY201061GA1091+999999999GF109991091999999999999999KA1120N+02281MA1999999098621MD1999999-0031MW1451REMSYN076AAXX  21004 48331 31/05 90000 10240 20233 39862 40093 74540 333 20228 59003;EQDQ01  00002PRCP99
0195483310999992000102103004+18760+100770FM-12+0201VTCN V0209999C000012200019N0080001N1+02911+02391101011ADDAA199000091AY101031AY201031GF101991011011008001001001MA1999999098351MD1999999-0061MW1101REMSYN076AAXX  21034 48331 31558 10000 10291 20239 39835 40101 71000 81100 333 59006;EQDQ01  00002PRCP99
0167483310999992000102109004+18760+100770FM-12+0201VTCN V0201601N001012200019N0150001N1+03371+02351100371ADDAA199000091GF102991021091008001041031MA1999999098151MD1999999-0041REMSYN070AAXX  21094 48331 32565 21602 10337 20235 39815 40037 82943 333 59004;EQDQ01  00002PRCP99
0186483310999992000102112004+18760+100770FM-12+0201VTCN V0209999C000012200019N0120001N1+02911+02391100551ADDAA199000091GF102991011051008001001011KA1120M+03551MA1999999098291MD1999999-0011REMSYN076AAXX  21124 48331 32562 20000 10291 20239 39829 40055 81501 333 10355 59001;EQDQ01  00002PRCP99
0167483310999992000102115004+18760+100770FM-12+0201VTCN V0209999C000012200019N0120001N1+02681+02411100801ADDAA199000091GF102991001001999999001011MA1999999098521MD1999999-0021REMSYN070AAXX  21154 48331 32962 20000 10268 20241 39852 40080 80001 333 59002;EQDQ01  00002PRCP99
0167483310999992000102118004+18760+100770FM-12+0201VTCN V0209999C000012200019N0120001N1+02551+02391100791ADDAA199000091GF102991021011008001001001MA1999999098501MD1999999-0031REMSYN070AAXX  21184 48331 32562 20000 10255 20239 39850 40079 82100 333 59003;EQDQ01  00002PRCP99
0173483310999992000102200004+18760+100770FM-12+0201VTCN V0209999C000012200019N0100001N1+02451+02361100931ADDAA124000391GF102991021011008001001011KA1120N+02351MA1999999098631MD1999999+0001REMSYN082AAXX  22004 48331 32560 20000 10245 20236 39863 40093 82101 333 20235 58000 70003;
0167483310999992000102203004+18760+100770FM-12+0201VTCN V0209999C000012200019N0150001N1+03001+02461101001ADDAA199000091GF102991021081008001001011MA1999999098741MD1999999+0021REMSYN070AAXX  22034 48331 32565 20000 10300 20246 39874 40100 82801 333 58002;EQDQ01  00002PRCP99
0154483310999992000102206004+18760+100770FM-12+0201VTCN V0209999C000012200019N0150001N1+03351+02361100581ADDAA124000391GF103991021091008001041031MA1999999098351MD1999999-0051REMSYN076AAXX  22064 48331 32565 30000 10335 20236 39835 40058 82943 333 59005 70003;
0167483310999992000102209004+18760+100770FM-12+0201VTCN V0209999C000010450019N0150001N1+03361+02351100381ADDAA199000091GF105991031091008001041051MA1999999098151MD1999999+0011REMSYN070AAXX  22094 48331 32565 50000 10336 20235 39815 40038 83945 333 58001;EQDQ01  00002PRCP99
0201483310999992000102212004+18760+100770FM-12+0201VTCN V0209999C000012200019N0150001N1+02911+02511100521ADDAA124000391AY191061AY211061GF103991031091008001041031KA1120M+03471MA1999999098271MD1999999-0031MW1291REMSYN088AAXX  22124 48331 31565 30000 10291 20251 39827 40052 72991 83943 333 10347 59003 70003;
0195483310999992000102215004+18760+100770FM-12+0201VTCN V0209999C000012200019N0120001N1+02701+02441100811ADDAA199000091AY111031AY201031GF104991031091008001041061MA1999999098531MD1999999+0011MW1131REMSYN076AAXX  22154 48331 31562 40000 10270 20244 39853 40081 71310 83946 333 58001;EQDQ01  00002PRCP99
0182483310999992000102218004+18760+100770FM-12+0201VTCN V0209999C000012200019N0120001N1+02451+02301100771ADDAA124000391AY191061AY201061GF101991011011008001001001MA1999999098471MD1999999-0021MW1011REMSYN082AAXX  22184 48331 31562 10000 10245 20230 39847 40077 70190 81100 333 59002 70003;
0177483310999992000102221004+18760+100770FM-12+0201VTCN V0209999C000012200019N0120001N1+02401+02271100741ADDAA199000091GA1001+999999999GF100991001001999999001001MA1999999098441MD1999999-0011REMSYN064AAXX  22214 48331 32962 00000 10240 20227 39844 40074 333 59001;EQDQ01  00002PRCP99
0186483310999992000102300004+18760+100770FM-12+0201VTCN V0209999C000010075019N0100001N1+02361+02271100951ADDAA199000091GF108991051051008001051061KA1120N+02261MA1999999098651MD1999999+0021REMSYN076AAXX  23004 48331 32560 80000 10236 20227 39865 40095 85556 333 20226 58002;EQDQ01  00002PRCP99
0167483310999992000102303004+18760+100770FM-12+0201VTCN V0209999C000010075019N0120001N1+02701+02361101021ADDAA199000091GF108991051051008001071061MA1999999098741MD1999999+0021REMSYN070AAXX  23034 48331 32562 80000 10270 20236 39874 40102 85576 333 58002;EQDQ01  00002PRCP99
0167483310999992000102306004+18760+100770FM-12+0201VTCN V0209999C000010075019N0150001N1+02961+02351100771ADDAA199000091GF108991051051008001071061MA1999999098511MD1999999+0191REMSYN070AAXX  23064 48331 32565 80000 10296 20235 39851 40077 85576 333 58019;EQDQ01  00002PRCP99
0182483310999992000102309004+18760+100770FM-12+0201VTCN V0209999C000012200019N0150001N1+02741+02311100571ADDAA102000191AY161031AY221031GF103991021051008001041051MA1999999098301MD1999999+0191MW1011REMSYN082AAXX  23094 48331 21565 30000 10274 20231 39830 40057 70162 82545 333 58019 69926;
0207483310999992000102312004+18760+100770FM-12+0201VTCN V0209999C000012200019N0150001N1+02591+02421100771ADDAA112000191AY161061AY221061GF101991011011008001001011KA1120M+03021MA1999999098471MD1999999+0221MW1011REMSYN094AAXX  23124 48331 11565 10000 10259 20242 39847 40077 69922 70162 81101 333 10302 58022 70002;
0167483310999992000102315004+18760+100770FM-12+0201VTCN V0209999C000010450019N0120001N1+02531+02391100971ADDAA199000091GF106991031051008001041061MA1999999098671MD1999999+0161REMSYN070AAXX  23154 48331 32562 60000 10253 20239 39867 40097 83546 333 58016;EQDQ01  00002PRCP99
0167483310999992000102318004+18760+100770FM-12+0201VTCN V0209999C000012200019N0120001N1+02441+02321100981ADDAA199000091GF101991011011008001001001MA1999999098671MD1999999+0211REMSYN070AAXX  23184 48331 32562 10000 10244 20232 39867 40098 81100 333 58021;EQDQ01  00002PRCP99
0167483310999992000102321004+18760+100770FM-12+0201VTCN V0209999C000012200019N0100001N1+02441+02371100941ADDAA199000091GF103991031051008001001051MA1999999098631MD1999999+0201REMSYN070AAXX  23214 48331 32560 30000 10244 20237 39863 40094 83505 333 58020;EQDQ01  00002PRCP99
0213483310999992000102400004+18760+100770FM-12+0201VTCN V0209999C000010450019N0120001N1+02421+02361101131ADDAA103002091AY161061AY261061GF106991031051008001071011KA1120N+02311MA1999999098821MD1999999+0181MW1211REMSYN100AAXX  24004 48331 /1562 60000 10242 20236 39882 40113 60024 72166 83571 333 20231 58018 60027 70024;
0148483310999992000102403004+18760+100770FM-12+0201VTCN V0209999C000011050019N0150001N1+02751+02401101261ADDAA199000021GF105991021021008001051021MA1999999098971MD1999999+0241REMSYN070AAXX  24034 48331 32565 50000 10275 20240 39897 40126 82252 333 58024;
0154483310999992000102406004+18760+100770FM-12+0201VTCN V0201301N001010450019N0150001N1+03121+02391100961ADDAA124002391GF105991031031008001051021MA1999999098711MD1999999+0191REMSYN076AAXX  24064 48331 32565 51302 10312 20239 39871 40096 83352 333 58019 70024;
0148483310999992000102409004+18760+100770FM-12+0201VTCN V0203001N001012200019N0150001N1+02901+02321100761ADDAA199000021GF103991021091008001041031MA1999999098491MD1999999+0191REMSYN070AAXX  24094 48331 32565 33002 10290 20232 39849 40076 82943 333 58019;
0173483310999992000102412004+18760+100770FM-12+0201VTCN V0209999C000012200019N0120001N1+02661+02411101001ADDAA124002391GF102991021011008001041011KA1120M+03271MA1999999098711MD1999999+0231REMSYN082AAXX  24124 48331 32562 20000 10266 20241 39871 40100 82141 333 10327 58023 70022;
0195483310999992000102415004+18760+100770FM-12+0201VTCN V0209999C000012200019N0120001N1+02481+02351101231ADDAA199000091AY101031AY201031GF102991011091008001001031MA1999999098931MD1999999+0261MW1131REMSYN076AAXX  24154 48331 31562 20000 10248 20235 39893 40123 71300 81903 333 58026;EQDQ01  00002PRCP99
0154483310999992000102418004+18760+100770FM-12+0201VTCN V0209999C000012200019N0120001N1+02351+02271101181ADDAA124002391GF102991011061004501041011MA1999999098861MD1999999+0201REMSYN076AAXX  24184 48331 32462 20000 10235 20227 39886 40118 81641 333 58020 70022;
0182483310999992000102421004+18760+100770FM-12+0201VTCN V0209999C000012200019N0100001N1+02251+02191101141ADDAA102015091AY191031AY211031GF104991021061008001071011MA1999999098821MD1999999+0201MW1291REMSYN082AAXX  24214 48331 21560 40000 10225 20219 39882 40114 72991 82671 333 58020 60156;
0213483310999992000102500004+18760+100770FM-12+0201VTCN V0209999C000010075019N0080001N1+02241+02181101411ADDAA101000791AY191061AY221061GF107991051071008001071061KA1120N+02101MA1999999099071MD1999999+0281MW1601REMSYN100AAXX  25004 48331 /1558 70000 10224 20218 39907 40141 60154 76092 85776 333 20210 58028 69905 70150;
0182483310999992000102503004+18760+100770FM-12+0201VTCN V0209999C000010075019N0120001N1+02551+02351101541ADDAA103001091AY161031AY221031GF107991051071008001071061MA1999999099231MD1999999+0281MW1021REMSYN082AAXX  25034 48331 21562 70000 10255 20235 39923 40154 70262 85776 333 58028 60017;
0188483310999992000102506004+18760+100770FM-12+0201VTCN V0209999C000010450019N0150001N1+02851+02311101211ADDAA106001091AY161061AY221061GF106991041091008001071061MA1999999098951MD1999999+0251MW1011REMSYN088AAXX  25064 48331 11565 60000 10285 20231 39895 40121 60011 70162 84976 333 58025 70160;
0148483310999992000102509004+18760+100770FM-12+0201VTCN V0209999C000012200019N0150001N1+03101+02251100951ADDAA199000021GF102991021051008001041011MA1999999098701MD1999999+0191REMSYN070AAXX  25094 48331 32565 20000 10310 20225 39870 40095 82541 333 58019;
0173483310999992000102512004+18760+100770FM-12+0201VTCN V0209999C000012200019N0150001N1+02671+02411100981ADDAA124016091GF101991011011008001001001KA1120M+03151MA1999999098691MD1999999-0021REMSYN082AAXX  25124 48331 32565 10000 10267 20241 39869 40098 81100 333 10315 59002 70160;
0167483310999992000102515004+18760+100770FM-12+0201VTCN V0209999C000012200019N0150001N1+02421+02301101341ADDAA199000091GF101991011011008001001001MA1999999099021MD1999999+0111REMSYN070AAXX  25154 48331 32565 10000 10242 20230 39902 40134 81100 333 58011;EQDQ01  00002PRCP99
0154483310999992000102518004+18760+100770FM-12+0201VTCN V0209999C000012200019N0120001N1+02271+02161101361ADDAA124016091GF101991011011008001001001MA1999999099031MD1999999+0181REMSYN076AAXX  25184 48331 32562 10000 10227 20216 39903 40136 81100 333 58018 70160;
0195483310999992000102521004+18760+100770FM-12+0201VTCN V0209999C000012200019N0060001N1+02201+02121101271ADDAA199000091AY101031AY201031GF103991031061004501001001MA1999999098941MD1999999+0131MW1101REMSYN076AAXX  25214 48331 31456 30000 10220 20212 39894 40127 71000 83600 333 58013;EQDQ01  00002PRCP99
0223483310999992000102600004+18760+100770FM-12+0201VTCN V0209999C000010003019N0002001N1+02201+02121101411ADDAA124001091AY101061AY201061GA1091+999999999GF109991091999999999999999KA1120N+02081MA1999999099061MD1999999+0001MW1471REMSYN094AAXX  26004 48331 11/02 90000 10220 20212 39906 40141 60014 74700 89/// 333 20208 58000 70010;
0195483310999992000102603004+18760+100770FM-12+0201VTCN V0209999C000012200019N0080001N1+02601+02261101501ADDAA199000091AY101031AY201031GF102991021051008001001001MA1999999099191MD1999999-0041MW1101REMSYN076AAXX  26034 48331 31558 20000 10260 20226 39919 40150 71000 82500 333 59004;EQDQ01  00002PRCP99
0167483310999992000102606004+18760+100770FM-12+0201VTCN V0200301N001012200019N0150001N1+03211+02361101121ADDAA199000091GF102991021081008001001001MA1999999098871MD1999999-0091REMSYN070AAXX  26064 48331 32565 20302 10321 20236 39887 40112 82800 333 59009;EQDQ01  00002PRCP99
0167483310999992000102609004+18760+100770FM-12+0201VTCN V0209999C000012200019N0150001N1+03281+02141100871ADDAA199000091GF103991031081008001001001MA1999999098631MD1999999-0081REMSYN070AAXX  26094 48331 32565 30000 10328 20214 39863 40087 83800 333 59008;EQDQ01  00002PRCP99
0186483310999992000102612004+18760+100770FM-12+0201VTCN V0209999C000012200019N0150001N1+02771+02381100991ADDAA199000091GF101991011011008001001001KA1120M+03441MA1999999098721MD1999999-0121REMSYN076AAXX  26124 48331 32565 10000 10277 20238 39872 40099 81100 333 10344 59012;EQDQ01  00002PRCP99
0167483310999992000102615004+18760+100770FM-12+0201VTCN V0209999C000012200019N0120001N1+02501+02341101271ADDAA199000091GF101991011011008001001001MA1999999098971MD1999999-0071REMSYN070AAXX  26154 48331 32562 10000 10250 20234 39897 40127 81100 333 59007;EQDQ01  00002PRCP99
0167483310999992000102618004+18760+100770FM-12+0201VTCN V0209999C000012200019N0120001N1+02321+02201101281ADDAA199000091GF101991011011008001001001MA1999999098961MD1999999-0081REMSYN070AAXX  26184 48331 32562 10000 10232 20220 39896 40128 81100 333 59008;EQDQ01  00002PRCP99
0195483310999992000102621004+18760+100770FM-12+0201VTCN V0209999C000010450019N0060001N1+02271+02181101231ADDAA199000091AY121031AY221031GF106991031061008001041061MA1999999098911MD1999999-0041MW1101REMSYN076AAXX  26214 48331 31556 60000 10227 20218 39891 40123 71022 83646 333 59004;EQDQ01  00002PRCP99
0214483310999992000102700004+18760+100770FM-12+0201VTCN V0209999C000010042019N0080001N1+02221+02171101381ADDAA199000091AY121061AY221061GF108991081061004501999999KA1120N+02121MA1999999099051MD1999999-0031MW1101REMSYN082AAXX  27004 48331 31458 80000 10222 20217 39905 40138 71022 886// 333 20212 59003;EQDQ01  00002PRCP99
0195483310999992000102703004+18760+100770FM-12+0201VTCN V0200901N001012200019N0120001N1+02751+02311101471ADDAA199000091AY141031AY211031GF102991021061008001001001MA1999999099181MD1999999-0031MW1011REMSYN076AAXX  27034 48331 31562 20902 10275 20231 39918 40147 70141 82600 333 59003;EQDQ01  00002PRCP99
0167483310999992000102706004+18760+100770FM-12+0201VTCN V0209999C000012200019N0150001N1+03251+02341101111ADDAA199000091GF102991021031008001001001MA1999999098861MD1999999-0011REMSYN070AAXX  27064 48331 32565 20000 10325 20234 39886 40111 82300 333 59001;EQDQ01  00002PRCP99
0186483310999992000102712004+18760+100770FM-12+0201VTCN V0209999C000012200019N0100001N1+02801+02441101011ADDAA199000091GF102991011051008001001011KA1120M+03401MA1999999098731MD1999999+0021REMSYN076AAXX  27124 48331 32560 20000 10280 20244 39873 40101 81501 333 10340 58002;EQDQ01  00002PRCP99
0205483310999992000102715004+18760+100770FM-12+0201VTCN V0209999C000012200019N0080001N1+02551+02391101321ADDAA199000091AY101031AY201031GA1001+999999999GF100991001001999999001001MA1999999099011MD1999999+0051MW1101REMSYN070AAXX  27154 48331 31958 00000 10255 20239 39901 40132 71000 333 58005;EQDQ01  00002PRCP99
0205483310999992000102718004+18760+100770FM-12+0201VTCN V0209999C000012200019N0080001N1+02371+02261101341ADDAA199000091AY101061AY201061GA1001+999999999GF100991001001999999001001MA1999999099031MD1999999+0061MW1101REMSYN070AAXX  27184 48331 31958 00000 10237 20226 39903 40134 71000 333 58006;EQDQ01  00002PRCP99
0205483310999992000102721004+18760+100770FM-12+0201VTCN V0209999C000012200019N0080001N1+02281+02161101271ADDAA199000091AY101031AY201031GA1001+999999999GF100991001001999999001001MA1999999098951MD1999999+0041MW1101REMSYN070AAXX  27214 48331 31958 00000 10228 20216 39895 40127 71000 333 58004;EQDQ01  00002PRCP99
0214483310999992000102800004+18760+100770FM-12+0201VTCN V0209999C000012200019N0060001N1+02241+02181101371ADDAA199000091AY101061AY201061GF104991031051008001001051KA1120N+02101MA1999999099031MD1999999-0011MW1101REMSYN082AAXX  28004 48331 31556 40000 10224 20218 39903 40137 71000 83505 333 20210 59001;EQDQ01  00002PRCP99
0167483310999992000102803004+18760+100770FM-12+0201VTCN V0209999C000012200019N0120001N1+02801+02241101431ADDAA199000091GF101991011011008001001001MA1999999099131MD1999999-0041REMSYN070AAXX  28034 48331 32562 10000 10280 20224 39913 40143 81100 333 59004;EQDQ01  00002PRCP99
0167483310999992000102806004+18760+100770FM-12+0201VTCN V0209999C000012200019N0150001N1+03251+02241101071ADDAA199000091GF102991021021008001001011MA1999999098831MD1999999-0041REMSYN070AAXX  28064 48331 32565 20000 10325 20224 39883 40107 82201 333 59004;EQDQ01  00002PRCP99
0195483310999992000102809004+18760+100770FM-12+0201VTCN V0203601N002112200019N0150001N1+03131+02471100861ADDAA199000091AY101031AY201031GF103991031091008001041051MA1999999098611MD1999999-0041MW1151REMSYN076AAXX  28094 48331 31565 33604 10313 20247 39861 40086 71500 83945 333 59004;EQDQ01  00002PRCP99
0186483310999992000102812004+18760+100770FM-12+0201VTCN V0209999C000012200019N0150001N1+02751+02321101011ADDAA199000091GF103991031051008001001001KA1120M+03401MA1999999098731MD1999999+0001REMSYN076AAXX  28124 48331 32565 30000 10275 20232 39873 40101 83500 333 10340 58000;EQDQ01  00002PRCP99
0167483310999992000102815004+18760+100770FM-12+0201VTCN V0209999C000012200019N0120001N1+02601+02371101391ADDAA199000091GF103991031051008001001001MA1999999099081MD1999999+0071REMSYN070AAXX  28154 48331 32562 30000 10260 20237 39908 40139 83500 333 58007;EQDQ01  00002PRCP99
0194483310999992000102818004+18760+100770FM-12+0201VTCN V0209999C000010075019N0100001N1+02501+02341101261ADDAA101007191AY121061AY201061GF108991051051008001071999MA1999999098961MD1999999-0081MW1211REMSYN094AAXX  28184 48331 /1560 80000 10250 20234 39896 40126 60073 72120 8557/ 333 59008 60075 70067;
0182483310999992000102821004+18760+100770FM-12+0201VTCN V0209999C000010042019N0030001N1+02371+02321101211ADDAA103002091AY161031AY221031GF108991081071004501999999MA1999999098911MD1999999-0061MW1611REMSYN082AAXX  28214 48331 21430 80000 10237 20232 39891 40121 76162 887// 333 59006 60027;
0213483310999992000102900004+18760+100770FM-12+0201VTCN V0209999C000010450019N0150001N1+02331+02281101251ADDAA103008991AY161061AY221061GF105991031051008001051061KA1120N+02201MA1999999098941MD1999999-0121MW1211REMSYN100AAXX  29004 48331 /1565 50000 10233 20228 39894 40125 60184 72162 83556 333 20220 59012 60097 70180;
0148483310999992000102903004+18760+100770FM-12+0201VTCN V0209999C000012200019N0150001N1+02701+02351101381ADDAA199000021GF104991021051008001041051MA1999999099081MD1999999-0051REMSYN070AAXX  29034 48331 32565 40000 10270 20235 39908 40138 82545 333 59005;
0154483310999992000102906004+18760+100770FM-12+0201VTCN V0209999C000012200019N0150001N1+03111+02371101021ADDAA124018091GF103991031051008001001001MA1999999098771MD1999999-0051REMSYN076AAXX  29064 48331 32565 30000 10311 20237 39877 40102 83500 333 59005 70180;
0182483310999992000102909004+18760+100770FM-12+0201VTCN V0209999C000010075019N0060001N1+02491+02461100881ADDAA101023191AY121031AY221031GF108991061051008001071061MA1999999098581MD1999999+0021MW1601REMSYN082AAXX  29094 48331 21556 80000 10249 20246 39858 40088 76022 86576 333 58002 60235;
0213483310999992000102912004+18760+100770FM-12+0201VTCN V0209999C000010450019N0150001N1+02521+02461101021ADDAA103000891AY161061AY221061GF108991041051008001041061KA1120M+03361MA1999999098721MD1999999+0011MW1021REMSYN100AAXX  29124 48331 /1565 80000 10252 20246 39872 40102 60242 70262 84546 333 10336 58001 69987 70419;
0182483310999992000102915004+18760+100770FM-12+0201VTCN V0209999C000010075019N0060001N1+02441+02341101201ADDAA101001091AY121031AY221031GF108991071051008001071071MA1999999098901MD1999999-0191MW1601REMSYN082AAXX  29154 48331 21556 80000 10244 20234 39890 40120 76022 87577 333 59019 60015;
0182483310999992000102921004+18760+100770FM-12+0201VTCN V0209999C000010042019N0100001N1+02391+02331101011ADDAA101001091AY121031AY221031GF108991051051004501071999MA1999999098701MD1999999-0201MW1211REMSYN082AAXX  29214 48331 21460 80000 10239 20233 39870 40101 72122 8557/ 333 59020 60015;
0179483310999992000103000004+18760+100770FM-12+0201VTCN V0209999C000010450019N0120001N1+02351+02271101121ADDAA124026991GF107991031061004501071051KA1120N+02221MA1999999098811MD1999999-0131REMSYN088AAXX  30004 48331 12462 70000 10235 20227 39881 40112 60274 83675 333 20222 59013 70265;
0148483310999992000103003004+18760+100770FM-12+0201VTCN V0201901N001010450019N0150001N1+02801+02281101211ADDAA199000021GF106991021031008001071021MA1999999098891MD1999999-0171REMSYN070AAXX  30034 48331 32565 61902 10280 20228 39889 40121 82372 333 59017;
0154483310999992000103006004+18760+100770FM-12+0201VTCN V0209999C000010075019N0150001N1+03021+02211100901ADDAA124026491GF107991051021008001071011MA1999999098651MD1999999-0121REMSYN076AAXX  30064 48331 32565 70000 10302 20221 39865 40090 85271 333 59012 70265;
0148483310999992000103009004+18760+100770FM-12+0201VTCN V0200301N002610450019N0150001N1+02601+02151100781ADDAA199000021GF107991031091008001071061MA1999999098491MD1999999-0101REMSYN070AAXX  30094 48331 32565 70305 10260 20215 39849 40078 83976 333 59010;
0173483310999992000103012004+18760+100770FM-12+0201VTCN V0203601N001510450019N0120001N1+02361+02051101011ADDAA124002591GF108991031051008001071999KA1120M+03041MA1999999098701MD1999999-0011REMSYN082AAXX  30124 48331 32562 83603 10236 20205 39870 40101 8357/ 333 10304 59001 70026;
0176483310999992000103015004+18760+100770FM-12+0201VTCN V0209999C000010450019N0100001N1+02251+02101101211ADDAA199000021AY161031AY221031GF108991041051008001071999MA1999999098881MD1999999-0011MW1601REMSYN076AAXX  30154 48331 31560 80000 10225 20210 39888 40121 76062 8457/ 333 59001;
0194483310999992000103018004+18760+100770FM-12+0201VTCN V0209999C000010042019N0020001N1+02101+02071101181ADDAA103025991AY161061AY261061GF108991051071004501021999MA1999999098841MD1999999+0071MW1631REMSYN094AAXX  30184 48331 /1420 80000 10210 20207 39884 40118 60263 76366 8572/ 333 58007 60267 70278;
0182483310999992000103021004+18760+100770FM-12+0201VTCN V0209999C000010042019N0080001N1+02101+02071101091ADDAA103018091AY161031AY261031GF108991061061004501071999MA1999999098761MD1999999+0081MW1211REMSYN082AAXX  30214 48331 21458 80000 10210 20207 39876 40109 72166 8667/ 333 58008 60187;
0207483310999992000103100004+18760+100770FM-12+0201VTCN V0209999C000010075019N0080001N1+02121+02071101241ADDAA124045091AY161061AY221061GF108991071071008001071999KA1120N+01951MA1999999098911MD1999999+0121MW1101REMSYN094AAXX  31004 48331 11558 80000 10212 20207 39891 40124 60454 71062 8777/ 333 20195 58012 70446;
0148483310999992000103103004+18760+100770FM-12+0201VTCN V0209999C000010075019N0150001N1+02431+02141101311ADDAA199000021GF106991051051008001071061MA1999999098991MD1999999+0101REMSYN070AAXX  31034 48331 32565 60000 10243 20214 39899 40131 85576 333 58010;
0154483310999992000103106004+18760+100770FM-12+0201VTCN V0209999C000010075019N0150001N1+02681+02201101041ADDAA124044791GF107991061051008001071061MA1999999098761MD1999999+0141REMSYN076AAXX  31064 48331 32565 70000 10268 20220 39876 40104 86576 333 58014 70446;
0148483310999992000103109004+18760+100770FM-12+0201VTCN V0209999C000010075019N0150001N1+02651+02231100951ADDAA199000021GF108991061071008001071061MA1999999098671MD1999999+0171REMSYN070AAXX  31094 48331 32565 80000 10265 20223 39867 40095 86776 333 58017;
0213483310999992000103112004+18760+100770FM-12+0201VTCN V0209999C000010075019N0100001N1+02441+02041101111ADDAA101000791AY121061AY221061GF108991081071008001999999KA1120M+02701MA1999999098811MD1999999+0101MW1601REMSYN100AAXX  31124 48331 /1560 80000 10244 20204 39881 40111 69902 76022 887// 333 10270 58010 69905 70446;
0148483310999992000103115004+18760+100770FM-12+0201VTCN V0209999C000010075019N0100001N1+02341+02201101301ADDAA199000021GF108991081071008001999999MA1999999098991MD1999999+0091REMSYN070AAXX  31154 48331 32560 80000 10234 20220 39899 40130 887// 333 58009;
0154483310999992000103118004+18760+100770FM-12+0201VTCN V0209999C000012200019N0100001N1+02141+01921101391ADDAA124018391GF102991021011008001001001MA1999999099051MD1999999+0211REMSYN076AAXX  31184 48331 32560 20000 10214 20192 39905 40139 82100 333 58021 70182;
0186483310999992000103121004+18760+100770FM-12+0201VTCN V0209999C000012200019N0080001N1+01921+01801101401ADDAA199000021AY101031AY201031GA1001+999999999GF100991001001999999001001MA1999999099041MD1999999+0311MW1101REMSYN070AAXX  31214 48331 31958 00000 10192 20180 39904 40140 71000 333 58031;
0217483310999992000110100004+18760+100770FM-12+0201VTCN V0209999C000012200019N0060001N1+01781+01711101551ADDAA124000791AY101061AY201061GA1001+999999999GF100991001001999999001001KA1120N+01681MA1999999099181MD1999999+0311MW1101REMSYN088AAXX  01004 48331 11956 00000 10178 20171 39918 40155 69904 71000 333 20168 58031 79999;
0177483310999992000110103004+18760+100770FM-12+0201VTCN V0203201N001012200019N0150001N1+02501+01601101591ADDAA199000091GA1001+999999999GF100991001001999999001001MA1999999099281MD1999999+0281REMSYN064AAXX  01034 48331 32965 03202 10250 20160 39928 40159 333 58028;EQDQ01  00002PRCP99
0167483310999992000110106004+18760+100770FM-12+0201VTCN V0203401N001512200019N0150001N1+02851+01661101271ADDAA199000091GF101991011011999999001001MA1999999098991MD1999999+0231REMSYN070AAXX  01064 48331 32965 13403 10285 20166 39899 40127 81100 333 58023;EQDQ01  00002PRCP99
0167483310999992000110109004+18760+100770FM-12+0201VTCN V0203401N001012200019N0150001N1+02821+01721101081ADDAA199000091GF101991011011008001001001MA1999999098801MD1999999+0131REMSYN070AAXX  01094 48331 32565 13402 10282 20172 39880 40108 81100 333 58013;EQDQ01  00002PRCP99
0196483310999992000110112004+18760+100770FM-12+0201VTCN V0209999C000012200019N0100001N1+02301+01961101331ADDAA199000091GA1001+999999999GF100991001001999999001001KA1120M+02991MA1999999099001MD1999999+0221REMSYN070AAXX  01124 48331 32960 00000 10230 20196 39900 40133 333 10299 58022;EQDQ01  00002PRCP99
0177483310999992000110115004+18760+100770FM-12+0201VTCN V0209999C000012200019N0100001N1+01961+01781101631ADDAA199000091GA1001+999999999GF100991001001999999001001MA1999999099281MD1999999+0331REMSYN064AAXX  01154 48331 32960 00000 10196 20178 39928 40163 333 58033;EQDQ01  00002PRCP99
0205483310999992000110118004+18760+100770FM-12+0201VTCN V0209999C000012200019N0080001N1+01751+01661101641ADDAA199000091AY101061AY201061GA1001+999999999GF100991001001999999001001MA1999999099271MD1999999+0251MW1101REMSYN070AAXX  01184 48331 31958 00000 10175 20166 39927 40164 71000 333 58025;EQDQ01  00002PRCP99
0205483310999992000110121004+18760+100770FM-12+0201VTCN V0209999C000012200019N0060001N1+01621+01551101601ADDAA199000091AY101031AY201031GA1001+999999999GF100991001001999999001001MA1999999099211MD1999999+0201MW1101REMSYN070AAXX  01214 48331 31956 00000 10162 20155 39921 40160 71000 333 58020;EQDQ01  00002PRCP99
0224483310999992000110200004+18760+100770FM-12+0201VTCN V0209999C000012200019N0040001N1+01511+01441101741ADDAA199000091AY101061AY201061GA1001+999999999GF100991001001999999001001KA1120N+01401MA1999999099341MD1999999+0191MW1101REMSYN076AAXX  02004 48331 31940 00000 10151 20144 39934 40174 71000 333 20140 58019;EQDQ01  00002PRCP99
0205483310999992000110203004+18760+100770FM-12+0201VTCN V0209999C000012200019N0080001N1+02191+01591101831ADDAA199000091AY101031AY201031GA1001+999999999GF100991001001999999001001MA1999999099491MD1999999+0241MW1101REMSYN070AAXX  02034 48331 31958 00000 10219 20159 39949 40183 71000 333 58024;EQDQ01  00002PRCP99
0177483310999992000110206004+18760+100770FM-12+0201VTCN V0209999C000012200019N0150001N1+02731+01331101511ADDAA199000091GA1001+999999999GF100991001001999999001001MA1999999099211MD1999999+0241REMSYN064AAXX  02064 48331 32965 00000 10273 20133 39921 40151 333 58024;EQDQ01  00002PRCP99
0177483310999992000110209004+18760+100770FM-12+0201VTCN V0209999C000012200019N0150001N1+02761+01391101251ADDAA199000091GA1001+999999999GF100991001001999999001001MA1999999098981MD1999999+0171REMSYN064AAXX  02094 48331 32965 00000 10276 20139 39898 40125 333 58017;EQDQ01  00002PRCP99
0196483310999992000110212004+18760+100770FM-12+0201VTCN V0209999C000012200019N0100001N1+02121+01711101431ADDAA199000091GA1001+999999999GF100991001001999999001001KA1120M+02931MA1999999099081MD1999999+0101REMSYN070AAXX  02124 48331 32960 00000 10212 20171 39908 40143 333 10293 58010;EQDQ01  00002PRCP99
0177483310999992000110215004+18760+100770FM-12+0201VTCN V0209999C000012200019N0100001N1+01821+01681101641ADDAA199000091GA1001+999999999GF100991001001999999001001MA1999999099271MD1999999+0011REMSYN064AAXX  02154 48331 32960 00000 10182 20168 39927 40164 333 58001;EQDQ01  00002PRCP99
0205483310999992000110218004+18760+100770FM-12+0201VTCN V0209999C000012200019N0030001N1+01651+01541101701ADDAA199000091AY101061AY201061GA1001+999999999GF100991001001999999001001MA1999999099321MD1999999+0061MW1101REMSYN070AAXX  02184 48331 31930 00000 10165 20154 39932 40170 71000 333 58006;EQDQ01  00002PRCP99
0205483310999992000110221004+18760+100770FM-12+0201VTCN V0209999C000010003019N0002001N1+01501+01461101701ADDAA199000091AY141031AY201031GA1091+999999999GF109991091999999999999999MA1999999099311MD1999999+0101MW1471REMSYN070AAXX  02214 48331 31/02 90000 10150 20146 39931 40170 74740 333 58010;EQDQ01  00002PRCP99
0224483310999992000110300004+18760+100770FM-12+0201VTCN V0209999C000010003019N0003001N1+01451+01441101851ADDAA199000091AY141061AY241061GA1091+999999999GF109991091999999999999999KA1120N+01361MA1999999099441MD1999999+0111MW1451REMSYN076AAXX  03004 48331 31/03 90000 10145 20144 39944 40185 74544 333 20136 58011;EQDQ01  00002PRCP99
0205483310999992000110303004+18760+100770FM-12+0201VTCN V0201301N000512200019N0080001N1+02071+01641101871ADDAA199000091AY141031AY201031GA1001+999999999GF100991001001999999001001MA1999999099511MD1999999+0041MW1011REMSYN070AAXX  03034 48331 31958 01301 10207 20164 39951 40187 70140 333 58004;EQDQ01  00002PRCP99
0167483310999992000110306004+18760+100770FM-12+0201VTCN V0200701N001012200019N0150001N1+02741+01721101471ADDAA199000091GF101991011011008001001001MA1999999099181MD1999999-0041REMSYN070AAXX  03064 48331 32565 10702 10274 20172 39918 40147 81100 333 59004;EQDQ01  00002PRCP99
0177483310999992000110309004+18760+100770FM-12+0201VTCN V0203301N000512200019N0150001N1+02831+01791101251ADDAA199000091GA1001+999999999GF100991001001999999001001MA1999999098971MD1999999+0001REMSYN064AAXX  03094 48331 32965 03301 10283 20179 39897 40125 333 58000;EQDQ01  00002PRCP99
0196483310999992000110312004+18760+100770FM-12+0201VTCN V0209999C000012200019N0100001N1+02251+01961101421ADDAA199000091GA1001+999999999GF100991001001999999001001KA1120M+02981MA1999999099091MD1999999-0011REMSYN070AAXX  03124 48331 32960 00000 10225 20196 39909 40142 333 10298 59001;EQDQ01  00002PRCP99
0205483310999992000110315004+18760+100770FM-12+0201VTCN V0209999C000012200019N0080001N1+01951+01791101611ADDAA199000091AY101031AY201031GA1001+999999999GF100991001001999999001001MA1999999099261MD1999999-0031MW1101REMSYN070AAXX  03154 48331 31958 00000 10195 20179 39926 40161 71000 333 59003;EQDQ01  00002PRCP99
0205483310999992000110318004+18760+100770FM-12+0201VTCN V0209999C000012200019N0060001N1+01731+01661101651ADDAA199000091AY101061AY201061GA1001+999999999GF100991001001999999001001MA1999999099281MD1999999-0051MW1101REMSYN070AAXX  03184 48331 31956 00000 10173 20166 39928 40165 71000 333 59005;EQDQ01  00002PRCP99
0205483310999992000110321004+18760+100770FM-12+0201VTCN V0209999C000012200019N0060001N1+01561+01501101671ADDAA199000091AY101031AY201031GA1001+999999999GF100991001001999999001001MA1999999099281MD1999999-0031MW1101REMSYN070AAXX  03214 48331 31956 00000 10156 20150 39928 40167 71000 333 59003;EQDQ01  00002PRCP99
0224483310999992000110400004+18760+100770FM-12+0201VTCN V0209999C000010001519N0001001N1+01501+01461101861ADDAA199000091AY141061AY201061GA1091+999999999GF109991091999999999999999KA1120N+01401MA1999999099471MD1999999+0011MW1451REMSYN076AAXX  04004 48331 31/01 90000 10150 20146 39947 40186 74540 333 20140 58001;EQDQ01  00002PRCP99
0195483310999992000110403004+18760+100770FM-12+0201VTCN V0209999C000012200019N0100001N1+02051+01691101941ADDAA199000091AY141031AY201031GF101991011011008001001001MA1999999099591MD1999999+0071MW1031REMSYN076AAXX  04034 48331 31560 10000 10205 20169 39959 40194 70340 81100 333 58007;EQDQ01  00002PRCP99
0205483310999992000110406004+18760+100770FM-12+0201VTCN V0209999C000012200019N0150001N1+02681+01761101541ADDAA199000091AY141061AY201061GA1001+999999999GF100991001001999999001001MA1999999099241MD1999999+0071MW1011REMSYN070AAXX  04064 48331 31965 00000 10268 20176 39924 40154 70140 333 58007;EQDQ01  00002PRCP99
0177483310999992000110409004+18760+100770FM-12+0201VTCN V0209999C000012200019N0150001N1+02861+01751101251ADDAA199000091GA1001+999999999GF100991001001999999001001MA1999999098981MD1999999+0001REMSYN064AAXX  04094 48331 32965 00000 10286 20175 39898 40125 333 58000;EQDQ01  00002PRCP99
0196483310999992000110412004+18760+100770FM-12+0201VTCN V0209999C000012200019N0100001N1+02231+02041101431ADDAA199000091GA1001+999999999GF100991001001999999001001KA1120M+03031MA1999999099091MD1999999+0011REMSYN070AAXX  04124 48331 32960 00000 10223 20204 39909 40143 333 10303 58001;EQDQ01  00002PRCP99
0205483310999992000110415004+18760+100770FM-12+0201VTCN V0209999C000012200019N0080001N1+01901+01821101631ADDAA199000091AY101031AY201031GA1001+999999999GF100991001001999999001001MA1999999099271MD1999999+0021MW1101REMSYN070AAXX  04154 48331 31958 00000 10190 20182 39927 40163 71000 333 58002;EQDQ01  00002PRCP99
0205483310999992000110418004+18760+100770FM-12+0201VTCN V0209999C000012200019N0080001N1+01721+01631101611ADDAA199000091AY101061AY201061GA1001+999999999GF100991001001999999001001MA1999999099231MD1999999-0041MW1101REMSYN070AAXX  04184 48331 31958 00000 10172 20163 39923 40161 71000 333 59004;EQDQ01  00002PRCP99
0205483310999992000110421004+18760+100770FM-12+0201VTCN V0209999C000012200019N0008001N1+01681+01631101531ADDAA199000091AY101031AY201031GA1001+999999999GF100991001001999999001001MA1999999099151MD1999999-0141MW1461REMSYN070AAXX  04214 48331 31908 00000 10168 20163 39915 40153 74600 333 59014;EQDQ01  00002PRCP99
0224483310999992000110500004+18760+100770FM-12+0201VTCN V0209999C000010003019N0004001N1+01591+01551101621ADDAA199000091AY141061AY241061GA1091+999999999GF109991091999999999999999KA1120N+01491MA1999999099231MD1999999-0241MW1451REMSYN076AAXX  05004 48331 31/04 90000 10159 20155 39923 40162 74544 333 20149 59024;EQDQ01  00002PRCP99
0195483310999992000110503004+18760+100770FM-12+0201VTCN V0209999C000012200019N0080001N1+02031+01671101641ADDAA199000091AY141031AY201031GF102991021061004501001001MA1999999099281MD1999999-0301MW1101REMSYN076AAXX  05034 48331 31458 20000 10203 20167 39928 40164 71040 82600 333 59030;EQDQ01  00002PRCP99
0167483310999992000110506004+18760+100770FM-12+0201VTCN V0209999C000012200019N0150001N1+02751+01821101161ADDAA199000091GF101991011011008001001001MA1999999098871MD1999999-0381REMSYN070AAXX  05064 48331 32565 10000 10275 20182 39887 40116 81100 333 59038;EQDQ01  00002PRCP99
0177483310999992000110509004+18760+100770FM-12+0201VTCN V0209999C000012200019N0150001N1+02861+01831100901ADDAA199000091GA1001+999999999GF100991001001999999001001MA1999999098631MD1999999-0351REMSYN064AAXX  05094 48331 32965 00000 10286 20183 39863 40090 333 59035;EQDQ01  00002PRCP99
0224483310999992000110512004+18760+100770FM-12+0201VTCN V0209999C000012200019N0060001N1+02301+02071101031ADDAA199000091AY101061AY201061GA1001+999999999GF100991001001999999001001KA1120M+03031MA1999999098721MD1999999-0401MW1101REMSYN076AAXX  05124 48331 31956 00000 10230 20207 39872 40103 71000 333 10303 59040;EQDQ01  00002PRCP99
0205483310999992000110515004+18760+100770FM-12+0201VTCN V0209999C000012200019N0060001N1+02021+01861101191ADDAA199000091AY101031AY201031GA1001+999999999GF100991001001999999001001MA1999999098851MD1999999-0441MW1101REMSYN070AAXX  05154 48331 31956 00000 10202 20186 39885 40119 71000 333 59044;EQDQ01  00002PRCP99
0205483310999992000110518004+18760+100770FM-12+0201VTCN V0209999C000012200019N0008001N1+01791+01721101181ADDAA199000091AY101061AY201061GA1001+999999999GF100991001001999999001001MA1999999098821MD1999999-0431MW1461REMSYN070AAXX  05184 48331 31908 00000 10179 20172 39882 40118 74600 333 59043;EQDQ01  00002PRCP99
0205483310999992000110521004+18760+100770FM-12+0201VTCN V0209999C000010003019N0004001N1+01751+01711101131ADDAA199000091AY141031AY241031GA1091+999999999GF109991091999999999999999MA1999999098771MD1999999-0401MW1451REMSYN070AAXX  05214 48331 31/04 90000 10175 20171 39877 40113 74544 333 59040;EQDQ01  00002PRCP99
0224483310999992000110600004+18760+100770FM-12+0201VTCN V0209999C000010001519N0000001N1+01631+01621101251ADDAA199000091AY141061AY201061GA1091+999999999GF109991091999999999999999KA1120N+01541MA1999999098881MD1999999-0371MW1471REMSYN076AAXX  06004 48331 31/00 90000 10163 20162 39888 40125 74740 333 20154 59037;EQDQ01  00002PRCP99
0195483310999992000110603004+18760+100770FM-12+0201VTCN V0209999C000012200019N0100001N1+02181+01831101391ADDAA199000091AY141031AY201031GF101991011011008001001001MA1999999099051MD1999999-0251MW1031REMSYN076AAXX  06034 48331 31560 10000 10218 20183 39905 40139 70340 81100 333 59025;EQDQ01  00002PRCP99
0195483310999992000110606004+18760+100770FM-12+0201VTCN V0209999C000012200019N0150001N1+02701+01941101031ADDAA199000091AY141061AY201061GF101991011011008001001001MA1999999098751MD1999999-0131MW1021REMSYN076AAXX  06064 48331 31565 10000 10270 20194 39875 40103 70240 81100 333 59013;EQDQ01  00002PRCP99
0167483310999992000110609004+18760+100770FM-12+0201VTCN V0209999C000012200019N0150001N1+02951+01971100781ADDAA199000091GF101991011011008001001001MA1999999098521MD1999999-0121REMSYN070AAXX  06094 48331 32565 10000 10295 20197 39852 40078 81100 333 59012;EQDQ01  00002PRCP99
0196483310999992000110612004+18760+100770FM-12+0201VTCN V0209999C000012200019N0100001N1+02441+02151100921ADDAA199000091GA1001+999999999GF100991001001999999001001KA1120M+03101MA1999999098611MD1999999-0111REMSYN070AAXX  06124 48331 32960 00000 10244 20215 39861 40092 333 10310 59011;EQDQ01  00002PRCP99
0205483310999992000110615004+18760+100770FM-12+0201VTCN V0209999C000012200019N0080001N1+02131+02001101121ADDAA199000091AY101031AY201031GA1001+999999999GF100991001001999999001001MA1999999098791MD1999999-0071MW1101REMSYN070AAXX  06154 48331 31958 00000 10213 20200 39879 40112 71000 333 59007;EQDQ01  00002PRCP99
0195483310999992000110618004+18760+100770FM-12+0201VTCN V0209999C000012200019N0080001N1+01951+01851101121ADDAA199000091AY101061AY201061GF102991001001999999001011MA1999999098781MD1999999-0061MW1101REMSYN076AAXX  06184 48331 31958 20000 10195 20185 39878 40112 71000 80001 333 59006;EQDQ01  00002PRCP99
0195483310999992000110621004+18760+100770FM-12+0201VTCN V0209999C000012200019N0080001N1+01951+01851101121ADDAA199000091AY101031AY201031GF102991001001999999001011MA1999999098781MD1999999-0061MW1101REMSYN076AAXX  06214 48331 31958 20000 10195 20185 39878 40112 71000 80001 333 59006;EQDQ01  00002PRCP99
0230483310999992000110700004+18760+100770FM-12+0201VTCN V0209999C000010001519N0000001N1+01831+01781101331ADDAA199000091AY141061AY201061GA1091+999999999GF109991091999999999999999KA1120N+01721MA1999999098981MD1999999+0081MW1471REMSYN082AAXX  07004 48331 31/00 90000 10183 20178 39898 40133 74740 89/// 333 20172 58008;EQDQ01  00002PRCP99
0195483310999992000110703004+18760+100770FM-12+0201VTCN V0209999C000010042019N0040001N1+02041+01881101551ADDAA199000091AY141031AY201031GF105991051061004501001001MA1999999099191MD1999999+0161MW1101REMSYN076AAXX  07034 48331 31440 50000 10204 20188 39919 40155 71040 85600 333 58016;EQDQ01  00002PRCP99
0195483310999992000110706004+18760+100770FM-12+0201VTCN V0209999C000012200019N0120001N1+02841+02091101171ADDAA199000091AY141061AY201061GF101991011011008001001001MA1999999098891MD1999999+0141MW1011REMSYN076AAXX  07064 48331 31562 10000 10284 20209 39889 40117 70140 81100 333 58014;EQDQ01  00002PRCP99
0167483310999992000110709004+18760+100770FM-12+0201VTCN V0209999C000012200019N0120001N1+03051+01911100891ADDAA199000091GF101991011011008001001001MA1999999098641MD1999999+0111REMSYN070AAXX  07094 48331 32562 10000 10305 20191 39864 40089 81100 333 58011;EQDQ01  00002PRCP99
0186483310999992000110712004+18760+100770FM-12+0201VTCN V0209999C000012200019N0120001N1+02381+02101101081ADDAA199000091GF101991011011008001001001KA1120M+03151MA1999999098771MD1999999+0161REMSYN076AAXX  07124 48331 32562 10000 10238 20210 39877 40108 81100 333 10315 58016;EQDQ01  00002PRCP99
0167483310999992000110715004+18760+100770FM-12+0201VTCN V0209999C000012200019N0100001N1+02151+01991101241ADDAA199000091GF101991011011008001001001MA1999999098921MD1999999+0121REMSYN070AAXX  07154 48331 32560 10000 10215 20199 39892 40124 81100 333 58012;EQDQ01  00002PRCP99
0195483310999992000110718004+18760+100770FM-12+0201VTCN V0209999C000012200019N0080001N1+01941+01841101221ADDAA199000091AY101061AY201061GF101991001001999999001011MA1999999098881MD1999999+0101MW1101REMSYN076AAXX  07184 48331 31958 10000 10194 20184 39888 40122 71000 80001 333 58010;EQDQ01  00002PRCP99
0211483310999992000110721004+18760+100770FM-12+0201VTCN V0209999C000010001519N0000001N1+01871+01841101191ADDAA199000091AY101031AY201031GA1091+999999999GF109991091999999999999999MA1999999098851MD1999999+0061MW1471REMSYN076AAXX  07214 48331 31/00 90000 10187 20184 39885 40119 74700 89/// 333 58006;EQDQ01  00002PRCP99
0167483310999992000110806004+18760+100770FM-12+0201VTCN V0209999C000012200019N0150001N1+02921+02111101061ADDAA199000091GF101991011021008001001001MA1999999098791MD1999999-0111REMSYN070AAXX  08064 48331 32565 10000 10292 20211 39879 40106 81200 333 59011;EQDQ01  00002PRCP99
0167483310999992000110809004+18760+100770FM-12+0201VTCN V0209999C000012200019N0150001N1+03071+01991100791ADDAA199000091GF101991011021008001001001MA1999999098541MD1999999-0101REMSYN070AAXX  08094 48331 32565 10000 10307 20199 39854 40079 81200 333 59010;EQDQ01  00002PRCP99
0186483310999992000110812004+18760+100770FM-12+0201VTCN V0209999C000012200019N0120001N1+02461+02171100981ADDAA199000091GF101991001001999999001011KA1120M+03201MA1999999098681MD1999999-0101REMSYN076AAXX  08124 48331 32962 10000 10246 20217 39868 40098 80001 333 10320 59010;EQDQ01  00002PRCP99
0167483310999992000110815004+18760+100770FM-12+0201VTCN V0209999C000012200019N0100001N1+02201+02041101191ADDAA199000091GF103991031001999999031001MA1999999098871MD1999999-0131REMSYN070AAXX  08154 48331 32960 30000 10220 20204 39887 40119 83030 333 59013;EQDQ01  00002PRCP99
0177483310999992000110818004+18760+100770FM-12+0201VTCN V0209999C000012200019N0100001N1+02031+01921101151ADDAA199000091GA1001+999999999GF100991001001999999001001MA1999999098811MD1999999-0071REMSYN064AAXX  08184 48331 32960 00000 10203 20192 39881 40115 333 59007;EQDQ01  00002PRCP99
0205483310999992000110821004+18760+100770FM-12+0201VTCN V0209999C000012200019N0003001N1+01801+01731101141ADDAA199000091AY141031AY201031GA1001+999999999GF100991001001999999001001MA1999999098781MD1999999-0051MW1461REMSYN070AAXX  08214 48331 31903 00000 10180 20173 39878 40114 74640 333 59005;EQDQ01  00002PRCP99
0224483310999992000110900004+18760+100770FM-12+0201VTCN V0209999C000010001519N0001001N1+01901+01851101291ADDAA199000091AY141061AY201061GA1091+999999999GF109991091999999999999999KA1120N+01881MA1999999098951MD1999999-0091MW1471REMSYN076AAXX  09004 48331 31/01 90000 10190 20185 39895 40129 74740 333 20188 59009;EQDQ01  00002PRCP99
0195483310999992000110903004+18760+100770FM-12+0201VTCN V0209999C000012200019N0100001N1+02451+02021101391ADDAA199000091AY141031AY201031GF101991011011008001001001MA1999999099071MD1999999-0091MW1031REMSYN076AAXX  09034 48331 31560 10000 10245 20202 39907 40139 70340 81100 333 59009;EQDQ01  00002PRCP99
0195483310999992000110906004+18760+100770FM-12+0201VTCN V0200901N001512200019N0150001N1+02991+02061101001ADDAA199000091AY141061AY201061GF101991011021008001001001MA1999999098741MD1999999-0061MW1021REMSYN076AAXX  09064 48331 31565 10903 10299 20206 39874 40100 70240 81200 333 59006;EQDQ01  00002PRCP99
0167483310999992000110909004+18760+100770FM-12+0201VTCN V0209999C000012200019N0150001N1+03071+01991100761ADDAA199000091GF101991011011008001001001MA1999999098511MD1999999-0031REMSYN070AAXX  09094 48331 32565 10000 10307 20199 39851 40076 81100 333 59003;EQDQ01  00002PRCP99
0196483310999992000110912004+18760+100770FM-12+0201VTCN V0209999C000012200019N0120001N1+02471+02211100971ADDAA199000091GA1001+999999999GF100991001001999999001001KA1120M+03201MA1999999098671MD1999999-0011REMSYN070AAXX  09124 48331 32962 00000 10247 20221 39867 40097 333 10320 59001;EQDQ01  00002PRCP99
0177483310999992000110915004+18760+100770FM-12+0201VTCN V0209999C000012200019N0100001N1+02181+02051101231ADDAA199000091GA1001+999999999GF100991001001999999001001MA1999999098901MD1999999+0041REMSYN064AAXX  09154 48331 32960 00000 10218 20205 39890 40123 333 58004;EQDQ01  00002PRCP99
0167483310999992000110918004+18760+100770FM-12+0201VTCN V0209999C000012200019N0100001N1+02001+01921101251ADDAA199000091GF101991011011008001001001MA1999999098911MD1999999+0101REMSYN070AAXX  09184 48331 32560 10000 10200 20192 39891 40125 81100 333 58010;EQDQ01  00002PRCP99
0205483310999992000110921004+18760+100770FM-12+0201VTCN V0209999C000012200019N0040001N1+01881+01831101301ADDAA199000091AY101031AY201031GA1001+999999999GF100991001001999999001001MA1999999098951MD1999999+0161MW1101REMSYN070AAXX  09214 48331 31940 00000 10188 20183 39895 40130 71000 333 58016;EQDQ01  00002PRCP99
0214483310999992000111000004+18760+100770FM-12+0201VTCN V0209999C000011050019N0005001N1+01921+01871101541ADDAA199000091AY101061AY201061GF105991041061004501001051KA1120N+01781MA1999999099181MD1999999+0251MW1461REMSYN082AAXX  10004 48331 31405 50000 10192 20187 39918 40154 74600 84605 333 20178 58025;EQDQ01  00002PRCP99
0195483310999992000111003004+18760+100770FM-12+0201VTCN V0209999C000012200019N0080001N1+02411+02011101641ADDAA199000091AY141031AY201031GF101991011011008001001001MA1999999099321MD1999999+0251MW1101REMSYN076AAXX  10034 48331 31558 10000 10241 20201 39932 40164 71040 81100 333 58025;EQDQ01  00002PRCP99
0195483310999992000111006004+18760+100770FM-12+0201VTCN V0209999C000012200019N0100001N1+02981+02011101271ADDAA199000091AY141061AY201061GF101991001001999999001011MA1999999099001MD1999999+0271MW1021REMSYN076AAXX  10064 48331 31960 10000 10298 20201 39900 40127 70240 80001 333 58027;EQDQ01  00002PRCP99
0167483310999992000111009004+18760+100770FM-12+0201VTCN V0209999C000012200019N0120001N1+03051+02001101101ADDAA199000091GF101991011011008001001001MA1999999098841MD1999999+0341REMSYN070AAXX  10094 48331 32562 10000 10305 20200 39884 40110 81100 333 58034;EQDQ01  00002PRCP99
0186483310999992000111012004+18760+100770FM-12+0201VTCN V0209999C000012200019N0120001N1+02501+02151101321ADDAA199000091GF102991021021008001001001KA1120M+03201MA1999999099001MD1999999+0351REMSYN076AAXX  10124 48331 32562 20000 10250 20215 39900 40132 82200 333 10320 58035;EQDQ01  00002PRCP99
0167483310999992000111015004+18760+100770FM-12+0201VTCN V0209999C000012200019N0120001N1+02181+01981101571ADDAA199000091GF101991011011008001001001MA1999999099231MD1999999+0341REMSYN070AAXX  10154 48331 32562 10000 10218 20198 39923 40157 81100 333 58034;EQDQ01  00002PRCP99
0205483310999992000111018004+18760+100770FM-12+0201VTCN V0209999C000012200019N0040001N1+01981+01911101591ADDAA199000091AY101061AY201061GA1001+999999999GF100991001001999999001001MA1999999099241MD1999999+0341MW1101REMSYN070AAXX  10184 48331 31940 00000 10198 20191 39924 40159 71000 333 58034;EQDQ01  00002PRCP99
0211483310999992000111021004+18760+100770FM-12+0201VTCN V0209999C000010001519N0000001N1+01901+01871101521ADDAA199000091AY141031AY201031GA1091+999999999GF109991091999999999999999MA1999999099161MD1999999+0221MW1471REMSYN076AAXX  10214 48331 31/00 90000 10190 20187 39916 40152 74740 89/// 333 58022;EQDQ01  00002PRCP99
0224483310999992000111100004+18760+100770FM-12+0201VTCN V0209999C000010006019N0006001N1+01881+01831101701ADDAA199000091AY141061AY241061GA1091+999999999GF109991091999999999999999KA1120N+01751MA1999999099341MD1999999+0161MW1431REMSYN076AAXX  11004 48331 31/06 90000 10188 20183 39934 40170 74344 333 20175 58016;EQDQ01  00002PRCP99
0195483310999992000111103004+18760+100770FM-12+0201VTCN V0209999C000010042019N0050001N1+02101+01941101801ADDAA199000091AY141031AY221031GF107991071061004501001001MA1999999099451MD1999999+0161MW1101REMSYN076AAXX  11034 48331 31450 70000 10210 20194 39945 40180 71042 87600 333 58016;EQDQ01  00002PRCP99
0167483310999992000111106004+18760+100770FM-12+0201VTCN V0209999C000012200019N0150001N1+02901+02151101321ADDAA199000091GF101991011021008001001001MA1999999099041MD1999999+0051REMSYN070AAXX  11064 48331 32565 10000 10290 20215 39904 40132 81200 333 58005;EQDQ01  00002PRCP99
0167483310999992000111109004+18760+100770FM-12+0201VTCN V0209999C000012200019N0150001N1+03041+01841101021ADDAA199000091GF101991011011008001001001MA1999999098771MD1999999-0081REMSYN070AAXX  11094 48331 32565 10000 10304 20184 39877 40102 81100 333 59008;EQDQ01  00002PRCP99
0196483310999992000111112004+18760+100770FM-12+0201VTCN V0209999C000012200019N0100001N1+02421+02071101201ADDAA199000091GA1001+999999999GF100991001001999999001001KA1120M+03201MA1999999098891MD1999999-0121REMSYN070AAXX  11124 48331 32960 00000 10242 20207 39889 40120 333 10320 59012;EQDQ01  00002PRCP99
0177483310999992000111115004+18760+100770FM-12+0201VTCN V0209999C000012200019N0100001N1+02101+01941101391ADDAA199000091GA1001+999999999GF100991001001999999001001MA1999999099051MD1999999-0181REMSYN064AAXX  11154 48331 32960 00000 10210 20194 39905 40139 333 59018;EQDQ01  00002PRCP99
0177483310999992000111118004+18760+100770FM-12+0201VTCN V0209999C000012200019N0100001N1+01901+01821101411ADDAA199000091GA1001+999999999GF100991001001999999001001MA1999999099051MD1999999-0181REMSYN064AAXX  11184 48331 32960 00000 10190 20182 39905 40141 333 59018;EQDQ01  00002PRCP99
0195483310999992000111121004+18760+100770FM-12+0201VTCN V0209999C000012200019N0080001N1+01801+01711101381ADDAA199000091AY101031AY201031GF102991021001999999051001MA1999999099021MD1999999-0141MW1101REMSYN076AAXX  11214 48331 31958 20000 10180 20171 39902 40138 71000 82050 333 59014;EQDQ01  00002PRCP99
0224483310999992000111200004+18760+100770FM-12+0201VTCN V0209999C000010001519N0001001N1+01801+01751101611ADDAA199000091AY141061AY201061GA1091+999999999GF109991091999999999999999KA1120N+01681MA1999999099231MD1999999-0091MW1471REMSYN076AAXX  12004 48331 31/01 90000 10180 20175 39923 40161 74740 333 20168 59009;EQDQ01  00002PRCP99
0195483310999992000111203004+18760+100770FM-12+0201VTCN V0209999C000012200019N0060001N1+02321+01891101631ADDAA199000091AY141031AY201031GF101991011011008001001001MA1999999099291MD1999999-0171MW1101REMSYN076AAXX  12034 48331 31556 10000 10232 20189 39929 40163 71040 81100 333 59017;EQDQ01  00002PRCP99
0195483310999992000111206004+18760+100770FM-12+0201VTCN V0209999C000012200019N0150001N1+02951+02131101171ADDAA199000091AY141061AY201061GF101991011021008001001001MA1999999098911MD1999999-0161MW1021REMSYN076AAXX  12064 48331 31565 10000 10295 20213 39891 40117 70240 81200 333 59016;EQDQ01  00002PRCP99
0167483310999992000111209004+18760+100770FM-12+0201VTCN V0209999C000012200019N0150001N1+03081+02131100921ADDAA199000091GF101991011021008001001001MA1999999098671MD1999999-0101REMSYN070AAXX  12094 48331 32565 10000 10308 20213 39867 40092 81200 333 59010;EQDQ01  00002PRCP99
0186483310999992000111212004+18760+100770FM-12+0201VTCN V0209999C000012200019N0120001N1+02501+02201101031ADDAA199000091GF101991011011008001001001KA1120M+03201MA1999999098731MD1999999-0171REMSYN076AAXX  12124 48331 32562 10000 10250 20220 39873 40103 81100 333 10320 59017;EQDQ01  00002PRCP99
0167483310999992000111215004+18760+100770FM-12+0201VTCN V0209999C000012200019N0100001N1+02181+01981101271ADDAA199000091GF102991021011008001001001MA1999999098951MD1999999-0121REMSYN070AAXX  12154 48331 32560 20000 10218 20198 39895 40127 82100 333 59012;EQDQ01  00002PRCP99
0167483310999992000111218004+18760+100770FM-12+0201VTCN V0209999C000012200019N0100001N1+02061+01981101251ADDAA199000091GF104991031051008001001011MA1999999098921MD1999999-0161REMSYN070AAXX  12184 48331 32560 40000 10206 20198 39892 40125 83501 333 59016;EQDQ01  00002PRCP99
0195483310999992000111221004+18760+100770FM-12+0201VTCN V0209999C000012200019N0008001N1+01961+01891101241ADDAA199000091AY101031AY201031GF102991021051008001001001MA1999999098901MD1999999-0141MW1461REMSYN076AAXX  12214 48331 31508 20000 10196 20189 39890 40124 74600 82500 333 59014;EQDQ01  00002PRCP99
0230483310999992000111300004+18760+100770FM-12+0201VTCN V0209999C000010001519N0000001N1+01981+01931101401ADDAA199000091AY141061AY201061GA1091+999999999GF109991091999999999999999KA1120N+01841MA1999999099041MD1999999-0211MW1471REMSYN082AAXX  13004 48331 31/00 90000 10198 20193 39904 40140 74740 89/// 333 20184 59021;EQDQ01  00002PRCP99
0195483310999992000111306004+18760+100770FM-12+0201VTCN V0209999C000012200019N0120001N1+02951+02041101051ADDAA199000091AY141061AY201061GF102991021021008001001001MA1999999098791MD1999999-0121MW1031REMSYN076AAXX  13064 48331 31562 20000 10295 20204 39879 40105 70340 82200 333 59012;EQDQ01  00002PRCP99
0167483310999992000111309004+18760+100770FM-12+0201VTCN V0209999C000012200019N0150001N1+03041+01991100881ADDAA199000091GF101991011011008001001001MA1999999098621MD1999999-0041REMSYN070AAXX  13094 48331 32565 10000 10304 20199 39862 40088 81100 333 59004;EQDQ01  00002PRCP99
0167483310999992000111315004+18760+100770FM-12+0201VTCN V0209999C000012200019N0150001N1+02201+02041101221ADDAA199000091GF101991011011008001001001MA1999999098901MD1999999-0051REMSYN070AAXX  13154 48331 32565 10000 10220 20204 39890 40122 81100 333 59005;EQDQ01  00002PRCP99
0195483310999992000111318004+18760+100770FM-12+0201VTCN V0209999C000012200019N0060001N1+02051+01971101241ADDAA199000091AY101061AY201061GF101991011011008001001001MA1999999098901MD1999999-0011MW1101REMSYN076AAXX  13184 48331 31556 10000 10205 20197 39890 40124 71000 81100 333 59001;EQDQ01  00002PRCP99
0180483310999992000111321004+18760+100770FM-12+0201VTCN V0209999C000012200019N0050001N1+01951+01871101211ADDAA199000091AY101031AY201031GF101991011011008001001001MA1999999098871MW1101REMSYN075AAXX  13214 48331 31550 10000 10195 20187 39887 40121 71000 81100 333 5003;EQDQ01  00002PRCP99
0214483310999992000111400004+18760+100770FM-12+0201VTCN V0209999C000012200019N0060001N1+01901+01831101391ADDAA199000091AY111061AY201061GF104991021061004501051011KA1120N+01781MA1999999099031MD1999999-0011MW1101REMSYN082AAXX  14004 48331 31456 40000 10190 20183 39903 40139 71010 82651 333 20178 59001;EQDQ01  00002PRCP99
0167483310999992000111403004+18760+100770FM-12+0201VTCN V0200401N001012200019N0120001N1+02601+02071101471ADDAA199000091GF104991041001999999051001MA1999999099171MD1999999+0021REMSYN070AAXX  14034 48331 32962 40402 10260 20207 39917 40147 84050 333 58002;EQDQ01  00002PRCP99
0167483310999992000111406004+18760+100770FM-12+0201VTCN V0203401N000512200019N0150001N1+03001+02021101121ADDAA199000091GF102991011021008001041011MA1999999098861MD1999999+0071REMSYN070AAXX  14064 48331 32565 23401 10300 20202 39886 40112 81241 333 58007;EQDQ01  00002PRCP99
0167483310999992000111409004+18760+100770FM-12+0201VTCN V0209999C000012200019N0150001N1+03011+01841100931ADDAA199000091GF102991011021008001001051MA1999999098671MD1999999+0051REMSYN070AAXX  14094 48331 32565 20000 10301 20184 39867 40093 81205 333 58005;EQDQ01  00002PRCP99
0196483310999992000111412004+18760+100770FM-12+0201VTCN V0209999C000012200019N0120001N1+02501+02121101111ADDAA199000091GA1001+999999999GF100991001001999999001001KA1120M+03171MA1999999098811MD1999999+0121REMSYN070AAXX  14124 48331 32962 00000 10250 20212 39881 40111 333 10317 58012;EQDQ01  00002PRCP99
0167483310999992000111415004+18760+100770FM-12+0201VTCN V0209999C000012200019N0120001N1+02311+02141101271ADDAA199000091GF104991041001999999051001MA1999999098951MD1999999+0051REMSYN070AAXX  14154 48331 32962 40000 10231 20214 39895 40127 84050 333 58005;EQDQ01  00002PRCP99
0167483310999992000111418004+18760+100770FM-12+0201VTCN V0209999C000012200019N0120001N1+02151+02021101251ADDAA199000091GF102991021001999999051001MA1999999098911MD1999999+0011REMSYN070AAXX  14184 48331 32962 20000 10215 20202 39891 40125 82050 333 58001;EQDQ01  00002PRCP99
0167483310999992000111421004+18760+100770FM-12+0201VTCN V0209999C000012200019N0100001N1+02041+01941101201ADDAA199000091GF102991001001999999001011MA1999999098861MD1999999-0011REMSYN070AAXX  14214 48331 32960 20000 10204 20194 39886 40120 80001 333 59001;EQDQ01  00002PRCP99
0224483310999992000111500004+18760+100770FM-12+0201VTCN V0209999C000010001519N0000001N1+01961+01931101391ADDAA199000091AY141061AY201061GA1091+999999999GF109991091999999999999999KA1120N+01851MA1999999099031MD1999999+0001MW1471REMSYN076AAXX  15004 48331 31/00 90000 10196 20193 39903 40139 74740 333 20185 58000;EQDQ01  00002PRCP99
0195483310999992000111503004+18760+100770FM-12+0201VTCN V0209999C000012200019N0100001N1+02471+02091101501ADDAA199000091AY141031AY201031GF101991011011008001001001MA1999999099191MD1999999+0031MW1031REMSYN076AAXX  15034 48331 31560 10000 10247 20209 39919 40150 70340 81100 333 58003;EQDQ01  00002PRCP99
0195483310999992000111506004+18760+100770FM-12+0201VTCN V0209999C000012200019N0150001N1+03181+02141101151ADDAA199000091AY141061AY201061GF101991011021008001001001MA1999999098911MD1999999+0031MW1021REMSYN076AAXX  15064 48331 31565 10000 10318 20214 39891 40115 70240 81200 333 58003;EQDQ01  00002PRCP99
0167483310999992000111509004+18760+100770FM-12+0201VTCN V0209999C000012200019N0150001N1+03251+02101100931ADDAA199000091GF102991021021008001001001MA1999999098691MD1999999+0001REMSYN070AAXX  15094 48331 32565 20000 10325 20210 39869 40093 82200 333 58000;EQDQ01  00002PRCP99
0196483310999992000111512004+18760+100770FM-12+0201VTCN V0209999C000012200019N0120001N1+02611+02241101091ADDAA199000091GA1001+999999999GF100991001001999999001001KA1120M+03311MA1999999098801MD1999999-0021REMSYN070AAXX  15124 48331 32962 00000 10261 20224 39880 40109 333 10331 59002;EQDQ01  00002PRCP99
0167483310999992000111515004+18760+100770FM-12+0201VTCN V0209999C000012200019N0100001N1+02341+02171101281ADDAA199000091GF101991011011008001001001MA1999999098961MD1999999+0011REMSYN070AAXX  15154 48331 32560 10000 10234 20217 39896 40128 81100 333 58001;EQDQ01  00002PRCP99
0177483310999992000111518004+18760+100770FM-12+0201VTCN V0209999C000012200019N0100001N1+02181+02051101301ADDAA199000091GA1001+999999999GF100991001001999999001001MA1999999098981MD1999999+0051REMSYN064AAXX  15184 48331 32960 00000 10218 20205 39898 40130 333 58005;EQDQ01  00002PRCP99
0195483310999992000111521004+18760+100770FM-12+0201VTCN V0209999C000012200019N0008001N1+02101+02021101281ADDAA199000091AY101031AY201031GF102991001001999999001011MA1999999098951MD1999999+0081MW1461REMSYN076AAXX  15214 48331 31908 20000 10210 20202 39895 40128 74600 80001 333 58008;EQDQ01  00002PRCP99
0214483310999992000111600004+18760+100770FM-12+0201VTCN V0209999C000012200019N0060001N1+02111+02051101451ADDAA199000091AY111061AY201061GF104991011051008001051001KA1120N+01981MA1999999099111MD1999999+0061MW1101REMSYN082AAXX  16004 48331 31556 40000 10211 20205 39911 40145 71010 81550 333 20198 58006;EQDQ01  00002PRCP99
0195483310999992000111603004+18760+100770FM-12+0201VTCN V0209999C000012200019N0080001N1+02701+02081101531ADDAA199000091AY101031AY201031GF102991021051008001001001MA1999999099231MD1999999+0031MW1101REMSYN076AAXX  16034 48331 31558 20000 10270 20208 39923 40153 71000 82500 333 58003;EQDQ01  00002PRCP99
0167483310999992000111606004+18760+100770FM-12+0201VTCN V0209999C000012200019N0150001N1+03011+02101101181ADDAA199000091GF101991011011008001001001MA1999999098911MD1999999+0031REMSYN070AAXX  16064 48331 32565 10000 10301 20210 39891 40118 81100 333 58003;EQDQ01  00002PRCP99
0167483310999992000111609004+18760+100770FM-12+0201VTCN V0209999C000012200019N0150001N1+03051+01911101031ADDAA199000091GF101991011011008001001001MA1999999098771MD1999999+0101REMSYN070AAXX  16094 48331 32565 10000 10305 20191 39877 40103 81100 333 58010;EQDQ01  00002PRCP99
0186483310999992000111612004+18760+100770FM-12+0201VTCN V0209999C000012200019N0150001N1+02561+02181101311ADDAA199000091GF101991011011008001001001KA1120M+03221MA1999999099001MD1999999+0221REMSYN076AAXX  16124 48331 32565 10000 10256 20218 39900 40131 81100 333 10322 58022;EQDQ01  00002PRCP99
0167483310999992000111615004+18760+100770FM-12+0201VTCN V0209999C000012200019N0120001N1+02221+01951101511ADDAA199000091GF101991011011008001001001MA1999999099171MD1999999+0231REMSYN070AAXX  16154 48331 32562 10000 10222 20195 39917 40151 81100 333 58023;EQDQ01  00002PRCP99
0167483310999992000111618004+18760+100770FM-12+0201VTCN V0209999C000012200019N0120001N1+01961+01801101451ADDAA199000091GF101991011051008001001001MA1999999099101MD1999999+0151REMSYN070AAXX  16184 48331 32562 10000 10196 20180 39910 40145 81500 333 58015;EQDQ01  00002PRCP99
0167483310999992000111621004+18760+100770FM-12+0201VTCN V0209999C000012200019N0100001N1+01841+01741101431ADDAA199000091GF101991011011008001001001MA1999999099061MD1999999+0151REMSYN070AAXX  16214 48331 32560 10000 10184 20174 39906 40143 81100 333 58015;EQDQ01  00002PRCP99
0160483310999992000111700004+18760+100770FM-12+0201VTCN V02099999999999999999N0120001N1+01871+01751101581ADDAA199000091KA1120N+01701MA1999999099221MD1999999+0131REMSYN076AAXX  17004 48331 32562 ///// 10187 20175 39922 40158 82670 333 20170 58013;EQDQ01  00002PRCP99
0167483310999992000111703004+18760+100770FM-12+0201VTCN V0209999C000010450019N0150001N1+02281+01831101601ADDAA199000091GF107991021051008001071001MA1999999099271MD1999999+0071REMSYN070AAXX  17034 48331 32565 70000 10228 20183 39927 40160 82570 333 58007;EQDQ01  00002PRCP99
0167483310999992000111706004+18760+100770FM-12+0201VTCN V0209999C000010450019N0150001N1+02751+01901101251ADDAA199000091GF107991021051008001071001MA1999999098961MD1999999+0071REMSYN070AAXX  17064 48331 32565 70000 10275 20190 39896 40125 82570 333 58007;EQDQ01  00002PRCP99
0167483310999992000111709004+18760+100770FM-12+0201VTCN V0209999C000010450019N0150001N1+02751+02031101101ADDAA199000091GF107991021081008001071001MA1999999098821MD1999999+0071REMSYN070AAXX  17094 48331 32565 70000 10275 20203 39882 40110 82870 333 58007;EQDQ01  00002PRCP99
0186483310999992000111712004+18760+100770FM-12+0201VTCN V0209999C000010450019N0150001N1+02451+02181101211ADDAA199000091GF107991021051008001071001KA1120M+02791MA1999999098901MD1999999-0101REMSYN076AAXX  17124 48331 32565 70000 10245 20218 39890 40121 82570 333 10279 59010;EQDQ01  00002PRCP99
0167483310999992000111715004+18760+100770FM-12+0201VTCN V0209999C000010450019N0120001N1+02321+02141101351ADDAA199000091GF107991021051008001071001MA1999999099021MD1999999-0161REMSYN070AAXX  17154 48331 32562 70000 10232 20214 39902 40135 82570 333 59016;EQDQ01  00002PRCP99
0167483310999992000111718004+18760+100770FM-12+0201VTCN V0209999C000010450019N0120001N1+02251+02101101291ADDAA199000091GF107991021051008001071001MA1999999098971MD1999999-0161REMSYN070AAXX  17184 48331 32562 70000 10225 20210 39897 40129 82570 333 59016;EQDQ01  00002PRCP99
0167483310999992000111721004+18760+100770FM-12+0201VTCN V0209999C000010450019N0120001N1+02201+02091101291ADDAA199000091GF107991041051008001071001MA1999999098961MD1999999-0141REMSYN070AAXX  17214 48331 32562 70000 10220 20209 39896 40129 84570 333 59014;EQDQ01  00002PRCP99
0214483310999992000111800004+18760+100770FM-12+0201VTCN V0209999C000010075019N0080001N1+02201+02121101391ADDAA199000091AY121061AY221061GF107991061051008001071061KA1120N+02081MA1999999099051MD1999999-0191MW1101REMSYN082AAXX  18004 48331 31558 70000 10220 20212 39905 40139 71022 86576 333 20208 59019;EQDQ01  00002PRCP99
0167483310999992000111803004+18760+100770FM-12+0201VTCN V0209999C000010450019N0150001N1+02611+02041101431ADDAA199000091GF105991041051008001041051MA1999999099131MD1999999-0171REMSYN070AAXX  18034 48331 32565 50000 10261 20204 39913 40143 84545 333 59017;EQDQ01  00002PRCP99
0167483310999992000111806004+18760+100770FM-12+0201VTCN V0209999C000012200019N0150001N1+02951+01991101121ADDAA199000091GF103991031081008001001011MA1999999098861MD1999999-0131REMSYN070AAXX  18064 48331 32565 30000 10295 20199 39886 40112 83801 333 59013;EQDQ01  00002PRCP99
0167483310999992000111809004+18760+100770FM-12+0201VTCN V0209999C000010120019N0150001N1+02901+02071101001ADDAA199000091GF106991051081008001041051MA1999999098731MD1999999-0101REMSYN070AAXX  18094 48331 32565 60000 10290 20207 39873 40100 85845 333 59010;EQDQ01  00002PRCP99
0186483310999992000111812004+18760+100770FM-12+0201VTCN V0209999C000010075019N0150001N1+02601+02241101161ADDAA199000091GF106991061051008001071011KA1120M+03001MA1999999098871MD1999999-0051REMSYN076AAXX  18124 48331 32565 60000 10260 20224 39887 40116 86571 333 10300 59005;EQDQ01  00002PRCP99
0167483310999992000111815004+18760+100770FM-12+0201VTCN V0209999C000010450019N0120001N1+02431+02241101271ADDAA199000091GF106991041051008001071051MA1999999098961MD1999999-0081REMSYN070AAXX  18154 48331 32562 60000 10243 20224 39896 40127 84575 333 59008;EQDQ01  00002PRCP99
0167483310999992000111821004+18760+100770FM-12+0201VTCN V0209999C000012200019N0100001N1+02101+02021101191ADDAA199000091GF101991011011008001001001MA1999999098861MD1999999-0101REMSYN070AAXX  18214 48331 32560 10000 10210 20202 39886 40119 81100 333 59010;EQDQ01  00002PRCP99
0214483310999992000111900004+18760+100770FM-12+0201VTCN V0209999C000011050019N0008001N1+02001+01931101391ADDAA199000091AY141061AY221061GF105991021051008001051011KA1120N+01891MA1999999099051MD1999999+0001MW1431REMSYN082AAXX  19004 48331 31508 50000 10200 20193 39905 40139 74342 82551 333 20189 58000;EQDQ01  00002PRCP99
0195483310999992000111903004+18760+100770FM-12+0201VTCN V0200601N001012200019N0120001N1+02601+02051101441ADDAA199000091AY141031AY211031GF102991011011008001051001MA1999999099141MD1999999+0011MW1011REMSYN076AAXX  19034 48331 31562 20602 10260 20205 39914 40144 70141 81150 333 58001;EQDQ01  00002PRCP99
0167483310999992000111906004+18760+100770FM-12+0201VTCN V0201101N001012200019N0150001N1+03111+02161101091ADDAA199000091GF103991031011008001001001MA1999999098841MD1999999-0031REMSYN070AAXX  19064 48331 32565 31102 10311 20216 39884 40109 83100 333 59003;EQDQ01  00002PRCP99
0167483310999992000111909004+18760+100770FM-12+0201VTCN V0209999C000012200019N0150001N1+03171+02151100891ADDAA199000091GF101991011021008001001001MA1999999098641MD1999999-0111REMSYN070AAXX  19094 48331 32565 10000 10317 20215 39864 40089 81200 333 59011;EQDQ01  00002PRCP99
0186483310999992000111912004+18760+100770FM-12+0201VTCN V0209999C000012200019N0120001N1+02601+02301101051ADDAA199000091GF101991011011008001041011KA1120M+03291MA1999999098751MD1999999-0111REMSYN076AAXX  19124 48331 32562 10000 10260 20230 39875 40105 81141 333 10329 59011;EQDQ01  00002PRCP99
0177483310999992000111915004+18760+100770FM-12+0201VTCN V0209999C000012200019N0120001N1+02341+02171101221ADDAA199000091GA1001+999999999GF100991001001999999001001MA1999999098911MD1999999-0051REMSYN064AAXX  19154 48331 32962 00000 10234 20217 39891 40122 333 59005;EQDQ01  00002PRCP99
0177483310999992000111918004+18760+100770FM-12+0201VTCN V0209999C000012200019N0120001N1+02151+02061101231ADDAA199000091GA1001+999999999GF100991001001999999001001MA1999999098901MD1999999-0011REMSYN064AAXX  19184 48331 32962 00000 10215 20206 39890 40123 333 59001;EQDQ01  00002PRCP99
0167483310999992000111921004+18760+100770FM-12+0201VTCN V0209999C000012200019N0100001N1+02051+01971101241ADDAA199000091GF102991001001999999001011MA1999999098901MD1999999+0051REMSYN070AAXX  19214 48331 32960 20000 10205 20197 39890 40124 80001 333 58005;EQDQ01  00002PRCP99
0224483310999992000112000004+18760+100770FM-12+0201VTCN V0209999C000010003019N0004001N1+02031+01971101401ADDAA199000091AY101061AY201061GA1091+999999999GF109991091999999999999999KA1120N+01901MA1999999099051MD1999999+0011MW1471REMSYN076AAXX  20004 48331 31/04 90000 10203 20197 39905 40140 74700 333 20190 58001;EQDQ01  00002PRCP99
0195483310999992000112003004+18760+100770FM-12+0201VTCN V0209999C000012200019N0120001N1+02571+02131101461ADDAA199000091AY141031AY201031GF102991021011008001001001MA1999999099151MD1999999+0021MW1031REMSYN076AAXX  20034 48331 31562 20000 10257 20213 39915 40146 70340 82100 333 58002;EQDQ01  00002PRCP99
0195483310999992000112006004+18760+100770FM-12+0201VTCN V0209999C000012200019N0150001N1+03101+02131101121ADDAA199000091AY141061AY201061GF102991021021008001001001MA1999999098851MD1999999+0031MW1021REMSYN076AAXX  20064 48331 31565 20000 10310 20213 39885 40112 70240 82200 333 58003;EQDQ01  00002PRCP99
0167483310999992000112009004+18760+100770FM-12+0201VTCN V0209999C000012200019N0150001N1+03171+02151100891ADDAA199000091GF102991021021008001001001MA1999999098641MD1999999+0001REMSYN070AAXX  20094 48331 32565 20000 10317 20215 39864 40089 82200 333 58000;EQDQ01  00002PRCP99
0186483310999992000112012004+18760+100770FM-12+0201VTCN V0209999C000012200019N0150001N1+02661+02291101091ADDAA199000091GF104991041031008001041011KA1120M+03301MA1999999098801MD1999999+0041REMSYN076AAXX  20124 48331 32565 40000 10266 20229 39880 40109 84341 333 10330 58004;EQDQ01  00002PRCP99
0182483310999992000112015004+18760+100770FM-12+0201VTCN V0209999C000012200019N0120001N1+02411+02251101301ADDAA102001091AY161031AY211031GF102991021051008001001001MA1999999098991MD1999999+0071MW1011REMSYN082AAXX  20154 48331 21562 20000 10241 20225 39899 40130 70161 82500 333 58007 60016;
0188483310999992000112018004+18760+100770FM-12+0201VTCN V0209999C000012200019N0120001N1+02221+02111101341ADDAA118001091AY161061AY211061GF101991011011008001001001MA1999999099001MD1999999+0111MW1011REMSYN088AAXX  20184 48331 11562 10000 10222 20211 39900 40134 60013 70161 81100 333 58011 70012;
0182483310999992000112021004+18760+100770FM-12+0201VTCN V0209999C000012200019N0100001N1+02081+02031101311ADDAA102000191AY161031AY201031GF101991011011008001001001MA1999999098981MD1999999+0071MW1021REMSYN082AAXX  20214 48331 21560 10000 10208 20203 39898 40131 70260 81100 333 58007 69926;
0179483310999992000112100004+18760+100770FM-12+0201VTCN V0209999C000012200019N0120001N1+01921+01841101511ADDAA124001091GF103991021001999999051011KA1120N+01821MA1999999099161MD1999999+0111REMSYN088AAXX  21004 48331 12962 30000 10192 20184 39916 40151 60014 82051 333 20182 58011 70014;
0167483310999992000112103004+18760+100770FM-12+0201VTCN V0202301N001012200019N0150001N1+02541+01761101641ADDAA199000091GF102991011021008001041011MA1999999099331MD1999999+0181REMSYN070AAXX  21034 48331 32565 22302 10254 20176 39933 40164 81241 333 58018;EQDQ01  00002PRCP99
0154483310999992000112106004+18760+100770FM-12+0201VTCN V0203601N001510075019N0150001N1+02701+01941101321ADDAA124001591GF106991051021008001051011MA1999999099031MD1999999+0211REMSYN076AAXX  21064 48331 32565 63603 10270 20194 39903 40132 85251 333 58021 70014;
0168483310999992000112109004+18760+100770FM-12+0201VTCN V0209999C000012200019N0150001N1+02851+02081101111ADDAA199000091GF103991011021008001001011MD1999999+0221REMSYN070AAXX  21094 48331 32565 30000 10285 20208 39983 40111 81201 333 58022;EQDQ01+099833APOSP Q02  00002PRCP99
0173483310999992000112112004+18760+100770FM-12+0201VTCN V0209999C000012200019N0150001N1+02451+02021101351ADDAA124001591GF102991011011008001041011KA1120M+02931MA1999999099041MD1999999+0261REMSYN082AAXX  21124 48331 32565 20000 10245 20202 39904 40135 81141 333 10293 58026 70014;
0177483310999992000112115004+18760+100770FM-12+0201VTCN V0209999C000012200019N0120001N1+02141+01871101591ADDAA199000091GA1001+999999999GF100991001001999999001001MA1999999099251MD1999999+0291REMSYN064AAXX  21154 48331 32962 00000 10214 20187 39925 40159 333 58029;EQDQ01  00002PRCP99
0154483310999992000112118004+18760+100770FM-12+0201VTCN V0209999C000012200019N0120001N1+01921+01751101621ADDAA124000391GF102991021051008001001011MA1999999099261MD1999999+0281REMSYN076AAXX  21184 48331 32562 20000 10192 20175 39926 40162 82501 333 58028 70002;
0167483310999992000112121004+18760+100770FM-12+0201VTCN V0209999C000019999999N0120001N1+01931+01711101561ADDAA199000091GF106991061001999999051001MA1999999099201MD1999999+0251REMSYN070AAXX  21214 48331 32962 60000 10193 20171 39920 40156 86050 333 58025;EQDQ01  00002PRCP99
0186483310999992000112200004+18760+100770FM-12+0201VTCN V0209999C000012200019N0100001N1+01841+01691101681ADDAA199000091GF101991001001999999001011KA1120N+01741MA1999999099311MD1999999+0171REMSYN076AAXX  22004 48331 32960 10000 10184 20169 39931 40168 80001 333 20174 58017;EQDQ01  00002PRCP99
0177483310999992000112203004+18760+100770FM-12+0201VTCN V0209999C000012200019N0120001N1+02401+01761101781ADDAA199000091GA1001+999999999GF100991001001999999001001MA1999999099451MD1999999+0141REMSYN064AAXX  22034 48331 32962 00000 10240 20176 39945 40178 333 58014;EQDQ01  00002PRCP99
0177483310999992000112206004+18760+100770FM-12+0201VTCN V0209999C000012200019N0150001N1+02811+01861101411ADDAA199000091GA1001+999999999GF100991001001999999001001MA1999999099121MD1999999+0091REMSYN064AAXX  22064 48331 32965 00000 10281 20186 39912 40141 333 58009;EQDQ01  00002PRCP99
0183483310999992000112209004+18760+100770FM-12+0201VTCN V0209999C000012200019N0150001N1+02851+01801101171ADDAA199000091GF101991001001999999001011MA1999999098901MD1999999+0061REMSYN070AAXX  22094 48331 32565 10000 10285 20180 39890 40117 80001 333 58006;EQDQ01+008002SCOLCBQ02  00002PRCP99
0186483310999992000112212004+18760+100770FM-12+0201VTCN V0209999C000012200019N0120001N1+02421+02021101421ADDAA199000091GF101991001001999999001011KA1120M+02961MA1999999099091MD1999999+0071REMSYN076AAXX  22124 48331 32962 10000 10242 20202 39909 40142 80001 333 10296 58007;EQDQ01  00002PRCP99
0177483310999992000112215004+18760+100770FM-12+0201VTCN V0209999C000012200019N0120001N1+02111+01931101651ADDAA199000091GA1001+999999999GF100991001001999999001001MA1999999099301MD1999999+0061REMSYN064AAXX  22154 48331 32962 00000 10211 20193 39930 40165 333 58006;EQDQ01  00002PRCP99
0205483310999992000112218004+18760+100770FM-12+0201VTCN V0209999C000012200019N0080001N1+01931+01811101691ADDAA199000091AY101061AY201061GA1001+999999999GF100991001001999999001001MA1999999099331MD1999999+0071MW1101REMSYN070AAXX  22184 48331 31958 00000 10193 20181 39933 40169 71000 333 58007;EQDQ01  00002PRCP99
0205483310999992000112221004+18760+100770FM-12+0201VTCN V0209999C000012200019N0080001N1+01771+01701101661ADDAA199000091AY101031AY201031GA1001+999999999GF100991001001999999001001MA1999999099291MD1999999+0101MW1101REMSYN070AAXX  22214 48331 31958 00000 10177 20170 39929 40166 71000 333 58010;EQDQ01  00002PRCP99
0224483310999992000112300004+18760+100770FM-12+0201VTCN V0209999C000010006019N0008001N1+01731+01681101781ADDAA199000091AY141061AY201061GA1091+999999999GF109991091999999999999999KA1120N+01621MA1999999099401MD1999999+0101MW1431REMSYN076AAXX  23004 48331 31/08 90000 10173 20168 39940 40178 74340 333 20162 58010;EQDQ01  00002PRCP99
0195483310999992000112303004+18760+100770FM-12+0201VTCN V0201801N001012200019N0080001N1+02381+01771101821ADDAA199000091AY141031AY201031GF102991021061008001001011MA1999999099491MD1999999+0041MW1101REMSYN076AAXX  23034 48331 31558 21802 10238 20177 39949 40182 71040 82601 333 58004;EQDQ01  00002PRCP99
0167483310999992000112306004+18760+100770FM-12+0201VTCN V0209999C000012200019N0150001N1+02851+01841101401ADDAA199000091GF102991011021008001001011MA1999999099121MD1999999-0011REMSYN070AAXX  23064 48331 32565 20000 10285 20184 39912 40140 81201 333 59001;EQDQ01  00002PRCP99
0167483310999992000112309004+18760+100770FM-12+0201VTCN V0209999C000012200019N0150001N1+02901+01901101181ADDAA199000091GF103991011011008001001051MA1999999098911MD1999999+0011REMSYN070AAXX  23094 48331 32565 30000 10290 20190 39891 40118 81105 333 58001;EQDQ01  00002PRCP99
0186483310999992000112312004+18760+100770FM-12+0201VTCN V0209999C000012200019N0120001N1+02421+02111101321ADDAA199000091GF104991011011008001001061KA1120M+03001MA1999999099011MD1999999-0101REMSYN076AAXX  23124 48331 32562 40000 10242 20211 39901 40132 81106 333 10300 59010;EQDQ01  00002PRCP99
0169483310999992000112315004+18760+100770FM-12+0201VTCN V02099999999999999999N0080001N1+02151+01991101521ADDAA199000091AY121031AY211031MA1999999099181MD1999999-0131MW1101REMSYN076AAXX  23154 48331 31558 ///// 10215 20199 39918 40152 71021 84576 333 59013;EQDQ01  00002PRCP99
0195483310999992000112318004+18760+100770FM-12+0201VTCN V0209999C000012200019N0003001N1+01951+01871101451ADDAA199000091AY111061AY201061GF102991001001999999001011MA1999999099101MD1999999-0241MW1461REMSYN076AAXX  23184 48331 31903 20000 10195 20187 39910 40145 74610 80001 333 59024;EQDQ01  00002PRCP99
0195483310999992000112321004+18760+100770FM-12+0201VTCN V0209999C000012200019N0080001N1+01831+01761101371ADDAA199000091AY141031AY201031GF102991001001999999001011MA1999999099011MD1999999-0291MW1101REMSYN076AAXX  23214 48331 31958 20000 10183 20176 39901 40137 71040 80001 333 59029;EQDQ01  00002PRCP99
0214483310999992000112400004+18760+100770FM-12+0201VTCN V0209999C000012200019N0080001N1+01741+01671101501ADDAA199000091AY141061AY201061GF103991021051008001001011KA1120N+01631MA1999999099121MD1999999-0201MW1101REMSYN082AAXX  24004 48331 31558 30000 10174 20167 39912 40150 71040 82501 333 20163 59020;EQDQ01  00002PRCP99
0167483310999992000112403004+18760+100770FM-12+0201VTCN V0209999C000012200019N0120001N1+02421+01921101591ADDAA199000091GF104991021011008001001011MA1999999099271MD1999999-0231REMSYN070AAXX  24034 48331 32562 40000 10242 20192 39927 40159 82101 333 59023;EQDQ01  00002PRCP99
0167483310999992000112406004+18760+100770FM-12+0201VTCN V0209999C000010450019N0150001N1+02761+01891101181ADDAA199000091GF106991041051008001051061MA1999999098901MD1999999-0221REMSYN070AAXX  24064 48331 32565 60000 10276 20189 39890 40118 84556 333 59022;EQDQ01  00002PRCP99
0167483310999992000112409004+18760+100770FM-12+0201VTCN V0209999C000012200019N0150001N1+02761+02031100961ADDAA199000091GF102991021051008001041011MA1999999098691MD1999999-0221REMSYN070AAXX  24094 48331 32565 20000 10276 20203 39869 40096 82541 333 59022;EQDQ01  00002PRCP99
0186483310999992000112412004+18760+100770FM-12+0201VTCN V0209999C000012200019N0120001N1+02291+02071101121ADDAA199000091GF101991011011008001001001KA1120M+02951MA1999999098801MD1999999-0201REMSYN076AAXX  24124 48331 32562 10000 10229 20207 39880 40112 81100 333 10295 59020;EQDQ01  00002PRCP99
0177483310999992000112415004+18760+100770FM-12+0201VTCN V0209999C000012200019N0120001N1+02011+01881101291ADDAA199000091GA1001+999999999GF100991001001999999001001MA1999999098951MD1999999-0231REMSYN064AAXX  24154 48331 32962 00000 10201 20188 39895 40129 333 59023;EQDQ01  00002PRCP99
0205483310999992000112418004+18760+100770FM-12+0201VTCN V0209999C000012200019N0002001N1+01861+01811101311ADDAA199000091AY101061AY201061GA1001+999999999GF100991001001999999001001MA1999999098961MD1999999-0141MW1461REMSYN070AAXX  24184 48331 31902 00000 10186 20181 39896 40131 74600 333 59014;EQDQ01  00002PRCP99
0205483310999992000112421004+18760+100770FM-12+0201VTCN V0209999C000012200019N0002001N1+01771+01731101291ADDAA199000091AY141031AY241031GA1001+999999999GF100991001001999999001001MA1999999098941MD1999999-0081MW1441REMSYN070AAXX  24214 48331 31902 00000 10177 20173 39894 40129 74444 333 59008;EQDQ01  00002PRCP99
0230483310999992000112500004+18760+100770FM-12+0201VTCN V0209999C000010001519N0000001N1+01661+01621101491ADDAA199000091AY141061AY241061GA1091+999999999GF109991091999999999999999KA1120N+01551MA1999999099111MD1999999-0011MW1471REMSYN082AAXX  25004 48331 31/00 90000 10166 20162 39911 40149 74744 89/// 333 20155 59001;EQDQ01  00002PRCP99
0195483310999992000112503004+18760+100770FM-12+0201VTCN V0209999C000012200019N0080001N1+02381+01771101501ADDAA199000091AY141031AY241031GF101991011051008001001001MA1999999099181MD1999999-0091MW1101REMSYN076AAXX  25034 48331 31558 10000 10238 20177 39918 40150 71044 81500 333 59009;EQDQ01  00002PRCP99
0195483310999992000112506004+18760+100770FM-12+0201VTCN V0209999C000012200019N0120001N1+02971+01941101101ADDAA199000091AY141061AY201061GF101991011011008001001001MA1999999098841MD1999999-0081MW1021REMSYN076AAXX  25064 48331 31562 10000 10297 20194 39884 40110 70240 81100 333 59008;EQDQ01  00002PRCP99
0167483310999992000112509004+18760+100770FM-12+0201VTCN V0209999C000012200019N0150001N1+03111+01971100931ADDAA199000091GF101991011011008001001001MA1999999098671MD1999999-0031REMSYN070AAXX  25094 48331 32565 10000 10311 20197 39867 40093 81100 333 59003;EQDQ01  00002PRCP99
0186483310999992000112512004+18760+100770FM-12+0201VTCN V0209999C000012200019N0150001N1+02541+02181101081ADDAA199000091GF101991011011008001001001KA1120M+03231MA1999999098781MD1999999-0041REMSYN076AAXX  25124 48331 32565 10000 10254 20218 39878 40108 81100 333 10323 59004;EQDQ01  00002PRCP99
0167483310999992000112515004+18760+100770FM-12+0201VTCN V0209999C000012200019N0120001N1+02241+02091101271ADDAA199000091GF101991011011008001001001MA1999999098951MD1999999-0021REMSYN070AAXX  25154 48331 32562 10000 10224 20209 39895 40127 81100 333 59002;EQDQ01  00002PRCP99
0177483310999992000112518004+18760+100770FM-12+0201VTCN V0209999C000012200019N0120001N1+02071+01941101291ADDAA199000091GA1001+999999999GF100991001001999999001001MA1999999098961MD1999999-0021REMSYN064AAXX  25184 48331 32962 00000 10207 20194 39896 40129 333 59002;EQDQ01  00002PRCP99
0177483310999992000112521004+18760+100770FM-12+0201VTCN V0209999C000012200019N0100001N1+01941+01861101301ADDAA199000091GA1001+999999999GF100991001001999999001001MA1999999098951MD1999999+0011REMSYN064AAXX  25214 48331 32960 00000 10194 20186 39895 40130 333 58001;EQDQ01  00002PRCP99
0214483310999992000112600004+18760+100770FM-12+0201VTCN V0209999C000012200019N0060001N1+01881+01831101461ADDAA199000091AY101061AY201061GF103991021051008001001011KA1120N+01761MA1999999099101MD1999999-0031MW1101REMSYN082AAXX  26004 48331 31556 30000 10188 20183 39910 40146 71000 82501 333 20176 59003;EQDQ01  00002PRCP99
0167483310999992000112603004+18760+100770FM-12+0201VTCN V0209999C000012200019N0150001N1+02551+02011101561ADDAA199000091GF102991011011008001001011MA1999999099251MD1999999+0061REMSYN070AAXX  26034 48331 32565 20000 10255 20201 39925 40156 81101 333 58006;EQDQ01  00002PRCP99
0167483310999992000112606004+18760+100770FM-12+0201VTCN V0203001N001012200019N0150001N1+03151+02121101251ADDAA199000091GF104991031021008001051011MA1999999099001MD1999999+0151REMSYN070AAXX  26064 48331 32565 43002 10315 20212 39900 40125 83251 333 58015;EQDQ01  00002PRCP99
0167483310999992000112609004+18760+100770FM-12+0201VTCN V0209999C000010450019N0150001N1+03001+02311101101ADDAA199000091GF106991041031008001071011MA1999999098841MD1999999+0171REMSYN070AAXX  26094 48331 32565 60000 10300 20231 39884 40110 84371 333 58017;EQDQ01  00002PRCP99
0214483310999992000112612004+18760+100770FM-12+0201VTCN V0209999C000012200019N0080001N1+02601+02291101231ADDAA199000091AY111061AY201061GF104991021051008001051011KA1120M+03201MA1999999098931MD1999999+0151MW1101REMSYN082AAXX  26124 48331 31558 40000 10260 20229 39893 40123 71010 82551 333 10320 58015;EQDQ01  00002PRCP99
0195483310999992000112615004+18760+100770FM-12+0201VTCN V0209999C000011050019N0080001N1+02401+02251101461ADDAA199000091AY111031AY201031GF105991021051008001071011MA1999999099141MD1999999+0191MW1101REMSYN076AAXX  26154 48331 31558 50000 10240 20225 39914 40146 71010 82571 333 58019;EQDQ01  00002PRCP99
0205483310999992000112618004+18760+100770FM-12+0201VTCN V0209999C000012200019N0080001N1+02261+02171101431ADDAA199000091AY101061AY201061GA1001+999999999GF100991001001999999001001MA1999999099101MD1999999+0151MW1101REMSYN070AAXX  26184 48331 31958 00000 10226 20217 39910 40143 71000 333 58015;EQDQ01  00002PRCP99
0205483310999992000112621004+18760+100770FM-12+0201VTCN V0209999C000012200019N0005001N1+02151+02071101341ADDAA199000091AY101031AY201031GA1001+999999999GF100991001001999999001001MA1999999099001MD1999999+0041MW1461REMSYN070AAXX  26214 48331 31905 00000 10215 20207 39900 40134 74600 333 58004;EQDQ01  00002PRCP99
0214483310999992000112700004+18760+100770FM-12+0201VTCN V0209999C000012200019N0040001N1+02071+01991101491ADDAA199000091AY141061AY201061GF104991041051008001001011KA1120N+01951MA1999999099141MD1999999+0031MW1101REMSYN082AAXX  27004 48331 31540 40000 10207 20199 39914 40149 71040 84501 333 20195 58003;EQDQ01  00002PRCP99
0167483310999992000112703004+18760+100770FM-12+0201VTCN V0209999C000012200019N0150001N1+02701+02181101611ADDAA199000091GF102991021011008001001001MA1999999099311MD1999999+0051REMSYN070AAXX  27034 48331 32565 20000 10270 20218 39931 40161 82100 333 58005;EQDQ01  00002PRCP99
0167483310999992000112706004+18760+100770FM-12+0201VTCN V0209999C000012200019N0150001N1+03201+02181101281ADDAA199000091GF103991031051008001001001MA1999999099021MD1999999+0031REMSYN070AAXX  27064 48331 32565 30000 10320 20218 39902 40128 83500 333 58003;EQDQ01  00002PRCP99
0167483310999992000112709004+18760+100770FM-12+0201VTCN V0209999C000012200019N0150001N1+03301+02231101061ADDAA199000091GF103991031081008001001001MA1999999098821MD1999999-0041REMSYN070AAXX  27094 48331 32565 30000 10330 20223 39882 40106 83800 333 59004;EQDQ01  00002PRCP99
0186483310999992000112712004+18760+100770FM-12+0201VTCN V0209999C000012200019N0150001N1+02701+02261101251ADDAA199000091GF102991021011008001001011KA1120M+03371MA1999999098961MD1999999+0021REMSYN076AAXX  27124 48331 32565 20000 10270 20226 39896 40125 82101 333 10337 58002;EQDQ01  00002PRCP99
0177483310999992000112715004+18760+100770FM-12+0201VTCN V0209999C000012200019N0120001N1+02431+02171101391ADDAA199000091GA1001+999999999GF100991001001999999001001MA1999999099071MD1999999-0071REMSYN064AAXX  27154 48331 32962 00000 10243 20217 39907 40139 333 59007;EQDQ01  00002PRCP99
0177483310999992000112721004+18760+100770FM-12+0201VTCN V0209999C000012200019N0100001N1+02161+02071101311ADDAA199000091GA1001+999999999GF100991001001999999001001MA1999999098991MD1999999-0031REMSYN064AAXX  27214 48331 32960 00000 10216 20207 39899 40131 333 59003;EQDQ01  00002PRCP99
0214483310999992000112800004+18760+100770FM-12+0201VTCN V0209999C000012200019N0006001N1+02151+02071101461ADDAA199000091AY141061AY201061GF102991001001999999001011KA1120N+02011MA1999999099121MD1999999-0031MW1461REMSYN082AAXX  28004 48331 31906 20000 10215 20207 39912 40146 74640 80001 333 20201 59003;EQDQ01  00002PRCP99
0195483310999992000112803004+18760+100770FM-12+0201VTCN V0209999C000011050019N0080001N1+02451+02191101581ADDAA199000091AY141031AY221031GF106991021051008001051061MA1999999099261MD1999999-0031MW1101REMSYN076AAXX  28034 48331 31558 60000 10245 20219 39926 40158 71042 82556 333 59003;EQDQ01  00002PRCP99
0195483310999992000112806004+18760+100770FM-12+0201VTCN V0209999C000012200019N0150001N1+03101+02191101231ADDAA199000091AY141061AY201061GF103991031051008001001001MA1999999098981MD1999999-0051MW1011REMSYN076AAXX  28064 48331 31565 30000 10310 20219 39898 40123 70140 83500 333 59005;EQDQ01  00002PRCP99
0167483310999992000112809004+18760+100770FM-12+0201VTCN V0209999C000012200019N0150001N1+03171+02181100971ADDAA199000091GF103991031051008001001001MA1999999098731MD1999999-0091REMSYN070AAXX  28094 48331 32565 30000 10317 20218 39873 40097 83500 333 59009;EQDQ01  00002PRCP99
0186483310999992000112812004+18760+100770FM-12+0201VTCN V0209999C000012200019N0150001N1+02651+02301101071ADDAA199000091GF102991021051008001001001KA1120M+03281MA1999999098791MD1999999-0181REMSYN076AAXX  28124 48331 32565 20000 10265 20230 39879 40107 82500 333 10328 59018;EQDQ01  00002PRCP99
0177483310999992000112815004+18760+100770FM-12+0201VTCN V0209999C000012200019N0100001N1+02381+02181101301ADDAA199000091GA1001+999999999GF100991001001999999001001MA1999999098991MD1999999-0091REMSYN064AAXX  28154 48331 32960 00000 10238 20218 39899 40130 333 59009;EQDQ01  00002PRCP99
0177483310999992000112818004+18760+100770FM-12+0201VTCN V0209999C000012200019N0100001N1+02201+02061101301ADDAA199000091GA1001+999999999GF100991001001999999001001MA1999999098981MD1999999-0061REMSYN064AAXX  28184 48331 32960 00000 10220 20206 39898 40130 333 59006;EQDQ01  00002PRCP99
0211483310999992000112821004+18760+100770FM-12+0201VTCN V0209999C000010003019N0002001N1+02131+02051101261ADDAA199000091AY101031AY201031GA1091+999999999GF109991091999999999999999MA1999999098931MD1999999-0051MW1471REMSYN076AAXX  28214 48331 31/02 90000 10213 20205 39893 40126 74700 89/// 333 59005;EQDQ01  00002PRCP99
0224483310999992000112900004+18760+100770FM-12+0201VTCN V0209999C000010003019N0003001N1+02091+02041101401ADDAA199000091AY141061AY201061GA1091+999999999GF109991091999999999999999KA1120N+01961MA1999999099061MD1999999-0061MW1471REMSYN076AAXX  29004 48331 31/03 90000 10209 20204 39906 40140 74740 333 20196 59006;EQDQ01  00002PRCP99
0195483310999992000112903004+18760+100770FM-12+0201VTCN V0209999C000012200019N0120001N1+02421+02161101481ADDAA199000091AY141031AY211031GF103991021061008001051011MA1999999099161MD1999999-0101MW1011REMSYN076AAXX  29034 48331 31562 30000 10242 20216 39916 40148 70141 82651 333 59010;EQDQ01  00002PRCP99
0167483310999992000112906004+18760+100770FM-12+0201VTCN V0203001N000512200019N0150001N1+03011+02011101111ADDAA199000091GF102991021011008001001001MA1999999098841MD1999999-0121REMSYN070AAXX  29064 48331 32565 23001 10301 20201 39884 40111 82100 333 59012;EQDQ01  00002PRCP99
0167483310999992000112909004+18760+100770FM-12+0201VTCN V0209999C000012200019N0150001N1+03201+02001100931ADDAA199000091GF101991011031008001001001MA1999999098681MD1999999-0041REMSYN070AAXX  29094 48331 32565 10000 10320 20200 39868 40093 81300 333 59004;EQDQ01  00002PRCP99
0196483310999992000112912004+18760+100770FM-12+0201VTCN V0209999C000012200019N0120001N1+02571+02191101111ADDAA199000091GA1001+999999999GF100991001001999999001001KA1120M+03281MA1999999098811MD1999999+0041REMSYN070AAXX  29124 48331 32962 00000 10257 20219 39881 40111 333 10328 58004;EQDQ01  00002PRCP99
0177483310999992000112915004+18760+100770FM-12+0201VTCN V0209999C000012200019N0120001N1+02351+02141101331ADDAA199000091GA1001+999999999GF100991001001999999001001MA1999999099011MD1999999+0031REMSYN064AAXX  29154 48331 32962 00000 10235 20214 39901 40133 333 58003;EQDQ01  00002PRCP99
0177483310999992000112918004+18760+100770FM-12+0201VTCN V0209999C000012200019N0100001N1+02151+02061101351ADDAA199000091GA1001+999999999GF100991001001999999001001MA1999999099021MD1999999+0051REMSYN064AAXX  29184 48331 32960 00000 10215 20206 39902 40135 333 58005;EQDQ01  00002PRCP99
0205483310999992000112921004+18760+100770FM-12+0201VTCN V0209999C000012200019N0080001N1+02061+01961101301ADDAA199000091AY101031AY201031GA1001+999999999GF100991001001999999001001MA1999999098961MD1999999+0041MW1101REMSYN070AAXX  29214 48331 31958 00000 10206 20196 39896 40130 71000 333 58004;EQDQ01  00002PRCP99
0214483310999992000113000004+18760+100770FM-12+0201VTCN V0209999C000010075019N0040001N1+02001+01921101441ADDAA199000091AY111061AY201061GF106991051061008001001011KA1120N+01871MA1999999099091MD1999999+0041MW1101REMSYN082AAXX  30004 48331 31540 60000 10200 20192 39909 40144 71010 85601 333 20187 58004;EQDQ01  00002PRCP99
0167483310999992000113003004+18760+100770FM-12+0201VTCN V0209999C000010075019N0120001N1+02291+02071101571ADDAA199000091GF105991051051008001001011MA1999999099241MD1999999+0091REMSYN070AAXX  30034 48331 32562 50000 10229 20207 39924 40157 85501 333 58009;EQDQ01  00002PRCP99
0167483310999992000113006004+18760+100770FM-12+0201VTCN V0209999C000012200019N0150001N1+03081+02061101141ADDAA199000091GF102991021021008001001011MA1999999098891MD1999999+0031REMSYN070AAXX  30064 48331 32565 20000 10308 20206 39889 40114 82201 333 58003;EQDQ01  00002PRCP99
0167483310999992000113009004+18760+100770FM-12+0201VTCN V0209999C000012200019N0150001N1+03211+02091100941ADDAA199000091GF102991021021008001001011MA1999999098691MD1999999+0011REMSYN070AAXX  30094 48331 32565 20000 10321 20209 39869 40094 82201 333 58001;EQDQ01  00002PRCP99
0186483310999992000113012004+18760+100770FM-12+0201VTCN V0209999C000012200019N0150001N1+02651+02361101041ADDAA199000091GF101991011011008001001001KA1120M+03291MA1999999098761MD1999999-0071REMSYN076AAXX  30124 48331 32565 10000 10265 20236 39876 40104 81100 333 10329 59007;EQDQ01  00002PRCP99
0177483310999992000113015004+18760+100770FM-12+0201VTCN V0209999C000012200019N0120001N1+02331+02161101301ADDAA199000091GA1001+999999999GF100991001001999999001001MA1999999098991MD1999999-0031REMSYN064AAXX  30154 48331 32962 00000 10233 20216 39899 40130 333 59003;EQDQ01  00002PRCP99
0177483310999992000113018004+18760+100770FM-12+0201VTCN V0209999C000012200019N0120001N1+02171+02061101281ADDAA199000091GA1001+999999999GF100991001001999999001001MA1999999098951MD1999999-0071REMSYN064AAXX  30184 48331 32962 00000 10217 20206 39895 40128 333 59007;EQDQ01  00002PRCP99
0177483310999992000113021004+18760+100770FM-12+0201VTCN V0209999C000012200019N0100001N1+02071+01961101221ADDAA199000091GA1001+999999999GF100991001001999999001001MA1999999098891MD1999999-0081REMSYN064AAXX  30214 48331 32960 00000 10207 20196 39889 40122 333 59008;EQDQ01  00002PRCP99
0224483310999992000120100004+18760+100770FM-12+0201VTCN V0209999C000012200019N0020001N1+02041+01961101331ADDAA199000091AY101061AY201061GA1001+999999999GF100991001001999999001001KA1120N+01901MA1999999098991MD1999999-0111MW1101REMSYN076AAXX  01004 48331 31920 00000 10204 20196 39899 40133 71000 333 20190 59011;EQDQ01  00002PRCP99
0205483310999992000120103004+18760+100770FM-12+0201VTCN V0209999C000012200019N0060001N1+02351+02121101411ADDAA199000091AY141031AY201031GA1001+999999999GF100991001001999999001001MA1999999099091MD1999999-0161MW1101REMSYN070AAXX  01034 48331 31956 00000 10235 20212 39909 40141 71040 333 59016;EQDQ01  00002PRCP99
0195483310999992000120106004+18760+100770FM-12+0201VTCN V0209999C000012200019N0150001N1+03171+02151100981ADDAA199000091AY141061AY201061GF101991011011008001001001MA1999999098731MD1999999-0161MW1031REMSYN076AAXX  01064 48331 31565 10000 10317 20215 39873 40098 70340 81100 333 59016;EQDQ01  00002PRCP99
0167483310999992000120109004+18760+100770FM-12+0201VTCN V0209999C000012200019N0150001N1+03261+02081100821ADDAA199000091GF101991011011008001001001MA1999999098581MD1999999-0121REMSYN070AAXX  01094 48331 32565 10000 10326 20208 39858 40082 81100 333 59012;EQDQ01  00002PRCP99
0186483310999992000120112004+18760+100770FM-12+0201VTCN V0209999C000012200019N0150001N1+02601+02231100981ADDAA199000091GF101991011011008001001001KA1120M+03401MA1999999098691MD1999999-0061REMSYN076AAXX  01124 48331 32565 10000 10260 20223 39869 40098 81100 333 10340 59006;EQDQ01  00002PRCP99
0167483310999992000120115004+18760+100770FM-12+0201VTCN V0209999C000012200019N0120001N1+02401+02171101221ADDAA199000091GF101991011011008001001001MA1999999098911MD1999999-0081REMSYN070AAXX  01154 48331 32562 10000 10240 20217 39891 40122 81100 333 59008;EQDQ01  00002PRCP99
0167483310999992000120118004+18760+100770FM-12+0201VTCN V0209999C000012200019N0120001N1+02251+02101101251ADDAA199000091GF103991031051008001001001MA1999999098941MD1999999-0031REMSYN070AAXX  01184 48331 32562 30000 10225 20210 39894 40125 83500 333 59003;EQDQ01  00002PRCP99
0177483310999992000120121004+18760+100770FM-12+0201VTCN V0209999C000012200019N0100001N1+02101+02021101231ADDAA199000091GA1001+999999999GF100991001001999999001001MA1999999098901MD1999999+0011REMSYN064AAXX  01214 48331 32960 00000 10210 20202 39890 40123 333 58001;EQDQ01  00002PRCP99
0214483310999992000120200004+18760+100770FM-12+0201VTCN V0209999C000019999999N0060001N1+02031+01951101391ADDAA199000091AY111061AY201061GF105991001001999999001061KA1120N+01921MA1999999099041MD1999999+0061MW1101REMSYN082AAXX  02004 48331 31956 50000 10203 20195 39904 40139 71010 80006 333 20192 58006;EQDQ01  00002PRCP99
0167483310999992000120203004+18760+100770FM-12+0201VTCN V0209999C000012200019N0120001N1+02711+02221101491ADDAA199000091GF104991001001999999001061MA1999999099201MD1999999+0081REMSYN070AAXX  02034 48331 32962 40000 10271 20222 39920 40149 80006 333 58008;EQDQ01  00002PRCP99
0167483310999992000120206004+18760+100770FM-12+0201VTCN V0201501N001012200019N0150001N1+03201+02201101131ADDAA199000091GF102991021021008001001011MA1999999098881MD1999999+0151REMSYN070AAXX  02064 48331 32565 21502 10320 20220 39888 40113 82201 333 58015;EQDQ01  00002PRCP99
0167483310999992000120209004+18760+100770FM-12+0201VTCN V0209999C000012200019N0150001N1+03301+02181100911ADDAA199000091GF102991011021008001001011MA1999999098681MD1999999+0091REMSYN070AAXX  02094 48331 32565 20000 10330 20218 39868 40091 81201 333 58009;EQDQ01  00002PRCP99
0186483310999992000120212004+18760+100770FM-12+0201VTCN V0209999C000012200019N0100001N1+02671+02271101171ADDAA199000091GF102991001001999999001011KA1120M+03371MA1999999098881MD1999999+0191REMSYN076AAXX  02124 48331 32960 20000 10267 20227 39888 40117 80001 333 10337 58019;EQDQ01  00002PRCP99
0167483310999992000120215004+18760+100770FM-12+0201VTCN V0209999C000012200019N0100001N1+02401+02201101371ADDAA199000091GF102991021001999999051011MA1999999099061MD1999999+0151REMSYN070AAXX  02154 48331 32960 20000 10240 20220 39906 40137 82051 333 58015;EQDQ01  00002PRCP99
0167483310999992000120218004+18760+100770FM-12+0201VTCN V0209999C000011050019N0100001N1+02381+02091101381ADDAA199000091GF105991021011008001051011MA1999999099061MD1999999+0131REMSYN070AAXX  02184 48331 32560 50000 10238 20209 39906 40138 82151 333 58013;EQDQ01  00002PRCP99
0167483310999992000120221004+18760+100770FM-12+0201VTCN V0209999C000019999999N0100001N1+02201+02061101291ADDAA199000091GF106991061001999999051001MA1999999098961MD1999999+0061REMSYN070AAXX  02214 48331 32960 60000 10220 20206 39896 40129 86050 333 58006;EQDQ01  00002PRCP99
0214483310999992000120300004+18760+100770FM-12+0201VTCN V0209999C000012200019N0060001N1+02171+02061101401ADDAA199000091AY111061AY201061GF102991021011008001001001KA1120N+02051MA1999999099061MD1999999+0011MW1101REMSYN082AAXX  03004 48331 31556 20000 10217 20206 39906 40140 71010 82100 333 20205 58001;EQDQ01  00002PRCP99
0167483310999992000120303004+18760+100770FM-12+0201VTCN V0209999C000010075019N0120001N1+02411+02251101551ADDAA199000091GF106991051051008001071061MA1999999099231MD1999999+0061REMSYN070AAXX  03034 48331 32562 60000 10241 20225 39923 40155 85576 333 58006;EQDQ01  00002PRCP99
0167483310999992000120306004+18760+100770FM-12+0201VTCN V0209999C000010075019N0150001N1+03011+02121101231ADDAA199000091GF106991061051008001041051MA1999999098971MD1999999+0101REMSYN070AAXX  03064 48331 32565 60000 10301 20212 39897 40123 86545 333 58010;EQDQ01  00002PRCP99
0167483310999992000120309004+18760+100770FM-12+0201VTCN V0209999C000012200019N0150001N1+03021+02091101021ADDAA199000091GF102991021011008001041011MA1999999098761MD1999999+0111REMSYN070AAXX  03094 48331 32565 20000 10302 20209 39876 40102 82141 333 58011;EQDQ01  00002PRCP99
0186483310999992000120312004+18760+100770FM-12+0201VTCN V0209999C000012200019N0150001N1+02601+02131101221ADDAA199000091GF102991021011008001001001KA1120M+03141MA1999999098931MD1999999+0051REMSYN076AAXX  03124 48331 32565 20000 10260 20213 39893 40122 82100 333 10314 58005;EQDQ01  00002PRCP99
0167483310999992000120315004+18760+100770FM-12+0201VTCN V0209999C000012200019N0120001N1+02311+02001101391ADDAA199000091GF101991011011008001001001MA1999999099051MD1999999+0021REMSYN070AAXX  03154 48331 32562 10000 10231 20200 39905 40139 81100 333 58002;EQDQ01  00002PRCP99
0167483310999992000120318004+18760+100770FM-12+0201VTCN V0209999C000010075019N0120001N1+02261+02041101351ADDAA199000091GF105991051051008001001051MA1999999099021MD1999999-0031REMSYN070AAXX  03184 48331 32562 50000 10226 20204 39902 40135 85505 333 59003;EQDQ01  00002PRCP99
0205483310999992000120321004+18760+100770FM-12+0201VTCN V0209999C000012200019N0080001N1+02071+01961101221ADDAA199000091AY101031AY201031GA1001+999999999GF100991001001999999001001MA1999999098891MD1999999-0071MW1101REMSYN070AAXX  03214 48331 31958 00000 10207 20196 39889 40122 71000 333 59007;EQDQ01  00002PRCP99
0186483310999992000120400004+18760+100770FM-12+0201VTCN V0209999C000010450019N0120001N1+01981+01901101431ADDAA199000091GF106991011051008001041051KA1120N+01861MA1999999099071MD1999999+0031REMSYN076AAXX  04004 48331 32562 60000 10198 20190 39907 40143 81545 333 20186 58003;EQDQ01  00002PRCP99
0167483310999992000120403004+18760+100770FM-12+0201VTCN V0209999C000011050019N0120001N1+02351+01891101581ADDAA199000091GF106991021051008001001051MA1999999099251MD1999999+0031REMSYN070AAXX  04034 48331 32562 60000 10235 20189 39925 40158 82505 333 58003;EQDQ01  00002PRCP99
0167483310999992000120406004+18760+100770FM-12+0201VTCN V0209999C000010450019N0150001N1+02901+01901101231ADDAA199000091GF106991031051008001041061MA1999999098961MD1999999+0001REMSYN070AAXX  04064 48331 32565 60000 10290 20190 39896 40123 83546 333 58000;EQDQ01  00002PRCP99
0167483310999992000120409004+18760+100770FM-12+0201VTCN V0209999C000012200019N0150001N1+02931+01881101051ADDAA199000091GF103991031051008001001001MA1999999098781MD1999999+0031REMSYN070AAXX  04094 48331 32565 30000 10293 20188 39878 40105 83500 333 58003;EQDQ01  00002PRCP99
0186483310999992000120412004+18760+100770FM-12+0201VTCN V0209999C000010450019N0150001N1+02441+02071101211ADDAA199000091GF106991031051008001051061KA1120M+02971MA1999999098901MD1999999-0011REMSYN076AAXX  04124 48331 32565 60000 10244 20207 39890 40121 83556 333 10297 59001;EQDQ01  00002PRCP99
0177483310999992000120415004+18760+100770FM-12+0201VTCN V0209999C000012200019N0120001N1+02211+02041101371ADDAA199000091GA1001+999999999GF100991001001999999001001MA1999999099041MD1999999-0021REMSYN064AAXX  04154 48331 32962 00000 10221 20204 39904 40137 333 59002;EQDQ01  00002PRCP99
0167483310999992000120418004+18760+100770FM-12+0201VTCN V0209999C000012200019N0120001N1+02051+01941101301ADDAA199000091GF103991021001999999051011MA1999999098951MD1999999-0051REMSYN070AAXX  04184 48331 32962 30000 10205 20194 39895 40130 82051 333 59005;EQDQ01  00002PRCP99
0167483310999992000120421004+18760+100770FM-12+0201VTCN V0209999C000012200019N0120001N1+02021+01911101241ADDAA199000091GF102991001001999999001011MA1999999098901MD1999999+0021REMSYN070AAXX  04214 48331 32962 20000 10202 20191 39890 40124 80001 333 58002;EQDQ01  00002PRCP99
0214483310999992000120500004+18760+100770FM-12+0201VTCN V0209999C000012200019N0020001N1+02051+01971101401ADDAA199000091AY101061AY201061GF104991031051008001001051KA1120N+01901MA1999999099051MD1999999-0031MW1101REMSYN082AAXX  05004 48331 31520 40000 10205 20197 39905 40140 71000 83505 333 20190 59003;EQDQ01  00002PRCP99
0167483310999992000120503004+18760+100770FM-12+0201VTCN V0209999C000010450019N0100001N1+02381+02021101521ADDAA199000091GF108991041051008001071061MA1999999099201MD1999999-0061REMSYN070AAXX  05034 48331 32560 80000 10238 20202 39920 40152 84576 333 59006;EQDQ01  00002PRCP99
0167483310999992000120506004+18760+100770FM-12+0201VTCN V0209999C000010450019N0150001N1+02851+02011101161ADDAA199000091GF105991031051008001041051MA1999999098891MD1999999-0071REMSYN070AAXX  05064 48331 32565 50000 10285 20201 39889 40116 83545 333 59007;EQDQ01  00002PRCP99
0167483310999992000120509004+18760+100770FM-12+0201VTCN V0209999C000012200019N0150001N1+02981+02061100931ADDAA199000091GF102991021021008001001001MA1999999098671MD1999999-0121REMSYN070AAXX  05094 48331 32565 20000 10298 20206 39867 40093 82200 333 59012;EQDQ01  00002PRCP99
0196483310999992000120512004+18760+100770FM-12+0201VTCN V0209999C000012200019N0120001N1+02491+02091101111ADDAA199000091GA1001+999999999GF100991001001999999001001KA1120M+03041MA1999999098801MD1999999-0101REMSYN070AAXX  05124 48331 32962 00000 10249 20209 39880 40111 333 10304 59010;EQDQ01  00002PRCP99
0177483310999992000120515004+18760+100770FM-12+0201VTCN V0209999C000012200019N0120001N1+02201+02041101331ADDAA199000091GA1001+999999999GF100991001001999999001001MA1999999099001MD1999999-0041REMSYN064AAXX  05154 48331 32962 00000 10220 20204 39900 40133 333 59004;EQDQ01  00002PRCP99
0177483310999992000120518004+18760+100770FM-12+0201VTCN V0209999C000012200019N0100001N1+02001+01891101291ADDAA199000091GA1001+999999999GF100991001001999999001001MA1999999098951MD1999999-0011REMSYN064AAXX  05184 48331 32960 00000 10200 20189 39895 40129 333 59001;EQDQ01  00002PRCP99
0167483310999992000120521004+18760+100770FM-12+0201VTCN V0209999C000019999999N0100001N1+01921+01841101261ADDAA199000091GF105991041001999999051011MA1999999098911MD1999999+0021REMSYN070AAXX  05214 48331 32960 50000 10192 20184 39891 40126 84051 333 58002;EQDQ01  00002PRCP99
0224483310999992000120600004+18760+100770FM-12+0201VTCN V0209999C000010003019N0003001N1+01901+01831101511ADDAA199000091AY141061AY201061GA1091+999999999GF109991091999999999999999KA1120N+01781MA1999999099141MD1999999+0111MW1471REMSYN076AAXX  06004 48331 31/03 90000 10190 20183 39914 40151 74740 333 20178 58011;EQDQ01  00002PRCP99
0195483310999992000120603004+18760+100770FM-12+0201VTCN V0209999C000012200019N0120001N1+02241+01941101621ADDAA199000091AY141031AY211031GF104991031051008001001011MA1999999099281MD1999999+0101MW1011REMSYN076AAXX  06034 48331 31562 40000 10224 20194 39928 40162 70141 83501 333 58010;EQDQ01  00002PRCP99
0195483310999992000120606004+18760+100770FM-12+0201VTCN V0209999C000012200019N0150001N1+02911+02001101281ADDAA199000091AY141061AY211061GF102991021021008001001011MA1999999098991MD1999999+0121MW1011REMSYN076AAXX  06064 48331 31565 20000 10291 20200 39899 40128 70141 82201 333 58012;EQDQ01  00002PRCP99
0167483310999992000120609004+18760+100770FM-12+0201VTCN V0209999C000012200019N0150001N1+03051+01911100991ADDAA199000091GF101991011011008001001001MA1999999098731MD1999999+0061REMSYN070AAXX  06094 48331 32565 10000 10305 20191 39873 40099 81100 333 58006;EQDQ01  00002PRCP99
0186483310999992000120612004+18760+100770FM-12+0201VTCN V0209999C000012200019N0150001N1+02391+02021101151ADDAA199000091GF101991011011008001001001KA1120M+03111MA1999999098851MD1999999+0041REMSYN076AAXX  06124 48331 32565 10000 10239 20202 39885 40115 81100 333 10311 58004;EQDQ01  00002PRCP99
0167483310999992000120615004+18760+100770FM-12+0201VTCN V0209999C000012200019N0120001N1+02071+01891101371ADDAA199000091GF101991011011008001001001MA1999999099021MD1999999+0041REMSYN070AAXX  06154 48331 32562 10000 10207 20189 39902 40137 81100 333 58004;EQDQ01  00002PRCP99
0177483310999992000120618004+18760+100770FM-12+0201VTCN V0209999C000012200019N0100001N1+01901+01801101401ADDAA199000091GA1001+999999999GF100991001001999999001001MA1999999099041MD1999999+0111REMSYN064AAXX  06184 48331 32960 00000 10190 20180 39904 40140 333 58011;EQDQ01  00002PRCP99
0205483310999992000120621004+18760+100770FM-12+0201VTCN V0209999C000012200019N0040001N1+01741+01651101411ADDAA199000091AY101031AY201031GA1001+999999999GF100991001001999999001001MA1999999099031MD1999999+0151MW1101REMSYN070AAXX  06214 48331 31940 00000 10174 20165 39903 40141 71000 333 58015;EQDQ01  00002PRCP99
0230483310999992000120700004+18760+100770FM-12+0201VTCN V0209999C000010003019N0002001N1+01751+01711101571ADDAA199000091AY101061AY201061GA1091+999999999GF109991091999999999999999KA1120N+01621MA1999999099191MD1999999+0061MW1471REMSYN082AAXX  07004 48331 31/02 90000 10175 20171 39919 40157 74700 89/// 333 20162 58006;EQDQ01  00002PRCP99
0195483310999992000120703004+18760+100770FM-12+0201VTCN V0209999C000012200019N0120001N1+02201+01831101691ADDAA199000091AY141031AY201031GF102991021011008001001001MA1999999099351MD1999999+0071MW1011REMSYN076AAXX  07034 48331 31562 20000 10220 20183 39935 40169 70140 82100 333 58007;EQDQ01  00002PRCP99
0195483310999992000120706004+18760+100770FM-12+0201VTCN V0209999C000012200019N0150001N1+02941+01961101431ADDAA199000091AY141061AY201061GF102991021051008001001001MA1999999099151MD1999999+0151MW1021REMSYN076AAXX  07064 48331 31565 20000 10294 20196 39915 40143 70240 82500 333 58015;EQDQ01  00002PRCP99
0167483310999992000120709004+18760+100770FM-12+0201VTCN V0209999C000010450019N0150001N1+02931+01861101101ADDAA199000091GF106991031051008001051061MA1999999098831MD1999999+0111REMSYN070AAXX  07094 48331 32565 60000 10293 20186 39883 40110 83556 333 58011;EQDQ01  00002PRCP99
0160483310999992000120712004+18760+100770FM-12+0201VTCN V02099999999999999999N0150001N1+02301+01991101261ADDAA199000091KA1120M+03121MA1999999098951MD1999999+0111REMSYN076AAXX  07124 48331 32965 ///// 10230 20199 39895 40126 80001 333 10312 58011;EQDQ01  00002PRCP99
0167483310999992000120715004+18760+100770FM-12+0201VTCN V0209999C000012200019N0120001N1+02071+01891101511ADDAA199000091GF104991011011008001051001MA1999999099161MD1999999+0141REMSYN070AAXX  07154 48331 32562 40000 10207 20189 39916 40151 81150 333 58014;EQDQ01  00002PRCP99
0167483310999992000120718004+18760+100770FM-12+0201VTCN V0209999C000012200019N0100001N1+01901+01781101481ADDAA199000091GF104991021051008001041051MA1999999099121MD1999999+0081REMSYN070AAXX  07184 48331 32560 40000 10190 20178 39912 40148 82545 333 58008;EQDQ01  00002PRCP99
0167483310999992000120721004+18760+100770FM-12+0201VTCN V0209999C000012200019N0100001N1+01781+01691101381ADDAA199000091GF101991011011008001001011MA1999999099011MD1999999-0031REMSYN070AAXX  07214 48331 32560 10000 10178 20169 39901 40138 81101 333 59003;EQDQ01  00002PRCP99
0214483310999992000120800004+18760+100770FM-12+0201VTCN V0209999C000012200019N0002001N1+01751+01701101481ADDAA199000091AY101061AY201061GF103991011011008001051011KA1120N+01621MA1999999099111MD1999999-0091MW1441REMSYN082AAXX  08004 48331 31502 30000 10175 20170 39911 40148 74400 81151 333 20162 59009;EQDQ01  00002PRCP99
0195483310999992000120803004+18760+100770FM-12+0201VTCN V0209999C000012200019N0100001N1+02341+01801101551ADDAA199000091AY141031AY201031GF102991011061008001001051MA1999999099231MD1999999-0141MW1011REMSYN076AAXX  08034 48331 31560 20000 10234 20180 39923 40155 70140 81605 333 59014;EQDQ01  00002PRCP99
0167483310999992000120806004+18760+100770FM-12+0201VTCN V0209999C000011050019N0150001N1+02931+01861101131ADDAA199000091GF105991021011008001051011MA1999999098861MD1999999-0301REMSYN070AAXX  08064 48331 32565 50000 10293 20186 39886 40113 82151 333 59030;EQDQ01  00002PRCP99
0167483310999992000120809004+18760+100770FM-12+0201VTCN V0209999C000010450019N0150001N1+03031+01871100931ADDAA199000091GF106991021021008001051011MA1999999098681MD1999999-0171REMSYN070AAXX  08094 48331 32565 60000 10303 20187 39868 40093 82251 333 59017;EQDQ01  00002PRCP99
0186483310999992000120812004+18760+100770FM-12+0201VTCN V0209999C000012200019N0150001N1+02471+02061101121ADDAA199000091GF103991021051012501051011KA1120M+03131MA1999999098811MD1999999-0141REMSYN076AAXX  08124 48331 32665 30000 10247 20206 39881 40112 82551 333 10313 59014;EQDQ01  00002PRCP99
0167483310999992000120815004+18760+100770FM-12+0201VTCN V0209999C000012200019N0120001N1+02171+01981101241ADDAA199000091GF102991021001999999051011MA1999999098911MD1999999-0271REMSYN070AAXX  08154 48331 32962 20000 10217 20198 39891 40124 82051 333 59027;EQDQ01  00002PRCP99
0177483310999992000120818004+18760+100770FM-12+0201VTCN V0209999C000012200019N0100001N1+01951+01871101271ADDAA199000091GA1001+999999999GF100991001001999999001001MA1999999098931MD1999999-0211REMSYN064AAXX  08184 48331 32960 00000 10195 20187 39893 40127 333 59021;EQDQ01  00002PRCP99
0167483310999992000120821004+18760+100770FM-12+0201VTCN V0209999C000010450019N0100001N1+01951+01831101151ADDAA199000091GF106991021051008001071011MA1999999098811MD1999999-0231REMSYN070AAXX  08214 48331 32560 60000 10195 20183 39881 40115 82571 333 59023;EQDQ01  00002PRCP99
0214483310999992000120900004+18760+100770FM-12+0201VTCN V0209999C000010450019N0080001N1+01851+01771101261ADDAA199000091AY121061AY221061GF106991031051008001051011KA1120N+01731MA1999999098911MD1999999-0231MW1101REMSYN082AAXX  09004 48331 31558 60000 10185 20177 39891 40126 71022 83551 333 20173 59023;EQDQ01  00002PRCP99
0167483310999992000120903004+18760+100770FM-12+0201VTCN V0209999C000012200019N0120001N1+02251+01851101401ADDAA199000091GF102991021011008001001011MA1999999099071MD1999999-0151REMSYN070AAXX  09034 48331 32562 20000 10225 20185 39907 40140 82101 333 59015;EQDQ01  00002PRCP99
0167483310999992000120906004+18760+100770FM-12+0201VTCN V0209999C000012200019N0150001N1+02911+01911101041ADDAA199000091GF101991011011008001001001MA1999999098771MD1999999-0101REMSYN070AAXX  09064 48331 32565 10000 10291 20191 39877 40104 81100 333 59010;EQDQ01  00002PRCP99
0167483310999992000120909004+18760+100770FM-12+0201VTCN V0209999C000010075019N0150001N1+02971+01911100851ADDAA199000091GF106991061051008001051011MA1999999098591MD1999999-0081REMSYN070AAXX  09094 48331 32565 60000 10297 20191 39859 40085 86551 333 59008;EQDQ01  00002PRCP99
0186483310999992000120912004+18760+100770FM-12+0201VTCN V0209999C000010450019N0150001N1+02551+02171101011ADDAA199000091GF106991031051008001051061KA1120M+03101MA1999999098721MD1999999-0111REMSYN076AAXX  09124 48331 32565 60000 10255 20217 39872 40101 83556 333 10310 59011;EQDQ01  00002PRCP99
0167483310999992000120915004+18760+100770FM-12+0201VTCN V0209999C000019999999N0100001N1+02331+02131101191ADDAA199000091GF107991071001999999071001MA1999999098871MD1999999-0081REMSYN070AAXX  09154 48331 32960 70000 10233 20213 39887 40119 87070 333 59008;EQDQ01  00002PRCP99
0167483310999992000120918004+18760+100770FM-12+0201VTCN V0209999C000019999999N0100001N1+02101+01971101271ADDAA199000091GF106991041001999999071061MA1999999098931MD1999999+0001REMSYN070AAXX  09184 48331 32960 60000 10210 20197 39893 40127 84076 333 58000;EQDQ01  00002PRCP99
0167483310999992000120921004+18760+100770FM-12+0201VTCN V0209999C000010450019N0100001N1+02051+01911101211ADDAA199000091GF108991021051012501071999MA1999999098871MD1999999+0061REMSYN070AAXX  09214 48331 32660 80000 10205 20191 39887 40121 8257/ 333 58006;EQDQ01  00002PRCP99
0214483310999992000121000004+18760+100770FM-12+0201VTCN V0209999C000012200019N0020001N1+01931+01831101371ADDAA199000091AY101061AY201061GF101991011011008001001001KA1120N+01831MA1999999099001MD1999999+0111MW1101REMSYN082AAXX  10004 48331 31520 10000 10193 20183 39900 40137 71000 81100 333 20183 58011;EQDQ01  00002PRCP99
0167483310999992000121003004+18760+100770FM-12+0201VTCN V0209999C000012200019N0100001N1+02471+01971101491ADDAA199000091GF101991011011008001001001MA1999999099171MD1999999+0091REMSYN070AAXX  10034 48331 32560 10000 10247 20197 39917 40149 81100 333 58009;EQDQ01  00002PRCP99
0167483310999992000121006004+18760+100770FM-12+0201VTCN V0209999C000012200019N0150001N1+03001+02021101151ADDAA199000091GF101991011011008001001001MA1999999098891MD1999999+0111REMSYN070AAXX  10064 48331 32565 10000 10300 20202 39889 40115 81100 333 58011;EQDQ01  00002PRCP99
0167483310999992000121009004+18760+100770FM-12+0201VTCN V0209999C000012200019N0150001N1+03151+01921100971ADDAA199000091GF101991011011008001001001MA1999999098721MD1999999+0121REMSYN070AAXX  10094 48331 32565 10000 10315 20192 39872 40097 81100 333 58012;EQDQ01  00002PRCP99
0186483310999992000121012004+18760+100770FM-12+0201VTCN V0209999C000012200019N0150001N1+02551+02111101161ADDAA199000091GF101991011011008001001001KA1120M+03251MA1999999098871MD1999999+0151REMSYN076AAXX  10124 48331 32565 10000 10255 20211 39887 40116 81100 333 10325 58015;EQDQ01  00002PRCP99
0167483310999992000121015004+18760+100770FM-12+0201VTCN V0209999C000012200019N0120001N1+02201+01981101371ADDAA199000091GF101991011011008001001001MA1999999099031MD1999999+0181REMSYN070AAXX  10154 48331 32562 10000 10220 20198 39903 40137 81100 333 58018;EQDQ01  00002PRCP99
0195483310999992000121018004+18760+100770FM-12+0201VTCN V0209999C000012200019N0080001N1+02041+01881101391ADDAA199000091AY101061AY201061GF103991011011008001051001MA1999999099041MD1999999+0121MW1101REMSYN076AAXX  10184 48331 31558 30000 10204 20188 39904 40139 71000 81150 333 58012;EQDQ01  00002PRCP99
0195483310999992000121021004+18760+100770FM-12+0201VTCN V0209999C000012200019N0080001N1+01961+01831101361ADDAA199000091AY101031AY201031GF103991031001999999041001MA1999999099001MD1999999+0151MW1101REMSYN076AAXX  10214 48331 31958 30000 10196 20183 39900 40136 71000 83040 333 58015;EQDQ01  00002PRCP99
0186483310999992000121100004+18760+100770FM-12+0201VTCN V0209999C000019999999N0100001N1+01891+01791101531ADDAA199000091GF105991021001999999051061KA1120N+01761MA1999999099171MD1999999+0161REMSYN076AAXX  11004 48331 32960 50000 10189 20179 39917 40153 82056 333 20176 58016;EQDQ01  00002PRCP99
0177483310999992000121103004+18760+100770FM-12+0201VTCN V0209999C000012200019N0100001N1+02501+01911101631ADDAA199000091GA1001+999999999GF100991001001999999001001MA1999999099321MD1999999+0141REMSYN064AAXX  11034 48331 32960 00000 10250 20191 39932 40163 333 58014;EQDQ01  00002PRCP99
0167483310999992000121106004+18760+100770FM-12+0201VTCN V0201301N001012200019N0150001N1+03101+02071101281ADDAA199000091GF102991021021008001001011MA1999999099021MD1999999+0131REMSYN070AAXX  11064 48331 32565 21302 10310 20207 39902 40128 82201 333 58013;EQDQ01  00002PRCP99
0167483310999992000121109004+18760+100770FM-12+0201VTCN V0209999C000012200019N0150001N1+03201+02061101071ADDAA199000091GF101991011031008001001001MA1999999098821MD1999999+0101REMSYN070AAXX  11094 48331 32565 10000 10320 20206 39882 40107 81300 333 58010;EQDQ01  00002PRCP99
0196483310999992000121112004+18760+100770FM-12+0201VTCN V0209999C000012200019N0120001N1+02571+02161101191ADDAA199000091GA1001+999999999GF100991001001999999001001KA1120M+03281MA1999999098891MD1999999+0031REMSYN070AAXX  11124 48331 32962 00000 10257 20216 39889 40119 333 10328 58003;EQDQ01  00002PRCP99
0177483310999992000121115004+18760+100770FM-12+0201VTCN V0209999C000012200019N0120001N1+02251+02061101401ADDAA199000091GA1001+999999999GF100991001001999999001001MA1999999099071MD1999999+0031REMSYN064AAXX  11154 48331 32962 00000 10225 20206 39907 40140 333 58003;EQDQ01  00002PRCP99
0205483310999992000121118004+18760+100770FM-12+0201VTCN V0209999C000012200019N0080001N1+02051+01971101411ADDAA199000091AY101061AY201061GA1001+999999999GF100991001001999999001001MA1999999099071MD1999999+0021MW1101REMSYN070AAXX  11184 48331 31958 00000 10205 20197 39907 40141 71000 333 58002;EQDQ01  00002PRCP99
0205483310999992000121121004+18760+100770FM-12+0201VTCN V0209999C000012200019N0050001N1+01971+01871101331ADDAA199000091AY101031AY201031GA1001+999999999GF100991001001999999001001MA1999999098991MD1999999-0031MW1101REMSYN070AAXX  11214 48331 31950 00000 10197 20187 39899 40133 71000 333 59003;EQDQ01  00002PRCP99
0214483310999992000121200004+18760+100770FM-12+0201VTCN V0209999C000010075019N0030001N1+01931+01861101481ADDAA199000091AY111061AY201061GF106991051061008001001011KA1120N+01821MA1999999099121MD1999999-0051MW1101REMSYN082AAXX  12004 48331 31530 60000 10193 20186 39912 40148 71010 85601 333 20182 59005;EQDQ01  00002PRCP99
0195483310999992000121203004+18760+100770FM-12+0201VTCN V0209999C000012200019N0100001N1+02341+02001101591ADDAA199000091AY141031AY211031GF101991011011008001001001MA1999999099251MD1999999-0041MW1011REMSYN076AAXX  12034 48331 31560 10000 10234 20200 39925 40159 70141 81100 333 59004;EQDQ01  00002PRCP99
0195483310999992000121206004+18760+100770FM-12+0201VTCN V0209999C000012200019N0150001N1+02961+01891101151ADDAA199000091AY141061AY211061GF101991011011008001001001MA1999999098891MD1999999-0131MW1021REMSYN076AAXX  12064 48331 31565 10000 10296 20189 39889 40115 70241 81100 333 59013;EQDQ01  00002PRCP99
0167483310999992000121209004+18760+100770FM-12+0201VTCN V0209999C000012200019N0150001N1+03151+01941100931ADDAA199000091GF101991011011008001001001MA1999999098691MD1999999-0141REMSYN070AAXX  12094 48331 32565 10000 10315 20194 39869 40093 81100 333 59014;EQDQ01  00002PRCP99
0196483310999992000121212004+18760+100770FM-12+0201VTCN V0209999C000012200019N0150001N1+02471+02061101221ADDAA199000091GA1001+999999999GF100991001001999999001001KA1120M+03201MA1999999098921MD1999999+0031REMSYN070AAXX  12124 48331 32965 00000 10247 20206 39892 40122 333 10320 58003;EQDQ01  00002PRCP99
0177483310999992000121215004+18760+100770FM-12+0201VTCN V0209999C000012200019N0120001N1+02201+02001101221ADDAA199000091GA1001+999999999GF100991001001999999001001MA1999999098901MD1999999-0181REMSYN064AAXX  12154 48331 32962 00000 10220 20200 39890 40122 333 59018;EQDQ01  00002PRCP99
0167483310999992000121218004+18760+100770FM-12+0201VTCN V0209999C000012200019N0120001N1+02031+01901101261ADDAA199000091GF102991021051008001001001MA1999999098921MD1999999-0151REMSYN070AAXX  12184 48331 32562 20000 10203 20190 39892 40126 82500 333 59015;EQDQ01  00002PRCP99
0205483310999992000121221004+18760+100770FM-12+0201VTCN V0209999C000012200019N0080001N1+01921+01821101201ADDAA199000091AY101031AY201031GA1001+999999999GF100991001001999999001001MA1999999098851MD1999999-0131MW1101REMSYN070AAXX  12214 48331 31958 00000 10192 20182 39885 40120 71000 333 59013;EQDQ01  00002PRCP99
0230483310999992000121300004+18760+100770FM-12+0201VTCN V0209999C000010003019N0003001N1+01871+01841101361ADDAA199000091AY141061AY201061GA1091+999999999GF109991091999999999999999KA1120N+01741MA1999999098991MD1999999-0121MW1471REMSYN082AAXX  13004 48331 31/03 90000 10187 20184 39899 40136 74740 89/// 333 20174 59012;EQDQ01  00002PRCP99
0195483310999992000121303004+18760+100770FM-12+0201VTCN V0209999C000012200019N0080001N1+02461+02061101401ADDAA199000091AY141031AY201031GF102991021021008001001001MA1999999099091MD1999999-0191MW1101REMSYN076AAXX  13034 48331 31558 20000 10246 20206 39909 40140 71040 82200 333 59019;EQDQ01  00002PRCP99
0195483310999992000121306004+18760+100770FM-12+0201VTCN V0209999C000012200019N0120001N1+03001+01951101001ADDAA199000091AY141061AY201061GF104991031051008001041061MA1999999098741MD1999999-0151MW1031REMSYN076AAXX  13064 48331 31562 40000 10300 20195 39874 40100 70340 83546 333 59015;EQDQ01  00002PRCP99
0167483310999992000121309004+18760+100770FM-12+0201VTCN V0209999C000012200019N0150001N1+03111+01971100841ADDAA199000091GF103991031051008001001001MA1999999098591MD1999999-0091REMSYN070AAXX  13094 48331 32565 30000 10311 20197 39859 40084 83500 333 59009;EQDQ01  00002PRCP99
0186483310999992000121312004+18760+100770FM-12+0201VTCN V0209999C000012200019N0120001N1+02471+02061101001ADDAA199000091GF102991021051008001001001KA1120M+03181MA1999999098701MD1999999-0081REMSYN076AAXX  13124 48331 32562 20000 10247 20206 39870 40100 82500 333 10318 59008;EQDQ01  00002PRCP99
0167483310999992000121315004+18760+100770FM-12+0201VTCN V0209999C000012200019N0120001N1+02211+02051101161ADDAA199000091GF102991021021008001001001MA1999999098831MD1999999-0061REMSYN070AAXX  13154 48331 32562 20000 10221 20205 39883 40116 82200 333 59006;EQDQ01  00002PRCP99
0167483310999992000121318004+18760+100770FM-12+0201VTCN V0209999C000012200019N0120001N1+02041+01911101221ADDAA199000091GF103991031001999999051001MA1999999098881MD1999999-0041REMSYN070AAXX  13184 48331 32962 30000 10204 20191 39888 40122 83050 333 59004;EQDQ01  00002PRCP99
0195483310999992000121321004+18760+100770FM-12+0201VTCN V0209999C000012200019N0080001N1+01961+01861101211ADDAA199000091AY101031AY201031GF102991021021008001001001MA1999999098871MD1999999+0011MW1101REMSYN076AAXX  13214 48331 31558 20000 10196 20186 39887 40121 71000 82200 333 58001;EQDQ01  00002PRCP99
0224483310999992000121400004+18760+100770FM-12+0201VTCN V0209999C000012200019N0040001N1+01841+01771101401ADDAA199000091AY101061AY201061GA1001+999999999GF100991001001999999001001KA1120N+01731MA1999999099031MD1999999+0041MW1101REMSYN076AAXX  14004 48331 31940 00000 10184 20177 39903 40140 71000 333 20173 58004;EQDQ01  00002PRCP99
0177483310999992000121403004+18760+100770FM-12+0201VTCN V0201801N001512200019N0100001N1+02471+01971101461ADDAA199000091GA1001+999999999GF100991001001999999001001MA1999999099151MD1999999+0061REMSYN064AAXX  14034 48331 32960 01803 10247 20197 39915 40146 333 58006;EQDQ01  00002PRCP99
0167483310999992000121406004+18760+100770FM-12+0201VTCN V0202401N001012200019N0150001N1+02971+01961101111ADDAA199000091GF102991021011008001001001MA1999999098851MD1999999+0111REMSYN070AAXX  14064 48331 32565 22402 10297 20196 39885 40111 82100 333 58011;EQDQ01  00002PRCP99
0167483310999992000121409004+18760+100770FM-12+0201VTCN V0209999C000012200019N0150001N1+03051+01951100991ADDAA199000091GF102991021011008001001001MA1999999098741MD1999999+0151REMSYN070AAXX  14094 48331 32565 20000 10305 20195 39874 40099 82100 333 58015;EQDQ01  00002PRCP99
0186483310999992000121412004+18760+100770FM-12+0201VTCN V0209999C000012200019N0120001N1+02501+01871101191ADDAA199000091GF101991011011008001001001KA1120M+03131MA1999999098891MD1999999+0191REMSYN076AAXX  14124 48331 32562 10000 10250 20187 39889 40119 81100 333 10313 58019;EQDQ01  00002PRCP99
0177483310999992000121415004+18760+100770FM-12+0201VTCN V0209999C000012200019N0100001N1+02141+01801101401ADDAA199000091GA1001+999999999GF100991001001999999001001MA1999999099051MD1999999+0241REMSYN064AAXX  14154 48331 32960 00000 10214 20180 39905 40140 333 58024;EQDQ01  00002PRCP99
0177483310999992000121418004+18760+100770FM-12+0201VTCN V0209999C000012200019N0100001N1+01911+01761101481ADDAA199000091GA1001+999999999GF100991001001999999001001MA1999999099121MD1999999+0261REMSYN064AAXX  14184 48331 32960 00000 10191 20176 39912 40148 333 58026;EQDQ01  00002PRCP99
0195483310999992000121421004+18760+100770FM-12+0201VTCN V0209999C000010075019N0080001N1+01821+01721101471ADDAA199000091AY111031AY201031GF105991051051008001051001MA1999999099091MD1999999+0261MW1101REMSYN076AAXX  14214 48331 31558 50000 10182 20172 39909 40147 71010 85550 333 58026;EQDQ01  00002PRCP99
0196483310999992000121500004+18760+100770FM-12+0201VTCN V0209999C000012200019N0100001N1+01731+01661101611ADDAA199000091GA1001+999999999GF100991001001999999001001KA1120N+01631MA1999999099241MD1999999+0211REMSYN070AAXX  15004 48331 32960 00000 10173 20166 39924 40161 333 20163 58021;EQDQ01  00002PRCP99
0177483310999992000121503004+18760+100770FM-12+0201VTCN V0209999C000012200019N0150001N1+02411+01871101631ADDAA199000091GA1001+999999999GF100991001001999999001001MA1999999099311MD1999999+0171REMSYN064AAXX  15034 48331 32965 00000 10241 20187 39931 40163 333 58017;EQDQ01  00002PRCP99
0167483310999992000121506004+18760+100770FM-12+0201VTCN V0209999C000012200019N0150001N1+02901+01871101251ADDAA199000091GF101991011021008001001001MA1999999098981MD1999999+0141REMSYN070AAXX  15064 48331 32565 10000 10290 20187 39898 40125 81200 333 58014;EQDQ01  00002PRCP99
0167483310999992000121509004+18760+100770FM-12+0201VTCN V0201601N001012200019N0150001N1+03031+01891101081ADDAA199000091GF101991011021008001001001MA1999999098811MD1999999+0091REMSYN070AAXX  15094 48331 32565 11602 10303 20189 39881 40108 81200 333 58009;EQDQ01  00002PRCP99
0196483310999992000121512004+18760+100770FM-12+0201VTCN V0209999C000012200019N0100001N1+02421+02001101331ADDAA199000091GA1001+999999999GF100991001001999999001001KA1120M+03121MA1999999099011MD1999999+0141REMSYN070AAXX  15124 48331 32960 00000 10242 20200 39901 40133 333 10312 58014;EQDQ01  00002PRCP99
0177483310999992000121515004+18760+100770FM-12+0201VTCN V0209999C000012200019N0100001N1+02101+01971101511ADDAA199000091GA1001+999999999GF100991001001999999001001MA1999999099171MD1999999+0111REMSYN064AAXX  15154 48331 32960 00000 10210 20197 39917 40151 333 58011;EQDQ01  00002PRCP99
0177483310999992000121518004+18760+100770FM-12+0201VTCN V0209999C000012200019N0100001N1+01861+01761101561ADDAA199000091GA1001+999999999GF100991001001999999001001MA1999999099201MD1999999+0081REMSYN064AAXX  15184 48331 32960 00000 10186 20176 39920 40156 333 58008;EQDQ01  00002PRCP99
0167483310999992000121521004+18760+100770FM-12+0201VTCN V0209999C000012200019N0100001N1+01751+01661101571ADDAA199000091GF101991011001999999031001MA1999999099201MD1999999+0101REMSYN070AAXX  15214 48331 32960 10000 10175 20166 39920 40157 81030 333 58010;EQDQ01  00002PRCP99
0193483310999992000121600004+18760+100770FM-12+0201VTCN V0209999C000010003019N0003001N1+01691+01641101781ADDAA199000091GA1091+999999999GF109991091999999999999999KA1120N+01561MA1999999099401REMSYN081AAXX  16004 48331 31/03 90000 10169 20164 39940 40178 4700 89/// 333 20156 58017;EQDQ01  00002PRCP99
0205483310999992000121603004+18760+100770FM-12+0201VTCN V0209999C000012200019N0080001N1+02261+01911101801ADDAA199000091AY141031AY201031GA1001+999999999GF100991001001999999001001MA1999999099471MD1999999+0171MW1101REMSYN070AAXX  16034 48331 31958 00000 10226 20191 39947 40180 71040 333 58017;EQDQ01  00002PRCP99
0205483310999992000121606004+18760+100770FM-12+0201VTCN V0209999C000012200019N0120001N1+02911+01851101471ADDAA199000091AY141061AY201061GA1001+999999999GF100991001001999999001001MA1999999099191MD1999999+0221MW1021REMSYN070AAXX  16064 48331 31962 00000 10291 20185 39919 40147 70240 333 58022;EQDQ01  00002PRCP99
0167483310999992000121609004+18760+100770FM-12+0201VTCN V0209999C000012200019N0150001N1+03151+01841101271ADDAA199000091GF101991011011008001001001MA1999999099011MD1999999+0191REMSYN070AAXX  16094 48331 32565 10000 10315 20184 39901 40127 81100 333 58019;EQDQ01  00002PRCP99
0186483310999992000121612004+18760+100770FM-12+0201VTCN V0209999C000012200019N0150001N1+02421+02001101451ADDAA199000091GF101991011011008001001001KA1120M+03201MA1999999099121MD1999999+0121REMSYN076AAXX  16124 48331 32565 10000 10242 20200 39912 40145 81100 333 10320 58012;EQDQ01  00002PRCP99
0167483310999992000121615004+18760+100770FM-12+0201VTCN V0209999C000012200019N0120001N1+02091+01861101621ADDAA199000091GF101991011011008001001001MA1999999099271MD1999999+0111REMSYN070AAXX  16154 48331 32562 10000 10209 20186 39927 40162 81100 333 58011;EQDQ01  00002PRCP99
0177483310999992000121618004+18760+100770FM-12+0201VTCN V0209999C000012200019N0120001N1+01851+01641101641ADDAA199000091GA1001+999999999GF100991001001999999001001MA1999999099281MD1999999+0081REMSYN064AAXX  16184 48331 32962 00000 10185 20164 39928 40164 333 58008;EQDQ01  00002PRCP99
0177483310999992000121621004+18760+100770FM-12+0201VTCN V0209999C000012200019N0100001N1+01701+01631101611ADDAA199000091GA1001+999999999GF100991001001999999001001MA1999999099231MD1999999+0041REMSYN064AAXX  16214 48331 32960 00000 10170 20163 39923 40161 333 58004;EQDQ01  00002PRCP99
0224483310999992000121700004+18760+100770FM-12+0201VTCN V0209999C000012200019N0005001N1+01601+01531101841ADDAA199000091AY101061AY201061GA1001+999999999GF100991001001999999001001KA1120N+01471MA1999999099451MD1999999+0061MW1461REMSYN076AAXX  17004 48331 31905 00000 10160 20153 39945 40184 74600 333 20147 58006;EQDQ01  00002PRCP99
0195483310999992000121703004+18760+100770FM-12+0201VTCN V0209999C000012200019N0080001N1+02221+01791101871ADDAA199000091AY141031AY201031GF101991011061004501001001MA1999999099531MD1999999+0071MW1101REMSYN076AAXX  17034 48331 31458 10000 10222 20179 39953 40187 71040 81600 333 58007;EQDQ01  00002PRCP99
0167483310999992000121706004+18760+100770FM-12+0201VTCN V0209999C000012200019N0150001N1+02951+01941101421ADDAA199000091GF101991011021008001001001MA1999999099151MD1999999-0051REMSYN070AAXX  17064 48331 32565 10000 10295 20194 39915 40142 81200 333 59005;EQDQ01  00002PRCP99
0167483310999992000121709004+18760+100770FM-12+0201VTCN V0209999C000012200019N0150001N1+03151+01621101161ADDAA199000091GF101991011021008001001011MA1999999098901MD1999999-0091REMSYN070AAXX  17094 48331 32565 10000 10315 20162 39890 40116 81201 333 59009;EQDQ01  00002PRCP99
0186483310999992000121712004+18760+100770FM-12+0201VTCN V0209999C000012200019N0120001N1+02341+01881101271ADDAA199000091GF102991001001999999001061KA1120M+03241MA1999999098951MD1999999-0181REMSYN076AAXX  17124 48331 32962 20000 10234 20188 39895 40127 80006 333 10324 59018;EQDQ01  00002PRCP99
0177483310999992000121715004+18760+100770FM-12+0201VTCN V0209999C000012200019N0120001N1+01971+01741101431ADDAA199000091GA1001+999999999GF100991001001999999001001MA1999999099081MD1999999-0191REMSYN064AAXX  17154 48331 32962 00000 10197 20174 39908 40143 333 59019;EQDQ01  00002PRCP99
0177483310999992000121718004+18760+100770FM-12+0201VTCN V0209999C000012200019N0120001N1+01741+01601101431ADDAA199000091GA1001+999999999GF100991001001999999001001MA1999999099061MD1999999-0231REMSYN064AAXX  17184 48331 32962 00000 10174 20160 39906 40143 333 59023;EQDQ01  00002PRCP99
0177483310999992000121721004+18760+100770FM-12+0201VTCN V0209999C000012200019N0120001N1+01571+01501101361ADDAA199000091GA1001+999999999GF100991001001999999001001MA1999999098981MD1999999-0251REMSYN064AAXX  17214 48331 32962 00000 10157 20150 39898 40136 333 59025;EQDQ01  00002PRCP99
0196483310999992000121800004+18760+100770FM-12+0201VTCN V0209999C000012200019N0100001N1+01501+01421101551ADDAA199000091GA1001+999999999GF100991001001999999001001KA1120N+01381MA1999999099151MD1999999-0291REMSYN070AAXX  18004 48331 32960 00000 10150 20142 39915 40155 333 20138 59029;EQDQ01  00002PRCP99
0167483310999992000121803004+18760+100770FM-12+0201VTCN V0209999C000012200019N0120001N1+02201+01711101601ADDAA199000091GF101991011011008001001001MA1999999099261MD1999999-0271REMSYN070AAXX  18034 48331 32562 10000 10220 20171 39926 40160 81100 333 59027;EQDQ01  00002PRCP99
0167483310999992000121806004+18760+100770FM-12+0201VTCN V0209999C000012200019N0150001N1+02911+01811101071ADDAA199000091GF101991011011008001001001MA1999999098801MD1999999-0351REMSYN070AAXX  18064 48331 32565 10000 10291 20181 39880 40107 81100 333 59035;EQDQ01  00002PRCP99
0167483310999992000121809004+18760+100770FM-12+0201VTCN V0209999C000012200019N0150001N1+03091+01651100801ADDAA199000091GF101991011011008001001001MA1999999098551MD1999999-0361REMSYN070AAXX  18094 48331 32565 10000 10309 20165 39855 40080 81100 333 59036;EQDQ01  00002PRCP99
0186483310999992000121812004+18760+100770FM-12+0201VTCN V0209999C000012200019N0120001N1+02341+01881100981ADDAA199000091GF101991011011008001001001KA1120M+03171MA1999999098671MD1999999-0291REMSYN076AAXX  18124 48331 32562 10000 10234 20188 39867 40098 81100 333 10317 59029;EQDQ01  00002PRCP99
0167483310999992000121815004+18760+100770FM-12+0201VTCN V0209999C000012200019N0120001N1+02001+01721101151ADDAA199000091GF101991011011008001001001MA1999999098811MD1999999-0281REMSYN070AAXX  18154 48331 32562 10000 10200 20172 39881 40115 81100 333 59028;EQDQ01  00002PRCP99
0177483310999992000121818004+18760+100770FM-12+0201VTCN V0209999C000012200019N0100001N1+01751+01631101171ADDAA199000091GA1001+999999999GF100991001001999999001001MA1999999098811MD1999999-0261REMSYN064AAXX  18184 48331 32960 00000 10175 20163 39881 40117 333 59026;EQDQ01  00002PRCP99
0177483310999992000121821004+18760+100770FM-12+0201VTCN V0209999C000012200019N0100001N1+01601+01511101151ADDAA199000091GA1001+999999999GF100991001001999999001001MA1999999098781MD1999999-0211REMSYN064AAXX  18214 48331 32960 00000 10160 20151 39878 40115 333 59021;EQDQ01  00002PRCP99
0230483310999992000121900004+18760+100770FM-12+0201VTCN V0209999C000010003019N0002001N1+01561+01521101351ADDAA199000091AY141061AY201061GA1091+999999999GF109991091999999999999999KA1120N+01441MA1999999098971MD1999999-0201MW1471REMSYN082AAXX  19004 48331 31/02 90000 10156 20152 39897 40135 74740 89/// 333 20144 59020;EQDQ01  00002PRCP99
0195483310999992000121903004+18760+100770FM-12+0201VTCN V0209999C000012200019N0080001N1+02241+01761101451ADDAA199000091AY141031AY201031GF101991011011008001001001MA1999999099111MD1999999-0151MW1101REMSYN076AAXX  19034 48331 31558 10000 10224 20176 39911 40145 71040 81100 333 59015;EQDQ01  00002PRCP99
0195483310999992000121906004+18760+100770FM-12+0201VTCN V0209999C000012200019N0120001N1+02961+01821101021ADDAA199000091AY141061AY201061GF101991011011008001001001MA1999999098761MD1999999-0051MW1021REMSYN076AAXX  19064 48331 31562 10000 10296 20182 39876 40102 70240 81100 333 59005;EQDQ01  00002PRCP99
0167483310999992000121909004+18760+100770FM-12+0201VTCN V0209999C000012200019N0150001N1+03111+01701100801ADDAA199000091GF101991011011008001001001MA1999999098551MD1999999+0001REMSYN070AAXX  19094 48331 32565 10000 10311 20170 39855 40080 81100 333 58000;EQDQ01  00002PRCP99
0186483310999992000121912004+18760+100770FM-12+0201VTCN V0209999C000012200019N0150001N1+02461+01901100941ADDAA199000091GF101991011011008001001001KA1120M+03201MA1999999098651MD1999999-0041REMSYN076AAXX  19124 48331 32565 10000 10246 20190 39865 40094 81100 333 10320 59004;EQDQ01  00002PRCP99
0167483310999992000121915004+18760+100770FM-12+0201VTCN V0209999C000012200019N0120001N1+02001+01771101251ADDAA199000091GF101991011011008001001001MA1999999098911MD1999999+0101REMSYN070AAXX  19154 48331 32562 10000 10200 20177 39891 40125 81100 333 58010;EQDQ01  00002PRCP99
0167483310999992000121918004+18760+100770FM-12+0201VTCN V0209999C000012200019N0120001N1+01811+01671101341ADDAA199000091GF103991011011008001051001MA1999999098991MD1999999+0171REMSYN070AAXX  19184 48331 32562 30000 10181 20167 39899 40134 81150 333 58017;EQDQ01  00002PRCP99
0167483310999992000121921004+18760+100770FM-12+0201VTCN V0209999C000012200019N0120001N1+01701+01611101421ADDAA199000091GF104991021051008001051051MA1999999099041MD1999999+0271REMSYN070AAXX  19214 48331 32562 40000 10170 20161 39904 40142 82555 333 58027;EQDQ01  00002PRCP99
0186483310999992000122000004+18760+100770FM-12+0201VTCN V0209999C000010450019N0100001N1+01701+01611101571ADDAA199000091GF106991021051012501051001KA1120N+01551MA1999999099201MD1999999+0221REMSYN076AAXX  20004 48331 32660 60000 10170 20161 39920 40157 82550 333 20155 58022;EQDQ01  00002PRCP99
0177483310999992000122003004+18760+100770FM-12+0201VTCN V0209999C000012200019N0150001N1+02351+01771101651ADDAA199000091GA1001+999999999GF100991001001999999001001MA1999999099331MD1999999+0201REMSYN064AAXX  20034 48331 32965 00000 10235 20177 39933 40165 333 58020;EQDQ01  00002PRCP99
0167483310999992000122006004+18760+100770FM-12+0201VTCN V0203601N001012200019N0150001N1+03051+01831101271ADDAA199000091GF101991011011008001001001MA1999999099011MD1999999+0251REMSYN070AAXX  20064 48331 32565 13602 10305 20183 39901 40127 81100 333 58025;EQDQ01  00002PRCP99
0161483310999992000122009004+18760+100770FM-12+0201VTCN V0209999C000012200019N0150001N1+03161+01841101061ADDAA199000091GF101991999999008001999999MA1999999098811MD1999999+0261REMSYN064AAXX  20094 48331 32565 10000 10316 20184 39881 40106 333 58026;EQDQ01  00002PRCP99
0186483310999992000122012004+18760+100770FM-12+0201VTCN V0209999C000012200019N0120001N1+02501+01871101241ADDAA199000091GF102991021001999999051001KA1120M+03271MA1999999098941MD1999999+0301REMSYN076AAXX  20124 48331 32962 20000 10250 20187 39894 40124 82050 333 10327 58030;EQDQ01  00002PRCP99
0177483310999992000122015004+18760+100770FM-12+0201VTCN V0209999C000012200019N0120001N1+02121+01831101481ADDAA199000091GA1001+999999999GF100991001001999999001001MA1999999099141MD1999999+0231REMSYN064AAXX  20154 48331 32962 00000 10212 20183 39914 40148 333 58023;EQDQ01  00002PRCP99
0177483310999992000122018004+18760+100770FM-12+0201VTCN V0209999C000012200019N0120001N1+01851+01681101541ADDAA199000091GA1001+999999999GF100991001001999999001001MA1999999099171MD1999999+0201REMSYN064AAXX  20184 48331 32962 00000 10185 20168 39917 40154 333 58020;EQDQ01  00002PRCP99
0177483310999992000122021004+18760+100770FM-12+0201VTCN V0209999C000012200019N0120001N1+01701+01611101471ADDAA199000091GA1001+999999999GF100991001001999999001001MA1999999099101MD1999999+0051REMSYN064AAXX  20214 48331 32962 00000 10170 20161 39910 40147 333 58005;EQDQ01  00002PRCP99
0186483310999992000122100004+18760+100770FM-12+0201VTCN V0209999C000012200019N0100001N1+01601+01511101651ADDAA199000091GF101991011011008001051001KA1120N+01481MA1999999099271MD1999999+0081REMSYN076AAXX  21004 48331 32560 10000 10160 20151 39927 40165 81150 333 20148 58008;EQDQ01  00002PRCP99
0167483310999992000122103004+18760+100770FM-12+0201VTCN V0209999C000012200019N0150001N1+02281+01761101761ADDAA199000091GF101991011011008001001011MA1999999099431MD1999999+0111REMSYN070AAXX  21034 48331 32565 10000 10228 20176 39943 40176 81101 333 58011;EQDQ01  00002PRCP99
0177483310999992000122106004+18760+100770FM-12+0201VTCN V0202401N001512200019N0150001N1+03031+01871101311ADDAA199000091GA1001+999999999GF100991001001999999001001MA1999999099031MD1999999+0041REMSYN064AAXX  21064 48331 32965 02403 10303 20187 39903 40131 333 58004;EQDQ01  00002PRCP99
0167483310999992000122109004+18760+100770FM-12+0201VTCN V0209999C000012200019N0150001N1+03161+01891101051ADDAA199000091GF101991011021008001001001MA1999999098801MD1999999-0011REMSYN070AAXX  21094 48331 32565 10000 10316 20189 39880 40105 81200 333 59001;EQDQ01  00002PRCP99
0186483310999992000122112004+18760+100770FM-12+0201VTCN V0209999C000012200019N0120001N1+02491+02091101181ADDAA199000091GF101991011011008001001001KA1120M+03231MA1999999098881MD1999999-0061REMSYN076AAXX  21124 48331 32562 10000 10249 20209 39888 40118 81100 333 10323 59006;EQDQ01  00002PRCP99
0177483310999992000122115004+18760+100770FM-12+0201VTCN V0209999C000012200019N0120001N1+02131+01921101391ADDAA199000091GA1001+999999999GF100991001001999999001001MA1999999099051MD1999999-0091REMSYN064AAXX  21154 48331 32962 00000 10213 20192 39905 40139 333 59009;EQDQ01  00002PRCP99
0177483310999992000122118004+18760+100770FM-12+0201VTCN V0209999C000012200019N0120001N1+01901+01751101391ADDAA199000091GA1001+999999999GF100991001001999999001001MA1999999099021MD1999999-0151REMSYN064AAXX  21184 48331 32962 00000 10190 20175 39902 40139 333 59015;EQDQ01  00002PRCP99
0177483310999992000122121004+18760+100770FM-12+0201VTCN V0209999C000012200019N0100001N1+01801+01711101331ADDAA199000091GA1001+999999999GF100991001001999999001001MA1999999098981MD1999999-0141REMSYN064AAXX  21214 48331 32960 00000 10180 20171 39898 40133 333 59014;EQDQ01  00002PRCP99
0186483310999992000122200004+18760+100770FM-12+0201VTCN V0209999C000012200019N0100001N1+01701+01611101521ADDAA199000091GF101991011011008001001001KA1120N+01571MA1999999099141MD1999999-0131REMSYN076AAXX  22004 48331 32560 10000 10170 20161 39914 40152 81100 333 20157 59013;EQDQ01  00002PRCP99
0167483310999992000122203004+18760+100770FM-12+0201VTCN V0209999C000012200019N0120001N1+02351+01881101631ADDAA199000091GF101991011011008001001001MA1999999099301MD1999999-0131REMSYN070AAXX  22034 48331 32562 10000 10235 20188 39930 40163 81100 333 59013;EQDQ01  00002PRCP99
0167483310999992000122206004+18760+100770FM-12+0201VTCN V0209999C000012200019N0120001N1+03051+01751101241ADDAA199000091GF101991011011008001001001MA1999999098981MD1999999-0071REMSYN070AAXX  22064 48331 32562 10000 10305 20175 39898 40124 81100 333 59007;EQDQ01  00002PRCP99
0167483310999992000122209004+18760+100770FM-12+0201VTCN V0209999C000012200019N0150001N1+03051+01791101021ADDAA199000091GF103991011011008001001051MA1999999098771MD1999999-0031REMSYN070AAXX  22094 48331 32565 30000 10305 20179 39877 40102 81105 333 59003;EQDQ01  00002PRCP99
0186483310999992000122212004+18760+100770FM-12+0201VTCN V0209999C000012200019N0150001N1+02471+02061101161ADDAA199000091GF101991011011008001001001KA1120M+03191MA1999999098861MD1999999-0021REMSYN076AAXX  22124 48331 32565 10000 10247 20206 39886 40116 81100 333 10319 59002;EQDQ01  00002PRCP99
0167483310999992000122215004+18760+100770FM-12+0201VTCN V0209999C000012200019N0120001N1+02111+01891101411ADDAA199000091GF101991011011008001001001MA1999999099061MD1999999+0021REMSYN070AAXX  22154 48331 32562 10000 10211 20189 39906 40141 81100 333 58002;EQDQ01  00002PRCP99
0167483310999992000122218004+18760+100770FM-12+0201VTCN V0209999C000012200019N0120001N1+01851+01731101501ADDAA199000091GF101991001001999999001011MA1999999099131MD1999999+0111REMSYN070AAXX  22184 48331 32962 10000 10185 20173 39913 40150 80001 333 58011;EQDQ01  00002PRCP99
0195483310999992000122221004+18760+100770FM-12+0201VTCN V0209999C000012200019N0080001N1+01741+01641101471ADDAA199000091AY101031AY201031GF102991021051008001001001MA1999999099091MD1999999+0141MW1101REMSYN076AAXX  22214 48331 31558 20000 10174 20164 39909 40147 71000 82500 333 58014;EQDQ01  00002PRCP99
0214483310999992000122300004+18760+100770FM-12+0201VTCN V0209999C000012200019N0002001N1+01681+01631101591ADDAA199000091AY101061AY201061GF102991021011008001001001KA1120N+01551MA1999999099211MD1999999+0071MW1461REMSYN082AAXX  23004 48331 31502 20000 10168 20163 39921 40159 74600 82100 333 20155 58007;EQDQ01  00002PRCP99
0195483310999992000122303004+18760+100770FM-12+0201VTCN V0209999C000012200019N0080001N1+02201+01831101721ADDAA199000091AY141031AY201031GF102991011011008001051001MA1999999099381MD1999999+0091MW1101REMSYN076AAXX  23034 48331 31558 20000 10220 20183 39938 40172 71040 81150 333 58009;EQDQ01  00002PRCP99
0167483310999992000122306004+18760+100770FM-12+0201VTCN V0209999C000012200019N0150001N1+02921+01811101281ADDAA199000091GF102991021011008001001001MA1999999099001MD1999999+0041REMSYN070AAXX  23064 48331 32565 20000 10292 20181 39900 40128 82100 333 58004;EQDQ01  00002PRCP99
0186483310999992000122312004+18760+100770FM-12+0201VTCN V0209999C000010450019N0150001N1+02551+01891101291ADDAA199000091GF106991041051008001031001KA1120M+03121MA1999999098991MD1999999+0131REMSYN076AAXX  23124 48331 32565 60000 10255 20189 39899 40129 84530 333 10312 58013;EQDQ01  00002PRCP99
0167483310999992000122315004+18760+100770FM-12+0201VTCN V0209999C000012200019N0120001N1+02121+01861101611ADDAA199000091GF103991021001999999051011MA1999999099271MD1999999+0201REMSYN070AAXX  23154 48331 32962 30000 10212 20186 39927 40161 82051 333 58020;EQDQ01  00002PRCP99
0177483310999992000122318004+18760+100770FM-12+0201VTCN V0209999C000012200019N0120001N1+01821+01651101661ADDAA199000091GA1001+999999999GF100991001001999999001001MA1999999099291MD1999999+0161REMSYN064AAXX  23184 48331 32962 00000 10182 20165 39929 40166 333 58016;EQDQ01  00002PRCP99
0167483310999992000122321004+18760+100770FM-12+0201VTCN V0209999C000012200019N0100001N1+01601+01511101591ADDAA199000091GF101991001001999999001011MA1999999099211MD1999999+0121REMSYN070AAXX  23214 48331 32960 10000 10160 20151 39921 40159 80001 333 58012;EQDQ01  00002PRCP99
0214483310999992000122400004+18760+100770FM-12+0201VTCN V0209999C000012200019N0080001N1+01431+01371101701ADDAA199000091AY101061AY201061GF101991011011008001001001KA1120N+01331MA1999999099301MD1999999+0111MW1101REMSYN082AAXX  24004 48331 31558 10000 10143 20137 39930 40170 71000 81100 333 20133 58011;EQDQ01  00002PRCP99
0167483310999992000122403004+18760+100770FM-12+0201VTCN V0209999C000012200019N0120001N1+02131+01441101761ADDAA199000091GF101991011011008001001001MA1999999099421MD1999999+0041REMSYN070AAXX  24034 48331 32562 10000 10213 20144 39942 40176 81100 333 58004;EQDQ01  00002PRCP99
0167483310999992000122406004+18760+100770FM-12+0201VTCN V0209999C000012200019N0150001N1+02721+01361101341ADDAA199000091GF101991011011008001001001MA1999999099051MD1999999+0061REMSYN070AAXX  24064 48331 32565 10000 10272 20136 39905 40134 81100 333 58006;EQDQ01  00002PRCP99
0167483310999992000122409004+18760+100770FM-12+0201VTCN V0209999C000012200019N0150001N1+02861+01411101111ADDAA199000091GF101991011011008001001001MA1999999098841MD1999999+0051REMSYN070AAXX  24094 48331 32565 10000 10286 20141 39884 40111 81100 333 58005;EQDQ01  00002PRCP99
0186483310999992000122412004+18760+100770FM-12+0201VTCN V0209999C000012200019N0120001N1+02241+01741101311ADDAA199000091GF101991011011008001001001KA1120M+02941MA1999999098991MD1999999+0021REMSYN076AAXX  24124 48331 32562 10000 10224 20174 39899 40131 81100 333 10294 58002;EQDQ01  00002PRCP99
0177483310999992000122415004+18760+100770FM-12+0201VTCN V0209999C000012200019N0100001N1+01821+01601101581ADDAA199000091GA1001+999999999GF100991001001999999001001MA1999999099211MD1999999-0031REMSYN064AAXX  24154 48331 32960 00000 10182 20160 39921 40158 333 59003;EQDQ01  00002PRCP99
0177483310999992000122418004+18760+100770FM-12+0201VTCN V0209999C000012200019N0100001N1+01571+01441101661ADDAA199000091GA1001+999999999GF100991001001999999001001MA1999999099271MD1999999+0001REMSYN064AAXX  24184 48331 32960 00000 10157 20144 39927 40166 333 58000;EQDQ01  00002PRCP99
0177483310999992000122421004+18760+100770FM-12+0201VTCN V0209999C000012200019N0100001N1+01371+01271101651ADDAA199000091GA1001+999999999GF100991001001999999001001MA1999999099241MD1999999+0061REMSYN064AAXX  24214 48331 32960 00000 10137 20127 39924 40165 333 58006;EQDQ01  00002PRCP99
0230483310999992000122500004+18760+100770FM-12+0201VTCN V0209999C000010001519N0000001N1+01301+01261101811ADDAA199000091AY141061AY201061GA1091+999999999GF109991091999999999999999KA1120N+01161MA1999999099401MD1999999+0111MW1471REMSYN082AAXX  25004 48331 31/00 90000 10130 20126 39940 40181 74740 89/// 333 20116 58011;EQDQ01  00002PRCP99
0205483310999992000122503004+18760+100770FM-12+0201VTCN V0209999C000012200019N0040001N1+01751+01471101951ADDAA199000091AY141031AY201031GA1001+999999999GF100991001001999999001001MA1999999099581MD1999999+0191MW1101REMSYN070AAXX  25034 48331 31940 00000 10175 20147 39958 40195 71040 333 58019;EQDQ01  00002PRCP99
0205483310999992000122506004+18760+100770FM-12+0201VTCN V0209999C000012200019N0120001N1+02531+01311101561ADDAA199000091AY141061AY201061GA1001+999999999GF100991001001999999001001MA1999999099251MD1999999+0221MW1021REMSYN070AAXX  25064 48331 31962 00000 10253 20131 39925 40156 70240 333 58022;EQDQ01  00002PRCP99
0177483310999992000122509004+18760+100770FM-12+0201VTCN V0209999C000012200019N0150001N1+02711+01251101331ADDAA199000091GA1001+999999999GF100991001001999999001001MA1999999099031MD1999999+0221REMSYN064AAXX  25094 48331 32965 00000 10271 20125 39903 40133 333 58022;EQDQ01  00002PRCP99
0196483310999992000122512004+18760+100770FM-12+0201VTCN V0209999C000012200019N0120001N1+02051+01531101451ADDAA199000091GA1001+999999999GF100991001001999999001001KA1120M+02851MA1999999099111MD1999999+0141REMSYN070AAXX  25124 48331 32962 00000 10205 20153 39911 40145 333 10285 58014;EQDQ01  00002PRCP99
0177483310999992000122515004+18760+100770FM-12+0201VTCN V0209999C000012200019N0120001N1+01681+01451101711ADDAA199000091GA1001+999999999GF100991001001999999001001MA1999999099331MD1999999+0131REMSYN064AAXX  25154 48331 32962 00000 10168 20145 39933 40171 333 58013;EQDQ01  00002PRCP99
0177483310999992000122518004+18760+100770FM-12+0201VTCN V0209999C000012200019N0120001N1+01501+01371101671ADDAA199000091GA1001+999999999GF100991001001999999001001MA1999999099271MD1999999+0011REMSYN064AAXX  25184 48331 32962 00000 10150 20137 39927 40167 333 58001;EQDQ01  00002PRCP99
0205483310999992000122521004+18760+100770FM-12+0201VTCN V0209999C000012200019N0080001N1+01341+01261101711ADDAA199000091AY101031AY201031GA1001+999999999GF100991001001999999001001MA1999999099301MD1999999+0061MW1101REMSYN070AAXX  25214 48331 31958 00000 10134 20126 39930 40171 71000 333 58006;EQDQ01  00002PRCP99
0224483310999992000122600004+18760+100770FM-12+0201VTCN V0209999C000010001519N0001001N1+01241+01201101881ADDAA199000091AY101061AY201061GA1091+999999999GF109991091999999999999999KA1120N+01071MA1999999099461MD1999999+0071MW1471REMSYN076AAXX  26004 48331 31/01 90000 10124 20120 39946 40188 74700 333 20107 58007;EQDQ01  00002PRCP99
0195483310999992000122603004+18760+100770FM-12+0201VTCN V0209999C000012200019N0040001N1+01651+01441102021ADDAA199000091AY141031AY201031GF103991031061004501001001MA1999999099631MD1999999+0071MW1281REMSYN076AAXX  26034 48331 31440 30000 10165 20144 39963 40202 72840 83600 333 58007;EQDQ01  00002PRCP99
0167483310999992000122606004+18760+100770FM-12+0201VTCN V0209999C000012200019N0150001N1+02611+01461101601ADDAA199000091GF101991011011008001001001MA1999999099301MD1999999+0041REMSYN070AAXX  26064 48331 32565 10000 10261 20146 39930 40160 81100 333 58004;EQDQ01  00002PRCP99
0167483310999992000122609004+18760+100770FM-12+0201VTCN V0209999C000012200019N0150001N1+02801+01381101331ADDAA199000091GF101991011011008001001001MA1999999099051MD1999999+0001REMSYN070AAXX  26094 48331 32565 10000 10280 20138 39905 40133 81100 333 58000;EQDQ01  00002PRCP99
0196483310999992000122612004+18760+100770FM-12+0201VTCN V0209999C000012200019N0120001N1+02101+01601101501ADDAA199000091GA1001+999999999GF100991001001999999001001KA1120M+02901MA1999999099161MD1999999+0051REMSYN070AAXX  26124 48331 32962 00000 10210 20160 39916 40150 333 10290 58005;EQDQ01  00002PRCP99
0177483310999992000122615004+18760+100770FM-12+0201VTCN V0209999C000012200019N0120001N1+01701+01511101711ADDAA199000091GA1001+999999999GF100991001001999999001001MA1999999099331MD1999999+0001REMSYN064AAXX  26154 48331 32962 00000 10170 20151 39933 40171 333 58000;EQDQ01  00002PRCP99
0177483310999992000122618004+18760+100770FM-12+0201VTCN V0209999C000012200019N0100001N1+01471+01361101731ADDAA199000091GA1001+999999999GF100991001001999999001001MA1999999099331MD1999999+0011REMSYN064AAXX  26184 48331 32960 00000 10147 20136 39933 40173 333 58001;EQDQ01  00002PRCP99
0177483310999992000122621004+18760+100770FM-12+0201VTCN V0209999C000012200019N0100001N1+01311+01231101671ADDAA199000091GA1001+999999999GF100991001001999999001001MA1999999099271MD1999999-0041REMSYN064AAXX  26214 48331 32960 00000 10131 20123 39927 40167 333 59004;EQDQ01  00002PRCP99
0224483310999992000122700004+18760+100770FM-12+0201VTCN V0209999C000010001519N0000001N1+01261+01251101831ADDAA199000091AY141061AY201061GA1091+999999999GF109991091999999999999999KA1120N+01141MA1999999099411MD1999999-0051MW1471REMSYN076AAXX  27004 48331 31/00 90000 10126 20125 39941 40183 74740 333 20114 59005;EQDQ01  00002PRCP99
0205483310999992000122703004+18760+100770FM-12+0201VTCN V0209999C000012200019N0080001N1+01851+01491101911ADDAA199000091AY141031AY201031GA1001+999999999GF100991001001999999001001MA1999999099561MD1999999-0111MW1101REMSYN070AAXX  27034 48331 31958 00000 10185 20149 39956 40191 71040 333 59011;EQDQ01  00002PRCP99
0205483310999992000122706004+18760+100770FM-12+0201VTCN V0209999C000012200019N0150001N1+02641+01471101581ADDAA199000091AY141061AY201061GA1001+999999999GF100991001001999999001001MA1999999099281MD1999999-0021MW1021REMSYN070AAXX  27064 48331 31965 00000 10264 20147 39928 40158 70240 333 59002;EQDQ01  00002PRCP99
0167483310999992000122709004+18760+100770FM-12+0201VTCN V0209999C000012200019N0150001N1+02901+01511101311ADDAA199000091GF101991011011008001001001MA1999999099021MD1999999-0021REMSYN070AAXX  27094 48331 32565 10000 10290 20151 39902 40131 81100 333 59002;EQDQ01  00002PRCP99
0186483310999992000122712004+18760+100770FM-12+0201VTCN V0209999C000012200019N0120001N1+02181+01671101441ADDAA199000091GF101991011011008001001001KA1120M+02951MA1999999099111MD1999999-0061REMSYN076AAXX  27124 48331 32562 10000 10218 20167 39911 40144 81100 333 10295 59006;EQDQ01  00002PRCP99
0177483310999992000122715004+18760+100770FM-12+0201VTCN V0209999C000012200019N0100001N1+01751+01521101661ADDAA199000091GA1001+999999999GF100991001001999999001001MA1999999099291MD1999999-0051REMSYN064AAXX  27154 48331 32960 00000 10175 20152 39929 40166 333 59005;EQDQ01  00002PRCP99
0177483310999992000122718004+18760+100770FM-12+0201VTCN V0209999C000012200019N0100001N1+01511+01401101661ADDAA199000091GA1001+999999999GF100991001001999999001001MA1999999099261MD1999999-0071REMSYN064AAXX  27184 48331 32960 00000 10151 20140 39926 40166 333 59007;EQDQ01  00002PRCP99
0205483310999992000122721004+18760+100770FM-12+0201VTCN V0209999C000010001519N0000001N1+01371+01331101621ADDAA199000091AY101031AY201031GA1091+999999999GF109991091999999999999999MA1999999099221MD1999999-0051MW1471REMSYN070AAXX  27214 48331 31/00 90000 10137 20133 39922 40162 74700 333 59005;EQDQ01  00002PRCP99
0230483310999992000122800004+18760+100770FM-12+0201VTCN V0209999C000010001519N0000001N1+01361+01351101761ADDAA199000091AY141061AY201061GA1091+999999999GF109991091999999999999999KA1120N+01231MA1999999099361MD1999999-0071MW1471REMSYN082AAXX  28004 48331 31/00 90000 10136 20135 39936 40176 74740 89/// 333 20123 59007;EQDQ01  00002PRCP99
0205483310999992000122803004+18760+100770FM-12+0201VTCN V0209999C000012200019N0020001N1+01621+01491101881ADDAA199000091AY141031AY241031GA1001+999999999GF100991001001999999001001MA1999999099501MD1999999-0031MW1101REMSYN070AAXX  28034 48331 31920 00000 10162 20149 39950 40188 71044 333 59003;EQDQ01  00002PRCP99
0205483310999992000122806004+18760+100770FM-12+0201VTCN V0209999C000012200019N0120001N1+02731+01551101521ADDAA199000091AY141061AY201061GA1001+999999999GF100991001001999999001001MA1999999099221MD1999999-0061MW1021REMSYN070AAXX  28064 48331 31962 00000 10273 20155 39922 40152 70240 333 59006;EQDQ01  00002PRCP99
0167483310999992000122809004+18760+100770FM-12+0201VTCN V0209999C000012200019N0150001N1+02921+01421101231ADDAA199000091GF101991001001999999001011MA1999999098961MD1999999-0081REMSYN070AAXX  28094 48331 32965 10000 10292 20142 39896 40123 80001 333 59008;EQDQ01  00002PRCP99
0186483310999992000122812004+18760+100770FM-12+0201VTCN V0209999C000012200019N0120001N1+02201+01661101361ADDAA199000091GF101991011011008001001001KA1120M+03051MA1999999099021MD1999999-0081REMSYN076AAXX  28124 48331 32562 10000 10220 20166 39902 40136 81100 333 10305 59008;EQDQ01  00002PRCP99
0177483310999992000122815004+18760+100770FM-12+0201VTCN V0209999C000012200019N0100001N1+01751+01501101521ADDAA199000091GA1001+999999999GF100991001001999999001001MA1999999099151MD1999999-0141REMSYN064AAXX  28154 48331 32960 00000 10175 20150 39915 40152 333 59014;EQDQ01  00002PRCP99
0177483310999992000122818004+18760+100770FM-12+0201VTCN V0209999C000012200019N0100001N1+01501+01351101551ADDAA199000091GA1001+999999999GF100991001001999999001001MA1999999099161MD1999999-0111REMSYN064AAXX  28184 48331 32960 00000 10150 20135 39916 40155 333 59011;EQDQ01  00002PRCP99
0177483310999992000122821004+18760+100770FM-12+0201VTCN V0209999C000012200019N0100001N1+01301+01201101511ADDAA199000091GA1001+999999999GF100991001001999999001001MA1999999099111MD1999999-0111REMSYN064AAXX  28214 48331 32960 00000 10130 20120 39911 40151 333 59011;EQDQ01  00002PRCP99
0214483310999992000122900004+18760+100770FM-12+0201VTCN V0209999C000012200019N0060001N1+01251+01191101641ADDAA199000091AY101061AY201061GF102991001001999999001051KA1120N+01131MA1999999099231MD1999999-0121MW1101REMSYN082AAXX  29004 48331 31956 20000 10125 20119 39923 40164 71000 80005 333 20113 59012;EQDQ01  00002PRCP99
0177483310999992000122903004+18760+100770FM-12+0201VTCN V0203601N001012200019N0100001N1+02001+01431101681ADDAA199000091GA1001+999999999GF100991001001999999001001MA1999999099331MD1999999-0201REMSYN064AAXX  29034 48331 32960 03602 10200 20143 39933 40168 333 59020;EQDQ01  00002PRCP99
0167483310999992000122906004+18760+100770FM-12+0201VTCN V0209999C000012200019N0150001N1+02811+01631101281ADDAA199000091GF101991011011008001001001MA1999999099001MD1999999-0241REMSYN070AAXX  29064 48331 32565 10000 10281 20163 39900 40128 81100 333 59024;EQDQ01  00002PRCP99
0167483310999992000122909004+18760+100770FM-12+0201VTCN V0209999C000012200019N0150001N1+02951+01601100981ADDAA199000091GF101991011011008001001001MA1999999098721MD1999999-0251REMSYN070AAXX  29094 48331 32565 10000 10295 20160 39872 40098 81100 333 59025;EQDQ01  00002PRCP99
0224483310999992000122912004+18760+100770FM-12+0201VTCN V0209999C000012200019N0080001N1+02271+01791101111ADDAA199000091AY101061AY201061GA1001+999999999GF100991001001999999001001KA1120M+03071MA1999999098791MD1999999-0251MW1101REMSYN076AAXX  29124 48331 31958 00000 10227 20179 39879 40111 71000 333 10307 59025;EQDQ01  00002PRCP99
0205483310999992000122915004+18760+100770FM-12+0201VTCN V0209999C000012200019N0080001N1+01901+01721101361ADDAA199000091AY101031AY201031GA1001+999999999GF100991001001999999001001MA1999999099011MD1999999-0161MW1101REMSYN070AAXX  29154 48331 31958 00000 10190 20172 39901 40136 71000 333 59016;EQDQ01  00002PRCP99
0195483310999992000122918004+18760+100770FM-12+0201VTCN V0209999C000012200019N0080001N1+01701+01521101351ADDAA199000091AY101061AY201061GF102991021001999999051001MA1999999098981MD1999999-0201MW1101REMSYN076AAXX  29184 48331 31958 20000 10170 20152 39898 40135 71000 82050 333 59020;EQDQ01  00002PRCP99
0195483310999992000122921004+18760+100770FM-12+0201VTCN V0209999C000012200019N0080001N1+01551+01461101351ADDAA199000091AY101031AY201031GF103991031001999999051001MA1999999098971MD1999999-0161MW1101REMSYN076AAXX  29214 48331 31958 30000 10155 20146 39897 40135 71000 83050 333 59016;EQDQ01  00002PRCP99
0214483310999992000123000004+18760+100770FM-12+0201VTCN V0209999C000012200019N0060001N1+01541+01471101501ADDAA199000091AY101061AY201061GF102991021011008001001001KA1120N+01401MA1999999099111MD1999999-0141MW1101REMSYN082AAXX  30004 48331 31556 20000 10154 20147 39911 40150 71000 82100 333 20140 59014;EQDQ01  00002PRCP99
0167483310999992000123003004+18760+100770FM-12+0201VTCN V0209999C000012200019N0120001N1+02181+01601101541ADDAA199000091GF101991011011008001001001MA1999999099201MD1999999-0141REMSYN070AAXX  30034 48331 32562 10000 10218 20160 39920 40154 81100 333 59014;EQDQ01  00002PRCP99
0167483310999992000123006004+18760+100770FM-12+0201VTCN V0209999C000012200019N0150001N1+02871+01701101151ADDAA199000091GF102991021011008001001001MA1999999098891MD1999999-0131REMSYN070AAXX  30064 48331 32565 20000 10287 20170 39889 40115 82100 333 59013;EQDQ01  00002PRCP99
0167483310999992000123009004+18760+100770FM-12+0201VTCN V0209999C000012200019N0150001N1+03101+01781100901ADDAA199000091GF101991011011008001001001MA1999999098651MD1999999-0081REMSYN070AAXX  30094 48331 32565 10000 10310 20178 39865 40090 81100 333 59008;EQDQ01  00002PRCP99
0196483310999992000123012004+18760+100770FM-12+0201VTCN V0209999C000012200019N0120001N1+02421+01881101081ADDAA199000091GA1001+999999999GF100991001001999999001001KA1120M+03211MA1999999098771MD1999999-0031REMSYN070AAXX  30124 48331 32962 00000 10242 20188 39877 40108 333 10321 59003;EQDQ01  00002PRCP99
0167483310999992000123015004+18760+100770FM-12+0201VTCN V0209999C000012200019N0100001N1+02061+01851101301ADDAA199000091GF101991011011008001001001MA1999999098971MD1999999-0061REMSYN070AAXX  30154 48331 32560 10000 10206 20185 39897 40130 81100 333 59006;EQDQ01  00002PRCP99
0205483310999992000123018004+18760+100770FM-12+0201VTCN V0209999C000012200019N0080001N1+01851+01681101321ADDAA199000091AY101061AY201061GA1001+999999999GF100991001001999999001001MA1999999098971MD1999999-0031MW1101REMSYN070AAXX  30184 48331 31958 00000 10185 20168 39897 40132 71000 333 59003;EQDQ01  00002PRCP99
0195483310999992000123021004+18760+100770FM-12+0201VTCN V0209999C000012200019N0060001N1+01701+01611101291ADDAA199000091AY101031AY201031GF102991021011008001001001MA1999999098931MD1999999-0061MW1101REMSYN076AAXX  30214 48331 31556 20000 10170 20161 39893 40129 71000 82100 333 59006;EQDQ01  00002PRCP99
0186483310999992000123100004+18760+100770FM-12+0201VTCN V0209999C000012200019N0100001N1+01611+01521101491ADDAA199000091GF103991031051008001001001KA1120N+01501MA1999999099111MD1999999-0011REMSYN076AAXX  31004 48331 32560 30000 10161 20152 39911 40149 83500 333 20150 59001;EQDQ01  00002PRCP99
0167483310999992000123103004+18760+100770FM-12+0201VTCN V0209999C000012200019N0120001N1+02251+01751101561ADDAA199000091GF102991021051008001001001MA1999999099231MD1999999+0021REMSYN070AAXX  31034 48331 32562 20000 10225 20175 39923 40156 82500 333 58002;EQDQ01  00002PRCP99
0167483310999992000123106004+18760+100770FM-12+0201VTCN V0209999C000012200019N0150001N1+02871+01741101171ADDAA199000091GF103991011051008001051001MA1999999098901MD1999999+0021REMSYN070AAXX  31064 48331 32565 30000 10287 20174 39890 40117 81550 333 58002;EQDQ01  00002PRCP99
0167483310999992000123109004+18760+100770FM-12+0201VTCN V0209999C000012200019N0150001N1+03041+01741100911ADDAA199000091GF101991011011008001001011MA1999999098651MD1999999+0011REMSYN070AAXX  31094 48331 32565 10000 10304 20174 39865 40091 81101 333 58001;EQDQ01  00002PRCP99
0186483310999992000123112004+18760+100770FM-12+0201VTCN V0209999C000012200019N0120001N1+02401+01851101081ADDAA199000091GF101991011001008001051001KA1120M+03111MA1999999098771MD1999999+0001REMSYN076AAXX  31124 48331 32562 10000 10240 20185 39877 40108 81050 333 10311 58000;EQDQ01  00002PRCP99
0195483310999992000123118004+18760+100770FM-12+0201VTCN V0209999C000012200019N0080001N1+01801+01661101301ADDAA199000091AY101061AY201061GF102991001001999999001011MA1999999098941MD1999999-0021MW1101REMSYN076AAXX  31184 48331 31958 20000 10180 20166 39894 40130 71000 80001 333 59002;EQDQ01  00002PRCP99
0195483310999992000123121004+18760+100770FM-12+0201VTCN V0209999C000012200019N0080001N1+01651+01561101261ADDAA199000091AY101031AY201031GF102991001001999999001011MA1999999098891MD1999999-0031MW1101REMSYN076AAXX  31214 48331 31958 20000 10165 20156 39889 40126 71000 80001 333 59003;EQDQ01  00002PRCP99
