0182575830999992000010100004+29720+113880FM-12+006199999V0200201N001019999999N0070001N1+00441+00241102191ADDAA106000091GF108991081001999999071999IA2999+00209MD1210131+0201MW1101REMSYN082AAXX  01001 57583 31957 80201 10044 20024 40219 52013 71000 8807/ 333 00251 30024;EQDQ01  00002PRCP06
0187575830999992000010106004+29720+113880FM-12+006199999V0203401N002012200019N0080001N1+00921+00311102071ADDAA106000091GA1001+999999999GF100991001001999999001001KA1999N+00391MD1710181+9999MW1051REMSYN070AAXX  01061 57583 31958 03402 10092 20031 40207 57018 70500 333 20039;EQDQ01  00002PRCP06
0200575830999992000010200004+29720+113880FM-12+006199999V0203601N001010003019N0002001N1+00231+00231102601ADDAA106000091AY141061GA1091+999999999GF109991091999999999999999IA2999+00009MD1210111+0401MW1471REMSYN076AAXX  02001 57583 31/02 93601 10023 20023 40260 52011 74740 333 00452 30003;EQDQ01  00002PRCP06
0175575830999992000010206004+29720+113880FM-12+006199999V0203601N001012200019N0120001N1+01081+00461102231ADDAA106000091GA1001+999999999GF100991001001999999001001KA1999N+00201MD1710381+9999REMSYN064AAXX  02061 57583 31962 03601 10108 20046 40223 57038 333 20020;EQDQ01  00002PRCP06
0124575830999992000010221004+29720+113880FM-12+006199999V02099999999999999999N0080001N1+00571+00331101721ADDGF107991071001999999031999MD1710151+9999MW1101REMSYN066AAXX  02211 57583 41958 7162/ 10057 20033 40172 57015 71000 8703/;
0175575830999992000010306004+29720+113880FM-12+006199999V0200901N003012200019N0120001N1+01281+00371101541ADDAA106000091GA1001+999999999GF100991001001999999001001KA1999N+00391MD1710301+9999REMSYN064AAXX  03061 57583 32962 00903 10128 20037 40154 57030 333 20039;EQDQ01  00002PRCP06
0124575830999992000010321004+29720+113880FM-12+006199999V0200401N003019999999N0070001N1+00861+00691101361ADDGF108991081001999999071999MD1710081+9999MW1101REMSYN066AAXX  03211 57583 41957 80403 10086 20069 40136 57008 71000 8807/;
0164575830999992000010400004+29720+113880FM-12+006199999V0200401N002019999999N0050001N1+00881+00711101401ADDAA106000091GF107991071001999999031999MD1210041+0041MW1101REMSYN076AAXX  04001 57583 31950 70402 10088 20071 40140 52004 71000 8703/ 333 05404;EQDQ01  00002PRCP06
0177575830999992000010406004+29720+113880FM-12+006199999V0203601N002019999999N0070001N1+01181+00721101261ADDAA106000091GF107991071001999999031999KA1999N+00821MD1710221+9999MW1061REMSYN076AAXX  04061 57583 31957 73602 10118 20072 40126 57022 70600 8703/ 333 20082;EQDQ01  00002PRCP06
0124575830999992000010421004+29720+113880FM-12+006199999V0203401N002019999999N0080001N1+00621+00411101631ADDGF108991081001999999071999MD1210101+9999MW1101REMSYN066AAXX  04211 57583 41958 83402 10062 20041 40163 52010 71000 8807/;
0164575830999992000010500004+29720+113880FM-12+006199999V0203401N001019999999N0080001N1+00581+00391101701ADDAA106000091GF108991081001999999071999MD1210071+0031MW1101REMSYN076AAXX  05001 57583 31958 83401 10058 20039 40170 52007 71000 8807/ 333 00353;EQDQ01  00002PRCP06
0177575830999992000010506004+29720+113880FM-12+006199999V0203401N003019999999N0080001N1+00651+00391101571ADDAA106000091GF108991081001999999071999KA1999N+00531MD1710201+9999MW1101REMSYN076AAXX  05061 57583 31958 83403 10065 20039 40157 57020 71000 8807/ 333 20053;EQDQ01  00002PRCP06
0118575830999992000010521004+29720+113880FM-12+006199999V0203601N003019999999N0070001N1+00421+00221102261ADDGF108991999999999999999999MD1710021+9999MW1101REMSYN060AAXX  05211 57583 41957 83603 10042 20022 40226 57002 71000;
0176575830999992000010600004+29720+113880FM-12+006199999V0203601N003019999999N0100001N1+00471+00191102471ADDAA106000091GF108991081001999999071999IA2999+00409MD1210211+0801REMSYN082AAXX  06001 57583 32960 83603 10047 20019 40247 52021 8807/ 333 00851 30040 79999;EQDQ01  00002PRCP06
0172575830999992000010606004+29720+113880FM-12+006199999V0200201N004019999999N0100001N1+00721+00001102481ADDAA106000791AY161061GF108991081001999999071999KA1999N+00321MD1710151+9999MW1001REMSYN082AAXX  06061 57583 11960 80204 10072 20000 40248 57015 69901 70060 8807/ 333 20032;
0133575830999992000010621004+29720+113880FM-12+006199999V0200701N002019999999N0120001N1+00361+00131102021ADDAA124000591GF108991081001999999071999MD1710121+9999REMSYN070AAXX  06211 57583 42962 80702 10036 20013 40202 57012 8807/ 333 70006;
0164575830999992000010700004+29720+113880FM-12+006199999V0200701N002019999999N0100001N1+00301+00211102491ADDAA106000091GF108991081001999999071999MD1210071+0001REMSYN082AAXX  07001 57583 32960 80702 1003/ 20021 40249 52007 8807/ 333 00051 30/06 70006;EQDQ01  00002PRCP06
0172575830999992000010706004+29720+113880FM-12+006199999V0200701N003019999999N0120001N1+00521+00331102131ADDAA106000191AY161061GF108991081001999999071999KA1999N+00311MD1710351+9999MW1001REMSYN082AAXX  07061 57583 11962 80703 10052 20033 40213 57035 69921 70060 8807/ 333 20031;
0153575830999992000010721004+29720+113880FM-12+006199999V0200401N003019999999N0060001N1+00381+00331101941ADDAA124006191AY161031GF108991081001999999071999MD1710271+9999MW1601REMSYN076AAXX  07211 57583 41956 80403 10038 20033 40194 57027 76060 8807/ 333 70060;
0183575830999992000010800004+29720+113880FM-12+006199999V0200401N003010042019N0060001N1+00421+00401102001ADDAA106003091AY161061GF108991071071004501021999IA2999+00409MD1210051-0501MW1601REMSYN094AAXX  08001 57583 11456 80403 10042 20040 40200 52005 60031 76060 8772/ 333 05501 30040 70081;
0180575830999992000010806004+29720+113880FM-12+006199999V0200201N003010042019N0050001N1+00371+00321101741ADDAA106005191AY161061AY261061GF108991071071004501021999KA1999N+00341MD1710331+9999MW1601REMSYN082AAXX  08061 57583 11450 80203 10037 20032 40174 57033 60051 76066 8772/ 333 20034;
0155575830999992000010821004+29720+113880FM-12+006199999V0203201N001019999999N0080001N1+99999+99999102101ADDAA124007491AY161031AY281031GF108991081001999999071999MD1410001+9999MW1101REMSYN070AAXX  08211 57583 41958 83201 20021 40210 54000 71068 8807/ 333 70074;
0183575830999992000010900004+29720+113880FM-12+006199999V0203401N002019999999N0100001N1+00291+00161102201ADDAA106000791AY161061GF108991081001999999071999IA2999+00349MD1210101+0201MW1001REMSYN094AAXX  09001 57583 11960 83402 10029 20016 40220 52010 69901 70060 8807/ 333 00251 30034 70053;
0165575830999992000011000004+29720+113880FM-12+006199999V0203601N002010042019N0060001N1+00581+00531102071ADDAA106002091AY161061GF108991061071004501021999MD1710021-0101MW1101REMSYN088AAXX  10001 57583 11456 83602 10058 20053 40207 57002 60021 71060 8672/ 333 05103 70039;
0172575830999992000011006004+29720+113880FM-12+006199999V0200401N003010042019N0070001N1+00651+00611101881ADDAA106010991AY161061GF108991071071004501021999KA1999N+00511MD1710251+9999MW1611REMSYN082AAXX  10061 57583 11457 80403 10065 20061 40188 57025 60111 76160 8772/ 333 20051;
0161575830999992000011021004+29720+113880FM-12+006199999V0203401N002010042019N0060001N1+00501+00451101751ADDAA124039691AY161031AY261031GF108991071071004501021999MD1210031+9999MW1611REMSYN076AAXX  10211 57583 41456 83402 10050 20045 40175 52003 76166 8772/ 333 70397;
0191575830999992000011100004+29720+113880FM-12+006199999V0203201N001010042019N0080001N1+00481+00431101901ADDAA106015091AY161061AY261061GF108991071071004501021999IA2999+00509MD1210151-0201MW1611REMSYN094AAXX  11001 57583 11458 83201 10048 20043 40190 52015 60151 76166 8772/ 333 05251 30050 70462;
0180575830999992000011106004+29720+113880FM-12+006199999V0203601N003010042019N0120001N1+00511+00441101831ADDAA106009991AY161061AY261061GF108991071071004501021999KA1999N+00411MD1710191+9999MW1601REMSYN082AAXX  11061 57583 11462 83603 10051 20044 40183 57019 60101 76066 8772/ 333 20041;
0140575830999992000011109004+29720+113880FM-12+006199999V0200201N004010042019N0120001N1+00421+00371101951ADDAY161031AY261031GF108991071071004501021999MD1210121+9999MW1601REMSYN066AAXX  11091 57583 41462 80204 10042 20037 40195 52012 76066 8772/;
0176575830999992000011200004+29720+113880FM-12+006199999V0200201N002019999999N0120001N1+00171-00021102541ADDAA106000091GF108991081001999999071999IA2999+00219MD1210091+0601REMSYN082AAXX  12001 57583 32962 80202 10017 21002 40254 52009 8807/ 333 00653 30021 70110;EQDQ01  00002PRCP06
0165575830999992000011206004+29720+113880FM-12+006199999V0200401N002019999999N0130001N1+00381+00121102361ADDAA106000091GF108991081001999999071999KA1999N+00131MD1710221+9999REMSYN070AAXX  12061 57583 32963 80402 10038 20012 40236 57022 8807/ 333 20013;EQDQ01  00002PRCP06
0122575830999992000011221004+29720+113880FM-12+006199999V0203401N001012200019N0120001N1+00221+00141108251ADDGA1001+999999999GF100991001001999999001001MD1710131+9999REMSYN054AAXX  12211 57583 42962 03401 10022 20014 40825 57013;
0180575830999992000011300004+29720+113880FM-12+006199999V0200901N003019999999N0060001N1+00181+00131102262ADDAA106000091GF107991001001999999001011MD1210011+0031MW1101REMSYN076AAXX  13001 57583 31956 70903 10018 20013 40226 52001 71000 80001 333 05300;EQDQ01+102263APOSLPQ02  00002PRCP06
0165575830999992000011306004+29720+113880FM-12+006199999V0200201N003010150019N0120001N1+00471+00111102121ADDAA106000091GF105991051051017501001001KA1999N+00081MD1710221+9999REMSYN070AAXX  13061 57583 32762 50203 10047 20011 40212 57022 85500 333 20008;EQDQ01  00002PRCP06
0174575830999992000011400004+29720+113880FM-12+006199999V0200401N002019999999N0100001N1+00161+00051102381ADDAA199000091GF108991081001999999071999IA2999+00109MD1210061+0101REMSYN080    AAXX  14001 57583 32960 80402 10016 20005 40238 52006 8807/ 333 00100 30016;EQDQ01  00002PRCP99
0169575830999992000011406004+29720+113880FM-12+006199999V0200401N003019999999N0120001N1+00281+00181102071ADDAA199000091GF108991081001999999071999KA1999N+00121MD1710301+9999REMSYN074    AAXX  14061 57583 32962 80403 10028 20018 40207 57030 8807/ 333 20012;EQDQ01  00002PRCP99
0187575830999992000011500004+29720+113880FM-12+006199999V0200201N002010042019N0040001N1+00171+00141102241ADDAA106001091AY161061GF108991071071004501021999IA2999+00259MD1210151-0101MW1601REMSYN098    AAXX  15001 57583 11440 80202 10017 20014 40224 52015 69991 76060 8772/ 333 05100 30025 70086;
0184575830999992000011506004+29720+113880FM-12+006199999V0203601N003010042019N0060001N1+00161+00081102281ADDAA106002091AY171061AY261061GF108991061071004501021999KA1999N+00101MD1710101+9999MW1601REMSYN086    AAXX  15061 57583 11456 83603 10016 20008 40228 57010 60021 76076 8672/ 333 20010;
0149575830999992000011521004+29720+113880FM-12+006199999V0203601N003019999999N0050001N1+00101-00011102681ADDAA124002591GF108991081001999999071999MD1710021+9999MW1101REMSYN080    AAXX  15211 57583 41950 83603 10010 21001 40268 57002 71000 8807/ 333 70026;
0173575830999992000011600004+29720+113880FM-12+006199999V0200201N003019999999N0080001N1+00121+00011102831ADDAA124001891GF108991081001999999071999IA2999+00109MD1210151+0601MW1101REMSYN092    AAXX  16001 57583 31958 80203 10012 20001 40283 52015 71000 8807/ 333 00651 30010 70018;
0161575830999992000011606004+29720+113880FM-12+006199999V0203401N003019999999N0080001N1+00131-00011102791ADDAA199000091GF108991081001999999071999KA1999N+00041MW1101REMSYN074    AAXX  16061 57583 31958 83403 10013 21001 40279 71000 8807/ 333 20004;EQDQ01  00002PRCP99
0157575830999992000011621004+29720+113880FM-12+006199999V0203601N002010042019N0060001N1+00101+00041102981ADDAA124003691AY171031GF108991071071004501021999MD1710021+9999MW1101REMSYN080    AAXX  16211 57583 41456 83602 10010 20004 40298 57002 71070 8772/ 333 70036;
0187575830999992000011700004+29720+113880FM-12+006199999V0203601N002019999999N0070001N1+00001+99999103001ADDAA106000191AY171061GF108991081001999999071999IA2999+00059MD1210081+0201MW1101REMSYN098    AAXX  17001 57583 11957 83602 10000 20002 4030/ 52008 69921 71070 8807/ 333 00200 30005 70036;
0181575830999992000011706004+29720+113880FM-12+006199999V0203401N003019999999N0080001N1+00191+00051102891ADDAA199000091GF108991081001999999071999KA1999N+00011MD1710201+9999MW1101REMSYN080    AAXX  17061 57583 31958 83403 10019 20005 40289 57020 71000 8807/ 333 20001;EQDQ01  00002PRCP99
0122575830999992000011721004+29720+113880FM-12+006199999V02099999999992200019N0080001N1+00051-00041102951ADDGF103991031001999999041001MD1710041+9999REMSYN070    AAXX  17211 57583 4/958 30/00 10005 21004 40295 57004 71000 83040;
0194575830999992000011800004+29720+113880FM-12+006199999V0201801N002019999999N0006001N1-00011-00041103031ADDAA199000091AY141061GF107991071001999999031999IA2999+00009MD1210071+0001MW1421REMSYN086    AAXX  18001 57583 31906 71802 11001 21004 40303 52007 74240 8703/ 333 00051 31009;EQDQ01  00002PRCP99
0147575830999992000011806004+29720+113880FM-12+006199999V0202701N003019999999N0100001N1+00621+00171102911ADDAA199000091GF106991999999999999999999REMSYN079    AAXX  18061 57583 31960 62703 10062 20017 40291 5702 70040 86030 333 21008;EQDQ01  00002PRCP99
0126575830999992000011821004+29720+113880FM-12+006199999V0200201N002012200019N0120001N1+00181-00201103101ADDGA1001+999999999GF100991001001999999001001MD1210031+9999REMSYN058    AAXX  18211 57583 42962 00202 10018 21020 40310 52003;
0174575830999992000011900004+29720+113880FM-12+006199999V0200201N002019999999N0100001N1+00201-00311103381ADDAA199000091GF107991001001999999001021IA2999-00209MD1210281+0401REMSYN080    AAXX  19001 57583 32960 70202 10020 21031 40338 52028 80002 333 00402 31026;EQDQ01  00002PRCP99
0169575830999992000011906004+29720+113880FM-12+006199999V0200701N002012200019N0200001N1+00631-00301103201ADDAA199000091GF102991001001999999001021KA1999N+00031MD1710321+9999REMSYN074    AAXX  19061 57583 32970 20702 10063 21030 40320 57032 80002 333 20003;EQDQ01  00002PRCP99
0122575830999992000011921004+29720+113880FM-12+006199999V0200901N002012200019N0120001N1+00021-00251103051ADDGA1001+999999999GF100991001001999999001001MD1710171+9999REMSYN054AAXX  19211 57583 42962 00902 10002 21025 40305 57017;
0170575830999992000012000004+29720+113880FM-12+006199999V0200701N002012200019N0120001N1+00001-00311103261ADDAA199000091GF102991001001999999001021IA2999-00309MD1210211-0101REMSYN076AAXX  20001 57583 32962 20702 10000 21031 40326 52021 80002 333 05152 31030;EQDQ01  00002PRCP99
0165575830999992000012006004+29720+113880FM-12+006199999V0200901N003019999999N0200001N1+00741-00331103071ADDAA199000091GF106991001001999999001021KA1999N-00051MD1710281+9999REMSYN070AAXX  20061 57583 32970 60903 10074 21033 40307 57028 80002 333 21005;EQDQ01  00002PRCP99
0112575830999992000012009004+29720+113880FM-12+006199999V0200401N003019999999N0200001N1+00741+00021103041ADDGF107991071001999999031999MD1710031+9999REMSYN060AAXX  20091 57583 42970 70403 10074 20002 40304 57003 8703/;
0112575830999992000012021004+29720+113880FM-12+006199999V0200901N003019999999N0100001N1+00391-00171103061ADDGF108991081001999999071999MD1710081+9999REMSYN060AAXX  20211 57583 42960 80903 10039 21017 40306 57008 8807/;
0170575830999992000012100004+29720+113880FM-12+006199999V0201401N002019999999N0120001N1+00371-00171103121ADDAA199000091GF108991081001999999071999IA2999+00209MD1210061-0101REMSYN076AAXX  21001 57583 32962 81402 10037 21017 40312 52006 8807/ 333 05104 30026;EQDQ01  00002PRCP99
0145575830999992000012121004+29720+113880FM-12+006199999V0200201N003010042019N0050001N1+00181+00131102771ADDAA124007491GF108991071071004501021999MD1710081+9999MW1601REMSYN076AAXX  21211 57583 41450 80203 10018 20013 40277 57008 76000 8772/ 333 70074;
0183575830999992000012200004+29720+113880FM-12+006199999V0203601N002010042019N0080001N1+00161+00111102811ADDAA106003091AY161061GF108991071071004501021999IA2999+00199MD1210041-0301MW1601REMSYN094AAXX  22001 57583 11458 83602 10016 20011 40281 52004 60031 76060 8772/ 333 05352 30019 70092;
0172575830999992000012206004+29720+113880FM-12+006199999V0203401N002010042019N0070001N1+00171+00121102651ADDAA106001091AY161061GF108991061071004501021999KA1999N+00101MD1710201+9999MW1601REMSYN082AAXX  22061 57583 11457 83402 10017 20012 40265 57020 69991 76060 8672/ 333 20010;
0191575830999992000012300004+29720+113880FM-12+006199999V0203401N002010042019N0050001N1+00181+00151102721ADDAA106013091AY161061AY261061GF108991071071004501021999IA2999+00199MD1710271-0101MW1611REMSYN094AAXX  23001 57583 11450 83402 10018 20015 40272 57027 60131 76166 8772/ 333 05100 30019 70207;
0180575830999992000012306004+29720+113880FM-12+006199999V0200401N002010042019N0080001N1+00241+00191102561ADDAA106005191AY161061AY261061GF108991071071004501021999KA1999N+00101MD1710221+9999MW1601REMSYN082AAXX  23061 57583 11458 80402 10024 20019 40256 57022 60051 76066 8772/ 333 20010;
0161575830999992000012321004+29720+113880FM-12+006199999V0203601N003010042019N0050001N1+00121+00091102911ADDAA124017391AY161031AY261031GF108991061071004501021999MD1210051+9999MW1601REMSYN076AAXX  23211 57583 41450 83603 10012 20009 40291 52005 76066 8672/ 333 70173;
0151575830999992000012400004+29720+113880FM-12+006199999V0200401N004010042019N0040001N1+00081+00051103151ADDAA106006191GF108991071071004501021999MD1210241+0401REMSYN088AAXX  24001 57583 11440 80404 10008 20005 40315 52024 60061 8772/ 333 00451 30/11 70145;
0180575830999992000012406004+29720+113880FM-12+006199999V0200201N002010042019N0030001N1+00001+00001103431ADDAA106011991AY171061AY261061GF108991071071004501021999KA1999N-00061MD1210011+9999MW1711REMSYN082AAXX  24061 57583 11430 80202 10000 20000 40343 52001 60121 77176 8772/ 333 21006;
0112575830999992000012421004+29720+113880FM-12+006199999V0203401N003019999999N0120001N1-00221-00461104031ADDGF108991081001999999071999MD1410001+9999REMSYN060AAXX  24211 57583 42962 83403 11022 21046 40403 54000 8807/;
0163575830999992000012500004+29720+113880FM-12+006199999V0203201N003019999999N0100001N1-00281-00461104171ADDAA124014591GF108991081001999999071999IA2999-00219MD1210131+1001REMSYN088AAXX  25001 57583 32960 83203 11028 21046 40417 52013 8807/ 333 01054 31021 70146 92507;
0165575830999992000012506004+29720+113880FM-12+006199999V0200401N003019999999N0180001N1-00151-00491104051ADDAA199000091GF107991071001999999031999KA1999N-00321MD1710281+9999REMSYN070AAXX  25061 57583 32968 70403 11015 21049 40405 57028 8703/ 333 21032;EQDQ01  00002PRCP99
0131575830999992000012521004+29720+113880FM-12+006199999V02099999999992200019N0130001N1-00281-00611104171ADDGF101991999001999999031999MD1710041+9999REMSYN060AAXX  25211 57583 42963 1/603 11028 21061 40417 57004 8703/;EQDQ01+000072SCOTLC
0176575830999992000012600004+29720+113880FM-12+006199999V0200201N003019999999N0130001N1-00261-00671104291ADDAA199000091GF107991071001999999031999IA2999-00279MD1210121+0101REMSYN082AAXX  26001 57583 32963 70203 11026 21067 40429 52012 8703/ 333 00100 31027 92503;EQDQ01  00002PRCP99
0175575830999992000012606004+29720+113880FM-12+006199999V0203601N003012200019N0200001N1-00041-00901104121ADDAA199000091GA1001+999999999GF100991001001999999001001KA1999N-00341MD1710221+9999REMSYN064AAXX  26061 57583 32970 03603 11004 21090 40412 57022 333 21034;EQDQ01  00002PRCP99
0122575830999992000012621004+29720+113880FM-12+006199999V0200201N002012200019N0100001N1+99999+99999104091ADDGA1001+999999999GF100991001001999999001001MD1710021+9999REMSYN054AAXX  26211 57583 ///60 00202 18034 21061 40409 57002;
0112575830999992000012721004+29720+113880FM-12+006199999V0200701N003012200019N0150001N1-00061-00401103451ADDGF101991001001999999001011MD1710221+9999REMSYN060AAXX  27211 57583 42965 10703 11006 21040 40345 57022 80001;
0170575830999992000012800004+29720+113880FM-12+006199999V0200901N002019999999N0150001N1-00061-00481103461ADDAA199000091GF108991081001999999071999IA2999-00309MD1210011-0701REMSYN076AAXX  28001 57583 32965 80902 11006 21048 40346 52001 8807/ 333 05703 31032;EQDQ01  00002PRCP99
0165575830999992000012806004+29720+113880FM-12+006199999V0200701N001019999999N0150001N1+00061-00431103291ADDAA199000091GF108991081001999999071999KA1999N-00181MD1710241+9999REMSYN070AAXX  28061 57583 32965 80701 10006 21043 40329 57024 8807/ 333 21018;EQDQ01  00002PRCP99
0147575830999992000012821004+29720+113880FM-12+006199999V0209999C000019999999N0100001N1+99999+99999103451ADDAA124000791AY171031GF107991071001999999031999MD1210031+9999MW1001REMSYN070AAXX  28211 57583 41960 70000 21008 40345 52003 70070 8703/ 333 79999;
0183575830999992000012900004+29720+113880FM-12+006199999V0209999C000019999999N0100001N1-00041-00171103651ADDAA106000791AY171061GF107991071001999999031999IA2999-00169MD1210201+0201MW1001REMSYN094AAXX  29001 57583 11960 70000 11004 21017 40365 52020 69901 70070 8703/ 333 00200 31016 79999;
0165575830999992000012906004+29720+113880FM-12+006199999V0202901N001012200019N0150001N1+00471-00321103651ADDAA199000091GF104991001001999999001011KA1999N-00131MD1710181+9999REMSYN070AAXX  29061 57583 32965 42901 10047 21032 40365 57018 80001 333 21013;EQDQ01  00002PRCP99
0116575830999992000012921004+29720+113880FM-12+006199999V0203601N003012200019N0100001N1+00001+99999104191ADDGA1001+999999999GF100991001001999999001001MD1210021+9999REMSYN048AAXX  29211 57583 42960 03603 1000/ 40419 52002;
0180575830999992000013000004+29720+113880FM-12+006199999V0200401N003012200019N0100001N1+00031-00441104361ADDAA199000091GA1001+999999999GF100991001001999999001001IA2999-00209MD1210171+0701REMSYN070AAXX  30001 57583 32960 00403 10003 21044 40436 52017 333 00701 31024;EQDQ01  00002PRCP99
0165575830999992000013006004+29720+113880FM-12+006199999V0203601N004012200019N0170001N1+00401-00541104231ADDAA199000091GF102991001001999999001011KA1999N-00041MD1710201+9999REMSYN070AAXX  30061 57583 32967 23604 10040 21054 40423 57020 80001 333 21004;EQDQ01  00002PRCP99
0112575830999992000013021004+29720+113880FM-12+006199999V0200201N004019999999N0120001N1+00051-00591104241ADDGF108991081001999999071999MD1410001+9999REMSYN060AAXX  30211 57583 42962 80204 10005 21059 40424 54000 8807/;
0170575830999992000013100004+29720+113880FM-12+006199999V0200201N004019999999N0120001N1+00001-00831104301ADDAA199000091GF108991081001999999071999IA2999+00009MD1210061-0101REMSYN076AAXX  31001 57583 32962 80204 10000 21083 40430 52006 8807/ 333 05100 31006;EQDQ01  00002PRCP99
0165575830999992000013106004+29720+113880FM-12+006199999V0200201N003019999999N0180001N1+00221-00681104081ADDAA199000091GF107991071001999999031999KA1999N-00041MD1710281+9999REMSYN070AAXX  31061 57583 32968 70203 10022 21068 40408 57028 8703/ 333 21004;EQDQ01  00002PRCP99
0180575830999992000020100004+29720+113880FM-12+006199999V02099999999992200019N0150001N1-00221-00461103921ADDAA199000091GA1001+999999999GF100991001001999999001001IA2999-00309MD1210011-0401REMSYN070AAXX  01001 57583 32965 01/// 11022 21046 40392 52001 333 05452 31036;EQDQ01  00002PRCP99
0165575830999992000020106004+29720+113880FM-12+006199999V0200201N002010075019N0180001N1+00241-00521103591ADDAA199000091GF106991061011008001001011KA1999N-00271MD1710361+9999REMSYN070AAXX  01061 57583 32568 60202 10024 21052 40359 57036 86101 333 21027;EQDQ01  00002PRCP99
0112575830999992000020121004+29720+113880FM-12+006199999V0200701N003019999999N0100001N1-00081-00291103181ADDGF108991081001999999071999MD1710121+9999REMSYN060AAXX  01211 57583 42960 80703 11008 21029 40318 57012 8807/;
0175575830999992000020200004+29720+113880FM-12+006199999V0200901N001010042019N0080001N1-00571+99999103211ADDAA106000191GF108991051071004501021999IA2999-00269MD1210031-0701MW1701REMSYN094AAXX  02001 57583 11458 80901 11057 21024 40321 52003 69921 77000 8572/ 333 05702 31026 70002;
0172575830999992000020206004+29720+113880FM-12+006199999V0200901N001019999999N0120001N1+00061-00181103161ADDAA106000191AY171061GF108991081001999999071999KA1999N-00151MD1710211+9999MW1001REMSYN082AAXX  02061 57583 11962 80901 10006 21018 40316 57021 69921 70070 8807/ 333 21015;
0133575830999992000020221004+29720+113880FM-12+006199999V0200701N001019999999N0100001N1+00061-00111103051ADDAA124000591GF108991081001999999071999MD1710081+9999REMSYN070AAXX  02211 57583 42960 80701 10006 21011 40305 57008 8807/ 333 70004;
0157575830999992000020300004+29720+113880FM-12+006199999V0200401N001019999999N0100001N1+00051-00091103131ADDAA124000391GF108991081001999999071999IA2999-00109MD1210081-0101REMSYN082AAXX  03001 57583 32960 80401 10005 21009 40313 52008 8807/ 333 05101 31010 70002;
0165575830999992000020306004+29720+113880FM-12+006199999V0200701N003019999999N0130001N1+00251-00151102931ADDAA199000091GF108991081001999999071999KA1999N+00021MD1710291+9999REMSYN070AAXX  03061 57583 32963 80703 10025 21015 40293 57029 8807/ 333 20002;EQDQ01  00002PRCP99
0189575830999992000020400004+29720+113880FM-12+006199999V0200701N002010360019N0050001N1+00101+00041102911ADDAA106002091AY171061GF108991021071004501071999IA2999+00049MD1210061-0201MW1601REMSYN100AAXX  04001 57583 11450 80702 10010 20004 40291 52006 60021 76070 8277/ 333 05201 30004 70016 92500;
0180575830999992000020406004+29720+113880FM-12+006199999V0203601N001010042019N0060001N1+00201+00151102671ADDAA106002091AY161061AY261061GF108991071071004501021999KA1999N+00031MD1710291+9999MW1681REMSYN082AAXX  04061 57583 11456 83601 10020 20015 40267 57029 60021 76866 8772/ 333 20003;
0169575830999992000020500004+29720+113880FM-12+006199999V0201601N001019999999N0030001N1+00101+00041102871ADDAA124003391GF108991081001999999071999IA2999+00059MD1210101+0001MW1101REMSYN088AAXX  05001 57583 31930 81601 10010 20004 40287 52010 71000 8807/ 333 00000 30005 70032;
0165575830999992000020506004+29720+113880FM-12+006199999V0202501N002019999999N0100001N1+00501-00041102761ADDAA199000091GF107991071001999999031999KA1999N+00021MD1710251+9999REMSYN070AAXX  05061 57583 32960 72502 10050 21004 40276 57025 8703/ 333 20002;EQDQ01  00002PRCP99
0124575830999992000020521004+29720+113880FM-12+006199999V0209999C000019999999N0060001N1+00061+00001102601ADDGF108991081001999999071999MD1710141+9999MW1101REMSYN066AAXX  05211 57583 41956 80000 10006 20000 40260 57014 71000 8807/;
0192575830999992000020600004+29720+113880FM-12+006199999V0209999C000012200019N0080001N1+00041-00021102611ADDAA199000091GA1001+999999999GF100991001001999999001001IA2999-00109MD1210011-0301MW1101REMSYN076AAXX  06001 57583 31958 00000 10004 21002 40261 52001 71000 333 05351 31015;EQDQ01  00002PRCP99
0175575830999992000020606004+29720+113880FM-12+006199999V0200901N002012200019N0160001N1+00821+00241102351ADDAA199000091GA1001+999999999GF100991001001999999001001KA1999N+00001MD1710361+9999REMSYN064AAXX  06061 57583 32966 00902 10082 20024 40235 57036 333 2000/;EQDQ01  00002PRCP99
0125575830999992000020621004+29720+113880FM-12+006199999V0209999C000012200019N0100001N1+00341+00241102521ADDGF102991999999999999999999MD1211502+9999REMSYN054AAXX  06211 57583 42960 20000 10034 20024 40252 52150;EQDQ01+001502APC3  
0165575830999992000020706004+29720+113880FM-12+006199999V0203601N003012200019N0180001N1+00091-00521102751ADDAA199000091GF104991001001999999001011KA1999N+00141MD1710191+9999REMSYN070AAXX  07061 57583 32968 43603 10009 21052 40275 57019 80001 333 20014;EQDQ01  00002PRCP99
0180575830999992000020800004+29720+113880FM-12+006199999V0200701N002012200019N0180001N1+00011-00111102651ADDAA199000091GA1001+999999999GF100991001001999999001001IA2999-00309MD1710051-0101REMSYN070AAXX  08001 57583 32968 00702 10001 21011 40265 57005 333 05152 31038;EQDQ01  00002PRCP99
0139575830999992000020806004+29720+113880FM-12+006199999V0201001N020019999999N0250001N1+00931-00671102551ADDAA199000091KA1999N-00041MD1710221+9999REMSYN070AAXX  08061 57583 32975 /1020 10093 21067 40255 57022 81040 333 21004;EQDQ01  00002PRCP99
0112575830999992000020821004+29720+113880FM-12+006199999V0200701N002019999999N0120001N1+00471-00011102361ADDGF108991081001999999071999MD1710091+9999REMSYN060AAXX  08211 57583 42962 80702 10047 21001 40236 57009 8807/;
0170575830999992000020900004+29720+113880FM-12+006199999V0200701N002019999999N0150001N1+00501-00231102391ADDAA199000091GF108991081001999999071999IA2999+00309MD1210031-0301REMSYN076AAXX  09001 57583 32965 80702 10050 21023 40239 52003 8807/ 333 05305 30034;EQDQ01  00002PRCP99
0126575830999992000020921004+29720+113880FM-12+006199999V0209999C000019999999N9999999N1+00591+00381101951ADDAY171031GF108991999999999999999999MD1710161+9999MW1801REMSYN060AAXX  09211 57583 4296/ 80000 10059 20038 40195 57016 7807/;
0151575830999992000021000004+29720+113880FM-12+006199999V0209999C000019999999N0100001N1+00621+00431102051ADDAA199000021GF108991081001999999071999IA2999+00309MD1210121-0301REMSYN076AAXX  10001 57583 32960 80000 10062 20043 40205 52012 8807/ 333 05301 30034;
0156575830999992000021006004+29720+113880FM-12+006199999V0203601N002012200019N0200001N1+01261+00251101771ADDAA199000021GA1001+999999999GF100991001001999999001001KA1999N+00561MD1710371+9999REMSYN064AAXX  10061 57583 32970 03602 10126 20025 40177 57037 333 20056;
0086575830999992000021021004+29720+113880FM-12+006199999V0202001N001019999999N0120001N1+00691+00551101951ADDMD1710031+9999REMSYN060AAXX  10211 57583 42962 /2001 10069 20055 40195 57003 8807/;
0170575830999992000021100004+29720+113880FM-12+006199999V0200901N001019999999N0120001N1+00691+00581102001ADDAA199000091GF108991081001999999071999IA2999+00409MD1210051-0101REMSYN076AAXX  11001 57583 32962 80901 10069 20058 40200 52005 8807/ 333 05101 30046;EQDQ01  00002PRCP99
0165575830999992000021106004+29720+113880FM-12+006199999V0200401N003019999999N0160001N1+01201+00501101941ADDAA199000091GF107991071001999999031999KA1999N+00601MD1710251+9999REMSYN070AAXX  11061 57583 32966 70403 10120 20050 40194 57025 8703/ 333 20060;EQDQ01  00002PRCP99
0112575830999992000021121004+29720+113880FM-12+006199999V0202201N001019999999N0120001N1+00781+00601101731ADDGF108991081001999999071999MD1710121+9999REMSYN060AAXX  11211 57583 42962 82201 10078 20060 40173 57012 8807/;
0152575830999992000021200004+29720+113880FM-12+006199999V0202001N001019999999N0130001N1+00791+00611101791ADDAA199000091GF107991071001999999031999MD1219999+0021REMSYN070AAXX  12001 57583 32963 72001 10079 20061 40179 520/5 8703/ 333 05201;EQDQ01  00002PRCP99
0165575830999992000021206004+29720+113880FM-12+006199999V0202701N003019999999N0120001N1+01271+00741101631ADDAA199000091GF108991081001999999071999KA1999N+00751MD1710181+9999REMSYN070AAXX  12061 57583 32962 82703 10127 20074 40163 57018 8807/ 333 20075;EQDQ01  00002PRCP99
0112575830999992000021221004+29720+113880FM-12+006199999V0209999C000019999999N0150001N1+00981+00771101441ADDGF108991081001999999071999MD1710121+9999REMSYN060AAXX  12211 57583 42965 80000 10098 20077 40144 57012 8807/;
0165575830999992000021300004+29720+113880FM-12+006199999V0209999C000019999999N0080001N1+00971+00831101521ADDAA106000791AY161061GF108991081001999999071999MD1210081-0301MW1601REMSYN088AAXX  13001 57583 11958 80000 10097 20083 40152 52008 69901 76060 8807/ 333 05302 79999;
0199575830999992000021306004+29720+113880FM-12+006199999V02099999999992200019N0060001N1+00971+00931101511ADDAA106004191AY161061AY261061GF102991999071004501021999KA1999N+00911MD1710081+9999MW1601REMSYN082AAXX  13061 57583 11456 21/// 10097 20093 40151 57008 60041 76066 8772/ 333 20091;EQDQ01+000072SCOTLC
0133575830999992000021321004+29720+113880FM-12+006199999V0200701N001019999999N0100001N1+00791+00521102251ADDAA124006191GF108991081001999999071999MD1210081+9999REMSYN070AAXX  13211 57583 42960 80701 10079 20052 40225 52008 8807/ 333 70062;
0139575830999992000021400004+29720+113880FM-12+006199999V0200201N001019999999N0100001N1+00761+00491102511ADDAA124006191GF108991081001999999071999MD1210261+1001REMSYN076AAXX  14001 57583 32960 80201 10076 20049 40251 52026 8807/ 333 01052 70062;
0165575830999992000021404004+29720+113880FM-12+006199999V0200401N002019999999N0150001N1+01041-00011102491ADDAA199000091GF107991071001999999031999KA1999N+00731MD1710171+9999REMSYN070AAXX  14041 57583 32965 70402 10104 21001 40249 57017 8703/ 333 20073;EQDQ01  00002PRCP99
0165575830999992000021406004+29720+113880FM-12+006199999V0200401N002019999999N0150001N1+01041-00011102491ADDAA199000091GF107991071001999999031999KA1999N+00731MD1710171+9999REMSYN070AAXX  14061 57583 32965 70402 10104 21001 40249 57017 8703/ 333 20073;EQDQ01  00002PRCP99
0112575830999992000021421004+29720+113880FM-12+006199999V0209999C000019999999N0100001N1+00651+00441102561ADDGF108991081001999999071999MD1710021+9999REMSYN060AAXX  14211 57583 42960 80000 10065 20044 40256 57002 8807/;
0170575830999992000021500004+29720+113880FM-12+006199999V0200401N001019999999N0120001N1+00571+00401102691ADDAA199000091GF107991071001999999031001IA2999+00309MD1210131+0201REMSYN076AAXX  15001 57583 32962 70401 10057 20040 40269 52013 87030 333 00252 30034;EQDQ01  00002PRCP99
0165575830999992000021506004+29720+113880FM-12+006199999V0200401N003019999999N0120001N1+01201+00101102561ADDAA199000091GF107991071001999999031999KA1999N+00551MD1710221+9999REMSYN070AAXX  15061 57583 32962 70403 10120 20010 40256 57022 8703/ 333 20055;EQDQ01  00002PRCP99
0131575830999992000021521004+29720+113880FM-12+006199999V0200701N001019999999N0120001N1+00801+00461102251ADDGF108991999061999999071999MD1710081+9999REMSYN060AAXX  15211 57583 42962 80701 10080 20046 40225 57008 8867/;EQDQ01+000082SCOTLC
0165575830999992000021600004+29720+113880FM-12+006199999V0209999C000019999999N0120001N1+00851+00391102331ADDAA106000791AY161061GF108991081001999999071999MD1210081-0401MW1601REMSYN088AAXX  16001 57583 11962 80000 10085 20039 40233 52008 69901 76060 8807/ 333 05403 79999;
0143575830999992000021620004+29720+113880FM-12+006199999V0209999C000012200019N0120001N1+00341+00261102311ADDAA124000891GA1001+999999999GF100991001001999999001001MD1710221+9999REMSYN064AAXX  16201 57583 42962 00000 10034 20026 40231 57022 333 70007;
0143575830999992000021621004+29720+113880FM-12+006199999V0209999C000012200019N0120001N1+00341+00261102311ADDAA124000891GA1001+999999999GF100991001001999999001001MD1710221+9999REMSYN064AAXX  16211 57583 42962 00000 10034 20026 40231 57022 333 70007;
0157575830999992000021700004+29720+113880FM-12+006199999V0209999C000019999999N0130001N1+00331+00251102441ADDAA124000891GF107991011001999999041021IA2999+00079MD1210121+0101REMSYN082AAXX  17001 57583 32963 70000 10033 20025 40244 52012 81042 333 00155 30007 70007;
0165575830999992000021706004+29720+113880FM-12+006199999V0200901N003010150019N0200001N1+01021+00411102041ADDAA199000091GF107991071051017501999999KA1999N+00311MD1710401+9999REMSYN070AAXX  17061 57583 32770 70903 10102 20041 40204 57040 875// 333 20031;EQDQ01  00002PRCP99
0161575830999992000021721004+29720+113880FM-12+006199999V0200701N001010360019N0120001N1+00781+00721101501ADDAA124003891AY161031AY261031GF108991021071004501021999MD1710121+9999MW1601REMSYN076AAXX  17211 57583 41462 80701 10078 20072 40150 57012 76066 8272/ 333 70037;
0173575830999992000021800004+29720+113880FM-12+006199999V0201101N001010042019N0060001N1+00771+00751101491ADDAA106007191AY161061AY261061GF108991071071004501021999MD1710011-0901MW1611REMSYN088AAXX  18001 57583 11456 81101 10077 20075 40149 57001 60071 76166 8772/ 333 05904 70098;
0172575830999992000021806004+29720+113880FM-12+006199999V0203201N002010042019N0100001N1+00811+00721101371ADDAA106004191AY161061GF108991071071004501021999KA1999N+00731MD1710181+9999MW1601REMSYN082AAXX  18061 57583 11460 83202 10081 20072 40137 57018 60041 76060 8772/ 333 20073;
0153575830999992000021821004+29720+113880FM-12+006199999V0203601N003010042019N0080001N1+00471+00351101661ADDAA124011791AY161031GF108991071071004501021999MD1210021+9999MW1601REMSYN076AAXX  18211 57583 41458 83603 10047 20035 40166 52002 76060 8772/ 333 70118;
0183575830999992000021900004+29720+113880FM-12+006199999V0203401N004010042019N0050001N1+00461+00361101741ADDAA106003091AY161061GF108991071071004501021999IA2999+00499MD1210081+0301MW1601REMSYN094AAXX  19001 57583 11450 83404 10046 20036 40174 52008 60031 76060 8772/ 333 00353 30049 70086;
0153575830999992000021921004+29720+113880FM-12+006199999V0200201N004019999999N0100001N1+00491+00291102071ADDAA124003391AY161031GF108991081001999999071999MD1710051+9999MW1001REMSYN076AAXX  19211 57583 41960 80204 10049 20029 40207 57005 70060 8807/ 333 70032;
0202575830999992000022000004+29720+113880FM-12+006199999V0200401N003019999999N0120001N1+00481+00331102852ADDAA106000891AY141061GF108991031071004501999999IA2999+00409MD1210181+0501MW1601REMSYN094AAXX  20001 57583 11462 80403 10048 20033 40285 52018 69971 76040 837// 333 00500 30040 70010;EQDQ01+102853APOSLP
0172575830999992000022006004+29720+113880FM-12+006199999V0201101N001019999999N0150001N1+00641+00401102171ADDAA106001091AY161061GF108991081001999999071999KA1999N+00461MD1710151+9999MW1001REMSYN082AAXX  20061 57583 11965 81101 10064 20040 40217 57015 69991 70060 8807/ 333 20046;
0133575830999992000022021004+29720+113880FM-12+006199999V0200901N002019999999N0120001N1+00581+00341102221ADDAA124001591GF108991081001999999071999MD1710071+9999REMSYN070AAXX  20211 57583 42962 80902 10058 20034 40222 57007 8807/ 333 70016;
0183575830999992000022100004+29720+113880FM-12+006199999V0200901N003019999999N0120001N1+00571+00281102191ADDAA106000791AY161061GF108991081001999999071999IA2999+00399MD1710031-0101MW1001REMSYN094AAXX  21001 57583 11962 80903 10057 20028 40219 57003 69901 70060 8807/ 333 05101 30039 70009;
0172575830999992000022106004+29720+113880FM-12+006199999V0200901N003019999999N0100001N1+00621+00251102031ADDAA106000791AY161061GF108991081001999999071999KA1999N+00531MD1710301+9999MW1001REMSYN082AAXX  21061 57583 11960 80903 10062 20025 40203 57030 69901 70060 8807/ 333 20053;
0133575830999992000022121004+29720+113880FM-12+006199999V0200701N001019999999N0150001N1+00421+00301102161ADDAA124002391GF108991081001999999071999MD1710031+9999REMSYN070AAXX  21211 57583 42965 80701 10042 20030 40216 57003 8807/ 333 70022;
0157575830999992000022200004+29720+113880FM-12+006199999V0200901N001019999999N0150001N1+00431+00311102231ADDAA124002391GF108991081001999999071999IA2999+00389MD1210061+0001REMSYN082AAXX  22001 57583 32965 80901 10043 20031 40223 52006 8807/ 333 00051 30038 70022;
0165575830999992000022206004+29720+113880FM-12+006199999V0200701N002019999999N0150001N1+00721+00391102061ADDAA199000091GF108991081001999999071999KA1999N+00401MD1710201+9999REMSYN070AAXX  22061 57583 32965 80702 10072 20039 40206 57020 8807/ 333 20040;EQDQ01  00002PRCP99
0139575830999992000022300004+29720+113880FM-12+006199999V0200401N002019999999N0120001N1+00571+00401102351ADDAA124000791GF108991081001999999071999MD1210171+0101REMSYN076AAXX  23001 57583 32962 80402 10057 20040 40235 52017 8807/ 333 00101 79999;
0165575830999992000022306004+29720+113880FM-12+006199999V0200201N002019999999N0100001N1+00711+00361102321ADDAA199000091GF108991081001999999071999KA1999N+00531MD1710121+9999REMSYN070AAXX  23061 57583 32960 80202 10071 20036 40232 57012 8807/ 333 20053;EQDQ01  00002PRCP99
0145575830999992000022321004+29720+113880FM-12+006199999V0200401N001019999999N0080001N1+00611+00561102611ADDAA124000591GF108991081001999999071999MD1710051+9999MW1101REMSYN076AAXX  23211 57583 41958 80401 10061 20056 40261 57005 71000 8807/ 333 70005;
0151575830999992000022400004+29720+113880FM-12+006199999V0200201N001019999999N0080001N1+00621+00571102711ADDAA124000591GF108991081001999999071999MD1210101+0401MW1101REMSYN082AAXX  24001 57583 31958 80201 10062 20057 40271 52010 71000 8807/ 333 00401 70005;
0165575830999992000022406004+29720+113880FM-12+006199999V0200701N003019999999N0100001N1+00811+00391102631ADDAA199000091GF108991081001999999071999KA1999N+00571MD1710171+9999REMSYN070AAXX  24061 57583 32960 80703 10081 20039 40263 57017 8807/ 333 20057;EQDQ01  00002PRCP99
0133575830999992000022421004+29720+113880FM-12+006199999V0203601N003019999999N0100001N1+00561+00291102841ADDAA124000191GF108991081001999999071999MD1410001+9999REMSYN070AAXX  24211 57583 42960 83603 10056 20029 40284 54000 8807/ 333 70001;
0169575830999992000022500004+29720+113880FM-12+006199999V0203401N002019999999N0080001N1+00551+00411102971ADDAA124000191GF108991081001999999071999IA2999+00489MD1210121+0301MW1101REMSYN088AAXX  25001 57583 31958 83402 10055 20041 40297 52012 71000 8807/ 333 00351 30048 70001;
0165575830999992000022506004+29720+113880FM-12+006199999V0200201N003019999999N0180001N1+01001+00181102761ADDAA199000091GF107991001001999999001011KA1999N+00521MD1710301+9999REMSYN070AAXX  25061 57583 32968 70203 10100 20018 40276 57030 80001 333 20052;EQDQ01  00002PRCP99
0122575830999992000022521004+29720+113880FM-12+006199999V0203201N001012200019N0120001N1+00371+00241102881ADDGA1001+999999999GF100991001001999999001001MD1710051+9999REMSYN054AAXX  25211 57583 42962 03201 10037 20024 40288 57005;
0174575830999992000022600004+29720+113880FM-12+006199999V0202201N001012200019N0100001N1+00361+00311103051ADDAA199000091GA1001+999999999GF100991001001999999001001IA2999+00009MD1210161+9999REMSYN064AAXX  26001 57583 32960 02201 10036 20031 40305 52016 333 31002;EQDQ01  00002PRCP99
0165575830999992000022606004+29720+113880FM-12+006199999V0203201N002012200019N0250001N1+01301-00401102771ADDAA199000091GF101991011001999999041001KA1999N+00261MD1710331+9999REMSYN070AAXX  26061 57583 32975 13202 10130 21040 40277 57033 81040 333 20026;EQDQ01  00002PRCP99
0170575830999992000022700004+29720+113880FM-12+006199999V0209999C000019999999N0130001N1+00691+00251102571ADDAA199000091GF108991081001999999071999IA2999+00409MD1210091-0501REMSYN076AAXX  27001 57583 32963 80000 10069 20025 40257 52009 8807/ 333 05503 30041;EQDQ01  00002PRCP99
0165575830999992000022800004+29720+113880FM-12+006199999V0203401N002019999999N0120001N1+00701+00491102811ADDAA106000591AY161061GF108991081001999999071999MD1210281+0201MW1001REMSYN088AAXX  28001 57583 11962 83402 10070 20049 40281 52028 69951 70060 8807/ 333 00200 70008;
0165575830999992000022806004+29720+113880FM-12+006199999V0200201N002010210019N0200001N1+01231+00461102761ADDAA199000091GF107991071051022501999999KA1999N+00651MD1710141+9999REMSYN070AAXX  28061 57583 32870 70202 10123 20046 40276 57014 875// 333 20065;EQDQ01  00002PRCP99
0180575830999992000022900004+29720+113880FM-12+006199999V0201101N002012200019N0120001N1+00631+00391103081ADDAA199000091GA1001+999999999GF100991001001999999001001IA2999+00209MD1210041+0301REMSYN070AAXX  29001 57583 32962 01102 10063 20039 40308 52004 333 00351 30028;EQDQ01  00002PRCP99
0175575830999992000022906004+29720+113880FM-12+006199999V0200901N003012200019N0200001N1+01361+00271102691ADDAA199000091GA1001+999999999GF100991001001999999001001KA1999N+00571MD1710431+9999REMSYN064AAXX  29061 57583 32970 00903 10136 20027 40269 57043 333 20057;EQDQ01  00002PRCP99
0180575830999992000030100004+29720+113880FM-12+006199999V0200901N001012200019N0150001N1+00581+00231102711ADDAA199000091GA1001+999999999GF100991001001999999001001IA2999+00109MD1210131-0401REMSYN070AAXX  01001 57583 32965 00901 10058 20023 40271 52013 333 05451 30013;EQDQ01  00002PRCP99
0159575830999992000030106004+29720+113880FM-12+006199999V0200401N002012200019N0300001N1+01511+00131999999ADDAA199000091GF102991021011008001001001KA1999N+00521MD1710211+9999REMSYN064AAXX  01061 57583 32580 20402 10151 20013 57021 82100 333 20052;EQDQ01  00002PRCP99
0170575830999992000030200004+29720+113880FM-12+006199999V0201101N002012200019N0150001N1+00701+00421102271ADDAA199000091GF103991021001999999041011IA2999+00309MD1210041-0401REMSYN076AAXX  02001 57583 32965 31102 10070 20042 40227 52004 82041 333 05401 30030;EQDQ01  00002PRCP99
0175575830999992000031406004+29720+113880FM-12+006199999V0209999C000012200019N0120001N1+01111+01111102701ADDAA199000091GA1001+999999999GF100991001001999999001001KA1999N+00581MD1710471+9999REMSYN064AAXX  14061 57583 32962 00000 10111 20111 40270 57047 333 20058;EQDQ01  00002PRCP99
0153575830999992000031421004+29720+113880FM-12+006199999V0200901N001019999999N9999999N1+01191+01061101311ADDAA124000391AY161031GF108991081001999999071999MD1710211+9999MW1601REMSYN076AAXX  14211 57583 4196/ 80901 10119 20106 40131 57021 76060 8807/ 333 70002;
0165575830999992000031500004+29720+113880FM-12+006199999V0203201N002010042019N0060001N1+01161+01101101411ADDAA106002091AY161061GF108991071071004501021999MD1210101-0601MW1601REMSYN088AAXX  15001 57583 11456 83202 10116 20110 40141 52010 60021 76060 8772/ 333 05602 70019;
0131575830999992000032421004+29720+113880FM-12+006199999V0200401N001019999999N0130001N1+01341+00861102271ADDGF108991001001999999999999MD1710061+9999REMSYN060AAXX  24211 57583 42963 80401 10134 20086 40227 57006 807//;EQDQ01+000072SCOLCG
0152575830999992000032500004+29720+113880FM-12+006199999V0209999C000019999999N0130001N1+01341+00901102471ADDAA199000091GF108991081001999999071999MD1210201+0021REMSYN070AAXX  25001 57583 32963 80000 10134 20090 40247 52020 8807/ 333 05204;EQDQ01  00002PRCP99
0165575830999992000032506004+29720+113880FM-12+006199999V0202501N001019999999N0150001N1+01641+00951102421ADDAA199000091GF108991081001999999071999KA1999N+01271MD1710131+9999REMSYN070AAXX  25061 57583 32965 82501 10164 20095 40242 57013 8807/ 333 20127;EQDQ01  00002PRCP99
0149575830999992000032600004+29720+113880FM-12+006199999V0202201N002012200019N0120001N1+01201+00741102501ADDAA124000791GA1001+999999999GF100991001001999999001001MD1210031+0001REMSYN070AAXX  26001 57583 32962 02202 10120 20074 40250 52003 333 00051 79999;
0175575830999992000032606004+29720+113880FM-12+006199999V0202701N003012200019N0200001N1+02181+00321102151ADDAA199000091GA1001+999999999GF100991001001999999001001KA1999N+01001MD1710291+9999REMSYN064AAXX  26061 57583 32970 02703 10218 20032 40215 57029 333 20100;EQDQ01  00002PRCP99
0122575830999992000032621004+29720+113880FM-12+006199999V0201801N003012200019N0150001N1+01631+00261101281ADDGA1001+999999999GF100991001001999999001001MD1710231+9999REMSYN054AAXX  26211 57583 42965 01803 10163 20026 40128 57023;
0175575830999992000032706004+29720+113880FM-12+006199999V0202501N004012200019N0250001N1+02461+00541101081ADDAA199000091GA1001+999999999GF100991001001999999001001KA1999N+01351MD1710421+9999REMSYN064AAXX  27061 57583 32975 02504 10246 20054 40108 57042 333 20135;EQDQ01  00002PRCP99
0122575830999992000032721004+29720+113880FM-12+006199999V0200401N004012200019N0150001N1+01631+00231101621ADDGA1001+999999999GF100991001001999999001001MD1210301+9999REMSYN054AAXX  27211 57583 42965 00404 10163 20023 40162 52030;
0162575830999992000032800004+29720+113880FM-12+006199999V0200901N003012200019N0150001N1+01531+00401102031ADDAA199000091GA1001+999999999GF100991001001999999001001MD1210401+0061REMSYN064AAXX  28001 57583 32965 00903 10153 20040 40203 52040 333 00653;EQDQ01  00002PRCP99
0152575830999992000032806004+29720+113880FM-12+006199999V0200701N004012200019N0200001N1+02031-00121102021ADDAA199000091GA1001+999999999GF100991001001999999001001MD1710171+9999REMSYN054AAXX  28061 57583 32/70 00704 10203 21012 40202 57017;EQDQ01  00002PRCP99
0099575830999992000032821004+29720+113880FM-12+006199999V0209999C999999999999N0200001N1+01151+00571102081ADDMD1710041+9999REMSYN054AAXX  28211 57583 42970 /0072 10115 20057 40208 57004;EQDQ01+007203WOSPD 
0162575830999992000032900004+29720+113880FM-12+006199999V0200401N003012200019N0180001N1+01271+00491102231ADDAA199000091GA1001+999999999GF100991001001999999001001MD1210151+0021REMSYN064AAXX  29001 57583 32968 00403 10127 20049 40223 52015 333 00253;EQDQ01  00002PRCP99
0165575830999992000032906004+29720+113880FM-12+006199999V0203401N002012200019N0300001N1+02351+00341101851ADDAA199000091GF101991001001999999001011KA1999N+01051MD1710351+9999REMSYN070AAXX  29061 57583 32980 13402 10235 20034 40185 57035 80001 333 20105;EQDQ01  00002PRCP99
0152575830999992000033000004+29720+113880FM-12+006199999V0200701N002019999999N0120001N1+01611+01191101001ADDAA199000091GF108991081001999999071999MD1710031+0111REMSYN070AAXX  30001 57583 32962 80702 10161 20119 40100 57003 8807/ 333 06103;EQDQ01  00002PRCP99
0172575830999992000033006004+29720+113880FM-12+006199999V0202501N004019999999N0150001N1+02701+00941100681ADDAA106000791AY161061GF107991071001999999031999KA1999N+01521MD1710371+9999MW1001REMSYN082AAXX  30061 57583 11965 72504 10270 20094 40068 57037 69901 70060 8703/ 333 20152;
0133575830999992000033021004+29720+113880FM-12+006199999V0201801N002019999999N0130001N1+01871+01061100621ADDAA124000791GF106991001001999999001021MD1710031+9999REMSYN070AAXX  30211 57583 42963 61802 10187 20106 40062 57003 80002 333 79999;
0139575830999992000033100004+29720+113880FM-12+006199999V0200701N001019999999N0150001N1+01731+01231100791ADDAA124000791GF107991071001999999031999MD1210171-0301REMSYN076AAXX  31001 57583 32965 70701 10173 20123 40079 52017 8703/ 333 05301 79999;
0165575830999992000033106004+29720+113880FM-12+006199999V0209999C000019999999N0200001N1+02271+01481100871ADDAA199000091GF107991071001999999031999KA1999N+01711MD1710051+9999REMSYN070AAXX  31061 57583 32970 70000 10227 20148 40087 57005 8703/ 333 20171;EQDQ01  00002PRCP99
0122575830999992000033121004+29720+113880FM-12+006199999V0200401N003012200019N0120001N1+01721+01551100921ADDGA1001+999999999GF100991001001999999001001MD1710061+9999REMSYN054AAXX  31211 57583 42962 00403 10172 20155 40092 57006;
0152575830999992000040100004+29720+113880FM-12+006199999V0200701N003019999999N0120001N1+01751+01561100971ADDAA199000091GF107991071001999999031999MD1210051+0021REMSYN070AAXX  01001 57583 32962 70703 10175 20156 40097 52005 8703/ 333 00200;EQDQ01  00002PRCP99
0165575830999992000040106004+29720+113880FM-12+006199999V0200901N004019999999N0120001N1+02131+01451100801ADDAA199000091GF107991071001999999031999KA1999N+01651MD1710221+9999REMSYN070AAXX  01061 57583 32962 70904 10213 20145 40080 57022 8703/ 333 20165;EQDQ01  00002PRCP99
0133575830999992000040121004+29720+113880FM-12+006199999V0203601N003019999999N0012001N1+01431+00791101381ADDAA124000791GF108991081001999999071999MD1210031+9999REMSYN070AAXX  01211 57583 42912 83603 10143 20079 40138 52003 8807/ 333 79999;
0139575830999992000040200004+29720+113880FM-12+006199999V0203401N003019999999N0150001N1+01361+00701101661ADDAA124000791GF107991071001999999031999MD1210281+0701REMSYN076AAXX  02001 57583 32965 73403 10136 20070 40166 52028 8703/ 333 00754 79999;
0165575830999992000040206004+29720+113880FM-12+006199999V0200401N003019999999N0150001N1+01741+00731101531ADDAA199000091GF108991081001999999071999KA1999N+01311MD1710161+9999REMSYN070AAXX  02061 57583 32965 80403 10174 20073 40153 57016 8807/ 333 20131;EQDQ01  00002PRCP99
0133575830999992000040221004+29720+113880FM-12+006199999V0203601N003019999999N0120001N1+01281+00861101651ADDAA124000791GF108991081001999999071999MD1710051+9999REMSYN070AAXX  02211 57583 42962 83603 10128 20086 40165 57005 8807/ 333 79999;
0152575830999992000040300004+29720+113880FM-12+006199999V0203601N003019999999N0130001N1+01131+00931101791ADDAA199000091GF108991081001999999071999MD1210141+0011REMSYN070AAXX  03001 57583 32963 83603 10113 20093 40179 52014 8807/ 333 00151;EQDQ01  00002PRCP99
0165575830999992000040306004+29720+113880FM-12+006199999V0200201N002019999999N0150001N1+01771+01021101521ADDAA199000091GF107991071001999999031999KA1999N+01181MD1710291+9999REMSYN070AAXX  03061 57583 32965 70202 10177 20102 40152 57029 8703/ 333 20118;EQDQ01  00002PRCP99
0133575830999992000040321004+29720+113880FM-12+006199999V0202501N002012200019N0100001N1+01371+01131101321ADDAA124000791GF102991021001999999041001MD1710121+9999REMSYN070AAXX  03211 57583 42960 22502 10137 20113 40132 57012 82040 333 79999;
0139575830999992000040400004+29720+113880FM-12+006199999V0202701N002019999999N0100001N1+01431+01071101541ADDAA124000791GF107991001001999999001021MD1210211-0301REMSYN076AAXX  04001 57583 32960 72702 10143 20107 40154 52021 80002 333 05302 79999;
0165575830999992000040406004+29720+113880FM-12+006199999V0203401N002019999999N0200001N1+02211+01231101331ADDAA199000091GF107991001001999999001021KA1999N+01301MD1710241+9999REMSYN070AAXX  04061 57583 32970 73402 10221 20123 40133 57024 80002 333 20130;EQDQ01  00002PRCP99
