0144605150999992000010109004+35330+004200FM-12+0461DAAD V0209999C000012200019N0100001N1+00301-00281103061ADDGA1021+060009009GF102991001001999999001021MD1310091+9999REMSYN076AAXX  01094 60515 42960 20000 10030 21028 40306 53009 80002 333 82070 95990;
0180605150999992000010112004+35330+004200FM-12+0461DAAD V0209999C000012200019N0100001N1+00981-00091102971ADDAA106000091GA1021+009009089GF103991021021008001001021MD1810071+9999REMSYN082AAXX  01124 60515 32560 30000 10098 21009 40297 58007 82202 333 0//00 82830 95900;EQDQ01  00002PRCP06
0181605150999992000010118004+35330+004200FM-12+0461DAAD V0203601N003112200019N0100001N1+00841-00201102731ADDAA106000091GA1001+999999999GF100991001001999999001001KA1120M+01141MD1610031+9999REMSYN070AAXX  01184 60515 32560 03606 10084 21020 40273 56003 333 10114 95990;EQDQ01  00002PRCP06
0211605150999992000010206004+35330+004200FM-12+0461DAAD V0203201N001012200019N0100001N1+00241-00151103141ADDAA106000091GA1021+009909089GF102991021021012501001001IA2240-00309KA1120N+00131MD1610031+9999REMSYN088AAXX  02064 60515 33660 23202 10024 21015 40314 56003 82200 333 05300 20013 82833 95990;EQDQ01  00002PRCP06
0144605150999992000010209004+35330+004200FM-12+0461DAAD V0201801N002112200019N0100001N1+00741+00291103191ADDGA1031+009909089GF103991031021012501001001MD1210141+9999REMSYN076AAXX  02094 60515 42660 31804 10074 20029 40319 52014 83200 333 83833 95900;
0180605150999992000010212004+35330+004200FM-12+0461DAAD V0203001N003110090019N0100001N1+01111+00191103101ADDAA106000091GA1071+009009089GF107991071021008001999999MD1810051+9999REMSYN082AAXX  02124 60515 32560 73006 10111 20019 40310 58005 872// 333 0//00 87830 95900;EQDQ01  00002PRCP06
0144605150999992000010215004+35330+004200FM-12+0461DAAD V0200401N003110090019N0100001N1+01151+00221102981ADDGA1071+009009089GF107991071021008001999999MD1710121+9999REMSYN076AAXX  02154 60515 42560 70406 10115 20022 40298 57012 872// 333 87830 95900;
0211605150999992000010306004+35330+004200FM-12+0461DAAD V0209999C000010090019N0080001N1+00231-00501103191ADDAA106000091GA1061+009009089GF106991061021008001001001IA2240-00309KA1120N+00221MD1110021+9999REMSYN088AAXX  03064 60515 33558 60000 10023 21050 40319 51002 86200 333 05300 20022 86830 95990;EQDQ01  00002PRCP06
0138605150999992000010309004+35330+004200FM-12+0461DAAD V0200401N002110090019N0080001N1+00601+00411999999ADDGA1071+009009089GF107991071021008001999999MD1310101+9999REMSYN070AAXX  03094 60515 42558 70404 10060 20041 53010 872// 333 87830 95900;
0180605150999992000010312004+35330+004200FM-12+0461DAAD V0209999C000012200019N0150001N1+01071+00391103191ADDAA106000091GA1031+007809089GF103991031021008001001001MD1810061+9999REMSYN082AAXX  03124 60515 32565 30000 10107 20039 40319 58006 83200 333 0//00 83826 95900;EQDQ01  00002PRCP06
0144605150999992000010315004+35330+004200FM-12+0461DAAD V0209999C000012200019N0150001N1+01181+00141103051ADDGA1031+007809089GF103991031021008001001001MD1710131+9999REMSYN076AAXX  03154 60515 42565 30000 10118 20014 40305 57013 83200 333 83826 95900;
0193605150999992000010318004+35330+004200FM-12+0461DAAD V0209999C000012200019N0100001N1+01021+00201103001ADDAA106000091GA1021+007809089GF102991021021008001001001KA1120M+01211MD1610051+9999REMSYN082AAXX  03184 60515 32560 20000 10102 20020 40300 56005 82200 333 10121 82826 95990;EQDQ01  00002PRCP06
0199605150999992000010406004+35330+004200FM-12+0461DAAD V0203001N001012200019N0100001N1+00141-00391103251ADDAA106000091GA1001+999999999GF100991001001999999001001IA2240-00309KA1120N+00091MD1610011+9999REMSYN076AAXX  04064 60515 33960 03002 10014 21039 40325 56001 333 05300 20009 95990;EQDQ01  00002PRCP06
0132605150999992000010409004+35330+004200FM-12+0461DAAD V0201801N001012200019N0100001N1+00451+00211103421ADDGA1001+999999999GF100991001001999999001001MD1310141+9999REMSYN064AAXX  04094 60515 42960 01802 10045 20021 40342 53014 333 95900;
0180605150999992000010412004+35330+004200FM-12+0461DAAD V0203601N001012200019N0100001N1+00901+00311103341ADDAA106000091GA1021+009909089GF102991021021012501001001MD1810051+9999REMSYN082AAXX  04124 60515 32660 23602 10090 20031 40334 58005 82200 333 0//00 82833 95900;EQDQ01  00002PRCP06
0193605150999992000010418004+35330+004200FM-12+0461DAAD V0200401N001012200019N0100001N1+00771+00411103151ADDAA106000091GA1031+009009089GF103991031021008001001001KA1120M+01071MD1610071+9999REMSYN082AAXX  04184 60515 32560 30402 10077 20041 40315 56007 83200 333 10107 83830 95990;EQDQ01  00002PRCP06
0199605150999992000010506004+35330+004200FM-12+0461DAAD V0209999C000012200019N0100001N1-00321-00341103281ADDAA106000091GA1001+999999999GF100991001001999999001001IA2240-00509KA1120N-00401MD1610011+9999REMSYN076AAXX  05064 60515 33960 00000 11032 21034 40328 56001 333 05500 21040 95990;EQDQ01  00002PRCP06
0132605150999992000010509004+35330+004200FM-12+0461DAAD V0209999C000012200019N0100001N1+00361+00261103201ADDGA1001+999999999GF100991001001999999001001MD1010031+9999REMSYN064AAXX  05094 60515 42960 00000 10036 20026 40320 50003 333 95900;
0168605150999992000010512004+35330+004200FM-12+0461DAAD V0209999C000012200019N0100001N1+00761+00251103081ADDAA106000091GA1001+999999999GF100991001001999999001001MD1810091+9999REMSYN070AAXX  05124 60515 32960 00000 10076 20025 40308 58009 333 0//00 95900;EQDQ01  00002PRCP06
0132605150999992000010515004+35330+004200FM-12+0461DAAD V0209999C000012200019N0100001N1+00981+00301102871ADDGA1001+999999999GF100991001001999999001001MD1710181+9999REMSYN064AAXX  05154 60515 42560 00000 10098 20030 40287 57018 333 95900;
0181605150999992000010518004+35330+004200FM-12+0461DAAD V0209999C000012200019N0100001N1+00731+00281102801ADDAA106000091GA1001+999999999GF100991001001999999001001KA1120M+01001MD1610091+9999REMSYN070AAXX  05184 60515 32560 00000 10073 20028 40280 56009 333 10100 95990;EQDQ01  00002PRCP06
0199605150999992000010606004+35330+004200FM-12+0461DAAD V0203401N002112200019N0100001N1+00221-00071102851ADDAA106000091GA1001+999999999GF100991001001999999001001IA2240-00309KA1120N+00141MD1410001+9999REMSYN076AAXX  06064 60515 33960 03404 10022 21007 40285 54000 333 05300 20014 95990;EQDQ01  00002PRCP06
0132605150999992000010609004+35330+004200FM-12+0461DAAD V0209999C000012200019N0100001N1+00501+00231102951ADDGA1001+999999999GF100991001001999999001001MD1310071+9999REMSYN064AAXX  06094 60515 42960 00000 10050 20023 40295 53007 333 95900;
0199605150999992000010706004+35330+004200FM-12+0461DAAD V0209999C000012200019N0100001N1+00021+00001103031ADDAA106000091GA1001+999999999GF100991001001999999001001IA2240-00409KA1120N+00001MD1310211+9999REMSYN076AAXX  07064 60515 33960 00000 10002 20000 40303 53021 333 05400 20000 95900;EQDQ01  00002PRCP06
0132605150999992000010709004+35330+004200FM-12+0461DAAD V0209999C000012200019N0100001N1+00481+00341103071ADDGA1001+999999999GF100991001001999999001001MD1110041+9999REMSYN064AAXX  07094 60515 42960 00000 10048 20034 40307 51004 333 95900;
0168605150999992000010712004+35330+004200FM-12+0461DAAD V0209999C000012200019N0100001N1+00801+00591102911ADDAA106000091GA1001+999999999GF100991001001999999001001MD1810111+9999REMSYN070AAXX  07124 60515 32960 00000 10080 20059 40291 58011 333 0//00 95900;EQDQ01  00002PRCP06
0132605150999992000010715004+35330+004200FM-12+0461DAAD V0209999C000012200019N0100001N1+01231+00271102691ADDGA1001+999999999GF100991001001999999001001MD1610161+9999REMSYN064AAXX  07154 60515 42960 00000 10123 20027 40269 56016 333 95900;
0181605150999992000010718004+35330+004200FM-12+0461DAAD V0209999C000012200019N0100001N1+00801+00351102601ADDAA106000091GA1001+999999999GF100991001001999999001001KA1120M+01241MD1610091+9999REMSYN070AAXX  07184 60515 32960 00000 10080 20035 40260 56009 333 10124 95990;EQDQ01  00002PRCP06
0223605150999992000010806004+35330+004200FM-12+0461DAAD V0209999C000010001519N0000001N1+00011+00011102841ADDAA106000091GA1091+999999999GF109991091999999999999999IA2240-00409KA1120N-00041MD1510021+9999MW1491REMSYN094AAXX  08064 60515 31/00 90000 10001 20001 40284 55002 749// 89/// 333 05400 21004 89/// 95990;EQDQ01  00002PRCP06
0185605150999992000010809004+35330+004200FM-12+0461DAAD V0202601N001010001519N0000001N1+00251+00251102971ADDAY141031AY241031GA1091+999999999GF109991091999999999999999MD1210141+9999REMSYN082AAXX  08094 60515 41/00 92602 10025 20025 40297 52014 74944 89/// 333 89/// 95990;EQDQ01+000492PRSWM1
0208605150999992000010812004+35330+004200FM-12+0461DAAD V0202601N002110003019N0018001N1+00401+00281102991ADDAA106000091AY141061AY221061GA1071+000309079GF107991071061000251999999MD1010001+9999MW1401REMSYN088AAXX  08124 60515 31018 72604 10040 20028 40299 50000 74042 876// 333 0//00 87701 95990;EQDQ01  00002PRCP06
0144605150999992000010815004+35330+004200FM-12+0461DAAD V0209999C000012200019N0080001N1+00931+00401102701ADDGA1021+001209079GF102991021071001501061001MD1710211+9999REMSYN076AAXX  08154 60515 42258 20000 10093 20040 40270 57021 82760 333 82704 95900;
0223605150999992000010906004+35330+004200FM-12+0461DAAD V0209999C000010003019N0040001N1+00221+00171102781ADDAA106000091GA1071+000309079GF107991071061999999999999IA2240-00109KA1120N+00141MD1610031+9999MW1461REMSYN094AAXX  09064 60515 31/40 70000 10022 20017 40278 56003 746// 876// 333 05100 20014 87701 95990;EQDQ01  00002PRCP06
0185605150999992000010909004+35330+004200FM-12+0461DAAD V0209999C000010001519N0000001N1+00201+00151102831ADDAY141031AY241031GA1091+999999999GF109991091999999999999999MD1310031+9999REMSYN082AAXX  09094 60515 41/00 90000 10020 20015 40283 53003 74944 89/// 333 89/// 95990;EQDQ01+000492PRSWM1
0208605150999992000010912004+35330+004200FM-12+0461DAAD V0209999C000010003019N0030001N1+00401+00281102781ADDAA106000091AY141061AY221061GA1071+000309079GF107991071061000251999999MD1010051+9999MW1401REMSYN088AAXX  09124 60515 31030 70000 10040 20028 40278 50005 74042 876// 333 0//00 87701 95990;EQDQ01  00002PRCP06
0166605150999992000010915004+35330+004200FM-12+0461DAAD V0209999C000010240019N0080001N1+00881+00421999999ADDGA1021+009909089GA2041+024009039GF106991021021012501071001MD1710271+9999REMSYN082AAXX  09154 60515 42658 60000 10088 20042 4//// 57027 82270 333 82833 84358 95900;
0233605150999992000011006004+35330+004200FM-12+0461DAAD V0209999C000010001519N0000001N1+00221+00221102721ADDAA106000091GA1091+999999999GF109991091999999999999999IA2240-00109KA1120N+00141MD1110061+9999REMSYN094AAXX  10064 60515 31/00 90000 10022 20022 40272 51006 749// 89/// 333 05100 20014 89/// 95990;EQDQ01+000492PRSWM1Q02  00002PRCP06
0172605150999992000011009004+35330+004200FM-12+0461DAAD V0200401N002119999999N9999999N1+00061+00061102951ADDAY141031AY241031GA1091+999999999GF109991091999999999999999MD1210181+9999MW1491REMSYN082AAXX  10094 60515 41//0 90404 10006 20006 40295 52018 74944 89/// 333 89/// 95990;
0144605150999992000011015004+35330+004200FM-12+0461DAAD V0209999C000012200019N0070001N1+01001+00351102711ADDGA1021+007809089GF102991021021008001001001MD1710151+9999REMSYN076AAXX  10154 60515 42557 20000 10100 20035 40271 57015 82200 333 82826 95900;
0181605150999992000011018004+35330+004200FM-12+0461DAAD V0209999C000012200019N0100001N1+00671+00371102661ADDAA106000091GA1001+999999999GF100991001001999999001001KA1120M+01091MD1610061+9999REMSYN070AAXX  10184 60515 32960 00000 10067 20037 40266 56006 333 10109 95990;EQDQ01  00002PRCP06
0223605150999992000011106004+35330+004200FM-12+0461DAAD V0209999C000010001519N0000001N1+00001+00001103151ADDAA106000091GA1091+999999999GF109991091999999999999999IA2240-00709KA1120N-00661MD1310121+9999MW1491REMSYN094AAXX  11064 60515 31/00 90000 10000 20000 40315 53012 749// 89/// 333 05700 21066 89/// 95990;EQDQ01  00002PRCP06
0156605150999992000011109004+35330+004200FM-12+0461DAAD V0209999C000010001519N0000001N1+00181+00001103331ADDGA1091+999999999GF109991091999999999999999MD1210171+9999MW1491REMSYN082AAXX  11094 60515 41/00 90000 10018 20000 40333 52017 749// 89/// 333 89/// 95990;
0196605150999992000011112004+35330+004200FM-12+0461DAAD V0209999C000010006019N0010001N1+00341+00021103251ADDAA106000091GA1091+999999999GF109991091999999999999999MD1810051+9999REMSYN082AAXX  11124 60515 31/10 90000 10034 20002 40325 58005 749// 333 0//00 89/// 95990;EQDQ01+000492PRSWM1Q02  00002PRCP06
0144605150999992000011115004+35330+004200FM-12+0461DAAD V0209999C000012200019N0100001N1+00991+00311103161ADDGA1011+009909089GF103991011021012501001021MD1710141+9999REMSYN076AAXX  11154 60515 42660 30000 10099 20031 40316 57014 81202 333 81833 95900;
0215605150999992000011118004+35330+004200FM-12+0461DAAD V0209999C000012200019N0100001N1+00671+00281103001ADDAA106000091GA1011+009909089GA2031+060009009GF104991011021012501001021KA1120M+01021MD1610161+9999REMSYN088AAXX  11184 60515 32660 40000 10067 20028 40300 56016 81202 333 10102 81833 83070 95990;EQDQ01  00002PRCP06
0205605150999992000011206004+35330+004200FM-12+0461DAAD V0200201N002112200019N0100001N1-00091-00171103071ADDAA106000091GA1001+999999999GF100991001001999999001001IA2240-00409KA1120N-00121MD1710061+9999REMSYN082AAXX  12064 60515 33960 00204 11009 21017 40307 57006 80002 333 05400 21012 95990;EQDQ01  00002PRCP06
0144605150999992000011209004+35330+004200FM-12+0461DAAD V0203401N002112200019N0100001N1+00351+00091103171ADDGA1021+069009009GF102991001001999999001021MD1310091+9999REMSYN076AAXX  12094 60515 42960 23404 10035 20009 40317 53009 80002 333 82073 95900;
0180605150999992000011212004+35330+004200FM-12+0461DAAD V0201401N001012200019N0100001N1+00901+00051103021ADDAA106000091GA1021+009909089GF102991021021012501001021MD1810101+9999REMSYN082AAXX  12124 60515 32660 21402 10090 20005 40302 58010 82202 333 0//00 82833 95900;EQDQ01  00002PRCP06
0144605150999992000011215004+35330+004200FM-12+0461DAAD V0209999C000012200019N0100001N1+01151+00091102781ADDGA1021+009909089GF102991021021012501001001MD1710201+9999REMSYN076AAXX  12154 60515 42660 20000 10115 20009 40278 57020 82200 333 82833 95900;
0211605150999992000011306004+35330+004200FM-12+0461DAAD V0202901N006210090019N0100001N1+00501+00121102551ADDAA106000091GA1051+009009089GF105991051021008001001001IA2240+00209KA1120N+00361MD1710071+9999REMSYN088AAXX  13064 60515 33560 52912 10050 20012 40255 57007 85200 333 00200 20036 85830 95990;EQDQ01  00002PRCP06
0144605150999992000011309004+35330+004200FM-12+0461DAAD V0202901N005112200019N0100001N1+00751+00151102511ADDGA1031+009009089GF103991031021008001001001MD1510021+9999REMSYN076AAXX  13094 60515 42560 32910 10075 20015 40251 55002 83200 333 83830 95900;
0180605150999992000011312004+35330+004200FM-12+0461DAAD V0203301N005110078019N0100001N1+01001+00001102301ADDAA106000091GA1051+007809089GF105991051021008001001001MD1810151+9999REMSYN082AAXX  13124 60515 32560 53310 10100 20000 40230 58015 85200 333 0//00 85826 95900;EQDQ01  00002PRCP06
0144605150999992000011315004+35330+004200FM-12+0461DAAD V0203101N004110078019N0100001N1+01171+00081102131ADDGA1061+007809089GF106991061021008001001001MD1710201+9999REMSYN076AAXX  13154 60515 42560 63108 10117 20008 40213 57020 86200 333 86826 95900;
0237605150999992000011406004+35330+004200FM-12+046199999V0202801N00621220001AN0100001N1+00641+00171101961ADDAA124001091GA1031+024009089GF199999021999022501041001IA2240+00209KA1120N+00441MD1710071+9999REMSYN098    AAXX  14064 60515 13860 22812 10064 20017 40196 57007 60014 82040 333 00200 20044 83858 95990;EQDQ01+000022SCOTCVQ02    003SCOLCG
0148605150999992000011409004+35330+004200FM-12+046199999V0202801N00311220001AN0100001N1+00701-00031101981ADDGA1021+069009009GF102991001001999999001021MD1310031+9999REMSYN080    AAXX  14094 60515 42960 22806 10070 21003 40198 53003 80002 333 82073 95900;
0184605150999992000011412004+35330+004200FM-12+046199999V0201601N00211220001AN0100001N1+01101-00091101801ADDAA199000091GA1021+009909089GF103991021021012501001021MD1810121+9999REMSYN086    AAXX  14124 60515 32660 31604 10110 21009 40180 58012 82202 333 0//00 82833 95900;EQDQ01  00002PRCP99
0148605150999992000011415004+35330+004200FM-12+046199999V0200801N00511220001AN0100001N1+01111+00151101661ADDGA1031+009009089GF103991031021008001001021MD1710141+9999REMSYN080    AAXX  14154 60515 42560 30810 10111 20015 40166 57014 83202 333 83830 95900;
0197605150999992000011418004+35330+004200FM-12+046199999V0201001N00411220001AN0100001N1+00801+00171101631ADDAA199000091GA1041+007809089GF104991041021008001001001KA1120M+01231MD1610031+9999REMSYN086    AAXX  14184 60515 32560 41008 10080 20017 40163 56003 84200 333 10123 84826 95990;EQDQ01  00002PRCP99
0215605150999992000011506004+35330+004200FM-12+046199999V0202201N00211220001AN0100001N1+00641+00101102021ADDAA199000091GA1021+069009009GF102991001001999999001021IA2240+00109KA1120N+00551MD1110051+9999REMSYN092    AAXX  15064 60515 33960 22204 10064 20010 40202 51005 80002 333 00100 20055 82073 95990;EQDQ01  00002PRCP99
0148605150999992000011509004+35330+004200FM-12+046199999V0200401N00101220001AN0100001N1+00351+00091102301ADDGA1011+069009009GF101991001001999999001021MD1310201+9999REMSYN080    AAXX  15094 60515 42960 10402 10035 20009 40230 53020 80002 333 81073 95900;
0184605150999992000011512004+35330+004200FM-12+046199999V0201101N00211220001AN0100001N1+00981+00191102291ADDAA199000091GA1011+009909089GF103991011021012501001021MD1810031+9999REMSYN086    AAXX  15124 60515 32660 31104 10098 20019 40229 58003 81202 333 0//00 81833 95900;EQDQ01  00002PRCP99
0148605150999992000011515004+35330+004200FM-12+046199999V0203601N00311220001AN0100001N1+01101+00261102141ADDGA1021+007809089GF102991021021008001001001MD1710121+9999REMSYN080    AAXX  15154 60515 42560 23606 10110 20026 40214 57012 82200 333 82826 95900;
0203605150999992000011606004+35330+004200FM-12+046199999V0202201N00101220001AN0100001N1+00061-00091102641ADDAA199000091GA1001+999999999GF100991001001999999001001IA2240-00309KA1120N+00061MD1010031+9999REMSYN080    AAXX  16064 60515 33960 02202 10006 21009 40264 50003 333 05300 20006 95990;EQDQ01  00002PRCP99
0136605150999992000011609004+35330+004200FM-12+046199999V0201601N00051220001AN0100001N1+00501+00021102781ADDGA1001+999999999GF100991001001999999001001MD1310131+9999REMSYN068    AAXX  16094 60515 42960 01601 10050 20002 40278 53013 333 95900;
0172605150999992000011612004+35330+004200FM-12+046199999V0203401N00101220001AN0100001N1+00891-00091102711ADDAA199000091GA1001+999999999GF100991001001999999001001MD1810041+9999REMSYN074    AAXX  16124 60515 32960 03402 10089 21009 40271 58004 333 0//00 95900;EQDQ01  00002PRCP99
0148605150999992000011615004+35330+004200FM-12+046199999V0200201N00211220001AN0100001N1+01141-00091102571ADDGA1011+009909089GF101991011021012501001001MD1710131+9999REMSYN080    AAXX  16154 60515 42660 10204 10114 21009 40257 57013 81200 333 81833 95900;
0197605150999992000011618004+35330+004200FM-12+046199999V0209999C00001220001AN0100001N1+00891+00131102541ADDAA199000091GA1021+009009089GF102991021021008001001001KA1120M+01201MD1610061+9999REMSYN086    AAXX  16184 60515 32560 20000 10089 20013 40254 56006 82200 333 10120 82830 95990;EQDQ01  00002PRCP99
0203605150999992000011706004+35330+004200FM-12+046199999V0202601N00311220001AN0100001N1-00021-00171102791ADDAA199000091GA1001+999999999GF100991001001999999001001IA2240-00409KA1120N-00041MD1610021+9999REMSYN080    AAXX  17064 60515 33960 02606 11002 21017 40279 56002 333 05400 21004 95990;EQDQ01  00002PRCP99
0136605150999992000011709004+35330+004200FM-12+046199999V0209999C00001220001AN0100001N1+00321+00001102901ADDGA1001+999999999GF100991001001999999001001MD1310111+9999REMSYN068    AAXX  17094 60515 42960 00000 10032 20000 40290 53011 333 95900;
0184605150999992000011712004+35330+004200FM-12+046199999V0203101N00821220001AN0100001N1+01221-00031102801ADDAA199000091GA1021+009009089GF102991021021008001001001MD1810031+9999REMSYN086    AAXX  17124 60515 32560 23116 10122 21003 40280 58003 82200 333 0//00 82830 95900;EQDQ01  00002PRCP99
0148605150999992000011715004+35330+004200FM-12+046199999V0203401N01031007801AN0100001N1+01241+00171102671ADDGA1071+007809089GF107991071021008001999999MD1510131+9999REMSYN080    AAXX  17154 60515 42560 73420 10124 20017 40267 55013 872// 333 87826 95900;
0203605150999992000011806004+35330+004200FM-12+046199999V0202801N00511220001AN0100001N1+00421-00061102641ADDAA199000091GA1001+999999999GF100991001001999999001001IA2240-00209KA1120N+00171MD1710071+9999REMSYN080    AAXX  18064 60515 33960 02810 10042 21006 40264 57007 333 05200 20017 95990;EQDQ01  00002PRCP99
0148605150999992000011809004+35330+004200FM-12+046199999V0202801N00411220001AN0100001N1+00861+00241102601ADDGA1011+007809089GF102991011021008001001021MD1310021+9999REMSYN080    AAXX  18094 60515 42560 22808 10086 20024 40260 53002 81202 333 81826 95900;
0184605150999992000011812004+35330+004200FM-12+046199999V0203001N00621220001AN0100001N1+01111+00131102431ADDAA199000091GA1031+009009089GF103991031021008001001001MD1810141+9999REMSYN086    AAXX  18124 60515 32560 33012 10111 20013 40243 58014 83200 333 0//00 83830 95900;EQDQ01  00002PRCP99
0148605150999992000011815004+35330+004200FM-12+046199999V0203201N00511220001AN0100001N1+01301-00021102101ADDGA1021+009009089GF102991021021008001001001MD1710291+9999REMSYN080    AAXX  18154 60515 42560 23210 10130 21002 40210 57029 82200 333 82830 95900;
0197605150999992000011818004+35330+004200FM-12+046199999V0203201N00411220001AN0100001N1+00881+00121102061ADDAA199000091GA1021+009009089GF102991021021008001001001KA1120M+01351MD1610041+9999REMSYN086    AAXX  18184 60515 32560 23208 10088 20012 40206 56004 82200 333 10135 82830 95990;EQDQ01  00002PRCP99
0203605150999992000011906004+35330+004200FM-12+046199999V0202601N00721220001AN0100001N1+00561+00081101831ADDAA199000091GA1001+999999999GF100991001001999999001001IA2240+00009KA1120N+00521MD1310021+9999REMSYN080    AAXX  19064 60515 33960 02614 10056 20008 40183 53002 333 00000 20052 95990;EQDQ01  00002PRCP99
0148605150999992000011909004+35330+004200FM-12+046199999V0202701N00621220001AN0100001N1+00801-00261101901ADDGA1011+009909089GF101991011021012501001001MD1310111+9999REMSYN080    AAXX  19094 60515 42660 12712 10080 21026 40190 53011 81200 333 81833 95900;
0184605150999992000011912004+35330+004200FM-12+046199999V0203401N00621220001AN0100001N1+01301-00021101861ADDAA199000091GA1031+009009089GF103991031021008001001001MD1810031+9999REMSYN086    AAXX  19124 60515 32560 33412 10130 21002 40186 58003 83200 333 0//00 83830 95900;EQDQ01  00002PRCP99
0148605150999992000011915004+35330+004200FM-12+046199999V0203601N00721007801AN0100001N1+01391-00041101811ADDGA1071+007809089GF107991071021008001999999MD1610051+9999REMSYN080    AAXX  19154 60515 42560 73614 10139 21004 40181 56005 872// 333 87826 95900;
0193605150999992000011918004+35330+004200FM-12+0461DAAD V0203301N006210078019N0100001N1+01001+00141101761ADDAA199000091GA1071+007809089GF107991071021012501999999KA1120M+01501MD1610071+9999REMSYN082AAXX  19184 60515 32660 73312 10100 20014 40176 56007 872// 333 10150 87826 95990;EQDQ01  00002PRCP99
0199605150999992000012006004+35330+004200FM-12+0461DAAD V0202801N001012200019N0100001N1+00691-00021102511ADDAA199000091GA1001+999999999GF100991001001999999001001IA2240+00109KA1120N+00561MD1210091+9999REMSYN076AAXX  20064 60515 33960 02802 10069 21002 40251 52009 333 00100 20056 95990;EQDQ01  00002PRCP99
0144605150999992000012009004+35330+004200FM-12+0461DAAD V0201801N001012200019N0100001N1+00901+00231102711ADDGA1021+024009039GF102991021001022501041001MD1210231+9999REMSYN076AAXX  20094 60515 42860 21802 10090 20023 40271 52023 82040 333 82358 95900;
0180605150999992000012012004+35330+004200FM-12+0461DAAD V0203401N001012200019N0100001N1+01231+00121102721ADDAA199000091GA1021+009909089GF102991021021012501001001MD1010031+9999REMSYN082AAXX  20124 60515 32660 23402 10123 20012 40272 50003 82200 333 0//00 82833 95900;EQDQ01  00002PRCP99
0144605150999992000012015004+35330+004200FM-12+0461DAAD V0201201N003112200019N0100001N1+01301+00081102651ADDGA1021+009909089GF102991021021012501001001MD1610011+9999REMSYN076AAXX  20154 60515 42660 21206 10130 20008 40265 56001 82200 333 82833 95900;
0193605150999992000012018004+35330+004200FM-12+0461DAAD V0203601N003112200019N0100001N1+01041+00271102751ADDAA199000091GA1011+009909089GF102991021021012501001001KA1120M+01321MD1310041+9999REMSYN082AAXX  20184 60515 32660 23606 10104 20027 40275 53004 82200 333 10132 81833 95990;EQDQ01  00002PRCP99
0199605150999992000012106004+35330+004200FM-12+0461DAAD V0202201N002112200019N0100001N1+00191-00071102901ADDAA199000091GA1001+999999999GF100991001001999999001001IA2240-00309KA1120N+00191MD1110031+9999REMSYN076AAXX  21064 60515 33960 02204 10019 21007 40290 51003 333 05300 20019 95990;EQDQ01  00002PRCP99
0132605150999992000012109004+35330+004200FM-12+0461DAAD V0203201N002112200019N0100001N1+00461+00151103011ADDGA1001+999999999GF100991001001999999001001MD1310061+9999REMSYN064AAXX  21094 60515 42960 03204 10046 20015 40301 53006 333 95900;
0180605150999992000012112004+35330+004200FM-12+0461DAAD V0203401N001012200019N0100001N1+00991+00051102841ADDAA199000091GA1011+009009089GF101991011021008001001001MD1810121+9999REMSYN082AAXX  21124 60515 32560 13402 10099 20005 40284 58012 81200 333 0//00 81830 95900;EQDQ01  00002PRCP99
0144605150999992000012115004+35330+004200FM-12+0461DAAD V0201801N001012200019N0100001N1+01301+00161102611ADDGA1031+009009089GF103991031021008001001001MD1710201+9999REMSYN076AAXX  21154 60515 42560 31802 10130 20016 40261 57020 83200 333 83830 95900;
0193605150999992000012118004+35330+004200FM-12+0461DAAD V0203101N002112200019N0100001N1+00751+00171102631ADDAA199000091GA1021+007809089GF102991021021008001001001KA1120M+01241MD1710091+9999REMSYN082AAXX  21184 60515 32560 23104 10075 20017 40263 57009 82200 333 10124 82826 95990;EQDQ01  00002PRCP99
0199605150999992000012206004+35330+004200FM-12+0461DAAD V0209999C000012200019N0080001N1+00001-00241102611ADDAA199000091GA1001+999999999GF100991001001999999001001IA2240-00409KA1120N+00001MD1110011+9999REMSYN076AAXX  22064 60515 33958 00000 10000 21024 40261 51001 333 05400 20000 95990;EQDQ01  00002PRCP99
0132605150999992000012209004+35330+004200FM-12+0461DAAD V0209999C000012200019N0080001N1+00441+00081102631ADDGA1001+999999999GF100991001001999999001001MD1110041+9999REMSYN064AAXX  22094 60515 42958 00000 10044 20008 40263 51004 333 95900;
0180605150999992000012212004+35330+004200FM-12+0461DAAD V0201201N001012200019N0100001N1+00951+00121102511ADDAA199000091GA1021+009909089GF102991021021012501001001MD1810091+9999REMSYN082AAXX  22124 60515 32660 21202 10095 20012 40251 58009 82200 333 0//00 82833 95900;EQDQ01  00002PRCP99
0144605150999992000012215004+35330+004200FM-12+0461DAAD V0201001N002112200019N0100001N1+01261+00091102231ADDGA1021+009909089GF102991021021012501001001MD1710271+9999REMSYN076AAXX  22154 60515 42660 21004 10126 20009 40223 57027 82200 333 82833 95900;
0199605150999992000012306004+35330+004200FM-12+0461DAAD V0203201N005112200019N0100001N1+00091-00171101911ADDAA199000091GA1001+999999999GF100991001001999999001001IA2240-00409KA1120N+00091MD1810061+9999REMSYN076AAXX  23064 60515 33960 03210 10009 21017 40191 58006 333 05400 20009 95990;EQDQ01  00002PRCP99
0132605150999992000012309004+35330+004200FM-12+0461DAAD V0202801N010312200019N0100001N1+00741-00281101911ADDGA1001+999999999GF100991001001999999001001MD1310041+9999REMSYN064AAXX  23094 60515 42960 02820 10074 21028 40191 53004 333 95900;
0180605150999992000012312004+35330+004200FM-12+0461DAAD V0202701N008212200019N0100001N1+01201-00321101811ADDAA199000091GA1021+007809089GF102991021021008001001001MD1810051+9999REMSYN082AAXX  23124 60515 32560 22716 10120 21032 40181 58005 82200 333 0//00 82826 95900;EQDQ01  00002PRCP99
0144605150999992000012315004+35330+004200FM-12+0461DAAD V0203001N010310078019N0100001N1+01251-00061101651ADDGA1061+007809089GF106991061021008001001001MD1710181+9999REMSYN076AAXX  23154 60515 42560 63020 10125 21006 40165 57018 86200 333 86826 95900;
0193605150999992000012318004+35330+004200FM-12+0461DAAD V0203001N008210078019N0100001N1+00841+00171101661ADDAA199000091GA1061+007809089GF106991061021008001001001KA1120M+01361MD1310081+9999REMSYN082AAXX  23184 60515 32560 63016 10084 20017 40166 53008 86200 333 10136 86826 95990;EQDQ01  00002PRCP99
0211605150999992000012406004+35330+004200FM-12+0461DAAD V0200601N004110099019N0100001N1+00551-00071101911ADDAA199000091GA1071+009909089GF107991071021012501999999IA2240-00309KA1120N+00111MD1610011+9999REMSYN088AAXX  24064 60515 33660 70608 10055 21007 40191 56001 872// 333 05300 20011 87833 95990;EQDQ01  00002PRCP99
0144605150999992000012409004+35330+004200FM-12+0461DAAD V0203201N004110099019N0100001N1+00811+00051102031ADDGA1071+009909089GF107991071021012501999999MD1310141+9999REMSYN076AAXX  24094 60515 42660 73208 10081 20005 40203 53014 872// 333 87833 95900;
0180605150999992000012412004+35330+004200FM-12+0461DAAD V0203201N008210078019N0100001N1+01051-00211101951ADDAA199000091GA1071+007809089GF107991071021008001999999MD1810061+9999REMSYN082AAXX  24124 60515 32560 73216 10105 21021 40195 58006 872// 333 0//00 87826 95900;EQDQ01  00002PRCP99
0144605150999992000012415004+35330+004200FM-12+0461DAAD V0203201N007210090019N0100001N1+01081-00301101811ADDGA1071+009009089GF107991071021008001999999MD1710131+9999REMSYN076AAXX  24154 60515 42560 73214 10108 21030 40181 57013 872// 333 87830 95900;
0193605150999992000012418004+35330+004200FM-12+0461DAAD V0203201N005110090019N0100001N1+00701+00141101701ADDAA199000091GA1071+009009089GF107991071021008001999999KA1120M+01191MD1610041+9999REMSYN082AAXX  24184 60515 32560 73210 10070 20014 40170 56004 872// 333 10119 87830 95990;EQDQ01  00002PRCP99
0211605150999992000012506004+35330+004200FM-12+0461DAAD V0203401N001012200019N0100001N1+00541+00041102041ADDAA199000091GA1041+024009039GF104991041001022501081001IA2240-00109KA1120N+00431MD1410001+9999REMSYN088AAXX  25064 60515 33860 43402 10054 20004 40204 54000 84080 333 05100 20043 84358 95990;EQDQ01  00002PRCP99
0144605150999992000012509004+35330+004200FM-12+0461DAAD V0209999C000010099019N0080001N1+00571+00011102211ADDGA1051+009909089GF105991051021022501081001MD1210221+9999REMSYN076AAXX  25094 60515 42858 50000 10057 20001 40221 52022 85280 333 85833 95900;
0180605150999992000012512004+35330+004200FM-12+0461DAAD V0209999C000012200019N0100001N1+00951+00031102081ADDAA199000091GA1031+024009039GF103991031001999999081001MD1810081+9999REMSYN082AAXX  25124 60515 32960 30000 10095 20003 40208 58008 83080 333 0//00 83358 95900;EQDQ01  00002PRCP99
0144605150999992000012515004+35330+004200FM-12+0461DAAD V0209999C000012200019N0100001N1+01261+00061101911ADDGA1031+024009039GF103991031021008001081001MD1510141+9999REMSYN076AAXX  25154 60515 42560 30000 10126 20006 40191 55014 83280 333 83358 95900;
0193605150999992000012518004+35330+004200FM-12+0461DAAD V0201001N003112200019N0100001N1+00881+00121102091ADDAA199000091GA1031+024009039GF103991031001999999081001KA1120M+01351MD1310111+9999REMSYN082AAXX  25184 60515 32960 31006 10088 20012 40209 53011 83080 333 10135 83358 95990;EQDQ01  00002PRCP99
0233605150999992000012606004+35330+004200FM-12+0461DAAD V0203201N002110690019N0100001N1+00621+00191102411ADDAA199000091GA1031+024009039GA2031+069009009GF106991031001022501031021IA2240+00109KA1120N+00491MD1110021+9999REMSYN094AAXX  26064 60515 33860 63204 10062 20019 40241 51002 83032 333 00100 20049 83358 83073 95990;EQDQ01  00002PRCP99
0166605150999992000012609004+35330+004200FM-12+0461DAAD V0203401N004110240019N0100001N1+00611+00101102561ADDGA1051+024009049GA2031+069009029GF107991051001022501011071MD1210131+9999REMSYN082AAXX  26094 60515 42860 73408 10061 20010 40256 52013 85017 333 85458 83273 95900;
0202605150999992000012612004+35330+004200FM-12+0461DAAD V0203601N001010240019N0100001N1+00901+00201102641ADDAA199000091GA1031+009909089GA2061+024009049GF108991031021012501071999MD1010071+9999REMSYN088AAXX  26124 60515 32660 83602 10090 20020 40264 50007 8327/ 333 0//00 83833 86458 95900;EQDQ01  00002PRCP99
0193605150999992000012618004+35330+004200FM-12+0461DAAD V0200401N001012200019N0100001N1+00871+00251102621ADDAA199000091GA1021+069009009GF102991001001999999001021KA1120M+01261MD1310231+9999REMSYN082AAXX  26184 60515 32960 20402 10087 20025 40262 53023 80002 333 10126 82073 95990;EQDQ01  00002PRCP99
0199605150999992000012706004+35330+004200FM-12+0461DAAD V0209999C000012200019N0100001N1+00021-00051103321ADDAA199000091GA1001+999999999GF100991001001999999001001IA2240-00509KA1120N-00121MD1110031+9999REMSYN076AAXX  27064 60515 33960 00000 10002 21005 40332 51003 333 05500 21012 95990;EQDQ01  00002PRCP99
0144605150999992000012709004+35330+004200FM-12+0461DAAD V0209999C000012200019N0100001N1+00571+00091103441ADDGA1021+060009009GF102991001001999999001021MD1210131+9999REMSYN076AAXX  27094 60515 42960 20000 10057 20009 40344 52013 80002 333 82070 95900;
0180605150999992000012712004+35330+004200FM-12+0461DAAD V0200401N002110600019N0100001N1+00961+00101103441ADDAA199000091GA1051+060009009GF105991001001999999001021MD1010001+9999REMSYN082AAXX  27124 60515 32960 50404 10096 20010 40344 50000 80002 333 0//00 85070 95900;EQDQ01  00002PRCP99
0193605150999992000012718004+35330+004200FM-12+0461DAAD V0203201N002112200019N0100001N1+01051+00361103301ADDAA199000091GA1031+060009009GF103991001001999999001021KA1120M+01391MD1510021+9999REMSYN082AAXX  27184 60515 32960 33204 10105 20036 40330 55002 80002 333 10139 83070 95990;EQDQ01  00002PRCP99
0217605150999992000012806004+35330+004200FM-12+0461DAAD V0200601N00101005101CN0100001N1+00071-00171103331ADDAA199000091GA1051+005109009GF106991051001999999011071IA2240-00209KA1120N+00071MD1610061+9999REMSYN094AAXX  28064 60515 33960 60602 10007 21017 40333 56006 85017 333 05200 20007 85460 83268 95990;EQDQ01  00002PRCP99
0166605150999992000012809004+35330+004200FM-12+0461DAAD V0201401N002110300019N0080001N1+00461+00311103421ADDGA1051+030009049GA2031+054009029GF107991051001999999011071MD1310061+9999REMSYN082AAXX  28094 60515 42958 71404 10046 20031 40342 53006 85017 333 85460 83268 95900;
0166605150999992000012909004+35330+004200FM-12+0461DAAD V0203601N003110540019N0100001N1+00571+00151102941ADDGA1011+030009049GA2051+054009029GF105991011001999999011071MD1110081+9999REMSYN082AAXX  29094 60515 42960 53606 10057 20015 40294 51008 81017 333 81460 85268 95900;
0202605150999992000012912004+35330+004200FM-12+0461DAAD V0202401N002110540019N0100001N1+01301+00001102891ADDAA199000091GA1021+030009049GA2051+054009029GF105991021001999999011071MD1010011+9999REMSYN088AAXX  29124 60515 32960 52404 10130 20000 40289 50001 82017 333 0//00 82460 85268 95900;EQDQ01  00002PRCP99
0166605150999992000012915004+35330+004200FM-12+0461DAAD V0203001N005110540019N0100001N1+01541+00171102791ADDGA1021+030009049GA2051+054009029GF105991021001999999011071MD1710101+9999REMSYN082AAXX  29154 60515 42960 53010 10154 20017 40279 57010 82017 333 82460 85268 95900;
0215605150999992000012918004+35330+004200FM-12+0461DAAD V0202801N004110540019N0100001N1+01061+00381102951ADDAA199000091GA1021+030009049GA2051+054009029GF105991021001999999011071KA1120M+01591MD1310121+9999REMSYN088AAXX  29184 60515 32960 52808 10106 20038 40295 53012 82017 333 10159 82460 85268 95990;EQDQ01  00002PRCP99
0211605150999992000013006004+35330+004200FM-12+0461DAAD V0202801N005112200019N0100001N1+00551+00191103411ADDAA199000091GA1021+069009009GF102991001001999999001021IA2240+00109KA1120N+00491MD1310101+9999REMSYN088AAXX  30064 60515 33960 22810 10055 20019 40341 53010 80002 333 00100 20049 82073 95990;EQDQ01  00002PRCP99
0144605150999992000013009004+35330+004200FM-12+0461DAAD V0202801N008212200019N0100001N1+00811+00211103581ADDGA1021+069009009GF102991001001999999001021MD1210151+9999REMSYN076AAXX  30094 60515 42960 22816 10081 20021 40358 52015 80002 333 82073 95900;
0168605150999992000013012004+35330+004200FM-12+0461DAAD V0202601N006212200019N0100001N1+01351+00081103551ADDAA199000091GA1001+999999999GF100991001001999999001001MD1810011+9999REMSYN070AAXX  30124 60515 32960 02612 10135 20008 40355 58001 333 0//00 95900;EQDQ01  00002PRCP99
0144605150999992000013015004+35330+004200FM-12+0461DAAD V0200401N002112200019N0100001N1+01551-00091103321ADDGA1021+069009009GF102991001001999999001021MD1710201+9999REMSYN076AAXX  30154 60515 42960 20404 10155 21009 40332 57020 80002 333 82073 95900;
0193605150999992000013018004+35330+004200FM-12+0461DAAD V0202601N003112200019N0100001N1+01241+00041103451ADDAA199000091GA1021+060009009GF102991001001999999001021KA1120M+01741MD1310091+9999REMSYN082AAXX  30184 60515 32960 22606 10124 20004 40345 53009 80002 333 10174 82070 95990;EQDQ01  00002PRCP99
0199605150999992000013106004+35330+004200FM-12+0461DAAD V0209999C000012200019N0150001N1+00211-00351103641ADDAA199000091GA1001+999999999GF100991001001999999001001IA2240-00309KA1120N+00131MD1610021+9999REMSYN076AAXX  31064 60515 33965 00000 10021 21035 40364 56002 333 05300 20013 95990;EQDQ01  00002PRCP99
0144605150999992000020109004+35330+004200FM-12+0461DAAD V0203601N002112200019N0100001N1+00601+00101103631ADDGA1021+069009009GF102991001001999999001021MD1310041+9999REMSYN076AAXX  01094 60515 42960 23604 10060 20010 40363 53004 80002 333 82073 95900;
0180605150999992000020112004+35330+004200FM-12+0461DAAD V0200801N001012200019N0100001N1+01461+00021103541ADDAA199000091GA1021+069009009GF102991001001999999001021MD1810031+9999REMSYN082AAXX  01124 60515 32960 20802 10146 20002 40354 58003 80002 333 0//00 82073 95900;EQDQ01  00002PRCP99
0144605150999992000020115004+35330+004200FM-12+0461DAAD V0201401N002110690019N0100001N1+01941-00111103231ADDGA1051+069009009GF105991001001999999001021MD1710251+9999REMSYN076AAXX  01154 60515 42960 51404 10194 21011 40323 57025 80002 333 85073 95900;
0193605150999992000020118004+35330+004200FM-12+0461DAAD V0202001N002112200019N0100001N1+01051+00001103351ADDAA199000091GA1031+060009009GF103991001001999999001021KA1120M+01951MD1010001+9999REMSYN082AAXX  01184 60515 32960 32004 10105 20000 40335 50000 80002 333 10195 83070 95990;EQDQ01  00002PRCP99
0227605150999992000020206004+35330+004200FM-12+0461DAAD V0201001N999992200019N0150001N1+02001-00081103291ADDAA199000091GA1021+060009009GF103991001001999999001021IA2240-00209KA1120N+00151MD1710051+9999REMSYN088AAXX  02064 60515 33965 36006 10200 21008 40329 57005 80002 333 05200 20015 82070 95990;EQDQ01+005453WOSPD Q02  00002PRCP99
0144605150999992000020209004+35330+004200FM-12+0461DAAD V0202601N003112200019N0150001N1+01241-00291103311ADDGA1021+060009009GF103991001001999999001021MD1110091+9999REMSYN076AAXX  02094 60515 42965 32606 10124 21029 40331 51009 80002 333 82070 95900;
0180605150999992000020212004+35330+004200FM-12+0461DAAD V0209999C000012200019N0100001N1+01661+00231103191ADDAA199000091GA1011+012009089GF102991011021008001001021MD1810091+9999REMSYN082AAXX  02124 60515 32560 20000 10166 20023 40319 58009 81202 333 0//00 81840 95900;EQDQ01  00002PRCP99
0181605150999992000020218004+35330+004200FM-12+0461DAAD V0203201N005112200019N0100001N1+01401+00311102901ADDAA199000091GA1001+999999999GF100991001001999999001001KA1120M+02251MD1310011+9999REMSYN070AAXX  02184 60515 32960 03210 10140 20031 40290 53001 333 10225 95990;EQDQ01  00002PRCP99
0211605150999992000020306004+35330+004200FM-12+0461DAAD V0203001N010312200019N0100001N1+01261+00551102811ADDAA199000091GA1031+024009039GF103991031001022501081001IA2240+00609KA1120N+01021MD1610021+9999REMSYN088AAXX  03064 60515 33860 33020 10126 20055 40281 56002 83080 333 00600 20102 83358 95990;EQDQ01  00002PRCP99
0144605150999992000020309004+35330+004200FM-12+0461DAAD V0203201N009310090019N0100001N1+01461+00521102951ADDGA1061+009009089GF106991061021008001001001MD1310131+9999REMSYN076AAXX  03094 60515 42560 63218 10146 20052 40295 53013 86200 333 86830 95900;
0180605150999992000020312004+35330+004200FM-12+0461DAAD V0203201N011312200019N0100001N1+01751+00591103001ADDAA199000091GA1031+009009089GF103991031021008001001001MD1110061+9999REMSYN082AAXX  03124 60515 32560 33222 10175 20059 40300 51006 83200 333 0//00 83830 95900;EQDQ01  00002PRCP99
0144605150999992000020315004+35330+004200FM-12+0461DAAD V0203201N011310090019N0100001N1+01811+00411102831ADDGA1051+009009089GF105991051021008001001001MD1710171+9999REMSYN076AAXX  03154 60515 42560 53222 10181 20041 40283 57017 85200 333 85830 95900;
0193605150999992000020318004+35330+004200FM-12+0461DAAD V0203201N009310090019N0100001N1+01561+00091102941ADDAA199000091GA1061+009009089GF106991061021008001001001KA1120M+01851MD1310101+9999REMSYN082AAXX  03184 60515 32560 63218 10156 20009 40294 53010 86200 333 10185 86830 95990;EQDQ01  00002PRCP99
0199605150999992000020406004+35330+004200FM-12+0461DAAD V0202801N003112200019N0150001N1+00711+00131103381ADDAA199000091GA1001+999999999GF100991001001999999001001IA2240-00109KA1120N+00351MD1310041+9999REMSYN076AAXX  04064 60515 33965 02806 10071 20013 40338 53004 333 05100 20035 95990;EQDQ01  00002PRCP99
0132605150999992000020409004+35330+004200FM-12+0461DAAD V0203401N002112200019N0100001N1+01111-00241103621ADDGA1001+999999999GF100991001001999999001001MD1210241+9999REMSYN064AAXX  04094 60515 42960 03404 10111 21024 40362 52024 333 95900;
0168605150999992000020412004+35330+004200FM-12+0461DAAD V0203201N003112200019N0100001N1+01311-00091103621ADDAA199000091GA1001+999999999GF100991001001999999001001MD1810021+9999REMSYN070AAXX  04124 60515 32960 03206 10131 21009 40362 58002 333 0//00 95900;EQDQ01  00002PRCP99
0132605150999992000020415004+35330+004200FM-12+0461DAAD V0201001N002112200019N0100001N1+01551+00031103451ADDGA1001+999999999GF100991001001999999001001MD1710151+9999REMSYN064AAXX  04154 60515 42960 01004 10155 20003 40345 57015 333 95900;
0181605150999992000020418004+35330+004200FM-12+0461DAAD V0202601N003112200019N0100001N1+01201+00071103581ADDAA199000091GA1001+999999999GF100991001001999999001001KA1120M+01561MD1310101+9999REMSYN070AAXX  04184 60515 32960 02606 10120 20007 40358 53010 333 10156 95990;EQDQ01  00002PRCP99
0199605150999992000020506004+35330+004200FM-12+0461DAAD V0209999C000012200019N0100001N1+00661+00091103821ADDAA199000091GA1001+999999999GF100991001001999999001001IA2240-00109KA1120N+00291MD1010031+9999REMSYN076AAXX  05064 60515 33960 00000 10066 20009 40382 50003 333 05100 20029 95990;EQDQ01  00002PRCP99
0180605150999992000020512004+35330+004200FM-12+0461DAAD V0200801N002112200019N0100001N1+01201+00171103921ADDAA199000091GA1011+009909089GF101991011021012501001001MD1810071+9999REMSYN082AAXX  05124 60515 32660 10804 10120 20017 40392 58007 81200 333 0//00 81833 95900;EQDQ01  00002PRCP99
0132605150999992000020515004+35330+004200FM-12+0461DAAD V0200201N002112200019N0100001N1+01421+00281103641ADDGA1001+999999999GF100991001001999999001001MD1710271+9999REMSYN064AAXX  05154 60515 42960 00204 10142 20028 40364 57027 333 95900;
0181605150999992000020518004+35330+004200FM-12+0461DAAD V0202601N003112200019N0100001N1+00971+00181103731ADDAA199000091GA1001+999999999GF100991001001999999001001KA1120M+01511MD1110011+9999REMSYN070AAXX  05184 60515 32960 02606 10097 20018 40373 51001 333 10151 95990;EQDQ01  00002PRCP99
0211605150999992000020606004+35330+004200FM-12+0461DAAD V0209999C000012200019N0100001N1+00041+00011103741ADDAA199000091GA1021+060009009GF102991001001999999001021IA2240-00409KA1120N-00071MD1610021+9999REMSYN088AAXX  06064 60515 33960 20000 10004 20001 40374 56002 80002 333 05400 21007 82070 95990;EQDQ01  00002PRCP99
0144605150999992000020609004+35330+004200FM-12+0461DAAD V0209999C000012200019N0100001N1+00441-00111103811ADDGA1021+060009009GF102991001001999999001021MD1110071+9999REMSYN076AAXX  06094 60515 42960 20000 10044 21011 40381 51007 80002 333 82070 95900;
0180605150999992000020612004+35330+004200FM-12+0461DAAD V0200401N002112200019N0100001N1+01131-00031103761ADDAA199000091GA1011+060009009GF101991001001999999001021MD1810011+9999REMSYN082AAXX  06124 60515 32960 10404 10113 21003 40376 58001 80002 333 0//00 81070 95900;EQDQ01  00002PRCP99
0122605150999992000020615004+35330+004200FM-12+0461DAAD V0203401N002112200019N0100001N1+01481-00041103321ADDGF102991021021999999001001MD1710381+9999REMSYN070AAXX  06154 60515 42960 23404 10148 21004 40332 57038 82200 333 95900;
0193605150999992000020618004+35330+004200FM-12+0461DAAD V0209999C000012200019N0100001N1+01031-00081103561ADDAA199000091GA1021+060009009GF102991001001999999001021KA1120M+01491MD1310121+9999REMSYN082AAXX  06184 60515 32960 20000 10103 21008 40356 53012 80002 333 10149 82070 95990;EQDQ01  00002PRCP99
0199605150999992000020706004+35330+004200FM-12+0461DAAD V0201601N003112200019N0100001N1+00041-00041103291ADDAA199000091GA1001+999999999GF100991001001999999001001IA2240-00409KA1120N-00091MD1610041+9999REMSYN076AAXX  07064 60515 33960 01606 10004 21004 40329 56004 333 05400 21009 95990;EQDQ01  00002PRCP99
0144605150999992000020709004+35330+004200FM-12+0461DAAD V0200801N002112200019N0100001N1+00451-00121103341ADDGA1021+069009009GF102991001001999999001021MD1110081+9999REMSYN076AAXX  07094 60515 42960 20804 10045 21012 40334 51008 80002 333 82073 95900;
0168605150999992000020712004+35330+004200FM-12+0461DAAD V0200401N001012200019N0100001N1+01511-00051103111ADDAA199000091GA1001+999999999GF100991001001999999001001MD1810131+9999REMSYN070AAXX  07124 60515 32960 00402 10151 21005 40311 58013 333 0//00 95900;EQDQ01  00002PRCP99
0144605150999992000020715004+35330+004200FM-12+0461DAAD V0203201N012312200019N0100001N1+01901-00191102921ADDGA1031+009009089GF103991031021008001001001MD1710171+9999REMSYN076AAXX  07154 60515 42560 33224 10190 21019 40292 57017 83200 333 83830 95900;
0193605150999992000020718004+35330+004200FM-12+0461DAAD V0203201N008212200019N0100001N1+01581-00091103151ADDAA199000091GA1041+009009089GF104991041021008001001001KA1120M+01971MD1310171+9999REMSYN082AAXX  07184 60515 32560 43216 10158 21009 40315 53017 84200 333 10197 84830 95990;EQDQ01  00002PRCP99
0211605150999992000020806004+35330+004200FM-12+0461DAAD V0202401N004112200019N0100001N1+00331-00061103321ADDAA199000091GA1021+069009009GF102991001001999999001021IA2240-00209KA1120N+00241MD1110021+9999REMSYN088AAXX  08064 60515 33960 22408 10033 21006 40332 51002 80002 333 05200 20024 82073 95990;EQDQ01  00002PRCP99
0144605150999992000020809004+35330+004200FM-12+0461DAAD V0203001N002112200019N0100001N1+01171+00241103361ADDGA1041+060009009GF104991001001999999001021MD1210101+9999REMSYN076AAXX  08094 60515 42960 43004 10117 20024 40336 52010 80002 333 84070 95900;
0180605150999992000020812004+35330+004200FM-12+0461DAAD V0203001N003112200019N0100001N1+01591-00131103251ADDAA199000091GA1031+060009009GF103991001001999999001021MD1810091+9999REMSYN082AAXX  08124 60515 32960 33006 10159 21013 40325 58009 80002 333 0//00 83070 95900;EQDQ01  00002PRCP99
0193605150999992000020818004+35330+004200FM-12+0461DAAD V0202601N006212200019N0100001N1+01501-00181103021ADDAA199000091GA1021+069009009GF102991001001999999001021KA1120M+01851MD1310021+9999REMSYN082AAXX  08184 60515 32960 22612 10150 21018 40302 53002 80002 333 10185 82073 95900;EQDQ01  00002PRCP99
0211605150999992000020906004+35330+004200FM-12+0461DAAD V0202801N008210090019N0100001N1+00841+00291102931ADDAA199000091GA1071+009009089GF107991071021008001999999IA2240+00309KA1120N+00661MD1610021+9999REMSYN088AAXX  09064 60515 33560 72816 10084 20029 40293 56002 872// 333 00300 20066 87830 95990;EQDQ01  00002PRCP99
0144605150999992000020909004+35330+004200FM-12+0461DAAD V0202601N009312200019N0100001N1+01311+00291102981ADDGA1031+009909089GF103991031021012501001001MD1310071+9999REMSYN076AAXX  09094 60515 42660 32618 10131 20029 40298 53007 83200 333 83833 95900;
0180605150999992000020912004+35330+004200FM-12+0461DAAD V0200601N001012200019N0100001N1+01801+00171102891ADDAA199000091GA1011+030009039GF102991011001999999071021MD1810051+9999REMSYN082AAXX  09124 60515 32960 20602 10180 20017 40289 58005 81072 333 0//00 81360 95900;EQDQ01  00002PRCP99
0144605150999992000020915004+35330+004200FM-12+0461DAAD V0203201N008212200019N0100001N1+02051+00281102601ADDGA1021+009009089GF102991021021008001001021MD1710251+9999REMSYN076AAXX  09154 60515 42560 23216 10205 20028 40260 57025 82202 333 82830 95900;
0193605150999992000020918004+35330+004200FM-12+0461DAAD V0203401N011312200019N0100001N1+01501+00331102861ADDAA199000091GA1021+009009089GF102991021021008001001021KA1120M+02061MD1310211+9999REMSYN082AAXX  09184 60515 32560 23422 10150 20033 40286 53021 82202 333 10206 82830 95990;EQDQ01  00002PRCP99
0165605150999992000021009004+35330+004200FM-12+0461DAAD V0202701N010312200019N0100001N1+01061+00151102991ADDGA1011+009909089GF101991011021012501001001REMSYN076AAXX  10094 60515 42660 12720 10106 20015 40299 51000 81200 333 81833 95900;EQDQ01+000012APCTENQ02+000002APC3  
0180605150999992000021012004+35330+004200FM-12+0461DAAD V0203201N009312200019N0100001N1+01521-00581102981ADDAA199000091GA1021+007809089GF102991021021008001001001MD1810011+9999REMSYN082AAXX  10124 60515 32560 23218 10152 21058 40298 58001 82200 333 0//00 82826 95900;EQDQ01  00002PRCP99
0153605150999992000021015004+35330+004200FM-12+0461DAAD V0203201N009312200019N0100001N1+01671-00671999999ADDGA1011+007809089GF101991011021008001001001MD1710191+9999ME1312789REMSYN076AAXX  10154 60515 42560 13218 10167 21067 48278 57019 81200 333 81826 95900;
0181605150999992000021018004+35330+004200FM-12+0461DAAD V0203201N007212200019N0100001N1+01301-00441102841ADDAA199000091GA1001+999999999GF100991001001999999001001KA1120M+01671MD1310021+9999REMSYN070AAXX  10184 60515 32960 03214 10130 21044 40284 53002 333 10167 95900;EQDQ01  00002PRCP99
0211605150999992000021106004+35330+004200FM-12+0461DAAD V0202801N008212200019N0100001N1+00711+00101102661ADDAA199000091GA1021+069009009GF102991001001999999001021IA2240-00109KA1120N+00221MD1710091+9999REMSYN088AAXX  11064 60515 33960 22816 10071 20010 40266 57009 80002 333 05100 20022 82073 95990;EQDQ01  00002PRCP99
0144605150999992000021109004+35330+004200FM-12+0461DAAD V0202601N006212200019N0100001N1+01161-00641102771ADDGA1011+069009009GF101991001001999999001021MD1310111+9999REMSYN076AAXX  11094 60515 42960 12612 10116 21064 40277 53011 80002 333 81073 95900;
0180605150999992000021112004+35330+004200FM-12+0461DAAD V0201001N001012200019N0100001N1+01501-00891102781ADDAA199000091GA1021+069009009GF102991001001999999001021MD1010031+9999REMSYN082AAXX  11124 60515 32960 21002 10150 21089 40278 50003 80002 333 0//00 82073 95900;EQDQ01  00002PRCP99
0144605150999992000021115004+35330+004200FM-12+0461DAAD V0202801N002112200019N0100001N1+01841-01521102541ADDGA1021+069009009GF102991001001999999001021MD1710251+9999REMSYN076AAXX  11154 60515 42960 22804 10184 21152 40254 57025 80002 333 82073 95900;
0193605150999992000021118004+35330+004200FM-12+0461DAAD V0202001N004112200019N0100001N1+01201-00551102571ADDAA199000091GA1021+069009009GF102991001001999999001021KA1120M+01961MD1310031+9999REMSYN082AAXX  11184 60515 32960 22008 10120 21055 40257 53003 80002 333 10196 82073 95990;EQDQ01  00002PRCP99
0211605150999992000021206004+35330+004200FM-12+0461DAAD V0209999C000012200019N0100001N1+00751+00151102771ADDAA199000091GA1021+060009009GF102991001001999999001021IA2240-00209KA1120N+00161MD1410001+9999REMSYN088AAXX  12064 60515 33960 20000 10075 20015 40277 54000 80002 333 05200 20016 82070 95990;EQDQ01  00002PRCP99
0144605150999992000021209004+35330+004200FM-12+0461DAAD V0209999C000012200019N0200001N1+00571-00421102951ADDGA1031+060009009GF103991001001999999001021MD1210131+9999REMSYN076AAXX  12094 60515 42970 30000 10057 21042 40295 52013 80002 333 83070 95900;
0215605150999992000021218004+35330+004200FM-12+0461DAAD V0209999C000010240019N0100001N1+01001-00231102761ADDAA199000091GA1031+009009089GA2031+024009039GF105991031021008001071021KA1120M+01501MD1610041+9999REMSYN088AAXX  12184 60515 32560 50000 10100 21023 40276 56004 83272 333 10150 83830 83358 95900;EQDQ01  00002PRCP99
0211605150999992000021306004+35330+004200FM-12+0461DAAD V0203001N005110090019N0100001N1+00901+00391103011ADDAA199000091GA1071+009009089GF107991071021008001999999IA2240+00209KA1120N+00561MD1210091+9999REMSYN088AAXX  13064 60515 33560 73010 10090 20039 40301 52009 872// 333 00200 20056 87830 95990;EQDQ01  00002PRCP99
0144605150999992000021309004+35330+004200FM-12+0461DAAD V0203401N008212200019N0100001N1+01061+00151103211ADDGA1031+009009089GF103991031021008001001001MD1210191+9999REMSYN076AAXX  13094 60515 42560 33416 10106 20015 40321 52019 83200 333 83830 95900;
0180605150999992000021312004+35330+004200FM-12+0461DAAD V0203601N006212200019N0100001N1+01311-00161103191ADDAA199000091GA1021+009909089GF102991021021012501001001MD1010001+9999REMSYN082AAXX  13124 60515 32660 23612 10131 21016 40319 50000 82200 333 0//00 82833 95900;EQDQ01  00002PRCP99
0144605150999992000021315004+35330+004200FM-12+0461DAAD V0203001N006212200019N0100001N1+01591-00371102891ADDGA1021+069009009GF102991001001999999001021MD1710261+9999REMSYN076AAXX  13154 60515 42960 23012 10159 21037 40289 57026 80002 333 82073 95900;
0193605150999992000021318004+35330+004200FM-12+0461DAAD V0203201N003112200019N0100001N1+01341-00271103061ADDAA199000091GA1021+069009009GF102991001001999999001021KA1120M+01741MD1310081+9999REMSYN082AAXX  13184 60515 32960 23206 10134 21027 40306 53008 80002 333 10174 82073 95990;EQDQ01  00002PRCP99
0211605150999992000021406004+35330+004200FM-12+0461DAAD V0202801N008212200019N0100001N1+00991+00401102731ADDAA199000091GA1031+009009089GF103991031021008001001001IA2240+00209KA1120N+00691MD1710081+9999REMSYN088AAXX  14064 60515 33560 32816 10099 20040 40273 57008 83200 333 00200 20069 83830 95990;EQDQ01  00002PRCP99
0174605150999992000021412004+35330+004200FM-12+0461DAAD V0203001N002110090019N0100001N1+01471-00201102761ADDAA199000091GA1081+009009089GF108991999999008001999999MD1810051+9999REMSYN076AAXX  14124 60515 32560 83004 10147 21020 40276 58005 333 0//00 88830 95900;EQDQ01  00002PRCP99
0144605150999992000021415004+35330+004200FM-12+0461DAAD V0203201N003110090019N0100001N1+01581-00351102641ADDGA1071+009009089GF107991071021008001999999MD1710131+9999REMSYN076AAXX  14154 60515 42560 73206 10158 21035 40264 57013 872// 333 87830 95900;
0193605150999992000021418004+35330+004200FM-12+0461DAAD V0203001N005110090019N0100001N1+01501-00031102661ADDAA199000091GA1061+009009089GF108991061021008001071001KA1120M+01621MD1310021+9999REMSYN082AAXX  14184 60515 32560 83010 10150 21003 40266 53002 86270 333 10162 86830 95990;EQDQ01  00002PRCP99
0211605150999992000021506004+35330+004200FM-12+0461DAAD V0202301N001012200019N0100001N1+00971-00471102991ADDAA199000091GA1021+009909089GF102991021021012501001001IA2240+00209KA1120N+00651MD1110071+9999REMSYN088AAXX  15064 60515 33660 22302 10097 21047 40299 51007 82200 333 00200 20065 82833 95990;EQDQ01  00002PRCP99
0144605150999992000021509004+35330+004200FM-12+0461DAAD V0201401N001012200019N0100001N1+01221+00431103151ADDGA1011+030009039GF101991011001999999081001MD1210151+9999REMSYN076AAXX  15094 60515 42960 11402 10122 20043 40315 52015 81080 333 81360 95900;
0180605150999992000021512004+35330+004200FM-12+0461DAAD V0201801N001012200019N0100001N1+01561+00031103111ADDAA199000091GA1031+009009089GF103991031021008001001001MD1810021+9999REMSYN082AAXX  15124 60515 32560 31802 10156 20003 40311 58002 83200 333 0//00 83830 95900;EQDQ01  00002PRCP99
0144605150999992000021515004+35330+004200FM-12+0461DAAD V0203401N006212200019N0100001N1+01711-00141102881ADDGA1031+009009089GF103991031021008001001001MD1710211+9999REMSYN076AAXX  15154 60515 42560 33412 10171 21014 40288 57021 83200 333 83830 95900;
0193605150999992000021518004+35330+004200FM-12+0461DAAD V0202201N003112200019N0100001N1+01371+00061102891ADDAA199000091GA1031+009009089GF103991031021008001001001KA1120M+01751MD1610071+9999REMSYN082AAXX  15184 60515 32560 32206 10137 20006 40289 56007 83200 333 10175 83830 95900;EQDQ01  00002PRCP99
0199605150999992000021606004+35330+004200FM-12+0461DAAD V0201801N002112200019N0150001N1+00231+00071102891ADDAA199000091GA1001+999999999GF100991001001999999001001IA2240-00609KA1120N-00161MD1810081+9999REMSYN076AAXX  16064 60515 33965 01804 10023 20007 40289 58008 333 05600 21016 95990;EQDQ01  00002PRCP99
0132605150999992000021609004+35330+004200FM-12+0461DAAD V0200801N002112200019N0150001N1+00801+00071102911ADDGA1001+999999999GF100991001001999999001001MD1110061+9999REMSYN064AAXX  16094 60515 42965 00804 10080 20007 40291 51006 333 95900;
0168605150999992000021612004+35330+004200FM-12+0461DAAD V0200601N002112200019N0150001N1+01481+00201102661ADDAA199000091GA1001+999999999GF100991001001999999001001MD1810191+9999REMSYN070AAXX  16124 60515 32965 00604 10148 20020 40266 58019 333 0//00 95900;EQDQ01  00002PRCP99
0144605150999992000021615004+35330+004200FM-12+0461DAAD V0202401N004112200019N0100001N1+01981+00301102221ADDGA1041+009009089GF104991041021008001001021MD1710401+9999REMSYN076AAXX  16154 60515 42560 42408 10198 20030 40222 57040 84202 333 84830 95900;
0193605150999992000021618004+35330+004200FM-12+0461DAAD V0200401N003119999999N0100001N1+01581+00541102201ADDAA199000091GA1041+009009089GF105991041021999999001021KA1120M+02101MD1510101+9999REMSYN082AAXX  16184 60515 32960 50406 10158 20054 40220 55010 84202 333 10210 84830 95990;EQDQ01  00002PRCP99
0211605150999992000021706004+35330+004200FM-12+0461DAAD V0202801N007212200019N0100001N1+00331+00021102151ADDAA199000091GA1031+060009009GF103991001001999999001021IA2240-00209KA1120N+00071MD1410001+9999REMSYN088AAXX  17064 60515 33960 32814 10033 20002 40215 54000 80002 333 05200 20007 83070 95900;EQDQ01  00002PRCP99
0144605150999992000021709004+35330+004200FM-12+0461DAAD V0203201N006212200019N0100001N1+01351+00091102301ADDGA1021+009009089GF103991021021008001001021MD1310201+9999REMSYN076AAXX  17094 60515 42560 33212 10135 20009 40230 53020 82202 333 82830 95900;
0180605150999992000021712004+35330+004200FM-12+0461DAAD V0203001N008210090019N0100001N1+01601-00081102211ADDAA199000091GA1051+009009089GF105991051021008001001001MD1810041+9999REMSYN082AAXX  17124 60515 32560 53016 10160 21008 40221 58004 85200 333 0//00 85830 95900;EQDQ01  00002PRCP99
0144605150999992000021715004+35330+004200FM-12+0461DAAD V0203001N014412200019N0100001N1+01761-00021102001ADDGA1041+009009089GF104991041021008001001001MD1710201+9999REMSYN076AAXX  17154 60515 42560 43028 10176 21002 40200 57020 84200 333 84830 95900;
0193605150999992000021718004+35330+004200FM-12+0461DAAD V0203001N010312200019N0100001N1+01301-00041102021ADDAA199000091GA1021+009009089GF102991021021008001001001KA1120M+01771MD1510001+9999REMSYN082AAXX  17184 60515 32560 23020 10130 21004 40202 55000 82200 333 10177 82830 95990;EQDQ01  00002PRCP99
0211605150999992000021806004+35330+004200FM-12+0461DAAD V0203201N010312200019N0100001N1+01301+00451102331ADDAA199000091GA1031+009009089GF103991031021008001001001IA2240+00109KA1120N+00571MD1110021+9999REMSYN088AAXX  18064 60515 33560 33220 10130 20045 40233 51002 83200 333 00100 20057 83830 95990;EQDQ01  00002PRCP99
0144605150999992000021809004+35330+004200FM-12+0461DAAD V0203601N004112200019N0100001N1+01431+00481102731ADDGA1031+009009089GF103991031021008001001001MD1210361+9999REMSYN076AAXX  18094 60515 42560 33608 10143 20048 40273 52036 83200 333 83830 95900;
0180605150999992000021812004+35330+004200FM-12+0461DAAD V0200601N002112200019N0100001N1+01561+00501102791ADDAA199000091GA1031+009009089GF103991031021008001001001MD1010081+9999REMSYN082AAXX  18124 60515 32560 30604 10156 20050 40279 50008 83200 333 0//00 83830 95900;EQDQ01  00002PRCP99
0144605150999992000021815004+35330+004200FM-12+0461DAAD V0203601N002112200019N0100001N1+01791+00191102581ADDGA1021+009009089GF102991021021008001001001MD1710181+9999REMSYN076AAXX  18154 60515 42560 23604 10179 20019 40258 57018 82200 333 82830 95900;
0176605150999992000021818004+35330+004200FM-12+0461DAAD V0201601N003112200019N0100001N1+01521+00231102661ADDAA199000091GF101991011021008001001001KA1120M+01901MD1310041+9999REMSYN081AAXX  18184 60515 32560 11606 10152 20023 40266 53004 81200 333 10190 8830 95990;EQDQ01  00002PRCP99
0199605150999992000021906004+35330+004200FM-12+0461DAAD V0201401N003112200019N0100001N1+00451+00061102781ADDAA199000091GA1001+999999999GF100991001001999999001001IA2240+00009KA1120N+00301MD1610011+9999REMSYN076AAXX  19064 60515 33960 01406 10045 20006 40278 56001 333 00000 20030 95990;EQDQ01  00002PRCP99
0144605150999992000021915004+35330+004200FM-12+0461DAAD V0200801N002112200019N0150001N1+01901+00311102351ADDGA1021+009009089GF102991021021008001001001MD1710321+9999REMSYN076AAXX  19154 60515 42565 20804 10190 20031 40235 57032 82200 333 82830 95900;
0193605150999992000021918004+35330+004200FM-12+0461DAAD V0201001N003112200019N0150001N1+01551+00451102341ADDAA199000091GA1011+009009089GF101991011021008001001001KA1120M+01911MD1610071+9999REMSYN082AAXX  19184 60515 32565 11006 10155 20045 40234 56007 81200 333 10191 81830 95990;EQDQ01  00002PRCP99
0199605150999992000022006004+35330+004200FM-12+0461DAAD V0209999C000012200019N0150001N1+00521+00081102341ADDAA199000091GA1001+999999999GF100991001001999999001001IA2240-00109KA1120N+00291MD1710071+9999REMSYN076AAXX  20064 60515 33965 00000 10052 20008 40234 57007 333 05100 20029 95990;EQDQ01  00002PRCP99
0132605150999992000022009004+35330+004200FM-12+0461DAAD V0203601N002112200019N0150001N1+01101+00401102441ADDGA1001+999999999GF100991001001999999001001MD1310121+9999REMSYN064AAXX  20094 60515 42965 03604 10110 20040 40244 53012 333 95900;
0168605150999992000022012004+35330+004200FM-12+0461DAAD V0202801N006212200019N0150001N1+02051-00261102241ADDAA199000091GA1001+999999999GF100991001001999999001001MD1810131+9999REMSYN070AAXX  20124 60515 32965 02812 10205 21026 40224 58013 333 0//00 95900;EQDQ01  00002PRCP99
0132605150999992000022015004+35330+004200FM-12+0461DAAD V0203001N007212200019N0150001N1+02201-00341102091ADDGA1001+999999999GF100991001001999999001001MD1710151+9999REMSYN064AAXX  20154 60515 42965 03014 10220 21034 40209 57015 333 95900;
0181605150999992000022018004+35330+004200FM-12+0461DAAD V0203401N006212200019N0150001N1+01701+00231102231ADDAA199000091GA1001+999999999GF100991001001999999001001KA1120M+02211MD1310081+9999REMSYN070AAXX  20184 60515 32965 03412 10170 20023 40223 53008 333 10221 95990;EQDQ01  00002PRCP99
0211605150999992000022106004+35330+004200FM-12+0461DAAD V0203201N003112200019N0100001N1+00331+00021102611ADDAA199000091GA1021+069009009GF102991001001999999001021IA2240-00109KA1120N+00141MD1510021+9999REMSYN088AAXX  21064 60515 33960 23206 10033 20002 40261 55002 80002 333 05100 20014 82073 95990;EQDQ01  00002PRCP99
0132605150999992000022109004+35330+004200FM-12+0461DAAD V0203601N007212200019N0100001N1+01141+00111102741ADDGA1001+999999999GF100991001001999999001001MD1310181+9999REMSYN064AAXX  21094 60515 42960 03614 10114 20011 40274 53018 333 95900;
0132605150999992000022115004+35330+004200FM-12+0461DAAD V0203601N004112200019N0100001N1+01661-00271102521ADDGA1001+999999999GF100991001001999999001001MD1710171+9999REMSYN064AAXX  21154 60515 42960 03608 10166 21027 40252 57017 333 95900;
0181605150999992000022118004+35330+004200FM-12+0461DAAD V0202001N002112200019N0100001N1+01401+00011102611ADDAA199000091GA1001+999999999GF100991001001999999001001KA1120M+01711MD1310031+9999REMSYN070AAXX  21184 60515 32960 02004 10140 20001 40261 53003 333 10171 95990;EQDQ01  00002PRCP99
0215605150999992000022206004+35330+004200FM-12+0461DAAD V0202001N002112200019N0150001N1+00271-00211102741ADDAA199000091GA1001+999999999GF100991001001999999001001IA2240+00109KA1120N+99999MD1810031+9999REMSYN076AAXX  22064 60515 33965 02004 10027 21021 40274 58003 333 00100 20046 95990;EQDQ01  00002PRCP99Q02 +00462ATMN  
0144605150999992000022209004+35330+004200FM-12+0461DAAD V0209999C000010600019N0100001N1+00951-00031102871ADDGA1051+060009009GF105991001001999999001021MD1310101+9999REMSYN076AAXX  22094 60515 42960 50000 10095 21003 40287 53010 80002 333 85070 95900;
0180605150999992000022212004+35330+004200FM-12+0461DAAD V0203601N002112200019N0100001N1+01301+00021102631ADDAA199000091GA1031+069009009GF103991001001999999001021MD1810151+9999REMSYN082AAXX  22124 60515 32960 33604 10130 20002 40263 58015 80002 333 0//00 83073 95900;EQDQ01  00002PRCP99
0144605150999992000022215004+35330+004200FM-12+0461DAAD V0201201N002112200019N0100001N1+01641+00051102431ADDGA1021+060009009GF102991001001999999001021MD1710211+9999REMSYN076AAXX  22154 60515 42960 21204 10164 20005 40243 57021 80002 333 82070 95900;
0193605150999992000022218004+35330+004200FM-12+0461DAAD V0201401N002112200019N0100001N1+01481+00201102291ADDAA199000091GA1041+060009009GF104991001001999999001011KA1120M+01751MD1710151+9999REMSYN082AAXX  22184 60515 32960 41404 10148 20020 40229 57015 80001 333 10175 84070 95990;EQDQ01  00002PRCP99
0211605150999992000022306004+35330+004200FM-12+0461DAAD V0203001N004112200019N0100001N1+00421-00291102311ADDAA199000091GA1031+024009039GF103991031001022501071001IA2240-00209KA1120N+00291MD1610021+9999REMSYN088AAXX  23064 60515 33860 33008 10042 21029 40231 56002 83070 333 05200 20029 83358 95990;EQDQ01  00002PRCP99
0144605150999992000022309004+35330+004200FM-12+0461DAAD V0203201N004112200019N0100001N1+01221+00451102481ADDGA1031+009009089GF104991031021008001001021MD1310201+9999REMSYN076AAXX  23094 60515 42560 43208 10122 20045 40248 53020 83202 333 83830 95900;
0180605150999992000022312004+35330+004200FM-12+0461DAAD V0203401N008212200019N0100001N1+01561-00031102491ADDAA199000091GA1031+009009089GF104991031021008001071001MD1810011+9999REMSYN082AAXX  23124 60515 32560 43416 10156 21003 40249 58001 83270 333 0//00 83830 95900;EQDQ01  00002PRCP99
0144605150999992000022315004+35330+004200FM-12+0461DAAD V0203201N009310090019N0100001N1+01581+00001102381ADDGA1071+009009089GF107991071021008001999999MD1610151+9999REMSYN076AAXX  23154 60515 42560 73218 10158 21000 40238 56015 872// 333 87830 95900;
0193605150999992000022318004+35330+004200FM-12+0461DAAD V0203401N011310090019N0100001N1+01201+00151102561ADDAA199000091GA1061+009009089GF106991061021008001001001KA1120M+01701MD1310191+9999REMSYN082AAXX  23184 60515 32560 63422 10120 20015 40256 53019 86200 333 10170 86830 95990;EQDQ01  00002PRCP99
0211605150999992000022406004+35330+004200FM-12+0461DAAD V0203001N006212200019N0100001N1+00641+00051103041ADDAA199000091GA1021+009009089GF102991021021999999001001IA2240-00109KA1120N+00151MD1110011+9999REMSYN088AAXX  24064 60515 33960 23012 10064 20005 40304 51001 82200 333 05100 20015 82830 95990;EQDQ01  00002PRCP99
0144605150999992000022409004+35330+004200FM-12+0461DAAD V0203401N005112200019N0100001N1+00931-00171103321ADDGA1021+009009089GF102991021021008001001001MD1310231+9999REMSYN076AAXX  24094 60515 42560 23410 10093 21017 40332 53023 82200 333 82830 95900;
0180605150999992000022412004+35330+004200FM-12+0461DAAD V0203601N004112200019N0100001N1+01211-00381103321ADDAA199000091GA1031+007809089GF103991031021008001001001MD1010001+9999REMSYN082AAXX  24124 60515 32560 33608 10121 21038 40332 50000 83200 333 0//00 83826 95900;EQDQ01  00002PRCP99
0144605150999992000022415004+35330+004200FM-12+0461DAAD V0203601N004112200019N0100001N1+01471-00411103161ADDGA1041+009009089GF104991041021008001001001MD1710031+9999REMSYN076AAXX  24154 60515 42560 43608 10147 21041 40316 57003 84200 333 84830 95900;
0181605150999992000022418004+35330+004200FM-12+0461DAAD V0200401N004112200019N0100001N1+01181-00201103311ADDAA199000091GA1001+999999999GF100991001001999999001001KA1120M+01501MD1310101+9999REMSYN070AAXX  24184 60515 32960 00408 10118 21020 40331 53010 333 10150 95990;EQDQ01  00002PRCP99
0199605150999992000022506004+35330+004200FM-12+0461DAAD V0202201N002112200019N0100001N1+00141-00261103741ADDAA199000091GA1001+999999999GF100991001001999999001001IA2240-00209KA1120N+00011MD1010011+9999REMSYN076AAXX  25064 60515 33960 02204 10014 21026 40374 50001 333 05200 20001 95990;EQDQ01  00002PRCP99
0132605150999992000022509004+35330+004200FM-12+0461DAAD V0209999C000012200019N0100001N1+00761-00041103801ADDGA1001+999999999GF100991001001999999001001MD1310131+9999REMSYN064AAXX  25094 60515 42960 00000 10076 21004 40380 53013 333 95900;
0168605150999992000022512004+35330+004200FM-12+0461DAAD V0209999C000012200019N0100001N1+01311-00021103681ADDAA199000091GA1001+999999999GF100991001001999999001001MD1810061+9999REMSYN070AAXX  25124 60515 32960 00000 10131 21002 40368 58006 333 0//00 95900;EQDQ01  00002PRCP99
0132605150999992000022515004+35330+004200FM-12+0461DAAD V0200801N003112200019N0100001N1+01551-00171103471ADDGA1001+999999999GF100991001001999999001001MD1710231+9999REMSYN064AAXX  25154 60515 42960 00806 10155 21017 40347 57023 333 95900;
0181605150999992000022518004+35330+004200FM-12+0461DAAD V0201001N003112200019N0100001N1+01301+00161103471ADDAA199000091GA1001+999999999GF100991001001999999001001KA1120M+01631MD1610041+9999REMSYN070AAXX  25184 60515 32960 01006 10130 20016 40347 56004 333 10163 95990;EQDQ01  00002PRCP99
0217605150999992000022606004+35330+004200FM-12+0461DAAD V0209999C000012200019N0100001N1+00151-00381103601ADDAA199000091GA1001+999999999GF100991001001999999001001IA2240-00309KA1120N-00031REMSYN076AAXX  26064 60515 33960 00000 10015 21038 40360 56000 333 05300 21003 95990;EQDQ01+000062APCTENQ02+000002APC3  Q03  00002PRCP99
0144605150999992000022609004+35330+004200FM-12+0461DAAD V0209999C000012200019N0100001N1+00921-00081103661ADDGA1031+060009009GF103991001001999999001021MD1110101+9999REMSYN076AAXX  26094 60515 42960 30000 10092 21008 40366 51010 80002 333 83070 95900;
0180605150999992000022612004+35330+004200FM-12+0461DAAD V0201001N002112200019N0100001N1+01501-00201103501ADDAA199000091GA1021+060009009GF102991001001999999001021MD1810131+9999REMSYN082AAXX  26124 60515 32960 21004 10150 21020 40350 58013 80002 333 0//00 82070 95900;EQDQ01  00002PRCP99
0144605150999992000022615004+35330+004200FM-12+0461DAAD V0200601N004112200019N0100001N1+01731-00171103211ADDGA1031+060009009GF103991001001999999001021MD1710271+9999REMSYN076AAXX  26154 60515 42960 30608 10173 21017 40321 57027 80002 333 83070 95900;
0193605150999992000022618004+35330+004200FM-12+0461DAAD V0203201N004112200019N0100001N1+01431-00071103231ADDAA199000091GA1041+060009009GF104991001001999999001021KA1120M+01751MD1610021+9999REMSYN082AAXX  26184 60515 32960 43208 10143 21007 40323 56002 80002 333 10175 84070 95990;EQDQ01  00002PRCP99
0199605150999992000022706004+35330+004200FM-12+0461DAAD V0209999C000012200019N0100001N1+00141-00291103171ADDAA199000091GA1001+999999999GF100991001001999999001001IA2240-00309KA1120N-00031MD1710041+9999REMSYN076AAXX  27064 60515 33960 00000 10014 21029 40317 57004 333 05300 21003 95990;EQDQ01  00002PRCP99
0166605150999992000022709004+35330+004200FM-12+0461DAAD V0201201N001012200019N0100001N1+01011+00021103271ADDGA1021+009909089GA2031+060009009GF104991021021012501001021MD1310141+9999REMSYN082AAXX  27094 60515 42660 41202 10101 20002 40327 53014 82202 333 82833 83070 95900;
0180605150999992000022712004+35330+004200FM-12+0461DAAD V0200601N001012200019N0100001N1+01461-00021103151ADDAA199000091GA1041+069009009GF104991001001999999001021MD1810121+9999REMSYN082AAXX  27124 60515 32960 40602 10146 21002 40315 58012 80002 333 0//00 84073 95900;EQDQ01  00002PRCP99
0144605150999992000022715004+35330+004200FM-12+0461DAAD V0200601N001012200019N0100001N1+01941-00271102881ADDGA1031+069009009GF104991001001999999001021MD1710231+9999REMSYN076AAXX  27154 60515 42960 40602 10194 21027 40288 57023 80002 333 83073 95900;
0193605150999992000022718004+35330+004200FM-12+0461DAAD V0200801N002112200019N0100001N1+01601+00001102931ADDAA199000091GA1041+060009009GF104991001001999999001021KA1120M+01941MD1310011+9999REMSYN082AAXX  27184 60515 32960 40804 10160 20000 40293 53001 80002 333 10194 84070 95990;EQDQ01  00002PRCP99
0227605150999992000022806004+35330+004200FM-12+0461DAAD V0201601N003112200019N0100001N1+00261-00291102991ADDAA199000091GA1031+024009039GF103991031001999999081001IA2240-00209KA1120N+99999MD1710051+9999REMSYN088AAXX  28064 60515 33960 31606 10026 21029 40299 57005 83080 333 05200 20064 83358 95990;EQDQ01  00002PRCP99Q02 +00642ATMN  
0144605150999992000022809004+35330+004200FM-12+0461DAAD V0209999C000012200019N0100001N1+01031+00051103071ADDGA1031+024009039GF103991031001999999081021MD1210131+9999REMSYN076AAXX  28094 60515 42960 30000 10103 20005 40307 52013 83082 333 83358 95900;
0202605150999992000022812004+35330+004200FM-12+0461DAAD V0201001N002112200019N0100001N1+01631-00021102991ADDAA199000091GA1011+009909089GA2031+024009039GF104991031021012501081021MD1810071+9999REMSYN088AAXX  28124 60515 32660 41004 10163 21002 40299 58007 83282 333 0//00 81833 83358 95900;EQDQ01  00002PRCP99
0166605150999992000022815004+35330+004200FM-12+0461DAAD V0200401N002112200019N0100001N1+01901-00381102761ADDGA1011+009909089GA2031+024009039GF104991011021012501071021MD1710241+9999REMSYN082AAXX  28154 60515 42660 40404 10190 21038 40276 57024 81272 333 81833 83358 95900;
0215605150999992000022818004+35330+004200FM-12+0461DAAD V0203601N002119999999N0100001N1+01671-00131102741ADDAA199000091GA1021+024009039GA2031+060009009GF105991021001999999071021KA1120M+02021MD1510031+9999REMSYN088AAXX  28184 60515 32960 53604 10167 21013 40274 55003 82072 333 10202 82358 83070 95990;EQDQ01  00002PRCP99
0211605150999992000022906004+35330+004200FM-12+0461DAAD V0201001N002112200019N0100001N1+00341-00221102891ADDAA199000091GA1021+069009009GF102991001001999999001021IA2240-00209KA1120N+00191MD1410001+9999REMSYN088AAXX  29064 60515 33960 21004 10034 21022 40289 54000 80002 333 05200 20019 82073 95990;EQDQ01  00002PRCP99
0144605150999992000022909004+35330+004200FM-12+0461DAAD V0200201N003112200019N0100001N1+01061-00111103071ADDGA1021+069009009GF102991001001999999001021MD1310181+9999REMSYN076AAXX  29094 60515 42960 20206 10106 21011 40307 53018 80002 333 82073 95900;
0180605150999992000022912004+35330+004200FM-12+0461DAAD V0200201N002112200019N0100001N1+01691-00051102911ADDAA199000091GA1021+024009039GF103991021001022501031021MD1810091+9999REMSYN082AAXX  29124 60515 32860 30204 10169 21005 40291 58009 82032 333 0//00 82358 95900;EQDQ01  00002PRCP99
0144605150999992000022915004+35330+004200FM-12+0461DAAD V0200601N002112200019N0100001N1+02061-00201102631ADDGA1021+069009009GF102991001001999999001021MD1710261+9999REMSYN076AAXX  29154 60515 42960 20604 10206 21020 40263 57026 80002 333 82073 95900;
0193605150999992000022918004+35330+004200FM-12+0461DAAD V0203601N002112200019N0100001N1+01801-00111102721ADDAA199000091GA1021+060009009GF102991001001999999001021KA1120M+02151MD1310041+9999REMSYN082AAXX  29184 60515 32960 23604 10180 21011 40272 53004 80002 333 10215 82070 95990;EQDQ01  00002PRCP99
0199605150999992000030106004+35330+004200FM-12+0461DAAD V0202001N002112200019N0150001N1+00301-00401102761ADDAA199000091GA1001+999999999GF100991001001999999001001IA2240-00209KA1120N+00161MD1710121+9999REMSYN076AAXX  01064 60515 33965 02004 10030 21040 40276 57012 333 05200 20016 95990;EQDQ01  00002PRCP99
0168605150999992000030112004+35330+004200FM-12+0461DAAD V0209999C000012200019N0150001N1+01661-00311102591ADDAA199000091GA1001+999999999GF100991001001999999001001MD1810211+9999REMSYN070AAXX  01124 60515 32965 00000 10166 21031 40259 58021 333 0//00 95900;EQDQ01  00002PRCP99
0132605150999992000030115004+35330+004200FM-12+0461DAAD V0200601N002112200019N0150001N1+02101-00151102231ADDGA1001+999999999GF100991001001999999001001MD1710331+9999REMSYN064AAXX  01154 60515 42965 00604 10210 21015 40223 57033 333 95900;
0181605150999992000030118004+35330+004200FM-12+0461DAAD V0209999C000012200019N0150001N1+01701-00171102241ADDAA199000091GA1001+999999999GF100991001001999999001001KA1120M+02151MD1510131+9999REMSYN070AAXX  01184 60515 32965 00000 10170 21017 40224 55013 333 10215 95990;EQDQ01  00002PRCP99
0199605150999992000030206004+35330+004200FM-12+0461DAAD V0202801N006212200019N0100001N1+00651+00271102421ADDAA199000091GA1001+999999999GF100991001001999999001001IA2240+00209KA1120N+00541MD1010011+9999REMSYN076AAXX  02064 60515 33960 02812 10065 20027 40242 50001 333 00200 20054 95900;EQDQ01  00002PRCP99
0144605150999992000030209004+35330+004200FM-12+0461DAAD V0203201N008212200019N0100001N1+01451+00381102661ADDGA1021+009909089GF102991021021999999001001MD1310321+9999REMSYN076AAXX  02094 60515 42960 23216 10145 20038 40266 53032 82200 333 82833 95900;
0180605150999992000030212004+35330+004200FM-12+0461DAAD V0203201N009310090019N0100001N1+01761+00071102681ADDAA199000091GA1061+009009089GF106991061021008001001001MD1110021+9999REMSYN082AAXX  02124 60515 32560 63218 10176 20007 40268 51002 86200 333 0//00 86830 95900;EQDQ01  00002PRCP99
0144605150999992000030215004+35330+004200FM-12+0461DAAD V0203401N009312200019N0100001N1+01861-00301102551ADDGA1021+009909089GF102991021021012501001001MD1810121+9999REMSYN076AAXX  02154 60515 42660 23418 10186 21030 40255 58012 82200 333 82833 95900;
0193605150999992000030218004+35330+004200FM-12+0461DAAD V0203401N005112200019N0100001N1+01591-00161102661ADDAA199000091GA1021+009909089GF102991021021012501001001KA1120M+01911MD1310091+9999REMSYN082AAXX  02184 60515 32660 23410 10159 21016 40266 53009 82200 333 10191 82833 95900;EQDQ01  00002PRCP99
0199605150999992000030306004+35330+004200FM-12+0461DAAD V0201201N002112200019N0100001N1+00021-00531103121ADDAA199000091GA1001+999999999GF100991001001999999001001IA2240-00309KA1120N-00101MD1710051+9999REMSYN076AAXX  03064 60515 33960 01204 10002 21053 40312 57005 333 05300 21010 95900;EQDQ01  00002PRCP99
0132605150999992000030309004+35330+004200FM-12+0461DAAD V0200801N002112200019N0100001N1+00881-00291103251ADDGA1001+999999999GF100991001001999999001001MD1310201+9999REMSYN064AAXX  03094 60515 42960 00804 10088 21029 40325 53020 333 95900;
0168605150999992000030312004+35330+004200FM-12+0461DAAD V0200601N002112200019N0100001N1+01381-00501103131ADDAA199000091GA1001+999999999GF100991001001999999001001MD1810081+9999REMSYN070AAXX  03124 60515 32960 00604 10138 21050 40313 58008 333 0//00 95900;EQDQ01  00002PRCP99
0132605150999992000030315004+35330+004200FM-12+0461DAAD V0200801N002112200019N0100001N1+01731-00251102841ADDGA1001+999999999GF100991001001999999001001MD1710291+9999REMSYN064AAXX  03154 60515 42960 00804 10173 21025 40284 57029 333 95900;
0181605150999992000030318004+35330+004200FM-12+0461DAAD V0203601N002112200019N0100001N1+01821-00221102801ADDAA199000091GA1001+999999999GF100991001001999999001001KA1120M+01811MD1510081+9999REMSYN070AAXX  03184 60515 32960 03604 10182 21022 40280 55008 333 10181 95900;EQDQ01  00002PRCP99
0211605150999992000030406004+35330+004200FM-12+0461DAAD V0202001N002112200019N0100001N1+00111-00041102711ADDAA199000091GA1021+069009009GF102991001001999999001021IA2240-00209KA1120N+00091MD1710111+9999REMSYN088AAXX  04064 60515 33960 22004 10011 21004 40271 57011 80002 333 05200 20009 82073 95900;EQDQ01  00002PRCP99
0144605150999992000030409004+35330+004200FM-12+0461DAAD V0200601N002112200019N0100001N1+01001-00241102741ADDGA1021+069009009GF102991001001999999001021MD1310071+9999REMSYN076AAXX  04094 60515 42960 20604 10100 21024 40274 53007 80002 333 82073 95900;
0168605150999992000030412004+35330+004200FM-12+0461DAAD V0203401N001012200019N0100001N1+01601-00181102591ADDAA199000091GA1001+999999999GF100991001001999999001001MD1810111+9999REMSYN070AAXX  04124 60515 32960 03402 10160 21018 40259 58011 333 0//00 95900;EQDQ01  00002PRCP99
0144605150999992000030415004+35330+004200FM-12+0461DAAD V0203601N002112200019N0100001N1+02001-00211102311ADDGA1011+009909089GF101991011021012501001001MD1710231+9999REMSYN076AAXX  04154 60515 42660 13604 10200 21021 40231 57023 81200 333 81833 95900;
0193605150999992000030418004+35330+004200FM-12+0461DAAD V0201401N003112200019N0100001N1+01701+00031102371ADDAA199000091GA1021+009909089GF102991021021012501001001KA1120M+02111MD1610021+9999REMSYN082AAXX  04184 60515 32660 21406 10170 20003 40237 56002 82200 333 10211 82833 95900;EQDQ01  00002PRCP99
0199605150999992000030506004+35330+004200FM-12+0461DAAD V0202401N002112200019N0100001N1+00731-00221102631ADDAA199000091GA1001+999999999GF100991001001999999001001IA2240+00609KA1120N+00001MD1510041+9999REMSYN076AAXX  05064 60515 33960 02404 10073 21022 40263 55004 333 00600 20000 95900;EQDQ01  00002PRCP99
0132605150999992000030509004+35330+004200FM-12+0461DAAD V0209999C000012200019N0100001N1+01501-00041102881ADDGA1001+999999999GF100991001001999999001001MD1310181+9999REMSYN064AAXX  05094 60515 42960 00000 10150 21004 40288 53018 333 95900;
0168605150999992000030512004+35330+004200FM-12+0461DAAD V0203401N003112200019N0100001N1+02041-00531102771ADDAA199000091GA1001+999999999GF100991001001999999001001MD1810011+9999REMSYN070AAXX  05124 60515 32960 03406 10204 21053 40277 58001 333 0//00 95900;EQDQ01  00002PRCP99
0132605150999992000030515004+35330+004200FM-12+0461DAAD V02099999999992200019N0100001N1+02171-00901102601ADDGA1001+999999999GF100991001001999999001001MD1710141+9999REMSYN064AAXX  05154 60515 42960 04004 10217 21090 40260 57014 333 95900;
0181605150999992000030518004+35330+004200FM-12+0461DAAD V0203601N005112200019N0100001N1+01941-00381102741ADDAA199000091GA1001+999999999GF100991001001999999001001KA1120M+02221MD1310091+9999REMSYN070AAXX  05184 60515 32960 03610 10194 21038 40274 53009 333 10222 95900;EQDQ01  00002PRCP99
0199605150999992000030606004+35330+004200FM-12+0461DAAD V0209999C000012200019N0100001N1+00501-00031103161ADDAA199000091GA1001+999999999GF100991001001999999001001IA2240-00109KA1120N+00411MD1110051+9999REMSYN076AAXX  06064 60515 33960 00000 10050 21003 40316 51005 333 05100 20041 95900;EQDQ01  00002PRCP99
0144605150999992000030609004+35330+004200FM-12+0461DAAD V0200401N004112200019N0100001N1+01051+00251103341ADDGA1021+069009009GF102991001001999999001021MD1310191+9999REMSYN076AAXX  06094 60515 42960 20408 10105 20025 40334 53019 80002 333 82073 95900;
0180605150999992000030612004+35330+004200FM-12+0461DAAD V0200201N003112200019N0100001N1+01701+00031103261ADDAA199000091GA1021+069009009GF102991001001999999001021MD1810081+9999REMSYN082AAXX  06124 60515 32960 20206 10170 20003 40326 58008 80002 333 0//00 82073 95900;EQDQ01  00002PRCP99
0144605150999992000030615004+35330+004200FM-12+0461DAAD V0200401N003112200019N0100001N1+02141-00331103001ADDGA1031+024009039GF104991031001022501031021MD1710231+9999REMSYN076AAXX  06154 60515 42860 40406 10214 21033 40300 57023 83032 333 83358 95900;
0215605150999992000030618004+35330+004200FM-12+0461DAAD V0202401N002119999999N0100001N1+01801+00001102981ADDAA199000091GA1021+030009039GA2031+060009009GF105991021001999999031021KA1120M+02151MD1610051+9999REMSYN088AAXX  06184 60515 32960 52404 10180 20000 40298 56005 82032 333 10215 82360 83070 95900;EQDQ01  00002PRCP99
0211605150999992000030706004+35330+004200FM-12+0461DAAD V0201601N002112200019N0100001N1+00531+00141103181ADDAA199000091GA1021+060009009GF102991001001999999001021IA2240+00009KA1120N+00451MD1710121+9999REMSYN088AAXX  07064 60515 33960 21604 10053 20014 40318 57012 80002 333 00010 20045 82070 95900;EQDQ01  00002PRCP99
0144605150999992000030709004+35330+004200FM-12+0461DAAD V0203601N002112200019N0100001N1+01111+00331103291ADDGA1011+024009039GF101991011001999999081001MD1110121+9999REMSYN076AAXX  07094 60515 42960 13604 10111 20033 40329 51012 81080 333 81358 95900;
0180605150999992000030712004+35330+004200FM-12+0461DAAD V0202601N002112200019N0100001N1+01761+00131103131ADDAA199000091GA1021+060009009GF102991001001999999001021MD1810131+9999REMSYN082AAXX  07124 60515 32960 22604 10176 20013 40313 58013 80002 333 0//00 82070 95900;EQDQ01  00002PRCP99
0144605150999992000030715004+35330+004200FM-12+0461DAAD V0200601N005112200019N0100001N1+02031+00141102851ADDGA1021+060009009GF102991001001999999001021MD1710261+9999REMSYN076AAXX  07154 60515 42960 20610 10203 20014 40285 57026 80002 333 82070 95900;
0193605150999992000030718004+35330+004200FM-12+0461DAAD V0203601N002112200019N0100001N1+01701+00471102911ADDAA199000091GA1021+060009009GF102991001001999999001021KA1120M+02051MD1510001+9999REMSYN082AAXX  07184 60515 32960 23604 10170 20047 40291 55000 80002 333 10205 82070 95900;EQDQ01  00002PRCP99
0211605150999992000030806004+35330+004200FM-12+0461DAAD V0201801N002112200019N0100001N1+00551+00061103061ADDAA199000091GA1021+069009009GF102991001001999999001021IA2240+00009KA1120N+00441MD1310021+9999REMSYN088AAXX  08064 60515 33960 21804 10055 20006 40306 53002 80002 333 00000 20044 82073 95900;EQDQ01  00002PRCP99
0144605150999992000030809004+35330+004200FM-12+0461DAAD V0209999C000012200019N0100001N1+01421+00281103141ADDGA1021+069009009GF102991001001999999001021MD1310141+9999REMSYN076AAXX  08094 60515 42960 20000 10142 20028 40314 53014 80002 333 82073 95900;
0144605150999992000030815004+35330+004200FM-12+0461DAAD V0200201N004112200019N0100001N1+02161-00321102821ADDGA1041+009909089GF104991041021012501001001MD1710201+9999REMSYN076AAXX  08154 60515 42660 40208 10216 21032 40282 57020 84200 333 84833 95900;
0193605150999992000030818004+35330+004200FM-12+0461DAAD V0203601N006212200019N0100001N1+01901-00191102941ADDAA199000091GA1041+009909089GF104991041021012501001001KA1120M+02201MD1310051+9999REMSYN082AAXX  08184 60515 32660 43612 10190 21019 40294 53005 84200 333 10220 84833 95900;EQDQ01  00002PRCP99
0199605150999992000030906004+35330+004200FM-12+0461DAAD V0202401N003112200019N0100001N1+00731-00491103251ADDAA199000091GA1001+999999999GF100991001001999999001001IA2240+00009KA1120N+00421MD1710031+9999REMSYN076AAXX  09064 60515 33960 02406 10073 21049 40325 57003 333 00020 20042 95900;EQDQ01  00002PRCP99
0168605150999992000030912004+35330+004200FM-12+0461DAAD V0203601N002112200019N0100001N1+01751-00431103231ADDAA199000091GA1001+999999999GF100991001001999999001001MD1810121+9999REMSYN070AAXX  09124 60515 32960 03604 10175 21043 40323 58012 333 0//00 95900;EQDQ01  00002PRCP99
0132605150999992000030915004+35330+004200FM-12+0461DAAD V0200601N003112200019N0100001N1+01991-01271103011ADDGA1001+999999999GF100991001001999999001001MD1710231+9999REMSYN064AAXX  09154 60515 42960 00606 10199 21127 40301 57023 333 95900;
0181605150999992000030918004+35330+004200FM-12+0461DAAD V0202401N002112200019N0100001N1+01731-00731102971ADDAA199000091GA1001+999999999GF100991001001999999001001KA1120M+02011MD1610071+9999REMSYN070AAXX  09184 60515 32960 02404 10173 21073 40297 56007 333 10201 95900;EQDQ01  00002PRCP99
0199605150999992000031006004+35330+004200FM-12+0461DAAD V0202801N001012200019N0100001N1+00461-00431103021ADDAA199000091GA1001+999999999GF100991001001999999001001IA2240-00309KA1120N+00301MD1710071+9999REMSYN076AAXX  10064 60515 33960 02802 10046 21043 40302 57007 333 05300 20030 95900;EQDQ01  00002PRCP99
0132605150999992000031009004+35330+004200FM-12+0461DAAD V0201001N001012200019N0100001N1+01311-00131103061ADDGA1001+999999999GF100991001001999999001001MD1110071+9999REMSYN064AAXX  10094 60515 42960 01002 10131 21013 40306 51007 333 95900;
0168605150999992000031012004+35330+004200FM-12+0461DAAD V0200201N002112200019N0100001N1+01841-00071102991ADDAA199000091GA1001+999999999GF100991001001999999001001MD1810061+9999REMSYN070AAXX  10124 60515 32960 00204 10184 21007 40299 58006 333 0//00 95900;EQDQ01  00002PRCP99
0132605150999992000031015004+35330+004200FM-12+0461DAAD V0200401N001012200019N0100001N1+02101-00461102731ADDGA1001+999999999GF100991001001999999001001MD1710251+9999REMSYN064AAXX  10154 60515 42960 00402 10210 21046 40273 57025 333 95900;
0181605150999992000031018004+35330+004200FM-12+0461DAAD V0209999C000012200019N0100001N1+02031-00141102671ADDAA199000091GA1001+999999999GF100991001001999999001001KA1120M+02251MD1510051+9999REMSYN070AAXX  10184 60515 32960 00000 10203 21014 40267 55005 333 10225 95900;EQDQ01  00002PRCP99
0199605150999992000031106004+35330+004200FM-12+0461DAAD V0200401N002112200019N0100001N1+01061+00131102711ADDAA199000091GA1001+999999999GF100991001001999999001001IA2240+00009KA1120N+00541MD1710041+9999REMSYN076AAXX  11064 60515 33960 00404 10106 20013 40271 57004 333 00020 20054 95900;EQDQ01  00002PRCP99
0132605150999992000031109004+35330+004200FM-12+0461DAAD V0201601N002112200019N0100001N1+01451+00091102821ADDGA1001+999999999GF100991001001999999001001MD1110071+9999REMSYN064AAXX  11094 60515 42960 01604 10145 20009 40282 51007 333 95900;
0168605150999992000031112004+35330+004200FM-12+0461DAAD V0200601N002112200019N0100001N1+02111+00061102651ADDAA199000091GA1001+999999999GF100991001001999999001001MD1810111+9999REMSYN070AAXX  11124 60515 32960 00604 10211 20006 40265 58011 333 0//00 95900;EQDQ01  00002PRCP99
0132605150999992000031115004+35330+004200FM-12+0461DAAD V0200401N003112200019N0100001N1+02401-00161102331ADDGA1001+999999999GF100991001001999999001001MD1710261+9999REMSYN064AAXX  11154 60515 42960 00406 10240 21016 40233 57026 333 95900;
0181605150999992000031118004+35330+004200FM-12+0461DAAD V0203601N002112200019N0100001N1+02121+00111102341ADDAA199000091GA1001+999999999GF100991001001999999001001KA1120M+02451MD1510051+9999REMSYN070AAXX  11184 60515 32960 03604 10212 20011 40234 55005 333 10245 95900;EQDQ01  00002PRCP99
0211605150999992000031206004+35330+004200FM-12+0461DAAD V0201801N002112200019N0100001N1+00711+00101102301ADDAA199000091GA1021+060009009GF102991001001999999001021IA2240+00109KA1120N+00461MD1710061+9999REMSYN088AAXX  12064 60515 33960 21804 10071 20010 40230 57006 80002 333 00100 20046 82070 95900;EQDQ01  00002PRCP99
0144605150999992000031209004+35330+004200FM-12+0461DAAD V0200601N001012200019N0100001N1+01501+00131102371ADDGA1031+069009009GF103991001001999999001021MD1310091+9999REMSYN076AAXX  12094 60515 42960 30602 10150 20013 40237 53009 80002 333 83073 95900;
0180605150999992000031212004+35330+004200FM-12+0461DAAD V0200601N002112200019N0100001N1+02151-00051102291ADDAA199000091GA1041+069009009GF104991001001999999001021MD1810061+9999REMSYN082AAXX  12124 60515 32960 40604 10215 21005 40229 58006 80002 333 0//00 84073 95900;EQDQ01  00002PRCP99
0144605150999992000031215004+35330+004200FM-12+0461DAAD V0201201N002112200019N0100001N1+02521-00111102031ADDGA1031+069009009GF103991001001999999001021MD1710211+9999REMSYN076AAXX  12154 60515 42960 31204 10252 21011 40203 57021 80002 333 83073 95900;
0193605150999992000031218004+35330+004200FM-12+0461DAAD V0201201N003112200019N0100001N1+02121+00041102081ADDAA199000091GA1031+060009009GF103991001001999999001021KA1120M+02551MD1610031+9999REMSYN082AAXX  12184 60515 32960 31206 10212 20004 40208 56003 80002 333 10255 83070 95900;EQDQ01  00002PRCP99
0211605150999992000031306004+35330+004200FM-12+0461DAAD V0209999C000010600019N0080001N1+01351+00091102131ADDAA199000091GA1081+060009009GF108991001001999999001021IA2240+00009KA1120N+00921MD1710381+9999REMSYN088AAXX  13064 60515 33958 80000 10135 20009 40213 57038 80002 333 00060 20092 88070 95900;EQDQ01  00002PRCP99
0202605150999992000031312004+35330+004200FM-12+0461DAAD V0203401N002110600019N0080001N1+02421+00201102061ADDAA199000091GA1031+009909089GA2031+060009009GF106991031021012501001051MD1810091+9999REMSYN088AAXX  13124 60515 32658 63404 10242 20020 40206 58009 83205 333 0//00 83833 83070 95900;EQDQ01  00002PRCP99
0165605150999992000031315004+35330+004200FM-12+0461DAAD V0202401N005110600019N0080001N1+02451+00271101961ADDGA1031+009909029GA2051+060009019GF108991041021012501001051MD1710091+9999REMSYN081AAXX  13154 60515 42658 82410 10245 20027 40196 57009 84205 33383833 85070 95900;
0215605150999992000031318004+35330+004200FM-12+0461DAAD V0203201N002110660019N0080001N1+02221+00001102061ADDAA199000091GA1041+009909089GA2051+066009009GF108991031021012501001051KA1120M+02621MD1310041+9999REMSYN088AAXX  13184 60515 32658 83204 10222 20000 40206 53004 83205 333 10262 84833 85072 95990;EQDQ01  00002PRCP99
0210605150999992000031406004+35330+004200FM-12+0461DAAD V0200601N003110078019N0080001N1+01201+00831102281ADDAA124002091GA1081+007809089GF108991081021008001999999IA2240+00609KA1120N+01111MD1810011+9999MW1601REMSYN100AAXX  14064 60515 11558 80606 10120 20083 40228 58001 60024 760// 882// 333 006// 20111 88826 95900;
0166605150999992000031409004+35330+004200FM-12+0461DAAD V0200801N002110078019N0080001N1+01211+01041102321ADDGA1031+000909079GA2061+007809089GF108991081071000751999999MD1010001+9999REMSYN082AAXX  14094 60515 42158 80804 10121 20104 40232 50000 887// 333 83703 86826 95900;
0173605150999992000031412004+35330+004200FM-12+0461DAAD V0202601N001012200019N0080001N1+01651+01031102221ADDAA112003091AC10I9GA1041+009009089GF104991041021008001001001MD1810081+9999REMSYN088AAXX  14124 60515 12558 42602 10165 20103 40222 58008 60032 84200 333 0//14 84830 95900;
0172605150999992000031415004+35330+004200FM-12+0461DAAD V0200801N003110078019N0080001N1+01751+00991101971ADDAY121031AY221031GA1071+007809089GF107991071021008001999999MD1710231+9999MW1211REMSYN082AAXX  14154 60515 41558 70806 10175 20099 40197 57023 72122 872// 333 87826 95900;
0180605150999992000031418004+35330+004200FM-12+0461DAAD V0200601N002110078019N0080001N1+01481+00041102021ADDAA112004191GA1071+007809089GF107991071021008001999999KA1120M+01811MD1310051+9999REMSYN088AAXX  14184 60515 12558 70604 10148 20004 40202 53005 60042 872// 333 10181 87826 95990;
0211605150999992000031506004+35330+004200FM-12+0461DAAD V0203201N005112200019N0100001N1+00911+00591102221ADDAA199000091GA1011+003009079GF102991011071004501001021IA2240+00109KA1120N+00711MD1610031+9999REMSYN088AAXX  15064 60515 33460 23210 10091 20059 40222 56003 81702 333 00100 20071 81710 95900;EQDQ01  00002PRCP99
0144605150999992000031509004+35330+004200FM-12+0461DAAD V0203201N005112200019N0100001N1+01381+00551102261ADDGA1021+009909089GF104991021021012501001021MD1110041+9999REMSYN076AAXX  15094 60515 42660 43210 10138 20055 40226 51004 82202 333 82833 95900;
0180605150999992000031512004+35330+004200FM-12+0461DAAD V0203201N005110078019N0100001N1+01721+00441102161ADDAA199000091GA1051+007809089GF105991051021008001001021MD1810081+9999REMSYN082AAXX  15124 60515 32560 53210 10172 20044 40216 58008 85202 333 0//00 85826 95900;EQDQ01  00002PRCP99
0144605150999992000031515004+35330+004200FM-12+0461DAAD V0203601N005112200019N0100001N1+01901+00351101841ADDGA1041+007809089GF104991041021008001001001MD1710281+9999REMSYN076AAXX  15154 60515 42560 43610 10190 20035 40184 57028 84200 333 84826 95900;
0193605150999992000031518004+35330+004200FM-12+0461DAAD V0203601N006210078019N0100001N1+01791+00441101721ADDAA199000091GA1071+007809089GF107991071021008001999999KA1120M+01941MD1610101+9999REMSYN082AAXX  15184 60515 32560 73612 10179 20044 40172 56010 872// 333 10194 87826 95900;EQDQ01  00002PRCP99
0211605150999992000031606004+35330+004200FM-12+0461DAAD V0203201N004112200019N0100001N1+00951+00401102131ADDAA199000091GA1021+003009079GF103991021071004501001021IA2240+00209KA1120N+00861MD1110061+9999REMSYN088AAXX  16064 60515 33460 33208 10095 20040 40213 51006 82702 333 00200 20086 82710 95900;EQDQ01  00002PRCP99
0144605150999992000031609004+35330+004200FM-12+0461DAAD V0203201N007210090019N0100001N1+01281+00341102211ADDGA1051+009009089GF105991051021004501001001MD1110081+9999REMSYN076AAXX  16094 60515 42460 53214 10128 20034 40221 51008 85200 333 85830 95900;
0144605150999992000031615004+35330+004200FM-12+0461DAAD V0203601N011312200019N0100001N1+01751+00041102121ADDGA1041+009009089GF104991041021008001001001MD1810091+9999REMSYN076AAXX  16154 60515 42560 43622 10175 20004 40212 58009 84200 333 84830 95900;
0211605150999992000031706004+35330+004200FM-12+0461DAAD V0202201N003112200019N0100001N1+00601-00031102551ADDAA199000091GA1021+069009009GF102991001001999999001021IA2240-00309KA1120N+00461MD1110041+9999REMSYN088AAXX  17064 60515 33960 22206 10060 21003 40255 51004 80002 333 05300 20046 82073 95900;EQDQ01  00002PRCP99
0132605150999992000031709004+35330+004200FM-12+0461DAAD V0203101N005112200019N0100001N1+01101-00021102691ADDGA1001+999999999GF100991001001999999001001MD1310161+9999REMSYN064AAXX  17094 60515 42960 03110 10110 21002 40269 53016 333 95900;
0168605150999992000031712004+35330+004200FM-12+0461DAAD V0203401N003112200019N0100001N1+01481-00071102571ADDAA199000091GA1001+999999999GF100991001001999999001001MD1810101+9999REMSYN070AAXX  17124 60515 32960 03406 10148 21007 40257 58010 333 0//00 95900;EQDQ01  00002PRCP99
0132605150999992000031715004+35330+004200FM-12+0461DAAD V0203401N003112200019N0100001N1+01781-00041102311ADDGA1001+999999999GF100991001001999999001001MD1710231+9999REMSYN064AAXX  17154 60515 42960 03406 10178 21004 40231 57023 333 95900;
0211605150999992000031806004+35330+004200FM-12+0461DAAD V0202601N002112200019N0100001N1+00441-00181102191ADDAA199000091GA1021+069009009GF102991001001999999001021IA2240-00409KA1120N+00341MD1610071+9999REMSYN088AAXX  18064 60515 32960 22604 10044 21018 40219 56007 80002 333 05400 20034 82073 95900;EQDQ01  00002PRCP99
0132605150999992000031809004+35330+004200FM-12+0461DAAD V0200801N001012200019N0100001N1+01101+00151102251ADDGA1001+999999999GF100991001001999999001001MD1110061+9999REMSYN064AAXX  18094 60515 42960 00802 10110 20015 40225 51006 333 95900;
0168605150999992000031812004+35330+004200FM-12+0461DAAD V0200601N001012200019N0100001N1+01801-00131102061ADDAA199000091GA1001+999999999GF100991001001999999001001MD1810121+9999REMSYN070AAXX  18124 60515 32960 00602 10180 21013 40206 58012 333 0//00 95900;EQDQ01  00002PRCP99
0122605150999992000031815004+35330+004200FM-12+0461DAAD V0200601N003112200019N0100001N1+02051-00381101811ADDGA1001+999999999GF100991001001999999001001MD1710241+9999REMSYN054AAXX  18154 60515 42960 00606 10205 21038 40181 57024;
0196605150999992000031906004+35330+004200FM-12+0461DAAD V0202401N001012200019N0100001N1+99999+99999999999ADDAA199000091GA1021+069009009GF102991999999999999999999IA2240-00209KA1120N+00551REMSYN087AAXX  19064 60515 33960 22402 1007 21011 40189 56001 80002 333 05200 20055 82073 95900;EQDQ01  00002PRCP99
0144605150999992000031909004+35330+004200FM-12+0461DAAD V0203401N002112200019N0100001N1+01351-00111102031ADDGA1031+024009039GF103991031001999999081001MD1310131+9999REMSYN076AAXX  19094 60515 42960 33404 10135 21011 40203 53013 83080 333 83358 95900;
0180605150999992000031912004+35330+004200FM-12+0461DAAD V0200801N003112200019N0100001N1+01801-00301101891ADDAA199000091GA1021+009909089GF103991021021012501081001MD1810111+9999REMSYN082AAXX  19124 60515 32660 30806 10180 21030 40189 58011 82280 333 0//00 82833 95900;EQDQ01  00002PRCP99
0144605150999992000031915004+35330+004200FM-12+0461DAAD V0201001N003110900019N0100001N1+01981-00501101741ADDGA1041+009009089GF105991041021008001001021MD1710151+9999REMSYN076AAXX  19154 60515 42560 51006 10198 21050 40174 57015 84202 333 84830 95900;
0193605150999992000031918004+35330+004200FM-12+0461DAAD V0200801N002110090019N0100001N1+01721-00661101621ADDAA199000091GA1071+009009089GF107991071021008001001021KA1120M+02041MD1610081+9999REMSYN082AAXX  19184 60515 32560 70804 10172 21066 40162 56008 87202 333 10204 87830 95990;EQDQ01  00002PRCP99
0211605150999992000032006004+35330+004200FM-12+0461DAAD V0203401N002110090019N0100001N1+01001+00701101851ADDAA199000091GA1071+009009089GF107991071021008001999999IA2240+00209KA1120N+00901MD1610021+9999REMSYN088AAXX  20064 60515 32560 73404 10100 20070 40185 56002 872// 333 00200 20090 87830 95900;EQDQ01  00002PRCP99
0144605150999992000032009004+35330+004200FM-12+0461DAAD V0203601N003110090019N0100001N1+01361+00501101891ADDGA1051+009009089GF105991051021008001001001MD1310061+9999REMSYN076AAXX  20094 60515 42560 53606 10136 20050 40189 53006 85200 333 85830 95900;
0174605150999992000032012004+35330+004200FM-12+0461DAAD V0200801N003110090019N0100001N1+01861+00261101751ADDAA199000091GA1061+009009089GF106991061021008001001001MD1810181+9999REMSYN076AAXX  20124 60515 32560 60806 10186 20026 40175 58018 86200 333 86830 95900;EQDQ01  00002PRCP99
0144605150999992000032015004+35330+004200FM-12+0461DAAD V0201801N009310090019N0100001N1+01811+00201101651ADDGA1051+009009089GF105991051021008001001001MD1710151+9999REMSYN076AAXX  20154 60515 42560 51818 10181 20020 40165 57015 85200 333 85830 95900;
0193605150999992000032018004+35330+004200FM-12+0461DAAD V0202001N007210090019N0100001N1+01721+00431101531ADDAA199000091GA1071+009009089GF107991071021008001999999KA1120M+01921MD1610091+9999REMSYN082AAXX  20184 60515 32560 72014 10172 20043 40153 56009 872// 333 10192 87830 95990;EQDQ01  00002PRCP99
0211605150999992000032106004+35330+004200FM-12+0461DAAD V0203401N004112200019N0100001N1+00801+00481101931ADDAA199000091GA1031+009909089GF103991031021012501001001IA2240-00109KA1120N+00601MD1110031+9999REMSYN088AAXX  21064 60515 33660 33408 10080 20048 40193 51003 83200 333 05100 20060 83833 95900;EQDQ01  00002PRCP99
0166605150999992000032109004+35330+004200FM-12+0461DAAD V0200201N001010240019N0100001N1+01301+00581102031ADDGA1041+009009089GA2031+024009039GF107991041021008001071001MD1310131+9999REMSYN082AAXX  21094 60515 42560 70202 10130 20058 40203 53013 84270 333 84830 83358 95900;
0202605150999992000032112004+35330+004200FM-12+0461DAAD V0200601N004110240019N0100001N1+01961+00481101851ADDAA199000091GA1021+009009089GA2031+024009039GF105991021021008001071001MD1810131+9999REMSYN088AAXX  21124 60515 32560 50608 10196 20048 40185 58013 82270 333 0//00 82830 83358 95900;EQDQ01  00002PRCP99
0144605150999992000032115004+35330+004200FM-12+0461DAAD V0201801N001010360019N0100001N1+02361-00141101561ADDGA1031+009009089GF105991031021008001071001MD1710241+9999REMSYN076AAXX  21154 60515 42560 51802 10236 21014 40156 57024 83270 333 83830 95900;
0193605150999992000032118004+35330+004200FM-12+0461DAAD V0202001N007212200019N0100001N1+01961-00231101561ADDAA199000091GA1041+009009089GF104991041021008001071001KA1120M+02381MD1610091+9999REMSYN082AAXX  21184 60515 32560 42014 10196 21023 40156 56009 84270 333 10238 84830 95990;EQDQ01  00002PRCP99
0180605150999992000032212004+35330+004200FM-12+0461DAAD V0200601N002110540019N0100001N1+02151+00141101971ADDAA199000091GA1071+054009019GF107991001001999999001061MD1010051+9999REMSYN082AAXX  22124 60515 32960 70604 10215 20014 40197 50005 80006 333 0//00 87168 95900;EQDQ01  00002PRCP99
0144605150999992000032215004+35330+004200FM-12+0461DAAD V0201201N007212200019N0100001N1+02561-00171101661ADDGA1021+009909089GF103991021021012501001021MD1710281+9999REMSYN076AAXX  22154 60515 42660 31214 10256 21017 40166 57028 82202 333 82833 95900;
0193605150999992000032218004+35330+004200FM-12+0461DAAD V0201601N006210090019N0100001N1+02241-00371101691ADDAA199000091GA1051+009009089GF106991051021008001001021KA1120M+02711MD1310061+9999REMSYN082AAXX  22184 60515 32560 61612 10224 21037 40169 53006 85202 333 10271 85830 95900;EQDQ01  00002PRCP99
0211605150999992000032306004+35330+004200FM-12+0461DAAD V0203401N004112200019N0100001N1+01211+00011101741ADDAA199000091GA1031+009009089GF104991031021008001001021IA2240+00409KA1120N+01091MD1610011+9999REMSYN088AAXX  23064 60515 33560 43408 10121 20001 40174 56001 83202 333 00400 20109 83830 95900;EQDQ01  00002PRCP99
0166605150999992000032309004+35330+004200FM-12+0461DAAD V0203201N005110240019N0100001N1+01701-00101101961ADDGA1041+009009089GA2031+024009039GF107991041021008001071001MD1310171+9999REMSYN082AAXX  23094 60515 42560 73210 10170 21010 40196 53017 84270 333 84830 83358 95900;
0202605150999992000032312004+35330+004200FM-12+0461DAAD V0201601N009310600019N0100001N1+02401-00571101701ADDAA199000091GA1031+009909089GA2061+060009009GF108991031021012501001061MD1810171+9999REMSYN088AAXX  23124 60515 32660 81618 10240 21057 40170 58017 83206 333 0//00 83833 86070 95900;EQDQ01  00002PRCP99
0144605150999992000032315004+35330+004200FM-12+0461DAAD V0201601N011310900019N0100001N1+02351-00581101481ADDGA1041+009909089GF105991041021012501001021MD1710251+9999REMSYN076AAXX  23154 60515 42660 51622 10235 21058 40148 57025 84202 333 84833 95900;
0215605150999992000032318004+35330+004200FM-12+0461DAAD V0201601N006210600019N0100001N1+02501-00521101291ADDAA199000091GA1031+009909089GA2061+060009009GF108991041021012501001061KA1120M+02801MD1610161+9999REMSYN088AAXX  23184 60515 32660 81612 10250 21052 40129 56016 84206 333 10280 83833 86070 95900;EQDQ01  00002PRCP99
0211605150999992000032406004+35330+004200FM-12+0461DAAD V0202801N005112200019N0100001N1+01291+00191101541ADDAA199000091GA1021+024009039GF103991021001022501031021IA2240+00409KA1120N+01171MD1610061+9999REMSYN088AAXX  24064 60515 33860 32810 10129 20019 40154 56006 82032 333 00400 20117 82358 95990;EQDQ01  00002PRCP99
0144605150999992000032409004+35330+004200FM-12+0461DAAD V0200601N004110090019N0100001N1+01881+00381101661ADDGA1051+009009089GF105991051021008001001001MD1310151+9999REMSYN076AAXX  24094 60515 42560 50608 10188 20038 40166 53015 85200 333 85830 95900;
0180605150999992000032412004+35330+004200FM-12+0461DAAD V0203601N007210078019N0100001N1+02051+00291101571ADDAA199000091GA1071+007809089GF107991071021008001999999MD1810091+9999REMSYN082AAXX  24124 60515 32560 73614 10205 20029 40157 58009 872// 333 0//00 87826 95900;EQDQ01  00002PRCP99
0144605150999992000032415004+35330+004200FM-12+0461DAAD V0200601N003112200019N0100001N1+02301+00331101381ADDGA1021+009009089GF103991021021008001001021MD1710161+9999REMSYN076AAXX  24154 60515 42560 30606 10230 20033 40138 57016 82202 333 82830 95900;
0193605150999992000032418004+35330+004200FM-12+0461DAAD V0200201N002112200019N0100001N1+02291+00171101381ADDAA199000091GA1031+009909089GF104991031021012501001021KA1120M+02381MD1510001+9999REMSYN082AAXX  24184 60515 32660 40204 10229 20017 40138 55000 83202 333 10238 83833 95900;EQDQ01  00002PRCP99
0211605150999992000032506004+35330+004200FM-12+0461DAAD V0202801N004112200019N0100001N1+01301+00321101721ADDAA199000091GA1021+009009089GF103991021021008001001021IA2240+00309KA1120N+01141MD1110011+9999REMSYN088AAXX  25064 60515 33560 32808 10130 20032 40172 51001 82202 333 00300 20114 82830 95900;EQDQ01  00002PRCP99
0132605150999992000032509004+35330+004200FM-12+0461DAAD V0203101N007212200019N0100001N1+01641+00411101811ADDGA1001+999999999GF100991001001999999001001MD1310061+9999REMSYN064AAXX  25094 60515 42960 03114 10164 20041 40181 53006 333 95900;
0180605150999992000032512004+35330+004200FM-12+0461DAAD V0202901N010312200019N0100001N1+01951+00341101751ADDAA199000091GA1021+009009089GF102991021021008001001001MD1810031+9999REMSYN082AAXX  25124 60515 32560 22920 10195 20034 40175 58003 82200 333 0//00 82830 95900;EQDQ01  00002PRCP99
0144605150999992000032515004+35330+004200FM-12+0461DAAD V0203201N008212200019N0100001N1+02151-00031101551ADDGA1031+007809089GF103991031021008001001001MD1710181+9999REMSYN076AAXX  25154 60515 42560 33216 10215 21003 40155 57018 83200 333 83826 95900;
0193605150999992000032518004+35330+004200FM-12+0461DAAD V0203401N008212200019N0100001N1+01861-00171101591ADDAA199000091GA1021+007809089GF102991021021008001001001KA1120M+02101MD1610091+9999REMSYN082AAXX  25184 60515 32560 23416 10186 21017 40159 56009 82200 333 10210 82826 95990;EQDQ01  00002PRCP99
0211605150999992000032606004+35330+004200FM-12+0461DAAD V0203001N005112200019N0100001N1+01151+00251101891ADDAA199000091GA1021+060009009GF102991001001999999001021IA2240+00509KA1120N+00951MD1610041+9999REMSYN088AAXX  26064 60515 33960 23010 10115 20025 40189 56004 80002 333 00500 20095 82070 95900;EQDQ01  00002PRCP99
0180605150999992000032612004+35330+004200FM-12+0461DAAD V0203201N006212200019N0100001N1+01901-00381101961ADDAA199000091GA1021+009909089GF103991021021012501001021MD1810071+9999REMSYN082AAXX  26124 60515 32660 33212 10190 21038 40196 58007 82202 333 0//00 82833 95900;EQDQ01  00002PRCP99
0144605150999992000032615004+35330+004200FM-12+0461DAAD V0203201N009312200019N0100001N1+02091-00731101741ADDGA1021+009909089GF103991021021012501001021MD1710211+9999REMSYN076AAXX  26154 60515 42660 33218 10209 21073 40174 57021 82202 333 82833 95900;
0199605150999992000032706004+35330+004200FM-12+0461DAAD V0202801N007212200019N0100001N1+01151+00111101921ADDAA199000091GA1001+999999999GF100991001001999999001001IA2240+00009KA1120N+00871MD1810061+9999REMSYN076AAXX  27064 60515 33960 02814 10115 20011 40192 58006 333 00000 20087 95900;EQDQ01  00002PRCP99
0132605150999992000032709004+35330+004200FM-12+0461DAAD V0202601N006212200019N0100001N1+01571+00051102011ADDGA1001+999999999GF100991001001999999001001MD1310081+9999REMSYN064AAXX  27094 60515 42960 02612 10157 20005 40201 53008 333 95900;
0168605150999992000032712004+35330+004200FM-12+0461DAAD V0202001N004112200019N0100001N1+02051-00291101821ADDAA199000091GA1001+999999999GF100991001001999999001001MD1810181+9999REMSYN070AAXX  27124 60515 32960 02008 10205 21029 40182 58018 333 0//00 95900;EQDQ01  00002PRCP99
0144605150999992000032715004+35330+004200FM-12+0461DAAD V0202601N006212200019N0100001N1+02401-00841101391ADDGA1021+009009089GF102991021021008001001021MD1710361+9999REMSYN076AAXX  27154 60515 42560 22612 10240 21084 40139 57036 82202 333 82830 95900;
0193605150999992000032718004+35330+004200FM-12+0461DAAD V0203001N005112200019N0100001N1+02041-00261101521ADDAA199000091GA1021+009009089GF102991021021008001001001KA1120M+02391MD1610091+9999REMSYN082AAXX  27184 60515 32560 23010 10204 21026 40152 56009 82200 333 10239 82830 95900;EQDQ01  00002PRCP99
0211605150999992000032806004+35330+004200FM-12+0461DAAD V0203601N003110090019N0100001N1+01751-00431100891ADDAA199000091GA1071+009009089GF107991071021008001999999IA2240+00409KA1120N+01101MD1610111+9999REMSYN088AAXX  28064 60515 33560 73606 10175 21043 40089 56011 872// 333 00400 20110 87830 95900;EQDQ01  00002PRCP99
0144605150999992000032809004+35330+004200FM-12+0461DAAD V0202201N008212200019N0100001N1+02051-00041100931ADDGA1021+009909089GF103991021021012501001021MD1010021+9999REMSYN076AAXX  28094 60515 42660 32216 10205 21004 40093 50002 82202 333 82833 95900;
0180605150999992000032812004+35330+004200FM-12+0461DAAD V0203001N007212200019N0100001N1+02461-00151100671ADDAA199000091GA1021+009009089GF103991021021008001001021MD1810181+9999REMSYN082AAXX  28124 60515 32560 33014 10246 21015 40067 58018 82202 333 0//00 82830 95900;EQDQ01  00002PRCP99
0144605150999992000032815004+35330+004200FM-12+0461DAAD V0203001N007212200019N0100001N1+02601-00951100431ADDGA1021+009009089GF103991021021008001001021MD1710211+9999REMSYN076AAXX  28154 60515 42560 33014 10260 21095 40043 57021 82202 333 82830 95900;
0211605150999992000032906004+35330+004200FM-12+0461DAAD V0202601N007212200019N0100001N1+01161-00111101381ADDAA199000091GA1031+069009009GF103991001001999999001021IA2240+00409KA1120N+01031MD1210171+9999REMSYN088AAXX  29064 60515 33960 32614 10116 21011 40138 52017 80002 333 00400 20103 83073 95900;EQDQ01  00002PRCP99
0144605150999992000032909004+35330+004200FM-12+0461DAAD V0202601N003112200019N0100001N1+01581+00051101551ADDGA1021+024009039GF102991021001999999031001MD1310161+9999REMSYN076AAXX  29094 60515 42960 22606 10158 20005 40155 53016 82030 333 82358 95900;
0202605150999992000032912004+35330+004200FM-12+0461DAAD V0202201N008210600019N0100001N1+02001-00191101501ADDAA199000091GA1011+009009089GA2051+060009009GF106991011021008001001021MD1810031+9999REMSYN088AAXX  29124 60515 32560 62216 10200 21019 40150 58003 81202 333 0//00 81830 85070 95900;EQDQ01  00002PRCP99
0166605150999992000032915004+35330+004200FM-12+0461DAAD V0200601N002110600019N0100001N1+02351-00191101301ADDGA1011+009909089GA2051+060009009GF106991011021012501001021MD1710191+9999REMSYN082AAXX  29154 60515 42660 60604 10235 21019 40130 57019 81202 333 81833 85070 95900;
0211605150999992000033006004+35330+004200FM-12+0461DAAD V0203401N002110240019N0100001N1+01361+00321101491ADDAA199000091GA1071+024009039GF107991071001999999071999IA2240+00409KA1120N+01161MD1610011+9999REMSYN088AAXX  30064 60515 33960 73404 10136 20032 40149 56001 8707/ 333 00400 20116 87358 95900;EQDQ01  00002PRCP99
0144605150999992000033009004+35330+004200FM-12+0461DAAD V0200401N002110240019N0080001N1+01651+00761101581ADDGA1081+024009049GF108991081001022501071999MD1310071+9999REMSYN076AAXX  30094 60515 42858 80404 10165 20076 40158 53007 8807/ 333 88458 95900;
0202605150999992000033012004+35330+004200FM-12+0461DAAD V0201201N002110240019N0080001N1+01911+00741101541ADDAA199000091GA1031+006009079GA2061+024009049GF108991031071008001021999MD1810041+9999REMSYN088AAXX  30124 60515 32558 81204 10191 20074 40154 58004 8372/ 333 0//00 83720 86458 95900;EQDQ01  00002PRCP99
0166605150999992000033015004+35330+004200FM-12+0461DAAD V0202601N012310240019N0070001N1+02501+00061101301ADDGA1031+006009079GA2061+024009049GF108991031071008001021999MD1710171+9999REMSYN082AAXX  30154 60515 42557 82624 10250 20006 40130 57017 8372/ 333 83720 86458 95900;
0215605150999992000033018004+35330+004200FM-12+0461DAAD V0202601N008210240019N0060001N1+02221-00111101281ADDAA199000091GA1041+007809089GA2041+024009049GF108991041071008001071999KA1120M+02571MD1510071+9999REMSYN088AAXX  30184 60515 32556 82616 10222 21011 40128 55007 8477/ 333 10257 84826 84458 95990;EQDQ01  00002PRCP99
0233605150999992000033106004+35330+004200FM-12+0461DAAD V0201201N002110240019N0070001N1+01261+00651101301ADDAA199000091GA1041+006009079GA2041+024009049GF108991041061008001021999IA2240+00209KA1120N+01031MD1610051+9999REMSYN094AAXX  31064 60515 33557 81204 10126 20065 40130 56005 8462/ 333 00200 20103 84720 84458 95900;EQDQ01  00002PRCP99
0166605150999992000033109004+35330+004200FM-12+0461DAAD V0203601N002110078019N0070001N1+01611+00741101501ADDGA1041+006009079GA2051+007809089GF108991081071008001999999MD1310191+9999REMSYN082AAXX  31094 60515 42557 83604 10161 20074 40150 53019 887// 333 84720 85826 95900;
0180605150999992000033112004+35330+004200FM-12+0461DAAD V0203401N003110078019N0070001N1+01961+00821101441ADDAA199000091GA1081+007809089GF108991081071008001999999MD1810061+9999REMSYN082AAXX  31124 60515 32557 83406 10196 20082 40144 58006 887// 333 0//00 88826 95900;EQDQ01  00002PRCP99
0144605150999992000033115004+35330+004200FM-12+0461DAAD V0202801N007212200019N0100001N1+02501+00151101081ADDGA1021+009009089GF103991021021008001001021MD1710291+9999REMSYN076AAXX  31154 60515 42560 32814 10250 20015 40108 57029 82202 333 82830 95900;
0193605150999992000033118004+35330+004200FM-12+0461DAAD V0202401N005112200019N0100001N1+01981+00221100991ADDAA199000091GA1031+009009089GF104991031021008001001021KA1120M+02601MD1610071+9999REMSYN082AAXX  31184 60515 32560 42410 10198 20022 40099 56007 83202 333 10260 83830 95900;EQDQ01  00002PRCP99
0211605150999992000040106004+35330+004200FM-12+0461DAAD V0202401N006212200019N0100001N1+01111+00381101441ADDAA199000091GA1021+060009009GF102991001001999999001021IA2240+00109KA1120N+00961MD1610051+9999REMSYN088AAXX  01064 60515 33960 22412 10111 20038 40144 56005 80002 333 00100 20096 82070 95900;EQDQ01  00002PRCP99
0168605150999992000040112004+35330+004200FM-12+0461DAAD V0201201N003112200019N0100001N1+02051+00111101291ADDAA199000091GA1001+999999999GF100991001001999999001001MD1810161+9999REMSYN070AAXX  01124 60515 32960 01206 10205 20011 40129 58016 333 0//00 95900;EQDQ01  00002PRCP99
0144605150999992000040115004+35330+004200FM-12+0461DAAD V0200801N005112200019N0100001N1+02301+00261100951ADDGA1021+009909089GF102991021021012501001001MD1710301+9999REMSYN076AAXX  01154 60515 42660 20810 10230 20026 40095 57030 82200 333 82833 95900;
0193605150999992000040118004+35330+004200FM-12+0461DAAD V0201601N008212200019N0100001N1+02341+00231100741ADDAA199000091GA1021+009909089GF102991021021012501001001KA1120M+02441MD1710221+9999REMSYN082AAXX  01184 60515 32660 21616 10234 20023 40074 57022 82200 333 10244 82833 95900;EQDQ01  00002PRCP99
0233605150999992000040206004+35330+004200FM-12+0461DAAD V0201001N007210600019N0080001N1+01561+00621100291ADDAA199000091GA1031+024009039GA2031+060009009GF106991031001999999071021IA2240+00509KA1120N+01191MD1710181+9999REMSYN094AAXX  02064 60515 33958 61014 10156 20062 40029 57018 83072 333 00500 20119 83358 83070 95900;EQDQ01  00002PRCP99
0166605150999992000040209004+35330+004200FM-12+0461DAAD V0201401N007210600019N0080001N1+02091+00321100191ADDGA1021+024009039GA2031+060009009GF105991021001022501071021MD1610121+9999REMSYN082AAXX  02094 60515 42858 51414 10209 20032 40019 56012 82072 333 82358 83070 95900;
0202605150999992000040212004+35330+004200FM-12+0461DAAD V0202101N012310600019N0070001N1+02801-00371099881ADDAA199000091GA1031+024009039GA2031+060009009GF106991031001022501071021MD1810221+9999REMSYN088AAXX  02124 60515 32857 62124 10280 21037 49988 58022 83072 333 0//00 83358 83070 95900;EQDQ01  00002PRCP99
0144605150999992000040215004+35330+004200FM-12+0461DAAD V0202801N009310003019N0002001N1+03001-00381099451ADDGA1091+999999999GF109991091999999999999999MD1710331+9999REMSYN076AAXX  02154 60515 42202 92818 10300 21038 49945 57033 89/// 333 89/// 95990;
0221605150999992000040218004+35330+004200FM-12+0461DAAD V0202801N005110003019N0003001N1+02801-00431099491ADDAA199000091AY121061AY221061GA1091+999999999GF109991091999999999999999KA1120M+03091MD1510001+9999MW1071REMSYN088AAXX  02184 60515 31/03 92810 10280 21043 49949 55000 70722 89/// 333 10309 89/// 95990;EQDQ01  00002PRCP99
0210605150999992000040306004+35330+004200FM-12+0461DAAD V0202801N008219999999N0080001N1+01691+00521100121ADDAA199000091GA1041+024009049GF106991999999022501999999IA2240+00809KA1120N+01641MD1310291+9999REMSYN087AAXX  03064 60515 33858 62816 10169 20052 40012 53029 4026 333 00800 20164 84458 95900;EQDQ01  00002PRCP99
0266605150999992000040312004+35330+004200SY-MT+0461DAAD V0203201N003112200019N0100001N1+02101+00421100271ADDAA199000091GA1021+009009999GF104991041021008001001001MA1100201999999MD1810081+9999MW1001REMSYN082AAXX  03124 60515 32560 43206 10210 20042 40027 58008 84200 333 0//00 84830 95900;MET043DAAD 1200Z 32006KT 9999 SCT030 21/04 Q1002;EQDQ01+000000PRSWM2Q02  00002PRCP99
0137605150999992000040314004+35330+004200FM-15+0461DAAD V0200801N003112200019N0112651N1+02201+00401999999ADDGA1021+009009999GF104991999999999999999999MA1100101999999MW1001REMMET043DAAD 1400Z 08006KT 9999 SCT030 22/04 Q1001;EQDQ01+000000PRSWM2
0233605150999992000040315004+35330+004200SY-MT+0461DAAD V0202201N003112200019N0100001N1+02451+00301100011ADDGA1021+009009999GF103991031021008001001001MA1100001999999MD1710231+9999MW1001REMSYN076AAXX  03154 60515 42560 32206 10245 20030 40001 57023 83200 333 83830 95900;MET043DAAD 1500Z 22006KT 9999 SCT030 25/03 Q1000;EQDQ01+000000PRSWM2
0138605150999992000040316004+35330+004200FM-15+0461DAAD V0201001N006210090019N0112651N1+02401+00501999999ADDGA1071+009009999GF107991999999999999999999MW1001REMMET043DAAD 1600Z 10012KT 9999 BKN030 24/05 Q0995;EQDQ01+099493APOA  Q02+000000PRSWM2
0137605150999992000040317004+35330+004200FM-15+0461DAAD V0200801N003110090019N0112651N1+02301+00501999999ADDGA1071+009009999GF107991999999999999999999MA1099901999999MW1001REMMET043DAAD 1700Z 08006KT 9999 BKN030 23/05 Q0999;EQDQ01+000000PRSWM2
0295605150999992000040318004+35330+004200SY-MT+0461DAAD V0203601N005110090019N0100001N1+02031+00601099941ADDAA199000091GA1071+009009999GF199999061021008001001001KA1120M+02501MA1099901999999MD1710151+9999MW1001REMSYN082AAXX  03184 60515 32560 63610 10203 20060 49994 57015 86200 333 10250 86830 95900;MET043DAAD 1800Z 36010KT 9999 BKN030 20/06 Q0999;EQDQ01+000062SCOTCVQ02+000000PRSWM2Q03  00002PRCP99
0233605150999992000040406004+35330+004200FM-12+0461DAAD V0202601N006210090019N0100001N1+01301+00461100211ADDAA199000091GA1011+004809079GA2071+009009089GF107991071071004501999999IA2240+00509KA1120N+01031MD1010031+9999REMSYN094AAXX  04064 60515 33460 72612 10130 20046 40021 50003 877// 333 00500 20103 81716 87830 95900;EQDQ01  00002PRCP99
0144605150999992000040409004+35330+004200FM-12+0461DAAD V0202601N006210078019N0100001N1+01361+00561100431ADDGA1061+007809089GF108991061021008001071999MD1310171+9999REMSYN076AAXX  04094 60515 42560 82612 10136 20056 40043 53017 8627/ 333 86826 95900;
0180605150999992000040412004+35330+004200FM-12+0461DAAD V0203301N014410078019N0100001N1+01701+00371100581ADDAA199000091GA1061+007809089GF106991061021008001001001MD1210161+9999REMSYN082AAXX  04124 60515 32560 63328 10170 20037 40058 52016 86200 333 0//00 86826 95900;EQDQ01  00002PRCP99
0137605150999992000040413004+35330+004200FM-15+0461DAAD V0202801N016510078019N0112651N1+01801+00101999999ADDGA1071+007809999GF107991999999999999999999MA1100511999999MW1001REMMET043DAAD 1300Z 28032KT 9999 BKN026 18/01 Q1005;EQDQ01+000000PRSWM2
0137605150999992000040414004+35330+004200FM-15+0461DAAD V0203201N013410078019N0080001N1+01801+00101999999ADDGA1071+007809999GF107991999999999999999999MA1100511999999MW1001REMMET043DAAD 1400Z 32026KT 8000 BKN026 18/01 Q1005;EQDQ01+000000PRSWM2
0250605150999992000040415004+35330+004200SY-MT+0461DAAD V0203201N013410078019N0080001N1+01901-00111100591ADDGA1071+007809999GF199999051021008001001001MA1100511999999MD1810011+9999MW1001REMSYN076AAXX  04154 60515 42558 53226 10190 21011 40059 58001 85200 333 85826 95900;MET044DAAD 1500Z 32026KT 8000 BKN026 19/M01 Q1005;EQDQ01+000052SCOTCVQ02+000000PRSWM2
0138605150999992000040417004+35330+004200FM-15+0461DAAD V0202801N014412200019N0070001N1+01701-00101999999ADDGA1021+007809999GF104991999999999999999999MA1100711999999MW1001REMMET044DAAD 1700Z 28028KT 7000 SCT026 17/M01 Q1007;EQDQ01+000000PRSWM2
0309605150999992000040418004+35330+004200SY-MT+0461DAAD V0202801N010312200019N0070001N1+01601-00091100871ADDAA199000091GA1021+007809999GA2021+024009999GF103991011021008001071001KA1120M+01901MA1100811999999MD1310271+9999MW1001REMSYN088AAXX  04184 60515 32557 32820 10160 21009 40087 53027 81270 333 10190 81826 83358 95900;MET051DAAD 1800Z 28020KT 7000 FEW026 SCT080 16/M01 Q1008;EQDQ01+000000PRSWM2Q02  00002PRCP99
0297605150999992000040506004+35330+004200SY-MT+0461DAAD V0202601N010312200019N0100001N1+01051+00131101701ADDAA199000091GA1021+009909999GF102991021021012501001001IA2240+00209KA1120N+00971MA1101691999999MD1310091+9999MW1001REMSYN088AAXX  05064 60515 33660 22620 10105 20013 40170 53009 82200 333 00200 20097 82833 95900;MET043DAAD 0600Z 26020KT 9999 FEW033 11/01 Q1017;EQDQ01+000000PRSWM2Q02  00002PRCP99
0137605150999992000040507004+35330+004200FM-15+0461DAAD V0202801N008212200019N0112651N1+01101+00201999999ADDGA1021+009909999GF102991999999999999999999MA1101691999999MW1001REMMET043DAAD 0700Z 28016KT 9999 FEW033 11/02 Q1017;EQDQ01+000000PRSWM2
0137605150999992000040508004+35330+004200FM-15+0461DAAD V0202601N008212200019N0112651N1+01201+00301999999ADDGA1021+009909999GF102991999999999999999999MA1101801999999MW1001REMMET043DAAD 0800Z 26016KT 9999 FEW033 12/03 Q1018;EQDQ01+000000PRSWM2
0233605150999992000040509004+35330+004200SY-MT+0461DAAD V0202801N008212200019N0100001N1+01401+00201101851ADDGA1021+009009999GF103991031021008001001001MA1101801999999MD1210161+9999MW1001REMSYN076AAXX  05094 60515 42560 32816 10140 20020 40185 52016 83200 333 83830 95900;MET043DAAD 0900Z 28016KT 9999 SCT030 14/02 Q1018;EQDQ01+000000PRSWM2
0137605150999992000040510004+35330+004200FM-15+0461DAAD V0202801N012310090019N0112651N1+01601+00101999999ADDGA1071+009009999GF107991999999999999999999MA1101801999999MW1001REMMET043DAAD 1000Z 28024KT 9999 BKN030 16/01 Q1018;EQDQ01+000000PRSWM2
0137605150999992000040511004+35330+004200FM-15+0461DAAD V0202801N011310090019N0112651N1+01601+00101999999ADDGA1071+009009999GF107991999999999999999999MA1101801999999MW1001REMMET043DAAD 1100Z 28022KT 9999 BKN030 16/01 Q1018;EQDQ01+000000PRSWM2
0266605150999992000040512004+35330+004200SY-MT+0461DAAD V0202801N011310090019N0100001N1+01711+00191101891ADDAA199000091GA1071+009009999GF106991061021008001001001MA1101801999999MD1310041+9999MW1001REMSYN082AAXX  05124 60515 32560 62822 10171 20019 40189 53004 86200 333 0//00 86830 95900;MET043DAAD 1200Z 28022KT 9999 BKN030 17/02 Q1018;EQDQ01+000000PRSWM2Q02  00002PRCP99
0137605150999992000040513004+35330+004200FM-15+0461DAAD V0202801N011310090019N0112651N1+01701+00101999999ADDGA1071+009009999GF107991999999999999999999MA1101801999999MW1001REMMET043DAAD 1300Z 28022KT 9999 BKN030 17/01 Q1018;EQDQ01+000000PRSWM2
0137605150999992000040514004+35330+004200FM-15+0461DAAD V0203001N012310090019N0112651N1+01801+00201999999ADDGA1071+009009999GF107991999999999999999999MA1101801999999MW1001REMMET043DAAD 1400Z 30024KT 9999 BKN030 18/02 Q1018;EQDQ01+000000PRSWM2
0233605150999992000040515004+35330+004200SY-MT+0461DAAD V0203001N012310090019N0100001N1+01801+00121101831ADDGA1071+009009999GF105991051021008001001001MA1101801999999MD1810041+9999MW1001REMSYN076AAXX  05154 60515 42560 53024 10180 20012 40183 58004 85200 333 85830 95900;MET043DAAD 1500Z 30024KT 9999 BKN030 18/01 Q1018;EQDQ01+000000PRSWM2
0137605150999992000040516004+35330+004200FM-15+0461DAAD V0203001N011310090019N0112651N1+01801+00001999999ADDGA1071+009009999GF107991999999999999999999MA1101801999999MW1001REMMET043DAAD 1600Z 30022KT 9999 BKN030 18/00 Q1018;EQDQ01+000000PRSWM2
0138605150999992000040517004+35330+004200FM-15+0461DAAD V0203001N007210090019N0112651N1+01801-00201999999ADDGA1071+009009999GF107991999999999999999999MA1101801999999MW1001REMMET044DAAD 1700Z 30014KT 9999 BKN030 18/M02 Q1018;EQDQ01+000000PRSWM2
0138605150999992000040518004+35330+004200FM-15+0461DAAD V0203001N006210090019N0112651N1+01601-00101999999ADDGA1071+009009999GF107991999999999999999999MA1101901999999MW1001REMMET044DAAD 1800Z 30012KT 9999 BKN030 16/M01 Q1019;EQDQ01+000000PRSWM2
0309605150999992000040606004+35330+004200SY-MT+0461DAAD V0200601N002112200019N0100001N1+00601+00111102281ADDAA199000091GA1041+060009009GF104991001001999999001021IA2240-00109KA1120N+00161MA1102201999999MW1001REMSYN088AAXX  06064 60515 33960 40604 10060 20011 40228 53000 80002 333 05100 20016 84070 95900;MET037DAAD 0600Z 06004KT CAVOK 06/01 Q1022;EQDQ01+000032APCTENQ02+000002APC3  Q03+000000PRSWM2Q04  00002PRCP99
0089605150999992000040607004+35330+004200FM-15+0461DAAD V0201001N00211220001CN0099001N1+00801+00201999999ADDMA1102301999999MW1001REMMET037DAAD 0700Z 10004KT CAVOK 08/02 Q1023;EQDQ01+000000PRSWM2
0089605150999992000040608004+35330+004200FM-15+0461DAAD V0200601N00211220001CN0099001N1+01101+00201999999ADDMA1102301999999MW1001REMMET037DAAD 0800Z 06004KT CAVOK 11/02 Q1023;EQDQ01+000000PRSWM2
0196605150999992000040609004+35330+004200SY-MT+0461DAAD V0200801N002112200019N0100001N1+01201+00201999999ADDGF103991999999999999999999MA1102301999999MW1001REMSYN075AAXX  06094 60515 42960 30804 1013 20018 40238 51013 80002 333 83070 95900;MET037DAAD 0900Z 08004KT CAVOK 12/02 Q1023;EQDQ01+000000PRSWM2
0089605150999992000040610004+35330+004200FM-15+0461DAAD V0201401N00211220001CN0099001N1+01401+00501999999ADDMA1102301999999MW1001REMMET037DAAD 1000Z 14004KT CAVOK 14/05 Q1023;EQDQ01+000000PRSWM2
0232605150999992000040612004+35330+004200SY-MT+0461DAAD V0200801N003112200019N0100001N1+01771+00051102211ADDAA199000091GF100991001001999999001001MA1102201999999MD1810161+9999MW1001REMSYN070AAXX  06124 60515 32960 00806 10177 20005 40221 58016 333 0//00 95900;MET037DAAD 1200Z 08006KT CAVOK 18/01 Q1022;EQDQ01+000000PRSWM2Q02  00002PRCP99
0089605150999992000040613004+35330+004200FM-15+0461DAAD V0201001N00311220001CN0099001N1+01901+00201999999ADDMA1102101999999MW1001REMMET037DAAD 1300Z 10006KT CAVOK 19/02 Q1021;EQDQ01+000000PRSWM2
0089605150999992000040614004+35330+004200FM-15+0461DAAD V0201001N00211220001CN0099001N1+02001+00201999999ADDMA1102101999999MW1001REMMET037DAAD 1400Z 10004KT CAVOK 20/02 Q1021;EQDQ01+000000PRSWM2
0199605150999992000040615004+35330+004200SY-MT+0461DAAD V0201001N003112200019N0100001N1+02131+00171101901ADDGF100991001001999999001001MA1101901999999MD1710251+9999MW1001REMSYN064AAXX  06154 60515 42960 01006 10213 20017 40190 57025 333 95900;MET037DAAD 1500Z 10006KT CAVOK 21/02 Q1019;EQDQ01+000000PRSWM2
0090605150999992000040616004+35330+004200FM-15+0461DAAD V0200801N00311220001CN0099001N1+02201-00101999999ADDMA1101801999999MW1001REMMET038DAAD 1600Z 08006KT CAVOK 22/M01 Q1018;EQDQ01+000000PRSWM2
0090605150999992000040617004+35330+004200FM-15+0461DAAD V0200601N00311220001CN0099001N1+02101-00101999999ADDMA1101801999999MW1001REMMET038DAAD 1700Z 06006KT CAVOK 21/M01 Q1018;EQDQ01+000000PRSWM2
0245605150999992000040618004+35330+004200SY-MT+0461DAAD V0200801N002112200019N0100001N1+02021+00141101891ADDAA199000091GF100991001001999999001001KA1120M+02151MA1101801999999MD1610051+9999MW1001REMSYN070AAXX  06184 60515 32960 00804 10202 20014 40189 56005 333 10215 95900;MET037DAAD 1800Z 08004KT CAVOK 20/01 Q1018;EQDQ01+000000PRSWM2Q02  00002PRCP99
0297605150999992000040706004+35330+004200SY-MT+0461DAAD V0201601N001012200019N0080001N1+00971+00241101991ADDAA199000091GA1021+060009999GF102991001001999999001021IA2240+00209KA1120N+00871MA1101901999999MD1110051+9999MW1001REMSYN088AAXX  07064 60515 33958 21602 10097 20024 40199 51005 80002 333 00200 20087 82070 95900;MET043DAAD 0600Z 16002KT 8000 FEW200 10/02 Q1019;EQDQ01+000000PRSWM2Q02  00002PRCP99
0137605150999992000040708004+35330+004200FM-15+0461DAAD V0200201N002112200019N0080001N1+01501+00201999999ADDGA1021+060009999GF104991999999999999999999MA1102001999999MW1001REMMET043DAAD 0800Z 02004KT 8000 SCT200 15/02 Q1020;EQDQ01+000000PRSWM2
0202605150999992000040709004+35330+004200SY-MT+0461DAAD V0200601N002112200019N0080001N1+01791+00041102051ADDGF100991001001999999001001MA1102001999999MD1210111+9999MW1001REMSYN064AAXX  07094 60515 42958 00604 10179 20004 40205 52011 333 95900;MET040DAAD 0900Z 06004KT 8000 SKC 18/00 Q1020;EQDQ01+000000PRSWM2
0137605150999992000040710004+35330+004200FM-15+0461DAAD V0200401N001012200019N0080001N1+02101+00101999999ADDGA1021+060009999GF102991999999999999999999MA1102001999999MW1001REMMET043DAAD 1000Z 04002KT 8000 FEW200 21/01 Q1020;EQDQ01+000000PRSWM2
0137605150999992000040711004+35330+004200FM-15+0461DAAD V0200801N003112200019N0080001N1+02101+00101999999ADDGA1021+060009999GF102991999999999999999999MA1102001999999MW1001REMMET043DAAD 1100Z 08006KT 8000 FEW200 21/01 Q1020;EQDQ01+000000PRSWM2
0212605150999992000040712004+35330+004200FM-12+0461DAAD V0203001N999992200019N0080001N1+02501-00551101931ADDAA199000091GA1021+060009009GF102991001001999999001021MD1810081+9999REMSYN082AAXX  07124 60515 32558 28006 10250 21055 40193 58008 80002 333 0//00 82070 95900;EQDQ01+005453WOSPD Q02+008002SCOLCBQ03  00002PRCP99
0080605150999992000040713004+35330+004200FM-15+0461DAAD V0201001N003112200019N0080001N1+99999+99999999999ADDMW1001REMMET043DAAD 1300Z 10006KT 8000 EW200 27/M06 Q1018;EQDQ01+000000PRSWM2
0138605150999992000040714004+35330+004200FM-15+0461DAAD V0201001N003112200019N0080001N1+02801-00401999999ADDGA1021+060009999GF104991999999999999999999MA1101691999999MW1001REMMET044DAAD 1400Z 10006KT 8000 SCT200 28/M04 Q1017;EQDQ01+000000PRSWM2
0234605150999992000040715004+35330+004200SY-MT+0461DAAD V0201401N004112200019N0080001N1+02841-00751101631ADDGA1021+060009999GF103991001001999999001021MA1101591999999MD1710281+9999MW1001REMSYN076AAXX  07154 60515 42958 31408 10284 21075 40163 57028 80002 333 83070 95900;MET044DAAD 1500Z 14008KT 8000 SCT200 28/M07 Q1016;EQDQ01+000000PRSWM2
0280605150999992000040718004+35330+004200SY-MT+0461DAAD V0201201N004112200019N0080001N1+02601-00251101621ADDAA199000091GA1021+060009999GF103991001001999999001021KA1120M+02891MA1101591999999MD1610051+9999MW1001REMSYN082AAXX  07184 60515 32958 31208 10260 21025 40162 56005 80002 333 10289 83070 95900;MET044DAAD 1800Z 12008KT 8000 SCT200 26/M03 Q1016;EQDQ01+000000PRSWM2Q02  00002PRCP99
0327605150999992000040806004+35330+004200SY-MT+0461DAAD V0203001N003110240019N0080001N1+01591-00111101701ADDAA199000091GA1071+024009999GA2021+060009999GF108991051001999999081021IA2240+00609KA1120N+00721MA1101691999999MD1410001+9999MW1001REMSYN094AAXX  08064 60515 33958 83006 10159 21011 40170 54000 85082 333 00600 20072 85358 83070 95900;MET051DAAD 0600Z 30006KT 8000 BKN080 SCT200 16/M01 Q1017;EQDQ01+000000PRSWM2Q02  00002PRCP99
0161605150999992000040808004+35330+004200FM-15+0461DAAD V0203201N005112200019N0080001N1+01801-00301999999ADDGA1021+012009999GA2021+024009999GF104991999999999999999999MA1101801999999MW1001REMMET051DAAD 0800Z 32010KT 8000 FEW040 SCT080 18/M03 Q1018;EQDQ01+000000PRSWM2
0278605150999992000040809004+35330+004200SY-MT+0461DAAD V0202201N00311036001CN9999999N1+01921+00021102051ADDGA1021+012009999GA2021+024009999GF108991041081012501071071MA1102001999999MD1310311+9999MW1001REMSYN082AAXX  08094 60515 42657 82206 10192 20002 40205 53031 84877 333 84840 83358 95900;MET050DAAD 0900Z 22006KT 7000 SCT040 SCT080 19/00 Q1020;EQDQ01+070002VODIS Q02+000000PRSWM2
0160605150999992000040810004+35330+004200FM-15+0461DAAD V0201401N003112200019N0080001N1+02201+00501999999ADDGA1021+012009999GA2021+024009999GF104991999999999999999999MA1101691999999MW1001REMMET050DAAD 1000Z 14006KT 8000 SCT040 SCT080 22/05 Q1017;EQDQ01+000000PRSWM2
0296605150999992000040812004+35330+004200SY-MT+0461DAAD V0200801N006210480019N0080001N1+02441-00131101631ADDAA199000091GA1021+012009999GA2071+048009999GF108991021021012501001071MA1101591999999MD1810381+9999MW1001REMSYN088AAXX  08124 60515 32658 80812 10244 21013 40163 58038 82207 333 0//00 82840 85266 95900;MET051DAAD 1200Z 08012KT 8000 FEW040 BKN166 24/M01 Q1016;EQDQ01+000000PRSWM2Q02  00002PRCP99
0263605150999992000040815004+35330+004200SY-MT+0461DAAD V0202201N00411220001CN0070001N1+02511-00351101431ADDGA1071+012009999GA2021+024009999GF108991051021012501071999MA1101391999999MD1510191+9999MW1001REMSYN082AAXX  08154 60515 42657 82208 10251 21035 40143 55019 8527/ 333 85840 83358 95900;MET051DAAD 1500Z 22008KT 7000 BKN040 SCT080 25/M04 Q1014;EQDQ01+000000PRSWM2
0138605150999992000040816004+35330+004200FM-15+0461DAAD V0201801N004110120019N0080001N1+02401-00301999999ADDGA1071+012009999GF107991999999999999999999MA1101391999999MW1001REMMET044DAAD 1600Z 18008KT 8000 BKN040 24/M03 Q1014;EQDQ01+000000PRSWM2
0137605150999992000040817004+35330+004200FM-15+0461DAAD V0201201N007210120019N0080001N1+02301+00501999999ADDGA1071+012009999GF107991999999999999999999MA1101291999999MW1001REMMET043DAAD 1700Z 12014KT 8000 BKN040 23/05 Q1013;EQDQ01+000000PRSWM2
0279605150999992000040818004+35330+004200SY-MT+0461DAAD V0201401N007210120019N0080001N1+02191+00591101461ADDAA199000091GA1071+012009999GF107991061021012501071999KA1120M+02651MA1101391999999MD1310011+9999MW1001REMSYN082AAXX  08184 60515 32658 71414 10219 20059 40146 53001 8627/ 333 10265 86840 95900;MET043DAAD 1800Z 14014KT 8000 BKN040 22/06 Q1014;EQDQ01+000000PRSWM2Q02  00002PRCP99
0287605150999992000040906004+35330+004200SY-MT+0461DAAD V0203201N006210360019N0100001N1+01551+00991100971ADDAA124987092GA1021+007809999GF105991031021008001021001IA2240+01209KA1120N+01461MA1100911999999MD1310091+9999MW1001REMSYN094AAXX  09064 60515 13560 53212 10155 20099 40097 53009 69874 83220 333 012// 20146 83826 95900;MET043DAAD 0600Z 32012KT 9999 SCT026 16/10 Q1009;EQDQ01+000000PRSWM2
0137605150999992000040907004+35330+004200FM-15+0461DAAD V0202601N003110078019N0080001N1+01701+01101999999ADDGA1071+007809999GF107991999999999999999999MA1101021999999MW1001REMMET043DAAD 0700Z 26006KT 8000 BKN026 17/11 Q1010;EQDQ01+000000PRSWM2
0137605150999992000040908004+35330+004200FM-15+0461DAAD V0200601N002110078019N0080001N1+01701+01201999999ADDGA1071+007809999GF107991999999999999999999MA1101021999999MW1001REMMET043DAAD 0800Z 06004KT 8000 BKN026 17/12 Q1010;EQDQ01+000000PRSWM2
0249605150999992000040909004+35330+004200SY-MT+0461DAAD V0200801N002110090019N0080001N1+01961+01151100981ADDGA1071+009009999GF199999051081008001001001MA1100911999999MD1010021+9999MW1001REMSYN076AAXX  09094 60515 42558 50804 10196 20115 40098 50002 85800 333 85830 95900;MET043DAAD 0900Z 08004KT 8000 BKN030 20/12 Q1009;EQDQ01+000052SCOTCVQ02+000000PRSWM2
0137605150999992000040910004+35330+004200FM-15+0461DAAD V0201001N003112200019N0080001N1+02101+00901999999ADDGA1021+009909999GF102991999999999999999999MA1100911999999MW1001REMMET043DAAD 1000Z 10006KT 8000 FEW033 21/09 Q1009;EQDQ01+000000PRSWM2
0137605150999992000040911004+35330+004200FM-15+0461DAAD V0203401N004112200019N0080001N1+02201+00701999999ADDGA1021+024009999GF102991999999999999999999MA1100811999999MW1001REMMET043DAAD 1100Z 34008KT 8000 FEW080 22/07 Q1008;EQDQ01+000000PRSWM2
0295605150999992000040912004+35330+004200SY-MT+0461DAAD V0203601N002112200019N0080001N1+02361+00531100651ADDAA199000091GA1021+012009999GA2021+060009999GF103991011081012501001021MA1100611999999MD1810281+9999MW1001REMSYN088AAXX  09124 60515 32658 33604 10236 20053 40065 58028 81802 333 0//00 81840 83070 95900;MET050DAAD 1200Z 36004KT 8000 FEW040 SCT200 24/05 Q1006;EQDQ01+000000PRSWM2Q02  00002PRCP99
0160605150999992000040913004+35330+004200FM-15+0461DAAD V0202601N003112200019N0080001N1+02401+00601999999ADDGA1021+012009999GA2021+024009999GF104991999999999999999999MA1100511999999MW1001REMMET050DAAD 1300Z 26006KT 8000 FEW040 SCT080 24/06 Q1005;EQDQ01+000000PRSWM2
0160605150999992000040914004+35330+004200FM-15+0461DAAD V0203001N002112200019N0080001N1+02501+00701999999ADDGA1021+009909999GA2021+060009999GF104991999999999999999999MA1100511999999MW1001REMMET050DAAD 1400Z 30004KT 8000 FEW033 SCT200 25/07 Q1005;EQDQ01+000000PRSWM2
0233605150999992000040915004+35330+004200SY-MT+0461DAAD V0203001N006212200019N0080001N1+02551+00621100461ADDGA1021+009909999GF104991031021012501001021MA1100411999999MD1710191+9999MW1001REMSYN076AAXX  09154 60515 42658 43012 10255 20062 40046 57019 83202 333 83833 95900;MET043DAAD 1500Z 30012KT 8000 SCT033 26/06 Q1004;EQDQ01+000000PRSWM2
0137605150999992000040916004+35330+004200FM-15+0461DAAD V0203201N007212200019N0080001N1+02601+00601999999ADDGA1021+009909999GF104991999999999999999999MA1100411999999MW1001REMMET043DAAD 1600Z 32014KT 8000 SCT033 26/06 Q1004;EQDQ01+000000PRSWM2
0137605150999992000040917004+35330+004200FM-15+0461DAAD V0203001N009312200019N0080001N1+02501+00101999999ADDGA1021+009909999GF104991999999999999999999MA1100411999999MW1001REMMET043DAAD 1700Z 30018KT 8000 SCT033 25/01 Q1004;EQDQ01+000000PRSWM2
0279605150999992000040918004+35330+004200SY-MT+0461DAAD V0203201N007212200019N0080001N1+02261+00661100591ADDAA199000091GA1021+009909999GF102991021021012501001011KA1120M+02561MA1100511999999MD1310081+9999MW1001REMSYN082AAXX  09184 60515 32658 23214 10226 20066 40059 53008 82201 333 10256 82833 95900;MET043DAAD 1800Z 32014KT 8000 FEW033 23/07 Q1005;EQDQ01+000000PRSWM2Q02  00002PRCP99
0297605150999992000041006004+35330+004200SY-MT+0461DAAD V0202201N002112200019N0100001N1+01461+00641100851ADDAA199000091GA1021+009909999GF104991031021008001071001IA2240+00809KA1120N+01131MA1100811999999MD1710021+9999MW1001REMSYN088AAXX  10064 60515 33560 42204 10146 20064 40085 57002 83270 333 00800 20113 83833 95900;MET043DAAD 0600Z 22004KT 9999 SCT033 15/06 Q1008;EQDQ01+000000PRSWM2Q02  00002PRCP99
0137605150999992000041007004+35330+004200FM-15+0461DAAD V0202801N005112200019N0112651N1+01701+00601999999ADDGA1021+009909999GF104991999999999999999999MA1100811999999MW1001REMMET043DAAD 0700Z 28010KT 9999 SCT033 17/06 Q1008;EQDQ01+000000PRSWM2
0137605150999992000041008004+35330+004200FM-15+0461DAAD V0202601N006212200019N0112651N1+01801+00701999999ADDGA1021+012009999GF102991999999999999999999MA1100911999999MW1001REMMET043DAAD 0800Z 26012KT 9999 FEW040 18/07 Q1009;EQDQ01+000000PRSWM2
0233605150999992000041009004+35330+004200SY-MT+0461DAAD V0203001N006212200019N0100001N1+01941+00591100941ADDGA1021+012009999GF102991011021012501071001MA1100911999999MD1310091+9999MW1001REMSYN076AAXX  10094 60515 42660 23012 10194 20059 40094 53009 81270 333 81840 95900;MET043DAAD 0900Z 30012KT 9999 FEW040 19/06 Q1009;EQDQ01+000000PRSWM2
0160605150999992000041010004+35330+004200FM-15+0461DAAD V0202601N007212200019N0112651N1+02101+00501999999ADDGA1021+009009999GA2021+024009999GF104991999999999999999999MA1100911999999MW1001REMMET050DAAD 1000Z 26014KT 9999 FEW030 SCT080 21/05 Q1009;EQDQ01+000000PRSWM2
0160605150999992000041011004+35330+004200FM-15+0461DAAD V0203001N004112200019N0112651N1+02201+00601999999ADDGA1021+009009999GA2021+024009999GF104991999999999999999999MA1100911999999MW1001REMMET050DAAD 1100Z 30008KT 9999 SCT030 SCT080 22/06 Q1009;EQDQ01+000000PRSWM2
0160605150999992000041012004+35330+004200FM-15+0461DAAD V0202701N009312200019N0112651N1+02201+00301999999ADDGA1021+009009999GA2021+024009999GF104991999999999999999999MA1100811999999MW1001REMMET050DAAD 1200Z 27018KT 9999 SCT030 SCT080 22/03 Q1008;EQDQ01+000000PRSWM2
0160605150999992000041013004+35330+004200FM-15+0461DAAD V0202801N009312200019N0112651N1+02401+00401999999ADDGA1021+009009999GA2021+024009999GF104991999999999999999999MA1100811999999MW1001REMMET050DAAD 1300Z 28018KT 9999 SCT030 SCT080 24/04 Q1008;EQDQ01+000000PRSWM2
0160605150999992000041014004+35330+004200FM-15+0461DAAD V0202801N011312200019N0112651N1+02401+00001999999ADDGA1021+009009999GA2021+024009999GF104991999999999999999999MA1100711999999MW1001REMMET050DAAD 1400Z 28022KT 9999 SCT030 SCT080 24/00 Q1007;EQDQ01+000000PRSWM2
0249605150999992000041015004+35330+004200SY-MT+0461DAAD V0202801N010310078019N0100001N1+02401+00201100761ADDGA1071+007809999GF199999051051008001001001MA1100711999999MD1710111+9999MW1001REMSYN076AAXX  10154 60515 42560 52820 10240 20020 40076 57011 85500 333 85626 95900;MET043DAAD 1500Z 28020KT 9999 BKN026 24/02 Q1007;EQDQ01+000052SCOTCVQ02+000000PRSWM2
0137605150999992000041016004+35330+004200FM-15+0461DAAD V0202801N010310078019N0112651N1+02401+00201999999ADDGA1071+007809999GF107991999999999999999999MA1100711999999MW1001REMMET043DAAD 1600Z 28020KT 9999 BKN026 24/02 Q1007;EQDQ01+000000PRSWM2
0137605150999992000041017004+35330+004200FM-15+0461DAAD V0202801N008210078019N0112651N1+02301+00201999999ADDGA1071+007809999GF107991999999999999999999MA1100711999999MW1001REMMET043DAAD 1700Z 28016KT 9999 BKN026 23/02 Q1007;EQDQ01+000000PRSWM2
0295605150999992000041018004+35330+004200SY-MT+0461DAAD V0203001N009310078019N0100001N1+02131+00191100781ADDAA199000091GA1071+007809999GF199999051051008001001001KA1120M+02421MA1100711999999MD1310021+9999MW1001REMSYN082AAXX  10184 60515 32560 53018 10213 20019 40078 53002 85500 333 10242 85626 95900;MET043DAAD 1800Z 30018KT 9999 BKN026 24/02 Q1007;EQDQ01+000052SCOTCVQ02+000000PRSWM2Q03  00002PRCP99
0297605150999992000041106004+35330+004200SY-MT+0461DAAD V0203001N003110360019N0100001N1+01301+00561100901ADDAA199000091GA1021+007809999GF106991041021008001021001IA2240+01009KA1120N+01251MA1100911999999MD1710121+9999MW1001REMSYN088AAXX  11064 60515 33560 63006 10130 20056 40090 57012 84220 333 01000 20125 84826 95900;MET043DAAD 0600Z 30006KT 9999 SCT026 13/06 Q1009;EQDQ01+000000PRSWM2Q02  00002PRCP99
0137605150999992000041107004+35330+004200FM-15+0461DAAD V0202801N010312200019N0112651N1+01401+00501999999ADDGA1021+007809999GF104991999999999999999999MA1100911999999MW1001REMMET043DAAD 0700Z 28020KT 9999 SCT026 14/05 Q1009;EQDQ01+000000PRSWM2
0137605150999992000041108004+35330+004200FM-15+0461DAAD V0202801N010312200019N0112651N1+01501+00401999999ADDGA1021+009009999GF104991999999999999999999MA1100911999999MW1001REMMET043DAAD 0800Z 28020KT 9999 SCT030 15/04 Q1009;EQDQ01+000000PRSWM2
0233605150999992000041109004+35330+004200SY-MT+0461DAAD V0202801N015410900019N0100001N1+01521+00151100881ADDGA1021+009009999GF105991041021008001001021MA1100811999999MD1810021+9999MW1001REMSYN076AAXX  11094 60515 42560 52830 10152 20015 40088 58002 84202 333 84830 95900;MET043DAAD 0900Z 28030KT 9999 SCT030 15/02 Q1008;EQDQ01+000000PRSWM2
0137605150999992000041110004+35330+004200FM-15+0461DAAD V0202801N018512200019N0080001N1+01601+00001999999ADDGA1021+009009999GF104991999999999999999999MA1100911999999MW1001REMMET043DAAD 1000Z 28036KT 8000 SCT030 16/00 Q1009;EQDQ01+000000PRSWM2
0138605150999992000041111004+35330+004200FM-15+0461DAAD V0202801N016512200019N0080001N1+01701-00101999999ADDGA1021+009009999GF104991999999999999999999MA1100811999999MW1001REMMET044DAAD 1100Z 28032KT 8000 SCT030 17/M01 Q1008;EQDQ01+000000PRSWM2
0267605150999992000041112004+35330+004200SY-MT+0461DAAD V0202801N015410900019N0100001N1+01841-00071100831ADDAA199000091GA1021+009009999GF105991041021008001001021MA1100911999999MD1710051+9999MW1001REMSYN082AAXX  11124 60515 32560 52830 10184 21007 40083 57005 84202 333 0//00 84830 95900;MET044DAAD 1200Z 28030KT 9999 SCT030 18/M01 Q1009;EQDQ01+000000PRSWM2Q02  00002PRCP99
0154605150999992000041113004+35330+004200FM-15+0461DAAD V0202801N013410090019N9999999N1+01801-00101999999ADDGA1071+009009999GF107991999999999999999999MA1100711999999MW1001REMMET044DAAD 1300Z 28026KT 7000 BKN030 18/M01 Q1007;EQDQ01+070002VODIS Q02+000000PRSWM2
0152605150999992000041114004+35330+004200FM-15+0461DAAD V02099999999990090019N9999999N1+01801+00001999999ADDGA1071+009009999GF107991999999999999999999MA1100711999999MW1001REMMET042DAAD 1400Z 2802KT 7000 BKN030 18/00 Q1007;EQDQ01+070002VODIS Q02+000000PRSWM2
0233605150999992000041115004+35330+004200SY-MT+0461DAAD V0202801N018510090019N0080001N1+01811+00151100701ADDGA1071+009009999GF106991061021008001001001MA1100711999999MD1610131+9999MW1001REMSYN076AAXX  11154 60515 42558 62836 10181 20015 40070 56013 86200 333 86830 95900;MET043DAAD 1500Z 28036KT 8000 BKN030 18/02 Q1007;EQDQ01+000000PRSWM2
0143605150999992000041116004+35330+004200FM-15+0461DAAD V0203001N015410078019N0060001N1+99999+99999999999ADDGA1071+007809999GF107991999999999999999999MW1001REMMET048DAAD 1600Z 30030KT 6000 BKN026 10/11 Q1000 RESH;EQDQ01+100003APOA  Q02+000000PRSWM2
0142605150999992000041117004+35330+004200FM-15+0461DAAD V0202801N007210078019N0112651N1+01201+00601999999ADDGA1071+007809999GF107991999999999999999999MA1101021999999MW1001REMMET048DAAD 1700Z 28014KT 9999 BKN026 12/06 Q1010 RERA;EQDQ01+000000PRSWM2
0285605150999992000041118004+35330+004200SY-MT+0461DAAD V0202801N006210078019N0100001N1+01271+00561101091ADDAA112002091GA1071+007809999GF199999061021008001001001KA1120M+01891MA1101021999999MD1310311+9999MW1001REMSYN088AAXX  11184 60515 12560 62812 10127 20056 40109 53031 60022 86200 333 10189 86826 95900;MET043DAAD 1800Z 28012KT 9999 BKN026 13/06 Q1010;EQDQ01+000062SCOTCVQ02+000000PRSWM2
0313605150999992000041206004+35330+004200SY-MT+0461DAAD V0202601N012312200019N0100001N1+01031+00371101361ADDAA199000091GA1021+009009999GF199999011021008001001001IA2240+00909KA1120N+00901MA1101291999999MD1110031+9999MW1001REMSYN088AAXX  12064 60515 33560 12624 10103 20037 40136 51003 81200 333 00900 20090 81830 95900;MET043DAAD 0600Z 26024KT 9999 FEW030 10/04 Q1013;EQDQ01+000012SCOTCVQ02+000000PRSWM2Q03  00002PRCP99
0089605150999992000041207004+35330+004200FM-15+0461DAAD V0202601N01231220001CN0099001N1+01101+00201999999ADDMA1101391999999MW1001REMMET037DAAD 0700Z 26024KT CAVOK 11/02 Q1014;EQDQ01+000000PRSWM2
0089605150999992000041208004+35330+004200FM-15+0461DAAD V0202601N01231220001CN0099001N1+01301+00301999999ADDMA1101391999999MW1001REMMET037DAAD 0800Z 26024KT CAVOK 13/03 Q1014;EQDQ01+000000PRSWM2
0199605150999992000041209004+35330+004200SY-MT+0461DAAD V0202601N012312200019N0100001N1+01441+00261101481ADDGF100991001001999999001001MA1101391999999MD1310141+9999MW1001REMSYN064AAXX  12094 60515 42960 02624 10144 20026 40148 53014 333 95900;MET037DAAD 0900Z 26024KT CAVOK 14/03 Q1014;EQDQ01+000000PRSWM2
0137605150999992000041210004+35330+004200FM-15+0461DAAD V0202601N011312200019N0112651N1+01601+00101999999ADDGA1021+009909999GF102991999999999999999999MA1101491999999MW1001REMMET043DAAD 1000Z 26022KT 9999 FEW033 16/01 Q1015;EQDQ01+000000PRSWM2
0089605150999992000041211004+35330+004200FM-15+0461DAAD V0202401N00821220001CN0099001N1+01801+00101999999ADDMA1101391999999MW1001REMMET037DAAD 1100Z 24016KT CAVOK 18/01 Q1014;EQDQ01+000000PRSWM2
0260605150999992000041212004+35330+004200SY-MT+0461DAAD V0202001N004112200019N0100001N1+01881+00021101421ADDAA199000091GA1011+060009019GF101991001001999999001021MA1101391999999MD1810021+9999MW1001REMSYN082AAXX  12124 60515 32960 12008 10188 20002 40142 58002 80002 333 0//00 81070 95900;MET037DAAD 1200Z 20008KT CAVOK 19/00 Q1014;EQDQ01+000000PRSWM2Q02  00002PRCP99
0090605150999992000041213004+35330+004200FM-15+0461DAAD V0202401N00621220001CN0099001N1+02101-00101999999ADDMA1101291999999MW1001REMMET038DAAD 1300Z 24012KT CAVOK 21/M01 Q1013;EQDQ01+000000PRSWM2
0212605150999992000041215004+35330+004200SY-MT+0461DAAD V0202601N004112200019N0100001N1+02221-00161101091ADDGF102991001001999999001021MA1101021999999MD1710281+9999MW1001REMSYN076AAXX  12154 60515 42960 22608 10222 21016 40109 57028 80002 333 82070 95900;MET038DAAD 1500Z 26008KT CAVOK 22/M02 Q1010;EQDQ01+000000PRSWM2
0090605150999992000041216004+35330+004200FM-15+0461DAAD V0202601N00621220001CN0099001N1+02401-00201999999ADDMA1101021999999MW1001REMMET038DAAD 1600Z 26012KT CAVOK 24/M02 Q1010;EQDQ01+000000PRSWM2
0154605150999992000041217004+35330+004200FM-15+0461DAAD V0202401N006210600019N0080001N1+02401-00401999999ADDGA1071+060009999GF107991999999999999999999MA1101021999999MW1001REMMET044DAAD 1700Z 24012KT 6000 BKN200 24/M04 Q1010;EQDQ01+060002VODIS Q02+000000PRSWM2
0280605150999992000041218004+35330+004200SY-MT+0461DAAD V0202601N005112200019N0080001N1+02271-00591101041ADDAA199000091GA1021+060009999GF103991001001999999001021KA1120M+02371MA1101021999999MD1510051+9999MW1001REMSYN082AAXX  12184 60515 32958 32610 10227 21059 40104 55005 80002 333 10237 83070 95900;MET044DAAD 1800Z 26010KT 8000 SCT200 23/M06 Q1010;EQDQ01+000000PRSWM2Q02  00002PRCP99
0157605150999992000041317004+35330+004200FM-15+0461DAAD V0201801N011312200019N0012001N1+02701-00901999999ADDGA1021+009909999GF102991999999999999999999MA1100611999999MW1051REMMET047DAAD 1700Z 18022KT 1200 HZ FEW033 27/M09 Q1006;EQDQ01+000003PRSWM1Q02    003PRSWM1
0305605150999992000041318004+35330+004200SY-MT+0461DAAD V0201601N009312200019N0012001N1+02601-00501100731ADDAA199000091AY141061AY201061GA1021+009909999GF103991021021012501001021KA1120M+03051MA1100711999999MD1610031+9999MW1051REMSYN088AAXX  13184 60515 31612 31618 10260 21050 40073 56003 70540 82202 333 10305 82833 95990;MET047DAAD 1800Z 16018KT 1200 HZ FEW033 26/M05 Q1007;EQDQ01  00002PRCP99Q02    003PRSWM1
0282605150999992000041406004+35330+004200SY-MT+0461DAAD V0209999C000012200019N9999999N1+01121+00511100831ADDAA199000091GF100991001001999999001001IA2240+00909KA1120N+01031MA1100811999999MD1710031+9999MW1001REMSYN076AAXX  14064 60515 33957 00000 10112 20051 40083 57003 333 00900 20103 95900;MET040DAAD 0600Z 00000KT 7000 SKC 11/05 Q1008;EQDQ01+070002VODIS Q02+000000PRSWM2Q03  00002PRCP99
0134605150999992000041407004+35330+004200FM-15+0461DAAD V0209999C000012200019N9999999N1+01501+00601999999ADDGF100991999999999999999999MA1100811999999MW1001REMMET040DAAD 0700Z 00000KT 7000 SKC 15/06 Q1008;EQDQ01+070002VODIS Q02+000000PRSWM2
0134605150999992000041408004+35330+004200FM-15+0461DAAD V0200601N002112200019N9999999N1+01701+00601999999ADDGF100991999999999999999999MA1100911999999MW1001REMMET040DAAD 0800Z 06004KT 7000 SKC 17/06 Q1009;EQDQ01+070002VODIS Q02+000000PRSWM2
0218605150999992000041409004+35330+004200SY-MT+0461DAAD V0200601N002112200019N9999999N1+01991+00531100891ADDGF100991001001999999001001MA1100811999999MD1110111+9999MW1001REMSYN064AAXX  14094 60515 42957 00604 10199 20053 40089 51011 333 95900;MET040DAAD 0900Z 06004KT 7000 SKC 20/05 Q1008;EQDQ01+070002VODIS Q02+000000PRSWM2
0134605150999992000041410004+35330+004200FM-15+0461DAAD V0203601N002112200019N9999999N1+02201+00501999999ADDGF100991999999999999999999MA1100811999999MW1001REMMET040DAAD 1000Z 36004KT 7000 SKC 22/05 Q1008;EQDQ01+070002VODIS Q02+000000PRSWM2
0134605150999992000041411004+35330+004200FM-15+0461DAAD V0203001N004112200019N9999999N1+02401+00101999999ADDGF100991999999999999999999MA1100811999999MW1001REMMET040DAAD 1100Z 30008KT 7000 SKC 24/01 Q1008;EQDQ01+070002VODIS Q02+000000PRSWM2
0134605150999992000041413004+35330+004200FM-15+0461DAAD V0203201N005112200019N9999999N1+02501+00201999999ADDGF100991999999999999999999MA1100711999999MW1001REMMET040DAAD 1300Z 32010KT 7000 SKC 25/02 Q1007;EQDQ01+070002VODIS Q02+000000PRSWM2
0134605150999992000041414004+35330+004200FM-15+0461DAAD V0202601N006212200019N9999999N1+02601+00201999999ADDGF100991999999999999999999MA1100611999999MW1001REMMET040DAAD 1400Z 26012KT 7000 SKC 26/02 Q1006;EQDQ01+070002VODIS Q02+000000PRSWM2
0218605150999992000041415004+35330+004200SY-MT+0461DAAD V0203201N007212200019N9999999N1+02571+00161100541ADDGF100991001001999999001001MA1100511999999MD1710231+9999MW1001REMSYN064AAXX  14154 60515 42957 03214 10257 20016 40054 57023 333 95900;MET040DAAD 1500Z 32014KT 7000 SKC 26/02 Q1005;EQDQ01+070002VODIS Q02+000000PRSWM2
0134605150999992000041416004+35330+004200FM-15+0461DAAD V0203001N007212200019N9999999N1+02601+00101999999ADDGF100991999999999999999999MA1100511999999MW1001REMMET040DAAD 1600Z 30014KT 7000 SKC 26/01 Q1005;EQDQ01+070002VODIS Q02+000000PRSWM2
0118605150999992000041417004+35330+004200FM-15+0461DAAD V0203001N007212200019N0070001N1+02601+00101999999ADDGF100991999999999999999999MA1100511999999MW1001REMMET040DAAD 1700Z 30014KT 7000 SKC 26/01 Q1005;EQDQ01+000000PRSWM2
0295605150999992000041418004+35330+004200SY-MT+0461DAAD V0203201N009312200019N9999999N1+02411+00141100671ADDAA199000091GA1021+060009999GF103991001001999999001021KA1120M+02621MA1100611999999MD1310081+9999MW1001REMSYN082AAXX  14184 60515 32957 33218 10241 20014 40067 53008 80002 333 10262 83070 95900;MET043DAAD 1800Z 32018KT 7000 SCT200 24/01 Q1006;EQDQ01+070002VODIS Q02+000000PRSWM2Q03  00002PRCP99
0263605150999992000041506004+35330+004200SY-MT+0461DAAD V0202801N003112200019N0100001N1+01411+00451101151ADDAA199000091GF100991001001999999001001IA2240+00809KA1120N+01201MA1101081999999MD1110041+9999MW1001REMSYN076AAXX  15064 60515 33960 02806 10141 20045 40115 51004 333 00800 20120 95900;MET037DAAD 0600Z 28006KT CAVOK 14/05 Q1011;EQDQ01+000000PRSWM2Q02  00002PRCP99
0089605150999992000041507004+35330+004200FM-15+0461DAAD V0203001N00721220001CN0099001N1+01701+00601999999ADDMA1101081999999MW1001REMMET037DAAD 0700Z 30014KT CAVOK 17/06 Q1011;EQDQ01+000000PRSWM2
0137605150999992000041508004+35330+004200FM-15+0461DAAD V0203201N006212200019N0112651N1+01901+00601999999ADDGA1021+009909999GF102991999999999999999999MA1101191999999MW1001REMMET043DAAD 0800Z 32012KT 9999 FEW033 19/06 Q1012;EQDQ01+000000PRSWM2
0233605150999992000041509004+35330+004200SY-MT+0461DAAD V0203201N007212200019N0100001N1+01961+00591101321ADDGA1021+009909999GF102991021021012501001001MA1101291999999MD1210151+9999MW1001REMSYN076AAXX  15094 60515 42660 23214 10196 20059 40132 52015 82200 333 82833 95900;MET043DAAD 0900Z 32014KT 9999 FEW033 20/06 Q1013;EQDQ01+000000PRSWM2
0137605150999992000041510004+35330+004200FM-15+0461DAAD V0203001N007212200019N0112651N1+02001+00601999999ADDGA1021+009909999GF102991999999999999999999MA1101291999999MW1001REMMET043DAAD 1000Z 30014KT 9999 FEW033 20/06 Q1013;EQDQ01+000000PRSWM2
0266605150999992000041512004+35330+004200SY-MT+0461DAAD V0203401N004112200019N0100001N1+02221+00471101261ADDAA199000091GA1021+009909999GF102991021021012501001001MA1101191999999MD1810071+9999MW1001REMSYN082AAXX  15124 60515 32660 23408 10222 20047 40126 58007 82200 333 0//00 82833 95900;MET043DAAD 1200Z 34008KT 9999 FEW033 22/05 Q1012;EQDQ01+000000PRSWM2Q02  00002PRCP99
0137605150999992000041513004+35330+004200FM-15+0461DAAD V0203401N003112200019N0112651N1+02401+00201999999ADDGA1021+009909999GF102991999999999999999999MA1101191999999MW1001REMMET043DAAD 1300Z 34006KT 9999 FEW033 24/02 Q1012;EQDQ01+000000PRSWM2
0153605150999992000041514004+35330+004200FM-15+0461DAAD V0201601N001012200019N0112651N1+99999+00101999999ADDGA1021+009909999GF102991999999999999999999MA1101081999999MW1001REMMET043DAAD 1400Z 16002KT 9999 FEW033 15/01 Q1011;EQDQ01+001503ATOT  Q02+000000PRSWM2
0233605150999992000041515004+35330+004200SY-MT+0461DAAD V0200601N003112200019N0100001N1+02511+00171101001ADDGA1021+009909999GF102991021021012501001001MA1101021999999MD1710231+9999MW1001REMSYN076AAXX  15154 60515 42660 20606 10251 20017 40100 57023 82200 333 82833 95900;MET043DAAD 1500Z 02006KT 9999 FEW033 25/02 Q1010;EQDQ01+000000PRSWM2
0137605150999992000041516004+35330+004200FM-15+0461DAAD V0200201N002112200019N0112651N1+02601+00201999999ADDGA1021+009909999GF102991999999999999999999MA1100911999999MW1001REMMET043DAAD 1600Z 02004KT 9999 FEW033 26/02 Q1009;EQDQ01+000000PRSWM2
0137605150999992000041517004+35330+004200FM-15+0461DAAD V0203201N003112200019N0112651N1+02801+00201999999ADDGA1021+009909999GF102991999999999999999999MA1100911999999MW1001REMMET043DAAD 1700Z 32006KT 9999 FEW033 28/02 Q1009;EQDQ01+000000PRSWM2
0279605150999992000041518004+35330+004200SY-MT+0461DAAD V0201001N002112200019N0100001N1+02471+00291100981ADDAA199000091GA1021+009909999GF102991021021012501001001KA1120M+02651MA1100911999999MD1610011+9999MW1001REMSYN082AAXX  15184 60515 32660 21004 10247 20029 40098 56001 82200 333 10265 82833 95900;MET043DAAD 1800Z 10004KT 9999 FEW033 25/03 Q1009;EQDQ01+000000PRSWM2Q02  00002PRCP99
0292605150999992000041606004+35330+004200SY-MT+0461DAAD V0202201N009312200019N0100001N1+02321-00051100611ADDAA199000091GA1021+060009019GF102991001001999999001021IA2240+01109KA1120N+01371MA1100611999999MD1710121+9999MW1001REMSYN088AAXX  16064 60515 33960 22218 10232 21005 40061 57012 80002 333 01100 20137 82070 95900;MET038DAAD 0600Z 22018KT CAVOK 23/M01 Q1006;EQDQ01+000000PRSWM2Q02  00002PRCP99
0137605150999992000041607004+35330+004200FM-15+0461DAAD V0202201N004112200019N0080001N1+02501+00001999999ADDGA1021+060009999GF102991999999999999999999MA1100511999999MW1001REMMET043DAAD 0700Z 22008KT 8000 FEW200 25/00 Q1005;EQDQ01+000000PRSWM2
0137605150999992000041608004+35330+004200FM-15+0461DAAD V0202001N017512200019N0080001N1+02601+00201999999ADDGA1021+060009999GF102991999999999999999999MA1100511999999MW1001REMMET043DAAD 0800Z 20034KT 8000 FEW200 26/02 Q1005;EQDQ01+000000PRSWM2
0233605150999992000041609004+35330+004200SY-MT+0461DAAD V0202001N012312200019N0080001N1+02661+00271100591ADDGA1021+060009999GF102991001001999999001021MA1100511999999MD1510031+9999MW1001REMSYN076AAXX  16094 60515 42958 22024 10266 20027 40059 55003 80002 333 82070 95900;MET043DAAD 0900Z 20024KT 8000 FEW200 27/03 Q1005;EQDQ01+000000PRSWM2
0156605150999992000041610004+35330+004200FM-15+0461DAAD V0201801N012312200019N9999999N1+02701+00401999999ADDGA1021+060009999GF102991999999999999999999MA1100511999999MW1001REMMET046DAAD 1000Z 18024KT 6000 BL FEW200 27/04 Q1005;EQDQ01+060002VODIS Q02+000000PRSWM2
0153605150999992000041611004+35330+004200FM-15+0461DAAD V0202101N014412200019N9999999N1+02701+00201999999ADDGA1021+060009999GF102991999999999999999999MA1100411999999MW1001REMMET043DAAD 1100Z 21028KT 6000 FEW200 27/02 Q1004;EQDQ01+060002VODIS Q02+000000PRSWM2
0266605150999992000041612004+35330+004200SY-MT+0461DAAD V0201801N015412200019N0160001N1+02821+00551100411ADDAA199000091GA1021+012009999GF102991021021008001001001MA1100411999999MD1810211+9999MW1001REMSYN082AAXX  16124 60515 32566 21830 10282 20055 40041 58021 82200 333 0//00 82840 95900;MET043DAAD 1200Z 18030KT 6000 FEW040 28/06 Q1004;EQDQ01+000000PRSWM2Q02  00002PRCP99
0153605150999992000041613004+35330+004200FM-15+0461DAAD V0201901N011312200019N9999999N1+03001+00501999999ADDGA1021+009909999GF104991999999999999999999MA1100201999999MW1001REMMET043DAAD 1300Z 19022KT 6000 SCT033 30/05 Q1002;EQDQ01+060002VODIS Q02+000000PRSWM2
0137605150999992000041614004+35330+004200FM-15+0461DAAD V0202201N010312200019N0060001N1+03101+00401999999ADDGA1021+009909999GF104991999999999999999999MA1100101999999MW1001REMMET043DAAD 1400Z 22020KT 6000 SCT033 31/04 Q1001;EQDQ01+000000PRSWM2
0265605150999992000041615004+35330+004200SY-MT+0461DAAD V0202201N007210099019N9999999N1+03001+00321099971ADDGA1071+009909999GF199999051021012501001001MA1099901999999MD1710371+9999MW1001REMSYN076AAXX  16154 60515 42657 52214 10300 20032 49997 57037 85200 333 85833 95900;MET043DAAD 1500Z 22014KT 7000 BKN033 30/03 Q0999;EQDQ01+000052SCOTCVQ02+070002VODIS Q03+000000PRSWM2
0297605150999992000041706004+35330+004200SY-MT+0461DAAD V0202801N008212200019N0100001N1+01201+00571101361ADDAA199000091GA1021+009909999GF103991031021012501001001IA2240+00909KA1120N+01071MA1101291999999MD1310201+9999MW1001REMSYN088AAXX  17064 60515 33660 32816 10120 20057 40136 53020 83200 333 00900 20107 83833 95900;MET043DAAD 0600Z 28016KT 9999 SCT033 12/06 Q1013;EQDQ01+000000PRSWM2Q02  00002PRCP99
0137605150999992000041707004+35330+004200FM-15+0461DAAD V0202801N014412200019N0112651N1+01401+00501999999ADDGA1021+009909999GF104991999999999999999999MA1101391999999MW1001REMMET043DAAD 0700Z 28028KT 9999 SCT033 14/05 Q1014;EQDQ01+000000PRSWM2
0144605150999992000041709004+35330+004200FM-12+0461DAAD V0202801N009310090019N0100001N1+01551+00551101331ADDGA1051+009009089GF105991051021008001001001MD1210151+9999REMSYN076AAXX  17094 60515 42560 52818 10155 20055 40133 52015 85200 333 85830 95900;
0282605150999992000041712004+35330+004200SY-MT+0461DAAD V0203001N015410090019N0080001N1+01801+00351101631ADDAA199000091GA1071+009009999GF199999051021008001001001MA1101591999999MD1810041+9999MW1001REMSYN082AAXX  17124 60515 32558 53030 10180 20035 40163 58004 85200 333 0//00 85830 95900;MET043DAAD 1200Z 30030KT 8000 BKN030 18/04 Q1016;EQDQ01+000052SCOTCVQ02+000000PRSWM2Q03  00002PRCP99
0137605150999992000041713004+35330+004200FM-15+0461DAAD V0203001N014410090019N0080001N1+01901+00401999999ADDGA1071+009009999GF107991999999999999999999MA1101591999999MW1001REMMET043DAAD 1300Z 30028KT 8000 BKN030 19/04 Q1016;EQDQ01+000000PRSWM2
0137605150999992000041714004+35330+004200FM-15+0461DAAD V0203001N015412200019N0080001N1+01901+00201999999ADDGA1021+009009999GF104991999999999999999999MA1101591999999MW1001REMMET043DAAD 1400Z 30030KT 8000 SCT030 19/02 Q1016;EQDQ01+000000PRSWM2
0249605150999992000041715004+35330+004200SY-MT+0461DAAD V0203001N010310090019N0100001N1+01801+00151101641ADDGA1071+009009999GF199999051021008001001001MA1101591999999MD1010011+9999MW1001REMSYN076AAXX  17154 60515 42560 53020 10180 20015 40164 50001 85200 333 85830 95900;MET043DAAD 1500Z 30020KT 9999 BKN030 18/02 Q1016;EQDQ01+000052SCOTCVQ02+000000PRSWM2
0137605150999992000041716004+35330+004200FM-15+0461DAAD V0203201N010312200019N0112651N1+01901+00301999999ADDGA1021+009009999GF104991999999999999999999MA1101591999999MW1001REMMET043DAAD 1600Z 32020KT 9999 SCT030 19/03 Q1016;EQDQ01+000000PRSWM2
0137605150999992000041717004+35330+004200FM-15+0461DAAD V0203001N010312200019N0112651N1+01901+00101999999ADDGA1021+009009999GF104991999999999999999999MA1101691999999MW1001REMMET043DAAD 1700Z 30020KT 9999 SCT030 19/01 Q1017;EQDQ01+000000PRSWM2
0279605150999992000041718004+35330+004200SY-MT+0461DAAD V0203201N009312200019N0100001N1+01731+00141101801ADDAA199000091GA1021+009009999GF104991041021008001001001KA1120M+01941MA1101801999999MD1310151+9999MW1001REMSYN082AAXX  17184 60515 32560 43218 10173 20014 40180 53015 84200 333 10194 84830 95900;MET043DAAD 1800Z 32018KT 9999 SCT030 17/01 Q1018;EQDQ01+000000PRSWM2Q02  00002PRCP99
0313605150999992000041806004+35330+004200SY-MT+0461DAAD V0202601N011312200019N0100001N1+01211+00361101871ADDAA199000091GA1021+009009999GF199999011021008001071001IA2240+00809KA1120N+01091MA1101801999999MD1710061+9999MW1001REMSYN088AAXX  18064 60515 33560 12622 10121 20036 40187 57006 81270 333 00800 20109 81830 95900;MET043DAAD 0600Z 26022KT 9999 FEW030 12/04 Q1018;EQDQ01+000012SCOTCVQ02+000000PRSWM2Q03  00002PRCP99
0137605150999992000041807004+35330+004200FM-15+0461DAAD V0202601N010312200019N0112651N1+01401+00401999999ADDGA1021+009009999GF102991999999999999999999MA1101901999999MW1001REMMET043DAAD 0700Z 26020KT 9999 FEW030 14/04 Q1019;EQDQ01+000000PRSWM2
0233605150999992000041809004+35330+004200SY-MT+0461DAAD V0202801N009312200019N0100001N1+01681+00371102011ADDGA1021+009009999GF102991021021008001071001MA1102001999999MD1310131+9999MW1001REMSYN076AAXX  18094 60515 42560 22818 10168 20037 40201 53013 82270 333 82830 95900;MET043DAAD 0900Z 28018KT 9999 FEW030 17/04 Q1020;EQDQ01+000000PRSWM2
0137605150999992000041810004+35330+004200FM-15+0461DAAD V0203001N010312200019N0112651N1+01801+00401999999ADDGA1021+009009999GF102991999999999999999999MA1102001999999MW1001REMMET043DAAD 1000Z 30020KT 9999 FEW030 18/04 Q1020;EQDQ01+000000PRSWM2
0137605150999992000041811004+35330+004200FM-15+0461DAAD V0203001N010312200019N0112651N1+01901+00401999999ADDGA1021+007809999GF104991999999999999999999MA1102001999999MW1001REMMET043DAAD 1100Z 30020KT 9999 SCT026 19/04 Q1020;EQDQ01+000000PRSWM2
0282605150999992000041812004+35330+004200SY-MT+0461DAAD V0202701N008210078019N0100001N1+02001+00501101901ADDAA199000091GA1071+007809999GF199999051021008001001001MA1101901999999MD1810061+9999MW1001REMSYN082AAXX  18124 60515 32560 52716 10200 20050 40190 58006 85200 333 0//00 85826 95900;MET043DAAD 1200Z 27016KT 9999 BKN026 20/05 Q1019;EQDQ01+000052SCOTCVQ02+000000PRSWM2Q03  00002PRCP99
0137605150999992000041813004+35330+004200FM-15+0461DAAD V0203001N010310078019N0112651N1+02101+00401999999ADDGA1071+007809999GF107991999999999999999999MA1101801999999MW1001REMMET043DAAD 1300Z 30020KT 9999 BKN026 21/04 Q1018;EQDQ01+000000PRSWM2
0137605150999992000041814004+35330+004200FM-15+0461DAAD V0202901N008210078019N0112651N1+02101+00201999999ADDGA1071+007809999GF107991999999999999999999MA1101801999999MW1001REMMET043DAAD 1400Z 29016KT 9999 BKN026 21/02 Q1018;EQDQ01+000000PRSWM2
0249605150999992000041815004+35330+004200SY-MT+0461DAAD V0202801N009310090019N0100001N1+02151+00241101731ADDGA1071+009009999GF199999051021008001001001MA1101691999999MD1710171+9999MW1001REMSYN076AAXX  18154 60515 42560 52818 10215 20024 40173 57017 85200 333 85830 95900;MET043DAAD 1500Z 28018KT 9999 BKN030 22/02 Q1017;EQDQ01+000052SCOTCVQ02+000000PRSWM2
0137605150999992000041816004+35330+004200FM-15+0461DAAD V0203001N014410090019N0112651N1+02201+00301999999ADDGA1071+009009999GF107991999999999999999999MA1101591999999MW1001REMMET043DAAD 1600Z 30028KT 9999 BKN030 22/03 Q1016;EQDQ01+000000PRSWM2
0139605150999992000041817004+35330+004200FM-15+0461DAAD V0203001N008212200019N0112651N1+02201+00101999999ADDGA1021+009009999GF104991999999999999999999MA1101691999999MW1001REMMET045DAAD 181700Z 30016KT 9999 SCT030 22/01 Q1017;EQDQ01+000000PRSWM2
0297605150999992000041818004+35330+004200SY-MT+0461DAAD V0203001N008212200019N0100001N1+02041+00141101771ADDAA199000091GA1021+009009999GF104991999021008001001001KA1120M+02191MA1101691999999MD1310021+9999MW1001REMSYN082AAXX  18184 60515 32560 43016 10204 20014 40177 53002 82200 333 10219 84830 95900;MET045DAAD 181800Z 30016KT 9999 SCT030 20/01 Q1017;EQDQ01+000022SCOTLCQ02+000000PRSWM2Q03  00002PRCP99
0293605150999992000041906004+35330+004200SY-MT+0461DAAD V0202601N010312200019N0100001N1+01301+00551101881ADDAA199000091GA1021+069009009GF102991001001999999001021IA2240+01109KA1120N+01201MA1101801999999MD1110021+9999MW1001REMSYN088AAXX  19064 60515 33960 22620 10130 20055 40188 51002 80002 333 01100 20120 82073 95900;MET039DAAD 190600Z 26020KT CAVOK 13/06 Q1018;EQDQ01+000000PRSWM2Q02  00002PRCP99
0139605150999992000041907004+35330+004200FM-15+0461DAAD V0202601N010312200019N0112651N1+01401+00601999999ADDGA1021+009909999GF102991999999999999999999MA1102001999999MW1001REMMET045DAAD 190700Z 26020KT 9999 FEW033 14/06 Q1020;EQDQ01+000000PRSWM2
0293605150999992000042306004+35330+004200SY-MT+0461DAAD V0202601N008212200019N0100001N1+01711+00941102021ADDAA199000091GA1021+069009009GF102991001001999999001021IA2240+01609KA1120N+01651MA1102001999999MD1210251+9999MW1001REMSYN088AAXX  23064 60515 33960 22616 10171 20094 40202 52025 80002 333 01600 20165 82073 95900;MET039DAAD 230600Z 26016KT CAVOK 17/09 Q1020;EQDQ01+000000PRSWM2Q02  00002PRCP99
0162605150999992000042307004+35330+004200FM-15+0461DAAD V0202801N008212200019N0112651N1+01901+01001999999ADDGA1021+009009999GA2021+060009999GF104991999999999999999999MA1102001999999MW1001REMMET052DAAD 230700Z 28016KT 9999 FEW030 SCT200 19/10 Q1020;EQDQ01+000000PRSWM2
0235605150999992000042309004+35330+004200SY-MT+0461DAAD V0203001N007212200019N0100001N1+02021+00871102311ADDGA1021+009009999GF103991021021008001001021MA1102301999999MD1210221+9999MW1001REMSYN076AAXX  23094 60515 42560 33014 10202 20087 40231 52022 82202 333 82830 95900;MET045DAAD 230900Z 30014KT 9999 FEW030 20/09 Q1023;EQDQ01+000000PRSWM2
0139605150999992000042310004+35330+004200FM-15+0461DAAD V0202801N010312200019N0112651N1+02201+00701999999ADDGA1021+009009999GF102991999999999999999999MA1102301999999MW1001REMMET045DAAD 231000Z 28020KT 9999 FEW030 22/07 Q1023;EQDQ01+000000PRSWM2
0139605150999992000042311004+35330+004200FM-15+0461DAAD V0202801N010312200019N0112651N1+02201+00401999999ADDGA1021+009009999GF102991999999999999999999MA1102301999999MW1001REMMET045DAAD 231100Z 28020KT 9999 FEW030 22/04 Q1023;EQDQ01+000000PRSWM2
0262605150999992000042312004+35330+004200SY-MT+0461DAAD V0202801N010312200019N0100001N1+02311+00401102211ADDAA199000091GA1021+069009009GF102991001001999999001021MA1102201999999MD1810091+9999MW1001REMSYN082AAXX  23124 60515 32960 22820 10231 20040 40221 58009 80002 333 0//00 82073 95900;MET039DAAD 231200Z 28020KT CAVOK 23/04 Q1022;EQDQ01+000000PRSWM2Q02  00002PRCP99
0139605150999992000042313004+35330+004200FM-15+0461DAAD V0202801N012312200019N0112651N1+02401+00301999999ADDGA1021+009909999GF102991999999999999999999MA1102101999999MW1001REMMET045DAAD 231300Z 28024KT 9999 FEW033 24/03 Q1021;EQDQ01+000000PRSWM2
0139605150999992000042314004+35330+004200FM-15+0461DAAD V0202801N007212200019N0112651N1+02401+00301999999ADDGA1021+009909999GF102991999999999999999999MA1102101999999MW1001REMMET045DAAD 231400Z 28014KT 9999 FEW033 24/03 Q1021;EQDQ01+000000PRSWM2
0235605150999992000042315004+35330+004200SY-MT+0461DAAD V0203001N008212200019N0100001N1+02401+00111102041ADDGA1021+009909999GF102991021021012501001001MA1102001999999MD1710151+9999MW1001REMSYN076AAXX  23154 60515 42660 23016 10240 20011 40204 57015 82200 333 82833 95900;MET045DAAD 231500Z 30016KT 9999 FEW033 24/01 Q1020;EQDQ01+000000PRSWM2
0140605150999992000042316004+35330+004200FM-15+0461DAAD V0203201N008212200019N0112651N1+02401-00301999999ADDGA1021+009909999GF102991999999999999999999MA1102001999999MW1001REMMET046DAAD 231600Z 32016KT 9999 FEW033 24/M03 Q1020;EQDQ01+000000PRSWM2
0140605150999992000042317004+35330+004200FM-15+0461DAAD V0203001N008212200019N0112651N1+02301-00701999999ADDGA1021+009909999GF102991999999999999999999MA1102001999999MW1001REMMET046DAAD 231700Z 30016KT 9999 FEW033 23/M07 Q1020;EQDQ01+000000PRSWM2
0248605150999992000042318004+35330+004200SY-MT+0461DAAD V0203001N009312200019N0100001N1+02151-00631102111ADDAA199000091GF100991001001999999001001KA1120M+02401MA1102101999999MD1310021+9999MW1001REMSYN070AAXX  23184 60515 32960 03018 10215 21063 40211 53002 333 10240 95900;MET040DAAD 231800Z 30018KT CAVOK 22/M06 Q1021;EQDQ01+000000PRSWM2Q02  00002PRCP99
0265605150999992000042406004+35330+004200SY-MT+0461DAAD V0209999C000012200019N0100001N1+02121+00171102321ADDAA199000091GF100991001001999999001001IA2240+00609KA1120N+00971MA1102301999999MD1810031+9999MW1001REMSYN076AAXX  24064 60515 33960 00000 10212 20017 40232 58003 333 00600 20097 95900;MET039DAAD 240600Z 00000KT CAVOK 12/02 Q1023;EQDQ01+000000PRSWM2Q02  00002PRCP99
0092605150999992000042407004+35330+004200FM-15+0461DAAD V0202601N00411220001CN0099001N1+01501-00101999999ADDMA1102301999999MW1001REMMET040DAAD 240700Z 26008KT CAVOK 15/M01 Q1023;EQDQ01+000000PRSWM2
0092605150999992000042408004+35330+004200FM-15+0461DAAD V0202601N00211220001CN0099001N1+01601-00101999999ADDMA1102301999999MW1001REMMET040DAAD 240800Z 26004KT CAVOK 16/M01 Q1023;EQDQ01+000000PRSWM2
0202605150999992000042409004+35330+004200SY-MT+0461DAAD V0209999C000012200019N0100001N1+01771-00251102331ADDGF100991001001999999001001MA1102301999999MD1010011+9999MW1001REMSYN064AAXX  24094 60515 42960 00000 10177 21025 40233 50001 333 95900;MET040DAAD 240900Z 00000KT CAVOK 18/M03 Q1023;EQDQ01+000000PRSWM2
0092605150999992000042410004+35330+004200FM-15+0461DAAD V0200401N00211220001CN0099001N1+01901-00401999999ADDMA1102301999999MW1001REMMET040DAAD 241000Z 04004KT CAVOK 19/M04 Q1023;EQDQ01+000000PRSWM2
0092605150999992000042411004+35330+004200FM-15+0461DAAD V0209999C00001220001CN0099001N1+02001-00401999999ADDMA1102201999999MW1001REMMET040DAAD 241100Z 00000KT CAVOK 20/M04 Q1022;EQDQ01+000000PRSWM2
0092605150999992000042414004+35330+004200FM-15+0461DAAD V0200801N00311220001CN0099001N1+02401-00501999999ADDMA1101901999999MW1001REMMET040DAAD 241400Z 08006KT CAVOK 24/M05 Q1019;EQDQ01+000000PRSWM2
0214605150999992000042415004+35330+004200SY-MT+0461DAAD V0209999C000012200019N0100001N1+02521-00571101841ADDGF102991001001999999001021MA1101801999999MD1710281+9999MW1001REMSYN076AAXX  24154 60515 42960 20000 10252 21057 40184 57028 80002 333 82070 95900;MET040DAAD 241500Z 00000KT CAVOK 25/M06 Q1018;EQDQ01+000000PRSWM2
0092605150999992000042416004+35330+004200FM-15+0461DAAD V0200801N00211220001CN0099001N1+02601-00501999999ADDMA1101691999999MW1001REMMET040DAAD 241600Z 08004KT CAVOK 26/M05 Q1017;EQDQ01+000000PRSWM2
0092605150999992000042417004+35330+004200FM-15+0461DAAD V0200801N00411220001CN0099001N1+02501-00601999999ADDMA1101691999999MW1001REMMET040DAAD 241700Z 08008KT CAVOK 25/M06 Q1017;EQDQ01+000000PRSWM2
0276605150999992000042418004+35330+004200SY-MT+0461DAAD V0200801N004112200019N0100001N1+02411-00491101721ADDAA199000091GA1031+060009019GF103991001001999999001021KA1120M+02581MA1101691999999MD1610111+9999MW1001REMSYN082AAXX  24184 60515 32960 30808 10241 21049 40172 56011 80002 333 10258 83070 95900;MET040DAAD 241800Z 08008KT CAVOK 24/M05 Q1017;EQDQ01+000000PRSWM2Q02  00002PRCP99
0265605150999992000042506004+35330+004200SY-MT+0461DAAD V0201801N001012200019N0100001N1+01301+00301101561ADDAA199000091GF100991001001999999001001IA2240+01009KA1120N+01241MA1101491999999MD1510001+9999MW1001REMSYN076AAXX  25064 60515 33960 01802 10130 20030 40156 55000 333 01000 20124 95900;MET039DAAD 250600Z 18002KT CAVOK 13/03 Q1015;EQDQ01+000000PRSWM2Q02  00002PRCP99
0091605150999992000042507004+35330+004200FM-15+0461DAAD V0201201N00211220001CN0099001N1+01801+00501999999ADDMA1101491999999MW1001REMMET039DAAD 250700Z 12004KT CAVOK 18/05 Q1015;EQDQ01+000000PRSWM2
0091605150999992000042508004+35330+004200FM-15+0461DAAD V0200201N00411220001CN0099001N1+02001+00301999999ADDMA1101591999999MW1001REMMET039DAAD 250800Z 02008KT CAVOK 20/03 Q1016;EQDQ01+000000PRSWM2
0213605150999992000042509004+35330+004200SY-MT+0461DAAD V0200201N004119999999N0100001N1+02101+00251101591ADDGF105991001001999999001021MA1101491999999MD1110051+9999MW1001REMSYN076AAXX  25094 60515 42960 50208 10210 20025 40159 51005 80002 333 85073 95900;MET039DAAD 250900Z 02008KT CAVOK 21/03 Q1015;EQDQ01+000000PRSWM2
0091605150999992000042510004+35330+004200FM-15+0461DAAD V0203001N00211220001CN0099001N1+02401+00301999999ADDMA1101491999999MW1001REMMET039DAAD 251000Z 30004KT CAVOK 24/03 Q1015;EQDQ01+000000PRSWM2
0091605150999992000042511004+35330+004200FM-15+0461DAAD V0203601N00211220001CN0099001N1+02701+00301999999ADDMA1101491999999MW1001REMMET039DAAD 251100Z 36004KT CAVOK 27/03 Q1015;EQDQ01+000000PRSWM2
0262605150999992000042512004+35330+004200SY-MT+0461DAAD V0200601N002112200019N0100001N1+02941+00151101351ADDAA199000091GA1031+069009019GF103991001001999999001021MA1101291999999MD1810181+9999MW1001REMSYN082AAXX  25124 60515 32960 30604 10294 20015 40135 58018 80002 333 0//00 83073 95900;MET039DAAD 251200Z 06004KT CAVOK 29/02 Q1013;EQDQ01+000000PRSWM2Q02  00002PRCP99
0139605150999992000042513004+35330+004200FM-15+0461DAAD V0200601N005112200019N0112651N1+03201+00301999999ADDGA1021+009909999GF102991999999999999999999MA1101191999999MW1001REMMET045DAAD 251300Z 06010KT 9999 FEW033 32/03 Q1012;EQDQ01+000000PRSWM2
0139605150999992000042514004+35330+004200FM-15+0461DAAD V0200601N005112200019N0112651N1+03301+00201999999ADDGA1021+009909999GF102991999999999999999999MA1101081999999MW1001REMMET045DAAD 251400Z 06010KT 9999 FEW033 33/02 Q1011;EQDQ01+000000PRSWM2
0264605150999992000042515004+35330+004200SY-MT+0461DAAD V0200601N00411090001CN0100001N1+03301+00121101031ADDGA1021+009009999GA2021+060009999GF105991031021008001001021MA1101021999999MD1710281+9999MW1001REMSYN082AAXX  25154 60515 42560 50608 10330 20012 40103 57028 83202 333 83830 83070 95900;MET052DAAD 251500Z 06008KT 9999 SCT030 SCT200 33/01 Q1010;EQDQ01+000000PRSWM2
0326605150999992000042518004+35330+004200SY-MT+0461DAAD V0201201N00721090001CN9999999N1+03201-00481101051ADDAA199000091GA1021+009009999GA2021+060009999GF105991031021008001001021KA1120M+03351MA1101021999999MD1510001+9999MW1001REMSYN088AAXX  25184 60515 32556 51214 10320 21048 40105 55000 83202 333 10335 83830 83070 95900;MET052DAAD 251800Z 12014KT 6000 SCT030 SCT200 32/05 Q1010;EQDQ01+060002VODIS Q02+000000PRSWM2Q03  00002PRCP99
0299605150999992000042606004+35330+004200SY-MT+0461DAAD V0203401N002112200019N0080001N1+01811+00141101141ADDAA199000091GA1021+060009999GF103991001001999999001021IA2240+01509KA1120N+01741MA1101081999999MD1310011+9999MW1001REMSYN088AAXX  26064 60515 33958 33404 10181 20014 40114 53001 80002 333 01500 20174 83070 95900;MET045DAAD 260600Z 34004KT 8000 SCT200 18/01 Q1011;EQDQ01+000000PRSWM2Q02  00002PRCP99
0162605150999992000042607004+35330+004200FM-15+0461DAAD V0209999C000012200019N0080001N1+02001+00201999999ADDGA1021+024009999GA2021+060009999GF104991999999999999999999MA1101081999999MW1001REMMET052DAAD 260700Z 00000KT 8000 FEW080 SCT200 20/02 Q1011;EQDQ01+000000PRSWM2
0235605150999992000042609004+35330+004200SY-MT+0461DAAD V0209999C000012200019N0080001N1+02551+00251101191ADDGA1021+012009999GF103991031021012501081001MA1101081999999MD1110051+9999MW1001REMSYN076AAXX  26094 60515 42658 30000 10255 20025 40119 51005 83280 333 83840 95900;MET045DAAD 260900Z 00000KT 8000 SCT040 26/03 Q1011;EQDQ01+000000PRSWM2
0162605150999992000042611004+35330+004200FM-15+0461DAAD V0209999C000012200019N0080001N1+03101+00101999999ADDGA1021+024009999GA2021+060009999GF104991999999999999999999MA1101021999999MW1001REMMET052DAAD 261100Z 00000KT 8000 FEW080 SCT200 31/01 Q1010;EQDQ01+000000PRSWM2
0285605150999992000042612004+35330+004200SY-MT+0461DAAD V0201601N004110600019N0080001N1+03491-00271100801ADDAA199000091GA1071+060009999GF199999001001999999001021MA1100811999999MD1810291+9999MW1001REMSYN082AAXX  26124 60515 32958 51608 10349 21027 40080 58029 80002 333 0//00 85070 95900;MET046DAAD 261200Z 16008KT 8000 BKN200 35/M03 Q1008;EQDQ01+000052SCOTCVQ02+000000PRSWM2Q03  00002PRCP99
0156605150999992000042613004+35330+004200FM-15+0461DAAD V0202001N014412200019N9999999N1+03701-00101999999ADDGA1021+060009999GF104991999999999999999999MA1100711999999MW1001REMMET046DAAD 261300Z 20028KT 6000 SCT200 37/M01 Q1007;EQDQ01+060002VODIS Q02+000000PRSWM2
0179605150999992000042614004+35330+004200FM-15+0461DAAD V0201801N013412200019N9999999N1+03601-00201999999ADDGA1021+024009999GA2021+060009999GF104991999999999999999999MA1100611999999MW1001REMMET053DAAD 261400Z 18026KT 7000 FEW080 SCT200 36/M02 Q1006;EQDQ01+070002VODIS Q02+000000PRSWM2
0281605150999992000042615004+35330+004200SY-MT+0461DAAD V0201801N013412200019N9999999N1+03671-00171100621ADDGA1021+012009999GA2021+060009999GF104991011021999999001021MA1100611999999MD1710201+9999MW1001REMSYN082AAXX  26154 60515 42957 41826 10367 21017 40062 57020 81202 333 81840 83070 95900;MET053DAAD 261500Z 18026KT 7000 FEW040 SCT200 37/M02 Q1006;EQDQ01+070002VODIS Q02+000000PRSWM2
0179605150999992000042616004+35330+004200FM-15+0461DAAD V0201601N015412200019N9999999N1+03601-00201999999ADDGA1021+012009999GA2021+060009999GF104991999999999999999999MA1100511999999MW1001REMMET053DAAD 261600Z 16030KT 7000 FEW040 SCT200 36/M02 Q1005;EQDQ01+070002VODIS Q02+000000PRSWM2
0163605150999992000042617004+35330+004200FM-15+0461DAAD V0201401N013412200019N0060001N1+03501-00301999999ADDGA1021+024009999GA2021+060009999GF104991999999999999999999MA1100511999999MW1001REMMET053DAAD 261700Z 14026KT 6000 FEW080 SCT200 35/M03 Q1005;EQDQ01+000000PRSWM2
0343605150999992000042618004+35330+004200SY-MT+0461DAAD V0201601N009310600019N9999999N1+03321-00391100551ADDAA199000091GA1021+024009999GA2071+060009999GF199999021001999999071021KA1120M+03741MA1100511999999MD1710101+9999MW1001REMSYN088AAXX  26184 60515 32956 61618 10332 21039 40055 57010 82072 333 10374 82358 85070 95900;MET053DAAD 261800Z 16018KT 6000 FEW080 BKN200 33/M04 Q1005;EQDQ01+000062SCOTCVQ02+060002VODIS Q03+000000PRSWM2Q04  00002PRCP99
0299605150999992000042706004+35330+004200SY-MT+0461DAAD V0202601N014412200019N0080001N1+01951+00231100801ADDAA199000091GA1021+009009999GF104991041021008001001001IA2240+01909KA1120N+01931MA1100811999999MD1310241+9999MW1001REMSYN088AAXX  27064 60515 33558 42628 10195 20023 40080 53024 84200 333 01900 20193 84830 95900;MET045DAAD 270600Z 26028KT 8000 SCT030 20/02 Q1008;EQDQ01+000000PRSWM2Q02  00002PRCP99
0139605150999992000042707004+35330+004200FM-15+0461DAAD V0202601N014412200019N0080001N1+01901+00401999999ADDGA1021+030009999GF104991999999999999999999MA1100611999999MW1001REMMET045DAAD 270700Z 26028KT 8000 SCT100 19/04 Q1006;EQDQ01+000000PRSWM2
0139605150999992000042708004+35330+004200FM-15+0461DAAD V0202601N007212200019N0080001N1+02001+00501999999ADDGA1021+009009999GF104991999999999999999999MA1100611999999MW1001REMMET045DAAD 270800Z 26014KT 8000 SCT030 20/05 Q1006;EQDQ01+000000PRSWM2
0235605150999992000042709004+35330+004200SY-MT+0461DAAD V0203001N008212200019N0080001N1+02141+00401100691ADDGA1021+009009999GF103991031021008001001001MA1100611999999MD1010111+9999MW1001REMSYN076AAXX  27094 60515 42558 33016 10214 20040 40069 50011 83200 333 83830 95900;MET045DAAD 270900Z 30016KT 8000 SCT030 21/04 Q1006;EQDQ01+000000PRSWM2
0096605150999992000042710004+35330+004200FM-15+0461DAAD V0203001N010312200019N0112651N1+02201+00401999999ADDMA1100711999999MW1001REMMET044DAAD 271000Z 30020KT 9999 SC030 22/04 Q1007;EQDQ01+000000PRSWM2
0139605150999992000042711004+35330+004200FM-15+0461DAAD V0203001N010312200019N0112651N1+02301+00101999999ADDGA1021+009009999GF104991999999999999999999MA1100611999999MW1001REMMET045DAAD 271100Z 30020KT 9999 SCT030 23/01 Q1006;EQDQ01+000000PRSWM2
0139605150999992000042712004+35330+004200FM-15+0461DAAD V0203001N006212200019N0112651N1+02401+00101999999ADDGA1021+009909999GF102991999999999999999999MA1100611999999MW1001REMMET045DAAD 271200Z 30012KT 9999 FEW033 24/01 Q1006;EQDQ01+000000PRSWM2
0091605150999992000042714004+35330+004200FM-15+0461DAAD V0203001N01031220001CN0099001N1+02501+00101999999ADDMA1100511999999MW1001REMMET039DAAD 271400Z 30020KT CAVOK 25/01 Q1005;EQDQ01+000000PRSWM2
0235605150999992000042715004+35330+004200SY-MT+0461DAAD V0203201N009312200019N0100001N1+02541+00111100531ADDGA1021+009909999GF102991021021012501001001MA1100511999999MD1610081+9999MW1001REMSYN076AAXX  27154 60515 42660 23218 10254 20011 40053 56008 82200 333 82833 95900;MET045DAAD 271500Z 32018KT 9999 FEW033 25/01 Q1005;EQDQ01+000000PRSWM2
0139605150999992000042716004+35330+004200FM-15+0461DAAD V0203001N010312200019N0112651N1+02501+00101999999ADDGA1021+009909999GF102991999999999999999999MA1100511999999MW1001REMMET045DAAD 271600Z 30020KT 9999 FEW033 25/01 Q1005;EQDQ01+000000PRSWM2
0139605150999992000042717004+35330+004200FM-15+0461DAAD V0203001N012312200019N0112651N1+02301+00101999999ADDGA1021+009909999GF102991999999999999999999MA1100611999999MW1001REMMET045DAAD 271700Z 30024KT 9999 FEW033 23/01 Q1006;EQDQ01+000000PRSWM2
0282605150999992000042718004+35330+004200SY-MT+0461DAAD V0203001N010312200019N0100001N1+02081-00101100881ADDAA199000091GA1021+009909999GF102991021021012501001001KA1120M+02561MA1100811999999MD1310231+9999MW1001REMSYN082AAXX  27184 60515 32660 23020 10208 21010 40088 53023 82200 333 10256 82833 95900;MET046DAAD 271800Z 30020KT 9999 FEW033 21/M01 Q1008;EQDQ01+000000PRSWM2Q02  00002PRCP99
0299605150999992000042806004+35330+004200SY-MT+0461DAAD V0202801N010312200019N0100001N1+01131+00051101421ADDAA199000091GA1021+007809999GF102991021051008001001001IA2240+01009KA1120N+01021MA1101391999999MD1810041+9999MW1001REMSYN088AAXX  28064 60515 33560 22820 10113 20005 40142 58004 82500 333 01000 20102 82626 95900;MET045DAAD 280600Z 28020KT 9999 FEW026 11/01 Q1014;EQDQ01+000000PRSWM2Q02  00002PRCP99
0139605150999992000042807004+35330+004200FM-15+0461DAAD V0202801N010312200019N0112651N1+01201+00001999999ADDGA1021+007809999GF102991999999999999999999MA1101391999999MW1001REMMET045DAAD 280700Z 28020KT 9999 FEW026 12/00 Q1014;EQDQ01+000000PRSWM2
0139605150999992000042808004+35330+004200FM-15+0461DAAD V0202601N009312200019N0112651N1+01401+00001999999ADDGA1021+007809999GF102991999999999999999999MA1101391999999MW1001REMMET045DAAD 280800Z 26018KT 9999 FEW026 14/00 Q1014;EQDQ01+000000PRSWM2
0236605150999992000042809004+35330+004200SY-MT+0461DAAD V0202801N007212200019N0100001N1+01451-00181101481ADDGA1021+007809999GF103991031081008001001001MA1101391999999MD1110041+9999MW1001REMSYN076AAXX  28094 60515 42560 32814 10145 21018 40148 51004 83800 333 83826 95900;MET046DAAD 280900Z 28014KT 9999 SCT026 15/M02 Q1014;EQDQ01+000000PRSWM2
0140605150999992000042810004+35330+004200FM-15+0461DAAD V0202601N010312200019N0112651N1+01601-00201999999ADDGA1021+007809999GF104991999999999999999999MA1101391999999MW1001REMMET046DAAD 281000Z 26020KT 9999 SCT026 16/M02 Q1014;EQDQ01+000000PRSWM2
0140605150999992000042811004+35330+004200FM-15+0461DAAD V0202801N010310078019N0112651N1+01701+00001999999ADDGA1071+007809999GF107991999999999999999999MA1101391999999MW1001REMMET046DAAD 281100Z 28020KT 9999 BKN026 17/M00 Q1014;EQDQ01+000000PRSWM2
0284605150999992000042812004+35330+004200SY-MT+0461DAAD V0202801N010310078019N0100001N1+01731+00001101431ADDAA199000091GA1071+007809999GF199999061081008001001001MA1101391999999MD1810031+9999MW1001REMSYN082AAXX  28124 60515 32560 62820 10173 20000 40143 58003 86800 333 0//00 86826 95900;MET045DAAD 281200Z 28020KT 9999 BKN026 17/00 Q1014;EQDQ01+000062SCOTCVQ02+000000PRSWM2Q03  00002PRCP99
0140605150999992000042813004+35330+004200FM-15+0461DAAD V0202801N013410078019N0080001N1+01901-00101999999ADDGA1071+007809999GF107991999999999999999999MA1101391999999MW1001REMMET046DAAD 281300Z 28026KT 8000 BKN026 19/M01 Q1014;EQDQ01+000000PRSWM2
0139605150999992000042814004+35330+004200FM-15+0461DAAD V0203001N013410078019N0112651N1+01801+00101999999ADDGA1071+007809999GF107991999999999999999999MA1101391999999MW1001REMMET045DAAD 281400Z 30026KT 9999 BKN026 18/01 Q1014;EQDQ01+000000PRSWM2
0251605150999992000042815004+35330+004200SY-MT+0461DAAD V0203001N010310078019N0100001N1+01801+00021101431ADDGA1071+007809999GF199999051081008001001001MA1101391999999MD1010021+9999MW1001REMSYN076AAXX  28154 60515 42560 53020 10180 20002 40143 50002 85800 333 85826 95900;MET045DAAD 281500Z 30020KT 9999 BKN026 18/00 Q1014;EQDQ01+000052SCOTCVQ02+000000PRSWM2
0140605150999992000042816004+35330+004200FM-15+0461DAAD V0203001N010310078019N0112651N1+01801-00101999999ADDGA1071+007809999GF107991999999999999999999MA1101391999999MW1001REMMET046DAAD 281600Z 30020KT 9999 BKN026 18/M01 Q1014;EQDQ01+000000PRSWM2
0140605150999992000042817004+35330+004200FM-15+0461DAAD V0203001N009312200019N0112651N1+01801+00001999999ADDGA1021+007809999GF104991999999999999999999MA1101491999999MW1001REMMET046DAAD 281700Z 30018KT 9999 SCT026 18/M00 Q1015;EQDQ01+000000PRSWM2
0281605150999992000042818004+35330+004200SY-MT+0461DAAD V0203401N009312200019N0100001N1+01691+00101101621ADDAA199000091GA1021+007809999GF103991031081008001001001KA1120M+01901MA1101591999999MD1310161+9999MW1001REMSYN082AAXX  28184 60515 32560 33418 10169 20010 40162 53016 83800 333 10190 83826 95900;MET045DAAD 281800Z 34018KT 9999 SCT026 17/01 Q1016;EQDQ01+000000PRSWM2Q02  00002PRCP99
0293605150999992000042906004+35330+004200SY-MT+0461DAAD V0202001N002112200019N0100001N1+00801+00191101991ADDAA199000091GA1021+069009009GF102991001001999999001021IA2240+00309KA1120N+00501MA1101901999999MD1510041+9999MW1001REMSYN088AAXX  29064 60515 33960 22004 10080 20019 40199 55004 80002 333 00300 20050 82073 95900;MET039DAAD 290600Z 20004KT CAVOK 08/02 Q1019;EQDQ01+000000PRSWM2Q02  00002PRCP99
0091605150999992000042907004+35330+004200FM-15+0461DAAD V0202601N00101220001CN0099001N1+01301+00201999999ADDMA1102001999999MW1001REMMET039DAAD 290700Z 26002KT CAVOK 13/02 Q1020;EQDQ01+000000PRSWM2
0091605150999992000042908004+35330+004200FM-15+0461DAAD V0203601N00101220001CN0099001N1+01401+00301999999ADDMA1102001999999MW1001REMMET039DAAD 290800Z 36002KT CAVOK 14/03 Q1020;EQDQ01+000000PRSWM2
0144605150999992000042909004+35330+004200FM-12+0461DAAD V0200801N001010900019N0100001N1+01471+00211102071ADDGA1041+024009039GF105991041001022501031021MD1210091+9999REMSYN076AAXX  29094 60515 42860 50802 10147 20021 40207 52009 84032 333 84358 95900;
0091605150999992000042910004+35330+004200FM-15+0461DAAD V0200201N00211220001CN0099001N1+01601+00201999999ADDMA1102001999999MW1001REMMET039DAAD 291000Z 02004KT CAVOK 16/02 Q1020;EQDQ01+000000PRSWM2
0091605150999992000042911004+35330+004200FM-15+0461DAAD V0209999C00001220001CN0099001N1+01701+00201999999ADDMA1102001999999MW1001REMMET039DAAD 291100Z 00000KT CAVOK 17/02 Q1020;EQDQ01+000000PRSWM2
0263605150999992000042912004+35330+004200SY-MT+0461DAAD V0200401N002112200019N0100001N1+01921-00341101951ADDAA199000091GA1021+060009009GF102991001001999999001021MA1101901999999MD1810091+9999MW1001REMSYN082AAXX  29124 60515 32960 20404 10192 21034 40195 58009 80002 333 0//00 82070 95900;MET040DAAD 291200Z 04004KT CAVOK 19/M03 Q1019;EQDQ01+000000PRSWM2Q02  00002PRCP99
0092605150999992000042913004+35330+004200FM-15+0461DAAD V0200801N00101220001CN0099001N1+02001-00401999999ADDMA1101801999999MW1001REMMET040DAAD 291300Z 08002KT CAVOK 20/M04 Q1018;EQDQ01+000000PRSWM2
0217605150999992000042915004+35330+004200SY-MT+0461DAAD V0201301N003112200019N0100001N1+02321+00081999999ADDGF100991001001999999001001MA1101591092701MD1710191+9999ME1314919MW1001REMSYN070AAXX  29154 60515 42960 01306 10232 20008 39270 48491 57019 333 95900;MET040DAAD 291500Z 22004KT CAVOK 22/M07 Q1016;EQDQ01+000000PRSWM2
0092605150999992000042916004+35330+004200FM-15+0461DAAD V0200801N00311220001CN0099001N1+02301-00501999999ADDMA1101591999999MW1001REMMET040DAAD 291600Z 08006KT CAVOK 23/M05 Q1016;EQDQ01+000000PRSWM2
0092605150999992000042917004+35330+004200FM-15+0461DAAD V0201001N00311220001CN0099001N1+02301-00301999999ADDMA1101591999999MW1001REMMET040DAAD 291700Z 10006KT CAVOK 23/M03 Q1016;EQDQ01+000000PRSWM2
0276605150999992000042918004+35330+004200SY-MT+0461DAAD V0200801N004112200019N0100001N1+02191-00471101641ADDAA199000091GA1021+060009009GF102991001001999999001021KA1120M+02281MA1101591999999MD1610051+9999MW1001REMSYN082AAXX  29184 60515 32960 20808 10219 21047 40164 56005 80002 333 10228 82070 95900;MET040DAAD 291800Z 08008KT CAVOK 22/M05 Q1016;EQDQ01+000000PRSWM2Q02  00002PRCP99
0266605150999992000043006004+35330+004200SY-MT+0461DAAD V0201201N002112200019N0100001N1+00961-00321101811ADDAA199000091GF100991001001999999001001IA2240+00609KA1120N+00821MA1101801999999MD1310011+9999MW1001REMSYN076AAXX  30064 60515 33960 01204 10096 21032 40181 53001 333 00600 20082 95900;MET040DAAD 300600Z 12004KT CAVOK 10/M03 Q1018;EQDQ01+000000PRSWM2Q02  00002PRCP99
0091605150999992000043007004+35330+004200FM-15+0461DAAD V0203601N00211220001CN0099001N1+01401+00201999999ADDMA1101801999999MW1001REMMET039DAAD 300700Z 36004KT CAVOK 14/02 Q1018;EQDQ01+000000PRSWM2
0092605150999992000043008004+35330+004200FM-15+0461DAAD V0200201N00311220001CN0099001N1+01601-00301999999ADDMA1101801999999MW1001REMMET040DAAD 300800Z 02006KT CAVOK 16/M03 Q1018;EQDQ01+000000PRSWM2
0229605150999992000043009004+35330+004200SY-MT+0461DAAD V0202801N002112200019N0100001N1+01921+00061101841ADDGA1031+060009019GF103991001001999999001021MA1101801999999MD1110031+9999MW1001REMSYN076AAXX  30094 60515 42960 32804 10192 20006 40184 51003 80002 333 83070 95900;MET039DAAD 300900Z 28004KT CAVOK 19/01 Q1018;EQDQ01+000000PRSWM2
0091605150999992000043010004+35330+004200FM-15+0461DAAD V0203001N00411220001CN0099001N1+02101+00101999999ADDMA1101691999999MW1001REMMET039DAAD 301000Z 30008KT CAVOK 21/01 Q1017;EQDQ01+000000PRSWM2
0091605150999992000043011004+35330+004200FM-15+0461DAAD V0200801N00311220001CN0099001N1+02401+00201999999ADDMA1101691999999MW1001REMMET039DAAD 301100Z 08006KT CAVOK 24/02 Q1017;EQDQ01+000000PRSWM2
0262605150999992000043012004+35330+004200SY-MT+0461DAAD V0200801N004112200019N0100001N1+02421+00211101581ADDAA199000091GA1031+060009009GF103991001001999999001021MA1101491999999MD1810281+9999MW1001REMSYN082AAXX  30124 60515 32960 30808 10242 20021 40158 58028 80002 333 0//00 83070 95900;MET039DAAD 301200Z 08008KT CAVOK 24/02 Q1015;EQDQ01+000000PRSWM2Q02  00002PRCP99
0091605150999992000043013004+35330+004200FM-15+0461DAAD V0200601N00411220001CN0099001N1+02601+00301999999ADDMA1101491999999MW1001REMMET039DAAD 301300Z 06008KT CAVOK 26/03 Q1015;EQDQ01+000000PRSWM2
0091605150999992000043014004+35330+004200FM-15+0461DAAD V0200801N00511220001CN0099001N1+02701+00301999999ADDMA1101391999999MW1001REMMET039DAAD 301400Z 08010KT CAVOK 27/03 Q1014;EQDQ01+000000PRSWM2
0230605150999992000043015004+35330+004200SY-MT+0461DAAD V0200801N008210600019N0100001N1+02651-00041101281ADDGA1051+060009019GF105991001001999999001021MA1101191999999MD1710261+9999MW1001REMSYN076AAXX  30154 60515 42960 50816 10265 21004 40128 57026 80002 333 85070 95900;MET040DAAD 301500Z 08016KT CAVOK 27/M00 Q1012;EQDQ01+000000PRSWM2
0092605150999992000043016004+35330+004200FM-15+0461DAAD V0200801N00821220001CN0099001N1+02601-00101999999ADDMA1101191999999MW1001REMMET040DAAD 301600Z 08016KT CAVOK 26/M01 Q1012;EQDQ01+000000PRSWM2
0276605150999992000043018004+35330+004200SY-MT+0461DAAD V0201001N008212200019N0100001N1+02361-00021101251ADDAA199000091GA1041+060009019GF104991001001999999001021KA1120M+02661MA1101191999999MD1610071+9999MW1001REMSYN082AAXX  30184 60515 32960 41016 10236 21002 40125 56007 80002 333 10266 84070 95900;MET040DAAD 301800Z 10016KT CAVOK 24/M00 Q1012;EQDQ01+000000PRSWM2Q02  00002PRCP99
0293605150999992000050106004+35330+004200SY-MT+0461DAAD V0203001N002112200019N0100001N1+01301+00171101281ADDAA199000091GA1021+069009009GF102991001001999999001021IA2240+00909KA1120N+01041MA1101191999999MD1310021+9999MW1001REMSYN088AAXX  01064 60515 33960 23004 10130 20017 40128 53002 80002 333 00900 20104 82073 95900;MET039DAAD 010600Z 30004KT CAVOK 13/02 Q1012;EQDQ01+000000PRSWM2Q02  00002PRCP99
0091605150999992000050107004+35330+004200FM-15+0461DAAD V0200201N00511220001CN0099001N1+01501+00101999999ADDMA1101291999999MW1001REMMET039DAAD 010700Z 02010KT CAVOK 15/01 Q1013;EQDQ01+000000PRSWM2
0091605150999992000050108004+35330+004200FM-15+0461DAAD V0200201N00411220001CN0099001N1+01701+00201999999ADDMA1101191999999MW1001REMMET039DAAD 010800Z 02008KT CAVOK 17/02 Q1012;EQDQ01+000000PRSWM2
0091605150999992000050110004+35330+004200FM-15+0461DAAD V0201001N00211220001CN0099001N1+02301+00101999999ADDMA1101191999999MW1001REMMET039DAAD 011000Z 10004KT CAVOK 23/01 Q1012;EQDQ01+000000PRSWM2
0091605150999992000050111004+35330+004200FM-15+0461DAAD V0200801N00411220001CN0099001N1+02401+00101999999ADDMA1101081999999MW1001REMMET039DAAD 011100Z 08008KT CAVOK 24/01 Q1011;EQDQ01+000000PRSWM2
0298605150999992000050112004+35330+004200SY-MT+0461DAAD V0201601N003112200019N0100001N1+02521-00091101051ADDAA199000091GA1021+012009999GA2021+060009999GF103991011021012501001021MA1101021999999MD1710151+9999MW1001REMSYN088AAXX  01124 60515 32660 31606 10252 21009 40105 57015 81202 333 0//00 81840 83070 95900;MET053DAAD 011200Z 16006KT 9999 FEW040 SCT200 25/M01 Q1010;EQDQ01+000000PRSWM2Q02  00002PRCP99
0162605150999992000050113004+35330+004200FM-15+0461DAAD V0201001N005112200019N0112651N1+02701+00001999999ADDGA1021+012009999GA2021+060009999GF104991999999999999999999MA1101021999999MW1001REMMET052DAAD 011300Z 10010KT 9999 FEW040 SCT200 27/00 Q1010;EQDQ01+000000PRSWM2
0162605150999992000050114004+35330+004200FM-15+0461DAAD V0200401N003112200019N0112651N1+02701+00001999999ADDGA1021+009909999GA2021+060009999GF104991999999999999999999MA1100911999999MW1001REMMET052DAAD 011400Z 04006KT 9999 FEW033 SCT200 27/00 Q1009;EQDQ01+000000PRSWM2
0166605150999992000050115004+35330+004200FM-12+0461DAAD V0200801N004110690019N0100001N1+02861-00151100861ADDGA1021+009909089GA2041+069009009GF105991021021012501001021MD1710171+9999REMSYN082AAXX  01154 60515 42660 50808 10286 21015 40086 57017 82202 333 82833 84073 95900;
0163605150999992000050116004+35330+004200FM-15+0461DAAD V0200801N005112200019N0112651N1+02801-00401999999ADDGA1021+009909999GA2021+060009999GF104991999999999999999999MA1100811999999MW1001REMMET053DAAD 011600Z 08010KT 9999 FEW033 SCT200 28/M04 Q1008;EQDQ01+000000PRSWM2
0163605150999992000050117004+35330+004200FM-15+0461DAAD V0200801N005112200019N0112651N1+02801-00601999999ADDGA1021+009009999GA2021+060009999GF104991999999999999999999MA1100811999999MW1001REMMET053DAAD 011700Z 08010KT 9999 SCT030 SCT200 28/M06 Q1008;EQDQ01+000000PRSWM2
0311605150999992000050118004+35330+004200SY-MT+0461DAAD V0201401N004112200019N0100001N1+02691-00331100881ADDAA199000091GA1021+009009999GA2021+060009999GF105991031021008001001021KA1120M+02871MA1100811999999MD1510011+9999MW1001REMSYN088AAXX  01184 60515 32560 51408 10269 21033 40088 55001 83202 333 10287 83830 83070 95900;MET053DAAD 011800Z 14008KT 9999 SCT030 SCT200 27/M04 Q1008;EQDQ01+000000PRSWM2Q02  00002PRCP99
0315605150999992000050206004+35330+004200SY-MT+0461DAAD V0209999C000012200019N0100001N1+01651+00611101351ADDAA199000091GA1011+024009039GA2031+060009009GF103991011001999999071021IA2240+01209KA1120N+01411MA1101291999999MD1310091+9999MW1001REMSYN094AAXX  02064 60515 33960 30000 10165 20061 40135 53009 81072 333 01200 20141 81358 83070 95900;MET039DAAD 020600Z 00000KT CAVOK 17/06 Q1013;EQDQ01+000000PRSWM2Q02  00002PRCP99
0091605150999992000050207004+35330+004200FM-15+0461DAAD V0200801N00311220001CN0099001N1+01901+00401999999ADDMA1101391999999MW1001REMMET039DAAD 020700Z 08006KT CAVOK 19/04 Q1014;EQDQ01+000000PRSWM2
0091605150999992000050208004+35330+004200FM-15+0461DAAD V0201201N00211220001CN0099001N1+02001+00301999999ADDMA1101391999999MW1001REMMET039DAAD 020800Z 12004KT CAVOK 20/03 Q1014;EQDQ01+000000PRSWM2
0213605150999992000050209004+35330+004200SY-MT+0461DAAD V0200801N001012200019N0100001N1+02081+00381101471ADDGF103991001001999999001021MA1101391999999MD1110101+9999MW1001REMSYN076AAXX  02094 60515 42960 30802 10208 20038 40147 51010 80002 333 83070 95900;MET039DAAD 020900Z 08002KT CAVOK 21/04 Q1014;EQDQ01+000000PRSWM2
0091605150999992000050210004+35330+004200FM-15+0461DAAD V0200601N00101220001CN0099001N1+02301+00301999999ADDMA1101391999999MW1001REMMET039DAAD 021000Z 06002KT CAVOK 23/03 Q1014;EQDQ01+000000PRSWM2
0162605150999992000050211004+35330+004200FM-15+0461DAAD V0200801N002112200019N0112651N1+02601+00201999999ADDGA1021+012009999GA2021+060009999GF104991999999999999999999MA1101391999999MW1001REMMET052DAAD 021100Z 08004KT 9999 FEW040 SCT200 26/02 Q1014;EQDQ01+000000PRSWM2
0268605150999992000050212004+35330+004200SY-MT+0461DAAD V0200801N002112200019N0100001N1+02651+00091101411ADDAA199000091GA1021+009909999GF103991031021012501001021MA1101391999999MD1810041+9999MW1001REMSYN082AAXX  02124 60515 32660 30804 10265 20009 40141 58004 83202 333 0//00 83833 95900;MET045DAAD 021200Z 08004KT 9999 SCT033 27/01 Q1014;EQDQ01+000000PRSWM2Q02  00002PRCP99
0139605150999992000050214004+35330+004200FM-15+0461DAAD V0200801N003112200019N0112651N1+02901+00001999999ADDGA1021+009909999GF104991999999999999999999MA1101291999999MW1001REMMET045DAAD 021400Z 08006KT 9999 SCT033 29/00 Q1013;EQDQ01+000000PRSWM2
0235605150999992000050215004+35330+004200SY-MT+0461DAAD V0200801N003112200019N0100001N1+02891+00081101271ADDGA1021+009909999GF104991041021012501001001MA1101191999999MD1710141+9999MW1001REMSYN076AAXX  02154 60515 42660 40806 10289 20008 40127 57014 84200 333 84833 95900;MET045DAAD 021500Z 08006KT 9999 SCT033 29/01 Q1012;EQDQ01+000000PRSWM2
0139605150999992000050216004+35330+004200FM-15+0461DAAD V0201201N002112200019N0112651N1+02801+00001999999ADDGA1021+009909999GF104991999999999999999999MA1101191999999MW1001REMMET045DAAD 021600Z 12004KT 9999 SCT033 28/00 Q1012;EQDQ01+000000PRSWM2
0162605150999992000050217004+35330+004200FM-15+0461DAAD V0201001N004112200019N0112651N1+02801+00101999999ADDGA1021+009909999GA2021+060009999GF104991999999999999999999MA1101191999999MW1001REMMET052DAAD 021700Z 10008KT 9999 SCT033 SCT200 28/01 Q1012;EQDQ01+000000PRSWM2
0310605150999992000050218004+35330+004200SY-MT+0461DAAD V0201001N00311090001CN0100001N1+02701+00201101291ADDAA199000091GA1021+009909999GA2021+060009999GF105991031021012501001021KA1120M+02921MA1101191999999MD1310021+9999MW1001REMSYN088AAXX  02184 60515 32660 51006 10270 20020 40129 53002 83202 333 10292 83833 83070 95900;MET052DAAD 021800Z 10006KT 9999 SCT033 SCT200 27/02 Q1012;EQDQ01+000000PRSWM2Q02  00002PRCP99
0293605150999992000050306004+35330+004200SY-MT+0461DAAD V0202201N002112200019N0100001N1+01451+00251101501ADDAA199000091GA1021+024009039GF102991021001022501081001IA2240+01109KA1120N+01241MA1101491999999MD1310011+9999MW1001REMSYN088AAXX  03064 60515 33860 22204 10145 20025 40150 53001 82080 333 01100 20124 82358 95900;MET039DAAD 030600Z 22004KT CAVOK 15/03 Q1015;EQDQ01+000000PRSWM2Q02  00002PRCP99
0091605150999992000050308004+35330+004200FM-15+0461DAAD V0200201N00101220001CN0099001N1+02001+00301999999ADDMA1101691999999MW1001REMMET039DAAD 030800Z 02002KT CAVOK 20/03 Q1017;EQDQ01+000000PRSWM2
0201605150999992000050309004+35330+004200SY-MT+0461DAAD V0200601N001012200019N0100001N1+02311+00431101821ADDGF100991001001999999001001MA1101801999999MD1210241+9999MW1001REMSYN064AAXX  03094 60515 42960 00602 10231 20043 40182 52024 333 95900;MET039DAAD 030900Z 06002KT CAVOK 23/04 Q1018;EQDQ01+000000PRSWM2
0091605150999992000050310004+35330+004200FM-15+0461DAAD V0203401N00101220001CN0099001N1+02501+00301999999ADDMA1101691999999MW1001REMMET039DAAD 031000Z 34002KT CAVOK 25/03 Q1017;EQDQ01+000000PRSWM2
0091605150999992000050311004+35330+004200FM-15+0461DAAD V0209999C00001220001CN0099001N1+02801+00101999999ADDMA1101591999999MW1001REMMET039DAAD 031100Z 00000KT CAVOK 28/01 Q1016;EQDQ01+000000PRSWM2
0268605150999992000050312004+35330+004200SY-MT+0461DAAD V0201401N003112200019N0100001N1+02921+00111101591ADDAA199000091GA1021+012009999GF102991021021012501001001MA1101491999999MD1810121+9999MW1001REMSYN082AAXX  03124 60515 32660 21406 10292 20011 40159 58012 82200 333 0//00 82840 95900;MET045DAAD 031200Z 14006KT 9999 FEW040 29/01 Q1015;EQDQ01+000000PRSWM2Q02  00002PRCP99
0144605150999992000050315004+35330+004200FM-12+0461DAAD V0200801N002112200019N0100001N1+03141-00111101381ADDGA1031+009009089GF103991031021008001001001MD1710201+9999REMSYN076AAXX  03154 60515 42560 30804 10314 21011 40138 57020 83200 333 83830 95900;
0140605150999992000050316004+35330+004200FM-15+0461DAAD V0201601N006212200019N0112651N1+03001-00101999999ADDGA1021+009009999GF104991999999999999999999MA1101291999999MW1001REMMET046DAAD 031600Z 16012KT 9999 SCT030 30/M01 Q1013;EQDQ01+000000PRSWM2
0282605150999992000050318004+35330+004200SY-MT+0461DAAD V0201801N007212200019N0100001N1+02871-00321101411ADDAA199000091GA1021+009009999GF103991031021012501001001KA1120M+03201MA1101391999999MD1310021+9999MW1001REMSYN082AAXX  03184 60515 32660 31814 10287 21032 40141 53002 83200 333 10320 83830 95900;MET046DAAD 031800Z 18014KT 9999 SCT030 29/M03 Q1014;EQDQ01+000000PRSWM2Q02  00002PRCP99
0293605150999992000050406004+35330+004200SY-MT+0461DAAD V0209999C000012200019N0100001N1+01711+00461101591ADDAA199000091GA1031+024009039GF103991031001999999081001IA2240+01309KA1120N+01481MA1101491999999MD1310061+9999MW1001REMSYN088AAXX  04064 60515 33960 30000 10171 20046 40159 53006 83080 333 01300 20148 83358 95900;MET039DAAD 040600Z 00000KT CAVOK 17/05 Q1015;EQDQ01+000000PRSWM2Q02  00002PRCP99
0091605150999992000050407004+35330+004200FM-15+0461DAAD V0200401N00211220001CN0099001N1+02101+00501999999ADDMA1101591999999MW1001REMMET039DAAD 040700Z 04004KT CAVOK 21/05 Q1016;EQDQ01+000000PRSWM2
0091605150999992000050408004+35330+004200FM-15+0461DAAD V0200601N00211220001CN0099001N1+02301+00401999999ADDMA1101591999999MW1001REMMET039DAAD 040800Z 06004KT CAVOK 23/04 Q1016;EQDQ01+000000PRSWM2
0213605150999992000050409004+35330+004200SY-MT+0461DAAD V0209999C000012200019N0100001N1+02571+00501101641ADDGF101991011001999999081001MA1101591999999MD1010071+9999MW1001REMSYN076AAXX  04094 60515 42960 10000 10257 20050 40164 50007 81080 333 81358 95900;MET039DAAD 040900Z 00000KT CAVOK 26/05 Q1016;EQDQ01+000000PRSWM2
0091605150999992000050410004+35330+004200FM-15+0461DAAD V0201201N00211220001CN0099001N1+02901+00601999999ADDMA1101591999999MW1001REMMET039DAAD 041000Z 12004KT CAVOK 29/06 Q1016;EQDQ01+000000PRSWM2
0091605150999992000050411004+35330+004200FM-15+0461DAAD V0209999C00001220001CN0099001N1+03001+00501999999ADDMA1101491999999MW1001REMMET039DAAD 041100Z 00000KT CAVOK 30/05 Q1015;EQDQ01+000000PRSWM2
0278605150999992000050412004+35330+004200SY-MT+0461DAAD V0201801N007212200019N0100001N1+03211+00681101411ADDAA199000091GA1011+024009089GF101991011999999999081001MA1101391999999MD1810151+9999MW1001REMSYN082AAXX  04124 60515 32960 11814 10321 20068 40141 58015 81080 333 0//00 81858 95900;MET039DAAD 041200Z 18014KT CAVOK 32/07 Q1014;EQDQ01+000000PRSWM2Q02  00002PRCP99Q03    003SCOLCG
0139605150999992000050413004+35330+004200FM-15+0461DAAD V0201201N002112200019N0098991N1+03201+00801999999ADDGA1021+012009999GF102991999999999999999999MA1101291999999MW1001REMMET045DAAD 041300Z 12004KT 9899 FEW040 32/08 Q1013;EQDQ01+000000PRSWM2
0139605150999992000050414004+35330+004200FM-15+0461DAAD V0201801N008212200019N0098991N1+03201+00701999999ADDGA1021+012009999GF102991999999999999999999MA1101291999999MW1001REMMET045DAAD 041400Z 18016KT 9899 FEW040 32/07 Q1013;EQDQ01+000000PRSWM2
0235605150999992000050415004+35330+004200SY-MT+0461DAAD V0201801N008212200019N0100001N1+03271+00781101271ADDGA1021+012009999GF102991021021012501001001MA1101191999999MD1710181+9999MW1001REMSYN076AAXX  04154 60515 42660 21816 10327 20078 40127 57018 82200 333 82840 95900;MET045DAAD 041500Z 18016KT 9999 FEW040 33/08 Q1012;EQDQ01+000000PRSWM2
0139605150999992000050416004+35330+004200FM-15+0461DAAD V0201801N010312200019N0112651N1+03201+00601999999ADDGA1021+012009999GF102991999999999999999999MA1101081999999MW1001REMMET045DAAD 041600Z 18020KT 9999 FEW040 32/06 Q1011;EQDQ01+000000PRSWM2
0247605150999992000050418004+35330+004200SY-MT+0461DAAD V0201601N009312200019N0100001N1+03071+00551101151ADDAA199000091GF100991001001999999001001KA1120M+03321MA1101081999999MD1710141+9999MW1001REMSYN070AAXX  04184 60515 32960 01618 10307 20055 40115 57014 333 10332 95900;MET039DAAD 041800Z 16018KT CAVOK 31/06 Q1011;EQDQ01+000000PRSWM2Q02  00002PRCP99
0299605150999992000050506004+35330+004200SY-MT+0461DAAD V0201401N005112200019N0100001N1+02461+01371100871ADDAA199000091GA1021+009909999GF103991021021012501001021IA2240+02009KA1120N+02371MA1100811999999MD1610081+9999MW1001REMSYN088AAXX  05064 60515 33660 31410 10246 20137 40087 56008 82202 333 02000 20237 82833 95900;MET045DAAD 050600Z 14010KT 9999 FEW033 25/14 Q1008;EQDQ01+000000PRSWM2Q02  00002PRCP99
0156605150999992000050507004+35330+004200FM-15+0461DAAD V0201001N003112200019N0112651N1+02601-00202999999ADDGA1021+009909999GF102991999999999999999999MA1100911999999MW1001REMMET046DAAD 050700Z 10006KT 9999 FEW033 26/M02 Q1009;EQDQ01-000203ATOD  Q02+000000PRSWM2
0140605150999992000050508004+35330+004200FM-15+0461DAAD V0200201N002112200019N0112651N1+02801-00101999999ADDGA1021+009009999GF104991999999999999999999MA1100911999999MW1001REMMET046DAAD 050800Z 02004KT 9999 SCT030 28/M01 Q1009;EQDQ01+000000PRSWM2
0140605150999992000050509004+35330+004200FM-15+0461DAAD V0202001N004112200019N0112651N1+03001-00201999999ADDGA1021+009009999GF104991999999999999999999MA1100911999999MW1001REMMET046DAAD 050900Z 20008KT 9999 SCT030 30/M02 Q1009;EQDQ01+000000PRSWM2
0140605150999992000050510004+35330+004200FM-15+0461DAAD V0201801N006212200019N0112651N1+03101-00101999999ADDGA1021+009009999GF104991999999999999999999MA1100911999999MW1001REMMET046DAAD 051000Z 18012KT 9999 SCT030 31/M01 Q1009;EQDQ01+000000PRSWM2
0180605150999992000050512004+35330+004200FM-12+0461DAAD V0202201N007219999999N0100001N1+03291-00091100771ADDAA199000091GA1041+009009089GF106991041021999999001021MD1810151+9999REMSYN082AAXX  05124 60515 32960 62214 10329 21009 40077 58015 84202 333 0//00 84830 95900;EQDQ01  00002PRCP99
0140605150999992000050513004+35330+004200FM-15+0461DAAD V0202201N007212200019N0112651N1+03401-00401999999ADDGA1021+009009999GF104991999999999999999999MA1100711999999MW1001REMMET046DAAD 051300Z 22014KT 9999 SCT030 34/M04 Q1007;EQDQ01+000000PRSWM2
0221605150999992000050515004+35330+004200SY-MT+0461DAAD V0202201N008212200019N0100001N1+03411-00271999999ADDGA1021+009009999GF104991999999008001999999MA1100411999999MW1001REMSYN075AAXX  05154 60515 42560 42216 10341 21027 4004 57024 83202 333 83830 95900;MET046DAAD 051500Z 22016KT 9999 SCT030 35/M03 Q1004;EQDQ01+000000PRSWM2
0140605150999992000050516004+35330+004200FM-15+0461DAAD V0202201N011312200019N0112651N1+03401-00301999999ADDGA1021+009009999GF104991999999999999999999MA1100411999999MW1001REMMET046DAAD 051600Z 22022KT 9999 SCT030 34/M03 Q1004;EQDQ01+000000PRSWM2
0139605150999992000050517004+35330+004200FM-15+0461DAAD V0203001N008210090019N0112651N1+03301+00401999999ADDGA1071+009009999GF107991999999999999999999MA1100511999999MW1001REMMET045DAAD 051700Z 30016KT 9999 BKN030 33/04 Q1005;EQDQ01+000000PRSWM2
0281605150999992000050518004+35330+004200SY-MT+0461DAAD V0203001N005112200019N0100001N1+03061+00531100661ADDAA199000091GA1021+009009999GF104991041021008001001001KA1120M+03551MA1100611999999MD1310151+9999MW1001REMSYN082AAXX  05184 60515 32560 43010 10306 20053 40066 53015 84200 333 10355 84830 95900;MET045DAAD 051800Z 30010KT 9999 SCT030 31/05 Q1006;EQDQ01+000000PRSWM2Q02  00002PRCP99
0293605150999992000050606004+35330+004200SY-MT+0461DAAD V0203601N002112200019N0100001N1+01741+00681101001ADDAA199000091GA1031+060009009GF103991001001999999001021IA2240+01309KA1120N+01591MA1101021999999MD1710091+9999MW1001REMSYN088AAXX  06064 60515 33960 33604 10174 20068 40100 57009 80002 333 01300 20159 83070 95900;MET039DAAD 060600Z 36004KT CAVOK 17/07 Q1010;EQDQ01+000000PRSWM2Q02  00002PRCP99
0091605150999992000050607004+35330+004200FM-15+0461DAAD V0200801N00211220001CN0099001N1+01801+00901999999ADDMA1101021999999MW1001REMMET039DAAD 060700Z 08004KT CAVOK 18/09 Q1010;EQDQ01+000000PRSWM2
0091605150999992000050608004+35330+004200FM-15+0461DAAD V0201001N00211220001CN0099001N1+02902+00901999999ADDMA1100911999999MW1001REMMET039DAAD 060800Z 10004KT CAVOK 29/09 Q1009;EQDQ01+000000PRSWM2
0229605150999992000050609004+35330+004200SY-MT+0461DAAD V0201601N002112200019N0100001N1+02291+00821100971ADDGA1021+060009019GF102991001001999999001021MA1100911999999MD1810041+9999MW1001REMSYN076AAXX  06094 60515 42960 21604 10229 20082 40097 58004 80002 333 82070 95900;MET039DAAD 060900Z 16004KT CAVOK 23/08 Q1009;EQDQ01+000000PRSWM2
0091605150999992000050610004+35330+004200FM-15+0461DAAD V0201001N00211220001CN0099001N1+02501+00801999999ADDMA1100911999999MW1001REMMET039DAAD 061000Z 10004KT CAVOK 25/08 Q1009;EQDQ01+000000PRSWM2
0139605150999992000050611004+35330+004200FM-15+0461DAAD V0200401N001012200019N0080001N1+02801+00901999999ADDGA1021+009909999GF102991999999999999999999MA1100811999999MW1001REMMET045DAAD 061100Z 04002KT 8000 FEW033 28/09 Q1008;EQDQ01+000000PRSWM2
0268605150999992000050612004+35330+004200SY-MT+0461DAAD V0209999C000012200019N0080001N1+03141+00461100641ADDAA199000091GA1021+009909999GF102991011021012501001021MA1100611999999MD1710261+9999MW1001REMSYN082AAXX  06124 60515 32658 20000 10314 20046 40064 57026 81202 333 0//00 81833 95900;MET045DAAD 061200Z 00000KT 8000 FEW033 31/05 Q1006;EQDQ01+000000PRSWM2Q02  00002PRCP99
0139605150999992000050613004+35330+004200FM-15+0461DAAD V0202001N005112200019N0080001N1+03401+00801999999ADDGA1021+009909999GF102991999999999999999999MA1100511999999MW1001REMMET045DAAD 061300Z 20010KT 8000 FEW033 34/08 Q1005;EQDQ01+000000PRSWM2
0156605150999992000050614004+35330+004200FM-15+0461DAAD V0202201N011312200019N9999999N1+03401-00301999999ADDGA1021+009909999GF102991999999999999999999MA1100411999999MW1001REMMET046DAAD 061400Z 22022KT 7000 FEW033 34/M03 Q1004;EQDQ01+070002VODIS Q02+000000PRSWM2
0252605150999992000050615004+35330+004200SY-MT+0461DAAD V0202201N009312200019N9999999N1+03401-00331100431ADDGA1021+009909999GF102991021021012501001001MA1100411999999MD1710201+9999MW1001REMSYN076AAXX  06154 60515 42657 22218 10340 21033 40043 57020 82200 333 82833 95900;MET046DAAD 061500Z 22018KT 7000 FEW033 34/M03 Q1004;EQDQ01+070002VODIS Q02+000000PRSWM2
0156605150999992000050616004+35330+004200FM-15+0461DAAD V0202001N004112200019N9999999N1+03401-00401999999ADDGA1021+009909999GF104991999999999999999999MA1100311999999MW1001REMMET046DAAD 061600Z 20008KT 7000 SCT033 34/M04 Q1003;EQDQ01+070002VODIS Q02+000000PRSWM2
0140605150999992000050617004+35330+004200FM-15+0461DAAD V0202001N004112200019N0070001N1+03401-00401999999ADDGA1021+009909999GF104991999999999999999999MA1100311999999MW1001REMMET046DAAD 061700Z 20008KT 7000 SCT033 34/M04 Q1003;EQDQ01+000000PRSWM2
0298605150999992000050618004+35330+004200SY-MT+0461DAAD V0202201N010312200019N9999999N1+03181-00341100381ADDAA199000091GA1021+009909999GF104991041021012501001001KA1120M+03471MA1100311999999MD1510071+9999MW1001REMSYN082AAXX  06184 60515 32656 42220 10318 21034 40038 55007 84200 333 10347 84833 95900;MET046DAAD 061800Z 22020KT 6000 SCT033 32/M03 Q1003;EQDQ01+060002VODIS Q02+000000PRSWM2Q03  00002PRCP99
0299605150999992000050706004+35330+004200SY-MT+0461DAAD V0202001N004112200019N0080001N1+01951+00831100921ADDAA199000091GA1021+024009999GF102991021001022501081001IA2240+01709KA1120N+01821MA1100911999999MD1110091+9999MW1001REMSYN088AAXX  07064 60515 33858 22008 10195 20083 40092 51009 82080 333 01700 20182 82358 95900;MET045DAAD 070600Z 22008KT 8000 FEW080 20/08 Q1009;EQDQ01+000000PRSWM2Q02  00002PRCP99
0139605150999992000050707004+35330+004200FM-15+0461DAAD V0202401N005112200019N0080001N1+02201+00701999999ADDGA1021+024009999GF102991999999999999999999MA1100911999999MW1001REMMET045DAAD 070700Z 24010KT 8000 FEW080 22/07 Q1009;EQDQ01+000000PRSWM2
0120605150999992000050708004+35330+004200FM-15+0461DAAD V0202601N005112200019N0080001N1+02301+00701999999ADDGF100991999999999999999999MA1101021999999MW1001REMMET042DAAD 070800Z 26010KT 8000 SKC 23/07 Q1010;EQDQ01+000000PRSWM2
0204605150999992000050709004+35330+004200SY-MT+0461DAAD V0203601N001012200019N0080001N1+02451+00681100891ADDGF100991001001999999001001MA1100811999999MD1010091+9999MW1001REMSYN064AAXX  07094 60515 42958 03602 10245 20068 40089 50009 333 95900;MET042DAAD 070900Z 36002KT 8000 SKC 25/07 Q1008;EQDQ01+000000PRSWM2
0120605150999992000050710004+35330+004200FM-15+0461DAAD V0200401N002112200019N0080001N1+02601+00501999999ADDGF100991999999999999999999MA1101021999999MW1001REMMET042DAAD 071000Z 04004KT 8000 SKC 26/05 Q1010;EQDQ01+000000PRSWM2
0139605150999992000050711004+35330+004200FM-15+0461DAAD V0200601N005112200019N0080001N1+02701+00701999999ADDGA1021+009009999GF102991999999999999999999MA1101021999999MW1001REMMET045DAAD 071100Z 06010KT 8000 FEW030 27/07 Q1010;EQDQ01+000000PRSWM2
0321605150999992000050712004+35330+004200SY-MT+0461DAAD V0203601N002112200019N0080001N1+02701+00651100991ADDAA199000091AY101061AY211061GA1021+009909099GF103991031091008001001021MA1100911999999MD1810031+9999MW1171REMSYN094AAXX  07124 60515 31558 33604 10270 20065 40099 58003 71701 83902 333 0//00 82830 82933 95900;MET054DAAD 071200Z 36004KT 8000 FRE030 FEW033CB 27/07 Q1009;EQDQ01+000000PRSWM2Q02  00002PRCP99Q03    003PRSWM1
0169605150999992000050713004+35330+004200FM-15+0461DAAD V0200401N001012200019N0080001N1+02601+00901999999ADDGA1021+009009999GA2021+009909099GF102991999999999999999999MA1100911999999MW1001REMMET059DAAD 071300Z 04002KT 8000 SCT030 FEW033CB 26/09 Q1009 RETS;EQDQ01+000000PRSWM2
0164605150999992000050714004+35330+004200FM-15+0461DAAD V0200201N002112200019N0080001N1+02901+00701999999ADDGA1021+009009999GA2021+009909099GF102991999999999999999999MA1100911999999MW1001REMMET054DAAD 071400Z 02004KT 8000 FEW030 FEW033CB 29/07 Q1009;EQDQ01+000000PRSWM2
0260605150999992000050715004+35330+004200SY-MT+0461DAAD V0201001N002112200019N0080001N1+03001+00691100841ADDGA1021+009009999GA2021+009909099GF103991031091008001001001MA1100811999999MD1810141+9999MW1001REMSYN076AAXX  07154 60515 42558 31004 10300 20069 40084 58014 83900 333 82830 82933;MET054DAAD 071500Z 10004KT 8000 FEW030 FEW033CB 30/07 Q1008;EQDQ01+000000PRSWM2
0139605150999992000050716004+35330+004200FM-15+0461DAAD V0201201N003112200019N0080001N1+03101+00701999999ADDGA1021+009009999GF102991999999999999999999MA1100811999999MW1001REMMET045DAAD 071600Z 12006KT 8000 FEW030 31/07 Q1008;EQDQ01+000000PRSWM2
0139605150999992000050717004+35330+004200FM-15+0461DAAD V0200601N005112200019N0080001N1+03001+00901999999ADDGA1021+009009999GF102991999999999999999999MA1100711999999MW1001REMMET045DAAD 071700Z 06010KT 8000 FEW030 30/09 Q1007;EQDQ01+000000PRSWM2
0271605150999992000050718004+35330+004200SY-MT+0461DAAD V0200401N005112200019N0080001N1+02761+00891100821ADDAA112000591GA1021+009009999GF103991021021008001001021KA1120M+03071MA1100811999999MD1510051+9999MW1001REMSYN088AAXX  07184 60515 12558 30410 10276 20089 40082 55005 69952 82202 333 10307 82830 95900;MET045DAAD 071800Z 04010KT 8000 FEW030 28/09 Q1008;EQDQ01+000000PRSWM2
0265605150999992000050806004+35330+004200SY-MT+0461DAAD V0209999C000012200019N0100001N1+01591+00971101321ADDAA199000091GF100991001001999999001001IA2240+01109KA1120N+01331MA1101291999999MD1310111+9999MW1001REMSYN076AAXX  08064 60515 32960 00000 10159 20097 40132 53011 333 01100 20133 95900;MET039DAAD 080600Z 00000KT CAVOK 16/10 Q1013;EQDQ01+000000PRSWM2Q02  00002PRCP99
0091605150999992000050807004+35330+004200FM-15+0461DAAD V0209999C00001220001CN0099001N1+01901+01001999999ADDMA1101291999999MW1001REMMET039DAAD 080700Z 00000KT CAVOK 19/10 Q1013;EQDQ01+000000PRSWM2
0091605150999992000050808004+35330+004200FM-15+0461DAAD V0209999C00001220001CN0099001N1+02101+01001999999ADDMA1101291999999MW1001REMMET039DAAD 080800Z 00000KT CAVOK 21/10 Q1013;EQDQ01+000000PRSWM2
0201605150999992000050809004+35330+004200SY-MT+0461DAAD V0209999C000012200019N0100001N1+02401+00931101341ADDGF100991001001999999001001MA1101291999999MD1310071+9999MW1001REMSYN064AAXX  08094 60515 42960 00000 10240 20093 40134 53007 333 95900;MET039DAAD 080900Z 00000KT CAVOK 24/09 Q1013;EQDQ01+000000PRSWM2
0091605150999992000050810004+35330+004200FM-15+0461DAAD V0209999C00001220001CN0099001N1+02701+00901999999ADDMA1101291999999MW1001REMMET039DAAD 081000Z 00000KT CAVOK 27/09 Q1013;EQDQ01+000000PRSWM2
0168605150999992000050812004+35330+004200FM-12+0461DAAD V0202101N013412200019N0100001N1+03281-00402101151ADDAA199000091GA1001+999999999GF100991001001999999001001MD1810141+9999REMSYN070AAXX  08124 60515 32960 02126 10328 21040 40115 58014 333 0//00 95900;EQDQ01  00002PRCP99
0140605150999992000050814004+35330+004200FM-15+0461DAAD V0202001N010312200019N0080001N1+03401-00301999999ADDGA1021+009909999GF102991999999999999999999MA1101021999999MW1001REMMET046DAAD 081400Z 20020KT 8000 FEW033 34/M03 Q1010;EQDQ01+000000PRSWM2
0252605150999992000050815004+35330+004200SY-MT+0461DAAD V0201801N010312200019N0080001N1+03351-00211100951ADDGA1021+009909999GF199999011021012501001001MA1100911999999MD1710211+9999MW1001REMSYN076AAXX  08154 60515 42658 11820 10335 21021 40095 57021 81200 333 81833 95900;MET046DAAD 081500Z 18020KT 8000 FEW033 34/M02 Q1009;EQDQ01+000012SCOTCVQ02+000000PRSWM2
0140605150999992000050817004+35330+004200FM-15+0461DAAD V0201601N008212200019N0080001N1+03201-00301999999ADDGA1021+009909999GF104991999999999999999999MA1100811999999MW1001REMMET046DAAD 081700Z 16016KT 8000 SCT033 32/M03 Q1008;EQDQ01+000000PRSWM2
0281605150999992000050818004+35330+004200SY-MT+0461DAAD V0201201N008212200019N0080001N1+03321+00141100831ADDAA199000091GA1021+009909999GF103991031021012501001001KA1120M+03441MA1100811999999MD1610131+9999MW1001REMSYN082AAXX  08184 60515 32658 31216 10332 20014 40083 56013 83200 333 10344 83833 95900;MET045DAAD 081800Z 12016KT 8000 SCT033 33/01 Q1008;EQDQ01+000000PRSWM2Q02  00002PRCP99
0268605150999992000050906004+35330+004200SY-MT+0461DAAD V0200801N002112200019N0080001N1+01901+00991101141ADDAA199000091GF100991001001999999001001IA2240+01409KA1120N+01641MA1101081999999MD1310131+9999MW1001REMSYN076AAXX  09064 60515 33958 00804 10190 20099 40114 53013 333 01400 20164 95900;MET042DAAD 090600Z 08004KT 8000 SKC 19/10 Q1011;EQDQ01+000000PRSWM2Q02  00002PRCP99
0120605150999992000050908004+35330+004200FM-15+0461DAAD V0200201N003112200019N0080001N1+02301+01101999999ADDGF100991999999999999999999MA1101191999999MW1001REMMET042DAAD 090800Z 02006KT 8000 SKC 23/11 Q1012;EQDQ01+000000PRSWM2
0132605150999992000050909004+35330+004200FM-12+0461DAAD V0200801N001012200019N0080001N1+02451+01161101271ADDGA1001+999999999GF100991001001999999001001MD1210091+9999REMSYN064AAXX  09094 60515 42958 00802 10245 20116 40127 52009 333 95900;
0139605150999992000050910004+35330+004200FM-15+0461DAAD V0200801N004112200019N0080001N1+02501+01001999999ADDGA1021+060009999GF102991999999999999999999MA1101191999999MW1001REMMET045DAAD 091000Z 08008KT 8000 FEW200 25/10 Q1012;EQDQ01+000000PRSWM2
0268605150999992000050912004+35330+004200SY-MT+0461DAAD V0200801N005112200019N0080001N1+02941+01001101131ADDAA199000091GA1021+060009999GF103991001001999999001021MA1101081999999MD1810101+9999MW1001REMSYN082AAXX  09124 60515 32958 30810 10294 20100 40113 58010 80002 333 0//00 83070 95900;MET045DAAD 091200Z 08010KT 8000 SCT200 29/10 Q1011;EQDQ01+000000PRSWM2Q02  00002PRCP99
0162605150999992000050913004+35330+004200FM-15+0461DAAD V0200901N005112200019N0080001N1+03101+00801999999ADDGA1021+009909999GA2021+060009999GF104991999999999999999999MA1100911999999MW1001REMMET052DAAD 091300Z 09010KT 8000 FEW033 SCT200 31/08 Q1009;EQDQ01+000000PRSWM2
0264605150999992000050915004+35330+004200SY-MT+0461DAAD V0202401N01131036001CN0080001N1+03401+00321100851ADDGA1021+009909999GA2021+024009999GF107991021021012501031021MA1100811999999MD1710271+9999MW1001REMSYN082AAXX  09154 60515 42658 72422 10340 20032 40085 57027 82232 333 82833 83358 95900;MET052DAAD 091500Z 24022KT 8000 FEW033 SCT080 34/03 Q1008;EQDQ01+000000PRSWM2
0162605150999992000050916004+35330+004200FM-15+0461DAAD V0202201N006212200019N0080001N1+03401+00301999999ADDGA1021+009909999GA2021+024009999GF104991999999999999999999MA1100811999999MW1001REMMET052DAAD 091600Z 22012KT 8000 FEW033 SCT080 34/03 Q1008;EQDQ01+000000PRSWM2
0139605150999992000050917004+35330+004200FM-15+0461DAAD V0202201N010312200019N0080001N1+03401+00801999999ADDGA1021+009909999GF102991999999999999999999MA1100711999999MW1001REMMET045DAAD 091700Z 22020KT 8000 FEW033 34/08 Q1007;EQDQ01+000000PRSWM2
0310605150999992000050918004+35330+004200SY-MT+0461DAAD V0209999C00001090001CN0080001N1+03341+00861100731ADDAA199000091GA1021+009909999GA2021+060009999GF105991021021012501001021KA1120M+03451MA1100711999999MD1610111+9999MW1001REMSYN088AAXX  09184 60515 32658 52200 10334 20086 40073 56011 82202 333 10345 82833 83070 95900;MET052DAAD 091800Z 22020KT 8000 FEW033 SCT200 33/09 Q1007;EQDQ01+000000PRSWM2Q02  00002PRCP99
0136605150999992000051006004+35330+004200FM-15+0461DAAD V0201801N003112200019N9999999N1+02301+01601999999ADDGF100991999999999999999999MA1101021999999MW1001REMMET042DAAD 100600Z 18006KT 7000 SKC 23/16 Q1010;EQDQ01+070002VODIS Q02+000000PRSWM2
0136605150999992000051009004+35330+004200FM-15+0461DAAD V0202801N005112200019N9999999N1+02401+01501999999ADDGF100991999999999999999999MA1101291999999MW1001REMMET042DAAD 100900Z 28010KT 7000 SKC 24/15 Q1013;EQDQ01+070002VODIS Q02+000000PRSWM2
0136605150999992000051010004+35330+004200FM-15+0461DAAD V0200601N003112200019N9999999N1+02601+01601999999ADDGF100991999999999999999999MA1101291999999MW1001REMMET042DAAD 101000Z 06006KT 7000 SKC 26/16 Q1013;EQDQ01+070002VODIS Q02+000000PRSWM2
0155605150999992000051011004+35330+004200FM-15+0461DAAD V0200601N004112200019N9999999N1+02701+01601999999ADDGA1021+012009999GF102991999999999999999999MA1101191999999MW1001REMMET045DAAD 101100Z 06008KT 7000 FEW040 27/16 Q1012;EQDQ01+070002VODIS Q02+000000PRSWM2
0155605150999992000051013004+35330+004200FM-15+0461DAAD V0203601N003112200019N9999999N1+02901+01701999999ADDGA1021+009909999GF104991999999999999999999MA1101081999999MW1001REMMET045DAAD 101300Z 36006KT 7000 SCT033 29/17 Q1011;EQDQ01+070002VODIS Q02+000000PRSWM2
0155605150999992000051014004+35330+004200FM-15+0461DAAD V0200201N003112200019N9999999N1+03101+01701999999ADDGA1021+009909999GF104991999999999999999999MA1101081999999MW1001REMMET045DAAD 101400Z 02006KT 7000 SCT033 31/17 Q1011;EQDQ01+070002VODIS Q02+000000PRSWM2
0251605150999992000051015004+35330+004200SY-MT+0461DAAD V0203201N005112200019N9999999N1+03081+01681101041ADDGA1021+009909999GF104991041021008001001001MA1101021999999MD1710181+9999MW1001REMSYN076AAXX  10154 60515 42557 43210 10308 20168 40104 57018 84200 333 84833 95900;MET045DAAD 101500Z 32010KT 7000 SCT033 31/17 Q1010;EQDQ01+070002VODIS Q02+000000PRSWM2
0155605150999992000051016004+35330+004200FM-15+0461DAAD V0203601N006212200019N9999999N1+03201+01701999999ADDGA1021+009909999GF104991999999999999999999MA1100911999999MW1001REMMET045DAAD 101600Z 36012KT 7000 SCT033 32/17 Q1009;EQDQ01+070002VODIS Q02+000000PRSWM2
0139605150999992000051017004+35330+004200FM-15+0461DAAD V0203201N007212200019N0070001N1+03001+01101999999ADDGA1021+060009999GF104991999999999999999999MA1100911999999MW1001REMMET045DAAD 101700Z 32014KT 7000 SCT200 30/11 Q1009;EQDQ01+000000PRSWM2
0297605150999992000051018004+35330+004200SY-MT+0461DAAD V0203601N006212200019N9999999N1+02921+01111101011ADDAA199000091GA1021+060009999GF103991001001999999001021KA1120M+03101MA1101021999999MD1510051+9999MW1001REMSYN082AAXX  10184 60515 32957 33612 10292 20111 40101 55005 80002 333 10310 83070 95900;MET045DAAD 101800Z 36012KT 7000 SCT200 29/13 Q1010;EQDQ01+070002VODIS Q02+000000PRSWM2Q03  00002PRCP99
0277605150999992000051106004+35330+004200SY-MT+0461DAAD V0203001N00311220001CN0100001N1+01941+00971101541ADDAA199000091GF102991001001999999001021IA2240+01609KA1120N+01741MA1101491999999MD1310051+9999MW1001REMSYN088AAXX  11064 60515 33960 23006 10194 20097 40154 53005 80002 333 01600 20174 82073 95900;MET039DAAD 110600Z 30006KT CAVOK 19/10 Q1015;EQDQ01+000000PRSWM2Q02  00002PRCP99
0091605150999992000051107004+35330+004200FM-15+0461DAAD V0203201N00311220001CN0099001N1+02201+00901999999ADDMA1101491999999MW1001REMMET039DAAD 110700Z 32006KT CAVOK 22/09 Q1015;EQDQ01+000000PRSWM2
0091605150999992000051108004+35330+004200FM-15+0461DAAD V0203201N00101220001CN0099001N1+02301+00901999999ADDMA1101591999999MW1001REMMET039DAAD 110800Z 32002KT CAVOK 23/09 Q1016;EQDQ01+000000PRSWM2
0201605150999992000051109004+35330+004200SY-MT+0461DAAD V0200201N002112200019N0100001N1+02441+00921101651ADDGF100991001001999999001001MA1101591999999MD1110091+9999MW1001REMSYN064AAXX  11094 60515 42960 00204 10244 20092 40165 51009 333 95900;MET039DAAD 110900Z 02004KT CAVOK 24/09 Q1016;EQDQ01+000000PRSWM2
0091605150999992000051110004+35330+004200FM-15+0461DAAD V0203401N00411220001CN0099001N1+02601+00701999999ADDMA1101591999999MW1001REMMET039DAAD 111000Z 34008KT CAVOK 26/07 Q1016;EQDQ01+000000PRSWM2
0091605150999992000051111004+35330+004200FM-15+0461DAAD V0203601N00511220001CN0099001N1+02701+00601999999ADDMA1101491999999MW1001REMMET039DAAD 111100Z 36010KT CAVOK 27/06 Q1015;EQDQ01+000000PRSWM2
0168605150999992000051112004+35330+004200FM-12+0461DAAD V0203001N005112200019N0100001N1+02811+00571101471ADDAA199000091GA1001+999999999GF100991001001999999001001MD1810151+9999REMSYN070AAXX  11124 60515 32960 03010 10281 20057 40147 58015 333 0//00 95900;EQDQ01  00002PRCP99
0091605150999992000051113004+35330+004200FM-15+0461DAAD V0209999C00001220001CN0099001N1+02901+00201999999ADDMA1101391999999MW1001REMMET039DAAD 111300Z 00000KT CAVOK 29/02 Q1014;EQDQ01+000000PRSWM2
0139605150999992000051115004+35330+004200FM-15+0461DAAD V0200401N004112200019N0112651N1+03101+00101999999ADDGA1021+009909999GF102991999999999999999999MA1101291999999MW1001REMMET045DAAD 111500Z 04008KT 9999 FEW033 31/01 Q1013;EQDQ01+000000PRSWM2
0140605150999992000051116004+35330+004200FM-15+0461DAAD V0200401N003112200019N0112651N1+03101-00201999999ADDGA1021+009909999GF102991999999999999999999MA1101291999999MW1001REMMET046DAAD 111600Z 04006KT 9999 FEW033 31/M02 Q1013;EQDQ01+000000PRSWM2
0092605150999992000051117004+35330+004200FM-15+0461DAAD V0203601N00511220001CN0099001N1+03101-00201999999ADDMA1101291999999MW1001REMMET040DAAD 111700Z 36010KT CAVOK 31/M02 Q1013;EQDQ01+000000PRSWM2
0276605150999992000051118004+35330+004200SY-MT+0461DAAD V0200601N002112200019N0100001N1+03041-00391101251ADDAA199000091GA1021+069009009GF102991001001999999001021KA1120M+03111MA1101191999999MD1710081+9999MW1001REMSYN082AAXX  11184 60515 32960 20604 10304 21039 40125 57008 80002 333 10311 82073 95900;MET040DAAD 111800Z 06004KT CAVOK 30/M04 Q1012;EQDQ01+000000PRSWM2Q02  00002PRCP99
0265605150999992000051206004+35330+004200SY-MT+0461DAAD V0209999C000012200019N0100001N1+01871+01061101561ADDAA199000091GF100991001001999999001001IA2240+01609KA1120N+01711MA1101491999999MD1410001+9999MW1001REMSYN076AAXX  12064 60515 32960 00000 10187 20106 40156 54000 333 01600 20171 95900;MET039DAAD 120600Z 00000KT CAVOK 19/11 Q1015;EQDQ01+000000PRSWM2Q02  00002PRCP99
0091605150999992000051207004+35330+004200FM-15+0461DAAD V0209999C00001220001CN0099001N1+02201+01201999999ADDMA1101491999999MW1001REMMET039DAAD 120700Z 00000KT CAVOK 22/12 Q1015;EQDQ01+000000PRSWM2
0091605150999992000051208004+35330+004200FM-15+0461DAAD V0209999C00001220001CN0099001N1+02401+01201999999ADDMA1101491999999MW1001REMMET039DAAD 120800Z 00000KT CAVOK 24/12 Q1015;EQDQ01+000000PRSWM2
0091605150999992000051211004+35330+004200FM-15+0461DAAD V0200801N00411220001CN0099001N1+03001+01301999999ADDMA1101391999999MW1001REMMET039DAAD 121100Z 08008KT CAVOK 30/13 Q1014;EQDQ01+000000PRSWM2
0297605150999992000051212004+35330+004200SY-MT+0461DAAD V0201001N00721090001CN0080001N1+03251+01111101311ADDAA199000091GA1021+012009999GA2021+060009999GF105991021021012501001021MA1101291999999MD1810201+9999MW1001REMSYN088AAXX  12124 60515 32658 51014 10325 20111 40131 58020 82202 333 0//00 82840 84070 95900;MET052DAAD 121200Z 10004KT 8000 FEW040 SCT200 33/11 Q1013;EQDQ01+000000PRSWM2Q02  00002PRCP99
0178605150999992000051213004+35330+004200FM-15+0461DAAD V0200801N007212200019N9999999N1+03401+01101999999ADDGA1021+012009999GA2021+060009999GF104991999999999999999999MA1101191999999MW1001REMMET052DAAD 121300Z 08014KT 7000 FEW040 SCT200 34/11 Q1012;EQDQ01+070002VODIS Q02+000000PRSWM2
0178605150999992000051214004+35330+004200FM-15+0461DAAD V0200801N005112200019N9999999N1+03401+01001999999ADDGA1021+012009999GA2021+060009999GF104991999999999999999999MA1101081999999MW1001REMMET052DAAD 121400Z 08010KT 7000 SCT040 SCT200 34/10 Q1011;EQDQ01+070002VODIS Q02+000000PRSWM2
0296605150999992000051215004+35330+004200SY-MT+0461DAAD V0201001N008210600019N9999999N1+03391+01071101071ADDGA1021+009909999GA2071+060009999GF199999021021008001001021MA1101021999999MD1710241+9999MW1001REMSYN082AAXX  12154 60515 42557 61016 10339 20107 40107 57024 82202 333 82833 85070 95900;MET052DAAD 121500Z 10016KT 7000 FEW033 BKN200 34/11 Q1010;EQDQ01+000062SCOTCVQ02+070002VODIS Q03+000000PRSWM2
0181605150999992000051216004+35330+004200FM-15+0461DAAD V0201001N005112200019N9999999N1+03301+01001999999ADDGA1021+009009029GA2021+060009999GF104991999999999999999999MA1101021999999MW1001REMMET055DAAD 121600Z 10010KT 7000 SCT030TCU SCT200 33/10 Q1010;EQDQ01+070002VODIS Q02+000000PRSWM2
0165605150999992000051217004+35330+004200FM-15+0461DAAD V0200801N004112200019N0070001N1+03301+00901999999ADDGA1021+009009029GA2021+060009999GF104991999999999999999999MA1101021999999MW1001REMMET055DAAD 121700Z 08008KT 7000 SCT030TCU SCT200 33/09 Q1010;EQDQ01+000000PRSWM2
0328605150999992000051218004+35330+004200SY-MT+0461DAAD V0200801N003110900019N9999999N1+03141+00871101101ADDAA199000091GA1021+009009999GA2021+009909099GF106991041091008001001021KA1120M+03441MA1101081999999MD1610011+9999MW1001REMSYN088AAXX  12184 60515 32556 60806 10314 20087 40110 56001 84902 333 10344 81933 83833 95900;MET054DAAD 121800Z 08006KT 6000 FEW033CB SCT030 31/09 Q1011;EQDQ01+060002VODIS Q02+000000PRSWM2Q03  00002PRCP99
0315605150999992000051306004+35330+004200SY-MT+0461DAAD V0203201N002110090019N0100001N1+02201+01041101531ADDAA199000091GA1071+009009999GF199999061021008001001001IA2240+01809KA1120N+02001MA1101491999999MD1310051+9999MW1001REMSYN088AAXX  13064 60515 33560 63204 10220 20104 40153 53005 86200 333 01800 20200 86830 95900;MET045DAAD 130600Z 32004KT 9999 BKN030 22/10 Q1015;EQDQ01+000062SCOTCVQ02+000000PRSWM2Q03  00002PRCP99
0173605150999992000051307004+35330+004200FM-15+0461DAAD V0200201N00411220001CN0112651N1+02401+01101999999ADDGA1071+009009999GA2021+009909099MA1101491999999MW1171REMMET057DAAD 130700Z 02008KT 9999 TS BKN030 FEW033CB 24/11 Q1015;EQDQ01+000022SCOTCVQ02+000003PRSWM1Q03    003PRSWM1
0173605150999992000051308004+35330+004200FM-15+0461DAAD V0203001N00211220001CN0112651N1+02501+01201999999ADDGA1071+009009999GA2021+009909099MA1101591999999MW1171REMMET057DAAD 130800Z 30004KT 9999 TS BKN030 FEW033CB 25/12 Q1016;EQDQ01+000022SCOTCVQ02+000003PRSWM1Q03    003PRSWM1
0309605150999992000051309004+35330+004200SY-MT+0461DAAD V0202601N001010090019N0100001N1+02611+01291101671ADDAY191031AY221031GA1071+009009999GA2021+009909099GF107991071091008001999999MA1101591999999MD1010091+9999MW1291REMSYN088AAXX  13094 60515 41560 72602 10261 20129 40167 50009 72992 879// 333 85830 82933 95900;MET059DAAD 130900Z 26002KT 9999 BKN030 FEW033CB 26/13 Q1016 RETS;EQDQ01+000000PRSWM2Q02    003PRSWM1
0162605150999992000051311004+35330+004200FM-15+0461DAAD V0202401N002110600019N0112651N1+03001+01001999999ADDGA1021+009009999GA2071+060009999GF107991999999999999999999MA1101491999999MW1001REMMET052DAAD 131100Z 24004KT 9999 FEW030 BKN200 30/10 Q1015;EQDQ01+000000PRSWM2
0262605150999992000051312004+35330+004200SY-MT+0461DAAD V0200801N001010690019N0100001N1+03091+00951101491ADDAA199000091GA1051+069009009GF105991001001999999001021MA1101391999999MD1810131+9999MW1001REMSYN082AAXX  13124 60515 32960 50802 10309 20095 40149 58013 80002 333 0//00 85073 95900;MET039DAAD 131200Z 08002KT CAVOK 31/10 Q1014;EQDQ01+000000PRSWM2Q02  00002PRCP99
0164605150999992000051317004+35330+004200FM-15+0461DAAD V0200401N011312200019N0080001N1+02901+00501999999ADDGA1021+007809999GA2021+009009099GF102991999999999999999999MA1101391999999MW1001REMMET054DAAD 131700Z 04022KT 8000 SCT026 FEW030CB 29/05 Q1014;EQDQ01+000000PRSWM2
0346605150999992000051318004+35330+004200SY-MT+0461DAAD V0200801N010310078019N0080001N1+02451+01231101561ADDAA112000591AY121061AY261061GA1071+007809999GA2021+009009099GF107991071091008001999999KA1120M+03371MA1101491999999MD1310141+9999MW1291REMSYN100AAXX  13184 60515 11558 70820 10245 20123 40156 53014 69962 72926 879// 333 10337 85826 82930 95900;MET060DAAD 131800Z 08020KT 8000 BKN026 FEW030CB 25/12 Q1015 RERTS;EQDQ01+000000PRSWM2Q02    003PRSWM1
0091605150999992000051406004+35330+004200FM-15+0461DAAD V0209999C00001220001CN0099001N1+01701+01001999999ADDMA1101901999999MW1001REMMET039DAAD 140600Z 00000KT CAVOK 17/10 Q1019;EQDQ01+000000PRSWM2
0091605150999992000051407004+35330+004200FM-15+0461DAAD V0209999C00001220001CN0099001N1+01901+01001999999ADDMA1101901999999MW1001REMMET039DAAD 140700Z 00000KT CAVOK 19/10 Q1019;EQDQ01+000000PRSWM2
0091605150999992000051408004+35330+004200FM-15+0461DAAD V0200801N00211220001CN0099001N1+02301+01001999999ADDMA1102001999999MW1001REMMET039DAAD 140800Z 08004KT CAVOK 23/10 Q1020;EQDQ01+000000PRSWM2
0201605150999992000051409004+35330+004200SY-MT+0461DAAD V0209999C00001220001CN0100001N1+02451+01001101941ADDGF100991001001999999001001MA1101901999999MD1010081+9999MW1001REMSYN064AAXX  14094 60515 42960 00000 10245 20100 40194 50008 333 95900;MET039DAAD 140900Z 00000KT CAVOK 25/10 Q1019;EQDQ01+000000PRSWM2
0139605150999992000051410004+35330+004200FM-15+0461DAAD V0200401N002112200019N0112651N1+02701+01001999999ADDGA1021+012009999GF102991999999999999999999MA1101901999999MW1001REMMET045DAAD 141000Z 04004KT 9999 FEW040 27/10 Q1019;EQDQ01+000000PRSWM2
0139605150999992000051411004+35330+004200FM-15+0461DAAD V0200401N002112200019N0112651N1+03001+01001999999ADDGA1021+012009999GF102991999999999999999999MA1101801999999MW1001REMMET045DAAD 141100Z 04004KT 9999 FEW040 30/10 Q1018;EQDQ01+000000PRSWM2
0268605150999992000051412004+35330+004200SY-MT+0461DAAD V0201201N002112200019N0100001N1+02991+00691101771ADDAA199000091GA1021+009909999GF102991021021012501001001MA1101691999999MD1810131+9999MW1001REMSYN082AAXX  14124 60515 32660 21204 10299 20069 40177 58013 82200 333 0//00 82833 95900;MET045DAAD 141200Z 12004KT 9999 FEW033 30/07 Q1017;EQDQ01+000000PRSWM2Q02  00002PRCP99
0139605150999992000051413004+35330+004200FM-15+0461DAAD V0200201N003112200019N0112651N1+03101+00301999999ADDGA1021+009909999GF102991999999999999999999MA1101691999999MW1001REMMET045DAAD 141300Z 02006KT 9999 FEW033 31/03 Q1017;EQDQ01+000000PRSWM2
0139605150999992000051414004+35330+004200FM-15+0461DAAD V0203201N003112200019N0112651N1+03201+00201999999ADDGA1021+009909999GF102991999999999999999999MA1101591999999MW1001REMMET045DAAD 141400Z 32006KT 9999 FEW033 32/02 Q1016;EQDQ01+000000PRSWM2
0235605150999992000051415004+35330+004200SY-MT+0461DAAD V0203001N002112200019N0100001N1+03261+00251101561ADDGA1021+009909999GF102991021021012501001001MA1101491999999MD1710181+9999MW1001REMSYN076AAXX  14154 60515 42660 23004 10326 20025 40156 57018 82200 333 82833 95900;MET045DAAD 141500Z 30004KT 9999 FEW033 33/03 Q1015;EQDQ01+000000PRSWM2
0139605150999992000051416004+35330+004200FM-15+0461DAAD V0200801N003112200019N0112651N1+03301+00201999999ADDGA1021+009009999GF102991999999999999999999MA1101491999999MW1001REMMET045DAAD 141600Z 08006KT 9999 FEW030 33/02 Q1015;EQDQ01+000000PRSWM2
0139605150999992000051417004+35330+004200FM-15+0461DAAD V0200401N003112200019N0112651N1+03201+00101999999ADDGA1021+009909999GF104991999999999999999999MA1101391999999MW1001REMMET045DAAD 141700Z 04006KT 9999 SCT033 32/01 Q1014;EQDQ01+000000PRSWM2
0281605150999992000051418004+35330+004200SY-MT+0461DAAD V0200401N002112200019N0100001N1+03201+00181101481ADDAA199000091GA1021+009909999GF103991031021012501001001KA1120M+03311MA1101391999999MD1510101+9999MW1001REMSYN082AAXX  14184 60515 32660 30404 10320 20018 40148 55010 83200 333 10331 83833 95900;MET045DAAD 141800Z 04004KT 9999 SCT033 32/02 Q1014;EQDQ01+000000PRSWM2Q02  00002PRCP99
0211605150999992000051506004+35330+004200FM-12+0461DAAD V0201601N002112200019N0100001N1+02011+00711101721ADDAA199000091GA1021+069009009GF102991001001999999001021IA2240+01509KA1120N+01671MD1310061+9999REMSYN088AAXX  15064 60515 33960 21604 10201 20071 40172 53006 80002 333 01500 20167 82073 95900;EQDQ01  00002PRCP99
0091605150999992000051507004+35330+004200FM-15+0461DAAD V0200801N00211220001CN0099001N1+02301+00701999999ADDMA1101691999999MW1001REMMET039DAAD 150700Z 08004KT CAVOK 23/07 Q1017;EQDQ01+000000PRSWM2
0180605150999992000051512004+35330+004200FM-12+0461DAAD V0200201N005112200019N0100001N1+03181+00721101661ADDAA199000091GA1021+009909089GF102991021021012501001001MD1810111+9999REMSYN082AAXX  15124 60515 32660 20210 10318 20072 40166 58011 82200 333 0//00 82833 95900;EQDQ01  00002PRCP99
0139605150999992000051513004+35330+004200FM-15+0461DAAD V0203401N005112200019N0112651N1+03301+00701999999ADDGA1021+009909999GF102991999999999999999999MA1101591999999MW1001REMMET045DAAD 151300Z 34010KT 9999 FEW033 33/07 Q1016;EQDQ01+000000PRSWM2
0139605150999992000051514004+35330+004200FM-15+0461DAAD V0202601N005112200019N0112651N1+03401+00501999999ADDGA1021+009009999GF102991999999999999999999MA1101491999999MW1001REMMET045DAAD 151400Z 26010KT 9999 FEW030 34/05 Q1015;EQDQ01+000000PRSWM2
0235605150999992000051515004+35330+004200SY-MT+0461DAAD V0200201N005112200019N0100001N1+03451+00661101411ADDGA1021+009009999GF103991031021012501001001MA1101391999999MD1710241+9999MW1001REMSYN076AAXX  15154 60515 42660 30210 10345 20066 40141 57024 83200 333 83830 95900;MET045DAAD 151500Z 02010KT 9999 SCT030 35/07 Q1014;EQDQ01+000000PRSWM2
0139605150999992000051516004+35330+004200FM-15+0461DAAD V0200201N005112200019N0112651N1+03501+00701999999ADDGA1021+009009999GF104991999999999999999999MA1101291999999MW1001REMMET045DAAD 151600Z 02010KT 9999 SCT030 35/07 Q1013;EQDQ01+000000PRSWM2
0139605150999992000051517004+35330+004200FM-15+0461DAAD V0200601N003112200019N0112651N1+03501+00401999999ADDGA1021+009009999GF104991999999999999999999MA1101391999999MW1001REMMET045DAAD 151700Z 06006KT 9999 SCT030 35/04 Q1014;EQDQ01+000000PRSWM2
0281605150999992000051518004+35330+004200SY-MT+0461DAAD V0200601N002112200019N0100001N1+03321+00561101361ADDAA199000091GA1021+009009999GF103991031021012501001001KA1120M+03531MA1101291999999MD1610061+9999MW1001REMSYN082AAXX  15184 60515 32660 30604 10332 20056 40136 56006 83200 333 10353 83830 95900;MET045DAAD 151800Z 06004KT 9999 SCT030 33/06 Q1013;EQDQ01+000000PRSWM2Q02  00002PRCP99
0162605150999992000051606004+35330+004200FM-15+0461DAAD V0203601N002112200019N0112651N1+02101+00701999999ADDGA1021+009909999GA2021+060009999GF104991999999999999999999MA1101591999999MW1001REMMET052DAAD 160600Z 36004KT 9999 SCT033 SCT200 21/07 Q1016;EQDQ01+000000PRSWM2
0091605150999992000051608004+35330+004200FM-15+0461DAAD V0209999C00001220001CN0099001N1+02501+00701999999ADDMA1101691999999MW1001REMMET039DAAD 160800Z 00000KT CAVOK 25/07 Q1017;EQDQ01+000000PRSWM2
0219605150999992000051609004+35330+004200SY-MT+0461DAAD V0209999C000019999999N0100001N1+02701+01061101701ADDGF105991031001999999071021MA1101691999999MD1110101+9999MW1001REMSYN082AAXX  16094 60515 42960 50000 10270 20106 40170 51010 83072 333 83358 83070 95900;MET039DAAD 160900Z 00000KT CAVOK 27/11 Q1017;EQDQ01+000000PRSWM2
0162605150999992000051610004+35330+004200FM-15+0461DAAD V0200601N002112200019N0112651N1+02901+01301999999ADDGA1021+009909999GA2021+024009999GF104991999999999999999999MA1101591999999MW1001REMMET052DAAD 161000Z 06004KT 9999 SCT033 SCT080 29/13 Q1016;EQDQ01+000000PRSWM2
0162605150999992000051611004+35330+004200FM-15+0461DAAD V0200801N002112200019N0112651N1+03001+01201999999ADDGA1021+009909999GA2021+024009999GF104991999999999999999999MA1101591999999MW1001REMMET052DAAD 161100Z 08004KT 9999 SCT033 SCT080 30/12 Q1016;EQDQ01+000000PRSWM2
0297605150999992000051612004+35330+004200SY-MT+0461DAAD V0200601N00411090001CN0100001N1+03181+01051101501ADDAA199000091GA1021+009909999GA2021+030009999GF106991041021012501001021MA1101491999999MD1710071+9999MW1001REMSYN088AAXX  16124 60515 32660 60608 10318 20105 40150 57007 84202 333 0//00 84833 83070 95900;MET052DAAD 161200Z 06008KT 9999 SCT033 SCT100 32/11 Q1015;EQDQ01+000000PRSWM2Q02  00002PRCP99
0266605150999992000051615004+35330+004200SY-MT+0461DAAD V0200401N00311220001CN0100001N1+03171+00881101281ADDGA1071+009009999GA2021+009909099GF105991051091012501001021MA1101191999999MD1710231+9999MW1001REMSYN082AAXX  16154 60515 42660 50406 10317 20088 40128 57023 85902 333 84830 81933 95900;MET054DAAD 161500Z 04006KT 9999 BKN030 FEW033CB 32/09 Q1012;EQDQ01+000000PRSWM2
0144605150999992000051616004+35330+004200FM-15+0461DAAD V0200601N002110090019N0112651N1+03001+01001999999ADDGA1071+009009999GF107991999999999999999999MA1101391999999MW1001REMMET050DAAD 161600Z 06004KT 9999 BKN030 30/10 Q1014 RERA;EQDQ01+000000PRSWM2
0334605150999992000051618004+35330+004200SY-MT+0461DAAD V0200401N002110078019N0100001N1+02701+01151101561ADDAA112002091AY161061AY221061GA1071+007809999GA2021+009009099GF108991081091008001001001KA1120M+03431MA1101491999999MD1310081+9999MW1601MW2611REMSYN100AAXX  16184 60515 12560 80404 10270 20115 40156 53008 60022 76062 88900 333 10343 85826 83930 95900;MET058DAAD 161800Z 04004KT 9999 -RA BKN026 SCT030CB 27/12 Q1015;EQDQ01    003PRSWM1
0312605150999992000051706004+35330+004200SY-MT+0461DAAD V0201201N001010090019N0100001N1+02251+01461101531ADDAA199000021GA1071+009009999GA2021+018009999GF108991051021008001031999IA2240+01909KA1120N+01961MA1101491999999MD1110061+9999MW1001REMSYN094AAXX  17064 60515 33560 81202 10225 20146 40153 51006 8523/ 333 01900 20196 85830 83358 95900;MET052DAAD 170600Z 12002KT 9999 BKN030 SCT060 23/15 Q1015;EQDQ01+000000PRSWM2
0139605150999992000051708004+35330+004200FM-15+0461DAAD V0200201N002112200019N0112651N1+02401+01401999999ADDGA1021+009909999GF104991999999999999999999MA1101491999999MW1001REMMET045DAAD 170800Z 02004KT 9999 SCT033 24/14 Q1015;EQDQ01+000000PRSWM2
0280605150999992000051709004+35330+004200SY-MT+0461DAAD V0201201N001010600019N0100001N1+02751+01261101551ADDGA1021+009909999GA2071+060009999GF199999021021012501001021MA1101491999999MD1110101+9999MW1001REMSYN082AAXX  17094 60515 42660 61202 10275 20126 40155 51010 82202 333 82833 85070 95900;MET052DAAD 170900Z 12002KT 9999 FEW033 BKN200 28/13 Q1015;EQDQ01+000062SCOTCVQ02+000000PRSWM2
0284605150999992000051712004+35330+004200SY-MT+0461DAAD V0200201N003110600019N0100001N1+03051+01141101401ADDAA199000091GA1021+024009039GA2051+060009009GF107991021001012501031021MA1101391999999MD1810111+9999MW1001REMSYN088AAXX  17124 60515 32660 70206 10305 20114 40140 58011 82032 333 0//00 82358 85070 95900;MET039DAAD 171200Z 02006KT CAVOK 31/11 Q1014;EQDQ01+000000PRSWM2Q02  00002PRCP99
0091605150999992000051713004+35330+004200FM-15+0461DAAD V0200801N00101220001CN0099001N1+03101+01101999999ADDMA1101391999999MW1001REMMET039DAAD 171300Z 08002KT CAVOK 31/11 Q1014;EQDQ01+000000PRSWM2
0164605150999992000051714004+35330+004200FM-15+0461DAAD V0200601N005112200019N0112651N1+03201+01101999999ADDGA1021+009009999GA2021+009909099GF102991999999999999999999MA1101291999999MW1001REMMET054DAAD 171400Z 06010KT 9999 SCT030 FEW033CB 32/11 Q1013;EQDQ01+000000PRSWM2
0266605150999992000051715004+35330+004200SY-MT+0461DAAD V0200801N003110360019N0100001N1+03211+01071101191ADDGA1021+009009999GA2021+009909099GF106991041091008001081021MA1101081999999MD1710181+9999MW1001REMSYN082AAXX  17154 60515 42560 60806 10321 20107 40119 57018 84982 333 83830 81933 95900;MET054DAAD 171500Z 08006KT 9999 SCT030 FEW033CB 32/11 Q1011;EQDQ01+000000PRSWM2
0164605150999992000051716004+35330+004200FM-15+0461DAAD V0200401N003112200019N0112651N1+03201+01001999999ADDGA1021+009009999GA2021+009909099GF102991999999999999999999MA1101081999999MW1001REMMET054DAAD 171600Z 04006KT 9999 SCT030 FEW033CB 32/10 Q1011;EQDQ01+000000PRSWM2
0139605150999992000051717004+35330+004200FM-15+0461DAAD V0200801N005112200019N0112651N1+03001+01001999999ADDGA1021+009009999GF104991999999999999999999MA1101081999999MW1001REMMET045DAAD 171700Z 08010KT 9999 SCT030 30/10 Q1011;EQDQ01+000000PRSWM2
0312605150999992000051718004+35330+004200SY-MT+0461DAAD V0201001N00621007501CN0100001N1+02921+01111101241ADDAA199000091GA1021+009009999GA2021+009909099GF107991061091008001001021KA1120M+03341MA1101081999999MD1610071+9999MW1001REMSYN088AAXX  17184 60515 32560 71012 10292 20111 40124 56007 86902 333 10334 84830 82933 95900;MET054DAAD 171800Z 10012KT 9999 SCT030 FEW033CB 29/11 Q1011;EQDQ01+000000PRSWM2Q02  00002PRCP99
0265605150999992000051806004+35330+004200SY-MT+0461DAAD V0202801N00411220001CN0100001N1+02001+01221101311ADDAA199000091GF100991001001999999001001IA2240+01809KA1120N+01841MA1101291999999MD1610011+9999MW1001REMSYN076AAXX  18064 60515 33960 02808 10200 20122 40131 56001 333 01800 20184 95900;MET039DAAD 180600Z 28008KT CAVOK 20/12 Q1013;EQDQ01+000000PRSWM2Q02  00002PRCP99
0091605150999992000051807004+35330+004200FM-15+0461DAAD V0200601N00211220001CN0099001N1+02401+01201999999ADDMA1101291999999MW1001REMMET039DAAD 180700Z 06004KT CAVOK 24/12 Q1013;EQDQ01+000000PRSWM2
0091605150999992000051808004+35330+004200FM-15+0461DAAD V0200601N00311220001CN0099001N1+02501+01201999999ADDMA1101291999999MW1001REMMET039DAAD 180800Z 06006KT CAVOK 25/12 Q1013;EQDQ01+000000PRSWM2
0201605150999992000051809004+35330+004200SY-MT+0461DAAD V0200801N004112200019N0100001N1+02751+01261101351ADDGF100991001001999999001001MA1101291999999MD1010061+9999MW1001REMSYN064AAXX  18094 60515 42960 00808 10275 20126 40135 50006 333 95900;MET039DAAD 180900Z 08008KT CAVOK 28/13 Q1013;EQDQ01+000000PRSWM2
0091605150999992000051811004+35330+004200FM-15+0461DAAD V0200801N00101220001CN0099001N1+03001+01301999999ADDMA1101291999999MW1001REMMET039DAAD 181100Z 08002KT CAVOK 30/13 Q1013;EQDQ01+000000PRSWM2
0268605150999992000051812004+35330+004200SY-MT+0461DAAD V0203401N005112200019N0100001N1+03041+01131101231ADDAA199000091GA1021+009909999GF102991021021012501001021MA1101191999999MD1810121+9999MW1001REMSYN082AAXX  18124 60515 32660 23410 10304 20113 40123 58012 82202 333 0//00 82833 95900;MET045DAAD 181200Z 34010KT 9999 FEW033 31/11 Q1012;EQDQ01+000000PRSWM2Q02  00002PRCP99
0139605150999992000051813004+35330+004200FM-15+0461DAAD V0200801N002112200019N0112651N1+03101+01201999999ADDGA1021+009909999GF102991999999999999999999MA1101191999999MW1001REMMET045DAAD 181300Z 08004KT 9999 FEW033 31/12 Q1012;EQDQ01+000000PRSWM2
0139605150999992000051814004+35330+004200FM-15+0461DAAD V0200601N002112200019N0112651N1+03201+01201999999ADDGA1021+009009999GF104991999999999999999999MA1101081999999MW1001REMMET045DAAD 181400Z 06004KT 9999 SCT030 32/12 Q1011;EQDQ01+000000PRSWM2
0235605150999992000051815004+35330+004200SY-MT+0461DAAD V0200401N003112200019N0100001N1+03221+01181101111ADDGA1021+009009999GF105991041021008001001021MA1101081999999MD1710141+9999MW1001REMSYN076AAXX  18154 60515 42560 50406 10322 20118 40111 57014 84202 333 83830 95900;MET045DAAD 181500Z 04006KT 9999 SCT030 32/11 Q1011;EQDQ01+000000PRSWM2
0139605150999992000051816004+35330+004200FM-15+0461DAAD V0203201N007212200019N0112651N1+03401+00701999999ADDGA1021+009909999GF102991999999999999999999MA1101021999999MW1001REMMET045DAAD 181600Z 32014KT 9999 FEW033 34/07 Q1010;EQDQ01+000000PRSWM2
0193605150999992000051818004+35330+004200FM-12+0461DAAD V0203401N008212200019N0100001N1+03181+00571100941ADDAA199000091GA1021+009909089GF102991021021012501001001KA1120M+03461MD1610111+9999REMSYN082AAXX  18184 60515 32660 23416 10318 20057 40094 56011 82200 333 10346 82833 95900;EQDQ01  00002PRCP99
0265605150999992000051906004+35330+004200SY-MT+0461DAAD V0201401N001012200019N0100001N1+01911+00981101311ADDAA199000091GF100991001001999999001001IA2240+01709KA1120N+01711MA1101291999999MD1310041+9999MW1001REMSYN076AAXX  19064 60515 33960 01402 10191 20098 40131 53004 333 01700 20171 95900;MET039DAAD 190600Z 14002KT CAVOK 19/10 Q1013;EQDQ01+000000PRSWM2Q02  00002PRCP99
0091605150999992000051907004+35330+004200FM-15+0461DAAD V0200801N00101220001CN0099001N1+02401+01201999999ADDMA1101291999999MW1001REMMET039DAAD 190700Z 08002KT CAVOK 24/12 Q1013;EQDQ01+000000PRSWM2
0091605150999992000051908004+35330+004200FM-15+0461DAAD V0200601N00211220001CN0099001N1+02501+01201999999ADDMA1101291999999MW1001REMMET039DAAD 190800Z 06004KT CAVOK 25/12 Q1013;EQDQ01+000000PRSWM2
0201605150999992000051909004+35330+004200SY-MT+0461DAAD V0203201N003112200019N0100001N1+02691+01091101361ADDGF100991001001999999001001MA1101291999999MD1310071+9999MW1001REMSYN064AAXX  19094 60515 42960 03206 10269 20109 40136 53007 333 95900;MET039DAAD 190900Z 32006KT CAVOK 27/11 Q1013;EQDQ01+000000PRSWM2
0091605150999992000051910004+35330+004200FM-15+0461DAAD V0200201N00411220001CN0099001N1+02901+01101999999ADDMA1101291999999MW1001REMMET039DAAD 191000Z 02008KT CAVOK 29/11 Q1013;EQDQ01+000000PRSWM2
0268605150999992000051912004+35330+004200SY-MT+0461DAAD V0200801N003112200019N0100001N1+03201+01111101321ADDAA199000091GA1021+009909999GF103991021021008001001021MA1101291999999MD1810111+9999MW1001REMSYN082AAXX  19124 60515 32560 30806 10320 20111 40132 58011 82202 333 0//00 82833 95900;MET045DAAD 191200Z 08006KT 9999 FEW033 32/11 Q1013;EQDQ01+000000PRSWM2Q02  00002PRCP99
0235605150999992000051915004+35330+004200SY-MT+0461DAAD V0201001N004110900019N0100001N1+03421+00791101081ADDGA1021+009009999GF105991031021008001001021MA1101021999999MD1710171+9999MW1001REMSYN076AAXX  19154 60515 42560 51008 10342 20079 40108 57017 83202 333 83830 95900;MET045DAAD 191500Z 10008KT 9999 SCT030 34/08 Q1010;EQDQ01+000000PRSWM2
0139605150999992000051916004+35330+004200FM-15+0461DAAD V0203601N005112200019N0112651N1+03301+01101999999ADDGA1021+009009999GF104991999999999999999999MA1101021999999MW1001REMMET045DAAD 191600Z 36010KT 9999 SCT030 33/11 Q1010;EQDQ01+000000PRSWM2
0139605150999992000051917004+35330+004200FM-15+0461DAAD V0203201N001012200019N0112651N1+03301+00801999999ADDGA1021+009009999GF104991999999999999999999MA1101021999999MW1001REMMET045DAAD 191700Z 32002KT 9999 SCT030 33/08 Q1010;EQDQ01+000000PRSWM2
0281605150999992000051918004+35330+004200SY-MT+0461DAAD V0200201N003112200019N0100001N1+03151+01101101061ADDAA199000091GA1021+009009999GF103991031021008001001001KA1120M+03301MA1101021999999MD1510061+9999MW1001REMSYN082AAXX  19184 60515 32560 30206 10315 20110 40106 55006 83200 333 10330 83830 95900;MET045DAAD 191800Z 02006KT 9999 SCT030 32/11 Q1010;EQDQ01+000000PRSWM2Q02  00002PRCP99
0293605150999992000052006004+35330+004200SY-MT+0461DAAD V0200201N002112200019N0100001N1+02011+01001101291ADDAA199000091GA1031+060009019GF103991001001999999001021IA2240+01609KA1120N+01761MA1101191999999MD1310051+9999MW1001REMSYN088AAXX  20064 60515 33960 30204 10201 20100 40129 53005 80002 333 01600 20176 83070 95900;MET039DAAD 200600Z 02004KT CAVOK 20/10 Q1012;EQDQ01+000000PRSWM2Q02  00002PRCP99
0091605150999992000052007004+35330+004200FM-15+0461DAAD V0200201N00411220001CN0099001N1+02301+01201999999ADDMA1101291999999MW1001REMMET039DAAD 200700Z 02008KT CAVOK 23/12 Q1013;EQDQ01+000000PRSWM2
0091605150999992000052008004+35330+004200FM-15+0461DAAD V0209999C00001220001CN0099001N1+02601+01001999999ADDMA1101291999999MW1001REMMET039DAAD 200800Z 00000KT CAVOK 26/10 Q1013;EQDQ01+000000PRSWM2
0235605150999992000052009004+35330+004200SY-MT+0461DAAD V0200201N004112200019N0080001N1+02801+01041101341ADDGA1021+060009999GF103991001001999999001021MA1101291999999MD1110061+9999MW1001REMSYN076AAXX  20094 60515 42958 30208 10280 20104 40134 51006 80002 333 83070 95900;MET045DAAD 200900Z 02008KT 8000 SCT200 28/10 Q1013;EQDQ01+000000PRSWM2
0139605150999992000052010004+35330+004200FM-15+0461DAAD V0201401N004112200019N0080001N1+03001+01101999999ADDGA1021+060009999GF104991999999999999999999MA1101291999999MW1001REMMET045DAAD 201000Z 14008KT 8000 SCT200 30/11 Q1013;EQDQ01+000000PRSWM2
0139605150999992000052011004+35330+004200FM-15+0461DAAD V0201001N003112200019N0080001N1+03101+01001999999ADDGA1021+060009999GF104991999999999999999999MA1101191999999MW1001REMMET045DAAD 201100Z 10006KT 8000 SCT200 31/10 Q1012;EQDQ01+000000PRSWM2
0162605150999992000052012004+35330+004200FM-15+0461DAAD V0201001N005112200019N0080001N1+03301+01101999999ADDGA1021+012009999GA2021+060009999GF104991999999999999999999MA1101081999999MW1001REMMET052DAAD 201200Z 10010KT 8000 FEW040 SCT200 33/11 Q1011;EQDQ01+000000PRSWM2
0162605150999992000052013004+35330+004200FM-15+0461DAAD V0202001N010312200019N0080001N1+03301+00901999999ADDGA1021+009909999GA2021+060009999GF104991999999999999999999MA1101081999999MW1001REMMET052DAAD 201300Z 20020KT 8000 SCT033 SCT200 33/09 Q1011;EQDQ01+000000PRSWM2
0162605150999992000052014004+35330+004200FM-15+0461DAAD V0202001N009312200019N0080001N1+03401+01001999999ADDGA1021+009909999GA2021+060009999GF104991999999999999999999MA1101021999999MW1001REMMET052DAAD 201400Z 20018KT 8000 SCT033 SCT200 34/10 Q1010;EQDQ01+000000PRSWM2
0166605150999992000052015004+35330+004200FM-12+0461DAAD V0201801N012310600019N0060001N1+03381+00951100961ADDGA1041+009909089GA2031+060009009GF107991041081008001001021MD1710181+9999REMSYN082AAXX  20154 60515 42556 71824 10338 20095 40096 57018 84802 333 84833 83070 95900;
0178605150999992000052016004+35330+004200FM-15+0461DAAD V0201801N012312200019N9999999N1+03301+01001999999ADDGA1021+009909999GA2021+060009999GF104991999999999999999999MA1100911999999MW1001REMMET052DAAD 201600Z 18024KT 6000 SCT033 SCT200 33/10 Q1009;EQDQ01+060002VODIS Q02+000000PRSWM2
0328605150999992000052018004+35330+004200SY-MT+0461DAAD V0203001N008210078019N9999999N1+02721+01331101171ADDAA199000091GA1071+007809999GA2021+009009099GF108991081091008001999999KA1120M+03441MA1101081999999MD1310051+9999MW1001REMSYN088AAXX  20184 60515 32556 83016 10272 20133 40117 53005 889// 333 10344 85826 83930 95900;MET054DAAD 201800Z 30016KT 6000 BKN026 SCT030CB 27/13 Q1011;EQDQ01+060002VODIS Q02+000000PRSWM2Q03  00002PRCP99
0327605150999992000052106004+35330+004200SY-MT+0461DAAD V0203201N00211036001CN0040001N1+02271+01561101171ADDAA124001091GA1021+012009999GA2021+024009999GF107991041081012501071999IA2240+01809KA1120N+02091MA1101081999999MD1810081+9999MW1051REMSYN106AAXX  21064 60515 11640 73204 10227 20156 40117 58008 69994 705// 8487/ 333 018// 20209 84840 83358 95900;MET055DAAD 210600Z 32004KT 4000 HZ SCT040 SCT080 23/16 Q1011;EQDQ01    003PRSWM1
0158605150999992000052107004+35330+004200FM-15+0461DAAD V0200401N004110120019N0040001N1+02701+01101999999ADDGA1071+012009999GF107991999999999999999999MA1101191999999MW1051REMMET048DAAD 210700Z 04008KT 4000 HZ BKN040 27/11 Q1012;EQDQ01+000003PRSWM1Q02    003PRSWM1
0158605150999992000052108004+35330+004200FM-15+0461DAAD V0200201N004110099019N9999999N1+02301+01701999999ADDGA1071+009909029GF107991999999999999999999MA1101291999999MW1001REMMET048DAAD 210800Z 02008KT 7000 BKN033TCU 23/17 Q1013;EQDQ01+070002VODIS Q02+000000PRSWM2
0166605150999992000052109004+35330+004200FM-12+0461DAAD V0200401N002110099019N0070001N1+02451+01471101381ADDGA1051+009909089GA2031+060009009GF108991051081012501041999MD1310181+9999REMSYN082AAXX  21094 60515 42657 80404 10245 20147 40138 53018 8584/ 333 85833 83070 95900;
0178605150999992000052110004+35330+004200FM-15+0461DAAD V0201601N003112200019N9999999N1+02701+01501999999ADDGA1021+009909999GA2021+024009999GF104991999999999999999999MA1101291999999MW1001REMMET052DAAD 211000Z 16006KT 5000 SCT033 SCT080 27/15 Q1013;EQDQ01+050002VODIS Q02+000000PRSWM2
0181605150999992000052111004+35330+004200FM-15+0461DAAD V0201401N006210240019N0050001N1+02801+01201999999ADDGA1021+009909999GA2071+024009999GF107991999999999999999999MA1101291999999MW1051REMMET055DAAD 211100Z 14012KT 5000 HZ SCT033 BKN080 28/12 Q1013;EQDQ01+000003PRSWM1Q02    003PRSWM1
0266605150999992000052112004+35330+004200SY-MT+0461DAAD V0201401N005110240019N0050001N1+03021+01211101251ADDAY141061AY221061GA1071+024009999GF107991071001999999071999MA1101191999999MD1810091+9999MW1051REMSYN088AAXX  21124 60515 12955 71410 10302 20121 40125 58009 70542 8707/ 333 0//00 85358 95900;MET048DAAD 211200Z 14010KT 5000 HZ BKN080 30/12 Q1012;EQDQ01    003PRSWM1
0178605150999992000052114004+35330+004200FM-15+0461DAAD V0202801N006210240019N9999999N1+03101+01001999999ADDGA1021+009909999GA2071+024009999GF107991999999999999999999MA1101081999999MW1001REMMET052DAAD 211400Z 28012KT 4000 FEW033 BKN080 31/10 Q1011;EQDQ01+040002VODIS Q02+000000PRSWM2
0283605150999992000052115004+35330+004200SY-MT+0461DAAD V0203201N00511036001CN0040001N1+03121+01291101091ADDAY141031AY221031GA1021+009909999GA2021+024009999GF107991031081008001041999MA1101021999999MD1710131+9999MW1051REMSYN082AAXX  21154 60515 41540 73210 10312 20129 40109 57013 70542 8384/ 333 83833 84358;MET055DAAD 211500Z 32010KT 4000 HZ SCT033 SCT080 31/13 Q1010;EQDQ01    003PRSWM1
0184605150999992000052116004+35330+004200FM-15+0461DAAD V0203401N004110090019N0040001N1+03001+01401999999ADDGA1071+009009999GA2021+009909029GF107991999999999999999999MA1101021999999MW1051REMMET058DAAD 211600Z 34008KT 4000 HZ SCT033TCU BKN030 30/14 Q1010;EQDQ01+000003PRSWM1Q02    003PRSWM1
0183605150999992000052117004+35330+004200FM-15+0461DAAD V0203601N004112200019N0040001N1+02901+01201999999ADDGA1021+007809099GA2021+009009999GF104991999999999999999999MA1101081999999MW1051REMMET057DAAD 211700Z 36008KT 4000 HZ FEW026CB SCT030 29/12 Q1011;EQDQ01+000003PRSWM1Q02    003PRSWM1
0328605150999992000052118004+35330+004200SY-MT+0461DAAD V0200401N002110090019N9999999N1+02851+01191101131ADDAA199000091GA1071+009009999GA2021+009909099GF108991061091008001071999KA1120M+03651MA1101081999999MD1010021+9999MW1001REMSYN088AAXX  21184 60515 32557 80404 10285 20119 40113 50002 8697/ 333 10365 85830 81933 95900;MET054DAAD 211800Z 04004KT 7000 BKN030 FEW033CB 29/12 Q1011;EQDQ01+070002VODIS Q02+000000PRSWM2Q03  00002PRCP99
0155605150999992000052206004+35330+004200FM-15+0461DAAD V0209999C000010600019N9999999N1+02301+01501999999ADDGA1071+060009999GF107991999999999999999999MA1101391999999MW1001REMMET045DAAD 220600Z 00000KT 6000 BKN200 23/15 Q1014;EQDQ01+060002VODIS Q02+000000PRSWM2
0155605150999992000052207004+35330+004200FM-15+0461DAAD V0202601N007210600019N9999999N1+02501+01401999999ADDGA1071+060009999GF107991999999999999999999MA1101491999999MW1001REMMET045DAAD 220700Z 26014KT 6000 BKN200 25/14 Q1015;EQDQ01+060002VODIS Q02+000000PRSWM2
0296605150999992000052209004+35330+004200SY-MT+0461DAAD V0200601N003110600019N9999999N1+02741+01471101511ADDGA1021+024009999GA2071+060009999GF199999011001999999081021MA1101491999999MD1110111+9999MW1001REMSYN082AAXX  22094 60515 42957 60606 10274 20147 40151 51011 81082 333 81358 85070 95900;MET052DAAD 220900Z 06006KT 7000 FEW080 BKN200 27/15 Q1015;EQDQ01+000062SCOTCVQ02+070002VODIS Q03+000000PRSWM2
0178605150999992000052210004+35330+004200FM-15+0461DAAD V0209999C000010600019N9999999N1+02901+01501999999ADDGA1021+024009999GA2071+060009999GF107991999999999999999999MA1101491999999MW1001REMMET052DAAD 221000Z 00000KT 7000 FEW080 BKN200 29/15 Q1015;EQDQ01+070002VODIS Q02+000000PRSWM2
0178605150999992000052211004+35330+004200FM-15+0461DAAD V0203401N005110600019N9999999N1+03001+01401999999ADDGA1021+024009999GA2071+060009999GF107991999999999999999999MA1101491999999MW1001REMMET052DAAD 221100Z 34010KT 7000 FEW080 BKN200 30/14 Q1015;EQDQ01+070002VODIS Q02+000000PRSWM2
0202605150999992000052212004+35330+004200FM-12+0461DAAD V0200201N004110600019N0070001N1+03081+01471101491ADDAA199000091GA1021+024009039GA2041+060009009GF107991021001999999081021MD1410001+9999REMSYN088AAXX  22124 60515 32957 70208 10308 20147 40149 54001 82082 333 0//00 82358 84070 95900;EQDQ01  00002PRCP99
0181605150999992000052214004+35330+004200FM-15+0461DAAD V0200201N002110600019N9999999N1+03101+01401999999ADDGA1021+012009029GA2071+060009999GF107991999999999999999999MA1101391999999MW1001REMMET055DAAD 221400Z 02004KT 7000 FEW040TCU BKN200 31/14 Q1014;EQDQ01+070002VODIS Q02+000000PRSWM2
0282605150999992000052215004+35330+004200SY-MT+0461DAAD V0200601N00311007501CN9999999N1+03061+01431101451ADDGA1021+009009999GA2021+009909099GF108991051091008001001021MA1101391999999MD1610051+9999MW1001REMSYN082AAXX  22154 60515 42557 80606 10306 20143 40145 56005 85902 333 81933 84830 95900;MET054DAAD 221500Z 06006KT 7000 FEW033CB SCT030 31/14 Q1014;EQDQ01+070002VODIS Q02+000000PRSWM2
0167605150999992000052216004+35330+004200FM-15+0461DAAD V0201601N003110600019N0080001N1+02601+01601999999ADDGA1021+030009999GA2071+060009999GF107991999999999999999999MA1101391999999MW1001REMMET057DAAD 221600Z 16006KT 8000 SCT100 BKN200 26/16 Q1014 RERA;EQDQ01+000000PRSWM2
0162605150999992000052217004+35330+004200FM-15+0461DAAD V0201601N003112200019N0080001N1+02801+01601999999ADDGA1021+009909999GA2021+060009999GF104991999999999999999999MA1101391999999MW1001REMMET052DAAD 221700Z 16006KT 8000 FEW033 SCT200 28/16 Q1014;EQDQ01+000000PRSWM2
0310605150999992000052218004+35330+004200SY-MT+0461DAAD V0201401N04272090001CN0080001N1+02801+01801101431ADDAA112001091GA1021+009909999GA2021+060009999GF105991021081008001001021KA1120M+03151MA1101391999999MD1810041+9999MW1001REMSYN088AAXX  22184 60515 12558 51483 20176 40143 58004 60012 82802 333 10315 82833 84070 95900;MET052DAAD 221800Z 14004KT 8000 FEW033 SCT200 28/18 Q1014;EQDQ01+004273WOSPD Q02+000000PRSWM2
0162605150999992000052306004+35330+004200FM-15+0461DAAD V0209999C000010600019N0070001N1+02101+01801999999ADDGA1021+024009999GA2071+060009999GF107991999999999999999999MA1101691999999MW1001REMMET052DAAD 230600Z 00000KT 7000 SCT080 BKN200 21/18 Q1017;EQDQ01+000000PRSWM2
0162605150999992000052307004+35330+004200FM-15+0461DAAD V0200401N003110480019N0070001N1+02301+01801999999ADDGA1021+009909999GA2071+048009999GF107991999999999999999999MA1101691999999MW1001REMMET052DAAD 230700Z 04006KT 7000 FEW033 BKN166 23/18 Q1017;EQDQ01+000000PRSWM2
0155605150999992000052308004+35330+004200FM-15+0461DAAD V0209999C000010480019N9999999N1+02501+01701999999ADDGA1071+048009999GF107991999999999999999999MA1101691999999MW1001REMMET045DAAD 230800Z 00000KT 7000 BKN166 25/17 Q1017;EQDQ01+070002VODIS Q02+000000PRSWM2
0251605150999992000052309004+35330+004200SY-MT+0461DAAD V0201601N00211048001CN0250001N1+02721+01571101741ADDGA1071+048009999GF199999001001999999001021MA1101691999999MD1010041+9999MW1001REMSYN076AAXX  23094 60515 42975 51604 10272 20157 40174 50004 80002 333 85073 95900;MET045DAAD 230900Z 16004KT 7000 BKN166 27/16 Q1017;EQDQ01+000052SCOTCVQ02+000000PRSWM2
0139605150999992000052310004+35330+004200FM-15+0461DAAD V0209999C000010480019N0080001N1+02901+01601999999ADDGA1081+048009999GF108991999999999999999999MA1101691999999MW1001REMMET045DAAD 231000Z 00000KT 8000 OVC166 29/16 Q1017;EQDQ01+000000PRSWM2
0268605150999992000052312004+35330+004200SY-MT+0461DAAD V0200801N005110480019N0070001N1+03151+01381101581ADDAA199000091GA1081+048009999GF108991001001999999001021MA1101491999999MD1810121+9999MW1001REMSYN082AAXX  23124 60515 32957 80810 10315 20138 40158 58012 80002 333 0//00 88066 95900;MET045DAAD 231200Z 08010KT 7000 OVC166 32/14 Q1015;EQDQ01+000000PRSWM2Q02  00002PRCP99
0178605150999992000052313004+35330+004200FM-15+0461DAAD V0201001N007210480019N9999999N1+03201+01301999999ADDGA1021+009909999GA2071+048009999GF107991999999999999999999MA1101491999999MW1001REMMET052DAAD 231300Z 10014KT 7000 FEW033 BKN166 32/13 Q1015;EQDQ01+070002VODIS Q02+000000PRSWM2
0181605150999992000052314004+35330+004200FM-15+0461DAAD V0201001N007210480019N9999999N1+03201+01301999999ADDGA1021+009909029GA2071+048009999GF107991999999999999999999MA1101491999999MW1001REMMET055DAAD 231400Z 10014KT 7000 SCT033TCU BKN166 32/13 Q1015;EQDQ01+070002VODIS Q02+000000PRSWM2
0288605150999992000052315004+35330+004200SY-MT+0461DAAD V0201201N008210480019N9999999N1+03091+01381101481ADDGA1021+009009099GA2071+048009999GF108991031091008001001021MA1101391999999MD1710141+9999MW1001REMSYN088AAXX  23154 60515 42556 81216 10309 20138 40148 57014 83902 333 81830 81930 85066 95900;MET054DAAD 231500Z 12016KT 6000 FEW030CB BKN166 31/14 Q1014;EQDQ01+060002VODIS Q02+000000PRSWM2
0203605150999992000052316004+35330+004200FM-15+0461DAAD V0201001N006210480019N9999999N1+03101+01401999999ADDGA1021+009009999GA2021+009909099GA3071+048009999GF107991999999999999999999MA1101391999999MW1001REMMET061DAAD 231600Z 10012KT 6000 FEW030 FEW033CB BKN166 31/14 Q1014;EQDQ01+060002VODIS Q02+000000PRSWM2
0162605150999992000052317004+35330+004200FM-15+0461DAAD V0202601N005110600019N0070001N1+02901+01501999999ADDGA1021+009009999GA2071+060009999GF107991999999999999999999MA1101291999999MW1001REMMET052DAAD 231700Z 26010KT 7000 FEW030 BKN200 29/15 Q1013;EQDQ01+000000PRSWM2
0326605150999992000052318004+35330+004200SY-MT+0461DAAD V0202601N002110480019N9999999N1+02941+01481101371ADDAA199000091GA1021+009009999GA2071+048009999GF108991011081008001071021KA1120M+03301MA1101291999999MD1510111+9999MW1001REMSYN088AAXX  23184 60515 32556 82604 10294 20148 40137 55011 81872 333 10330 81830 85166 95900;MET052DAAD 231800Z 26004KT 6000 FEW030 BKN166 29/15 Q1013;EQDQ01+060002VODIS Q02+000000PRSWM2Q03  00002PRCP99
0284605150999992000052406004+35330+004200SY-MT+0461DAAD V0202601N004112200019N9999999N1+02281+01381101491ADDAA199000091GF100991001001999999001001IA2240+01709KA1120N+01941MA1101391999999MD1310011+9999MW1001REMSYN076AAXX  24064 60515 33957 02608 10228 20138 40149 53001 333 01700 20194 95900;MET042DAAD 240600Z 26008KT 7000 SKC 23/14 Q1014;EQDQ01+070002VODIS Q02+000000PRSWM2Q03  00002PRCP99
0155605150999992000052407004+35330+004200FM-15+0461DAAD V0202401N005112200019N9999999N1+02401+01401999999ADDGA1021+060009999GF102991999999999999999999MA1101391999999MW1001REMMET045DAAD 240700Z 24010KT 7000 FEW200 24/14 Q1014;EQDQ01+070002VODIS Q02+000000PRSWM2
0155605150999992000052408004+35330+004200FM-15+0461DAAD V0209999C000012200019N9999999N1+02601+01501999999ADDGA1021+060009999GF104991999999999999999999MA1101491999999MW1001REMMET045DAAD 240800Z 00000KT 7000 SCT200 26/15 Q1015;EQDQ01+070002VODIS Q02+000000PRSWM2
0251605150999992000052409004+35330+004200SY-MT+0461DAAD V0203001N003112200019N9999999N1+02801+01621101531ADDGA1021+030009999GF102991001001999999001021MA1101491999999MD1010051+9999MW1001REMSYN076AAXX  24094 60515 42957 23006 10280 20162 40153 50005 80002 333 82073 95900;MET045DAAD 240900Z 30006KT 9000 FEW100 28/16 Q1015;EQDQ01+070002VODIS Q02+000000PRSWM2
0139605150999992000052410004+35330+004200FM-15+0461DAAD V0201201N003112200019N0080001N1+02901+01601999999ADDGA1021+009009999GF102991999999999999999999MA1101491999999MW1001REMMET045DAAD 241000Z 12006KT 8000 FEW030 29/16 Q1015;EQDQ01+000000PRSWM2
0139605150999992000052411004+35330+004200FM-15+0461DAAD V0201001N005112200019N0080001N1+03001+01501999999ADDGA1021+007809999GF104991999999999999999999MA1101391999999MW1001REMMET045DAAD 241100Z 10010KT 8000 SCT026 30/15 Q1014;EQDQ01+000000PRSWM2
0284605150999992000052412004+35330+004200SY-MT+0461DAAD V0201201N004112200019N9999999N1+03051+01561101421ADDAA199000091GA1021+007809999GF103991031021008001001001MA1101391999999MD1810101+9999MW1001REMSYN082AAXX  24124 60515 32557 31208 10305 20156 40142 58010 83200 333 0//00 83826 95900;MET045DAAD 241200Z 12008KT 7000 SCT026 31/16 Q1014;EQDQ01+070002VODIS Q02+000000PRSWM2Q03  00002PRCP99
0155605150999992000052413004+35330+004200FM-15+0461DAAD V0201601N004112200019N9999999N1+03201+01601999999ADDGA1021+007809999GF104991999999999999999999MA1101291999999MW1001REMMET045DAAD 241300Z 16008KT 7000 SCT026 32/16 Q1013;EQDQ01+070002VODIS Q02+000000PRSWM2
0155605150999992000052414004+35330+004200FM-15+0461DAAD V0201401N004112200019N9999999N1+03301+01601999999ADDGA1021+009009999GF104991999999999999999999MA1101191999999MW1001REMMET045DAAD 241400Z 14008KT 7000 SCT030 33/16 Q1012;EQDQ01+070002VODIS Q02+000000PRSWM2
0277605150999992000052415004+35330+004200SY-MT+0461DAAD V0202201N002110078019N0020001N1+03181+01401101151ADDAY191031AY221031GA1071+007809999GA2021+009009099GF108991999999008001999999MA1101081999999MD1710271+9999MW1901MW2991REMSYN082AAXX  24154 60515 41520 82204 10318 20140 40115 57027 79992 333 85826 83930 95990;MET062DAAD 241500Z 22004KT 2000 +TSRAGR BKN026 SCT030CB 32/14 Q1011;
0192605150999992000052416004+35330+004200FM-15+0461DAAD V0201801N006210090019N0020001N1+02401+01901999999ADDGA1021+007809099GA2071+009009999GF107991999999999999999999MA1101081999999MW1821MW2971REMMET060DAAD 241600Z 18012KT 2000 +TSRA SCT026CB BKN030 24/19 Q1011;EQDQ01+000003PRSWM1Q02    003PRSWM1
0159605150999992000052417004+35330+004200FM-15+0461DAAD V0200201N00311220001CN0070001N1+02501+02001999999ADDGA1071+007809999GA2021+009009099MA1101021999999MW1001REMMET059DAAD 241700Z 02006KT 7000 BKN026 FEW030CB 25/20 Q1010 RERA;EQDQ01+000022SCOTCVQ02+000000PRSWM2
0327605150999992000052418004+35330+004200SY-MT+0461DAAD V0202201N002110090019N0060001N1+02461+01911101071ADDAA112007991AY191061AY221061GA1021+007809099GA2071+009009999GF108991071091008001071999KA1120M+03261MA1101021999999MD1810111+9999MW1171REMSYN100AAXX  24184 60515 11556 82204 10246 20191 40107 58011 60082 71792 8797/ 333 10326 82906 85830 95900;MET057DAAD 241800Z 22004KT 6000 TS FEW026CB BKN030 25/19 Q1010;EQDQ01    003PRSWM1
0162605150999992000052507004+35330+004200FM-15+0461DAAD V0202801N005110060019N0112651N1+02001+01601999999ADDGA1021+003009999GA2071+006009999GF107991999999999999999999MA1101491999999MW1001REMMET052DAAD 250700Z 28010KT 9999 FEW010 BKN020 20/16 Q1015;EQDQ01+000000PRSWM2
0162605150999992000052508004+35330+004200FM-15+0461DAAD V0203001N006210060019N0112651N1+02001+01501999999ADDGA1021+003009999GA2071+006009999GF107991999999999999999999MA1101491999999MW1001REMMET052DAAD 250800Z 30012KT 9999 FEW010 BKN020 20/15 Q1015;EQDQ01+000000PRSWM2
0251605150999992000052509004+35330+004200SY-MT+0461DAAD V0203001N007210078019N0100001N1+02151+01491101581ADDGA1071+007809999GF199999051021012501001001MA1101491999999MD1310081+9999MW1001REMSYN076AAXX  25094 60515 42660 53014 10215 20149 40158 53008 85200 333 85826 95900;MET045DAAD 250900Z 30014KT 9999 BKN026 22/15 Q1015;EQDQ01+000052SCOTCVQ02+000000PRSWM2
0162605150999992000052511004+35330+004200FM-15+0461DAAD V0203001N010310060019N0112651N1+02201+01501999999ADDGA1021+003009999GA2071+006009999GF107991999999999999999999MA1101491999999MW1001REMMET052DAAD 251100Z 30020KT 9999 FEW010 BKN020 22/15 Q1015;EQDQ01+000000PRSWM2
0313605150999992000052512004+35330+004200SY-MT+0461DAAD V0203001N010310060019N0100001N1+02181+01511101471ADDAA199000091GA1071+006009999GA2021+024009999GF199999051081004501071001MA1101391999999MD1810121+9999MW1001REMSYN088AAXX  25124 60515 32460 63020 10218 20151 40147 58012 85870 333 0//00 85820 83358 95900;MET052DAAD 251200Z 30020KT 9999 BKN020 SCT080 22/15 Q1014;EQDQ01+000062SCOTCVQ02+000000PRSWM2Q03  00002PRCP99
0152605150999992000052513004+35330+004200FM-15+0461DAAD V0203001N01231220001CN0112651N1+02201+01301999999ADDGA1071+006009999GA2021+024009999MA1101491999999MW1001REMMET052DAAD 251300Z 30024KT 9999 BKN020 SCT080 22/13 Q1015;EQDQ01+000042SCOTCVQ02+000000PRSWM2
0152605150999992000052514004+35330+004200FM-15+0461DAAD V0203001N01131220001CN0112651N1+02201+01301999999ADDGA1071+006009999GA2021+024009999MA1101491999999MW1001REMMET052DAAD 251400Z 30022KT 9999 BKN020 SCT080 22/13 Q1015;EQDQ01+000042SCOTCVQ02+000000PRSWM2
0166605150999992000052515004+35330+004200FM-12+0461DAAD V0203001N009310060019N0100001N1+02231+01201101511ADDGA1051+006009089GA2031+024009039GF107991071081008001071999MD1610081+9999REMSYN082AAXX  25154 60515 42560 73018 10223 20120 40151 56008 8787/ 333 85820 83358 95900;
0152605150999992000052516004+35330+004200FM-15+0461DAAD V0203401N01031220001CN0112651N1+02101+01301999999ADDGA1071+006009999GA2021+024009999MA1101491999999MW1001REMMET052DAAD 251600Z 34020KT 9999 BKN020 SCT080 21/13 Q1015;EQDQ01+000042SCOTCVQ02+000000PRSWM2
0139605150999992000052517004+35330+004200FM-15+0461DAAD V0203601N007210078019N0112651N1+02001+01401999999ADDGA1071+007809999GF107991999999999999999999MA1101491999999MW1001REMMET045DAAD 251700Z 36014KT 9999 BKN026 20/14 Q1015;EQDQ01+000000PRSWM2
0281605150999992000052518004+35330+004200SY-MT+0461DAAD V0201401N002110069019N0100001N1+01871+01431101621ADDAA199000091GA1071+006909999GF108991071081008001071999KA1120M+02271MA1101591999999MD1310081+9999MW1001REMSYN082AAXX  25184 60515 32560 81404 10187 20143 40162 53008 8787/ 333 10227 87823 95900;MET045DAAD 251800Z 14004KT 9999 BKN023 19/14 Q1016;EQDQ01+000000PRSWM2Q02  00002PRCP99
0162605150999992000052606004+35330+004200FM-15+0461DAAD V0203201N007210090019N0080001N1+01601+01101999999ADDGA1021+003909999GA2071+009009999GF107991999999999999999999MA1101801999999MW1001REMMET052DAAD 260600Z 32014KT 8000 FEW013 BKN030 16/11 Q1018;EQDQ01+000000PRSWM2
0162605150999992000052607004+35330+004200FM-15+0461DAAD V0203201N007212200019N0080001N1+01801+01201999999ADDGA1021+003909999GA2021+009009999GF104991999999999999999999MA1101801999999MW1001REMMET052DAAD 260700Z 32014KT 8000 FEW013 SCT030 18/12 Q1018;EQDQ01+000000PRSWM2
0162605150999992000052608004+35330+004200FM-15+0461DAAD V0203201N009310390019N0080001N1+01901+01301999999ADDGA1021+003909999GA2071+039009999GF107991999999999999999999MA1101801999999MW1001REMMET052DAAD 260800Z 32018KT 8000 FEW013 BKN133 19/13 Q1018;EQDQ01+000000PRSWM2
0264605150999992000052609004+35330+004200SY-MT+0461DAAD V0203201N007210900019N0100001N1+02051+01201101831ADDGA1021+006009999GA2021+015009999GF106991041081008001001021MA1101801999999MD1010031+9999MW1001REMSYN082AAXX  26094 60515 42560 63214 10205 20120 40183 50003 84802 333 81820 83650 95900;MET052DAAD 260900Z 32014KT 9999 FEW020 SCT050 21/12 Q1018;EQDQ01+000000PRSWM2
0162605150999992000052610004+35330+004200FM-15+0461DAAD V0203201N007212200019N0112651N1+02201+01201999999ADDGA1021+006009999GA2021+069009999GF104991999999999999999999MA1101801999999MW1001REMMET052DAAD 261000Z 32014KT 9999 FEW020 SCT233 22/12 Q1018;EQDQ01+000000PRSWM2
0162605150999992000052611004+35330+004200FM-15+0461DAAD V0203201N007212200019N0112651N1+02301+01201999999ADDGA1021+006909999GA2021+048009999GF104991999999999999999999MA1101691999999MW1001REMMET052DAAD 261100Z 32014KT 9999 FEW023 SCT166 23/12 Q1017;EQDQ01+000000PRSWM2
0291605150999992000052612004+35330+004200SY-MT+0461DAAD V0203201N007219999999N0100001N1+02411+01201101711ADDAA199000091GA1021+007809999GA2021+051009999GF106991999999008001999999MA1101691999999MD1810081+9999MW1001REMSYN082AAXX  26124 60515 32560 63214 10241 20120 40171 58008 93502 333 0//00 83626 95900;MET052DAAD 261200Z 32014KT 9999 SCT026 SCT170 24/12 Q1017;EQDQ01+000000PRSWM2Q02  00002PRCP99
0139605150999992000052613004+35330+004200FM-15+0461DAAD V0203401N007212200019N0112651N1+02501+01201999999ADDGA1021+007809999GF104991999999999999999999MA1101591999999MW1001REMMET045DAAD 261300Z 34014KT 9999 SCT026 25/12 Q1016;EQDQ01+000000PRSWM2
0139605150999992000052614004+35330+004200FM-15+0461DAAD V0203401N007212200019N0112651N1+02601+01201999999ADDGA1021+007809999GF104991999999999999999999MA1101591999999MW1001REMMET045DAAD 261400Z 34014KT 9999 SCT026 26/12 Q1016;EQDQ01+000000PRSWM2
0235605150999992000052615004+35330+004200SY-MT+0461DAAD V0203401N008212200019N0100001N1+02601+01231101551ADDGA1021+007809999GF104991041081008001001021MA1101491999999MD1710131+9999MW1001REMSYN076AAXX  26154 60515 42560 43416 10260 20123 40155 57013 84802 333 84826 95900;MET045DAAD 261500Z 34016KT 9999 SCT026 26/12 Q1015;EQDQ01+000000PRSWM2
0139605150999992000052617004+35330+004200FM-15+0461DAAD V0203401N008212200019N0112651N1+02601+01201999999ADDGA1021+007809999GF104991999999999999999999MA1101391999999MW1001REMMET045DAAD 261700Z 34016KT 9999 SCT026 26/12 Q1014;EQDQ01+000000PRSWM2
0281605150999992000052618004+35330+004200SY-MT+0461DAAD V0203401N008212200019N0100001N1+02521+01311101581ADDAA199000091GA1021+007809999GF103991031051008001001001KA1120M+02671MA1101491999999MD1310011+9999MW1001REMSYN082AAXX  26184 60515 32560 33416 10252 20131 40158 53001 83500 333 10267 83626 95900;MET045DAAD 261800Z 34016KT 9999 SCT026 25/13 Q1015;EQDQ01+000000PRSWM2Q02  00002PRCP99
0265605150999992000052706004+35330+004200SY-MT+0461DAAD V0203401N004112200019N0100001N1+01951+00941101731ADDAA199000091GF100991001001999999001001IA2240+01209KA1120N+01511MA1101691999999MD1410001+9999MW1001REMSYN076AAXX  27064 60515 33960 03408 10195 20094 40173 54000 333 01200 20151 95900;MET039DAAD 270600Z 34008KT CAVOK 20/09 Q1017;EQDQ01+000000PRSWM2Q02  00002PRCP99
0091605150999992000052707004+35330+004200FM-15+0461DAAD V0203401N00411220001CN0099001N1+02101+01001999999ADDMA1101691999999MW1001REMMET039DAAD 270700Z 34008KT CAVOK 21/10 Q1017;EQDQ01+000000PRSWM2
0091605150999992000052708004+35330+004200FM-15+0461DAAD V0203601N00411220001CN0099001N1+02201+01001999999ADDMA1101691999999MW1001REMMET039DAAD 270800Z 36008KT CAVOK 22/10 Q1017;EQDQ01+000000PRSWM2
0091605150999992000052709004+35330+004200FM-15+0461DAAD V0201401N00411220001CN0099001N1+02401+01201999999ADDMA1101691999999MW1001REMMET039DAAD 270900Z 14008KT CAVOK 24/12 Q1017;EQDQ01+000000PRSWM2
0139605150999992000052710004+35330+004200FM-15+0461DAAD V0201201N007212200019N0112651N1+02501+01301999999ADDGA1021+012009999GF102991999999999999999999MA1101691999999MW1001REMMET045DAAD 271000Z 12014KT 9999 FEW040 25/13 Q1017;EQDQ01+000000PRSWM2
0139605150999992000052711004+35330+004200FM-15+0461DAAD V0203601N005112200019N0112651N1+02601+01401999999ADDGA1021+009909999GF102991999999999999999999MA1101691999999MW1001REMMET045DAAD 271100Z 36010KT 9999 FEW033 26/14 Q1017;EQDQ01+000000PRSWM2
0268605150999992000052712004+35330+004200SY-MT+0461DAAD V0203601N004112200019N0100001N1+02741+01381101691ADDAA199000091GA1021+009009999GF103991031021008001001001MA1101591999999MD1810061+9999MW1001REMSYN082AAXX  27124 60515 32560 33608 10274 20138 40169 58006 83200 333 0//00 83830 95900;MET045DAAD 271200Z 36008KT 9999 SCT030 27/14 Q1016;EQDQ01+000000PRSWM2Q02  00002PRCP99
0251605150999992000052715004+35330+004200SY-MT+0461DAAD V0200401N003110078019N0100001N1+02821+01411101611ADDGA1071+007809999GF199999051081008001001001MA1101591999999MD1710101+9999MW1001REMSYN076AAXX  27154 60515 42560 50406 10282 20141 40161 57010 85800 333 85826 95900;MET045DAAD 271500Z 04006KT 9999 BKN026 28/14 Q1016;EQDQ01+000052SCOTCVQ02+000000PRSWM2
0139605150999992000052716004+35330+004200FM-15+0461DAAD V0200401N003110078019N0112651N1+02701+01401999999ADDGA1071+007809999GF107991999999999999999999MA1101491999999MW1001REMMET045DAAD 271600Z 04006KT 9999 BKN026 27/14 Q1015;EQDQ01+000000PRSWM2
0139605150999992000052717004+35330+004200FM-15+0461DAAD V0200401N004110078019N0112651N1+02801+01501999999ADDGA1071+007809999GF107991999999999999999999MA1101491999999MW1001REMMET045DAAD 271700Z 04008KT 9999 BKN026 28/15 Q1015;EQDQ01+000000PRSWM2
0297605150999992000052718004+35330+004200SY-MT+0461DAAD V0200201N003110078019N0100001N1+02701+00991101561ADDAA199000091GA1071+007809999GF199999051081008001001001KA1120M+02901MA1101491999999MD1510031+9999MW1001REMSYN082AAXX  27184 60515 32560 50206 10270 20099 40156 55003 85800 333 10290 85826 95900;MET045DAAD 271800Z 02006KT 9999 BKN026 27/10 Q1015;EQDQ01+000052SCOTCVQ02+000000PRSWM2Q03  00002PRCP99
0315605150999992000052806004+35330+004200SY-MT+0461DAAD V0201601N002112200019N0100001N1+01921+01271101961ADDAA199000091GA1021+009909999GF199999011021008001071001IA2240+01409KA1120N+01691MA1101901999999MD1310021+9999MW1001REMSYN088AAXX  28064 60515 33560 11604 10192 20127 40196 53002 81270 333 01400 20169 81833 95900;MET045DAAD 280600Z 16004KT 9999 FEW033 19/13 Q1019;EQDQ01+000012SCOTCVQ02+000000PRSWM2Q03  00002PRCP99
0139605150999992000052807004+35330+004200FM-15+0461DAAD V0200201N002612200019N0112651N1+02201+01301999999ADDGA1021+009909999GF102991999999999999999999MA1101901999999MW1001REMMET045DAAD 280700Z 02005KT 9999 FEW033 22/13 Q1019;EQDQ01+000000PRSWM2
0139605150999992000052808004+35330+004200FM-15+0461DAAD V0203201N002112200019N0112651N1+02301+01201999999ADDGA1021+009909999GF102991999999999999999999MA1102001999999MW1001REMMET045DAAD 280800Z 32004KT 9999 FEW033 23/12 Q1020;EQDQ01+000000PRSWM2
0144605150999992000052809004+35330+004200FM-12+0461DAAD V0200201N002112200019N0100001N1+02441+01181102021ADDGA1011+009909089GF102991011021999999071021MD1310071+9999REMSYN076AAXX  28094 60515 42960 20204 10244 20118 40202 53007 81272 333 81833 95900;
0139605150999992000052811004+35330+004200FM-15+0461DAAD V0203601N005112200019N0112651N1+02701+01001999999ADDGA1021+007809999GF104991999999999999999999MA1102001999999MW1001REMMET045DAAD 281100Z 36010KT 9999 SCT026 27/10 Q1020;EQDQ01+000000PRSWM2
0284605150999992000052812004+35330+004200SY-MT+0461DAAD V0202801N004110078019N0100001N1+02871+00841101921ADDAA199000091GA1071+007809999GF199999051021008001001001MA1101901999999MD1810081+9999MW1001REMSYN082AAXX  28124 60515 32560 52808 10287 20084 40192 58008 85200 333 0//00 85826 95900;MET045DAAD 281200Z 28008KT 9999 BKN026 29/08 Q1019;EQDQ01+000052SCOTCVQ02+000000PRSWM2Q03  00002PRCP99
0139605150999992000052813004+35330+004200FM-15+0461DAAD V0202601N010310078019N0112651N1+02901+00901999999ADDGA1071+007809999GF107991999999999999999999MA1101801999999MW1001REMMET045DAAD 281300Z 26020KT 9999 BKN026 29/09 Q1018;EQDQ01+000000PRSWM2
0139605150999992000052814004+35330+004200FM-15+0461DAAD V0202801N006212200019N0112651N1+03001+00701999999ADDGA1021+007809999GF104991999999999999999999MA1101801999999MW1001REMMET045DAAD 281400Z 28012KT 9999 SCT026 30/07 Q1018;EQDQ01+000000PRSWM2
0264605150999992000052815004+35330+004200SY-MT+0461DAAD V0202601N00621090001CN0100001N1+03051+00731101761ADDGA1021+007809999GA2021+060009999GF105991041021008001001021MA1101691999999MD1710131+9999MW1001REMSYN082AAXX  28154 60515 42560 52612 10305 20073 40176 57013 84202 333 84826 83073 95900;MET052DAAD 281500Z 26012KT 9999 SCT026 SCT200 31/07 Q1017;EQDQ01+000000PRSWM2
0139605150999992000052816004+35330+004200FM-15+0461DAAD V0203001N006212200019N0112651N1+03101+00701999999ADDGA1021+009009999GF104991999999999999999999MA1101691999999MW1001REMMET045DAAD 281600Z 30012KT 9999 SCT030 31/07 Q1017;EQDQ01+000000PRSWM2
0139605150999992000052817004+35330+004200FM-15+0461DAAD V0202601N006212200019N0112651N1+03101+00601999999ADDGA1021+009009999GF102991999999999999999999MA1101591999999MW1001REMMET045DAAD 281700Z 26012KT 9999 FEW030 31/06 Q1016;EQDQ01+000000PRSWM2
0310605150999992000052818004+35330+004200SY-MT+0461DAAD V0203201N005112200019N0100001N1+03001+00611101731ADDAA199000091GA1021+009009999GA2021+060009999GF104991021021008001001021KA1120M+03111MA1101691999999MD1510051+9999MW1001REMSYN088AAXX  28184 60515 32560 43210 10300 20061 40173 55005 82202 333 10311 82830 83070 95900;MET052DAAD 281800Z 32010KT 9999 FEW030 SCT200 30/06 Q1017;EQDQ01+000000PRSWM2Q02  00002PRCP99
0265605150999992000052906004+35330+004200SY-MT+0461DAAD V0209999C000012200019N0100001N1+02121+00911101951ADDAA199000091GF100991001001999999001001IA2240+01409KA1120N+01741MA1101901999999MD1310051+9999MW1001REMSYN076AAXX  29064 60515 33960 00000 10212 20091 40195 53005 333 01400 20174 95900;MET039DAAD 290600Z 00000KT CAVOK 21/09 Q1019;EQDQ01+000000PRSWM2Q02  00002PRCP99
0091605150999992000052907004+35330+004200FM-15+0461DAAD V0209999C00001220001CN0099001N1+02201+00901999999ADDMA1102001999999MW1001REMMET039DAAD 290700Z 00000KT CAVOK 22/09 Q1020;EQDQ01+000000PRSWM2
0091605150999992000052908004+35330+004200FM-15+0461DAAD V0201201N00211220001CN0099001N1+02601+00801999999ADDMA1102101999999MW1001REMMET039DAAD 290800Z 12004KT CAVOK 26/08 Q1021;EQDQ01+000000PRSWM2
0201605150999992000052909004+35330+004200SY-MT+0461DAAD V0200201N002112200019N0100001N1+02751+00881102151ADDGF100991001001999999001001MA1102101999999MD1110031+9999MW1001REMSYN064AAXX  29094 60515 42960 00204 10275 20088 40215 51003 333 95900;MET039DAAD 290900Z 02004KT CAVOK 28/09 Q1021;EQDQ01+000000PRSWM2
0091605150999992000052910004+35330+004200FM-15+0461DAAD V0203601N00311220001CN0099001N1+02901+01001999999ADDMA1102101999999MW1001REMMET039DAAD 291000Z 36006KT CAVOK 29/10 Q1021;EQDQ01+000000PRSWM2
0091605150999992000052911004+35330+004200FM-15+0461DAAD V0203201N00411220001CN0099001N1+03001+01101999999ADDMA1102101999999MW1001REMMET039DAAD 291100Z 32008KT CAVOK 30/11 Q1021;EQDQ01+000000PRSWM2
0234605150999992000052912004+35330+004200SY-MT+0461DAAD V0209999C000012200019N0100001N1+03041+00991101991ADDAA199000091GF100991001001999999001001MA1102001999999MD1810111+9999MW1001REMSYN070AAXX  29124 60515 32960 00000 10304 20099 40199 58011 333 0//00 95900;MET039DAAD 291200Z 00000KT CAVOK 30/10 Q1020;EQDQ01+000000PRSWM2Q02  00002PRCP99
0139605150999992000052913004+35330+004200FM-15+0461DAAD V0200801N004112200019N0112651N1+03201+01001999999ADDGA1021+012009999GF102991999999999999999999MA1101901999999MW1001REMMET045DAAD 291300Z 08008KT 9999 FEW040 32/10 Q1019;EQDQ01+000000PRSWM2
0139605150999992000052914004+35330+004200FM-15+0461DAAD V0200501N005112200019N0112651N1+03201+00801999999ADDGA1021+012009999GF102991999999999999999999MA1101801999999MW1001REMMET045DAAD 291400Z 05010KT 9999 FEW040 32/08 Q1018;EQDQ01+000000PRSWM2
0251605150999992000052915004+35330+004200SY-MT+0461DAAD V0201401N004112200019N0150001N1+03321+00731101791ADDGA1021+012009999GF199999011021012501001001MA1101691999999MD1710181+9999MW1001REMSYN076AAXX  29154 60515 /2665 11408 10332 20073 40179 57018 81200 333 81840 95900;MET045DAAD 291500Z 14008KT 9999 FEW040 33/07 Q1017;EQDQ01+000012SCOTCVQ02+000000PRSWM2
0139605150999992000052916004+35330+004200FM-15+0461DAAD V0200601N003112200019N0112651N1+03301+00801999999ADDGA1021+012009999GF102991999999999999999999MA1101691999999MW1001REMMET045DAAD 291600Z 06006KT 9999 FEW040 33/08 Q1017;EQDQ01+000000PRSWM2
0091605150999992000052917004+35330+004200FM-15+0461DAAD V0203201N00621220001CN0099001N1+03301+00701999999ADDMA1101691999999MW1001REMMET039DAAD 291700Z 32012KT CAVOK 33/07 Q1017;EQDQ01+000000PRSWM2
0247605150999992000052918004+35330+004200SY-MT+0461DAAD V0203201N004112200019N0150001N1+03041+00471101761ADDAA199000091GF100991001001999999001001KA1120M+03381MA1101691999999MD1510031+9999MW1001REMSYN070AAXX  29184 60515 32965 03208 10304 20047 40176 55003 333 10338 95900;MET039DAAD 291800Z 32008KT CAVOK 30/04 Q1017;EQDQ01+000000PRSWM2Q02  00002PRCP99
0265605150999992000053006004+35330+004200SY-MT+0461DAAD V0209999C000012200019N0100001N1+02231+01261102241ADDAA199000091GF100991001001999999001001IA2240+01609KA1120N+01901MA1102201999999MD1310071+9999MW1001REMSYN076AAXX  30064 60515 33960 00000 10223 20126 40224 53007 333 01600 20190 95900;MET039DAAD 300600Z 00000KT CAVOK 22/13 Q1022;EQDQ01+000000PRSWM2Q02  00002PRCP99
0091605150999992000053007004+35330+004200FM-15+0461DAAD V0209999C00001220001CN0099001N1+02601+01101999999ADDMA1102301999999MW1001REMMET039DAAD 300700Z 00000KT CAVOK 26/11 Q1023;EQDQ01+000000PRSWM2
0091605150999992000053008004+35330+004200FM-15+0461DAAD V0201001N00211220001CN0099001N1+02701+01201999999ADDMA1102301999999MW1001REMMET039DAAD 300800Z 10004KT CAVOK 27/12 Q1023;EQDQ01+000000PRSWM2
0200605150999992000053009004+35330+004200SY-MT+0461DAAD V0200801N003112200019N0100001N1+02851+01271102041ADDGF100991001001999999001001MA1102001999999MD1110091+9999MW1001REMSYN063AAXX  30094 60515 42960 00806 1028520127 40204 51009 333 95900;MET039DAAD 300900Z 08006KT CAVOK 29/13 Q1020;EQDQ01+000000PRSWM2
0091605150999992000053010004+35330+004200FM-15+0461DAAD V0200801N00411220001CN0099001N1+02901+01301999999ADDMA1102001999999MW1001REMMET039DAAD 301000Z 08008KT CAVOK 29/13 Q1020;EQDQ01+000000PRSWM2
0139605150999992000053011004+35330+004200FM-15+0461DAAD V0200801N005112200019N0112651N1+03101+01201999999ADDGA1021+012009999GF102991999999999999999999MA1102001999999MW1001REMMET045DAAD 301100Z 08010KT 9999 FEW040 31/12 Q1020;EQDQ01+000000PRSWM2
0268605150999992000053012004+35330+004200SY-MT+0461DAAD V0200401N004112200019N0100001N1+03221+01081102001ADDAA199000091GA1021+012009999GF102991021021012501001001MA1102001999999MD1810111+9999MW1001REMSYN082AAXX  30124 60515 32660 20408 10322 20108 40200 58011 82200 333 0//00 82840 95900;MET045DAAD 301200Z 04008KT 9999 FEW040 32/11 Q1020;EQDQ01+000000PRSWM2Q02  00002PRCP99
0139605150999992000053013004+35330+004200FM-15+0461DAAD V0200401N004112200019N0112651N1+03301+01101999999ADDGA1021+009909999GF102991999999999999999999MA1101901999999MW1001REMMET045DAAD 301300Z 04008KT 9999 FEW033 33/11 Q1019;EQDQ01+000000PRSWM2
0139605150999992000053014004+35330+004200FM-15+0461DAAD V0200401N004112200019N0112651N1+03301+01101999999ADDGA1021+009909999GF102991999999999999999999MA1101801999999MW1001REMMET045DAAD 301400Z 04008KT 9999 FEW033 33/11 Q1018;EQDQ01+000000PRSWM2
0235605150999992000053015004+35330+004200SY-MT+0461DAAD V0203401N004112200019N0100001N1+03481+01051101821ADDGA1021+009909999GF102991021021008001001001MA1101801999999MD1610201+9999MW1001REMSYN076AAXX  30154 60515 42560 23408 10348 20105 40182 56020 82200 333 82833 95900;MET045DAAD 301500Z 34008KT 9999 FEW033 34/11 Q1018;EQDQ01+000000PRSWM2
0139605150999992000053016004+35330+004200FM-15+0461DAAD V0200201N003112200019N0112651N1+03401+00901999999ADDGA1021+009909999GF102991999999999999999999MA1101691999999MW1001REMMET045DAAD 301600Z 02006KT 9999 FEW033 34/09 Q1017;EQDQ01+000000PRSWM2
0139605150999992000053017004+35330+004200FM-15+0461DAAD V0200401N002112200019N0112651N1+03401+00901999999ADDGA1021+009909999GF102991999999999999999999MA1101691999999MW1001REMMET045DAAD 301700Z 04004KT 9999 FEW033 34/09 Q1017;EQDQ01+000000PRSWM2
0139605150999992000053018004+35330+004200FM-15+0461DAAD V0200401N004112200019N0112651N1+03401+01001999999ADDGA1021+009909999GF102991999999999999999999MA1101691999999MW1001REMMET045DAAD 301800Z 04008KT 9999 FEW033 34/10 Q1017;EQDQ01+000000PRSWM2
0293605150999992000053106004+35330+004200SY-MT+0461DAAD V0203601N002112200019N0100001N1+02261+01501101841ADDAA199000091GA1021+060009009GF102991001001999999001021IA2240+01909KA1120N+02051MA1101801999999MD1310041+9999MW1001REMSYN088AAXX  31064 60515 33960 23604 10226 20150 40184 53004 80002 333 01900 20205 82070 95900;MET039DAAD 310600Z 36004KT CAVOK 23/15 Q1018;EQDQ01+000000PRSWM2Q02  00002PRCP99
0091605150999992000053107004+35330+004200FM-15+0461DAAD V0200401N00211220001CN0099001N1+02501+01501999999ADDMA1101801999999MW1001REMMET039DAAD 310700Z 04004KT CAVOK 25/15 Q1018;EQDQ01+000000PRSWM2
0091605150999992000053108004+35330+004200FM-15+0461DAAD V0209999C00001220001CN0099001N1+02801+01401999999ADDMA1101801999999MW1001REMMET039DAAD 310800Z 00000KT CAVOK 28/14 Q1018;EQDQ01+000000PRSWM2
0213605150999992000053109004+35330+004200SY-MT+0461DAAD V0200801N00311220001CN0100001N1+03081+00781101871ADDGF102991001001999999001021MA1101801999999MD1110061+9999MW1001REMSYN076AAXX  31094 60515 42960 20806 10308 20078 40187 51006 80002 333 82070 95900;MET039DAAD 310900Z 08006KT CAVOK 31/08 Q1018;EQDQ01+000000PRSWM2
0091605150999992000053110004+35330+004200FM-15+0461DAAD V0200401N00211220001CN0099001N1+03301+01001999999ADDMA1101801999999MW1001REMMET039DAAD 311000Z 04004KT CAVOK 33/10 Q1018;EQDQ01+000000PRSWM2
0268605150999992000053112004+35330+004200SY-MT+0461DAAD V0200401N003112200019N0100001N1+03531+00751101751ADDAA199000091GA1021+009009999GF102991021021008001001001MA1101691999999MD1810121+9999MW1001REMSYN082AAXX  31124 60515 32560 20406 10353 20075 40175 58012 82200 333 0//00 82830 95900;MET045DAAD 311200Z 04006KT 9999 FEW030 35/08 Q1017;EQDQ01+000000PRSWM2Q02  00002PRCP99
0139605150999992000053114004+35330+004200FM-15+0461DAAD V0200201N005112200019N0112651N1+03701+00801999999ADDGA1021+009009999GF104991999999999999999999MA1101591999999MW1001REMMET045DAAD 311400Z 02010KT 9999 SCT030 37/08 Q1016;EQDQ01+000000PRSWM2
0235605150999992000053115004+35330+004200SY-MT+0461DAAD V0200601N005112200019N0100001N1+03681+00781101551ADDGA1021+009009999GF103991031021008001001001MA1101491999999MD1710201+9999MW1001REMSYN076AAXX  31154 60515 42560 30610 10368 20078 40155 57020 83200 333 83830 95900;MET045DAAD 311500Z 06010KT 9999 SCT030 37/08 Q1015;EQDQ01+000000PRSWM2
0139605150999992000053117004+35330+004200FM-15+0461DAAD V0200401N006212200019N0112651N1+03601+00901999999ADDGA1021+007809999GF104991999999999999999999MA1101491999999MW1001REMMET045DAAD 311700Z 04012KT 9999 SCT026 36/09 Q1015;EQDQ01+000000PRSWM2
0310605150999992000053118004+35330+004200SY-MT+0461DAAD V0200601N00721090001CN0100001N1+03461+01071101531ADDAA199000091GA1021+009009999GA2021+060009999GF105991031021008001001021KA1120M+03711MA1101491999999MD1510021+9999MW1001REMSYN088AAXX  31184 60515 32560 50614 10346 20107 40153 55002 83202 333 10371 83830 83070 95900;MET052DAAD 311800Z 06014KT 9999 SCT030 SCT200 35/11 Q1015;EQDQ01+000000PRSWM2Q02  00002PRCP99
0265605150999992000060106004+35330+004200SY-MT+0461DAAD V0209999C000012200019N0100001N1+02401+01571101871ADDAA199000091GF100991001001999999001001IA2240+01909KA1120N+02161MA1101801999999MD1510001+9999MW1001REMSYN076AAXX  01064 60515 33960 00000 10240 20157 40187 55000 333 01900 20216 95900;MET039DAAD 010600Z 00000KT CAVOK 24/16 Q1018;EQDQ01+000000PRSWM2Q02  00002PRCP99
0091605150999992000060107004+35330+004200FM-15+0461DAAD V0209999C00001220001CN0099001N1+02701+01501999999ADDMA1101801999999MW1001REMMET039DAAD 010700Z 00000KT CAVOK 27/15 Q1018;EQDQ01+000000PRSWM2
0091605150999992000060108004+35330+004200FM-15+0461DAAD V0209999C00001220001CN0099001N1+02901+01301999999ADDMA1101801999999MW1001REMMET039DAAD 010800Z 00000KT CAVOK 29/13 Q1018;EQDQ01+000000PRSWM2
0201605150999992000060109004+35330+004200SY-MT+0461DAAD V0209999C000012200019N0100001N1+03201+01151101921ADDGF100991001001999999001001MA1101901999999MD1110081+9999MW1001REMSYN064AAXX  01094 60515 42960 00000 10320 20115 40192 51008 333 95900;MET039DAAD 010900Z 00000KT CAVOK 32/12 Q1019;EQDQ01+000000PRSWM2
0091605150999992000060110004+35330+004200FM-15+0461DAAD V0209999C00001220001CN0099001N1+03301+01201999999ADDMA1102001999999MW1001REMMET039DAAD 011000Z 00000KT CAVOK 33/12 Q1020;EQDQ01+000000PRSWM2
0139605150999992000060111004+35330+004200FM-15+0461DAAD V0200201N005112200019N0112651N1+03501+01101999999ADDGA1021+012009999GF102991999999999999999999MA1101801999999MW1001REMMET045DAAD 011100Z 02010KT 9999 FEW040 35/11 Q1018;EQDQ01+000000PRSWM2
0268605150999992000060112004+35330+004200SY-MT+0461DAAD V0200801N004112200019N0100001N1+03551+00991101801ADDAA199000091GA1021+012009999GF102991021021012501001001MA1101801999999MD1810111+9999MW1001REMSYN082AAXX  01124 60515 32660 20808 10355 20099 40180 58011 82200 333 0//00 82840 95900;MET045DAAD 011200Z 08008KT 9999 FEW040 36/10 Q1018;EQDQ01+000000PRSWM2Q02  00002PRCP99
0139605150999992000060113004+35330+004200FM-15+0461DAAD V0209999C000012200019N0112651N1+03601+01001999999ADDGA1021+012009999GF102991999999999999999999MA1101691999999MW1001REMMET045DAAD 011300Z 00000KT 9999 FEW040 36/10 Q1017;EQDQ01+000000PRSWM2
0139605150999992000060114004+35330+004200FM-15+0461DAAD V0200401N005112200019N0112651N1+03701+01201999999ADDGA1021+009909999GF102991999999999999999999MA1101591999999MW1001REMMET045DAAD 011400Z 04010KT 9999 FEW033 37/12 Q1016;EQDQ01+000000PRSWM2
0235605150999992000060115004+35330+004200SY-MT+0461DAAD V0200401N005112200019N0100001N1+03701+00901101621ADDGA1021+009909999GF102991021021999999001001MA1101591999999MD1710181+9999MW1001REMSYN076AAXX  01154 60515 42960 20410 10370 20090 40162 57018 82200 333 82830 95900;MET045DAAD 011500Z 04010KT 9999 FEW033 37/09 Q1016;EQDQ01+000000PRSWM2
0139605150999992000060117004+35330+004200FM-15+0461DAAD V0200601N007212200019N0112651N1+03601+01101999999ADDGA1021+009909999GF102991999999999999999999MA1101491999999MW1001REMMET045DAAD 011700Z 06014KT 9999 FEW033 36/11 Q1015;EQDQ01+000000PRSWM2
0281605150999992000060118004+35330+004200SY-MT+0461DAAD V0200601N007212200019N0100001N1+03501+01091101621ADDAA199000091GA1021+009909999GF103991021021008001001021KA1120M+03701MA1101591999999MD1510031+9999MW1001REMSYN082AAXX  01184 60515 32560 30614 10350 20109 40162 55003 82202 333 10370 82833 95900;MET045DAAD 011800Z 06014KT 9999 FEW033 35/11 Q1016;EQDQ01+000000PRSWM2Q02  00002PRCP99
0265605150999992000060206004+35330+004200SY-MT+0461DAAD V0201401N004112200019N0100001N1+02401+01411101771ADDAA199000091GF100991001001999999001001IA2240+02109KA1120N+02271MA1101691999999MD1310021+9999MW1001REMSYN076AAXX  02064 60515 33960 01408 10240 20141 40177 53002 333 02100 20227 95900;MET039DAAD 020600Z 14008KT CAVOK 24/14 Q1017;EQDQ01+000000PRSWM2Q02  00002PRCP99
0091605150999992000060207004+35330+004200FM-15+0461DAAD V0203401N00311220001CN0099001N1+02601+01301999999ADDMA1101801999999MW1001REMMET039DAAD 020700Z 34006KT CAVOK 26/13 Q1018;EQDQ01+000000PRSWM2
0091605150999992000060208004+35330+004200FM-15+0461DAAD V0203401N00511220001CN0099001N1+02801+01301999999ADDMA1101801999999MW1001REMMET039DAAD 020800Z 34010KT CAVOK 28/13 Q1018;EQDQ01+000000PRSWM2
0201605150999992000060209004+35330+004200SY-MT+0461DAAD V0200601N002112200019N0100001N1+03051+01281101811ADDGF100991001001999999001001MA1101801999999MD1010041+9999MW1001REMSYN064AAXX  02094 60515 42960 00604 10305 20128 40181 50004 333 95900;MET039DAAD 020900Z 06004KT CAVOK 31/13 Q1018;EQDQ01+000000PRSWM2
0091605150999992000060210004+35330+004200FM-15+0461DAAD V0200801N00311220001CN0099001N1+03201+01201999999ADDMA1101691999999MW1001REMMET039DAAD 021000Z 08006KT CAVOK 32/12 Q1017;EQDQ01+000000PRSWM2
0091605150999992000060211004+35330+004200FM-15+0461DAAD V0200801N00311220001CN0099001N1+03401+01101999999ADDMA1101691999999MW1001REMMET039DAAD 021100Z 08006KT CAVOK 34/11 Q1017;EQDQ01+000000PRSWM2
0299605150999992000060212004+35330+004200SY-MT+0461DAAD V0209999C000010690019N0100001N1+03411+00821999999ADDAA199000091GA1031+007809089GA2031+069009009GF105991031021008001001021MA1101591092941MD1810041+9999ME1315849MW1001REMSYN094AAXX  02124 60515 32560 50000 10341 20082 39294 48584 58004 83202 333 0//00 83826 83073 95900;MET039DAAD 021200Z 06006KT CAVOK 36/11 Q1016;EQDQ01+000000PRSWM2Q02  00002PRCP99
0139605150999992000060213004+35330+004200FM-15+0461DAAD V0201001N003112200019N0112651N1+03601+01001999999ADDGA1021+009909999GF102991999999999999999999MA1101591999999MW1001REMMET045DAAD 021300Z 10006KT 9999 FEW033 36/10 Q1016;EQDQ01+000000PRSWM2
0139605150999992000060214004+35330+004200FM-15+0461DAAD V0200601N005112200019N0112651N1+03601+00901999999ADDGA1021+012009999GF102991999999999999999999MA1101591999999MW1001REMMET045DAAD 021400Z 06010KT 9999 FEW040 36/09 Q1016;EQDQ01+000000PRSWM2
0235605150999992000060215004+35330+004200SY-MT+0461DAAD V0200601N005112200019N0100001N1+03601+01001101561ADDGA1021+012009999GF102991021021012501001001MA1101491999999MD1710151+9999MW1001REMSYN076AAXX  02154 60515 42660 20610 10360 20100 40156 57015 82200 333 82840 95900;MET045DAAD 021500Z 06010KT 9999 FEW040 36/10 Q1015;EQDQ01+000000PRSWM2
0139605150999992000060216004+35330+004200FM-15+0461DAAD V0200401N004112200019N0112651N1+03701+00901999999ADDGA1021+012009999GF102991999999999999999999MA1101491999999MW1001REMMET045DAAD 021600Z 04008KT 9999 FEW040 37/09 Q1015;EQDQ01+000000PRSWM2
0139605150999992000060217004+35330+004200FM-15+0461DAAD V0200201N002112200019N0112651N1+03601+01101999999ADDGA1021+012009999GF102991999999999999999999MA1101391999999MW1001REMMET045DAAD 021700Z 02004KT 9999 FEW040 36/11 Q1014;EQDQ01+000000PRSWM2
0281605150999992000060218004+35330+004200SY-MT+0461DAAD V0203601N003112200019N0100001N1+03531+00851101471ADDAA199000091GA1021+012009999GF102991011021012501001021KA1120M+03671MA1101391999999MD1610081+9999MW1001REMSYN082AAXX  02184 60515 32660 23606 10353 20085 40147 56008 81202 333 10367 81840 95900;MET045DAAD 021800Z 36006KT 9999 FEW040 35/09 Q1014;EQDQ01+000000PRSWM2Q02  00002PRCP99
0293605150999992000060306004+35330+004200SY-MT+0461DAAD V0202601N002112200019N0100001N1+02251+01191101621ADDAA199000091GA1021+060009009GF102991001001999999001021IA2240+01809KA1120N+02101MA1101591999999MD1310081+9999MW1001REMSYN088AAXX  03064 60515 33960 22604 10225 20119 40162 53008 80002 333 01800 20210 82070 95900;MET039DAAD 030600Z 26004KT CAVOK 23/12 Q1016;EQDQ01+000000PRSWM2Q02  00002PRCP99
0091605150999992000060307004+35330+004200FM-15+0461DAAD V0203601N00311220001CN0099001N1+02501+01201999999ADDMA1101591999999MW1001REMMET039DAAD 030700Z 36006KT CAVOK 25/12 Q1016;EQDQ01+000000PRSWM2
0091605150999992000060308004+35330+004200FM-15+0461DAAD V0203601N00211220001CN0099001N1+02601+01301999999ADDMA1101591999999MW1001REMMET039DAAD 030800Z 36004KT CAVOK 26/13 Q1016;EQDQ01+000000PRSWM2
0213605150999992000060309004+35330+004200SY-MT+0461DAAD V0203601N00211220001CN0100001N1+02851+01291101681ADDGF102991001001999999001021MA1101591999999MD1010051+9999MW1001REMSYN076AAXX  03094 60515 42960 23604 10285 20129 40168 50005 80002 333 82070 95900;MET039DAAD 030900Z 36004KT CAVOK 29/13 Q1016;EQDQ01+000000PRSWM2
0091605150999992000060310004+35330+004200FM-15+0461DAAD V0200401N00311220001CN0099001N1+03101+01201999999ADDMA1101591999999MW1001REMMET039DAAD 031000Z 04006KT CAVOK 31/12 Q1016;EQDQ01+000000PRSWM2
0091605150999992000060311004+35330+004200FM-15+0461DAAD V0200301N00511220001CN0099001N1+03301+01101999999ADDMA1101591999999MW1001REMMET039DAAD 031100Z 03010KT CAVOK 33/11 Q1016;EQDQ01+000000PRSWM2
0278605150999992000060312004+35330+004200SY-MT+0461DAAD V0203001N002112200019N0100001N1+03351+01101101501ADDAA199000091GA1021+012009999GF199999011021012501001021MA1101491999999MD1610151+9999MW1001REMSYN076AAXX  03124 60515 32660 13004 10335 20110 40150 56015 81202 333 81840 95900;MET045DAAD 031200Z 30004KT 9999 FEW040 34/11 Q1015;EQDQ01+000012SCOTCVQ02+000000PRSWM2Q03  00002PRCP99
0139605150999992000060313004+35330+004200FM-15+0461DAAD V0200401N002112200019N0112651N1+03401+00901999999ADDGA1021+012009999GF102991999999999999999999MA1101391999999MW1001REMMET045DAAD 031300Z 04004KT 9999 FEW040 34/09 Q1014;EQDQ01+000000PRSWM2
0139605150999992000060314004+35330+004200FM-15+0461DAAD V0200401N005112200019N0112651N1+03501+01001999999ADDGA1021+009909999GF102991999999999999999999MA1101391999999MW1001REMMET045DAAD 031400Z 04010KT 9999 FEW033 35/10 Q1014;EQDQ01+000000PRSWM2
0235605150999992000060315004+35330+004200SY-MT+0461DAAD V0200601N005112200019N0100001N1+03471+01041101421ADDGA1021+009909999GF103991021021012501001021MA1101391999999MD1710081+9999MW1001REMSYN076AAXX  03154 60515 42660 30610 10347 20104 40142 57008 82202 333 82833 95900;MET045DAAD 031500Z 06010KT 9999 FEW033 35/10 Q1014;EQDQ01+000000PRSWM2
0139605150999992000060316004+35330+004200FM-15+0461DAAD V0200601N005112200019N0112651N1+03601+01001999999ADDGA1021+009909999GF102991999999999999999999MA1101291999999MW1001REMMET045DAAD 031600Z 06010KT 9999 FEW033 36/10 Q1013;EQDQ01+000000PRSWM2
0139605150999992000060317004+35330+004200FM-15+0461DAAD V0201001N003112200019N0112651N1+03501+01001999999ADDGA1021+009909999GF102991999999999999999999MA1101291999999MW1001REMMET045DAAD 031700Z 10006KT 9999 FEW033 35/10 Q1013;EQDQ01+000000PRSWM2
0275605150999992000060318004+35330+004200SY-MT+0461DAAD V0200801N004112200019N0100001N1+03381+01021101391ADDAA199000091GA1031+060009019GF103991001001999999001021KA1120M+03541MA1101291999999MD1610061+9999MW1001REMSYN082AAXX  03184 60515 32960 30808 10338 20102 40139 56006 80002 333 10354 83070 95900;MET039DAAD 031800Z 08008KT CAVOK 34/12 Q1013;EQDQ01+000000PRSWM2Q02  00002PRCP99
0265605150999992000060406004+35330+004200SY-MT+0461DAAD V0203601N004112200019N0100001N1+02051+01021101741ADDAA199000091GF100991001001999999001001IA2240+02009KA1120N+02001MA1101691999999MD1310081+9999MW1001REMSYN076AAXX  04064 60515 33960 03608 10205 20102 40174 53008 333 02000 20200 95900;MET039DAAD 040600Z 36008KT CAVOK 23/10 Q1017;EQDQ01+000000PRSWM2Q02  00002PRCP99
0091605150999992000060407004+35330+004200FM-15+0461DAAD V0203601N00411220001CN0099001N1+02401+01001999999ADDMA1101691999999MW1001REMMET039DAAD 040700Z 36008KT CAVOK 24/10 Q1017;EQDQ01+000000PRSWM2
0091605150999992000060408004+35330+004200FM-15+0461DAAD V0203601N00211220001CN0099001N1+02601+01201999999ADDMA1101691999999MW1001REMMET039DAAD 040800Z 36004KT CAVOK 26/12 Q1017;EQDQ01+000000PRSWM2
0213605150999992000060409004+35330+004200SY-MT+0461DAAD V0200601N002112200019N0100001N1+02871+01191101741ADDGF102991001001999999001021MA1101691999999MD1010021+9999MW1001REMSYN076AAXX  04094 60515 42960 20604 10287 20119 40174 50002 80002 333 82070 95900;MET039DAAD 040900Z 06004KT CAVOK 29/12 Q1017;EQDQ01+000000PRSWM2
0091605150999992000060410004+35330+004200FM-15+0461DAAD V0200601N00211220001CN0099001N1+03001+01201999999ADDMA1101691999999MW1001REMMET039DAAD 041000Z 06004KT CAVOK 30/12 Q1017;EQDQ01+000000PRSWM2
0180605150999992000060412004+35330+004200FM-12+0461DAAD V0200801N003112200019N0100001N1+03251+01151101591ADDAA199000091GA1031+060009009GF103991001001999999001021MD1810141+9999REMSYN082AAXX  04124 60515 32960 30806 10325 20115 40159 58014 80002 333 0//00 83070 95900;EQDQ01  00002PRCP99
0139605150999992000060413004+35330+004200FM-15+0461DAAD V0200601N004112200019N0112651N1+03401+01101999999ADDGA1021+012009999GF102991999999999999999999MA1101491999999MW1001REMMET045DAAD 041300Z 06008KT 9999 FEW040 34/11 Q1015;EQDQ01+000000PRSWM2
0162605150999992000060414004+35330+004200FM-15+0461DAAD V0200601N003112200019N0112651N1+03501+01101999999ADDGA1021+012009999GA2021+060009999GF104991999999999999999999MA1101391999999MW1001REMMET052DAAD 041400Z 06006KT 9999 FEW040 SCT200 35/11 Q1014;EQDQ01+000000PRSWM2
0264605150999992000060415004+35330+004200SY-MT+0461DAAD V0201001N005112200019N0080001N1+03451+01041101371ADDGA1021+009909999GA2021+060009999GF104991011021008001001031MA1101291999999MD1710211+9999MW1001REMSYN082AAXX  04154 60515 42558 41010 10345 20104 40137 57021 81203 333 81833 84070 95900;MET052DAAD 041500Z 10010KT 8000 FEW033 SCT200 35/10 Q1013;EQDQ01+000000PRSWM2
0162605150999992000060416004+35330+004200FM-15+0461DAAD V0200801N007212200019N0080001N1+03401+00801999999ADDGA1021+012009999GA2021+060009999GF104991999999999999999999MA1101291999999MW1001REMMET052DAAD 041600Z 08014KT 8000 FEW040 SCT200 34/08 Q1013;EQDQ01+000000PRSWM2
0162605150999992000060417004+35330+004200FM-15+0461DAAD V0201001N008210600019N0080001N1+03401+00901999999ADDGA1021+024009999GA2071+060009999GF107991999999999999999999MA1101291999999MW1001REMMET052DAAD 041700Z 10016KT 8000 FEW080 BKN200 34/09 Q1013;EQDQ01+000000PRSWM2
0310605150999992000060418004+35330+004200SY-MT+0461DAAD V0201201N006210600019N0080001N1+03321+00861101361ADDAA199000091GA1021+012009999GA2071+060009999GF107991021021008001071021KA1120M+03561MA1101291999999MD1510031+9999MW1001REMSYN088AAXX  04184 60515 32558 71212 10332 20086 40136 55003 82272 333 10356 82840 85070 95900;MET052DAAD 041800Z 12012KT 8000 FEW040 BKN200 33/09 Q1013;EQDQ01+000000PRSWM2Q02  00002PRCP99
0162605150999992000060506004+35330+004200FM-15+0461DAAD V0209999C000012200019N0112651N1+02401+01201999999ADDGA1021+012009999GA2021+024009999GF104991999999999999999999MA1101591999999MW1001REMMET052DAAD 050600Z 00000KT 9999 FEW040 SCT080 24/12 Q1016;EQDQ01+000000PRSWM2
0091605150999992000060507004+35330+004200FM-15+0461DAAD V0209999C00001220001CN0099001N1+02501+01301999999ADDMA1101591999999MW1001REMMET039DAAD 050700Z 00000KT CAVOK 25/13 Q1016;EQDQ01+000000PRSWM2
0091605150999992000060508004+35330+004200FM-15+0461DAAD V0200201N00311220001CN0099001N1+02701+01201999999ADDMA1101591999999MW1001REMMET039DAAD 050800Z 02006KT CAVOK 27/12 Q1016;EQDQ01+000000PRSWM2
0235605150999992000060509004+35330+004200SY-MT+0461DAAD V0200201N003112200019N0100001N1+02941+01211101701ADDGA1021+012009999GF103991011021012501001021MA1101691999999MD1110051+9999MW1001REMSYN076AAXX  05094 60515 42660 30206 10294 20121 40170 51005 81202 333 81840 95900;MET045DAAD 050900Z 02006KT 9999 FEW040 29/12 Q1017;EQDQ01+000000PRSWM2
0139605150999992000060510004+35330+004200FM-15+0461DAAD V0200401N003112200019N0112651N1+03101+01201999999ADDGA1021+012009999GF102991999999999999999999MA1101691999999MW1001REMMET045DAAD 051000Z 04006KT 9999 FEW040 31/12 Q1017;EQDQ01+000000PRSWM2
0139605150999992000060511004+35330+004200FM-15+0461DAAD V0200801N004112200019N0112651N1+03401+01201999999ADDGA1021+012009999GF102991999999999999999999MA1101591999999MW1001REMMET045DAAD 051100Z 08008KT 9999 FEW040 34/12 Q1016;EQDQ01+000000PRSWM2
0268605150999992000060512004+35330+004200SY-MT+0461DAAD V0200201N005112200019N0100001N1+03401+01001101551ADDAA199000091GA1021+009909999GF104991021021012501001021MA1101491999999MD1810091+9999MW1001REMSYN082AAXX  05124 60515 32660 40210 10340 20100 40155 58009 82202 333 0//00 82833 95900;MET045DAAD 051200Z 02010KT 9999 FEW033 34/10 Q1015;EQDQ01+000000PRSWM2Q02  00002PRCP99
0139605150999992000060513004+35330+004200FM-15+0461DAAD V0200201N005112200019N0112651N1+03501+01001999999ADDGA1021+009009999GF102991999999999999999999MA1101391999999MW1001REMMET045DAAD 051300Z 02010KT 9999 FEW030 35/10 Q1014;EQDQ01+000000PRSWM2
0142605150999992000060514004+35330+004200FM-15+0461DAAD V0201401N004112200019N0112651N1+03601+01101999999ADDGA1021+009009029GF104991999999999999999999MA1101291999999MW1001REMMET048DAAD 051400Z 14008KT 9999 SCT030TCU 36/11 Q1013;EQDQ01+000000PRSWM2
0235605150999992000060515004+35330+004200SY-MT+0461DAAD V0201001N003110900019N0100001N1+03551+01061101301ADDGA1021+009009999GF105991031021008001001021MA1101291999999MD1710221+9999MW1001REMSYN076AAXX  05154 60515 42560 51006 10355 20106 40130 57022 83202 333 83830 95900;MET045DAAD 051500Z 10006KT 9999 SCT030 36/11 Q1013;EQDQ01+000000PRSWM2
0203605150999992000060516004+35330+004200FM-15+0461DAAD V0202001N010310600019N9999999N1+03401+01201999999ADDGA1021+009009999GA2021+009909099GA3071+060009999GF107991999999999999999999MA1101291999999MW1001REMMET061DAAD 051600Z 20020KT 7000 FEW030 FEW033CB BKN200 34/12 Q1013;EQDQ01+070002VODIS Q02+000000PRSWM2
0162605150999992000060517004+35330+004200FM-15+0461DAAD V0202001N007212200019N0070001N1+03301+00701999999ADDGA1021+009009999GA2021+036009999GF104991999999999999999999MA1101291999999MW1001REMMET052DAAD 051700Z 20014KT 7000 SCT030 SCT120 33/07 Q1013;EQDQ01+000000PRSWM2
0297605150999992000060518004+35330+004200SY-MT+0461DAAD V0202001N006210090019N9999999N1+03311+00741101391ADDAA199000091GA1071+009009999GF107991051081008001001021KA1120M+03681MA1101291999999MD1310021+9999MW1001REMSYN082AAXX  05184 60515 32557 72012 10331 20074 40139 53002 85802 333 10368 85830 95900;MET045DAAD 051800Z 20012KT 7000 BKN030 33/07 Q1013;EQDQ01+070002VODIS Q02+000000PRSWM2Q03  00002PRCP99
0315605150999992000060606004+35330+004200SY-MT+0461DAAD V0202601N007210600019N0080001N1+02551+01151101501ADDAA199000091GA1071+060009999GF199999001001999999001021IA2240+02009KA1120N+02351MA1101491999999MD1310121+9999MW1001REMSYN088AAXX  06064 60515 33958 52614 10255 20115 40150 53012 80002 333 02000 20235 85070 95900;MET045DAAD 060600Z 26014KT 8000 BKN200 26/12 Q1015;EQDQ01+000052SCOTCVQ02+000000PRSWM2Q03  00002PRCP99
0139605150999992000060608004+35330+004200FM-15+0461DAAD V0200601N007210600019N0080001N1+02801+01101999999ADDGA1071+060009999GF107991999999999999999999MA1101491999999MW1001REMMET045DAAD 060800Z 06014KT 8000 BKN200 28/11 Q1015;EQDQ01+000000PRSWM2
0251605150999992000060609004+35330+004200SY-MT+0461DAAD V0203201N007210600019N0080001N1+02861+00881101601ADDGA1071+060009999GF199999001001999999001021MA1101591999999MD1310131+9999MW1001REMSYN076AAXX  06094 60515 42958 53214 10286 20088 40160 53013 80002 333 85070 95900;MET045DAAD 060900Z 32014KT 8000 BKN200 29/09 Q1016;EQDQ01+000052SCOTCVQ02+000000PRSWM2
0091605150999992000060610004+35330+004200FM-15+0461DAAD V0202801N00411220001CN0099001N1+03001+00901999999ADDMA1101491999999MW1001REMMET039DAAD 061000Z 28008KT CAVOK 30/09 Q1015;EQDQ01+000000PRSWM2
0091605150999992000060611004+35330+004200FM-15+0461DAAD V0202601N00511220001CN0099001N1+03101+00701999999ADDMA1101491999999MW1001REMMET039DAAD 061100Z 26010KT CAVOK 31/07 Q1015;EQDQ01+000000PRSWM2
0262605150999992000060612004+35330+004200SY-MT+0461DAAD V0202601N007212200019N0100001N1+03251+00511101471ADDAA199000091GA1021+060009009GF102991001001999999001021MA1101391999999MD1810121+9999MW1001REMSYN082AAXX  06124 60515 32960 22614 10325 20051 40147 58012 80002 333 0//00 82070 95900;MET039DAAD 061200Z 26014KT CAVOK 33/05 Q1014;EQDQ01+000000PRSWM2Q02  00002PRCP99
0091605150999992000060613004+35330+004200FM-15+0461DAAD V0203001N01031220001CN0099001N1+03301+00601999999ADDMA1101391999999MW1001REMMET039DAAD 061300Z 30020KT CAVOK 33/06 Q1014;EQDQ01+000000PRSWM2
0091605150999992000060614004+35330+004200FM-15+0461DAAD V0203201N00721220001CN0099001N1+03301+00601999999ADDMA1101391999999MW1001REMMET039DAAD 061400Z 32014KT CAVOK 33/06 Q1014;EQDQ01+000000PRSWM2
0213605150999992000060615004+35330+004200SY-MT+0461DAAD V0203201N00721220001CN0100001N1+03371+00501101301ADDGF103991001001999999001021MA1101291999999MD1710111+9999MW1001REMSYN076AAXX  06154 60515 42960 33214 10337 20050 40130 57011 80002 333 83070 95900;MET039DAAD 061500Z 32014KT CAVOK 34/05 Q1013;EQDQ01+000000PRSWM2
0162605150999992000060616004+35330+004200FM-15+0461DAAD V0203201N007212200019N0112651N1+03501+00501999999ADDGA1021+012009999GA2021+060009999GF104991999999999999999999MA1101391999999MW1001REMMET052DAAD 061600Z 32014KT 9999 FEW040 SCT200 35/05 Q1014;EQDQ01+000000PRSWM2
0162605150999992000060617004+35330+004200FM-15+0461DAAD V0203201N010310600019N0112651N1+03001+01201999999ADDGA1021+012009999GA2071+060009999GF107991999999999999999999MA1101391999999MW1001REMMET052DAAD 061700Z 32020KT 9999 FEW040 BKN200 30/12 Q1014;EQDQ01+000000PRSWM2
0326605150999992000060618004+35330+004200SY-MT+0461DAAD V0203401N010312200019N9999999N1+02801+01311101501ADDAA199000091GA1021+012009999GA2021+060009999GF104991011021012501001021KA1120M+03361MA1101491999999MD1310041+9999MW1001REMSYN088AAXX  06184 60515 32657 43420 10280 20131 40150 53004 81202 333 10336 81840 84070 95900;MET052DAAD 061800Z 34020KT 9999 FEW040 SCT200 28/13 Q1015;EQDQ01+070002VODIS Q02+000000PRSWM2Q03  00002PRCP99
0299605150999992000060706004+35330+004200SY-MT+0461DAAD V0203201N007212200019N0100001N1+01881+00991101911ADDAA199000091GA1021+004809999GF102991011021004501001021IA2240+01609KA1120N+01771MA1101901999999MD1310041+9999MW1001REMSYN088AAXX  07064 60515 33460 23214 10188 20099 40191 53004 81202 333 01600 20177 81816 95900;MET045DAAD 070600Z 32014KT 9999 FEW016 19/09 Q1019;EQDQ01+000000PRSWM2Q02  00002PRCP99
0139605150999992000060707004+35330+004200FM-15+0461DAAD V0203401N007212200019N0112651N1+02001+00901999999ADDGA1021+004809999GF102991999999999999999999MA1101901999999MW1001REMMET045DAAD 070700Z 34014KT 9999 FEW016 20/09 Q1019;EQDQ01+000000PRSWM2
0091605150999992000060708004+35330+004200FM-15+0461DAAD V0200201N00721220001CN0099001N1+02101+00801999999ADDMA1101901999999MW1001REMMET039DAAD 070800Z 02014KT CAVOK 21/08 Q1019;EQDQ01+000000PRSWM2
0187605150999992000060709004+35330+004200SY-MT+0461DAAD V0200201N004112200019N0100001N1+99999+99999101931ADDGF100991001001999999001001MD1010021+9999MW1001REMSYN064AAXX  07094 60515 42960 00208 10229 29989 40193 50002 333 95900;MET040DAAD 070900Z 02008KT CCAVOK 23/09 Q1019;EQDQ01+000000PRSWM2
0091605150999992000060710004+35330+004200FM-15+0461DAAD V0200401N00621220001CN0099001N1+02401+00901999999ADDMA1101901999999MW1001REMMET039DAAD 071000Z 04012KT CAVOK 24/09 Q1019;EQDQ01+000000PRSWM2
0091605150999992000060711004+35330+004200FM-15+0461DAAD V0203401N00211220001CN0099001N1+02501+01001999999ADDMA1101691999999MW1001REMMET039DAAD 071100Z 34004KT CAVOK 25/10 Q1017;EQDQ01+000000PRSWM2
0234605150999992000060712004+35330+004200SY-MT+0461DAAD V0203401N003112200019N0100001N1+02651+00611101851ADDAA199000091GF100991001001999999001001MA1101801999999MD1810081+9999MW1001REMSYN070AAXX  07124 60515 32960 03406 10265 20061 40185 58008 333 0//00 95900;MET039DAAD 071200Z 34006KT CAVOK 27/06 Q1018;EQDQ01+000000PRSWM2Q02  00002PRCP99
0091605150999992000060714004+35330+004200FM-15+0461DAAD V0203201N00311220001CN0099001N1+02801+00801999999ADDMA1101691999999MW1001REMMET039DAAD 071400Z 32006KT CAVOK 28/08 Q1017;EQDQ01+000000PRSWM2
0229605150999992000060715004+35330+004200SY-MT+0461DAAD V0203301N005112200019N0100001N1+02901+00661101651ADDGA1021+060009019GF102991001001999999001021MA1101591999999MD1710151+9999MW1001REMSYN076AAXX  07154 60515 42960 23310 10290 20066 40165 57015 80002 333 82070 95900;MET039DAAD 071500Z 33010KT CAVOK 29/07 Q1016;EQDQ01+000000PRSWM2
0091605150999992000060716004+35330+004200FM-15+0461DAAD V0203601N00511220001CN0099001N1+03001+00601999999ADDMA1101591999999MW1001REMMET039DAAD 071600Z 36010KT CAVOK 30/06 Q1016;EQDQ01+000000PRSWM2
0091605150999992000060717004+35330+004200FM-15+0461DAAD V0203201N00411220001CN0099001N1+02501+00601999999ADDMA1101491999999MW1001REMMET039DAAD 071700Z 32008KT CAVOK 25/06 Q1015;EQDQ01+000000PRSWM2
0275605150999992000060718004+35330+004200SY-MT+0461DAAD V0203401N002112200019N0150001N1+02871+00681101551ADDAA199000091GA1011+060009009GF101991001001999999001021KA1120M+02971MA1101491999999MD1610121+9999MW1001REMSYN082AAXX  07184 60515 32965 13404 10287 20068 40155 56012 80002 333 10297 81070 95900;MET039DAAD 071800Z 34004KT CAVOK 29/07 Q1015;EQDQ01+000000PRSWM2Q02  00002PRCP99
0265605150999992000060806004+35330+004200SY-MT+0461DAAD V0201401N00211220001CN0100001N1+01801+00841101821ADDAA199000091GF100991001001999999001001IA2240+01309KA1120N+01491MA1101801999999MD1310011+9999MW1001REMSYN076AAXX  08064 60515 33960 01404 10180 20084 40182 53001 333 01300 20149 95900;MET039DAAD 080600Z 14004KT CAVOK 18/08 Q1018;EQDQ01+000000PRSWM2Q02  00002PRCP99
0076605150999992000060807004+35330+004200FM-15+0461DAAD V0209999C00001220001CN0099001N1+01801+00601999999ADDMW1001REMMET039DAAD 080700Z 00000KT CAVOK 18/06 Q////;EQDQ01+000000PRSWM2
0091605150999992000060808004+35330+004200FM-15+0461DAAD V0203601N00211220001CN0099001N1+02201+00901999999ADDMA1101801999999MW1001REMMET039DAAD 080800Z 36004KT CAVOK 22/09 Q1018;EQDQ01+000000PRSWM2
0201605150999992000060809004+35330+004200SY-MT+0461DAAD V0200201N002112200019N0100001N1+02331+00901101821ADDGF100991001001999999001001MA1101801999999MD1010001+9999MW1001REMSYN064AAXX  08094 60515 42960 00204 10233 20090 40182 50000 333 95900;MET039DAAD 080900Z 02004KT CAVOK 23/09 Q1018;EQDQ01+000000PRSWM2
0091605150999992000060810004+35330+004200FM-15+0461DAAD V0200401N00211220001CN0099001N1+02501+01001999999ADDMA1101691999999MW1001REMMET039DAAD 081000Z 04004KT CAVOK 25/10 Q1017;EQDQ01+000000PRSWM2
0091605150999992000060811004+35330+004200FM-15+0461DAAD V0203601N00311220001CN0099001N1+02801+01101999999ADDMA1101691999999MW1001REMMET039DAAD 081100Z 36006KT CAVOK 28/11 Q1017;EQDQ01+000000PRSWM2
0228605150999992000060812004+35330+004200SY-MT+0461DAAD V0200601N004112200019N0100001N1+02911+01071101621ADDAA199000091GF100991001001999999001001MA1101591999999MD1810071+9999MW1001REMSYN064AAXX  08124 60515 32960 00608 10291 20107 40162 58007 333 95900;MET039DAAD 081200Z 06008KT CAVOK 29/11 Q1016;EQDQ01+000000PRSWM2Q02  00002PRCP99
0139605150999992000060814004+35330+004200FM-15+0461DAAD V0200401N003112200019N0112651N1+03101+01001999999ADDGA1021+012009999GF102991999999999999999999MA1101491999999MW1001REMMET045DAAD 081400Z 04006KT 9999 FEW040 31/10 Q1015;EQDQ01+000000PRSWM2
0251605150999992000060815004+35330+004200SY-MT+0461DAAD V0203601N002112200019N0100001N1+03121+00981101481ADDGA1021+012009999GF199999011021012501001001MA1101391999999MD1710121+9999MW1001REMSYN076AAXX  08154 60515 42660 13604 10312 20098 40148 57012 81200 333 81840 95900;MET045DAAD 081500Z 36004KT 9999 FEW040 31/10 Q1014;EQDQ01+000012SCOTCVQ02+000000PRSWM2
0091605150999992000060816004+35330+004200FM-15+0461DAAD V0203601N00211220001CN0099001N1+03301+01001999999ADDMA1101291999999MW1001REMMET039DAAD 081600Z 36004KT CAVOK 33/10 Q1013;EQDQ01+000000PRSWM2
0091605150999992000060817004+35330+004200FM-15+0461DAAD V0200401N00311220001CN0099001N1+03201+00901999999ADDMA1101291999999MW1001REMMET039DAAD 081700Z 04006KT CAVOK 32/09 Q1013;EQDQ01+000000PRSWM2
0247605150999992000060818004+35330+004200SY-MT+0461DAAD V0200601N002112200019N0100001N1+03131+00681101331ADDAA199000091GF100991001001999999001001KA1120M+03251MA1101291999999MD1510101+9999MW1001REMSYN070AAXX  08184 60515 32960 00604 10313 20068 40133 55010 333 10325 95900;MET039DAAD 081800Z 06004KT CAVOK 31/07 Q1013;EQDQ01+000000PRSWM2Q02  00002PRCP99
0265605150999992000060906004+35330+004200SY-MT+0461DAAD V0203601N004112200019N0100001N1+02151+00971101531ADDAA199000091GF100991001001999999001001IA2240+01609KA1120N+01941MA1101491999999MD1310131+9999MW1001REMSYN076AAXX  09064 60515 33960 03608 10215 20097 40153 53013 333 01600 20194 95900;MET039DAAD 090600Z 36008KT CAVOK 22/10 Q1015;EQDQ01+000000PRSWM2Q02  00002PRCP99
0091605150999992000060907004+35330+004200FM-15+0461DAAD V0203601N00311220001CN0099001N1+02401+01001999999ADDMA1101491999999MW1001REMMET039DAAD 090700Z 36006KT CAVOK 24/10 Q1015;EQDQ01+000000PRSWM2
0091605150999992000060908004+35330+004200FM-15+0461DAAD V0200601N00211220001CN0099001N1+02601+01001999999ADDMA1101491999999MW1001REMMET039DAAD 090800Z 06004KT CAVOK 26/10 Q1015;EQDQ01+000000PRSWM2
0201605150999992000060909004+35330+004200SY-MT+0461DAAD V0200601N002112200019N0100001N1+02911+01021101531ADDGF100991001001999999001001MA1101491999999MD1010021+9999MW1001REMSYN064AAXX  09094 60515 42960 00604 10291 20102 40153 50002 333 95900;MET039DAAD 090900Z 06004KT CAVOK 29/10 Q1015;EQDQ01+000000PRSWM2
0091605150999992000060910004+35330+004200FM-15+0461DAAD V0200801N00211220001CN0099001N1+03001+01001999999ADDMA1101391999999MW1001REMMET039DAAD 091000Z 08004KT CAVOK 30/10 Q1014;EQDQ01+000000PRSWM2
0139605150999992000060912004+35330+004200FM-15+0461DAAD V0201801N002112200019N0080001N1+03501+00701999999ADDGA1021+060009999GF104991999999999999999999MA1101291999999MW1001REMMET045DAAD 091200Z 18004KT 8000 SCT200 35/07 Q1013;EQDQ01+000000PRSWM2
0165605150999992000060913004+35330+004200FM-15+0461DAAD V0201001N002112200019N0080001N1+03501+00601999999ADDGA1021+012009029GA2021+060009999GF104991999999999999999999MA1101191999999MW1001REMMET055DAAD 091300Z 10004KT 8000 SCT040TCU SCT200 35/06 Q1012;EQDQ01+000000PRSWM2
0090605150999992000060914004+35330+004200FM-15+0461DAAD V02099999999992200019N0099001N1+99999+99999999999ADDMW1001REMMET053DAAD 09140Z 10004KT 7000 FEW030CB BKN033 36/06 Q1011;EQDQ01+000000PRSWM2
0166605150999992000060915004+35330+004200FM-12+0461DAAD V0202001N006210240019N0080001N1+03451+00531101321ADDGA1041+009009089GA2031+024009039GF107991041081008001071021MD1510041+9999REMSYN082AAXX  09154 60515 42558 72012 10345 20053 40132 55004 84872 333 84830 83358 95900;
0203605150999992000060916004+35330+004200FM-15+0461DAAD V0200401N004110600019N9999999N1+03301+00701999999ADDGA1021+009009999GA2021+009909099GA3071+060009999GF107991999999999999999999MA1101291999999MW1001REMMET061DAAD 091600Z 04008KT 7000 SCT030 FEW033CB BKN200 33/07 Q1013;EQDQ01+070002VODIS Q02+000000PRSWM2
0357605150999992000060918004+35330+004200SY-MT+0461DAAD V0201201N005110600019N9999999N1+03131+01131101361ADDAA199000091GA1021+009009999GA2021+009909099GA3071+060009999GF108991041091008001001021KA1120M+03571MA1101291999999MD1110011+9999MW1001REMSYN094AAXX  09184 60515 32557 81210 10313 20113 40136 51001 84902 333 10357 83830 81933 85070 95900;MET061DAAD 091800Z 12010KT 7000 SCT030 FEW033CB BKN200 31/11 Q1013;EQDQ01+070002VODIS Q02+000000PRSWM2Q03  00002PRCP99
0310605150999992000061006004+35330+004200SY-MT+0461DAAD V0202801N010310090019N0030001N1+02161+00861101551ADDAA199000091GA1071+009009999GF107991071081002501001001IA2240+02009KA1120N+02091MA1101491999999MD1310351+9999MW1071REMSYN094AAXX  10064 60515 31330 72820 10216 20086 40155 53035 707// 87800 333 02000 20209 87830 95900;MET050DAAD 100600Z 28020KT 3000 BLSA BKN030 22/09 Q1015;EQDQ01  00002PRCP99Q02    003PRSWM1
0183605150999992000061007004+35330+004200FM-15+0461DAAD V0202801N013412200019N0030001N1+02101+00401999999ADDGA1021+009009999GA2021+024009999GF104991999999999999999999MA1101591999999MW1071REMMET057DAAD 100700Z 28026KT 3000 BLSA SCT030 SCT080 21/04 Q1016;EQDQ01+000003PRSWM1Q02    003PRSWM1
0183605150999992000061008004+35330+004200FM-15+0461DAAD V0202801N009312200019N0020001N1+02101+00301999999ADDGA1021+009009999GA2021+009909999GF104991999999999999999999MA1101591999999MW1071REMMET057DAAD 100800Z 28018KT 2000 BLSA FEW033 SCT030 21/03 Q1016;EQDQ01+000003PRSWM1Q02    003PRSWM1
0292605150999992000061009004+35330+004200SY-MT+0461DAAD V0202601N012312200019N0020001N1+02251-00111101721ADDAY101031AY221031GA1021+012009999GA2021+060009999GF104991011081012501001021MA1101691999999MD1110141+9999MW1071REMSYN088AAXX  10094 60515 41620 42624 10225 21011 40172 51014 70702 81802 333 81840 83070 95900;MET058DAAD 100900Z 26024KT 2000 BLSA FEW040 SCT200 22/M01 Q1017;EQDQ01    003PRSWM1
0141605150999992000061010004+35330+004200FM-15+0461DAAD V0202801N011312200019N0020001N1+02301+00101999999ADDGF100991999999999999999999MA1101591999999MW1071REMMET047DAAD 101000Z 28022KT 2000 BLSA SKC 23/01 Q1016;EQDQ01+000003PRSWM1Q02    003PRSWM1
0142605150999992000061011004+35330+004200FM-15+0461DAAD V0202801N012312200019N0020001N1+02401-00201999999ADDGF100991999999999999999999MA1101591999999MW1071REMMET048DAAD 101100Z 28024KT 2000 BLSA SKC 24/M02 Q1016;EQDQ01+000003PRSWM1Q02    003PRSWM1
0259605150999992000061012004+35330+004200SY-MT+0461DAAD V0202801N012312200019N0030001N1+02411-00241101551ADDAA199000091AY101061AY201061GF100991001001999999001001MA1101491999999MD1810161+9999MW1071REMSYN070AAXX  10124 60515 31430 02824 10241 21024 40155 58016 70700 333 95900;MET048DAAD 101200Z 28024KT 3000 BLSA SKC 24/M02 Q1015;EQDQ01  00002PRCP99Q02    003PRSWM1
0142605150999992000061013004+35330+004200FM-15+0461DAAD V0203001N014412200019N0030001N1+02501-00301999999ADDGF100991999999999999999999MA1101391999999MW1071REMMET048DAAD 101300Z 30028KT 3000 BLSA SKC 25/M03 Q1014;EQDQ01+000003PRSWM1Q02    003PRSWM1
0144605150999992000061014004+35330+004200FM-15+0461DAAD V0203001N012312200019N9999999N1+02501-00101999999ADDGF100991999999999999999999MA1101391999999MW1001REMMET050DAAD 101400Z 30024KT 5000 BLLSSA SKC 25/M01 Q1014;EQDQ01+050002VODIS Q02+000000PRSWM2
0232605150999992000061015004+35330+004200SY-MT+0461DAAD V0203001N009312200019N0060001N1+02611-00181101441ADDAY101031AY201031GF100991001001999999001001MA1101391999999MD1710091+9999MW1071REMSYN070AAXX  10154 60515 41956 03018 10261 21018 40144 57009 70700 333 95900;MET048DAAD 101500Z 30018KT 6000 BLSA SKC 26/M02 Q1014;EQDQ01    003PRSWM1
0142605150999992000061016004+35330+004200FM-15+0461DAAD V0203001N016512200019N0060001N1+02601-00301999999ADDGF100991999999999999999999MA1101391999999MW1071REMMET048DAAD 101600Z 30032KT 6000 BLSA SKC 26/M03 Q1014;EQDQ01+000003PRSWM1Q02    003PRSWM1
0161605150999992000061017004+35330+004200FM-15+0461DAAD V0203201N013412200019N0050001N1+02501-00501999999ADDGA1021+012009999GF102991999999999999999999MA1101391999999MW1071REMMET051DAAD 101700Z 32026KT 5000 BLSA FEW040 25/M05 Q1014;EQDQ01+000003PRSWM1Q02    003PRSWM1
0325605150999992000061018004+35330+004200SY-MT+0461DAAD V0203001N013412200019N0050001N1+02351-00601101611ADDAA199000091AY101061AY221061GA1021+012009999GF199999011021004501001001KA1120M+02651MA1101591999999MD1310091+9999MW1071REMSYN088AAXX  10184 60515 31450 13026 10235 21060 40161 53009 70702 81200 333 10265 81840 95900;MET051DAAD 101800Z 30026KT 5000 DRSA FEW040 24/M06 Q1016;EQDQ01+000012SCOTCVQ02  00002PRCP99Q03    003PRSWM1
0300605150999992000061106004+35330+004200SY-MT+0461DAAD V0202601N010312200019N0100001N1+01671-00071101961ADDAA199000091GA1021+012009999GF102991011081012501071001IA2240+01409KA1120N+01501MA1101901999999MD1410001+9999MW1001REMSYN088AAXX  11064 60515 33660 22620 10167 21007 40196 54000 81870 333 01400 20150 81840 95900;MET046DAAD 110600Z 26020KT 9999 FEW040 17/M01 Q1019;EQDQ01+000000PRSWM2Q02  00002PRCP99
0139605150999992000061108004+35330+004200FM-15+0461DAAD V0202801N010312200019N0112651N1+02101+00101999999ADDGA1021+012009999GF102991999999999999999999MA1102001999999MW1001REMMET045DAAD 110800Z 28020KT 9999 FEW040 21/01 Q1020;EQDQ01+000000PRSWM2
0161605150999992000061109004+35330+004200FM-15+0461DAAD V0203201N013412200019N0080001N1+02101+00001999999ADDGA1021+009909999GF102991999999999999999999MA1102001999999MW1071REMMET051DAAD 110900Z 32026KT 8000 BLSA FEW033 21/M00 Q1020;EQDQ01+000003PRSWM1Q02    003PRSWM1
0160605150999992000061110004+35330+004200FM-15+0461DAAD V0203001N011312200019N0080001N1+02301+00201999999ADDGA1021+009909999GF102991999999999999999999MA1101901999999MW1071REMMET050DAAD 111000Z 30022KT 8000 BLSA FEW033 23/02 Q1019;EQDQ01+000003PRSWM1Q02    003PRSWM1
0160605150999992000061111004+35330+004200FM-15+0461DAAD V0203301N008212200019N0080001N1+02401+00301999999ADDGA1021+007809999GF104991999999999999999999MA1102001999999MW1071REMMET050DAAD 111100Z 33016KT 8000 BLSA SCT026 24/03 Q1020;EQDQ01+000003PRSWM1Q02    003PRSWM1
0268605150999992000061112004+35330+004200SY-MT+0461DAAD V0203001N005110360019N0100001N1+02351+00301101951ADDAA199000091GA1021+007809999GF105991031021008001071001MA1101901999999MD1810041+9999MW1001REMSYN082AAXX  11124 60515 32560 53010 10235 20030 40195 58004 83270 333 0//00 83826 95900;MET045DAAD 111200Z 30010KT 9999 SCT026 24/03 Q1019;EQDQ01+000000PRSWM2Q02  00002PRCP99
0139605150999992000061113004+35330+004200FM-15+0461DAAD V0203001N010312200019N0112651N1+02501+00301999999ADDGA1021+007809999GF104991999999999999999999MA1101901999999MW1001REMMET045DAAD 111300Z 30020KT 9999 SCT026 25/03 Q1019;EQDQ01+000000PRSWM2
0139605150999992000061114004+35330+004200FM-15+0461DAAD V0203201N014412200019N0112651N1+02501+00201999999ADDGA1021+007809999GF104991999999999999999999MA1101901999999MW1001REMMET045DAAD 111400Z 32028KT 9999 SCT026 25/02 Q1019;EQDQ01+000000PRSWM2
0235605150999992000061115004+35330+004200SY-MT+0461DAAD V0203401N012310360019N0100001N1+02461+00261101911ADDGA1021+007809999GF106991031021008001071001MA1101901999999MD1710041+9999MW1001REMSYN076AAXX  11154 60515 42560 63424 10246 20026 40191 57004 83270 333 83826 95900;MET045DAAD 111500Z 34020KT 9999 SCT026 25/03 Q1019;EQDQ01+000000PRSWM2
0139605150999992000061116004+35330+004200FM-15+0461DAAD V0203001N007212200019N0112651N1+02501+00301999999ADDGA1021+009009999GF104991999999999999999999MA1101901999999MW1001REMMET045DAAD 111600Z 30014KT 9999 SCT030 25/03 Q1019;EQDQ01+000000PRSWM2
0281605150999992000061118004+35330+004200SY-MT+0461DAAD V0203401N009312200019N0100001N1+02371+00471101871ADDAA199000091GA1021+009909999GF102991021021008001001001KA1120M+02551MA1101801999999MD1710051+9999MW1001REMSYN082AAXX  11184 60515 32560 23418 10237 20047 40187 57005 82200 333 10255 82833 95900;MET045DAAD 111800Z 34018KT 9999 FEW033 24/05 Q1018;EQDQ01+000000PRSWM2Q02  00002PRCP99
0211605150999992000061206004+35330+004200FM-12+0461DAAD V0203001N010312200019N0150001N1+01721+00581102271ADDAA199000091GA1011+009909089GF103991011081999999071021IA2240+01409KA1120N+01531MD1310091+9999REMSYN088AAXX  12064 60515 33965 33020 10172 20058 40227 53009 81872 333 01400 20153 81833 95900;EQDQ01  00002PRCP99
0139605150999992000061208004+35330+004200FM-15+0461DAAD V0203001N011312200019N0112651N1+01901+00601999999ADDGA1021+009909999GF102991999999999999999999MA1102301999999MW1001REMMET045DAAD 120800Z 30022KT 9999 FEW033 19/06 Q1023;EQDQ01+000000PRSWM2
0235605150999992000061209004+35330+004200SY-MT+0461DAAD V0203401N005112200019N0150001N1+02061+00481102351ADDGA1021+009909999GF103991021081008001071021MA1102301999999MD1010051+9999MW1001REMSYN076AAXX  12094 60515 42565 33410 10206 20048 40235 50005 82872 333 82833 95900;MET045DAAD 120900Z 34010KT 9999 FEW033 21/05 Q1023;EQDQ01+000000PRSWM2
0139605150999992000061210004+35330+004200FM-15+0461DAAD V0203001N006212200019N0112651N1+02301+00501999999ADDGA1021+009909999GF102991999999999999999999MA1102301999999MW1001REMMET045DAAD 121000Z 30012KT 9999 FEW033 23/05 Q1023;EQDQ01+000000PRSWM2
0139605150999992000061211004+35330+004200FM-15+0461DAAD V0203401N006212200019N0112651N1+02301+00401999999ADDGA1021+009909999GF102991999999999999999999MA1102301999999MW1001REMMET045DAAD 121100Z 34012KT 9999 FEW033 23/04 Q1023;EQDQ01+000000PRSWM2
0268605150999992000061212004+35330+004200SY-MT+0461DAAD V0203601N002112200019N0100001N1+02401+00491102271ADDAA199000091GA1021+009909999GF104991031081008001001021MA1102201999999MD1810071+9999MW1001REMSYN082AAXX  12124 60515 32560 43604 10240 20049 40227 58007 83802 333 0//00 83833 95900;MET045DAAD 121200Z 36004KT 9999 SCT033 24/05 Q1022;EQDQ01+000000PRSWM2Q02  00002PRCP99
0139605150999992000061213004+35330+004200FM-15+0461DAAD V0203401N003112200019N0112651N1+02501+00501999999ADDGA1021+009909999GF104991999999999999999999MA1102201999999MW1001REMMET045DAAD 121300Z 34006KT 9999 SCT033 25/05 Q1022;EQDQ01+000000PRSWM2
0139605150999992000061214004+35330+004200FM-15+0461DAAD V0203601N006210099019N0112651N1+02501+00601999999ADDGA1071+009909999GF107991999999999999999999MA1102201999999MW1001REMMET045DAAD 121400Z 36012KT 9999 BKN033 25/06 Q1022;EQDQ01+000000PRSWM2
0251605150999992000061215004+35330+004200SY-MT+0461DAAD V0203601N006210099019N0150001N1+02541+00591102121ADDGA1071+009909999GF199999061081008001001001MA1102101999999MD1710131+9999MW1001REMSYN076AAXX  12154 60515 42565 63612 10254 20059 40212 57013 86800 333 86833 95900;MET045DAAD 121500Z 36012KT 9999 BKN033 25/09 Q1021;EQDQ01+000062SCOTCVQ02+000000PRSWM2
0139605150999992000061216004+35330+004200FM-15+0461DAAD V0203401N006210099019N0112651N1+02401+00901999999ADDGA1071+009909999GF107991999999999999999999MA1102001999999MW1001REMMET045DAAD 121600Z 34012KT 9999 BKN033 24/09 Q1020;EQDQ01+000000PRSWM2
0193605150999992000061218004+35330+004200FM-12+0461DAAD V0203401N005110099019N0100001N1+02471+00591102071ADDAA199000091GA1061+009909089GF106991061081008001001001KA1120M+02631MD1610041+9999REMSYN082AAXX  12184 60515 32560 63410 10247 20059 40207 56004 86800 333 10263 86833 95900;EQDQ01  00002PRCP99
0315605150999992000061306004+35330+004200SY-MT+0461DAAD V0203201N002110099019N0150001N1+01911+01021102231ADDAA199000091GA1071+009909999GF199999061081008001001001IA2240+01709KA1120N+01821MA1102201999999MD1310041+9999MW1001REMSYN088AAXX  13064 60515 33565 63204 10191 20102 40223 53004 86800 333 01700 20182 86833 95900;MET045DAAD 130600Z 32004KT 9999 BKN033 19/10 Q1022;EQDQ01+000062SCOTCVQ02+000000PRSWM2Q03  00002PRCP99
0166605150999992000061309004+35330+004200FM-12+0461DAAD V0200201N004110240019N0150001N1+02281+00891102301ADDGA1031+009009089GA2031+024009039GF106991031021008001071001MD1110071+9999REMSYN082AAXX  13094 60515 42565 60208 10228 20089 40230 51007 83270 333 83830 83358 95900;
0162605150999992000061310004+35330+004200FM-15+0461DAAD V0209999C000012200019N0112651N1+02401+00901999999ADDGA1021+009009999GA2021+024009999GF104991999999999999999999MA1102301999999MW1001REMMET052DAAD 131000Z 00000KT 9999 SCT030 SCT080 24/09 Q1023;EQDQ01+000000PRSWM2
0139605150999992000061311004+35330+004200FM-15+0461DAAD V0200401N002112200019N0112651N1+02601+00801999999ADDGA1021+009009999GF104991999999999999999999MA1102301999999MW1001REMMET045DAAD 131100Z 04004KT 9999 SCT030 26/08 Q1023;EQDQ01+000000PRSWM2
0268605150999992000061312004+35330+004200SY-MT+0461DAAD V0200201N002110360019N0150001N1+02651+00981102191ADDAA199000091GA1021+009009999GF106991041021008001091001MA1102101999999MD1810081+9999MW1001REMSYN082AAXX  13124 60515 32565 60204 10265 20098 40219 58008 84290 333 0//00 84830 95900;MET045DAAD 131200Z 02004KT 9999 SCT030 27/10 Q1021;EQDQ01+000000PRSWM2Q02  00002PRCP99
0139605150999992000061313004+35330+004200FM-15+0461DAAD V0201001N004110090019N0112651N1+02701+01001999999ADDGA1071+009009999GF107991999999999999999999MA1102101999999MW1001REMMET045DAAD 131300Z 10008KT 9999 BKN030 27/10 Q1021;EQDQ01+000000PRSWM2
0139605150999992000061314004+35330+004200FM-15+0461DAAD V0200601N002110078019N0112651N1+02801+01001999999ADDGA1071+007809999GF107991999999999999999999MA1102001999999MW1001REMMET045DAAD 131400Z 06004KT 9999 BKN026 28/10 Q1020;EQDQ01+000000PRSWM2
0251605150999992000061315004+35330+004200SY-MT+0461DAAD V0200401N002110078019N0150001N1+02841+00921101961ADDGA1071+007809999GF199999061081008001001001MA1101901999999MD1710211+9999MW1001REMSYN076AAXX  13154 60515 42565 60404 10284 20092 40196 57021 86800 333 86826 95900;MET045DAAD 131500Z 04004KT 9999 BKN026 28/10 Q1019;EQDQ01+000062SCOTCVQ02+000000PRSWM2
0139605150999992000061316004+35330+004200FM-15+0461DAAD V0200501N003112200019N0112651N1+02901+00701999999ADDGA1021+009009999GF104991999999999999999999MA1101901999999MW1001REMMET045DAAD 131600Z 05006KT 9999 SCT030 29/07 Q1019;EQDQ01+000000PRSWM2
0139605150999992000061317004+35330+004200FM-15+0461DAAD V0200501N002112200019N0112651N1+02901+00801999999ADDGA1021+009009999GF104991999999999999999999MA1101901999999MW1001REMMET045DAAD 131700Z 05004KT 9999 SCT030 29/08 Q1019;EQDQ01+000000PRSWM2
0297605150999992000061318004+35330+004200SY-MT+0461DAAD V0201001N005110090019N0100001N1+02811+00831101951ADDAA199000091GA1071+009009999GF199999061081008001001001KA1120M+02901MA1101901999999MD1010011+9999MW1001REMSYN082AAXX  13184 60515 32560 61010 10281 20083 40195 50001 86800 333 10290 86830 95900;MET045DAAD 131800Z 10010KT 9999 BKN030 28/08 Q1019;EQDQ01+000062SCOTCVQ02+000000PRSWM2Q03  00002PRCP99
0315605150999992000061406004+35320+004190SY-MT+0461DAAD V0202001N002110099019N0100001N1+01911+01121102251ADDAA199000091GA1071+009909999GF199999051021008001001001IA2240+01609KA1120N+01821MA1102201999999MD1310071+9999MW1001REMSYN088AAXX  14064 60515 33560 52004 10191 20112 40225 53007 85200 333 01600 20182 85833 95900;MET045DAAD 140600Z 20004KT 9999 BKN033 19/11 Q1022;EQDQ01+000052SCOTCVQ02+000000PRSWM2Q03  00002PRCP99
0139605150999992000061407004+35320+004190FM-15+0461DAAD V0203401N001012200019N0112651N1+02201+01201999999ADDGA1021+009009999GF104991999999999999999999MA1102201999999MW1001REMMET045DAAD 140700Z 34002KT 9999 SCT030 22/12 Q1022;EQDQ01+000000PRSWM2
0235605150999992000061409004+35320+004190SY-MT+0461DAAD V0201001N002112200019N0100001N1+02481+01131102261ADDGA1021+009009999GF104991041021008001001001MA1102201999999MD1010011+9999MW1001REMSYN076AAXX  14094 60515 42560 41004 10248 20113 40226 50001 84200 333 84830 95900;MET045DAAD 140900Z 10004KT 9999 SCT030 25/11 Q1022;EQDQ01+000000PRSWM2
0139605150999992000061410004+35320+004190FM-15+0461DAAD V0203201N002110090019N0112651N1+02701+01101999999ADDGA1071+009009999GF107991999999999999999999MA1102201999999MW1001REMMET045DAAD 141000Z 32004KT 9999 BKN030 27/11 Q1022;EQDQ01+000000PRSWM2
0268605150999992000061412004+35320+004190SY-MT+0461DAAD V0201801N003112200019N0100001N1+02401+01041102121ADDAA199000091GA1021+009909999GF104991041021008001001001MA1102101999999MD1810121+9999MW1001REMSYN082AAXX  14124 60515 32560 41806 10240 20104 40212 58012 84200 333 0//00 84833 95900;MET045DAAD 141200Z 18006KT 9999 SCT033 27/10 Q1021;EQDQ01+000000PRSWM2Q02  00002PRCP99
0139605150999992000061413004+35320+004190FM-15+0461DAAD V0203401N004112200019N0112651N1+03001+00901999999ADDGA1021+009009999GF104991999999999999999999MA1102001999999MW1001REMMET045DAAD 141300Z 34008KT 9999 SCT030 30/09 Q1020;EQDQ01+000000PRSWM2
0139605150999992000061414004+35320+004190FM-15+0461DAAD V0203601N002112200019N0112651N1+02901+01001999999ADDGA1021+009009999GF104991999999999999999999MA1102001999999MW1001REMMET045DAAD 141400Z 36004KT 9999 SCT030 29/10 Q1020;EQDQ01+000000PRSWM2
0251605150999992000061415004+35320+004190SY-MT+0461DAAD V0203401N003110090019N0100001N1+03011+00831101901ADDGA1071+009009999GF199999051081008001001001MA1101901999999MD1710191+9999MW1001REMSYN076AAXX  14154 60515 42560 53406 10301 20083 40190 57019 85800 333 85830 95900;MET045DAAD 141500Z 34006KT 9999 BKN030 30/08 Q1019;EQDQ01+000052SCOTCVQ02+000000PRSWM2
0139605150999992000061416004+35320+004190FM-15+0461DAAD V0200401N002110090019N0112651N1+03001+00701999999ADDGA1071+009009999GF107991999999999999999999MA1101801999999MW1001REMMET045DAAD 141600Z 04004KT 9999 BKN030 30/07 Q1018;EQDQ01+000000PRSWM2
0139605150999992000061417004+35320+004190FM-15+0461DAAD V0203601N003110090019N0112651N1+03001+00701999999ADDGA1071+009009999GF107991999999999999999999MA1101801999999MW1001REMMET045DAAD 141700Z 36006KT 9999 BKN030 30/07 Q1018;EQDQ01+000000PRSWM2
0281605150999992000061418004+35320+004190SY-MT+0461DAAD V0203401N007212200019N0100001N1+02901+00831101931ADDAA199000091GA1021+009009999GF104991031081008001001021KA1120M+03071MA1101901999999MD1510021+9999MW1001REMSYN082AAXX  14184 60515 32560 43414 10290 20083 40193 55002 83802 333 10307 83830 95900;MET045DAAD 141800Z 34014KT 9999 SCT030 29/08 Q1019;EQDQ01+000000PRSWM2Q02  00002PRCP99
0299605150999992000061506004+35320+004190SY-MT+0461DAAD V0202601N003112200019N0100001N1+01901+01071102181ADDAA199000091GA1021+009909999GF104991031021008001001021IA2240+01509KA1120N+01731MA1102101999999MD1310021+9999MW1001REMSYN088AAXX  15064 60515 33560 42606 10190 20107 40218 53002 83202 333 01500 20173 83833 95900;MET045DAAD 150600Z 26006KT 9999 SCT033 19/11 Q1021;EQDQ01+000000PRSWM2Q02  00002PRCP99
0139605150999992000061508004+35320+004190FM-15+0461DAAD V0209999C000012200019N0112651N1+02101+00401999999ADDGA1021+009009999GF104991999999999999999999MA1102201999999MW1001REMMET045DAAD 150800Z 00000KT 9999 SCT030 21/04 Q1022;EQDQ01+000000PRSWM2
0235605150999992000061509004+35320+004190SY-MT+0461DAAD V0209999C000010090019N0100001N1+02301+00421102221ADDGA1071+009009999GF106991061081008001001001MA1102201999999MD1010021+9999MW1001REMSYN076AAXX  15094 60515 42560 60000 10230 20042 40222 50002 86800 333 86830 95900;MET045DAAD 150900Z 00000KT 9999 BKN030 23/04 Q1022;EQDQ01+000000PRSWM2
0139605150999992000061510004+35320+004190FM-15+0461DAAD V0203601N002112200019N0112651N1+02501+01001999999ADDGA1021+012009999GF104991999999999999999999MA1102201999999MW1001REMMET045DAAD 151000Z 36004KT 9999 SCT040 25/10 Q1022;EQDQ01+000000PRSWM2
0139605150999992000061511004+35320+004190FM-15+0461DAAD V0203401N004112200019N0112651N1+02701+01101999999ADDGA1021+009909999GF104991999999999999999999MA1102101999999MW1001REMMET045DAAD 151100Z 34008KT 9999 SCT033 27/11 Q1021;EQDQ01+000000PRSWM2
0268605150999992000061512004+35320+004190SY-MT+0461DAAD V0200201N004112200019N0100001N1+02741+00991102111ADDAA199000091GA1021+009909999GF103991031021008001071001MA1102101999999MD1810101+9999MW1001REMSYN082AAXX  15124 60515 32560 30208 10274 20099 40211 58010 83270 333 0//00 83833 95900;MET045DAAD 151200Z 02008KT 9999 SCT033 27/10 Q1021;EQDQ01+000000PRSWM2Q02  00002PRCP99
0139605150999992000061513004+35320+004190FM-15+0461DAAD V0203201N004112200019N0112651N1+02901+00801999999ADDGA1021+009909999GF104991999999999999999999MA1102001999999MW1001REMMET045DAAD 151300Z 32008KT 9999 SCT033 29/08 Q1020;EQDQ01+000000PRSWM2
0139605150999992000061514004+35320+004190FM-15+0461DAAD V0200601N004112200019N0112651N1+02901+00901999999ADDGA1021+009909999GF104991999999999999999999MA1101901999999MW1001REMMET045DAAD 151400Z 06008KT 9999 SCT033 29/09 Q1019;EQDQ01+000000PRSWM2
0235605150999992000061515004+35320+004190SY-MT+0461DAAD V0203201N006212200019N0100001N1+03061+00721101821ADDGA1021+009909999GF103991031021008001001001MA1101801999999MD1710251+9999MW1001REMSYN076AAXX  15154 60515 42560 33212 10306 20072 40182 57025 83200 333 83833 95900;MET045DAAD 151500Z 32012KT 9999 SCT033 31/07 Q1018;EQDQ01+000000PRSWM2
0139605150999992000061516004+35320+004190FM-15+0461DAAD V0203201N007212200019N0112651N1+03201+00701999999ADDGA1021+009909999GF104991999999999999999999MA1101691999999MW1001REMMET045DAAD 151600Z 32014KT 9999 SCT033 32/07 Q1017;EQDQ01+000000PRSWM2
0193605150999992000061518004+35320+004190FM-12+0461DAAD V0203401N008212200019N0100001N1+02871+00681101811ADDAA199000091GA1021+009909089GF102991021021999999001001KA1120M+03151MD1510031+9999REMSYN082AAXX  15184 60515 32960 23416 10287 20068 40181 55003 82200 333 10315 82833 95900;EQDQ01  00002PRCP99
0265605150999992000061606004+35320+004190SY-MT+0461DAAD V0201301N002112200019N0100001N1+01931+01011102121ADDAA199000091GF100991001001999999001001IA2240+01309KA1120N+01641MA1102101999999MD1510051+9999MW1001REMSYN076AAXX  16064 60515 33960 01304 10193 20101 40212 55005 333 01300 20164 95900;MET039DAAD 160600Z 13004KT CAVOK 19/10 Q1021;EQDQ01+000000PRSWM2Q02  00002PRCP99
0091605150999992000061607004+35320+004190FM-15+0461DAAD V0203201N00211220001CN0099001N1+02201+01101999999ADDMA1102001999999MW1001REMMET039DAAD 160700Z 32004KT CAVOK 22/11 Q1020;EQDQ01+000000PRSWM2
0091605150999992000061608004+35320+004190FM-15+0461DAAD V0202801N00311220001CN0099001N1+02301+01101999999ADDMA1102101999999MW1001REMMET039DAAD 160800Z 28006KT CAVOK 23/11 Q1021;EQDQ01+000000PRSWM2
0201605150999992000061609004+35320+004190SY-MT+0461DAAD V0203601N004112200019N0100001N1+02421+01001102141ADDGF100991001001999999001001MA1102101999999MD1010021+9999MW1001REMSYN064AAXX  16094 60515 42960 03608 10242 20100 40214 50002 333 95900;MET039DAAD 160900Z 36008KT CAVOK 24/10 Q1021;EQDQ01+000000PRSWM2
0091605150999992000061610004+35320+004190FM-15+0461DAAD V0203601N00311220001CN0099001N1+02601+01001999999ADDMA1102101999999MW1001REMMET039DAAD 161000Z 36006KT CAVOK 26/10 Q1021;EQDQ01+000000PRSWM2
0091605150999992000061611004+35320+004190FM-15+0461DAAD V0203201N00311220001CN0099001N1+02701+01001999999ADDMA1102101999999MW1001REMMET039DAAD 161100Z 32006KT CAVOK 27/10 Q1021;EQDQ01+000000PRSWM2
0234605150999992000061612004+35320+004190SY-MT+0461DAAD V0203201N002112200019N0100001N1+02751+01011102071ADDAA199000091GF100991001001999999001001MA1102001999999MD1810071+9999MW1001REMSYN070AAXX  16124 60515 32960 03204 10275 20101 40207 58007 333 0//00 95900;MET039DAAD 161200Z 32004KT CAVOK 28/10 Q1020;EQDQ01+000000PRSWM2Q02  00002PRCP99
0091605150999992000061613004+35320+004190FM-15+0461DAAD V0203601N00411220001CN0099001N1+02801+00601999999ADDMA1102001999999MW1001REMMET039DAAD 161300Z 36008KT CAVOK 28/06 Q1020;EQDQ01+000000PRSWM2
0201605150999992000061615004+35320+004190SY-MT+0461DAAD V0200201N005112200019N0150001N1+03101+00501101851ADDGF100991001001999999001001MA1101801999999MD1710091+9999MW1001REMSYN064AAXX  16154 60515 42965 00210 10310 20050 40185 57009 333 95900;MET039DAAD 161500Z 02010KT CAVOK 31/05 Q1018;EQDQ01+000000PRSWM2
0091605150999992000061617004+35320+004190FM-15+0461DAAD V0203601N00621220001CN0099001N1+03201+00301999999ADDMA1101691999999MW1001REMMET039DAAD 161700Z 36012KT CAVOK 32/03 Q1017;EQDQ01+000000PRSWM2
0247605150999992000061618004+35320+004190SY-MT+0461DAAD V0200201N005112200019N0150001N1+03101+00501101761ADDAA199000091GF100991001001999999001001KA1120M+03221MA1101691999999MD1510081+9999MW1001REMSYN070AAXX  16184 60515 32965 00210 10310 20050 40176 55008 333 10322 95900;MET039DAAD 161800Z 02010KT CAVOK 31/05 Q1017;EQDQ01+000000PRSWM2Q02  00002PRCP99
0265605150999992000061706004+35320+004190SY-MT+0461DAAD V0201601N003112200019N0100001N1+02001+00691102081ADDAA199000091GF100991001001999999001001IA2240+01409KA1120N+01581MA1102001999999MD1310061+9999MW1001REMSYN076AAXX  17064 60515 33960 01606 10200 20069 40208 53006 333 01400 20158 95900;MET039DAAD 170600Z 16006KT CAVOK 20/07 Q1020;EQDQ01+000000PRSWM2Q02  00002PRCP99
0091605150999992000061707004+35320+004190FM-15+0461DAAD V0201601N00311220001CN0099001N1+02401+00801999999ADDMA1102101999999MW1001REMMET039DAAD 170700Z 16006KT CAVOK 24/08 Q1021;EQDQ01+000000PRSWM2
0091605150999992000061708004+35320+004190FM-15+0461DAAD V0209999C00001220001CN0099001N1+02601+00901999999ADDMA1102101999999MW1001REMMET039DAAD 170800Z 00000KT CAVOK 26/09 Q1021;EQDQ01+000000PRSWM2
0201605150999992000061709004+35320+004190SY-MT+0461DAAD V0200801N002112200019N0100001N1+02721+00871102171ADDGF100991001001999999001001MA1102101999999MD1110091+9999MW1001REMSYN064AAXX  17094 60515 42960 00804 10272 20087 40217 51009 333 95900;MET039DAAD 170900Z 08004KT CAVOK 27/09 Q1021;EQDQ01+000000PRSWM2
0091605150999992000061710004+35320+004190FM-15+0461DAAD V0209999C00001220001CN0099001N1+02901+00901999999ADDMA1102101999999MW1001REMMET039DAAD 171000Z 00000KT CAVOK 29/09 Q1021;EQDQ01+000000PRSWM2
0091605150999992000061711004+35320+004190FM-15+0461DAAD V0209999C00001220001CN0099001N1+03101+00801999999ADDMA1102101999999MW1001REMMET039DAAD 171100Z 00000KT CAVOK 31/08 Q1021;EQDQ01+000000PRSWM2
0234605150999992000061712004+35320+004190SY-MT+0461DAAD V0200601N004112200019N0100001N1+03201+00681102071ADDAA199000091GF100991001001999999001001MA1102001999999MD1810081+9999MW1001REMSYN070AAXX  17124 60515 32960 00608 10320 20068 40207 58008 333 0//00 95900;MET039DAAD 171200Z 06008KT CAVOK 32/07 Q1020;EQDQ01+000000PRSWM2Q02  00002PRCP99
0091605150999992000061713004+35320+004190FM-15+0461DAAD V0203401N00411220001CN0099001N1+03301+00601999999ADDMA1102001999999MW1001REMMET039DAAD 171300Z 34008KT CAVOK 33/06 Q1020;EQDQ01+000000PRSWM2
0092605150999992000061714004+35320+004190FM-15+0461DAAD V0200601N00411220001CN0099001N1+03301+00001999999ADDMA1101901999999MW1001REMMET040DAAD 171400Z 06008KT CAVOK 33/M00 Q1019;EQDQ01+000000PRSWM2
0202605150999992000061715004+35320+004190SY-MT+0461DAAD V0200201N003112200019N0100001N1+03351-00051101891ADDGF100991001001999999001001MA1101801999999MD1710191+9999MW1001REMSYN064AAXX  17154 60515 42960 00206 10335 21005 40189 57019 333 95900;MET040DAAD 171500Z 02006KT CAVOK 34/M01 Q1018;EQDQ01+000000PRSWM2
0091605150999992000061717004+35320+004190FM-15+0461DAAD V0200401N00311220001CN0099001N1+03401+00401999999ADDMA1101801999999MW1001REMMET039DAAD 171700Z 04006KT CAVOK 34/04 Q1018;EQDQ01+000000PRSWM2
0247605150999992000061718004+35320+004190SY-MT+0461DAAD V0201001N004112200019N0100001N1+03341+00411101811ADDAA199000091GF100991001001999999001001KA1120M+03441MA1101801999999MD1510061+9999MW1001REMSYN070AAXX  17184 60515 32960 01008 10334 20041 40181 55006 333 10344 95900;MET039DAAD 171800Z 10008KT CAVOK 33/04 Q1018;EQDQ01+000000PRSWM2Q02  00002PRCP99
0265605150999992000061806004+35320+004190SY-MT+0461DAAD V0209999C000012200019N0100001N1+02161+00791102031ADDAA199000091GF100991001001999999001001IA2240+01509KA1120N+01791MA1102001999999MD1310041+9999MW1001REMSYN076AAXX  18064 60515 33960 00000 10216 20079 40203 53004 333 01500 20179 95900;MET039DAAD 180600Z 00000KT CAVOK 22/08 Q1020;EQDQ01+000000PRSWM2Q02  00002PRCP99
0091605150999992000061807004+35320+004190FM-15+0461DAAD V0209999C00001220001CN0099001N1+02401+01001999999ADDMA1102001999999MW1001REMMET039DAAD 180700Z 00000KT CAVOK 24/10 Q1020;EQDQ01+000000PRSWM2
0091605150999992000061808004+35320+004190FM-15+0461DAAD V0209999C00001220001CN0099001N1+02701+00901999999ADDMA1102001999999MW1001REMMET039DAAD 180800Z 00000KT CAVOK 27/09 Q1020;EQDQ01+000000PRSWM2
0213605150999992000061809004+35320+004190SY-MT+0461DAAD V0200601N002112200019N0100001N1+02931+00891102081ADDGF104991001001999999001021MA1102001999999MD1010051+9999MW1001REMSYN076AAXX  18094 60515 42960 40604 10293 20089 40208 50005 80002 333 84070 95900;MET039DAAD 180900Z 04004KT CAVOK 29/09 Q1020;EQDQ01+000000PRSWM2
0091605150999992000061811004+35320+004190FM-15+0461DAAD V0202001N00821220001CN0099001N1+03501+00801999999ADDMA1101901999999MW1001REMMET039DAAD 181100Z 20016KT CAVOK 35/08 Q1019;EQDQ01+000000PRSWM2
0297605150999992000061812004+35320+004190SY-MT+0461DAAD V0202001N008212200019N0100001N1+03581+00561101881ADDAA199000091GA1021+013809999GA2021+060009999GF104991011021012501001021MA1101801999999MD1810161+9999MW1001REMSYN088AAXX  18124 60515 32660 42016 10358 20056 40188 58016 81202 333 0//00 81846 84070 95900;MET052DAAD 181200Z 20016KT 9999 FEW046 SCT200 36/06 Q1018;EQDQ01+000000PRSWM2Q02  00002PRCP99
0162605150999992000061813004+35320+004190FM-15+0461DAAD V0201801N009312200019N0080001N1+03701+00601999999ADDGA1021+013809999GA2021+060009999GF104991999999999999999999MA1101691999999MW1001REMMET052DAAD 181300Z 18018KT 8000 FEW046 SCT200 37/06 Q1017;EQDQ01+000000PRSWM2
0139605150999992000061814004+35320+004190FM-15+0461DAAD V0201601N010312200019N0080001N1+03701+00601999999ADDGA1021+012009999GF102991999999999999999999MA1101691999999MW1001REMMET045DAAD 181400Z 16020KT 8000 FEW040 37/06 Q1017;EQDQ01+000000PRSWM2
0251605150999992000061815004+35320+004190SY-MT+0461DAAD V0201601N010312200019N9999999N1+03711+00471101681ADDGA1021+009909999GF104991031021008001001021MA1101591999999MD1710211+9999MW1001REMSYN076AAXX  18154 60515 42557 41620 10371 20047 40168 57021 83202 333 83833 95900;MET045DAAD 181500Z 16020KT 7000 SCT033 37/05 Q1016;EQDQ01+070002VODIS Q02+000000PRSWM2
0155605150999992000061816004+35320+004190FM-15+0461DAAD V0201601N010312200019N9999999N1+03601+00501999999ADDGA1021+009909999GF104991999999999999999999MA1101591999999MW1001REMMET045DAAD 181600Z 16020KT 7000 SCT033 36/05 Q1016;EQDQ01+070002VODIS Q02+000000PRSWM2
0139605150999992000061817004+35320+004190FM-15+0461DAAD V0201801N010312200019N0070001N1+03501+00701999999ADDGA1021+009909999GF104991999999999999999999MA1101491999999MW1001REMMET045DAAD 181700Z 18020KT 7000 SCT033 35/07 Q1015;EQDQ01+000000PRSWM2
0297605150999992000061818004+35320+004190SY-MT+0461DAAD V0201601N007212200019N9999999N1+03501+00671101651ADDAA199000091GA1021+009009999GF104991041081008001001021KA1120M+03741MA1101591999999MD1510041+9999MW1001REMSYN082AAXX  18184 60515 32557 41614 10350 20067 40165 55004 84802 333 10374 84830 95900;MET045DAAD 181800Z 15014KT 7000 SCT030 35/07 Q1016;EQDQ01+070002VODIS Q02+000000PRSWM2Q03  00002PRCP99
0268605150999992000061906004+35320+004190SY-MT+0461DAAD V0201201N002112200019N0080001N1+02531+01141101761ADDAA199000091GF100991001001999999001001IA2240+02109KA1120N+02331MA1101691999999MD1310011+9999MW1001REMSYN076AAXX  19064 60515 33958 01204 10253 20114 40176 53001 333 02100 20233 95900;MET042DAAD 190600Z 12004KT 8000 SKC 25/11 Q1017;EQDQ01+000000PRSWM2Q02  00002PRCP99
0120605150999992000061907004+35320+004190FM-15+0461DAAD V0200201N002112200019N0080001N1+02801+01201999999ADDGF100991999999999999999999MA1101691999999MW1001REMMET042DAAD 190700Z 02004KT 8000 SKC 28/12 Q1017;EQDQ01+000000PRSWM2
0120605150999992000061908004+35320+004190FM-15+0461DAAD V0202201N004112200019N0080001N1+03101+01101999999ADDGF100991999999999999999999MA1101691999999MW1001REMMET042DAAD 190800Z 22008KT 8000 SKC 31/11 Q1017;EQDQ01+000000PRSWM2
0204605150999992000061909004+35320+004190SY-MT+0461DAAD V0203101N001012200019N0070001N1+03151+01061101731ADDGF100991001001999999001001MA1101691999999MD1010011+9999MW1001REMSYN064AAXX  19094 60515 42957 03102 10315 20106 40173 50001 333 95900;MET042DAAD 190900Z 31002KT 7000 SKC 32/11 Q1017;EQDQ01+000000PRSWM2
0136605150999992000061910004+35320+004190FM-15+0461DAAD V0200301N002112200019N9999999N1+03301+01201999999ADDGF100991999999999999999999MA1101691999999MW1001REMMET042DAAD 191000Z 03004KT 7000 SKC 33/12 Q1017;EQDQ01+070002VODIS Q02+000000PRSWM2
0155605150999992000061911004+35320+004190FM-15+0461DAAD V0200301N003112200019N9999999N1+03401+01101999999ADDGA1021+024009999GF102991999999999999999999MA1101591999999MW1001REMMET045DAAD 191100Z 03006KT 7000 FEW080 34/11 Q1016;EQDQ01+070002VODIS Q02+000000PRSWM2
0284605150999992000061912004+35320+004190SY-MT+0461DAAD V0200401N004112200019N9999999N1+03451+01001101571ADDAA199000091GA1021+009909999GF102991011021012501071001MA1101491999999MD1810141+9999MW1001REMSYN082AAXX  19124 60515 32657 20408 10345 20100 40157 58014 81270 333 0//00 81833 95900;MET045DAAD 191200Z 04010KT 7000 FEW033 35/10 Q1015;EQDQ01+070002VODIS Q02+000000PRSWM2Q03  00002PRCP99
0178605150999992000061913004+35320+004190FM-15+0461DAAD V0200401N005112200019N9999999N1+03501+00901999999ADDGA1021+013809999GA2021+060009999GF104991999999999999999999MA1101491999999MW1001REMMET052DAAD 191300Z 04010KT 7000 FEW046 SCT200 35/09 Q1015;EQDQ01+070002VODIS Q02+000000PRSWM2
0155605150999992000061914004+35320+004190FM-15+0461DAAD V0203401N005112200019N9999999N1+03601+00901999999ADDGA1021+009009999GF102991999999999999999999MA1101391999999MW1001REMMET045DAAD 191400Z 34010KT 7000 FEW030 36/09 Q1014;EQDQ01+070002VODIS Q02+000000PRSWM2
0251605150999992000061915004+35320+004190SY-MT+0461DAAD V0200201N005112200019N9999999N1+03601+00931101411ADDGA1021+009009999GF103991031021008001001001MA1101391999999MD1710151+9999MW1001REMSYN076AAXX  19154 60515 42557 30210 10360 20093 40141 57015 83200 333 83830 95900;MET045DAAD 191500Z 02010KT 7000 SCT030 36/09 Q1014;EQDQ01+070002VODIS Q02+000000PRSWM2
0155605150999992000061916004+35320+004190FM-15+0461DAAD V0203401N005112200019N9999999N1+03601+00801999999ADDGA1021+009009999GF104991999999999999999999MA1101391999999MW1001REMMET045DAAD 191600Z 34010KT 7000 SCT030 36/08 Q1014;EQDQ01+070002VODIS Q02+000000PRSWM2
0297605150999992000061918004+35320+004190SY-MT+0461DAAD V0203401N004112200019N9999999N1+03601+00881101361ADDAA199000091GA1021+009009999GF103991031021008001001001KA1120M+03681MA1101291999999MD1510141+9999MW1001REMSYN082AAXX  19184 60515 32557 33408 10360 20088 40136 55014 83200 333 10368 83830 95900;MET045DAAD 191800Z 34008KT 7000 SCT030 36/09 Q1013;EQDQ01+070002VODIS Q02+000000PRSWM2Q03  00002PRCP99
0265605150999992000062006004+35320+004190SY-MT+0461DAAD V0200401N003112200019N0100001N1+02351+00671102031ADDAA199000091GF100991001001999999001001IA2240+02109KA1120N+02231MA1102001999999MD1310011+9999MW1001REMSYN076AAXX  20064 60515 32960 00406 10235 20067 40203 53001 333 02100 20223 95900;MET039DAAD 200600Z 04006KT CAVOK 24/07 Q1020;EQDQ01+000000PRSWM2Q02  00002PRCP99
0136605150999992000062007004+35320+004190FM-15+0461DAAD V0203601N002112200019N9999999N1+02401+00701999999ADDGF100991999999999999999999MA1101901999999MW1001REMMET042DAAD 200700Z 36004KT 7000 SKC 24/07 Q1019;EQDQ01+070002VODIS Q02+000000PRSWM2
0136605150999992000062008004+35320+004190FM-15+0461DAAD V0200201N003112200019N9999999N1+02701+01301999999ADDGF100991999999999999999999MA1101591999999MW1001REMMET042DAAD 200800Z 02006KT 7000 SKC 27/13 Q1016;EQDQ01+070002VODIS Q02+000000PRSWM2
0204605150999992000062009004+35320+004190SY-MT+0461DAAD V0202001N003112200019N0080001N1+02901+01161101761ADDGF100991001001999999001001MA1101691999999MD1110071+9999MW1001REMSYN064AAXX  20094 60515 42958 02006 10290 20116 40176 51007 333 95900;MET042DAAD 200900Z 20006KT 8000 SKC 29/12 Q1017;EQDQ01+000000PRSWM2
0120605150999992000062010004+35320+004190FM-15+0461DAAD V0209999C000012200019N0080001N1+03101+01201999999ADDGF100991999999999999999999MA1101691999999MW1001REMMET042DAAD 201000Z 00000KT 8000 SKC 31/12 Q1017;EQDQ01+000000PRSWM2
0120605150999992000062011004+35320+004190FM-15+0461DAAD V0203001N003112200019N0080001N1+03201+01101999999ADDGF100991999999999999999999MA1101691999999MW1001REMMET042DAAD 201100Z 30006KT 8000 SKC 32/11 Q1017;EQDQ01+000000PRSWM2
0284605150999992000062012004+35320+004190SY-MT+0461DAAD V0200201N003112200019N0080001N1+03291+01241101631ADDAA199000091GA1021+012009999GF199999011021012501001001MA1101591999999MD1810071+9999MW1001REMSYN082AAXX  20124 60515 32658 10206 10329 20124 40163 58007 81200 333 0//00 81840 95900;MET045DAAD 201200Z 02006KT 8000 FEW040 33/12 Q1016;EQDQ01+000012SCOTCVQ02+000000PRSWM2Q03  00002PRCP99
0139605150999992000062013004+35320+004190FM-15+0461DAAD V0201001N003112200019N0080001N1+03501+01301999999ADDGA1021+012009999GF102991999999999999999999MA1101491999999MW1001REMMET045DAAD 201300Z 10006KT 8000 FEW040 35/13 Q1015;EQDQ01+000000PRSWM2
0139605150999992000062014004+35320+004190FM-15+0461DAAD V0201001N005112200019N0080001N1+03501+01101999999ADDGA1021+012009999GF102991999999999999999999MA1101491999999MW1001REMMET045DAAD 201400Z 10010KT 8000 FEW040 35/11 Q1015;EQDQ01+000000PRSWM2
0144605150999992000062015004+35320+004190FM-12+0461DAAD V0200601N005112200019N0080001N1+03441+01271101501ADDGA1021+012009089GF102991021021012501001001MD1710161+9999REMSYN076AAXX  20154 60515 42658 20610 10344 20127 40150 57016 82200 333 82840 95900;
0139605150999992000062016004+35320+004190FM-15+0461DAAD V0200601N005112200019N0080001N1+03501+01201999999ADDGA1021+012009999GF102991999999999999999999MA1101391999999MW1001REMMET045DAAD 201600Z 06010KT 8000 FEW040 35/12 Q1014;EQDQ01+000000PRSWM2
0139605150999992000062017004+35320+004190FM-15+0461DAAD V0201201N003112200019N0080001N1+03501+01101999999ADDGA1021+012009999GF102991999999999999999999MA1101391999999MW1001REMMET045DAAD 201700Z 12006KT 8000 FEW040 35/11 Q1014;EQDQ01+000000PRSWM2
0281605150999992000062018004+35320+004190SY-MT+0461DAAD V0201001N005112200019N0080001N1+03371+01131101481ADDAA199000091GA1021+012009999GF102991011021012501071001KA1120M+03521MA1101391999999MD1510001+9999MW1001REMSYN082AAXX  20184 60515 32658 21010 10337 20113 40148 55000 81270 333 10352 81840 95900;MET045DAAD 201800Z 10010KT 8000 FEW040 34/11 Q1014;EQDQ01+000000PRSWM2Q02  00002PRCP99
0265605150999992000062106004+35320+004190SY-MT+0461DAAD V0203601N003112200019N0100001N1+02471+01151101771ADDAA199000091GF100991001001999999001001IA2240+01909KA1120N+02241MA1101691999999MD1310131+9999MW1001REMSYN076AAXX  21064 60515 33960 03606 10247 20115 40177 53013 333 01900 20224 95900;MET039DAAD 210600Z 36006KT CAVOK 25/12 Q1017;EQDQ01+000000PRSWM2Q02  00002PRCP99
0091605150999992000062107004+35320+004190FM-15+0461DAAD V0203401N00411220001CN0099001N1+02701+01101999999ADDMA1101691999999MW1001REMMET039DAAD 210700Z 34008KT CAVOK 27/11 Q1017;EQDQ01+000000PRSWM2
0091605150999992000062108004+35320+004190FM-15+0461DAAD V0203401N00411220001CN0099001N1+02801+01101999999ADDMA1101801999999MW1001REMMET039DAAD 210800Z 34008KT CAVOK 28/11 Q1018;EQDQ01+000000PRSWM2
0201605150999992000062109004+35320+004190SY-MT+0461DAAD V0203301N004112200019N0100001N1+02941+01201101811ADDGF100991001001999999001001MA1101801999999MD1210061+9999MW1001REMSYN064AAXX  21094 60515 42960 03308 10294 20120 40181 52006 333 95900;MET039DAAD 210900Z 33008KT CAVOK 29/12 Q1018;EQDQ01+000000PRSWM2
0139605150999992000062111004+35320+004190FM-15+0461DAAD V0202801N002112200019N0112651N1+03201+01101999999ADDGA1021+009909999GF102991999999999999999999MA1101691999999MW1001REMMET045DAAD 211100Z 28004KT 9999 FEW033 32/11 Q1017;EQDQ01+000000PRSWM2
0268605150999992000062112004+35320+004190SY-MT+0461DAAD V0203401N003112200019N0100001N1+03311+01061101701ADDAA199000091GA1021+009909999GF102991021021012501001001MA1101691999999MD1610101+9999MW1001REMSYN082AAXX  21124 60515 32660 23406 10331 20106 40170 56010 82200 333 0//00 82833 95900;MET045DAAD 211200Z 34006KT 9999 FEW033 33/11 Q1017;EQDQ01+000000PRSWM2Q02  00002PRCP99
0139605150999992000062113004+35320+004190FM-15+0461DAAD V0200401N002112200019N0112651N1+03501+01101999999ADDGA1021+009909999GF102991999999999999999999MA1101591999999MW1001REMMET045DAAD 211300Z 04004KT 9999 FEW033 35/11 Q1016;EQDQ01+000000PRSWM2
0139605150999992000062114004+35320+004190FM-15+0461DAAD V0200801N006212200019N0112651N1+03601+01101999999ADDGA1021+009009999GF102991999999999999999999MA1101491999999MW1001REMMET045DAAD 211400Z 08012KT 9999 FEW030 36/11 Q1015;EQDQ01+000000PRSWM2
0235605150999992000062115004+35320+004190SY-MT+0461DAAD V0200601N005112200019N0100001N1+03541+00931101501ADDGA1021+009009999GF102991021021008001001001MA1101491999999MD1710191+9999MW1001REMSYN076AAXX  21154 60515 42560 20610 10354 20093 40150 57019 82200 333 82830 95900;MET045DAAD 211500Z 06010KT 9999 FEW030 35/09 Q1015;EQDQ01+000000PRSWM2
0139605150999992000062118004+35320+004190FM-15+0461DAAD V0200601N005112200019N0112651N1+03401+01101999999ADDGA1021+009009999GF102991999999999999999999MA1101291999999MW1001REMMET045DAAD 211800Z 06010KT 9999 FEW030 34/11 Q1013;EQDQ01+000000PRSWM2
0299605150999992000062206004+35320+004190SY-MT+0461DAAD V0203401N004112200019N0100001N1+02441+01011101881ADDAA199000091GA1021+009909999GF103991021021008001001021IA2240+01909KA1120N+02211MA1101801999999MD1310141+9999MW1001REMSYN088AAXX  22064 60515 33560 33408 10244 20101 40188 53014 82202 333 01900 20221 82833 95900;MET045DAAD 220600Z 34008KT 9999 FEW033 24/10 Q1018;EQDQ01+000000PRSWM2Q02  00002PRCP99
0162605150999992000062207004+35320+004190FM-15+0461DAAD V0203601N004112200019N0112651N1+02601+01001999999ADDGA1021+009909999GA2021+060009999GF104991999999999999999999MA1101901999999MW1001REMMET052DAAD 220700Z 36008KT 9999 FEW033 SCT200 26/10 Q1019;EQDQ01+000000PRSWM2
0162605150999992000062208004+35320+004190FM-15+0461DAAD V0201201N002112200019N0112651N1+02801+01201999999ADDGA1021+009909999GA2021+060009999GF104991999999999999999999MA1101901999999MW1001REMMET052DAAD 220800Z 12004KT 9999 FEW033 SCT200 28/12 Q1019;EQDQ01+000000PRSWM2
0166605150999992000062209004+35320+004190FM-12+0461DAAD V0202001N002112200019N0100001N1+02901+01231101971ADDGA1011+012009089GA2031+060009009GF103991011021008001001021MD1010031+9999REMSYN082AAXX  22094 60515 42560 32004 10290 20123 40197 50003 81202 333 81840 83070 95900;
0162605150999992000062210004+35320+004190FM-15+0461DAAD V0201801N002112200019N0112651N1+03101+01101999999ADDGA1021+009909999GA2021+060009999GF104991999999999999999999MA1101901999999MW1001REMMET052DAAD 221000Z 18004KT 9999 FEW033 SCT200 31/11 Q1019;EQDQ01+000000PRSWM2
0091605150999992000062211004+35320+004190FM-15+0461DAAD V0201201N00411220001CN0099001N1+03401+00801999999ADDMA1101901999999MW1001REMMET039DAAD 221100Z 12008KT CAVOK 34/08 Q1019;EQDQ01+000000PRSWM2
0262605150999992000062212004+35320+004190SY-MT+0461DAAD V0200401N003112200019N0100001N1+03461+00861101781ADDAA199000091GA1031+060009009GF103991001001999999001021MA1101691999999MD1810091+9999MW1001REMSYN082AAXX  22124 60515 32960 30406 10346 20086 40178 58009 80002 333 0//00 83070 95900;MET039DAAD 221200Z 04006KT CAVOK 35/09 Q1017;EQDQ01+000000PRSWM2Q02  00002PRCP99
0139605150999992000062213004+35320+004190FM-15+0461DAAD V0201601N005112200019N0112651N1+03601+00601999999ADDGA1021+009909999GF102991999999999999999999MA1101691999999MW1001REMMET045DAAD 221300Z 16010KT 9999 FEW033 36/06 Q1017;EQDQ01+000000PRSWM2
0139605150999992000062214004+35320+004190FM-15+0461DAAD V0201801N006212200019N0112651N1+03601+00701999999ADDGA1021+009909999GF102991999999999999999999MA1101591999999MW1001REMMET045DAAD 221400Z 18012KT 9999 FEW033 36/07 Q1016;EQDQ01+000000PRSWM2
0235605150999992000062215004+35320+004190SY-MT+0461DAAD V0201801N007212200019N0100001N1+03651+00601101601ADDGA1021+009909999GF103991021021008001001021MA1101591999999MD1710191+9999MW1001REMSYN076AAXX  22154 60515 42560 31814 10365 20060 40160 57019 82202 333 82833 95900;MET045DAAD 221500Z 18014KT 9999 FEW033 37/06 Q1016;EQDQ01+000000PRSWM2
0181605150999992000062216004+35320+004190FM-15+0461DAAD V0202001N009312200019N9999999N1+03601+00501999999ADDGA1021+009009029GA2021+060009999GF104991999999999999999999MA1101491999999MW1001REMMET055DAAD 221600Z 20018KT 7000 SCT030TCU SCT200 36/05 Q1015;EQDQ01+070002VODIS Q02+000000PRSWM2
0185605150999992000062217004+35320+004190FM-15+0461DAAD V0202401N013412200019N0040001N1+03301+00401999999ADDGA1021+009009999GA2021+009909099GF102991999999999999999999MA1101591999999MW1071REMMET059DAAD 221700Z 24026KT 4000 BLSA SCT030 FEW033CB 33/04 Q1016;EQDQ01+000003PRSWM1Q02    003PRSWM1
0328605150999992000062218004+35320+004190SY-MT+0461DAAD V0202201N009310090019N9999999N1+03241+00521101751ADDAA199000091GA1071+009009999GA2021+009909099GF107991051091008001999999KA1120M+03701MA1101691999999MD1310111+9999MW1001REMSYN088AAXX  22184 60515 32557 72218 10324 20052 40175 53011 859// 333 10370 86830 81933 95900;MET054DAAD 221800Z 22018KT 7000 BKN030 FEW033CB 32/05 Q1017;EQDQ01+070002VODIS Q02+000000PRSWM2Q03  00002PRCP99
0328605150999992000062306004+35320+004190SY-MT+0461DAAD V0201401N002110240019N0100001N1+02221+01281102001ADDAA199000091GA1021+012009999GA2071+024009999GF105991021021012501071001IA2240+01809KA1120N+02141MA1102001999999MD1310021+9999MW1001REMSYN094AAXX  23064 60515 33660 51404 10222 20128 40200 53002 82270 333 01800 20214 82840 85358 95900;MET052DAAD 230600Z 14004KT 9999 FEW040 BKN080 22/13 Q1020;EQDQ01+000000PRSWM2Q02  00002PRCP99
0162605150999992000062307004+35320+004190FM-15+0461DAAD V0200601N002112200019N0112651N1+02401+01201999999ADDGA1021+012009999GA2021+024009999GF104991999999999999999999MA1102001999999MW1001REMMET052DAAD 230700Z 06004KT 9999 FEW040 SCT080 24/12 Q1020;EQDQ01+000000PRSWM2
0162605150999992000062308004+35320+004190FM-15+0461DAAD V0200201N002112200019N0112651N1+02601+01301999999ADDGA1021+012009999GA2021+024009999GF104991999999999999999999MA1102101999999MW1001REMMET052DAAD 230800Z 02004KT 9999 SCT040 SCT080 26/13 Q1021;EQDQ01+000000PRSWM2
0235605150999992000062309004+35320+004190SY-MT+0461DAAD V0209999C000010360019N0100001N1+02751+01131102091ADDGA1021+009909999GF105991031021012501071001MA1102001999999MD1110091+9999MW1001REMSYN076AAXX  23094 60515 42660 50000 10275 20113 40209 51009 83270 333 83830 95900;MET045DAAD 230900Z 00000KT 9999 SCT033 27/11 Q1020;EQDQ01+000000PRSWM2
0139605150999992000062310004+35320+004190FM-15+0461DAAD V0200201N003112200019N0112651N1+03001+01101999999ADDGA1021+009909999GF104991999999999999999999MA1102101999999MW1001REMMET045DAAD 231000Z 02006KT 9999 SCT033 30/11 Q1021;EQDQ01+000000PRSWM2
0139605150999992000062311004+35320+004190FM-15+0461DAAD V0201001N005112200019N0112651N1+03201+01101999999ADDGA1021+009009999GF104991999999999999999999MA1102001999999MW1001REMMET045DAAD 231100Z 10010KT 9999 SCT030 32/11 Q1020;EQDQ01+000000PRSWM2
0268605150999992000062312004+35320+004190SY-MT+0461DAAD V0201001N002112200019N0100001N1+03311+01021102011ADDAA199000091GA1021+009009999GF104991031021008001071001MA1102001999999MD1810081+9999MW1001REMSYN082AAXX  23124 60515 32560 41004 10331 20102 40201 58008 83270 333 0//00 83830 95900;MET045DAAD 231200Z 10004KT 9999 SCT030 33/10 Q1020;EQDQ01+000000PRSWM2Q02  00002PRCP99
0139605150999992000062313004+35320+004190FM-15+0461DAAD V0200801N004112200019N0112651N1+03401+00901999999ADDGA1021+009009999GF104991999999999999999999MA1101901999999MW1001REMMET045DAAD 231300Z 08008KT 9999 SCT030 34/09 Q1019;EQDQ01+000000PRSWM2
0139605150999992000062314004+35320+004190FM-15+0461DAAD V0201001N002112200019N0112651N1+03401+00901999999ADDGA1021+009009999GF104991999999999999999999MA1101801999999MW1001REMMET045DAAD 231400Z 10004KT 9999 SCT030 34/09 Q1018;EQDQ01+000000PRSWM2
0235605150999992000062315004+35320+004190SY-MT+0461DAAD V0201601N002112200019N0100001N1+03471+00901101741ADDGA1021+009009999GF103991031021008001071001MA1101691999999MD1710221+9999MW1001REMSYN076AAXX  23154 60515 42560 31604 10347 20090 40174 57022 83270 333 83830 95900;MET045DAAD 231500Z 16004KT 9999 SCT030 35/09 Q1017;EQDQ01+000000PRSWM2
0139605150999992000062316004+35320+004190FM-15+0461DAAD V0200201N002112200019N0112651N1+03501+00901999999ADDGA1021+009009999GF104991999999999999999999MA1101591999999MW1001REMMET045DAAD 231600Z 02004KT 9999 SCT030 35/09 Q1016;EQDQ01+000000PRSWM2
0139605150999992000062317004+35320+004190FM-15+0461DAAD V0203201N004112200019N0112651N1+03501+00701999999ADDGA1021+009009999GF104991999999999999999999MA1101591999999MW1001REMMET045DAAD 231700Z 32008KT 9999 SCT030 35/07 Q1016;EQDQ01+000000PRSWM2
0281605150999992000062318004+35320+004190SY-MT+0461DAAD V0203001N002112200019N0100001N1+03441+01011101661ADDAA199000091GA1021+009009999GF103991021021008001071001KA1120M+03571MA1101591999999MD1610091+9999MW1001REMSYN082AAXX  23184 60515 32560 33004 10344 20101 40166 56009 82270 333 10357 82830 95900;MET045DAAD 231800Z 30004KT 9999 FEW030 34/10 Q1016;EQDQ01+000000PRSWM2Q02  00002PRCP99
0299605150999992000062406004+35320+004190SY-MT+0461DAAD V0200801N002112200019N0100001N1+02271+00761101791ADDAA199000091GA1021+009909999GF102991011021008001081001IA2240+01809KA1120N+02041MA1101691999999MD1310021+9999MW1001REMSYN088AAXX  24064 60515 33560 20804 10227 20076 40179 53002 81280 333 01800 20204 81833 95900;MET045DAAD 240600Z 08004KT 9999 FEW033 23/08 Q1017;EQDQ01+000000PRSWM2Q02  00002PRCP99
0139605150999992000062407004+35320+004190FM-15+0461DAAD V0203601N002112200019N0112651N1+02601+01001999999ADDGA1021+009909999GF102991999999999999999999MA1101801999999MW1001REMMET045DAAD 240700Z 36004KT 9999 FEW033 26/10 Q1018;EQDQ01+000000PRSWM2
0091605150999992000062408004+35320+004190FM-15+0461DAAD V0200601N00311220001CN0099001N1+02901+01001999999ADDMA1101801999999MW1001REMMET039DAAD 240800Z 06006KT CAVOK 29/10 Q1018;EQDQ01+000000PRSWM2
0213605150999992000062409004+35320+004190SY-MT+0461DAAD V0200401N003112200019N0100001N1+03001+00901101871ADDGF102991021001999999081001MA1101801999999MD1110081+9999MW1001REMSYN076AAXX  24094 60515 42960 20406 10300 20090 40187 51008 82080 333 82358 95900;MET039DAAD 240900Z 04006KT CAVOK 30/09 Q1018;EQDQ01+000000PRSWM2
0091605150999992000062410004+35320+004190FM-15+0461DAAD V0200601N00311220001CN0099001N1+03301+00701999999ADDMA1101801999999MW1001REMMET039DAAD 241000Z 06006KT CAVOK 33/07 Q1018;EQDQ01+000000PRSWM2
0139605150999992000062411004+35320+004190FM-15+0461DAAD V0200601N004112200019N0112651N1+03401+00701999999ADDGA1021+012009999GF102991999999999999999999MA1101691999999MW1001REMMET045DAAD 241100Z 06008KT 9999 FEW040 34/07 Q1017;EQDQ01+000000PRSWM2
0268605150999992000062412004+35320+004190SY-MT+0461DAAD V0201001N004112200019N0100001N1+03551+00581101661ADDAA199000091GA1021+012009999GF102991021021012501081001MA1101591999999MD1810061+9999MW1001REMSYN082AAXX  24124 60515 32660 21008 10355 20058 40166 58006 82280 333 0//00 82840 95900;MET045DAAD 241200Z 10008KT 9999 FEW040 36/06 Q1016;EQDQ01+000000PRSWM2Q02  00002PRCP99
0139605150999992000062413004+35320+004190FM-15+0461DAAD V0201401N006212200019N0112651N1+03701+00501999999ADDGA1021+009009999GF104991999999999999999999MA1101491999999MW1001REMMET045DAAD 241300Z 14012KT 9999 SCT030 37/05 Q1015;EQDQ01+000000PRSWM2
0139605150999992000062414004+35320+004190FM-15+0461DAAD V0201601N003112200019N0112651N1+99999+99999999999ADDGA1021+009009999GF104991999999999999999999MA1101491999999MW1001REMMET045DAAD 241400Z 16006KT 9999 SCT030 83/03 Q1015;EQDQ01+000000PRSWM2
0235605150999992000062415004+35320+004190SY-MT+0461DAAD V0200401N004112200019N0100001N1+03731+00391101541ADDGA1021+009009999GF104991041021008001001001MA1101491999999MD1610151+9999MW1001REMSYN076AAXX  24154 60515 42560 40408 10373 20039 40154 56015 84200 333 84830 95900;MET045DAAD 241500Z 04008KT 9999 SCT030 38/04 Q1015;EQDQ01+000000PRSWM2
0139605150999992000062416004+35320+004190FM-15+0461DAAD V0200601N005112200019N0112651N1+03801+00401999999ADDGA1021+009009999GF104991999999999999999999MA1101491999999MW1001REMMET045DAAD 241600Z 06010KT 9999 SCT030 38/04 Q1015;EQDQ01+000000PRSWM2
0139605150999992000062417004+35320+004190FM-15+0461DAAD V0200601N006212200019N0112651N1+03701+00601999999ADDGA1021+009009999GF104991999999999999999999MA1101291999999MW1001REMMET045DAAD 241700Z 06012KT 9999 SCT030 37/06 Q1013;EQDQ01+000000PRSWM2
0281605150999992000062418004+35320+004190SY-MT+0461DAAD V0200801N006212200019N0100001N1+03651+00501101351ADDAA199000091GA1021+009009999GF103991031021008001001001KA1120M+03841MA1101291999999MD1610171+9999MW1001REMSYN082AAXX  24184 60515 32560 30812 10365 20050 40135 56017 83200 333 10384 83830 95900;MET045DAAD 241800Z 08012KT 9999 SCT030 37/05 Q1013;EQDQ01+000000PRSWM2Q02  00002PRCP99
0265605150999992000062506004+35320+004190SY-MT+0461DAAD V0209999C000012200019N0100001N1+02521+00751101531ADDAA199000091GF100991001001999999001001IA2240+01809KA1120N+02241MA1101491999999MD1310131+9999MW1001REMSYN076AAXX  25064 60515 33960 00000 10252 20075 40153 53013 333 01800 20224 95900;MET039DAAD 250600Z 00000KT CAVOK 25/08 Q1015;EQDQ01+000000PRSWM2Q02  00002PRCP99
0091605150999992000062507004+35320+004190FM-15+0461DAAD V0209999C00001220001CN0099001N1+02601+00801999999ADDMA1101491999999MW1001REMMET039DAAD 250700Z 00000KT CAVOK 26/08 Q1015;EQDQ01+000000PRSWM2
0091605150999992000062508004+35320+004190FM-15+0461DAAD V0200801N00211220001CN0099001N1+03201+00801999999ADDMA1101491999999MW1001REMMET039DAAD 250800Z 08004KT CAVOK 32/08 Q1015;EQDQ01+000000PRSWM2
0132605150999992000062509004+35320+004190FM-12+0461DAAD V0201201N005112200019N0100001N1+03401+00601101531ADDGA1001+999999999GF100991001001999999001001MD1110041+9999REMSYN064AAXX  25094 60515 42960 01210 10340 20060 40153 51004 333 95900;
0091605150999992000062510004+35320+004190FM-15+0461DAAD V0202601N00621220001CN0099001N1+03601+00701999999ADDMA1101391999999MW1001REMMET039DAAD 251000Z 26012KT CAVOK 36/07 Q1014;EQDQ01+000000PRSWM2
0091605150999992000062511004+35320+004190FM-15+0461DAAD V0200401N00621220001CN0099001N1+03601+00401999999ADDMA1101391999999MW1001REMMET039DAAD 251100Z 04012KT CAVOK 36/04 Q1014;EQDQ01+000000PRSWM2
0180605150999992000062512004+35320+004190FM-12+0461DAAD V0200601N004112200019N0100001N1+03701+00761101411ADDAA199000091GA1011+009909089GF101991011021012501001001MD1810121+9999REMSYN082AAXX  25124 60515 32660 10608 10370 20076 40141 58012 81200 333 0//00 81833 95900;EQDQ01  00002PRCP99
0139605150999992000062513004+35320+004190FM-15+0461DAAD V0200201N002112200019N0112651N1+03801+00701999999ADDGA1021+009909999GF102991999999999999999999MA1101291999999MW1001REMMET045DAAD 251300Z 02004KT 9999 FEW033 38/07 Q1013;EQDQ01+000000PRSWM2
0139605150999992000062514004+35320+004190FM-15+0461DAAD V0200601N005112200019N0112651N1+03801+00801999999ADDGA1021+009909999GF102991999999999999999999MA1101291999999MW1001REMMET045DAAD 251400Z 06010KT 9999 FEW033 38/08 Q1013;EQDQ01+000000PRSWM2
0229605150999992000062515004+35320+004190SY-MT+0461DAAD V0200401N005112200019N0100001N1+03871+00571101331ADDGA1021+009909999GF102991021021012501001001MA1101291999999MD1710091+9999MW1001REMSYN070AAXX  25154 60515 42660 20410 10387 20057 40133 57009 82200 333 95900;MET045DAAD 251500Z 04010KT 9999 FEW033 39/06 Q1013;EQDQ01+000000PRSWM2
0139605150999992000062517004+35320+004190FM-15+0461DAAD V0200401N004112200019N0112651N1+03901+00401999999ADDGA1021+009909999GF102991999999999999999999MA1101191999999MW1001REMMET045DAAD 251700Z 04008KT 9999 FEW033 39/04 Q1012;EQDQ01+000000PRSWM2
0247605150999992000062518004+35320+004190SY-MT+0461DAAD V0200401N004112200019N0100001N1+03781+00541101291ADDAA199000091GF100991001001999999001001KA1120M+03921MA1101191999999MD1510041+9999MW1001REMSYN070AAXX  25184 60515 32560 00408 10378 20054 40129 55004 333 10392 95900;MET039DAAD 251800Z 04008KT CAVOK 38/05 Q1012;EQDQ01+000000PRSWM2Q02  00002PRCP99
0265605150999992000062606004+35320+004190SY-MT+0461DAAD V0202401N001012200019N0100001N1+02591+01151101661ADDAA199000091GF100991001001999999001001IA2240+02109KA1120N+02371MA1101591999999MD1310091+9999MW1001REMSYN076AAXX  26064 60515 33960 02402 10259 20115 40166 53009 333 02100 20237 95900;MET039DAAD 260600Z 04002KT CAVOK 26/12 Q1016;EQDQ01+000000PRSWM2Q02  00002PRCP99
0091605150999992000062607004+35320+004190FM-15+0461DAAD V0201801N00101220001CN0099001N1+02801+01201999999ADDMA1101591999999MW1001REMMET039DAAD 260700Z 18002KT CAVOK 28/12 Q1016;EQDQ01+000000PRSWM2
0091605150999992000062608004+35320+004190FM-15+0461DAAD V0200601N00211220001CN0099001N1+03101+01201999999ADDMA1101591999999MW1001REMMET039DAAD 260800Z 06004KT CAVOK 31/12 Q1016;EQDQ01+000000PRSWM2
0201605150999992000062609004+35320+004190SY-MT+0461DAAD V0201401N003112200019N0100001N1+03471+00691101631ADDGF100991001001999999001001MA1101591999999MD1110011+9999MW1001REMSYN064AAXX  26094 60515 42960 01406 10347 20069 40163 51001 333 95900;MET039DAAD 260900Z 14006KT CAVOK 35/07 Q1016;EQDQ01+000000PRSWM2
0091605150999992000062610004+35320+004190FM-15+0461DAAD V0200801N00311220001CN0099001N1+03601+00601999999ADDMA1101591999999MW1001REMMET039DAAD 261000Z 08006KT CAVOK 36/06 Q1016;EQDQ01+000000PRSWM2
0091605150999992000062611004+35320+004190FM-15+0461DAAD V0200501N00211220001CN0099001N1+03601+00501999999ADDMA1101591999999MW1001REMMET039DAAD 261100Z 05004KT CAVOK 36/05 Q1016;EQDQ01+000000PRSWM2
0234605150999992000062612004+35320+004190SY-MT+0461DAAD V0209999C000012200019N0100001N1+03851+00581101611ADDAA199000091GF100991001001999999001001MA1101591999999MD1610061+9999MW1001REMSYN070AAXX  26124 60515 32960 00000 10385 20058 40161 56006 333 0//00 95900;MET039DAAD 261200Z 00000KT CAVOK 39/06 Q1016;EQDQ01+000000PRSWM2Q02  00002PRCP99
0091605150999992000062614004+35320+004190FM-15+0461DAAD V0200601N00211220001CN0099001N1+04001+00301999999ADDMA1101491999999MW1001REMMET039DAAD 261400Z 06004KT CAVOK 40/03 Q1015;EQDQ01+000000PRSWM2
0201605150999992000062615004+35320+004190SY-MT+0461DAAD V0209999C000012200019N0100001N1+04071+00471101451ADDGF100991001001999999001001MA1101391999999MD1710131+9999MW1001REMSYN064AAXX  26154 60515 42960 00000 10407 20047 40145 57013 333 95900;MET039DAAD 261500Z 00000KT CAVOK 41/05 Q1014;EQDQ01+000000PRSWM2
0091605150999992000062616004+35320+004190FM-15+0461DAAD V0201401N00311220001CN0099001N1+04101+00201999999ADDMA1101391999999MW1001REMMET039DAAD 261600Z 14006KT CAVOK 41/02 Q1014;EQDQ01+000000PRSWM2
0091605150999992000062617004+35320+004190FM-15+0461DAAD V0200801N00311220001CN0099001N1+04001+00201999999ADDMA1101391999999MW1001REMMET039DAAD 261700Z 08006KT CAVOK 40/02 Q1014;EQDQ01+000000PRSWM2
0247605150999992000062618004+35320+004190SY-MT+0461DAAD V0200601N003112200019N0100001N1+03981+00271101441ADDAA199000091GF100991001001999999001001KA1120M+04111MA1101291999999MD1510011+9999MW1001REMSYN070AAXX  26184 60515 32960 00606 10398 20027 40144 55001 333 10411 95900;MET039DAAD 261800Z 06006KT CAVOK 40/03 Q1013;EQDQ01+000000PRSWM2Q02  00002PRCP99
0299605150999992000062706004+35320+004190SY-MT+0461DAAD V0203401N002112200019N0080001N1+02671+00831101751ADDAA199000091GA1021+060009999GF102991001001999999001021IA2240+02109KA1120N+02431MA1101691999999MD1310061+9999MW1001REMSYN088AAXX  27064 60515 33958 23404 10267 20083 40175 53006 80002 333 02100 20243 82070 95900;MET045DAAD 270600Z 34004KT 8000 FEW200 27/08 Q1017;EQDQ01+000000PRSWM2Q02  00002PRCP99
0139605150999992000062707004+35320+004190FM-15+0461DAAD V0200401N002112200019N0080001N1+02901+00701999999ADDGA1021+060009999GF102991999999999999999999MA1101801999999MW1001REMMET045DAAD 270700Z 04004KT 8000 FEW200 29/07 Q1018;EQDQ01+000000PRSWM2
0139605150999992000062708004+35320+004190FM-15+0461DAAD V0200401N004112200019N0080001N1+03101+00701999999ADDGA1021+060009999GF104991999999999999999999MA1101801999999MW1001REMMET045DAAD 270800Z 04008KT 8000 SCT200 31/07 Q1018;EQDQ01+000000PRSWM2
0251605150999992000062709004+35320+004190SY-MT+0461DAAD V0200601N003112200019N9999999N1+03361+00691101831ADDGA1021+060009999GF102991001001999999001021MA1101801999999MD1210101+9999MW1001REMSYN076AAXX  27094 60515 42957 20606 10336 20069 40183 52010 80002 333 82070 95900;MET045DAAD 270900Z 06006KT 7000 FEW200 34/07 Q1018;EQDQ01+070002VODIS Q02+000000PRSWM2
0136605150999992000062710004+35320+004190FM-15+0461DAAD V0201201N003112200019N9999999N1+03701+00901999999ADDGF100991999999999999999999MA1101801999999MW1001REMMET042DAAD 271000Z 12006KT 7000 SKC 37/09 Q1018;EQDQ01+070002VODIS Q02+000000PRSWM2
0136605150999992000062711004+35320+004190FM-15+0461DAAD V0200601N002112200019N9999999N1+03901+01001999999ADDGF100991999999999999999999MA1101691999999MW1001REMMET042DAAD 271100Z 06004KT 7000 SKC 39/10 Q1017;EQDQ01+070002VODIS Q02+000000PRSWM2
0253605150999992000062712004+35320+004190SY-MT+0461DAAD V0200201N004112200019N9999999N1+03981+00601101701ADDAA199000091GF100991001001999999001001MA1101691999999MD1810091+9999MW1001REMSYN070AAXX  27124 60515 32957 00208 10398 20060 40170 58009 333 0//00 95900;MET042DAAD 271200Z 02008KT 7000 SKC 40/06 Q1017;EQDQ01+070002VODIS Q02+000000PRSWM2Q03  00002PRCP99
0136605150999992000062713004+35320+004190FM-15+0461DAAD V0200401N003112200019N9999999N1+04001+00801999999ADDGF100991999999999999999999MA1101591999999MW1001REMMET042DAAD 271300Z 04006KT 7000 SKC 40/08 Q1016;EQDQ01+070002VODIS Q02+000000PRSWM2
0155605150999992000062714004+35320+004190FM-15+0461DAAD V0200201N003112200019N9999999N1+04101+00801999999ADDGA1021+009909999GF102991999999999999999999MA1101491999999MW1001REMMET045DAAD 271400Z 02006KT 7000 FEW033 41/08 Q1015;EQDQ01+070002VODIS Q02+000000PRSWM2
0166605150999992000062715004+35320+004190FM-12+0461DAAD V0200801N002110600019N0070001N1+04151+00881101621ADDGA1021+009009089GA2031+060009009GF105991021021008001001021MD1810081+9999REMSYN082AAXX  27154 60515 42557 50804 10415 20088 40162 58008 82202 333 82830 83070 95900;
0162605150999992000062716004+35320+004190FM-15+0461DAAD V0200401N005112200019N0090001N1+04101+00701999999ADDGA1021+009009999GA2021+060009999GF104991999999999999999999MA1101491999999MW1001REMMET052DAAD 271600Z 04010KT 9000 SCT030 SCT200 41/07 Q1015;EQDQ01+000000PRSWM2
0184605150999992000062717004+35320+004190FM-15+0461DAAD V0201001N003112200019N0070001N1+04001+00701999999ADDGA1021+009009999GA2021+009909099GF102991999999999999999999MA1101591999999MW1171REMMET058DAAD 271700Z 10006KT 7000 -TS SCT030 FEW033CB 40/07 Q1016;EQDQ01+000003PRSWM1Q02    003PRSWM1
0354605150999992000062718004+35320+004190SY-MT+0461DAAD V0200401N003110090019N0070001N1+03641+01141101611ADDAA199000091AY121061AY291061GA1071+009009999GA2021+009909099GF199999061091008001001031KA1120M+04151MA1101591999999MD1510061+9999MW1171REMSYN094AAXX  27184 60515 31557 60406 10364 20114 40161 55006 71729 86903 333 10415 85830 81933 95900;MET058DAAD 271800Z 04006KT 7000 -TS BKN030 FEW033CB 36/11 Q1016;EQDQ01+000062SCOTCVQ02  00002PRCP99Q03    003PRSWM1
0293605150999992000062806004+35320+004190SY-MT+0461DAAD V0209999C000012200019N0100001N1+02721+01271101801ADDAA199000091GA1041+060009009GF104991001001999999001021IA2240+02209KA1120N+02551MA1101801999999MD1310061+9999MW1001REMSYN088AAXX  28064 60515 33960 40000 10272 20127 40180 53006 80002 333 02200 20255 84070 95900;MET039DAAD 280600Z 00000KT CAVOK 27/13 Q1018;EQDQ01+000000PRSWM2Q02  00002PRCP99
0091605150999992000062807004+35320+004190FM-15+0461DAAD V0209999C00001220001CN0099001N1+03101+01301999999ADDMA1101801999999MW1001REMMET039DAAD 280700Z 00000KT CAVOK 31/13 Q1018;EQDQ01+000000PRSWM2
0091605150999992000062808004+35320+004190FM-15+0461DAAD V0200801N00211220001CN0099001N1+03201+01301999999ADDMA1101801999999MW1001REMMET039DAAD 280800Z 08004KT CAVOK 32/13 Q1018;EQDQ01+000000PRSWM2
0201605150999992000062809004+35320+004190SY-MT+0461DAAD V0201201N002112200019N0100001N1+03431+01191101751ADDGF100991001001999999001001MA1101691999999MD1010021+9999MW1001REMSYN064AAXX  28094 60515 42960 01204 10343 20119 40175 50002 333 95900;MET039DAAD 280900Z 12004KT CAVOK 34/12 Q1017;EQDQ01+000000PRSWM2
0091605150999992000062810004+35320+004190FM-15+0461DAAD V0209999C00001220001CN0099001N1+03701+01301999999ADDMA1101691999999MW1001REMMET039DAAD 281000Z 00000KT CAVOK 37/13 Q1017;EQDQ01+000000PRSWM2
0139605150999992000062811004+35320+004190FM-15+0461DAAD V0201601N003112200019N0112651N1+03901+01201999999ADDGA1021+012009999GF102991999999999999999999MA1101591999999MW1001REMMET045DAAD 281100Z 16006KT 9999 FEW040 39/12 Q1016;EQDQ01+000000PRSWM2
0180605150999992000062812004+35320+004190FM-12+0461DAAD V0200601N004112200019N0080001N1+04061+00991101561ADDAA199000091GA1031+012009089GF103991031021012501001001MD1810131+9999REMSYN082AAXX  28124 60515 32658 30608 10406 20099 40156 58013 83200 333 0//00 83840 95900;EQDQ01  00002PRCP99
0139605150999992000062814004+35320+004190FM-15+0461DAAD V0203201N011312200019N0080001N1+04301+00301999999ADDGA1021+009909999GF104991999999999999999999MA1101291999999MW1001REMMET045DAAD 281400Z 32022KT 8000 SCT033 43/03 Q1013;EQDQ01+000000PRSWM2
0282605150999992000062815004+35320+004190SY-MT+0461DAAD V0203401N005110090019N0080001N1+04231+00291101381ADDGA1071+009009999GA2021+009909099GF199999051091008001001001MA1101291999999MD1710191+9999MW1001REMSYN082AAXX  28154 60515 42558 53410 10423 20029 40138 57019 85900 333 85830 81933 95900;MET054DAAD 281500Z 34010KT 8000 BKN030 FEW033CB 42/09 Q1013;EQDQ01+000052SCOTCVQ02+000000PRSWM2
0180605150999992000062816004+35320+004190FM-15+0461DAAD V0203001N009312200019N9999999N1+04201+00201999999ADDGA1021+009009999GA2021+009909099GF102991999999999999999999MA1101291999999MW1001REMMET054DAAD 281600Z 30018KT 7000 SCT030 FEW033CB 42/02 Q1013;EQDQ01+070002VODIS Q02+000000PRSWM2
0164605150999992000062817004+35320+004190FM-15+0461DAAD V0202401N007212200019N0060001N1+04001+00201999999ADDGA1021+009909099GA2021+012009999GF104991999999999999999999MA1101291999999MW1001REMMET054DAAD 281700Z 24014KT 6000 FEW033CB SCT040 40/02 Q1013;EQDQ01+000000PRSWM2
0328605150999992000062818004+35320+004190SY-MT+0461DAAD V0203401N007210360019N9999999N1+03961+00031101461ADDAA199000091GA1021+009909099GA2021+012009999GF106991041091008001071021KA1120M+04311MA1101391999999MD1310031+9999MW1001REMSYN088AAXX  28184 60515 32556 63414 10396 20003 40146 53003 84972 333 10431 81933 83840 95900;MET054DAAD 281800Z 34014KT 6000 FEW033CB SCT040 40/00 Q1014;EQDQ01+060002VODIS Q02+000000PRSWM2Q03  00002PRCP99
0199605150999992000062906004+35320+004190FM-12+0461DAAD V0209999C000012200019N0060001N1+02681+01081101611ADDAA199000091GA1001+999999999GF100991001001999999001001IA2240+02209KA1120N+02501MD1310011+9999REMSYN076AAXX  29064 60515 33956 00000 10268 20108 40161 53001 333 02200 20250 95900;EQDQ01  00002PRCP99
0136605150999992000062907004+35320+004190FM-15+0461DAAD V0202001N002112200019N9999999N1+02901+01101999999ADDGF100991999999999999999999MA1101591999999MW1001REMMET042DAAD 290700Z 20004KT 7000 SKC 29/11 Q1016;EQDQ01+070002VODIS Q02+000000PRSWM2
0220605150999992000062909004+35320+004190SY-MT+0461DAAD V0200201N002112200019N9999999N1+03621+00841101561ADDGF100991001001999999001001MA1101491999999MD1010001+9999MW1001REMSYN064AAXX  29094 60515 42957 00204 10362 20084 40156 50000 333 95900;MET042DAAD 290900Z 02004KT 7000 SKC 36/08 Q1015;EQDQ01+070002VODIS Q02+000000PRSWM2
0136605150999992000062910004+35320+004190FM-15+0461DAAD V0202601N003112200019N9999999N1+03801+00801999999ADDGF100991999999999999999999MA1101491999999MW1001REMMET042DAAD 291000Z 26006KT 7000 SKC 38/08 Q1015;EQDQ01+070002VODIS Q02+000000PRSWM2
0136605150999992000062911004+35320+004190FM-15+0461DAAD V0202501N005112200019N9999999N1+04001+00901999999ADDGF100991999999999999999999MA1101391999999MW1001REMMET042DAAD 291100Z 25010KT 7000 SKC 40/09 Q1014;EQDQ01+070002VODIS Q02+000000PRSWM2
0268605150999992000062912004+35320+004190SY-MT+0461DAAD V0203001N006212200019N0080001N1+04051+00821101411ADDAA199000091GA1021+009909999GF102991021021012501001001MA1101391999999MD1810141+9999MW1001REMSYN082AAXX  29124 60515 32658 23012 10405 20082 40141 58014 82200 333 0//00 82833 95900;MET045DAAD 291200Z 30012KT 8000 FEW033 41/08 Q1014;EQDQ01+000000PRSWM2Q02  00002PRCP99
0139605150999992000062914004+35320+004190FM-15+0461DAAD V0203001N007212200019N0080001N1+04101+00401999999ADDGA1021+009009999GF104991999999999999999999MA1101191999999MW1001REMMET045DAAD 291400Z 30014KT 8000 SCT030 41/04 Q1012;EQDQ01+000000PRSWM2
0235605150999992000062915004+35320+004190SY-MT+0461DAAD V0202801N008212200019N0080001N1+04201+00291101191ADDGA1021+009009999GF104991041021008001001001MA1101081999999MD1710241+9999MW1001REMSYN076AAXX  29154 60515 42558 42816 10420 20029 40119 57024 84200 333 84830 95900;MET045DAAD 291500Z 28016KT 8000 SCT030 42/03 Q1011;EQDQ01+000000PRSWM2
0139605150999992000062916004+35320+004190FM-15+0461DAAD V0202801N010310090019N0080001N1+04101+00301999999ADDGA1071+009009999GF107991999999999999999999MA1101081999999MW1001REMMET045DAAD 291600Z 28020KT 8000 BKN030 41/03 Q1011;EQDQ01+000000PRSWM2
0139605150999992000062917004+35320+004190FM-15+0461DAAD V0203001N003110090019N0080001N1+04101+00301999999ADDGA1071+009009999GF107991999999999999999999MA1101191999999MW1001REMMET045DAAD 291700Z 30006KT 8000 BKN030 41/03 Q1012;EQDQ01+000000PRSWM2
0297605150999992000062918004+35320+004190SY-MT+0461DAAD V0200601N005112200019N0080001N1+03811+00741101241ADDAA199000091GA1021+009009999GF104991999021008001001001KA1120M+04221MA1101191999999MD1310031+9999MW1001REMSYN082AAXX  29184 60515 32558 40610 10381 20074 40124 53003 83200 333 10422 83830 95900;MET045DAAD 291800Z 06010KT 8000 SCT030 38/07 Q1012;EQDQ01+000032SCOTLCQ02+000000PRSWM2Q03  00002PRCP99
0211605150999992000063006004+35320+004190FM-12+0461DAAD V0201001N002112200019N0080001N1+02501+00751101501ADDAA199000091GA1031+009909089GF103991031021008001001001IA2240+01809KA1120N+02221MD1310041+9999REMSYN088AAXX  30064 60515 33558 31004 10250 20075 40150 53004 83200 333 01800 20222 83833 95900;EQDQ01  00002PRCP99
0120605150999992000063008004+35320+004190FM-15+0461DAAD V0200601N002112200019N0080001N1+03301+00401999999ADDGF100991999999999999999999MA1101491999999MW1001REMMET042DAAD 300800Z 06004KT 8000 SKC 33/04 Q1015;EQDQ01+000000PRSWM2
0251605150999992000063009004+35320+004190SY-MT+0461DAAD V0209999C000012200019N0080001N1+03521+00591101471ADDGA1021+024009999GF199999011001999999071001MA1101391999999MD1110021+9999MW1001REMSYN076AAXX  30094 60515 42958 10000 10352 20059 40147 51002 81070 333 81858 95900;MET045DAAD 300900Z 00000KT 8000 FEW080 35/06 Q1014;EQDQ01+000012SCOTCVQ02+000000PRSWM2
0139605150999992000063010004+35320+004190FM-15+0461DAAD V0209999C000012200019N0080001N1+03601+00601999999ADDGA1021+024009999GF102991999999999999999999MA1101391999999MW1001REMMET045DAAD 301000Z 00000KT 8000 FEW080 36/06 Q1014;EQDQ01+000000PRSWM2
0269605150999992000063012004+35320+004190SY-MT+0461DAAD V0203601N005112200019N0080001N1+03801-00101101671ADDAA199000091GA1021+024009999GF103991031001999999071001MA1101291999999MD1810111+9999MW1001REMSYN082AAXX  30124 60515 32958 33610 10380 21010 40167 58011 83070 333 0//00 83358 95900;MET046DAAD 301200Z 36010KT 8000 SCT080 38/M01 Q1013;EQDQ01+000000PRSWM2Q02  00002PRCP99
0140605150999992000063013004+35320+004190FM-15+0461DAAD V0202601N005112200019N0080001N1+03901-00101999999ADDGA1021+024009999GF104991999999999999999999MA1101291999999MW1001REMMET046DAAD 301300Z 26010KT 8000 SCT080 39/M01 Q1013;EQDQ01+000000PRSWM2
0140605150999992000063014004+35320+004190FM-15+0461DAAD V0203001N006212200019N0080001N1+04101+00001999999ADDGA1021+024009999GF104991999999999999999999MA1101191999999MW1001REMMET046DAAD 301400Z 30012KT 8000 SCT080 41/M00 Q1012;EQDQ01+000000PRSWM2
0235605150999992000063015004+35320+004190SY-MT+0461DAAD V0203201N006212200019N0080001N1+04061+00171101251ADDGA1021+013809999GF103991011021012501071001MA1101191999999MD1710131+9999MW1001REMSYN076AAXX  30154 60515 42658 33212 10406 20017 40125 57013 81270 333 81846 95900;MET045DAAD 301500Z 32012KT 8000 FEW046 41/02 Q1012;EQDQ01+000000PRSWM2
0139605150999992000063016004+35320+004190FM-15+0461DAAD V0203201N005112200019N0080001N1+04101+00201999999ADDGA1021+013809999GF102991999999999999999999MA1101081999999MW1001REMMET045DAAD 301600Z 32010KT 8000 FEW046 41/02 Q1011;EQDQ01+000000PRSWM2
0162605150999992000063017004+35320+004190FM-15+0461DAAD V0202201N007212200019N0080001N1+04001+00701999999ADDGA1021+012009999GA2021+024009999GF104991999999999999999999MA1101081999999MW1001REMMET052DAAD 301700Z 22014KT 8000 FEW040 SCT080 40/07 Q1011;EQDQ01+000000PRSWM2
0281605150999992000063018004+35320+004190SY-MT+0461DAAD V0201201N002112200019N0080001N1+03971+00691101121ADDAA199000091GA1021+009909999GF104991031021008001071021KA1120M+04101MA1101081999999MD1710141+9999MW1001REMSYN082AAXX  30184 60515 32558 41204 10397 20069 40112 57014 83272 333 10410 83833 95900;MET045DAAD 301800Z 12004KT 8000 SCT033 40/07 Q1011;EQDQ01+000000PRSWM2Q02  00002PRCP99
0293605150999992000070106004+35320+004190SY-MT+0461DAAD V0203401N003112200019N0100001N1+02411+00711101421ADDAA199000091GA1021+024009039GF102991021001022501081001IA2240+02009KA1120N+02341MA1101391999999MD1310131+9999MW1001REMSYN088AAXX  01064 60515 33860 23406 10241 20071 40142 53013 82080 333 02000 20234 82358 95900;MET039DAAD 010600Z 34006KT CAVOK 24/07 Q1014;EQDQ01+000000PRSWM2Q02  00002PRCP99
0091605150999992000070107004+35320+004190FM-15+0461DAAD V0203401N00311220001CN0099001N1+02701+00801999999ADDMA1101491999999MW1001REMMET039DAAD 010700Z 34006KT CAVOK 27/08 Q1015;EQDQ01+000000PRSWM2
0139605150999992000070108004+35320+004190FM-15+0461DAAD V0200201N002112200019N0080001N1+02901+00801999999ADDGA1021+024009999GF102991999999999999999999MA1101491999999MW1001REMMET045DAAD 010800Z 02004KT 8000 FEW080 29/08 Q1015;EQDQ01+000000PRSWM2
0251605150999992000070109004+35320+004190SY-MT+0461DAAD V0203601N003112200019N0080001N1+03161+01011101561ADDGA1021+024009999GF102991999001022501081001MA1101491999999MD1210141+9999MW1001REMSYN076AAXX  01094 60515 42858 23606 10316 20101 40156 52014 80080 333 82358 95900;MET045DAAD 010900Z 36006KT 8000 FEW080 32/10 Q1015;EQDQ01+000002SCOTLCQ02+000000PRSWM2
0120605150999992000070110004+35320+004190FM-15+0461DAAD V0200601N004112200019N0080001N1+03401+01001999999ADDGF100991999999999999999999MA1101491999999MW1001REMMET042DAAD 011000Z 06008KT 8000 SKC 34/10 Q1015;EQDQ01+000000PRSWM2
0120605150999992000070111004+35320+004190FM-15+0461DAAD V0203001N003112200019N0080001N1+03701+01201999999ADDGF100991999999999999999999MA1101391999999MW1001REMMET042DAAD 011100Z 30006KT 8000 SKC 37/12 Q1014;EQDQ01+000000PRSWM2
0237605150999992000070112004+35320+004190SY-MT+0461DAAD V0201401N002112200019N0080001N1+03881+00931101391ADDAA199000091GF100991001001999999001001MA1101291999999MD1810131+9999MW1001REMSYN070AAXX  01124 60515 32958 01404 10388 20093 40139 58013 333 0//00 95900;MET042DAAD 011200Z 14004KT 8000 SKC 39/09 Q1013;EQDQ01+000000PRSWM2Q02  00002PRCP99
0139605150999992000070113004+35320+004190FM-15+0461DAAD V0201001N006212200019N0080001N1+04001+00901999999ADDGA1021+009909999GF102991999999999999999999MA1101291999999MW1001REMMET045DAAD 011300Z 10012KT 8000 FEW033 40/09 Q1013;EQDQ01+000000PRSWM2
0139605150999992000070114004+35320+004190FM-15+0461DAAD V0201001N006212200019N0080001N1+04001+00701999999ADDGA1021+009909999GF102991999999999999999999MA1101191999999MW1001REMMET045DAAD 011400Z 10012KT 8000 FEW033 40/07 Q1012;EQDQ01+000000PRSWM2
0235605150999992000070115004+35320+004190SY-MT+0461DAAD V0200601N009312200019N0080001N1+04051+00831101211ADDGA1021+009909999GF103991031021012501001001MA1101191999999MD1710191+9999MW1001REMSYN076AAXX  01154 60515 42658 30618 10405 20083 40121 57019 83200 333 83833 95900;MET045DAAD 011500Z 06018KT 8000 SCT033 41/08 Q1012;EQDQ01+000000PRSWM2
0178605150999992000070117004+35320+004190FM-15+0461DAAD V0202001N009312200019N9999999N1+04101+00201999999ADDGA1021+009909999GA2021+024009999GF104991999999999999999999MA1101081999999MW1001REMMET052DAAD 011700Z 20018KT 6000 FEW033 SCT080 41/02 Q1011;EQDQ01+060002VODIS Q02+000000PRSWM2
0299605150999992000070206004+35320+004190SY-MT+0461DAAD V0201601N002112200019N0080001N1+02851+01271101691ADDAA199000091GA1021+060009999GF103991001001999999001021IA2240+02309KA1120N+02721MA1101591999999MD1310171+9999MW1001REMSYN088AAXX  02064 60515 33958 31604 10285 20127 40169 53017 80002 333 02300 20272 83200 95900;MET045DAAD 020600Z 16004KT 8000 SCT200 29/13 Q1016;EQDQ01+000000PRSWM2Q02  00002PRCP99
0139605150999992000070207004+35320+004190FM-15+0461DAAD V0200401N002112200019N0080001N1+03001+01201999999ADDGA1021+060009999GF104991999999999999999999MA1101591999999MW1001REMMET045DAAD 020700Z 04004KT 8000 SCT200 30/12 Q1016;EQDQ01+000000PRSWM2
0178605150999992000070208004+35320+004190FM-15+0461DAAD V0209999C000012200019N9999999N1+03201+01301999999ADDGA1021+024009999GA2021+060009999GF104991999999999999999999MA1101591999999MW1001REMMET052DAAD 020800Z 00000KT 6000 FEW080 SCT200 32/13 Q1016;EQDQ01+060002VODIS Q02+000000PRSWM2
0264605150999992000070209004+35320+004190SY-MT+0461DAAD V0200801N006212200019N0080001N1+03421+00951101631ADDGA1021+024009999GA2021+060009999GF104991011001999999071021MA1101591999999MD1010011+9999MW1001REMSYN082AAXX  02094 60515 42958 40812 10342 20095 40163 50001 81072 333 81358 83070 95900;MET052DAAD 020900Z 08012KT 8000 FEW080 SCT200 34/10 Q1016;EQDQ01+000000PRSWM2
0132605150999992000070210004+35320+004190FM-15+0461DAAD V0200801N006212200019N0080001N1+99999+99999999999ADDGA1021+024009999GF102991999999999999999999MW1001REMMET053DAAD 021000Z 08012KT 8000 FEW080 BKNN200 36/11 Q1016;EQDQ01+000000PRSWM2
0162605150999992000070211004+35320+004190FM-15+0461DAAD V0200601N004110600019N0080001N1+03801+00901999999ADDGA1021+024009999GA2071+060009999GF107991999999999999999999MA1101491999999MW1001REMMET052DAAD 021100Z 06008KT 8000 FEW080 BKN200 38/09 Q1015;EQDQ01+000000PRSWM2
0297605150999992000070212004+35320+004190SY-MT+0461DAAD V0200801N004110600019N0080001N1+03961+00941101491ADDAA199000091GA1021+012009999GA2071+060009999GF107991021021012501001021MA1101391999999MD1810101+9999MW1001REMSYN088AAXX  02124 60515 32658 70808 10396 20094 40149 58010 82202 333 0//00 81840 85070 95900;MET052DAAD 021200Z 08008KT 8000 FEW040 BKN200 40/09 Q1014;EQDQ01+000000PRSWM2Q02  00002PRCP99
0162605150999992000070213004+35320+004190FM-15+0461DAAD V0201201N004110600019N0080001N1+04101+00901999999ADDGA1021+012009999GA2071+060009999GF107991999999999999999999MA1101291999999MW1001REMMET052DAAD 021300Z 12008KT 8000 FEW040 BKN200 41/09 Q1013;EQDQ01+000000PRSWM2
0162605150999992000070214004+35320+004190FM-15+0461DAAD V0202001N012310600019N0080001N1+04301+00401999999ADDGA1021+009909999GA2071+060009999GF107991999999999999999999MA1101291999999MW1001REMMET052DAAD 021400Z 20024KT 8000 FEW033 BKN200 43/04 Q1013;EQDQ01+000000PRSWM2
0180605150999992000070215004+35320+004190FM-15+0461DAAD V0202001N010312200019N9999999N1+04201+00401999999ADDGA1021+009909099GA2021+012009999GF104991999999999999999999MA1101191999999MW1001REMMET054DAAD 021500Z 20020KT 7000 FEW033CB SCT040 42/04 Q1012;EQDQ01+070002VODIS Q02+000000PRSWM2
0164605150999992000070216004+35320+004190FM-15+0461DAAD V0202001N007212200019N0080001N1+04101+00401999999ADDGA1021+009909099GA2021+024009999GF104991999999999999999999MA1101081999999MW1001REMMET054DAAD 021600Z 20014KT 8000 FEW033CB SCT080 41/04 Q1011;EQDQ01+000000PRSWM2
0164605150999992000070217004+35320+004190FM-15+0461DAAD V0203001N010312200019N0070001N1+04001+00101999999ADDGA1021+009909099GA2021+012009999GF104991999999999999999999MA1101191999999MW1001REMMET054DAAD 021700Z 30020KT 7000 FEW033CB SCT040 40/01 Q1012;EQDQ01+000000PRSWM2
0326605150999992000070218004+35320+004190SY-MT+0461DAAD V0203001N00311090001CN9999999N1+03851+00761101321ADDAA199000091GA1021+009909999GA2021+060009999GF106991041081008001001021KA1120M+04351MA1101291999999MD1310051+9999MW1001REMSYN088AAXX  02184 60515 32556 63006 10385 20076 40132 53005 84802 333 10435 84833 83070 95900;MET052DAAD 021800Z 30006KT 6000 SCT033 SCT200 39/08 Q1013;EQDQ01+060002VODIS Q02+000000PRSWM2Q03  00002PRCP99
0299605150999992000070306004+35320+004190SY-MT+0461DAAD V0203401N002110360019N0080001N1+02771+00881101551ADDAA199000091GA1021+009909999GF105991031021008001071021IA2240+02309KA1120N+02681MA1101491999999MD1310051+9999MW1001REMSYN088AAXX  03064 60515 33558 53404 10277 20088 40155 53005 83272 333 02300 20268 83833 95900;MET045DAAD 030600Z 34004KT 8000 SCT033 28/09 Q1015;EQDQ01+000000PRSWM2Q02  00002PRCP99
0139605150999992000070307004+35320+004190FM-15+0461DAAD V0203601N003112200019N0080001N1+03101+01001999999ADDGA1021+009909999GF104991999999999999999999MA1101491999999MW1001REMMET045DAAD 030700Z 36006KT 8000 SCT033 31/10 Q1015;EQDQ01+000000PRSWM2
0139605150999992000070308004+35320+004190FM-15+0461DAAD V0202801N002112200019N0080001N1+03301+01001999999ADDGA1021+009909999GF102991999999999999999999MA1101491999999MW1001REMMET045DAAD 030800Z 28004KT 8000 FEW033 33/10 Q1015;EQDQ01+000000PRSWM2
0139605150999992000070309004+35320+004190FM-15+0461DAAD V0200801N005112200019N0080001N1+03601+00801999999ADDGA1021+024009999GF104991999999999999999999MA1101391999999MW1001REMMET045DAAD 030900Z 08010KT 8000 SCT080 36/08 Q1014;EQDQ01+000000PRSWM2
0139605150999992000070310004+35320+004190FM-15+0461DAAD V0200801N002112200019N0080001N1+03801+00801999999ADDGA1021+024009999GF104991999999999999999999MA1101391999999MW1001REMMET045DAAD 031000Z 08004KT 8000 SCT080 38/08 Q1014;EQDQ01+000000PRSWM2
0139605150999992000070311004+35320+004190FM-15+0461DAAD V0201501N005112200019N0080001N1+03901+00801999999ADDGA1021+024009999GF104991999999999999999999MA1101391999999MW1001REMMET045DAAD 031100Z 15010KT 8000 SCT080 39/08 Q1014;EQDQ01+000000PRSWM2
0268605150999992000070312004+35320+004190SY-MT+0461DAAD V0201001N005112200019N0080001N1+04101+00641101261ADDAA199000091GA1021+024009999GF103991031001999999071001MA1101191999999MD1810161+9999MW1001REMSYN082AAXX  03124 60515 32958 31010 10410 20064 40126 58016 83070 333 0//00 83358 95900;MET045DAAD 031200Z 10010KT 8000 SCT080 41/06 Q1012;EQDQ01+000000PRSWM2Q02  00002PRCP99
0139605150999992000070313004+35320+004190FM-15+0461DAAD V0201801N007212200019N0080001N1+04201+00601999999ADDGA1021+024009999GF104991999999999999999999MA1101191999999MW1001REMMET045DAAD 031300Z 18014KT 8000 SCT080 42/06 Q1012;EQDQ01+000000PRSWM2
0139605150999992000070314004+35320+004190FM-15+0461DAAD V0202101N004112200019N0080001N1+04201+00601999999ADDGA1021+024009999GF104991999999999999999999MA1101081999999MW1001REMMET045DAAD 031400Z 21008KT 8000 SCT080 42/06 Q1011;EQDQ01+000000PRSWM2
0204605150999992000070315004+35320+004190SY-MT+0461DAAD V0201601N009312200019N0080001N1+04251+00261101091ADDGF100991001001999999001001MA1101021999999MD1710181+9999MW1001REMSYN064AAXX  03154 60515 42958 01618 10425 20026 40109 57018 333 95900;MET042DAAD 031500Z 16018KT 8000 SKC 43/03 Q1010;EQDQ01+000000PRSWM2
0091605150999992000070316004+35320+004190FM-15+0461DAAD V0202001N01031220001CN0099001N1+04201+00301999999ADDMA1101021999999MW1001REMMET039DAAD 031600Z 20020KT CAVOK 42/03 Q1010;EQDQ01+000000PRSWM2
0091605150999992000070317004+35320+004190FM-15+0461DAAD V0202001N00821220001CN0099001N1+04101+00401999999ADDMA1101021999999MW1001REMMET039DAAD 031700Z 20016KT CAVOK 41/04 Q1010;EQDQ01+000000PRSWM2
0247605150999992000070318004+35320+004190SY-MT+0461DAAD V0201601N009312200019N0100001N1+03991+00311101021ADDAA199000091GF100991001001999999001001KA1120M+04291MA1101021999999MD1710111+9999MW1001REMSYN070AAXX  03184 60515 32960 01618 10399 20031 40102 57011 333 10429 95900;MET039DAAD 031800Z 16018KT CAVOK 40/03 Q1010;EQDQ01+000000PRSWM2Q02  00002PRCP99
0315605150999992000070406004+35320+004190SY-MT+0461DAAD V0203401N005112200019N0100001N1+02771+00391101391ADDAA199000091GA1021+012009999GF199999011021012501001001IA2240+02309KA1120N+02641MA1101291999999MD1310101+9999MW1001REMSYN088AAXX  04064 60515 33660 13410 10277 20039 40139 53010 81200 333 02300 20264 81840 95900;MET045DAAD 040600Z 34010KT 9999 FEW040 28/04 Q1013;EQDQ01+000012SCOTCVQ02+000000PRSWM2Q03  00002PRCP99
0139605150999992000070407004+35320+004190FM-15+0461DAAD V0203401N005112200019N0112651N1+02901+00501999999ADDGA1021+012009999GF102991999999999999999999MA1101391999999MW1001REMMET045DAAD 040700Z 34010KT 9999 FEW040 29/05 Q1014;EQDQ01+000000PRSWM2
0091605150999992000070408004+35320+004190FM-15+0461DAAD V0203601N00211220001CN0099001N1+03101+00501999999ADDMA1101391999999MW1001REMMET039DAAD 040800Z 36004KT CAVOK 31/05 Q1014;EQDQ01+000000PRSWM2
0201605150999992000070409004+35320+004190SY-MT+0461DAAD V0209999C00001220001CN0100001N1+03411+00761101421ADDGF100991001001999999001001MA1101391999999MD1010041+9999MW1001REMSYN064AAXX  04094 60515 42960 00000 10341 20076 40142 50004 333 95900;MET039DAAD 040900Z 00000KT CAVOK 35/08 Q1014;EQDQ01+000000PRSWM2
0091605150999992000070410004+35320+004190FM-15+0461DAAD V0200601N00311220001CN0099001N1+03601+00701999999ADDMA1101391999999MW1001REMMET039DAAD 041000Z 06006KT CAVOK 36/07 Q1014;EQDQ01+000000PRSWM2
0091605150999992000070411004+35320+004190FM-15+0461DAAD V0201601N00211220001CN0099001N1+03801+00401999999ADDMA1101291999999MW1001REMMET039DAAD 041100Z 16004KT CAVOK 38/04 Q1013;EQDQ01+000000PRSWM2
0228605150999992000070412004+35320+004190SY-MT+0461DAAD V0200601N003112200019N0100001N1+03831+00621101311ADDAA199000091GF100991001001999999001001MA1101291999999MD1810101+9999MW1001REMSYN064AAXX  04124 60515 32960 00606 10383 20062 40131 58010 333 95900;MET039DAAD 041200Z 06006KT CAVOK 38/06 Q1013;EQDQ01+000000PRSWM2Q02  00002PRCP99
0091605150999992000070413004+35320+004190FM-15+0461DAAD V0201001N00311220001CN0099001N1+04001+00601999999ADDMA1101191999999MW1001REMMET039DAAD 041300Z 10006KT CAVOK 40/06 Q1012;EQDQ01+000000PRSWM2
0091605150999992000070414004+35320+004190FM-15+0461DAAD V0201201N00311220001CN0099001N1+04001+00701999999ADDMA1101081999999MW1001REMMET039DAAD 041400Z 12006KT CAVOK 40/07 Q1011;EQDQ01+000000PRSWM2
0201605150999992000070415004+35320+004190SY-MT+0461DAAD V0201201N003112200019N0100001N1+04081+00681101141ADDGF100991001001999999001001MA1101081999999MD1710171+9999MW1001REMSYN064AAXX  04154 60515 42960 01206 10408 20068 40114 57017 333 95900;MET039DAAD 041500Z 12006KT CAVOK 41/07 Q1011;EQDQ01+000000PRSWM2
0139605150999992000070417004+35320+004190FM-15+0461DAAD V0201201N007212200019N0112651N1+04101+00401999999ADDGA1021+009909999GF102991999999999999999999MA1101021999999MW1001REMMET045DAAD 041700Z 12014KT 9999 FEW033 41/04 Q1010;EQDQ01+000000PRSWM2
0281605150999992000070418004+35320+004190SY-MT+0461DAAD V0201001N007212200019N0100001N1+03951+00791101071ADDAA199000091GA1021+012009999GF102991011021008001071001KA1120M+04131MA1101021999999MD1010081+9999MW1001REMSYN082AAXX  04184 60515 32560 21014 10395 20079 40107 50008 81270 333 10413 83830 95900;MET045DAAD 041800Z 15004KT 9999 FEW040 39/06 Q1010;EQDQ01+000000PRSWM2Q02  00002PRCP99
0265605150999992000070506004+35320+004190SY-MT+0461DAAD V0201001N002112200019N0100001N1+02471+00701101511ADDAA199000091GF100991001001999999001001IA2240+02009KA1120N+02241MA1101491999999MD1310091+9999MW1001REMSYN076AAXX  05064 60515 33960 01004 10247 20070 40151 53009 333 02000 20224 95900;MET039DAAD 050600Z 10004KT CAVOK 25/07 Q1015;EQDQ01+000000PRSWM2Q02  00002PRCP99
0091605150999992000070507004+35320+004190FM-15+0461DAAD V0200301N00211220001CN0099001N1+02801+00401999999ADDMA1101591999999MW1001REMMET039DAAD 050700Z 03004KT CAVOK 28/04 Q1016;EQDQ01+000000PRSWM2
0091605150999992000070508004+35320+004190FM-15+0461DAAD V0200201N00211220001CN0099001N1+03001+00601999999ADDMA1101591999999MW1001REMMET039DAAD 050800Z 02004KT CAVOK 30/06 Q1016;EQDQ01+000000PRSWM2
0201605150999992000070509004+35320+004190SY-MT+0461DAAD V0200201N002112200019N0100001N1+03281+00601101631ADDGF100991001001999999001001MA1101591999999MD1310131+9999MW1001REMSYN064AAXX  05094 60515 42960 00204 10328 20060 40163 53013 333 95900;MET039DAAD 050900Z 02004KT CAVOK 33/06 Q1016;EQDQ01+000000PRSWM2
0091605150999992000070510004+35320+004190FM-15+0461DAAD V0200401N00211220001CN0099001N1+03501+00401999999ADDMA1101591999999MW1001REMMET039DAAD 051000Z 04004KT CAVOK 35/04 Q1016;EQDQ01+000000PRSWM2
0091605150999992000070511004+35320+004190FM-15+0461DAAD V0201101N00311220001CN0099001N1+03701+00401999999ADDMA1101591999999MW1001REMMET039DAAD 051100Z 11006KT CAVOK 37/04 Q1016;EQDQ01+000000PRSWM2
0234605150999992000070512004+35320+004190SY-MT+0461DAAD V0201001N003112200019N0100001N1+03821+00341101561ADDAA199000091GF100991001001999999001001MA1101491999999MD1810061+9999MW1001REMSYN070AAXX  05124 60515 32960 01006 10382 20034 40156 58006 333 0//00 95900;MET039DAAD 051200Z 10006KT CAVOK 38/03 Q1015;EQDQ01+000000PRSWM2Q02  00002PRCP99
0091605150999992000070514004+35320+004190FM-15+0461DAAD V0200601N00211220001CN0099001N1+04101+00301999999ADDMA1101391999999MW1001REMMET039DAAD 051400Z 06004KT CAVOK 41/03 Q1014;EQDQ01+000000PRSWM2
0191605150999992000070515004+35320+004190SY-MT+0461DAAD V0200401N003112200019N0100001N1+04181+00321101381ADDGF100991001001999999001001MA1101291999999MD1710161+9999MW1001REMSYN054AAXX  05154 60515 42960 00406 10418 20032 40138 57016;MET039DAAD 051500Z 04006KT CAVOK 42/03 Q1013;EQDQ01+000000PRSWM2
0091605150999992000070516004+35320+004190FM-15+0461DAAD V0200601N00211220001CN0099001N1+04201+00301999999ADDMA1101291999999MW1001REMMET039DAAD 051600Z 06004KT CAVOK 42/03 Q1013;EQDQ01+000000PRSWM2
0091605150999992000070517004+35320+004190FM-15+0461DAAD V0201001N00621220001CN0099001N1+04101+00201999999ADDMA1101291999999MW1001REMMET039DAAD 051700Z 10012KT CAVOK 41/02 Q1013;EQDQ01+000000PRSWM2
0247605150999992000070518004+35320+004190SY-MT+0461DAAD V0201001N008212200019N0100001N1+04051+00171101361ADDAA199000091GF100991001001999999001001KA1120M+04151MA1101291999999MD1510031+9999MW1001REMSYN070AAXX  05184 60515 32960 01016 10405 20017 40136 55003 333 10415 95900;MET039DAAD 051800Z 10016KT CAVOK 41/02 Q1013;EQDQ01+000000PRSWM2Q02  00002PRCP99
0265605150999992000070606004+35320+004190SY-MT+0461DAAD V0203001N002112200019N0100001N1+02401+00431101531ADDAA199000091GF100991001001999999001001IA2240+01809KA1120N+02231MA1101491999999MD1310091+9999MW1001REMSYN076AAXX  06064 60515 33960 03004 10240 20043 40153 53009 333 01800 20223 95900;MET039DAAD 060600Z 30004KT CAVOK 24/04 Q1015;EQDQ01+000000PRSWM2Q02  00002PRCP99
0091605150999992000070607004+35320+004190FM-15+0461DAAD V0203501N00211220001CN0099001N1+02801+00201999999ADDMA1101902999999MW1001REMMET039DAAD 060700Z 35004KT CAVOK 28/02 Q1019;EQDQ01+000000PRSWM2
0091605150999992000070608004+35320+004190FM-15+0461DAAD V0203601N00311220001CN0099001N1+03001+00201999999ADDMA1101901999999MW1001REMMET039DAAD 060800Z 36006KT CAVOK 30/02 Q1019;EQDQ01+000000PRSWM2
0201605150999992000070609004+35320+004190SY-MT+0461DAAD V0203401N002112200019N0100001N1+03171+00221101911ADDGF100991001001999999001001MA1101901999999MD1010091+9999MW1001REMSYN064AAXX  06094 60515 42960 03404 10317 20022 40191 50009 333 95900;MET039DAAD 060900Z 34004KT CAVOK 32/02 Q1019;EQDQ01+000000PRSWM2
0091605150999992000070610004+35320+004190FM-15+0461DAAD V0200401N00211220001CN0099001N1+03501+00601999999ADDMA1101801999999MW1001REMMET039DAAD 061000Z 04004KT CAVOK 35/06 Q1018;EQDQ01+000000PRSWM2
0091605150999992000070611004+35320+004190FM-15+0461DAAD V0201801N00311220001CN0099001N1+03701+00501999999ADDMA1101801999999MW1001REMMET039DAAD 061100Z 18006KT CAVOK 37/05 Q1018;EQDQ01+000000PRSWM2
0234605150999992000070612004+35320+004190SY-MT+0461DAAD V0203601N004112200019N0100001N1+03771+00321101771ADDAA199000091GF100991001001999999001001MA1101691999999MD1810101+9999MW1001REMSYN070AAXX  06124 60515 32960 03608 10377 20032 40177 58010 333 0//00 95900;MET039DAAD 061200Z 36008KT CAVOK 38/03 Q1017;EQDQ01+000000PRSWM2Q02  00002PRCP99
0091605150999992000070614004+35320+004190FM-15+0461DAAD V0201401N00721220001CN0099001N1+04001+00201999999ADDMA1101591999999MW1001REMMET039DAAD 061400Z 14014KT CAVOK 40/02 Q1016;EQDQ01+000000PRSWM2
0201605150999992000070615004+35320+004190SY-MT+0461DAAD V0201001N007212200019N0100001N1+04011+00131101631ADDGF100991001001999999001001MA1101591999999MD1710191+9999MW1001REMSYN064AAXX  06154 60515 42960 01014 10401 20013 40163 57019 333 95900;MET039DAAD 061500Z 10014KT CAVOK 40/01 Q1016;EQDQ01+000000PRSWM2
0091605150999992000070616004+35320+004190FM-15+0461DAAD V0201001N00721220001CN0099001N1+04001+00101999999ADDMA1101591999999MW1001REMMET039DAAD 061600Z 10014KT CAVOK 40/01 Q1016;EQDQ01+000000PRSWM2
0091605150999992000070617004+35320+004190FM-15+0461DAAD V0201001N00721220001CN0099001N1+03901+00001999999ADDMA1101591999999MW1001REMMET039DAAD 061700Z 10014KT CAVOK 39/00 Q1016;EQDQ01+000000PRSWM2
0247605150999992000070618004+35320+004190SY-MT+0461DAAD V0201001N006212200019N0100001N1+03831+00001101591ADDAA199000091GF100991001001999999001001KA1120M+04031MA1101491999999MD1510051+9999MW1001REMSYN070AAXX  06184 60515 32960 01012 10383 20000 40159 55005 333 10403 95900;MET039DAAD 061800Z 10012KT CAVOK 38/00 Q1015;EQDQ01+000000PRSWM2Q02  00002PRCP99
0092605150999992000070707004+35320+004190FM-15+0461DAAD V0203601N00211220001CN0099001N1+02701-00101999999ADDMA1101691999999MW1001REMMET040DAAD 070700Z 36004KT CAVOK 27/M01 Q1017;EQDQ01+000000PRSWM2
0091605150999992000070708004+35320+004190FM-15+0461DAAD V0200201N00211220001CN0099001N1+02901+00001999999ADDMA1101801999999MW1001REMMET039DAAD 070800Z 02004KT CAVOK 29/00 Q1018;EQDQ01+000000PRSWM2
0201605150999992000070709004+35320+004190SY-MT+0461DAAD V0200201N002112200019N0100001N1+03201+00361101711ADDGF100991001001999999001001MA1101691999999MD1010051+9999MW1001REMSYN064AAXX  07094 60515 42960 00204 10320 20036 40171 50005 333 95900;MET039DAAD 070900Z 02004KT CAVOK 32/04 Q1017;EQDQ01+000000PRSWM2
0091605150999992000070710004+35320+004190FM-15+0461DAAD V0200601N00211220001CN0099001N1+03501+00301999999ADDMA1101691999999MW1001REMMET039DAAD 071000Z 06004KT CAVOK 35/03 Q1017;EQDQ01+000000PRSWM2
0091605150999992000070711004+35320+004190FM-15+0461DAAD V0201101N00311220001CN0099001N1+03701+00101999999ADDMA1101691999999MW1001REMMET039DAAD 071100Z 11006KT CAVOK 37/01 Q1017;EQDQ01+000000PRSWM2
0234605150999992000070712004+35320+004190SY-MT+0461DAAD V0200301N001012200019N0100001N1+03841+00231101621ADDAA199000091GF100991001001999999001001MA1101591999999MD1810131+9999MW1001REMSYN070AAXX  07124 60515 32960 00302 10384 20023 40162 58013 333 0//00 95900;MET039DAAD 071200Z 03002KT CAVOK 38/02 Q1016;EQDQ01+000000PRSWM2Q02  00002PRCP99
0091605150999992000070713004+35320+004190FM-15+0461DAAD V0203601N00211220001CN0099001N1+04001+00401999999ADDMA1101491999999MW1001REMMET039DAAD 071300Z 36004KT CAVOK 40/04 Q1015;EQDQ01+000000PRSWM2
0091605150999992000070714004+35320+004190FM-15+0461DAAD V0200601N00211220001CN0099001N1+04101+00201999999ADDMA1101391999999MW1001REMMET039DAAD 071400Z 06004KT CAVOK 41/02 Q1014;EQDQ01+000000PRSWM2
0201605150999992000070715004+35320+004190SY-MT+0461DAAD V0201101N004112200019N0100001N1+04151+00221101411ADDGF100991001001999999001001MA1101391999999MD1710191+9999MW1001REMSYN064AAXX  07154 60515 42960 01108 10415 20022 40141 57019 333 95900;MET039DAAD 071500Z 11008KT CAVOK 42/02 Q1014;EQDQ01+000000PRSWM2
0091605150999992000070716004+35320+004190FM-15+0461DAAD V0200801N00311220001CN0099001N1+04101+00201999999ADDMA1101291999999MW1001REMMET039DAAD 071600Z 08006KT CAVOK 41/02 Q1013;EQDQ01+000000PRSWM2
0247605150999992000070718004+35320+004190SY-MT+0461DAAD V0201001N005112200019N0100001N1+04071+00171101251ADDAA199000091GF100991001001999999001001KA1120M+04171MA1101191999999MD1710151+9999MW1001REMSYN070AAXX  07184 60515 32960 01010 10407 20017 40125 57015 333 10417 95900;MET039DAAD 071800Z 10010KT CAVOK 41/02 Q1012;EQDQ01+000000PRSWM2Q02  00002PRCP99
0265605150999992000070806004+35320+004190SY-MT+0461DAAD V0209999C000012200019N0100001N1+02371+00261101271ADDAA199000091GF100991001001999999001001IA2240+01709KA1120N+02191MA1101191999999MD1610061+9999MW1001REMSYN076AAXX  08064 60515 33960 00000 10237 20026 40127 56006 333 01700 20219 95900;MET039DAAD 080600Z 00000KT CAVOK 24/03 Q1012;EQDQ01+000000PRSWM2Q02  00002PRCP99
0091605150999992000070808004+35320+004190FM-15+0461DAAD V0200401N00311220001CN0099001N1+03101+00301999999ADDMA1101291999999MW1001REMMET039DAAD 080800Z 04006KT CAVOK 31/03 Q1013;EQDQ01+000000PRSWM2
0132605150999992000070809004+35320+004190FM-12+0461DAAD V0200401N003112200019N0100001N1+03431+00011101331ADDGA1001+999999999GF100991001001999999001001MD1010091+9999REMSYN064AAXX  08094 60515 42960 00406 10343 20001 40133 50009 333 95900;
0091605150999992000070810004+35320+004190FM-15+0461DAAD V0200601N00211220001CN0099001N1+03701+00201999999ADDMA1101291999999MW1001REMMET039DAAD 081000Z 06004KT CAVOK 37/02 Q1013;EQDQ01+000000PRSWM2
0139605150999992000070814004+35320+004190FM-15+0461DAAD V0202601N007212200019N0112651N1+04201+00301999999ADDGA1021+013809999GF102991999999999999999999MA1101081999999MW1001REMMET045DAAD 081400Z 26014KT 9999 FEW046 42/03 Q1011;EQDQ01+000000PRSWM2
0251605150999992000070815004+35320+004190SY-MT+0461DAAD V0202601N007212200019N0100001N1+04231+00281101171ADDGA1021+013809999GF199999011021012501071001MA1101081999999MD1710121+9999MW1001REMSYN076AAXX  08154 60515 42660 12614 10423 20028 40117 57012 81270 333 81846 95900;MET045DAAD 081500Z 26014KT 9999 FEW046 42/03 Q1011;EQDQ01+000012SCOTCVQ02+000000PRSWM2
0139605150999992000070816004+35320+004190FM-15+0461DAAD V0203001N006212200019N0112651N1+04201+00201999999ADDGA1021+013809999GF102991999999999999999999MA1101081999999MW1001REMMET045DAAD 081600Z 30012KT 9999 FEW046 42/02 Q1011;EQDQ01+000000PRSWM2
0139605150999992000070817004+35320+004190FM-15+0461DAAD V0203201N006212200019N0080001N1+04101+00201999999ADDGA1021+024009999GF104991999999999999999999MA1101021999999MW1001REMMET045DAAD 081700Z 32012KT 8000 SCT080 41/02 Q1010;EQDQ01+000000PRSWM2
0297605150999992000070818004+35320+004190SY-MT+0461DAAD V0203601N010312200019N9999999N1+04001+00411101071ADDAA199000091GA1021+024009999GF104991041001999999071001KA1120M+04251MA1101021999999MD1710111+9999MW1001REMSYN082AAXX  08184 60515 32957 43620 10400 20041 40107 57011 84070 333 10425 84358 95900;MET045DAAD 081800Z 36020KT 7000 SCT080 40/04 Q1010;EQDQ01+070002VODIS Q02+000000PRSWM2Q03  00002PRCP99
0299605150999992000070906004+35320+004190SY-MT+0461DAAD V0203401N005110900019N0080001N1+02871+01151101341ADDAA199000091GA1021+012009999GF106991041021012501001021IA2240+02509KA1120N+02701MA1101291999999MD1310011+9999MW1001REMSYN088AAXX  09064 60515 33658 63410 10287 20115 40134 53001 84202 333 02500 20270 84840 95900;MET045DAAD 090600Z 34010KT 8000 SCT040 29/12 Q1013;EQDQ01+000000PRSWM2Q02  00002PRCP99
0139605150999992000070907004+35320+004190FM-15+0461DAAD V0201401N002112200019N0080001N1+03001+01001999999ADDGA1021+024009999GF104991999999999999999999MA1101291999999MW1001REMMET045DAAD 090700Z 14004KT 8000 SCT080 30/10 Q1013;EQDQ01+000000PRSWM2
0139605150999992000070908004+35320+004190FM-15+0461DAAD V0203601N005112200019N0080001N1+03101+01201999999ADDGA1021+024009999GF104991999999999999999999MA1101391999999MW1001REMMET045DAAD 090800Z 36010KT 8000 SCT080 31/12 Q1014;EQDQ01+000000PRSWM2
0235605150999992000070909004+35320+004190SY-MT+0461DAAD V0200101N006212200019N0080001N1+03151+01261101531ADDGA1021+024009999GF103991031001999999071001MA1101491999999MD1210141+9999MW1001REMSYN076AAXX  09094 60515 42958 30112 10315 20126 40153 52014 83070 333 83358 95900;MET045DAAD 090900Z 01012KT 8000 SCT080 32/13 Q1015;EQDQ01+000000PRSWM2
0162605150999992000070910004+35320+004190FM-15+0461DAAD V0200401N005112200019N0080001N1+03301+01201999999ADDGA1021+009909999GA2021+024009999GF104991999999999999999999MA1101391999999MW1001REMMET052DAAD 091000Z 04010KT 8000 FEW033 SCT080 33/12 Q1014;EQDQ01+000000PRSWM2
0162605150999992000070911004+35320+004190FM-15+0461DAAD V0203601N004112200019N0080001N1+03401+01101999999ADDGA1021+009909999GA2021+024009999GF104991999999999999999999MA1101391999999MW1001REMMET052DAAD 091100Z 36008KT 8000 FEW033 SCT080 34/11 Q1014;EQDQ01+000000PRSWM2
0313605150999992000070912004+35320+004190SY-MT+0461DAAD V0203401N006212200019N9999999N1+03581+01001101371ADDAA199000091GA1021+009909999GA2021+024009999GF104991011021012501071001MA1101291999999MD1810111+9999MW1001REMSYN088AAXX  09124 60515 32657 43412 10358 20100 40137 58011 81270 333 0//00 81833 83358 95900;MET052DAAD 091200Z 34012KT 7000 FEW033 SCT080 36/10 Q1013;EQDQ01+070002VODIS Q02+000000PRSWM2Q03  00002PRCP99
0194605150999992000070915004+35320+004190SY-MT+0461DAAD V0200201N003112200019N0080001N1+04021+00711101081ADDGF100991001001999999001001MA1101021999999MD1710261+9999MW1001REMSYN054AAXX  09154 60515 42958 00206 10402 20071 40108 57026;MET042DAAD 091500Z 02006KT 8000 SKC 40/07 Q1010;EQDQ01+000000PRSWM2
0120605150999992000070916004+35320+004190FM-15+0461DAAD V0200201N005112200019N0080001N1+04001+00301999999ADDGF100991999999999999999999MA1101021999999MW1001REMMET042DAAD 091600Z 02010KT 8000 SKC 40/03 Q1010;EQDQ01+000000PRSWM2
0120605150999992000070917004+35320+004190FM-15+0461DAAD V0200601N002112200019N0080001N1+03901+00701999999ADDGF100991999999999999999999MA1101021999999MW1001REMMET042DAAD 091700Z 06004KT 8000 SKC 39/07 Q1010;EQDQ01+000000PRSWM2
0250605150999992000070918004+35320+004190SY-MT+0461DAAD V0200601N003112200019N0080001N1+03851+00761101001ADDAA199000091GF100991001001999999001001KA1120M+04031MA1101021999999MD1710091+9999MW1001REMSYN070AAXX  09184 60515 32958 00606 10385 20076 40100 57009 333 10403 95900;MET042DAAD 091800Z 06006KT 8000 SKC 39/08 Q1010;EQDQ01+000000PRSWM2Q02  00002PRCP99
0326605150999992000071006004+35320+004190SY-MT+0461DAAD V0203001N005110120019N0035001N1+02641+01311100891ADDAA199000091GA1071+012009999GF199999061021012501001001IA2240+02309KA1120N+02601MA1100811999999MD1310011+9999MW1071REMSYN094AAXX  10064 60515 31635 63010 10264 20131 40089 53001 707// 86200 333 02300 20260 86840 95900;MET050DAAD 100600Z 30010KT 3500 BLSA BKN040 26/13 Q1008;EQDQ01+000062SCOTCVQ02  00002PRCP99Q03    003PRSWM1
0160605150999992000071007004+35320+004190FM-15+0461DAAD V0203001N002110120019N0035001N1+02801+01301999999ADDGA1071+012009999GF107991999999999999999999MA1100911999999MW1071REMMET050DAAD 100700Z 30004KT 3500 BLSA BKN040 28/13 Q1009;EQDQ01+000003PRSWM1Q02    003PRSWM1
0183605150999992000071008004+35320+004190FM-15+0461DAAD V0201201N006210240019N0035001N1+02901+01301999999ADDGA1021+012009999GA2071+024009999GF107991999999999999999999MA1100911999999MW1071REMMET057DAAD 100800Z 12012KT 3500 BLSA FEW040 BKN080 29/13 Q1009;EQDQ01+000003PRSWM1Q02    003PRSWM1
0307605150999992000071009004+35320+004190SY-MT+0461DAAD V0201201N006210240019N0035001N1+03051+01281100921ADDAY101031AY221031GA1021+012009999GA2071+024009999GF199999021021012501071001MA1100911999999MD1010011+9999MW1071REMSYN088AAXX  10094 60515 41635 61212 10305 20128 40092 50001 70702 82270 333 82840 85358 95900;MET057DAAD 100900Z 12012KT 3500 BLSA FEW040 BKN080 31/13 Q1009;EQDQ01+000062SCOTCVQ02    003PRSWM1
0160605150999992000071011004+35320+004190FM-15+0461DAAD V0201001N004112200019N0040001N1+03401+01201999999ADDGA1021+060009999GF104991999999999999999999MA1100811999999MW1071REMMET050DAAD 101100Z 10008KT 4000 BLSA SCT200 34/12 Q1008;EQDQ01+000003PRSWM1Q02    003PRSWM1
0295605150999992000071012004+35320+004190SY-MT+0461DAAD V0201001N003112200019N0040001N1+03531+01151100701ADDAA199000091AY101061AY221061GA1021+024009999GF104991031001999999071021MA1100711999999MD1810191+9999MW1071REMSYN088AAXX  10124 60515 31940 41006 10353 20115 40070 58019 70702 83072 333 0//00 83358 95900;MET050DAAD 101200Z 10006KT 4000 BLSA SCT080 35/12 Q1007;EQDQ01  00002PRCP99Q02    003PRSWM1
0183605150999992000071013004+35320+004190FM-15+0461DAAD V0200601N004112200019N0040001N1+03601+01101999999ADDGA1021+024009999GA2021+060009999GF104991999999999999999999MA1100611999999MW1071REMMET057DAAD 101300Z 06008KT 4000 BLSA SCT080 SCT200 36/11 Q1006;EQDQ01+000003PRSWM1Q02    003PRSWM1
0183605150999992000071014004+35320+004190FM-15+0461DAAD V0200601N004112200019N0040001N1+03601+01101999999ADDGA1021+024009999GA2021+060009999GF104991999999999999999999MA1100511999999MW1071REMMET057DAAD 101400Z 06008KT 4000 BLSA SCT080 SCT200 36/11 Q1005;EQDQ01+000003PRSWM1Q02    003PRSWM1
0291605150999992000071015004+35320+004190SY-MT+0461DAAD V0200601N00311090001CN0040001N1+03751+01091100451ADDAY101031AY221031GA1021+012009999GA2021+060009999GF106991031021012501001021MA1100411999999MD1710231+9999MW1071REMSYN088AAXX  10154 60515 41640 60606 10375 20109 40045 57023 70702 83202 333 83840 83070 95900;MET057DAAD 101500Z 06006KT 4000 BLSA SCT040 SCT200 38/11 Q1004;EQDQ01    003PRSWM1
0163605150999992000071016004+35320+004190FM-15+0461DAAD V0200201N003110120019N0040001N1+03801+01101999999ADDGA1071+012009029GF107991999999999999999999MA1100311999999MW1071REMMET053DAAD 101600Z 02006KT 4000 BLSA BKN040TCU 38/11 Q1003;EQDQ01+000003PRSWM1Q02    003PRSWM1
0186605150999992000071017004+35320+004190FM-15+0461DAAD V0203601N008212200019N0040001N1+03801+00801999999ADDGA1021+012009029GA2021+024009999GF104991999999999999999999MA1100311999999MW1071REMMET060DAAD 101700Z 36016KT 4000 BLSA SCT040TCU SCT080 38/08 Q1003;EQDQ01+000003PRSWM1Q02    003PRSWM1
0329605150999992000071018004+35320+004190SY-MT+0461DAAD V0200201N007210120019N0040001N1+03601+00761100371ADDAA199000091AY101061AY221061GA1071+012009999GF199999061021012501001001KA1120M+03871MA1100311999999MD1610121+9999MW1071REMSYN082AAXX  10184 60515 31640 60214 10360 20076 40037 56012 70702 86200 333 10387 86840;MET045DAAD 101800Z 02014KT 4000 BKN040 36/08 Q1003;EQDQ01+000062SCOTCVQ02+000000PRSWM2Q03  00002PRCP99Q04    003PRSWM1
0331605150999992000071106004+35320+004190SY-MT+0461DAAD V0202601N007210240019N9999999N1+02501+00471100871ADDAA199000091GA1071+024009999GF199999051021999999001001IA2240+02209KA1120N+02461MA1100811999999MD1310111+9999MW1001REMSYN088AAXX  11064 60515 33957 52614 10250 20047 40087 53011 85200 333 02200 20246 85358 95900;MET045DAAD 110600Z 26014KT 7000 BKN080 25/05 Q1008;EQDQ01+000052SCOTCVQ02+070002VODIS Q03+000000PRSWM2Q04  00002PRCP99
0178605150999992000071107004+35320+004190FM-15+0461DAAD V0202601N011312200019N9999999N1+02601+00601999999ADDGA1021+013809999GA2021+024009999GF104991999999999999999999MA1100811999999MW1001REMMET052DAAD 110700Z 26022KT 7000 FEW046 SCT080 26/06 Q1008;EQDQ01+070002VODIS Q02+000000PRSWM2
0155605150999992000071108004+35320+004190FM-15+0461DAAD V0202801N010312200019N9999999N1+02701+00701999999ADDGA1021+024009999GF104991999999999999999999MA1100911999999MW1001REMMET045DAAD 110800Z 28020KT 6000 SCT080 27/07 Q1009;EQDQ01+060002VODIS Q02+000000PRSWM2
0251605150999992000071109004+35320+004190SY-MT+0461DAAD V0202801N009312200019N9999999N1+02821+00831100961ADDGA1021+024009999GF104991041001999999071001MA1100911999999MD1310061+9999MW1001REMSYN076AAXX  11094 60515 42957 42818 10282 20083 40096 53006 84070 333 84358 95900;MET045DAAD 110900Z 28018KT 7000 SCT080 28/08 Q1009;EQDQ01+070002VODIS Q02+000000PRSWM2
0155605150999992000071110004+35320+004190FM-15+0461DAAD V0202901N006212200019N9999999N1+02901+01001999999ADDGA1021+024009999GF104991999999999999999999MA1100911999999MW1001REMMET045DAAD 111000Z 29012KT 7000 SCT080 29/10 Q1009;EQDQ01+070002VODIS Q02+000000PRSWM2
0155605150999992000071111004+35320+004190FM-15+0461DAAD V0202601N003112200019N9999999N1+03101+00901999999ADDGA1021+024009999GF102991999999999999999999MA1100911999999MW1001REMMET045DAAD 111100Z 26006KT 7000 FEW080 31/09 Q1009;EQDQ01+070002VODIS Q02+000000PRSWM2
0237605150999992000071112004+35320+004190SY-MT+0461DAAD V0202601N009312200019N0080001N1+03121+00801100861ADDAA199000091GF100991001001999999001001MA1100811999999MD1810071+9999MW1001REMSYN070AAXX  11124 60515 32958 02618 10312 20080 40086 58007 333 0//00 95900;MET042DAAD 111200Z 26018KT 8000 SKC 31/08 Q1008;EQDQ01+000000PRSWM2Q02  00002PRCP99
0120605150999992000071113004+35320+004190FM-15+0461DAAD V0202601N006212200019N0080001N1+03301+00801999999ADDGF100991999999999999999999MA1100811999999MW1001REMMET042DAAD 111300Z 26012KT 8000 SKC 33/08 Q1008;EQDQ01+000000PRSWM2
0120605150999992000071114004+35320+004190FM-15+0461DAAD V0202601N005112200019N0080001N1+03401+01001999999ADDGF100991999999999999999999MA1100711999999MW1001REMMET042DAAD 111400Z 26010KT 8000 SKC 34/10 Q1007;EQDQ01+000000PRSWM2
0204605150999992000071115004+35320+004190SY-MT+0461DAAD V0203201N006212200019N0080001N1+03451+00321100741ADDGF100991001001999999001001MA1100711999999MD1710121+9999MW1001REMSYN064AAXX  11154 60515 42958 03212 10345 20032 40074 57012 333 95900;MET042DAAD 111500Z 32012KT 8000 SKC 35/03 Q1007;EQDQ01+000000PRSWM2
0181605150999992000071118004+35320+004190FM-12+0461DAAD V0203401N006212200019N0100001N1+03201+01061100751ADDAA199000091GA1001+999999999GF100991001001999999001001KA1120M+03451MD1610021+9999REMSYN070AAXX  11184 60515 32960 03412 10320 20106 40075 56002 333 10345 95900;EQDQ01  00002PRCP99
0265605150999992000071206004+35320+004190SY-MT+0461DAAD V0203001N006212200019N0100001N1+02301+01121101391ADDAA199000091GF100991001001999999001001IA2240+01809KA1120N+02191MA1101291999999MD1310091+9999MW1001REMSYN076AAXX  12064 60515 33960 03012 10230 20112 40139 53009 333 01800 20219 95900;MET039DAAD 120600Z 30012KT CAVOK 23/11 Q1013;EQDQ01+000000PRSWM2Q02  00002PRCP99
0091605150999992000071207004+35320+004190FM-15+0461DAAD V0203201N00621220001CN0099001N1+02501+01201999999ADDMA1101391999999MW1001REMMET039DAAD 120700Z 32012KT CAVOK 25/12 Q1014;EQDQ01+000000PRSWM2
0091605150999992000071208004+35320+004190FM-15+0461DAAD V0203001N00931220001CN0099001N1+02601+01201999999ADDMA1101491999999MW1001REMMET039DAAD 120800Z 30018KT CAVOK 26/12 Q1015;EQDQ01+000000PRSWM2
0132605150999992000071209004+35320+004190FM-12+0461DAAD V0203601N005112200019N0100001N1+02651+00981101601ADDGA1001+999999999GF100991001001999999001001MD1110281+9999REMSYN064AAXX  12094 60515 42960 03610 10265 20098 40160 51028 333 95900;
0091605150999992000071210004+35320+004190FM-15+0461DAAD V0203001N00511220001CN0099001N1+02901+00801999999ADDMA1101801999999MW1001REMMET039DAAD 121000Z 30010KT CAVOK 29/08 Q1018;EQDQ01+000000PRSWM2
0091605150999992000071211004+35320+004190FM-15+0461DAAD V0203601N00511220001CN0099001N1+03001+00801999999ADDMA1101591999999MW1001REMMET039DAAD 121100Z 36010KT CAVOK 30/08 Q1016;EQDQ01+000000PRSWM2
0168605150999992000071212004+35320+004190FM-12+0461DAAD V0203601N005112200019N0100001N1+03091+00671101621ADDAA199000091GA1001+999999999GF100991001001999999001001MD1010041+9999REMSYN070AAXX  12124 60515 32960 03610 10309 20067 40162 50004 333 0//00 95900;EQDQ01  00002PRCP99
0091605150999992000071213004+35320+004190FM-15+0461DAAD V0203601N00511220001CN0099001N1+03201+00601999999ADDMA1101491999999MW1001REMMET039DAAD 121300Z 36010KT CAVOK 32/06 Q1015;EQDQ01+000000PRSWM2
0091605150999992000071214004+35320+004190FM-15+0461DAAD V0203001N00511220001CN0099001N1+03201+00501999999ADDMA1101491999999MW1001REMMET039DAAD 121400Z 30010KT CAVOK 32/05 Q1015;EQDQ01+000000PRSWM2
0201605150999992000071215004+35320+004190SY-MT+0461DAAD V0203001N005112200019N0100001N1+03251+00411101501ADDGF100991001001999999001001MA1101491999999MD1710121+9999MW1001REMSYN064AAXX  12154 60515 42960 03010 10325 20041 40150 57012 333 95900;MET039DAAD 121500Z 30010KT CAVOK 33/04 Q1015;EQDQ01+000000PRSWM2
0091605150999992000071216004+35320+004190FM-15+0461DAAD V0203601N00821220001CN0099001N1+03201+00401999999ADDMA1101391999999MW1001REMMET039DAAD 121600Z 36016KT CAVOK 32/04 Q1014;EQDQ01+000000PRSWM2
0091605150999992000071217004+35320+004190FM-15+0461DAAD V0203201N00821220001CN0099001N1+03201+00501999999ADDMA1101491999999MW1001REMMET039DAAD 121700Z 32016KT CAVOK 32/05 Q1015;EQDQ01+000000PRSWM2
0247605150999992000071218004+35320+004190SY-MT+0461DAAD V0203201N007212200019N0100001N1+03071+00541101571ADDAA199000091GF100991001001999999001001KA1120M+03271MA1101491999999MD1310061+9999MW1001REMSYN070AAXX  12184 60515 32960 03214 10307 20054 40157 53006 333 10327 95900;MET039DAAD 121800Z 32014KT CAVOK 31/05 Q1015;EQDQ01+000000PRSWM2Q02  00002PRCP99
0271605150999992000071306004+35320+004190SY-MT+0461DAAD V0201401N003112200019N0100001N1+02011+01031101941ADDAA199000091GF100991001001999999001001IA2240+01309KA1120N+01731MA1101901999999MD1310011+9999MW1001REMSYN082AAXX  13064 60515 31960 01406 10201 20103 40194 53001 700// 333 01300 20173 95900;MET039DAAD 130600Z 14006KT CAVOK 20/10 Q1019;EQDQ01+000000PRSWM2Q02  00002PRCP99
0091605150999992000071307004+35320+004190FM-15+0461DAAD V0209999C00001220001CN0099001N1+02301+01201999999ADDMA1102001999999MW1001REMMET039DAAD 130700Z 00000KT CAVOK 23/12 Q1020;EQDQ01+000000PRSWM2
0091605150999992000071308004+35320+004190FM-15+0461DAAD V0200601N00211220001CN0099001N1+02401+01201999999ADDMA1102001999999MW1001REMMET039DAAD 130800Z 06004KT CAVOK 24/12 Q1020;EQDQ01+000000PRSWM2
0201605150999992000071309004+35320+004190SY-MT+0461DAAD V0200801N002112200019N0100001N1+02471+01091102051ADDGF100991001001999999001001MA1102001999999MD1110101+9999MW1001REMSYN064AAXX  13094 60515 42960 00804 10247 20109 40205 51010 333 95900;MET039DAAD 130900Z 08004KT CAVOK 25/11 Q1020;EQDQ01+000000PRSWM2
0091605150999992000071310004+35320+004190FM-15+0461DAAD V0200801N00211220001CN0099001N1+02701+01201999999ADDMA1102001999999MW1001REMMET039DAAD 131000Z 08004KT CAVOK 27/12 Q1020;EQDQ01+000000PRSWM2
0091605150999992000071311004+35320+004190FM-15+0461DAAD V0203001N00211220001CN0099001N1+02801+01201999999ADDMA1102001999999MW1001REMMET039DAAD 131100Z 30004KT CAVOK 28/12 Q1020;EQDQ01+000000PRSWM2
0234605150999992000071312004+35320+004190SY-MT+0461DAAD V0200601N002112200019N0100001N1+03051+01111101921ADDAA199000091GF100991001001999999001001MA1101901999999MD1810121+9999MW1001REMSYN070AAXX  13124 60515 32960 00604 10305 20111 40192 58012 333 0//00 95900;MET039DAAD 131200Z 06004KT CAVOK 31/11 Q1019;EQDQ01+000000PRSWM2Q02  00002PRCP99
0091605150999992000071313004+35320+004190FM-15+0461DAAD V0203601N00211220001CN0099001N1+03301+01001999999ADDMA1101801999999MW1001REMMET039DAAD 131300Z 36004KT CAVOK 33/10 Q1018;EQDQ01+000000PRSWM2
0091605150999992000071314004+35320+004190FM-15+0461DAAD V0200401N00311220001CN0099001N1+03401+01101999999ADDMA1101691999999MW1001REMMET039DAAD 131400Z 04006KT CAVOK 34/11 Q1017;EQDQ01+000000PRSWM2
0201605150999992000071315004+35320+004190SY-MT+0461DAAD V0200601N003112200019N0100001N1+03431+00891101631ADDGF100991001001999999001001MA1101591999999MD1710241+9999MW1001REMSYN064AAXX  13154 60515 42960 00606 10343 20089 40163 57024 333 95900;MET039DAAD 131500Z 06006KT CAVOK 34/09 Q1016;EQDQ01+000000PRSWM2
0091605150999992000071316004+35320+004190FM-15+0461DAAD V0200601N00211220001CN0099001N1+03201+00901999999ADDMA1101591999999MW1001REMMET039DAAD 131600Z 06004KT CAVOK 32/09 Q1016;EQDQ01+000000PRSWM2
0091605150999992000071317004+35320+004190FM-15+0461DAAD V0200401N00311220001CN0099001N1+03401+01001999999ADDMA1101491999999MW1001REMMET039DAAD 131700Z 04006KT CAVOK 34/10 Q1015;EQDQ01+000000PRSWM2
0247605150999992000071318004+35320+004190SY-MT+0461DAAD V0200601N006212200019N0100001N1+03341+01111101531ADDAA199000091GF100991001001999999001001KA1120M+03451MA1101491999999MD1610091+9999MW1001REMSYN070AAXX  13184 60515 32960 00612 10334 20111 40153 56009 333 10345 95900;MET039DAAD 131800Z 06012KT CAVOK 33/11 Q1015;EQDQ01+000000PRSWM2Q02  00002PRCP99
0271605150999992000071406004+35320+004190SY-MT+0461DAAD V0203601N004112200019N0100001N1+02451+00981101531ADDAA199000091GF100991001001999999001001IA2240+02009KA1120N+02391MA1101491999999MD1410001+9999MW1001REMSYN082AAXX  14064 60515 31960 03608 10245 20098 40153 54000 700// 333 02000 20239 95900;MET039DAAD 140600Z 36008KT CAVOK 25/10 Q1015;EQDQ01+000000PRSWM2Q02  00002PRCP99
0091605150999992000071408004+35320+004190FM-15+0461DAAD V0203601N00411220001CN0099001N1+02801+01001999999ADDMA1101591999999MW1001REMMET039DAAD 140800Z 36008KT CAVOK 28/10 Q1016;EQDQ01+000000PRSWM2
0201605150999992000071409004+35320+004190SY-MT+0461DAAD V0203601N005112200019N0100001N1+02971+00981101551ADDGF100991001001999999001001MA1101491999999MD1010031+9999MW1001REMSYN064AAXX  14094 60515 42960 03610 10297 20098 40155 50003 333 95900;MET039DAAD 140900Z 36010KT CAVOK 30/10 Q1015;EQDQ01+000000PRSWM2
0091605150999992000071410004+35320+004190FM-15+0461DAAD V0203201N00411220001CN0099001N1+03101+01001999999ADDMA1101491999999MW1001REMMET039DAAD 141000Z 32008KT CAVOK 31/10 Q1015;EQDQ01+000000PRSWM2
0091605150999992000071411004+35320+004190FM-15+0461DAAD V0203201N00511220001CN0099001N1+03301+00701999999ADDMA1101491999999MW1001REMMET039DAAD 141100Z 32010KT CAVOK 33/07 Q1015;EQDQ01+000000PRSWM2
0180605150999992000071412004+35320+004190FM-12+0461DAAD V0203601N005112200019N0100001N1+03301+00571101531ADDAA199000091GA1011+013809089GF101991011021999999001001MD1410001+9999REMSYN082AAXX  14124 60515 32960 13610 10330 20057 40153 54000 81200 333 0//00 81846 95900;EQDQ01  00002PRCP99
0139605150999992000071413004+35320+004190FM-15+0461DAAD V0203401N006212200019N0112651N1+03401+00701999999ADDGA1021+013809999GF102991999999999999999999MA1101391999999MW1001REMMET045DAAD 141300Z 34012KT 9999 FEW046 34/07 Q1014;EQDQ01+000000PRSWM2
0139605150999992000071414004+35320+004190FM-15+0461DAAD V0203601N007212200019N0112651N1+03501+00101999999ADDGA1021+012009999GF102991999999999999999999MA1101291999999MW1001REMMET045DAAD 141400Z 36014KT 9999 FEW040 35/01 Q1013;EQDQ01+000000PRSWM2
0236605150999992000071415004+35320+004190SY-MT+0461DAAD V0203001N006212200019N0100001N1+03581-00011101331ADDGA1021+012009999GF102991021021012501001001MA1101291999999MD1710191+9999MW1001REMSYN076AAXX  14154 60515 42660 23012 10358 21001 40133 57019 82200 333 82840 95900;MET046DAAD 141500Z 30012KT 9999 FEW040 36/M00 Q1013;EQDQ01+000000PRSWM2
0139605150999992000071416004+35320+004190FM-15+0461DAAD V0203401N007212200019N0112651N1+03501+00201999999ADDGA1021+012009999GF102991999999999999999999MA1101191999999MW1001REMMET045DAAD 141600Z 34014KT 9999 FEW040 35/02 Q1012;EQDQ01+000000PRSWM2
0139605150999992000071417004+35320+004190FM-15+0461DAAD V0203401N008212200019N0112651N1+03501+00101999999ADDGA1021+012009999GF102991999999999999999999MA1101191999999MW1001REMMET045DAAD 141700Z 34016KT 9999 FEW040 35/01 Q1012;EQDQ01+000000PRSWM2
0281605150999992000071418004+35320+004190SY-MT+0461DAAD V0203401N010312200019N0100001N1+03251+00521101321ADDAA199000091GA1021+012009999GF102991011021012501001021KA1120M+03641MA1101291999999MD1510041+9999MW1001REMSYN082AAXX  14184 60515 32660 23420 10325 20052 40132 55004 81202 333 10364 81840 95900;MET045DAAD 141800Z 34020KT 9999 FEW040 33/05 Q1013;EQDQ01+000000PRSWM2Q02  00002PRCP99
0315605150999992000071506004+35320+004190SY-MT+0461DAAD V0202801N005112200019N0100001N1+02521+00761101351ADDAA199000091GA1021+024009079GF102991021999999999071001IA2240+01809KA1120N+02331MA1101291999999MD1610151+9999MW1001REMSYN094AAXX  15064 60515 31960 22810 10252 20076 40135 56015 700// 82070 333 01800 20233 82358 95900;MET039DAAD 150600Z 28010KT CAVOK 25/08 Q1013;EQDQ01+000000PRSWM2Q02  00002PRCP99Q03    003SCOLCG
0091605150999992000071507004+35320+004190FM-15+0461DAAD V0202801N00511220001CN0099001N1+02701+00801999999ADDMA1101291999999MW1001REMMET039DAAD 150700Z 28010KT CAVOK 27/08 Q1013;EQDQ01+000000PRSWM2
0091605150999992000071508004+35320+004190FM-15+0461DAAD V0203201N00511220001CN0099001N1+02801+00701999999ADDMA1101391999999MW1001REMMET039DAAD 150800Z 32010KT CAVOK 28/07 Q1014;EQDQ01+000000PRSWM2
0091605150999992000071511004+35320+004190FM-15+0461DAAD V0203201N00721220001CN0099001N1+03101+00701999999ADDMA1101291999999MW1001REMMET039DAAD 151100Z 32014KT CAVOK 31/07 Q1013;EQDQ01+000000PRSWM2
0278605150999992000071512004+35320+004190SY-MT+0461DAAD V0203001N009312200019N0150001N1+03241+00801101211ADDAA199000091GA1021+024009079GF102991021999999999071001MA1101191999999MD1810191+9999MW1001REMSYN082AAXX  15124 60515 32965 23018 10324 20080 40121 58019 82070 333 0//00 82358 95900;MET039DAAD 151200Z 30018KT CAVOK 32/08 Q1012;EQDQ01+000000PRSWM2Q02  00002PRCP99Q03    003SCOLCG
0091605150999992000071513004+35320+004190FM-15+0461DAAD V0203001N00621220001CN0099001N1+03401+00601999999ADDMA1101081999999MW1001REMMET039DAAD 151300Z 30012KT CAVOK 34/06 Q1011;EQDQ01+000000PRSWM2
0091605150999992000071514004+35320+004190FM-15+0461DAAD V0203001N00821220001CN0099001N1+03501+00501999999ADDMA1101021999999MW1001REMMET039DAAD 151400Z 30016KT CAVOK 35/05 Q1010;EQDQ01+000000PRSWM2
0213605150999992000071515004+35320+004190SY-MT+0461DAAD V0203001N00721220001CN0100001N1+03561+00361101001ADDGF101991011001999999071001MA1101021999999MD1710191+9999MW1001REMSYN076AAXX  15154 60515 42960 13014 10356 20036 40100 57019 81070 333 81358 95900;MET039DAAD 151500Z 30014KT CAVOK 36/04 Q1010;EQDQ01+000000PRSWM2
0091605150999992000071516004+35320+004190FM-15+0461DAAD V0203001N00511220001CN0099001N1+03601+00301999999ADDMA1100911999999MW1001REMMET039DAAD 151600Z 30010KT CAVOK 36/03 Q1009;EQDQ01+000000PRSWM2
0259605150999992000071518004+35320+004190SY-MT+0461DAAD V0203601N00931220001CN0100001N1+03301+01001100961ADDAA199000091GF101991011001999999071001KA1120M+03631MA1100911999999MD1510051+9999MW1001REMSYN082AAXX  15184 60515 32960 13618 10330 20100 40096 55005 81070 333 10363 81358 95900;MET039DAAD 151800Z 36018KT CAVOK 33/10 Q1009;EQDQ01+000000PRSWM2Q02  00002PRCP99
0299605150999992000071606004+35320+004190SY-MT+0461DAAD V0209999C000012200019N0100001N1+02271+01031101231ADDAA199000091GA1031+060009009GF103991001001999999001021IA2240+01609KA1120N+02091MA1101191999999MD1310061+9999MW1001REMSYN094AAXX  16064 60515 31960 30000 10227 20103 40123 53006 700// 80002 333 01600 20209 83070 95900;MET039DAAD 160600Z 00000KT CAVOK 23/10 Q1012;EQDQ01+000000PRSWM2Q02  00002PRCP99
0091605150999992000071607004+35320+004190FM-15+0461DAAD V0202001N00211220001CN0099001N1+02501+01101999999ADDMA1101291999999MW1001REMMET039DAAD 160700Z 20004KT CAVOK 25/11 Q1013;EQDQ01+000000PRSWM2
0091605150999992000071608004+35320+004190FM-15+0461DAAD V0200601N00211220001CN0099001N1+02701+01201999999ADDMA1101291999999MW1001REMMET039DAAD 160800Z 06004KT CAVOK 27/12 Q1013;EQDQ01+000000PRSWM2
0201605150999992000071609004+35320+004190SY-MT+0461DAAD V0200201N002112200019N0100001N1+02801+01041101351ADDGF100991001001999999001001MA1101291999999MD1110111+9999MW1001REMSYN064AAXX  16094 60515 42960 00204 10280 20104 40135 51011 333 95900;MET039DAAD 160900Z 02004KT CAVOK 28/10 Q1013;EQDQ01+000000PRSWM2
0289605150999992000071715004+35320+004190SY-MT+0461DAAD V0201601N013410240019N0040001N1+04001+01061100931ADDAY121031AY221031GA1021+009909999GA2071+024009999GF107991021081008001071999MA1100911999999MD1710151+9999MW1051REMSYN088AAXX  17154 60515 41540 71626 10400 20106 40093 57015 70522 8287/ 333 82833 85358 95900;MET055DAAD 171500Z 16026KT 4000 HZ FEW033 BKN080 40/11 Q1009;EQDQ01    003PRSWM1
0181605150999992000071716004+35320+004190FM-15+0461DAAD V0201601N009310240019N0040001N1+03901+01201999999ADDGA1021+009909999GA2071+024009999GF107991999999999999999999MA1100911999999MW1051REMMET055DAAD 171600Z 16018KT 4000 HZ FEW033 BKN080 39/12 Q1009;EQDQ01+000003PRSWM1Q02    003PRSWM1
0160605150999992000071717004+35320+004190FM-15+0461DAAD V0201601N010310099019N0010001N1+03401+01201999999ADDGA1081+009909999GF108991999999999999999999MA1101021999999MW1071REMMET050DAAD 171700Z 16020KT 1000 BLSA OVC033 34/12 Q1010;EQDQ01+000003PRSWM1Q02    003PRSWM1
0308605150999992000071718004+35320+004190SY-MT+0461DAAD V0201801N006210099019N0010001N1+03601+00981101031ADDAA199000091AY121061AY221061GA1081+009909999GF108991081081008001001001KA1120M+04111MA1101021999999MD1810061+9999MW1071REMSYN088AAXX  17184 60515 31510 81812 10360 20098 40103 58006 70722 88800 333 10411 88833 95990;MET050DAAD 171800Z 18012KT 1000 BLSA OVC033 36/10 Q1010;EQDQ01  00002PRCP99Q02    003PRSWM1
0321605150999992000071806004+35320+004190SY-MT+0461DAAD V0203601N007212200019N9999999N1+02931+01631101201ADDAA199000091GA1021+060009999GF104991001001999999001021IA2240+02609KA1120N+02901MA1101191999999MD1310131+9999MW1001REMSYN094AAXX  18064 60515 31956 43614 10293 20163 40120 53013 700// 80002 333 02600 20290 84070 95900;MET045DAAD 180600Z 36014KT 6000 SCT200 29/16 Q1012;EQDQ01+060002VODIS Q02+000000PRSWM2Q03  00002PRCP99
0155605150999992000071807004+35320+004190FM-15+0461DAAD V0200201N006212200019N9999999N1+03201+01601999999ADDGA1021+060009999GF104991999999999999999999MA1101191999999MW1001REMMET045DAAD 180700Z 02012KT 6000 SCT200 32/16 Q1012;EQDQ01+060002VODIS Q02+000000PRSWM2
0155605150999992000071808004+35320+004190FM-15+0461DAAD V0200201N006212200019N9999999N1+03301+01501999999ADDGA1021+060009999GF104991999999999999999999MA1101191999999MW1001REMMET045DAAD 180800Z 02012KT 6000 SCT200 33/15 Q1012;EQDQ01+060002VODIS Q02+000000PRSWM2
0155605150999992000071809004+35320+004190FM-15+0461DAAD V0202801N003112200019N9999999N1+03501+01501999999ADDGA1021+060009999GF104991999999999999999999MA1101191999999MW1001REMMET045DAAD 180900Z 28006KT 6000 SCT200 35/15 Q1012;EQDQ01+060002VODIS Q02+000000PRSWM2
0284605150999992000071812004+35320+004190SY-MT+0461DAAD V0203601N007212200019N9999999N1+03661+01561101241ADDAA199000091GA1021+060009999GF103991001001999999001021MA1101191999999MD1110021+9999MW1001REMSYN082AAXX  18124 60515 32956 33614 10366 20156 40124 51002 80002 333 0//00 83070 95900;MET045DAAD 181200Z 36014KT 6000 SCT200 37/16 Q1012;EQDQ01+060002VODIS Q02+000000PRSWM2Q03  00002PRCP99
0155605150999992000071813004+35320+004190FM-15+0461DAAD V0203601N007212200019N9999999N1+03801+01501999999ADDGA1021+060009999GF102991999999999999999999MA1101081999999MW1001REMMET045DAAD 181300Z 36014KT 5000 FEW200 38/15 Q1011;EQDQ01+050002VODIS Q02+000000PRSWM2
0139605150999992000071814004+35320+004190FM-15+0461DAAD V0203601N005112200019N0040001N1+03901+01501999999ADDGF100991999999999999999999MA1101021999999MW1051REMMET045DAAD 181400Z 36010KT 4000 HZ SKC 39/15 Q1010;EQDQ01+000003PRSWM1Q02    003PRSWM1
0229605150999992000071815004+35320+004190SY-MT+0461DAAD V0200201N005112200019N0040001N1+03951+01521101001ADDAY101031AY221031GF100991001001999999001001MA1101021999999MD1810221+9999MW1051REMSYN070AAXX  18154 60515 41940 00210 10395 20152 40100 58022 70502 333 95990;MET045DAAD 181500Z 02010KT 4000 HZ SKC 40/15 Q1010;EQDQ01    003PRSWM1
0139605150999992000071816004+35320+004190FM-15+0461DAAD V0203601N005112200019N0040001N1+04101+01301999999ADDGF100991999999999999999999MA1100911999999MW1051REMMET045DAAD 181600Z 36010KT 4000 HZ SKC 41/13 Q1009;EQDQ01+000003PRSWM1Q02    003PRSWM1
0139605150999992000071817004+35320+004190FM-15+0461DAAD V0203401N008212200019N0040001N1+04001+01401999999ADDGF100991999999999999999999MA1100911999999MW1051REMMET045DAAD 181700Z 34016KT 4000 HZ SKC 40/14 Q1009;EQDQ01+000003PRSWM1Q02    003PRSWM1
0275605150999992000071818004+35320+004190SY-MT+0461DAAD V0203601N010312200019N0040001N1+03751+01671101041ADDAA199000091AY101061AY201061GF100991001001999999001001KA1120M+04051MA1101021999999MD1510021+9999MW1051REMSYN076AAXX  18184 60515 31940 03620 10375 20167 40104 55002 70500 333 10405 95990;MET045DAAD 181800Z 36020KT 4000 HZ SKC 38/17 Q1010;EQDQ01  00002PRCP99Q02    003PRSWM1
0290605150999992000071906004+35320+004190SY-MT+0461DAAD V0203201N002112200019N9999999N1+02701+01501101351ADDAA199000091GF100991001001999999001001IA2240+02009KA1120N+02431MA1101291999999MD1310021+9999MW1001REMSYN082AAXX  19064 60515 31956 03204 10270 20150 40135 53002 700// 333 02000 20243 95900;MET042DAAD 190600Z 32004KT 6000 SKC 27/15 Q1013;EQDQ01+060002VODIS Q02+000000PRSWM2Q03  00002PRCP99
0136605150999992000071907004+35320+004190FM-15+0461DAAD V0203401N003112200019N9999999N1+02901+01501999999ADDGF100991999999999999999999MA1101391999999MW1001REMMET042DAAD 190700Z 34006KT 6000 SKC 29/15 Q1014;EQDQ01+060002VODIS Q02+000000PRSWM2
0136605150999992000071908004+35320+004190FM-15+0461DAAD V0202401N004112200019N9999999N1+03101+01401999999ADDGF100991999999999999999999MA1101391999999MW1001REMMET042DAAD 190800Z 24008KT 6000 SKC 31/14 Q1014;EQDQ01+060002VODIS Q02+000000PRSWM2
0136605150999992000071910004+35320+004190FM-15+0461DAAD V0203601N005112200019N9999999N1+03301+01301999999ADDGF100991999999999999999999MA1101491999999MW1001REMMET042DAAD 191000Z 36010KT 6000 SKC 33/13 Q1015;EQDQ01+060002VODIS Q02+000000PRSWM2
0237605150999992000071912004+35320+004190SY-MT+0461DAAD V0200601N002112200019N0080001N1+03551+01301101361ADDAA199000091GF100991001001999999001001MA1101291999999MD1810091+9999MW1001REMSYN070AAXX  19124 60515 32958 00604 10355 20130 40136 58009 333 0//00 95900;MET042DAAD 191200Z 06004KT 8000 SKC 36/13 Q1013;EQDQ01+000000PRSWM2Q02  00002PRCP99
0120605150999992000071914004+35320+004190FM-15+0461DAAD V0202401N002112200019N0080001N1+03701+00901999999ADDGF100991999999999999999999MA1101191999999MW1001REMMET042DAAD 191400Z 24004KT 8000 SKC 37/09 Q1012;EQDQ01+000000PRSWM2
0204605150999992000071915004+35320+004190SY-MT+0461DAAD V0203401N004112200019N0080001N1+03791+00671101201ADDGF100991001001999999001001MA1101191999999MD1710141+9999MW1001REMSYN064AAXX  19154 60515 42958 03408 10379 20067 40120 57014 333 95900;MET042DAAD 191500Z 34006KT 8000 SKC 38/08 Q1012;EQDQ01+000000PRSWM2
0120605150999992000071916004+35320+004190FM-15+0461DAAD V0203601N003112200019N0080001N1+03901+00601999999ADDGF100991999999999999999999MA1101081999999MW1001REMMET042DAAD 191600Z 36006KT 8000 SKC 39/06 Q1011;EQDQ01+000000PRSWM2
0120605150999992000071917004+35320+004190FM-15+0461DAAD V0200601N003112200019N0080001N1+03801+00601999999ADDGF100991999999999999999999MA1101081999999MW1001REMMET042DAAD 191700Z 06006KT 8000 SKC 38/06 Q1011;EQDQ01+000000PRSWM2
0250605150999992000071918004+35320+004190SY-MT+0461DAAD V0200201N002112200019N0080001N1+03751+00711101091ADDAA199000091GF100991001001999999001001KA1120M+03901MA1101021999999MD1710121+9999MW1001REMSYN070AAXX  19184 60515 32958 00204 10375 20071 40109 57012 333 10390 95900;MET042DAAD 191800Z 02004KT 8000 SKC 38/07 Q1010;EQDQ01+000000PRSWM2Q02  00002PRCP99
0274605150999992000072006004+35320+004190SY-MT+0461DAAD V0202801N002112200019N0080001N1+02531+01001101401ADDAA199000091GF100991001001999999001001IA2240+01909KA1120N+02401MA1101391999999MD1310101+9999MW1001REMSYN082AAXX  20064 60515 31958 02804 10253 20100 40140 53010 700// 333 01900 20240 95900;MET042DAAD 200600Z 28004KT 8000 SKC 25/10 Q1014;EQDQ01+000000PRSWM2Q02  00002PRCP99
0120605150999992000072007004+35320+004190FM-15+0461DAAD V0203201N001012200019N0080001N1+02901+01101999999ADDGF100991999999999999999999MA1101391999999MW1001REMMET042DAAD 200700Z 32002KT 8000 SKC 29/11 Q1014;EQDQ01+000000PRSWM2
0091605150999992000072008004+35320+004190FM-15+0461DAAD V0200201N00311220001CN0099001N1+03101+01001999999ADDMA1101491999999MW1001REMMET039DAAD 200800Z 02006KT CAVOK 31/10 Q1015;EQDQ01+000000PRSWM2
0201605150999992000072009004+35320+004190SY-MT+0461DAAD V0200401N004112200019N0080001N1+03201+00981101471ADDGF100991001001999999001001MA1101391999999MD1010101+9999MW1001REMSYN064AAXX  20094 60515 42958 00408 10320 20098 40147 50010 333 95900;MET039DAAD 200900Z 04008KT CAVOK 32/10 Q1014;EQDQ01+000000PRSWM2
0091605150999992000072010004+35320+004190FM-15+0461DAAD V0200601N00211220001CN0099001N1+03401+01001999999ADDMA1101391999999MW1001REMMET039DAAD 201000Z 06004KT CAVOK 34/10 Q1014;EQDQ01+000000PRSWM2
0091605150999992000072011004+35320+004190FM-15+0461DAAD V0203201N00211220001CN0099001N1+03501+01101999999ADDMA1101391999999MW1001REMMET039DAAD 201100Z 32004KT CAVOK 35/11 Q1014;EQDQ01+000000PRSWM2
0234605150999992000072012004+35320+004190SY-MT+0461DAAD V0200601N002112200019N0100001N1+03651+01041101361ADDAA199000091GF100991001001999999001001MA1101291999999MD1810101+9999MW1001REMSYN070AAXX  20124 60515 32960 00604 10365 20104 40136 58010 333 0//00 95900;MET039DAAD 201200Z 06004KT CAVOK 37/10 Q1013;EQDQ01+000000PRSWM2Q02  00002PRCP99
0091605150999992000072014004+35320+004190FM-15+0461DAAD V0201001N00311220001CN0099001N1+03801+01001999999ADDMA1101191999999MW1001REMMET039DAAD 201400Z 10006KT CAVOK 38/10 Q1012;EQDQ01+000000PRSWM2
0201605150999992000072015004+35320+004190SY-MT+0461DAAD V0201001N002112200019N0100001N1+03901+00921101231ADDGF100991001001999999001001MA1101191999999MD1710151+9999MW1001REMSYN064AAXX  20154 60515 42960 01004 10390 20092 40123 57015 333 95900;MET039DAAD 201500Z 10004KT CAVOK 39/09 Q1012;EQDQ01+000000PRSWM2
0091605150999992000072016004+35320+004190FM-15+0461DAAD V0200601N01001220001CN0099001N1+03901+00901999999ADDMA1101081999999MW1001REMMET039DAAD 201600Z 06010KT CAVOK 39/09 Q1011;EQDQ01+000000PRSWM2
0091605150999992000072017004+35320+004190FM-15+0461DAAD V0200801N01001220001CN0099001N1+03901+00901999999ADDMA1101081999999MW1001REMMET039DAAD 201700Z 08010KT CAVOK 39/09 Q1011;EQDQ01+000000PRSWM2
0247605150999992000072018004+35320+004190SY-MT+0461DAAD V0200801N008212200019N0100001N1+03781+00801101091ADDAA199000091GF100991001001999999001001KA1120M+03901MA1101021999999MD1710131+9999MW1001REMSYN070AAXX  20184 60515 32960 00816 10378 20080 40109 57013 333 10390 95900;MET039DAAD 201800Z 08016KT CAVOK 38/08 Q1010;EQDQ01+000000PRSWM2Q02  00002PRCP99
0271605150999992000072106004+35320+004190SY-MT+0461DAAD V0209999C000012200019N0100001N1+02571+01101101271ADDAA199000091GF100991001001999999001001IA2240+02109KA1120N+02491MA1101191999999MD1310071+9999MW1001REMSYN082AAXX  21064 60515 31960 00000 10257 20110 40127 53007 700// 333 02100 20249 95900;MET039DAAD 210600Z 00000KT CAVOK 26/11 Q1012;EQDQ01+000000PRSWM2Q02  00002PRCP99
0091605150999992000072107004+35320+004190FM-15+0461DAAD V0200601N00401220001CN0099001N1+02801+01101999999ADDMA1101291999999MW1001REMMET039DAAD 210700Z 06004KT CAVOK 28/11 Q1013;EQDQ01+000000PRSWM2
0091605150999992000072108004+35320+004190FM-15+0461DAAD V0209999C00001220001CN0099001N1+03001+01301999999ADDMA1101291999999MW1001REMMET039DAAD 210800Z 00000KT CAVOK 30/13 Q1013;EQDQ01+000000PRSWM2
0201605150999992000072109004+35320+004190SY-MT+0461DAAD V0200801N002112200019N0100001N1+03311+01361101361ADDGF100991001001999999001001MA1101291999999MD1110121+9999MW1001REMSYN064AAXX  21094 60515 42960 00804 10331 20136 40136 51012 333 95900;MET039DAAD 210900Z 08004KT CAVOK 33/14 Q1013;EQDQ01+000000PRSWM2
0091605150999992000072110004+35320+004190FM-15+0461DAAD V0200801N00401220001CN0099001N1+03501+01101999999ADDMA1101291999999MW1001REMMET039DAAD 211000Z 08004KT CAVOK 35/11 Q1013;EQDQ01+000000PRSWM2
0091605150999992000072111004+35320+004190FM-15+0461DAAD V0200801N00801220001CN0099001N1+03701+01001999999ADDMA1101191999999MW1001REMMET039DAAD 211100Z 08008KT CAVOK 37/10 Q1012;EQDQ01+000000PRSWM2
0234605150999992000072112004+35320+004190SY-MT+0461DAAD V0203401N004112200019N0100001N1+03811+00951101191ADDAA199000091GF100991001001999999001001MA1101081999999MD1810161+9999MW1001REMSYN070AAXX  21124 60515 32960 03408 10381 20095 40119 58016 333 0//00 95900;MET039DAAD 211200Z 34008KT CAVOK 38/10 Q1011;EQDQ01+000000PRSWM2Q02  00002PRCP99
0091605150999992000072113004+35320+004190FM-15+0461DAAD V0203601N01001220001CN0099001N1+03901+01001999999ADDMA1101081999999MW1001REMMET039DAAD 211300Z 36010KT CAVOK 39/10 Q1011;EQDQ01+000000PRSWM2
0229605150999992000072115004+35320+004190SY-MT+0461DAAD V0200801N011312200019N0100001N1+03961+00831101241ADDGA1021+060009019GF102991001001999999001021MA1101191999999MD1310051+9999MW1001REMSYN076AAXX  21154 60515 42960 20822 10396 20083 40124 53005 80002 333 82070 95900;MET039DAAD 211500Z 08022KT CAVOK 40/08 Q1012;EQDQ01+000000PRSWM2
0247605150999992000072118004+35320+004190SY-MT+0461DAAD V0201001N006212200019N0100001N1+03851+00911101121ADDAA199000091GF100991001001999999001001KA1120M+04041MA1101081999999MD1810151+9999MW1001REMSYN070AAXX  21184 60515 32960 01012 10385 20091 40112 58015 333 10404 95900;MET039DAAD 211800Z 10012KT CAVOK 39/09 Q1011;EQDQ01+000000PRSWM2Q02  00002PRCP99
0299605150999992000072206004+35320+004190SY-MT+0461DAAD V0203601N002112200019N0100001N1+02651+01201101491ADDAA199000091GA1031+060009019GF103991001001999999001021IA2240+02109KA1120N+02591MA1101391999999MD1310141+9999MW1001REMSYN094AAXX  22064 60515 31960 33604 10265 20120 40149 53014 700// 80002 333 02100 20259 83070 95900;MET039DAAD 220600Z 36004KT CAVOK 27/12 Q1014;EQDQ01+000000PRSWM2Q02  00002PRCP99
0091605150999992000072207004+35320+004190FM-15+0461DAAD V0209999C00001220001CN0099001N1+02801+01101999999ADDMA1101491999999MW1001REMMET039DAAD 220700Z 00000KT CAVOK 28/11 Q1015;EQDQ01+000000PRSWM2
0091605150999992000072208004+35320+004190FM-15+0461DAAD V0209999C00001220001CN0099001N1+03101+01301999999ADDMA1101491999999MW1001REMMET039DAAD 220800Z 00000KT CAVOK 31/13 Q1015;EQDQ01+000000PRSWM2
0229605150999992000072209004+35320+004190SY-MT+0461DAAD V0209999C000012200019N0100001N1+03251+01231101531ADDGA1031+060009019GF103991001001999999001021MA1101491999999MD1110041+9999MW1001REMSYN076AAXX  22094 60515 42960 30000 10325 20123 40153 51004 80002 333 83070 95900;MET039DAAD 220900Z 00000KT CAVOK 33/12 Q1015;EQDQ01+000000PRSWM2
0091605150999992000072210004+35320+004190FM-15+0461DAAD V0209999C00001220001CN0099001N1+03501+01301999999ADDMA1101491999999MW1001REMMET039DAAD 221000Z 00000KT CAVOK 35/13 Q1015;EQDQ01+000000PRSWM2
0091605150999992000072211004+35320+004190FM-15+0461DAAD V0200801N00311220001CN0099001N1+03601+01101999999ADDMA1101391999999MW1001REMMET039DAAD 221100Z 08006KT CAVOK 36/11 Q1014;EQDQ01+000000PRSWM2
0234605150999992000072212004+35320+004190SY-MT+0461DAAD V0201001N005112200019N0100001N1+03651+01091101521ADDAA199000091GF100991001001999999001001MA1101491999999MD1410001+9999MW1001REMSYN070AAXX  22124 60515 32960 01010 10365 20109 40152 54000 333 0//00 95900;MET039DAAD 221200Z 10010KT CAVOK 37/11 Q1015;EQDQ01+000000PRSWM2Q02  00002PRCP99
0091605150999992000072213004+35320+004190FM-15+0461DAAD V0201201N00511220001CN0099001N1+03801+01001999999ADDMA1101391999999MW1001REMMET039DAAD 221300Z 12010KT CAVOK 38/10 Q1014;EQDQ01+000000PRSWM2
0201605150999992000072215004+35320+004190SY-MT+0461DAAD V0201001N004112200019N0100001N1+03911+00721101331ADDGF100991001001999999001001MA1101291999999MD1810181+9999MW1001REMSYN064AAXX  22154 60515 42960 01008 10391 20072 40133 58018 333 95900;MET039DAAD 221500Z 10008KT CAVOK 39/07 Q1013;EQDQ01+000000PRSWM2
0091605150999992000072216004+35320+004190FM-15+0461DAAD V0201001N00411220001CN0099001N1+04001+00801999999ADDMA1101291999999MW1001REMMET039DAAD 221600Z 10008KT CAVOK 40/08 Q1013;EQDQ01+000000PRSWM2
0091605150999992000072217004+35320+004190FM-15+0461DAAD V0201201N00411220001CN0099001N1+03901+00701999999ADDMA1101191999999MW1001REMMET039DAAD 221700Z 12008KT CAVOK 39/07 Q1012;EQDQ01+000000PRSWM2
0247605150999992000072218004+35320+004190SY-MT+0461DAAD V0201201N003112200019N0100001N1+03861+00581101271ADDAA199000091GF100991001001999999001001KA1120M+04001MA1101191999999MD1610071+9999MW1001REMSYN070AAXX  22184 60515 32960 01206 10386 20058 40127 56007 333 10400 95900;MET039DAAD 221800Z 12006KT CAVOK 39/06 Q1012;EQDQ01+000000PRSWM2Q02  00002PRCP99
0271605150999992000072306004+35320+004190SY-MT+0461DAAD V0200201N002112200019N0100001N1+02561+00991101581ADDAA199000091GF100991001001999999001001IA2240+02009KA1120N+02391MA1101491999999MD1310031+9999MW1001REMSYN082AAXX  23064 60515 31960 00204 10256 20099 40158 53003 700// 333 02000 20239 95900;MET039DAAD 230600Z 02004KT CAVOK 24/10 Q1015;EQDQ01+000000PRSWM2Q02  00002PRCP99
0091605150999992000072307004+35320+004190FM-15+0461DAAD V0203401N00211220001CN0099001N1+02801+01101999999ADDMA1101491999999MW1001REMMET039DAAD 230700Z 34004KT CAVOK 28/11 Q1015;EQDQ01+000000PRSWM2
0091605150999992000072308004+35320+004190FM-15+0461DAAD V0203201N00211220001CN0099001N1+03001+01201999999ADDMA1101591999999MW1001REMMET039DAAD 230800Z 32004KT CAVOK 30/12 Q1016;EQDQ01+000000PRSWM2
0201605150999992000072309004+35320+004190SY-MT+0461DAAD V0203401N003112200019N0100001N1+03201+01131101621ADDGF100991001001999999001001MA1101591999999MD1010041+9999MW1001REMSYN064AAXX  23094 60515 42960 03406 10320 20113 40162 50004 333 95900;MET039DAAD 230900Z 34006KT CAVOK 32/11 Q1016;EQDQ01+000000PRSWM2
0091605150999992000072311004+35320+004190FM-15+0461DAAD V0201601N00211220001CN0099001N1+03701+00901999999ADDMA1101491999999MW1001REMMET039DAAD 231100Z 16004KT CAVOK 37/09 Q1015;EQDQ01+000000PRSWM2
0278605150999992000072312004+35320+004190SY-MT+0461DAAD V0203201N002112200019N0100001N1+03871+01081101421ADDAA199000091GA1031+090009019GF103991031001999999071999MA1101391999999MD1810151+9999MW1001REMSYN082AAXX  23124 60515 32960 33204 10387 20108 40142 58015 83070 333 0//00 83080 95900;MET039DAAD 231200Z 32004KT CAVOK 39/11 Q1014;EQDQ01+000002SCOHCGQ02+000000PRSWM2Q03  00002PRCP99
0091605150999992000072313004+35320+004190FM-15+0461DAAD V0202401N00411220001CN0099001N1+03901+01001999999ADDMA1101291999999MW1001REMMET039DAAD 231300Z 24008KT CAVOK 39/10 Q1013;EQDQ01+000000PRSWM2
0091605150999992000072314004+35320+004190FM-15+0461DAAD V0201601N00511220001CN0099001N1+04001+00801999999ADDMA1101291999999MW1001REMMET039DAAD 231400Z 16010KT CAVOK 40/08 Q1013;EQDQ01+000000PRSWM2
0091605150999992000072315004+35320+004190FM-15+0461DAAD V0201601N00621220001CN0099001N1+04101+00601999999ADDMA1101191999999MW1001REMMET039DAAD 231500Z 16012KT CAVOK 41/06 Q1012;EQDQ01+000000PRSWM2
0091605150999992000072316004+35320+004190FM-15+0461DAAD V0201401N00721220001CN0099001N1+04001+00401999999ADDMA1101191999999MW1001REMMET039DAAD 231600Z 14014KT CAVOK 40/04 Q1012;EQDQ01+000000PRSWM2
0091605150999992000072317004+35320+004190FM-15+0461DAAD V0201401N00821220001CN0099001N1+03901+00401999999ADDMA1101081999999MW1001REMMET039DAAD 231700Z 14016KT CAVOK 39/04 Q1011;EQDQ01+000000PRSWM2
0247605150999992000072318004+35320+004190SY-MT+0461DAAD V0201401N007212200019N0100001N1+03751+00711101211ADDAA199000091GF100991001001999999001001KA1120M+04091MA1101191999999MD1510081+9999MW1001REMSYN070AAXX  23184 60515 32960 01414 10375 20071 40121 55008 333 10409 95900;MET039DAAD 231800Z 14014KT CAVOK 38/07 Q1012;EQDQ01+000000PRSWM2Q02  00002PRCP99
0299605150999992000072406004+35320+004190SY-MT+0461DAAD V0203401N004112200019N0100001N1+02711+00931101411ADDAA199000091GA1031+060009019GF103991001001999999001021IA2240+02309KA1120N+02641MA1101391999999MD1610011+9999MW1001REMSYN094AAXX  24064 60515 31960 33408 10271 20093 40141 56001 700// 80002 333 02300 20264 83070 95900;MET039DAAD 240600Z 34008KT CAVOK 27/09 Q1014;EQDQ01+000000PRSWM2Q02  00002PRCP99
0091605150999992000072407004+35320+004190FM-15+0461DAAD V0203601N00211220001CN0099001N1+02801+01001999999ADDMA1101291999999MW1001REMMET039DAAD 240700Z 36004KT CAVOK 28/10 Q1013;EQDQ01+000000PRSWM2
0091605150999992000072408004+35320+004190FM-15+0461DAAD V0203401N00211220001CN0099001N1+03001+01001999999ADDMA1101191999999MW1001REMMET039DAAD 240800Z 34004KT CAVOK 30/10 Q1012;EQDQ01+000000PRSWM2
0213605150999992000072409004+35320+004190SY-MT+0461DAAD V0209999C000012200019N0100001N1+03241+01041101331ADDGA1021+060009019GF102991001001999999001021MD1510051+9999MW1001REMSYN076AAXX  24094 60515 42960 20000 10324 20104 40133 55005 80002 333 82070 95900;MET038DAAD 40900Z 00000KT CAVOK 32/10 Q1013;EQDQ01+000000PRSWM2
0091605150999992000072410004+35320+004190FM-15+0461DAAD V0200601N00311220001CN0099001N1+03401+01101999999ADDMA1101291999999MW1001REMMET039DAAD 241000Z 06006KT CAVOK 34/11 Q1013;EQDQ01+000000PRSWM2
0091605150999992000072411004+35320+004190FM-15+0461DAAD V0201201N00311220001CN0099001N1+03601+01001999999ADDMA1101191999999MW1001REMMET039DAAD 241100Z 12006KT CAVOK 36/10 Q1012;EQDQ01+000000PRSWM2
0234605150999992000072412004+35320+004190SY-MT+0461DAAD V0201001N005112200019N0100001N1+03751+01001101231ADDAA199000091GF100991001001999999001001MA1101191999999MD1810081+9999MW1001REMSYN070AAXX  24124 60515 32960 01010 10375 20100 40123 58008 333 0//00 95900;MET039DAAD 241200Z 10010KT CAVOK 38/10 Q1012;EQDQ01+000000PRSWM2Q02  00002PRCP99
0091605150999992000072413004+35320+004190FM-15+0461DAAD V0202001N00411220001CN0099001N1+03901+01001999999ADDMA1101081999999MW1001REMMET039DAAD 241300Z 20008KT CAVOK 39/10 Q1011;EQDQ01+000000PRSWM2
0091605150999992000072414004+35320+004190FM-15+0461DAAD V0202001N00511220001CN0099001N1+04001+00901999999ADDMA1101021999999MW1001REMMET039DAAD 241400Z 20010KT CAVOK 40/09 Q1010;EQDQ01+000000PRSWM2
0201605150999992000072415004+35320+004190SY-MT+0461DAAD V0201801N008212200019N0100001N1+04051+00711101231ADDGF100991001001999999001001MA1100911999999MD1710281+9999MW1001REMSYN064AAXX  24154 60515 42960 01816 10405 20071 40123 57028 333 95900;MET039DAAD 241500Z 18016KT CAVOK 41/07 Q1009;EQDQ01+000000PRSWM2
0107605150999992000072416004+35320+004190FM-15+0461DAAD V0201601N01031220001CN0099001N1+99999+00601999999ADDMA1100811999999MW1001REMMET039DAAD 241600Z 16020KT CAVOK 49/06 Q1008;EQDQ01+004903ATOT  Q02+000000PRSWM2
0091605150999992000072417004+35320+004190FM-15+0461DAAD V0202001N01031220001CN0099001N1+04001+00601999999ADDMA1100811999999MW1001REMMET039DAAD 241700Z 20020KT CAVOK 40/06 Q1008;EQDQ01+000000PRSWM2
0247605150999992000072418004+35320+004190SY-MT+0461DAAD V0201801N010312200019N0100001N1+03851+00611100891ADDAA199000091GF100991001001999999001001KA1120M+04091MA1100811999999MD1610061+9999MW1001REMSYN070AAXX  24184 60515 32960 01820 10385 20061 40089 56006 333 10409 95900;MET039DAAD 241800Z 18020KT CAVOK 39/06 Q1008;EQDQ01+000000PRSWM2Q02  00002PRCP99
0271605150999992000072506004+35320+004190SY-MT+0461DAAD V0209999C000012200019N0100001N1+02521+01221101201ADDAA199000091GF100991001001999999001001IA2240+02109KA1120N+02441MA1101191999999MD1310381+9999MW1001REMSYN082AAXX  25064 60515 31960 00000 10252 20122 40120 53038 700// 333 02100 20244 95900;MET039DAAD 250600Z 00000KT CAVOK 25/12 Q1012;EQDQ01+000000PRSWM2Q02  00002PRCP99
0091605150999992000072507004+35320+004190FM-15+0461DAAD V0209999C00001220001CN0099001N1+02801+01401999999ADDMA1101191999999MW1001REMMET039DAAD 250700Z 00000KT CAVOK 28/14 Q1012;EQDQ01+000000PRSWM2
0091605150999992000072508004+35320+004190FM-15+0461DAAD V0203601N00211220001CN0099001N1+03001+01301999999ADDMA1101191999999MW1001REMMET039DAAD 250800Z 36004KT CAVOK 30/13 Q1012;EQDQ01+000000PRSWM2
0201605150999992000072509004+35320+004190SY-MT+0461DAAD V0200601N002112200019N0100001N1+03231+01641101201ADDGF100991001001999999001001MA1101191999999MD1010021+9999MW1001REMSYN064AAXX  25094 60515 42960 00604 10323 20164 40120 50002 333 95900;MET039DAAD 250900Z 06004KT CAVOK 32/16 Q1012;EQDQ01+000000PRSWM2
0091605150999992000072510004+35320+004190FM-15+0461DAAD V0203201N00211220001CN0099001N1+03401+01601999999ADDMA1101081999999MW1001REMMET039DAAD 251000Z 32004KT CAVOK 34/16 Q1011;EQDQ01+000000PRSWM2
0250605150999992000072512004+35320+004190SY-MT+0461DAAD V0200301N99999220001CN0100001N1+03721+01481101091ADDAA199000091GF100991001001999999001001MA1101021999999MD1810101+9999MW1001REMSYN070AAXX  25124 60515 32960 00360 10372 20148 40109 58010 333 0//00 95900;MET039DAAD 251200Z 36004KT CAVOK 37/15 Q1010;EQDQ01+000000PRSWM2Q02+003083WOSPD Q03  00002PRCP99
0091605150999992000072513004+35320+004190FM-15+0461DAAD V0200601N00411220001CN0099001N1+03901+01501999999ADDMA1101021999999MW1001REMMET039DAAD 251300Z 06008KT CAVOK 39/15 Q1010;EQDQ01+000000PRSWM2
0251605150999992000072515004+35320+004190SY-MT+0461DAAD V0201401N004112200019N0100001N1+04071+01401100871ADDGA1021+012009999GF199999011021012501001001MA1100811999999MD1710201+9999MW1001REMSYN076AAXX  25154 60515 42660 11408 10407 20140 40087 57020 81200 333 81840 95900;MET045DAAD 251500Z 14008KT 9999 FEW040 41/14 Q1008;EQDQ01+000012SCOTCVQ02+000000PRSWM2
0090605150999992000072516004+35320+004190FM-15+0461DAAD V0201401N01031220001CN0099001N1+04101+01301999999ADDMA1100811999999MW1001REMMET038DAAD 251600Z 14020KT CAVO 41/13 Q1008;EQDQ01+000000PRSWM2
0076605150999992000072517004+35320+004190FM-15+0461DAAD V0201801N01031220001CN0099001N1+04001+01301999999ADDMW1001REMMET039DAAD 251700Z 18020KT CAVOK 40/13 Q////;EQDQ01+000000PRSWM2
0259605150999992000072518004+35320+004190SY-MT+0461DAAD V0201601N01031220001CN0100001N1+03851+00911100891ADDAA199000091GF103991001001999999001021KA1120M+04151MA1100811999999MD1510011+9999MW1001REMSYN082AAXX  25184 60515 32960 31620 10385 20091 40089 55001 80002 333 10415 83070 95900;MET039DAAD 251800Z 16020KT CAVOK 39/09 Q1008;EQDQ01+000000PRSWM2Q02  00002PRCP99
0315605150999992000072606004+35320+004190SY-MT+0461DAAD V0201201N001012200019N0100001N1+02641+01021101221ADDAA199000091GA1021+024009079GF102991021999022501081001IA2240+02109KA1120N+02561MA1101191999999MD1210111+9999MW1001REMSYN094AAXX  26064 60515 31860 21202 10264 20102 40122 52011 700// 82080 333 02100 20256 82358 95900;MET039DAAD 260600Z 12002KT CAVOK 26/10 Q1012;EQDQ01+000000PRSWM2Q02  00002PRCP99Q03    003SCOLCG
0091605150999992000072607004+35320+004190FM-15+0461DAAD V0201201N00211220001CN0099001N1+03001+00901999999ADDMA1101191999999MW1001REMMET039DAAD 260700Z 12004KT CAVOK 30/09 Q1012;EQDQ01+000000PRSWM2
0091605150999992000072608004+35320+004190FM-15+0461DAAD V0203601N00411220001CN0099001N1+03201+00801999999ADDMA1101291999999MW1001REMMET039DAAD 260800Z 36008KT CAVOK 32/08 Q1013;EQDQ01+000000PRSWM2
0201605150999992000072609004+35320+004190SY-MT+0461DAAD V0203401N002112200019N0100001N1+03311+00741101321ADDGF100991001001999999001001MA1101291999999MD1210101+9999MW1001REMSYN064AAXX  26094 60515 42960 03404 10331 20074 40132 52010 333 95900;MET039DAAD 260900Z 34004KT CAVOK 33/07 Q1013;EQDQ01+000000PRSWM2
0091605150999992000072610004+35320+004190FM-15+0461DAAD V0203401N00101220001CN0099001N1+03501+00801999999ADDMA1101291999999MW1001REMMET039DAAD 261000Z 34002KT CAVOK 35/08 Q1013;EQDQ01+000000PRSWM2
0091605150999992000072611004+35320+004190FM-15+0461DAAD V0203201N00211220001CN0099001N1+03701+00801999999ADDMA1101291999999MW1001REMMET039DAAD 261100Z 32004KT CAVOK 37/08 Q1013;EQDQ01+000000PRSWM2
0091605150999992000072613004+35320+004190FM-15+0461DAAD V0203601N00211220001CN0099001N1+04001+00901999999ADDMA1101081999999MW1001REMMET039DAAD 261300Z 36004KT CAVOK 40/09 Q1011;EQDQ01+000000PRSWM2
0091605150999992000072614004+35320+004190FM-15+0461DAAD V0203601N00411220001CN0099001N1+04201+00901999999ADDMA1101081999999MW1001REMMET039DAAD 261400Z 36008KT CAVOK 42/09 Q1011;EQDQ01+000000PRSWM2
0212605150999992000072615004+35320+004190SY-MT+0461DAAD V0203601N00411220001CN0100001N1+04201+00871101081ADDGF102991001001999999001021MA1101021999999MD1710131+9999MW1001REMSYN076AAXX  26154 60515 42960 23608 10420 20087 40108 57013 80002 333 82070 95900;MET038DAAD 261500Z 3600KT CAVOK 42/09 Q1010;EQDQ01+000000PRSWM2
0091605150999992000072616004+35320+004190FM-15+0461DAAD V0200601N00411220001CN0099001N1+04301+00901999999ADDMA1101021999999MW1001REMMET039DAAD 261600Z 06008KT CAVOK 43/09 Q1010;EQDQ01+000000PRSWM2
0321605150999992000072706004+35320+004190SY-MT+0461DAAD V0209999C00001009901CN0100001N1+02861+01041101451ADDAA199000091GA1071+009909999GF199999051021008001001001IA2240+02409KA1120N+02801MA1101391999999MD1310201+9999MW1001REMSYN094AAXX  27064 60515 31560 50000 10286 20104 40145 53020 700// 85200 333 02400 20280 85200 95900;MET045DAAD 270600Z 00000KT 9999 BKN033 29/10 Q1014;EQDQ01+000052SCOTCVQ02+000000PRSWM2Q03  00002PRCP99
0139605150999992000072707004+35320+004190FM-15+0461DAAD V0209999C000010099019N0112651N1+03001+00901999999ADDGA1071+009909999GF107991999999999999999999MA1101391999999MW1001REMMET045DAAD 270700Z 00000KT 9999 BKN033 30/09 Q1014;EQDQ01+000000PRSWM2
0139605150999992000072708004+35320+004190FM-15+0461DAAD V0200601N003112200019N0112651N1+03401+00901999999ADDGA1021+012009999GF104991999999999999999999MA1101491999999MW1001REMMET045DAAD 270800Z 06006KT 9999 SCT040 34/09 Q1015;EQDQ01+000000PRSWM2
0144605150999992000072709004+35320+004190FM-12+0461DAAD V0200201N003112200019N0100001N1+03561+01291101511ADDGA1031+012009089GF103991031021012501001001MD1110101+9999REMSYN076AAXX  27094 60515 42660 30206 10356 20129 40151 51010 83200 333 83840 95900;
0139605150999992000072710004+35320+004190FM-15+0461DAAD V0203401N003112200019N0112651N1+03801+01201999999ADDGA1021+024009999GF104991999999999999999999MA1101491999999MW1001REMMET045DAAD 271000Z 34006KT 9999 SCT080 38/12 Q1015;EQDQ01+000000PRSWM2
0139605150999992000072711004+35320+004190FM-15+0461DAAD V0200601N002112200019N0112651N1+04001+01201999999ADDGA1021+012009999GF102991999999999999999999MA1101391999999MW1001REMMET045DAAD 271100Z 06004KT 9999 FEW040 40/12 Q1014;EQDQ01+000000PRSWM2
0278605150999992000072712004+35320+004190SY-MT+0461DAAD V0209999C000012200019N0100001N1+04131+00931101451ADDAA199000091GA1031+024009079GF103991031999999999071001MA1101391999999MD1810071+9999MW1001REMSYN082AAXX  27124 60515 32960 30000 10413 20093 40145 58007 83070 333 0//00 83358 95900;MET039DAAD 271200Z 00000KT CAVOK 41/09 Q1014;EQDQ01+000000PRSWM2Q02  00002PRCP99Q03    003SCOLCG
0091605150999992000072713004+35320+004190FM-15+0461DAAD V0200601N00211220001CN0099001N1+04201+00901999999ADDMA1101291999999MW1001REMMET039DAAD 271300Z 06004KT CAVOK 42/09 Q1013;EQDQ01+000000PRSWM2
0139605150999992000072714004+35320+004190FM-15+0461DAAD V0203201N003112200019N0112651N1+04401+01001999999ADDGA1021+012009999GF104991999999999999999999MA1101291999999MW1001REMMET045DAAD 271400Z 32006KT 9999 SCT040 44/10 Q1013;EQDQ01+000000PRSWM2
0235605150999992000072715004+35320+004190SY-MT+0461DAAD V0200201N003112200019N0100001N1+04391+00891101261ADDGA1021+012009999GF103991031021012501071001MA1101191999999MD1710181+9999MW1001REMSYN076AAXX  27154 60515 42660 30206 10439 20089 40126 57018 83270 333 83840 95900;MET045DAAD 271500Z 02006KT 9999 SCT040 44/09 Q1012;EQDQ01+000000PRSWM2
0142605150999992000072716004+35320+004190FM-15+0461DAAD V0200601N004112200019N0112651N1+04401+00801999999ADDGA1021+012009029GF104991999999999999999999MA1101191999999MW1001REMMET048DAAD 271600Z 06008KT 9999 SCT040TCU 44/08 Q1012;EQDQ01+000000PRSWM2
0142605150999992000072717004+35320+004190FM-15+0461DAAD V0202401N009312200019N0112651N1+04101+00601999999ADDGA1021+012009029GF104991999999999999999999MA1101191999999MW1001REMMET048DAAD 271700Z 24018KT 9999 SCT040TCU 41/06 Q1012;EQDQ01+000000PRSWM2
0284605150999992000072718004+35320+004190SY-MT+0461DAAD V0202601N008212200019N0070001N1+04071+00841101251ADDAA199000091GA1021+012009029GF105991041081008001001021KA1120M+04441MA1101191999999MD1010041+9999MW1001REMSYN082AAXX  27184 60515 32557 52616 10407 20084 40125 50004 84802 333 10444 84833 95900;MET048DAAD 271800Z 26016KT 9999 SCT040TCU 41/08 Q1012;EQDQ01+000000PRSWM2Q02  00002PRCP99
0297605150999992000072818004+35320+004190SY-MT+0461DAAD V0203201N009312200019N9999999N1+04021+01041101181ADDAA199000091GA1021+012009999GF103991031021012501001001KA1120M+04371MA1101081999999MD1310011+9999MW1001REMSYN082AAXX  28184 60515 32657 33218 10402 20104 40118 53001 83200 333 10437 83840 95900;MET045DAAD 281800Z 32018KT 7000 SCT040 40/10 Q1011;EQDQ01+070002VODIS Q02+000000PRSWM2Q03  00002PRCP99
0271605150999992000072906004+35320+004190SY-MT+0461DAAD V0203201N003112200019N0100001N1+02911+00991101491ADDAA199000091GF100991001001999999001001IA2240+02409KA1120N+02841MA1101391999999MD1410001+9999MW1001REMSYN082AAXX  29064 60515 31960 03206 10291 20099 40149 54000 700// 333 02400 20284 95900;MET039DAAD 290600Z 32006KT CAVOK 29/10 Q1014;EQDQ01+000000PRSWM2Q02  00002PRCP99
0091605150999992000072907004+35320+004190FM-15+0461DAAD V0203401N00511220001CN0099001N1+03101+01001999999ADDMA1101491999999MW1001REMMET039DAAD 290700Z 34010KT CAVOK 31/10 Q1015;EQDQ01+000000PRSWM2
0091605150999992000072908004+35320+004190FM-15+0461DAAD V0203201N00411220001CN0099001N1+03201+00901999999ADDMA1101591999999MW1001REMMET039DAAD 290800Z 32008KT CAVOK 32/09 Q1016;EQDQ01+000000PRSWM2
0201605150999992000072909004+35320+004190SY-MT+0461DAAD V0203401N005112200019N0100001N1+03251+00731101661ADDGF100991001001999999001001MA1101591999999MD1110131+9999MW1001REMSYN064AAXX  29094 60515 42960 03410 10325 20073 40166 51013 333 95900;MET039DAAD 290900Z 34010KT CAVOK 33/07 Q1016;EQDQ01+000000PRSWM2
0091605150999992000072910004+35320+004190FM-15+0461DAAD V0203401N00411220001CN0099001N1+03401+00801999999ADDMA1101591999999MW1001REMMET039DAAD 291000Z 34008KT CAVOK 34/08 Q1016;EQDQ01+000000PRSWM2
0091605150999992000072911004+35320+004190FM-15+0461DAAD V0203601N00511220001CN0099001N1+03601+00701999999ADDMA1101591999999MW1001REMMET039DAAD 291100Z 36010KT CAVOK 36/07 Q1016;EQDQ01+000000PRSWM2
0219605150999992000072912004+35320+004190SY-MT+0461DAAD V0203601N004112200019N0100001N1+03651+00721101601ADDAA199000091GF100991001001999999001001MD1810031+9999MW1001REMSYN070AAXX  29124 60515 32960 03608 10365 20072 40160 58003 333 0//00 95900;MET039DAAD 291200Z 36008KT CAVOK 37/08 Q////;EQDQ01+000000PRSWM2Q02  00002PRCP99
0091605150999992000072913004+35320+004190FM-15+0461DAAD V0200401N00311220001CN0099001N1+03701+00701999999ADDMA1101391999999MW1001REMMET039DAAD 291300Z 04006KT CAVOK 37/07 Q1014;EQDQ01+000000PRSWM2
0091605150999992000072914004+35320+004190FM-15+0461DAAD V0200801N00411220001CN0099001N1+03901+00801999999ADDMA1101391999999MW1001REMMET039DAAD 291400Z 08008KT CAVOK 39/08 Q1014;EQDQ01+000000PRSWM2
0201605150999992000072915004+35320+004190SY-MT+0461DAAD V0200401N006212200019N0100001N1+03881+00661101481ADDGF100991001001999999001001MA1101391999999MD1710131+9999MW1001REMSYN064AAXX  29154 60515 42960 00412 10388 20066 40148 57013 333 95900;MET039DAAD 291500Z 04012KT CAVOK 39/07 Q1014;EQDQ01+000000PRSWM2
0091605150999992000072916004+35320+004190FM-15+0461DAAD V0203601N00311220001CN0099001N1+03901+01001999999ADDMA1101391999999MW1001REMMET039DAAD 291600Z 36006KT CAVOK 39/10 Q1014;EQDQ01+000000PRSWM2
0091605150999992000072917004+35320+004190FM-15+0461DAAD V0200801N00311220001CN0099001N1+03801+01001999999ADDMA1101021999999MW1001REMMET039DAAD 291700Z 08006KT CAVOK 38/10 Q1010;EQDQ01+000000PRSWM2
0247605150999992000072918004+35320+004190SY-MT+0461DAAD V0203601N006212200019N0100001N1+03801+00711101381ADDAA199000091GF100991001001999999001001KA1120M+03941MA1101291999999MD1710091+9999MW1001REMSYN070AAXX  29184 60515 32960 03612 10380 20071 40138 57009 333 10394 95900;MET039DAAD 291800Z 36002KT CAVOK 38/07 Q1013;EQDQ01+000000PRSWM2Q02  00002PRCP99
0265605150999992000073006004+35320+004190SY-MT+0461DAAD V0203601N002112200019N0100001N1+02501+01391101891ADDAA199000091GF100991001001999999001001IA2240+01909KA1120N+02311MA1101801999999MD1310231+9999MW1001REMSYN076AAXX  30064 60515 31960 03604 10250 20139 40189 53023 333 01900 20231 95900;MET039DAAD 300600Z 36004KT CAVOK 25/14 Q1018;EQDQ01+000000PRSWM2Q02  00002PRCP99
0091605150999992000073007004+35320+004190FM-15+0461DAAD V0203401N00311220001CN0099001N1+02701+01301999999ADDMA1101801999999MW1001REMMET039DAAD 300700Z 34006KT CAVOK 27/13 Q1018;EQDQ01+000000PRSWM2
0091605150999992000073008004+35320+004190FM-15+0461DAAD V0203601N00101220001CN0099001N1+02901+01301999999ADDMA1101801999999MW1001REMMET039DAAD 300800Z 36002KT CAVOK 29/13 Q1018;EQDQ01+000000PRSWM2
0201605150999992000073009004+35320+004190SY-MT+0461DAAD V0200401N002112200019N0100001N1+03021+01361101951ADDGF100991001001999999001001MA1101901999999MD1210141+9999MW1001REMSYN064AAXX  30094 60515 42960 00404 10302 20136 40195 52014 333 95900;MET039DAAD 300900Z 04004KT CAVOK 30/14 Q1019;EQDQ01+000000PRSWM2
0091605150999992000073010004+35320+004190FM-15+0461DAAD V0200601N00311220001CN0099001N1+03301+01301999999ADDMA1101901999999MW1001REMMET039DAAD 301000Z 06006KT CAVOK 33/13 Q1019;EQDQ01+000000PRSWM2
0091605150999992000073011004+35320+004190FM-15+0461DAAD V0200801N00311220001CN0099001N1+03501+01501999999ADDMA1101801999999MW1001REMMET039DAAD 301100Z 08006KT CAVOK 35/15 Q1018;EQDQ01+000000PRSWM2
0218605150999992000073012004+35320+004190SY-MT+0461DAAD V0200201N001012200019N0100001N1+03601+01291101861ADDAA199000091GF100991001001999999001001MA1101801999999MD1810071+9999MW1001REMSYN054AAXX  30124 60515 32960 00202 10360 20129 40186 58007;MET039DAAD 301200Z 02002KT CAVOK 36/13 Q1018;EQDQ01+000000PRSWM2Q02  00002PRCP99
0074605150999992000073013004+35320+004190FM-15+0461DAAD V0200201N00511220001CN0099001N1+03701+01301999999ADDMW1001REMMET037DAAD 301300 02010KT CAVOK 37/13 1017;EQDQ01+000000PRSWM2
0091605150999992000073014004+35320+004190FM-15+0461DAAD V0200401N00411220001CN0099001N1+03801+01201999999ADDMA1101691999999MW1001REMMET039DAAD 301400Z 04008KT CAVOK 38/12 Q1017;EQDQ01+000000PRSWM2
0235605150999992000073015004+35320+004190SY-MT+0461DAAD V0203601N004112200019N0100001N1+03811+01211101711ADDGA1021+009009999GF102991021021008001001001MA1101691999999MD1710141+9999MW1001REMSYN076AAXX  30154 60515 42560 23608 10381 20121 40171 57014 82200 333 82830 95900;MET045DAAD 301500Z 36008KT 9999 FEW030 38/12 Q1017;EQDQ01+000000PRSWM2
0139605150999992000073016004+35320+004190FM-15+0461DAAD V0200601N001012200019N0112651N1+03801+01201999999ADDGA1021+009009999GF102991999999999999999999MA1101591999999MW1001REMMET045DAAD 301600Z 06002KT 9999 FEW030 38/12 Q1016;EQDQ01+000000PRSWM2
0091605150999992000073017004+35320+004190FM-15+0461DAAD V0200201N00511220001CN0099001N1+03801+01001999999ADDMA1101591999999MW1001REMMET039DAAD 301700Z 02010KT CAVOK 38/10 Q1016;EQDQ01+000000PRSWM2
0091605150999992000073018004+35320+004190FM-15+0461DAAD V0200601N00411220001CN0099001N1+03801+00901999999ADDMA1101591999999MW1001REMMET039DAAD 301800Z 06008KT CAVOK 38/09 Q1016;EQDQ01+000000PRSWM2
0271605150999992000073106004+35320+004190SY-MT+0461DAAD V0201801N002112200019N0100001N1+02471+01051101971ADDAA199000091GF100991001001999999001001IA2240+02009KA1120N+02301MA1101901999999MD1310161+9999MW1001REMSYN082AAXX  31064 60515 31960 01804 10247 20105 40197 53016 700// 333 02000 20230 95900;MET039DAAD 310600Z 18004KT CAVOK 25/11 Q1019;EQDQ01+000000PRSWM2Q02  00002PRCP99
0091605150999992000073107004+35320+004190FM-15+0461DAAD V0201001N00211220001CN0099001N1+02801+01301999999ADDMA1102001999999MW1001REMMET039DAAD 310700Z 10004KT CAVOK 28/13 Q1020;EQDQ01+000000PRSWM2
0091605150999992000073108004+35320+004190FM-15+0461DAAD V0209999C00001220001CN0099001N1+03001+01101999999ADDMA1102001999999MW1001REMMET039DAAD 310800Z 00000KT CAVOK 30/11 Q1020;EQDQ01+000000PRSWM2
0201605150999992000073109004+35320+004190SY-MT+0461DAAD V0200401N002112200019N0100001N1+03061+01191102081ADDGF100991001001999999001001MA1102001999999MD1210101+9999MW1001REMSYN064AAXX  31094 60515 42960 00404 10306 20119 40208 52010 333 95900;MET039DAAD 310900Z 04004KT CAVOK 31/12 Q1020;EQDQ01+000000PRSWM2
0091605150999992000073111004+35320+004190FM-15+0461DAAD V0200401N00211220001CN0099001N1+03501+01101999999ADDMA1102001999999MW1001REMMET039DAAD 311100Z 04004KT CAVOK 35/11 Q1020;EQDQ01+000000PRSWM2
0234605150999992000073112004+35320+004190SY-MT+0461DAAD V0200701N004112200019N0100001N1+03561+01041101981ADDAA199000091GF100991001001999999001001MA1101901999999MD1810071+9999MW1001REMSYN070AAXX  31124 60515 32960 00708 10356 20104 40198 58007 333 0//00 95900;MET039DAAD 311200Z 07008KT CAVOK 36/10 Q1019;EQDQ01+000000PRSWM2Q02  00002PRCP99
0091605150999992000073113004+35320+004190FM-15+0461DAAD V0201201N00211220001CN0099001N1+03701+01101999999ADDMA1101901999999MW1001REMMET039DAAD 311300Z 12004KT CAVOK 37/11 Q1019;EQDQ01+000000PRSWM2
0091605150999992000073114004+35320+004190FM-15+0461DAAD V0200801N00211220001CN0099001N1+03801+01101999999ADDMA1101801999999MW1001REMMET039DAAD 311400Z 08004KT CAVOK 38/11 Q1018;EQDQ01+000000PRSWM2
0201605150999992000073115004+35320+004190SY-MT+0461DAAD V0201001N003112200019N0100001N1+03821+00841101791ADDGF100991001001999999001001MA1101691999999MD1710181+9999MW1001REMSYN064AAXX  31154 60515 42960 01006 10382 20084 40179 57018 333 95900;MET039DAAD 311500Z 10006KT CAVOK 38/08 Q1017;EQDQ01+000000PRSWM2
0107605150999992000073116004+35320+004190FM-15+0461DAAD V0200401N99999220001CN0099001N1+03801+00801999999ADDMA1101691999999MW1001REMMET039DAAD 311600Z 04062KT CAVOK 38/08 Q1017;EQDQ01+003193WOSPD Q02+000000PRSWM2
0091605150999992000073117004+35320+004190FM-15+0461DAAD V0200801N00211220001CN0099001N1+03801+00801999999ADDMA1101691999999MW1001REMMET039DAAD 311700Z 08004KT CAVOK 38/08 Q1017;EQDQ01+000000PRSWM2
0247605150999992000073118004+35320+004190SY-MT+0461DAAD V0200201N002112200019N0100001N1+03781+00881101751ADDAA199000091GF100991001001999999001001KA1120M+03891MA1101691999999MD1610061+9999MW1001REMSYN070AAXX  31184 60515 32960 00204 10378 20088 40175 56006 333 10389 95900;MET039DAAD 311800Z 02004KT CAVOK 38/09 Q1017;EQDQ01+000000PRSWM2Q02  00002PRCP99
0305605150999992000080106004+35320+004190SY-MT+0461DAAD V0203601N002112200019N0100001N1+02401+00611102081ADDAA199000091GA1021+009909999GF102991021021012501001001IA2240+02209KA1120N+01781MA1102101999999MD1310081+9999MW1001REMSYN094AAXX  01064 60515 31660 23604 10240 20061 40208 53008 700// 82200 333 02200 20178 82833 95900;MET045DAAD 010600Z 36004KT 9999 FEW033 24/06 Q1021;EQDQ01+000000PRSWM2Q02  00002PRCP99
0139605150999992000080107004+35320+004190FM-15+0461DAAD V0200401N003112200019N0112651N1+02601+00401999999ADDGA1021+009909999GF102991999999999999999999MA1102101999999MW1001REMMET045DAAD 010700Z 04006KT 9999 FEW033 26/04 Q1021;EQDQ01+000000PRSWM2
0139605150999992000080108004+35320+004190FM-15+0461DAAD V0203001N001012200019N0112651N1+02801+00501999999ADDGA1021+009909999GF102991999999999999999999MA1102101999999MW1001REMMET045DAAD 010800Z 30002KT 9999 FEW033 28/05 Q1021;EQDQ01+000000PRSWM2
0235605150999992000080109004+35320+004190SY-MT+0461DAAD V0201801N002112200019N0100001N1+03051+00701102201ADDGA1021+009909999GF102991021021012501001001MA1102201999999MD1110111+9999MW1001REMSYN076AAXX  01094 60515 42660 21804 10305 20070 40220 51011 82200 333 82833 95900;MET045DAAD 010900Z 18004KT 9999 FEW033 31/07 Q1022;EQDQ01+000000PRSWM2
0139605150999992000080110004+35320+004190FM-15+0461DAAD V0200801N004112200019N0112651N1+03201+00801999999ADDGA1021+009909999GF102991999999999999999999MA1102201999999MW1001REMMET045DAAD 011000Z 08008KT 9999 FEW033 32/08 Q1022;EQDQ01+000000PRSWM2
0139605150999992000080111004+35320+004190FM-15+0461DAAD V0200501N005112200019N0112651N1+03401+00801999999ADDGA1021+009909999GF102991999999999999999999MA1102201999999MW1001REMMET045DAAD 011100Z 05010KT 9999 FEW033 34/08 Q1022;EQDQ01+000000PRSWM2
0268605150999992000080112004+35320+004190SY-MT+0461DAAD V0200801N004112200019N0100001N1+03501+00841102081ADDAA199000091GA1021+009909999GF101991011021012501001001MA1102001999999MD1810091+9999MW1001REMSYN082AAXX  01124 60515 32660 10808 10350 20084 40208 58009 81200 333 0//00 81833 95900;MET045DAAD 011200Z 08008KT 9999 FEW033 35/08 Q1020;EQDQ01+000000PRSWM2Q02  00002PRCP99
0139605150999992000080114004+35320+004190FM-15+0461DAAD V0200801N004112200019N0112651N1+03701+00601999999ADDGA1021+009909999GF102991999999999999999999MA1101901999999MW1001REMMET045DAAD 011400Z 08008KT 9999 FEW033 37/06 Q1019;EQDQ01+000000PRSWM2
0235605150999992000080115004+35320+004190SY-MT+0461DAAD V0200801N004112200019N0100001N1+03801+00641101951ADDGA1021+009909999GF102991021021012501001001MA1101901999999MD1710141+9999MW1001REMSYN076AAXX  01154 60515 42660 20808 10380 20064 40195 57014 82200 333 82833 95900;MET045DAAD 011500Z 08008KT 9999 FEW033 38/06 Q1019;EQDQ01+000000PRSWM2
0139605150999992000080116004+35320+004190FM-15+0461DAAD V0200601N001012200019N0112651N1+03801+00401999999ADDGA1021+009909999GF102991999999999999999999MA1101801999999MW1001REMMET045DAAD 011600Z 06002KT 9999 FEW033 38/04 Q1018;EQDQ01+000000PRSWM2
0139605150999992000080117004+35320+004190FM-15+0461DAAD V0201001N002112200019N0112651N1+03801+00301999999ADDGA1021+009909999GF102991999999999999999999MA1101801999999MW1001REMMET045DAAD 011700Z 10004KT 9999 FEW033 38/03 Q1018;EQDQ01+000000PRSWM2
0139605150999992000080118004+35320+004190FM-15+0461DAAD V0201201N006212200019N0112651N1+03701+00201999999ADDGA1021+009909999GF102991999999999999999999MA1101801999999MW1001REMMET045DAAD 011800Z 12012KT 9999 FEW033 37/02 Q1018;EQDQ01+000000PRSWM2
0271605150999992000080206004+35320+004190SY-MT+0461DAAD V0203201N003112200019N0100001N1+02501+00691102101ADDAA199000091GF100991001001999999001001IA2240+02009KA1120N+02361MA1102101999999MD1110011+9999MW1001REMSYN082AAXX  02064 60515 31960 03206 10250 20069 40210 51001 700// 333 02000 20236 95900;MET039DAAD 020600Z 32006KT CAVOK 25/07 Q1021;EQDQ01+000000PRSWM2Q02  00002PRCP99
0091605150999992000080207004+35320+004190FM-15+0461DAAD V0203401N00311220001CN0099001N1+02601+00801999999ADDMA1102101999999MW1001REMMET039DAAD 020700Z 34006KT CAVOK 26/08 Q1021;EQDQ01+000000PRSWM2
0091605150999992000080208004+35320+004190FM-15+0461DAAD V0203601N00311220001CN0099001N1+02601+00801999999ADDMA1102101999999MW1001REMMET039DAAD 020800Z 36006KT CAVOK 26/08 Q1021;EQDQ01+000000PRSWM2
0201605150999992000080209004+35320+004190SY-MT+0461DAAD V0200601N002112200019N0100001N1+02951+00841102161ADDGF100991001001999999001001MA1102101999999MD1110051+9999MW1001REMSYN064AAXX  02094 60515 42960 00604 10295 20084 40216 51005 333 95900;MET039DAAD 020900Z 06004KT CAVOK 30/08 Q1021;EQDQ01+000000PRSWM2
0091605150999992000080210004+35320+004190FM-15+0461DAAD V0200601N00211220001CN0099001N1+03201+01001999999ADDMA1102101999999MW1001REMMET039DAAD 021000Z 06004KT CAVOK 32/10 Q1021;EQDQ01+000000PRSWM2
0091605150999992000080211004+35320+004190FM-15+0461DAAD V0203601N00211220001CN0099001N1+03401+00901999999ADDMA1102101999999MW1001REMMET039DAAD 021100Z 36004KT CAVOK 34/09 Q1021;EQDQ01+000000PRSWM2
0234605150999992000080212004+35320+004190SY-MT+0461DAAD V0200601N003112200019N0100001N1+03601+00531102051ADDAA199000091GF100991001001999999001001MA1102001999999MD1810081+9999MW1001REMSYN070AAXX  02124 60515 32960 00606 10360 20053 40205 58008 333 0//00 95900;MET039DAAD 021200Z 06006KT CAVOK 36/05 Q1020;EQDQ01+000000PRSWM2Q02  00002PRCP99
0091605150999992000080213004+35320+004190FM-15+0461DAAD V0200401N00411220001CN0099001N1+03801+00501999999ADDMA1101901999999MW1001REMMET039DAAD 021300Z 04008KT CAVOK 38/05 Q1019;EQDQ01+000000PRSWM2
0140605150999992000080214004+35320+004190FM-15+0461DAAD V0200401N002112200019N0112651N1+03701+00001999999ADDGA1021+009909999GF104991999999999999999999MA1101901999999MW1001REMMET046DAAD 021400Z 04004KT 9999 SCT033 37/M00 Q1019;EQDQ01+000000PRSWM2
0235605150999992000080215004+35320+004190SY-MT+0461DAAD V0200601N002112200019N0100001N1+03761+00331101931ADDGA1021+009909999GF103991031021008001001001MA1101901999999MD1710131+9999MW1001REMSYN076AAXX  02154 60515 42560 30604 10376 20033 40193 57013 83200 333 83833 95900;MET045DAAD 021500Z 06004KT 9999 SCT033 38/03 Q1019;EQDQ01+000000PRSWM2
0091605150999992000080216004+35320+004190FM-15+0461DAAD V0200401N00211220001CN0099001N1+03801+00401999999ADDMA1101901999999MW1001REMMET039DAAD 021600Z 04004KT CAVOK 38/04 Q1019;EQDQ01+000000PRSWM2
0091605150999992000080217004+35320+004190FM-15+0461DAAD V0201201N00311220001CN0099001N1+03801+00401999999ADDMA1101801999999MW1001REMMET039DAAD 021700Z 12006KT CAVOK 38/04 Q1018;EQDQ01+000000PRSWM2
0281605150999992000080218004+35320+004190SY-MT+0461DAAD V0201601N002112200019N0100001N1+03731+00451101811ADDAA199000091GA1021+012009999GF103991031021012501001001KA1120M+03851MA1101801999999MD1710111+9999MW1001REMSYN082AAXX  02184 60515 32660 31604 10373 20045 40181 57011 83200 333 10385 83840 95900;MET045DAAD 021800Z 16004KT 9999 SCT040 37/05 Q1018;EQDQ01+000000PRSWM2Q02  00002PRCP99
0271605150999992000080306004+35320+004190SY-MT+0461DAAD V0201601N002112200019N0100001N1+02361+00771101891ADDAA199000091GF100991001001999999001001IA2240+02009KA1120N+02251MA1101801999999MD1110011+9999MW1001REMSYN082AAXX  03064 60515 31960 01604 10236 20077 40189 51001 700// 333 02000 20225 95900;MET039DAAD 030600Z 16004KT CAVOK 24/08 Q1018;EQDQ01+000000PRSWM2Q02  00002PRCP99
0091605150999992000080307004+35320+004190FM-15+0461DAAD V0200201N00211220001CN0099001N1+02601+00901999999ADDMA1101901999999MW1001REMMET039DAAD 030700Z 02004KT CAVOK 26/09 Q1019;EQDQ01+000000PRSWM2
0229605150999992000080309004+35320+004190SY-MT+0461DAAD V0200601N003112200019N0100001N1+03001+00791101961ADDGA1021+060009019GF102991001001999999001021MA1101901999999MD1110071+9999MW1001REMSYN076AAXX  03094 60515 42960 20606 10300 20079 40196 51007 80002 333 82070 95900;MET039DAAD 030900Z 06006KT CAVOK 30/08 Q1019;EQDQ01+000000PRSWM2
0139605150999992000080310004+35320+004190FM-15+0461DAAD V0200601N002112200019N0112651N1+03301+01001999999ADDGA1021+009909999GF102991999999999999999999MA1101901999999MW1001REMMET045DAAD 031000Z 06004KT 9999 FEW033 33/10 Q1019;EQDQ01+000000PRSWM2
0139605150999992000080311004+35320+004190FM-15+0461DAAD V0201401N003112200019N0112651N1+03601+00701999999ADDGA1021+009909999GF102991999999999999999999MA1101801999999MW1001REMMET045DAAD 031100Z 14006KT 9999 FEW033 36/07 Q1018;EQDQ01+000000PRSWM2
0284605150999992000080312004+35320+004190SY-MT+0461DAAD V0203601N003110090019N0100001N1+03641+00811101751ADDAA199000091GA1071+009009999GF199999061021008001001001MA1101691999999MD1810181+9999MW1001REMSYN082AAXX  03124 60515 32560 63606 10364 20081 40175 58018 86200 333 0//00 86830 95900;MET045DAAD 031200Z 36006KT 9999 BKN030 36/08 Q1017;EQDQ01+000062SCOTCVQ02+000000PRSWM2Q03  00002PRCP99
0139605150999992000080313004+35320+004190FM-15+0461DAAD V0201601N005110090019N0112651N1+03601+00601999999ADDGA1071+009009999GF107991999999999999999999MA1101591999999MW1001REMMET045DAAD 031300Z 16010KT 9999 BKN030 36/06 Q1016;EQDQ01+000000PRSWM2
0235605150999992000080315004+35320+004190SY-MT+0461DAAD V0200601N003112200019N0100001N1+03901+00671101441ADDGA1021+009909999GF103991021021012501001021MA1101391999999MD1710301+9999MW1001REMSYN076AAXX  03154 60515 42660 30606 10390 20067 40144 57030 82202 333 82833 95900;MET045DAAD 031500Z 06006KT 9999 FEW033 39/07 Q1014;EQDQ01+000000PRSWM2
0139605150999992000080316004+35320+004190FM-15+0461DAAD V0201001N003112200019N0112651N1+03901+00701999999ADDGA1021+009909999GF102991999999999999999999MA1101291999999MW1001REMMET045DAAD 031600Z 10006KT 9999 FEW033 39/07 Q1013;EQDQ01+000000PRSWM2
0139605150999992000080317004+35320+004190FM-15+0461DAAD V0201801N002112200019N0112651N1+03901+00601999999ADDGA1021+009909999GF102991999999999999999999MA1101391999999MW1001REMMET045DAAD 031700Z 18004KT 9999 FEW033 39/06 Q1014;EQDQ01+000000PRSWM2
0281605150999992000080318004+35320+004190SY-MT+0461DAAD V0202601N010312200019N0100001N1+03701+00561101501ADDAA199000091GA1021+009009999GF104991031021008001001021KA1120M+03951MA1101491999999MD1310031+9999MW1001REMSYN082AAXX  03184 60515 32560 42620 10370 20056 40150 53003 83202 333 10395 83830 95900;MET045DAAD 031800Z 26020KT 9999 SCT030 37/06 Q1015;EQDQ01+000000PRSWM2Q02  00002PRCP99
0203605150999992000080406004+35320+004190FM-12+0461DAAD V0201801N002112200019N0270001N1+02701+01011101481ADDAA199000091GA1031+009909089GF103991031021008001001001IA2240+01909KA1120N+02571MW1001REMSYN088AAXX  04064 60515 31577 31804 10270 20101 40148 700// 83200 333 01900 20257 83833 95900;EQDQ01  00002PRCP99
0155605150999992000080407004+35320+004190FM-15+0461DAAD V0203601N002112200019N9999999N1+02801+01001999999ADDGA1021+009909999GF104991999999999999999999MA1101491999999MW1001REMMET045DAAD 040700Z 36004KT 7000 SCT033 28/10 Q1015;EQDQ01+070002VODIS Q02+000000PRSWM2
0136605150999992000080408004+35320+004190FM-15+0461DAAD V0200801N002112200019N9999999N1+03101+01201999999ADDGF100991999999999999999999MA1101491999999MW1001REMMET042DAAD 040800Z 08004KT 7000 SKC 31/12 Q1015;EQDQ01+070002VODIS Q02+000000PRSWM2
0251605150999992000080409004+35320+004190SY-MT+0461DAAD V0203201N002112200019N9999999N1+03281+01161101491ADDGA1021+060009999GF103991001001999999001021MA1101391999999MD1110031+9999MW1001REMSYN076AAXX  04094 60515 42957 33204 10328 20116 40149 51003 80002 333 83070 95900;MET045DAAD 040900Z 32004KT 7000 SCT200 33/12 Q1014;EQDQ01+070002VODIS Q02+000000PRSWM2
0155605150999992000080410004+35320+004190FM-15+0461DAAD V0200201N002112200019N9999999N1+03401+01101999999ADDGA1021+060009999GF102991999999999999999999MA1101391999999MW1001REMMET045DAAD 041000Z 02004KT 7000 FEW200 34/11 Q1014;EQDQ01+070002VODIS Q02+000000PRSWM2
0155605150999992000080411004+35320+004190FM-15+0461DAAD V0200401N003112200019N9999999N1+03501+01101999999ADDGA1021+060009999GF102991999999999999999999MA1101391999999MW1001REMMET045DAAD 041100Z 04006KT 7000 FEW200 35/11 Q1014;EQDQ01+070002VODIS Q02+000000PRSWM2
0284605150999992000080412004+35320+004190SY-MT+0461DAAD V0200801N002112200019N9999999N1+03671+01081101331ADDAA199000091GA1021+024009999GF104991031001999999071021MA1101291999999MD1810141+9999MW1001REMSYN082AAXX  04124 60515 32957 40804 10367 20108 40133 58014 83072 333 0//00 83358 95900;MET045DAAD 041200Z 08004KT 7000 SCT080 37/11 Q1013;EQDQ01+070002VODIS Q02+000000PRSWM2Q03  00002PRCP99
0178605150999992000080413004+35320+004190FM-15+0461DAAD V0201401N003112200019N9999999N1+03701+01001999999ADDGA1021+012009999GA2021+024009999GF104991999999999999999999MA1101191999999MW1001REMMET052DAAD 041300Z 14006KT 7000 FEW040 SCT080 37/10 Q1012;EQDQ01+070002VODIS Q02+000000PRSWM2
0155605150999992000080414004+35320+004190FM-15+0461DAAD V0200801N002112200019N9999999N1+03701+01001999999ADDGA1021+009909999GF104991999999999999999999MA1101081999999MW1001REMMET045DAAD 041400Z 08004KT 7000 SCT033 37/10 Q1011;EQDQ01+070002VODIS Q02+000000PRSWM2
0267605150999992000080415004+35320+004190SY-MT+0461DAAD V0202801N009310099019N9999999N1+03701+00771101171ADDGA1071+009909999GF199999061021008001071001MA1101081999999MD1710181+9999MW1001REMSYN076AAXX  04154 60515 42557 62818 10370 20077 40117 57018 86270 333 86833 95900;MET045DAAD 041500Z 28018KT 7000 BKN033 37/08 Q1011;EQDQ01+000062SCOTCVQ02+070002VODIS Q03+000000PRSWM2
0155605150999992000080416004+35320+004190FM-15+0461DAAD V0202401N011310099019N9999999N1+03401+01501999999ADDGA1071+009909999GF107991999999999999999999MA1101191999999MW1001REMMET045DAAD 041600Z 24022KT 6000 BKN033 34/15 Q1012;EQDQ01+060002VODIS Q02+000000PRSWM2
0139605150999992000080417004+35320+004190FM-15+0461DAAD V0203201N009312200019N0070001N1+03301+01501999999ADDGA1021+009909999GF104991999999999999999999MA1101191999999MW1001REMMET045DAAD 041700Z 32018KT 7000 SCT033 33/15 Q1012;EQDQ01+000000PRSWM2
0250605150999992000080418004+35320+004190SY-MT+0461DAAD V0203201N011312200019N0060001N1+03001+01521101401ADDAA199000091GF100991001001999999001001KA1120M+03801MA1101391999999MD1310171+9999MW1001REMSYN070AAXX  04184 60515 32956 03222 10300 20152 40140 53017 333 10380 95900;MET042DAAD 041800Z 32022KT 6000 SKC 30/15 Q1014;EQDQ01+000000PRSWM2Q02  00002PRCP99
0305605150999992000080506004+35320+004190SY-MT+0461DAAD V0203201N004112200019N0100001N1+02341+01571101771ADDAA199000091GA1021+009909999GF102991021021012501001001IA2240+01909KA1120N+02201MA1101691999999MD1310061+9999MW1001REMSYN094AAXX  05064 60515 31660 23208 10234 20157 40177 53006 700// 82200 333 01900 20220 82833 95900;MET045DAAD 050600Z 32008KT 9999 FEW033 23/16 Q1017;EQDQ01+000000PRSWM2Q02  00002PRCP99
0139605150999992000080507004+35320+004190FM-15+0461DAAD V0203201N005112200019N0112651N1+02401+01601999999ADDGA1021+009909999GF102991999999999999999999MA1101691999999MW1001REMMET045DAAD 050700Z 32010KT 9999 FEW033 24/16 Q1017;EQDQ01+000000PRSWM2
0091605150999992000080508004+35320+004190FM-15+0461DAAD V0203401N00511220001CN0099001N1+02501+01501999999ADDMA1101801999999MW1001REMMET039DAAD 050800Z 34010KT CAVOK 25/15 Q1018;EQDQ01+000000PRSWM2
0235605150999992000080509004+35320+004190SY-MT+0461DAAD V0203601N004112200019N0100001N1+02651+01531101831ADDGA1021+009909999GF102991021021012501001001MA1101801999999MD1210061+9999MW1001REMSYN076AAXX  05094 60515 42660 23608 10265 20153 40183 52006 82200 333 82833 95900;MET045DAAD 050900Z 36008KT 9999 FEW033 27/15 Q1018;EQDQ01+000000PRSWM2
0139605150999992000080510004+35320+004190FM-15+0461DAAD V0203601N003112200019N0112651N1+02801+01501999999ADDGA1021+009009999GF104991999999999999999999MA1101801999999MW1001REMMET045DAAD 051000Z 36006KT 9999 SCT030 28/15 Q1018;EQDQ01+000000PRSWM2
0139605150999992000080511004+35320+004190FM-15+0461DAAD V0203601N004112200019N0112651N1+02901+01401999999ADDGA1021+009009999GF104991999999999999999999MA1101801999999MW1001REMMET045DAAD 051100Z 36008KT 9999 SCT030 29/14 Q1018;EQDQ01+000000PRSWM2
0268605150999992000080512004+35320+004190SY-MT+0461DAAD V0203601N005112200019N0100001N1+03051+01251101751ADDAA199000091GA1021+009009999GF103991031021008001001001MA1101691999999MD1710081+9999MW1001REMSYN082AAXX  05124 60515 32560 33610 10305 20125 40175 57008 83200 333 0//00 83830 95900;MET045DAAD 051200Z 36010KT 9999 SCT030 31/13 Q1017;EQDQ01+000000PRSWM2Q02  00002PRCP99
0139605150999992000080513004+35320+004190FM-15+0461DAAD V0203001N001012200019N0112651N1+03101+01201999999ADDGA1021+009009999GF104991999999999999999999MA1101691999999MW1001REMMET045DAAD 051300Z 30002KT 9999 SCT030 31/12 Q1017;EQDQ01+000000PRSWM2
0139605150999992000080514004+35320+004190FM-15+0461DAAD V0203601N004112200019N0112651N1+03201+01101999999ADDGA1021+009009999GF104991999999999999999999MA1101591999999MW1001REMMET045DAAD 051400Z 36008KT 9999 SCT030 32/11 Q1016;EQDQ01+000000PRSWM2
0235605150999992000080515004+35320+004190SY-MT+0461DAAD V0203401N005112200019N0100001N1+03251+00901101611ADDGA1021+009009999GF103991031021008001001001MA1101591999999MD1710111+9999MW1001REMSYN076AAXX  05154 60515 42560 33410 10325 20090 40161 57011 83200 333 83830 95900;MET045DAAD 051500Z 34010KT 9999 SCT030 33/09 Q1016;EQDQ01+000000PRSWM2
0281605150999992000080518004+35320+004190SY-MT+0461DAAD V0203601N005112200019N0100001N1+03181+00721101581ADDAA199000091GA1021+009009999GF103991031021008001001001KA1120M+03301MA1101491999999MD1610031+9999MW1001REMSYN082AAXX  05184 60515 32560 33610 10318 20072 40158 56003 83200 333 10330 83830 95900;MET045DAAD 051800Z 36010KT 9999 SCT030 32/07 Q1015;EQDQ01+000000PRSWM2Q02  00002PRCP99
0304605150999992000080606004+35320+004190SY-MT+0461DAAD V0203401N004112200019N0100001N1+02131+01251101931ADDAA199000091GA1021+009909999GF103991021021008001001071IA2240+01809KA1120N+02081MA1101901999999MD1310031+9999MW1001REMSYN094AAXX  06064 60515 31560 33408 10213 20125 40193 53003 700// 82207 333 01800 20208 82833 95900;MET044DAAD 060600Z 3408KT 9999 FEW033 21/13 Q1019;EQDQ01+000000PRSWM2Q02  00002PRCP99
0091605150999992000080607004+35320+004190FM-15+0461DAAD V0203401N00311220001CN0099001N1+02201+01301999999ADDMA1101901999999MW1001REMMET039DAAD 060700Z 34006KT CAVOK 22/13 Q1019;EQDQ01+000000PRSWM2
0139605150999992000080608004+35320+004190FM-15+0461DAAD V0203601N002112200019N0112651N1+02401+01401999999ADDGA1021+012009999GF104991999999999999999999MA1101901999999MW1001REMMET045DAAD 060800Z 36004KT 9999 SCT040 24/14 Q1019;EQDQ01+000000PRSWM2
0235605150999992000080609004+35320+004190SY-MT+0461DAAD V0200601N002112200019N0100001N1+02601+01411101991ADDGA1021+012009999GF103991031021012501001001MA1101901999999MD1010051+9999MW1001REMSYN076AAXX  06094 60515 42660 30604 10260 20141 40199 50005 83200 333 83840 95900;MET045DAAD 060900Z 06004KT 9999 SCT040 26/14 Q1019;EQDQ01+000000PRSWM2
0139605150999992000080610004+35320+004190FM-15+0461DAAD V0203401N002112200019N0112651N1+02801+01501999999ADDGA1021+012009999GF104991999999999999999999MA1102001999999MW1001REMMET045DAAD 061000Z 34004KT 9999 SCT040 28/15 Q1020;EQDQ01+000000PRSWM2
0139605150999992000080611004+35320+004190FM-15+0461DAAD V0200601N002110120019N0112651N1+03001+01601999999ADDGA1071+012009999GF107991999999999999999999MA1101901999999MW1001REMMET045DAAD 061100Z 06004KT 9999 BKN040 30/16 Q1019;EQDQ01+000000PRSWM2
0299605150999992000080612004+35320+004190SY-MT+0461DAAD V0203001N004110099019N0080001N1+03021+01671101861ADDAA199000091GA1021+009009099GA2071+009909999GF108991081091008001999999MA1101801999999MD1810111+9999MW1001REMSYN088AAXX  06124 60515 32558 83008 10302 20167 40186 58011 889// 333 0//00 83930 85833 95900;MET054DAAD 061200Z 30008KT 8000 SCT030CB BKN033 30/17 Q1018;EQDQ01+000000PRSWM2Q02  00002PRCP99
0160605150999992000080613004+35320+004190FM-15+0461DAAD V0200201N002110099019N0112651N1+02301+99999999999ADDGA1071+009909999GF107991999999999999999999MA1101801999999MW1001REMMET050DAAD 061300Z 02004KT 9999 BKN033 23/08 Q1018 RERA;EQDQ01+000803ATOD  Q02+000000PRSWM2
0240605150999992000080615004+35320+004190SY-MT+0461DAAD V0209999C000010090019N0080001N1+02081+01911102191ADDGA1081+009009999GF108991081021008001001001MA1102101999999MD1310211+9999MW1001REMSYN076AAXX  06154 60515 42558 80000 10208 20191 40219 53021 88200 333 88830 95900;MET050DAAD 061500Z 00000KT 8000 OVC030 21/19 Q1021 RERA;EQDQ01+000000PRSWM2
0139605150999992000080616004+35320+004190FM-15+0461DAAD V0201601N002110090019N0080001N1+02101+01901999999ADDGA1071+009009999GF107991999999999999999999MA1102101999999MW1001REMMET045DAAD 061600Z 16004KT 8000 BKN030 21/19 Q1021;EQDQ01+000000PRSWM2
0139605150999992000080617004+35320+004190FM-15+0461DAAD V0201401N005110090019N0112651N1+02301+01901999999ADDGA1071+009009999GF107991999999999999999999MA1102001999999MW1001REMMET045DAAD 061700Z 14010KT 9999 BKN030 23/19 Q1020;EQDQ01+000000PRSWM2
0271605150999992000080618004+35320+004190SY-MT+0461DAAD V0200601N003112200019N0100001N1+02301+01881102031ADDAA112016091GA1021+009009999GF104991041081008001001001KA1120M+03101MA1102001999999MD1510141+9999MW1001REMSYN088AAXX  06184 60515 12560 40606 10230 20188 40203 55014 60162 84800 333 10310 84830 95900;MET045DAAD 061800Z 06006KT 9999 SCT030 23/19 Q1020;EQDQ01+000000PRSWM2
0261605150999992000080706004+35320+004190SY-MT+0461DAAD V0203201N002112200019N0100001N1+01941+01711102131ADDAA124016091GF100991001001999999001001IA2240+01609KA1120N+01881MA1102101999999MD1610011+9999MW1001REMSYN088AAXX  07064 60515 11960 03204 10194 20171 40213 56001 60164 700// 333 01600 20188 95900;MET039DAAD 070600Z 32004KT CAVOK 19/17 Q1021;EQDQ01+000000PRSWM2
0139605150999992000080707004+35320+004190FM-15+0461DAAD V0209999C000012200019N0112651N1+02101+01701999999ADDGA1021+009909999GF102991999999999999999999MA1102101999999MW1001REMMET045DAAD 070700Z 00000KT 9999 FEW033 21/17 Q1021;EQDQ01+000000PRSWM2
0139605150999992000080708004+35320+004190FM-15+0461DAAD V0209999C000012200019N0112651N1+02201+01701999999ADDGA1021+009909999GF102991999999999999999999MA1102101999999MW1001REMMET045DAAD 070800Z 00000KT 9999 FEW033 22/17 Q1021;EQDQ01+000000PRSWM2
0144605150999992000080709004+35320+004190FM-12+0461DAAD V0209999C000012200019N0100001N1+02361+01801102161ADDGA1021+009009089GF102991021021012501001001MD1310051+9999REMSYN076AAXX  07094 60515 42660 20000 10236 20180 40216 53005 82200 333 82830 95900;
0139605150999992000080711004+35320+004190FM-15+0461DAAD V0201001N002112200019N0112651N1+02501+01901999999ADDGA1021+009909999GF102991999999999999999999MA1102101999999MW1001REMMET045DAAD 071100Z 10004KT 9999 FEW033 25/19 Q1021;EQDQ01+000000PRSWM2
0268605150999992000080712004+35320+004190SY-MT+0461DAAD V0200801N003112200019N0100001N1+02601+01781102081ADDAA199000091GA1021+009909999GF102991021021012501001001MA1102001999999MD1810061+9999MW1001REMSYN082AAXX  07124 60515 32660 20806 10260 20178 40208 58006 82200 333 0//00 82833 95900;MET045DAAD 071200Z 08006KT 9999 FEW033 26/18 Q1020;EQDQ01+000000PRSWM2Q02  00002PRCP99
0139605150999992000080714004+35320+004190FM-15+0461DAAD V0201001N003112200019N0112651N1+02901+01801999999ADDGA1021+009909999GF102991999999999999999999MA1101901999999MW1001REMMET045DAAD 071400Z 10006KT 9999 FEW033 29/18 Q1019;EQDQ01+000000PRSWM2
0139605150999992000080716004+35320+004190FM-15+0461DAAD V0200801N005112200019N0112651N1+03001+01801999999ADDGA1021+009909999GF102991999999999999999999MA1101801999999MW1001REMMET045DAAD 071600Z 08010KT 9999 FEW033 30/18 Q1018;EQDQ01+000000PRSWM2
0139605150999992000080717004+35320+004190FM-15+0461DAAD V0200601N003112200019N0112651N1+03001+01801999999ADDGA1021+009909999GF102991999999999999999999MA1101801999999MW1001REMMET045DAAD 071700Z 06006KT 9999 FEW033 30/18 Q1018;EQDQ01+000000PRSWM2
0281605150999992000080718004+35320+004190SY-MT+0461DAAD V0200801N004112200019N0100001N1+02991+01781101791ADDAA199000091GA1021+009909999GF102991021021012501001001KA1120M+03021MA1101691999999MD1610091+9999MW1001REMSYN082AAXX  07184 60515 32660 20808 10299 20178 40179 56009 82200 333 10302 82833 95900;MET045DAAD 071800Z 08008KT 9999 FEW033 30/18 Q1017;EQDQ01+000000PRSWM2Q02  00002PRCP99
0324605150999992000080806004+35320+004190SY-MT+0461DAAD V0209999C00001036001CN0080001N1+02161+01941101861ADDAA124004191GA1021+009909999GA2021+024009999GF107991041081008001011001IA2240+01709KA1120N+02111MA1101801999999MD1110051+9999MW1001REMSYN106AAXX  08064 60515 11558 70000 10216 20194 40186 51005 60044 700// 84810 333 01700 20211 84833 83358 95900;MET052DAAD 080600Z 00000KT 8000 SCT033 SCT080 22/19 Q1018;EQDQ01+000000PRSWM2
0139605150999992000080807004+35320+004190FM-15+0461DAAD V0209999C000010099019N0080001N1+02201+02001999999ADDGA1071+009909999GF107991999999999999999999MA1101801999999MW1001REMMET045DAAD 080700Z 00000KT 8000 BKN033 22/20 Q1018;EQDQ01+000000PRSWM2
0162605150999992000080808004+35320+004190FM-15+0461DAAD V0203401N002110300019N0080001N1+02501+01801999999ADDGA1021+009909999GA2071+030009999GF107991999999999999999999MA1101901999999MW1001REMMET052DAAD 080800Z 34004KT 8000 SCT033 BKN100 25/18 Q1019;EQDQ01+000000PRSWM2
0264605150999992000080809004+35320+004190SY-MT+0461DAAD V0209999C000010300019N0080001N1+02711+01801101961ADDGA1021+012009999GA2071+030009999GF108991021021012501011999MA1101901999999MD1110091+9999MW1001REMSYN082AAXX  08094 60515 42658 80000 10271 20180 40196 51009 8221/ 333 82840 86360 95900;MET052DAAD 080900Z 00000KT 8000 FEW040 BKN100 27/18 Q1019;EQDQ01+000000PRSWM2
0162605150999992000080810004+35320+004190FM-15+0461DAAD V0209999C000010300019N0080001N1+02801+01801999999ADDGA1021+012009999GA2071+030009999GF107991999999999999999999MA1101901999999MW1001REMMET052DAAD 081000Z 00000KT 8000 SCT040 BKN100 28/18 Q1019;EQDQ01+000000PRSWM2
0268605150999992000080812004+35320+004190SY-MT+0461DAAD V0200401N002110300019N0080001N1+03181+01801101781ADDAA199000091GA1081+030009999GF108991081001999999011999MA1101691999999MD1810151+9999MW1001REMSYN082AAXX  08124 60515 32958 80404 10318 20180 40178 58015 8801/ 333 0//00 88460 95900;MET045DAAD 081200Z 04004KT 8000 OVC100 32/18 Q1017;EQDQ01+000000PRSWM2Q02  00002PRCP99
0139605150999992000080813004+35320+004190FM-15+0461DAAD V0200801N002110300019N0080001N1+03401+01801999999ADDGA1081+030009999GF108991999999999999999999MA1101691999999MW1001REMMET045DAAD 081300Z 08004KT 8000 OVC100 34/18 Q1017;EQDQ01+000000PRSWM2
0155605150999992000080814004+35320+004190FM-15+0461DAAD V0200601N002110300019N9999999N1+03401+01601999999ADDGA1081+030009999GF108991999999999999999999MA1101591999999MW1001REMMET045DAAD 081400Z 06004KT 7000 OVC100 34/16 Q1016;EQDQ01+070002VODIS Q02+000000PRSWM2
0283605150999992000080815004+35320+004190SY-MT+0461DAAD V0202801N002110300019N9999999N1+03421+01631101561ADDGA1021+012009029GA2071+030009999GF108991021021012501011999MA1101491999999MD1710191+9999MW1001REMSYN082AAXX  08154 60515 42656 82804 10342 20163 40156 57019 8221/ 333 82840 86460 95900;MET055DAAD 081500Z 28004KT 6000 FEW040TCU BKN100 34/16 Q1015;EQDQ01+060002VODIS Q02+000000PRSWM2
0178605150999992000080816004+35320+004190FM-15+0461DAAD V0202601N002110300019N9999999N1+03501+01601999999ADDGA1021+012009999GA2071+030009999GF107991999999999999999999MA1101491999999MW1001REMMET052DAAD 081600Z 26004KT 6000 FEW040 BKN100 35/16 Q1015;EQDQ01+060002VODIS Q02+000000PRSWM2
0162605150999992000080817004+35320+004190FM-15+0461DAAD V0201401N004110300019N0080001N1+03301+01501999999ADDGA1021+012009999GA2071+030009999GF107991999999999999999999MA1101491999999MW1001REMMET052DAAD 081700Z 14008KT 8000 FEW040 BKN100 33/15 Q1015;EQDQ01+000000PRSWM2
0215605150999992000080818004+35320+004190FM-12+0461DAAD V0201401N003110600019N0080001N1+03241+01711101511ADDAA199000091GA1011+012009089GA2051+060009029GF107991011021012501071071KA1120M+03501MD1710081+9999REMSYN088AAXX  08184 60515 32658 71406 10324 20171 40151 57008 81277 333 10350 81840 85270 95900;EQDQ01  00002PRCP99
0274605150999992000080906004+35320+004190SY-MT+0461DAAD V0202201N001012200019N0080001N1+02301+01771101731ADDAA199000091GF100991001001999999001001IA2240+02009KA1120N+02261MA1101691999999MD1310031+9999MW1001REMSYN082AAXX  09064 60515 31958 02202 10230 20177 40173 53003 700// 333 02000 20226 95900;MET042DAAD 090600Z 22002KT 8000 SKC 23/18 Q1017;EQDQ01+000000PRSWM2Q02  00002PRCP99
0120605150999992000080907004+35320+004190FM-15+0461DAAD V0202401N002112200019N0080001N1+02601+01601999999ADDGF100991999999999999999999MA1101691999999MW1001REMMET042DAAD 090700Z 24004KT 8000 SKC 26/16 Q1017;EQDQ01+000000PRSWM2
0120605150999992000080908004+35320+004190FM-15+0461DAAD V0202001N001012200019N0080001N1+02901+01501999999ADDGF100991999999999999999999MA1101691999999MW1001REMMET042DAAD 090800Z 20002KT 8000 SKC 29/15 Q1017;EQDQ01+000000PRSWM2
0204605150999992000080909004+35320+004190SY-MT+0461DAAD V0200801N003112200019N0080001N1+02951+01411101831ADDGF100991001001999999001001MA1101801999999MD1210111+9999MW1001REMSYN064AAXX  09094 60515 42958 00806 10295 20141 40183 52011 333 95900;MET042DAAD 090900Z 08006KT 8000 SKC 30/14 Q1018;EQDQ01+000000PRSWM2
0120605150999992000080910004+35320+004190FM-15+0461DAAD V0201001N003112200019N0080001N1+03101+01501999999ADDGF100991999999999999999999MA1101801999999MW1001REMMET042DAAD 091000Z 10006KT 8000 SKC 31/15 Q1018;EQDQ01+000000PRSWM2
0120605150999992000080911004+35320+004190FM-15+0461DAAD V0201001N004112200019N0080001N1+03301+01601999999ADDGF100991999999999999999999MA1101801999999MW1001REMMET042DAAD 091100Z 10008KT 8000 SKC 33/16 Q1018;EQDQ01+000000PRSWM2
0237605150999992000080912004+35320+004190SY-MT+0461DAAD V0203001N003112200019N0080001N1+03351+01571101741ADDAA199000091GF100991001001999999001001MA1101691999999MD1810051+9999MW1001REMSYN070AAXX  09124 60515 32958 03006 10335 20157 40174 58005 333 0//00 95900;MET042DAAD 091200Z 30006KT 8000 SKC 34/16 Q1017;EQDQ01+000000PRSWM2Q02  00002PRCP99
0120605150999992000080913004+35320+004190FM-15+0461DAAD V0203001N004112200019N0080001N1+03401+01501999999ADDGF100991999999999999999999MA1101591999999MW1001REMMET042DAAD 091300Z 30008KT 8000 SKC 34/15 Q1016;EQDQ01+000000PRSWM2
0120605150999992000080914004+35320+004190FM-15+0461DAAD V0202001N003112200019N0080001N1+03601+01401999999ADDGF100991999999999999999999MA1101591999999MW1001REMMET042DAAD 091400Z 20006KT 8000 SKC 36/14 Q1016;EQDQ01+000000PRSWM2
0231605150999992000080915004+35320+004190SY-MT+0461DAAD V0203401N003112200019N0100001N1+03601+00841999999ADDGF101991011021008001001001MA1101491092801MD1610131+9999ME1315719MW1001REMSYN082AAXX  09154 60515 42560 13406 10360 20084 39280 48571 56013 81200 333 81826 95900;MET042DAAD 091500Z 30010KT 8000 SKC 36/08 Q1015;EQDQ01+000000PRSWM2
0120605150999992000080916004+35320+004190FM-15+0461DAAD V0200601N003112200019N0080001N1+03601+00701999999ADDGF100991999999999999999999MA1101391999999MW1001REMMET042DAAD 091600Z 06006KT 8000 SKC 36/07 Q1014;EQDQ01+000000PRSWM2
0120605150999992000080917004+35320+004190FM-15+0461DAAD V0200401N005112200019N0080001N1+03601+00901999999ADDGF100991999999999999999999MA1101391999999MW1001REMMET042DAAD 091700Z 04010KT 8000 SKC 36/09 Q1014;EQDQ01+000000PRSWM2
0250605150999992000080918004+35320+004190SY-MT+0461DAAD V0200601N002112200019N0080001N1+03521+01131101541ADDAA199000091GF100991001001999999001001KA1120M+03651MA1101491999999MD1510081+9999MW1001REMSYN070AAXX  09184 60515 32958 00604 10352 20113 40154 55008 333 10365 95900;MET042DAAD 091800Z 06004KT 8000 SKC 35/11 Q1015;EQDQ01+000000PRSWM2Q02  00002PRCP99
0271605150999992000081006004+35320+004190SY-MT+0461DAAD V0202001N002112200019N0100001N1+02281+01211101721ADDAA199000091GF100991001001999999001001IA2240+01709KA1120N+02071MA1101691999999MD1510001+9999MW1001REMSYN082AAXX  10064 60515 31960 02004 10228 20121 40172 55000 700// 333 01700 20207 95900;MET039DAAD 100600Z 20004KT CAVOK 23/12 Q1017;EQDQ01+000000PRSWM2Q02  00002PRCP99
0091605150999992000081007004+35320+004190FM-15+0461DAAD V0203001N00211220001CN0099001N1+02401+01201999999ADDMA1101691999999MW1001REMMET039DAAD 100700Z 30004KT CAVOK 24/12 Q1017;EQDQ01+000000PRSWM2
0091605150999992000081008004+35320+004190FM-15+0461DAAD V0203001N00211220001CN0099001N1+02701+01201999999ADDMA1101691999999MW1001REMMET039DAAD 100800Z 30004KT CAVOK 27/12 Q1017;EQDQ01+000000PRSWM2
0091605150999992000081009004+35320+004190FM-15+0461DAAD V0203401N00211220001CN0099001N1+03001+00801999999ADDMA1101801999999MW1001REMMET039DAAD 100900Z 34004KT CAVOK 30/08 Q1018;EQDQ01+000000PRSWM2
0091605150999992000081010004+35320+004190FM-15+0461DAAD V0203601N00511220001CN0099001N1+03101+00401999999ADDMA1101801999999MW1001REMMET039DAAD 101000Z 36010KT CAVOK 31/04 Q1018;EQDQ01+000000PRSWM2
0091605150999992000081011004+35320+004190FM-15+0461DAAD V0203401N00411220001CN0099001N1+03201+00401999999ADDMA1101801999999MW1001REMMET039DAAD 101100Z 34008KT CAVOK 32/04 Q1018;EQDQ01+000000PRSWM2
0234605150999992000081012004+35320+004190SY-MT+0461DAAD V0200401N003112200019N0100001N1+03311+00201101831ADDAA199000091GF100991001001999999001001MA1101801999999MD1810021+9999MW1001REMSYN070AAXX  10124 60515 32960 00406 10331 20020 40183 58002 333 0//00 95900;MET039DAAD 101200Z 04006KT CAVOK 33/02 Q1018;EQDQ01+000000PRSWM2Q02  00002PRCP99
0091605150999992000081013004+35320+004190FM-15+0461DAAD V0200601N00511220001CN0099001N1+03401+00301999999ADDMA1101691999999MW1001REMMET039DAAD 101300Z 06010KT CAVOK 34/03 Q1017;EQDQ01+000000PRSWM2
0091605150999992000081014004+35320+004190FM-15+0461DAAD V0200601N00511220001CN0099001N1+03501+00301999999ADDMA1101691999999MW1001REMMET039DAAD 101400Z 06010KT CAVOK 35/03 Q1017;EQDQ01+000000PRSWM2
0092605150999992000081015004+35320+004190FM-15+0461DAAD V0203201N00311220001CN0099001N1+03501-00101999999ADDMA1101591999999MW1001REMMET040DAAD 101500Z 32006KT CAVOK 35/M01 Q1016;EQDQ01+000000PRSWM2
0092605150999992000081016004+35320+004190FM-15+0461DAAD V0203401N00621220001CN0099001N1+03501-00101999999ADDMA1101591999999MW1001REMMET040DAAD 101600Z 34012KT CAVOK 35/M01 Q1016;EQDQ01+000000PRSWM2
0247605150999992000081018004+35320+004190SY-MT+0461DAAD V0200201N005112200019N0100001N1+03391+00291101651ADDAA199000091GF100991001001999999001001KA1120M+03591MA1101591999999MD1510041+9999MW1001REMSYN070AAXX  10184 60515 32960 00210 10339 20029 40165 55004 333 10359 95900;MET039DAAD 101800Z 02010KT CAVOK 34/03 Q1016;EQDQ01+000000PRSWM2Q02  00002PRCP99
0091605150999992000081108004+35320+004190FM-15+0461DAAD V0200601N00211220001CN0099001N1+02501+00701999999ADDMA1101901999999MW1001REMMET039DAAD 110800Z 06004KT CAVOK 25/07 Q1019;EQDQ01+000000PRSWM2
0201605150999992000081109004+35320+004190SY-MT+0461DAAD V0200601N002112200019N0100001N1+02701+00931101891ADDGF100991001001999999001001MA1101801999999MD1010031+9999MW1001REMSYN064AAXX  11094 60515 42960 00604 10270 20093 40189 50003 333 95900;MET039DAAD 110900Z 06004KT CAVOK 27/09 Q1018;EQDQ01+000000PRSWM2
0091605150999992000081110004+35320+004190FM-15+0461DAAD V0200601N00311220001CN0099001N1+02901+00801999999ADDMA1101801999999MW1001REMMET039DAAD 111000Z 06006KT CAVOK 29/08 Q1018;EQDQ01+000000PRSWM2
0091605150999992000081111004+35320+004190FM-15+0461DAAD V0201001N00211220001CN0099001N1+03001+01001999999ADDMA1101801999999MW1001REMMET039DAAD 111100Z 10004KT CAVOK 30/10 Q1018;EQDQ01+000000PRSWM2
0168605150999992000081112004+35320+004190FM-12+0461DAAD V0200201N002112200019N0100001N1+03201+01071101741ADDAA199000091GA1001+999999999GF100991001001999999001001MD1810111+9999REMSYN070AAXX  11124 60515 32960 00204 10320 20107 40174 58011 333 0//00 95900;EQDQ01  00002PRCP99
0091605150999992000081113004+35320+004190FM-15+0461DAAD V0201001N00311220001CN0099001N1+03401+00801999999ADDMA1101691999999MW1001REMMET039DAAD 111300Z 10006KT CAVOK 34/08 Q1017;EQDQ01+000000PRSWM2
0201605150999992000081115004+35320+004190SY-MT+0461DAAD V0200601N002112200019N0100001N1+03551+00801101481ADDGF100991001001999999001001MA1101391999999MD1710211+9999MW1001REMSYN064AAXX  11154 60515 42960 00604 10355 20080 40148 57021 333 95900;MET039DAAD 111500Z 06004KT CAVOK 36/08 Q1014;EQDQ01+000000PRSWM2
0091605150999992000081116004+35320+004190FM-15+0461DAAD V0200401N00311220001CN0099001N1+03601+00601999999ADDMA1101391999999MW1001REMMET039DAAD 111600Z 04006KT CAVOK 36/06 Q1014;EQDQ01+000000PRSWM2
0091605150999992000081117004+35320+004190FM-15+0461DAAD V0201401N00211220001CN0099001N1+03601+00601999999ADDMA1101291999999MW1001REMMET039DAAD 111700Z 14004KT CAVOK 36/06 Q1013;EQDQ01+000000PRSWM2
0247605150999992000081118004+35320+004190SY-MT+0461DAAD V0201401N00211220001CN0100001N1+03541+00621101351ADDAA199000091GF100991001001999999001001KA1120M+03581MA1101291999999MD1710141+9999MW1001REMSYN070AAXX  11184 60515 32960 01404 10354 20062 40135 57014 333 10358 95900;MET039DAAD 111800Z 14004KT CAVOK 35/06 Q1013;EQDQ01+000000PRSWM2Q02  00002PRCP99
0350605150999992000081206004+35320+004190SY-MT+0461DAAD V0202601N005112200019N9999999N1+02871+00841101331ADDAA199000091GA1021+024009999GA2021+060009999GF103991011001999999071021IA2240+02109KA1120N+02331MA1101291999999MD1310081+9999MW1001REMSYN100AAXX  12064 60515 31957 32610 10287 20084 40133 53008 700// 81072 333 02100 20233 81358 83070 95900;MET052DAAD 120600Z 26010KT 7000 FEW080 SCT200 29/08 Q1013;EQDQ01+070002VODIS Q02+000000PRSWM2Q03  00002PRCP99
0155605150999992000081208004+35320+004190FM-15+0461DAAD V0202401N008212200019N9999999N1+03001+00601999999ADDGA1021+060009999GF104991999999999999999999MA1101391999999MW1001REMMET045DAAD 120800Z 24016KT 7000 SCT200 30/06 Q1014;EQDQ01+070002VODIS Q02+000000PRSWM2
0132605150999992000081209004+35320+004190FM-12+0461DAAD V0202601N008212200019N0070001N1+03081+00881101491ADDGA1001+999999999GF100991001001999999001001MD1110121+9999REMSYN064AAXX  12094 60515 42957 02616 10308 20088 40149 51012 333 95900;
0136605150999992000081210004+35320+004190FM-15+0461DAAD V0202601N007212200019N9999999N1+03201+00701999999ADDGF100991999999999999999999MA1101491999999MW1001REMMET042DAAD 121000Z 26014KT 7000 SKC 32/07 Q1015;EQDQ01+070002VODIS Q02+000000PRSWM2
0268605150999992000081212004+35320+004190SY-MT+0461DAAD V0202801N003112200019N0080001N1+03461+00781101421ADDAA199000091GA1021+060009999GF102991001001999999001021MA1101391999999MD1810051+9999MW1001REMSYN082AAXX  12124 60515 32958 22806 10346 20078 40142 58005 80002 333 0//00 82070 95900;MET045DAAD 121200Z 28006KT 8000 FEW200 35/08 Q1014;EQDQ01+000000PRSWM2Q02  00002PRCP99
0139605150999992000081213004+35320+004190FM-15+0461DAAD V0202801N005112200019N0080001N1+03601+00901999999ADDGA1021+060009999GF102991999999999999999999MA1101291999999MW1001REMMET045DAAD 121300Z 28010KT 8000 FEW200 36/09 Q1013;EQDQ01+000000PRSWM2
0139605150999992000081214004+35320+004190FM-15+0461DAAD V0202801N007212200019N0080001N1+03701+00801999999ADDGA1021+060009999GF104991999999999999999999MA1101191999999MW1001REMMET045DAAD 121400Z 28014KT 8000 SCT200 37/08 Q1012;EQDQ01+000000PRSWM2
0264605150999992000081215004+35320+004190SY-MT+0461DAAD V0202801N009312200019N0070001N1+03701+00771101241ADDGA1021+024009999GA2021+060009999GF103991011001999999071021MA1101191999999MD1710191+9999MW1001REMSYN082AAXX  12154 60515 42957 32818 10370 20077 40124 57019 81072 333 81358 83070 95900;MET052DAAD 121500Z 28018KT 7000 FEW080 SCT200 37/08 Q1012;EQDQ01+000000PRSWM2
0120605150999992000081217004+35320+004190FM-15+0461DAAD V0202801N007212200019N0070001N1+03701+00801999999ADDGF100991999999999999999999MA1101191999999MW1001REMMET042DAAD 121700Z 28014KT 7000 SKC 37/08 Q1012;EQDQ01+000000PRSWM2
0155605150999992000081218004+35320+004190FM-15+0461DAAD V0203201N005112200019N9999999N1+03601+00901999999ADDGA1021+024009999GF102991999999999999999999MA1101191999999MW1001REMMET045DAAD 121800Z 32010KT 7000 FEW080 36/09 Q1012;EQDQ01+070002VODIS Q02+000000PRSWM2
0271605150999992000081306004+35320+004190SY-MT+0461DAAD V0202801N006212200019N0100001N1+02461+00821101711ADDAA199000091GF100991001001999999001001IA2240+02109KA1120N+02401MA1101691999999MD1310091+9999MW1001REMSYN082AAXX  13064 60515 31960 02812 10246 20082 40171 53009 700// 333 02100 20240 95900;MET039DAAD 130600Z 28012KT CAVOK 25/08 Q1017;EQDQ01+000000PRSWM2Q02  00002PRCP99
0091605150999992000081307004+35320+004190FM-15+0461DAAD V0202601N00411220001CN0099001N1+02701+00901999999ADDMA1101691999999MW1001REMMET039DAAD 130700Z 26008KT CAVOK 27/09 Q1017;EQDQ01+000000PRSWM2
0091605150999992000081308004+35320+004190FM-15+0461DAAD V0203201N00821220001CN0099001N1+02901+00601999999ADDMA1101801999999MW1001REMMET039DAAD 130800Z 32016KT CAVOK 29/06 Q1018;EQDQ01+000000PRSWM2
0201605150999992000081309004+35320+004190SY-MT+0461DAAD V0203201N006212200019N0100001N1+02961+00661101901ADDGF100991001001999999001001MA1101901999999MD1210191+9999MW1001REMSYN064AAXX  13094 60515 42960 03212 10296 20066 40190 52019 333 95900;MET039DAAD 130900Z 32012KT CAVOK 30/07 Q1019;EQDQ01+000000PRSWM2
0091605150999992000081310004+35320+004190FM-15+0461DAAD V0203201N00511220001CN0099001N1+03101+00701999999ADDMA1101901999999MW1001REMMET039DAAD 131000Z 32010KT CAVOK 31/07 Q1019;EQDQ01+000000PRSWM2
0076605150999992000081311004+35320+004190FM-15+0461DAAD V0202201N00411220001CN0099001N1+02801+00701999999ADDMW1001REMMET039DAAD 131100Z 22008KT CAVOK 28/07 Q////;EQDQ01+000000PRSWM2
0168605150999992000081312004+35320+004190FM-12+0461DAAD V0203201N004112200019N0100001N1+03301+00571101851ADDAA199000091GA1001+999999999GF100991001001999999001001MD1810061+9999REMSYN070AAXX  13124 60515 32960 03208 10330 20057 40185 58006 333 0//00 95900;EQDQ01  00002PRCP99
0091605150999992000081313004+35320+004190FM-15+0461DAAD V0203601N00311220001CN0099001N1+03401+00401999999ADDMA1101691999999MW1001REMMET039DAAD 131300Z 36006KT CAVOK 34/04 Q1017;EQDQ01+000000PRSWM2
0091605150999992000081314004+35320+004190FM-15+0461DAAD V0203401N00411220001CN0099001N1+03501+00401999999ADDMA1101691999999MW1001REMMET039DAAD 131400Z 34008KT CAVOK 35/04 Q1017;EQDQ01+000000PRSWM2
0201605150999992000081315004+35320+004190SY-MT+0461DAAD V0203001N008212200019N0100001N1+03561+00311101681ADDGF100991001001999999001001MA1101591999999MD1710141+9999MW1001REMSYN064AAXX  13154 60515 42960 03016 10356 20031 40168 57014 333 95900;MET039DAAD 131500Z 30016KT CAVOK 36/03 Q1016;EQDQ01+000000PRSWM2
0259605150999992000081318004+35320+004190SY-MT+0461DAAD V0203601N00721220001CN0100001N1+03351+00821101751ADDAA199000091GF103991001001999999001021KA1120M+03601MA1101691999999MD1310031+9999MW1001REMSYN082AAXX  13184 60515 32960 33614 10335 20082 40175 53003 80002 333 10360 83073 95900;MET039DAAD 131800Z 36014KT CAVOK 34/08 Q1017;EQDQ01+000000PRSWM2Q02  00002PRCP99
0211605150999992000081406004+35320+004190FM-12+0461DAAD V0202601N004112200019N0100001N1+02411+00821102031ADDAA199000091GA1001+999999999GF100991001001999999001001IA2240+01809KA1120N+02181MD1310061+9999MW1001REMSYN082AAXX  14064 60515 31960 02608 10241 20082 40203 53006 700// 333 01800 20218 95900;EQDQ01  00002PRCP99
0091605150999992000081407004+35320+004190FM-15+0461DAAD V0202801N00211220001CN0099001N1+02701+00901999999ADDMA1102101999999MW1001REMMET039DAAD 140700Z 28004KT CAVOK 27/09 Q1021;EQDQ01+000000PRSWM2
0091605150999992000081408004+35320+004190FM-15+0461DAAD V0202601N00211220001CN0099001N1+02801+01001999999ADDMA1102101999999MW1001REMMET039DAAD 140800Z 26004KT CAVOK 28/10 Q1021;EQDQ01+000000PRSWM2
0201605150999992000081409004+35320+004190SY-MT+0461DAAD V0200401N00311220001CN0100001N1+03041+00741102171ADDGF100991001001999999001001MA1102101999999MD1110151+9999MW1001REMSYN064AAXX  14094 60515 42960 00406 10304 20074 40217 51015 333 95900;MET039DAAD 140900Z 04006KT CAVOK 30/07 Q1021;EQDQ01+000000PRSWM2
0091605150999992000081410004+35320+004190FM-15+0461DAAD V0203601N00411220001CN0099001N1+03101+00501999999ADDMA1102101999999MW1001REMMET039DAAD 141000Z 36008KT CAVOK 31/05 Q1021;EQDQ01+000000PRSWM2
0091605150999992000081411004+35320+004190FM-15+0461DAAD V0200201N00411220001CN0099001N1+03201+00501999999ADDMA1102101999999MW1001REMMET039DAAD 141100Z 02008KT CAVOK 32/05 Q1021;EQDQ01+000000PRSWM2
0234605150999992000081412004+35320+004190SY-MT+0461DAAD V0202801N00211220001CN0100001N1+03321+00551102111ADDAA199000091GF100991001001999999001001MA1102101999999MD1810051+9999MW1001REMSYN070AAXX  14124 60515 32960 02804 10332 20055 40211 58005 333 0//00 95900;MET039DAAD 141200Z 28004KT CAVOK 33/06 Q1021;EQDQ01+000000PRSWM2Q02  00002PRCP99
0091605150999992000081413004+35320+004190FM-15+0461DAAD V0200401N00311220001CN0099001N1+03501+00401999999ADDMA1102001999999MW1001REMMET039DAAD 141300Z 04006KT CAVOK 35/04 Q1020;EQDQ01+000000PRSWM2
0091605150999992000081414004+35320+004190FM-15+0461DAAD V0203601N00311220001CN0099001N1+03501+00601999999ADDMA1102001999999MW1001REMMET039DAAD 141400Z 36006KT CAVOK 35/06 Q1020;EQDQ01+000000PRSWM2
0091605150999992000081415004+35320+004190FM-15+0461DAAD V0203601N00311220001CN0099001N1+03601+00401999999ADDMA1101901999999MW1001REMMET039DAAD 141500Z 36006KT CAVOK 36/04 Q1019;EQDQ01+000000PRSWM2
0091605150999992000081416004+35320+004190FM-15+0461DAAD V0203601N00311220001CN0099001N1+03601+00401999999ADDMA1101901999999MW1001REMMET039DAAD 141600Z 36006KT CAVOK 36/04 Q1019;EQDQ01+000000PRSWM2
0247605150999992000081418004+35320+004190SY-MT+0461DAAD V0200201N004112200019N0100001N1+03501+00551101801ADDAA199000091GF100991001001999999001001KA1120M+03641MA1101801999999MD1710141+9999MW1001REMSYN070AAXX  14184 60515 32960 00208 10350 20055 40180 57014 333 10364 95900;MET039DAAD 141800Z 02008KT CAVOK 35/06 Q1018;EQDQ01+000000PRSWM2Q02  00002PRCP99
0271605150999992000081506004+35320+004190SY-MT+0461DAAD V0200201N001012200019N0100001N1+02201+01221102071ADDAA199000091GF100991001001999999001001IA2240+01809KA1120N+02141MA1102001999999MD1310051+9999MW1001REMSYN082AAXX  15064 60515 33960 00202 10220 20122 40207 53005 700// 333 01800 20214 95900;MET039DAAD 150600Z 02002KT CAVOK 22/12 Q1020;EQDQ01+000000PRSWM2Q02  00002PRCP99
0091605150999992000081507004+35320+004190FM-15+0461DAAD V0200601N00101220001CN0099001N1+02501+01101999999ADDMA1102101999999MW1001REMMET039DAAD 150700Z 06002KT CAVOK 25/11 Q1021;EQDQ01+000000PRSWM2
0091605150999992000081508004+35320+004190FM-15+0461DAAD V0203601N00101220001CN0099001N1+02701+01101999999ADDMA1102101999999MW1001REMMET039DAAD 150800Z 36002KT CAVOK 27/11 Q1021;EQDQ01+000000PRSWM2
0201605150999992000081509004+35320+004190SY-MT+0461DAAD V0202601N001012200019N0100001N1+02951+01071102181ADDGF100991001001999999001001MA1102101999999MD1110091+9999MW1001REMSYN064AAXX  15094 60515 42960 02602 10295 20107 40218 51009 333 95900;MET039DAAD 150900Z 26002KT CAVOK 30/11 Q1021;EQDQ01+000000PRSWM2
0091605150999992000081510004+35320+004190FM-15+0461DAAD V0201201N00211220001CN0099001N1+03101+01001999999ADDMA1102101999999MW1001REMMET039DAAD 151000Z 12004KT CAVOK 31/10 Q1021;EQDQ01+000000PRSWM2
0091605150999992000081511004+35320+004190FM-15+0461DAAD V0201001N00311220001CN0099001N1+03301+01001999999ADDMA1102101999999MW1001REMMET039DAAD 151100Z 10006KT CAVOK 33/10 Q1021;EQDQ01+000000PRSWM2
0091605150999992000081512004+35320+004190FM-15+0461DAAD V0201201N00311220001CN0099001N1+03401+01001999999ADDMA1102001999999MW1001REMMET039DAAD 151200Z 12006KT CAVOK 34/10 Q1020;EQDQ01+000000PRSWM2
0091605150999992000081513004+35320+004190FM-15+0461DAAD V0202201N00101220001CN0099001N1+03401+00801999999ADDMA1102001999999MW1001REMMET039DAAD 151300Z 22002KT CAVOK 34/08 Q1020;EQDQ01+000000PRSWM2
0091605150999992000081514004+35320+004190FM-15+0461DAAD V0200601N00311220001CN0099001N1+03501+00701999999ADDMA1101901999999MW1001REMMET039DAAD 151400Z 06006KT CAVOK 35/07 Q1019;EQDQ01+000000PRSWM2
0201605150999992000081515004+35320+004190SY-MT+0461DAAD V0200401N003112200019N0100001N1+03551+00721101841ADDGF100991001001999999001001MA1101801999999MD1710251+9999MW1001REMSYN064AAXX  15154 60515 42960 00406 10355 20072 40184 57025 333 95900;MET039DAAD 151500Z 04006KT CAVOK 36/07 Q1018;EQDQ01+000000PRSWM2
0091605150999992000081516004+35320+004190FM-15+0461DAAD V0203401N00411220001CN0099001N1+03601+00601999999ADDMA1101691999999MW1001REMMET039DAAD 151600Z 34008KT CAVOK 36/06 Q1017;EQDQ01+000000PRSWM2
0091605150999992000081517004+35320+004190FM-15+0461DAAD V0203601N00411220001CN0099001N1+03601+00601999999ADDMA1101691999999MW1001REMMET039DAAD 151700Z 36008KT CAVOK 36/06 Q1017;EQDQ01+000000PRSWM2
0247605150999992000081518004+35320+004190SY-MT+0461DAAD V0203001N001012200019N0100001N1+03541+00561101691ADDAA199000091GF100991001001999999001001KA1120M+03611MA1101591999999MD1610141+9999MW1001REMSYN070AAXX  15184 60515 32960 03002 10354 20056 40169 56014 333 10361 95900;MET039DAAD 151800Z 30002KT CAVOK 35/06 Q1016;EQDQ01+000000PRSWM2Q02  00002PRCP99
0271605150999992000081606004+35320+004190SY-MT+0461DAAD V0209999C000012200019N0100001N1+02141+02141101951ADDAA199000091GF100991001001999999001001IA2240+01809KA1120N+02101MA1101901999999MD1310071+9999MW1001REMSYN082AAXX  16064 60515 31960 00000 10214 20214 40195 53007 700// 333 01800 20210 95900;MET039DAAD 160600Z 00000KT CAVOK 21/13 Q1019;EQDQ01+000000PRSWM2Q02  00002PRCP99
0091605150999992000081607004+35320+004190FM-15+0461DAAD V0209999C00001220001CN0099001N1+02401+01501999999ADDMA1101901999999MW1001REMMET039DAAD 160700Z 00000KT CAVOK 24/15 Q1019;EQDQ01+000000PRSWM2
0091605150999992000081608004+35320+004190FM-15+0461DAAD V0209999C00001220001CN0099001N1+02801+01301999999ADDMA1101901999999MW1001REMMET039DAAD 160800Z 00000KT CAVOK 28/13 Q1019;EQDQ01+000000PRSWM2
0132605150999992000081609004+35320+004190FM-12+0461DAAD V0201201N002112200019N0100001N1+02971+01171101991ADDGA1001+999999999GF100991001001999999001001MD1110051+9999REMSYN064AAXX  16094 60515 42960 01204 10297 20117 40199 51005 333 95900;
0091605150999992000081610004+35320+004190FM-15+0461DAAD V0201201N00211220001CN0099001N1+03101+01001999999ADDMA1101901999999MW1001REMMET039DAAD 161000Z 12004KT CAVOK 31/10 Q1019;EQDQ01+000000PRSWM2
0234605150999992000081612004+35320+004190SY-MT+0461DAAD V0200401N003112200019N0100001N1+03341+00651101851ADDAA199000091GF100991001001999999001001MA1101801999999MD1810131+9999MW1001REMSYN070AAXX  16124 60515 32960 00406 10334 20065 40185 58013 333 0//00 95900;MET039DAAD 161200Z 04006KT CAVOK 33/06 Q1018;EQDQ01+000000PRSWM2Q02  00002PRCP99
0091605150999992000081613004+35320+004190FM-15+0461DAAD V0200801N00211220001CN0099001N1+03401+00701999999ADDMA1101691999999MW1001REMMET039DAAD 161300Z 08004KT CAVOK 34/07 Q1017;EQDQ01+000000PRSWM2
0091605150999992000081614004+35320+004190FM-15+0461DAAD V0203401N00211220001CN0099001N1+03501+00501999999ADDMA1101691999999MW1001REMMET039DAAD 161400Z 34004KT CAVOK 35/05 Q1017;EQDQ01+000000PRSWM2
0201605150999992000081615004+35320+004190SY-MT+0461DAAD V0201601N003112200019N0100001N1+03531+00631101581ADDGF100991001001999999001001MA1101491999999MD1710251+9999MW1001REMSYN064AAXX  16154 60515 42960 01606 10353 20063 40158 57025 333 95900;MET039DAAD 161500Z 16006KT CAVOK 35/06 Q1015;EQDQ01+000000PRSWM2
0091605150999992000081616004+35320+004190FM-15+0461DAAD V0200201N00211220001CN0099001N1+03601+00401999999ADDMA1101491999999MW1001REMMET039DAAD 161600Z 02004KT CAVOK 36/04 Q1015;EQDQ01+000000PRSWM2
0091605150999992000081617004+35320+004190FM-15+0461DAAD V0200601N00211220001CN0099001N1+03601+00401999999ADDMA1101691999999MW1001REMMET039DAAD 161700Z 06004KT CAVOK 36/04 Q1017;EQDQ01+000000PRSWM2
0247605150999992000081618004+35320+004190SY-MT+0461DAAD V0202001N003112200019N0100001N1+03461+00551101511ADDAA199000091GF100991001001999999001001KA1120M+03601MA1101491999999MD1710091+9999MW1001REMSYN070AAXX  16184 60515 32960 02006 10346 20055 40151 57009 333 10360 95900;MET039DAAD 161800Z 20006KT CAVOK 35/06 Q1015;EQDQ01+000000PRSWM2Q02  00002PRCP99
0091605150999992000081706004+35320+004190FM-15+0461DAAD V0201801N00311220001CN0099001N1+02201+01101999999ADDMA1101591999999MW1001REMMET039DAAD 170600Z 18006KT CAVOK 22/11 Q1016;EQDQ01+000000PRSWM2
0091605150999992000081707004+35320+004190FM-15+0461DAAD V0201601N00211220001CN0099001N1+02501+01101999999ADDMA1101691999999MW1001REMMET039DAAD 170700Z 16004KT CAVOK 25/11 Q1017;EQDQ01+000000PRSWM2
0091605150999992000081708004+35320+004190FM-15+0461DAAD V0201001N00211220001CN0099001N1+02801+01201999999ADDMA1101691999999MW1001REMMET039DAAD 170800Z 10004KT CAVOK 28/12 Q1017;EQDQ01+000000PRSWM2
0201605150999992000081709004+35320+004190SY-MT+0461DAAD V0201201N00311220001CN0100001N1+03051+00901101731ADDGF100991001001999999001001MA1101691999999MD1110081+9999MW1001REMSYN064AAXX  17094 60515 42960 01206 10305 20090 40173 51008 333 95900;MET039DAAD 170900Z 12006KT CAVOK 31/09 Q1017;EQDQ01+000000PRSWM2
0091605150999992000081710004+35320+004190FM-15+0461DAAD V0200801N00311220001CN0099001N1+03201+00901999999ADDMA1101691999999MW1001REMMET039DAAD 171000Z 08006KT CAVOK 32/09 Q1017;EQDQ01+000000PRSWM2
0091605150999992000081711004+35320+004190FM-15+0461DAAD V0201001N00211220001CN0099001N1+03501+00901999999ADDMA1101591999999MW1001REMMET039DAAD 171100Z 10004KT CAVOK 35/09 Q1016;EQDQ01+000000PRSWM2
0234605150999992000081712004+35320+004190SY-MT+0461DAAD V0201001N002112200019N0100001N1+03601+00871101581ADDAA199000091GF100991001001999999001001MA1101491999999MD1810091+9999MW1001REMSYN070AAXX  17124 60515 32960 01004 10360 20087 40158 58009 333 0//00 95900;MET039DAAD 171200Z 10004KT CAVOK 36/09 Q1015;EQDQ01+000000PRSWM2Q02  00002PRCP99
0091605150999992000081713004+35320+004190FM-15+0461DAAD V0200401N00411220001CN0099001N1+03701+00801999999ADDMA1101491999999MW1001REMMET039DAAD 171300Z 04008KT CAVOK 37/08 Q1015;EQDQ01+000000PRSWM2
0091605150999992000081714004+35320+004190FM-15+0461DAAD V0200201N00411220001CN0099001N1+03801+00701999999ADDMA1101391999999MW1001REMMET039DAAD 171400Z 02008KT CAVOK 38/07 Q1014;EQDQ01+000000PRSWM2
0251605150999992000081715004+35320+004190SY-MT+0461DAAD V0200801N003112200019N0100001N1+03801+00691101351ADDGA1021+009909999GF199999011021012501001001MA1101291999999MD1710241+9999MW1001REMSYN076AAXX  17154 60515 42660 10806 10380 20069 40135 57024 81200 333 81833 95900;MET045DAAD 171500Z 08006KT 9999 FEW033 38/07 Q1013;EQDQ01+000012SCOTCVQ02+000000PRSWM2
0139605150999992000081716004+35320+004190FM-15+0461DAAD V0200401N005112200019N0112651N1+03801+00701999999ADDGA1021+009909999GF102991999999999999999999MA1101191999999MW1001REMMET045DAAD 171600Z 04010KT 9999 FEW033 38/07 Q1012;EQDQ01+000000PRSWM2
0139605150999992000081717004+35320+004190FM-15+0461DAAD V0200401N002112200019N0112651N1+03801+00701999999ADDGA1021+009909999GF102991999999999999999999MA1101191999999MW1001REMMET045DAAD 171700Z 04004KT 9999 FEW033 38/07 Q1012;EQDQ01+000000PRSWM2
0297605150999992000081718004+35320+004190SY-MT+0461DAAD V0200801N008212200019N0100001N1+03691+00771101301ADDAA199000091GA1021+009909999GF199999011021012501001001KA1120M+03851MA1101291999999MD1610061+9999MW1001REMSYN082AAXX  17184 60515 32660 10816 10369 20077 40130 56006 81200 333 10385 81833 95900;MET045DAAD 171800Z 08016KT 9999 FEW033 37/08 Q1013;EQDQ01+000012SCOTCVQ02+000000PRSWM2Q03  00002PRCP99
0211605150999992000081806004+35320+004190FM-12+0461DAAD V0209999C000012200019N0100001N1+02341+01081101581ADDAA199000091GA1001+999999999GF100991001001999999001001IA2240+02009KA1120N+02291MD1310111+9999MW1001REMSYN082AAXX  18064 60515 32960 00000 10234 20108 40158 53011 700// 333 02000 20229 95900;EQDQ01  00002PRCP99
0091605150999992000081807004+35320+004190FM-15+0461DAAD V0203601N00211220001CN0099001N1+02601+01201999999ADDMA1101591999999MW1001REMMET039DAAD 180700Z 36004KT CAVOK 26/12 Q1016;EQDQ01+000000PRSWM2
0091605150999992000081808004+35320+004190FM-15+0461DAAD V0200201N00211220001CN0099001N1+02801+01301999999ADDMA1101591999999MW1001REMMET039DAAD 180800Z 02004KT CAVOK 28/13 Q1016;EQDQ01+000000PRSWM2
0201605150999992000081809004+35320+004190SY-MT+0461DAAD V0200401N00211220001CN0100001N1+03101+01191101661ADDGF100991001001999999001001MA1101591999999MD1110101+9999MW1001REMSYN064AAXX  18094 60515 42960 00404 10310 20119 40166 51010 333 95900;MET039DAAD 180900Z 04004KT CAVOK 31/12 Q1016;EQDQ01+000000PRSWM2
0091605150999992000081810004+35320+004190FM-15+0461DAAD V0201001N00411220001CN0099001N1+03501+01001999999ADDMA1101591999999MW1001REMMET039DAAD 181000Z 10008KT CAVOK 35/10 Q1016;EQDQ01+000000PRSWM2
0091605150999992000081811004+35320+004190FM-15+0461DAAD V0201201N00511220001CN0099001N1+03601+01001999999ADDMA1101491999999MW1001REMMET039DAAD 181100Z 12010KT CAVOK 36/10 Q1015;EQDQ01+000000PRSWM2
0091605150999992000081812004+35320+004190FM-15+0461DAAD V0201201N00511220001CN0099001N1+03801+00801999999ADDMA1101391999999MW1001REMMET039DAAD 181200Z 12010KT CAVOK 38/08 Q1014;EQDQ01+000000PRSWM2
0091605150999992000081813004+35320+004190FM-15+0461DAAD V0201001N00411220001CN0099001N1+03901+00801999999ADDMA1101291999999MW1001REMMET039DAAD 181300Z 10008KT CAVOK 39/08 Q1013;EQDQ01+000000PRSWM2
0091605150999992000081814004+35320+004190FM-15+0461DAAD V0201401N00511220001CN0099001N1+04001+00601999999ADDMA1101291999999MW1001REMMET039DAAD 181400Z 14010KT CAVOK 40/06 Q1013;EQDQ01+000000PRSWM2
0229605150999992000081815004+35320+004190SY-MT+0461DAAD V0201001N005112200019N0100001N1+04001+00591101231ADDGA1011+012009029GF101991011021012501001001MA1101191999999MD1710181+9999MW1001REMSYN076AAXX  18154 60515 42660 11010 10400 20059 40123 57018 81200 333 81840 95900;MET039DAAD 181500Z 10010KT CAVOK 40/06 Q1012;EQDQ01+000000PRSWM2
0139605150999992000081816004+35320+004190FM-15+0461DAAD V0201001N004112200019N0112651N1+04001+00601999999ADDGA1021+012009999GF102991999999999999999999MA1101081999999MW1001REMMET045DAAD 181600Z 10008KT 9999 FEW040 40/06 Q1011;EQDQ01+000000PRSWM2
0139605150999992000081817004+35320+004190FM-15+0461DAAD V0200601N005112200019N0112651N1+03901+00601999999ADDGA1021+012009999GF102991999999999999999999MA1101081999999MW1001REMMET045DAAD 181700Z 06010KT 9999 FEW040 39/06 Q1011;EQDQ01+000000PRSWM2
0275605150999992000081818004+35320+004190SY-MT+0461DAAD V0200601N004112200019N0100001N1+03751+00831101261ADDAA199000091GA1021+012009029GF102991021021012501001001KA1120M+04051MA1101191999999MD1510031+9999MW1001REMSYN082AAXX  18184 60515 32660 20608 10375 20083 40126 55003 82200 333 10405 82840 95900;MET039DAAD 181800Z 06008KT CAVOK 38/08 Q1012;EQDQ01+000000PRSWM2Q02  00002PRCP99
0271605150999992000081906004+35320+004190SY-MT+0461DAAD V0203201N002112200019N0100001N1+02501+01001101771ADDAA199000091GF100991001001999999001001IA2240+02209KA1120N+02421MA1101691999999MD1310131+9999MW1001REMSYN082AAXX  19064 60515 31960 03204 10250 20100 40177 53013 700// 333 02200 20242 95900;MET039DAAD 190600Z 32004KT CAVOK 25/10 Q1017;EQDQ01+000000PRSWM2Q02  00002PRCP99
0091605150999992000081908004+35320+004190FM-15+0461DAAD V0200201N00211220001CN0099001N1+02901+00901999999ADDMA1101801999999MW1001REMMET039DAAD 190800Z 02004KT CAVOK 29/09 Q1018;EQDQ01+000000PRSWM2
0201605150999992000081909004+35320+004190SY-MT+0461DAAD V0200201N001012200019N0100001N1+03151+01021101911ADDGF100991001001999999001001MA1101901999999MD1210151+9999MW1001REMSYN064AAXX  19094 60515 42960 00202 10315 20102 40191 52015 333 95900;MET039DAAD 190900Z 02002KT CAVOK 32/10 Q1019;EQDQ01+000000PRSWM2
0091605150999992000081910004+35320+004190FM-15+0461DAAD V0201401N00311220001CN0099001N1+03501+01001999999ADDMA1101801999999MW1001REMMET039DAAD 191000Z 14006KT CAVOK 35/10 Q1018;EQDQ01+000000PRSWM2
0091605150999992000081911004+35320+004190FM-15+0461DAAD V0201401N00311220001CN0099001N1+03601+01001999999ADDMA1101801999999MW1001REMMET039DAAD 191100Z 14006KT CAVOK 36/10 Q1018;EQDQ01+000000PRSWM2
0234605150999992000081912004+35320+004190SY-MT+0461DAAD V0201001N005112200019N0100001N1+03851+00751101731ADDAA199000091GF100991001001999999001001MA1101691999999MD1810121+9999MW1001REMSYN070AAXX  19124 60515 32960 01010 10385 20075 40173 58012 333 0//00 95900;MET039DAAD 191200Z 10010KT CAVOK 39/08 Q1017;EQDQ01+000000PRSWM2Q02  00002PRCP99
0091605150999992000081913004+35320+004190FM-15+0461DAAD V0200401N00211220001CN0099001N1+04101+00801999999ADDMA1101591999999MW1001REMMET039DAAD 191300Z 04004KT CAVOK 41/08 Q1016;EQDQ01+000000PRSWM2
0139605150999992000081914004+35320+004190FM-15+0461DAAD V0203601N005112200019N0112651N1+04101+00501999999ADDGA1021+009009999GF102991999999999999999999MA1101591999999MW1001REMMET045DAAD 191400Z 36010KT 9999 FEW030 41/05 Q1016;EQDQ01+000000PRSWM2
0235605150999992000081915004+35320+004190SY-MT+0461DAAD V0200801N002112200019N0100001N1+04051+00521101571ADDGA1021+009009999GF103991031021008001001001MA1101491999999MD1710181+9999MW1001REMSYN076AAXX  19154 60515 42560 30804 10405 20052 40157 57018 83200 333 83830 95900;MET045DAAD 191500Z 08004KT 9999 SCT030 41/05 Q1015;EQDQ01+000000PRSWM2
0139605150999992000081917004+35320+004190FM-15+0461DAAD V0202801N007212200019N0112651N1+04001+00401999999ADDGA1021+009009999GF104991999999999999999999MA1101491999999MW1001REMMET045DAAD 191700Z 28014KT 9999 SCT030 40/04 Q1015;EQDQ01+000000PRSWM2
0315605150999992000082006004+35320+004190SY-MT+0461DAAD V0202001N002112200019N0100001N1+02611+00621101821ADDAA199000091GA1031+024009079GF103991031999022501081001IA2240+02209KA1120N+02411MA1101801999999MD1310041+9999MW1001REMSYN094AAXX  20064 60515 31860 32004 10261 20062 40182 53004 700// 83080 333 02200 20241 83358 95900;MET039DAAD 200600Z 20004KT CAVOK 26/06 Q1018;EQDQ01+000000PRSWM2Q02  00002PRCP99Q03    003SCOLCG
0091605150999992000082007004+35320+004190FM-15+0461DAAD V0201001N00211220001CN0099001N1+03001+00901999999ADDMA1101801999999MW1001REMMET039DAAD 200700Z 10004KT CAVOK 30/09 Q1018;EQDQ01+000000PRSWM2
0091605150999992000082008004+35320+004190FM-15+0461DAAD V0200801N00211220001CN0099001N1+03201+00601999999ADDMA1101901999999MW1001REMMET039DAAD 200800Z 08004KT CAVOK 32/06 Q1019;EQDQ01+000000PRSWM2
0245605150999992000082009004+35320+004190SY-MT+0461DAAD V0201001N002112200019N0100001N1+03421+00551101921ADDGA1031+024009079GF103991031999999999071001MA1101901999999MD1110021+9999MW1001REMSYN076AAXX  20094 60515 42960 31004 10342 20055 40192 51002 83070 333 83358 95900;MET039DAAD 200900Z 10004KT CAVOK 34/06 Q1019;EQDQ01+000000PRSWM2Q02    003SCOLCG
0091605150999992000082010004+35320+004190FM-15+0461DAAD V0200601N00311220001CN0099001N1+03601+00801999999ADDMA1101901999999MW1001REMMET039DAAD 201000Z 06006KT CAVOK 36/08 Q1019;EQDQ01+000000PRSWM2
0091605150999992000082011004+35320+004190FM-15+0461DAAD V0200601N00311220001CN0099001N1+03801+00601999999ADDMA1101901999999MW1001REMMET039DAAD 201100Z 06006KT CAVOK 38/06 Q1019;EQDQ01+000000PRSWM2
0278605150999992000082012004+35320+004190SY-MT+0461DAAD V0200601N002112200019N0100001N1+03931+00761101821ADDAA199000091GA1021+024009079GF102991021999022501071001MA1101801999999MD1810131+9999MW1001REMSYN082AAXX  20124 60515 32860 20604 10393 20076 40182 58013 82070 333 0//00 82358 95900;MET039DAAD 201200Z 06004KT CAVOK 39/08 Q1018;EQDQ01+000000PRSWM2Q02  00002PRCP99Q03    003SCOLCG
0091605150999992000082013004+35320+004190FM-15+0461DAAD V0200201N00211220001CN0099001N1+04001+00601999999ADDMA1101691999999MW1001REMMET039DAAD 201300Z 02004KT CAVOK 40/06 Q1017;EQDQ01+000000PRSWM2
0162605150999992000082014004+35320+004190FM-15+0461DAAD V0200201N003112200019N0112651N1+04101+00201999999ADDGA1021+012009999GA2021+024009999GF104991999999999999999999MA1101691999999MW1001REMMET052DAAD 201400Z 02006KT 9999 FEW040 SCT080 41/02 Q1017;EQDQ01+000000PRSWM2
0235605150999992000082015004+35320+004190SY-MT+0461DAAD V0200201N002112200019N0100001N1+04141+00191101611ADDGA1021+012009999GF104991041021012501001001MA1101591999999MD1710091+9999MW1001REMSYN076AAXX  20154 60515 42660 40204 10414 20019 40161 57009 84200 333 84840 95900;MET045DAAD 201500Z 02004KT 9999 SCT040 41/02 Q1016;EQDQ01+000000PRSWM2
0139605150999992000082016004+35320+004190FM-15+0461DAAD V0201001N004112200019N0112651N1+04201+00201999999ADDGA1021+012009999GF104991999999999999999999MA1101491999999MW1001REMMET045DAAD 201600Z 10008KT 9999 SCT040 42/02 Q1015;EQDQ01+000000PRSWM2
0281605150999992000082018004+35320+004190SY-MT+0461DAAD V0201001N002112200019N0100001N1+03981+00431101541ADDAA199000091GA1021+012009999GF104991041021012501071001KA1120M+04221MA1101491999999MD1710091+9999MW1001REMSYN082AAXX  20184 60515 32660 41004 10398 20043 40154 57009 84270 333 10422 84840 95900;MET045DAAD 201800Z 10004KT 9999 SCT040 40/04 Q1015;EQDQ01+000000PRSWM2Q02  00002PRCP99
0303605150999992000082106004+35320+004190SY-MT+0461DAAD V0201401N002112200019N0100001N1+02561+00541101711ADDAA199000091AY101061AY201061GF100991001001999999001001IA2240+02309KA1120N+02541MA1101691999999MD1310041+9999MW1071REMSYN082AAXX  21064 60515 31960 01404 10256 20054 40171 53004 70700 333 02300 20254 95900;MET039DAAD 210600Z 14004KT CAVOK 26/05 Q1017;EQDQ01+000000PRSWM2Q02  00002PRCP99Q03    003PRSWM1
0091605150999992000082107004+35320+004190FM-15+0461DAAD V0209999C00001220001CN0099001N1+02801+00701999999ADDMA1101691999999MW1001REMMET039DAAD 210700Z 00000KT CAVOK 28/07 Q1017;EQDQ01+000000PRSWM2
0091605150999992000082108004+35320+004190FM-15+0461DAAD V0209999C00001220001CN0099001N1+03201+00701999999ADDMA1101691999999MW1001REMMET039DAAD 210800Z 00000KT CAVOK 32/07 Q1017;EQDQ01+000000PRSWM2
0132605150999992000082109004+35320+004190FM-12+0461DAAD V0200801N002112200019N0100001N1+03451+00711101791ADDGA1001+999999999GF100991001001999999001001MD1210111+9999REMSYN064AAXX  21094 60515 42960 00804 10345 20071 40179 52011 333 95900;
0091605150999992000082110004+35320+004190FM-15+0461DAAD V0200201N00211220001CN0099001N1+03601+00501999999ADDMA1101691999999MW1001REMMET039DAAD 211000Z 02004KT CAVOK 36/05 Q1017;EQDQ01+000000PRSWM2
0091605150999992000082111004+35320+004190FM-15+0461DAAD V0209999C00001220001CN0099001N1+03801+01001999999ADDMA1101691999999MW1001REMMET039DAAD 211100Z 00000KT CAVOK 38/10 Q1017;EQDQ01+000000PRSWM2
0234605150999992000082112004+35320+004190SY-MT+0461DAAD V0200801N003112200019N0100001N1+04011+00571101641ADDAA199000091GF100991001001999999001001MA1101591999999MD1810121+9999MW1001REMSYN070AAXX  21124 60515 32960 00806 10401 20057 40164 58012 333 0//00 95900;MET039DAAD 211200Z 08006KT CAVOK 40/06 Q1016;EQDQ01+000000PRSWM2Q02  00002PRCP99
0139605150999992000082113004+35320+004190FM-15+0461DAAD V0200201N002112200019N0112651N1+04101+00201999999ADDGA1021+009909999GF102991999999999999999999MA1101491999999MW1001REMMET045DAAD 211300Z 02004KT 9999 FEW033 41/02 Q1015;EQDQ01+000000PRSWM2
0235605150999992000082115004+35320+004190SY-MT+0461DAAD V0201201N003112200019N0100001N1+04161+00181101421ADDGA1021+009009999GF102991021021008001001001MA1101391999999MD1710211+9999MW1001REMSYN076AAXX  21154 60515 42560 21206 10416 20018 40142 57021 82200 333 82830 95900;MET045DAAD 211500Z 12006KT 9999 FEW030 42/02 Q1014;EQDQ01+000000PRSWM2
0139605150999992000082117004+35320+004190FM-15+0461DAAD V0200901N004112200019N0112651N1+04101+00201999999ADDGA1021+009009999GF102991999999999999999999MA1101291999999MW1001REMMET045DAAD 211700Z 09008KT 9999 FEW030 41/02 Q1013;EQDQ01+000000PRSWM2
0281605150999992000082118004+35320+004190SY-MT+0461DAAD V0201401N004112200019N0100001N1+03901+00381101421ADDAA199000091GA1021+009009999GF102991021021008001001001KA1120M+04201MA1101391999999MD1610071+9999MW1001REMSYN082AAXX  21184 60515 32560 21408 10390 20038 40142 56007 82200 333 10420 82830 95900;MET045DAAD 211800Z 14008KT 9999 FEW030 39/04 Q1014;EQDQ01+000000PRSWM2Q02  00002PRCP99
0305605150999992000082206004+35320+004190SY-MT+0461DAAD V0203201N002112200019N0100001N1+02701+00671101531ADDAA199000091GA1021+012009999GF103991031021012501071001IA2240+02309KA1120N+02581MA1101491999999MD1310091+9999MW1001REMSYN094AAXX  22064 60515 31660 33204 10270 20067 40153 53009 700// 83270 333 02300 20258 83840 95900;MET045DAAD 220600Z 32004KT 9999 FEW040 27/07 Q1015;EQDQ01+000000PRSWM2Q02  00002PRCP99
0139605150999992000082207004+35320+004190FM-15+0461DAAD V0203601N002112200019N0112651N1+02901+00701999999ADDGA1021+012009999GF102991999999999999999999MA1101591999999MW1001REMMET045DAAD 220700Z 36004KT 9999 FEW040 29/07 Q1016;EQDQ01+000000PRSWM2
0139605150999992000082208004+35320+004190FM-15+0461DAAD V0203601N006212200019N0112651N1+03201+00601999999ADDGA1021+012009999GF102991999999999999999999MA1101691999999MW1001REMMET045DAAD 220800Z 36012KT 9999 FEW040 32/06 Q1017;EQDQ01+000000PRSWM2
0235605150999992000082209004+35320+004190SY-MT+0461DAAD V0200201N005112200019N0100001N1+03251+00571101731ADDGA1021+012009999GF102991021021012501001001MA1101691999999MD1110201+9999MW1001REMSYN076AAXX  22094 60515 42660 20210 10325 20057 40173 51020 82200 333 82840 95900;MET045DAAD 220900Z 02010KT 9999 FEW040 33/06 Q1017;EQDQ01+000000PRSWM2
0091605150999992000082210004+35320+004190FM-15+0461DAAD V0203601N00311220001CN0099001N1+03501+00601999999ADDMA1101691999999MW1001REMMET039DAAD 221000Z 36006KT CAVOK 35/06 Q1017;EQDQ01+000000PRSWM2
0091605150999992000082211004+35320+004190FM-15+0461DAAD V0203401N00211220001CN0099001N1+03701+00701999999ADDMA1101591999999MW1001REMMET039DAAD 221100Z 34004KT CAVOK 37/07 Q1016;EQDQ01+000000PRSWM2
0284605150999992000082212004+35320+004190SY-MT+0461DAAD V0200601N003112200019N0100001N1+03931+00561101551ADDAA199000091GA1021+012009999GF199999011021012501001001MA1101491999999MD1810141+9999MW1001REMSYN082AAXX  22124 60515 32660 10606 10393 20056 40155 58014 81200 333 0//00 81840 95900;MET045DAAD 221200Z 06006KT 9999 FEW040 39/06 Q1015;EQDQ01+000012SCOTCVQ02+000000PRSWM2Q03  00002PRCP99
0139605150999992000082213004+35320+004190FM-15+0461DAAD V0201201N003112200019N0112651N1+04101+00701999999ADDGA1021+012009999GF102991999999999999999999MA1101391999999MW1001REMMET045DAAD 221300Z 12006KT 9999 FEW040 41/07 Q1014;EQDQ01+000000PRSWM2
0139605150999992000082214004+35320+004190FM-15+0461DAAD V0201201N005112200019N0112651N1+04201+00401999999ADDGA1021+012009999GF104991999999999999999999MA1101391999999MW1001REMMET045DAAD 221400Z 12010KT 9999 SCT040 42/04 Q1014;EQDQ01+000000PRSWM2
0235605150999992000082215004+35320+004190SY-MT+0461DAAD V0201401N005112200019N0100001N1+04211+00101101351ADDGA1021+012009999GF103991031021012501001001MA1101291999999MD1710211+9999MW1001REMSYN076AAXX  22154 60515 42660 31410 10421 20010 40135 57021 83200 333 83840 95900;MET045DAAD 221500Z 14010KT 9999 SCT040 42/01 Q1013;EQDQ01+000000PRSWM2
0139605150999992000082216004+35320+004190FM-15+0461DAAD V0201401N002112200019N0112651N1+04201+00101999999ADDGA1021+012009999GF104991999999999999999999MA1101291999999MW1001REMMET045DAAD 221600Z 14004KT 9999 SCT040 42/01 Q1013;EQDQ01+000000PRSWM2
0139605150999992000082217004+35320+004190FM-15+0461DAAD V0201601N004112200019N0112651N1+03901+00301999999ADDGA1021+009909999GF104991999999999999999999MA1101291999999MW1001REMMET045DAAD 221700Z 16008KT 9999 SCT033 39/03 Q1013;EQDQ01+000000PRSWM2
0281605150999992000082218004+35320+004190SY-MT+0461DAAD V0202201N005112200019N0300001N1+03851+00411101391ADDAA199000091GA1021+009909999GF104991041021008001001001KA1120M+04211MA1101291999999MD1310011+9999MW1001REMSYN082AAXX  22184 60515 32580 42210 10385 20041 40139 53001 84200 333 10421 82833 95900;MET045DAAD 221800Z 22010KT 9999 SCT033 39/04 Q1013;EQDQ01+000000PRSWM2Q02  00002PRCP99
0265605150999992000082306004+35320+004190SY-MT+0461DAAD V0203401N001012200019N0100001N1+02431+00831101801ADDAA199000091GF100991001001999999001001IA2240+02109KA1120N+02341MA1101801999999MD1310201+9999MW1001REMSYN076AAXX  23064 60515 31960 03402 10243 20083 40180 53020 333 02100 20234 95900;MET039DAAD 230600Z 34002KT CAVOK 24/08 Q1018;EQDQ01+000000PRSWM2Q02  00002PRCP99
0091605150999992000082307004+35320+004190FM-15+0461DAAD V0203601N00101220001CN0099001N1+02701+00801999999ADDMA1101801999999MW1001REMMET039DAAD 230700Z 36002KT CAVOK 27/08 Q1018;EQDQ01+000000PRSWM2
0091605150999992000082308004+35320+004190FM-15+0461DAAD V0203601N00101220001CN0099001N1+03001+00901999999ADDMA1101801999999MW1001REMMET039DAAD 230800Z 36002KT CAVOK 30/09 Q1018;EQDQ01+000000PRSWM2
0201605150999992000082309004+35320+004190SY-MT+0461DAAD V0203601N00311220001CN0100001N1+03201+00681101931ADDGF100991001001999999001001MA1101901999999MD1210151+9999MW1001REMSYN064AAXX  23094 60515 42960 03606 10320 20068 40193 52015 333 95900;MET039DAAD 230900Z 36006KT CAVOK 32/07 Q1019;EQDQ01+000000PRSWM2
0091605150999992000082311004+35320+004190FM-15+0461DAAD V0200601N00101220001CN0099001N1+03701+00601999999ADDMA1101901999999MW1001REMMET039DAAD 231100Z 06002KT CAVOK 37/06 Q1019;EQDQ01+000000PRSWM2
0091605150999992000082312004+35320+004190FM-15+0461DAAD V0201801N00311220001CN0099001N1+03901+00701999999ADDMA1101801999999MW1001REMMET039DAAD 231200Z 18006KT CAVOK 39/07 Q1018;EQDQ01+000000PRSWM2
0091605150999992000082313004+35320+004190FM-15+0461DAAD V0202201N00211220001CN0099001N1+04101+00901999999ADDMA1101691999999MW1001REMMET039DAAD 231300Z 22004KT CAVOK 41/09 Q1017;EQDQ01+000000PRSWM2
0091605150999992000082314004+35320+004190FM-15+0461DAAD V0201201N00411220001CN0099001N1+04101+00501999999ADDMA1101691999999MW1001REMMET039DAAD 231400Z 12008KT CAVOK 41/05 Q1017;EQDQ01+000000PRSWM2
0201605150999992000082315004+35320+004190SY-MT+0461DAAD V0201401N006212200019N0100001N1+04141+00191101641ADDGF100991001001999999001001MA1101691999999MD1710191+9999MW1001REMSYN064AAXX  23154 60515 42960 01412 10414 20019 40164 57019 333 95900;MET039DAAD 231500Z 14012KT CAVOK 41/02 Q1017;EQDQ01+000000PRSWM2
0091605150999992000082316004+35320+004190FM-15+0461DAAD V0209999C00001220001CN0099001N1+04201+00701999999ADDMA1101591999999MW1001REMMET039DAAD 231600Z 00000KT CAVOK 42/07 Q1016;EQDQ01+000000PRSWM2
0091605150999992000082317004+35320+004190FM-15+0461DAAD V0201601N00511220001CN0099001N1+04001+00201999999ADDMA1101691999999MW1001REMMET039DAAD 231700Z 16010KT CAVOK 40/02 Q1017;EQDQ01+000000PRSWM2
0247605150999992000082318004+35320+004190SY-MT+0461DAAD V0201601N005112200019N0100001N1+03901+00341101711ADDAA199000091GF100991001001999999001001KA1120M+04151MA1101691999999MD1310021+9999MW1001REMSYN070AAXX  23184 60515 32960 01610 10390 20034 40171 53002 333 10415 95900;MET039DAAD 231800Z 16010KT CAVOK 39/03 Q1017;EQDQ01+000000PRSWM2Q02  00002PRCP99
0271605150999992000082406004+35320+004190SY-MT+0461DAAD V0201401N002112200019N0100001N1+02231+00651102031ADDAA199000091GF100991001001999999001001IA2240+01909KA1120N+02171MA1102001999999MD1310061+9999MW1001REMSYN082AAXX  24064 60515 31960 01404 10223 20065 40203 53006 700// 333 01900 20217 95900;MET039DAAD 240600Z 14004KT CAVOK 22/07 Q1020;EQDQ01+000000PRSWM2Q02  00002PRCP99
0091605150999992000082407004+35320+004190FM-15+0461DAAD V0201401N00211220001CN0099001N1+02601+00901999999ADDMA1102101999999MW1001REMMET039DAAD 240700Z 14004KT CAVOK 26/09 Q1021;EQDQ01+000000PRSWM2
0091605150999992000082408004+35320+004190FM-15+0461DAAD V0203601N00211220001CN0099001N1+02901+00901999999ADDMA1102101999999MW1001REMMET039DAAD 240800Z 36004KT CAVOK 29/09 Q1021;EQDQ01+000000PRSWM2
0201605150999992000082409004+35320+004190SY-MT+0461DAAD V0200201N004112200019N0100001N1+03171+00861102211ADDGF100991001001999999001001MA1102201999999MD1110161+9999MW1001REMSYN064AAXX  24094 60515 42960 00208 10317 20086 40221 51016 333 95900;MET039DAAD 240900Z 02008KT CAVOK 32/09 Q1022;EQDQ01+000000PRSWM2
0091605150999992000082410004+35320+004190FM-15+0461DAAD V0203401N00311220001CN0099001N1+03401+00801999999ADDMA1102201999999MW1001REMMET039DAAD 241000Z 34006KT CAVOK 34/08 Q1022;EQDQ01+000000PRSWM2
0234605150999992000082412004+35320+004190SY-MT+0461DAAD V0200401N003112200019N0100001N1+03771+00601102141ADDAA199000091GF100991001001999999001001MA1102101999999MD1810051+9999MW1001REMSYN070AAXX  24124 60515 32960 00406 10377 20060 40214 58005 333 0//00 95900;MET039DAAD 241200Z 04006KT CAVOK 38/06 Q1021;EQDQ01+000000PRSWM2Q02  00002PRCP99
0091605150999992000082413004+35320+004190FM-15+0461DAAD V0201001N00311220001CN0099001N1+04001+00401999999ADDMA1102001999999MW1001REMMET039DAAD 241300Z 10006KT CAVOK 40/04 Q1020;EQDQ01+000000PRSWM2
0201605150999992000082415004+35320+004190SY-MT+0461DAAD V0201801N007212200019N0100001N1+04071+00171101921ADDGF100991001001999999001001MA1101901999999MD1710191+9999MW1001REMSYN064AAXX  24154 60515 42960 01814 10407 20017 40192 57019 333 95900;MET039DAAD 241500Z 18014KT CAVOK 41/02 Q1019;EQDQ01+000000PRSWM2
0091605150999992000082416004+35320+004190FM-15+0461DAAD V0201401N00411220001CN0099001N1+04101+00201999999ADDMA1101801999999MW1001REMMET039DAAD 241600Z 14008KT CAVOK 41/02 Q1018;EQDQ01+000000PRSWM2
0091605150999992000082417004+35320+004190FM-15+0461DAAD V0201401N00721220001CN0099001N1+03901+00401999999ADDMA1101801999999MW1001REMMET039DAAD 241700Z 14014KT CAVOK 39/04 Q1018;EQDQ01+000000PRSWM2
0247605150999992000082418004+35320+004190SY-MT+0461DAAD V0201401N006212200019N0100001N1+03771+00231101931ADDAA199000091GF100991001001999999001001KA1120M+04201MA1101901999999MD1510031+9999MW1001REMSYN070AAXX  24184 60515 32960 01412 10377 20023 40193 55003 333 10420 95900;MET039DAAD 241800Z 14012KT CAVOK 38/02 Q1019;EQDQ01+000000PRSWM2Q02  00002PRCP99
0271605150999992000082506004+35320+004190SY-MT+0461DAAD V0201601N003112200019N0100001N1+02091+00531102021ADDAA199000091GF100991001001999999001001IA2240+01709KA1120N+02011MA1102001999999MD1110021+9999MW1001REMSYN082AAXX  25064 60515 31960 01606 10209 20053 40202 51002 700// 333 01700 20201 95900;MET039DAAD 250600Z 16006KT CAVOK 21/05 Q1020;EQDQ01+000000PRSWM2Q02  00002PRCP99
0091605150999992000082507004+35320+004190FM-15+0461DAAD V0209999C00001220001CN0099001N1+02501+00701999999ADDMA1102001999999MW1001REMMET039DAAD 250700Z 00000KT CAVOK 25/07 Q1020;EQDQ01+000000PRSWM2
0091605150999992000082508004+35320+004190FM-15+0461DAAD V0209999C00001220001CN0099001N1+02801+00701999999ADDMA1102001999999MW1001REMMET039DAAD 250800Z 00000KT CAVOK 28/07 Q1020;EQDQ01+000000PRSWM2
0201605150999992000082509004+35320+004190SY-MT+0461DAAD V0203601N002112200019N0100001N1+03021+00591102011ADDGF100991001001999999001001MA1102001999999MD1310021+9999MW1001REMSYN064AAXX  25094 60515 42960 03604 10302 20059 40201 53002 333 95900;MET039DAAD 250900Z 36004KT CAVOK 30/06 Q1020;EQDQ01+000000PRSWM2
0091605150999992000082510004+35320+004190FM-15+0461DAAD V0200601N00211220001CN0099001N1+03301+00701999999ADDMA1102001999999MW1001REMMET039DAAD 251000Z 06004KT CAVOK 33/07 Q1020;EQDQ01+000000PRSWM2
0091605150999992000082511004+35320+004190FM-15+0461DAAD V0209999C00001220001CN0099001N1+03501+00701999999ADDMA1101901999999MW1001REMMET039DAAD 251100Z 00000KT CAVOK 35/07 Q1019;EQDQ01+000000PRSWM2
0162605150999992000082512004+35320+004190FM-12+0461DAAD V0209999C000012200019N0100001N1+03721+00631101891ADDAA199000091GA1001+999999999GF100991001001999999001001MD1810081+9999REMSYN064AAXX  25124 60515 32960 00000 10372 20063 40189 58008 333 95900;EQDQ01  00002PRCP99
0091605150999992000082513004+35320+004190FM-15+0461DAAD V0209999C00001220001CN0099001N1+03901+00701999999ADDMA1101691999999MW1001REMMET039DAAD 251300Z 00000KT CAVOK 39/07 Q1017;EQDQ01+000000PRSWM2
0217605150999992000082515004+35320+004190SY-MT+0461DAAD V0201001N999992200019N0100001N1+04011+00101101611ADDGF100991001001999999001001MA1101591999999MD1710331+9999MW1001REMSYN064AAXX  25154 60515 42960 06012 10401 20010 40161 57033 333 95900;MET039DAAD 251500Z 06012KT CAVOK 40/01 Q1016;EQDQ01+005763WOSPD Q02+000000PRSWM2
0091605150999992000082516004+35320+004190FM-15+0461DAAD V0201401N00821220001CN0099001N1+03901+00101999999ADDMA1101491999999MW1001REMMET039DAAD 251600Z 14016KT CAVOK 39/01 Q1015;EQDQ01+000000PRSWM2
0075605150999992000082517004+35320+004190FM-15+0461DAAD V0201601N00721220001CN0099001N1+03901+00101999999ADDMW1001REMMET038DAAD 251700Z 16014KT CAVOK 39/01 Q015;EQDQ01+000000PRSWM2
0247605150999992000082518004+35320+004190SY-MT+0461DAAD V0201401N007212200019N0100001N1+03801+00291101571ADDAA199000091GF100991001001999999001001KA1120M+04041MA1101491999999MD1610061+9999MW1001REMSYN070AAXX  25184 60515 32960 01414 10380 20029 40157 56006 333 10404 95900;MET039DAAD 251800Z 14014KT CAVOK 38/03 Q1015;EQDQ01+000000PRSWM2Q02  00002PRCP99
0271605150999992000082606004+35320+004190SY-MT+0461DAAD V0209999C000012200019N0100001N1+02131+00491101601ADDAA199000091GF100991001001999999001001IA2240+01909KA1120N+02041MA1101591999999MD1310071+9999MW1001REMSYN082AAXX  26064 60515 31960 00000 10213 20049 40160 53007 700// 333 01900 20204 95900;MET039DAAD 260600Z 00000KT CAVOK 21/05 Q1016;EQDQ01+000000PRSWM2Q02  00002PRCP99
0091605150999992000082607004+35320+004190FM-15+0461DAAD V0201401N00211220001CN0099001N1+02601+00801999999ADDMA1101591999999MW1001REMMET039DAAD 260700Z 14004KT CAVOK 26/08 Q1016;EQDQ01+000000PRSWM2
0091605150999992000082608004+35320+004190FM-15+0461DAAD V0209999C00001220001CN0099001N1+02801+00801999999ADDMA1101691999999MW1001REMMET039DAAD 260800Z 00000KT CAVOK 28/08 Q1017;EQDQ01+000000PRSWM2
0201605150999992000082609004+35320+004190SY-MT+0461DAAD V0200601N002112200019N0100001N1+03001+00821101681ADDGF100991001001999999001001MA1101591999999MD1010081+9999MW1001REMSYN064AAXX  26094 60515 42960 00604 10300 20082 40168 50008 333 95900;MET039DAAD 260900Z 06004KT CAVOK 30/08 Q1016;EQDQ01+000000PRSWM2
0091605150999992000082610004+35320+004190FM-15+0461DAAD V0201401N00211220001CN0099001N1+03301+00701999999ADDMA1101591999999MW1001REMMET039DAAD 261000Z 14004KT CAVOK 33/07 Q1016;EQDQ01+000000PRSWM2
0091605150999992000082611004+35320+004190FM-15+0461DAAD V0201001N00211220001CN0099001N1+03601+00701999999ADDMA1101591999999MW1001REMMET039DAAD 261100Z 10004KT CAVOK 36/07 Q1016;EQDQ01+000000PRSWM2
0228605150999992000082612004+35320+004190SY-MT+0461DAAD V0201601N003112200019N0100001N1+03941+00481101431ADDAA199000091GF100991001001999999001001MA1101391999999MD1810171+9999MW1001REMSYN064AAXX  26124 60515 32960 01606 10394 20048 40143 58017 333 95900;MET039DAAD 261200Z 16006KT CAVOK 39/05 Q1014;EQDQ01+000000PRSWM2Q02  00002PRCP99
0120605150999992000082613004+35320+004190FM-15+0461DAAD V0202201N008212200019N0080001N1+04001+00101999999ADDGF100991999999999999999999MA1101291999999MW1001REMMET042DAAD 261300Z 22016KT 8000 SKC 40/01 Q1013;EQDQ01+000000PRSWM2
0120605150999992000082614004+35320+004190FM-15+0461DAAD V0202401N010312200019N0080001N1+04101+00201999999ADDGF100991999999999999999999MA1101291999999MW1001REMMET042DAAD 261400Z 24020KT 8000 SKC 41/02 Q1013;EQDQ01+000000PRSWM2
0204605150999992000082615004+35320+004190SY-MT+0461DAAD V0202201N004112200019N0080001N1+04041+00151101271ADDGF100991001001999999001001MA1101191999999MD1710201+9999MW1001REMSYN064AAXX  26154 60515 42958 02208 10404 20015 40127 57020 333 95900;MET042DAAD 261500Z 22008KT 8000 SKC 40/02 Q1012;EQDQ01+000000PRSWM2
0120605150999992000082616004+35320+004190FM-15+0461DAAD V0202201N005112200019N0080001N1+04101+00201999999ADDGF100991999999999999999999MA1101191999999MW1001REMMET042DAAD 261600Z 22010KT 8000 SKC 41/02 Q1012;EQDQ01+000000PRSWM2
0120605150999992000082617004+35320+004190FM-15+0461DAAD V0202201N005112200019N0080001N1+04001+00201999999ADDGF100991999999999999999999MA1101191999999MW1001REMMET042DAAD 261700Z 22010KT 8000 SKC 40/02 Q1012;EQDQ01+000000PRSWM2
0250605150999992000082618004+35320+004190SY-MT+0461DAAD V0202201N006212200019N0080001N1+03871+00021101281ADDAA199000091GF100991001001999999001001KA1120M+04141MA1101191999999MD1510011+9999MW1001REMSYN070AAXX  26184 60515 32958 02212 10387 20002 40128 55001 333 10414 95900;MET042DAAD 261800Z 22012KT 8000 SKC 39/00 Q1012;EQDQ01+000000PRSWM2Q02  00002PRCP99
0271605150999992000082706004+35320+004190SY-MT+0461DAAD V0209999C000012200019N0100001N1+02351+00551101541ADDAA199000091GF100991001001999999001001IA2240+02109KA1120N+02321MA1101491999999MD1310191+9999MW1001REMSYN082AAXX  27064 60515 31960 00000 10235 20055 40154 53019 700// 333 02100 20232 95900;MET039DAAD 270600Z 00000KT CAVOK 24/06 Q1015;EQDQ01+000000PRSWM2Q02  00002PRCP99
0091605150999992000082707004+35320+004190FM-15+0461DAAD V0201201N00101220001CN0099001N1+02701+00901999999ADDMA1101491999999MW1001REMMET039DAAD 270700Z 12002KT CAVOK 27/09 Q1015;EQDQ01+000000PRSWM2
0091605150999992000082708004+35320+004190FM-15+0461DAAD V0200401N00311220001CN0099001N1+03001+00501999999ADDMA1101591999999MW1001REMMET039DAAD 270800Z 04006KT CAVOK 30/05 Q1016;EQDQ01+000000PRSWM2
0201605150999992000082709004+35320+004190SY-MT+0461DAAD V0200401N003112200019N0100001N1+03201+00571101671ADDGF100991001001999999001001MA1101591999999MD1210161+9999MW1001REMSYN064AAXX  27094 60515 42960 00406 10320 20057 40167 52016 333 95900;MET039DAAD 270900Z 04006KT CAVOK 32/06 Q1016;EQDQ01+000000PRSWM2
0091605150999992000082710004+35320+004190FM-15+0461DAAD V0200601N00721220001CN0099001N1+03401+00701999999ADDMA1101591999999MW1001REMMET039DAAD 271000Z 06014KT CAVOK 34/07 Q1016;EQDQ01+000000PRSWM2
0091605150999992000082711004+35320+004190FM-15+0461DAAD V0200801N00211220001CN0099001N1+03601+00701999999ADDMA1101591999999MW1001REMMET039DAAD 271100Z 08004KT CAVOK 36/07 Q1016;EQDQ01+000000PRSWM2
0284605150999992000082712004+35320+004190SY-MT+0461DAAD V0200601N002112200019N0100001N1+03801+00801101521ADDAA199000091GA1021+009909999GF199999011021012501001001MA1101491999999MD1810091+9999MW1001REMSYN082AAXX  27124 60515 32660 10604 10380 20080 40152 58009 81200 333 0//00 81833 95900;MET045DAAD 271200Z 06004KT 9999 FEW033 38/08 Q1015;EQDQ01+000012SCOTCVQ02+000000PRSWM2Q03  00002PRCP99
0139605150999992000082713004+35320+004190FM-15+0461DAAD V0203601N004112200019N0112651N1+04001+00801999999ADDGA1021+009909999GF102991999999999999999999MA1101391999999MW1001REMMET045DAAD 271300Z 36008KT 9999 FEW033 40/08 Q1014;EQDQ01+000000PRSWM2
0139605150999992000082714004+35320+004190FM-15+0461DAAD V0202401N006212200019N0112651N1+04201+00601999999ADDGA1021+009909999GF102991999999999999999999MA1101291999999MW1001REMMET045DAAD 271400Z 24012KT 9999 FEW033 42/06 Q1013;EQDQ01+000000PRSWM2
0139605150999992000082716004+35320+004190FM-15+0461DAAD V0202401N007212200019N0112651N1+04201+00501999999ADDGA1021+009909999GF102991999999999999999999MA1101191999999MW1001REMMET045DAAD 271600Z 24014KT 9999 FEW033 42/05 Q1012;EQDQ01+000000PRSWM2
0139605150999992000082717004+35320+004190FM-15+0461DAAD V0202401N007212200019N0112651N1+04101+00801999999ADDGA1021+009909999GF102991999999999999999999MA1101191999999MW1001REMMET045DAAD 271700Z 24014KT 9999 FEW033 41/08 Q1012;EQDQ01+000000PRSWM2
0281605150999992000082718004+35320+004190SY-MT+0461DAAD V0202201N005112200019N0100001N1+03981+00571101321ADDAA199000091GA1021+009909999GF102991021021012501001001KA1120M+04241MA1101291999999MD1610041+9999MW1001REMSYN082AAXX  27184 60515 32660 22210 10398 20057 40132 56004 82200 333 10424 82833 95900;MET045DAAD 271800Z 22010KT 9999 FEW033 40/06 Q1013;EQDQ01+000000PRSWM2Q02  00002PRCP99
0271605150999992000082806004+35320+004190SY-MT+0461DAAD V0201801N003112200019N0100001N1+02371+00911101631ADDAA199000091GF100991001001999999001001IA2240+02109KA1120N+02311MA1101591999999MD1310091+9999MW1001REMSYN082AAXX  28064 60515 31960 01806 10237 20091 40163 53009 700// 333 02100 20231 95900;MET039DAAD 280600Z 18006KT CAVOK 24/09 Q1016;EQDQ01+000000PRSWM2Q02  00002PRCP99
0091605150999992000082807004+35320+004190FM-15+0461DAAD V0201801N00411220001CN0099001N1+02701+00801999999ADDMA1101591999999MW1001REMMET039DAAD 280700Z 18008KT CAVOK 27/08 Q1016;EQDQ01+000000PRSWM2
0091605150999992000082808004+35320+004190FM-15+0461DAAD V0201601N00311220001CN0099001N1+03001+01001999999ADDMA1101691999999MW1001REMMET039DAAD 280800Z 16006KT CAVOK 30/10 Q1017;EQDQ01+000000PRSWM2
0201605150999992000082809004+35320+004190SY-MT+0461DAAD V0201201N003112200019N0100001N1+03321+00991101801ADDGF100991001001999999001001MA1101801999999MD1210151+9999MW1001REMSYN064AAXX  28094 60515 42960 01206 10332 20099 40180 52015 333 95900;MET039DAAD 280900Z 12006KT CAVOK 33/10 Q1018;EQDQ01+000000PRSWM2
0091605150999992000082810004+35320+004190FM-15+0461DAAD V0200801N00311220001CN0099001N1+03501+01101999999ADDMA1101691999999MW1001REMMET039DAAD 281000Z 08006KT CAVOK 35/11 Q1017;EQDQ01+000000PRSWM2
0139605150999992000082811004+35320+004190FM-15+0461DAAD V0200201N003112200019N0112651N1+03601+01201999999ADDGA1021+012009999GF102991999999999999999999MA1101691999999MW1001REMMET045DAAD 281100Z 02006KT 9999 FEW040 36/12 Q1017;EQDQ01+000000PRSWM2
0268605150999992000082812004+35320+004190SY-MT+0461DAAD V0200601N003112200019N0100001N1+03781+01141101671ADDAA199000091GA1021+009909999GF103991031021999999001001MA1101591999999MD1810091+9999MW1001REMSYN082AAXX  28124 60515 32960 30606 10378 20114 40167 58009 83200 333 0//00 83833 95900;MET045DAAD 281200Z 06006KT 9999 SCT033 38/11 Q1016;EQDQ01+000000PRSWM2Q02  00002PRCP99
0139605150999992000082813004+35320+004190FM-15+0461DAAD V0200801N003112200019N0112651N1+03901+01201999999ADDGA1021+009909999GF104991999999999999999999MA1101591999999MW1001REMMET045DAAD 281300Z 08006KT 9999 SCT033 39/12 Q1016;EQDQ01+000000PRSWM2
0155605150999992000082814004+35320+004190FM-15+0461DAAD V0202201N006210090019N9999999N1+04001+00801999999ADDGA1071+009009999GF107991999999999999999999MA1101491999999MW1001REMMET045DAAD 281400Z 22012KT 7000 BKN030 40/08 Q1015;EQDQ01+070002VODIS Q02+000000PRSWM2
0267605150999992000082815004+35320+004190SY-MT+0461DAAD V0203001N007210099019N9999999N1+04201+00861101431ADDGA1071+009909999GF199999061021008001001001MA1101391999999MD1710211+9999MW1001REMSYN076AAXX  28154 60515 42557 63014 10420 20086 40143 57021 86200 333 86833 95900;MET045DAAD 281500Z 30014KT 7000 BKN033 42/09 Q1014;EQDQ01+000062SCOTCVQ02+070002VODIS Q03+000000PRSWM2
0155605150999992000082816004+35320+004190FM-15+0461DAAD V0203201N006210090019N9999999N1+04101+00901999999ADDGA1071+009009999GF107991999999999999999999MA1101391999999MW1001REMMET045DAAD 281600Z 32012KT 7000 BKN030 41/09 Q1014;EQDQ01+070002VODIS Q02+000000PRSWM2
0155605150999992000082817004+35320+004190FM-15+0461DAAD V0201001N006210099019N9999999N1+03901+00801999999ADDGA1071+009909999GF107991999999999999999999MA1101391999999MW1001REMMET045DAAD 281700Z 10012KT 7000 BKN033 39/08 Q1014;EQDQ01+070002VODIS Q02+000000PRSWM2
0313605150999992000082818004+35320+004190SY-MT+0461DAAD V0201201N006210099019N9999999N1+03791+00651101521ADDAA199000091GA1071+009909999GF199999051021008001001001KA1120M+04211MA1101491999999MD1510031+9999MW1001REMSYN082AAXX  28184 60515 32557 51212 10379 20065 40152 55003 85200 333 10421 85833 95900;MET045DAAD 281800Z 12012KT 7000 BKN033 38/07 Q1015;EQDQ01+000052SCOTCVQ02+070002VODIS Q03+000000PRSWM2Q04  00002PRCP99
0321605150999992000082906004+35320+004190SY-MT+0461DAAD V0202601N002112200019N0100001N1+02401+00251101731ADDAA199000091GA1021+009909999GF199999011021012501001001IA2240+02209KA1120N+02321MA1101691999999MD1310161+9999MW1001REMSYN094AAXX  29064 60515 31660 12604 10240 20025 40173 53016 700// 81200 333 02200 20232 81833 95900;MET045DAAD 290600Z 26004KT 9999 FEW033 24/03 Q1017;EQDQ01+000012SCOTCVQ02+000000PRSWM2Q03  00002PRCP99
0139605150999992000082908004+35320+004190FM-15+0461DAAD V0203601N002112200019N0112651N1+02901+00101999999ADDGA1021+009909999GF102991999999999999999999MA1101801999999MW1001REMMET045DAAD 290800Z 36004KT 9999 FEW033 29/01 Q1018;EQDQ01+000000PRSWM2
0144605150999992000082909004+35320+004190FM-12+0461DAAD V0203601N002112200019N0100001N1+03051+00051101851ADDGA1011+009909089GF101991011021012501001001MD1210151+9999REMSYN076AAXX  29094 60515 42660 13604 10305 20005 40185 52015 81200 333 81833 95900;
0139605150999992000082910004+35320+004190FM-15+0461DAAD V0209999C000012200019N0112651N1+03501+00201999999ADDGA1021+009909999GF102991999999999999999999MA1101801999999MW1001REMMET045DAAD 291000Z 00000KT 9999 FEW033 35/02 Q1018;EQDQ01+000000PRSWM2
0139605150999992000082911004+35320+004190FM-15+0461DAAD V0200801N002112200019N0112651N1+03701+00201999999ADDGA1021+009909999GF102991999999999999999999MA1101801999999MW1001REMMET045DAAD 291100Z 08004KT 9999 FEW033 37/02 Q1018;EQDQ01+000000PRSWM2
0268605150999992000082912004+35320+004190SY-MT+0461DAAD V0200801N003112200019N0100001N1+03911+00281101701ADDAA199000091GA1021+009009999GF102991021021008001001001MA1101691999999MD1810131+9999MW1001REMSYN082AAXX  29124 60515 32560 20806 10391 20028 40170 58013 82200 333 0//00 82830 95900;MET045DAAD 291200Z 08006KT 9999 FEW030 39/03 Q1017;EQDQ01+000000PRSWM2Q02  00002PRCP99
0139605150999992000082913004+35320+004190FM-15+0461DAAD V0201201N002112200019N0112651N1+04101+00601999999ADDGA1021+009009999GF102991999999999999999999MA1101591999999MW1001REMMET045DAAD 291300Z 12004KT 9999 FEW030 41/06 Q1016;EQDQ01+000000PRSWM2
0139605150999992000082914004+35320+004190FM-15+0461DAAD V0202001N004112200019N0112651N1+04201+00201999999ADDGA1021+009009999GF102991999999999999999999MA1101491999999MW1001REMMET045DAAD 291400Z 20008KT 9999 FEW030 42/02 Q1015;EQDQ01+000000PRSWM2
0235605150999992000082915004+35320+004190SY-MT+0461DAAD V0202001N003112200019N0100001N1+04101+00191101471ADDGA1021+009009999GF102991021021008001001001MA1101391999999MD1710201+9999MW1001REMSYN076AAXX  29154 60515 42560 22006 10410 20019 40147 57020 82200 333 82830 95900;MET045DAAD 291500Z 20006KT 9999 FEW030 41/02 Q1014;EQDQ01+000000PRSWM2
0139605150999992000082916004+35320+004190FM-15+0461DAAD V0201601N005112200019N0112651N1+04101+00201999999ADDGA1021+009009999GF102991999999999999999999MA1101391999999MW1001REMMET045DAAD 291600Z 16010KT 9999 FEW030 41/02 Q1014;EQDQ01+000000PRSWM2
0139605150999992000082917004+35320+004190FM-15+0461DAAD V0201801N007212200019N0112651N1+04001+00101999999ADDGA1021+009009999GF102991999999999999999999MA1101391999999MW1001REMMET045DAAD 291700Z 18014KT 9999 FEW030 40/01 Q1014;EQDQ01+000000PRSWM2
0281605150999992000082918004+35320+004190SY-MT+0461DAAD V0201601N005112200019N0100001N1+03891+00041101541ADDAA199000091GA1021+009009999GF102991021021008001001001KA1120M+04191MA1101491999999MD1310021+9999MW1001REMSYN082AAXX  29184 60515 32560 21610 10389 20004 40154 53002 82200 333 10419 82830 95900;MET045DAAD 291800Z 16010KT 9999 FEW030 39/00 Q1015;EQDQ01+000000PRSWM2Q02  00002PRCP99
0271605150999992000083006004+35320+004190SY-MT+0461DAAD V0209999C000012200019N0100001N1+02211+00501101571ADDAA199000091GF100991001001999999001001IA2240+01909KA1120N+02171MA1101491999999MD1310061+9999MW1001REMSYN082AAXX  30064 60515 31960 00000 10221 20050 40157 53006 700// 333 01900 20217 95900;MET039DAAD 300600Z 00000KT CAVOK 22/05 Q1015;EQDQ01+000000PRSWM2Q02  00002PRCP99
0091605150999992000083007004+35320+004190FM-15+0461DAAD V0209999C00001220001CN0099001N1+02501+00701999999ADDMA1101591999999MW1001REMMET039DAAD 300700Z 00000KT CAVOK 25/07 Q1016;EQDQ01+000000PRSWM2
0091605150999992000083008004+35320+004190FM-15+0461DAAD V0209999C00001220001CN0099001N1+02901+00801999999ADDMA1101591999999MW1001REMMET039DAAD 300800Z 00000KT CAVOK 29/08 Q1016;EQDQ01+000000PRSWM2
0201605150999992000083009004+35320+004190SY-MT+0461DAAD V0209999C000012200019N0100001N1+03181+00721101661ADDGF100991001001999999001001MA1101591999999MD1110101+9999MW1001REMSYN064AAXX  30094 60515 42960 00000 10318 20072 40166 51010 333 95900;MET039DAAD 300900Z 00000KT CAVOK 32/07 Q1016;EQDQ01+000000PRSWM2
0091605150999992000083010004+35320+004190FM-15+0461DAAD V0201001N00411220001CN0099001N1+03501+00401999999ADDMA1101591999999MW1001REMMET039DAAD 301000Z 10008KT CAVOK 35/04 Q1016;EQDQ01+000000PRSWM2
0091605150999992000083011004+35320+004190FM-15+0461DAAD V0201801N00311220001CN0099001N1+03701+00301999999ADDMA1101491999999MW1001REMMET039DAAD 301100Z 18006KT CAVOK 37/03 Q1015;EQDQ01+000000PRSWM2
0278605150999992000083012004+35320+004190SY-MT+0461DAAD V0202001N005112200019N0100001N1+03871+00021101381ADDAA199000091GA1031+024009079GF103991031999999999071001MA1101291999999MD1810221+9999MW1001REMSYN082AAXX  30124 60515 32960 32010 10387 20002 40138 58022 83070 333 0//00 83358 95900;MET039DAAD 301200Z 20010KT CAVOK 39/00 Q1013;EQDQ01+000000PRSWM2Q02  00002PRCP99Q03    003SCOLCG
0091605150999992000083014004+35320+004190FM-15+0461DAAD V0202201N00821220001CN0099001N1+04001+00101999999ADDMA1101191999999MW1001REMMET039DAAD 301400Z 22016KT CAVOK 40/01 Q1012;EQDQ01+000000PRSWM2
0245605150999992000083015004+35320+004190SY-MT+0461DAAD V0201801N008212200019N0100001N1+03961+00081101201ADDGA1021+024009079GF102991021999999999071001MA1101191999999MD1710231+9999MW1001REMSYN076AAXX  30154 60515 42960 21816 10396 20008 40120 57023 82070 333 82358 95900;MET039DAAD 301500Z 18016KT CAVOK 40/01 Q1012;EQDQ01+000000PRSWM2Q02    003SCOLCG
0091605150999992000083017004+35320+004190FM-15+0461DAAD V0202001N00931220001CN0099001N1+03801+00101999999ADDMA1101081999999MW1001REMMET039DAAD 301700Z 20018KT CAVOK 38/01 Q1011;EQDQ01+000000PRSWM2
0248605150999992000083018004+35320+004190SY-MT+0461DAAD V0202001N008212200019N0100001N1+03741-00081101171ADDAA199000091GF100991001001999999001001KA1120M+04031MA1101081999999MD1510051+9999MW1001REMSYN070AAXX  30184 60515 32960 02016 10374 21008 40117 55005 333 10403 95900;MET040DAAD 301800Z 02016KT CAVOK 37/M01 Q1011;EQDQ01+000000PRSWM2Q02  00002PRCP99
0271605150999992000083106004+35320+004190SY-MT+0461DAAD V0203001N002112200019N0100001N1+02341+00371101211ADDAA199000091GF100991001001999999001001IA2240+02109KA1120N+02311MA1101191999999MD1310061+9999MW1001REMSYN082AAXX  31064 60515 31960 03004 10234 20037 40121 53006 700// 333 02100 20231 95900;MET039DAAD 310600Z 30004KT CAVOK 23/04 Q1012;EQDQ01+000000PRSWM2Q02  00002PRCP99
0091605150999992000083108004+35320+004190FM-15+0461DAAD V0203001N00211220001CN0099001N1+02801+00201999999ADDMA1101291999999MW1001REMMET039DAAD 310800Z 30004KT CAVOK 28/02 Q1013;EQDQ01+000000PRSWM2
0201605150999992000083109004+35320+004190SY-MT+0461DAAD V0203001N002112200019N0100001N1+03101+00221101261ADDGF100991001001999999001001MA1101191999999MD1010081+9999MW1001REMSYN064AAXX  31094 60515 42960 03004 10310 20022 40126 50008 333 95900;MET039DAAD 310900Z 30004KT CAVOK 31/02 Q1012;EQDQ01+000000PRSWM2
0091605150999992000083110004+35320+004190FM-15+0461DAAD V0203601N00211220001CN0099001N1+03301+00401999999ADDMA1101191999999MW1001REMMET039DAAD 311000Z 36004KT CAVOK 33/04 Q1012;EQDQ01+000000PRSWM2
0234605150999992000083112004+35320+004190SY-MT+0461DAAD V0200601N00211220001CN0100001N1+03801+00551101131ADDAA199000091GF100991001001999999001001MA1101081999999MD1810091+9999MW1001REMSYN070AAXX  31124 60515 32960 00604 10380 20055 40113 58009 333 0//00 95900;MET039DAAD 311200Z 06004KT CAVOK 38/06 Q1011;EQDQ01+000000PRSWM2Q02  00002PRCP99
0091605150999992000083113004+35320+004190FM-15+0461DAAD V0200601N00311220001CN0099001N1+03901+00601999999ADDMA1101021999999MW1001REMMET039DAAD 311300Z 06006KT CAVOK 39/06 Q1010;EQDQ01+000000PRSWM2
0201605150999992000083115004+35320+004190SY-MT+0461DAAD V0202401N006212200019N0100001N1+04111+00271100891ADDGF100991001001999999001001MA1100811999999MD1710241+9999MW1001REMSYN064AAXX  31154 60515 42960 02412 10411 20027 40089 57024 333 95900;MET039DAAD 311500Z 24012KT CAVOK 41/03 Q1008;EQDQ01+000000PRSWM2
0091605150999992000083116004+35320+004190FM-15+0461DAAD V0203001N00211220001CN0099001N1+04101+00301999999ADDMA1100811999999MW1001REMMET039DAAD 311600Z 30004KT CAVOK 41/03 Q1008;EQDQ01+000000PRSWM2
0091605150999992000083117004+35320+004190FM-15+0461DAAD V0201801N00211220001CN0099001N1+04001+00201999999ADDMA1100811999999MW1001REMMET039DAAD 311700Z 18004KT CAVOK 40/02 Q1008;EQDQ01+000000PRSWM2
0291605150999992000083118004+35320+004190SY-MT+0461DAAD V0202001N001012200019N0100001N1+03901+00151100831ADDAA199000091GA1021+024009079GF102991021999022501031001KA1120M+04141MA1100811999999MD1610091+9999MW1001REMSYN082AAXX  31184 60515 32860 22002 10390 20015 40083 56009 82030 333 10414 82358 95900;MET039DAAD 311800Z 20002KT CAVOK 39/02 Q1008;EQDQ01+000000PRSWM2Q02  00002PRCP99Q03    003SCOLCG
0271605150999992000090106004+35320+004190SY-MT+0461DAAD V0209999C000012200019N0100001N1+02201+00411101101ADDAA199000091GF100991001001999999001001IA2240+01909KA1120N+02141MA1101081999999MD1310071+9999MW1001REMSYN082AAXX  01064 60515 31960 00000 10220 20041 40110 53007 700// 333 01900 20214 95900;MET039DAAD 010600Z 00000KT CAVOK 22/04 Q1011;EQDQ01+000000PRSWM2Q02  00002PRCP99
0091605150999992000090108004+35320+004190FM-15+0461DAAD V0209999C00001220001CN0099001N1+02801+00501999999ADDMA1101081999999MW1001REMMET039DAAD 010800Z 00000KT CAVOK 28/05 Q1011;EQDQ01+000000PRSWM2
0201605150999992000090109004+35320+004190SY-MT+0461DAAD V0201001N003112200019N0100001N1+03111+00481101211ADDGF100991001001999999001001MA1101191999999MD1810141+9999MW1001REMSYN064AAXX  01094 60515 42960 01006 10311 20048 40121 58014 333 95900;MET039DAAD 010900Z 10006KT CAVOK 31/05 Q1012;EQDQ01+000000PRSWM2
0091605150999992000090110004+35320+004190FM-15+0461DAAD V0203401N00211220001CN0099001N1+03401+00401999999ADDMA1101081999999MW1001REMMET039DAAD 011000Z 34004KT CAVOK 34/04 Q1011;EQDQ01+000000PRSWM2
0091605150999992000090111004+35320+004190FM-15+0461DAAD V0203401N00311220001CN0099001N1+03601+00401999999ADDMA1101191999999MW1001REMMET039DAAD 011100Z 34006KT CAVOK 36/04 Q1012;EQDQ01+000000PRSWM2
0278605150999992000090112004+35320+004190SY-MT+0461DAAD V0200801N003112200019N0100001N1+03771+00411101181ADDAA199000091GA1011+024009079GF101991011999999999071001MA1101081999999MD1810031+9999MW1001REMSYN082AAXX  01124 60515 32960 10806 10377 20041 40118 58003 81070 333 0//00 81358 95900;MET039DAAD 011200Z 08006KT CAVOK 38/04 Q1011;EQDQ01+000000PRSWM2Q02  00002PRCP99Q03    003SCOLCG
0091605150999992000090113004+35320+004190FM-15+0461DAAD V0200801N00311220001CN0099001N1+03901+00401999999ADDMA1101081999999MW1001REMMET039DAAD 011300Z 08006KT CAVOK 39/04 Q1011;EQDQ01+000000PRSWM2
0091605150999992000090114004+35320+004190FM-15+0461DAAD V0201201N00621220001CN0099001N1+04101+00301999999ADDMA1101021999999MW1001REMMET039DAAD 011400Z 12012KT CAVOK 41/03 Q1010;EQDQ01+000000PRSWM2
0213605150999992000090115004+35320+004190SY-MT+0461DAAD V0201201N00511220001CN0100001N1+04061+00171100961ADDGF104991041001999999071021MA1100911999999MD1710221+9999MW1001REMSYN076AAXX  01154 60515 42960 41210 10406 20017 40096 57022 84072 333 84358 95900;MET039DAAD 011500Z 12010KT CAVOK 41/02 Q1009;EQDQ01+000000PRSWM2
0091605150999992000090116004+35320+004190FM-15+0461DAAD V0201201N00311220001CN0099001N1+04001+00301999999ADDMA1100911999999MW1001REMMET039DAAD 011600Z 12006KT CAVOK 40/03 Q1009;EQDQ01+000000PRSWM2
0091605150999992000090117004+35320+004190FM-15+0461DAAD V0201001N00311220001CN0099001N1+04001+00301999999ADDMA1100911999999MW1001REMMET039DAAD 011700Z 10006KT CAVOK 40/03 Q1009;EQDQ01+000000PRSWM2
0291605150999992000090118004+35320+004190SY-MT+0461DAAD V0201001N003119999999N0100001N1+03701+00181100981ADDAA199000091GA1041+024009079GF105991041999999999071021KA1120M+04081MA1100911999999MD1510031+9999MW1001REMSYN082AAXX  01184 60515 32960 51006 10370 20018 40098 55003 84072 333 10408 84358 95900;MET039DAAD 011800Z 10006KT CAVOK 37/02 Q1009;EQDQ01+000000PRSWM2Q02  00002PRCP99Q03    003SCOLCG
0308605150999992000090206004+35320+004190SY-MT+0461DAAD V0202601N002110900019N0035001N1+03051+01231101121ADDAA199000091GA1021+009909999GF105991031021012501001021IA2240+02809KA1120N+03041MA1101081999999MD1310051+9999MW1051REMSYN094AAXX  02064 60515 31635 52604 10305 20123 40112 53005 705// 83202 333 02800 20304 83833 95990;MET048DAAD 020600Z 26004KT 3500 HZ SCT033 31/12 Q1011;EQDQ01  00002PRCP99Q02    003PRSWM1
0158605150999992000090207004+35320+004190FM-15+0461DAAD V0202601N002112200019N0035001N1+03101+01201999999ADDGA1021+009909999GF102991999999999999999999MA1101081999999MW1051REMMET048DAAD 020700Z 26004KT 3500 HZ FEW033 31/12 Q1011;EQDQ01+000003PRSWM1Q02    003PRSWM1
0158605150999992000090208004+35320+004190FM-15+0461DAAD V0203601N005112200019N0035001N1+03201+01101999999ADDGA1021+009909999GF104991999999999999999999MA1101191999999MW1051REMMET048DAAD 020800Z 36010KT 3500 HZ SCT033 32/11 Q1012;EQDQ01+000003PRSWM1Q02    003PRSWM1
0276605150999992000090209004+35320+004190SY-MT+0461DAAD V0200601N002110090019N0035001N1+03411+01171101281ADDAY101031AY221031GA1071+009009999GF199999051021008001001021MA1101191999999MD1210151+9999MW1051REMSYN082AAXX  02094 60515 41535 60604 10341 20117 40128 52015 70502 85202 333 85830 95990;MET048DAAD 020900Z 06004KT 3500 HZ BKN030 34/12 Q1012;EQDQ01+000062SCOTCVQ02    003PRSWM1
0284605150999992000090212004+35320+004190SY-MT+0461DAAD V0201001N004112200019N9999999N1+03711+01121101121ADDAA199000091GA1021+009909999GF103991021021012501001021MA1101081999999MD1810131+9999MW1001REMSYN082AAXX  02124 60515 32656 31008 10371 20112 40112 58013 82202 333 0//00 82833 95900;MET045DAAD 021200Z 10008KT 6000 FEW033 37/11 Q1011;EQDQ01+060002VODIS Q02+000000PRSWM2Q03  00002PRCP99
0155605150999992000090213004+35320+004190FM-15+0461DAAD V0201001N003112200019N9999999N1+03801+01101999999ADDGA1021+009909999GF102991999999999999999999MA1101021999999MW1001REMMET045DAAD 021300Z 10006KT 7000 FEW033 38/11 Q1010;EQDQ01+070002VODIS Q02+000000PRSWM2
0155605150999992000090214004+35320+004190FM-15+0461DAAD V0201001N005112200019N9999999N1+03801+01101999999ADDGA1021+009909999GF102991999999999999999999MA1100911999999MW1001REMMET045DAAD 021400Z 10010KT 7000 FEW033 38/11 Q1009;EQDQ01+070002VODIS Q02+000000PRSWM2
0267605150999992000090215004+35320+004190SY-MT+0461DAAD V0201001N004110099019N9999999N1+03801+01051100941ADDGA1071+009909999GF199999051021012501001021MA1100911999999MD1710151+9999MW1001REMSYN076AAXX  02154 60515 42657 61008 10380 20105 40094 57015 85202 333 85833 95900;MET045DAAD 021500Z 10008KT 7000 BKN033 38/11 Q1009;EQDQ01+000062SCOTCVQ02+070002VODIS Q03+000000PRSWM2
0165605150999992000090216004+35320+004190FM-15+0461DAAD V0201401N014410001519N0000501N1+03701+01001999999ADDGA1091+000159999GF109991999999000251999999MA1100911999999MW1171MW2311REMMET049DAAD 021600Z 14028KT 0050 TSSS VV/// 37/10 Q1009;EQDQ01+000003PRSWM1Q02    003PRSWM1
0160605150999992000090217004+35320+004190FM-15+0461DAAD V0201801N00511000151CN0007001N1+03001+01501999999ADDGA1091+000159999GF109991999999000251999999MA1101081999999MW1171REMMET050DAAD 021700Z 18010KT 0700 TS VV///30/15 Q1011 RES;EQDQ01+000003PRSWM1Q02    003PRSWM1
0305605150999992000090218004+35320+004190SY-MT+0461DAAD V0202801N00411000151CN0007001N1+03121+01291101281ADDAA199000091AY191061AY221061GA1091+000159999GF109991091999000151999999KA1120M+03841MA1101191999999MD1310261+9999MW1311REMSYN088AAXX  02184 60515 31/07 92808 10312 20129 40128 53026 73192 89/// 333 10384 89/// 95990;MET047DAAD 021800Z 28008KT 0700 DS VV/// 31/13 Q1012;EQDQ01  00002PRCP99Q02    003PRSWM1
0136605150999992000090306004+35320+004190FM-15+0461DAAD V0202601N006212200019N9999999N1+02501+01501999999ADDGF100991999999999999999999MA1101391999999MW1001REMMET042DAAD 030600Z 26012KT 7000 SKC 25/15 Q1014;EQDQ01+070002VODIS Q02+000000PRSWM2
0136605150999992000090307004+35320+004190FM-15+0461DAAD V0201801N003112200019N9999999N1+02601+01701999999ADDGF100991999999999999999999MA1101391999999MW1001REMMET042DAAD 030700Z 18006KT 7000 SKC 26/17 Q1014;EQDQ01+070002VODIS Q02+000000PRSWM2
0220605150999992000090309004+35320+004190SY-MT+0461DAAD V0203001N003112200019N0070001N1+02771+99999101521ADDGF100991001001999999001001MA1101491999999MD1210101+9999MW1001REMSYN064AAXX  03094 60515 42957 03006 10277 20015 40152 52010 333 95900;MET042DAAD 030900Z 30006KT 7000 SKC 28/18 Q1015;EQDQ01+000153ATOD  Q02+000000PRSWM2
0136605150999992000090311004+35320+004190FM-15+0461DAAD V0201001N002112200019N9999999N1+03101+01801999999ADDGF100991999999999999999999MA1101391999999MW1001REMMET042DAAD 031100Z 10004KT 7000 SKC 31/18 Q1014;EQDQ01+070002VODIS Q02+000000PRSWM2
0253605150999992000090312004+35320+004190SY-MT+0461DAAD V0203001N002112200019N9999999N1+03221+01821101421ADDAA199000091GF100991001001999999001001MA1101391999999MD1810091+9999MW1001REMSYN070AAXX  03124 60515 32957 03004 10322 20182 40142 58009 333 0//00 95900;MET042DAAD 031200Z 30004KT 7000 SKC 32/18 Q1014;EQDQ01+070002VODIS Q02+000000PRSWM2Q03  00002PRCP99
0154605150999992000090313004+35320+004190FM-15+0461DAAD V0203401N003112200019N9999999N1+03301+01701999999ADDGA1021+013809999GF102991999999999999999999MA1101291999999MW1001REMMET044DAAD 031300Z 34006KT7000 FEW046 33/17 Q1013;EQDQ01+070002VODIS Q02+000000PRSWM2
0155605150999992000090314004+35320+004190FM-15+0461DAAD V0203401N003112200019N9999999N1+03401+01701999999ADDGA1021+013809999GF102991999999999999999999MA1101191999999MW1001REMMET045DAAD 031400Z 34006KT 7000 FEW046 34/17 Q1012;EQDQ01+070002VODIS Q02+000000PRSWM2
0251605150999992000090315004+35320+004190SY-MT+0461DAAD V0203601N007212200019N9999999N1+03451+01381101151ADDGA1021+013809999GF102991021021999999071001MA1101081999999MD1710261+9999MW1001REMSYN076AAXX  03154 60515 42957 23614 10345 20138 40115 57026 82270 333 82846 95900;MET045DAAD 031500Z 36014KT 7000 FEW046 35/14 Q1011;EQDQ01+070002VODIS Q02+000000PRSWM2
0155605150999992000090316004+35320+004190FM-15+0461DAAD V0203401N004112200019N9999999N1+03501+01401999999ADDGA1021+013809999GF102991999999999999999999MA1101081999999MW1001REMMET045DAAD 031600Z 34008KT 7000 FEW046 35/14 Q1011;EQDQ01+070002VODIS Q02+000000PRSWM2
0158605150999992000090316474+35320+004190FM-15+0461DAAD V0201801N012310078019N0008001N1+03501+01301999999ADDGA1071+007809999GF107991999999999999999999MA1101191999999MW1311REMMET048DAAD 031647Z 18024KT 0800 SS BKN026 35/13 Q1012;EQDQ01+000003PRSWM1Q02    003PRSWM1
0313605150999992000090318004+35320+004190SY-MT+0461DAAD V0202001N007210078019N9999999N1+02951+01461101251ADDAA199000091GA1071+007809999GF199999051021008001001001KA1120M+03521MA1101191999999MD1310061+9999MW1001REMSYN082AAXX  03184 60515 32556 52014 10295 20146 40125 53006 85200 333 10352 85826 95900;MET045DAAD 031800Z 20014KT 6000 BKN026 30/15 Q1012;EQDQ01+000052SCOTCVQ02+060002VODIS Q03+000000PRSWM2Q04  00002PRCP99
0271605150999992000090406004+35320+004190SY-MT+0461DAAD V0209999C000012200019N0100001N1+02351+01541101361ADDAA199000091GF100991001001999999001001IA2240+02109KA1120N+02301MA1101291999999MD1310051+9999MW1001REMSYN082AAXX  04064 60515 31960 00000 10235 20154 40136 53005 700// 333 02100 20230 95900;MET039DAAD 040600Z 00000KT CAVOK 24/15 Q1013;EQDQ01+000000PRSWM2Q02  00002PRCP99
0091605150999992000090408004+35320+004190FM-15+0461DAAD V0200901N00101220001CN0099001N1+02601+01801999999ADDMA1101391999999MW1001REMMET039DAAD 040800Z 09002KT CAVOK 26/18 Q1014;EQDQ01+000000PRSWM2
0201605150999992000090409004+35320+004190SY-MT+0461DAAD V0200901N001012200019N0100001N1+02821+01701101461ADDGF100991001001999999001001MA1101391999999MD1210121+9999MW1001REMSYN064AAXX  04094 60515 42960 00902 10282 20170 40146 52012 333 95900;MET039DAAD 040900Z 09002KT CAVOK 28/17 Q1014;EQDQ01+000000PRSWM2
0091605150999992000090410004+35320+004190FM-15+0461DAAD V0200801N00101220001CN0099001N1+03001+01701999999ADDMA1101391999999MW1001REMMET039DAAD 041000Z 08002KT CAVOK 30/17 Q1014;EQDQ01+000000PRSWM2
0091605150999992000090411004+35320+004190FM-15+0461DAAD V0200801N00211220001CN0099001N1+03201+01701999999ADDMA1101391999999MW1001REMMET039DAAD 041100Z 08004KT CAVOK 32/17 Q1014;EQDQ01+000000PRSWM2
0268605150999992000090412004+35320+004190SY-MT+0461DAAD V0209999C000012200019N0100001N1+03261+01621101351ADDAA199000091GA1021+009009999GF102991021021008001001001MA1101291999999MD1810091+9999MW1001REMSYN082AAXX  04124 60515 32560 20000 10326 20162 40135 58009 82200 333 0//00 82830 95900;MET045DAAD 041200Z 00000KT 9999 FEW030 33/16 Q1013;EQDQ01+000000PRSWM2Q02  00002PRCP99
0139605150999992000090413004+35320+004190FM-15+0461DAAD V0200401N005112200019N0112651N1+03301+01601999999ADDGA1021+009009999GF102991999999999999999999MA1101191999999MW1001REMMET045DAAD 041300Z 04010KT 9999 FEW030 33/16 Q1012;EQDQ01+000000PRSWM2
0139605150999992000090414004+35320+004190FM-15+0461DAAD V0200401N002112200019N0112651N1+03401+01601999999ADDGA1021+009009999GF102991999999999999999999MA1101191999999MW1001REMMET045DAAD 041400Z 04004KT 9999 FEW030 34/16 Q1012;EQDQ01+000000PRSWM2
0178605150999992000090415004+35320+004190FM-12+0461DAAD V0200401N00211000601CN0100001N1+03331+01651101151ADDAY101031AY211031GA1051+000609039GF106991051031008001001021MD1710201+9999MW1171REMSYN088AAXX  04154 60515 41560 60404 10333 20165 40115 57020 71701 85302 333 83830 82933 95900;
0183605150999992000090416004+35320+004190FM-15+0461DAAD V0202801N007212200019N0112651N1+02502+01601999999ADDGA1021+007809999GA2021+009009099GF104991999999999999999999MA1101191999999MW1171REMMET057DAAD 041600Z 28014KT 9999 TS SCT026 SCT030CB 25/16 Q1012;EQDQ01+000003PRSWM1Q02    003PRSWM1
0142605150999992000090417004+35320+004190FM-15+0461DAAD V0202601N002112200019N0112651N1+02901+01801999999ADDGA1021+009009029GF104991999999999999999999MA1101081999999MW1001REMMET048DAAD 041700Z 26004KT 9999 SCT030TCU 29/18 Q1011;EQDQ01+000000PRSWM2
0274605150999992000090418004+35320+004190SY-MT+0461DAAD V0202601N002112200019N0100001N1+02861+01771101201ADDAA112006191GA1021+009009029GF104991031021008001001021KA1120M+03461MA1101191999999MD1810011+9999MW1001REMSYN088AAXX  04184 60515 12560 42604 10286 20177 40120 58001 60062 83202 333 10346 83830 95900;MET048DAAD 041800Z 26004KT 9999 SCT030TCU 29/18 Q1012;EQDQ01+000000PRSWM2
0295605150999992000090506004+35320+004190SY-MT+0461DAAD V0203001N002112200019N0100001N1+02041+01651101861ADDAA124016091GA1021+009009999GF102991021011008001001001IA2240+01909KA1120N+02021MA1101801999999MD1310101+9999MW1001REMSYN100AAXX  05064 60515 11560 23004 10204 20165 40186 53010 60164 700// 82100 333 01900 20202 82830 95900;MET045DAAD 050600Z 30004KT 9999 FEW030 20/17 Q1018;EQDQ01+000000PRSWM2
0139605150999992000090507004+35320+004190FM-15+0461DAAD V0203401N006212200019N0112651N1+01901+01601999999ADDGA1021+009909999GF102991999999999999999999MA1101901999999MW1001REMMET045DAAD 050700Z 34012KT 9999 FEW033 19/16 Q1019;EQDQ01+000000PRSWM2
0201605150999992000090509004+35320+004190SY-MT+0461DAAD V0203401N003112200019N0100001N1+02371+01711102021ADDGF100991001001999999001001MA1102001999999MD1110101+9999MW1001REMSYN064AAXX  05094 60515 42960 03406 10237 20171 40202 51010 333 95900;MET039DAAD 050900Z 34006KT CAVOK 24/17 Q1020;EQDQ01+000000PRSWM2
0139605150999992000090510004+35320+004190FM-15+0461DAAD V0203401N002112200019N0112651N1+02401+01801999999ADDGA1021+009009999GF102991999999999999999999MA1102001999999MW1001REMMET045DAAD 051000Z 34004KT 9999 FEW030 24/18 Q1020;EQDQ01+000000PRSWM2
0139605150999992000090511004+35320+004190FM-15+0461DAAD V0209999C000012200019N0112651N1+02601+01801999999ADDGA1021+009009999GF102991999999999999999999MA1102001999999MW1001REMMET045DAAD 051100Z 00000KT 9999 FEW030 26/18 Q1020;EQDQ01+000000PRSWM2
0268605150999992000090512004+35320+004190SY-MT+0461DAAD V0203601N003112200019N0100001N1+02681+01711101951ADDAA199000091GA1021+007809999GF103991031021008001001001MA1101901999999MD1810031+9999MW1001REMSYN082AAXX  05124 60515 32560 33606 10268 20171 40195 58003 83200 333 0//00 83826 95900;MET045DAAD 051200Z 36006KT 9999 SCT026 27/17 Q1019;EQDQ01+000000PRSWM2Q02  00002PRCP99
0139605150999992000090514004+35320+004190FM-15+0461DAAD V0209999C000012200019N0112651N1+03001+01701999999ADDGA1021+007809999GF104991999999999999999999MA1101801999999MW1001REMMET045DAAD 051400Z 00000KT 9999 SCT026 30/17 Q1018;EQDQ01+000000PRSWM2
0235605150999992000090515004+35320+004190SY-MT+0461DAAD V0209999C000012200019N0100001N1+03061+01641101781ADDGA1021+007809999GF103991031021008001001001MA1101691999999MD1710121+9999MW1001REMSYN076AAXX  05154 60515 42560 30000 10306 20164 40178 57012 83200 333 83826 95900;MET045DAAD 051500Z 00000KT 9999 SCT026 31/16 Q1017;EQDQ01+000000PRSWM2
0139605150999992000090516004+35320+004190FM-15+0461DAAD V0209999C000012200019N0112651N1+03101+01601999999ADDGA1021+007809999GF104991999999999999999999MA1101691999999MW1001REMMET045DAAD 051600Z 00000KT 9999 SCT026 31/16 Q1017;EQDQ01+000000PRSWM2
0139605150999992000090517004+35320+004190FM-15+0461DAAD V0209999C000012200019N0112651N1+03001+01601999999ADDGA1021+007809999GF104991999999999999999999MA1101691999999MW1001REMMET045DAAD 051700Z 00000KT 9999 SCT026 30/16 Q1017;EQDQ01+000000PRSWM2
0275605150999992000090518004+35320+004190SY-MT+0461DAAD V0209999C000012200019N0100001N1+02701+01591101801ADDAA199000091GA1021+007809999GF103991031081008001001001KA1120M+03101MA1101801999999MD1510001+9999MW1001REMSYN076AAXX  05184 60515 32560 30000 10270 20159 40180 55000 83800 333 10310 83826;MET045DAAD 051800Z 00000KT 9999 FEW026 27/16 Q1018;EQDQ01+000000PRSWM2Q02  00002PRCP99
0271605150999992000090606004+35320+004190SY-MT+0461DAAD V0209999C000012200019N0100001N1+01891+01301102091ADDAA199000091GF100991001001999999001001IA2240+01609KA1120N+01801MA1102001999999MD1310021+9999MW1001REMSYN082AAXX  06064 60515 31960 00000 10189 20130 40209 53002 700// 333 01600 20180 95900;MET039DAAD 060600Z 00000KT CAVOK 19/13 Q1020;EQDQ01+000000PRSWM2Q02  00002PRCP99
0139605150999992000090607004+35320+004190FM-15+0461DAAD V0209999C000012200019N0112651N1+02001+01101999999ADDGA1021+009909999GF102991999999999999999999MA1102101999999MW1001REMMET045DAAD 060700Z 00000KT 9999 FEW033 20/11 Q1021;EQDQ01+000000PRSWM2
0139605150999992000090608004+35320+004190FM-15+0461DAAD V0209999C000012200019N0112651N1+02101+01201999999ADDGA1021+009009999GF104991999999999999999999MA1102101999999MW1001REMMET045DAAD 060800Z 00000KT 9999 SCT030 21/12 Q1021;EQDQ01+000000PRSWM2
0251605150999992000090609004+35320+004190SY-MT+0461DAAD V0209999C000012200019N0100001N1+02251+01111102161ADDGA1021+009909999GF199999011021012501001001MA1102101999999MD1310061+9999MW1001REMSYN076AAXX  06094 60515 42660 10000 10225 20111 40216 53006 81200 333 81833 95900;MET045DAAD 060900Z 00000KT 9999 FEW033 23/11 Q1021;EQDQ01+000012SCOTCVQ02+000000PRSWM2
0139605150999992000090610004+35320+004190FM-15+0461DAAD V0209999C000012200019N0112651N1+02401+01201999999ADDGA1021+009909999GF102991999999999999999999MA1102101999999MW1001REMMET045DAAD 061000Z 00000KT 9999 FEW033 24/12 Q1021;EQDQ01+000000PRSWM2
0268605150999992000090612004+35320+004190SY-MT+0461DAAD V0209999C000012200019N0100001N1+02841+01511102011ADDAA199000091GA1021+009009999GF102991021021008001001001MA1102001999999MD1810111+9999MW1001REMSYN082AAXX  06124 60515 32560 20000 10284 20151 40201 58011 82200 333 0//00 82830 95900;MET045DAAD 061200Z 00000KT 9999 FEW030 28/15 Q1020;EQDQ01+000000PRSWM2Q02  00002PRCP99
0139605150999992000090613004+35320+004190FM-15+0461DAAD V0200801N002112200019N0112651N1+02901+01501999999ADDGA1021+009009999GF104991999999999999999999MA1101901999999MW1001REMMET045DAAD 061300Z 08004KT 9999 SCT030 29/15 Q1019;EQDQ01+000000PRSWM2
0139605150999992000090614004+35320+004190FM-15+0461DAAD V0200801N001012200019N0112651N1+03101+01501999999ADDGA1021+009009999GF104991999999999999999999MA1101801999999MW1001REMMET045DAAD 061400Z 08002KT 9999 SCT030 31/15 Q1018;EQDQ01+000000PRSWM2
0235605150999992000090615004+35320+004190SY-MT+0461DAAD V0203601N002112200019N0100001N1+03101+01471101741ADDGA1021+009009999GF103991031021008001001001MA1101691999999MD1710241+9999MW1001REMSYN076AAXX  06154 60515 42560 33604 10310 20147 40174 57024 83200 333 83830 95900;MET045DAAD 061500Z 36004KT 9999 SCT030 31/15 Q1017;EQDQ01+000000PRSWM2
0139605150999992000090616004+35320+004190FM-15+0461DAAD V0209999C000012200019N0112651N1+03101+01501999999ADDGA1021+009009999GF102991999999999999999999MA1101591999999MW1001REMMET045DAAD 061600Z 00000KT 9999 FEW030 31/15 Q1016;EQDQ01+000000PRSWM2
0139605150999992000090617004+35320+004190FM-15+0461DAAD V0209999C000012200019N0112651N1+03101+01401999999ADDGA1021+009009999GF102991999999999999999999MA1101591999999MW1001REMMET045DAAD 061700Z 00000KT 9999 FEW030 31/14 Q1016;EQDQ01+000000PRSWM2
0139605150999992000090618004+35320+004190FM-15+0461DAAD V0209999C000012200019N0112651N1+03001+01301999999ADDGA1021+009009999GF102991999999999999999999MA1101591999999MW1001REMMET045DAAD 061800Z 00000KT 9999 FEW030 30/13 Q1016;EQDQ01+000000PRSWM2
0299605150999992000090706004+35320+004190SY-MT+0461DAAD V0209999C000012200019N0100001N1+01901+01331101701ADDAA199000091GA1031+060009019GF103991001001999999001021IA2240+01709KA1120N+01871MA1101691999999MD1610021+9999MW1001REMSYN094AAXX  07064 60515 31960 30000 10190 20133 40170 56002 700// 80002 333 01700 20187 83070 95900;MET039DAAD 070600Z 00000KT CAVOK 19/13 Q1017;EQDQ01+000000PRSWM2Q02  00002PRCP99
0091605150999992000090708004+35320+004190FM-15+0461DAAD V0203601N00311220001CN0099001N1+02201+00901999999ADDMA1101901999999MW1001REMMET039DAAD 070800Z 36006KT CAVOK 22/09 Q1019;EQDQ01+000000PRSWM2
0229605150999992000090709004+35320+004190SY-MT+0461DAAD V0203601N002112200019N0100001N1+02421+00891101781ADDGA1031+060009019GF103991001001999999001021MA1101691999999MD1310081+9999MW1001REMSYN076AAXX  07094 60515 42960 33604 10242 20089 40178 53008 80002 333 83070 95900;MET039DAAD 070900Z 36004KT CAVOK 24/09 Q1017;EQDQ01+000000PRSWM2
0091605150999992000090710004+35320+004190FM-15+0461DAAD V0209999C00001220001CN0099001N1+02701+01201999999ADDMA1101691999999MW1001REMMET039DAAD 071000Z 00000KT CAVOK 27/12 Q1017;EQDQ01+000000PRSWM2
0162605150999992000090711004+35320+004190FM-15+0461DAAD V0209999C000012200019N0112651N1+02901+01201999999ADDGA1021+012009999GA2021+060009999GF104991999999999999999999MA1101691999999MW1001REMMET052DAAD 071100Z 00000KT 9999 FEW040 SCT200 29/12 Q1017;EQDQ01+000000PRSWM2
0297605150999992000090712004+35320+004190SY-MT+0461DAAD V0209999C000012200019N0100001N1+03031+01251101571ADDAA199000091GA1021+012009999GA2021+060009999GF104991011021012501001021MA1101491999999MD1810161+9999MW1001REMSYN088AAXX  07124 60515 32660 40000 10303 20125 40157 58016 81202 333 0//00 81840 83070 95900;MET052DAAD 071200Z 00000KT 9999 FEW040 SCT200 30/13 Q1015;EQDQ01+000000PRSWM2Q02  00002PRCP99
0091605150999992000090713004+35320+004190FM-15+0461DAAD V0203601N00211220001CN0099001N1+03101+01201999999ADDMA1101391999999MW1001REMMET039DAAD 071300Z 36004KT CAVOK 31/12 Q1014;EQDQ01+000000PRSWM2
0162605150999992000090714004+35320+004190FM-15+0461DAAD V0203401N005110600019N0112651N1+03201+01201999999ADDGA1021+012009999GA2071+060009999GF107991999999999999999999MA1101291999999MW1001REMMET052DAAD 071400Z 34010KT 9999 FEW040 BKN200 32/12 Q1013;EQDQ01+000000PRSWM2
0166605150999992000090715004+35320+004190FM-12+0461DAAD V0203401N003110600019N0100001N1+03231+00441101361ADDGA1011+030009039GA2051+060009009GF106991011001999999071041MD1610201+9999REMSYN082AAXX  07154 60515 42960 63406 10323 20044 40136 56020 81074 333 81360 85070 95900;
0162605150999992000090716004+35320+004190FM-15+0461DAAD V0203201N004110600019N0112651N1+03201+00301999999ADDGA1021+012009999GA2071+060009999GF107991999999999999999999MA1101291999999MW1001REMMET052DAAD 071600Z 32008KT 9999 FEW040 BKN200 32/03 Q1013;EQDQ01+000000PRSWM2
0091605150999992000090717004+35320+004190FM-15+0461DAAD V0209999C00001220001CN0099001N1+03201+00101999999ADDMA1101191999999MW1001REMMET039DAAD 071700Z 00000KT CAVOK 32/01 Q1012;EQDQ01+000000PRSWM2
0275605150999992000090718004+35320+004190SY-MT+0461DAAD V0209999C000010600019N0100001N1+03091+00511101341ADDAA199000091GA1061+060009019GF106991001001999999001021KA1120M+03251MA1101291999999MD1510061+9999MW1001REMSYN082AAXX  07184 60515 32960 60000 10309 20051 40134 55006 80002 333 10325 86070 95900;MET039DAAD 071800Z 00000KT CAVOK 31/05 Q1013;EQDQ01+000000PRSWM2Q02  00002PRCP99
0332605150999992000090806004+35320+004190SY-MT+0461DAAD V0203401N005112200019N0100001N1+02221-00121101411ADDAA199000091GA1021+060009019GF199999001001999999001999IA2240+01909KA1120N+02131MA1101391999999MD1310081+9999MW1001REMSYN094AAXX  08064 60515 31960 03410 10222 21012 40141 53008 700// 80002 333 01900 20213 82070 95900;MET040DAAD 080600Z 34010KT CAVOK 22/M01 Q1014;EQDQ01+000002SCOTCVQ02+000002SCOHCGQ03+000000PRSWM2Q04  00002PRCP99
0092605150999992000090807004+35320+004190FM-15+0461DAAD V0203201N00621220001CN0099001N1+02401-00201999999ADDMA1101391999999MW1001REMMET040DAAD 080700Z 32012KT CAVOK 24/M02 Q1014;EQDQ01+000000PRSWM2
0092605150999992000090808004+35320+004190FM-15+0461DAAD V0203601N00621220001CN0099001N1+02401-00201999999ADDMA1101391999999MW1001REMMET040DAAD 080800Z 36012KT CAVOK 24/M02 Q1014;EQDQ01+000000PRSWM2
0235605150999992000090809004+35320+004190SY-MT+0461DAAD V0203601N005112200019N0100001N1+02511-00011101541ADDGA1021+009909999GF103991021021012501001021MA1101491999999MD1210111+9999MW1001REMSYN076AAXX  08094 60515 42660 33610 10251 21001 40154 52011 82202 333 82833 95900;MET045DAAD 080900Z 36010KT 9999 FEW033 25/00 Q1015;EQDQ01+000000PRSWM2
0139605150999992000090810004+35320+004190FM-15+0461DAAD V0203601N004112200019N0112651N1+02601+00001999999ADDGA1021+009909999GF102991999999999999999999MA1101491999999MW1001REMMET045DAAD 081000Z 36008KT 9999 FEW033 26/00 Q1015;EQDQ01+000000PRSWM2
0268605150999992000090812004+35320+004190SY-MT+0461DAAD V0203601N005112200019N0100001N1+02701+01451101531ADDAA199000091GA1021+007809999GF103991031021008001001001MA1101491999999MD1610031+9999MW1001REMSYN082AAXX  08124 60515 32560 33610 10270 20145 40153 56003 83200 333 0//00 83826 95900;MET045DAAD 081200Z 36010KT 9999 SCT026 27/15 Q1015;EQDQ01+000000PRSWM2Q02  00002PRCP99
0139605150999992000090813004+35320+004190FM-15+0461DAAD V0203601N006212200019N0112651N1+02801+01501999999ADDGA1021+007809999GF104991999999999999999999MA1101391999999MW1001REMMET045DAAD 081300Z 36012KT 9999 SCT026 28/15 Q1014;EQDQ01+000000PRSWM2
0139605150999992000090814004+35320+004190FM-15+0461DAAD V0203601N007212200019N0112651N1+02801+01201999999ADDGA1021+007809999GF104991999999999999999999MA1101391999999MW1001REMMET045DAAD 081400Z 36014KT 9999 SCT026 28/12 Q1014;EQDQ01+000000PRSWM2
0235605150999992000090815004+35320+004190SY-MT+0461DAAD V0203601N011312200019N0080001N1+02891+01091101421ADDGA1021+007809999GF104991041021008001001001MA1101391999999MD1610091+9999MW1001REMSYN076AAXX  08154 60515 42558 43622 10289 20109 40142 56009 84200 333 84826 95900;MET045DAAD 081500Z 36022KT 8000 SCT026 29/11 Q1014;EQDQ01+000000PRSWM2
0139605150999992000090817004+35320+004190FM-15+0461DAAD V0203601N007212200019N0112651N1+02801+00801999999ADDGA1021+009909999GF102991999999999999999999MA1101391999999MW1001REMMET045DAAD 081700Z 36014KT 9999 FEW033 28/08 Q1014;EQDQ01+000000PRSWM2
0297605150999992000090818004+35320+004190SY-MT+0461DAAD V0203601N006212200019N0100001N1+02651+00891101501ADDAA199000091GA1021+009909999GF199999011021012501001001KA1120M+02901MA1101491999999MD1310051+9999MW1001REMSYN082AAXX  08184 60515 32660 13612 10265 20089 40150 53005 81200 333 10290 81833 95900;MET045DAAD 081800Z 36012KT 9999 FEW033 27/09 Q1015;EQDQ01+000012SCOTCVQ02+000000PRSWM2Q03  00002PRCP99
0321605150999992000090906004+35320+004190SY-MT+0461DAAD V0202801N002112200019N0150001N1+99999+99999102021ADDAA199000091GA1021+009909999GF199999011021008001001001IA2240+01509KA1120N+01671MA1102001999999MD1310021+9999MW1001REMSYN094AAXX  09064 60515 31565 12804 10172 20178 40202 53002 700// 81200 333 01500 20167 81833 95900;MET045DAAD 090600Z 28004KT 9999 FEW033 17/18 Q1020;EQDQ01+000012SCOTCVQ02+000000PRSWM2Q03  00002PRCP99
0139605150999992000090907004+35320+004190FM-15+0461DAAD V0203601N004112200019N0112651N1+01901+01301999999ADDGA1021+009909999GF102991999999999999999999MA1102001999999MW1001REMMET045DAAD 090700Z 36008KT 9999 FEW033 19/13 Q1020;EQDQ01+000000PRSWM2
0139605150999992000090908004+35320+004190FM-15+0461DAAD V0203001N004112200019N0112651N1+02001+01201999999ADDGA1021+009909999GF102991999999999999999999MA1102101999999MW1001REMMET045DAAD 090800Z 30008KT 9999 FEW033 20/12 Q1021;EQDQ01+000000PRSWM2
0251605150999992000090909004+35320+004190SY-MT+0461DAAD V0209999C000012200019N0150001N1+02191+01161102111ADDGA1021+009909999GF199999011021008001001001MA1102101999999MD1110091+9999MW1001REMSYN076AAXX  09094 60515 42565 10000 10219 20116 40211 51009 81200 333 81833 95900;MET045DAAD 090900Z 00000KT 9999 FEW033 22/12 Q1021;EQDQ01+000012SCOTCVQ02+000000PRSWM2
0140605150999992000090910004+35320+004190FM-15+0461DAAD V0209999C000012200019N0112651N1+02401+01201999999ADDGA1021+009909999GF102991999999999999999999MW1001REMMET045DAAD 091000Z 00000KT 9999 FEW033 24/12 Q1011;EQDQ01+101083APOA  Q02+000000PRSWM2
0139605150999992000090911004+35320+004190FM-15+0461DAAD V0209999C000012200019N0112651N1+02501+01101999999ADDGA1021+009909999GF102991999999999999999999MA1102101999999MW1001REMMET045DAAD 091100Z 00000KT 9999 FEW033 25/11 Q1021;EQDQ01+000000PRSWM2
0278605150999992000090912004+35320+004190SY-MT+0461DAAD V0203201N004112200019N0150001N1+02571+01051102041ADDAA199000091GA1021+009909999GF199999011021008001001001MA1102001999999MD1810051+9999MW1001REMSYN076AAXX  09124 60515 32565 13208 10257 20105 40204 58005 81200 333 81833 95900;MET045DAAD 091200Z 32008KT 9999 FEW033 26/11 Q1020;EQDQ01+000012SCOTCVQ02+000000PRSWM2Q03  00002PRCP99
0123605150999992000090913004+35320+004190FM-15+0461DAAD V0209999C000012200019N0112651N1+02701+01001999999ADDGA1021+009909999GF102991999999999999999999MW1001REMMET044DAAD 091300Z 00000KT 9999 FEW033 27/10 1019;EQDQ01+000000PRSWM2
0139605150999992000090914004+35320+004190FM-15+0461DAAD V0209999C000012200019N0112651N1+02801+01001999999ADDGA1021+009909999GF102991999999999999999999MA1101901999999MW1001REMMET045DAAD 091400Z 00000KT 9999 FEW033 28/10 Q1019;EQDQ01+000000PRSWM2
0251605150999992000090915004+35320+004190SY-MT+0461DAAD V0209999C000012200019N0150001N1+02851+00641101871ADDGA1021+009909999GF199999011021008001001001MA1101901999999MD1710161+9999MW1001REMSYN076AAXX  09154 60515 42565 10000 10285 20064 40187 57016 81200 333 81833 95900;MET045DAAD 091500Z 00000KT 9999 FEW033 29/06 Q1019;EQDQ01+000012SCOTCVQ02+000000PRSWM2
0139605150999992000090916004+35320+004190FM-15+0461DAAD V0209999C000012200019N0112651N1+02901+00601999999ADDGA1021+009909999GF102991999999999999999999MA1101801999999MW1001REMMET045DAAD 091600Z 00000KT 9999 FEW033 29/06 Q1018;EQDQ01+000000PRSWM2
0139605150999992000090917004+35320+004190FM-15+0461DAAD V0209999C000012200019N0112651N1+02701+00601999999ADDGA1021+009909999GF102991999999999999999999MA1101801999999MW1001REMMET045DAAD 091700Z 00000KT 9999 FEW033 27/06 Q1018;EQDQ01+000000PRSWM2
0291605150999992000090918004+35320+004190SY-MT+0461DAAD V0209999C000012200019N0150001N1+02751+00761101851ADDAA199000091GA1021+009909999GF199999011021012501001001KA1120M+02881MA1101801999999MD1710041+9999MW1001REMSYN076AAXX  09184 60515 32665 10000 10275 20076 40185 57004 81200 333 10288 81833;MET045DAAD 091800Z 00000KT 9999 FEW033 28/08 Q1018;EQDQ01+000012SCOTCVQ02+000000PRSWM2Q03  00002PRCP99
0299605150999992000091006004+35320+004190SY-MT+0461DAAD V0209999C000012200019N0100001N1+01741+01251102051ADDAA199000091GA1021+060009019GF102991001001999999001021IA2240+01509KA1120N+01691MA1102001999999MD1310061+9999MW1001REMSYN094AAXX  10064 60515 31960 20000 10174 20125 40205 53006 700// 80002 333 01500 20169 82070 95900;MET039DAAD 100600Z 00000KT CAVOK 17/13 Q1020;EQDQ01+000000PRSWM2Q02  00002PRCP99
0091605150999992000091007004+35320+004190FM-15+0461DAAD V0209999C00001220001CN0099001N1+02001+01301999999ADDMA1102001999999MW1001REMMET039DAAD 100700Z 00000KT CAVOK 20/13 Q1020;EQDQ01+000000PRSWM2
0091605150999992000091008004+35320+004190FM-15+0461DAAD V0209999C00001220001CN0099001N1+02101+01301999999ADDMA1102101999999MW1001REMMET039DAAD 100800Z 00000KT CAVOK 21/13 Q1021;EQDQ01+000000PRSWM2
0229605150999992000091009004+35320+004190SY-MT+0461DAAD V0209999C000012200019N0100001N1+02261+01381102131ADDGA1011+060009019GF101991001001999999001021MA1102101999999MD1110091+9999MW1001REMSYN076AAXX  10094 60515 42960 10000 10226 20138 40213 51009 80002 333 81070 95900;MET039DAAD 100900Z 00000KT CAVOK 23/14 Q1021;EQDQ01+000000PRSWM2
0091605150999992000091010004+35320+004190FM-15+0461DAAD V0209999C00001220001CN0099001N1+02501+01301999999ADDMA1102101999999MW1001REMMET039DAAD 101000Z 00000KT CAVOK 25/13 Q1021;EQDQ01+000000PRSWM2
0091605150999992000091011004+35320+004190FM-15+0461DAAD V0209999C00001220001CN0099001N1+02701+01301999999ADDMA1102101999999MW1001REMMET039DAAD 101100Z 00000KT CAVOK 27/13 Q1021;EQDQ01+000000PRSWM2
0180605150999992000091012004+35320+004190FM-12+0461DAAD V0209999C000012200019N0100001N1+02811+01211102021ADDAA199000091GA1021+060009009GF102991001001999999001021MD1810081+9999REMSYN082AAXX  10124 60515 32960 20000 10281 20121 40202 58008 80002 333 0//00 82070 95900;EQDQ01  00002PRCP99
0091605150999992000091013004+35320+004190FM-15+0461DAAD V0209999C00001220001CN0099001N1+02901+01101999999ADDMA1101901999999MW1001REMMET039DAAD 101300Z 00000KT CAVOK 29/11 Q1019;EQDQ01+000000PRSWM2
0091605150999992000091014004+35320+004190FM-15+0461DAAD V0209999C00001220001CN0099001N1+03001+01001999999ADDMA1101801999999MW1001REMMET039DAAD 101400Z 00000KT CAVOK 30/10 Q1018;EQDQ01+000000PRSWM2
0229605150999992000091015004+35320+004190SY-MT+0461DAAD V0209999C000012200019N0100001N1+03061+01051101761ADDGA1021+069009019GF102991001001999999001021MA1101691999999MD1710251+9999MW1001REMSYN076AAXX  10154 60515 42960 20000 10306 20105 40176 57025 80002 333 82073 95900;MET039DAAD 101500Z 00000KT CAVOK 31/11 Q1017;EQDQ01+000000PRSWM2
0091605150999992000091016004+35320+004190FM-15+0461DAAD V0203601N00101220001CN0099001N1+03101+01001999999ADDMA1101691999999MW1001REMMET039DAAD 101600Z 36002KT CAVOK 31/10 Q1017;EQDQ01+000000PRSWM2
0091605150999992000091017004+35320+004190FM-15+0461DAAD V0203601N00211220001CN0099001N1+03001+00901999999ADDMA1101691999999MW1001REMMET039DAAD 101700Z 36004KT CAVOK 30/09 Q1017;EQDQ01+000000PRSWM2
0275605150999992000091018004+35320+004190SY-MT+0461DAAD V0203601N001012200019N0100001N1+02951+00871101751ADDAA199000091GA1021+060009019GF102991001001999999001021KA1120M+03101MA1101691999999MD1610031+9999MW1001REMSYN082AAXX  10184 60515 32960 23602 10295 20087 40175 56003 80002 333 10310 82070 95900;MET039DAAD 101800Z 36002KT CAVOK 30/09 Q1017;EQDQ01+000000PRSWM2Q02  00002PRCP99
0299605150999992000091106004+35320+004190SY-MT+0461DAAD V0209999C000012200019N0100001N1+01721+01041101601ADDAA199000091GA1011+060009019GF101991001001999999001021IA2240+01409KA1120N+01641MA1101591999999MD1610041+9999MW1001REMSYN094AAXX  11064 60515 31960 10000 10172 20104 40160 56004 700// 80002 333 01400 20164 81070 95900;MET039DAAD 110600Z 00000KT CAVOK 17/10 Q1016;EQDQ01+000000PRSWM2Q02  00002PRCP99
0091605150999992000091107004+35320+004190FM-15+0461DAAD V0209999C00001220001CN0099001N1+02001+00901999999ADDMA1101691999999MW1001REMMET039DAAD 110700Z 00000KT CAVOK 20/09 Q1017;EQDQ01+000000PRSWM2
0091605150999992000091108004+35320+004190FM-15+0461DAAD V0209999C00001220001CN0099001N1+02201+00901999999ADDMA1101691999999MW1001REMMET039DAAD 110800Z 00000KT CAVOK 22/09 Q1017;EQDQ01+000000PRSWM2
0201605150999992000091109004+35320+004190SY-MT+0461DAAD V0200201N002112200019N0100001N1+02451+01001101781ADDGF100991001001999999001001MA1101691999999MD1610181+9999MW1001REMSYN064AAXX  11094 60515 42960 00204 10245 20100 40178 56018 333 95900;MET039DAAD 110900Z 02004KT CAVOK 25/10 Q1017;EQDQ01+000000PRSWM2
0091605150999992000091110004+35320+004190FM-15+0461DAAD V0200201N00211220001CN0099001N1+02701+00901999999ADDMA1101691999999MW1001REMMET039DAAD 111000Z 02004KT CAVOK 27/09 Q1017;EQDQ01+000000PRSWM2
0091605150999992000091111004+35320+004190FM-15+0461DAAD V0209999C00001220001CN0099001N1+03001+01001999999ADDMA1101691999999MW1001REMMET039DAAD 111100Z 00000KT CAVOK 30/10 Q1017;EQDQ01+000000PRSWM2
0234605150999992000091112004+35320+004190SY-MT+0461DAAD V0209999C000012200019N0100001N1+03131+00771101571ADDAA199000091GF100991001001999999001001MA1101491999999MD1810161+9999MW1001REMSYN070AAXX  11124 60515 32960 00000 10313 20077 40157 58016 333 0//00 95900;MET039DAAD 111200Z 00000KT CAVOK 31/08 Q1015;EQDQ01+000000PRSWM2Q02  00002PRCP99
0091605150999992000091113004+35320+004190FM-15+0461DAAD V0203601N00211220001CN0099001N1+03201+00801999999ADDMA1101391999999MW1001REMMET039DAAD 111300Z 36004KT CAVOK 32/08 Q1014;EQDQ01+000000PRSWM2
0091605150999992000091114004+35320+004190FM-15+0461DAAD V0201201N00621220001CN0099001N1+03301+00601999999ADDMA1101391999999MW1001REMMET039DAAD 111400Z 12012KT CAVOK 33/06 Q1014;EQDQ01+000000PRSWM2
0201605150999992000091115004+35320+004190SY-MT+0461DAAD V0200801N004112200019N0100001N1+03311+00571101361ADDGF100991001001999999001001MA1101291999999MD1710201+9999MW1001REMSYN064AAXX  11154 60515 42960 00808 10331 20057 40136 57020 333 95900;MET039DAAD 111500Z 08008KT CAVOK 33/06 Q1013;EQDQ01+000000PRSWM2
0091605150999992000091116004+35320+004190FM-15+0461DAAD V0200801N00211220001CN0099001N1+03401+00601999999ADDMA1101291999999MW1001REMMET039DAAD 111600Z 08004KT CAVOK 34/06 Q1013;EQDQ01+000000PRSWM2
0091605150999992000091117004+35320+004190FM-15+0461DAAD V0200801N00211220001CN0099001N1+03301+00601999999ADDMA1101291999999MW1001REMMET039DAAD 111700Z 08004KT CAVOK 33/06 Q1013;EQDQ01+000000PRSWM2
0247605150999992000091118004+35320+004190SY-MT+0461DAAD V0200801N002112200019N0100001N1+03151+00891101351ADDAA199000091GF100991001001999999001001KA1120M+03351MA1101291999999MD1510051+9999MW1001REMSYN070AAXX  11184 60515 32960 00804 10315 20089 40135 55005 333 10335 95900;MET039DAAD 111800Z 08004KT CAVOK 32/09 Q1013;EQDQ01+000000PRSWM2Q02  00002PRCP99
0299605150999992000091206004+35320+004190SY-MT+0461DAAD V0209999C000012200019N0100001N1+01801+00981101481ADDAA199000091GA1021+060009019GF102991001001999999001021IA2240+01609KA1120N+01761MA1101391999999MD1310041+9999MW1001REMSYN094AAXX  12064 60515 31960 20000 10180 20098 40148 53004 700// 80002 333 01600 20176 82070 95900;MET039DAAD 120600Z 00000KT CAVOK 18/10 Q1014;EQDQ01+000000PRSWM2Q02  00002PRCP99
0091605150999992000091207004+35320+004190FM-15+0461DAAD V0209999C00001220001CN0099001N1+02201+01001999999ADDMA1101491999999MW1001REMMET039DAAD 120700Z 00000KT CAVOK 22/10 Q1015;EQDQ01+000000PRSWM2
0091605150999992000091208004+35320+004190FM-15+0461DAAD V0200401N00101220001CN0099001N1+02301+00901999999ADDMA1101491999999MW1001REMMET039DAAD 120800Z 04002KT CAVOK 23/09 Q1015;EQDQ01+000000PRSWM2
0229605150999992000091209004+35320+004190SY-MT+0461DAAD V0200401N001012200019N0100001N1+02501+00881101601ADDGA1021+060009019GF102991001001999999001021MA1101591999999MD1210121+9999MW1001REMSYN076AAXX  12094 60515 42960 20402 10250 20088 40160 52012 80002 333 82070 95900;MET039DAAD 120900Z 04002KT CAVOK 25/09 Q1016;EQDQ01+000000PRSWM2
0091605150999992000091210004+35320+004190FM-15+0461DAAD V0200601N00211220001CN0099001N1+02801+00901999999ADDMA1101591999999MW1001REMMET039DAAD 121000Z 06004KT CAVOK 28/09 Q1016;EQDQ01+000000PRSWM2
0091605150999992000091211004+35320+004190FM-15+0461DAAD V0209999C00001220001CN0099001N1+03001+00801999999ADDMA1101491999999MW1001REMMET039DAAD 121100Z 00000KT CAVOK 30/08 Q1015;EQDQ01+000000PRSWM2
0262605150999992000091212004+35320+004190SY-MT+0461DAAD V0209999C000012200019N0100001N1+03201+00841101501ADDAA199000091GA1021+060009019GF102991001001999999001021MA1101491999999MD1810061+9999MW1001REMSYN082AAXX  12124 60515 32960 20000 10320 20084 40150 58006 80002 333 0//00 82070 95900;MET039DAAD 121200Z 00000KT CAVOK 32/08 Q1015;EQDQ01+000000PRSWM2Q02  00002PRCP99
0091605150999992000091213004+35320+004190FM-15+0461DAAD V0200201N00211220001CN0099001N1+03301+00701999999ADDMA1101391999999MW1001REMMET039DAAD 121300Z 02004KT CAVOK 33/07 Q1014;EQDQ01+000000PRSWM2
0091605150999992000091214004+35320+004190FM-15+0461DAAD V0203601N00101220001CN0099001N1+03401+00701999999ADDMA1101291999999MW1001REMMET039DAAD 121400Z 36002KT CAVOK 34/07 Q1013;EQDQ01+000000PRSWM2
0229605150999992000091215004+35320+004190SY-MT+0461DAAD V0200201N002112200019N0100001N1+03401+00631101281ADDGA1041+060009019GF104991001001999999001021MA1101191999999MD1710201+9999MW1001REMSYN076AAXX  12154 60515 42960 40204 10340 20063 40128 57020 80002 333 84070 95900;MET039DAAD 121500Z 02004KT CAVOK 34/06 Q1012;EQDQ01+000000PRSWM2
0091605150999992000091216004+35320+004190FM-15+0461DAAD V0200601N00101220001CN0099001N1+03401+00801999999ADDMA1101191999999MW1001REMMET039DAAD 121600Z 06002KT CAVOK 34/08 Q1012;EQDQ01+000000PRSWM2
0091605150999992000091217004+35320+004190FM-15+0461DAAD V0200401N00101220001CN0099001N1+03401+00501999999ADDMA1101191999999MW1001REMMET039DAAD 121700Z 04002KT CAVOK 34/05 Q1012;EQDQ01+000000PRSWM2
0275605150999992000091218004+35320+004190SY-MT+0461DAAD V0209999C000012200019N0100001N1+03261+00781101261ADDAA199000091GA1041+069009019GF104991001001999999001021KA1120M+03451MA1101191999999MD1610061+9999MW1001REMSYN082AAXX  12184 60515 32960 40000 10326 20078 40126 56006 80002 333 10345 84073 95900;MET039DAAD 121800Z 00000KT CAVOK 33/08 Q1012;EQDQ01+000000PRSWM2Q02  00002PRCP99
0305605150999992000091306004+35320+004190SY-MT+0461DAAD V0201001N003112200019N0100001N1+02111+00661101361ADDAA199000091GA1021+009909999GF104991041021008001001001IA2240+01809KA1120N+02001MA1101291999999MD1310041+9999MW1001REMSYN094AAXX  13064 60515 31560 41006 10211 20066 40136 53004 700// 84200 333 01800 20200 84833 95900;MET045DAAD 130600Z 10006KT 9999 SCT033 21/07 Q1013;EQDQ01+000000PRSWM2Q02  00002PRCP99
0139605150999992000091308004+35320+004190FM-15+0461DAAD V0203601N006212200019N0112651N1+02401+00601999999ADDGA1021+009909999GF102991999999999999999999MA1101391999999MW1001REMMET045DAAD 130800Z 36012KT 9999 FEW033 24/06 Q1014;EQDQ01+000000PRSWM2
0234605150999992000091309004+35320+004190SY-MT+0461DAAD V0202601N004112200019N0100001N1+02801+00891101491ADDGA1021+009909999GF102991021021008001001001MA1101391999999MD1110131+9999MW1001REMSYN076AAXX  13094 60515 42560 22608 10280 20089 40149 51013 82200 333 82833 95900;MET044DAAD 130900Z 26008KT 9999 FEW033 8/09 Q1014;EQDQ01+000000PRSWM2
0139605150999992000091310004+35320+004190FM-15+0461DAAD V0202601N003112200019N0112651N1+03001+00901999999ADDGA1021+009909999GF102991999999999999999999MA1101491999999MW1001REMMET045DAAD 131000Z 26006KT 9999 FEW033 30/09 Q1015;EQDQ01+000000PRSWM2
0139605150999992000091311004+35320+004190FM-15+0461DAAD V0209999C000012200019N0099001N1+03101+01001999999ADDGA1021+009909999GF102991999999999999999999MA1101391999999MW1001REMMET045DAAD 131100Z 00000KT B999 FEW033 31/10 Q1014;EQDQ01+000000PRSWM2
0262605150999992000091312004+35320+004190SY-MT+0461DAAD V0202801N005112200019N0100001N1+03241+01071101441ADDAA199000091GA1021+060009019GF102991001001999999001021MA1101391999999MD1810041+9999MW1001REMSYN082AAXX  13124 60515 32960 22810 10324 20107 40144 58004 80002 333 0//00 82070 95900;MET039DAAD 131200Z 28010KT CAVOK 32/11 Q1014;EQDQ01+000000PRSWM2Q02  00002PRCP99
0162605150999992000091314004+35320+004190FM-15+0461DAAD V0203401N005112200019N0112651N1+03401+00901999999ADDGA1021+012009999GA2021+060009999GF104991999999999999999999MA1101291999999MW1001REMMET052DAAD 131400Z 34010KT 9999 FEW040 SCT200 34/09 Q1013;EQDQ01+000000PRSWM2
0235605150999992000091315004+35320+004190SY-MT+0461DAAD V0200401N006212200019N0100001N1+03411+00801101261ADDGA1021+012009999GF102991021021012501001001MA1101191999999MD1710081+9999MW1001REMSYN076AAXX  13154 60515 42660 20412 10341 20080 40126 57008 82200 333 82840 95900;MET045DAAD 131500Z 04012KT 9999 FEW040 34/08 Q1012;EQDQ01+000000PRSWM2
0139605150999992000091316004+35320+004190FM-15+0461DAAD V0200401N006212200019N0112651N1+03401+00801999999ADDGA1021+012009999GF102991999999999999999999MA1101191999999MW1001REMMET045DAAD 131600Z 04012KT 9999 FEW040 34/08 Q1012;EQDQ01+000000PRSWM2
0091605150999992000091317004+35320+004190FM-15+0461DAAD V0201101N00311220001CN0099001N1+03401+00301999999ADDMA1101191999999MW1001REMMET039DAAD 131700Z 11006KT CAVOK 34/03 Q1012;EQDQ01+000000PRSWM2
0310605150999992000091318004+35320+004190SY-MT+0461DAAD V0203001N006212200019N0100001N1+03291+00501101271ADDAA199000091GA1021+012009999GA2021+060009999GF104991011021012501001021KA1120M+03471MA1101191999999MD1510001+9999MW1001REMSYN088AAXX  13184 60515 32660 43012 10329 20050 40127 55000 81202 333 10347 81840 84070 95900;MET052DAAD 131800Z 30012KT 9999 FEW040 SCT200 33/05 Q1012;EQDQ01+000000PRSWM2Q02  00002PRCP99
0271605150999992000091406004+35320+004190SY-MT+0461DAAD V0209999C000012200019N0100001N1+01951+01331101611ADDAA199000091GF100991001001999999001001IA2240+01709KA1120N+01921MA1101591999999MD1310041+9999MW1001REMSYN082AAXX  14064 60515 31960 00000 10195 20133 40161 53004 700// 333 01700 20192 95900;MET039DAAD 140600Z 00000KT CAVOK 20/13 Q1016;EQDQ01+000000PRSWM2Q02  00002PRCP99
0091605150999992000091408004+35320+004190FM-15+0461DAAD V0200401N00101220001CN0099001N1+02701+01301999999ADDMA1101691999999MW1001REMMET039DAAD 140800Z 04002KT CAVOK 27/13 Q1017;EQDQ01+000000PRSWM2
0201605150999992000091409004+35320+004190SY-MT+0461DAAD V0200401N001012200019N0100001N1+02691+01311101751ADDGF100991001001999999001001MA1101691999999MD1210101+9999MW1001REMSYN064AAXX  14094 60515 42960 00402 10269 20131 40175 52010 333 95900;MET039DAAD 140900Z 04002KT CAVOK 27/13 Q1017;EQDQ01+000000PRSWM2
0091605150999992000091410004+35320+004190FM-15+0461DAAD V0209999C00001220001CN0099001N1+02801+01301999999ADDMA1101691999999MW1001REMMET039DAAD 141000Z 00000KT CAVOK 28/13 Q1017;EQDQ01+000000PRSWM2
0091605150999992000091411004+35320+004190FM-15+0461DAAD V0209999C00001220001CN0099001N1+02801+01301999999ADDMA1101691999999MW1001REMMET039DAAD 141100Z 00000KT CAVOK 28/13 Q1017;EQDQ01+000000PRSWM2
0262605150999992000091412004+35320+004190SY-MT+0461DAAD V0200401N001012200019N0100001N1+03041+01121101691ADDAA199000091GA1011+069009019GF101991001001999999001021MA1101591999999MD1810041+9999MW1001REMSYN082AAXX  14124 60515 32960 10402 10304 20112 40169 58004 80002 333 0//00 81073 95900;MET039DAAD 141200Z 04002KT CAVOK 30/11 Q1016;EQDQ01+000000PRSWM2Q02  00002PRCP99
0091605150999992000091413004+35320+004190FM-15+0461DAAD V0202401N00101220001CN0099001N1+03301+01101999999ADDMA1101591999999MW1001REMMET039DAAD 141300Z 24002KT CAVOK 33/11 Q1016;EQDQ01+000000PRSWM2
0091605150999992000091414004+35320+004190FM-15+0461DAAD V0209999C00001220001CN0099001N1+03301+01301999999ADDMA1101491999999MW1001REMMET039DAAD 141400Z 00000KT CAVOK 33/13 Q1015;EQDQ01+000000PRSWM2
0229605150999992000091415004+35320+004190SY-MT+0461DAAD V0203401N002112200019N0100001N1+03311+01161101541ADDGA1011+060009019GF101991001001999999001021MA1101491999999MD1710151+9999MW1001REMSYN076AAXX  14154 60515 42960 13404 10331 20116 40154 57015 80002 333 81070 95900;MET039DAAD 141500Z 34004KT CAVOK 33/12 Q1015;EQDQ01+000000PRSWM2
0091605150999992000091416004+35320+004190FM-15+0461DAAD V0209999C00001220001CN0099001N1+03301+01001999999ADDMA1101491999999MW1001REMMET039DAAD 141600Z 00000KT CAVOK 33/10 Q1015;EQDQ01+000000PRSWM2
0091605150999992000091417004+35320+004190FM-15+0461DAAD V0209999C00001220001CN0099001N1+03301+00901999999ADDMA1101491999999MW1001REMMET039DAAD 141700Z 00000KT CAVOK 33/09 Q1015;EQDQ01+000000PRSWM2
0275605150999992000091418004+35320+004190SY-MT+0461DAAD V0209999C000012200019N0100001N1+03161+01041101551ADDAA199000091GA1011+069009019GF101991001001999999001021KA1120M+03351MA1101491999999MD1610011+9999MW1001REMSYN082AAXX  14184 60515 32960 10000 10316 20104 40155 56001 80002 333 10335 81073 95900;MET039DAAD 141800Z 00000KT CAVOK 32/10 Q1015;EQDQ01+000000PRSWM2Q02  00002PRCP99
0256605150999992000091506004+35320+004190SY-MT+0461DAAD V0209999C000012200019N0100001N1+01941+01061101841ADDAA199000091GF100991001001999999001001IA2240+01609KA1120N+01781MD1310051+9999MW1001REMSYN082AAXX  15064 60515 31960 00000 10194 20106 40184 53005 700// 333 01600 20178 95900;MET039DAAD 150600Z 00000KT CAVOK 19/11 Q////;EQDQ01+000000PRSWM2Q02  00002PRCP99
0091605150999992000091507004+35320+004190FM-15+0461DAAD V0209999C00001220001CN0099001N1+02101+01101999999ADDMA1101901999999MW1001REMMET039DAAD 150700Z 00000KT CAVOK 21/11 Q1019;EQDQ01+000000PRSWM2
0091605150999992000091508004+35320+004190FM-15+0461DAAD V0203601N00261220001CN0099001N1+02301+01301999999ADDMA1101691999999MW1001REMMET039DAAD 150800Z 36005KT CAVOK 23/13 Q1017;EQDQ01+000000PRSWM2
0201605150999992000091509004+35320+004190SY-MT+0461DAAD V0203401N002112200019N0100001N1+02501+01301101981ADDGF100991001001999999001001MA1101901999999MD1110121+9999MW1001REMSYN064AAXX  15094 60515 42960 03404 10249 2//// 40198 51012 333 95900;MET039DAAD 150900Z 34004KT CAVOK 25/13 Q1019;EQDQ01+000000PRSWM2
0091605150999992000091510004+35320+004190FM-15+0461DAAD V0209999C00001220001CN0099001N1+02801+01201999999ADDMA1101901999999MW1001REMMET039DAAD 151000Z 00000KT CAVOK 28/12 Q1019;EQDQ01+000000PRSWM2
0091605150999992000091511004+35320+004190FM-15+0461DAAD V0209999C00001220001CN0099001N1+03001+01401999999ADDMA1101901999999MW1001REMMET039DAAD 151100Z 00000KT CAVOK 30/14 Q1019;EQDQ01+000000PRSWM2
0234605150999992000091512004+35320+004190SY-MT+0461DAAD V0200801N002112200019N0100001N1+03281+01281101841ADDAA199000091GF100991001001999999001001MA1101801999999MD1810101+9999MW1001REMSYN070AAXX  15124 60515 32960 00804 10328 20128 40184 58010 333 0//00 95900;MET039DAAD 151200Z 08004KT CAVOK 33/13 Q1018;EQDQ01+000000PRSWM2Q02  00002PRCP99
0091605150999992000091513004+35320+004190FM-15+0461DAAD V0209999C00001220001CN0099001N1+03401+01201999999ADDMA1101691999999MW1001REMMET039DAAD 151300Z 00000KT CAVOK 34/12 Q1017;EQDQ01+000000PRSWM2
0091605150999992000091514004+35320+004190FM-15+0461DAAD V0200801N00211220001CN0099001N1+03501+00901999999ADDMA1101591999999MW1001REMMET039DAAD 151400Z 08004KT CAVOK 35/09 Q1016;EQDQ01+000000PRSWM2
0201605150999992000091515004+35320+004190SY-MT+0461DAAD V0200601N003112200019N0100001N1+03531+00841101611ADDGF100991001001999999001001MA1101591999999MD1610201+9999MW1001REMSYN064AAXX  15154 60515 42960 00606 10353 20084 40161 56020 333 95900;MET039DAAD 151500Z 06006KT CAVOK 35/08 Q1016;EQDQ01+000000PRSWM2
0091605150999992000091516004+35320+004190FM-15+0461DAAD V0200601N00311220001CN0099001N1+03501+00901999999ADDMA1101491999999MW1001REMMET039DAAD 151600Z 06006KT CAVOK 35/09 Q1015;EQDQ01+000000PRSWM2
0091605150999992000091517004+35320+004190FM-15+0461DAAD V0200401N00211220001CN0099001N1+03401+01001999999ADDMA1101491999999MW1001REMMET039DAAD 151700Z 04004KT CAVOK 34/10 Q1015;EQDQ01+000000PRSWM2
0247605150999992000091518004+35320+004190SY-MT+0461DAAD V0200401N002112200019N0100001N1+03201+01051101641ADDAA199000091GF100991001001999999001001KA1120M+03551MA1101591999999MD1510021+9999MW1001REMSYN070AAXX  15184 60515 32960 00404 10320 20105 40164 55002 333 10355 95900;MET039DAAD 151800Z 04004KT CAVOK 32/11 Q1016;EQDQ01+000000PRSWM2Q02  00002PRCP99
0271605150999992000091606004+35320+004190SY-MT+0461DAAD V0209999C000012200019N0100001N1+02011+00971101881ADDAA199000091GF100991001001999999001001IA2240+01609KA1120N+01941MA1101801999999MD1310061+9999MW1001REMSYN082AAXX  16064 60515 31960 00000 10201 20097 40188 53006 700// 333 01600 20194 95900;MET039DAAD 160600Z 00000KT CAVOK 20/10 Q1018;EQDQ01+000000PRSWM2Q02  00002PRCP99
0091605150999992000091608004+35320+004190FM-15+0461DAAD V0209999C00001220001CN0099001N1+02401+00901999999ADDMA1101901999999MW1001REMMET039DAAD 160800Z 00000KT CAVOK 24/09 Q1019;EQDQ01+000000PRSWM2
0201605150999992000091609004+35320+004190SY-MT+0461DAAD V0209999C000012200019N0100001N1+02651+00981101981ADDGF100991001001999999001001MA1101901999999MD1210111+9999MW1001REMSYN064AAXX  16094 60515 42960 00000 10265 20098 40198 52011 333 95900;MET039DAAD 160900Z 00000KT CAVOK 27/10 Q1019;EQDQ01+000000PRSWM2
0091605150999992000091610004+35320+004190FM-15+0461DAAD V0209999C00001220001CN0099001N1+02901+01101999999ADDMA1101901999999MW1001REMMET039DAAD 161000Z 00000KT CAVOK 29/11 Q1019;EQDQ01+000000PRSWM2
0091605150999992000091611004+35320+004190FM-15+0461DAAD V0209999C00001220001CN0099001N1+03201+01101999999ADDMA1101901999999MW1001REMMET039DAAD 161100Z 00000KT CAVOK 32/11 Q1019;EQDQ01+000000PRSWM2
0234605150999992000091612004+35320+004190SY-MT+0461DAAD V0209999C000012200019N0100001N1+03301+00981101821ADDAA199000091GF100991001001999999001001MA1101801999999MD1810121+9999MW1001REMSYN070AAXX  16124 60515 32960 00000 10330 20098 40182 58012 333 0//00 95900;MET039DAAD 161200Z 00000KT CAVOK 33/10 Q1018;EQDQ01+000000PRSWM2Q02  00002PRCP99
0091605150999992000091614004+35320+004190FM-15+0461DAAD V0201201N00211220001CN0099001N1+03601+01001999999ADDMA1101591999999MW1001REMMET039DAAD 161400Z 12004KT CAVOK 36/10 Q1016;EQDQ01+000000PRSWM2
0201605150999992000091615004+35320+004190SY-MT+0461DAAD V0209999C000012200019N0100001N1+03641+01031101571ADDGF100991001001999999001001MA1101491999999MD1710231+9999MW1001REMSYN064AAXX  16154 60515 42960 00000 10364 20103 40157 57023 333 95900;MET039DAAD 161500Z 00000KT CAVOK 36/10 Q1015;EQDQ01+000000PRSWM2
0091605150999992000091616004+35320+004190FM-15+0461DAAD V0209999C00001220001CN0099001N1+03601+01001999999ADDMA1101491999999MW1001REMMET039DAAD 161600Z 00000KT CAVOK 36/10 Q1015;EQDQ01+000000PRSWM2
0091605150999992000091617004+35320+004190FM-15+0461DAAD V0209999C00001220001CN0099001N1+03601+00701999999ADDMA1101491999999MW1001REMMET039DAAD 161700Z 00000KT CAVOK 36/07 Q1015;EQDQ01+000000PRSWM2
0247605150999992000091618004+35320+004190SY-MT+0461DAAD V0203601N001012200019N0100001N1+03311+00871101521ADDAA199000091GF100991001001999999001001KA1120M+03651MA1101491999999MD1610081+9999MW1001REMSYN070AAXX  16184 60515 32960 03602 10331 20087 40152 56008 333 10365 95900;MET039DAAD 161800Z 36002KT CAVOK 33/09 Q1015;EQDQ01+000000PRSWM2Q02  00002PRCP99
0271605150999992000091706004+35320+004190SY-MT+0461DAAD V0201801N003112200019N0100001N1+02371+00651101521ADDAA199000091GF100991001001999999001001IA2240+01809KA1120N+01951MA1101491999999MD1610041+9999MW1001REMSYN082AAXX  17064 60515 31960 01806 10237 20065 40152 56004 700// 333 01800 20195 95900;MET039DAAD 170600Z 18006KT CAVOK 24/07 Q1015;EQDQ01+000000PRSWM2Q02  00002PRCP99
0091605150999992000091707004+35320+004190FM-15+0461DAAD V0209999C00001220001CN0099001N1+02301+00901999999ADDMA1101491999999MW1001REMMET039DAAD 170700Z 00000KT CAVOK 23/09 Q1015;EQDQ01+000000PRSWM2
0091605150999992000091708004+35320+004190FM-15+0461DAAD V0209999C00001220001CN0099001N1+02501+01101999999ADDMA1101491999999MW1001REMMET039DAAD 170800Z 00000KT CAVOK 25/11 Q1015;EQDQ01+000000PRSWM2
0191605150999992000091709004+35320+004190SY-MT+0461DAAD V0209999C000012200019N0100001N1+02861+00911101631ADDGF100991001001999999001001MA1101591999999MD1310091+9999MW1001REMSYN054AAXX  17094 60515 42960 00000 10286 20091 40163 53009;MET039DAAD 170900Z 00000KT CAVOK 29/09 Q1016;EQDQ01+000000PRSWM2
0139605150999992000091711004+35320+004190FM-15+0461DAAD V0209999C000012200019N0112651N1+03201+00901999999ADDGA1021+012009999GF102991999999999999999999MA1101591999999MW1001REMMET045DAAD 171100Z 00000KT 9999 FEW040 32/09 Q1016;EQDQ01+000000PRSWM2
0268605150999992000091712004+35320+004190SY-MT+0461DAAD V0200601N003112200019N0100001N1+03351+00821101551ADDAA199000091GA1021+009009999GF103991031021008001001001MA1101491999999MD1810061+9999MW1001REMSYN082AAXX  17124 60515 32560 30606 10335 20082 40155 58006 83200 333 0//00 83830 95900;MET045DAAD 171200Z 06006KT 9999 SCT030 34/08 Q1015;EQDQ01+000000PRSWM2Q02  00002PRCP99
0139605150999992000091713004+35320+004190FM-15+0461DAAD V0200601N003112200019N0112651N1+03501+01001999999ADDGA1021+009909999GF104991999999999999999999MA1101391999999MW1001REMMET045DAAD 171300Z 06006KT 9999 SCT033 35/10 Q1014;EQDQ01+000000PRSWM2
0139605150999992000091714004+35320+004190FM-15+0461DAAD V0201001N004112200019N0112651N1+03501+00801999999ADDGA1021+012009999GF104991999999999999999999MA1101291999999MW1001REMMET045DAAD 171400Z 10008KT 9999 SCT040 35/08 Q1013;EQDQ01+000000PRSWM2
0235605150999992000091715004+35320+004190SY-MT+0461DAAD V0201001N004112200019N0100001N1+03611+00471101281ADDGA1021+012009999GF103991031021012501001021MA1101191999999MD1710241+9999MW1001REMSYN076AAXX  17154 60515 42660 31008 10361 20047 40128 57024 83202 333 83840 95900;MET045DAAD 171500Z 10008KT 9999 SCT040 36/05 Q1012;EQDQ01+000000PRSWM2
0139605150999992000091716004+35320+004190FM-15+0461DAAD V0201001N005112200019N0112651N1+03601+00601999999ADDGA1021+012009999GF104991999999999999999999MA1101191999999MW1001REMMET045DAAD 171600Z 10010KT 9999 SCT040 36/06 Q1012;EQDQ01+000000PRSWM2
0139605150999992000091717004+35320+004190FM-15+0461DAAD V0200601N002112200019N0112651N1+03401+00401999999ADDGA1021+009909999GF104991999999999999999999MA1101081999999MW1001REMMET045DAAD 171700Z 06004KT 9999 SCT033 34/04 Q1011;EQDQ01+000000PRSWM2
0312605150999992000091718004+35320+004190SY-MT+0461DAAD V0209999C00001007501CN0100001N1+03251+00741101211ADDAA199000091GA1021+009009099GA2021+009909999GF105991051091008001001001KA1120M+03641MA1101191999999MD1510081+9999MW1001REMSYN088AAXX  17184 60515 32560 50000 10325 20074 40121 55008 85900 333 10364 82930 84833 95900;MET054DAAD 171800Z 00000KT 9999 FEW030CB SCT033 33/07 Q1012;EQDQ01+000000PRSWM2Q02  00002PRCP99
0283605150999992000091806004+35320+004190SY-MT+0461DAAD V0203601N005112200019N0040001N1+02551+00561101151ADDAA199000091GF100991001001999999001001IA2240+02409KA1120N+02541MA1101081999999MD1810011+9999MW1051MW2061REMSYN082AAXX  18064 60515 31940 03610 10255 20056 40115 58001 706// 333 02400 20254 95990;MET045DAAD 180600Z 36010KT 4000 HZ SKC 26/06 Q1011;EQDQ01  00002PRCP99Q02    003PRSWM1
0139605150999992000091807004+35320+004190FM-15+0461DAAD V0209999C000012200019N0040001N1+02601+00801999999ADDGF100991999999999999999999MA1101081999999MW1051REMMET045DAAD 180700Z 00000KT 4000 HZ SKC 26/08 Q1011;EQDQ01+000003PRSWM1Q02    003PRSWM1
0139605150999992000091808004+35320+004190FM-15+0461DAAD V0209999C000012200019N0040001N1+02801+00801999999ADDGF100991999999999999999999MA1101191999999MW1051REMMET045DAAD 180800Z 00000KT 4000 HZ SKC 28/08 Q1012;EQDQ01+000003PRSWM1Q02    003PRSWM1
0132605150999992000091809004+35320+004190FM-12+0461DAAD V0209999C000012200019N0060001N1+03061+00851101231ADDGA1001+999999999GF100991001001999999001001MD1310121+9999REMSYN064AAXX  18094 60515 42956 00000 10306 20085 40123 53012 333 95900;
0120605150999992000091811004+35320+004190FM-15+0461DAAD V0200201N001012200019N0080001N1+03401+00601999999ADDGF100991999999999999999999MA1101081999999MW1001REMMET042DAAD 181100Z 02002KT 8000 SKC 34/06 Q1011;EQDQ01+000000PRSWM2
0231605150999992000091812004+35320+004190SY-MT+0461DAAD V0200401N003112200019N0080001N1+03601+00561101061ADDAA199000091GF100991001001999999001001MA1101021999999MD1810161+9999MW1001REMSYN064AAXX  18124 60515 32958 00406 10360 20056 40106 58016 333 95900;MET042DAAD 181200Z 04006KT 8000 SKC 36/06 Q1010;EQDQ01+000000PRSWM2Q02  00002PRCP99
0120605150999992000091813004+35320+004190FM-15+0461DAAD V0200401N006212200019N0080001N1+03601+00401999999ADDGF100991999999999999999999MA1100911999999MW1001REMMET042DAAD 181300Z 04012KT 8000 SKC 36/04 Q1009;EQDQ01+000000PRSWM2
0139605150999992000091814004+35320+004190FM-15+0461DAAD V0203601N001012200019N0080001N1+03701+00401999999ADDGA1021+060009999GF102991999999999999999999MA1100811999999MW1001REMMET045DAAD 181400Z 36002KT 8000 FEW200 37/04 Q1008;EQDQ01+000000PRSWM2
0235605150999992000091815004+35320+004190SY-MT+0461DAAD V0203601N002112200019N0080001N1+03661+00421100741ADDGA1021+009909999GF103991021021012501001021MA1100711999999MD1710301+9999MW1001REMSYN076AAXX  18154 60515 42658 33604 10366 20042 40074 57030 82202 333 82833 95900;MET045DAAD 181500Z 36004KT 8000 FEW033 37/04 Q1007;EQDQ01+000000PRSWM2
0155605150999992000091816004+35320+004190FM-15+0461DAAD V0200401N001012200019N9999999N1+03601+00401999999ADDGA1021+009909999GF102991999999999999999999MA1100711999999MW1001REMMET045DAAD 181600Z 04002KT 7000 FEW033 36/04 Q1007;EQDQ01+070002VODIS Q02+000000PRSWM2
0164605150999992000091817004+35320+004190FM-15+0461DAAD V0203601N001012200019N0060001N1+03601+00201999999ADDGA1021+009009999GA2021+009909099GF102991999999999999999999MA1100711999999MW1001REMMET054DAAD 181700Z 36002KT 6000 SCT030 FEW033CB 36/02 Q1007;EQDQ01+000000PRSWM2
0361605150999992000091818004+35320+004190SY-MT+0461DAAD V0202801N006210090019N0060001N1+03331+00711100911ADDAA112000191AY121061AY221061GA1071+009009999GA2021+009909099GF199999061031008001001001KA1120M+03681MA1100911999999MD1310111+9999MW1211REMSYN100AAXX  18184 60515 12556 62812 10333 20071 40091 53011 69922 72122 86300 333 10368 85830 82933 95900;MET059DAAD 181800Z 28012KT 6000 BKN030 FEW033CB 33/07 Q1009 RERA;EQDQ01+000062SCOTCVQ02+000000PRSWM2Q03    003PRSWM1
0321605150999992000091906004+35320+004190SY-MT+0461DAAD V0209999C000010120019N9999999N1+02711+00491100801ADDAA199000021GA1071+012009999GF199999061081012501001001IA2240+02309KA1120N+02501MA1100811999999MD1310311+9999MW1001REMSYN094AAXX  19064 60515 31657 60000 10271 20049 40080 53031 700// 86800 333 02300 20250 86840 95900;MET045DAAD 190600Z 00000KT 7000 BKN040 27/05 Q1008;EQDQ01+000062SCOTCVQ02+070002VODIS Q03+000000PRSWM2
0155605150999992000091908004+35320+004190FM-15+0461DAAD V0209999C000010138019N9999999N1+02901+00501999999ADDGA1071+013809999GF107991999999999999999999MA1100811999999MW1001REMMET045DAAD 190800Z 00000KT 7000 BKN046 29/05 Q1008;EQDQ01+070002VODIS Q02+000000PRSWM2
0155605150999992000091909004+35320+004190FM-15+0461DAAD V0209999C000010480019N9999999N1+03201+00401999999ADDGA1071+048009999GF107991999999999999999999MA1100811999999MW1001REMMET045DAAD 190900Z 00000KT 7000 BKN166 32/04 Q1008;EQDQ01+070002VODIS Q02+000000PRSWM2
0161605150999992000091911004+35320+004190FM-15+0461DAAD V0202001N010310480019N0008001N1+03801+00001999999ADDGA1071+048009999GF107991999999999999999999MA1100611999999MW1071REMMET051DAAD 191100Z 20020KT 0800 BLSA BKN166 38/M00 Q1006;EQDQ01+000003PRSWM1Q02    003PRSWM1
0253605150999992000091912004+35320+004190SY-MT+0461DAAD V0202001N009312200019N0014001N1+03851+00001100571ADDAY121061AY221061GA1021+078009999GF104991001001999999001081MD1810261+9999MW1071REMSYN088AAXX  19124 60515 12914 42018 10385 20000 40057 58026 70722 80008 333 0//00 84266 95900;MET050DAAD 191200Z 20018KT 1400 BLSA SCT266 39/00 Q////;EQDQ01    003PRSWM1
0164605150999992000091914004+35320+004190FM-15+0461DAAD V0201801N010310090019N0050001N1+03701-00101999999ADDGA1071+009009029GF107991999999999999999999MA1100411999999MW1071REMMET054DAAD 191400Z 18020KT 5000 BLSA BKN030TCU 37/M01 Q1004;EQDQ01+000003PRSWM1Q02    003PRSWM1
0172605150999992000091915004+35320+004190FM-12+0461DAAD V0201401N011310090019N0010001N1+03491+00161100371ADDAY131031AY221031GA1071+009009089GF107991071081008001999999MD1710221+9999MW1071REMSYN082AAXX  19154 60515 41510 71422 10349 20016 40037 57022 70732 878// 333 87830 95990;
0160605150999992000091916004+35320+004190FM-15+0461DAAD V0201601N010310090019N0010001N1+03401+00301999999ADDGA1071+009009999GF107991999999999999999999MA1100311999999MW1071REMMET050DAAD 191600Z 16020KT 1000 BLSA BKN030 34/03 Q1003;EQDQ01+000003PRSWM1Q02    003PRSWM1
0139605150999992000091917004+35320+004190FM-15+0461DAAD V0202001N004110090019N0060001N1+03201+00801999999ADDGA1071+009009999GF107991999999999999999999MA1100411999999MW1001REMMET045DAAD 191700Z 20008KT 6000 BKN030 32/08 Q1004;EQDQ01+000000PRSWM2
0313605150999992000091918004+35320+004190SY-MT+0461DAAD V0202001N002110090019N9999999N1+03201+00701100511ADDAA199000091GA1071+009009999GF199999061081008001001001KA1120M+03891MA1100511999999MD1310121+9999MW1001REMSYN082AAXX  19184 60515 32556 62004 10320 20070 40051 53012 86800 333 10389 86830 95900;MET045DAAD 191800Z 20004KT 6000 BKN030 32/07 Q1005;EQDQ01+000062SCOTCVQ02+060002VODIS Q03+000000PRSWM2Q04  00002PRCP99
0256605150999992000092006004+35320+004190SY-MT+0461DAAD V0202801N006212200019N0100001N1+02191+00971100961ADDAA199000091GF100991001001999999001001IA2240+01909KA1120N+02151MA1100911999999MW1001REMSYN081AAXX  20064 60515 31960 02812 10219 20097 40096 1006 700// 333 01900 20215 95900;MET039DAAD 200600Z 28012KT CAVOK 22/10 Q1009;EQDQ01+000000PRSWM2Q02  00002PRCP99
0091605150999992000092007004+35320+004190FM-15+0461DAAD V0202801N00821220001CN0099001N1+02201+01101999999ADDMA1101021999999MW1001REMMET039DAAD 200700Z 28016KT CAVOK 22/11 Q1010;EQDQ01+000000PRSWM2
0201605150999992000092009004+35320+004190SY-MT+0461DAAD V0201201N007212200019N0100001N1+02421+01021101151ADDGF100991001001999999001001MA1101081999999MD1310191+9999MW1001REMSYN064AAXX  20094 60515 42960 01214 10242 20102 40115 53019 333 95900;MET039DAAD 200900Z 12014KT CAVOK 24/10 Q1011;EQDQ01+000000PRSWM2
0091605150999992000092010004+35320+004190FM-15+0461DAAD V0202801N00721220001CN0099001N1+02501+01001999999ADDMA1101191999999MW1001REMMET039DAAD 201000Z 28014KT CAVOK 25/10 Q1012;EQDQ01+000000PRSWM2
0258605150999992000092012004+35320+004190SY-MT+0461DAAD V0202601N010312200019N0080001N1+02811+01111101141ADDAA199000091GF100991001001999999001001MA1101081999999MD1110041+9999MW1071REMSYN070AAXX  20124 60515 32958 02620 10281 20111 40114 51004 333 0//00 95900;MET047DAAD 201200Z 26020KT 8000 DRSA SKC 28/11 Q1011;EQDQ01+000003PRSWM1Q02  00002PRCP99Q03    003PRSWM1
0141605150999992000092013004+35320+004190FM-15+0461DAAD V0202601N010312200019N0060001N1+03001+01001999999ADDGF100991999999999999999999MA1101081999999MW1071REMMET047DAAD 201300Z 26020KT 6000 DRSA SKC 30/10 Q1011;EQDQ01+000003PRSWM1Q02    003PRSWM1
0141605150999992000092014004+35320+004190FM-15+0461DAAD V0202601N012312200019N0060001N1+03001+00901999999ADDGF100991999999999999999999MA1101081999999MW1071REMMET047DAAD 201400Z 26024KT 6000 DRSA SKC 30/09 Q1011;EQDQ01+000003PRSWM1Q02    003PRSWM1
0225605150999992000092015004+35320+004190SY-MT+0461DAAD V0202601N012312200019N0060001N1+02951+00681101161ADDGF100991001001999999001001MA1101081999999MD1510001+9999MW1071REMSYN064AAXX  20154 60515 42956 02624 10295 20068 40116 55000 333 95900;MET047DAAD 201500Z 26024KT 6000 DRSA SKC 30/07 Q1011;EQDQ01+000003PRSWM1Q02    003PRSWM1
0141605150999992000092016004+35320+004190FM-15+0461DAAD V0202601N010312200019N0060001N1+02901+00501999999ADDGF100991999999999999999999MA1101191999999MW1071REMMET047DAAD 201600Z 26020KT 6000 DRSA SKC 29/05 Q1012;EQDQ01+000003PRSWM1Q02    003PRSWM1
0141605150999992000092017004+35320+004190FM-15+0461DAAD V0202601N009312200019N0060001N1+02801+00401999999ADDGF100991999999999999999999MA1101191999999MW1071REMMET047DAAD 201700Z 26018KT 6000 DRSA SKC 28/04 Q1012;EQDQ01+000003PRSWM1Q02    003PRSWM1
0271605150999992000092018004+35320+004190SY-MT+0461DAAD V0202601N009312200019N0060001N1+02711+00361101361ADDAA199000091GF100991001001999999001001KA1120M+03001MA1101291999999MD1310171+9999MW1071REMSYN070AAXX  20184 60515 32956 02618 10271 20036 40136 53017 333 10300 95900;MET047DAAD 201800Z 26018KT 6000 DRSA SKC 27/04 Q1013;EQDQ01+000003PRSWM1Q02  00002PRCP99Q03    003PRSWM1
0271605150999992000092106004+35320+004190SY-MT+0461DAAD V0202601N003112200019N0100001N1+01621+00851102001ADDAA199000091GF100991001001999999001001IA2240+01509KA1120N+01571MA1102001999999MD1310011+9999MW1001REMSYN082AAXX  21064 60515 31960 02606 10162 20085 40200 53001 700// 333 01500 20157 95900;MET039DAAD 210600Z 26006KT CAVOK 16/09 Q1020;EQDQ01+000000PRSWM2Q02  00002PRCP99
0091605150999992000092107004+35320+004190FM-15+0461DAAD V0202601N00211220001CN0099001N1+01801+00901999999ADDMA1102001999999MW1001REMMET039DAAD 210700Z 26004KT CAVOK 18/09 Q1020;EQDQ01+000000PRSWM2
0091605150999992000092108004+35320+004190FM-15+0461DAAD V0202801N00311220001CN0099001N1+02101+00901999999ADDMA1102101999999MW1001REMMET039DAAD 210800Z 28006KT CAVOK 21/09 Q1021;EQDQ01+000000PRSWM2
0201605150999992000092109004+35320+004190SY-MT+0461DAAD V0200201N005112200019N0100001N1+02201+01581102151ADDGF100991001001999999001001MA1102101999999MD1210151+9999MW1001REMSYN064AAXX  21094 60515 42960 00210 10220 20158 40215 52015 333 95900;MET039DAAD 210900Z 02010KT CAVOK 22/16 Q1021;EQDQ01+000000PRSWM2
0091605150999992000092110004+35320+004190FM-15+0461DAAD V0209999C00001220001CN0099001N1+02401+00801999999ADDMA1102001999999MW1001REMMET039DAAD 211000Z 00000KT CAVOK 24/08 Q1020;EQDQ01+000000PRSWM2
0234605150999992000092112004+35320+004190SY-MT+0461DAAD V0209999C000012200019N0100001N1+02601+00631102071ADDAA199000091GF100991001001999999001001MA1102001999999MD1610071+9999MW1001REMSYN070AAXX  21124 60515 32960 00000 10260 20063 40207 56007 333 0//00 95900;MET039DAAD 211200Z 00000KT CAVOK 26/06 Q1020;EQDQ01+000000PRSWM2Q02  00002PRCP99
0091605150999992000092113004+35320+004190FM-15+0461DAAD V0209999C00001220001CN0099001N1+02801+00301999999ADDMA1102001999999MW1001REMMET039DAAD 211300Z 00000KT CAVOK 28/03 Q1020;EQDQ01+000000PRSWM2
0091605150999992000092114004+35320+004190FM-15+0461DAAD V0209999C00001220001CN0099001N1+02901+00401999999ADDMA1101901999999MW1001REMMET039DAAD 211400Z 00000KT CAVOK 29/04 Q1019;EQDQ01+000000PRSWM2
0201605150999992000092115004+35320+004190SY-MT+0461DAAD V0209999C000012200019N0100001N1+02911+00151101871ADDGF100991001001999999001001MA1101801999999MD1710191+9999MW1001REMSYN064AAXX  21154 60515 42960 00000 10291 20015 40187 57019 333 95900;MET039DAAD 211500Z 00000KT CAVOK 29/02 Q1018;EQDQ01+000000PRSWM2
0091605150999992000092116004+35320+004190FM-15+0461DAAD V0209999C00001220001CN0099001N1+02901+00201999999ADDMA1101801999999MW1001REMMET039DAAD 211600Z 00000KT CAVOK 29/02 Q1018;EQDQ01+000000PRSWM2
0091605150999992000092117004+35320+004190FM-15+0461DAAD V0209999C00001220001CN0099001N1+02901+00201999999ADDMA1101801999999MW1001REMMET039DAAD 211700Z 00000KT CAVOK 29/02 Q1018;EQDQ01+000000PRSWM2
0247605150999992000092118004+35320+004190SY-MT+0461DAAD V0209999C000012200019N0100001N1+02671+00231101851ADDAA199000091GF100991001001999999001001KA1120M+02951MA1101801999999MD1510041+9999MW1001REMSYN070AAXX  21184 60515 32960 00000 10267 20023 40185 55004 333 10295 95990;MET039DAAD 211800Z 00000KT CAVOK 27/02 Q1018;EQDQ01+000000PRSWM2Q02  00002PRCP99
0271605150999992000092206004+35320+004190SY-MT+0461DAAD V0209999C000012200019N0100001N1+01601+00351102041ADDAA199000091GF100991001001999999001001IA2240+01409KA1120N+01561MA1102001999999MD1110031+9999MW1001REMSYN082AAXX  22064 60515 31960 00000 10160 20035 40204 51003 700// 333 01400 20156 95900;MET039DAAD 220600Z 00000KT CAVOK 16/04 Q1020;EQDQ01+000000PRSWM2Q02  00002PRCP99
0091605150999992000092207004+35320+004190FM-15+0461DAAD V0209999C00001220001CN0099001N1+01801+00601999999ADDMA1102001999999MW1001REMMET039DAAD 220700Z 00000KT CAVOK 18/06 Q1020;EQDQ01+000000PRSWM2
0091605150999992000092208004+35320+004190FM-15+0461DAAD V0200401N00101220001CN0099001N1+02001+00501999999ADDMA1102101999999MW1001REMMET039DAAD 220800Z 04002KT CAVOK 20/05 Q1021;EQDQ01+000000PRSWM2
0201605150999992000092209004+35320+004190SY-MT+0461DAAD V0209999C000012200019N0100001N1+02251+00621102091ADDGF100991001001999999001001MA1102101999999MD1110091+9999MW1001REMSYN064AAXX  22094 60515 42960 00000 10225 20062 40209 51009 333 95900;MET039DAAD 220900Z 00000KT CAVOK 23/06 Q1021;EQDQ01+000000PRSWM2
0091605150999992000092210004+35320+004190FM-15+0461DAAD V0209999C00001220001CN0099001N1+02501+00601999999ADDMA1102001999999MW1001REMMET039DAAD 221000Z 00000KT CAVOK 25/06 Q1020;EQDQ01+000000PRSWM2
0091605150999992000092211004+35320+004190FM-15+0461DAAD V0209999C00001220001CN0099001N1+02901+00501999999ADDMA1102001999999MW1001REMMET039DAAD 221100Z 00000KT CAVOK 29/05 Q1020;EQDQ01+000000PRSWM2
0162605150999992000092212004+35320+004190FM-12+0461DAAD V0209999C000012200019N0100001N1+02971+00391101951ADDAA199000091GA1001+999999999GF100991001001999999001001MD1810101+9999REMSYN064AAXX  22124 60515 32960 00000 10297 20039 40195 58010 333 95900;EQDQ01  00002PRCP99
0091605150999992000092213004+35320+004190FM-15+0461DAAD V0209999C00001220001CN0099001N1+03101+00401999999ADDMA1101901999999MW1001REMMET039DAAD 221300Z 00000KT CAVOK 31/04 Q1019;EQDQ01+000000PRSWM2
0091605150999992000092214004+35320+004190FM-15+0461DAAD V0209999C00001220001CN0099001N1+03401+00601999999ADDMA1101691999999MW1001REMMET039DAAD 221400Z 00000KT CAVOK 34/06 Q1017;EQDQ01+000000PRSWM2
0235605150999992000092215004+35320+004190SY-MT+0461DAAD V0209999C000012200019N0100001N1+03401+00461101691ADDGA1021+009909999GF102991021021012501001001MA1101591999999MD1710121+9999MW1001REMSYN076AAXX  22154 60515 42660 20000 10340 20046 40169 57012 82200 333 82833 95900;MET045DAAD 221500Z 00000KT 9999 FEW033 34/05 Q1016;EQDQ01+000000PRSWM2
0139605150999992000092216004+35320+004190FM-15+0461DAAD V0200401N002112200019N0112651N1+03401+00601999999ADDGA1021+009909999GF102991999999999999999999MA1101591999999MW1001REMMET045DAAD 221600Z 04004KT 9999 FEW033 34/06 Q1016;EQDQ01+000000PRSWM2
0139605150999992000092217004+35320+004190FM-15+0461DAAD V0200201N005112200019N0112651N1+03401+00501999999ADDGA1021+009909999GF102991999999999999999999MA1101491999999MW1001REMMET045DAAD 221700Z 02010KT 9999 FEW033 34/05 Q1015;EQDQ01+000000PRSWM2
0193605150999992000092218004+35320+004190FM-12+0461DAAD V0209999C000012200019N0100001N1+03191+00381101591ADDAA199000091GA1021+009909089GF102991021021012501001001KA1120M+03431MD1610131+9999REMSYN082AAXX  22184 60515 32660 20000 10319 20038 40159 56013 82200 333 10343 82833 95900;EQDQ01  00002PRCP99
0337605150999992000092306004+35320+004190SY-MT+0461DAAD V0209999C000012200019N0050001N1+02001+01021101711ADDAA199000091GA1021+024009999GA2021+060009999GF104991011001999999071021IA2240+01809KA1120N+02001MA1101691999999MD1310021+9999MW1051REMSYN100AAXX  23064 60515 31950 40000 10200 20102 40171 53002 705// 81072 333 01800 20200 81358 83073 95900;MET055DAAD 230600Z 00000KT 5000 HZ FEW080 SCT200 20/10 Q1017;EQDQ01  00002PRCP99Q02    003PRSWM1
0181605150999992000092307004+35320+004190FM-15+0461DAAD V0209999C000012200019N0050001N1+02201+01001999999ADDGA1021+024009999GA2021+060009999GF104991999999999999999999MA1101691999999MW1051REMMET055DAAD 230700Z 00000KT 5000 HZ FEW080 SCT200 22/10 Q1017;EQDQ01+000003PRSWM1Q02    003PRSWM1
0158605150999992000092308004+35320+004190FM-15+0461DAAD V0200201N002112200019N0040001N1+02301+01201999999ADDGA1021+060009999GF104991999999999999999999MA1101801999999MW1051REMMET048DAAD 230800Z 02004KT 4000 HZ SCT200 23/12 Q1018;EQDQ01+000003PRSWM1Q02    003PRSWM1
0260605150999992000092309004+35320+004190SY-MT+0461DAAD V0209999C000012200019N0040001N1+02581+01051101861ADDAY101031AY221031GA1021+060009999GF103991001001999999001021MA1101801999999MD1210171+9999MW1051REMSYN082AAXX  23094 60515 41940 30000 10258 20105 40186 52017 70502 80002 333 83070 95900;MET048DAAD 230900Z 00000KT 4000 HZ SCT200 26/11 Q1018;EQDQ01    003PRSWM1
0158605150999992000092310004+35320+004190FM-15+0461DAAD V0203401N002110600019N0040001N1+02801+01001999999ADDGA1071+060009999GF107991999999999999999999MA1101801999999MW1051REMMET048DAAD 231000Z 34004KT 4000 HZ BKN200 28/10 Q1018;EQDQ01+000003PRSWM1Q02    003PRSWM1
0178605150999992000092311004+35320+004190FM-15+0461DAAD V0200401N003110600019N9999999N1+03001+00901999999ADDGA1021+024009999GA2071+060009999GF107991999999999999999999MA1101801999999MW1001REMMET052DAAD 231100Z 04006KT 4000 FEW080 BKN200 30/09 Q1018;EQDQ01+040002VODIS Q02+000000PRSWM2
0294605150999992000092312004+35320+004190SY-MT+0461DAAD V0203201N00821000151CN0010001N1+03241+00701101781ADDAA199000091AY121061AY221061GA1091+000159999GF109991091999000151999999MA1101691999999MD1810081+9999MW1071REMSYN088AAXX  23124 60515 31910 93216 10324 20070 40178 58008 70722 89/// 333 0//00 89/// 95990;MET049DAAD 231200Z 32016KT 1000 DRSA VV/// 32/07 Q1017;EQDQ01  00002PRCP99Q02    003PRSWM1
0159605150999992000092314004+35320+004190FM-15+0461DAAD V0203201N00411000151CN0060001N1+03301+00701999999ADDGA1091+000159999GF109991999999000251999999MA1101491999999MW1071REMMET049DAAD 231400Z 32008KT 6000 DRSA VV/// 33/07 Q1015;EQDQ01+000003PRSWM1Q02    003PRSWM1
0261605150999992000092315004+35320+004190SY-MT+0461DAAD V0209999C00001000151CN0010001N1+03291+00681101521ADDAY121031AY221031GA1091+000159999GF109991091999000151999999MA1101491999999MD1710261+9999MW1071REMSYN082AAXX  23154 60515 41910 90000 10329 20068 40152 57026 70722 89/// 333 89/// 95990;MET049DAAD 231500Z 00000KT 1000 DRSA VV/// 33/07 Q1015;EQDQ01    003PRSWM1
0159605150999992000092316004+35320+004190FM-15+0461DAAD V0209999C00001000151CN0010001N1+03201+00601999999ADDGA1091+000159999GF109991999999000251999999MA1101391999999MW1071REMMET049DAAD 231600Z 00000KT 1000 BLSA VV/// 32/06 Q1014;EQDQ01+000003PRSWM1Q02    003PRSWM1
0165605150999992000092317004+35320+004190FM-15+0461DAAD V0202001N003110120019N0030001N1+02801+01201999999ADDGA1071+012009999GF107991999999999999999999MA1101491999999MW1071REMMET055DAAD 231700Z 20006KT 3000 BLSA BKN040 28/12 Q1015 RETS;EQDQ01+000003PRSWM1Q02    003PRSWM1
0324605150999992000092318004+35320+004190SY-MT+0461DAAD V0202801N009310099019N0030001N1+02601+01261101741ADDAA199000091AY121061AY221061GA1071+009909999GF199999061081008001001001KA1120M+03301MA1101691999999MD1310151+9999MW1071REMSYN088AAXX  23184 60515 31530 62818 10260 20126 40174 53015 70722 86800 333 10330 86833 95990;MET050DAAD 231800Z 28018KT 3000 BLSA BKN033 26/13 Q1017;EQDQ01+000062SCOTCVQ02  00002PRCP99Q03    003PRSWM1
0334605150999992000092406004+35320+004190SY-MT+0461DAAD V0201201N00621036001CN0070001N1+02201+01461101861ADDAA124000791GA1021+009009999GA2021+024009999GF107991041021008001071999IA2240+01809KA1120N+02131MA1101801999999MD1610051+9999MW1601MW2611REMSYN106AAXX  24064 60515 11557 71212 10220 20146 40186 56005 69904 760// 8427/ 333 018// 20213 84830 84358 95900;MET056DAAD 240600Z 12012KT 7000 -RA SCT030 SCT080 22/15 Q1018;EQDQ01    003PRSWM1
0144605150999992000092407004+35320+004190FM-15+0461DAAD V0209999C000012200019N0112651N1+02301+01301999999ADDGA1021+009909999GF102991999999999999999999MA1101801999999MW1001REMMET050DAAD 240700Z 00000KT 9999 FEW033 23/13 Q1018 RERA;EQDQ01+000000PRSWM2
0139605150999992000092408004+35320+004190FM-15+0461DAAD V0203601N005110090019N0112651N1+02201+01301999999ADDGA1071+009009999GF107991999999999999999999MA1101901999999MW1001REMMET045DAAD 240800Z 36010KT 9999 BKN030 22/13 Q1019;EQDQ01+000000PRSWM2
0251605150999992000092409004+35320+004190SY-MT+0461DAAD V0200401N004110090019N0100001N1+02341+01371102001ADDGA1071+009009999GF199999051021008001001001MA1102001999999MD1310161+9999MW1001REMSYN076AAXX  24094 60515 42560 50408 10234 20137 40200 53016 85200 333 85830 95900;MET045DAAD 240900Z 04008KT 9999 BKN030 23/14 Q1020;EQDQ01+000052SCOTCVQ02+000000PRSWM2
0139605150999992000092410004+35320+004190FM-15+0461DAAD V0209999C000010090019N0112651N1+02501+01401999999ADDGA1071+009009999GF107991999999999999999999MA1102001999999MW1001REMMET045DAAD 241000Z 00000KT 9999 BKN030 25/14 Q1020;EQDQ01+000000PRSWM2
0139605150999992000092411004+35320+004190FM-15+0461DAAD V0209999C000012200019N0112651N1+02601+01401999999ADDGA1021+009009999GF104991999999999999999999MA1102001999999MW1001REMMET045DAAD 241100Z 00000KT 9999 SCT030 26/14 Q1020;EQDQ01+000000PRSWM2
0264605150999992000092412004+35320+004190SY-MT+0461DAAD V0203601N004112200019N0100001N1+02911+01331101901ADDAA106000791AC11I9GA1021+009909999GF102991021021008001001001MA1101901999999MD1810081+9999MW1001REMSYN088AAXX  24124 60515 12560 23608 10291 20133 40190 58008 69901 82200 333 0//15 82833 95900;MET045DAAD 241200Z 36008KT 9999 FEW033 29/13 Q1019;EQDQ01+000000PRSWM2
0139605150999992000092413004+35320+004190FM-15+0461DAAD V0209999C000012200019N0112651N1+03101+01301999999ADDGA1021+009009999GF102991999999999999999999MA1101801999999MW1001REMMET045DAAD 241300Z 00000KT 9999 FEW030 31/13 Q1018;EQDQ01+000000PRSWM2
0291605150999992000092415004+35320+004190SY-MT+0461DAAD V0201601N001012200019N0100001N1+03151+01261101681ADDAY101031AY221031GA1021+009009999GA2021+009909099GF104991041031008001001001MA1101591999999MD1710191+9999MW1171REMSYN088AAXX  24154 60515 41560 41602 10315 20126 40168 57019 71702 84300 333 83830 82933 95900;MET057DAAD 241500Z 16002KT 9999 TS SCT030 FEW033CB 32/13 Q1016;EQDQ01    003PRSWM1
0183605150999992000092416004+35320+004190FM-15+0461DAAD V0203601N003112200019N0112651N1+03101+01201999999ADDGA1021+007809999GA2021+009009099GF104991999999999999999999MA1101591999999MW1171REMMET057DAAD 241600Z 36006KT 9999 TS SCT026 SCT030CB 31/12 Q1016;EQDQ01+000003PRSWM1Q02    003PRSWM1
0173605150999992000092417004+35320+004190FM-15+0461DAAD V0203601N00511220001CN0112651N1+03001+01201999999ADDGA1071+007809999GA2021+009009099MA1101591999999MW1171REMMET057DAAD 241700Z 36010KT 9999 TS BKN026 SCT030CB 30/12 Q1016;EQDQ01+000042SCOTCVQ02+000003PRSWM1Q03    003PRSWM1
0319605150999992000092418004+35320+004190SY-MT+0461DAAD V0203601N00621220001CN0100001N1+02901+01131101751ADDAA199000021AY191061AY221061GA1071+007809999GA2021+009009999GF107991071031008001999999KA1120M+03241MA1101691999999MD1310051+9999MW1171REMSYN094AAXX  24184 60515 31560 73612 10290 20113 40175 53005 71792 873// 333 10324 85826 83830 95990;MET055DAAD 241800Z 36012KT 9999 TS BKN026 SCT030 29/11 Q1017;EQDQ01    003PRSWM1
0311605150999992000092506004+35320+004190SY-MT+0461DAAD V0209999C000010090019N0080001N1+01991+01751102161ADDAA124001091GA1071+009009999GF199999051081008001001021IA2240+01809KA1120N+01971MA1102101999999MD1310041+9999MW1001REMSYN100AAXX  25064 60515 11558 60000 10199 20175 40216 53004 60014 700// 85802 333 018// 20197 85830 95900;MET045DAAD 250600Z 00000KT 8000 BKN030 20/18 Q1021;EQDQ01+000062SCOTCVQ02+000000PRSWM2
0139605150999992000092507004+35320+004190FM-15+0461DAAD V0202001N005110090019N0080001N1+02101+01801999999ADDGA1071+009009999GF107991999999999999999999MA1102101999999MW1001REMMET045DAAD 250700Z 20010KT 8000 BKN030 21/18 Q1021;EQDQ01+000000PRSWM2
0162605150999992000092508004+35320+004190FM-15+0461DAAD V0202001N003112200019N0112651N1+02301+01601999999ADDGA1021+009909999GA2021+060009999GF104991999999999999999999MA1102101999999MW1001REMMET052DAAD 250800Z 20006KT 9999 SCT033 SCT200 23/16 Q1021;EQDQ01+000000PRSWM2
0235605150999992000092509004+35320+004190SY-MT+0461DAAD V0209999C000012200019N0100001N1+02701+01491102171ADDGA1021+012009999GF102991011081012501071001MA1102101999999MD1510001+9999MW1001REMSYN076AAXX  25094 60515 42660 20000 10270 20149 40217 55000 81870 333 81840 95900;MET045DAAD 250900Z 00000KT 9999 FEW040 27/15 Q1021;EQDQ01+000000PRSWM2
0162605150999992000092510004+35320+004190FM-15+0461DAAD V0200801N004112200019N0112651N1+02801+01501999999ADDGA1021+012009999GA2021+060009999GF104991999999999999999999MA1102101999999MW1001REMMET052DAAD 251000Z 08008KT 9999 FEW040 SCT200 28/15 Q1021;EQDQ01+000000PRSWM2
0091605150999992000092511004+35320+004190FM-15+0461DAAD V0200601N00211220001CN0099001N1+02901+01501999999ADDMA1102101999999MW1001REMMET039DAAD 251100Z 06004KT CAVOK 29/15 Q1021;EQDQ01+000000PRSWM2
0291605150999992000092512004+35320+004190SY-MT+0461DAAD V0209999C000012200019N0100001N1+03061+01541102021ADDAA199000091GA1021+009909999GA2021+060009999GF104991011081012501001021MA1102001999999MD1810111+9999MW1001REMSYN082AAXX  25124 60515 32660 40000 10306 20154 40202 58011 81802 333 81833 84070 95900;MET052DAAD 251200Z 00000KT 9999 FEW033 SCT200 31/15 Q1020;EQDQ01+000000PRSWM2Q02  00002PRCP99
0165605150999992000092514004+35320+004190FM-15+0461DAAD V0209999C000012200019N0112651N1+03301+01401999999ADDGA1021+009909029GA2021+060009999GF104991999999999999999999MA1101801999999MW1001REMMET055DAAD 251400Z 00000KT 9999 SCT033TCU SCT200 33/14 Q1018;EQDQ01+000000PRSWM2
0166605150999992000092515004+35320+004190FM-12+0461DAAD V0209999C000010600019N0100001N1+03271+01401101851ADDGA1031+009909089GA2031+060009009GF105991031081012501001021MD1710181+9999REMSYN082AAXX  25154 60515 42660 50000 10327 20140 40185 57018 83802 333 83833 83070 95900;
0162605150999992000092516004+35320+004190FM-15+0461DAAD V0209999C000010600019N0112651N1+03301+01301999999ADDGA1021+012009999GA2071+060009999GF107991999999999999999999MA1101801999999MW1001REMMET052DAAD 251600Z 00000KT 9999 FEW040 BKN200 33/13 Q1018;EQDQ01+000000PRSWM2
0162605150999992000092517004+35320+004190FM-15+0461DAAD V0209999C000010600019N0112651N1+03201+01301999999ADDGA1021+012009999GA2071+060009999GF107991999999999999999999MA1101801999999MW1001REMMET052DAAD 251700Z 00000KT 9999 FEW040 BKN200 32/13 Q1018;EQDQ01+000000PRSWM2
0310605150999992000092518004+35320+004190SY-MT+0461DAAD V0209999C00001090001CN0100001N1+02951+01471101861ADDAA199000091GA1021+009009999GA2021+060009999GF106991031081008001001021KA1120M+03281MA1101801999999MD1510011+9999MW1001REMSYN088AAXX  25184 60515 32560 60000 10295 20147 40186 55001 83802 333 10328 83830 83070 95990;MET052DAAD 251800Z 00000KT 9999 SCT030 SCT200 30/15 Q1018;EQDQ01+000000PRSWM2Q02  00002PRCP99
0305605150999992000092606004+35320+004190SY-MT+0461DAAD V0202601N001010360019N0080001N1+02171+01331102061ADDAA199000091GA1021+009009999GF106991041021008001031001IA2240+01809KA1120N+01931MA1102001999999MD1510021+9999MW1001REMSYN094AAXX  26064 60515 31558 62602 10217 20133 40206 55002 700// 84230 333 01800 20193 84830 95900;MET045DAAD 260600Z 26002KT 8000 SCT030 22/14 Q1020;EQDQ01+000000PRSWM2Q02  00002PRCP99
0139605150999992000092607004+35320+004190FM-15+0461DAAD V0209999C000010090019N0080001N1+02201+01401999999ADDGA1071+009009999GF107991999999999999999999MA1102101999999MW1001REMMET045DAAD 260700Z 00000KT 8000 BKN030 22/14 Q1021;EQDQ01+000000PRSWM2
0139605150999992000092608004+35320+004190FM-15+0461DAAD V0209999C000010090019N0080001N1+02301+01501999999ADDGA1071+009009999GF107991999999999999999999MA1102101999999MW1001REMMET045DAAD 260800Z 00000KT 8000 BKN030 23/15 Q1021;EQDQ01+000000PRSWM2
0144605150999992000092609004+35320+004190FM-12+0461DAAD V0209999C000010090019N0100001N1+02401+01511102181ADDGA1081+009009089GF108991081021008001999999MD1210121+9999REMSYN076AAXX  26094 60515 42560 80000 10240 20151 40218 52012 882// 333 88830 95900;
0139605150999992000092611004+35320+004190FM-15+0461DAAD V0209999C000010090019N0080001N1+02701+01501999999ADDGA1071+009009999GF107991999999999999999999MA1102001999999MW1001REMMET045DAAD 261100Z 00000KT 8000 BKN030 27/15 Q1020;EQDQ01+000000PRSWM2
0174605150999992000092612004+35320+004190FM-12+0461DAAD V0209999C000010090019N0080001N1+02841+01281102031ADDAA199000091GA1071+009009089GF107991071021008001999999MD1810131+9999REMSYN076AAXX  26124 60515 32558 70000 10284 20128 40203 58013 872// 333 87830 95900;EQDQ01  00002PRCP99
0139605150999992000092613004+35320+004190FM-15+0461DAAD V0203601N001010090019N0080001N1+02801+01301999999ADDGA1071+009009999GF107991999999999999999999MA1101901999999MW1001REMMET045DAAD 261300Z 36002KT 8000 BKN030 28/13 Q1019;EQDQ01+000000PRSWM2
0183605150999992000092614004+35320+004190FM-15+0461DAAD V0209999C000012200019N0080001N1+02901+01201999999ADDGA1021+007809999GA2021+009009099GF104991999999999999999999MA1101901999999MW1171REMMET057DAAD 261400Z 00000KT 8000 TS SCT026 SCT030CB 29/12 Q1019;EQDQ01+000003PRSWM1Q02    003PRSWM1
0297605150999992000092615004+35320+004190SY-MT+0461DAAD V0209999C000019999999N0080001N1+02991+01161101811ADDAY121031AY221031GA1021+007809999GA2021+009009099GF107991041031008001999999MA1101801999999MD1710211+9999MW1101MW2171REMSYN088AAXX  26154 60515 41558 70000 10299 20116 40181 57021 71022 843// 333 84826 83930 95900;MET057DAAD 261500Z 00000KT 8000 TS SCT026 SCT030CB 30/12 Q1018;EQDQ01    003PRSWM1
0091605150999992000092617004+35320+004190FM-15+0461DAAD V0203501N00311220001CN0099001N1+03701+00801999999ADDMA1101291999999MW1001REMMET039DAAD 261700Z 35006KT CAVOK 37/08 Q1013;EQDQ01+000000PRSWM2
0223605150999992000092706004+35320+004190FM-12+0461DAAD V0209999C000012200019N0100001N1+01821+01201101941ADDAA199000091GA1021+009909089GF102991021021008001071021IA2240+01609KA1120N+01771MD1310061+9999MW1001REMSYN094AAXX  27064 60515 31560 20000 10182 20120 40194 53006 700// 82272 333 01600 20177 82833 95900;EQDQ01  00002PRCP99
0139605150999992000092707004+35320+004190FM-15+0461DAAD V0209999C000012200019N0112651N1+01701+01201999999ADDGA1021+009909999GF104991999999999999999999MA1102001999999MW1001REMMET045DAAD 270700Z 00000KT 9999 SCT033 17/12 Q1020;EQDQ01+000000PRSWM2
0139605150999992000092708004+35320+004190FM-15+0461DAAD V0202601N004112200019N0112651N1+02401+01201999999ADDGA1021+009909999GF104991999999999999999999MA1102001999999MW1001REMMET045DAAD 270800Z 26008KT 9999 SCT033 24/12 Q1020;EQDQ01+000000PRSWM2
0235605150999992000092709004+35320+004190SY-MT+0461DAAD V0209999C000012200019N0100001N1+02551+01171102061ADDGA1021+009009999GF103991031081008001001021MA1102001999999MD1210161+9999MW1001REMSYN076AAXX  27094 60515 42560 30000 10255 20117 40206 52016 83802 333 83830 95900;MET045DAAD 270900Z 00000KT 9999 SCT030 26/12 Q1020;EQDQ01+000000PRSWM2
0139605150999992000092711004+35320+004190FM-15+0461DAAD V0200801N003112200019N0112651N1+02901+01301999999ADDGA1021+009009999GF104991999999999999999999MA1101901999999MW1001REMMET045DAAD 271100Z 08006KT 9999 SCT030 29/13 Q1019;EQDQ01+000000PRSWM2
0268605150999992000092712004+35320+004190SY-MT+0461DAAD V0200301N004112200019N0100001N1+02851+01821101931ADDAA199000091GA1021+009009999GF104991031021008001071001MA1101901999999MD1310121+9999MW1001REMSYN082AAXX  27124 60515 32560 40308 10285 20182 40193 53012 83270 333 0//00 83830 95900;MET045DAAD 271200Z 03008KT 9999 SCT030 29/11 Q1019;EQDQ01+000000PRSWM2Q02  00002PRCP99
0164605150999992000092713004+35320+004190FM-15+0461DAAD V0200301N006212200019N0112651N1+02801+01201999999ADDGA1021+007809099GA2021+009009999GF102991999999999999999999MA1101801999999MW1001REMMET054DAAD 271300Z 03012KT 9999 SCT030 FEW026CB 28/12 Q1018;EQDQ01+000000PRSWM2
0164605150999992000092714004+35320+004190FM-15+0461DAAD V0201801N005112200019N0112651N1+02501+01301999999ADDGA1021+007809099GA2021+009009999GF104991999999999999999999MA1101691999999MW1001REMMET054DAAD 271400Z 18010KT 9999 SCT030 SCT026CB 25/13 Q1017;EQDQ01+000000PRSWM2
0285605150999992000092715004+35320+004190SY-MT+0461DAAD V0201601N00511007501CN0100001N1+02551+01071101791ADDGA1021+007809099GA2021+009009999GF107991071031008001999999MA1101691999999MD1710191+9999MW1171REMSYN082AAXX  27154 60515 42560 71610 10255 20107 40179 57019 873// 333 84830 83926 95900;MET057DAAD 271500Z 16010KT 9999 TS SCT030 SCT026CB 26/11 Q1017;EQDQ01+000003PRSWM1Q02    003PRSWM1
0154605150999992000092716004+35320+004190FM-15+0461DAAD V0201601N00511220001CN0112651N1+02501+01301999999ADDGA1021+007809099GA2071+009009999MA1101691999999MW1001REMMET054DAAD 271600Z 16010KT 9999 BKN030 FEW026CB 25/13 Q1017;EQDQ01+000022SCOTCVQ02+000000PRSWM2
0173605150999992000092717004+35320+004190FM-15+0461DAAD V0201801N00621220001CN0080001N1+02401+01201999999ADDGA1021+007809099GA2071+009009999MA1101801999999MW1631REMMET057DAAD 271700Z 18012KT 8000 RA BKN030 FEW026CB 24/12 Q1018;EQDQ01+000022SCOTCVQ02+000003PRSWM1Q03    003PRSWM1
0265605150999992000092718004+35320+004190SY-MT+0461DAAD V0200301N005110090019N0100001N1+02401+01201101701ADDAA199000021GA1081+009009999GF108991081081008001999999KA1120M+02991MA1101691999999MD1610071+9999MW1001REMSYN082AAXX  27184 60515 32560 80310 10240 20120 40170 56007 888// 333 10299 88830 95990;MET045DAAD 271800Z 03010KT 8000 OVC030 24/12 Q1017;EQDQ01+000000PRSWM2
0305605150999992000092806004+35320+004190SY-MT+0461DAAD V0209999C000010240019N0100001N1+01641+01401101921ADDAA124007991GA1051+024009079GF105991051999022501071001IA2240+01409KA1120N+01561MA1101901999999MD1610031+9999MW1001REMSYN100AAXX  28064 60515 11860 50000 10164 20140 40192 56003 60084 700// 85070 333 014// 20156 85358 95900;MET039DAAD 280600Z 00000KT CAVOK 16/14 Q1019;EQDQ01+000000PRSWM2Q02    003SCOLCG
0162605150999992000092807004+35320+004190FM-15+0461DAAD V0209999C000012200019N0112651N1+01601+01501999999ADDGA1021+009009999GA2021+024009999GF104991999999999999999999MA1101901999999MW1001REMMET052DAAD 280700Z 00000KT 9999 SCT030 SCT080 16/15 Q1019;EQDQ01+000000PRSWM2
0162605150999992000092808004+35320+004190FM-15+0461DAAD V0209999C000012200019N0112651N1+01701+01501999999ADDGA1021+009009999GA2021+060009999GF104991999999999999999999MA1101901999999MW1001REMMET052DAAD 280800Z 00000KT 9999 SCT030 SCT200 17/15 Q1019;EQDQ01+000000PRSWM2
0235605150999992000092809004+35320+004190SY-MT+0461DAAD V0209999C000010900019N0100001N1+01851+01431101971ADDGA1021+009009999GF105991041021008001001021MA1101901999999MD1110061+9999MW1001REMSYN076AAXX  28094 60515 42560 50000 10185 20143 40197 51006 84202 333 84830 95900;MET045DAAD 280900Z 00000KT 9999 SCT030 19/14 Q1019;EQDQ01+000000PRSWM2
0139605150999992000092810004+35320+004190FM-15+0461DAAD V0209999C000012200019N0112651N1+02001+01401999999ADDGA1021+009009999GF104991999999999999999999MA1101901999999MW1001REMMET045DAAD 281000Z 00000KT 9999 SCT030 20/14 Q1019;EQDQ01+000000PRSWM2
0268605150999992000092812004+35320+004190SY-MT+0461DAAD V0209999C000010360019N0100001N1+02201+01461101791ADDAA199000091GA1021+009009999GF105991031021008001031021MA1101691999999MD1810131+9999MW1001REMSYN082AAXX  28124 60515 32560 50000 10220 20146 40179 58013 83232 333 0//00 83830 95900;MET045DAAD 281200Z 00000KT 9999 SCT030 22/15 Q1017;EQDQ01+000000PRSWM2Q02  00002PRCP99
0162605150999992000092813004+35320+004190FM-15+0461DAAD V0209999C000012200019N0112651N1+02301+01501999999ADDGA1021+009009999GA2021+024009999GF104991999999999999999999MA1101691999999MW1001REMMET052DAAD 281300Z 00000KT 9999 SCT030 SCT080 23/15 Q1017;EQDQ01+000000PRSWM2
0139605150999992000092814004+35320+004190FM-15+0461DAAD V0201201N001010120019N0112651N1+02401+01501999999ADDGA1071+012009999GF107991999999999999999999MA1101591999999MW1001REMMET045DAAD 281400Z 12002KT 9999 BKN040 24/15 Q1016;EQDQ01+000000PRSWM2
0235605150999992000092815004+35320+004190SY-MT+0461DAAD V0209999C000010090019N0100001N1+02311+01571101541ADDGA1071+009009999GF107991051021008001071999MA1101491999999MD1710241+9999MW1001REMSYN076AAXX  28154 60515 42560 70000 10231 20157 40154 57024 8527/ 333 85830 95900;MET045DAAD 281500Z 00000KT 9999 BKN030 23/16 Q1015;EQDQ01+000000PRSWM2
0281605150999992000092818004+35320+004190SY-MT+0461DAAD V0209999C000010090019N0100001N1+02221+01671101501ADDAA199000091GA1071+009009999GF107991071021008001999999KA1120M+02441MA1101491999999MD1510041+9999MW1001REMSYN082AAXX  28184 60515 32560 70000 10222 20167 40150 55004 872// 333 10244 87830 95900;MET045DAAD 281800Z 00000KT 9999 BKN030 22/17 Q1015;EQDQ01+000000PRSWM2Q02  00002PRCP99
0210605150999992000092906004+35320+004190FM-12+0461DAAD V0200301N003110090019N0550001N1+01901+01391101101ADDAA100001091GA1081+009009089GF108991081081008001999999IA2240+01609KA1120N+01561MD1310041+9999MW1001REMSYN100AAXX  29064 60515 11585 80306 10190 20139 40110 53004 60010 700// 888// 333 016// 20156 88830 95900;
0158605150999992000092908004+35320+004190FM-15+0461DAAD V0201601N003110090019N0080001N1+01801+01601999999ADDGA1081+009009999GF108991999999999999999999MA1101591999999MW1631REMMET048DAAD 290800Z 16006KT 8000 RA OVC030 18/16 Q1016;EQDQ01+000003PRSWM1Q02    003PRSWM1
0172605150999992000092909004+35320+004190FM-12+0461DAAD V0209999C00001012001CN0100001N1+01841+01581101081ADDAY181031AY221031GA1031+009009089GF108991081081008001999999MD1510071+9999MW1251REMSYN082AAXX  29094 60515 41560 80000 10184 20158 40108 55007 72582 888// 333 83830 95900;
0139605150999992000092910004+35320+004190FM-15+0461DAAD V0202401N005110090019N0112651N1+01901+01401999999ADDGA1081+009009999GF108991999999999999999999MA1101081999999MW1001REMMET045DAAD 291000Z 24010KT 9999 OVC030 19/14 Q1011;EQDQ01+000000PRSWM2
0159605150999992000092911004+35320+004190FM-15+0461DAAD V0209999C000010090019N0080001N1+01901+01501999999ADDGA1081+009009999GF108991999999999999999999MA1101081999999MW1611REMMET049DAAD 291100Z 00000KT 8000 -RA OVC030 19/15 Q1011;EQDQ01+000003PRSWM1Q02    003PRSWM1
0284605150999992000092912004+35320+004190SY-MT+0461DAAD V0209999C000010090019N0080001N1+01951+01541101131ADDAA106002091AC11C9GA1081+009009999GF108991081021008001999999MA1101081999999MD1310061+9999MW1611REMSYN088AAXX  29124 60515 12558 80000 10195 20154 40113 53006 60021 882// 333 0//51 88830 95900;MET049DAAD 291200Z 00000KT 8000 -RA OVC030 20/15 Q1011;EQDQ01+000003PRSWM1Q02    003PRSWM1
0139605150999992000092913004+35320+004190FM-15+0461DAAD V0209999C000010090019N0080001N1+02001+01601999999ADDGA1081+009009999GF108991999999999999999999MA1100911999999MW1001REMMET045DAAD 291300Z 00000KT 8000 OVC030 20/16 Q1009;EQDQ01+000000PRSWM2
0139605150999992000092914004+35320+004190FM-15+0461DAAD V0203301N002110090019N0080001N1+01901+01601999999ADDGA1081+009009999GF108991999999999999999999MA1101021999999MW1001REMMET045DAAD 291400Z 33004KT 8000 OVC030 19/16 Q1010;EQDQ01+000000PRSWM2
0235605150999992000092915004+35320+004190SY-MT+0461DAAD V0203401N004110090019N0080001N1+01861+01391101011ADDGA1081+009009999GF108991081021008001999999MA1101021999999MD1710151+9999MW1001REMSYN076AAXX  29154 60515 41558 83408 10186 20139 40101 57015 882// 333 88830 95900;MET045DAAD 291500Z 34008KT 8000 OVC030 19/14 Q1010;EQDQ01+000000PRSWM2
0155605150999992000092916004+35320+004190FM-15+0461DAAD V0209999C000010090019N0080001N1+01901+01401999999ADDGA1081+009009999GF108991999999999999999999MA1100612999999MW1001REMMET045DAAD 291600Z 00000KT 8000 OVC030 19/14 Q1006;EQDQ01+100613APOA  Q02+000000PRSWM2
0139605150999992000092917004+35320+004190FM-15+0461DAAD V0209999C000010090019N0112651N1+01901+01301999999ADDGA1071+009009999GF107991999999999999999999MA1100911999999MW1001REMMET045DAAD 291700Z 00000KT 9999 BKN030 19/13 Q1009;EQDQ01+000000PRSWM2
0309605150999992000092918004+35320+004190SY-MT+0461DAAD V0209999C000010078019N0080001N1+01741+01441100921ADDAA112002091AY181061AY221061GA1081+007809999GF108991081081008001999999KA1120M+02051MA1100911999999MD1310061+9999MW1251REMSYN094AAXX  29184 60515 11558 80000 10174 20144 40092 53006 60022 72582 888// 333 10205 88826 95990;MET045DAAD 291800Z 00000KT 8000 OVC026 17/14 Q1009;EQDQ01+000000PRSWM2Q02    003PRSWM1
0295605150999992000093006004+35320+004190SY-MT+0461DAAD V0202601N004110090019N0100001N1+01441+01011101101ADDAA124002091GA1071+009009999GF107991071021008001999999IA2240+01309KA1120N+01401MA1101081999999MD1610141+9999MW1001REMSYN100AAXX  30064 60515 11560 72608 10144 20101 40110 56014 60024 700// 872// 333 01300 20140 87830 95900;MET045DAAD 300600Z 26008KT 9999 BKN030 14/10 Q1011;EQDQ01+000000PRSWM2
0139605150999992000093008004+35320+004190FM-15+0461DAAD V0202601N006210090019N0112651N1+01601+01101999999ADDGA1071+009009999GF107991999999999999999999MA1101081999999MW1001REMMET045DAAD 300800Z 26012KT 9999 BKN030 16/11 Q1011;EQDQ01+000000PRSWM2
0264605150999992000093009004+35320+004190SY-MT+0461DAAD V0202601N00721036001CN0100001N1+01711+01091101131ADDGA1021+009009999GA2021+012009999GF106991031021008001071001MA1101081999999MD1310051+9999MW1001REMSYN082AAXX  30094 60515 42560 62614 10171 20109 40113 53005 83270 333 83830 84358 95900;MET052DAAD 300900Z 26014KT 9999 SCT030 SCT040 17/11 Q1011;EQDQ01+000000PRSWM2
0162605150999992000093010004+35320+004190FM-15+0461DAAD V0202601N006212200019N0112651N1+01801+01201999999ADDGA1021+009009999GA2021+024009999GF104991999999999999999999MA1101081999999MW1001REMMET052DAAD 301000Z 26012KT 9999 SCT030 SCT080 18/12 Q1011;EQDQ01+000000PRSWM2
0139605150999992000093011004+35320+004190FM-15+0461DAAD V0202401N005110090019N0112651N1+01901+01301999999ADDGA1071+009009999GF107991999999999999999999MA1101081999999MW1001REMMET045DAAD 301100Z 24010KT 9999 BKN030 19/13 Q1011;EQDQ01+000000PRSWM2
0297605150999992000093012004+35320+004190SY-MT+0461DAAD V0202601N00621036001CN0100001N1+01831+01121101121ADDAA199000091GA1021+009009999GA2021+024009999GF107991041021008001071999MA1101081999999MD1510011+9999MW1001REMSYN088AAXX  30124 60515 32560 72612 10183 20112 40112 55001 8427/ 333 0//00 84830 83358 95900;MET052DAAD 301200Z 26012KT 9999 SCT030 SCT080 18/11 Q1011;EQDQ01+000000PRSWM2Q02  00002PRCP99
0162605150999992000093013004+35320+004190FM-15+0461DAAD V0202601N008212200019N0112651N1+01901+01201999999ADDGA1021+009009999GA2021+024009999GF104991999999999999999999MA1101021999999MW1001REMMET052DAAD 301300Z 26016KT 9999 SCT030 SCT080 19/12 Q1010;EQDQ01+000000PRSWM2
0162605150999992000093014004+35320+004190FM-15+0461DAAD V0202601N007212200019N0112651N1+02001+01101999999ADDGA1021+009009999GA2021+024009999GF104991999999999999999999MA1101021999999MW1001REMMET052DAAD 301400Z 26014KT 9999 SCT030 SCT080 20/11 Q1010;EQDQ01+000000PRSWM2
0235605150999992000093015004+35320+004190SY-MT+0461DAAD V0202601N006210360019N0100001N1+02111+00911100991ADDGA1021+009009999GF106991031021008001031021MA1100911999999MD1710101+9999MW1001REMSYN076AAXX  30154 60515 42560 62612 10211 20091 40099 57010 83232 333 83830 95900;MET045DAAD 301500Z 26012KT 9999 SCT030 21/09 Q1009;EQDQ01+000000PRSWM2
0139605150999992000093016004+35320+004190FM-15+0461DAAD V0202601N005110090019N0112651N1+02101+01001999999ADDGA1071+009009999GF107991999999999999999999MA1101021999999MW1001REMMET045DAAD 301600Z 26010KT 9999 BKN030 21/10 Q1010;EQDQ01+000000PRSWM2
0139605150999992000093017004+35320+004190FM-15+0461DAAD V0202601N006210090019N0112651N1+02101+01001999999ADDGA1071+009009999GF107991999999999999999999MA1101021999999MW1001REMMET045DAAD 301700Z 26012KT 9999 BKN030 21/10 Q1010;EQDQ01+000000PRSWM2
0281605150999992000093018004+35320+004190SY-MT+0461DAAD V0202601N007210090019N0100001N1+01921+00971101051ADDAA199000091GA1071+009009999GF107991051021008001031999KA1120M+02111MA1101021999999MD1110021+9999MW1001REMSYN082AAXX  30184 60515 32560 72614 10192 20097 40105 51002 8523/ 333 10211 85830 95900;MET045DAAD 301800Z 26014KT 9999 BKN030 19/10 Q1010;EQDQ01+000000PRSWM2Q02  00002PRCP99
0223605150999992000100106004+35320+004190FM-12+0461DAAD V0202601N005112200019N0100001N1+01451+00761101501ADDAA199000091GA1031+009009089GF103991031021008001001001IA2240+01309KA1120N+01361MD1310151+9999MW1001REMSYN094AAXX  01064 60515 31560 32610 10145 20076 40150 53015 700// 83200 333 01300 20136 83830 95990;EQDQ01  00002PRCP99
0139605150999992000100108004+35320+004190FM-15+0461DAAD V0202801N006212200019N0112651N1+01601+00901999999ADDGA1021+009909999GF102991999999999999999999MA1101491999999MW1001REMMET045DAAD 010800Z 28012KT 9999 FEW033 16/09 Q1015;EQDQ01+000000PRSWM2
0180605150999992000100112004+35320+004190FM-12+0461DAAD V0203301N009312200019N0100001N1+02161+00781101481ADDAA199000091GA1041+007809089GF104991041021008001001001MD1810081+9999REMSYN082AAXX  01124 60515 32560 43318 10216 20078 40148 58008 84200 333 0//00 84826 95900;EQDQ01  00002PRCP99
0139605150999992000100113004+35320+004190FM-15+0461DAAD V0203601N007210078019N0112651N1+02901+01001999999ADDGA1071+007809999GF107991999999999999999999MA1101391999999MW1001REMMET045DAAD 011300Z 36014KT 9999 BKN026 29/10 Q1014;EQDQ01+000000PRSWM2
0139605150999992000100114004+35320+004190FM-15+0461DAAD V0203301N006210078019N0112651N1+02002+00801999999ADDGA1071+007809999GF107991999999999999999999MA1101491999999MW1001REMMET045DAAD 011400Z 33012KT 9999 BKN026 20/08 Q1015;EQDQ01+000000PRSWM2
0251605150999992000100115004+35320+004190SY-MT+0461DAAD V0203301N009310078019N9999999N1+02021+00871101581ADDGA1071+007809999GF107991071021008001001001MA1101491999999MD1310081+9999MW1001REMSYN076AAXX  01154 60515 42556 73318 10202 20087 40158 53008 87200 333 87826 95900;MET045DAAD 011500Z 33018KT 6000 BKN026 20/09 Q1015;EQDQ01+060002VODIS Q02+000000PRSWM2
0139605150999992000100116004+35320+004190FM-15+0461DAAD V0203601N005110078019N0112651N1+02001+00801999999ADDGA1071+007809999GF107991999999999999999999MA1101491999999MW1001REMMET045DAAD 011600Z 36010KT 9999 BKN026 20/08 Q1015;EQDQ01+000000PRSWM2
0139605150999992000100117004+35320+004190FM-15+0461DAAD V0203301N006210078019N0112651N1+02001+00801999999ADDGA1071+007809999GF107991999999999999999999MA1101591999999MW1001REMMET045DAAD 011700Z 33012KT 9999 BKN026 20/08 Q1016;EQDQ01+000000PRSWM2
0139605150999992000100118004+35320+004190FM-15+0461DAAD V0203301N004110078019N0112651N1+01901+00901999999ADDGA1071+007809999GF107991999999999999999999MA1101591999999MW1001REMMET045DAAD 011800Z 33008KT 9999 BKN026 19/09 Q1016;EQDQ01+000000PRSWM2
0139605150999992000100206004+35320+004190FM-15+0461DAAD V0202601N010312200019N0112651N1+01501+01001999999ADDGA1021+009009999GF104991999999999999999999MA1101801999999MW1001REMMET045DAAD 020600Z 26020KT 9999 SCT030 15/10 Q1018;EQDQ01+000000PRSWM2
0139605150999992000100208004+35320+004190FM-15+0461DAAD V0202601N008212200019N0112651N1+01701+01001999999ADDGA1021+009909999GF102991999999999999999999MA1101901999999MW1001REMMET045DAAD 020800Z 26016KT 9999 FEW033 17/10 Q1019;EQDQ01+000000PRSWM2
0262605150999992000100209004+35320+004190SY-MT+0461DAAD V0202601N013412200019N0070001N1+01861+00921101951ADDAY101031AY221031GA1021+009009999GF102991021021008001001001MA1101901999999MD1310141+9999MW1071REMSYN082AAXX  02094 60515 41557 22626 10186 20092 40195 53014 70702 82200 333 82830 95900;MET050DAAD 020900Z 26026KT 7000 DRSA FEW030 19/09 Q1019;EQDQ01    003PRSWM1
0160605150999992000100210004+35320+004190FM-15+0461DAAD V0202601N007212200019N0070001N1+02101+01001999999ADDGA1021+009009999GF104991999999999999999999MA1101901999999MW1071REMMET050DAAD 021000Z 26014KT 7000 DRSA SCT030 21/10 Q1019;EQDQ01+000003PRSWM1Q02    003PRSWM1
0160605150999992000100211004+35320+004190FM-15+0461DAAD V0203001N011312200019N0070001N1+02201+00901999999ADDGA1021+009009999GF104991999999999999999999MA1101901999999MW1071REMMET050DAAD 021100Z 30022KT 7000 DRSA SCT030 22/09 Q1019;EQDQ01+000003PRSWM1Q02    003PRSWM1
0295605150999992000100212004+35320+004190SY-MT+0461DAAD V0203001N012312200019N0040001N1+02311+00921101861ADDAA199000091AY101061AY221061GA1021+009009999GF103991031021008001001001MA1101801999999MD1810051+9999MW1071REMSYN088AAXX  02124 60515 31540 33024 10231 20092 40186 58005 70702 83200 333 0//00 83830 95990;MET050DAAD 021200Z 30024KT 4000 DRSA SCT030 23/09 Q1018;EQDQ01  00002PRCP99Q02    003PRSWM1
0160605150999992000100214004+35320+004190FM-15+0461DAAD V0203001N014412200019N0040001N1+02401+01001999999ADDGA1021+009009999GF104991999999999999999999MA1101691999999MW1071REMMET050DAAD 021400Z 30028KT 4000 DRSA SCT030 24/10 Q1017;EQDQ01+000003PRSWM1Q02    003PRSWM1
0262605150999992000100215004+35320+004190SY-MT+0461DAAD V0203001N013412200019N0040001N1+02401+00981101771ADDAY101031AY221031GA1021+009009999GF103991031021008001001001MA1101691999999MD1710091+9999MW1071REMSYN082AAXX  02154 60515 41540 33026 10240 20098 40177 57009 70702 83200 333 83830 95990;MET050DAAD 021500Z 30026KT 4000 DRSA SCT030 24/10 Q1017;EQDQ01    003PRSWM1
0160605150999992000100216004+35320+004190FM-15+0461DAAD V0203001N011312200019N0040001N1+02401+00901999999ADDGA1021+009009999GF104991999999999999999999MA1101691999999MW1071REMMET050DAAD 021600Z 30022KT 4000 DRSA SCT030 24/09 Q1017;EQDQ01+000003PRSWM1Q02    003PRSWM1
0139605150999992000100217004+35320+004190FM-15+0461DAAD V0203201N011312200019N0080001N1+02201+00801999999ADDGA1021+009009999GF102991999999999999999999MA1101801999999MW1001REMMET045DAAD 021700Z 32022KT 8000 FEW030 22/08 Q1018;EQDQ01+000000PRSWM2
0281605150999992000100218004+35320+004190SY-MT+0461DAAD V0203201N010312200019N0080001N1+02081+00701101931ADDAA199000091GA1021+009009999GF103991021021008001001021KA1120M+02431MA1101901999999MD1310141+9999MW1001REMSYN082AAXX  02184 60515 32558 33220 10208 20070 40193 53014 82202 333 10243 82830 95900;MET045DAAD 021800Z 32020KT 8000 FEW030 21/07 Q1019;EQDQ01+000000PRSWM2Q02  00002PRCP99
0223605150999992000100306004+35320+004190FM-12+0461DAAD V0203301N008212200019N0100001N1+01671+00891101991ADDAA199000091GA1021+009009089GF102991021021008001001001IA2240+01209KA1120N+01541MD1610071+9999MW1001REMSYN094AAXX  03064 60515 31560 23316 10167 20089 40199 56007 700// 82200 333 01200 20154 82830 95990;EQDQ01  00002PRCP99
0139605150999992000100307004+35320+004190FM-15+0461DAAD V0203401N008212200019N0112651N1+01701+01001999999ADDGA1021+009009999GF102991999999999999999999MA1102001999999MW1001REMMET045DAAD 030700Z 34016KT 9999 FEW030 17/10 Q1020;EQDQ01+000000PRSWM2
0235605150999992000100309004+35320+004190SY-MT+0461DAAD V0203401N008212200019N0100001N1+02021+00871102011ADDGA1021+009009999GF102991021021008001001001MA1102001999999MD1310041+9999MW1001REMSYN076AAXX  03094 60515 42560 23416 10202 20087 40201 53004 82200 333 82830 95900;MET045DAAD 030900Z 34016KT 9999 FEW030 20/09 Q1020;EQDQ01+000000PRSWM2
0139605150999992000100310004+35320+004190FM-15+0461DAAD V0203301N008212200019N0112651N1+02101+00901999999ADDGA1021+009009999GF102991999999999999999999MA1102001999999MW1001REMMET045DAAD 031000Z 33016KT 9999 FEW030 21/09 Q1020;EQDQ01+000000PRSWM2
0139605150999992000100311004+35320+004190FM-15+0461DAAD V0203401N008212200019N0112651N1+02201+00901999999ADDGA1021+007809999GF104991999999999999999999MA1101901999999MW1001REMMET045DAAD 031100Z 34016KT 9999 SCT026 22/09 Q1019;EQDQ01+000000PRSWM2
0268605150999992000100312004+35320+004190SY-MT+0461DAAD V0203301N008212200019N0100001N1+02301+00931101901ADDAA199000091GA1021+007809999GF104991041021008001001001MA1101901999999MD1810091+9999MW1001REMSYN082AAXX  03124 60515 32560 43316 10230 20093 40190 58009 84200 333 0//00 84826 95900;MET045DAAD 031200Z 33016KT 9999 SCT026 23/09 Q1019;EQDQ01+000000PRSWM2Q02  00002PRCP99
0139605150999992000100313004+35320+004190FM-15+0461DAAD V0203401N009312200019N0112651N1+02401+00901999999ADDGA1021+007809999GF104991999999999999999999MA1101801999999MW1001REMMET045DAAD 031300Z 34018KT 9999 SCT026 24/09 Q1018;EQDQ01+000000PRSWM2
0139605150999992000100314004+35320+004190FM-15+0461DAAD V0203301N008210078019N0112651N1+02401+00801999999ADDGA1071+007809999GF107991999999999999999999MA1101691999999MW1001REMMET045DAAD 031400Z 33016KT 9999 BKN026 24/08 Q1017;EQDQ01+000000PRSWM2
0251605150999992000100315004+35320+004190SY-MT+0461DAAD V0203301N004610078019N0100001N1+02301+00831101781ADDGA1071+007809999GF199999051021008001001001MA1101691999999MD1710131+9999MW1001REMSYN076AAXX  03154 60515 42560 53309 10230 20083 40178 57013 85200 333 85826 95900;MET045DAAD 031500Z 33009KT 9999 BKN026 23/08 Q1017;EQDQ01+000052SCOTCVQ02+000000PRSWM2
0139605150999992000100316004+35320+004190FM-15+0461DAAD V0203401N007210078019N0112651N1+02301+00801999999ADDGA1071+007809999GF107991999999999999999999MA1101691999999MW1001REMMET045DAAD 031600Z 34014KT 9999 BKN026 23/08 Q1017;EQDQ01+000000PRSWM2
0139605150999992000100317004+35320+004190FM-15+0461DAAD V0203201N004112200019N0112651N1+02201+00801999999ADDGA1021+007809999GF104991999999999999999999MA1101691999999MW1001REMMET045DAAD 031700Z 32008KT 9999 SCT026 22/08 Q1017;EQDQ01+000000PRSWM2
0281605150999992000100318004+35320+004190SY-MT+0461DAAD V0203401N008212200019N0100001N1+02101+00891101821ADDAA199000091GA1021+007809999GF104991041021008001001001KA1120M+02481MA1101691999999MD1110081+9999MW1001REMSYN082AAXX  03184 60515 32560 43416 10210 20089 40182 51008 84200 333 10248 84826 95990;MET045DAAD 031800Z 34016KT 9999 SCT026 21/09 Q1017;EQDQ01+000000PRSWM2Q02  00002PRCP99
0305605150999992000100406004+35320+004190SY-MT+0461DAAD V0203201N005112200019N0100001N1+01601+01051101951ADDAA199000091GA1021+009009999GF102991021021008001001001IA2240+01409KA1120N+01551MA1101901999999MD1410001+9999MW1001REMSYN094AAXX  04064 60515 31560 23210 10160 20105 40195 54000 700// 82200 333 01400 20155 82830 95900;MET045DAAD 040600Z 32010KT 9999 FEW030 16/11 Q1019;EQDQ01+000000PRSWM2Q02  00002PRCP99
0139605150999992000100407004+35320+004190FM-15+0461DAAD V0203201N007212200019N0112651N1+01701+01001999999ADDGA1021+009009999GF102991999999999999999999MA1101901999999MW1001REMMET045DAAD 040700Z 32014KT 9999 FEW030 17/10 Q1019;EQDQ01+000000PRSWM2
0139605150999992000100408004+35320+004190FM-15+0461DAAD V0203201N009312200019N0112651N1+01901+00901999999ADDGA1021+009009999GF102991999999999999999999MA1101901999999MW1001REMMET045DAAD 040800Z 32018KT 9999 FEW030 19/09 Q1019;EQDQ01+000000PRSWM2
0229605150999992000100409004+35320+004190SY-MT+0461DAAD V0203201N006212200019N0100001N1+01961+00951102011ADDGA1021+009009999GF102991021021008001001001MA1102001999999MD1310061+9999MW1001REMSYN070AAXX  04094 60515 42560 23212 10196 20095 40201 53006 82200 333 82830;MET045DAAD 040900Z 32012KT 9999 FEW030 20/10 Q1020;EQDQ01+000000PRSWM2
0139605150999992000100410004+35320+004190FM-15+0461DAAD V0203201N007212200019N0112651N1+02101+01001999999ADDGA1021+009009999GF102991999999999999999999MA1102001999999MW1001REMMET045DAAD 041000Z 32014KT 9999 FEW030 21/10 Q1020;EQDQ01+000000PRSWM2
0139605150999992000100411004+35320+004190FM-15+0461DAAD V0203401N008212200019N0112651N1+02201+00801999999ADDGA1021+009009999GF102991999999999999999999MA1101901999999MW1001REMMET045DAAD 041100Z 34016KT 9999 FEW030 22/08 Q1019;EQDQ01+000000PRSWM2
0139605150999992000100412004+35320+004190FM-15+0461DAAD V0203601N007212200019N0112651N1+02301+00801999999ADDGA1021+009009999GF104991999999999999999999MA1101901999999MW1001REMMET045DAAD 041200Z 36014KT 9999 SCT030 23/08 Q1019;EQDQ01+000000PRSWM2
0139605150999992000100413004+35320+004190FM-15+0461DAAD V0203601N008212200019N0112651N1+02401+00901999999ADDGA1021+009009999GF104991999999999999999999MA1101801999999MW1001REMMET045DAAD 041300Z 36016KT 9999 SCT030 24/09 Q1018;EQDQ01+000000PRSWM2
0139605150999992000100414004+35320+004190FM-15+0461DAAD V0203601N007212200019N0112651N1+02401+00801999999ADDGA1021+009009999GF104991999999999999999999MA1101691999999MW1001REMMET045DAAD 041400Z 36014KT 9999 SCT030 24/08 Q1017;EQDQ01+000000PRSWM2
0251605150999992000100415004+35320+004190SY-MT+0461DAAD V0203601N007212200019N0100001N1+02411+00711101721ADDGA1021+009009999GF104991999021008001001001MA1101691999999MD1710201+9999MW1001REMSYN076AAXX  04154 60515 42560 43614 10241 20071 40172 57020 82200 333 84830 95900;MET045DAAD 041500Z 36014KT 9999 SCT030 24/07 Q1017;EQDQ01+000022SCOTLCQ02+000000PRSWM2
0139605150999992000100416004+35320+004190FM-15+0461DAAD V0203601N002112200019N0112651N1+02401+00701999999ADDGA1021+009009999GF104991999999999999999999MA1101691999999MW1001REMMET045DAAD 041600Z 36004KT 9999 SCT030 24/07 Q1017;EQDQ01+000000PRSWM2
0139605150999992000100417004+35320+004190FM-15+0461DAAD V0203601N007212200019N0112651N1+02401+00801999999ADDGA1021+009009999GF104991999999999999999999MA1101691999999MW1001REMMET045DAAD 041700Z 36014KT 9999 SCT030 24/08 Q1017;EQDQ01+000000PRSWM2
0281605150999992000100418004+35320+004190SY-MT+0461DAAD V0203601N006212200019N0100001N1+02251+00881101801ADDAA199000091GA1021+009009999GF104991041021008001001001KA1120M+02461MA1101801999999MD1310061+9999MW1001REMSYN082AAXX  04184 60515 32560 43612 10225 20088 40180 53006 84200 333 10246 84830 95900;MET045DAAD 041800Z 36012KT 9999 SCT030 23/09 Q1018;EQDQ01+000000PRSWM2Q02  00002PRCP99
0211605150999992000100506004+35320+004190FM-12+0461DAAD V0209999C000012200019N0100001N1+01281+00831102001ADDAA199000091GA1001+999999999GF100991001001999999001001IA2240+01009KA1120N+01201MD1610021+9999MW1001REMSYN082AAXX  05064 60515 31960 00000 10128 20083 40200 56002 700// 333 01000 20120 95990;EQDQ01  00002PRCP99
0091605150999992000100507004+35320+004190FM-15+0461DAAD V0209999C00001220001CN0099001N1+01601+00901999999ADDMA1102001999999MW1001REMMET039DAAD 050700Z 00000KT CAVOK 16/09 Q1020;EQDQ01+000000PRSWM2
0139605150999992000100508004+35320+004190FM-15+0461DAAD V0203401N003112200019N0112651N1+01801+00801999999ADDGA1021+012009999GF102991999999999999999999MA1102001999999MW1001REMMET045DAAD 050800Z 34006KT 9999 FEW040 18/08 Q1020;EQDQ01+000000PRSWM2
0251605150999992000100509004+35320+004190SY-MT+0461DAAD V0203601N003112200019N0100001N1+02001+00751102001ADDGA1021+012009999GF199999011021012501001001MA1102001999999MD1110041+9999MW1001REMSYN076AAXX  05094 60515 42660 13606 10200 20075 40200 51004 81200 333 81840 95900;MET045DAAD 050900Z 36006KT 9999 FEW040 20/08 Q1020;EQDQ01+000012SCOTCVQ02+000000PRSWM2
0139605150999992000100511004+35320+004190FM-15+0461DAAD V0203601N003112200019N0112651N1+02201+00901999999ADDGA1021+012009999GF102991999999999999999999MA1102001999999MW1001REMMET045DAAD 051100Z 36006KT 9999 FEW040 22/09 Q1020;EQDQ01+000000PRSWM2
0268605150999992000100512004+35320+004190SY-MT+0461DAAD V0203301N003112200019N0150001N1+02281+00961101991ADDAA199000091GA1021+009909999GF102991011021012501001021MA1101901999999MD1810011+9999MW1001REMSYN082AAXX  05124 60515 32665 23306 10228 20096 40199 58001 81202 333 0//00 81833 95900;MET045DAAD 051200Z 33006KT 9999 FEW033 23/10 Q1019;EQDQ01+000000PRSWM2Q02  00002PRCP99
0139605150999992000100513004+35320+004190FM-15+0461DAAD V0203601N006212200019N0112651N1+02401+01001999999ADDGA1021+009909999GF102991999999999999999999MA1101901999999MW1001REMMET045DAAD 051300Z 36012KT 9999 FEW033 24/10 Q1019;EQDQ01+000000PRSWM2
0139605150999992000100514004+35320+004190FM-15+0461DAAD V0209999C000012200019N0112651N1+02501+00901999999ADDGA1021+009009999GF102991999999999999999999MA1101801999999MW1001REMMET045DAAD 051400Z 00000KT 9999 FEW030 25/09 Q1018;EQDQ01+000000PRSWM2
0235605150999992000100515004+35320+004190SY-MT+0461DAAD V0203401N005112200019N0150001N1+02501+00881101811ADDGA1021+009009999GF102991011021008001001021MA1101801999999MD1710171+9999MW1001REMSYN076AAXX  05154 60515 42565 23410 10250 20088 40181 57017 81202 333 81830 95900;MET045DAAD 051500Z 34010KT 9999 FEW030 25/09 Q1018;EQDQ01+000000PRSWM2
0139605150999992000100516004+35320+004190FM-15+0461DAAD V0203401N003112200019N0112651N1+02501+00801999999ADDGA1021+009009999GF102991999999999999999999MA1101801999999MW1001REMMET045DAAD 051600Z 34006KT 9999 FEW030 25/08 Q1018;EQDQ01+000000PRSWM2
0139605150999992000100517004+35320+004190FM-15+0461DAAD V0203401N003112200019N0112651N1+02701+00801999999ADDGA1021+009009999GF102991999999999999999999MA1101801999999MW1001REMMET045DAAD 051700Z 34006KT 9999 FEW030 27/08 Q1018;EQDQ01+000000PRSWM2
0193605150999992000100518004+35320+004190FM-12+0461DAAD V0203401N004112200019N0150001N1+02351+00891101901ADDAA199000091GA1011+009009089GF102991011021008001001021KA1120M+02561MD1310071+9999REMSYN082AAXX  05184 60515 32565 23408 10235 20089 40190 53007 81202 333 10256 81830 95990;EQDQ01  00002PRCP99
0299605150999992000100606004+35320+004190SY-MT+0461DAAD V0209999C000012200019N0100001N1+01311+01021102071ADDAA199000091GA1031+060009019GF103991001001999999001021IA2240+01009KA1120N+01251MA1102001999999MD1610011+9999MW1001REMSYN094AAXX  06064 60515 31960 30000 10131 20102 40207 56001 700// 80002 333 01000 20125 83070 95900;MET039DAAD 060600Z 00000KT CAVOK 13/10 Q1020;EQDQ01+000000PRSWM2Q02  00002PRCP99
0091605150999992000100608004+35320+004190FM-15+0461DAAD V0209999C00001220001CN0099001N1+01701+01201999999ADDMA1102101999999MW1001REMMET039DAAD 060800Z 00000KT CAVOK 17/12 Q1021;EQDQ01+000000PRSWM2
0213605150999992000100609004+35320+004190SY-MT+0461DAAD V0209999C00001220001CN0100001N1+01911+01191102121ADDGF102991001001999999001021MA1102101999999MD1310091+9999MW1001REMSYN076AAXX  06094 60515 42960 20000 10191 20119 40212 53009 80002 333 82073 95900;MET039DAAD 060900Z 00000KT CAVOK 19/12 Q1021;EQDQ01+000000PRSWM2
0091605150999992000100610004+35320+004190FM-15+0461DAAD V0209999C00001220001CN0099001N1+02001+01201999999ADDMA1102101999999MW1001REMMET039DAAD 061000Z 00000KT CAVOK 20/12 Q1021;EQDQ01+000000PRSWM2
0091605150999992000100611004+35320+004190FM-15+0461DAAD V0209999C00001220001CN0099001N1+02001+01201999999ADDMA1101901999999MW1001REMMET039DAAD 061100Z 00000KT CAVOK 20/12 Q1019;EQDQ01+000000PRSWM2
0262605150999992000100612004+35320+004190SY-MT+0461DAAD V0209999C000012200019N0100001N1+02291+01241102071ADDAA199000091GA1021+060009019GF102991001001999999001021MA1102001999999MD1710081+9999MW1001REMSYN082AAXX  06124 60515 32960 20000 10229 20124 40207 57008 80002 333 0//00 82070 95900;MET039DAAD 061200Z 00000KT CAVOK 23/12 Q1020;EQDQ01+000000PRSWM2Q02  00002PRCP99
0091605150999992000100613004+35320+004190FM-15+0461DAAD V0209999C00001220001CN0099001N1+02401+01201999999ADDMA1102101999999MW1001REMMET039DAAD 061300Z 00000KT CAVOK 24/12 Q1021;EQDQ01+000000PRSWM2
0139605150999992000100614004+35320+004190FM-15+0461DAAD V0209999C000012200019N0112651N1+02601+01001999999ADDGA1021+009909999GF102991999999999999999999MA1101801999999MW1001REMMET045DAAD 061400Z 00000KT 9999 FEW033 26/10 Q1018;EQDQ01+000000PRSWM2
0235605150999992000100615004+35320+004190SY-MT+0461DAAD V0209999C000012200019N0100001N1+02701+01061101861ADDGA1021+009909999GF102991011021012501001021MA1101801999999MD1710221+9999MW1001REMSYN076AAXX  06154 60515 42660 2//// 10270 20106 40186 57022 81202 333 81833 95900;MET045DAAD 061500Z 00000KT 9999 FEW033 27/11 Q1018;EQDQ01+000000PRSWM2
0139605150999992000100616004+35320+004190FM-15+0461DAAD V0209999C000012200019N0112651N1+02701+01001999999ADDGA1021+009909999GF102991999999999999999999MA1101801999999MW1001REMMET045DAAD 061600Z 00000KT 9999 FEW033 27/10 Q1018;EQDQ01+000000PRSWM2
0139605150999992000100617004+35320+004190FM-15+0461DAAD V0209999C000012200019N0112651N1+02601+01001999999ADDGA1021+009909999GF102991999999999999999999MA1101801999999MW1001REMMET045DAAD 061700Z 00000KT 9999 FEW033 26/10 Q1018;EQDQ01+000000PRSWM2
0297605150999992000100618004+35320+004190SY-MT+0461DAAD V0209999C000012200019N0100001N1+02391+01101101861ADDAA199000091GA1021+009909999GF199999011021012501001001KA1120M+02711MA1101801999999MD1510031+9999MW1001REMSYN082AAXX  06184 60515 32660 10000 10239 20110 40186 55003 81200 333 10271 81833 95900;MET045DAAD 061800Z 00000KT 9999 FEW033 24/11 Q1018;EQDQ01+000012SCOTCVQ02+000000PRSWM2Q03  00002PRCP99
0284605150999992000100706004+35320+004190SY-MT+0461DAAD V0209999C000012200019N0100001N1+01401+00951102051ADDAA199000091GA1041+069009019GF104991001001999999001021IA2240+01209KA1120N+01301MD1310061+9999MW1001REMSYN094AAXX  07064 60515 31960 40000 10140 20095 40205 53006 700// 80002 333 01200 20130 84073 95900;MET039DAAD 070600Z 00000KT CAVOK 14/10 A1020;EQDQ01+000000PRSWM2Q02  00002PRCP99
0091605150999992000100707004+35320+004190FM-15+0461DAAD V0209999C00001220001CN0099001N1+01501+01001999999ADDMA1102001999999MW1001REMMET039DAAD 070700Z 00000KT CAVOK 15/10 Q1020;EQDQ01+000000PRSWM2
0091605150999992000100708004+35320+004190FM-15+0461DAAD V0209999C00001220001CN0099001N1+01901+01201999999ADDMA1102101999999MW1001REMMET039DAAD 070800Z 00000KT CAVOK 19/12 Q1021;EQDQ01+000000PRSWM2
0091605150999992000100709004+35320+004190FM-15+0461DAAD V0209999C00001220001CN0099001N1+02101+01201999999ADDMA1102101999999MW1001REMMET039DAAD 070900Z 00000KT CAVOK 21/12 Q1021;EQDQ01+000000PRSWM2
0091605150999992000100710004+35320+004190FM-15+0461DAAD V0203601N00211220001CN0099001N1+02101+01201999999ADDMA1102101999999MW1001REMMET039DAAD 071000Z 36004KT CAVOK 21/12 Q1021;EQDQ01+000000PRSWM2
0091605150999992000100711004+35320+004190FM-15+0461DAAD V0203601N00411220001CN0099001N1+02301+01101999999ADDMA1102101999999MW1001REMMET039DAAD 071100Z 36008KT CAVOK 23/11 Q1021;EQDQ01+000000PRSWM2
0297605150999992000100712004+35320+004190SY-MT+0461DAAD V0203601N002110600019N0100001N1+02351+01111102101ADDAA199000091GA1021+009909999GA2071+060009999GF107991011021012501001021MA1102101999999MD1810031+9999MW1001REMSYN088AAXX  07124 60515 32660 73604 10235 20111 40210 58003 81202 333 0//00 81833 86070 95900;MET052DAAD 071200Z 36004KT 9999 FEW033 BKN200 24/11 Q1021;EQDQ01+000000PRSWM2Q02  00002PRCP99
0162605150999992000100713004+35320+004190FM-15+0461DAAD V0203601N005110600019N0112651N1+02401+01001999999ADDGA1021+009909999GA2071+060009999GF107991999999999999999999MA1102001999999MW1001REMMET052DAAD 071300Z 36010KT 9999 FEW033 BKN200 24/10 Q1020;EQDQ01+000000PRSWM2
0162605150999992000100714004+35320+004190FM-15+0461DAAD V0203601N005112200019N0112651N1+02401+00801999999ADDGA1021+009909999GA2021+024009999GF104991999999999999999999MA1102001999999MW1001REMMET052DAAD 071400Z 36010KT 9999 FEW033 SCT080 24/08 Q1020;EQDQ01+000000PRSWM2
0291605150999992000100715004+35320+004190SY-MT+0461DAAD V0203401N00211036001CN0100001N1+02461+01021101981ADDAA199000091GA1021+009909999GA2021+024009999GF105991021021012501071001MA1101901999999MD1710121+9999MW1001REMSYN082AAXX  07154 60515 32660 53404 10246 20102 40198 57012 82270 333 82833 83358 95900;MET052DAAD 071500Z 34004KT 9999 FEW033 SCT080 25/10 Q1019;EQDQ01+000000PRSWM2Q02  00002PRCP99
0162605150999992000100716004+35320+004190FM-15+0461DAAD V0203601N003112200019N0112651N1+02501+01001999999ADDGA1021+009909999GA2021+024009999GF104991999999999999999999MA1101901999999MW1001REMMET052DAAD 071600Z 36006KT 9999 FEW033 SCT080 25/10 Q1019;EQDQ01+000000PRSWM2
0139605150999992000100717004+35320+004190FM-15+0461DAAD V0209999C000012200019N0112651N1+02501+00901999999ADDGA1021+009009999GF102991999999999999999999MA1101901999999MW1001REMMET045DAAD 071700Z 00000KT 9999 FEW030 25/09 Q1019;EQDQ01+000000PRSWM2
0139605150999992000100718004+35320+004190FM-15+0461DAAD V0209999C000012200019N0112651N1+02301+00801999999ADDGA1021+009909999GF102991999999999999999999MA1101901999999MW1001REMMET045DAAD 071800Z 00000KT 9999 FEW033 23/08 Q1019;EQDQ01+000000PRSWM2
0299605150999992000100806004+35320+004190SY-MT+0461DAAD V0202001N001012200019N0100001N1+01221+00811102211ADDAA199000091GA1021+069009019GF102991001001999999001021IA2240+01009KA1120N+01161MA1102201999999MD1310031+9999MW1001REMSYN094AAXX  08064 60515 31960 22002 10122 20081 40221 53003 700// 80002 333 01000 20116 82073 95900;MET039DAAD 080600Z 20002KT CAVOK 12/08 Q1022;EQDQ01+000000PRSWM2Q02  00002PRCP99
0091605150999992000100807004+35320+004190FM-15+0461DAAD V0209999C00001220001CN0099001N1+01401+01001999999ADDMA1102201999999MW1001REMMET039DAAD 080700Z 00000KT CAVOK 14/10 Q1022;EQDQ01+000000PRSWM2
0091605150999992000100808004+35320+004190FM-15+0461DAAD V0209999C00001220001CN0099001N1+01701+01001999999ADDMA1102201999999MW1001REMMET039DAAD 080800Z 00000KT CAVOK 17/10 Q1022;EQDQ01+000000PRSWM2
0229605150999992000100809004+35320+004190SY-MT+0461DAAD V0209999C000012200019N0100001N1+01851+00931102281ADDGA1021+069009019GF102991001001999999001021MA1102201999999MD1210091+9999MW1001REMSYN076AAXX  08094 60515 42960 20000 10185 20093 40228 52009 80002 333 82073 95900;MET039DAAD 080900Z 00000KT CAVOK 19/09 Q1022;EQDQ01+000000PRSWM2
0091605150999992000100810004+35320+004190FM-15+0461DAAD V0209999C00001220001CN0099001N1+02001+01001999999ADDMA1102201999999MW1001REMMET039DAAD 081000Z 00000KT CAVOK 20/10 Q1022;EQDQ01+000000PRSWM2
0091605150999992000100811004+35320+004190FM-15+0461DAAD V0209999C00001220001CN0099001N1+02301+01101999999ADDMA1102201999999MW1001REMMET039DAAD 081100Z 00000KT CAVOK 23/11 Q1022;EQDQ01+000000PRSWM2
0262605150999992000100812004+35320+004190SY-MT+0461DAAD V0209999C000012200019N0100001N1+02361+00921102111ADDAA199000091GA1011+069009019GF101991001001999999001021MA1102101999999MD1810141+9999MW1001REMSYN082AAXX  08124 60515 32960 10000 10236 20092 40211 58014 80002 333 0//00 81073 95900;MET039DAAD 081200Z 00000KT CAVOK 24/09 Q1021;EQDQ01+000000PRSWM2Q02  00002PRCP99
0091605150999992000100813004+35320+004190FM-15+0461DAAD V0200401N00211220001CN0099001N1+02501+00901999999ADDMA1102001999999MW1001REMMET039DAAD 081300Z 04004KT CAVOK 25/09 Q1020;EQDQ01+000000PRSWM2
0091605150999992000100814004+35320+004190FM-15+0461DAAD V0202801N00211220001CN0099001N1+02601+00801999999ADDMA1101901999999MW1001REMMET039DAAD 081400Z 28004KT CAVOK 26/08 Q1019;EQDQ01+000000PRSWM2
0144605150999992000100815004+35320+004190FM-12+0461DAAD V0203001N002112200019N0100001N1+02611+00511101911ADDGA1011+069009009GF101991001001999999001021MD1710131+9999REMSYN076AAXX  08154 60515 42960 13004 10261 20051 40191 57013 80002 333 81073 95900;
0091605150999992000100816004+35320+004190FM-15+0461DAAD V0203201N00721220001CN0099001N1+02601+00501999999ADDMA1101801999999MW1001REMMET039DAAD 081600Z 32014KT CAVOK 26/05 Q1018;EQDQ01+000000PRSWM2
0090605150999992000100817004+35320+004190FM-15+0461DAAD V0203601N00511220001CN0099001N1+02501+00301999999ADDMA1101901999999MW1001REMMET038DAAD 081700Z 36010KT CAVOK 25/3 Q1019;EQDQ01+000000PRSWM2
0247605150999992000100818004+35320+004190SY-MT+0461DAAD V0209999C000012200019N0100001N1+02301+00701102001ADDAA199000091GF100991001001999999001001KA1120M+02631MA1102001999999MD1310041+9999MW1001REMSYN070AAXX  08184 60515 32960 00000 10230 20070 40200 53004 333 10263 95900;MET039DAAD 081800Z 00000KT CAVOK 23/07 Q1020;EQDQ01+000000PRSWM2Q02  00002PRCP99
0321605150999992000100906004+35320+004190SY-MT+0461DAAD V0209999C000012200019N0100001N1+01101+00481102031ADDAA199000091GA1021+009909999GF199999011021012501001001IA2240+00909KA1120N+01041MA1102001999999MD1610051+9999MW1001REMSYN094AAXX  09064 60515 31660 10000 10110 20048 40203 56005 700// 81200 333 00900 20104 81833 95900;MET045DAAD 090600Z 00000KT 9999 FEW033 11/05 Q1020;EQDQ01+000012SCOTCVQ02+000000PRSWM2Q03  00002PRCP99
0139605150999992000100907004+35320+004190FM-15+0461DAAD V0209999C000012200019N0112651N1+01301+00501999999ADDGA1021+009909999GF102991999999999999999999MA1102001999999MW1001REMMET045DAAD 090700Z 00000KT 9999 FEW033 13/05 Q1020;EQDQ01+000000PRSWM2
0091605150999992000100908004+35320+004190FM-15+0461DAAD V0209999C00001220001CN0099001N1+01601+00601999999ADDMA1102001999999MW1001REMMET039DAAD 090800Z 00000KT CAVOK 16/06 Q1020;EQDQ01+000000PRSWM2
0229605150999992000100909004+35320+004190SY-MT+0461DAAD V0209999C000012200019N0150001N1+02001+00531102071ADDGA1021+060009019GF102991001001999999001021MA1102001999999MD1310021+9999MW1001REMSYN076AAXX  09094 60515 42965 20000 10200 20053 40207 53002 80002 333 82070 95900;MET039DAAD 090900Z 00000KT CAVOK 20/05 Q1020;EQDQ01+000000PRSWM2
0091605150999992000100910004+35320+004190FM-15+0461DAAD V0209999C00001220001CN0099001N1+02201+00601999999ADDMA1102001999999MW1001REMMET039DAAD 091000Z 00000KT CAVOK 22/06 Q1020;EQDQ01+000000PRSWM2
0091605150999992000100911004+35320+004190FM-15+0461DAAD V0209999C00001220001CN0099001N1+02301+00701999999ADDMA1102201999999MW1001REMMET039DAAD 091100Z 00000KT CAVOK 23/07 Q1022;EQDQ01+000000PRSWM2
0262605150999992000100912004+35320+004190SY-MT+0461DAAD V0209999C000012200019N0150001N1+02461+00651101911ADDAA199000091GA1021+060009019GF102991001001999999001021MA1101901999999MD1810171+9999MW1001REMSYN082AAXX  09124 60515 32965 20000 10246 20065 40191 58017 80002 333 0//00 82070 95900;MET039DAAD 091200Z 00000KT CAVOK 25/07 Q1019;EQDQ01+000000PRSWM2Q02  00002PRCP99
0091605150999992000100914004+35320+004190FM-15+0461DAAD V0200301N00311220001CN0099001N1+02601+00401999999ADDMA1101691999999MW1001REMMET039DAAD 091400Z 03006KT CAVOK 26/04 Q1017;EQDQ01+000000PRSWM2
0213605150999992000100915004+35320+004190SY-MT+0461DAAD V0209999C00001220001CN0150001N1+02621+00551101721ADDGF102991001001999999001021MA1101691999999MD1710201+9999MW1001REMSYN076AAXX  09154 60515 42965 20000 10262 20055 40172 57020 80002 333 82070 95900;MET039DAAD 091500Z 00000KT CAVOK 26/07 Q1017;EQDQ01+000000PRSWM2
0091605150999992000100916004+35320+004190FM-15+0461DAAD V0209999C00001220001CN0099001N1+02601+00701999999ADDMA1101691999999MW1001REMMET039DAAD 091600Z 00000KT CAVOK 26/07 Q1017;EQDQ01+000000PRSWM2
0091605150999992000100917004+35320+004190FM-15+0461DAAD V0209999C00001220001CN0099001N1+02301+00501999999ADDMA1101801999999MW1001REMMET039DAAD 091700Z 00000KT CAVOK 23/05 Q1018;EQDQ01+000000PRSWM2
0193605150999992000100918004+35320+004190FM-12+0461DAAD V0209999C000012200019N0150001N1+02341+00741101861ADDAA199000091GA1021+060009009GF102991001001999999001021KA1120M+02661MD1310071+9999REMSYN082AAXX  09184 60515 32965 20000 10234 20074 40186 53007 80002 333 10266 82070 95990;EQDQ01  00002PRCP99
0299605150999992000101006004+35320+004190SY-MT+0461DAAD V0209999C000010690019N0100001N1+01301+00601101411ADDAA199000091GA1051+069009019GF105991001001999999001021IA2240+01009KA1120N+01251MA1101391999999MD1610051+9999MW1001REMSYN094AAXX  10064 60515 31960 50000 10130 20060 40141 56005 700// 80002 333 01000 20125 85073 95900;MET039DAAD 100600Z 00000KT CAVOK 13/06 Q1014;EQDQ01+000000PRSWM2Q02  00002PRCP99
0091605150999992000101007004+35320+004190FM-15+0461DAAD V0209999C00001220001CN0099001N1+01501+00701999999ADDMA1101291999999MW1001REMMET039DAAD 100700Z 00000KT CAVOK 15/07 Q1013;EQDQ01+000000PRSWM2
0091605150999992000101008004+35320+004190FM-15+0461DAAD V0209999C00001220001CN0099001N1+01801+00701999999ADDMA1101391999999MW1001REMMET039DAAD 100800Z 00000KT CAVOK 18/07 Q1014;EQDQ01+000000PRSWM2
0229605150999992000101009004+35320+004190SY-MT+0461DAAD V0209999C000012200019N0100001N1+02051+00451101411ADDGA1041+060009019GF104991001001999999001021MA1101391999999MD1110031+9999MW1001REMSYN076AAXX  10094 60515 42960 40000 10205 20045 40141 51003 80002 333 84070 95900;MET039DAAD 100900Z 00000KT CAVOK 21/05 Q1014;EQDQ01+000000PRSWM2
0091605150999992000101010004+35320+004190FM-15+0461DAAD V0209999C00001220001CN0099001N1+02101+00401999999ADDMA1101291999999MW1001REMMET039DAAD 101000Z 00000KT CAVOK 21/04 Q1013;EQDQ01+000000PRSWM2
0091605150999992000101011004+35320+004190FM-15+0461DAAD V0209999C00001220001CN0099001N1+02201+00401999999ADDMA1101291999999MW1001REMMET039DAAD 101100Z 00000KT CAVOK 22/04 Q1013;EQDQ01+000000PRSWM2
0262605150999992000101012004+35320+004190SY-MT+0461DAAD V0202601N006212200019N0100001N1+02621+00551101211ADDAA199000091GA1041+069009019GF104991001001999999001021MA1101191999999MD1810151+9999MW1001REMSYN082AAXX  10124 60515 32960 42612 10262 20055 40121 58015 80002 333 0//00 84073 95900;MET039DAAD 101200Z 26012KT CAVOK 26/06 Q1012;EQDQ01+000000PRSWM2Q02  00002PRCP99
0139605150999992000101013004+35320+004190FM-15+0461DAAD V0202601N008212200019N0080001N1+02801+00601999999ADDGA1021+060009999GF104991999999999999999999MA1101081999999MW1001REMMET045DAAD 101300Z 26016KT 8000 SCT200 28/06 Q1011;EQDQ01+000000PRSWM2
0160605150999992000101014004+35320+004190FM-15+0461DAAD V0202801N010312200019N0060001N1+02801+00201999999ADDGA1021+060009999GF104991999999999999999999MA1101021999999MW1071REMMET050DAAD 101400Z 28020KT 6000 DRSA SCT200 28/02 Q1010;EQDQ01+000003PRSWM1Q02    003PRSWM1
0257605150999992000101015004+35320+004190SY-MT+0461DAAD V0209999C000012200019N0020001N1+02761-00011101011ADDAY101031AY221031GA1021+060009999GF104991001001999999001021MA1101021999999MD1710191+9999MW1071REMSYN076AAXX  10154 60515 41920 40000 10276 21001 40101 57019 70702 80002 333 84073;MET051DAAD 101500Z 28022KT 2000 DRSA SCT200 28/M00 Q1010;EQDQ01    003PRSWM1
0160605150999992000101016004+35320+004190FM-15+0461DAAD V0202801N009312200019N0025001N1+02601+00201999999ADDGA1021+009909999GF104991999999999999999999MA1101021999999MW1071REMMET050DAAD 101600Z 28018KT 2500 DRSA SCT033 26/02 Q1010;EQDQ01+000003PRSWM1Q02    003PRSWM1
0139605150999992000101017004+35320+004190FM-15+0461DAAD V0202801N008210090019N0080001N1+02501+00101999999ADDGA1071+009009999GF107991999999999999999999MA1101021999999MW1001REMMET045DAAD 101700Z 28016KT 8000 BKN030 25/01 Q1010;EQDQ01+000000PRSWM2
0281605150999992000101018004+35320+004190SY-MT+0461DAAD V0202801N006210090019N0080001N1+02461+00171101141ADDAA199000091GA1071+009009999GF107991071021008001999999KA1120M+02891MA1101081999999MD1310091+9999MW1001REMSYN082AAXX  10184 60515 32558 72812 10246 20017 40114 53009 872// 333 10289 87830 95900;MET045DAAD 101800Z 28012KT 8000 BKN030 25/02 Q1011;EQDQ01+000000PRSWM2Q02  00002PRCP99
0211605150999992000101106004+35320+004190FM-12+0461DAAD V0202801N009312200019N0100001N1+01841+00821101231ADDAA199000091GA1021+024009039GF102991021001999999071001IA2240+01009KA1120N+01751MD1610021+9999REMSYN088AAXX  11064 60515 31960 22818 10184 20082 40123 56002 82070 333 01000 20175 82358 95990;EQDQ01  00002PRCP99
0091605150999992000101108004+35320+004190FM-15+0461DAAD V0209999C00001220001CN0099001N1+02001+00901999999ADDMA1101191999999MW1001REMMET039DAAD 110800Z 00000KT CAVOK 20/09 Q1012;EQDQ01+000000PRSWM2
0245605150999992000101109004+35320+004190SY-MT+0461DAAD V0203301N007212200019N0100001N1+02181+00811101281ADDGA1021+024009079GF102991021999999999071001MA1101191999999MD1310041+9999MW1001REMSYN076AAXX  11094 60515 42960 23314 10218 20081 40128 53004 82070 333 82358 95900;MET039DAAD 110900Z 33014KT CAVOK 22/08 Q1012;EQDQ01+000000PRSWM2Q02    003SCOLCG
0091605150999992000101110004+35320+004190FM-15+0461DAAD V0203001N00821220001CN0099001N1+02301+00901999999ADDMA1101191999999MW1001REMMET039DAAD 111000Z 30016KT CAVOK 23/09 Q1012;EQDQ01+000000PRSWM2
0091605150999992000101111004+35320+004190FM-15+0461DAAD V0203301N00721220001CN0099001N1+02501+00901999999ADDMA1101191999999MW1001REMMET039DAAD 111100Z 33014KT CAVOK 25/09 Q1012;EQDQ01+000000PRSWM2
0278605150999992000101112004+35320+004190SY-MT+0461DAAD V0203301N009312200019N0100001N1+02631+00701101071ADDAA199000091GA1011+024009079GF101991011999999999071001MA1101021999999MD1810181+9999MW1001REMSYN082AAXX  11124 60515 32960 13318 10263 20070 40107 58018 81070 333 0//00 81358 95900;MET039DAAD 111200Z 33018KT CAVOK 26/07 Q1010;EQDQ01+000000PRSWM2Q02  00002PRCP99Q03    003SCOLCG
0091605150999992000101113004+35320+004190FM-15+0461DAAD V0203301N00411220001CN0099001N1+02801+00701999999ADDMA1100911999999MW1001REMMET039DAAD 111300Z 33008KT CAVOK 28/07 Q1009;EQDQ01+000000PRSWM2
0091605150999992000101114004+35320+004190FM-15+0461DAAD V0203201N00931220001CN0099001N1+02801+00701999999ADDMA1100911999999MW1001REMMET039DAAD 111400Z 32018KT CAVOK 28/07 Q1009;EQDQ01+000000PRSWM2
0213605150999992000101115004+35320+004190SY-MT+0461DAAD V0203301N01031220001CN0100001N1+02861+00481100831ADDGF101991011001999999071001MA1100811999999MD1710211+9999MW1001REMSYN076AAXX  11154 60515 42960 13320 10286 20048 40083 57021 81070 333 81358 95900;MET039DAAD 111500Z 33020KT CAVOK 29/05 Q1008;EQDQ01+000000PRSWM2
0139605150999992000101116004+35320+004190FM-15+0461DAAD V0203401N007212200019N0080001N1+02601+00601999999ADDGA1021+024009999GF102991999999999999999999MA1100811999999MW1001REMMET045DAAD 111600Z 34014KT 8000 FEW080 26/06 Q1008;EQDQ01+000000PRSWM2
0091605150999992000101117004+35320+004190FM-15+0461DAAD V0203301N00821220001CN0099001N1+02501+00501999999ADDMA1100811999999MW1001REMMET039DAAD 111700Z 33016KT CAVOK 25/05 Q1008;EQDQ01+000000PRSWM2
0091605150999992000101118004+35320+004190FM-15+0461DAAD V0203301N00621220001CN0099001N1+02301+00401999999ADDMA1100911999999MW1001REMMET039DAAD 111800Z 33012KT CAVOK 23/04 Q1009;EQDQ01+000000PRSWM2
0259605150999992000101206004+35320+004190SY-MT+0461DAAD V0201801N004112200019N0080001N1+01401+00701999999ADDAA199000091GF100991001001999999001001IA2240+01209KA1120N+01331MA1100911999999MW1001REMSYN081AAXX  12064 60515 31958 01808 1010 20071 40093 53009 700// 333 01200 20133 95900;MET042DAAD 120600Z 18008KT 8000 SKC 14/07 Q1009;EQDQ01+000000PRSWM2Q02  00002PRCP99
0139605150999992000101208004+35320+004190FM-15+0461DAAD V0201201N004112200019N0080001N1+01801+00801999999ADDGA1021+060009999GF102991999999999999999999MA1100911999999MW1001REMMET045DAAD 120800Z 12008KT 8000 FEW200 18/08 Q1009;EQDQ01+000000PRSWM2
0201605150999992000101209004+35320+004190SY-MT+0461DAAD V0201801N002112200019N0100001N1+01941+00861100941ADDGF100991001001999999001001MA1100911999999MD1110031+9999MW1001REMSYN064AAXX  12094 60515 42960 01804 10194 20086 40094 51003 333 95900;MET039DAAD 120900Z 18004KT CAVOK 19/09 Q1009;EQDQ01+000000PRSWM2
0091605150999992000101210004+35320+004190FM-15+0461DAAD V0209999C00001220001CN0099001N1+02101+01001999999ADDMA1100911999999MW1001REMMET039DAAD 121000Z 00000KT CAVOK 21/10 Q1009;EQDQ01+000000PRSWM2
0234605150999992000101212004+35320+004190SY-MT+0461DAAD V0203401N002112200019N0100001N1+02421+00971100591ADDAA199000091GF100991001001999999001001MA1100511999999MD1810301+9999MW1001REMSYN070AAXX  12124 60515 32960 03404 10242 20097 40059 58030 333 0//00 95900;MET039DAAD 121200Z 34004KT CAVOK 24/10 Q1005;EQDQ01+000000PRSWM2Q02  00002PRCP99
0091605150999992000101213004+35320+004190FM-15+0461DAAD V0209999C00001220001CN0099001N1+02701+01001999999ADDMA1100411999999MW1001REMMET039DAAD 121300Z 00000KT CAVOK 27/10 Q1004;EQDQ01+000000PRSWM2
0091605150999992000101214004+35320+004190FM-15+0461DAAD V0201601N00511220001CN0099001N1+03001+00801999999ADDMA1100311999999MW1001REMMET039DAAD 121400Z 16010KT CAVOK 30/08 Q1003;EQDQ01+000000PRSWM2
0235605150999992000101215004+35320+004190SY-MT+0461DAAD V0201601N007212200019N0080001N1+03151+00311100241ADDGA1021+060009999GF103991001001999999001021MA1100201999999MD1710321+9999MW1001REMSYN076AAXX  12154 60515 42958 31614 10315 20031 40024 57032 80002 333 83073 95900;MET045DAAD 121500Z 16014KT 8000 SCT200 32/03 Q1002;EQDQ01+000000PRSWM2
0160605150999992000101216004+35320+004190FM-15+0461DAAD V0201801N009312200019N0070001N1+03101+00201999999ADDGA1021+060009999GF104991999999999999999999MA1100201999999MW1071REMMET050DAAD 121600Z 18018KT 7000 DRSA SCT200 31/02 Q1002;EQDQ01+000003PRSWM1Q02    003PRSWM1
0140605150999992000101217004+35320+004190FM-15+0461DAAD V0201801N007212200019N0080001N1+02901-00201999999ADDGA1021+060009999GF104991999999999999999999MA1100201999999MW1001REMMET046DAAD 121700Z 18014KT 8000 SCT200 29/M02 Q1002;EQDQ01+000000PRSWM2
0311605150999992000101218004+35320+004190SY-MT+0461DAAD V0201801N00721090001CN0080001N1+02841-00341100271ADDAA199000091GA1021+009909999GA2021+060009999GF106991031021012501001021KA1120M+03161MA1100201999999MD1610041+9999MW1001REMSYN088AAXX  12184 60515 32658 61814 10284 21034 40027 56004 83202 333 10316 83833 84070 95990;MET053DAAD 121800Z 18014KT 8000 SCT033 SCT200 28/M03 Q1002;EQDQ01+000000PRSWM2Q02  00002PRCP99
0305605150999992000101306004+35320+004190SY-MT+0461DAAD V0203001N006210090019N0100001N1+01661+00541100711ADDAA199000091GA1071+009009999GF107991071021008001999999IA2240+01509KA1120N+01591MA1100711999999MD1110021+9999MW1001REMSYN094AAXX  13064 60515 31560 73012 10166 20054 40071 51002 700// 872// 333 01500 20159 87830 95900;MET045DAAD 130600Z 30012KT 9999 BKN030 17/05 Q1007;EQDQ01+000000PRSWM2Q02  00002PRCP99
0139605150999992000101307004+35320+004190FM-15+0461DAAD V0202801N006210090019N0112651N1+01701+00601999999ADDGA1071+009009999GF107991999999999999999999MA1100711999999MW1001REMMET045DAAD 130700Z 28012KT 9999 BKN030 17/06 Q1007;EQDQ01+000000PRSWM2
0235605150999992000101309004+35320+004190SY-MT+0461DAAD V0203201N008210090019N0100001N1+01801+00491100841ADDGA1071+009009999GF107991071021008001999999MA1100811999999MD1210111+9999MW1001REMSYN076AAXX  13094 60515 42560 73216 10180 20049 40084 52011 872// 333 87830 95900;MET045DAAD 130900Z 32016KT 9999 BKN030 18/05 Q1008;EQDQ01+000000PRSWM2
0139605150999992000101310004+35320+004190FM-15+0461DAAD V0203001N009310090019N0112651N1+01801+00501999999ADDGA1071+009009999GF107991999999999999999999MA1100911999999MW1001REMMET045DAAD 131000Z 30018KT 9999 BKN030 18/05 Q1009;EQDQ01+000000PRSWM2
0268605150999992000101312004+35320+004190SY-MT+0461DAAD V0203001N007210090019N0100001N1+02091+00581100841ADDAA199000091GA1071+009009999GF107991071021008001999999MA1100811999999MD1810081+9999MW1001REMSYN082AAXX  13124 60515 32560 73014 10209 20058 40084 58008 872// 333 0//00 87830 95900;MET045DAAD 131200Z 30014KT 9999 BKN030 21/06 Q1008;EQDQ01+000000PRSWM2Q02  00002PRCP99
0124605150999992000101313004+35320+004190FM-15+0461DAAD V0203001N008210090019N0112651N1+02201+00601999999ADDGA1071+009009999GF107991999999999999999999MW1001REMMET045DAAD 131300Z 30016KT 9999 BKN030 22/06 Q////;EQDQ01+000000PRSWM2
0139605150999992000101314004+35320+004190FM-15+0461DAAD V0203201N009310090019N0112651N1+02401+00701999999ADDGA1071+009009999GF107991999999999999999999MA1100711999999MW1001REMMET045DAAD 131400Z 32018KT 9999 BKN030 24/07 Q1007;EQDQ01+000000PRSWM2
0235605150999992000101315004+35320+004190SY-MT+0461DAAD V0203001N007210078019N0100001N1+02151+00601100891ADDGA1081+007809999GF108991021021008001999999MA1100811999999MD1310081+9999MW1001REMSYN076AAXX  13154 60515 42560 83014 10215 20060 40089 53008 822// 333 88826 95900;MET045DAAD 131500Z 30014KT 9999 OVC026 22/06 Q1008;EQDQ01+000000PRSWM2
0139605150999992000101316004+35320+004190FM-15+0461DAAD V0203001N008210078019N0112651N1+01801+00701999999ADDGA1081+007809999GF108991999999999999999999MA1101021999999MW1001REMMET045DAAD 131600Z 30016KT 9999 OVC026 18/07 Q1010;EQDQ01+000000PRSWM2
0144605150999992000101317004+35320+004190FM-15+0461DAAD V0203001N008210078019N0080001N1+01501+01001999999ADDGA1081+007809999GF108991999999999999999999MA1101081999999MW1001REMMET050DAAD 131700Z 30016KT 8000 OVC026 15/10 Q1011 RERA;EQDQ01+000000PRSWM2
0294605150999992000101318004+35320+004190SY-MT+0461DAAD V0203001N007210078019N0080001N1+01371+00971101271ADDAA112000591AY161061AY221061GA1081+007809999GF108991081081008001999999KA1120M+02351MD1210141+9999MW1021REMSYN094AAXX  13184 60515 12558 83014 10137 20097 40127 52014 69942 70262 888// 333 10235 88826 95990;MET045DAAD 131800Z 30014KT 8000 OVC026 14/10 Q////;EQDQ01+000000PRSWM2Q02    003PRSWM1
0295605150999992000101406004+35320+004190SY-MT+0461DAAD V0203001N006212200019N0100001N1+01211+00581101351ADDAA124000591GA1021+009009999GF103991031021008001001001IA2240+00809KA1120N+01001MA1101291999999MD1610051+9999MW1001REMSYN100AAXX  14064 60515 11560 33012 10121 20058 40135 56005 69944 700// 83200 333 00800 20100 83830 95900;MET045DAAD 140600Z 30012KT 9999 SCT030 12/06 Q1013;EQDQ01+000000PRSWM2
0139605150999992000101407004+35320+004190FM-15+0461DAAD V0203001N008212200019N0112651N1+01301+00601999999ADDGA1021+009009999GF104991999999999999999999MA1101291999999MW1001REMMET045DAAD 140700Z 30016KT 9999 SCT030 13/06 Q1013;EQDQ01+000000PRSWM2
0139605150999992000101408004+35320+004190FM-15+0461DAAD V0203001N007212200019N0112651N1+01401+00601999999ADDGA1021+009909999GF102991999999999999999999MA1101391999999MW1001REMMET045DAAD 140800Z 30014KT 9999 FEW033 14/06 Q1014;EQDQ01+000000PRSWM2
0235605150999992000101409004+35320+004190SY-MT+0461DAAD V0203001N008212200019N0100001N1+01591+00481101411ADDGA1021+009909999GF103991021021012501001021MA1101391999999MD1310081+9999MW1001REMSYN076AAXX  14094 60515 42660 33016 10159 20048 40141 53008 82202 333 82833 95900;MET045DAAD 140900Z 30016KT 9999 FEW033 16/05 Q1014;EQDQ01+000000PRSWM2
0139605150999992000101410004+35320+004190FM-15+0461DAAD V0203001N010310090019N0112651N1+01701+00501999999ADDGA1071+009009999GF107991999999999999999999MA1101391999999MW1001REMMET045DAAD 141000Z 30020KT 9999 BKN030 17/05 Q1014;EQDQ01+000000PRSWM2
0139605150999992000101411004+35320+004190FM-15+0461DAAD V0203001N009312200019N0112651N1+01701+00501999999ADDGA1021+009009999GF102991999999999999999999MA1101391999999MW1001REMMET045DAAD 141100Z 30018KT 9999 FEW030 17/05 Q1014;EQDQ01+000000PRSWM2
0278605150999992000101412004+35320+004190SY-MT+0461DAAD V0203001N008210090019N0100001N1+01811+00481101301ADDAA199000091GA1071+009009999GF199999061021008001001001MA1101591999999MD1810091+9999MW1001REMSYN076AAXX  14124 60515 32560 63016 10181 20048 40130 58009 86200 333 86830 95900;MET045DAAD 141200Z 30016KT 9999 BKN030 18/05 Q1016;EQDQ01+000062SCOTCVQ02+000000PRSWM2Q03  00002PRCP99
0139605150999992000101413004+35320+004190FM-15+0461DAAD V0203001N009310090019N0112651N1+02001+00401999999ADDGA1071+009009999GF107991999999999999999999MA1101192999999MW1001REMMET045DAAD 141300Z 30018KT 9999 BKN030 20/04 Q1012;EQDQ01+000000PRSWM2
0139605150999992000101414004+35320+004190FM-15+0461DAAD V0203001N008210090019N0112651N1+02001+00301999999ADDGA1071+009009999GF107991999999999999999999MA1101191999999MW1001REMMET045DAAD 141400Z 30016KT 9999 BKN030 20/03 Q1012;EQDQ01+000000PRSWM2
0235605150999992000101415004+35320+004190SY-MT+0461DAAD V0203601N009310090019N0100001N1+01891+00511101211ADDGA1071+009009999GF107991071021008001999999MA1101191999999MD1710081+9999MW1001REMSYN076AAXX  14154 60515 42560 73618 10189 20051 40121 57008 872// 333 87830 95900;MET045DAAD 141500Z 36018KT 9999 BKN030 19/05 Q1012;EQDQ01+000000PRSWM2
0139605150999992000101417004+35320+004190FM-15+0461DAAD V0203401N009310090019N0112651N1+01701+00101999999ADDGA1071+009009999GF107991999999999999999999MA1101191999999MW1001REMMET045DAAD 141700Z 34018KT 9999 BKN030 17/01 Q1012;EQDQ01+000000PRSWM2
0297605150999992000101418004+35320+004190SY-MT+0461DAAD V0203401N008210090019N0100001N1+01621+00181101381ADDAA199000091GA1071+009009999GF199999051021008001001021KA1120M+01961MA1101291999999MD1310141+9999MW1001REMSYN082AAXX  14184 60515 32560 63416 10162 20018 40138 53014 85202 333 10196 85830 95990;MET045DAAD 141800Z 34016KT 9999 BKN030 16/02 Q1013;EQDQ01+000062SCOTCVQ02+000000PRSWM2Q03  00002PRCP99
0245605150999992000101506004+35320+004190FM-12+0461DAAD V0200601N008212200019N0100001N1+01201+00471101731ADDAA199000091GA1011+009909089GA2031+024009039GF104991011021012501071001IA2240+00909KA1120N+01061MD1110031+9999MW1001REMSYN100AAXX  15064 60515 31660 40616 10120 20047 40173 51003 700// 81270 333 00900 20106 81833 83358 95900;EQDQ01  00002PRCP99
0162605150999992000101507004+35320+004190FM-15+0461DAAD V0200601N006212200019N0112651N1+01301+00901999999ADDGA1021+009909999GA2021+024009999GF104991999999999999999999MA1101691999999MW1001REMMET052DAAD 150700Z 06012KT 9999 FEW033 SCT080 13/09 Q1017;EQDQ01+000000PRSWM2
0162605150999992000101508004+35320+004190FM-15+0461DAAD V0202401N003112200019N0112651N1+01301+00501999999ADDGA1021+009909999GA2021+024009999GF104991999999999999999999MA1101801999999MW1001REMMET052DAAD 150800Z 24006KT 9999 FEW033 SCT080 13/05 Q1018;EQDQ01+000000PRSWM2
0235605150999992000101509004+35320+004190SY-MT+0461DAAD V0209999C000012200019N0100001N1+01481+00591101811ADDGA1021+009909999GF105991031021012501071001MA1101801999999MD1310081+9999MW1001REMSYN076AAXX  15094 60515 42660 50000 10148 20059 40181 53008 83270 333 83833 95900;MET045DAAD 150900Z 00000KT 9999 SCT033 15/06 Q1018;EQDQ01+000000PRSWM2
0138605150999992000101510004+35320+004190FM-15+0461DAAD V0203301N007212200019N0112651N1+01601+00601999999ADDGA1021+009009999GF104991999999999999999999MA1101801999999MW1001REMMET044DAAD 151000Z 33014KT9999 SCT030 16/06 Q1018;EQDQ01+000000PRSWM2
0162605150999992000101511004+35320+004190FM-15+0461DAAD V0203301N006212200019N0112651N1+01801+00501999999ADDGA1021+007809999GA2021+060009999GF104991999999999999999999MA1101691999999MW1001REMMET052DAAD 151100Z 33012KT 9999 FEW026 SCT200 18/05 Q1017;EQDQ01+000000PRSWM2
0297605150999992000101512004+35320+004190SY-MT+0461DAAD V0203201N00511090001CN0100001N1+01981+00241101661ADDAA199000091GA1021+007809999GA2021+060009999GF105991021021008001001021MA1101591999999MD1810101+9999MW1001REMSYN088AAXX  15124 60515 32560 53210 10198 20024 40166 58010 82202 333 0//00 82826 83070 95900;MET052DAAD 151200Z 32010KT 9999 FEW026 SCT200 20/02 Q1016;EQDQ01+000000PRSWM2Q02  00002PRCP99
0162605150999992000101513004+35320+004190FM-15+0461DAAD V0203001N005112200019N0112651N1+02001+00301999999ADDGA1021+007809999GA2021+060009999GF104991999999999999999999MA1101491999999MW1001REMMET052DAAD 151300Z 30010KT 9999 FEW026 SCT200 20/03 Q1015;EQDQ01+000000PRSWM2
0139605150999992000101514004+35320+004190FM-15+0461DAAD V0203401N008212200019N0112651N1+02001+00301999999ADDGA1021+007809999GF104991999999999999999999MA1101491999999MW1001REMMET045DAAD 151400Z 34016KT 9999 SCT026 20/03 Q1015;EQDQ01+000000PRSWM2
0235605150999992000101515004+35320+004190SY-MT+0461DAAD V0203001N004112200019N0100001N1+02051+00221101591ADDGA1021+007809999GF103991031021008001001001MA1101491999999MD1610071+9999MW1001REMSYN076AAXX  15154 60515 42560 33008 10205 20022 40159 56007 83200 333 83826 95900;MET045DAAD 151500Z 30008KT 9999 SCT026 21/02 Q1015;EQDQ01+000000PRSWM2
0139605150999992000101516004+35320+004190FM-15+0461DAAD V0203001N005112200019N0112651N1+02001+00401999999ADDGA1021+007809999GF104991999999999999999999MA1101491999999MW1001REMMET045DAAD 151600Z 30010KT 9999 SCT026 20/04 Q1015;EQDQ01+000000PRSWM2
0139605150999992000101517004+35320+004190FM-15+0461DAAD V0203301N006212200019N0112651N1+01901+00301999999ADDGA1021+007809999GF102991999999999999999999MA1101491999999MW1001REMMET045DAAD 151700Z 33012KT 9999 FEW026 19/03 Q1015;EQDQ01+000000PRSWM2
0297605150999992000101518004+35320+004190SY-MT+0461DAAD V0203401N006212200019N0100001N1+01781+00701101621ADDAA199000091GA1021+007809999GF103991999021008001001001KA1120M+02061MA1101591999999MD1310091+9999MW1001REMSYN082AAXX  15184 60515 32560 33412 10178 20070 40162 53009 82200 333 10206 82826 95990;MET045DAAD 151800Z 34012KT 9999 FEW026 18/07 Q1016;EQDQ01+000022SCOTLCQ02+000000PRSWM2Q03  00002PRCP99
0321605150999992000101606004+35320+004190SY-MT+0461DAAD V0209999C000010090019N0100001N1+01491+01381101921ADDAA199000091GA1071+009009999GF199999051021008001001001IA2240+01209KA1120N+01351MA1101901999999MD1310101+9999MW1001REMSYN094AAXX  16064 60515 31560 50000 10149 20138 40192 53010 700// 85200 333 01200 20135 85830 95900;MET045DAAD 160600Z 00000KT 9999 BKN030 14/08 Q1019;EQDQ01+000052SCOTCVQ02+000000PRSWM2Q03  00002PRCP99
0139605150999992000101607004+35320+004190FM-15+0461DAAD V0209999C000010090019N0112651N1+01501+00801999999ADDGA1071+009009999GF107991999999999999999999MA1102001999999MW1001REMMET045DAAD 160700Z 00000KT 9999 BKN030 15/08 Q1020;EQDQ01+000000PRSWM2
0139605150999992000101608004+35320+004190FM-15+0461DAAD V0202801N004110090019N0112651N1+01301+00801999999ADDGA1071+009009999GF107991999999999999999999MA1102001999999MW1001REMMET045DAAD 160800Z 28008KT 9999 BKN030 13/08 Q1020;EQDQ01+000000PRSWM2
0235605150999992000101609004+35320+004190SY-MT+0461DAAD V0202601N002110090019N0100001N1+01751+00901102141ADDGA1071+009009999GF107991071021008001999999MA1102101999999MD1210251+9999MW1001REMSYN076AAXX  16094 60515 42560 72604 10175 20090 40214 52025 872// 333 87830 95900;MET045DAAD 160900Z 26004KT 9999 BKN030 18/09 Q1021;EQDQ01+000000PRSWM2
0139605150999992000101610004+35320+004190FM-15+0461DAAD V0202801N006210090019N0112651N1+01901+00901999999ADDGA1071+009009999GF107991999999999999999999MA1102101999999MW1001REMMET045DAAD 161000Z 28012KT 9999 BKN030 19/09 Q1021;EQDQ01+000000PRSWM2
0278605150999992000101612004+35320+004190SY-MT+0461DAAD V0202801N003110090019N0100001N1+02101+00781102131ADDAA199000091GA1071+009009999GF199999061021999999001001MA1102101999999MD1010011+9999MW1001REMSYN076AAXX  16124 60515 32960 62806 10210 20078 40213 50001 86200 333 86830 95900;MET045DAAD 161200Z 28006KT 9999 BKN030 21/08 Q1021;EQDQ01+000062SCOTCVQ02+000000PRSWM2Q03  00002PRCP99
0139605150999992000101613004+35320+004190FM-15+0461DAAD V0203201N006210090019N0112651N1+02201+00701999999ADDGA1071+009009999GF107991999999999999999999MA1102001999999MW1001REMMET045DAAD 161300Z 32012KT 9999 BKN030 22/07 Q1020;EQDQ01+000000PRSWM2
0139605150999992000101614004+35320+004190FM-15+0461DAAD V0203201N006212200019N0112651N1+02301+00701999999ADDGA1021+009009999GF104991999999999999999999MA1102001999999MW1001REMMET045DAAD 161400Z 32012KT 9999 SCT030 23/07 Q1020;EQDQ01+000000PRSWM2
0235605150999992000101615004+35320+004190SY-MT+0461DAAD V0202401N011312200019N0100001N1+02291+00841102081ADDGA1021+009009999GF104991041021008001001001MA1102001999999MD1510071+9999MW1001REMSYN076AAXX  16154 60515 42560 42422 10229 20084 40208 55007 84200 333 84830 95900;MET045DAAD 161500Z 27002KT 9999 SCT030 23/08 Q1020;EQDQ01+000000PRSWM2
0139605150999992000101616004+35320+004190FM-15+0461DAAD V0209999C000012200019N0112651N1+02301+00601999999ADDGA1021+009009999GF104991999999999999999999MA1102101999999MW1001REMMET045DAAD 161600Z 00000KT 9999 SCT030 23/06 Q1021;EQDQ01+000000PRSWM2
0139605150999992000101617004+35320+004190FM-15+0461DAAD V0209999C000012200019N0112651N1+02201+00501999999ADDGA1021+009009999GF104991999999999999999999MA1102101999999MW1001REMMET045DAAD 161700Z 00000KT 9999 SCT030 22/05 Q1021;EQDQ01+000000PRSWM2
0281605150999992000101618004+35320+004190SY-MT+0461DAAD V0209999C000012200019N0100001N1+02041+00451102231ADDAA199000091GA1021+009009999GF103991031021008001001001KA1120M+02361MA1102201999999MD1310121+9999MW1001REMSYN082AAXX  16184 60515 32560 30000 10204 20045 40223 53012 83200 333 10236 83833 95990;MET045DAAD 161800Z 00000KT 9999 SCT030 20/05 Q1022;EQDQ01+000000PRSWM2Q02  00002PRCP99
0321605150999992000101706004+35320+004190SY-MT+0461DAAD V0209999C000010099019N0100001N1+01311+00761102531ADDAA199000091GA1071+009909999GF199999051081008001001021IA2240+01109KA1120N+01281MA1102511999999MD1310021+9999MW1001REMSYN094AAXX  17064 60515 33560 60000 10131 20076 40253 53002 700// 85802 333 01100 20128 85833 95900;MET045DAAD 170600Z 00000KT 9999 BKN033 13/08 Q1025;EQDQ01+000062SCOTCVQ02+000000PRSWM2Q03  00002PRCP99
0139605150999992000101707004+35320+004190FM-15+0461DAAD V0209999C000010099019N0112651N1+01401+00801999999ADDGA1071+009909999GF107991999999999999999999MA1102511999999MW1001REMMET045DAAD 170700Z 00000KT 9999 BKN033 14/08 Q1025;EQDQ01+000000PRSWM2
0162605150999992000101708004+35320+004190FM-15+0461DAAD V0209999C000012200019N0112651N1+01601+00801999999ADDGA1021+009909999GA2021+024009999GF104991999999999999999999MA1102611999999MW1001REMMET052DAAD 170800Z 00000KT 9999 FEW033 SCT080 16/08 Q1026;EQDQ01+000000PRSWM2
0264605150999992000101709004+35320+004190SY-MT+0461DAAD V0209999C00001036001CN0100001N1+01751+00811102661ADDGA1021+009909999GA2021+024009999GF106991011081008001071021MA1102611999999MD1110121+9999MW1001REMSYN082AAXX  17094 60515 42560 60000 10175 20081 40266 51012 81872 333 81833 84358 95900;MET052DAAD 170900Z 00000KT 9999 FEW033 SCT080 18/08 Q1026;EQDQ01+000000PRSWM2
0091605150999992000101710004+35320+004190FM-15+0461DAAD V0200301N00311220001CN0099001N1+01901+00801999999ADDMA1102611999999MW1001REMMET039DAAD 171000Z 03006KT CAVOK 19/08 Q1026;EQDQ01+000000PRSWM2
0297605150999992000101712004+35320+004190SY-MT+0461DAAD V0200601N00211007501CN0100001N1+02101+00781102631ADDAA199000091GA1021+009009999GA2021+024009999GF107991071021008001081021MA1102611999999MD1810011+9999MW1001REMSYN088AAXX  17124 60515 32560 70604 10210 20078 40263 58001 87282 333 0//00 83830 84358 95900;MET052DAAD 171200Z 06004KT 9999 SCT030 SCT080 21/08 Q1026;EQDQ01+000000PRSWM2Q02  00002PRCP99
0162605150999992000101713004+35320+004190FM-15+0461DAAD V0209999C000012200019N0112651N1+02201+00801999999ADDGA1021+009009999GA2021+024009999GF104991999999999999999999MA1102511999999MW1001REMMET052DAAD 171300Z 00000KT 9999 SCT030 SCT080 22/08 Q1025;EQDQ01+000000PRSWM2
0162605150999992000101714004+35320+004190FM-15+0461DAAD V0209999C000012200019N0112651N1+02301+00801999999ADDGA1021+009009999GA2021+024009999GF104991999999999999999999MA1102511999999MW1001REMMET052DAAD 171400Z 00000KT 9999 SCT030 SCT080 23/08 Q1025;EQDQ01+000000PRSWM2
0264605150999992000101715004+35320+004190SY-MT+0461DAAD V0203401N00211036001CN0100001N1+02401+00721102491ADDGA1021+009009999GA2021+024009999GF105991041021008001081001MA1102401999999MD1610111+9999MW1001REMSYN082AAXX  17154 60515 42560 53404 10240 20072 40249 56011 84280 333 84830 83358 95900;MET052DAAD 171500Z 34004KT 9999 SCT030 SCT080 24/07 Q1024;EQDQ01+000000PRSWM2
0162605150999992000101716004+35320+004190FM-15+0461DAAD V0209999C000012200019N0112651N1+02401+00701999999ADDGA1021+009009999GA2021+024009999GF104991999999999999999999MA1102401999999MW1001REMMET052DAAD 171600Z 00000KT 9999 SCT030 SCT080 24/07 Q1024;EQDQ01+000000PRSWM2
0139605150999992000101717004+35320+004190FM-15+0461DAAD V0209999C000010090019N0112651N1+02301+00701999999ADDGA1071+009009999GF107991999999999999999999MA1102511999999MW1001REMMET045DAAD 171700Z 00000KT 9999 BKN030 23/07 Q1025;EQDQ01+000000PRSWM2
0297605150999992000101718004+35320+004190SY-MT+0461DAAD V0209999C000010090019N0100001N1+02201+00671102571ADDAA199000091GA1071+009009999GF199999051021008001081001KA1120M+02401MA1102511999999MD1310061+9999MW1001REMSYN082AAXX  17184 60515 32560 60000 10220 20067 40257 53006 85280 333 10240 85830 95990;MET045DAAD 171800Z 00000KT 9999 BKN030 22/07 Q1025;EQDQ01+000062SCOTCVQ02+000000PRSWM2Q03  00002PRCP99
0315605150999992000101806004+35320+004190SY-MT+0461DAAD V0209999C000012200019N0100001N1+01201+01031102641ADDAA199000091GA1021+024009079GF102991021999999999081001IA2240+00909KA1120N+01161MA1102611999999MD1610071+9999MW1001REMSYN094AAXX  18064 60515 31960 20000 10120 20103 40264 56007 700// 82080 333 00900 20116 82358 95900;MET039DAAD 180600Z 00000KT CAVOK 12/10 Q1026;EQDQ01+000000PRSWM2Q02  00002PRCP99Q03    003SCOLCG
0091605150999992000101807004+35320+004190FM-15+0461DAAD V0209999C00001220001CN0099001N1+01301+00901999999ADDMA1102611999999MW1001REMMET039DAAD 180700Z 00000KT CAVOK 13/09 Q1026;EQDQ01+000000PRSWM2
0091605150999992000101808004+35320+004190FM-15+0461DAAD V0209999C00001220001CN0099001N1+01701+01001999999ADDMA1102711999999MW1001REMMET039DAAD 180800Z 00000KT CAVOK 17/10 Q1027;EQDQ01+000000PRSWM2
0235605150999992000101809004+35320+004190SY-MT+0461DAAD V0209999C000012200019N0100001N1+01901+00981102791ADDGA1021+009009999GF102991021021008001001001MA1102711999999MD1310181+9999MW1001REMSYN076AAXX  18094 60515 42560 20000 10190 20098 40279 53018 82200 333 82830 95900;MET045DAAD 180900Z 00000KT 9999 FEW030 19/10 Q1027;EQDQ01+000000PRSWM2
0139605150999992000101810004+35320+004190FM-15+0461DAAD V0209999C000012200019N0112651N1+02101+01001999999ADDGA1021+009009999GF102991999999999999999999MA1102811999999MW1001REMMET045DAAD 181000Z 00000KT 9999 FEW030 21/10 Q1028;EQDQ01+000000PRSWM2
0139605150999992000101811004+35320+004190FM-15+0461DAAD V0209999C000012200019N0112651N1+02101+01001999999ADDGA1021+009009999GF102991999999999999999999MA1102711999999MW1001REMMET045DAAD 181100Z 00000KT 9999 FEW030 21/10 Q1027;EQDQ01+000000PRSWM2
0262605150999992000101812004+35320+004190SY-MT+0461DAAD V0200601N002112200019N0100001N1+02251+00901102681ADDAA199000091GA1021+009009999GF102991021021008001001001MA1102611999999MD1810101+9999MW1001REMSYN076AAXX  18124 60515 32560 20604 10225 20090 40268 58010 82200 333 82830 95900;MET045DAAD 181200Z 06004KT 9999 FEW030 23/09 Q1026;EQDQ01+000000PRSWM2Q02  00002PRCP99
0139605150999992000101813004+35320+004190FM-15+0461DAAD V0200601N001012200019N0112651N1+02401+01001999999ADDGA1021+009009999GF102991999999999999999999MA1102511999999MW1001REMMET045DAAD 181300Z 06002KT 9999 FEW030 24/10 Q1025;EQDQ01+000000PRSWM2
0139605150999992000101814004+35320+004190FM-15+0461DAAD V0209999C000012200019N0112651N1+02501+00901999999ADDGA1021+009009999GF102991999999999999999999MA1102511999999MW1001REMMET045DAAD 181400Z 00000KT 9999 FEW030 25/09 Q1025;EQDQ01+000000PRSWM2
0235605150999992000101815004+35320+004190SY-MT+0461DAAD V0209999C000012200019N0100001N1+02501+00881102491ADDGA1021+009009999GF102991021021008001001001MA1102401999999MD1710181+9999MW1001REMSYN076AAXX  18154 60515 42560 20000 10250 20088 40249 57018 82200 333 82830 95900;MET045DAAD 181500Z 00000KT 9999 FEW030 25/09 Q1024;EQDQ01+000000PRSWM2
0139605150999992000101816004+35320+004190FM-15+0461DAAD V0209999C000012200019N0112651N1+02401+00701999999ADDGA1021+009009999GF104991999999999999999999MA1102401999999MW1001REMMET045DAAD 181600Z 00000KT 9999 SCT030 24/07 Q1024;EQDQ01+000000PRSWM2
0139605150999992000101817004+35320+004190FM-15+0461DAAD V0209999C000012200019N0112651N1+02301+00701999999ADDGA1021+009009999GF102991999999999999999999MA1102401999999MW1001REMMET045DAAD 181700Z 00000KT 9999 FEW030 23/07 Q1024;EQDQ01+000000PRSWM2
0297605150999992000101818004+35320+004190SY-MT+0461DAAD V0209999C000012200019N9999999N1+02101+00661102501ADDAA199000091GA1021+009009999GF102991021021008001001001KA1120M+02521MA1102511999999MD1510031+9999MW1001REMSYN082AAXX  18184 60515 32556 20000 10210 20066 40250 55003 82200 333 10252 82830 95990;MET045DAAD 181800Z 00000KT 9999 FEW030 21/07 Q1025;EQDQ01+060002VODIS Q02+000000PRSWM2Q03  00002PRCP99
0271605150999992000101906004+35320+004190SY-MT+0461DAAD V0209999C000012200019N0100001N1+01111+01071102521ADDAA199000091GF100991001001999999001001IA2240+00909KA1120N+01061MA1102511999999MD1610041+9999MW1001REMSYN082AAXX  19064 60515 31960 00000 10111 20107 40252 56004 700// 333 00900 20106 95900;MET039DAAD 190600Z 00000KT CAVOK 11/11 Q1025;EQDQ01+000000PRSWM2Q02  00002PRCP99
0091605150999992000101907004+35320+004190FM-15+0461DAAD V0209999C00001220001CN0099001N1+01301+00801999999ADDMA1102511999999MW1001REMMET039DAAD 190700Z 00000KT CAVOK 13/08 Q1025;EQDQ01+000000PRSWM2
0091605150999992000101908004+35320+004190FM-15+0461DAAD V0209999C00001220001CN0099001N1+01701+01001999999ADDMA1102611999999MW1001REMMET039DAAD 190800Z 00000KT CAVOK 17/10 Q1026;EQDQ01+000000PRSWM2
0251605150999992000101909004+35320+004190SY-MT+0461DAAD V0209999C000012200019N0100001N1+01851+01031102561ADDGA1021+012009999GF199999011021012501001001MA1102511999999MD1110081+9999MW1001REMSYN076AAXX  19094 60515 42660 10000 10185 20103 40256 51008 81200 333 81840 95900;MET045DAAD 190900Z 00000KT 9999 FEW040 19/10 Q1025;EQDQ01+000012SCOTCVQ02+000000PRSWM2
0139605150999992000101910004+35320+004190FM-15+0461DAAD V0200401N003112200019N0112651N1+01901+01001999999ADDGA1021+012009999GF102991999999999999999999MA1102511999999MW1001REMMET045DAAD 191000Z 04006KT 9999 FEW040 19/10 Q1025;EQDQ01+000000PRSWM2
0139605150999992000101911004+35320+004190FM-15+0461DAAD V0209999C000012200019N0112651N1+02001+01001999999ADDGA1021+009909999GF102991999999999999999999MA1102511999999MW1001REMMET045DAAD 191100Z 00000KT 9999 FEW033 20/10 Q1025;EQDQ01+000000PRSWM2
0268605150999992000101912004+35320+004190SY-MT+0461DAAD V0209999C000012200019N0100001N1+02301+00881102461ADDAA199000091GA1021+009009999GF102991021021999999001001MA1102401999999MD1810091+9999MW1001REMSYN082AAXX  19124 60515 32960 20000 10230 20088 40246 58009 82200 333 0//00 82830 95900;MET045DAAD 191200Z 00000KT 9999 FEW030 23/09 Q1024;EQDQ01+000000PRSWM2Q02  00002PRCP99
0139605150999992000101913004+35320+004190FM-15+0461DAAD V0209999C000012200019N0112651N1+02301+01001999999ADDGA1021+009909999GF102991999999999999999999MA1102301999999MW1001REMMET045DAAD 191300Z 00000KT 9999 FEW033 23/10 Q1023;EQDQ01+000000PRSWM2
0139605150999992000101914004+35320+004190FM-15+0461DAAD V0209999C000012200019N0112651N1+02301+00901999999ADDGA1021+009909999GF102991999999999999999999MA1102301999999MW1001REMMET045DAAD 191400Z 00000KT 9999 FEW033 23/09 Q1023;EQDQ01+000000PRSWM2
0233605150999992000101915004+35320+004190SY-MT+0461DAAD V0209999C000012200019N0100001N1+02401+00851102281ADDGA1021+009909999GF102991021021008001001001MA1102201999999MD1710011+9999MW1001REMSYN076AAXX  19154 60515 42560 20000 10240 20085 40228 57001 82200 333 82833 95900;MET043DAAD 191500Z 00000 9999 FEW033 24/09 Q1022;EQDQ01+000000PRSWM2
0139605150999992000101916004+35320+004190FM-15+0461DAAD V0209999C000012200019N0112651N1+02401+00801999999ADDGA1021+009909999GF102991999999999999999999MA1102201999999MW1001REMMET045DAAD 191600Z 00000KT 9999 FEW033 24/08 Q1022;EQDQ01+000000PRSWM2
0139605150999992000101917004+35320+004190FM-15+0461DAAD V0209999C000012200019N0112651N1+02201+00901999999ADDGA1021+009909999GF102991999999999999999999MA1102201999999MW1001REMMET045DAAD 191700Z 00000KT 9999 FEW033 22/09 Q1022;EQDQ01+000000PRSWM2
0193605150999992000101918004+35320+004190FM-12+0461DAAD V0209999C000012200019N0100001N1+02031+00861102291ADDAA199000091GA1021+009909089GF102991021021008001001001KA1120M+02441MD1310021+9999REMSYN082AAXX  19184 60515 32560 20000 10203 20086 40229 53002 82200 333 10244 82833 95990;EQDQ01  00002PRCP99
0299605150999992000102006004+35320+004190SY-MT+0461DAAD V0209999C000012200019N0100001N1+01001+00581102321ADDAA199000091GA1021+069009019GF102991001001999999001021IA2240+00809KA1120N+00951MA1102301999999MD1610041+9999MW1001REMSYN094AAXX  20064 60515 31960 20000 10100 20058 40232 56004 700// 80002 333 00800 20095 82073 95900;MET039DAAD 200600Z 00000KT CAVOK 10/06 Q1023;EQDQ01+000000PRSWM2Q02  00002PRCP99
0139605150999992000102007004+35320+004190FM-15+0461DAAD V0209999C000012200019N0112651N1+01201+00601999999ADDGA1021+009909999GF102991999999999999999999MA1102201999999MW1001REMMET045DAAD 200700Z 00000KT 9999 FEW033 12/06 Q1022;EQDQ01+000000PRSWM2
0139605150999992000102008004+35320+004190FM-15+0461DAAD V0209999C000012200019N0112651N1+01501+00801999999ADDGA1021+009909999GF102991999999999999999999MA1102301999999MW1001REMMET045DAAD 200800Z 00000KT 9999 FEW033 15/08 Q1023;EQDQ01+000000PRSWM2
0209605150999992000102009004+35320+004190SY-MT+0461DAAD V0209999C000012200019N0100001N1+01701+00721999999ADDGA1021+009909999GF102991999999012501999999MA1102301999999MW1001REMSYN048AAXX  20094 60515 42660 20000 10170 20072 49237;MET045DAAD 200900Z 00000KT 9999 FEW033 17/07 Q1023;EQDQ01+092373APOSLPQ02+000000PRSWM2
0139605150999992000102010004+35320+004190FM-15+0461DAAD V0203601N001012200019N0112651N1+01901+00801999999ADDGA1021+009909999GF102991999999999999999999MA1102301999999MW1001REMMET045DAAD 201000Z 36002KT 9999 FEW033 19/08 Q1023;EQDQ01+000000PRSWM2
0139605150999992000102011004+35320+004190FM-15+0461DAAD V0209999C000012200019N0112651N1+02101+00901999999ADDGA1021+009909999GF102991999999999999999999MA1102301999999MW1001REMMET045DAAD 201100Z 00000KT 9999 FEW033 21/09 Q1023;EQDQ01+000000PRSWM2
0268605150999992000102012004+35320+004190SY-MT+0461DAAD V0209999C000012200019N0100001N1+02301+01061102191ADDAA199000091GA1021+009909999GF102991021021012501001001MA1102101999999MD1810161+9999MW1001REMSYN082AAXX  20124 60515 32660 20000 10230 20106 40219 58016 82200 333 0//00 82833 95900;MET045DAAD 201200Z 00000KT 9999 FEW033 23/11 Q1021;EQDQ01+000000PRSWM2Q02  00002PRCP99
0123605150999992000102014004+35320+004190FM-15+0461DAAD V0209999C000012200019N0112651N1+02501+00901999999ADDGA1021+009009999GF104991999999999999999999MW1001REMMET044DAAD 201400Z 00000KT 9999 SCT030 25/09 Q019;EQDQ01+000000PRSWM2
0235605150999992000102015004+35320+004190SY-MT+0461DAAD V0201201N001012200019N0100001N1+02451+00771101941ADDGA1021+009009999GF103991031021008001001001MA1101901999999MD1710231+9999MW1001REMSYN076AAXX  20154 60515 42560 31202 10245 20077 40194 57023 83200 333 83830 95900;MET045DAAD 201500Z 12002KT 9999 SCT030 25/08 Q1019;EQDQ01+000000PRSWM2
0139605150999992000102016004+35320+004190FM-15+0461DAAD V0201201N006212200019N0112651N1+02401+00701999999ADDGA1021+009009999GF102991999999999999999999MA1101901999999MW1001REMMET045DAAD 201600Z 12012KT 9999 FEW030 24/07 Q1019;EQDQ01+000000PRSWM2
0139605150999992000102017004+35320+004190FM-15+0461DAAD V0201201N005112200019N0112651N1+02201+00801999999ADDGA1021+009009999GF102991999999999999999999MA1101901999999MW1001REMMET045DAAD 201700Z 12010KT 9999 FEW030 22/08 Q1019;EQDQ01+000000PRSWM2
0297605150999992000102018004+35320+004190SY-MT+0461DAAD V0201201N003112200019N0100001N1+01971+00851102001ADDAA199000091GA1021+009009999GF102991021021008001001021KA1120M+02511MA1102612999999MD1510001+9999MW1001REMSYN082AAXX  20184 60515 32560 21206 10197 20085 40200 55000 82202 333 10251 82830 95990;MET045DAAD 201800Z 12006KT 9999 FEW030 20/09 Q1026;EQDQ01+000000PRSWM2Q02+102613APOA  Q03  00002PRCP99
0321605150999992000102106004+35320+004190SY-MT+0461DAAD V0209999C000010099019N0080001N1+01511+01191101941ADDAA199000091GA1071+009909999GF199999061081008001001001IA2240+01309KA1120N+01461MA1101901999999MD1610041+9999MW1001REMSYN094AAXX  21064 60515 33558 60000 10151 20119 40194 56004 700// 86800 333 01300 20146 86833 95900;MET045DAAD 210600Z 00000KT 8000 BKN033 15/12 Q1019;EQDQ01+000062SCOTCVQ02+000000PRSWM2Q03  00002PRCP99
0278605150999992000102109004+35320+004190SY-MT+0461DAAD V0209999C000010090019N0080001N1+01701+01601102041ADDAY161031AY221031GA1071+009009999GF107991071051008001001001MA1102001999999MD1310121+9999MW1211REMSYN082AAXX  21094 60515 41558 70000 10170 20160 40204 53012 72162 87500 333 87830 95900;MET050DAAD 210900Z 00000KT 8000 BKN030 17/16 Q1020 RERA;EQDQ01+000000PRSWM2Q02    003PRSWM1
0162605150999992000102110004+35320+004190FM-15+0461DAAD V0209999C000010078019N0080001N1+02001+01601999999ADDGA1021+001809999GA2071+007809999GF107991999999999999999999MA1102001999999MW1001REMMET052DAAD 211000Z 00000KT 8000 FEW006 BKN026 20/16 Q1020;EQDQ01+000000PRSWM2
0139605150999992000102111004+35320+004190FM-15+0461DAAD V0209999C000010078019N0080001N1+02001+01501999999ADDGA1071+007809999GF107991999999999999999999MA1102001999999MW1001REMMET045DAAD 211100Z 00000KT 8000 BKN026 20/15 Q1020;EQDQ01+000000PRSWM2
0139605150999992000102112004+35320+004190FM-15+0461DAAD V0201301N006210078019N0080001N1+02101+01401999999ADDGA1071+007809999GF107991999999999999999999MA1101801999999MW1001REMMET045DAAD 211200Z 13012KT 8000 BKN026 21/14 Q1018;EQDQ01+000000PRSWM2
0139605150999992000102113004+35320+004190FM-15+0461DAAD V0201201N003110078019N0080001N1+02201+01401999999ADDGA1071+007809999GF107991999999999999999999MA1101801999999MW1001REMMET045DAAD 211300Z 12006KT 8000 BKN026 22/14 Q1018;EQDQ01+000000PRSWM2
0139605150999992000102114004+35320+004190FM-15+0461DAAD V0201401N008210078019N0080001N1+02201+01301999999ADDGA1071+007809999GF107991999999999999999999MA1101691999999MW1001REMMET045DAAD 211400Z 14016KT 8000 BKN026 22/13 Q1017;EQDQ01+000000PRSWM2
0251605150999992000102115004+35320+004190SY-MT+0461DAAD V0201401N004110078019N0080001N1+02221+01351101761ADDGA1071+007809999GF199999061081008001001001MA1101691999999MD1710161+9999MW1001REMSYN076AAXX  21154 60515 42558 61408 10222 20135 40176 57016 86800 333 86826 95900;MET045DAAD 211500Z 14008KT 8000 BKN026 22/14 Q1017;EQDQ01+000062SCOTCVQ02+000000PRSWM2
0139605150999992000102116004+35320+004190FM-15+0461DAAD V0209999C000012200019N0080001N1+02201+01401999999ADDGA1021+007809999GF104991999999999999999999MA1101691999999MW1001REMMET045DAAD 211600Z 00000KT 8000 SCT026 22/14 Q1017;EQDQ01+000000PRSWM2
0139605150999992000102117004+35320+004190FM-15+0461DAAD V0209999C000012200019N0080001N1+02001+01301999999ADDGA1021+012009999GF104991999999999999999999MA1101801999999MW1001REMMET045DAAD 211700Z 00000KT 8000 SCT040 20/13 Q1018;EQDQ01+000000PRSWM2
0287605150999992000102118004+35320+004190SY-MT+0461DAAD V0209999C000010078019N0080001N1+01931+01501101861ADDAA112000591GA1071+007809999GF199999051081008001001001KA1120M+02231MA1101801999999MD1310061+9999MW1001REMSYN088AAXX  21184 60515 12558 50000 10193 20150 40186 53006 69952 85800 333 10223 85826 95990;MET045DAAD 211800Z 00000KT 8000 BKN026 19/15 Q1018;EQDQ01+000052SCOTCVQ02+000000PRSWM2
0305605150999992000102206004+35320+004190SY-MT+0461DAAD V0209999C000012200019N0100001N1+01651+01241102051ADDAA199000091GA1021+009009999GF103991031021008001001001IA2240+01309KA1120N+01561MA1102001999999MD1310021+9999MW1001REMSYN094AAXX  22064 60515 31560 30000 10165 20124 40205 53002 700// 83200 333 01300 20156 83830 95900;MET045DAAD 220600Z 00000KT 9999 SCT030 17/12 Q1020;EQDQ01+000000PRSWM2Q02  00002PRCP99
0139605150999992000102207004+35320+004190FM-15+0461DAAD V0200901N003112200019N0112651N1+01801+01301999999ADDGA1021+009009999GF102991999999999999999999MA1102101999999MW1001REMMET045DAAD 220700Z 09006KT 9999 FEW030 18/13 Q1021;EQDQ01+000000PRSWM2
0162605150999992000102208004+35320+004190FM-15+0461DAAD V0209999C000012200019N0112651N1+01801+01401999999ADDGA1021+009009999GA2021+060009999GF104991999999999999999999MA1102101999999MW1001REMMET052DAAD 220800Z 00000KT 9999 FEW030 SCT200 18/14 Q1021;EQDQ01+000000PRSWM2
0264605150999992000102209004+35320+004190SY-MT+0461DAAD V0201201N002112200019N0100001N1+02101+01331102171ADDGA1021+009009999GA2021+060009999GF104991021021008001001021MA1102101999999MD1110131+9999MW1001REMSYN082AAXX  22094 60515 42560 41204 10210 20133 40217 51013 82202 333 82830 83070 95900;MET052DAAD 220900Z 12004KT 9999 FEW030 SCT200 21/13 Q1021;EQDQ01+000000PRSWM2
0139605150999992000102210004+35320+004190FM-15+0461DAAD V0201201N006210090019N0112651N1+02201+01401999999ADDGA1071+009009999GF107991999999999999999999MA1102101999999MW1001REMMET045DAAD 221000Z 12012KT 9999 BKN030 22/14 Q1021;EQDQ01+000000PRSWM2
0139605150999992000102211004+35320+004190FM-15+0461DAAD V0201201N006210090019N0112651N1+02201+01401999999ADDGA1071+009009999GF107991999999999999999999MA1102101999999MW1001REMMET045DAAD 221100Z 12012KT 9999 BKN030 22/14 Q1021;EQDQ01+000000PRSWM2
0307605150999992000102212004+35320+004190SY-MT+0461DAAD V0201601N003110090019N0100001N1+02051+01701102101ADDAA106000591AC11C9AY101061AY221061GA1071+009009999GF107991071021008001999999MA1102201999999MD1810071+9999MW1211REMSYN094AAXX  22124 60515 11560 71606 10205 20170 40210 58007 69951 72102 872// 333 0//11 87830 95900;MET050DAAD 221200Z 16006KT 9999 BKN030 21/17 Q1022 RERA;EQDQ01+000000PRSWM2Q02    003PRSWM1
0139605150999992000102213004+35320+004190FM-15+0461DAAD V0201601N003110090019N0112651N1+02301+01501999999ADDGA1071+009009999GF107991999999999999999999MA1102001999999MW1001REMMET045DAAD 221300Z 16006KT 9999 BKN030 23/15 Q1020;EQDQ01+000000PRSWM2
0139605150999992000102214004+35320+004190FM-15+0461DAAD V0201201N003110090019N0112651N1+02401+01401999999ADDGA1071+009009999GF107991999999999999999999MA1101901999999MW1001REMMET045DAAD 221400Z 12006KT 9999 BKN030 24/14 Q1019;EQDQ01+000000PRSWM2
0235605150999992000102215004+35320+004190SY-MT+0461DAAD V0201201N006210090019N0100001N1+02401+01391101901ADDGA1071+009009999GF107991071021008001999999MA1101901999999MD1710161+9999MW1001REMSYN076AAXX  22154 60515 42560 71212 10240 20139 40190 57016 872// 333 87830 95900;MET045DAAD 221500Z 12012KT 9999 BKN030 24/14 Q1019;EQDQ01+000000PRSWM2
0139605150999992000102216004+35320+004190FM-15+0461DAAD V0201201N005110090019N0112651N1+02401+01401999999ADDGA1071+009009999GF107991999999999999999999MA1101801999999MW1001REMMET045DAAD 221600Z 12010KT 9999 BKN030 24/14 Q1018;EQDQ01+000000PRSWM2
0139605150999992000102217004+35320+004190FM-15+0461DAAD V0209999C000010090019N0112651N1+02301+01501999999ADDGA1071+009009999GF107991999999999999999999MA1101801999999MW1001REMMET045DAAD 221700Z 00000KT 9999 BKN030 23/15 Q1018;EQDQ01+000000PRSWM2
0265605150999992000102218004+35320+004190SY-MT+0461DAAD V0209999C000010090019N0100001N1+02141+01591102071ADDAA199000021GA1071+009009999GF107991071021008001999999KA1120M+02411MA1102001999999MD1310141+9999MW1001REMSYN082AAXX  22184 60515 32560 70000 10214 20159 40207 53014 872// 333 10241 87830 95990;MET045DAAD 221800Z 00000KT 9999 BKN030 21/16 Q1020;EQDQ01+000000PRSWM2
0334605150999992000102306004+35320+004190SY-MT+0461DAAD V0201401N009310090019N0080001N1+01911+01441101941ADDAA199000091GA1021+003909999GA2071+009009999GF108991061071004501071999IA2240+01709KA1120N+01851MA1101901999999MD1610011+9999MW1001REMSYN100AAXX  23064 60515 31458 81418 10191 20144 40194 56001 700// 8677/ 333 01700 20185 81513 85830 95900;MET052DAAD 230600Z 14018KT 8000 FEW013 BKN030 19/14 Q1019;EQDQ01+000000PRSWM2Q02  00002PRCP99
0162605150999992000102307004+35320+004190FM-15+0461DAAD V0201201N007210078019N0080001N1+01901+01401999999ADDGA1021+003909999GA2071+007809999GF107991999999999999999999MA1101901999999MW1001REMMET052DAAD 230700Z 12014KT 8000 FEW013 BKN026 19/14 Q1019;EQDQ01+000000PRSWM2
0162605150999992000102308004+35320+004190FM-15+0461DAAD V0201201N008210090019N0080001N1+01901+01401999999ADDGA1021+003909999GA2071+009009999GF107991999999999999999999MA1102001999999MW1001REMMET052DAAD 230800Z 12016KT 8000 FEW013 BKN030 19/14 Q1020;EQDQ01+000000PRSWM2
0293605150999992000102309004+35320+004190SY-MT+0461DAAD V0201201N00821006001CN0080001N1+02001+01411102031ADDGA1021+003909999GA2071+006009999GA3021+009009999GF108991041071004501011999MA1102001999999MD1310091+9999MW1001REMSYN088AAXX  23094 60515 42458 81216 10200 20141 40203 53009 8471/ 333 81813 83830 85458 95900;MET059DAAD 230900Z 12016KT 8000 FEW013 SCT030 BKN020 20/14 Q1020;EQDQ01+000000PRSWM2
0162605150999992000102310004+35320+004190FM-15+0461DAAD V0201201N009310240019N0070001N1+02001+01501999999ADDGA1021+009009999GA2071+024009999GF107991999999999999999999MA1101901999999MW1001REMMET052DAAD 231000Z 12018KT 7000 SCT030 BKN080 20/15 Q1019;EQDQ01+000000PRSWM2
0178605150999992000102311004+35320+004190FM-15+0461DAAD V0201201N008210240019N9999999N1+02101+01401999999ADDGA1021+009009999GA2071+024009999GF107991999999999999999999MA1101901999999MW1001REMMET052DAAD 231100Z 12016KT 7000 SCT030 BKN080 21/14 Q1019;EQDQ01+070002VODIS Q02+000000PRSWM2
0180605150999992000102312004+35320+004190FM-12+0461DAAD V0201201N010310240019N0080001N1+02151+01431101851ADDAA199000091GA1051+024009049GF108991031081008001011999MD1810161+9999REMSYN082AAXX  23124 60515 32558 81220 10215 20143 40185 58016 8381/ 333 0//00 85458 95900;EQDQ01  00002PRCP99
0178605150999992000102313004+35320+004190FM-15+0461DAAD V0201201N010310240019N9999999N1+02201+01401999999ADDGA1021+009009999GA2071+024009999GF107991999999999999999999MA1101801999999MW1001REMMET052DAAD 231300Z 12020KT 7000 SCT030 BKN080 22/14 Q1018;EQDQ01+070002VODIS Q02+000000PRSWM2
0178605150999992000102314004+35320+004190FM-15+0461DAAD V0201401N006212200019N9999999N1+02201+01401999999ADDGA1021+024009999GA2021+027009999GF104991999999999999999999MA1101691999999MW1001REMMET052DAAD 231400Z 14012KT 7000 FEW090 SCT080 22/14 Q1017;EQDQ01+070002VODIS Q02+000000PRSWM2
0280605150999992000102315004+35320+004190SY-MT+0461DAAD V0201201N00511220001CN0080001N1+02251+01381101731ADDGA1071+009009999GA2021+024009999GF108991051081008001999021MA1101691999999MD1710111+9999MW1001REMSYN082AAXX  23154 60515 42558 81210 10225 20138 40173 57011 85802 333 85830 83358 95900;MET052DAAD 231500Z 12010KT 7000 BKN030 SCT080 23/14 Q1017;EQDQ01+000000PRSWM2Q02+000002SCOMCG
0168605150999992000102316004+35320+004190FM-15+0461DAAD V0201201N00511220001CN9999999N1+02301+01301999999ADDGA1071+009009999GA2021+024009999MA1101591999999MW1001REMMET052DAAD 231600Z 12010KT 7000 BKN030 SCT080 23/13 Q1016;EQDQ01+000042SCOTCVQ02+070002VODIS Q03+000000PRSWM2
0162605150999992000102317004+35320+004190FM-15+0461DAAD V0201601N006210240019N0060001N1+02301+01301999999ADDGA1021+012009999GA2071+024009999GF107991999999999999999999MA1101691999999MW1001REMMET052DAAD 231700Z 16012KT 6000 FEW040 BKN080 23/13 Q1017;EQDQ01+000000PRSWM2
0326605150999992000102318004+35320+004190SY-MT+0461DAAD V0201601N006210240019N9999999N1+02201+01361101701ADDAA199000091GA1021+012009999GA2071+024009999GF107991061021012501071021KA1120M+02271MA1101691999999MD1510031+9999MW1001REMSYN088AAXX  23184 60515 32656 71612 10220 20136 40170 55003 86272 333 10227 81840 85358 95990;MET052DAAD 231800Z 16012KT 6000 FEW040 BKN080 22/14 Q1017;EQDQ01+060002VODIS Q02+000000PRSWM2Q03  00002PRCP99
0324605150999992000102406004+35320+004190SY-MT+0461DAAD V0201601N00621004201CN0080001N1+01801+01471101821ADDAA124000591GA1021+003009999GA2021+007809999GF105991051071004501001001IA2240+01509KA1120N+01711MA1101801999999MD1610051+9999MW1001REMSYN106AAXX  24064 60515 11458 51612 10180 20147 40182 56005 69964 700// 85700 333 015// 20171 82710 84826 95900;MET052DAAD 240600Z 16012KT 8000 FEW010 SCT026 18/15 Q1018;EQDQ01+000000PRSWM2
0162605150999992000102407004+35320+004190FM-15+0461DAAD V0201601N005112200019N0080001N1+01801+01501999999ADDGA1021+003009999GA2021+007809999GF104991999999999999999999MA1101801999999MW1001REMMET052DAAD 240700Z 16010KT 8000 FEW010 SCT026 18/15 Q1018;EQDQ01+000000PRSWM2
0162605150999992000102408004+35320+004190FM-15+0461DAAD V0201501N009312200019N0080001N1+02001+01501999999ADDGA1021+003009999GA2021+007809999GF104991999999999999999999MA1101901999999MW1001REMMET052DAAD 240800Z 15018KT 8000 FEW010 SCT026 20/15 Q1019;EQDQ01+000000PRSWM2
0302605150999992000102409004+35320+004190SY-MT+0461DAAD V0201401N010312200019N0060001N1+02051+01471101891ADDAY111031AY221031GA1021+003009999GA2021+007809999GF104991041071004501001001MA1101801999999MD1010081+9999MW1061REMSYN088AAXX  24094 60515 41456 41420 10205 20147 40189 50008 70612 84700 333 82710 83826 95900;MET052DAAD 240900Z 14020KT 6000 FEW010 SCT026 21/15 Q1018;EQDQ01+000000PRSWM2Q02    003PRSWM1
0183605150999992000102410004+35320+004190FM-15+0461DAAD V0201401N011312200019N0060001N1+02201+01401999999ADDGA1021+003009999GA2021+007809999GF104991999999999999999999MA1101901999999MW1071REMMET057DAAD 241000Z 14022KT 6000 DRSA FEW010 SCT026 22/14 Q1019;EQDQ01+000003PRSWM1Q02    003PRSWM1
0317605150999992000102412004+35320+004190SY-MT+0461DAAD V0201401N012310078019N0020001N1+02361+01341101791ADDAA199000091AY111061AY221061GA1071+007809999GF199999051021004501001001MA1101691999999MD1810081+9999MW1061MW2071REMSYN088AAXX  24124 60515 31420 51424 10236 20134 40179 58008 70612 85200 333 0//00 85826 95990;MET050DAAD 241200Z 14024KT 2000 DRSA BKN026 24/13 Q1017;EQDQ01+000052SCOTCVQ02  00002PRCP99Q03    003PRSWM1
0160605150999992000102413004+35320+004190FM-15+0461DAAD V0201401N012310078019N0020001N1+02401+01301999999ADDGA1071+007809999GF107991999999999999999999MA1101691999999MW1071REMMET050DAAD 241300Z 14024KT 2000 DRSA BKN026 24/13 Q1017;EQDQ01+000003PRSWM1Q02    003PRSWM1
0160605150999992000102414004+35320+004190FM-15+0461DAAD V0201401N010312200019N0020001N1+02401+01201999999ADDGA1021+007809999GF104991999999999999999999MA1101691999999MW1071REMMET050DAAD 241400Z 14020KT 2000 DRSA SCT026 24/12 Q1017;EQDQ01+000003PRSWM1Q02    003PRSWM1
0160605150999992000102415004+35320+004190FM-15+0461DAAD V0201201N009312200019N0020001N1+02401+01201999999ADDGA1021+007809999GF104991999999999999999999MA1101691999999MW1071REMMET050DAAD 241500Z 12018KT 2000 DRSA SCT026 24/12 Q1017;EQDQ01+000003PRSWM1Q02    003PRSWM1
0155605150999992000102416004+35320+004190FM-15+0461DAAD V0201401N006212200019N9999999N1+02401+01201999999ADDGA1021+009009999GF102991999999999999999999MA1101691999999MW1001REMMET045DAAD 241600Z 14012KT 6000 FEW030 24/12 Q1017;EQDQ01+060002VODIS Q02+000000PRSWM2
0139605150999992000102417004+35320+004190FM-15+0461DAAD V0201201N005112200019N0060001N1+02201+01301999999ADDGA1021+009009999GF102991999999999999999999MA1101801999999MW1001REMMET045DAAD 241700Z 12010KT 6000 FEW030 22/13 Q1018;EQDQ01+000000PRSWM2
0281605150999992000102418004+35320+004190SY-MT+0461DAAD V0201401N006212200019N0060001N1+02101+01241101861ADDAA199000091GA1021+009009999GF104991031021008001001021KA1120M+02421MA1101801999999MD1310131+9999MW1001REMSYN082AAXX  24184 60515 32556 41412 10210 20124 40186 53013 83202 333 10242 83830 95990;MET045DAAD 241800Z 14012KT 6000 SCT030 21/12 Q1018;EQDQ01+000000PRSWM2Q02  00002PRCP99
0334605150999992000102506004+35320+004190SY-MT+0461DAAD V0209999C00001036001CN0070001N1+01671+01351102041ADDAA199000091GA1021+012009999GA2021+024009999GF106991031081012501071021IA2240+01509KA1120N+01601MA1102001999999MD1610011+9999MW1001REMSYN100AAXX  25064 60515 31657 60000 10167 20135 40204 56001 700// 83872 333 01500 20160 83840 83350 95900;MET052DAAD 250600Z 00000KT 7000 SCT040 SCT080 17/14 Q1020;EQDQ01+000000PRSWM2Q02  00002PRCP99
0162605150999992000102507004+35320+004190FM-15+0461DAAD V0209999C000012200019N0080001N1+01701+01301999999ADDGA1021+012009999GA2021+018009999GF104991999999999999999999MA1102101999999MW1001REMMET052DAAD 250700Z 00000KT 8000 SCT040 SCT060 17/13 Q1021;EQDQ01+000000PRSWM2
0139605150999992000102508004+35320+004190FM-15+0461DAAD V0209999C000012200019N0080001N1+01801+01401999999ADDGA1021+012009999GF104991999999999999999999MA1102101999999MW1001REMMET045DAAD 250800Z 00000KT 8000 SCT040 18/14 Q1021;EQDQ01+000000PRSWM2
0251605150999992000102509004+35320+004190SY-MT+0461DAAD V0209999C000010090019N0080001N1+01931+01421102181ADDGA1071+009009999GF199999051081008001071001MA1102101999999MD1310131+9999MW1001REMSYN076AAXX  25094 60515 42558 60000 10193 20142 40218 53013 85870 333 85830 95900;MET045DAAD 250900Z 00000KT 6000 BKN030 17/14 Q1021;EQDQ01+000062SCOTCVQ02+000000PRSWM2
0139605150999992000102510004+35320+004190FM-15+0461DAAD V0200401N002110090019N0080001N1+02101+01301999999ADDGA1071+009009999GF107991999999999999999999MA1102101999999MW1001REMMET045DAAD 251000Z 04004KT 8000 BKN030 21/13 Q1021;EQDQ01+000000PRSWM2
0178605150999992000102511004+35320+004190FM-15+0461DAAD V0201601N008212200019N9999999N1+02501+01001999999ADDGA1021+009909999GA2021+024009999GF104991999999999999999999MA1102101999999MW1001REMMET052DAAD 251100Z 16016KT 7000 SCT033 SCT080 25/10 Q1021;EQDQ01+070002VODIS Q02+000000PRSWM2
0155605150999992000102512004+35320+004190FM-15+0461DAAD V0201201N006210090019N9999999N1+02401+01101999999ADDGA1071+009009999GF107991999999999999999999MA1101901999999MW1001REMMET045DAAD 251200Z 12012KT 7000 BKN030 24/11 Q1019;EQDQ01+070002VODIS Q02+000000PRSWM2
0155605150999992000102513004+35320+004190FM-15+0461DAAD V0201201N006210090019N9999999N1+02501+01201999999ADDGA1071+009009999GF107991999999999999999999MA1101901999999MW1001REMMET045DAAD 251300Z 12012KT 6000 BKN030 25/12 Q1019;EQDQ01+060002VODIS Q02+000000PRSWM2
0266605150999992000102515004+35320+004190SY-MT+0461DAAD V0201801N00411220001CN0070001N1+02301+01101101941ADDGA1071+007809999GA2021+009009099GF107991071091008001999999MA1101901999999MD1610031+9999MW1001REMSYN082AAXX  25154 60515 42557 71808 10230 20110 40194 56003 879// 333 86826 81930 95900;MET054DAAD 251500Z 18008KT 7000 BKN026 FEW030CB 24/11 Q1019;EQDQ01+000000PRSWM2
0159605150999992000102516004+35320+004190FM-15+0461DAAD V0201001N007210078019N0060001N1+02101+01501999999ADDGA1081+007809999GF108991999999999999999999MA1101901999999MW1611REMMET049DAAD 251600Z 10014KT 6000 -RA OVC026 21/15 Q1019;EQDQ01+000003PRSWM1Q02    003PRSWM1
0287605150999992000102518004+35320+004190SY-MT+0461DAAD V0201201N008210078019N0070001N1+01901+01491102081ADDAA112000591GA1071+007809999GF199999061081008001001001KA1120M+02531MA1102001999999MD1310081+9999MW1001REMSYN088AAXX  25184 60515 12557 61216 10190 20149 40208 53008 69942 86800 333 10253 86826 95990;MET045DAAD 251800Z 12016KT 7000 BKN026 19/15 Q1020;EQDQ01+000062SCOTCVQ02+000000PRSWM2
0210605150999992000102606004+35320+004190FM-12+0461DAAD V0209999C000012200019N0100001N1+01351+01131102101ADDAA124001091GA1021+024009039GF103991021001022501031021IA2240+01209KA1120N+01301MD1110011+9999MW1001REMSYN100AAXX  26064 60515 11860 30000 10135 20113 40210 51001 69994 700// 82032 333 012// 20130 82358 95990;
0091605150999992000102608004+35320+004190FM-15+0461DAAD V0203601N00101220001CN0099001N1+01601+01401999999ADDMA1102201999999MW1001REMMET039DAAD 260800Z 36002KT CAVOK 16/14 Q1022;EQDQ01+000000PRSWM2
0235605150999992000102609004+35320+004190SY-MT+0461DAAD V0203601N002112200019N0100001N1+01691+01431102231ADDGA1021+007809999GF103991021021008001001021MA1102201999999MD1110141+9999MW1001REMSYN076AAXX  26094 60515 42560 33604 10169 20143 40223 51014 82202 333 82826 95900;MET045DAAD 260900Z 36004KT 9999 FEW026 17/14 Q1022;EQDQ01+000000PRSWM2
0162605150999992000102610004+35320+004190FM-15+0461DAAD V0209999C000012200019N0112651N1+02001+01401999999ADDGA1021+001509999GA2021+007809999GF104991999999999999999999MA1102201999999MW1001REMMET052DAAD 261000Z 00000KT 9999 FEW005 SCT026 20/14 Q1022;EQDQ01+000000PRSWM2
0268605150999992000102612004+35320+004190SY-MT+0461DAAD V0203601N001012200019N0100001N1+02031+01291102081ADDAA199000091GA1021+007809999GF104991041021008001001001MA1102001999999MD1810101+9999MW1001REMSYN082AAXX  26124 60515 32560 43602 10203 20129 40208 58010 84200 333 0//00 84826 95900;MET045DAAD 261200Z 36002KT 9999 SCT026 20/13 Q1020;EQDQ01+000000PRSWM2Q02  00002PRCP99
0139605150999992000102613004+35320+004190FM-15+0461DAAD V0209999C000010090019N0112651N1+02201+01301999999ADDGA1071+009009999GF107991999999999999999999MA1101901999999MW1001REMMET045DAAD 261300Z 00000KT 9999 BKN030 22/13 Q1019;EQDQ01+000000PRSWM2
0164605150999992000102614004+35320+004190FM-15+0461DAAD V0203001N008212200019N0112651N1+02301+01001999999ADDGA1021+007809999GA2021+009009099GF104991999999999999999999MA1101901999999MW1001REMMET054DAAD 261400Z 30016KT 9999 SCT026 SCT030CB 23/10 Q1019;EQDQ01+000000PRSWM2
0297605150999992000102615004+35320+004190SY-MT+0461DAAD V0203201N01131007501CN0100001N1+02061+00831101901ADDAY111031AY221031GA1021+007809999GA2021+009009099GF106991061091008001001001MA1101901999999MD1710191+9999MW1171MW2191REMSYN088AAXX  26154 60515 41560 63222 10206 20083 40190 57019 71912 86900 333 84826 83930 95900;MET057DAAD 261500Z 32022KT 9999 TS SCT026 SCT030CB 21/08 Q1019;EQDQ01    003PRSWM1
0139605150999992000102616004+35320+004190FM-15+0461DAAD V0203201N010312200019N0112651N1+02001+00801999999ADDGA1021+009009999GF104991999999999999999999MA1101901999999MW1001REMMET045DAAD 261600Z 32020KT 9999 SCT030 20/08 Q1019;EQDQ01+000000PRSWM2
0139605150999992000102617004+35320+004190FM-15+0461DAAD V0203201N006212200019N0112651N1+01801+00901999999ADDGA1021+009009999GF104991999999999999999999MA1102001999999MW1001REMMET045DAAD 261700Z 32012KT 9999 SCT030 18/09 Q1020;EQDQ01+000000PRSWM2
0193605150999992000102618004+35320+004190FM-12+0461DAAD V0203201N002110090019N0100001N1+01731+00921102121ADDAA199000091GA1051+009009089GF106991051021008001001021KA1120M+02321MD1310151+9999REMSYN082AAXX  26184 60515 32560 63204 10173 20092 40212 53015 85202 333 10232 85830 95990;EQDQ01  00002PRCP99
0334605150999992000102706004+35320+004190SY-MT+0461DAAD V0203201N002112200019N0080001N1+01451+00981102221ADDAA199000091GA1021+003909999GA2021+060009999GF104991021081004501001021IA2240+01209KA1120N+01341MA1102201999999MD1310021+9999MW1001REMSYN100AAXX  27064 60515 31458 43204 10145 20098 40222 53002 700// 82802 333 01200 20134 82813 83070 95900;MET052DAAD 270600Z 32004KT 8000 FEW013 SCT200 15/10 Q1022;EQDQ01+000000PRSWM2Q02  00002PRCP99
0139605150999992000102707004+35320+004190FM-15+0461DAAD V0203201N003112200019N0080001N1+01501+01001999999ADDGA1021+003909999GF104991999999999999999999MA1102301999999MW1001REMMET045DAAD 270700Z 32006KT 8000 SCT013 15/10 Q1023;EQDQ01+000000PRSWM2
0162605150999992000102708004+35320+004190FM-15+0461DAAD V0202801N003110078019N0080001N1+01701+01001999999ADDGA1021+003909999GA2071+007809999GF107991999999999999999999MA1102301999999MW1001REMMET052DAAD 270800Z 28006KT 8000 FEW013 BKN026 17/10 Q1023;EQDQ01+000000PRSWM2
0235605150999992000102709004+35320+004190SY-MT+0461DAAD V0203201N004110900019N0080001N1+01781+00961102421ADDGA1021+007809999GF105991041081008001001021MA1102401999999MD1210211+9999MW1001REMSYN076AAXX  27094 60515 42558 53208 10178 20096 40242 52021 84802 333 84826 95900;MET045DAAD 270900Z 32008KT 8000 SCT026 18/10 Q1024;EQDQ01+000000PRSWM2
0139605150999992000102710004+35320+004190FM-15+0461DAAD V0203201N003112200019N0080001N1+01901+00901999999ADDGA1021+007809999GF104991999999999999999999MA1102401999999MW1001REMMET045DAAD 271000Z 32006KT 8000 SCT026 19/09 Q1024;EQDQ01+000000PRSWM2
0139605150999992000102711004+35320+004190FM-15+0461DAAD V0203201N005112200019N0080001N1+02001+01001999999ADDGA1021+007809999GF104991999999999999999999MA1102401999999MW1001REMMET045DAAD 271100Z 32010KT 8000 SCT026 20/10 Q1024;EQDQ01+000000PRSWM2
0284605150999992000102712004+35320+004190SY-MT+0461DAAD V0203001N008210078019N0080001N1+02021+00961102321ADDAA199000091GA1071+007809999GF199999051081008001001021MA1102301999999MD1810071+9999MW1001REMSYN082AAXX  27124 60515 32558 63016 10202 20096 40232 58007 85802 333 0//00 85826 95900;MET045DAAD 271200Z 30016KT 8000 BKN026 20/10 Q1023;EQDQ01+000062SCOTCVQ02+000000PRSWM2Q03  00002PRCP99
0139605150999992000102713004+35320+004190FM-15+0461DAAD V0203201N006210078019N0080001N1+02101+00901999999ADDGA1071+007809999GF107991999999999999999999MA1102201999999MW1001REMMET045DAAD 271300Z 32012KT 8000 BKN026 21/09 Q1022;EQDQ01+000000PRSWM2
0139605150999992000102714004+35320+004190FM-15+0461DAAD V0203201N006210078019N0080001N1+02101+00801999999ADDGA1071+007809999GF107991999999999999999999MA1102201999999MW1001REMMET045DAAD 271400Z 32012KT 8000 BKN026 21/08 Q1022;EQDQ01+000000PRSWM2
0235605150999992000102715004+35320+004190SY-MT+0461DAAD V0203201N004110078019N0080001N1+02201+00981102051ADDGA1071+007809999GF105991051081008001001001MA1102001999999MD1710161+9999MW1001REMSYN076AAXX  27154 60515 42558 53208 10220 20098 40205 57016 85800 333 85826 95900;MET045DAAD 271500Z 32008KT 8000 BKN026 22/10 Q1020;EQDQ01+000000PRSWM2
0139605150999992000102716004+35320+004190FM-15+0461DAAD V0203201N005110078019N0080001N1+02101+00901999999ADDGA1071+007809999GF107991999999999999999999MA1102201999999MW1001REMMET045DAAD 271600Z 32010KT 8000 BKN026 21/09 Q1022;EQDQ01+000000PRSWM2
0139605150999992000102717004+35320+004190FM-15+0461DAAD V0203201N006210078019N0080001N1+02001+00901999999ADDGA1071+007809999GF107991999999999999999999MA1102201999999MW1001REMMET045DAAD 271700Z 32012KT 8000 BKN026 20/09 Q1022;EQDQ01+000000PRSWM2
0281605150999992000102718004+35320+004190SY-MT+0461DAAD V0203201N006210078019N0080001N1+01861+01141102321ADDAA199000091GA1071+007809999GF106991061081008001001001KA1120M+02171MA1102301999999MD1310091+9999MW1001REMSYN082AAXX  27184 60515 32558 63212 10186 20114 40232 53009 86800 333 10217 86826 95990;MET045DAAD 271800Z 32012KT 8000 BKN026 19/11 Q1023;EQDQ01+000000PRSWM2Q02  00002PRCP99
0271605150999992000102806004+35320+004190SY-MT+0461DAAD V0209999C000012200019N0100001N1+02291+00981102411ADDAA199000091GF100991001001999999001001IA2240+01009KA1120N+01201MA1102401999999MD1610021+9999MW1001REMSYN082AAXX  28064 60515 31960 00000 10229 20098 40241 56002 700// 333 01000 20120 95900;MET039DAAD 280600Z 00000KT CAVOK 13/10 Q1024;EQDQ01+000000PRSWM2Q02  00002PRCP99
0091605150999992000102807004+35320+004190FM-15+0461DAAD V0209999C00001220001CN0099001N1+01402+01101999999ADDMA1102401999999MW1001REMMET039DAAD 280700Z 00000KT CAVOK 14/11 Q1024;EQDQ01+000000PRSWM2
0091605150999992000102808004+35320+004190FM-15+0461DAAD V0209999C00001220001CN0099001N1+01701+01101999999ADDMA1102401999999MW1001REMMET039DAAD 280800Z 00000KT CAVOK 17/11 Q1024;EQDQ01+000000PRSWM2
0235605150999992000102809004+35320+004190SY-MT+0461DAAD V0209999C000012200019N0100001N1+01851+01131102521ADDGA1021+009909999GF102991021021012501001001MA1102511999999MD1310141+9999MW1001REMSYN076AAXX  28094 60515 42660 20000 10185 20113 40252 53014 82200 333 82833 95900;MET045DAAD 280900Z 00000KT 9999 FEW033 19/11 Q1025;EQDQ01+000000PRSWM2
0139605150999992000102810004+35320+004190FM-15+0461DAAD V0209999C000012200019N0112651N1+01901+01101999999ADDGA1021+009909999GF102991999999999999999999MA1102511999999MW1001REMMET045DAAD 281000Z 00000KT 9999 FEW033 19/11 Q1025;EQDQ01+000000PRSWM2
0268605150999992000102812004+35320+004190SY-MT+0461DAAD V0209999C000012200019N0100001N1+02151+01091102451ADDAA199000091GA1021+009909999GF102991021021012501001001MA1102401999999MD1810071+9999MW1001REMSYN082AAXX  28124 60515 32660 20000 10215 20109 40245 58007 82200 333 0//00 82833 95900;MET045DAAD 281200Z 00000KT 9999 FEW033 22/11 Q1024;EQDQ01+000000PRSWM2Q02  00002PRCP99
0139605150999992000102813004+35320+004190FM-15+0461DAAD V0209999C000012200019N0112651N1+02301+01101999999ADDGA1021+009009999GF104991999999999999999999MA1102301999999MW1001REMMET045DAAD 281300Z 00000KT 9999 SCT030 23/11 Q1023;EQDQ01+000000PRSWM2
0139605150999992000102814004+35320+004190FM-15+0461DAAD V0203601N001012200019N0112651N1+02301+01101999999ADDGA1021+009009999GF104991999999999999999999MA1102301999999MW1001REMMET045DAAD 281400Z 36002KT 9999 SCT030 23/11 Q1023;EQDQ01+000000PRSWM2
0144605150999992000102815004+35320+004190FM-12+0461DAAD V0201001N002112200019N0100001N1+02311+01051102301ADDGA1031+009009089GF103991031021008001001001MD1710141+9999REMSYN076AAXX  28154 60515 42560 31004 10231 20105 40230 57014 83200 333 83830 95900;
0139605150999992000102816004+35320+004190FM-15+0461DAAD V0209999C000012200019N0112651N1+02201+01101999999ADDGA1021+009009999GF102991999999999999999999MA1102301999999MW1001REMMET045DAAD 281600Z 00000KT 9999 FEW030 22/11 Q1023;EQDQ01+000000PRSWM2
0139605150999992000102817004+35320+004190FM-15+0461DAAD V0209999C000012200019N0112651N1+02101+01101999999ADDGA1021+009009999GF102991999999999999999999MA1102301999999MW1001REMMET045DAAD 281700Z 00000KT 9999 FEW030 21/11 Q1023;EQDQ01+000000PRSWM2
0281605150999992000102818004+35320+004190SY-MT+0461DAAD V0209999C000012200019N0100001N1+01951+01061102331ADDAA199000091GA1021+009009999GF102991021021008001001001KA1120M+02401MA1102301999999MD1310061+9999MW1001REMSYN082AAXX  28184 60515 32560 20000 10195 20106 40233 53006 82200 333 10240 82830 95900;MET045DAAD 281800Z 00000KT 9999 FEW030 20/11 Q1023;EQDQ01+000000PRSWM2Q02  00002PRCP99
0211605150999992000102906004+35320+004190FM-12+0461DAAD V0209999C000012200019N0100001N1+01091+00911102521ADDAA199000091GA1001+999999999GF100991001001999999001001IA2240+00809KA1120N+00951MD1310031+9999MW1001REMSYN082AAXX  29064 60515 33960 00000 10109 20091 40252 53003 700// 333 00800 20095 95900;EQDQ01  00002PRCP99
0091605150999992000102907004+35320+004190FM-15+0461DAAD V0209999C00001220001CN0099001N1+01101+00901999999ADDMA1102511999999MW1001REMMET039DAAD 290700Z 00000KT CAVOK 11/09 Q1025;EQDQ01+000000PRSWM2
0091605150999992000102908004+35320+004190FM-15+0461DAAD V0209999C00001220001CN0099001N1+01601+01101999999ADDMA1102511999999MW1001REMMET039DAAD 290800Z 00000KT CAVOK 16/11 Q1025;EQDQ01+000000PRSWM2
0235605150999992000102909004+35320+004190SY-MT+0461DAAD V0209999C000012200019N0100001N1+01701+01081102571ADDGA1021+009909999GF102991021021008001001001MA1102511999999MD1110071+9999MW1001REMSYN076AAXX  29094 60515 42560 20000 10170 20108 40257 51007 82200 333 82833 95900;MET045DAAD 290900Z 00000KT 9999 FEW033 17/11 Q1025;EQDQ01+000000PRSWM2
0139605150999992000102910004+35320+004190FM-15+0461DAAD V0209999C000012200019N0112651N1+01801+01101999999ADDGA1021+009909999GF102991999999999999999999MA1102511999999MW1001REMMET045DAAD 291000Z 00000KT 9999 FEW033 18/11 Q1025;EQDQ01+000000PRSWM2
0139605150999992000102911004+35320+004190FM-15+0461DAAD V0209999C000012200019N0112651N1+02001+01101999999ADDGA1021+009909999GF102991999999999999999999MA1102511999999MW1001REMMET045DAAD 291100Z 00000KT 9999 FEW033 20/11 Q1025;EQDQ01+000000PRSWM2
0268605150999992000102912004+35320+004190SY-MT+0461DAAD V0209999C000012200019N0100001N1+02131+01111102411ADDAA199000091GA1021+009009999GF103991031021008001001001MA1102401999999MD1810121+9999MW1001REMSYN082AAXX  29124 60515 32560 30000 10213 20111 40241 58012 83200 333 0//00 83833 95900;MET045DAAD 291200Z 00000KT 9999 SCT030 21/11 Q1024;EQDQ01+000000PRSWM2Q02  00002PRCP99
0092605150999992000102914004+35320+004190FM-15+0461DAAD V0209999C000012200019N0112651N1+02301+01101999999ADDMA1102201999999MW1001REMMET040DAAD 291400Z 00000KT SCT030 23/11 Q1022;EQDQ01+000000PRSWM2
0235605150999992000102915004+35320+004190SY-MT+0461DAAD V0209999C000012200019N0100001N1+02251+01061102261ADDGA1021+009009999GF103991031021008001001001MA1102201999999MD1710161+9999MW1001REMSYN076AAXX  29154 60515 42560 30000 10225 20106 40226 57016 83200 333 83830 95900;MET045DAAD 291500Z 00000KT 9999 SCT030 23/11 Q1022;EQDQ01+000000PRSWM2
0139605150999992000102916004+35320+004190FM-15+0461DAAD V0209999C000012200019N0112651N1+02201+01101999999ADDGA1021+009909999GF102991999999999999999999MA1102301999999MW1001REMMET045DAAD 291600Z 00000KT 9999 FEW033 22/11 Q1023;EQDQ01+000000PRSWM2
0139605150999992000102917004+35320+004190FM-15+0461DAAD V0209999C000012200019N0112651N1+02101+01001999999ADDGA1021+009009999GF102991999999999999999999MA1102201999999MW1001REMMET045DAAD 291700Z 00000KT 9999 FEW030 21/10 Q1022;EQDQ01+000000PRSWM2
0281605150999992000102918004+35320+004190SY-MT+0461DAAD V0209999C000012200019N0100001N1+01941+01141102301ADDAA199000091GA1021+009009999GF102991021021008001001001KA1120M+02291MA1102301999999MD1310061+9999MW1001REMSYN082AAXX  29184 60515 32560 20000 10194 20114 40230 53006 82200 333 10229 82830 95990;MET045DAAD 291800Z 00000KT 9999 FEW030 19/11 Q1023;EQDQ01+000000PRSWM2Q02  00002PRCP99
0299605150999992000103006004+35320+004190SY-MT+0461DAAD V0209999C000012200019N0100001N1+01011+00781102121ADDAA199000091GA1021+069009019GF102991001001999999001021IA2240+00809KA1120N+00951MA1102101999999MD1610061+9999MW1001REMSYN094AAXX  30064 60515 31960 20000 10101 20078 40212 56006 700// 80002 333 00800 20095 82073 95900;MET039DAAD 300600Z 00000KT CAVOK 10/08 Q1021;EQDQ01+000000PRSWM2Q02  00002PRCP99
0091605150999992000103007004+35320+004190FM-15+0461DAAD V0209999C00001220001CN0099001N1+01101+00801999999ADDMA1102201999999MW1001REMMET039DAAD 300700Z 00000KT CAVOK 11/08 Q1022;EQDQ01+000000PRSWM2
0091605150999992000103008004+35320+004190FM-15+0461DAAD V0209999C00001220001CN0099001N1+01301+01001999999ADDMA1102301999999MW1001REMMET039DAAD 300800Z 00000KT CAVOK 13/10 Q1023;EQDQ01+000000PRSWM2
0229605150999992000103009004+35320+004190SY-MT+0461DAAD V0203601N001012200019N0100001N1+01501+00931102351ADDGA1021+069009019GF102991001001999999001021MA1102301999999MD1310081+9999MW1001REMSYN076AAXX  30094 60515 42960 23602 10150 20093 40235 53008 80002 333 82073 95900;MET039DAAD 300900Z 36002KT CAVOK 15/09 Q1023;EQDQ01+000000PRSWM2
0139605150999992000103010004+35320+004190FM-15+0461DAAD V0203601N001012200019N0112651N1+01701+01001999999ADDGA1021+009909999GF102991999999999999999999MA1102301999999MW1001REMMET045DAAD 301000Z 36002KT 9999 FEW033 17/10 Q1023;EQDQ01+000000PRSWM2
0139605150999992000103011004+35320+004190FM-15+0461DAAD V0209999C000012200019N0112651N1+01901+01101999999ADDGA1021+009909999GF102991999999999999999999MA1102301999999MW1001REMMET045DAAD 301100Z 00000KT 9999 FEW033 19/11 Q1023;EQDQ01+000000PRSWM2
0268605150999992000103012004+35320+004190SY-MT+0461DAAD V0209999C000012200019N0100001N1+02101+01021102181ADDAA199000091GA1021+009009999GF103991021021008001001021MA1102101999999MD1810141+9999MW1001REMSYN082AAXX  30124 60515 32560 30000 10210 20102 40218 58014 82202 333 0//00 82830 95900;MET045DAAD 301200Z 00000KT 9999 FEW030 21/10 Q1021;EQDQ01+000000PRSWM2Q02  00002PRCP99
0139605150999992000103013004+35320+004190FM-15+0461DAAD V0200201N003112200019N0112651N1+02301+01501999999ADDGA1021+009009999GF102991999999999999999999MA1101801999999MW1001REMMET045DAAD 301300Z 02006KT 9999 FEW030 23/15 Q1018;EQDQ01+000000PRSWM2
0139605150999992000103014004+35320+004190FM-15+0461DAAD V0200401N001012200019N0112651N1+02401+00901999999ADDGA1021+009009999GF104991999999999999999999MA1101901999999MW1001REMMET045DAAD 301400Z 04002KT 9999 SCT030 24/09 Q1019;EQDQ01+000000PRSWM2
0235605150999992000103015004+35320+004190SY-MT+0461DAAD V0209999C000012200019N0100001N1+02401+00981101901ADDGA1021+009009999GF103991031021008001001001MA1101901999999MD1710251+9999MW1001REMSYN076AAXX  30154 60515 42560 30000 10240 20098 40190 57025 83200 333 83833 95900;MET045DAAD 301500Z 00000KT 9999 SCT030 24/10 Q1019;EQDQ01+000000PRSWM2
0139605150999992000103016004+35320+004190FM-15+0461DAAD V0201201N001012200019N0112651N1+02301+00901999999ADDGA1021+009009999GF102991999999999999999999MA1101801999999MW1001REMMET045DAAD 301600Z 12002KT 9999 FEW030 23/09 Q1018;EQDQ01+000000PRSWM2
0139605150999992000103017004+35320+004190FM-15+0461DAAD V0209999C000012200019N0112651N1+02201+00901999999ADDGA1021+009009999GF102991999999999999999999MA1101691999999MW1001REMMET045DAAD 301700Z 00000KT 9999 FEW030 22/09 Q1017;EQDQ01+000000PRSWM2
0281605150999992000103018004+35320+004190SY-MT+0461DAAD V0209999C000012200019N0100001N1+01931+00961101871ADDAA199000091GA1021+009009999GF102991021021008001001001KA1120M+02421MA1101801999999MD1010081+9999MW1001REMSYN082AAXX  30184 60515 32560 20000 10193 20096 40187 50008 82200 333 10242 82830 95990;MET045DAAD 301800Z 00000KT 9999 FEW030 19/10 Q1018;EQDQ01+000000PRSWM2Q02  00002PRCP99
0091605150999992000103106004+35320+004190FM-15+0461DAAD V0202601N00211220001CN0099001N1+01701+00701999999ADDMA1101491999999MW1001REMMET039DAAD 310600Z 26004KT CAVOK 17/07 Q1015;EQDQ01+000000PRSWM2
0091605150999992000103107004+35320+004190FM-15+0461DAAD V0200601N00621220001CN0099001N1+01401+00701999999ADDMA1101591999999MW1001REMMET039DAAD 310700Z 06012KT CAVOK 14/07 Q1016;EQDQ01+000000PRSWM2
0091605150999992000103108004+35320+004190FM-15+0461DAAD V0209999C00001220001CN0099001N1+01601+00801999999ADDMA1101591999999MW1001REMMET039DAAD 310800Z 00000KT CAVOK 16/08 Q1016;EQDQ01+000000PRSWM2
0180605150999992000103112004+35320+004190FM-12+0461DAAD V0203401N009312200019N0080001N1+02481+00331101511ADDAA199000091GA1021+012009089GF103991021021012501001021MD1810131+9999REMSYN082AAXX  31124 60515 32658 33418 10248 20033 40151 58013 82202 333 0//00 82840 95900;EQDQ01  00002PRCP99
0155605150999992000103113004+35320+004190FM-15+0461DAAD V0203401N013412200019N9999999N1+02501+00501999999ADDGA1021+009909999GF102991999999999999999999MA1101391999999MW1001REMMET045DAAD 311300Z 34026KT 7000 FEW033 25/05 Q1014;EQDQ01+070002VODIS Q02+000000PRSWM2
0139605150999992000103114004+35320+004190FM-15+0461DAAD V0202601N006212200019N0112651N1+02501+00401999999ADDGA1021+009909999GF102991999999999999999999MA1101391999999MW1001REMMET045DAAD 311400Z 26012KT 9999 FEW033 25/04 Q1014;EQDQ01+000000PRSWM2
0178605150999992000103115004+35320+004190FM-15+0461DAAD V0202601N006212200019N9999999N1+02501+00501999999ADDGA1021+009909999GA2021+060009999GF104991999999999999999999MA1101291999999MW1001REMMET052DAAD 311500Z 26012KT 6000 FEW033 SCT200 25/05 Q1013;EQDQ01+060002VODIS Q02+000000PRSWM2
0162605150999992000103117004+35320+004190FM-15+0461DAAD V0202601N007212200019N0060001N1+02101+00601999999ADDGA1021+009009999GA2021+024009999GF104991999999999999999999MA1101391999999MW1001REMMET052DAAD 311700Z 26014KT 6000 FEW030 SCT080 21/06 Q1014;EQDQ01+000000PRSWM2
0342605150999992000103118004+35320+004190SY-MT+0461DAAD V0202601N008210600019N9999999N1+01941+00671101481ADDAA199000091GA1021+009009999GA2071+060009999GF199999021021008001001021KA1120M+02521MA1101391999999MD1610021+9999MW1001REMSYN088AAXX  31184 60515 32556 62616 10194 20067 40148 56002 82202 333 10252 82830 85070 95990;MET052DAAD 311800Z 26016KT 6000 FEW030 BKN200 19/07 Q1014;EQDQ01+000062SCOTCVQ02+060002VODIS Q03+000000PRSWM2Q04  00002PRCP99
0305605150999992000110106004+35320+004190SY-MT+0461DAAD V0202801N004110090019N0100001N1+01751+00741101871ADDAA199000091GA1071+009009999GF107991071021008001999999IA2240+01109KA1120N+01501MA1101801999999MD1410001+9999MW1001REMSYN094AAXX  01064 60515 31560 72808 10175 20074 40187 54000 700// 872// 333 01100 20150 87830 95990;MET045DAAD 010600Z 28008KT 9999 BKN030 18/07 Q1018;EQDQ01+000000PRSWM2Q02  00002PRCP99
0139605150999992000110108004+35320+004190FM-15+0461DAAD V0203001N002112200019N0112651N1+01601+00701999999ADDGA1021+009909999GF104991999999999999999999MA1102001999999MW1001REMMET045DAAD 010800Z 30004KT 9999 SCT033 16/07 Q1020;EQDQ01+000000PRSWM2
0235605150999992000110109004+35320+004190SY-MT+0461DAAD V0202801N002112200019N0100001N1+01761+00661102031ADDGA1021+009909999GF103991021021012501001021MA1102001999999MD1110151+9999MW1001REMSYN076AAXX  01094 60515 42660 32804 10176 20066 40203 51015 82202 333 82833 95900;MET045DAAD 010900Z 28004KT 9999 FEW033 18/07 Q1020;EQDQ01+000000PRSWM2
0139605150999992000110110004+35320+004190FM-15+0461DAAD V0202801N008212200019N0112651N1+01901+00601999999ADDGA1021+009909999GF102991999999999999999999MA1102001999999MW1001REMMET045DAAD 011000Z 28016KT 9999 FEW033 19/06 Q1020;EQDQ01+000000PRSWM2
0139605150999992000110111004+35320+004190FM-15+0461DAAD V0202701N010312200019N0112651N1+02001+00201999999ADDGA1021+009909999GF104991999999999999999999MA1102001999999MW1001REMMET045DAAD 011100Z 27020KT 9999 SCT033 20/02 Q1020;EQDQ01+000000PRSWM2
0268605150999992000110112004+35320+004190SY-MT+0461DAAD V0203001N008212200019N0100001N1+02001+00131101991ADDAA199000091GA1021+009909999GF104991031021012501001021MA1101901999999MD1810041+9999MW1001REMSYN082AAXX  01124 60515 32660 43016 10200 20013 40199 58004 83202 333 0//00 83833 95900;MET045DAAD 011200Z 30016KT 9999 SCT033 20/01 Q1019;EQDQ01+000000PRSWM2Q02  00002PRCP99
0139605150999992000110114004+35320+004190FM-15+0461DAAD V0202801N003112200019N0112651N1+02201+00201999999ADDGA1021+009009999GF104991999999999999999999MA1101901999999MW1001REMMET045DAAD 011400Z 28006KT 9999 SCT030 22/02 Q1019;EQDQ01+000000PRSWM2
0235605150999992000110115004+35320+004190SY-MT+0461DAAD V0202801N003112200019N0100001N1+02101+00041101861ADDGA1021+009009999GF103991031021008001001001MA1101801999999MD1610101+9999MW1001REMSYN076AAXX  01154 60515 42560 32806 10210 20004 40186 56010 83200 333 83830 95900;MET045DAAD 011500Z 28006KT 9999 SCT030 21/00 Q1018;EQDQ01+000000PRSWM2
0140605150999992000110116004+35320+004190FM-15+0461DAAD V0202801N004112200019N0112651N1+02101-00101999999ADDGA1021+009009999GF102991999999999999999999MA1101801999999MW1001REMMET046DAAD 011600Z 28008KT 9999 FEW030 21/M01 Q1018;EQDQ01+000000PRSWM2
0140605150999992000110117004+35320+004190FM-15+0461DAAD V0202801N002112200019N0112651N1+01901-00201999999ADDGA1021+009009999GF102991999999999999999999MA1101901999999MW1001REMMET046DAAD 011700Z 28004KT 9999 FEW030 19/M02 Q1019;EQDQ01+000000PRSWM2
0281605150999992000110118004+35320+004190SY-MT+0461DAAD V0209999C000012200019N0100001N1+01841+00021102041ADDAA199000091GA1021+009009999GF102991021021008001001001KA1120M+02161MA1102001999999MD1310011+9999MW1001REMSYN082AAXX  01184 60515 32560 20000 10184 20002 40204 53001 82200 333 10216 82830 95900;MET045DAAD 011800Z 00000KT 9999 FEW030 18/02 Q1020;EQDQ01+000000PRSWM2Q02  00002PRCP99
0211605150999992000110206004+35320+004190FM-12+0461DAAD V0209999C000012200019N0100001N1+00621+99999102071ADDAA199000091GA1001+999999999GF100991001001999999001001IA2240+00509KA1120N+00661MD1310011+9999MW1001REMSYN082AAXX  02064 60515 32960 00000 10062 20071 40207 53001 700// 333 00500 20066 95900;EQDQ01  00002PRCP99
0076605150999992000110208004+35320+004190FM-15+0461DAAD V0202201N00261220001CN0099001N1+00901+00501999999ADDMW1001REMMET039DAAD 020800Z 22005KT CAVOK 09/05 Q////;EQDQ01+000000PRSWM2
0201605150999992000110209004+35320+004190SY-MT+0461DAAD V0209999C000012200019N0100001N1+01441+00531102121ADDGF100991001001999999001001MA1102101999999MD1110071+9999MW1001REMSYN064AAXX  02094 60515 42960 00000 10144 20053 40212 51007 333 95900;MET039DAAD 020900Z 00000KT CAVOK 14/05 Q1021;EQDQ01+000000PRSWM2
0091605150999992000110210004+35320+004190FM-15+0461DAAD V0209999C00001220001CN0099001N1+01601+00601999999ADDMA1102101999999MW1001REMMET039DAAD 021000Z 00000KT CAVOK 16/06 Q1021;EQDQ01+000000PRSWM2
0091605150999992000110211004+35320+004190FM-15+0461DAAD V0209999C00001220001CN0099001N1+01701+00601999999ADDMA1102201999999MW1001REMMET039DAAD 021100Z 00000KT CAVOK 17/06 Q1022;EQDQ01+000000PRSWM2
0284605150999992000110212004+35320+004190SY-MT+0461DAAD V0209999C000012200019N0100001N1+01881+00781101891ADDAA199000091GA1021+012009999GF199999011021012501001001MA1101802999999MD1610181+9999MW1001REMSYN082AAXX  02124 60515 32660 10000 10188 20078 40189 56018 81200 333 0//00 81840 95900;MET045DAAD 021200Z 00000KT 9999 FEW040 19/08 Q1018;EQDQ01+000012SCOTCVQ02+000000PRSWM2Q03  00002PRCP99
0139605150999992000110213004+35320+004190FM-15+0461DAAD V0209999C000012200019N0112651N1+02001+00601999999ADDGA1021+012009999GF102991999999999999999999MA1101801999999MW1001REMMET045DAAD 021300Z 00000KT 9999 FEW040 20/06 Q1018;EQDQ01+000000PRSWM2
0139605150999992000110214004+35320+004190FM-15+0461DAAD V0209999C000012200019N0112651N1+02001+00701999999ADDGA1021+012009999GF102991999999999999999999MA1101801999999MW1001REMMET045DAAD 021400Z 00000KT 9999 FEW040 20/07 Q1018;EQDQ01+000000PRSWM2
0267605150999992000110215004+35320+004190SY-MT+0461DAAD V0209999C000012200019N0100001N1+02101+00061999999ADDGA1021+012009999GF102991999021012501001001MA1101691999999MD1710111+9999MW1001REMSYN076AAXX  02154 60515 42660 20000 10210 20006 40017 57011 81200 333 81840 95900;MET045DAAD 021500Z 00000KT 9999 FEW040 21/05 Q1017;EQDQ01+000012SCOTLCQ02+100173APOSLPQ03+000000PRSWM2
0181605150999992000110218004+35320+004190FM-12+0461DAAD V0209999C000012200019N0100001N1+01851+00681101671ADDAA199000091GA1001+999999999GF100991001001999999001001KA1120M+02261MD1510071+9999REMSYN070AAXX  02184 60515 32960 00000 10185 20068 40167 55007 333 10226 95990;EQDQ01  00002PRCP99
0091605150999992000110306004+35320+004190FM-15+0461DAAD V0200401N00101220001CN0099001N1+01101+00601999999ADDMA1101591999999MW1001REMMET039DAAD 030600Z 04002KT CAVOK 11/06 Q1016;EQDQ01+000000PRSWM2
0091605150999992000110307004+35320+004190FM-15+0461DAAD V0209999C00001220001CN0099001N1+01101+00601999999ADDMA1101591999999MW1001REMMET039DAAD 030700Z 00000KT CAVOK 11/06 Q1016;EQDQ01+000000PRSWM2
0091605150999992000110308004+35320+004190FM-15+0461DAAD V0209999C00001220001CN0099001N1+01301+00701999999ADDMA1101591999999MW1001REMMET039DAAD 030800Z 00000KT CAVOK 13/07 Q1016;EQDQ01+000000PRSWM2
0229605150999992000110309004+35320+004190SY-MT+0461DAAD V0209999C000012200019N0100001N1+01531+00761101641ADDGA1021+069009019GF102991001001999999001021MA1101591999999MD1310091+9999MW1001REMSYN076AAXX  03094 60515 42960 20000 10153 20076 40164 53009 80002 333 82073 95900;MET039DAAD 030900Z 00000KT CAVOK 15/08 Q1016;EQDQ01+000000PRSWM2
0091605150999992000110310004+35320+004190FM-15+0461DAAD V0209999C00001220001CN0099001N1+01801+00801999999ADDMA1101591999999MW1001REMMET039DAAD 031000Z 00000KT CAVOK 18/08 Q1016;EQDQ01+000000PRSWM2
0162605150999992000110311004+35320+004190FM-15+0461DAAD V0200601N002110600019N0112651N1+02201+00901999999ADDGA1021+012009999GA2071+060009999GF107991999999999999999999MA1101491999999MW1001REMMET052DAAD 031100Z 06004KT 9999 FEW040 BKN200 22/09 Q1015;EQDQ01+000000PRSWM2
0202605150999992000110312004+35320+004190FM-12+0461DAAD V0200601N003110600019N0100001N1+02251+00881101441ADDAA199000091GA1011+012009089GA2041+060009009GF105991011021012501001021MD1810121+9999REMSYN088AAXX  03124 60515 32660 50606 10225 20088 40144 58012 81202 333 0//00 81840 84070 95900;EQDQ01  00002PRCP99
0162605150999992000110313004+35320+004190FM-15+0461DAAD V0200601N004110600019N0112651N1+02301+00801999999ADDGA1021+012009999GA2071+060009999GF107991999999999999999999MA1101291999999MW1001REMMET052DAAD 031300Z 06008KT 9999 FEW040 BKN200 23/08 Q1013;EQDQ01+000000PRSWM2
0139605150999992000110314004+35320+004190FM-15+0461DAAD V0203601N001012200019N0112651N1+02501+00601999999ADDGA1021+012009999GF102991999999999999999999MA1101191999999MW1001REMMET045DAAD 031400Z 36002KT 9999 FEW040 25/06 Q1012;EQDQ01+000000PRSWM2
0235605150999992000110315004+35320+004190SY-MT+0461DAAD V0203601N006212200019N0100001N1+02471+00211101261ADDGA1021+012009999GF103991021021012501001021MA1101191999999MD1610221+9999MW1001REMSYN076AAXX  03154 60515 42660 33612 10247 20021 40126 56022 82202 333 82840 95900;MET045DAAD 031500Z 36012KT 9999 FEW040 25/02 Q1012;EQDQ01+000000PRSWM2
0140605150999992000110316004+35320+004190FM-15+0461DAAD V0203601N005112200019N0112651N1+02501-00101999999ADDGA1021+012009999GF102991999999999999999999MA1101191999999MW1001REMMET046DAAD 031600Z 36010KT 9999 FEW040 25/M01 Q1012;EQDQ01+000000PRSWM2
0139605150999992000110317004+35320+004190FM-15+0461DAAD V0203601N004112200019N0112651N1+02301+00301999999ADDGA1021+009909999GF104991999999999999999999MA1101291999999MW1001REMMET045DAAD 031700Z 36008KT 9999 SCT033 23/03 Q1013;EQDQ01+000000PRSWM2
0310605150999992000110318004+35320+004190SY-MT+0461DAAD V0200201N00621036001CN0100001N1+02201+00321101541ADDAA199000091GA1021+009909999GA2021+024009999GF105991031021012501081001KA1120M+02561MA1101491999999MD1310211+9999MW1001REMSYN088AAXX  03184 60515 32660 50212 10220 20032 40154 53021 83280 333 10256 83833 83358 95990;MET052DAAD 031800Z 02012KT 9999 SCT033 SCT080 22/03 Q1015;EQDQ01+000000PRSWM2Q02  00002PRCP99
0305605150999992000110406004+35320+004190SY-MT+0461DAAD V0202801N002112200019N0100001N1+01301+00581102031ADDAA199000091GA1021+012009999GF103991011081012501001021IA2240+01109KA1120N+01241MA1102001999999MD1310081+9999MW1001REMSYN094AAXX  04064 60515 33660 32804 10130 20058 40203 53008 700// 81802 333 01100 20124 81840 95900;MET045DAAD 040600Z 28004KT 9999 FEW040 13/06 Q1020;EQDQ01+000000PRSWM2Q02  00002PRCP99
0162605150999992000110407004+35320+004190FM-15+0461DAAD V0203201N003112200019N0112651N1+01301+00601999999ADDGA1021+009909999GA2021+060009999GF104991999999999999999999MA1102001999999MW1001REMMET052DAAD 040700Z 32006KT 9999 FEW033 SCT200 13/06 Q1020;EQDQ01+000000PRSWM2
0162605150999992000110408004+35320+004190FM-15+0461DAAD V0202801N006212200019N0112651N1+01401+00701999999ADDGA1021+009909999GA2021+060009999GF104991999999999999999999MA1102101999999MW1001REMMET052DAAD 040800Z 28012KT 9999 FEW033 SCT200 14/07 Q1021;EQDQ01+000000PRSWM2
0235605150999992000110409004+35320+004190SY-MT+0461DAAD V0202801N006212200019N0100001N1+01521+00631102211ADDGA1021+009909999GF103991021081012501001021MA1102201999999MD1210151+9999MW1001REMSYN076AAXX  04094 60515 42660 32812 10152 20063 40221 52015 82802 333 82833 95900;MET045DAAD 040900Z 28012KT 9999 FEW033 15/06 Q1022;EQDQ01+000000PRSWM2
0139605150999992000110410004+35320+004190FM-15+0461DAAD V0202801N002112200019N0112651N1+01701+00501999999ADDGA1021+009009999GF102991999999999999999999MA1102201999999MW1001REMMET045DAAD 041000Z 28004KT 9999 FEW030 17/05 Q1022;EQDQ01+000000PRSWM2
0139605150999992000110411004+35320+004190FM-15+0461DAAD V0203001N008212200019N0112651N1+01701+00401999999ADDGA1021+007809999GF104991999999999999999999MA1102201999999MW1001REMMET045DAAD 041100Z 30016KT 9999 SCT026 17/04 Q1022;EQDQ01+000000PRSWM2
0284605150999992000110412004+35320+004190SY-MT+0461DAAD V0203001N006210078019N0100001N1+01811+00321102161ADDAA199000091GA1071+007809999GF199999051021008001001021MA1102101999999MD1810021+9999MW1001REMSYN082AAXX  04124 60515 32560 53012 10181 20032 40216 58002 85202 333 0//00 85826 95900;MET045DAAD 041200Z 30012KT 9999 BKN026 18/03 Q1021;EQDQ01+000052SCOTCVQ02+000000PRSWM2Q03  00002PRCP99
0162605150999992000110414004+35320+004190FM-15+0461DAAD V0202801N006212200019N0112651N1+01901+00201999999ADDGA1021+007809999GA2021+060009999GF104991999999999999999999MA1102001999999MW1001REMMET052DAAD 041400Z 28012KT 9999 SCT026 SCT200 19/02 Q1020;EQDQ01+000000PRSWM2
0296605150999992000110415004+35320+004190SY-MT+0461DAAD V0202801N00511069001CN0100001N1+01861+99999102071ADDGA1021+009909999GA2071+069009999GF199999021081008001001021MA1102001999999MD1710111+9999MW1001REMSYN082AAXX  04154 60515 42560 62810 10186 20110 40207 57011 82802 333 82833 85070 95900;MET052DAAD 041500Z 28010KT 9999 FEW033 BKN230 19/11 Q1020;EQDQ01+000062SCOTCVQ02+001103ATOD  Q03+000000PRSWM2
0162605150999992000110416004+35320+004190FM-15+0461DAAD V0203001N006210600019N0112651N1+01901+00201999999ADDGA1021+009909999GA2071+060009999GF107991999999999999999999MA1102001999999MW1001REMMET052DAAD 041600Z 30012KT 9999 FEW033 BKN200 19/02 Q1020;EQDQ01+000000PRSWM2
0162605150999992000110417004+35320+004190FM-15+0461DAAD V0203001N003110600019N0112651N1+01701+00301999999ADDGA1021+009909999GA2071+060009999GF107991999999999999999999MA1102101999999MW1001REMMET052DAAD 041700Z 30006KT 9999 FEW033 BKN200 17/03 Q1021;EQDQ01+000000PRSWM2
0326605150999992000110418004+35320+004190SY-MT+0461DAAD V0202801N002110600019N0100001N1+01581+00351102231ADDAA199000091GA1021+009909999GA2071+060009999GF199999021081008001001021KA1120M+01941MA1102201999999MD1310101+9999MW1001REMSYN088AAXX  04184 60515 32560 62804 10158 20035 40223 53010 82802 333 10194 82833 85070 95900;MET052DAAD 041800Z 28004KT 9999 FEW033 BKN200 16/04 Q1022;EQDQ01+000062SCOTCVQ02+000000PRSWM2Q03  00002PRCP99
0139605150999992000110506004+35320+004190FM-15+0461DAAD V0202801N006210090019N0112651N1+01301+00501999999ADDGA1081+009009999GF108991999999999999999999MA1102201999999MW1001REMMET045DAAD 050600Z 28012KT 9999 OVC030 13/05 Q1022;EQDQ01+000000PRSWM2
0139605150999992000110507004+35320+004190FM-15+0461DAAD V0202801N007210090019N0112651N1+01301+00201999999ADDGA1081+009009999GF108991999999999999999999MA1102301999999MW1001REMMET045DAAD 050700Z 28014KT 9999 OVC030 13/02 Q1023;EQDQ01+000000PRSWM2
0139605150999992000110508004+35320+004190FM-15+0461DAAD V0202201N002110090019N0112651N1+01401+00301999999ADDGA1081+009009999GF108991999999999999999999MA1102401999999MW1001REMMET045DAAD 050800Z 22004KT 9999 OVC030 14/03 Q1024;EQDQ01+000000PRSWM2
0235605150999992000110509004+35320+004190SY-MT+0461DAAD V0202801N005110090019N0100001N1+01401+00311102421ADDGA1081+009009999GF108991081021008001999999MA1102401999999MD1310141+9999MW1001REMSYN076AAXX  05094 60515 42560 82810 10140 20031 40242 53014 882// 333 88830 95900;MET045DAAD 050900Z 28010KT 9999 OVC030 14/03 Q1024;EQDQ01+000000PRSWM2
0139605150999992000110510004+35320+004190FM-15+0461DAAD V0202801N005110090019N0112651N1+01601+00401999999ADDGA1081+009009999GF108991999999999999999999MA1102401999999MW1001REMMET045DAAD 051000Z 28010KT 9999 OVC030 16/04 Q1024;EQDQ01+000000PRSWM2
0139605150999992000110511004+35320+004190FM-15+0461DAAD V0202801N004110090019N0112651N1+01601+00401999999ADDGA1081+009009999GF108991999999999999999999MA1102301999999MW1001REMMET045DAAD 051100Z 28008KT 9999 OVC030 16/04 Q1023;EQDQ01+000000PRSWM2
0268605150999992000110512004+35320+004190SY-MT+0461DAAD V0202801N004110090019N0100001N1+01721+00441102281ADDAA199000091GA1071+009009999GF107991071021008001001001MA1102201999999MD1810101+9999MW1001REMSYN082AAXX  05124 60515 32560 72808 10172 20044 40228 58010 87200 333 0//00 87830 95900;MET045DAAD 051200Z 28008KT 9999 BKN030 17/04 Q1022;EQDQ01+000000PRSWM2Q02  00002PRCP99
0139605150999992000110513004+35320+004190FM-15+0461DAAD V0203401N002110090019N0112651N1+01701+00401999999ADDGA1071+009009999GF107991999999999999999999MA1102101999999MW1001REMMET045DAAD 051300Z 34004KT 9999 BKN030 17/04 Q1021;EQDQ01+000000PRSWM2
0139605150999992000110514004+35320+004190FM-15+0461DAAD V0209999C000012200019N0112651N1+01901+00501999999ADDGA1021+009909999GF102991999999999999999999MA1102101999999MW1001REMMET045DAAD 051400Z 00000KT 9999 FEW033 19/05 Q1021;EQDQ01+000000PRSWM2
0229605150999992000110515004+35320+004190SY-MT+0461DAAD V0200901N002112200019N0100001N1+01861+00401102061ADDGA1021+069009019GF102991001001999999001021MA1102001999999MD1710211+9999MW1001REMSYN076AAXX  05154 60515 42960 20904 10186 20040 40206 57021 80002 333 82073 95900;MET039DAAD 051500Z 09004KT CAVOK 19/04 Q1020;EQDQ01+000000PRSWM2
0091605150999992000110517004+35320+004190FM-15+0461DAAD V0209999C00001220001CN0099001N1+01701+00501999999ADDMA1102001999999MW1001REMMET039DAAD 051700Z 00000KT CAVOK 17/05 Q1020;EQDQ01+000000PRSWM2
0275605150999992000110518004+35320+004190SY-MT+0461DAAD V0209999C000012200019N0100001N1+01471+00571102101ADDAA199000091GA1011+060009019GF101991001001999999001021KA1120M+01901MA1102101999999MD1510001+9999MW1001REMSYN082AAXX  05184 60515 32960 10000 10147 20057 40210 55000 80002 333 10190 81070 95990;MET039DAAD 051800Z 00000KT CAVOK 15/06 Q1021;EQDQ01+000000PRSWM2Q02  00002PRCP99
0289605150999992000110606004+35320+004190SY-MT+0461DAAD V0209999C00001220001CN0100001N1+00751+00321101641ADDAA199000091GF104991021001999999071021IA2240-01009KA1120N+00551MA1101591999999MD1610141+9999MW1001REMSYN100AAXX  06064 60515 33960 40000 10075 20032 40164 56014 700// 82072 333 06000 20055 82358 83070 95900;MET039DAAD 060600Z 00000KT CAVOK 08/03 Q1016;EQDQ01+000000PRSWM2Q02  00002PRCP99
0091605150999992000110607004+35320+004190FM-15+0461DAAD V0209999C00001220001CN0099001N1+00801+00401999999ADDMA1101491999999MW1001REMMET039DAAD 060700Z 00000KT CAVOK 08/04 Q1015;EQDQ01+000000PRSWM2
0091605150999992000110608004+35320+004190FM-15+0461DAAD V0209999C00001220001CN0099001N1+01001+00501999999ADDMA1101591999999MW1001REMMET039DAAD 060800Z 00000KT CAVOK 10/05 Q1016;EQDQ01+000000PRSWM2
0166605150999992000110609004+35320+004190FM-12+0461DAAD V0209999C000012200019N0100001N1+01291+00521101621ADDGA1021+024009039GA2031+060009009GF104991021001999999071021MD1410001+9999REMSYN082AAXX  06094 60515 42960 40000 10129 20052 40162 54000 82072 333 82358 83070 95900;
0091605150999992000110610004+35320+004190FM-15+0461DAAD V0209999C00001220001CN0099001N1+01401+00501999999ADDMA1101491999999MW1001REMMET039DAAD 061000Z 00000KT CAVOK 14/05 Q1015;EQDQ01+000000PRSWM2
0091605150999992000110611004+35320+004190FM-15+0461DAAD V0209999C00001220001CN0099001N1+01801+00301999999ADDMA1101291999999MW1001REMMET039DAAD 061100Z 00000KT CAVOK 18/03 Q1013;EQDQ01+000000PRSWM2
0256605150999992000110612004+35320+004190SY-MT+0461DAAD V0200601N003112200019N0100001N1+02081+00461101191ADDAA199000091GA1041+060009019GF104991001001999999001021MA1101081999999MD1610351+9999MW1001REMSYN076AAXX  06124 60515 32960 40606 10208 20046 40119 56035 80002 333 84070 95900;MET039DAAD 061200Z 06006KT CAVOK 21/05 Q1011;EQDQ01+000000PRSWM2Q02  00002PRCP99
0156605150999992000110613004+35320+004190FM-15+0461DAAD V0202801N005112200019N9999999N1+02601+00001999999ADDGA1021+060009999GF104991999999999999999999MA1101021999999MW1001REMMET046DAAD 061300Z 28010KT 7000 SCT200 26/M00 Q1010;EQDQ01+070002VODIS Q02+000000PRSWM2
0137605150999992000110614004+35320+004190FM-15+0461DAAD V0202601N007212200019N9999999N1+02701-00201999999ADDGF100991999999999999999999MA1100911999999MW1001REMMET043DAAD 061400Z 26014KT 6000 SKC 27/M02 Q1009;EQDQ01+060002VODIS Q02+000000PRSWM2
0228605150999992000110615004+35320+004190SY-MT+0461DAAD V0202601N010312200019N0035001N1+02631-00451100801ADDAY101031AY211031GF100991001001999999001001MA1100811999999MD1710331+9999MW1071REMSYN070AAXX  06154 60515 41935 02620 10263 21045 40080 57033 70701 333 95970;MET044DAAD 061500Z 26020KT 3500 BLSA 26/M05 Q1008;EQDQ01    003PRSWM1
0137605150999992000110616004+35320+004190FM-15+0461DAAD V0202601N010312200019N9999999N1+02501-00501999999ADDGF100991999999999999999999MA1100811999999MW1001REMMET043DAAD 061600Z 26020KT 3500 SKC 25/M05 Q1008;EQDQ01+035002VODIS Q02+000000PRSWM2
0141605150999992000110617004+35320+004190FM-15+0461DAAD V0202801N011312200019N0035001N1+02301+00402999999ADDGF100991999999999999999999MA1100811999999MW1071REMMET047DAAD 061700Z 28022KT 3500 BLSA SKC 23/04 Q1008;EQDQ01+000003PRSWM1Q02    003PRSWM1
0278605150999992000110618004+35320+004190SY-MT+0461DAAD V0202801N010312200019N0035001N1+02101-00211100761ADDAA199000091AY101061AY211061GF100991001001999999001001KA1120M+02701MA1100711999999MD1610161+9999MW1071REMSYN076AAXX  06184 60515 31935 02820 10210 21021 40076 56016 70701 333 10270 95990;MET048DAAD 061800Z 28020KT 3500 BLSA SKC 21/M02 Q1007;EQDQ01  00002PRCP99Q02    003PRSWM1
0299605150999992000110706004+35320+004190SY-MT+0461DAAD V0202801N002112200019N0100001N1+01301+00351101111ADDAA199000091GA1021+069009019GF102991001001999999001021IA2240+01109KA1120N+01211MA1101081999999MD1110081+9999MW1001REMSYN094AAXX  07064 60515 31960 22804 10130 20035 40111 51008 700// 80002 333 01100 20121 82073 95900;MET039DAAD 070600Z 28004KT CAVOK 13/04 Q1011;EQDQ01+000000PRSWM2Q02  00002PRCP99
0139605150999992000110707004+35320+004190FM-15+0461DAAD V0202801N008212200019N0112651N1+01301+00301999999ADDGA1021+009009999GF102991999999999999999999MA1101081999999MW1001REMMET045DAAD 070700Z 28016KT 9999 FEW030 13/03 Q1011;EQDQ01+000000PRSWM2
0139605150999992000110708004+35320+004190FM-15+0461DAAD V0202801N008212200019N0112651N1+01401+00401999999ADDGA1021+009009999GF102991999999999999999999MA1101081999999MW1001REMMET045DAAD 070800Z 28016KT 9999 FEW030 14/04 Q1011;EQDQ01+000000PRSWM2
0235605150999992000110709004+35320+004190SY-MT+0461DAAD V0202801N010312200019N0100001N1+01561+00231101241ADDGA1021+009009999GF103991031021008001001001MA1101191999999MD1210121+9999MW1001REMSYN076AAXX  07094 60515 42560 32820 10156 20023 40124 52012 83200 333 83830 95900;MET045DAAD 070900Z 28020KT 9999 SCT030 16/02 Q1012;EQDQ01+000000PRSWM2
0139605150999992000110710004+35320+004190FM-15+0461DAAD V0202801N010312200019N0112651N1+01601+00301999999ADDGA1021+009009999GF104991999999999999999999MA1101191999999MW1001REMMET045DAAD 071000Z 28020KT 9999 SCT030 16/03 Q1012;EQDQ01+000000PRSWM2
0160605150999992000110711004+35320+004190FM-15+0461DAAD V0203001N012312200019N0020001N1+01701+00201999999ADDGA1021+009009999GF104991999999999999999999MA1101191999999MW1071REMMET050DAAD 071100Z 30024KT 2000 BLSA SCT030 17/02 Q1012;EQDQ01+000003PRSWM1Q02    003PRSWM1
0294605150999992000110712004+35320+004190SY-MT+0461DAAD V0202801N01131000151CN0010001N1+01701+00021101181ADDAA199000091AY131061AY201061GA1091+000159999GF109991091999000151999999MA1101081999999MD1810051+9999MW1071REMSYN088AAXX  07124 60515 31/10 92822 10170 20002 40118 58005 70730 89/// 333 0//00 89/// 95970;MET049DAAD 071200Z 28022KT 1000 BLSA VV/// 17/00 Q1011;EQDQ01  00002PRCP99Q02    003PRSWM1
0160605150999992000110713004+35320+004190FM-15+0461DAAD V0202801N00931000151CN0010001N1+01701-00201999999ADDGA1091+000159999GF109991999999000251999999MA1101081999999MW1071REMMET050DAAD 071300Z 28018KT 1000 BLSA VV/// 17/M02 Q1011;EQDQ01+000003PRSWM1Q02    003PRSWM1
0160605150999992000110714004+35320+004190FM-15+0461DAAD V0202801N01131000151CN0010001N1+01701-00301999999ADDGA1091+000159999GF109991999999000251999999MA1101081999999MW1071REMMET050DAAD 071400Z 28022KT 1000 BLSA VV/// 17/M03 Q1011;EQDQ01+000003PRSWM1Q02    003PRSWM1
0262605150999992000110715004+35320+004190SY-MT+0461DAAD V0202801N01031000151CN0010001N1+01701-00291101171ADDAY131031AY201031GA1091+000159999GF109991091999000151999999MA1101081999999MD1610051+9999MW1071REMSYN082AAXX  07154 60515 41/10 92820 10170 21029 40117 56005 70730 89/// 333 89/// 95970;MET050DAAD 071500Z 28020KT 1000 BLSA VV/// 17/M03 Q1011;EQDQ01    003PRSWM1
0160605150999992000110716004+35320+004190FM-15+0461DAAD V0202801N00931000151CN0012001N1+01601-00501999999ADDGA1091+000159999GF109991999999000251999999MA1101191999999MW1071REMMET050DAAD 071600Z 28018KT 1200 BLSA VV/// 16/M05 Q1012;EQDQ01+000003PRSWM1Q02    003PRSWM1
0140605150999992000110717004+35320+004190FM-15+0461DAAD V0202601N007212200019N0060001N1+01501-00601999999ADDGA1021+060009999GF102991999999999999999999MA1101191999999MW1001REMMET046DAAD 071700Z 26014KT 6000 FEW200 15/M06 Q1012;EQDQ01+000000PRSWM2
0298605150999992000110718004+35320+004190SY-MT+0461DAAD V0202601N007212200019N9999999N1+01301-00451101251ADDAA199000091GA1021+060009999GF102991001001999999001021KA1120M+01801MA1101191999999MD1610061+9999MW1001REMSYN082AAXX  07184 60515 32956 22614 10130 21045 40125 56006 80002 333 10180 82070 95990;MET046DAAD 071800Z 26014KT 6000 FEW200 13/M05 Q1012;EQDQ01+060002VODIS Q02+000000PRSWM2Q03  00002PRCP99
0140605150999992000110808004+35320+004190FM-15+0461DAAD V0202801N009312200019N0112651N1+01101+00001999999ADDGA1021+009909999GF102991999999999999999999MA1101591999999MW1001REMMET046DAAD 080800Z 28018KT 9999 FEW033 11/M00 Q1016;EQDQ01+000000PRSWM2
0235605150999992000110809004+35320+004190SY-MT+0461DAAD V0202801N006212200019N0100001N1+01281+00011101671ADDGA1021+009909999GF103991021081008001001021MA1101591999999MD1310111+9999MW1001REMSYN076AAXX  08094 60515 42560 32812 10128 20001 40167 53011 82802 333 82833 95900;MET045DAAD 080900Z 28012KT 9999 FEW033 16/00 Q1016;EQDQ01+000000PRSWM2
0140605150999992000110810004+35320+004190FM-15+0461DAAD V0202801N007212200019N0112651N1+01501+00001999999ADDGA1021+009009999GF102991999999999999999999MA1101591999999MW1001REMMET046DAAD 081000Z 28014KT 9999 FEW030 15/M00 Q1016;EQDQ01+000000PRSWM2
0139605150999992000110811004+35320+004190FM-15+0461DAAD V0203001N008212200019N0112651N1+01701+00201999999ADDGA1021+009009999GF104991999999999999999999MA1101591999999MW1001REMMET045DAAD 081100Z 30016KT 9999 SCT030 17/02 Q1016;EQDQ01+000000PRSWM2
0268605150999992000110812004+35320+004190SY-MT+0461DAAD V0203001N006212200019N0100001N1+01741+00281101581ADDAA199000091GA1021+009009999GF104991031081008001071001MA1101491999999MD1810071+9999MW1001REMSYN082AAXX  08124 60515 32560 43012 10174 20028 40158 58007 83870 333 0//00 83830 95900;MET045DAAD 081200Z 30012KT 9999 SCT030 17/03 Q1015;EQDQ01+000000PRSWM2Q02  00002PRCP99
0139605150999992000110814004+35320+004190FM-15+0461DAAD V0209999C000012200019N0112651N1+01901+00301999999ADDGA1021+009909999GF104991999999999999999999MA1101391999999MW1001REMMET045DAAD 081400Z 00000KT 9999 SCT033 19/03 Q1014;EQDQ01+000000PRSWM2
0235605150999992000110815004+35320+004190SY-MT+0461DAAD V0203401N004112200019N0100001N1+01881+00231101451ADDGA1021+009909999GF104991041081012501001001MA1101391999999MD1610121+9999MW1001REMSYN076AAXX  08154 60515 42660 43408 10188 20023 40145 56012 84800 333 84833 95900;MET045DAAD 081500Z 34008KT 9999 SCT033 19/02 Q1014;EQDQ01+000000PRSWM2
0139605150999992000110816004+35320+004190FM-15+0461DAAD V0202501N004112200019N0112651N1+01801+00201999999ADDGA1021+009909999GF104991999999999999999999MA1101391999999MW1001REMMET045DAAD 081600Z 25008KT 9999 SCT033 18/02 Q1014;EQDQ01+000000PRSWM2
0139605150999992000110817004+35320+004190FM-15+0461DAAD V0209999C000012200019N0112651N1+01701+00301999999ADDGA1021+009909999GF102991999999999999999999MA1101291999999MW1001REMMET045DAAD 081700Z 00000KT 9999 FEW033 17/03 Q1013;EQDQ01+000000PRSWM2
0275605150999992000110818004+35320+004190SY-MT+0461DAAD V0209999C000012200019N0100001N1+01601+00341101521ADDAA199000091GA1031+060009019GF103991001001999999001021KA1120M+01901MA1101491999999MD1310061+9999MW1001REMSYN082AAXX  08184 60515 32960 30000 10160 20034 40152 53006 80002 333 10190 83070 95990;MET039DAAD 081800Z 00000KT CAVOK 16/03 Q1015;EQDQ01+000000PRSWM2Q02  00002PRCP99
0091605150999992000110907004+35320+004190FM-15+0461DAAD V0209999C00001220001CN0099001N1+00801+00201999999ADDMA1102101999999MW1001REMMET039DAAD 090700Z 00000KT CAVOK 08/02 Q1021;EQDQ01+000000PRSWM2
0091605150999992000110908004+35320+004190FM-15+0461DAAD V0209999C00001220001CN0099001N1+01001+00401999999ADDMA1102101999999MW1001REMMET039DAAD 090800Z 00000KT CAVOK 10/04 Q1021;EQDQ01+000000PRSWM2
0229605150999992000110909004+35320+004190SY-MT+0461DAAD V0209999C000012200019N0100001N1+01341+00501102171ADDGA1021+069009019GF102991001001999999001021MA1102101999999MD1210181+9999MW1001REMSYN076AAXX  09094 60515 42960 20000 10134 20050 40217 52018 80002 333 82073 95900;MET039DAAD 090900Z 00000KT CAVOK 13/05 Q1021;EQDQ01+000000PRSWM2
0091605150999992000110910004+35320+004190FM-15+0461DAAD V0209999C00001220001CN0099001N1+01501+00401999999ADDMA1102201999999MW1001REMMET039DAAD 091000Z 00000KT CAVOK 15/04 Q1022;EQDQ01+000000PRSWM2
0091605150999992000110911004+35320+004190FM-15+0461DAAD V0209999C00001220001CN0099001N1+01601+00401999999ADDMA1102201999999MW1001REMMET039DAAD 091100Z 00000KT CAVOK 16/04 Q1022;EQDQ01+000000PRSWM2
0262605150999992000110912004+35320+004190SY-MT+0461DAAD V0209999C000012200019N0100001N1+01701+00291102151ADDAA199000091GA1021+060009019GF102991001001999999001021MA1102101999999MD1810011+9999MW1001REMSYN082AAXX  09124 60515 32960 20000 10170 20029 40215 58001 80002 333 0//00 82070 95900;MET039DAAD 091200Z 00000KT CAVOK 17/03 Q1021;EQDQ01+000000PRSWM2Q02  00002PRCP99
0091605150999992000110913004+35320+004190FM-15+0461DAAD V0209999C00001220001CN0099001N1+01901+00401999999ADDMA1102001999999MW1001REMMET039DAAD 091300Z 00000KT CAVOK 19/04 Q1020;EQDQ01+000000PRSWM2
0091605150999992000110914004+35320+004190FM-15+0461DAAD V0209999C00001220001CN0099001N1+01901+00401999999ADDMA1101901999999MW1001REMMET039DAAD 091400Z 00000KT CAVOK 19/04 Q1019;EQDQ01+000000PRSWM2
0229605150999992000110915004+35320+004190SY-MT+0461DAAD V0209999C000012200019N0100001N1+01861+00351101971ADDGA1021+060009019GF102991001001999999001021MA1101901999999MD1610181+9999MW1001REMSYN076AAXX  09154 60515 42960 20000 10186 20035 40197 56018 80002 333 82070 95900;MET039DAAD 091500Z 00000KT CAVOK 19/04 Q1019;EQDQ01+000000PRSWM2
0091605150999992000110916004+35320+004190FM-15+0461DAAD V0209999C00001220001CN0099001N1+01801+00301999999ADDMA1101901999999MW1001REMMET039DAAD 091600Z 00000KT CAVOK 18/03 Q1019;EQDQ01+000000PRSWM2
0091605150999992000110917004+35320+004190FM-15+0461DAAD V0209999C00001220001CN0099001N1+01701+00301999999ADDMA1102001999999MW1001REMMET039DAAD 091700Z 00000KT CAVOK 17/03 Q1020;EQDQ01+000000PRSWM2
0275605150999992000110918004+35320+004190SY-MT+0461DAAD V0209999C000012200019N0100001N1+01431+00421102101ADDAA199000091GA1021+060009019GF102991001001999999001021KA1120M+01931MA1102101999999MD1310071+9999MW1001REMSYN082AAXX  09184 60515 32960 20000 10143 20042 40210 53007 80002 333 10193 82070 95990;MET039DAAD 091800Z 00000KT CAVOK 14/04 Q1021;EQDQ01+000000PRSWM2Q02  00002PRCP99
0299605150999992000111006004+35320+004190SY-MT+0461DAAD V0209999C000012200019N0100001N1+00601+00241102261ADDAA199000091GA1011+030009079GF102991011001999999071021IA2240+00409KA1120N+00531MA1102201999999MD1310051+9999MW1001REMSYN094AAXX  10064 60515 33960 20000 10060 20024 40226 53005 700// 81072 333 00400 20053 81360 95900;MET039DAAD 100600Z 00000KT CAVOK 06/02 Q1022;EQDQ01+000000PRSWM2Q02  00002PRCP99
0091605150999992000111008004+35320+004190FM-15+0461DAAD V0209999C00001220001CN0099001N1+00801+00301999999ADDMA1102401999999MW1001REMMET039DAAD 100800Z 00000KT CAVOK 08/03 Q1024;EQDQ01+000000PRSWM2
0229605150999992000111009004+35320+004190SY-MT+0461DAAD V0209999C000012200019N0100001N1+01201+00471102371ADDGA1021+060009019GF102991001001999999001021MA1102301999999MD1010121+9999MW1001REMSYN076AAXX  10094 60515 42960 20000 10120 20047 40237 50012 80002 333 82070 95900;MET039DAAD 100900Z 00000KT CAVOK 12/05 Q1023;EQDQ01+000000PRSWM2
0091605150999992000111010004+35320+004190FM-15+0461DAAD V0209999C00001220001CN0099001N1+01601+00601999999ADDMA1102401999999MW1001REMMET039DAAD 101000Z 00000KT CAVOK 16/06 Q1024;EQDQ01+000000PRSWM2
0091605150999992000111011004+35320+004190FM-15+0461DAAD V0209999C00001220001CN0099001N1+01701+00601999999ADDMA1102301999999MW1001REMMET039DAAD 101100Z 00000KT CAVOK 17/06 Q1023;EQDQ01+000000PRSWM2
0262605150999992000111012004+35320+004190SY-MT+0461DAAD V0209999C000012200019N0100001N1+01821+00401102231ADDAA199000091GA1021+060009019GF102991001001999999001021MA1102201999999MD1810091+9999MW1001REMSYN082AAXX  10124 60515 32960 20000 10182 20040 40223 58009 80002 333 0//00 82070 95900;MET039DAAD 101200Z 00000KT CAVOK 18/04 Q1022;EQDQ01+000000PRSWM2Q02  00002PRCP99
0091605150999992000111013004+35320+004190FM-15+0461DAAD V0209999C00001220001CN0099001N1+02001+00401999999ADDMA1102101999999MW1001REMMET039DAAD 101300Z 00000KT CAVOK 20/04 Q1021;EQDQ01+000000PRSWM2
0091605150999992000111014004+35320+004190FM-15+0461DAAD V0209999C00001220001CN0099001N1+02101+00701999999ADDMA1102001999999MW1001REMMET039DAAD 101400Z 00000KT CAVOK 21/07 Q1020;EQDQ01+000000PRSWM2
0251605150999992000111015004+35320+004190SY-MT+0461DAAD V0209999C000019999999N0100001N1+02071+00691102081ADDGA1021+010509029GA2031+060009019GF105991021001999999071021MA1102001999999MD1510131+9999MW1001REMSYN082AAXX  10154 60515 42960 50000 10207 20069 40208 55013 82072 333 82835 83070 95900;MET039DAAD 101500Z 00000KT CAVOK 21/07 Q1020;EQDQ01+000000PRSWM2
0091605150999992000111016004+35320+004190FM-15+0461DAAD V0209999C00001220001CN0099001N1+02001+00501999999ADDMA1102001999999MW1001REMMET039DAAD 101600Z 00000KT CAVOK 20/05 Q1020;EQDQ01+000000PRSWM2
0162605150999992000111017004+35320+004190FM-15+0461DAAD V0209999C000012200019N0112651N1+01901+00801999999ADDGA1021+012009999GA2021+060009999GF104991999999999999999999MA1102101999999MW1001REMMET052DAAD 101700Z 00000KT 9999 SCT040 SCT200 19/08 Q1021;EQDQ01+000000PRSWM2
0310605150999992000111018004+35320+004190SY-MT+0461DAAD V0209999C00001007501CN0100001N1+01801+00691102201ADDAA199000091GA1021+009909999GA2021+060009999GF106991061021008001001021KA1120M+02151MA1102201999999MD1310081+9999MW1001REMSYN088AAXX  10184 60515 32560 60000 10180 20069 40220 53008 86202 333 10215 84833 83070 95900;MET052DAAD 101800Z 00000KT 9999 SCT033 SCT200 18/07 Q1022;EQDQ01+000000PRSWM2Q02  00002PRCP99
0305605150999992000111106004+35320+004190SY-MT+0461DAAD V0203001N001012200019N0100001N1+01261+00451102321ADDAA199000091GA1021+012009999GF103991021021012501001021IA2240+01109KA1120N+01141MA1102301999999MD1310041+9999MW1001REMSYN094AAXX  11064 60515 31660 33002 10126 20045 40232 53004 700// 82202 333 01100 20114 82840 95900;MET045DAAD 110600Z 30002KT 9999 FEW040 13/05 Q1023;EQDQ01+000000PRSWM2Q02  00002PRCP99
0139605150999992000111107004+35320+004190FM-15+0461DAAD V0209999C000012200019N0112651N1+01201+00901999999ADDGA1021+012009999GF102991999999999999999999MA1102301999999MW1001REMMET045DAAD 110700Z 00000KT 9999 FEW040 12/09 Q1023;EQDQ01+000000PRSWM2
0091605150999992000111108004+35320+004190FM-15+0461DAAD V0209999C00001220001CN0099001N1+01401+00301999999ADDMA1102401999999MW1001REMMET039DAAD 110800Z 00000KT CAVOK 14/03 Q1024;EQDQ01+000000PRSWM2
0201605150999992000111109004+35320+004190SY-MT+0461DAAD V0203601N002112200019N0100001N1+01611+00951102501ADDGF100991001001999999001001MA1102511999999MD1210191+9999MW1001REMSYN064AAXX  11094 60515 42960 03604 10161 20095 40250 52019 333 95900;MET039DAAD 110900Z 36004KT CAVOK 16/10 Q1025;EQDQ01+000000PRSWM2
0091605150999992000111111004+35320+004190FM-15+0461DAAD V0209999C00001220001CN0099001N1+02001+01101999999ADDMA1102511999999MW1001REMMET039DAAD 111100Z 00000KT CAVOK 20/11 Q1025;EQDQ01+000000PRSWM2
0262605150999992000111112004+35320+004190SY-MT+0461DAAD V0209999C000012200019N0100001N1+02251+01131102391ADDAA199000091GA1021+069009019GF102991001001999999001021MA1102301999999MD1810071+9999MW1001REMSYN082AAXX  11124 60515 32960 20000 10225 20113 40239 58007 80002 333 0//00 82073 95900;MET039DAAD 111200Z 00000KT CAVOK 23/11 Q1023;EQDQ01+000000PRSWM2Q02  00002PRCP99
0091605150999992000111113004+35320+004190FM-15+0461DAAD V0203601N00411220001CN0099001N1+02401+01101999999ADDMA1102301999999MW1001REMMET039DAAD 111300Z 36008KT CAVOK 24/11 Q1023;EQDQ01+000000PRSWM2
0091605150999992000111114004+35320+004190FM-15+0461DAAD V0200801N00211220001CN0099001N1+02501+00901999999ADDMA1102201999999MW1001REMMET039DAAD 111400Z 08004KT CAVOK 25/09 Q1022;EQDQ01+000000PRSWM2
0229605150999992000111115004+35320+004190SY-MT+0461DAAD V0200801N004112200019N0100001N1+02361+00771102251ADDGA1031+060009019GF103991001001999999001021MA1102201999999MD1610131+9999MW1001REMSYN076AAXX  11154 60515 42960 30808 10236 20077 40225 56013 80002 333 83070 95900;MET039DAAD 111500Z 08008KT CAVOK 24/08 Q1022;EQDQ01+000000PRSWM2
0091605150999992000111117004+35320+004190FM-15+0461DAAD V0200801N00511220001CN0099001N1+02101+00901999999ADDMA1102201999999MW1001REMMET039DAAD 111700Z 08010KT CAVOK 21/09 Q1022;EQDQ01+000000PRSWM2
0275605150999992000111118004+35320+004190SY-MT+0461DAAD V0209999C000012200019N0100001N1+01951+01271102381ADDAA199000091GA1031+060009019GF103991001001999999001021KA1120M+02501MA1102301999999MD1310091+9999MW1001REMSYN082AAXX  11184 60515 32960 30000 10195 20127 40238 53009 80002 333 10250 83070 95990;MET039DAAD 111800Z 00000KT CAVOK 20/11 Q1023;EQDQ01+000000PRSWM2Q02  00002PRCP99
0299605150999992000111206004+35320+004190SY-MT+0461DAAD V0209999C000012200019N0100001N1+01001+00691102561ADDAA199000091GA1041+060009019GF104991001001999999001021IA2240+00709KA1120N+00921MA1102511999999MD1410001+9999MW1001REMSYN094AAXX  12064 60515 33960 40000 10100 20069 40256 54000 700// 80002 333 00700 20092 84070 95900;MET039DAAD 120600Z 00000KT CAVOK 10/07 Q1025;EQDQ01+000000PRSWM2Q02  00002PRCP99
0091605150999992000111207004+35320+004190FM-15+0461DAAD V0209999C00001220001CN0099001N1+00901+00601999999ADDMA1102511999999MW1001REMMET039DAAD 120700Z 00000KT CAVOK 09/06 Q1025;EQDQ01+000000PRSWM2
0091605150999992000111208004+35320+004190FM-15+0461DAAD V0209999C00001220001CN0099001N1+01201+00901999999ADDMA1102511999999MW1001REMMET039DAAD 120800Z 00000KT CAVOK 12/09 Q1025;EQDQ01+000000PRSWM2
0229605150999992000111209004+35320+004190SY-MT+0461DAAD V0209999C000012200019N0100001N1+01401+00811102571ADDGA1031+060009019GF103991001001999999001021MA1102511999999MD1410001+9999MW1001REMSYN076AAXX  12094 60515 42960 30000 10140 20081 40257 54001 80002 333 83070 95900;MET039DAAD 120900Z 00000KT CAVOK 14/08 Q1025;EQDQ01+000000PRSWM2
0091605150999992000111210004+35320+004190FM-15+0461DAAD V0209999C00001220001CN0099001N1+01801+00601999999ADDMA1102511999999MW1001REMMET039DAAD 121000Z 00000KT CAVOK 18/06 Q1025;EQDQ01+000000PRSWM2
0246605150999992000111212004+35320+004190SY-MT+0461DAAD V0209999C00001220001CN0100001N1+02101+01141102391ADDAA199000091GF102991001001999999001021MA1102301999999MD1810111+9999MW1001REMSYN082AAXX  12124 60515 32960 20000 10210 20114 40239 58011 80002 333 0//00 82070 95900;MET039DAAD 121200Z 00000KT CAVOK 21/11 Q1023;EQDQ01+000000PRSWM2Q02  00002PRCP99
0091605150999992000111213004+35320+004190FM-15+0461DAAD V0200601N00311220001CN0099001N1+02401+01101999999ADDMA1102201999999MW1001REMMET039DAAD 121300Z 06006KT CAVOK 24/11 Q1022;EQDQ01+000000PRSWM2
0091605150999992000111214004+35320+004190FM-15+0461DAAD V0209999C00001220001CN0099001N1+02401+00801999999ADDMA1102101999999MW1001REMMET039DAAD 121400Z 00000KT CAVOK 24/08 Q1021;EQDQ01+000000PRSWM2
0229605150999992000111215004+35320+004190SY-MT+0461DAAD V0201001N003112200019N0100001N1+02451+00611102071ADDGA1041+060009019GF104991001001999999001021MA1102001999999MD1710291+9999MW1001REMSYN076AAXX  12154 60515 42960 41006 10245 20061 40207 57029 80002 333 84070 95900;MET039DAAD 121500Z 10006KT CAVOK 25/06 Q1020;EQDQ01+000000PRSWM2
0091605150999992000111216004+35320+004190FM-15+0461DAAD V0209999C00001220001CN0099001N1+02301+00601999999ADDMA1102101999999MW1001REMMET039DAAD 121600Z 00000KT CAVOK 23/06 Q1021;EQDQ01+000000PRSWM2
0091605150999992000111217004+35320+004190FM-15+0461DAAD V0201001N00311220001CN0099001N1+02001+00501999999ADDMA1102001999999MW1001REMMET039DAAD 121700Z 10006KT CAVOK 20/05 Q1020;EQDQ01+000000PRSWM2
0275605150999992000111218004+35320+004190SY-MT+0461DAAD V0201001N004112200019N0100001N1+01801+00861102161ADDAA199000091GA1031+069009019GF103991001001999999001021KA1120M+02451MA1102101999999MD1310011+9999MW1001REMSYN082AAXX  12184 60515 32960 31008 10180 20086 40216 53001 80002 333 10245 83073 95990;MET039DAAD 121800Z 10008KT CAVOK 18/09 Q1021;EQDQ01+000000PRSWM2Q02  00002PRCP99
0299605150999992000111306004+35320+004190SY-MT+0461DAAD V0209999C000012200019N0100001N1+01041+00711102061ADDAA199000091GA1031+069009019GF103991001001999999001021IA2240+00709KA1120N+00941MA1102001999999MD1610071+9999MW1001REMSYN094AAXX  13064 60515 31960 30000 10104 20071 40206 56007 700// 80002 333 00700 20094 83073 95900;MET039DAAD 130600Z 00000KT CAVOK 10/07 Q1020;EQDQ01+000000PRSWM2Q02  00002PRCP99
0091605150999992000111307004+35320+004190FM-15+0461DAAD V0209999C00001220001CN0099001N1+01101+00801999999ADDMA1102101999999MW1001REMMET039DAAD 130700Z 00000KT CAVOK 11/08 Q1021;EQDQ01+000000PRSWM2
0091605150999992000111308004+35320+004190FM-15+0461DAAD V0203401N00101220001CN0099001N1+01601+00901999999ADDMA1102101999999MW1001REMMET039DAAD 130800Z 34002KT CAVOK 16/09 Q1021;EQDQ01+000000PRSWM2
0229605150999992000111309004+35320+004190SY-MT+0461DAAD V0203401N002112200019N0100001N1+01351+00871102121ADDGA1031+069009019GF103991001001999999001021MA1102101999999MD1310061+9999MW1001REMSYN076AAXX  13094 60515 42960 33404 10135 20087 40212 53006 80002 333 83073 95900;MET039DAAD 130900Z 34004KT CAVOK 14/09 Q1021;EQDQ01+000000PRSWM2
0091605150999992000111310004+35320+004190FM-15+0461DAAD V0209999C00001220001CN0099001N1+01501+00901999999ADDMA1102101999999MW1001REMMET039DAAD 131000Z 00000KT CAVOK 15/09 Q1021;EQDQ01+000000PRSWM2
0091605150999992000111311004+35320+004190FM-15+0461DAAD V0209999C00001220001CN0099001N1+01701+01001999999ADDMA1102001999999MW1001REMMET039DAAD 131100Z 00000KT CAVOK 17/10 Q1020;EQDQ01+000000PRSWM2
0246605150999992000111312004+35320+004190SY-MT+0461DAAD V0209999C00001220001CN0100001N1+01901+00991101901ADDAA199000091GF103991001001999999001021MA1101901999999MD1810171+9999MW1001REMSYN082AAXX  13124 60515 32960 30000 10190 20099 40190 58017 80002 333 0//00 83070 95900;MET039DAAD 131200Z 00000KT CAVOK 19/10 Q1019;EQDQ01+000000PRSWM2Q02  00002PRCP99
0091605150999992000111313004+35320+004190FM-15+0461DAAD V0201401N00511220001CN0099001N1+02401+00601999999ADDMA1101801999999MW1001REMMET039DAAD 131300Z 14010KT CAVOK 24/06 Q1018;EQDQ01+000000PRSWM2
0091605150999992000111314004+35320+004190FM-15+0461DAAD V0201401N00411220001CN0099001N1+02401+00501999999ADDMA1101691999999MW1001REMMET039DAAD 131400Z 14008KT CAVOK 24/05 Q1017;EQDQ01+000000PRSWM2
0091605150999992000111316004+35320+004190FM-15+0461DAAD V0202401N00211220001CN0099001N1+02501+00201999999ADDMA1101591999999MW1001REMMET039DAAD 131600Z 24004KT CAVOK 25/02 Q1016;EQDQ01+000000PRSWM2
0091605150999992000111317004+35320+004190FM-15+0461DAAD V0201801N00211220001CN0099001N1+02301+00401999999ADDMA1101591999999MW1001REMMET039DAAD 131700Z 18004KT CAVOK 23/04 Q1016;EQDQ01+000000PRSWM2
0285605150999992000111318004+35320+004190SY-MT+0461DAAD V0203401N003112200019N0100001N1+02051+00501101631ADDAA199000091GA1021+024009079GF103991021999022501031021KA1120M+02471MA1101591999999MD1810041+9999MW1001REMSYN076AAXX  13184 60515 32860 33406 10205 20050 40163 58004 82032 333 10247 82358;MET039DAAD 131800Z 34006KT CAVOK 21/05 Q1016;EQDQ01+000000PRSWM2Q02  00002PRCP99Q03    003SCOLCG
0337605150999992000111406004+35320+004190SY-MT+0461DAAD V0209999C000010600019N0100001N1+01161+00451101591ADDAA199000091GA1031+024009079GA2051+060009019GF107991031999999999071021IA2240+00809KA1120N+01101MA1101491999999MD1610011+9999MW1001REMSYN100AAXX  14064 60515 33960 70000 10116 20045 40159 56001 700// 83072 333 00800 20110 83358 85070 95970;MET039DAAD 140600Z 00000KT CAVOK 12/05 Q1015;EQDQ01+000000PRSWM2Q02  00002PRCP99Q03    003SCOLCG
0091605150999992000111407004+35320+004190FM-15+0461DAAD V0203601N00211220001CN0099001N1+01201+00501999999ADDMA1101591999999MW1001REMMET039DAAD 140700Z 36004KT CAVOK 12/05 Q1016;EQDQ01+000000PRSWM2
0091605150999992000111408004+35320+004190FM-15+0461DAAD V0209999C00001220001CN0099001N1+01301+00601999999ADDMA1101591999999MW1001REMMET039DAAD 140800Z 00000KT CAVOK 13/06 Q1016;EQDQ01+000000PRSWM2
0267605150999992000111409004+35320+004190SY-MT+0461DAAD V0209999C000010600019N0100001N1+01531+00681101711ADDGA1021+024009079GA2051+060009019GF107991021999999999071021MA1101691999999MD1310131+9999MW1001REMSYN082AAXX  14094 60515 42960 70000 10153 20068 40171 53013 82072 333 82358 85070 95900;MET039DAAD 140900Z 00000KT CAVOK 15/07 Q1017;EQDQ01+000000PRSWM2Q02    003SCOLCG
0091605150999992000111410004+35320+004190FM-15+0461DAAD V0209999C00001220001CN0099001N1+01701+00601999999ADDMA1101691999999MW1001REMMET039DAAD 141000Z 00000KT CAVOK 17/06 Q1017;EQDQ01+000000PRSWM2
0091605150999992000111411004+35320+004190FM-15+0461DAAD V0209999C00001220001CN0099001N1+01801+00601999999ADDMA1101691999999MW1001REMMET039DAAD 141100Z 00000KT CAVOK 18/06 Q1017;EQDQ01+000000PRSWM2
0297605150999992000111412004+35320+004190SY-MT+0461DAAD V0200601N00211036001CN0100001N1+01961+00621101631ADDAA199000091GA1021+013809999GA2021+024009999GF107991031081012501071021MA1101591999999MD1810061+9999MW1001REMSYN088AAXX  14124 60515 32660 70604 10196 20062 40163 58006 83872 333 0//00 83846 83358 95900;MET052DAAD 141200Z 06004KT 9999 SCT046 SCT080 20/06 Q1016;EQDQ01+000000PRSWM2Q02  00002PRCP99
0162605150999992000111413004+35320+004190FM-15+0461DAAD V0203601N003112200019N0112651N1+02101+00501999999ADDGA1021+024009999GA2021+060009999GF104991999999999999999999MA1101491999999MW1001REMMET052DAAD 141300Z 36006KT 9999 SCT080 SCT200 21/05 Q1015;EQDQ01+000000PRSWM2
0091605150999992000111414004+35320+004190FM-15+0461DAAD V0203601N00211220001CN0099001N1+02201+00401999999ADDMA1101491999999MW1001REMMET039DAAD 141400Z 36004KT CAVOK 22/04 Q1015;EQDQ01+000000PRSWM2
0267605150999992000111415004+35320+004190SY-MT+0461DAAD V0209999C000010600019N0100001N1+02161+00451101491ADDGA1021+024009079GA2041+060009019GF105991021999022501071021MA1101391999999MD1610041+9999MW1001REMSYN082AAXX  14154 60515 42860 50000 10216 20045 40149 56004 82072 333 82358 84070 95900;MET039DAAD 141500Z 00000KT CAVOK 22/05 Q1014;EQDQ01+000000PRSWM2Q02    003SCOLCG
0091605150999992000111416004+35320+004190FM-15+0461DAAD V0209999C00001220001CN0099001N1+02101+00501999999ADDMA1101391999999MW1001REMMET039DAAD 141600Z 00000KT CAVOK 21/05 Q1014;EQDQ01+000000PRSWM2
0091605150999992000111417004+35320+004190FM-15+0461DAAD V0209999C00001220001CN0099001N1+01901+00501999999ADDMA1101391999999MW1001REMMET039DAAD 141700Z 00000KT CAVOK 19/05 Q1014;EQDQ01+000000PRSWM2
0291605150999992000111418004+35320+004190SY-MT+0461DAAD V0209999C000012200019N0100001N1+01671+00471101561ADDAA199000091GA1031+024009079GF104991031999022501071021KA1120M+02191MA1101491999999MD1510011+9999MW1001REMSYN082AAXX  14184 60515 32860 40000 10167 20047 40156 55001 83072 333 10219 83358 95990;MET039DAAD 141800Z 00000KT CAVOK 17/05 Q1015;EQDQ01+000000PRSWM2Q02  00002PRCP99Q03    003SCOLCG
0305605150999992000111506004+35320+004190SY-MT+0461DAAD V0209999C000010090019N0100001N1+01261+00591101461ADDAA199000091GA1071+009009999GF107991071021008001999999IA2240+00809KA1120N+01201MA1101391999999MD1610091+9999MW1001REMSYN094AAXX  15064 60515 31560 70000 10126 20059 40146 56009 700// 872// 333 00800 20120 87830 95900;MET045DAAD 150600Z 00000KT 9999 BKN030 13/06 Q1014;EQDQ01+000000PRSWM2Q02  00002PRCP99
0139605150999992000111507004+35320+004190FM-15+0461DAAD V0209999C000010090019N0112651N1+01401+00701999999ADDGA1071+009009999GF107991999999999999999999MA1101491999999MW1001REMMET045DAAD 150700Z 00000KT 9999 BKN030 14/07 Q1015;EQDQ01+000000PRSWM2
0139605150999992000111508004+35320+004190FM-15+0461DAAD V0203601N003110090019N0112651N1+01501+00701999999ADDGA1071+009009999GF107991999999999999999999MA1101491999999MW1001REMMET045DAAD 150800Z 36006KT 9999 BKN030 15/07 Q1015;EQDQ01+000000PRSWM2
0264605150999992000111509004+35320+004190SY-MT+0461DAAD V0209999C00001036001CN0100001N1+01551+00711101581ADDGA1021+009009999GA2021+024009999GF107991041021008001031999MA1101491999999MD1310151+9999MW1001REMSYN082AAXX  15094 60515 42560 70000 10155 20071 40158 53015 8423/ 333 84830 84358 95900;MET052DAAD 150900Z 00000KT 9999 SCT030 SCT080 16/07 Q1015;EQDQ01+000000PRSWM2
0162605150999992000111510004+35320+004190FM-15+0461DAAD V0200901N005112200019N0112651N1+01801+00501999999ADDGA1021+009009999GA2021+024009999GF104991999999999999999999MA1101491999999MW1001REMMET052DAAD 151000Z 09010KT 9999 SCT030 SCT080 18/05 Q1015;EQDQ01+000000PRSWM2
0162605150999992000111511004+35320+004190FM-15+0461DAAD V0201201N004112200019N0112651N1+01901+00501999999ADDGA1021+009009999GA2021+024009999GF104991999999999999999999MA1101391999999MW1001REMMET052DAAD 151100Z 12008KT 9999 SCT030 SCT080 19/05 Q1014;EQDQ01+000000PRSWM2
0297605150999992000111512004+35320+004190SY-MT+0461DAAD V0201201N00721036001CN0100001N1+02041+00431101341ADDAA199000091GA1021+009009999GA2021+024009999GF107991041021008001031999MA1101291999999MD1810211+9999MW1001REMSYN088AAXX  15124 60515 32560 71214 10204 20043 40134 58021 8423/ 333 0//00 84830 84358 95900;MET052DAAD 151200Z 12014KT 9999 SCT030 SCT080 20/04 Q1013;EQDQ01+000000PRSWM2Q02  00002PRCP99
0152605150999992000111513004+35320+004190FM-15+0461DAAD V0201801N00821220001CN0080001N1+02201+00201999999ADDGA1071+007809999GA2021+024009999MA1101191999999MW1001REMMET052DAAD 151300Z 18016KT 8000 BKN026 SCT080 22/02 Q1012;EQDQ01+000042SCOTCVQ02+000000PRSWM2
0152605150999992000111514004+35320+004190FM-15+0461DAAD V0201801N00931220001CN0080001N1+02201+00101999999ADDGA1071+007809999GA2021+024009999MA1101081999999MW1001REMMET052DAAD 151400Z 18018KT 8000 BKN026 SCT080 22/01 Q1011;EQDQ01+000042SCOTCVQ02+000000PRSWM2
0258605150999992000111515004+35320+004190SY-MT+0461DAAD V0201801N009310078019N0080001N1+02201+00111101121ADDGA1071+007809999GA2021+024009999GF107991051021008001031999MA1101081999999MD1610211+9999MW1001REMSYN076AAXX  15154 60515 42558 71818 10220 20011 40112 56021 8523/ 333 85826 83358;MET052DAAD 151500Z 18018KT 8000 BKN026 SCT080 22/01 Q1011;EQDQ01+000000PRSWM2
0163605150999992000111516004+35320+004190FM-15+0461DAAD V0201801N006212200019N0080001N1+02201+00001999999ADDGA1021+009009999GA2021+024009999GF104991999999999999999999MA1101081999999MW1001REMMET053DAAD 151600Z 18012KT 8000 SCT030 SCT080 22/M00 Q1011;EQDQ01+000000PRSWM2
0294605150999992000111518004+35320+004190SY-MT+0461DAAD V0201001N006210240019N0080001N1+01711+00391101221ADDAA199000091GA1041+009009029GA2031+024009079GF106991041081008001031001KA1120M+02201MD1310041+9999MW1001REMSYN088AAXX  15184 60515 32558 61012 10171 20039 40122 53004 84830 333 10220 84830 83358 95990;MET051DAAD 15800Z 10012KT 8000 SCT030 SCT080 17/04 Q1012;EQDQ01+000000PRSWM2Q02  00002PRCP99
0321605150999992000111606004+35320+004190SY-MT+0461DAAD V0202801N010310078019N9999999N1+01361+00481101241ADDAA199000091GA1071+007809999GF105991051081008001001001IA2240+01109KA1120N+01301MA1101191999999MD1310021+9999MW1001REMSYN094AAXX  16064 60515 31557 52820 10136 20048 40124 53002 700// 85800 333 01100 20130 85826 95970;MET045DAAD 160600Z 28020KT 7000 BKN026 14/05 Q1012;EQDQ01+000000PRSWM2Q02+070002VODIS Q03  00002PRCP99
0192605150999992000111607004+35320+004190FM-15+0461DAAD V0203001N005110090019N0070001N1+01301+00801999999ADDGA1071+009009999GA2021+009909099GF107991999999999999999999MA1101191999999MW1821MW2971REMMET060DAAD 160700Z 30010KT 7000 +TSRA FEW033CB BKN030 13/08 Q1012;EQDQ01+000003PRSWM1Q02    003PRSWM1
0258605150999992000111609004+35320+004190SY-MT+0461DAAD V0202801N007210078019N0100001N1+01321+00811101451ADDGA1021+003009999GA2071+007809999GF107991021071002501999999MA1101391999999MD1210201+9999MW1001REMSYN076AAXX  16094 60515 42360 72814 10132 20081 40145 52020 827// 333 86826 95900;MET052DAAD 160900Z 28014KT 9999 FEW010 BKN026 13/08 Q1014;EQDQ01+000000PRSWM2
0139605150999992000111610004+35320+004190FM-15+0461DAAD V0203201N007210078019N0112651N1+01401+00801999999ADDGA1071+007809999GF107991999999999999999999MA1101391999999MW1001REMMET045DAAD 161000Z 32014KT 9999 BKN026 14/08 Q1014;EQDQ01+000000PRSWM2
0162605150999992000111611004+35320+004190FM-15+0461DAAD V0202801N007210078019N0112651N1+01401+00801999999ADDGA1021+003009999GA2071+007809999GF107991999999999999999999MA1101391999999MW1001REMMET052DAAD 161100Z 28014KT 9999 FEW010 BKN026 14/08 Q1014;EQDQ01+000000PRSWM2
0178605150999992000111613004+35320+004190FM-15+0461DAAD V0203001N008212200019N9999999N1+01401+00001999999ADDGA1021+003009999GA2021+007809999GF104991999999999999999999MA1101491999999MW1001REMMET052DAAD 161300Z 30016KT 7000 FEW010 SCT026 14/00 Q1015;EQDQ01+070002VODIS Q02+000000PRSWM2
0162605150999992000111614004+35320+004190FM-15+0461DAAD V0203001N008210078019N0080001N1+01401+00601999999ADDGA1021+003009999GA2071+007809999GF107991999999999999999999MA1101491999999MW1001REMMET052DAAD 161400Z 30016KT 8000 FEW010 BKN026 14/06 Q1015;EQDQ01+000000PRSWM2
0166605150999992000111615004+35320+004190FM-12+0461DAAD V0203001N008210078019N0080001N1+01401+00581101461ADDGA1011+003009079GA2041+007809089GF105991051071012501001001MD1810061+9999REMSYN082AAXX  16154 60515 42658 53016 10140 20058 40146 58006 85700 333 81710 84826 95900;
0178605150999992000111616004+35320+004190FM-15+0461DAAD V0203601N009312200019N9999999N1+01201+00601999999ADDGA1021+003009999GA2021+007809999GF104991999999999999999999MA1101391999999MW1001REMMET052DAAD 161600Z 36018KT 7000 FEW010 SCT026 12/06 Q1014;EQDQ01+070002VODIS Q02+000000PRSWM2
0155605150999992000111617004+35320+004190FM-15+0461DAAD V0202801N008212200019N0080001N1+01301+00301999999ADDGA1021+007809999GF104991999999999999999999MA1101691999999MW1001REMMET045DAAD 161700Z 28016KT 7000 SCT026 13/03 Q1017;EQDQ01+070002VODIS Q02+000000PRSWM2
0265605150999992000111618004+35320+004190SY-MT+0461DAAD V0202801N007212200019N0080001N1+01201+00311101821ADDAA199000021GA1021+009009999GF102991021081008001001001KA1120M+01551MA1101801999999MD1210171+9999MW1001REMSYN082AAXX  16184 60515 32558 22814 10120 20031 40182 52017 82800 333 10155 82830 95990;MET045DAAD 161800Z 28014KT 8000 FEW030 12/03 Q1018;EQDQ01+000000PRSWM2
0223605150999992000111706004+35320+004190FM-12+0461DAAD V0202801N006210099019N0100001N1+01291+00441101861ADDAA199000091GA1051+009909089GF105991051021012501001001IA2240+01009KA1120N+01221MD1810061+9999MW1001REMSYN094AAXX  17064 60515 31660 52812 10129 20044 40186 58006 700// 85200 333 01000 20122 85833 95900;EQDQ01  00002PRCP99
0162605150999992000111707004+35320+004190FM-15+0461DAAD V0202801N007212200019N0080001N1+01001+00401999999ADDGA1021+003009999GA2021+009009999GF104991999999999999999999MA1101901999999MW1001REMMET052DAAD 170700Z 28014KT 8000 FEW010 SCT030 10/04 Q1019;EQDQ01+000000PRSWM2
0162605150999992000111708004+35320+004190FM-15+0461DAAD V0202801N007210090019N0080001N1+01101+00401999999ADDGA1021+003009999GA2071+009009999GF107991999999999999999999MA1101901999999MW1001REMMET052DAAD 170800Z 28014KT 8000 FEW010 BKN030 11/04 Q1019;EQDQ01+000000PRSWM2
0251605150999992000111709004+35320+004190SY-MT+0461DAAD V0202801N006210090019N0100001N1+01241+00401102021ADDGA1071+009009999GF199999061021008001001001MA1102001999999MD1310111+9999MW1001REMSYN076AAXX  17094 60515 42560 62812 10124 20040 40202 53011 86200 333 86830 95900;MET045DAAD 170900Z 28012KT 9999 BKN030 12/04 Q1020;EQDQ01+000062SCOTCVQ02+000000PRSWM2
0139605150999992000111710004+35320+004190FM-15+0461DAAD V0202801N007210090019N0112651N1+01401+00401999999ADDGA1071+009009999GF107991999999999999999999MA1102001999999MW1001REMMET045DAAD 171000Z 28014KT 9999 BKN030 14/04 Q1020;EQDQ01+000000PRSWM2
0139605150999992000111711004+35320+004190FM-15+0461DAAD V0202801N002110078019N0112651N1+01401+00401999999ADDGA1071+007809999GF107991999999999999999999MA1101901999999MW1001REMMET045DAAD 171100Z 28004KT 9999 BKN026 14/04 Q1019;EQDQ01+000000PRSWM2
0268605150999992000111712004+35320+004190SY-MT+0461DAAD V0202801N002110078019N0100001N1+01451+00391101911ADDAA199000091GA1071+007809999GF107991071081008001001001MA1101901999999MD1810081+9999MW1001REMSYN082AAXX  17124 60515 32560 72804 10145 20039 40191 58008 87800 333 0//00 87826 95900;MET045DAAD 171200Z 28004KT 9999 BKN026 15/04 Q1019;EQDQ01+000000PRSWM2Q02  00002PRCP99
0139605150999992000111713004+35320+004190FM-15+0461DAAD V0202801N003110078019N0112651N1+01501+00401999999ADDGA1071+007809999GF107991999999999999999999MA1101801999999MW1001REMMET045DAAD 171300Z 28006KT 9999 BKN026 15/04 Q1018;EQDQ01+000000PRSWM2
0139605150999992000111714004+35320+004190FM-15+0461DAAD V0209999C000010078019N0112651N1+01401+00401999999ADDGA1071+007809999GF107991999999999999999999MA1101691999999MW1001REMMET045DAAD 171400Z 00000KT 9999 BKN026 14/04 Q1017;EQDQ01+000000PRSWM2
0266605150999992000111715004+35320+004190SY-MT+0461DAAD V0202801N004110078019N0100001N1+01421+00321101711ADDGA1071+007809999GA2021+009009099GF108991081031008001999999MA1101691999999MD1710191+9999MW1001REMSYN082AAXX  17154 60515 42560 82808 10142 20032 40171 57019 883// 333 85826 83930 95900;MET054DAAD 171500Z 28008KT 9999 BKN026 SCT030CB 14/03 Q1017;EQDQ01+000000PRSWM2
0182605150999992000111716004+35320+004190FM-15+0461DAAD V0203401N00931220001CN0060001N1+01401+00601999999ADDGA1071+007809999GA2021+009009099MA1101691999999MW1801MW2951REMMET060DAAD 171600Z 34018KT 6000 -TSRA BKN026 SCT030CB 14/06 Q1017;EQDQ01+000042SCOTCVQ02+000003PRSWM1Q03    003PRSWM1
0167605150999992000111717004+35320+004190FM-15+0461DAAD V0203201N002110078019N0060001N1+01001+00801999999ADDGA1021+003009999GA2071+007809999GF107991999999999999999999MA1101801999999MW1001REMMET057DAAD 171700Z 32004KT 6000 FEW010 BKN026 10/08 Q1018 RERA;EQDQ01+000000PRSWM2
0305605150999992000111718004+35320+004190SY-MT+0461DAAD V0203601N004110078019N0070001N1+01081+00501101991ADDAA112002091GA1021+003009999GA2071+007809999GF108991081071002501999999KA1120M+01461MA1101901999999MD1310171+9999MW1001REMSYN094AAXX  17184 60515 12357 83608 10108 20050 40199 53017 60022 887// 333 10146 83710 86826 95990;MET057DAAD 171800Z 36008KT 7000 SCT010 BKN026 11/06 Q1019 RERA;EQDQ01+000000PRSWM2
0324605150999992000111806004+35320+004190SY-MT+0461DAAD V0203001N006210078019N0100001N1+00821+00321102151ADDAA124002091GA1021+003909999GA2071+007809999GF106991061071004501001021IA2240+00709KA1120N+00751MA1102101999999MD1110021+9999MW1001REMSYN106AAXX  18064 60515 11460 63012 10082 20032 40215 51002 60024 700// 86702 333 00700 20075 81713 85826 95970;MET052DAAD 180600Z 30012KT 9999 FEW013 BKN026 08/03 Q1021;EQDQ01+000000PRSWM2
0162605150999992000111807004+35320+004190FM-15+0461DAAD V0202801N006210078019N0112651N1+00901+99999999999ADDGA1021+003909999GA2071+007809999GF107991999999999999999999MA1102101999999MW1001REMMET052DAAD 180700Z 28012KT 9999 FEW013 BKN026 09/// Q1021;EQDQ01+000000PRSWM2
0162605150999992000111808004+35320+004190FM-15+0461DAAD V0202801N010312200019N0112651N1+00901+00301999999ADDGA1021+003909999GA2021+007809999GF104991999999999999999999MA1102201999999MW1001REMMET052DAAD 180800Z 28020KT 9999 FEW013 SCT026 09/03 Q1022;EQDQ01+000000PRSWM2
0235605150999992000111809004+35320+004190SY-MT+0461DAAD V0203001N008212200019N0100001N1+01101+00351102281ADDGA1021+009009999GF104991041021008001001001MA1102201999999MD1310131+9999MW1001REMSYN076AAXX  18094 60515 42560 43016 10110 20035 40228 53013 84200 333 84830 95900;MET045DAAD 180900Z 30016KT 9999 SCT030 11/04 Q1022;EQDQ01+000000PRSWM2
0139605150999992000111810004+35320+004190FM-15+0461DAAD V0203201N008212200019N0112651N1+01201+00301999999ADDGA1021+009009999GF104991999999999999999999MA1102301999999MW1001REMMET045DAAD 181000Z 32016KT 9999 SCT030 12/03 Q1023;EQDQ01+000000PRSWM2
0139605150999992000111811004+35320+004190FM-15+0461DAAD V0203401N007210090019N0112651N1+01201+00301999999ADDGA1071+009009999GF107991999999999999999999MA1102301999999MW1001REMMET045DAAD 181100Z 34014KT 9999 BKN030 12/03 Q1023;EQDQ01+000000PRSWM2
0180605150999992000111812004+35320+004190FM-12+0461DAAD V0203401N007210078019N0100001N1+01351+00251102221ADDAA199000091GA1051+007809089GF105991051021008001001001MD1810041+9999REMSYN082AAXX  18124 60515 32560 53414 10135 20025 40222 58004 85200 333 0//00 85826 95900;EQDQ01  00002PRCP99
0139605150999992000111813004+35320+004190FM-15+0461DAAD V0203401N006210078019N0112651N1+01401+00201999999ADDGA1071+007809999GF107991999999999999999999MA1102101999999MW1001REMMET045DAAD 181300Z 34012KT 9999 BKN026 14/02 Q1021;EQDQ01+000000PRSWM2
0139605150999992000111814004+35320+004190FM-15+0461DAAD V0203401N006210078019N0112651N1+01401+00101999999ADDGA1071+007809999GF107991999999999999999999MA1102101999999MW1001REMMET045DAAD 181400Z 34012KT 9999 BKN026 14/01 Q1021;EQDQ01+000000PRSWM2
0235605150999992000111815004+35320+004190SY-MT+0461DAAD V0203001N007210078019N0100001N1+01371+00301102071ADDGA1071+007809999GF105991051081008001001001MA1102001999999MD1310141+9999MW1001REMSYN076AAXX  18154 60515 42560 53014 10137 20030 40207 53014 85800 333 85826 95900;MET045DAAD 181500Z 30014KT 9999 BKN026 14/03 Q1020;EQDQ01+000000PRSWM2
0139605150999992000111817004+35320+004190FM-15+0461DAAD V0203201N005112200019N0112651N1+01201+00301999999ADDGA1021+006009999GF104991999999999999999999MA1102001999999MW1001REMMET045DAAD 181700Z 32010KT 9999 SCT020 12/03 Q1020;EQDQ01+000000PRSWM2
0297605150999992000111818004+35320+004190SY-MT+0461DAAD V0203201N003112200019N0100001N1+01101+00321102181ADDAA199000091GA1021+007809999GF199999011081008001001001KA1120M+01441MA1102101999999MD1310081+9999MW1001REMSYN082AAXX  18184 60515 32560 13206 10110 20032 40218 53008 81800 333 10144 81826 95990;MET045DAAD 181800Z 32006KT 9999 FEW026 11/03 Q1021;EQDQ01+000012SCOTCVQ02+000000PRSWM2Q03  00002PRCP99
0305605150999992000111906004+35320+004190SY-MT+0461DAAD V0202801N008212200019N0100001N1+00721+00211102181ADDAA199000091GA1021+009909999GF102991011081999999001021IA2240+00809KA1120N+00511MA1102101999999MD1610091+9999MW1001REMSYN094AAXX  19064 60515 31960 22816 10072 20021 40218 56009 700// 81802 333 00800 20051 81833 95970;MET045DAAD 190600Z 28016KT 9999 FEW033 07/02 Q1021;EQDQ01+000000PRSWM2Q02  00002PRCP99
0091605150999992000111908004+35320+004190FM-15+0461DAAD V0202801N00311220001CN0099001N1+00701+00301999999ADDMA1102201999999MW1001REMMET039DAAD 190800Z 28006KT CAVOK 07/03 Q1022;EQDQ01+000000PRSWM2
0235605150999992000111909004+35320+004190SY-MT+0461DAAD V0202801N006212200019N0100001N1+01101+00241102231ADDGA1021+009909999GF104991011021008001071021MA1102201999999MD1310071+9999MW1001REMSYN076AAXX  19094 60515 42560 42812 10110 20024 40223 53007 81272 333 81833 95900;MET045DAAD 190900Z 28012KT 9999 FEW033 11/02 Q1022;EQDQ01+000000PRSWM2
0139605150999992000111910004+35320+004190FM-15+0461DAAD V0202801N005112200019N0112651N1+01201+00301999999ADDGA1021+009909999GF102991999999999999999999MA1102201999999MW1001REMMET045DAAD 191000Z 28010KT 9999 FEW033 12/03 Q1022;EQDQ01+000000PRSWM2
0268605150999992000111912004+35320+004190SY-MT+0461DAAD V0200201N001012200019N0100001N1+01311+00321102131ADDAA199000091GA1021+009909999GF103991021021012501001021MA1102101999999MD1810071+9999MW1001REMSYN082AAXX  19124 60515 32660 30202 10131 20032 40213 58007 82202 333 0//00 82833 95900;MET045DAAD 191200Z 02002KT 9999 FEW033 13/03 Q1021;EQDQ01+000000PRSWM2Q02  00002PRCP99
0139605150999992000111913004+35320+004190FM-15+0461DAAD V0202401N002112200019N0112651N1+01301+00301999999ADDGA1021+009909999GF102991999999999999999999MA1102001999999MW1001REMMET045DAAD 191300Z 24004KT 9999 FEW033 13/03 Q1020;EQDQ01+000000PRSWM2
0139605150999992000111914004+35320+004190FM-15+0461DAAD V0202401N003112200019N0112651N1+01601+00101999999ADDGA1021+009909999GF102991999999999999999999MA1101901999999MW1001REMMET045DAAD 191400Z 24006KT 9999 FEW033 16/01 Q1019;EQDQ01+000000PRSWM2
0235605150999992000111915004+35320+004190SY-MT+0461DAAD V0202401N002112200019N0100001N1+01601+00001101901ADDGA1021+009909999GF102991021021008001001001MA1101901999999MD1710201+9999MW1001REMSYN076AAXX  19154 60515 42560 22404 10160 20000 40190 57020 82200 333 82833 95900;MET045DAAD 191500Z 24004KT 9999 FEW033 16/00 Q1019;EQDQ01+000000PRSWM2
0091605150999992000111916004+35320+004190FM-15+0461DAAD V0202801N00211220001CN0099001N1+01401+00101999999ADDMA1101901999999MW1001REMMET039DAAD 191600Z 28004KT CAVOK 14/01 Q1019;EQDQ01+000000PRSWM2
0091605150999992000111917004+35320+004190FM-15+0461DAAD V0202801N00211220001CN0099001N1+01301+00301999999ADDMA1101901999999MW1001REMMET039DAAD 191700Z 28004KT CAVOK 13/03 Q1019;EQDQ01+000000PRSWM2
0247605150999992000111918004+35320+004190SY-MT+0461DAAD V0209999C000012200019N0100001N1+01021+00381102041ADDAA199000091GF100991001001999999001001KA1120M+01571MA1102001999999MD1310021+9999MW1001REMSYN070AAXX  19184 60515 32960 00000 10102 20038 40204 53002 333 10157 95990;MET039DAAD 191800Z 00000KT CAVOK 10/04 Q1020;EQDQ01+000000PRSWM2Q02  00002PRCP99
0271605150999992000112006004+35320+004190SY-MT+0461DAAD V0209999C000012200019N0100001N1+00171+00031102151ADDAA199000091GF100991001001999999001001IA2240-00109KA1120N+00081MA1102101999999MD1610021+9999MW1001REMSYN082AAXX  20064 60515 31960 00000 10017 20003 40215 56002 700// 333 05100 20008 95970;MET039DAAD 200600Z 00000KT CAVOK 02/00 Q1021;EQDQ01+000000PRSWM2Q02  00002PRCP99
0091605150999992000112007004+35320+004190FM-15+0461DAAD V0209999C00001220001CN0099001N1+00101+00001999999ADDMA1102101999999MW1001REMMET039DAAD 200700Z 00000KT CAVOK 01/00 Q1021;EQDQ01+000000PRSWM2
0091605150999992000112008004+35320+004190FM-15+0461DAAD V0209999C00001220001CN0099001N1+00401+00201999999ADDMA1102201999999MW1001REMMET039DAAD 200800Z 00000KT CAVOK 04/02 Q1022;EQDQ01+000000PRSWM2
0245605150999992000112009004+35320+004190SY-MT+0461DAAD V0209999C000012200019N0100001N1+00701+00351102211ADDGA1021+024009079GF102991021999999999031001MA1102201999999MD1110091+9999MW1001REMSYN076AAXX  20094 60515 42960 20000 10070 20035 40221 51009 82030 333 82358 95900;MET039DAAD 200900Z 00000KT CAVOK 07/04 Q1022;EQDQ01+000000PRSWM2Q02    003SCOLCG
0091605150999992000112010004+35320+004190FM-15+0461DAAD V0209999C00001220001CN0099001N1+00901+00401999999ADDMA1102201999999MW1001REMMET039DAAD 201000Z 00000KT CAVOK 09/04 Q1022;EQDQ01+000000PRSWM2
0091605150999992000112011004+35320+004190FM-15+0461DAAD V0209999C00001220001CN0099001N1+00901+00401999999ADDMA1102201999999MW1001REMMET039DAAD 201100Z 00000KT CAVOK 09/04 Q1022;EQDQ01+000000PRSWM2
0278605150999992000112012004+35320+004190SY-MT+0461DAAD V0209999C000012200019N0100001N1+01261+00341102031ADDAA199000091GA1021+024009079GF102991021999999999031001MA1102001999999MD1610131+9999MW1001REMSYN082AAXX  20124 60515 32960 20000 10126 20034 40203 56013 82030 333 0//00 82358 95900;MET039DAAD 201200Z 00000KT CAVOK 13/03 Q1020;EQDQ01+000000PRSWM2Q02  00002PRCP99Q03    003SCOLCG
0091605150999992000112013004+35320+004190FM-15+0461DAAD V0209999C00001220001CN0099001N1+01401+00401999999ADDMA1101901999999MW1001REMMET039DAAD 201300Z 00000KT CAVOK 14/04 Q1019;EQDQ01+000000PRSWM2
0091605150999992000112014004+35320+004190FM-15+0461DAAD V0209999C00001220001CN0099001N1+01401+00401999999ADDMA1101901999999MW1001REMMET039DAAD 201400Z 00000KT CAVOK 14/04 Q1019;EQDQ01+000000PRSWM2
0144605150999992000112015004+35320+004190FM-12+0461DAAD V0209999C000010240019N0100001N1+01481+00301101871ADDGA1051+024009039GF105991051001999999071001MD1610131+9999REMSYN076AAXX  20154 60515 42960 50000 10148 20030 40187 56013 85070 333 85358 95900;
0091605150999992000112016004+35320+004190FM-15+0461DAAD V0209999C00001220001CN0099001N1+01401+00301999999ADDMA1101801999999MW1001REMMET039DAAD 201600Z 00000KT CAVOK 14/03 Q1018;EQDQ01+000000PRSWM2
0091605150999992000112017004+35320+004190FM-15+0461DAAD V0209999C00001220001CN0099001N1+01401+00401999999ADDMA1101801999999MW1001REMMET039DAAD 201700Z 00000KT CAVOK 14/04 Q1018;EQDQ01+000000PRSWM2
0193605150999992000112018004+35320+004190FM-12+0461DAAD V0209999C000012200019N0100001N1+01171+00301101901ADDAA199000091GA1031+018009039GF103991031001022501071001KA1120M+01541MD1510001+9999REMSYN082AAXX  20184 60515 32860 30000 10117 20030 40190 55000 83070 333 10154 83356 95990;EQDQ01  00002PRCP99
0223605150999992000112106004+35320+004190FM-12+0461DAAD V0203001N003110090019N0100001N1+00901+00441101871ADDAA199000091GA1071+009009089GF107991071021008001999999IA2240+00709KA1120N+00841MD1310071+9999MW1001REMSYN094AAXX  21064 60515 31560 73006 10090 20044 40187 53007 700// 872// 333 00700 20084 87830 95990;EQDQ01  00002PRCP99
0139605150999992000112107004+35320+004190FM-15+0461DAAD V0203001N005110090019N0112651N1+01201+00701999999ADDGA1071+009009999GF107991999999999999999999MA1101901999999MW1001REMMET045DAAD 210700Z 30010KT 9999 BKN030 12/07 Q1019;EQDQ01+000000PRSWM2
0139605150999992000112108004+35320+004190FM-15+0461DAAD V0202801N006210090019N0112651N1+01301+00601999999ADDGA1071+009009999GF107991999999999999999999MA1102101999999MW1001REMMET045DAAD 210800Z 28012KT 9999 BKN030 13/06 Q1021;EQDQ01+000000PRSWM2
0235605150999992000112109004+35320+004190SY-MT+0461DAAD V0202801N007212200019N0100001N1+01451+00541102031ADDGA1021+009009999GF104991041021008001001001MA1102001999999MD1210211+9999MW1001REMSYN076AAXX  21094 60515 42560 42814 10145 20054 40203 52021 84200 333 84830 95900;MET045DAAD 210900Z 28014KT 9999 SCT030 15/05 Q1020;EQDQ01+000000PRSWM2
0139605150999992000112110004+35320+004190FM-15+0461DAAD V0203001N007212200019N0112651N1+01601+00501999999ADDGA1021+009009999GF104991999999999999999999MA1102001999999MW1001REMMET045DAAD 211000Z 30014KT 9999 SCT030 16/05 Q1020;EQDQ01+000000PRSWM2
0139605150999992000112111004+35320+004190FM-15+0461DAAD V0203001N007212200019N0112651N1+01601+00501999999ADDGA1021+009009999GF104991999999999999999999MA1102001999999MW1001REMMET045DAAD 211100Z 30014KT 9999 SCT030 16/05 Q1020;EQDQ01+000000PRSWM2
0268605150999992000112112004+35320+004190SY-MT+0461DAAD V0203001N009312200019N0100001N1+01661+00391102011ADDAA199000091GA1021+009009999GF103991031021008001001001MA1102001999999MD1010021+9999MW1001REMSYN082AAXX  21124 60515 32560 33018 10166 20039 40201 50002 83200 333 0//00 83830 95900;MET045DAAD 211200Z 33018KT 9999 SCT030 17/04 Q1020;EQDQ01+000000PRSWM2Q02  00002PRCP99
0139605150999992000112113004+35320+004190FM-15+0461DAAD V0203001N008212200019N0112651N1+01701+00401999999ADDGA1021+009009999GF104991999999999999999999MA1101901999999MW1001REMMET045DAAD 211300Z 30016KT 9999 SCT030 17/04 Q1019;EQDQ01+000000PRSWM2
0139605150999992000112114004+35320+004190FM-15+0461DAAD V0203001N007210090019N0112651N1+01701+00201999999ADDGA1071+009009999GF107991999999999999999999MA1101901999999MW1001REMMET045DAAD 211400Z 30014KT 9999 BKN030 17/02 Q1019;EQDQ01+000000PRSWM2
0251605150999992000112115004+35320+004190SY-MT+0461DAAD V0203001N009310090019N0100001N1+01651+00151101991ADDGA1071+009009999GF199999061021008001001001MA1101901999999MD1510061+9999MW1001REMSYN076AAXX  21154 60515 42560 63018 10165 20015 40199 55006 86200 333 86830 95900;MET045DAAD 211500Z 30018KT 9999 BKN030 17/02 Q1019;EQDQ01+000062SCOTCVQ02+000000PRSWM2
0081605150999992000112116004+35320+004190FM-15+0461DAAD V02099999999992200019N9999999N1+99999+99999999999ADDMW1001REMMET044DAAD 21600Z 30014KT 9999 BKN030 16/02 Q1020;EQDQ01+000000PRSWM2
0139605150999992000112117004+35320+004190FM-15+0461DAAD V0203001N006210090019N0112651N1+01501+00201999999ADDGA1071+009009999GF107991999999999999999999MA1102101999999MW1001REMMET045DAAD 211700Z 30012KT 9999 BKN030 15/02 Q1021;EQDQ01+000000PRSWM2
0281605150999992000112118004+35320+004190SY-MT+0461DAAD V0203001N005110090019N0100001N1+01501+00461102161ADDAA199000091GA1071+009009999GF107991051021008001999999KA1120M+01911MA1102101999999MD1310181+9999MW1001REMSYN082AAXX  21184 60515 32560 73010 10150 20046 40216 53018 852// 333 10191 87830 95990;MET045DAAD 211800Z 30010KT 9999 BKN030 15/05 Q1021;EQDQ01+000000PRSWM2Q02  00002PRCP99
0321605150999992000112206004+35320+004190SY-MT+0461DAAD V0209999C000012200019N0100001N1+00611+00301102381ADDAA199000091GA1021+009909999GF199999011051008001001001IA2240+00409KA1120N+00561MA1102301999999MD1310031+9999MW1001REMSYN094AAXX  22064 60515 31560 10000 10061 20030 40238 53003 700// 81500 333 00400 20056 81633 95990;MET045DAAD 220600Z 00000KT 9999 FEW033 06/03 Q1023;EQDQ01+000012SCOTCVQ02+000000PRSWM2Q03  00002PRCP99
0139605150999992000112207004+35320+004190FM-15+0461DAAD V0209999C000012200019N0112651N1+00601+00201999999ADDGA1021+009909999GF102991999999999999999999MA1102401999999MW1001REMMET045DAAD 220700Z 00000KT 9999 FEW033 06/02 Q1024;EQDQ01+000000PRSWM2
0091605150999992000112208004+35320+004190FM-15+0461DAAD V0209999C00001220001CN0099001N1+00901+00501999999ADDMA1102511999999MW1001REMMET039DAAD 220800Z 00000KT CAVOK 09/05 Q1025;EQDQ01+000000PRSWM2
0132605150999992000112209004+35320+004190FM-12+0461DAAD V0209999C000012200019N0100001N1+00861+00501102511ADDGA1001+999999999GF100991001001999999001001MD1210111+9999REMSYN064AAXX  22094 60515 42960 00000 10086 20050 40251 52011 333 95900;
0091605150999992000112210004+35320+004190FM-15+0461DAAD V0209999C00001220001CN0099001N1+01101+00601999999ADDMA1102511999999MW1001REMMET039DAAD 221000Z 00000KT CAVOK 11/06 Q1025;EQDQ01+000000PRSWM2
0139605150999992000112211004+35320+004190FM-15+0461DAAD V0200601N003112200019N0112651N1+01301+00601999999ADDGA1021+009909999GF102991999999999999999999MA1102401999999MW1001REMMET045DAAD 221100Z 06006KT 9999 FEW033 13/06 Q1024;EQDQ01+000000PRSWM2
0284605150999992000112212004+35320+004190SY-MT+0461DAAD V0209999C000012200019N0100001N1+01461+00561102351ADDAA199000091GA1021+009909999GF199999011021999999001001MA1102301999999MD1810101+9999MW1001REMSYN082AAXX  22124 60515 32960 10000 10146 20056 40235 58010 81200 333 0//00 81833 95900;MET045DAAD 221200Z 00000KT 9999 FEW033 15/06 Q1023;EQDQ01+000012SCOTCVQ02+000000PRSWM2Q03  00002PRCP99
0139605150999992000112213004+35320+004190FM-15+0461DAAD V0209999C000012200019N0112651N1+01601+00601999999ADDGA1021+009909999GF102991999999999999999999MA1102201999999MW1001REMMET045DAAD 221300Z 00000KT 9999 FEW033 16/06 Q1022;EQDQ01+000000PRSWM2
0229605150999992000112215004+35320+004190SY-MT+0461DAAD V0201201N002112200019N0100001N1+01721+00601102151ADDGA1011+060009019GF101991001001999999001021MA1102101999999MD1710171+9999MW1001REMSYN076AAXX  22154 60515 42960 11204 10172 20060 40215 57017 80002 333 81070 95900;MET039DAAD 221500Z 12004KT CAVOK 17/06 Q1021;EQDQ01+000000PRSWM2
0091605150999992000112216004+35320+004190FM-15+0461DAAD V0200601N00211220001CN0099001N1+01601+00601999999ADDMA1102101999999MW1001REMMET039DAAD 221600Z 06004KT CAVOK 16/06 Q1021;EQDQ01+000000PRSWM2
0091605150999992000112217004+35320+004190FM-15+0461DAAD V0200601N00211220001CN0099001N1+01401+00701999999ADDMA1102201999999MW1001REMMET039DAAD 221700Z 06004KT CAVOK 14/07 Q1022;EQDQ01+000000PRSWM2
0275605150999992000112218004+35320+004190SY-MT+0461DAAD V0209999C000012200019N0100001N1+01181+00641102341ADDAA199000091GA1011+060009019GF101991001001999999001021KA1120M+01721MA1102301999999MD1310091+9999MW1001REMSYN082AAXX  22184 60515 32960 10000 10118 20064 40234 53009 80002 333 10172 81070 95990;MET039DAAD 221800Z 00000KT CAVOK 12/06 Q1023;EQDQ01+000000PRSWM2Q02  00002PRCP99
0271605150999992000112306004+35320+004190SY-MT+0461DAAD V0209999C000012200019N0100001N1+00271+00191102261ADDAA199000091GF100991001001999999001001IA2240-00109KA1120N+00121MA1102201999999MD1610081+9999MW1001REMSYN082AAXX  23064 60515 31960 00000 10027 20019 40226 56008 700// 333 05100 20012 95900;MET039DAAD 230600Z 00000KT CAVOK 03/02 Q1022;EQDQ01+000000PRSWM2Q02  00002PRCP99
0091605150999992000112307004+35320+004190FM-15+0461DAAD V0209999C00001220001CN0099001N1+00301+00201999999ADDMA1102301999999MW1001REMMET039DAAD 230700Z 00000KT CAVOK 03/02 Q1023;EQDQ01+000000PRSWM2
0091605150999992000112308004+35320+004190FM-15+0461DAAD V0201401N00101220001CN0099001N1+00701+00301999999ADDMA1102201999999MW1001REMMET039DAAD 230800Z 14002KT CAVOK 07/03 Q1022;EQDQ01+000000PRSWM2
0229605150999992000112309004+35320+004190SY-MT+0461DAAD V0209999C000012200019N0100001N1+00891+00381102281ADDGA1031+069009019GF103991001001999999001021MA1102201999999MD1310061+9999MW1001REMSYN076AAXX  23094 60515 42960 30000 10089 20038 40228 53006 80002 333 83073 95900;MET039DAAD 230900Z 00000KT CAVOK 09/04 Q1022;EQDQ01+000000PRSWM2
0091605150999992000112310004+35320+004190FM-15+0461DAAD V0209999C00001220001CN0099001N1+01001+00401999999ADDMA1102201999999MW1001REMMET039DAAD 231000Z 00000KT CAVOK 10/04 Q1022;EQDQ01+000000PRSWM2
0091605150999992000112311004+35320+004190FM-15+0461DAAD V0209999C00001220001CN0099001N1+01301+00501999999ADDMA1102201999999MW1001REMMET039DAAD 231100Z 00000KT CAVOK 13/05 Q1022;EQDQ01+000000PRSWM2
0262605150999992000112312004+35320+004190SY-MT+0461DAAD V0209999C000010690019N0100001N1+01441+00531102091ADDAA199000091GA1061+069009019GF106991001001999999001021MA1102001999999MD1810161+9999MW1001REMSYN082AAXX  23124 60515 32960 60000 10144 20053 40209 58016 80002 333 0//00 86073 95900;MET039DAAD 231200Z 00000KT CAVOK 14/05 Q1020;EQDQ01+000000PRSWM2Q02  00002PRCP99
0139605150999992000112313004+35320+004190FM-15+0461DAAD V0209999C000012200019N0112651N1+01601+00601999999ADDGA1021+012009999GF102991999999999999999999MA1101901999999MW1001REMMET045DAAD 231300Z 00000KT 9999 FEW040 16/06 Q1019;EQDQ01+000000PRSWM2
0162605150999992000112314004+35320+004190FM-15+0461DAAD V0209999C000012200019N0112651N1+01601+00601999999ADDGA1021+009909999GA2021+024009999GF104991999999999999999999MA1101901999999MW1001REMMET052DAAD 231400Z 00000KT 9999 SCT033 SCT080 16/06 Q1019;EQDQ01+000000PRSWM2
0235605150999992000112315004+35320+004190SY-MT+0461DAAD V0209999C000010360019N0100001N1+01551+00501101901ADDGA1021+009909999GF105991031021012501031021MA1101901999999MD1710181+9999MW1001REMSYN076AAXX  23154 60515 42660 50000 10155 20050 40190 57018 83232 333 83833 95900;MET045DAAD 231500Z 00000KT 9999 SCT033 16/05 Q1019;EQDQ01+000000PRSWM2
0139605150999992000112316004+35320+004190FM-15+0461DAAD V0209999C000012200019N0112651N1+01501+00401999999ADDGA1021+009909999GF104991999999999999999999MA1101801999999MW1001REMMET045DAAD 231600Z 00000KT 9999 SCT033 15/04 Q1018;EQDQ01+000000PRSWM2
0281605150999992000112318004+35320+004190SY-MT+0461DAAD V0209999C000010360019N0100001N1+01341+00531101951ADDAA199000091GA1021+009009999GF105991041021008001031001KA1120M+01641MA1101901999999MD1310011+9999MW1001REMSYN082AAXX  23184 60515 32560 50000 10134 20053 40195 53001 84230 333 10164 84830 95990;MET045DAAD 231800Z 00000KT 9999 SCT030 13/05 Q1019;EQDQ01+000000PRSWM2Q02  00002PRCP99
0321605150999992000112406004+35320+004190SY-MT+0461DAAD V0202801N007210078019N0100001N1+01451+00871101701ADDAA199000091GA1071+007809999GF199999051081008001001001IA2240+01009KA1120N+01051MA1101691999999MD1510051+9999MW1001REMSYN094AAXX  24064 60515 31560 52814 10145 20087 40170 55005 700// 85800 333 01000 20105 85826 95990;MET045DAAD 240600Z 28014KT 9999 BKN026 15/09 Q1017;EQDQ01+000052SCOTCVQ02+000000PRSWM2Q03  00002PRCP99
0139605150999992000112407004+35320+004190FM-15+0461DAAD V0203001N007210078019N0112651N1+01301+00801999999ADDGA1071+007809999GF107991999999999999999999MA1101801999999MW1001REMMET045DAAD 240700Z 30014KT 9999 BKN026 13/08 Q1018;EQDQ01+000000PRSWM2
0162605150999992000112408004+35320+004190FM-15+0461DAAD V0203001N005112200019N0112651N1+01201+00701999999ADDGA1021+004809999GA2021+007809999GF104991999999999999999999MA1101901999999MW1001REMMET052DAAD 240800Z 30010KT 9999 FEW016 SCT026 12/07 Q1019;EQDQ01+000000PRSWM2
0235605150999992000112409004+35320+004190SY-MT+0461DAAD V0203201N004112200019N0100001N1+01361+00601102021ADDGA1021+007809999GF103991031071008001001001MA1102001999999MD1310281+9999MW1001REMSYN076AAXX  24094 60515 42560 33208 10136 20060 40202 53028 83700 333 83826 95900;MET045DAAD 240900Z 32008KT 9999 SCT026 14/06 Q1020;EQDQ01+000000PRSWM2
0139605150999992000112410004+35320+004190FM-15+0461DAAD V0203001N007212200019N0112651N1+01601+00401999999ADDGA1021+007809999GF104991999999999999999999MA1102001999999MW1001REMMET045DAAD 241000Z 30014KT 9999 SCT026 16/04 Q1020;EQDQ01+000000PRSWM2
0139605150999992000112411004+35320+004190FM-15+0461DAAD V0203001N006210078019N0112651N1+01501+00401999999ADDGA1071+007809999GF107991999999999999999999MA1102001999999MW1001REMMET045DAAD 241100Z 30012KT 9999 BKN026 15/04 Q1020;EQDQ01+000000PRSWM2
0284605150999992000112412004+35320+004190SY-MT+0461DAAD V0203001N009310078019N0100001N1+01621+00231102071ADDAA199000091GA1071+007809999GF199999051021008001001001MA1102001999999MD1210081+9999MW1001REMSYN082AAXX  24124 60515 32560 53018 10162 20023 40207 52008 85200 333 0//00 85826 95900;MET045DAAD 241200Z 30018KT 9999 BKN026 16/02 Q1020;EQDQ01+000052SCOTCVQ02+000000PRSWM2Q03  00002PRCP99
0139605150999992000112413004+35320+004190FM-15+0461DAAD V0203001N009310078019N0080001N1+01601+00001999999ADDGA1071+007809999GF107991999999999999999999MA1102001999999MW1001REMMET045DAAD 241300Z 30018KT 8000 BKN026 16/00 Q1020;EQDQ01+000000PRSWM2
0140605150999992000112414004+35320+004190FM-15+0461DAAD V0203001N009310078019N0080001N1+01601+00001999999ADDGA1071+007809999GF107991999999999999999999MA1101901999999MW1001REMMET046DAAD 241400Z 30018KT 8000 BKN026 16/M00 Q1019;EQDQ01+000000PRSWM2
0235605150999992000112415004+35320+004190SY-MT+0461DAAD V0203001N006212200019N0080001N1+01601+00041101981ADDGA1021+007809999GF104991041021008001001001MA1101901999999MD1510081+9999MW1001REMSYN076AAXX  24154 60515 42558 43012 10160 20004 40198 55008 84200 333 84826 95900;MET045DAAD 241500Z 30012KT 8000 SCT026 16/00 Q1019;EQDQ01+000000PRSWM2
0139605150999992000112416004+35320+004190FM-15+0461DAAD V0203001N006212200019N0080001N1+01501+00001999999ADDGA1021+007809999GF104991999999999999999999MA1101901999999MW1001REMMET045DAAD 241600Z 30012KT 8000 SCT026 15/00 Q1019;EQDQ01+000000PRSWM2
0139605150999992000112417004+35320+004190FM-15+0461DAAD V0203201N005112200019N0080001N1+01401+00001999999ADDGA1021+012009999GF102991999999999999999999MA1101901999999MW1001REMMET045DAAD 241700Z 32010KT 8000 FEW040 14/00 Q1019;EQDQ01+000000PRSWM2
0281605150999992000112418004+35320+004190SY-MT+0461DAAD V0203201N005112200019N0080001N1+01261+00351102031ADDAA199000091GA1021+012009999GF103991021021012501001021KA1120M+01651MA1102001999999MD1310041+9999MW1001REMSYN082AAXX  24184 60515 32658 33210 10126 20035 40203 53004 82202 333 10165 82840 95990;MET045DAAD 241800Z 32010KT 8000 FEW040 13/04 Q1020;EQDQ01+000000PRSWM2Q02  00002PRCP99
0223605150999992000112506004+35320+004190FM-12+0461DAAD V0203001N006210078019N0080001N1+01261+00271101901ADDAA199000091GA1081+007809089GF108991081021008001999999IA2240+00909KA1120N+01001MD1510001+9999MW1001REMSYN094AAXX  25064 60515 31558 83012 10126 20027 40190 55000 700// 882// 333 00900 20100 88826 95990;EQDQ01  00002PRCP99
0162605150999992000112507004+35320+004190FM-15+0461DAAD V0202801N011310078019N0080001N1+01101+00801999999ADDGA1021+003009999GA2071+007809999GF107991999999999999999999MA1101901999999MW1001REMMET052DAAD 250700Z 28022KT 8000 FEW010 BKN026 11/08 Q1019;EQDQ01+000000PRSWM2
0162605150999992000112508004+35320+004190FM-15+0461DAAD V0202801N007210078019N0080001N1+01201+00901999999ADDGA1021+003009999GA2071+007809999GF107991999999999999999999MA1102001999999MW1001REMMET052DAAD 250800Z 28014KT 8000 FEW010 BKN026 12/09 Q1020;EQDQ01+000000PRSWM2
0162605150999992000112509004+35320+004190FM-15+0461DAAD V0202801N007210078019N0080001N1+01301+00901999999ADDGA1021+003009999GA2071+007809999GF107991999999999999999999MA1102001999999MW1001REMMET052DAAD 250900Z 28014KT 8000 FEW010 BKN026 13/09 Q1020;EQDQ01+000000PRSWM2
0162605150999992000112510004+35320+004190FM-15+0461DAAD V0202801N006210078019N0080001N1+01401+00901999999ADDGA1021+003009999GA2071+007809999GF107991999999999999999999MA1102101999999MW1001REMMET052DAAD 251000Z 28012KT 8000 FEW010 BKN026 14/09 Q1021;EQDQ01+000000PRSWM2
0162605150999992000112511004+35320+004190FM-15+0461DAAD V0202801N007210078019N0080001N1+01601+00901999999ADDGA1021+003009999GA2071+007809999GF107991999999999999999999MA1102101999999MW1001REMMET052DAAD 251100Z 28014KT 8000 FEW010 BKN026 16/09 Q1021;EQDQ01+000000PRSWM2
0278605150999992000112512004+35320+004190SY-MT+0461DAAD V0203001N009310078019N0100001N1+01801+00841102011ADDAA199000091GA1071+007809999GF199999051021008001001001MA1102001999999MD1010011+9999MW1001REMSYN076AAXX  25124 60515 32560 53018 10180 20084 40201 50001 85200 333 85826 95900;MET045DAAD 251200Z 30018KT 9999 BKN026 18/08 Q1020;EQDQ01+000052SCOTCVQ02+000000PRSWM2Q03  00002PRCP99
0139605150999992000112513004+35320+004190FM-15+0461DAAD V0203301N008210078019N0112651N1+01801+00901999999ADDGA1071+007809999GF107991999999999999999999MA1102001999999MW1001REMMET045DAAD 251300Z 33016KT 9999 BKN026 18/09 Q1020;EQDQ01+000000PRSWM2
0139605150999992000112515004+35320+004190FM-15+0461DAAD V0203401N006210090019N0112651N1+01901+00901999999ADDGA1071+009009999GF107991999999999999999999MA1101901999999MW1001REMMET045DAAD 251500Z 34012KT 9999 BKN030 19/09 Q1019;EQDQ01+000000PRSWM2
0139605150999992000112516004+35320+004190FM-15+0461DAAD V0203301N007210090019N0112651N1+01801+00801999999ADDGA1071+009009999GF107991999999999999999999MA1101901999999MW1001REMMET045DAAD 251600Z 33014KT 9999 BKN030 18/08 Q1019;EQDQ01+000000PRSWM2
0139605150999992000112517004+35320+004190FM-15+0461DAAD V0203401N006210090019N0112651N1+01701+00801999999ADDGA1071+009009999GF107991999999999999999999MA1102001999999MW1001REMMET045DAAD 251700Z 34012KT 9999 BKN030 17/08 Q1020;EQDQ01+000000PRSWM2
0281605150999992000112518004+35320+004190SY-MT+0461DAAD V0203401N005112200019N0100001N1+01581+00691102151ADDAA199000091GA1021+009009999GF102991021021008001001001KA1120M+01941MA1102201999999MD1310141+9999MW1001REMSYN082AAXX  25184 60515 32560 23410 10158 20069 40215 53014 82200 333 10194 82830 95990;MET045DAAD 251800Z 34010KT 9999 FEW030 16/08 Q1022;EQDQ01+000000PRSWM2Q02  00002PRCP99
0223605150999992000112606004+35320+004190FM-12+0461DAAD V0202801N006212200019N0100001N1+01501+01181102581ADDAA199000091GA1031+007809069GF104991031051008001001021IA2240+01109KA1120N+01341MD1310011+9999MW1001REMSYN094AAXX  26064 60515 31560 42812 10150 20118 40258 53001 700// 83502 333 01100 20134 83626 95990;EQDQ01  00002PRCP99
0139605150999992000112608004+35320+004190FM-15+0461DAAD V0202801N006212200019N0112651N1+01701+01001999999ADDGA1021+007809999GF104991999999999999999999MA1102401999999MW1001REMMET045DAAD 260800Z 28012KT 9999 SCT026 17/10 Q1024;EQDQ01+000000PRSWM2
0235605150999992000112609004+35320+004190SY-MT+0461DAAD V0202801N005112200019N0100001N1+01721+01041102581ADDGA1021+007809999GF103991021021008001001021MA1102511999999MD1210191+9999MW1001REMSYN076AAXX  26094 60515 42560 32810 10172 20104 40258 52019 82202 333 82826 95900;MET045DAAD 260900Z 28020KT 9999 FEW026 17/10 Q1025;EQDQ01+000000PRSWM2
0139605150999992000112611004+35320+004190FM-15+0461DAAD V0203001N010312200019N0112651N1+02001+01101999999ADDGA1021+007809999GF104991999999999999999999MA1102611999999MW1001REMMET045DAAD 261100Z 30020KT 9999 SCT026 20/11 Q1026;EQDQ01+000000PRSWM2
0268605150999992000112612004+35320+004190SY-MT+0461DAAD V0202801N009312200019N0100001N1+02081+01041102421ADDAA199000091GA1021+007809999GF104991041021008001001001MA1102401999999MD1610111+9999MW1001REMSYN082AAXX  26124 60515 32560 42818 10208 20104 40242 56011 84200 333 0//00 84826 95900;MET045DAAD 261200Z 28018KT 9999 SCT026 21/10 Q1024;EQDQ01+000000PRSWM2Q02  00002PRCP99
0139605150999992000112613004+35320+004190FM-15+0461DAAD V0203001N010312200019N0112651N1+02201+00901999999ADDGA1021+007809999GF104991999999999999999999MA1102301999999MW1001REMMET045DAAD 261300Z 30020KT 9999 SCT026 22/09 Q1023;EQDQ01+000000PRSWM2
0139605150999992000112614004+35320+004190FM-15+0461DAAD V0203101N010312200019N0112651N1+02201+00901999999ADDGA1021+007809999GF104991999999999999999999MA1102301999999MW1001REMMET045DAAD 261400Z 31020KT 9999 SCT026 22/09 Q1023;EQDQ01+000000PRSWM2
0251605150999992000112615004+35320+004190SY-MT+0461DAAD V0202801N006210078019N0100001N1+02181+00951102391ADDGA1071+007809999GF199999051021008001001001MA1102301999999MD1510011+9999MW1001REMSYN076AAXX  26154 60515 42560 52812 10218 20095 40239 55001 85200 333 85826 95900;MET045DAAD 261500Z 28012KT 9999 BKN026 22/10 Q1023;EQDQ01+000052SCOTCVQ02+000000PRSWM2
0281605150999992000112618004+35320+004190SY-MT+0461DAAD V0202801N005112200019N0100001N1+02041+00841102511ADDAA199000091GA1021+007809999GF104991021021008001001021KA1120M+02281MA1102401999999MD1310091+9999MW1001REMSYN082AAXX  26184 60515 32560 42810 10204 20084 40251 53009 82202 333 10228 82826 95990;MET045DAAD 261800Z 28010KT 9999 FEW026 20/08 Q1024;EQDQ01+000000PRSWM2Q02  00002PRCP99
0271605150999992000112706004+35320+004190SY-MT+0461DAAD V0203301N005112200019N0100001N1+01541+00921102581ADDAA199000091GF100991001001999999001001IA2240+01109KA1120N+01361MA1102511999999MD1610051+9999MW1001REMSYN082AAXX  27064 60515 31960 03310 10154 20092 40258 56005 700// 333 01100 20136 95990;MET039DAAD 270600Z 33010KT CAVOK 15/09 Q1025;EQDQ01+000000PRSWM2Q02  00002PRCP99
0090605150999992000112707004+35320+004190FM-15+0461DAAD V0209999999999220001CN0099001N1+01701+00901999999ADDMA1102611999999MW1001REMMET038DAAD 270700Z 2812KT CAVOK 17/09 Q1026;EQDQ01+000000PRSWM2
0091605150999992000112708004+35320+004190FM-15+0461DAAD V0203401N00511220001CN0099001N1+01501+01001999999ADDMA1102611999999MW1001REMMET039DAAD 270800Z 34010KT CAVOK 15/10 Q1026;EQDQ01+000000PRSWM2
0235605150999992000112709004+35320+004190SY-MT+0461DAAD V0202801N006212200019N0100001N1+01751+01011102741ADDGA1021+009909999GF102991021021012501001021MA1102711999999MD1310151+9999MW1001REMSYN076AAXX  27094 60515 42660 22812 10175 20101 40274 53015 82202 333 82833 95900;MET045DAAD 270900Z 28012KT 9999 FEW033 18/10 Q1027;EQDQ01+000000PRSWM2
0139605150999992000112710004+35320+004190FM-15+0461DAAD V0202801N005112200019N0112651N1+02001+00901999999ADDGA1021+009909999GF102991999999999999999999MA1102711999999MW1001REMMET045DAAD 271000Z 28010KT 9999 FEW033 20/09 Q1027;EQDQ01+000000PRSWM2
0268605150999992000112712004+35320+004190SY-MT+0461DAAD V0202801N005112200019N0100001N1+02261+00861102611ADDAA199000091GA1021+009909999GF102991021021012501001021MA1102611999999MD1810091+9999MW1001REMSYN082AAXX  27124 60515 32660 22810 10226 20086 40261 58009 82202 333 0//00 82833 95900;MET045DAAD 271200Z 28010KT 9999 FEW033 23/09 Q1026;EQDQ01+000000PRSWM2Q02  00002PRCP99
0139605150999992000112713004+35320+004190FM-15+0461DAAD V0202801N005112200019N0112651N1+02401+00801999999ADDGA1021+009909999GF102991999999999999999999MA1102511999999MW1001REMMET045DAAD 271300Z 28010KT 9999 FEW033 24/08 Q1025;EQDQ01+000000PRSWM2
0139605150999992000112714004+35320+004190FM-15+0461DAAD V0202801N005112200019N0112651N1+02401+00801999999ADDGA1021+009909999GF102991999999999999999999MA1102401999999MW1001REMMET045DAAD 271400Z 28010KT 9999 FEW033 24/08 Q1024;EQDQ01+000000PRSWM2
0229605150999992000112715004+35320+004190SY-MT+0461DAAD V0203001N004112200019N0100001N1+02361+00961102481ADDGA1021+009909029GF102991021021012501001001MA1102401999999MD1610121+9999MW1001REMSYN076AAXX  27154 60515 42660 23008 10236 20096 40248 56012 82200 333 82833 95900;MET039DAAD 271500Z 30006KT CAVOK 23/09 Q1024;EQDQ01+000000PRSWM2
0091605150999992000112717004+35320+004190FM-15+0461DAAD V0203001N00311220001CN0099001N1+02201+00901999999ADDMA1102401999999MW1001REMMET039DAAD 271700Z 30006KT CAVOK 22/09 Q1024;EQDQ01+000000PRSWM2
0275605150999992000112718004+35320+004190SY-MT+0461DAAD V0203001N004112200019N0100001N1+01951+00781102591ADDAA199000091GA1021+060009019GF102991001001999999001021KA1120M+02371MA1102511999999MD1310061+9999MW1001REMSYN082AAXX  27184 60515 32960 23008 10195 20078 40259 53006 80002 333 10237 82070 95990;MET039DAAD 271800Z 30008KT CAVOK 20/08 Q1025;EQDQ01+000000PRSWM2Q02  00002PRCP99
0283605150999992000112806004+35320+004190SY-MT+0461DAAD V0203501N00721220001CN0100001N1+01541+01021102541ADDAA199000091GF103991001001999999001021IA2240+01109KA1120N+01321MA1102511999999MD1610041+9999MW1001REMSYN094AAXX  28064 60515 31960 35014 10154 20102 40254 56004 700// 80002 333 01100 20132 83070 95990;MET039DAAD 280600Z 35014KT CAVOK 15/10 Q1025;EQDQ01+000000PRSWM2Q02  00002PRCP99
0091605150999992000112807004+35320+004190FM-15+0461DAAD V0209999C00001220001CN0099001N1+01601+01001999999ADDMA1102511999999MW1001REMMET039DAAD 280700Z 00000KT CAVOK 16/10 Q1025;EQDQ01+000000PRSWM2
0091605150999992000112808004+35320+004190FM-15+0461DAAD V0209999C00001220001CN0099001N1+00802+00701999999ADDMA1102711999999MW1001REMMET039DAAD 280800Z 00000KT CAVOK 08/07 Q1027;EQDQ01+000000PRSWM2
0229605150999992000112809004+35320+004190SY-MT+0461DAAD V0209999C000012200019N0100001N1+01041+00751102801ADDGA1031+060009019GF103991001001999999001021MA1102811999999MD1310081+9999MW1001REMSYN076AAXX  28094 60515 42960 30000 10104 20075 40280 53008 80002 333 83070 95900;MET039DAAD 280900Z 00000KT CAVOK 10/08 Q1028;EQDQ01+000000PRSWM2
0091605150999992000112810004+35320+004190FM-15+0461DAAD V0209999C00001220001CN0099001N1+01301+00901999999ADDMA1102811999999MW1001REMMET039DAAD 281000Z 00000KT CAVOK 13/09 Q1028;EQDQ01+000000PRSWM2
0091605150999992000112811004+35320+004190FM-15+0461DAAD V0209999C00001220001CN0099001N1+01501+00901999999ADDMA1102811999999MW1001REMMET039DAAD 281100Z 00000KT CAVOK 15/09 Q1028;EQDQ01+000000PRSWM2
0262605150999992000112812004+35320+004190SY-MT+0461DAAD V0209999C000012200019N0100001N1+01741+00691102621ADDAA199000091GA1041+060009019GF104991001001999999001021MA1102811999999MD1810141+9999MW1001REMSYN082AAXX  28124 60515 32960 40000 10174 20069 40262 58014 80002 333 0//00 84070 96900;MET039DAAD 281200Z 00000KT CAVOK 17/07 Q1028;EQDQ01+000000PRSWM2Q02  00002PRCP99
0091605150999992000112813004+35320+004190FM-15+0461DAAD V0209999C00001220001CN0099001N1+02001+00901999999ADDMA1102511999999MW1001REMMET039DAAD 281300Z 00000KT CAVOK 20/09 Q1025;EQDQ01+000000PRSWM2
0091605150999992000112814004+35320+004190FM-15+0461DAAD V0209999C00001220001CN0099001N1+02101+00901999999ADDMA1102401999999MW1001REMMET039DAAD 281400Z 00000KT CAVOK 21/09 Q1024;EQDQ01+000000PRSWM2
0245605150999992000112815004+35320+004190SY-MT+0461DAAD V0209999C000012200019N0100001N1+02121+00851102351ADDGA1031+060009019GF103991001001999999001031MA1102301999999MD1610211+9999MW1001REMSYN076AAXX  28154 60515 42560 30000 10212 20085 40235 56021 80003 333 83070 95900;MET039DAAD 281500Z 00000KT CAVOK 21/09 Q1023;EQDQ01+008002SCOLCBQ02+000000PRSWM2
0091605150999992000112816004+35320+004190FM-15+0461DAAD V0209999C00001220001CN0099001N1+02101+00901999999ADDMA1102301999999MW1001REMMET039DAAD 281600Z 00000KT CAVOK 21/09 Q1023;EQDQ01+000000PRSWM2
0091605150999992000112817004+35320+004190FM-15+0461DAAD V0209999C00001220001CN0099001N1+01601+00901999999ADDMA1102511999999MW1001REMMET039DAAD 281700Z 00000KT CAVOK 16/09 Q1025;EQDQ01+000000PRSWM2
0275605150999992000112818004+35320+004190SY-MT+0461DAAD V0209999C000012200019N0100001N1+01561+00851102551ADDAA199000091GA1021+060009019GF103991001001999999001021KA1120M+01921MA1102511999999MD1310091+9999MW1001REMSYN082AAXX  28184 60515 32960 30000 10156 20085 40255 53009 80002 333 10192 82070 95990;MET039DAAD 281800Z 00000KT CAVOK 16/09 Q1025;EQDQ01+000000PRSWM2Q02  00002PRCP99
0299605150999992000112906004+35320+004190SY-MT+0461DAAD V0209999C000012200019N0100001N1+01081+00571102281ADDAA199000091GA1031+060009019GF103991001001999999001021IA2240+00709KA1120N+00881MA1102201999999MD1710111+9999MW1001REMSYN094AAXX  29064 60515 31960 30000 10108 20057 40228 57011 700// 80002 333 00700 20088 83070 95990;MET039DAAD 290600Z 00000KT CAVOK 11/06 Q1022;EQDQ01+000000PRSWM2Q02  00002PRCP99
0091605150999992000112907004+35320+004190FM-15+0461DAAD V0209999C00001220001CN0099001N1+00901+00401999999ADDMA1102301999999MW1001REMMET039DAAD 290700Z 00000KT CAVOK 09/04 Q1023;EQDQ01+000000PRSWM2
0091605150999992000112908004+35320+004190FM-15+0461DAAD V0209999C00001220001CN0099001N1+00801+00601999999ADDMA1102401999999MW1001REMMET039DAAD 290800Z 00000KT CAVOK 08/06 Q1024;EQDQ01+000000PRSWM2
0229605150999992000112909004+35320+004190SY-MT+0461DAAD V0209999C000012200019N0100001N1+00961+00621102441ADDGA1031+069009019GF103991001001999999001021MA1102401999999MD1310081+9999MW1001REMSYN076AAXX  29094 60515 42960 30000 10096 20062 40244 53008 80002 333 83073 95900;MET039DAAD 290900Z 00000KT CAVOK 10/06 Q1024;EQDQ01+000000PRSWM2
0091605150999992000112911004+35320+004190FM-15+0461DAAD V0209999C00001220001CN0099001N1+01601+00501999999ADDMA1102401999999MW1001REMMET039DAAD 291100Z 00000KT CAVOK 16/05 Q1024;EQDQ01+000000PRSWM2
0262605150999992000112912004+35320+004190SY-MT+0461DAAD V0209999C000010690019N0100001N1+01791+00631102291ADDAA199000091GA1061+069009019GF106991001001999999001021MA1102201999999MD1810111+9999MW1001REMSYN082AAXX  29124 60515 32960 60000 10179 20063 40229 58011 80002 333 0//00 86073 95900;MET039DAAD 291200Z 00000KT CAVOK 18/06 Q1022;EQDQ01+000000PRSWM2Q02  00002PRCP99
0162605150999992000112914004+35320+004190FM-15+0461DAAD V0209999C000012200019N0112651N1+01801+00701999999ADDGA1021+012009999GA2021+024009999GF104991999999999999999999MA1102101999999MW1001REMMET052DAAD 291400Z 00000KT 9999 SCT040 SCT080 18/07 Q1021;EQDQ01+000000PRSWM2
0264605150999992000112915004+35320+004190SY-MT+0461DAAD V0209999C000012200019N0100001N1+01901+00771102091ADDGA1021+009909999GA2021+024009999GF107991041021012501031999MA1102001999999MD1710181+9999MW1001REMSYN082AAXX  29154 60515 42660 70000 10190 20077 40209 57018 8423/ 333 84833 85358 95900;MET052DAAD 291500Z 00000KT 9999 SCT033 SCT080 19/08 Q1020;EQDQ01+000000PRSWM2
0162605150999992000112916004+35320+004190FM-15+0461DAAD V0209999C000012200019N0112651N1+01901+00801999999ADDGA1021+009909999GA2021+024009999GF104991999999999999999999MA1102001999999MW1001REMMET052DAAD 291600Z 00000KT 9999 SCT033 SCT080 19/08 Q1020;EQDQ01+000000PRSWM2
0162605150999992000112917004+35320+004190FM-15+0461DAAD V0209999C000012200019N0112651N1+01701+00801999999ADDGA1021+009909999GA2021+024009999GF104991999999999999999999MA1102001999999MW1001REMMET052DAAD 291700Z 00000KT 9999 SCT033 SCT080 17/08 Q1020;EQDQ01+000000PRSWM2
0310605150999992000112918004+35320+004190SY-MT+0461DAAD V0209999C000012200019N0100001N1+01541+00851102191ADDAA199000091GA1021+009909999GA2021+024009999GF106991031021008001031001KA1120M+01951MA1102101999999MD1310061+9999MW1001REMSYN088AAXX  29184 60515 32560 60000 10154 20085 40219 53006 83230 333 10195 83833 83358 95990;MET052DAAD 291800Z 00000KT 9999 SCT033 SCT080 15/09 Q1021;EQDQ01+000000PRSWM2Q02  00002PRCP99
0271605150999992000113006004+35320+004190SY-MT+0461DAAD V0209999C00001220001CN0100001N1+01211+00901102011ADDAA199000091GF100991001001999999001001IA2240+00909KA1120N+01171MA1102001999999MD1710091+9999MW1001REMSYN082AAXX  30064 60515 31560 00000 10121 20090 40201 57009 700// 333 00900 20117 95990;MET039DAAD 300600Z 00000KT CAVOK 12/09 Q1020;EQDQ01+000000PRSWM2Q02  00002PRCP99
0091605150999992000113007004+35320+004190FM-15+0461DAAD V0209999C00001220001CN0099001N1+00901+00701999999ADDMA1102101999999MW1001REMMET039DAAD 300700Z 00000KT CAVOK 09/07 Q1021;EQDQ01+000000PRSWM2
0091605150999992000113008004+35320+004190FM-15+0461DAAD V0209999C00001220001CN0099001N1+01201+00801999999ADDMA1102301999999MW1001REMMET039DAAD 300800Z 00000KT CAVOK 12/08 Q1023;EQDQ01+000000PRSWM2
0245605150999992000113009004+35320+004190SY-MT+0461DAAD V0203401N003112200019N0100001N1+01421+00751102541ADDGA1011+024009079GF101991011999999999071001MA1102511999999MD1210081+9999MW1001REMSYN076AAXX  30094 60515 42960 13406 10142 20075 40254 52008 81070 333 81358 95900;MET039DAAD 300900Z 34006KT CAVOK 14/08 Q1025;EQDQ01+000000PRSWM2Q02    003SCOLCG
0091605150999992000113010004+35320+004190FM-15+0461DAAD V0209999C00001220001CN0099001N1+01601+00901999999ADDMA1102511999999MW1001REMMET039DAAD 301000Z 00000KT CAVOK 16/09 Q1025;EQDQ01+000000PRSWM2
0091605150999992000113011004+35320+004190FM-15+0461DAAD V0209999C00001220001CN0099001N1+01701+00801999999ADDMA1102511999999MW1001REMMET039DAAD 301100Z 00000KT CAVOK 17/08 Q1025;EQDQ01+000000PRSWM2
0268605150999992000113012004+35320+004190SY-MT+0461DAAD V0200201N003112200019N0100001N1+01751+00771102421ADDAA199000091GA1021+012009999GF103991011021012501001021MA1102401999999MD1810081+9999MW1001REMSYN082AAXX  30124 60515 32660 30206 10175 20077 40242 58008 81202 333 0//00 81840 95900;MET045DAAD 301200Z 02006KT 9999 FEW040 18/08 Q1024;EQDQ01+000000PRSWM2Q02  00002PRCP99
0139605150999992000113013004+35320+004190FM-15+0461DAAD V0209999C000012200019N0112651N1+01801+00801999999ADDGA1021+012009999GF102991999999999999999999MA1102401999999MW1001REMMET045DAAD 301300Z 00000KT 9999 FEW040 18/08 Q1024;EQDQ01+000000PRSWM2
0162605150999992000113014004+35320+004190FM-15+0461DAAD V0209999C000012200019N0112651N1+01901+00801999999ADDGA1021+012009999GA2021+060009999GF104991999999999999999999MA1102301999999MW1001REMMET052DAAD 301400Z 00000KT 9999 FEW040 SCT200 19/08 Q1023;EQDQ01+000000PRSWM2
0264605150999992000113015004+35320+004190SY-MT+0461DAAD V0209999C000012200019N0100001N1+01961+00781102321ADDGA1021+009909999GA2021+060009999GF104991011021012501001021MA1102201999999MD1710021+9999MW1001REMSYN082AAXX  30154 60515 42660 40000 10196 20078 40232 57002 81202 333 82833 83070 95900;MET052DAAD 301500Z 00000KT 9999 FEW033 SCT200 20/08 Q1022;EQDQ01+000000PRSWM2
0310605150999992000113018004+35320+004190SY-MT+0461DAAD V0209999C000012200019N0100001N1+01711+00651102461ADDAA199000091GA1021+009909999GA2021+069009999GF103991011021012501001021KA1120M+02041MA1102401999999MD1310121+9999MW1001REMSYN088AAXX  30184 60515 32660 30000 10171 20065 40246 53012 81202 333 10204 81833 82070 95990;MET052DAAD 301800Z 00000KT 9999 FEW033 FEW230 17/07 Q1024;EQDQ01+000000PRSWM2Q02  00002PRCP99
0299605150999992000120106004+35320+004190SY-MT+0461DAAD V0209999C000012200019N0100001N1+01041+00371102361ADDAA199000091GA1021+069009019GF102991001001999999001021IA2240+00709KA1120N+00921MA1102301999999MD1610081+9999MW1001REMSYN094AAXX  01064 60515 31960 20000 10104 20037 40236 56008 700// 80002 333 00700 20092 82073 95990;MET039DAAD 010600Z 00000KT CAVOK 10/04 Q1023;EQDQ01+000000PRSWM2Q02  00002PRCP99
0091605150999992000120107004+35320+004190FM-15+0461DAAD V0209999C00001220001CN0099001N1+00701+00301999999ADDMA1102401999999MW1001REMMET039DAAD 010700Z 00000KT CAVOK 07/03 Q1024;EQDQ01+000000PRSWM2
0091605150999992000120108004+35320+004190FM-15+0461DAAD V0209999C00001220001CN0099001N1+00901+00501999999ADDMA1102511999999MW1001REMMET039DAAD 010800Z 00000KT CAVOK 09/05 Q1025;EQDQ01+000000PRSWM2
0091605150999992000120109004+35320+004190FM-15+0461DAAD V0209999C00001220001CN0099001N1+01201+00501999999ADDMA1102611999999MW1001REMMET039DAAD 010900Z 00000KT CAVOK 12/05 Q1026;EQDQ01+000000PRSWM2
0091605150999992000120110004+35320+004190FM-15+0461DAAD V0209999C00001220001CN0099001N1+01301+00601999999ADDMA1102511999999MW1001REMMET039DAAD 011000Z 00000KT CAVOK 13/06 Q1025;EQDQ01+000000PRSWM2
0091605150999992000120111004+35320+004190FM-15+0461DAAD V0209999C00001220001CN0099001N1+01501+00601999999ADDMA1102511999999MW1001REMMET039DAAD 011100Z 00000KT CAVOK 15/06 Q1025;EQDQ01+000000PRSWM2
0262605150999992000120112004+35320+004190SY-MT+0461DAAD V0209999C000012200019N0100001N1+01761+00741102421ADDAA199000091GA1021+069009019GF102991001001999999001021MA1102401999999MD1610091+9999MW1001REMSYN082AAXX  01124 60515 32960 20000 10176 20074 40242 56009 80002 333 0//00 82073 95900;MET039DAAD 011200Z 00000KT CAVOK 18/07 Q1024;EQDQ01+000000PRSWM2Q02  00002PRCP99
0091605150999992000120114004+35320+004190FM-15+0461DAAD V0209999C00001220001CN0099001N1+02001+00701999999ADDMA1102301999999MW1001REMMET039DAAD 011400Z 00000KT CAVOK 20/07 Q1023;EQDQ01+000000PRSWM2
0229605150999992000120115004+35320+004190SY-MT+0461DAAD V0209999C000012200019N0100001N1+01901+00631102311ADDGA1021+069009019GF102991001001999999001021MA1102301999999MD1610111+9999MW1001REMSYN076AAXX  01154 60515 42960 20000 10190 20063 40231 56011 80002 333 82073 95900;MET039DAAD 011500Z 00000KT CAVOK 19/06 Q1023;EQDQ01+000000PRSWM2
0091605150999992000120116004+35320+004190FM-15+0461DAAD V0209999C00001220001CN0099001N1+01901+00701999999ADDMA1102301999999MW1001REMMET039DAAD 011600Z 00000KT CAVOK 19/07 Q1023;EQDQ01+000000PRSWM2
0091605150999992000120117004+35320+004190FM-15+0461DAAD V0209999C00001220001CN0099001N1+01801+00601999999ADDMA1102301999999MW1001REMMET039DAAD 011700Z 00000KT CAVOK 18/06 Q1023;EQDQ01+000000PRSWM2
0275605150999992000120118004+35320+004190SY-MT+0461DAAD V0209999C000012200019N0100001N1+01451+00491102411ADDAA199000091GA1021+060009019GF102991001001999999001021KA1120M+02001MA1102401999999MD1310041+9999MW1001REMSYN082AAXX  01184 60515 32960 20000 10145 20049 40241 53004 80002 333 10200 82070 95990;MET039DAAD 011800Z 00000KT CAVOK 15/05 Q1024;EQDQ01+000000PRSWM2Q02  00002PRCP99
0299605150999992000120206004+35320+004190SY-MT+0461DAAD V0209999C000012200019N0100001N1+00621+00271102391ADDAA199000091GA1021+060009019GF102991001001999999001021IA2240+00309KA1120N+00621MA1102301999999MD1610081+9999MW1001REMSYN094AAXX  02064 60515 31960 20000 10062 20027 40239 56008 700// 80002 333 00300 20062 82070 95990;MET039DAAD 020600Z 00000KT CAVOK 06/03 Q1023;EQDQ01+000000PRSWM2Q02  00002PRCP99
0091605150999992000120207004+35320+004190FM-15+0461DAAD V0209999C00001220001CN0099001N1+00801+00301999999ADDMA1102401999999MW1001REMMET039DAAD 020700Z 00000KT CAVOK 08/03 Q1024;EQDQ01+000000PRSWM2
0091605150999992000120208004+35320+004190FM-15+0461DAAD V0209999C00001220001CN0099001N1+00801+00401999999ADDMA1102611999999MW1001REMMET039DAAD 020800Z 00000KT CAVOK 08/04 Q1026;EQDQ01+000000PRSWM2
0201605150999992000120209004+35320+004190SY-MT+0461DAAD V0209999C000012200019N0100001N1+00981+00491102661ADDGF100991001001999999001001MA1102611999999MD1310051+9999MW1001REMSYN064AAXX  02094 60515 42960 00000 10098 20049 40266 53005 333 95900;MET039DAAD 020900Z 00000KT CAVOK 10/05 Q1026;EQDQ01+000000PRSWM2
0091605150999992000120210004+35320+004190FM-15+0461DAAD V0209999C00001220001CN0099001N1+01201+00601999999ADDMA1102711999999MW1001REMMET039DAAD 021000Z 00000KT CAVOK 12/06 Q1027;EQDQ01+000000PRSWM2
0091605150999992000120211004+35320+004190FM-15+0461DAAD V0209999C00001220001CN0099001N1+01601+00601999999ADDMA1102611999999MW1001REMMET039DAAD 021100Z 00000KT CAVOK 16/06 Q1026;EQDQ01+000000PRSWM2
0278605150999992000120212004+35320+004190SY-MT+0461DAAD V0209999C000012200019N0100001N1+01801+00721102471ADDAA199000091GA1041+024009079GF104991041999999999071001MA1102401999999MD1810121+9999MW1001REMSYN082AAXX  02124 60515 32960 40000 10180 20072 40247 58012 84070 333 0//00 84358 95900;MET039DAAD 021200Z 00000KT CAVOK 18/07 Q1024;EQDQ01+000000PRSWM2Q02  00002PRCP99Q03    003SCOLCG
0162605150999992000120213004+35320+004190FM-15+0461DAAD V0209999C000010240019N0112651N1+01901+00801999999ADDGA1021+012009999GA2071+024009999GF107991999999999999999999MA1102301999999MW1001REMMET052DAAD 021300Z 00000KT 9999 FEW040 BKN080 19/08 Q1023;EQDQ01+000000PRSWM2
0162605150999992000120214004+35320+004190FM-15+0461DAAD V0209999C000012200019N0112651N1+01901+00701999999ADDGA1021+012009999GA2021+024009999GF104991999999999999999999MA1102301999999MW1001REMMET052DAAD 021400Z 00000KT 9999 FEW040 SCT080 19/07 Q1023;EQDQ01+000000PRSWM2
0264605150999992000120215004+35320+004190SY-MT+0461DAAD V0209999C000012200019N0100001N1+01931+00641102341ADDGA1021+012009999GA2021+024009999GF106991021051012501071001MA1102301999999MD1610101+9999MW1001REMSYN082AAXX  02154 60515 42660 60000 10193 20064 40234 56010 82570 333 82840 84358 95900;MET052DAAD 021500Z 00000KT 9999 FEW040 SCT080 19/06 Q1023;EQDQ01+000000PRSWM2
0139605150999992000120216004+35320+004190FM-15+0461DAAD V0209999C000012200019N0112651N1+01801+00701999999ADDGA1021+009909999GF102991999999999999999999MA1102201999999MW1001REMMET045DAAD 021600Z 00000KT 9999 FEW033 18/07 Q1022;EQDQ01+000000PRSWM2
0139605150999992000120217004+35320+004190FM-15+0461DAAD V0209999C000012200019N0112651N1+01701+00701999999ADDGA1021+009909999GF102991999999999999999999MA1102301999999MW1001REMMET045DAAD 021700Z 00000KT 9999 FEW033 17/07 Q1023;EQDQ01+000000PRSWM2
0193605150999992000120218004+35320+004190FM-12+0461DAAD V0209999C000012200019N0100001N1+01511+00541102481ADDAA199000091GA1021+060009009GF102991001001999999001021KA1120M+02091MD1310091+9999REMSYN082AAXX  02184 60515 32960 20000 10151 20054 40248 53009 80002 333 10209 82070 95990;EQDQ01  00002PRCP99
0295605150999992000120306004+35320+004190SY-MT+0461DAAD V0203001N006212200019N0100001N1+00651+00451102521ADDAA124002091GA1021+007809999GF102991021021008001001001IA2240+00209KA1120N+00611MA1102511999999MD1310021+9999MW1001REMSYN100AAXX  03064 60515 11560 23012 10065 20045 40252 53002 60024 700// 82200 333 002// 20061 82826 95990;MET045DAAD 030600Z 30012KT 9999 FEW026 07/05 Q1025;EQDQ01+000000PRSWM2
0139605150999992000120307004+35320+004190FM-15+0461DAAD V0202801N005112200019N0112651N1+00801+00701999999ADDGA1021+007809999GF102991999999999999999999MA1102401999999MW1001REMMET045DAAD 030700Z 28010KT 9999 FEW026 08/07 Q1024;EQDQ01+000000PRSWM2
0139605150999992000120308004+35320+004190FM-15+0461DAAD V0203001N007212200019N0112651N1+01201+00601999999ADDGA1021+007809999GF102991999999999999999999MA1102511999999MW1001REMMET045DAAD 030800Z 30014KT 9999 FEW026 12/06 Q1025;EQDQ01+000000PRSWM2
0235605150999992000120309004+35320+004190SY-MT+0461DAAD V0203001N007212200019N0100001N1+01311+00541102591ADDGA1021+007809999GF102991021021008001001001MA1102511999999MD1210141+9999MW1001REMSYN076AAXX  03094 60515 42560 23014 10131 20054 40259 52014 82200 333 82826 95900;MET045DAAD 030900Z 30014KT 9999 FEW026 13/05 Q1025;EQDQ01+000000PRSWM2
0139605150999992000120310004+35320+004190FM-15+0461DAAD V0203001N009312200019N0112651N1+01401+00501999999ADDGA1021+007809999GF102991999999999999999999MA1102611999999MW1001REMMET045DAAD 031000Z 30018KT 9999 FEW026 14/05 Q1026;EQDQ01+000000PRSWM2
0139605150999992000120311004+35320+004190FM-15+0461DAAD V0203001N012312200019N0112651N1+01401+00501999999ADDGA1021+007809999GF102991999999999999999999MA1102611999999MW1001REMMET045DAAD 031100Z 30024KT 9999 FEW026 14/05 Q1026;EQDQ01+000000PRSWM2
0261605150999992000120312004+35320+004190SY-MT+0461DAAD V0203201N012312200019N0100001N1+01501+00261102601ADDAA199000091GA1021+007809999GF103991031021008001001001MA1102611999999MD1110071+9999MW1001REMSYN075AAXX  03124 60515 3256033224 10150 20026 40260 51007 83200 333 83830 95900;MET045DAAD 031200Z 32024KT 9999 SCT026 15/03 Q1026;EQDQ01+000000PRSWM2Q02  00002PRCP99
0139605150999992000120313004+35320+004190FM-15+0461DAAD V0203201N010312200019N0112651N1+01501+00201999999ADDGA1021+007809999GF104991999999999999999999MA1102511999999MW1001REMMET045DAAD 031300Z 32020KT 9999 SCT026 15/02 Q1025;EQDQ01+000000PRSWM2
0139605150999992000120314004+35320+004190FM-15+0461DAAD V0203201N009312200019N0112651N1+01501+00201999999ADDGA1021+007809999GF104991999999999999999999MA1102511999999MW1001REMMET045DAAD 031400Z 32018KT 9999 SCT026 15/02 Q1025;EQDQ01+000000PRSWM2
0235605150999992000120315004+35320+004190SY-MT+0461DAAD V0203201N008212200019N0100001N1+01501+00431102451ADDGA1021+009009999GF103991031021008001001001MA1102401999999MD1810111+9999MW1001REMSYN076AAXX  03154 60515 42560 33216 10150 20043 40245 58011 83200 333 83830 95900;MET045DAAD 031500Z 32016KT 9999 SCT030 15/04 Q1024;EQDQ01+000000PRSWM2
0139605150999992000120316004+35320+004190FM-15+0461DAAD V0203201N005112200019N0112651N1+01401+00501999999ADDGA1021+009009999GF104991999999999999999999MA1102401999999MW1001REMMET045DAAD 031600Z 32010KT 9999 SCT030 14/05 Q1024;EQDQ01+000000PRSWM2
0139605150999992000120317004+35320+004190FM-15+0461DAAD V0203201N007212200019N0112651N1+01401+00601999999ADDGA1021+009009999GF104991999999999999999999MA1102401999999MW1001REMMET045DAAD 031700Z 32014KT 9999 SCT030 14/06 Q1024;EQDQ01+000000PRSWM2
0139605150999992000120318004+35320+004190FM-15+0461DAAD V0203201N005112200019N0112651N1+01301+00601999999ADDGA1021+009909999GF104991999999999999999999MA1102511999999MW1001REMMET045DAAD 031800Z 32010KT 9999 SCT033 13/06 Q1025;EQDQ01+000000PRSWM2
0305605150999992000120406004+35320+004190SY-MT+0461DAAD V0202801N006212200019N0100001N1+00741+00541102331ADDAA199000091GA1021+009009999GF102991021021008001001001IA2240+00309KA1120N+00691MA1102301999999MD1310041+9999MW1001REMSYN094AAXX  04064 60515 31560 22812 10074 20054 40233 53004 700// 82200 333 00300 20069 82830 95990;MET045DAAD 040600Z 28012KT 9999 FEW030 07/05 Q1023;EQDQ01+000000PRSWM2Q02  00002PRCP99
0091605150999992000120407004+35320+004190FM-15+0461DAAD V0209999C00001220001CN0099001N1+00601+00301999999ADDMA1102401999999MW1001REMMET039DAAD 040700Z 00000KT CAVOK 06/03 Q1024;EQDQ01+000000PRSWM2
0091605150999992000120408004+35320+004190FM-15+0461DAAD V0200201N00311220001CN0099001N1+00501+00001999999ADDMA1102511999999MW1001REMMET039DAAD 040800Z 02006KT CAVOK 05/00 Q1025;EQDQ01+000000PRSWM2
0245605150999992000120409004+35320+004190SY-MT+0461DAAD V0209999C000012200019N0100001N1+00641+00361102641ADDGA1021+024009079GF102991021999999999071001MA1102611999999MD1310151+9999MW1001REMSYN076AAXX  04094 60515 42960 20000 10064 20036 40264 53015 82070 333 82358 95900;MET039DAAD 040900Z 00000KT CAVOK 06/04 Q1026;EQDQ01+000000PRSWM2Q02    003SCOLCG
0091605150999992000120410004+35320+004190FM-15+0461DAAD V0209999C00001220001CN0099001N1+00901+00501999999ADDMA1102711999999MW1001REMMET039DAAD 041000Z 00000KT CAVOK 09/05 Q1027;EQDQ01+000000PRSWM2
0139605150999992000120411004+35320+004190FM-15+0461DAAD V0209999C000012200019N0112651N1+01101+00401999999ADDGA1021+012009999GF102991999999999999999999MA1102811999999MW1001REMMET045DAAD 041100Z 00000KT 9999 FEW040 11/04 Q1028;EQDQ01+000000PRSWM2
0268605150999992000120412004+35320+004190SY-MT+0461DAAD V0209999C000012200019N0100001N1+01401+00671102651ADDAA199000091GA1021+012009999GF103991011021012501001021MA1102611999999MD1810131+9999MW1001REMSYN082AAXX  04124 60515 32660 30000 10140 20067 40265 58013 81202 333 0//00 81840 95900;MET045DAAD 041200Z 00000KT 9999 FEW040 14/07 Q1026;EQDQ01+000000PRSWM2Q02  00002PRCP99
0139605150999992000120413004+35320+004190FM-15+0461DAAD V0209999C000012200019N0112651N1+01401+00601999999ADDGA1021+012009999GF102991999999999999999999MA1102511999999MW1001REMMET045DAAD 041300Z 00000KT 9999 FEW040 14/06 Q1025;EQDQ01+000000PRSWM2
0091605150999992000120414004+35320+004190FM-15+0461DAAD V0209999C00001220001CN0099001N1+01501+00501999999ADDMA1102511999999MW1001REMMET039DAAD 041400Z 00000KT CAVOK 15/05 Q1025;EQDQ01+000000PRSWM2
0229605150999992000120415004+35320+004190SY-MT+0461DAAD V0209999C000012200019N0100001N1+01421+00731102551ADDGA1021+060009019GF102991001001999999001021MA1102511999999MD1710111+9999MW1001REMSYN076AAXX  04154 60515 42960 20000 10142 20073 40255 57011 80002 333 82070 95900;MET039DAAD 041500Z 00000KT CAVOK 14/07 Q1025;EQDQ01+000000PRSWM2
0091605150999992000120416004+35320+004190FM-15+0461DAAD V0209999C00001220001CN0099001N1+01301+00501999999ADDMA1102511999999MW1001REMMET039DAAD 041600Z 00000KT CAVOK 13/05 Q1025;EQDQ01+000000PRSWM2
0091605150999992000120417004+35320+004190FM-15+0461DAAD V0209999C00001220001CN0099001N1+01201+00501999999ADDMA1102611999999MW1001REMMET039DAAD 041700Z 00000KT CAVOK 12/05 Q1026;EQDQ01+000000PRSWM2
0275605150999992000120418004+35320+004190SY-MT+0461DAAD V0209999C000012200019N0100001N1+01141+00541102691ADDAA199000091GA1021+060009019GF102991001001999999001021KA1120M+01581MA1102611999999MD1310091+9999MW1001REMSYN082AAXX  04184 60515 32960 20000 10114 20054 40269 53009 80002 333 10158 82070 95900;MET039DAAD 041800Z 00000KT CAVOK 11/05 Q1026;EQDQ01+000000PRSWM2Q02  00002PRCP99
0299605150999992000120506004+35320+004190SY-MT+0461DAAD V0209999C000012200019N0100001N1+00551+00511102671ADDAA199000091GA1021+069009019GF102991001001999999001021IA2240+00209KA1120N+00521MA1102611999999MD1410001+9999MW1001REMSYN094AAXX  05064 60515 31960 20000 10055 20051 40267 54000 700// 80002 333 00200 20052 82073 95990;MET039DAAD 050600Z 00000KT CAVOK 06/05 Q1026;EQDQ01+000000PRSWM2Q02  00002PRCP99
0091605150999992000120507004+35320+004190FM-15+0461DAAD V0209999C00001220001CN0099001N1+00401+00201999999ADDMA1102711999999MW1001REMMET039DAAD 050700Z 00000KT CAVOK 04/02 Q1027;EQDQ01+000000PRSWM2
0091605150999992000120508004+35320+004190FM-15+0461DAAD V0209999C00001220001CN0099001N1+00601+00201999999ADDMA1102711999999MW1001REMMET039DAAD 050800Z 00000KT CAVOK 06/02 Q1027;EQDQ01+000000PRSWM2
0144605150999992000120509004+35320+004190FM-12+0461DAAD V0209999C000012200019N0100001N1+00901+00471102791ADDGA1021+069009009GF102991001001999999001021MD1310111+9999REMSYN076AAXX  05094 60515 42960 20000 10090 20047 40279 53011 80002 333 82073 95900;
0076605150999992000120510004+35320+004190FM-15+0461DAAD V0209999C00001220001CN0099001N1+00801+00601999999ADDMW1001REMMET039DAAD 051000Z 00000KT CAVOK 08/06 Q////;EQDQ01+000000PRSWM2
0091605150999992000120511004+35320+004190FM-15+0461DAAD V0209999C00001220001CN0099001N1+01301+00601999999ADDMA1102711999999MW1001REMMET039DAAD 051100Z 00000KT CAVOK 13/06 Q1027;EQDQ01+000000PRSWM2
0401605150999992000120512004+35320+004190SY-MT+0461DAAD V0209999C000012200019N0100001N1+01271+00491102631ADDAA199000091GA1021+069009019GF102991001001999999001021IA1179KA1120M+01791KA2120N+01311MA1102611999999MD1810131+9999MW1001UA1M999999009REMSYN176AAXX  05124 60515 32960 20000 10127 20049 40263 58013 80002 333 0//00 82073 95900 60518 32560 70000 10179 20131 40180 50004 82032 222// 20000 333 0//00 82820 84073 91806 95900;MET039DAAD 051200Z 00000KT CAVOK 13/05 Q1026;EQDQ01+000000PRSWM2Q02  00002PRCP99
0091605150999992000120514004+35320+004190FM-15+0461DAAD V0209999C00001220001CN0099001N1+01501+00601999999ADDMA1102511999999MW1001REMMET039DAAD 051400Z 00000KT CAVOK 15/06 Q1025;EQDQ01+000000PRSWM2
0229605150999992000120515004+35320+004190SY-MT+0461DAAD V0209999C000012200019N0100001N1+01581+00631102441ADDGA1021+069009019GF102991001001999999001021MA1102401999999MD1710161+9999MW1001REMSYN076AAXX  05154 60515 42960 20000 10158 20063 40244 57016 80002 333 82073 95900;MET039DAAD 051500Z 00000KT CAVOK 16/06 Q1024;EQDQ01+000000PRSWM2
0091605150999992000120516004+35320+004190FM-15+0461DAAD V0209999C00001220001CN0099001N1+01501+00801999999ADDMA1102401999999MW1001REMMET039DAAD 051600Z 00000KT CAVOK 15/08 Q1024;EQDQ01+000000PRSWM2
0091605150999992000120517004+35320+004190FM-15+0461DAAD V0209999C00001220001CN0099001N1+01401+00601999999ADDMA1102401999999MW1001REMMET039DAAD 051700Z 00000KT CAVOK 14/06 Q1024;EQDQ01+000000PRSWM2
0275605150999992000120518004+35320+004190SY-MT+0461DAAD V0209999C000012200019N0100001N1+01081+00581102471ADDAA199000091GA1021+060009019GF102991001001999999001021KA1120M+01601MA1102401999999MD1610031+9999MW1001REMSYN082AAXX  05184 60515 32960 20000 10108 20058 40247 56003 80002 333 10160 82070 95990;MET039DAAD 051800Z 00000KT CAVOK 11/06 Q1024;EQDQ01+000000PRSWM2Q02  00002PRCP99
0245605150999992000120606004+35320+004190FM-12+0461DAAD V0209999C000010600019N0100001N1+00501+00051102541ADDAA199000091GA1031+009909089GA2031+060009009GF106991031021999999001021IA2240+00309KA1120N+00501MD1310041+9999MW1001REMSYN100AAXX  06064 60515 31960 60000 10050 20005 40254 53004 700// 83202 333 00300 20050 83833 83070 95990;EQDQ01  00002PRCP99
0162605150999992000120607004+35320+004190FM-15+0461DAAD V0209999C000012200019N0112651N1+00501+00101999999ADDGA1021+009909999GA2021+060009999GF104991999999999999999999MA1102511999999MW1001REMMET052DAAD 060700Z 00000KT 9999 SCT033 SCT200 05/01 Q1025;EQDQ01+000000PRSWM2
0162605150999992000120608004+35320+004190FM-15+0461DAAD V0209999C000012200019N0112651N1+00701+00501999999ADDGA1021+009909999GA2021+060009999GF104991999999999999999999MA1102611999999MW1001REMMET052DAAD 060800Z 00000KT 9999 SCT033 SCT200 07/05 Q1026;EQDQ01+000000PRSWM2
0264605150999992000120609004+35320+004190SY-MT+0461DAAD V0209999C00001090001CN0100001N1+00921+00551102651ADDGA1021+009909999GA2021+060009999GF105991021051012501001021MA1102611999999MD1210151+9999MW1001REMSYN082AAXX  06094 60515 42660 50000 10092 20055 40265 52015 82502 333 82833 83073 95900;MET052DAAD 060900Z 00000KT 9999 FEW033 SCT200 09/06 Q1026;EQDQ01+000000PRSWM2
0162605150999992000120610004+35320+004190FM-15+0461DAAD V0209999C000012200019N0112651N1+01101+00501999999ADDGA1021+009909999GA2021+060009999GF104991999999999999999999MA1102611999999MW1001REMMET052DAAD 061000Z 00000KT 9999 FEW033 SCT200 11/05 Q1026;EQDQ01+000000PRSWM2
0139605150999992000120611004+35320+004190FM-15+0461DAAD V0209999C000012200019N0112651N1+01201+00501999999ADDGA1021+009909999GF102991999999999999999999MA1102611999999MW1001REMMET045DAAD 061100Z 00000KT 9999 FEW033 12/05 Q1026;EQDQ01+000000PRSWM2
0300605150999992000120612004+35320+004190SY-MT+0461DAAD V0209999C000012200019N0100001N1+01381+00451102641ADDAA199000091GA1021+024009079GA2031+060009019GF104991021999999999071021MA1102611999999MD1510021+9999MW1001REMSYN088AAXX  06124 60515 32960 40000 10138 20045 40264 55002 82072 333 0//00 82358 83070 95900;MET039DAAD 061200Z 00000KT CAVOK 14/06 Q1026;EQDQ01+000000PRSWM2Q02  00002PRCP99Q03    003SCOLCG
0091605150999992000120613004+35320+004190FM-15+0461DAAD V0209999C00001220001CN0099001N1+01601+00501999999ADDMA1102511999999MW1001REMMET039DAAD 061300Z 00000KT CAVOK 16/05 Q1025;EQDQ01+000000PRSWM2
0091605150999992000120614004+35320+004190FM-15+0461DAAD V0209999C00001220001CN0099001N1+01601+00601999999ADDMA1102401999999MW1001REMMET039DAAD 061400Z 00000KT CAVOK 16/06 Q1024;EQDQ01+000000PRSWM2
0267605150999992000120615004+35320+004190SY-MT+0461DAAD V0209999C000010600019N0100001N1+01601+00611102481ADDGA1021+024009079GA2041+060009019GF106991021999022501031021MA1102401999999MD1610151+9999MW1001REMSYN082AAXX  06154 60515 42860 60000 10160 20061 40248 56015 82032 333 82358 84070 95900;MET039DAAD 061500Z 00000KT CAVOK 16/06 Q1024;EQDQ01+000000PRSWM2Q02    003SCOLCG
0091605150999992000120616004+35320+004190FM-15+0461DAAD V0209999C00001220001CN0099001N1+01701+00701999999ADDMA1102401999999MW1001REMMET039DAAD 061600Z 00000KT CAVOK 17/07 Q1024;EQDQ01+000000PRSWM2
0091605150999992000120617004+35320+004190FM-15+0461DAAD V0209999C00001220001CN0099001N1+01601+00801999999ADDMA1102511999999MW1001REMMET039DAAD 061700Z 00000KT CAVOK 16/08 Q1025;EQDQ01+000000PRSWM2
0291605150999992000120618004+35320+004190SY-MT+0461DAAD V0209999C000012200019N0100001N1+01281+00681102581ADDAA199000091GA1021+024009079GF102991021999999999071001KA1120M+02001MA1102511999999MD1310081+9999MW1001REMSYN082AAXX  06184 60515 32960 20000 10128 20068 40258 53008 82070 333 10200 82358 95990;MET039DAAD 061800Z 00000KT CAVOK 13/07 Q1025;EQDQ01+000000PRSWM2Q02  00002PRCP99Q03    003SCOLCG
0299605150999992000120706004+35320+004190SY-MT+0461DAAD V0209999C000012200019N0100001N1+00451+00111102531ADDAA199000091GA1021+069009019GF102991001001999999001021IA2240+00109KA1120N+00451MA1102511999999MD1710061+9999MW1001REMSYN094AAXX  07064 60515 31960 20000 10045 20011 40253 57006 700// 80002 333 00100 20045 82073 95990;MET039DAAD 070600Z 00000KT CAVOK 05/01 Q1025;EQDQ01+000000PRSWM2Q02  00002PRCP99
0091605150999992000120707004+35320+004190FM-15+0461DAAD V0209999C00001220001CN0099001N1+00401+00201999999ADDMA1102511999999MW1001REMMET039DAAD 070700Z 00000KT CAVOK 04/02 Q1025;EQDQ01+000000PRSWM2
0091605150999992000120708004+35320+004190FM-15+0461DAAD V0209999C00001220001CN0099001N1+00501+00301999999ADDMA1102611999999MW1001REMMET039DAAD 070800Z 00000KT CAVOK 05/03 Q1026;EQDQ01+000000PRSWM2
0229605150999992000120709004+35320+004190SY-MT+0461DAAD V0209999C000012200019N0100001N1+00861+00501102631ADDGA1021+069009019GF102991001001999999001021MA1102611999999MD1110111+9999MW1001REMSYN076AAXX  07094 60515 42960 20000 10086 20050 40263 51011 80002 333 82073 95900;MET039DAAD 070900Z 00000KT CAVOK 09/05 Q1026;EQDQ01+000000PRSWM2
0091605150999992000120711004+35320+004190FM-15+0461DAAD V0209999C00001220001CN0099001N1+01401+00501999999ADDMA1102611999999MW1001REMMET039DAAD 071100Z 00000KT CAVOK 14/05 Q1026;EQDQ01+000000PRSWM2
0262605150999992000120712004+35320+004190SY-MT+0461DAAD V0209999C000012200019N0100001N1+01511+00571102411ADDAA199000091GA1021+069009019GF102991001001999999001021MA1102401999999MD1810151+9999MW1001REMSYN082AAXX  07124 60515 32960 20000 10151 20057 40241 58015 80002 333 0//00 82073 95900;MET039DAAD 071200Z 00000KT CAVOK 15/06 Q1024;EQDQ01+000000PRSWM2Q02  00002PRCP99
0091605150999992000120713004+35320+004190FM-15+0461DAAD V0209999C00001220001CN0099001N1+01501+00601999999ADDMA1102201999999MW1001REMMET039DAAD 071300Z 00000KT CAVOK 15/06 Q1022;EQDQ01+000000PRSWM2
0091605150999992000120714004+35320+004190FM-15+0461DAAD V0209999C00001220001CN0099001N1+01701+00601999999ADDMA1102201999999MW1001REMMET039DAAD 071400Z 00000KT CAVOK 17/06 Q1022;EQDQ01+000000PRSWM2
0229605150999992000120715004+35320+004190SY-MT+0461DAAD V0209999C000012200019N0100001N1+01711+00591102201ADDGA1021+069009019GF102991001001999999001021MA1102201999999MD1710201+9999MW1001REMSYN076AAXX  07154 60515 42960 20000 10171 20059 40220 57020 80002 333 82073 95900;MET039DAAD 071500Z 00000KT CAVOK 17/06 Q1022;EQDQ01+000000PRSWM2
0091605150999992000120716004+35320+004190FM-15+0461DAAD V0209999C00001220001CN0099001N1+01601+00501999999ADDMA1102201999999MW1001REMMET039DAAD 071600Z 00000KT CAVOK 16/05 Q1022;EQDQ01+000000PRSWM2
0091605150999992000120717004+35320+004190FM-15+0461DAAD V0209999C00001220001CN0099001N1+01401+00501999999ADDMA1102201999999MW1001REMMET039DAAD 071700Z 00000KT CAVOK 14/05 Q1022;EQDQ01+000000PRSWM2
0275605150999992000120718004+35320+004190SY-MT+0461DAAD V0209999C000012200019N0100001N1+01301+00541102161ADDAA199000091GA1021+075009019GF102991001001999999001021KA1120M+01751MA1102101999999MD1610101+9999MW1001REMSYN082AAXX  07184 60515 32960 20000 10130 20054 40216 56010 80002 333 10175 82075 95990;MET039DAAD 071800Z 00000KT CAVOK 13/05 Q1021;EQDQ01+000000PRSWM2Q02  00002PRCP99
0223605150999992000120806004+35320+004190FM-12+0461DAAD V0209999C000012200019N0100001N1+00441+00241102291ADDAA199000091GA1031+060009009GF103991001001999999001021IA2240+00109KA1120N+00441MD1310071+9999MW1001REMSYN094AAXX  08064 60515 31960 30000 10044 20024 40229 53007 700// 80002 333 00100 20044 83070 95990;EQDQ01  00002PRCP99
0091605150999992000120807004+35320+004190FM-15+0461DAAD V0209999C00001220001CN0099001N1+00401+00201999999ADDMA1102301999999MW1001REMMET039DAAD 080700Z 00000KT CAVOK 04/02 Q1023;EQDQ01+000000PRSWM2
0091605150999992000120808004+35320+004190FM-15+0461DAAD V0209999C00001220001CN0099001N1+00801+00301999999ADDMA1102401999999MW1001REMMET039DAAD 080800Z 00000KT CAVOK 08/03 Q1024;EQDQ01+000000PRSWM2
0267605150999992000120809004+35320+004190SY-MT+0461DAAD V0209999C000010240019N0100001N1+00941+00511102471ADDGA1051+024009079GA2031+060009019GF106991051999999999071021MA1102401999999MD1110051+9999MW1001REMSYN082AAXX  08094 60515 42960 60000 10094 20051 40247 51005 85072 333 85358 83070 95900;MET039DAAD 080900Z 00000KT CAVOK 09/05 Q1024;EQDQ01+000000PRSWM2Q02    003SCOLCG
0091605150999992000120810004+35320+004190FM-15+0461DAAD V0209999C00001220001CN0099001N1+01201+00401999999ADDMA1102511999999MW1001REMMET039DAAD 081000Z 00000KT CAVOK 12/04 Q1025;EQDQ01+000000PRSWM2
0091605150999992000120811004+35320+004190FM-15+0461DAAD V0209999C00001220001CN0099001N1+01301+00401999999ADDMA1102401999999MW1001REMMET039DAAD 081100Z 00000KT CAVOK 13/04 Q1024;EQDQ01+000000PRSWM2
0313605150999992000120812004+35320+004190SY-MT+0461DAAD V0209999C000010240019N0100001N1+01501+00461102341ADDAA199000091GA1021+012009999GA2071+024009999GF199999011051012501071001MA1102301999999MD1810091+9999MW1001REMSYN088AAXX  08124 60515 32660 60000 10150 20046 40234 58009 81570 333 0//00 81840 85358 95900;MET052DAAD 081200Z 00000KT 9999 FEW040 BKN080 15/05 Q1023;EQDQ01+000062SCOTCVQ02+000000PRSWM2Q03  00002PRCP99
0162605150999992000120813004+35320+004190FM-15+0461DAAD V0209999C000012200019N0112651N1+01601+00501999999ADDGA1021+012009999GA2021+024009999GF104991999999999999999999MA1102201999999MW1001REMMET052DAAD 081300Z 00000KT 9999 FEW040 SCT080 16/05 Q1022;EQDQ01+000000PRSWM2
0264605150999992000120815004+35320+004190SY-MT+0461DAAD V0209999C00001036001CN0100001N1+01651+00641102191ADDGA1021+012009999GA2021+024009999GF105991021081012501071001MA1102101999999MD1310121+9999MW1001REMSYN082AAXX  08154 60515 42660 50000 10165 20064 40219 53012 82870 333 82840 83358 95900;MET052DAAD 081500Z 00000KT 9999 FEW040 SCT080 17/06 Q1021;EQDQ01+000000PRSWM2
0162605150999992000120816004+35320+004190FM-15+0461DAAD V0209999C000012200019N0112651N1+01601+00501999999ADDGA1021+012009999GA2021+024009999GF104991999999999999999999MA1102201999999MW1001REMMET052DAAD 081600Z 00000KT 9999 FEW040 SCT080 16/05 Q1022;EQDQ01+000000PRSWM2
0091605150999992000120817004+35320+004190FM-15+0461DAAD V0209999C00001220001CN0099001N1+01501+00401999999ADDMA1102201999999MW1001REMMET039DAAD 081700Z 00000KT CAVOK 15/04 Q1022;EQDQ01+000000PRSWM2
0193605150999992000120818004+35320+004190FM-12+0461DAAD V0209999C000010240019N0100001N1+01301+00481102301ADDAA199000091GA1051+024009039GF105991051001999999071001KA1120M+01911MD1610091+9999REMSYN082AAXX  08184 60515 32960 50000 10130 20048 40230 56009 85070 333 10191 85358 95990;EQDQ01  00002PRCP99
0315605150999992000120906004+35320+004190SY-MT+0461DAAD V0209999C000010240019N0100001N1+00551+00091102321ADDAA199000091GA1051+024009079GF105991051999022501031001IA2240+00209KA1120N+00531MA1102301999999MD1310061+9999MW1001REMSYN094AAXX  09064 60515 31860 50000 10055 20009 40232 53006 700// 85030 333 00200 20053 85358 95990;MET039DAAD 090600Z 00000KT CAVOK 06/01 Q1023;EQDQ01+000000PRSWM2Q02  00002PRCP99Q03    003SCOLCG
0091605150999992000120907004+35320+004190FM-15+0461DAAD V0209999C00001220001CN0099001N1+00501+00401999999ADDMA1102401999999MW1001REMMET039DAAD 090700Z 00000KT CAVOK 05/04 Q1024;EQDQ01+000000PRSWM2
0091605150999992000120908004+35320+004190FM-15+0461DAAD V0209999C00001220001CN0099001N1+00601+00401999999ADDMA1102611999999MW1001REMMET039DAAD 090800Z 00000KT CAVOK 06/04 Q1026;EQDQ01+000000PRSWM2
0245605150999992000120909004+35320+004190SY-MT+0461DAAD V0209999C000012200019N0100001N1+01051+00391102891ADDGA1021+024009079GF103991021999022501081021MA1102811999999MD1210191+9999MW1001REMSYN076AAXX  09094 60515 42860 30000 10105 20039 40289 52019 82082 333 82358 95900;MET039DAAD 090900Z 00000KT CAVOK 11/04 Q1028;EQDQ01+000000PRSWM2Q02    003SCOLCG
0091605150999992000120910004+35320+004190FM-15+0461DAAD V0209999C00001220001CN0099001N1+01201+00401999999ADDMA1102811999999MW1001REMMET039DAAD 091000Z 00000KT CAVOK 12/04 Q1028;EQDQ01+000000PRSWM2
0162605150999992000120911004+35320+004190FM-15+0461DAAD V0209999C000010240019N0112651N1+01301+00401999999ADDGA1021+009909999GA2071+024009999GF107991999999999999999999MA1102811999999MW1001REMMET052DAAD 091100Z 00000KT 9999 FEW033 BKN080 13/04 Q1028;EQDQ01+000000PRSWM2
0297605150999992000120912004+35320+004190SY-MT+0461DAAD V0209999C000010240019N0100001N1+01401+00451102821ADDAA199000091GA1021+009909999GA2071+024009999GF108991021021012501071999MA1102811999999MD1010041+9999MW1001REMSYN088AAXX  09124 60515 32660 80000 10140 20045 40282 50004 8227/ 333 0//00 82833 86458 95900;MET052DAAD 091200Z 00000KT 9999 FEW033 BKN080 14/05 Q1028;EQDQ01+000000PRSWM2Q02  00002PRCP99
0162605150999992000120913004+35320+004190FM-15+0461DAAD V0201201N002112200019N0112651N1+01401+00401999999ADDGA1021+009009999GA2021+024009999GF104991999999999999999999MA1102711999999MW1001REMMET052DAAD 091300Z 12004KT 9999 SCT030 SCT080 14/04 Q1027;EQDQ01+000000PRSWM2
0152605150999992000120914004+35320+004190FM-15+0461DAAD V0209999C00001220001CN0112651N1+01501+00401999999ADDGA1071+009009999GA2021+024009999MA1102711999999MW1001REMMET052DAAD 091400Z 00000KT 9999 BKN030 SCT080 15/04 Q1027;EQDQ01+000042SCOTCVQ02+000000PRSWM2
0235605150999992000120915004+35320+004190SY-MT+0461DAAD V0209999C00001009001CN0100001N1+01451+00431102781ADDGA1081+009009999GF108991081021008001999999MA1102711999999MD1510081+9999MW1001REMSYN076AAXX  09154 60515 42560 80000 10145 20043 40278 55008 882// 333 88826 95900;MET045DAAD 091500Z 00000KT 9999 OVC030 15/04 Q1027;EQDQ01+000000PRSWM2
0139605150999992000120916004+35320+004190FM-15+0461DAAD V0209999C000010090019N0112651N1+01401+00501999999ADDGA1081+009009999GF108991999999999999999999MA1102811999999MW1001REMMET045DAAD 091600Z 00000KT 9999 OVC030 14/05 Q1028;EQDQ01+000000PRSWM2
0139605150999992000120917004+35320+004190FM-15+0461DAAD V0209999C000010090019N0112651N1+01301+00501999999ADDGA1081+009009999GF108991999999999999999999MA1102711999999MW1001REMMET045DAAD 091700Z 00000KT 9999 OVC030 13/05 Q1027;EQDQ01+000000PRSWM2
0193605150999992000120918004+35320+004190FM-12+0461DAAD V0209999C000010090019N0100001N1+01101+00401102801ADDAA199000091GA1081+009009089GF108991081021008001999999KA1120M+01451MD1010041+9999REMSYN082AAXX  09184 60515 32560 80000 10110 20040 40280 50004 882// 333 10145 88830 95990;EQDQ01  00002PRCP99
0305605150999992000121006004+35320+004190SY-MT+0461DAAD V0209999C000010090019N0100001N1+00641+00541102521ADDAA199000091GA1081+009009999GF108991081021008001999999IA2240+00309KA1120N+00591MA1102511999999MD1310081+9999MW1001REMSYN094AAXX  10064 60515 31560 80000 10064 20054 40252 53008 700// 882// 333 00300 20059 88930 95990;MET045DAAD 100600Z 00000KT 9999 OVC030 06/05 Q1025;EQDQ01+000000PRSWM2Q02  00002PRCP99
0139605150999992000121007004+35320+004190FM-15+0461DAAD V0209999C000010090019N0112651N1+01001+00601999999ADDGA1071+009009999GF107991999999999999999999MA1102811999999MW1001REMMET045DAAD 100700Z 00000KT 9999 BKN030 10/06 Q1028;EQDQ01+000000PRSWM2
0139605150999992000121008004+35320+004190FM-15+0461DAAD V0209999C000010099019N0112651N1+01201+00701999999ADDGA1071+009909999GF107991999999999999999999MA1102911999999MW1001REMMET045DAAD 100800Z 00000KT 9999 BKN033 12/07 Q1029;EQDQ01+000000PRSWM2
0235605150999992000121009004+35320+004190SY-MT+0461DAAD V0209999C00001069001CN0100001N1+01451+00511103121ADDGA1071+069009999GF107991071021012501999999MA1103121999999MD1210201+9999MW1001REMSYN076AAXX  10094 60515 42660 70000 10145 20051 40312 52020 872// 333 87833 95900;MET045DAAD 100900Z 00000KT 9999 BKN233 15/05 Q1031;EQDQ01+000000PRSWM2
0162605150999992000121011004+35320+004190FM-15+0461DAAD V0209999C000012200019N0112651N1+01701+00501999999ADDGA1021+009909999GA2021+060009999GF104991999999999999999999MA1103291999999MW1001REMMET052DAAD 101100Z 00000KT 9999 FEW033 SCT200 17/05 Q1033;EQDQ01+000000PRSWM2
0297605150999992000121012004+35320+004190SY-MT+0461DAAD V0209999C000012200019N0100001N1+01761+00541103201ADDAA199000091GA1021+009909999GA2021+024009999GF104991021081012501001021MA1103181999999MD1410001+9999MW1001REMSYN088AAXX  10124 60515 32660 40000 10176 20054 40320 54000 82802 333 0//00 81833 83358 95900;MET052DAAD 101200Z 00000KT 9999 FEW033 SCT080 18/05 Q1032;EQDQ01+000000PRSWM2Q02  00002PRCP99
0162605150999992000121013004+35320+004190FM-15+0461DAAD V0209999C000012200019N0112651N1+01801+00601999999ADDGA1021+009909999GA2021+024009999GF104991999999999999999999MA1103121999999MW1001REMMET052DAAD 101300Z 00000KT 9999 FEW033 SCT080 18/06 Q1031;EQDQ01+000000PRSWM2
0162605150999992000121014004+35320+004190FM-15+0461DAAD V0209999C000012200019N0112651N1+01801+00501999999ADDGA1021+009909999GA2021+024009999GF104991999999999999999999MA1103121999999MW1001REMMET052DAAD 101400Z 00000KT 9999 FEW033 SCT080 18/05 Q1031;EQDQ01+000000PRSWM2
0245605150999992000121015004+35320+004190SY-MT+0461DAAD V0209999C000012200019N0100001N1+01871+00641103101ADDGA1021+024009079GF103991021999999999071001MA1103121999999MD1510091+9999MW1001REMSYN076AAXX  10154 60515 42960 30000 10187 20064 40310 55009 82070 333 82358 95900;MET039DAAD 101500Z 00000KT CAVOK 19/06 Q1031;EQDQ01+000000PRSWM2Q02    003SCOLCG
0139605150999992000121016004+35320+004190FM-15+0461DAAD V0209999C000012200019N0112651N1+01801+00501999999ADDGA1021+012009999GF102991999999999999999999MA1103121999999MW1001REMMET045DAAD 101600Z 00000KT 9999 FEW040 18/05 Q1031;EQDQ01+000000PRSWM2
0091605150999992000121017004+35320+004190FM-15+0461DAAD V0209999C00001220001CN0099001N1+01701+00601999999ADDMA1103011999999MW1001REMMET039DAAD 101700Z 00000KT CAVOK 17/06 Q1030;EQDQ01+000000PRSWM2
0259605150999992000121018004+35320+004190SY-MT+0461DAAD V0209999C00001220001CN0100001N1+01541+00481103021ADDAA199000091GF102991021001999999071001KA1120M+01981MA1103011999999MD1610081+9999MW1001REMSYN082AAXX  10184 60515 32960 20000 10154 20048 40302 56008 82070 333 10198 82358 95990;MET039DAAD 101800Z 00000KT CAVOK 15/05 Q1030;EQDQ01+000000PRSWM2Q02  00002PRCP99
0315605150999992000121106004+35320+004190SY-MT+0461DAAD V0209999C000010240019N0100001N1+01201+00721103461ADDAA199000091GA1061+024009079GF106991061999022501081001IA2240+00809KA1120N+01071MA1103391999999MD1110011+9999MW1001REMSYN094AAXX  11064 60515 31860 60000 10120 20072 40346 51001 700// 86080 333 00800 20107 86358 95990;MET039DAAD 110600Z 00000KT CAVOK 12/07 Q1034;EQDQ01+000000PRSWM2Q02  00002PRCP99Q03    003SCOLCG
0091605150999992000121107004+35320+004190FM-15+0461DAAD V0209999C00001220001CN0099001N1+01001+00501999999ADDMA1103491999999MW1001REMMET039DAAD 110700Z 00000KT CAVOK 10/05 Q1035;EQDQ01+000000PRSWM2
0229605150999992000121109004+35320+004190SY-MT+0461DAAD V0209999C000012200019N0100001N1+01161+00621103621ADDGA1011+069009019GF101991001001999999001021MA1103591999999MD1210171+9999MW1001REMSYN076AAXX  11094 60515 42960 10000 10116 20062 40362 52017 80002 333 81073 95900;MET039DAAD 110900Z 00000KT CAVOK 12/06 Q1036;EQDQ01+000000PRSWM2
0091605150999992000121110004+35320+004190FM-15+0461DAAD V0209999C00001220001CN0099001N1+01401+00701999999ADDMA1103591999999MW1001REMMET039DAAD 111000Z 00000KT CAVOK 14/07 Q1036;EQDQ01+000000PRSWM2
0092605150999992000121111004+35320+004190FM-15+0461DAAD V0209999C00001220001CN0099001N1+01501+00601999999ADDMW1001REMMET039DAAD 111100Z 00000KT CAVOK 15/06 Q1025;EQDQ01+102513APOA  Q02+000000PRSWM2
0240605150999992000121112004+35320+004190SY-MT+0461DAAD V0209999C00001220001CN0100001N1+01651+00461103531ADDAA199000091GF101991001001999999001021MA1103491999999MD1810281+9999MW1001REMSYN076AAXX  11124 60515 32960 10000 10165 20046 40353 58028 80002 333 81073 95900;MET039DAAD 111200Z 00000KT CAVOK 17/05 Q1035;EQDQ01+000000PRSWM2Q02  00002PRCP99
0091605150999992000121114004+35320+004190FM-15+0461DAAD V0209999C00001220001CN0099001N1+01901+00601999999ADDMA1103291999999MW1001REMMET039DAAD 111400Z 00000KT CAVOK 19/06 Q1033;EQDQ01+000000PRSWM2
0201605150999992000121115004+35320+004190SY-MT+0461DAAD V0209999C000012200019N0100001N1+02001+00631103331ADDGF100991001001999999001001MA1103291999999MD1810151+9999MW1001REMSYN064AAXX  11154 60515 42960 00000 10200 20063 40333 58015 333 95900;MET039DAAD 111500Z 00000KT CAVOK 20/06 Q1033;EQDQ01+000000PRSWM2
0091605150999992000121116004+35320+004190FM-15+0461DAAD V0209999C00001220001CN0099001N1+01901+00501999999ADDMA1103291999999MW1001REMMET039DAAD 111600Z 00000KT CAVOK 19/05 Q1033;EQDQ01+000000PRSWM2
0247605150999992000121118004+35320+004190SY-MT+0461DAAD V0209999C000012200019N0100001N1+01561+00601103401ADDAA199000091GF100991001001999999001001KA1120M+02061MA1103391999999MD1310011+9999MW1001REMSYN070AAXX  11184 60515 32960 00000 10156 20060 40340 53001 333 10206 95990;MET039DAAD 111800Z 00000KT CAVOK 16/06 Q1034;EQDQ01+000000PRSWM2Q02  00002PRCP99
0227605150999992000121206004+35320+004190FM-12+0461DAAD V0209999C000012200019N0100001N1+00551+00341103551ADDAA199000091GA1001+999999999GF100991001001999999001001IA2240+00409KA1120N+99999MD1110021+9999MW1001REMSYN082AAXX  12064 60515 31960 00000 10055 20034 40355 51002 700// 333 00400 20064 95990;EQDQ01  00002PRCP99Q02 +00642ATMN  
0091605150999992000121207004+35320+004190FM-15+0461DAAD V0209999C00001220001CN0099001N1+00501+00301999999ADDMA1103591999999MW1001REMMET039DAAD 120700Z 00000KT CAVOK 05/03 Q1036;EQDQ01+000000PRSWM2
0091605150999992000121208004+35320+004190FM-15+0461DAAD V0209999C00001220001CN0099001N1+00601+00301999999ADDMA1103591999999MW1001REMMET039DAAD 120800Z 00000KT CAVOK 06/03 Q1036;EQDQ01+000000PRSWM2
0201605150999992000121209004+35320+004190SY-MT+0461DAAD V0209999C000012200019N0100001N1+00801+00351103731ADDGF100991001001999999001001MA1103691999999MD1210131+9999MW1001REMSYN064AAXX  12094 60515 42960 00000 10080 20035 40373 52013 333 95900;MET039DAAD 120900Z 00000KT CAVOK 08/04 Q1037;EQDQ01+000000PRSWM2
0091605150999992000121210004+35320+004190FM-15+0461DAAD V0209999C00001220001CN0099001N1+01101+00601999999ADDMA1103691999999MW1001REMMET039DAAD 121000Z 00000KT CAVOK 11/06 Q1037;EQDQ01+000000PRSWM2
0091605150999992000121211004+35320+004190FM-15+0461DAAD V0209999C00001220001CN0099001N1+01301+00401999999ADDMA1103691999999MW1001REMMET039DAAD 121100Z 00000KT CAVOK 13/04 Q1037;EQDQ01+000000PRSWM2
0234605150999992000121212004+35320+004190SY-MT+0461DAAD V0209999C000012200019N0100001N1+01551+00551103561ADDAA199000091GF100991001001999999001001MA1103491999999MD1810101+9999MW1001REMSYN070AAXX  12124 60515 32960 00000 10155 20055 40356 58010 333 0//00 95900;MET039DAAD 121200Z 00000KT CAVOK 16/06 Q1035;EQDQ01+000000PRSWM2Q02  00002PRCP99
0091605150999992000121213004+35320+004190FM-15+0461DAAD V0209999C00001220001CN0099001N1+01801+00601999999ADDMA1103491999999MW1001REMMET039DAAD 121300Z 00000KT CACOK 18/06 Q1035;EQDQ01+000000PRSWM2
0091605150999992000121214004+35320+004190FM-15+0461DAAD V0209999C00001220001CN0099001N1+01901+00601999999ADDMA1103391999999MW1001REMMET039DAAD 121400Z 00000KT CAVOK 19/06 Q1034;EQDQ01+000000PRSWM2
0091605150999992000121216004+35320+004190FM-15+0461DAAD V0209999C00001220001CN0099001N1+01801+00601999999ADDMA1103291999999MW1001REMMET039DAAD 121600Z 00000KT CAVOK 18/06 Q1033;EQDQ01+000000PRSWM2
0091605150999992000121217004+35320+004190FM-15+0461DAAD V0209999C00001220001CN0099001N1+01601+00501999999ADDMA1103181999999MW1001REMMET039DAAD 121700Z 00000KT CAVOK 16/05 Q1032;EQDQ01+000000PRSWM2
0181605150999992000121218004+35320+004190FM-12+0461DAAD V0209999C000012200019N0100001N1+01301+00551103341ADDAA199000091GA1001+999999999GF100991001001999999001001KA1120M+02011MD1010041+9999REMSYN070AAXX  12184 60515 32960 00000 10130 20055 40334 50004 333 10201 95990;EQDQ01  00002PRCP99
0271605150999992000121306004+35320+004190SY-MT+0461DAAD V0209999C000012200019N0100001N1+00291+00171103821ADDAA199000091GF100991001001999999001001IA2240+00109KA1120N+00291MA1103591999999MD1610011+9999MW1001REMSYN082AAXX  13064 60515 31960 00000 10029 20017 40382 56001 700// 333 00100 20029 95990;MET039DAAD 130600Z 00000KT CAVOK 03/02 Q1036;EQDQ01+000000PRSWM2Q02  00002PRCP99
0091605150999992000121307004+35320+004190FM-15+0461DAAD V0209999C00001220001CN0099001N1+00401+00101999999ADDMA1103591999999MW1001REMMET039DAAD 130700Z 00000KT CAVOK 04/01 Q1036;EQDQ01+000000PRSWM2
0091605150999992000121308004+35320+004190FM-15+0461DAAD V0209999C00001220001CN0099001N1+00501+00101999999ADDMA1103691999999MW1001REMMET039DAAD 130800Z 00000KT CAVOK 05/01 Q1037;EQDQ01+000000PRSWM2
0091605150999992000121309004+35320+004190FM-15+0461DAAD V0209999C00001220001CN0099001N1+00801+00301999999ADDMA1103691999999MW1001REMMET039DAAD 130900Z 00000KT CAVOK 08/03 Q1037;EQDQ01+000000PRSWM2
0091605150999992000121310004+35320+004190FM-15+0461DAAD V0209999C00001220001CN0099001N1+01001+00301999999ADDMA1103691999999MW1001REMMET039DAAD 131000Z 00000KT CAVOK 10/03 Q1037;EQDQ01+000000PRSWM2
0234605150999992000121312004+35320+004190SY-MT+0461DAAD V0209999C000012200019N0100001N1+01451+00511103541ADDAA199000091GF100991001001999999001001MA1103491999999MD1810131+9999MW1001REMSYN070AAXX  13124 60515 32960 00000 10145 20051 40354 58013 333 0//00 95900;MET039DAAD 131200Z 00000KT CAVOK 15/05 Q1035;EQDQ01+000000PRSWM2Q02  00002PRCP99
0091605150999992000121313004+35320+004190FM-15+0461DAAD V0209999C00001220001CN0099001N1+01601+00401999999ADDMA1103391999999MW1001REMMET039DAAD 131300Z 00000KT CAVOK 16/04 Q1034;EQDQ01+000000PRSWM2
0091605150999992000121314004+35320+004190FM-15+0461DAAD V0209999C00001220001CN0099001N1+01801+00501999999ADDMA1103391999999MW1001REMMET039DAAD 131400Z 00000KT CAVOK 18/05 Q1034;EQDQ01+000000PRSWM2
0201605150999992000121315004+35320+004190SY-MT+0461DAAD V0209999C000012200019N0100001N1+01891+00411103361ADDGF100991001001999999001001MA1103291999999MD1710181+9999MW1001REMSYN064AAXX  13154 60515 42960 00000 10189 20041 40336 57018 333 95900;MET039DAAD 131500Z 00000KT CAVOK 19/04 Q1033;EQDQ01+000000PRSWM2
0091605150999992000121316004+35320+004190FM-15+0461DAAD V0209999C00001220001CN0099001N1+01801+00401999999ADDMA1103291999999MW1001REMMET039DAAD 131600Z 00000KT CAVOK 18/04 Q1033;EQDQ01+000000PRSWM2
0091605150999992000121317004+35320+004190FM-15+0461DAAD V0209999C00001220001CN0099001N1+01401+00601999999ADDMA1103291999999MW1001REMMET039DAAD 131700Z 00000KT CAVOK 14/06 Q1033;EQDQ01+000000PRSWM2
0247605150999992000121318004+35320+004190SY-MT+0461DAAD V0209999C000012200019N0100001N1+01201+00421103421ADDAA199000091GF100991001001999999001001KA1120M+01901MA1103391999999MD1610011+9999MW1001REMSYN070AAXX  13184 60515 32960 00000 10120 20042 40342 56001 333 10190 95990;MET039DAAD 131800Z 00000KT CAVOK 12/04 Q1034;EQDQ01+000000PRSWM2Q02  00002PRCP99
0271605150999992000121406004+35320+004190SY-MT+0461DAAD V0209999C00001220001CN0100001N1+00401+00091103451ADDAA199000091GF100991001001999999001001IA2240-00109KA1120N+00261MA1103391999999MD1610031+9999MW1001REMSYN082AAXX  14064 60515 31960 00000 10040 20009 40345 56003 700// 333 05100 20026 95990;MET039DAAD 140600Z 00000KT CAVOK 04/01 Q1034;EQDQ01+000000PRSWM2Q02  00002PRCP99
0091605150999992000121407004+35320+004190FM-15+0461DAAD V0209999C00001220001CN0099001N1+00201+00001999999ADDMA1103291999999MW1001REMMET039DAAD 140700Z 00000KT CAVOK 02/00 Q1033;EQDQ01+000000PRSWM2
0091605150999992000121408004+35320+004190FM-15+0461DAAD V0209999C00001220001CN0099001N1+00501+00101999999ADDMA1103181999999MW1001REMMET039DAAD 140800Z 00000KT CAVOK 05/01 Q1032;EQDQ01+000000PRSWM2
0201605150999992000121409004+35320+004190SY-MT+0461DAAD V0209999C000012200019N0100001N1+00901+00341103221ADDGF100991001001999999001001MA1103181999999MD1010101+9999MW1001REMSYN064AAXX  14094 60515 42960 00000 10090 20034 40322 50010 333 95900;MET039DAAD 140900Z 00000KT CAVOK 09/03 Q1032;EQDQ01+000000PRSWM2
0091605150999992000121411004+35320+004190FM-15+0461DAAD V0209999C00001220001CN0099001N1+01201+00301999999ADDMA1103121999999MW1001REMMET039DAAD 141100Z 00000KT CAVOK 12/03 Q1031;EQDQ01+000000PRSWM2
0234605150999992000121412004+35320+004190SY-MT+0461DAAD V0209999C000012200019N0100001N1+01321+00351103061ADDAA199000091GF100991001001999999001001MA1103011999999MD1810131+9999MW1001REMSYN070AAXX  14124 60515 32960 00000 10132 20035 40306 58013 333 0//00 95900;MET039DAAD 141200Z 00000KT CAVOK 13/04 Q1030;EQDQ01+000000PRSWM2Q02  00002PRCP99
0091605150999992000121413004+35320+004190FM-15+0461DAAD V0209999C00001220001CN0099001N1+01601+00301999999ADDMA1102911999999MW1001REMMET039DAAD 141300Z 00000KT CAVOK 16/03 Q1029;EQDQ01+000000PRSWM2
0091605150999992000121414004+35320+004190FM-15+0461DAAD V0209999C00001220001CN0099001N1+01701+00401999999ADDMA1102911999999MW1001REMMET039DAAD 141400Z 00000KT CAVOK 17/04 Q1029;EQDQ01+000000PRSWM2
0201605150999992000121415004+35320+004190SY-MT+0461DAAD V0209999C000012200019N0100001N1+01721+00441102861ADDGF100991001001999999001001MA1102811999999MD1710171+9999MW1001REMSYN064AAXX  14154 60515 42960 00000 10172 20044 40286 57017 333 95900;MET039DAAD 141500Z 00000KT CAVOK 17/04 Q1028;EQDQ01+000000PRSWM2
0091605150999992000121417004+35320+004190FM-15+0461DAAD V0209999C00001220001CN0099001N1+01301+00301999999ADDMA1102911999999MW1001REMMET039DAAD 141700Z 00000KT CAVOK 13/03 Q1029;EQDQ01+000000PRSWM2
0247605150999992000121418004+35320+004190SY-MT+0461DAAD V0209999C000012200019N0100001N1+01201+00441102901ADDAA199000091GF100991001001999999001001KA1120M+01881MA1102911999999MD1310091+9999MW1001REMSYN070AAXX  14184 60515 32960 00000 10120 20044 40290 53009 333 10188 95990;MET039DAAD 141800Z 00000KT CAVOK 12/04 Q1029;EQDQ01+000000PRSWM2Q02  00002PRCP99
0211605150999992000121506004+35320+004190FM-12+0461DAAD V0209999C000012200019N0100001N1+00001-00171102601ADDAA199000091GA1001+999999999GF100991001001999999001001IA2240-00209KA1120N+00001MD1610071+9999MW1001REMSYN082AAXX  15064 60515 31960 00000 10000 21017 40260 56007 700// 333 05200 20000 95990;EQDQ01  00002PRCP99
0092605150999992000121508004+35320+004190FM-15+0461DAAD V0209999C00001220001CN0099001N1+00401+00001999999ADDMA1102611999999MW1001REMMET040DAAD 150800Z 00000KT CAVOK 04/M00 Q1026;EQDQ01+000000PRSWM2
0201605150999992000121509004+35320+004190SY-MT+0461DAAD V0209999C000012200019N0100001N1+00711+00241102591ADDGF100991001001999999001001MA1102611999999MD1110041+9999MW1001REMSYN064AAXX  15094 60515 42960 00000 10071 20024 40259 51004 333 95900;MET039DAAD 150900Z 00000KT CAVOK 07/02 Q1026;EQDQ01+000000PRSWM2
0091605150999992000121510004+35320+004190FM-15+0461DAAD V0203601N00211220001CN0099001N1+01001+00201999999ADDMA1102511999999MW1001REMMET039DAAD 151000Z 36004KT CAVOK 10/02 Q1025;EQDQ01+000000PRSWM2
0091605150999992000121511004+35320+004190FM-15+0461DAAD V0209999C00001220001CN0099001N1+01001+00101999999ADDMA1102401999999MW1001REMMET039DAAD 151100Z 00000KT CAVOK 10/01 Q1024;EQDQ01+000000PRSWM2
0234605150999992000121512004+35320+004190SY-MT+0461DAAD V0209999C000012200019N0100001N1+01201+00141102341ADDAA199000091GF100991001001999999001001MA1102301999999MD1810221+9999MW1001REMSYN070AAXX  15124 60515 32960 00000 10120 20014 40234 58022 333 0//00 95900;MET039DAAD 151200Z 00000KT CAVOK 12/01 Q1023;EQDQ01+000000PRSWM2Q02  00002PRCP99
0091605150999992000121513004+35320+004190FM-15+0461DAAD V0209999C00001220001CN0099001N1+01501+00301999999ADDMA1102201999999MW1001REMMET039DAAD 151300Z 00000KT CAVOK 15/03 Q1022;EQDQ01+000000PRSWM2
0092605150999992000121514004+35320+004190FM-15+0461DAAD V0209999C00001220001CN0099001N1+01701+00301999999ADDMW1001REMMET039DAAD 151400Z 00000KT CAVOK 17/03 Q1028;EQDQ01+102813APOA  Q02+000000PRSWM2
0229605150999992000121515004+35320+004190SY-MT+0461DAAD V0209999C000012200019N0100001N1+01671+00221102121ADDGA1021+069009019GF102991001001999999001021MA1102101999999MD1710191+9999MW1001REMSYN076AAXX  15154 60515 42960 20000 10167 20022 40212 57019 80002 333 82073 95900;MET039DAAD 151500Z 00000KT CAVOK 17/02 Q1021;EQDQ01+000000PRSWM2
0091605150999992000121516004+35320+004190FM-15+0461DAAD V0201201N00101220001CN0099001N1+01701+00201999999ADDMA1102101999999MW1001REMMET039DAAD 151600Z 12002KT CAVOK 17/02 Q1021;EQDQ01+000000PRSWM2
0091605150999992000121517004+35320+004190FM-15+0461DAAD V0209999C00001220001CN0099001N1+01401+00301999999ADDMA1102101999999MW1001REMMET039DAAD 151700Z 00000KT CAVOK 14/03 Q1021;EQDQ01+000000PRSWM2
0275605150999992000121518004+35320+004190SY-MT+0461DAAD V0209999C000012200019N0100001N1+00971+00021102191ADDAA199000091GA1021+069009019GF102991001001999999001011KA1120M+01771MA1102101999999MD1610011+9999MW1001REMSYN082AAXX  15184 60515 32960 20000 10097 20002 40219 56001 80001 333 10177 82073 95990;MET039DAAD 151800Z 00000KT CAVOK 10/00 Q1021;EQDQ01+000000PRSWM2Q02  00002PRCP99
0284605150999992000121606004+35320+004190SY-MT+0461DAAD V0209999C00001220001CN0100001N1+00091-00141102081ADDAA199000091GF102991001001999999001021IA2240-00209KA1120N+00091MA1102001999999MD1610081+9999MW1001REMSYN094AAXX  16064 60515 31960 20000 10009 21014 40208 56008 700// 80002 333 05200 20009 82070 95990;MET040DAAD 160600Z 00000KT CAVOK 01/M01 Q1020;EQDQ01+000000PRSWM2Q02  00002PRCP99
0251605150999992000121609004+35320+004190SY-MT+0461DAAD V0209999C000012200019N0100001N1+01281+00471102431ADDGA1021+012009999GF199999011081012501001001MA1102401999999MD1210161+9999MW1001REMSYN076AAXX  16094 60515 42660 10000 10128 20047 40243 52016 81800 333 81840 95900;MET045DAAD 160900Z 00000KT 9999 FEW040 13/05 Q1024;EQDQ01+000012SCOTCVQ02+000000PRSWM2
0139605150999992000121610004+35320+004190FM-15+0461DAAD V0209999C000012200019N0112651N1+01401+00501999999ADDGA1021+009909999GF102991999999999999999999MA1102401999999MW1001REMMET045DAAD 161000Z 00000KT 9999 FEW033 14/05 Q1024;EQDQ01+000000PRSWM2
0268605150999992000121612004+35320+004190SY-MT+0461DAAD V0209999C000012200019N0100001N1+01561+00631102241ADDAA199000091GA1021+007809999GF102991021021008001001001MA1102201999999MD1810141+9999MW1001REMSYN082AAXX  16124 60515 32560 20000 10156 20063 40224 58014 82200 333 0//00 82826 95900;MET045DAAD 161200Z 00000KT 9999 FEW026 16/06 Q1022;EQDQ01+000000PRSWM2Q02  00002PRCP99
0235605150999992000121615004+35320+004190SY-MT+0461DAAD V0209999C000012200019N0100001N1+01811+00481102121ADDGA1021+007809999GF103991031021008001001001MA1102101999999MD1710091+9999MW1001REMSYN076AAXX  16154 60515 42560 30000 10181 20048 40212 57009 83200 333 83826 95900;MET045DAAD 161500Z 00000KT 9999 SCT026 18/05 Q1021;EQDQ01+000000PRSWM2
0139605150999992000121616004+35320+004190FM-15+0461DAAD V0209999C000012200019N0112651N1+01801+00501999999ADDGA1021+007809999GF102991999999999999999999MA1102101999999MW1001REMMET045DAAD 161600Z 00000KT 9999 FEW026 18/05 Q1021;EQDQ01+000000PRSWM2
0139605150999992000121617004+35320+004190FM-15+0461DAAD V0209999C000012200019N0112651N1+01501+00401999999ADDGA1021+009009999GF102991999999999999999999MA1102101999999MW1001REMMET045DAAD 161700Z 00000KT 9999 FEW030 15/04 Q1021;EQDQ01+000000PRSWM2
0281605150999992000121618004+35320+004190SY-MT+0461DAAD V0209999C000012200019N0100001N1+01211+00641102221ADDAA199000091GA1021+009009999GF102991021021008001001001KA1120M+01981MA1102201999999MD1610041+9999MW1001REMSYN082AAXX  16184 60515 32560 20000 10121 20064 40222 56004 82200 333 10198 82830 95990;MET045DAAD 161800Z 00000KT 9999 FEW030 12/06 Q1022;EQDQ01+000000PRSWM2Q02  00002PRCP99
0305605150999992000121706004+35320+004190SY-MT+0461DAAD V0209999C000012200019N0100001N1+00141+00031102491ADDAA199000091GA1021+009909999GF102991021021012501001001IA2240+00509KA1120N+00141MA1102401999999MD1110031+9999MW1001REMSYN094AAXX  17064 60515 31660 20000 10014 20003 40249 51003 700// 82200 333 00520 20014 82833 95990;MET045DAAD 170600Z 00000KT 9999 FEW033 01/00 Q1024;EQDQ01+000000PRSWM2Q02  00002PRCP99
0139605150999992000121707004+35320+004190FM-15+0461DAAD V0209999C000012200019N0112651N1+00201+00101999999ADDGA1021+009909999GF104991999999999999999999MA1102511999999MW1001REMMET045DAAD 170700Z 00000KT 9999 SCT033 02/01 Q1025;EQDQ01+000000PRSWM2
0251605150999992000121709004+35320+004190SY-MT+0461DAAD V0209999C000010090019N0100001N1+00861+00291102621ADDGA1071+009009999GF199999051021008001001001MA1102611999999MD1210161+9999MW1001REMSYN076AAXX  17094 60515 42560 50000 10086 20029 40262 52016 85200 333 85830 95900;MET045DAAD 170900Z 00000KT 9999 BKN030 09/03 Q1026;EQDQ01+000052SCOTCVQ02+000000PRSWM2
0139605150999992000121710004+35320+004190FM-15+0461DAAD V0209999C000010090019N0112651N1+01001+00401999999ADDGA1071+009009999GF107991999999999999999999MA1102611999999MW1001REMMET045DAAD 171000Z 00000KT 9999 BKN030 10/04 Q1026;EQDQ01+000000PRSWM2
0139605150999992000121711004+35320+004190FM-15+0461DAAD V0209999C000010090019N0112651N1+01301+00301999999ADDGA1071+009009999GF107991999999999999999999MA1102611999999MW1001REMMET045DAAD 171100Z 00000KT 9999 BKN030 13/03 Q1026;EQDQ01+000000PRSWM2
0268605150999992000121712004+35320+004190SY-MT+0461DAAD V0209999C000012200019N0100001N1+01351+00381102461ADDAA199000091GA1021+009009999GF103991031021008001001001MA1102401999999MD1810091+9999MW1001REMSYN082AAXX  17124 60515 32560 30000 10135 20038 40246 58009 83200 333 0//00 83830 95900;MET045DAAD 171200Z 00000KT 9999 SCT030 14/04 Q1024;EQDQ01+000000PRSWM2Q02  00002PRCP99
0139605150999992000121713004+35320+004190FM-15+0461DAAD V0209999C000012200019N0112651N1+01501+00501999999ADDGA1021+009009999GF104991999999999999999999MA1102401999999MW1001REMMET045DAAD 171300Z 00000KT 9999 SCT030 15/05 Q1024;EQDQ01+000000PRSWM2
0139605150999992000121714004+35320+004190FM-15+0461DAAD V0203601N003112200019N0112651N1+01501+00201999999ADDGA1021+009009999GF104991999999999999999999MA1102301999999MW1001REMMET045DAAD 171400Z 36006KT 9999 SCT030 15/02 Q1023;EQDQ01+000000PRSWM2
0144605150999992000121715004+35320+004190FM-12+0461DAAD V0203401N003112200019N0100001N1+01601+00201102381ADDGA1041+009009089GF104991041021008001001001MD1610081+9999REMSYN076AAXX  17154 60515 42560 43406 10160 20020 40238 56008 84200 333 84830 95900;
0139605150999992000121716004+35320+004190FM-15+0461DAAD V0203401N003112200019N0112651N1+01501+00101999999ADDGA1021+009009999GF104991999999999999999999MA1102301999999MW1001REMMET045DAAD 171600Z 34006KT 9999 SCT030 15/01 Q1023;EQDQ01+000000PRSWM2
0140605150999992000121717004+35320+004190FM-15+0461DAAD V0203601N002112200019N0112651N1+01201+00301999999ADDGA1021+009009999GF104991999999999999999999MW1001REMMET045DAAD 171700Z 36004KT 9999 SCT030 12/03 Q1033;EQDQ01+103293APOA  Q02+000000PRSWM2
0313605150999992000121718004+35320+004190SY-MT+0461DAAD V0201001N999992200019N0100001N1+00941+00301102461ADDAA199000091GA1021+009009999GF103991031021008001001001KA1120M+01641MA1102401999999MD1310021+9999MW1001REMSYN082AAXX  17184 60515 32560 36008 10094 20030 40246 53002 83200 333 10164 83830 95990;MET045DAAD 171800Z 36008KT 9999 SCT030 09/03 Q1024;EQDQ01+005553WOSPD Q02+000000PRSWM2Q03  00002PRCP99Q040005553WOSPD 
0305605150999992000121806004+35320+004190SY-MT+0461DAAD V0209999C000012200019N0100001N1+00641+00151102501ADDAA199000091GA1021+009009999GF102991021021008001001001IA2240+00109KA1120N+00591MA1102511999999MD1110061+9999MW1001REMSYN094AAXX  18064 60515 31560 20000 10064 20015 40250 51006 700// 82200 333 00100 20059 82830 95990;MET045DAAD 180600Z 00000KT 9999 FEW030 06/02 Q1025;EQDQ01+000000PRSWM2Q02  00002PRCP99
0092605150999992000121807004+35320+004190FM-15+0461DAAD V0209999C00001220001CN0099001N1+00301+00001999999ADDMA1102912999999MW1001REMMET040DAAD 180700Z 00000KT CAVOK 03/M00 Q1029;EQDQ01+000000PRSWM2
0091605150999992000121808004+35320+004190FM-15+0461DAAD V0209999C00001220001CN0099001N1+00401+00101999999ADDMA1102911999999MW1001REMMET039DAAD 180800Z 00000KT CAVOK 04/01 Q1029;EQDQ01+000000PRSWM2
0213605150999992000121809004+35320+004190SY-MT+0461DAAD V0209999C00001220001CN0100001N1+00541+00141103051ADDGF102991001001999999001021MA1103011999999MD1310151+9999MW1001REMSYN076AAXX  18094 60515 42960 20000 10054 20014 40305 53015 80002 333 82070 95900;MET039DAAD 180900Z 00000KT CAVOK 05/01 Q1030;EQDQ01+000000PRSWM2
0091605150999992000121811004+35320+004190FM-15+0461DAAD V0209999C00001220001CN0099001N1+01001+00401999999ADDMA1103011999999MW1001REMMET039DAAD 181100Z 00000KT CAVOK 10/04 Q1030;EQDQ01+000000PRSWM2
0168605150999992000121812004+35320+004190FM-12+0461DAAD V0209999C000012200019N0100001N1+01221+00431102841ADDAA199000091GA1001+999999999GF100991001001999999001001MD1810151+9999REMSYN070AAXX  18124 60515 32960 00000 10122 20043 40284 58015 333 0//00 95900;EQDQ01  00002PRCP99
0091605150999992000121813004+35320+004190FM-15+0461DAAD V0209999C00001220001CN0099001N1+01301+00401999999ADDMA1102711999999MW1001REMMET039DAAD 181300Z 00000KT CAVOK 13/04 Q1027;EQDQ01+000000PRSWM2
0201605150999992000121815004+35320+004190SY-MT+0461DAAD V0209999C000012200019N0100001N1+01471+00241102761ADDGF100991001001999999001001MA1102711999999MD1610081+9999MW1001REMSYN064AAXX  18154 60515 42960 00000 10147 20024 40276 56008 333 95900;MET039DAAD 181500Z 00000KT CAVOK 15/02 Q1027;EQDQ01+000000PRSWM2
0091605150999992000121816004+35320+004190FM-15+0461DAAD V0209999C00001220001CN0099001N1+01401+00101999999ADDMA1102711999999MW1001REMMET039DAAD 181600Z 00000KT CAVOK 14/01 Q1027;EQDQ01+000000PRSWM2
0091605150999992000121817004+35320+004190FM-15+0461DAAD V0209999C00001220001CN0099001N1+01401+00101999999ADDMA1102711999999MW1001REMMET039DAAD 181700Z 00000KT CAVOK 14/01 Q1027;EQDQ01+000000PRSWM2
0247605150999992000121818004+35320+004190SY-MT+0461DAAD V0209999C000012200019N0100001N1+01211+00341102861ADDAA199000091GF100991001001999999001001KA1120M+01561MA1102811999999MD1310091+9999MW1001REMSYN070AAXX  18184 60515 32960 00000 10121 20034 40286 53009 333 10156 95990;MET039DAAD 181800Z 00000KT CAVOK 12/03 Q1028;EQDQ01+000000PRSWM2Q02  00002PRCP99
0272605150999992000121906004+35320+004190SY-MT+0461DAAD V0209999C000012200019N0100001N1+00051-00191102931ADDAA199000091GF100991001001999999001001IA2240-00309KA1120N+00051MA1102911999999MD1610051+9999MW1001REMSYN082AAXX  19064 60515 31960 00000 10005 21019 40293 56005 700// 333 05300 20005 95990;MET040DAAD 190600Z 00000KT CAVOK 01/M02 Q1029;EQDQ01+000000PRSWM2Q02  00002PRCP99
0092605150999992000121907004+35320+004190FM-15+0461DAAD V0209999C00001220001CN0099001N1+00001-00101999999ADDMA1102911999999MW1001REMMET040DAAD 190700Z 00000KT CAVOK 00/M01 Q1029;EQDQ01+000000PRSWM2
0092605150999992000121908004+35320+004190FM-15+0461DAAD V0209999C00001220001CN0099001N1+00101-00101999999ADDMA1102911999999MW1001REMMET040DAAD 190800Z 00000KT CAVOK 01/M01 Q1029;EQDQ01+000000PRSWM2
0201605150999992000121909004+35320+004190SY-MT+0461DAAD V0209999C000012200019N0100001N1+00531+00071102981ADDGF100991001001999999001001MA1102911999999MD1310051+9999MW1001REMSYN064AAXX  19094 60515 42960 00000 10053 20007 40298 53005 333 95900;MET039DAAD 190900Z 00000KT CAVOK 05/01 Q1029;EQDQ01+000000PRSWM2
0091605150999992000121910004+35320+004190FM-15+0461DAAD V0209999C00001220001CN0099001N1+00701+00201999999ADDMA1103011999999MW1001REMMET039DAAD 191000Z 00000KT CAVOK 07/02 Q1030;EQDQ01+000000PRSWM2
0091605150999992000121911004+35320+004190FM-15+0461DAAD V0209999C00001220001CN0099001N1+00801+00201999999ADDMA1102811999999MW1001REMMET039DAAD 191100Z 00000KT CAVOK 08/02 Q1028;EQDQ01+000000PRSWM2
0228605150999992000121912004+35320+004190SY-MT+0461DAAD V0209999C000012200019N0100001N1+01001+00301102791ADDAA199000091GF100991001001999999001001MA1102711999999MD1810151+9999MW1001REMSYN064AAXX  19124 60515 32960 00000 10100 20030 40279 58015 333 95900;MET039DAAD 191200Z 00000KT CAVOK 10/03 Q1027;EQDQ01+000000PRSWM2Q02  00002PRCP99
0091605150999992000121913004+35320+004190FM-15+0461DAAD V0209999C00001220001CN0099001N1+01201+00301999999ADDMA1102711999999MW1001REMMET039DAAD 191300Z 00000KT CAVOK 12/03 Q1027;EQDQ01+000000PRSWM2
0091605150999992000121914004+35320+004190FM-15+0461DAAD V0209999C00001220001CN0099001N1+01301+00301999999ADDMA1102511999999MW1001REMMET039DAAD 191400Z 00000KT CAVOK 13/03 Q1025;EQDQ01+000000PRSWM2
0201605150999992000121915004+35320+004190SY-MT+0461DAAD V0209999C000012200019N0100001N1+01451+00391102511ADDGF100991001001999999001001MA1102511999999MD1610231+9999MW1001REMSYN064AAXX  19154 60515 42960 00000 10145 20039 40251 56023 333 95900;MET039DAAD 191500Z 00000KT CAVOK 15/04 Q1025;EQDQ01+000000PRSWM2
0091605150999992000121916004+35320+004190FM-15+0461DAAD V0209999C00001220001CN0099001N1+01401+00401999999ADDMA1102401999999MW1001REMMET039DAAD 191600Z 00000KT CAVOK 14/04 Q1024;EQDQ01+000000PRSWM2
0091605150999992000121917004+35320+004190FM-15+0461DAAD V0209999C00001220001CN0099001N1+01101+00301999999ADDMA1102401999999MW1001REMMET039DAAD 191700Z 00000KT CAVOK 11/03 Q1024;EQDQ01+000000PRSWM2
0247605150999992000121918004+35320+004190SY-MT+0461DAAD V0209999C000012200019N0100001N1+01091+00091102491ADDAA199000091GF100991001001999999001001KA1120M+01461MA1102401999999MD1610041+9999MW1001REMSYN070AAXX  19184 60515 32960 00000 10109 20009 40249 56004 333 10146 95990;MET039DAAD 191800Z 00000KT CAVOK 11/01 Q1024;EQDQ01+000000PRSWM2Q02  00002PRCP99
0211605150999992000122006004+35320+004190FM-12+0461DAAD V0209999C000012200019N0100001N1-00061-00251102211ADDAA199000091GA1001+999999999GF100991001001999999001001IA2240-00309KA1120N-00051MD1610041+9999MW1001REMSYN082AAXX  20064 60515 31960 00000 11006 21025 40221 56004 700// 333 05300 21005 95990;EQDQ01  00002PRCP99
0093605150999992000122007004+35320+004190FM-15+0461DAAD V0209999C00001220001CN0099001N1-00101-00201999999ADDMA1102301999999MW1001REMMET041DAAD 200700Z 00000KT CAVOK M01/M02 Q1023;EQDQ01+000000PRSWM2
0091605150999992000122008004+35320+004190FM-15+0461DAAD V0209999C00001220001CN0099001N1+00001+00001999999ADDMA1102101999999MW1001REMMET039DAAD 200800Z 00000KT CAVOK 00/00 Q1021;EQDQ01+000000PRSWM2
0201605150999992000122009004+35320+004190SY-MT+0461DAAD V0209999C000012200019N0100001N1+00351-00041102161ADDGF100991001001999999001001MA1102101999999MD1510031+9999MW1001REMSYN064AAXX  20094 60515 42960 00000 10035 21004 40216 55003 333 95900;MET039DAAD 200900Z 00000KT CAVOK 04/00 Q1021;EQDQ01+000000PRSWM2
0091605150999992000122010004+35320+004190FM-15+0461DAAD V0209999C00001220001CN0099001N1+00601+00101999999ADDMA1102101999999MW1001REMMET039DAAD 201000Z 00000KT CAVOK 06/01 Q1021;EQDQ01+000000PRSWM2
0092605150999992000122011004+35320+004190FM-15+0461DAAD V0209999C00001220001CN0099001N1+00801-00101999999ADDMA1102101999999MW1001REMMET040DAAD 201100Z 00000KT CAVOK 08/M01 Q1021;EQDQ01+000000PRSWM2
0262605150999992000122012004+35320+004190SY-MT+0461DAAD V0209999C000012200019N0100001N1+00941+00141101891ADDAA199000091GA1021+060009019GF102991001001999999001021MA1101801999999MD1810241+9999MW1001REMSYN082AAXX  20124 60515 32960 20000 10094 20014 40189 58024 80002 333 0//00 82070 95900;MET039DAAD 201200Z 00000KT CAVOK 09/01 Q1018;EQDQ01+000000PRSWM2Q02  00002PRCP99
0091605150999992000122013004+35320+004190FM-15+0461DAAD V0209999C00001220001CN0099001N1+01101+00201999999ADDMA1101691999999MW1001REMMET039DAAD 201300Z 00000KT CAVOK 11/02 Q1017;EQDQ01+000000PRSWM2
0091605150999992000122014004+35320+004190FM-15+0461DAAD V0209999C00001220001CN0099001N1+01201+00201999999ADDMA1101691999999MW1001REMMET039DAAD 201400Z 00000KT CAVOK 12/02 Q1017;EQDQ01+000000PRSWM2
0213605150999992000122015004+35320+004190SY-MT+0461DAAD V0209999C00001220001CN0100001N1+01441+00241101781ADDGF102991001001999999001021MA1101691999999MD1610091+9999MW1001REMSYN076AAXX  20154 60515 42960 20000 10144 20024 40178 56009 80002 333 82073 95900;MET039DAAD 201500Z 00000KT CAVOK 14/02 Q1017;EQDQ01+000000PRSWM2
0091605150999992000122016004+35320+004190FM-15+0461DAAD V0209999C00001220001CN0099001N1+01301+00201999999ADDMA1101691999999MW1001REMMET039DAAD 201600Z 00000KT CAVOK 13/02 Q1017;EQDQ01+000000PRSWM2
0247605150999992000122018004+35320+004190SY-MT+0461DAAD V0209999C000012200019N0100001N1+00741+00011101641ADDAA199000091GF100991001001999999001001KA1120M+01521MA1101591999999MD1810121+9999MW1001REMSYN070AAXX  20184 60515 32960 00000 10074 20001 40164 58012 333 10152 95990;MET039DAAD 201800Z 00000KT CAVOK 07/00 Q1016;EQDQ01+000000PRSWM2Q02  00002PRCP99
0210605150999992000122106004+35320+004190FM-12+0461DAAD V0202801N005110078019N0100001N1+00961+00461101291ADDAA124000791GA1081+007809089GF108991081021008001999999IA2240+00409KA1120N+00701MD1510001+9999MW1001REMSYN100AAXX  21064 60515 11560 82810 10096 20046 40129 55000 69904 700// 882// 333 004// 20070 88826 95990;
0159605150999992000122107004+35320+004190FM-15+0461DAAD V0203001N002110078019N0080001N1+00901+00501999999ADDGA1081+007809999GF108991999999999999999999MA1101291999999MW1611REMMET049DAAD 210700Z 30004KT 8000 -RA OVC026 09/05 Q1013;EQDQ01+000003PRSWM1Q02    003PRSWM1
0142605150999992000122108004+35320+004190FM-15+0461DAAD V0201601N002112200019N0112651N1+00801+00501999999ADDGA1021+009009999GF104991999999999999999999MA1101291999999MW1001REMMET048DAAD 210800Z 16004KT 9999 SCT030 08/05 Q1013 RA;EQDQ01+000000PRSWM2
0235605150999992000122109004+35320+004190SY-MT+0461DAAD V0202801N003112200019N0100001N1+01041+00411101451ADDGA1021+009009999GF103991031021008001001001MA1101391999999MD1210131+9999MW1001REMSYN076AAXX  21094 60515 42560 32806 10104 20041 40145 52013 83200 333 83830 95900;MET045DAAD 210900Z 28010KT 9999 SCT030 10/04 Q1014;EQDQ01+000000PRSWM2
0139605150999992000122110004+35320+004190FM-15+0461DAAD V0202601N005112200019N0112651N1+01201+00401999999ADDGA1021+009009999GF104991999999999999999999MA1101391999999MW1001REMMET045DAAD 211000Z 26010KT 9999 SCT030 12/04 Q1014;EQDQ01+000000PRSWM2
0264605150999992000122112004+35320+004190SY-MT+0461DAAD V0202801N003112200019N0100001N1+01201+00331101391ADDAA106000391AC11I9GA1021+009009999GF104991041021008001001001MA1101291999999MD1810061+9999MW1001REMSYN088AAXX  21124 60515 12560 42806 10120 20033 40139 58006 69931 84200 333 0//15 84830 95900;MET045DAAD 211200Z 28006KT 9999 SCT030 12/03 Q1013;EQDQ01+000000PRSWM2
0139605150999992000122114004+35320+004190FM-15+0461DAAD V0202801N005112200019N0112651N1+01401+00201999999ADDGA1021+009009999GF104991999999999999999999MA1101191999999MW1001REMMET045DAAD 211400Z 28010KT 9999 SCT030 14/02 Q1012;EQDQ01+000000PRSWM2
0144605150999992000122115004+35320+004190FM-12+0461DAAD V0202801N007212200019N0100001N1+01401+00171101341ADDGA1041+009009089GF104991041021008001001021MD1510021+9999REMSYN076AAXX  21154 60515 42560 42814 10140 20017 40134 55002 84202 333 84830 95900;
0139605150999992000122116004+35320+004190FM-15+0461DAAD V0202801N007212200019N0112651N1+01301+00201999999ADDGA1021+009009999GF104991999999999999999999MA1101291999999MW1001REMMET045DAAD 211600Z 28014KT 9999 SCT030 13/02 Q1013;EQDQ01+000000PRSWM2
0211605150999992000122206004+35320+004190FM-12+0461DAAD V0209999C000010600019N0100001N1+00071-00131101651ADDAA199000091GA1051+060009009GF105991001001999999001021IA2240+00509KA1120N+00061MD1710031+9999REMSYN088AAXX  22064 60515 32960 50000 10007 21013 40165 57003 80002 333 00520 20006 85070 95900;EQDQ01  00002PRCP99
0261605150999992000122209004+35320+004190SY-MT+0461DAAD V0209999C000012200019N0100001N1+00351+00141101671ADDGA1051+060009019GF199999001001999999001021MA1101591999999MD1110031+9999MW1001REMSYN076AAXX  22094 60515 42560 40000 10035 20014 40167 51003 80002 333 85070 95900;MET039DAAD 220900Z 00000KT CAVOK 04/01 Q1016;EQDQ01+000042SCOTCVQ02+008002SCOLCBQ03+000000PRSWM2
0091605150999992000122210004+35320+004190FM-15+0461DAAD V0209999C00001220001CN0099001N1+00701+00201999999ADDMA1101591999999MW1001REMMET039DAAD 221000Z 00000KT CAVOK 07/02 Q1016;EQDQ01+000000PRSWM2
0284605150999992000122212004+35320+004190SY-MT+0461DAAD V0209999C000010240019N0100001N1+00951+00231101481ADDAA199000091GA1041+012009029GA2031+024009079GF107991021021012501071021MA1101591999999MD1810161+9999MW1001REMSYN088AAXX  22124 60515 32660 70000 10095 20023 40148 58016 82272 333 0//00 84840 83358 95900;MET039DAAD 221200Z 00000KT CAVOK 04/01 Q1016;EQDQ01+000000PRSWM2Q02  00002PRCP99
0162605150999992000122213004+35320+004190FM-15+0461DAAD V0209999C000010240019N0112651N1+01101+00301999999ADDGA1021+009909999GA2071+024009999GF107991999999999999999999MA1101291999999MW1001REMMET052DAAD 221300Z 00000KT 9999 SCT033 BKN080 11/03 Q1013;EQDQ01+000000PRSWM2
0162605150999992000122214004+35320+004190FM-15+0461DAAD V0209999C000010240019N0112651N1+01201+00301999999ADDGA1071+024009999GA2021+069009999GF107991999999999999999999MA1101191999999MW1001REMMET052DAAD 221400Z 00000KT 9999 SCT233 BKN080 12/03 Q1012;EQDQ01+000000PRSWM2
0264605150999992000122215004+35320+004190SY-MT+0461DAAD V0209999C000010240019N0100001N1+01261+00301101381ADDGA1021+009909999GA2071+024009999GF107991041081008001071021MA1101291999999MD1510041+9999MW1001REMSYN082AAXX  22154 60515 42560 70000 10126 20030 40138 55004 84872 333 84833 85358 95900;MET052DAAD 221500Z 00000KT 9999 SCT033 BKN080 13/02 Q1013;EQDQ01+000000PRSWM2
0162605150999992000122217004+35320+004190FM-15+0461DAAD V0209999C000012200019N0112651N1+00901+00201999999ADDGA1021+009909999GA2021+024009999GF104991999999999999999999MA1101291999999MW1001REMMET052DAAD 221700Z 00000KT 9999 SCT033 SCT080 09/02 Q1013;EQDQ01+000000PRSWM2
0310605150999992000122218004+35320+004190SY-MT+0461DAAD V0209999C00001036001CN0100001N1+00791+00321101481ADDAA199000091GA1021+009909999GA2021+024009999GF107991031081008001071001KA1120M+01481MA1101391999999MD1310081+9999MW1001REMSYN088AAXX  22184 60515 32560 70000 10079 20032 40148 53008 83870 333 10148 83833 84358 95990;MET052DAAD 221800Z 00000KT 9999 SCT033 SCT080 08/03 Q1014;EQDQ01+000000PRSWM2Q02  00002PRCP99
0295605150999992000122306004+35320+004190SY-MT+0461DAAD V0209999C000010090019N0100001N1+00531+00441101131ADDAA124001091GA1081+009009999GF108991081021008001999999IA2240+00409KA1120N+00501MA1101081999999MD1510011+9999MW1001REMSYN100AAXX  23064 60515 11560 80000 10053 20044 40113 55001 60014 700// 882// 333 004// 20050 88830 95990;MET045DAAD 230600Z 23012KT 9999 OVC030 05/04 Q1011;EQDQ01+000000PRSWM2
0162605150999992000122307004+35320+004190FM-15+0461DAAD V0209999C000010090019N0112651N1+00601+00501999999ADDGA1021+002109999GA2081+009009999GF108991999999999999999999MA1101191999999MW1001REMMET052DAAD 230700Z 00000KT 9999 FEW007 OVC030 06/05 Q1012;EQDQ01+000000PRSWM2
0162605150999992000122308004+35320+004190FM-15+0461DAAD V0209999C000012200019N0112651N1+00701+00601999999ADDGA1021+002109999GA2021+009009999GF104991999999999999999999MA1101391999999MW1001REMMET052DAAD 230800Z 00000KT 9999 FEW007 SCT030 07/06 Q1014;EQDQ01+000000PRSWM2
0144605150999992000122309004+35320+004190FM-12+0461DAAD V0203401N002112200019N0100001N1+00801+00671101581ADDGA1041+002109079GF104991041071002501001001MD1210181+9999REMSYN076AAXX  23094 60515 42360 43404 10080 20067 40158 52018 84700 333 84707 95900;
0139605150999992000122310004+35320+004190FM-15+0461DAAD V0203601N002112200019N0112651N1+01001+00701999999ADDGA1021+009009999GF104991999999999999999999MA1101591999999MW1001REMMET045DAAD 231000Z 36004KT 9999 SCT030 10/07 Q1016;EQDQ01+000000PRSWM2
0268605150999992000122312004+35320+004190SY-MT+0461DAAD V0209999C000012200019N0100001N1+01211+00771101521ADDAA199000091GA1021+009009999GF104991041021008001001001MA1101491999999MD1810021+9999MW1001REMSYN082AAXX  23124 60515 32560 40000 10121 20077 40152 58002 84200 333 0//00 84830 95900;MET045DAAD 231200Z 00000KT 9999 SCT030 12/08 Q1015;EQDQ01+000000PRSWM2Q02  00002PRCP99
0139605150999992000122313004+35320+004190FM-15+0461DAAD V0203601N002110078019N0112651N1+01301+00701999999ADDGA1071+007809999GF107991999999999999999999MA1101491999999MW1001REMMET045DAAD 231300Z 36004KT 9999 BKN026 13/07 Q1015;EQDQ01+000000PRSWM2
0139605150999992000122314004+35320+004190FM-15+0461DAAD V0203601N002110078019N0112651N1+01601+00801999999ADDGA1071+007809999GF107991999999999999999999MA1101491999999MW1001REMMET045DAAD 231400Z 36004KT 9999 BKN026 16/08 Q1015;EQDQ01+000000PRSWM2
0139605150999992000122315004+35320+004190FM-15+0461DAAD V0203601N002110078019N0112651N1+01301+00701999999ADDGA1071+007809999GF107991999999999999999999MA1101491999999MW1001REMMET045DAAD 231500Z 36004KT 9999 BKN026 13/07 Q1015;EQDQ01+000000PRSWM2
0139605150999992000122316004+35320+004190FM-15+0461DAAD V0209999C000010078019N0112651N1+01201+00701999999ADDGA1071+007809999GF107991999999999999999999MA1101491999999MW1001REMMET045DAAD 231600Z 00000KT 9999 BKN026 12/07 Q1015;EQDQ01+000000PRSWM2
0139605150999992000122317004+35320+004190FM-15+0461DAAD V0203601N002110090019N0112651N1+01201+00601999999ADDGA1071+009009999GF107991999999999999999999MA1101591999999MW1001REMMET045DAAD 231700Z 36004KT 9999 BKN030 12/06 Q1016;EQDQ01+000000PRSWM2
0281605150999992000122318004+35320+004190SY-MT+0461DAAD V0203601N002112200019N0100001N1+01081+00661101651ADDAA199000091GA1021+009009999GF104991041021008001001001KA1120M+01321MA1101591999999MD1210151+9999MW1001REMSYN082AAXX  23184 60515 32560 43604 10108 20066 40165 52015 84200 333 10132 84830 95990;MET045DAAD 231800Z 36004KT 9999 SCT030 11/07 Q1016;EQDQ01+000000PRSWM2Q02  00002PRCP99
0299605150999992000122406004+35320+004190SY-MT+0461DAAD V0202801N005112200019N0100001N1+00751+00641101751ADDAA199000091GA1021+009009999GF102991021021008001001001IA2240+00409KA1120N+00651MA1101691999999MD1510041+9999MW1001REMSYN088AAXX  24064 60515 31560 22810 10075 20064 40175 55004 82200 333 00400 20065 82830 95990;MET045DAAD 240600Z 28010KT 9999 FEW030 08/06 Q1017;EQDQ01+000000PRSWM2Q02  00002PRCP99
0162605150999992000122407004+35320+004190FM-15+0461DAAD V0209999C000010600019N0112651N1+00801+00501999999ADDGA1021+009009999GA2071+060009999GF107991999999999999999999MA1101691999999MW1001REMMET052DAAD 240700Z 00000KT 9999 FEW030 BKN200 08/05 Q1017;EQDQ01+000000PRSWM2
0162605150999992000122408004+35320+004190FM-15+0461DAAD V0200801N002110600019N0112651N1+00501+00201999999ADDGA1021+009909999GA2071+060009999GF107991999999999999999999MA1101591999999MW1001REMMET052DAAD 240800Z 08004KT 9999 FEW033 BKN200 05/02 Q1016;EQDQ01+000000PRSWM2
0267605150999992000122409004+35320+004190SY-MT+0461DAAD V0209999C000010600019N0100001N1+00581+00391101661ADDGA1021+024009079GA2051+060009019GF106991021999999999071021MA1101591999999MD1310011+9999MW1001REMSYN082AAXX  24094 60515 42960 60000 10058 20039 40166 53001 82072 333 82358 85070 95900;MET039DAAD 240900Z 00000KT CAVOK 06/04 Q1016;EQDQ01+000000PRSWM2Q02    003SCOLCG
0162605150999992000122410004+35320+004190FM-15+0461DAAD V0209999C000010600019N0112651N1+00801+00501999999ADDGA1021+009909999GA2071+060009999GF107991999999999999999999MA1101691999999MW1001REMMET052DAAD 241000Z 00000KT 9999 FEW033 BKN200 08/05 Q1017;EQDQ01+000000PRSWM2
0162605150999992000122411004+35320+004190FM-15+0461DAAD V0209999C000010600019N0112651N1+00901+00401999999ADDGA1021+009909999GA2071+060009999GF107991999999999999999999MA1101691999999MW1001REMMET052DAAD 241100Z 00000KT 9999 FEW033 BKN200 09/04 Q1017;EQDQ01+000000PRSWM2
0297605150999992000122412004+35320+004190SY-MT+0461DAAD V0209999C000019999999N0080001N1+01541+00791101421ADDAA199000091GA1021+009909999GA2021+024009999GF107991011001012501071021MA1101391999999MD1810151+9999MW1001REMSYN088AAXX  24124 60515 32658 70000 10154 20079 40142 58015 81072 333 0//00 81833 86358 95900;MET052DAAD 241200Z 00000KT 8000 FEW033 SCT080 15/08 Q1014;EQDQ01+000000PRSWM2Q02  00002PRCP99
0162605150999992000122413004+35320+004190FM-15+0461DAAD V0202201N004112200019N0080001N1+01701+00401999999ADDGA1021+009909999GA2021+024009999GF104991999999999999999999MA1101291999999MW1001REMMET052DAAD 241300Z 22008KT 8000 FEW033 SCT080 17/04 Q1013;EQDQ01+000000PRSWM2
0162605150999992000122414004+35320+004190FM-15+0461DAAD V0202401N003112200019N0080001N1+01801+00401999999ADDGA1021+009909999GA2021+024009999GF104991999999999999999999MA1101191999999MW1001REMMET052DAAD 241400Z 24006KT 8000 FEW033 SCT080 18/04 Q1012;EQDQ01+000000PRSWM2
0264605150999992000122415004+35320+004190SY-MT+0461DAAD V0209999C00001036001CN0100001N1+01721+00761101461ADDGA1021+009909999GA2021+024009999GF107991011021008001071001MA1101391999999MD1310081+9999MW1001REMSYN082AAXX  24154 60515 42560 70000 10172 20076 40146 53008 81270 333 81833 84358 95900;MET052DAAD 241500Z 00000KT 8000 FEW033 SCT080 17/08 Q1014;EQDQ01+000000PRSWM2
0162605150999992000122417004+35320+004190FM-15+0461DAAD V0203601N003112200019N0112651N1+01601+00801999999ADDGA1021+009909999GA2021+024009999GF104991999999999999999999MA1101591999999MW1001REMMET052DAAD 241700Z 36006KT 9999 FEW033 SCT080 16/08 Q1016;EQDQ01+000000PRSWM2
0247605150999992000122418004+35320+004190SY-MT+0461DAAD V0203601N005112200019N0100001N1+01321+00741101681ADDAA199000091GF100991001001999999001001KA1120M+01841MA1101591999999MD1110081+9999MW1001REMSYN070AAXX  24184 60515 32960 03610 10132 20074 40168 51008 333 10184 95990;MET039DAAD 241800Z 36010KT CAVOK 13/07 Q1016;EQDQ01+000000PRSWM2Q02  00002PRCP99
0305605150999992000122506004+35320+004190SY-MT+0461DAAD V0209999C000010090019N0100001N1+00451+00231100951ADDAA199000091GA1071+009009999GF107991071021008001999999IA2240+00209KA1120N+00451MA1100911999999MD1610111+9999MW1001REMSYN094AAXX  25064 60515 31560 70000 10045 20023 40095 56011 700// 872// 333 00200 20045 87830 95990;MET045DAAD 250600Z 00000KT 9999 BKN030 05/02 Q1009;EQDQ01+000000PRSWM2Q02  00002PRCP99
0162605150999992000122507004+35320+004190FM-15+0461DAAD V0202801N007210078019N0112651N1+00801+00301999999ADDGA1021+006009999GA2071+007809999GF107991999999999999999999MA1100911999999MW1001REMMET052DAAD 250700Z 28014KT 9999 FEW020 BKN026 08/03 Q1009;EQDQ01+000000PRSWM2
0171605150999992000122508004+35320+004190FM-15+0461DAAD V0202801N00621220001CN0040001N1+01101+00701999999ADDGA1071+007809999GA2021+024009999MA1100911999999MW1631REMMET055DAAD 250800Z 28012KT 4000 RA BKN026 SCT080 11/07 Q1009;EQDQ01+000042SCOTCVQ02+000003PRSWM1Q03    003PRSWM1
0307605150999992000122509004+35320+004190SY-MT+0461DAAD V0200401N002112200019N0080001N1+01001+00791100981ADDAY161031AY221031GA1021+006009999GA2021+007809999GF107991061071008001071999MA1100911999999MD1810011+9999MW1211REMSYN088AAXX  25094 60515 41558 70404 10100 20079 40098 58001 72162 8677/ 333 83720 83826 95990;MET057DAAD 250900Z 04004KT 8000 SCT020 SCT026 10/08 Q1009 RERA;EQDQ01+000000PRSWM2Q02    003PRSWM1
0139605150999992000122510004+35320+004190FM-15+0461DAAD V0203601N001010078019N0112651N1+01001+00801999999ADDGA1071+007809999GF107991999999999999999999MA1101021999999MW1001REMMET045DAAD 251000Z 36002KT 9999 BKN026 10/08 Q1010;EQDQ01+000000PRSWM2
0302605150999992000122512004+35320+004190SY-MT+0461DAAD V0202801N01231007801CN0080001N1+01461+00401100861ADDAA112003091AC12C9AY161061AY221061GA1071+007809999GF107991071021008001999999MA1100811999999MD1810021+9999MW1211REMSYN094AAXX  25124 60515 11558 72824 10146 20040 40086 58002 60032 72162 872// 333 0//22 87830 95900;MET045DAAD 251200Z 28024KT 8000 BKN026 15/04 Q1008;EQDQ01+000000PRSWM2Q02    003PRSWM1
0156605150999992000122513004+35320+004190FM-15+0461DAAD V0202801N017512200019N0080001N1+01501+99999999999ADDGA1021+009009999GF104991999999999999999999MW1001REMMET045DAAD 251300Z 28034KT 8000 SCT030 15/14 Q1016;EQDQ01+001403ATOD  Q02+101593APOA  Q03+000000PRSWM2
0139605150999992000122514004+35320+004190FM-15+0461DAAD V0202801N014412200019N0080001N1+01501+00301999999ADDGA1021+009009999GF104991999999999999999999MA1100811999999MW1001REMMET045DAAD 251400Z 28028KT 8000 SCT030 15/03 Q1008;EQDQ01+000000PRSWM2
0235605150999992000122515004+35320+004190SY-MT+0461DAAD V0202801N012312200019N0100001N1+01551+00391100931ADDGA1021+009009999GF103991031021008001001001MA1100911999999MD1310031+9999MW1001REMSYN076AAXX  25154 60515 42560 32824 10155 20039 40093 53003 83200 333 83820 95900;MET045DAAD 251500Z 28004KT 9999 SCT030 16/04 Q1009;EQDQ01+000000PRSWM2
0223605150999992000122606004+35320+004190FM-12+0461DAAD V0209999C000012200019N0100001N1+00721+00451101151ADDAA199000091GA1041+024009039GF104991041001999999071001IA2240+00309KA1120N+00501MD1710151+9999MW1001REMSYN094AAXX  26064 60515 31960 40000 10072 20045 40115 57015 700// 84070 333 00300 20050 84358 95990;EQDQ01  00002PRCP99
0139605150999992000122608004+35320+004190FM-15+0461DAAD V0209999C000012200019N0080001N1+00601+00501999999ADDGA1021+024009999GF104991999999999999999999MA1101081999999MW1001REMMET045DAAD 260800Z 00000KT 8000 SCT080 06/05 Q1011;EQDQ01+000000PRSWM2
0264605150999992000122609004+35320+004190SY-MT+0461DAAD V0209999C000012200019N0100001N1+00931+00551101161ADDGA1021+012009999GA2021+024009999GF104991011081999999071001MA1101081999999MD1410001+9999MW1001REMSYN082AAXX  26094 60515 42960 40000 10093 20055 40116 54000 81870 333 81840 83358 95900;MET052DAAD 260900Z 00000KT 9999 FEW040 SCT080 09/06 Q1011;EQDQ01+000000PRSWM2
0162605150999992000122610004+35320+004190FM-15+0461DAAD V0209999C000012200019N0112651N1+01001+00701999999ADDGA1021+012009999GA2021+024009999GF104991999999999999999999MA1101081999999MW1001REMMET052DAAD 261000Z 00000KT 9999 FEW040 SCT080 10/07 Q1011;EQDQ01+000000PRSWM2
0162605150999992000122611004+35320+004190FM-15+0461DAAD V0209999C000012200019N0112651N1+01301+00801999999ADDGA1021+012009999GA2021+024009999GF104991999999999999999999MA1101081999999MW1001REMMET052DAAD 261100Z 00000KT 9999 FEW040 SCT080 13/08 Q1011;EQDQ01+000000PRSWM2
0297605150999992000122612004+35320+004190SY-MT+0461DAAD V0209999C00001036001CN0100001N1+01401+00701100891ADDAA199000091GA1021+009909999GA2021+024009999GF106991031081012501071001MA1100811999999MD1810221+9999MW1001REMSYN088AAXX  26124 60515 32660 60000 10140 20070 40089 58022 83870 333 0//00 83833 83358 95900;MET052DAAD 261200Z 00000KT 9999 SCT033 SCT080 14/07 Q1008;EQDQ01+000000PRSWM2Q02  00002PRCP99
0162605150999992000122613004+35320+004190FM-15+0461DAAD V0209999C000012200019N0080001N1+01701+00801999999ADDGA1021+009909999GA2021+024009999GF104991999999999999999999MA1100811999999MW1001REMMET052DAAD 261300Z 00000KT 8000 SCT033 SCT080 17/08 Q1008;EQDQ01+000000PRSWM2
0162605150999992000122614004+35320+004190FM-15+0461DAAD V0209999C000012200019N0080001N1+01701+00701999999ADDGA1021+009909999GA2021+024009999GF104991999999999999999999MA1100611999999MW1001REMMET052DAAD 261400Z 00000KT 8000 SCT033 SCT080 17/07 Q1006;EQDQ01+000000PRSWM2
0264605150999992000122615004+35320+004190SY-MT+0461DAAD V0209999C00001036001CN0080001N1+01711+00821100781ADDGA1021+009909999GA2021+024009999GF106991031081012501071001MA1100711999999MD1310081+9999MW1001REMSYN082AAXX  26154 60515 42658 60000 10171 20082 40078 53008 83870 333 83833 83358 95900;MET052DAAD 261500Z 00000KT 8000 SCT033 SCT080 17/08 Q1007;EQDQ01+000000PRSWM2
0162605150999992000122617004+35320+004190FM-15+0461DAAD V0209999C000012200019N0112651N1+01401+00801999999ADDGA1021+009909999GA2021+024009999GF104991999999999999999999MA1101021999999MW1001REMMET052DAAD 261700Z 00000KT 9999 FEW033 SCT080 14/08 Q1010;EQDQ01+000000PRSWM2
0281605150999992000122618004+35320+004190SY-MT+0461DAAD V0203601N004112200019N0100001N1+01321+00801101181ADDAA199000091GA1021+009909999GF104991021081012501071001KA1120M+01781MA1101081999999MD1110041+9999MW1001REMSYN082AAXX  26184 60515 32660 43608 10132 20080 40118 51004 82870 333 10178 82833 95990;MET045DAAD 261800Z 36008KT 9999 FEW033 13/08 Q1011;EQDQ01+000000PRSWM2Q02  00002PRCP99
0295605150999992000122706004+35320+004190SY-MT+0461DAAD V0202801N009312200019N0100001N1+00771+00401100011ADDAA124006191GA1021+009909999GF102991021021012501001001IA2240+00309KA1120N+00591MA1100101999999MD1710131+9999MW1001REMSYN100AAXX  27064 60515 11660 22818 10077 20040 40001 57013 60064 700// 82200 333 00300 20059 82833 95990;MET045DAAD 270600Z 28018KT 9999 FEW033 08/04 Q1001;EQDQ01+000000PRSWM2
0139605150999992000122707004+35320+004190FM-15+0461DAAD V0202801N002112200019N0112651N1+01001+00601999999ADDGA1021+009909999GF102991999999999999999999MA1100101999999MW1001REMMET045DAAD 270700Z 28004KT 9999 FEW033 10/06 Q1001;EQDQ01+000000PRSWM2
0139605150999992000122711004+35320+004190FM-15+0461DAAD V0202801N010312200019N0112651N1+01301+00501999999ADDGA1021+007809999GF104991999999999999999999MA1100311999999MW1001REMMET045DAAD 271100Z 28020KT 9999 SCT026 13/05 Q1003;EQDQ01+000000PRSWM2
0284605150999992000122712004+35320+004190SY-MT+0461DAAD V0202801N008210090019N0100001N1+01451+00541100341ADDAA199000091GA1071+009009999GF199999051021008001001021MA1100311999999MD1010111+9999MW1001REMSYN082AAXX  27124 60515 32560 63816 10145 20054 40034 50011 85202 333 0//00 85830 95900;MET045DAAD 271200Z 28016KT 9999 BKN030 15/05 Q1003;EQDQ01+000062SCOTCVQ02+000000PRSWM2Q03  00002PRCP99
0139605150999992000122714004+35320+004190FM-15+0461DAAD V0202801N006210090019N0112651N1+01501+00601999999ADDGA1071+009009999GF107991999999999999999999MA1100201999999MW1001REMMET045DAAD 271400Z 28012KT 9999 BKN030 15/06 Q1002;EQDQ01+000000PRSWM2
0251605150999992000122715004+35320+004190SY-MT+0461DAAD V0202801N012310078019N0100001N1+01361+00291100351ADDGA1071+007809999GF199999051021008001001001MA1100311999999MD1510011+9999MW1001REMSYN076AAXX  27154 60515 42560 52824 10136 20029 40035 55001 85200 333 85826 95900;MET045DAAD 271500Z 28024KT 9999 BKN026 14/03 Q1003;EQDQ01+000052SCOTCVQ02+000000PRSWM2
0139605150999992000122716004+35320+004190FM-15+0461DAAD V0202801N011312200019N0112651N1+01201+00201999999ADDGA1021+009009999GF104991999999999999999999MA1100411999999MW1001REMMET045DAAD 271600Z 28022KT 9999 SCT030 12/02 Q1004;EQDQ01+000000PRSWM2
0193605150999992000122718004+35320+004190FM-12+0461DAAD V0202801N007212200019N0100001N1+01061+00381100601ADDAA199000091GA1041+009009089GF104991041021008001001001KA1120M+01451MD1310201+9999REMSYN082AAXX  27184 60515 32560 42814 10106 20038 40060 53020 84200 333 10145 84830 95990;EQDQ01  00002PRCP99
0223605150999992000122806004+35320+004190FM-12+0461DAAD V0202801N008212200019N0100001N1+00741+00491101051ADDAA199000091GA1021+009009089GF102991021021008001001001IA2240+00409KA1120N+00721MD1210121+9999MW1001REMSYN094AAXX  28064 60515 31560 22816 10074 20049 40105 52012 700// 82200 333 00400 20072 82830 95990;EQDQ01  00002PRCP99
0139605150999992000122807004+35320+004190FM-15+0461DAAD V0202801N008212200019N0112651N1+00701+00401999999ADDGA1021+009009999GF102991999999999999999999MA1101021999999MW1001REMMET045DAAD 280700Z 28016KT 9999 FEW030 07/04 Q1010;EQDQ01+000000PRSWM2
0251605150999992000122809004+35320+004190SY-MT+0461DAAD V0202801N014412200019N0100001N1+01101+00191999999ADDGA1021+007809999GF103991031021008001001001MA1101391999999MD1310321+9999MW1001REMSYN076AAXX  28094 60515 42560 32828 10110 20019 40014 53032 83200 333 83826 95900;MET045DAAD 280900Z 28028KT 9999 SCT026 11/02 Q1014;EQDQ01+100143APOSLPQ02+000000PRSWM2
0139605150999992000122810004+35320+004190FM-15+0461DAAD V0202801N014412200019N0112651N1+01201+00201999999ADDGA1021+007809999GF104991999999999999999999MA1101491999999MW1001REMMET045DAAD 281000Z 28028KT 9999 SCT026 12/02 Q1015;EQDQ01+000000PRSWM2
0139605150999992000122811004+35320+004190FM-15+0461DAAD V0202801N012310078019N0112651N1+01301+00201999999ADDGA1071+007809999GF107991999999999999999999MA1101491999999MW1001REMMET045DAAD 281100Z 28024KT 9999 BKN026 13/02 Q1015;EQDQ01+000000PRSWM2
0284605150999992000122812004+35320+004190SY-MT+0461DAAD V0202801N012310078019N0100001N1+01341+00171101561ADDAA199000091GA1071+007809999GF199999051021008001001001MA1101491999999MD1010141+9999MW1001REMSYN082AAXX  28124 60515 32560 52824 10134 20017 40156 50014 85200 333 0//00 85826 95900;MET045DAAD 281200Z 28024KT 9999 BKN026 13/02 Q1015;EQDQ01+000052SCOTCVQ02+000000PRSWM2Q03  00002PRCP99
0139605150999992000122814004+35320+004190FM-15+0461DAAD V0202801N010312200019N0112651N1+01401+00201999999ADDGA1021+007809999GF104991999999999999999999MA1101491999999MW1001REMMET045DAAD 281400Z 28020KT 9999 SCT026 14/02 Q1015;EQDQ01+000000PRSWM2
0162605150999992000122816004+35320+004190FM-15+0461DAAD V0202801N009310600019N0112651N1+01201+00401999999ADDGA1021+009009999GA2071+060009999GF107991999999999999999999MA1101491999999MW1001REMMET052DAAD 281600Z 28018KT 9999 SCT030 BKN200 12/04 Q1015;EQDQ01+000000PRSWM2
0162605150999992000122817004+35320+004190FM-15+0461DAAD V0202801N010310600019N0112651N1+01201+00301999999ADDGA1021+009009999GA2071+060009999GF107991999999999999999999MA1101591999999MW1001REMMET052DAAD 281700Z 28020KT 9999 SCT030 BKN200 12/03 Q1016;EQDQ01+000000PRSWM2
0310605150999992000122818004+35320+004190SY-MT+0461DAAD V0202801N00931090001CN0100001N1+01041+00241101721ADDAA199000091GA1021+009909999GA2021+069009999GF106991031021012501001021KA1120M+01521MA1101691999999MD1310141+9999MW1001REMSYN088AAXX  28184 60515 32660 62818 10104 20024 40172 53014 83202 333 10152 83833 83070 95990;MET052DAAD 281800Z 28018KT 9999 SCT033 SCT230 10/02 Q1017;EQDQ01+000000PRSWM2Q02  00002PRCP99
0321605150999992000122906004+35320+004190SY-MT+0461DAAD V0202801N015410078019N0080001N1+01141+00171101121ADDAA199000091GA1071+007809999GF199999051021008001001001IA2240+00609KA1120N+00921MA1101081999999MD1610031+9999MW1001REMSYN094AAXX  29064 60515 31558 52830 10114 20017 40112 56003 700// 85200 333 00600 20092 85826 95990;MET045DAAD 290600Z 28030KT 8000 BKN026 11/02 Q1011;EQDQ01+000052SCOTCVQ02+000000PRSWM2Q03  00002PRCP99
0159605150999992000122907004+35320+004190FM-15+0461DAAD V0202801N018510078019N0080001N1+01201+00601999999ADDGA1071+007809999GF107991999999999999999999MA1101081999999MW1611REMMET049DAAD 290700Z 28036KT 8000 -RA BKN026 12/06 Q1011;EQDQ01+000003PRSWM1Q02    003PRSWM1
0139605150999992000122908004+35320+004190FM-15+0461DAAD V0202801N017512200019N0080001N1+01201+00601999999ADDGA1021+007809999GF104991999999999999999999MA1101081999999MW1001REMMET045DAAD 290800Z 28034KT 8000 SCT026 12/06 Q1011;EQDQ01+000000PRSWM2
0235605150999992000122909004+35320+004190SY-MT+0461DAAD V0202801N019512200019N0080001N1+01351+00551101201ADDGA1021+009009999GF103991031021008001001001MA1101191999999MD1210121+9999MW1001REMSYN076AAXX  29094 60515 42558 32838 10135 20055 40120 52012 83200 333 83830 95900;MET045DAAD 290900Z 28038KT 8000 SCT030 14/06 Q1012;EQDQ01+000000PRSWM2
0155605150999992000122910004+35320+004190FM-15+0461DAAD V0202801N020612200019N9999999N1+01501+00401999999ADDGA1021+009009999GF104991999999999999999999MA1101191999999MW1001REMMET045DAAD 291000Z 28040KT 7000 SCT030 15/04 Q1012;EQDQ01+070002VODIS Q02+000000PRSWM2
0155605150999992000122911004+35320+004190FM-15+0461DAAD V0200301N020612200019N9999999N1+01601+00401999999ADDGA1021+009009999GF104991999999999999999999MA1101191999999MW1001REMMET045DAAD 291100Z 03040KT 7000 SCT030 16/04 Q1012;EQDQ01+070002VODIS Q02+000000PRSWM2
0173605150999992000122912004+35320+004190FM-12+0461DAAD V0203001N019512200019N0070001N1+01551+00251101221ADDAA106000591AC11I9GA1031+009009089GF103991031021008001001001MD1010031+9999REMSYN088AAXX  29124 60515 12557 33038 10155 20025 40122 50003 69941 83200 333 0//15 83830 95900;
0160605150999992000122914004+35320+004190FM-15+0461DAAD V0203001N018512200019N0030001N1+01601+00201999999ADDGA1021+009009999GF102991999999999999999999MA1101081999999MW1071REMMET050DAAD 291400Z 30036KT 3000 BLSA FEW030 16/02 Q1011;EQDQ01+000003PRSWM1Q02    003PRSWM1
0172605150999992000122915004+35320+004190FM-12+0461DAAD V0203001N017512200019N0035001N1+01561+00201101361ADDAY101031AY221031GA1021+009009089GF102991021021008001001001MD1310131+9999MW1071REMSYN082AAXX  29154 60515 41535 23034 10156 20020 40136 53013 70702 82200 333 82830 95990;
0160605150999992000122916004+35320+004190FM-15+0461DAAD V0203001N018512200019N0035001N1+01501+00101999999ADDGA1021+009009999GF102991999999999999999999MA1101391999999MW1071REMMET050DAAD 291600Z 30036KT 3500 BLSA FEW030 15/01 Q1014;EQDQ01+000003PRSWM1Q02    003PRSWM1
0223605150999992000123006004+35320+004190FM-12+0461DAAD V0203201N011312200019N0100001N1+01181+00301101401ADDAA199000091GA1021+009009089GF104991021021008001001021IA2240+00509KA1120N+00951MD1710241+9999MW1001REMSYN094AAXX  30064 60515 31560 43222 10118 20030 40140 57024 700// 82202 333 00500 20095 82830 95900;EQDQ01  00002PRCP99
0139605150999992000123008004+35320+004190FM-15+0461DAAD V0203301N006212200019N0112651N1+01101+00601999999ADDGA1021+009009999GF104991999999999999999999MA1101391999999MW1001REMMET045DAAD 300800Z 33012KT 9999 SCT030 11/06 Q1014;EQDQ01+000000PRSWM2
0235605150999992000123009004+35320+004190SY-MT+0461DAAD V0203401N011312200019N0100001N1+01241+00441101451ADDGA1021+009009999GF104991031021008001071001MA1101391999999MD1310031+9999MW1001REMSYN076AAXX  30094 60515 42560 43422 10124 20044 40145 53003 83270 333 83830 95900;MET045DAAD 300900Z 34022KT 9999 SCT030 12/04 Q1014;EQDQ01+000000PRSWM2
0162605150999992000123010004+35320+004190FM-15+0461DAAD V0203601N016512200019N0112651N1+01401+00401999999ADDGA1021+009009999GA2021+024009999GF104991999999999999999999MA1101291999999MW1001REMMET052DAAD 301000Z 36032KT 9999 SCT030 SCT080 14/04 Q1013;EQDQ01+000000PRSWM2
0291605150999992000123012004+35320+004190SY-MT+0461DAAD V0202801N015412200019N0100001N1+01671+00481100951ADDAA199000091GA1021+009009999GA2021+027009999GF106991031021008001071001MA1100911999999MD1810551+9999MW1001REMSYN082AAXX  30124 60515 32560 62830 10167 20048 40095 58055 83270 333 83830 83358 95900;MET052DAAD 301200Z 28030KT 9999 SCT030 SCT090 17/05 Q1009;EQDQ01+000000PRSWM2Q02  00002PRCP99
0183605150999992000123013004+35320+004190FM-15+0461DAAD V0202801N020612200019N0040001N1+01601+00501999999ADDGA1021+009009999GA2021+024009999GF104991999999999999999999MA1100811999999MW1071REMMET057DAAD 301300Z 28040KT 4000 BLSA SCT030 SCT080 16/05 Q1008;EQDQ01+000003PRSWM1Q02    003PRSWM1
0143605150999992000123013314+35320+004190FM-16+0461DAAD V0202801N02061000151CN0020001N1+01601+00501999999ADDGA1091+000159999GF109991999999000251999999MW1071REMMET048DAAD 301331Z 28040KT 2000 DRSA VV/// 16/05 Q008;EQDQ01+000003PRSWM1Q02    003PRSWM1
0159605150999992000123014004+35320+004190FM-15+0461DAAD V0202801N02061000151CN0020001N1+01701+00401999999ADDGA1091+000159999GF109991999999000251999999MA1100711999999MW1071REMMET049DAAD 301400Z 28040KT 2000 DRSA VV/// 17/04 Q1007;EQDQ01+000003PRSWM1Q02    003PRSWM1
0102605150999992000123015004+35320+004190FM-12+0461DAAD V0202801N019519999999N9999999N1+01661+00481100671ADDMD1610181+9999REMSYN076AAXX  30154 60515 42955 /2838 10166 20048 40067 56018 89/// 333 89/// 95990;
0139605150999992000123016004+35320+004190FM-15+0461DAAD V0202801N015410078019N0080001N1+01501+00401999999ADDGA1071+007809999GF107991999999999999999999MA1100611999999MW1001REMMET045DAAD 301600Z 28030KT 8000 BKN026 15/04 Q1006;EQDQ01+000000PRSWM2
0139605150999992000123017004+35320+004190FM-15+0461DAAD V0202801N016510090019N0080001N1+01301+00401999999ADDGA1081+009009999GF108991999999999999999999MA1100511999999MW1001REMMET045DAAD 301700Z 28032KT 8000 OVC030 13/04 Q1005;EQDQ01+000000PRSWM2
0281605150999992000123018004+35320+004190SY-MT+0461DAAD V0202801N015410090019N0080001N1+01121+00441100401ADDAA199000091GA1081+009009999GF108991081021008001999999KA1120M+01781MA1100411999999MD1710091+9999MW1001REMSYN082AAXX  30184 60515 32558 82830 10112 20044 40040 57009 882// 333 10178 88830 95990;MET045DAAD 301800Z 28030KT 8000 OVC030 11/04 Q1004;EQDQ01+000000PRSWM2Q02  00002PRCP99
0091605150999992000123117004+35320+004190FM-15+0461DAAD V0203201N00931220001CN0099001N1+00901+00501999999ADDMA1102101999999MW1001REMMET039DAAD 311700Z 32018KT CAVOK 09/05 Q1021;EQDQ01+000000PRSWM2
0292605150999992000123118004+35320+004190SY-MT+0461DAAD V0203201N004112200019N0100001N1+00841-00572102341ADDAA199000091GA1021+069009019GF102991001001999999001021KA1120M+01051MA1102301999999MD1310121+9999MW1001REMSYN082AAXX  31184 60515 32960 23208 10084 21057 40234 53012 80002 333 10105 82073 95990;MET040DAAD 311800Z 32008KT CAVOK 08/M06 Q1023;EQDQ01-000573ATOD  Q02+000000PRSWM2Q03  00002PRCP99
