0165614890999992000010109004+16500-015820FM-12+0006GQNR V0203601N003112200019N0100001N1+01901+01631101081ADDGA1021+039009039GF103991021001999999031021MA1999999101011MD1999999-0611REMSYN082AAXX  01094 61489 42960 33606 10190 20163 30101 40108 82032 333 59061 82363 82073;
0195614890999992000010112004+16500-015820FM-12+0006GQNR V0203601N005112200019N0100001N1+02551+00681101061ADDAA106000091GA1031+039009079GF103991031001999999071001MA1999999090991MD1999999-0541REMSYN082AAXX  01124 61489 33960 33610 10255 20068 39099 40106 83070 333 0//00 59054 83363;EQDQ01  00002PRCP06
0137614890999992000010115004+16500-015820FM-12+0006GQNR V0203601N004112200019N0100001N1+99999+99999100831ADDGF104991999999999999001001MA1999999090761MD1999999-0471REMSYN070AAXX  01154 61489 42960 43608 20086 39076 40083 8//00 333 59047 840/3;
0208614890999992000010118004+16500-015820FM-12+0006GQNR V0203601N005110690019N0100001N1+02961+01051100811ADDAA106000091GA1071+069009019GF107991001001999999001021KA1120M+03321MA1999999090841MD1999999-0661REMSYN082AAXX  01184 61489 32960 73610 10296 20105 39084 40081 80002 333 10332 59066 87073;EQDQ01  00002PRCP06
0202614890999992000010206004+16500-015820FM-12+0006GQNR V0203601N004112200019N0100001N1+02041+00561101241ADDAA106000091GA1001+999999999GF100991001001999999001001KA1120N+01831MA1999999101171MD1999999+0241REMSYN076AAXX  02064 61489 32960 03608 10204 20056 30117 40124 333 0//00 20183 58024;EQDQ01  00002PRCP06
0159614890999992000010209004+16500-015820FM-12+0006GQNR V0203601N004112200019N0100001N1+02241+00751101681ADDGA1021+069009019GF102991001001999999001021MA1999999101611MD1999999+0301REMSYN076AAXX  02094 61489 42960 23608 10224 20075 30161 40168 80002 333 58030 82073;
0195614890999992000010212004+16500-015820FM-12+0006GQNR V0200401N005112200019N0100001N1+02761+00601101381ADDAA106000091GA1031+069009019GF103991001001999999001021MA1999999101311MD1999999+0321REMSYN082AAXX  02124 61489 33960 30410 10276 20060 30131 40138 80002 333 0//00 58032 83073;EQDQ01  00002PRCP06
0159614890999992000010215004+16500-015820FM-12+0006GQNR V0200401N006212200019N0080001N1+03161+00601101081ADDGA1031+069009019GF103991001001999999001021MA1999999101011MD1999999+0251REMSYN076AAXX  02154 61489 42958 30412 10316 20060 30101 40108 80002 333 58025 83073;
0208614890999992000010218004+16500-015820FM-12+0006GQNR V0200401N005110690019N0100001N1+02901+00801100901ADDAA106000091GA1051+069009019GF105991001001999999001021KA1120M+03421MA1999999100831MD1999999-0091REMSYN082AAXX  02184 61489 32960 50410 10290 20080 30083 40090 80002 333 10342 59009 85073;EQDQ01  00002PRCP06
0159614890999992000010309004+16500-015820FM-12+0006GQNR V0200401N005112200019N0100001N1+02321+00801101421ADDGA1041+069009019GF104991001001999999001021MA1999999101351MD1999999+0041REMSYN076AAXX  03094 61489 42960 40410 10232 20080 30135 40142 80002 333 58004 84073;
0207614890999992000010312004+16500-015820FM-12+0006GQNR V0200401N003110690019N0050001N1+02961+00151101441ADDAA106000091GA1051+069009019GF105991001001999999001021MA1999999101371MD1999999+0061MW1071REMSYN088AAXX  03124 61489 31950 50406 10296 20015 30137 40144 707// 80002 333 0//00 58006 85073;EQDQ01  00002PRCP06
0206614890999992000010315004+16500-015820FM-12+0006GQNR V0200601N007210390019N0050001N1+99999+99999101111ADDAY121031AY221031GA1061+039009079GF106991061001999999071001MA1999999101041MD1999999+0031MW1071REMSYN082AAXX  03154 61489 42950 60614 1002/ 20090 30104 40111 70722 86070 333 58003 86363;EQDQ01+000203ATOT  
0252614890999992000010318004+16500-015820FM-12+0006GQNR V0200401N006210390019N0050001N1+02861+00601101001ADDAA106000091AY121061AY221061GA1061+039009079GF106991061001999999071001KA1120M+03301MA1999999090932MD1999999+0101MW1071REMSYN088AAXX  03184 61489 31950 60412 10286 20060 39093 40100 70722 86070 333 10330 58010 86363;EQDQ01+090933APOSP Q02  00002PRCP06
0173614890999992000010409004+16500-015820FM-12+0006GQNR V0200401N009310390019N0015001N1+02061+00421101321ADDAY121031AY221031GA1071+039009079GF107991071001999999071999MA1999999101251MW1071REMSYN082AAXX  04094 61489 41915 70418 10206 20042 30125 40132 70722 8707/ 333 5907/ 87363;
0207614890999992000010412004+16500-015820FM-12+0006GQNR V0200401N008210390019N0035001N1+02441+00521101381ADDAA106000091GA1071+039009079GF107991071001999999071999MA1999999101291MD1999999-0091MW1071REMSYN088AAXX  04124 61489 31935 70416 10244 20052 30129 40138 707// 8707/ 333 0//00 59009 87363;EQDQ01  00002PRCP06
0240614890999992000010418004+16500-015820FM-12+0006GQNR V0200401N006210390019N0080001N1+02601+00681100851ADDAA106000091GA1051+039009079GF105991051001999999071001KA1120M+02971MA1999999999999MD1999999-0171REMSYN082AAXX  04184 61489 32958 50412 10260 20068 39078 40085 85070 333 10297 59017 85363;EQDQ01+090783APOSP Q02  00002PRCP06Q03 090783APOSP 
0214614890999992000010506004+16500-015820FM-12+0006GQNR V0200401N007210390019N0050001N1+01721-00801101361ADDAA106000091GA1051+039009079GF105991051001999999071001KA1120N+01551MA1999999101291MD1999999+0031REMSYN088AAXX  05064 61489 31950 50414 10172 21080 30129 40136 85070 333 0//00 20155 58003 85363;EQDQ01  00002PRCP06
0187614890999992000010509004+16500-015820FM-12+0006GQNR V0200401N007210390019N0050001N1+01801-00651101481ADDAY121031AY221031GA1061+039009079GF106991061001999999071001MA1999999101411MD1999999+0131MW1071REMSYN082AAXX  05094 61489 41950 60414 10180 21065 30141 40148 70722 86070 333 58013 86363;
0183614890999992000010512004+16500-015820FM-12+0006GQNR V0200401N006212200019N0070001N1+02501+00401101681ADDAA106000091GA1001+999999999GF100991001001999999001001MA1999999101611MD1999999+0021REMSYN070AAXX  05124 61489 33957 00412 10250 20040 30161 40168 333 0//00 58002;EQDQ01  00002PRCP06
0145614890999992000010615004+16500-015820FM-12+0006GQNR V0200801N005112200019N0100001N1+02621+00191101211ADDGA1031+039009079GF103991031001999999071001MA1999999101141REMSYN076AAXX  06154 61489 42960 30810 10262 20019 30114 40121 83070 333 5/002 83363;
0214614890999992000010706004+16500-015820FM-12+0006GQNR V0209999C000012200019N0080001N1+01401-00401091311ADDAA106000091GA1031+039009079GF103991031001999999031001KA1120N+01301MA1999999101241MD1999999+0171REMSYN088AAXX  07064 61489 32958 30000 10140 21040 30124 49131 83030 333 0//00 20130 58017 83363;EQDQ01  00002PRCP06
0178614890999992000010709004+16500-015820FM-12+0006GQNR V0209999C000012200019N0080001N1+01501-00211101362ADDGA1031+039009079GF103991031001999999031001MA1999999101291MD1999999-0051REMSYN076AAXX  07094 61489 42958 30000 10150 21021 30129 40136 83030 333 59005 83363;EQDQ01+101363APOSLP
0195614890999992000010712004+16500-015820FM-12+0006GQNR V0200801N004112200019N0080001N1+02551-00041101401ADDAA106000091GA1041+069009019GF104991001001999999001021MA1999999101331MD1999999-0081REMSYN082AAXX  07124 61489 33958 40808 10255 21004 30133 40140 80002 333 0//00 59008 84073;EQDQ01  00002PRCP06
0159614890999992000010715004+16500-015820FM-12+0006GQNR V0209999C000012200019N0080001N1+03051-00311101101ADDGA1041+069009019GF104991001001999999001021MA1999999101031MD1999999-0111REMSYN076AAXX  07154 61489 42958 40000 10305 21031 30103 40110 80002 333 59011 84073;
0240614890999992000010718004+16500-015820FM-12+0006GQNR V0209999C000010390019N0080001N1+02981-00191101051ADDAA106000091GA1051+039009079GF105991051001999999031001KA1120M+03261MA1999999999999MD1999999-0101REMSYN082AAXX  07184 61489 32958 50000 10298 21019 39098 40105 85030 333 10326 59010 85363;EQDQ01+090983APOSP Q02  00002PRCP06Q03 090983APOSP 
0214614890999992000010806004+16500-015820FM-12+0006GQNR V0203601N003112200019N0080001N1+01551+00041101341ADDAA106000091GA1031+069009019GF103991001001999999001021KA1120N+01371MA1999999101271MD1999999-0071REMSYN088AAXX  08064 61489 32958 33606 10155 20004 30127 40134 80002 333 0//00 20137 59007 83073;EQDQ01  00002PRCP06
0159614890999992000010809004+16500-015820FM-12+0006GQNR V0203601N005110690019N0080001N1+01661+00201101461ADDGA1051+069009019GF105991001001999999001021MA1999999101391MD1999999+0101REMSYN076AAXX  08094 61489 42958 53610 10166 20020 30139 40146 80002 333 58010 85073;
0207614890999992000010812004+16500-015820FM-12+0006GQNR V0200801N008212200019N0050001N1+02501-00151101491ADDAA106000091GA1041+069009019GF104991001001999999001021MA1999999101421MD1999999+0091MW1071REMSYN088AAXX  08124 61489 31950 40816 10250 21015 30142 40149 707// 80002 333 0//00 58009 84073;EQDQ01  00002PRCP06
0187614890999992000010815004+16500-015820FM-12+0006GQNR V0200801N007212200019N0060001N1+02851-00391101201ADDAY101031AY201031GA1031+069009019GF103991001001999999001021MA1999999101131MD1999999+0101MW1071REMSYN082AAXX  08154 61489 41956 30814 10285 21039 30113 40120 70700 80002 333 58010 83073;
0236614890999992000010818004+16500-015820FM-12+0006GQNR V0203601N007212200019N0060001N1+02671-00401101171ADDAA106000091AY101061AY201061GA1031+069009019GF103991001001999999001021KA1120M+03001MA1999999101101MD1999999+0121MW1071REMSYN088AAXX  08184 61489 31956 33614 10267 21040 30110 40117 70700 80002 333 10300 58012 83073;EQDQ01  00002PRCP06
0214614890999992000010906004+16500-015820FM-12+0006GQNR V0209999C000012200019N0100001N1+01351+00941101421ADDAA106000091GA1031+069009019GF103991001001999999001021KA1120N+01291MA1999999101351MD1999999+0081REMSYN088AAXX  09064 61489 32960 30000 10135 20094 30135 40142 80002 333 0//00 20129 58008 83073;EQDQ01  00002PRCP06
0159614890999992000010909004+16500-015820FM-12+0006GQNR V0203601N003112200019N0100001N1+01521+00461101481ADDGA1021+069009019GF102991001001999999001021MA1999999101411MD1999999+0021REMSYN076AAXX  09094 61489 42960 23606 10152 20046 30141 40148 80002 333 58002 82073;
0207614890999992000010912004+16500-015820FM-12+0006GQNR V0200801N008212200019N0040001N1+02501+00051101491ADDAA106000091GA1031+069009019GF103991001001999999001021MA1999999101421MD1999999+0001MW1071REMSYN088AAXX  09124 61489 31940 30816 10250 20005 30142 40149 707// 80002 333 0//00 58000 83073;EQDQ01  00002PRCP06
0196614890999992000011006004+16500-015820FM-12+0006GQNR V0209999C000012200019N0080001N1+01661-00151101241ADDAA106000091GA1001+999999999GF100991001001999999001001KA1120N+01501MA1999999101171MD1999999-0181REMSYN070AAXX  10064 61489 32958 00000 10166 21015 30117 40124 333 20150 59018;EQDQ01  00002PRCP06
0147614890999992000011009004+16500-015820FM-12+0006GQNR V0200801N003112200019N0080001N1+01641+00311101341ADDGA1001+999999999GF100991001001999999001001MA1999999101271MD1999999-0141REMSYN064AAXX  10094 61489 42958 00806 10164 20031 30127 40134 333 59014;
0194614890999992000011015004+16500-015820FM-12+0006GQNR V0200801N008212200019N0050001N1+03021+01091101031ADDAY101031AY201031GA1001+999999999GF100991001001999999001001MA1999999090962MD1999999-0141MW1071REMSYN070AAXX  10154 61489 41950 00816 10302 20109 39096 40103 70700 333 59014;EQDQ01+090963APOSP 
0204614890999992000011018004+16500-015820FM-12+0006GQNR V0209999C000012200019N0070001N1+02871+01221999999ADDAA106000091AY101061AY201061GA1001+999999999GF100991001001999999001001KA1120M+03131MA1999999090901MW1071REMSYN070AAXX  10184 61489 31957 00000 10287 20122 3909/ 70700 333 10313 590//;EQDQ01  00002PRCP06
0202614890999992000011106004+16500-015820FM-12+0006GQNR V0200801N004112200019N0080001N1+01881+00171101361ADDAA106000091GA1001+999999999GF100991001001999999001001KA1120N+01781MA1999999101291MD1999999+0121REMSYN076AAXX  11064 61489 32958 00808 10188 20017 30129 40136 333 0//00 20178 58012;EQDQ01  00002PRCP06
0147614890999992000011109004+16500-015820FM-12+0006GQNR V0200801N005112200019N0080001N1+01901+00301101451ADDGA1001+999999999GF100991001001999999001001MA1999999101381MD1999999+0111REMSYN064AAXX  11094 61489 42958 00810 10190 20030 30138 40145 333 58011;
0195614890999992000011112004+16500-015820FM-12+0006GQNR V0200801N009312200019N0035001N1+02571+00121101471ADDAA106000091GA1001+999999999GF100991001001999999001001MA1999999101401MD1999999+0091MW1071REMSYN076AAXX  11124 61489 31935 00818 10257 20012 30140 40147 707// 333 0//00 58009;EQDQ01  00002PRCP06
0180614890999992000011115004+16500-015820FM-12+0006GQNR V0200801N999992200019N0048001N1+03001-00221101171ADDAY101031AY201031GA1001+999999999GF100991001001999999001001MA1999999101101MW1071REMSYN070AAXX  11154 61489 41948 05816 10300 21022 30110 40117 70700 333 5//16;EQDQ01+005963WOSPD 
0224614890999992000011118004+16500-015820FM-12+0006GQNR V0200801N007212200019N0050001N1+02901+00511101161ADDAA106000091AY101061AY201061GA1001+999999999GF100991001001999999001001KA1120M+03151MA1999999101091MD1999999+0051MW1071REMSYN076AAXX  11184 61489 31950 00814 10290 20051 30109 40116 70700 333 10315 58005;EQDQ01  00002PRCP06
0159614890999992000011209004+16500-015820FM-12+0006GQNR V0200801N005112200019N0080001N1+01771+00281101531ADDGA1021+069009019GF102991001001999999001021MA1999999101461MD1999999+0081REMSYN076AAXX  12094 61489 /2958 20810 10177 20028 30146 40153 80002 333 58008 82073;
0207614890999992000011212004+16500-015820FM-12+0006GQNR V0200801N008210690019N0050001N1+02461-00081101541ADDAA106000091GA1051+069009019GF105991001001999999001021MA1999999101471MD1999999+0091MW1071REMSYN088AAXX  12124 61489 31950 50816 10246 21008 30147 40154 707// 80002 333 0//00 58009 85073;EQDQ01  00002PRCP06
0175614890999992000011215004+16500-015820FM-12+0006GQNR V0200801N007212200019N0060001N1+02901-00301101301ADDAY101031AY201031GA1001+999999999GF100991001001999999001001MA1999999101231MD1999999+0131MW1071REMSYN070AAXX  12154 61489 41956 00814 10290 21030 30123 40130 70700 333 58013;
0202614890999992000011306004+16500-015820FM-12+0006GQNR V0200801N004112200019N0080001N1+01531-00401101461ADDAA106000091GA1001+999999999GF100991001001999999001001KA1120N+01441MA1999999101391MD1999999+0091REMSYN076AAXX  13064 61489 32958 00808 10153 21040 30139 40146 333 0//00 20144 58009;EQDQ01  00002PRCP06
0147614890999992000011309004+16500-015820FM-12+0006GQNR V0200801N006212200019N0080001N1+01761-00481101541ADDGA1001+999999999GF100991001001999999001001MA1999999101471MD1999999+0011REMSYN064AAXX  13094 61489 42958 00812 10176 21048 30147 40154 333 58001;
0195614890999992000011312004+16500-015820FM-12+0006GQNR V0200801N008212200019N0050001N1+02401-00471101601ADDAA106000091AW1071GA1001+999999999GF100991001001999999001001MA1999999101531MD1999999+0061REMSYN076AAXX  13124 61489 35950 00816 10240 21047 30153 4016/ 707// 333 0//00 58006;EQDQ01  00002PRCP06
0147614890999992000011315004+16500-015820FM-12+0006GQNR V0200801N007212200019N0060001N1+02901-00051101251ADDGA1001+999999999GF100991001001999999001001MA1999999101181MD1999999-0051REMSYN064AAXX  13154 61489 41956 00814 10290 21005 30118 40125 333 59005;
0224614890999992000011318004+16500-015820FM-12+0006GQNR V0200801N007212200019N0060001N1+02771-00471101231ADDAA106000091AY101061AY201061GA1001+999999999GF100991001001999999001001KA1120M+03021MA1999999101161MD1999999+0001MW1071REMSYN076AAXX  13184 61489 31956 00814 10277 21047 30116 40123 70700 333 10302 58000;EQDQ01  00002PRCP06
0218614890999992000011406004+16500-015820FM-12+000699999V0209999C000012200019N0040001N1+01521-00311101371ADDAA199000091GA1001+999999999GF100991001001999999001001KA1120N+01391MA1999999101301MD1999999-0091MW1061REMSYN086    AAXX  14064 61489 31940 00000 10152 21031 30130 40137 706// 333 0//00 20139 59009;EQDQ01  00002PRCP99
0179614890999992000011409004+16500-015820FM-12+000699999V0200801N004112200019N0040001N1+01571-00101101411ADDAY101031AY201031GA1001+999999999GF100991001001999999001001MA1999999101341MD1999999-0131MW1061REMSYN074    AAXX  14094 61489 41940 00808 10157 21010 30134 40141 70600 333 59013;
0244614890999992000011418004+16500-015820FM-12+000699999V0209999C000012200019N0060001N1+02621+00041101021ADDAA199000091AY101061AY201061GA1001+999999999GF100991001001999999001001KA1120M+02901MA1999999999999MD1999999-0211MW1061REMSYN080    AAXX  14184 61489 31956 00000 10262 20004 39095 40102 70600 333 10290 59021;EQDQ01  00002PRCP99Q02 090953APOSP 
0218614890999992000011506004+16500-015820FM-12+000699999V0200801N003112200019N0080001N1+01731-00631101221ADDAA199000091GA1021+039009079GF102991021001999999071001KA1120N+01581MA1999999101151MD1999999-0151REMSYN092    AAXX  15064 61489 32958 20806 10173 21063 30115 40122 82070 333 0//00 20158 59015 82363;EQDQ01  00002PRCP99
0163614890999992000011509004+16500-015820FM-12+000699999V0209999C000012200019N0080001N1+01701-00211101401ADDGA1021+039009079GF102991021001999999071001MA1999999101331MD1999999-0011REMSYN080    AAXX  15094 61489 42958 20000 10170 21021 30133 40140 82070 333 59001 82363;
0205614890999992000011512004+16500-015820FM-12+000699999V0200801N004119999999N0080001N1+02401-00241101391ADDAA199000091GA1041+039009039GF106991041001999999071021MA1999999101321MD1999999-0041REMSYN092    AAXX  15124 61489 32958 60808 10240 21024 30132 40139 84072 333 0//00 59004 84363 83073;EQDQ01  00002PRCP99
0244614890999992000011518004+16500-015820FM-12+000699999V0209999C000010390019N0080001N1+02701-00101101051ADDAA199000091GA1061+039009079GF106991061001999999031001KA1120M+03001MA1999999999999MD1999999+0031REMSYN086    AAXX  15184 61489 32958 60000 10270 21010 39098 40105 86030 333 10300 58003 86363;EQDQ01+090983APOSP Q02  00002PRCP99Q03 090983APOSP 
0218614890999992000011606004+16500-015820FM-12+000699999V0209999C000010390019N0080001N1+01701+00301101321ADDAA199000091GA1051+039009079GF105991051001999999071001KA1120N+01571MA1999999101251MD1999999+0101REMSYN092    AAXX  16064 61489 32958 50000 10170 20030 30125 40132 85070 333 0//00 20157 58010 85363;EQDQ01  00002PRCP99
0163614890999992000011609004+16500-015820FM-12+000699999V0209999C000010390019N0080001N1+01701-00211101431ADDGA1051+039009079GF105991051001999999071001MA1999999101361MD1999999+0031REMSYN080    AAXX  16094 61489 42958 50000 10170 21021 30136 40143 85070 333 58003 85363;
0247614890999992000011612004+16500-015820FM-12+000699999V0202601N001010300019N0750001N1+02691+99999999999ADDAA199000091GA1011+009009099GA2041+030009039GF107991011091012501031061MD1999999-0091ME1314729REMSYN092    AAXX  16124 61489 32689 72602 10269 20207 38719 48472 81936 333 59009 81930 84360 86280;EQDQ01+002073ATOD  Q02+087193APOSP Q03  00002PRCP99
0151614890999992000011615004+16500-015820FM-12+000699999V0209999C000012200019N0100001N1+03131+00101101241ADDGA1001+999999999GF100991001001999999001001MA1999999101171MD1999999+0131REMSYN068    AAXX  16154 61489 42960 00000 10313 20010 30117 40124 333 58013;
0212614890999992000011618004+16500-015820FM-12+000699999V0209999C000012200019N0100001N1+03071-00141101211ADDAA199000091GA1031+039009079GF103991031001999999071001KA1120M+03351MA1999999101141MD1999999+0161REMSYN086    AAXX  16184 61489 32960 30000 10307 21014 30114 40121 83070 333 10335 58016 83363;EQDQ01  00002PRCP99
0212614890999992000011706004+16500-015820FM-12+000699999V0209999C000010390019N0100001N1+01771-00211999999ADDAA199000091GA1051+039009079GF105991051001999999071001KA1120N+01671MA1999999101411MD1999999+0161REMSYN086    AAXX  17064 61489 32960 50000 10177 21021 30141 85070 333 0//00 20167 58016 85363;EQDQ01  00002PRCP99
0163614890999992000011709004+16500-015820FM-12+000699999V0209999C000010390019N0100001N1+01951-00471101621ADDGA1051+039009079GF105991051001999999071001MA1999999101551MD1999999+0191REMSYN080    AAXX  17094 61489 42960 50000 10195 21047 30155 40162 85070 333 58019 85363;
0199614890999992000011712004+16500-015820FM-12+000699999V0209999C000012200019N0100001N1+02971-00161101601ADDAA199000091GA1031+039009079GF103991031001999999071001MA1999999101531MD1999999+0141REMSYN086    AAXX  17124 61489 32960 30000 10297 21016 30153 40160 83070 333 0//00 58014 83363;EQDQ01  00002PRCP99
0151614890999992000011715004+16500-015820FM-12+000699999V0209999C000012200019N0100001N1+03471-00431101391ADDGA1001+999999999GF100991001001999999001001MA1999999101321MD1999999+0151REMSYN068    AAXX  17154 61489 42960 00000 10347 21043 30132 40139 333 58015;
0206614890999992000011809004+16500-015820FM-12+000699999V0209999C000012200019N0100001N1+01861-00141101561ADDAA199000091GA1001+999999999GF100991001001999999001001KA1120N+01721MA1999999101491MD1999999+0081REMSYN080    AAXX  18094 61489 32960 00000 10186 21014 30149 40156 333 0//00 20172 58008;EQDQ01  00002PRCP99
0173614890999992000011812004+16500-015820FM-12+000699999V0200401N005112200019N0100001N1+03101-00321101611ADDAA199000091GA1001+999999999GF100991001001999999001001MA1999999101541REMSYN074    AAXX  18124 61489 33960 00410 10310 21032 30154 40161 333 0//00 58///;EQDQ01  00002PRCP99
0200614890999992000011818004+16500-015820FM-12+000699999V0200401N005112200019N0100001N1+03321-00201101151ADDAA199000091GA1001+999999999GF100991001001999999001001KA1120M+03741MA1999999101081MD1999999-0201REMSYN074    AAXX  18184 61489 32960 00410 10332 21020 30108 40115 333 10374 59020;EQDQ01  00002PRCP99
0206614890999992000011906004+16500-015820FM-12+000699999V0200401N004112200019N0100001N1+01421-00291101251ADDAA199000091GA1001+999999999GF100991001001999999001001KA1120N+01321MA1999999101181MD1999999-0211REMSYN080    AAXX  19064 61489 32960 00408 10142 21029 30118 40125 333 0//00 20132 59021;EQDQ01  00002PRCP99
0155614890999992000011909004+16500-015820FM-12+000699999V0200401N005112200019N0100001N1+01761+00361101431ADDGA1001+999999999GF100991001001999999001001MD1999999-0261REMSYN068    AAXX  19094 61489 42960 00410 10176 20036 30036 40143 333 59026;EQDQ01+100363APOSP 
0187614890999992000011912004+16500-015820FM-12+000699999V0200401N005112200019N0100001N1+02961-00391101441ADDAA199000091GA1001+999999999GF100991001001999999001001MA1999999101371MD1999999-0171REMSYN074    AAXX  19124 61489 33960 00410 10296 21039 30137 40144 333 0//00 59017;EQDQ01  00002PRCP99
0141614890999992000011915004+16500-015820FM-12+0006GQNR V0200401N004112200019N0100001N1+03361+00101999999ADDGA1001+999999999GF100991001001999999001001MA1999999101031MD1999999-0191REMSYN058AAXX  19154 61489 42960 00408 10336 20010 30103 333 59019;
0198614890999992000011918004+16500-015820FM-12+0006GQNR V0200401N003112200019N0100001N1+03161-00351100931ADDAA199000091GA1001+999999999GF100991001001999999001001KA1120M+03551MA1999999090862REMSYN070AAXX  19184 61489 32960 00406 10316 21035 39086 40093 333 10355 59//2;EQDQ01+090863APOSP Q02  00002PRCP99
0159614890999992000012009004+16500-015820FM-12+0006GQNR V0200401N005112200019N0100001N1+01781-00201101501ADDGA1031+069009019GF103991001001999999001021MA1999999101431MD1999999-0071REMSYN076AAXX  20094 61489 42960 30410 10178 21020 30143 40150 80002 333 59007 83073;
0195614890999992000012012004+16500-015820FM-12+0006GQNR V0200401N005110690019N0100001N1+02861-00501101391ADDAA199000091GA1051+069009019GF105991001001999999001021MA1999999101321MD1999999-0051REMSYN082AAXX  20124 61489 33960 50410 10286 21050 30132 40139 80002 333 0//00 59005 85073;EQDQ01  00002PRCP99
0159614890999992000012015004+16500-015820FM-12+0006GQNR V0200401N004110690019N0100001N1+03301-00221101121ADDGA1061+069009019GF106991001001999999001021MA1999999101131MD1999999+0101REMSYN076AAXX  20154 61489 42960 60408 10330 21022 30113 40112 80002 333 58010 86073;
0208614890999992000012018004+16500-015820FM-12+0006GQNR V0200401N003110690019N0100001N1+03161-00551101281ADDAA199000091GA1061+069009019GF106991001001999999001021KA1120M+03471MA1999999101211MD1999999+0351REMSYN082AAXX  20184 61489 32960 60406 10316 21055 30121 40128 80002 333 10347 58035 86073;EQDQ01  00002PRCP99
0178614890999992000012109004+16500-015820FM-12+0006GQNR V0200401N003112200019N0100001N1+01841+00101101611ADDGA1021+069009019GF102991001001999999001021MA1999999091541MD1999999+0111REMSYN076AAXX  21094 61489 42960 20406 10184 20010 39154 40161 88002 333 58011 82073;EQDQ01+000082SCOTLC
0199614890999992000012112004+16500-015820FM-12+0006GQNR V0200401N005112200019N0100001N1+02961-00421101521ADDAA199000091GA1001+999999999GF100991001001999999001001MA1999999101442MD1999999+0121REMSYN070AAXX  21124 61489 33960 00410 10296 21042 30144 40152 333 0//00 58012;EQDQ01+101443APOSP Q02  00002PRCP99
0147614890999992000012115004+16500-015820FM-12+0006GQNR V0200401N004112200019N0100001N1+03441-00301101191ADDGA1001+999999999GF100991001001999999001001MA1999999101121MD1999999-0011REMSYN064AAXX  21154 61489 43960 00408 10344 21030 30112 40119 333 59001;
0202614890999992000012209004+16500-015820FM-12+0006GQNR V0200401N004112200019N0100001N1+01301-00581101401ADDAA199000091GA1001+999999999GF100991001001999999001001KA1120N+01301MA1999999101231MD1999999-0051REMSYN076AAXX  22094 61489 32960 00408 10130 21058 30123 40140 333 0//00 20130 59005;EQDQ01  00002PRCP99
0211614890999992000012212004+16500-015820FM-12+0006GQNR V0200401N003110690019N0100001N1+02962-00301101431ADDAA199000091GA1051+069009019GF105991001001999999001021MA1999999101361MD1999999-0081REMSYN082AAXX  22124 61489 33960 50406 10296 21030 30136 40143 80002 333 0//00 59008 85073;EQDQ01+002963ATOT  Q02  00002PRCP99
0202614890999992000012306004+16500-015820FM-12+0006GQNR V0200401N003112200019N0100001N1+01341-00801101201ADDAA199000091GA1001+999999999GF100991001001999999001001KA1120N+01331MA1999999101131MD1999999-0101REMSYN076AAXX  23064 61489 32960 00406 10134 21080 30113 40120 333 0//00 20133 59010;EQDQ01  00002PRCP99
0113614890999992000012309004+16500-015820FM-12+0006GQNR V0200401N005119999999N0100001N1+01761-00601101481ADDGF105991001001999999001021MA1999999101411REMSYN060AAXX  23094 61489 42960 50410 10176 21060 30141 40148 80002;
0195614890999992000012312004+16500-015820FM-12+0006GQNR V0200401N006210690019N0100001N1+02841-00321101341ADDAA199000091GA1061+069009019GF106991001001999999001021MA1999999101271MD1999999-0091REMSYN082AAXX  23124 61489 33960 60412 10284 21032 30127 40134 80002 333 0//00 59009 86073;EQDQ01  00002PRCP99
0159614890999992000012315004+16500-015820FM-12+0006GQNR V0200401N004110690019N0100001N1+03261+00001101151ADDGA1061+069009019GF106991001001999999001021MA1999999101081MD1999999-0081REMSYN076AAXX  23154 61489 42960 60408 10326 20000 30108 40115 80002 333 59008 86073;
0170614890999992000012318004+16500-015820FM-12+0006GQNR V0200401N003110390019N0100001N1+02162+99999101001ADDAA199000091GA1051+039009079GF106991051001999999081021REMSYN070AAXX  23184 61489 32960 60406 10216 40100 85082 333 103/2 5902/ 85363;EQDQ01+002163ATOT  Q02  00002PRCP99
0214614890999992000012406004+16500-015820FM-12+0006GQNR V0203601N004110390019N0100001N1+01441-00301101271ADDAA199000091GA1061+039009079GF106991061001999999081001KA1120N+01321MA1999999101201MD1999999+0071REMSYN088AAXX  24064 61489 32960 63608 10144 21030 30120 40127 86080 333 0//00 20132 58007 86363;EQDQ01  00002PRCP99
0159614890999992000012409004+16500-015820FM-12+0006GQNR V0203601N003110390019N0100001N1+01781+00201101421ADDGA1061+039009079GF106991061001999999081001MA1999999101351MD1999999+0001REMSYN076AAXX  24094 61489 42960 63606 10178 20020 30135 40142 86080 333 58000 86363;
0195614890999992000012412004+16500-015820FM-12+0006GQNR V0200401N005110390019N0100001N1+02861-00301101341ADDAA199000091GA1051+039009079GF105991051001999999081001MA1999999101271MD1999999+0001REMSYN082AAXX  24124 61489 33960 50410 10286 21030 30127 40134 85080 333 0//00 58000 85363;EQDQ01  00002PRCP99
0178614890999992000012415004+16500-015820FM-12+0006GQNR V0200401N004110390019N0100001N1+03241+00101101061ADDGA1051+039009079GF105991051001999999071001MA1999999090992MD1999999-0091REMSYN076AAXX  24154 61489 42960 50408 10324 20010 39099 40106 85070 333 59009 85363;EQDQ01+090993APOSP 
0214614890999992000012506004+16500-015820FM-12+0006GQNR V0203601N004110390019N0100001N1+01441+00901101301ADDAA199000091GA1051+039009079GF105991051001999999071001KA1120N+01401MA1999999101231MD1999999+0031REMSYN088AAXX  25064 61489 32960 53608 10144 20090 30123 40130 85070 333 0//00 20140 58003 85363;EQDQ01  00002PRCP99
0159614890999992000012509004+16500-015820FM-12+0006GQNR V0203601N003110390019N0100001N1+01841+01061101501ADDGA1061+039009079GF106991061001999999071001MA1999999101511MD1999999+0101REMSYN076AAXX  25094 61489 42960 63606 10184 20106 30151 40150 86070 333 58010 86363;
0195614890999992000012512004+16500-015820FM-12+0006GQNR V0203601N003110390019N0100001N1+02361+00681101661ADDAA199000091GA1051+039009079GF105991051001999999071001MA1999999101591MD1999999+0321REMSYN082AAXX  25124 61489 33960 53606 10236 20068 30159 40166 85070 333 0//00 58032 85363;EQDQ01  00002PRCP99
0159614890999992000012515004+16500-015820FM-12+0006GQNR V0203601N004112200019N0100001N1+03061+00321101211ADDGA1041+039009079GF104991041001999999031001MA1999999101241MD1999999+0251REMSYN076AAXX  25154 61489 42960 43608 10306 20032 30124 40121 84030 333 58025 84363;
0224614890999992000012518004+16500-015820FM-12+0006GQNR V0203601N005112200019N0100001N1+02801-00101101361ADDAA199000091GA1041+039009079GF199999031001999999031001KA1120M+03231MA1999999101291MD1999999+0421REMSYN082AAXX  25184 61489 32960 33610 10280 21010 30129 40136 83030 333 10323 58042 84363;EQDQ01+000032SCOTCVQ02  00002PRCP99
0214614890999992000012606004+16500-015820FM-12+0006GQNR V0203601N004110390019N0100001N1+01761+01421101331ADDAA199000091GA1071+039009079GF107991071001999999071999KA1120N+01701MA1999999101261MD1999999+0031REMSYN088AAXX  26064 61489 32960 73608 10176 20142 30126 40133 8707/ 333 0//00 20170 58003 87363;EQDQ01  00002PRCP99
0159614890999992000012609004+16500-015820FM-12+0006GQNR V0203601N005110390019N0100001N1+01991+01571101561ADDGA1071+039009079GF107991071001999999071999MA1999999101491MD1999999-0011REMSYN076AAXX  26094 61489 42960 73610 10199 20157 30149 40156 8707/ 333 59001 87363;
0195614890999992000012612004+16500-015820FM-12+0006GQNR V0203601N004110390019N0100001N1+02741+01151101441ADDAA199000091GA1051+039009079GF105991051001999999071001MA1999999101371MD1999999-0221REMSYN082AAXX  26124 61489 33960 53608 10274 20115 30137 40144 85070 333 0//00 59022 85363;EQDQ01  00002PRCP99
0224614890999992000012618004+16500-015820FM-12+0006GQNR V0200401N004112200019N0100001N1+03001+00021101121ADDAA199000091GA1031+069009019GF103991001001999999001021KA1120M+03621MA1999999103052MD1999999-0241REMSYN082AAXX  26184 61489 32960 30408 10300 20002 30305 40112 80002 333 10362 59024 83073;EQDQ01+103053APOSP Q02  00002PRCP99
0153614890999992000012709004+16500-015820FM-12+0006GQNR V0203601N005112200019N0100001N1+02241+01101101521ADDGA1031+039009079GF103991999999999999999999MA1999999101551MD1999999+0061REMSYN070AAXX  27094 61489 42960 33610 10224 20110 30155 40152 333 58006 83363;
0195614890999992000012712004+16500-015820FM-12+0006GQNR V0200401N007212200019N0015001N1+02981+00001101511ADDAA199000091GA1001+999999999GF100991001001999999001001MA1999999101441MD1999999+0071MW1071REMSYN076AAXX  27124 61489 31915 00414 10298 20000 30144 40151 707// 333 0//00 58007;EQDQ01  00002PRCP99
0252614890999992000012718004+16500-015820FM-12+0006GQNR V0200401N007210390019N0050001N1+03041-00011101021ADDAA199000091AY121061AY221061GA1061+039009079GF106991061001999999031001KA1120M+03331MA1999999090952MD1999999-0101MW1071REMSYN088AAXX  27184 61489 31950 60414 10304 21001 39095 40102 70722 86030 333 10333 59010 86363;EQDQ01+090953APOSP Q02  00002PRCP99
0207614890999992000012812004+16500-015820FM-12+0006GQNR V0200401N012312200019N0001001N1+02621-00051101751ADDAA199000091GA1021+069009019GF102991001001999999001021MA1999999101681MD1999999+0241MW1321REMSYN088AAXX  28124 61489 31901 20424 10262 21005 30168 40175 732// 80002 333 0//00 58024 82073;EQDQ01  00002PRCP99
0166614890999992000012815004+16500-015820FM-12+0006GQNR V0200401N014410001519N0000001N1+02961+99999101401ADDAY131031AY231031GA1091+999999999GF109991091999999999999999MD1999999+0191MW1331REMSYN076AAXX  28154 61489 41/00 90428 10296 2//60 3/133 40140 73333 89/// 333 58019;
0175614890999992000012909004+16500-015820FM-12+0006GQNR V0200401N008212200019N0015001N1+02461+01121101701ADDAY101031AY201031GA1001+999999999GF100991001001999999001001MA1999999101631MD1999999-0041MW1071REMSYN070AAXX  29094 61489 41915 00416 10246 20112 30163 40170 70700 333 59004;
0195614890999992000012912004+16500-015820FM-12+0006GQNR V0200401N007212200019N0015001N1+03041+00861101451ADDAA199000091GA1001+999999999GF100991001001999999001001MA1999999101381MD1999999-0301MW1071REMSYN076AAXX  29124 61489 31915 00414 10304 20086 30138 40145 707// 333 0//00 59030;EQDQ01  00002PRCP99
0175614890999992000012915004+16500-015820FM-12+0006GQNR V0200401N007212200019N0015001N1+03321+00071101201ADDAY101031AY201031GA1001+999999999GF100991001001999999001001MA1999999101131MD1999999-0201MW1071REMSYN070AAXX  29154 61489 41915 00414 10332 20007 30113 40120 70700 333 59020;
0224614890999992000012918004+16500-015820FM-12+0006GQNR V0200401N005112200019N0050001N1+03201+00021101071ADDAA199000091AY101061AY201061GA1001+999999999GF100991001001999999001001KA1120M+03471MA1999999101001MD1999999-0041MW1061REMSYN076AAXX  29184 61489 31950 00410 10320 20002 30100 40107 70600 333 10347 59004;EQDQ01  00002PRCP99
0159614890999992000013009004+16500-015820FM-12+0006GQNR V0203601N003112200019N0080001N1+02321+00441101671ADDGA1031+039009079GF103991031001999999081001MA1999999101601MD1999999-0031REMSYN076AAXX  30094 61489 42958 33606 10232 20044 30160 40167 83080 333 59003 83363;
0195614890999992000013012004+16500-015820FM-12+0006GQNR V0200401N007212200019N0035001N1+03161+00211101681ADDAA199000091GA1001+999999999GF100991001001999999001001MA1999999101611MD1999999+0231MW1071REMSYN076AAXX  30124 61489 31935 00414 10316 20021 30161 40168 707// 333 0//00 58023;EQDQ01  00002PRCP99
0212614890999992000013018004+16500-015820FM-12+0006GQNR V0200401N004112200019N0080001N1+03301-00151101171ADDAA199000091GA1001+999999999GF100991001001999999001001KA1120M+03651MA1999999103102MD1999999+0101REMSYN070AAXX  30184 61489 31958 00408 10330 21015 30310 40117 333 10365 58010;EQDQ01+103103APOSP Q02  00002PRCP99
0133614890999992000013109004+16500-015820FM-12+0006GQNR V0203601N005112200019N0080001N1+02481+00141101831ADDGA1001+999999999GF100991001001999999001001MA1999999101761REMSYN064AAXX  31094 61489 42958 03610 10248 20014 30176 40183 333 58816;
0178614890999992000013115004+16500-015820FM-12+0006GQNR V0200401N007212200019N0035001N1+03361+00681106492ADDGA1041+069009019GF104991001001999999001021MA1999999101421MD1999999+0191REMSYN076AAXX  31154 61489 41935 40414 10336 20068 30142 40649 80002 333 58019 84073;EQDQ01+106493APOSLP
0214614890999992000020106004+16500-015820FM-12+0006GQNR V0200401N005112200019N0060001N1+01951-00221101321ADDAA199000091GA1001+999999999GF100991001001999999001001KA1120N+01851MA1999999101251MD1999999-0291MW1061REMSYN082AAXX  01064 61489 31956 00410 10195 21022 30125 40132 706// 333 0//00 20185 59029;EQDQ01  00002PRCP99
0163614890999992000020109004+16500-015820FM-12+0006GQNR V0200401N006219999999N0060001N1+01991-00021101471ADDAY101031AY201031GF108991999999999999999999MD1999999+0361MW1061REMSYN070AAXX  01094 61489 42956 80412 10199 21002 31040 40147 70600 333 58036;EQDQ01+010401APOSP 
0195614890999992000020112004+16500-015820FM-12+0006GQNR V0200801N012312200019N0010001N1+02901+00891101691ADDAA199000091GA1001+999999999GF100991001001999999001001MA1999999101621MD1999999-0081MW1071REMSYN076AAXX  01124 61489 31910 00824 10290 20089 30162 40169 707// 333 0//00 59008;EQDQ01  00002PRCP99
0175614890999992000020115004+16500-015820FM-12+0006GQNR V0200801N009312200019N0020001N1+03201+00911101521ADDAY101031AY201031GA1001+999999999GF100991001001999999001001MA1999999101451MD1999999+0031MW1071REMSYN070AAXX  01154 61489 41920 00818 10320 20091 30145 40152 70700 333 58003;
0224614890999992000020118004+16500-015820FM-12+0006GQNR V0200801N008212200019N0045001N1+03101+00931101371ADDAA199000091AY101061AY201061GA1001+999999999GF100991001001999999001001KA1120M+03401MA1999999101301MD1999999+0081MW1071REMSYN076AAXX  01184 61489 31945 00816 10310 20093 30130 40137 70700 333 10340 58008;EQDQ01  00002PRCP99
0214614890999992000020206004+16500-015820FM-12+0006GQNR V0200801N004112200019N0025001N1+02051+00321101281ADDAA199000091GA1001+999999999GF100991001001999999001001KA1120N+01751MA1999999101211MD1999999-0041MW1061REMSYN082AAXX  02064 61489 31925 00808 10205 20032 30121 40128 706// 333 0//00 20175 59004;EQDQ01  00002PRCP99
0175614890999992000020209004+16500-015820FM-12+0006GQNR V0200801N005112200019N0020001N1+02001+00371101421ADDAY101031AY201031GA1001+999999999GF100991001001999999001001MA1999999101351MD1999999+0001MW1061REMSYN070AAXX  02094 61489 41920 00810 10200 20037 30135 40142 70600 333 58000;
0195614890999992000020212004+16500-015820FM-12+0006GQNR V0200801N008212200019N0020001N1+02701-00331101581ADDAA199000091GA1001+999999999GF100991001001999999001001MA1999999101511MD1999999-0111MW1071REMSYN076AAXX  02124 61489 31920 00816 10270 21033 30151 40158 707// 333 0//00 59011;EQDQ01  00002PRCP99
0224614890999992000020218004+16500-015820FM-12+0006GQNR V0200801N008212200019N0035001N1+03021-00311101331ADDAA199000091AY101061AY201061GA1001+999999999GF100991001001999999001001KA1120M+03451MA1999999101261MD1999999-0041MW1071REMSYN076AAXX  02184 61489 31935 00816 10302 21031 30126 40133 70700 333 10345 59004;EQDQ01  00002PRCP99
0175614890999992000020309004+16500-015820FM-12+0006GQNR V0200401N006212200019N0020001N1+01981-00391101421ADDAY101031AY201031GA1001+999999999GF100991001001999999001001MA1999999101351MD1999999-0031MW1061REMSYN070AAXX  03094 61489 41920 00412 10198 21039 30135 40142 70600 333 59003;
0195614890999992000020312004+16500-015820FM-12+0006GQNR V0200401N007212200019N0015001N1+02701+00201101841ADDAA199000091GA1001+999999999GF100991001001999999001001MA1999999101771MD1999999+0261MW1071REMSYN076AAXX  03124 61489 31915 00414 10270 20020 30177 40184 707// 333 0//00 58026;EQDQ01  00002PRCP99
0196614890999992000020318004+16500-015820FM-12+0006GQNR V0200401N005112200019N0080001N1+02901+00301101391ADDAA199000091GA1001+999999999GF100991001001999999001001KA1120M+03321MA1999999101321MD1999999+0061REMSYN070AAXX  03184 61489 32958 00410 10290 20030 30132 40139 333 10332 58006;EQDQ01  00002PRCP99
0226614890999992000020406004+16500-015820FM-12+0006GQNR V0209999C000012200019N0050001N1+01621+00541101701ADDAA199000091GA1021+069009019GF102991001001999999001021KA1120N+01531MA1999999101631MD1999999+0441MW1061REMSYN094AAXX  04064 61489 31950 20000 10162 20054 30163 40170 706// 80002 333 0//00 20153 58044 82073;EQDQ01  00002PRCP99
0175614890999992000020409004+16500-015820FM-12+0006GQNR V0200801N006212200019N0050001N1+01781+00601101821ADDAY101031AY201031GA1001+999999999GF100991001001999999001001MA1999999101751MD1999999+0401MW1061REMSYN070AAXX  04094 61489 41950 00812 10178 20060 30175 40182 70600 333 58040;
0175614890999992000020415004+16500-015820FM-12+0006GQNR V0200801N009312200019N0015001N1+03261-00511101591ADDAY101031AY201031GA1001+999999999GF100991001001999999001001MA1999999101521MD1999999+0101MW1071REMSYN070AAXX  04154 61489 41915 00818 10326 21051 30152 40159 70700 333 58010;
0224614890999992000020418004+16500-015820FM-12+0006GQNR V0200801N006212200019N0040001N1+03101-00431101481ADDAA199000091AY101061AY201061GA1001+999999999GF100991001001999999001001KA1120M+03441MA1999999101411MD1999999+0091MW1061REMSYN076AAXX  04184 61489 31940 00812 10310 21043 30141 40148 70600 333 10344 58009;EQDQ01  00002PRCP99
0226614890999992000020506004+16500-015820FM-12+0006GQNR V0209999C000012200019N0060001N1+01821-00141101751ADDAA199000091GA1021+039009079GF102991021001999999031001KA1120N+01671MA1999999101681MD1999999+0051MW1061REMSYN094AAXX  05064 61489 31956 20000 10182 21014 30168 40175 706// 82030 333 0//00 20167 58005 82363;EQDQ01  00002PRCP99
0175614890999992000020509004+16500-015820FM-12+0006GQNR V0200801N003112200019N0060001N1+01841-00301101821ADDAY101031AY201031GA1001+999999999GF100991001001999999001001MA1999999101751MD1999999+0001MW1061REMSYN070AAXX  05094 61489 41956 00806 10184 21030 30175 40182 70600 333 58000;
0195614890999992000020512004+16500-015820FM-12+0006GQNR V0200801N012312200019N0015001N1+02851-00131101811ADDAA199000091GA1001+999999999GF100991001001999999001001MA1999999101741MD1999999+0021MW1071REMSYN076AAXX  05124 61489 31915 00824 10285 21013 30174 40181 707// 333 0//00 58002;EQDQ01  00002PRCP99
0224614890999992000020518004+16500-015820FM-12+0006GQNR V0200801N005112200019N0045001N1+03221-00731101481ADDAA199000091AY101061AY201061GA1001+999999999GF100991001001999999001001KA1120M+03381MA1999999101411MD1999999+0001MW1061REMSYN076AAXX  05184 61489 31945 00810 10322 21073 30141 40148 70600 333 10338 58000;EQDQ01  00002PRCP99
0226614890999992000020606004+16500-015820FM-12+0006GQNR V0200401N004112200019N0040001N1+01731-00071101791ADDAA199000091GA1031+069009019GF103991001001999999001011KA1120N+01581MA1999999101721MD1999999+0041MW1061REMSYN094AAXX  06064 61489 31940 30408 10173 21007 30172 40179 706// 80001 333 0//00 20158 58004 83073;EQDQ01  00002PRCP99
0175614890999992000020609004+16500-015820FM-12+0006GQNR V0200401N003112200019N0040001N1+01851-00131101861ADDAY101031AY201031GA1001+999999999GF100991001001999999001001MA1999999101791MD1999999+0041MW1061REMSYN070AAXX  06094 61489 41940 00406 10185 21013 30179 40186 70600 333 58004;
0207614890999992000020612004+16500-015820FM-12+0006GQNR V0200801N008212200019N0030001N1+02831-00271101831ADDAA199000091GA1041+069009019GF104991001001999999001011MA1999999101761MD1999999+0021MW1071REMSYN088AAXX  06124 61489 31930 40816 10283 21027 30176 40183 707// 80001 333 0//00 58002 84073;EQDQ01  00002PRCP99
0193614890999992000020615004+16500-015820FM-12+0006GQNR V0200801N008219999999N0045001N1+03121+00651101641ADDAY121031AY221031GA1031+039009039GF105991031001999999031021MA1999999101571MD1999999+0061MW1071REMSYN088AAXX  06154 61489 41945 50816 10312 20065 30157 40164 70722 83032 333 58006 83363 83073;
0242614890999992000020618004+16500-015820FM-12+0006GQNR V0200401N005119999999N0050001N1+03021-00131101561ADDAA199000091AY121061AY221061GA1041+039009039GF105991041001999999031021KA1120M+03401MA1999999101491MD1999999+0081MW1061REMSYN094AAXX  06184 61489 31950 50410 10302 21013 30149 40156 70622 84032 333 10340 58008 84363 83073;EQDQ01  00002PRCP99
0232614890999992000020706004+16500-015820FM-12+0006GQNR V0200801N008212200019N0035001N1+02071+00391101701ADDAA199000091GA1031+039009039GF104991031001999999031021KA1120N+01761MA1999999101631MD1999999-0091MW1071REMSYN100AAXX  07064 61489 31935 40816 10207 20039 30163 40170 707// 83032 333 0//00 20176 59009 83363 82073;EQDQ01  00002PRCP99
0171614890999992000020709004+16500-015820FM-12+0006GQNR V0200801N009312200019N0025001N1+02001+00241101791ADDAY101031AY201031GF103991031001999999031001MA1999999101721MD1999999-0071MW1071REMSYN082AAXX  07094 61489 41925 30818 10200 20024 30172 40179 70700 83030 333 59007 8336/;
0236614890999992000020718004+16500-015820FM-12+0006GQNR V0200401N008212200019N0035001N1+03001-00601101381ADDAA199000091AY101061AY201061GA1031+069009019GF103991001001999999001021KA1120M+03301MA1999999101311MD1999999-0021MW1071REMSYN088AAXX  07184 61489 31935 30416 10300 21060 30131 40138 70700 80002 333 10330 59002 83073;EQDQ01  00002PRCP99
0214614890999992000020806004+16500-015820FM-12+0006GQNR V0200401N005112200019N0050001N1+01901+00211101571ADDAA199000091GA1001+999999999GF100991001001999999001001KA1120N+01851MA1999999101501MD1999999-0071MW1061REMSYN082AAXX  08064 61489 31950 00410 10190 20021 30150 40157 706// 333 0//00 20185 59007;EQDQ01  00002PRCP99
0187614890999992000020809004+16500-015820FM-12+0006GQNR V0200401N006212200019N0050001N1+02081+00451101851ADDAY101031AY201031GA1041+069009019GF104991001001999999001021MA1999999101771MD1999999+0051MW1061REMSYN082AAXX  08094 61489 41950 40412 10208 20045 30177 40185 70600 80002 333 58005 84073;
0187614890999992000020815004+16500-015820FM-12+0006GQNR V0200401N008210690019N0015001N1+03101-00151101631ADDAY121031AY221031GA1061+069009019GF106991001001999999001021MA1999999101561MD1999999+0061MW1071REMSYN082AAXX  08154 61489 41915 60416 10310 21015 30156 40163 70722 80002 333 58006 86073;
0202614890999992000020906004+16500-015820FM-12+0006GQNR V0200401N004112200019N0070001N1+02041+00321101581ADDAA199000091GA1001+999999999GF100991001001999999001001KA1120N+01801MA1999999101511MD1999999+0101REMSYN076AAXX  09064 61489 32957 00408 10204 20032 30151 40158 333 0//00 20180 58010;EQDQ01  00002PRCP99
0213614890999992000020912004+16500-015820FM-12+0006GQNR V0200401N008219999999N0025001N1+02651-00141101881ADDAA199000091GA1031+039009039GF105991031001999999071021MA1999999101811MD1999999-0061MW1071REMSYN094AAXX  09124 61489 31925 50416 10265 21014 30181 40188 707// 83072 333 0//00 59006 83363 83073;EQDQ01  00002PRCP99
0127614890999992000020915004+16500-015820FM-12+0006GQNR V0200801N009312200019N0020001N1+03091+99999999999ADDAY151031GF104991031031999999061031MA1999999101511MW1001REMSYN060AAXX  09154 61489 41920 40818 10309 2//57 30151 7005/ 83363;
0220614890999992000021006004+16500-015820FM-12+0006GQNR V0200801N005119999999N0080001N1+01791+00771101171ADDAA199000091GA1041+039009039GF105991041001999999071021KA1120N+01601MA1999999101501MD1999999-0011REMSYN094AAXX  10064 61489 32958 50810 10179 20077 30150 40117 84072 333 0//00 20160 59001 84363 82073;EQDQ01  00002PRCP99
0193614890999992000021009004+16500-015820FM-12+0006GQNR V0200801N006212200019N0060001N1+01871+00951101721ADDAY111031AY211031GA1021+039009039GF104991021001999999031021MA1999999101651MD1999999-0141MW1061REMSYN088AAXX  10094 61489 41956 40812 10187 20095 30165 40172 70611 82032 333 59014 82363 82073;
0213614890999992000021012004+16500-015820FM-12+0006GQNR V0200801N008219999999N0040001N1+02561+00241101811ADDAA199000091GA1041+039009039GF105991041001999999071021MA1999999101741MD1999999-0071MW1071REMSYN094AAXX  10124 61489 31940 50816 10256 20024 30174 40181 707// 84072 333 0//00 59007 84363 82073;EQDQ01  00002PRCP99
0193614890999992000021015004+16500-015820FM-12+0006GQNR V0200801N008212200019N0015001N1+03101-00281101511ADDAY101031AY201031GA1031+039009039GF104991031001999999071021MA1999999101441MD1999999-0071MW1071REMSYN088AAXX  10154 61489 41915 40816 10310 21028 30144 40151 70700 83072 333 59007 83363 82073;
0242614890999992000021018004+16500-015820FM-12+0006GQNR V0200801N004119999999N0060001N1+02901-00211101231ADDAA199000091AY121061AY221061GA1041+039009039GF106991041001999999071021KA1120M+03221MA1999999101161MD1999999-0041MW1061REMSYN094AAXX  10184 61489 31956 60808 10290 21021 30116 40123 70622 84072 333 10322 59004 84363 83073;EQDQ01  00002PRCP99
0193614890999992000021109004+16500-015820FM-12+0006GQNR V0200401N005119999999N0050001N1+02021+00971101591ADDAY121031AY221031GA1041+039009039GF106991041001999999071021MA1999999101521MD1999999-0131MW1061REMSYN088AAXX  11094 61489 41950 60410 10202 20097 30152 40159 70622 84072 333 59013 84363 83073;
0207614890999992000021112004+16500-015820FM-12+0006GQNR V0200801N007212200019N0035001N1+02861+00591101631ADDAA199000091GA1041+039009079GF104991041001999999031001MA1999999101561MD1999999-0181MW1071REMSYN088AAXX  11124 61489 31935 40814 10286 20059 30156 40163 707// 84030 333 0//00 59018 84363;EQDQ01  00002PRCP99
0159614890999992000021115004+16500-015820FM-12+0006GQNR V0200801N006212200019N0080001N1+03301+00631101281ADDGA1041+039009079GF104991041001999999031001MA1999999101211MD1999999-0231REMSYN076AAXX  11154 61489 42958 40812 10330 20063 30121 40128 84030 333 59023 84363;
0208614890999992000021118004+16500-015820FM-12+0006GQNR V0200401N005110390019N0080001N1+03141+00561101121ADDAA199000091GA1061+039009079GF106991061001999999031001KA1120M+03621MA1999999101051MD1999999-0111REMSYN082AAXX  11184 61489 32958 60410 10314 20056 30105 40112 86030 333 10362 59011 86363;EQDQ01  00002PRCP99
0214614890999992000021206004+16500-015820FM-12+0006GQNR V0200401N004110390019N0060001N1+01841-00401101371ADDAA199000091GA1051+039009079GF105991051001999999031001KA1120N+01801MA1999999101301MD1999999-0121REMSYN088AAXX  12064 61489 32956 50408 10184 21040 30130 40137 85030 333 0//00 20180 59012 85363;EQDQ01  00002PRCP99
0159614890999992000021209004+16500-015820FM-12+0006GQNR V0200401N005110390019N0080001N1+02161+00121101541ADDGA1051+039009079GF105991051001999999031001MA1999999101571MD1999999+0051REMSYN076AAXX  12094 61489 42958 50410 10216 20012 30157 40154 85030 333 58005 85363;
0207614890999992000021212004+16500-015820FM-12+0006GQNR V0200401N007212200019N0050001N1+03101-00201101391ADDAA199000091GA1041+039009079GF104991041001999999031001MA1999999101321MD1999999-0121MW1071REMSYN088AAXX  12124 61489 31950 40414 10310 21020 30132 40139 707// 84030 333 0//00 59012 84363;EQDQ01  00002PRCP99
0159614890999992000021215004+16500-015820FM-12+0006GQNR V0200401N006212200019N0080001N1+03361+00261101101ADDGA1031+039009079GF103991031001999999031001MA1999999101031MD1999999-0181REMSYN076AAXX  12154 61489 42958 30412 10336 20026 30103 40110 83030 333 59018 83363;
0224614890999992000021218004+16500-015820FM-12+0006GQNR V0200401N005112200019N0080001N1+03181-00601100951ADDAA199000091GA1031+039009079GF103991031001999999031001KA1120M+03521MA1999999090882MD1999999-0171REMSYN082AAXX  12184 61489 32958 30410 10318 21060 39088 40095 83030 333 10352 59017 83363;EQDQ01+090883APOSP Q02  00002PRCP99
0208614890999992000021221004+16500-015820FM-12+0006GQNR V0200401N005112200019N0080001N1+03181-00601100951ADDAA199000091GA1031+039009079GF103991031001999999031001KA1120M+03521MA1999999090881MD1999999-0171REMSYN082AAXX  12214 61489 32958 30410 10318 21060 39088 40095 83030 333 10352 59017 83363;EQDQ01  00002PRCP99
0214614890999992000021306004+16500-015820FM-12+0006GQNR V0200401N004110390019N0100001N1+01941-00241101401ADDAA199000091GA1051+039009079GF105991051001999999071001KA1120N+01941MA1999999101331MD1999999+0031REMSYN088AAXX  13064 61489 32960 50408 10194 21024 30133 40140 85070 333 0//00 20194 58003 85363;EQDQ01  00002PRCP99
0213614890999992000021312004+16500-015820FM-12+0006GQNR V0200801N006210390019N0060001N1+02851-00441101591ADDAA199000091GA1051+039009039GF107991051001999999071021MA1999999101521MD1999999+0201MW1061REMSYN094AAXX  13124 61489 31956 70812 10285 21044 30152 40159 706// 85072 333 0//00 58020 85363 83073;EQDQ01  00002PRCP99
0178614890999992000021315004+16500-015820FM-12+0006GQNR V0200801N004110390019N0070001N1+03161-00771999999ADDGA1051+039009039GF107991999999999999999999MA1999999101161MD1010001+9999REMSYN076AAXX  13154 61489 42957 70808 10316 21077 30116 5072/ 333 58813 85363 83073;EQDQ01+007207APC3  
0242614890999992000021318004+16500-015820FM-12+0006GQNR V0200801N003110390019N0060001N1+03021-00801101091ADDAA199000091AY121061AY221061GA1061+039009039GF107991061001999999071021KA1120M+03321MA1999999101021MD1999999+0141MW1061REMSYN094AAXX  13184 61489 31956 70806 10302 21080 30102 40109 70622 86072 333 10332 58014 86363 82073;EQDQ01  00002PRCP99
0232614890999992000021406004+16500-015820FM-12+0006GQNR V0201401N003119999999N0060001N1+02221-00371101571ADDAA199000091GA1041+039009039GF107991041001999999071021KA1120N+01961MA1999999101501MD1999999+0171MW1061REMSYN100AAXX  14064 61489 31956 71406 10222 21037 30150 40157 706// 84072 333 0//00 20196 58017 84363 83073;EQDQ01  00002PRCP99
0193614890999992000021409004+16500-015820FM-12+0006GQNR V0201401N004119999999N0060001N1+02231-00301101661ADDAY121031AY221031GA1031+039009039GF106991031001999999071021MA1999999101591MD1999999+0021MW1061REMSYN088AAXX  14094 61489 41956 61408 10223 21030 30159 40166 70622 83072 333 58002 83363 83073;
0213614890999992000021412004+16500-015820FM-12+0006GQNR V0201401N007210390019N0060001N1+02701-00571101681ADDAA199000091GA1051+039009039GF107991051001999999071021MA1999999101611MD1999999+0091MW1071REMSYN094AAXX  14124 61489 31956 71414 10270 21057 30161 40168 707// 85072 333 0//00 58009 85363 83073;EQDQ01  00002PRCP99
0242614890999992000021418004+16500-015820FM-12+0006GQNR V0200801N006210390019N0040001N1+02901-00801101071ADDAA199000091AY121061AY221061GA1061+039009039GF107991061001999999071021KA1120M+03121MA1999999099002MD1999999-0021MW1061REMSYN094AAXX  14184 61489 31940 70812 10290 21080 30900 40107 70622 86072 333 10312 59002 86363 83073;EQDQ01  00002PRCP99
0193614890999992000021509004+16500-015820FM-12+0006GQNR V0200401N004119999999N0060001N1+02151-00351101681ADDAY121031AY221031GA1041+039009039GF106991041001999999071021MA1999999101611MD1999999+0021MW1061REMSYN088AAXX  15094 61489 41956 60408 10215 21035 30161 40168 70622 84072 333 58002 84363 83073;
0207614890999992000021512004+16500-015820FM-12+0006GQNR V0200801N007212200019N0035001N1+03021-00801101661ADDAA199000091GA1041+069009019GF104991001001999999001021MA1999999101591MD1999999-0031MW1071REMSYN088AAXX  15124 61489 31935 40814 10302 21080 30159 40166 707// 80002 333 0//00 59003 84073;EQDQ01  00002PRCP99
0187614890999992000021515004+16500-015820FM-12+0006GQNR V0200801N007212200019N0035001N1+03381-00801101261ADDAY101031AY201031GA1041+069009019GF104991001001999999001021MA1999999101191MD1999999+0061MW1071REMSYN082AAXX  15154 61489 41935 40814 10338 21080 30119 40126 70700 80002 333 58006 84073;
0214614890999992000021518004+16500-015820FM-12+0006GQNR V0200401N005110690019N0100001N1+03101-00801101241ADDAA199000091GA1051+069009019GF105991001001999999001021KA1120M+03521MA1999999101171MD1999999+0171REMSYN088AAXX  15184 61489 32960 50410 10310 21080 30117 40124 80002 333 0//00 10352 58017 85073;EQDQ01  00002PRCP99
0208614890999992000021606004+16500-015820FM-12+0006GQNR V0200401N004110390019N0100001N1+02001+00001101511ADDAA199000091GA1051+039009079GF105991999999999999999999KA1120N+01901MA1999999101431MD1999999-0051REMSYN082AAXX  16064 61489 32960 50408 10200 20000 30143 40151 333 0//00 20190 59005 85363;EQDQ01  00002PRCP99
0159614890999992000021609004+16500-015820FM-12+0006GQNR V0200401N005110390019N0100001N1+02181+00061101781ADDGA1061+039009079GF106991061001999999031001MA1999999101711MD1999999+0101REMSYN076AAXX  16094 61489 42960 60410 10218 20006 30171 40178 86030 333 58010 86363;
0207614890999992000021612004+16500-015820FM-12+0006GQNR V0200401N007210390019N0050001N1+02921-00801101811ADDAA199000091GA1051+039009079GF107991051001999999081021MA1999999101741MD1999999+0101MW1071REMSYN088AAXX  16124 61489 31950 70414 10292 21080 30174 40181 707// 85082 333 0//00 58010 85363;EQDQ01  00002PRCP99
0208614890999992000021618004+16500-015820FM-12+0006GQNR V0200401N006210390019N0080001N1+03301-00551101251ADDAA199000091GA1061+039009079GF106991061001999999031001KA1120M+03551MA1999999101161MD1999999+0011REMSYN082AAXX  16184 61489 32958 60412 10330 21055 30116 40125 86030 333 10355 58001 86363;EQDQ01  00002PRCP99
0230614890999992000021706004+16500-015820FM-12+0006GQNR V02099999999992200019N0100001N1+01921+00121101431ADDAA199000091GA1061+039009079GF199999061001999999081001KA1120N+01901MA1999999101381MD1999999-0071REMSYN088AAXX  17064 61489 32960 408// 10192 20012 30138 40143 86080 333 0//00 20190 59007 86363;EQDQ01+000042SCOTCVQ02  00002PRCP99
0159614890999992000021709004+16500-015820FM-12+0006GQNR V0200401N005110390019N0100001N1+02181+00381101701ADDGA1061+039009079GF106991061001999999081001MA1999999101631MD1999999-0111REMSYN076AAXX  17094 61489 42960 60410 10218 20038 30163 40170 86080 333 59011 86363;
0187614890999992000021809004+16500-015820FM-12+0006GQNR V0200801N008212200019N0050001N1+02071-00401101531ADDAY101031AY201031GA1031+039009079GF103991031001999999071001MA1999999101461MD1999999-0141MW1071REMSYN082AAXX  18094 61489 41950 30816 10207 21040 30146 40153 70700 83070 333 59014 83363;
0213614890999992000021812004+16500-015820FM-12+0006GQNR V0200801N008219999999N0060001N1+02901-00791101731ADDAA199000091GA1041+039009039GF106991041001999999071021MA1999999101661MD1999999-0061MW1071REMSYN094AAXX  18124 61489 31956 60816 10290 21079 30166 40173 707// 84072 333 0//00 59006 84363 83073;EQDQ01  00002PRCP99
0193614890999992000021815004+16500-015820FM-12+0006GQNR V0200801N008219999999N0060001N1+03351-00801101531ADDAY121031AY221031GA1021+039009039GF105991021001999999071021MA1999999101461MD1999999+0121MW1071REMSYN088AAXX  18154 61489 41956 50816 10335 21080 30146 40153 70722 82072 333 58012 82363 84073;
0242614890999992000021818004+16500-015820FM-12+0006GQNR V0200801N003119999999N0070001N1+03251-00801101331ADDAA199000091AY121061AY221061GA1041+039009039GF106991041001999999071021KA1120M+03451MA1999999101261MD1999999+0051MW1061REMSYN094AAXX  18184 61489 31957 60806 10325 21080 30126 40133 70622 84072 333 10345 58005 84363 83073;EQDQ01  00002PRCP99
0214614890999992000021906004+16500-015820FM-12+0006GQNR V0209999C000010390019N0100001N1+02171-00481101651ADDAA199000091GA1061+039009079GF106991061001999999071001KA1120N+01931MA1999999101581MD1999999+0271REMSYN088AAXX  19064 61489 32960 60000 10217 21048 30158 40165 86070 333 0//00 20193 58027 86363;EQDQ01  00002PRCP99
0159614890999992000021909004+16500-015820FM-12+0006GQNR V0200401N003110390019N0060001N1+02131-00581101731ADDGA1061+039009079GF106991061001999999071001MA1999999101661MD1999999+0201REMSYN076AAXX  19094 61489 42956 60406 10213 21058 30166 40173 86070 333 58020 86363;
0195614890999992000021912004+16500-015820FM-12+0006GQNR V0200401N006210690019N0100001N1+03101-00151101541ADDAA199000091GA1051+069009019GF105991001001999999001021MA1999999101471MD1999999-0191REMSYN082AAXX  19124 61489 33960 50412 10310 21015 30147 40154 80002 333 0//00 59019 85073;EQDQ01  00002PRCP99
0159614890999992000021915004+16500-015820FM-12+0006GQNR V0200401N005112200019N0100001N1+03441+00301101401ADDGA1031+069009019GF103991001001999999001021MA1999999101231MD1999999-0131REMSYN076AAXX  19154 61489 42960 30410 10344 20030 30123 40140 80002 333 59013 83073;
0208614890999992000021918004+16500-015820FM-12+0006GQNR V0200401N004112200019N0100001N1+03361-00501101151ADDAA199000091GA1041+069009019GF104991001001999999001021KA1120M+03671MA1999999101081MD1999999-0181REMSYN082AAXX  19184 61489 32960 40408 10336 21050 30108 40115 80002 333 10367 59018 84073;EQDQ01  00002PRCP99
0159614890999992000022009004+16500-015820FM-12+0006GQNR V0203601N005110690019N0100001N1+01781-00221101401ADDGA1051+069009019GF105991001001999999001021MA1999999101331MD1999999-0331REMSYN076AAXX  20094 61489 42960 53610 10178 21022 30133 40140 80002 333 59033 85073;
0183614890999992000022012004+16500-015820FM-12+0006GQNR V0200401N004112200019N0100001N1+03041+00051101201ADDAA199000091GA1001+999999999GF100991001001999999001001MA1999999101121MD1999999-0341REMSYN070AAXX  20124 61489 33960 00408 10304 20005 30112 40120 333 0//00 59034;EQDQ01  00002PRCP99
0152614890999992000022015004+16500-015820FM-12+0006GQNR V0200401N003112200019N0100001N1+03521+00201999999ADDGA1021+069009019GF102991999999999999999999MA1999999090842REMSYN064AAXX  20154 61489 42960 20406 10352 20020 39084 333 59/34 82073;EQDQ01+090843APOSP 
0214614890999992000022106004+16500-015820FM-12+0006GQNR V0203601N004110390019N0100001N1+01821+00641101131ADDAA199000091GA1071+039009079GF107991071001999999081999KA1120N+01821MA1999999101061MD1999999-0051REMSYN088AAXX  21064 61489 32960 73608 10182 20064 30106 40113 8708/ 333 0//00 20182 59005 87363;EQDQ01  00002PRCP99
0159614890999992000022109004+16500-015820FM-12+0006GQNR V0203601N005110390019N0100001N1+02081+00781101391ADDGA1071+039009079GF107991071001999999081999MA1999999101321MD1999999-0011REMSYN076AAXX  21094 61489 42960 73610 10208 20078 30132 40139 8708/ 333 59001 87363;
0168614890999992000022112004+16500-015820FM-12+0006GQNR V0209999C000010390019N0100001N1+03101+99999101171ADDAA199000091GA1051+039009079GF105991051001999999081001MD1999999-0031REMSYN070AAXX  21124 61489 33960 50000 10310 40117 85080 333 0//00 59003 85363;EQDQ01  00002PRCP99
0224614890999992000022118004+16500-015820FM-12+0006GQNR V0209999C000010390019N0100001N1+03521-00091100871ADDAA199000091GA1061+039009079GF106991061001999999081001KA1120M+03731MA1999999999999MD1999999+0071REMSYN082AAXX  21184 61489 32960 60000 10352 21009 39080 40087 86080 333 10373 58007 86363;EQDQ01  00002PRCP99Q02 090803APOSP 
0207614890999992000022206004+16500-015820FM-12+0006GQNR V0202801N003110390019N0100001N1+02021+01411101311ADDAA124000791AC11C9GA1071+039009079GF107991071001999999071999KA1120N+01841MA1999999101241MD1999999+0181REMSYN094AAXX  22064 61489 12960 72806 10202 20141 30124 40131 69904 8707/ 333 0//11 20184 58018 87363;
0159614890999992000022209004+16500-015820FM-12+0006GQNR V0202201N004110390019N0100001N1+02051+01451101431ADDGA1051+039009079GF105991051001999999071001MA1999999101361MD1999999+0041REMSYN076AAXX  22094 61489 42960 52208 10205 20145 30136 40143 85070 333 58004 85363;
0195614890999992000022212004+16500-015820FM-12+0006GQNR V0202801N004110390019N0100001N1+02571+01501101441ADDAA199000091GA1061+039009079GF106991061001999999071001MA1999999101371MD1999999+0271REMSYN082AAXX  22124 61489 33960 62808 10257 20150 30137 40144 86070 333 0//00 58027 86363;EQDQ01  00002PRCP99
0159614890999992000022215004+16500-015820FM-12+0006GQNR V0202801N003110390019N9999999N1+03101+01211101211ADDGA1061+039009079GF106991061001012501071001MA1999999101141MD1999999+0191REMSYN076AAXX  22154 61489 4/60/ 62806 10310 20121 30114 40121 86070 333 58019 86363;
0166614890999992000022218004+16500-015820FM-12+0006GQNR V0202801N005119999999N0100001N1+02921+01131101091ADDAA199000091GF107991051001999999071021KA1999M+03261MA1999999101021REMSYN070AAXX  22184 61489 32960 72810 10292 20113 30102 40109 85072 333 10326;EQDQ01  00002PRCP99
0214614890999992000022221004+16500-015820FM-12+0006GQNR V0202801N005110390019N0100001N1+02921+01131999999ADDAA199000091GA1051+039009039GF107991051001999999071021KA1120M+03261MA1999999101021MD1999999+0221REMSYN088AAXX  22214 61489 32960 72810 10292 20113 30102 4/109 85072 333 10326 58022 85363 83073;EQDQ01  00002PRCP99
0214614890999992000022306004+16500-015820FM-12+0006GQNR V0202801N003110390019N0100001N1+01801+01491101471ADDAA199000091GA1071+039009079GF107991071001999999071999KA1120N+01741MA1999999101401MD1999999+0161REMSYN088AAXX  23064 61489 32960 72806 10180 20149 30140 40147 8707/ 333 0//00 20174 58016 87363;EQDQ01  00002PRCP99
0159614890999992000022309004+16500-015820FM-12+0006GQNR V0202801N005110390019N0100001N1+01821+01531101581ADDGA1061+039009079GF106991061001999999071001MA1999999101511MD1999999+0151REMSYN076AAXX  23094 61489 42960 62810 10182 20153 30151 40158 86070 333 58015 86363;
0159614890999992000022315004+16500-015820FM-12+0006GQNR V0203601N005112200019N0100001N1+02561+01901101341ADDGA1031+069009019GF103991001001999999001021MA1999999101271MD1999999-0071REMSYN076AAXX  23154 61489 42960 33610 10256 20190 30127 40134 80002 333 59007 83073;
0208614890999992000022318004+16500-015820FM-12+0006GQNR V0203601N003112200019N0100001N1+02321+01441101251ADDAA199000091GA1031+069009019GF103991001001999999001021KA1120M+02831MA1999999101181MD1999999+0161REMSYN082AAXX  23184 61489 32960 33606 10232 20144 30118 40125 80002 333 10283 58016 83073;EQDQ01  00002PRCP99
0214614890999992000022406004+16500-015820FM-12+0006GQNR V0203601N004110390019N0100001N1+01641+01401101421ADDAA199000091GA1051+039009079GF107991051001999999071021KA1120N+01521MA1999999101351MD1999999-0051REMSYN088AAXX  24064 61489 32960 73608 10164 20140 30135 40142 85072 333 0//00 20152 59005 85363;EQDQ01  00002PRCP99
0159614890999992000022409004+16500-015820FM-12+0006GQNR V0203601N005110390019N0100001N1+01881+01581101671ADDGA1051+039009079GF107991051001999999071021MA1999999101601MD1999999-0091REMSYN076AAXX  24094 61489 42960 73610 10188 20158 30160 40167 85072 333 59009 85363;
0195614890999992000022412004+16500-015820FM-12+0006GQNR V0203601N005110390019N0100001N1+02281+01681101581ADDAA199000091GA1061+039009079GF107991071001999999081999MA1999999101511MD1999999-0051REMSYN082AAXX  24124 61489 33960 73610 10228 20168 30151 40158 8708/ 333 0//00 59005 86363;EQDQ01  00002PRCP99
0208614890999992000022418004+16500-015820FM-12+0006GQNR V0203601N006210390019N0100001N1+02701+00981101681ADDAA199000091GA1061+039009079GF107991061001999999071001KA1120M+03051MA1999999101311MD1999999+0131REMSYN082AAXX  24184 61489 32960 73612 10270 20098 30131 40168 86070 333 10305 58013 86363;EQDQ01  00002PRCP99
0159614890999992000022509004+16500-015820FM-12+0006GQNR V0203601N005110390019N9999999N1+01941+01131101581ADDGA1061+039009079GF106991061001999999071001MA1999999101511MD1999999-0021REMSYN076AAXX  25094 61489 429/0 63610 10194 20113 30151 40158 86070 333 59002 86363;
0213614890999992000022512004+16500-015820FM-12+0006GQNR V0203601N008219999999N0040001N1+02671+00391101561ADDAA199000091GA1031+039009039GF105991031001999999071021MA1999999101491MD1999999-0021MW1071REMSYN094AAXX  25124 61489 31940 53616 10267 20039 30149 40156 707// 83072 333 0//00 59002 83363 82073;EQDQ01  00002PRCP99
0236614890999992000022518004+16500-015820FM-12+0006GQNR V0209999C000010690019N0040001N1+02971+00521101261ADDAA199000091AY121061AY221061GA1051+069009019GF105991001001999999001021KA1120M+03221MA1999999101191MD1999999-0121MW1071REMSYN088AAXX  25184 61489 31940 50000 10297 20052 30119 40126 70722 80002 333 10322 59012 85073;EQDQ01  00002PRCP99
0213614890999992000022521004+16500-015820FM-12+0006GQNR V0203601N008219999999N0040001N1+02671+00391101561ADDAA199000091GA1031+039009039GF105991031001999999071021MA1999999101491MD1999999-0021MW1011REMSYN094AAXX  25214 61489 31940 53616 10267 20039 30149 40156 701// 83072 333 0//00 59002 83363 82073;EQDQ01  00002PRCP99
0226614890999992000022606004+16500-015820FM-12+0006GQNR V0203601N003110390019N0050001N1+02051+01341101251ADDAA199000091GA1071+039009079GF107991071001999999071999KA1120N+01801MA1999999101181MD1999999-0051MW1071REMSYN094AAXX  26064 61489 31950 73606 10205 20134 30118 40125 707// 8707/ 333 0//00 20180 59005 87363;EQDQ01  00002PRCP99
0187614890999992000022609004+16500-015820FM-12+0006GQNR V0203601N008210390019N0045001N1+02021+01271101561ADDAY121031AY221031GA1061+039009079GF106991061001999999071001MA1999999101491MD1999999-0021MW1071REMSYN082AAXX  26094 61489 41945 63616 10202 20127 30149 40156 70722 86070 333 59002 86363;
0207614890999992000022612004+16500-015820FM-12+0006GQNR V0203601N008212200019N0040001N1+02821+00801101621ADDAA199000091GA1031+069009019GF103991001001999999001011MA1999999101551MD1999999+0061MW1071REMSYN088AAXX  26124 61489 31940 33616 10282 20080 30155 40162 707// 80001 333 0//00 58006 83073;EQDQ01  00002PRCP99
0187614890999992000022615004+16500-015820FM-12+0006GQNR V0200701N003112200019N0050001N1+03521+00491101231ADDAY111031AY211031GA1011+069009019GF101991001001999999001011MA1999999101161MD1999999-0041MW1061REMSYN082AAXX  26154 61489 42950 10706 10352 20049 30116 40123 70611 80001 333 59004 81073;
0224614890999992000022618004+16500-015820FM-12+0006GQNR V0209999C000012200019N0050001N1+03601+00451101211ADDAA199000091AY101061AY201061GA1001+999999999GF100991001001999999001001KA1120M+03761MA1999999101141MD1999999-0051MW1061REMSYN076AAXX  26184 61489 31950 00000 10360 20045 30114 40121 70600 333 10376 59005;EQDQ01  00002PRCP99
0214614890999992000022706004+16500-015820FM-12+0006GQNR V0203601N004112200019N0050001N1+02021+01391101271ADDAA199000091GA1001+999999999GF100991001001999999001001KA1120N+01781MA1999999101151MD1999999-0031MW1061REMSYN082AAXX  27064 61489 31950 03608 10202 20139 30115 40127 706// 333 0//00 20178 59003;EQDQ01  00002PRCP99
0175614890999992000022709004+16500-015820FM-12+0006GQNR V0203601N005112200019N0045001N1+01971+01331101451ADDAY101031AY201031GA1001+999999999GF100991001001999999001001MA1999999101381MD1999999-0111MW1061REMSYN070AAXX  27094 61489 41945 03610 10197 20133 30138 40145 70600 333 59011;
0195614890999992000022712004+16500-015820FM-12+0006GQNR V0200401N005112200019N0100001N1+99999+99999101121ADDAA199000091GA1021+069009019GF102991001001999999001021MA1999999101191MD1999999-0361REMSYN082AAXX  27124 61489 33960 20410 10/// 20083 30119 40112 80002 333 0//00 59036 82073;EQDQ01  00002PRCP99
0228614890999992000022718004+16500-015820FM-12+0006GQNR V0200401N005112200019N0100001N1+03301+00801100741ADDAA199000091GA1001+999999999GF100991001001999999001001KA1120M+03781MA1999999999999MD1999999-0471REMSYN070AAXX  27184 61489 32960 00410 10330 20080 39067 40074 333 10378 59047;EQDQ01+090673APOSP Q02  00002PRCP99Q03 090673APOSP 
0202614890999992000022806004+16500-015820FM-12+0006GQNR V0203601N005112200019N0100001N1+01861+00861101211ADDAA199000091GA1001+999999999GF100991001001999999001001KA1120N+01801MA1999999101141MD1999999-0061REMSYN076AAXX  28064 61489 32960 03610 10186 20086 30114 40121 333 0//00 20180 59006;EQDQ01  00002PRCP99
0147614890999992000022809004+16500-015820FM-12+0006GQNR V0203601N005112200019N0100001N1+01881+01121101211ADDGA1001+999999999GF100991001001999999001001MA1999999101331MD1999999+0021REMSYN064AAXX  28094 61489 42960 03610 10188 20112 30133 40121 333 58002;
0195614890999992000022812004+16500-015820FM-12+0006GQNR V0200401N006212200019N0060001N1+02961+00401101381ADDAA199000091GA1001+999999999GF100991001001999999001001MA1999999101311MD1999999+0121MW1061REMSYN076AAXX  28124 61489 31956 00412 10296 20040 30131 40138 706// 333 0//00 58012;EQDQ01  00002PRCP99
0194614890999992000022815004+16500-015820FM-12+0006GQNR V0200401N005112200019N0015001N1+03521+00821101031ADDAY101031AY201031GA1001+999999999GF100991001001999999001001MA1999999090962MD1999999+0001MW1061REMSYN070AAXX  28154 61489 41915 00410 10352 20082 39096 40103 70600 333 58000;EQDQ01+090963APOSP 
0224614890999992000022818004+16500-015820FM-12+0006GQNR V0203601N007212200019N0015001N1+03241+00711100851ADDAA199000091AY101061AY201061GA1001+999999999GF100991001001999999001001KA1120M+03741MA1999999090781MD1999999+0111MW1071REMSYN076AAXX  28184 61489 31915 03614 10324 20071 39078 40085 70700 333 10374 58011;EQDQ01  00002PRCP99
0202614890999992000022906004+16500-015820FM-12+0006GQNR V0203601N003112200019N0100001N1+01761+01181100971ADDAA199000091GA1001+999999999GF100991001001999999001001KA1120N+01761MA1999999090901MD1999999-0161REMSYN076AAXX  29064 61489 32960 03606 10176 20118 39090 40097 333 0//00 20176 59016;EQDQ01  00002PRCP99
0166614890999992000022909004+16500-015820FM-12+0006GQNR V0203601N005112200019N0100001N1+01981+01431101231ADDGA1001+999999999GF100991001001999999001001MA1999999101162MD1999999-0171REMSYN064AAXX  29094 61489 42960 03610 10198 20143 30116 40123 333 59017;EQDQ01+101163APOSP 
0185614890999992000022912004+16500-015820FM-12+0006GQNR V0200401N003112200019N9999999N1+03101+00551999999ADDGA1031+069009019GF103991001001999999001011MA1999999101271ME1311349REMSYN088AAXX  29124 61489 1/40/ 30406 10310 20055 30127 48134 706// 80001 333 0//00 598/4 83073;EQDQ01+004502SCOLCB
0175614890999992000022915004+16500-015820FM-12+0006GQNR V0209999C000012200019N0035001N1+03551+00291101101ADDAY101031AY201031GA1001+999999999GF100991001001999999001001MA1999999101031MD1999999+0041MW1061REMSYN070AAXX  29154 61489 41935 00000 10355 20029 30103 40110 70600 333 58004;
0214614890999992000030106004+16500-015820FM-12+0006GQNR V0209999C000012200019N0040001N1+01851+01471101221ADDAA199000091GA1001+999999999GF100991001001999999001001KA1120N+01741MA1999999101151MD1999999-0251MW1061REMSYN082AAXX  01064 61489 31940 00000 10185 20147 30115 40122 706// 333 0//00 20174 59025;EQDQ01  00002PRCP99
0175614890999992000030109004+16500-015820FM-12+0006GQNR V0209999C000012200019N0020001N1+02001+01571101311ADDAY101031AY201031GA1001+999999999GF100991001001999999001001MA1999999101241MD1999999-0181MW1061REMSYN070AAXX  01094 61489 41920 00000 10200 20157 30124 40131 70600 333 59018;
0207614890999992000030112004+16500-015820FM-12+0006GQNR V0209999C000012200019N0025001N1+03001+00951101441ADDAA199000091GA1031+069009019GF103991001001999999001011MA1999999101371MD1999999-0101MW1061REMSYN088AAXX  01124 61489 31925 30000 10300 20095 30137 40144 706// 80001 333 0//00 59010 83073;EQDQ01  00002PRCP99
0175614890999992000030115004+16500-015820FM-12+0006GQNR V0209999C000012200019N0030001N1+03721+00311101171ADDAY101031AY201031GA1001+999999999GF100991001001999999001001MA1999999101101MD1999999+0071MW1061REMSYN070AAXX  01154 61489 41930 00000 10372 20031 30110 40117 70600 333 58007;
0224614890999992000030118004+16500-015820FM-12+0006GQNR V0202801N004112200019N0045001N1+03501+00361101101ADDAA199000091AY101061AY201061GA1001+999999999GF100991001001999999001001KA1120M+03801MA1999999101031MD1999999+0241MW1061REMSYN076AAXX  01184 61489 31945 02808 10350 20036 30103 40110 70600 333 10380 58024;EQDQ01  00002PRCP99
0226614890999992000030206004+16500-015820FM-12+0006GQNR V0209999C000012200019N0030001N1+01921+01551101241ADDAA199000091GA1031+039009079GF103991031001999999071001KA1120N+01801MA1999999101171MD1999999+0021MW1061REMSYN094AAXX  02064 61489 31930 30000 10192 20155 30117 40124 706// 83070 333 0//00 20180 58002 83363;EQDQ01  00002PRCP99
0187614890999992000030209004+16500-015820FM-12+0006GQNR V0209999C000012200019N0020001N1+01951+01531101261ADDAY111031AY211031GA1041+039009079GF104991041001999999071001MA1999999101191MD1999999+0051MW1061REMSYN082AAXX  02094 61489 41920 40000 10195 20153 30119 40126 70611 84070 333 58005 84363;
0195614890999992000030212004+16500-015820FM-12+0006GQNR V0200401N006212200019N0050001N1+02961+00881101131ADDAA199000091GA1001+999999999GF100991001001999999001001MA1999999101261MD1999999-0111MW1061REMSYN076AAXX  02124 61489 31950 00412 10296 20088 30126 40113 706// 333 0//00 59011;EQDQ01  00002PRCP99
0194614890999992000030215004+16500-015820FM-12+0006GQNR V02099999999992200019N0050001N1+03621+01181100981ADDAY101031AY201031GA1001+999999999GF100991001001999999001001MA1999999090912MD1999999-0191MW1061REMSYN070AAXX  02154 61489 41950 0361/ 10362 20118 39091 40098 70600 333 59019;EQDQ01+090913APOSP 
0196614890999992000030218004+16500-015820FM-12+0006GQNR V0203601N005112200019N0080001N1+03301+00621100831ADDAA199000091GA1001+999999999GF100991001001999999001001KA1120M+03951MA1999999090751MD1999999-0271REMSYN070AAXX  02184 61489 32958 03610 10330 20062 39075 40083 333 10395 59027;EQDQ01  00002PRCP99
0202614890999992000030306004+16500-015820FM-12+0006GQNR V0203601N005112200019N0080001N1+01781+01511101141ADDAA199000091GA1001+999999999GF100991001001999999001001KA1120N+01741MA1999999101071MD1999999-0101REMSYN076AAXX  03064 61489 32958 03610 10178 20151 30107 40114 333 0//00 20174 59010;EQDQ01  00002PRCP99
0159614890999992000030309004+16500-015820FM-12+0006GQNR V0203601N004110390019N0080001N1+01981+01691101421ADDGA1061+039009079GF106991061001999999071001MA1999999101351MD1999999+0161REMSYN076AAXX  03094 61489 42958 63608 10198 20169 30135 40142 86070 333 58016 86363;
0227614890999992000030312004+16500-015820FM-12+0006GQNR V0203601N005112200019N0080001N1+02961+01371101341ADDAA199000091GA1061+069009019GF199999041001999999081999MA1999999101271MD1999999+0011REMSYN082AAXX  03124 61489 33958 43610 10296 20137 30127 40134 84080 333 0//00 58001 86073;EQDQ01+000042SCOTCVQ02+000002SCOHCGQ03  00002PRCP99
0228614890999992000030318004+16500-015820FM-12+0006GQNR V0203601N005112200019N0100001N1+03401+00701100851ADDAA199000091GA1001+999999999GF100991001001999999001001KA1120M+03831MA1999999999999MD1999999+0021REMSYN070AAXX  03184 61489 32960 03610 10340 20070 39078 40085 333 10383 58002;EQDQ01+090783APOSP Q02  00002PRCP99Q03 090783APOSP 
0214614890999992000030406004+16500-015820FM-12+0006GQNR V0203601N004112200019N0035001N1+01761+00881101251ADDAA199000091GA1001+999999999GF100991001001999999001001KA1120N+01701MA1999999101181MD1999999+0111MW1071REMSYN082AAXX  04064 61489 31935 03608 10176 20088 30118 40125 707// 333 0//00 20170 58011;EQDQ01  00002PRCP99
0175614890999992000030409004+16500-015820FM-12+0006GQNR V0203601N005112200019N0035001N1+02041+01271101501ADDAY101031AY201031GA1001+999999999GF100991001001999999001001MA1999999101431MD1999999+0081MW1061REMSYN070AAXX  04094 61489 41935 03610 10204 20127 30143 40150 70600 333 58008;
0175614890999992000030415004+16500-015820FM-12+0006GQNR V0200401N005112200019N0050001N1+03201+00561101121ADDAY101031AY201031GA1001+999999999GF100991001001999999001001MA1999999101051MD1999999+0011MW1061REMSYN070AAXX  04154 61489 41950 00410 10320 20056 30105 40112 70600 333 58001;
0195614890999992000030512004+16500-015820FM-12+0006GQNR V0200401N005112200019N0035001N1+03061+00661101411ADDAA199000091GA1001+999999999GF100991001001999999001001MA1999999101341MD1999999+0001MW1061REMSYN076AAXX  05124 61489 31935 00410 10306 20066 30134 40141 706// 333 0//00 58000;EQDQ01  00002PRCP99
0175614890999992000030515004+16500-015820FM-12+0006GQNR V0200401N007212200019N0035001N1+03701+01681101121ADDAY101031AY201031GA1001+999999999GF100991001001999999001001MA1999999101051MD1999999+0001MW1071REMSYN070AAXX  05154 61489 41935 00414 10370 20168 30105 40112 70700 333 58000;
0256614890999992000030518004+16500-015820FM-12+0006GQNR V0203601N008212200019N0050001N1+03521+01041100931ADDAA199000091AY101061AY201061GA1001+999999999GF100991001001999999001001KA1120M+03901MA1999999999999MD1999999+0011MW1071REMSYN076AAXX  05184 61489 31950 03616 10352 20104 39085 40093 70700 333 10390 58001;EQDQ01+090853APOSP Q02  00002PRCP99Q03 090853APOSP 
0147614890999992000030606004+16500-015820FM-12+0006GQNR V0203601N005112200019N0100001N1+02161+01641101491ADDGA1001+999999999GF100991001001999999001001MA1999999101421MD1999999+0061REMSYN064AAXX  06064 61489 42960 03610 10216 20164 30142 40149 333 58006;
0195614890999992000030612004+16500-015820FM-12+0006GQNR V0203601N008212200019N0050001N1+03301+00971101421ADDAA199000091GA1001+999999999GF100991001001999999001001MA1999999101351MD1999999+0011MW1071REMSYN076AAXX  06124 61489 31950 03616 10330 20097 30135 40142 707// 333 0//00 58001;EQDQ01  00002PRCP99
0256614890999992000030618004+16500-015820FM-12+0006GQNR V0203601N003112200019N0070001N1+03961+00711100871ADDAA199000091AY101061AY201061GA1001+999999999GF100991001001999999001001KA1120M+04141MA1999999999999MD1999999-0041MW1061REMSYN076AAXX  06184 61489 31957 03606 10396 20071 39080 40087 70600 333 10414 59004;EQDQ01+090803APOSP Q02  00002PRCP99Q03 090803APOSP 
0214614890999992000030706004+16500-015820FM-12+0006GQNR V0209999C000012200019N0045001N1+02231+01011101201ADDAA199000091GA1001+999999999GF100991001001999999001001KA1120N+01981MA1999999101131MD1999999-0061MW1061REMSYN082AAXX  07064 61489 31945 00000 10223 20101 30113 40120 706// 333 0//00 20198 59006;EQDQ01  00002PRCP99
0195614890999992000030712004+16500-015820FM-12+0006GQNR V0200401N008212200019N0050001N1+03541-00081101361ADDAA199000091GA1001+999999999GF100991001001999999001001MA1999999101291MD1999999-0061MW1071REMSYN076AAXX  07124 61489 31950 00416 10354 21008 30129 40136 707// 333 0//00 59006;EQDQ01  00002PRCP99
0175614890999992000030715004+16500-015820FM-12+0006GQNR V0200801N008212200019N0050001N1+04181-00171100961ADDAY101031AY201031GA1001+999999999GF100991001001999999001001MA1999999100891MD1999999-0091MW1071REMSYN070AAXX  07154 61489 41950 00816 10418 21017 30089 40096 70700 333 59009;
0224614890999992000030718004+16500-015820FM-12+0006GQNR V0200801N008212200019N0060001N1+04101+00211100821ADDAA199000091AY101061AY201061GA1001+999999999GF100991001001999999001001KA1120M+04301MA1999999100751MD1999999-0051MW1071REMSYN076AAXX  07184 61489 31956 00816 10410 20021 30075 40082 70700 333 10430 59005;EQDQ01  00002PRCP99
0214614890999992000030806004+16500-015820FM-12+0006GQNR V0209999C000012200019N0040001N1+02341+00951101101ADDAA199000091GA1001+999999999GF100991001001999999001001KA1120N+02051MA1999999101031MD1999999-0101MW1061REMSYN082AAXX  08064 61489 31940 00000 10234 20095 30103 40110 706// 333 0//00 20205 59010;EQDQ01  00002PRCP99
0175614890999992000030809004+16500-015820FM-12+0006GQNR V0200401N004112200019N0030001N1+02621+00871101211ADDAY101031AY201031GA1001+999999999GF100991001001999999001001MA1999999101141MD1999999-0141MW1061REMSYN070AAXX  08094 61489 41930 00408 10262 20087 30114 40121 70600 333 59014;
0206614890999992000030909004+16500-015820FM-12+0006GQNR V0200401N007212200019N0050001N1+02821+01441101311ADDAY111031AY211031GA1021+069009019GF102991001001999999001011MA1999999101241MD1999999+0101MW1071REMSYN082AAXX  09094 61489 41550 20414 10282 20144 30124 40131 70711 80001 333 58010 82073;EQDQ01+008002SCOLCB
0195614890999992000030912004+16500-015820FM-12+0006GQNR V0200801N009312200019N9999999N1+03521+01051101521ADDAA199000091GA1001+999999999GF100991001001999999001001MA1999999101451MD1999999+0201MW1071REMSYN076AAXX  09124 61489 319/0 00818 10352 20105 30145 40152 707// 333 0//00 58020;EQDQ01  00002PRCP99
0194614890999992000030915004+16500-015820FM-12+0006GQNR V0200801N009312200019N0025001N1+04051+99999101061ADDAY101031AY201031GA1001+999999999GF100991001001999999001001MA1999999100991MD1999999+0091MW1071REMSYN070AAXX  09154 61489 41925 00818 10405 21067 30099 40106 70700 333 58009;EQDQ01-000673ATOD  
0224614890999992000030918004+16500-015820FM-12+0006GQNR V0200801N004112200019N0035001N1+03921+00471999999ADDAA199000091AY101061AY201061GA1001+999999999GF100991001001999999001001KA1120M+04221MA1999999100811MD1999999-0021MW1061REMSYN076AAXX  09184 61489 31935 00808 10392 20047 30081 40/88 70600 333 10422 59002;EQDQ01  00002PRCP99
0214614890999992000031006004+16500-015820FM-12+0006GQNR V0209999C000012200019N0060001N1+02621+00221101171ADDAA199000091GA1001+999999999GF100991001001999999001001KA1120N+02301MA1999999101101MD1999999+0021MW1061REMSYN082AAXX  10064 61489 31956 00000 10262 20022 30110 40117 706// 333 0//00 20230 58002;EQDQ01  00002PRCP99
0175614890999992000031009004+16500-015820FM-12+0006GQNR V0200401N004112200019N0040001N1+02671+00331101261ADDAY101031AY201031GA1001+999999999GF100991001001999999001001MA1999999101191MD1999999-0051MW1061REMSYN070AAXX  10094 61489 41940 00408 10267 20033 30119 40126 70600 333 59005;
0195614890999992000031013004+16500-015820FM-12+0006GQNR V0200401N007212200019N0015001N1+03541-00401101381ADDAA199000091GA1001+999999999GF100991001001999999001001MA1999999101311MD1999999-0141MW1071REMSYN076AAXX  10134 61489 31915 00414 10354 21040 30131 40138 707// 333 0//00 59014;EQDQ01  00002PRCP99
0194614890999992000031015004+16500-015820FM-12+0006GQNR V0200401N007212200019N0050001N1+03901+99999101061ADDAY101031AY201031GA1001+999999999GF100991001001999999001001MA1999999090992MD1999999+0001MW1071REMSYN070AAXX  10154 61489 41950 00414 10390 20900 39099 40106 70700 333 58000;EQDQ01+090993APOSP 
0202614890999992000031106004+16500-015820FM-12+0006GQNR V0200401N004112200019N0080001N1+02261-00051101091ADDAA199000091GA1001+999999999GF100991001001999999001001KA1120N+02171MA1999999101021MD1999999-0081REMSYN076AAXX  11064 61489 32958 00408 10226 21005 30102 40109 333 0//00 20217 59008;EQDQ01  00002PRCP99
0195614890999992000031112004+16500-015820FM-12+0006GQNR V0200401N008212200019N0015001N1+03501-00251101341ADDAA199000091GA1001+999999999GF100991001001999999001001MA1999999101271MD1999999-0041MW1071REMSYN076AAXX  11124 61489 31915 00416 10350 21025 30127 40134 707// 333 0//00 59004;EQDQ01  00002PRCP99
0195614890999992000031115004+16500-015820FM-12+0006GQNR V0200401N008212200019N0015001N1+03501-00251101341ADDAA199000091GA1001+999999999GF100991001001999999001001MA1999999101271MD1999999-0041MW1071REMSYN076AAXX  11154 61489 31915 00416 10350 21025 30127 40134 707// 333 0//00 59004;EQDQ01  00002PRCP99
0212614890999992000031118004+16500-015820FM-12+0006GQNR V0200401N006212200019N0080001N1+03701-00201100841ADDAA199000091GA1001+999999999GF100991001001999999001001KA1120M+04171MA1999999090772MD1999999+0021REMSYN070AAXX  11184 61489 32958 00412 10370 21020 39077 40084 333 10417 58002;EQDQ01+090773APOSP Q02  00002PRCP99
0202614890999992000031206004+16500-015820FM-12+0006GQNR V0200401N005112200019N0100001N1+02221+00301101011ADDAA199000091GA1001+999999999GF100991001001999999001001KA1120N+02221MA1999999090941MD1999999-0081REMSYN076AAXX  12064 61489 32960 00410 10222 20030 39094 40101 333 0//00 20222 59008;EQDQ01  00002PRCP99
0178614890999992000031209004+16500-015820FM-12+0006GQNR V0200401N005112200019N0080001N1+02361+00501101331ADDGA1031+069009019GF103991001001999999001021MA1999999101262MD1999999-0031REMSYN076AAXX  12094 61489 42958 30410 10236 20050 30126 40133 80002 333 59003 83073;EQDQ01+101263APOSP 
0195614890999992000031212004+16500-015820FM-12+0006GQNR V0200401N006212200019N0080001N1+03401-00421101251ADDAA199000091GA1031+069009019GF103991001001999999001021MA1999999101181MD1999999-0091REMSYN082AAXX  12124 61489 33958 30412 10340 21042 30118 40125 80002 333 0//00 59009 83073;EQDQ01  00002PRCP99
0196614890999992000031306004+16500-015820FM-12+0006GQNR V0200401N004112200019N0100001N1+02261+99999101211ADDAA199000091GA1001+999999999GF100991001001999999001001KA1120N+02201MA1999999101141MD1999999+0271REMSYN070AAXX  13064 61489 32960 00408 10226 30114 40121 333 0//00 20220 58027;EQDQ01  00002PRCP99
0147614890999992000031309004+16500-015820FM-12+0006GQNR V0200401N005112200019N0080001N1+02521+00401101381ADDGA1001+999999999GF100991001001999999001001MA1999999101311MD1999999+0071REMSYN064AAXX  13094 61489 42958 00410 10252 20040 30131 40138 333 58007;
0183614890999992000031312004+16500-015820FM-12+0006GQNR V0200401N006212200019N0080001N1+03641+00241101231ADDAA199000091GA1001+999999999GF100991001001999999001001MA1999999101161MD1999999-0021REMSYN070AAXX  13124 61489 33958 00412 10364 20024 30116 40123 333 0//00 59002;EQDQ01  00002PRCP99
0228614890999992000031318004+16500-015820FM-12+0006GQNR V0200401N005112200019N0080001N1+03821+00101100941ADDAA199000091GA1001+999999999GF100991001001999999001001KA1120M+04251MA1999999999999MD1999999+0191REMSYN070AAXX  13184 61489 32958 00410 10382 20010 39087 40094 333 10425 58019;EQDQ01+090873APOSP Q02  00002PRCP99Q03 090873APOSP 
0202614890999992000031406004+16500-015820FM-12+0006GQNR V0200401N004112200019N0080001N1+02401+00841101171ADDAA199000091GA1001+999999999GF100991001001999999001001KA1120N+02401MA1999999100981MD1999999+0051REMSYN076AAXX  14064 61489 32958 00408 10240 20084 30098 40117 333 0//00 20240 58005;EQDQ01  00002PRCP99
0147614890999992000031409004+16500-015820FM-12+0006GQNR V0200401N005112200019N0080001N1+02701+01141101421ADDGA1001+999999999GF100991001001999999001001MA1999999101361MD1999999+0051REMSYN064AAXX  14094 61489 42958 00410 10270 20114 30136 40142 333 58005;
0195614890999992000031412004+16500-015820FM-12+0006GQNR V0200401N007212200019N0050001N1+03601+00731101311ADDAA199000091GA1001+999999999GF100991001001999999001001MA1999999101241MD1999999+0081MW1071REMSYN076AAXX  14124 61489 31950 00414 10360 20073 30124 40131 707// 333 0//00 58008;EQDQ01  00002PRCP99
0187614890999992000031415004+16500-015820FM-12+0006GQNR V0200801N004110690019N0060001N1+03871+00671101001ADDAY121031AY221031GA1051+069009019GF105991001001999999001021MA1999999101031MD1999999+0061MW1061REMSYN082AAXX  14154 61489 41956 50808 10387 20067 30103 40100 70622 80002 333 58006 85073;
0236614890999992000031418004+16500-015820FM-12+0006GQNR V0209999C000010690019N0060001N1+03791+00691100991ADDAA199000091AY121061AY221061GA1061+069009019GF106991001001999999001021KA1120M+03961MA1999999100921MD1999999+0061MW1061REMSYN088AAXX  14184 61489 31956 60000 10379 20069 30092 40099 70622 80002 333 10396 58006 86073;EQDQ01  00002PRCP99
0214614890999992000031506004+16500-015820FM-12+0006GQNR V0209999C000012200019N0050001N1+02131+00971101231ADDAA199000091GA1001+999999999GF100991001001999999001001KA1120N+01951MA1999999101161MD1999999+0001MW1061REMSYN082AAXX  15064 61489 31950 00000 10213 20097 30116 40123 706// 333 0//00 20195 58000;EQDQ01  00002PRCP99
0207614890999992000031512004+16500-015820FM-12+0006GQNR V0200801N007212200019N0045001N1+03251+00451101281ADDAA199000091GA1041+039009079GF104991041001999999071001MA1999999101211MD1999999-0031MW1071REMSYN088AAXX  15124 61489 31945 40814 10325 20045 30121 40128 707// 84070 333 0//00 59003 84363;EQDQ01  00002PRCP99
0187614890999992000031515004+16500-015820FM-12+0006GQNR V02099999999992200019N0060001N1+03801+00111101011ADDAY111031AY211031GA1031+039009079GF103991031001999999031001MA1999999100941MD1999999-0071MW1061REMSYN082AAXX  15154 61489 41956 3040/ 10380 20011 30094 40101 70611 83030 333 59007 83363;
0208614890999992000031518004+16500-015820FM-12+0006GQNR V0200401N003112200019N0080001N1+03721-00121100931ADDAA199000091GA1021+039009079GF102991021001999999031001KA1120M+03901MA1999999100901MD1999999-0061REMSYN082AAXX  15184 61489 32958 20406 10372 21012 30090 40093 82030 333 10390 59006 82363;EQDQ01  00002PRCP99
0147614890999992000031609004+16500-015820FM-12+0006GQNR V0209999C000012200019N0080001N1+02341+00001101131ADDGA1001+999999999GF100991001001999999001001MA1999999101061MD1999999-0271REMSYN064AAXX  16094 61489 42958 00000 10234 20000 30106 40113 333 59027;
0195614890999992000031612004+16500-015820FM-12+0006GQNR V0200801N005112200019N0080001N1+03501-00231101211ADDAA199000091GA1011+039009079GF101991011001999999031001MA1999999101141MD1999999-0071REMSYN082AAXX  16124 61489 33958 10810 10350 21023 30114 40121 81030 333 0//00 59007 81363;EQDQ01  00002PRCP99
0196614890999992000031618004+16500-015820FM-12+0006GQNR V0209999C000012200019N0080001N1+03681-00381100871ADDAA199000091GA1001+999999999GF100991001001999999001001KA1120M+03951MA1999999100801MD1999999-0061REMSYN070AAXX  16184 61489 32958 00000 10368 21038 30080 40087 333 10395 59006;EQDQ01  00002PRCP99
0202614890999992000031706004+16500-015820FM-12+0006GQNR V0209999C000012200019N0080001N1+01951+00441101031ADDAA199000091GA1001+999999999GF100991001001999999001001KA1120N+01801MA1999999100961MD1999999+0011REMSYN076AAXX  17064 61489 33958 00000 10195 20044 30096 40103 333 0//00 20180 58001;EQDQ01  00002PRCP99
0195614890999992000031712004+16500-015820FM-12+0006GQNR V0200401N008212200019N0040001N1+03461-00801101161ADDAA199000091GA1001+999999999GF100991001001999999001001MA1999999101091MD1999999-0051MW1071REMSYN076AAXX  17124 61489 31940 00416 10346 21080 30109 40116 707// 333 0//00 59005;EQDQ01  00002PRCP99
0214614890999992000031806004+16500-015820FM-12+0006GQNR V0200401N007212200019N0050001N1+02501+00181101041ADDAA199000091GA1001+999999999GF100991001001999999001001KA1120N+02271MA1999999100971MD1999999+0011MW1071REMSYN082AAXX  18064 61489 31950 00414 10250 20018 30097 40104 707// 333 0//00 20227 58001;EQDQ01  00002PRCP99
0147614890999992000031809004+16500-015820FM-12+0006GQNR V0200401N008212200019N0040001N1+02571+00191101171ADDGA1001+999999999GF100991001001999999001001MA1999999101101MD1999999+0021REMSYN064AAXX  18094 61489 41940 00416 10257 20019 30110 40117 333 58002;
0207614890999992000031812004+16500-015820FM-12+0006GQNR V0200801N011312200019N0012001N1+03331-00801101211ADDAA199000091GA1031+069009019GF103991001001999999001011MA1999999101141MD1999999+0051MW1071REMSYN088AAXX  18124 61489 31912 30822 10333 21080 30114 40121 707// 80001 333 0//00 58005 83073;EQDQ01  00002PRCP99
0175614890999992000031815004+16500-015820FM-12+0006GQNR V0200801N008212200019N0030001N1+03801-00501101001ADDAY101031AY201031GA1001+999999999GF100991001001999999001001MA1999999100931MD1999999+0091MW1071REMSYN070AAXX  18154 61489 41930 00816 10380 21050 30093 40100 70700 333 58009;
0224614890999992000031818004+16500-015820FM-12+0006GQNR V0200401N007212200019N0045001N1+03701-00381100851ADDAA199000091AY101061AY201061GA1001+999999999GF100991001001999999001001KA1120M+03901MA1999999100781MD1999999+0021MW1071REMSYN076AAXX  18184 61489 31945 00414 10370 21038 30078 40085 70700 333 10390 58002;EQDQ01  00002PRCP99
0202614890999992000031906004+16500-015820FM-12+0006GQNR V0203601N003112200019N0080001N1+02121+00731101121ADDAA199000091GA1001+999999999GF100991001001999999001001KA1120N+01841MA1999999101051MD1999999+0081REMSYN076AAXX  19064 61489 32958 03606 10212 20073 30105 40112 333 0//00 20184 58008;EQDQ01  00002PRCP99
0195614890999992000031912004+16500-015820FM-12+0006GQNR V0200401N007212200019N0060001N1+03301-00241101171ADDAA199000091GA1001+999999999GF100991001001999999001001MA1999999101101MD1999999-0041MW1071REMSYN076AAXX  19124 61489 31956 00414 10330 21024 30110 40117 707// 333 0//00 59004;EQDQ01  00002PRCP99
0147614890999992000031915004+16500-015820FM-12+0006GQNR V0200801N004112200019N0080001N1+03831-00511100961ADDGA1001+999999999GF100991001001999999001001MA1999999100891MD1999999-0041REMSYN064AAXX  19154 61489 42958 00808 10383 21051 30089 40096 333 59004;
0208614890999992000031918004+16500-015820FM-12+0006GQNR V0203601N003112200019N0100001N1+03761-00581100831ADDAA199000091GA1031+069009019GF103991001001999999001011KA1120M+04061MA1999999100761MD1999999-0021REMSYN082AAXX  19184 61489 32960 33606 10376 21058 30076 40083 80001 333 10406 59002 83073;EQDQ01  00002PRCP99
0214614890999992000032006004+16500-015820FM-12+0006GQNR V0203601N003112200019N0080001N1+02001+01231101071ADDAA199000091GA1031+069009019GF103991001001999999001011KA1120N+01851MA1999999101001MD1999999-0051REMSYN088AAXX  20064 61489 32958 33606 10200 20123 30100 40107 80001 333 0//00 20185 59005 83073;EQDQ01  00002PRCP99
0159614890999992000032009004+16500-015820FM-12+0006GQNR V0203601N004112200019N0080001N1+02151+01261101241ADDGA1041+069009019GF104991001001999999001011MA1999999101171MD1999999+0001REMSYN076AAXX  20094 61489 42958 43608 10215 20126 30117 40124 80001 333 58000 84073;
0183614890999992000032112004+16500-015820FM-12+0006GQNR V0200401N005112200019N0100001N1+03061+00531101171ADDAA199000091GA1001+999999999GF100991001001999999001001MA1999999090991MD1999999-0141REMSYN070AAXX  21124 61489 33960 00410 10306 20053 39099 40117 333 0//00 59014;EQDQ01  00002PRCP99
0147614890999992000032115004+16500-015820FM-12+0006GQNR V0200401N004112200019N0100001N1+03641+00211100861ADDGA1001+999999999GF100991001001999999001001MA1999999090791MD1999999-0141REMSYN064AAXX  21154 61489 42960 00408 10364 20021 39079 40086 333 59014;
0196614890999992000032118004+16500-015820FM-12+0006GQNR V0203601N004112200019N0100001N1+03521-00291100661ADDAA199000091GA1001+999999999GF100991001001999999001001KA1120M+03941MA1999999090611MD1999999-0111REMSYN070AAXX  21184 61489 32960 03608 10352 21029 39061 40066 333 10394 59011;EQDQ01  00002PRCP99
0202614890999992000032206004+16500-015820FM-12+0006GQNR V0203601N004112200019N0100001N1+01841+01541100961ADDAA199000091GA1001+999999999GF100991001001999999001001KA1120M+01801MA1999999090891MD1999999-0071REMSYN076AAXX  22064 61489 32960 03608 10184 20154 39089 40096 333 0//00 10180 59007;EQDQ01  00002PRCP99
0166614890999992000032209004+16500-015820FM-12+0006GQNR V0203601N005112200019N0100001N1+02141+01821101091ADDGA1001+999999999GF100991001001999999001001MA1999999101022MD1999999-0081REMSYN064AAXX  22094 61489 42960 03610 10214 20182 30102 40109 333 59008;EQDQ01+101023APOSP 
0211614890999992000032212004+16500-015820FM-12+0006GQNR V0200401N005112200019N0100001N1+03302+01361101121ADDAA199000091GA1021+069009019GF102991001001999999001021MA1999999101051MD1999999+0051REMSYN082AAXX  22124 61489 33960 20410 10330 20136 30105 40112 80002 333 0//00 58005 82073;EQDQ01+003303ATOT  Q02  00002PRCP99
0147614890999992000032309004+16500-015820FM-12+0006GQNR V0203601N005112200019N0100001N1+02241+01631101241ADDGA1001+999999999GF100991001001999999001001MA1999999101171MD1999999+0121REMSYN064AAXX  23094 61489 42960 03610 10224 20163 30117 40124 333 58012;
0178614890999992000032315004+16500-015820FM-12+0006GQNR V0200401N005112200019N0100001N1+03861+01081100821ADDGA1021+069009019GF102991001001999999001021MA1999999090752MD1999999+0071REMSYN076AAXX  23154 61489 42960 20410 10386 20108 39075 40082 80002 333 58007 82073;EQDQ01+090753APOSP 
0224614890999992000032406004+16500-015820FM-12+0006GQNR V0203601N004112200019N0100001N1+01721+00921101031ADDAA199000091GA1001+999999999GF100991001001999999001001KA1120N+99999MA1999999090961MD1999999+0051REMSYN082AAXX  24064 61489 32960 03608 10172 20092 39096 40103 333 0//00 20280 51064 58005;EQDQ01  00002PRCP99Q02 +02802ATMN  
0166614890999992000032409004+16500-015820FM-12+0006GQNR V0203601N005112200019N0100001N1+02121+01161101281ADDGA1001+999999999GF100991001001999999001001MA1999999101212MD1999999+0041REMSYN064AAXX  24094 61489 42960 03610 10212 20116 30121 40128 333 58004;EQDQ01+101213APOSP 
0215614890999992000032412004+16500-015820FM-12+0006GQNR V0200401N005112200019N0100001N1+03362-00102101121ADDAA199000091GA1001+999999999GF100991001001999999001001MA1999999101051MD1999999-0041REMSYN070AAXX  24124 61489 33960 00410 10336 21010 30105 40112 333 0//00 59004;EQDQ01+003363ATOT  Q02-000103ATOD  Q03  00002PRCP99
0202614890999992000032506004+16500-015820FM-12+0006GQNR V0203601N005112200019N0100001N1+01931+01441101041ADDAA199000091GA1001+999999999GF100991001001999999001001KA1120N+01851MA1999999090971MD1999999-0011REMSYN076AAXX  25064 61489 32960 03610 10193 20144 39097 40104 333 0//00 20185 59001;EQDQ01  00002PRCP99
0160614890999992000032509004+16500-015820FM-12+0006GQNR V0203601N004112200019N0100001N1+99999+99999101251ADDGA1001+999999999GF100991001001999999001001MA1999999101182MD1999999-0031REMSYN058AAXX  25094 61489 42960 03608 20164 30118 40125 333 59003;EQDQ01+101183APOSP 
0183614890999992000032512004+16500-015820FM-12+0006GQNR V0200401N003112200019N0100001N1+03441+00651101121ADDAA199000091GA1001+999999999GF100991001001999999001001MA1999999101061MD1999999+0011REMSYN070AAXX  25124 61489 33960 00406 10344 20065 30106 40112 333 0//00 58001;EQDQ01  00002PRCP99
0160614890999992000032515004+16500-015820FM-12+0006GQNR V0200401N004112200019N0100001N1+03861+99999100941ADDGA1001+999999999GF100991001001999999001001MA1999999090872MD1999999+0031REMSYN058AAXX  25154 61489 42960 00408 10386 39087 40094 333 58003;EQDQ01+090873APOSP 
0147614890999992000032609004+16500-015820FM-12+0006GQNR V02099999999992200019N0100001N1+02121+00451101181ADDGA1001+999999999GF100991001001999999001001MA1999999101111MD1999999-0071REMSYN064AAXX  26094 61489 42960 0/610 10212 20045 30111 40118 333 59007;
0227614890999992000032612004+16500-015820FM-12+0006GQNR V0200401N007212200019N0050001N1+03302+00501101061ADDAA199000091GA1001+999999999GF100991001001999999001001MA1999999090992MD1999999-0071MW1071REMSYN076AAXX  26124 61489 31950 00414 10330 20050 39099 40106 707// 333 0//00 59007;EQDQ01+003303ATOT  Q02+090993APOSP Q03  00002PRCP99
0202614890999992000032706004+16500-015820FM-12+0006GQNR V0203601N004112200019N0100001N1+01801+01141100961ADDAA199000091GA1001+999999999GF100991001001999999001001KA1120N+01761MA1999999090891MD1999999+0041REMSYN076AAXX  27064 61489 32960 03608 10180 20114 39089 40096 333 0//00 20176 58004;EQDQ01  00002PRCP99
0166614890999992000032709004+16500-015820FM-12+0006GQNR V0203601N005112200019N0100001N1+02181+01151101181ADDGA1001+999999999GF100991001001999999001001MA1999999101112MD1999999+0051REMSYN064AAXX  27094 61489 42960 03610 10218 20115 30111 40118 333 58005;EQDQ01+101113APOSP 
0199614890999992000032712004+16500-015820FM-12+0006GQNR V0200401N004112200019N0100001N1+03322+00101101181ADDAA199000091GA1001+999999999GF100991001001999999001001MA1999999101111MD1999999+0051REMSYN070AAXX  27124 61489 33960 00408 10332 20010 30111 40118 333 0//00 58005;EQDQ01+003323ATOT  Q02  00002PRCP99
0196614890999992000032818004+16500-015820FM-12+0006GQNR V0203601N006212200019N0100001N1+03541+00391100531ADDAA199000091GA1001+999999999GF100991001001999999001001KA1120M+03901MA1999999090481MD1999999-0181REMSYN070AAXX  28184 61489 32960 03612 10354 20039 39048 40053 333 10390 59018;EQDQ01  00002PRCP99
0202614890999992000032906004+16500-015820FM-12+0006GQNR V0203601N004112200019N0100001N1+01941+01641100921ADDAA199000091GA1001+999999999GF100991001001999999001001KA1120N+01801MA1999999090851MD1999999+0071REMSYN076AAXX  29064 61489 32960 03608 10194 20164 39085 40092 333 0//00 20180 58007;EQDQ01  00002PRCP99
0166614890999992000032909004+16500-015820FM-12+0006GQNR V0203601N005112200019N0100001N1+02091+01541101171ADDGA1001+999999999GF100991001001999999001001MA1999999101102MD1999999+0051REMSYN064AAXX  29094 61489 42960 03610 10209 20154 30110 40117 333 58005;EQDQ01+101103APOSP 
0183614890999992000032912004+16500-015820FM-12+0006GQNR V0203601N004112200019N0100001N1+03101+00781101111ADDAA199000091GA1001+999999999GF100991001001999999001001MA1999999101041MD1999999-0111REMSYN070AAXX  29124 61489 33960 03608 10310 20078 30104 40111 333 0//00 59011;EQDQ01  00002PRCP99
0212614890999992000032918004+16500-015820FM-12+0006GQNR V0203601N004112200019N0100001N1+03361+01681100781ADDAA199000091GA1001+999999999GF100991001001999999001001KA1120M+03691MA1999999090712MD1999999+0291REMSYN070AAXX  29184 61489 32960 03608 10336 20168 39071 40078 333 10369 58029;EQDQ01+090713APOSP Q02  00002PRCP99
0202614890999992000033006004+16500-015820FM-12+0006GQNR V0203601N005112200019N0100001N1+01821+01451101051ADDAA199000091GA1001+999999999GF100991001001999999001001KA1120N+01771MA1999999090981MD1999999+0131REMSYN076AAXX  30064 61489 32960 03610 10182 20145 39098 40105 333 0//00 20177 58013;EQDQ01  00002PRCP99
0178614890999992000033009004+16500-015820FM-12+0006GQNR V0203601N005712200019N0100001N1+02081+01661999999ADDGA1041+039009079GF104991041001999999081001MA1999999101232MD1999999+0131REMSYN076AAXX  30094 61489 42960 43611 10208 20166 30123 401/0 84080 333 58013 84363;EQDQ01+101233APOSP 
0224614890999992000033018004+16500-015820FM-12+0006GQNR V0203201N008212200019N0060001N1+03541+00391100711ADDAA199000091AY101061AY201061GA1001+999999999GF100991001001999999001001KA1120M+04001MA1999999100641MD1999999-0071MW1071REMSYN076AAXX  30184 61489 31956 03216 10354 20039 30064 40071 70700 333 10400 59007;EQDQ01  00002PRCP99
0214614890999992000033106004+16500-015820FM-12+0006GQNR V0203601N005112200019N0100001N1+02151+01381101001ADDAA199000091GA1031+039009079GF103991031001999999031001KA1120N+02071MA1999999100931MD1999999-0051REMSYN088AAXX  31064 61489 32960 33610 10215 20138 30093 40100 83030 333 0//00 20207 59005 83363;EQDQ01  00002PRCP99
0139614890999992000033109004+16500-015820FM-12+0006GQNR V0203601N004112200019N0100001N1+02421+01371101221ADDGA1021+039009079GF102991021001999999031001MA1999999101151REMSYN070AAXX  31094 61489 42960 23608 10242 20137 30115 40122 82030 333 82363;
0207614890999992000033112004+16500-015820FM-12+0006GQNR V0200801N008212200019N0040001N1+03701+00431101091ADDAA199000091GA1021+039009079GF102991021001999999081001MA1999999101021MD1999999-0051MW1071REMSYN088AAXX  31124 61489 31940 20816 10370 20043 30102 40109 707// 82080 333 0//00 59005 82363;EQDQ01  00002PRCP99
0208614890999992000033118004+16500-015820FM-12+0006GQNR V0203201N008212200019N0035001N1+03921+00661100631ADDAA199000091GA1001+999999999GF100991001001999999001001KA1120M+04301MA1999999100561MD1999999-0101MW1071REMSYN076AAXX  31184 61489 31935 03216 10392 20066 30056 40063 707// 333 10430 59010;EQDQ01  00002PRCP99
0230614890999992000040106004+16500-015820FM-12+0006GQNR V0203201N004112200019N0100001N1+02361+01091100921ADDAA199000091GA1031+039009079GF103991999001999999001021KA1120N+02241MA1999999100351MD1999999-0081REMSYN088AAXX  01064 61489 32960 33208 10236 20109 30035 40092 80002 333 0//00 20224 59008 83363;EQDQ01+000002SCOTLCQ02  00002PRCP99
0206614890999992000040109004+16500-015820FM-12+0006GQNR V0203601N007212200019N0070001N1+02701+01351101161ADDAY111031AY211031GA1041+069009019GF104991001001999999001011MA1999999101092MD1999999-0061MW1071REMSYN082AAXX  01094 61489 42957 43614 10270 20135 30109 40116 70711 80001 333 59006 84073;EQDQ01+101093APOSP 
0195614890999992000040112004+16500-015820FM-12+0006GQNR V0203601N008212200019N0050001N1+03741+00451101081ADDAA199000091GA1001+999999999GF100991001001999999001001MA1999999101011MD1999999-0011MW1071REMSYN076AAXX  01124 61489 31950 03616 10374 20045 30101 40108 707// 333 0//00 59001;EQDQ01  00002PRCP99
0187614890999992000040115004+16500-015820FM-12+0006GQNR V0203601N008212200019N0060001N1+04231+00831100851ADDAY101031AY201031GA1021+039009079GF102991021001999999031001MA1999999100781MD1999999-0021MW1071REMSYN082AAXX  01154 61489 41956 23616 10423 20083 30078 40085 70700 82030 333 59002 82363;
0226614890999992000040212004+16500-015820FM-12+0006GQNR V0203601N005112200019N0070001N1+99999+99999100891ADDAA199000091GA1031+069009019GF103991001001999999001011KA1120N+02031MA1999999100821MD1999999-0031MW1061REMSYN094AAXX  02124 61489 31957 33610 1/217 20107 30082 40089 706// 80001 333 0//00 20203 59003 83073;EQDQ01  00002PRCP99
0175614890999992000040215004+16500-015820FM-12+0006GQNR V0203601N009312200019N0050001N1+03561+00611100911ADDAY101031AY201031GA1001+999999999GF100991001001999999001001MA1999999100841MD1999999+0061MW1071REMSYN070AAXX  02154 61489 41950 03618 10356 20061 30084 40091 70700 333 58006;
0224614890999992000040218004+16500-015820FM-12+0006GQNR V0203601N009312200019N0035001N1+03151+00791100851ADDAA199000091AY101061AY201061GA1001+999999999GF100991001001999999001001KA1120M+03701MA1999999100781MD1999999+0241MW1071REMSYN076AAXX  02184 61489 31935 03618 10315 20079 30078 40085 70700 333 10370 58024;EQDQ01  00002PRCP99
0226614890999992000040306004+16500-015820FM-12+0006GQNR V0203601N007212200019N0070001N1+01871+00991101051ADDAA199000091GA1021+069009019GF102991001001999999001011KA1120N+01801MA1999999100981MD1999999+0161MW1071REMSYN094AAXX  03064 61489 32957 23614 10187 20099 30098 40105 707// 80001 333 0//00 20180 58016 82073;EQDQ01  00002PRCP99
0187614890999992000040309004+16500-015820FM-12+0006GQNR V0203601N009312200019N0050001N1+02041+01101101201ADDAY101031AY201031GA1031+069009019GF103991001001999999001011MA1999999101131MD1999999+0051MW1071REMSYN082AAXX  03094 61489 41950 33618 10204 20110 30113 40120 70700 80001 333 58005 83073;
0147614890999992000040315004+16500-015820FM-12+0006GQNR V0203601N005112200019N0080001N1+03251+01011100971ADDGA1001+999999999GF100991001001999999001001MA1999999100901MD1999999+0061REMSYN064AAXX  03154 61489 42958 03610 10325 20101 30090 40097 333 58006;
0175614890999992000040415004+16500-015820FM-12+0006GQNR V0200401N003112200019N0080001N1+03521+00491101081ADDAY101031AY201031GA1001+999999999GF100991001001999999001001MA1999999101011MD1999999+0111MW1071REMSYN070AAXX  04154 61489 41958 00406 10352 20049 30101 40108 70700 333 58011;
0196614890999992000040418004+16500-015820FM-12+0006GQNR V0203201N005112200019N0080001N1+03561+00511100951ADDAA199000091GA1001+999999999GF100991001001999999001001KA1120M+03751MA1999999100881MD1999999+0031REMSYN070AAXX  04184 61489 32958 03210 10356 20051 30088 40095 333 10375 58003;EQDQ01  00002PRCP99
0214614890999992000040506004+16500-015820FM-12+0006GQNR V0203601N004112200019N0045001N1+02031+01191101121ADDAA199000091GA1001+999999999GF100991001001999999001001KA1120M+02001MA1999999101051MD1999999-0101MW1061REMSYN082AAXX  05064 61489 31945 03608 10203 20119 30105 40112 706// 333 0//00 10200 59010;EQDQ01  00002PRCP99
0236614890999992000040518004+16500-015820FM-12+0006GQNR V0202801N008212200019N0050001N1+03951+00991100831ADDAA199000091AY111061AY211061GA1041+039009079GF104991041001999999071001KA1120M+04151MA1999999100761MD1999999-0121MW1071REMSYN088AAXX  05184 61489 31950 42816 10395 20099 30076 40083 70711 84070 333 10415 59012 84363;EQDQ01  00002PRCP99
0226614890999992000040606004+16500-015820FM-12+0006GQNR V0203201N007210390019N0060001N1+02321+01251100981ADDAA199000091GA1051+039009079GF105991051001999999071001KA1120N+02251MA1999999100911MD1999999-0141MW1071REMSYN094AAXX  06064 61489 31956 53214 10232 20125 30091 40098 707// 85070 333 0//00 20225 59014 85363;EQDQ01  00002PRCP99
0195614890999992000040612004+16500-015820FM-12+0006GQNR V0200801N004112200019N0100001N1+03451+01111101261ADDAA199000091GA1041+069009019GF104991001001999999001021MA1999999101191MD1999999-0101REMSYN082AAXX  06124 61489 33960 40808 10345 20111 30119 40126 80002 333 0//00 59010 84073;EQDQ01  00002PRCP99
0214614890999992000040706004+16500-015820FM-12+0006GQNR V0209999C000010390019N0070001N1+02201+01141101271ADDAA199000091GA1061+039009079GF106991061001999999071001KA1120N+02121MA1999999101201MD1999999+0291REMSYN088AAXX  07064 61489 32957 60000 10220 20114 30120 40127 86070 333 0//00 20212 58029 86363;EQDQ01  00002PRCP99
0195614890999992000040712004+16500-015820FM-12+0006GQNR V0209999C000012200019N0080001N1+03021+00521101391ADDAA199000091GA1041+069009019GF104991001001999999001021MA1999999101321MD1999999+0131REMSYN082AAXX  07124 61489 33958 40000 10302 20052 30132 40139 80002 333 0//00 58013 84073;EQDQ01  00002PRCP99
0224614890999992000040718004+16500-015820FM-12+0006GQNR V0200801N008212200019N0050001N1+03061+01051101051ADDAA199000091AY101061AY201061GA1001+999999999GF100991001001999999001001KA1120M+04101MA1999999100981MD1999999+0191MW1071REMSYN076AAXX  07184 61489 31950 00816 10306 20105 30098 40105 70700 333 10410 58019;EQDQ01  00002PRCP99
0214614890999992000040806004+16500-015820FM-12+0006GQNR V0200401N004112200019N0080001N1+01981+01561101071ADDAA199000091GA1031+069009019GF103991001001999999001021KA1120N+01881MA1999999101001MD1999999-0201REMSYN088AAXX  08064 61489 33958 30408 10198 20156 30100 40107 80002 333 0//00 20188 59020 83073;EQDQ01  00002PRCP99
0224614890999992000040818004+16500-015820FM-12+0006GQNR V0203201N008212200019N0050001N1+03321+01251100931ADDAA199000091AY111061AY211061GA1001+999999999GF100991001001999999001001KA1120M+03751MA1999999100861MD1999999-0131MW1071REMSYN076AAXX  08184 61489 31950 03216 10332 20125 30086 40093 70711 333 10375 59013;EQDQ01  00002PRCP99
0202614890999992000040906004+16500-015820FM-12+0006GQNR V0203601N003112200019N0080001N1+02151+01191101061ADDAA199000091GA1001+999999999GF100991001001999999001001KA1120N+01861MA1999999100211MD1999999+0071REMSYN076AAXX  09064 61489 32958 03606 10215 20119 30021 40106 333 0//00 20186 58007;EQDQ01  00002PRCP99
0199614890999992000040912004+16500-015820FM-12+0006GQNR V0200801N005112200019N0080001N1+03051+01191101261ADDAA199000091GA1001+999999999GF100991001001999999001001MA1999999101192MD1999999+0001REMSYN070AAXX  09124 61489 33958 00810 10305 20119 30119 40126 333 0//00 58000;EQDQ01+101193APOSP Q02  00002PRCP99
0214614890999992000041006004+16500-015820FM-12+0006GQNR V0203601N006212200019N0050001N1+02001+01421101021ADDAA199000091GA1001+999999999GF100991001001999999001001KA1120N+01851MA1999999090951MD1999999-0121MW1061REMSYN082AAXX  10064 61489 31950 03612 10200 20142 39095 40102 706// 333 0//00 20185 59012;EQDQ01  00002PRCP99
0224614890999992000041018004+16500-015820FM-12+0006GQNR V0203201N008212200019N0040001N1+03641+01041100901ADDAA199000091AY101061AY201061GA1001+999999999GF100991001001999999001001KA1120M+04081MA1999999090831MD1999999-0051MW1071REMSYN076AAXX  10184 61489 31940 03216 10364 20104 39083 40090 70700 333 10408 59005;EQDQ01  00002PRCP99
0195614890999992000041112004+16500-015820FM-12+0006GQNR V0200401N007212200019N0050001N1+03721+00721101151ADDAA199000091GA1001+999999999GF100991001001999999001001MA1999999101101MD1999999-0051MW1071REMSYN076AAXX  11124 61489 31950 00414 10372 20072 30110 40115 707// 333 0//00 59005;EQDQ01  00002PRCP99
0256614890999992000041118004+16500-015820FM-12+0006GQNR V0200401N008212200019N0045001N1+04031+00221100871ADDAA199000091AY101061AY201061GA1001+999999999GF100991001001999999001001KA1120M+04261MA1999999999999MD1999999-0061MW1071REMSYN076AAXX  11184 61489 31945 00416 10403 20022 39077 40087 70700 333 10426 59006;EQDQ01+090773APOSP Q02  00002PRCP99Q03 090773APOSP 
0200614890999992000041206004+16500-015820FM-12+0006GQNR V0200401N003112200019N0050001N1+02901+00901101151ADDAA199000091GA1001+999999999GF100991001001999999001001KA1120N+02901MA1999999100351REMSYN088AAXX  12064 61489 31950 00406 10290 20090 30035 40115 333 0//00 20290 51774 55/// 58018;EQDQ01  00002PRCP99
0211614890999992000041212004+16500-015820FM-12+0006GQNR V0200801N008212200019N0040001N1+03881+00101101061ADDAA199000091GA1001+999999999GF100991001001999999001001MA1999999090992MD1999999-0091MW1061REMSYN076AAXX  12124 61489 31940 00816 10388 20010 39099 40106 706// 333 0//00 59009;EQDQ01+090993APOSP Q02  00002PRCP99
0224614890999992000041218004+16500-015820FM-12+0006GQNR V0203601N009312200019N0020001N1+03841+00621100751ADDAA199000091AY101061AY201061GA1001+999999999GF100991001001999999001001KA1120M+04441MA1999999090681MD1999999-0091MW1071REMSYN076AAXX  12184 61489 31920 03618 10384 20062 39068 40075 70700 333 10444 59009;EQDQ01  00002PRCP99
0226614890999992000041306004+16500-015820FM-12+0006GQNR V0209999C000012200019N0060001N1+02251+01351101091ADDAA199000091GA1031+039009079GF103991031001999999031001KA1120N+02151MA1999999101322MD1999999+0041MW1061REMSYN094AAXX  13064 61489 31956 30000 10225 20135 30132 40109 706// 83030 333 0//00 20215 58004 83363;EQDQ01  00002PRCP99
0195614890999992000041312004+16500-015820FM-12+0006GQNR V0200801N006212200019N0060001N1+03571+00501101301ADDAA199000091GA1001+999999999GF100991001001999999001001MA1999999101231MD1999999+0241MW1061REMSYN076AAXX  13124 61489 31956 00812 10357 20050 30123 40130 706// 333 0//00 58024;EQDQ01  00002PRCP99
0195614890999992000041512004+16500-015820FM-12+0006GQNR V0200801N009312200019N0025001N1+03931+00161101151ADDAA199000091GA1001+999999999GF100991001001999999001001MA1999999101081MD1999999-0061MW1071REMSYN076AAXX  15124 61489 32925 00818 10393 20016 30108 40115 707// 333 0//00 59006;EQDQ01  00002PRCP99
0226614890999992000041706004+16500-015820FM-12+0006GQNR V0200401N004112200019N0030001N1+02521+01061100961ADDAA199000091GA1021+069009019GF102991001001999999001021KA1120N+02401MA1999999090891MD1999999-0201MW1061REMSYN094AAXX  17064 61489 31930 20408 10252 20106 39089 40096 706// 80002 333 0//00 20240 59020 82073;EQDQ01  00002PRCP99
0211614890999992000041712004+16500-015820FM-12+0006GQNR V0200801N007212200019N0040001N1+03801+00791101171ADDAA199000091GA1001+999999999GF100991001001999999001001MA1999999101102MD1999999-0021MW1071REMSYN076AAXX  17124 61489 31940 00814 10380 20079 30110 40117 707// 333 0//00 59002;EQDQ01+101103APOSP Q02  00002PRCP99
0226614890999992000041806004+16500-015820FM-12+0006GQNR V0209999C000012200019N0025001N1+02641+00941101071ADDAA199000091GA1041+069009019GF104991001001999999001021KA1120N+02541MA1999999101001MD1999999+0101MW1061REMSYN094AAXX  18064 61489 31925 40000 10264 20094 30100 40107 706// 80002 333 0//00 20254 58010 84073;EQDQ01  00002PRCP99
0214614890999992000041906004+16500-015820FM-12+0006GQNR V0209999C000012200019N0025001N1+02321+01551101141ADDAA199000091GA1001+999999999GF100991001001999999001001KA1120N+02241MA1999999101071MD1999999+0071MW1061REMSYN082AAXX  19064 61489 31925 00000 10232 20155 30107 40114 706// 333 0//00 20224 58007;EQDQ01  00002PRCP99
0207614890999992000041912004+16500-015820FM-12+0006GQNR V0200801N005110390019N0045001N1+03651+00941101221ADDAA199000091GA1061+039009079GF106991061001999999071001MA1999999101151MD1999999+0021MW1061REMSYN088AAXX  19124 61489 31945 60810 10365 20094 30115 40122 706// 86070 333 0//00 58002 86363;EQDQ01  00002PRCP99
0207614890999992000042012004+16500-015820FM-12+0006GQNR V0202201N003110390019N0070001N1+03251+01711101171ADDAA199000091GA1051+039009079GF105991051001999999071001MA1999999101101MD1999999-0051MW1061REMSYN088AAXX  20124 61489 31957 52206 10325 20171 30110 40117 706// 85070 333 0//00 59005 85363;EQDQ01  00002PRCP99
0236614890999992000042018004+16500-015820FM-12+0006GQNR V0201401N004112200019N0050001N1+04191+01361100971ADDAA199000091AY111061AY211061GA1021+039009079GF102991021001999999031001KA1120M+04231MA1999999100901MD1999999+0041MW1061REMSYN088AAXX  20184 61489 31950 21408 10419 20136 30090 40097 70611 82030 333 10423 58004 82363;EQDQ01  00002PRCP99
0195614890999992000042112004+16500-015820FM-12+0006GQNR V0200801N008212200019N0025001N1+04001+00651101241ADDAA199000091GA1001+999999999GF100991001001999999001001MA1999999101171MD1999999+0071MW1071REMSYN076AAXX  21124 61489 31925 00816 10400 20065 30117 40124 707// 333 0//00 58007;EQDQ01  00002PRCP99
0226614890999992000042206004+16500-015820FM-12+0006GQNR V0203201N003110390019N0045001N1+02661+00451101131ADDAA199000091GA1051+039009079GF105991051001999999071001KA1120N+02501MA1999999101061MD1999999+0021MW1061REMSYN094AAXX  22064 61489 31945 53206 10266 20045 30106 40113 706// 85070 333 0//00 20250 58002 85363;EQDQ01  00002PRCP99
0224614890999992000042218004+16500-015820FM-12+0006GQNR V0200801N008212200019N0060001N1+04201+00811101001ADDAA199000091AY101061AY201061GA1001+999999999GF100991001001999999001001KA1120M+04401MA1999999100931MD1999999+0081MW1071REMSYN076AAXX  22184 61489 31956 00816 10420 20081 30093 40100 70700 333 10440 58008;EQDQ01  00002PRCP99
0208614890999992000042418004+16500-015820FM-12+0006GQNR V0202801N006212200019N0050001N1+03851+00551100971ADDAA199000091GA1021+039009079GF103991021001999999031001KA1120M+04301MA1999999100801MD1999999-0071REMSYN082AAXX  24184 61489 31950 32812 10385 20055 30080 40097 82030 333 10430 59007 82363;EQDQ01  00002PRCP99
0214614890999992000042506004+16500-015820FM-12+0006GQNR V0203201N005112200019N0080001N1+01951+00501101071ADDAA199000091GA1041+039009079GF104991041001999999071001KA1120N+01861MA1999999101001MD1999999-0051REMSYN088AAXX  25064 61489 32958 43210 10195 20050 30100 40107 84070 333 0//00 20186 59005 84363;EQDQ01  00002PRCP99
0195614890999992000042512004+16500-015820FM-12+0006GQNR V0209999C000012200019N0080001N1+02981+01231101321ADDAA199000091GA1041+039009079GF104991041001999999071001MA1999999101251MD1999999+0031REMSYN082AAXX  25124 61489 33958 40000 10298 20123 30125 40132 84070 333 0//00 58003 84363;EQDQ01  00002PRCP99
0214614890999992000042606004+16500-015820FM-12+0006GQNR V0202801N005110390019N0080001N1+02041+00671101421ADDAA199000091GA1051+039009079GF105991051001999999071001KA1120N+01961MA1999999101351MD1999999+0251REMSYN088AAXX  26064 61489 32958 52810 10204 20067 30135 40142 85070 333 0//00 20196 58025 85363;EQDQ01  00002PRCP99
0195614890999992000042712004+16500-015820FM-12+0006GQNR V0200401N003110390019N0080001N1+03681+00691101371ADDAA199000091GA1051+039009079GF105991051001999999071001MA1999999101301MD1999999-0121REMSYN082AAXX  27124 61489 33958 50406 10368 20069 30130 40137 85070 333 0//00 59012 85363;EQDQ01  00002PRCP99
0252614890999992000042718004+16500-015820FM-12+0006GQNR V0203601N007212200019N0045001N1+04001+00631100991ADDAA199000091AY111061AY211061GA1031+039009079GF103991999001999999071001KA1120M+04301MA1999999100921MD1999999-0041MW1071REMSYN088AAXX  27184 61489 31945 33614 10400 20063 30092 40099 70711 86070 333 10430 59004 83363;EQDQ01+000062SCOTLCQ02  00002PRCP99
0226614890999992000042806004+16500-015820FM-12+0006GQNR V0203601N006212200019N0060001N1+02521-00031100971ADDAA199000091GA1031+039009079GF103991031001999999031001KA1120N+02451MA1999999100901MD1999999-0261MW1061REMSYN094AAXX  28064 61489 31956 33612 10252 21003 30090 40097 706// 83030 333 0//00 20245 59026 83363;EQDQ01  00002PRCP99
0162614890999992000042912004+16500-015820FM-12+0006GQNR V0200401N004112200019N0080001N1+03521+00811101411ADDAA199000091GA1001+999999999GF100991001001999999001001MD1999999+0071REMSYN064AAXX  29124 61489 33958 00408 10352 20081 40141 333 0//00 58007;EQDQ01  00002PRCP99
0224614890999992000042918004+16500-015820FM-12+0006GQNR V0203201N009312200019N0050001N1+03561+00951101111ADDAA199000091AY101061AY201061GA1001+999999999GF100991001001999999001001KA1120M+04201MA1999999101041MD1999999+0081MW1071REMSYN076AAXX  29184 61489 31950 03218 10356 20095 30104 40111 70700 333 10420 58008;EQDQ01  00002PRCP99
0195614890999992000043012004+16500-015820FM-12+0006GQNR V0200401N007212200019N0050001N1+03121+00861101471ADDAA199000091GA1001+999999999GF100991001001999999001001MA1999999101401MD1999999+0081MW1071REMSYN076AAXX  30124 61489 31950 00414 10312 20086 30140 40147 707// 333 0//00 58008;EQDQ01  00002PRCP99
0220614890999992000050106004+16500-015820FM-12+0006GQNR V0203601N005112200019N0050001N1+02021+01181101311ADDAA199000091GA1011+069009019GF101991999999999999999999KA1120N+01881MA1999999101241MD1999999-0071MW1061REMSYN088AAXX  01064 61489 31950 13610 10202 20118 30124 40131 706// 333 0//00 20188 59007 81073;EQDQ01  00002PRCP99
0214614890999992000050306004+16500-015820FM-12+0006GQNR V0209999C000012200019N0080001N1+01801+01511101271ADDAA199000091GA1031+039009079GF103991031001999999031001KA1120N+01721MA1999999101201MD1999999+0131REMSYN088AAXX  03064 61489 32958 30000 10180 20151 30120 40127 83030 333 0//00 20172 58013 83363;EQDQ01  00002PRCP99
0189614890999992000050312004+16500-015820FM-12+0006GQNR V0200401N007212200019N0050001N1+02871+01181999999ADDAA199000091GA1001+999999999GF100991001001999999001001MA1999999101411MD1999999+0181MW1071REMSYN070AAXX  03124 61489 31950 00414 10287 20118 30141 707// 333 0//00 58018;EQDQ01  00002PRCP99
0214614890999992000050406004+16500-015820FM-12+0006GQNR V0203601N004110390019N0080001N1+02081+01441101461ADDAA199000091GA1071+039009079GF107991071001999999081999KA1120N+01941MA1999999091391MD1999999+0191REMSYN088AAXX  04064 61489 32958 73608 10208 20144 39139 40146 8708/ 333 0//00 20194 58019 87363;EQDQ01  00002PRCP99
0223614890999992000050412004+16500-015820FM-12+0006GQNR V0200401N007210390019N0050001N1+02721+01051101621ADDAA199000091GA1061+039009079GF106991061001999999071001MA1999999101552MD1999999+0241MW1071REMSYN088AAXX  04124 61489 31950 60414 10272 20105 30155 40162 707// 86070 333 0//00 58024 86363;EQDQ01+101553APOSP Q02  00002PRCP99
0183614890999992000050512004+16500-015820FM-12+0006GQNR V0200401N006212200019N0080001N1+03181+01201101361ADDAA199000091GA1001+999999999GF100991001001999999001001MA1999999101291MD1999999-0281REMSYN070AAXX  05124 61489 32958 00412 10318 20120 30129 40136 333 0//00 59028;EQDQ01  00002PRCP99
0226614890999992000050606004+16500-015820FM-12+0006GQNR V0203601N003112200019N0060001N1+02101+01381101131ADDAA199000091GA1031+069009019GF103991001001999999001021KA1120N+02021MA1999999101061MD1999999-0161MW1061REMSYN094AAXX  06064 61489 31956 33606 10210 20138 30106 40113 706// 80002 333 0//00 20202 59016 83073;EQDQ01  00002PRCP99
0147614890999992000050615004+16500-015820FM-12+0006GQNR V0200401N006212200019N0080001N1+03701+01561100991ADDGA1001+999999999GF100991001001999999001001MA1999999090921MD1999999-0181REMSYN064AAXX  06154 61489 42958 00412 10370 20156 39092 40099 333 59018;
0224614890999992000050618004+16500-015820FM-12+0006GQNR V0203601N007212200019N0050001N1+03521+01241100761ADDAA199000091AY101061AY201061GA1001+999999999GF100991001001999999001001KA1120M+03841MA1999999090791MD1999999-0361MW1071REMSYN076AAXX  06184 61489 31950 03614 10352 20124 39079 40076 70700 333 10384 59036;EQDQ01  00002PRCP99
0147614890999992000050709004+16500-015820FM-12+0006GQNR V0203601N006212200019N0100001N1+02281+01631101471ADDGA1001+999999999GF100991001001999999001001MA1999999101181MD1999999+0091REMSYN064AAXX  07094 61489 42960 03612 10228 20163 30118 40147 333 58009;
0183614890999992000050712004+16500-015820FM-12+0006GQNR V0203601N004112200019N0100001N1+03401+00821101231ADDAA199000091GA1001+999999999GF100991001001999999001001MA1999999101141MD1999999-0131REMSYN070AAXX  07124 61489 33960 03608 10340 20082 30114 40123 333 0//00 59013;EQDQ01  00002PRCP99
0166614890999992000050715004+16500-015820FM-12+0006GQNR V0203601N006212200019N0100001N1+04021+00961101021ADDGA1001+999999999GF100991001001999999001001MA1999999090952MD1999999+0021REMSYN064AAXX  07154 61489 42960 03612 10402 20096 39095 40102 333 58002;EQDQ01+090953APOSP 
0202614890999992000050809004+16500-015820FM-12+0006GQNR V0203601N004112200019N0100001N1+01921+01381101221ADDAA199000091GA1001+999999999GF100991001001999999001001KA1120N+01921MA1999999101151MD1999999-0011REMSYN076AAXX  08094 61489 32960 03608 10192 20138 30115 40122 333 0//00 20192 59001;EQDQ01  00002PRCP99
0153614890999992000050812004+16500-015820FM-12+0006GQNR V0203601N004112200019N0100001N1+03321+00481101381ADDGA1001+999999999GF100991001001999999001001MA1999999101311MD1999999+0171REMSYN070AAXX  08124 61489 43960 03608 10332 20048 30131 40138 333 0//00 58017;
0147614890999992000050815004+16500-015820FM-12+0006GQNR V0203601N005112200019N0100001N1+03921+00861101181ADDGA1001+999999999GF100991001001999999001001MA1999999101111MD1999999+0161REMSYN064AAXX  08154 61489 42960 03610 10392 20086 30111 40118 333 58016;
0183614890999992000050912004+16500-015820FM-12+0006GQNR V0203601N005112200019N0100001N1+03301+01221101221ADDAA199000091GA1001+999999999GF100991001001999999001001MA1999999101151MD1999999+0161REMSYN070AAXX  09124 61489 33960 03610 10330 20122 30115 40122 333 0//00 58016;EQDQ01  00002PRCP99
0166614890999992000050915004+16500-015820FM-12+0006GQNR V0203601N004112200019N0100001N1+03941+01361101051ADDGA1001+999999999GF100991001001999999001001MA1999999090982MD1999999-0011REMSYN064AAXX  09154 61489 42960 03608 10394 20136 39098 40105 333 59001;EQDQ01+090983APOSP 
0196614890999992000050918004+16500-015820FM-12+0006GQNR V0203601N003112200019N0100001N1+03641+00801100891ADDAA199000091GA1001+999999999GF100991001001999999001001KA1120M+04171MA1999999090821MD1999999-0031REMSYN070AAXX  09184 61489 32960 03606 10364 20080 39082 40089 333 10417 59003;EQDQ01  00002PRCP99
0202614890999992000051006004+16500-015820FM-12+0006GQNR V0203601N004112200019N0100001N1+02001+01301100981ADDAA199000091GA1001+999999999GF100991001001999999001001KA1120N+01971MA1999999100911MD1999999-0341REMSYN076AAXX  10064 61489 32960 03608 10200 20130 30091 40098 333 0//00 20197 59034;EQDQ01  00002PRCP99
0147614890999992000051009004+16500-015820FM-12+0006GQNR V0203601N004112200019N0100001N1+02361+01541101241ADDGA1001+999999999GF100991001001999999001001MA1999999101171MD1999999+0271REMSYN064AAXX  10094 61489 42960 03608 10236 20154 30117 40124 333 58027;
0183614890999992000051012004+16500-015820FM-12+0006GQNR V0200401N005112200019N0100001N1+03401+00741101161ADDAA199000091GA1001+999999999GF100991001001999999001001MA1999999101091MD1999999-0061REMSYN070AAXX  10124 61489 33960 00410 10340 20074 30109 40116 333 0//00 59006;EQDQ01  00002PRCP99
0147614890999992000051015004+16500-015820FM-12+0006GQNR V0200401N006212200019N0100001N1+04001+00921100881ADDGA1001+999999999GF100991001001999999001001MA1999999100811MD1999999-0171REMSYN064AAXX  10154 61489 42960 00412 10400 20092 30081 40088 333 59017;
0196614890999992000051018004+16500-015820FM-12+0006GQNR V0203601N005112200019N0100001N1+03421+00921100791ADDAA199000091GA1001+999999999GF100991001001999999001001KA1120M+04201MA1999999100721MD1999999-0101REMSYN070AAXX  10184 61489 32960 03610 10342 20092 30072 40079 333 10420 59010;EQDQ01  00002PRCP99
0202614890999992000051106004+16500-015820FM-12+0006GQNR V02099999999992200019N0100001N1+01961+01501100991ADDAA199000091GA1001+999999999GF100991001001999999001001KA1120N+01901MA1999999100921MD1999999+0151REMSYN076AAXX  11064 61489 32960 03808 10196 20150 30092 40099 333 0//00 20190 58015;EQDQ01  00002PRCP99
0147614890999992000051109004+16500-015820FM-12+0006GQNR V0203601N006212200019N0100001N1+02241+01801101301ADDGA1001+999999999GF100991001001999999001001MA1999999101231MD1999999+0061REMSYN064AAXX  11094 61489 42960 03612 10224 20180 30123 40130 333 58006;
0183614890999992000051112004+16500-015820FM-12+0006GQNR V0203601N005112200019N0100001N1+03261+01321101281ADDAA199000091GA1001+999999999GF100991001001999999001001MA1999999101211MD1999999+0121REMSYN070AAXX  11124 61489 32960 03610 10326 20132 30121 40128 333 0//00 58012;EQDQ01  00002PRCP99
0147614890999992000051115004+16500-015820FM-12+0006GQNR V0203601N005112200019N0080001N1+03501+01601101091ADDGA1001+999999999GF100991001001999999001001MA1999999101021MD1999999+0211REMSYN064AAXX  11154 61489 42958 03610 10350 20160 30102 40109 333 58021;
0196614890999992000051118004+16500-015820FM-12+0006GQNR V0203601N006212200019N0080001N1+03101+01021100961ADDAA199000091GA1001+999999999GF100991001001999999001001KA1120M+03701MA1999999100891MD1999999+0071REMSYN070AAXX  11184 61489 32958 03612 10310 20102 30089 40096 333 10370 58007;EQDQ01  00002PRCP99
0202614890999992000051206004+16500-015820FM-12+0006GQNR V0203601N004112200019N0100001N1+01911+01021101151ADDAA199000091GA1001+999999999GF100991001001999999001001KA1120N+01901MA1999999101081MD1999999+0021REMSYN076AAXX  12064 61489 32960 03608 10191 20102 30108 40115 333 0//00 20190 58002;EQDQ01  00002PRCP99
0183614890999992000051212004+16500-015820FM-12+0006GQNR V0203601N004112200019N0100001N1+03261+01121101291ADDAA199000091GA1001+999999999GF100991001001999999001001MA1999999101221MD1999999+0011REMSYN070AAXX  12124 61489 33960 03608 10326 20112 30122 40129 333 0//00 58001;EQDQ01  00002PRCP99
0183614890999992000051612004+16500-015820FM-12+0006GQNR V0203201N003112200019N0080001N1+03101+01241101341ADDAA199000091GA1001+999999999GF100991001001999999001001MA1999999101271MD1999999+0071REMSYN070AAXX  16124 61489 33958 03206 10310 20124 30127 40134 333 0//00 58007;EQDQ01  00002PRCP99
0147614890999992000051615004+16500-015820FM-12+0006GQNR V0203601N005112200019N0100001N1+03621+00891101101ADDGA1001+999999999GF100991001001999999001001MA1999999101051MD1999999+0151REMSYN064AAXX  16154 61489 42960 03610 10362 20089 30105 40110 333 58015;
0224614890999992000051718004+16500-015820FM-12+0006GQNR V0203201N008212200019N0050001N1+03401+00861101011ADDAA199000091AY101061AY201061GA1001+999999999GF100991001001999999001001KA1120M+03901MA1999999100941MD1999999-0021MW1071REMSYN076AAXX  17184 61489 31950 03216 10340 20086 30094 40101 70700 333 10390 59002;EQDQ01  00002PRCP99
0214614890999992000051806004+16500-015820FM-12+0006GQNR V0202601N005112200019N0060001N1+02001+01391101261ADDAA199000091GA1001+999999999GF100991001001999999001001KA1120N+01881MA1999999101191MD1999999-0051MW1061REMSYN082AAXX  18064 61489 31956 02610 10200 20139 30119 40126 706// 333 0//00 20188 59005;EQDQ01  00002PRCP99
0175614890999992000051809004+16500-015820FM-12+0006GQNR V0203201N005112200019N0040001N1+02301+01351101461ADDAY101031AY201031GA1001+999999999GF100991001001999999001001MA1999999101391MD1999999+0021MW1061REMSYN070AAXX  18094 61489 41940 03210 10230 20135 30139 40146 70600 333 58002;
0195614890999992000051812004+16500-015820FM-12+0006GQNR V0203601N008212200019N0045001N1+03351+00691101371ADDAA199000091GA1001+999999999GF100991001001999999001001MA1999999101301MD1999999-0021MW1071REMSYN076AAXX  18124 61489 31945 03616 10335 20069 30130 40137 707// 333 0//00 59002;EQDQ01  00002PRCP99
0224614890999992000051818004+16500-015820FM-12+0006GQNR V0203201N009312200019N0030001N1+03621+00671100971ADDAA199000091AY101061AY201061GA1001+999999999GF100991001001999999001001KA1120M+03801MA1999999100901MD1999999-0041MW1071REMSYN076AAXX  18184 61489 31930 03218 10362 20067 30090 40097 70700 333 10380 59004;EQDQ01  00002PRCP99
0195614890999992000051912004+16500-015820FM-12+0006GQNR V0200401N007212200019N0050001N1+03581+01001101051ADDAA199000091GA1001+999999999GF100991001001999999001001MA1999999100981MD1999999-0321MW1071REMSYN076AAXX  19124 61489 31950 00414 10358 20100 30098 40105 707// 333 0//00 59032;EQDQ01  00002PRCP99
0224614890999992000051918004+16500-015820FM-12+0006GQNR V0203601N006212200019N0060001N1+03221+00901100671ADDAA199000091AY101061AY201061GA1001+999999999GF100991001001999999001001KA1120M+03991MA1999999100601MD1999999-0301MW1071REMSYN076AAXX  19184 61489 31956 03612 10322 20090 30060 40067 70700 333 10399 59030;EQDQ01  00002PRCP99
0202614890999992000052006004+16500-015820FM-12+0006GQNR V0203601N004112200019N0100001N1+02141+01681101001ADDAA199000091GA1001+999999999GF100991001001999999001001KA1120N+02141MA1999999100931MD1999999-0231REMSYN076AAXX  20064 61489 32960 03608 10214 20168 30093 40100 333 0//00 20214 59023;EQDQ01  00002PRCP99
0183614890999992000052012004+16500-015820FM-12+0006GQNR V0203601N004112200019N0100001N1+03241+01761101181ADDAA199000091GA1001+999999999GF100991001001999999001001MA1999999101111MD1999999+0131REMSYN070AAXX  20124 61489 33960 03608 10324 20176 30111 40118 333 0//00 58013;EQDQ01  00002PRCP99
0159614890999992000052015004+16500-015820FM-12+0006GQNR V0203601N003112200019N0100001N1+03501+01841100831ADDGA1021+069009019GF102991001001999999001021MA1999999100861MD1999999+0031REMSYN076AAXX  20154 61489 42960 23606 10350 20184 30086 40083 80002 333 58003 82073;
0208614890999992000052018004+16500-015820FM-12+0006GQNR V0203601N007212200019N0060001N1+02941+01641100741ADDAA199000091GA1021+069009019GF102991001001999999001021KA1120M+03751MA1999999100671MD1999999+0071REMSYN082AAXX  20184 61489 31956 23614 10294 20164 30067 40074 80002 333 10375 58007 82073;EQDQ01  00002PRCP99
0159614890999992000052109004+16500-015820FM-12+0006GQNR V02099999999992200019N0100001N1+02261+01701101471ADDGA1041+039009079GF104991041001999999071001MA1999999101421MD1999999+0341REMSYN076AAXX  21094 61489 42960 43810 10226 20170 30142 40147 84070 333 58034 84363;
0159614890999992000052115004+16500-015820FM-12+0006GQNR V0203601N005112200019N0100001N1+03241+01561101111ADDGA1031+069009019GF103991001001999999001021MA1999999101041MD1999999+0281REMSYN076AAXX  21154 61489 42960 33610 10324 20156 30104 40111 80002 333 58028 83073;
0224614890999992000052118004+16500-015820FM-12+0006GQNR V0203601N004112200019N0100001N1+02961+01201100991ADDAA199000091GA1031+069009019GF103991001001999999001021KA1120M+03351MA1999999101922MD1999999+0251REMSYN082AAXX  21184 61489 32960 33608 10296 20120 30192 40099 80002 333 10335 58025 83073;EQDQ01+101923APOSP Q02  00002PRCP99
0214614890999992000052306004+16500-015820FM-12+0006GQNR V02099999999992200019N0100001N1+01841+01641101601ADDAA199000091GA1031+039009079GF103991031001999999071001KA1120N+01751MA1999999101531MD1999999+0171REMSYN088AAXX  23064 61489 32960 33810 10184 20164 30153 40160 83070 333 0//00 20175 58017 83363;EQDQ01  00002PRCP99
0202614890999992000052406004+16500-015820FM-12+0006GQNR V0203601N004112200019N0100001N1+02281+01561101361ADDAA199000091GA1001+999999999GF100991001001999999001001KA1120N+02271MA1999999101291MD1999999-0241REMSYN076AAXX  24064 61489 32960 03608 10228 20156 30129 40136 333 0//00 20227 59024;EQDQ01  00002PRCP99
0159614890999992000052409004+16500-015820FM-12+0006GQNR V0203601N005112200019N0100001N1+02581+01801101571ADDGA1041+039009079GF104991041001999999071001MA1999999101501MD1999999-0241REMSYN076AAXX  24094 61489 42960 43610 10258 20180 30150 40157 84070 333 59024 84363;
0208614890999992000052418004+16500-015820FM-12+0006GQNR V0203601N006212200019N0070001N1+04081+01491101031ADDAA199000091GA1041+039009079GF104991041001999999071001KA1120M+04251MA1999999100961MD1999999-0171REMSYN082AAXX  24184 61489 32957 43612 10408 20149 30096 40103 84070 333 10425 59017 84363;EQDQ01  00002PRCP99
0195614890999992000052512004+16500-015820FM-12+0006GQNR V0200401N008212200019N0015001N1+04001+00281101261ADDAA199000091GA1001+999999999GF100991001001999999001001MA1999999101191MD1999999-0211MW1071REMSYN076AAXX  25124 61489 31915 00416 10400 20028 30119 40126 707// 333 0//00 59021;EQDQ01  00002PRCP99
0202614890999992000052606004+16500-015820FM-12+0006GQNR V0203601N004112200019N0100001N1+02661+01601101201ADDAA199000091GA1001+999999999GF100991001001999999001001KA1120N+01551MA1999999101131MD1999999-0021REMSYN076AAXX  26064 61489 32960 03608 10266 20160 30113 40120 333 0//00 20155 59002;EQDQ01  00002PRCP99
0166614890999992000052609004+16500-015820FM-12+0006GQNR V0203601N005112200019N0100001N1+02961+01741999999ADDGA1001+999999999GF100991001001999999001001MA1999999101271MD1999999-0141REMSYN064AAXX  26094 61489 42960 03610 10296 20174 30127 4004/ 333 59014;EQDQ01+100403APOSLP
0195614890999992000052612004+16500-015820FM-12+0006GQNR V0200401N007212200019N0050001N1+03901+00771101101ADDAA199000091GA1001+999999999GF100991001001999999001001MA1999999101111MD1999999-0081MW1071REMSYN076AAXX  26124 61489 31950 00414 10390 20077 30111 40110 707// 333 0//00 59008;EQDQ01  00002PRCP99
0183614890999992000052712004+16500-015820FM-12+0006GQNR V0203601N004112200019N0100001N1+03221+01151101201ADDAA199000091GA1001+999999999GF100991001001999999001001MA1999999101131MD1999999+0021REMSYN070AAXX  27124 61489 33960 03608 10322 20115 30113 40120 333 0//00 58002;EQDQ01  00002PRCP99
0196614890999992000052718004+16500-015820FM-12+0006GQNR V0203601N006212200019N0080001N1+03201+01501100871ADDAA199000091GA1001+999999999GF100991001001999999001001KA1120M+03771MA1999999100801MD1999999+0131REMSYN070AAXX  27184 61489 32958 03612 10320 20150 30080 40087 333 10377 58013;EQDQ01  00002PRCP99
0202614890999992000052806004+16500-015820FM-12+0006GQNR V0203601N004112200019N0100001N1+01931+01671101121ADDAA199000091GA1001+999999999GF100991001001999999001001KA1120N+01921MA1999999101051MD1999999-0101REMSYN076AAXX  28064 61489 32960 03608 10193 20167 30105 40112 333 0//00 20192 59010;EQDQ01  00002PRCP99
0147614890999992000052809004+16500-015820FM-12+0006GQNR V0203601N005112200019N0100001N1+02281+01661101321ADDGA1001+999999999GF100991001001999999001001MA1999999101251MD1999999+0001REMSYN064AAXX  28094 61489 42960 03610 10228 20166 30125 40132 333 58000;
0183614890999992000052812004+16500-015820FM-12+0006GQNR V0203601N004112200019N0100001N1+03001+01341101201ADDAA199000091GA1001+999999999GF100991001001999999001001MA1999999101131MD1999999+0001REMSYN070AAXX  28124 61489 33960 03608 10300 20134 30113 40120 333 0//00 58000;EQDQ01  00002PRCP99
0196614890999992000052818004+16500-015820FM-12+0006GQNR V0203601N004112200019N0100001N1+03001+01251100821ADDAA199000091GA1001+999999999GF100991001001999999001001KA1120M+03561MA1999999100751MD1999999-0051REMSYN070AAXX  28184 61489 32960 03608 10300 20125 30075 40082 333 10356 59005;EQDQ01  00002PRCP99
0147614890999992000052909004+16500-015820FM-12+0006GQNR V0203601N005112200019N0100001N1+02381+01941101301ADDGA1001+999999999GF100991001001999999001001MA1999999101231MD1999999-0051REMSYN064AAXX  29094 61489 42960 03610 10238 20194 30123 40130 333 59005;
0183614890999992000052912004+16500-015820FM-12+0006GQNR V0203601N006212200019N0100001N1+03121+01371101251ADDAA199000091GA1001+999999999GF100991001001999999001001MA1999999101181MD1999999+0051REMSYN070AAXX  29124 61489 33960 03612 10312 20137 30118 40125 333 0//00 58005;EQDQ01  00002PRCP99
0196614890999992000052918004+16500-015820FM-12+0006GQNR V0203601N005112200019N0100001N1+03161+01311100911ADDAA199000091GA1001+999999999GF100991001001999999001001KA1120M+03601MA1999999100841MD1999999+0091REMSYN070AAXX  29184 61489 32960 03610 10316 20131 30084 40091 333 10360 58009;EQDQ01  00002PRCP99
0202614890999992000053006004+16500-015820FM-12+0006GQNR V0203601N005112200019N0100001N1+01981+01481101191ADDAA199000091GA1001+999999999GF100991001001999999001001KA1120N+01861MA1999999101121MD1999999+0021REMSYN076AAXX  30064 61489 32960 03610 10198 20148 30112 40119 333 0//00 20186 58002;EQDQ01  00002PRCP99
0147614890999992000053009004+16500-015820FM-12+0006GQNR V0203601N004112200019N0100001N1+02221+01701101441ADDGA1001+999999999GF100991001001999999001001MA1999999101371MD1999999+0141REMSYN064AAXX  30094 61489 42960 03608 10222 20170 30137 40144 333 58014;
0183614890999992000053012004+16500-015820FM-12+0006GQNR V0203601N003112200019N0100001N1+03381+00472101251ADDAA199000091GA1001+999999999GF100991001001999999001001MA1999999101181MD1999999+0001REMSYN070AAXX  30124 61489 33960 03606 10338 20047 30118 40125 333 0//00 58000;EQDQ01  00002PRCP99
0147614890999992000053015004+16500-015820FM-12+0006GQNR V0209999C000012200019N0100001N1+04081+01191101061ADDGA1001+999999999GF100991001001999999001001MA1999999100991MD1999999+0001REMSYN064AAXX  30154 61489 42960 00000 10408 20119 30099 40106 333 58000;
0224614890999992000053018004+16500-015820FM-12+0006GQNR V0200801N008212200019N0060001N1+03621+01411100871ADDAA199000091AY101061AY201061GA1001+999999999GF100991001001999999001001KA1120M+04261MA1999999100801MD1999999-0041MW1071REMSYN076AAXX  30184 61489 31956 00816 10362 20141 30080 40087 70700 333 10426 59004;EQDQ01  00002PRCP99
0202614890999992000053106004+16500-015820FM-12+0006GQNR V0203601N003112200019N0100001N1+02201+01611100971ADDAA199000091GA1001+999999999GF100991001001999999001001KA1120N+02061MA1999999100901MD1999999-0261REMSYN076AAXX  31064 61489 32960 03606 10220 20161 30090 40097 333 0//00 20206 59026;EQDQ01  00002PRCP99
0147614890999992000053109004+16500-015820FM-12+0006GQNR V0209999C000012200019N0100001N1+02351+01731101121ADDGA1001+999999999GF100991001001999999001001MA1999999101051MD1999999-0321REMSYN064AAXX  31094 61489 42960 00000 10235 20173 30105 40112 333 59032;
0195614890999992000053112004+16500-015820FM-12+0006GQNR V0209999C000012200019N0060001N1+03601+00981101211ADDAA199000091GA1001+999999999GF100991001001999999001001MA1999999101141MD1999999-0041MW1061REMSYN076AAXX  31124 61489 31956 00000 10360 20098 30114 40121 706// 333 0//00 59004;EQDQ01  00002PRCP99
0175614890999992000053115004+16500-015820FM-12+0006GQNR V0200401N008212200019N0045001N1+04501+01251100871ADDAY101031AY201031GA1001+999999999GF100991001001999999001001MA1999999100801MD1999999-0191MW1071REMSYN070AAXX  31154 61489 41945 00416 10450 20125 30080 40087 70700 333 59019;
0224614890999992000053118004+16500-015820FM-12+0006GQNR V0203201N008212200019N0050001N1+04001+01511100791ADDAA199000091AY101061AY201061GA1001+999999999GF100991001001999999001001KA1120M+04601MA1999999100721MD1999999-0081MW1071REMSYN076AAXX  31184 61489 31950 03216 10400 20151 30072 40079 70700 333 10460 59008;EQDQ01  00002PRCP99
0226614890999992000060106004+16500-015820FM-12+0006GQNR V0202801N008212200019N0050001N1+02361+01021100871ADDAA199000091GA1031+039009079GF103991031001999999031001KA1120N+02261MA1999999100801MD1999999-0101MW1071REMSYN094AAXX  01064 61489 31950 32816 10236 20102 30080 40087 707// 83030 333 0//00 20226 59010 83363;EQDQ01  00002PRCP99
0187614890999992000060109004+16500-015820FM-12+0006GQNR V0203201N008212200019N0045001N1+02451+01091101021ADDAY101031AY201031GA1021+039009079GF102991021001999999071001MA1999999100951MD1999999-0101MW1071REMSYN082AAXX  01094 61489 41945 23216 10245 20109 30095 40102 70700 82070 333 59010 82363;
0187614890999992000060115004+16500-015820FM-12+0006GQNR V0203201N005112200019N0060001N1+03721+01471100911ADDAY101031AY201031GA1031+039009079GF103991031001999999031001MA1999999100841MD1999999+0041MW1061REMSYN082AAXX  01154 61489 41956 33210 10372 20147 30084 40091 70600 83030 333 58004 83363;
0214614890999992000060206004+16500-015820FM-12+0006GQNR V0202201N005110390019N0080001N1+02331+01441101241ADDAA199000091GA1051+039009079GF105991051001999999071001KA1120N+02241MA1999999101171MD1999999+0371REMSYN088AAXX  02064 61489 32958 52210 10233 20144 30117 40124 85070 333 0//00 20224 58037 85363;EQDQ01  00002PRCP99
0187614890999992000060209004+16500-015820FM-12+0006GQNR V0202201N006212200019N0070001N1+02501+01671101321ADDAY101031AY201031GA1031+039009079GF103991031001999999071001MA1999999101251MD1999999+0301MW1061REMSYN082AAXX  02094 61489 42957 32212 10250 20167 30125 40132 70600 83070 333 58030 83363;
0207614890999992000060212004+16500-015820FM-12+0006GQNR V0202201N008212200019N0040001N1+03241+01331101361ADDAA199000091GA1031+069009019GF103991001001999999001011MA1999999101291MD1999999+0191MW1071REMSYN088AAXX  02124 61489 31940 32216 10324 20133 30129 40136 707// 80001 333 0//00 58019 83073;EQDQ01  00002PRCP99
0175614890999992000060215004+16500-015820FM-12+0006GQNR V0202801N011312200019N0025001N1+03201+01271101061ADDAY101031AY201031GA1001+999999999GF100991001001999999001001MA1999999100991MD1999999+0151MW1071REMSYN070AAXX  02154 61489 41925 02822 10320 20127 30099 40106 70700 333 58015;
0224614890999992000060218004+16500-015820FM-12+0006GQNR V0202801N008212200019N0035001N1+03041+01131100991ADDAA199000091AY101061AY201061GA1001+999999999GF100991001001999999001001KA1120M+03351MA1999999100921MD1999999+0141MW1071REMSYN076AAXX  02184 61489 31935 02816 10304 20113 30092 40099 70700 333 10335 58014;EQDQ01  00002PRCP99
0220614890999992000060306004+16500-015820FM-12+0006GQNR V0202801N005112200019N0050001N1+02301+01411101201ADDAA199000091GA1031+039009079GF103991031001999999071001KA1120N+02141MA1999999101131MD1999999-0061MW1061REMSYN088AAXX  03064 61489 31950 32810 10230 20141 30113 40120 706// 83070 333 20214 59006 83363;EQDQ01  00002PRCP99
0187614890999992000060309004+16500-015820FM-12+0006GQNR V0202201N005112200019N0040001N1+02421+01491101271ADDAY101031AY201031GA1021+039009079GF102991021001999999071001MA1999999101201MD1999999-0051MW1061REMSYN082AAXX  03094 61489 41940 22210 10242 20149 30120 40127 70600 82070 333 59005 82363;
0195614890999992000060312004+16500-015820FM-12+0006GQNR V0202801N003112200019N0060001N1+03081+01551101321ADDAA199000091GA1001+999999999GF100991001001999999001001MA1999999101251MD1999999-0041MW1061REMSYN076AAXX  03124 61489 31956 02806 10308 20155 30125 40132 706// 333 0//00 59004;EQDQ01  00002PRCP99
0195614890999992000060412004+16500-015820FM-12+0006GQNR V0202801N002612200019N0060001N1+03171+01431101321ADDAA199000091GA1001+999999999GF100991001001999999001001MA1999999101251MD1999999+0001MW1061REMSYN076AAXX  04124 61489 31956 02805 10317 20143 30125 40132 706// 333 0//00 58000;EQDQ01  00002PRCP99
0175614890999992000060415004+16500-015820FM-12+0006GQNR V0202801N006212200019N0060001N1+03721+01331101011ADDAY101031AY201031GA1001+999999999GF100991001001999999001001MA1999999100941MD1999999-0091MW1061REMSYN070AAXX  04154 61489 41956 02812 10372 20133 30094 40101 70600 333 59009;
0224614890999992000060418004+16500-015820FM-12+0006GQNR V0202801N008212200019N0045001N1+03321+01251100921ADDAA199000091AY101061AY201061GA1001+999999999GF100991001001999999001001KA1120M+03931MA1999999100851MD1999999+0011MW1071REMSYN076AAXX  04184 61489 31945 02816 10332 20125 30085 40092 70700 333 10393 58001;EQDQ01  00002PRCP99
0226614890999992000060506004+16500-015820FM-12+0006GQNR V0209999C000012200019N0050001N1+01951+00831101271ADDAA199000091GA1041+039009079GF104991041001999999071001KA1120N+01901MA1999999101201MD1999999+0171MW1061REMSYN094AAXX  05064 61489 31950 40000 10195 20083 30120 40127 706// 84070 333 0//00 20190 58017 84363;EQDQ01  00002PRCP99
0236614890999992000060518004+16500-015820FM-12+0006GQNR V0202801N008210390019N0060001N1+03401+00991101011ADDAA199000091AY121061AY221061GA1061+039009079GF106991061001999999071001KA1120M+03751MA1999999100941MD1999999+0091MW1071REMSYN088AAXX  05184 61489 31956 62816 10340 20099 30094 40101 70722 86070 333 10375 58009 86363;EQDQ01  00002PRCP99
0187614890999992000060609004+16500-015820FM-12+0006GQNR V0203201N006212200019N0050001N1+02331+00911101341ADDAY111031AY211031GA1041+039009079GF104991041001999999071001MA1999999101271MD1999999-0031MW1061REMSYN082AAXX  06094 61489 41950 43212 10233 20091 30127 40134 70611 84070 333 59003 84363;
0195614890999992000060612004+16500-015820FM-12+0006GQNR V0203201N006210390019N0080001N1+03191+01331101441ADDAA199000091GA1051+039009079GF105991051001999999071001MA1999999101371MD1999999+0091REMSYN082AAXX  06124 61489 33958 53212 10319 20133 30137 40144 85070 333 0//00 58009 85363;EQDQ01  00002PRCP99
0224614890999992000060618004+16500-015820FM-12+0006GQNR V0203201N009312200019N0040001N1+03331+01131101081ADDAA199000091AY101061AY201061GA1001+999999999GF100991001001999999001001KA1120M+03681MA1999999101011MD1999999+0071MW1071REMSYN076AAXX  06184 61489 31940 03218 10333 20113 30101 40108 70700 333 10368 58007;EQDQ01  00002PRCP99
0202614890999992000060706004+16500-015820FM-12+0006GQNR V0209999C000012200019N0080001N1+02141+01311101271ADDAA199000091GA1001+999999999GF100991001001999999001001KA1120N+02101MA1999999101201MD1999999+0021REMSYN076AAXX  07064 61489 32958 00000 10214 20131 30120 40127 333 0//00 20210 58002;EQDQ01  00002PRCP99
0147614890999992000060709004+16500-015820FM-12+0006GQNR V0203201N004112200019N0080001N1+02401+01551101401ADDGA1001+999999999GF100991001001999999001001MA1999999101331MD1999999+0061REMSYN064AAXX  07094 61489 42958 03208 10240 20155 30133 40140 333 58006;
0195614890999992000060712004+16500-015820FM-12+0006GQNR V0203201N008212200019N0060001N1+03201+01171101361ADDAA199000091GA1001+999999999GF100991001001999999001001MA1999999101291MD1999999-0081MW1071REMSYN076AAXX  07124 61489 31956 03216 10320 20117 30129 40136 707// 333 0//00 59008;EQDQ01  00002PRCP99
0175614890999992000060809004+16500-015820FM-12+0006GQNR V0203201N008212200019N0050001N1+02341+00751101271ADDAY101031AY201031GA1001+999999999GF100991001001999999001001MA1999999101201MD1999999-0131MW1071REMSYN070AAXX  08094 61489 41950 03216 10234 20075 30120 40127 70700 333 59013;
0175614890999992000060815004+16500-015820FM-12+0006GQNR V0203601N008212200019N0035001N1+03331+01131101071ADDAY101031AY201031GA1001+999999999GF100991001001999999001001MA1999999101001MD1999999-0061MW1071REMSYN070AAXX  08154 61489 41935 03616 10333 20113 30100 40107 70700 333 59006;
0224614890999992000060818004+16500-015820FM-12+0006GQNR V0203601N007212200019N0040001N1+03201+01171100951ADDAA199000091AY101061AY201061GA1001+999999999GF100991001001999999001001KA1120M+03501MA1999999100881MD1999999-0111MW1071REMSYN076AAXX  08184 61489 31940 03614 10320 20117 30088 40095 70700 333 10350 59011;EQDQ01  00002PRCP99
0195614890999992000060912004+16500-015820FM-12+0006GQNR V0203201N003110390019N0080001N1+02981+01001101361ADDAA199000091GA1051+039009079GF105991051001999999071001MA1999999101291MD1999999+0081REMSYN082AAXX  09124 61489 33958 53206 10298 20100 30129 40136 85070 333 0//00 58008 85363;EQDQ01  00002PRCP99
0159614890999992000060915004+16500-015820FM-12+0006GQNR V0202201N004112200019N0080001N1+03471+00931101131ADDGA1041+039009079GF104991041001999999071001MA1999999101061MD1999999+0061REMSYN076AAXX  09154 61489 42958 42208 10347 20093 30106 40113 84070 333 58006 84363;
0236614890999992000060918004+16500-015820FM-12+0006GQNR V0202801N008212200019N0060001N1+03161+01011101061ADDAA199000091AY101061AY201061GA1031+039009079GF103991031001999999071001KA1120M+03551MA1999999100991MD1999999+0111MW1071REMSYN088AAXX  09184 61489 31956 32816 10316 20101 30099 40106 70700 83070 333 10355 58011 83363;EQDQ01  00002PRCP99
0214614890999992000061006004+16500-015820FM-12+0006GQNR V0209999C000012200019N0100001N1+02251+99999101351ADDAA199000091GA1031+069009019GF103991001001999999001011KA1120N+02161MA1999999101181MD1999999+0131REMSYN088AAXX  10064 61489 32960 30000 10225 20235 30118 40135 80001 333 0//00 20216 58013 83073;EQDQ01  00002PRCP99
0165614890999992000061009004+16500-015820FM-12+0006GQNR V0209999C000019999999N0080001N1+02461+01521101341ADDGA1031+039009039GF105991031001999999071021MA1999999101271MD1999999+0051REMSYN082AAXX  10094 61489 42958 50000 10246 20152 30127 40134 83072 333 58005 83363 82073;
0195614890999992000061012004+16500-015820FM-12+0006GQNR V0209999C000012200019N0080001N1+03071+01471101501ADDAA199000091GA1041+039009079GF104991041001999999071001MA1999999101431MD1999999+0141REMSYN082AAXX  10124 61489 33958 40000 10307 20147 30143 40150 84070 333 0//00 58014 84363;EQDQ01  00002PRCP99
0159614890999992000061015004+16500-015820FM-12+0006GQNR V0202801N006212200019N0080001N1+03721+01071101271ADDGA1031+039009079GF103991031001999999071001MA1999999101201MD1999999+0141REMSYN076AAXX  10154 61489 42958 32812 10372 20107 30120 40127 83070 333 58014 83363;
0214614890999992000061106004+16500-015820FM-12+0006GQNR V0202801N003112200019N0080001N1+02351+01291101321ADDAA199000091GA1031+069009019GF103991001001999999001011KA1120N+02251MA1999999101251MD1999999+0071REMSYN088AAXX  11064 61489 32958 32806 10235 20129 30125 40132 80001 333 0//00 20225 58007 83073;EQDQ01  00002PRCP99
0159614890999992000061109004+16500-015820FM-12+0006GQNR V0202801N004112200019N0080001N1+02521+01451101411ADDGA1041+069009019GF104991001001999999001011MA1999999101341MD1999999+0071REMSYN076AAXX  11094 61489 42958 42808 10252 20145 30134 40141 80001 333 58007 84073;
0195614890999992000061112004+16500-015820FM-12+0006GQNR V0203601N003112200019N0080001N1+03271+01191101431ADDAA199000091GA1031+039009079GF103991031001999999031001MA1999999101361MD1999999-0071REMSYN082AAXX  11124 61489 33958 33606 10327 20119 30136 40143 83030 333 0//00 59007 83363;EQDQ01  00002PRCP99
0165614890999992000061115004+16500-015820FM-12+0006GQNR V0203201N005119999999N0080001N1+03901+01051101111ADDGA1031+039009039GF106991031001999999071021MA1999999101041MD1999999-0161REMSYN082AAXX  11154 61489 42958 63210 10390 20105 30104 40111 83072 333 59016 83363 84073;
0236614890999992000061118004+16500-015820FM-12+0006GQNR V0202801N009310690019N0050001N1+03381+01671101031ADDAA199000091AY121061AY221061GA1051+069009019GF105991001001999999001021KA1120M+03991MA1999999100961MD1999999-0081MW1071REMSYN088AAXX  11184 61489 31950 52818 10338 20167 30096 40103 70722 80002 333 10399 59008 85073;EQDQ01  00002PRCP99
0207614890999992000061212004+16500-015820FM-12+0006GQNR V0203201N008210690019N0040001N1+03101+01111101341ADDAA199000091GA1051+069009019GF105991001001999999001021MA1999999101271MD1999999-0091MW1071REMSYN088AAXX  12124 61489 31940 53216 10310 20111 30127 40134 707// 80002 333 0//00 59009 85073;EQDQ01  00002PRCP99
0224614890999992000061218004+16500-015820FM-12+0006GQNR V0202801N009312200019N0025001N1+03281+01131100971ADDAA199000091AY101061AY201061GA1001+999999999GF100991001001999999001001KA1120M+03591MA1999999100901MD1999999-0071MW1071REMSYN076AAXX  12184 61489 31925 02818 10328 20113 30090 40097 70700 333 10359 59007;EQDQ01  00002PRCP99
0224614890999992000061318004+16500-015820FM-12+0006GQNR V0202801N009312200019N0025001N1+03401+00941100991ADDAA199000091AY101061AY201061GA1001+999999999GF100991001001999999001001KA1120M+03721MA1999999100921MD1999999+0021MW1071REMSYN076AAXX  13184 61489 31925 02818 10340 20094 30092 40099 70700 333 10372 58002;EQDQ01  00002PRCP99
0260614890999992000061406004+16500-015820FM-12+0006GQNR V0209999C000010390019N0040001N1+02351+00791101241ADDAA199000091GA1031+006009079GA2041+039009039GF105991031061001501071001KA1120N+02271MA1999999101171MD1999999+0091MW1061REMSYN112AAXX  14064 61489 31240 50000 10235 20079 30117 40124 706// 83670 333 0//00 20227 58009 83720 84363 94926 95876;EQDQ01  00002PRCP99
0222614890999992000061409004+16500-015820FM-12+0006GQNR V0202801N004112200019N0030001N1+02451+00951101321ADDAY111031AY211031GA1061+069009019GF199999021061001501071999MA1999999101251MD1999999-0101MW1061REMSYN082AAXX  14094 61489 41230 42808 10245 20095 30125 40132 70611 82670 333 59010 86073;EQDQ01+000042SCOTCVQ02+000002SCOHCG
0183614890999992000061412004+16500-015820FM-12+0006GQNR V0203201N003112200019N0100001N1+03041+02021101391ADDAA199000091GA1001+999999999GF100991001001999999001001MA1999999101321MD1999999-0011REMSYN070AAXX  14124 61489 32960 03206 10304 20202 30132 40139 333 0//00 59001;EQDQ01  00002PRCP99
0166614890999992000061415004+16500-015820FM-12+0006GQNR V0203601N002112200019N0100001N1+03601+01881101151ADDGA1001+999999999GF100991001001999999001001MA1999999100302MD1999999+0011REMSYN064AAXX  14154 61489 42960 03604 10360 20188 30030 40115 333 58001;EQDQ01+100303APOSP 
0189614890999992000061512004+16500-015820FM-12+0006GQNR V0203201N007212200019N0060001N1+03181+01941999999ADDAA199000091GA1001+999999999GF100991001001999999001001MA1999999101011MD1999999-0311MW1071REMSYN070AAXX  15124 61489 31956 03214 10318 20194 30101 707// 333 0//00 59031;EQDQ01  00002PRCP99
0183614890999992000061612004+16500-015820FM-12+0006GQNR V0203201N005112200019N0100001N1+03101+01981101091ADDAA199000091GA1001+999999999GF100991001001999999001001MA1999999101021MD1999999+0021REMSYN070AAXX  16124 61489 33960 03210 10310 20198 30102 40109 333 0//00 58002;EQDQ01  00002PRCP99
0147614890999992000061615004+16500-015820FM-12+0006GQNR V0203201N004112200019N0100001N1+03521+02121100901ADDGA1001+999999999GF100991001001999999001001MA1999999100831MD1999999+0031REMSYN064AAXX  16154 61489 42960 03208 10352 20212 30083 40090 333 58003;
0196614890999992000061618004+16500-015820FM-12+0006GQNR V0202801N005112200019N0100001N1+03321+01581100771ADDAA199000091GA1001+999999999GF100991001001999999001001KA1120M+03641MA1999999100701MD1999999-0011REMSYN070AAXX  16184 61489 32960 02810 10332 20158 30070 40077 333 10364 59001;EQDQ01  00002PRCP99
0147614890999992000061715004+16500-015820FM-12+0006GQNR V0202801N005112200019N0100001N1+03361+02261101111ADDGA1001+999999999GF100991001001999999001001MA1999999101041MD1999999+0211REMSYN064AAXX  17154 61489 42960 02810 10336 20226 30104 40111 333 58021;
0196614890999992000061718004+16500-015820FM-12+0006GQNR V0202801N004112200019N0100001N1+03041+01921100931ADDAA199000091GA1001+999999999GF100991001001999999001001KA1120M+03531MA1999999100861MD1999999+0161REMSYN070AAXX  17184 61489 32960 02808 10304 20192 30086 40093 333 10353 58016;EQDQ01  00002PRCP99
0183614890999992000061812004+16500-015820FM-12+0006GQNR V0202801N004112200019N0100001N1+03161+02161101391ADDAA199000091GA1001+999999999GF100991001001999999001001MA1999999101321MD1999999+0101REMSYN070AAXX  18124 61489 33960 02808 10316 20216 30132 40139 333 0//00 58010;EQDQ01  00002PRCP99
0147614890999992000061815004+16500-015820FM-12+0006GQNR V0202801N005112200019N0100001N1+03461+01861101061ADDGA1001+999999999GF100991001001999999001001MA1999999100991MD1999999-0051REMSYN064AAXX  18154 61489 42960 02810 10346 20186 30099 40106 333 59005;
0147614890999992000061915004+16500-015820FM-12+0006GQNR V0202801N006212200019N0080001N1+02521+02081101071ADDGA1001+999999999GF100991001001999999001001MA1999999101001MD1999999+0011REMSYN064AAXX  19154 61489 42958 02812 10252 20208 30100 40107 333 58001;
0147614890999992000062009004+16500-015820FM-12+0006GQNR V0202801N005112200019N0100001N1+02501+02201101221ADDGA1001+999999999GF100991001001999999001001MA1999999101151MD1999999-0091REMSYN064AAXX  20094 61489 42960 02810 10250 20220 30115 40122 333 59009;
0147614890999992000062015004+16500-015820FM-12+0006GQNR V0202801N003112200019N0100001N1+03521+02011100871ADDGA1001+999999999GF100991001001999999001001MA1999999100801MD1999999-0201REMSYN064AAXX  20154 61489 42960 02806 10352 20201 30080 40087 333 59020;
0159614890999992000062109004+16500-015820FM-12+0006GQNR V0202801N005112200019N0100001N1+02681+02431101471ADDGA1041+039009079GF104991041001999999071001MA1999999101401MD1999999+0251REMSYN076AAXX  21094 61489 42960 42810 10268 20243 30140 40147 84070 333 58025 84363;
0195614890999992000062112004+16500-015820FM-12+0006GQNR V0202801N005110390019N0100001N1+03321+01711101461ADDAA199000091GA1061+039009079GF106991061001999999071001MA1999999101371MD1999999+0381REMSYN082AAXX  21124 61489 33960 62810 10332 20171 30137 40146 86070 333 0//00 58038 86363;EQDQ01  00002PRCP99
0196614890999992000062118004+16500-015820FM-12+0006GQNR V0202801N005112200019N0100001N1+03301+01591101181ADDAA199000091GA1001+999999999GF100991001001999999001001KA1120M+03831MA1999999101111MD1999999+0431REMSYN070AAXX  21184 61489 32960 02810 10330 20159 30111 40118 333 10383 58043;EQDQ01  00002PRCP99
0159614890999992000062209004+16500-015820FM-12+0006GQNR V0202801N005110390019N0100001N1+02581+02321101521ADDGA1071+039009079GF107991071001999999071999MA1999999101351MD1999999+0051REMSYN076AAXX  22094 61489 42960 72810 10258 20232 30135 40152 8707/ 333 58005 87363;
0195614890999992000062212004+16500-015820FM-12+0006GQNR V0202801N006212200019N0100001N1+03361+01881101441ADDAA199000091GA1041+039009079GF104991041001000251071001MA1999999101371MD1999999+0001REMSYN082AAXX  22124 61489 33060 42812 10336 20188 30137 40144 84070 333 0//00 58000 84363;EQDQ01  00002PRCP99
0159614890999992000062215004+16500-015820FM-12+0006GQNR V0202801N008212200019N0100001N1+03901+01991101211ADDGA1041+039009079GF104991041001999999071001MA1999999101141MD1999999+0041REMSYN076AAXX  22154 61489 42960 42816 10390 20199 30114 40121 84070 333 58004 84363;
0224614890999992000062218004+16500-015820FM-12+0006GQNR V0202801N005112200019N0100001N1+03641+01581101001ADDAA199000091GA1041+039009079GF199999041001999999071001KA1120M+04051MA1999999100931MD1999999-0181REMSYN082AAXX  22184 61489 32960 32810 10364 20158 30093 40100 84070 333 10405 59018 84363;EQDQ01+000032SCOTCVQ02  00002PRCP99
0147614890999992000062309004+16500-015820FM-12+0006GQNR V0209999C000012200019N0100001N1+02621+02301101451ADDGA1001+999999999GF100991001001999999001001MA1999999101381MD1999999-0071REMSYN064AAXX  23094 61489 42960 00000 10262 20230 30138 40145 333 59007;
0183614890999992000062312004+16500-015820FM-12+0006GQNR V0209999C000012200019N0100001N1+03521+01731101361ADDAA199000091GA1001+999999999GF100991001001999999001001MA1999999101291MD1999999-0081REMSYN070AAXX  23124 61489 33960 00000 10352 20173 30129 40136 333 0//00 59008;EQDQ01  00002PRCP99
0147614890999992000062315004+16500-015820FM-12+0006GQNR V0202801N005112200019N0100001N1+03841+01461101011ADDGA1001+999999999GF100991001001999999001001MA1999999100941MD1999999-0101REMSYN064AAXX  23154 61489 42960 02810 10384 20146 30094 40101 333 59010;
0196614890999992000062318004+16500-015820FM-12+0006GQNR V0200801N004112200019N0100001N1+03521+01041100851ADDAA199000091GA1001+999999999GF100991001001999999001001KA1120M+04001MA1999999100771MD1999999-0161REMSYN070AAXX  23184 61489 32960 00808 10352 20104 30077 40085 333 10400 59016;EQDQ01  00002PRCP99
0202614890999992000062406004+16500-015820FM-12+0006GQNR V0202801N004112200019N0100001N1+02381+02141101281ADDAA199000091GA1001+999999999GF100991001001999999001001KA1120N+02321MA1999999101211MD1999999+0001REMSYN076AAXX  24064 61489 32960 02808 10238 20214 30121 40128 333 0//00 20232 58000;EQDQ01  00002PRCP99
0147614890999992000062409004+16500-015820FM-12+0006GQNR V0202801N005112200019N0100001N1+02641+02261101401ADDGA1001+999999999GF100991001001999999001001MA1999999101331MD1999999-0051REMSYN064AAXX  24094 61489 42960 02810 10264 20226 30133 40140 333 59005;
0202614890999992000062506004+16500-015820FM-12+0006GQNR V0202801N004112200019N0100001N1+02361+02081101331ADDAA199000091GA1001+999999999GF100991001001999999001001KA1120N+02321MA1999999101261MD1999999+0051REMSYN076AAXX  25064 61489 32960 02808 10236 20208 30126 40133 333 0//00 20232 58005;EQDQ01  00002PRCP99
0159614890999992000062509004+16500-015820FM-12+0006GQNR V0202801N005110030019N0100001N1+02641+02191101471ADDGA1061+003009069GF106991061071002501001001MA1999999101401MD1999999+0071REMSYN076AAXX  25094 61489 42360 62810 10264 20219 30140 40147 86700 333 58007 86710;
0183614890999992000062512004+16500-015820FM-12+0006GQNR V0202801N004112200019N0100001N1+03061+02161101181ADDAA199000091GA1001+999999999GF100991001001999999001001MA1999999101111MD1999999-0071REMSYN070AAXX  25124 61489 33960 02808 10306 20216 30111 40118 333 0//00 59007;EQDQ01  00002PRCP99
0196614890999992000062518004+16500-015820FM-12+0006GQNR V0202801N004112200019N0100001N1+03021+01541100811ADDAA199000091GA1001+999999999GF100991001001999999001001KA1120M+03541MA1999999100741MD1999999-0111REMSYN070AAXX  25184 61489 32960 02808 10302 20154 30074 40081 333 10354 59011;EQDQ01  00002PRCP99
0159614890999992000062609004+16500-015820FM-12+0006GQNR V0202801N005119999999N0100001N1+02581+02161101541ADDGA1041+039009079GF105991041001999999071021MA1999999101471MD1999999+0081REMSYN076AAXX  26094 61489 42960 52810 10258 20216 30147 40154 84072 333 58008 84363;
0183614890999992000062612004+16500-015820FM-12+0006GQNR V0202801N004112200019N0100001N1+03571+02001101441ADDAA199000091GA1001+999999999GF100991001001999999001001MA1999999101371MD1999999+0261REMSYN070AAXX  26124 61489 33960 02808 10357 20200 30137 40144 333 0//00 58026;EQDQ01  00002PRCP99
0159614890999992000062615004+16500-015820FM-12+0006GQNR V0202801N005112200019N0100001N1+03781+02281101101ADDGA1041+039009079GF104991041001999999071001MA1999999101031MD1999999+0171REMSYN076AAXX  26154 61489 42960 42810 10378 20228 30103 40110 84070 333 58017 84363;
0202614890999992000062706004+16500-015820FM-12+0006GQNR V0202801N005112200019N0100001N1+02481+02121101411ADDAA199000091GA1001+999999999GF100991001001999999001001KA1120N+02321MA1999999101341MD1999999+0021REMSYN076AAXX  27064 61489 32960 02810 10248 20212 30134 40141 333 0//00 20232 58002;EQDQ01  00002PRCP99
0159614890999992000062709004+16500-015820FM-12+0006GQNR V0202801N004112200019N0100001N1+02701+02321101561ADDGA1041+039009079GF104991041001999999071001MA1999999101491MD1999999+0021REMSYN076AAXX  27094 61489 42960 42808 10270 20232 30149 40156 84070 333 58002 84363;
0147614890999992000062715004+16500-015820FM-12+0006GQNR V0202801N004112200019N0100001N1+04001+01941101101ADDGA1001+999999999GF100991001001999999001001MA1999999101031MD1999999+0001REMSYN064AAXX  27154 61489 42960 02808 10400 20194 30103 40110 333 58000;
0196614890999992000062718004+16500-015820FM-12+0006GQNR V0202801N005112200019N0100001N1+03721+01481100921ADDAA199000091GA1001+999999999GF100991001001999999001001KA1120M+04151MA1999999100851MD1999999-0261REMSYN070AAXX  27184 61489 32960 02810 10372 20148 30085 40092 333 10415 59026;EQDQ01  00002PRCP99
0202614890999992000062806004+16500-015820FM-12+0006GQNR V0202801N004112200019N0100001N1+02481+02191101191ADDAA199000091GA1001+999999999GF100991001001999999001001KA1120N+02401MA1999999101121MD1999999-0131REMSYN076AAXX  28064 61489 32960 02808 10248 20219 30112 40119 333 0//00 20240 59013;EQDQ01  00002PRCP99
0159614890999992000062809004+16500-015820FM-12+0006GQNR V0202801N004112200019N0100001N1+02741+02321101421ADDGA1041+003009069GF104991041071002501001001MA1999999101351MD1999999-0141REMSYN076AAXX  28094 61489 42360 42808 10274 20232 30135 40142 84700 333 59014 84710;
0183614890999992000062812004+16500-015820FM-12+0006GQNR V0202801N004112200019N0100001N1+03321+01172101251ADDAA199000091GA1001+999999999GF100991001001999999001001MA1999999101181MD1999999-0171REMSYN070AAXX  28124 61489 33960 02808 10332 20117 30118 40125 333 0//00 59017;EQDQ01  00002PRCP99
0147614890999992000062815004+16500-015820FM-12+0006GQNR V0202801N005112200019N0100001N1+03621+02071100901ADDGA1001+999999999GF100991001001999999001001MA1999999100831MD1999999-0201REMSYN064AAXX  28154 61489 42960 02810 10362 20207 30083 40090 333 59020;
0196614890999992000062818004+16500-015820FM-12+0006GQNR V0202801N003112200019N0100001N1+03301+01561100781ADDAA199000091GA1001+999999999GF100991001001999999001001KA1120M+03801MA1999999100711MD1999999-0141REMSYN070AAXX  28184 61489 32960 02806 10330 20156 30071 40078 333 10380 59014;EQDQ01  00002PRCP99
0214614890999992000062906004+16500-015820FM-12+0006GQNR V0203601N004112200019N0100001N1+02531+02131101051ADDAA199000091GA1031+039009079GF103991031001999999071001KA1120N+02341MA1999999100981MD1999999-0021REMSYN088AAXX  29064 61489 32960 33608 10253 20213 30098 40105 83070 333 0//00 20234 59002 83363;EQDQ01  00002PRCP99
0201614890999992000062912004+16500-015820FM-12+0006GQNR V0202801N00411045001CN0100001N1+03001+01861101661ADDAA199000091GA1021+009009059GF107991021061008001071001MA1999999101591MD1999999+0411REMSYN088AAXX  29124 61489 33560 72808 10300 20186 30159 40166 82670 333 0//00 58041 82530 84363;EQDQ01  00002PRCP99
0159614890999992000062915004+16500-015820FM-12+0006GQNR V0202801N005110390019N0100001N1+03641+02061101311ADDGA1051+039009079GF105991051001999999071001MA1999999101241MD1999999+0411REMSYN076AAXX  29154 61489 42960 52810 10364 20206 30124 40131 85070 333 58041 85363;
0208614890999992000062918004+16500-015820FM-12+0006GQNR V0202801N006210390019N0100001N1+03551+01461101261ADDAA199000091GA1051+039009079GF105991051001999999071001KA1120M+03831MA1999999101191MD1999999+0481REMSYN082AAXX  29184 61489 32960 52812 10355 20146 30119 40126 85070 333 10383 58048 85363;EQDQ01  00002PRCP99
0159614890999992000063009004+16500-015820FM-12+0006GQNR V0202801N003112200019N0100001N1+02861+02321101471ADDGA1041+039009079GF104991041001999999071001MA1999999101301MD1999999-0081REMSYN076AAXX  30094 61489 42960 42806 10286 20232 30130 40147 84070 333 59008 84363;
0173614890999992000063012004+16500-015820FM-12+0006GQNR V0202601N004119999999N0100001N1+03321+01222101251ADDAA199000091GF106991061001999999071001MA1999999101181MD1999999-0281REMSYN076AAXX  30124 61489 33960 62608 10332 20122 30118 40125 86070 333 0//00 59028;EQDQ01  00002PRCP99
0208614890999992000063018004+16500-015820FM-12+0006GQNR V0202801N005119999999N0100001N1+03301+01341100911ADDAA199000091GA1041+039009079GF106991051001999999071021KA1120M+03771MA1999999100841MD1999999-0351REMSYN082AAXX  30184 61489 32960 62810 10330 20134 30084 40091 85072 333 10377 59035 84363;EQDQ01  00002PRCP99
0196614890999992000070118004+16500-015820FM-12+0006GQNR V0202801N003112200019N0100001N1+03301+01641100671ADDAA199000091GA1001+999999999GF100991001001999999001001KA1120M+03831MA1999999100601MD1999999-0171REMSYN070AAXX  01184 61489 32960 02806 10330 20164 30060 40067 333 10383 59017;EQDQ01  00002PRCP99
0202614890999992000070206004+16500-015820FM-12+0006GQNR V0202801N004112200019N0100001N1+02401+02181101151ADDAA199000091GA1001+999999999GF100991001001999999001001KA1120N+02321MA1999999101081MD1999999+0151REMSYN076AAXX  02064 61489 32960 02808 10240 20218 30108 40115 333 0//00 20232 58015;EQDQ01  00002PRCP99
0195614890999992000070212004+16500-015820FM-12+0006GQNR V0202801N003110390019N0100001N1+03101+02291101321ADDAA199000091GA1051+039009079GF105991051001999999071001MA1999999101251MD1999999+0151REMSYN082AAXX  02124 61489 33960 52806 10310 20229 30125 40132 85070 333 0//00 58015 85363;EQDQ01  00002PRCP99
0159614890999992000070215004+16500-015820FM-12+0006GQNR V0202801N004112200019N0100001N1+03451+02251101131ADDGA1041+039009079GF104991041001999999071001MA1999999101061MD1999999+0301REMSYN076AAXX  02154 61489 42960 42808 10345 20225 30106 40113 84070 333 58030 84363;
0236614890999992000070218004+16500-015820FM-12+0006GQNR V0202801N007212200019N0060001N1+03351+02171100991ADDAA199000091AY101061AY201061GA1031+039009079GF103991031001999999071001KA1120M+03581MA1999999100921MD1999999+0321MW1071REMSYN088AAXX  02184 61489 31956 32814 10335 20217 30092 40099 70700 83070 333 10358 58032 83363;EQDQ01  00002PRCP99
0193614890999992000070409004+16500-015820FM-12+0006GQNR V0202801N008212200019N0050001N1+02581+02171101341ADDGA1031+001509079GA2021+039009039GF103991031061001501071001MA1999999091271MD1999999-0051REMSYN094AAXX  04094 61489 41250 32816 10258 20217 39127 40134 83670 333 59005 83705 82363 94925 95836;
0223614890999992000070412004+16500-015820FM-12+0006GQNR V0202801N009312200019N0035001N1+03021+02131101421ADDAA199000091GA1031+039009079GF103991031001999999071001MA1999999101352MD1999999-0041MW1071REMSYN088AAXX  04124 61489 31935 32818 10302 20213 30135 40142 707// 83070 333 0//00 59004 83363;EQDQ01+101353APOSP Q02  00002PRCP99
0224614890999992000070418004+16500-015820FM-12+0006GQNR V0202801N008212200019N0050001N1+02961+02151101001ADDAA199000091AY101061AY201061GA1001+999999999GF100991001001999999001001KA1120M+03401MA1999999100931MD1999999-0021MW1071REMSYN076AAXX  04184 61489 31950 02816 10296 20215 30093 40100 70700 333 10340 59002;EQDQ01  00002PRCP99
0226614890999992000070506004+16500-015820FM-12+0006GQNR V0202801N004112200019N0060001N1+02451+01271101181ADDAA199000091GA1031+039009079GF103991031001999999071001KA1120N+02341MA1999999101111MD1999999-0081MW1061REMSYN094AAXX  05064 61489 31956 32808 10245 20127 30111 40118 706// 83070 333 0//00 20234 59008 83363;EQDQ01  00002PRCP99
0193614890999992000070509004+16500-015820FM-12+0006GQNR V0202801N00311045001CN0045001N1+02591+02131101281ADDAY121031AY221031GA1031+006009079GF105991031061001501071001MA1999999101291MD1999999-0061MW1061REMSYN088AAXX  05094 61489 41245 52806 10259 20213 30129 40128 70622 83670 333 59006 83720 83363;
0239614890999992000070512004+16500-015820FM-12+0006GQNR V0202801N004112200019N0060001N1+03121+01951101301ADDAA199000091GA1021+009009059GF199999999001999999001001MA1999999101231MD1999999-0121MW1061REMSYN088AAXX  05124 61489 31956 02808 10312 20195 30123 40130 706// 82500 333 0//00 59012 82630;EQDQ01+000002SCOTCVQ02+000002SCOTLCQ03  00002PRCP99
0207614890999992000070612004+16500-015820FM-12+0006GQNR V0209999C000012200019N0070001N1+03101+02051101481ADDAA199000091GA1031+069009019GF103991001001999999001011MA1999999101411MD1999999+0181MW1061REMSYN088AAXX  06124 61489 31957 30000 10310 20205 30141 40148 706// 80001 333 0//00 58018 83073;EQDQ01  00002PRCP99
0147614890999992000070615004+16500-015820FM-12+0006GQNR V0209999C000012200019N0080001N1+03741+01991101111ADDGA1001+999999999GF100991001001999999001001MA1999999101041MD1999999+0081REMSYN064AAXX  06154 61489 42958 00000 10374 20199 30104 40111 333 58008;
0165614890999992000070709004+16500-015820FM-12+0006GQNR V0209999C000019999999N0100001N1+02751+02301101551ADDGA1031+039009039GF106991031001999999071021MA1999999101481MD1999999+0121REMSYN082AAXX  07094 61489 42960 60000 10275 20230 30148 40155 83072 333 58012 83363 84073;
0193614890999992000070715004+16500-015820FM-12+0006GQNR V0209999C000010690019N0100001N1+03501+02191101381ADDGA1041+012009089GA2021+069009009GF106991041021012501001021MA1999999101311MD1999999+0271REMSYN094AAXX  07154 61489 42660 60000 10350 20219 30131 40138 84202 333 58027 84840 82073 94929 95879;
0188614890999992000070812004+16500-015820FM-12+0006GQNR V0202801N006210390019N0080001N1+02781+02231101701ADDAA112000791AC10I9GA1071+039009079GF107991071001999999071999MA1999999101331MD1999999+0061REMSYN088AAXX  08124 61489 12958 72812 10278 20223 30133 40170 69902 8707/ 333 0//14 58006 87363;
0193614890999992000070815004+16500-015820FM-12+0006GQNR V0203201N005110390019N0100001N1+03301+01271101361ADDGA1041+009009089GA2031+039009039GF106991041021012501071001MA1999999101291MD1999999-0021REMSYN094AAXX  08154 61489 42660 63210 10330 20127 30129 40136 84270 333 59002 84830 83363 91929 95879;
0208614890999992000070818004+16500-015820FM-12+0006GQNR V0202801N005110390019N0100001N1+03271+02151101071ADDAA199000091GA1071+039009079GF107991071001999999071001KA1120M+03421MA1999999101001MD1999999-0081REMSYN082AAXX  08184 61489 32960 72810 10327 20215 30100 40107 87070 333 10342 59008 87363;EQDQ01  00002PRCP99
0165614890999992000070909004+16500-015820FM-12+0006GQNR V0209999C000019999999N0080001N1+02601+01711101481ADDGA1021+039009039GF105991021001999999071021MA1999999101411MD1999999-0051REMSYN082AAXX  09094 61489 42958 50000 10260 20171 30141 40148 82072 333 59005 82363 83073;
0207614890999992000070912004+16500-015820FM-12+0006GQNR V0202801N006210390019N0060001N1+03121+01531101551ADDAA199000091GA1051+039009079GF105991051001999999071001MA1999999101481MD1999999-0151MW1061REMSYN088AAXX  09124 61489 31956 52812 10312 20153 30148 40155 706// 85070 333 0//00 59015 85363;EQDQ01  00002PRCP99
0224614890999992000070918004+16500-015820FM-12+0006GQNR V0202801N008212200019N0050001N1+03321+01591101021ADDAA199000091AY101061AY201061GA1001+999999999GF100991001001999999001001KA1120M+03741MA1999999100951MD1999999-0051MW1071REMSYN076AAXX  09184 61489 31950 02816 10332 20159 30095 40102 70700 333 10374 59005;EQDQ01  00002PRCP99
0220614890999992000071006004+16500-015820FM-12+0006GQNR V0202801N00511045001CN0100001N1+02421+01751101261ADDAA199000091GA1031+006009079GF107991031061012501071999KA1120N+02401MA1999999101191MD1999999-0111REMSYN094AAXX  10064 61489 32660 72810 10242 20175 30119 40126 8367/ 333 0//00 20240 59011 83720 85363;EQDQ01  00002PRCP99
0193614890999992000071009004+16500-015820FM-12+0006GQNR V0202801N00621045001CN0050001N1+02541+01931101351ADDAY121031AY221031GA1021+006009079GF106991021061012501071001MA1999999101261MD1999999-0131MW1061REMSYN088AAXX  10094 61489 41650 62812 10254 20193 30126 40135 70622 82670 333 59013 82720 84363;
0207614890999992000071012004+16500-015820FM-12+0006GQNR V0202801N008210390019N0060001N1+03021+01751101371ADDAA199000091GA1061+039009079GF106991061001999999071001MA1999999101301MD1999999-0181MW1071REMSYN088AAXX  10124 61489 31956 62816 10302 20175 30130 40137 707// 86070 333 0//00 59018 86363;EQDQ01  00002PRCP99
0220614890999992000071106004+16500-015820FM-12+0006GQNR V0202801N00311045001CN0100001N1+02481+01571101191ADDAA199000091GA1031+006009079GF106991031061012501071001KA1120N+02421MA1999999101121MD1999999-0071REMSYN094AAXX  11064 61489 32660 62806 10248 20157 30112 40119 83670 333 0//00 20242 59007 83720 85363;EQDQ01  00002PRCP99
0165614890999992000071109004+16500-015820FM-12+0006GQNR V0202801N00621045001CN0080001N1+02321+01771101271ADDGA1021+006009079GF105991021061012501071001MA1999999101201MD1999999-0081REMSYN082AAXX  11094 61489 42658 52812 10232 20177 30120 40127 82670 333 59008 82720 83363;
0183614890999992000071112004+16500-015820FM-12+0006GQNR V0202601N004112200019N0080001N1+03051+01831101321ADDAA199000091GA1001+999999999GF100991001001999999001001MA1999999101251MD1999999-0051REMSYN070AAXX  11124 61489 33958 02608 10305 20183 30125 40132 333 0//00 59005;EQDQ01  00002PRCP99
0175614890999992000071115004+16500-015820FM-12+0006GQNR V0202801N003112200019N0060001N1+03401+01891101091ADDAY101031AY201031GA1001+999999999GF100991001001999999001001MA1999999101121MD1999999-0031MW1061REMSYN070AAXX  11154 61489 41956 02806 10340 20189 30112 40109 70600 333 59003;
0203614890999992000071118004+16500-015820FM-12+0006GQNR V0202801N006212200019N0040001N1+03221+00911100981ADDAA199000091AY101061AY201061GA1001+999999999GF100991001001999999001001KA1120M+03541MD1999999+0001MW1061REMSYN070AAXX  11184 61489 31940 02812 10322 20091 40098 70600 333 10354 58000;EQDQ01  00002PRCP99
0189614890999992000071212004+16500-015820FM-12+0006GQNR V0202801N003112200019N0080001N1+03001+01871101581ADDAA199000091GA1001+999999999GF100991001001999999001001MA1999999101511MD1999999+0261REMSYN076AAXX  12124 61489 31958 02806 10300 20187 30151 40158 7//// 333 0//00 58026;EQDQ01  00002PRCP99
0147614890999992000071309004+16500-015820FM-12+0006GQNR V0203201N003112200019N0080001N1+02551+02051101531ADDGA1001+999999999GF100991001001999999001001MA1999999101461MD1999999+0111REMSYN064AAXX  13094 61489 42958 03206 10255 20205 30146 40153 333 58011;
0195614890999992000071312004+16500-015820FM-12+0006GQNR V0209999C000012200019N0070001N1+03051+01951101651ADDAA199000091GA1001+999999999GF100991001001999999001001MA1999999101581MD1999999+0071MW1061REMSYN076AAXX  13124 61489 31957 00000 10305 20195 30158 40165 706// 333 0//00 58007;EQDQ01  00002PRCP99
0159614890999992000071315004+16500-015820FM-12+0006GQNR V0202601N003112200019N0080001N1+03621+01801101411ADDGA1041+069009019GF104991001001999999001011MA1999999101341MD1999999+0101REMSYN076AAXX  13154 61489 42958 42606 10362 20180 30134 40141 80001 333 58010 84073;
0208614890999992000071318004+16500-015820FM-12+0006GQNR V0202801N006212200019N0080001N1+03371+01951101241ADDAA199000091GA1031+069009019GF103991001001999999001011KA1120M+03781MA1999999101171MD1999999+0041REMSYN082AAXX  13184 61489 32958 32812 10337 20195 30117 40124 80001 333 10378 58004 83073;EQDQ01  00002PRCP99
0183614890999992000071412004+16500-015820FM-12+0006GQNR V0202801N005112200019N0100001N1+03521+01781101541ADDAA199000091GA1001+999999999GF100991001001999999001001MA1999999101471MD1999999-0111REMSYN070AAXX  14124 61489 33960 02810 10352 20178 30147 40154 333 0//00 59011;EQDQ01  00002PRCP99
0196614890999992000071418004+16500-015820FM-12+0006GQNR V0202801N006212200019N0100001N1+03421+01321100901ADDAA199000091GA1001+999999999GF100991001001999999001001KA1120M+03851MA1999999100831MD1999999-0341REMSYN070AAXX  14184 61489 32960 02812 10342 20132 30083 40090 333 10385 59034;EQDQ01  00002PRCP99
0195614890999992000071512004+16500-015820FM-12+0006GQNR V0202801N003112200019N0100001N1+03721+01881100951ADDAA199000091GA1031+069009019GF103991001001999999001021MA1999999100861MD1999999-0591REMSYN082AAXX  15124 61489 33960 32806 10372 20188 30086 40095 80002 333 0//00 59059 83073;EQDQ01  00002PRCP99
0159614890999992000071515004+16500-015820FM-12+0006GQNR V0202801N004112200019N0100001N1+03521+01901100601ADDGA1041+069009019GF104991001001999999001021MA1999999100531MD1999999-0601REMSYN076AAXX  15154 61489 42960 42808 10352 20190 30053 40060 80002 333 59060 84073;
0196614890999992000071518004+16500-015820FM-12+0006GQNR V0202801N005112200019N0100001N1+03201+01501100351ADDAA199000091GA1001+999999999GF100991001001999999001001KA1120M+03831MA1999999100281MD1999999-0551REMSYN070AAXX  15184 61489 32960 02810 10320 20150 30028 40035 333 10383 59055;EQDQ01  00002PRCP99
0208614890999992000071618004+16500-015820FM-12+0006GQNR V0202801N005112200019N0100001N1+03041+01031100451ADDAA199000091GA1031+009009059GF103991031061008001001001KA1120M+03501MA1999999100381MD1999999+0181REMSYN082AAXX  16184 61489 32560 32810 10304 20103 30038 40045 83600 333 10350 58018 83630;EQDQ01  00002PRCP99
0202614890999992000071706004+16500-015820FM-12+0006GQNR V0209999C000012200019N0100001N1+02461+02261100971ADDAA199000091GA1001+999999999GF100991001001999999001001KA1120N+02301MA1999999100901MD1999999+0131REMSYN076AAXX  17064 61489 32960 00000 10246 20226 30090 40097 333 0//00 20230 58013;EQDQ01  00002PRCP99
0147614890999992000071709004+16500-015820FM-12+0006GQNR V0209999C000012200019N0100001N1+02561+02321101221ADDGA1001+999999999GF100991001001999999001001MA1999999101151MD1999999+0111REMSYN064AAXX  17094 61489 42960 00000 10256 20232 30115 40122 333 58011;
0147614890999992000072015004+16500-015820FM-12+0006GQNR V0202801N004112200019N0100001N1+03521+01741100531ADDGA1001+999999999GF100991001001999999001001MA1999999100461MD1999999-0381REMSYN064AAXX  20154 61489 42960 02808 10352 20174 30046 40053 333 59038;
0208614890999992000072018004+16500-015820FM-12+0006GQNR V0202801N005112200019N0100001N1+03261+01241100581ADDAA199000091GA1031+039009079GF104991041001999999071001KA1120M+03641MA1999999100511MD1999999-0091REMSYN082AAXX  20184 61489 32960 42810 10326 20124 30051 40058 84070 333 10364 59009 83363;EQDQ01  00002PRCP99
0195614890999992000072100004+16500-015820FM-12+0006GQNR V0202801N005112200019N0100001N1+03261+01971101221ADDAA199000091GA1041+039009079GF104991041001999999071001MA1999999101151MD1999999+0311REMSYN082AAXX  21004 61489 33960 42810 10326 20197 30115 40122 84070 333 0//00 58031 84363;EQDQ01  00002PRCP99
0159614890999992000072109004+16500-015820FM-12+0006GQNR V0202801N004110390019N0100001N1+02601+02221101331ADDGA1061+039009079GF106991061001999999081001MA1999999101261MD1999999+0061REMSYN076AAXX  21094 61489 42960 62808 10260 20222 30126 40133 86080 333 58006 86363;
0214614890999992000072206004+16500-015820FM-12+0006GQNR V0209999C000012200019N0100001N1+02381+02061101201ADDAA199000091GA1041+039009079GF104991041001999999071001KA1120N+02241MA1999999101131MD1999999+0171REMSYN088AAXX  22064 61489 32960 40000 10238 20206 30113 40120 84070 333 0//00 20224 58017 84363;EQDQ01  00002PRCP99
0159614890999992000072209004+16500-015820FM-12+0006GQNR V0209999C000010390019N0100001N1+02481+02061101271ADDGA1061+039009079GF106991061001999999071001MA1999999101201MD1999999-0061REMSYN076AAXX  22094 61489 42960 60000 10248 20206 30120 40127 86070 333 59006 86363;
0201614890999992000072212004+16500-015820FM-12+0006GQNR V0202801N00511045001CN0100001N1+03201+01901101441ADDAA199000091GA1021+009009069GF107991021061008001071021MA1999999101371MD1999999+0221REMSYN088AAXX  22124 61489 33560 72810 10320 20190 30137 40144 82672 333 0//00 58022 82630 84363;EQDQ01  00002PRCP99
0159614890999992000072215004+16500-015820FM-12+0006GQNR V0201801N003112200019N0100001N1+03501+02201101121ADDGA1041+009009059GF104991041061008001001001MA1999999101051MD1999999+0231REMSYN076AAXX  22154 61489 42560 41806 10350 20220 30105 40112 84600 333 58023 84630;
0242614890999992000072218004+16500-015820FM-12+0006GQNR V0201801N005110390019N0100001N1+03301+01681100971ADDAA199000091GA1031+009009089GA2051+039009039GF107991031021008001071001KA1120M+03751MA1999999100901MD1999999+0371REMSYN100AAXX  22184 61489 32560 71810 10330 20168 30090 40097 83270 333 10375 58037 83830 85363 94926 95876;EQDQ01  00002PRCP99
0183614890999992000072312004+16500-015820FM-12+0006GQNR V0202801N005112200019N0100001N1+03241+01981101261ADDAA199000091GA1001+999999999GF100991001001999999001001MA1999999101211MD1999999-0161REMSYN070AAXX  23124 61489 33960 02810 10324 20198 30121 40126 333 0//00 59016;EQDQ01  00002PRCP99
0202614890999992000072406004+16500-015820FM-12+0006GQNR V0201801N004112200019N0100001N1+02541+02221101151ADDAA199000091GA1001+999999999GF100991001001999999001001KA1120N+02401MA1999999101081MD1999999-0141REMSYN076AAXX  24064 61489 32960 01808 10254 20222 30108 40115 333 0//00 20240 59014;EQDQ01  00002PRCP99
0147614890999992000072409004+16500-015820FM-12+0006GQNR V0201801N003112200019N0100001N1+02661+02281101391ADDGA1001+999999999GF100991001001999999001001MA1999999101321MD1999999-0081REMSYN064AAXX  24094 61489 42960 01806 10266 20228 30132 40139 333 59008;
0183614890999992000072412004+16500-015820FM-12+0006GQNR V0202801N005112200019N0100001N1+03241+01841101231ADDAA199000091GA1001+999999999GF100991001001999999001001MA1999999101161MD1999999-0031REMSYN070AAXX  24124 61489 33960 02810 10324 20184 30116 40123 333 0//00 59003;EQDQ01  00002PRCP99
0147614890999992000072415004+16500-015820FM-12+0006GQNR V0202801N006212200019N0100001N1+03521+02001101071ADDGA1001+999999999GF100991001001999999001001MA1999999101001MD1999999-0161REMSYN064AAXX  24154 61489 42960 02812 10352 20200 30100 40107 333 59016;
0196614890999992000072418004+16500-015820FM-12+0006GQNR V0202801N005112200019N0100001N1+03241+01601100951ADDAA199000091GA1001+999999999GF100991001001999999001001KA1120M+03621MA1999999100841MD1999999+0111REMSYN070AAXX  24184 61489 32960 02810 10324 20160 30084 40095 333 10362 58011;EQDQ01  00002PRCP99
0202614890999992000072506004+16500-015820FM-12+0006GQNR V0202801N004112200019N0100001N1+02501+02141101151ADDAA199000091GA1001+999999999GF100991001001999999001001KA1120N+02321MA1999999101081MD1999999+0001REMSYN076AAXX  25064 61489 32960 02808 10250 20214 30108 40115 333 0//00 20232 58000;EQDQ01  00002PRCP99
0214614890999992000072606004+16500-015820FM-12+0006GQNR V0209999C000010390019N0100001N1+02601+02241101201ADDAA199000091GA1051+039009079GF105991051001999999071001KA1120N+02451MA1999999100941MD1999999-0141REMSYN088AAXX  26064 61489 32960 50000 10260 20224 30094 40120 85070 333 0//00 20245 59014 85363;EQDQ01  00002PRCP99
0201614890999992000072612004+16500-015820FM-12+0006GQNR V0201801N00411045001CN0100001N1+03301+01801101301ADDAA199000091GA1031+009009069GF107991031051008001071001MA1999999101231MD1999999+0141REMSYN088AAXX  26124 61489 33560 71808 10330 20180 30123 40130 83570 333 0//00 58014 83630 84363;EQDQ01  00002PRCP99
0165614890999992000072615004+16500-015820FM-12+0006GQNR V0201801N00511045001CN0100001N1+03521+02071101001ADDGA1031+009009069GF107991031061008001071001MA1999999100931MD1999999+0181REMSYN082AAXX  26154 61489 42560 71810 10352 20207 30093 40100 83670 333 58018 83630 84363;
0235614890999992000072706004+16500-015820FM-12+0006GQNR V0200801N004110090019N0100001N1+02221+01961999999ADDAA124031091AC12C9GA1051+009009089GA2071+039009039GF108991051021008001071999KA1120N+02141MA1999999101211MD1999999+0201REMSYN106AAXX  27064 61489 12560 80808 10222 20196 30121 60314 8527/ 333 0///2 20214 58020 85830 87363 94933 95833;
0193614890999992000072709004+16500-015820FM-12+0006GQNR V0200801N005110090019N0100001N1+02401+02101101261ADDGA1051+009009089GA2071+039009039GF107991051021008001071999MA1999999101291MD1999999+0061REMSYN094AAXX  27094 61489 42560 70810 10240 20210 30129 40126 8527/ 333 58006 85830 87363 94933 95833;
0207614890999992000072712004+16500-015820FM-12+0006GQNR V0202801N004110090019N0100001N1+02901+02131101591ADDAA199000091GA1061+009009089GF106991061021008001001001MA1999999101521MD1999999+0291REMSYN094AAXX  27124 61489 33560 62808 10290 20213 30152 40159 86200 333 0//00 58029 86830 94926 95876;EQDQ01  00002PRCP99
0208614890999992000072718004+16500-015820FM-12+0006GQNR V0202801N006212200019N0100001N1+03021+01931101051ADDAA199000091GA1031+069009019GF103991001001999999001021KA1120M+03321MA1999999100981MD1999999+0141REMSYN082AAXX  27184 61489 32960 32812 10302 20193 30098 40105 80002 333 10332 58014 83073;EQDQ01  00002PRCP99
0220614890999992000072806004+16500-015820FM-12+0006GQNR V0203201N00411045001CN0100001N1+02381+02071101281ADDAA199000091GA1031+006009079GF106991031061001501071001KA1120N+02341MA1999999101211MD1999999+0071REMSYN094AAXX  28064 61489 32260 63208 10238 20207 30121 40128 83670 333 0//00 20234 58007 83720 85363;EQDQ01  00002PRCP99
0165614890999992000072809004+16500-015820FM-12+0006GQNR V0203201N00511105001CN0100001N1+02601+02151101341ADDGA1041+009009069GF106991041051008001001021MA1999999101301MD1999999+0011REMSYN082AAXX  28094 61489 42560 63210 10260 20215 30130 40134 84502 333 58001 84630 83073;
0207614890999992000072812004+16500-015820FM-12+0006GQNR V0203601N003110090019N0100001N1+03101+02231101481ADDAA199000091GA1061+009009089GF106991061081012501001001MA1999999101411MD1999999-0111REMSYN094AAXX  28124 61489 33660 63606 10310 20223 30141 40148 86800 333 0//00 59011 86830 97939 95879;EQDQ01  00002PRCP99
0193614890999992000072815004+16500-015820FM-12+0006GQNR V0203601N004110690019N0100001N1+02221+99999101271ADDGA1041+009009089GA2041+069009009GF107991021021017501001021MA1999999101201MD1999999+0021REMSYN094AAXX  28154 61489 42760 73608 10222 20233 30120 40127 82202 333 58002 84830 84073 94929 95879;
0220614890999992000072906004+16500-015820FM-12+0006GQNR V0203201N00511045001CN0100001N1+02401+02071101201ADDAA199000091GA1041+006009079GF107991041061001501071999KA1120N+02401MA1999999101131MD1999999-0081REMSYN094AAXX  29064 61489 32260 73210 10240 20207 30113 40120 8467/ 333 0//00 20240 59008 84720 85363;EQDQ01  00002PRCP99
0165614890999992000072909004+16500-015820FM-12+0006GQNR V0202801N00411045001CN0100001N1+02651+02161101311ADDGA1031+006009079GF106991031061001501071001MA1999999101241MD1999999-0061REMSYN082AAXX  29094 61489 42260 62808 10265 20216 30124 40131 83670 333 59006 83720 84363;
0201614890999992000072912004+16500-015820FM-12+0006GQNR V0209999C000019999999N0100001N1+02951+02171101391ADDAA199000091GA1031+039009039GF106991031001999999071021MA1999999101321MD1999999-0091REMSYN088AAXX  29124 61489 33960 60000 10295 20217 30132 40139 83072 333 0//00 59009 83363 85073;EQDQ01  00002PRCP99
0195614890999992000073012004+16500-015820FM-12+0006GQNR V0201401N004110690019N0100001N1+03201+02171101321ADDAA199000091GA1051+069009019GF105991001001999999001021MA1999999101251MD1999999-0071REMSYN082AAXX  30124 61489 33960 51408 10320 20217 30125 40132 80002 333 0//00 59007 85073;EQDQ01  00002PRCP99
0220614890999992000073018004+16500-015820FM-12+0006GQNR V0201801N005112200019N0100001N1+03481+02191101031ADDAA199000091GA1021+015009089GF102991021021012501001001KA1120M+03601MA1999999100961MD1999999+0011REMSYN094AAXX  30184 61489 32660 21810 10348 20219 30096 40103 82200 333 10360 58001 82850 94926 95816;EQDQ01  00002PRCP99
0220614890999992000073106004+16500-015820FM-12+0006GQNR V0209999C000019999999N0100001N1+02631+02211101241ADDAA199000091GA1031+039009039GF106991031001999999071021KA1120N+02441MA1999999101171MD1999999+0281REMSYN094AAXX  31064 61489 32960 60000 10263 20221 30117 40124 83072 333 0//00 20244 58028 83363 84073;EQDQ01  00002PRCP99
0165614890999992000073109004+16500-015820FM-12+0006GQNR V0209999C000019999999N0100001N1+02801+02331101351ADDGA1041+039009039GF106991041001999999071021MA1999999101281MD1999999+0251REMSYN082AAXX  31094 61489 42960 60000 10280 20233 30128 40135 84072 333 58025 84363 83073;
0242614890999992000073118004+16500-015820FM-12+0006GQNR V0202801N006210150019N0100001N1+02881+02231101141ADDAA199000091GA1051+015009089GA2051+039009039GF108991051021012501071999KA1120M+03451MA1999999101071MD1999999+0111REMSYN100AAXX  31184 61489 32660 82812 10288 20223 30107 40114 8527/ 333 10345 58011 85850 85363 94939 95879;EQDQ01  00002PRCP99
0241614890999992000080106004+16500-015820FM-12+0006GQNR V0209999C000010090019N0100001N1+02521+02231101221ADDAA124001091AC13C9GA1051+009009089GA2061+039009039GF107991051081012501071999KA1120N+02401MA1999999101151MD1999999-0021REMSYN112AAXX  01064 61489 12660 70000 10252 20223 30115 40122 60014 8587/ 333 0//13 20240 59002 85830 86363 94939 95939;
0193614890999992000080109004+16500-015820FM-12+0006GQNR V0209999C000010390019N0100001N1+02551+02371101331ADDGA1041+009009089GA2061+039009039GF107991041081012501071999MA1999999101261MD1999999+0021REMSYN094AAXX  01094 61489 42660 70000 10255 20237 30126 40133 8487/ 333 58002 84830 86363 94939 95879;
0229614890999992000080112004+16500-015820FM-12+0006GQNR V0209999C000010390019N0100001N1+02861+02251101481ADDAA199000091GA1041+009009089GA2061+039009039GF107991041081012501071999MA1999999101391MD1999999+0031REMSYN100AAXX  01124 61489 33660 70000 10286 20225 30139 40148 8487/ 333 0//00 58003 84830 86363 94934 95874;EQDQ01  00002PRCP99
0221614890999992000080115004+16500-015820FM-12+0006GQNR V0201801N006210090019N0100001N1+02701+02231101331ADDAY121031AY221031GA1051+009009089GA2061+039009039GF106991051081012501071001MA1999999101261MD1999999+0061MW1951REMSYN100AAXX  01154 61489 41660 61812 10270 20223 30126 40133 79522 85870 333 58006 85830 86363 94934 95874;
0229614890999992000080118004+16500-015820FM-12+0006GQNR V0209999C000010120019N0060001N1+02501+02401101391ADDAA112035191AY191061AY291061GA1051+012009099GF107991051091012501071999KA1120M+03331MA1999999101321MD1999999+0251MW1951REMSYN100AAXX  01184 61489 11656 70000 10250 20240 30132 40139 60352 79599 8597/ 333 10333 58025 85940 86363;
0207614890999992000080206004+16500-015820FM-12+0006GQNR V0209999C000012200019N0100001N1+02401+01911101471ADDAA124006191AC13I9GA1041+039009079GF104991041001999999071001KA1120N+02401MA1999999101401MD1999999+0251REMSYN094AAXX  02064 61489 12960 40000 10240 20191 30140 40147 60064 84070 333 0//18 20240 58025 84363;
0171614890999992000080209004+16500-015820FM-12+0006GQNR V0209999C000012200019N0100001N1+02601+01991101551ADDGA1031+015009089GF103991031021012501001001MA1999999101481MD1999999+0221REMSYN088AAXX  02094 61489 42660 30000 10260 20199 30148 40155 83200 333 58022 83850 94932 95832;
0220614890999992000080306004+16500-015820FM-12+0006GQNR V0209999C000010060019N0100001N1+02631+01801101391ADDAA199000091GA1051+006009079GF107991051061999999071999KA1120N+02581MA1999999101321MD1999999-0081REMSYN094AAXX  03064 61489 32960 70000 10263 20180 30132 40139 8567/ 333 0//00 20258 59008 85720 86363;EQDQ01  00002PRCP99
0193614890999992000080309004+16500-015820FM-12+0006GQNR V0201801N004110150019N0100001N1+02751+01951101551ADDGA1051+015009089GA2041+039009039GF106991051021999999071999MA1999999101481MD1999999+0001REMSYN094AAXX  03094 61489 42960 61808 10275 20195 30148 40155 8527/ 333 58000 85850 84363 94939 95879;
0195614890999992000080312004+16500-015820FM-12+0006GQNR V0200801N003112200019N0100001N1+03101+02091101611ADDAA199000091GA1041+009009059GF104991041999999999999999MA1999999101541MD1999999-0041REMSYN082AAXX  03124 61489 33960 40806 10310 20209 30154 40161 84/// 333 0//00 59004 84630;EQDQ01  00002PRCP99
0194614890999992000080406004+16500-015820FM-12+0006GQNR V0202201N003110390019N0100001N1+02701+02011101581ADDAA199000091GA1051+039009079GF105991051001999999071001KA1120N+02561MA1999999101511REMSYN082AAXX  04064 61489 32960 52206 10270 20201 30151 40158 85070 333 0//00 20256 85363;EQDQ01  00002PRCP99
0229614890999992000080412004+16500-015820FM-12+0006GQNR V0201801N004110390019N0100001N1+03101+02131101681ADDAA199000091GA1041+009009089GA2021+039009039GF105991041021012501031001MA1999999101611MD1999999+0071REMSYN100AAXX  04124 61489 33660 51808 10310 20213 30161 40168 84230 333 0//00 58007 84830 82363 94926 95876;EQDQ01  00002PRCP99
0171614890999992000080415004+16500-015820FM-12+0006GQNR V0201801N003110150019N0100001N1+03301+02191101571ADDGA1051+015009089GF105991051081012501001001MA1999999101501MD1999999+0231REMSYN088AAXX  04154 61489 42660 51806 10330 20219 30150 40157 85800 333 58023 85850 94939 95879;
0207614890999992000080506004+16500-015820FM-12+0006GQNR V0203201N003110390019N0100001N1+02371+01991101671ADDAA124031091AC12I9GA1071+039009079GF107991071001999999071999KA1120N+02271MA1999999101601MD1999999+0081REMSYN094AAXX  05064 61489 12960 73206 10237 20199 30160 40167 60314 8707/ 333 0//26 20227 58008 87363;
0201614890999992000080512004+16500-015820FM-12+0006GQNR V0209999C000019999999N0100001N1+02801+02211101651ADDAA199000091GA1031+039009039GF107991031001999999071021MA1999999101581MD1999999-0031REMSYN088AAXX  05124 61489 33960 70000 10280 20221 30158 40165 83072 333 0//00 59003 83363 85073;EQDQ01  00002PRCP99
0165614890999992000080515004+16500-015820FM-12+0006GQNR V0209999C00001105001CN0100001N1+03171+02441101571ADDGA1041+009909089GF105991041021012501001021MA1999999101501MD1999999+0071REMSYN082AAXX  05154 61489 42660 50000 10317 20244 30150 40157 84202 333 58007 84833 84073;
0242614890999992000080518004+16500-015820FM-12+0006GQNR V0209999C000010690019N0100001N1+03351+02471101451ADDAA199000091GA1031+009909089GA2041+069009009GF106991021021022501001021KA1120M+03391MA1999999101381MD1999999+0071REMSYN100AAXX  05184 61489 32860 60000 10335 20247 30138 40145 82202 333 10339 58007 83833 84073 94926 95836;EQDQ01  00002PRCP99
0214614890999992000080606004+16500-015820FM-12+0006GQNR V0203201N003112200019N0040001N1+02611+01991101531ADDAA199000091GA1001+999999999GF100991001001999999001001KA1120N+02551MA1999999101461MD1999999-0141MW1061REMSYN082AAXX  06064 61489 31940 03206 10261 20199 30146 40153 706// 333 0//00 20255 59014;EQDQ01  00002PRCP99
0187614890999992000080609004+16500-015820FM-12+0006GQNR V0202801N006212200019N0045001N1+02701+02031101631ADDAY111031AY211031GA1031+006009069GF103991031061001501001001MA1999999101561MD1999999-0071MW1061REMSYN082AAXX  06094 61489 41245 32812 10270 20203 30156 40163 70611 83600 333 59007 83720;
0207614890999992000080612004+16500-015820FM-12+0006GQNR V0203201N008212200019N0035001N1+03001+02271101631ADDAA199000091GA1031+009009059GF103991031051012501011011MA1999999101561MD1999999-0021MW1071REMSYN088AAXX  06124 61489 31635 33216 10300 20227 30156 40163 707// 83511 333 0//00 59002 83630;EQDQ01  00002PRCP99
0187614890999992000080615004+16500-015820FM-12+0006GQNR V0203201N007212200019N0040001N1+03101+02391101491ADDAY111031AY211031GA1041+069009019GF104991001001999999001011MA1999999101421MD1999999-0081MW1071REMSYN082AAXX  06154 61489 41940 43214 10310 20239 30142 40149 70711 80001 333 59008 84073;
0236614890999992000080618004+16500-015820FM-12+0006GQNR V0203201N003112200019N0050001N1+03201+02501101321ADDAA199000091AY111061AY211061GA1041+069009019GF104991001001999999001011KA1120M+03351MA1999999101251MD1999999-0131MW1061REMSYN088AAXX  06184 61489 31950 43206 10320 20250 30125 40132 70611 80001 333 10335 59013 84073;EQDQ01  00002PRCP99
0214614890999992000080706004+16500-015820FM-12+0006GQNR V0203201N003112200019N0070001N1+02601+01751101331ADDAA199000091GA1001+999999999GF100991001001999999001001KA1120N+02551MA1999999101261MD1999999-0201MW1061REMSYN082AAXX  07064 61489 31957 03206 10260 20175 30126 40133 706// 333 0//00 20255 59020;EQDQ01  00002PRCP99
0175614890999992000080709004+16500-015820FM-12+0006GQNR V0209999C000012200019N0050001N1+02751+01911101441ADDAY101031AY201031GA1001+999999999GF100991001001999999001001MA1999999101371MD1999999-0191MW1061REMSYN070AAXX  07094 61489 41950 00000 10275 20191 30137 40144 70600 333 59019;
0196614890999992000080918004+16500-015820FM-12+0006GQNR V0201401N004112200019N0100001N1+03591+02191101201ADDAA199000091GA1001+999999999GF100991001001999999001001KA1120M+03691MA1999999101131MD1999999+0131REMSYN070AAXX  09184 61489 32960 01408 10359 20219 30113 40120 333 10369 58013;EQDQ01  00002PRCP99
0159614890999992000081115004+16500-015820FM-12+0006GQNR V0200401N006210090019N0080001N1+03401+02251101291ADDGA1061+009009059GF106991061051012501001001MA1999999101221MD1999999-0101REMSYN076AAXX  11154 61489 42658 60412 10340 20225 30122 40129 86500 333 59010 86630;
0202614890999992000081206004+16500-015820FM-12+0006GQNR V0200401N002112200019N0100001N1+02641+01891101441ADDAA199000091GA1001+999999999GF100991001001999999001001KA1120N+02581MA1999999101371MD1999999-0181REMSYN076AAXX  12064 61489 32960 00404 10264 20189 30137 40144 333 0//00 20258 59018;EQDQ01  00002PRCP99
0147614890999992000081209004+16500-015820FM-12+0006GQNR V0209999C000012200019N0100001N1+02841+01991101571ADDGA1001+999999999GF100991001001999999001001MA1999999101501MD1999999-0171REMSYN064AAXX  12094 61489 42960 00000 10284 20199 30150 40157 333 59017;
0183614890999992000081212004+16500-015820FM-12+0006GQNR V0201401N003112200019N0100001N1+03351+02231101401ADDAA199000091GA1001+999999999GF100991001001999999001001MA1999999101331MD1999999-0051REMSYN070AAXX  12124 61489 33960 01406 10335 20223 30133 40140 333 0//00 59005;EQDQ01  00002PRCP99
0236614890999992000081318004+16500-015820FM-12+0006GQNR V0201801N005112200019N0060001N1+03641+02291101141ADDAA199000091AY111061AY211061GA1041+069009019GF104991001001999999001011KA1120M+03721MA1999999101071MD1999999+0061MW1061REMSYN088AAXX  13184 61489 31956 41810 10364 20229 30107 40114 70611 80001 333 10372 58006 84073;EQDQ01  00002PRCP99
0214614890999992000081406004+16500-015820FM-12+0006GQNR V0202201N00511105001CN0100001N1+02821+01871101451ADDAA199000091GA1031+006009079GF106991031061001501001021KA1120N+02731MA1999999101381MD1999999+0061REMSYN088AAXX  14064 61489 32260 62210 10282 20187 30138 40145 83602 333 20273 58006 83720 84073;EQDQ01  00002PRCP99
0159614890999992000081409004+16500-015820FM-12+0006GQNR V0202201N005110090019N0100001N1+02901+01991101571ADDGA1051+009009059GF105991051051012501001021MA1999999101501MD1999999+0051REMSYN076AAXX  14094 61489 42660 52210 10290 20199 30150 40157 85502 333 58005 85630;
0195614890999992000081412004+16500-015820FM-12+0006GQNR V0202801N005110090019N0100001N1+03301+01981101431ADDAA199000091GA1051+009009059GF105991051061008001001001MA1999999101361MD1999999+0051REMSYN082AAXX  14124 61489 33560 52810 10330 20198 30136 40143 85600 333 0//00 58005 85630;EQDQ01  00002PRCP99
0202614890999992000081506004+16500-015820FM-12+0006GQNR V0202801N003112200019N0100001N1+02441+01821101101ADDAA199000091GA1001+999999999GF100991001001999999001001KA1120N+02321MA1999999101031MD1999999-0351REMSYN076AAXX  15064 61489 32960 02806 10244 20182 30103 40110 333 0//00 20232 59035;EQDQ01  00002PRCP99
0159614890999992000081509004+16500-015820FM-12+0006GQNR V0202801N004110390019N0100001N1+02621+01991101371ADDGA1071+039009079GF107991071001999999071999MA1999999101301MD1999999-0201REMSYN076AAXX  15094 61489 42960 72808 10262 20199 30130 40137 8707/ 333 59020 87363;
0159614890999992000081515004+16500-015820FM-12+0006GQNR V0202801N004110390019N0100001N1+03601+02001101121ADDGA1061+039009079GF107991051061008001081001MA1999999101051MD1999999+0011REMSYN076AAXX  15154 61489 42560 72808 10360 20200 30105 40112 85680 333 58001 86363;
0208614890999992000081518004+16500-015820FM-12+0006GQNR V0202801N003110090019N0100001N1+03601+01861101051ADDAA199000091GA1051+009009059GF105991051061008001001001KA1120M+03731MA1999999100981MD1999999+0381REMSYN082AAXX  15184 61489 32560 52806 10360 20186 30098 40105 85600 333 10373 58038 85630;EQDQ01  00002PRCP99
0214614890999992000081606004+16500-015820FM-12+0006GQNR V0202801N004112200019N0100001N1+02661+02041101281ADDAA199000091GA1031+039009079GF103991031001999999081001KA1120N+02521MA1999999101211MD1999999+0181REMSYN088AAXX  16064 61489 32960 32808 10266 20204 30121 40128 83080 333 0//00 20252 58018 83363;EQDQ01  00002PRCP99
0147614890999992000081609004+16500-015820FM-12+0006GQNR V0202801N003112200019N0100001N1+02861+02241101421ADDGA1001+999999999GF100991001001999999001001MA1999999101351MD1999999+0051REMSYN064AAXX  16094 61489 42960 02806 10286 20224 30135 40142 333 58005;
0165614890999992000081615004+16500-015820FM-12+0006GQNR V0200801N003110090019N0100001N1+03501+01951101111ADDGA1061+009009069GF107991061061008001071999MA1999999101041MD1999999-0011REMSYN082AAXX  16154 61489 42560 70806 10350 20195 30104 40111 8667/ 333 59001 86630 87363;
0214614890999992000081706004+16500-015820FM-12+0006GQNR V0202801N005112200019N0100001N1+02721+02051101241ADDAA199000091GA1031+039009079GF103991031001999999071001KA1120N+02701MA1999999101171MD1999999+0031REMSYN088AAXX  17064 61489 32960 32810 10272 20205 30117 40124 83070 333 0//00 20270 58003 83363;EQDQ01  00002PRCP99
0195614890999992000081709004+16500-015820FM-12+0006GQNR V0202801N00411045001CN0100001N1+02861+02321101471ADDAA199000091GA1021+009009089GF107991021061008001071001MA1999999101401MD1999999+0081REMSYN082AAXX  17094 61489 32560 72808 10286 20232 30140 40147 82670 333 58008 82830 85363;EQDQ01  00002PRCP99
0196614890999992000081718004+16500-015820FM-12+0006GQNR V0202801N005112200019N0100001N1+03301+01671100871ADDAA199000091GA1001+999999999GF100991001001999999001001KA1120M+03821MA1999999100801MD1999999-0061REMSYN070AAXX  17184 61489 32960 02810 10330 20167 30080 40087 333 10382 59006;EQDQ01  00002PRCP99
0214614890999992000081806004+16500-015820FM-12+0006GQNR V0202801N004110390019N0100001N1+02641+02361101211ADDAA199000091GA1051+039009079GF105991051001999999071001KA1120N+02521MA1999999101141MD1999999-0141REMSYN088AAXX  18064 61489 32960 52808 10264 20236 30114 40121 85070 333 0//00 20252 59014 85363;EQDQ01  00002PRCP99
0165614890999992000081809004+16500-015820FM-12+0006GQNR V0202801N00411045001CN0100001N1+02701+02381101411ADDGA1041+009009069GF107991041061008001071999MA1999999101341MD1999999-0061REMSYN082AAXX  18094 61489 42560 72808 10270 20238 30134 40141 8467/ 333 59006 84630 87363;
0201614890999992000081812004+16500-015820FM-12+0006GQNR V0202801N00511045001CN0100001N1+03201+01881101441ADDAA199000091GA1031+009009069GF107991031061008001071021MA1999999101371MD1999999+0151REMSYN088AAXX  18124 61489 33560 72810 10320 20188 30137 40144 83672 333 0//00 58015 83630 85363;EQDQ01  00002PRCP99
0195614890999992000081912004+16500-015820FM-12+0006GQNR V0202801N005112200019N0100001N1+03361+01821101341ADDAA199000091GA1041+009009059GF104991041061008001001001MA1999999100271MD1999999-0201REMSYN082AAXX  19124 61489 33560 42810 10336 20182 30027 40134 84600 333 0//00 59020 84630;EQDQ01  00002PRCP99
0253614890999992000082006004+16500-015820FM-12+0006GQNR V0201401N006210090019N0100001N1+02701+02101101711ADDAA124021191AC12C9GA1051+009009099GA2071+039009039GF107991051031008001071999KA1120N+02391MA1999999101641MD1999999+0471MW1951REMSYN118AAXX  20064 61489 11560 71412 10270 20210 30164 40171 60214 795// 8537/ 333 0//62 20239 58047 85930 87363 94973 95837;
0176614890999992000082012004+16500-015820FM-12+0006GQNR V0200801N006210450019N0100001N1+02841+01881101581ADDAA199000021GA1041+009009029GF107991041081008001071001MA1999999101491MD1999999+0221REMSYN082AAXX  20124 61489 33560 70812 10284 20188 30149 40158 84870 333 0//00 58022 84830;
0193614890999992000082015004+16500-015820FM-12+0006GQNR V0200801N004110090019N0100001N1+03141+01041101251ADDGA1051+009009099GA2071+039009039GF107991051031008001091999MA1999999101181MD1999999+0251REMSYN094AAXX  20154 61489 42560 70808 10314 20104 30118 40125 8539/ 333 58025 85930 87363 94953 95823;
0195614890999992000082018004+16500-015820FM-12+0006GQNR V0200801N004110090019N0100001N1+03021+02101100911ADDAA112004191GA1051+009009059GF107991051061008001031001KA1120M+03341MA1999999100841MD1999999+0221REMSYN088AAXX  20184 61489 12560 70808 10302 20210 30084 40091 60042 85630 333 10334 58022 85630;
0207614890999992000082112004+16500-015820FM-12+0006GQNR V0201801N005110090019N0100001N1+02881+02271101791ADDAA199000091GA1051+009009089GF107991051021008001001021MA1999999101721MD1999999+0231REMSYN094AAXX  21124 61489 33560 71810 10288 20227 30172 40179 85202 333 0//00 58023 85830 94934 95873;EQDQ01  00002PRCP99
0195614890999992000082118004+16500-015820FM-12+0006GQNR V0201801N003110390019N0100001N1+03001+02181101281ADDAA112000791GA1071+039009079GF107991071001999999071999KA1120M+03361MA1999999101191MD1999999+0351REMSYN088AAXX  21184 61489 12960 71806 10300 20218 30119 40128 69902 8707/ 333 10336 58035 87363;
0195614890999992000082212004+16500-015820FM-12+0006GQNR V0201401N005110390019N0100001N1+02761+02101101641ADDAA199000091GA1071+039009079GF107991071001999999071999MA1999999101571MD1999999-0151REMSYN082AAXX  22124 61489 33960 71410 10276 20210 30157 40164 8707/ 333 0//00 59015 87363;EQDQ01  00002PRCP99
0159614890999992000082215004+16500-015820FM-12+0006GQNR V0200801N004110390019N0100001N1+03061+02401101531ADDGA1051+039009079GF107991051001999999071021MA1999999101451MD1999999+0041REMSYN076AAXX  22154 61489 42960 70808 10306 20240 30145 40153 85072 333 58004 85363;
0201614890999992000082218004+16500-015820FM-12+0006GQNR V0200801N003119999999N0100001N1+02901+02201101171ADDAA112003091GA1021+039009039GF107991021001999999071021KA1120M+03231MA1999999101101MD1999999-0091REMSYN094AAXX  22184 61489 12960 70806 10290 20220 30110 40117 60032 82072 333 10323 59009 82363 87073;
0202614890999992000082306004+16500-015820FM-12+0006GQNR V0202801N004112200019N0100001N1+02501+02141101231ADDAA199000091GA1001+999999999GF100991001001999999001001KA1120N+02441MA1999999101161MD1999999-0201REMSYN076AAXX  23064 61489 32960 02808 10250 20214 30116 40123 333 0//00 20244 59020;EQDQ01  00002PRCP99
0147614890999992000082309004+16500-015820FM-12+0006GQNR V0202601N005112200019N0100001N1+02601+02361101511ADDGA1001+999999999GF100991001001999999001001MA1999999101441MD1999999-0211REMSYN064AAXX  23094 61489 42960 02610 10260 20236 30144 40151 333 59021;
0195614890999992000082312004+16500-015820FM-12+0006GQNR V0209999C000012200019N0100001N1+03301+01981101441ADDAA199000091GA1031+039009079GF103991031001999999071001MA1999999101371MD1999999-0201REMSYN082AAXX  23124 61489 33960 30000 10330 20198 30137 40144 83070 333 0//00 59020 83363;EQDQ01  00002PRCP99
0208614890999992000082318004+16500-015820FM-12+0006GQNR V0202801N005112200019N0100001N1+03361+01721101021ADDAA199000091GA1031+009009059GF103991031061008001001001KA1120M+03601MA1999999100951MD1999999-0081REMSYN082AAXX  23184 61489 32560 32810 10336 20172 30095 40102 83600 333 10360 59008 83630;EQDQ01  00002PRCP99
0195614890999992000082412004+16500-015820FM-12+0006GQNR V0202801N005110090019N0100001N1+03161+02031101441ADDAA199000091GA1051+009009059GF105991051061008001001001MA1999999101371MD1999999+0001REMSYN082AAXX  24124 61489 33560 52810 10316 20203 30137 40144 85600 333 0//00 58000 85630;EQDQ01  00002PRCP99
0178614890999992000082415004+16500-015820FM-12+0006GQNR V0202801N004110090019N0100001N1+03501+02301101221ADDGA1051+009009059GF105991051061008001001001MA1999999100152MD1999999+0141REMSYN076AAXX  24154 61489 42560 52808 10350 20230 30015 40122 85600 333 58014 85630;EQDQ01+100153APOSP 
0202614890999992000082506004+16500-015820FM-12+0006GQNR V0209999C000012200019N0100001N1+02561+01981101311ADDAA199000091GA1001+999999999GF100991001001999999001001KA1120N+02401MA1999999101241MD1999999-0191REMSYN076AAXX  25064 61489 32960 00000 10256 20198 30124 40131 333 0//00 20240 59019;EQDQ01  00002PRCP99
0147614890999992000082509004+16500-015820FM-12+0006GQNR V0202801N003112200019N0100001N1+02641+99999101411ADDGA1001+999999999GF100991001001999999001001MA1999999101341MD1999999-0251REMSYN064AAXX  25094 61489 42960 02806 10264 20283 30134 40141 333 59025;
0159614890999992000082515004+16500-015820FM-12+0006GQNR V0201801N004110090019N0100001N1+03521+02121101011ADDGA1061+009009059GF106991061061008001001001MA1999999100941MD1999999-0111REMSYN076AAXX  25154 61489 42560 61808 10352 20212 30094 40101 86600 333 59011 86630;
0208614890999992000082518004+16500-015820FM-12+0006GQNR V0202801N005112200019N0100001N1+03201+01261100911ADDAA199000091GA1031+009009059GF103991031061008001001001KA1120M+03651MA1999999100841MD1999999+0021REMSYN082AAXX  25184 61489 32560 32810 10320 20126 30084 40091 83600 333 10365 58002 83630;EQDQ01  00002PRCP99
0202614890999992000082606004+16500-015820FM-12+0006GQNR V0209999C000012200019N0100001N1+02681+02161101291ADDAA199000091GA1001+999999999GF100991001001999999001001KA1120N+02521MA1999999101221MD1999999-0021REMSYN076AAXX  26064 61489 32960 00000 10268 20216 30122 40129 333 0//00 20252 59002;EQDQ01  00002PRCP99
0165614890999992000082609004+16500-015820FM-12+0006GQNR V0209999C00001105001CN0100001N1+02741+02281101571ADDGA1021+009009069GF107991021061008001001021MA1999999101101MD1999999-0131REMSYN082AAXX  26094 61489 42560 70000 10274 20228 30110 40157 82602 333 59013 82630 85073;
0221614890999992000082615004+16500-015820FM-12+0006GQNR V0201801N005110090019N0100001N1+02741+02121101251ADDAY191031AY291031GA1051+009009099GA2071+039009039GF107991051031008001071999MA1999999101181MD1999999+0241MW1051REMSYN100AAXX  26154 61489 41560 71810 10274 20212 30118 40125 70599 8537/ 333 58024 85930 87363 94953 95835;
0229614890999992000082618004+16500-015820FM-12+0006GQNR V0201801N004110390019N0100001N1+02901+02301100931ADDAA112023991GA1031+009009089GA2051+039009039GF107991031021008001071021KA1120M+03301MA1999999100901MD1999999+0121REMSYN106AAXX  26184 61489 12560 71808 10290 20230 30090 40093 60242 83272 333 10330 58012 83830 85363 94922 93832;
0214614890999992000082706004+16500-015820FM-12+0006GQNR V0200801N005110390019N0100001N1+02521+02131101201ADDAA199000091GA1071+039009079GF107991071001999999071999KA1120N+02401MA1999999101131MD1999999-0091REMSYN088AAXX  27064 61489 32960 70810 10252 20213 30113 40120 8707/ 333 0//00 20240 59009 87363;EQDQ01  00002PRCP99
0159614890999992000082709004+16500-015820FM-12+0006GQNR V0200801N004110390019N0100001N1+02641+02171101341ADDGA1071+039009079GF107991071001999999071999MA1999999101271MD1999999-0231REMSYN076AAXX  27094 61489 42960 70808 10264 20217 30127 40134 8707/ 333 59023 87363;
0201614890999992000082712004+16500-015820FM-12+0006GQNR V0200801N00511045001CN0100001N1+03101+01861101341ADDAA199000091GA1031+009009069GF107991031061008001071001MA1999999101271MD1999999-0101REMSYN088AAXX  27124 61489 33560 70810 10310 20186 30127 40134 83670 333 0//00 59010 83630 85363;EQDQ01  00002PRCP99
0159614890999992000082715004+16500-015820FM-12+0006GQNR V0200801N00411045001CN0100001N1+03541+02181101011ADDGA1021+030009059GF105991031061008001071001MA1999999100941MD1999999-0241REMSYN076AAXX  27154 61489 42560 50808 10354 20218 30094 40101 83670 333 59024 82660;
0214614890999992000082718004+16500-015820FM-12+0006GQNR V0202801N00511105001CN0100001N1+02941+01541100731ADDAA199000091GA1031+009009069GF107991031061008001001021KA1120M+03621MA1999999100661MD1999999-0201REMSYN088AAXX  27184 61489 32560 72810 10294 20154 30066 40073 83602 333 10362 59020 83630 87073;EQDQ01  00002PRCP99
0202614890999992000082806004+16500-015820FM-12+0006GQNR V0209999C000012200019N0100001N1+02601+02101101431ADDAA199000091GA1001+999999999GF100991001001999999001001KA1120N+02521MA1999999101381MD1999999+0231REMSYN076AAXX  28064 61489 32960 00000 10260 20210 30138 40143 333 0//00 20252 58023;EQDQ01  00002PRCP99
0147614890999992000082809004+16500-015820FM-12+0006GQNR V0209999C000012200019N0100001N1+02781+02101101531ADDGA1001+999999999GF100991001001999999001001MA1999999101481MD1999999+0291REMSYN064AAXX  28094 61489 42960 00000 10278 20210 30148 40153 333 58029;
0183614890999992000082812004+16500-015820FM-12+0006GQNR V0209999C000012200019N0100001N1+03421+01841101231ADDAA199000091GA1001+999999999GF100991001001999999001001MA1999999101161MD1999999-0111REMSYN070AAXX  28124 61489 33960 00000 10342 20184 30116 40123 333 0//00 59011;EQDQ01  00002PRCP99
0147614890999992000082815004+16500-015820FM-12+0006GQNR V0201801N003112200019N0100001N1+03721+02161101071ADDGA1001+999999999GF100991001001999999001001MA1999999101001MD1999999+0061REMSYN064AAXX  28154 61489 42960 01806 10372 20216 30100 40107 333 58006;
0208614890999992000082818004+16500-015820FM-12+0006GQNR V0201801N003110690019N0100001N1+03601+02041100941ADDAA199000091GA1061+069009019GF106991001001999999001021KA1120M+03991MA1999999100871MD1999999+0211REMSYN082AAXX  28184 61489 32960 61806 10360 20204 30087 40094 80002 333 10399 58021 86073;EQDQ01  00002PRCP99
0183614890999992000082912004+16500-015820FM-12+0006GQNR V0201801N005112200019N0100001N1+03521+01991101331ADDAA199000091GA1001+999999999GF100991001001999999001001MA1999999101261MD1999999+0101REMSYN070AAXX  29124 61489 33960 01810 10352 20199 30126 40133 333 0//00 58010;EQDQ01  00002PRCP99
0159614890999992000082915004+16500-015820FM-12+0006GQNR V0201801N002112200019N0100001N1+03821+02221101151ADDGA1021+039009079GF102991021001999999081001MA1999999101081MD1999999+0081REMSYN076AAXX  29154 61489 42960 21804 10382 20222 30108 40115 82080 333 58008 82363;
0208614890999992000082918004+16500-015820FM-12+0006GQNR V0201801N003111050019N0100001N1+03501+01871101081ADDAA199000091GA1041+009009059GF105991041061008001001021KA1120M+04001MA1999999101011MD1999999+0141REMSYN082AAXX  29184 61489 32560 51806 10350 20187 30101 40108 84602 333 10400 58014 84630;EQDQ01  00002PRCP99
0159614890999992000083009004+16500-015820FM-12+0006GQNR V0202801N005110390019N0100001N1+02801+02101101211ADDGA1051+039009079GF107991051001999999071001MA1999999101141MD1999999-0141REMSYN076AAXX  30094 61489 42960 72810 10280 20210 30114 40121 85070 333 59014 85363;
0195614890999992000083012004+16500-015820FM-12+0006GQNR V0202801N005110090019N0100001N1+03161+02061101231ADDAA199000091GA1051+009009059GF107991051061008001001021MA1999999101161MD1999999-0101REMSYN082AAXX  30124 61489 33560 72810 10316 20206 30116 40123 85602 333 0//00 59010 85630;EQDQ01  00002PRCP99
0193614890999992000083015004+16500-015820FM-12+0006GQNR V0202801N005110690019N0100001N1+03201+02111101421ADDGA1031+009009089GA2071+069009009GF107991031021008001001021MA1999999101351MD1999999+0191REMSYN094AAXX  30154 61489 42560 72810 10320 20211 30135 40142 83202 333 58019 83830 87073 94922 95832;
0214614890999992000083106004+16500-015820FM-12+0006GQNR V0202801N005112200019N0100001N1+02641+02001101171ADDAA199000091GA1021+039009079GF102991021001999999071001KA1120N+02501MA1999999101081MD1999999+0051REMSYN088AAXX  31064 61489 32960 22810 10264 20200 30108 40117 82070 333 0//00 20250 58005 82363;EQDQ01  00002PRCP99
0159614890999992000083109004+16500-015820FM-12+0006GQNR V0202801N003112200019N0100001N1+02741+02221101281ADDGA1041+039009079GF104991041001999999071001MA1999999101211MD1999999+0071REMSYN076AAXX  31094 61489 42960 42806 10274 20222 30121 40128 84070 333 58007 84363;
0183614890999992000083112004+16500-015820FM-12+0006GQNR V0209999C000012200019N0100001N1+03461+01761101151ADDAA199000091GA1001+999999999GF100991001001999999001001MA1999999101081MD1999999-0081REMSYN070AAXX  31124 61489 33960 00000 10346 20176 30108 40115 333 0//00 59008;EQDQ01  00002PRCP99
0147614890999992000083115004+16500-015820FM-12+0006GQNR V0209999C000012200019N0100001N1+03741+02041100981ADDGA1001+999999999GF100991001001999999001001MA1999999100911MD1999999-0441REMSYN064AAXX  31154 61489 42960 00000 10374 20204 30091 40098 333 59044;
0212614890999992000083118004+16500-015820FM-12+0006GQNR V0202801N003112200019N0100001N1+02642+01861100861ADDAA199000091GA1001+999999999GF100991001001999999001001KA1120M+03951MA1999999100791MD1999999-0271REMSYN070AAXX  31184 61489 32960 02806 10264 20186 30079 40086 333 10395 59027;EQDQ01+002643ATOT  Q02  00002PRCP99
0171614890999992000090109004+16500-015820FM-12+0006GQNR V0200801N006210090019N0100001N1+02701+02141101561ADDGA1051+009009099GF107991051031008001071001MA1999999101491MD1999999+0281REMSYN088AAXX  01094 61489 42560 70812 10270 20214 30149 40156 85370 333 58028 85930 94952 95832;
0165614890999992000090115004+16500-015820FM-12+0006GQNR V0201801N003119999999N0100001N1+03651+01961100951ADDGA1041+039009039GF106991041001999999071021MA1999999100881MD1999999-0031REMSYN082AAXX  01154 61489 42960 61806 10365 20196 30088 40095 84072 333 59003 84363 83073;
0159614890999992000090209004+16500-015820FM-12+0006GQNR V0202801N004110390019N0100001N1+02801+02151101191ADDGA1051+039009079GF105991051001999999071001MA1999999101121MD1999999+0371REMSYN076AAXX  02094 61489 42960 52808 10280 20215 30112 40119 85070 333 58037 85363;
0195614890999992000090212004+16500-015820FM-12+0006GQNR V0202801N003112200019N0100001N1+03371+02071101321ADDAA199000091GA1031+069009019GF103991001001999999001011MA1999999101271MD1999999-0111REMSYN082AAXX  02124 61489 33960 32806 10337 20207 30127 40132 80001 333 0//00 59011 83073;EQDQ01  00002PRCP99
0159614890999992000090309004+16500-015820FM-12+0006GQNR V0209999C000012200019N0100001N1+02901+02371101341ADDGA1021+039009079GF102991021001999999031001MA1999999101271MD1999999+0151REMSYN076AAXX  03094 61489 42960 20000 10290 20237 30127 40134 82030 333 58015 82363;
0248614890999992000090318004+16500-015820FM-12+0006GQNR V0202801N008212200019N0060001N1+03521+02151101031ADDAA199000091AY101061AY201061GA1041+009909089GF104991041021017501001001KA1120M+03951MA1999999100951MD1999999+0241MW1071REMSYN100AAXX  03184 61489 31756 42816 10352 20215 30095 40103 70700 84200 333 10395 58024 84833 94938 95878;EQDQ01  00002PRCP99
0220614890999992000090406004+16500-015820FM-12+0006GQNR V0202801N006210120019N0100001N1+02721+02361101501ADDAA199000091GA1051+012009099GF107991051031012501071999KA1120N+02601MA1999999101431MD1999999+0311REMSYN094AAXX  04064 61489 32660 72812 10272 20236 30143 40150 8537/ 333 0//00 20260 58031 85940 84363;EQDQ01  00002PRCP99
0193614890999992000090409004+16500-015820FM-12+0006GQNR V0202201N00721045001CN0060001N1+02551+02071101591ADDAY121031AY221031GA1041+009009089GF107991041021012501071999MA1999999101521MD1999999+0251MW1071REMSYN088AAXX  04094 61489 41656 72214 10255 20207 30152 40159 70722 8427/ 333 58025 84830 86363;
0194614890999992000090412004+16500-015820FM-12+0006GQNR V0209999C00001045001CN0100001N1+03131+02051101641ADDAA106000791AC10I9GA1041+009009089GF107991041021012501071999MA1999999101571MD1999999+0191REMSYN094AAXX  04124 61489 12660 70000 10313 20205 30157 40164 69901 8427/ 333 0//14 58019 84830 85363;
0193614890999992000090509004+16500-015820FM-12+0006GQNR V0202801N004119999999N0045001N1+02801+02461101561ADDAY121031AY221031GA1031+039009039GF105991031001999999071021MA1999999101491MD1999999-0031MW1061REMSYN088AAXX  05094 61489 41945 52808 10280 20246 30149 40156 70622 83072 333 59003 83363 84073;
0207614890999992000090512004+16500-015820FM-12+0006GQNR V0203601N003110690019N0070001N1+03521+02491101401ADDAA199000091GA1051+069009019GF105991001001999999001021MA1999999101331MD1999999-0241MW1061REMSYN088AAXX  05124 61489 31957 53606 10352 20249 30133 40140 706// 80002 333 0//00 59024 85073;EQDQ01  00002PRCP99
0187614890999992000090515004+16500-015820FM-12+0006GQNR V0201801N004110690019N0045001N1+03851+02231101231ADDAY121031AY221031GA1071+069009019GF107991001001999999001021MA1999999101161MD1999999-0181MW1051REMSYN082AAXX  05154 61489 41945 71808 10385 20223 30116 40123 70522 80002 333 59018 87073;
0208614890999992000090518004+16500-015820FM-12+0006GQNR V0209999C000010690019N0080001N1+03821+02251101021ADDAA199000091GA1071+069009019GF107991001001999999001021KA1120M+04041MA1999999100951MD1999999-0111REMSYN082AAXX  05184 61489 32958 70000 10382 20225 30095 40102 80002 333 10404 59011 87073;EQDQ01  00002PRCP99
0214614890999992000090606004+16500-015820FM-12+0006GQNR V0202801N005112200019N0040001N1+02681+02391101371ADDAA199000091GA1001+999999999GF100991001001999999001001KA1120N+02581MA1999999101301MD1999999-0151MW1051REMSYN082AAXX  06064 61489 31940 02810 10268 20239 30130 40137 705// 333 0//00 20258 59015;EQDQ01  00002PRCP99
0207614890999992000090612004+16500-015820FM-12+0006GQNR V0201801N005112200019N0060001N1+03381+02341101371ADDAA199000091GA1041+009009059GF104991041051008001001001MA1999999101301MD1999999-0031MW1061REMSYN088AAXX  06124 61489 31556 41810 10338 20234 30130 40137 706// 84500 333 0//00 59003 84630;EQDQ01  00002PRCP99
0187614890999992000090615004+16500-015820FM-12+0006GQNR V0201601N006212200019N0070001N1+03641+02391101081ADDAY121031AY221031GA1041+069009019GF104991001001999999001011MA1999999101011MD1999999-0151MW1061REMSYN082AAXX  06154 61489 41957 41612 10364 20239 30101 40108 70622 80001 333 59015 84073;
0242614890999992000090618004+16500-015820FM-12+0006GQNR V0202201N00411105001CN0060001N1+03461+02251100781ADDAA199000091AY121061AY221061GA1021+009009069GF105991021051008001001021KA1120M+03721MA1999999100711MD1999999-0241MW1161REMSYN094AAXX  06184 61489 31556 52208 10346 20225 30071 40078 71622 82502 333 10372 59024 82630 84073;EQDQ01  00002PRCP99
0187614890999992000090709004+16500-015820FM-12+0006GQNR V0209999C000012200019N0040001N1+02881+02391102541ADDAY111031AY211031GA1031+069009019GF103991001001999999001011MA1999999101471MD1999999+0051MW1071REMSYN082AAXX  07094 61489 41940 30000 10288 20239 30147 40254 70711 80001 333 58005 83073;
0220614890999992000090718004+16500-015820FM-12+0006GQNR V0202801N005110099019N0100001N1+03651+02281100831ADDAA199000091GA1051+009909089GF105991051021008001001001KA1120M+03951MA1999999100761MD1999999-0021REMSYN094AAXX  07184 61489 32560 52810 10365 20228 30076 40083 85200 333 10395 59002 85833 94939 95879;EQDQ01  00002PRCP99
0207614890999992000090806004+16500-015820FM-12+0006GQNR V0209999C000012200019N0100001N1+02601+02211101151ADDAA124001091AC13I9GA1031+039009079GF103991031001999999031001KA1120N+02571MA1999999101081MD1999999-0041REMSYN094AAXX  08064 61489 12960 30000 10260 20221 30108 40115 60014 83030 333 0//18 20257 59004 83363;
0159614890999992000090809004+16500-015820FM-12+0006GQNR V0209999C000010030019N0080001N1+02851+02411101261ADDGA1051+003009069GF105991051061002501001001MA1999999101191MD1999999-0051REMSYN076AAXX  08094 61489 42358 50000 10285 20241 30119 40126 85600 333 59005 85710;
0195614890999992000090812004+16500-015820FM-12+0006GQNR V0202201N003110390019N0100001N1+03301+02431101201ADDAA199000091GA1061+039009079GF106991061001999999071001MA1999999101131MD1999999-0031REMSYN082AAXX  08124 61489 33960 62206 10330 20243 30113 40120 86070 333 0//00 59003 86363;EQDQ01  00002PRCP99
0159614890999992000090815004+16500-015820FM-12+0006GQNR V0202201N005110390019N0100001N1+03601+02411101031ADDGA1051+039009079GF105991051001999999071001MA1999999100951MD1999999+0031REMSYN076AAXX  08154 61489 42960 52210 10360 20241 30095 40103 85070 333 58003 85363;
0208614890999992000090818004+16500-015820FM-12+0006GQNR V0202801N006212200019N0100001N1+03551+02331101031ADDAA199000091GA1031+069009019GF103991001001999999001011KA1120M+03801MA1999999100961MD1999999+0001REMSYN082AAXX  08184 61489 32960 32812 10355 20233 30096 40103 80001 333 10380 58000 83073;EQDQ01  00002PRCP99
0226614890999992000090906004+16500-015820FM-12+0006GQNR V0203201N005112200019N0035001N1+02521+02191101141ADDAA199000091GA1031+039009079GF103991031001999999031001KA1120N+02501MA1999999101071MD1999999-0011MW1051REMSYN094AAXX  09064 61489 31935 33210 10252 20219 30107 40114 705// 83030 333 0//00 20250 59001 83363;EQDQ01  00002PRCP99
0175614890999992000090915004+16500-015820FM-12+0006GQNR V0203201N009312200019N0030001N1+03651+01931100931ADDAY101031AY201031GA1001+999999999GF100991001001999999001001MA1999999100861MD1999999-0101MW1071REMSYN070AAXX  09154 61489 41930 03218 10365 20193 30086 40093 70700 333 59010;
0224614890999992000090918004+16500-015820FM-12+0006GQNR V0203201N008212200019N0040001N1+03341+01731100861ADDAA199000091AY101061AY201061GA1001+999999999GF100991001001999999001001KA1120M+03951MA1999999100791MD1999999-0171MW1051REMSYN076AAXX  09184 61489 31940 03216 10334 20173 30079 40086 70500 333 10395 59017;EQDQ01  00002PRCP99
0187614890999992000091009004+16500-015820FM-12+0006GQNR V0203201N005112200019N0070001N1+02771+02331101121ADDAY101031AY201031GA1011+003009069GF101991011061002501001001MA1999999101051MD1999999-0091MW1061REMSYN082AAXX  10094 61489 41357 13210 10277 20233 30105 40112 70600 81600 333 59009 81710;
0195614890999992000091012004+16500-015820FM-12+0006GQNR V0202201N004112200019N0080001N1+03321+02211101171ADDAA199000091GA1041+009009059GF104991041051012501001001MA1999999101101MD1999999-0021REMSYN082AAXX  10124 61489 33658 42208 10332 20221 30110 40117 84500 333 0//00 59002 84630;EQDQ01  00002PRCP99
0208614890999992000091018004+16500-015820FM-12+0006GQNR V0202801N004112200019N0100001N1+03451+02191100941ADDAA199000091GA1011+039009079GF101991011001999999031001KA1120M+03701MA1999999100881MD1999999+0081REMSYN082AAXX  10184 61489 32960 12808 10345 20219 30088 40094 81030 333 10370 58008 81363;EQDQ01  00002PRCP99
0199614890999992000091106004+16500-015820FM-12+0006GQNR V0203201N004110390019N0080001N1+02721+02301101231ADDAA199000091GA1071+039009079GF107991071001999999071999KA1120N+02671MD1999999+0251REMSYN088AAXX  11064 61489 32958 73208 10272 2023/ 30/// 40123 8707/ 333 0//00 20267 58025 87363;EQDQ01  00002PRCP99
0201614890999992000091112004+16500-015820FM-12+0006GQNR V0202201N00311045001CN0080001N1+03351+02371101441ADDAA199000091GA1021+009009069GF106991021051008001071001MA1999999101371MD1999999+0271REMSYN088AAXX  11124 61489 33558 62206 10335 20237 30137 40144 82570 333 0//00 58027 82630 84363;EQDQ01  00002PRCP99
0242614890999992000091118004+16500-015820FM-12+0006GQNR V0202801N006210099019N0100001N1+03421+02231101101ADDAA199000091GA1051+009909069GA2041+039009039GF107991051021012501071999KA1120M+03841MA1999999101031MD1999999+0161REMSYN100AAXX  11184 61489 32660 72812 10342 20223 30103 40110 8527/ 333 10384 58016 85633 84363 94939 95879;EQDQ01  00002PRCP99
0187614890999992000091209004+16500-015820FM-12+0006GQNR V0203201N005112200019N0040001N1+02821+02291101171ADDAY111031AY211031GA1031+039009079GF103991031001999999071001MA1999999101101MD1999999-0131MW1061REMSYN082AAXX  12094 61489 41940 33210 10282 20229 30110 40117 70611 83070 333 59013 83363;
0195614890999992000091212004+16500-015820FM-12+0006GQNR V0203201N003112200019N0080001N1+03551+02051101271ADDAA199000091GA1041+039009079GF104991041001999999031001MA1999999101201MD1999999-0171REMSYN082AAXX  12124 61489 33958 43206 10355 20205 30120 40127 84030 333 0//00 59017 84363;EQDQ01  00002PRCP99
0159614890999992000091215004+16500-015820FM-12+0006GQNR V0203201N006212200019N0080001N1+03801+02331101161ADDGA1021+039009079GF102991021001999999031001MA1999999101091MD1999999-0021REMSYN076AAXX  12154 61489 42958 23212 10380 20233 30109 40116 82030 333 59002 82363;
0224614890999992000091218004+16500-015820FM-12+0006GQNR V0202801N008212200019N0050001N1+03341+02251101121ADDAA199000091AY101061AY201061GA1001+999999999GF100991001001999999001001KA1120M+03871MA1999999101051MD1999999+0021MW1071REMSYN076AAXX  12184 61489 31950 02816 10334 20225 30105 40112 70700 333 10387 58002;EQDQ01  00002PRCP99
0226614890999992000091306004+16500-015820FM-12+0006GQNR V0202801N005112200019N0035001N1+02621+02011101151ADDAA199000091GA1041+039009079GF104991041001999999071001KA1120N+02551MA1999999101081MD1999999+0101MW1061REMSYN094AAXX  13064 61489 32935 42810 10262 20201 30108 40115 706// 84070 333 0//00 20255 58010 84363;EQDQ01  00002PRCP99
0213614890999992000091312004+16500-015820FM-12+0006GQNR V0203201N00821105001CN0040001N1+03281+02151101271ADDAA199000091GA1031+006009079GF105991031061002501001021MA1999999101201MD1999999+0001MW1071REMSYN094AAXX  13124 61489 31340 53216 10328 20215 30120 40127 707// 83602 333 0//00 58000 83720 83073;EQDQ01  00002PRCP99
0193614890999992000091315004+16500-015820FM-12+0006GQNR V0202801N00931105001CN0035001N1+03341+02171101181ADDAY121031AY221031GA1041+009009069GF106991041051008001001021MA1999999101111MD1999999+0021MW1071REMSYN088AAXX  13154 61489 41535 62818 10334 20217 30111 40118 70722 84502 333 58002 84630 83073;
0270614890999992000091318004+16500-015820FM-12+0006GQNR V0202801N008210690019N0045001N1+03061+02211101181ADDAA199000091AY121061AY221061GA1041+009909089GA2031+069009009GF107991041021017501001021KA1120M+03501MA1999999101111MD1999999+0061MW1071REMSYN106AAXX  13184 61489 31745 72816 10306 20221 30111 40118 70722 84202 333 10350 58006 84833 83073 94939 95839;EQDQ01  00002PRCP99
0147614890999992000091409004+16500-015820FM-12+0006GQNR V0202801N003112200019N0080001N1+02831+02291101391ADDGA1001+999999999GF100991001001999999001001MA1999999101321MD1999999+0161REMSYN064AAXX  14094 61489 42958 02806 10283 20229 30132 40139 333 58016;
0229614890999992000091412004+16500-015820FM-12+0006GQNR V0202201N005110099019N0080001N1+03321+02231101531ADDAA199000091GA1051+009909089GA2041+039009039GF107991051021012501071999MA1999999101461MD1999999+0261REMSYN100AAXX  14124 61489 33658 72210 10332 20223 30146 40153 8527/ 333 0//00 58026 85833 84363 94939 95879;EQDQ01  00002PRCP99
0193614890999992000091415004+16500-015820FM-12+0006GQNR V0203201N004110690019N0100001N1+03441+02331101321ADDGA1041+009909059GA2041+069009009GF107991041021012501001021MA1999999101251MD1999999+0141REMSYN094AAXX  14154 61489 42660 73208 10344 20233 30125 40132 84202 333 58014 84533 84073 94939 95879;
0251614890999992000091418004+16500-015820FM-12+0006GQNR V0202801N004110390019N0080001N1+03221+02291101301ADDAA199000021AY121061AY221061GA1041+009909089GA2041+039009039GF107991041081012501071999KA1120M+03571MA1999999101231MD1999999+0221MW1981REMSYN106AAXX  14184 61489 31658 72808 10322 20229 30123 40130 79822 8487/ 333 10357 58022 84833 84363 94932 95832;
0207614890999992000091506004+16500-015820FM-12+0006GQNR V0209999C000010390019N0100001N1+02401+01831101361ADDAA124020191AC12I9GA1061+039009079GF106991061001999999071001KA1120N+02401MA1999999101291MD1999999+0081REMSYN094AAXX  15064 61489 12960 60000 10240 20183 30129 40136 60204 86070 333 0//26 20240 58008 86363;
0159614890999992000091509004+16500-015820FM-12+0006GQNR V0200401N004110390019N0100001N1+02561+01851101441ADDGA1051+039009079GF105991051001999999071001MA1999999101371MD1999999+0061REMSYN076AAXX  15094 61489 42960 50408 10256 20185 30137 40144 85070 333 58006 85363;
0193614890999992000091515004+16500-015820FM-12+0006GQNR V0209999C000010390019N0100001N1+03361+02171101421ADDGA1041+009909089GA2031+039009039GF106991041021012501071001MA1999999101351MD1999999+0101REMSYN094AAXX  15154 61489 42660 60000 10336 20217 30135 40142 84270 333 58010 84833 83363 94928 95838;
0165614890999992000091709004+16500-015820FM-12+0006GQNR V0209999C00001105001CN0100001N1+02801+02521101241ADDGA1031+009009069GF105991031051012501001021MA1999999101171MD1999999-0151REMSYN082AAXX  17094 61489 42660 50000 10280 20252 30117 40124 83502 333 59015 83630 83073;
0165614890999992000091715004+16500-015820FM-12+0006GQNR V0201801N004112200019N0100001N1+03461+02791101111ADDGA1021+009009069GF104991021051012501001021MA1999999101041MD1999999+0001REMSYN082AAXX  17154 61489 42660 41808 10346 20279 30104 40111 82502 333 58000 82630 84073;
0220614890999992000091806004+16500-015820FM-12+0006GQNR V0203601N006210090019N0080001N1+02441+02211101771ADDAA199000091GA1051+009009089GF108991051081012501071999KA1120N+02331MA1999999101701MD1999999+0701REMSYN094AAXX  18064 61489 32658 83612 10244 20221 30170 40177 8587/ 333 0//00 20233 58070 85830 85363;EQDQ01  00002PRCP99
0193614890999992000091809004+16500-015820FM-12+0006GQNR V0201401N009310090019N0060001N1+02201+02051101711ADDAY161031AY291031GA1061+009009089GF108991051081012501071999MA1999999101641MD1999999+0471MW1601REMSYN088AAXX  18094 61489 41656 81418 10220 20205 30164 40171 76069 8587/ 333 58047 86830 86363;
0186614890999992000091812004+16500-015820FM-12+0006GQNR V0200801N00621045001CN0100001N1+02831+02201101891ADDAA199000021GA1031+009009089GF107991031021012501071999MD1999999+0191REMSYN088AAXX  18124 61489 33660 70812 10283 20220 39142 40189 8327/ 333 0//00 58019 83830 86363;EQDQ01+091423APOSP 
0212614890999992000091815004+16500-015820FM-12+0006GQNR V0200801N004110390019N0100001N1+03221+02171101262ADDGA1031+009009089GA2061+039009039GF107991031021012501071999MA1999999101191MD1999999+0111REMSYN094AAXX  18154 61489 42660 70808 10322 20217 30119 40126 8327/ 333 58011 83830 86363 94922 95832;EQDQ01+101263APOSLP
0183614890999992000091912004+16500-015820FM-12+0006GQNR V0202801N003112200019N0100001N1+03261+01631101261ADDAA199000091GA1001+999999999GF100991001001999999001001MA1999999101191MD1999999-0231REMSYN070AAXX  19124 61489 33960 02806 10326 20163 30119 40126 333 0//00 59023;EQDQ01  00002PRCP99
0169614890999992000092006004+16500-015820FM-12+0006GQNR V0209999C000012200019N0100001N1+02601+02361101101ADDAA115902092GA1001+999999999GF100991001001999999001001KA1120N+02601MA1999999101031REMSYN076AAXX  20064 61489 32960 00000 10260 20236 30103 40110 333 0//00 20260 69020;
0147614890999992000092009004+16500-015820FM-12+0006GQNR V0209999C000012200019N0100001N1+02701+02421101311ADDGA1001+999999999GF100991001001999999001001MA1999999101241MD1999999-0141REMSYN064AAXX  20094 61489 42960 00000 10270 20242 30124 40131 333 59014;
0153614890999992000092012004+16500-015820FM-12+0006GQNR V0200801N003112200019N0100001N1+03321+01661101051ADDGA1001+999999999GF100991001001999999001001MA1999999100981MD1999999-0101REMSYN070AAXX  20124 61489 22960 00806 10332 20166 30098 40105 333 0//00 59010;
0159614890999992000092015004+16500-015820FM-12+0006GQNR V0200801N005112200019N0100001N1+03641+01901100871ADDGA1031+069009019GF103991001001999999001021MA1999999100801MD1999999-0121REMSYN076AAXX  20154 61489 42960 30810 10364 20190 30080 40087 80002 333 59012 83073;
0208614890999992000092018004+16500-015820FM-12+0006GQNR V0200801N003112200019N0100001N1+03621+01801100861ADDAA199000091GA1031+069009019GF103991001001999999001021KA1120M+03851MA1999999100791MD1999999-0051REMSYN082AAXX  20184 61489 32960 30806 10362 20180 30079 40086 80002 333 10385 59005 83073;EQDQ01  00002PRCP99
0207614890999992000092106004+16500-015820FM-12+0006GQNR V0209999C000010390019N0100001N1+02661+02041101121ADDAA124006191AC13I9GA1051+039009079GF107991051001999999071021KA1120N+02531MA1999999101051MD1999999+0021REMSYN094AAXX  21064 61489 12960 70000 10266 20204 30105 40112 60064 85072 333 0//37 20253 58002 85363;
0159614890999992000092109004+16500-015820FM-12+0006GQNR V0201801N005110390019N0100001N1+02821+02171101371ADDGA1051+039009079GF107991051001999999071021MA1999999101301MD1999999+0061REMSYN076AAXX  21094 61489 42960 71810 10282 20217 30130 40137 85072 333 58006 85363;
0178614890999992000092115004+16500-015820FM-12+0006GQNR V0209999C000019999999N0100001N1+03521+02101101111ADDGA1031+009009059GF105991999061008001001021MA1999999101041MD1999999+0211REMSYN076AAXX  21154 61489 42560 50000 10352 20210 30104 40111 86602 333 58021 83630;EQDQ01+000062SCOTLC
0208614890999992000092118004+16500-015820FM-12+0006GQNR V0200801N003111050019N0100001N1+03421+02061101011ADDAA199000091GA1041+009009059GF105991041061008001001021KA1120M+03761MA1999999100941MD1999999+0161REMSYN082AAXX  21184 61489 32560 50806 10342 20206 30094 40101 84602 333 10376 58016 84630;EQDQ01  00002PRCP99
0214614890999992000092206004+16500-015820FM-12+0006GQNR V0209999C000010390019N0100001N1+02701+02121101421ADDAA199000091GA1051+039009079GF107991051001999999071021KA1120N+02641MA1999999101351MD1999999-0301REMSYN088AAXX  22064 61489 32960 70000 10270 20212 30135 40142 85072 333 0//00 20264 59030 85363;EQDQ01  00002PRCP99
0159614890999992000092209004+16500-015820FM-12+0006GQNR V0202801N005110390019N0100001N1+02841+02221101561ADDGA1051+039009079GF107991051001999999071021MA1999999101491MD1999999+0161REMSYN076AAXX  22094 61489 42960 72810 10284 20222 30149 40156 85072 333 58016 85363;
0195614890999992000092212004+16500-015820FM-12+0006GQNR V0202801N003110090019N0100001N1+03321+01711101531ADDAA199000091GA1051+009009059GF105991051061008001001001MA1999999101461MD1999999+0101REMSYN082AAXX  22124 61489 33560 52806 10332 20171 30146 40153 85600 333 0//00 58010 85630;EQDQ01  00002PRCP99
0257614890999992000092218004+16500-015820FM-12+0006GQNR V0202801N004110090019N0100001N1+02621+01721101211ADDAA112014091AY191061AY261061GA1061+009009099GA2071+039009039GF108991061031008001071999KA1120M+03771MA1999999101141MD1999999+0201MW1601REMSYN112AAXX  22184 61489 11560 82808 10262 20172 30114 40121 60142 76096 8637/ 333 10377 58020 86930 87363 94935 95833;
0195614890999992000092312004+16500-015820FM-12+0006GQNR V0202201N005110390019N0100001N1+02521+01301101531ADDAA199000091GA1071+039009079GF107991071001999999071999MA1999999101461MD1999999+0001REMSYN082AAXX  23124 61489 33960 72210 10252 20130 30146 40153 8707/ 333 0//00 58000 87363;EQDQ01  00002PRCP99
0202614890999992000092406004+16500-015820FM-12+0006GQNR V0209999C000012200019N0100001N1+02541+02121101191ADDAA199000091GA1001+999999999GF100991001001999999001001KA1120N+02431MA1999999100121MD1999999-0331REMSYN076AAXX  24064 61489 32960 00000 10254 20212 30012 40119 333 0//00 20243 59033;EQDQ01  00002PRCP99
0166614890999992000092409004+16500-015820FM-12+0006GQNR V0202801N003112200019N0100001N1+02681+02321101351ADDGA1001+999999999GF100991001001999999001001MA1999999101282MD1999999-0441REMSYN064AAXX  24094 61489 42960 02806 10268 20232 30128 40135 333 59044;EQDQ01+101283APOSP 
0147614890999992000092415004+16500-015820FM-12+0006GQNR V0203601N006212200019N0100001N1+03741+02001100961ADDGA1001+999999999GF100991001001999999001001MA1999999100891MD1999999-0221REMSYN064AAXX  24154 61489 42960 03612 10374 20200 30089 40096 333 59022;
0196614890999992000092418004+16500-015820FM-12+0006GQNR V0203601N005112200019N0100001N1+03441+01461100821ADDAA199000091GA1001+999999999GF100991001001999999001001KA1120M+03871MA1999999100751MD1999999-0261REMSYN070AAXX  24184 61489 32960 03610 10344 20146 30075 40082 333 10387 59026;EQDQ01  00002PRCP99
0202614890999992000092506004+16500-015820FM-12+0006GQNR V0203601N004112200019N0100001N1+02581+02161101051ADDAA199000091GA1001+999999999GF100991001001999999001001KA1120N+02521MA1999999100991MD1999999-0161REMSYN076AAXX  25064 61489 32960 03608 10258 20216 30099 40105 333 0//00 20252 59016;EQDQ01  00002PRCP99
0182614890999992000092509004+16500-015820FM-12+0006GQNR V0203601N003112200019N0100001N1+03832+03362101301ADDGA1001+999999999GF100991001001999999001001MA1999999101231MD1999999-0051REMSYN064AAXX  25094 61489 42960 03606 10383 20336 30123 40130 333 59005;EQDQ01+003833ATOT  Q02+003363ATOD  
0202614890999992000092606004+16500-015820FM-12+0006GQNR V0202801N004112200019N0100001N1+02561+02201101271ADDAA199000091GA1001+999999999GF100991001001999999001001KA1120N+02471MA1999999101201MD1999999+0211REMSYN076AAXX  26064 61489 32960 02808 10256 20220 30120 40127 333 0//00 20247 58021;EQDQ01  00002PRCP99
0147614890999992000092609004+16500-015820FM-12+0006GQNR V0202801N001012200019N0100001N1+02821+02071101401ADDGA1001+999999999GF100991001001999999001001MA1999999101331MD1999999+0101REMSYN064AAXX  26094 61489 42960 02802 10282 20207 30133 40140 333 58010;
0201614890999992000092612004+16500-015820FM-12+0006GQNR V0201401N00311045001CN0100001N1+03301+01921101531ADDAA199000091GA1031+009009069GF107991031061008001071001MA1999999101461MD1999999+0401REMSYN088AAXX  26124 61489 33560 71406 10330 20192 30146 40153 83670 333 0//00 58040 83630 85363;EQDQ01  00002PRCP99
0159614890999992000092615004+16500-015820FM-12+0006GQNR V0201401N004110390019N0100001N1+03601+02151101201ADDGA1051+039009079GF105991051001999999071001MA1999999101131MD1999999+0351REMSYN076AAXX  26154 61489 42960 51408 10360 20215 30113 40120 85070 333 58035 85363;
0214614890999992000092706004+16500-015820FM-12+0006GQNR V0209999C000010390019N0100001N1+02741+02021101491ADDAA199000091GA1071+039009079GF107991071001999999071999KA1120N+02561MA1999999101421MD1999999+0221REMSYN088AAXX  27064 61489 32960 70000 10274 20202 30142 40149 8707/ 333 0///0 20256 58022 87363;EQDQ01  00002PRCP99
0221614890999992000092709004+16500-015820FM-12+0006GQNR V0200801N006210390019N0100001N1+02481+01751101811ADDAY191031AY261031GA1041+009009099GA2071+039009039GF108991041091999999071999MA1999999101741MD1999999+0411MW1951REMSYN100AAXX  27094 61489 41960 80812 10248 20175 30174 40181 79596 8497/ 333 58041 84930 87363 94952 95832;
0200614890999992000092712004+16500-015820FM-12+0006GQNR V0200801N005110390019N0100001N1+02401+01761101831ADDAA106006191AC12C9GA1071+039009079GF107991071001999999071999MA1999999101751MD1999999+0301MW1601REMSYN094AAXX  27124 61489 11960 70810 10240 20176 30175 40183 60061 760// 8707/ 333 0//32 58030 87363;
0187614890999992000092715004+16500-015820FM-12+0006GQNR V0200801N004110390019N0100001N1+02681+01121101541ADDAY161031AY261031GA1071+039009079GF107991071001999999071999MA1999999101471MD1999999+0641MW1601REMSYN082AAXX  27154 61489 41960 70808 10268 20112 30147 40154 76066 8707/ 333 58064 87363;
0214614890999992000092718004+16500-015820FM-12+0006GQNR V0209999C000010390019N0100001N1+02501+02101101591ADDAA112003091GA1071+039009079GF107991999001999999071999KA1120M+02851MA1999999101521MD1999999+0541REMSYN088AAXX  27184 61489 12960 70000 10250 20210 30152 40159 60032 8807/ 333 10285 58054 87363;EQDQ01+000082SCOTLC
0201614890999992000092806004+16500-015820FM-12+0006GQNR V0209999C000010390019N0100001N1+02321+02041101121ADDAA124007991GA1061+039009079GF106991061001999999071001KA1120N+02301MA1999999101051MD1999999-0341REMSYN094AAXX  28064 61489 12960 60000 10232 20204 30105 40112 60084 86070 333 0//39 20230 59034 86363;
0159614890999992000092809004+16500-015820FM-12+0006GQNR V0209999C000010390019N0100001N1+02641+02321101371ADDGA1061+039009079GF106991061001999999071001MA1999999101301MD1999999-0441REMSYN076AAXX  28094 61489 42960 60000 10264 20232 30130 40137 86070 333 59044 86363;
0189614890999992000092812004+16500-015820FM-12+0006GQNR V0203601N005110390019N0100001N1+03101+01991999999ADDAA199000091GA1051+039009079GF105991051001999999071001MA1999999101481MD1999999-0291REMSYN076AAXX  28124 61489 33960 53610 10310 20199 30148 85070 333 0//00 59029 85363;EQDQ01  00002PRCP99
0159614890999992000092815004+16500-015820FM-12+0006GQNR V0203601N004110390019N0100001N1+03701+02161101221ADDGA1051+039009079GF105991051001999999071001MA1999999101151MD1999999-0321REMSYN076AAXX  28154 61489 42960 53608 10370 20216 30115 40122 85070 333 59032 85363;
0147614890999992000092909004+16500-015820FM-12+0006GQNR V0202801N003112200019N0100001N1+02701+02291101251ADDGA1001+999999999GF100991001001999999001001MA1999999101181MD1999999-0121REMSYN064AAXX  29094 61489 42960 02806 10270 20229 30118 40125 333 59012;
0183614890999992000092912004+16500-015820FM-12+0006GQNR V0200401N005112200019N0100001N1+03521+01741101161ADDAA199000091GA1001+999999999GF100991001001999999001001MA1999999101091MD1999999-0321REMSYN070AAXX  29124 61489 32960 00410 10352 20174 30109 40116 333 0//00 59032;EQDQ01  00002PRCP99
0147614890999992000092915004+16500-015820FM-12+0006GQNR V0200401N004112200019N0100001N1+03801+01891100961ADDGA1001+999999999GF100991001001999999001001MA1999999100891MD1999999-0261REMSYN064AAXX  29154 61489 42960 00408 10380 20189 30089 40096 333 59026;
0202614890999992000093006004+16500-015820FM-12+0006GQNR V0209999C000012200019N0100001N1+02661+02161101081ADDAA199000091GA1001+999999999GF100991001001999999001001KA1120N+02531MA1999999101011MD1999999+0001REMSYN076AAXX  30064 61489 32960 00000 10266 20216 30101 40108 333 0//00 20253 58000;EQDQ01  00002PRCP99
0147614890999992000093009004+16500-015820FM-12+0006GQNR V0209999C000012200019N0100001N1+02701+02301101331ADDGA1001+999999999GF100991001001999999001001MA1999999101261MD1999999+0081REMSYN064AAXX  30094 61489 42960 00000 10270 20230 30126 40133 333 58008;
0147614890999992000100109004+16500-015820FM-12+0006GQNR V0200401N004112200019N0100001N1+02781+02221101221ADDGA1001+999999999GF100991001001999999001001MA1999999101151MD1999999-0111REMSYN064AAXX  01094 61489 42960 00408 10278 20222 30115 40122 333 59011;
0208614890999992000100118004+16500-015820FM-12+0006GQNR V0209999C000012200019N0100001N1+03721+02131100961ADDAA199000091GA1031+069009019GF103991001001999999001011KA1120M+03871MA1999999100891MD1999999+0101REMSYN082AAXX  01184 61489 32960 30000 10372 20213 30089 40096 80001 333 10387 58010 83073;EQDQ01  00002PRCP99
0220614890999992000100206004+16500-015820FM-12+0006GQNR V0209999C000019999999N0100001N1+02741+02311101241ADDAA199000091GA1021+039009039GF106991021001999999071021KA1120N+02541MA1999999101171MD1999999+0261REMSYN094AAXX  02064 61489 32960 60000 10274 20231 30117 40124 82072 333 0//00 20254 58026 82363 84073;EQDQ01  00002PRCP99
0200614890999992000100209004+16500-015820FM-12+0006GQNR V0209999C000019999999N0100001N1+02831+02351101601ADDGA1031+039009039GF105991999001999999999021MA1999999100741MD1999999+0121REMSYN082AAXX  02094 61489 42960 50000 10283 20235 30074 40160 80002 333 58012 83363 83073;EQDQ01+000002SCOTLCQ02+000002SCOMCG
0242614890999992000100218004+16500-015820FM-12+0006GQNR V0209999C000010390019N0100001N1+03301+02291101031ADDAA199000091GA1031+009909069GA2051+039009039GF106991031021012501071001KA1120M+03461MA1999999100961MD1999999+0071REMSYN100AAXX  02184 61489 32660 60000 10330 20229 30096 40103 83270 333 10346 58007 83633 85363 94934 95834;EQDQ01  00002PRCP99
0241614890999992000100306004+16500-015820FM-12+0006GQNR V0200801N005110390019N0080001N1+02371+02151101311ADDAA124004191AC13I9GA1031+009909089GA2071+039009039GF107991031021999999071999KA1120N+02071MA1999999101241MD1999999+0071REMSYN112AAXX  03064 61489 12958 70810 10237 20215 30124 40131 60044 8327/ 333 0//18 20207 58007 83833 87363 94929 95839;
0177614890999992000100309004+16500-015820FM-12+0006GQNR V0209999C00001045001CN0080001N1+02501+02211101331ADDGA1041+039009039GF106991021021012501071001MA1999999101261MD1999999-0011REMSYN094AAXX  03094 61489 42658 60000 10250 20221 30126 40133 82270 333 59001 80833 84363 94929 95819;
0242614890999992000100318004+16500-015820FM-12+0006GQNR V0209999C000010390019N0080001N1+03541+02251101011ADDAA199000091GA1041+009009099GA2041+039009039GF106991041031008001071001KA1120M+03681MA1999999100941MD1999999-0021REMSYN100AAXX  03184 61489 32558 60000 10354 20225 30094 40101 84370 333 10368 59002 84930 84363 94973 95873;EQDQ01  00002PRCP99
0159614890999992000100415004+16500-015820FM-12+0006GQNR V0202801N006210390019N0100001N1+03421+02241101011ADDGA1071+039009079GF107991071001999999071999MA1999999100941MD1999999-0121REMSYN076AAXX  04154 61489 42960 72812 10342 20224 30094 40101 8707/ 333 59012 87363;
0208614890999992000100418004+16500-015820FM-12+0006GQNR V0203201N004110390019N0100001N1+03201+02171100951ADDAA199000091GA1071+039009079GF107991071001999999071999KA1120M+03531MA1999999100881MD1999999-0061REMSYN082AAXX  04184 61489 32960 73208 10320 20217 30088 40095 8707/ 333 10353 59006 87363;EQDQ01  00002PRCP99
0214614890999992000100506004+16500-015820FM-12+0006GQNR V0203201N003110390019N0100001N1+02641+02291101041ADDAA199000091GA1051+039009079GF105991051001999999071001KA1120N+02461MA1999999100971MD1999999-0151REMSYN088AAXX  05064 61489 32960 53206 10264 20229 30097 40104 85070 333 0//00 20246 59015 85363;EQDQ01  00002PRCP99
0159614890999992000100509004+16500-015820FM-12+0006GQNR V0203601N005112200019N0100001N1+02781+02411101151ADDGA1041+039009079GF104991041001999999071001MA1999999101081MD1999999-0161REMSYN076AAXX  05094 61489 42960 43610 10278 20241 30108 40115 84070 333 59016 84363;
0195614890999992000100512004+16500-015820FM-12+0006GQNR V0209999C000012200019N0100001N1+03351+02311101201ADDAA199000091GA1041+072009019GF104991001001999999001011MA1999999101131MD1999999-0121REMSYN082AAXX  05124 61489 33960 40000 10335 20231 30113 40120 80001 333 0//00 59012 84074;EQDQ01  00002PRCP99
0147614890999992000100515004+16500-015820FM-12+0006GQNR V0203201N004112200019N0100001N1+03601+02321100931ADDGA1001+999999999GF100991001001999999001001MA1999999100861MD1999999-0081REMSYN064AAXX  05154 61489 42960 03208 10360 20232 30086 40093 333 59008;
0196614890999992000100518004+16500-015820FM-12+0006GQNR V0202201N006212200019N0080001N1+03301+02291100861ADDAA199000091GA1001+999999999GF100991001001999999001001KA1120M+03701MA1999999100791MD1999999-0091REMSYN070AAXX  05184 61489 32958 02212 10330 20229 30079 40086 333 10370 59009;EQDQ01  00002PRCP99
0171614890999992000100609004+16500-015820FM-12+0006GQNR V0202801N004112200019N0100001N1+02741+02311101201ADDGA1021+009909089GF102991021021012501001001MA1999999101131MD1999999+0051REMSYN088AAXX  06094 61489 42660 22808 10274 20231 30113 40120 82200 333 58005 82833 94923 95813;
0183614890999992000100612004+16500-015820FM-12+0006GQNR V0203201N004112200019N0100001N1+03321+02291101331ADDAA199000091GA1001+999999999GF100991001001999999001001MA1999999101261MD1999999+0131REMSYN070AAXX  06124 61489 33960 03208 10332 20229 30126 40133 333 0//00 58013;EQDQ01  00002PRCP99
0147614890999992000100615004+16500-015820FM-12+0006GQNR V0202801N005112200019N0100001N1+03641+02371101061ADDGA1001+999999999GF100991001001999999001001MA1999999100991MD1999999+0201REMSYN064AAXX  06154 61489 42960 02810 10364 20237 30099 40106 333 58020;
0220614890999992000100618004+16500-015820FM-12+0006GQNR V0202801N005112200019N0100001N1+03501+02271100931ADDAA199000091GA1021+009909089GF102991021021012501001001KA1120M+03761MA1999999100841MD1999999+0051REMSYN094AAXX  06184 61489 32660 22810 10350 20227 30084 40093 82200 333 10376 58005 82833 94922 95812;EQDQ01  00002PRCP99
0202614890999992000100706004+16500-015820FM-12+0006GQNR V0203201N003112200019N0100001N1+02491+01911101131ADDAA199000091GA1001+999999999GF100991001001999999001001KA1120N+02371MA1999999101061MD1999999+0031REMSYN076AAXX  07064 61489 32960 03206 10249 20191 30106 40113 333 0//00 20237 58003;EQDQ01  00002PRCP99
0147614890999992000100709004+16500-015820FM-12+0006GQNR V0203201N003112200019N0100001N1+02701+01951101321ADDGA1001+999999999GF100991001001999999001001MA1999999101251MD1999999+0081REMSYN064AAXX  07094 61489 42960 03206 10270 20195 30125 40132 333 58008;
0183614890999992000100712004+16500-015820FM-12+0006GQNR V0203601N003112200019N0100001N1+03501+01831101441ADDAA199000091GA1001+999999999GF100991001001999999001001MA1999999101371MD1999999+0111REMSYN070AAXX  07124 61489 33960 03606 10350 20183 30137 40144 333 0//00 58011;EQDQ01  00002PRCP99
0147614890999992000100715004+16500-015820FM-12+0006GQNR V0203601N005112200019N0100001N1+03801+02051101201ADDGA1001+999999999GF100991001001999999001001MA1999999101131MD1999999+0141REMSYN064AAXX  07154 61489 42960 03610 10380 20205 30113 40120 333 58014;
0202614890999992000100806004+16500-015820FM-12+0006GQNR V0209999C000012200019N0100001N1+02301+02151101411ADDAA199000091GA1001+999999999GF100991001001999999001001KA1120N+02231MA1999999101341MD1999999+0281REMSYN076AAXX  08064 61489 32960 00000 10230 20215 30134 40141 333 0//00 20223 58028;EQDQ01  00002PRCP99
0147614890999992000100809004+16500-015820FM-12+0006GQNR V0209999C000012200019N0100001N1+02431+02081101531ADDGA1001+999999999GF100991001001999999001001MA1999999101461MD1999999+0211REMSYN064AAXX  08094 61489 42960 00000 10243 20208 30146 40153 333 58021;
0183614890999992000100812004+16500-015820FM-12+0006GQNR V0203601N005112200019N0100001N1+03421+01601101441ADDAA199000091GA1001+999999999GF100991001001999999001001MA1999999101371MD1999999+0001REMSYN070AAXX  08124 61489 33960 03610 10342 20160 30137 40144 333 0//00 58000;EQDQ01  00002PRCP99
0214614890999992000100906004+16500-015820FM-12+0006GQNR V0203601N003112200019N0100001N1+02301+02071101311ADDAA199000091GA1031+069009019GF103991001001999999001021KA1120N+02231MA1999999101241MD1999999-0101REMSYN088AAXX  09064 61489 32960 33606 10230 20207 30124 40131 80002 333 0//00 20223 59010 83073;EQDQ01  00002PRCP99
0159614890999992000100909004+16500-015820FM-12+0006GQNR V0203601N005112200019N0100001N1+02401+02001101411ADDGA1031+069009019GF103991001001999999001021MA1999999101341MD1999999-0121REMSYN076AAXX  09094 61489 42960 33610 10240 20200 30134 40141 80002 333 59012 83073;
0183614890999992000100912004+16500-015820FM-12+0006GQNR V0209999C000012200019N0100001N1+03401+01481101411ADDAA199000091GA1001+999999999GF100991001001999999001001MA1999999101341MD1999999-0031REMSYN070AAXX  09124 61489 33960 00000 10340 20148 30134 40141 333 0//00 59003;EQDQ01  00002PRCP99
0183614890999992000101012004+16500-015820FM-12+0006GQNR V0200401N005112200019N0100001N1+03731+01041101231ADDAA199000091GA1001+999999999GF100991001001999999001001MA1999999101161MD1999999-0181REMSYN070AAXX  10124 61489 33960 00410 10373 20104 30116 40123 333 0//00 59018;EQDQ01  00002PRCP99
0147614890999992000101015004+16500-015820FM-12+0006GQNR V0200801N004112200019N0100001N1+04271+00851100871ADDGA1001+999999999GF100991001001999999001001MA1999999100801MD1999999-0311REMSYN064AAXX  10154 61489 42960 00808 10427 20085 30080 40087 333 59031;
0206614890999992000101106004+16500-015820FM-12+0006GQNR V0209999C000012200019N0100001N1+02301+01961100921ADDAA199000091GA1021+039009039GF103991021001999999031021KA1120N+02241MA1999999100851REMSYN094AAXX  11064 61489 32960 30000 10230 20196 30085 40092 82032 333 0//00 20224 50928 82363 82073;EQDQ01  00002PRCP99
0147614890999992000101109004+16500-015820FM-12+0006GQNR V0209999C000012200019N0100001N1+02801+01211101101ADDGA1001+999999999GF100991001001999999001001MA1999999101031MD1999999-0161REMSYN064AAXX  11094 61489 42960 00000 10280 20121 30103 40110 333 59016;
0207614890999992000101112004+16500-015820FM-12+0006GQNR V0200801N007210690019N0070001N1+03951+01301101071ADDAA199000091GA1051+069009019GF105991001001999999001021MA1999999101001MD1999999-0161MW1071REMSYN088AAXX  11124 61489 31957 50814 10395 20130 30100 40107 707// 80002 333 0//00 59016 85073;EQDQ01  00002PRCP99
0147614890999992000101115004+16500-015820FM-12+0006GQNR V0200801N006212200019N0080001N1+04251+00881100841ADDGA1001+999999999GF100991001001999999001001MA1999999100771MD1999999-0031REMSYN064AAXX  11154 61489 42958 00812 10425 20088 30077 40084 333 59003;
0236614890999992000101118004+16500-015820FM-12+0006GQNR V0200401N008210690019N0070001N1+04061+00911100741ADDAA199000091AY121061AY221061GA1061+069009019GF106991001001999999001021KA1120M+04331MA1999999100671MD1999999-0031MW1071REMSYN088AAXX  11184 61489 31957 60416 10406 20091 30067 40074 70722 80002 333 10433 59003 86073;EQDQ01  00002PRCP99
0210614890999992000101206004+16500-015820FM-12+0006GQNR V0209999C000012200019N0100001N1+02701+00891101111ADDAA199000091GF103991001001999999001021KA1120N+02751MA1999999101041MD1999999+0101REMSYN100AAXX  12064 61489 32960 30000 10270 20089 30104 40111 80002 333 0//00 20275 51654 55/// 58010 83073;EQDQ01  00002PRCP99
0147614890999992000101209004+16500-015820FM-12+0006GQNR V0209999C000012200019N0100001N1+03001+01451101251ADDGA1001+999999999GF100991001001999999001001MA1999999101181MD1999999+0151REMSYN064AAXX  12094 61489 42960 00000 10300 20145 30118 40125 333 58015;
0183614890999992000101212004+16500-015820FM-12+0006GQNR V0209999C000012200019N0100001N1+03621+01651101261ADDAA199000091GA1001+999999999GF100991001001999999001001MA1999999101191MD1999999+0191REMSYN070AAXX  12124 61489 33960 00000 10362 20165 30119 40126 333 0//00 58019;EQDQ01  00002PRCP99
0165614890999992000101215004+16500-015820FM-12+0006GQNR V0201401N006212200019N0100001N1+03971+01951101001ADDGA1021+009009069GF104991021051012501001021MA1999999100931MD1999999+0161REMSYN082AAXX  12154 61489 42660 41412 10397 20195 30093 40100 82502 333 58016 82630 83073;
0214614890999992000101218004+16500-015820FM-12+0006GQNR V0201401N00511105001CN0100001N1+03781+01751100871ADDAA199000091GA1041+009909089GF106991041021012501001021KA1120M+04001MA1999999100801MD1999999+0131REMSYN088AAXX  12184 61489 32660 61410 10378 20175 30080 40087 84202 333 10400 58013 84833 83073;EQDQ01  00002PRCP99
0207614890999992000101306004+16500-015820FM-12+0006GQNR V0203601N003110690019N0100001N1+02551+00941101261ADDAA124000791AC13I9GA1061+069009019GF106991001001999999001021KA1120N+02501MA1999999101191MD1999999+0151REMSYN094AAXX  13064 61489 12960 63606 10255 20094 30119 40126 69904 80002 333 0//18 20250 58015 86073;
0159614890999992000101309004+16500-015820FM-12+0006GQNR V0203601N003110690019N0100001N1+02721+01051101361ADDGA1051+069009019GF105991001001999999001021MA1999999101291MD1999999+0111REMSYN076AAXX  13094 61489 42960 53606 10272 20105 30129 40136 80002 333 58011 85073;
0207614890999992000101312004+16500-015820FM-12+0006GQNR V0200801N008210690019N0035001N1+03301+01471101441ADDAA199000091GA1051+069009019GF105991001001999999001021MA1999999101371MD1999999+0181MW1071REMSYN088AAXX  13124 61489 31935 50816 10330 20147 30137 40144 707// 80002 333 0//00 58018 85073;EQDQ01  00002PRCP99
0221614890999992000101315004+16500-015820FM-12+0006GQNR V0201401N008210390019N0040001N1+03551+01451101171ADDAY121031AY221031GA1041+009909089GA2031+039009039GF105991041021012501071001MA1999999101101MD1999999+0171MW1071REMSYN100AAXX  13154 61489 41640 51416 10355 20145 30110 40117 70722 84270 333 58017 84833 83363 94922 95872;
0234614890999992000101412004+16500-015820FM-12+0006GQNR V0201401N008210390019N0060001N1+03251+01591101411ADDAA106000791AC10I9GA1021+009909089GA2041+039009039GF106991021021012501071001MA1999999101341MD1999999-0031MW1071REMSYN112AAXX  14124 61489 11656 61416 10325 20159 30134 40141 69901 707// 82270 333 0//14 59003 82833 84363 94929 95819;
0242614890999992000101418004+16500-015820FM-12+0006GQNR V0200801N005110690019N0080001N1+03241+01551101041ADDAA199000091GA1031+009909089GA2031+069009009GF105991031021012501001021KA1120M+03461MA1999999100971MD1999999-0021REMSYN100AAXX  14184 61489 32658 50810 10324 20155 30097 40104 83202 333 10346 59002 83833 83073 94929 95839;EQDQ01  00002PRCP99
0214614890999992000101506004+16500-015820FM-12+0006GQNR V0200801N003110690019N0100001N1+02451+01551101311ADDAA199000091GA1071+069009019GF107991001001999999001021KA1120N+02251MA1999999101241MD1999999+0031REMSYN088AAXX  15064 61489 32960 70806 10245 20155 30124 40131 80002 333 0//00 20225 58003 87073;EQDQ01  00002PRCP99
0193614890999992000101509004+16500-015820FM-12+0006GQNR V0209999C000011350019N0100001N1+02521+01491101391ADDGA1041+069009009GA2041+135009089GF106991041021012501001021MA1999999101321MD1999999+0011REMSYN094AAXX  15094 61489 42660 60000 10252 20149 30132 40139 84202 333 58001 84883 84073 94932 95872;
0171614890999992000101515004+16500-015820FM-12+0006GQNR V0201401N005110099019N0100001N1+03301+01591101091ADDGA1061+009909079GF106991061081012501001001MA1999999101121MD1999999-0041REMSYN088AAXX  15154 61489 42660 61410 10330 20159 30112 40109 86800 333 59004 86733 94939 95879;
0242614890999992000101518004+16500-015820FM-12+0006GQNR V0200801N003110690019N0100001N1+03221+01611101001ADDAA199000091GA1031+009909089GA2071+069009009GF107991031021012501001021KA1120M+03471MA1999999100931MD1999999-0041REMSYN100AAXX  15184 61489 32660 70806 10322 20161 30093 40100 83202 333 10347 59004 83833 87073 94929 95819;EQDQ01  00002PRCP99
0221614890999992000101609004+16500-015820FM-12+0006GQNR V0201401N003110390019N0100001N1+02531+01571101431ADDAY161031AY261031GA1031+009909089GA2071+039009039GF107991041081012501071999MA1999999101381MD1999999+0041MW1601REMSYN100AAXX  16094 61489 42660 71406 10253 20157 30138 40143 76066 8487/ 333 58004 83833 87363 94939 95879;
0195614890999992000101618004+16500-015820FM-12+0006GQNR V0209999C000010390019N0100001N1+02421+02101101461ADDAA112033091GA1061+039009079GF106991051001999999071001KA1120M+02521MA1999999101361MD1999999+0431REMSYN088AAXX  16184 61489 12960 60000 10242 20210 30136 40146 60332 85070 333 10252 58043 86363;
0201614890999992000101706004+16500-015820FM-12+0006GQNR V0209999C000010390019N0100001N1+02361+01961101701ADDAA124065091GA1051+039009079GF105991051001999999071001KA1120N+02301MA1999999101631MD1999999+0431REMSYN094AAXX  17064 61489 12960 50000 10236 20196 30163 40170 60654 85070 333 0//49 20230 58043 85363;
0159614890999992000101709004+16500-015820FM-12+0006GQNR V0209999C000010390019N0100001N1+02401+02101101831ADDGA1061+039009079GF106991061001999999071001MA1999999101761MD1999999+0421REMSYN076AAXX  17094 61489 42960 60000 10240 20210 30176 40183 86070 333 58042 86363;
0195614890999992000101712004+16500-015820FM-12+0006GQNR V0209999C000010390019N0100001N1+02841+01781101761ADDAA199000091GA1061+039009079GF106991061001999999071001MA1999999101681MD1999999+0301REMSYN082AAXX  17124 61489 33960 60000 10284 20178 30168 40176 86070 333 0//00 58030 86363;EQDQ01  00002PRCP99
0242614890999992000101718004+16500-015820FM-12+0006GQNR V0202801N005110390019N0100001N1+02901+02001101491ADDAA199000091GA1031+009009099GA2061+039009039GF107991031031008001071001KA1120M+03631MA1999999101421MD1999999+0031REMSYN100AAXX  17184 61489 32560 72810 10290 20200 30142 40149 83370 333 10363 58003 83930 86363 94928 95836;EQDQ01  00002PRCP99
0214614890999992000101806004+16500-015820FM-12+0006GQNR V0203601N003110390019N0100001N1+02441+01951101631ADDAA199000091GA1051+039009079GF105991051001999999071001KA1120N+02321MA1999999101561MD1999999-0071REMSYN088AAXX  18064 61489 32960 53606 10244 20195 30156 40163 85070 333 0//00 20232 59007 85363;EQDQ01  00002PRCP99
0159614890999992000101809004+16500-015820FM-12+0006GQNR V0203601N004110390019N0100001N1+02661+02121101811ADDGA1051+039009079GF105991051001999999071001MA1999999101741MD1999999-0021REMSYN076AAXX  18094 61489 42960 53608 10266 20212 30174 40181 85070 333 59002 85363;
0195614890999992000101812004+16500-015820FM-12+0006GQNR V0203601N005112200019N0100001N1+03161+01991101681ADDAA199000091GA1031+039009079GF103991031001999999071001MA1999999101611MD1999999-0081REMSYN082AAXX  18124 61489 33960 33610 10316 20199 30161 40168 83070 333 0//00 59008 83363;EQDQ01  00002PRCP99
0187614890999992000101815004+16500-015820FM-12+0006GQNR V02099999999990390019N0050001N1+02401+01871101901ADDAY161031AY261031GA1071+039009079GF107991071001999999071999MA1999999101831MD1999999+0321MW1601REMSYN082AAXX  18154 61489 41950 73808 10240 20187 30183 40190 76066 8707/ 333 58032 87363;
0159614890999992000101909004+16500-015820FM-12+0006GQNR V0203601N005110390019N0100001N1+02641+02241101581ADDGA1051+039009079GF105991051001999999071001MA1999999101511MD1999999-0231REMSYN076AAXX  19094 61489 42960 53610 10264 20224 30151 40158 85070 333 59023 85363;
0195614890999992000101912004+16500-015820FM-12+0006GQNR V0203601N005110390019N0100001N1+02801+02051101581ADDAA199000091GA1071+039009079GF107991071001999999071999MA1999999101511MD1999999-0171REMSYN082AAXX  19124 61489 33960 73610 10280 20205 30151 40158 8707/ 333 0//00 59017 87363;EQDQ01  00002PRCP99
0208614890999992000101918004+16500-015820FM-12+0006GQNR V0203601N004110390019N0100001N1+03001+02041101161ADDAA199000091GA1071+039009079GF107991071001999999071999KA1120M+03361MA1999999101091MD1999999-0611REMSYN082AAXX  19184 61489 32960 73608 10300 20204 30109 40116 8707/ 333 10336 59061 87363;EQDQ01  00002PRCP99
0159614890999992000102009004+16500-015820FM-12+0006GQNR V0203601N005110390019N0100001N1+02681+01941101491ADDGA1071+039009079GF107991071001999999071999MA1999999101421MD1999999-0091REMSYN076AAXX  20094 61489 42960 73610 10268 20194 30142 40149 8707/ 333 59009 87363;
0183614890999992000102012004+16500-015820FM-12+0006GQNR V0200401N006212200019N0100001N1+03101+01571101481ADDAA199000091GA1001+999999999GF100991001001999999001001MA1999999101411MD1999999-0031REMSYN070AAXX  20124 61489 33960 00412 10310 20157 30141 40148 333 0//00 59003;EQDQ01  00002PRCP99
0214614890999992000102106004+16500-015820FM-12+0006GQNR V0209999C000010690019N0100001N1+02441+02121101271ADDAA199000091GA1051+069009019GF105991001001999999001021KA1120N+02361MA1999999101201MD1999999+0001REMSYN088AAXX  21064 61489 32960 50000 10244 20212 30120 40127 80002 333 0//00 20236 58000 85073;EQDQ01  00002PRCP99
0159614890999992000102109004+16500-015820FM-12+0006GQNR V0209999C000010690019N0100001N1+02561+02181101471ADDGA1051+069009019GF105991001001999999001021MA1999999101401MD1999999-0021REMSYN076AAXX  21094 61489 42960 50000 10256 20218 30140 40147 80002 333 59002 85073;
0147614890999992000102115004+16500-015820FM-12+0006GQNR V0200401N004112200019N0100001N1+03501+01621101081ADDGA1001+999999999GF100991001001999999001001MA1999999101041MD1999999-0131REMSYN064AAXX  21154 61489 42960 00408 10350 20162 30104 40108 333 59013;
0202614890999992000102206004+16500-015820FM-12+0006GQNR V0209999C000012200019N0100001N1+02121+01701101241ADDAA199000091GA1001+999999999GF100991001001999999001001KA1120N+02001MA1999999101171MD1999999-0041REMSYN076AAXX  22064 61489 32960 00000 10212 20170 30117 40124 333 0//00 20200 59004;EQDQ01  00002PRCP99
0195614890999992000102312004+16500-015820FM-12+0006GQNR V0200401N005110690019N0100001N1+03161+01211101491ADDAA199000091GA1051+069009019GF105991001001999999001021MA1999999101421MD1999999+0131REMSYN082AAXX  23124 61489 33960 50410 10316 20121 30142 40149 80002 333 0//00 58013 85073;EQDQ01  00002PRCP99
0159614890999992000102315004+16500-015820FM-12+0006GQNR V0200401N003110690019N0100001N1+03481+01421101301ADDGA1051+069009019GF105991001001999999001021MA1999999101231MD1999999+0191REMSYN076AAXX  23154 61489 42960 50406 10348 20142 30123 40130 80002 333 58019 85073;
0208614890999992000102318004+16500-015820FM-12+0006GQNR V0200401N002112200019N0100001N1+03321+01321101151ADDAA199000091GA1031+069009019GF103991001001999999001021KA1120M+03771MA1999999101081MD1999999+0231REMSYN082AAXX  23184 61489 32960 30404 10332 20132 30108 40115 80002 333 10377 58023 83073;EQDQ01  00002PRCP99
0202614890999992000102406004+16500-015820FM-12+0006GQNR V0203601N002112200019N0100001N1+01941+01391101261ADDAA199000091GA1001+999999999GF100991001001999999001001KA1120N+01991MA1999999101191MD1999999-0081REMSYN076AAXX  24064 61489 32960 03604 10194 20139 30119 40126 333 0//00 20199 59008;EQDQ01  00002PRCP99
0159614890999992000102409004+16500-015820FM-12+0006GQNR V0203601N004110690019N0100001N1+02221+01641101411ADDGA1061+069009019GF106991001001999999001021MA1999999101341MD1999999-0201REMSYN076AAXX  24094 61489 42960 63608 10222 20164 30134 40141 80002 333 59020 86073;
0195614890999992000102412004+16500-015820FM-12+0006GQNR V0200401N005112200019N0100001N1+03101+02241101411ADDAA199000091GA1031+069009019GF103991001001999999001021MA1999999101341MD1999999-0081REMSYN082AAXX  24124 61489 33960 30410 10310 20224 30134 40141 80002 333 0//00 59008 83073;EQDQ01  00002PRCP99
0159614890999992000102415004+16500-015820FM-12+0006GQNR V0200401N004112200019N0100001N1+03521+01381101111ADDGA1031+069009019GF103991001001999999001021MA1999999101041MD1999999-0191REMSYN076AAXX  24154 61489 42960 30408 10352 20138 30104 40111 80002 333 59019 83073;
0159614890999992000102509004+16500-015820FM-12+0006GQNR V0200401N005110690019N0100001N1+03381+01931101391ADDGA1051+069009019GF105991001001999999001021MA1999999101321MD1999999-0021REMSYN076AAXX  25094 61489 42960 50410 10338 20193 30132 40139 80002 333 59002 85073;
0183614890999992000102512004+16500-015820FM-12+0006GQNR V0200401N004112200019N0100001N1+03241+01561101291ADDAA199000091GA1001+999999999GF100991001001999999001001MA1999999101221MD1999999+0121REMSYN070AAXX  25124 61489 33960 00408 10324 20156 30122 40129 333 0//00 58012;EQDQ01  00002PRCP99
0159614890999992000102515004+16500-015820FM-12+0006GQNR V0200401N005110690019N0100001N1+03601+01521101021ADDGA1061+069009019GF106991001001999999001021MA1999999100951MD1999999-0091REMSYN076AAXX  25154 61489 42960 60410 10360 20152 30095 40102 80002 333 59009 86073;
0208614890999992000102518004+16500-015820FM-12+0006GQNR V0200401N003110690019N0100001N1+03301+00921100861ADDAA199000091GA1071+069009019GF107991001001999999001021KA1120M+03701MA1999999100791MD1999999-0291REMSYN082AAXX  25184 61489 32960 70406 10330 20092 30079 40086 80002 333 10370 59029 87073;EQDQ01  00002PRCP99
0202614890999992000102606004+16500-015820FM-12+0006GQNR V0203601N004112200019N0100001N1+02321+01741101311ADDAA199000091GA1001+999999999GF100991001001999999001001KA1120N+02241MA1999999101241MD1999999+0051REMSYN076AAXX  26064 61489 32960 03608 10232 20174 30124 40131 333 0//00 20224 58005;EQDQ01  00002PRCP99
0159614890999992000102609004+16500-015820FM-12+0006GQNR V0200401N003110690019N0100001N1+02621+01771101501ADDGA1061+069009019GF106991001001999999001021MA1999999101431MD1999999+0111REMSYN076AAXX  26094 61489 42960 60406 10262 20177 30143 40150 80002 333 58011 86073;
0195614890999992000102612004+16500-015820FM-12+0006GQNR V0200401N005110690019N0100001N1+03401+01401101451ADDAA199000091GA1061+069009019GF106991001001999999001021MA1999999101361MD1999999+0161REMSYN082AAXX  26124 61489 33960 60410 10340 20140 30136 40145 80002 333 0//00 58016 86073;EQDQ01  00002PRCP99
0159614890999992000102615004+16500-015820FM-12+0006GQNR V0200401N002110690019N0100001N1+03641+01661101101ADDGA1061+069009019GF106991001001999999001021MA1999999101031MD1999999+0081REMSYN076AAXX  26154 61489 42960 60404 10364 20166 30103 40110 80002 333 58008 86073;
0224614890999992000102618004+16500-015820FM-12+0006GQNR V0209999C000010390019N0100001N1+03521+01401100921ADDAA199000091GA1051+039009079GF107991999001999999001021KA1120M+03841MA1999999100851MD1999999+0081REMSYN082AAXX  26184 61489 32960 70000 10352 20140 30085 40092 80002 333 10384 58008 85363;EQDQ01+000002SCOTLCQ02  00002PRCP99
0195614890999992000102712004+16500-015820FM-12+0006GQNR V0200401N005112200019N0100001N1+03601+01461101331ADDAA199000091GA1031+069009019GF103991001001999999001021MA1999999101261MD1999999-0121REMSYN082AAXX  27124 61489 33960 30410 10360 20146 30126 40133 80002 333 0//00 59012 83073;EQDQ01  00002PRCP99
0202614890999992000102806004+16500-015820FM-12+0006GQNR V0209999C000012200019N0100001N1+02441+02321101171ADDAA199000091GA1001+999999999GF100991001001999999001001KA1120N+02321MA1999999101101MD1999999-0231REMSYN076AAXX  28064 61489 32960 00000 10244 20232 30110 40117 333 0//00 20232 59023;EQDQ01  00002PRCP99
0147614890999992000102809004+16500-015820FM-12+0006GQNR V0200401N005112200019N0100001N1+02721+01541101341ADDGA1001+999999999GF100991001001999999001001MA1999999101271MD1999999-0281REMSYN064AAXX  28094 61489 42960 00410 10272 20154 30127 40134 333 59028;
0183614890999992000102812004+16500-015820FM-12+0006GQNR V0200401N005112200019N0100001N1+03661+01121101331ADDAA199000091GA1001+999999999GF100991001001999999001001MA1999999101261MD1999999+0001REMSYN070AAXX  28124 61489 33960 00410 10366 20112 30126 40133 333 0//00 58000;EQDQ01  00002PRCP99
0147614890999992000102815004+16500-015820FM-12+0006GQNR V0200401N003112200019N0100001N1+04021+01341100981ADDGA1001+999999999GF100991001001999999001001MA1999999100911MD1999999-0031REMSYN064AAXX  28154 61489 42960 00406 10402 20134 30091 40098 333 59003;
0202614890999992000102906004+16500-015820FM-12+0006GQNR V0200401N004112200019N0100001N1+02321+01481101231ADDAA199000091GA1001+999999999GF100991001001999999001001KA1120N+02251MA1999999101161MD1999999+0061REMSYN076AAXX  29064 61489 32960 00408 10232 20148 30116 40123 333 0//00 20225 58006;EQDQ01  00002PRCP99
0147614890999992000102909004+16500-015820FM-12+0006GQNR V0200401N005112200019N0100001N1+02601+01601101371ADDGA1001+999999999GF100991001001999999001001MA1999999101301MD1999999+0031REMSYN064AAXX  29094 61489 42960 00410 10260 20160 30130 40137 333 58003;
0183614890999992000102912004+16500-015820FM-12+0006GQNR V0200401N005112200019N0100001N1+03601+00721101331ADDAA199000091GA1001+999999999GF100991001001999999001001MA1999999101261MD1999999+0031REMSYN070AAXX  29124 61489 33960 00410 10360 20072 30126 40133 333 0//00 58003;EQDQ01  00002PRCP99
0147614890999992000102915004+16500-015820FM-12+0006GQNR V0200401N004112200019N0100001N1+03981+01151101031ADDGA1001+999999999GF100991001001999999001001MA1999999100961MD1999999+0051REMSYN064AAXX  29154 61489 42960 00408 10398 20115 30096 40103 333 58005;
0196614890999992000102918004+16500-015820FM-12+0006GQNR V0200401N005112200019N0100001N1+03641+00801100491ADDAA199000091GA1001+999999999GF100991001001999999001001KA1120M+04171MA1999999100821MD1999999+0161REMSYN070AAXX  29184 61489 32960 00410 10364 20080 30082 40049 333 10417 58016;EQDQ01  00002PRCP99
0202614890999992000103006004+16500-015820FM-12+0006GQNR V0203601N004112200019N0100001N1+02241+01691101231ADDAA199000091GA1001+999999999GF100991001001999999001001KA1120N+02091MA1999999101161MD1999999+0001REMSYN076AAXX  30064 61489 32960 03608 10224 20169 30116 40123 333 0//00 20209 58000;EQDQ01  00002PRCP99
0147614890999992000103009004+16500-015820FM-12+0006GQNR V0203601N003112200019N0100001N1+02521+01661101501ADDGA1001+999999999GF100991001001999999001001MA1999999101431MD1999999+0131REMSYN064AAXX  30094 61489 42960 03606 10252 20166 30143 40150 333 58013;
0183614890999992000103012004+16500-015820FM-12+0006GQNR V0200401N005112200019N0100001N1+03461+01241101361ADDAA199000091GA1001+999999999GF100991001001999999001001MA1999999101291MD1999999+0031REMSYN070AAXX  30124 61489 33960 00410 10346 20124 30129 40136 333 0//00 58003;EQDQ01  00002PRCP99
0147614890999992000103015004+16500-015820FM-12+0006GQNR V0200401N004112200019N0100001N1+04041+01461101011ADDGA1001+999999999GF100991001001999999001001MA1999999100941MD1999999-0021REMSYN064AAXX  30154 61489 42960 00408 10404 20146 30094 40101 333 59002;
0208614890999992000103018004+16500-015820FM-12+0006GQNR V0203601N005112200019N0100001N1+03201+01401100881ADDAA199000091GA1041+069009019GF104991001001999999001021KA1120M+04191MA1999999100811MD1999999-0011REMSYN082AAXX  30184 61489 32960 43610 10320 20140 30081 40088 80002 333 10419 59001 84073;EQDQ01  00002PRCP99
0147614890999992000103106004+16500-015820FM-12+0006GQNR V0200401N005112200019N0100001N1+02601+01821101301ADDGA1001+999999999GF100991001001999999001001MA1999999101231MD1999999-0201REMSYN064AAXX  31064 61489 42960 00410 10260 20182 30123 40130 333 59020;
0195614890999992000103112004+16500-015820FM-12+0006GQNR V0200801N004112200019N0100001N1+03371+01611101341ADDAA199000091GA1031+069009019GF103991001001999999001011MA1999999101271MD1999999-0021REMSYN082AAXX  31124 61489 33960 30808 10337 20161 30127 40134 80001 333 0//00 59002 83073;EQDQ01  00002PRCP99
0147614890999992000103115004+16500-015820FM-12+0006GQNR V0200401N004112200019N0100001N1+03761+01821101001ADDGA1001+999999999GF100991001001999999001001MA1999999100931MD1999999-0011REMSYN064AAXX  31154 61489 42960 00408 10376 20182 30093 40100 333 59001;
0196614890999992000103118004+16500-015820FM-12+0006GQNR V0200401N005112200019N0100001N1+03521+01481100831ADDAA199000091GA1001+999999999GF100991001001999999001001KA1120M+03941MA1999999100761MD1999999-0051REMSYN070AAXX  31184 61489 32960 00410 10352 20148 30076 40083 333 10394 59005;EQDQ01  00002PRCP99
0202614890999992000110106004+16500-015820FM-12+0006GQNR V0203601N004112200019N0100001N1+02361+01721101271ADDAA199000091GA1001+999999999GF100991001001999999001001KA1120N+02381MA1999999101201MD1999999+0141REMSYN076AAXX  01064 61489 32960 03608 10236 20172 30120 40127 333 0//00 20238 58014;EQDQ01  00002PRCP99
0208614890999992000110118004+16500-015820FM-12+0006GQNR V0202801N004112200019N0100001N1+03461+01851101061ADDAA199000091GA1031+039009079GF103991031001999999071001KA1120M+03871MA1999999100991MD1999999+0031REMSYN082AAXX  01184 61489 32960 32808 10346 20185 30099 40106 83070 333 10387 58003 83363;EQDQ01  00002PRCP99
0159614890999992000110209004+16500-015820FM-12+0006GQNR V0209999C000012200019N0100001N1+02551+01771101361ADDGA1031+069009019GF103991001001999999001011MA1999999101291MD1999999-0071REMSYN076AAXX  02094 61489 42960 30000 10255 20177 30129 40136 80001 333 59007 83073;
0214614890999992000110218004+16500-015820FM-12+0006GQNR V0209999C000019999999N0100001N1+03601+01891101061ADDAA199000091GA1031+039009039GF106991031001999999071021KA1120M+03951MA1999999100991MD1999999+0001REMSYN088AAXX  02184 61489 32960 60000 10360 20189 30099 40106 83072 333 10395 58000 83363 84073;EQDQ01  00002PRCP99
0195614890999992000110312004+16500-015820FM-12+0006GQNR V0200801N005110690019N0100001N1+03351+01351101361ADDAA199000091GA1061+069009019GF106991001001999999001021MA1999999101291MD1999999-0021REMSYN082AAXX  03124 61489 33960 60810 10335 20135 30129 40136 80002 333 0//00 59002 86073;EQDQ01  00002PRCP99
0214614890999992000110406004+16500-015820FM-12+0006GQNR V0209999C000012200019N0100001N1+02141+01611101251ADDAA199000091GA1041+069009019GF104991001001999999001011KA1120N+01951MA1999999101181MD1999999+0051REMSYN088AAXX  04064 61489 32960 40000 10214 20161 30118 40125 80001 333 0//00 20195 58005 84073;EQDQ01  00002PRCP99
0195614890999992000110412004+16500-015820FM-12+0006GQNR V0200401N006210690019N0080001N1+03501+00891101421ADDAA199000091GA1071+069009019GF107991001001999999001021MA1999999101351MD1999999+0061REMSYN082AAXX  04124 61489 33958 70412 10350 20089 30135 40142 80002 333 0//00 58006 87073;EQDQ01  00002PRCP99
0159614890999992000110415004+16500-015820FM-12+0006GQNR V0200601N004110690019N0100001N1+03671+00891101211ADDGA1071+069009019GF107991001001999999001021MA1999999101141MD1999999+0041REMSYN076AAXX  04154 61489 42960 70608 10367 20089 30114 40121 80002 333 58004 87073;
0208614890999992000110418004+16500-015820FM-12+0006GQNR V0209999C000010690019N0100001N1+03461+00851101131ADDAA199000091GA1071+069009019GF107991001001999999001021KA1120M+03801MA1999999101061MD1999999+0011REMSYN082AAXX  04184 61489 32960 70000 10346 20085 30106 40113 80002 333 10380 58001 87073;EQDQ01  00002PRCP99
0214614890999992000110506004+16500-015820FM-12+0006GQNR V0209999C000010690019N0100001N1+02251+01001101271ADDAA199000091GA1061+069009019GF106991001001999999001021KA1120N+02201MA1999999101201MD1999999-0021REMSYN088AAXX  05064 61489 32960 60000 10225 20100 30120 40127 80002 333 0//00 20220 59002 86073;EQDQ01  00002PRCP99
0159614890999992000110509004+16500-015820FM-12+0006GQNR V0209999C000010690019N0100001N1+02431+00991101301ADDGA1061+069009019GF106991001001999999001021MA1999999101291MD1999999-0061REMSYN076AAXX  05094 61489 42960 60000 10243 20099 30129 40130 80002 333 59006 86073;
0195614890999992000110512004+16500-015820FM-12+0006GQNR V0200801N005112200019N0100001N1+03351+01041101261ADDAA199000091GA1041+069009019GF104991001001999999001021MA1999999101191MD1999999-0161REMSYN082AAXX  05124 61489 33960 40810 10335 20104 30119 40126 80002 333 0//00 59016 84073;EQDQ01  00002PRCP99
0159614890999992000110515004+16500-015820FM-12+0006GQNR V0200801N006210690019N0100001N1+03801+00721101011ADDGA1051+069009019GF105991001001999999001021MA1999999100941MD1999999-0201REMSYN076AAXX  05154 61489 42960 50812 10380 20072 30094 40101 80002 333 59020 85073;
0208614890999992000110518004+16500-015820FM-12+0006GQNR V0209999C000010690019N0100001N1+03501+01171101011ADDAA199000091GA1051+069009019GF105991001001999999001021KA1120M+03941MA1999999100941MD1999999-0101REMSYN082AAXX  05184 61489 32960 50000 10350 20117 30094 40101 80002 333 10394 59010 85073;EQDQ01  00002PRCP99
0214614890999992000110606004+16500-015820FM-12+0006GQNR V0209999C000012200019N0100001N1+02201+99999101181ADDAA199000091GA1031+069009019GF103991001001999999001021KA1120N+02211MA1999999101111MD1999999-0091REMSYN088AAXX  06064 61489 32960 30000 10220 20221 30111 40118 80002 333 0//00 20221 59009 83073;EQDQ01  00002PRCP99
0165614890999992000110609004+16500-015820FM-12+0006GQNR V0209999C000012200019N0100001N1+02301+01201101271ADDGA1021+039009039GF103991021001999999031021MA1999999101201MD1999999-0031REMSYN082AAXX  06094 61489 42960 30000 10230 20120 30120 40127 82032 333 59003 82363 82073;
0211614890999992000110612004+16500-015820FM-12+0006GQNR V0200801N004112200019N0100001N1+03702+00501101241ADDAA199000091GA1041+069009019GF104991001001999999001021MA1999999101171MD1999999-0021REMSYN082AAXX  06124 61489 33960 40808 10370 20050 30117 40124 80002 333 0//00 59002 84073;EQDQ01+003703ATOT  Q02  00002PRCP99
0214614890999992000110806004+16500-015820FM-12+0006GQNR V0209999C000012200019N0100001N1+02151+00781100861ADDAA199000091GA1021+039009079GF102991021001999999031001KA1120N+02081MA1999999100791MD1999999-0041REMSYN088AAXX  08064 61489 32960 20000 10215 20078 30079 40086 82030 333 0//00 20208 59004 82363;EQDQ01  00002PRCP99
0159614890999992000110809004+16500-015820FM-12+0006GQNR V0209999C000012200019N0100001N1+02471+00951100831ADDGA1031+039009079GF103991031001999999031001MA1999999100761MD1999999-0181REMSYN076AAXX  08094 61489 42960 30000 10247 20095 30076 40083 83030 333 59018 83363;
0207614890999992000110812004+16500-015820FM-12+0006GQNR V0200801N007212200019N0070001N1+03431+00911100861ADDAA199000091GA1031+039009079GF103991031001999999031001MA1999999100791MD1999999-0151MW1071REMSYN088AAXX  08124 61489 31957 30814 10343 20091 30079 40086 707// 83030 333 0//00 59015 83363;EQDQ01  00002PRCP99
0214614890999992000110906004+16500-015820FM-12+0006GQNR V0209999C000012200019N0080001N1+02261+01141100971ADDAA199000091GA1031+069009019GF103991001001999999001021KA1120N+02201MA1999999100901MD1999999+0111REMSYN088AAXX  09064 61489 33958 30000 10226 20114 30090 40097 80002 333 0//00 20220 58011 83073;EQDQ01  00002PRCP99
0183614890999992000110912004+16500-015820FM-12+0006GQNR V0200801N005112200019N0080001N1+03321+01201101081ADDAA199000091GA1001+999999999GF100991001001999999001001MA1999999101011MD1999999+0221REMSYN070AAXX  09124 61489 33958 00810 10332 20120 30101 40108 333 0//00 58022;EQDQ01  00002PRCP99
0183614890999992000111012004+16500-015820FM-12+0006GQNR V0209999C000012200019N0100001N1+03251+01061101091ADDAA199000091GA1001+999999999GF100991001001999999001001MA1999999101021MD1999999+0011REMSYN070AAXX  10124 61489 33960 00000 10325 20106 30102 40109 333 0//00 58001;EQDQ01  00002PRCP99
0147614890999992000111015004+16500-015820FM-12+0006GQNR V0200401N004112200019N0100001N1+03671+01141100851ADDGA1001+999999999GF100991001001999999001001MA1999999100781MD1999999+0011REMSYN064AAXX  10154 61489 42960 00408 10367 20114 30078 40085 333 58001;
0202614890999992000111106004+16500-015820FM-12+0006GQNR V0203601N003112200019N0100001N1+02041+01731101041ADDAA199000091GA1001+999999999GF100991001001999999001001KA1120N+01961MA1999999100971MD1999999+0021REMSYN076AAXX  11064 61489 33960 03606 10204 20173 30097 40104 333 0//00 20196 58002;EQDQ01  00002PRCP99
0183614890999992000111112004+16500-015820FM-12+0006GQNR V0203601N004112200019N0100001N1+03001+01481101171ADDAA199000091GA1001+999999999GF100991001001999999001001MA1999999101101MD1999999+0081REMSYN070AAXX  11124 61489 33960 03608 10300 20148 30110 40117 333 0//00 58008;EQDQ01  00002PRCP99
0159614890999992000111115004+16500-015820FM-12+0006GQNR V0203601N003112200019N0100001N1+03431+00971100991ADDGA1031+069009019GF103991001001999999001021MA1999999100921MD1999999+0141REMSYN076AAXX  11154 61489 42960 33606 10343 20097 30092 40099 80002 333 58014 83073;
0214614890999992000111206004+16500-015820FM-12+0006GQNR V0203601N003110390019N0100001N1+02001+01551101251ADDAA199000091GA1051+039009079GF105991051001999999071001KA1120N+01881MA1999999101181MD1999999+0211REMSYN088AAXX  12064 61489 33960 53606 10200 20155 30118 40125 85070 333 0//00 20188 58021 85363;EQDQ01  00002PRCP99
0159614890999992000111209004+16500-015820FM-12+0006GQNR V0203601N004110390019N0100001N1+02151+01621101341ADDGA1051+039009079GF105991051001999999071001MA1999999101271MD1999999+0201REMSYN076AAXX  12094 61489 42960 53608 10215 20162 30127 40134 85070 333 58020 85363;
0195614890999992000111212004+16500-015820FM-12+0006GQNR V0201801N004112200019N0100001N1+02771+01711101331ADDAA199000091GA1031+069009019GF103991001001999999001021MA1999999101261MD1999999+0261REMSYN082AAXX  12124 61489 33960 31808 10277 20171 30126 40133 80002 333 0//00 58026 83073;EQDQ01  00002PRCP99
0214614890999992000111218004+16500-015820FM-12+0006GQNR V0203601N003119999999N0100001N1+02951+01911101081ADDAA199000091GA1031+039009039GF106991031001999999071021KA1120M+03301MA1999999101011MD1999999+0101REMSYN088AAXX  12184 61489 32960 63606 10295 20191 30101 40108 83072 333 10330 58010 83363 84073;EQDQ01  00002PRCP99
0214614890999992000111306004+16500-015820FM-12+0006GQNR V0209999C000012200019N0100001N1+02151+01531101281ADDAA199000091GA1021+039009079GF102991021001999999071001KA1120N+02051MA1999999101211MD1999999+0031REMSYN088AAXX  13064 61489 33960 20000 10215 20153 30121 40128 82070 333 0//00 20205 58003 82363;EQDQ01  00002PRCP99
0195614890999992000111312004+16500-015820FM-12+0006GQNR V0209999C000012200019N0100001N1+03151+01451101271ADDAA199000091GA1021+039009079GF102991021001999999071001MA1999999101201MD1999999-0061REMSYN082AAXX  13124 61489 33960 20000 10315 20145 30120 40127 82070 333 0//00 59006 82363;EQDQ01  00002PRCP99
0214614890999992000111406004+16500-015820FM-12+0006GQNR V0209999C000012200019N0100001N1+02201+01721101151ADDAA199000091GA1041+039009079GF104991041001999999071001KA1120N+02131MA1999999101081MD1999999-0131REMSYN088AAXX  14064 61489 33960 40000 10220 20172 30108 40115 84070 333 0//00 20213 59013 84363;EQDQ01  00002PRCP99
0178614890999992000111409004+16500-015820FM-12+0006GQNR V0209999C000012200019N0100001N1+02321+01811101261ADDGA1031+039009079GF199999021001999999071001MA1999999101191MD1999999-0061REMSYN076AAXX  14094 61489 42960 20000 10232 20181 30119 40126 82070 333 59006 83363;EQDQ01+000022SCOTCV
0214614890999992000111506004+16500-015820FM-12+0006GQNR V0209999C000012200019N0100001N1+02171+01561101181ADDAA199000091GA1031+069009019GF103991001001999999001021KA1120N+02151MA1999999101111MD1999999+0031REMSYN088AAXX  15064 61489 33960 30000 10217 20156 30111 40118 80002 333 0//00 20215 58003 83073;EQDQ01  00002PRCP99
0159614890999992000111509004+16500-015820FM-12+0006GQNR V0209999C000012200019N0100001N1+02351+01661101311ADDGA1021+069009019GF102991001001999999001021MA1999999101291MD1999999+0051REMSYN076AAXX  15094 61489 42960 20000 10235 20166 30129 40131 80002 333 58005 82073;
0183614890999992000111512004+16500-015820FM-12+0006GQNR V0209999C000012200019N0100001N1+03231+01731101291ADDAA199000091GA1001+999999999GF100991001001999999001001MA1999999101221MD1999999+0031REMSYN070AAXX  15124 61489 33960 00000 10323 20173 30122 40129 333 0//00 58003;EQDQ01  00002PRCP99
0159614890999992000111515004+16500-015820FM-12+0006GQNR V0209999C000012200019N0100001N1+03661+01861100981ADDGA1031+039009079GF103991031001999999071001MA1999999100911MD1999999-0061REMSYN076AAXX  15154 61489 42960 30000 10366 20186 30091 40098 83070 333 59006 83363;
0201614890999992000111606004+16500-015820FM-12+0006GQNR V0209999C000010390019N0100001N1+02371+01831101131ADDAA124000791GA1071+039009079GF107991071001999999081999KA1120N+02271MA1999999101061MD1999999-0051REMSYN094AAXX  16064 61489 12960 70000 10237 20183 30106 40113 69904 8708/ 333 0//00 20227 59005 87363;
0159614890999992000111609004+16500-015820FM-12+0006GQNR V0209999C000010390019N0100001N1+02451+01821101331ADDGA1071+039009079GF107991071001999999081999MA1999999101261MD1999999+0021REMSYN076AAXX  16094 61489 42960 70000 10245 20182 30126 40133 8708/ 333 58002 87363;
0195614890999992000111612004+16500-015820FM-12+0006GQNR V0209999C000010390019N0100001N1+03331+01731101361ADDAA199000091GA1071+039009079GF107991071001999999081999MA1999999101291MD1999999+0071REMSYN082AAXX  16124 61489 33960 70000 10333 20173 30129 40136 8708/ 333 0//00 58007 87363;EQDQ01  00002PRCP99
0159614890999992000111615004+16500-015820FM-12+0006GQNR V0200801N003112200019N0100001N1+03801+01321101031ADDGA1041+069009019GF104991001001999999001021MA1999999100961MD1999999+0061REMSYN076AAXX  16154 61489 42960 40806 10380 20132 30096 40103 80002 333 58006 84073;
0208614890999992000111618004+16500-015820FM-12+0006GQNR V0200801N002110390019N0100001N1+03421+01231100911ADDAA199000091GA1051+039009079GF107991051001999999071001KA1120M+03941MA1999999100841MD1999999-0111REMSYN082AAXX  16184 61489 32960 70804 10342 20123 30084 40091 85070 333 10394 59011 85363;EQDQ01  00002PRCP99
0159614890999992000111706004+16500-015820FM-12+0006GQNR V0200401N005110390019N0100001N1+02621+01851101521ADDGA1051+039009079GF107991051001999999071021MA1999999101441MD1999999+0181REMSYN076AAXX  17064 61489 42960 70410 10262 20185 30144 40152 85072 333 58018 85363;
0159614890999992000111715004+16500-015820FM-12+0006GQNR V0200401N005110390019N0100001N1+03401+01401101141ADDGA1071+039009079GF107991071001999999071999MA1999999101071MD1999999+0111REMSYN076AAXX  17154 61489 42960 70410 10340 20140 30107 40114 8707/ 333 58011 87363;
0159614890999992000111809004+16500-015820FM-12+0006GQNR V0200401N003110390019N0100001N1+02681+01581101391ADDGA1051+039009079GF105991051001999999071001MA1999999101321MD1999999-0121REMSYN076AAXX  18094 61489 42960 50406 10268 20158 30132 40139 85070 333 59012 85363;
0159614890999992000111906004+16500-015820FM-12+0006GQNR V0200401N005110390019N0100001N1+02461+01451101581ADDGA1051+039009079GF105991051001999999081001MA1999999101511MD1999999+0191REMSYN076AAXX  19064 61489 42960 50410 10246 20145 30151 40158 85080 333 58019 85363;
0195614890999992000111912004+16500-015820FM-12+0006GQNR V0200401N005112200019N0100001N1+03501+00901101341ADDAA199000091GA1031+069009019GF103991001001999999001021MA1999999101271MD1999999+0121REMSYN082AAXX  19124 61489 33960 30410 10350 20090 30127 40134 80002 333 0//00 58012 83073;EQDQ01  00002PRCP99
0159614890999992000111915004+16500-015820FM-12+0006GQNR V0200401N004112200019N0100001N1+03721+01241101021ADDGA1041+069009019GF104991001001999999001021MA1999999100951MD1999999+0101REMSYN076AAXX  19154 61489 42960 40408 10372 20124 30095 40102 80002 333 58010 84073;
0208614890999992000111918004+16500-015820FM-12+0006GQNR V0200401N003112200019N0100001N1+03361+00861101101ADDAA199000091GA1041+069009019GF104991001001999999001021KA1120M+03871MA1999999101031MD1999999-0091REMSYN082AAXX  19184 61489 32960 40406 10336 20086 30103 40110 80002 333 10387 59009 84073;EQDQ01  00002PRCP99
0202614890999992000112006004+16500-015820FM-12+0006GQNR V0200401N004112200019N0100001N1+01821+01051101491ADDAA199000091GA1001+999999999GF100991001001999999001001KA1120N+01771MA1999999101421MD1999999+0181REMSYN076AAXX  20064 61489 32960 00408 10182 20105 30142 40149 333 0//00 20177 58018;EQDQ01  00002PRCP99
0147614890999992000112009004+16500-015820FM-12+0006GQNR V0200401N005112200019N0100001N1+02381+01401101671ADDGA1001+999999999GF100991001001999999001001MA1999999101601MD1999999+0011REMSYN064AAXX  20094 61489 42960 00410 10238 20140 30160 40167 333 58001;
0147614890999992000112015004+16500-015820FM-12+0006GQNR V0200401N003112200019N0100001N1+03601+01161101151ADDGA1001+999999999GF100991001001999999001001MA1999999101081MD1999999+0071REMSYN064AAXX  20154 61489 42960 00406 10360 20116 30108 40115 333 58007;
0196614890999992000112018004+16500-015820FM-12+0006GQNR V0200401N004112200019N0100001N1+03301+00881101251ADDAA199000091GA1001+999999999GF100991001001999999001001KA1120M+03751MA1999999101181MD1999999+0151REMSYN070AAXX  20184 61489 32960 00408 10330 20088 30118 40125 333 10375 58015;EQDQ01  00002PRCP99
0202614890999992000112106004+16500-015820FM-12+0006GQNR V0209999C000012200019N0100001N1+02001+00961101391ADDAA199000091GA1001+999999999GF100991001001999999001001KA1120N+01941MA1999999101321MD1999999-0101REMSYN076AAXX  21064 61489 32960 00000 10200 20096 30132 40139 333 0//00 20194 59010;EQDQ01  00002PRCP99
0159614890999992000112109004+16500-015820FM-12+0006GQNR V0200401N004112200019N0100001N1+02381+01101101631ADDGA1041+069009019GF104991001001999999001021MA1999999101561MD1999999-0041REMSYN076AAXX  21094 61489 42960 40408 10238 20110 30156 40163 80002 333 59004 84073;
0195614890999992000112112004+16500-015820FM-12+0006GQNR V0200401N005110390019N0100001N1+02981+00751101521ADDAA199000091GA1051+039009079GF107991051001999999081021MA1999999101441MD1999999+0031REMSYN082AAXX  21124 61489 33960 70410 10298 20075 30144 40152 85082 333 0//00 58003 85363;EQDQ01  00002PRCP99
0159614890999992000112209004+16500-015820FM-12+0006GQNR V0200401N005110690019N0100001N1+02281+00711101691ADDGA1051+069009019GF105991001001999999001021MA1999999101621MD1999999+0061REMSYN076AAXX  22094 61489 42960 50410 10228 20071 30162 40169 80002 333 58006 85073;
0202614890999992000112306004+16500-015820FM-12+0006GQNR V0200401N004112200019N0100001N1+01981-00291101611ADDAA199000091GA1001+999999999GF100991001001999999001001KA1120N+01961MA1999999101541MD1999999+0071REMSYN076AAXX  23064 61489 32960 00408 10198 21029 30154 40161 333 0//00 20196 58007;EQDQ01  00002PRCP99
0159614890999992000112309004+16500-015820FM-12+0006GQNR V0200401N005119999999N0100001N1+02361+00101101761ADDGA1041+039009079GF106991041001999999071021MA1999999101691MD1999999+0071REMSYN076AAXX  23094 61489 42960 60410 10236 20010 30169 40176 84072 333 58007 84363;
0201614890999992000112312004+16500-015820FM-12+0006GQNR V0200401N010319999999N0100001N1+03602+00021101721ADDAA199000091GA1021+039009039GF106991021001999999081021MA1999999101641MD1999999+0101REMSYN088AAXX  23124 61489 33960 60420 10360 20002 30164 40172 82082 333 0//00 58010 82363 84073;EQDQ01  00002PRCP99
0165614890999992000112315004+16500-015820FM-12+0006GQNR V0200401N006219999999N0100001N1+03361+00741101421ADDGA1021+039009039GF106991021001999999071021MA1999999101351MD1999999+0111REMSYN082AAXX  23154 61489 42960 60412 10336 20074 30135 40142 82072 333 58011 82363 84073;
0224614890999992000112318004+16500-015820FM-12+0006GQNR V0200401N004110390019N0100001N1+03141-00372101481ADDAA199000091GA1051+039009079GF107991051001999999071021KA1120M+03551MA1999999101411MD1999999+0311REMSYN082AAXX  23184 61489 32960 70408 10314 21037 30141 40148 85072 333 10355 58031 85363;EQDQ01-000373ATOD  Q02  00002PRCP99
0159614890999992000112409004+16500-015820FM-12+0006GQNR V0200401N006212200019N0100001N1+02141+00321101771ADDGA1031+069009019GF103991001001999999001021MA1999999101701MD1999999+0011REMSYN076AAXX  24094 61489 42960 30412 10214 20032 30170 40177 80002 333 58001 83073;
0195614890999992000112412004+16500-015820FM-12+0006GQNR V0200401N005112200019N0100001N1+03041-00241101671ADDAA199000091GA1041+069009019GF104991001001999999001021MA1999999101601MD1999999-0041REMSYN082AAXX  24124 61489 33960 40410 10304 21024 30160 40167 80002 333 0//00 59004 84073;EQDQ01  00002PRCP99
0202614890999992000112506004+16500-015820FM-12+0006GQNR V0200401N003112200019N0100001N1+01801+00001101611ADDAA199000091GA1001+999999999GF100991001001999999001001KA1120N+01751MA1999999101541MD1999999+0061REMSYN076AAXX  25064 61489 32960 00406 10180 20000 30154 40161 333 0//00 20175 58006;EQDQ01  00002PRCP99
0159614890999992000112509004+16500-015820FM-12+0006GQNR V0200401N005110690019N0100001N1+02101+00481101761ADDGA1071+069009019GF107991001001999999001021MA1999999101691MD1999999+0081REMSYN076AAXX  25094 61489 42960 70410 10210 20048 30169 40176 80002 333 58008 87073;
0195614890999992000112512004+16500-015820FM-12+0006GQNR V0200401N005110690019N0100001N1+02721+00301101631ADDAA199000091GA1071+069009019GF107991001001999999001021MA1999999101561MD1999999-0041REMSYN082AAXX  25124 61489 33960 70410 10272 20030 30156 40163 80002 333 0//00 59004 87073;EQDQ01  00002PRCP99
0159614890999992000112515004+16500-015820FM-12+0006GQNR V0200401N004110690019N0100001N1+03041+00521101481ADDGA1051+069009019GF105991001001999999001021MA1999999101391MD1999999-0031REMSYN076AAXX  25154 61489 42960 50408 10304 20052 30139 40148 80002 333 59003 85073;
0159614890999992000112815004+16500-015820FM-12+0006GQNR V0200401N003112200019N0100001N1+03721+01071101341ADDGA1031+069009019GF103991001001999999001021MA1999999101271MD1999999-0081REMSYN076AAXX  28154 61489 42960 30406 10372 20107 30127 40134 80002 333 59008 83073;
0202614890999992000112906004+16500-015820FM-12+0006GQNR V0209999C000012200019N0100001N1+02661+00581101481ADDAA199000091GA1001+999999999GF100991001001999999001001KA1120N+01631MA1999999101391MD1999999-0041REMSYN076AAXX  29064 61489 32960 00000 10266 20058 30139 40148 333 0//00 20163 59004;EQDQ01  00002PRCP99
0159614890999992000112909004+16500-015820FM-12+0006GQNR V0200401N005112200019N0100001N1+02081+00681101661ADDGA1021+069009019GF104991001001999999001021MA1999999101591MD1999999-0031REMSYN076AAXX  29094 61489 42960 40410 10208 20068 30159 40166 80002 333 59003 82073;
0159614890999992000112915004+16500-015820FM-12+0006GQNR V0200401N004110690019N0100001N1+03621+00581101341ADDGA1061+069009019GF106991001001999999001021MA1999999101271MD1999999+0001REMSYN076AAXX  29154 61489 42960 60408 10362 20058 30127 40134 80002 333 58000 86073;
0187614890999992000120415004+16500-015820FM-12+0006GQNR V0200801N008212200019N0070001N1+03501+00551101221ADDAY101031AY201031GA1021+039009079GF102991021001999999071001MA1999999101151MD1999999-0041MW1071REMSYN082AAXX  04154 61489 41957 20816 10350 20055 30115 40122 70700 82070 333 59004 82363;
0202614890999992000120506004+16500-015820FM-12+0006GQNR V0200401N004112200019N0100001N1+01861-00791101381ADDAA199000091GA1001+999999999GF100991001001999999001001KA1120N+01421MA1999999101311MD1999999-0061REMSYN076AAXX  05064 61489 32960 00408 10186 21079 30131 40138 333 0//00 20142 59006;EQDQ01  00002PRCP99
0147614890999992000120509004+16500-015820FM-12+0006GQNR V0200401N003112200019N0100001N1+02051-00551101521ADDGA1001+999999999GF100991001001999999001001MA1999999101451MD1999999-0031REMSYN064AAXX  05094 61489 42960 00406 10205 21055 30145 40152 333 59003;
0195614890999992000120512004+16500-015820FM-12+0006GQNR V0200801N008212200019N0060001N1+03101-00061101511ADDAA199000091GA1001+999999999GF100991001001999999001001MA1999999101441MD1999999-0051MW1071REMSYN076AAXX  05124 61489 31956 00816 10310 21006 30144 40151 707// 333 0//00 59005;EQDQ01  00002PRCP99
0175614890999992000120515004+16500-015820FM-12+0006GQNR V0200801N008212200019N0060001N1+03521+00481101181ADDAY101031AY201031GA1001+999999999GF100991001001999999001001MA1999999101111MD1999999-0041MW1071REMSYN070AAXX  05154 61489 41956 00816 10352 20048 30111 40118 70700 333 59004;
0196614890999992000120518004+16500-015820FM-12+0006GQNR V0209999C000012200019N0100001N1+03321+00531101041ADDAA199000091GA1001+999999999GF100991001001999999001001KA1120M+03641MA1999999100971MD1999999-0081REMSYN070AAXX  05184 61489 32960 00000 10332 20053 30097 40104 333 10364 59008;EQDQ01  00002PRCP99
0202614890999992000120606004+16500-015820FM-12+0006GQNR V0200401N003112200019N0100001N1+02101+00211101301ADDAA199000091GA1001+999999999GF100991001001999999001001KA1120N+01661MA1999999101231MD1999999-0081REMSYN076AAXX  06064 61489 32960 00406 10210 20021 30123 40130 333 0//00 20166 59008;EQDQ01  00002PRCP99
0147614890999992000120609004+16500-015820FM-12+0006GQNR V0209999C000012200019N0100001N1+02041+00371101471ADDGA1001+999999999GF100991001001999999001001MA1999999101371MD1999999-0081REMSYN064AAXX  06094 61489 42960 00000 10204 20037 30137 40147 333 59008;
0183614890999992000120612004+16500-015820FM-12+0006GQNR V0200801N008212200019N0060001N1+03161+01441101471ADDAA199000091GA1001+999999999GF100991001001999999001001MA1999999101401MD1999999-0041REMSYN070AAXX  06124 61489 33956 00816 10316 20144 30140 40147 333 0//00 59004;EQDQ01  00002PRCP99
0175614890999992000120615004+16500-015820FM-12+0006GQNR V0200801N007212200019N0070001N1+03741+00451101151ADDAY101031AY201031GA1001+999999999GF100991001001999999001001MA1999999101081MD1999999-0031MW1071REMSYN070AAXX  06154 61489 41957 00814 10374 20045 30108 40115 70700 333 59003;
0202614890999992000120706004+16500-015820FM-12+0006GQNR V0200401N005112200019N0100001N1+02151+00341101231ADDAA199000091GA1001+999999999GF100991001001999999001001KA1120N+01701MA1999999101161MD1999999-0071REMSYN076AAXX  07064 61489 32960 00410 10215 20034 30116 40123 333 0//00 20170 59007;EQDQ01  00002PRCP99
0151614890999992000120709004+16500-015820FM-12+0006GQNR V0200401N003112200019N0100001N1+02191+00411101381ADDGA1001+999999999GF100991001001999999001001MD1999999-0061REMSYN064AAXX  07094 61489 42960 00406 10219 20041 30031 40138 333 59006;EQDQ01+100313APOSP 
0147614890999992000120715004+16500-015820FM-12+0006GQNR V0200801N005112200019N0100001N1+03681+00591101211ADDGA1001+999999999GF100991001001999999001001MA1999999101141MD1999999+0061REMSYN064AAXX  07154 61489 42960 00810 10368 20059 30114 40121 333 58006;
0196614890999992000120718004+16500-015820FM-12+0006GQNR V0200801N003112200019N0100001N1+03401+00571101091ADDAA199000091GA1001+999999999GF100991001001999999001001KA1120M+03851MA1999999101021MD1999999+0061REMSYN070AAXX  07184 61489 32960 00806 10340 20057 30102 40109 333 10385 58006;EQDQ01  00002PRCP99
0202614890999992000120806004+16500-015820FM-12+0006GQNR V0203601N005112200019N0100001N1+01961+00041101341ADDAA199000091GA1001+999999999GF100991001001999999001001KA1120N+01721MA1999999101271MD1999999+0111REMSYN076AAXX  08064 61489 32960 03610 10196 20004 30127 40134 333 0//00 20172 58011;EQDQ01  00002PRCP99
0147614890999992000120809004+16500-015820FM-12+0006GQNR V0203601N003112200019N0100001N1+02051+00241101421ADDGA1001+999999999GF100991001001999999001001MA1999999101351MD1999999+0041REMSYN064AAXX  08094 61489 42960 03606 10205 20024 30135 40142 333 58004;
0195614890999992000120812004+16500-015820FM-12+0006GQNR V0200801N008212200019N0060001N1+03201+00551101571ADDAA199000091GA1001+999999999GF100991001001999999001001MA1999999101501MD1999999+0071MW1071REMSYN076AAXX  08124 61489 31956 00816 10320 20055 30150 40157 707// 333 0//00 58007;EQDQ01  00002PRCP99
0196614890999992000120818004+16500-015820FM-12+0006GQNR V0200801N004112200019N0100001N1+03371+00701101071ADDAA199000091GA1001+999999999GF100991001001999999001001KA1120M+03701MA1999999101001MD1999999-0021REMSYN070AAXX  08184 61489 32960 00808 10337 20070 30100 40107 333 10370 59002;EQDQ01  00002PRCP99
0202614890999992000120906004+16500-015820FM-12+0006GQNR V0200801N003112200019N0100001N1+01731-00201101301ADDAA199000091GA1001+999999999GF100991001001999999001001KA1120N+01691MA1999999101231MD1999999-0041REMSYN076AAXX  09064 61489 32960 00806 10173 21020 30123 40130 333 0//00 20169 59004;EQDQ01  00002PRCP99
0147614890999992000120909004+16500-015820FM-12+0006GQNR V0209999C000012200019N0100001N1+02101+00231101401ADDGA1001+999999999GF100991001001999999001001MA1999999101331MD1999999-0021REMSYN064AAXX  09094 61489 42960 00000 10210 20023 30133 40140 333 59002;
0195614890999992000120912004+16500-015820FM-12+0006GQNR V0200801N008212200019N0060001N1+03201+00411101551ADDAA199000091GA1001+999999999GF100991001001999999001001MA1999999101481MD1999999-0021MW1071REMSYN076AAXX  09124 61489 31956 00816 10320 20041 30148 40155 707// 333 0//00 59002;EQDQ01  00002PRCP99
0175614890999992000120915004+16500-015820FM-12+0006GQNR V0200801N002612200019N0060001N1+03601+00331101191ADDAY101031AY201031GA1001+999999999GF100991001001999999001001MA1999999101121MD1999999-0041MW1071REMSYN070AAXX  09154 61489 41956 00805 10360 20033 30112 40119 70700 333 59004;
0196614890999992000120918004+16500-015820FM-12+0006GQNR V0200601N004112200019N0100001N1+03361+00551101031ADDAA199000091GA1001+999999999GF100991001001999999001001KA1120M+03741MA1999999100961MD1999999-0041REMSYN070AAXX  09184 61489 32960 00608 10336 20055 30096 40103 333 10374 59004;EQDQ01  00002PRCP99
0195614890999992000121012004+16500-015820FM-12+0006GQNR V0200801N004112200019N0045001N1+03161+00441101441ADDAA199000091GA1001+999999999GF100991001001999999001001MA1999999101371MD1999999-0111MW1071REMSYN076AAXX  10124 61489 31945 00808 10316 20044 30137 40144 707// 333 0//00 59011;EQDQ01  00002PRCP99
0175614890999992000121015004+16500-015820FM-12+0006GQNR V0200401N008212200019N0060001N1+03501+00711101201ADDAY101031AY201031GA1001+999999999GF100991001001999999001001MA1999999101131MD1999999+0011MW1071REMSYN070AAXX  10154 61489 41956 00416 10350 20071 30113 40120 70700 333 58001;
0196614890999992000121018004+16500-015820FM-12+0006GQNR V0200401N003112200019N0080001N1+03261+00611101091ADDAA199000091GA1001+999999999GF100991001001999999001001KA1120M+03581MA1999999101021MD1999999+0061REMSYN070AAXX  10184 61489 32958 00406 10326 20061 30102 40109 333 10358 58006;EQDQ01  00002PRCP99
0214614890999992000121106004+16500-015820FM-12+0006GQNR V0200401N008212200019N0060001N1+01981-00071101291ADDAA199000091GA1001+999999999GF100991001001999999001001KA1120N+01621MA1999999101221MD1999999+0101MW1071REMSYN082AAXX  11064 61489 31956 00416 10198 21007 30122 40129 707// 333 0//00 20162 58010;EQDQ01  00002PRCP99
0175614890999992000121109004+16500-015820FM-12+0006GQNR V0200401N008212200019N0060001N1+02101+00091101381ADDAY101031AY201031GA1001+999999999GF100991001001999999001001MA1999999101311MD1999999+0061MW1071REMSYN070AAXX  11094 61489 41956 00416 10210 20009 30131 40138 70700 333 58006;
0195614890999992000121112004+16500-015820FM-12+0006GQNR V0200801N009312200019N0040001N1+03001+00551101501ADDAA199000091GA1001+999999999GF100991001001999999001001MA1999999101431MD1999999+0061MW1071REMSYN076AAXX  11124 61489 31940 00818 10300 20055 30143 40150 707// 333 0//00 58006;EQDQ01  00002PRCP99
0165614890999992000121115004+16500-015820FM-12+0006GQNR V0200801N008212200019N0060001N1+03521+00651101241ADDGA1001+999999999GF100991001001999999001001MA1999999101171MD1999999+0041MW1061REMSYN076AAXX  11154 61489 41956 00816 10352 20065 30117 40124 706// 82030 333 58004;
0196614890999992000121118004+16500-015820FM-12+0006GQNR V0200801N003112200019N0080001N1+03201+00551101061ADDAA199000091GA1001+999999999GF100991001001999999001001KA1120M+03561MA1999999100991MD1999999-0031REMSYN070AAXX  11184 61489 32958 00806 10320 20055 30099 40106 333 10356 59003;EQDQ01  00002PRCP99
0226614890999992000121206004+16500-015820FM-12+0006GQNR V0200401N003112200019N0040001N1+01921+00391101361ADDAA199000091GA1011+039009079GF101991011001999999031001KA1120N+01741MA1999999101311MD1999999+0091MW1061REMSYN094AAXX  12064 61489 31940 10406 10192 20039 30131 40136 706// 81030 333 0//00 20174 58009 81363;EQDQ01  00002PRCP99
0187614890999992000121209004+16500-015820FM-12+0006GQNR V0200401N003112200019N0040001N1+02001+00491101461ADDAY111031AY211031GA1021+039009079GF102991021001999999031001MA1999999101391MD1999999+0081MW1061REMSYN082AAXX  12094 61489 41940 20406 10200 20049 30139 40146 70611 82030 333 58008 82363;
0195614890999992000121212004+16500-015820FM-12+0006GQNR V0200601N008212200019N0035001N1+02961+00471101571ADDAA199000091GA1001+999999999GF100991001001999999001001MA1999999101501MD1999999+0071MW1071REMSYN076AAXX  12124 61489 31935 00616 10296 20047 30150 40157 707// 333 0//00 58007;EQDQ01  00002PRCP99
0230614890999992000121306004+16500-015820FM-12+0006GQNR V0200401N005112200019N0100001N1+01961+00371101281ADDAA199000091GA1021+039009079GF102991021001999999071001KA1120N+99999MA1999999101211MD1999999-0101REMSYN088AAXX  13064 61489 32960 20410 10196 20037 30121 40128 82070 333 0//00 20277 59010 82363;EQDQ01  00002PRCP99Q02 +02772ATMN  
0159614890999992000121309004+16500-015820FM-12+0006GQNR V0209999C000012200019N0100001N1+01991+00321101391ADDGA1031+039009079GF103991031001999999071001MA1999999101321MD1999999-0071REMSYN076AAXX  13094 61489 42960 30000 10199 20032 30132 40139 83070 333 59007 83363;
0207614890999992000121312004+16500-015820FM-12+0006GQNR V0200801N008212200019N0060001N1+03001+00311101521ADDAA199000091GA1011+039009079GF101991011001999999071001MA1999999101451MD1999999-0051MW1071REMSYN088AAXX  13124 61489 31956 10816 10300 20031 30145 40152 707// 81070 333 0//00 59005 81363;EQDQ01  00002PRCP99
0187614890999992000121315004+16500-015820FM-12+0006GQNR V0200801N008212200019N0060001N1+03251+00451101211ADDAY101031AY201031GA1021+039009079GF102991021001999999071001MA1999999101141MD1999999-0071MW1071REMSYN082AAXX  13154 61489 41956 20816 10325 20045 30114 40121 70700 82070 333 59007 82363;
0196614890999992000121318004+16500-015820FM-12+0006GQNR V0200601N004112200019N0080001N1+03201+00551101091ADDAA199000091GA1001+999999999GF100991001001999999001001KA1120M+03481MA1999999101021MD1999999-0051REMSYN070AAXX  13184 61489 32958 00608 10320 20055 30102 40109 333 10348 59005;EQDQ01  00002PRCP99
0208614890999992000121406004+16500-015820FM-12+0006GQNR V0200401N004112200019N0060001N1+01971+00471101261ADDAA199000091GA1001+999999999GF100991001001999999001001KA1120N+01721MA1999999101191MD1999999-0021MW1061REMSYN076AAXX  14064 61489 31956 00408 10197 20047 30119 40126 706// 333 20172 59002;EQDQ01  00002PRCP99
0175614890999992000121409004+16500-015820FM-12+0006GQNR V0200401N003112200019N0040001N1+02021+00471101361ADDAY101031AY201031GA1001+999999999GF100991001001999999001001MA1999999101291MD1999999-0031MW1061REMSYN070AAXX  14094 61489 41940 00406 10202 20047 30129 40136 70600 333 59003;
0195614890999992000121412004+16500-015820FM-12+0006GQNR V0200801N008212200019N0035001N1+02921+00411101411ADDAA199000091GA1001+999999999GF100991001001999999001001MA1999999101341MD1999999-0111MW1071REMSYN076AAXX  14124 61489 31935 00816 10292 20041 30134 40141 707// 333 0//00 59011;EQDQ01  00002PRCP99
0175614890999992000121415004+16500-015820FM-12+0006GQNR V0200801N007212200019N0050001N1+03401+00571101111ADDAY101031AY201031GA1001+999999999GF100991001001999999001001MA1999999101041MD1999999-0101MW1071REMSYN070AAXX  14154 61489 41950 00814 10340 20057 30104 40111 70700 333 59010;
0236614890999992000121418004+16500-015820FM-12+0006GQNR V0200801N007212200019N0070001N1+03251+00451100961ADDAA199000091AY111061AY211061GA1041+069009019GF104991001001999999001011KA1120M+03521MA1999999100891MD1999999-0131MW1071REMSYN088AAXX  14184 61489 31957 40814 10325 20045 30089 40096 70711 80001 333 10352 59013 84073;EQDQ01  00002PRCP99
0214614890999992000121506004+16500-015820FM-12+0006GQNR V0209999C000012200019N0035001N1+02131+00711101121ADDAA199000091GA1001+999999999GF100991001001999999001001KA1120N+01861MA1999999101051MD1999999-0141MW1061REMSYN082AAXX  15064 61489 31935 00000 10213 20071 30105 40112 706// 333 0//00 20186 59014;EQDQ01  00002PRCP99
0175614890999992000121509004+16500-015820FM-12+0006GQNR V0200801N003112200019N0030001N1+02051+00551101241ADDAY101031AY201031GA1001+999999999GF100991001001999999001001MA1999999101171MD1999999-0121MW1061REMSYN070AAXX  15094 61489 41930 00806 10205 20055 30117 40124 70600 333 59012;
0195614890999992000121512004+16500-015820FM-12+0006GQNR V0200801N009312200019N0025001N1+02771+00351101331ADDAA199000091GA1001+999999999GF100991001001999999001001MA1999999101261MD1999999-0081MW1071REMSYN076AAXX  15124 61489 31325 00818 10277 20035 30126 40133 707// 333 0//00 59008;EQDQ01  00002PRCP99
0175614890999992000121515004+16500-015820FM-12+0006GQNR V0200801N007212200019N0040001N1+03281+00621101071ADDAY101031AY201031GA1001+999999999GF100991001001999999001001MA1999999101001MD1999999-0041MW1071REMSYN070AAXX  15154 61489 41940 00814 10328 20062 30100 40107 70700 333 59004;
0236614890999992000121518004+16500-015820FM-12+0006GQNR V0200801N003110690019N0050001N1+03031+00631100951ADDAA199000091AY121061AY221061GA1051+069009019GF105991001001999999001021KA1120M+03421MA1999999100881MD1999999-0011MW1061REMSYN088AAXX  15184 61489 31950 50806 10303 20063 30088 40095 70622 80002 333 10342 59001 85073;EQDQ01  00002PRCP99
0213614890999992000121612004+16500-015820FM-12+0006GQNR V0200801N008219999999N0035001N1+02741+00331101321ADDAA199000091GA1031+039009039GF106991031001999999071021MA1999999101251MD1999999-0011MW1071REMSYN094AAXX  16124 61489 31935 60816 10274 20033 30125 40132 707// 83072 333 0//00 59001 83363 84073;EQDQ01  00002PRCP99
0232614890999992000121706004+16500-015820FM-12+0006GQNR V0200401N006219999999N0050001N1+02141+00231101251ADDAA199000091GA1041+039009039GF107991041001999999071021KA1120N+01801MA1999999101181MD1999999+0181MW1061REMSYN100AAXX  17064 61489 31950 70412 10214 20023 30118 40125 706// 84072 333 0//00 20180 58018 84363 87073;EQDQ01  00002PRCP99
0193614890999992000121715004+16500-015820FM-12+0006GQNR V0200801N007219999999N0060001N1+03301+00591101181ADDAY121031AY221031GA1021+039009039GF107991021001999999071021MA1999999101111MD1999999+0051MW1071REMSYN088AAXX  17154 61489 41956 70814 10330 20059 30111 40118 70722 82072 333 58005 82363 87073;
0236614890999992000121718004+16500-015820FM-12+0006GQNR V0200801N005110690019N0070001N1+03161+00791101061ADDAA199000091AY121061AY221061GA1071+069009019GF107991001001999999001021KA1120M+03381MA1999999100991MD1999999+0081MW1061REMSYN088AAXX  17184 61489 31957 70810 10316 20079 30099 40106 70622 80002 333 10338 58008 87073;EQDQ01  00002PRCP99
0183614890999992000121812004+16500-015820FM-12+0006GQNR V0200401N006212200019N0100001N1+02841+00101101601ADDAA199000091GA1001+999999999GF100991001001999999001001MA1999999101531MD1999999+0211REMSYN070AAXX  18124 61489 33960 00412 10284 20010 30153 40160 333 0//00 58021;EQDQ01  00002PRCP99
0187614890999992000122015004+16500-015820FM-12+0006GQNR V0200401N007210690019N0035001N1+02881+00501101421ADDAY121031AY221031GA1051+069009019GF105991001001999999001021MA1999999101351MD1999999+0021MW1071REMSYN082AAXX  20154 61489 41935 50414 10288 20050 30135 40142 70722 80002 333 58002 85073;
0202614890999992000122106004+16500-015820FM-12+0006GQNR V0203601N004112200019N0100001N1+01641+01041101521ADDAA199000091GA1001+999999999GF100991001001999999001001KA1120N+01501MA1999999101451MD1999999+0061REMSYN076AAXX  21064 61489 32960 03608 10164 20104 30145 40152 333 0//00 20150 58006;EQDQ01  00002PRCP99
0147614890999992000122109004+16500-015820FM-12+0006GQNR V0203601N003112200019N0100001N1+01601+01041101791ADDGA1001+999999999GF100991001001999999001001MA1999999101721MD1999999+0071REMSYN064AAXX  21094 61489 42960 03606 10160 20104 30172 40179 333 58007;
0202614890999992000122206004+16500-015820FM-12+0006GQNR V0209999C000012200019N0100001N1+01621+01301101511ADDAA199000091GA1001+999999999GF100991001001999999001001KA1120N+01401MA1999999101441MD1999999-0011REMSYN076AAXX  22064 61489 32960 00000 10162 20130 30144 40151 333 0//00 20140 59001;EQDQ01  00002PRCP99
0159614890999992000122208004+16500-015820FM-12+0006GQNR V0209999C000010690019N0100001N1+01561+01161101741ADDGA1051+069009019GF105991001001999999001021MA1999999101671MD1999999-0051REMSYN076AAXX  22084 61489 42960 50000 10156 20116 30167 40174 80002 333 59005 85073;
0159614890999992000122309004+16500-015820FM-12+0006GQNR V0209999C000010690019N0100001N1+01481+01101101711ADDGA1051+069009019GF105991001001999999001021MA1999999101641MD1999999-0031REMSYN076AAXX  23094 61489 42960 50000 10148 20110 30164 40171 80002 333 59003 85073;
0195614890999992000122312004+16500-015820FM-12+0006GQNR V0203601N005110690019N0100001N1+02661+00301101791ADDAA199000091GA1051+069009019GF105991001001999999001021MA1999999101721MD1999999+0151REMSYN082AAXX  23124 61489 33960 53610 10266 20030 30172 40179 80002 333 0//00 58015 85073;EQDQ01  00002PRCP99
0159614890999992000122315004+16500-015820FM-12+0006GQNR V0203601N004110690019N0100001N1+02981+00701101501ADDGA1051+069009019GF105991001001999999001021MA1999999101431MD1999999+0181REMSYN076AAXX  23154 61489 42960 53608 10298 20070 30143 40150 80002 333 58018 85073;
0211614890999992000122318004+16500-015820FM-12+0006GQNR V0209999C000012200019N0100001N1+02721-00041101441ADDAA199000091GA1051+069009019GF199999001001999999001021MA1999999101371MD1999999+0051REMSYN082AAXX  23184 61489 32960 40000 10272 21004 30137 40144 80002 333 19315 58005 85073;EQDQ01+000042SCOTCVQ02  00002PRCP99
0159614890999992000122409004+16500-015820FM-12+0006GQNR V0209999C000010690019N0100001N1+01741+01281101821ADDGA1061+069009019GF106991001001999999001021MA1999999101741MD1999999+0141REMSYN076AAXX  24094 61489 42960 60000 10174 20128 30174 40182 80002 333 58014 86073;
0195614890999992000122412004+16500-015820FM-12+0006GQNR V0200401N005110690019N0100001N1+02641+00621101811ADDAA199000091GA1061+069009019GF106991001001999999001021MA1999999101741MD1999999+0021REMSYN082AAXX  24124 61489 33960 60410 10264 20062 30174 40181 80002 333 0//00 58002 86073;EQDQ01  00002PRCP99
0214614890999992000122418004+16500-015820FM-12+0006GQNR V0209999C000019999999N0100001N1+02841+00391101431ADDAA199000091GA1031+039009039GF106991031001999999071021KA1120M+03341MA1999999101361MD1999999-0011REMSYN088AAXX  24184 61489 32960 60000 10284 20039 30136 40143 83072 333 10334 59001 83363 84073;EQDQ01  00002PRCP99
0220614890999992000122506004+16500-015820FM-12+0006GQNR V0209999C000019999999N0100001N1+01731+00671101601ADDAA199000091GA1031+039009039GF106991031001999999071021KA1120N+01601MA1999999101531MD1999999+0021REMSYN094AAXX  25064 61489 32960 60000 10173 20067 30153 40160 83072 333 0//00 20160 58002 83363 84073;EQDQ01  00002PRCP99
0178614890999992000122515004+16500-015820FM-12+0006GQNR V0200401N004110690019N0100001N1+03021+00581101341ADDGA1061+069009089GF106991999001999999001081MA1999999101271MD1999999-0171REMSYN076AAXX  25154 61489 42960 60408 10302 20058 30127 40134 80008 333 59017 86273;EQDQ01+000002SCOTLC
0213614890999992000122518004+16500-015820FM-12+0006GQNR V0209999C000019999999N0100001N1+99999+99999999999ADDAA199000091GA1031+039009039GF106991999999999999999999KA1120M+03151MA1102811999999MD1999999-0051REMSYN087AAXX  25184 61489 32960 60000 1028 20051 30131 40138 83078 333 10315 59005 83363 86273;EQDQ01  00002PRCP99
0159614890999992000122609004+16500-015820FM-12+0006GQNR V0209999C000012200019N0100001N1+01851+01511101681ADDGA1031+069009019GF103991001001999999001021MA1999999101611MD1999999+0051REMSYN076AAXX  26094 61489 42960 30000 10185 20151 30161 40168 80002 333 58005 83073;
0195614890999992000122612004+16500-015820FM-12+0006GQNR V0209999C000010690019N0100001N1+02801+00781101671ADDAA199000091GA1051+069009019GF105991001001999999001021MA1999999101601MD1999999+0031REMSYN082AAXX  26124 61489 33960 50000 10280 20078 30160 40167 80002 333 0//00 58003 85073;EQDQ01  00002PRCP99
0178614890999992000122615004+16500-015820FM-12+0006GQNR V0209999C000010690019N0100001N1+03231+00341101441ADDGA1061+069009089GF106991999001999999001081MA1999999101371MD1999999+0101REMSYN076AAXX  26154 61489 42960 60000 10323 20034 30137 40144 80008 333 58010 86273;EQDQ01+000002SCOTLC
0220614890999992000122706004+16500-015820FM-12+0006GQNR V0209999C000019999999N0100001N1+01801+01361101631ADDAA199000091GA1031+039009039GF106991031001999999071021KA1120N+01691MA1999999101561MD1999999+0051REMSYN094AAXX  27064 61489 32960 60000 10180 20136 30156 40163 83072 333 0//00 20169 58005 83363 85073;EQDQ01  00002PRCP99
0184614890999992000122709004+16500-015820FM-12+0006GQNR V0209999C000019999999N0100001N1+01771+01151101721ADDGA1031+039009039GF106991999001999999071001MA1999999101651MD1999999+0041REMSYN082AAXX  27094 61489 42960 60000 10177 20115 30165 40172 83070 333 58004 83363 85073;EQDQ01+000032SCOTLC
0217614890999992000122712004+16500-015820FM-12+0006GQNR V0200401N003119999999N0100001N1+02872+00551101761ADDAA199000091GA1031+039009039GF106991031001999999071021MA1999999101691MD1999999+0091REMSYN088AAXX  27124 61489 33960 60406 10287 20055 30169 40176 83072 333 0//00 58009 83363 86073;EQDQ01+002873ATOT  Q02  00002PRCP99
0214614890999992000122806004+16500-015820FM-12+0006GQNR V0209999C000010690019N0100001N1+01681+00321101641ADDAA199000091GA1051+069009019GF105991001001999999001021KA1120N+01571MA1999999101571MD1999999+0011REMSYN088AAXX  28064 61489 32960 50000 10168 20032 30157 40164 80002 333 02/00 20157 58001 85073;EQDQ01  00002PRCP99
0159614890999992000122809004+16500-015820FM-12+0006GQNR V0209999C000010690019N0100001N1+01701+00101101721ADDGA1051+069009019GF105991001001999999001021MA1999999101651MD1999999+0001REMSYN076AAXX  28094 61489 42960 50000 10170 20010 30165 40172 80002 333 58000 85073;
0220614890999992000122906004+16500-015820FM-12+0006GQNR V0209999C000019999999N0100001N1+01721+00731101711ADDAA199000091GA1041+039009039GF106991041001999999071021KA1120N+01651MA1999999101641MD1999999+0071REMSYN094AAXX  29064 61489 32960 60000 10172 20073 30164 40171 84072 333 0//00 20165 58007 84363 84073;EQDQ01  00002PRCP99
0159614890999992000122915004+16500-015820FM-12+0006GQNR V0200801N005110690019N0100001N1+03301+00391101471ADDGA1051+069009019GF105991001001999999001021MA1999999101401MD1999999-0151REMSYN076AAXX  29154 61489 42960 50810 10330 20039 30140 40147 80002 333 59015 85073;
0195614890999992000123012004+16500-015820FM-12+0006GQNR V0200801N005112200019N0100001N1+02951+00451101561ADDAA199000091GA1041+069009019GF104991001001999999001021MA1999999101491MD1999999-0211REMSYN082AAXX  30124 61489 33960 40810 10295 20045 30149 40156 80002 333 0//00 59021 84073;EQDQ01  00002PRCP99
0159614890999992000123015004+16500-015820FM-12+0006GQNR V0200801N004110690019N0100001N1+03251+00381101311ADDGA1051+069009019GF105991001001999999001021MA1999999101241MD1999999-0161REMSYN076AAXX  30154 61489 42960 50808 10325 20038 30124 40131 80002 333 59016 85073;
