0163654570999992000040109004+05930-000980FM-12+0140DGKA V0202701N001019999999N0240001N1+02711+02531101071ADDGA1041+003609069GF105991999081004501999999MD1999999-0071REMSYN076AAXX  01094 65457 42474 52702 10271 20253 40107 878// 333 59007 84612 83815;EQDQ01+000072SCOTLC
0144654570999992000040212004+05930-000980FM-12+0140DGKA V0202201N00101105001CN0280001N1+02651+02321101121ADDGA1031+004509089GF106991031021004501001021MD1999999+0061REMSYN076AAXX  02124 65457 42478 62202 10265 20232 40112 83202 333 58006 83815 84073;
0193654570999992000040218004+05930-000980FM-12+0140DGKA V0201401N00151105001CN0300001N1+03021+02271100851ADDAA199000091GA1011+004809069GF107991011051004501001061KA1120M+03391MD1999999+0201REMSYN082AAXX  02184 65457 32480 71403 10302 20227 40085 81506 333 10339 58020 81616 87275;EQDQ01  00002PRCP99
0271654570999992000040318004+05930-000980FM-12+0140DGKA V0202301N002610750019N0280001N1+02951+02441101301ADDAA199000091AY191061AY221061GA1031+004209069GA2011+009009099GA3071+075009029GF107991031091004501001061KA1120M+03401MD1999999+0151MW1171REMSYN106AAXX  03184 65457 31478 72305 10295 20244 40130 71792 83906 333 10340 58015 83614 87275 81930 97671 95708;EQDQ01  00002PRCP99
0187654570999992000040406004+05930-000980FM-12+0140DGKA V0209999C000010036019N0260001N1+02421+02251101301ADDAA199000091GA1071+003609059GF107991071051004501999999KA1120N+02361MD1999999+0141REMSYN076AAXX  04064 65457 32476 70000 10242 20225 40130 875// 333 20236 58014 87612;EQDQ01  00002PRCP99
0096654570999992000040509004+05930-000980FM-12+0140DGKA V0202301N001510450019N0240001N1+02501+02281101321ADDGF107991041081004501031061REMSYN058AAXX  05094 65457 41474 72303 10250 20228 40132 84836 333;
0196654570999992000040612004+05930-000980FM-12+0140DGKA V0202301N001011050019N0280001N1+03201+02501101081ADDAA199000091AY141061AY221061GA1041+004809029GF105991041021004501001021MD1999999-0091MW1021REMSYN076AAXX  06124 65457 31478 52302 10320 20250 40108 70242 84202 333 59009 84816;EQDQ01  00002PRCP99
0196654570999992000040712004+05930-000980FM-12+0140DGKA V0202301N002110051019N0250001N1+03251+02291101061ADDAA199000091AY141061AY221061GA1061+005109029GF106991061021004501001001MD1999999+0011MW1011REMSYN076AAXX  07124 65457 31475 62304 10325 20229 40106 70142 86200 333 58001 86817;EQDQ01  00002PRCP99
0271654570999992000040718004+05930-000980FM-12+0140DGKA V0201401N00051008401CN0250001N1+02791+02211101231ADDAA199000091AY191061AY221061GA1041+003909069GA2011+008409099GA3071+072009029GF107991041091002501001061KA1120M+03481MD1999999+0041MW1171REMSYN106AAXX  07184 65457 31375 71401 10279 20221 40123 71792 84906 333 10348 58004 84613 87274 81928 94671 95708;EQDQ01  00002PRCP99
0174654570999992000040806004+05930-000980FM-12+0140DGKA V0209999C000012200019N0150001N1+02351+02281101071ADDAA124002091GA1021+075009019GF102991001001999999001021KA1120N+02241MD1999999-0041REMSYN082AAXX  08064 65457 12965 20000 10235 20228 40107 60024 80002 333 20224 59004 82075;
0168654570999992000040812004+05930-000980FM-12+0140DGKA V0201401N002610051019N0250001N1+03251+02401101031ADDAA199000091GA1051+005109029GF105991051021004501001001MD1999999-0061REMSYN070AAXX  08124 65457 32475 51405 10325 20240 40103 85200 333 59006 85817;EQDQ01  00002PRCP99
0193654570999992000040918004+05930-000980FM-12+0140DGKA V0201801N00151220001CN0280001N1+03021+02301100751ADDAA199000091GA1011+004509069GF106991011021004501001061KA1120M+03461MD1999999-0061REMSYN082AAXX  09184 65457 32478 61803 10302 20230 40075 81206 333 10346 59006 81615 86274;EQDQ01  00002PRCP99
0208654570999992000041006004+05930-000980FM-12+0140DGKA V0209999C000010036019N0220001N1+02461+02391100501ADDAA124000191AY191061AY261061GA1051+003609069GF107991051051004501031999KA1120N+02351MD1999999-0101MW1291REMSYN094AAXX  10064 65457 11472 70000 10246 20239 40050 69924 72996 8553/ 333 20235 59010 85612 87362;
0168654570999992000041012004+05930-000980FM-12+0140DGKA V0200501N001012200019N0180001N1+03261+02451100881ADDAA199000091GA1031+005109029GF103991031021004501001001MD1999999-0021REMSYN070AAXX  10124 65457 32468 30502 10326 20245 40088 83200 333 59002 83817;EQDQ01  00002PRCP99
0208654570999992000041106004+05930-000980FM-12+0140DGKA V0201401N001510036019N0220001N1+02431+02211101001ADDAA124002091AY191061AY261061GA1051+003609069GF107991051051004501071999KA1120N+02381MD1999999+0141MW1291REMSYN094AAXX  11064 65457 11472 71403 10243 20221 40100 60024 72996 8557/ 333 20238 58014 85612 87462;
0193654570999992000041118004+05930-000980FM-12+0140DGKA V0209999C000019999999N0280001N1+02851+02331100991ADDAA199000091GA1031+036009039GF107991031001999999031061KA1120M+03001MD1999999+0091REMSYN082AAXX  11184 65457 32978 70000 10285 20233 40099 83036 333 10300 58009 83362 87274;EQDQ01  00002PRCP99
0203654570999992000041206004+05930-000980FM-12+0140DGKA V0209999C000012200019N0005001N1+02221+02151101101ADDAA199000091AY141061AY201061GA1001+999999999GF100991001001999999001001KA1120N+02181MD1999999+0081MW1421REMSYN070AAXX  12064 65457 31905 00000 10222 20215 40110 74240 333 20218 58008;EQDQ01  00002PRCP99
0174654570999992000051212004+05930-000980FM-12+0140DGKA V0202301N00151220001CN0100001N1+03451+02391101251ADDAA199000091GA1021+004809089GF106991021021004501001061MD1999999+0041REMSYN076AAXX  12124 65457 32460 62303 10345 20239 40125 82206 333 58004 82816 86273;EQDQ01  00002PRCP99
0237654570999992000051218004+05930-000980FM-12+0140DGKA V0203201N001010690019N0300001N1+03061+02411101021ADDAA199000091GA1021+004209069GA2011+009009099GA3071+069009029GF107991031091004501001061KA1120M+03321MD1999999-0061REMSYN094AAXX  12184 65457 32480 73202 10306 20241 40102 83906 333 10332 59006 82614 87273 81930 94515;EQDQ01  00002PRCP99
0193654570999992000051306004+05930-000980FM-12+0140DGKA V0209999C00001105001CN0240001N1+02091+02071101281ADDAA199000091GA1011+003909069GF107991011051004501001061KA1120N+02141MD1999999+0001REMSYN082AAXX  13064 65457 32474 70000 10209 20207 40128 81506 333 20214 58000 81613 87275;EQDQ01  00002PRCP99
0120654570999992000052412004+05930-000980FM-12+0140DGKA V0202301N004119999999N0300001N1+02761+02341101511ADDAA199000091GF107991999999004501999999REMSYN052AAXX  24124 65457 32480 72308 10276 20234 40151 333;EQDQ01  00002PRCP99
0187654570999992000052506004+05930-000980FM-12+0140DGKA V0209999C000019999999N0260001N1+02281+02221101411ADDAA199000091GA1041+036009079GF105991041001999999031021KA1120N+02241MD1999999-0191REMSYN076AAXX  25064 65457 32976 50000 10228 20222 40141 84032 333 20224 59019 84362;EQDQ01  00002PRCP99
0202654570999992000053006004+05930-000980FM-12+0140DGKA V0209999C000010033019N0003001N1+02351+02311101181ADDAA124006191AY141061AY201061GA1071+003309059GF107991071051004501999999KA1120N+02301MD1999999-0081MW1441REMSYN088AAXX  30064 65457 11403 70000 10235 20231 40118 60064 74440 875// 333 20230 59008 87611;
0174654570999992000060212004+05930-000980FM-12+0140DGKA V0202701N00051045001CN0300001N1+02781+02351101461ADDAA199000091GA1041+004809089GF107991041021004501031999MD1999999+0161REMSYN076AAXX  02124 65457 32480 72701 10278 20235 40146 8423/ 333 58016 84816 87362;EQDQ01  00002PRCP99
0193654570999992000060318004+05930-000980FM-12+0140DGKA V0202301N00261105001CN0280001N1+02841+02481101101ADDAA199000091GA1021+003009069GF107991021051004501001021KA1120M+03231MD1999999-0051REMSYN082AAXX  03184 65457 32478 72305 10284 20248 40110 82502 333 10323 59005 82610 85076;EQDQ01  00002PRCP99
0174654570999992000060512004+05930-000980FM-12+0140DGKA V02099999999990048019N0300001N1+99999+99999101501ADDAA199000091GA1051+004809089GF107991051021004501031999MD1999999+0131REMSYN076AAXX  05124 65457 32480 72/02 10/96 20237 40150 8523/ 333 58013 85816 87362;EQDQ01  00002PRCP99
0174654570999992000060712004+05930-000980FM-12+0140DGKA V0202301N00101045001CN0280001N1+02801+02491101581ADDAA199000091GA1031+005409089GF107991031021004501031021MD1999999-0011REMSYN076AAXX  07124 65457 32478 72302 10280 20249 40158 83232 333 59001 83818 87273;EQDQ01  00002PRCP99
0193654570999992000060806004+05930-000980FM-12+0140DGKA V0209999C00001045001CN0250001N1+02201+02181101321ADDAA199000091GA1041+003609069GF107991041051004501031999KA1120N+02151MD1999999+0021REMSYN082AAXX  08064 65457 32475 70000 10220 20218 40132 8453/ 333 20215 58002 84612 87362;EQDQ01  00002PRCP99
0193654570999992000060818004+05930-000980FM-12+0140DGKA V0202301N001012200019N0300001N1+03051+02331101261ADDAA199000091GA1011+004509069GF104991031081004501031021KA1120M+03261MD1999999-0121REMSYN082AAXX  08184 65457 32480 42302 10305 20233 40126 83832 333 10326 59012 81615 8/717;EQDQ01  00002PRCP99
0168654570999992000061012004+05930-000980FM-12+0140DGKA V0201401N001010048019N0300001N1+03031+02331101471ADDAA199000091GA1051+004809029GF105991051021004501041001MD1999999-0071REMSYN070AAXX  10124 65457 32480 51402 10303 20233 40147 85240 333 59007 85816;EQDQ01  00002PRCP99
0252654570999992000061018004+05930-000980FM-12+0140DGKA V0209999C000010720019N0280001N1+02901+02401101291ADDAA112003091AY161061AY211061GA1011+008709099GA2021+051009089GA3031+072009009GF105991021091004501001021KA1120M+03301MD1999999+0051MW1031REMSYN106AAXX  10184 65457 11478 50000 10290 20240 40129 60032 70361 82902 333 10330 58005 82867 83074 81929 94584;
0208654570999992000061118004+05930-000980FM-12+0140DGKA V0209999C00001045001CN0200001N1+02481+02211101351ADDAA124001091AY191061AY261061GA1031+003909069GF107991031051004501031021KA1120M+03201MD1999999+0031MW1291REMSYN094AAXX  11184 65457 11470 70000 10248 20221 40135 60014 72996 83532 333 10320 58003 83613 86363;
0261654570999992000061218004+05930-000980FM-12+0140DGKA V0201401N00051009001CN0250001N1+02421+02301999999ADDAA112007191AY191061AY261061GA1031+003309069GA2021+009009099GA3081+036009049GF108991999999004501999999KA1120M+03151MD1999999+0121ME1101489MW1951REMSYN106AAXX  12184 65457 11475 81401 10242 20230 41148 60072 79596 333 10315 58012 83611 88462 82930 94699 95709;
0183654570999992000061300004+05930-000980FM-12+0140DGKA V0209999C000010036019N0260001N1+02351+02281101541ADDAA106007991AY191061AY261061GA1071+003609059GF107991071051004501999999MD1999999+0061MW1031REMSYN082AAXX  13004 65457 11476 70000 10235 20228 40154 60081 70396 875// 333 58006 87612;
0202654570999992000061406004+05930-000970FM-12+0140DGKA V0209999C000010033019N0006001N1+02341+02281101461ADDAA124999999AY141061AY201061GA1071+003309059GF107991999999004501999999KA1120N+02251MD1999999-0041MW1441REMSYN088AAXX  14064 65457 11406 70000 10234 20228 40146 6/534 74440 8//// 333 20225 59004 87611;
0162654570999992000061412004+05930-000970FM-12+0140DGKA V0202301N001511050019N0220001N1+03071+99999101331ADDAA199000091GA1041+005409029GF105991041021004501001021MD1999999-0141REMSYN064AAXX  14124 65457 32472 52303 10307 40133 84202 333 59014 84818;EQDQ01  00002PRCP99
0202654570999992000061706004+05930-000970FM-12+0140DGKA V0209999C000010033019N0200001N1+02451+02351101381ADDAA124004191AY181061AY221061GA1071+003309059GF107991071051004501999999KA1120N+02391MD1999999-0091MW1021REMSYN088AAXX  17064 65457 11470 70000 10245 20235 40138 60044 70282 875// 333 20239 59009 87611;
0144654570999992000061709004+05930-000970FM-12+0140DGKA V0202301N00361009001CN0240001N1+02601+02311101511ADDGA1041+003609069GF107991071081004501999999MD1999999+0121REMSYN076AAXX  17094 65457 42474 72307 10260 20231 40151 878// 333 58012 84612 83815;
0174654570999992000061712004+05930-000970FM-12+0140DGKA V0201401N00261105001CN0260001N1+02751+02351101481ADDAA199000091GA1011+004809089GF107991011021004501001061MD1999999+0171REMSYN076AAXX  17124 65457 32476 71405 10275 20235 40148 81206 333 58017 81816 87274;EQDQ01  00002PRCP99
0208654570999992000061718004+05930-000970FM-12+0140DGKA V0201401N00151045001CN0270001N1+02401+02351101351ADDAA112004191AY161061AY221061GA1031+003609069GF107991031051004501031999KA1120M+02881MD1999999+0221MW1211REMSYN094AAXX  17184 65457 11477 71403 10240 20235 40135 60042 72162 8353/ 333 10288 58022 83612 87461;
0196654570999992000061812004+05930-000970FM-12+0140DGKA V0202301N00361004501CN0220001N1+02851+02351101491ADDAA199000091GA1021+004209069GA2031+004509089GF107991041031004501021999MD1999999+0071REMSYN082AAXX  18124 65457 32472 72307 10285 20235 40149 8432/ 333 58007 82614 83815 85363;EQDQ01  00002PRCP99
0168654570999992000062012004+05930-000970FM-12+0140DGKA V0202301N001010048019N0200001N1+02921+02421101371ADDAA199000091GA1061+004809029GF106991061021004501031001MD1999999-0071REMSYN070AAXX  20124 65457 32470 62302 10292 20242 40137 86230 333 59007 86816;EQDQ01  00002PRCP99
0174654570999992000062112004+05930-000970FM-12+0140DGKA V0202301N000510042019N0270001N1+02741+02501101451ADDAA199000091GA1061+004209069GF107991071081004501999999MD1999999-0011REMSYN076AAXX  21124 65457 32477 72301 10274 20250 40145 878// 333 59001 86614 83815;EQDQ01  00002PRCP99
0271654570999992000062118004+05930-000970FM-12+0140DGKA V0201801N00101009001CN0300001N1+02901+02451101161ADDAA199000091AY191061AY221061GA1041+003909069GA2021+009009099GA3071+075009029GF107991051091004501031061KA1120M+03091MD1999999-0091MW1171REMSYN106AAXX  21184 65457 31480 71802 10290 20245 40116 71792 85936 333 10309 59009 84613 87275 82930 94699 95701;EQDQ01  00002PRCP99
0202654570999992000062206004+05930-000970FM-12+0140DGKA V0209999C000010036019N0260001N1+02321+02231101531ADDAA124055191AY191061AY261061GA1071+003609059GF107991071051004501999999KA1120N+02161MD1999999+0151MW1021REMSYN088AAXX  22064 65457 11476 70000 10232 20223 40153 60554 70296 875// 333 20216 58015 87612;
0183654570999992000062212004+05930-000970FM-12+0140DGKA V0202301N001010036019N0280001N1+02541+02371101361ADDAA106000891AY151061AY221061GA1061+003609059GF107991071081004501999999MD1999999+0211MW1011REMSYN082AAXX  22124 65457 11478 72302 10254 20237 40136 69981 70152 878// 333 58021 86612;
0258654570999992000062618004+05930-000970FM-12+0140DGKA V0201401N001510360019N0270001N1+02671+02391101401ADDAA112006191AY191061AY261061GA1021+003909069GA2021+009009099GA3051+036009039GF107991031091004501031021KA1120M+03001MD1999999+0091MW1171REMSYN112AAXX  26184 65457 11477 71403 10267 20239 40140 60062 71796 83932 333 10300 58009 82613 85362 82930 94699 95701;
0174654570999992000062712004+05930-000970FM-12+0140DGKA V0200501N00101009001CN0280001N1+02941+02421101471ADDAA199000091GA1011+004209069GF107991071081004501999999MD1999999+0031REMSYN076AAXX  27124 65457 32478 70502 10294 29242 40147 878// 333 58003 81614 86815;EQDQ01  00002PRCP99
0193654570999992000062806004+05930-000970FM-12+0140DGKA V0209999C000010039019N0270001N1+02351+02281101471ADDAA199000091GA1051+003909069GF106991041051004501031001KA1120N+02301MD1999999-0091REMSYN082AAXX  28064 65457 32477 60000 10235 20228 40147 84530 333 20230 59009 85613 83362;EQDQ01  00002PRCP99
0168654570999992000062812004+05930-000970FM-12+0140DGKA V0202701N001010054019N0300001N1+02951+02271101671ADDAA199000091GA1051+005409029GF105991051021004501001001MD1999999+0001REMSYN070AAXX  28124 65457 32480 52702 10295 20227 40167 85200 333 58000 85818;EQDQ01  00002PRCP99
0168654570999992000062912004+05930-000970FM-12+0140DGKA V0201801N001010051019N0280001N1+02981+02371101391ADDAA199000091GA1061+005109029GF106991061021004501001001MD1999999-0151REMSYN070AAXX  29124 65457 32478 61802 10298 20237 40139 86200 333 59015 86817;EQDQ01  00002PRCP99
0187654570999992000063006004+05930-000970FM-12+0140DGKA V0209999C000010036019N0280001N1+02491+02391101361ADDAA199000091GA1071+003609059GF107991071051999999999999KA1120N+02381MD1999999-0071REMSYN076AAXX  30064 65457 32978 70000 10249 20239 40136 875// 333 20238 59007 87612;EQDQ01  00002PRCP99
0189654570999992000063012004+05930-000970FM-12+0140DGKA V0209999C000010036019N0160001N1+02271+02151101521ADDAA106014091AY161061AY221061GA1061+003609069GF107991061051004501031999MD1999999+0121MW1211REMSYN088AAXX  30124 65457 11466 70000 10227 20215 40152 60141 72162 8653/ 333 58012 86612 87462;
0174654570999992000070206004+05930-000970FM-12+0140DGKA V0209999C000010036019N0240001N1+02301+02231101351ADDAA124000791GA1071+003609059GF107991071051004501999999KA1120N+02261MD1999999+0051REMSYN082AAXX  02064 65457 12474 70000 10230 20223 40135 69904 875// 333 20226 58005 87612;
0237654570999992000070218004+05930-000970FM-12+0140DGKA V0201401N003110390019N0270001N1+02551+02271101231ADDAA199000091GA1021+003909069GA2011+009009099GA3061+039009039GF107991031091004501031021KA1120M+03061MD1999999-0021REMSYN094AAXX  02184 65457 32477 71406 10255 20227 40123 83932 333 10306 59002 82613 86363 81930 94582;EQDQ01  00002PRCP99
0174654570999992000070306004+05930-000970FM-12+0140DGKA V0209999C000010036019N0250001N1+02351+02281101291ADDAA124000591GA1071+003609059GF107991071051004501999999KA1120N+02251MD1999999+0001REMSYN082AAXX  03064 65457 12475 70000 10235 20228 40129 69964 875// 333 20225 58000 87612;
0183654570999992000070312004+05930-000970FM-12+0140DGKA V0209999C000010036019N0220001N1+02251+02161101451ADDAA106009991AY161061AY221061GA1071+003609059GF107991071051004501999999MD1999999+0001MW1611REMSYN082AAXX  03124 65457 11472 70000 10225 20216 40145 60101 76162 875// 333 58000 87612;
0174654570999992000070406004+05930-000970FM-12+0140DGKA V0209999C000010036019N0150001N1+02351+02281101331ADDAA124010991GA1071+003609059GF107991071051004501999999KA1120N+02201MD1999999-0021REMSYN082AAXX  04064 65457 12465 70000 10235 20228 40133 60114 875// 333 20220 59002 87612;
0174654570999992000070412004+05930-000970FM-12+0140DGKA V0202301N00211009001CN0280001N1+02791+02331101331ADDAA199000091GA1031+004209069GF107991051081004501031021MD1999999-0181REMSYN076AAXX  04124 65457 32478 72304 10279 20233 40133 85832 333 59018 83614 85816;EQDQ01  00002PRCP99
0174654570999992000070612004+05930-000970FM-12+0140DGKA V0203201N00101045001CN0260001N1+02701+02261101591ADDAA199000091GA1011+003609069GF107991031081004501031999MD1999999+0111REMSYN076AAXX  06124 65457 32476 73202 10270 20226 40159 8383/ 333 58011 81612 85816;EQDQ01  00002PRCP99
0193654570999992000070618004+05930-000970FM-12+0140DGKA V0209999C00001045001CN0280001N1+02871+02371101321ADDAA199000091GA1031+004209069GF106991041081004501031021KA1120M+02891MD1999999+0091REMSYN082AAXX  06184 65457 32478 60000 10287 20237 40132 84832 333 10289 58009 83614 85074;EQDQ01  00002PRCP99
0174654570999992000070712004+05930-000970FM-12+0140DGKA V0202301N001010045019N0280001N1+02871+02371101581ADDAA199000091GA1051+004509089GF106991051021004501031001MD1999999+0021REMSYN076AAXX  07124 65457 32478 62302 10287 20237 40158 85230 333 58002 85815 83363;EQDQ01  00002PRCP99
0187654570999992000070718004+05930-000970FM-12+0140DGKA V0209999C000012200019N0280001N1+02851+02421101351ADDAA199000091GA1031+004509029GF103991031081004501001021KA1120M+03001MD1999999+0051REMSYN076AAXX  07184 65457 32478 30000 10285 20242 40135 83802 333 10300 58005 83815;EQDQ01  00002PRCP99
0168654570999992000070800004+05930-000970FM-12+0140DGKA V0209999C000010039019N0260001N1+02451+02311101501ADDAA199000091GA1071+003909059GF107991071051004501999999MD1999999-0061REMSYN070AAXX  08004 65457 32476 70000 10245 20231 40150 875// 333 59006 87613;EQDQ01  00002PRCP99
0187654570999992000070806004+05930-000970FM-12+0140DGKA V0209999C000010039019N0270001N1+02401+02301101491ADDAA199000091GA1071+003909059GF107991071051004501999999KA1120N+02351MD1999999-0031REMSYN076AAXX  08064 65457 32477 70000 10240 20230 40149 875// 333 20235 59003 87613;EQDQ01  00002PRCP99
0203654570999992000070818004+05930-000970FM-12+0140DGKA V0201401N001012200019N0300001N1+02861+02401101261ADDAA199000091GA1021+004209059GF102991999061004501001001KA1120M+03141MD1999999+0081REMSYN076AAXX  08184 65457 32480 21402 10286 20240 40126 83600 333 10314 58008 82614;EQDQ01+000032SCOTLCQ02  00002PRCP99
0258654570999992000070906004+05930-000970FM-12+0140DGKA V0202301N002110360019N0120001N1+02061+02011101551ADDAA124023991AY191061AY261061GA1041+003309069GA2021+009009099GA3071+036009049GF107991041091004501071999KA1120N+02001MD1999999+0041MW1051REMSYN112AAXX  09064 65457 11462 72304 10206 20201 40155 60244 70596 8497/ 333 20200 58004 84611 87462 82930 94699 95709;
0193654570999992000071006004+05930-000970FM-12+0140DGKA V0201801N00261045001CN0200001N1+02381+02311101471ADDAA199000091GA1021+003909069GF107991031051004501031999KA1120N+02201MD1999999-0061REMSYN082AAXX  10064 65457 32470 71805 10238 20231 40147 8353/ 333 20220 59006 82613 87362;EQDQ01  00002PRCP99
0184654570999992000071012004+05930-000970FM-12+0140DGKA V0202301N002612200019N0280001N1+02801+02331101501ADDAA199000091GA1061+005409029GF199999061021004501001001MD1999999-0051REMSYN070AAXX  10124 65457 32478 32305 10280 20233 40150 86200 333 59005 86818;EQDQ01+000032SCOTCVQ02  00002PRCP99
0237654570999992000071018004+05930-000970FM-12+0140DGKA V0201401N001010720019N0180001N1+02721+02351101291ADDAA199000091GA1011+004209069GA2021+060009099GA3071+072009029GF107991021091004501031061KA1120M+03021MD1999999-0071REMSYN094AAXX  10184 65457 32468 71402 10272 20235 40129 82936 333 10302 59007 81614 87274 82970 94599;EQDQ01  00002PRCP99
0187654570999992000072106004+05930-000970FM-12+0140DGKA V0202301N000510036019N0250001N1+02251+02151101401ADDAA199000091GA1071+003609059GF107991071051004501999999KA1120N+02181MD1999999-0121REMSYN076AAXX  21064 65457 32475 72301 10225 20215 40140 875// 333 20218 59012 87612;EQDQ01  00002PRCP99
0174654570999992000072112004+05930-000970FM-12+0140DGKA V0201801N00101009001CN0250001N1+02641+02201101511ADDAA199000091GA1041+003909069GF107991071081004501999999MD1999999+0001REMSYN076AAXX  21124 65457 32475 71802 10264 20220 40151 878// 333 58000 84613 84815;EQDQ01  00002PRCP99
0252654570999992000072218004+05930-000970FM-12+0140DGKA V0202301N001510390019N0280001N1+02611+02211101291ADDAA112000791AY161061AY221061GA1031+004509089GA2011+009009099GA3031+039009039GF105991031091004501031021KA1120M+02861MD1999999+0051MW1011REMSYN106AAXX  22184 65457 11478 52303 10261 20221 40129 69902 70162 83932 333 10286 58005 83815 83363 81930 94583;
0174654570999992000072512004+05930-000970FM-12+0140DGKA V0202701N00101009001CN0300001N1+02721+02221101571ADDAA199000091GA1021+003909069GF106991061081004501001001MD1999999+0021REMSYN076AAXX  25124 65457 32480 62702 10272 20222 40157 86800 333 58002 82613 84816;EQDQ01  00002PRCP99
0215654570999992000072606004+05930-000970FM-12+0140DGKA V0209999C000010036019N0100001N1+02231+02131101521ADDAA199000091AY121061AY221061GA1071+003609059GF107991071051004501999999KA1120N+02051MD1999999-0031MW1101REMSYN082AAXX  26064 65457 31460 70000 10223 20213 40152 71022 875// 333 20205 59003 87612;EQDQ01  00002PRCP99
0193654570999992000072618004+05930-000970FM-12+0140DGKA V0209999C000012200019N0270001N1+02451+02251101401ADDAA199000091GA1021+004209069GF104991021051004501031021KA1120M+02801MD1999999+0061REMSYN082AAXX  26184 65457 32477 40000 10245 20225 40140 82532 333 10280 58006 82614 83363;EQDQ01  00002PRCP99
0174654570999992000072706004+05930-000970FM-12+0140DGKA V0209999C000010036019N0240001N1+02231+02171101431ADDAA124000791GA1071+003609059GF107991071051004501999999KA1120N+02061MD1999999-0091REMSYN082AAXX  27064 65457 12474 70000 10223 20217 40143 69904 875// 333 20206 59009 87612;
0187654570999992000072806004+05930-000970FM-12+0140DGKA V0209999C000010036019N0270001N1+02301+02181101381ADDAA199000091GA1071+003609059GF107991071051004501999999KA1120N+02241MD1999999-0031REMSYN076AAXX  28064 65457 32477 70000 10230 20218 40138 875// 333 20224 59003 87612;EQDQ01  00002PRCP99
0236654570999992000072818004+05930-000970FM-12+0140DGKA V0200901N001010039019N0240001N1+02601+02361101081ADDAA112023191AY191061AY261061GA1071+003909069GA2011+009009099GF107991071091004501999999KA1120M+03021MD1999999-0151MW1171REMSYN106AAXX  28184 65457 11474 70902 10260 20236 40108 60232 71796 879// 333 10302 59015 87613 81930 94613 95702;
0187654570999992000073006004+05930-000970FM-12+0140DGKA V0209999C000010036019N0220001N1+02241+02181101321ADDAA199000091GA1071+003609059GF107991071051004501999999KA1120N+02101MD1999999+0121REMSYN076AAXX  30064 65457 32472 70000 10224 20218 40132 875// 333 20210 58012 87612;EQDQ01  00002PRCP99
0202654570999992000073018004+05930-000970FM-12+0140DGKA V0202301N001010390019N0270001N1+02521+02231101351ADDAA112000791GA1021+003609069GA2031+039009039GF107991021051004501031061KA1120M+02921MD1999999+0011REMSYN094AAXX  30184 65457 12477 72302 10252 20223 40135 69902 82536 333 10292 58001 82612 83363 87276;
0202654570999992000073106004+05930-000970FM-12+0140DGKA V0209999C000010036019N0001001N1+02001+01921101491ADDAA124000791AY141061AY221061GA1071+003609059GF107991071051004501999999KA1120N+01901MD1999999+0111MW1461REMSYN088AAXX  31064 65457 11401 70000 10200 20192 40149 69904 74642 875// 333 20190 58011 87612;
0202654570999992000073112004+05930-000970FM-12+0140DGKA V0202501N001012200019N0250001N1+99999+99999101471ADDAA199000091AY141061AY221061GA1021+004809089GF104991021021004501031021MD1999999-0081MW1011REMSYN082AAXX  31124 65457 31475 42502 1085/ 20219 40147 70142 82232 333 59008 82816 85363;EQDQ01  00002PRCP99
0215654570999992000073118004+05930-000970FM-12+0140DGKA V0209999C000012200019N0260001N1+02851+02271101191ADDAA199000091GA1021+003609069GA2011+007509099GF103991021091004501001021KA1120M+03001MD1999999-0131REMSYN088AAXX  31184 65457 32476 30000 10285 20227 40119 82902 333 10300 59013 82612 81925 94582;EQDQ01  00002PRCP99
0202654570999992000080106004+05930-000970FM-12+0140DGKA V0200501N003110036019N0240001N1+02161+02041101491ADDAA124000591AY181061AY211061GA1071+003609059GF107991071051004501999999KA1120N+02141MD1999999+0001MW1601REMSYN088AAXX  01064 65457 11474 70506 10216 20204 40149 69954 76081 875// 333 20214 58000 87612;
0189654570999992000080112004+05930-000970FM-12+0140DGKA V0201401N00101045001CN0250001N1+02851+02181101301ADDAA106002091AY161061AY221061GA1031+004809089GF107991031021004501031999MD1999999-0161MW1011REMSYN088AAXX  01124 65457 11475 71402 10285 20218 40130 60021 70162 8323/ 333 59016 83816 87362;
0180654570999992000080118004+05930-000970FM-12+0140DGKA V0203201N00051045001CN0260001N1+02071+99999101161ADDAA112002091GA1021+004209069GF107991021051004501071081KA1120M+02871MD1999999-0051REMSYN088AAXX  01184 65457 12476 73201 10207 20223 40116 60022 82578 333 10287 59005 82614 87462;
0187654570999992000080206004+05930-000970FM-12+0140DGKA V0209999C000010039019N0250001N1+02211+02131101341ADDAA199000091GA1071+003909059GF107991071051004501999999KA1120N+02201MD1999999-0131REMSYN076AAXX  02064 65457 32475 70000 10221 20213 40134 875// 333 20220 59013 87613;EQDQ01  00002PRCP99
0231654570999992000080306004+05930-000970FM-12+0140DGKA V0202301N000510036019N9999999N1+02261+02111101671ADDAA199000091AY141061AY221061GA1071+003609059GF107991071051004501999999KA1120N+02051MD1999999+0311MW1441REMSYN082AAXX  03064 65457 31465 72301 10226 20211 40167 74442 875// 333 20205 58031 87612;EQDQ01+150002VODIS Q02  00002PRCP99
0202654570999992000080312004+05930-000970FM-12+0140DGKA V0202701N00101045001CN0260001N1+02651+02131101721ADDAA199000091AY141061AY221061GA1041+004809089GF106991041021004501031001MD1999999+0241MW1011REMSYN082AAXX  03124 65457 31476 62702 10265 20213 40172 70142 84230 333 58024 84816 83362;EQDQ01  00002PRCP99
0168654570999992000080400004+05930-000970FM-12+0140DGKA V0209999C000010036019N0250001N1+02341+02251101711ADDAA199000091GA1071+003609059GF107991071051004501999999MD1999999+0251REMSYN070AAXX  04004 65457 32475 70000 10234 20225 40171 875// 333 58025 87612;EQDQ01  00002PRCP99
0208654570999992000080406004+05930-000970FM-12+0140DGKA V0209999C00001045001CN0240001N1+02241+02151101671ADDAA124000591AY161061AY221061GA1021+003609069GF107991021051004501071999KA1120N+02201MD1999999+0021MW1011REMSYN094AAXX  04064 65457 11474 70000 10224 20215 40167 69944 70162 8257/ 333 20220 58002 82612 87461;
0174654570999992000080412004+05930-000970FM-12+0140DGKA V0202301N00101009001CN0260001N1+02481+02211101751ADDAA199000091GA1041+004209069GF107991071081004501999999MD1999999+0021REMSYN076AAXX  04124 65457 32476 72302 10248 20221 40175 878// 333 58002 84614 85816;EQDQ01  00002PRCP99
0208654570999992000080418004+05930-000970FM-12+0140DGKA V0209999C00001045001CN0100001N1+02381+02261101581ADDAA112001091AY161061AY221061GA1011+003909069GF107991011051004501071999KA1120M+02521MD1999999-0021MW1211REMSYN094AAXX  04184 65457 11460 70000 10238 20226 40158 69992 72162 8157/ 333 10252 59002 81613 87461;
0174654570999992000080506004+05930-000970FM-12+0140DGKA V0209999C000010036019N0240001N1+02251+02191101561ADDAA124003091GA1071+003609059GF107991071051004501999999KA1120N+02201MD1999999-0111REMSYN082AAXX  05064 65457 12474 70000 10225 20219 40156 60034 875// 333 20220 59011 87612;
0189654570999992000080512004+05930-000970FM-12+0140DGKA V0203201N001510027019N0100001N1+02551+02331101641ADDAA106000791AY151061AY221061GA1051+002709079GF107991071051002501999999MD1999999-0111MW1501REMSYN088AAXX  05124 65457 11360 73203 10255 20233 40164 69901 75052 875// 333 59011 85709 87612;
0202654570999992000080606004+05930-000970FM-12+0140DGKA V0209999C000010036019N0270001N1+02301+02231101591ADDAA124000591AY161061AY221061GA1071+003609059GF107991071051004501999999KA1120N+02241MD1999999+0021MW1021REMSYN088AAXX  06064 65457 11477 70000 10230 20223 40159 69944 70262 875// 333 20224 58002 87612;
0174654570999992000080612004+05930-000970FM-12+0140DGKA V0201801N002110039019N0280001N1+02651+02291101611ADDAA199000091GA1051+003909069GF107991061081004501031999MD1999999-0031REMSYN076AAXX  06124 65457 32478 71804 10265 20229 40161 8683/ 333 59003 85613 87360;EQDQ01  00002PRCP99
0202654570999992000080618004+05930-000970FM-12+0140DGKA V0201401N001010036019N0280001N1+02451+02311101461ADDAA112000591AY161061AY251061GA1071+003609059GF107991071051004501999999KA1120M+02851MD1999999+0021MW1201REMSYN088AAXX  06184 65457 11478 71402 10245 20231 40146 69962 72065 875// 333 10285 58002 87612;
0180654570999992000081118004+05930-000970FM-12+0140DGKA V0201801N001012200019N0280001N1+02741+02321101381ADDAA112000791GA1011+004209089GF103991011021004501041021KA1120M+02941MD1999999-0231REMSYN088AAXX  11184 65457 12478 31802 10274 20232 40138 69902 81242 333 10294 59023 81814 83072;
0174654570999992000081212004+05930-000970FM-12+0140DGKA V0202301N00101009001CN0270001N1+02741+02321101071ADDAA199000091GA1021+003609069GF107991071081004501999999MD1999999-0141REMSYN076AAXX  12124 65457 32477 72302 10274 20232 40107 878// 333 59014 82612 85815;EQDQ01  00002PRCP99
0134654570999992000081318004+05930-000970FM-12+0140DGKA V0202301N001011050019N0260001N1+02791+02241101251ADDAA199000091GF106991021091004501031061REMSYN066AAXX  13184 65457 32476 62302 10279 20224 40125 82936 81614 94557;EQDQ01  00002PRCP99
0168654570999992000081400004+05930-000970FM-12+0140DGKA V0201201N000510036019N0250001N1+02371+02231101571ADDAA199000091GA1071+003609059GF107991071051004501999999MD1999999+0021REMSYN070AAXX  14004 65457 32475 71201 10237 20223 40157 875// 333 58002 87612;EQDQ01  00002PRCP99
0174654570999992000081412004+05930-000970FM-12+0140DGKA V0202301N002110024019N0200001N1+02651+02291101631ADDAA199000091GA1051+002409069GF107991051081004501031999MD1999999+0021REMSYN076AAXX  14124 65457 32470 72304 10265 20229 40163 8583/ 333 58002 85608 87460;EQDQ01  00002PRCP99
0202654570999992000081418004+05930-000970FM-12+0140DGKA V0201401N002112200019N0260001N1+02561+02401101391ADDAA112004191AY161061AY221061GA1021+003909059GF104991031081004501001021KA1120M+02971MD1999999+0051MW1011REMSYN088AAXX  14184 65457 11476 41404 10256 20240 40139 60042 70162 83802 333 10297 58005 82613;
0174654570999992000081506004+05930-000970FM-12+0140DGKA V0201401N001510036019N0280001N1+02301+02231101701ADDAA124004191GA1071+003609059GF107991071051004501999999KA1120N+02241MD1999999+0181REMSYN082AAXX  15064 65457 12478 71403 10230 20223 40170 60044 875// 333 20224 58018 87612;
0168654570999992000081512004+05930-000970FM-12+0140DGKA V0202301N002110051019N0260001N1+02901+02291101841ADDAA199000091GA1051+005109029GF105991051021004501001001MD1999999+0041REMSYN070AAXX  15124 65457 32476 52304 10290 20229 40184 85200 333 58004 85817;EQDQ01  00002PRCP99
0196654570999992000081712004+05930-000970FM-12+0140DGKA V0202301N001010045019N0260001N1+02351+02211101671ADDAA199000091GA1011+003909069GA2041+004509089GF107991051081008001031999MD1999999-0061REMSYN082AAXX  17124 65457 32576 72302 10235 20221 40167 8583/ 333 59006 81613 84815 87362;EQDQ01  00002PRCP99
0202654570999992000081806004+05930-000970FM-12+0140DGKA V0202301N001010036019N0200001N1+02251+02181101621ADDAA124005191AY161061AY221061GA1071+003609059GF107991071051004501999999KA1120N+02201MD1999999+0081MW1021REMSYN088AAXX  18064 65457 11470 72302 10225 20218 40162 60054 70262 875// 333 20220 58008 87612;
0196654570999992000081812004+05930-000970FM-12+0140DGKA V0201401N001510048019N0240001N1+02601+02231101681ADDAA199000091GA1011+003909069GA2041+004809089GF107991051081004501031999MD1999999-0011REMSYN082AAXX  18124 65457 32474 71403 10260 20223 40168 8583/ 333 59001 81613 84816 87362;EQDQ01  00002PRCP99
0184654570999992000081900004+05930-000970FM-12+0140DGKA V0201801N001010036019N0260001N1+02251+02151101511ADDAA199000091GA1051+003609059GF105991999051004501999999MD1999999+0041REMSYN070AAXX  19004 65457 32476 51802 10225 20215 40151 875// 333 58004 85612;EQDQ01+000072SCOTLCQ02  00002PRCP99
0174654570999992000081906004+05930-000970FM-12+0140DGKA V0201801N001010036019N0250001N1+02201+02111101741ADDAA124001091GA1071+003609059GF107991071051004501999999KA1120N+02151MD1999999+0081REMSYN082AAXX  19064 65457 12475 71802 10220 20211 40174 60014 875// 333 20215 58008 87612;
0202654570999992000082406004+05930-000970FM-12+0140DGKA V0209999C000010036019N0006001N1+02391+02221101671ADDAA124014091AY121061AY221061GA1071+003609059GF107991071051004501999999KA1120N+02261MD1999999+0091MW1031REMSYN088AAXX  24064 65457 11406 70000 10239 20222 40167 60144 70322 875// 333 20226 58009 87612;
0187654570999992000082506004+05930-000970FM-12+0140DGKA V0209999C00001004201CN0260001N1+02301+02231101581ADDAA199000091GA1031+003609059GF107991071051004501999999KA1120N+02251MD1999999-0111REMSYN076AAXX  25064 65457 32476 70000 10230 20223 40158 875// 333 20225 59011 83612;EQDQ01  00002PRCP99
0189654570999992000082512004+05930-000970FM-12+0140DGKA V0202301N00211009001CN0180001N1+02691+02451101591ADDAA106000791AY151061AY221061GA1031+003909069GF107991071081004501999999MD1999999-0191MW1021REMSYN088AAXX  25124 65457 11468 72304 10269 20245 40159 69901 70252 878// 333 59019 83613 85616;
0196654570999992000082612004+05930-000970FM-12+0140DGKA V0202301N002110048019N0270001N1+02651+02361101491ADDAA199000091GA1031+004209069GA2031+004809089GF107991061081004501071999MD1999999-0101REMSYN082AAXX  26124 65457 32477 72304 10265 20236 40149 8687/ 333 59010 83614 83816 87462;EQDQ01  00002PRCP99
0154654570999992000082712004+05930-000970FM-12+0140DGKA V0202301N002610039019N0200001N1+02661+02221101381ADDAA199000091GA1051+003909069GF107991071081004501999999REMSYN070AAXX  27124 65457 32470 72305 10266 20222 40138 878// 333 85613 84362;EQDQ01  00002PRCP99
0227654570999992000082718004+05930-000970FM-12+0140DGKA V0202301N002610039019N0160001N1+02601+02451101251ADDAA112000791AY151061AY221061GA1061+003909069GF107991041081004501031999KA1120M+99999MD1999999-0031MW1031REMSYN094AAXX  27184 65457 11466 72305 10260 20245 40125 69902 70352 8483/ 333 10252 59003 86613 87362;EQDQ01 +02522ATMX  
0187654570999992000082806004+05930-000970FM-12+0140DGKA V0209999C000010039019N0240001N1+02341+02221101321ADDAA199000091GA1071+003909059GF107991071051004501999999KA1120N+02261MD1999999-0041REMSYN076AAXX  28064 65457 32474 70000 10234 20222 40132 875// 333 20226 59004 87613;EQDQ01  00002PRCP99
0196654570999992000082812004+05930-000970FM-12+0140DGKA V0202701N001510051019N0260001N1+02751+02521101441ADDAA199000091AY151061AY221061GA1061+005109029GF106991061021004501001001MD1999999+0031MW1011REMSYN076AAXX  28124 65457 31476 62703 10275 20252 40144 70152 86200 333 58003 86817;EQDQ01  00002PRCP99
0183654570999992000082900004+05930-000970FM-12+0140DGKA V0201801N001010039019N0250001N1+02381+02261101391ADDAA106000591AY161061AY221061GA1071+003909059GF107991071051004501999999MD1999999-0071MW1031REMSYN082AAXX  29004 65457 11475 71802 10238 20226 40139 69961 70362 875// 333 59007 87613;
0202654570999992000082906004+05930-000970FM-12+0140DGKA V0209999C000010036019N0200001N1+02351+02281101241ADDAA124002091AY161061AY221061GA1051+003609059GF105991051051004501001001KA1120N+02271MD1999999+0041MW1601REMSYN088AAXX  29064 65457 11470 50000 10235 20228 40124 60024 76062 85500 333 20227 58004 85612;
0189654570999992000082912004+05930-000970FM-12+0140DGKA V0202301N00101009001CN0270001N1+02681+02421101451ADDAA106003091AY161061AY221061GA1021+003909069GF107991071081004501999999MD1999999+0111MW1211REMSYN088AAXX  29124 65457 11477 72302 10268 20242 40145 60031 72162 878// 333 58011 82613 85815;
0208654570999992000082918004+05930-000970FM-12+0140DGKA V0202301N001012200019N0200001N1+02751+02361101201ADDAA112003091AY161061AY221061GA1011+004809089GF104991011021004501031001KA1120M+03001MD1999999+0111MW1011REMSYN094AAXX  29184 65457 11470 42302 10275 20236 40120 60032 70162 81230 333 10300 58011 81816 83362;
0277654570999992000083106004+05930-000970FM-12+0140DGKA V0209999C00001009001CN0250001N1+02321+02211101331ADDAA124008991AY191061AY291061GA1041+003609069GA2011+009009099GA3071+066009029GF107991051999004501091061KA1120N+02261MD1999999-0041MW1171REMSYN112AAXX  31064 65457 11475 70000 10232 20221 40133 60094 71799 85096 333 20226 59004 84612 87272 81930 94635 95704;EQDQ01+000002SCOLCG
0202654570999992000083112004+05930-000970FM-12+0140DGKA V0202201N000510039019N0280001N1+02771+02381101631ADDAA199000091AY191061AY221061GA1051+003909069GF107991051081004501031999MD1999999+0141MW1011REMSYN082AAXX  31124 65457 31478 72201 10277 20238 40163 70192 8583/ 333 58014 85613 87362;EQDQ01  00002PRCP99
0252654570999992000083118004+05930-000970FM-12+0140DGKA V0201401N00211009001CN0280001N1+02561+02331101951ADDAA112000791AY161061AY221061GA1031+003909069GA2021+009009099GA3071+066009029GF107991031091004501031061KA1120M+03151MD1999999+0041MW1011REMSYN106AAXX  31184 65457 31478 71404 10256 20233 40195 69902 70162 83936 333 10315 58004 83613 87272 82930 94699;
0155654570999992000090100004+05930-000970FM-12+0140DGKA V0202301N001010036019N0280001N1+02401+02281101311ADDAA106000791GA1071+003609059GF107991071051004501999999MD1999999-0021REMSYN076AAXX  01004 65457 12478 72302 10240 20228 40131 69901 875// 333 59002 87612;
0180654570999992000090106004+05930-000970FM-12+0140DGKA V0209999C00001045001CN0180001N1+02351+02261101381ADDAA124000791GA1031+003609069GF107991031051004501031999KA1120N+02251MD1999999+0001REMSYN088AAXX  01064 65457 12468 70000 10235 20226 40138 69904 8353/ 333 20225 58000 83612 87361;
0174654570999992000090112004+05930-000970FM-12+0140DGKA V0202301N001010054019N0200001N1+02801+02471101121ADDAA199000091GA1061+005409089GF107991061021004501031999MD1999999-0011REMSYN076AAXX  01124 65457 32470 72302 10280 20247 40112 8623/ 333 59001 86818 87361;EQDQ01  00002PRCP99
0193654570999992000090118004+05930-000970FM-12+0140DGKA V0202701N00051045001CN0280001N1+02951+02371101191ADDAA199000091GA1021+003909069GF106991031021004501031021KA1120M+03101MD1999999+0091REMSYN082AAXX  01184 65457 32478 62701 10295 20237 40119 83232 333 10310 58009 82613 83362;EQDQ01  00002PRCP99
0183654570999992000090300004+05930-000970FM-12+0140DGKA V0201801N001510036019N0260001N1+02461+02381101391ADDAA106000391AY161061AY221061GA1071+003609059GF107991071051004501999999MD1999999-0051MW1031REMSYN082AAXX  03004 65457 11476 71803 10246 20238 40139 69931 70362 875// 333 59005 87612;
0189654570999992000090312004+05930-000970FM-12+0140DGKA V0202301N00101009001CN0220001N1+02611+02311101421ADDAA106000791AY151061AY221061GA1031+003909069GF107991071081004501999999MD1999999-0071MW1601REMSYN088AAXX  03124 65457 11472 72302 10261 20231 40142 69901 76052 878// 333 59007 83613 86816;
0174654570999992000090412004+05930-000970FM-12+0140DGKA V0202701N00151009001CN0280001N1+02901+02411101291ADDAA199000091GA1011+004209069GF106991061081004501001001MD1999999-0021REMSYN076AAXX  04124 65457 32478 62703 10290 20241 40129 86800 333 59002 81614 85816;EQDQ01  00002PRCP99
0193654570999992000090418004+05930-000970FM-12+0140DGKA V0201401N00051105001CN0260001N1+02751+02351101111ADDAA199000091GA1031+004209069GF106991041081004501001021KA1120M+03201MD1999999-0021REMSYN082AAXX  04184 65457 32476 61401 10275 20235 40111 84802 333 10320 59002 83614 84075;EQDQ01  00002PRCP99
0187654570999992000090506004+05930-000970FM-12+0140DGKA V0201401N000510036019N0270001N1+02401+02251101421ADDAA199000091GA1071+003609059GF107991071051004501999999KA1120N+02361MD1999999+0081REMSYN076AAXX  05064 65457 32477 71401 10240 20225 40142 875// 333 20236 58008 87612;EQDQ01  00002PRCP99
0196654570999992000090512004+05930-000970FM-12+0140DGKA V0203201N000510048019N0280001N1+02851+02411101401ADDAA199000091GA1031+004509069GA2031+004809089GF107991051081004501031999MD1999999+0101REMSYN082AAXX  05124 65457 32478 73201 10285 20241 40140 8583/ 333 58010 83615 83816 87362;EQDQ01  00002PRCP99
0168654570999992000090600004+05930-000970FM-12+0140DGKA V0202301N001010036019N0240001N1+02441+02231101421ADDAA199000091GA1071+003609059GF107991071051004501999999MD1999999+0011REMSYN070AAXX  06004 65457 32474 72302 10244 20223 40142 875// 333 58001 87612;EQDQ01  00002PRCP99
0187654570999992000090606004+05930-000970FM-12+0140DGKA V0202301N001010036019N0270001N1+02361+02241101381ADDAA199000091GA1071+003609059GF107991071051004501999999KA1120N+02301MD1999999-0041REMSYN076AAXX  06064 65457 32477 72302 10236 20224 40138 875// 333 20230 59004 87612;EQDQ01  00002PRCP99
0174654570999992000090706004+05930-000970FM-12+0140DGKA V0209999C000010036019N0280001N1+02321+02211101351ADDAA124007991GA1071+003609059GF107991071051004501999999KA1120N+02251MD1999999-0021REMSYN082AAXX  07064 65457 12478 70000 10232 20221 40135 60084 875// 333 20225 59002 87612;
0180654570999992000090718004+05930-000970FM-12+0140DGKA V0203201N00051009001CN0280001N1+02751+02391101141ADDAA112000791GA1041+004209069GF107991051081004501031999KA1120M+02951MD1999999-0061REMSYN088AAXX  07184 65457 12478 73201 10275 20239 40114 69902 8583/ 333 10295 59006 84614 87362;
0168654570999992000090800004+05930-000970FM-12+0140DGKA V0209999C000010036019N0240001N1+02551+02271101281ADDAA199000091GA1071+003609059GF107991051051004501031999MD1999999-0031REMSYN070AAXX  08004 65457 32474 70000 10255 20227 40128 8553/ 333 59003 87612;EQDQ01  00002PRCP99
0187654570999992000090806004+05930-000970FM-12+0140DGKA V0209999C000010036019N0240001N1+02201+02181101181ADDAA199000091GA1071+003609059GF107991071051004501999999KA1120N+02241MD1999999-0041REMSYN076AAXX  08064 65457 32474 70000 10220 20218 40118 875// 333 20224 59004 87612;EQDQ01  00002PRCP99
0193654570999992000090818004+05930-000970FM-12+0140DGKA V0209999C00001105001CN0220001N1+02901+02321100931ADDAA199000091GA1011+005109089GF106991011021004501031061KA1120M+03051MD1999999-0161REMSYN082AAXX  08184 65457 32472 60000 10290 20232 40093 81236 333 10305 59016 81817 86274;EQDQ01  00002PRCP99
0174654570999992000090912004+05930-000970FM-12+0140DGKA V0202701N00211009001CN0280001N1+03101+02291101291ADDAA199000091GA1011+003909069GF106991061081004501001001MD1999999+0141REMSYN076AAXX  09124 65457 32478 62704 10310 20229 40129 86800 333 58014 81613 86816;EQDQ01  00002PRCP99
0193654570999992000090918004+05930-000970FM-12+0140DGKA V0209999C00001105001CN0280001N1+02951+02301101091ADDAA199000091GA1031+004509089GF105991041081004501001021KA1120M+03151MD1999999+0181REMSYN082AAXX  09184 65457 32478 50000 10295 20230 40109 84802 333 10315 58018 83815 83074;EQDQ01  00002PRCP99
0189654570999992000091012004+05930-000970FM-12+0140DGKA V0201401N000510030019N0180001N1+02151+99999101641ADDAA106020191AY161061AY221061GA1051+003009069GF108991051051004501071999MD1999999+0201MW1611REMSYN088AAXX  10124 65457 11468 81401 10215 20299 40164 60201 76162 8557/ 333 58020 85610 87461;
0180654570999992000091106004+05930-000970FM-12+0140DGKA V0209999C00001045001CN0240001N1+02151+02091101191ADDAA124023191GA1041+003609069GF107991041051004501071999KA1120N+02021MD1999999-0101REMSYN088AAXX  11064 65457 12474 70000 10215 20209 40119 60234 8457/ 333 20202 59010 84612 87461;
0168654570999992000091112004+05930-000970FM-12+0140DGKA V0209999C000010036019N0200001N1+02571+02221101221ADDAA199000091GA1071+003609059GF107991071051004501999999MD1999999-0291REMSYN070AAXX  11124 65457 32470 70000 10257 20222 40122 875// 333 59029 87612;EQDQ01  00002PRCP99
0174654570999992000091206004+05930-000970FM-12+0140DGKA V0202301N000510039019N0250001N1+02301+02211101221ADDAA124000891GA1071+003909059GF107991071051004501999999KA1120N+02251MD1999999+0061REMSYN082AAXX  12064 65457 12475 72301 10230 20221 40122 69984 875// 333 20225 58006 87613;
0202654570999992000091306004+05930-000970FM-12+0140DGKA V0209999C000010036019N0001001N1+02101+02051101451ADDAA124007991AY141061AY221061GA1071+003609059GF107991071051004501999999KA1120N+02051MD1999999+0151MW1461REMSYN088AAXX  13064 65457 11401 70000 10210 20205 40145 60084 74642 875// 333 20205 58015 87612;
0168654570999992000091412004+05930-000970FM-12+0140DGKA V0202301N002610048019N0270001N1+02851+02311101551ADDAA199000091GA1061+004809029GF106991061021004501001001MD1999999+0041REMSYN070AAXX  14124 65457 32477 62305 10285 20231 40155 86200 333 58004 86816;EQDQ01  00002PRCP99
0186654570999992000091706004+05930-000970FM-12+0140DGKA V0209999C000010042019N0250001N1+02331+02211101511ADDAA124000191AY161061AY221061GF107991071051004501999999KA1120N+02301MD1999999-0091MW1021REMSYN088AAXX  17064 65457 11475 70000 10233 20221 40151 69914 70262 875// 333 20230 59009 97612;
0168654570999992000092212004+05930-000970FM-12+0140DGKA V0202301N00051009001CN0270001N1+02601+02451101461ADDAA199000091GA1011+003909059GF106991061081004501001001MD1999999+0001REMSYN070AAXX  22124 65457 32477 62301 10260 20245 40146 86800 333 58000 81613;EQDQ01  00002PRCP99
0151654570999992000092306004+05930-000970FM-12+0140DGKA V0209999C000010042019N0200001N1+02351+02281101341ADDAA124021191GF107991071051004501999999KA1999N+02261MD1999999-0021REMSYN075AAXX  23064 65457 12470 70000 10235 20228 40134 60214 875//333 20226 59002;
0168654570999992000093012004+05930-000970FM-12+0140DGKA V0201801N000510048019N0260001N1+02891+02311101481ADDAA199000091GA1071+004809029GF107991071021004501999999MD1999999+0021REMSYN070AAXX  30124 65457 32476 71801 10289 20231 40148 872// 333 58002 87816;EQDQ01  00002PRCP99
0208654570999992000100506004+05930-000970FM-12+0140DGKA V0209999C00001045001CN0270001N1+02321+02211101351ADDAA124005191AY161061AY221061GA1041+003909069GF107991041051004501031999KA1120N+02231MD1999999+0041MW1011REMSYN094AAXX  05064 65457 11477 70000 10232 20221 40135 60054 70162 8453/ 333 20223 58004 84613 87363;
0193654570999992000100518004+05930-000970FM-12+0140DGKA V0209999C000010042019N0260001N1+03001+02421101051ADDAA199000091GA1051+004209069GF107991061081004501031001KA1120M+03241MD1999999+0121REMSYN082AAXX  05184 65457 32476 70000 10300 20242 40105 86830 333 10324 58012 85614 83362;EQDQ01  00002PRCP99
0168654570999992000101312004+05930-000970FM-12+0140DGKA V0202301N001010051019N0280001N1+03031+02331101551ADDAA199000091GA1051+005109029GF106991051021004501001021MD1999999-0041REMSYN070AAXX  13124 65457 32478 62302 10303 20233 40155 85202 333 59004 85817;EQDQ01  00002PRCP99
0202654570999992000102606004+05930-000970FM-12+0140DGKA V0209999C000010036019N0002001N1+02261+02231101291ADDAA124000891AY141061AY211061GA1071+003609059GF107991071051004501999999KA1120N+02141MD1999999+0041MW1441REMSYN088AAXX  26064 65457 11402 70000 10226 20223 40129 69974 74441 875// 333 20214 58004 87612;
0212654570999992000102612004+05930-000970FM-12+0140DGKA V0202301N000512200019N0260001N1+03041+02431101231ADDAA199000091AY141061AY221061GA1041+005109029GF104991999021004501001001MD1999999-0071MW1011REMSYN076AAXX  26124 65457 31476 42301 10304 20243 40123 70142 85200 333 59007 84817;EQDQ01+000052SCOTLCQ02  00002PRCP99
0187654570999992000102706004+05930-000970FM-12+0140DGKA V0209999C000010036019N0250001N1+02451+02351101291ADDAA199000091GA1071+003609059GF107991071051004501999999KA1120N+02401MD1999999+0001REMSYN076AAXX  27064 65457 32475 70000 10245 20235 40129 875// 333 20240 58000 87612;EQDQ01  00002PRCP99
0183654570999992000102800004+05930-000970FM-12+0140DGKA V0209999C000010036019N0240001N1+02451+02361101461ADDAA106000791AY191061AY261061GA1071+003609059GF107991071051004501999999MD1999999+0101MW1021REMSYN082AAXX  28004 65457 11474 70000 10245 20236 40146 69901 70296 875// 333 58010 87612;
0174654570999992000102806004+05930-000970FM-12+0140DGKA V0209999C000010036019N0250001N1+02431+02371101251ADDAA124010991GA1071+003609059GF107991071051004501999999KA1120N+02351MD1999999+0051REMSYN082AAXX  28064 65457 12475 70000 10243 20237 40125 60114 875// 333 20235 58005 87612;
0193654570999992000102818004+05930-000970FM-12+0140DGKA V0202301N00101045001CN0200001N1+02761+02431101261ADDAA199000091GA1031+003909069GF107991041081004501031061KA1120M+03061MD1999999-0021REMSYN082AAXX  28184 65457 32470 72302 10276 20243 40126 84836 333 10306 59002 83613 87272;EQDQ01  00002PRCP99
0157654570999992000110406004+05930-000970FM-12+0140DGKA V0209999C000010036019N0270001N1+02291+02211101191ADDGA1071+003609059GF107991071051004501999999KA1120N+02141MD1999999-0011REMSYN076AAXX  04064 65457 12477 70000 10229 20221 40119 875// 333 20214 59001 87612;
0258654570999992000110418004+05930-000970FM-12+0140DGKA V0202301N00101009001CN0220001N1+02401+02251101141ADDAA112021191AY191061AY261061GA1031+003609069GA2021+009009099GA3071+033009049GF107991041091004501071999KA1120M+03351MD1999999+0161MW1171REMSYN112AAXX  04184 65457 11472 72302 10240 20225 40114 60212 71796 8497/ 333 10335 58016 83612 87461 82930 94699 95709;
0202654570999992000110506004+05930-000970FM-12+0140DGKA V0209999C000010036019N0001001N1+02371+02221101191ADDAA124021191AY141061AY221061GA1071+003609059GF107991071051004501999999KA1120N+02181MD1999999+0081MW1461REMSYN088AAXX  05064 65457 11401 70000 10237 20222 40119 60214 74642 875// 333 20218 58008 87612;
0196654570999992000110512004+05930-000970FM-12+0140DGKA V0200501N000510051019N0270001N1+03001+02431101281ADDAA199000091AY141061AY221061GA1051+005109029GF106991051021004501031021MD1999999+0091MW1011REMSYN076AAXX  05124 65457 31477 60501 10300 20243 40128 70142 85232 333 58009 85817;EQDQ01  00002PRCP99
0221654570999992000110806004+05930-000970FM-12+0140DGKA V0209999C000010036019N9999999N1+02351+02271100891ADDAA124005191AY141061AY221061GA1071+003609019GF107991071051004501999999KA1120N+02251MD1999999-0181MW1461REMSYN088AAXX  08064 65457 11472 70000 10235 20227 40089 60054 74642 875// 333 20225 59018 87012;EQDQ01+220002VODIS 
0196654570999992000110812004+05930-000970FM-12+0140DGKA V0201501N001010051019N0260001N1+03041+02461100761ADDAA199000091AY141061AY221061GA1051+005109029GF105991051001004501001021MD1999999-0161MW1011REMSYN076AAXX  08124 65457 31476 51502 10304 20246 40076 70142 85002 333 59016 85817;EQDQ01  00002PRCP99
0202654570999992000110906004+05930-000970FM-12+0140DGKA V0209999C000010036019N0003001N1+02261+02201100971ADDAA124000791AY141061AY221061GA1071+003609059GF107991071051004501999999KA1120N+02201MD1999999+0121MW1461REMSYN088AAXX  09064 65457 11403 70000 10226 20220 40097 69904 74642 875// 333 20220 58012 87612;
0180654570999992000111006004+05930-000970FM-12+0140DGKA V0200501N000510036019N0200001N1+02211+02131101011ADDAA124007191GA1051+003609069GF107991051051004501001061KA1120N+02151MD1999999+0041REMSYN088AAXX  10064 65457 12470 70501 10221 20213 40101 60074 85506 333 20215 58004 85612 87274;
0187654570999992000111106004+05930-000970FM-12+0140DGKA V0202301N002612200019N0240001N1+02801+02591100921ADDAA199000091GA1031+003909059GF104991031051004501031001KA1120N+02741MD1999999+0111REMSYN076AAXX  11064 65457 32474 42305 10280 20259 40092 83530 333 20274 58011 83613;EQDQ01  00002PRCP99
0271654570999992000111118004+05930-000970FM-12+0140DGKA V0201401N001010660019N0260001N1+02681+02421101021ADDAA199000091AY191061AY211061GA1021+003909069GA2021+009009099GA3071+066009029GF107991031091004501031061KA1120M+03341MD1999999+0111MW1171REMSYN106AAXX  11184 65457 31476 71402 10268 20242 40102 71791 83936 333 10334 58011 82613 87272 82930 94699 95704;EQDQ01  00002PRCP99
0196654570999992000111212004+05930-000970FM-12+0140DGKA V0202301N000510051019N0200001N1+03021+02391101031ADDAA199000091AY141061AY221061GA1051+005109029GF105991051021004501001001MD1999999-0011MW1011REMSYN076AAXX  12124 65457 31470 52301 10302 20239 40103 70142 85200 333 59001 85817;EQDQ01  00002PRCP99
0271654570999992000111218004+05930-000970FM-12+0140DGKA V0201601N004610036019N0280001N1+02971+02451100851ADDAA199000091AY191061AY211061GA1051+003609069GA2011+009009099GA3041+075009009GF106991051091004501001021KA1120M+03601MD1999999-0991MW1171REMSYN106AAXX  12184 65457 31478 61609 10297 20245 40085 71791 85902 333 10360 59099 85612 84075 81930 94662 95709;EQDQ01  00002PRCP99
0202654570999992000111306004+05930-000970FM-12+0140DGKA V0209999C000010036019N0002001N1+02271+02231101081ADDAA124025991AY141061AY221061GA1071+003609059GF107991071051004501999999KA1120N+02291MD1999999-0051MW1461REMSYN088AAXX  13064 65457 11402 70000 10227 20223 40108 60264 74642 875// 333 20229 59005 87612;
0187654570999992000111406004+05930-000970FM-12+0140DGKA V0209999C000010036019N0270001N1+02421+02381101011ADDAA199000091GA1071+003609059GF107991071051004501999999KA1120N+02361MD1999999+0041REMSYN076AAXX  14064 65457 32477 70000 10242 20238 40101 875// 333 20236 58004 87612;EQDQ01  00002PRCP99
0215654570999992000111418004+05930-000970FM-12+0140DGKA V0201401N000512200019N0260001N1+02901+02471100961ADDAA199000091GA1031+004809069GA2011+008409099GF103991031091004501001021KA1120M+03401MD1999999+0171REMSYN088AAXX  14184 65457 32476 31401 10290 20247 40096 83902 333 10340 58017 83616 81928 94582;EQDQ01  00002PRCP99
0193654570999992000111506004+05930-000970FM-12+0140DGKA V0201401N000510036019N0200001N1+02391+02251101261ADDAA199000091GA1051+003609059GF107991051051004501001061KA1120N+02341MD1999999+0161REMSYN082AAXX  15064 65457 32470 71401 10239 20225 40126 85506 333 20234 58016 85512 87272;EQDQ01  00002PRCP99
0215654570999992000111706004+05930-000970FM-12+0140DGKA V0209999C000010033019N0006001N1+02421+02351101231ADDAA199000091AY141061AY211061GA1071+003309059GF107991071051004501999999KA1120N+02371MD1999999-0021MW1461REMSYN082AAXX  17064 65457 31406 70000 10242 20235 40123 74641 875// 333 20237 59002 87611;EQDQ01  00002PRCP99
0196654570999992000111712004+05930-000970FM-12+0140DGKA V0202301N001510054019N0260001N1+03121+02381101211ADDAA199000091AY141061AY221061GA1061+005409029GF106991061021004501001001MD1999999+0061MW1031REMSYN076AAXX  17124 65457 31476 62303 10312 20238 40121 70342 86200 333 58006 86818;EQDQ01  00002PRCP99
0187654570999992000111806004+05930-000970FM-12+0140DGKA V0209999C000010036019N0270001N1+02281+02191101241ADDAA199000091GA1071+003609059GF107991071051004501999999KA1120N+02241MD1999999+0011REMSYN076AAXX  18064 65457 32477 70000 10228 20219 40124 875// 333 20224 58001 87612;EQDQ01  00002PRCP99
0168654570999992000111812004+05930-000970FM-12+0140DGKA V0202301N001512200019N0270001N1+03101+02471101171ADDAA199000091GA1041+005409029GF104991041021004501001001MD1999999-0041REMSYN070AAXX  18124 65457 32477 42303 10310 20247 40117 84200 333 59004 84818;EQDQ01  00002PRCP99
0208654570999992000111906004+05930-000970FM-12+0140DGKA V0203601N00051045001CN0100001N1+02251+02171101211ADDAA124000591AY121061AY221061GA1011+003609069GF106991011051004501031001KA1120N+02201MD1999999-0031MW1101REMSYN094AAXX  19064 65457 11460 63601 10225 20217 40121 69944 71022 81530 333 20220 59003 81612 83361;
0193654570999992000112006004+05930-000970FM-12+0140DGKA V0209999C00001045001CN0270001N1+02231+02141101361ADDAA199000091GA1011+003909069GF107991011051004501031999KA1120N+02181MD1999999+0131REMSYN082AAXX  20064 65457 32477 70000 10223 20214 40136 8153/ 333 20218 58013 81613 87363;EQDQ01  00002PRCP99
0196654570999992000112012004+05930-000970FM-12+0140DGKA V0203201N00101045001CN0270001N1+02981+02441101211ADDAA199000091GA1011+004209069GA2021+004809089GF107991041081004501031999MD1999999+0161REMSYN082AAXX  20124 65457 32477 73202 10298 20244 40121 8483/ 333 58016 81614 82816 87363;EQDQ01  00002PRCP99
0144654570999992000112109004+05930-000970FM-12+0140DGKA V0203201N00101009001CN0240001N1+02701+02461101541ADDGA1011+003609069GF105991051081004501001001MD1999999+0001REMSYN076AAXX  21094 65457 42474 53202 10270 20246 40154 85800 333 58000 81612 84816;
0200654570999992000112115004+05930-000970FM-12+0140DGKA V0203201N001510054019N0280001N1+03151+02501101061ADDAY121031AY221031GA1051+005409089GA2011+009009099GF106991051091004501001021MD1999999+0001MW1171REMSYN094AAXX  21154 65457 41478 63203 10315 20250 40106 71722 85902 333 58000 85818 81930 96424 95703;
0202654570999992000112206004+05930-000970FM-12+0140DGKA V0209999C000010036019N0004001N1+02301+02241101231ADDAA124004191AY141061AY211061GA1071+003609059GF107991071051004501999999KA1120N+02181MD1999999-0021MW1141REMSYN088AAXX  22064 65457 11404 70000 10230 20224 40123 60044 71441 875// 333 20218 59002 87612;
0196654570999992000112212004+05930-000970FM-12+0140DGKA V0202301N002110051019N0260001N1+03051+02321101371ADDAA199000091AY151061AY221061GA1061+005109059GF106991061021004501001001MD1999999+0071MW1011REMSYN076AAXX  22124 65457 31476 62304 10305 20232 40137 70152 86200 333 58007 86617;EQDQ01  00002PRCP99
0168654570999992000112400004+05930-000970FM-12+0140DGKA V0201401N000510036019N0200001N1+02551+02431101461ADDAA199000091GA1071+003609059GF107991071051004501999999MD1999999+0021REMSYN070AAXX  24004 65457 32470 71401 10255 20243 40146 875// 333 58002 87612;EQDQ01  00002PRCP99
0221654570999992000112506004+05930-000970FM-12+0140DGKA V0209999C000010036019N0001001N1+02161+02101101321ADDAA124005191AY141061AY221061GA1071+003609059GF107991071051004501999999KA1120N+99999MD1999999-0061MW1461REMSYN088AAXX  25064 65457 11401 70000 10216 20210 40132 60054 74642 875// 333 20242 59006 87612;EQDQ01 +02422ATMN  
0212654570999992000112512004+05930-000970FM-12+0140DGKA V0202701N001010054019N0270001N1+03101+02471101331ADDAA199000091AY141061AY221061GA1061+005409029GF106991061081004501001001MD1999999+0081MW1421REMSYN076AAXX  25124 65457 31477 62702 10310 20247 40133 74342 86800 333 58008 86818;EQDQ01+000432PRSWM1Q02  00002PRCP99
0271654570999992000112918004+05930-000970FM-12+0140DGKA V0200901N00261009001CN0270001N1+02551+01671101251ADDAA199000091AY191061AY211061GA1041+003909069GA2011+009009099GA3071+066009029GF107991051091004501001061KA1120M+03251MD1999999-0041MW1171REMSYN106AAXX  29184 65457 31477 70905 10255 20167 40125 71791 85906 333 10325 59004 84613 87272 81930 94682 95701;EQDQ01  00002PRCP99
0212654570999992000120412004+05930-000970FM-12+0140DGKA V0200301N026710048019N0270001N1+02551+02331101221ADDAA199000091AY141061AY251061GA1051+004809029GF107991999021004501001001MD1999999-0091MW1051REMSYN076AAXX  04124 65457 31477 70352 10255 20233 40122 70545 85200 333 59009 85816;EQDQ01+000052SCOTLCQ02  00002PRCP99
0215654570999992000120506004+05930-000970FM-12+0140DGKA V0209999C000010036019N0001001N1+02381+02321101211ADDAA199000091AY141061AY211061GA1071+003609059GF107991071051999999999999KA1120N+02281MD1999999-0011MW1441REMSYN082AAXX  05064 65457 31901 70000 10238 20232 40121 74441 875// 333 20228 59001 87612;EQDQ01  00002PRCP99
0215654570999992000120706004+05930-000970FM-12+0140DGKA V0209999C000010036019N0006001N1+02251+02221101261ADDAA199000091AY141061AY251061GA1071+003609059GF107991071051004501999999KA1120N+02251MD1999999+0061MW1461REMSYN082AAXX  07064 65457 31406 70000 10225 20222 40126 74645 875// 333 20225 58006 87612;EQDQ01  00002PRCP99
0202654570999992000120712004+05930-000970FM-12+0140DGKA V0201401N00101105001CN0240001N1+02981+02271101321ADDAA199000091AY141061AY221061GA1021+005109089GF107991021011004501001061MD1999999+0051MW1011REMSYN082AAXX  07124 65457 31474 71402 10298 20227 40132 70142 82106 333 58005 82817 87275;EQDQ01  00002PRCP99
0187654570999992000120718004+05930-000970FM-12+0140DGKA V0203201N000510360019N0250001N1+02901+99999101171ADDAA199000091GA1071+036009079GF107991071001999999031999KA1120M+02981MD1999999+0021REMSYN076AAXX  07184 65457 32975 73201 10290 2//// 40117 8703/ 333 10298 58002 87362;EQDQ01  00002PRCP99
0215654570999992000120806004+05930-000970FM-12+0140DGKA V02099999999990039019N0004001N1+02351+02271101361ADDAA199000091AY141061AY221061GA1071+003909059GF107991071051004501999999KA1120N+02251MD1999999+0001MW1441REMSYN082AAXX  08064 65457 31404 7//// 10235 20227 40136 74442 875// 333 20225 58000 87613;EQDQ01  00002PRCP99
0202654570999992000120812004+05930-000970FM-12+0140DGKA V0203201N001010048019N0250001N1+02961+02451101281ADDAA199000091AY141061AY221061GA1051+004809089GF105991051021004501031001MD1999999-0041MW1011REMSYN082AAXX  08124 65457 31475 53202 10296 20245 40128 70142 85230 333 59004 85816 83363;EQDQ01  00002PRCP99
0228654570999992000120900004+05930-000970FM-12+0140DGKA V0201401N000512200019N0100001N1+02371+02271101411ADDAA199000091AY101061AY201061GA1061+072009089GF199999999001999999001021MD1999999-0041MW1101REMSYN076AAXX  09004 65457 31960 21401 10237 20227 40141 71000 80002 333 59004 86274;EQDQ01+000022SCOTCVQ02+000002SCOTLCQ03  00002PRCP99
0177654570999992000120918004+05930-000970FM-12+0140DGKA V0202301N003112200019N0220001N1+02871+02591999999ADDAA199000091GA1021+078009019GF102991001001999999001021MD1999999+0011ME1100309REMSYN070AAXX  09184 65457 32972 22306 10287 20259 4103/ 80002 333 58001 82076;EQDQ01  00002PRCP99
0215654570999992000121006004+05930-000970FM-12+0140DGKA V0209999C000010036019N0003001N1+02311+02231101281ADDAA199000091AY141061AY211061GA1071+003609059GF107991071051004501999999KA1120N+02251MD1999999-0031MW1421REMSYN082AAXX  10064 65457 31403 70000 10231 20223 40128 74241 875// 333 20225 59003 87612;EQDQ01  00002PRCP99
0202654570999992000121012004+05930-000970FM-12+0140DGKA V0209999C00001045001CN0250001N1+02951+02491101221ADDAA199000091AY141061AY221061GA1041+004809089GF107991041021004501031061MD1999999-0081MW1011REMSYN082AAXX  10124 65457 31475 70000 10295 20249 40122 70142 84236 333 59008 84816 87272;EQDQ01  00002PRCP99
0156654570999992000121200004+05930-000970FM-12+0140DGKA V0209999C000012200019N0220001N1+02101+01991101461ADDAA199000091GA1001+999999999GF100991001001999999001001MD1999999+0011REMSYN058AAXX  12004 65457 32972 00000 10210 20199 40146 333 58001;EQDQ01  00002PRCP99
0187654570999992000121206004+05930-000970FM-12+0140DGKA V0209999C000010036019N0170001N1+01951+01871101381ADDAA199000091GA1071+003609059GF107991071051004501999999KA1120N+01901MD1999999+0011REMSYN076AAXX  12064 65457 32467 70000 10195 20187 40138 875// 333 20190 58001 87612;EQDQ01  00002PRCP99
0212654570999992000121212004+05930-000970FM-12+0140DGKA V0200501N001010750019N0120001N1+02951+02051101231ADDAA199000091AY121061AY221061GA1071+075009089GF107991999001999999001061MD1999999-0071MW1051REMSYN076AAXX  12124 65457 31962 70502 10295 20205 40123 70522 80006 333 59007 87275;EQDQ01+000002SCOTLCQ02  00002PRCP99
0196654570999992000121218004+05930-000970FM-12+0140DGKA V0209999C000012200019N0140001N1+02821+02421101141ADDAA199000091AY111061AY211061GA1031+003909059GF103991031051999999001001MD1999999-0111MW1051REMSYN076AAXX  12184 65457 31964 30000 10282 20242 40114 70511 83500 333 59011 83613;EQDQ01  00002PRCP99
0215654570999992000121306004+05930-000970FM-12+0140DGKA V0209999C000010039019N0006001N1+02151+02051101221ADDAA199000091AY121061AY221061GA1061+003909059GF106991061051004501001001KA1120N+02111MD1999999-0151MW1401REMSYN082AAXX  13064 65457 31406 60000 10215 20205 40122 74022 86500 333 20211 59015 86613;EQDQ01  00002PRCP99
0212654570999992000121412004+05930-000970FM-12+0140DGKA V0200501N001512200019N0100001N1+02921+02311101101ADDAA199000091AY141061AY211061GA1031+005409029GF199999031021004501001001MD1999999-0031MW1051REMSYN076AAXX  14124 65457 31460 20503 10292 20231 40110 70541 83200 333 59003 83818;EQDQ01+000022SCOTCVQ02  00002PRCP99
0215654570999992000121418004+05930-000970FM-12+0140DGKA V0202301N001012200019N0140001N1+02871+02381100911ADDAA199000091AY111061AY211061GA1041+078009019GF104991001001999999001021KA1120M+03251MD1999999+0011MW1051REMSYN082AAXX  14184 65457 31964 42302 10287 20238 40091 70511 80002 333 10325 58001 84076;EQDQ01  00002PRCP99
0196654570999992000121512004+05930-000970FM-12+0140DGKA V0209999C000010048019N0250001N1+03001+02351100911ADDAA199000091AY141061AY211061GA1051+004809029GF105991051021004501001001MD1999999-0151MW1031REMSYN076AAXX  15124 65457 31475 50000 10300 20235 40091 70341 85200 333 59015 85816;EQDQ01  00002PRCP99
0162654570999992000121700004+05930-000970FM-12+0140DGKA V0209999C000012200019N0200001N1+02461+02091101131ADDAA199000091GA1001+999999999GF100991001001999999001001MD1999999+0011REMSYN064AAXX  17004 65457 32970 00000 10246 20209 40113 82970 333 58001;EQDQ01  00002PRCP99
0184654570999992000121712004+05930-000970FM-12+0140DGKA V0202501N001512200019N0120001N1+02951+02331101051ADDAA199000091AY141061AY211061GA1001+999999999GF100991001001999999001001MD1999999+0081MW1051REMSYN064AAXX  17124 65457 31962 02503 10295 20233 40105 70541 333 58008;EQDQ01  00002PRCP99
0203654570999992000121718004+05930-000970FM-12+0140DGKA V0209999C000012200019N0120001N1+02891+02341100921ADDAA199000091AY101061AY201061GA1001+999999999GF100991001001999999001001KA1120M+03201MD1999999+0021MW1051REMSYN070AAXX  17184 65457 31962 00000 10289 20234 40092 70500 333 10320 58002;EQDQ01  00002PRCP99
0203654570999992000121906004+05930-000970FM-12+0140DGKA V0202701N001512200019N0100001N1+02451+02371101301ADDAA199000091AY101061AY201061GA1001+999999999GF100991001001999999001001KA1120N+02331MD1999999+0111MW1101REMSYN070AAXX  19064 65457 31960 02703 10245 20237 40130 71000 333 20233 58011;EQDQ01  00002PRCP99
0196654570999992000121912004+05930-000970FM-12+0140DGKA V0203201N000512200019N0180001N1+03031+02491101241ADDAA199000091AY111061AY211061GA1041+005109029GF104991041021004501001001MD1999999+0101MW1101REMSYN076AAXX  19124 65457 31468 43201 10303 20249 40124 71011 84200 333 58010 84817;EQDQ01  00002PRCP99
0221654570999992000122006004+05930-000970FM-12+0140DGKA V0209999C00001045001CN0220001N1+02521+02431101241ADDAA199000091AY111061AY211061GA1041+003909069GF107991041051004501031999KA1120N+02441MD1999999-0061MW1101REMSYN088AAXX  20064 65457 31472 70000 10252 20243 40124 71011 8453/ 333 20244 59006 84613 85363;EQDQ01  00002PRCP99
0196654570999992000122012004+05930-000970FM-12+0140DGKA V0202301N001012200019N0170001N1+03141+02451101151ADDAA199000091AY111061AY211061GA1041+005409029GF104991041021004501001001MD1999999-0141MW1051REMSYN076AAXX  20124 65457 31467 42302 10314 20245 40115 70511 84200 333 59014 84818;EQDQ01  00002PRCP99
0168654570999992000122100004+05930-000970FM-12+0140DGKA V0202301N000512200019N0260001N1+02571+02471101341ADDAA199000091GA1041+003909059GF104991041051004501001001MD1999999+0071REMSYN070AAXX  21004 65457 32476 42301 10257 20247 40134 84500 333 58007 84613;EQDQ01  00002PRCP99
0215654570999992000122106004+05930-000970FM-12+0140DGKA V0202301N000510030019N0007001N1+02451+02321101241ADDAA199000091AY141061AY221061GA1071+003009059GF107991071051004501999999KA1120N+02401MD1999999+0001MW1461REMSYN082AAXX  21064 65457 31407 72301 10245 20232 40124 74642 875// 333 20240 58000 87610;EQDQ01  00002PRCP99
0187654570999992000122406004+05930-000970FM-12+0140DGKA V0209999C000010036019N0200001N1+02361+02241101331ADDAA199000091GA1071+003609059GF107991071051004501999999KA1120N+02251MD1999999-0031REMSYN076AAXX  24064 65457 32470 70000 10236 20224 40133 875// 333 20225 59003 87612;EQDQ01  00002PRCP99
0231654570999992000122506004+05930-000970FM-12+0140DGKA V0209999C000010036019N0140001N1+02411+02331101391ADDAA199000091AY111061AY211061GA1071+003609059GF199999071051004501999999KA1120N+02201MD1999999+0051MW1101REMSYN082AAXX  25064 65457 31464 50000 10241 20233 40139 71011 875// 333 20220 58005 87612;EQDQ01+000052SCOTCVQ02  00002PRCP99
0170654570999992000122706004+05930-000970FM-12+0140DGKA V0203201N000519999999N0220001N1+02471+02351101341ADDAA199000091GF107991999999004501999999KA1120N+02401MD1999999-0011REMSYN075AAXX  27064 65457 32472 73201 10247 20235 40134 75// 333 20240 59001 87613;EQDQ01  00002PRCP99
0200654570999992000122712004+05930-000970FM-12+0140DGKA V0202301N002610051019N0240001N1+03181+02411101331ADDAA199000091GA1051+005109029GF105991999999004501999999MD1999999+0011REMSYN070AAXX  27124 65457 32474 52305 10318 20241 40133 5200/ 333 58001 85817;EQDQ01+000022APCTENQ02+000002APC3  Q03  00002PRCP99
0237654570999992000122718004+05930-000970FM-12+0140DGKA V0202301N001510660019N0240001N1+02901+02471101191ADDAA199000091GA1021+003909069GA2011+009009099GA3061+066009029GF106991021091004501031061KA1120M+03351MD1999999+0041REMSYN094AAXX  27184 65457 32474 62303 10290 20247 40119 82936 333 10335 58004 82613 86272 81930 94535;EQDQ01  00002PRCP99
0174654570999992000122812004+05930-000970FM-12+0140DGKA V0203201N00101009001CN0270001N1+02821+02421101381ADDAA199000091GA1031+004209069GF107991071081004501999999MD1999999+0041REMSYN076AAXX  28124 65457 32477 73202 10282 20242 40138 878// 333 58004 83614 83614;EQDQ01  00002PRCP99
