0224680100999992000010106004-19180+015920FM-12+110099999V0202301N002112200019N0750001N1+02081+01201999999ADDAA106000091GF104991041051017501081001KA1240M+03001KA2120N+01751MA1999999088811MD1310081+9999ME1314829REMSYN092AAXX  01064 68010 32789 42304 10208 20120 38881 48482 53008 84580 333 20175 555 10300 91013;EQDQ01  00002PRCP06
0205680100999992000010112004-19180+015920FM-12+110099999V0200101N002110450019N0750001N1+02891+01161999999ADDAA106000091GF106991031041017501081001KA1120N+02071MA1999999088721MD1810121+9999ME1314799REMSYN086AAXX  01124 68010 32789 60104 10289 20116 38872 48479 58012 83480 333 20207 555 91012;EQDQ01  00002PRCP06
0205680100999992000010118004-19180+015920FM-12+110099999V0200501N003112200019N0550001N1+02691+01071999999ADDAA106000091GF102991011041017501001011KA1120M+03681MA1999999088651MD1310101+9999ME1314729REMSYN086AAXX  01184 68010 32785 20506 10269 20107 38865 48472 53010 81401 333 10368 555 91012;EQDQ01  00002PRCP06
0224680100999992000010206004-19180+015920FM-12+110099999V0202301N003112200019N0750001N1+01841+00981999999ADDAA106000091GF103991011001999999081021KA1240M+03081KA2120N+01501MA1999999088721MD1310181+9999ME1314719REMSYN092AAXX  02064 68010 32989 32306 10184 20098 38872 48471 53018 81082 333 20150 555 10308 91012;EQDQ01  00002PRCP06
0205680100999992000010212004-19180+015920FM-12+110099999V0203101N002112200019N0750001N1+03051+01011999999ADDAA106000091GF101991001001999999001031KA1120N+01831MA1999999088671MD1810081+9999ME1314759REMSYN086AAXX  02124 68010 32989 13104 10305 20101 38867 48475 58008 80003 333 20183 555 91012;EQDQ01  00002PRCP06
0205680100999992000010218004-19180+015920FM-12+110099999V0209999C000012200019N0750001N1+02701+01281999999ADDAA106000091GF103991001001999999001081KA1120M+03201MA1999999088571MD1310051+9999ME1314629REMSYN086AAXX  02184 68010 32989 30000 10270 20128 38857 48462 53005 80008 333 10320 555 91011;EQDQ01  00002PRCP06
0205680100999992000010312004-19180+015920FM-12+110099999V0201301N002112200019N0750001N1+03261+00871999999ADDAA106000091GF104991001001999999041061KA1120N+02181MA1999999088781MD1810061+9999ME1314899REMSYN086AAXX  03124 68010 32989 41304 10326 20087 38878 48489 58006 80046 333 20218 555 91013;EQDQ01  00002PRCP06
0205680100999992000010318004-19180+015920FM-12+110099999V0209999C000012200019N0750001N1+02971+01321999999ADDAA106000091GF103991001001999999001061KA1120M+03401MA1999999088651MD1310051+9999ME1314739REMSYN086AAXX  03184 68010 32989 30000 10297 20132 38865 48473 53005 80006 333 10340 555 91012;EQDQ01  00002PRCP06
0224680100999992000010406004-19180+015920FM-12+110099999V0202301N003112200019N0750001N1+02121+01081999999ADDAA106000091GF101991001001999999001021KA1240M+03041KA2120N+01751MA1999999088821MD1310101+9999ME1314839REMSYN092AAXX  04064 68010 32989 12306 10212 20108 38882 48483 53010 80002 333 20175 555 10304 91013;EQDQ01  00002PRCP06
0205680100999992000010412004-19180+015920FM-12+110099999V0200901N002112200019N0750001N1+03071+01601999999ADDAA106000091GF103991031021017501001001KA1120N+01751MA1999999088721MD1810191+9999ME1314819REMSYN086AAXX  04124 68010 32789 30904 10307 20160 38872 48481 58019 83200 333 20175 555 91012;EQDQ01  00002PRCP06
0245680100999992000010506004-19180+015920FM-12+110099999V0209999C000012200019N0750001N1+01961+01811999999ADDAA124025891AY191061AY261061GF103991031051022501001001KA1240M+03381KA2120N+01841MA1999999088791MD1310061+9999ME1314819MW1031REMSYN110AAXX  05064 68010 11889 30000 10196 20181 38879 48481 53006 60264 70396 83500 333 20184 555 10338 20258 91013;
0205680100999992000010512004-19180+015920FM-12+110099999V0200501N001512200019N0750001N1+02731+01981999999ADDAA106000091GF104991031021017501031001KA1120N+01841MA1999999088701MD1810171+9999ME1314779REMSYN086AAXX  05124 68010 32789 40503 10273 20198 38870 48477 58017 83230 333 20184 555 91012;EQDQ01  00002PRCP06
0217680100999992000010606004-19180+015920FM-12+110099999V0209999C000012200019N0750001N1+01941+01751999999ADDAA124008091GF102991021001999999071001KA1240M+02901KA2120N+01851MA1999999088761MD1210031+9999ME1314769REMSYN104AAXX  06064 68010 12989 20000 10194 20175 38876 48476 52003 60084 82070 333 20185 555 10290 20080 91013;
0205680100999992000010612004-19180+015920FM-12+110099999V0200901N006212200019N0750001N1+02781+01861999999ADDAA106000091GF104991031021017501061001KA1120N+01851MA1999999088681MD1810121+9999ME1314759REMSYN086AAXX  06124 68010 32789 40912 10278 20186 38868 48475 58012 83260 333 20185 555 91012;EQDQ01  00002PRCP06
0264680100999992000010706004-19180+015920FM-12+110099999V0209999C000012200019N0750001N1+02061+01921999999ADDAA124078391AY191061AY261061GF104991999041022501001001KA1240M+02881KA2120N+01841MA1999999088771MD1310041+9999ME1314789MW1021REMSYN110AAXX  07064 68010 11889 40000 10206 20192 38877 48478 53004 60784 70296 82400 333 20184 555 10288 20783 91013;EQDQ01+000022SCOTLC
0205680100999992000010712004-19180+015920FM-12+110099999V0203001N001510450019N0750001N1+02721+02071999999ADDAA106000091GF105991041091017501081001KA1120N+01841MA1999999088611MD1810181+9999ME1314679REMSYN086AAXX  07124 68010 32789 53003 10272 20207 38861 48467 58018 84980 333 20184 555 91011;EQDQ01  00002PRCP06
0205680100999992000010718004-19180+015920FM-12+110099999V0209999C000019999999N0750001N1+02241+01991999999ADDAA106000091GF106991041091999999081041KA1120M+02821MA1999999088531MD1310161+9999ME1314559REMSYN086AAXX  07184 68010 32989 60000 10224 20199 38853 48455 53016 84984 333 10282 555 91010;EQDQ01  00002PRCP06
0224680100999992000010806004-19180+015920FM-12+110099999V0202701N002119999999N0750001N1+01931+01291999999ADDAA106000091GF105991051001999999081001KA1240M+02821KA2120N+01801MA1999999088681MD1310051+9999ME1314689REMSYN092AAXX  08064 68010 32989 52704 10193 20129 38868 48468 53005 85080 333 20180 555 10282 91012;EQDQ01  00002PRCP06
0205680100999992000010812004-19180+015920FM-12+110099999V0201301N002112200019N0750001N1+02761+01711999999ADDAA106000091GF104991031021017501081001KA1120N+01801MA1999999088591MD1810161+9999ME1314659REMSYN086AAXX  08124 68010 32789 41304 10276 20171 38859 48465 58016 83280 333 20180 555 91011;EQDQ01  00002PRCP06
0184680100999992000010818004-19180+015920FM-12+110099999V0202301N002112200019N0750001N1+02561+01301999999ADDAA106000091GF102991001001999999001041KA1120M+03151MD1310191+9999ME1314579REMSYN080AAXX  08184 68010 32989 22304 10256 2013/ 48457 53019 80004 333 10315 555 91010;EQDQ01  00002PRCP06
0224680100999992000010906004-19180+015920FM-12+110099999V0202701N002112200019N0750001N1+01761+00421999999ADDAA106000091GF104991041001999999071001KA1240M+03151KA2120N+01671MA1999999088671MD1310041+9999ME1314669REMSYN092AAXX  09064 68010 32989 42704 10176 20042 38867 48466 53004 84070 333 20167 555 10315 91012;EQDQ01  00002PRCP06
0205680100999992000010912004-19180+015920FM-12+110099999V0202301N002112200019N0750001N1+02851+00761999999ADDAA106000091GF104991031021022501081001KA1120N+01671MA1999999088551MD1810121+9999ME1314629REMSYN086AAXX  09124 68010 32889 42304 10285 20076 38855 48462 58012 83280 333 20167 555 91010;EQDQ01  00002PRCP06
0224680100999992000011006004-19180+015920FM-12+110099999V0209999C000012200019N0750001N1+01831+00771999999ADDAA106000091GF102991021001999999081001KA1240M+03001KA2120N+01501MA1999999088571MD1310041+9999ME1314569REMSYN092AAXX  10064 68010 32989 20000 10183 20077 38857 48456 53004 82080 333 20150 555 10300 91011;EQDQ01  00002PRCP06
0205680100999992000011012004-19180+015920FM-12+110099999V0202301N005112200019N0750001N1+02841+00681999999ADDAA106000091GF103991011011022501061021KA1120N+01761MA1999999088461MD1810151+9999ME1314539REMSYN086AAXX  10124 68010 32889 32310 10284 20068 38846 48453 58015 81162 333 20176 555 91009;EQDQ01  00002PRCP06
0205680100999992000011018004-19180+015920FM-12+110099999V0202301N002112200019N0750001N1+02621+00471999999ADDAA106000091GF103991011021022501001061KA1120M+03121MA1999999088461MD1510121+9999ME1314509REMSYN086AAXX  10184 68010 32889 32304 10262 20047 38846 48450 55012 81206 333 10312 555 91009;EQDQ01  00002PRCP06
0224680100999992000011106004-19180+015920FM-12+110099999V0202301N005112200019N0750001N1+01751+00381999999ADDAA106000091GF103991011001999999051061KA1240M+03121KA2120N+01261MA1999999088691MD1310091+9999ME1314679REMSYN092AAXX  11064 68010 32989 32310 10175 20038 38869 48467 53009 81056 333 20126 555 10312 91012;EQDQ01  00002PRCP06
0205680100999992000011112004-19180+015920FM-12+110099999V0202301N005112200019N0750001N1+02921+00571999999ADDAA106000091GF103991021021022501001051KA1120N+01721MA1999999088611MD1010101+9999ME1314689REMSYN086AAXX  11124 68010 32889 32310 10292 20057 38861 48468 50010 82205 333 20172 555 91011;EQDQ01  00002PRCP06
0205680100999992000011118004-19180+015920FM-12+110099999V0202301N003112200019N0750001N1+02631+00541999999ADDAA106000091GF104991031001999999091061KA1120M+03031MA1999999088571MD1510121+9999ME1314629REMSYN086AAXX  11184 68010 32989 42306 10263 20054 38857 48462 55012 83096 333 10303 555 91011;EQDQ01  00002PRCP06
0224680100999992000011206004-19180+015920FM-12+110099999V0202301N002119999999N0750001N1+01721+00831999999ADDAA106000091GF105991041001999999081021KA1240M+03021KA2120N+01511MA1999999088671MD1310071+9999ME1314659REMSYN092AAXX  12064 68010 32989 52304 10172 20083 38867 48465 53007 84082 333 20151 555 10302 91012;EQDQ01  00002PRCP06
0205680100999992000011212004-19180+015920FM-12+110099999V0202701N005112200019N0750001N1+03031+01381999999ADDAA106000091GF103991011011017501001031KA1120N+01691MA1999999088531MD1810161+9999ME1314629REMSYN086AAXX  12124 68010 32789 32710 10303 20138 38853 48462 58016 81103 333 20169 555 91010;EQDQ01  00002PRCP06
0220680100999992000011218004-19180+015920FM-12+110099999V0200501N001512200019N0700001N1+02441+01821999999ADDAA112000791AY191061AY251061GF105991031071022501001061KA1120M+03281MA1999999088531MD1510151+9999ME1314579MW1201REMSYN098AAXX  12184 68010 11888 50503 10244 20182 38853 48457 55015 69902 72095 83706 333 10328 555 91010;
0245680100999992000011306004-19180+015920FM-12+110099999V0202301N002110120019N0750001N1+01951+01261999999ADDAA124000091AY151061AY201061GF106991061051012501071001KA1240M+03281KA2120N+01811MA1999999088651MD1310081+9999ME1314679MW1031REMSYN110AAXX  13064 68010 11689 62304 10195 20126 38865 48467 53008 69904 70350 86570 333 20181 555 10328 20000 91012;
0205680100999992000011312004-19180+015920FM-12+110099999V0201501N002112200019N0750001N1+02841+01661999999ADDAA106000091GF103991031021022501081001KA1120N+01921MA1999999088511MD1810141+9999ME1314599REMSYN086AAXX  13124 68010 32889 31504 10284 20166 38851 48459 58014 83280 333 20192 555 91010;EQDQ01  00002PRCP06
0220680100999992000011318004-19180+015920FM-12+110099999V0209999C000010450019N0750001N1+01991+01911999999ADDAA112007191AY191061AY261061GF105991031091022501091001KA1120M+03051MA1999999088471MD1410001+9999ME1314489MW1131REMSYN098AAXX  13184 68010 11889 50000 10199 20191 38847 48448 54008 60072 71396 83990 333 10305 555 91010;
0240680100999992000011406004-19180+015920FM-12+110099999V0209999C000010210019N0750001N1+01941+01751999999ADDAA124007291GF105991051041022501001001KA1240M+03051KA2120N+01791MA1999999999999MD1310121+9999ME1311629REMSYN108    AAXX  14064 68010 12889 50000 10194 20175 38559 48162 53012 60074 85400 333 20179 555 10305 20072 90977;EQDQ01 085593APOSP 
0224680100999992000011418004-19180+015920FM-12+110099999V0202301N002112200019N0750001N1+02821+01481999999ADDAA112001091AY161061AY201061GF103991011091017501071061KA1120M+03181MA1999999088371MD1510081+9999ME1314449MW1031REMSYN102    AAXX  14184 68010 11789 32304 10282 20148 38837 48444 55008 60012 70360 81976 333 10318 555 91008;
0221680100999992000011506004-19180+015920FM-12+110099999V0202301N002112200019N0750001N1+01801+00871999999ADDAA124000891GF103991001001999999001031KA1240M+03181KA2120N+01261MA1999999088681MD1310071+9999ME1314679REMSYN108    AAXX  15064 68010 12989 32304 10180 20087 38868 48467 53007 69984 80003 333 20126 555 10318 20008 91012;
0209680100999992000011512004-19180+015920FM-12+110099999V0201301N002112200019N0750001N1+03121+01091999999ADDAA199000091GF102991011001999999031061KA1120N+01481MA1999999088591MD1010101+9999ME1314689REMSYN090    AAXX  15124 68010 32989 21304 10312 20109 38859 48468 50010 81036 333 20148 555 91011;EQDQ01  00002PRCP99
0209680100999992000011518004-19180+015920FM-12+110099999V0209999C000012200019N0750001N1+02801+01051999999ADDAA199000091GF102991011031022501071001KA1120M+03261MA1999999088561MD1510051+9999ME1314629REMSYN090    AAXX  15184 68010 32889 20000 10280 20105 38856 48462 55005 81370 333 10326 555 91011;EQDQ01  00002PRCP99
0219680100999992000011618004-19180+015920FM-12+110099999V0209999C000012200019N0750001N1+02731+00871999999ADDAA199000091GA1001+999999999GF100991001001999999001001KA1120M+03301MA1999999088691MD1510081+9999ME1314759REMSYN084    AAXX  16184 68010 32989 00000 10273 20087 38869 48475 55008 333 10330 555 91012;EQDQ01  00002PRCP99
0209680100999992000011712004-19180+015920FM-12+110099999V0203601N002112200019N0750001N1+03141+01191999999ADDAA199000091GF101991011021999999001001KA1120N+01421MA1999999088721MD1810131+9999ME1314829REMSYN090    AAXX  17124 68010 32989 13604 10314 20119 38872 48482 58013 81200 333 20142 555 91012;EQDQ01  00002PRCP99
0228680100999992000011806004-19180+015920FM-12+110099999V0209999C000012200019N0750001N1+01821+01241999999ADDAA199000091GF101991011001999999081001KA1240M+03421KA2120N+01401MA1999999088821MD1310101+9999ME1314839REMSYN096    AAXX  18064 68010 32989 10000 10182 20124 38882 48483 53010 81080 333 20140 555 10342 91013;EQDQ01  00002PRCP99
0218680100999992000011818004-19180+015920FM-12+110099999V0202301N002112200019N0750001N1+02641+01311999999ADDAA199000021AY101061AY201061GF104991011071022501061051KA1120M+03331MA1999999088481MD1510151+9999ME1314539MW1201REMSYN096    AAXX  18184 68010 31889 42304 10264 20131 38848 48453 55015 72000 81765 333 10333 555 91010;
0249680100999992000011906004-19180+015920FM-12+110099999V0200501N002112200019N0750001N1+02171-00311999999ADDAA124000491AY161061AY221061GF103991031001999999031001KA1240M+03331KA2120N+01651MA1999999089151MD1310261+9999ME1315199MW1021REMSYN114    AAXX  19064 68010 11989 30504 10217 21031 38915 48519 53026 69944 70262 83030 333 20165 555 10333 20004 91017;
0209680100999992000011912004-19180+015920FM-12+110099999V0200901N003112200019N0750001N1+03041+01381999999ADDAA199000091GF103991021021022501001081KA1120N+01851MA1999999088991MD1010171+9999ME1315109REMSYN090    AAXX  19124 68010 32889 30906 10304 20138 38899 48510 50017 82208 333 20185 555 91015;EQDQ01  00002PRCP99
0205680100999992000011918004-19180+015920FM-12+110099999V0201301N002111050019N0750001N1+02561+01441999999ADDAA199000091GF105991031091022501001051KA1120M+03321MA1999999089041MD1510221+9999ME1315119REMSYN086AAXX  19184 68010 32889 51304 10256 20144 38904 48511 55022 83905 333 10332 555 91016;EQDQ01  00002PRCP99
0224680100999992000012006004-19180+015920FM-12+110099999V0200901N007212200019N0750001N1+02201+01631999999ADDAA199000091GF103991031001999999091001KA1240M+03321KA2120N+01781MA1999999089351MD1310211+9999ME1315429REMSYN092AAXX  20064 68010 32989 30914 10220 20163 38935 48542 53021 83090 333 20178 555 10332 91019;EQDQ01  00002PRCP99
0233680100999992000012012004-19180+015920FM-12+110099999V0203601N003110150019N0750001N1+02901+01661999999ADDAA199000091AY101061AY211061GF105991051021017501001001KA1120N+01891MA1999999089221MD1810161+9999ME1315339MW1151REMSYN092AAXX  20124 68010 31789 53606 10290 20166 38922 48533 58016 71501 85200 333 20189 555 91018;EQDQ01  00002PRCP99
0205680100999992000012018004-19180+015920FM-12+110099999V0200501N003112200019N0750001N1+02461+01641999999ADDAA199000091GF104991021041022501071081KA1120M+02981MA1999999089081MD1610071+9999ME1315159REMSYN086AAXX  20184 68010 32889 40506 10246 20164 38908 48515 56007 82478 333 10298 555 91016;EQDQ01  00002PRCP99
0224680100999992000012106004-19180+015920FM-12+110099999V0201301N005112200019N0750001N1+02211+01651999999ADDAA199000091GF101991011001999999081001KA1240M+02981KA2120N+01621MA1999999089251MD1310121+9999ME1315299REMSYN092AAXX  21064 68010 32989 11310 10221 20165 38925 48529 53012 81080 333 20162 555 10298 91018;EQDQ01  00002PRCP99
0205680100999992000012112004-19180+015920FM-12+110099999V0200501N006210450019N0750001N1+02921+01671999999ADDAA199000091GF106991041071017501061001KA1120N+01621MA1999999089061MD1810131+9999ME1315169REMSYN086AAXX  21124 68010 32789 60512 10292 20167 38906 48516 58013 84760 333 20162 555 91016;EQDQ01  00002PRCP99
0143680100999992000012118004-19180+015920FM-12+110099999V0209999C000012200019N0750001N1+02761+01561999999ADDAA199000091GF104991999999999999999999KA1120M+02851REMSYN062AAXX  21184 68010 32989 40000 10276 20156 333 10285 555 91016;EQDQ01  00002PRCP99
0245680100999992000012206004-19180+015920FM-12+110099999V0201301N002110450019N0750001N1+02081+01711999999ADDAA124000191AY151061AY201061GF106991041051022501071001KA1240M+03161KA2120N+01621MA1999999089031MD1310101+9999ME1315069MW1031REMSYN110AAXX  22064 68010 11889 61304 10208 20171 38903 48506 53010 69914 70350 84570 333 20162 555 10316 20001 91016;
0205680100999992000012212004-19180+015920FM-12+110099999V0200501N002110150019N0750001N1+02831+01651999999ADDAA199000091GF105991051021017501081001KA1120N+01621MA1999999088841MD1810111+9999ME1314929REMSYN086AAXX  22124 68010 32789 50504 10283 20165 38884 48492 58011 85280 333 20162 555 91014;EQDQ01  00002PRCP99
0233680100999992000012218004-19180+015920FM-12+110099999V0200501N002112200019N0750001N1+02681+01571999999ADDAA199000091AY121061AY221061GF103991021091017501081021KA1120M+03091MA1999999088631MD1510071+9999ME1314699MW1131REMSYN092AAXX  22184 68010 31789 30504 10268 20157 38863 48469 55007 71322 82982 333 10309 555 91011;EQDQ01  00002PRCP99
0221680100999992000012312004-19180+015920FM-12+110099999V0202101N007212200019N0750001N1+02781+99999999999ADDAA199000091GF104991021021022501031001KA1120N+02361MA1999999088761MD1810131+9999ME1314839REMSYN086AAXX  23124 68010 32889 42114 10278 21268 38876 48483 58013 82230 333 20236 555 91013;EQDQ01  00002PRCP99Q02 -02683ATOD  
0221680100999992000012318004-19180+015920FM-12+110099999V0209999C000010450019N0750001N1+02641+01862999999ADDAA199000091GF106991041091017501061001KA1120M+02931MA1999999088601MD1310051+9999ME1314669REMSYN086AAXX  23184 68010 32789 60000 10264 20186 38860 48466 53005 84960 333 10293 555 91011;EQDQ01+001863ATOD  Q02  00002PRCP99
0224680100999992000012406004-19180+015920FM-12+110099999V0209999C000019999999N0750001N1+01981+01181999999ADDAA199000091GF105991051001999999081001KA1240M+02931KA2120N+01441MA1999999088871MD1310121+9999ME1314879REMSYN092AAXX  24064 68010 32989 50000 10198 20118 38887 48487 53012 85080 333 20144 555 10293 91014;EQDQ01  00002PRCP99
0239680100999992000012412004-19180+015920FM-12+110099999V0203601N007211050019N0750001N1+02371+02061999999ADDAA106000191AY111061AY211061GF106991021051008001001051KA1120N+01851MA1999999088821MD1810151+9999ME1314859MW1221REMSYN098AAXX  24124 68010 11589 63614 10237 20206 38882 48485 58015 69911 72211 82505 333 20185 555 91013;EQDQ01+000002PRSWM1
0220680100999992000012418004-19180+015920FM-12+110099999V0209999C000012200019N0750001N1+02731+01741999999ADDAA112000791AY151061AY201061GF104991011091022501071041KA1120M+02921MA1999999088691MD1510081+9999ME1314759MW1131REMSYN098AAXX  24184 68010 11889 40000 10273 20174 38869 48475 55008 69902 71350 81974 333 10292 555 91012;
0205680100999992000012512004-19180+015920FM-12+110099999V0209999C000012200019N0750001N1+03001+01421999999ADDAA199000091GF103991021021022501001051KA1120N+01761MA1999999088911MD1810211+9999ME1315009REMSYN086AAXX  25124 68010 32889 30000 10300 20142 38891 48500 58021 82205 333 20176 555 91014;EQDQ01  00002PRCP99
0233680100999992000012518004-19180+015920FM-12+110099999V0209999C000012200019N0750001N1+02851+01481999999ADDAA199000091AY101061AY201061GF104991011091022501001051KA1120M+03231MA1999999088731MD1510081+9999ME1314809MW1131REMSYN092AAXX  25184 68010 31889 40000 10285 20148 38873 48480 55008 71300 81905 333 10323 555 91012;EQDQ01  00002PRCP99
0224680100999992000012606004-19180+015920FM-12+110099999V0202301N002112200019N0750001N1+01891+01251999999ADDAA199000091GF103991011001999999041051KA1240M+03231KA2120N+01541MA1999999089091MD1310081+9999ME1315119REMSYN092AAXX  26064 68010 32989 32304 10189 20125 38909 48511 53008 81045 333 20154 555 10323 91016;EQDQ01  00002PRCP99
0205680100999992000012612004-19180+015920FM-12+110099999V0200501N002112200019N0750001N1+03171+01171999999ADDAA199000091GF104991021021017501001051KA1120N+01741MA1999999088931MD1810171+9999ME1315049REMSYN086AAXX  26124 68010 32789 40504 10317 20117 38893 48504 58017 82205 333 20174 555 91015;EQDQ01  00002PRCP99
0224680100999992000012706004-19180+015920FM-12+110099999V0209999C000012200019N0750001N1+01921+01121999999ADDAA199000091GF103991001001999999001051KA1240M+03371KA2120N+01521MA1999999089041MD1310121+9999ME1315069REMSYN092AAXX  27064 68010 32989 30000 10192 20112 38904 48506 53012 80005 333 20152 555 10337 91016;EQDQ01  00002PRCP99
0205680100999992000012712004-19180+015920FM-12+110099999V0202301N002112200019N0750001N1+03291+00811999999ADDAA199000091GF103991011021017501001051KA1120N+01741MA1999999088911MD1010161+9999ME1315039REMSYN086AAXX  27124 68010 32789 32304 10329 20081 38891 48503 50016 81205 333 20174 555 91014;EQDQ01  00002PRCP99
0205680100999992000012718004-19180+015920FM-12+110099999V0209999C000012200019N0750001N1+02921+00871999999ADDAA199000091GF103991001001999999001051KA1120M+03391MA1999999088731MD1510061+9999ME1314819REMSYN086AAXX  27184 68010 32989 30000 10292 20087 38873 48481 55006 80005 333 10339 555 91012;EQDQ01  00002PRCP99
0224680100999992000012806004-19180+015920FM-12+110099999V0202301N001512200019N0750001N1+01841+00981999999ADDAA199000091GF104991001001999999001051KA1240M+03391KA2120N+01321MA1999999088961MD1310071+9999ME1314979REMSYN092AAXX  28064 68010 32989 42303 10184 20098 38896 48497 53007 80005 333 20132 555 10339 91015;EQDQ01  00002PRCP99
0205680100999992000012812004-19180+015920FM-12+110099999V0202301N002112200019N0750001N1+03071+00551999999ADDAA199000091GF101991001001999999001061KA1120N+01681MA1999999088821MD1810161+9999ME1314919REMSYN086AAXX  28124 68010 32989 12304 10307 20055 38882 48491 58016 80006 333 20168 555 91013;EQDQ01  00002PRCP99
0205680100999992000012818004-19180+015920FM-12+110099999V0209999C000012200019N0750001N1+02841+00661999999ADDAA199000091GF101991001001999999001061KA1120M+03381MA1999999088671MD1510061+9999ME1314749REMSYN086AAXX  28184 68010 32989 10000 10284 20066 38867 48474 55006 80006 333 10338 555 91012;EQDQ01  00002PRCP99
0234680100999992000012906004-19180+015920FM-12+110099999V0202701N001512200019N0750001N1+01871+00961999999ADDAA199000091GA1001+999999999GF100991001001999999001001KA1240M+03381KA2120N+01361MA1999999089001MD1310191+9999ME1315019REMSYN086AAXX  29064 68010 32989 02703 10187 20096 38900 48501 53019 333 20136 555 10338 91015;EQDQ01  00002PRCP99
0205680100999992000012912004-19180+015920FM-12+110099999V0202301N002112200019N0750001N1+03241+00631999999ADDAA199000091GF101991001001999999001051KA1120N+01721MA1999999088861MD1010141+9999ME1314979REMSYN086AAXX  29124 68010 32989 12304 10324 20063 38886 48497 50014 80005 333 20172 555 91014;EQDQ01  00002PRCP99
0205680100999992000012918004-19180+015920FM-12+110099999V0209999C000012200019N0750001N1+03051+00961999999ADDAA199000091GF103991011001999999031051KA1120M+03391MA1999999088741MD1510051+9999ME1314839REMSYN086AAXX  29184 68010 32989 30000 10305 20096 38874 48483 55005 81035 333 10339 555 91013;EQDQ01  00002PRCP99
0205680100999992000013012004-19180+015920FM-12+110099999V0203101N002112200019N0750001N1+03401+00381999999ADDAA199000091GF101991001001999999001021KA1120N+01891MA1999999088941MD1010181+9999ME1315079REMSYN086AAXX  30124 68010 32989 13104 10340 20038 38894 48507 50018 80002 333 20189 555 91015;EQDQ01  00002PRCP99
0215680100999992000013018004-19180+015920FM-12+110099999V0209999C000012200019N0750001N1+03081+00601999999ADDAA199000091GA1001+999999999GF100991001001999999001001KA1120M+03571MA1999999088801MD1510041+9999ME1314909REMSYN080AAXX  30184 68010 32989 00000 10308 20060 38880 48490 55004 333 10357 555 91013;EQDQ01  00002PRCP99
0224680100999992000013106004-19180+015920FM-12+110099999V0201301N001512200019N0750001N1+01951+00201999999ADDAA199000091GF101991001001999999001021KA1240M+03571KA2120N+01591MA1999999089081MD1310111+9999ME1315119REMSYN092AAXX  31064 68010 32989 11303 10195 20020 38908 48511 53011 80002 333 20159 555 10357 91016;EQDQ01  00002PRCP99
0215680100999992000013112004-19180+015920FM-12+110099999V0201301N002112200019N0750001N1+03591+00351999999ADDAA199000091GA1001+999999999GF100991001001999999001001KA1120N+01791MA1999999088931MD1610191+9999ME1315089REMSYN080AAXX  31124 68010 32989 01304 10359 20035 38893 48508 56019 333 20179 555 91015;EQDQ01  00002PRCP99
0205680100999992000013118004-19180+015920FM-12+110099999V0209999C000012200019N0750001N1+03151+00521999999ADDAA199000091GF102991011001999999031061KA1120M+03721MA1999999088771MD1510061+9999ME1314889REMSYN086AAXX  31184 68010 32989 20000 10315 20052 38877 48488 55006 81036 333 10372 555 91013;EQDQ01  00002PRCP99
0224680100999992000020106004-19180+015920FM-12+110099999V0209999C000012200019N0750001N1+01991+00631999999ADDAA199000091GF103991021001999999031051KA1240M+03721KA2120N+01621MA1999999089011MD1310121+9999ME1315059REMSYN092AAXX  01064 68010 32989 30000 10199 20063 38901 48505 53012 82035 333 20162 555 10372 91016;EQDQ01  00002PRCP99
0205680100999992000020118004-19180+015920FM-12+110099999V0209999C000012200019N0750001N1+03201+00841999999ADDAA199000091GF103991021001999999061061KA1120M+03781MA1999999088741MD1510051+9999ME1314869REMSYN086AAXX  01184 68010 32989 30000 10320 20084 38874 48486 55005 82066 333 10378 555 91013;EQDQ01  00002PRCP99
0224680100999992000020206004-19180+015920FM-12+110099999V0202301N002112200019N0750001N1+02041+00171999999ADDAA199000091GF102991011001999999081061KA1240M+03781KA2120N+01591MA1999999088981MD1310121+9999ME1315029REMSYN092AAXX  02064 68010 32989 22304 10204 20017 38898 48502 53012 81086 333 20159 555 10378 91015;EQDQ01  00002PRCP99
0205680100999992000020212004-19180+015920FM-12+110099999V0201301N002112200019N0750001N1+03521+00151999999ADDAA199000091GF101991011011022501001001KA1120N+01861MA1999999088871MD1810181+9999ME1315029REMSYN086AAXX  02124 68010 32889 11304 10352 20015 38887 48502 58018 81100 333 20186 555 91014;EQDQ01  00002PRCP99
0205680100999992000020218004-19180+015920FM-12+110099999V0209999C000012200019N0750001N1+03221+00591999999ADDAA199000091GF103991021001999999061051KA1120M+03741MA1999999088641MD1510041+9999ME1314759REMSYN086AAXX  02184 68010 32989 30000 10322 20059 38864 48475 55004 82065 333 10374 555 91011;EQDQ01  00002PRCP99
0224680100999992000020306004-19180+015920FM-12+110099999V0201301N005112200019N0750001N1+01941+00851999999ADDAA199000091GF101991001001999999001081KA1240M+03741KA2120N+01551MA1999999089001MD1310081+9999ME1315049REMSYN092AAXX  03064 68010 32989 11310 10194 20085 38900 48504 53008 80008 333 20155 555 10374 91015;EQDQ01  00002PRCP99
0205680100999992000020312004-19180+015920FM-12+110099999V0200501N002112200019N0750001N1+03441+00811999999ADDAA199000091GF101991011021017501001001KA1120N+01741MA1999999088921MD1810141+9999ME1315069REMSYN086AAXX  03124 68010 32789 10504 10344 20081 38892 48506 58014 81200 333 20174 555 91015;EQDQ01  00002PRCP99
0205680100999992000020318004-19180+015920FM-12+110099999V0200501N002112200019N0750001N1+03201+00901999999ADDAA199000091GF103991021001999999061061KA1120M+03661MA1999999088701MD1510061+9999ME1314819REMSYN086AAXX  03184 68010 32989 30504 10320 20090 38870 48481 55006 82066 333 10366 555 91012;EQDQ01  00002PRCP99
0217680100999992000020406004-19180+015920FM-12+110099999V0202301N001512200019N0750001N1+02371+00911999999ADDAA124000091GF104991041001999999081001KA1240M+03661KA2120N+02101MA1999999089111MD1310121+9999ME1315209REMSYN104AAXX  04064 68010 12989 42303 10237 20091 38911 48520 53012 69904 84080 333 20210 555 10366 20000 91017;
0205680100999992000020412004-19180+015920FM-12+110099999V0200501N004110450019N0750001N1+03381+01291999999ADDAA199000091GF105991041021017501031001KA1120N+02331MA1999999088991MD1810141+9999ME1315159REMSYN086AAXX  04124 68010 32789 50508 10338 20129 38899 48515 58014 84230 333 20233 555 91015;EQDQ01  00002PRCP99
0233680100999992000020418004-19180+015920FM-12+110099999V0201301N003110450019N0750001N1+02701+01411999999ADDAA199000091AY191061AY221061GF106991041091017501061001KA1120M+03441MA1999999088891MD1310081+9999ME1314999MW1131REMSYN092AAXX  04184 68010 31789 61306 10270 20141 38889 48499 53008 71392 84960 333 10344 555 91014;EQDQ01  00002PRCP99
0217680100999992000020506004-19180+015920FM-12+110099999V0200501N002119999999N0750001N1+02221+01521999999ADDAA124000391GF105991041001999999071051KA1240M+03441KA2120N+02151MA1999999088951MD1310041+9999ME1315029REMSYN104AAXX  05064 68010 12989 50504 10222 20152 38895 48502 53004 69934 84075 333 20215 555 10344 20003 91015;
0205680100999992000020512004-19180+015920FM-12+110099999V0200501N005112200019N0750001N1+03411+01331999999ADDAA199000091GF104991031021017501001051KA1120N+02221MA1999999088851MD1810141+9999ME1315009REMSYN086AAXX  05124 68010 32789 40510 10341 20133 38885 48500 58014 83205 333 20222 555 91014;EQDQ01  00002PRCP99
0233680100999992000020518004-19180+015920FM-12+110099999V0209999C000010450019N0750001N1+02621+01561999999ADDAA199000091AY191061AY221061GF107991011091017501061001KA1120M+03531MA1999999088691MD1210081+9999ME1314779MW1151REMSYN092AAXX  05184 68010 31789 70000 10262 20156 38869 48477 52008 71592 81960 333 10353 555 91012;EQDQ01  00002PRCP99
0224680100999992000020606004-19180+015920FM-12+110099999V0203101N001510450019N0750001N1+02261+01601999999ADDAA199000091GF105991011051017501071001KA1240M+03531KA2120N+02211MA1999999088911MD1310101+9999ME1314989REMSYN092AAXX  06064 68010 32789 53103 10226 20160 38891 48498 53010 81570 333 20221 555 10353 91014;EQDQ01  00002PRCP99
0205680100999992000020612004-19180+015920FM-12+110099999V0209999C000012200019N0750001N1+03381+01331999999ADDAA199000091GF104991031021017501001051KA1120N+02241MA1999999088791MD1810201+9999ME1314939REMSYN086AAXX  06124 68010 32789 40000 10338 20133 38879 48493 58020 83205 333 20224 555 91013;EQDQ01  00002PRCP99
0205680100999992000020712004-19180+015920FM-12+110099999V0202301N002112200019N0750001N1+03491+01111999999ADDAA199000091GF104991031021017501001081KA1120N+02071MA1999999088801MD1010151+9999ME1314959REMSYN086AAXX  07124 68010 32789 42304 10349 20111 38880 48495 50015 83208 333 20207 555 91013;EQDQ01  00002PRCP99
0192680100999992000020718004-19180+015920FM-12+110099999V0209999C000010450019N0750001N1+02551+01541999999ADDAA112000791GF105991011091022501061051KA1120M+03561MA1999999088731MD1510101+9999ME1314819REMSYN092AAXX  07184 68010 12889 50000 10255 20154 38873 48481 55010 69902 81965 333 10356 555 91012;
0217680100999992000020806004-19180+015920FM-12+110099999V0202301N002112200019N0750001N1+02051+00971999999ADDAA124000191GF103991011001999999041051KA1240M+03561KA2120N+01881MA1999999088911MD1310081+9999ME1314969REMSYN104AAXX  08064 68010 12989 32304 10205 20097 38891 48496 53008 69914 81045 333 20188 555 10356 20001 91014;
0205680100999992000020812004-19180+015920FM-12+110099999V0203601N005112200019N0750001N1+03351+01101999999ADDAA199000091GF103991011021022501001051KA1120N+02041MA1999999088721MD1810231+9999ME1314869REMSYN086AAXX  08124 68010 32889 33610 10335 20110 38872 48486 58023 81205 333 20204 555 91012;EQDQ01  00002PRCP99
0205680100999992000020818004-19180+015920FM-12+110099999V0202301N002110450019N0750001N1+02671+01521999999ADDAA199000091GF105991031071017501091001KA1120M+03521MA1999999088641MD1510081+9999ME1314729REMSYN086AAXX  08184 68010 32789 52304 10267 20152 38864 48472 55008 83790 333 10352 555 91011;EQDQ01  00002PRCP99
0217680100999992000020906004-19180+015920FM-12+110099999V0209999C000012200019N0750001N1+02011+01371999999ADDAA124002491GF104991041001999999031001KA1240M+03521KA2120N+01861MA1999999088781MD1310061+9999ME1314829REMSYN104AAXX  09064 68010 12989 40000 10201 20137 38878 48482 53006 60024 84030 333 20186 555 10352 20024 91013;
0205680100999992000020912004-19180+015920FM-12+110099999V0202301N005112200019N0750001N1+03551+00931999999ADDAA199000091GF105991031021022501001061KA1120N+01981MA1999999088611MD1810181+9999ME1314769REMSYN086AAXX  09124 68010 32889 52310 10355 20093 38861 48476 58018 83206 333 20198 555 91011;EQDQ01  00002PRCP99
0205680100999992000020918004-19180+015920FM-12+110099999V0202301N005112200019N0750001N1+03101+00861999999ADDAA199000091GF103991011021017501061061KA1120M+03721MA1999999088441MD1510101+9999ME1314559REMSYN086AAXX  09184 68010 32789 32310 10310 20086 38844 48455 55010 81266 333 10372 555 91009;EQDQ01  00002PRCP99
0221680100999992000021012004-19180+015920FM-12+110099999V0201301N004119999999N0750001N1+03291+01151999999ADDAA199000091GF105991999001999999081001KA1120N+02041MA1999999088611MD1810201+9999ME1314749REMSYN086AAXX  10124 68010 32989 51308 10329 20115 38861 48474 58020 83080 333 20204 555 91011;EQDQ01+000032SCOTLCQ02  00002PRCP99
0233680100999992000021018004-19180+015920FM-12+110099999V0202701N003110450019N0750001N1+03191+00931999999ADDAA199000091AY121061AY221061GF107991031091017501061031KA1120M+03651MA1999999088511MD1310111+9999ME1314639MW1131REMSYN092AAXX  10184 68010 31789 72706 10319 20093 38851 48463 53011 71322 83963 333 10365 555 91010;EQDQ01  00002PRCP99
0224680100999992000021106004-19180+015920FM-12+110099999V0209999C000019999999N0750001N1+02021+00931999999ADDAA199000091GF106991031001999999081061KA1240M+03651KA2120N+01971MA1999999088811MD1310081+9999ME1314869REMSYN092AAXX  11064 68010 32989 60000 10202 20093 38881 48486 53008 83086 333 20197 555 10365 91013;EQDQ01  00002PRCP99
0191680100999992000021112004-19180+015920FM-12+110099999V0200501N001512200019N0750001N1+03311+01151999999ADDAA199000091GF104991021021017501001061MA1999999088561MD1810231+9999ME1314699REMSYN085AAXX  11124 68010 32789 40503 10331 20115 38856 48469 58023 82206 333 0201 555 91011;EQDQ01  00002PRCP99
0217680100999992000021206004-19180+015920FM-12+110099999V0202301N002112200019N0750001N1+02141+01231999999ADDAA124000091GF104991041001999999031001KA1240M+03661KA2120N+02041MA1999999088671MD1310061+9999ME1314739REMSYN104AAXX  12064 68010 12989 42304 10214 20123 38867 48473 53006 69904 84030 333 20204 555 10366 20000 91012;
0205680100999992000021212004-19180+015920FM-12+110099999V0202701N002112200019N0750001N1+03441+00921999999ADDAA199000091GF104991031021017501001051KA1120N+02131MA1999999088431MD1810251+9999ME1314569REMSYN086AAXX  12124 68010 32789 42704 10344 20092 38843 48456 58025 83205 333 20213 555 91009;EQDQ01  00002PRCP99
0205680100999992000021218004-19180+015920FM-12+110099999V0202701N001510450019N0750001N1+02581+01791999999ADDAA199000091GF106991031071022501081001KA1120M+03511MA1999999088411MD1510181+9999ME1314489REMSYN086AAXX  12184 68010 32889 62703 10258 20179 38841 48448 55018 83780 333 10351 555 91009;EQDQ01  00002PRCP99
0217680100999992000021306004-19180+015920FM-12+110099999V0209999C000010450019N0750001N1+02091+01151999999ADDAA124000091GF105991011091022501071001KA1240M+03511KA2120N+02081MA1999999088801MD1310181+9999ME1314859REMSYN104AAXX  13064 68010 12889 50000 10209 20115 38880 48485 53018 69904 81970 333 20208 555 10351 20000 91013;
0217680100999992000021406004-19180+015920FM-12+110099999V0209999C000019999999N0750001N1+02151+00951999999ADDAA124000091GF106991051001999999071081KA1240M+03231KA2120N+02141MA1999999088871MD1310121+9999ME1314929REMSYN104AAXX  14064 68010 12989 60000 10215 20095 38887 48492 53012 69904 85078 333 20214 555 10323 20000 91014;
0205680100999992000021412004-19180+015920FM-12+110099999V0202701N006212200019N0750001N1+03241+00511999999ADDAA199000091GF103991021021022501001031KA1120N+02141MA1999999088631MD1810261+9999ME1314759REMSYN086AAXX  14124 68010 32889 32712 10324 20051 38863 48475 58026 82203 333 20214 555 91011;EQDQ01  00002PRCP99
0205680100999992000021512004-19180+015920FM-12+110099999V0201301N002110150019N0750001N1+02731+01281999999ADDAA199000091GF107991061051017501081001KA1120N+02151MA1999999088651MD1810171+9999ME1314739REMSYN086AAXX  15124 68010 32789 71304 10273 20128 38865 48473 58017 86580 333 20215 555 91012;EQDQ01  00002PRCP99
0192680100999992000021612004-19180+015920FM-12+110099999V0202301N002110150019N0750001N1+02921+01561999999ADDAA199000091GF106991061021017501001001MA1999999088591MD1810211+9999ME1314659REMSYN086AAXX  16124 68010 32789 62304 10292 20156 38859 48465 58021 86200 333 20/// 555 91011;EQDQ01  00002PRCP99
0220680100999992000021618004-19180+015920FM-12+110099999V0202701N002110450019N0650001N1+02071+02011999999ADDAA112009991AY161061AY261061GF108991011091004501021999KA1120M+02971MA1999999088621MD1510101+9999ME1314659MW1201REMSYN098AAXX  16184 68010 11487 82704 10207 20201 38862 48465 55010 60102 72066 8192/ 333 10297 555 91011;
0203680100999992000021712004-19180+015920FM-12+110099999V0202701N002110450019N0700001N1+02641+01621999999ADDAY151061AY201061GF106991041071017501091061KA1120N+01611MA1999999088481MD1810181+9999ME1314549MW1031REMSYN092AAXX  17124 68010 41788 62704 10264 20162 38848 48454 58018 70350 84796 333 20161 555 91010;
0214680100999992000021718004-19180+015920FM-12+110099999V0209999C000010450019N0650001N1+02141+01941999999ADDAA199000021AY121061AY221061GF107991011041012501071999KA1120M+02701MA1999999088501MD1510171+9999ME1314539MW1211REMSYN092AAXX  17184 68010 31687 70000 10214 20194 38850 48453 55017 72122 8147/ 333 10270 555 91010;
0233680100999992000021812004-19180+015920FM-12+110099999V0202301N002110450019N0700001N1+02341+01261999999ADDAA199000091AY151061AY201061GF107991041071017501071001KA1120N+01641MA1999999088661MD1010141+9999ME1314699MW1031REMSYN092AAXX  18124 68010 31788 72304 10234 20126 38866 48469 50014 70350 84770 333 20164 555 91012;EQDQ01  00002PRCP99
0205680100999992000021818004-19180+015920FM-12+110099999V0209999C000010450019N0650001N1+02281+01621999999ADDAA199000091GF108991021041012501081021KA1120M+02441MA1999999088621MD1310081+9999ME1314669REMSYN086AAXX  18184 68010 32687 80000 10228 20162 38862 48466 53008 82482 333 10244 555 91011;EQDQ01  00002PRCP99
0224680100999992000021906004-19180+015920FM-12+110099999V0209999C000010075019N0750001N1+01941+01551999999ADDAA199000091GF107991071051008001999999KA1240M+02441KA2120N+01911MA1999999088851MD1310051+9999ME1314859REMSYN092AAXX  19064 68010 32589 70000 10194 20155 38885 48485 53005 875// 333 20191 555 10244 91014;EQDQ01  00002PRCP99
0205680100999992000021912004-19180+015920FM-12+110099999V0200501N002110150019N0750001N1+02601+01661999999ADDAA199000091GF107991071041017501001001KA1120N+01951MA1999999088831MD1810141+9999ME1314889REMSYN086AAXX  19124 68010 32789 70504 10260 20166 38883 48488 58014 87400 333 20195 555 91014;EQDQ01  00002PRCP99
0205680100999992000021918004-19180+015920FM-12+110099999V0209999C000010150019N0550001N1+02601+01851999999ADDAA199000091GF106991061011017501001001KA1120M+02801MA1999999088741MD1310021+9999ME1314809REMSYN086AAXX  19184 68010 32785 60000 10260 20185 38874 48480 53002 86100 333 10280 555 91013;EQDQ01  00002PRCP99
0224680100999992000022006004-19180+015920FM-12+110099999V0202301N002110150019N0650001N1+01691+01441999999ADDAA199000091GF107991071041017501001001KA1240M+02861KA2120N+01561MA1999999089061MD1310041+9999ME1315059REMSYN092AAXX  20064 68010 32787 72304 10169 20144 38906 48505 53004 87400 333 20156 555 10286 91016;EQDQ01  00002PRCP99
0205680100999992000022012004-19180+015920FM-12+110099999V0203601N003110150019N0700001N1+02791+01731999999ADDAA199000091GF106991061021017501001011KA1120N+01751MA1999999088951MD1610161+9999ME1315039REMSYN086AAXX  20124 68010 32788 63606 10279 20173 38895 48503 56016 86201 333 20175 555 91015;EQDQ01  00002PRCP99
0205680100999992000022018004-19180+015920FM-12+110099999V0209999C000012200019N0750001N1+02471+01801999999ADDAA199000091GF103991021011022501001041KA1120M+02861MA1999999088731MD1510061+9999ME1314779REMSYN086AAXX  20184 68010 32889 30000 10247 20180 38873 48477 55006 82104 333 10286 555 91012;EQDQ01  00002PRCP99
0224680100999992000022106004-19180+015920FM-12+110099999V0202301N002112200019N0750001N1+01871+01561999999ADDAA199000091GF103991021051017501001051KA1240M+02861KA2120N+01781MA1999999088951MD1310101+9999ME1314959REMSYN092AAXX  21064 68010 32789 32304 10187 20156 38895 48495 53010 82505 333 20178 555 10286 91015;EQDQ01  00002PRCP99
0205680100999992000022118004-19180+015920FM-12+110099999V0201301N002112200019N0750001N1+02531+01851999999ADDAA199000091GF104991021041012501081001KA1120M+03181MA1999999088811MD1510171+9999ME1314879REMSYN086AAXX  21184 68010 32689 41304 10253 20185 38881 48487 55017 82480 333 10318 555 91013;EQDQ01  00002PRCP99
0224680100999992000022206004-19180+015920FM-12+110099999V0209999C000012200019N0750001N1+01841+01341999999ADDAA199000091GF104991031001999999071051KA1240M+03181KA2120N+01711MA1999999089031MD1310101+9999ME1315039REMSYN092AAXX  22064 68010 32989 40000 10184 20134 38903 48503 53010 83075 333 20171 555 10318 91016;EQDQ01  00002PRCP99
0205680100999992000022212004-19180+015920FM-12+110099999V0201301N001512200019N0750001N1+02901+01151999999ADDAA199000091GF104991011021022501031061KA1120N+01821MA1999999088551MD1810161+9999ME1314639REMSYN086AAXX  22124 68010 32889 41303 10290 20115 38855 48463 58016 81236 333 20182 555 91010;EQDQ01  00002PRCP99
0205680100999992000022218004-19180+015920FM-12+110099999V0201301N005112200019N0750001N1+02821+01621999999ADDAA199000091GF104991021001999999081021KA1120M+03371MA1999999088661MD1510101+9999ME1314749REMSYN086AAXX  22184 68010 32989 41310 10282 20162 38866 48474 55010 82082 333 10337 555 91012;EQDQ01  00002PRCP99
0224680100999992000022306004-19180+015920FM-12+110099999V0209999C000012200019N0750001N1+02081+01481999999ADDAA199000091GF103991021001999999031061KA1240M+03371KA2120N+02021MA1999999088881MD1310081+9999ME1314929REMSYN092AAXX  23064 68010 32989 30000 10208 20148 38888 48492 53008 82036 333 20202 555 10337 91014;EQDQ01  00002PRCP99
0205680100999992000022312004-19180+015920FM-12+110099999V0209999C000012200019N0750001N1+03241+00971999999ADDAA199000091GF104991021021017501031001KA1120N+02041MA1999999088631MD1810221+9999ME1314759REMSYN086AAXX  23124 68010 32789 40000 10324 20097 38863 48475 58022 82230 333 20204 555 91011;EQDQ01  00002PRCP99
0205680100999992000022318004-19180+015920FM-12+110099999V0202301N002119999999N0750001N1+03141+00371999999ADDAA199000091GF105991041001999999081031KA1120M+03471MA1999999088421MD1510081+9999ME1314529REMSYN086AAXX  23184 68010 32989 52304 10314 20037 38842 48452 55008 84083 333 10347 555 91009;EQDQ01  00002PRCP99
0224680100999992000022406004-19180+015920FM-12+110099999V0209999C000019999999N0750001N1+02141+01461999999ADDAA199000091GF106991061001999999081001KA1240M+03471KA2120N+02121MA1999999088791MD1310141+9999ME1314849REMSYN092AAXX  24064 68010 32989 60000 10214 20146 38879 48484 53014 86080 333 20212 555 10347 91013;EQDQ01  00002PRCP99
0205680100999992000022412004-19180+015920FM-12+110099999V0200501N002110450019N0750001N1+02951+01331999999ADDAA199000091GF105991031021022501031061KA1120N+02121MA1999999088671MD1010141+9999ME1314779REMSYN086AAXX  24124 68010 32889 50504 10295 20133 38867 48477 50014 83236 333 20212 555 91012;EQDQ01  00002PRCP99
0233680100999992000022418004-19180+015920FM-12+110099999V0209999C000010450019N0750001N1+02921+01361999999ADDAA199000091AY121061AY201061GF105991011091012501081001KA1120M+03191MA1999999088651MD1510121+9999ME1314759MW1131REMSYN092AAXX  24184 68010 31689 50000 10292 20136 38865 48475 55012 71320 81980 333 10319 555 91012;EQDQ01  00002PRCP99
0217680100999992000022506004-19180+015920FM-12+110099999V0202301N002110450019N0750001N1+01961+01611999999ADDAA124002491GF105991031041022501071081KA1240M+03191KA2120N+01891MA1999999088831MD1310041+9999ME1314859REMSYN104AAXX  25064 68010 12889 52304 10196 20161 38883 48485 53004 60024 83478 333 20189 555 10319 20024 91014;
0221680100999992000022512004-19180+015920FM-12+110099999V0201301N001512200019N0750001N1+02981+01821999999ADDAA199000091GF103991021021022501001021KA1120N+01951MA1999999100082MD1810121+9999ME1315709REMSYN086AAXX  25124 68010 32889 31303 10298 20182 30008 48570 58012 82202 333 20195 555 91139;EQDQ01+100083APOSP Q02  00002PRCP99
0217680100999992000022606004-19180+015920FM-12+110099999V0202301N003112200019N0750001N1+01951+01481999999ADDAA124005891GF102991021001999999081001KA1240M+03171KA2120N+01811MA1999999088821MD1410001+9999ME1314839REMSYN104AAXX  26064 68010 12989 22306 10195 20148 38882 48483 54000 60064 82080 333 20181 555 10317 20058 91013;
0205680100999992000022612004-19180+015920FM-12+110099999V0201801N005112200019N0750001N1+03131+01461999999ADDAA199000091GF103991021021022501001091KA1120N+01601MA1999999088581MD1810181+9999ME1314689REMSYN086AAXX  26124 68010 32889 31810 10313 20146 38858 48468 58018 82209 333 20160 555 91011;EQDQ01  00002PRCP99
0217680100999992000022706004-19180+015920FM-12+110099999V0202301N002111050019N0750001N1+02161+01591999999ADDAA124000091GF106991021061022501081031KA1240M+03261KA2120N+01781MA1999999088581MD1310121+9999ME1314619REMSYN104AAXX  27064 68010 12889 62304 10216 20159 38858 48461 53012 69904 82683 333 20178 555 10326 20000 91011;
0220680100999992000022718004-19180+015920FM-12+110099999V0201301N005110450019N0750001N1+02691+01821999999ADDAA112000791AY161061AY221061GF106991021091012501081001KA1120M+03221MA1999999088351MD1510141+9999ME1314429MW1131REMSYN098AAXX  27184 68010 11689 61310 10269 20182 38835 48442 55014 69902 71362 82980 333 10322 555 91008;
0217680100999992000022806004-19180+015920FM-12+110099999V0209999C000019999999N0750001N1+01941+01301999999ADDAA124000291GF105991041001999999081051KA1240M+03221KA2120N+01601MA1999999088721MD1310151+9999ME1314739REMSYN104AAXX  28064 68010 12989 50000 10194 20130 38872 48473 53015 69924 84085 333 20160 555 10322 20002 91012;
0205680100999992000022812004-19180+015920FM-12+110099999V0202301N002112200019N0750001N1+03101+01461999999ADDAA199000091GF104991041021017501001001KA1120N+01611MA1999999088631MD1310151+9999ME1314729REMSYN086AAXX  28124 68010 32789 42304 10310 20146 38863 48472 53015 84200 333 20161 555 91011;EQDQ01  00002PRCP99
0205680100999992000022818004-19180+015920FM-12+110099999V0202301N002112200019N0750001N1+02841+01241999999ADDAA199000091GF104991021041012501081001KA1120M+03261MA1999999088621MD1510121+9999ME1314699REMSYN086AAXX  28184 68010 32689 42304 10284 20124 38862 48469 55012 82480 333 10326 555 91011;EQDQ01  00002PRCP99
0224680100999992000022906004-19180+015920FM-12+110099999V0202301N001519999999N0750001N1+01781+01291999999ADDAA199000091GF105991021001999999071051KA1240M+03261KA2120N+01741MA1999999089031MD1310101+9999ME1315049REMSYN092AAXX  29064 68010 32989 52303 10178 20129 38903 48504 53010 82075 333 20174 555 10326 91016;EQDQ01  00002PRCP99
0205680100999992000022912004-19180+015920FM-12+110099999V0200501N005110450019N0750001N1+02901+01471999999ADDAA199000091GF105991021021017501081001KA1120N+01911MA1999999088961MD1810141+9999ME1315059REMSYN086AAXX  29124 68010 32789 50510 10290 20147 38896 48505 58014 82280 333 20191 555 91015;EQDQ01  00002PRCP99
0205680100999992000022918004-19180+015920FM-12+110099999V0209999C000012200019N0750001N1+02831+01341999999ADDAA199000091GF104991021041012501081001KA1120M+03101MA1999999088791MD1510041+9999ME1314879REMSYN086AAXX  29184 68010 32689 40000 10283 20134 38879 48487 55004 82480 333 10310 555 91013;EQDQ01  00002PRCP99
0224680100999992000030106004-19180+015920FM-12+110099999V0209999C000012200019N0750001N1+01871+01371999999ADDAA199000091GF104991011001999999081081KA1240M+03101KA2120N+01621MA1999999089101MD1310051+9999ME1315119REMSYN092AAXX  01064 68010 32989 40000 10187 20137 38910 48511 53005 81088 333 20162 555 10310 91017;EQDQ01  00002PRCP99
0205680100999992000030112004-19180+015920FM-12+110099999V0201301N005110450019N0750001N1+03151+01141999999ADDAA199000091GF105991011021017501011051KA1120N+01691MA1999999088911MD1810211+9999ME1315029REMSYN086AAXX  01124 68010 32789 51310 10315 20114 38891 48502 58021 81215 333 20169 555 91014;EQDQ01  00002PRCP99
0205680100999992000030118004-19180+015920FM-12+110099999V0209999C000012200019N0750001N1+02791+00681999999ADDAA199000091GF104991011041017501081001KA1120M+03341MA1999999088691MD1510061+9999ME1314769REMSYN086AAXX  01184 68010 32789 40000 10279 20068 38869 48476 55006 81480 333 10334 555 91012;EQDQ01  00002PRCP99
0224680100999992000030206004-19180+015920FM-12+110099999V0202301N002119999999N0750001N1+01591+00951999999ADDAA199000091GF105991031001999999011061KA1240M+03341KA2120N+01301MA1999999088921MD1310081+9999ME1314909REMSYN092AAXX  02064 68010 32989 52304 10159 20095 38892 48490 53008 83016 333 20130 555 10334 91015;EQDQ01  00002PRCP99
0205680100999992000030212004-19180+015920FM-12+110099999V0201301N002112200019N0750001N1+03281+00291999999ADDAA199000091GF103991001001999999001051KA1120N+01401MA1999999088841MD1710111+9999ME1314949REMSYN086AAXX  02124 68010 32989 31304 10328 20029 38884 48494 57011 80005 333 20140 555 91014;EQDQ01  00002PRCP99
0205680100999992000030218004-19180+015920FM-12+110099999V0209999C000012200019N0750001N1+02741+01501999999ADDAA199000091GF101991001001999999001021KA1120M+03371MA1999999088621MD1510071+9999ME1314689REMSYN086AAXX  02184 68010 32989 10000 10274 20150 38862 48468 55007 80002 333 10337 555 91011;EQDQ01  00002PRCP99
0224680100999992000030306004-19180+015920FM-12+110099999V0202301N001512200019N0750001N1+01651+00551999999ADDAA199000091GF102991001001999999001041KA1240M+03371KA2120N+01411MA1999999088981MD1310101+9999ME1314979REMSYN092AAXX  03064 68010 32989 22303 10165 20055 38898 48497 53010 80004 333 20141 555 10337 91015;EQDQ01  00002PRCP99
0205680100999992000030312004-19180+015920FM-12+110099999V0200501N002112200019N0750001N1+03161+00631999999ADDAA199000091GF102991011011017501001021KA1120N+01471MA1999999088871MD1810141+9999ME1314979REMSYN086AAXX  03124 68010 32789 20504 10316 20063 38887 48497 58014 81102 333 20147 555 91014;EQDQ01  00002PRCP99
0234680100999992000030406004-19180+015920FM-12+110099999V0209999C000012200019N0750001N1+01951+00791999999ADDAA199000091GA1001+999999999GF100991001001999999001001KA1240M+03321KA2120N+01601MA1999999089001MD1310091+9999ME1315019REMSYN086AAXX  04064 68010 32989 00000 10195 20079 38900 48501 53009 333 20160 555 10332 91015;EQDQ01  00002PRCP99
0205680100999992000030412004-19180+015920FM-12+110099999V0200501N004112200019N0750001N1+03301+00861999999ADDAA199000091GF103991031021017501001001KA1120N+01821MA1999999088841MD1810181+9999ME1314969REMSYN086AAXX  04124 68010 32789 30508 10330 20086 38884 48496 58018 83200 333 20182 555 91014;EQDQ01  00002PRCP99
0205680100999992000030418004-19180+015920FM-12+110099999V0201301N003110210019N0750001N1+02651+01421999999ADDAA199000091GF106991061021022501001001KA1120M+03411MA1999999088831MD1310081+9999ME1314909REMSYN086AAXX  04184 68010 32889 61306 10265 20142 38883 48490 53008 86200 333 10341 555 91014;EQDQ01  00002PRCP99
0224680100999992000030506004-19180+015920FM-12+110099999V0209999C000010150019N0750001N1+02331+01571999999ADDAA199000091GF107991071051017501001001KA1240M+03411KA2120N+02071MA1999999088901MD1310051+9999ME1314969REMSYN092AAXX  05064 68010 32789 70000 10233 20157 38890 48496 53005 87500 333 20207 555 10341 91014;EQDQ01  00002PRCP99
0221680100999992000030512004-19180+015920FM-12+110099999V0200101N006212200019N0750001N1+03191+01581999999ADDAA199000091GF103991999021022501001001KA1120N+02321MA1999999088891MD1810201+9999ME1315019REMSYN086AAXX  05124 68010 32889 30112 10319 20158 38889 48501 58020 85200 333 20232 555 91014;EQDQ01+000052SCOTLCQ02  00002PRCP99
0214680100999992000030518004-19180+015920FM-12+110099999V0202301N003110150019N0700001N1+03071+01201999999ADDAA199000021AY121061AY221061GF106991051091017501001041KA1120M+03271MA1999999088891MD1510071+9999ME1315019MW1961REMSYN092AAXX  05184 68010 31788 62306 10307 20120 38889 48501 55007 79622 85904 333 10327 555 91014;
0217680100999992000030606004-19180+015920FM-12+110099999V0209999C000012200019N0750001N1+02151+01811999999ADDAA124019291GF101991011011022501001001KA1240M+03271KA2120N+01761MA1999999089051MD1310011+9999ME1315099REMSYN104AAXX  06064 68010 12889 10000 10215 20181 38905 48509 53001 60194 81100 333 20176 555 10327 20192 91016;
0205680100999992000030612004-19180+015920FM-12+110099999V0200901N006212200019N0750001N1+03111+01241999999ADDAA199000091GF103991031021022501001001KA1120N+01761MA1999999088931MD1810121+9999ME1315049REMSYN086AAXX  06124 68010 32889 30912 10311 20124 38893 48504 58012 83200 333 20176 555 91015;EQDQ01  00002PRCP99
0205680100999992000030618004-19180+015920FM-12+110099999V0209999C000012200019N0750001N1+02931+01771999999ADDAA199000091GF101991001001999999001021KA1120M+03301MA1999999088681MD1510151+9999ME1314779REMSYN086AAXX  06184 68010 32989 10000 10293 20177 38868 48477 55015 80002 333 10330 555 91012;EQDQ01  00002PRCP99
0205680100999992000030712004-19180+015920FM-12+110099999V0200501N006212200019N0750001N1+03161+01421999999ADDAA199000091GF104991041021017501001001KA1120N+01911MA1999999088861MD1810131+9999ME1314979REMSYN086AAXX  07124 68010 32789 40512 10316 20142 38886 48497 58013 84200 333 20191 555 91014;EQDQ01  00002PRCP99
0234680100999992000030806004-19180+015920FM-12+110099999V0209999C000012200019N0750001N1+02161+01661999999ADDAA199000091GA1001+999999999GF100991001001999999001001KA1240M+03331KA2120N+01821MA1999999088971MD1410001+9999ME1315019REMSYN086AAXX  08064 68010 32989 00000 10216 20166 38897 48501 54004 333 20182 555 10333 91015;EQDQ01  00002PRCP99
0205680100999992000030812004-19180+015920FM-12+110099999V0200201N007212200019N0750001N1+03281+01251999999ADDAA199000091GF103991031021017501001001KA1120N+01821MA1999999088841MD1810111+9999ME1314969REMSYN086AAXX  08124 68010 32789 30214 10328 20125 38884 48496 58011 83200 333 20182 555 91014;EQDQ01  00002PRCP99
0234680100999992000030906004-19180+015920FM-12+110099999V0209999C000012200019N0750001N1+02161+01591999999ADDAA199000091GA1001+999999999GF100991001001999999001001KA1240M+03361KA2120N+01751MA1999999089091MD1310061+9999ME1315139REMSYN086AAXX  09064 68010 32989 00000 10216 20159 38909 48513 53006 333 20175 555 10336 91016;EQDQ01  00002PRCP99
0205680100999992000030912004-19180+015920FM-12+110099999V0200501N007212200019N0750001N1+03061+01431999999ADDAA199000091GF104991041021017501001001KA1120N+01751MA1999999088941MD1810111+9999ME1315049REMSYN086AAXX  09124 68010 32789 40514 10306 20143 38894 48504 58011 84200 333 20175 555 91015;EQDQ01  00002PRCP99
0205680100999992000031012004-19180+015920FM-12+110099999V0200501N003112200019N0750001N1+03051+01351999999ADDAA199000091GF104991041021999999001001KA1120N+01861MA1999999088891MD1810191+9999ME1314999REMSYN086AAXX  10124 68010 32989 40506 10305 20135 38889 48499 58019 84200 333 20186 555 91014;EQDQ01  00002PRCP99
0205680100999992000031018004-19180+015920FM-12+110099999V0209999C000012200019N0750001N1+03001+01511999999ADDAA199000091GF104991041001999999081001KA1120M+03321MA1999999088681MD1310151+9999ME1314789REMSYN086AAXX  10184 68010 32989 40000 10300 20151 38868 48478 53015 84080 333 10332 555 91012;EQDQ01  00002PRCP99
0234680100999992000031106004-19180+015920FM-12+110099999V0209999C000012200019N0750001N1+01881+01361999999ADDAA199000091GA1001+999999999GF100991001001999999001001KA1240M+03321KA2120N+01561MA1999999089051MD1310021+9999ME1315069REMSYN086AAXX  11064 68010 32989 00000 10188 20136 38905 48506 53002 333 20156 555 10332 91016;EQDQ01  00002PRCP99
0205680100999992000031112004-19180+015920FM-12+110099999V0201301N002112200019N0750001N1+03151+01041999999ADDAA199000091GF104991041021017501001001KA1120N+01711MA1999999088861MD1810221+9999ME1314969REMSYN086AAXX  11124 68010 32789 41304 10315 20104 38886 48496 58022 84200 333 20171 555 91014;EQDQ01  00002PRCP99
0205680100999992000031118004-19180+015920FM-12+110099999V0209999C000012200019N0750001N1+02921+01021999999ADDAA199000091GF102991021001999999081001KA1120M+03361MA1999999088631MD1610161+9999ME1314719REMSYN086AAXX  11184 68010 32989 20000 10292 20102 38863 48471 56016 82080 333 10336 555 91011;EQDQ01  00002PRCP99
0234680100999992000031206004-19180+015920FM-12+110099999V0209999C000012200019N0750001N1+01961+01171999999ADDAA199000091GA1001+999999999GF100991001001999999001001KA1240M+03361KA2120N+01661MA1999999089051MD1310021+9999ME1315079REMSYN086AAXX  12064 68010 32989 00000 10196 20117 38905 48507 53002 333 20166 555 10336 91016;EQDQ01  00002PRCP99
0205680100999992000031212004-19180+015920FM-12+110099999V0200501N007212200019N0750001N1+03241+01161999999ADDAA199000091GF104991041021022501001001KA1120N+01661MA1999999088901MD1810171+9999ME1315029REMSYN086AAXX  12124 68010 32889 40514 10324 20116 38890 48502 58017 84200 333 20166 555 91014;EQDQ01  00002PRCP99
0205680100999992000031218004-19180+015920FM-12+110099999V0209999C000012200019N0750001N1+02941+01211999999ADDAA199000091GF104991021021022501061001KA1120M+03421MA1999999088711MD1510091+9999ME1314809REMSYN086AAXX  12184 68010 32889 40000 10294 20121 38871 48480 55009 82260 333 10342 555 91012;EQDQ01  00002PRCP99
0217680100999992000031306004-19180+015920FM-12+110099999V0209999C000012200019N0750001N1+02201+01551999999ADDAA124000091GF104991031001999999031021KA1240M+03421KA2120N+01991MA1999999088951MD1310101+9999ME1315009REMSYN104AAXX  13064 68010 12989 40000 10220 20155 38895 48500 53010 69904 83032 333 20199 555 10342 20000 91015;
0214680100999992000031318004-19180+015920FM-12+110099999V0209999C000012200019N0750001N1+02721+01471999999ADDAA199000021AY121061AY211061GF104991011041999999081001KA1120M+03321MA1999999088691MD1510091+9999ME1314779MW1211REMSYN092AAXX  13184 68010 31989 40000 10272 20147 38869 48477 55009 72121 81480 333 10332 555 91012;
0217680100999992000031406004-19180+015920FM-12+110099999V0202301N002112200019N0750001N1+02041+00851999999ADDAA124000091GF104991011001999999071051KA1240M+03321KA2120N+01761MA1999999088771MD1310081+9999ME1314799REMSYN104AAXX  14064 68010 12989 42304 10204 20085 38877 48479 53008 69904 81075 333 20176 555 10332 20000 91013;
0205680100999992000031412004-19180+015920FM-12+110099999V0209999C000012200019N0750001N1+03061+01431999999ADDAA199000091GF103991031021022501001001KA1120N+01761MA1999999088571MD1810141+9999ME1314669REMSYN086AAXX  14124 68010 32889 30000 10306 20143 38857 48466 58014 83200 333 20176 555 91011;EQDQ01  00002PRCP99
0205680100999992000031418004-19180+015920FM-12+110099999V0209999C000012200019N0750001N1+02871+01431999999ADDAA199000091GF103991031001022501081001KA1120M+03461MA1999999088661MD1610111+9999ME1314759REMSYN086AAXX  14184 68010 32889 30000 10287 20143 38866 48475 56011 83080 333 10346 555 91012;EQDQ01  00002PRCP99
0224680100999992000031506004-19180+015920FM-12+110099999V0209999C000012200019N0750001N1+01961+00711999999ADDAA199000091GF104991011031022501061051KA1240M+03461KA2120N+01691MA1999999088681MD1310101+9999ME1314709REMSYN092AAXX  15064 68010 32889 40000 10196 20071 38868 48470 53010 81365 333 20169 555 10346 91012;EQDQ01  00002PRCP99
0205680100999992000031512004-19180+015920FM-12+110099999V0202301N002112200019N0750001N1+03291+01121999999ADDAA199000091GF103991031011017501001001KA1120N+01691MA1999999088501MD1810171+9999ME1314619REMSYN086AAXX  15124 68010 32789 32304 10329 20112 38850 48461 58017 83100 333 20169 555 91010;EQDQ01  00002PRCP99
0205680100999992000031518004-19180+015920FM-12+110099999V0202301N004112200019N0750001N1+03101+00171999999ADDAA199000091GF103991031051022501001001KA1120M+03511MA1999999088841MD1510181+9999ME1314969REMSYN086AAXX  15184 68010 32889 32308 10310 20017 38884 48496 55018 83500 333 10351 555 91014;EQDQ01  00002PRCP99
0224680100999992000031606004-19180+015920FM-12+110099999V0209999C000012200019N0750001N1+01841+00761999999ADDAA199000091GF102991001001999999001081KA1240M+03511KA2120N+01431MA1999999088871MD1310041+9999ME1314889REMSYN092AAXX  16064 68010 32989 20000 10184 20076 38887 48488 53004 80008 333 20143 555 10351 91014;EQDQ01  00002PRCP99
0205680100999992000031612004-19180+015920FM-12+110099999V0201801N002112200019N0750001N1+03051+00171999999ADDAA199000091GF102991001001999999001081KA1120N+01651MA1999999088721MD1810191+9999ME1314809REMSYN086AAXX  16124 68010 32989 21804 10305 20017 38872 48480 58019 80008 333 20165 555 91012;EQDQ01  00002PRCP99
0215680100999992000031618004-19180+015920FM-12+110099999V0209999C000012200019N0750001N1+02841+00681999999ADDAA199000091GA1001+999999999GF100991001001999999001001KA1120M+03321MA1999999088611MD1610181+9999ME1314689REMSYN080AAXX  16184 68010 32989 00000 10284 20068 38861 48468 56018 333 10332 555 91011;EQDQ01  00002PRCP99
0205680100999992000031712004-19180+015920FM-12+110099999V0202301N002112200019N0750001N1+03251+00471999999ADDAA199000091GF101991001001999999001021KA1120N+01361MA1999999088791MD1810191+9999ME1314909REMSYN086AAXX  17124 68010 32989 12304 10325 20047 38879 48490 58019 80002 333 20136 555 91013;EQDQ01  00002PRCP99
0205680100999992000031818004-19180+015920FM-12+110099999V0209999C000012200019N0750001N1+02821+00941999999ADDAA199000091GF102991011051022501001051KA1120M+03471MA1999999088601MD1510081+9999ME1314679REMSYN086AAXX  18184 68010 32889 20000 10282 20094 38860 48467 55008 81505 333 10347 555 91011;EQDQ01  00002PRCP99
0205680100999992000031912004-19180+015920FM-12+110099999V0200501N007212200019N0750001N1+03331+00961999999ADDAA199000091GF103991021001022501021061KA1120N+01791MA1999999088711MD1010181+9999ME1314839REMSYN086AAXX  19124 68010 32889 30514 10333 20096 38871 48483 50018 82026 333 20179 555 91012;EQDQ01  00002PRCP99
0205680100999992000031918004-19180+015920FM-12+110099999V0209999C000012200019N0750001N1+02941+00981999999ADDAA199000091GF102991011001999999081021KA1120M+03471MA1999999088521MD1510061+9999ME1314609REMSYN086AAXX  19184 68010 32989 20000 10294 20098 38852 48460 55006 81082 333 10347 555 91010;EQDQ01  00002PRCP99
0205680100999992000032012004-19180+015920FM-12+110099999V0200501N002112200019N0750001N1+03301+01251999999ADDAA199000091GF104991041021012501001001KA1120N+02041MA1999999088641MD1810181+9999ME1314759REMSYN086AAXX  20124 68010 32689 40504 10330 20125 38864 48475 58018 84200 333 20204 555 91011;EQDQ01  00002PRCP99
0205680100999992000032018004-19180+015920FM-12+110099999V0209999C000012200019N0750001N1+02891+01381999999ADDAA199000091GF104991011041017501081001KA1120M+03321MA1999999088551MD1510101+9999ME1314639REMSYN086AAXX  20184 68010 32789 40000 10289 20138 38855 48463 55010 81480 333 10332 555 91010;EQDQ01  00002PRCP99
0192680100999992000032118004-19180+015920FM-12+110099999V0209999C000012200019N0750001N1+02491+01721999999ADDAA112000791GF103991031001999999081001KA1120M+03321MA1999999088681MD1710151+9999ME1314739REMSYN092AAXX  21184 68010 12989 30000 10249 20172 38868 48473 57015 69902 83080 333 10332 555 91012;
0199680100999992000032212004-19180+015920FM-12+110099999V0200501N008212200019N0550001N1+02871+01881999999ADDAA199000091AY101061AY201061GF105991041091017501001061KA1999N+01861MD1010141+9999MW1171REMSYN082AAXX  22124 68010 31785 50516 10287 20188 3//// 4//// 50014 71700 84906 333 20186;EQDQ01  00002PRCP99
0233680100999992000032218004-19180+015920FM-12+110099999V0201301N002112200019N0750001N1+02441+01841999999ADDAA199000091AY121061AY211061GF104991021091017501081001KA1120M+02921MA1999999088771MD1510081+9999ME1314829MW1131REMSYN092AAXX  22184 68010 31789 41304 10244 20184 38877 48482 55008 71321 82980 333 10292 555 91013;EQDQ01  00002PRCP99
0205680100999992000032312004-19180+015920FM-12+110099999V0200501N003110450019N0750001N1+02521+02001999999ADDAA199000091GF106991031021017501061001KA1120N+01661MA1999999088921MD1810201+9999ME1314969REMSYN086AAXX  23124 68010 32789 60506 10252 20200 38892 48496 58020 83260 333 20166 555 91015;EQDQ01  00002PRCP99
0205680100999992000032318004-19180+015920FM-12+110099999V0201301N002112200019N0750001N1+02301+01971999999ADDAA199000091GF103991011091017501081001KA1120M+02621MA1999999088781MD1510071+9999ME1314829REMSYN086AAXX  23184 68010 32789 31304 10230 20197 38878 48482 55007 81980 333 10262 555 91013;EQDQ01  00002PRCP99
0245680100999992000032406004-19180+015920FM-12+110099999V0200901N003110450019N0750001N1+02121+01731999999ADDAA124003391AY121061AY221061GF105991031021017501091051KA1240M+02621KA2120N+01821MA1999999089001MD1310141+9999ME1315019MW1031REMSYN110AAXX  24064 68010 11789 50906 10212 20173 38900 48501 53014 60034 70322 83295 333 20182 555 10262 20033 91015;
0205680100999992000032412004-19180+015920FM-12+110099999V0200501N006212200019N0750001N1+02691+01991999999ADDAA199000091GF104991031021022501001051KA1120N+01941MA1999999088881MD1810201+9999ME1314949REMSYN086AAXX  24124 68010 32889 40512 10269 20199 38888 48494 58020 83205 333 20194 555 91014;EQDQ01  00002PRCP99
0220680100999992000032418004-19180+015920FM-12+110099999V0203101N002110450019N0650001N1+01991+01771999999ADDAA112001091AY191061AY261061GF108991021091017501081001KA1120M+02841MA1999999088931MD1510221+9999ME1314959MW1951REMSYN098AAXX  24184 68010 11787 83104 10199 20177 38893 48495 55022 60012 79596 82980 333 10284 555 91015;
0205680100999992000032512004-19180+015920FM-12+110099999V0200301N006212200019N0750001N1+02691+01941999999ADDAA199000091GF105991031021017501001061KA1120N+01721MA1999999088911MD1810121+9999ME1314969REMSYN086AAXX  25124 68010 32789 50312 10269 20194 38891 48496 58012 83206 333 20172 555 91014;EQDQ01  00002PRCP99
0233680100999992000032518004-19180+015920FM-12+110099999V0209999C000012200019N0750001N1+02591+02031999999ADDAA199000091AY111061AY201061GF104991021091022501091001KA1120M+02841MA1999999088781MD1510061+9999ME1314849MW1131REMSYN092AAXX  25184 68010 31889 40000 10259 20203 38878 48484 55006 71310 82990 333 10284 555 91013;EQDQ01  00002PRCP99
0245680100999992000032606004-19180+015920FM-12+110099999V0200901N001510042019N0300001N1+01931+01841999999ADDAA124022091AY191061AY261061GF107991071051004501001001KA1240M+02821KA2120N+01711MA1999999088941MD1310101+9999ME1314949MW1021REMSYN110AAXX  26064 68010 11480 70903 10193 20184 38894 48494 53010 60224 70296 87500 333 20171 555 10282 20220 91015;
0233680100999992000032612004-19180+015920FM-12+110099999V0200501N007210150019N0750001N1+02631+01981999999ADDAA199000091AY111061AY201061GF106991051091017501081001KA1120N+01741MA1999999088811MD1810181+9999ME1314869MW1151REMSYN092AAXX  26124 68010 31789 60514 10263 20198 38881 48486 58018 71510 85980 333 20174 555 91013;EQDQ01  00002PRCP99
0245680100999992000032706004-19180+015920FM-12+110099999V0209999C000012200019N0750001N1+02071+01951999999ADDAA124000391AY161061AY221061GF104991021051017501061061KA1240M+02681KA2120N+01801MA1999999088911MD1310121+9999ME1314929MW1021REMSYN110AAXX  27064 68010 11789 40000 10207 20195 38891 48492 53012 69934 70262 82566 333 20180 555 10268 20003 91014;
0205680100999992000032712004-19180+015920FM-12+110099999V0200501N005111050019N0750001N1+02791+02071999999ADDAA199000091GF105991031021012501001051KA1120N+01871MA1999999088751MD1810201+9999ME1314819REMSYN086AAXX  27124 68010 32689 50510 10279 20207 38875 48481 58020 83205 333 20187 555 91013;EQDQ01  00002PRCP99
0245680100999992000032806004-19180+015920FM-12+110099999V0200501N007210150019N0750001N1+01941+01821999999ADDAA124001891AY101061AY231061GF107991061071017501071001KA1240M+02881KA2120N+01761MA1999999089121MD1310221+9999ME1315139MW1151REMSYN110AAXX  28064 68010 11789 70514 10194 20182 38912 48513 53022 60024 71503 86770 333 20176 555 10288 20018 91017;
0205680100999992000032812004-19180+015920FM-12+110099999V0203601N001512200019N0750001N1+02671+01851999999ADDAA199000091GF104991021021012501001061KA1120N+01761MA1999999088881MD1010221+9999ME1314939REMSYN086AAXX  28124 68010 32689 43603 10267 20185 38888 48493 50022 82206 333 20176 555 91014;EQDQ01  00002PRCP99
0205680100999992000032818004-19180+015920FM-12+110099999V0209999C000012200019N0750001N1+02491+01941999999ADDAA199000091GF101991011041012501081001KA1120M+02771MA1999999088851MD1410001+9999ME1314909REMSYN086AAXX  28184 68010 32689 10000 10249 20194 38885 48490 54000 81480 333 10277 555 91014;EQDQ01  00002PRCP99
0240680100999992000032906004-19180+015920FM-12+110099999V0209999C000012200019N0750001N1+02091+01801999999ADDAA199000091GF103991999061022501001001KA1240M+02771KA2120N+01801MA1999999089071MD1310141+9999ME1315099REMSYN092AAXX  29064 68010 32889 30000 10209 20180 38907 48509 53014 82600 333 20180 555 10277 91016;EQDQ01+000022SCOTLCQ02  00002PRCP99
0166680100999992000032912004-19180+015920FM-12+110099999V0200501N006212200019N0750001N1+02871+01981999999ADDAA199000091GF103991999999017501999999KA1120N+01801REMSYN085AAXX  29124 68010 32789 30512 10287 20198 8902 48510 58019 83200 333 20180 555 91016;EQDQ01  00002PRCP99
0205680100999992000032918004-19180+015920FM-12+110099999V0201301N002112200019N0750001N1+02471+01891999999ADDAA199000091GF104991041031012501001001KA1120M+02981MA1999999089001MD1310101+9999ME1315069REMSYN086AAXX  29184 68010 32689 41304 10247 20189 38900 48506 53010 84300 333 10298 555 91015;EQDQ01  00002PRCP99
0217680100999992000033006004-19180+015920FM-12+110099999V0201301N002112200019N0750001N1+02081+01901999999ADDAA124000491GF104991011051017501061051KA1240M+02981KA2120N+01841MA1999999089201MD1310081+9999ME1315239REMSYN104AAXX  30064 68010 12789 41304 10208 20190 38920 48523 53008 69944 81565 333 20184 555 10298 20004 91018;
0205680100999992000033012004-19180+015920FM-12+110099999V0200501N003112200019N0750001N1+02901+01881999999ADDAA199000091GF103991011021022501061001KA1120N+01941MA1999999089021MD1810111+9999ME1315109REMSYN086AAXX  30124 68010 32889 30506 10290 20188 38902 48510 58011 81260 333 20194 555 91016;EQDQ01  00002PRCP99
0205680100999992000033112004-19180+015920FM-12+110099999V0200501N005112200019N0750001N1+02871+01961999999ADDAA199000091GF101991011021022501001001KA1120N+01851MA1999999088881MD1810191+9999ME1314969REMSYN086AAXX  31124 68010 32889 10510 10287 20196 38888 48496 58019 81200 333 20185 555 91014;EQDQ01  00002PRCP99
0233680100999992000033118004-19180+015920FM-12+110099999V0201301N004110450019N0750001N1+02581+01711999999ADDAA199000091AY121061AY221061GF108991021091012501081999KA1120M+03081MA1999999088881MD1310151+9999ME1314959MW1171REMSYN092AAXX  31184 68010 31689 81308 10258 20171 38888 48495 53015 71722 8298/ 333 10308 555 91014;EQDQ01  00002PRCP99
0217680100999992000040106004-19180+015920FM-12+110099999V0209999C000012200019N0750001N1+02001+01851999999ADDAA124001791GF103991011011022501041041KA1240M+02001KA2120N+01711MA1999999089011MD1410001+9999ME1314999REMSYN104AAXX  01064 68010 12889 30000 10200 20185 38901 48499 54000 60024 81144 333 20171 555 10200 20017 91016;
0205680100999992000040112004-19180+015920FM-12+110099999V0200501N004112200019N0750001N1+02661+01821999999ADDAA199000091GF103991011021017501081021KA1120N+01811MA1999999088991MD1810111+9999ME1315049REMSYN086AAXX  01124 68010 32789 30508 10266 20182 38899 48504 58011 81282 333 20181 555 91015;EQDQ01  00002PRCP99
0205680100999992000040118004-19180+015920FM-12+110099999V0209999C000012200019N0750001N1+02551+01961999999ADDAA199000091GF104991021041017501081001KA1120M+02771MA1999999088921MD1310041+9999ME1314989REMSYN086AAXX  01184 68010 32789 40000 10255 20196 38892 48498 53004 82480 333 10277 555 91015;EQDQ01  00002PRCP99
0224680100999992000040206004-19180+015920FM-12+110099999V0200901N002110450019N0750001N1+02121+01911999999ADDAA199000091GF107991011051012501081001KA1240M+02771KA2120N+01801MA1999999089141MD1310081+9999ME1315169REMSYN092AAXX  02064 68010 32689 70904 10212 20191 38914 48516 53008 81580 333 20180 555 10277 91017;EQDQ01  00002PRCP99
0205680100999992000040212004-19180+015920FM-12+110099999V0200501N006212200019N0750001N1+02811+01891999999ADDAA199000091GF103991031021017501001001KA1120N+02001MA1999999089091MD1810141+9999ME1315169REMSYN086AAXX  02124 68010 32789 30512 10281 20189 38909 48516 58014 83200 333 20200 555 91016;EQDQ01  00002PRCP99
0233680100999992000040218004-19180+015920FM-12+110099999V0209999C000012200019N0750001N1+02541+01951999999ADDAA199000091AY121061AY201061GF104991011091017501071031KA1120M+02931MA1999999089111MD1510171+9999ME1315189MW1131REMSYN092AAXX  02184 68010 31789 40000 10254 20195 38911 48518 55017 71320 81973 333 10293 555 91017;EQDQ01  00002PRCP99
0224680100999992000040306004-19180+015920FM-12+110099999V0201301N001512200019N0090001N1+02001+01801999999ADDAA199000091GF104991031001008001081061KA1240M+02931KA2120N+01771MA1999999089261MD1310081+9999ME1315289REMSYN092AAXX  03064 68010 32559 41303 10200 20180 38926 48528 53008 83086 333 20177 555 10293 91018;EQDQ01  00002PRCP99
0233680100999992000040312004-19180+015920FM-12+110099999V0200501N005112200019N0750001N1+02841+01941999999ADDAA199000091AY111061AY201061GF104991031091017501081051KA1120N+01821MA1999999089131MD1810201+9999ME1315229MW1171REMSYN092AAXX  03124 68010 31789 40510 10284 20194 38913 48522 58020 71710 83985 333 20182 555 91017;EQDQ01  00002PRCP99
0233680100999992000040418004-19180+015920FM-12+110099999V0209999C000010450019N0650001N1+01941+01661999999ADDAA199000091AY191061AY221061GF106991031091012501081001KA1120M+02841MA1999999089191MD1510121+9999ME1315219MW1131REMSYN092AAXX  04184 68010 31687 60000 10194 20166 38919 48521 55012 71392 83980 333 10284 555 91018;EQDQ01  00002PRCP99
0217680100999992000040506004-19180+015920FM-12+110099999V0201801N002112200019N0750001N1+01821+01391999999ADDAA124001091GF104991011041017501031001KA1240M+02841KA2120N+01641MA1999999089281MD1310151+9999ME1315289REMSYN104AAXX  05064 68010 12789 41804 10182 20139 38928 48528 53015 60014 81430 333 20164 555 10284 20010 91019;
0205680100999992000040512004-19180+015920FM-12+110099999V0200501N002112200019N0750001N1+02621+01591999999ADDAA199000091GF101991001001999999001021KA1120N+01621MA1999999089181MD1010141+9999ME1315249REMSYN086AAXX  05124 68010 32989 10504 10262 20159 38918 48524 50014 80002 333 20162 555 91017;EQDQ01  00002PRCP99
0205680100999992000040518004-19180+015920FM-12+110099999V0209999C000012200019N0750001N1+02391+01681999999ADDAA199000091GF102991021001999999081001KA1120M+02761MA1999999088961MD1610181+9999ME1315009REMSYN086AAXX  05184 68010 32989 20000 10239 20168 38896 48500 56018 82080 333 10276 555 91015;EQDQ01  00002PRCP99
0224680100999992000040606004-19180+015920FM-12+110099999V0202301N001512200019N0750001N1+01761+01521999999ADDAA199000091GF104991021001999999081061KA1240M+02761KA2120N+01521MA1999999089121MD1310081+9999ME1315109REMSYN092AAXX  06064 68010 32989 42303 10176 20152 38912 48510 53008 82086 333 20152 555 10276 91017;EQDQ01  00002PRCP99
0205680100999992000040612004-19180+015920FM-12+110099999V0200501N005119999999N0750001N1+02561+01281999999ADDAA199000091GF105991021001999999011081KA1120N+01561MA1999999089161MD1010101+9999ME1315219REMSYN086AAXX  06124 68010 32989 50510 10256 20128 38916 48521 50010 82018 333 20156 555 91017;EQDQ01  00002PRCP99
0205680100999992000040618004-19180+015920FM-12+110099999V0209999C000019999999N0750001N1+02271+01761999999ADDAA199000091GF105991041001999999081021KA1120M+02641MA1999999089051MD1610201+9999ME1315089REMSYN086AAXX  06184 68010 32989 50000 10227 20176 38905 48508 56020 84082 333 10264 555 91016;EQDQ01  00002PRCP99
0205680100999992000040712004-19180+015920FM-12+110099999V0202301N006212200019N0750001N1+02351+01041999999ADDAA199000091GF104991011041022501031001KA1120N+01431MA1999999089281MD1810151+9999ME1315319REMSYN086AAXX  07124 68010 32889 42312 10235 20104 38928 48531 58015 81430 333 20143 555 91019;EQDQ01  00002PRCP99
0205680100999992000040718004-19180+015920FM-12+110099999V0209999C000012200019N0750001N1+02231+01401999999ADDAA199000091GF103991021001999999081021KA1120M+02511MA1999999089131MD1510051+9999ME1315159REMSYN086AAXX  07184 68010 32989 30000 10223 20140 38913 48515 55005 82082 333 10251 555 91017;EQDQ01  00002PRCP99
0224680100999992000040806004-19180+015920FM-12+110099999V0201301N002112200019N0750001N1+01761+01271999999ADDAA199000091GF103991021001999999081021KA1240M+02511KA2120N+01521MA1999999089861MD1310141+9999ME1315859REMSYN092AAXX  08064 68010 32989 31304 10176 20127 38986 48585 53014 82082 333 20152 555 10251 91025;EQDQ01  00002PRCP99
0205680100999992000040812004-19180+015920FM-12+110099999V0202901N005112200019N0750001N1+02741+01361999999ADDAA199000091GF103991011011022501031051KA1120N+01571MA1999999089121MD1010201+9999ME1315199REMSYN086AAXX  08124 68010 32889 32910 10274 20136 38912 48519 50020 81135 333 20157 555 91017;EQDQ01  00002PRCP99
0224680100999992000040906004-19180+015920FM-12+110099999V0209999C000012200019N0750001N1+01771+01241999999ADDAA199000091GF101991001001999999001021KA1240M+02801KA2120N+01351MA1999999089291MD1310061+9999ME1315269REMSYN092AAXX  09064 68010 32989 10000 10177 20124 38929 48526 53006 80002 333 20135 555 10280 91019;EQDQ01  00002PRCP99
0205680100999992000040912004-19180+015920FM-12+110099999V0200501N006212200019N0750001N1+02561+01341999999ADDAA199000091GF101991001001999999001061KA1120N+01351MA1999999089151MD1810121+9999ME1315209REMSYN086AAXX  09124 68010 32989 10512 10256 20134 38915 48520 58012 80006 333 20135 555 91017;EQDQ01  00002PRCP99
0224680100999992000041006004-19180+015920FM-12+110099999V0201301N002112200019N0750001N1+01821+01221999999ADDAA199000091GF104991041001999999081001KA1240M+02861KA2120N+01481MA1999999089241MD1310121+9999ME1315229REMSYN092AAXX  10064 68010 32989 41304 10182 20122 38924 48522 53012 84080 333 20148 555 10286 91018;EQDQ01  00002PRCP99
0205680100999992000041012004-19180+015920FM-12+110099999V0200501N006212200019N0750001N1+02761+01371999999ADDAA199000091GF103991031001999999081001KA1120N+01481MA1999999089111MD1810121+9999ME1315189REMSYN086AAXX  10124 68010 32989 30512 10276 20137 38911 48518 58012 83080 333 20148 555 91017;EQDQ01  00002PRCP99
0205680100999992000041018004-19180+015920FM-12+110099999V0209999C000012200019N0750001N1+02391+01331999999ADDAA199000091GF101991011001999999081001KA1120M+02881MA1999999089091MD1510081+9999ME1315139REMSYN086AAXX  10184 68010 32989 10000 10239 20133 38909 48513 55008 81080 333 10288 555 91016;EQDQ01  00002PRCP99
0224680100999992000041106004-19180+015920FM-12+110099999V0201301N001512200019N0750001N1+01681+01181999999ADDAA199000091GF101991011001999999081001KA1240M+02881KA2120N+01361MA1999999089221MD1310101+9999ME1315199REMSYN092AAXX  11064 68010 32989 11303 10168 20118 38922 48519 53010 81080 333 20136 555 10288 91018;EQDQ01  00002PRCP99
0215680100999992000041118004-19180+015920FM-12+110099999V0209999C000012200019N0750001N1+02371+01301999999ADDAA199000091GA1001+999999999GF100991001001999999001001KA1120M+02921MA1999999089031MD1510081+9999ME1315069REMSYN080AAXX  11184 68010 32989 00000 10237 20130 38903 48506 55008 333 10292 555 91016;EQDQ01  00002PRCP99
0224680100999992000041206004-19180+015920FM-12+110099999V0201301N001512200019N0750001N1+01741+01191999999ADDAA199000091GF101991011001999999031001KA1240M+02921KA2120N+01361MA1999999089181MD1310111+9999ME1315179REMSYN092AAXX  12064 68010 32989 11303 10174 20119 38918 48517 53011 81030 333 20136 555 10292 91017;EQDQ01  00002PRCP99
0205680100999992000041212004-19180+015920FM-12+110099999V0200501N006212200019N0750001N1+02821+01151999999ADDAA199000091GF101991011001999999081001KA1120N+01361MA1999999089011MD1810181+9999ME1315109REMSYN086AAXX  12124 68010 32989 10512 10282 20115 38901 48510 58018 81080 333 20136 555 91016;EQDQ01  00002PRCP99
0234680100999992000041306004-19180+015920FM-12+110099999V0201301N002112200019N0750001N1+01861+01291999999ADDAA199000091GA1001+999999999GF100991001001999999001001KA1240M+02981KA2120N+01461MA1999999089151MD1310141+9999ME1315159REMSYN086AAXX  13064 68010 32989 01304 10186 20129 38915 48515 53014 333 20146 555 10298 91017;EQDQ01  00002PRCP99
0233680100999992000041318004-19180+015920FM-12+110099999V0209999C000012200019N0750001N1+02481+01501999999ADDAA199000091AY101061AY201061GF101991011091022501001001KA1120M+03061MA1999999088961MD1510061+9999ME1315019MW1131REMSYN092AAXX  13184 68010 31889 10000 10248 20150 38896 48501 55006 71300 81900 333 10306 555 91015;EQDQ01  00002PRCP99
0224680100999992000041406004-19180+015920FM-12+110099999V0202801N002112200019N0750001N1+01651+01361999999ADDAA199000091GF101991011051022501001001KA1240M+03061KA2120N+01381MA1999999089171MD1310141+9999ME1315169REMSYN092AAXX  14064 68010 32889 12804 10165 20136 38917 48516 53014 81500 333 20138 555 10306 91017;EQDQ01  00002PRCP99
0237680100999992000041418004-19180+015920FM-12+110099999V0209999C000010450019N0650001N1+01951+01751999999ADDAA112030091AA224030291AY191061AY221061GF105991021091008001081001KA1120M+02971MA1999999089091MD1610151+9999ME1315069MW1131REMSYN104AAXX  14184 68010 11587 50000 10195 20175 38909 48506 56015 60302 71392 82980 333 10297 555 20302 91016;
0217680100999992000041506004-19180+015920FM-12+110099999V0209999C000012200019N0750001N1+01701+01571999999ADDAA124034491GF101991011001999999031001KA1240M+02971KA2120N+01371MA1999999089151MD1310071+9999ME1315149REMSYN104AAXX  15064 68010 12989 10000 10170 20157 38915 48514 53007 60344 81030 333 20137 555 10297 20344 91017;
0205680100999992000041512004-19180+015920FM-12+110099999V0200501N002112200019N0750001N1+02681+01741999999ADDAA199000091GF103991031021017501001001KA1120N+01511MA1999999089031MD1810201+9999ME1315109REMSYN086AAXX  15124 68010 32789 30504 10268 20174 38903 48510 58020 83200 333 20151 555 91016;EQDQ01  00002PRCP99
0192680100999992000041612004-19180+015920FM-12+110099999V0200501N003112200019N0750001N1+02951+01581999999ADDAA199000091GF104991041021017501001001MA1999999089101MD1810181+9999ME1315129REMSYN086AAXX  16124 68010 32789 40506 10295 20158 38910 48512 58018 84200 333 20/// 555 91017;EQDQ01  00002PRCP99
0205680100999992000041618004-19180+015920FM-12+110099999V0200201N026712200019N0000001N1+03021+01281999999ADDAA199000091GF101991011041000251081001KA1120M+03021MA1999999088971MD1510061+9999ME1315049REMSYN086AAXX  16184 68010 3/000 10252 10302 20128 38897 48504 55006 81480 333 10302 555 91015;EQDQ01  00002PRCP99
0224680100999992000041706004-19180+015920FM-12+110099999V0201301N001512200019N0750001N1+02021+01611999999ADDAA199000091GF104991031041022501031001KA1240M+03021KA2120N+01841MA1999999089251MD1310141+9999ME1315269REMSYN092AAXX  17064 68010 32889 41303 10202 20161 38925 48526 53014 83430 333 20184 555 10302 91018;EQDQ01  00002PRCP99
0205680100999992000041712004-19180+015920FM-12+110099999V0200501N005112200019N0750001N1+02921+01601999999ADDAA199000091GF101991011011017501001001KA1120N+01841MA1999999089091MD1810201+9999ME1315199REMSYN086AAXX  17124 68010 32789 10510 10292 20160 38909 48519 58020 81100 333 20184 555 91016;EQDQ01  00002PRCP99
0233680100999992000041718004-19180+015920FM-12+110099999V0209999C000012200019N0750001N1+02581+01791999999ADDAA199000091AY101061AY201061GF103991011091017501081001KA1120M+03081MA1999999088971MD1510041+9999ME1315039MW1131REMSYN092AAXX  17184 68010 31789 30000 10258 20179 38897 48503 55004 71300 81980 333 10308 555 91015;EQDQ01  00002PRCP99
0224680100999992000041806004-19180+015920FM-12+110099999V0209999C000012200019N0650001N1+01881+01491999999ADDAA199000091GF103991011051008001081001KA1240M+03081KA2120N+01711MA1999999089241MD1310141+9999ME1315259REMSYN092AAXX  18064 68010 32587 30000 10188 20149 38924 48525 53014 81580 333 20171 555 10308 91018;EQDQ01  00002PRCP99
0205680100999992000041812004-19180+015920FM-12+110099999V0200501N006210450019N0750001N1+02741+01501999999ADDAA199000091GF106991031021022501061001KA1120N+01791MA1999999089141MD1010181+9999ME1315229REMSYN086AAXX  18124 68010 32889 60512 10274 20150 38914 48522 50018 83260 333 20179 555 91017;EQDQ01  00002PRCP99
0217680100999992000041906004-19180+015920FM-12+110099999V0200901N006212200019N0750001N1+01801+01521999999ADDAA124001491GF102991021001999999061001KA1240M+02991KA2120N+01551MA1999999089221MD1210091+9999ME1315229REMSYN104AAXX  19064 68010 12989 20912 10180 20152 38922 48522 52009 60014 82060 333 20155 555 10299 20014 91018;
0233680100999992000041912004-19180+015920FM-12+110099999V0200501N003112200019N0750001N1+02211+01411999999ADDAA199000091AY101061AY261061GF104991041091017501001001KA1120N+01551MA1999999089201MD1810081+9999ME1315209MW1151REMSYN092AAXX  19124 68010 31789 40506 10221 20141 38920 48520 58008 71506 84900 333 20155 555 91018;EQDQ01  00002PRCP99
0237680100999992000041918004-19180+015920FM-12+110099999V0202701N008210450019N0750001N1+01991+01251999999ADDAA112001091AA224001091AY121061AY221061GF106991021091017501081001KA1120M+02661MA1999999089111MD1510181+9999ME1315089MW1201REMSYN104AAXX  19184 68010 11789 62716 10199 20125 38911 48508 55018 60012 72022 82980 333 10266 555 20010 91017;
0217680100999992000042006004-19180+015920FM-12+110099999V0209999C000012200019N0750001N1+01461+01361999999ADDAA124008591GF101991011001999999081001KA1240M+02661KA2120N+01201MA1999999089281MD1410001+9999ME1315259REMSYN104AAXX  20064 68010 12989 10000 10146 20136 38928 48525 54005 60084 81080 333 20120 555 10266 20085 91019;
0234680100999992000042018004-19180+015920FM-12+110099999V0209999C000012200019N0750001N1+02191+01731999999ADDAA199000091GA1001+999999999GF100991001001999999001001KA1120M+02621KA2120N+00001MA1999999089041MD1510041+9999ME1315009REMSYN086AAXX  20184 68010 32989 00000 10219 20173 38904 48500 55004 333 10262 20000 555 91016;EQDQ01  00002PRCP99
0205680100999992000042112004-19180+015920FM-12+110099999V0200501N001512200019N0750001N1+02741+00861999999ADDAA199000091GF101991011021017501001001KA1120N+01441MA1999999089251MD1810201+9999ME1315339REMSYN086AAXX  21124 68010 32789 10503 10274 20086 38925 48533 58020 81200 333 20144 555 91018;EQDQ01  00002PRCP99
0224680100999992000042206004-19180+015920FM-12+110099999V0209999C000012200019N0750001N1+01421+00941999999ADDAA199000091GF101991011001999999081001KA1240M+02821KA2120N+01081MA1999999089391MD1310081+9999ME1315399REMSYN092AAXX  22064 68010 32989 10000 10142 20094 38939 48539 53008 81080 333 20108 555 10282 91020;EQDQ01  00002PRCP99
0224680100999992000042306004-19180+015920FM-12+110099999V0209999C000012200019N0750001N1+01531+00861999999ADDAA199000091GF101991011001999999031001KA1240M+02951KA2120N+00991MA1999999089391MD1310101+9999ME1315409REMSYN092AAXX  23064 68010 32989 10000 10153 20086 38939 48540 53010 81030 333 20099 555 10295 91020;EQDQ01  00002PRCP99
0205680100999992000042312004-19180+015920FM-12+110099999V0200501N002112200019N0750001N1+02921+01181999999ADDAA199000091GF102991021021017501001001KA1120N+01341MA1999999089201MD1810151+9999ME1315309REMSYN086AAXX  23124 68010 32789 20504 10292 20118 38920 48530 58015 82200 333 20134 555 91018;EQDQ01  00002PRCP99
0205680100999992000042318004-19180+015920FM-12+110099999V0209999C000012200019N0750001N1+02921+01181999999ADDAA199000091GF101991011001999999081001KA1120M+03421MA1999999089141MD1510051+9999ME1315249REMSYN086AAXX  23184 68010 32989 10000 10292 20118 38914 48524 55005 81080 333 10342 555 91017;EQDQ01  00002PRCP99
0224680100999992000042406004-19180+015920FM-12+110099999V0202301N001512200019N0750001N1+01391+00911999999ADDAA199000091GF101991011001999999031001KA1240M+03421KA2120N+01051MA1999999089301MD1310101+9999ME1315329REMSYN092AAXX  24064 68010 32989 12303 10139 20091 38930 48532 53010 81030 333 20105 555 10342 91019;EQDQ01  00002PRCP99
0215680100999992000042418004-19180+015920FM-12+110099999V0201301N002112200019N0750001N1+02431+00931999999ADDAA199000091GA1001+999999999GF100991001001999999001001KA1120M+03021MA1999999089161MD1510061+9999ME1315199REMSYN080AAXX  24184 68010 32989 01304 10243 20093 38916 48519 55006 333 10302 555 91017;EQDQ01  00002PRCP99
0215680100999992000042506004-19180+015920FM-12+110099999V0202301N002112200019N0750001N1+01591+00911999999ADDAA199000091GA1001+999999999GF100991001001999999001001KA1240M+03021MA1999999089361MD1310171+9999ME1315279REMSYN080AAXX  25064 68010 32989 02304 10159 20091 38936 48527 53017 333 555 10302 91019;EQDQ01  00002PRCP99
0196680100999992000042512004-19180+015920FM-12+110099999V0209999C000012200019N0750001N1+02941+00721999999ADDAA199000091GA1001+999999999GF100991001001999999001001MA1999999089171MD1810151+9999ME1315289REMSYN074AAXX  25124 68010 32989 00000 10294 20072 38917 48528 58015 333 555 91017;EQDQ01  00002PRCP99
0234680100999992000042606004-19180+015920FM-12+110099999V0209999C000012200019N0750001N1+01441+00921999999ADDAA199000091GA1001+999999999GF100991001001999999001001KA1240M+02991KA2120N+01221MA1999999089261MD1310201+9999ME1315259REMSYN086AAXX  26064 68010 32989 00000 10144 20092 38926 48525 53020 333 20122 555 10299 91018;EQDQ01  00002PRCP99
0215680100999992000042612004-19180+015920FM-12+110099999V0200501N006212200019N0750001N1+02881+00911999999ADDAA199000091GA1001+999999999GF100991001001999999001001KA1120N+01221MA1999999089201MD1810171+9999ME1315309REMSYN080AAXX  26124 68010 32989 00512 10288 20091 38920 48530 58017 333 20122 555 91018;EQDQ01  00002PRCP99
0215680100999992000042618004-19180+015920FM-12+110099999V0209999C000012200019N0750001N1+02241+01241999999ADDAA199000091GA1001+999999999GF100991001001999999001001KA1120M+03001MA1999999089121MD1510071+9999ME1315139REMSYN080AAXX  26184 68010 32989 00000 10224 20124 38912 48513 55007 333 10300 555 91017;EQDQ01  00002PRCP99
0234680100999992000042706004-19180+015920FM-12+110099999V0209999C000012200019N0750001N1+01671+00921999999ADDAA199000091GA1001+999999999GF100991001001999999001001KA1240M+03001KA2120N+01421MA1999999089281MD1310121+9999ME1315289REMSYN086AAXX  27064 68010 32989 00000 10167 20092 38928 48528 53012 333 20142 555 10300 91019;EQDQ01  00002PRCP99
0205680100999992000042718004-19180+015920FM-12+110099999V0209999C000012200019N0750001N1+02441+01031999999ADDAA199000091GF101991011001999999081001KA1120M+03111MA1999999089111MD1510061+9999ME1315159REMSYN086AAXX  27184 68010 32989 10000 10244 20103 38911 48515 55006 81080 333 10311 555 91017;EQDQ01  00002PRCP99
0224680100999992000042806004-19180+015920FM-12+110099999V0209999C000012200019N0750001N1+01561+01271999999ADDAA199000091GF102991021011022501001001KA1240M+03131KA2120N+01601MA1999999089291MD1310151+9999ME1315279REMSYN092AAXX  28064 68010 32889 20000 10156 20127 38929 48527 53015 82100 333 20160 555 10313 91019;EQDQ01  00002PRCP99
0214680100999992000042812004-19180+015920FM-12+110099999V0200501N005112200019N0750001N1+03001+01001999999ADDAA199000091AY101061AY201061GF101991011021017501001001MA1999999089221MD1810161+9999ME1315339MW1051REMSYN086AAXX  28124 68010 31789 10510 10300 20100 38922 48533 58016 70500 81200 333 555 91018;EQDQ01  00002PRCP99
0205680100999992000042818004-19180+015920FM-12+110099999V0209999C000012200019N0750001N1+02391+01161999999ADDAA199000091GF101991011001999999081001KA1120M+03091MA1999999089171MD1510061+9999ME1315209REMSYN086AAXX  28184 68010 32989 10000 10239 20116 38917 48520 55006 81080 333 10309 555 91017;EQDQ01  00002PRCP99
0224680100999992000042906004-19180+015920FM-12+110099999V0209999C000012200019N0750001N1+01501+00951999999ADDAA199000091GF102991021001999999081001KA1240M+03091KA2120N+01401MA1999999089401MD1310171+9999ME1315409REMSYN092AAXX  29064 68010 32989 20000 10150 20095 38940 48540 53017 82080 333 20140 555 10309 91020;EQDQ01  00002PRCP99
0202680100999992000042912004-19180+015920FM-12+110099999V0200501N005112200019N0750001N1+03001+99999999999ADDAA199000091GF101991011021017501001001MA1999999089291MD1810181+9999ME1315409REMSYN080AAXX  29124 68010 32789 10510 10300 21124 38929 48540 58018 81200 333 555 91019;EQDQ01-001243ATOD  Q02  00002PRCP99
0215680100999992000042918004-19180+015920FM-12+110099999V0209999C000012200019N0750001N1+02241+00821999999ADDAA199000091GA1001+999999999GF100991001001999999001001KA1120M+03081MA1999999089241MD1510081+9999ME1315259REMSYN080AAXX  29184 68010 32989 00000 10224 20082 38924 48525 55008 333 10308 555 91018;EQDQ01  00002PRCP99
0224680100999992000043006004-19180+015920FM-12+110099999V0209999C000012200019N0750001N1+01521+01071999999ADDAA199000091GF101991011001999999031001KA1240M+03081KA2120N+01461MA1999999089481MD1310181+9999ME1315479REMSYN092AAXX  30064 68010 32989 10000 10152 20107 38948 48547 53018 81030 333 20146 555 10308 91021;EQDQ01  00002PRCP99
0205680100999992000043012004-19180+015920FM-12+110099999V0200501N005112200019N0750001N1+02931+01351999999ADDAA199000091GF102991021021022501001001KA1120N+01531MA1999999089371MD1810171+9999ME1315479REMSYN086AAXX  30124 68010 32889 20510 10293 20135 38937 48547 58017 82200 333 20153 555 91020;EQDQ01  00002PRCP99
0233680100999992000043018004-19180+015920FM-12+110099999V0209999C000012200019N0750001N1+02441+01371999999ADDAA199000091AY121061AY221061GF101991011091022501001001KA1120M+03021MA1999999089301MD1510091+9999ME1315339MW1131REMSYN092AAXX  30184 68010 31889 10000 10244 20137 38930 48533 55009 71322 81900 333 10302 555 91019;EQDQ01  00002PRCP99
0217680100999992000050106004-19180+015920FM-12+110099999V0209999C000012200019N0750001N1+01641+01191999999ADDAA124000091GF102991021001999999081001KA1240M+03021KA2120N+01571MA1999999089441MD1310151+9999ME1315439REMSYN104AAXX  01064 68010 12989 20000 10164 20119 38944 48543 53015 69904 82080 333 20157 555 10302 20000 91020;
0205680100999992000050112004-19180+015920FM-12+110099999V0200501N006212200019N0750001N1+02851+01081999999ADDAA199000091GF102991021021017501001081KA1120N+01631MA1999999089211MD1810241+9999ME1315309REMSYN086AAXX  01124 68010 32789 20512 10285 20108 38921 48530 58024 82208 333 20163 555 91018;EQDQ01  00002PRCP99
0252680100999992000050118004-19180+015920FM-12+110099999V0209999C000012200019N0750001N1+02341+01221999999ADDAA199000091AY121061AY221061GF103991011091022501031001KA1120M+02941KA2120N+00001MA1999999089101MD1510071+9999ME1315109MW1131REMSYN098AAXX  01184 68010 31889 30000 10234 20122 38910 48510 55007 71322 81930 333 10294 20000 555 91017;EQDQ01  00002PRCP99
0205680100999992000050212004-19180+015920FM-12+110099999V0200501N007212200019N0750001N1+02641+01071999999ADDAA199000091GF104991021031017501031001KA1120N+01841MA1999999089141MD1810201+9999ME1315209REMSYN086AAXX  02124 68010 32789 40514 10264 20107 38914 48520 58020 82330 333 20184 555 91017;EQDQ01  00002PRCP99
0205680100999992000050218004-19180+015920FM-12+110099999V0209999C000012200019N0750001N1+02251+01371999999ADDAA199000091GF101991011001999999081001KA1120M+02771MA1999999089071MD1510091+9999ME1315089REMSYN086AAXX  02184 68010 32989 10000 10225 20137 38907 48508 55009 81080 333 10277 555 91016;EQDQ01  00002PRCP99
0224680100999992000050306004-19180+015920FM-12+110099999V0209999C000012200019N0750001N1+01341+00971999999ADDAA199000091GF102991021001999999061001KA1240M+02771KA2120N+01271MA1999999089271MD1310101+9999ME1315239REMSYN092AAXX  03064 68010 32989 20000 10134 20097 38927 48523 53010 82060 333 20127 555 10277 91018;EQDQ01  00002PRCP99
0205680100999992000050312004-19180+015920FM-12+110099999V0203601N004112200019N0750001N1+02931+00781999999ADDAA199000091GF101991011011999999001001KA1120N+01351MA1999999089141MD1810171+9999ME1315249REMSYN086AAXX  03124 68010 32989 13608 10293 20078 38914 48524 58017 81100 333 20135 555 91017;EQDQ01  00002PRCP99
0233680100999992000050318004-19180+015920FM-12+110099999V0209999C000012200019N0750001N1+02291+01201999999ADDAA199000091AY101061AY201061GF102991011091022501081001KA1120M+02951MA1999999089051MD1510071+9999ME1315079MW1131REMSYN092AAXX  03184 68010 31889 20000 10229 20120 38905 48507 55007 71300 81980 333 10295 555 91016;EQDQ01  00002PRCP99
0224680100999992000050406004-19180+015920FM-12+110099999V0209999C000012200019N0750001N1+01251+00521999999ADDAA199000091GF101991011001999999081001KA1240M+02951KA2120N+01141MA1999999089311MD1310121+9999ME1315319REMSYN092AAXX  04064 68010 32989 10000 10125 20052 38931 48531 53012 81080 333 20114 555 10295 91019;EQDQ01  00002PRCP99
0205680100999992000050412004-19180+015920FM-12+110099999V0200501N002112200019N0750001N1+02861+00741999999ADDAA199000091GF101991011001999999031001KA1120N+01251MA1999999089161MD1810131+9999ME1315259REMSYN086AAXX  04124 68010 32989 10504 10286 20074 38916 48525 58013 81030 333 20125 555 91017;EQDQ01  00002PRCP99
0234680100999992000050506004-19180+015920FM-12+110099999V0209999C000012200019N0750001N1+01181+00461999999ADDAA199000091GA1001+999999999GF100991001001999999001001KA1240M+02881KA2120N+01011MA1999999089151MD1310021+9999ME1315139REMSYN086AAXX  05064 68010 32989 00000 10118 20046 38915 48513 53002 333 20101 555 10288 91017;EQDQ01  00002PRCP99
0201680100999992000050512004-19180+015920FM-12+110099999V0209999C000012200019N0750001N1+02801+00501999999ADDAA199000091GA1001+999999999GF100991001001999999001001KA1120N+01011MA1999999089021ME1315119REMSYN080AAXX  05124 68010 32989 00000 10280 20050 38902 48511 59019 333 20101 555 91016;EQDQ01  00002PRCP99
0215680100999992000050518004-19180+015920FM-12+110099999V0209999C000012200019N0750001N1+02181+00601999999ADDAA199000091GA1001+999999999GF100991001001999999001001KA1120M+03021MA1999999088951MD1510071+9999ME1314969REMSYN080AAXX  05184 68010 32989 00000 10218 20060 38895 48496 55007 333 10302 555 91015;EQDQ01  00002PRCP99
0234680100999992000050606004-19180+015920FM-12+110099999V0201301N002112200019N0750001N1+01341+00611999999ADDAA199000091GA1001+999999999GF100991001001999999001001KA1240M+03021KA2120N+01221MA1999999089101MD1310071+9999ME1315099REMSYN086AAXX  06064 68010 32989 01304 10134 20061 38910 48509 53007 333 20122 555 10302 91017;EQDQ01  00002PRCP99
0205680100999992000050612004-19180+015920FM-12+110099999V0200501N005112200019N0750001N1+03011+00731999999ADDAA199000091GF102991021021017501001001KA1120N+01361MA1999999088991MD1810181+9999ME1315119REMSYN086AAXX  06124 68010 32789 20510 10301 20073 38899 48511 58018 82200 333 20136 555 91015;EQDQ01  00002PRCP99
0205680100999992000050618004-19180+015920FM-12+110099999V0200501N001512200019N0750001N1+02381+00731999999ADDAA199000091GF101991011001999999081001KA1120M+03081MA1999999088941MD1510101+9999ME1314979REMSYN086AAXX  06184 68010 32989 10503 10238 20073 38894 48497 55010 81080 333 10308 555 91015;EQDQ01  00002PRCP99
0224680100999992000050706004-19180+015920FM-12+110099999V0201301N002112200019N0750001N1+99999+99999999999ADDAA199000091GF102991021001999999081001KA1240M+03081KA2120N+01391MA1999999089251MD1310151+9999ME1315249REMSYN092AAXX  07064 68010 32989 21304 19154 20092 38925 48524 53015 82080 333 20139 555 10308 91018;EQDQ01  00002PRCP99
0205680100999992000050712004-19180+015920FM-12+110099999V0200201N007212200019N0750001N1+02901+01151999999ADDAA199000091GF104991041021022501081001KA1120N+01391MA1999999089161MD1810131+9999ME1315269REMSYN086AAXX  07124 68010 32889 40214 10290 20115 38916 48526 58013 84280 333 20139 555 91017;EQDQ01  00002PRCP99
0237680100999992000050718004-19180+015920FM-12+110099999V0209999C000012200019N0750001N1+02181+01301999999ADDAA112000792AA224000092AY191061AY221061GF102991011091017501081001KA1120M+02941MA1999999089111MD1510101+9999ME1315119MW1131REMSYN104AAXX  07184 68010 11789 20000 10218 20130 38911 48511 55010 69902 71392 81980 333 10294 555 20000 91017;
0217680100999992000050806004-19180+015920FM-12+110099999V0200301N005112200019N0750001N1+01651+01431999999ADDAA124002491GF104991041051022501001001KA1240M+02941KA2120N+01551MA1999999089301MD1310071+9999ME1315259REMSYN104AAXX  08064 68010 12889 40310 10165 20143 38930 48525 53007 60024 84500 333 20155 555 10294 20024 91019;
0205680100999992000050812004-19180+015920FM-12+110099999V0200501N005112200019N0750001N1+02661+01121999999ADDAA199000091GF101991011011017501001001KA1120N+01651MA1999999089321MD1010141+9999ME1315389REMSYN086AAXX  08124 68010 32789 10510 10266 20112 38932 48538 50014 81100 333 20165 555 91019;EQDQ01  00002PRCP99
0233680100999992000050818004-19180+015920FM-12+110099999V0200901N001512200019N0750001N1+02041+01091999999ADDAA199000091AY101061AY201061GF101991011091012501081001KA1120M+02711MA1999999089261MD1510141+9999ME1315269MW1131REMSYN092AAXX  08184 68010 31689 10903 10204 20109 38926 48526 55014 71300 81980 333 10271 555 91018;EQDQ01  00002PRCP99
0215680100999992000050912004-19180+015920FM-12+110099999V0200501N006212200019N0750001N1+02691+00681999999ADDAA199000091GA1001+999999999GF100991001001999999001001KA1120N+01291MA1999999089471MD1810091+9999ME1315549REMSYN080AAXX  09124 68010 32989 00512 10269 20068 38947 48554 58009 333 20129 555 91021;EQDQ01  00002PRCP99
0205680100999992000050918004-19180+015920FM-12+110099999V0209999C000012200019N0750001N1+02321+00861999999ADDAA199000091GF102991011041017501081001KA1120M+02841MA1999999089291MD1510131+9999ME1315319REMSYN086AAXX  09184 68010 32789 20000 10232 20086 38929 48531 55013 81480 333 10284 555 91019;EQDQ01  00002PRCP99
0234680100999992000051006004-19180+015920FM-12+110099999V0209999C000012200019N0750001N1+01721-00561999999ADDAA199000091GA1001+999999999GF100991001001999999001001KA1240M+02841KA2120N+00901MA1999999089571MD1310121+9999ME1315649REMSYN086AAXX  10064 68010 32989 00000 10172 21056 38957 48564 53012 333 20090 555 10284 91022;EQDQ01  00002PRCP99
0215680100999992000051012004-19180+015920FM-12+110099999V0200501N007212200019N0750001N1+02541+00441999999ADDAA199000091GA1001+999999999GF100991001001999999001001KA1120N+00901MA1999999089361MD1810231+9999ME1315419REMSYN080AAXX  10124 68010 32989 00514 10254 20044 38936 48541 58023 333 20090 555 91019;EQDQ01  00002PRCP99
0215680100999992000051018004-19180+015920FM-12+110099999V0209999C000012200019N0750001N1+02091+00701999999ADDAA199000091GA1001+999999999GF100991001001999999001001KA1120M+02641MA1999999089241MD1510101+9999ME1315229REMSYN080AAXX  10184 68010 32989 00000 10209 20070 38924 48522 55010 333 10264 555 91018;EQDQ01  00002PRCP99
0234680100999992000051106004-19180+015920FM-12+110099999V0209999C000012200019N0750001N1+01001+00681999999ADDAA199000091GA1001+999999999GF100991001001999999001001KA1240M+02641KA2120N+00961MA1999999089541MD1310131+9999ME1315499REMSYN086AAXX  11064 68010 32989 00000 10100 20068 38954 48549 53013 333 20096 555 10264 91021;EQDQ01  00002PRCP99
0205680100999992000051112004-19180+015920FM-12+110099999V0200501N006212200019N0750001N1+02561+00761999999ADDAA199000091GF102991021021017501001001KA1120N+01101MA1999999089471MD1810181+9999ME1315529REMSYN086AAXX  11124 68010 32789 20512 10256 20076 38947 48552 58018 82200 333 20110 555 91021;EQDQ01  00002PRCP99
0205680100999992000051118004-19180+015920FM-12+110099999V0209999C000012200019N0750001N1+02041+00801999999ADDAA199000091GF101991001001999999001021KA1120M+02641MA1999999089361MD1510101+9999ME1315349REMSYN086AAXX  11184 68010 32989 10000 10204 20080 38936 48534 55010 80002 333 10264 555 91019;EQDQ01  00002PRCP99
0205680100999992000051212004-19180+015920FM-12+110099999V0200501N007212200019N0750001N1+02531+00511999999ADDAA199000091GF103991021021017501001041KA1120N+01031MA1999999089321MD1810121+9999ME1315369REMSYN086AAXX  12124 68010 32789 30514 10253 20051 38932 48536 58012 82204 333 20103 555 91019;EQDQ01  00002PRCP99
0215680100999992000051218004-19180+015920FM-12+110099999V0209999C000012200019N0750001N1+01941+00561999999ADDAA199000091GA1001+999999999GF100991001001999999001001KA1120M+02601MA1999999089231MD1510101+9999ME1315199REMSYN080AAXX  12184 68010 32989 00000 10194 20056 38923 48519 55010 333 10260 555 91018;EQDQ01  00002PRCP99
0234680100999992000051306004-19180+015920FM-12+110099999V0201801N002112200019N0750001N1+01061+00431999999ADDAA199000091GA1001+999999999GF100991001001999999001001KA1240M+02601KA2120N+01001MA1999999089481MD1310111+9999ME1315459REMSYN086AAXX  13064 68010 32989 01804 10106 20043 38948 48545 53011 333 20100 555 10260 91021;EQDQ01  00002PRCP99
0205680100999992000051312004-19180+015920FM-12+110099999V0200501N009312200019N0750001N1+02591+00951999999ADDAA199000091GF102991021021017501001001KA1120N+01071MA1999999089291MD1710221+9999ME1315349REMSYN086AAXX  13124 68010 32789 20518 10259 20095 38929 48534 57022 82200 333 20107 555 91019;EQDQ01  00002PRCP99
0214680100999992000051318004-19180+015920FM-12+110099999V0200501N005112200019N0750001N1+01601+01141999999ADDAA199000021AY191061AY251061GF104991041091017501001001KA1120M+02601MA1999999089401MD1010041+9999ME1315319MW1951REMSYN092AAXX  13184 68010 31789 40510 10160 20114 38940 48531 50004 79595 84900 333 10260 555 91020;
0205680100999992000051412004-19180+015920FM-12+110099999V0200501N006212200019N0750001N1+02111+01241999999ADDAA199000091GF102991011021017501081001KA1120N+01321MA1999999089441MD1810141+9999ME1315429REMSYN086AAXX  14124 68010 32789 20512 10211 20124 38944 48542 58014 81280 333 20132 555 91020;EQDQ01  00002PRCP99
0221680100999992000051418004-19180+015920FM-12+110099999V0200501N005112200019N0750001N1+01581+00961999999ADDAA199000091GF103991011091012501081001KA1120N+99999MA1999999089501MD1510141+9999ME1315409REMSYN086AAXX  14184 68010 32689 30510 10158 20096 38950 48540 55014 81980 333 20217 555 91021;EQDQ01  00002PRCP99Q02 +02172ATMN  
0205680100999992000051512004-19180+015920FM-12+110099999V0200501N005112200019N0750001N1+02361+01191999999ADDAA199000091GF102991021021017501001001KA1120N+00901MA1999999089521MD1810191+9999ME1315549REMSYN086AAXX  15124 68010 32789 20510 10236 20119 38952 48554 58019 82200 333 20090 555 91021;EQDQ01  00002PRCP99
0215680100999992000051518004-19180+015920FM-12+110099999V0209999C000012200019N0750001N1+01791+01071999999ADDAA199000091GA1001+999999999GF100991001001999999001001KA1120M+02461MA1999999089501MD1510101+9999ME1315439REMSYN080AAXX  15184 68010 32989 00000 10179 20107 38950 48543 55010 333 10246 555 91021;EQDQ01  00002PRCP99
0240680100999992000051606004-19180+015920FM-12+110099999V0201301N002112200019N0750001N1+01371+00951999999ADDAA199000091GF104991041011022501001001KA1240M+02461KA2120N+99999MA1999999089061MD1310141+9999ME1315019REMSYN092AAXX  16064 68010 32889 41304 10137 20095 38906 48501 53014 84100 333 20212 555 10246 91016;EQDQ01  00002PRCP99Q02 +02122ATMN  
0205680100999992000051612004-19180+015920FM-12+110099999V0200501N006212200019N0750001N1+02631+00991999999ADDAA199000091GF104991041021022501001001KA1120N+01381MA1999999089481MD1810261+9999ME1315549REMSYN086AAXX  16124 68010 32889 40512 10263 20099 38948 48554 58026 84200 333 20138 555 91021;EQDQ01  00002PRCP99
0224680100999992000051706004-19180+015920FM-12+110099999V0209999C000012200019N0750001N1+01441+00571999999ADDAA199000091GF101991011001999999031001KA1240M+02671KA2120N+01081MA1999999089561MD1310011+9999ME1315549REMSYN092AAXX  17064 68010 32989 10000 10144 20057 38956 48554 53001 81030 333 20108 555 10267 91022;EQDQ01  00002PRCP99
0205680100999992000051712004-19180+015920FM-12+110099999V0200501N006212200019N0750001N1+02711+00651999999ADDAA199000091GF103991031011017501001001KA1120N+01081MA1999999089451MD1810121+9999ME1315529REMSYN086AAXX  17124 68010 32789 30512 10271 20065 38945 48552 58012 83100 333 20108 555 91020;EQDQ01  00002PRCP99
0215680100999992000051718004-19180+015920FM-12+110099999V0209999C000012200019N0750001N1+02001+00791999999ADDAA199000091GA1001+999999999GF100991001001999999001001KA1120M+02731MA1999999089441MD1510121+9999ME1315409REMSYN080AAXX  17184 68010 32989 00000 10200 20079 38944 48540 55012 333 10273 555 91020;EQDQ01  00002PRCP99
0234680100999992000051806004-19180+015920FM-12+110099999V0201301N005112200019N0750001N1+01121+00661999999ADDAA199000091GA1001+999999999GF100991001001999999001001KA1240M+02721KA2120N+01051MA1999999089531MD1310071+9999ME1315499REMSYN086AAXX  18064 68010 32989 01310 10112 20066 38953 48549 53007 333 20105 555 10272 91021;EQDQ01  00002PRCP99
0215680100999992000051812004-19180+015920FM-12+110099999V0200501N006212200019N0750001N1+02641+00411999999ADDAA199000091GA1001+999999999GF100991001001999999001001KA1120N+01121MA1999999089391MD1810201+9999ME1315459REMSYN080AAXX  18124 68010 32989 00512 10264 20041 38939 48545 58020 333 20112 555 91020;EQDQ01  00002PRCP99
0215680100999992000051818004-19180+015920FM-12+110099999V0209999C000012200019N0750001N1+02031+00741999999ADDAA199000091GA1001+999999999GF100991001001999999001001KA1120M+02691MA1999999089411MD1510121+9999ME1315399REMSYN080AAXX  18184 68010 32989 00000 10203 20074 38941 48539 55012 333 10269 555 91020;EQDQ01  00002PRCP99
0234680100999992000051906004-19180+015920FM-12+110099999V0209999C000012200019N0750001N1+01081+00501999999ADDAA199000091GA1001+999999999GF100991001001999999001001KA1240M+02691KA2120N+00901MA1999999089531MD1310081+9999ME1315499REMSYN086AAXX  19064 68010 32989 00000 10108 20050 38953 48549 53008 333 20090 555 10269 91021;EQDQ01  00002PRCP99
0215680100999992000051912004-19180+015920FM-12+110099999V0200501N006212200019N0750001N1+02621+00501999999ADDAA199000091GA1001+999999999GF100991001001999999001001KA1120N+01081MA1999999089401MD1010221+9999ME1315469REMSYN080AAXX  19124 68010 32989 00512 10262 20050 38940 48546 50022 333 20108 555 91020;EQDQ01  00002PRCP99
0215680100999992000051918004-19180+015920FM-12+110099999V0201301N001512200019N0750001N1+01971+00581999999ADDAA199000091GA1001+999999999GF100991001001999999001001KA1120M+02671MA1999999089331MD1510071+9999ME1315299REMSYN080AAXX  19184 68010 32989 01303 10197 20058 38933 48529 55007 333 10267 555 91019;EQDQ01  00002PRCP99
0234680100999992000052006004-19180+015920FM-12+110099999V0209999C000012200019N0750001N1+00911+00371999999ADDAA199000091GA1001+999999999GF100991001001999999001001KA1240M+02671KA2120N+00861MA1999999089491MD1310121+9999ME1315459REMSYN086AAXX  20064 68010 32989 00000 10091 20037 38949 48545 53012 333 20086 555 10267 91021;EQDQ01  00002PRCP99
0215680100999992000052018004-19180+015920FM-12+110099999V0209999C000012200019N0750001N1+01981+00861999999ADDAA199000091GA1001+999999999GF100991001001999999001001KA1120M+02701MA1999999089341MD1510061+9999ME1315309REMSYN080AAXX  20184 68010 32989 00000 10198 20086 38934 48530 55006 333 10270 555 91019;EQDQ01  00002PRCP99
0234680100999992000052106004-19180+015920FM-12+110099999V0209999C000012200019N0750001N1+01041+00521999999ADDAA199000091GA1001+999999999GF100991001001999999001001KA1240M+02701KA2120N+00921MA1999999089491MD1310121+9999ME1315449REMSYN086AAXX  21064 68010 32989 00000 10104 20052 38949 48544 53012 333 20092 555 10270 91021;EQDQ01  00002PRCP99
0205680100999992000052112004-19180+015920FM-12+110099999V0200501N005112200019N0750001N1+02721+00881999999ADDAA199000091GF101991011001999999081001KA1120N+01051MA1999999089271MD1810271+9999ME1315349REMSYN086AAXX  21124 68010 32989 10510 10272 20088 38927 48534 58027 81080 333 20105 555 91018;EQDQ01  00002PRCP99
0215680100999992000052118004-19180+015920FM-12+110099999V0209999C000012200019N0750001N1+02001+00881999999ADDAA199000091GA1001+999999999GF100991001001999999001001KA1120M+02721MA1999999089301MD1510071+9999ME1315279REMSYN080AAXX  21184 68010 32989 00000 10200 20088 38930 48527 55007 333 10272 555 91019;EQDQ01  00002PRCP99
0234680100999992000052206004-19180+015920FM-12+110099999V0201301N001512200019N0750001N1+01201+00461999999ADDAA199000091GA1001+999999999GF100991001001999999001001KA1240M+02721KA2120N+01041MA1999999089471MD1310091+9999ME1315439REMSYN086AAXX  22064 68010 32989 01303 10120 20046 38947 48543 53009 333 20104 555 10272 91021;EQDQ01  00002PRCP99
0205680100999992000052212004-19180+015920FM-12+110099999V0200901N006212200019N0750001N1+02691+00621999999ADDAA199000091GF101991001001999999001051KA1120N+01041MA1999999089381MD1810151+9999ME1315459REMSYN086AAXX  22124 68010 32989 10912 10269 20062 38938 48545 58015 80005 333 20104 555 91020;EQDQ01  00002PRCP99
0215680100999992000052218004-19180+015920FM-12+110099999V0209999C000012200019N0750001N1+02141+00891999999ADDAA199000091GA1001+999999999GF100991001001999999001001KA1120M+02791MA1999999089321MD1510051+9999ME1315329REMSYN080AAXX  22184 68010 32989 00000 10214 20089 38932 48532 55005 333 10279 555 91019;EQDQ01  00002PRCP99
0234680100999992000052306004-19180+015920FM-12+110099999V0201801N002112200019N0750001N1+01191+00611999999ADDAA199000091GA1001+999999999GF100991001001999999001001KA1240M+02791KA2120N+01131MA1999999089351MD1410001+9999ME1315309REMSYN086AAXX  23064 68010 32989 01804 10119 20061 38935 48530 54002 333 20113 555 10279 91019;EQDQ01  00002PRCP99
0205680100999992000052312004-19180+015920FM-12+110099999V0209999C000012200019N0750001N1+02801+00641999999ADDAA199000091GF102991001001999999001061KA1120N+01131MA1999999089271MD1810141+9999ME1315359REMSYN086AAXX  23124 68010 32989 20000 10280 20064 38927 48535 58014 80006 333 20113 555 91018;EQDQ01  00002PRCP99
0234680100999992000052406004-19180+015920FM-12+110099999V0209999C000012200019N0750001N1+01001+00501999999ADDAA199000091GA1001+999999999GF100991001001999999001001KA1240M+02931KA2120N+00961MA1999999089231MD1410001+9999ME1315189REMSYN086AAXX  24064 68010 32989 00000 10100 20050 38923 48518 54010 333 20096 555 10293 91018;EQDQ01  00002PRCP99
0231680100999992000052412004-19180+015920FM-12+110099999V0209999C000012200019N0750001N1+02882+00401999999ADDAA199000091GA1001+999999999GF100991001001999999001001KA1120N+00961MA1999999089161MD1810131+9999ME1315269REMSYN080AAXX  24124 68010 32989 00000 10288 20040 38916 48526 58013 333 20096 555 91017;EQDQ01+002883ATOT  Q02  00002PRCP99
0215680100999992000052512004-19180+015920FM-12+110099999V0202701N002112200019N0750001N1+02971+00281999999ADDAA199000091GA1001+999999999GF100991001001999999001001KA1120N+00881MA1999999089131MD1810101+9999ME1315249REMSYN080AAXX  25124 68010 32989 02704 10297 20028 38913 48524 58010 333 20088 555 91017;EQDQ01  00002PRCP99
0215680100999992000052518004-19180+015920FM-12+110099999V0209999C000012200019N0750001N1+02181+00471999999ADDAA199000091GA1001+999999999GF100991001001999999001001KA1120M+03041MA1999999089121MD1510141+9999ME1315129REMSYN080AAXX  25184 68010 32989 00000 10218 20047 38912 48512 55014 333 10304 555 91017;EQDQ01  00002PRCP99
0234680100999992000052606004-19180+015920FM-12+110099999V0202301N001512200019N0750001N1+00881+00101999999ADDAA199000091GA1001+999999999GF100991001001999999001001KA1240M+03041KA2120N+00821MA1999999089311MD1310081+9999ME1315299REMSYN086AAXX  26064 68010 32989 02303 10088 20010 38931 48529 53008 333 20082 555 10304 91019;EQDQ01  00002PRCP99
0215680100999992000052612004-19180+015920FM-12+110099999V0203101N001512200019N0750001N1+02802+00171999999ADDAA199000091GA1001+999999999GF100991001001999999001001KA1120N+00821MA1999999089211MD1810181+9999ME1315309REMSYN080AAXX  26124 68010 32989 03103 10280 20017 38921 48530 58018 333 20082 555 91018;EQDQ01  00002PRCP99
0215680100999992000052618004-19180+015920FM-12+110099999V0209999C000012200019N0750001N1+02091-00501999999ADDAA199000091GA1001+999999999GF100991001001999999001001KA1120M+02921MA1999999089211MD1510141+9999ME1315199REMSYN080AAXX  26184 68010 32989 00000 10209 21050 38921 48519 55014 333 10292 555 91018;EQDQ01  00002PRCP99
0234680100999992000052706004-19180+015920FM-12+110099999V0202301N002112200019N0750001N1+00861-00241999999ADDAA199000091GA1001+999999999GF100991001001999999001001KA1240M+02921KA2120N+00781MA1999999089241MD1310071+9999ME1315229REMSYN086AAXX  27064 68010 32989 02304 10086 21024 38924 48522 53007 333 20078 555 10292 91018;EQDQ01  00002PRCP99
0231680100999992000052712004-19180+015920FM-12+110099999V0203101N006212200019N0750001N1+02822-00371999999ADDAA199000091GA1001+999999999GF100991001001999999001001KA1120N+00781MA1999999089111MD1810181+9999ME1315209REMSYN080AAXX  27124 68010 32989 03112 10282 21037 38911 48520 58018 333 20078 555 91017;EQDQ01+002823ATOT  Q02  00002PRCP99
0234680100999992000052806004-19180+015920FM-12+110099999V0202301N002112200019N0750001N1+00631-00311999999ADDAA199000091GA1001+999999999GF100991001001999999001001KA1240M+02921KA2120N+00461MA1999999089201MD1210061+9999ME1315179REMSYN086AAXX  28064 68010 32989 02304 10063 21031 38920 48517 52006 333 20046 555 10292 91018;EQDQ01  00002PRCP99
0215680100999992000052818004-19180+015920FM-12+110099999V0209999C000012200019N0750001N1+01841-00061999999ADDAA199000091GA1001+999999999GF100991001001999999001001KA1120M+02861MA1999999089111MD1510071+9999ME1315069REMSYN080AAXX  28184 68010 32989 00000 10184 21006 38911 48506 55007 333 10286 555 91017;EQDQ01  00002PRCP99
0234680100999992000052906004-19180+015920FM-12+110099999V0209999C000012200019N0750001N1+00841-00341999999ADDAA199000091GA1001+999999999GF100991001001999999001001KA1240M+02861KA2120N+00761MA1999999089341MD1310111+9999ME1315329REMSYN086AAXX  29064 68010 32989 00000 10084 21034 38934 48532 53011 333 20076 555 10286 91019;EQDQ01  00002PRCP99
0215680100999992000052912004-19180+015920FM-12+110099999V0200501N006212200019N0750001N1+02682-00631999999ADDAA199000091GA1001+999999999GF100991001001999999001001KA1120N+00761MA1999999089261MD1810131+9999ME1315339REMSYN080AAXX  29124 68010 32989 00512 10268 21063 38926 48533 58013 333 20076 555 91018;EQDQ01  00002PRCP99
0215680100999992000052918004-19180+015920FM-12+110099999V0209999C000012200019N0750001N1+01841+00111999999ADDAA199000091GA1001+999999999GF100991001001999999001001KA1120M+02781MA1999999089211MD1510071+9999ME1315169REMSYN080AAXX  29184 68010 32989 00000 10184 20011 38921 48516 55007 333 10278 555 91018;EQDQ01  00002PRCP99
0234680100999992000053006004-19180+015920FM-12+110099999V0209999C000012200019N0750001N1+00941-00091999999ADDAA199000091GA1001+999999999GF100991001001999999001001KA1240M+02781KA2120N+00731MA1999999089371MD1310121+9999ME1315339REMSYN086AAXX  30064 68010 32989 00000 10094 21009 38937 48533 53012 333 20073 555 10278 91020;EQDQ01  00002PRCP99
0215680100999992000053012004-19180+015920FM-12+110099999V0200501N006212200019N0750001N1+02822-00231999999ADDAA199000091GA1001+999999999GF100991001001999999001001KA1120N+00731MA1999999089241MD1810111+9999ME1315339REMSYN080AAXX  30124 68010 32989 00512 10282 21023 38924 48533 58011 333 20073 555 91018;EQDQ01  00002PRCP99
0215680100999992000053018004-19180+015920FM-12+110099999V0202301N001512200019N0750001N1+01851+00221999999ADDAA199000091GA1001+999999999GF100991001001999999001001KA1120M+02871MA1999999089451MD1510121+9999ME1315399REMSYN080AAXX  30184 68010 32989 02303 10185 20022 38945 48539 55012 333 10287 555 91020;EQDQ01  00002PRCP99
0234680100999992000053106004-19180+015920FM-12+110099999V0209999C000012200019N0750001N1+01071-00061999999ADDAA199000091GA1001+999999999GF100991001001999999001001KA1240M+02871KA2120N+00981MA1999999089341MD1310081+9999ME1315319REMSYN086AAXX  31064 68010 32989 00000 10107 21006 38934 48531 53008 333 20098 555 10287 91019;EQDQ01  00002PRCP99
0215680100999992000053112004-19180+015920FM-12+110099999V0200501N003112200019N0750001N1+02721+00061999999ADDAA199000091GA1001+999999999GF100991001001999999001001KA1120N+01081MA1999999089331MD1810231+9999ME1315409REMSYN080AAXX  31124 68010 32989 00506 10272 20006 38933 48540 58023 333 20108 555 91019;EQDQ01  00002PRCP99
0215680100999992000053118004-19180+015920FM-12+110099999V0209999C000012200019N0750001N1+01881+00471999999ADDAA199000091GA1001+999999999GF100991001001999999001001KA1120M+02841MA1999999089381MD1510111+9999ME1315339REMSYN080AAXX  31184 68010 32989 00000 10188 20047 38938 48533 55011 333 10284 555 91020;EQDQ01  00002PRCP99
0234680100999992000060106004-19180+015920FM-12+110099999V0209999C000012200019N0750001N1+01051-00021999999ADDAA199000091GA1001+999999999GF100991001001999999001001KA1240M+02841KA2120N+00871MA1999999089621MD1310141+9999ME1315599REMSYN086AAXX  01064 68010 32989 00000 10105 21002 38962 48559 53014 333 20087 555 10284 91022;EQDQ01  00002PRCP99
0215680100999992000060112004-19180+015920FM-12+110099999V0200501N007212200019N0750001N1+02681-00471999999ADDAA199000091GA1001+999999999GF100991001001999999001001KA1120N+00871MA1999999089421MD1810191+9999ME1315489REMSYN080AAXX  01124 68010 32989 00514 10268 21047 38942 48548 58019 333 20087 555 91020;EQDQ01  00002PRCP99
0234680100999992000060206004-19180+015920FM-12+110099999V0209999C000012200019N0750001N1+00671-00161999999ADDAA199000091GA1001+999999999GF100991001001999999001001KA1240M+02781KA2120N+00651MA1999999089551MD1310121+9999ME1315509REMSYN086AAXX  02064 68010 32989 00000 10067 21016 38955 48550 53012 333 20065 555 10278 91022;EQDQ01  00002PRCP99
0215680100999992000060212004-19180+015920FM-12+110099999V0209999C000012200019N0750001N1+02582-00271999999ADDAA199000091GA1001+999999999GF100991001001999999001001KA1120N+00651MA1999999089391MD1810151+9999ME1315449REMSYN080AAXX  02124 68010 32989 00000 10258 21027 38939 48544 58015 333 20065 555 91020;EQDQ01  00002PRCP99
0215680100999992000060218004-19180+015920FM-12+110099999V0209999C000012200019N0750001N1+01801-00181999999ADDAA199000091GA1001+999999999GF100991001001999999001001KA1120M+02721MA1999999089281MD1510061+9999ME1315229REMSYN080AAXX  02184 68010 32989 00000 10180 21018 38928 48522 55006 333 10272 555 91019;EQDQ01  00002PRCP99
0234680100999992000060306004-19180+015920FM-12+110099999V0209999C000012200019N0750001N1+00831-00291999999ADDAA199000091GA1001+999999999GF100991001001999999001001KA1240M+02721KA2120N+00621MA1999999089481MD1510051+9999ME1315439REMSYN086AAXX  03064 68010 32989 00000 10083 21029 38948 48543 55005 333 20062 555 10272 91021;EQDQ01  00002PRCP99
0215680100999992000060312004-19180+015920FM-12+110099999V0200501N007212200019N0750001N1+02562-00321999999ADDAA199000091GA1001+999999999GF100991001001999999001001KA1120N+00621MA1999999089391MD1810161+9999ME1315449REMSYN080AAXX  03124 68010 32989 00514 10256 21032 38939 48544 58016 333 20062 555 91020;EQDQ01  00002PRCP99
0215680100999992000060318004-19180+015920FM-12+110099999V0209999C000012200019N0750001N1+02021-00041999999ADDAA199000091GA1001+999999999GF100991001001999999001001KA1120M+02621MA1999999089271MD1610141+9999ME1315249REMSYN080AAXX  03184 68010 32989 00000 10202 21004 38927 48524 56014 333 10262 555 91018;EQDQ01  00002PRCP99
0243680100999992000060412004-19180+015920FM-12+110099999V0200501N009312200019N0650001N1+01241+01101999999ADDAA199000091AY101061AY201061GA1001+999999999GF100991001001999999001001KA1120N+01091MA1999999089581MD1010141+9999ME1315429MW1051REMSYN086AAXX  04124 68010 31987 00518 10124 20110 38958 48542 50014 70500 333 20109 555 91022;EQDQ01  00002PRCP99
0234680100999992000060506004-19180+015920FM-12+110099999V0201301N002112200019N0750001N1+00871-00261999999ADDAA199000091GA1001+999999999GF100991001001999999001001KA1240M+02521KA2120N+00641MA1999999089851MD1310111+9999ME1315809REMSYN086AAXX  05064 68010 32989 01304 10087 21026 38985 48580 53011 333 20064 555 10252 91025;EQDQ01  00002PRCP99
0215680100999992000060518004-19180+015920FM-12+110099999V0209999C000012200019N0750001N1+01591+00001999999ADDAA199000091GA1001+999999999GF100991001001999999001001KA1120M+02441MA1999999089611MD1510071+9999ME1315509REMSYN080AAXX  05184 68010 32989 00000 10159 20000 38961 48550 55007 333 10244 555 91022;EQDQ01  00002PRCP99
0234680100999992000060606004-19180+015920FM-12+110099999V0201301N002112200019N0750001N1+00601-00041999999ADDAA199000091GA1001+999999999GF100991001001999999001001KA1240M+02441KA2120N+00601MA1999999089761MD1310061+9999ME1315599REMSYN086AAXX  06064 68010 32989 01304 10060 21004 38976 48559 53006 333 20060 555 10244 91024;EQDQ01  00002PRCP99
0215680100999992000060612004-19180+015920FM-12+110099999V0200501N006212200019N0750001N1+02111+00101999999ADDAA199000091GA1001+999999999GF100991001001999999001001KA1120N+00631MA1999999089501MD1810341+9999ME1315489REMSYN080AAXX  06124 68010 32989 00512 10211 20010 38950 48548 58034 333 20063 555 91021;EQDQ01  00002PRCP99
0215680100999992000060618004-19180+015920FM-12+110099999V0209999C000012200019N0750001N1+01541+00141999999ADDAA199000091GA1001+999999999GF100991001001999999001001KA1120M+02201MA1999999089541MD1510121+9999ME1315439REMSYN080AAXX  06184 68010 32989 00000 10154 20014 38954 48543 55012 333 10220 555 91021;EQDQ01  00002PRCP99
0234680100999992000060706004-19180+015920FM-12+110099999V0209999C000012200019N0750001N1+00791+00451999999ADDAA199000091GA1001+999999999GF100991001001999999001001KA1240M+02201KA2120N+00791MA1999999089541MD1310081+9999ME1315409REMSYN086AAXX  07064 68010 32989 00000 10079 20045 38954 48540 53008 333 20079 555 10220 91021;EQDQ01  00002PRCP99
0233680100999992000060712004-19180+015920FM-12+110099999V0200501N005112200019N0650001N1+02181+00321999999ADDAA199000091AY121061AY221061GF101991011051017501001001KA1120N+00791MA1999999089361MD1810201+9999ME1315359MW1051REMSYN092AAXX  07124 68010 31787 10510 10218 20032 38936 48535 58020 70522 81500 333 20079 555 91019;EQDQ01  00002PRCP99
0215680100999992000060718004-19180+015920FM-12+110099999V0209999C000012200019N0750001N1+01561+00321999999ADDAA199000091GA1001+999999999GF100991001001999999001001KA1120M+02281MA1999999089411MD1510081+9999ME1315319REMSYN080AAXX  07184 68010 32989 00000 10156 20032 38941 48531 55008 333 10228 555 91020;EQDQ01  00002PRCP99
0234680100999992000060806004-19180+015920FM-12+110099999V0209999C000012200019N0750001N1+00691+00331999999ADDAA199000091GA1001+999999999GF100991001001999999001001KA1240M+02281KA2120N+00621MA1999999089551MD1310101+9999ME1315429REMSYN086AAXX  08064 68010 32989 00000 10069 20033 38955 48542 53010 333 20062 555 10228 91022;EQDQ01  00002PRCP99
0205680100999992000060812004-19180+015920FM-12+110099999V0200501N006212200019N0750001N1+02361+00651999999ADDAA199000091GF101991011001999999081001KA1120N+00721MA1999999089421MD1810171+9999ME1315449REMSYN086AAXX  08124 68010 32989 10512 10236 20065 38942 48544 58017 81080 333 20072 555 91020;EQDQ01  00002PRCP99
0205680100999992000060818004-19180+015920FM-12+110099999V0209999C000012200019N0750001N1+01741+00631999999ADDAA199000091GF101991011001999999081001KA1120M+02471MA1999999089441MD1510101+9999ME1315369REMSYN086AAXX  08184 68010 32989 10000 10174 20063 38944 48536 55010 81080 333 10247 555 91020;EQDQ01  00002PRCP99
0224680100999992000060906004-19180+015920FM-12+110099999V0202301N001512200019N0750001N1+00941+00381999999ADDAA199000091GF101991011001999999031001KA1240M+02471KA2120N+00861MA1999999089551MD1310101+9999ME1315449REMSYN092AAXX  09064 68010 32989 12303 10094 20038 38955 48544 53010 81030 333 20086 555 10247 91022;EQDQ01  00002PRCP99
0243680100999992000060912004-19180+015920FM-12+110099999V0200501N006212200019N0650001N1+02662+00571999999ADDAA199000091AY121061AY221061GA1001+999999999GF100991001001999999001001KA1120N+00941MA1999999089321MD1810301+9999ME1315389MW1051REMSYN086AAXX  09124 68010 31987 00512 10266 20057 38932 48538 58030 70522 333 20094 555 91019;EQDQ01  00002PRCP99
0215680100999992000060918004-19180+015920FM-12+110099999V0209999C000012200019N0750001N1+02001+00351999999ADDAA199000091GA1001+999999999GF100991001001999999001001KA1120M+02741MA1999999089331MD1510121+9999ME1315309REMSYN080AAXX  09184 68010 32989 00000 10200 20035 38933 48530 55012 333 10274 555 91019;EQDQ01  00002PRCP99
0234680100999992000061006004-19180+015920FM-12+110099999V0209999C000012200019N0750001N1+01171+00371999999ADDAA199000091GA1001+999999999GF100991001001999999001001KA1240M+02741KA2120N+00861MA1999999089471MD1310081+9999ME1315389REMSYN086AAXX  10064 68010 32989 00000 10117 20037 38947 48538 53008 333 20086 555 10274 91021;EQDQ01  00002PRCP99
0233680100999992000061012004-19180+015920FM-12+110099999V0203601N002112200019N0400001N1+02641+00381999999ADDAA199000091AY101061AY201061GF101991011001999999041001KA1120N+01161MA1999999089321MD1810241+9999ME1315389MW1051REMSYN092AAXX  10124 68010 31982 13604 10264 20038 38932 48538 58024 70500 81040 333 20116 555 91019;EQDQ01  00002PRCP99
0215680100999992000061018004-19180+015920FM-12+110099999V0209999C000012200019N0750001N1+02031-00331999999ADDAA199000091GA1001+999999999GF100991001001999999001001KA1120M+02791MA1999999089351MD1510121+9999ME1315329REMSYN080AAXX  10184 68010 32989 00000 10203 21033 38935 48532 55012 333 10279 555 91019;EQDQ01  00002PRCP99
0215680100999992000061112004-19180+015920FM-12+110099999V0203101N005112200019N0750001N1+02571-00211999999ADDAA199000091GA1001+999999999GF100991001001999999001001KA1120N+00781MA1999999089361MD1810211+9999ME1315419REMSYN080AAXX  11124 68010 32989 03110 10257 21021 38936 48541 58021 333 20078 555 91019;EQDQ01  00002PRCP99
0215680100999992000061118004-19180+015920FM-12+110099999V0209999C000012200019N0750001N1+01561+00201999999ADDAA199000091GA1001+999999999GF100991001001999999001001KA1120M+02731MA1999999089341MD1510101+9999ME1315249REMSYN080AAXX  11184 68010 32989 00000 10156 20020 38934 48524 55010 333 10273 555 91019;EQDQ01  00002PRCP99
0234680100999992000061206004-19180+015920FM-12+110099999V0209999C000012200019N0750001N1+00791-00501999999ADDAA199000091GA1001+999999999GF100991001001999999001001KA1240M+02731KA2120N+00591MA1999999089471MD1310111+9999ME1315429REMSYN086AAXX  12064 68010 32989 00000 10079 21050 38947 48542 53011 333 20059 555 10273 91021;EQDQ01  00002PRCP99
0215680100999992000061212004-19180+015920FM-12+110099999V0200501N004112200019N0750001N1+02752+00341999999ADDAA199000091GA1001+999999999GF100991001001999999001001KA1120N+00791MA1999999089341MD1810221+9999ME1315429REMSYN080AAXX  12124 68010 32989 00508 10275 20034 38934 48542 58022 333 20079 555 91019;EQDQ01  00002PRCP99
0243680100999992000061218004-19180+015920FM-12+110099999V0209999C000012200019N0750001N1+01921+00551999999ADDAA199000091AY101061AY201061GA1001+999999999GF100991001001999999001001KA1120M+02851MA1999999089361MD1310121+9999ME1315319MW1051REMSYN086AAXX  12184 68010 31989 00000 10192 20055 38936 48531 53012 70500 333 10285 555 91019;EQDQ01  00002PRCP99
0234680100999992000061306004-19180+015920FM-12+110099999V0209999C000012200019N0750001N1+00871+00191999999ADDAA199000091GA1001+999999999GF100991001001999999001001KA1240M+02851KA2120N+00851MA1999999089601MD1310161+9999ME1315519REMSYN086AAXX  13064 68010 32989 00000 10087 20019 38960 48551 53016 333 20085 555 10285 91022;EQDQ01  00002PRCP99
0215680100999992000061312004-19180+015920FM-12+110099999V0209999C000012200019N0750001N1+02742+00381999999ADDAA199000091GA1001+999999999GF100991001001999999001001KA1120N+00871MA1999999089471MD1710121+9999ME1315549REMSYN080AAXX  13124 68010 32989 00000 10274 20038 38947 48554 57012 333 20087 555 91021;EQDQ01  00002PRCP99
0215680100999992000061318004-19180+015920FM-12+110099999V0209999C000012200019N0750001N1+01931+00571999999ADDAA199000091GA1001+999999999GF100991001001999999001001KA1120M+02751MA1999999089471MD1310091+9999ME1315449REMSYN080AAXX  13184 68010 32989 00000 10193 20057 38947 48544 53009 333 10275 555 91021;EQDQ01  00002PRCP99
0234680100999992000061406004-19180+015910FM-12+110099999V0209999C000012200019N0750001N1+01011+00241999999ADDAA199000091GA1001+999999999GF100991001001999999001001KA1240M+02751KA2120N+00991MA1999999089621MD1310091+9999ME1315529REMSYN086AAXX  14064 68010 32989 00000 10101 20024 38962 48552 53009 333 20099 555 10275 91022;EQDQ01  00002PRCP99
0215680100999992000061412004-19180+015910FM-12+110099999V0200501N006212200019N0750001N1+02591+00291999999ADDAA199000091GA1001+999999999GF100991001001999999001001KA1120N+01001MA1999999089461MD1710261+9999ME1315519REMSYN080AAXX  14124 68010 32989 00512 10259 20029 38946 48551 57026 333 20100 555 91021;EQDQ01  00002PRCP99
0215680100999992000061418004-19180+015910FM-12+110099999V0209999C000012200019N0750001N1+01871+00531999999ADDAA199000091GA1001+999999999GF100991001001999999001001KA1120M+02651MA1999999089361MD1310051+9999ME1315319REMSYN080AAXX  14184 68010 32989 00000 10187 20053 38936 48531 53005 333 10265 555 91019;EQDQ01  00002PRCP99
0234680100999992000061506004-19180+015910FM-12+110099999V0209999C000012200019N0750001N1+01041+00251999999ADDAA199000091GA1001+999999999GF100991001001999999001001KA1240M+02651KA2120N+00861MA1999999089461MD1310081+9999ME1315359REMSYN086AAXX  15064 68010 32989 00000 10104 20025 38946 48535 53008 333 20086 555 10265 91021;EQDQ01  00002PRCP99
0215680100999992000061512004-19180+015910FM-12+110099999V0200501N007212200019N0750001N1+02381+00281999999ADDAA199000091GA1001+999999999GF100991001001999999001001KA1120N+01041MA1999999089251MD1810201+9999ME1315279REMSYN080AAXX  15124 68010 32989 00514 10238 20028 38925 48527 58020 333 20104 555 91018;EQDQ01  00002PRCP99
0215680100999992000061518004-19180+015910FM-12+110099999V0209999C000012200019N0750001N1+01701+00521999999ADDAA199000091GA1001+999999999GF100991001001999999001001KA1120M+02471MA1999999089201MD1510061+9999ME1315159REMSYN080AAXX  15184 68010 32989 00000 10170 20052 38920 48515 55006 333 10247 555 91018;EQDQ01  00002PRCP99
0224680100999992000061606004-19180+015910FM-12+110099999V0209999C000019999999N0750001N1+00891+00301999999ADDAA199000091GF105991051001999999081001KA1240M+02471KA2120N+00791MA1999999089331MD1310111+9999ME1315209REMSYN092AAXX  16064 68010 32989 50000 10089 20030 38933 48520 53011 85080 333 20079 555 10247 91019;EQDQ01  00002PRCP99
0233680100999992000061612004-19180+015910FM-12+110099999V0200501N006212200019N0750001N1+02461+00331999999ADDAA199000091AY111061AY201061GF103991031001999999081001KA1120N+00901MA1999999089221MD1810191+9999ME1315269MW1051REMSYN092AAXX  16124 68010 31989 30512 10246 20033 38922 48526 58019 70510 83080 333 20090 555 91018;EQDQ01  00002PRCP99
0233680100999992000061712004-19180+015910FM-12+110099999V0203601N005112200019N0550001N1+02651+00271999999ADDAA199000091AY121061AY221061GF102991011011022501041001KA1120N+01381MA1999999089311MD1810211+9999ME1315379MW1051REMSYN092AAXX  17124 68010 31885 23610 10265 20027 38931 48537 58021 70522 81140 333 20138 555 91019;EQDQ01  00002PRCP99
0215680100999992000061718004-19180+015910FM-12+110099999V0209999C000012200019N0750001N1+02021+00351999999ADDAA199000091GA1001+999999999GF100991001001999999001001KA1120M+02641MA1999999089351MD1310101+9999ME1315329REMSYN080AAXX  17184 68010 32989 00000 10202 20035 38935 48532 53010 333 10264 555 91019;EQDQ01  00002PRCP99
0224680100999992000061806004-19180+015910FM-12+110099999V0209999C000012200019N0750001N1+00981+00251999999ADDAA199000091GF102991021001999999081001KA1240M+02641KA2120N+00871MA1999999089591MD1310121+9999ME1315499REMSYN092AAXX  18064 68010 32989 20000 10098 20025 38959 48549 53012 82080 333 20087 555 10264 91022;EQDQ01  00002PRCP99
0205680100999992000061812004-19180+015910FM-12+110099999V0200501N007212200019N0750001N1+02722-00011999999ADDAA199000091GF103991011011022501081001KA1120N+00991MA1999999089421MD1810181+9999ME1315499REMSYN086AAXX  18124 68010 32889 30514 10272 21001 38942 48549 58018 81180 333 20099 555 91020;EQDQ01  00002PRCP99
0205680100999992000061818004-19180+015910FM-12+110099999V0209999C000012200019N0750001N1+01921+00361999999ADDAA199000091GF101991011001999999081001KA1120M+02741MA1999999089431MD1510081+9999ME1315389REMSYN086AAXX  18184 68010 32989 10000 10192 20036 38943 48538 55008 81080 333 10274 555 91020;EQDQ01  00002PRCP99
0205680100999992000061912004-19180+015910FM-12+110099999V0200501N007212200019N0750001N1+02521+00281999999ADDAA199000091GF102991021001999999081001KA1120N+01281MA1999999089431MD1810101+9999ME1315479REMSYN086AAXX  19124 68010 32989 20514 10252 20028 38943 48547 58010 82080 333 20128 555 91020;EQDQ01  00002PRCP99
0205680100999992000061918004-19180+015910FM-12+110099999V0209999C000012200019N0750001N1+01901+00391999999ADDAA199000091GF101991011001999999081001KA1120M+02641MA1999999089341MD1510081+9999ME1315319REMSYN086AAXX  19184 68010 32989 10000 10190 20039 38934 48531 55008 81080 333 10264 555 91019;EQDQ01  00002PRCP99
0224680100999992000062006004-19180+015910FM-12+110099999V0209999C000012200019N0750001N1+00991+00421999999ADDAA199000091GF101991011001999999081001KA1240M+02641KA2120N+00961MA1999999089421MD1310121+9999ME1315309REMSYN092AAXX  20064 68010 32989 10000 10099 20042 38942 48530 53012 81080 333 20096 555 10264 91020;EQDQ01  00002PRCP99
0215680100999992000062012004-19180+015910FM-12+110099999V0200501N009312200019N0750001N1+02361+00571999999ADDAA199000091GA1001+999999999GF100991001001999999001001KA1120N+00961MA1999999089391MD1810161+9999ME1315419REMSYN080AAXX  20124 68010 32989 00518 10236 20057 38939 48541 58016 333 20096 555 91020;EQDQ01  00002PRCP99
0205680100999992000062018004-19180+015910FM-12+110099999V0209999C000012200019N0750001N1+01891+00611999999ADDAA199000091GF101991011001999999081001KA1120M+02591MA1999999089191MD1310021+9999ME1315159REMSYN086AAXX  20184 68010 32989 10000 10189 20061 38919 48515 53002 81080 333 10259 555 91018;EQDQ01  00002PRCP99
0234680100999992000062106004-19180+015910FM-12+110099999V0209999C000012200019N0750001N1+01051+00341999999ADDAA199000091GA1001+999999999GF100991001001999999001001KA1240M+02541KA2120N+01061MA1999999089271MD1410001+9999ME1315169REMSYN086AAXX  21064 68010 32989 00000 10105 20034 38927 48516 54002 333 20106 555 10254 91018;EQDQ01  00002PRCP99
0215680100999992000062112004-19180+015910FM-12+110099999V0200501N007212200019N0750001N1+02611+00511999999ADDAA199000091GA1001+999999999GF100991001001999999001001KA1120N+01061MA1999999089251MD1810121+9999ME1315319REMSYN080AAXX  21124 68010 32989 00514 10261 20051 38925 48531 58012 333 20106 555 91018;EQDQ01  00002PRCP99
0215680100999992000062118004-19180+015910FM-12+110099999V0209999C000012200019N0750001N1+01971+00631999999ADDAA199000091GA1001+999999999GF100991001001999999001001KA1120M+02771MA1999999089181MD1310051+9999ME1315159REMSYN080AAXX  21184 68010 32989 00000 10197 20063 38918 48515 53005 333 10277 555 91017;EQDQ01  00002PRCP99
0234680100999992000062206004-19180+015910FM-12+110099999V0209999C000012200019N0750001N1+00791+00401999999ADDAA199000091GA1001+999999999GF100991001001999999001001KA1240M+02771KA2120N+00751MA1999999089291MD1310041+9999ME1315179REMSYN086AAXX  22064 68010 32989 00000 10079 20040 38929 48517 53004 333 20075 555 10277 91019;EQDQ01  00002PRCP99
0215680100999992000062212004-19180+015910FM-12+110099999V0200501N002112200019N0750001N1+02622+00141999999ADDAA199000091GA1001+999999999GF100991001001999999001001KA1120N+00751MA1999999089151MD1810121+9999ME1315219REMSYN080AAXX  22124 68010 32989 00504 10262 20014 38915 48521 58012 333 20075 555 91017;EQDQ01  00002PRCP99
0215680100999992000062218004-19180+015910FM-12+110099999V0202301N002112200019N0750001N1+01951-00391999999ADDAA199000091GA1001+999999999GF100991001001999999001001KA1120M+02761MA1999999089141MD1310111+9999ME1315149REMSYN080AAXX  22184 68010 32989 02304 10195 21039 38914 48514 53011 333 10276 555 91017;EQDQ01  00002PRCP99
0234680100999992000062306004-19180+015910FM-12+110099999V0209999C000012200019N0750001N1+00591+00121999999ADDAA199000091GA1001+999999999GF100991001001999999001001KA1240M+02761KA2120N+00531MA1999999089341MD1310101+9999ME1315229REMSYN086AAXX  23064 68010 32989 00000 10059 20012 38934 48522 53010 333 20053 555 10276 91019;EQDQ01  00002PRCP99
0215680100999992000062312004-19180+015910FM-12+110099999V0200501N006212200019N0750001N1+02382-00911999999ADDAA199000091GA1001+999999999GF100991001001999999001001KA1120N+00631MA1999999089261MD1810131+9999ME1315289REMSYN080AAXX  23124 68010 32989 00512 10238 21091 38926 48528 58013 333 20063 555 91018;EQDQ01  00002PRCP99
0215680100999992000062318004-19180+015910FM-12+110099999V0209999C000012200019N0650001N1+01841-00141999999ADDAA199000091GA1001+999999999GF100991001001999999001001KA1120M+02621MA1999999089271MD1310051+9999ME1315229REMSYN080AAXX  23184 68010 32987 00000 10184 21014 38927 48522 53005 333 10262 555 91018;EQDQ01  00002PRCP99
0250680100999992000062406004-19180+015910FM-12+110099999V0209999C000012200019N0750001N1+00601-00321999999ADDAA199000091GA1001+999999999GF100991001001999999001001KA1240M+02621KA2120N+99999MA1999999089491MD1310101+9999ME1315409REMSYN086AAXX  24064 68010 32989 00000 10060 21032 38949 48540 53010 333 20075 555 10262 91021;EQDQ01  00002PRCP99Q02 +00752ATMN  
0215680100999992000062412004-19180+015910FM-12+110099999V0200501N006212200019N0650001N1+02662+00391999999ADDAA199000091GA1001+999999999GF100991001001999999001001KA1120N+00621MA1999999089371MD1810171+9999ME1315369REMSYN080AAXX  24124 68010 32987 00512 10266 20039 38937 48536 58017 333 20062 555 91020;EQDQ01  00002PRCP99
0215680100999992000062418004-19180+015910FM-12+110099999V0209999C000012200019N0750001N1+02051+00371999999ADDAA199000091GA1001+999999999GF100991001001999999001001KA1120M+02781MA1999999089391MD1310061+9999ME1315369REMSYN080AAXX  24184 68010 32989 00000 10205 20037 38939 48536 53006 333 10278 555 91020;EQDQ01  00002PRCP99
0234680100999992000062506004-19180+015910FM-12+110099999V0209999C000012200019N0750001N1+00961+00281999999ADDAA199000091GA1001+999999999GF100991001001999999001001KA1240M+02781KA2120N+00951MA1999999089601MD1310121+9999ME1315499REMSYN086AAXX  25064 68010 32989 00000 10096 20028 38960 48549 53012 333 20095 555 10278 91022;EQDQ01  00002PRCP99
0215680100999992000062512004-19180+015910FM-12+110099999V0200501N002112200019N0750001N1+02752+00171999999ADDAA199000091GA1001+999999999GF100991001001999999001001KA1120N+01021MA1999999089541MD1810161+9999ME1315619REMSYN080AAXX  25124 68010 32989 00504 10275 20017 38954 48561 58016 333 20102 555 91021;EQDQ01  00002PRCP99
0215680100999992000062518004-19180+015910FM-12+110099999V0209999C000012200019N0750001N1+01561+00601999999ADDAA199000091GA1001+999999999GF100991001001999999001001KA1120M+02771MA1999999089521MD1310081+9999ME1315419REMSYN080AAXX  25184 68010 32989 00000 10156 20060 38952 48541 53008 333 10277 555 91021;EQDQ01  00002PRCP99
0234680100999992000062606004-19180+015910FM-12+110099999V0209999C000012200019N0750001N1+00781+00111999999ADDAA199000091GA1001+999999999GF100991001001999999001001KA1240M+02771KA2120N+00781MA1999999089781MD1310111+9999ME1315689REMSYN086AAXX  26064 68010 32989 00000 10078 20011 38978 48568 53011 333 20078 555 10277 91024;EQDQ01  00002PRCP99
0215680100999992000062612004-19180+015910FM-12+110099999V0200501N006212200019N0750001N1+02592+01301999999ADDAA199000091GA1001+999999999GF100991001001999999001001KA1120N+00781MA1999999089611MD1810181+9999ME1315669REMSYN080AAXX  26124 68010 32989 00512 10259 20130 38961 48566 58018 333 20078 555 91022;EQDQ01  00002PRCP99
0215680100999992000062618004-19180+015910FM-12+110099999V0209999C000012200019N0750001N1+01951-00031999999ADDAA199000091GA1001+999999999GF100991001001999999001001KA1120M+02631MA1999999089611MD1310111+9999ME1315609REMSYN080AAXX  26184 68010 32989 00000 10195 21003 38961 48560 53011 333 10263 555 91022;EQDQ01  00002PRCP99
0234680100999992000062706004-19180+015910FM-12+110099999V0209999C000012200019N0750001N1+00561+00001999999ADDAA199000091GA1001+999999999GF100991001001999999001001KA1240M+02631KA2120N+00521MA1999999089761MD1310051+9999ME1315649REMSYN086AAXX  27064 68010 32989 00000 10056 20000 38976 48564 53005 333 20052 555 10263 91024;EQDQ01  00002PRCP99
0196680100999992000062712004-19180+015910FM-12+110099999V0200501N007212200019N0750001N1+02472-00071999999ADDAA199000091GA1001+999999999GF100991001001999999001001MA1999999089611MD1810181+9999ME1315649REMSYN074AAXX  27124 68010 32989 00514 10247 21007 38961 48564 58018 333 555 91022;EQDQ01  00002PRCP99
0215680100999992000062718004-19180+015910FM-12+110099999V0209999C000012200019N0750001N1+01691+00261999999ADDAA199000091GA1001+999999999GF100991001001999999001001KA1120M+02561MA1999999089541MD1310031+9999ME1315459REMSYN080AAXX  27184 68010 32989 00000 10169 20026 38954 48545 53003 333 10256 555 91021;EQDQ01  00002PRCP99
0234680100999992000062806004-19180+015910FM-12+110099999V0201301N003112200019N0750001N1+00801-00301999999ADDAA199000091GA1001+999999999GF100991001001999999001001KA1240M+02561KA2120N+00601MA1999999089691MD1310031+9999ME1315609REMSYN086AAXX  28064 68010 32989 01306 10080 21030 38969 48560 53003 333 20060 555 10256 91023;EQDQ01  00002PRCP99
0215680100999992000062812004-19180+015910FM-12+110099999V0200901N006212200019N0750001N1+02512+00161999999ADDAA199000091GA1001+999999999GF100991001001999999001001KA1120N+00801MA1999999089581MD1810151+9999ME1315629REMSYN080AAXX  28124 68010 32989 00912 10251 20016 38958 48562 58015 333 20080 555 91022;EQDQ01  00002PRCP99
0215680100999992000062818004-19180+015910FM-12+110099999V0209999C000012200019N0750001N1+01711+00381999999ADDAA199000091GA1001+999999999GF100991001001999999001001KA1120M+02531MA1999999089561MD1310111+9999ME1315479REMSYN080AAXX  28184 68010 32989 00000 10171 20038 38956 48547 53011 333 10253 555 91022;EQDQ01  00002PRCP99
0234680100999992000062906004-19180+015910FM-12+110099999V0209999C000012200019N0750001N1+01021+00141999999ADDAA199000091GA1001+999999999GF100991001001999999001001KA1240M+02531KA2120N+00861MA1999999089641MD1310071+9999ME1315529REMSYN086AAXX  29064 68010 32989 00000 10102 20014 38964 48552 53007 333 20086 555 10253 91023;EQDQ01  00002PRCP99
0215680100999992000062912004-19180+015910FM-12+110099999V0200901N009312200019N0750001N1+02351+00121999999ADDAA199000091GA1001+999999999GF100991001001999999001001KA1120N+00861MA1999999089461MD1810131+9999ME1315479REMSYN080AAXX  29124 68010 32989 00918 10235 20012 38946 48547 58013 333 20086 555 91021;EQDQ01  00002PRCP99
0215680100999992000062918004-19180+015910FM-12+110099999V0200901N002112200019N0750001N1+01841+00071999999ADDAA199000091GA1001+999999999GF100991001001999999001001KA1120M+02471MA1999999089431MD1310071+9999ME1315379REMSYN080AAXX  29184 68010 32989 00904 10184 20007 38943 48537 53007 333 10247 555 91020;EQDQ01  00002PRCP99
0234680100999992000063006004-19180+015910FM-12+110099999V0209999C000012200019N0750001N1+00811-00061999999ADDAA199000091GA1001+999999999GF100991001001999999001001KA1240M+02471KA2120N+00761MA1999999089641MD1310061+9999ME1315529REMSYN086AAXX  30064 68010 32989 00000 10081 21006 38964 48552 53006 333 20076 555 10247 91023;EQDQ01  00002PRCP99
0243680100999992000063012004-19180+015910FM-12+110099999V0200501N005112200019N0550001N1+02401+00111999999ADDAA199000091AY121061AY221061GA1001+999999999GF100991001001999999001001KA1120N+00761MA1999999089511MD1810191+9999ME1315539MW1051REMSYN086AAXX  30124 68010 31985 00510 10240 20011 38951 48553 58019 70522 333 20076 555 91021;EQDQ01  00002PRCP99
0215680100999992000063018004-19180+015910FM-12+110099999V0209999C000012200019N0750001N1+01841+00201999999ADDAA199000091GA1001+999999999GF100991001001999999001001KA1120M+02421MA1999999089481MD1310101+9999ME1315449REMSYN080AAXX  30184 68010 32989 00000 10184 20020 38948 48544 53010 333 10242 555 91021;EQDQ01  00002PRCP99
0234680100999992000070106004-19180+015910FM-12+110099999V0201301N002112200019N0750001N1+00971+00291999999ADDAA199000091GA1001+999999999GF100991001001999999001001KA1240M+02421KA2120N+00881MA1999999089741MD1310101+9999ME1315609REMSYN086AAXX  01064 68010 32989 01304 10097 20029 38974 48560 53010 333 20088 555 10242 91024;EQDQ01  00002PRCP99
0215680100999992000070112004-19180+015910FM-12+110099999V0200901N002112200019N0750001N1+02171+00241999999ADDAA199000091GA1001+999999999GF100991001001999999001001KA1120N+00971MA1999999089601MD1810171+9999ME1315589REMSYN080AAXX  01124 68010 32989 00904 10217 20024 38960 48558 58017 333 20097 555 91022;EQDQ01  00002PRCP99
0243680100999992000070118004-19180+015910FM-12+110099999V0209999C000012200019N0550001N1+01741+00311999999ADDAA199000091AY101061AY201061GA1001+999999999GF100991001001999999001001KA1120M+02291MA1999999089521MD1510081+9999ME1315449MW1051REMSYN086AAXX  01184 68010 31985 00000 10174 20031 38952 48544 55008 70500 333 10229 555 91021;EQDQ01  00002PRCP99
0234680100999992000070206004-19180+015910FM-12+110099999V0201301N002112200019N0750001N1+00691+00051999999ADDAA199000091GA1001+999999999GF100991001001999999001001KA1240M+02291KA2120N+00571MA1999999089751MD1310071+9999ME1315609REMSYN086AAXX  02064 68010 32989 01304 10069 20005 38975 48560 53007 333 20057 555 10229 91024;EQDQ01  00002PRCP99
0243680100999992000070218004-19180+015910FM-12+110099999V0201301N002112200019N0550001N1+01621-00121999999ADDAA199000091AY101061AY201061GA1001+999999999GF100991001001999999001001KA1120M+02321MA1999999089531MD1310071+9999ME1315439MW1051REMSYN086AAXX  02184 68010 31985 01304 10162 21012 38953 48543 53007 70500 333 10232 555 91021;EQDQ01  00002PRCP99
0224680100999992000070306004-19180+015910FM-12+110099999V0200901N003112200019N0750001N1+01051+00211999999ADDAA199000091GF101991011001999999081001KA1240M+02321KA2120N+00751MA1999999089701MD1310021+9999ME1315569REMSYN092AAXX  03064 68010 32989 10906 10105 20021 38970 48556 53002 81080 333 20075 555 10232 91023;EQDQ01  00002PRCP99
0215680100999992000070312004-19180+015910FM-12+110099999V0200901N010312200019N0650001N1+02101+00051999999ADDAA199000091GA1001+999999999GF100991001001999999001001KA1120N+00751MA1999999089571MD1810141+9999ME1315549REMSYN080AAXX  03124 68010 32987 00920 10210 20005 38957 48554 58014 333 20075 555 91022;EQDQ01  00002PRCP99
0215680100999992000070318004-19180+015910FM-12+110099999V0201301N002112200019N0550001N1+01581+00021999999ADDAA199000091GA1001+999999999GF100991001001999999001001KA1120M+02181MA1999999089461MD1310081+9999ME1315369REMSYN080AAXX  03184 68010 32985 01304 10158 20002 38946 48536 53008 333 10218 555 91021;EQDQ01  00002PRCP99
0262680100999992000070406004-19180+015910FM-12+110099999V0200901N002112200019N0550001N1+00751+00151999999ADDAA199000091AY101061AY201061GA1001+999999999GF100991001001999999001001KA1240M+02181KA2120N+00721MA1999999089491MD1310061+9999ME1315339MW1051REMSYN092AAXX  04064 68010 31985 00904 10075 20015 38949 48533 53006 70500 333 20072 555 10218 91021;EQDQ01  00002PRCP99
0205680100999992000070412004-19180+015910FM-12+110099999V0200501N008212200019N0750001N1+02191+00121999999ADDAA199000091GF102991021001999999081001KA1120N+00721MA1999999089361MD1810131+9999ME1315359REMSYN086AAXX  04124 68010 32989 20516 10219 20012 38936 48535 58013 82080 333 20072 555 91019;EQDQ01  00002PRCP99
0215680100999992000070418004-19180+015910FM-12+110099999V0201301N002112200019N0750001N1+01061+00751999999ADDAA199000091GA1001+999999999GF100991001001999999001001KA1120M+02261MA1999999089361MD1510141+9999ME1315199REMSYN080AAXX  04184 68010 32989 01304 10106 20075 38936 48519 55014 333 10226 555 91019;EQDQ01  00002PRCP99
0224680100999992000070506004-19180+015910FM-12+110099999V0201301N001512200019N0750001N1+00781-00161999999ADDAA199000091GF103991031001999999081001KA1240M+02261KA2120N+00571MA1999999089541MD1310071+9999ME1315419REMSYN092AAXX  05064 68010 32989 31303 10078 21016 38954 48541 53007 83080 333 20057 555 10226 91021;EQDQ01  00002PRCP99
0205680100999992000070512004-19180+015910FM-12+110099999V0200501N009312200019N0750001N1+02231-00171999999ADDAA199000091GF101991001001999999001021KA1120N+00571MA1999999089501MD1810171+9999ME1315509REMSYN086AAXX  05124 68010 32989 10518 10223 21017 38950 48550 58017 80002 333 20057 555 91021;EQDQ01  00002PRCP99
0205680100999992000070518004-19180+015910FM-12+110099999V0201301N001512200019N0750001N1+01581+00021999999ADDAA199000091GF101991001001999999001041KA1120M+02281MA1999999089491MD1510121+9999ME1315399REMSYN086AAXX  05184 68010 32989 11303 10158 20002 38949 48539 55012 80004 333 10228 555 91021;EQDQ01  00002PRCP99
0224680100999992000070606004-19180+015910FM-12+110099999V0201301N002612200019N0750001N1+00841+00151999999ADDAA199000091GF102991001001999999001021KA1240M+02281KA2120N+00751MA1999999089681MD1310101+9999ME1315549REMSYN092AAXX  06064 68010 32989 21305 10084 20015 38968 48554 53010 80002 333 20075 555 10228 91023;EQDQ01  00002PRCP99
0201680100999992000070612004-19180+015910FM-12+110099999V0200501N007212200019N0750001N1+02211-00221999999ADDAA199000091GA1001+999999999GF100991001001999999001001MA1999999089621MD1810191+9999ME1315619REMSYN079AAXX  06124 68010 32989 00514 10221 21022 38962 48561 58019 333 2075 555 91022;EQDQ01  00002PRCP99
0215680100999992000070712004-19180+015910FM-12+110099999V0200501N006212200019N0750001N1+02361+00071999999ADDAA199000091GA1001+999999999GF100991001001999999001001KA1120N+00561MA1999999089601MD1810171+9999ME1315619REMSYN080AAXX  07124 68010 32989 00512 10236 20007 38960 48561 58017 333 20056 555 91022;EQDQ01  00002PRCP99
0215680100999992000070718004-19180+015910FM-12+110099999V0209999C000012200019N0750001N1+01821+00321999999ADDAA199000091GA1001+999999999GF100991001001999999001001KA1120M+02371MA1999999089561MD1510101+9999ME1315499REMSYN080AAXX  07184 68010 32989 00000 10182 20032 38956 48549 55010 333 10237 555 91022;EQDQ01  00002PRCP99
0234680100999992000070806004-19180+015910FM-12+110099999V0209999C000012200019N0750001N1+00621+00041999999ADDAA199000091GA1001+999999999GF100991001001999999001001KA1240M+02371KA2120N+00591MA1999999089721MD1310081+9999ME1315589REMSYN086AAXX  08064 68010 32989 00000 10062 20004 38972 48558 53008 333 20059 555 10237 91023;EQDQ01  00002PRCP99
0215680100999992000070812004-19180+015910FM-12+110099999V0200501N007212200019N0750001N1+02241+00301999999ADDAA199000091GA1001+999999999GF100991001001999999001001KA1120N+00591MA1999999089601MD1010121+9999ME1315599REMSYN080AAXX  08124 68010 32989 00514 10224 20030 38960 48559 50012 333 20059 555 91022;EQDQ01  00002PRCP99
0215680100999992000070818004-19180+015910FM-12+110099999V0209999C000012200019N0750001N1+01681+00241999999ADDAA199000091GA1001+999999999GF100991001001999999001001KA1120M+02281MA1999999089511MD1510081+9999ME1315429REMSYN080AAXX  08184 68010 32989 00000 10168 20024 38951 48542 55008 333 10228 555 91021;EQDQ01  00002PRCP99
0234680100999992000070906004-19180+015910FM-12+110099999V0209999C000012200019N0750001N1+00781+00191999999ADDAA199000091GA1001+999999999GF100991001001999999001001KA1240M+02281KA2120N+00761MA1999999089691MD1310121+9999ME1315549REMSYN086AAXX  09064 68010 32989 00000 10078 20019 38969 48554 53012 333 20076 555 10228 91023;EQDQ01  00002PRCP99
0215680100999992000070912004-19180+015910FM-12+110099999V0200901N007212200019N0750001N1+02241+00141999999ADDAA199000091GA1001+999999999GF100991001001999999001001KA1120N+00761MA1999999089501MD1810191+9999ME1315509REMSYN080AAXX  09124 68010 32989 00914 10224 20014 38950 48550 58019 333 20076 555 91021;EQDQ01  00002PRCP99
0215680100999992000070918004-19180+015910FM-12+110099999V0209999C000012200019N0750001N1+01761+00281999999ADDAA199000091GA1001+999999999GF100991001001999999001001KA1120M+02291MA1999999089451MD1510081+9999ME1315389REMSYN080AAXX  09184 68010 32989 00000 10176 20028 38945 48538 55008 333 10229 555 91020;EQDQ01  00002PRCP99
0234680100999992000071006004-19180+015910FM-12+110099999V0201301N002112200019N0750001N1+01021+00171999999ADDAA199000091GA1001+999999999GF100991001001999999001001KA1240M+02291KA2120N+00971MA1999999089571MD1310121+9999ME1315449REMSYN086AAXX  10064 68010 32989 01304 10102 20017 38957 48544 53012 333 20097 555 10229 91022;EQDQ01  00002PRCP99
0215680100999992000071012004-19180+015910FM-12+110099999V0200501N006212200019N0750001N1+02311+00341999999ADDAA199000091GA1001+999999999GF100991001001999999001001KA1120N+00971MA1999999089431MD1810101+9999ME1315449REMSYN080AAXX  10124 68010 32989 00512 10231 20034 38943 48544 58010 333 20097 555 91020;EQDQ01  00002PRCP99
0215680100999992000071018004-19180+015910FM-12+110099999V0209999C000012200019N0750001N1+01631+00601999999ADDAA199000091GA1001+999999999GF100991001001999999001001KA1120M+02421MA1999999089331MD1510081+9999ME1315249REMSYN080AAXX  10184 68010 32989 00000 10163 20060 38933 48524 55008 333 10242 555 91019;EQDQ01  00002PRCP99
0224680100999992000071106004-19180+015910FM-12+110099999V0201301N001512200019N0750001N1+01001+00171999999ADDAA199000091GF102991021001999999031001KA1240M+02421KA2120N+00921MA1999999089461MD1310101+9999ME1315339REMSYN092AAXX  11064 68010 32989 21303 10100 20017 38946 48533 53010 82030 333 20092 555 10242 91021;EQDQ01  00002PRCP99
0233680100999992000071118004-19180+015910FM-12+110099999V0209999C000019999999N0750001N1+01921+00451999999ADDAA199000091AY101061AY201061GF106991061001999999081001KA1120M+02601MA1999999089331MD1310061+9999ME1315299MW1051REMSYN092AAXX  11184 68010 31989 60000 10192 20045 38933 48529 53006 70500 86080 333 10260 555 91019;EQDQ01  00002PRCP99
0224680100999992000071206004-19180+015910FM-12+110099999V0209999C000012200019N0750001N1+01041+00141999999ADDAA199000091GF104991041001999999081001KA1240M+02461KA2120N+00991MA1999999089471MD1310121+9999ME1315359REMSYN092AAXX  12064 68010 32989 40000 10104 20014 38947 48535 53012 84080 333 20099 555 10246 91021;EQDQ01  00002PRCP99
0205680100999992000071212004-19180+015910FM-12+110099999V0200501N005112200019N0750001N1+02521+00501999999ADDAA199000091GF101991011011022501001001KA1120N+01041MA1999999089391MD1810221+9999ME1315439REMSYN086AAXX  12124 68010 32889 10510 10252 20050 38939 48543 58022 81100 333 20104 555 91020;EQDQ01  00002PRCP99
0205680100999992000071218004-19180+015910FM-12+110099999V0209999C000012200019N0750001N1+02021+00441999999ADDAA199000091GF101991011001999999081001KA1120M+02581MA1999999089351MD1310101+9999ME1315329REMSYN086AAXX  12184 68010 32989 10000 10202 20044 38935 48532 53010 81080 333 10258 555 91019;EQDQ01  00002PRCP99
0224680100999992000071306004-19180+015910FM-12+110099999V0209999C000012200019N0750001N1+00961+00061999999ADDAA199000091GF103991031001999999081001KA1240M+02581KA2120N+00981MA1999999089361MD1310091+9999ME1315249REMSYN092AAXX  13064 68010 32989 30000 10096 20006 38936 48524 53009 83080 333 20098 555 10258 91019;EQDQ01  00002PRCP99
0215680100999992000071312004-19180+015910FM-12+110099999V0203601N004112200019N0750001N1+02471+00111999999ADDAA199000091GA1001+999999999GF100991001001999999001001KA1120N+00981MA1999999089231MD1810181+9999ME1315279REMSYN080AAXX  13124 68010 32989 03608 10247 20011 38923 48527 58018 333 20098 555 91018;EQDQ01  00002PRCP99
0221680100999992000071318004-19180+015910FM-12+110099999V0209999C000012200019N0750001N1+01861+00671999999ADDAA199000091GF101991011001999999081001KA1120M+99999MA1999999089111MD1310051+9999ME1315079REMSYN086AAXX  13184 68010 32989 10000 10186 20067 38911 48507 53005 81080 333 10164 555 91017;EQDQ01  00002PRCP99Q02 +01642ATMX  
0234680100999992000071406004-19180+015910FM-12+110099999V0209999C000012200019N0750001N1+00741-00191999999ADDAA199000091GA1001+999999999GF100991001001999999001001KA1240M+02641KA2120N+00641MA1999999089151MD1310051+9999ME1315049REMSYN086AAXX  14064 68010 32989 00000 10074 21019 38915 48504 53005 333 20064 555 10264 91017;EQDQ01  00002PRCP99
0215680100999992000071412004-19180+015910FM-12+110099999V0209999C000012200019N0750001N1+02682+00011999999ADDAA199000091GA1001+999999999GF100991001001999999001001KA1120N+00641MA1999999089081MD1810151+9999ME1315159REMSYN080AAXX  14124 68010 32989 00000 10268 20001 38908 48515 58015 333 20064 555 91016;EQDQ01  00002PRCP99
0215680100999992000071418004-19180+015910FM-12+110099999V0209999C000012200019N0750001N1+02111-00041999999ADDAA199000091GA1001+999999999GF100991001001999999001001KA1120M+02741MA1999999088951MD1510121+9999ME1314959REMSYN080AAXX  14184 68010 32989 00000 10211 21004 38895 48495 55012 333 10274 555 91015;EQDQ01  00002PRCP99
0234680100999992000071506004-19180+015910FM-12+110099999V0209999C000012200019N0750001N1+00741+00321999999ADDAA199000091GA1001+999999999GF100991001001999999001001KA1240M+02741KA2120N+00621MA1999999089231MD1310101+9999ME1315099REMSYN086AAXX  15064 68010 32989 00000 10074 20032 38923 48509 53010 333 20062 555 10274 91018;EQDQ01  00002PRCP99
0215680100999992000071612004-19180+015910FM-12+110099999V0200901N006212200019N0750001N1+02401-00321999999ADDAA199000091GA1001+999999999GF100991001001999999001001KA1120N+00631MA1999999089531MD1410001+9999ME1315559REMSYN080AAXX  16124 68010 32989 00912 10240 21032 38953 48555 54000 333 20063 555 91021;EQDQ01  00002PRCP99
0234680100999992000071706004-19180+015910FM-12+110099999V0209999C000012200019N0750001N1+00891-00041999999ADDAA199000091GA1001+999999999GF100991001001999999001001KA1240M+02651KA2120N+00721MA1999999089711MD1310081+9999ME1315609REMSYN086AAXX  17064 68010 32989 00000 10089 21004 38971 48560 53008 333 20072 555 10265 91023;EQDQ01  00002PRCP99
0215680100999992000071812004-19180+015910FM-12+110099999V0200501N006212200019N0750001N1+02641-00121999999ADDAA199000091GA1001+999999999GF100991001001999999001001KA1120N+00691MA1999999089511MD1810191+9999ME1315579REMSYN080AAXX  18124 68010 32989 00512 10264 21012 38951 48557 58019 333 20069 555 91021;EQDQ01  00002PRCP99
0215680100999992000072018004-19180+015910FM-12+110099999V0209999C000012200019N0750001N1+01981+00341999999ADDAA199000091GA1001+999999999GF100991001001999999001001KA1120M+02721MA1999999089131MD1510101+9999ME1315109REMSYN080AAXX  20184 68010 32989 00000 10198 20034 38913 48510 55010 333 10272 555 91017;EQDQ01  00002PRCP99
0234680100999992000072106004-19180+015910FM-12+110099999V0201301N002112200019N0750001N1+00771-00351999999ADDAA199000091GA1001+999999999GF100991001001999999001001KA1240M+02721KA2120N+00631MA1999999089341MD1310101+9999ME1315259REMSYN086AAXX  21064 68010 32989 01304 10077 21035 38934 48525 53010 333 20063 555 10272 91019;EQDQ01  00002PRCP99
0215680100999992000072218004-19180+015910FM-12+110099999V0209999C000012200019N0750001N1+01991+00271999999ADDAA199000091GA1001+999999999GF100991001001999999001001KA1120M+02891MA1999999089211MD1510061+9999ME1315189REMSYN080AAXX  22184 68010 32989 00000 10199 20027 38921 48518 55006 333 10289 555 91018;EQDQ01  00002PRCP99
0262680100999992000072406004-19180+015910FM-12+110099999V0209999C000012200019N0650001N1+00941-00031999999ADDAA199000091AY121061AY221061GA1001+999999999GF100991001001999999001001KA1240M+02861KA2120N+00791MA1999999089441MD1310181+9999ME1315349MW1051REMSYN092AAXX  24064 68010 31987 00000 10094 21003 38944 48534 53018 70522 333 20079 555 10286 91020;EQDQ01  00002PRCP99
0215680100999992000072412004-19180+015910FM-12+110099999V0200901N007212200019N0750001N1+02762+00211999999ADDAA199000091GA1001+999999999GF100991001001999999001001KA1120N+00761MA1999999089291MD1810161+9999ME1315379REMSYN080AAXX  24124 68010 32989 00914 10276 20021 38929 48537 58016 333 20076 555 91019;EQDQ01  00002PRCP99
0243680100999992000072418004-19180+015910FM-12+110099999V0209999C000012200019N0200001N1+01891+00481999999ADDAA199000091AY101061AY201061GA1001+999999999GF100991001001999999001001KA1120M+02771MA1999999089231MD1310101+9999ME1315199MW1051REMSYN086AAXX  24184 68010 31970 00000 10189 20048 38923 48519 53010 70500 333 10277 555 91018;EQDQ01  00002PRCP99
0262680100999992000072506004-19180+015910FM-12+110099999V0209999C000012200019N0150001N1+01071+00101999999ADDAA199000091AY101061AY201061GA1001+999999999GF100991001001999999001001KA1240M+02771KA2120N+01061MA1999999089451MD1310111+9999ME1315349MW1051REMSYN092AAXX  25064 68010 31965 00000 10107 20010 38945 48534 53011 70500 333 20106 555 10277 91020;EQDQ01  00002PRCP99
0215680100999992000072518004-19180+015910FM-12+110099999V0209999C000012200019N0750001N1+01981+00371999999ADDAA199000091GA1001+999999999GF100991001001999999001001KA1120M+02741MA1999999089301MD1510071+9999ME1315279REMSYN080AAXX  25184 68010 32989 00000 10198 20037 38930 48527 55007 333 10274 555 91019;EQDQ01  00002PRCP99
0195680100999992000072612004-19180+015910FM-12+110099999V0200501N008212200019N0650001N1+02561-00031999999ADDAA199000091GA1001+999999999GF100991001001999999001001KA1120N+00781MA1999999089591ME1315639REMSYN074AAXX  26124 68010 32987 00516 10256 21003 38959 48563 333 20078 555 91022;EQDQ01  00002PRCP99
0215680100999992000072618004-19180+015910FM-12+110099999V0209999C000012200019N0750001N1+01981+00061999999ADDAA199000091GA1001+999999999GF100991001001999999001001KA1120M+02661MA1999999089541MD1510111+9999ME1315509REMSYN080AAXX  26184 68010 32989 00000 10198 20006 38954 48550 55011 333 10266 555 91021;EQDQ01  00002PRCP99
0250680100999992000072712004-19180+015910FM-12+110099999V0200901N009312200019N0750001N1+02501+00241999999ADDAA199000091GA1001+999999999GF100991001001999999001001KA1120M+99999KA2120N-00801MA1999999089601MD1810171+9999ME1315549REMSYN086AAXX  27124 68010 32989 00918 10250 20024 38960 48554 58017 333 10076 21080 555 91022;EQDQ01  00002PRCP99Q02 +00762ATMX  
0215680100999992000072718004-19180+015910FM-12+110099999V0209999C000012200019N0750001N1+01891+00191999999ADDAA199000091GA1001+999999999GF100991001001999999001001KA1120M+02541MA1999999089511MD1610101+9999ME1315459REMSYN080AAXX  27184 68010 32989 00000 10189 20019 38951 48545 56010 333 10254 555 91021;EQDQ01  00002PRCP99
0234680100999992000072806004-19180+015910FM-12+110099999V0209999C000012200019N0750001N1+00801+00051999999ADDAA199000091GA1001+999999999GF100991001001999999001001KA1240M+02541KA2120N+00761MA1999999089611MD1310061+9999ME1315489REMSYN086AAXX  28064 68010 32989 00000 10080 20005 38961 48548 53006 333 20076 555 10254 91022;EQDQ01  00002PRCP99
0234680100999992000072906004-19180+015910FM-12+110099999V0209999C000012200019N0750001N1+00941-00061999999ADDAA199000091GA1001+999999999GF100991001001999999001001KA1240M+02441KA2120N+00801MA1999999089431MD1310101+9999ME1315309REMSYN086AAXX  29064 68010 32989 00000 10094 21006 38943 48530 53010 333 20080 555 10244 91020;EQDQ01  00002PRCP99
0219680100999992000073006004-19180+015910FM-12+110099999V0202301N001512200019N0650001N1+00671-00221999999ADDAA199000091GA1001+999999999GF100991001001999999001001KA1240M+02471KA2120N+00641MD1310141+9999ME1315659REMSYN086AAXX  30064 68010 32987 02303 10067 21022 38/// 48565 53014 333 20064 555 10247 91020;EQDQ01  00002PRCP99
0225680100999992000073012004-19180+015910FM-12+110099999V0200501N006212200019N0750001N1+02482+00031999999ADDAA199000091GA1001+999999999GF100991001001999999001001KA1120N+00411MA1999999089291MD1810161+9999ME1315339REMSYN074AAXX  30124 68010 32989 00512 10248 20003 38929 48533 58016 333 20041 555;EQDQ01+002483ATOT  Q02  00002PRCP99
0196680100999992000073112004-19180+015910FM-12+110099999V0200501N005112200019N0750001N1+02581-00461999999ADDAA199000091GA1001+999999999GF100991001001999999001001MA1999999089321MD1810201+9999ME1315379REMSYN074AAXX  31124 68010 32989 00510 10258 21046 38932 48537 58020 333 555 91019;EQDQ01  00002PRCP99
0243680100999992000080118004-19180+015910FM-12+110099999V0209999C000012200019N0300001N1+01981+00091999999ADDAA199000091AY101061AY201061GA1001+999999999GF100991001001999999001001KA1120M+02821MA1999999089081MD1610151+9999ME1315059MW1051REMSYN086AAXX  01184 68010 31980 00000 10198 20009 38908 48505 56015 70500 333 10282 555 91016;EQDQ01  00002PRCP99
0215680100999992000080212004-19180+015910FM-12+110099999V0200501N002112200019N0750001N1+02631-00141999999ADDAA199000091GA1001+999999999GF100991001001999999001001KA1120N+00751MA1999999089201MD1810171+9999ME1315269REMSYN080AAXX  02124 68010 32989 00504 10263 21014 38920 48526 58017 333 20075 555 91018;EQDQ01  00002PRCP99
0205680100999992000080412004-19180+015910FM-12+110099999V0209999C000012200019N0750001N1+02671-00911999999ADDAA199000091GF101991001001999999001061KA1120N+00841MA1999999089331MD1810101+9999ME1315399REMSYN086AAXX  04124 68010 32989 10000 10267 21091 38933 48539 58010 80006 333 20084 555 91019;EQDQ01  00002PRCP99
0215680100999992000080418004-19180+015910FM-12+110099999V0209999C000012200019N0750001N1+01901+00111999999ADDAA199000091GA1001+999999999GF100991001001999999001001KA1120M+02931MA1999999089221MD1510081+9999ME1315189REMSYN080AAXX  04184 68010 32989 00000 10190 20011 38922 48518 55008 333 10293 555 91018;EQDQ01  00002PRCP99
0224680100999992000080506004-19180+015910FM-12+110099999V0209999C000012200019N0750001N1+01321-00191999999ADDAA199000091GF102991001001999999001021KA1240M+02931KA2120N+00871MA1999999089481MD1310121+9999ME1315419REMSYN092AAXX  05064 68010 32989 20000 10132 21019 38948 48541 53012 80002 333 20087 555 10293 91021;EQDQ01  00002PRCP99
0215680100999992000080512004-19180+015910FM-12+110099999V0200501N006212200019N0650001N1+02961-00041999999ADDAA199000091GA1001+999999999GF100991001001999999001001KA1120N+01321MA1999999089321MD1810201+9999ME1315439REMSYN080AAXX  05124 68010 32987 00512 10296 21004 38932 48543 58020 333 20132 555 91019;EQDQ01  00002PRCP99
0215680100999992000080518004-19180+015910FM-12+110099999V0209999C000012200019N0750001N1+02211-00061999999ADDAA199000091GA1001+999999999GF100991001001999999001001KA1120M+03001MA1999999089301MD1310041+9999ME1315309REMSYN080AAXX  05184 68010 32989 00000 10221 21006 38930 48530 53004 333 10300 555 91019;EQDQ01  00002PRCP99
0224680100999992000080606004-19180+015910FM-12+110099999V0200501N002112200019N0750001N1+01471+00001999999ADDAA199000091GF101991001001999999001011KA1240M+03001KA2120N+00811MA1999999089581MD1310261+9999ME1315519REMSYN092AAXX  06064 68010 32989 10504 10147 20000 38958 48551 53026 80001 333 20081 555 10300 91022;EQDQ01  00002PRCP99
0215680100999992000080712004-19180+015910FM-12+110099999V0200901N006212200019N0750001N1+02781-00241999999ADDAA199000091GA1001+999999999GF100991001001999999001001KA1120N+01171MA1999999089501MD1810191+9999ME1315589REMSYN080AAXX  07124 68010 32989 00912 10278 21024 38950 48558 58019 333 20117 555 91021;EQDQ01  00002PRCP99
0234680100999992000080806004-19180+015910FM-12+110099999V0209999C000012200019N0750001N1+00981-00091999999ADDAA199000091GA1001+999999999GF100991001001999999001001KA1240M+02841KA2120N+00871MA1999999089721MD1310151+9999ME1315639REMSYN086AAXX  08064 68010 32989 00000 10098 21009 38972 48563 53015 333 20087 555 10284 91023;EQDQ01  00002PRCP99
0231680100999992000080812004-19180+015910FM-12+110099999V0200501N008212200019N0750001N1+02762+00041999999ADDAA199000091GA1001+999999999GF100991001001999999001001KA1120N+00891MA1999999089611MD1810181+9999ME1315689REMSYN080AAXX  08124 68010 32989 00516 10276 20004 38961 48568 58018 333 20089 555 91022;EQDQ01+002763ATOT  Q02  00002PRCP99
0215680100999992000080918004-19180+015910FM-12+110099999V0209999C000012200019N0750001N1+02051+00221999999ADDAA199000091GA1001+999999999GF100991001001999999001001KA1120M+02761MA1999999089421MD1510021+9999ME1315399REMSYN080AAXX  09184 68010 32989 00000 10205 20022 38942 48539 55002 333 10276 555 91020;EQDQ01  00002PRCP99
0234680100999992000081006004-19180+015910FM-12+110099999V0202301N001512200019N0750001N1+00851-00561999999ADDAA199000091GA1001+999999999GF100991001001999999001001KA1240M+02761KA2120N+00761MA1999999089621MD1310121+9999ME1315559REMSYN086AAXX  10064 68010 32989 02303 10085 21056 38962 48555 53012 333 20076 555 10276 91022;EQDQ01  00002PRCP99
0231680100999992000081012004-19180+015910FM-12+110099999V0209999C000012200019N0750001N1+02652-00511999999ADDAA199000091GA1001+999999999GF100991001001999999001001KA1120N+00761MA1999999089461MD1810131+9999ME1315529REMSYN080AAXX  10124 68010 32989 00000 10265 21051 38946 48552 58013 333 20076 555 91021;EQDQ01+002653ATOT  Q02  00002PRCP99
0234680100999992000081106004-19180+015910FM-12+110099999V0202301N002112200019N0750001N1+00861-00421999999ADDAA199000091GA1001+999999999GF100991001001999999001001KA1240M+02761KA2120N+00781MA1999999089631MD1310141+9999ME1315549REMSYN086AAXX  11064 68010 32989 02304 10086 21042 38963 48554 53014 333 20078 555 10276 91022;EQDQ01  00002PRCP99
0215680100999992000081112004-19180+015910FM-12+110099999V0200501N002112200019N0750001N1+02572-00291999999ADDAA199000091GA1001+999999999GF100991001001999999001001KA1120N+00861MA1999999089491MD1710261+9999ME1315549REMSYN080AAXX  11124 68010 32989 00504 10257 21029 38949 48554 57026 333 20086 555 91021;EQDQ01  00002PRCP99
0215680100999992000081118004-19180+015910FM-12+110099999V0209999C000012200019N0750001N1+02081-00031999999ADDAA199000091GA1001+999999999GF100991001001999999001001KA1120M+02741MA1999999089391MD1510081+9999ME1315379REMSYN080AAXX  11184 68010 32989 00000 10208 21003 38939 48537 55008 333 10274 555 91020;EQDQ01  00002PRCP99
0215680100999992000081212004-19180+015910FM-12+110099999V0201301N005112200019N0750001N1+02641-00541999999ADDAA199000091GA1001+999999999GF100991001001999999001001KA1120N+00571MA1999999089551MD1810241+9999ME1315619REMSYN080AAXX  12124 68010 32989 01310 10264 21054 38955 48561 58024 333 20057 555 91022;EQDQ01  00002PRCP99
0215680100999992000081218004-19180+015910FM-12+110099999V0209999C000012200019N0750001N1+01841-00511999999ADDAA199000091GA1001+999999999GF100991001001999999001001KA1120M+02721MA1999999089521MD1510011+9999ME1315469REMSYN080AAXX  12184 68010 32989 00000 10184 21051 38952 48546 55001 333 10272 555 91021;EQDQ01  00002PRCP99
0234680100999992000081306004-19180+015910FM-12+110099999V0201301N005112200019N0750001N1+01091-00661999999ADDAA199000091GA1001+999999999GF100991001001999999001001KA1240M+02721KA2120N+00831MA1999999089671MD1310071+9999ME1315619REMSYN086AAXX  13064 68010 32989 01310 10109 21066 38967 48561 53007 333 20083 555 10272 91023;EQDQ01  00002PRCP99
0215680100999992000081312004-19180+015910FM-12+110099999V0200501N008212200019N0750001N1+02641-00651999999ADDAA199000091GA1001+999999999GF100991001001999999001001KA1120N+00831MA1999999089511MD1810181+9999ME1315579REMSYN080AAXX  13124 68010 32989 00516 10264 21065 38951 48557 58018 333 20083 555 91021;EQDQ01  00002PRCP99
0215680100999992000081318004-19180+015910FM-12+110099999V0209999C000012200019N0750001N1+02111-00121999999ADDAA199000091GA1001+999999999GF100991001001999999001001KA1120M+02661MA1999999089431MD1310101+9999ME1315419REMSYN080AAXX  13184 68010 32989 00000 10211 21012 38943 48541 53010 333 10266 555 91020;EQDQ01  00002PRCP99
0215680100999992000081412004-19180+015910FM-12+110099999V0200901N009312200019N0750001N1+02561-00071999999ADDAA199000091GA1001+999999999GF100991001001999999001001KA1120N+00791MA1999999089611MD1810181+9999ME1315659REMSYN080AAXX  14124 68010 32989 00918 10256 21007 38961 48565 58018 333 20079 555 91022;EQDQ01  00002PRCP99
0215680100999992000081418004-19180+015910FM-12+110099999V0200901N006212200019N0750001N1+01981-00121999999ADDAA199000091GA1001+999999999GF100991001001999999001001KA1120M+02591MA1999999089511MD1510181+9999ME1315479REMSYN080AAXX  14184 68010 32989 00912 10198 21012 38951 48547 55018 333 10259 555 91021;EQDQ01  00002PRCP99
0215680100999992000081518004-19180+015910FM-12+110099999V0209999C000012200019N0750001N1+01871+00221999999ADDAA199000091GA1001+999999999GF100991001001999999001001KA1120M+02471MA1999999089491MD1510161+9999ME1315439REMSYN080AAXX  15184 68010 32989 00000 10187 20022 38949 48543 55016 333 10247 555 91021;EQDQ01  00002PRCP99
0215680100999992000081612004-19180+015910FM-12+110099999V0200901N006212200019N0650001N1+02471+00351999999ADDAA199000091GA1001+999999999GF100991001001999999001001KA1120N+00741MA1999999089521MD1810191+9999ME1315559REMSYN080AAXX  16124 68010 32987 00912 10247 20035 38952 48555 58019 333 20074 555 91021;EQDQ01  00002PRCP99
0215680100999992000081618004-19180+015910FM-12+110099999V0209999C000012200019N0750001N1+01901+00211999999ADDAA199000091GA1001+999999999GF100991001001999999001001KA1120M+02581MA1999999089411MD1510071+9999ME1315369REMSYN080AAXX  16184 68010 32989 00000 10190 20021 38941 48536 55007 333 10258 555 91020;EQDQ01  00002PRCP99
0234680100999992000081706004-19180+015910FM-12+110099999V0209999C000012200019N0750001N1+00861-00141999999ADDAA199000091GA1001+999999999GF100991001001999999001001KA1240M+02581KA2120N+00801MA1999999089561MD1310031+9999ME1315449REMSYN086AAXX  17064 68010 32989 00000 10086 21014 38956 48544 53003 333 20080 555 10258 91022;EQDQ01  00002PRCP99
0215680100999992000081712004-19180+015910FM-12+110099999V0200501N007212200019N0750001N1+02562+00121999999ADDAA199000091GA1001+999999999GF100991001001999999001001KA1120N+00801MA1999999089431MD1810101+9999ME1315489REMSYN080AAXX  17124 68010 32989 00514 10256 20012 38943 48548 58010 333 20080 555 91020;EQDQ01  00002PRCP99
0215680100999992000081718004-19180+015910FM-12+110099999V0209999C000012200019N0750001N1+01871+00401999999ADDAA199000091GA1001+999999999GF100991001001999999001001KA1120M+02701MA1999999089291MD1510061+9999ME1315249REMSYN080AAXX  17184 68010 32989 00000 10187 20040 38929 48524 55006 333 10270 555 91019;EQDQ01  00002PRCP99
0224680100999992000081806004-19180+015910FM-12+110099999V0201301N002119999999N0750001N1+01151-00271999999ADDAA199000091GF105991001001999999001021KA1240M+02701KA2120N+01061MA1999999089511MD1310081+9999ME1315429REMSYN092AAXX  18064 68010 32989 51304 10115 21027 38951 48542 53008 80002 333 20106 555 10270 91021;EQDQ01  00002PRCP99
0205680100999992000081812004-19180+015910FM-12+110099999V0200901N006212200019N0650001N1+02631+00051999999ADDAA199000091GF103991031011999999001001KA1120N+01061MA1999999089431MD1810101+9999ME1315499REMSYN086AAXX  18124 68010 32987 30912 10263 20005 38943 48549 58010 83100 333 20106 555 91020;EQDQ01  00002PRCP99
0215680100999992000081818004-19180+015910FM-12+110099999V0209999C000012200019N0750001N1+02071+00281999999ADDAA199000091GA1001+999999999GF100991001001999999001001KA1120M+02741MA1999999089321MD1510081+9999ME1315309REMSYN080AAXX  18184 68010 32989 00000 10207 20028 38932 48530 55008 333 10274 555 91019;EQDQ01  00002PRCP99
0215680100999992000081912004-19180+015910FM-12+110099999V0200501N007212200019N0750001N1+02891+00071999999ADDAA199000091GA1001+999999999GF100991001001999999001001KA1120N+00931MA1999999089311MD1810221+9999ME1315419REMSYN080AAXX  19124 68010 32989 00514 10289 20007 38931 48541 58022 333 20093 555 91019;EQDQ01  00002PRCP99
0215680100999992000081918004-19180+015910FM-12+110099999V0209999C000012200019N0750001N1+02181+00471999999ADDAA199000091GA1001+999999999GF100991001001999999001001KA1120M+02971MA1999999089321MD1510081+9999ME1315319REMSYN080AAXX  19184 68010 32989 00000 10218 20047 38932 48531 55008 333 10297 555 91019;EQDQ01  00002PRCP99
0234680100999992000082006004-19180+015910FM-12+110099999V0201801N002112200019N0750001N1+01151-00091999999ADDAA199000091GA1001+999999999GF100991001001999999001001KA1240M+02971KA2120N+00961MA1999999089501MD1310091+9999ME1315419REMSYN086AAXX  20064 68010 32989 01804 10115 21009 38950 48541 53009 333 20096 555 10297 91021;EQDQ01  00002PRCP99
0231680100999992000082012004-19180+015910FM-12+110099999V0200501N002112200019N0750001N1+02852+00241999999ADDAA199000091GA1001+999999999GF100991001001999999001001KA1120N+01141MA1999999089351MD1010161+9999ME1315449REMSYN080AAXX  20124 68010 32989 00504 10285 20024 38935 48544 50016 333 20114 555 91019;EQDQ01+002853ATOT  Q02  00002PRCP99
0234680100999992000082106004-19180+015910FM-12+110099999V0202301N001512200019N0750001N1+01141+00221999999ADDAA199000091GA1001+999999999GF100991001001999999001001KA1240M+02991KA2120N+00941MA1999999089431MD1310081+9999ME1315319REMSYN086AAXX  21064 68010 32989 02303 10114 20022 38943 48531 53008 333 20094 555 10299 91020;EQDQ01  00002PRCP99
0215680100999992000082112004-19180+015910FM-12+110099999V0200501N006212200019N0750001N1+02862+00451999999ADDAA199000091GA1001+999999999GF100991001001999999001001KA1120N+00941MA1999999089301MD1810181+9999ME1315399REMSYN080AAXX  21124 68010 32989 00512 10286 20045 38930 48539 58018 333 20094 555 91019;EQDQ01  00002PRCP99
0205680100999992000082118004-19180+015910FM-12+110099999V0209999C000012200019N0750001N1+02391+00501999999ADDAA199000091GF102991021001999999031001KA1120M+03031MA1999999089141MD1510081+9999ME1315179REMSYN086AAXX  21184 68010 32989 20000 10239 20050 38914 48517 55008 82030 333 10303 555 91017;EQDQ01  00002PRCP99
0224680100999992000082206004-19180+015910FM-12+110099999V0201301N001512200019N0750001N1+01451-00041999999ADDAA199000091GF103991031001999999081001KA1240M+03031KA2120N+01241MA1999999089281MD1310101+9999ME1315209REMSYN092AAXX  22064 68010 32989 31303 10145 21004 38928 48520 53010 83080 333 20124 555 10303 91019;EQDQ01  00002PRCP99
0205680100999992000082212004-19180+015910FM-12+110099999V0203601N007212200019N0650001N1+03091+00071999999ADDAA199000091GF102991021021022501001001KA1120N+01241MA1999999089141MD1810111+9999ME1315279REMSYN086AAXX  22124 68010 32887 23614 10309 20007 38914 48527 58011 82200 333 20124 555 91017;EQDQ01  00002PRCP99
0205680100999992000082218004-19180+015910FM-12+110099999V0209999C000012200019N0750001N1+02341+00481999999ADDAA199000091GF101991011001999999081001KA1120M+03121MA1999999089091MD1510081+9999ME1315119REMSYN086AAXX  22184 68010 32989 10000 10234 20048 38909 48511 55008 81080 333 10312 555 91016;EQDQ01  00002PRCP99
0224680100999992000082306004-19180+015910FM-12+110099999V0201301N002112200019N0650001N1+01461-00161999999ADDAA199000091GF102991001001999999001041KA1240M+03121KA2120N+01301MA1999999089411MD1310081+9999ME1315359REMSYN092AAXX  23064 68010 32987 21304 10146 21016 38941 48535 53008 80004 333 20130 555 10312 91020;EQDQ01  00002PRCP99
0205680100999992000082312004-19180+015910FM-12+110099999V0200501N006212200019N0750001N1+03021+00251999999ADDAA199000091GF101991011011999999001001KA1120N+01301MA1999999089351MD1810121+9999ME1315479REMSYN086AAXX  23124 68010 32989 10512 10302 20025 38935 48547 58012 81100 333 20130 555 91019;EQDQ01  00002PRCP99
0243680100999992000082318004-19180+015910FM-12+110099999V0209999C000012200019N0300001N1+02341+00361999999ADDAA199000091AY101061AY201061GA1001+999999999GF100991001001999999001001KA1120M+03121MA1999999089361MD1510131+9999ME1315389MW1071REMSYN086AAXX  23184 68010 31980 00000 10234 20036 38936 48538 55013 70700 333 10312 555 91019;EQDQ01  00002PRCP99
0175680100999992000082403004-19180+015910FM-12+110099999V0209999C000012200019N0750001N1+01441-00381999999ADDGF102991021001999999081001MA1999999999999MD1810011+9999ME1313909REMSYN080AAXX  24034 68010 42989 20000 10144 21038 38336 48390 58001 82080 333 555 90953;EQDQ01 083363APOSP 
0250680100999992000082406004-19180+015910FM-12+110099999V0209999C000012200019N0550001N1+01611-00131999999ADDAA199000091GA1001+999999999GF100991001001999999001001KA1240M+03121KA2120N+01251MA1999999089552MD1310121+9999ME1315509REMSYN086AAXX  24064 68010 32985 00000 10161 21013 38955 48550 53012 333 20125 555 10312 91022;EQDQ01+089553APOSP Q02  00002PRCP99
0243680100999992000082412004-19180+015910FM-12+110099999V0200501N005112200019N0550001N1+03091-00421999999ADDAA199000091AY101061AY201061GA1001+999999999GF100991001001999999001001KA1120N+01891MA1999999089421MD1010181+9999ME1315559MW1051REMSYN086AAXX  24124 68010 31985 00510 10309 21042 38942 48555 50018 70500 333 20189 555 91020;EQDQ01  00002PRCP99
0215680100999992000082418004-19180+015910FM-12+110099999V0209999C000012200019N0650001N1+02301-00061999999ADDAA199000091GA1001+999999999GF100991001001999999001001KA1120M+03011MA1999999089391MD1510081+9999ME1315409REMSYN080AAXX  24184 68010 32987 00000 10230 21006 38939 48540 55008 333 10301 555 91020;EQDQ01  00002PRCP99
0234680100999992000082506004-19180+015910FM-12+110099999V0202301N001512200019N0700001N1+01251-00471999999ADDAA199000091GA1001+999999999GF100991001001999999001001KA1240M+03101KA2120N+01121MA1999999089681MD1310161+9999ME1315649REMSYN086AAXX  25064 68010 32988 02303 10125 21047 38968 48564 53016 333 20112 555 10310 91023;EQDQ01  00002PRCP99
0215680100999992000082512004-19180+015910FM-12+110099999V0200501N002112200019N0750001N1+02992-00531999999ADDAA199000091GA1001+999999999GF100991001001999999001001KA1120N+01101MA1999999089471MD1810141+9999ME1315589REMSYN080AAXX  25124 68010 32989 00504 10299 21053 38947 48558 58014 333 20110 555 91021;EQDQ01  00002PRCP99
0215680100999992000082518004-19180+015910FM-12+110099999V0209999C000012200019N0750001N1+02351-00231999999ADDAA199000091GA1001+999999999GF100991001001999999001001KA1120M+03061MA1999999089341MD1510101+9999ME1315369REMSYN080AAXX  25184 68010 32989 00000 10235 21023 38934 48536 55010 333 10306 555 91019;EQDQ01  00002PRCP99
0234680100999992000082606004-19180+015910FM-12+110099999V0201301N001512200019N0750001N1+01381-00191999999ADDAA199000091GA1001+999999999GF100991001001999999001001KA1240M+03061KA2120N+01221MA1999999089611MD1310171+9999ME1315559REMSYN086AAXX  26064 68010 32989 01303 10138 21019 38961 48555 53017 333 20122 555 10306 91022;EQDQ01  00002PRCP99
0215680100999992000082612004-19180+015910FM-12+110099999V0201301N002112200019N0650001N1+02861-00041999999ADDAA199000091GA1001+999999999GF100991001001999999001001KA1120N+01361MA1999999089371MD1810251+9999ME1315469REMSYN080AAXX  26124 68010 32987 01304 10286 21004 38937 48546 58025 333 20136 555 91020;EQDQ01  00002PRCP99
0205680100999992000082712004-19180+015910FM-12+110099999V0200501N002112200019N0750001N1+02881-00251999999ADDAA199000091GF101991011011017501001001KA1120N+01321MA1999999089331MD1810201+9999ME1315439REMSYN086AAXX  27124 68010 32789 10504 10288 21025 38933 48543 58020 81100 333 20132 555 91019;EQDQ01  00002PRCP99
0205680100999992000082718004-19180+015910FM-12+110099999V0209999C000012200019N0750001N1+02141+00121999999ADDAA199000091GF101991011001999999081001KA1120M+02941MA1999999089361MD1510101+9999ME1315359REMSYN086AAXX  27184 68010 32989 10000 10214 20012 38936 48535 55010 81080 333 10294 555 91019;EQDQ01  00002PRCP99
0234680100999992000082806004-19180+015910FM-12+110099999V0200901N006212200019N0750001N1+01721-00261999999ADDAA199000091GA1001+999999999GF100991001001999999001001KA1240M+02941KA2120N+01031MA1999999089591MD1310191+9999ME1315559REMSYN086AAXX  28064 68010 32989 00912 10172 21026 38959 48555 53019 333 20103 555 10294 91022;EQDQ01  00002PRCP99
0215680100999992000082812004-19180+015910FM-12+110099999V0200501N009312200019N0750001N1+02841-00091999999ADDAA199000091GA1001+999999999GF100991001001999999001001KA1120N+01791MA1999999089381MD1810271+9999ME1315479REMSYN080AAXX  28124 68010 32989 00518 10284 21009 38938 48547 58027 333 20179 555 91020;EQDQ01  00002PRCP99
0215680100999992000082818004-19180+015910FM-12+110099999V0200901N001512200019N0750001N1+02251-00051999999ADDAA199000091GA1001+999999999GF100991001001999999001001KA1120M+02881MA1999999089341MD1510091+9999ME1315349REMSYN080AAXX  28184 68010 32989 00903 10225 21005 38934 48534 55009 333 10288 555 91019;EQDQ01  00002PRCP99
0234680100999992000082906004-19180+015910FM-12+110099999V0209999C000012200019N0750001N1+01231-00171999999ADDAA199000091GA1001+999999999GF100991001001999999001001KA1240M+02881KA2120N+01021MA1999999089491MD1310061+9999ME1315419REMSYN086AAXX  29064 68010 32989 00000 10123 21017 38949 48541 53006 333 20102 555 10288 91021;EQDQ01  00002PRCP99
0215680100999992000082912004-19180+015910FM-12+110099999V0200901N009312200019N0750001N1+02791-00461999999ADDAA199000091GA1001+999999999GF100991001001999999001001KA1120N+01021MA1999999089331MD1810101+9999ME1315419REMSYN080AAXX  29124 68010 32989 00918 10279 21046 38933 48541 58010 333 20102 555 91019;EQDQ01  00002PRCP99
0215680100999992000082918004-19180+015910FM-12+110099999V0209999C000012200019N0750001N1+02071+00311999999ADDAA199000091GA1001+999999999GF100991001001999999001001KA1120M+02891MA1999999089281MD1510111+9999ME1315269REMSYN080AAXX  29184 68010 32989 00000 10207 20031 38928 48526 55011 333 10289 555 91019;EQDQ01  00002PRCP99
0234680100999992000083006004-19180+015910FM-12+110099999V0201801N002112200019N0750001N1+01241-00261999999ADDAA199000091GA1001+999999999GF100991001001999999001001KA1240M+02891KA2120N+01041MA1999999089381MD1310061+9999ME1315319REMSYN086AAXX  30064 68010 32989 01804 10124 21026 38938 48531 53006 333 20104 555 10289 91020;EQDQ01  00002PRCP99
0215680100999992000083012004-19180+015910FM-12+110099999V0200301N008212200019N0750001N1+02921-00381999999ADDAA199000091GA1001+999999999GF100991001001999999001001KA1120N+01041MA1999999089201MD1810171+9999ME1315309REMSYN080AAXX  30124 68010 32989 00316 10292 21038 38920 48530 58017 333 20104 555 91018;EQDQ01  00002PRCP99
0215680100999992000083018004-19180+015910FM-12+110099999V0209999C000012200019N0750001N1+02091-00081999999ADDAA199000091GA1001+999999999GF100991001001999999001001KA1120M+02981MA1999999089111MD1510151+9999ME1315109REMSYN080AAXX  30184 68010 32989 00000 10209 21008 38911 48510 55015 333 10298 555 91017;EQDQ01  00002PRCP99
0195680100999992000083106004-19180+015910FM-12+110099999V0202301N002112200019N0750001N1+01081-00551999999ADDAA199000091GA1001+999999999GF100991001001999999001001KA1240M+02941KA2120N+00991REMSYN085AAXX  31064 68010 32989 02304 10108 21055 8924 48518 53012 333 20099 555 10294 91018;EQDQ01  00002PRCP99
0259680100999992000083112004-19180+015910FM-12+110099999V0203101N002112200019N0700001N1+03052+00061999999ADDAA199000091AY101061AY201061GA1001+999999999GF100991001001999999001001KA1120N+01061MA1999999089041MD1810261+9999ME1315169MW1051REMSYN086AAXX  31124 68010 31988 03104 10305 20006 38904 48516 58026 70500 333 20106 555 91016;EQDQ01+003053ATOT  Q02  00002PRCP99
0234680100999992000090106004-19180+015910FM-12+110099999V0202301N002112200019N0300001N1+01241-00411999999ADDAA199000091GA1001+999999999GF100991001001999999001001KA1240M+03081KA2120N+00921MA1999999089181MD1310151+9999ME1315129REMSYN086AAXX  01064 68010 32980 02304 10124 21041 38918 48512 53015 333 20092 555 10308 91017;EQDQ01  00002PRCP99
0215680100999992000090112004-19180+015910FM-12+110099999V0200501N007212200019N0750001N1+03162-00521999999ADDAA199000091GA1001+999999999GF100991001001999999001001KA1120N+01241MA1999999089001MD1810201+9999ME1315149REMSYN080AAXX  01124 68010 32989 00514 10316 21052 38900 48514 58020 333 20124 555 91015;EQDQ01  00002PRCP99
0215680100999992000090118004-19180+015910FM-12+110099999V0209999C000012200019N0750001N1+02301+00161999999ADDAA199000091GA1001+999999999GF100991001001999999001001KA1120M+03241MA1999999088951MD1510081+9999ME1314979REMSYN080AAXX  01184 68010 32989 00000 10230 20016 38895 48497 55008 333 10324 555 91015;EQDQ01  00002PRCP99
0205680100999992000090218004-19180+015910FM-12+110099999V0209999C000012200019N0750001N1+02271-00241999999ADDAA199000091GF101991011001999999031001KA1120M+03181MA1999999088791MD1610141+9999ME1314819REMSYN086AAXX  02184 68010 32989 10000 10227 21024 38879 48481 56014 81030 333 10318 555 91013;EQDQ01  00002PRCP99
0224680100999992000090306004-19180+015910FM-12+110099999V0202301N002112200019N0650001N1+01581+00021999999ADDAA199000091GF103991031001999999031001KA1240M+03181KA2120N+01491MA1999999088941MD1310091+9999ME1314889REMSYN092AAXX  03064 68010 32987 32304 10158 20002 38894 48488 53009 83030 333 20149 555 10318 91015;EQDQ01  00002PRCP99
0205680100999992000090312004-19180+015910FM-12+110099999V0209999C000012200019N0750001N1+03061+00121999999ADDAA199000091GF103991031001999999031001KA1120N+01561MA1999999088791MD1810201+9999ME1314919REMSYN086AAXX  03124 68010 32989 30000 10306 20012 38879 48491 58020 83030 333 20156 555 91013;EQDQ01  00002PRCP99
0215680100999992000090318004-19180+015910FM-12+110099999V0209999C000012200019N0750001N1+02511+00231999999ADDAA199000091GA1001+999999999GF100991001001999999001001KA1120M+03161MA1999999088731MD1310101+9999ME1314789REMSYN080AAXX  03184 68010 32989 00000 10251 20023 38873 48478 53010 333 10316 555 91012;EQDQ01  00002PRCP99
0224680100999992000090406004-19180+015910FM-12+110099999V0209999C000012200019N0750001N1+01401-00121999999ADDAA199000091GF103991031001999999081021KA1240M+03161KA2120N+01361MA1999999089001MD1310071+9999ME1314949REMSYN092AAXX  04064 68010 32989 30000 10140 21012 38900 48494 53007 83082 333 20136 555 10316 91015;EQDQ01  00002PRCP99
0205680100999992000090412004-19180+015910FM-12+110099999V0203101N006212200019N0750001N1+03182-00161999999ADDAA199000091GF101991011001999999071001KA1120N+01361MA1999999088871MD1810141+9999ME1315019REMSYN086AAXX  04124 68010 32989 13112 10318 21016 38887 48501 58014 81070 333 20136 555 91014;EQDQ01  00002PRCP99
0215680100999992000090418004-19180+015910FM-12+110099999V0201801N006212200019N0750001N1+02661-00381999999ADDAA199000091GA1001+999999999GF100991001001999999001001KA1120M+03241MA1999999088921MD1310191+9999ME1314999REMSYN080AAXX  04184 68010 32989 01812 10266 21038 38892 48499 53019 333 10324 555 91015;EQDQ01  00002PRCP99
0224680100999992000090506004-19180+015910FM-12+110099999V0209999C000012200019N0750001N1+01401-00381999999ADDAA199000091GF101991011001999999081001KA1240M+03241KA2120N+01321MA1999999089231MD1310101+9999ME1315199REMSYN092AAXX  05064 68010 32989 10000 10140 21038 38923 48519 53010 81080 333 20132 555 10324 91018;EQDQ01  00002PRCP99
0217680100999992000090512004-19180+015910FM-12+110099999V0209999C000012200019N0750001N1+03262-00261999999ADDAA199000091GA1001+999999999GF100991001001999999001001MA1999999089091MD1810161+9999ME1315249REMSYN079AAXX  05124 68010 32989 00000 10326 21026 38909 48524 58016 333 2012 555 91016;EQDQ01+003263ATOT  Q02  00002PRCP99
0224680100999992000090606004-19180+015910FM-12+110099999V0209999C000012200019N0750001N1+01541-00391999999ADDAA199000091GF103991031001999999031001KA1240M+03301KA2120N+01361MA1999999089251MD1310021+9999ME1315239REMSYN092AAXX  06064 68010 32989 30000 10154 21039 38925 48523 53002 83030 333 20136 555 10330 91018;EQDQ01  00002PRCP99
0215680100999992000090612004-19180+015910FM-12+110099999V0209999C000012200019N0700001N1+03332-00101999999ADDAA199000091GA1001+999999999GF100991001001999999001001KA1120N+01311MA1999999089041MD1810111+9999ME1315209REMSYN080AAXX  06124 68010 32988 00000 10333 21010 38904 48520 58011 333 20131 555 91016;EQDQ01  00002PRCP99
0221680100999992000090618004-19180+015910FM-12+110099999V0209999C000012200019N0750001N1+02671+00241999999ADDAA199000091GF104991999001999999041001KA1120M+03431MA1999999088921MD1510101+9999ME1314999REMSYN086AAXX  06184 68010 32989 40000 10267 20024 38892 48499 55010 83040 333 10343 555 91015;EQDQ01+000032SCOTLCQ02  00002PRCP99
0234680100999992000090706004-19180+015910FM-12+110099999V0209999C000012200019N0750001N1+01541-00471999999ADDAA199000091GA1001+999999999GF100991001001999999001001KA1240M+03431KA2120N+01491MA1999999089041MD1310011+9999ME1315029REMSYN086AAXX  07064 68010 32989 00000 10154 21047 38904 48502 53001 333 20149 555 10343 91016;EQDQ01  00002PRCP99
0215680100999992000090712004-19180+015910FM-12+110099999V0200901N006212200019N0750001N1+03382-00061999999ADDAA199000091GA1001+999999999GF100991001001999999001001KA1120N+01491MA1999999088841MD1810111+9999ME1315009REMSYN080AAXX  07124 68010 32989 00912 10338 21006 38884 48500 58011 333 20149 555 91014;EQDQ01  00002PRCP99
0205680100999992000090718004-19180+015910FM-12+110099999V0209999C000012200019N0750001N1+02741+00591999999ADDAA199000091GF101991011001999999031001KA1120M+03471MA1999999088771MD1510101+9999ME1314859REMSYN086AAXX  07184 68010 32989 10000 10274 20059 38877 48485 55010 81030 333 10347 555 91013;EQDQ01  00002PRCP99
0234680100999992000090806004-19180+015910FM-12+110099999V0209999C000012200019N0750001N1+01871-00231999999ADDAA199000091GA1001+999999999GF100991001001999999001001KA1240M+03471KA2120N+01541MA1999999088981MD1310061+9999ME1314969REMSYN086AAXX  08064 68010 32989 00000 10187 21023 38898 48496 53006 333 20154 555 10347 91015;EQDQ01  00002PRCP99
0215680100999992000090818004-19180+015910FM-12+110099999V0209999C000012200019N0650001N1+02541+00381999999ADDAA199000091GA1001+999999999GF100991001001999999001001KA1120M+03481MA1999999088761MD1510141+9999ME1314829REMSYN080AAXX  08184 68010 32987 00000 10254 20038 38876 48482 55014 333 10348 555 91013;EQDQ01  00002PRCP99
0234680100999992000090906004-19180+015910FM-12+110099999V0209999C000012200019N0750001N1+01731+00171999999ADDAA199000091GA1001+999999999GF100991001001999999001001KA1240M+03481KA2120N+01381MA1999999089031MD1410001+9999ME1314999REMSYN086AAXX  09064 68010 32989 00000 10173 20017 38903 48499 54000 333 20138 555 10348 91016;EQDQ01  00002PRCP99
0215680100999992000090918004-19180+015910FM-12+110099999V0209999C000012200019N0750001N1+02761-00161999999ADDAA199000091GA1001+999999999GF100991001001999999001001KA1120M+03581MA1999999088861MD1510141+9999ME1314949REMSYN080AAXX  09184 68010 32989 00000 10276 21016 38886 48494 55014 333 10358 555 91014;EQDQ01  00002PRCP99
0215680100999992000091012004-19180+015910FM-12+110099999V0209999C000012200019N0750001N1+03381+00601999999ADDAA199000091GA1001+999999999GF100991001001999999001001KA1120N+01501MA1999999089041MD1810111+9999ME1315219REMSYN080AAXX  10124 68010 32989 00000 10338 20060 38904 48521 58011 333 20150 555 91016;EQDQ01  00002PRCP99
0205680100999992000091018004-19180+015910FM-12+110099999V0209999C000012200019N0750001N1+02841+00181999999ADDAA199000091GF101991001001999999001011KA1120M+03541MA1999999088911MD1510101+9999ME1315009REMSYN086AAXX  10184 68010 32989 10000 10284 20018 38891 48500 55010 80001 333 10354 555 91014;EQDQ01  00002PRCP99
0224680100999992000091106004-19180+015910FM-12+110099999V0201301N001512200019N0750001N1+01901+00521999999ADDAA199000091GF101991011001999999031001KA1240M+03541KA2120N+01861MA1999999089191MD1310141+9999ME1315169REMSYN092AAXX  11064 68010 32989 11303 10190 20052 38919 48516 53014 81030 333 20186 555 10354 91018;EQDQ01  00002PRCP99
0205680100999992000091112004-19180+015910FM-12+110099999V0200501N007212200019N0750001N1+03231+00021999999ADDAA199000091GF103991031001999999081001KA1120N+01861MA1999999089001MD1810171+9999ME1315159REMSYN086AAXX  11124 68010 32989 30514 10323 20002 38900 48515 58017 83080 333 20186 555 91015;EQDQ01  00002PRCP99
0221680100999992000091118004-19180+015910FM-12+110099999V0209999C000012200019N0700001N1+02601+00131999999ADDAA199000091GF101991001001999999001091KA1120M+03291MA1999999088951MD1510101+9999ME1315019REMSYN086AAXX  11184 68010 32988 10000 10260 20013 38895 48501 55010 81009 333 10329 555 91015;EQDQ01+000012SCOTLCQ02  00002PRCP99
0224680100999992000091206004-19180+015910FM-12+110099999V0201801N002112200019N0750001N1+01741+00001999999ADDAA199000091GF101991011001999999031001KA1240M+03291KA2120N+01571MA1999999089071MD1310111+9999ME1315039REMSYN092AAXX  12064 68010 32989 11804 10174 20000 38907 48503 53011 81030 333 20157 555 10329 91016;EQDQ01  00002PRCP99
0215680100999992000091212004-19180+015910FM-12+110099999V0200501N005112200019N0750001N1+03341-00371999999ADDAA199000091GA1001+999999999GF100991001001999999001001KA1120N+01571MA1999999088911MD1810171+9999ME1315079REMSYN080AAXX  12124 68010 32989 00510 10334 21037 38891 48507 58017 333 20157 555 91014;EQDQ01  00002PRCP99
0234680100999992000091306004-19180+015910FM-12+110099999V0209999C000012200019N0750001N1+01661-00041999999ADDAA199000091GA1001+999999999GF100991001001999999001001KA1240M+03441KA2120N+01471MA1999999088991MD1310161+9999ME1314969REMSYN086AAXX  13064 68010 32989 00000 10166 21004 38899 48496 53016 333 20147 555 10344 91015;EQDQ01  00002PRCP99
0231680100999992000091312004-19180+015910FM-12+110099999V0203601N009312200019N0750001N1+03562-00691999999ADDAA199000091GA1001+999999999GF100991001001999999001001KA1120N+01471MA1999999088791MD1810161+9999ME1314989REMSYN080AAXX  13124 68010 32989 03618 10356 21069 38879 48498 58016 333 20147 555 91013;EQDQ01+003563ATOT  Q02  00002PRCP99
0215680100999992000091412004-19180+015910FM-12+110099999V0209999C000012200019N0750001N1+02521-00291999999ADDAA199000091GA1001+999999999GF100991001001999999001001KA1120N+00941MA1999999088941MD1810111+9999ME1314999REMSYN080AAXX  14124 68010 32989 00000 10252 21029 38894 48499 58011 333 20094 555 91015;EQDQ01  00002PRCP99
0205680100999992000091418004-19180+015910FM-12+110099999V0202301N002112200019N0700001N1+02031+00021999999ADDAA199000091GF102991021001999999081001KA1120M+02671MA1999999088971MD1510131+9999ME1314959REMSYN086AAXX  14184 68010 32988 22304 10203 20002 38897 48495 55013 82080 333 10267 555 91015;EQDQ01  00002PRCP99
0224680100999992000091606004-19180+015910FM-12+110099999V0202301N002112200019N0750001N1+00921+00121999999ADDAA199000091GF101991001001999999001011KA1240M+02461KA2120N+00871MA1999999089231MD1310121+9999ME1315109REMSYN092AAXX  16064 68010 32989 12304 10092 20012 38923 48510 53012 80001 333 20087 555 10246 91018;EQDQ01  00002PRCP99
0215680100999992000091618004-19180+015910FM-12+110099999V0202301N005112200019N0750001N1+01951-00951999999ADDAA199000091GA1001+999999999GF100991001001999999001001KA1120M+02661MA1999999089031MD1510121+9999ME1315009REMSYN080AAXX  16184 68010 32989 02310 10195 21095 38903 48500 55012 333 10266 555 91016;EQDQ01  00002PRCP99
0215680100999992000091718004-19180+015910FM-12+110099999V0202301N002112200019N0750001N1+02341-01211999999ADDAA199000091GA1001+999999999GF100991001001999999001001KA1120M+02941MA1999999089081MD1510141+9999ME1315109REMSYN080AAXX  17184 68010 32989 02304 10234 21121 38908 48510 55014 333 10294 555 91016;EQDQ01  00002PRCP99
0234680100999992000091806004-19180+015910FM-12+110099999V0202301N002112200019N0750001N1+01181+00051999999ADDAA199000091GA1001+999999999GF100991001001999999001001KA1240M+02941KA2120N+01141MA1999999089361MD1310151+9999ME1315299REMSYN086AAXX  18064 68010 32989 02304 10118 20005 38936 48529 53015 333 20114 555 10294 91019;EQDQ01  00002PRCP99
0215680100999992000091818004-19180+015910FM-12+110099999V0209999C000012200019N0750001N1+02501+00461999999ADDAA199000091GA1001+999999999GF100991001001999999001001KA1120M+03121MA1999999089191MD1510101+9999ME1315239REMSYN080AAXX  18184 68010 32989 00000 10250 20046 38919 48523 55010 333 10312 555 91018;EQDQ01  00002PRCP99
0215680100999992000091912004-19180+015910FM-12+110099999V0200501N006212200019N0750001N1+02941+00321999999ADDAA199000091GA1001+999999999GF100991001001999999001001KA1120N+01141MA1999999089331MD1810101+9999ME1315439REMSYN080AAXX  19124 68010 32989 00512 10294 20032 38933 48543 58010 333 20114 555 91019;EQDQ01  00002PRCP99
0215680100999992000091918004-19180+015910FM-12+110099999V0209999C000012200019N0750001N1+02481+00401999999ADDAA199000091GA1001+999999999GF100991001001999999001001KA1120M+03121MA1999999089221MD1510061+9999ME1315269REMSYN080AAXX  19184 68010 32989 00000 10248 20040 38922 48526 55006 333 10312 555 91018;EQDQ01  00002PRCP99
0215680100999992000092212004-19180+015910FM-12+110099999V0203101N004112200019N0750001N1+03381+00271999999ADDAA199000091GA1001+999999999GF100991001001999999001001KA1120N+01781MA1999999089051MD1810231+9999ME1315229REMSYN080AAXX  22124 68010 32989 03108 10338 20027 38905 48522 58023 333 20178 555 91016;EQDQ01  00002PRCP99
0234680100999992000092306004-19180+015910FM-12+110099999V0201301N002112200019N0750001N1+01871+00311999999ADDAA199000091GA1001+999999999GF100991001001999999001001KA1240M+03381KA2120N+01691MA1999999089241MD1310101+9999ME1315219REMSYN086AAXX  23064 68010 32989 01304 10187 20031 38924 48521 53010 333 20169 555 10338 91018;EQDQ01  00002PRCP99
0215680100999992000092312004-19180+015910FM-12+110099999V0203101N005112200019N0750001N1+03391+00401999999ADDAA199000091GA1001+999999999GF100991001001999999001001KA1120N+01841MA1999999088971MD1810281+9999ME1315149REMSYN080AAXX  23124 68010 32989 03110 10339 20040 38897 48514 58028 333 20184 555 91015;EQDQ01  00002PRCP99
0215680100999992000092318004-19180+015910FM-12+110099999V0209999C000012200019N0750001N1+02721+00561999999ADDAA199000091GA1001+999999999GF100991001001999999001001KA1120M+03481MA1999999088871MD1510051+9999ME1314959REMSYN080AAXX  23184 68010 32989 00000 10272 20056 38887 48495 55005 333 10348 555 91014;EQDQ01  00002PRCP99
0215680100999992000092412004-19180+015910FM-12+110099999V0203101N006212200019N0750001N1+03371+00351999999ADDAA199000091GA1001+999999999GF100991001001999999001001KA1120N+01661MA1999999088951MD1810201+9999ME1315119REMSYN080AAXX  24124 68010 32989 03112 10337 20035 38895 48511 58020 333 20166 555 91015;EQDQ01  00002PRCP99
0215680100999992000092418004-19180+015910FM-12+110099999V0209999C000012200019N0750001N1+02661+00731999999ADDAA199000091GA1001+999999999GF100991001001999999001001KA1120M+03391MA1999999088891MD1510041+9999ME1314969REMSYN080AAXX  24184 68010 32989 00000 10266 20073 38889 48496 55004 333 10339 555 91014;EQDQ01  00002PRCP99
0224680100999992000092506004-19180+015910FM-12+110099999V0201301N005112200019N0750001N1+01821+00591999999ADDAA199000091GF102991021001999999031001KA1240M+03371KA2120N+01621MA1999999089171MD1310151+9999ME1315139REMSYN092AAXX  25064 68010 32989 21310 10182 20059 38917 48513 53015 82030 333 20162 555 10337 91017;EQDQ01  00002PRCP99
0215680100999992000092512004-19180+015910FM-12+110099999V0209999C000012200019N0750001N1+03441-00361999999ADDAA199000091GA1001+999999999GF100991001001999999001001KA1120N+01621MA1999999089011MD1810171+9999ME1315189REMSYN080AAXX  25124 68010 32989 00000 10344 21036 38901 48518 58017 333 20162 555 91016;EQDQ01  00002PRCP99
0205680100999992000092518004-19180+015910FM-12+110099999V0202301N002112200019N0750001N1+02941-00471999999ADDAA199000091GF101991011001999999081001KA1120M+03591MA1999999089001MD1510101+9999ME1315119REMSYN086AAXX  25184 68010 32989 12304 10294 21047 38900 48511 55010 81080 333 10359 555 91015;EQDQ01  00002PRCP99
0215680100999992000092612004-19180+015910FM-12+110099999V0209999C000012200019N0750001N1+03461-00451999999ADDAA199000091GA1001+999999999GF100991001001999999001001KA1120N+01591MA1999999089011MD1810181+9999ME1315199REMSYN080AAXX  26124 68010 32989 00000 10346 21045 38901 48519 58018 333 20159 555 91016;EQDQ01  00002PRCP99
0215680100999992000092618004-19180+015910FM-12+110099999V0209999C000012200019N0750001N1+02861+00361999999ADDAA199000091GA1001+999999999GF100991001001999999001001KA1120M+03561MA1999999088951MD1510081+9999ME1315059REMSYN080AAXX  26184 68010 32989 00000 10286 20036 38895 48505 55008 333 10356 555 91015;EQDQ01  00002PRCP99
0234680100999992000092706004-19180+015910FM-12+110099999V0202301N002112200019N0750001N1+02001-00361999999ADDAA199000091GA1001+999999999GF100991001001999999001001KA1240M+03561KA2120N+01761MA1999999089161MD1310121+9999ME1315209REMSYN086AAXX  27064 68010 32989 02304 10200 21036 38916 48520 53012 333 20176 555 10356 91017;EQDQ01  00002PRCP99
0215680100999992000092712004-19180+015910FM-12+110099999V0203601N007212200019N0750001N1+03631-01041999999ADDAA199000091GA1001+999999999GF100991001001999999001001KA1120N+01761MA1999999089001MD1810171+9999ME1315209REMSYN080AAXX  27124 68010 32989 03614 10363 21104 38900 48520 58017 333 20176 555 91015;EQDQ01  00002PRCP99
0215680100999992000092718004-19180+015910FM-12+110099999V0209999C000012200019N0750001N1+02771-00011999999ADDAA199000091GA1001+999999999GF100991001001999999001001KA1120M+03671MA1999999088921MD1510101+9999ME1315009REMSYN080AAXX  27184 68010 32989 00000 10277 21001 38892 48500 55010 333 10367 555 91015;EQDQ01  00002PRCP99
0234680100999992000092806004-19180+015910FM-12+110099999V0201301N002112200019N0750001N1+02041-00581999999ADDAA199000091GA1001+999999999GF100991001001999999001001KA1240M+03671KA2120N+01621MA1999999089061MD1310101+9999ME1315119REMSYN086AAXX  28064 68010 32989 01304 10204 21058 38906 48511 53010 333 20162 555 10367 91016;EQDQ01  00002PRCP99
0215680100999992000092812004-19180+015910FM-12+110099999V0200501N006212200019N0750001N1+03561-01141999999ADDAA199000091GA1001+999999999GF100991001001999999001001KA1120N+01621MA1999999088881MD1810151+9999ME1315079REMSYN080AAXX  28124 68010 32989 00512 10356 21114 38888 48507 58015 333 20162 555 91014;EQDQ01  00002PRCP99
0215680100999992000092818004-19180+015910FM-12+110099999V0209999C000012200019N0750001N1+02861-02031999999ADDAA199000091GA1001+999999999GF100991001001999999001001KA1120M+03631MA1999999088871MD1510081+9999ME1314979REMSYN080AAXX  28184 68010 32989 00000 10286 21203 38887 48497 55008 333 10363 555 91014;EQDQ01  00002PRCP99
0224680100999992000092906004-19180+015910FM-12+110099999V0209999C000012200019N0750001N1+02011+00241999999ADDAA199000091GF101991011001999999031001KA1240M+03631KA2120N+01891MA1999999089141MD1310181+9999ME1315149REMSYN092AAXX  29064 68010 32989 10000 10201 20024 38914 48514 53018 81030 333 20189 555 10363 91017;EQDQ01  00002PRCP99
0243680100999992000092912004-19180+015910FM-12+110099999V0200501N002112200019N0550001N1+03521-00531999999ADDAA199000091AY121061AY221061GA1001+999999999GF100991001001999999001001KA1120N+01961MA1999999088911MD1810231+9999ME1315099MW1051REMSYN086AAXX  29124 68010 31785 00504 10352 21053 38891 48509 58023 70522 333 20196 555 91014;EQDQ01  00002PRCP99
0205680100999992000092918004-19180+015910FM-12+110099999V0209999C000012200019N0650001N1+02921+00411999999ADDAA199000091GF102991021001999999081001KA1120M+03571MA1999999088851MD1510071+9999ME1314959REMSYN086AAXX  29184 68010 32987 20000 10292 20041 38885 48495 55007 82080 333 10357 555 91014;EQDQ01  00002PRCP99
0215680100999992000093012004-19180+015910FM-12+110099999V0203601N005112200019N0750001N1+03581-00431999999ADDAA199000091GA1001+999999999GF100991001001999999001001KA1120N+01731MA1999999088901MD1810201+9999ME1315099REMSYN080AAXX  30124 68010 32989 03610 10358 21043 38890 48509 58020 333 20173 555 91014;EQDQ01  00002PRCP99
0231680100999992000093018004-19180+015910FM-12+110099999V0203101N001512200019N0650001N1+02841+00141999999ADDAA199000091GA1001+999999999GF100991001001999999001001KA1120M+03621MA1999999088751MD1011002+9999ME1314849REMSYN080AAXX  30184 68010 32987 03103 10284 20014 38875 48484 5010/ 333 10362 555 91013;EQDQ01+001002APC3  Q02  00002PRCP99
0224680100999992000100106004-19180+015910FM-12+110099999V0201801N001512200019N0750001N1+01871+00661999999ADDAA199000091GF102991011001999999081081KA1240M+03621KA2120N+01721MA1999999089091MD1310131+9999ME1315079REMSYN092AAXX  01064 68010 32989 21803 10187 20066 38909 48507 53013 81088 333 20172 555 10362 91016;EQDQ01  00002PRCP99
0215680100999992000100112004-19180+015910FM-12+110099999V0203601N002112200019N0650001N1+03592-00241999999ADDAA199000091GA1001+999999999GF100991001001999999001001KA1120N+01841MA1999999088881MD1810171+9999ME1315079REMSYN080AAXX  01124 68010 32987 03604 10359 21024 38888 48507 58017 333 20184 555 91014;EQDQ01  00002PRCP99
0205680100999992000100118004-19180+015910FM-12+110099999V0209999C000012200019N0750001N1+02941+00391999999ADDAA199000091GF102991021001999999031001KA1120M+03661MA1999999088821MD1510061+9999ME1314939REMSYN086AAXX  01184 68010 32989 20000 10294 20039 38882 48493 55006 82030 333 10366 555 91013;EQDQ01  00002PRCP99
0224680100999992000100206004-19180+015910FM-12+110099999V0202301N002112200019N0650001N1+02041+00351999999ADDAA199000091GF101991011001999999081001KA1240M+03661KA2120N+01921MA1999999089021MD1310121+9999ME1315029REMSYN092AAXX  02064 68010 32987 12304 10204 20035 38902 48502 53012 81080 333 20192 555 10366 91016;EQDQ01  00002PRCP99
0215680100999992000100212004-19180+015910FM-12+110099999V0200501N008212200019N0650001N1+03721-00691999999ADDAA199000091GA1001+999999999GF100991001001999999001001KA1120N+01921MA1999999088791MD1810161+9999ME1315009REMSYN080AAXX  02124 68010 32987 00516 10372 21069 38879 48500 58016 333 20192 555 91013;EQDQ01  00002PRCP99
0205680100999992000100218004-19180+015910FM-12+110099999V0209999C000012200019N0750001N1+02871+00311999999ADDAA199000091GF101991011001999999031001KA1120M+03761MA1999999088741MD1510091+9999ME1314849REMSYN086AAXX  02184 68010 32989 10000 10287 20031 38874 48484 55009 81030 333 10376 555 91013;EQDQ01  00002PRCP99
0234680100999992000100306004-19180+015910FM-12+110099999V0201801N002112200019N0750001N1+01821+00541999999ADDAA199000091GA1001+999999999GF100991001001999999001001KA1240M+03721KA2120N+01671MA1999999088961MD1310121+9999ME1314959REMSYN086AAXX  03064 68010 32989 01804 10182 20054 38896 48495 53012 333 20167 555 10372 91015;EQDQ01  00002PRCP99
0215680100999992000100312004-19180+015910FM-12+110099999V0203601N002112200019N0750001N1+03612-00621999999ADDAA199000091GA1001+999999999GF100991001001999999001001KA1120N+01671MA1999999088801MD1810171+9999ME1314999REMSYN080AAXX  03124 68010 32989 03604 10361 21062 38880 48499 58017 333 20167 555 91013;EQDQ01  00002PRCP99
0215680100999992000100318004-19180+015910FM-12+110099999V0202301N005112200019N0750001N1+02981-00211999999ADDAA199000091GA1001+999999999GF100991001001999999001001KA1120M+03731MA1999999088801MD1510161+9999ME1314919REMSYN080AAXX  03184 68010 32989 02310 10298 21021 38880 48491 55016 333 10373 555 91013;EQDQ01  00002PRCP99
0234680100999992000100406004-19180+015910FM-12+110099999V0202301N002112200019N0750001N1+01871+00191999999ADDAA199000091GA1001+999999999GF100991001001999999001001KA1240M+03731KA2120N+01641MA1999999088961MD1310101+9999ME1314979REMSYN086AAXX  04064 68010 32989 02304 10187 20019 38896 48497 53010 333 20164 555 10373 91015;EQDQ01  00002PRCP99
0215680100999992000100412004-19180+015910FM-12+110099999V0200501N007212200019N0750001N1+03662-00371999999ADDAA199000091GA1001+999999999GF100991001001999999001001KA1120N+01641MA1999999088761MD1810131+9999ME1314969REMSYN080AAXX  04124 68010 32989 00514 10366 21037 38876 48496 58013 333 20164 555 91013;EQDQ01  00002PRCP99
0215680100999992000100418004-19180+015910FM-12+110099999V0209999C000012200019N0750001N1+02981+00231999999ADDAA199000091GA1001+999999999GF100991001001999999001001KA1120M+03741MA1999999088711MD1310101+9999ME1314829REMSYN080AAXX  04184 68010 32989 00000 10298 20023 38871 48482 53010 333 10374 555 91012;EQDQ01  00002PRCP99
0224680100999992000100506004-19180+015910FM-12+110099999V0202301N002112200019N0750001N1+02151+00111999999ADDAA199000091GF101991001001999999001081KA1240M+03741KA2120N+01921MA1999999088961MD1310221+9999ME1314999REMSYN092AAXX  05064 68010 32989 12304 10215 20011 38896 48499 53022 80008 333 20192 555 10374 91015;EQDQ01  00002PRCP99
0215680100999992000100512004-19180+015910FM-12+110099999V0200501N002112200019N0750001N1+03671+00001999999ADDAA199000091GA1001+999999999GF100991001001999999001001KA1120N+01921MA1999999088721MD1810191+9999ME1314929REMSYN080AAXX  05124 68010 32989 00504 10367 20000 38872 48492 58019 333 20192 555 91012;EQDQ01  00002PRCP99
0215680100999992000100518004-19180+015910FM-12+110099999V0202301N002112200019N0750001N1+03081-00751999999ADDAA199000091GA1001+999999999GF100991001001999999001001KA1120M+03801MA1999999088811MD1510181+9999ME1314939REMSYN080AAXX  05184 68010 32989 02304 10308 21075 38881 48493 55018 333 10380 555 91013;EQDQ01  00002PRCP99
0224680100999992000100606004-19180+015910FM-12+110099999V0202301N002112200019N0750001N1+02131-00231999999ADDAA199000091GF102991021001999999081001KA1240M+03821KA2120N+01891MA1999999089051MD1310161+9999ME1315119REMSYN092AAXX  06064 68010 32989 22304 10213 21023 38905 48511 53016 82080 333 20189 555 10382 91016;EQDQ01  00002PRCP99
0215680100999992000100612004-19180+015910FM-12+110099999V0209999C000012200019N0750001N1+03701-00521999999ADDAA199000091GA1001+999999999GF100991001001999999001001KA1120N+01891MA1999999088831MD1810101+9999ME1315049REMSYN080AAXX  06124 68010 32989 00000 10370 21052 38883 48504 58010 333 20189 555 91014;EQDQ01  00002PRCP99
0215680100999992000100618004-19180+015910FM-12+110099999V0202301N002112200019N0750001N1+03191-00531999999ADDAA199000091GA1001+999999999GF100991001001999999001001KA1120M+03801MA1999999088771MD1510121+9999ME1314919REMSYN080AAXX  06184 68010 32989 02304 10319 21053 38877 48491 55012 333 10380 555 91013;EQDQ01  00002PRCP99
0205680100999992000100712004-19180+015910FM-12+110099999V0202301N002112200019N0750001N1+03721-00441999999ADDAA199000091GF102991001001999999001021KA1120N+02341MA1999999088861MD1810181+9999ME1315029REMSYN086AAXX  07124 68010 32989 22304 10372 21044 38886 48502 58018 80002 333 20234 555 91014;EQDQ01  00002PRCP99
0205680100999992000100718004-19180+015910FM-12+110099999V0202301N005112200019N0750001N1+03031-00621999999ADDAA199000091GF101991001001999999001021KA1120M+03791MA1999999088921MD1510201+9999ME1315049REMSYN086AAXX  07184 68010 32989 12310 10303 21062 38892 48504 55020 80002 333 10379 555 91015;EQDQ01  00002PRCP99
0234680100999992000100806004-19180+015910FM-12+110099999V0202301N002112200019N0750001N1+01781-00761999999ADDAA199000091GA1001+999999999GF100991001001999999001001KA1240M+03791KA2120N+01551MA1999999089121MD1310141+9999ME1315209REMSYN086AAXX  08064 68010 32989 02304 10178 21076 38912 48520 53014 333 20155 555 10379 91017;EQDQ01  00002PRCP99
0215680100999992000100812004-19180+015910FM-12+110099999V0201801N006212200019N0750001N1+03441-01571999999ADDAA199000091GA1001+999999999GF100991001001999999001001KA1120N+01551MA1999999088931MD1810101+9999ME1315109REMSYN080AAXX  08124 68010 32989 01812 10344 21157 38893 48510 58010 333 20155 555 91015;EQDQ01  00002PRCP99
0224680100999992000100906004-19180+015910FM-12+110099999V0201801N002112200019N0750001N1+01801-00421999999ADDAA199000091GF102991021001999999031001KA1240M+03551KA2120N+01571MA1999999089021MD1310101+9999ME1315069REMSYN092AAXX  09064 68010 32989 21804 10180 21042 38902 48506 53010 82030 333 20157 555 10355 91016;EQDQ01  00002PRCP99
0215680100999992000100912004-19180+015910FM-12+110099999V0209999C000012200019N0750001N1+03582-00031999999ADDAA199000091GA1001+999999999GF100991001001999999001001KA1120N+01571MA1999999088781MD1810151+9999ME1314979REMSYN080AAXX  09124 68010 32989 00000 10358 21003 38878 48497 58015 333 20157 555 91013;EQDQ01  00002PRCP99
0215680100999992000100918004-19180+015910FM-12+110099999V0202301N002112200019N0750001N1+03001-00671999999ADDAA199000091GA1001+999999999GF100991001001999999001001KA1120M+03641MA1999999088741MD1510101+9999ME1314859REMSYN080AAXX  09184 68010 32989 02304 10300 21067 38874 48485 55010 333 10364 555 91013;EQDQ01  00002PRCP99
0224680100999992000101006004-19180+015910FM-12+110099999V0202301N006212200019N0750001N1+01821+00141999999ADDAA199000091GF101991011001999999081001KA1240M+03641KA2120N+01491MA1999999089131MD1310081+9999ME1315149REMSYN092AAXX  10064 68010 32989 12312 10182 20014 38913 48514 53008 81080 333 20149 555 10364 91017;EQDQ01  00002PRCP99
0205680100999992000101012004-19180+015910FM-12+110099999V0209999C000012200019N0750001N1+03562-00181999999ADDAA199000091GF101991001001999999001021KA1120N+01491MA1999999088921MD1810191+9999ME1315119REMSYN086AAXX  10124 68010 32989 10000 10356 21018 38892 48511 58019 80002 333 20149 555 91015;EQDQ01  00002PRCP99
0205680100999992000101018004-19180+015910FM-12+110099999V0209999C000012200019N0750001N1+02961+00551999999ADDAA199000091GF102991021001999999031001KA1120M+03631MA1999999088851MD1310121+9999ME1314969REMSYN086AAXX  10184 68010 32989 20000 10296 20055 38885 48496 53012 82030 333 10363 555 91014;EQDQ01  00002PRCP99
0252680100999992000101106004-19180+015910FM-12+110099999V0209999C000012200019N0750001N1+01761-00111999999ADDAA199000091AY101061AY221061GF102991021001999999071001KA1240M+03631KA2120N+01571MA1999999089151MD1410001+9999ME1315189MW1051REMSYN098AAXX  11064 68010 31989 20000 10176 21011 38915 48518 54002 70502 82070 333 20157 555 10363 91017;EQDQ01  00002PRCP99
0215680100999992000101112004-19180+015910FM-12+110099999V0209999C000012200019N0750001N1+03572-00021999999ADDAA199000091GA1001+999999999GF100991001001999999001001KA1120N+01571MA1999999089021MD1810161+9999ME1315219REMSYN080AAXX  11124 68010 32989 00000 10357 21002 38902 48521 58016 333 20157 555 91016;EQDQ01  00002PRCP99
0205680100999992000101118004-19180+015910FM-12+110099999V0203601N002112200019N0750001N1+03161+00541999999ADDAA199000091GF103991031001999999081001KA1120M+03631MA1999999088951MD1510121+9999ME1315099REMSYN086AAXX  11184 68010 32989 33604 10316 20054 38895 48509 55012 83080 333 10363 555 91015;EQDQ01  00002PRCP99
0217680100999992000101206004-19180+015910FM-12+110099999V0201301N005112200019N0750001N1+02321+00611999999ADDAA124000091GF103991011001999999081021KA1240M+03631KA2120N+02141MA1999999089221MD1310141+9999ME1315259REMSYN104AAXX  12064 68010 12989 31310 10232 20061 38922 48525 53014 69904 81082 333 20214 555 10363 20000 91018;
0215680100999992000101218004-19180+015910FM-12+110099999V0209999C000012200019N0750001N1+02991+00361999999ADDAA199000091GA1001+999999999GF100991001001999999001001KA1120M+03741MA1999999089041MD1510081+9999ME1315159REMSYN080AAXX  12184 68010 32989 00000 10299 20036 38904 48515 55008 333 10374 555 91016;EQDQ01  00002PRCP99
0224680100999992000101306004-19180+015910FM-12+110099999V0201401N007212200019N0750001N1+02561+00481999999ADDAA199000091GF103991031001999999081001KA1240M+03741KA2120N+02181MA1999999089431MD1310201+9999ME1315509REMSYN092AAXX  13064 68010 32989 31414 10256 20048 38943 48550 53020 83080 333 20218 555 10374 91020;EQDQ01  00002PRCP99
0215680100999992000101312004-19180+015910FM-12+110099999V0200501N008212200019N0700001N1+03461-00291999999ADDAA199000091GA1001+999999999GF100991001001999999001001KA1120N+02181MA1999999089071MD1810151+9999ME1315259REMSYN080AAXX  13124 68010 32988 00516 10346 21029 38907 48525 58015 333 20218 555 91016;EQDQ01  00002PRCP99
0215680100999992000101318004-19180+015910FM-12+110099999V0209999C000012200019N0750001N1+02881+00121999999ADDAA199000091GA1001+999999999GF100991001001999999001001KA1120M+03521MA1999999088941MD1510121+9999ME1315049REMSYN080AAXX  13184 68010 32989 00000 10288 20012 38894 48504 55012 333 10352 555 91015;EQDQ01  00002PRCP99
0224680100999992000101406004-19180+015910FM-12+110099999V0200901N006212200019N0750001N1+02451+00341999999ADDAA199000091GF102991021001999999031001KA1240M+03521KA2120N+01841MA1999999089141MD1310141+9999ME1315189REMSYN092AAXX  14064 68010 32989 20912 10245 20034 38914 48518 53014 82030 333 20184 555 10352 91017;EQDQ01  00002PRCP99
0205680100999992000101412004-19180+015910FM-12+110099999V0200901N005112200019N0750001N1+03481+00001999999ADDAA199000091GF101991011001999999041001KA1120N+02421MA1999999088801MD1810301+9999ME1314989REMSYN086AAXX  14124 68010 32989 10910 10348 20000 38880 48498 58030 81040 333 20242 555 91013;EQDQ01  00002PRCP99
0224680100999992000101506004-19180+015910FM-12+110099999V0209999C000012200019N0750001N1+02361+00541999999ADDAA199000091GF102991021001999999031001KA1240M+03521KA2120N+01851MA1999999089131MD1310251+9999ME1315169REMSYN092AAXX  15064 68010 32989 20000 10236 20054 38913 48516 53025 82030 333 20185 555 10352 91017;EQDQ01  00002PRCP99
0224680100999992000101606004-19180+015910FM-12+110099999V0201301N002112200019N0750001N1+02441+00621999999ADDAA199000091GF101991011001999999081021KA1240M+03641KA2120N+02071MA1999999089151MD1310141+9999ME1315199REMSYN092AAXX  16064 68010 32989 11304 10244 20062 38915 48519 53014 81082 333 20207 555 10364 91017;EQDQ01  00002PRCP99
0205680100999992000101612004-19180+015910FM-12+110099999V0200501N007212200019N0750001N1+03741-00071999999ADDAA199000091GF102991021011022501001001KA1120N+02071MA1999999089011MD1810171+9999ME1315229REMSYN086AAXX  16124 68010 32889 20514 10374 21007 38901 48522 58017 82100 333 20207 555 91016;EQDQ01  00002PRCP99
0205680100999992000101618004-19180+015910FM-12+110099999V0209999C000012200019N0750001N1+03191+00301999999ADDAA199000091GF102991021001999999081001KA1120M+03771MA1999999088961MD1510101+9999ME1315109REMSYN086AAXX  16184 68010 32989 20000 10319 20030 38896 48510 55010 82080 333 10377 555 91015;EQDQ01  00002PRCP99
0234680100999992000101706004-19180+015910FM-12+110099999V0201301N002112200019N0750001N1+02391+00291999999ADDAA199000091GA1001+999999999GF100991001001999999001001KA1240M+03771KA2120N+02021MA1999999089271MD1310151+9999ME1315349REMSYN086AAXX  17064 68010 32989 01304 10239 20029 38927 48534 53015 333 20202 555 10377 91018;EQDQ01  00002PRCP99
0205680100999992000101712004-19180+015910FM-12+110099999V0200901N009312200019N0750001N1+03711-00671999999ADDAA199000091GF102991021001999999081001KA1120N+02021MA1999999089071MD1810141+9999ME1315289REMSYN086AAXX  17124 68010 32989 20918 10371 21067 38907 48528 58014 82080 333 20202 555 91016;EQDQ01  00002PRCP99
0205680100999992000101718004-19180+015910FM-12+110099999V0209999C000012200019N0750001N1+03461+00311999999ADDAA199000091GF102991021001999999081001KA1120M+03791MA1999999088861MD1510061+9999ME1315039REMSYN086AAXX  17184 68010 32989 20000 10346 20031 38886 48503 55006 82080 333 10379 555 91014;EQDQ01  00002PRCP99
0224680100999992000101806004-19180+015910FM-12+110099999V0200401N005112200019N0750001N1+02351+00151999999ADDAA199000091GF101991011001999999031001KA1240M+03791KA2120N+02041MA1999999089171MD1310021+9999ME1315249REMSYN092AAXX  18064 68010 32989 10410 10235 20015 38917 48524 53002 81030 333 20204 555 10379 91017;EQDQ01  00002PRCP99
0205680100999992000101812004-19180+015910FM-12+110099999V0200501N008212200019N0750001N1+03551-00801999999ADDAA199000091GF103991031001999999071001KA1120N+02041MA1999999088961MD1810131+9999ME1315159REMSYN086AAXX  18124 68010 32989 30516 10355 21080 38896 48515 58013 83070 333 20204 555 91015;EQDQ01  00002PRCP99
0205680100999992000101818004-19180+015910FM-12+110099999V0209999C000012200019N0750001N1+03001+00241999999ADDAA199000091GF102991001001999999001021KA1120M+03581MA1999999088821MD1510061+9999ME1314939REMSYN086AAXX  18184 68010 32989 20000 10300 20024 38882 48493 55006 80002 333 10358 555 91013;EQDQ01  00002PRCP99
0234680100999992000101906004-19180+015910FM-12+110099999V0201301N002112200019N0750001N1+02241-00031999999ADDAA199000091GA1001+999999999GF100991001001999999001001KA1240M+03581KA2120N+01741MA1999999089041MD1310121+9999ME1315109REMSYN086AAXX  19064 68010 32989 01304 10224 21003 38904 48510 53012 333 20174 555 10358 91016;EQDQ01  00002PRCP99
0215680100999992000101912004-19180+015910FM-12+110099999V0200501N006212200019N0750001N1+03661-01051999999ADDAA199000091GA1001+999999999GF100991001001999999001001KA1120N+01741MA1999999088781MD1810151+9999ME1314989REMSYN080AAXX  19124 68010 32989 00512 10366 21105 38878 48498 58015 333 20174 555 91013;EQDQ01  00002PRCP99
0221680100999992000101918004-19180+015910FM-12+110099999V0209999C000012200019N0750001N1+02831+01422999999ADDAA199000091GF101991001001999999001021KA1120M+03741MA1999999088711MD1510101+9999ME1314809REMSYN086AAXX  19184 68010 32989 10000 10283 20142 38871 48480 55010 80002 333 10374 555 91012;EQDQ01+001423ATOD  Q02  00002PRCP99
0234680100999992000102006004-19180+015910FM-12+110099999V0209999C000012200019N0750001N1+01841+00171999999ADDAA199000091GA1001+999999999GF100991001001999999001001KA1240M+03741KA2120N+01541MA1999999088961MD1310181+9999ME1314999REMSYN086AAXX  20064 68010 32989 00000 10184 20017 38896 48499 53018 333 20154 555 10374 91015;EQDQ01  00002PRCP99
0215680100999992000102012004-19180+015910FM-12+110099999V0203601N007212200019N0750001N1+03491-00111999999ADDAA199000091GA1001+999999999GF100991001001999999001001KA1120N+01541MA1999999088811MD1810181+9999ME1314999REMSYN080AAXX  20124 68010 32989 03614 10349 21011 38881 48499 58018 333 20154 555 91013;EQDQ01  00002PRCP99
0215680100999992000102018004-19180+015910FM-12+110099999V0209999C000012200019N0750001N1+03001+00171999999ADDAA199000091GA1001+999999999GF100991001001999999001001KA1120M+03661MA1999999088801MD1510011+9999ME1314919REMSYN080AAXX  20184 68010 32989 00000 10300 20017 38880 48491 55001 333 10366 555 91013;EQDQ01  00002PRCP99
0224680100999992000102106004-19180+015910FM-12+110099999V0202301N002112200019N0750001N1+01871+00281999999ADDAA199000091GF101991011001999999051001KA1240M+03661KA2120N+01441MA1999999089051MD1310141+9999ME1315079REMSYN092AAXX  21064 68010 32989 12304 10187 20028 38905 48507 53014 81050 333 20144 555 10366 91016;EQDQ01  00002PRCP99
0205680100999992000102112004-19180+015910FM-12+110099999V0203601N002112200019N0750001N1+03441+00261999999ADDAA199000091GF102991021001999999031001KA1120N+01821MA1999999088851MD1010181+9999ME1315029REMSYN086AAXX  21124 68010 32989 23604 10344 20026 38885 48502 50018 82030 333 20182 555 91014;EQDQ01  00002PRCP99
0205680100999992000102118004-19180+015910FM-12+110099999V0209999C000012200019N0750001N1+03001+00051999999ADDAA199000091GF103991031001999999071001KA1120M+03621MA1999999088841MD1510101+9999ME1314959REMSYN086AAXX  21184 68010 32989 30000 10300 20005 38884 48495 55010 83070 333 10362 555 91014;EQDQ01  00002PRCP99
0234680100999992000102206004-19180+015910FM-12+110099999V0203101N005112200019N0750001N1+02011+00211999999ADDAA199000091GA1001+999999999GF100991001001999999001001KA1240M+03621KA2120N+01861MA1999999089101MD1310121+9999ME1315149REMSYN086AAXX  22064 68010 32989 03110 10201 20021 38910 48514 53012 333 20186 555 10362 91017;EQDQ01  00002PRCP99
0205680100999992000102218004-19180+015910FM-12+110099999V0203601N006212200019N0750001N1+03101+00251999999ADDAA199000091GF101991011001999999081001KA1120M+03621MA1999999088751MD1510121+9999ME1314889REMSYN086AAXX  22184 68010 32989 13612 10310 20025 38875 48488 55012 81080 333 10362 555 91013;EQDQ01  00002PRCP99
0224680100999992000102306004-19180+015910FM-12+110099999V0209999C000012200019N0750001N1+01981+00671999999ADDAA199000091GF103991031001999999081001KA1240M+03621KA2120N+01841MA1999999089091MD1210141+9999ME1315109REMSYN092AAXX  23064 68010 32989 30000 10198 20067 38909 48510 52014 83080 333 20184 555 10362 91016;EQDQ01  00002PRCP99
0205680100999992000102312004-19180+015910FM-12+110099999V0203601N002112200019N0750001N1+02741+00761999999ADDAA199000091GF104991041021017501001001KA1120N+01841MA1999999088891MD1810161+9999ME1314979REMSYN086AAXX  23124 68010 32789 43604 10274 20076 38889 48497 58016 84200 333 20184 555 91014;EQDQ01  00002PRCP99
0205680100999992000102318004-19180+015910FM-12+110099999V0209999C000012200019N0750001N1+02671+01071999999ADDAA199000091GF102991021001999999031001KA1120M+03161MA1999999088741MD1510101+9999ME1314819REMSYN086AAXX  23184 68010 32989 20000 10267 20107 38874 48481 55010 82030 333 10316 555 91013;EQDQ01  00002PRCP99
0224680100999992000102406004-19180+015910FM-12+110099999V0209999C000012200019N0750001N1+02141+00981999999ADDAA199000091GF102991011001999999031091KA1240M+03161KA2120N+01691MA1999999089011MD1310101+9999ME1315009REMSYN092AAXX  24064 68010 32989 20000 10214 20098 38901 48500 53010 81039 333 20169 555 10316 91016;EQDQ01  00002PRCP99
0205680100999992000102412004-19180+015910FM-12+110099999V0209999C000012200019N0750001N1+03311+01111999999ADDAA199000091GF101991011011999999001001KA1120N+01691MA1999999088691MD1810161+9999ME1314849REMSYN086AAXX  24124 68010 32989 10000 10331 20111 38869 48484 58016 81100 333 20169 555 91012;EQDQ01  00002PRCP99
0205680100999992000102418004-19180+015910FM-12+110099999V0209999C000012200019N0750001N1+03021+00831999999ADDAA199000091GF101991011091999999081001KA1120M+03511MA1999999088541MD1310111+9999ME1314669REMSYN086AAXX  24184 68010 32989 10000 10302 20083 38854 48466 53011 81980 333 10351 555 91010;EQDQ01  00002PRCP99
0217680100999992000102506004-19180+015910FM-12+110099999V0209999C000012200019N0750001N1+02161+00831999999ADDAA124000091GF103991031041022501001001KA1240M+03511KA2120N+02051MA1999999088951MD1510021+9999ME1314979REMSYN104AAXX  25064 68010 12889 30000 10216 20083 38895 48497 55002 69904 83400 333 20205 555 10351 20000 91015;
0205680100999992000102512004-19180+015910FM-12+110099999V0203101N006212200019N0750001N1+03301+00781999999ADDAA199000091GF103991021011022501031001KA1120N+02051MA1999999088791MD1810161+9999ME1314949REMSYN086AAXX  25124 68010 32889 33112 10330 20078 38879 48494 58016 82130 333 20205 555 91013;EQDQ01  00002PRCP99
0233680100999992000102518004-19180+015910FM-12+110099999V0203601N003110450019N0650001N1+02691+00831999999ADDAA199000091AY121061AY221061GF105991021091017501071001KA1120M+03481MA1999999088801MD1510221+9999ME1314889MW1131REMSYN092AAXX  25184 68010 31787 53606 10269 20083 38880 48488 55022 71322 82970 333 10348 555 91013;EQDQ01  00002PRCP99
0245680100999992000102606004-19180+015910FM-12+110099999V0209999C000012200019N0550001N1+02081+00451999999ADDAA124000091AY121061AY221061GF103991011091012501071001KA1240M+03481KA2120N+01811MA1999999089251MD1310171+9999ME1315289MW1151REMSYN110AAXX  26064 68010 11685 30000 10208 20045 38925 48528 53017 69904 71522 81970 333 20181 555 10348 20000 91018;
0205680100999992000102612004-19180+015910FM-12+110099999V0203601N002112200019N0750001N1+03211+00641999999ADDAA199000091GF102991021011017501001001KA1120N+01811MA1999999089051MD1810121+9999ME1315199REMSYN086AAXX  26124 68010 32789 23604 10321 20064 38905 48519 58012 82100 333 20181 555 91016;EQDQ01  00002PRCP99
0234680100999992000102706004-19180+015910FM-12+110099999V0209999C000012200019N0750001N1+01981+01351999999ADDAA199000091GA1001+999999999GF100991001001999999001001KA1240M+03421KA2120N+01791MA1999999089231MD1310101+9999ME1315229REMSYN086AAXX  27064 68010 32989 00000 10198 20135 38923 48522 53010 333 20179 555 10342 91018;EQDQ01  00002PRCP99
0205680100999992000102712004-19180+015910FM-12+110099999V0200501N005112200019N0750001N1+03341+00981999999ADDAA199000091GF104991041021022501001001KA1120N+01791MA1999999089081MD1810151+9999ME1315249REMSYN086AAXX  27124 68010 32889 40510 10334 20098 38908 48524 58015 84200 333 20179 555 91016;EQDQ01  00002PRCP99
0205680100999992000102812004-19180+015910FM-12+110099999V0200501N006212200019N0750001N1+03471+00631999999ADDAA199000091GF104991041021022501001001KA1120N+02141MA1999999088991MD1810251+9999ME1315179REMSYN086AAXX  28124 68010 32889 40512 10347 20063 38899 48517 58025 84200 333 20214 555 91015;EQDQ01  00002PRCP99
0233680100999992000102818004-19180+015910FM-12+110099999V0209999C000012200019N0750001N1+03011+00861999999ADDAA199000091AY101061AY201061GF102991011091022501081001KA1120M+03571MA1999999088861MD1510081+9999ME1314989MW1131REMSYN092AAXX  28184 68010 31889 20000 10301 20086 38886 48498 55008 71300 81980 333 10357 555 91014;EQDQ01  00002PRCP99
0224680100999992000102906004-19180+015910FM-12+110099999V0201301N001512200019N0750001N1+02231-00531999999ADDAA199000091GF101991001001999999001021KA1240M+03571KA2120N+01761MA1999999089211MD1310121+9999ME1315339REMSYN092AAXX  29064 68010 32989 11303 10223 21053 38921 48533 53012 80002 333 20176 555 10357 91018;EQDQ01  00002PRCP99
0205680100999992000102918004-19180+015910FM-12+110099999V0209999C000012200019N0750001N1+02941+00881999999ADDAA199000091GF101991011001999999081001KA1120M+03621MA1999999088721MD1510101+9999ME1314839REMSYN086AAXX  29184 68010 32989 10000 10294 20088 38872 48483 55010 81080 333 10362 555 91012;EQDQ01  00002PRCP99
0224680100999992000103006004-19180+015910FM-12+110099999V0202301N002112200019N0750001N1+02051-00821999999ADDAA199000091GF101991011001999999081001KA1240M+03621KA2120N+01521MA1999999088961MD1310111+9999ME1315079REMSYN092AAXX  30064 68010 32989 12304 10205 21082 38896 48507 53011 81080 333 20152 555 10362 91015;EQDQ01  00002PRCP99
0205680100999992000103012004-19180+015910FM-12+110099999V0203601N005112200019N0750001N1+03511-00291999999ADDAA199000091GF101991001001999999001011KA1120N+02011MA1999999088791MD1810161+9999ME1314979REMSYN086AAXX  30124 68010 32989 13610 10351 21029 38879 48497 58016 80001 333 20201 555 91013;EQDQ01  00002PRCP99
0205680100999992000103018004-19180+015910FM-12+110099999V0202301N002112200019N0750001N1+03071-01151999999ADDAA199000091GF101991001001999999001021KA1120M+03561MA1999999088761MD1510181+9999ME1314889REMSYN086AAXX  30184 68010 32989 12304 10307 21115 38876 48488 55018 80002 333 10356 555 91013;EQDQ01  00002PRCP99
0224680100999992000103106004-19180+015910FM-12+110099999V0202301N007219999999N0750001N1+02021-02211999999ADDAA199000091GF106991061001999999071001KA1240M+03641KA2120N+01381MA1999999089071MD1310041+9999ME1315129REMSYN092AAXX  31064 68010 32989 62314 10202 21221 38907 48512 53004 86070 333 20138 555 10364 91016;EQDQ01  00002PRCP99
0205680100999992000103112004-19180+015910FM-12+110099999V0202701N006212200019N0750001N1+03351-00951999999ADDAA199000091GF103991001001999999001051KA1120N+01381MA1999999088961MD1810131+9999ME1315129REMSYN086AAXX  31124 68010 32989 32712 10335 21095 38896 48512 58013 80005 333 20138 555 91015;EQDQ01  00002PRCP99
0205680100999992000103118004-19180+015910FM-12+110099999V0202301N006212200019N0750001N1+02891-01671999999ADDAA199000091GF103991011001999999081061KA1120M+03501MA1999999088841MD1510111+9999ME1314949REMSYN086AAXX  31184 68010 32989 32312 10289 21167 38884 48494 55011 81086 333 10350 555 91014;EQDQ01  00002PRCP99
0205680100999992000110112004-19180+015910FM-12+110099999V0202701N002119999999N0750001N1+03201+00431999999ADDAA199000091GF106991051001999999071021KA1120N+02151MA1999999088871MD1810101+9999ME1315019REMSYN086AAXX  01124 68010 32989 62704 10320 20043 38887 48501 58010 85072 333 20215 555 91014;EQDQ01  00002PRCP99
0209680100999992000110118004-19180+015910FM-12+110099999V0202701N002110450019N0650001N1+02641+00731999999ADDAA112000792AA224000092GF107991041041017501081001KA1120M+03291MA1999999088721MD1310031+9999ME1314799REMSYN098AAXX  01184 68010 12787 72704 10264 20073 38872 48479 53003 69902 84480 333 10329 555 20000 91012;
0211680100999992000110206004-19180+015910FM-12+110099999V0202301N002112200019N0750001N1+02171-00811999999ADDAA124000091GF101991011001999999081001KA1240M+03291KA2120N+01601MA1999999088761MD1310101+9999ME1314859REMSYN098AAXX  02064 68010 12989 12304 10217 21081 38876 48485 53010 81080 333 20160 555 10329 20000 91013;
0205680100999992000110212004-19180+015910FM-12+110099999V0201801N006212200019N0750001N1+03351-00951999999ADDAA199000091GF104991031011022501031001KA1120N+01621MA1999999088611MD1810181+9999ME1314779REMSYN086AAXX  02124 68010 32889 41812 10335 21095 38861 48477 58018 83130 333 20162 555 91011;EQDQ01  00002PRCP99
0205680100999992000110218004-19180+015910FM-12+110099999V0202301N002112200019N0750001N1+02801-00701999999ADDAA199000091GF101991011001999999031001KA1120M+03481MA1999999088601MD1510101+9999ME1314699REMSYN086AAXX  02184 68010 32989 12304 10280 21070 38860 48469 55010 81030 333 10348 555 91011;EQDQ01  00002PRCP99
0234680100999992000110306004-19180+015910FM-12+110099999V0209999C000012200019N0750001N1+01651-00361999999ADDAA199000091GA1001+999999999GF100991001001999999001001KA1240M+03481KA2120N+01241MA1999999088821MD1310091+9999ME1314869REMSYN086AAXX  03064 68010 32989 00000 10165 21036 38882 48486 53009 333 20124 555 10348 91013;EQDQ01  00002PRCP99
0215680100999992000110312004-19180+015910FM-12+110099999V0202301N006212200019N0750001N1+03161-00831999999ADDAA199000091GA1001+999999999GF100991001001999999001001KA1120N+01241MA1999999088661MD1810131+9999ME1314799REMSYN080AAXX  03124 68010 32989 02312 10316 21083 38866 48479 58013 333 20124 555 91012;EQDQ01  00002PRCP99
0215680100999992000110318004-19180+015910FM-12+110099999V0202301N002112200019N0750001N1+02671-00451999999ADDAA199000091GA1001+999999999GF100991001001999999001001KA1120M+03191MA1999999088701MD1510121+9999ME1314779REMSYN080AAXX  03184 68010 32989 02304 10267 21045 38870 48477 55012 333 10319 555 91012;EQDQ01  00002PRCP99
0234680100999992000110406004-19180+015910FM-12+110099999V0201301N002112200019N0750001N1+01841-00171999999ADDAA199000091GA1001+999999999GF100991001001999999001001KA1240M+03191KA2120N+01281MA1999999088961MD1310151+9999ME1314999REMSYN086AAXX  04064 68010 32989 01304 10184 21017 38896 48499 53015 333 20128 555 10319 91015;EQDQ01  00002PRCP99
0215680100999992000110418004-19180+015910FM-12+110099999V0209999C000012200019N0750001N1+02801-00191999999ADDAA199000091GA1001+999999999GF100991001001999999001001KA1120M+03431MA1999999088841MD1510151+9999ME1314939REMSYN080AAXX  04184 68010 32989 00000 10280 21019 38884 48493 55015 333 10343 555 91014;EQDQ01  00002PRCP99
0234680100999992000110506004-19180+015910FM-12+110099999V0202301N002112200019N0750001N1+02221+00031999999ADDAA199000091GA1001+999999999GF100991001001999999001001KA1240M+03431KA2120N+01671MA1999999089101MD1310161+9999ME1315169REMSYN086AAXX  05064 68010 32989 02304 10222 20003 38910 48516 53016 333 20167 555 10343 91017;EQDQ01  00002PRCP99
0215680100999992000110512004-19180+015910FM-12+110099999V0203101N002112200019N0750001N1+03561-00561999999ADDAA199000091GA1001+999999999GF100991001001999999001001KA1120N+02161MA1999999088851MD1010221+9999ME1315049REMSYN080AAXX  05124 68010 32989 03104 10356 21056 38885 48504 50022 333 20216 555 91014;EQDQ01  00002PRCP99
0215680100999992000110518004-19180+015910FM-12+110099999V0209999C000012200019N0750001N1+02921-00061999999ADDAA199000091GA1001+999999999GF100991001001999999001001KA1120M+03621MA1999999088751MD1510121+9999ME1314859REMSYN080AAXX  05184 68010 32989 00000 10292 21006 38875 48485 55012 333 10362 555 91013;EQDQ01  00002PRCP99
0224680100999992000110606004-19180+015910FM-12+110099999V0209999C000012200019N0750001N1+01861-00211999999ADDAA199000091GF101991001001999999001021KA1240M+03621KA2120N+01701MA1999999089031MD1210101+9999ME1315109REMSYN092AAXX  06064 68010 32989 10000 10186 21021 38903 48510 52010 80002 333 20170 555 10362 91016;EQDQ01  00002PRCP99
0205680100999992000110612004-19180+015910FM-12+110099999V0202301N002112200019N0750001N1+03562+00171999999ADDAA199000091GF103991011011022501041001KA1120N+01701MA1999999088721MD1810191+9999ME1314909REMSYN086AAXX  06124 68010 32889 32304 10356 20017 38872 48490 58019 81140 333 20170 555 91012;EQDQ01  00002PRCP99
0205680100999992000110618004-19180+015910FM-12+110099999V0202301N007212200019N0750001N1+03001+00021999999ADDAA199000091GF101991011041017501001001KA1120M+03671MA1999999088591MD1310161+9999ME1314709REMSYN086AAXX  06184 68010 32789 12314 10300 20002 38859 48470 53016 81400 333 10367 555 91011;EQDQ01  00002PRCP99
0224680100999992000110706004-19180+015910FM-12+110099999V0209999C000012200019N0750001N1+02121+00461999999ADDAA199000091GF103991031001999999081001KA1240M+03671KA2120N+01761MA1999999088841MD1310021+9999ME1314879REMSYN092AAXX  07064 68010 32989 30000 10212 20046 38884 48487 53002 83080 333 20176 555 10367 91014;EQDQ01  00002PRCP99
0205680100999992000110712004-19180+015910FM-12+110099999V0209999C000012200019N0750001N1+03601+00341999999ADDAA199000091GF104991031021022501001021KA1120N+01761MA1999999088581MD1810151+9999ME1314779REMSYN086AAXX  07124 68010 32889 40000 10360 20034 38858 48477 58015 83202 333 20176 555 91011;EQDQ01  00002PRCP99
0224680100999992000110806004-19180+015910FM-12+110099999V0209999C000012200019N0750001N1+02151+00111999999ADDAA199000091GF104991021001999999081081KA1240M+03671KA2120N+01891MA1999999088891MD1310161+9999ME1314959REMSYN092AAXX  08064 68010 32989 40000 10215 20011 38889 48495 53016 82088 333 20189 555 10367 91014;EQDQ01  00002PRCP99
0205680100999992000110812004-19180+015910FM-12+110099999V0209999C000012200019N0750001N1+03551+00641999999ADDAA199000091GF104991031011022501081001KA1120N+02101MA1999999088631MD1810251+9999ME1314819REMSYN086AAXX  08124 68010 32889 40000 10355 20064 38863 48481 58025 83180 333 20210 555 91011;EQDQ01  00002PRCP99
0233680100999992000110818004-19180+015910FM-12+110099999V0209999C000012200019N0750001N1+03071+01131999999ADDAA199000091AY121061AY291061GF104991011041017501081001KA1120M+03691MA1999999088531MD1510081+9999ME1314659MW1021REMSYN092AAXX  08184 68010 31789 40000 10307 20113 38853 48465 55008 70229 81480 333 10369 555 91010;EQDQ01  00002PRCP99
0220680100999992000110906004-19180+015910FM-12+110099999V0201301N002112200019N0750001N1+02611+00481999999ADDAA199000091GF103991001001999999001051KA1240M+03691KA2120N+02061MA1999999088831ME1314909REMSYN086AAXX  09064 68010 32989 31304 10261 20048 38883 48490 83005 333 20206 555 10369 91014;EQDQ01+000032SCOTLCQ02  00002PRCP99
0205680100999992000110912004-19180+015910FM-12+110099999V0203601N005112200019N0750001N1+03641+00811999999ADDAA199000091GF103991021021017501001051KA1120N+02531MA1999999088641MD1810221+9999ME1314839REMSYN086AAXX  09124 68010 32789 33610 10364 20081 38864 48483 58022 82205 333 20253 555 91011;EQDQ01  00002PRCP99
0233680100999992000110918004-19180+015910FM-12+110099999V0201301N006212200019N0750001N1+02981+00941999999ADDAA199000091AY121061AY221061GF104991011091022501061001KA1120M+03681MA1999999088581MD1510141+9999ME1314699MW1131REMSYN092AAXX  09184 68010 31889 41312 10298 20094 38858 48469 55014 71322 81960 333 10368 555 91011;EQDQ01  00002PRCP99
0224680100999992000111006004-19180+015910FM-12+110099999V0209999C000012200019N0750001N1+02371-00101999999ADDAA199000091GF101991001001999999001041KA1240M+03681KA2120N+01721MA1999999088741MD1010011+9999ME1314819REMSYN092AAXX  10064 68010 32989 10000 10237 21010 38874 48481 50001 80004 333 20172 555 10368 91013;EQDQ01  00002PRCP99
0205680100999992000111012004-19180+015910FM-12+110099999V0209999C000012200019N0750001N1+03681+00231999999ADDAA199000091GF103991011021022501081001KA1120N+01721MA1999999088441MD1810151+9999ME1314639REMSYN086AAXX  10124 68010 32889 30000 10368 20023 38844 48463 58015 81280 333 20172 555 91009;EQDQ01  00002PRCP99
0224680100999992000111106004-19180+015910FM-12+110099999V0202301N002112200019N0750001N1+02401-00611999999ADDAA199000091GF101991011001999999081001KA1240M+03881KA2120N+01481MA1999999088741MD1310081+9999ME1314859REMSYN092AAXX  11064 68010 32989 12304 10240 21061 38874 48485 53008 81080 333 20148 555 10388 91013;EQDQ01  00002PRCP99
0205680100999992000111112004-19180+015910FM-12+110099999V0200901N002112200019N0750001N1+03781-00931999999ADDAA199000091GF101991011011022501001001KA1120N+02381MA1999999088541MD1810211+9999ME1314759REMSYN086AAXX  11124 68010 32889 10904 10378 21093 38854 48475 58021 81100 333 20238 555 91010;EQDQ01  00002PRCP99
0215680100999992000111118004-19180+015910FM-12+110099999V0202301N007212200019N0750001N1+03161-01221999999ADDAA199000091GA1001+999999999GF100991001001999999001001KA1120M+03871MA1999999088531MD1510141+9999ME1314669REMSYN080AAXX  11184 68010 32989 02314 10316 21122 38853 48466 55014 333 10387 555 91010;EQDQ01  00002PRCP99
0224680100999992000111206004-19180+015910FM-12+110099999V0202301N002112200019N0750001N1+01971+00011999999ADDAA199000091GF101991001001999999001021KA1240M+03871KA2120N+01331MA1999999088931MD1310201+9999ME1314999REMSYN092AAXX  12064 68010 32989 12304 10197 20001 38893 48499 53020 80002 333 20133 555 10387 91015;EQDQ01  00002PRCP99
0205680100999992000111212004-19180+015910FM-12+110099999V0202301N002112200019N0750001N1+03401-00951999999ADDAA199000091GF101991001001999999001011KA1120N+01911MA1999999088681MD1810281+9999ME1314849REMSYN086AAXX  12124 68010 32989 12304 10340 21095 38868 48484 58028 80001 333 20191 555 91012;EQDQ01  00002PRCP99
0215680100999992000111218004-19180+015910FM-12+110099999V0202301N002112200019N0750001N1+02781-01381999999ADDAA199000091GA1001+999999999GF100991001001999999001001KA1120M+03531MA1999999088611MD1510121+9999ME1314709REMSYN080AAXX  12184 68010 32989 02304 10278 21138 38861 48470 55012 333 10353 555 91011;EQDQ01  00002PRCP99
0215680100999992000111312004-19180+015910FM-12+110099999V0201301N002112200019N0750001N1+03421-00861999999ADDAA199000091GA1001+999999999GF100991001001999999001001KA1120N+01801MA1999999088631MD1810181+9999ME1314809REMSYN080AAXX  13124 68010 32989 01304 10342 21086 38863 48480 58018 333 20180 555 91011;EQDQ01  00002PRCP99
0215680100999992000111318004-19180+015910FM-12+110099999V0209999C000012200019N0750001N1+03111+00041999999ADDAA199000091GA1001+999999999GF100991001001999999001001KA1120M+03641MA1999999088451MD1510061+9999ME1314589REMSYN080AAXX  13184 68010 32989 00000 10311 20004 38845 48458 55006 333 10364 555 91009;EQDQ01  00002PRCP99
0234680100999992000111406004-19180+015910FM-12+110099999V0202301N001512200019N0750001N1+02061+00171999999ADDAA199000091GA1001+999999999GF100991001001999999001001KA1240M+03641KA2120N+01451MA1999999088781MD1310181+9999ME1314829REMSYN086AAXX  14064 68010 32989 02303 10206 20017 38878 48482 53018 333 20145 555 10364 91013;EQDQ01  00002PRCP99
0205680100999992000111412004-19180+015910FM-12+110099999V0200501N002112200019N0750001N1+03641-00041999999ADDAA199000091GF101991011011017501001001KA1120N+02011MA1999999088481MD1810261+9999ME1314679REMSYN086AAXX  14124 68010 32789 10504 10364 21004 38848 48467 58026 81100 333 20201 555 91010;EQDQ01  00002PRCP99
0205680100999992000111418004-19180+015910FM-12+110099999V0209999C000012200019N0750001N1+03141+00231999999ADDAA199000091GF101991011001999999081001KA1120M+03771MA1999999088381MD1610201+9999ME1314519REMSYN086AAXX  14184 68010 32989 10000 10314 20023 38838 48451 56020 81080 333 10377 555 91009;EQDQ01  00002PRCP99
0224680100999992000111506004-19180+015910FM-12+110099999V0201301N002112200019N0750001N1+02261+00371999999ADDAA199000091GF102991021001999999081001KA1240M+03771KA2120N+01831MA1999999088771MD1310151+9999ME1314829REMSYN092AAXX  15064 68010 32989 21304 10226 20037 38877 48482 53015 82080 333 20183 555 10377 91013;EQDQ01  00002PRCP99
0205680100999992000111512004-19180+015910FM-12+110099999V0203101N007212200019N0750001N1+03611+00471999999ADDAA199000091GF103991031001999999081001KA1120N+01831MA1999999088521MD1810191+9999ME1314719REMSYN086AAXX  15124 68010 32989 33114 10361 20047 38852 48471 58019 83080 333 20183 555 91010;EQDQ01  00002PRCP99
0205680100999992000111518004-19180+015910FM-12+110099999V0202301N002112200019N0750001N1+03181-00161999999ADDAA199000091GF103991031001022501081001KA1120M+03771MA1999999088591MD1510021+9999ME1314739REMSYN086AAXX  15184 68010 32889 32304 10318 21016 38859 48473 55002 83080 333 10377 555 91011;EQDQ01  00002PRCP99
0224680100999992000111606004-19180+015910FM-12+110099999V0202301N002112200019N0750001N1+01981+00031999999ADDAA199000091GF102991021001022501081001KA1240M+03761KA2120N+01771MA1999999088891MD1310101+9999ME1314959REMSYN092AAXX  16064 68010 32889 22304 10198 20003 38889 48495 53010 82080 333 20177 555 10376 91014;EQDQ01  00002PRCP99
0205680100999992000111612004-19180+015910FM-12+110099999V0203101N002112200019N0750001N1+99999+99999999999ADDAA199000091GF102991001001999999001031KA1120N+01771MA1999999088661MD1810131+9999ME1314839REMSYN086AAXX  16124 68010 32989 23104 10344 21377 38866 48483 58013 80003 333 20177 555 91012;EQDQ01  00002PRCP99
0205680100999992000111618004-19180+015910FM-12+110099999V0202301N005112200019N0750001N1+02871-00141999999ADDAA199000091GF101991001001999999001021KA1120M+03721MA1999999088611MD1510161+9999ME1314719REMSYN086AAXX  16184 68010 32989 12310 10287 21014 38861 48471 55016 80002 333 10372 555 91011;EQDQ01  00002PRCP99
0224680100999992000111706004-19180+015910FM-12+110099999V0202301N002112200019N0750001N1+01741+00251999999ADDAA199000091GF101991001001999999001011KA1240M+03721KA2120N+01501MA1999999088871MD1310081+9999ME1314909REMSYN092AAXX  17064 68010 32989 12304 10174 20025 38887 48490 53008 80001 333 20150 555 10372 91014;EQDQ01  00002PRCP99
0215680100999992000111712004-19180+015910FM-12+110099999V0202301N008212200019N0750001N1+03261+00011999999ADDAA199000091GA1001+999999999GF100991001001999999001001KA1120N+01501MA1999999088721MD1610091+9999ME1314879REMSYN080AAXX  17124 68010 32989 02316 10326 20001 38872 48487 56009 333 20150 555 91012;EQDQ01  00002PRCP99
0221680100999992000111718004-19180+015910FM-12+110099999V0202301N002112200019N0750001N1+02641-01772999999ADDAA199000091GF101991001001999999001021KA1120M+03271MA1999999088771MD1510081+9999ME1314849REMSYN086AAXX  17184 68010 32989 12304 10264 21177 38877 48484 55008 80002 333 10327 555 91013;EQDQ01-001773ATOD  Q02  00002PRCP99
0224680100999992000111806004-19180+015910FM-12+110099999V0202301N001512200019N0750001N1+01541+00371999999ADDAA199000091GF101991001001999999001011KA1240M+03271KA2120N+01021MA1999999089011MD1310171+9999ME1315009REMSYN092AAXX  18064 68010 32989 12303 10154 20037 38901 48500 53017 80001 333 20102 555 10327 91016;EQDQ01  00002PRCP99
0215680100999992000111812004-19180+015910FM-12+110099999V0200501N002112200019N0750001N1+03081-00251999999ADDAA199000091GA1001+999999999GF100991001001999999001001KA1120N+01481MA1999999088681MD1810301+9999ME1314809REMSYN080AAXX  18124 68010 32989 00504 10308 21025 38868 48480 58030 333 20148 555 91012;EQDQ01  00002PRCP99
0215680100999992000111818004-19180+015910FM-12+110099999V0202301N002112200019N0750001N1+02681-00531999999ADDAA199000091GA1001+999999999GF100991001001999999001001KA1120M+03421MA1999999088681MD1510101+9999ME1314759REMSYN080AAXX  18184 68010 32989 02304 10268 21053 38868 48475 55010 333 10342 555 91012;EQDQ01  00002PRCP99
0234680100999992000111906004-19180+015910FM-12+110099999V0201801N005112200019N0750001N1+01821+00351999999ADDAA199000091GA1001+999999999GF100991001001999999001001KA1240M+03421KA2120N+01121MA1999999088861MD1310151+9999ME1314879REMSYN086AAXX  19064 68010 32989 01810 10182 20035 38886 48487 53015 333 20112 555 10342 91014;EQDQ01  00002PRCP99
0215680100999992000111912004-19180+015910FM-12+110099999V0202301N001512200019N0750001N1+03291-00421999999ADDAA199000091GA1001+999999999GF100991001001999999001001KA1120N+01701MA1999999088751MD1010161+9999ME1314909REMSYN080AAXX  19124 68010 32989 02303 10329 21042 38875 48490 50016 333 20170 555 91013;EQDQ01  00002PRCP99
0215680100999992000111918004-19180+015910FM-12+110099999V0209999C000012200019N0750001N1+02921-00191999999ADDAA199000091GA1001+999999999GF100991001001999999001001KA1120M+03541MA1999999088661MD1510101+9999ME1314769REMSYN080AAXX  19184 68010 32989 00000 10292 21019 38866 48476 55010 333 10354 555 91012;EQDQ01  00002PRCP99
0234680100999992000112006004-19180+015910FM-12+110099999V0202301N002112200019N0750001N1+02151+00001999999ADDAA199000091GA1001+999999999GF100991001001999999001001KA1240M+03591KA2120N+01561MA1999999089061MD1310201+9999ME1315139REMSYN086AAXX  20064 68010 32989 02304 10215 20000 38906 48513 53020 333 20156 555 10359 91016;EQDQ01  00002PRCP99
0215680100999992000112012004-19180+015910FM-12+110099999V0203101N006212200019N0750001N1+03301-00441999999ADDAA199000091GA1001+999999999GF100991001001999999001001KA1120N+01561MA1999999088871MD1810141+9999ME1315029REMSYN080AAXX  20124 68010 32989 03112 10330 21044 38887 48502 58014 333 20156 555 91014;EQDQ01  00002PRCP99
0215680100999992000112018004-19180+015910FM-12+110099999V0202301N005112200019N0750001N1+02951-00851999999ADDAA199000091GA1001+999999999GF100991001001999999001001KA1120M+03611MA1999999088841MD1510161+9999ME1314959REMSYN080AAXX  20184 68010 32989 02310 10295 21085 38884 48495 55016 333 10361 555 91014;EQDQ01  00002PRCP99
0234680100999992000112106004-19180+015910FM-12+110099999V0201301N002112200019N0750001N1+02081-00141999999ADDAA199000091GA1001+999999999GF100991001001999999001001KA1240M+03611KA2120N+01441MA1999999089081MD1310201+9999ME1315169REMSYN086AAXX  21064 68010 32989 01304 10208 21014 38908 48516 53020 333 20144 555 10361 91016;EQDQ01  00002PRCP99
0215680100999992000112118004-19180+015910FM-12+110099999V0209999C000012200019N0750001N1+02931-00351999999ADDAA199000091GA1001+999999999GF100991001001999999001001KA1120M+03661MA1999999088711MD1310181+9999ME1314829REMSYN080AAXX  21184 68010 32989 00000 10293 21035 38871 48482 53018 333 10366 555 91012;EQDQ01  00002PRCP99
0234680100999992000112206004-19180+015910FM-12+110099999V0202301N002112200019N0750001N1+02161+00491999999ADDAA199000091GA1001+999999999GF100991001001999999001001KA1240M+03661KA2120N+01741MA1999999088891MD1310031+9999ME1314939REMSYN086AAXX  22064 68010 32989 02304 10216 20049 38889 48493 53003 333 20174 555 10366 91014;EQDQ01  00002PRCP99
0215680100999992000112212004-19180+015910FM-12+110099999V0200501N006212200019N0750001N1+03611-00821999999ADDAA199000091GA1001+999999999GF100991001001999999001001KA1120N+01741MA1999999088731MD1810101+9999ME1314929REMSYN080AAXX  22124 68010 32989 00512 10361 21082 38873 48492 58010 333 20174 555 91012;EQDQ01  00002PRCP99
0215680100999992000112218004-19180+015910FM-12+110099999V0209999C000012200019N0750001N1+03021+00021999999ADDAA199000091GA1001+999999999GF100991001001999999001001KA1120M+03721MA1999999088661MD1510081+9999ME1314789REMSYN080AAXX  22184 68010 32989 00000 10302 20002 38866 48478 55008 333 10372 555 91012;EQDQ01  00002PRCP99
0234680100999992000112306004-19180+015910FM-12+110099999V0202301N002112200019N0750001N1+02141+00751999999ADDAA199000091GA1001+999999999GF100991001001999999001001KA1240M+03721KA2120N+01561MA1999999088891MD1310171+9999ME1314919REMSYN086AAXX  23064 68010 32989 02304 10214 20075 38889 48491 53017 333 20156 555 10372 91014;EQDQ01  00002PRCP99
0205680100999992000112312004-19180+015910FM-12+110099999V0201301N005112200019N0750001N1+03661-00551999999ADDAA199000091GF101991011011022501001001KA1120N+02111MA1999999088691MD1610171+9999ME1314899REMSYN086AAXX  23124 68010 32889 11310 10366 21055 38869 48489 56017 81100 333 20211 555 91012;EQDQ01  00002PRCP99
0215680100999992000112318004-19180+015910FM-12+110099999V0202301N006212200019N0750001N1+03181-00111999999ADDAA199000091GA1001+999999999GF100991001001999999001001KA1120M+03731MA1999999088671MD1510121+9999ME1314819REMSYN080AAXX  23184 68010 32989 02312 10318 21011 38867 48481 55012 333 10373 555 91012;EQDQ01  00002PRCP99
0234680100999992000112406004-19180+015910FM-12+110099999V0202301N002112200019N0750001N1+01891+00711999999ADDAA199000091GA1001+999999999GF100991001001999999001001KA1240M+03831KA2120N+01391MA1999999089071MD1210041+9999ME1315099REMSYN086AAXX  24064 68010 32989 02304 10189 20071 38907 48509 52004 333 20139 555 10383 91016;EQDQ01  00002PRCP99
0205680100999992000112412004-19180+015910FM-12+110099999V0202301N006212200019N0750001N1+03602+00151999999ADDAA199000091GF101991011021017501001001KA1120N+01391MA1999999088861MD1810131+9999ME1315059REMSYN086AAXX  24124 68010 32789 12312 10360 20015 38886 48505 58013 81200 333 20139 555 91014;EQDQ01  00002PRCP99
0215680100999992000112418004-19180+015910FM-12+110099999V0202301N002112200019N0750001N1+03151-00241999999ADDAA199000091GA1001+999999999GF100991001001999999001001KA1120M+03721MA1999999088671MD1510061+9999ME1314809REMSYN080AAXX  24184 68010 32989 02304 10315 21024 38867 48480 55006 333 10372 555 91012;EQDQ01  00002PRCP99
0224680100999992000112506004-19180+015910FM-12+110099999V0202301N002112200019N0750001N1+02121+00481999999ADDAA199000091GF101991001001999999001061KA1240M+03721KA2120N+01641MA1999999088981MD1310171+9999ME1315029REMSYN092AAXX  25064 68010 32989 12304 10212 20048 38898 48502 53017 80006 333 20164 555 10372 91015;EQDQ01  00002PRCP99
0205680100999992000112512004-19180+015910FM-12+110099999V0203101N005112200019N0750001N1+03701+00391999999ADDAA199000091GF102991021021999999001001KA1120N+02101MA1999999088761MD1810221+9999ME1314969REMSYN086AAXX  25124 68010 32989 23110 10370 20039 38876 48496 58022 82200 333 20210 555 91013;EQDQ01  00002PRCP99
0205680100999992000112518004-19180+015910FM-12+110099999V0202301N002112200019N0750001N1+03021+01011999999ADDAA199000091GF103991031001999999061001KA1120M+03861MA1999999088781MD1510181+9999ME1314909REMSYN086AAXX  25184 68010 32989 32304 10302 20101 38878 48490 55018 83060 333 10386 555 91013;EQDQ01  00002PRCP99
0224680100999992000112606004-19180+015910FM-12+110099999V0202301N002112200019N0750001N1+02141-00021999999ADDAA199000091GF101991001001999999001081KA1240M+03861KA2120N+01561MA1999999089051MD1310061+9999ME1315149REMSYN092AAXX  26064 68010 32989 12304 10214 21002 38905 48514 53006 80008 333 20156 555 10386 91016;EQDQ01  00002PRCP99
0221680100999992000112612004-19180+015910FM-12+110099999V0203101N001512200019N0750001N1+03681-00471999999ADDAA199000091GF102991999001999999081001KA1120N+02081MA1999999088791MD1810201+9999ME1314999REMSYN086AAXX  26124 68010 32989 23103 10368 21047 38879 48499 58020 81080 333 20208 555 91013;EQDQ01+000012SCOTLCQ02  00002PRCP99
0224680100999992000112706004-19180+015910FM-12+110099999V0202301N002112200019N0750001N1+02001-00641999999ADDAA199000091GF101991001001999999001021KA1240M+03791KA2120N+01461MA1999999089161MD1310221+9999ME1315289REMSYN092AAXX  27064 68010 32989 12304 10200 21064 38916 48528 53022 80002 333 20146 555 10379 91017;EQDQ01  00002PRCP99
0215680100999992000112712004-19180+015910FM-12+110099999V0202301N006212200019N0750001N1+03501-00871999999ADDAA199000091GA1001+999999999GF100991001001999999001001KA1120N+01461MA1999999088871MD1810141+9999ME1315059REMSYN080AAXX  27124 68010 32989 02312 10350 21087 38887 48505 58014 333 20146 555 91014;EQDQ01  00002PRCP99
0215680100999992000112718004-19180+015910FM-12+110099999V0202301N006212200019N0750001N1+02991-01491999999ADDAA199000091GA1001+999999999GF100991001001999999001001KA1120M+03681MA1999999088831MD1610161+9999ME1314949REMSYN080AAXX  27184 68010 32989 02312 10299 21149 38883 48494 56016 333 10368 555 91014;EQDQ01  00002PRCP99
0234680100999992000112806004-19180+015910FM-12+110099999V0202301N002112200019N0750001N1+01771-00401999999ADDAA199000091GA1001+999999999GF100991001001999999001001KA1240M+03691KA2120N+01441MA1999999089111MD1210081+9999ME1315209REMSYN086AAXX  28064 68010 32989 02304 10177 21040 38911 48520 52008 333 20144 555 10369 91017;EQDQ01  00002PRCP99
0205680100999992000112812004-19180+015910FM-12+110099999V0202701N002112200019N0750001N1+03472-00031999999ADDAA199000091GF102991001001999999001051KA1120N+01441MA1999999088881MD1810151+9999ME1315069REMSYN086AAXX  28124 68010 32989 22704 10347 21003 38888 48506 58015 80005 333 20144 555 91014;EQDQ01  00002PRCP99
0224680100999992000112906004-19180+015910FM-12+110099999V0202301N002112200019N0750001N1+01941-00241999999ADDAA199000091GF101991001001999999001051KA1240M+03621KA2120N+01261MA1999999088901MD1310101+9999ME1314979REMSYN092AAXX  29064 68010 32989 12304 10194 21024 38890 48497 53010 80005 333 20126 555 10362 91014;EQDQ01  00002PRCP99
0205680100999992000112912004-19180+015910FM-12+110099999V0209999C000012200019N0750001N1+03501+00091999999ADDAA199000091GF101991001001999999001061KA1120N+01941MA1999999088711MD1810181+9999ME1314899REMSYN086AAXX  29124 68010 32989 10000 10350 20009 38871 48489 58018 80006 333 20194 555 91012;EQDQ01  00002PRCP99
0205680100999992000112918004-19180+015910FM-12+110099999V0209999C000012200019N0750001N1+03051-00201999999ADDAA199000091GF102991001001999999001021KA1120M+03691MA1999999088631MD1510111+9999ME1314759REMSYN086AAXX  29184 68010 32989 20000 10305 21020 38863 48475 55011 80002 333 10369 555 91011;EQDQ01  00002PRCP99
0224680100999992000113006004-19180+015910FM-12+110099999V0202301N001512200019N0750001N1+01941+00281999999ADDAA199000091GF103991011001999999071051KA1240M+03691KA2120N+01441MA1999999089021MD1310101+9999ME1315069REMSYN092AAXX  30064 68010 32989 32303 10194 20028 38902 48506 53010 81075 333 20144 555 10369 91016;EQDQ01  00002PRCP99
0205680100999992000113018004-19180+015910FM-12+110099999V0200901N002112200019N0750001N1+03111+01151999999ADDAA199000091GF103991011001999999081081KA1120M+03761MA1999999088811MD1510141+9999ME1314949REMSYN086AAXX  30184 68010 32989 30904 10311 20115 38881 48494 55014 81088 333 10376 555 91013;EQDQ01  00002PRCP99
0224680100999992000120106004-19180+015910FM-12+110099999V0201301N002112200019N0750001N1+02551+00941999999ADDAA199000091GF104991041041022501001001KA1240M+03761KA2120N+02351MA1999999089021MD1310111+9999ME1315089REMSYN092AAXX  01064 68010 32889 41304 10255 20094 38902 48508 53011 84400 333 20235 555 10376 91016;EQDQ01  00002PRCP99
0205680100999992000120112004-19180+015910FM-12+110099999V0201801N007212200019N0750001N1+03501+01051999999ADDAA199000091GF104991041021017501001001KA1120N+02341MA1999999088901MD1810171+9999ME1315089REMSYN086AAXX  01124 68010 32789 41814 10350 20105 38890 48508 58017 84200 333 20234 555 91014;EQDQ01  00002PRCP99
0237680100999992000120118004-19180+015910FM-12+110099999V0209999C000012200019N0750001N1+02661+01901999999ADDAA112000792AA224000092AY191061AY221061GF103991021091012501081001KA1120M+03611MA1999999088881MD1710151+9999ME1314959MW1151REMSYN104AAXX  01184 68010 11689 30000 10266 20190 38888 48495 57015 69902 71592 82980 333 10361 555 20000 91014;
0217680100999992000120206004-19180+015910FM-12+110099999V0200901N008212200019N0750001N1+02771+01251999999ADDAA124000591GF103991011001999999081051KA1240M+03611KA2120N+02141MA1999999089181MD1310171+9999ME1315249REMSYN104AAXX  02064 68010 12989 30916 10277 20125 38918 48524 53017 69954 81085 333 20214 555 10361 20005 91017;
0205680100999992000120212004-19180+015910FM-12+110099999V0200501N002112200019N0750001N1+03521+01081999999ADDAA199000091GF104991031021017501001021KA1120N+02721MA1999999088921MD1810231+9999ME1315109REMSYN086AAXX  02124 68010 32789 40504 10352 20108 38892 48510 58023 83202 333 20272 555 91015;EQDQ01  00002PRCP99
0205680100999992000120218004-19180+015910FM-12+110099999V0209999C000012200019N0750001N1+03191+01131999999ADDAA199000091GF104991011001999999081021KA1120M+03621MA1999999088631MD1510051+9999ME1314779REMSYN086AAXX  02184 68010 32989 40000 10319 20113 38863 48477 55005 81082 333 10362 555 91011;EQDQ01  00002PRCP99
0224680100999992000120306004-19180+015910FM-12+110099999V0200501N005112200019N0750001N1+02551+01101999999ADDAA199000091GF104991041001999999081001KA1240M+03621KA2120N+02121MA1999999089021MD1310121+9999ME1315079REMSYN092AAXX  03064 68010 32989 40510 10255 20110 38902 48507 53012 84080 333 20212 555 10362 91016;EQDQ01  00002PRCP99
0205680100999992000120312004-19180+015910FM-12+110099999V0200501N005110450019N0750001N1+03411+01121999999ADDAA199000091GF105991031021022501081021KA1120N+02491MA1999999088851MD1810171+9999ME1315029REMSYN086AAXX  03124 68010 32889 50510 10341 20112 38885 48502 58017 83282 333 20249 555 91014;EQDQ01  00002PRCP99
0205680100999992000120318004-19180+015910FM-12+110099999V0209999C000012200019N0750001N1+03031+01231999999ADDAA199000091GF104991011031017501081021KA1120M+03441MA1999999088651MD1510081+9999ME1314779REMSYN086AAXX  03184 68010 32789 40000 10303 20123 38865 48477 55008 81382 333 10344 555 91012;EQDQ01  00002PRCP99
0224680100999992000120406004-19180+015910FM-12+110099999V0209999C000012200019N0750001N1+02541+01061999999ADDAA199000091GF102991011001999999031051KA1240M+03441KA2120N+02141MA1999999088891MD1210181+9999ME1314939REMSYN092AAXX  04064 68010 32989 20000 10254 20106 38889 48493 52018 81035 333 20214 555 10344 91014;EQDQ01  00002PRCP99
0205680100999992000120412004-19180+015910FM-12+110099999V0203101N006212200019N0750001N1+03601+00931999999ADDAA199000091GF103991021021022501001061KA1120N+02041MA1999999088671MD1810141+9999ME1314869REMSYN086AAXX  04124 68010 32889 33112 10360 20093 38867 48486 58014 82206 333 20204 555 91012;EQDQ01  00002PRCP99
0209680100999992000120418004-19180+015910FM-12+110099999V0201301N005110450019N0750001N1+02671+01261999999ADDAA112000792AA224000092GF105991021041012501081001KA1120M+03771MA1999999088781MD1510281+9999ME1314859REMSYN098AAXX  04184 68010 12689 51310 10267 20126 38878 48485 55028 69902 82480 333 10377 555 20000 91013;
0217680100999992000120506004-19180+015910FM-12+110099999V0202301N001512200019N0750001N1+02241+00721999999ADDAA124000091GF103991011001999999041081KA1240M+03771KA2120N+01941MA1999999089171MD1310181+9999ME1315229REMSYN104AAXX  05064 68010 12989 32303 10224 20072 38917 48522 53018 69904 81048 333 20194 555 10377 20000 91017;
0205680100999992000120512004-19180+015910FM-12+110099999V0200501N002112200019N0750001N1+03321+01151999999ADDAA199000091GF104991031001999999071021KA1120N+01941MA1999999088891MD1810161+9999ME1315059REMSYN086AAXX  05124 68010 32989 40504 10332 20115 38889 48505 58016 83072 333 20194 555 91014;EQDQ01  00002PRCP99
0233680100999992000120518004-19180+015910FM-12+110099999V0209999C000012200019N0750001N1+03151+01411999999ADDAA199000091AY121061AY221061GF104991011091022501081001KA1120M+03381MA1999999088771MD1510081+9999ME1314919MW1131REMSYN092AAXX  05184 68010 31889 40000 10315 20141 38877 48491 55008 71322 81980 333 10338 555 91013;EQDQ01  00002PRCP99
0205680100999992000120612004-19180+015910FM-12+110099999V0200501N002112200019N0750001N1+03161+01221999999ADDAA199000091GF104991021031017501081021KA1120N+02331MA1999999088981MD1810181+9999ME1315129REMSYN086AAXX  06124 68010 32789 40504 10316 20122 38898 48512 58018 82382 333 20233 555 91015;EQDQ01  00002PRCP99
0205680100999992000120618004-19180+015910FM-12+110099999V0203601N002112200019N0750001N1+02941+01381999999ADDAA199000091GF104991041001999999081001KA1120M+03311MA1999999088871MD1510101+9999ME1314989REMSYN086AAXX  06184 68010 32989 43604 10294 20138 38887 48498 55010 84080 333 10331 555 91014;EQDQ01  00002PRCP99
0205680100999992000120712004-19180+015910FM-12+110099999V0200501N006212200019N0750001N1+03561+01021999999ADDAA199000091GF104991041021017501001001KA1120N+02121MA1999999088711MD1810171+9999ME1314909REMSYN086AAXX  07124 68010 32789 40512 10356 20102 38871 48490 58017 84200 333 20212 555 91012;EQDQ01  00002PRCP99
0205680100999992000120718004-19180+015910FM-12+110099999V0202301N002112200019N0750001N1+03041+01091999999ADDAA199000091GF104991031001999999061081KA1120M+03591MA1999999088671MD1510071+9999ME1314799REMSYN086AAXX  07184 68010 32989 42304 10304 20109 38867 48479 55007 83068 333 10359 555 91012;EQDQ01  00002PRCP99
0224680100999992000120806004-19180+015910FM-12+110099999V0202301N002119999999N0750001N1+02181+01431999999ADDAA199000091GF105991031001999999081021KA1240M+03591KA2120N+02091MA1999999088931MD1310221+9999ME1314949REMSYN092AAXX  08064 68010 32989 52304 10218 20143 38893 48494 53022 83082 333 20209 555 10359 91015;EQDQ01  00002PRCP99
0205680100999992000120812004-19180+015910FM-12+110099999V0209999C000010450019N0750001N1+03311+01201999999ADDAA199000091GF105991041021022501081001KA1120N+02091MA1999999088731MD1810101+9999ME1314889REMSYN086AAXX  08124 68010 32889 50000 10331 20120 38873 48488 58010 84280 333 20209 555 91012;EQDQ01  00002PRCP99
0237680100999992000120818004-19180+015910FM-12+110099999V0200901N002110450019N0750001N1+02201+01741999999ADDAA112008991AA224009091AY191061AY221061GF105991041091017501061001KA1120M+03361MA1999999088801MD1310281+9999ME1314819MW1131REMSYN104AAXX  08184 68010 11789 50904 10220 20174 38880 48481 53028 60092 71392 84960 333 10336 555 20090 91013;
0217680100999992000120906004-19180+015910FM-12+110099999V0202301N002112200019N0750001N1+01791+00651999999ADDAA124009091GF104991021001999999081021KA1240M+03361KA2120N+01551MA1999999089001MD1310131+9999ME1315019REMSYN104AAXX  09064 68010 12989 42304 10179 20065 38900 48501 53013 60094 82082 333 20155 555 10336 20090 91015;
0205680100999992000120912004-19180+015910FM-12+110099999V0203601N002112200019N0750001N1+02981+01421999999ADDAA199000091GF103991021021017501001021KA1120N+01731MA1999999088791MD1810181+9999ME1314909REMSYN086AAXX  09124 68010 32789 33604 10298 20142 38879 48490 58018 82202 333 20173 555 91013;EQDQ01  00002PRCP99
0205680100999992000120918004-19180+015910FM-12+110099999V0200501N001512200019N0750001N1+02941+01191999999ADDAA199000091GF103991011031017501001051KA1120M+03231MA1999999088531MD1610161+9999ME1314649REMSYN086AAXX  09184 68010 32789 30503 10294 20119 38853 48464 56016 81305 333 10323 555 91010;EQDQ01  00002PRCP99
0224680100999992000121006004-19180+015910FM-12+110099999V0202301N002112200019N0750001N1+01931+00461999999ADDAA199000091GF103991011001999999031051KA1240M+03251KA2120N+01511MA1999999088951MD1310081+9999ME1314979REMSYN092AAXX  10064 68010 32989 32304 10193 20046 38895 48497 53008 81035 333 20151 555 10325 91015;EQDQ01  00002PRCP99
0205680100999992000121012004-19180+015910FM-12+110099999V0202301N005112200019N0750001N1+03361-00301999999ADDAA199000091GF102991011021017501001051KA1120N+01891MA1999999088751MD1810201+9999ME1314919REMSYN086AAXX  10124 68010 32789 22310 10336 21030 38875 48491 58020 81205 333 20189 555 91013;EQDQ01  00002PRCP99
0215680100999992000121018004-19180+015910FM-12+110099999V0209999C000012200019N0750001N1+02951+00201999999ADDAA199000091GA1001+999999999GF100991001001999999001001KA1120M+03471MA1999999088601MD1510081+9999ME1314719REMSYN080AAXX  10184 68010 32989 00000 10295 20020 38860 48471 55008 333 10347 555 91011;EQDQ01  00002PRCP99
0224680100999992000121106004-19180+015910FM-12+110099999V0202301N001512200019N0750001N1+01781+00451999999ADDAA199000091GF101991001001999999001051KA1240M+03471KA2120N+01221MA1999999088931MD1310071+9999ME1314959REMSYN092AAXX  11064 68010 32989 12303 10178 20045 38893 48495 53007 80005 333 20122 555 10347 91015;EQDQ01  00002PRCP99
0205680100999992000121112004-19180+015910FM-12+110099999V0203601N002112200019N0750001N1+03441-00851999999ADDAA199000091GF101991001001999999001051KA1120N+01761MA1999999088781MD1810141+9999ME1314959REMSYN086AAXX  11124 68010 32989 13604 10344 21085 38878 48495 58014 80005 333 20176 555 91013;EQDQ01  00002PRCP99
0205680100999992000121118004-19180+015910FM-12+110099999V0209999C000012200019N0750001N1+02921+00211999999ADDAA199000091GF101991011001999999061001KA1120M+03521MA1999999088671MD1510151+9999ME1314779REMSYN086AAXX  11184 68010 32989 10000 10292 20021 38867 48477 55015 81060 333 10352 555 91012;EQDQ01  00002PRCP99
0234680100999992000121206004-19180+015910FM-12+110099999V0209999C000012200019N0750001N1+01921+00361999999ADDAA199000091GA1001+999999999GF100991001001999999001001KA1240M+03521KA2120N+01241MA1999999089031MD1310101+9999ME1315079REMSYN086AAXX  12064 68010 32989 00000 10192 20036 38903 48507 53010 333 20124 555 10352 91016;EQDQ01  00002PRCP99
0205680100999992000121212004-19180+015910FM-12+110099999V0200501N002112200019N0750001N1+03431-00691999999ADDAA199000091GF101991011001999999081001KA1120N+01241MA1999999088791MD1810161+9999ME1314969REMSYN086AAXX  12124 68010 32989 10504 10343 21069 38879 48496 58016 81080 333 20124 555 91013;EQDQ01  00002PRCP99
0205680100999992000121218004-19180+015910FM-12+110099999V0209999C000012200019N0750001N1+03081-00121999999ADDAA199000091GF101991011001999999081001KA1120M+03661MA1999999088591MD1510061+9999ME1314719REMSYN086AAXX  12184 68010 32989 10000 10308 21012 38859 48471 55006 81080 333 10366 555 91011;EQDQ01  00002PRCP99
0215680100999992000121312004-19180+015910FM-12+110099999V0200501N006212200019N0750001N1+03901-00361999999ADDAA199000091GA1001+999999999GF100991001001999999001001KA1120N+01721MA1999999088641MD1810111+9999ME1314879REMSYN080AAXX  13124 68010 32989 00512 10390 21036 38864 48487 58011 333 20172 555 91011;EQDQ01  00002PRCP99
0205680100999992000121318004-19180+015910FM-12+110099999V0201301N002112200019N0750001N1+03121+00731999999ADDAA199000091GF104991041001999999081001KA1120M+03651MA1999999088661MD1710121+9999ME1314799REMSYN086AAXX  13184 68010 32989 41304 10312 20073 38866 48479 57012 84080 333 10365 555 91012;EQDQ01  00002PRCP99
0224680100999992000121406004-19180+015910FM-12+110099999V0201301N005112200019N0750001N1+02621+01111999999ADDAA199000091GF101991011001999999081001KA1240M+03651KA2120N+02161MA1999999088901MD1310221+9999ME1314969REMSYN092AAXX  14064 68010 32989 11310 10262 20111 38890 48496 53022 81080 333 20216 555 10365 91014;EQDQ01  00002PRCP99
0205680100999992000121412004-19180+015910FM-12+110099999V0200501N006212200019N0750001N1+03581+00811999999ADDAA199000091GF104991041021022501001001KA1120N+02451MA1999999088911MD1810201+9999ME1315109REMSYN086AAXX  14124 68010 32889 40512 10358 20081 38891 48510 58020 84200 333 20245 555 91014;EQDQ01  00002PRCP99
0205680100999992000121418004-19180+015910FM-12+110099999V0209999C000012200019N0750001N1+02951+01361999999ADDAA199000091GF102991021091017501001001KA1120M+03651MA1999999088641MD1610011+9999ME1314759REMSYN086AAXX  14184 68010 32789 20000 10295 20136 38864 48475 56001 82900 333 10365 555 91011;EQDQ01  00002PRCP99
0234680100999992000121506004-19180+015910FM-12+110099999V0200901N002112200019N0750001N1+02231+00831999999ADDAA199000091GA1001+999999999GF100991001001999999001001KA1240M+03651KA2120N+01851MA1999999089151MD1310021+9999ME1315209REMSYN086AAXX  15064 68010 32989 00904 10223 20083 38915 48520 53002 333 20185 555 10365 91017;EQDQ01  00002PRCP99
0215680100999992000121512004-19180+015910FM-12+110099999V0201301N002112200019N0750001N1+03421+00051999999ADDAA199000091GA1001+999999999GF100991001001999999001001KA1120N+01851MA1999999088911MD1810181+9999ME1315089REMSYN080AAXX  15124 68010 32989 01304 10342 20005 38891 48508 58018 333 20185 555 91014;EQDQ01  00002PRCP99
0215680100999992000121518004-19180+015910FM-12+110099999V0209999C000012200019N0750001N1+03101+00251999999ADDAA199000091GA1001+999999999GF100991001001999999001001KA1120M+03601MA1999999088701MD1610301+9999ME1314839REMSYN080AAXX  15184 68010 32989 00000 10310 20025 38870 48483 56030 333 10360 555 91012;EQDQ01  00002PRCP99
0224680100999992000121606004-19180+015910FM-12+110099999V0203001N002112200019N0750001N1+02441+00801999999ADDAA199000091GF101991001001999999001051KA1240M+03601KA2120N+01911MA1999999088901MD1310201+9999ME1314959REMSYN092AAXX  16064 68010 32989 13004 10244 20080 38890 48495 53020 80005 333 20191 555 10360 91014;EQDQ01  00002PRCP99
0205680100999992000121612004-19180+015910FM-12+110099999V0201301N006211050019N0750001N1+03411+00721999999ADDAA199000091GF106991041021022501001021KA1120N+02361MA1999999088841MD1810111+9999ME1315019REMSYN086AAXX  16124 68010 32889 61312 10341 20072 38884 48501 58011 84202 333 20236 555 91014;EQDQ01  00002PRCP99
0205680100999992000121618004-19180+015910FM-12+110099999V0203601N001512200019N0750001N1+03081+00661999999ADDAA199000091GF103991031001999999081001KA1120M+03561MA1999999088681MD1510031+9999ME1314809REMSYN086AAXX  16184 68010 32989 33603 10308 20066 38868 48480 55003 83080 333 10356 555 91012;EQDQ01  00002PRCP99
0224680100999992000121706004-19180+015910FM-12+110099999V0200501N006212200019N0750001N1+02391+01351999999ADDAA199000091GF104991001001999999001081KA1240M+03561KA2120N+02201MA1999999088061MD1310081+9999ME1314099REMSYN092AAXX  17064 68010 32989 40512 10239 20135 38806 48409 53008 80008 333 20220 555 10356 91005;EQDQ01  00002PRCP99
0221680100999992000121712004-19180+015910FM-12+110099999V0201301N005112200019N0750001N1+03331+01351999999ADDAA199000091GF103991021021999999081001KA1120N+02321MA1999999088862MD1810101+9999ME1315029REMSYN086AAXX  17124 68010 32989 31310 10333 20135 38886 48502 58010 82280 333 20232 555 91014;EQDQ01+088863APOSP Q02  00002PRCP99
0233680100999992000121718004-19180+015910FM-12+110099999V0200501N005112200019N0750001N1+03011+01131999999ADDAA199000091AY191061AY221061GF104991021091022501081001KA1120M+03391MA1999999088771MD1510151+9999ME1314899MW1171REMSYN092AAXX  17184 68010 31889 40510 10301 20113 38877 48489 55015 71792 82980 333 10339 555 91013;EQDQ01  00002PRCP99
0245680100999992000121806004-19180+015910FM-12+110099999V0200501N002112200019N0750001N1+02451+01461999999ADDAA124001591AY161061AY221061GF103991031001999999081001KA1240M+03391KA2120N+01971MA1999999089091MD1310281+9999ME1315129MW1211REMSYN110AAXX  18064 68010 11989 30504 10245 20146 38909 48512 53028 60024 72162 83080 333 20197 555 10339 20015 91016;
0186680100999992000121812004-19180+015910FM-12+110099999V0201301N006212200019N0750001N1+03301+01021999999ADDAA199000021GF104991041021017501001021KA1120N+01971MA1999999088791MD1810161+9999ME1314949REMSYN086AAXX  18124 68010 32789 41312 10330 20102 38879 48494 58016 84202 333 20197 555 91013;
0214680100999992000121818004-19180+015910FM-12+110099999V0200501N002112200019N0750001N1+03321+01071999999ADDAA199000021AY111061AY201061GF103991021091022501081001KA1120M+03631MA1999999088541MD1510141+9999ME1314699MW1131REMSYN092AAXX  18184 68010 31889 30504 10332 20107 38854 48469 55014 71310 82980 333 10363 555 91010;
0205680100999992000121912004-19180+015910FM-12+110099999V0209999C000012200019N0750001N1+03221+01341999999ADDAA199000091GF103991031011022501001001KA1120N+02031MA1999999088761MD1810131+9999ME1314909REMSYN086AAXX  19124 68010 32889 30000 10322 20134 38876 48490 58013 83100 333 20203 555 91013;EQDQ01  00002PRCP99
0233680100999992000121918004-19180+015910FM-12+110099999V0203601N001512200019N0750001N1+03041+01201999999ADDAA199000091AY191061AY221061GF104991031091012501071021KA1120M+03561MA1999999088541MD1410001+9999ME1314669MW1171REMSYN092AAXX  19184 68010 31689 43603 10304 20120 38854 48466 54000 71792 83972 333 10356 555 91010;EQDQ01  00002PRCP99
0224680100999992000122006004-19180+015910FM-12+110099999V0201301N002112200019N0750001N1+02341+00941999999ADDAA199000091GF101991001001999999001021KA1240M+03561KA2120N+01841MA1999999088921MD1310111+9999ME1314969REMSYN092AAXX  20064 68010 32989 11304 10234 20094 38892 48496 53011 80002 333 20184 555 10356 91015;EQDQ01  00002PRCP99
0205680100999992000122012004-19180+015910FM-12+110099999V0200901N002112200019N0750001N1+03271+01391999999ADDAA199000091GF103991031021017501001001KA1120N+01841MA1999999088711MD1810171+9999ME1314869REMSYN086AAXX  20124 68010 32789 30904 10327 20139 38871 48486 58017 83200 333 20184 555 91012;EQDQ01  00002PRCP99
0217680100999992000122106004-19180+015910FM-12+110099999V0209999C000012200019N0750001N1+02281+00921999999ADDAA124001591GF104991031001999999081021KA1240M+03641KA2120N+02061MA1999999088941MD1310221+9999ME1314999REMSYN104AAXX  21064 68010 12989 40000 10228 20092 38894 48499 53022 60024 83082 333 20206 555 10364 20015 91015;
0205680100999992000122112004-19180+015910FM-12+110099999V0200501N005112200019N0750001N1+03261+01171999999ADDAA199000091GF104991021021017501001021KA1120N+02211MA1999999088721MD1810151+9999ME1314879REMSYN086AAXX  21124 68010 32789 40510 10326 20117 38872 48487 58015 82202 333 20221 555 91012;EQDQ01  00002PRCP99
0256680100999992000122118004-19180+015910FM-12+110099999V0202301N006210450019N0750001N1+02601+01531999999ADDAA112000792AA224999999AY191061AY221061GF105991041091012501081001KA1120M+03651MA1999999088511MD1310201+9999ME1314589MW1951REMSYN104AAXX  21184 68010 11689 52312 10260 20153 38851 48458 53020 69902 79592 84980 333 10365 555 20000 91010;EQDQ01  00002PRCP24
0217680100999992000122206004-19180+015910FM-12+110099999V0202301N002112200019N0750001N1+02221+01311999999ADDAA124003791GF102991021001999999081011KA1240M+03651KA2120N+01821MA1999999089131MD1310181+9999ME1315169REMSYN104AAXX  22064 68010 12989 22304 10222 20131 38913 48516 53018 60044 82081 333 20182 555 10365 20037 91017;
0205680100999992000122212004-19180+015910FM-12+110099999V0200501N005112200019N0750001N1+03171+01561999999ADDAA199000091GF104991031021017501001061KA1120N+02141MA1999999088851MD1810251+9999ME1314999REMSYN086AAXX  22124 68010 32789 40510 10317 20156 38885 48499 58025 83206 333 20214 555 91014;EQDQ01  00002PRCP99
0233680100999992000122218004-19180+015910FM-12+110099999V0209999C000010450019N0750001N1+02741+01541999999ADDAA199000091AY191061AY221061GF105991021091022501081001KA1120M+03411MA1999999088791MD1510121+9999ME1314879MW1131REMSYN092AAXX  22184 68010 31889 50000 10274 20154 38879 48487 55012 71392 82980 333 10341 555 91013;EQDQ01  00002PRCP99
0217680100999992000122306004-19180+015910FM-12+110099999V0209999C000012200019N0750001N1+01891+01521999999ADDAA124006291GF102991001001999999001021KA1240M+03411KA2120N+01761MA1999999089011MD1310171+9999ME1315019REMSYN104AAXX  23064 68010 12989 20000 10189 20152 38901 48501 53017 60064 80002 333 20176 555 10341 20062 91016;
0224680100999992000122406004-19180+015910FM-12+110099999V0202301N002119999999N0750001N1+02221+01251999999ADDAA199000091GF105991021001999999081021KA1240M+03361KA2120N+01821MA1999999088841MD1310121+9999ME1314869REMSYN092AAXX  24064 68010 32989 52304 10222 20125 38884 48486 53012 82082 333 20182 555 10336 91014;EQDQ01  00002PRCP99
0205680100999992000122412004-19180+015910FM-12+110099999V0203601N005112200019N0750001N1+03421+01391999999ADDAA199000091GF104991031021022501001021KA1120N+02151MA1999999088681MD1810181+9999ME1314859REMSYN086AAXX  24124 68010 32889 43610 10342 20139 38868 48485 58018 83202 333 20215 555 91012;EQDQ01  00002PRCP99
0203680100999992000122418004-19180+015910FM-12+110099999V0202301N002110450019N0750001N1+02541+01641999999ADDAY121061AY221061GF105991021091017501081001KA1120M+03501MA1999999088661MD1510171+9999ME1314729MW1201REMSYN092AAXX  24184 68010 11789 52304 10254 20164 38866 48472 55017 72022 82980 333 10350 555 91012;
0217680100999992000122506004-19180+015910FM-12+110099999V0202301N002119999999N0750001N1+02141+01071999999ADDAA124000891GF105991051001999999081001KA1240M+03501KA2120N+02051MA1999999088951MD1310171+9999ME1314989REMSYN104AAXX  25064 68010 12989 52304 10214 20107 38895 48498 53017 69984 85080 333 20205 555 10350 20008 91015;
0205680100999992000122512004-19180+015910FM-12+110099999V0202301N006210450019N0750001N1+02951+00531999999ADDAA199000091GF106991041031022501081001KA1120N+02081MA1999999088831MD1810111+9999ME1314949REMSYN086AAXX  25124 68010 32889 62312 10295 20053 38883 48494 58011 84380 333 20208 555 91014;EQDQ01  00002PRCP99
0224680100999992000122606004-19180+015910FM-12+110099999V0202301N002112200019N0750001N1+01931+00381999999ADDAA199000091GF102991021001999999081001KA1240M+03311KA2120N+01641MA1999999088971MD1310151+9999ME1315039REMSYN092AAXX  26064 68010 32989 22304 10193 20038 38897 48503 53015 82080 333 20164 555 10331 91015;EQDQ01  00002PRCP99
0205680100999992000122612004-19180+015910FM-12+110099999V0202301N005112200019N0750001N1+03511-00291999999ADDAA199000091GF101991001001999999001021KA1120N+01811MA1999999088761MD1810221+9999ME1314949REMSYN086AAXX  26124 68010 32989 12310 10351 21029 38876 48494 58022 80002 333 20181 555 91013;EQDQ01  00002PRCP99
0205680100999992000122618004-19180+015910FM-12+110099999V0202301N005112200019N0750001N1+03181-01041999999ADDAA199000091GF102991011041022501081001KA1120M+03621MA1999999088711MD1510151+9999ME1314859REMSYN086AAXX  26184 68010 32889 22310 10318 21104 38871 48485 55015 81480 333 10362 555 91012;EQDQ01  00002PRCP99
0224680100999992000122706004-19180+015910FM-12+110099999V0209999C000012200019N0750001N1+01881+00361999999ADDAA199000091GF102991021001999999031001KA1240M+03621KA2120N+01481MA1999999089091MD1310181+9999ME1315179REMSYN092AAXX  27064 68010 32989 20000 10188 20036 38909 48517 53018 82030 333 20148 555 10362 91016;EQDQ01  00002PRCP99
0205680100999992000122712004-19180+015910FM-12+110099999V0202301N002112200019N0750001N1+03451-01031999999ADDAA199000091GF101991001001999999001051KA1120N+01481MA1999999088921MD1810191+9999ME1315099REMSYN086AAXX  27124 68010 32989 12304 10345 21103 38892 48509 58019 80005 333 20148 555 91015;EQDQ01  00002PRCP99
0205680100999992000122718004-19180+015910FM-12+110099999V0202301N007212200019N0750001N1+03081-01281999999ADDAA199000091GF101991001001999999001081KA1120M+03661MA1999999088821MD1510191+9999ME1314949REMSYN086AAXX  27184 68010 32989 12314 10308 21128 38882 48494 55019 80008 333 10366 555 91013;EQDQ01  00002PRCP99
0234680100999992000122806004-19180+015910FM-12+110099999V0202301N002112200019N0750001N1+01861+00231999999ADDAA199000091GA1001+999999999GF100991001001999999001001KA1240M+03661KA2120N+01421MA1999999089131MD1210101+9999ME1315229REMSYN086AAXX  28064 68010 32989 02304 10186 20023 38913 48522 52010 333 20142 555 10366 91017;EQDQ01  00002PRCP99
0205680100999992000122812004-19180+015910FM-12+110099999V0209999C000012200019N0750001N1+03592-00241999999ADDAA199000091GF102991001001999999001081KA1120N+01421MA1999999088861MD1810131+9999ME1315059REMSYN086AAXX  28124 68010 32989 20000 10359 21024 38886 48505 58013 80008 333 20142 555 91014;EQDQ01  00002PRCP99
0205680100999992000122818004-19180+015910FM-12+110099999V0202301N007212200019N0750001N1+03201-00951999999ADDAA199000091GF102991001001999999001041KA1120M+03761MA1999999088691MD1510161+9999ME1314839REMSYN086AAXX  28184 68010 32989 22314 10320 21095 38869 48483 55016 80004 333 10376 555 91012;EQDQ01  00002PRCP99
0224680100999992000122906004-19180+015910FM-12+110099999V0201301N002112200019N0750001N1+02191+00311999999ADDAA199000091GF103991011001999999031051KA1240M+03761KA2120N+01721MA1999999088951MD1310101+9999ME1315059REMSYN092AAXX  29064 68010 32989 31304 10219 20031 38895 48505 53010 81035 333 20172 555 10376 91015;EQDQ01  00002PRCP99
0221680100999992000122918004-19180+015910FM-12+110099999V0209999C000012200019N0750001N1+03371+00351999999ADDAA199000091GF103991999001999999081001KA1120M+03841MA1999999088511MD1510081+9999ME1314679REMSYN086AAXX  29184 68010 32989 30000 10337 20035 38851 48467 55008 82080 333 10384 555 91010;EQDQ01+000022SCOTLCQ02  00002PRCP99
0224680100999992000123006004-19180+015910FM-12+110099999V0203101N002112200019N0750001N1+02141+00431999999ADDAA199000091GF104991021001999999061061KA1240M+03841KA2120N+01841MA1999999088961MD1310201+9999ME1315059REMSYN092AAXX  30064 68010 32989 43104 10214 20043 38896 48505 53020 82066 333 20184 555 10384 91015;EQDQ01  00002PRCP99
0205680100999992000123012004-19180+015910FM-12+110099999V0200501N002112200019N0750001N1+03401+00871999999ADDAA199000091GF104991021021012501081021KA1120N+02051MA1999999088781MD1810161+9999ME1314959REMSYN086AAXX  30124 68010 32689 40504 10340 20087 38878 48495 58016 82282 333 20205 555 91013;EQDQ01  00002PRCP99
0205680100999992000123018004-19180+015910FM-12+110099999V0203601N001512200019N0750001N1+03031+01231999999ADDAA199000091GF102991011001999999071041KA1120M+03531MA1999999088551MD1610101+9999ME1314679REMSYN086AAXX  30184 68010 32989 23603 10303 20123 38855 48467 56010 81074 333 10353 555 91010;EQDQ01  00002PRCP99
0224680100999992000123106004-19180+015910FM-12+110099999V0201301N001512200019N0750001N1+02211+00521999999ADDAA199000091GF102991001001999999001021KA1240M+03521KA2120N+01821MA1999999088891MD1310161+9999ME1314969REMSYN092AAXX  31064 68010 32989 21303 10221 20052 38889 48496 53016 80002 333 20182 555 10352 91014;EQDQ01  00002PRCP99
0205680100999992000123112004-19180+015910FM-12+110099999V0200501N007212200019N0750001N1+03421+01161999999ADDAA199000091GF103991021021022501001061KA1120N+01821MA1999999088791MD1810161+9999ME1314969REMSYN086AAXX  31124 68010 32889 30514 10342 20116 38879 48496 58016 82206 333 20182 555 91013;EQDQ01  00002PRCP99
0205680100999992000123118004-19180+015910FM-12+110099999V0202301N002112200019N0750001N1+03131+00911999999ADDAA199000091GF104991021031022501041041KA1120M+03601MA1999999088561MD1610081+9999ME1314699REMSYN086AAXX  31184 68010 32889 42304 10313 20091 38856 48469 56008 82344 333 10360 555 91011;EQDQ01  00002PRCP99
