0243012780999992000010106004+63800+011570FM-12+005299999V0201501N004610150019N0300001N1-00271-00671100581ADDAA106000091AJ100009199999999AY121061AY221061GF108991081001017501021999IA1259KA1120N-00721MA1999999099531MD1710201+9999MW1021REMSYN088AAXX  01064 01278 31780 81509 11027 21067 39953 40058 57020 70222 8802/ 333 21072 41998;EQDQ01  00002PRCP06
0171012780999992000010109004+63800+011570FM-12+005299999V0201001N002110024019N0050001N1-00461-00531100621ADDAY171031AY221031GA1091+999999999GF109991091999999999999999MA1999999099561MD1210031+9999MW1711REMSYN066AAXX  01094 01278 41/50 91004 11046 21053 39956 40062 52003 77172;
0161012780999992000010112004+63800+011570FM-12+005299999V0201501N002110042019N0150001N1-00651-00651100811ADDAY171061AY221061GF108991071071004501021999MA1999999099741MD1210181+9999MW1701REMSYN072AAXX  01124 01278 41465 81504 11065 21065 39974 40081 52018 77072 8772/;
0201012780999992000010118004+63800+011570FM-12+005299999V0201401N002112200019N0300001N1-00671-00671100981ADDAA112003091AY171061AY261061GF102991011081017501001021KA1999M-00241MA1999999099911MD1410001+9999MW1011REMSYN088AAXX  01184 01278 11780 21404 11067 21067 39991 40098 54000 60032 70176 81802 333 11024;
0243012780999992000010206004+63800+011570FM-12+005299999V0201201N002110300019N0300001N1-00281-00451100231ADDAA106000091AJ100039199999999AY111061AY211061GF108991011011012501071999IA1249KA1120N-00701MA1999999099191MD1710221+9999MW1021REMSYN088AAXX  02064 01278 31680 81204 11028 21045 39919 40023 57022 70211 8117/ 333 21070 48003;EQDQ01  00002PRCP06
0161012780999992000010209004+63800+011570FM-12+005299999V0201501N002110300019N0300001N1-00191-00361099771ADDAY121031AY221031GF108991031081017501071999MA1999999098731MD1710461+9999MW1021REMSYN072AAXX  02094 01278 41780 81504 11019 21036 39873 49977 57046 70222 8387/;
0161012780999992000010212004+63800+011570FM-12+005299999V0201401N002110120019N0300001N1-00191-00331099461ADDAY121061AY221061GF107991051091012501071999MA1999999098431MD1710301+9999MW1151REMSYN072AAXX  02124 01278 41680 71404 11019 21033 39843 49946 57030 71522 8597/;
0201012780999992000010218004+63800+011570FM-12+005299999V0203001N007710300019N0100001N1+00231+00221099661ADDAA112006191AY181061AY221061GF108991021091004501021999KA1999M+00431MA1999999098641MD1310301+9999MW1811REMSYN088AAXX  02184 01278 11460 83015 10023 20022 39864 49966 53030 60062 78182 8292/ 333 10043;
0230012780999992000010306004+63800+011570FM-12+005299999V0201401N000512200019N0300001N1+00051-00111100311ADDAA112002091AJ100019199999999AY181061AY211061GF103991001001999999001021IA1289KA1120N+00051MA1999999099281MD1710201+9999MW1021REMSYN094AAXX  03064 01278 11980 31401 10005 21011 39928 40031 57020 60022 70281 80002 333 20005 44001;
0161012780999992000010309004+63800+011570FM-12+005299999V0201501N003110210019N0750001N1+00211-00471099851ADDAY111031AY211031GF108991081001022501021999MA1999999098831MD1710451+9999MW1031REMSYN072AAXX  03094 01278 41889 81506 10021 21047 39883 49985 57045 70311 8802/;
0161012780999992000010312004+63800+011570FM-12+005299999V0201501N007710150019N0300001N1+00291-00361099111ADDAY111061AY211061GF108991081001017501021999MA1999999098101MD1710731+9999MW1701REMSYN072AAXX  03124 01278 41780 81515 10029 21036 39810 49911 57073 77011 8802/;
0252012780999992000010318004+63800+011570FM-12+005299999V0201501N004610210019N0300001N1+00481-00181098202ADDAA112000791AY171061AY211061GF108991081001022501021999KA1999M+00501MA1999999097202MD1710502+9999MW1031REMSYN088AAXX  03184 01278 11880 81509 10048 21018 39720 49820 57050 69902 70371 8802/ 333 10050;EQDQ01+097203APOSP Q02+098203APOSLPQ03+000502APC3  
0230012780999992000010406004+63800+011570FM-12+005299999V0202701N002110042019N0100001N1+00361+00331097331ADDAA112002091AJ100009199999999AY161061AY221061GF108991081001004501021999IA1259KA1120N+00241MA1999999096341MD1710211+9999MW1611REMSYN094AAXX  04064 01278 11460 82704 10036 20033 39634 49733 57021 60022 76162 8802/ 333 20024 41998;
0161012780999992000010409004+63800+011570FM-12+005299999V0202801N007710042019N0050001N1+00371+00371097831ADDAY161031AY221031GF108991061091004501021999MA1999999096831MD1210491+9999MW1811REMSYN072AAXX  04094 01278 41450 82815 10037 20037 39683 49783 52049 78162 8692/;
0161012780999992000010412004+63800+011570FM-12+005299999V0202801N007710300019N0100001N1+00291+00291098481ADDAY181061AY261061GF108991021091004501021999MA1999999097481MD1210651+9999MW1811REMSYN072AAXX  04124 01278 41460 82815 10029 20029 39748 49848 52065 78186 8292/;
0262012780999992000010418004+63800+011570FM-12+005299999V0203101N002110024019N0030001N1+00051+00051099452ADDAA112008991AY181061AY221061GA1091+999999999GF109991091999999999999999KA1999M+00441MA1999999098432MD1210552+9999MW1841REMSYN082AAXX  04184 01278 11/30 93104 10005 20005 39843 49945 52055 60092 78482 333 10044;EQDQ01+098433APOSP Q02+099453APOSLPQ03+000552APC3  
0230012780999992000010506004+63800+011570FM-12+005299999V0201101N001012200019N0300001N1-00151-00371099611ADDAA112000191AJ100009199999999AY181061AY211061GF102991011011012501001021IA1279KA1120N-00271MA1999999098571MD1710281+9999MW1021REMSYN094AAXX  05064 01278 11680 21102 11015 21037 39857 49961 57028 69912 70281 81102 333 21027 43997;
0161012780999992000010509004+63800+011570FM-12+005299999V0201401N001010120019N0750001N1+00211-00331099831ADDAY111031AY211031GF108991081001012501021999MA1999999098791MD1710221+9999MW1031REMSYN072AAXX  05094 01278 41689 81402 10021 21033 39879 49983 57022 70311 8802/;
0161012780999992000010512004+63800+011570FM-12+005299999V0201001N001010210019N0750001N1-00101-00181099911ADDAY111061AY211061GF107991071001022501021999MA1999999098881MD1210091+9999MW1011REMSYN072AAXX  05124 01278 41889 71002 11010 21018 39888 49991 52009 70111 8702/;
0243012780999992000010606004+63800+011570FM-12+005299999V0201401N003110300019N0300001N1+00731+00131098561ADDAA106000091AJ100009199999999AY111061AY211061GF107991021081017501071999IA1259KA1120N-00161MA1999999097571MD1710421+9999MW1021REMSYN088AAXX  06064 01278 31780 71406 10073 20013 39757 49856 57042 70211 8287/ 333 21016 41998;EQDQ01  00002PRCP06
0161012780999992000010609004+63800+011570FM-12+005299999V0201501N007710300019N0750001N1+00821+00201098311ADDAY121031AY221031GF107991031081012501071021MA1999999097331MD1710241+9999MW1021REMSYN072AAXX  06094 01278 41689 71515 10082 20020 39733 49831 57024 70222 83872;
0161012780999992000010612004+63800+011570FM-12+005299999V0201501N006212200019N0750001N1+00821+00171098191ADDAY111061AY211061GF103991021081012501071001MA1999999097211MD1710121+9999MW1021REMSYN072AAXX  06124 01278 41689 31512 10082 20017 39721 49819 57012 70211 82870;
0230012780999992000010706004+63800+011570FM-12+005299999V0202701N001019999999N0300001N1+00311+00001099481ADDAA112004191AJ100009199999999AY181061AY221061GF107991071001008001071999IA1259KA1120N+00111MA1999999098471MD1210321+9999MW1021REMSYN094AAXX  07064 01278 11580 72702 10031 20000 39847 49948 52032 60042 70282 8707/ 333 20011 41998;
0161012780999992000010709004+63800+011570FM-12+005299999V0201501N001019999999N0550001N1+00221-00181099401ADDAY111031AY211031GF107991071001999999021999MA1999999098391MD1810081+9999MW1031REMSYN072AAXX  07094 01278 41985 71502 10022 21018 39839 49940 58008 70311 8702/;
0171012780999992000010712004+63800+011570FM-12+005299999V0201501N006210024019N0030001N1+00321-00401099021ADDAY171061AY211061GA1091+999999999GF109991091999999999999999MA1999999098011MD1710381+9999MW1731REMSYN066AAXX  07124 01278 41/30 91512 10032 21040 39801 49902 57038 77371;
0201012780999992000010718004+63800+011570FM-12+005299999V0201201N002110150019N0300001N1+00601+00091098401ADDAA112002091AY171061AY261061GF108991081001017501021999KA1999M+00661MA1999999097411MD1710181+9999MW1021REMSYN088AAXX  07184 01278 11780 81204 10060 20009 39741 49840 57018 60022 70276 8802/ 333 10066;
0249012780999992000010806004+63800+011570FM-12+005299999V0200901N000519999999N0300001N1+00441+00401097901ADDAA112002091AJ100009199999999AY181061AY211061GF107991999021012501081011IA1259KA1120N+00401MA1999999096911MD1010281+9999MW1021REMSYN094AAXX  08064 01278 11680 70901 10044 20040 39691 49790 50028 60022 70281 80281 333 20040 41998;EQDQ01+000002SCOTLC
0161012780999992000010809004+63800+011570FM-12+005299999V0201201N001012200019N0550001N1+00271+00191098001ADDAY181031AY211031GF102991021081012501001021MA1999999097001MD1210091+9999MW1011REMSYN072AAXX  08094 01278 41685 21202 10027 20019 39700 49800 52009 70181 82802;
0161012780999992000010812004+63800+011570FM-12+005299999V0201501N004612200019N0750001N1+00461-00181097801ADDAY181061AY211061GF102991011041017501031011MA1999999096811MD1710191+9999MW1021REMSYN072AAXX  08124 01278 41789 21509 10046 21018 39681 49780 57019 70281 81431;
0201012780999992000010818004+63800+011570FM-12+005299999V0202701N002110042019N0200001N1+00421+00361098121ADDAA112002091AY181061AY211061GF108991081091004501999999KA1999M+00711MA1999999097121MD1210351+9999MW1801REMSYN088AAXX  08184 01278 11470 82704 10042 20036 39712 49812 52035 60022 78081 889// 333 10071;
0161012780999992000010909004+63800+011570FM-12+005299999V0202801N001010300019N0100001N1+00161+00161099731ADDAY181031AY261031GF108991041091004501021999MA1999999098711MD1210341+9999MW1801REMSYN072AAXX  09094 01278 41460 82802 10016 20016 39871 49973 52034 78086 8492/;
0161012780999992000010912004+63800+011570FM-12+005299999V0203301N001010042019N0300001N1+00161+00161100091ADDAY181061AY261061GF105991051091004501999999MA1999999099061MD1210351+9999MW1021REMSYN072AAXX  09124 01278 41480 53302 10016 20016 39906 40009 52035 70286 859//;
0201012780999992000010918004+63800+011570FM-12+005299999V0203201N001010042019N0150001N1+00171+00171100751ADDAA112004191AY181061AY221061GF108991081091004501999999KA1999M+00301MA1999999099721MD1210321+9999MW1801REMSYN088AAXX  09184 01278 11465 83202 10017 20017 39972 40075 52032 60042 78082 889// 333 10030;
0240012780999992000011006004+63800+011570FM-12+005299999V0203301N000510024019N0030001N1+00091+00091101441ADDAA112005191AJ100039199999999AY181061AY221061GA1091+999999999GF109991091999999999999999IA1279KA1120N-00011MA1999999100401MD1210061+9999MW1851REMSYN088AAXX  10064 01278 11/30 93301 10009 20009 30040 40144 52006 60052 78582 333 21001 43003;
0161012780999992000011009004+63800+011570FM-12+005299999V0209999C000010180019N0750001N1+00191+00131101441ADDAY181031AY221031GF108991061081017501071999MA1999999100401MD1410001+9999MW1021REMSYN072AAXX  10094 01278 41789 80000 10019 20013 30040 40144 54000 70282 8687/;
0161012780999992000011012004+63800+011570FM-12+005299999V0200901N000510150019N0750001N1+00131-00031101311ADDAY181061AY221061GF108991081001017501021999MA1999999100271MD1710131+9999MW1021REMSYN072AAXX  10124 01278 41789 80901 10013 21003 30027 40131 57013 70282 8802/;
0201012780999992000011018004+63800+011570FM-12+005299999V0201501N003110150019N0300001N1+00291+00111100851ADDAA112000791AY161061AY221061GF108991081001017501021999KA1999M+00471MA1999999099821MD1710111+9999MW1601REMSYN088AAXX  10184 01278 11780 81506 10029 20011 39982 40085 57011 69902 76062 8802/ 333 10047;
0230012780999992000011106004+63800+011570FM-12+005299999V0203001N001010300019N0100001N1+00291+00291100981ADDAA112000591AJ100009199999999AY181061AY261061GF108991041091004501021999IA1309KA1120N+00231MA1999999099951MD1210121+9999MW1811REMSYN094AAXX  11064 01278 11460 83002 10029 20029 39995 40098 52012 69942 78186 8492/ 333 20023 42998;
0161012780999992000011109004+63800+011570FM-12+005299999V0209999C000010042019N0100001N1+00271+00271101171ADDAY181031AY221031GF107991061091004501061999MA1999999100131MD1210181+9999MW1151REMSYN072AAXX  11094 01278 41460 70000 10027 20027 30013 40117 52018 71582 8696/;
0161012780999992000011112004+63800+011570FM-12+005299999V0203001N001010300019N0750001N1+00271+00261101211ADDAY181061AY221061GF107991041081004501061021MA1999999100171MD1110041+9999MW1021REMSYN072AAXX  11124 01278 41489 73002 10027 20026 30017 40121 51004 70282 84862;
0201012780999992000011118004+63800+011570FM-12+005299999V0201001N001010300019N0300001N1+00251+00171100951ADDAA112003091AY181061AY221061GF107991011081017501021999KA1999M+00351MA1999999099921MD1710201+9999MW1021REMSYN088AAXX  11184 01278 11780 71002 10025 20017 39992 40095 57020 60032 70282 8182/ 333 10035;
0243012780999992000011206004+63800+011570FM-12+005299999V0202701N002110300019N0300001N1+00361+00181100261ADDAA106000091AJ100009199999999AY121061AY221061GF108991011081017501071999IA1259KA1120N+00221MA1999999099241MD1210111+9999MW1021REMSYN088AAXX  12064 01278 31780 82704 10036 20018 39924 40026 52011 70222 8187/ 333 20022 41998;EQDQ01  00002PRCP06
0161012780999992000011209004+63800+011570FM-12+005299999V0202701N001010075019N0300001N1+00271+00151100391ADDAY181031AY221031GF108991071091008001021999MA1999999099361MD1210121+9999MW1021REMSYN072AAXX  12094 01278 41580 82702 10027 20015 39936 40039 52012 70282 8792/;
0171012780999992000011212004+63800+011570FM-12+005299999V0209999C000010024019N0030001N1+00051+00051100611ADDAY181061AY221061GA1091+999999999GF109991091999999999999999MA1999999099571MD1210211+9999MW1861REMSYN066AAXX  12124 01278 41/30 90000 10005 20005 39957 40061 52021 78682;
0201012780999992000011218004+63800+011570FM-12+005299999V0209999C000010300019N0300001N1+00121+00121100851ADDAA112002091AY181061AY221061GF107991011081017501071999KA1999M+00401MA1999999099821MD1210101+9999MW1021REMSYN088AAXX  12184 01278 11780 70000 10012 20012 39982 40085 52010 60022 70282 8187/ 333 10040;
0171012780999992000011309004+63800+011570FM-12+005299999V0201501N000510024019N0035001N1-00121-00121101011ADDAY171031AY271031GA1091+999999999GF109991091999999999999999MA1999999099961MD1210131+9999MW1711REMSYN066AAXX  13094 01278 41/35 91501 11012 21012 39996 40101 52013 77177;
0161012780999992000011312004+63800+011570FM-12+005299999V0201501N000510006019N0100001N1-00051-00051101321ADDAY171061AY221061GF108991081061000751999999MA1999999100271MD1210311+9999MW1021REMSYN072AAXX  13124 01278 41160 81501 11005 21005 30027 40132 52031 70272 886//;
0201012780999992000011318004+63800+011570FM-12+005299999V0203001N000510300019N0250001N1+00071+00071101851ADDAA112002091AY171061AY221061GF108991021081008001021999KA1999M+00151MA1999999100801MD1210321+9999MW1021REMSYN088AAXX  13184 01278 11575 83001 10007 20007 30080 40185 52032 60022 70272 8282/ 333 10015;
0234012780999992000011406004+63800+011570FM-12+005299999V0209999C000010300019N0300001N1-00231-00231102511ADDAA112000191AJ100059199999999AY171061AY221061GF106991011081017501071021IA1279KA1120N-00331MA1999999101441MD1210061+9999MW1021REMSYN098    AAXX  14064 01278 11780 60000 11023 21023 30144 40251 52006 69912 70272 81872 333 21033 43005;
0165012780999992000011409004+63800+011570FM-12+005299999V0203001N001010042019N0300001N1-00051-00051102531ADDAY181031AY221031GF107991051091004501061021MA1999999101471MD1210031+9999MW1021REMSYN076    AAXX  14094 01278 41480 73002 11005 21005 30147 40253 52003 70282 85962;
0165012780999992000011412004+63800+011570FM-12+005299999V0203301N001010300019N0300001N1-00031-00041102561ADDAY181061AY221061GF106991041091004501061999MA1999999101501MD1210031+9999MW1021REMSYN076    AAXX  14124 01278 41480 63302 11003 21004 30150 40256 52003 70282 8496/;
0205012780999992000011418004+63800+011570FM-12+005299999V0202701N001010300019N0300001N1+00041-00121102471ADDAA112000791AY121061AY221061GF107991021081017501071999KA1999M+00071MA1999999101421MD1710061+9999MW1021REMSYN092    AAXX  14184 01278 11780 72702 10004 21012 30142 40247 57006 69902 70222 8287/ 333 10007;
0234012780999992000011506004+63800+011570FM-12+005299999V0203301N001010300019N0250001N1+00231+00231102141ADDAA112003091AJ100029199999999AY181061AY221061GF108991021091004501021999IA1279KA1120N+00001MA1999999101091MD1710091+9999MW1801REMSYN098    AAXX  15064 01278 11475 83302 10023 20023 30109 40214 57009 60032 78082 8292/ 333 20000 43002;
0165012780999992000011509004+63800+011570FM-12+005299999V0203301N002110012019N0080001N1+00311+00311102011ADDAY181031AY221031GF108991081091001501999999MA1999999100971MD1710121+9999MW1801REMSYN076    AAXX  15094 01278 41258 83304 10031 20031 30097 40201 57012 78082 889//;
0165012780999992000011512004+63800+011570FM-12+005299999V0203001N004610042019N0200001N1+00411+00411102001ADDAY181061AY221061GF108991081091004501999999MA1999999100971MD1410001+9999MW1801REMSYN076    AAXX  15124 01278 41470 83009 10041 20041 30097 40200 54000 78082 889//;
0205012780999992000011518004+63800+011570FM-12+005299999V0203301N002110042019N0200001N1+00371+00371102031ADDAA112002091AY181061AY221061GF108991081091004501999999KA1999M+00451MA1999999100991MD1210011+9999MW1801REMSYN092    AAXX  15184 01278 11470 83304 10037 20037 30099 40203 52001 60022 78082 889// 333 10045;
0234012780999992000011606004+63800+011570FM-12+005299999V0202801N004610042019N0100001N1+00521+00451101141ADDAA112000891AJ100009199999999AY181061AY221061GF108991081091004501999999IA1259KA1120N+00331MA1999999100121MD1710391+9999MW1801REMSYN098    AAXX  16064 01278 11460 82809 10052 20045 30012 40114 57039 69972 78082 889// 333 20033 41998;
0165012780999992000011609004+63800+011570FM-12+005299999V0203301N004610042019N0200001N1+00631+00631100661ADDAY181031AY221031GF108991081091004501999999MA1999999099651MD1710491+9999MW1801REMSYN076    AAXX  16094 01278 41470 83309 10063 20063 39965 40066 57049 78082 889//;
0165012780999992000011612004+63800+011570FM-12+005299999V0203301N007710042019N0100001N1+00611+00471100261ADDAY181061AY221061GF107991071091004501999999MA1999999099251MD1710401+9999MW1811REMSYN076    AAXX  16124 01278 41460 73315 10061 20047 39925 40026 57040 78182 879//;
0205012780999992000011618004+63800+011570FM-12+005299999V0203301N006210042019N0100001N1+00261+00231100191ADDAA112002091AY181061AY221061GF108991081091004501999999KA1999M+00661MA1999999099161MD1210101+9999MW1801REMSYN092    AAXX  16184 01278 11460 83312 10026 20023 39916 40019 52010 60022 78082 889// 333 10066;
0244012780999992000011706004+63800+011570FM-12+005299999V0203201N004610024019N0030001N1+00091+00081100191ADDAA112003091AJ100009199999999AY181061AY221061GA1091+999999999GF109991091999999999999999IA1279KA1120N+00071MA1999999099161MD1210131+9999MW1881REMSYN092    AAXX  17064 01278 11/30 93209 10009 20008 39916 40019 52013 60032 78882 333 20007 43997;
0165012780999992000011709004+63800+011570FM-12+005299999V0203101N007710042019N0100001N1+00031+00001100251ADDAY181031AY221031GF108991081091004501999999MA1999999099221MD1210041+9999MW1851REMSYN076    AAXX  17094 01278 41460 83115 10003 20000 39922 40025 52004 78582 889//;
0165012780999992000011712004+63800+011570FM-12+005299999V0203101N006210042019N0040001N1+00071+00071100331ADDAY181061AY221061GF107991071091004501061999MA1999999099301MD1210081+9999MW1851REMSYN076    AAXX  17124 01278 41440 73112 10007 20007 39930 40033 52008 78582 8796/;
0215012780999992000011718004+63800+011570FM-12+005299999V0203201N002110024019N0040001N1+00091+00051100561ADDAA112001091AY181061AY221061GA1091+999999999GF109991091999999999999999KA1999M+00181MA1999999099521MD1210071+9999MW1851REMSYN086    AAXX  17184 01278 11/40 93204 10009 20005 39952 40056 52007 69992 78582 333 10018;
0244012780999992000011806004+63800+011570FM-12+005299999V0203001N002110024019N0030001N1+00041+00041100811ADDAA112007191AJ100089199999999AY181061AY221061GA1091+999999999GF109991091999999999999999IA1279KA1120N-00051MA1999999099771MD1210251+9999MW1841REMSYN092    AAXX  18064 01278 11/30 93004 10004 20004 39977 40081 52025 60072 78482 333 21005 43008;
0165012780999992000011809004+63800+011570FM-12+005299999V0202801N003110006019N0070001N1+00131+00131101001ADDAY181031AY221031GF108991071091000751021999MA1999999099971MD1210201+9999MW1151REMSYN076    AAXX  18094 01278 41157 82806 10013 20013 39997 40100 52020 71582 8792/;
0165012780999992000011812004+63800+011570FM-12+005299999V0203301N001010042019N0300001N1+00081+00081101271ADDAY181061AY221061GF107991071091004501999999MA1999999100231MD1210261+9999MW1831REMSYN076    AAXX  18124 01278 41480 73302 10008 20008 30023 40127 52026 78382 879//;
0205012780999992000011818004+63800+011570FM-12+005299999V0203301N002110300019N0300001N1+00071-00041101881ADDAA112005191AY181061AY221061GF105991041091004501061999KA1999M+00181MA1999999100831MD1210241+9999MW1021REMSYN092    AAXX  18184 01278 11480 53304 10007 21004 30083 40188 52024 60052 70282 8496/ 333 10018;
0165012780999992000011909004+63800+011570FM-12+005299999V0203001N001010042019N0150001N1-00041-00041101801ADDAY181031AY221031GF108991081091004501999999MA1999999100751MD1710071+9999MW1851REMSYN076    AAXX  19094 01278 41465 83002 11004 21004 30075 40180 57007 78582 889//;
0165012780999992000011912004+63800+011570FM-12+005299999V0203001N001010042019N0250001N1-00011-00011101801ADDAY181061AY221061GF108991071091004501021999MA1999999100751MD1410001+9999MW1851REMSYN076    AAXX  19124 01278 41475 83002 11001 21001 30075 40180 54000 78582 8792/;
0201012780999992000011918004+63800+011570FM-12+005299999V0202801N002110042019N0100001N1+00101+00101101221ADDAA112001091AY181061AY221061GF108991081091004501999999KA1999M+00171MA1999999100181MD1710371+9999MW1851REMSYN088AAXX  19184 01278 11460 82804 10010 20010 30018 40122 57037 69992 78582 889// 333 10017;
0230012780999992000012006004+63800+011570FM-12+005299999V0203001N002110042019N0100001N1-00081-00081100781ADDAA112006191AJ100089199999999AY181061AY221061GF107991071091004501999999IA1279KA1120N-00091MA1999999099741MD1210101+9999MW1851REMSYN094AAXX  20064 01278 11460 73004 11008 21008 39974 40078 52010 60062 78582 879// 333 21009 43008;
0161012780999992000012009004+63800+011570FM-12+005299999V0203201N001010300019N0300001N1-00231-00241100941ADDAY181031AY221031GF106991041091004501071021MA1999999099891MD1210151+9999MW1851REMSYN072AAXX  20094 01278 41480 63202 11023 21024 39989 40094 52015 78582 84972;
0161012780999992000012012004+63800+011570FM-12+005299999V0202901N002110300019N0100001N1-00251-00251100921ADDAY181061AY221061GF107991041091004501071021MA1999999099871MD1710021+9999MW1851REMSYN072AAXX  20124 01278 41460 72904 11025 21025 39987 40092 57002 78582 84972;
0201012780999992000012018004+63800+011570FM-12+005299999V0203001N001010042019N0300001N1-00461-00461100881ADDAA112003091AY181061AY221061GF107991071091004501999999KA1999M-00061MA1999999099821MD1210011+9999MW1851REMSYN088AAXX  20184 01278 11480 73002 11046 21046 39982 40088 52001 60032 78582 879// 333 11006;
0230012780999992000012106004+63800+011570FM-12+005299999V0201301N000510042019N0150001N1-00831-00831101831ADDAA112003091AJ100199199999999AY181061AY221061GF107991071001004501021999IA1239KA1120N-00961MA1999999100741MD1210201+9999MW1021REMSYN094AAXX  21064 01278 11465 71301 11083 21083 30074 40183 52020 60032 70282 8702/ 333 21096 47019;
0161012780999992000012109004+63800+011570FM-12+005299999V0201301N001012200019N0300001N1-00911-00911101951ADDAY171031AY221031GF104991021081004501001011MA1999999100861MD1210121+9999MW1011REMSYN072AAXX  21094 01278 41480 41302 11091 21091 30086 40195 52012 70172 82801;
0161012780999992000012112004+63800+011570FM-12+005299999V0201501N001010090019N0750001N1-00911-00911101961ADDAY171061AY221061GF107991051081004501061021MA1999999100871MD1210011+9999MW1021REMSYN072AAXX  21124 01278 41489 71502 11091 21091 30087 40196 52001 70272 85862;
0201012780999992000012118004+63800+011570FM-12+005299999V0201501N001010150019N0300001N1-00791-00791101471ADDAA112000791AY121061AY221061GF108991081001017501021999KA1999M-00711MA1999999100391MD1710311+9999MW1021REMSYN088AAXX  21184 01278 11780 81502 11079 21079 30039 40147 57031 69902 70222 8802/ 333 11071;
0230012780999992000012206004+63800+011570FM-12+005299999V0201301N000519999999N0550001N1-00971-01011100991ADDAA112000791AJ100129199999999AY171061AY221061GF107991071001999999011999IA1239KA1120N-00991MA1999999099911MD1410001+9999MW1021REMSYN094AAXX  22064 01278 11985 71301 11097 21101 39991 40099 54000 69902 70272 8701/ 333 21099 47012;
0161012780999992000012209004+63800+011570FM-12+005299999V0201201N001019999999N0550001N1-01021-01031101131ADDAY121031AY221031GF107991041001999999011011MA1999999100041MD1210131+9999MW1021REMSYN072AAXX  22094 01278 41985 71202 11102 21103 30004 40113 52013 70222 84011;
0161012780999992000012212004+63800+011570FM-12+005299999V0201501N001010150019N0300001N1-00981-01031101231ADDAY121061AY221061GF108991081001017501021999MA1999999100151MD1210111+9999MW1151REMSYN072AAXX  22124 01278 41780 81502 11098 21103 30015 40123 52011 71522 8802/;
0201012780999992000012218004+63800+011570FM-12+005299999V0201101N000512200019N0300001N1-01081-01091101451ADDAA112000591AY171061AY211061GF101991001001999999001021KA1999M-00901MA1999999100361MD1210161+9999MW1011REMSYN088AAXX  22184 01278 11980 11101 11108 21109 30036 40145 52016 69962 70171 80002 333 11090;
0230012780999992000012306004+63800+011570FM-12+005299999V0200901N000510042019N0300001N1-01121-01121101881ADDAA112000591AJ100139199999999AY171061AY211061GF108991081001004501021999IA1239KA1120N-01581MA1999999100781MD1710101+9999MW1021REMSYN094AAXX  23064 01278 11480 80901 11112 21112 30078 40188 57010 69942 70271 8802/ 333 21158 47013;
0161012780999992000012309004+63800+011570FM-12+005299999V0201501N001010042019N0300001N1-00891-00891101921ADDAY171031AY221031GF108991081001004501021999MA1999999100831MD1210051+9999MW1701REMSYN072AAXX  23094 01278 41480 81502 11089 21089 30083 40192 52005 77072 8802/;
0201012780999992000012318004+63800+011570FM-12+005299999V0201201N000510042019N0300001N1-00471-00471101631ADDAA112000191AY171061AY221061GF108991081001004501021999KA1999M-00451MA1999999100561MD1710101+9999MW1701REMSYN088AAXX  23184 01278 11480 81201 11047 21047 30056 40163 57010 69912 77072 8802/ 333 11045;
0230012780999992000012406004+63800+011570FM-12+005299999V0203201N002110300019N0100001N1+00051+00051101201ADDAA112002091AJ100149199999999AY181061AY271061GF108991011091004501021999IA1239KA1120N-00481MA1999999100161MD1710101+9999MW1851REMSYN094AAXX  24064 01278 11460 83204 10005 20005 30016 40120 57010 60022 78587 8192/ 333 21048 47014;
0161012780999992000012409004+63800+011570FM-12+005299999V0203201N001010042019N0300001N1+00161+00161101301ADDAY181031AY221031GF108991071091004501021999MA1999999100261MD1210101+9999MW1021REMSYN072AAXX  24094 01278 41480 83202 10016 20016 30026 40130 52010 70282 8792/;
0161012780999992000012412004+63800+011570FM-12+005299999V0202901N002110042019N0300001N1+00171+00171101461ADDAY181061AY221061GF107991071091004501999999MA1999999100421MD1210161+9999MW1501REMSYN072AAXX  24124 01278 41480 72904 10017 20017 30042 40146 52016 75082 879//;
0201012780999992000012418004+63800+011570FM-12+005299999V0203001N000510300019N0300001N1+00161+00161101671ADDAA112000791AY151061AY221061GF108991041081004501071021KA1999M+00211MA1999999100631MD1210101+9999MW1021REMSYN088AAXX  24184 01278 11480 83001 10016 20016 30063 40167 52010 69902 70252 84872 333 10021;
0230012780999992000012506004+63800+011570FM-12+005299999V0203201N002110300019N0200001N1+00341+00341101341ADDAA112000191AJ100109199999999AY181061AY221061GF108991021091001501021999IA1279KA1120N+00131MA1999999100311MD1410001+9999MW1801REMSYN094AAXX  25064 01278 11270 83204 10034 20034 30031 40134 54000 69922 78082 8292/ 333 20013 43010;
0161012780999992000012509004+63800+011570FM-12+005299999V0203301N002110090019N0250001N1+00331+00331101571ADDAY181031AY221031GF107991071081004501999999MA1999999100531MD1210221+9999MW1021REMSYN072AAXX  25094 01278 41475 73304 10033 20033 30053 40157 52022 70282 878//;
0161012780999992000012512004+63800+011570FM-12+005299999V0203101N002110090019N0300001N1+00331+00321101571ADDAY181061AY221061GF107991071081004501999999MA1999999100531MD1410001+9999MW1021REMSYN072AAXX  25124 01278 41480 73104 10033 20032 30053 40157 54000 70282 878//;
0201012780999992000012518004+63800+011570FM-12+005299999V0209999C000019999999N0300001N1+00301+00301101411ADDAA112000791AY121061AY221061GF108991081001004501071999KA1999M+00441MA1999999100381MD1710021+9999MW1021REMSYN088AAXX  25184 01278 11480 80000 10030 20030 30038 40141 57002 69902 70222 8807/ 333 10044;
0230012780999992000012606004+63800+011570FM-12+005299999V0202701N001010300019N0100001N1+00431+00431100901ADDAA112000591AJ100059199999999AY181061AY221061GF108991011091004501021999IA1309KA1120N+00291MA1999999099881MD1710121+9999MW1801REMSYN094AAXX  26064 01278 11460 82702 10043 20043 39988 40090 57012 69962 78082 8192/ 333 20029 42005;
0161012780999992000012609004+63800+011570FM-12+005299999V0202801N006210042019N0100001N1+00461+00451100801ADDAY181031AY221031GF108991081091004501999999MA1999999099781MD1710101+9999MW1801REMSYN072AAXX  26094 01278 41460 82812 10046 20045 39978 40080 57010 78082 889//;
0161012780999992000012612004+63800+011570FM-12+005299999V0203001N004610012019N0060001N1+00421+00421100611ADDAY181061AY221061GF108991081091001501999999MA1999999099591MD1710191+9999MW1801REMSYN072AAXX  26124 01278 41256 83009 10042 20042 39959 40061 57019 78082 889//;
0201012780999992000012618004+63800+011570FM-12+005299999V0203001N001010042019N0200001N1+00161+00161100621ADDAA112004191AY181061AY221061GF108991081091004501999999KA1999M+00481MA1999999099591MD1710031+9999MW1801REMSYN088AAXX  26184 01278 11470 83002 10016 20016 39959 40062 57003 60042 78082 889// 333 10048;
0240012780999992000012706004+63800+011570FM-12+005299999V0202701N000510024019N0030001N1+00001-00011100401ADDAA112000591AJ100019199999999AY181061AY221061GA1091+999999999GF109991091999999999999999IA1239KA1120N-00011MA1999999099371MD1710091+9999MW1851REMSYN088AAXX  27064 01278 11/30 92701 10000 21001 39937 40040 57009 69952 78582 333 21001 47001;
0171012780999992000012709004+63800+011570FM-12+005299999V0203001N001010024019N0030001N1+00021+00021099991ADDAY181031AY221031GA1091+999999999GF109991091999999999999999MA1999999098961MD1710411+9999MW1851REMSYN066AAXX  27094 01278 41/30 93002 10002 20002 39896 49999 57041 78582;
0161012780999992000012712004+63800+011570FM-12+005299999V0209999C000010042019N0300001N1+00021+00021099631ADDAY181061AY221061GF108991081091004501999999MA1999999098601MD1710361+9999MW1851REMSYN072AAXX  27124 01278 41480 80000 10002 20002 39860 49963 57036 78582 889//;
0211012780999992000012718004+63800+011570FM-12+005299999V0202801N000510003019N0002001N1-00041-00041099141ADDAA112009991AY181061AY271061GA1091+999999999GF109991091999999999999999KA1999M+00061MA1999999098111MD1710161+9999MW1731REMSYN082AAXX  27184 01278 11/02 92801 11004 21004 39811 49914 57016 60102 77387 333 10006;
0224012780999992000012806004+63800+011570FM-12+005299999V0203201N000519999999N0030001N1-00341-00341099411ADDAA112005191AJ100219199999999AY181061AY221061GF108991999999999999999999IA1239KA1120N-00371MA1999999098371MD1410001+9999MW1851REMSYN088AAXX  28064 01278 11/30 83201 11034 21034 39837 49941 54000 60052 78582 333 21037 47021;
0171012780999992000012809004+63800+011570FM-12+005299999V0209999C000010024019N0050001N1-00421-00421099411ADDAY181031AY221031GA1091+999999999GF109991091999999999999999MA1999999098371MD1410001+9999MW1851REMSYN066AAXX  28094 01278 41/50 90000 11042 21042 39837 49941 54000 78582;
0161012780999992000012812004+63800+011570FM-12+005299999V0201401N000510042019N0150001N1-00401-00401099201ADDAY181061AY221061GF108991051091004501021999MA1999999098161MD1710211+9999MW1851REMSYN072AAXX  28124 01278 41465 81401 11040 21040 39816 49920 57021 78582 8592/;
0201012780999992000012818004+63800+011570FM-12+005299999V0201301N001010300019N0300001N1-00451-00451098921ADDAA112001091AY181061AY221061GF108991011081004501071999KA1999M-00301MA1999999097881MD1710201+9999MW1021REMSYN088AAXX  28184 01278 11480 81302 11045 21045 39788 49892 57020 69992 70282 8187/ 333 11030;
0259012780999992000012906004+63800+011570FM-12+005299999V0201001N004610150019N0250001N1-00431-00611096881ADDAA199000091AJ100189199999999AY121061AY221061GF108991081001017501021999IA1239KA1120N-00761MA1999999095861MD1710902+9999MW1021REMSYN088AAXX  29064 01278 31775 81009 11043 21061 39586 49688 57090 70222 8802/ 333 21076 47018;EQDQ01+000902APC3  Q02  00002PRCP99
0222012780999992000012912004+63800+011570FM-12+005299999V0201401N003110003019N0003001N1-00191-00191095342ADDAY171061AY221061GA1091+999999999GF109991091999999999999999MA1999999094352MD1710592+9999MW1731REMSYN066AAXX  29124 01278 41/03 91406 11019 21019 39435 49534 57059 77372;EQDQ01+094353APOSP Q02+095343APOSLPQ03+000592APC3  
0201012780999992000012918004+63800+011570FM-12+005299999V0201301N001010042019N0250001N1+00021+00021094791ADDAA112006191AY171061AY221061GF107991071001004501021999KA1999M+00211MA1999999093811MD1710041+9999MW1021REMSYN088AAXX  29184 01278 11475 71302 10002 20002 39381 49479 57004 60062 70272 8702/ 333 10021;
0161012780999992000012921004+63800+011570FM-12+005299999V0201401N001010300019N0300001N1-00011-00011094781ADDAY121031AY221031GF108991041081008001071999MA1999999093801MD1710011+9999MW1021REMSYN072AAXX  29214 01278 41580 81402 11001 21001 39380 49478 57001 70222 8487/;
0259012780999992000013006004+63800+011570FM-12+005299999V0203001N007710024019N0040001N1-00121-00131096651ADDAA112000191AJ100259199999999AY181061AY221061GA1091+999999999GF109991091999999999999999IA1289KA1120N-00181MA1999999095651MD1210902+9999MW1851REMSYN088AAXX  30064 01278 11/40 93015 11012 21013 39565 49665 52090 69922 78582 333 21018 44025;EQDQ01+000902APC3  
0161012780999992000013009004+63800+011570FM-12+005299999V0203001N009810042019N0050001N1-00351-00351097401ADDAY181031AY221031GF107991071091004501999999MA1999999096381MD1210731+9999MW1861REMSYN072AAXX  30094 01278 41450 73019 11035 21035 39638 49740 52073 78682 879//;
0161012780999992000013012004+63800+011570FM-12+005299999V0203001N006210042019N0100001N1-00341-00791098091ADDAY181061AY221061GF107991071091004501999999MA1999999097061MD1210681+9999MW1861REMSYN072AAXX  30124 01278 41460 73012 11034 21079 39706 49809 52068 78682 879//;
0246012780999992000013018004+63800+011570FM-12+005299999V0203001N006210003019N0002001N1-00541-00541098902ADDAA112000391AY181061AY221061GA1091+999999999GF109991091999999999999999KA1999M-00051MA1999999097862MD1210301+9999MW1861REMSYN082AAXX  30184 01278 11/02 93012 11054 21054 39786 49890 52030 69932 78682 333 11005;EQDQ01+097863APOSP Q02+098903APOSLP
0230012780999992000013106004+63800+011570FM-12+005299999V0201401N001012200019N0550001N1-00771-00921098751ADDAA112000391AJ100289199999999AY181061AY211061GF101991001001999999001021IA1249KA1120N-00801MA1999999097701MD1710201+9999MW1021REMSYN094AAXX  31064 01278 11985 11402 11077 21092 39770 49875 57020 69932 70281 80002 333 21080 48028;
0180012780999992000013109004+63800+011570FM-12+005299999V0200901N001019999999N0750001N1-00451-01121098531ADDAY111031AY211031GF107991999001999999011999MA1999999097501MD1710201+9999MW1031REMSYN072AAXX  31094 01278 41989 70902 11045 21112 39750 49853 57020 70311 8801/;EQDQ01+000082SCOTLC
0171012780999992000013112004+63800+011570FM-12+005299999V0202801N006210006019N0010001N1-00181-00181098211ADDAY181061AY231061GA1091+999999999GF109991091999999999999999MA1999999097191MD1510311+9999MW1851REMSYN066AAXX  31124 01278 41/10 92812 11018 21018 39719 49821 55031 78583;
0246012780999992000013118004+63800+011570FM-12+005299999V0202901N006210006019N0008001N1-00171-00471099112ADDAA112001091AY181061AY231061GA1091+999999999GF109991091999999999999999KA1999M-00141MA1999999098082MD1210201+9999MW1861REMSYN082AAXX  31184 01278 11/08 92912 11017 21047 39808 49911 52020 60012 78683 333 11014;EQDQ01+098083APOSP Q02+099113APOSLP
0230012780999992000020106004+63800+011570FM-12+005299999V0202801N003112200019N0300001N1-00161-00341100111ADDAA112004191AJ100529199999999AY181061AY231061GF103991021081008001001021IA1249KA1120N-00271MA1999999099071MD1210101+9999MW1021REMSYN094AAXX  01064 01278 11580 32806 11016 21034 39907 40011 52010 60042 70283 82802 333 21027 48052;
0161012780999992000020109004+63800+011570FM-12+005299999V0203301N001010300019N0550001N1-00241-00361100111ADDAY111031AY211031GF106991041091004501061021MA1999999099071MD1410001+9999MW1021REMSYN072AAXX  01094 01278 41485 63302 11024 21036 39907 40011 54000 70211 84962;
0161012780999992000020112004+63800+011570FM-12+005299999V0209999C000010075019N0550001N1-00221-00331100041ADDAY181061AY211061GF108991071091008001071999MA1999999099001MD1710071+9999MW1851REMSYN072AAXX  01124 01278 41585 80000 11022 21033 39900 40004 57007 78581 8797/;
0201012780999992000020118004+63800+011570FM-12+005299999V0201501N001010210019N0550001N1-00451-00461099531ADDAA112000791AY181061AY221061GF106991061001022501071999KA1999M-00121MA1999999098491MD1710401+9999MW1021REMSYN088AAXX  01184 01278 11885 61502 11045 21046 39849 49953 57040 69902 70282 8607/ 333 11012;
0243012780999992000020206004+63800+011570FM-12+005299999V0201501N001019999999N0550001N1-00691-00911098761ADDAA199000091AJ100469199999999AY121061AY221061GF106991041001999999071021IA1249KA1120N-00721MA1999999097711MD1610041+9999MW1021REMSYN088AAXX  02064 01278 31985 61502 11069 21091 39771 49876 56004 70222 84072 333 21072 48046;EQDQ01  00002PRCP99
0161012780999992000020209004+63800+011570FM-12+005299999V0201001N002110300019N0750001N1-00631-00891098771ADDAY121031AY221031GF108991011081017501071021MA1999999097721MD1210011+9999MW1021REMSYN072AAXX  02094 01278 41789 81004 11063 21089 39772 49877 52001 70222 81872;
0161012780999992000020212004+63800+011570FM-12+005299999V0201501N002110300019N0550001N1-00561-00821098831ADDAY121061AY221061GF108991011011017501071021MA1999999097791MD1210071+9999MW1021REMSYN072AAXX  02124 01278 41785 81504 11056 21082 39779 49883 52007 70222 81172;
0214012780999992000020218004+63800+011570FM-12+005299999V0201501N000510300019N0250001N1-00791-00851099351ADDAA199000091AY121061AY221061GF107991011081012501071999KA1999M-00531MA1999999098301MD1210271+9999MW1021REMSYN082AAXX  02184 01278 31675 71501 11079 21085 39830 49935 52027 70222 8187/ 333 11053;EQDQ01  00002PRCP99
0230012780999992000020306004+63800+011570FM-12+005299999V0202801N001010042019N0250001N1-00301-00301100521ADDAA112002091AJ100499199999999AY181061AY221061GF107991061091004501071999IA1249KA1120N-00991MA1999999099471MD1210251+9999MW1021REMSYN094AAXX  03064 01278 11475 72802 11030 21030 39947 40052 52025 60022 70282 8697/ 333 21099 48049;
0161012780999992000020309004+63800+011570FM-12+005299999V0203001N001010012019N0100001N1-00101-00101100921ADDAY181031AY221031GF108991081091001501999999MA1999999099881MD1210411+9999MW1851REMSYN072AAXX  03094 01278 41260 83002 11010 21010 39988 40092 52041 78582 889//;
0161012780999992000020312004+63800+011570FM-12+005299999V0203001N002110042019N0300001N1-00051-00051101231ADDAY181061AY221061GF107991061091004501061999MA1999999100181MD1210301+9999MW1021REMSYN072AAXX  03124 01278 41480 73004 11005 21005 30018 40123 52030 70282 8696/;
0201012780999992000020318004+63800+011570FM-12+005299999V0200901N000519999999N0550001N1-00021-00311101031ADDAA112002091AY181061AY221061GF108991081001008001071999KA1999M+00021MA1999999099991MD1710301+9999MW1021REMSYN088AAXX  03184 01278 11585 80901 11002 21031 39999 40103 57030 60022 70282 8807/ 333 10002;
0230012780999992000020406004+63800+011570FM-12+005299999V0203001N002110300019N0200001N1+00341+00191099191ADDAA112007191AJ100509199999999AY181061AY221061GF108991011091004501021999IA1289KA1120N-00081MA1999999098171MD1710081+9999MW1021REMSYN094AAXX  04064 01278 11470 83004 10034 20019 39817 49919 57008 60072 70282 8192/ 333 21008 44050;
0161012780999992000020409004+63800+011570FM-12+005299999V0203001N004610042019N0300001N1+00221+00211099401ADDAY181031AY221031GF108991071091004501021999MA1999999098391MD1210221+9999MW1801REMSYN072AAXX  04094 01278 41480 83009 10022 20021 39839 49940 52022 78082 8792/;
0171012780999992000020412004+63800+011570FM-12+005299999V0203001N003110006019N0010001N1+00111+00111099571ADDAY181061AY221061GA1091+999999999GF109991091999999999999999MA1999999098551MD1210111+9999MW1841REMSYN066AAXX  04124 01278 41/10 93006 10011 20011 39855 49957 52011 78482;
0201012780999992000020418004+63800+011570FM-12+005299999V0203001N003110042019N0250001N1+00191-00051099891ADDAA112002091AY181061AY221061GF107991071091004501999999KA1999M+00401MA1999999098871MD1210201+9999MW1021REMSYN088AAXX  04184 01278 11475 73006 10019 21005 39887 49989 52020 60022 70282 879// 333 10040;
0230012780999992000020506004+63800+011570FM-12+005299999V0201101N001019999999N0300001N1-00141-00151100541ADDAA112000191AJ100469199999999AY181061AY221061GF107991071001999999011999IA1289KA1120N-00181MA1999999099501MD1410001+9999MW1021REMSYN094AAXX  05064 01278 11980 71102 11014 21015 39950 40054 54000 69912 70282 8701/ 333 21018 44046;
0161012780999992000020509004+63800+011570FM-12+005299999V0201501N001010075019N0100001N1+00001-00191100451ADDAY121031AY221031GF108991081001008001021999MA1999999099421MD1710081+9999MW1161REMSYN072AAXX  05094 01278 41560 81502 10000 21019 39942 40045 57008 71622 8802/;
0161012780999992000020512004+63800+011570FM-12+005299999V0201501N002110300019N0070001N1+00131+00131100191ADDAY171061AY221061GF108991011081008001021999MA1999999099161MD1710261+9999MW1581REMSYN072AAXX  05124 01278 41557 81504 10013 20013 39916 40019 57026 75872 8182/;
0184012780999992000020518004+63800+011570FM-12+005299999V0201501N000510003019N0200001N1+00071+00071100161ADDAY161061AY251061GF108991081061000251999999KA1999M+00201MA1999999099131MD1710021+9999MW1411REMSYN082AAXX  05184 01278 11070 81501 10007 20007 39913 40016 57002 74165 886// 333 10020;
0230012780999992000020606004+63800+011570FM-12+005299999V0209999C000010042019N0100001N1+00291+00291098971ADDAA112003091AJ100419199999999AY161061AY221061GF108991081001004501021999IA1289KA1120N+00041MA1999999097961MD1710161+9999MW1631REMSYN094AAXX  06064 01278 11460 80000 10029 20029 39796 49897 57016 60032 76362 8802/ 333 20004 44041;
0161012780999992000020609004+63800+011570FM-12+005299999V0203301N000510075019N0300001N1+00341+00341099091ADDAY161031AY221031GF108991081091008001999999MA1999999098081MD1210121+9999MW1151REMSYN072AAXX  06094 01278 41580 83301 10034 20034 39808 49909 52012 71562 889//;
0161012780999992000020612004+63800+011570FM-12+005299999V0202801N003110042019N0200001N1+00361+00241099231ADDAY181061AY261061GF107991071091004501999999MA1999999098221MD1210141+9999MW1811REMSYN072AAXX  06124 01278 41470 72806 10036 20024 39822 49923 52014 78186 879//;
0201012780999992000020618004+63800+011570FM-12+005299999V0203301N001010042019N0250001N1+00221+00221099721ADDAA112005191AY181061AY221061GF105991051091004501999999KA1999M+00421MA1999999098701MD1210201+9999MW1011REMSYN088AAXX  06184 01278 11475 53302 10022 20022 39870 49972 52020 60052 70182 859// 333 10042;
0249012780999992000020706004+63800+011570FM-12+005299999V0201101N004610210019N0550001N1+00501-00211098281ADDAA112000391AJ100349199999999AY181061AY221061GF108991081001022501021999IA1289KA1120N+00171MA1999999097291MD1710702+9999MW1031REMSYN094AAXX  07064 01278 11885 81109 10050 21021 39729 49828 57070 69932 70382 8802/ 333 20017 44034;EQDQ01+000702APC3  
0161012780999992000020709004+63800+011570FM-12+005299999V0201401N003110120019N0550001N1+00451+00221097891ADDAY161031AY221031GF108991081001012501021999MA1999999096901MD1710391+9999MW1611REMSYN072AAXX  07094 01278 41685 81406 10045 20022 39690 49789 57039 76162 8802/;
0161012780999992000020712004+63800+011570FM-12+005299999V0201501N001010180019N0750001N1+00701+00161097501ADDAY161061AY221061GF107991051081017501071999MA1999999096521MD1710381+9999MW1021REMSYN072AAXX  07124 01278 41789 71502 10070 20016 39652 49750 57038 70262 8587/;
0201012780999992000020718004+63800+011570FM-12+005299999V0202701N001010300019N0300001N1+00341+00341097571ADDAA112001091AY181061AY261061GF108991011081012501021999KA1999M+00741MA1999999096571MD1210301+9999MW1601REMSYN088AAXX  07184 01278 11680 82702 10034 20034 39657 49757 52030 60012 76086 8182/ 333 10074;
0230012780999992000020806004+63800+011570FM-12+005299999V0202901N000510300019N0300001N1+00221+00221098091ADDAA112005191AJ100269199999999AY181061AY261061GF108991031091004501021999IA1289KA1120N+00221MA1999999097091MD1210421+9999MW1801REMSYN094AAXX  08064 01278 11480 82901 10022 20022 39709 49809 52042 60052 78086 8392/ 333 20022 44026;
0161012780999992000020809004+63800+011570FM-12+005299999V0203301N001010042019N0550001N1+00191+00191098441ADDAY181031AY251031GF107991071091004501999999MA1999999097431MD1210441+9999MW1021REMSYN072AAXX  08094 01278 41485 73302 10019 20019 39743 49844 52044 70285 879//;
0161012780999992000020812004+63800+011570FM-12+005299999V0203201N002110300019N0300001N1+00191+00191098581ADDAY181061AY251061GF106991041081002501041011MA1999999097571MD1210141+9999MW1011REMSYN072AAXX  08124 01278 41380 63204 10019 20019 39757 49858 52014 70185 84841;
0201012780999992000020818004+63800+011570FM-12+005299999V0209999C000010150019N0300001N1+00001+00001098651ADDAA112000791AY121061AY221061GF107991051001017501071021KA1999M+00251MA1999999097631MD1410001+9999MW1021REMSYN088AAXX  08184 01278 11780 70000 10000 20000 39763 49865 54000 69902 70222 85072 333 10025;
0243012780999992000020906004+63800+011570FM-12+005299999V0209999C000012200019N0550001N1-00471-00471098921ADDAA199000091AJ100269199999999AY111061AY211061GF101991001001999999001021IA1289KA1120N-00481MA1999999097881MD1210261+9999MW1021REMSYN088AAXX  09064 01278 31985 10000 11047 21047 39788 49892 52026 70211 80002 333 21048 44026;EQDQ01  00002PRCP99
0161012780999992000020909004+63800+011570FM-12+005299999V0201401N000510150019N0550001N1-00521-00521099271ADDAY111031AY211031GF107991071051017501999999MA1999999098221MD1210341+9999MW1031REMSYN072AAXX  09094 01278 41785 71401 11052 21052 39822 49927 52034 70311 875//;
0161012780999992000020912004+63800+011570FM-12+005299999V0201401N000510180019N0300001N1-00211-00211099611ADDAY111061AY211061GF107991071081017501999999MA1999999098571MD1210351+9999MW1021REMSYN072AAXX  09124 01278 41780 71401 11021 21021 39857 49961 52035 70211 878//;
0201012780999992000020918004+63800+011570FM-12+005299999V0201601N001010180019N0550001N1-00171-00201099961ADDAA112000791AY181061AY221061GF107991071081017501999999KA1999M+00031MA1999999098921MD1210151+9999MW1021REMSYN088AAXX  09184 01278 11785 71602 11017 21020 39892 49996 52015 69902 70282 878// 333 10003;
0249012780999992000021006004+63800+011570FM-12+005299999V0200901N001010750019N0550001N1+00251-00251098761ADDAA112001091AJ100309199999999AY181061AY211061GF107991041001022501071021IA1289KA1120N-00331MA1999999097751MD1710502+9999MW1021REMSYN094AAXX  10064 01278 11885 70902 10025 21025 39775 49876 57050 60012 70281 84072 333 21033 44030;EQDQ01+000502APC3  
0161012780999992000021009004+63800+011570FM-12+005299999V0201501N001010300019N0750001N1+00541-00081098361ADDAY121031AY221031GF108991011081012501071999MA1999999097371MD1710381+9999MW1021REMSYN072AAXX  10094 01278 41689 81502 10054 21008 39737 49836 57038 70222 8187/;
0161012780999992000021012004+63800+011570FM-12+005299999V0200401N000510300019N0750001N1+00591-00131097981ADDAY121061AY221061GF108991031081012501071999MA1999999096991MD1710381+9999MW1021REMSYN072AAXX  10124 01278 41689 80401 10059 21013 39699 49798 57038 70222 8387/;
0246012780999992000021018004+63800+011570FM-12+005299999V0201501N009810210019N0550001N1+00751+00011097082ADDAA199000091AY121061AY221061GF107991071001022501071999KA1999M+00781MA1999999096102MD1710201+9999MW1021REMSYN082AAXX  10184 01278 31885 71519 10075 20001 39610 49708 57020 70222 8707/ 333 10078;EQDQ01+096103APOSP Q02+097083APOSLPQ03  00002PRCP99
0230012780999992000021106004+63800+011570FM-12+005299999V0201701N002110300019N0100001N1+00091+00031098381ADDAA112000591AJ100239199999999AY181061AY221061GF108991011091004501021999IA1289KA1120N+00071MA1999999097381MD1210051+9999MW1851REMSYN094AAXX  11064 01278 11460 81704 10009 20003 39738 49838 52005 69952 78582 8192/ 333 20007 44023;
0161012780999992000021109004+63800+011570FM-12+005299999V0202301N003110042019N0100001N1+00111+00031098501ADDAY181031AY221031GF107991071091004501061999MA1999999097491MD1210111+9999MW1851REMSYN072AAXX  11094 01278 41460 72306 10011 20003 39749 49850 52011 78582 8796/;
0161012780999992000021112004+63800+011570FM-12+005299999V0202701N004610042019N0100001N1+00231+00071098801ADDAY181061AY221061GF107991071091004501999999MA1999999097791MD1210301+9999MW1851REMSYN072AAXX  11124 01278 41460 72709 10023 20007 39779 49880 52030 78582 879//;
0252012780999992000021118004+63800+011570FM-12+005299999V0203001N006210042019N0100001N1+00121+00121099752ADDAA112003091AY181061AY221061GF108991081091004501999999KA1999M+00331MA1999999098732MD1210502+9999MW1841REMSYN088AAXX  11184 01278 11460 83012 10012 20012 39873 49975 52050 60032 78482 889// 333 10033;EQDQ01+098733APOSP Q02+099753APOSLPQ03+000502APC3  
0230012780999992000021206004+63800+011570FM-12+005299999V0201001N002110750019N0550001N1+00311-00241099441ADDAA112000191AJ100239199999999AY111061AY211061GF106991011051017501001021IA1309KA1120N+00031MA1999999098431MD1710261+9999MW1021REMSYN094AAXX  12064 01278 11785 61004 10031 21024 39843 49944 57026 69922 70211 81502 333 20003 42023;
0161012780999992000021209004+63800+011570FM-12+005299999V0201501N006210300019N0550001N1+00451-00161099141ADDAY121031AY221031GF108991011011017501071999MA1999999098131MD1710301+9999MW1021REMSYN072AAXX  12094 01278 41785 81512 10045 21016 39813 49914 57030 70222 8117/;
0180012780999992000021212004+63800+011570FM-12+005299999V0201501N006210300019N0550001N1+00631-00041098751ADDAY121061AY221061GF108991041081017501071999MA1999999097761MD1710391+9999MW1021REMSYN072AAXX  12124 01278 41785 81512 10063 21004 39776 49875 57937 70222 8487/;EQDQ01+009377APC3  
0201012780999992000021218004+63800+011570FM-12+005299999V0203201N000510042019N0250001N1+00151+00151098941ADDAA112000591AY161061AY221061GF108991081001004501021999KA1999M+00751MA1999999097931MD1210301+9999MW1611REMSYN088AAXX  12184 01278 11475 83201 10015 20015 39793 49894 52030 69942 76162 8802/ 333 10075;
0230012780999992000021306004+63800+011570FM-12+005299999V0209999C000012200019N0550001N1-00221-00221098421ADDAA112000791AJ100219199999999AY161061AY211061GF101991011081017501001021IA1309KA1120N-00241MA1999999097421MD1710151+9999MW1021REMSYN094AAXX  13064 01278 11785 10000 11022 21022 39742 49842 57015 69902 70261 81802 333 21024 42021;
0161012780999992000021309004+63800+011570FM-12+005299999V0201501N001010750019N0550001N1-00351-00351098481ADDAY111031AY211031GF105991011051017501071011MA1999999097451MD1210031+9999MW1401REMSYN072AAXX  13094 01278 41785 51502 11035 21035 39745 49848 52003 74011 81571;
0161012780999992000021312004+63800+011570FM-12+005299999V0202301N002110120019N0100001N1+00041+00001098591ADDAY181061AY221061GF107991061091012501061999MA1999999097571MD1210121+9999MW1851REMSYN072AAXX  13124 01278 41660 72304 10004 20000 39757 49859 52012 78582 8696/;
0211012780999992000021318004+63800+011570FM-12+005299999V0202701N004610006019N0010001N1+00041+00041098701ADDAA112002091AY181061AY221061GA1091+999999999GF109991091999999999999999KA1999M+00161MA1999999097681MD1210081+9999MW1861REMSYN082AAXX  13184 01278 11/10 92709 10004 20004 39768 49870 52008 60022 78682 333 10016;
0234012780999992000021406004+63800+011570FM-12+005299999V0202901N004610024019N0040001N1-00051-00051999999ADDAA112007991AJ100329199999999AY181061AY221061GA1091+999999999GF109991091999999999999999IA1289KA1120N-00051MA1999999099161MD1210301+9999MW1851REMSYN082AAXX  14064 01278 11/40 92909 11005 21005 39916 52030 60082 78582 333 21005 44032;
0161012780999992000021409004+63800+011570FM-12+005299999V0203101N003110042019N0300001N1-00061-00061100361ADDAY181031AY221031GF107991071091004501061999MA1999999099321MD1210161+9999MW1151REMSYN072AAXX  14094 01278 41480 73106 11006 21006 39932 40036 52016 71582 8796/;
0161012780999992000021412004+63800+011570FM-12+005299999V0203101N003110042019N0050001N1-00081-00091100531ADDAY181061AY221061GF107991071091004501999999MA1999999099491MD1210171+9999MW1851REMSYN072AAXX  14124 01278 41450 73106 11008 21009 39949 40053 52017 78582 879//;
0201012780999992000021418004+63800+011570FM-12+005299999V0203001N001010042019N0300001N1-00131-00141100501ADDAA112002091AY181061AY221061GF107991071091004501999999KA1999M+00001MA1999999099461MD1410001+9999MW1151REMSYN088AAXX  14184 01278 11480 73002 11013 21014 39946 40050 54000 60022 71582 879// 333 10000;
0180012780999992000021500004+63800+011570FM-12+005299999V0201801N004610150019N9999999N1+00211-00651099491ADDAY121061AY221061GF108991081021017501999999MA1999999099281MD1710652+9999MW1031REMSYN072AAXX  15004 01278 4174/ 81809 10021 21065 39928 49949 57065 70322 882//;EQDQ01+000652APC3  
0259012780999992000021506004+63800+011570FM-12+005299999V0201501N001019999999N0550001N1-00301-00691099301ADDAA199000091AJ100399199999999AY111061AY211061GF108991081001999999071999IA1289KA1120N-00551MA1999999098261MD1710502+9999MW1021REMSYN088AAXX  15064 01278 31985 81502 11030 21069 39826 49930 57050 70211 8807/ 333 21055 44039;EQDQ01+000502APC3  Q02  00002PRCP99
0171012780999992000021509004+63800+011570FM-12+005299999V0201101N001010012019N0015001N1-00291-00551099151ADDAY171031AY221031GA1091+999999999GF109991091999999999999999MA1999999098121MD1610141+9999MW1711REMSYN066AAXX  15094 01278 41/15 91102 11029 21055 39812 49915 56014 77172;
0161012780999992000021512004+63800+011570FM-12+005299999V0201501N001010300019N0300001N1-00251-00281099051ADDAY171061AY221061GF108991041071008001021999MA1999999098021MD1710101+9999MW1151REMSYN072AAXX  15124 01278 41580 81502 11025 21028 39802 49905 57010 71572 8472/;
0201012780999992000021518004+63800+011570FM-12+005299999V0209999C000010300019N0300001N1+00121+00111099051ADDAA112001091AY121061AY221061GF107991011081012501071999KA1999M+00201MA1999999098031MD1210101+9999MW1021REMSYN088AAXX  15184 01278 11680 70000 10012 20011 39803 49905 52010 60012 70222 8187/ 333 10020;
0230012780999992000021606004+63800+011570FM-12+005299999V0209999C000010300019N0100001N1-00041-00041099301ADDAA112002091AJ100349199999999AY181061AY221061GF108991011091004501021999IA1249KA1120N-00061MA1999999098271MD1710021+9999MW1851REMSYN094AAXX  16064 01278 11460 80000 11004 21004 39827 49930 57002 60022 78582 8192/ 333 21006 48034;
0161012780999992000021609004+63800+011570FM-12+005299999V0209999C000010042019N0300001N1-00031-00031099361ADDAY181031AY221031GF107991071091004501999999MA1999999098331MD1210061+9999MW1021REMSYN072AAXX  16094 01278 41480 70000 11003 21003 39833 49936 52006 70282 879//;
0161012780999992000021612004+63800+011570FM-12+005299999V0209999C000010042019N0300001N1+00031+00031099451ADDAY181061AY221061GF107991061091004501071999MA1999999098431MD1210101+9999MW1021REMSYN072AAXX  16124 01278 41480 70000 10003 20003 39843 49945 52010 70282 8697/;
0201012780999992000021618004+63800+011570FM-12+005299999V0201001N000510300019N0300001N1-00201-00201099551ADDAA112000791AY121061AY221061GF106991011081017501071021KA1999M+00201MA1999999098511MD1210091+9999MW1021REMSYN088AAXX  16184 01278 11780 61001 11020 21020 39851 49955 52009 69902 70222 81872 333 10020;
0230012780999992000021706004+63800+011570FM-12+005299999V0201501N000510075019N0300001N1-00401-00401099811ADDAA112000191AJ100359199999999AY171061AY211061GF108991081001008001021999IA1249KA1120N-00531MA1999999098771MD1210061+9999MW1021REMSYN094AAXX  17064 01278 11580 81501 11040 21040 39877 49981 52006 69922 70271 8802/ 333 21053 48035;
0161012780999992000021709004+63800+011570FM-12+005299999V0209999C000010120019N0300001N1-00451-00451099901ADDAY121031AY221031GF106991051081008001061021MA1999999098851MD1210081+9999MW1021REMSYN072AAXX  17094 01278 41580 60000 11045 21045 39885 49990 52008 70222 85862;
0161012780999992000021712004+63800+011570FM-12+005299999V0209999C000010042019N0300001N1-00151-00161099911ADDAY181061AY221061GF107991071091004501999999MA1999999098871MD1210021+9999MW1021REMSYN072AAXX  17124 01278 41480 70000 11015 21016 39887 49991 52002 70282 879//;
0211012780999992000021718004+63800+011570FM-12+005299999V0209999C000010024019N0030001N1-00121-00121100071ADDAA112000391AY181061AY221061GA1091+999999999GF109991091999999999999999KA1999M+00001MA1999999099031MD1210141+9999MW1851REMSYN082AAXX  17184 01278 11/30 90000 11012 21012 39903 40007 52014 69932 78582 333 10000;
0240012780999992000021806004+63800+011570FM-12+005299999V0201501N000510006019N0008001N1-00341-00341100181ADDAA112000591AJ100389199999999AY181061AY271061GA1091+999999999GF109991091999999999999999IA1249KA1120N-00351MA1999999099131MD1710071+9999MW1731REMSYN088AAXX  18064 01278 11/08 91501 11034 21034 39913 40018 57007 69962 77387 333 21035 48038;
0171012780999992000021809004+63800+011570FM-12+005299999V0209999C000010012019N0012001N1-00321-00321100231ADDAY171031AY271031GA1091+999999999GF109991091999999999999999MA1999999099181MD1210051+9999MW1731REMSYN066AAXX  18094 01278 41/12 90000 11032 21032 39918 40023 52005 77377;
0161012780999992000021812004+63800+011570FM-12+005299999V0201501N000510021019N0100001N1-00151-00151100311ADDAY171061AY221061GF107991071071002501999999MA1999999099271MD1210081+9999MW1021REMSYN072AAXX  18124 01278 41360 71501 11015 21015 39927 40031 52008 70272 877//;
0201012780999992000021818004+63800+011570FM-12+005299999V0201001N000510750019N0100001N1-00261-00261100351ADDAA112003091AY121061AY221061GF105991021081012501061021KA1999M-00031MA1999999099311MD1210021+9999MW1411REMSYN088AAXX  18184 01278 11660 51001 11026 21026 39931 40035 52002 60032 74122 82862 333 11003;
0161012780999992000021909004+63800+011570FM-12+005299999V0203001N001010075019N0300001N1-00211-00281100701ADDAY181031AY221031GF107991071091008001999999MA1999999099651MD1210121+9999MW1021REMSYN072AAXX  19094 01278 41580 73002 11021 21028 39965 40070 52012 70282 879//;
0161012780999992000021912004+63800+011570FM-12+005299999V0203001N001010042019N0048001N1-00091-00091100851ADDAY181061AY221061GF108991081091004501999999MA1999999099811MD1210161+9999MW1851REMSYN072AAXX  19124 01278 41448 83002 11009 21009 39981 40085 52016 78582 889//;
0211012780999992000021918004+63800+011570FM-12+005299999V0203001N002110012019N0020001N1+00011+00001101131ADDAA112002091AY181061AY221061GA1091+999999999GF109991091999999999999999KA1999M+00121MA1999999100091MD1210201+9999MW1851REMSYN082AAXX  19184 01278 11/20 93004 10001 20000 30009 40113 52020 60022 78582 333 10012;
0183012780999992000022006004+63800+011570FM-12+005299999V0202701N002110042019N0650001N1-00201-00281999999ADDAA112003091AJ100529199999999AY171061AY221061GF107991061071004501051999IA1289KA1120N-00351MW1011REMSYN076AAXX  20064 01278 11487 72704 11020 21028 60032 70172 8675/ 333 21035 44052;
0161012780999992000022009004+63800+011570FM-12+005299999V0202301N002110150019N0300001N1-00071-00131101911ADDAY181031AY221031GF105991051091017501999999MA1999999100861MD1210241+9999MW1851REMSYN072AAXX  20094 01278 41780 52304 11007 21013 30086 40191 52024 78582 859//;
0171012780999992000022012004+63800+011570FM-12+005299999V0203201N000510006019N0010001N1-00011-00011102181ADDAY181061AY221061GA1091+999999999GF109991091999999999999999MA1999999101121MD1210261+9999MW1851REMSYN066AAXX  20124 01278 41/10 93201 11001 21001 30112 40218 52026 78582;
0201012780999992000022018004+63800+011570FM-12+005299999V0203001N001010042019N0300001N1-00111-00111102471ADDAA112001091AY181061AY221061GF107991071091004501999999KA1999M+00111MA1999999101411MD1210121+9999MW1851REMSYN088AAXX  20184 01278 11480 73002 11011 21011 30141 40247 52012 60012 78582 879// 333 10011;
0230012780999992000022106004+63800+011570FM-12+005299999V0209999C000010180019N0300001N1-00341-00341102441ADDAA112000191AJ100479199999999AY181061AY221061GF107991071081017501999999IA1249KA1120N-00531MA1999999101371MD1710111+9999MW1021REMSYN094AAXX  21064 01278 11780 70000 11034 21034 30137 40244 57011 69912 70282 878// 333 21053 48047;
0161012780999992000022109004+63800+011570FM-12+005299999V0201001N001010150019N0750001N1-00431-00431102411ADDAY121031AY221031GF106991061051017501999999MA1999999101341MD1710031+9999MW1021REMSYN072AAXX  21094 01278 41789 61002 11043 21043 30134 40241 57003 70222 865//;
0214012780999992000022118004+63800+011570FM-12+005299999V0201101N000512200019N0550001N1-00591-00591102101ADDAA199000091AY101061AY201061GF101991001001999999001021KA1999M+00011MA1999999101021MD1710101+9999MW1021REMSYN082AAXX  21184 01278 31985 11101 11059 21059 30102 40210 57010 70200 80002 333 10001;EQDQ01  00002PRCP99
0243012780999992000022206004+63800+011570FM-12+005299999V0201501N002110042019N0200001N1-00341-00831101741ADDAA199000091AJ100469199999999AY111061AY211061GF108991081001004501021999IA1249KA1120N-00721MA1999999100681MD1710051+9999MW1151REMSYN088AAXX  22064 01278 31470 81504 11034 21083 30068 40174 57005 71511 8802/ 333 21072 48046;EQDQ01  00002PRCP99
0171012780999992000022209004+63800+011570FM-12+005299999V0201401N001010024019N0050001N1-00401-00411101801ADDAY171031AY221031GA1091+999999999GF109991091999999999999999MA1999999100741MD1210061+9999MW1711REMSYN066AAXX  22094 01278 41/50 91402 11040 21041 30074 40180 52006 77172;
0171012780999992000022212004+63800+011570FM-12+005299999V0201501N001010024019N0040001N1-00371-00401101881ADDAY171061AY221061GA1091+999999999GF109991091999999999999999MA1999999100821MD1210081+9999MW1701REMSYN066AAXX  22124 01278 41/40 91502 11037 21040 30082 40188 52008 77072;
0201012780999992000022218004+63800+011570FM-12+005299999V0201501N002110120019N0250001N1-00371-00381102061ADDAA112000591AY171061AY221061GF107991071081008001999999KA1999M-00281MA1999999101001MD1210091+9999MW1021REMSYN088AAXX  22184 01278 11575 71504 11037 21038 30100 40206 52009 69962 70272 878// 333 11028;
0240012780999992000022306004+63800+011570FM-12+005299999V0201501N001012200019N0550001N1-00601-00601102091ADDAA112000591AJ100459199999999AY181061AY211061GA1001+999999999GF100991001001999999001001IA1249KA1120N-00631MA1999999101011MD1710081+9999MW1021REMSYN088AAXX  23064 01278 11985 01502 11060 21060 30101 40209 57008 69952 70281 333 21063 48045;
0161012780999992000022309004+63800+011570FM-12+005299999V0201201N002112200019N0550001N1-00561-00571102031ADDAY101031AY201031GF101991001001999999001021MA1999999100961MD1710051+9999MW1021REMSYN072AAXX  23094 01278 41985 11204 11056 21057 30096 40203 57005 70200 80002;
0161012780999992000022312004+63800+011570FM-12+005299999V0201501N001012200019N0550001N1+00031-00521101841ADDAY101061AY201061GF103991001001999999001021MA1999999100791MD1710171+9999MW1021REMSYN072AAXX  23124 01278 41985 31502 10003 21052 30079 40184 57017 70200 80002;
0214012780999992000022318004+63800+011570FM-12+005299999V0201501N002119999999N0750001N1+00111-00481101271ADDAA199000091AY111061AY211061GF107991001001999999001021KA1999M+00251MA1999999100231MD1710251+9999MW1031REMSYN082AAXX  23184 01278 31989 71504 10011 21048 30023 40127 57025 70311 80002 333 10025;EQDQ01  00002PRCP99
0230012780999992000022406004+63800+011570FM-12+005299999V0201501N002110150019N0550001N1+00171-00311100041ADDAA112001091AJ100389199999999AY171061AY221061GF107991071001017501071999IA1289KA1120N-00151MA1999999099011MD1710271+9999MW1021REMSYN094AAXX  24064 01278 11785 71504 10017 21031 39901 40004 57027 60012 70272 8707/ 333 21015 44038;
0161012780999992000022409004+63800+011570FM-12+005299999V0201501N003110300019N0550001N1+00161-00341099951ADDAY121031AY221031GF107991011081012501071999MA1999999098931MD1710081+9999MW1021REMSYN072AAXX  24094 01278 41685 71506 10016 21034 39893 49995 57008 70222 8187/;
0161012780999992000022412004+63800+011570FM-12+005299999V0201501N002110300019N0550001N1+00211-00341099861ADDAY121061AY221061GF108991011081017501071999MA1999999098841MD1710091+9999MW1021REMSYN072AAXX  24124 01278 41785 81504 10021 21034 39884 49986 57009 70222 8187/;
0214012780999992000022418004+63800+011570FM-12+005299999V0201401N002112200019N0300001N1-00041-00311099751ADDAA199000091AY111061AY211061GF102991011081017501001021KA1999M+00311MA1999999098721MD1710051+9999MW1011REMSYN082AAXX  24184 01278 31780 21404 11004 21031 39872 49975 57005 70111 81802 333 10031;EQDQ01  00002PRCP99
0230012780999992000022506004+63800+011570FM-12+005299999V0201401N002112200019N0300001N1-00421-00431099881ADDAA112000191AJ100389199999999AY171061AY211061GF102991011051017501001021IA1249KA1120N-00441MA1999999098831MD1710221+9999MW1021REMSYN094AAXX  25064 01278 11780 21404 11042 21043 39883 49988 57022 69912 70271 81502 333 21044 48038;
0161012780999992000022509004+63800+011570FM-12+005299999V0201501N002110750019N0300001N1-00351-00461099961ADDAY111031AY211031GF106991011081017501001021MA1999999098921MD1710091+9999MW1031REMSYN072AAXX  25094 01278 41780 61504 11035 21046 39892 49996 57009 70311 81802;
0161012780999992000022512004+63800+011570FM-12+005299999V0201001N001010300019N0550001N1-00101-00471100041ADDAY111061AY211061GF107991041051017501071999MA1999999099001MD1210081+9999MW1021REMSYN072AAXX  25124 01278 41785 71002 11010 21047 39900 40004 52008 70211 8457/;
0211012780999992000022518004+63800+011570FM-12+005299999V0201501N001010024019N0030001N1-00201-00201100321ADDAA112002091AY171061AY221061GA1091+999999999GF109991091999999999999999KA1999M-00051MA1999999099281MD1210151+9999MW1711REMSYN082AAXX  25184 01278 11/30 91502 11020 21020 39928 40032 52015 60022 77172 333 11005;
0230012780999992000022606004+63800+011570FM-12+005299999V0209999C000010150019N0300001N1+00101+00101100851ADDAA112002091AJ100389199999999AY181061AY221061GF107991071091017501999999IA1289KA1120N-00211MA1999999099821MD1210021+9999MW1021REMSYN094AAXX  26064 01278 11780 70000 10010 20010 39982 40085 52002 60022 70282 879// 333 21021 44038;
0161012780999992000022609004+63800+011570FM-12+005299999V0200901N001010150019N0300001N1+00201+00191100871ADDAY121031AY221031GF108991081001017501021999MA1999999099841MD1210021+9999MW1151REMSYN072AAXX  26094 01278 41780 80902 10020 20019 39984 40087 52002 71522 8802/;
0161012780999992000022612004+63800+011570FM-12+005299999V0209999C000010150019N0100001N1+00271+00141100901ADDAY161061AY221061GF108991081001017501021999MA1999999099871MD1010031+9999MW1611REMSYN072AAXX  26124 01278 41760 80000 10027 20014 39987 40090 50003 76162 8802/;
0201012780999992000022618004+63800+011570FM-12+005299999V0203301N001010150019N0300001N1+00381+00371100921ADDAA112003091AY171061AY261061GF107991071091017501999999KA1999M+00411MA1999999099891MD1410001+9999MW1021REMSYN088AAXX  26184 01278 11780 73302 10038 20037 39989 40092 54000 60032 70276 879// 333 10041;
0243012780999992000022706004+63800+011570FM-12+005299999V0201201N002112200019N0550001N1+00501-00161100131ADDAA199000091AJ100349199999999AY111061AY211061GF104991001001999999001051IA1289KA1120N+00141MA1999999099121MD1710401+9999MW1021REMSYN088AAXX  27064 01278 31985 41204 10050 21016 39912 40013 57040 70211 80005 333 20014 44034;EQDQ01  00002PRCP99
0161012780999992000022709004+63800+011570FM-12+005299999V0201501N002110300019N0750001N1+00441-00241099791ADDAY121031AY221031GF108991011011017501071999MA1999999098781MD1710341+9999MW1031REMSYN072AAXX  27094 01278 41789 81504 10044 21024 39878 49979 57034 70322 8117/;
0161012780999992000022712004+63800+011570FM-12+005299999V0201501N003110300019N0750001N1+00431+00041099391ADDAY161061AY221061GF108991021081012501071999MA1999999098381MD1710401+9999MW1021REMSYN072AAXX  27124 01278 41689 81506 10043 20004 39838 49939 57040 70262 8287/;
0201012780999992000022718004+63800+011570FM-12+005299999V0201501N002110150019N0550001N1+00561+00041098611ADDAA112000191AY161061AY221061GF108991081001017501021999KA1999M+00691MA1999999097611MD1710351+9999MW1021REMSYN088AAXX  27184 01278 11785 81504 10056 20004 39761 49861 57035 69912 70262 8802/ 333 10069;
0230012780999992000022806004+63800+011570FM-12+005299999V0201301N000510300019N0550001N1-00091-00091098701ADDAA112000591AJ100299199999999AY181061AY221061GF108991021051017501071999IA1309KA1120N-00131MA1999999097681MD1610081+9999MW1021REMSYN094AAXX  28064 01278 11785 81301 11009 21009 39768 49870 56008 69962 70282 8257/ 333 21013 42029;
0161012780999992000022809004+63800+011570FM-12+005299999V0201501N002110300019N0550001N1-00081-00081098541ADDAY121031AY221031GF107991011011012501021999MA1999999097521MD1710161+9999MW1021REMSYN072AAXX  28094 01278 41685 71504 11008 21008 39752 49854 57016 70222 8112/;
0161012780999992000022812004+63800+011570FM-12+005299999V0201001N001010750019N0550001N1+00241-00031098431ADDAY121061AY221061GF105991011011012501071021MA1999999097431MD1710091+9999MW1021REMSYN072AAXX  28124 01278 41685 51002 10024 21003 39743 49843 57009 70222 81172;
0214012780999992000022818004+63800+011570FM-12+005299999V0201001N002110300019N0550001N1+00231-00301098141ADDAA199000091AY121061AY221061GF108991011011012501071999KA1999M+00501MA1999999097141MD1710091+9999MW1021REMSYN082AAXX  28184 01278 31685 81004 10023 21030 39714 49814 57009 70222 8117/ 333 10050;EQDQ01  00002PRCP99
0243012780999992000022906004+63800+011570FM-12+005299999V0201501N002110300019N0550001N1+00381-00341098011ADDAA199000091AJ100309199999999AY121061AY221061GF107991011011012501071999IA1309KA1120N-00111MA1999999097011MD1610021+9999MW1021REMSYN088AAXX  29064 01278 31685 71504 10038 21034 39701 49801 56002 70222 8117/ 333 21011 42030;EQDQ01  00002PRCP99
0161012780999992000022909004+63800+011570FM-12+005299999V0201501N003110180019N0750001N1+00481-00301098041ADDAY121031AY221031GF107991071081017501999999MA1999999097041MD1210031+9999MW1021REMSYN072AAXX  29094 01278 41789 71506 10048 21030 39704 49804 52003 70222 878//;
0161012780999992000022912004+63800+011570FM-12+005299999V0202701N003110300019N0750001N1+00641-00301098131ADDAY121061AY221061GF108991041071017501071999MA1999999097141MD1210101+9999MW1021REMSYN072AAXX  29124 01278 41789 82706 10064 21030 39714 49813 52010 70222 8477/;
0214012780999992000022918004+63800+011570FM-12+005299999V0201501N006210300019N0550001N1+00591-00411098041ADDAA199000091AY121061AY221061GF107991021081017501071999KA1999M+00651MA1999999097051MD1610061+9999MW1021REMSYN082AAXX  29184 01278 31785 71512 10059 21041 39705 49804 56006 70222 8287/ 333 10065;EQDQ01  00002PRCP99
0243012780999992000030106004+63800+011570FM-12+005299999V0201301N002110300019N0550001N1-00021-00191097811ADDAA199000091AJ100289199999999AY121061AY221061GF107991011051017501071021IA1309KA1120N-00021MA1999999096801MD1710061+9999MW1021REMSYN088AAXX  01064 01278 31785 71304 11002 21019 39680 49781 57006 70222 81572 333 21002 42028;EQDQ01  00002PRCP99
0161012780999992000030109004+63800+011570FM-12+005299999V0201501N001010300019N0550001N1-00011-00201097861ADDAY121031AY221031GF107991031051017501071021MA1999999096851MD1210051+9999MW1021REMSYN072AAXX  01094 01278 41785 71502 11001 21020 39685 49786 52005 70222 83572;
0161012780999992000030112004+63800+011570FM-12+005299999V0201201N000510150019N0550001N1+00221-00091097891ADDAY121061AY221061GF107991051051017501071999MA1999999096891MD1210041+9999MW1021REMSYN072AAXX  01124 01278 41785 71201 10022 21009 39689 49789 52004 70222 8557/;
0211012780999992000030118004+63800+011570FM-12+005299999V0202801N003110006019N0010001N1-00011-00011098291ADDAA112002091AY171061AY221061GA1091+999999999GF109991091999999999999999KA1999M+00311MA1999999097271MD1210301+9999MW1731REMSYN082AAXX  01184 01278 11/10 92806 11001 21001 39727 49829 52030 60022 77372 333 10031;
0230012780999992000030206004+63800+011570FM-12+005299999V0209999C000010075019N0300001N1-00451-00521099291ADDAA112000191AJ100309199999999AY181061AY271061GF106991061091008001999999IA1289KA1120N-00531MA1999999098251MD1210151+9999MW1021REMSYN094AAXX  02064 01278 11580 60000 11045 21052 39825 49929 52015 69912 70287 869// 333 21053 44030;
0171012780999992000030209004+63800+011570FM-12+005299999V0209999C000010024019N0030001N1-00301-00301099371ADDAY181031AY221031GA1091+999999999GF109991091999999999999999MA1999999098331MD1210081+9999MW1851REMSYN066AAXX  02094 01278 41/30 90000 11030 21030 39833 49937 52008 78582;
0161012780999992000030212004+63800+011570FM-12+005299999V0202801N002110075019N0200001N1-00051-00081099441ADDAY181061AY221061GF107991071091008001999999MA1999999098411MD1210081+9999MW1851REMSYN072AAXX  02124 01278 41570 72804 11005 21008 39841 49944 52008 78582 879//;
0201012780999992000030218004+63800+011570FM-12+005299999V0203201N001010042019N0300001N1-00241-00251099421ADDAA112003091AY181061AY221061GF106991061091004501999999KA1999M-00021MA1999999098391MD1710021+9999MW1851REMSYN088AAXX  02184 01278 11480 63202 11024 21025 39839 49942 57002 60032 78582 869// 333 11002;
0230012780999992000030306004+63800+011570FM-12+005299999V0201401N003110120019N0300001N1-00421-00761098201ADDAA112000791AJ100339199999999AY171061AY221061GF108991081001012501021999IA1289KA1120N-00791MA1999999097171MD1710201+9999MW1701REMSYN094AAXX  03064 01278 11680 81406 11042 21076 39717 49820 57020 69902 77072 8802/ 333 21079 44033;
0161012780999992000030309004+63800+011570FM-12+005299999V0201101N004610150019N0300001N1-00421-00781098131ADDAY171031AY221031GF108991081001017501021999MA1999999097101MD1710071+9999MW1021REMSYN072AAXX  03094 01278 41780 81109 11042 21078 39710 49813 57007 70272 8802/;
0161012780999992000030312004+63800+011570FM-12+005299999V0200701N001010150019N0300001N1-00261-01021098211ADDAY171061AY221061GF108991081001017501021999MA1999999097191MD1210091+9999MW1151REMSYN072AAXX  03124 01278 41780 80702 11026 21102 39719 49821 52009 71572 8802/;
0201012780999992000030318004+63800+011570FM-12+005299999V0203501N000510150019N0550001N1-00481-01421098711ADDAA112000791AY121061AY221061GF107991071001017501021999KA1999M-00221MA1999999097671MD1210211+9999MW1021REMSYN088AAXX  03184 01278 11785 73501 11048 21142 39767 49871 52021 69902 70222 8702/ 333 11022;
0240012780999992000030406004+63800+011570FM-12+005299999V0201501N000510024019N0040001N1-00981-00991099051ADDAA112000191AJ100339199999999AY181061AY221061GA1091+999999999GF109991091999999999999999IA1289KA1120N-01261MA1999999097991MD1210041+9999MW1851REMSYN088AAXX  04064 01278 11/40 91501 11098 21099 39799 49905 52004 69922 78582 333 21126 44033;
0171012780999992000030409004+63800+011570FM-12+005299999V0202901N003110012019N0015001N1-00341-00341099111ADDAY181031AY221031GA1091+999999999GF109991091999999999999999MA1999999098071MD1210081+9999MW1851REMSYN066AAXX  04094 01278 41/15 92906 11034 21034 39807 49911 52008 78582;
0171012780999992000030412004+63800+011570FM-12+005299999V0202901N003110012019N0015001N1-00271-00271099181ADDAY181061AY221061GA1091+999999999GF109991091999999999999999MA1999999098151MD1210081+9999MW1851REMSYN066AAXX  04124 01278 41/15 92906 11027 21027 39815 49918 52008 78582;
0201012780999992000030418004+63800+011570FM-12+005299999V0202801N002110003019N0100001N1-00271-00271099681ADDAA112003091AY181061AY221061GF107991071091000251999999KA1999M-00121MA1999999098641MD1210381+9999MW1021REMSYN088AAXX  04184 01278 11060 72804 11027 21027 39864 49968 52038 60032 70282 879// 333 11012;
0230012780999992000030506004+63800+011570FM-12+005299999V0201401N001012200019N0300001N1-01281-01291101141ADDAA112000391AJ100409199999999AY181061AY211061GF101991001001999999001021IA1249KA1120N-01281MA1999999100041MD1210421+9999MW1021REMSYN094AAXX  05064 01278 11980 11402 11128 21129 30004 40114 52042 69932 70281 80002 333 21128 48040;
0161012780999992000030509004+63800+011570FM-12+005299999V0201501N002112200019N0550001N1-01401-01431101371ADDAY101031AY201031GF103991001001999999001011MA1999999100271MD1210231+9999MW1021REMSYN072AAXX  05094 01278 41985 31504 11140 21143 30027 40137 52023 70200 80001;
0161012780999992000030512004+63800+011570FM-12+005299999V0201501N002112200019N0250001N1-00761-01031101471ADDAY101061AY201061GF103991011081012501031021MA1999999100391MD1210121+9999MW1031REMSYN072AAXX  05124 01278 41675 31504 11076 21103 30039 40147 52012 70300 81832;
0214012780999992000030518004+63800+011570FM-12+005299999V0201001N002110300019N0300001N1-00431-01081101071ADDAA199000091AY111061AY211061GF108991011011017501021999KA1999M-00341MA1999999100011MD1710281+9999MW1021REMSYN082AAXX  05184 01278 31780 81004 11043 21108 30001 40107 57028 70211 8112/ 333 11034;EQDQ01  00002PRCP99
0240012780999992000030606004+63800+011570FM-12+005299999V0201001N002110024019N0040001N1-00291-00291098431ADDAA112003091AJ100389199999999AY171061AY221061GA1091+999999999GF109991091999999999999999IA1249KA1120N-00481MA1999999097411MD1710451+9999MW1711REMSYN088AAXX  06064 01278 11/40 91004 11029 21029 39741 49843 57045 60032 77172 333 21048 48038;
0171012780999992000030609004+63800+011570FM-12+005299999V0202701N003110024019N0035001N1+00291+00281098171ADDAY181031AY221031GA1091+999999999GF109991091999999999999999MA1999999097171MD1610241+9999MW1831REMSYN066AAXX  06094 01278 41/35 92706 10029 20028 39717 49817 56024 78382;
0161012780999992000030612004+63800+011570FM-12+005299999V0202901N003110042019N0080001N1+00041+00041098151ADDAY181061AY221061GF108991081091004501999999MA1999999097141MD1710031+9999MW1851REMSYN072AAXX  06124 01278 41458 82906 10004 20004 39714 49815 57003 78582 889//;
0211012780999992000030618004+63800+011570FM-12+005299999V0202701N003110024019N0030001N1+00041-00021097751ADDAA112003091AY181061AY221061GA1091+999999999GF109991091999999999999999KA1999M+00301MA1999999096741MD1710301+9999MW1851REMSYN082AAXX  06184 01278 11/30 92706 10004 21002 39674 49775 57030 60032 78582 333 10030;
0259012780999992000030706004+63800+011570FM-12+005299999V0203001N003110006019N0008001N1+00021+00021098431ADDAA112007191AJ100389199999999AY181061AY221061GA1091+999999999GF109991091999999999999999IA1289KA1120N-00121MA1999999097421MD1210802+9999MW1861REMSYN088AAXX  07064 01278 11/08 93006 10002 20002 39742 49843 52080 60072 78682 333 21012 44038;EQDQ01+000802APC3  
0161012780999992000030709004+63800+011570FM-12+005299999V0202901N003110042019N0200001N1+00051+00051099011ADDAY181031AY221031GF107991071091004501999999MA1999999097991MD1210571+9999MW1021REMSYN072AAXX  07094 01278 41470 72906 10005 20005 39799 49901 52057 70282 879//;
0161012780999992000030712004+63800+011570FM-12+005299999V0202701N002110012019N0200001N1+00051+00051099291ADDAY181061AY221061GF108991081091001501999999MA1999999098271MD1210281+9999MW1831REMSYN072AAXX  07124 01278 41270 82704 10005 20005 39827 49929 52028 78382 889//;
0201012780999992000030718004+63800+011570FM-12+005299999V0202901N002110012019N0035001N1-00081-00081099901ADDAA112001091AY181061AY221061GF107991071091001501999999KA1999M+00141MA1999999098871MD1210281+9999MW1851REMSYN088AAXX  07184 01278 11235 72904 11008 21008 39887 49990 52028 60012 78582 879// 333 10014;
0230012780999992000030806004+63800+011570FM-12+005299999V0202901N000510042019N0300001N1-00281-00281099961ADDAA112001091AJ100399199999999AY181061AY221061GF107991071091004501999999IA1289KA1120N-00281MA1999999098921MD1710111+9999MW1021REMSYN094AAXX  08064 01278 11480 72901 11028 21028 39892 49996 57011 60012 70282 879// 333 21028 44039;
0161012780999992000030809004+63800+011570FM-12+005299999V0201501N001010300019N0300001N1-00291-00291099861ADDAY121031AY221031GF107991041081004501071011MA1999999098821MD1710101+9999MW1021REMSYN072AAXX  08094 01278 41480 71502 11029 21029 39882 49986 57010 70222 84871;
0161012780999992000030812004+63800+011570FM-12+005299999V0201501N002110300019N0300001N1-00121-00341099721ADDAY121061AY221061GF107991011081008001011021MA1999999098681MD1710141+9999MW1021REMSYN072AAXX  08124 01278 41580 71504 11012 21034 39868 49972 57014 70222 81812;
0214012780999992000030818004+63800+011570FM-12+005299999V0200201N000512200019N0300001N1-00371-00441099501ADDAA199000091AY111061AY211061GF103991011081008001001021KA1999M+00001MA1999999098461MD1410001+9999MW1011REMSYN082AAXX  08184 01278 31580 30201 11037 21044 39846 49950 54000 70111 81802 333 10000;EQDQ01  00002PRCP99
0230012780999992000030906004+63800+011570FM-12+005299999V0201501N000510090019N0300001N1-00831-00831100201ADDAA112001091AJ100409199999999AY181061AY211061GF106991061081004501999999IA1249KA1120N-01161MA1999999099131MD1210301+9999MW1021REMSYN094AAXX  09064 01278 11480 61501 11083 21083 39913 40020 52030 60012 70281 868// 333 21116 48040;
0171012780999992000030909004+63800+011570FM-12+005299999V0203001N002110006019N0010001N1-00461-00461100391ADDAY181031AY221031GA1091+999999999GF109991091999999999999999MA1999999099341MD1210211+9999MW1861REMSYN066AAXX  09094 01278 41/10 93004 11046 21046 39934 40039 52021 78682;
0161012780999992000030912004+63800+011570FM-12+005299999V0203001N003110075019N0200001N1-00011-00281100581ADDAY181061AY221061GF107991071091008001999999MA1999999099541MD1210201+9999MW1851REMSYN072AAXX  09124 01278 41570 73006 11001 21028 39954 40058 52020 78582 879//;
0201012780999992000030918004+63800+011570FM-12+005299999V0203001N003110300019N0270001N1-00151-00421100991ADDAA112000891AY181061AY221061GF105991041091008001061021KA1999M+00051MA1999999099941MD1210201+9999MW1721REMSYN088AAXX  09184 01278 11577 53006 11015 21042 39994 40099 52020 69972 77282 84962 333 10005;
0240012780999992000031006004+63800+011570FM-12+005299999V0202901N003110003019N0002001N1-00111-00111101631ADDAA112005191AJ100509199999999AY181061AY221061GA1091+999999999GF109991091999999999999999IA1249KA1120N-00221MA1999999100571MD1210151+9999MW1861REMSYN088AAXX  10064 01278 11/02 92906 11011 21011 30057 40163 52015 60052 78682 333 21022 48050;
0171012780999992000031009004+63800+011570FM-12+005299999V0203001N002110006019N0010001N1-00081-00081101771ADDAY181031AY221031GA1091+999999999GF109991091999999999999999MA1999999100721MD1210151+9999MW1851REMSYN066AAXX  10094 01278 41/10 93004 11008 21008 30072 40177 52015 78582;
0161012780999992000031012004+63800+011570FM-12+005299999V0202901N002110042019N0250001N1-00061-00061101751ADDAY181061AY221061GF107991061091004501061999MA1999999100701MD1710021+9999MW1021REMSYN072AAXX  10124 01278 41475 72904 11006 21006 30070 40175 57002 70282 8696/;
0201012780999992000031018004+63800+011570FM-12+005299999V0201001N001010300019N0250001N1-00171-00171101411ADDAA112001091AY121061AY221061GF106991011081012501021021KA1999M+00041MA1999999100361MD1710201+9999MW1021REMSYN088AAXX  10184 01278 11675 61002 11017 21017 30036 40141 57020 60012 70222 81822 333 10004;
0243012780999992000031106004+63800+011570FM-12+005299999V0201201N002112200019N0300001N1-00661-00661101011ADDAA199000091AJ100549199999999AY111061AY211061GF102991011081008001031001IA1249KA1120N-00761MA1999999099941MD1310021+9999MW1021REMSYN088AAXX  11064 01278 31580 21204 11066 21066 39994 40101 53002 70211 81830 333 21076 48054;EQDQ01  00002PRCP99
0161012780999992000031109004+63800+011570FM-12+005299999V0201501N002112200019N0300001N1-00391-00651101191ADDAY101031AY201031GF101991011061008001001001MA1999999100131MD1210191+9999MW1021REMSYN072AAXX  11094 01278 41580 11504 11039 21065 30013 40119 52019 70200 81600;
0161012780999992000031112004+63800+011570FM-12+005299999V0201501N001012200019N0300001N1-00151-00611101321ADDAY101061AY201061GF103991001001999999001011MA1999999100271MD1210141+9999MW1021REMSYN072AAXX  11124 01278 41980 31502 11015 21061 30027 40132 52014 70200 80001;
0214012780999992000031118004+63800+011570FM-12+005299999V0209999C000012200019N0300001N1-00511-00631101661ADDAA199000091AY111061AY211061GF102991001001999999001081KA1999M-00101MA1999999100591MD1210131+9999MW1021REMSYN082AAXX  11184 01278 31980 20000 11051 21063 30059 40166 52013 70211 80008 333 11010;EQDQ01  00002PRCP99
0243012780999992000031206004+63800+011570FM-12+005299999V0201401N002110300019N0300001N1-00851-00871101721ADDAA199000091AJ100539199999999AY121061AY221061GF107991011051012501071081IA1249KA1120N-01101MA1999999100631MD1710011+9999MW1021REMSYN088AAXX  12064 01278 31680 71404 11085 21087 30063 40172 57001 70222 81578 333 21110 48053;EQDQ01  00002PRCP99
0161012780999992000031209004+63800+011570FM-12+005299999V0201401N002110300019N0550001N1-00691-00931101611ADDAY121031AY221031GF108991011011012501071999MA1999999100531MD1710101+9999MW1021REMSYN072AAXX  12094 01278 41685 81404 11069 21093 30053 40161 57010 70222 8117/;
0161012780999992000031212004+63800+011570FM-12+005299999V0201501N001010210019N0300001N1-00231-00631101471ADDAY121061AY221061GF108991081001022501071999MA1999999100411MD1710121+9999MW1021REMSYN072AAXX  12124 01278 41880 81502 11023 21063 30041 40147 57012 70222 8807/;
0201012780999992000031218004+63800+011570FM-12+005299999V0201501N002110300019N0200001N1-00151-00151101021ADDAA112000591AY171061AY221061GF108991011081012501071999KA1999M-00101MA1999999099971MD1710211+9999MW1151REMSYN088AAXX  12184 01278 11670 81504 11015 21015 39997 40102 57021 69962 71572 8187/ 333 11010;
0230012780999992000031306004+63800+011570FM-12+005299999V0202901N002110300019N0130001N1+00241+00241100101ADDAA112002091AJ100499199999999AY171061AY261061GF108991021071008001021999IA1249KA1120N-00241MA1999999099071MD1710201+9999MW1611REMSYN094AAXX  13064 01278 11563 82904 10024 20024 39907 40010 57020 60022 76176 8272/ 333 21024 48049;
0161012780999992000031309004+63800+011570FM-12+005299999V0202801N002110300019N0100001N1+00401+00391099861ADDAY161031AY221031GF108991031071008001021999MA1999999098841MD1710231+9999MW1611REMSYN072AAXX  13094 01278 41560 82804 10040 20039 39884 49986 57023 76162 8372/;
0161012780999992000031312004+63800+011570FM-12+005299999V0202901N004610042019N0100001N1+00291+00281100121ADDAY161061AY221061GF108991061091004501071999MA1999999099091MD1110251+9999MW1801REMSYN072AAXX  13124 01278 41460 82909 10029 20028 39909 40012 51025 78062 8697/;
0211012780999992000031318004+63800+011570FM-12+005299999V0203301N002110006019N0010001N1+00061+00061099911ADDAA112003091AY181061AY221061GA1091+999999999GF109991091999999999999999KA1999M+00441MA1999999098881MD1710131+9999MW1861REMSYN082AAXX  13184 01278 11/10 93304 10006 20006 39888 49991 57013 60032 78682 333 10044;
0240012780999992000031406004+63800+011570FM-12+005299999V0202701N002110024019N0035001N1-00101-00111099261ADDAA112004191AJ100459199999999AY181061AY221061GA1091+999999999GF109991091999999999999999IA1289KA1120N-00121MA1999999098231MD1010001+9999MW1861REMSYN088AAXX  14064 01278 11/35 92704 11010 21011 39823 49926 50000 60042 78682 333 21012 44045;
0161012780999992000031409004+63800+011570FM-12+005299999V0202701N002110300019N0100001N1-00041-00111099121ADDAY181031AY221031GF108991011091008001021999MA1999999098091MD1610141+9999MW1851REMSYN072AAXX  14094 01278 41560 82704 11004 21011 39809 49912 56014 78582 8192/;
0161012780999992000031412004+63800+011570FM-12+005299999V0202901N002110300019N0300001N1+00021-00271099141ADDAY181061AY221061GF107991021091008001021021MA1999999098111MD1210021+9999MW1021REMSYN072AAXX  14124 01278 41580 72904 10002 21027 39811 49914 52002 70282 82922;
0201012780999992000031418004+63800+011570FM-12+005299999V0203301N001010042019N0300001N1-00241-00251099601ADDAA112001091AY181061AY221061GF106991051091004501061021KA1999M+00131MA1999999098561MD1210301+9999MW1021REMSYN088AAXX  14184 01278 11480 63302 11024 21025 39856 49960 52030 60012 70282 85962 333 10013;
0230012780999992000031506004+63800+011570FM-12+005299999V0202701N002110300019N0100001N1-00211-00211100561ADDAA112006191AJ100519199999999AY181061AY221061GF108991021091000751021999IA1249KA1120N-00281MA1999999099511MD1210251+9999MW1851REMSYN094AAXX  15064 01278 11160 82704 11021 21021 39951 40056 52025 60062 78582 8292/ 333 21028 48051;
0161012780999992000031509004+63800+011570FM-12+005299999V0203001N001012200019N0300001N1-00151-00181100721ADDAY181031AY221031GF104991031091004501061021MA1999999099671MD1210161+9999MW1151REMSYN072AAXX  15094 01278 41480 43002 11015 21018 39967 40072 52016 71582 83962;
0161012780999992000031512004+63800+011570FM-12+005299999V0203001N003110042019N0300001N1-00101-00101100841ADDAY181061AY221061GF107991061091004501061021MA1999999099791MD1210121+9999MW1851REMSYN072AAXX  15124 01278 41480 73006 11010 21010 39979 40084 52012 78582 86962;
0201012780999992000031518004+63800+011570FM-12+005299999V0203001N001010042019N0300001N1-00191-00191101141ADDAA112002091AY181061AY221061GF105991051091004501061999KA1999M+00071MA1999999100091MD1210161+9999MW1851REMSYN088AAXX  15184 01278 11480 53002 11019 21019 30009 40114 52016 60022 78582 8596/ 333 10007;
0230012780999992000031606004+63800+011570FM-12+005299999V0209999C000010012019N0300001N1-00181-00181101711ADDAA112001091AJ100599199999999AY181061AY221061GF107991071091001501999999IA1249KA1120N-00331MA1999999100651MD1210101+9999MW1851REMSYN094AAXX  16064 01278 11280 70000 11018 21018 30065 40171 52010 60012 78582 879// 333 21033 48059;
0161012780999992000031609004+63800+011570FM-12+005299999V0201501N001010003019N0030001N1-00081-00081101771ADDAY181031AY221031GF108991081091000251999999MA1999999100721MD1210081+9999MW1851REMSYN072AAXX  16094 01278 41030 81502 11008 21008 30072 40177 52008 78582 889//;
0140012780999992000031612004+63800+011570FM-12+005299999V0209999C000010042019N0040001N1+00091+00081101781ADDAY181061AY221061GF108991081091004501999999MD1210011+9999MW1851REMSYN066AAXX  16124 01278 41440 80000 10009 20008 40178 52001 78582 889//;
0201012780999992000031618004+63800+011570FM-12+005299999V0201501N001012200019N0300001N1-00071-00201101731ADDAA112000891AY181061AY211061GF104991011001999999071021KA1999M+00231MA1999999100681MD1410001+9999MW1021REMSYN088AAXX  16184 01278 11980 41502 11007 21020 30068 40173 54000 69972 70281 81072 333 10023;
0240012780999992000031706004+63800+011570FM-12+005299999V0201201N003110012019N0020001N1-00191-00201101961ADDAA112000591AJ100589199999999AY171061AY211061GA1091+999999999GF109991091999999999999999IA1249KA1120N-00531MA1999999100901MD1210021+9999MW1731REMSYN088AAXX  17064 01278 11/20 91206 11019 21020 30090 40196 52002 69962 77371 333 21053 48058;
0171012780999992000031709004+63800+011570FM-12+005299999V0201401N002110024019N0030001N1-00091-00091101971ADDAY171031AY271031GA1091+999999999GF109991091999999999999999MA1999999100921MD1210021+9999MW1731REMSYN066AAXX  17094 01278 41/30 91404 11009 21009 30092 40197 52002 77377;
0161012780999992000031712004+63800+011570FM-12+005299999V0201501N001010042019N0030001N1-00051-00051102021ADDAY171061AY261061GF108991081001004501021999MA1999999100971MD1210051+9999MW1581REMSYN072AAXX  17124 01278 41430 81502 11005 21005 30097 40202 52005 75876 8802/;
0201012780999992000031718004+63800+011570FM-12+005299999V0201501N000510300019N0200001N1+00051+00051101831ADDAA112004191AY161061AY251061GF108991011081004501021999KA1999M+00071MA1999999100781MD1710101+9999MW1411REMSYN088AAXX  17184 01278 11470 81501 10005 20005 30078 40183 57010 60042 74165 8182/ 333 10007;
0230012780999992000031806004+63800+011570FM-12+005299999V0202801N001010075019N0200001N1+00221+00071102581ADDAA112005191AJ100589199999999AY181061AY221061GF108991061091008001021999IA1289KA1120N+00041MA1999999101531MD1210261+9999MW1151REMSYN094AAXX  18064 01278 11570 82802 10022 20007 30153 40258 52026 60052 71582 8692/ 333 20004 44058;
0161012780999992000031809004+63800+011570FM-12+005299999V0202801N002112200019N0300001N1+00271+00201102791ADDAY181031AY211031GF102991021081004501001001MA1999999101741MD1210211+9999MW1011REMSYN072AAXX  18094 01278 41480 22804 10027 20020 30174 40279 52021 70181 82800;
0161012780999992000031812004+63800+011570FM-12+005299999V0202801N003110120019N0200001N1+00451+00031102911ADDAY181061AY211061GF106991051081008001061021MA1999999101871MD1210131+9999MW1021REMSYN072AAXX  18124 01278 41570 62806 10045 20003 30187 40291 52013 70281 85862;
0201012780999992000031818004+63800+011570FM-12+005299999V0200901N000512200019N0300001N1+00371-00051102831ADDAA112000791AY121061AY221061GF105991021091017501001011KA1999M+00551MA1999999101781MD1710051+9999MW1021REMSYN088AAXX  18184 01278 11780 50901 10037 21005 30178 40283 57005 69902 70222 82901 333 10055;
0230012780999992000031906004+63800+011570FM-12+005299999V0203301N002110300019N0100001N1+00211+00201101731ADDAA112000191AJ100489199999999AY161061AY221061GF108991011071017501021999IA1289KA1120N+00061MA1999999100691MD1710211+9999MW1601REMSYN094AAXX  19064 01278 11760 83304 10021 20020 30069 40173 57021 69912 76062 8172/ 333 20006 44048;
0161012780999992000031909004+63800+011570FM-12+005299999V0202801N002110120019N0100001N1+00421+00411101531ADDAY161031AY261031GF108991081001012501021999MA1999999100501MD1710191+9999MW1611REMSYN072AAXX  19094 01278 41660 82804 10042 20041 30050 40153 57019 76166 8802/;
0161012780999992000031912004+63800+011570FM-12+005299999V0203301N002110042019N0100001N1+00491+00491101451ADDAY161061AY261061GF108991061071004501021999MA1999999100421MD1510081+9999MW1611REMSYN072AAXX  19124 01278 41460 83304 10049 20049 30042 40145 55008 76166 8672/;
0201012780999992000031918004+63800+011570FM-12+005299999V0209999C000010300019N0550001N1+00391+00381100981ADDAA112004191AY161061AY221061GF107991011081012501071021KA1999M+00641MA1999999099951MD1710111+9999MW1031REMSYN088AAXX  19184 01278 11685 70000 10039 20038 39995 40098 57011 60042 70362 81872 333 10064;
0230012780999992000032006004+63800+011570FM-12+005299999V0202901N003110300019N0040001N1+00191+00191100561ADDAA112007191AJ100409199999999AY161061AY221061GF108991011061001501021999IA1289KA1120N+00191MA1999999099531MD1210301+9999MW1631REMSYN094AAXX  20064 01278 11240 82906 10019 20019 39953 40056 52030 60072 76362 8162/ 333 20019 44040;
0161012780999992000032009004+63800+011570FM-12+005299999V0202801N003110300019N0100001N1+00241+00171100671ADDAY161031AY221031GF108991011091004501021999MA1999999099641MD1210111+9999MW1831REMSYN072AAXX  20094 01278 41460 82806 10024 20017 39964 40067 52011 78362 8192/;
0161012780999992000032012004+63800+011570FM-12+005299999V0202801N006210075019N0200001N1+00411-00071100761ADDAY181061AY261061GF108991081091008001999999MA1999999099741MD1210101+9999MW1151REMSYN072AAXX  20124 01278 41570 82812 10041 21007 39974 40076 52010 71586 889//;
0201012780999992000032018004+63800+011570FM-12+005299999V0202801N002110075019N0250001N1+00271+00021100831ADDAA112000591AY181061AY221061GF105991051091008001999999KA1999M+00451MA1999999099801MD1410001+9999MW1151REMSYN088AAXX  20184 01278 11575 52804 10027 20002 39980 40083 54000 69942 71582 859// 333 10045;
0230012780999992000032106004+63800+011570FM-12+005299999V0202801N003110075019N0300001N1+00061+00061100881ADDAA112004191AJ100399199999999AY181061AY221061GF108991061091008001021999IA1289KA1120N-00011MA1999999099841MD1210011+9999MW1151REMSYN094AAXX  21064 01278 11580 82806 10006 20006 39984 40088 52001 60042 71582 8692/ 333 21001 44039;
0161012780999992000032109004+63800+011570FM-12+005299999V0203001N001010075019N0300001N1+00071+00061100911ADDAY181031AY221031GF107991071091008001999999MA1999999099871MD1210031+9999MW1151REMSYN072AAXX  21094 01278 41580 73002 10007 20006 39987 40091 52003 71582 879//;
0161012780999992000032112004+63800+011570FM-12+005299999V0203301N001010300019N0300001N1+00241-00141100861ADDAY181061AY221061GF107991031091012501071999MA1999999099831MD1710041+9999MW1021REMSYN072AAXX  21124 01278 41680 73302 10024 21014 39983 40086 57004 70282 8397/;
0211012780999992000032118004+63800+011570FM-12+005299999V0200401N000510024019N0030001N1-00071-00071100771ADDAA112003091AY181061AY221061GA1091+999999999GF109991091999999999999999KA1999M+00271MA1999999099731MD1410001+9999MW1861REMSYN082AAXX  21184 01278 11/30 90401 11007 21007 39973 40077 54000 60032 78682 333 10027;
0230012780999992000032206004+63800+011570FM-12+005299999V0202801N003110075019N0300001N1+00001-00011100331ADDAA112002091AJ100459199999999AY181061AY221061GF107991071091008001999999IA1249KA1120N-00161MA1999999099301MD1710201+9999MW1021REMSYN094AAXX  22064 01278 11580 72806 10000 21001 39930 40033 57020 60022 70282 879// 333 21016 48045;
0171012780999992000032209004+63800+011570FM-12+005299999V0203001N002110024019N0035001N1+00011+00011100351ADDAY181031AY221031GA1091+999999999GF109991091999999999999999MA1999999099321MD1210021+9999MW1861REMSYN066AAXX  22094 01278 41/35 93004 10001 20001 39932 40035 52002 78682;
0161012780999992000032212004+63800+011570FM-12+005299999V0202201N000510006019N0150001N1-00041-00041100441ADDAY181061AY221061GF107991071091000751999999MA1999999099401MD1210081+9999MW1851REMSYN072AAXX  22124 01278 41165 72201 11004 21004 39940 40044 52008 78582 879//;
0201012780999992000032218004+63800+011570FM-12+005299999V0202801N002110075019N0300001N1-00181-00191100551ADDAA112004191AY181061AY221061GF107991071091008001999999KA1999M+00101MA1999999099501MD1410001+9999MW1851REMSYN088AAXX  22184 01278 11580 72804 11018 21019 39950 40055 54000 60042 78582 879// 333 10010;
0230012780999992000032306004+63800+011570FM-12+005299999V0202801N003110042019N0200001N1-00201-00201100571ADDAA112001091AJ100519199999999AY181061AY221061GF107991071091004501061999IA1249KA1120N-00271MA1999999099521MD1210061+9999MW1021REMSYN094AAXX  23064 01278 11470 72806 11020 21020 39952 40057 52006 60012 70282 8796/ 333 21027 48051;
0171012780999992000032309004+63800+011570FM-12+005299999V0203201N003110024019N0030001N1-00181-00181100711ADDAY181031AY221031GA1091+999999999GF109991091999999999999999MA1999999099661MD1210141+9999MW1861REMSYN066AAXX  23094 01278 41/30 93206 11018 21018 39966 40071 52014 78682;
0171012780999992000032312004+63800+011570FM-12+005299999V0203001N002110001519N0001001N1+00071+00011100801ADDAY181061AY221061GA1091+999999999GF109991091999999999999999MA1999999099761MD1210101+9999MW1861REMSYN066AAXX  23124 01278 41/01 93004 10007 20001 39976 40080 52010 78682;
0211012780999992000032318004+63800+011570FM-12+005299999V0203001N002110024019N0030001N1+00001+00001100841ADDAA112003091AY181061AY221061GA1091+999999999GF109991091999999999999999KA1999M+00161MA1999999099801MD1710061+9999MW1861REMSYN082AAXX  23184 01278 11/30 93004 10000 20000 39980 40084 57006 60032 78682 333 10016;
0230012780999992000032406004+63800+011570FM-12+005299999V0203001N002110012019N0300001N1+00011+00011101551ADDAA112003091AJ100559199999999AY181061AY221061GF107991051091001501071999IA1289KA1120N-00031MA1999999100501MD1210111+9999MW1021REMSYN094AAXX  24064 01278 11280 73004 10001 20001 30050 40155 52011 60032 70282 8597/ 333 21003 44055;
0161012780999992000032409004+63800+011570FM-12+005299999V0203001N001010003019N0300001N1+00001+00001101681ADDAY181031AY221031GF108991081091000251999999MA1999999100631MD1210131+9999MW1851REMSYN072AAXX  24094 01278 41080 83002 10000 20000 30063 40168 52013 78582 889//;
0161012780999992000032412004+63800+011570FM-12+005299999V0203001N001010075019N0550001N1+00171+00111101741ADDAY181061AY221061GF107991071091008001999999MA1999999100701MD1210071+9999MW1881REMSYN072AAXX  24124 01278 41585 73002 10017 20011 30070 40174 52007 78882 879//;
0201012780999992000032418004+63800+011570FM-12+005299999V0209999C000010300019N0300001N1+00041+00001101831ADDAA112001091AY181061AY221061GF106991031081017501071021KA1999M+00221MA1999999100781MD1410001+9999MW1011REMSYN088AAXX  24184 01278 11780 60000 10004 20000 30078 40183 54000 69992 70182 83872 333 10022;
0243012780999992000032506004+63800+011570FM-12+005299999V0201301N001012200019N0300001N1-00641-00641101721ADDAA199000091AJ100529199999999AY111061AY211061GF102991021001999999031021IA1289KA1120N-00701MA1999999100641MD1710071+9999MW1021REMSYN088AAXX  25064 01278 31980 21302 11064 21064 30064 40172 57007 70211 82032 333 21070 44052;EQDQ01  00002PRCP99
0161012780999992000032509004+63800+011570FM-12+005299999V0201501N001012200019N0550001N1-00451-00481101671ADDAY101031AY201031GF101991001001999999001021MA1999999100601MD1710041+9999MW1021REMSYN072AAXX  25094 01278 41985 11502 11045 21048 30060 40167 57004 70200 80002;
0161012780999992000032512004+63800+011570FM-12+005299999V0209999C000010150019N0550001N1+00261-00291101601ADDAY111061AY211061GF106991051081012501031021MA1999999100561MD1710041+9999MW1031REMSYN072AAXX  25124 01278 41685 60000 10026 21029 30056 40160 57004 70311 85832;
0214012780999992000032518004+63800+011570FM-12+005299999V0201501N001012200019N0300001N1-00081-00481101521ADDAA199000091AY111061AY211061GF104991011011012501031041KA1999M+00301MA1999999100471MD1710021+9999MW1021REMSYN082AAXX  25184 01278 31680 41502 11008 21048 30047 40152 57002 70211 81134 333 10030;EQDQ01  00002PRCP99
0243012780999992000032606004+63800+011570FM-12+005299999V0201501N003112200019N0550001N1-00321-00881101501ADDAA199000091AJ100509199999999AY101061AY201061GF102991021051017501001001IA1289KA1120N-00501MA1999999100441MD1710051+9999MW1021REMSYN088AAXX  26064 01278 31785 21506 11032 21088 30044 40150 57005 70200 82500 333 21050 44050;EQDQ01  00002PRCP99
0161012780999992000032609004+63800+011570FM-12+005299999V0201201N004612200019N0550001N1-00201-00811101561ADDAY101031AY201031GF101991011051017501001001MA1999999100501MD1210061+9999MW1021REMSYN072AAXX  26094 01278 41785 11209 11020 21081 30050 40156 52006 70200 81500;
0161012780999992000032612004+63800+011570FM-12+005299999V0201301N003112200019N0300001N1+00021-00551101701ADDAY101061AY201061GF103991031091012501001001MA1999999100651MD1110151+9999MW1031REMSYN072AAXX  26124 01278 41680 31306 10002 21055 30065 40170 51015 70300 83900;
0214012780999992000032618004+63800+011570FM-12+005299999V0201401N001012200019N0300001N1+00051-00481101871ADDAA199000091AY111061AY211061GF102991011081017501031021KA1999M+00211MA1999999100821MD1210181+9999MW1011REMSYN082AAXX  26184 01278 31780 21402 10005 21048 30082 40187 52018 70111 81832 333 10021;EQDQ01  00002PRCP99
0243012780999992000032706004+63800+011570FM-12+005299999V0201201N001012200019N0550001N1-00641-00801102561ADDAA199000091AJ100509199999999AY101061AY201061GF101991001001999999001011IA1289KA1120N-00651MA1999999101481MD1210101+9999MW1021REMSYN088AAXX  27064 01278 31985 11202 11064 21080 30148 40256 52010 70200 80001 333 21065 44050;EQDQ01  00002PRCP99
0171012780999992000032709004+63800+011570FM-12+005299999V0201401N000512200019N0550001N1-00251-00671102621ADDAY101031AY201031GA1001+999999999GF100991001001999999001001MA1999999101551MD1210071+9999MW1021REMSYN066AAXX  27094 01278 41985 01401 11025 21067 30155 40262 52007 70200;
0161012780999992000032712004+63800+011570FM-12+005299999V0201401N001012200019N0550001N1+00181-00621102631ADDAY101061AY201061GF101991001001999999001011MA1999999101571MD1210021+9999MW1021REMSYN072AAXX  27124 01278 41985 11402 10018 21062 30157 40263 52002 70200 80001;
0214012780999992000032718004+63800+011570FM-12+005299999V0201201N001010750019N0550001N1+00091-00721102541ADDAA199000091AY111061AY211061GF107991041001022501011081KA1999M+00371MA1999999101491MD1710021+9999MW1021REMSYN082AAXX  27184 01278 31885 71202 10009 21072 30149 40254 57002 70211 84018 333 10037;EQDQ01  00002PRCP99
0243012780999992000032806004+63800+011570FM-12+005299999V0201301N001010075019N0550001N1-00581-00761102681ADDAA199000091AJ100489199999999AY111061AY211061GF107991071051008001999999IA1289KA1120N-00631MA1999999101601MD1210011+9999MW1021REMSYN088AAXX  28064 01278 31585 71302 11058 21076 30160 40268 52001 70211 875// 333 21063 44048;EQDQ01  00002PRCP99
0161012780999992000032809004+63800+011570FM-12+005299999V0201301N001010300019N0550001N1-00351-00621102701ADDAY121031AY221031GF105991031081008001031011MA1999999101621MD1210021+9999MW1021REMSYN072AAXX  28094 01278 41585 51302 11035 21062 30162 40270 52002 70222 83831;
0161012780999992000032812004+63800+011570FM-12+005299999V0209999C000010300019N0300001N1+00401-00241102571ADDAY121061AY221061GF107991011081017501071999MA1999999101541MD1710091+9999MW1021REMSYN072AAXX  28124 01278 41780 70000 10040 21024 30154 40257 57009 70222 8187/;
0214012780999992000032818004+63800+011570FM-12+005299999V0201301N001010300019N0300001N1+00511-00321102271ADDAA199000091AY121061AY221061GF108991011011017501071999KA1999M+00611MA1999999101241MD1710151+9999MW1031REMSYN082AAXX  28184 01278 31780 81302 10051 21032 30124 40227 57015 70322 8117/ 333 10061;EQDQ01  00002PRCP99
0230012780999992000032906004+63800+011570FM-12+005299999V0209999C000010300019N0100001N1+00251+00251102101ADDAA112005191AJ100449199999999AY161061AY251061GF108991011061000251021999IA1289KA1120N+00141MA1999999101051MD1210021+9999MW1611REMSYN094AAXX  29064 01278 11060 80000 10025 20025 30105 40210 52002 60052 76165 8162/ 333 20014 44044;
0161012780999992000032909004+63800+011570FM-12+005299999V0203001N001010300019N0300001N1+00461+00461102221ADDAY161031AY251031GF108991041071004501021999MA1999999101181MD1210131+9999MW1021REMSYN072AAXX  29094 01278 41480 83002 10046 20046 30118 40222 52013 70265 8472/;
0161012780999992000032912004+63800+011570FM-12+005299999V0203001N001010300019N0100001N1+00501+00501102241ADDAY161061AY251061GF108991011061000751021999MA1999999101211MD1210031+9999MW1501REMSYN072AAXX  29124 01278 41160 83002 10050 20050 30121 40224 52003 75065 8162/;
0201012780999992000032918004+63800+011570FM-12+005299999V0203001N001010021019N0300001N1+00501+00501102071ADDAA112000191AY161061AY251061GF108991081061002501999999KA1999M+00601MA1999999101041MD1710101+9999MW1501REMSYN088AAXX  29184 01278 11380 83002 10050 20050 30104 40207 57010 69922 75065 886// 333 10060;
0230012780999992000033006004+63800+011570FM-12+005299999V0203001N002110042019N0300001N1+00431+00431101571ADDAA112000791AJ100379199999999AY151061AY221061GF108991071091004501021999IA1289KA1120N+00341MA1999999100541MD1710201+9999MW1021REMSYN094AAXX  30064 01278 11480 83004 10043 20043 30054 40157 57020 69902 70252 8792/ 333 20034 44037;
0161012780999992000033009004+63800+011570FM-12+005299999V0203201N002110042019N0250001N1+00471+00461101451ADDAY121031AY221031GF108991071071004501021999MA1999999100421MD1710121+9999MW1021REMSYN072AAXX  30094 01278 41475 83204 10047 20046 30042 40145 57012 70222 8772/;
0161012780999992000033012004+63800+011570FM-12+005299999V0202801N002110042019N0200001N1+00531+00521101311ADDAY181061AY221061GF107991071091004501999999MA1999999100291MD1710131+9999MW1801REMSYN072AAXX  30124 01278 41470 72804 10053 20052 30029 40131 57013 78082 879//;
0220012780999992000033018004+63800+011570FM-12+005299999V0202801N002112200019N0150001N1+00441+00441101001ADDAA112000191AY181061AY221061GF103991999081002501999999KA1999M+00551MA1999999099981MD1710111+9999MW1151REMSYN088AAXX  30184 01278 11365 32804 10044 20044 39998 40100 57011 69912 71582 888// 333 10055;EQDQ01+000082SCOTLC
0230012780999992000033106004+63800+011570FM-12+005299999V0203401N001010003019N0035001N1+00221+00221100481ADDAA112001091AJ100299199999999AY161061AY251061GF108991081061000251999999IA1309KA1120N+00221MA1999999099451MD1710201+9999MW1501REMSYN094AAXX  31064 01278 11035 83402 10022 20022 39945 40048 57020 60012 75065 886// 333 20022 42029;
0161012780999992000033109004+63800+011570FM-12+005299999V0203301N001010012019N0100001N1+00161+00161100431ADDAY161031AY251031GF108991081061001501999999MA1999999099401MD1710051+9999MW1611REMSYN072AAXX  31094 01278 41260 83302 10016 20016 39940 40043 57005 76165 886//;
0161012780999992000033112004+63800+011570FM-12+005299999V0202801N000510006019N0060001N1+00171+00171100381ADDAY161061AY251061GF108991081061000751999999MA1999999099351MD1710051+9999MW1611REMSYN072AAXX  31124 01278 41156 82801 10017 20017 39935 40038 57005 76165 886//;
0201012780999992000033118004+63800+011570FM-12+005299999V0203301N002110300019N0300001N1+00051+00041100391ADDAA112004191AY181061AY271061GF107991041091004501061021KA1999M+00241MA1999999099361MD1210011+9999MW1151REMSYN088AAXX  31184 01278 11480 73304 10005 20004 39936 40039 52001 60042 71587 84962 333 10024;
0230012780999992000040106004+63800+011570FM-12+005299999V0203401N001010042019N0550001N1-00321-00321100551ADDAA112000791AJ100289199999999AY181061AY221061GF107991061091004501071999IA1309KA1120N-00351MA1999999099501MD1210071+9999MW1851REMSYN094AAXX  01064 01278 11485 73402 11032 21032 39950 40055 52007 69902 78582 8697/ 333 21035 42028;
0161012780999992000040109004+63800+011570FM-12+005299999V0203301N001012200019N0750001N1-00221-00291100661ADDAY181031AY211031GF102991021081004501001011MA1999999099611MD1210111+9999MW1011REMSYN072AAXX  01094 01278 41489 23302 11022 21029 39961 40066 52011 70181 82801;
0161012780999992000040112004+63800+011570FM-12+005299999V0201301N000512200019N0750001N1-00011-00821100751ADDAY181061AY211061GF101991011011012501001021MA1999999099711MD1210101+9999MW1021REMSYN072AAXX  01124 01278 41689 11301 11001 21082 39971 40075 52010 70281 81102;
0201012780999992000040118004+63800+011570FM-12+005299999V0201201N001012200019N0750001N1-00121-01261100851ADDAA112000791AY101061AY201061GF101991001001999999001021KA1999M+00101MA1999999099801MD1210041+9999MW1021REMSYN088AAXX  01184 01278 11989 11202 11012 21126 39980 40085 52004 69902 70200 80002 333 10010;
0243012780999992000040206004+63800+011570FM-12+005299999V0201501N002110150019N0550001N1-00441-01391101041ADDAA199000091AJ100289199999999AY111061AY211061GF108991081001017501021999IA1309KA1120N-00831MA1999999099981MD1210021+9999MW1031REMSYN088AAXX  02064 01278 31785 81504 11044 21139 39998 40104 52002 70311 8802/ 333 21083 42028;EQDQ01  00002PRCP99
0161012780999992000040209004+63800+011570FM-12+005299999V0201501N003110150019N0250001N1-00321-01131101001ADDAY121031AY221031GF108991081001017501021999MA1999999099951MD1710031+9999MW1031REMSYN072AAXX  02094 01278 41775 81506 11032 21113 39995 40100 57003 70322 8802/;
0171012780999992000040212004+63800+011570FM-12+005299999V0201501N007710024019N0040001N1-00251-00711100921ADDAY171061AY221061GA1091+999999999GF109991091999999999999999MA1999999099871MD1710081+9999MW1711REMSYN066AAXX  02124 01278 41/40 91515 11025 21071 39987 40092 57008 77172;
0201012780999992000040218004+63800+011570FM-12+005299999V0201401N006210150019N0100001N1-00231-00411100801ADDAA112000191AY171061AY271061GF108991081001017501021999KA1999M-00201MA1999999099751MD1710071+9999MW1711REMSYN088AAXX  02184 01278 11760 81412 11023 21041 39975 40080 57007 69912 77177 8802/ 333 11020;
0240012780999992000040306004+63800+011570FM-12+005299999V0201301N002110024019N0040001N1-00401-00561100841ADDAA112000191AJ100289199999999AY171061AY221061GA1091+999999999GF109991091999999999999999IA1309KA1120N-00421MA1999999099791MD1410001+9999MW1711REMSYN088AAXX  03064 01278 11/40 91304 11040 21056 39979 40084 54000 69912 77172 333 21042 42028;
0171012780999992000040309004+63800+011570FM-12+005299999V0201501N002110024019N0040001N1-00301-00481100841ADDAY171031AY271031GA1091+999999999GF109991091999999999999999MA1999999099791MD1410001+9999MW1711REMSYN066AAXX  03094 01278 41/40 91504 11030 21048 39979 40084 54000 77177;
0161012780999992000040312004+63800+011570FM-12+005299999V0201501N002110150019N0300001N1-00061-00441100821ADDAY171061AY221061GF108991071081012501021999MA1999999099781MD1710011+9999MW1021REMSYN072AAXX  03124 01278 41680 81504 11006 21044 39978 40082 57001 70272 8782/;
0201012780999992000040318004+63800+011570FM-12+005299999V0201201N001010300019N0750001N1-00081-00501100581ADDAA112000791AY121061AY221061GF107991011081017501071999KA1999M+00031MA1999999099541MD1710101+9999MW1021REMSYN088AAXX  03184 01278 11789 71202 11008 21050 39954 40058 57010 69902 70222 8187/ 333 10003;
0243012780999992000040406004+63800+011570FM-12+005299999V0201501N000510042019N0550001N1-00541-00551100391ADDAA199000091AJ100289199999999AY121061AY221061GF108991081051004501999999IA1309KA1120N-00601MA1999999099331MD1710101+9999MW1021REMSYN088AAXX  04064 01278 31485 81501 11054 21055 39933 40039 57010 70222 885// 333 21060 42028;EQDQ01  00002PRCP99
0161012780999992000040409004+63800+011570FM-12+005299999V0201501N000510120019N0300001N1-00351-00391100331ADDAY171031AY221031GF107991061081008001021999MA1999999099281MD1710051+9999MW1701REMSYN072AAXX  04094 01278 41580 71501 11035 21039 39928 40033 57005 77072 8682/;
0161012780999992000040412004+63800+011570FM-12+005299999V0203201N000510120019N0300001N1-00101-00271100191ADDAY171061AY221061GF107991051081008001021021MA1999999099151MD1710131+9999MW1021REMSYN072AAXX  04124 01278 41580 73201 11010 21027 39915 40019 57013 70272 85822;
0201012780999992000040418004+63800+011570FM-12+005299999V0203301N000512200019N0300001N1-00011-00421100061ADDAA112000791AY121061AY221061GF104991031091017501001021KA1999M+00201MA1999999099021MD1710081+9999MW1021REMSYN088AAXX  04184 01278 11780 43301 11001 21042 39902 40006 57008 69902 70222 83902 333 10020;
0243012780999992000040506004+63800+011570FM-12+005299999V0201501N000512200019N0300001N1-00961-00961100211ADDAA199000091AJ100289199999999AY111061AY211061GF102991021081004501001001IA1309KA1120N-01011MA1999999099141MD1210031+9999MW1021REMSYN088AAXX  05064 01278 31480 21501 11096 21096 39914 40021 52003 70211 82800 333 21101 42028;EQDQ01  00002PRCP99
0161012780999992000040509004+63800+011570FM-12+005299999V0203001N000510300019N0300001N1-00431-00491100181ADDAY181031AY211031GF107991031091008001021999MA1999999099131MD1710011+9999MW1851REMSYN072AAXX  05094 01278 41580 73001 11043 21049 39913 40018 57001 78581 8392/;
0161012780999992000040512004+63800+011570FM-12+005299999V0202801N003110042019N0300001N1-00011-00011100241ADDAY181061AY211061GF107991071091004501999999MA1999999099201MD1210071+9999MW1851REMSYN072AAXX  05124 01278 41480 72806 11001 21001 39920 40024 52007 78581 879//;
0201012780999992000040518004+63800+011570FM-12+005299999V0202801N003110300019N0300001N1-00011-00151100481ADDAA112000191AY181061AY221061GF105991041091004501061021KA1999M+00101MA1999999099441MD1210201+9999MW1851REMSYN088AAXX  05184 01278 11480 52806 11001 21015 39944 40048 52020 69922 78582 84962 333 10010;
0230012780999992000040606004+63800+011570FM-12+005299999V0202801N003110042019N0300001N1-00011-00071101171ADDAA112001091AJ100329199999999AY181061AY221061GF105991051091004501999999IA1309KA1120N-00191MA1999999100121MD1210121+9999MW1851REMSYN094AAXX  06064 01278 11480 52806 11001 21007 30012 40117 52012 60012 78582 859// 333 21019 42032;
0161012780999992000040609004+63800+011570FM-12+005299999V0202801N003110075019N0550001N1+00201-00161101321ADDAY181031AY221031GF107991061091008001061999MA1999999100281MD1210161+9999MW1851REMSYN072AAXX  06094 01278 41585 72806 10020 21016 30028 40132 52016 78582 8696/;
0161012780999992000040612004+63800+011570FM-12+005299999V0203301N002112200019N0300001N1+00211+00061101561ADDAY181061AY221061GF104991041091012501999999MA1999999100521MD1210241+9999MW1851REMSYN072AAXX  06124 01278 41680 43304 10021 20006 30052 40156 52024 78582 849//;
0201012780999992000040618004+63800+011570FM-12+005299999V0203301N003110120019N0250001N1+00281-00271102081ADDAA112000191AY181061AY221061GF107991061091012501061999KA1999M+00301MA1999999101031MD1210301+9999MW1151REMSYN088AAXX  06184 01278 11675 73306 10028 21027 30103 40208 52030 69912 71582 8696/ 333 10030;
0243012780999992000040706004+63800+011570FM-12+005299999V0201201N002112200019N0300001N1-00441-00441102851ADDAA199000091AJ100299199999999AY111061AY211061GF104991041051022501999999IA1309KA1120N-00441MA1999999101771MD1210181+9999MW1021REMSYN088AAXX  07064 01278 31880 41204 11044 21044 30177 40285 52018 70211 845// 333 21044 42029;EQDQ01  00002PRCP99
0161012780999992000040709004+63800+011570FM-12+005299999V0201201N002110210019N0300001N1+00051-00171102851ADDAY121031AY221031GF107991071051022501999999MA1999999101791MD1110021+9999MW1031REMSYN072AAXX  07094 01278 41880 71204 10005 21017 30179 40285 51002 70322 875//;
0161012780999992000040712004+63800+011570FM-12+005299999V0201201N001010120019N0300001N1+00471-00401102781ADDAY121061AY221061GF107991071051012501999999MA1999999101741MD1710051+9999MW1021REMSYN072AAXX  07124 01278 41680 71202 10047 21040 30174 40278 57005 70222 875//;
0201012780999992000040718004+63800+011570FM-12+005299999V0201201N000510300019N0200001N1+00381-00321102581ADDAA112000791AY161061AY221061GF108991031051012501021999KA1999M+00591MA1999999101531MD1710131+9999MW1601REMSYN088AAXX  07184 01278 11670 81201 10038 21032 30153 40258 57013 69902 76062 8352/ 333 10059;
0230012780999992000040806004+63800+011570FM-12+005299999V0201201N001010300019N0750001N1+00501+00041102031ADDAA112000791AJ100279199999999AY161061AY221061GF107991031081017501071021IA1309KA1120N+00221MA1999999101001MD1510051+9999MW1021REMSYN094AAXX  08064 01278 11789 71202 10050 20004 30100 40203 55005 69902 70262 83872 333 20022 42027;
0161012780999992000040809004+63800+011570FM-12+005299999V0201501N000512200019N0750001N1+00661+00051102041ADDAY121031AY221031GF104991011081017501071021MA1999999101011MD1210011+9999MW1011REMSYN072AAXX  08094 01278 41789 41501 10066 20005 30101 40204 52001 70122 81872;
0161012780999992000040812004+63800+011570FM-12+005299999V0201501N002112200019N0750001N1+00921+00081102111ADDAY111061AY211061GF103991011001999999041021MA1999999101091MD1210081+9999MW1021REMSYN072AAXX  08124 01278 41989 31504 10092 20008 30109 40211 52008 70211 81042;
0214012780999992000040818004+63800+011570FM-12+005299999V0201501N002112200019N0750001N1+00841+00031102171ADDAA199000091AY101061AY201061GF101991001001999999001021KA1999M+01011MA1999999101151MD1410001+9999MW1021REMSYN082AAXX  08184 01278 31989 11504 10084 20003 30115 40217 54000 70200 80002 333 10101;EQDQ01  00002PRCP99
0243012780999992000040906004+63800+011570FM-12+005299999V0201501N001010150019N0750001N1+00071+00031102361ADDAA199000091AJ100229199999999AY111061AY211061GF107991071051017501999999IA1309KA1120N+00021MA1999999101311MD1410001+9999MW1021REMSYN088AAXX  09064 01278 31789 71502 10007 20003 30131 40236 54000 70211 875// 333 20002 42022;EQDQ01  00002PRCP99
0161012780999992000040909004+63800+011570FM-12+005299999V0201501N001010150019N0550001N1+00281+00091102291ADDAY121031AY221031GF107991051051017501071999MA1999999101241MD1710071+9999MW1021REMSYN072AAXX  09094 01278 41785 71502 10028 20009 30124 40229 57007 70222 8557/;
0161012780999992000040912004+63800+011570FM-12+005299999V0203301N001010300019N0550001N1+00841+00281102121ADDAY121061AY221061GF107991041081017501071021MA1999999101101MD1710061+9999MW1021REMSYN072AAXX  09124 01278 41785 73302 10084 20028 30110 40212 57006 70222 84872;
0201012780999992000040918004+63800+011570FM-12+005299999V0202801N001010300019N0300001N1+00491+00421101951ADDAA112000191AY161061AY221061GF108991041071008001021999KA1999M+00801MA1999999100921MD1710041+9999MW1601REMSYN088AAXX  09184 01278 11580 82802 10049 20042 30092 40195 57004 69912 76062 8472/ 333 10080;
0230012780999992000041006004+63800+011570FM-12+005299999V0203301N000510042019N0200001N1+00371+00371101541ADDAA112000191AJ100189199999999AY161061AY251061GF108991081071004501999999IA1259KA1120N+00341MA1999999100501MD1710181+9999MW1501REMSYN094AAXX  10064 01278 11470 83301 10037 20037 30050 40154 57018 69912 75065 887// 333 20034 41018;
0161012780999992000041009004+63800+011570FM-12+005299999V0209999C000010042019N0200001N1+00421+00421101391ADDAY161031AY251031GF108991071071004501021999MA1999999100361MD1710141+9999MW1601REMSYN072AAXX  10094 01278 41470 80000 10042 20042 30036 40139 57014 76065 8772/;
0161012780999992000041012004+63800+011570FM-12+005299999V0209999C000010300019N0200001N1+00591+00501101201ADDAY161061AY251061GF108991041081012501071999MA1999999100181MD1710181+9999MW1021REMSYN072AAXX  10124 01278 41670 80000 10059 20050 30018 40120 57018 70265 8487/;
0201012780999992000041018004+63800+011570FM-12+005299999V0209999C000010180019N0300001N1+00481+00421100771ADDAA112000191AY121061AY221061GF108991061081017501071999KA1999M+00651MA1999999099751MD1710251+9999MW1021REMSYN088AAXX  10184 01278 11780 80000 10048 20042 39975 40077 57025 69912 70222 8687/ 333 10065;
0243012780999992000041106004+63800+011570FM-12+005299999V0201001N000510300019N0280001N1+00121+00121100231ADDAA199000091AJ100159199999999AY121061AY221061GF108991011071017501021999IA1259KA1120N+00041MA1999999099201MD1710141+9999MW1021REMSYN088AAXX  11064 01278 31778 81001 10012 20012 39920 40023 57014 70222 8172/ 333 20004 41015;EQDQ01  00002PRCP99
0161012780999992000041109004+63800+011570FM-12+005299999V0209999C000010300019N0200001N1+00281+00281100201ADDAY121031AY221031GF108991021081012501071999MA1999999099171MD1710031+9999MW1021REMSYN072AAXX  11094 01278 41670 80000 10028 20028 39917 40020 57003 70222 8287/;
0161012780999992000041112004+63800+011570FM-12+005299999V0203601N000510300019N0280001N1+00741+00441100151ADDAY121061AY221061GF108991011081012501071999MA1999999099141MD1710031+9999MW1021REMSYN072AAXX  11124 01278 41678 83601 10074 20044 39914 40015 57003 70222 8187/;
0214012780999992000041118004+63800+011570FM-12+005299999V0200901N001010300019N0300001N1+00691+00311100241ADDAA199000091AY121061AY221061GF108991031081017501071021KA1999M+00931MA1999999099231MD1210101+9999MW1021REMSYN082AAXX  11184 01278 31780 80902 10069 20031 39923 40024 52010 70222 83872 333 10093;EQDQ01  00002PRCP99
0240012780999992000041206004+63800+011570FM-12+005299999V0203301N001010024019N0040001N1+00101+00101100621ADDAA112000591AJ100109199999999AY171061AY261061GA1091+999999999GF109991091999999999999999IA1259KA1120N+00101MA1999999099591MD1210101+9999MW1681REMSYN088AAXX  12064 01278 11/40 93302 10010 20010 39959 40062 52010 69942 76876 333 20010 41010;
0161012780999992000041209004+63800+011570FM-12+005299999V0203301N002110006019N0100001N1+00161+00161100731ADDAY171031AY261031GF108991071071000751021999MA1999999099701MD1210111+9999MW1151REMSYN072AAXX  12094 01278 41160 83304 10016 20016 39970 40073 52011 71576 8772/;
0161012780999992000041212004+63800+011570FM-12+005299999V0203001N000510021019N0300001N1+00251+00251100751ADDAY171061AY261061GF108991071071002501021999MA1999999099721MD1210021+9999MW1151REMSYN072AAXX  12124 01278 41380 83001 10025 20025 39972 40075 52002 71576 8772/;
0201012780999992000041218004+63800+011570FM-12+005299999V0203301N001010042019N0300001N1+00231+00041100711ADDAA112000191AY161061AY251061GF108991081071004501999999KA1999M+00311MA1999999099681MD1710031+9999MW1151REMSYN088AAXX  12184 01278 11480 83302 10023 20004 39968 40071 57003 69922 71565 887// 333 10031;
0230012780999992000041306004+63800+011570FM-12+005299999V0209999C000010060019N0300001N1-00051-00051100401ADDAA112000391AJ100119199999999AY171061AY221061GF107991071081000251999999IA1249KA1120N-00071MA1999999099361MD1710121+9999MW1701REMSYN094AAXX  13064 01278 11080 70000 11005 21005 39936 40040 57012 69932 77072 878// 333 21007 48011;
0161012780999992000041309004+63800+011570FM-12+005299999V0202701N000510090019N0300001N1+00081+00081100051ADDAY171031AY221031GF107991061081004501031999MA1999999099321MD1710041+9999MW1021REMSYN072AAXX  13094 01278 41480 72701 10008 20008 39932 40005 57004 70272 8683/;
0161012780999992000041312004+63800+011570FM-12+005299999V0209999C000010120019N0300001N1+00341+00051100201ADDAY171061AY221061GF107991051081008001031999MA1999999099181MD1710141+9999MW1021REMSYN072AAXX  13124 01278 41580 70000 10034 20005 39918 40020 57014 70272 8583/;
0201012780999992000041318004+63800+011570FM-12+005299999V0203401N002110300019N0300001N1+00361-00021099921ADDAA112000791AY161061AY221061GF108991011071017501021999KA1999M+00561MA1999999098901MD1610101+9999MW1601REMSYN088AAXX  13184 01278 11780 83404 10036 21002 39890 49992 56010 69902 76062 8172/ 333 10056;
0240012780999992000041406004+63800+011570FM-12+005299999V0209999C000010012019N0012001N1+00091+00091099541ADDAA112003091AJ100009199999999AY161061AY241061GA1091+999999999GF109991091999999999999999IA1259KA1120N+00051MA1999999098511MD1710101+9999MW1611REMSYN088AAXX  14064 01278 11/12 90000 10009 20009 39851 49954 57010 60032 76164 333 20005 41998;
0161012780999992000041409004+63800+011570FM-12+005299999V0202701N000510003019N0040001N1+00251+00251099501ADDAY161031AY251031GF108991081061000251999999MA1999999098491MD1710021+9999MW1501REMSYN072AAXX  14094 01278 41040 82701 10025 20025 39849 49950 57002 75065 886//;
0201012780999992000041418004+63800+011570FM-12+005299999V0202801N000510006019N0100001N1+00341+00341099431ADDAA112000191AY161061AY251061GF108991071071000751021999KA1999M+00411MA1999999098411MD1710011+9999MW1501REMSYN088AAXX  14184 01278 11160 82801 10034 20034 39841 49943 57001 69922 75065 8772/ 333 10041;
0230012780999992000041506004+63800+011570FM-12+005299999V0201101N001010300019N0300001N1+00141+00141099451ADDAA112000891AJ100009199999999AY161061AY251061GF108991011081008001071999IA1259KA1120N+00081MA1999999098431MD1710021+9999MW1401REMSYN094AAXX  15064 01278 11580 81102 10014 20014 39843 49945 57002 69972 74065 8187/ 333 20008 41998;
0155012780999992000041509004+63800+011570FM-12+005299999V0201101N002110300019N0200001N1+00501+00331999999ADDAY121031AY221031GF108991011081008001021999MA1999999098481MD1210051+9999MW1021REMSYN066AAXX  15094 01278 41570 81104 10050 20033 39848 52005 70222 8182/;
0161012780999992000041512004+63800+011570FM-12+005299999V0201101N002110300019N0300001N1+00601+00211099511ADDAY161061AY221061GF108991011011012501021999MA1999999098511MD1210031+9999MW1601REMSYN072AAXX  15124 01278 41680 81104 10060 20021 39851 49951 52003 76062 8112/;
0201012780999992000041518004+63800+011570FM-12+005299999V0201101N000510300019N0070001N1+00481+00471099701ADDAA112000191AY161061AY221061GF108991011071012501021999KA1999M+00671MA1999999098691MD1210151+9999MW1611REMSYN088AAXX  15184 01278 11657 81101 10048 20047 39869 49970 52015 69912 76162 8172/ 333 10067;
0230012780999992000041606004+63800+011570FM-12+005299999V0201201N000510012019N0150001N1+00261+00261100401ADDAA112000391AJ100009199999999AY161061AY221061GF108991081061001501999999IA1259KA1120N+00191MA1999999099371MD1210201+9999MW1021REMSYN094AAXX  16064 01278 11265 81201 10026 20026 39937 40040 52020 69932 70262 886// 333 20019 41998;
0161012780999992000041609004+63800+011570FM-12+005299999V0201201N000510060019N0300001N1+00331+00331100511ADDAY151031AY221031GF108991061081002501021999MA1999999099491MD1210121+9999MW1501REMSYN072AAXX  16094 01278 41380 81201 10033 20033 39949 40051 52012 75052 8682/;
0161012780999992000041612004+63800+011570FM-12+005299999V0203401N000510150019N0300001N1+00621+00451100491ADDAY151061AY221061GF107991071081012501999999MA1999999099481MD1710011+9999MW1021REMSYN072AAXX  16124 01278 41680 73401 10062 20045 39948 40049 57001 70252 878//;
0201012780999992000041618004+63800+011570FM-12+005299999V0201301N003110300019N0750001N1+00661+00091100341ADDAA112000791AY121061AY221061GF107991021081012501071021KA1999M+00881MA1999999099331MD1710021+9999MW1021REMSYN088AAXX  16184 01278 11689 71306 10066 20009 39933 40034 57002 69902 70222 82872 333 10088;
0230012780999992000041706004+63800+011570FM-12+005299999V0201501N002110300019N0550001N1+00341+00141099871ADDAA112000791AJ100009199999999AY161061AY221061GF107991011081017501021999IA1259KA1120N+00301MA1999999098851MD1710141+9999MW1151REMSYN094AAXX  17064 01278 11785 71504 10034 20014 39885 49987 57014 69902 71562 8182/ 333 20030 41998;
0161012780999992000041709004+63800+011570FM-12+005299999V0201301N001010180019N0550001N1+00491+00191099881ADDAY121031AY221031GF107991051081017501071999MA1999999098871MD1210021+9999MW1021REMSYN072AAXX  17094 01278 41785 71302 10049 20019 39887 49988 52002 70222 8587/;
0161012780999992000041712004+63800+011570FM-12+005299999V0202801N002110180019N0550001N1+00671+00311099941ADDAY121061AY221061GF106991061081017501061999MA1999999098941MD1210071+9999MW1021REMSYN072AAXX  17124 01278 41785 62804 10067 20031 39894 49994 52007 70222 8686/;
0214012780999992000041718004+63800+011570FM-12+005299999V0202701N001010750019N0300001N1+00671+00311100271ADDAA199000091AY121061AY221061GF105991021081017501061011KA1999M+00891MA1999999099261MD1210151+9999MW1021REMSYN082AAXX  17184 01278 31780 52702 10067 20031 39926 40027 52015 70222 82861 333 10089;EQDQ01  00002PRCP99
0230012780999992000041806004+63800+011570FM-12+005299999V0200901N003112200019N0750001N1+00801+00361099671ADDAA112000891AJ100009199999999AY181061AY211061GF101991011091017501001001IA1259KA1120N+00151MA1999999098671MD1510251+9999MW1021REMSYN094AAXX  18064 01278 11789 10906 10080 20036 39867 49967 55025 69972 70281 81900 333 20015 41998;
0161012780999992000041809004+63800+011570FM-12+005299999V0201301N003110300019N0750001N1+01061+00181099921ADDAY111031AY211031GF105991041081017501041011MA1999999098931MD1210261+9999MW1021REMSYN072AAXX  18094 01278 41789 51306 10106 20018 39893 49992 52026 70211 84841;
0161012780999992000041812004+63800+011570FM-12+005299999V0201301N003112200019N0750001N1+01191+00151100061ADDAY111061AY211061GF101991011081017501001021MA1999999099071MD1210141+9999MW1021REMSYN072AAXX  18124 01278 41789 11306 10119 20015 39907 40006 52014 70211 81802;
0214012780999992000041818004+63800+011570FM-12+005299999V0201501N003112200019N0550001N1+01021+00221100091ADDAA199000091AY101061AY201061GF104991021081017501071021KA1999M+01301MA1999999099101MD1710041+9999MW1031REMSYN082AAXX  18184 01278 31785 41506 10102 20022 39910 40009 57004 70300 82872 333 10130;EQDQ01  00002PRCP99
0243012780999992000041906004+63800+011570FM-12+005299999V0203401N000510180019N0550001N1+00681+00311100961ADDAA199000091AJ100009199999999AY111061AY211061GF105991051081017501999999IA1259KA1120N+00571MA1999999099951MD1210401+9999MW1031REMSYN088AAXX  19064 01278 31785 53401 10068 20031 39995 40096 52040 70311 858// 333 20057 41998;EQDQ01  00002PRCP99
0161012780999992000041909004+63800+011570FM-12+005299999V0203401N000512200019N0550001N1+00891+00491101181ADDAY121031AY221031GF104991031081012501071999MA1999999100171MD1210221+9999MW1021REMSYN072AAXX  19094 01278 41685 43401 10089 20049 30017 40118 52022 70222 8387/;
0161012780999992000041912004+63800+011570FM-12+005299999V0202801N002110300019N0550001N1+00991+00531101431ADDAY121061AY221061GF105991041081017501031021MA1999999100421MD1210251+9999MW1021REMSYN072AAXX  19124 01278 41785 52804 10099 20053 30042 40143 52025 70222 84832;
0214012780999992000041918004+63800+011570FM-12+005299999V0201201N002110300019N0550001N1+00961+00451101281ADDAA199000091AY121061AY221061GF107991011081017501071999KA1999M+01111MA1999999100271MD1710131+9999MW1021REMSYN082AAXX  19184 01278 31785 71204 10096 20045 30027 40128 57013 70222 8187/ 333 10111;EQDQ01  00002PRCP99
0243012780999992000042006004+63800+011570FM-12+005299999V0201501N001010180019N0550001N1+00521+00271100931ADDAA199000091AJ100009199999999AY111061AY211061GF106991061081017501999999IA1259KA1120N+00441MA1999999099911MD1310031+9999MW1021REMSYN088AAXX  20064 01278 31785 61502 10052 20027 39991 40093 53003 70211 868// 333 20044 41998;EQDQ01  00002PRCP99
0161012780999992000042009004+63800+011570FM-12+005299999V0201501N001010750019N0550001N1+01131+00501101001ADDAY121031AY221031GF105991041081017501001021MA1999999100001MD1210091+9999MW1021REMSYN072AAXX  20094 01278 41785 51502 10113 20050 30000 40100 52009 70222 84802;
0161012780999992000042012004+63800+011570FM-12+005299999V0201601N002112200019N0750001N1+01391+00481101021ADDAY111061AY211061GF101991011011017501001011MA1999999100031MD1210031+9999MW1011REMSYN072AAXX  20124 01278 41789 11604 10139 20048 30003 40102 52003 70111 81101;
0214012780999992000042018004+63800+011570FM-12+005299999V0201501N002110210019N0750001N1+01031+00331101031ADDAA199000091AY111061AY211061GF108991081001022501021999KA1999M+01451MA1999999100031MD1410001+9999MW1021REMSYN082AAXX  20184 01278 31889 81504 10103 20033 30003 40103 54000 70211 8802/ 333 10145;EQDQ01  00002PRCP99
0243012780999992000042106004+63800+011570FM-12+005299999V0201501N002110300019N0550001N1+00751+00541100711ADDAA199000091AJ100009199999999AY111061AY211061GF107991011011017501071081IA1259KA1120N+00471MA1999999099701MD1710131+9999MW1021REMSYN088AAXX  21064 01278 31785 71504 10075 20054 39970 40071 57013 70211 81178 333 20047 41998;EQDQ01  00002PRCP99
0161012780999992000042109004+63800+011570FM-12+005299999V0201501N002110300019N0550001N1+01201+00671100631ADDAY121031AY221031GF107991031081017501071021MA1999999099631MD1710071+9999MW1021REMSYN072AAXX  21094 01278 41785 71504 10120 20067 39963 40063 57007 70222 83872;
0161012780999992000042112004+63800+011570FM-12+005299999V0201001N002110300019N0750001N1+01291+00761100611ADDAY121061AY221061GF108991011081017501071999MA1999999099621MD1710011+9999MW1021REMSYN072AAXX  21124 01278 41789 81004 10129 20076 39962 40061 57001 70222 8187/;
0201012780999992000042118004+63800+011570FM-12+005299999V0201501N002110300019N0300001N1+00961+00901100281ADDAA112001091AY161061AY221061GF108991031081017501071999KA1999M+01451MA1999999099281MD1710221+9999MW1611REMSYN088AAXX  21184 01278 11780 81504 10096 20090 39928 40028 57022 60012 76162 8387/ 333 10145;
0230012780999992000042206004+63800+011570FM-12+005299999V0200901N001010042019N0300001N1+00601+00601100761ADDAA112001091AJ100009199999999AY161061AY221061GF107991061071004501021999IA1259KA1120N+00511MA1999999099741MD1210171+9999MW1601REMSYN094AAXX  22064 01278 11480 70902 10060 20060 39974 40076 52017 60012 76062 8672/ 333 20051 41998;
0161012780999992000042209004+63800+011570FM-12+005299999V0201001N000510090019N0750001N1+00801+00801100911ADDAY161031AY221031GF107991061081004501071999MA1999999099901MD1210161+9999MW1021REMSYN072AAXX  22094 01278 41489 71001 10080 20080 39990 40091 52016 70262 8687/;
0201012780999992000042218004+63800+011570FM-12+005299999V0203401N000510180019N0550001N1+01031+00591101221ADDAA112000791AY121061AY221061GF107991051081017501071021KA1999M+01291MA1999999100221MD1210101+9999MW1021REMSYN088AAXX  22184 01278 11785 73401 10103 20059 30022 40122 52010 69902 70222 85872 333 10129;
0230012780999992000042306004+63800+011570FM-12+005299999V0201501N003110120019N0300001N1+01001+00401100641ADDAA112000791AJ100009199999999AY161061AY211061GF108991081001012501021999IA1259KA1120N+00481MA1999999099641MD1710201+9999MW1601REMSYN094AAXX  23064 01278 11680 81506 10100 20040 39964 40064 57020 69902 76061 8802/ 333 20048 41998;
0161012780999992000042309004+63800+011570FM-12+005299999V0201501N002110120019N0060001N1+00791+00791100591ADDAY161031AY261031GF108991081001012501021999MA1999999099581MD1710061+9999MW1631REMSYN072AAXX  23094 01278 41656 81504 10079 20079 39958 40059 57006 76366 8802/;
0161012780999992000042312004+63800+011570FM-12+005299999V0203401N001010300019N0750001N1+01201+00611100331ADDAY161061AY221061GF106991021081017501071021MA1999999099341MD1710241+9999MW1011REMSYN072AAXX  23124 01278 41789 63402 10120 20061 39934 40033 57024 70162 82872;
0201012780999992000042318004+63800+011570FM-12+005299999V0201201N000510120019N0300001N1+00941+00941100591ADDAA112005191AY181061AY221061GF107991071081008001999999KA1999M+01451MA1999999099591MD1210251+9999MW1021REMSYN088AAXX  23184 01278 11580 71201 10094 20094 39959 40059 52025 60052 70282 878// 333 10145;
0230012780999992000042406004+63800+011570FM-12+005299999V0201201N000510003019N0300001N1+00471+00471101331ADDAA112000191AJ100009199999999AY161061AY221061GF108991081061000251999999IA1259KA1120N+00461MA1999999100301MD1210151+9999MW1021REMSYN094AAXX  24064 01278 11080 81201 10047 20047 30030 40133 52015 69912 70262 886// 333 20046 41998;
0161012780999992000042409004+63800+011570FM-12+005299999V0201401N001010060019N0300001N1+00581+00581101431ADDAY151031AY221031GF107991071081000751999999MA1999999100411MD1210111+9999MW1021REMSYN072AAXX  24094 01278 41180 71402 10058 20058 30041 40143 52011 70252 878//;
0201012780999992000042418004+63800+011570FM-12+005299999V0201001N002110180019N0750001N1+00901+00411101171ADDAA112000191AY121061AY221061GF108991071081017501021999KA1999M+01061MA1999999100161MD1710101+9999MW1021REMSYN088AAXX  24184 01278 11789 81004 10090 20041 30016 40117 57010 69912 70222 8782/ 333 10106;
0230012780999992000042506004+63800+011570FM-12+005299999V0209999C000010003019N0300001N1+00481+00481101011ADDAA112000891AJ100009199999999AY161061AY221061GF107991071091000251999999IA1259KA1120N+00471MA1999999099991MD1710051+9999MW1021REMSYN094AAXX  25064 01278 11080 70000 10048 20048 39999 40101 57005 69982 70262 879// 333 20047 41998;
0161012780999992000042509004+63800+011570FM-12+005299999V0202801N001010120019N0300001N1+00671+00671101031ADDAY121031AY221031GF107991061081008001071999MA1999999100011MD1210021+9999MW1021REMSYN072AAXX  25094 01278 41580 72802 10067 20067 30001 40103 52002 70222 8687/;
0161012780999992000042512004+63800+011570FM-12+005299999V0203001N003110120019N0300001N1+00691+00451101091ADDAY121061AY221061GF108991071081008001071999MA1999999100071MD1210061+9999MW1021REMSYN072AAXX  25124 01278 41580 83006 10069 20045 30007 40109 52006 70222 8787/;
0201012780999992000042518004+63800+011570FM-12+005299999V0202901N004612200019N0300001N1+00821+00321101181ADDAA112000191AY181061AY221061GF104991041081008001001001KA1999M+00841MA1999999100171MD1210011+9999MW1021REMSYN088AAXX  25184 01278 11580 42909 10082 20032 30017 40118 52001 69922 70282 84800 333 10084;
0230012780999992000042606004+63800+011570FM-12+005299999V0203001N001010090019N0300001N1+00271+00191101991ADDAA112000191AJ100009199999999AY181061AY221061GF107991071081004501999999IA1259KA1120N+00231MA1999999100951MD1210251+9999MW1021REMSYN094AAXX  26064 01278 11480 73002 10027 20019 30095 40199 52025 69912 70282 878// 333 20023 41998;
0161012780999992000042609004+63800+011570FM-12+005299999V0202901N002110075019N0300001N1+00401-00021102151ADDAY121031AY221031GF107991071091008001999999MA1999999101111MD1210161+9999MW1021REMSYN072AAXX  26094 01278 41580 72904 10040 21002 30111 40215 52016 70222 879//;
0161012780999992000042612004+63800+011570FM-12+005299999V0202901N001010120019N0550001N1+00461-00061102301ADDAY181061AY221061GF105991051091012501999999MA1999999101261MD1210151+9999MW1011REMSYN072AAXX  26124 01278 41685 52902 10046 21006 30126 40230 52015 70182 859//;
0201012780999992000042618004+63800+011570FM-12+005299999V0203001N001010180019N0300001N1+00481+00021102361ADDAA112000791AY111061AY211061GF107991071081017501999999KA1999M+00651MA1999999101321MD1410001+9999MW1021REMSYN088AAXX  26184 01278 11780 73002 10048 20002 30132 40236 54000 69902 70211 878// 333 10065;
0243012780999992000042706004+63800+011570FM-12+005299999V0201501N004610300019N0300001N1+00231+00051102131ADDAA199000091AJ100009199999999AY111061AY211061GF108991011071017501021999IA1259KA1120N+00031MA1999999101081MD1710201+9999MW1151REMSYN088AAXX  27064 01278 31780 81509 10023 20005 30108 40213 57020 71511 8172/ 333 20003 41998;EQDQ01  00002PRCP99
0161012780999992000042709004+63800+011570FM-12+005299999V0201301N004610300019N0750001N1+00461+00161102061ADDAY171031AY221031GF106991021081017501071021MA1999999101021MD1710061+9999MW1011REMSYN072AAXX  27094 01278 41789 61309 10046 20016 30102 40206 57006 70172 82872;
0161012780999992000042712004+63800+011570FM-12+005299999V0201001N003112200019N0750001N1+00641+00271101971ADDAY171061AY221061GF104991011081008001071021MA1999999100941MD1710081+9999MW1011REMSYN072AAXX  27124 01278 41589 41006 10064 20027 30094 40197 57008 70172 81872;
0201012780999992000042718004+63800+011570FM-12+005299999V0201301N001010300019N0200001N1+00481+00481101921ADDAA112003091AY161061AY221061GF108991041071004501021999KA1999M+00771MA1999999100891MD1210071+9999MW1611REMSYN088AAXX  27184 01278 11470 81302 10048 20048 30089 40192 52007 60032 76162 8472/ 333 10077;
0230012780999992000042806004+63800+011570FM-12+005299999V0201301N002110300019N0550001N1+00371+00371102461ADDAA112000191AJ100009199999999AY161061AY221061GF107991021081017501011021IA1259KA1120N+00181MA1999999101421MD1210131+9999MW1021REMSYN094AAXX  28064 01278 11785 71304 10037 20037 30142 40246 52013 69912 70262 82812 333 20018 41998;
0161012780999992000042809004+63800+011570FM-12+005299999V0209999C000019999999N0550001N1+00901+00641102421ADDAY121031AY221031GF107991001001999999001021MA1999999101401MD1710021+9999MW1021REMSYN072AAXX  28094 01278 41985 70000 10090 20064 30140 40242 57002 70222 80002;
0161012780999992000042812004+63800+011570FM-12+005299999V0201201N002110210019N0550001N1+01161+00571102371ADDAY121061AY221061GF107991051001022501031021MA1999999101361MD1710041+9999MW1021REMSYN072AAXX  28124 01278 41885 71204 10116 20057 30136 40237 57004 70222 85032;
0193012780999992000042818004+63800+011570FM-12+005299999V0201201N003112200019N0300001N1+01171+00581102221ADDAA199000091AY111061AY211061GF103991011011017501031021KA1999M+01341MD1710021+9999MW1021REMSYN076AAXX  28184 01278 31780 31206 10117 20058 40222 57002 70211 81132 333 10134;EQDQ01  00002PRCP99
0224012780999992000042906004+63800+011570FM-12+005299999V0201001N001012200019N0300001N1+00621+00621102291ADDAA199000091AY101061AY201061GA1001+999999999GF100991001001999999001001KA1999N+00471MA1999999101261MD1710031+9999MW1021REMSYN076AAXX  29064 01278 31980 01002 10062 20062 30126 40229 57003 70200 333 20047;EQDQ01  00002PRCP99
0171012780999992000042909004+63800+011570FM-12+005299999V0201401N001012200019N0300001N1+01241+00831102321ADDAY101031AY201031GA1001+999999999GF100991001001999999001001MA1999999101311MD1210051+9999MW1021REMSYN066AAXX  29094 01278 41980 01402 10124 20083 30131 40232 52005 70200;
0171012780999992000042912004+63800+011570FM-12+005299999V0200901N000512200019N0300001N1+01801+00971102201ADDAY101061AY201061GA1001+999999999GF100991001001999999001001MA1999999101221MD1710091+9999MW1021REMSYN066AAXX  29124 01278 41980 00901 10180 20097 30122 40220 57009 70200;
0214012780999992000042918004+63800+011570FM-12+005299999V0201501N002112200019N0300001N1+01731+00901102101ADDAA199000091AY101061AY201061GF101991001001999999001011KA1999M+02001MA1999999101111MD1710051+9999MW1021REMSYN082AAXX  29184 01278 31980 11504 10173 20090 30111 40210 57005 70200 80001 333 10200;EQDQ01  00002PRCP99
0161012780999992000043009004+63800+011570FM-12+005299999V0201201N006212200019N0300001N1+00921+00731102441ADDAY111031AY211031GF102991011061004501001011MA1999999101421MD1210081+9999MW1021REMSYN072AAXX  30094 01278 41480 21212 10092 20073 30142 40244 52008 70211 81601;
0161012780999992000043012004+63800+011570FM-12+005299999V0201201N006212200019N0300001N1+00981+00741102471ADDAY111061AY201061GF102991011061004501001011MA1999999101451MD1210031+9999MW1021REMSYN072AAXX  30124 01278 41480 21212 10098 20074 30145 40247 52003 70210 81601;
0224012780999992000043018004+63800+011570FM-12+005299999V0201301N006212200019N0300001N1+01151+00701102311ADDAA199000091AY101061AY201061GA1001+999999999GF100991001001999999001001KA1999M+01181MA1999999101301MD1710061+9999MW1021REMSYN076AAXX  30184 01278 31980 01312 10115 20070 30130 40231 57006 70200 333 10118;EQDQ01  00002PRCP99
0214012780999992000050106004+63800+011570FM-12+005299999V0201201N006219999999N0300001N1+00631+00331102721ADDAA199000091AY101061AY201061GF107991001001999999001071KA1999N+00531MA1999999101681MD1210091+9999MW1021REMSYN082AAXX  01064 01278 31980 71212 10063 20033 30168 40272 52009 70200 80007 333 20053;EQDQ01  00002PRCP99
0161012780999992000050109004+63800+011570FM-12+005299999V0201201N004619999999N0300001N1+00881+00481102731ADDAY121031AY221031GF105991001001999999001071MA1999999101701MD1210021+9999MW1021REMSYN072AAXX  01094 01278 41980 51209 10088 20048 30170 40273 52002 70222 80007;
0161012780999992000050112004+63800+011570FM-12+005299999V0201201N003119999999N0300001N1+01101+00611102711ADDAY121061AY221061GF105991021001999999031071MA1999999101691MD1710011+9999MW1021REMSYN072AAXX  01124 01278 41980 51206 10110 20061 30169 40271 57001 70222 82037;
0214012780999992000050118004+63800+011570FM-12+005299999V0201201N003112200019N0300001N1+01001+00561102571ADDAA199000091AY111061AY211061GF101991001001999999001011KA1999M+01101MA1999999101551MD1710071+9999MW1021REMSYN082AAXX  01184 01278 31980 11206 10100 20056 30155 40257 57007 70211 80001 333 10110;EQDQ01  00002PRCP99
0214012780999992000050206004+63800+011570FM-12+005299999V0201501N002110750019N0300001N1+00671+00661102381ADDAA199000091AY111061AY211061GF107991011051017501001071KA1999N+00491MA1999999101351MD1710101+9999MW1031REMSYN082AAXX  02064 01278 31780 71504 10067 20066 30135 40238 57010 70311 81507 333 20049;EQDQ01  00002PRCP99
0161012780999992000050209004+63800+011570FM-12+005299999V0209999C000010300019N0300001N1+01191+00811102331ADDAY121031AY221031GF107991021051022501071999MA1999999101321MD1710031+9999MW1031REMSYN072AAXX  02094 01278 41880 70000 10119 20081 30132 40233 57003 70322 8257/;
0161012780999992000050212004+63800+011570FM-12+005299999V0202801N001010150019N0300001N1+01081+00841102291ADDAY121061AY221061GF108991071051017501071999MA1999999101281MD1710041+9999MW1031REMSYN072AAXX  02124 01278 41780 82802 10108 20084 30128 40229 57004 70322 8757/;
0201012780999992000050218004+63800+011570FM-12+005299999V0202801N002110300019N0035001N1+00801+00801102291ADDAA112000791AY161061AY251061GF108991041061001501021999KA1999M+01251MA1999999101261MD1710021+9999MW1581REMSYN088AAXX  02184 01278 11235 82804 10080 20080 30126 40229 57002 69902 75865 8462/ 333 10125;
0201012780999992000050306004+63800+011570FM-12+005299999V0202901N002110042019N0300001N1+00491+00491102431ADDAA112001091AY181061AY221061GF107991071091004501999999KA1999N+00431MA1999999101391MD1210091+9999MW1801REMSYN088AAXX  03064 01278 11480 72904 10049 20049 30139 40243 52009 60012 78082 879// 333 20043;
0161012780999992000050309004+63800+011570FM-12+005299999V0202901N002110042019N0300001N1+00581+00581102511ADDAY181031AY221031GF107991071091004501999999MA1999999101481MD1210091+9999MW1801REMSYN072AAXX  03094 01278 41480 72904 10058 20058 30148 40251 52009 78082 879//;
0161012780999992000050312004+63800+011570FM-12+005299999V0202901N002110075019N0300001N1+00671+00401102561ADDAY181061AY221061GF107991071091008001999999MA1999999101521MD1210041+9999MW1801REMSYN072AAXX  03124 01278 41580 72904 10067 20040 30152 40256 52004 78082 879//;
0201012780999992000050318004+63800+011570FM-12+005299999V0202801N003110120019N0300001N1+00681+00261102601ADDAA112000891AY181061AY221061GF107991071081008001999999KA1999M+00851MA1999999101561MD1210061+9999MW1021REMSYN088AAXX  03184 01278 11580 72806 10068 20026 30156 40260 52006 69982 70282 878// 333 10085;
0214012780999992000050406004+63800+011570FM-12+005299999V0203501N000510075019N0300001N1+00481+00421102441ADDAA199000091AY121061AY221061GF108991081051008001999999KA1999N+00371MA1999999101401MD1710101+9999MW1021REMSYN082AAXX  04064 01278 31580 83501 10048 20042 30140 40244 57010 70222 885// 333 20037;EQDQ01  00002PRCP99
0161012780999992000050412004+63800+011570FM-12+005299999V0202901N003119999999N0750001N1+01041+00421102131ADDAY121061AY221061GF107991041001999999071021MA1999999101121MD1710171+9999MW1021REMSYN072AAXX  04124 01278 41989 72906 10104 20042 30112 40213 57017 70222 84072;
0201012780999992000050418004+63800+011570FM-12+005299999V0202701N003110042019N0200001N1+00791+00761101981ADDAA112002091AY181061AY261061GF108991081091004501999999KA1999M+01171MA1999999100961MD1710101+9999MW1151REMSYN088AAXX  04184 01278 11470 82706 10079 20076 30096 40198 57010 60022 71586 889// 333 10117;
0201012780999992000050506004+63800+011570FM-12+005299999V0202901N003110042019N0250001N1+00621+00491101951ADDAA112000191AY181061AY261061GF107991071091004501999999KA1999N+00551MA1999999100921MD1210051+9999MW1021REMSYN088AAXX  05064 01278 11475 72906 10062 20049 30092 40195 52005 69912 70286 879// 333 20055;
0161012780999992000050509004+63800+011570FM-12+005299999V0202901N006210075019N0300001N1+00801+00341101961ADDAY121031AY221031GF106991061091008001999999MA1999999100941MD1210021+9999MW1021REMSYN072AAXX  05094 01278 41580 62912 10080 20034 30094 40196 52002 70222 869//;
0161012780999992000050512004+63800+011570FM-12+005299999V0203101N006210120019N0300001N1+00801+00301102051ADDAY121061AY221061GF107991071091012501999999MA1999999101031MD1210091+9999MW1021REMSYN072AAXX  05124 01278 41680 73112 10080 20030 30103 40205 52009 70222 879//;
0201012780999992000050518004+63800+011570FM-12+005299999V0202901N006210120019N0200001N1+00771+00351102191ADDAA112000791AY181061AY221061GF107991071091012501999999KA1999M+00861MA1999999101161MD1210051+9999MW1151REMSYN088AAXX  05184 01278 11670 72912 10077 20035 30116 40219 52005 69902 71582 879// 333 10086;
0201012780999992000050606004+63800+011570FM-12+005299999V0201401N001010090019N0150001N1+00441+00441102501ADDAA112000791AY161061AY221061GF107991071081004501999999KA1999N+00331MA1999999101461MD1210041+9999MW1021REMSYN088AAXX  06064 01278 11465 71402 10044 20044 30146 40250 52004 69902 70262 878// 333 20033;
0161012780999992000050609004+63800+011570FM-12+005299999V0200901N000510150019N0300001N1+00751+00251102491ADDAY121031AY221031GF107991071051017501999999MA1999999101461MD1410001+9999MW1011REMSYN072AAXX  06094 01278 41780 70901 10075 20025 30146 40249 54000 70122 875//;
0171012780999992000050612004+63800+011570FM-12+005299999V0200901N001012200019N0300001N1+01101+00251102261ADDAY111061AY201061GA1001+999999999GF100991001001999999001001MA1999999101251MD1710211+9999MW1011REMSYN066AAXX  06124 01278 41980 00902 10110 20025 30125 40226 57021 70110;
0214012780999992000050618004+63800+011570FM-12+005299999V0201301N002112200019N0300001N1+01521-00101101911ADDAA199000091AY101061AY201061GF103991001001999999001021KA1999M+01571MA1999999100921MD1710121+9999MW1021REMSYN082AAXX  06184 01278 31980 31304 10152 21010 30092 40191 57012 70200 80002 333 10157;EQDQ01  00002PRCP99
0214012780999992000050706004+63800+011570FM-12+005299999V0201501N001012200019N0300001N1+00441+00381102231ADDAA199000091AY101061AY201061GF101991011041012501041021KA1999N+00201MA1999999101191MD1210151+9999MW1021REMSYN082AAXX  07064 01278 31680 11502 10044 20038 30119 40223 52015 70200 81442 333 20020;EQDQ01  00002PRCP99
0161012780999992000050709004+63800+011570FM-12+005299999V0202901N003110120019N0200001N1+00851+00591102311ADDAY111031AY211031GF107991071081008001999999MA1999999101291MD1210101+9999MW1031REMSYN072AAXX  07094 01278 41570 72906 10085 20059 30129 40231 52010 70311 878//;
0153012780999992000050712004+63800+011570FM-12+005299999V0202801N002110075019N0270001N1+00841+00671102371ADDAW1021AZ111061GF108991081051008001999999MA1999999101351MD1110061+9999REMSYN072AAXX  07124 01278 14577 82804 10084 20067 30135 40237 51006 70211 885//;
0214012780999992000050718004+63800+011570FM-12+005299999V0203001N002110090019N0250001N1+00761+00751102481ADDAA199000091AY121061AY221061GF108991081081004501999999KA1999M+00911MA1999999101451MD1210011+9999MW1021REMSYN082AAXX  07184 01278 31475 83004 10076 20075 30145 40248 52001 70222 888// 333 10091;EQDQ01  00002PRCP99
0214012780999992000050806004+63800+011570FM-12+005299999V0202801N002110090019N0300001N1+00731+00671102601ADDAA199000091AY121061AY221061GF107991061081004501001021KA1999N+00691MA1999999101571MD1210061+9999MW1021REMSYN082AAXX  08064 01278 31480 72804 10073 20067 30157 40260 52006 70222 86802 333 20069;EQDQ01  00002PRCP99
0161012780999992000050809004+63800+011570FM-12+005299999V0202901N003110120019N0300001N1+00851+00561102651ADDAY121031AY221031GF107991071081008001999999MA1999999101621MD1210051+9999MW1021REMSYN072AAXX  08094 01278 41580 72906 10085 20056 30162 40265 52005 70222 878//;
0161012780999992000050812004+63800+011570FM-12+005299999V0202901N002110750019N0300001N1+01121+00691102601ADDAY121061AY221061GF105991011021012501041021MA1999999101581MD1710041+9999MW1021REMSYN072AAXX  08124 01278 41680 52904 10112 20069 30158 40260 57004 70222 81242;
0214012780999992000050818004+63800+011570FM-12+005299999V0202801N002110210019N0300001N1+01321+00591102401ADDAA199000091AY121061AY221061GF107991061051022501071021KA1999M+01461MA1999999101401MD1610101+9999MW1021REMSYN082AAXX  08184 01278 31880 72804 10132 20059 30140 40240 56010 70222 86572 333 10146;EQDQ01  00002PRCP99
0214012780999992000050906004+63800+011570FM-12+005299999V0201501N001012200019N0200001N1+00861+00801102131ADDAA199000091AY111061AY211061GF101991011081022501001021KA1999N+00681MA1999999101111MD1710051+9999MW1021REMSYN082AAXX  09064 01278 31870 11502 10086 20080 30111 40213 57005 70211 81802 333 20068;EQDQ01  00002PRCP99
0161012780999992000050909004+63800+011570FM-12+005299999V0202801N000510300019N0200001N1+01471+01041102041ADDAY111031AY211031GF106991011081012501031021MA1999999101041MD1710071+9999MW1021REMSYN072AAXX  09094 01278 41670 62801 10147 20104 30104 40204 57007 70211 81832;
0161012780999992000050912004+63800+011570FM-12+005299999V0203001N001012200019N0250001N1+02001+01121101841ADDAY111061AY211061GF101991011011017501001021MA1999999100871MD1710171+9999MW1011REMSYN072AAXX  09124 01278 41775 13002 10200 20112 30087 40184 57017 70111 81102;
0214012780999992000050918004+63800+011570FM-12+005299999V0202801N003112200019N0250001N1+01671+00771101661ADDAA199000091AY101061AY201061GF102991011021017501031021KA1999M+02211MA1999999100671MD1510051+9999MW1021REMSYN082AAXX  09184 01278 31775 22806 10167 20077 30067 40166 55005 70200 81232 333 10221;EQDQ01  00002PRCP99
0201012780999992000051006004+63800+011570FM-12+005299999V0203001N002110042019N0300001N1+00741+00741101901ADDAA112001091AY161061AY211061GF108991071071004501021999KA1999N+00721MA1999999100881MD1210041+9999MW1021REMSYN088AAXX  10064 01278 11480 83004 10074 20074 30088 40190 52004 60012 70261 8772/ 333 20072;
0161012780999992000051009004+63800+011570FM-12+005299999V0203001N003110075019N0300001N1+00671+00661102021ADDAY181031AY221031GF108991071091008001021999MA1999999100991MD1210111+9999MW1801REMSYN072AAXX  10094 01278 41580 83006 10067 20066 30099 40202 52011 78082 8792/;
0161012780999992000051012004+63800+011570FM-12+005299999V0203101N004610075019N0300001N1+00811+00411102061ADDAY181061AY221061GF107991071091008001999999MA1999999101041MD1210051+9999MW1801REMSYN072AAXX  10124 01278 41580 73109 10081 20041 30104 40206 52005 78082 879//;
0201012780999992000051018004+63800+011570FM-12+005299999V0203001N003110042019N0300001N1+00731+00461102051ADDAA112000591AY181061AY221061GF108991081091004501999999KA1999M+00911MA1999999101021MD1410001+9999MW1151REMSYN088AAXX  10184 01278 11480 83006 10073 20046 30102 40205 54000 69952 71582 889// 333 10091;
0201012780999992000051106004+63800+011570FM-12+005299999V0203201N003110042019N0300001N1+00301+00261102341ADDAA112003091AY181061AY221061GF107991071091004501999999KA1999N+00181MA1999999101301MD1210271+9999MW1021REMSYN088AAXX  11064 01278 11480 73206 10030 20026 30130 40234 52027 60032 70282 879// 333 20018;
0161012780999992000051109004+63800+011570FM-12+005299999V0203301N004610075019N0300001N1+00381+00031102501ADDAY181031AY221031GF107991071091008001999999MA1999999101461MD1210161+9999MW1021REMSYN072AAXX  11094 01278 41580 73309 10038 20003 30146 40250 52016 70282 879//;
0161012780999992000051112004+63800+011570FM-12+005299999V0203301N004610120019N0200001N1+00301+00041102761ADDAY181061AY221061GF107991061091012501061999MA1999999101711MD1210251+9999MW1871REMSYN072AAXX  11124 01278 41670 73309 10030 20004 30171 40276 52025 78782 8696/;
0201012780999992000051118004+63800+011570FM-12+005299999V0203301N004610120019N0250001N1+00311-00101102951ADDAA112000791AY181061AY221061GF107991071091012501999999KA1999M+00551MA1999999101901MD1210111+9999MW1151REMSYN088AAXX  11184 01278 11675 73309 10031 21010 30190 40295 52011 69902 71582 879// 333 10055;
0201012780999992000051206004+63800+011570FM-12+005299999V0202701N002110075019N0300001N1+00331+00131103051ADDAA112000791AY181061AY221061GF108991051091008001021999KA1999N+00131MA1999999102001MD1710071+9999MW1151REMSYN088AAXX  12064 01278 11580 82704 10033 20013 30200 40305 57007 69902 71582 8592/ 333 20013;
0161012780999992000051209004+63800+011570FM-12+005299999V0202701N001010075019N0040001N1+00351+00341102981ADDAY161031AY221031GF108991081001008001021999MA1999999101931MD1710071+9999MW1631REMSYN072AAXX  12094 01278 41540 82702 10035 20034 30193 40298 57007 76362 8802/;
0161012780999992000051212004+63800+011570FM-12+005299999V0202801N001010300019N0250001N1+00471+00471102771ADDAY171061AY261061GF108991021071008001021999MA1999999101731MD1710201+9999MW1601REMSYN072AAXX  12124 01278 41575 82802 10047 20047 30173 40277 57020 76076 8272/;
0201012780999992000051218004+63800+011570FM-12+005299999V0202901N003110075019N0300001N1+00811+00641102531ADDAA112001091AY181061AY261061GF108991081091008001999999KA1999M+00831MA1999999101501MD1710091+9999MW1151REMSYN088AAXX  12184 01278 11580 82906 10081 20064 30150 40253 57009 60012 71586 889// 333 10083;
0214012780999992000051306004+63800+011570FM-12+005299999V0202801N004610090019N0250001N1+00751+00751102431ADDAA199000091AY121061AY221061GF108991061081004501021999KA1999N+00671MA1999999101401MD1510001+9999MW1021REMSYN082AAXX  13064 01278 31475 82809 10075 20075 30140 40243 55000 70222 8682/ 333 20067;EQDQ01  00002PRCP99
0161012780999992000051309004+63800+011570FM-12+005299999V0202801N004610090019N0300001N1+00781+00761102461ADDAY121031AY221031GF108991081081004501999999MA1999999101431MD1210031+9999MW1021REMSYN072AAXX  13094 01278 41480 82809 10078 20076 30143 40246 52003 70222 888//;
0161012780999992000051312004+63800+011570FM-12+005299999V0202801N003110042019N0200001N1+00891+00891102541ADDAY121061AY221061GF108991081071004501999999MA1999999101511MD1210081+9999MW1021REMSYN072AAXX  13124 01278 41470 82806 10089 20089 30151 40254 52008 70222 887//;
0214012780999992000051318004+63800+011570FM-12+005299999V0202801N002110300019N0300001N1+01271+00141102471ADDAA199000091AY121061AY221061GF107991041081017501071021KA1999M+01311MA1999999101461MD1610041+9999MW1011REMSYN082AAXX  13184 01278 31780 72804 10127 20014 30146 40247 56004 70122 84872 333 10131;EQDQ01  00002PRCP99
0214012780999992000051406004+63800+011570FM-12+005299999V0201401N000519999999N0300001N1+00561+00521102381ADDAA199000091AY111061AY211061GF106991011001999999041021KA1999N+00171MA1999999101351MD1610031+9999MW1021REMSYN082AAXX  14064 01278 31980 61401 10056 20052 30135 40238 56003 70211 81042 333 20017;EQDQ01  00002PRCP99
0161012780999992000051409004+63800+011570FM-12+005299999V0202901N002112200019N0550001N1+01351+00641102301ADDAY111031AY211031GF101991001001999999001021MA1999999101301MD1710051+9999MW1011REMSYN072AAXX  14094 01278 41985 12904 10135 20064 30130 40230 57005 70111 80002;
0161012780999992000051412004+63800+011570FM-12+005299999V0203001N003112200019N0750001N1+01601+00301102181ADDAY111061AY211061GF101991001001999999001021MA1999999101191MD1710111+9999MW1021REMSYN072AAXX  14124 01278 41989 13006 10160 20030 30119 40218 57011 70211 80002;
0214012780999992000051418004+63800+011570FM-12+005299999V0203001N003110750019N0550001N1+01341+00631102171ADDAA199000091AY111061AY211061GF105991021081017501071021KA1999M+01701MA1999999101171MD1710031+9999MW1031REMSYN082AAXX  14184 01278 31785 53006 10134 20063 30117 40217 57003 70311 82872 333 10170;EQDQ01  00002PRCP99
0214012780999992000051506004+63800+011570FM-12+005299999V0201501N000510042019N0750001N1+00921+00751102061ADDAA199000091AY121061AY221061GF107991051051004501071999KA1999N+00771MA1999999101041MD1610021+9999MW1021REMSYN082AAXX  15064 01278 31489 71501 10092 20075 30104 40206 56002 70222 8557/ 333 20077;EQDQ01  00002PRCP99
0180012780999992000051509004+63800+011570FM-12+005299999V0203401N000519999999N0300001N1+01201+00731102031ADDAY121031AY221031GF107991999071008001051999MA1999999101021MD1710021+9999MW1011REMSYN072AAXX  15094 01278 41580 73401 10120 20073 30102 40203 57002 70122 8875/;EQDQ01+000082SCOTLC
0161012780999992000051512004+63800+011570FM-12+005299999V0202701N000512200019N0300001N1+01601+01001101941ADDAY121061AY211061GF104991031081012501001011MA1999999100951MD1710071+9999MW1011REMSYN072AAXX  15124 01278 41680 42701 10160 20100 30095 40194 57007 70121 83801;
0214012780999992000051518004+63800+011570FM-12+005299999V0200501N001012200019N0300001N1+01761+00991101691ADDAA199000091AY111061AY211061GF103991011011017501031021KA1999M+01961MA1999999100711MD1710111+9999MW1021REMSYN082AAXX  15184 01278 31780 30502 10176 20099 30071 40169 57011 70211 81132 333 10196;EQDQ01  00002PRCP99
0214012780999992000051606004+63800+011570FM-12+005299999V0201001N001010750019N0300001N1+01281+01021101381ADDAA199000091AY111061AY211061GF105991011011017501031021KA1999N+00961MA1999999100381MD1710151+9999MW1021REMSYN082AAXX  16064 01278 31780 51002 10128 20102 30038 40138 57015 70211 81132 333 20096;EQDQ01  00002PRCP99
0161012780999992000051609004+63800+011570FM-12+005299999V0201101N002112200019N0550001N1+01691+01101101261ADDAY111031AY211031GF101991011011017501031001MA1999999100281MD1710101+9999MW1021REMSYN072AAXX  16094 01278 41785 11104 10169 20110 30028 40126 57010 70211 81130;
0161012780999992000051612004+63800+011570FM-12+005299999V0201301N001012200019N0550001N1+02151+01241101111ADDAY111061AY211061GF101991001001999999001021MA1999999100151MD1710131+9999MW1021REMSYN072AAXX  16124 01278 41985 11302 10215 20124 30015 40111 57013 70211 80002;
0214012780999992000051618004+63800+011570FM-12+005299999V0202701N000519999999N0300001N1+02221+01081100851ADDAA199000091AY111061AY211061GF107991011001999999041021KA1999M+02431MA1999999099891MD1710191+9999MW1031REMSYN082AAXX  16184 01278 31980 72701 10222 20108 39989 40085 57019 70311 81042 333 10243;EQDQ01  00002PRCP99
0214012780999992000051706004+63800+011570FM-12+005299999V0202301N000510300019N0300001N1+01641+01181100421ADDAA199000091AY121061AY221061GF108991031081017501031021KA1999N+01091MA1999999099451MD1710151+9999MW1021REMSYN082AAXX  17064 01278 31780 82301 10164 20118 39945 40042 57015 70222 83832 333 20109;EQDQ01  00002PRCP99
0161012780999992000051709004+63800+011570FM-12+005299999V0201501N003110300019N0250001N1+02201+01291100211ADDAY121031AY221031GF107991011081017501031021MA1999999099261MD1710191+9999MW1021REMSYN072AAXX  17094 01278 41775 71506 10220 20129 39926 40021 57019 70222 81832;
0161012780999992000051712004+63800+011570FM-12+005299999V0201501N003110750019N0250001N1+02421+01361100061ADDAY121061AY221061GF105991011011017501031021MA1999999099121MD1710141+9999MW1021REMSYN072AAXX  17124 01278 41775 51506 10242 20136 39912 40006 57014 70222 81132;
0201012780999992000051718004+63800+011570FM-12+005299999V0201501N004610300019N0300001N1+02141+00941099571ADDAA112000791AY181061AY221061GF107991011081017501071021KA1999M+02521MA1999999098621MD1710341+9999MW1021REMSYN088AAXX  17184 01278 11780 71509 10214 20094 39862 49957 57034 69902 70282 81872 333 10252;
0161012780999992000051809004+63800+011570FM-12+005299999V0201501N003112200019N0750001N1+01541+00821099801ADDAY101031AY201031GF103991011081012501001021MA1999999098831MD1210091+9999MW1021REMSYN072AAXX  18094 01278 41689 31506 10154 20082 39883 49980 52009 70200 81802;
0161012780999992000051812004+63800+011570FM-12+005299999V0201501N002112200019N0550001N1+01711+00721099811ADDAY101061AY201061GF102991021021017501001021MA1999999098851MD1210021+9999MW1021REMSYN072AAXX  18124 01278 41785 21504 10171 20072 39885 49981 52002 70200 82202;
0214012780999992000051818004+63800+011570FM-12+005299999V0201501N003112200019N0550001N1+01581+00691099871ADDAA199000091AY101061AY201061GF103991021091017501001021KA1999M+01811MA1999999098901MD1210011+9999MW1021REMSYN082AAXX  18184 01278 31785 31506 10158 20069 39890 49987 52001 70200 82902 333 10181;EQDQ01  00002PRCP99
0214012780999992000051906004+63800+011570FM-12+005299999V0201201N001012200019N0550001N1+01181+00631100141ADDAA199000091AY111061AY211061GF104991011001999999041021KA1999N+00921MA1999999099151MD1210021+9999MW1021REMSYN082AAXX  19064 01278 31985 41202 10118 20063 39915 40014 52002 70211 81042 333 20092;EQDQ01  00002PRCP99
0161012780999992000051909004+63800+011570FM-12+005299999V0201501N004612200019N0300001N1+01471+00841100091ADDAY121031AY221031GF104991011081017501041021MA1999999099111MD1710041+9999MW1021REMSYN072AAXX  19094 01278 41780 41509 10147 20084 39911 40009 57004 70222 81842;
0161012780999992000051912004+63800+011570FM-12+005299999V0201501N004610180019N0300001N1+01551+00891100051ADDAY121061AY221061GF107991051081017501071999MA1999999099071MD1710041+9999MW1021REMSYN072AAXX  19124 01278 41780 71509 10155 20089 39907 40005 57004 70222 8587/;
0201012780999992000051918004+63800+011570FM-12+005299999V0201501N004610300019N0550001N1+01451+00871100011ADDAA112000791AY181061AY221061GF105991041081017501061021KA1999M+01611MA1999999099031MD1610041+9999MW1021REMSYN088AAXX  19184 01278 11785 51509 10145 20087 39903 40001 56004 69902 70282 84862 333 10161;
0214012780999992000052006004+63800+011570FM-12+005299999V0201001N000512200019N0300001N1+00901+00811100421ADDAA199000091AY111061AY211061GF101991011081017501001001KA1999N+00581MA1999999099421MD1210111+9999MW1021REMSYN082AAXX  20064 01278 31780 11001 10090 20081 39942 40042 52011 70211 81800 333 20058;EQDQ01  00002PRCP99
0161012780999992000052009004+63800+011570FM-12+005299999V0203001N002110180019N0550001N1+01171+00841100471ADDAY111031AY211031GF107991071081017501999999MA1999999099481MD1210061+9999MW1031REMSYN072AAXX  20094 01278 41785 73004 10117 20084 39948 40047 52006 70311 878//;
0161012780999992000052012004+63800+011570FM-12+005299999V0203001N002110150019N0550001N1+01231+00951100661ADDAY111061AY211061GF105991051081012501061011MA1999999099671MD1210191+9999MW1021REMSYN072AAXX  20124 01278 41685 53004 10123 20095 39967 40066 52019 70211 85861;
0214012780999992000052018004+63800+011570FM-12+005299999V0203201N003110300019N0550001N1+01201+00771100731ADDAA199000091AY121061AY221061GF106991031081017501031021KA1999M+01321MA1999999099741MD1210061+9999MW1021REMSYN082AAXX  20184 01278 31785 63206 10120 20077 39974 40073 52006 70222 83832 333 10132;EQDQ01  00002PRCP99
0214012780999992000052106004+63800+011570FM-12+005299999V0203401N001010120019N0300001N1+00771+00771100951ADDAA199000091AY121061AY221061GF106991061081008001999999KA1999N+00601MA1999999099941MD1210011+9999MW1021REMSYN082AAXX  21064 01278 31580 63402 10077 20077 39994 40095 52001 70222 868// 333 20060;EQDQ01  00002PRCP99
0161012780999992000052109004+63800+011570FM-12+005299999V0209999C000010120019N0300001N1+01001+00621100941ADDAY121031AY221031GF107991061091012501061999MA1999999099941MD1410001+9999MW1021REMSYN072AAXX  21094 01278 41680 70000 10100 20062 39994 40094 54000 70222 8696/;
0161012780999992000052112004+63800+011570FM-12+005299999V0209999C000010180019N0550001N1+01111+00701100891ADDAY121061AY221061GF107991071081017501999999MA1999999099891MD1710051+9999MW1021REMSYN072AAXX  21124 01278 41785 70000 10111 20070 39989 40089 57005 70222 878//;
0214012780999992000052118004+63800+011570FM-12+005299999V0209999C000010150019N0300001N1+01101+00691100781ADDAA199000091AY121061AY221061GF105991051081012501001011KA1999M+01291MA1999999099781MD1710071+9999MW1021REMSYN082AAXX  21184 01278 31680 50000 10110 20069 39978 40078 57007 70222 85801 333 10129;EQDQ01  00002PRCP99
0214012780999992000052206004+63800+011570FM-12+005299999V0201101N001012200019N0550001N1+00681+00621100731ADDAA199000091AY111061AY211061GF101991011051017501001021KA1999N+00191MA1999999099721MD1410001+9999MW1021REMSYN082AAXX  22064 01278 31785 11102 10068 20062 39972 40073 54000 70211 81502 333 20019;EQDQ01  00002PRCP99
0161012780999992000052209004+63800+011570FM-12+005299999V0201201N000512200019N0550001N1+01471+00711100631ADDAY101031AY201031GF102991001001999999001021MA1999999099651MD1710071+9999MW1021REMSYN072AAXX  22094 01278 41985 21201 10147 20071 39965 40063 57007 70200 80002;
0161012780999992000052212004+63800+011570FM-12+005299999V0202901N000510750019N0550001N1+01781+00841100621ADDAY111061AY211061GF105991021021017501001021MA1999999099651MD1410001+9999MW1031REMSYN072AAXX  22124 01278 41785 52901 10178 20084 39965 40062 54000 70311 82202;
0214012780999992000052218004+63800+011570FM-12+005299999V0201301N002110150019N0750001N1+01511+00721100671ADDAA199000091AY121061AY221061GF107991071091017501999999KA1999M+01851MA1999999099691MD1210061+9999MW1021REMSYN082AAXX  22184 01278 31789 71304 10151 20072 39969 40067 52006 70222 879// 333 10185;EQDQ01  00002PRCP99
0201012780999992000052306004+63800+011570FM-12+005299999V0203301N001010300019N0300001N1+00901+00811101161ADDAA112000391AY181061AY221061GF107991031081017501071021KA1999N+00791MA1999999100151MD1210101+9999MW1021REMSYN088AAXX  23064 01278 11780 73302 10090 20081 30015 40116 52010 69932 70282 83872 333 20079;
0161012780999992000052309004+63800+011570FM-12+005299999V0203001N001010150019N0550001N1+01011+00691101111ADDAY121031AY221031GF107991061081012501071999MA1999999100111MD1710041+9999MW1021REMSYN072AAXX  23094 01278 41685 73002 10101 20069 30011 40111 57004 70222 8687/;
0161012780999992000052312004+63800+011570FM-12+005299999V0203401N001010300019N0550001N1+01381+00791101061ADDAY121061AY221061GF107991041081017501031021MA1999999100071MD1710041+9999MW1021REMSYN072AAXX  23124 01278 41785 73402 10138 20079 30007 40106 57004 70222 84832;
0214012780999992000052318004+63800+011570FM-12+005299999V0201101N002112200019N0550001N1+01351+00821100891ADDAA199000091AY111061AY211061GF101991011081017501001021KA1999M+01591MA1999999099901MD1710111+9999MW1011REMSYN082AAXX  23184 01278 31785 11104 10135 20082 39990 40089 57011 70111 81802 333 10159;EQDQ01  00002PRCP99
0214012780999992000052406004+63800+011570FM-12+005299999V0201101N003110300019N0300001N1+01171+00761100171ADDAA199000091AY111061AY211061GF107991011081017501041021KA1999N+00931MA1999999099181MD1710221+9999MW1021REMSYN082AAXX  24064 01278 31780 71106 10117 20076 39918 40017 57022 70211 81842 333 20093;EQDQ01  00002PRCP99
0161012780999992000052409004+63800+011570FM-12+005299999V0201301N003110300019N0300001N1+01241+00531100041ADDAY121031AY221031GF107991021081017501071021MA1999999099051MD1710131+9999MW1161REMSYN072AAXX  24094 01278 41780 71306 10124 20053 39905 40004 57013 71622 82872;
0161012780999992000052412004+63800+011570FM-12+005299999V0201101N003110180019N0750001N1+01271+00781099941ADDAY161061AY221061GF108991051081017501021999MA1999999098961MD1710091+9999MW1021REMSYN072AAXX  24124 01278 41789 81106 10127 20078 39896 49994 57009 70262 8582/;
0201012780999992000052418004+63800+011570FM-12+005299999V0209999C000010300019N0100001N1+01031+01031100211ADDAA112003091AY161061AY221061GF108991011071001501021999KA1999M+01491MA1999999099221MD1210161+9999MW1611REMSYN088AAXX  24184 01278 11260 80000 10103 20103 39922 40021 52016 60032 76162 8172/ 333 10149;
0201012780999992000052506004+63800+011570FM-12+005299999V0203201N001010042019N0300001N1+00701+00681100591ADDAA112004191AY181061AY261061GF107991051091004501021999KA1999N+00641MA1999999099581MD1210051+9999MW1831REMSYN088AAXX  25064 01278 11480 73202 10070 20068 39958 40059 52005 60042 78386 8592/ 333 20064;
0161012780999992000052509004+63800+011570FM-12+005299999V0202701N003110075019N0300001N1+00871+00731100061ADDAY181031AY221031GF107991061091008001061999MA1999999099621MD1210041+9999MW1151REMSYN072AAXX  25094 01278 41580 72706 10087 20073 39962 40006 52004 71582 8696/;
0180012780999992000052512004+63800+011570FM-12+005299999V0202701N002110075019N0250001N1+01071+00651100672ADDAY181061AY221061GF107991061091008001061999MA1999999099671MD1210051+9999MW1151REMSYN072AAXX  25124 01278 41575 72704 10107 20065 39967 40067 52005 71582 8696/;EQDQ01+100673APOSLP
0201012780999992000052518004+63800+011570FM-12+005299999V0202701N001012200019N0300001N1+01291+00611100631ADDAA112002091AY181061AY211061GF103991031081017501061001KA1999M+01301MA1999999099641MD1710011+9999MW1011REMSYN088AAXX  25184 01278 11780 32702 10129 20061 39964 40063 57001 60022 70181 83860 333 10130;
0214012780999992000052606004+63800+011570FM-12+005299999V0209999C000010300019N0300001N1+00511+00511100361ADDAA199000091AY111061AY211061GF106991011041012501011021KA1999N+00211MA1999999099351MD1710071+9999MW1031REMSYN082AAXX  26064 01278 31680 60000 10051 20051 39935 40036 57007 70311 81412 333 20021;EQDQ01  00002PRCP99
0161012780999992000052609004+63800+011570FM-12+005299999V0203201N002110120019N0300001N1+00861+00551100341ADDAY121031AY221031GF107991061081008001021999MA1999999099341MD1710011+9999MW1031REMSYN072AAXX  26094 01278 41580 73204 10086 20055 39934 40034 57001 70322 8682/;
0161012780999992000052612004+63800+011570FM-12+005299999V0203401N003110075019N0550001N1+00961+00471100341ADDAY181061AY221061GF107991061091008001021021MA1999999099341MD1410001+9999MW1021REMSYN072AAXX  26124 01278 41585 73406 10096 20047 39934 40034 54000 70282 86922;
0201012780999992000052618004+63800+011570FM-12+005299999V0202801N004610120019N0300001N1+00951+00421100571ADDAA112000791AY181061AY221061GF107991051091012501071021KA1999M+01121MA1999999099571MD1210121+9999MW1021REMSYN088AAXX  26184 01278 11680 72809 10095 20042 39957 40057 52012 69902 70282 85972 333 10112;
0184012780999992000052706004+63800+011570FM-12+005299999V0203401N002110042019N0300001N1+00751+00751100901ADDAY181061AY221061GF107991071091004501999999KA1999N+00671MA1999999099891MD1210041+9999MW1801REMSYN082AAXX  27064 01278 11480 73404 10075 20075 39989 40090 52004 78082 879// 333 20067;
0161012780999992000052709004+63800+011570FM-12+005299999V0203301N002110150019N0550001N1+00981+00741100961ADDAY181031AY221031GF107991071081012501999999MA1999999099961MD1210071+9999MW1021REMSYN072AAXX  27094 01278 41685 73304 10098 20074 39996 40096 52007 70282 878//;
0161012780999992000052712004+63800+011570FM-12+005299999V0201601N002112200019N0550001N1+01411+00581100771ADDAY181061AY211061GF103991021021012501001021MA1999999099791MD1710171+9999MW1011REMSYN072AAXX  27124 01278 41685 31604 10141 20058 39979 40077 57017 70181 82202;
0201012780999992000052718004+63800+011570FM-12+005299999V0201201N004610300019N0550001N1+01451+00391100191ADDAA112000791AY111061AY211061GF108991021081017501021999KA1999M+01551MA1999999099211MD1710401+9999MW1021REMSYN088AAXX  27184 01278 11785 81209 10145 20039 39921 40019 57040 69902 70211 8282/ 333 10155;
0214012780999992000052806004+63800+011570FM-12+005299999V0201501N004610300019N0750001N1+01121+00591099021ADDAA199000091AY121061AY221061GF107991031081012501071021KA1999N+00821MA1999999098041MD1710251+9999MW1021REMSYN082AAXX  28064 01278 31689 71509 10112 20059 39804 49902 57025 70222 83872 333 20082;EQDQ01  00002PRCP99
0161012780999992000052809004+63800+011570FM-12+005299999V0201501N004610750019N0750001N1+01281+00601099011ADDAY121031AY221031GF105991031081012501001021MA1999999098031MD1510011+9999MW1011REMSYN072AAXX  28094 01278 41689 51509 10128 20060 39803 49901 55001 70122 83802;
0161012780999992000052812004+63800+011570FM-12+005299999V0201601N007710750019N0550001N1+01601+00591099111ADDAY121061AY221061GF105991021081017501071021MA1999999098151MD1210121+9999MW1021REMSYN072AAXX  28124 01278 41785 51615 10160 20059 39815 49911 52012 70222 82872;
0201012780999992000052818004+63800+011570FM-12+005299999V0201501N004612200019N0750001N1+01561+00641099371ADDAA112000391AY181061AY221061GF104991031091017501001011KA1999M+01711MA1999999098401MD1110051+9999MW1021REMSYN088AAXX  28184 01278 11789 41509 10156 20064 39840 49937 51005 69932 70282 83901 333 10171;
0214012780999992000052906004+63800+011570FM-12+005299999V0203301N000512200019N0300001N1+00901+00741100181ADDAA199000091AY111061AY211061GF103991031081012501001001KA1999N+00871MA1999999099181MD1210151+9999MW1021REMSYN082AAXX  29064 01278 31680 33301 10090 20074 39918 40018 52015 70211 83800 333 20087;EQDQ01  00002PRCP99
0161012780999992000052909004+63800+011570FM-12+005299999V0203301N000512200019N0300001N1+01191+00661100151ADDAY101031AY201031GF103991021081017501001021MA1999999099161MD1710021+9999MW1021REMSYN072AAXX  29094 01278 41780 33301 10119 20066 39916 40015 57002 70200 82802;
0161012780999992000052912004+63800+011570FM-12+005299999V0200901N001010180019N0550001N1+01371+00741099951ADDAY111061AY211061GF107991071081017501999999MA1999999098971MD1710191+9999MW1021REMSYN072AAXX  29124 01278 41785 70902 10137 20074 39897 49995 57019 70211 878//;
0201012780999992000052918004+63800+011570FM-12+005299999V0203301N000510120019N0300001N1+00841+00841099871ADDAA112006191AY161061AY221061GF107991051081008001021999KA1999M+01441MA1999999098871MD1710021+9999MW1601REMSYN088AAXX  29184 01278 11580 73301 10084 20084 39887 49987 57002 60062 76062 8582/ 333 10144;
0201012780999992000053006004+63800+011570FM-12+005299999V0202901N002110012019N0100001N1+00571+00571100061ADDAA112002091AY161061AY221061GF108991071071001501021999KA1999N+00571MA1999999099051MD1210201+9999MW1601REMSYN088AAXX  30064 01278 11260 82904 10057 20057 39905 40006 52020 60022 76062 8772/ 333 20057;
0161012780999992000053009004+63800+011570FM-12+005299999V0202901N001010042019N0300001N1+00691+00691100181ADDAY161031AY221031GF108991051071004501021999MA1999999099171MD1210121+9999MW1601REMSYN072AAXX  30094 01278 41480 82902 10069 20069 39917 40018 52012 76062 8572/;
0161012780999992000053012004+63800+011570FM-12+005299999V0202801N001010090019N0250001N1+00841+99999100261ADDAY161061AY251061GF108991071081004501021999MA1999999099621MD1210091+9999MW1151REMSYN072AAXX  30124 01278 41475 82802 10084 20090 39962 40026 52009 71565 8782/;
0201012780999992000053018004+63800+011570FM-12+005299999V0202901N003110120019N0300001N1+00861+00301100471ADDAA112001091AY121061AY221061GF107991051091012501061021KA1999M+01061MA1999999099471MD1210121+9999MW1021REMSYN088AAXX  30184 01278 11680 72906 10086 20030 39947 40047 52012 60012 70222 85962 333 10106;
0201012780999992000053106004+63800+011570FM-12+005299999V0202601N001010042019N0550001N1+00571+00561100741ADDAA112000791AY181061AY221061GF107991051091004501061021KA1999N+00431MA1999999099721MD1210051+9999MW1801REMSYN088AAXX  31064 01278 11485 72602 10057 20056 39972 40074 52005 69902 78082 85962 333 20043;
0161012780999992000053109004+63800+011570FM-12+005299999V0202901N002110120019N0750001N1+00901+00511100771ADDAY181031AY221031GF106991051081008001001011MA1999999099771MD1210051+9999MW1011REMSYN072AAXX  31094 01278 41589 62904 10090 20051 39977 40077 52005 70182 85801;
0161012780999992000053112004+63800+011570FM-12+005299999V0202801N001012200019N0750001N1+01131+00381100811ADDAY181061AY221061GF102991021021017501001021MA1999999099811MD1210041+9999MW1011REMSYN072AAXX  31124 01278 41789 22802 10113 20038 39981 40081 52004 70182 82202;
0201012780999992000053118004+63800+011570FM-12+005299999V0202801N004610120019N0300001N1+01331+00651100971ADDAA112000791AY181061AY221061GF106991051091012501061021KA1999M+01331MA1999999099971MD1210141+9999MW1021REMSYN088AAXX  31184 01278 11680 62809 10133 20065 39997 40097 52014 69902 70282 85962 333 10133;
0201012780999992000060106004+63800+011570FM-12+005299999V0209999C000010120019N0550001N1+00601+00511101451ADDAA112000191AY181061AY211061GF106991051091012501061021KA1999N+00371MA1999999100431MD1210051+9999MW1021REMSYN088AAXX  01064 01278 11685 60000 10060 20051 30043 40145 52005 69912 70281 85962 333 20037;
0161012780999992000060109004+63800+011570FM-12+005299999V0202901N000512200019N0550001N1+00901+00371101441ADDAY111031AY211031GF103991031021012501001021MA1999999100431MD1410001+9999MW1011REMSYN072AAXX  01094 01278 41685 32901 10090 20037 30043 40144 54000 70111 83202;
0161012780999992000060112004+63800+011570FM-12+005299999V0200201N000512200019N0750001N1+01161+00151101361ADDAY111061AY211061GF102991021021017501001021MA1999999100361MD1710071+9999MW1021REMSYN072AAXX  01124 01278 41789 20201 10116 20015 30036 40136 57007 70211 82202;
0214012780999992000060118004+63800+011570FM-12+005299999V0201501N002110750019N0550001N1+01541+00041101001ADDAA199000091AY111061AY211061GF105991011021017501001021KA1999M+01601MA1999999100011MD1710201+9999MW1021REMSYN082AAXX  01184 01278 31785 51504 10154 20004 30001 40100 57020 70211 81202 333 10160;EQDQ01  00002PRCP99
0214012780999992000060206004+63800+011570FM-12+005299999V0201401N004610300019N0750001N1+01121+00541100231ADDAA199000091AY121061AY221061GF107991011081012501071021KA1999N+01051MA1999999099241MD1710251+9999MW1021REMSYN082AAXX  02064 01278 31689 71409 10112 20054 39924 40023 57025 70222 81872 333 20105;EQDQ01  00002PRCP99
0161012780999992000060209004+63800+011570FM-12+005299999V0201501N004610300019N0750001N1+01291+00701100001ADDAY121031AY221031GF107991011081012501071021MA1999999099011MD1710231+9999MW1021REMSYN072AAXX  02094 01278 41689 71509 10129 20070 39901 40000 57023 70222 81872;
0161012780999992000060212004+63800+011570FM-12+005299999V0201501N004610120019N0750001N1+01371+00931099791ADDAY181061AY221061GF107991061091012501061031MA1999999098811MD1710201+9999MW1021REMSYN072AAXX  02124 01278 41689 71509 10137 20093 39881 49979 57020 70282 86963;
0201012780999992000060218004+63800+011570FM-12+005299999V0202801N003110075019N0250001N1+01061+01061099741ADDAA112000791AY181061AY221061GF107991071091008001999999KA1999M+01791MA1999999098751MD1510001+9999MW1801REMSYN088AAXX  02184 01278 11575 72806 10106 20106 39875 49974 55000 69902 78082 879// 333 10179;
0178012780999992000060306004+63800+011570FM-12+005299999V0203001N006210042019N0100001N1+00451+00441101771ADDAA112003091AY181061AY221061GF108991071091004501021999MA1999999100741MD1210141+9999MW1801REMSYN078AAXX  03064 01278 11460 83012 10045 20044 30074 40177 52014 60032 78082 8792/;
0161012780999992000060309004+63800+011570FM-12+005299999V0203001N006210042019N0300001N1+00571+00561101911ADDAY181031AY221031GF107991071091004501999999MA1999999100881MD1210141+9999MW1871REMSYN072AAXX  03094 01278 41480 73012 10057 20056 30088 40191 52014 78782 879//;
0161012780999992000060312004+63800+011570FM-12+005299999V0203001N004610042019N0300001N1+00551+00521102141ADDAY181061AY221061GF107991071091004501999999MA1999999101111MD1210221+9999MW1871REMSYN072AAXX  03124 01278 41480 73009 10055 20052 30111 40214 52022 78782 879//;
0184012780999992000060318004+63800+011570FM-12+005299999V0203001N004610042019N0250001N1+00361+00361101491ADDAY181061AY221061GF107991071091004501999999KA1999M+00651MA1999999100461MD1210151+9999MW1801REMSYN082AAXX  03184 01278 11475 73009 10036 20036 30046 40149 52015 78082 879// 333 10065;
0201012780999992000060406004+63800+011570FM-12+005299999V0203201N006210042019N0300001N1+00521+00511102021ADDAA112000391AY181061AY221061GF107991071091004501999999KA1999N+00331MA1999999100991MD1210131+9999MW1021REMSYN088AAXX  04064 01278 11480 73212 10052 20051 30099 40202 52013 69932 70282 879// 333 20033;
0161012780999992000060409004+63800+011570FM-12+005299999V0202901N004610042019N0300001N1+00501+00491102181ADDAY181031AY221031GF107991071091004501999999MA1999999101151MD1210161+9999MW1801REMSYN072AAXX  04094 01278 41480 72909 10050 20049 30115 40218 52016 78082 879//;
0161012780999992000060412004+63800+011570FM-12+005299999V0203201N006210042019N0300001N1+00701+00431102281ADDAY181061AY221061GF107991071091004501999999MA1999999101251MD1110101+9999MW1021REMSYN072AAXX  04124 01278 41480 73212 10070 20043 30125 40228 51010 70282 879//;
0201012780999992000060418004+63800+011570FM-12+005299999V0202901N004610120019N0300001N1+00661+00131102421ADDAA112001091AY181061AY221061GF107991071091012501999999KA1999M+00761MA1999999101391MD1210041+9999MW1021REMSYN088AAXX  04184 01278 11680 72909 10066 20013 30139 40242 52004 60012 70282 879// 333 10076;
0214012780999992000060506004+63800+011570FM-12+005299999V0203001N000510150019N0300001N1+00481+00411102501ADDAA199000091AY121061AY221061GF107991071081012501999999KA1999N+00321MA1999999101461MD1510011+9999MW1021REMSYN082AAXX  05064 01278 31680 73001 10048 20041 30146 40250 55001 70222 878// 333 20032;EQDQ01  00002PRCP99
0161012780999992000060509004+63800+011570FM-12+005299999V0202801N002110120019N0300001N1+00651+00391102471ADDAY121031AY221031GF107991071091012501999999MA1999999101441MD1710021+9999MW1151REMSYN072AAXX  05094 01278 41680 72804 10065 20039 30144 40247 57002 71522 879//;
0161012780999992000060512004+63800+011570FM-12+005299999V0203301N001010120019N0300001N1+00711+00541102471ADDAY181061AY221061GF107991071091012501999999MA1999999101441MD1410001+9999MW1811REMSYN072AAXX  05124 01278 41680 73302 10071 20054 30144 40247 54000 78182 879//;
0201012780999992000060518004+63800+011570FM-12+005299999V0200901N000510120019N0300001N1+00761+00671102411ADDAA112002091AY181061AY221061GF107991071091012501999999KA1999M+00951MA1999999101381MD1410001+9999MW1801REMSYN088AAXX  05184 01278 11680 70901 10076 20067 30138 40241 54000 60022 78082 879// 333 10095;
0211012780999992000060606004+63800+011570FM-12+005299999V0200901N001012200019N0550001N1+00421+00421102231ADDAA112000191AY181061AY211061GA1001+999999999GF100991001001999999001001KA1999N+00021MA1999999101191MD1710101+9999MW1021REMSYN082AAXX  06064 01278 11985 00902 10042 20042 30119 40223 57010 69912 70281 333 20002;
0161012780999992000060609004+63800+011570FM-12+005299999V0201501N000512200019N0550001N1+01101+00441102111ADDAY101031AY201031GF101991011011012501001001MA1999999101101MD1710091+9999MW1021REMSYN072AAXX  06094 01278 41685 11501 10110 20044 30110 40211 57009 70200 81100;
0161012780999992000060612004+63800+011570FM-12+005299999V0201501N002112200019N0550001N1+01511+00391101921ADDAY101061AY201061GF101991011011017501001001MA1999999100931MD1710171+9999MW1021REMSYN072AAXX  06124 01278 41785 11504 10151 20039 30093 40192 57017 70200 81100;
0214012780999992000060618004+63800+011570FM-12+005299999V0209999C000012200019N0550001N1+01821+00361101551ADDAA199000091AY101061AY201061GF101991011021012501001001KA1999M+01841MA1999999100571MD1710211+9999MW1021REMSYN082AAXX  06184 01278 31685 10000 10182 20036 30057 40155 57021 70200 81200 333 10184;EQDQ01  00002PRCP99
0214012780999992000060706004+63800+011570FM-12+005299999V0201601N001012200019N0750001N1+01051+00861101341ADDAA199000091AY101061AY201061GF101991011041022501001021KA1999N+00691MA1999999100341MD1710101+9999MW1021REMSYN082AAXX  07064 01278 31889 11602 10105 20086 30034 40134 57010 70200 81402 333 20069;EQDQ01  00002PRCP99
0161012780999992000060709004+63800+011570FM-12+005299999V0202701N001012200019N0650001N1+01641+00911101191ADDAY101031AY201031GF102991011021017501001021MA1999999100211MD1710131+9999MW1021REMSYN072AAXX  07094 01278 41787 22702 10164 20091 30021 40119 57013 70200 81202;
0161012780999992000060712004+63800+011570FM-12+005299999V0203001N001010180019N0750001N1+01501+00811101141ADDAY111061AY211061GF107991071081017501999999MA1999999100151MD1710061+9999MW1031REMSYN072AAXX  07124 01278 41789 73002 10150 20081 30015 40114 57006 70311 878//;
0214012780999992000060718004+63800+011570FM-12+005299999V0203401N002112200019N0550001N1+01631+00811100971ADDAA199000091AY111061AY211061GF103991021091017501031001KA1999M+01841MA1999999099991MD1410001+9999MW1011REMSYN082AAXX  07184 01278 31785 33404 10163 20081 39999 40097 54000 70111 82930 333 10184;EQDQ01  00002PRCP99
0201012780999992000060806004+63800+011570FM-12+005299999V0203001N002110075019N0300001N1+00771+00681101531ADDAA112000791AY181061AY211061GF108991081091008001999999KA1999N+00571MA1999999100511MD1210101+9999MW1801REMSYN088AAXX  08064 01278 11580 83004 10077 20068 30051 40153 52010 69902 78081 889// 333 20057;
0161012780999992000060809004+63800+011570FM-12+005299999V0203201N002110042019N0300001N1+00801+00791101591ADDAY181031AY221031GF107991071091004501999999MA1999999100571MD1210061+9999MW1151REMSYN072AAXX  08094 01278 41480 73204 10080 20079 30057 40159 52006 71582 879//;
0161012780999992000060812004+63800+011570FM-12+005299999V0202801N003110120019N0750001N1+01041+00621101621ADDAY181061AY221061GF107991071091012501999999MA1999999100621MD1210041+9999MW1151REMSYN072AAXX  08124 01278 41689 72806 10104 20062 30062 40162 52004 71582 879//;
0201012780999992000060818004+63800+011570FM-12+005299999V0203201N004610075019N0750001N1+00851+00591101761ADDAA112000591AY181061AY221061GF107991071091008001999999KA1999M+01201MA1999999100741MD1210091+9999MW1021REMSYN088AAXX  08184 01278 11589 73209 10085 20059 30074 40176 52009 69952 70282 879// 333 10120;
0214012780999992000060906004+63800+011570FM-12+005299999V0209999C000010150019N0750001N1+00701+00691102061ADDAA199000091AY121061AY221061GF106991061051017501999999KA1999N+00561MA1999999101031MD1210091+9999MW1021REMSYN082AAXX  09064 01278 31789 60000 10070 20069 30103 40206 52009 70222 865// 333 20056;EQDQ01  00002PRCP99
0161012780999992000060909004+63800+011570FM-12+005299999V0202901N001012200019N0750001N1+01021+00471101991ADDAY121031AY221031GF105991011011012501001011MA1999999100981MD1710051+9999MW1021REMSYN072AAXX  09094 01278 41689 52902 10102 20047 30098 40199 57005 70222 81101;
0161012780999992000060912004+63800+011570FM-12+005299999V0203301N002119999999N0550001N1+01241+00611101961ADDAY121061AY221061GF108991001001999999001071MA1999999100961MD1710021+9999MW1021REMSYN072AAXX  09124 01278 41985 83304 10124 20061 30096 40196 57002 70222 80007;
0214012780999992000060918004+63800+011570FM-12+005299999V0209999C000012200019N0750001N1+01781+00611101701ADDAA199000091AY111061AY211061GF101991001001999999001021KA1999M+01801MA1999999100721MD1710151+9999MW1011REMSYN082AAXX  09184 01278 31989 10000 10178 20061 30072 40170 57015 70111 80002 333 10180;EQDQ01  00002PRCP99
0214012780999992000061006004+63800+011570FM-12+005299999V0201401N004610300019N0550001N1+01771+00601100751ADDAA199000091AY111061AY211061GF107991031081017501071021KA1999N+00941MA1999999099811MD1710301+9999MW1021REMSYN082AAXX  10064 01278 31785 71409 10177 20060 39981 40075 57030 70211 83872 333 20094;EQDQ01  00002PRCP99
0161012780999992000061009004+63800+011570FM-12+005299999V0201301N003110180019N0250001N1+01661+01071100681ADDAY181031AY221031GF108991061081017501071999MA1999999099701MD1710111+9999MW1021REMSYN072AAXX  10094 01278 41775 81306 10166 20107 39970 40068 57011 70282 8687/;
0161012780999992000061012004+63800+011570FM-12+005299999V0209999C000010300019N0100001N1+01531+01471100561ADDAY181061AY221061GF108991031071017501021999MA1999999099581MD1710121+9999MW1611REMSYN072AAXX  10124 01278 41760 80000 10153 20147 39958 40056 57012 76182 8372/;
0201012780999992000061018004+63800+011570FM-12+005299999V0202901N003110090019N0300001N1+01261+01131100731ADDAA112000891AY161061AY221061GF108991081081004501999999KA1999M+02011MA1999999099741MD1210371+9999MW1021REMSYN088AAXX  10184 01278 11480 82906 10126 20113 39974 40073 52037 69982 70262 888// 333 10201;
0201012780999992000061106004+63800+011570FM-12+005299999V0201101N000510150019N0750001N1+01001+01001100871ADDAA112000191AY181061AY221061GF107991061051017501021999KA1999N+00891MA1999999099871MD1710131+9999MW1021REMSYN088AAXX  11064 01278 11789 71101 10100 20100 39987 40087 57013 69922 70282 8652/ 333 20089;
0161012780999992000061109004+63800+011570FM-12+005299999V0201201N001010180019N0300001N1+01281+00941100671ADDAY121031AY221031GF107991051081017501071999MA1999999099681MD1710191+9999MW1021REMSYN072AAXX  11094 01278 41780 71202 10128 20094 39968 40067 57019 70222 8587/;
0161012780999992000061112004+63800+011570FM-12+005299999V0201001N002110180019N0550001N1+01581+00961100221ADDAY121061AY221061GF106991051081017501071021MA1999999099241MD1710441+9999MW1011REMSYN072AAXX  11124 01278 41785 61004 10158 20096 39924 40022 57044 70122 85872;
0214012780999992000061118004+63800+011570FM-12+005299999V0202901N002112200019N0300001N1+01841+01101099861ADDAA199000091AY191061AY211061GF103991021091017501061021KA1999M+01871MA1999999098901MD1610061+9999MW1021REMSYN082AAXX  11184 01278 31780 32904 10184 20110 39890 49986 56006 70291 82962 333 10187;EQDQ01  00002PRCP99
0201012780999992000061206004+63800+011570FM-12+005299999V0201501N001010300019N0300001N1+00901+00901100191ADDAA112002091AY191061AY281061GF106991031081017501071021KA1999N+00671MA1999999099191MD1710021+9999MW1021REMSYN088AAXX  12064 01278 11780 61502 10090 20090 39919 40019 57002 60022 70298 83872 333 20067;
0161012780999992000061209004+63800+011570FM-12+005299999V0202901N003110150019N0750001N1+01251+00671100171ADDAY121031AY221031GF107991051081012501071999MA1999999099181MD1710011+9999MW1021REMSYN072AAXX  12094 01278 41689 72906 10125 20067 39918 40017 57001 70222 8587/;
0161012780999992000061212004+63800+011570FM-12+005299999V0202801N003110120019N0250001N1+01101+00771100361ADDAY181061AY221061GF108991071091012501021999MA1999999099371MD1210191+9999MW1801REMSYN072AAXX  12124 01278 41675 82806 10110 20077 39937 40036 52019 78082 8792/;
0201012780999992000061218004+63800+011570FM-12+005299999V0202801N002110075019N0300001N1+00951+00951100731ADDAA112003091AY181061AY221061GF108991081091008001999999KA1999M+01411MA1999999099731MD1210151+9999MW1801REMSYN088AAXX  12184 01278 11580 82804 10095 20095 39973 40073 52015 60032 78082 889// 333 10141;
0201012780999992000061306004+63800+011570FM-12+005299999V0201001N002110300019N0300001N1+00931+00871099951ADDAA112001091AY161061AY221061GF108991011081017501021999KA1999N+00621MA1999999098961MD1710301+9999MW1601REMSYN088AAXX  13064 01278 11780 81004 10093 20087 39896 49995 57030 60012 76062 8182/ 333 20062;
0161012780999992000061309004+63800+011570FM-12+005299999V0201001N000510300019N0130001N1+01101+01101099751ADDAY161031AY221031GF108991041081008001021999MA1999999098761MD1710201+9999MW1621REMSYN072AAXX  13094 01278 41563 81001 10110 20110 39876 49975 57020 76262 8482/;
0161012780999992000061312004+63800+011570FM-12+005299999V0201001N001010300019N0060001N1+01171+01171099451ADDAY161061AY221061GF108991031081000251021999MA1999999098471MD1710291+9999MW1611REMSYN072AAXX  13124 01278 41056 81002 10117 20117 39847 49945 57029 76162 8382/;
0201012780999992000061318004+63800+011570FM-12+005299999V0201501N002110150019N0300001N1+01461+00801099011ADDAA112009991AY191061AY281061GF107991061091017501061031KA1999M+01461MA1999999098041MD1710301+9999MW1021REMSYN088AAXX  13184 01278 11780 71504 10146 20080 39804 49901 57030 60102 70298 86963 333 10146;
0195012780999992000061406004+63800+011570FM-12+005299999V0202701N004610042019N0050001N1+00651+99999099751ADDAA112007991AY181061AY221061GF108991081091004501999999KA1999N+00601MA1999999098751MD1210191+9999MW1801REMSYN082AAXX  14064 01278 11450 82709 10065 39875 49975 52019 60082 78082 889// 333 20060;
0161012780999992000061409004+63800+011570FM-12+005299999V0202801N004610075019N0250001N1+00771+00361099971ADDAY181031AY221031GF108991081091008001999999MA1999999098971MD1210221+9999MW1801REMSYN072AAXX  14094 01278 41575 82809 10077 20036 39897 49997 52022 78082 889//;
0161012780999992000061412004+63800+011570FM-12+005299999V0202801N007710075019N0250001N1+00761+00601100301ADDAY181061AY221061GF108991081091008001999999MA1999999099291MD1210321+9999MW1801REMSYN072AAXX  14124 01278 41575 82815 10076 20060 39929 40030 52032 78082 889//;
0201012780999992000061418004+63800+011570FM-12+005299999V0202901N003110075019N0150001N1+00711+00651100561ADDAA112002091AY181061AY221061GF108991081091008001999999KA1999M+00821MA1999999099551MD1210011+9999MW1801REMSYN088AAXX  14184 01278 11565 82906 10071 20065 39955 40056 52001 60022 78082 889// 333 10082;
0201012780999992000061506004+63800+011570FM-12+005299999V0202701N002110042019N0200001N1+00591+00591100561ADDAA112002091AY181061AY221061GF108991071091004501021999KA1999N+00541MA1999999099541MD1210081+9999MW1801REMSYN088AAXX  15064 01278 11470 82704 10059 20059 39954 40056 52008 60022 78082 8792/ 333 20054;
0161012780999992000061509004+63800+011570FM-12+005299999V0202701N003110042019N0300001N1+00671+00661100601ADDAY181031AY221031GF108991071091004501021999MA1999999099591MD1210051+9999MW1801REMSYN072AAXX  15094 01278 41480 82706 10067 20066 39959 40060 52005 78082 8792/;
0161012780999992000061512004+63800+011570FM-12+005299999V0202801N003110042019N0100001N1+00671+00671100711ADDAY181061AY221061GF108991081091004501999999MA1999999099701MD1210111+9999MW1801REMSYN072AAXX  15124 01278 41460 82806 10067 20067 39970 40071 52011 78082 889//;
0201012780999992000061518004+63800+011570FM-12+005299999V0203201N002110042019N0250001N1+00721+00721100881ADDAA112010991AY181061AY221061GF108991071091004501021999KA1999M+00761MA1999999099871MD1210061+9999MW1801REMSYN088AAXX  15184 01278 11475 83204 10072 20072 39987 40088 52006 60112 78082 8792/ 333 10076;
0201012780999992000061606004+63800+011570FM-12+005299999V0203301N001010060019N0300001N1+00661+00661101391ADDAA112006191AY181061AY221061GF107991051081002501071999KA1999N+00621MA1999999100371MD1210301+9999MW1021REMSYN088AAXX  16064 01278 11380 73302 10066 20066 30037 40139 52030 60062 70282 8587/ 333 20062;
0161012780999992000061609004+63800+011570FM-12+005299999V0203201N003110042019N0300001N1+00731+00721101631ADDAY181031AY221031GF107991061091004501071999MA1999999100611MD1210241+9999MW1021REMSYN072AAXX  16094 01278 41480 73206 10073 20072 30061 40163 52024 70282 8697/;
0161012780999992000061612004+63800+011570FM-12+005299999V0203301N004610075019N0300001N1+00701+00531101871ADDAY181061AY221061GF107991071091008001999999MA1999999100851MD1210241+9999MW1801REMSYN072AAXX  16124 01278 41580 73309 10070 20053 30085 40187 52024 78082 879//;
0201012780999992000061618004+63800+011570FM-12+005299999V0203201N003110042019N0300001N1+00721+00651102211ADDAA112000591AY181061AY221061GF107991071091004501999999KA1999M+01001MA1999999101181MD1210171+9999MW1801REMSYN088AAXX  16184 01278 11480 73206 10072 20065 30118 40221 52017 69952 78082 879// 333 10100;
0201012780999992000061706004+63800+011570FM-12+005299999V0202901N002110042019N0550001N1+00601+00591102601ADDAA112000391AY181061AY221061GF107991071091004501999999KA1999N+00421MA1999999101561MD1210051+9999MW1021REMSYN088AAXX  17064 01278 11485 72904 10060 20059 30156 40260 52005 69932 70282 879// 333 20042;
0161012780999992000061709004+63800+011570FM-12+005299999V0202901N002110120019N0550001N1+00781+00421102631ADDAY181031AY221031GF107991071091012501999999MA1999999101601MD1210041+9999MW1021REMSYN072AAXX  17094 01278 41685 72904 10078 20042 30160 40263 52004 70282 879//;
0161012780999992000061712004+63800+011570FM-12+005299999V0202801N002110042019N0550001N1+00911+00591102631ADDAY181061AY221061GF107991071091004501999999MA1999999101611MD1210011+9999MW1811REMSYN072AAXX  17124 01278 41485 72804 10091 20059 30161 40263 52001 78182 879//;
0214012780999992000061806004+63800+011570FM-12+005299999V0201201N003119999999N0550001N1+01021+00301101541ADDAA199000091AY111061AY211061GF108991081001999999011999KA1999N+00301MA1999999100531MD1710341+9999MW1031REMSYN082AAXX  18064 01278 31985 81206 10102 20030 30053 40154 57034 70311 8801/ 333 20030;EQDQ01  00002PRCP99
0161012780999992000061809004+63800+011570FM-12+005299999V0201201N001010300019N0250001N1+01071+00761101531ADDAY161031AY221031GF108991011081017501021999MA1999999100521MD1710011+9999MW1601REMSYN072AAXX  18094 01278 41775 81202 10107 20076 30052 40153 57001 76062 8182/;
0161012780999992000061812004+63800+011570FM-12+005299999V0201201N000510300019N0100001N1+01031+01031101431ADDAY161061AY221061GF108991031081008001021999MA1999999100431MD1710091+9999MW1611REMSYN072AAXX  18124 01278 41560 81201 10103 20103 30043 40143 57009 76162 8382/;
0201012780999992000061818004+63800+011570FM-12+005299999V0202901N003110042019N0200001N1+01121+01121101601ADDAA112002091AY161061AY251061GF108991081071004501999999KA1999M+01241MA1999999100591MD1210101+9999MW1021REMSYN088AAXX  18184 01278 11470 82906 10112 20112 30059 40160 52010 60022 70265 887// 333 10124;
0201012780999992000061906004+63800+011570FM-12+005299999V0201301N001010300019N0150001N1+00851+00851101221ADDAA112000191AY161061AY221061GF108991041071012501021999KA1999N+00591MA1999999100211MD1710401+9999MW1611REMSYN088AAXX  19064 01278 11665 81302 10085 20085 30021 40122 57040 69912 76162 8472/ 333 20059;
0161012780999992000061909004+63800+011570FM-12+005299999V0201301N000510300019N0270001N1+01171+01161100781ADDAY161031AY221031GF108991031071008001021999MA1999999099781MD1710431+9999MW1611REMSYN072AAXX  19094 01278 41577 81301 10117 20116 39978 40078 57043 76162 8372/;
0161012780999992000061912004+63800+011570FM-12+005299999V0201501N002110300019N0270001N1+01441+01301100591ADDAY161061AY221061GF108991011081012501071999MA1999999099611MD1710171+9999MW1601REMSYN072AAXX  19124 01278 41677 81504 10144 20130 39961 40059 57017 76062 8187/;
0201012780999992000061918004+63800+011570FM-12+005299999V0202901N002110075019N0300001N1+01251+01041100841ADDAA112001091AY181061AY221061GF108991081091008001999999KA1999M+01721MA1999999099851MD1210271+9999MW1021REMSYN088AAXX  19184 01278 11580 82904 10125 20104 39985 40084 52027 60012 70282 889// 333 10172;
0201012780999992000062006004+63800+011570FM-12+005299999V0203201N001010042019N0100001N1+00921+00921101221ADDAA112001091AY181061AY221061GF107991061091004501021999KA1999N+00861MA1999999100211MD1210151+9999MW1801REMSYN088AAXX  20064 01278 11460 73202 10092 20092 30021 40122 52015 69992 78082 8692/ 333 20086;
0161012780999992000062009004+63800+011570FM-12+005299999V0202901N001010075019N0200001N1+01071+01041101331ADDAY181031AY221031GF107991071091008001999999MA1999999100331MD1210121+9999MW1021REMSYN072AAXX  20094 01278 41570 72902 10107 20104 30033 40133 52012 70282 879//;
0161012780999992000062012004+63800+011570FM-12+005299999V0202901N002110120019N0300001N1+01241+00921101361ADDAY181061AY221061GF105991051091012501999999MA1999999100361MD1210031+9999MW1011REMSYN072AAXX  20124 01278 41680 52904 10124 20092 30036 40136 52003 70182 859//;
0201012780999992000062018004+63800+011570FM-12+005299999V0203101N001010300019N0300001N1+01381+00811101351ADDAA112001091AY121061AY221061GF106991031081012501061021KA1999M+01521MA1999999100361MD1710011+9999MW1021REMSYN088AAXX  20184 01278 11680 63102 10138 20081 30036 40135 57001 60012 70222 83862 333 10152;
0214012780999992000062106004+63800+011570FM-12+005299999V0201301N001010300019N0300001N1+01161+00971100851ADDAA199000091AY111061AY211061GF107991011081017501071999KA1999N+00761MA1999999099851MD1710201+9999MW1021REMSYN082AAXX  21064 01278 31780 71302 10116 20097 39985 40085 57020 70211 8187/ 333 20076;EQDQ01  00002PRCP99
0161012780999992000062109004+63800+011570FM-12+005299999V0203301N000510300019N0300001N1+01221+01181100841ADDAY121031AY221031GF108991011081017501021999MA1999999099851MD1410001+9999MW1151REMSYN072AAXX  21094 01278 41780 83301 10122 20118 39985 40084 54000 71522 8182/;
0161012780999992000062112004+63800+011570FM-12+005299999V0202801N001010300019N0300001N1+01671+01511100801ADDAY161061AY221061GF107991041081017501071021MA1999999099821MD1710031+9999MW1021REMSYN072AAXX  21124 01278 41780 72802 10167 20151 39982 40080 57003 70262 84872;
0201012780999992000062118004+63800+011570FM-12+005299999V0209999C000010300019N0100001N1+01511+01511100551ADDAA112002091AY161061AY221061GF108991011071002501021999KA1999M+02001MA1999999099571MD1610051+9999MW1611REMSYN088AAXX  21184 01278 11360 80000 10151 20151 39957 40055 56005 60022 76162 8172/ 333 10200;
0201012780999992000062206004+63800+011570FM-12+005299999V0201201N000510300019N0200001N1+01631+01621100151ADDAA112000591AY181061AY241061GF107991041081012501041021KA1999N+01151MA1999999099181MD1710111+9999MW1401REMSYN088AAXX  22064 01278 11670 71201 10163 20162 39918 40015 57011 69962 74084 84842 333 20115;
0161012780999992000062209004+63800+011570FM-12+005299999V0203001N002110006019N0070001N1+01531+01531100291ADDAY161031AY221031GF108991071061000751071999MA1999999099311MD1210131+9999MW1021REMSYN072AAXX  22094 01278 41157 83004 10153 20153 39931 40029 52013 70262 8767/;
0161012780999992000062212004+63800+011570FM-12+005299999V0202801N002110090019N0300001N1+01601+01521100451ADDAY161061AY221061GF108991081081004501999999MA1999999099481MD1210171+9999MW1021REMSYN072AAXX  22124 01278 41480 82804 10160 20152 39948 40045 52017 70262 888//;
0201012780999992000062218004+63800+011570FM-12+005299999V0203201N000510300019N0100001N1+01361+01361100461ADDAA112002091AY181061AY221061GF107991041091000751071999KA1999M+01701MA1999999099481MD1710011+9999MW1801REMSYN088AAXX  22184 01278 11160 73201 10136 20136 39948 40046 57001 60022 78082 8497/ 333 10170;
0201012780999992000062306004+63800+011570FM-12+005299999V0203301N001010003019N0050001N1+01151+01151100391ADDAA112004191AY181061AY261061GF108991071071000251021999KA1999N+01091MA1999999099401MD1410001+9999MW1021REMSYN088AAXX  23064 01278 11050 83302 10115 20115 39940 40039 54000 60042 70286 8772/ 333 20109;
0161012780999992000062309004+63800+011570FM-12+005299999V0203301N002110012019N0300001N1+01171+01161100481ADDAY161031AY221031GF108991081071001501999999MA1999999099491MD1210091+9999MW1021REMSYN072AAXX  23094 01278 41280 83304 10117 20116 39949 40048 52009 70262 887//;
0161012780999992000062312004+63800+011570FM-12+005299999V0202801N001010075019N0250001N1+01551+01171100551ADDAY161061AY221061GF107991061091008001061021MA1999999099571MD1210081+9999MW1021REMSYN072AAXX  23124 01278 41575 72802 10155 20117 39957 40055 52008 70262 86962;
0201012780999992000062318004+63800+011570FM-12+005299999V0203301N002110042019N0300001N1+01501+01221100571ADDAA112000591AY121061AY221061GF107991051091004501071999KA1999M+01661MA1999999099591MD1410001+9999MW1021REMSYN088AAXX  23184 01278 11480 73304 10150 20122 39959 40057 54000 69962 70222 8597/ 333 10166;
0201012780999992000062406004+63800+011570FM-12+005299999V0209999C000010060019N0300001N1+00851+00841100891ADDAA112001091AY181061AY221061GF108991081081002501999999KA1999N+00771MA1999999099881MD1210131+9999MW1021REMSYN088AAXX  24064 01278 11380 80000 10085 20084 39988 40089 52013 60012 70282 888// 333 20077;
0161012780999992000062409004+63800+011570FM-12+005299999V0202901N001010090019N0300001N1+01001+00861100931ADDAY121031AY221031GF107991071081004501999999MA1999999099931MD1210051+9999MW1021REMSYN072AAXX  24094 01278 41480 72902 10100 20086 39993 40093 52005 70222 878//;
0161012780999992000062412004+63800+011570FM-12+005299999V0202901N002110120019N0300001N1+01141+00931100971ADDAY121061AY221061GF108991081091012501999999MA1999999099971MD1210041+9999MW1021REMSYN072AAXX  24124 01278 41680 82904 10114 20093 39997 40097 52004 70222 889//;
0201012780999992000062418004+63800+011570FM-12+005299999V0203001N001010120019N0550001N1+01141+00951101021ADDAA112000791AY181061AY251061GF108991081081008001999999KA1999M+01301MA1999999100021MD1210051+9999MW1021REMSYN088AAXX  24184 01278 11585 83002 10114 20095 30002 40102 52005 69902 70285 888// 333 10130;
0201012780999992000062506004+63800+011570FM-12+005299999V0202801N000510042019N0550001N1+00951+00941101281ADDAA112000591AY161061AY251061GF107991051091004501071999KA1999N+00821MA1999999100271MD1210031+9999MW1021REMSYN088AAXX  25064 01278 11485 72801 10095 20094 30027 40128 52003 69942 70265 8597/ 333 20082;
0161012780999992000062509004+63800+011570FM-12+005299999V0203201N001010090019N0400001N1+01061+01021101311ADDAY121031AY221031GF108991081081004501999999MA1999999100311MD1210041+9999MW1021REMSYN072AAXX  25094 01278 41482 83202 10106 20102 30031 40131 52004 70222 888//;
0161012780999992000062512004+63800+011570FM-12+005299999V0203001N001010075019N0550001N1+01121+00991101331ADDAY181061AY221061GF108991061091008001071999MA1999999100331MD1210021+9999MW1801REMSYN072AAXX  25124 01278 41585 83002 10112 20099 30033 40133 52002 78082 8697/;
0201012780999992000062518004+63800+011570FM-12+005299999V0203201N001010120019N0750001N1+01101+00891101351ADDAA112000791AY181061AY221061GF107991071081008001999999KA1999M+01181MA1999999100351MD1410001+9999MW1021REMSYN088AAXX  25184 01278 11589 73202 10110 20089 30035 40135 54000 69902 70282 878// 333 10118;
0214012780999992000062606004+63800+011570FM-12+005299999V0203301N002110090019N0750001N1+00931+00801101431ADDAA199000091AY121061AY221061GF107991071081004501999999KA1999N+00721MA1999999100421MD1410001+9999MW1021REMSYN082AAXX  26064 01278 31489 73304 10093 20080 30042 40143 54000 70222 878// 333 20072;EQDQ01  00002PRCP99
0161012780999992000062609004+63800+011570FM-12+005299999V0203301N002110090019N0750001N1+00901+00741101431ADDAY121031AY221031GF108991081081004501999999MA1999999100421MD1410001+9999MW1151REMSYN072AAXX  26094 01278 41489 83304 10090 20074 30042 40143 54000 71522 888//;
0161012780999992000062612004+63800+011570FM-12+005299999V0203301N003110042019N0300001N1+00931+00861101451ADDAY181061AY221061GF108991081091004501999999MA1999999100441MD1210021+9999MW1801REMSYN072AAXX  26124 01278 41480 83306 10093 20086 30044 40145 52002 78082 889//;
0201012780999992000062618004+63800+011570FM-12+005299999V0203101N003110075019N0550001N1+00901+00691101381ADDAA112000791AY181061AY221061GF108991081051008001999999KA1999M+01021MA1999999100371MD1710061+9999MW1021REMSYN088AAXX  26184 01278 11585 83106 10090 20069 30037 40138 57006 69902 70282 885// 333 10102;
0201012780999992000062706004+63800+011570FM-12+005299999V0203001N003110012019N0050001N1+00641+00641101111ADDAA112015091AY161061AY221061GF108991071071001501021999KA1999N+00601MA1999999100091MD1710181+9999MW1631REMSYN088AAXX  27064 01278 11250 83006 10064 20064 30009 40111 57018 60152 76362 8772/ 333 20060;
0161012780999992000062709004+63800+011570FM-12+005299999V0202801N003110012019N0060001N1+00671+00671100971ADDAY161031AY261031GF108991071071001501021999MA1999999099961MD1710131+9999MW1631REMSYN072AAXX  27094 01278 41256 82806 10067 20067 39996 40097 57013 76366 8772/;
0180012780999992000062712004+63800+011570FM-12+005299999V0202801N003110006019N0050001N1+00781+00781100921ADDAY161061AY261061GF108991999071000751021999MA1999999099911MD1710051+9999MW1631REMSYN072AAXX  27124 01278 41150 82806 10078 20078 39991 40092 57005 76366 8872/;EQDQ01+000082SCOTLC
0201012780999992000062718004+63800+011570FM-12+005299999V0203201N002110006019N0040001N1+00851+00851100921ADDAA112020191AY161061AY251061GF108991081071000751999999KA1999M+00871MA1999999099911MD1210041+9999MW1581REMSYN088AAXX  27184 01278 11140 83204 10085 20085 39991 40092 52004 60202 75865 887// 333 10087;
0201012780999992000062806004+63800+011570FM-12+005299999V0202901N001010006019N0070001N1+00911+00911100861ADDAA112007991AY161061AY221061GF108991071071000751021999KA1999N+00821MA1999999099861MD1710021+9999MW1601REMSYN088AAXX  28064 01278 11157 82902 10091 20091 39986 40086 57002 60082 76062 8772/ 333 20082;
0161012780999992000062809004+63800+011570FM-12+005299999V0202701N002110060019N0300001N1+01011+01011100991ADDAY161031AY251031GF108991081081001501999999MA1999999099991MD1210131+9999MW1161REMSYN072AAXX  28094 01278 41280 82704 10101 20101 39999 40099 52013 71665 888//;
0161012780999992000062812004+63800+011570FM-12+005299999V0202801N003110090019N0250001N1+01111+01101101171ADDAY161061AY251061GF108991081081004501999999MA1999999100171MD1210181+9999MW1151REMSYN072AAXX  28124 01278 41475 82806 10111 20110 30017 40117 52018 71565 888//;
0201012780999992000062818004+63800+011570FM-12+005299999V0203201N001010090019N0300001N1+01161+01131101481ADDAA112000191AY121061AY221061GF108991081081004501999999KA1999M+01241MA1999999100481MD1210121+9999MW1021REMSYN088AAXX  28184 01278 11480 83202 10116 20113 30048 40148 52012 69912 70222 888// 333 10124;
0201012780999992000062906004+63800+011570FM-12+005299999V0203301N001010090019N0550001N1+00951+00951101911ADDAA112000191AY161061AY251061GF108991081081004501999999KA1999N+00871MA1999999100901MD1210091+9999MW1021REMSYN088AAXX  29064 01278 11485 83302 10095 20095 30090 40191 52009 69912 70265 888// 333 20087;
0161012780999992000062909004+63800+011570FM-12+005299999V0202801N002110090019N0550001N1+01031+00961102001ADDAY121031AY221031GF108991081081004501999999MA1999999100991MD1210091+9999MW1021REMSYN072AAXX  29094 01278 41485 82804 10103 20096 30099 40200 52009 70222 888//;
0161012780999992000062912004+63800+011570FM-12+005299999V0202701N002110090019N0550001N1+01181+01011102021ADDAY121061AY221061GF108991081081004501999999MA1999999101011MD1210021+9999MW1021REMSYN072AAXX  29124 01278 41485 82704 10118 20101 30101 40202 52002 70222 888//;
0214012780999992000062918004+63800+011570FM-12+005299999V0203201N003110090019N0300001N1+01181+01071101931ADDAA199000091AY121061AY221061GF108991081081004501999999KA1999M+01321MA1999999100921MD1710051+9999MW1021REMSYN082AAXX  29184 01278 31480 83206 10118 20107 30092 40193 57005 70222 888// 333 10132;EQDQ01  00002PRCP99
0201012780999992000063006004+63800+011570FM-12+005299999V0202801N001010012019N0300001N1+00971+00971101761ADDAA112000791AY151061AY221061GF108991081061001501999999KA1999N+00881MA1999999100751MD1710101+9999MW1501REMSYN088AAXX  30064 01278 11280 82802 10097 20097 30075 40176 57010 69902 75052 886// 333 20088;
0161012780999992000063009004+63800+011570FM-12+005299999V0202801N000510012019N0300001N1+01021+01021101761ADDAY151031AY221031GF108991081061001501999999MA1999999100751MD1410001+9999MW1021REMSYN072AAXX  30094 01278 41280 82801 10102 20102 30075 40176 54000 70252 886//;
0161012780999992000063012004+63800+011570FM-12+005299999V0202801N001010090019N0250001N1+01271+01231101631ADDAY151061AY221061GF107991071081004501999999MA1999999100631MD1710121+9999MW1021REMSYN072AAXX  30124 01278 41475 72802 10127 20123 30063 40163 57012 70252 878//;
0201012780999992000063018004+63800+011570FM-12+005299999V0202801N002110300019N0300001N1+01721+01451101321ADDAA112000791AY111061AY211061GF106991021081017501071021KA1999M+01861MA1999999100341MD1710131+9999MW1031REMSYN088AAXX  30184 01278 11780 62804 10172 20145 30034 40132 57013 69902 70311 82872 333 10186;
0214012780999992000070106004+63800+011570FM-12+005299999V0202801N000512200019N0200001N1+01311+01311101201ADDAA199000091AY111061AY211061GF104991011081017501001021KA1999N+01031MA1999999100211MD1710041+9999MW1021REMSYN082AAXX  01064 01278 31770 42801 10131 20131 30021 40120 57004 70211 81802 333 20103;EQDQ01  00002PRCP99
0161012780999992000070109004+63800+011570FM-12+005299999V0202801N000510180019N0200001N1+01781+01721101121ADDAY111031AY211031GF106991061081017501999999MA1999999100141MD1710071+9999MW1031REMSYN072AAXX  01094 01278 41770 62801 10178 20172 30014 40112 57007 70311 868//;
0161012780999992000070112004+63800+011570FM-12+005299999V0201301N003112200019N0200001N1+02281+01751101061ADDAY111061AY211061GF104991021081012501041021MA1999999100101MD1710041+9999MW1021REMSYN072AAXX  01124 01278 41670 41306 10228 20175 30010 40106 57004 70211 82842;
0214012780999992000070118004+63800+011570FM-12+005299999V0201401N002112200019N0200001N1+02331+01651101031ADDAA199000091AY111061AY211061GF104991031081017501031021KA1999M+02501MA1999999100071MD1210011+9999MW1021REMSYN082AAXX  01184 01278 31770 41404 10233 20165 30007 40103 52001 70211 83832 333 10250;EQDQ01  00002PRCP99
0214012780999992000070206004+63800+011570FM-12+005299999V0201201N002112200019N0300001N1+01691+01491101191ADDAA199000091AY111061AY211061GF104991021081017501031021KA1999N+01451MA1999999100211MD1210011+9999MW1021REMSYN082AAXX  02064 01278 31780 41204 10169 20149 30021 40119 52001 70211 82832 333 20145;EQDQ01  00002PRCP99
0161012780999992000070209004+63800+011570FM-12+005299999V0201101N001012200019N0550001N1+02051+01441101161ADDAY111031AY211031GF103991011011017501031021MA1999999100191MD1710021+9999MW1021REMSYN072AAXX  02094 01278 41785 31102 10205 20144 30019 40116 57002 70211 81132;
0161012780999992000070212004+63800+011570FM-12+005299999V0203001N002112200019N0550001N1+02311+01551101101ADDAY111061AY211061GF104991011021017501071021MA1999999100141MD1710051+9999MW1031REMSYN072AAXX  02124 01278 41785 43004 10231 20155 30014 40110 57005 70311 81272;
0214012780999992000070218004+63800+011570FM-12+005299999V0202901N002110120019N0200001N1+01941+01741101131ADDAA199000091AY121061AY221061GF107991071081008001999999KA1999M+02451MA1999999100161MD1210091+9999MW1021REMSYN082AAXX  02184 01278 31570 72904 10194 20174 30016 40113 52009 70222 878// 333 10245;EQDQ01  00002PRCP99
0201012780999992000070306004+63800+011570FM-12+005299999V0202801N001010006019N0070001N1+01051+01051101261ADDAA112000591AY181061AY261061GF108991081061000751999999KA1999N+01041MA1999999100261MD1710051+9999MW1021REMSYN088AAXX  03064 01278 11157 82802 10105 20105 30026 40126 57005 69962 70286 886// 333 20104;
0161012780999992000070309004+63800+011570FM-12+005299999V0202801N001010003019N0040001N1+01101+01101101241ADDAY151031AY221031GF108991081061000251999999MA1999999100241MD1710021+9999MW1511REMSYN072AAXX  03094 01278 41040 82802 10110 20110 30024 40124 57002 75152 886//;
0161012780999992000070312004+63800+011570FM-12+005299999V0202901N001010060019N0300001N1+01201+01201101231ADDAY151061AY221061GF108991081081002501999999MA1999999100231MD1710011+9999MW1011REMSYN072AAXX  03124 01278 41380 82902 10120 20120 30023 40123 57001 70152 888//;
0201012780999992000070318004+63800+011570FM-12+005299999V0202901N002110150019N0300001N1+01391+01111101111ADDAA112000191AY121061AY221061GF107991071081012501999999KA1999M+01581MA1999999100121MD1710071+9999MW1021REMSYN088AAXX  03184 01278 11680 72904 10139 20111 30012 40111 57007 69912 70222 878// 333 10158;
0214012780999992000070406004+63800+011570FM-12+005299999V0202201N000510042019N0150001N1+00931+00921101191ADDAA199000091AY121061AY221061GF108991071071004501021999KA1999N+00881MA1999999100181MD1410001+9999MW1021REMSYN082AAXX  04064 01278 31465 82201 10093 20092 30018 40119 54000 70222 8772/ 333 20088;EQDQ01  00002PRCP99
0161012780999992000070409004+63800+011570FM-12+005299999V0203001N000510060019N0300001N1+01041+00901101201ADDAY121031AY221031GF107991061081002501071999MA1999999100201MD1210021+9999MW1021REMSYN072AAXX  04094 01278 41380 73001 10104 20090 30020 40120 52002 70222 8687/;
0161012780999992000070412004+63800+011570FM-12+005299999V0202801N002110150019N0300001N1+01191+00811101211ADDAY121061AY221061GF107991071081012501999999MA1999999100211MD1210011+9999MW1021REMSYN072AAXX  04124 01278 41680 72804 10119 20081 30021 40121 52001 70222 878//;
0214012780999992000070418004+63800+011570FM-12+005299999V0203301N002110150019N0300001N1+01211+00741101221ADDAA199000091AY121061AY221061GF107991071081012501999999KA1999M+01301MA1999999100221MD1510001+9999MW1021REMSYN082AAXX  04184 01278 31680 73304 10121 20074 30022 40122 55000 70222 878// 333 10130;EQDQ01  00002PRCP99
0214012780999992000070506004+63800+011570FM-12+005299999V0201301N001012200019N0550001N1+00691+00681101391ADDAA199000091AY111061AY211061GF102991021081017501001001KA1999N+00341MA1999999100371MD1410001+9999MW1021REMSYN082AAXX  05064 01278 31785 21302 10069 20068 30037 40139 54000 70211 82800 333 20034;EQDQ01  00002PRCP99
0161012780999992000070509004+63800+011570FM-12+005299999V0202901N001010180019N0750001N1+01051+00521101351ADDAY111031AY211031GF107991071081017501999999MA1999999100341MD1710031+9999MW1031REMSYN072AAXX  05094 01278 41789 72902 10105 20052 30034 40135 57003 70311 878//;
0161012780999992000070512004+63800+011570FM-12+005299999V0202901N001012200019N0750001N1+01331+00551101271ADDAY111061AY211061GF101991011011012501001021MA1999999100281MD1710061+9999MW1011REMSYN072AAXX  05124 01278 41689 12902 10133 20055 30028 40127 57006 70111 81102;
0214012780999992000070518004+63800+011570FM-12+005299999V0203201N003112200019N0550001N1+01431+00671101161ADDAA199000091AY101061AY201061GF101991011081017501031021KA1999M+01501MA1999999100171MD1710071+9999MW1021REMSYN082AAXX  05184 01278 31785 13206 10143 20067 30017 40116 57007 70200 81832 333 10150;EQDQ01  00002PRCP99
0214012780999992000070606004+63800+011570FM-12+005299999V0209999C000012200019N0550001N1+00561+00561101461ADDAA199000091AY101061AY201061GF101991011011012501081021KA1999N+00261MA1999999100441MD1210041+9999MW1021REMSYN082AAXX  06064 01278 31685 10000 10056 20056 30044 40146 52004 70200 81182 333 20026;EQDQ01  00002PRCP99
0161012780999992000070609004+63800+011570FM-12+005299999V0203301N002112200019N0750001N1+01091+00601101391ADDAY101031AY201031GF101991011011012501001021MA1999999100391MD1710051+9999MW1021REMSYN072AAXX  06094 01278 41689 13304 10109 20060 30039 40139 57005 70200 81102;
0161012780999992000070612004+63800+011570FM-12+005299999V0202801N001012200019N0750001N1+01421+00791101301ADDAY101061AY201061GF103991021081012501001011MA1999999100311MD1710081+9999MW1031REMSYN072AAXX  06124 01278 41689 32802 10142 20079 30031 40130 57008 70300 82801;
0201012780999992000070618004+63800+011570FM-12+005299999V0202701N002110300019N0550001N1+01271+00861101181ADDAA112000791AY161061AY221061GF107991021081017501071999KA1999M+01561MA1999999100181MD1710071+9999MW1021REMSYN088AAXX  06184 01278 11785 72704 10127 20086 30018 40118 57007 69902 70262 8287/ 333 10156;
0201012780999992000070706004+63800+011570FM-12+005299999V0203001N001010012019N0100001N1+00621+00621101081ADDAA112018091AY161061AY221061GF108991071071001501021999KA1999N+00591MA1999999100061MD1710081+9999MW1611REMSYN088AAXX  07064 01278 11260 83002 10062 20062 30006 40108 57008 60182 76162 8772/ 333 20059;
0161012780999992000070709004+63800+011570FM-12+005299999V0203001N001010012019N0040001N1+00661+00661100991ADDAY161031AY261031GF108991071071001501021999MA1999999099981MD1710081+9999MW1611REMSYN072AAXX  07094 01278 41240 83002 10066 20066 39998 40099 57008 76166 8772/;
0161012780999992000070712004+63800+011570FM-12+005299999V0202801N002110012019N0040001N1+00741+00741100911ADDAY161061AY251061GF108991071071001501021999MA1999999099901MD1710081+9999MW1501REMSYN072AAXX  07124 01278 41240 82804 10074 20074 39990 40091 57008 75065 8772/;
0201012780999992000070718004+63800+011570FM-12+005299999V0203001N002110042019N0100001N1+00841+00841100781ADDAA112008991AY181061AY261061GF108991061091004501021999KA1999M+00901MA1999999099771MD1710101+9999MW1801REMSYN088AAXX  07184 01278 11460 83004 10084 20084 39977 40078 57010 60092 78086 8692/ 333 10090;
0201012780999992000070806004+63800+011570FM-12+005299999V0203001N001010300019N0250001N1+00741+00741100481ADDAA112003091AY181061AY261061GF108991021071004501021999KA1999N+00671MA1999999099471MD1710111+9999MW1611REMSYN088AAXX  08064 01278 11475 83002 10074 20074 39947 40048 57011 60032 76186 8272/ 333 20067;
0161012780999992000070809004+63800+011570FM-12+005299999V0203101N002110012019N0250001N1+00841+00841100411ADDAY161031AY251031GF108991061071001501021999MA1999999099411MD1710061+9999MW1501REMSYN072AAXX  08094 01278 41275 83104 10084 20084 39941 40041 57006 75065 8672/;
0161012780999992000070812004+63800+011570FM-12+005299999V0202701N003110042019N0200001N1+00891+00891100381ADDAY161061AY251061GF108991081091004501999999MA1999999099381MD1710031+9999MW1801REMSYN072AAXX  08124 01278 41470 82706 10089 20089 39938 40038 57003 78065 889//;
0201012780999992000070818004+63800+011570FM-12+005299999V0202901N003110042019N0150001N1+00781+00781100381ADDAA112002091AY181061AY261061GF108991071071004501021999KA1999M+00911MA1999999099371MD1210021+9999MW1631REMSYN088AAXX  08184 01278 11465 82906 10078 20078 39937 40038 52002 60022 76386 8772/ 333 10091;
0201012780999992000070906004+63800+011570FM-12+005299999V0203001N001010042019N0300001N1+00741+00741100171ADDAA112003091AY181061AY261061GF107991071091004501999999KA1999N+00641MA1999999099161MD1610051+9999MW1021REMSYN088AAXX  09064 01278 11480 73002 10074 20074 39916 40017 56005 60032 70286 879// 333 20064;
0161012780999992000070909004+63800+011570FM-12+005299999V0202901N001010042019N0550001N1+00861+00821100171ADDAY121031AY221031GF107991071091004501999999MA1999999099171MD1210011+9999MW1801REMSYN072AAXX  09094 01278 41485 72902 10086 20082 39917 40017 52001 78022 879//;
0161012780999992000070912004+63800+011570FM-12+005299999V0202201N001010120019N0550001N1+01121+00671100141ADDAY181061AY221061GF106991061081008001999999MA1999999099151MD1710021+9999MW1011REMSYN072AAXX  09124 01278 41585 62202 10112 20067 39915 40014 57002 70182 868//;
0201012780999992000070918004+63800+011570FM-12+005299999V0203301N003112200019N0550001N1+01341+00751100051ADDAA112000791AY111061AY211061GF103991021081012501001011KA1999M+01471MA1999999099071MD1710041+9999MW1021REMSYN088AAXX  09184 01278 11685 33306 10134 20075 39907 40005 57004 69902 70211 82801 333 10147;
0214012780999992000071006004+63800+011570FM-12+005299999V0201501N000512200019N0550001N1+00921+00911100021ADDAA199000091AY111061AY211061GF101991011081017501001021KA1999N+00501MA1999999099021MD1710101+9999MW1021REMSYN082AAXX  10064 01278 31785 11501 10092 20091 39902 40002 57010 70211 81802 333 20050;EQDQ01  00002PRCP99
0161012780999992000071009004+63800+011570FM-12+005299999V0202801N001012200019N0750001N1+01401+01051099951ADDAY101031AY201031GF102991011021017501031011MA1999999098981MD1710041+9999MW1021REMSYN072AAXX  10094 01278 41789 22802 10140 20105 39898 49995 57004 70200 81231;
0161012780999992000071012004+63800+011570FM-12+005299999V0201501N001012200019N0550001N1+01661+00921099901ADDAY181061AY211061GF104991031091017501061031MA1999999098931MD1710051+9999MW1801REMSYN072AAXX  10124 01278 41785 41502 10166 20092 39893 49990 57005 78081 83963;
0201012780999992000071018004+63800+011570FM-12+005299999V0200101N001010300019N0550001N1+01681+00981099861ADDAA112000191AY181061AY211061GF105991041091017501061011KA1999M+01921MA1999999098881MD1010001+9999MW1021REMSYN088AAXX  10184 01278 11785 50102 10168 20098 39888 49986 50000 69912 70281 84961 333 10192;
0214012780999992000071106004+63800+011570FM-12+005299999V0201101N003110300019N0550001N1+01441+01161099981ADDAA199000091AY111061AY211061GF107991031081012501071999KA1999N+01171MA1999999099001MD1410001+9999MW1021REMSYN082AAXX  11064 01278 31685 71106 10144 20116 39900 49998 54000 70211 8387/ 333 20117;EQDQ01  00002PRCP99
0161012780999992000071109004+63800+011570FM-12+005299999V0201001N002110180019N0550001N1+01571+01221100091ADDAY121031AY221031GF108991051081017501071999MA1999999099111MD1210111+9999MW1021REMSYN072AAXX  11094 01278 41785 81004 10157 20122 39911 40009 52011 70222 8587/;
0161012780999992000071112004+63800+011570FM-12+005299999V0201101N003110120019N0550001N1+01721+01111100081ADDAY121061AY221061GF107991051091012501071999MA1999999099111MD1410001+9999MW1801REMSYN072AAXX  11124 01278 41685 71106 10172 20111 39911 40008 54000 78022 8597/;
0201012780999992000071118004+63800+011570FM-12+005299999V0201001N003110120019N0300001N1+01551+01161099951ADDAA112000791AY181061AY221061GF107991061081008001041011KA1999M+01801MA1999999098981MD1710111+9999MW1021REMSYN088AAXX  11184 01278 11580 71006 10155 20116 39898 49995 57011 69902 70282 86841 333 10180;
0214012780999992000071206004+63800+011570FM-12+005299999V0201001N001010300019N0550001N1+01511+01361099941ADDAA199000091AY121061AY221061GF107991011081017501071011KA1999N+01331MA1999999098971MD1210021+9999MW1021REMSYN082AAXX  12064 01278 31785 71002 10151 20136 39897 49994 52002 70222 81871 333 20133;EQDQ01  00002PRCP99
0161012780999992000071209004+63800+011570FM-12+005299999V0201501N001010120019N0300001N1+01561+01381099991ADDAY121031AY221031GF107991051091012501071999MA1999999099001MD1210031+9999MW1801REMSYN072AAXX  12094 01278 41680 71502 10156 20138 39900 49999 52003 78022 8597/;
0161012780999992000071212004+63800+011570FM-12+005299999V0202801N001010300019N0300001N1+01581+01481099981ADDAY181061AY221061GF107991041091012501071999MA1999999099001MD1410001+9999MW1151REMSYN072AAXX  12124 01278 41680 72802 10158 20148 39900 49998 54000 71582 8497/;
0201012780999992000071218004+63800+011570FM-12+005299999V0203001N002110300019N0300001N1+01641+01441100121ADDAA112001091AY191061AY281061GF107991041091017501061021KA1999M+01821MA1999999099151MD1210151+9999MW1021REMSYN088AAXX  12184 01278 11780 73004 10164 20144 39915 40012 52015 60012 70298 84962 333 10182;
0201012780999992000071306004+63800+011570FM-12+005299999V0202801N001010003019N0025001N1+01021+01021100371ADDAA112001091AY161061AY251061GF108991071061000251021999KA1999N+01001MA1999999099381MD1410001+9999MW1581REMSYN088AAXX  13064 01278 11025 82802 10102 20102 39938 40037 54000 60012 75865 8762/ 333 20100;
0161012780999992000071309004+63800+011570FM-12+005299999V0203001N001010012019N0300001N1+01031+01031100301ADDAY161031AY251031GF108991081071001501999999MA1999999099311MD1710071+9999MW1501REMSYN072AAXX  13094 01278 41280 83002 10103 20103 39931 40030 57007 75065 887//;
0161012780999992000071312004+63800+011570FM-12+005299999V0203001N001010060019N0750001N1+01211+01141100181ADDAY161061AY251061GF108991071081002501021999MA1999999099191MD1710121+9999MW1021REMSYN072AAXX  13124 01278 41389 83002 10121 20114 39919 40018 57012 70265 8782/;
0201012780999992000071318004+63800+011570FM-12+005299999V0202801N002110012019N0200001N1+00971+00971100021ADDAA112002091AY161061AY251061GF108991081071001501999999KA1999M+01231MA1999999099021MD1710121+9999MW1611REMSYN088AAXX  13184 01278 11270 82804 10097 20097 39902 40002 57012 60022 76165 887// 333 10123;
0201012780999992000071406004+63800+011570FM-12+005299999V0203001N001010300019N0040001N1+00901+00901099581ADDAA112011991AY161061AY221061GF108991041061000251021999KA1999N+00801MA1999999098581MD1710071+9999MW1631REMSYN088AAXX  14064 01278 11040 83002 10090 20090 39858 49958 57007 60122 76362 8462/ 333 20080;
0161012780999992000071409004+63800+011570FM-12+005299999V0202801N002110300019N0040001N1+00991+00991099581ADDAY161031AY251031GF108991041071002501021999MA1999999098591MD1210011+9999MW1591REMSYN072AAXX  14094 01278 41340 82804 10099 20099 39859 49958 52001 75965 8472/;
0161012780999992000071412004+63800+011570FM-12+005299999V0202701N002110021019N0120001N1+01161+01161099621ADDAY161061AY251061GF108991081071002501999999MA1999999098631MD1210041+9999MW1151REMSYN072AAXX  14124 01278 41362 82704 10116 20116 39863 49962 52004 71565 887//;
0201012780999992000071418004+63800+011570FM-12+005299999V0203001N002110042019N0300001N1+01131+01121099771ADDAA112006191AY121061AY221061GF108991071071004501021999KA1999M+01251MA1999999098781MD1210101+9999MW1151REMSYN088AAXX  14184 01278 11480 83004 10113 20112 39878 49977 52010 60062 71522 8772/ 333 10125;
0201012780999992000071506004+63800+011570FM-12+005299999V0202901N000510042019N0250001N1+01101+01101100531ADDAA112000191AY161061AY221061GF108991081071004501999999KA1999N+00981MA1999999099531MD1210291+9999MW1021REMSYN088AAXX  15064 01278 11475 82901 10110 20110 39953 40053 52029 69912 70262 887// 333 20098;
0161012780999992000071509004+63800+011570FM-12+005299999V0203001N001010042019N0270001N1+01251+01241100711ADDAY121031AY221031GF108991071071004501021999MA1999999099721MD1210191+9999MW1161REMSYN072AAXX  15094 01278 41477 83002 10125 20124 39972 40071 52019 71622 8772/;
0161012780999992000071512004+63800+011570FM-12+005299999V0203001N001010090019N0200001N1+01351+01341100951ADDAY121061AY221061GF108991071081004501071999MA1999999099961MD1210241+9999MW1021REMSYN072AAXX  15124 01278 41470 83002 10135 20134 39996 40095 52024 70222 8787/;
0184012780999992000071518004+63800+011570FM-12+005299999V0203001N001010060019N0200001N1+01301+01301101151ADDAY121061AY221061GF108991071081002501021999KA1999M+01461MA1999999100151MD1210111+9999MW1161REMSYN082AAXX  15184 01278 41370 83002 10130 20130 30015 40115 52011 71622 8782/ 333 10146;
0201012780999992000071606004+63800+011570FM-12+005299999V0203201N002110021019N0550001N1+01101+01101101321ADDAA112000191AY151061AY221061GF108991081061002501999999KA1999N+01061MA1999999100321MD1410001+9999MW1161REMSYN088AAXX  16064 01278 11385 83204 10110 20110 30032 40132 54000 69912 71652 886// 333 20106;
0161012780999992000071609004+63800+011570FM-12+005299999V0202901N002110021019N0550001N1+01151+01151101341ADDAY151031AY221031GF108991081061002501999999MA1999999100341MD1210021+9999MW1161REMSYN072AAXX  16094 01278 41385 82904 10115 20115 30034 40134 52002 71652 886//;
0161012780999992000071612004+63800+011570FM-12+005299999V0202801N002110042019N0300001N1+01201+01191101331ADDAY151061AY221061GF108991081071004501999999MA1999999100331MD1710011+9999MW1501REMSYN072AAXX  16124 01278 41480 82804 10120 20119 30033 40133 57001 75052 887//;
0201012780999992000071618004+63800+011570FM-12+005299999V0203001N001010042019N0300001N1+01181+01151101371ADDAA112000191AY181061AY251061GF108991071091004501021999KA1999M+01251MA1999999100371MD1410001+9999MW1801REMSYN088AAXX  16184 01278 11480 83002 10118 20115 30037 40137 54000 69912 78085 8792/ 333 10125;
0201012780999992000071706004+63800+011570FM-12+005299999V0202801N000510003019N0300001N1+01021+01021101461ADDAA112004191AY181061AY261061GF108991081091000251999999KA1999N+00951MA1999999100461MD1410001+9999MW1021REMSYN088AAXX  17064 01278 11080 82801 10102 20102 30046 40146 54000 60042 70286 889// 333 20095;
0161012780999992000071709004+63800+011570FM-12+005299999V0203001N001010090019N0300001N1+01101+01101101451ADDAY121031AY221031GF108991081081004501999999MA1999999100451MD1710011+9999MW1021REMSYN072AAXX  17094 01278 41480 83002 10110 20110 30045 40145 57001 70222 888//;
0161012780999992000071712004+63800+011570FM-12+005299999V0202801N000510090019N0300001N1+01191+01181101431ADDAY121061AY221061GF108991061081004501071999MA1999999100431MD1710021+9999MW1021REMSYN072AAXX  17124 01278 41480 82801 10119 20118 30043 40143 57002 70222 8687/;
0201012780999992000071718004+63800+011570FM-12+005299999V0202801N002110012019N0150001N1+01191+01191101371ADDAA112000791AY151061AY221061GF108991051071001501021999KA1999M+01251MA1999999100371MD1710031+9999MW1501REMSYN088AAXX  17184 01278 11265 82804 10119 20119 30037 40137 57003 69902 75052 8572/ 333 10125;
0211012780999992000071806004+63800+011570FM-12+005299999V0202801N000510003019N0003001N1+01101+01101101321ADDAA112000591AY161061AY241061GA1091+999999999GF109991091999999999999999KA1999N+01061MA1999999100321MD1410001+9999MW1511REMSYN082AAXX  18064 01278 11/03 92801 10110 20110 30032 40132 54000 69962 75164 333 20106;
0161012780999992000071809004+63800+011570FM-12+005299999V0202801N000510006019N0200001N1+01191+01191101301ADDAY151031AY241031GF108991081071000751999999MA1999999100301MD1710021+9999MW1021REMSYN072AAXX  18094 01278 41170 82801 10119 20119 30030 40130 57002 70254 887//;
0161012780999992000071812004+63800+011570FM-12+005299999V0202801N001010021019N0270001N1+01251+01251101241ADDAY151061AY241061GF108991081071002501999999MA1999999100241MD1710061+9999MW1021REMSYN072AAXX  18124 01278 41377 82802 10125 20125 30024 40124 57006 70254 887//;
0201012780999992000071818004+63800+011570FM-12+005299999V0203001N002110021019N0270001N1+01301+01301101151ADDAA112000791AY121061AY221061GF108991081071002501999999KA1999M+01331MA1999999100161MD1710081+9999MW1161REMSYN088AAXX  18184 01278 11377 83004 10130 20130 30016 40115 57008 69902 71622 887// 333 10133;
0195012780999992000071906004+63800+011570FM-12+005299999V0202901N000510003019N0030001N1+01111+99999101021ADDAA112002091AY161061AY251061GF108991081061000251999999KA1999N+01091MA1999999100021MD1710031+9999MW1511REMSYN082AAXX  19064 01278 11030 82901 10111 30002 40102 57003 60022 75165 886// 333 20109;
0155012780999992000071909004+63800+011570FM-12+005299999V0203001N001010003019N0040001N1+01121+99999101021ADDAY151031AY251031GF108991081061000251999999MA1999999100021MD1410001+9999MW1511REMSYN066AAXX  19094 01278 41040 83002 10112 30002 40102 54000 75155 886//;
0161012780999992000071912004+63800+011570FM-12+005299999V0202901N002110003019N0030001N1+01161+01161100981ADDAY151061AY251061GF108991081061000251999999MA1999999099981MD1710041+9999MW1531REMSYN072AAXX  19124 01278 41030 82904 10116 20116 39998 40098 57004 75355 886//;
0201012780999992000071918004+63800+011570FM-12+005299999V0202801N002110006019N0250001N1+01131+01131100891ADDAA112002091AY151061AY221061GF108991081061000751999999KA1999M+01201MA1999999099891MD1710051+9999MW1501REMSYN088AAXX  19184 01278 11175 82804 10113 20113 39989 40089 57005 60022 75052 886// 333 10120;
0201012780999992000072006004+63800+011570FM-12+005299999V0203001N002110300019N0035001N1+01071+01071101191ADDAA112025991AY161061AY251061GF108991031061000251021999KA1999N+01031MA1999999100191MD1210201+9999MW1631REMSYN088AAXX  20064 01278 11035 83004 10107 20107 30019 40119 52020 60262 76365 8362/ 333 20103;
0161012780999992000072009004+63800+011570FM-12+005299999V0202801N002110012019N0050001N1+01031+01031101421ADDAY161031AY221031GF108991051071001501021999MA1999999100421MD1210231+9999MW1601REMSYN072AAXX  20094 01278 41250 82804 10103 20103 30042 40142 52023 76062 8572/;
0161012780999992000072012004+63800+011570FM-12+005299999V0203201N001010090019N0550001N1+01161+01151101631ADDAY161061AY221061GF108991081081004501999999MA1999999100621MD1210201+9999MW1021REMSYN072AAXX  20124 01278 41485 83202 10116 20115 30062 40163 52020 70262 888//;
0201012780999992000072018004+63800+011570FM-12+005299999V0202801N002110042019N0300001N1+01181+01181101881ADDAA112003091AY181061AY221061GF108991071091004501021999KA1999M+01381MA1999999100871MD1210121+9999MW1801REMSYN088AAXX  20184 01278 11480 82804 10118 20118 30087 40188 52012 60032 78082 8792/ 333 10138;
0201012780999992000072106004+63800+011570FM-12+005299999V0201401N000512200019N0300001N1+00901+00901102381ADDAA112000191AY181061AY211061GF101991011081012501031011KA1999N+00741MA1999999101361MD1210111+9999MW1021REMSYN088AAXX  21064 01278 11680 11401 10090 20090 30136 40238 52011 69912 70281 81831 333 20074;
0161012780999992000072109004+63800+011570FM-12+005299999V0203201N001012200019N0300001N1+01321+00881102421ADDAY101031AY201031GF102991021011012501031011MA1999999101421MD1210061+9999MW1021REMSYN072AAXX  21094 01278 41680 23202 10132 20088 30142 40242 52006 70200 82131;
0161012780999992000072112004+63800+011570FM-12+005299999V0202801N002112200019N0550001N1+01581+00941102451ADDAY101061AY201061GF101991011011012501031001MA1999999101451MD1210031+9999MW1021REMSYN072AAXX  21124 01278 41685 12804 10158 20094 30145 40245 52003 70200 81130;
0214012780999992000072118004+63800+011570FM-12+005299999V0202801N001012200019N0550001N1+01861+00751102391ADDAA199000091AY101061AY201061GF101991011001022501031021KA1999M+01901MA1999999101411MD1710031+9999MW1021REMSYN082AAXX  21184 01278 31885 12802 10186 20075 30141 40239 57003 70200 81032 333 10190;EQDQ01  00002PRCP99
0214012780999992000072206004+63800+011570FM-12+005299999V0201101N001012200019N0300001N1+00901+00891102561ADDAA199000091AY101061AY201061GF101991011001022501081021KA1999N+00651MA1999999101541MD1210051+9999MW1021REMSYN082AAXX  22064 01278 31880 11102 10090 20089 30154 40256 52005 70200 81082 333 20065;EQDQ01  00002PRCP99
0161012780999992000072209004+63800+011570FM-12+005299999V0203001N001012200019N0300001N1+01461+01021102531ADDAY101031AY201031GF103991011001022501081021MA1999999101531MD1710011+9999MW1031REMSYN072AAXX  22094 01278 41880 33002 10146 20102 30153 40253 57001 70300 81082;
0161012780999992000072212004+63800+011570FM-12+005299999V0202701N001012200019N0550001N1+01721+00971102421ADDAY101061AY201061GF102991001001999999001021MA1999999101431MD1710101+9999MW1021REMSYN072AAXX  22124 01278 41985 22702 10172 20097 30143 40242 57010 70200 80002;
0214012780999992000072218004+63800+011570FM-12+005299999V0202901N002112200019N0550001N1+01911+00661102261ADDAA199000091AY101061AY201061GF102991001001999999001021KA1999M+02061MA1999999101281MD1710031+9999MW1021REMSYN082AAXX  22184 01278 31985 22904 10191 20066 30128 40226 57003 70200 80002 333 10206;EQDQ01  00002PRCP99
0201012780999992000072306004+63800+011570FM-12+005299999V0203201N002110003019N0020001N1+01161+01161102081ADDAA112001091AY151061AY211061GF108991081061000251999999KA1999N+00991MA1999999101071MD1710151+9999MW1531REMSYN088AAXX  23064 01278 11020 83204 10116 20116 30107 40208 57015 60012 75351 886// 333 20099;
0161012780999992000072309004+63800+011570FM-12+005299999V0203101N002110021019N0300001N1+01281+01281102031ADDAY151031AY221031GF108991081071002501999999MA1999999101021MD1710051+9999MW1021REMSYN072AAXX  23094 01278 41380 83104 10128 20128 30102 40203 57005 70252 887//;
0161012780999992000072312004+63800+011570FM-12+005299999V0203101N002110021019N0550001N1+01381+01371101941ADDAY151061AY221061GF108991081071002501999999MA1999999100941MD1710081+9999MW1021REMSYN072AAXX  23124 01278 41385 83104 10138 20137 30094 40194 57008 70252 887//;
0201012780999992000072318004+63800+011570FM-12+005299999V0203201N002110042019N0300001N1+01331+01321101901ADDAA112001091AY151061AY221061GF108991081071004501999999KA1999M+01421MA1999999100901MD1710011+9999MW1501REMSYN088AAXX  23184 01278 11480 83204 10133 20132 30090 40190 57001 60012 75052 887// 333 10142;
0201012780999992000072406004+63800+011570FM-12+005299999V0202801N000510003019N0300001N1+01131+01131101841ADDAA112000891AY161061AY251061GF108991081071000251999999KA1999N+01091MA1999999100831MD1710051+9999MW1161REMSYN088AAXX  24064 01278 11080 82801 10113 20113 30083 40184 57005 69982 71665 887// 333 20109;
0161012780999992000072409004+63800+011570FM-12+005299999V0202701N000510021019N0300001N1+01241+01241101811ADDAY161031AY221031GF108991071071002501071999MA1999999100801MD1710031+9999MW1601REMSYN072AAXX  24094 01278 41380 82701 10124 20124 30080 40181 57003 76062 8777/;
0161012780999992000072412004+63800+011570FM-12+005299999V0202801N001010090019N0300001N1+01431+01421101731ADDAY161061AY221061GF107991061081004501061999MA1999999100741MD1710061+9999MW1021REMSYN072AAXX  24124 01278 41480 72802 10143 20142 30074 40173 57006 70262 8686/;
0201012780999992000072418004+63800+011570FM-12+005299999V0209999C000010150019N0550001N1+01521+01511101531ADDAA112000791AY121061AY221061GF107991061081012501061999KA1999M+01621MA1999999100541MD1710081+9999MW1021REMSYN088AAXX  24184 01278 11685 70000 10152 20151 30054 40153 57008 69902 70222 8686/ 333 10162;
0201012780999992000072506004+63800+011570FM-12+005299999V0201301N002110090019N0550001N1+01701+01671101501ADDAA112000791AY181061AY221061GF107991051081004501031021KA1999N+01321MA1999999100521MD1410001+9999MW1021REMSYN088AAXX  25064 01278 11485 71304 10170 20167 30052 40150 54000 69902 70282 85832 333 20132;
0161012780999992000072509004+63800+011570FM-12+005299999V0201401N002110090019N0080001N1+01791+01481101541ADDAY121031AY221031GF107991051081004501071999MA1999999100561MD1210041+9999MW1021REMSYN072AAXX  25094 01278 41458 71404 10179 20148 30056 40154 52004 70222 8587/;
0161012780999992000072512004+63800+011570FM-12+005299999V0201401N002110120019N0550001N1+01961+01471101481ADDAY121061AY221061GF107991051081008001071021MA1999999100501MD1710061+9999MW1021REMSYN072AAXX  25124 01278 41585 71404 10196 20147 30050 40148 57006 70222 85872;
0214012780999992000072518004+63800+011570FM-12+005299999V0201401N001010150019N0300001N1+02041+01521101341ADDAA199000091AY121061AY221061GF107991051051017501041021KA1999M+02291MA1999999100371MD1610041+9999MW1021REMSYN082AAXX  25184 01278 31780 71402 10204 20152 30037 40134 56004 70222 85542 333 10229;EQDQ01  00002PRCP99
0214012780999992000072606004+63800+011570FM-12+005299999V0201501N002112200019N0550001N1+01481+00861101461ADDAA199000091AY111061AY211061GF101991011011017501041021KA1999N+01361MA1999999100471MD1210041+9999MW1021REMSYN082AAXX  26064 01278 31785 11504 10148 20086 30047 40146 52004 70211 81142 333 20136;EQDQ01  00002PRCP99
0161012780999992000072609004+63800+011570FM-12+005299999V0201401N003112200019N0550001N1+01801+00821101401ADDAY101031AY201031GF101991011001999999041021MA1999999100431MD1710041+9999MW1021REMSYN072AAXX  26094 01278 41985 11406 10180 20082 30043 40140 57004 70200 81042;
0161012780999992000072612004+63800+011570FM-12+005299999V0201301N002112200019N0550001N1+02311+00761101271ADDAY101061AY201061GF101991001001999999001021MA1999999100311MD1710121+9999MW1021REMSYN072AAXX  26124 01278 41985 11304 10231 20076 30031 40127 57012 70200 80002;
0214012780999992000072618004+63800+011570FM-12+005299999V0201301N002112200019N0550001N1+02221+00721101181ADDAA199000091AY101061AY201061GF101991001001999999001011KA1999M+02351MA1999999100221MD1710061+9999MW1021REMSYN082AAXX  26184 01278 31985 11304 10222 20072 30022 40118 57006 70200 80001 333 10235;EQDQ01  00002PRCP99
0224012780999992000072706004+63800+011570FM-12+005299999V0201201N002112200019N0550001N1+01451+00741101501ADDAA199000091AY101061AY201061GA1001+999999999GF100991001001999999001001KA1999N+01291MA1999999100511MD1210071+9999MW1021REMSYN076AAXX  27064 01278 31985 01204 10145 20074 30051 40150 52007 70200 333 20129;EQDQ01  00002PRCP99
0171012780999992000072709004+63800+011570FM-12+005299999V0201401N003112200019N0550001N1+01841+00981101491ADDAY101031AY201031GA1001+999999999GF100991001001999999001001MA1999999100511MD1410001+9999MW1021REMSYN066AAXX  27094 01278 41985 01406 10184 20098 30051 40149 54000 70200;
0171012780999992000072712004+63800+011570FM-12+005299999V0201401N003112200019N0550001N1+02161+00821101401ADDAY101061AY201061GA1001+999999999GF100991001001999999001001MA1999999100441MD1710071+9999MW1021REMSYN066AAXX  27124 01278 41985 01406 10216 20082 30044 40140 57007 70200;
0224012780999992000072718004+63800+011570FM-12+005299999V0201301N002112200019N0550001N1+02281+00871101211ADDAA199000091AY101061AY201061GA1001+999999999GF100991001001999999001001KA1999M+02411MA1999999100251MD1710061+9999MW1021REMSYN076AAXX  27184 01278 31985 01304 10228 20087 30025 40121 57006 70200 333 10241;EQDQ01  00002PRCP99
0224012780999992000072806004+63800+011570FM-12+005299999V0201301N002112200019N0550001N1+01371+01111101281ADDAA199000091AY101061AY201061GA1001+999999999GF100991001001999999001001KA1999N+01101MA1999999100291MD1410001+9999MW1021REMSYN076AAXX  28064 01278 31985 01304 10137 20111 30029 40128 54000 70200 333 20110;EQDQ01  00002PRCP99
0171012780999992000072809004+63800+011570FM-12+005299999V0203101N000512200019N0550001N1+02061+01441101241ADDAY101031AY201031GA1001+999999999GF100991001001999999001001MA1999999100271MD1710021+9999MW1021REMSYN066AAXX  28094 01278 41985 03101 10206 20144 30027 40124 57002 70200;
0161012780999992000072812004+63800+011570FM-12+005299999V0202701N001012200019N0550001N1+02291+01461101161ADDAY101061AY201061GF101991011011012501001001MA1999999100201MD1710071+9999MW1021REMSYN072AAXX  28124 01278 41685 12702 10229 20146 30020 40116 57007 70200 81100;
0224012780999992000072818004+63800+011570FM-12+005299999V0203001N001012200019N0750001N1+02351+01181101031ADDAA199000091AY101061AY201061GA1001+999999999GF100991001001999999001001KA1999M+02471MA1999999100071MD1710031+9999MW1021REMSYN076AAXX  28184 01278 31989 03002 10235 20118 30007 40103 57003 70200 333 10247;EQDQ01  00002PRCP99
0214012780999992000072906004+63800+011570FM-12+005299999V0201101N000512200019N0300001N1+01171+01111101351ADDAA199000091AY101061AY201061GF101991011061002501001021KA1999N+00861MA1999999100351MD1210091+9999MW1021REMSYN082AAXX  29064 01278 31380 11101 10117 20111 30035 40135 52009 70200 81602 333 20086;EQDQ01  00002PRCP99
0161012780999992000072909004+63800+011570FM-12+005299999V0202901N001012200019N0300001N1+01711+01561101351ADDAY101031AY201031GF101991011061008001001021MA1999999100371MD1210021+9999MW1021REMSYN072AAXX  29094 01278 41580 12902 10171 20156 30037 40135 52002 70200 81602;
0161012780999992000072912004+63800+011570FM-12+005299999V0202701N002112200019N0550001N1+02081+01641101291ADDAY101061AY201061GF101991011011012501001011MA1999999100321MD1710051+9999MW1021REMSYN072AAXX  29124 01278 41685 12704 10208 20164 30032 40129 57005 70200 81101;
0214012780999992000072918004+63800+011570FM-12+005299999V0203201N003112200019N0550001N1+02231+01461101191ADDAA199000091AY101061AY201061GF101991011021017501001011KA1999M+02431MA1999999100231MD1710041+9999MW1021REMSYN082AAXX  29184 01278 31785 13206 10223 20146 30023 40119 57004 70200 81201 333 10243;EQDQ01  00002PRCP99
0214012780999992000073006004+63800+011570FM-12+005299999V0201501N000510120019N0300001N1+00951+00951101521ADDAA199000091AY111061AY211061GF107991071061012501999999KA1999N+00771MA1999999100511MD1210101+9999MW1031REMSYN082AAXX  30064 01278 31680 71501 10095 20095 30051 40152 52010 70311 876// 333 20077;EQDQ01  00002PRCP99
0161012780999992000073009004+63800+011570FM-12+005299999V0203301N001010042019N0270001N1+01281+01251101511ADDAY121031AY221031GF107991071061004501999999MA1999999100511MD1410001+9999MW1011REMSYN072AAXX  30094 01278 41477 73302 10128 20125 30051 40151 54000 70122 876//;
0133012780999992000073012004+63800+011570FM-12+005299999V0203001N000512200019N0300001N1+01661+01281101471ADDGF104991011011012501001011MA1999999100491MD1710021+9999REMSYN066AAXX  30124 01278 41680 43001 10166 20128 30049 40147 57002 81101;
0214012780999992000073018004+63800+011570FM-12+005299999V0202901N003112200019N0300001N1+01651+01171101441ADDAA199000091AY121061AY221061GF104991011021012501031021KA1999M+01961MA1999999100461MD1210011+9999MW1021REMSYN082AAXX  30184 01278 31680 42906 10165 20117 30046 40144 52001 70222 81232 333 10196;EQDQ01  00002PRCP99
0201012780999992000073106004+63800+011570FM-12+005299999V0203101N001010021019N0200001N1+01001+01001101721ADDAA112000791AY151061AY211061GF108991071061002501021999KA1999N+00971MA1999999100711MD1210081+9999MW1501REMSYN088AAXX  31064 01278 11370 83102 10100 20100 30071 40172 52008 69902 75051 8762/ 333 20097;
0161012780999992000073109004+63800+011570FM-12+005299999V0203301N003110021019N0300001N1+01101+01011101771ADDAY151031AY221031GF108991081071002501999999MA1999999100761MD1210051+9999MW1021REMSYN072AAXX  31094 01278 41380 83306 10110 20101 30076 40177 52005 70252 887//;
0161012780999992000073112004+63800+011570FM-12+005299999V0202801N001010090019N0300001N1+01221+01031101831ADDAY151061AY221061GF108991081081004501999999MA1999999100831MD1210071+9999MW1021REMSYN072AAXX  31124 01278 41480 82802 10122 20103 30083 40183 52007 70252 888//;
0201012780999992000073118004+63800+011570FM-12+005299999V0203201N001010120019N0550001N1+01301+01111101801ADDAA112000791AY121061AY221061GF107991071081008001999999KA1999M+01341MA1999999100801MD1410001+9999MW1021REMSYN088AAXX  31184 01278 11585 73202 10130 20111 30080 40180 54000 69902 70222 878// 333 10134;
0214012780999992000080106004+63800+011570FM-12+005299999V0209999C000010075019N0550001N1+01031+00991101821ADDAA199000091AY121061AY221061GF108991081051008001999999KA1999N+00941MA1999999100811MD1710031+9999MW1021REMSYN082AAXX  01064 01278 31585 80000 10103 20099 30081 40182 57003 70222 885// 333 20094;EQDQ01  00002PRCP99
0161012780999992000080109004+63800+011570FM-12+005299999V0209999C000010075019N0550001N1+01141+00831101771ADDAY121031AY221031GF107991071051008001999999MA1999999100761MD1710051+9999MW1021REMSYN072AAXX  01094 01278 41585 70000 10114 20083 30076 40177 57005 70222 875//;
0161012780999992000080112004+63800+011570FM-12+005299999V0209999C000010075019N0550001N1+01331+00891101721ADDAY121061AY221061GF107991071051008001999999MA1999999100721MD1710041+9999MW1011REMSYN072AAXX  01124 01278 41585 70000 10133 20089 30072 40172 57004 70122 875//;
0214012780999992000080118004+63800+011570FM-12+005299999V0203301N002112200019N0750001N1+01471+01001101491ADDAA199000091AY111061AY211061GF101991011011012501001001KA1999M+01561MA1999999100501MD1710121+9999MW1011REMSYN082AAXX  01184 01278 31689 13304 10147 20100 30050 40149 57012 70111 81100 333 10156;EQDQ01  00002PRCP99
0214012780999992000080206004+63800+011570FM-12+005299999V0201101N000512200019N0550001N1+00771+00771101371ADDAA199000091AY101061AY201061GF101991011051004501001011KA1999N+00451MA1999999100351MD1710051+9999MW1021REMSYN082AAXX  02064 01278 31485 11101 10077 20077 30035 40137 57005 70200 81501 333 20045;EQDQ01  00002PRCP99
0161012780999992000080209004+63800+011570FM-12+005299999V0202901N001012200019N0550001N1+01381+01201101251ADDAY101031AY201031GF101991011011017501001021MA1999999100261MD1710091+9999MW1021REMSYN072AAXX  02094 01278 41785 12902 10138 20120 30026 40125 57009 70200 81102;
0161012780999992000080212004+63800+011570FM-12+005299999V0202701N001012200019N0550001N1+01891+01421101111ADDAY101061AY201061GF103991021091017501031021MA1999999100141MD1710121+9999MW1031REMSYN072AAXX  02124 01278 41785 32702 10189 20142 30014 40111 57012 70300 82932;
0201012780999992000080218004+63800+011570FM-12+005299999V0201501N001012200019N0550001N1+02071+01521101021ADDAA112001091AY191061AY281061GF104991031091017501061021KA1999M+02131MA1999999100051MD1710061+9999MW1171REMSYN088AAXX  02184 01278 11785 41502 10207 20152 30005 40102 57006 60012 71798 83962 333 10213;
0201012780999992000080306004+63800+011570FM-12+005299999V0201101N001010150019N0550001N1+01281+01281101061ADDAA112000391AY191061AY281061GF107991071051017501999999KA1999N+01121MA1999999100061MD1410001+9999MW1021REMSYN088AAXX  03064 01278 11785 71102 10128 20128 30006 40106 54000 69932 70298 875// 333 20112;
0161012780999992000080309004+63800+011570FM-12+005299999V0202901N001010300019N0300001N1+01641+01581101061ADDAY121031AY221031GF107991011021017501031999MA1999999100081MD1210021+9999MW1021REMSYN072AAXX  03094 01278 41780 72902 10164 20158 30008 40106 52002 70222 8123/;
0161012780999992000080312004+63800+011570FM-12+005299999V0202701N001012200019N0550001N1+01971+01381101041ADDAY121061AY221061GF103991011021017501031011MA1999999100071MD1710011+9999MW1021REMSYN072AAXX  03124 01278 41785 32702 10197 20138 30007 40104 57001 70222 81231;
0201012780999992000080318004+63800+011570FM-12+005299999V0209999C000010300019N0300001N1+01461+01461101161ADDAA112008991AY191061AY281061GF107991031091017501071021KA1999M+02161MA1999999100171MD1210121+9999MW1171REMSYN088AAXX  03184 01278 11780 70000 10146 20146 30017 40116 52012 60092 71798 83972 333 10216;
0201012780999992000080406004+63800+011570FM-12+005299999V0203001N001010012019N0250001N1+01221+01221101341ADDAA112000791AY181061AY261061GF108991081061001501999999KA1999N+01161MA1999999100341MD1210031+9999MW1601REMSYN088AAXX  04064 01278 11275 83002 10122 20122 30034 40134 52003 69902 76086 886// 333 20116;
0161012780999992000080409004+63800+011570FM-12+005299999V0202801N001010012019N0300001N1+01241+01241101411ADDAY161031AY221031GF108991081061001501999999MA1999999100411MD1210071+9999MW1021REMSYN072AAXX  04094 01278 41280 82802 10124 20124 30041 40141 52007 70262 886//;
0161012780999992000080412004+63800+011570FM-12+005299999V0202701N000510090019N0300001N1+01531+01331101321ADDAY161061AY221061GF107991071081004501999999MA1999999100381MD1710031+9999MW1021REMSYN072AAXX  04124 01278 41480 72701 10153 20133 30038 40132 57003 70262 878//;
0201012780999992000080418004+63800+011570FM-12+005299999V0203301N002110090019N0300001N1+01481+01321101231ADDAA112000791AY121061AY221061GF108991061081004501999999KA1999M+01471MA1999999100241MD1710011+9999MW1021REMSYN088AAXX  04184 01278 11480 83304 10148 20132 30024 40123 57001 69902 70222 868// 333 10147;
0201012780999992000080506004+63800+011570FM-12+005299999V0209999C000010003019N0025001N1+01121+01121101321ADDAA112007191AY161061AY251061GF108991081061000251999999KA1999N+01071MA1999999100321MD1210101+9999MW1591REMSYN088AAXX  05064 01278 11025 80000 10112 20112 30032 40132 52010 60072 75965 886// 333 20107;
0161012780999992000080509004+63800+011570FM-12+005299999V0209999C000010003019N0300001N1+01231+01231101381ADDAY161031AY251031GF108991071071000251021999MA1999999100381MD1210061+9999MW1021REMSYN072AAXX  05094 01278 41080 80000 10123 20123 30038 40138 52006 70265 8772/;
0161012780999992000080512004+63800+011570FM-12+005299999V0203001N000510060019N0250001N1+01281+01281101441ADDAY161061AY251061GF108991061081001501021999MA1999999100441MD1210061+9999MW1611REMSYN072AAXX  05124 01278 41275 83001 10128 20128 30044 40144 52006 76165 8682/;
0201012780999992000080518004+63800+011570FM-12+005299999V0209999C000010042019N0250001N1+01351+01351101321ADDAA112001091AY161061AY221061GF108991081071004501999999KA1999M+01371MA1999999100331MD1710121+9999MW1021REMSYN088AAXX  05184 01278 11475 80000 10135 20135 30033 40132 57012 60012 70262 887// 333 10137;
0201012780999992000080606004+63800+011570FM-12+005299999V0201101N000510042019N0050001N1+01221+01221100541ADDAA112004191AY161061AY221061GF108991061071004501021999KA1999N+01141MA1999999099551MD1710041+9999MW1631REMSYN088AAXX  06064 01278 11450 81101 10122 20122 39955 40054 57004 60042 76362 8672/ 333 20114;
0161012780999992000080609004+63800+011570FM-12+005299999V0209999C000010012019N0250001N1+01401+01401100441ADDAY161031AY221031GF108991081071001501999999MA1999999099461MD1710091+9999MW1021REMSYN072AAXX  06094 01278 41275 80000 10140 20140 39946 40044 57009 70262 887//;
0161012780999992000080612004+63800+011570FM-12+005299999V0202901N002110012019N0040001N1+01151+01151100441ADDAY191061AY281061GF108991081091001501999999MA1999999099451MD1510011+9999MW1951REMSYN072AAXX  06124 01278 41240 82904 10115 20115 39945 40044 55001 79598 889//;
0201012780999992000080618004+63800+011570FM-12+005299999V0203001N002110042019N0300001N1+01101+01091100381ADDAA112011991AY191061AY281061GF108991061091004501021999KA1999M+01451MA1999999099391MD1710181+9999MW1811REMSYN088AAXX  06184 01278 11480 83004 10110 20109 39939 40038 57018 60122 78198 8692/ 333 10145;
0201012780999992000080706004+63800+011570FM-12+005299999V0202801N002110003019N0040001N1+00961+00961100101ADDAA112015091AY181061AY261061GF108991081071000251999999KA1999N+00841MA1999999099101MD1610131+9999MW1631REMSYN088AAXX  07064 01278 11040 82804 10096 20096 39910 40010 56013 60152 76386 887// 333 20084;
0161012780999992000080709004+63800+011570FM-12+005299999V0202901N002110042019N0270001N1+00961+00961100101ADDAY181031AY261031GF108991081091004501999999MA1999999099101MD1410001+9999MW1801REMSYN072AAXX  07094 01278 41477 82904 10096 20096 39910 40010 54000 78086 889//;
0161012780999992000080712004+63800+011570FM-12+005299999V0202901N002110021019N0110001N1+00991+00991100141ADDAY181061AY261061GF108991081091002501999999MA1999999099141MD1210041+9999MW1801REMSYN072AAXX  07124 01278 41361 82904 10099 20099 39914 40014 52004 78086 889//;
0201012780999992000080718004+63800+011570FM-12+005299999V0203101N004610042019N0300001N1+01051+01021100161ADDAA112013091AY181061AY221061GF108991081091004501999999KA1999M+01161MA1999999099171MD1210021+9999MW1801REMSYN088AAXX  07184 01278 11480 83109 10105 20102 39917 40016 52002 60132 78082 889// 333 10116;
0201012780999992000080806004+63800+011570FM-12+005299999V0202801N004610006019N0050001N1+00961+00961100191ADDAA112009991AY181061AY221061GF108991081091000751999999KA1999N+00911MA1999999099191MD1410001+9999MW1811REMSYN088AAXX  08064 01278 11150 82809 10096 20096 39919 40019 54000 60102 78182 889// 333 20091;
0161012780999992000080809004+63800+011570FM-12+005299999V0202801N003110012019N0050001N1+00991+00991100291ADDAY181031AY261031GF108991061071001501021999MA1999999099291MD1210101+9999MW1631REMSYN072AAXX  08094 01278 41250 82806 10099 20099 39929 40029 52010 76386 8672/;
0161012780999992000080812004+63800+011570FM-12+005299999V0203001N003110300019N0035001N1+01021+01021100421ADDAY181061AY261061GF108991021071001501021999MA1999999099431MD1210141+9999MW1631REMSYN072AAXX  08124 01278 41235 83006 10102 20102 39943 40042 52014 76386 8272/;
0201012780999992000080818004+63800+011570FM-12+005299999V0202801N003110012019N0045001N1+01031+01031100811ADDAA112040991AY161061AY261061GF108991071071001501021999KA1999M+01101MA1999999099811MD1210181+9999MW1631REMSYN088AAXX  08184 01278 11245 82806 10103 20103 39981 40081 52018 60412 76366 8772/ 333 10110;
0201012780999992000080906004+63800+011570FM-12+005299999V0203001N002110042019N0280001N1+00871+00871101281ADDAA112018091AY181061AY261061GF108991081091004501999999KA1999N+00841MA1999999100271MD1210101+9999MW1801REMSYN088AAXX  09064 01278 11478 83004 10087 20087 30027 40128 52010 60182 78086 889// 333 20084;
0161012780999992000080909004+63800+011570FM-12+005299999V0202901N002110042019N0300001N1+00921+00921101371ADDAY181031AY261031GF108991081071004501999999MA1999999100361MD1210091+9999MW1601REMSYN072AAXX  09094 01278 41480 82904 10092 20092 30036 40137 52009 76086 887//;
0161012780999992000080912004+63800+011570FM-12+005299999V0203001N003110042019N0300001N1+01001+00991101461ADDAY181061AY261061GF108991081091004501999999MA1999999100461MD1210101+9999MW1021REMSYN072AAXX  09124 01278 41480 83006 10100 20099 30046 40146 52010 70286 889//;
0201012780999992000080918004+63800+011570FM-12+005299999V0203001N002110120019N0300001N1+01031+00961101521ADDAA112001091AY121061AY221061GF107991061091012501061999KA1999M+01071MA1999999100511MD1710011+9999MW1021REMSYN088AAXX  09184 01278 11680 73004 10103 20096 30051 40152 57001 60012 70222 8696/ 333 10107;
0214012780999992000081006004+63800+011570FM-12+005299999V0200901N001012200019N0300001N1+00661+00661101341ADDAA199000091AY111061AY211061GF101991011061004501001001KA1999N+00441MA1999999100321MD1710051+9999MW1021REMSYN082AAXX  10064 01278 31480 10902 10066 20066 30032 40134 57005 70211 81600 333 20044;EQDQ01  00002PRCP99
0161012780999992000081009004+63800+011570FM-12+005299999V0203301N000510150019N0300001N1+01071+00981101291ADDAY111031AY211031GF106991061081012501999999MA1999999100291MD1710031+9999MW1031REMSYN072AAXX  10094 01278 41680 63301 10107 20098 30029 40129 57003 70311 868//;
0161012780999992000081012004+63800+011570FM-12+005299999V0201501N001012200019N0550001N1+01471+01041101161ADDAY111061AY211061GF103991031021012501001011MA1999999100171MD1710121+9999MW1011REMSYN072AAXX  10124 01278 41685 31502 10147 20104 30017 40116 57012 70111 83201;
0214012780999992000081018004+63800+011570FM-12+005299999V0200901N000512200019N0550001N1+01661+00821100911ADDAA199000091AY101061AY201061GF101991011011012501001021KA1999M+01751MA1999999099931MD1710201+9999MW1021REMSYN082AAXX  10184 01278 31685 10901 10166 20082 39993 40091 57020 70200 81102 333 10175;EQDQ01  00002PRCP99
0161012780999992000081109004+63800+011570FM-12+005299999V0202901N001010300019N0100001N1+00961+00961100701ADDAY161031AY221031GF108991011061000251021999MA1999999099701MD1210061+9999MW1611REMSYN072AAXX  11094 01278 41060 82902 10096 20096 39970 40070 52006 76162 8162/;
0161012780999992000081112004+63800+011570FM-12+005299999V0202801N001010006019N0200001N1+01041+01041100701ADDAY161061AY221061GF108991081071000751999999MA1999999099701MD1410001+9999MW1601REMSYN072AAXX  11124 01278 41170 82802 10104 20104 39970 40070 54000 76062 887//;
0201012780999992000081118004+63800+011570FM-12+005299999V0202901N001010003019N0060001N1+00981+00981100881ADDAA112008991AY161061AY251061GF108991071071000251021999KA1999M+01061MA1999999099881MD1210101+9999MW1151REMSYN088AAXX  11184 01278 11056 82902 10098 20098 39988 40088 52010 60092 71565 8772/ 333 10106;
0201012780999992000081206004+63800+011570FM-12+005299999V0209999C000010003019N0300001N1+00901+00901101291ADDAA112000591AY161061AY221061GF108991081071000251999999KA1999N+00841MA1999999100281MD1210121+9999MW1021REMSYN088AAXX  12064 01278 11080 80000 10090 20090 30028 40129 52012 69942 70262 887// 333 20084;
0161012780999992000081209004+63800+011570FM-12+005299999V0203001N001010090019N0300001N1+01051+01051101341ADDAY121031AY221031GF107991071081004501999999MA1999999100341MD1210061+9999MW1021REMSYN072AAXX  12094 01278 41480 73002 10105 20105 30034 40134 52006 70222 878//;
0161012780999992000081212004+63800+011570FM-12+005299999V0202801N001010090019N0300001N1+01161+01071101451ADDAY121061AY221061GF108991081081004501999999MA1999999100451MD1210111+9999MW1021REMSYN072AAXX  12124 01278 41480 82802 10116 20107 30045 40145 52011 70222 888//;
0214012780999992000081306004+63800+011570FM-12+005299999V0201101N001012200019N0300001N1+00781+00781101651ADDAA199000091AY111061AY211061GF103991011001022501081021KA1999N+00571MA1999999100631MD1210021+9999MW1021REMSYN082AAXX  13064 01278 31880 31102 10078 20078 30063 40165 52002 70211 81082 333 20057;EQDQ01  00002PRCP99
0161012780999992000081309004+63800+011570FM-12+005299999V0202701N001010750019N0300001N1+01251+01191101691ADDAY111031AY211031GF105991011021017501031021MA1999999100691MD1210061+9999MW1021REMSYN072AAXX  13094 01278 41780 52702 10125 20119 30069 40169 52006 70211 81232;
0161012780999992000081312004+63800+011570FM-12+005299999V0202801N001012200019N0550001N1+01711+01301101701ADDAY111061AY211061GF104991011091999999071021MA1999999100721MD1210031+9999MW1021REMSYN072AAXX  13124 01278 41985 42802 10171 20130 30072 40170 52003 70211 81972;
0214012780999992000081318004+63800+011570FM-12+005299999V0202801N000510300019N0550001N1+01741+01351101771ADDAA199000091AY111061AY211061GF107991041081017501071021KA1999M+01951MA1999999100791MD1210021+9999MW1021REMSYN082AAXX  13184 01278 31785 72801 10174 20135 30079 40177 52002 70211 84872 333 10195;EQDQ01  00002PRCP99
0214012780999992000081406004+63800+011570FM-12+005299999V0201001N001010300019N0300001N1+01161+01161101731ADDAA199000091AY111061AY211061GF107991011011012501071021KA1999N+00971MA1999999100721MD1710021+9999MW1021REMSYN082AAXX  14064 01278 31680 71002 10116 20116 30072 40173 57002 70211 81172 333 20097;EQDQ01  00002PRCP99
0161012780999992000081409004+63800+011570FM-12+005299999V0202901N000510300019N0300001N1+01461+01431101681ADDAY121031AY221031GF107991011051022501071021MA1999999100691MD1710031+9999MW1021REMSYN072AAXX  14094 01278 41880 72901 10146 20143 30069 40168 57003 70222 81572;
0214012780999992000081418004+63800+011570FM-12+005299999V0201401N002110300019N0300001N1+02201+01441100991ADDAA199000091AY121061AY221061GF106991011021017501071021KA1999M+02351MA1999999100031MD1710311+9999MW1021REMSYN082AAXX  14184 01278 31780 61404 10220 20144 30003 40099 57031 70222 81272 333 10235;EQDQ01  00002PRCP99
0201012780999992000081506004+63800+011570FM-12+005299999V0201101N002110750019N0300001N1+01551+01491100451ADDAA112002091AY161061AY221061GF105991011081008001071011KA1999N+01441MA1999999099471MD1710171+9999MW1021REMSYN088AAXX  15064 01278 11580 51104 10155 20149 39947 40045 57017 60022 70262 81871 333 20144;
0161012780999992000081509004+63800+011570FM-12+005299999V0201501N000510075019N0300001N1+01781+01731100351ADDAY121031AY221031GF108991081091008001999999MA1999999099381MD1710091+9999MW1151REMSYN072AAXX  15094 01278 41580 81501 10178 20173 39938 40035 57009 71522 889//;
0161012780999992000081512004+63800+011570FM-12+005299999V0202801N002110003019N0023001N1+01431+01431100461ADDAY161061AY221061GF108991071071000251021999MA1999999099481MD1210101+9999MW1631REMSYN072AAXX  15124 01278 41023 82804 10143 20143 39948 40046 52010 76362 8772/;
0201012780999992000081518004+63800+011570FM-12+005299999V0202901N002110012019N0020001N1+01121+01121100811ADDAA112019191AY161061AY251061GF108991071071001501021999KA1999M+01801MA1999999099811MD1110051+9999MW1591REMSYN088AAXX  15184 01278 11220 82904 10112 20112 39981 40081 51005 60192 75965 8772/ 333 10180;
0201012780999992000081606004+63800+011570FM-12+005299999V0202801N001010012019N0200001N1+01081+01081100851ADDAA112000591AY181061AY261061GF107991071091001501999999KA1999N+01001MA1999999099851MD1710021+9999MW1501REMSYN088AAXX  16064 01278 11270 72802 10108 20108 39985 40085 57002 69942 75086 879// 333 20100;
0161012780999992000081609004+63800+011570FM-12+005299999V0203101N001010042019N0300001N1+01281+01271100831ADDAY151031AY221031GF107991071091004501999999MA1999999099841MD1710011+9999MW1151REMSYN072AAXX  16094 01278 41480 73102 10128 20127 39984 40083 57001 71552 879//;
0161012780999992000081612004+63800+011570FM-12+005299999V0203001N002110120019N0300001N1+01571+01181100791ADDAY151061AY221061GF106991061091012501061999MA1999999099811MD1710031+9999MW1151REMSYN072AAXX  16124 01278 41680 63004 10157 20118 39981 40079 57003 71552 8696/;
0201012780999992000081618004+63800+011570FM-12+005299999V0202701N000510120019N0300001N1+01491+01131100691ADDAA112000791AY121061AY221061GF106991051091012501061999KA1999M+01731MA1999999099711MD1710051+9999MW1151REMSYN088AAXX  16184 01278 11680 62701 10149 20113 39971 40069 57005 69902 71522 8596/ 333 10173;
0201012780999992000081706004+63800+011570FM-12+005299999V0201501N000510150019N0300001N1+00851+00851100711ADDAA112000191AY181061AY221061GF106991061051017501999999KA1999N+00761MA1999999099701MD1610061+9999MW1021REMSYN088AAXX  17064 01278 11780 61501 10085 20085 39970 40071 56006 69922 70282 865// 333 20076;
0161012780999992000081709004+63800+011570FM-12+005299999V0209999C000010150019N0550001N1+01311+01171100701ADDAY121031AY221031GF106991061081012501999999MA1999999099711MD1210011+9999MW1021REMSYN072AAXX  17094 01278 41685 60000 10131 20117 39971 40070 52001 70222 868//;
0161012780999992000081712004+63800+011570FM-12+005299999V0202801N001012200019N0550001N1+01641+00991100631ADDAY121061AY221061GF104991011021012501031011MA1999999099651MD1710061+9999MW1011REMSYN072AAXX  17124 01278 41685 42802 10164 20099 39965 40063 57006 70122 81231;
0214012780999992000081718004+63800+011570FM-12+005299999V0202801N000510300019N0550001N1+01601+00891100511ADDAA199000091AY121061AY221061GF107991031081017501031021KA1999M+01861MA1999999099531MD1710031+9999MW1021REMSYN082AAXX  17184 01278 31785 72801 10160 20089 39953 40051 57003 70222 83832 333 10186;EQDQ01  00002PRCP99
0214012780999992000081806004+63800+011570FM-12+005299999V0203601N002112200019N0550001N1+01021+01011100471ADDAA199000091AY121061AY221061GF104991031081017501031011KA1999N+00991MA1999999099481MD1710011+9999MW1021REMSYN082AAXX  18064 01278 31785 43604 10102 20101 39948 40047 57001 70222 83831 333 20099;EQDQ01  00002PRCP99
0161012780999992000081809004+63800+011570FM-12+005299999V0203501N002112200019N0550001N1+01411+01071100461ADDAY121031AY221031GF104991041081017501001011MA1999999099481MD1410001+9999MW1021REMSYN072AAXX  18094 01278 41785 43504 10141 20107 39948 40046 54000 70222 84801;
0161012780999992000081812004+63800+011570FM-12+005299999V0203301N003112200019N0550001N1+01581+00851100411ADDAY111061AY211061GF103991021091017501061021MA1999999099431MD1710051+9999MW1021REMSYN072AAXX  18124 01278 41785 33306 10158 20085 39943 40041 57005 70211 82962;
0214012780999992000081818004+63800+011570FM-12+005299999V0202901N002110075019N0550001N1+01501+01231100581ADDAA199000091AY111061AY211061GF107991071091008001999999KA1999M+01791MA1999999099601MD1210081+9999MW1151REMSYN082AAXX  18184 01278 31585 72904 10150 20123 39960 40058 52008 71511 879// 333 10179;EQDQ01  00002PRCP99
0201012780999992000081906004+63800+011570FM-12+005299999V0202801N001010300019N0030001N1+01031+01031101111ADDAA112008991AY181061AY221061GF108991041091004501021999KA1999N+01011MA1999999100111MD1210101+9999MW1811REMSYN088AAXX  19064 01278 11430 82802 10103 20103 30011 40111 52010 60092 78182 8492/ 333 20101;
0161012780999992000081909004+63800+011570FM-12+005299999V0209999C000010120019N0300001N1+01251+01251101191ADDAY181031AY221031GF107991071091012501999999MA1999999100191MD1210081+9999MW1011REMSYN072AAXX  19094 01278 41680 70000 10125 20125 30019 40119 52008 70182 879//;
0161012780999992000081912004+63800+011570FM-12+005299999V0202801N002110120019N0300001N1+01331+01081101321ADDAY181061AY221061GF107991071091012501999999MA1999999100321MD1210131+9999MW1021REMSYN072AAXX  19124 01278 41680 72804 10133 20108 30032 40132 52013 70282 879//;
0201012780999992000081918004+63800+011570FM-12+005299999V0202901N001010120019N0200001N1+01271+01141101331ADDAA112002091AY181061AY221061GF107991071081008001999999KA1999M+01451MA1999999100331MD1710011+9999MW1021REMSYN088AAXX  19184 01278 11570 72902 10127 20114 30033 40133 57001 60022 70282 878// 333 10145;
0214012780999992000082006004+63800+011570FM-12+005299999V0201201N002112200019N0250001N1+00661+00661101121ADDAA199000091AY111061AY211061GF101991011081022501001021KA1999N+00501MA1999999100101MD1710151+9999MW1021REMSYN082AAXX  20064 01278 31875 11204 10066 20066 30010 40112 57015 70211 81802 333 20050;EQDQ01  00002PRCP99
0161012780999992000082009004+63800+011570FM-12+005299999V0201501N002112200019N0300001N1+01351+00911101031ADDAY111031AY211031GF104991011051017501001021MA1999999100041MD1710061+9999MW1031REMSYN072AAXX  20094 01278 41780 41504 10135 20091 30004 40103 57006 70311 81502;
0161012780999992000082012004+63800+011570FM-12+005299999V0201101N001010300019N0550001N1+01501+00881100851ADDAY111061AY211061GF107991011081012501011021MA1999999099871MD1710071+9999MW1031REMSYN072AAXX  20124 01278 41685 71102 10150 20088 39987 40085 57007 70311 81812;
0201012780999992000082018004+63800+011570FM-12+005299999V0201101N000510300019N0550001N1+01341+01171100791ADDAA112000791AY161061AY221061GF107991011081017501071021KA1999M+01601MA1999999099801MD1710061+9999MW1601REMSYN088AAXX  20184 01278 11785 71101 10134 20117 39980 40079 57006 69902 76062 81872 333 10160;
0201012780999992000082106004+63800+011570FM-12+005299999V0201401N001010150019N0300001N1+00811+00811100831ADDAA112000791AY161061AY221061GF107991061051017501071999KA1999N+00751MA1999999099821MD1210011+9999MW1021REMSYN088AAXX  21064 01278 11780 71402 10081 20081 39982 40083 52001 69902 70262 8657/ 333 20075;
0161012780999992000082109004+63800+011570FM-12+005299999V0202901N001010150019N0300001N1+01241+01031100881ADDAY121031AY221031GF107991051081012501071999MA1999999099891MD1210071+9999MW1021REMSYN072AAXX  21094 01278 41680 72902 10124 20103 39989 40088 52007 70222 8587/;
0161012780999992000082112004+63800+011570FM-12+005299999V0202701N002110180019N0300001N1+01451+01201100851ADDAY121061AY221061GF107991061081017501071999MA1999999099871MD1710021+9999MW1021REMSYN072AAXX  21124 01278 41780 72704 10145 20120 39987 40085 57002 70222 8687/;
0201012780999992000082118004+63800+011570FM-12+005299999V0203301N002110042019N0270001N1+01261+01201101031ADDAA112000791AY181061AY221061GF108991071091004501021999KA1999M+01521MA1999999100031MD1210101+9999MW1021REMSYN088AAXX  21184 01278 11477 83304 10126 20120 30003 40103 52010 69902 70282 8792/ 333 10152;
0201012780999992000082206004+63800+011570FM-12+005299999V0202901N001010300019N0300001N1+00931+00931101471ADDAA112002091AY181061AY221061GF107991021081004501071999KA1999N+00901MA1999999100461MD1210111+9999MW1021REMSYN088AAXX  22064 01278 11480 72902 10093 20093 30046 40147 52011 60022 70282 8287/ 333 20090;
0161012780999992000082209004+63800+011570FM-12+005299999V0202701N002110042019N0250001N1+01021+01021101601ADDAY181031AY221031GF107991071091004501999999MA1999999100591MD1210131+9999MW1151REMSYN072AAXX  22094 01278 41475 72704 10102 20102 30059 40160 52013 71582 879//;
0161012780999992000082212004+63800+011570FM-12+005299999V0202801N002110042019N0300001N1+01151+01121101621ADDAY181061AY251061GF107991071091004501999999MA1999999100611MD1210021+9999MW1811REMSYN072AAXX  22124 01278 41480 72804 10115 20112 30061 40162 52002 78185 879//;
0201012780999992000082218004+63800+011570FM-12+005299999V0203001N002110090019N0300001N1+01071+00981101691ADDAA112001091AY181061AY221061GF107991071081004501999999KA1999M+01221MA1999999100681MD1210011+9999MW1021REMSYN088AAXX  22184 01278 11480 73004 10107 20098 30068 40169 52001 60012 70282 878// 333 10122;
0184012780999992000082306004+63800+011570FM-12+005299999V0202901N001010042019N0300001N1+00901+00901101601ADDAY181061AY221061GF107991071091004501999999KA1999N+00801MA1999999100591MD1710101+9999MW1151REMSYN082AAXX  23064 01278 11480 72902 10090 20090 30059 40160 57010 71582 879// 333 20080;
0161012780999992000082309004+63800+011570FM-12+005299999V0203201N001010042019N0100001N1+01031+01021101591ADDAY181031AY221031GF108991081091004501999999MA1999999100581MD1710011+9999MW1801REMSYN072AAXX  23094 01278 41460 83202 10103 20102 30058 40159 57001 78082 889//;
0161012780999992000082312004+63800+011570FM-12+005299999V0202501N001010300019N0100001N1+01041+01041101491ADDAY181061AY261061GF108991041071004501021999MA1999999100491MD1710091+9999MW1631REMSYN072AAXX  23124 01278 41460 82502 10104 20104 30049 40149 57009 76386 8472/;
0201012780999992000082318004+63800+011570FM-12+005299999V0202801N003110300019N0100001N1+01041+01041101241ADDAA112006191AY161061AY261061GF108991041071004501021999KA1999M+01111MA1999999100241MD1710111+9999MW1611REMSYN088AAXX  23184 01278 11460 82806 10104 20104 30024 40124 57011 60062 76166 8472/ 333 10111;
0201012780999992000082406004+63800+011570FM-12+005299999V0209999C000010300019N0300001N1+00901+00901100731ADDAA112007191AY161061AY221061GF107991011081004501071999KA1999N+00851MA1999999099731MD1710151+9999MW1601REMSYN088AAXX  24064 01278 11480 70000 10090 20090 39973 40073 57015 60072 76062 8187/ 333 20085;
0161012780999992000082409004+63800+011570FM-12+005299999V0202701N000510300019N0300001N1+01121+01061100711ADDAY161031AY221031GF107991041081008001071021MA1999999099711MD1710021+9999MW1011REMSYN072AAXX  24094 01278 41580 72701 10112 20106 39971 40071 57002 70162 84872;
0161012780999992000082412004+63800+011570FM-12+005299999V0202801N001010300019N0550001N1+01341+01151100781ADDAY161061AY221061GF107991031081012501071999MA1999999099791MD1210081+9999MW1021REMSYN072AAXX  24124 01278 41685 72802 10134 20115 39979 40078 52008 70262 8387/;
0201012780999992000082418004+63800+011570FM-12+005299999V0203501N003110021019N0300001N1+01131+01131101111ADDAA112000591AY181061AY251061GF107991071091002501999999KA1999M+01361MA1999999100111MD1210181+9999MW1151REMSYN088AAXX  24184 01278 11380 73506 10113 20113 30011 40111 52018 69962 71585 879// 333 10136;
0201012780999992000082506004+63800+011570FM-12+005299999V0202801N000510060019N0030001N1+00901+00901101681ADDAA112000891AY161061AY251061GF108991081081000251999999KA1999N+00821MA1999999100671MD1210061+9999MW1501REMSYN088AAXX  25064 01278 11030 82801 10090 20090 30067 40168 52006 69972 75065 888// 333 20082;
0161012780999992000082509004+63800+011570FM-12+005299999V0202901N000510003019N0100001N1+01001+01001101781ADDAY161031AY251031GF108991081061000251999999MA1999999100771MD1210101+9999MW1501REMSYN072AAXX  25094 01278 41060 82901 10100 20100 30077 40178 52010 75065 886//;
0161012780999992000082512004+63800+011570FM-12+005299999V0209999C000010090019N0300001N1+01181+01181101811ADDAY161061AY251061GF108991081081004501999999MA1999999100801MD1210031+9999MW1021REMSYN072AAXX  25124 01278 41480 80000 10118 20118 30080 40181 52003 70265 888//;
0201012780999992000082518004+63800+011570FM-12+005299999V0209999C000010075019N0300001N1+01231+01231101921ADDAA112000391AY151061AY221061GF108991051091008001021999KA1999M+01371MA1999999100921MD1210071+9999MW1151REMSYN088AAXX  25184 01278 11580 80000 10123 20123 30092 40192 52007 69932 71552 8592/ 333 10137;
0201012780999992000082606004+63800+011570FM-12+005299999V0201001N002112200019N0300001N1+00961+00961102081ADDAA112000191AY151061AY211061GF103991021051017501001021KA1999N+00901MA1999999101061MD1410001+9999MW1021REMSYN088AAXX  26064 01278 11780 31004 10096 20096 30106 40208 54000 69912 70251 82502 333 20090;
0161012780999992000082609004+63800+011570FM-12+005299999V0201201N001012200019N0300001N1+01621+01511102001ADDAY101031AY201031GF103991011001999999031021MA1999999101011MD1710051+9999MW1021REMSYN072AAXX  26094 01278 41980 31202 10162 20151 30101 40200 57005 70200 81032;
0161012780999992000082612004+63800+011570FM-12+005299999V0201201N000512200019N0550001N1+02021+01261101881ADDAY101061AY201061GF101991001001999999001021MA1999999100911MD1710101+9999MW1011REMSYN072AAXX  26124 01278 41985 11201 10202 20126 30091 40188 57010 70100 80002;
0214012780999992000082618004+63800+011570FM-12+005299999V0209999C000012200019N0300001N1+02051+01491101571ADDAA199000091AY101061AY201061GF103991011051012501031021KA1999M+02331MA1999999100601MD1710111+9999MW1021REMSYN082AAXX  26184 01278 31680 30000 10205 20149 30060 40157 57011 70200 81532 333 10233;EQDQ01  00002PRCP99
0214012780999992000082706004+63800+011570FM-12+005299999V0201301N001012200019N0550001N1+01371+01211100581ADDAA199000091AY101061AY201061GF103991011001999999041011KA1999N+01201MA1999999100581MD1210101+9999MW1021REMSYN082AAXX  27064 01278 31985 31302 10137 20121 30058 40058 52010 70200 81041 333 20120;EQDQ01  00002PRCP99
0180012780999992000082709004+63800+011570FM-12+005299999V0203301N001010750019N0550001N1+01661+01461101532ADDAY111031AY211031GF106991011001022501081081MA1999999100541MD1710041+9999MW1031REMSYN072AAXX  27094 01278 41885 63302 10166 20146 30054 40153 57004 70311 81088;EQDQ01+101533APOSLP
0161012780999992000082712004+63800+011570FM-12+005299999V0201501N002119999999N0550001N1+02061+01181101441ADDAY111061AY211061GF107991011001999999041021MA1999999100471MD1710071+9999MW1021REMSYN072AAXX  27124 01278 41985 71504 10206 20118 30047 40144 57007 70211 81042;
0214012780999992000082718004+63800+011570FM-12+005299999V0201501N002110300019N0550001N1+01931+01031101401ADDAA199000091AY121061AY221061GF107991011081017501071081KA1999M+02191MA1999999100431MD1210011+9999MW1021REMSYN082AAXX  27184 01278 31785 71504 10193 20103 30043 40140 52001 70222 81878 333 10219;EQDQ01  00002PRCP99
0214012780999992000082806004+63800+011570FM-12+005299999V0201501N002110300019N0300001N1+01111+01111101711ADDAA199000091AY121061AY221061GF107991011081022501071021KA1999N+01071MA1999999100701MD1210051+9999MW1021REMSYN082AAXX  28064 01278 31880 71504 10111 20111 30070 40171 52005 70222 81872 333 20107;EQDQ01  00002PRCP99
0161012780999992000082809004+63800+011570FM-12+005299999V0209999C000019999999N0300001N1+01641+01481101751ADDAY121031AY221031GF106991011001999999041021MA1999999100761MD1210061+9999MW1021REMSYN072AAXX  28094 01278 41980 60000 10164 20148 30076 40175 52006 70222 81042;
0161012780999992000082812004+63800+011570FM-12+005299999V0202701N001012200019N0300001N1+02031+01271101771ADDAY111061AY211061GF102991011011017501001021MA1999999100801MD1210041+9999MW1011REMSYN072AAXX  28124 01278 41780 22702 10203 20127 30080 40177 52004 70111 81102;
0214012780999992000082818004+63800+011570FM-12+005299999V0209999C000010300019N0300001N1+01951+01261101711ADDAA199000091AY111061AY211061GF107991041081017501071999KA1999M+02131MA1999999100731MD1610051+9999MW1031REMSYN082AAXX  28184 01278 31780 70000 10195 20126 30073 40171 56005 70311 8487/ 333 10213;EQDQ01  00002PRCP99
0214012780999992000082906004+63800+011570FM-12+005299999V0201001N002110750019N0250001N1+00981+00981101751ADDAA199000091AY121061AY221061GF107991011081017501001021KA1999N+00891MA1999999100741MD1710051+9999MW1021REMSYN082AAXX  29064 01278 31775 71004 10098 20098 30074 40175 57005 70222 81802 333 20089;EQDQ01  00002PRCP99
0161012780999992000082909004+63800+011570FM-12+005299999V0203001N001012200019N0250001N1+01671+01381101701ADDAY121031AY221031GF104991011081017501031021MA1999999100711MD1710031+9999MW1021REMSYN072AAXX  29094 01278 41775 43002 10167 20138 30071 40170 57003 70222 81832;
0161012780999992000082912004+63800+011570FM-12+005299999V0202701N001010300019N0250001N1+01751+01321101651ADDAY121061AY221061GF107991011021017501071021MA1999999100671MD1710041+9999MW1021REMSYN072AAXX  29124 01278 41775 72702 10175 20132 30067 40165 57004 70222 81272;
0201012780999992000082918004+63800+011570FM-12+005299999V0201001N000510300019N0250001N1+01621+01401101471ADDAA112000791AY161061AY221061GF108991011081017501071999KA1999M+01851MA1999999100491MD1710071+9999MW1021REMSYN088AAXX  29184 01278 11775 81001 10162 20140 30049 40147 57007 69902 70262 8187/ 333 10185;
0201012780999992000083006004+63800+011570FM-12+005299999V0209999C000010300019N0300001N1+01231+01231101201ADDAA112001091AY161061AY221061GF108991011071017501021999KA1999N+01201MA1999999100201MD1710101+9999MW1601REMSYN088AAXX  30064 01278 11780 80000 10123 20123 30020 40120 57010 69992 76062 8172/ 333 20120;
0161012780999992000083009004+63800+011570FM-12+005299999V0209999C000010003019N0025001N1+01301+01301101191ADDAY161031AY241031GF108991081061000251999999MA1999999100191MD1710011+9999MW1401REMSYN072AAXX  30094 01278 41025 80000 10130 20130 30019 40119 57001 74064 886//;
0161012780999992000083012004+63800+011570FM-12+005299999V0202901N001010012019N0030001N1+01441+01441101181ADDAY161061AY241061GF108991071061001501021999MA1999999100191MD1410001+9999MW1601REMSYN072AAXX  30124 01278 41230 82902 10144 20144 30019 40118 54000 76064 8762/;
0201012780999992000083018004+63800+011570FM-12+005299999V0202801N000510006019N0045001N1+01081+01081101341ADDAA112003091AY161061AY221061GF108991071061000751021999KA1999M+01481MA1999999100341MD1210131+9999MW1611REMSYN088AAXX  30184 01278 11145 82801 10108 20108 30034 40134 52013 60032 76162 8762/ 333 10148;
0201012780999992000083106004+63800+011570FM-12+005299999V0209999C000010060019N0300001N1+00911+00911101331ADDAA112007191AY161061AY221061GF107991071081000251999999KA1999N+00881MA1999999100321MD1710051+9999MW1021REMSYN088AAXX  31064 01278 11080 70000 10091 20091 30032 40133 57005 60072 70262 878// 333 20088;
0161012780999992000083109004+63800+011570FM-12+005299999V0203201N001010090019N0300001N1+01001+00991101281ADDAY121031AY221031GF108991081081004501999999MA1999999100281MD1710041+9999MW1021REMSYN072AAXX  31094 01278 41480 83202 10100 20099 30028 40128 57004 70222 888//;
0161012780999992000083112004+63800+011570FM-12+005299999V0202801N001010120019N0300001N1+01291+01011101231ADDAY121061AY221061GF107991071081008001999999MA1999999100231MD1710051+9999MW1021REMSYN072AAXX  31124 01278 41580 72802 10129 20101 30023 40123 57005 70222 878//;
0214012780999992000083118004+63800+011570FM-12+005299999V0203401N001012200019N0550001N1+01231+00821101081ADDAA199000091AY111061AY211061GF101991011081012501001021KA1999M+01441MA1999999100081MD1710061+9999MW1011REMSYN082AAXX  31184 01278 31685 13402 10123 20082 30008 40108 57006 70111 81802 333 10144;EQDQ01  00002PRCP99
0214012780999992000090106004+63800+011570FM-12+005299999V0201201N002110300019N0550001N1+00401+00401101031ADDAA199000091AY111061AY211061GF106991021051022501011021KA1999N+00341MA1999999100001MD1710051+9999MW1021REMSYN082AAXX  01064 01278 31885 61204 10040 20040 30000 40103 57005 70211 82512 333 20034;EQDQ01  00002PRCP99
0161012780999992000090109004+63800+011570FM-12+005299999V0201501N000512200019N0550001N1+01081+01011100891ADDAY111031AY211031GF102991011081004501031021MA1999999099891MD1710111+9999MW1011REMSYN072AAXX  01094 01278 41485 21501 10108 20101 39989 40089 57011 70111 81832;
0161012780999992000090112004+63800+011570FM-12+005299999V0202901N001010300019N0550001N1+01341+01021100751ADDAY111061AY211061GF106991011011012501031021MA1999999099761MD1710131+9999MW1031REMSYN072AAXX  01124 01278 41685 62902 10134 20102 39976 40075 57013 70311 81132;
0213012780999992000090118004+63800+011570FM-12+005299999V0209999C000010300019N0300001N1+01281+01111100591ADDAA112000791AY161061AY221061GF107991011011012501071021KA1999M+01471MA1999999099601MD1710091+9999MW1021REMSYN100AAXX  01184 01278 11680 70000 10128 20111 39960 40059 57009 69902 70262 81172 22240 40/// 333 10147;
0201012780999992000090206004+63800+011570FM-12+005299999V0209999C000010060019N0550001N1+00751+00751100691ADDAA112007191AY161061AY211061GF107991071081000251999999KA1999N+00681MA1999999099681MD1210051+9999MW1021REMSYN088AAXX  02064 01278 11085 70000 10075 20075 39968 40069 52005 60072 70261 878// 333 20068;
0161012780999992000090209004+63800+011570FM-12+005299999V0202701N002110042019N0550001N1+00951+00941100751ADDAY181031AY221031GF107991071091004501999999MA1999999099751MD1210071+9999MW1801REMSYN072AAXX  02094 01278 41485 72704 10095 20094 39975 40075 52007 78082 879//;
0161012780999992000090212004+63800+011570FM-12+005299999V0202701N002110075019N0250001N1+01071+01061100791ADDAY181061AY221061GF107991071091008001999999MA1999999099791MD1210041+9999MW1151REMSYN072AAXX  02124 01278 41575 72704 10107 20106 39979 40079 52004 71582 879//;
0201012780999992000090218004+63800+011570FM-12+005299999V0202901N002110042019N0300001N1+00951+00891101011ADDAA112002091AY181061AY221061GF107991071091004501999999KA1999M+01251MA1999999100001MD1210201+9999MW1151REMSYN088AAXX  02184 01278 11480 72904 10095 20089 30000 40101 52020 60022 71582 879// 333 10125;
0201012780999992000090306004+63800+011570FM-12+005299999V0202901N001010012019N0300001N1+00681+00681101391ADDAA112000591AY181061AY221061GF107991071091001501999999KA1999N+00671MA1999999100371MD1210121+9999MW1801REMSYN088AAXX  03064 01278 11280 72902 10068 20068 30037 40139 52012 69962 78082 879// 333 20067;
0161012780999992000090309004+63800+011570FM-12+005299999V0202801N002110075019N0250001N1+00861+00731101531ADDAY181031AY221031GF107991071091008001999999MA1999999100511MD1210141+9999MW1021REMSYN072AAXX  03094 01278 41575 72804 10086 20073 30051 40153 52014 70282 879//;
0161012780999992000090312004+63800+011570FM-12+005299999V0202801N003110120019N0300001N1+00941+00571101551ADDAY181061AY221061GF107991071091012501999999MA1999999100541MD1210031+9999MW1811REMSYN072AAXX  03124 01278 41680 72806 10094 20057 30054 40155 52003 78182 879//;
0201012780999992000090318004+63800+011570FM-12+005299999V0202801N002110075019N0250001N1+00871+00551101691ADDAA112000191AY181061AY221061GF105991051091008001061999KA1999M+01151MA1999999100671MD1210101+9999MW1151REMSYN088AAXX  03184 01278 11575 52804 10087 20055 30067 40169 52010 69922 71582 8596/ 333 10115;
0214012780999992000090406004+63800+011570FM-12+005299999V0201401N002112200019N0300001N1+00201+00201101791ADDAA199000091AY111061AY211061GF107991021051017501001011KA1999N+00131MA1999999100751MD1410001+9999MW1021REMSYN082AAXX  04064 01278 31780 71404 10020 20020 30075 40179 54000 70211 82501 333 20013;EQDQ01  00002PRCP99
0161012780999992000090409004+63800+011570FM-12+005299999V0201201N000510150019N0300001N1+00661+00661101821ADDAY121031AY221031GF107991071081012501999999MA1999999100791MD1210041+9999MW1021REMSYN072AAXX  04094 01278 41680 71201 10066 20066 30079 40182 52004 70222 878//;
0161012780999992000090412004+63800+011570FM-12+005299999V0202801N001010150019N0300001N1+00991+00481101821ADDAY121061AY221061GF107991071081012501999999MA1999999100811MD1210021+9999MW1021REMSYN072AAXX  04124 01278 41680 72802 10099 20048 30081 40182 52002 70222 878//;
0214012780999992000090418004+63800+011570FM-12+005299999V0203001N001010300019N0300001N1+00971+00601101731ADDAA199000091AY121061AY221061GF107991031081012501071999KA1999M+01181MA1999999100721MD1410001+9999MW1021REMSYN082AAXX  04184 01278 31680 73002 10097 20060 30072 40173 54000 70222 8387/ 333 10118;EQDQ01  00002PRCP99
0214012780999992000090506004+63800+011570FM-12+005299999V0201101N001010042019N0300001N1+00211+00211101831ADDAA199000091AY111061AY211061GF107991051051004501061021KA1999N+00181MA1999999100791MD1610051+9999MW1031REMSYN082AAXX  05064 01278 31480 71102 10021 20021 30079 40183 56005 70311 85562 333 20018;EQDQ01  00002PRCP99
0161012780999992000090509004+63800+011570FM-12+005299999V0201501N000510300019N0300001N1+00841+00771101711ADDAY121031AY221031GF106991011081012501031021MA1999999100691MD1710101+9999MW1021REMSYN072AAXX  05094 01278 41680 61501 10084 20077 30069 40171 57010 70222 81832;
0161012780999992000090512004+63800+011570FM-12+005299999V0202801N002110300019N0550001N1+01131+00681101641ADDAY121061AY221061GF107991011081012501061081MA1999999100631MD1710061+9999MW1021REMSYN072AAXX  05124 01278 41685 72804 10113 20068 30063 40164 57006 70222 81868;
0214012780999992000090518004+63800+011570FM-12+005299999V0201301N000510210019N0300001N1+01071+00981101421ADDAA199000091AY121061AY221061GF107991071051022501999999KA1999M+01201MA1999999100421MD1710151+9999MW1021REMSYN082AAXX  05184 01278 31880 71301 10107 20098 30042 40142 57015 70222 875// 333 10120;EQDQ01  00002PRCP99
0214012780999992000090606004+63800+011570FM-12+005299999V0201301N001010300019N0300001N1+00781+00781100831ADDAA199000091AY121061AY221061GF107991021081017501071011KA1999N+00701MA1999999099821MD1710181+9999MW1021REMSYN082AAXX  06064 01278 31780 71302 10078 20078 39982 40083 57018 70222 82871 333 20070;EQDQ01  00002PRCP99
0161012780999992000090609004+63800+011570FM-12+005299999V0201501N001010300019N0550001N1+01141+01001100721ADDAY121031AY221031GF107991011081012501071999MA1999999099721MD1710101+9999MW1021REMSYN072AAXX  06094 01278 41685 71502 10114 20100 39972 40072 57010 70222 8187/;
0161012780999992000090612004+63800+011570FM-12+005299999V0201001N002110300019N0550001N1+01491+00961100581ADDAY121061AY221061GF106991031081017501061021MA1999999099601MD1710081+9999MW1021REMSYN072AAXX  06124 01278 41785 61004 10149 20096 39960 40058 57008 70222 83862;
0214012780999992000090618004+63800+011570FM-12+005299999V0201101N002112200019N0550001N1+01481+00971100381ADDAA199000091AY111061AY211061GF103991011081017501041021KA1999M+01671MA1999999099401MD1610071+9999MW1021REMSYN082AAXX  06184 01278 31785 31104 10148 20097 39940 40038 56007 70211 81842 333 10167;EQDQ01  00002PRCP99
0214012780999992000090706004+63800+011570FM-12+005299999V0201401N002110300019N0550001N1+01371+01071100341ADDAA199000091AY121061AY221061GF107991021081012501071021KA1999N+01301MA1999999099361MD1210031+9999MW1021REMSYN082AAXX  07064 01278 31685 71404 10137 20107 39936 40034 52003 70222 82872 333 20130;EQDQ01  00002PRCP99
0161012780999992000090709004+63800+011570FM-12+005299999V0201401N002110300019N0300001N1+01501+01111100341ADDAY121031AY221031GF107991031081012501071021MA1999999099361MD1410001+9999MW1021REMSYN072AAXX  07094 01278 41680 71404 10150 20111 39936 40034 54000 70222 83872;
0161012780999992000090712004+63800+011570FM-12+005299999V0201501N003110300019N0550001N1+01551+01171100301ADDAY161061AY221061GF107991041081017501071021MA1999999099321MD1710041+9999MW1021REMSYN072AAXX  07124 01278 41785 71506 10155 20117 39932 40030 57004 70262 84872;
0201012780999992000090718004+63800+011570FM-12+005299999V0201501N004610300019N0550001N1+01591+01071099811ADDAA112000791AY161061AY221061GF108991041081012501071999KA1999M+01731MA1999999098841MD1710371+9999MW1021REMSYN088AAXX  07184 01278 11685 81509 10159 20107 39884 49981 57037 69902 70262 8487/ 333 10173;
0201012780999992000090806004+63800+011570FM-12+005299999V0201201N000510180019N0550001N1+01081+01011099401ADDAA112003091AY161061AY211061GF107991071081017501999999KA1999N+01011MA1999999098421MD1210071+9999MW1021REMSYN088AAXX  08064 01278 11785 71201 10108 20101 39842 49940 52007 60032 70261 878// 333 20101;
0161012780999992000090809004+63800+011570FM-12+005299999V0209999C000010150019N0550001N1+01361+01191099511ADDAY121031AY221031GF107991071091017501999999MA1999999098531MD1210111+9999MW1151REMSYN072AAXX  08094 01278 41785 70000 10136 20119 39853 49951 52011 71522 879//;
0161012780999992000090812004+63800+011570FM-12+005299999V0201401N001010150019N0550001N1+01441+01301099681ADDAY181061AY221061GF107991061091017501061999MA1999999098711MD1210181+9999MW1021REMSYN072AAXX  08124 01278 41785 71402 10144 20130 39871 49968 52018 70282 8696/;
0201012780999992000090818004+63800+011570FM-12+005299999V0201101N000512200019N0300001N1+01111+01111100091ADDAA112001091AY181061AY221061GF104991021091017501071021KA1999M+01641MA1999999099101MD1210151+9999MW1011REMSYN088AAXX  08184 01278 11780 41101 10111 20111 39910 40009 52015 60012 70182 82972 333 10164;
0201012780999992000090906004+63800+011570FM-12+005299999V0201001N001010300019N0300001N1+00871+00811099901ADDAA112000591AY181061AY211061GF107991021081012501071021KA1999N+00691MA1999999098901MD1710031+9999MW1021REMSYN088AAXX  09064 01278 11680 71002 10087 20081 39890 49990 57003 69952 70281 82872 333 20069;
0161012780999992000090909004+63800+011570FM-12+005299999V0201401N002110300019N0300001N1+01141+00711099871ADDAY161031AY221031GF107991011081017501021999MA1999999098881MD1710021+9999MW1601REMSYN072AAXX  09094 01278 41780 71404 10114 20071 39888 49987 57002 76062 8182/;
0161012780999992000090912004+63800+011570FM-12+005299999V0201101N001010300019N0200001N1+01151+00701100011ADDAY161061AY221061GF108991031071017501021999MA1999999099021MD1210141+9999MW1601REMSYN072AAXX  09124 01278 41770 81102 10115 20070 39902 40001 52014 76062 8372/;
0201012780999992000090918004+63800+011570FM-12+005299999V0203001N002110042019N0300001N1+01041+01031100171ADDAA112003091AY181061AY261061GF108991071091004501021999KA1999M+01341MA1999999099181MD1410001+9999MW1801REMSYN088AAXX  09184 01278 11480 83004 10104 20103 39918 40017 54000 60032 78086 8792/ 333 10134;
0201012780999992000091006004+63800+011570FM-12+005299999V0203201N004610075019N0300001N1+00851+00781100531ADDAA112007991AY181061AY261061GF107991071091008001999999KA1999N+00841MA1999999099521MD1210101+9999MW1021REMSYN088AAXX  10064 01278 11580 73209 10085 20078 39952 40053 52010 60082 70286 879// 333 20084;
0161012780999992000091009004+63800+011570FM-12+005299999V0202701N004610075019N0300001N1+00911+00631100651ADDAY121031AY221031GF107991071091008001999999MA1999999099651MD1210131+9999MW1021REMSYN072AAXX  10094 01278 41580 72709 10091 20063 39965 40065 52013 70222 879//;
0161012780999992000091012004+63800+011570FM-12+005299999V0203001N004610075019N0300001N1+00921+00781100891ADDAY181061AY221061GF107991071091008001999999MA1999999099891MD1210241+9999MW1021REMSYN072AAXX  10124 01278 41580 73009 10092 20078 39989 40089 52024 70282 879//;
0201012780999992000091018004+63800+011570FM-12+005299999V0202901N001010075019N0250001N1+00641+99999101021ADDAA112000191AY181061AY221061GF107991071091008001999999KA1999M+01001MA1999999100011MD1210051+9999MW1151REMSYN088AAXX  10184 01278 11575 72902 10064 20067 30001 40102 52005 69922 71582 879// 333 10100;
0201012780999992000091106004+63800+011570FM-12+005299999V0202801N001010075019N0300001N1+00731+00721101351ADDAA112002091AY181061AY221061GF108991081091008001999999KA1999N+00721MA1999999100331MD1210141+9999MW1801REMSYN088AAXX  11064 01278 11580 82802 10073 20072 30033 40135 52014 60022 78082 889// 333 20072;
0161012780999992000091109004+63800+011570FM-12+005299999V0202801N003110300019N0200001N1+00801+00801101451ADDAY181031AY221031GF108991021091004501021999MA1999999100441MD1210111+9999MW1811REMSYN072AAXX  11094 01278 41470 82806 10080 20080 30044 40145 52011 78182 8292/;
0161012780999992000091112004+63800+011570FM-12+005299999V0202901N002110042019N0300001N1+00911+00911101621ADDAY181061AY221061GF107991071091004501999999MA1999999100611MD1210171+9999MW1021REMSYN072AAXX  11124 01278 41480 72904 10091 20091 30061 40162 52017 70282 879//;
0184012780999992000091118004+63800+011570FM-12+005299999V0202801N002110012019N0300001N1+00881+00881101711ADDAY181061AY221061GF107991071091001501999999KA1999M+01021MA1999999100691MD1210061+9999MW1801REMSYN082AAXX  11184 01278 11280 72804 10088 20088 30069 40171 52006 78082 879// 333 10102;
0201012780999992000091206004+63800+011570FM-12+005299999V0209999C000010042019N0300001N1+00601+00601102021ADDAA112003091AY181061AY221061GF107991071091004501999999KA1999N+00541MA1999999100991MD1410001+9999MW1021REMSYN088AAXX  12064 01278 11480 70000 10060 20060 30099 40202 54000 60032 70282 879// 333 20054;
0161012780999992000091209004+63800+011570FM-12+005299999V0202801N001010075019N0300001N1+00761+00751102081ADDAY121031AY221031GF107991061091008001061999MA1999999101051MD1210061+9999MW1151REMSYN072AAXX  12094 01278 41580 72802 10076 20075 30105 40208 52006 71522 8696/;
0161012780999992000091212004+63800+011570FM-12+005299999V0203001N001010120019N0300001N1+00921+00581101991ADDAY181061AY221061GF107991071091012501999999MA1999999100981MD1710071+9999MW1151REMSYN072AAXX  12124 01278 41680 73002 10092 20058 30098 40199 57007 71582 879//;
0201012780999992000091218004+63800+011570FM-12+005299999V0201401N000512200019N0300001N1+00821+00761101911ADDAA112000191AY181061AY211061GF104991041081017501001011KA1999M+01021MA1999999100841MD1710091+9999MW1011REMSYN088AAXX  12184 01278 11780 41401 10082 20076 30084 40191 57009 69912 70181 84801 333 10102;
0224012780999992000091306004+63800+011570FM-12+005299999V0201301N001012200019N0550001N1+00171+00171101761ADDAA199000091AY101061AY201061GA1001+999999999GF100991001001999999001001KA1999N+00101MA1999999100721MD1710081+9999MW1021REMSYN076AAXX  13064 01278 31985 01302 10017 20017 30072 40176 57008 70200 333 20010;EQDQ01  00002PRCP99
0171012780999992000091309004+63800+011570FM-12+005299999V0201001N001012200019N0550001N1+00831+00741101751ADDAY101031AY201031GA1001+999999999GF100991001001999999001001MA1999999100731MD1210011+9999MW1021REMSYN066AAXX  13094 01278 41985 01002 10083 20074 30073 40175 52001 70200;
0161012780999992000091312004+63800+011570FM-12+005299999V0201001N002112200019N0550001N1+01401+00511101681ADDAY101061AY201061GF101991011011017501001001MA1999999100691MD1710041+9999MW1021REMSYN072AAXX  13124 01278 41785 11004 10140 20051 30069 40168 57004 70200 81100;
0224012780999992000091318004+63800+011570FM-12+005299999V0201001N001012200019N0750001N1+01201+00391101711ADDAA199000091AY101061AY201061GA1001+999999999GF100991001001999999001001KA1999M+01571MA1999999100711MD1210021+9999MW1021REMSYN076AAXX  13184 01278 31989 01002 10120 20039 30071 40171 52002 70200 333 10157;EQDQ01  00002PRCP99
0224012780999992000091406004+63800+011570FM-12+005299999V0201001N002112200019N0550001N1+00721+00461102001ADDAA199000091AY101061AY201061GA1001+999999999GF100991001001999999001001KA1999N+00561MA1999999100981MD1410001+9999MW1021REMSYN076AAXX  14064 01278 31985 01004 10072 20046 30098 40200 54000 70200 333 20056;EQDQ01  00002PRCP99
0171012780999992000091409004+63800+011570FM-12+005299999V0201301N003112200019N0550001N1+01291+00661102111ADDAY101031AY201031GA1001+999999999GF100991001001999999001001MA1999999101101MD1210121+9999MW1021REMSYN066AAXX  14094 01278 41985 01306 10129 20066 30110 40211 52012 70200;
0161012780999992000091412004+63800+011570FM-12+005299999V0201501N003112200019N0750001N1+01541+00321102081ADDAY101061AY201061GF101991011011017501001001MA1999999101081MD1710021+9999MW1021REMSYN072AAXX  14124 01278 41789 11506 10154 20032 30108 40208 57002 70200 81100;
0214012780999992000091418004+63800+011570FM-12+005299999V0201501N002112200019N0550001N1+01351+00341102001ADDAA199000091AY101061AY201061GF101991011051017501001011KA1999M+01621MA1999999101011MD1710051+9999MW1021REMSYN082AAXX  14184 01278 31785 11504 10135 20034 30101 40200 57005 70200 81501 333 10162;EQDQ01  00002PRCP99
0214012780999992000091506004+63800+011570FM-12+005299999V0201501N003112200019N0550001N1+00841+00441101851ADDAA199000091AY101061AY201061GF101991011011012501001011KA1999N+00761MA1999999100831MD1710161+9999MW1021REMSYN082AAXX  15064 01278 31685 11506 10084 20044 30083 40185 57016 70200 81101 333 20076;EQDQ01  00002PRCP99
0161012780999992000091509004+63800+011570FM-12+005299999V0201501N002112200019N0550001N1+01281+00651101751ADDAY101031AY201031GF101991011011012501001011MA1999999100751MD1710081+9999MW1021REMSYN072AAXX  15094 01278 41685 11504 10128 20065 30075 40175 57008 70200 81101;
0161012780999992000091512004+63800+011570FM-12+005299999V0202201N001012200019N0550001N1+01541+00651101671ADDAY101061AY201061GF101991011011017501001021MA1999999100681MD1710071+9999MW1021REMSYN072AAXX  15124 01278 41785 12202 10154 20065 30068 40167 57007 70200 81102;
0214012780999992000091518004+63800+011570FM-12+005299999V0201201N001012200019N0550001N1+01521+00731101391ADDAA199000091AY101061AY201061GF101991011001999999031011KA1999M+01821MA1999999100401MD1710031+9999MW1021REMSYN082AAXX  15184 01278 31985 11202 10152 20073 30040 40139 57003 70200 81031 333 10182;EQDQ01  00002PRCP99
0214012780999992000091606004+63800+011570FM-12+005299999V0201401N002110300019N0300001N1+00881+00741101081ADDAA199000091AY111061AY211061GF107991031081017501071999KA1999N+00801MA1999999100071MD1710101+9999MW1031REMSYN082AAXX  16064 01278 31780 71404 10088 20074 30007 40108 57010 70311 8387/ 333 20080;EQDQ01  00002PRCP99
0161012780999992000091609004+63800+011570FM-12+005299999V0201201N001010300019N0300001N1+01021+00961101001ADDAY161031AY221031GF107991011081017501071999MA1999999100001MD1710071+9999MW1601REMSYN072AAXX  16094 01278 41780 71202 10102 20096 30000 40100 57007 76062 8187/;
0161012780999992000091612004+63800+011570FM-12+005299999V0201501N000510300019N0250001N1+01511+01001100921ADDAY161061AY221061GF108991011081017501071999MA1999999099941MD1710061+9999MW1601REMSYN072AAXX  16124 01278 41775 81501 10151 20100 39994 40092 57006 76062 8187/;
0201012780999992000091618004+63800+011570FM-12+005299999V0201001N000510300019N0300001N1+01201+01201100911ADDAA112003091AY161061AY221061GF107991021081008001071999KA1999M+01511MA1999999099921MD1410001+9999MW1601REMSYN088AAXX  16184 01278 11580 71001 10120 20120 39992 40091 54000 60032 76062 8287/ 333 10151;
0201012780999992000091706004+63800+011570FM-12+005299999V0201301N002110300019N0300001N1+00911+00911100841ADDAA112000191AY161061AY221061GF107991041081017501071999KA1999N+00871MA1999999099841MD1710061+9999MW1021REMSYN088AAXX  17064 01278 11780 71304 10091 20091 39984 40084 57006 69912 70262 8487/ 333 20087;
0161012780999992000091709004+63800+011570FM-12+005299999V0201001N001010300019N0300001N1+01211+01171100831ADDAY121031AY221031GF107991031081017501071999MA1999999099841MD1410001+9999MW1021REMSYN072AAXX  17094 01278 41780 71002 10121 20117 39984 40083 54000 70222 8387/;
0161012780999992000091712004+63800+011570FM-12+005299999V0201401N002110300019N0280001N1+01601+01061100791ADDAY121061AY221061GF107991021081017501071021MA1999999099811MD1710031+9999MW1021REMSYN072AAXX  17124 01278 41778 71404 10160 20106 39981 40079 57003 70222 82872;
0214012780999992000091718004+63800+011570FM-12+005299999V0201301N002110180019N0250001N1+01411+00821100741ADDAA199000091AY121061AY221061GF107991051081017501071021KA1999M+01711MA1999999099761MD1710021+9999MW1021REMSYN082AAXX  17184 01278 31775 71304 10141 20082 39976 40074 57002 70222 85872 333 10171;EQDQ01  00002PRCP99
0214012780999992000091806004+63800+011570FM-12+005299999V0201201N002112200019N0300001N1+01201+00641100801ADDAA199000091AY121061AY221061GF104991011081017501071021KA1999N+01101MA1999999099801MD1410001+9999MW1021REMSYN082AAXX  18064 01278 31780 41204 10120 20064 39980 40080 54000 70222 81872 333 20110;EQDQ01  00002PRCP99
0161012780999992000091809004+63800+011570FM-12+005299999V0201501N003112200019N0300001N1+01501+00841100871ADDAY121031AY221031GF104991011081017501071021MA1999999099891MD1210091+9999MW1021REMSYN072AAXX  18094 01278 41780 41506 10150 20084 39989 40087 52009 70222 81872;
0161012780999992000091812004+63800+011570FM-12+005299999V0201501N002110300019N0550001N1+01581+00841100871ADDAY121061AY221061GF107991011081017501071021MA1999999099891MD1410001+9999MW1021REMSYN072AAXX  18124 01278 41785 71504 10158 20084 39989 40087 54000 70222 81872;
0214012780999992000091818004+63800+011570FM-12+005299999V0201301N003110300019N0300001N1+01341+00731100881ADDAA199000091AY121061AY221061GF107991011081017501071021KA1999M+01641MA1999999099891MD1210031+9999MW1021REMSYN082AAXX  18184 01278 31780 71306 10134 20073 39989 40088 52003 70222 81872 333 10164;EQDQ01  00002PRCP99
0201012780999992000091906004+63800+011570FM-12+005299999V0201101N001010300019N0300001N1+01171+00681101271ADDAA112000191AY161061AY221061GF107991011081017501071021KA1999N+01061MA1999999100271MD1210101+9999MW1021REMSYN088AAXX  19064 01278 11780 71102 10117 20068 30027 40127 52010 69912 70262 81872 333 20106;
0161012780999992000091909004+63800+011570FM-12+005299999V0201301N002110300019N0300001N1+01381+00801101401ADDAY121031AY221031GF107991021081017501041021MA1999999100411MD1210141+9999MW1021REMSYN072AAXX  19094 01278 41780 71304 10138 20080 30041 40140 52014 70222 82842;
0161012780999992000091912004+63800+011570FM-12+005299999V0201501N003110300019N0550001N1+01691+00791101601ADDAY121061AY221061GF107991011051022501041021MA1999999100611MD1210201+9999MW1021REMSYN072AAXX  19124 01278 41885 71506 10169 20079 30061 40160 52020 70222 81542;
0214012780999992000091918004+63800+011570FM-12+005299999V0201401N001010750019N0300001N1+01481+00951101741ADDAA199000091AY121061AY221061GF107991011001022501081021KA1999M+01801MA1999999100751MD1210101+9999MW1021REMSYN082AAXX  19184 01278 31880 71402 10148 20095 30075 40174 52010 70222 81082 333 10180;EQDQ01  00002PRCP99
0214012780999992000092006004+63800+011570FM-12+005299999V0201201N002112200019N0300001N1+00901+00511102061ADDAA199000091AY111061AY211061GF101991001001999999001021KA1999N+00631MA1999999101041MD1410001+9999MW1021REMSYN082AAXX  20064 01278 31980 11204 10090 20051 30104 40206 54000 70211 80002 333 20063;EQDQ01  00002PRCP99
0161012780999992000092009004+63800+011570FM-12+005299999V0201101N002112200019N0550001N1+01271+00491102061ADDAY101031AY201031GF101991001001999999001011MA1999999101051MD1210011+9999MW1021REMSYN072AAXX  20094 01278 41985 11104 10127 20049 30105 40206 52001 70200 80001;
0191012780999992000092012004+63800+011570FM-12+005299999V0201501N004612200019N0550001N1+01721+00581102041ADDAA199000091AY101061AY201061GF101991001001999999001011MA1999999101051MD1410001+9999MW1021REMSYN072AAXX  20124 01278 31985 11509 10172 20058 30105 40204 54000 70200 80001;EQDQ01  00002PRCP99
0214012780999992000092018004+63800+011570FM-12+005299999V0201201N003112200019N0550001N1+01551+00601102121ADDAA199000091AY101061AY201061GF101991001001999999001021KA1999M+01961MA1999999101121MD1210071+9999MW1021REMSYN082AAXX  20184 01278 31985 11206 10155 20060 30112 40212 52007 70200 80002 333 10196;EQDQ01  00002PRCP99
0214012780999992000092106004+63800+011570FM-12+005299999V0201301N003112200019N0550001N1+00651+00591102431ADDAA199000091AY101061AY201061GF101991001001999999001021KA1999N+00631MA1999999101401MD1410001+9999MW1021REMSYN082AAXX  21064 01278 31985 11306 10065 20059 30140 40243 54000 70200 80002 333 20063;EQDQ01  00002PRCP99
0161012780999992000092109004+63800+011570FM-12+005299999V0201401N002112200019N0750001N1+01171+00781102571ADDAY101031AY201031GF101991001001999999001021MA1999999101551MD1210151+9999MW1021REMSYN072AAXX  21094 01278 41989 11404 10117 20078 30155 40257 52015 70200 80002;
0161012780999992000092112004+63800+011570FM-12+005299999V0201101N002112200019N0550001N1+01691+00761102511ADDAY101061AY201061GF101991001001999999001021MA1999999101511MD1710041+9999MW1021REMSYN072AAXX  21124 01278 41985 11104 10169 20076 30151 40251 57004 70200 80002;
0214012780999992000092118004+63800+011570FM-12+005299999V0201001N002112200019N0750001N1+01641+00481102541ADDAA199000091AY101061AY201061GF103991001001999999001021KA1999M+02041MA1999999101541MD1210101+9999MW1021REMSYN082AAXX  21184 01278 31989 31004 10164 20048 30154 40254 52010 70200 80002 333 10204;EQDQ01  00002PRCP99
0214012780999992000092206004+63800+011570FM-12+005299999V0201501N002112200019N0300001N1+00791+00391102651ADDAA199000091AY101061AY201061GF103991001001999999001021KA1999N+00721MA1999999101621MD1710041+9999MW1021REMSYN082AAXX  22064 01278 31980 31504 10079 20039 30162 40265 57004 70200 80002 333 20072;EQDQ01  00002PRCP99
0161012780999992000092209004+63800+011570FM-12+005299999V0201101N001010750019N0550001N1+01261+00771102631ADDAY111031AY211031GF105991021001022501081021MA1999999101621MD1410001+9999MW1031REMSYN072AAXX  22094 01278 41885 51102 10126 20077 30162 40263 54000 70311 82082;
0161012780999992000092212004+63800+011570FM-12+005299999V0201301N003110750019N0550001N1+01871+00291102551ADDAY111061AY211061GF105991021001022501081021MA1999999101561MD1710061+9999MW1021REMSYN072AAXX  22124 01278 41885 51306 10187 20029 30156 40255 57006 70211 82082;
0214012780999992000092218004+63800+011570FM-12+005299999V0201001N006212200019N0550001N1+01651+00021102171ADDAA199000091AY111061AY211061GF104991011001999999041021KA1999M+02001MA1999999101181MD1710301+9999MW1021REMSYN082AAXX  22184 01278 31985 41012 10165 20002 30118 40217 57030 70211 81042 333 10200;EQDQ01  00002PRCP99
0214012780999992000092306004+63800+011570FM-12+005299999V0201301N001012200019N0300001N1+01191+00861102551ADDAA199000091AY111061AY211061GF104991021041017501041021KA1999N+00991MA1999999101531MD1210121+9999MW1021REMSYN082AAXX  23064 01278 31780 41302 10119 20086 30153 40255 52012 70211 82442 333 20099;EQDQ01  00002PRCP99
0161012780999992000092309004+63800+011570FM-12+005299999V0201201N001010750019N0550001N1+01361+00951102751ADDAY121031AY221031GF105991021081017501001021MA1999999101741MD1210211+9999MW1021REMSYN072AAXX  23094 01278 41785 51202 10136 20095 30174 40275 52021 70222 82802;
0161012780999992000092312004+63800+011570FM-12+005299999V0201301N000512200019N0550001N1+01761+01011102811ADDAY111061AY211061GF104991011081017501031081MA1999999101821MD1210081+9999MW1021REMSYN072AAXX  23124 01278 41785 41301 10176 20101 30182 40281 52008 70211 81838;
0214012780999992000092318004+63800+011570FM-12+005299999V0201101N001012200019N0300001N1+01501+00931102751ADDAA199000091AY111061AY211061GF103991011011017501081021KA1999M+02001MA1999999101751MD1710021+9999MW1021REMSYN082AAXX  23184 01278 31780 31102 10150 20093 30175 40275 57002 70211 81182 333 10200;EQDQ01  00002PRCP99
0214012780999992000092406004+63800+011570FM-12+005299999V0201001N000519999999N0250001N1+00791+00791102771ADDAA199000091AY111061AY211061GF107991071001999999071999KA1999N+00731MA1999999101741MD1710071+9999MW1031REMSYN082AAXX  24064 01278 31975 71001 10079 20079 30174 40277 57007 70311 8707/ 333 20073;EQDQ01  00002PRCP99
0161012780999992000092409004+63800+011570FM-12+005299999V0209999C000019999999N0200001N1+01031+01021102841ADDAY121031AY221031GF108991081001999999071999MA1999999101821MD1210081+9999MW1021REMSYN072AAXX  24094 01278 41970 80000 10103 20102 30182 40284 52008 70222 8807/;
0161012780999992000092412004+63800+011570FM-12+005299999V0209999C000010300019N0100001N1+01061+01061102901ADDAY161061AY221061GF108991011071017501071999MA1999999101881MD1210061+9999MW1601REMSYN072AAXX  24124 01278 41760 80000 10106 20106 30188 40290 52006 76062 8177/;
0201012780999992000092418004+63800+011570FM-12+005299999V0201201N000510300019N0100001N1+01071+01071102911ADDAA112001091AY161061AY221061GF108991011011012501071999KA1999M+01131MA1999999101891MD1410001+9999MW1021REMSYN088AAXX  24184 01278 11660 81201 10107 20107 30189 40291 54000 60012 70262 8117/ 333 10113;
0201012780999992000092506004+63800+011570FM-12+005299999V0200901N001010150019N0100001N1+01001+01001102901ADDAA112000791AY161061AY221061GF108991081051017501999999KA1999N+00971MA1999999101881MD1410001+9999MW1021REMSYN088AAXX  25064 01278 11760 80902 10100 20100 30188 40290 54000 69902 70262 885// 333 20097;
0161012780999992000092509004+63800+011570FM-12+005299999V0201401N000510150019N0100001N1+01151+01151102951ADDAY121031AY221031GF107991071051017501999999MA1999999101931MD1210051+9999MW1021REMSYN072AAXX  25094 01278 41760 71401 10115 20115 30193 40295 52005 70222 875//;
0161012780999992000092512004+63800+011570FM-12+005299999V0209999C000010150019N0150001N1+01381+01251102921ADDAY121061AY221061GF107991071051017501999999MA1999999101911MD1710021+9999MW1021REMSYN072AAXX  25124 01278 41765 70000 10138 20125 30191 40292 57002 70222 875//;
0214012780999992000092518004+63800+011570FM-12+005299999V0203301N001012200019N0300001N1+01231+01121102771ADDAA199000091AY111061AY211061GF101991001001999999001021KA1999M+01591MA1999999101761MD1710081+9999MW1021REMSYN082AAXX  25184 01278 31980 13302 10123 20112 30176 40277 57008 70211 80002 333 10159;EQDQ01  00002PRCP99
0214012780999992000092606004+63800+011570FM-12+005299999V0201301N002112200019N0300001N1+00781+00771102631ADDAA199000091AY101061AY201061GF101991001001999999001011KA1999N+00681MA1999999101601MD1710011+9999MW1021REMSYN082AAXX  26064 01278 31980 11304 10078 20077 30160 40263 57001 70200 80001 333 20068;EQDQ01  00002PRCP99
0171012780999992000092609004+63800+011570FM-12+005299999V0201301N002112200019N0250001N1+01201+00941102631ADDAY101031AY201031GA1001+999999999GF100991001001999999001001MA1999999101611MD1210011+9999MW1021REMSYN066AAXX  26094 01278 41975 01304 10120 20094 30161 40263 52001 70200;
0171012780999992000092612004+63800+011570FM-12+005299999V0201201N001012200019N0300001N1+01771+01111102461ADDAY101061AY201061GA1001+999999999GF100991001001999999001001MA1999999101471MD1710141+9999MW1021REMSYN066AAXX  26124 01278 41980 01202 10177 20111 30147 40246 57014 70200;
0214012780999992000092618004+63800+011570FM-12+005299999V0201101N001012200019N0300001N1+01441+01001102211ADDAA199000091AY101061AY201061GF101991001001999999001011KA1999M+01981MA1999999101211MD1710071+9999MW1021REMSYN082AAXX  26184 01278 31980 11102 10144 20100 30121 40221 57007 70200 80001 333 10198;EQDQ01  00002PRCP99
0218012780999992000092706004+63800+011570FM-12+005299999V0201301N002112200019N0300001N1+00681+99999102021ADDAA199000091AY101061AY201061GA1001+999999999GF100991001001999999001001KA1999N+00641MA1999999100991MD1710071+9999MW1021REMSYN070AAXX  27064 01278 31980 01304 10068 30099 40202 57007 70200 333 20064;EQDQ01  00002PRCP99
0161012780999992000092709004+63800+011570FM-12+005299999V0201301N002112200019N0300001N1+01021+00861101911ADDAY101031AY201031GF101991011011012501001001MA1999999100901MD1710091+9999MW1021REMSYN072AAXX  27094 01278 41680 11304 10102 20086 30090 40191 57009 70200 81100;
0161012780999992000092712004+63800+011570FM-12+005299999V0201301N003112200019N0300001N1+01591+00701101661ADDAY101061AY201061GF101991011011012501001001MA1999999100671MD1710231+9999MW1021REMSYN072AAXX  27124 01278 41680 11306 10159 20070 30067 40166 57023 70200 81100;
0214012780999992000092718004+63800+011570FM-12+005299999V0201501N004612200019N0300001N1+01341+00491101311ADDAA199000091AY101061AY201061GF101991011011012501001021KA1999M+01651MA1999999100321MD1710111+9999MW1021REMSYN082AAXX  27184 01278 31680 11509 10134 20049 30032 40131 57011 70200 81102 333 10165;EQDQ01  00002PRCP99
0161012780999992000092809004+63800+011570FM-12+005299999V0201201N003110300019N0550001N1+01351+00961100691ADDAY121031AY221031GF106991011081012501081021MA1999999099701MD1710081+9999MW1021REMSYN072AAXX  28094 01278 41685 61206 10135 20096 39970 40069 57008 70222 81882;
0161012780999992000092812004+63800+011570FM-12+005299999V0201001N003110300019N0550001N1+01461+01051100601ADDAY121061AY221061GF107991031081012501071021MA1999999099621MD1710081+9999MW1031REMSYN072AAXX  28124 01278 41685 71006 10146 20105 39962 40060 57008 70322 83872;
0214012780999992000092818004+63800+011570FM-12+005299999V0201501N003110300019N0550001N1+01471+00961100351ADDAA199000091AY121061AY221061GF108991011081012501071021KA1999M+01631MA1999999099371MD1710081+9999MW1021REMSYN082AAXX  28184 01278 31685 81506 10147 20096 39937 40035 57008 70222 81872 333 10163;EQDQ01  00002PRCP99
0201012780999992000092906004+63800+011570FM-12+005299999V0201301N001010300019N0300001N1+01151+01151100441ADDAA112001091AY161061AY221061GF107991011081008001071999KA1999N+01141MA1999999099451MD1210101+9999MW1601REMSYN088AAXX  29064 01278 11580 71302 10115 20115 39945 40044 52010 69992 76062 8187/ 333 20114;
0165012780999992000092909004+63800+011570FM-12+005299999V0201001N001010300019N0550001N1+01261+01261100711ADDAY161031AY221031GF107991041081008001071021MD1210271+9999MW1021REMSYN072AAXX  29094 01278 41585 71002 10126 20126 39472 40071 52027 70262 84872;EQDQ01+094723APOSP 
0161012780999992000092912004+63800+011570FM-12+005299999V0202801N000510300019N0550001N1+01741+01521100741ADDAY161061AY221061GF105991041081012501031021MA1999999099771MD1210051+9999MW1011REMSYN072AAXX  29124 01278 41685 52801 10174 20152 39977 40074 52005 70162 84832;
0201012780999992000092918004+63800+011570FM-12+005299999V0201301N000510300019N0550001N1+01521+01481100841ADDAA112000791AY121061AY221061GF107991031081017501071021KA1999M+01761MA1999999099861MD1210101+9999MW1021REMSYN088AAXX  29184 01278 11785 71301 10152 20148 39986 40084 52010 69902 70222 83872 333 10176;
0201012780999992000093006004+63800+011570FM-12+005299999V0201301N001010300019N0550001N1+01281+01281101221ADDAA112000791AY161061AY221061GF107991031081017501071999KA1999N+01241MA1999999100221MD1210101+9999MW1021REMSYN088AAXX  30064 01278 11785 71302 10128 20128 30022 40122 52010 69902 70262 8387/ 333 20124;
0161012780999992000093009004+63800+011570FM-12+005299999V0202701N000510300019N0300001N1+01351+01351101311ADDAY121031AY221031GF107991011081017501071999MA1999999100321MD1210101+9999MW1021REMSYN072AAXX  30094 01278 41780 72701 10135 20135 30032 40131 52010 70222 8187/;
0161012780999992000093012004+63800+011570FM-12+005299999V0200101N000510300019N0280001N1+01771+01621101281ADDAY121061AY221061GF106991031051022501031999MA1999999100301MD1710021+9999MW1021REMSYN072AAXX  30124 01278 41878 60101 10177 20162 30030 40128 57002 70222 8353/;
0214012780999992000093018004+63800+011570FM-12+005299999V0200901N001010300019N0300001N1+01941+01451101201ADDAA199000091AY121061AY221061GF107991031081017501071999KA1999M+01961MA1999999100231MD1710041+9999MW1021REMSYN082AAXX  30184 01278 31780 70902 10194 20145 30023 40120 57004 70222 8387/ 333 10196;EQDQ01  00002PRCP99
0214012780999992000100106004+63800+011570FM-12+005299999V0201301N002112200019N0200001N1+01441+01011101491ADDAA199000091AY111061AY211061GF103991011011017501001021KA1999N+01441MA1999999100501MD1710091+9999MW1021REMSYN082AAXX  01064 01278 31770 31304 10144 20101 30050 40149 57009 70211 81102 333 20144;EQDQ01  00002PRCP99
0161012780999992000100109004+63800+011570FM-12+005299999V0201201N001012200019N0250001N1+01671+01151101031ADDAY111031AY211031GF105991021051022501001081MA1999999100051MD1210051+9999MW1021REMSYN072AAXX  01094 01278 41875 51202 10167 20115 30005 40103 52005 70211 82508;
0171012780999992000100112004+63800+011570FM-12+005299999V0201501N003112200019N0200001N1+02161+01061100871ADDAY111061AY211061GA1001+999999999GF100991001001999999001001MA1999999099911MD1710141+9999MW1021REMSYN066AAXX  01124 01278 41970 01506 10216 20106 39991 40087 57014 70211;
0214012780999992000100118004+63800+011570FM-12+005299999V0201301N001012200019N0300001N1+01531+00671100851ADDAA199000091AY101061AY201061GF101991011051017501001001KA1999M+02171MA1999999099871MD1410001+9999MW1021REMSYN082AAXX  01184 01278 31780 11302 10153 20067 39987 40085 54000 70200 81500 333 10217;EQDQ01  00002PRCP99
0214012780999992000100206004+63800+011570FM-12+005299999V0201001N002112200019N0100001N1+01061+00931100591ADDAA199000091AY101061AY201061GF101991011061004501001001KA1999N+00871MA1999999099591MD1710101+9999MW1021REMSYN082AAXX  02064 01278 31460 11004 10106 20093 39959 40059 57010 70200 81600 333 20087;EQDQ01  00002PRCP99
0161012780999992000100209004+63800+011570FM-12+005299999V0201301N002112200019N0250001N1+01301+01091100581ADDAY101031AY201031GF101991011061008001001001MA1999999099591MD1410001+9999MW1021REMSYN072AAXX  02094 01278 41575 11304 10130 20109 39959 40058 54000 70200 81600;
0161012780999992000100212004+63800+011570FM-12+005299999V0201501N004612200019N0250001N1+01691+00951100521ADDAY101061AY201061GF101991011011012501001001MA1999999099541MD1710051+9999MW1021REMSYN072AAXX  02124 01278 41675 11509 10169 20095 39954 40052 57005 70200 81100;
0214012780999992000100218004+63800+011570FM-12+005299999V0201001N002119999999N0300001N1+01321+00911100511ADDAA199000091AY111061AY211061GF107991001001999999001021KA1999M+01781MA1999999099521MD1110031+9999MW1031REMSYN082AAXX  02184 01278 31980 71004 10132 20091 39952 40051 51003 70311 80002 333 10178;EQDQ01  00002PRCP99
0201012780999992000100306004+63800+011570FM-12+005299999V0209999C000010003019N0010001N1+00981+00981100791ADDAA112005191AY161061AY241061GF108991071061000251021999KA1999N+00941MA1999999099791MD1210251+9999MW1631REMSYN088AAXX  03064 01278 11010 80000 10098 20098 39979 40079 52025 60052 76364 8762/ 333 20094;
0161012780999992000100309004+63800+011570FM-12+005299999V0209999C000010003019N0015001N1+01011+01011101011ADDAY161031AY241031GF108991061061000251021999MA1999999100011MD1210221+9999MW1611REMSYN072AAXX  03094 01278 41015 80000 10101 20101 30001 40101 52022 76164 8662/;
0161012780999992000100312004+63800+011570FM-12+005299999V0202901N001010060019N0040001N1+01221+01221101191ADDAY161061AY241061GF107991051081002501071999MA1999999100191MD1210181+9999MW1101REMSYN072AAXX  03124 01278 41340 72902 10122 20122 30019 40119 52018 71064 8587/;
0201012780999992000100318004+63800+011570FM-12+005299999V0201201N001012200019N0100001N1+00991+00991101321ADDAA112001091AY111061AY211061GF101991001001999999001021KA1999M+01341MA1999999100311MD1210081+9999MW1011REMSYN088AAXX  03184 01278 11960 11202 10099 20099 30031 40132 52008 60012 70111 80002 333 10134;
0214012780999992000100406004+63800+011570FM-12+005299999V0201001N002112200019N0300001N1+00911+00851101231ADDAA199000091AY101061AY201061GF101991011001999999031021KA1999N+00781MA1999999100221MD1710051+9999MW1021REMSYN082AAXX  04064 01278 31980 11004 10091 20085 30022 40123 57005 70200 81032 333 20078;EQDQ01  00002PRCP99
0196012780999992000100409004+63800+011570FM-12+005299999V0201301N003112200019N0300001N1+01241+00861101211ADDAY101031AY201031GF103991011051017501041021MA1999999100211MD1710021+9999MW1021REMSYN072AAXX  04094 01278 41780 31306 10124 20086 30021 40121 57000 70200 81542;EQDQ01+000072APCTENQ02+000002APC3  
0161012780999992000100412004+63800+011570FM-12+005299999V0201001N003112200019N0300001N1+01451+01021101081ADDAY101061AY201061GF104991011001022501081021MA1999999100091MD1710121+9999MW1021REMSYN072AAXX  04124 01278 41880 41006 10145 20102 30009 40108 57012 70200 81082;
0214012780999992000100418004+63800+011570FM-12+005299999V0201501N004612200019N0550001N1+01481+00911100851ADDAA199000091AY111061AY211061GF104991011081017501071021KA1999M+01671MA1999999099871MD1210041+9999MW1021REMSYN082AAXX  04184 01278 31785 41509 10148 20091 39987 40085 52004 70211 81872 333 10167;EQDQ01  00002PRCP99
0201012780999992000100506004+63800+011570FM-12+005299999V0201301N001010300019N0200001N1+00911+00911101151ADDAA112000191AY161061AY221061GF107991031081017501071999KA1999N+00911MA1999999100241MD1210031+9999MW1021REMSYN088AAXX  05064 01278 11770 71302 10091 20091 30024 40115 52003 69922 70262 8387/ 333 20091;
0161012780999992000100509004+63800+011570FM-12+005299999V0201301N001010300019N0200001N1+01101+01101101241ADDAY121031AY221031GF107991041081017501071021MA1999999100241MD1410001+9999MW1021REMSYN072AAXX  05094 01278 41770 71302 10110 20110 30024 40124 54000 70222 84872;
0161012780999992000100512004+63800+011570FM-12+005299999V0201301N002110300019N0550001N1+01731+00981101151ADDAY121061AY221061GF105991041081012501031021MA1999999100171MD1710071+9999MW1021REMSYN072AAXX  05124 01278 41685 51304 10173 20098 30017 40115 57007 70222 84832;
0214012780999992000100518004+63800+011570FM-12+005299999V0201301N002112200019N0550001N1+01361+00731101081ADDAA199000091AY111061AY211061GF101991011011017501081021KA1999M+01801MA1999999100091MD1410001+9999MW1011REMSYN082AAXX  05184 01278 31785 11304 10136 20073 30009 40108 54000 70111 81182 333 10180;EQDQ01  00002PRCP99
0214012780999992000100606004+63800+011570FM-12+005299999V0201101N001012200019N0300001N1+00621+00621101531ADDAA199000091AY101061AY201061GF103991021051017501031011KA1999N+00581MA1999999100501MD1210161+9999MW1021REMSYN082AAXX  06064 01278 31780 31102 10062 20062 30050 40153 52016 70200 82531 333 20058;EQDQ01  00002PRCP99
0161012780999992000100609004+63800+011570FM-12+005299999V0201301N001012200019N0300001N1+00811+00801101741ADDAY101031AY201031GF103991011051017501041021MA1999999100721MD1210221+9999MW1021REMSYN072AAXX  06094 01278 41780 31302 10081 20080 30072 40174 52022 70200 81542;
0161012780999992000100612004+63800+011570FM-12+005299999V0209999C000010750019N0250001N1+01141+00881101931ADDAY111061AY211061GF105991011081012501001021MA1999999100921MD1210201+9999MW1021REMSYN072AAXX  06124 01278 41675 50000 10114 20088 30092 40193 52020 70211 81802;
0214012780999992000100618004+63800+011570FM-12+005299999V0201301N001012200019N0300001N1+00901+00891102221ADDAA199000091AY111061AY211061GF101991011011017501031021KA1999M+01251MA1999999101201MD1210161+9999MW1011REMSYN082AAXX  06184 01278 31780 11302 10090 20089 30120 40222 52016 70111 81132 333 10125;EQDQ01  00002PRCP99
0214012780999992000100706004+63800+011570FM-12+005299999V0201101N000512200019N0250001N1+01001+01001102241ADDAA199000091AY101061AY201061GF102991021081017501001001KA1999N+00481MA1999999101231MD1710011+9999MW1021REMSYN082AAXX  07064 01278 31775 21101 10100 20100 30123 40224 57001 70200 82800 333 20048;EQDQ01  00002PRCP99
0161012780999992000100709004+63800+011570FM-12+005299999V0201101N001010180019N0550001N1+01131+01131102241ADDAY161031AY211031GF107991071081017501041999MA1999999101231MD1410001+9999MW1031REMSYN072AAXX  07094 01278 41785 71102 10113 20113 30123 40224 54000 70361 8784/;
0161012780999992000100712004+63800+011570FM-12+005299999V0201301N003110300019N0250001N1+01641+01101102051ADDAY161061AY211061GF106991011081017501071021MA1999999101061MD1710171+9999MW1021REMSYN072AAXX  07124 01278 41775 61306 10164 20110 30106 40205 57017 70261 81872;
0220012780999992000100718004+63800+011570FM-12+005299999V0201201N002119999999N0300001N1+01641+01051101871ADDAA112000791AY121061AY221061GF106991999081017501999999KA1999M+01751MA1999999100881MD1710041+9999MW1021REMSYN088AAXX  07184 01278 11780 61204 10164 20105 30088 40187 57004 69902 70222 878// 333 10175;EQDQ01+000072SCOTLC
0214012780999992000100806004+63800+011570FM-12+005299999V0201001N002110300019N0150001N1+01531+00961101351ADDAA199000091AY121061AY221061GF108991021081012501071021KA1999N+01291MA1999999100361MD1510101+9999MW1021REMSYN082AAXX  08064 01278 31665 81004 10153 20096 30036 40135 55010 70222 82872 333 20129;EQDQ01  00002PRCP99
0161012780999992000100809004+63800+011570FM-12+005299999V0201301N001010180019N0280001N1+01501+01011101281ADDAY121031AY221031GF108991071081017501071999MA1999999100291MD1710071+9999MW1021REMSYN072AAXX  08094 01278 41778 81302 10150 20101 30029 40128 57007 70222 8787/;
0161012780999992000100812004+63800+011570FM-12+005299999V0201001N002110180019N0550001N1+01421+01241101111ADDAY161061AY221061GF108991061081017501071999MA1999999100121MD1710171+9999MW1021REMSYN072AAXX  08124 01278 41785 81004 10142 20124 30012 40111 57017 70262 8687/;
0201012780999992000100818004+63800+011570FM-12+005299999V0201301N004610300019N0550001N1+01271+00741101051ADDAA112000191AY121061AY221061GF107991011081017501071021KA1999M+01551MA1999999100051MD1210021+9999MW1021REMSYN088AAXX  08184 01278 11785 71309 10127 20074 30005 40105 52002 69912 70222 81872 333 10155;
0214012780999992000100906004+63800+011570FM-12+005299999V0201401N001012200019N0550001N1+00731+00521100911ADDAA199000091AY111061AY211061GF104991031081017501071001KA1999N+00721MA1999999099901MD1710011+9999MW1021REMSYN082AAXX  09064 01278 31785 41402 10073 20052 39990 40091 57001 70211 83870 333 20072;EQDQ01  00002PRCP99
0161012780999992000100909004+63800+011570FM-12+005299999V0201401N004610300019N0550001N1+01171+00621100781ADDAY121031AY221031GF107991041081017501041021MA1999999099781MD1710121+9999MW1021REMSYN072AAXX  09094 01278 41785 71409 10117 20062 39978 40078 57012 70222 84842;
0161012780999992000100912004+63800+011570FM-12+005299999V0201501N003110300019N0550001N1+01381+00601100781ADDAY121061AY221061GF107991011011017501041021MA1999999099791MD1210011+9999MW1021REMSYN072AAXX  09124 01278 41785 71506 10138 20060 39979 40078 52001 70222 81142;
0214012780999992000100918004+63800+011570FM-12+005299999V0201501N003110300019N0300001N1+01221+00471100821ADDAA199000091AY121061AY221061GF108991031081012501071999KA1999M+01421MA1999999099831MD1210011+9999MW1021REMSYN082AAXX  09184 01278 31680 81506 10122 20047 39983 40082 52001 70222 8387/ 333 10142;EQDQ01  00002PRCP99
0214012780999992000101006004+63800+011570FM-12+005299999V0201001N004610300019N0300001N1+01211+00621100631ADDAA199000091AY121061AY221061GF107991031081012501071021KA1999N+01181MA1999999099641MD1410001+9999MW1021REMSYN082AAXX  10064 01278 31680 71009 10121 20062 39964 40063 54000 70222 83872 333 20118;EQDQ01  00002PRCP99
0161012780999992000101009004+63800+011570FM-12+005299999V0201501N006210300019N0250001N1+01251+00641100541ADDAY121031AY221031GF107991031081012501071021MA1999999099551MD1710091+9999MW1021REMSYN072AAXX  10094 01278 41675 71512 10125 20064 39955 40054 57009 70222 83872;
0161012780999992000101012004+63800+011570FM-12+005299999V0201301N007710300019N0270001N1+01161+00451100411ADDAY121061AY221061GF106991031081017501071021MA1999999099421MD1710131+9999MW1021REMSYN072AAXX  10124 01278 41777 61315 10116 20045 39942 40041 57013 70222 83872;
0214012780999992000101018004+63800+011570FM-12+005299999V0201501N009810300019N0270001N1+00951+00201100431ADDAA199000091AY121061AY221061GF107991021081017501071999KA1999M+01261MA1999999099431MD1710021+9999MW1021REMSYN082AAXX  10184 01278 31777 71519 10095 20020 39943 40043 57002 70222 8287/ 333 10126;EQDQ01  00002PRCP99
0214012780999992000101106004+63800+011570FM-12+005299999V0201401N007710300019N0300001N1+00841+00421100061ADDAA199000091AY121061AY221061GF107991011081012501071021KA1999N+00771MA1999999099061MD1710041+9999MW1021REMSYN082AAXX  11064 01278 31680 71415 10084 20042 39906 40006 57004 70222 81872 333 20077;EQDQ01  00002PRCP99
0161012780999992000101109004+63800+011570FM-12+005299999V0201401N006210300019N0300001N1+00961+00521100101ADDAY121031AY221031GF107991041081012501071021MA1999999099101MD1210041+9999MW1021REMSYN072AAXX  11094 01278 41680 71412 10096 20052 39910 40010 52004 70222 84872;
0161012780999992000101112004+63800+011570FM-12+005299999V0201501N004610300019N0750001N1+01011+00611100221ADDAY121061AY221061GF107991041081012501071021MA1999999099231MD1210131+9999MW1021REMSYN072AAXX  11124 01278 41689 71509 10101 20061 39923 40022 52013 70222 84872;
0214012780999992000101118004+63800+011570FM-12+005299999V0201501N007710300019N0750001N1+01011+00621100191ADDAA199000091AY121061AY221061GF105991041081012501071021KA1999M+01101MA1999999099201MD1210101+9999MW1021REMSYN082AAXX  11184 01278 31689 51515 10101 20062 39920 40019 52010 70222 84872 333 10110;EQDQ01  00002PRCP99
0214012780999992000101206004+63800+011570FM-12+005299999V0201501N004612200019N0550001N1+01051+00741100181ADDAA199000091AY121061AY221061GF104991041081008001001021KA1999N+00921MA1999999099191MD1310021+9999MW1021REMSYN082AAXX  12064 01278 31585 41509 10105 20074 39919 40018 53002 70222 84802 333 20092;EQDQ01  00002PRCP99
0161012780999992000101209004+63800+011570FM-12+005299999V0200901N002110300019N0550001N1+01181+00831100311ADDAY121031AY221031GF107991011081012501071021MA1999999099321MD1210131+9999MW1031REMSYN072AAXX  12094 01278 41685 70904 10118 20083 39932 40031 52013 70322 81872;
0161012780999992000101212004+63800+011570FM-12+005299999V0201501N004610300019N0550001N1+01291+00881100411ADDAY121061AY221061GF107991041081012501071021MA1999999099421MD1210101+9999MW1021REMSYN072AAXX  12124 01278 41685 71509 10129 20088 39942 40041 52010 70222 84872;
0201012780999992000101218004+63800+011570FM-12+005299999V0201501N002110300019N0300001N1+01161+00921100431ADDAA112000791AY161061AY221061GF107991031081008001071021KA1999M+01331MA1999999099441MD1210011+9999MW1021REMSYN088AAXX  12184 01278 11580 71504 10116 20092 39944 40043 52001 69902 70262 83872 333 10133;
0201012780999992000101306004+63800+011570FM-12+005299999V0209999C000010300019N0100001N1+00791+00791100451ADDAA112008991AY161061AY221061GF108991011061000251021999KA1999N+00771MA1999999099441MD1210081+9999MW1611REMSYN088AAXX  13064 01278 11060 80000 10079 20079 39944 40045 52008 60092 76162 8162/ 333 20077;
0161012780999992000101309004+63800+011570FM-12+005299999V0209999C000010003019N0040001N1+00841+00841100621ADDAY161031AY221031GF108991081061000251999999MA1999999099611MD1210171+9999MW1021REMSYN072AAXX  13094 01278 41040 80000 10084 20084 39961 40062 52017 70262 886//;
0161012780999992000101312004+63800+011570FM-12+005299999V0209999C000010120019N0300001N1+01031+01031100841ADDAY161061AY221061GF107991071081008001999999MA1999999099841MD1210231+9999MW1021REMSYN072AAXX  13124 01278 41580 70000 10103 20103 39984 40084 52023 70262 878//;
0201012780999992000101318004+63800+011570FM-12+005299999V0201501N001012200019N0300001N1+00801+00801100971ADDAA112000891AY111061AY211061GF101991011001999999031001KA1999M+01281MA1999999099961MD1110051+9999MW1011REMSYN088AAXX  13184 01278 11980 11502 10080 20080 39996 40097 51005 69972 70111 81030 333 10128;
0224012780999992000101406004+63800+011570FM-12+005299999V0201201N002112200019N0300001N1+00361+00361100841ADDAA199000091AY101061AY201061GA1001+999999999GF100991001001999999001001KA1999N+00331MA1999999099811MD1710071+9999MW1021REMSYN076AAXX  14064 01278 31980 01204 10036 20036 39981 40084 57007 70200 333 20033;EQDQ01  00002PRCP99
0161012780999992000101409004+63800+011570FM-12+005299999V0209999C000012200019N0300001N1+00601+00591100881ADDAY101031AY201031GF101991001001999999001021MA1999999099871MD1210061+9999MW1021REMSYN072AAXX  14094 01278 41980 10000 10060 20059 39987 40088 52006 70200 80002;
0161012780999992000101412004+63800+011570FM-12+005299999V0201501N001012200019N0300001N1+01101+00841100841ADDAY101061AY201061GF103991011011017501001021MA1999999099841MD1710031+9999MW1021REMSYN072AAXX  14124 01278 41780 31502 10110 20084 39984 40084 57003 70200 81102;
0214012780999992000101418004+63800+011570FM-12+005299999V0201201N001012200019N0300001N1+00741+00731100901ADDAA199000091AY101061AY201061GF101991011051017501031021KA1999M+01271MA1999999099891MD1210071+9999MW1021REMSYN082AAXX  14184 01278 31780 11202 10074 20073 39989 40090 52007 70200 81532 333 10127;EQDQ01  00002PRCP99
0214012780999992000101506004+63800+011570FM-12+005299999V0201201N002112200019N0300001N1+00501+00501101061ADDAA199000091AY111061AY211061GF104991031051017501001021KA1999N+00451MA1999999100041MD1210071+9999MW1021REMSYN082AAXX  15064 01278 31780 41204 10050 20050 30004 40106 52007 70211 83502 333 20045;EQDQ01  00002PRCP99
0161012780999992000101509004+63800+011570FM-12+005299999V0201501N000510300019N0300001N1+00601+00591101351ADDAY121031AY221031GF106991031081017501081021MA1999999100331MD1210291+9999MW1021REMSYN072AAXX  15094 01278 41780 61501 10060 20059 30033 40135 52029 70222 83882;
0161012780999992000101512004+63800+011570FM-12+005299999V0201501N002110300019N0300001N1+00921+00761101481ADDAY121061AY221061GF106991021051017501031021MA1999999100471MD1210141+9999MW1021REMSYN072AAXX  15124 01278 41780 61504 10092 20076 30047 40148 52014 70222 82532;
0214012780999992000101518004+63800+011570FM-12+005299999V0201301N002112200019N0300001N1+00811+00721101641ADDAA199000091AY111061AY211061GF101991011051017501001021KA1999M+01261MA1999999100621MD1210131+9999MW1021REMSYN082AAXX  15184 01278 31780 11304 10081 20072 30062 40164 52013 70211 81502 333 10126;EQDQ01  00002PRCP99
0214012780999992000101606004+63800+011570FM-12+005299999V0201201N002110300019N0300001N1+00641+00611101681ADDAA199000091AY111061AY211061GF107991011011017501041021KA1999N+00591MA1999999100651MD1710081+9999MW1021REMSYN082AAXX  16064 01278 31780 71204 10064 20061 30065 40168 57008 70211 81142 333 20059;EQDQ01  00002PRCP99
0161012780999992000101609004+63800+011570FM-12+005299999V0201301N002110300019N0550001N1+00701+00631101711ADDAY121031AY221031GF106991011081017501071021MA1999999100691MD1210041+9999MW1021REMSYN072AAXX  16094 01278 41785 61304 10070 20063 30069 40171 52004 70222 81872;
0161012780999992000101612004+63800+011570FM-12+005299999V0201201N002110300019N0550001N1+00971+00761101551ADDAY121061AY221061GF107991031081017501071021MA1999999100541MD1710151+9999MW1031REMSYN072AAXX  16124 01278 41785 71204 10097 20076 30054 40155 57015 70322 83872;
0201012780999992000101618004+63800+011570FM-12+005299999V0200901N001012200019N0300001N1+01041+00651101101ADDAA112000791AY161061AY211061GF102991011001999999041021KA1999M+01271MA1999999100101MD1710251+9999MW1011REMSYN088AAXX  16184 01278 11980 20902 10104 20065 30010 40110 57025 69902 70161 81042 333 10127;
0214012780999992000101706004+63800+011570FM-12+005299999V0201401N007712200019N0300001N1+01201+00791100901ADDAA199000091AY111061AY211061GF104991031081017501001021KA1999N+00991MA1999999099901MD1710061+9999MW1021REMSYN082AAXX  17064 01278 31780 41415 10120 20079 39990 40090 57006 70211 83802 333 20099;EQDQ01  00002PRCP99
0161012780999992000101709004+63800+011570FM-12+005299999V0202901N003110150019N0300001N1+01371+00931100861ADDAY121031AY221031GF107991051081012501071999MA1999999099871MD1710031+9999MW1021REMSYN072AAXX  17094 01278 41680 72906 10137 20093 39987 40086 57003 70222 8587/;
0161012780999992000101712004+63800+011570FM-12+005299999V0201201N002112200019N0300001N1+01721+01061100841ADDAY121061AY221061GF104991031081012501071021MA1999999099871MD1410001+9999MW1021REMSYN072AAXX  17124 01278 41680 41204 10172 20106 39987 40084 54000 70222 83872;
0214012780999992000101718004+63800+011570FM-12+005299999V0202901N002110300019N0300001N1+01421+01041101341ADDAA199000091AY121061AY221061GF108991041081012501071999KA1999M+01811MA1999999100351MD1210401+9999MW1031REMSYN082AAXX  17184 01278 31680 82904 10142 20104 30035 40134 52040 70322 8487/ 333 10181;EQDQ01  00002PRCP99
0201012780999992000101806004+63800+011570FM-12+005299999V0201301N002112200019N0300001N1+01021+00721101431ADDAA112000891AY161061AY211061GF101991011081017501001001KA1999N+00861MA1999999100431MD1710081+9999MW1021REMSYN088AAXX  18064 01278 11780 11304 10102 20072 30043 40143 57008 69982 70261 81800 333 20086;
0161012780999992000101809004+63800+011570FM-12+005299999V0201501N004612200019N0300001N1+01211+00651101381ADDAY101031AY201031GF101991011081017501031021MA1999999100381MD1710051+9999MW1021REMSYN072AAXX  18094 01278 41780 11509 10121 20065 30038 40138 57005 70200 81832;
0161012780999992000101812004+63800+011570FM-12+005299999V0201501N004612200019N0300001N1+01481+00591101271ADDAY101061AY201061GF103991011081017501001021MA1999999100281MD1710101+9999MW1021REMSYN072AAXX  18124 01278 41780 31509 10148 20059 30028 40127 57010 70200 81802;
0214012780999992000101818004+63800+011570FM-12+005299999V0201501N003110300019N0300001N1+01261+00411101191ADDAA199000091AY121061AY211061GF107991041081017501071999KA1999M+01491MA1999999100191MD1710021+9999MW1021REMSYN082AAXX  18184 01278 31780 71506 10126 20041 30019 40119 57002 70221 8487/ 333 10149;EQDQ01  00002PRCP99
0214012780999992000101906004+63800+011570FM-12+005299999V0201001N002110300019N0300001N1+01151+00571101421ADDAA199000091AY121061AY221061GF107991011081017501071999KA1999N+00981MA1999999100421MD1210101+9999MW1021REMSYN082AAXX  19064 01278 31780 71004 10115 20057 30042 40142 52010 70222 8187/ 333 20098;EQDQ01  00002PRCP99
0161012780999992000101909004+63800+011570FM-12+005299999V0201201N002110300019N0550001N1+01181+00651101561ADDAY121031AY221031GF107991031081017501071021MA1999999100551MD1210131+9999MW1021REMSYN072AAXX  19094 01278 41785 71204 10118 20065 30055 40156 52013 70222 83872;
0161012780999992000101912004+63800+011570FM-12+005299999V0201401N002110300019N0550001N1+01221+00641101591ADDAY121061AY221061GF106991011081012501071021MA1999999100591MD1210041+9999MW1021REMSYN072AAXX  19124 01278 41685 61404 10122 20064 30059 40159 52004 70222 81872;
0214012780999992000101918004+63800+011570FM-12+005299999V0201201N003112200019N0300001N1+01121+00461101421ADDAA199000091AY111061AY211061GF103991011081017501001021KA1999M+01271MA1999999100421MD1610041+9999MW1021REMSYN082AAXX  19184 01278 31780 31206 10112 20046 30042 40142 56004 70211 81802 333 10127;EQDQ01  00002PRCP99
0214012780999992000102006004+63800+011570FM-12+005299999V0201001N002112200019N0550001N1+00751+00681101871ADDAA199000091AY101061AY201061GF101991011081012501001001KA1999N+00701MA1999999100851MD1210201+9999MW1021REMSYN082AAXX  20064 01278 31685 11004 10075 20068 30085 40187 52020 70200 81800 333 20070;EQDQ01  00002PRCP99
0161012780999992000102009004+63800+011570FM-12+005299999V0201401N002112200019N0550001N1+00611+00611102111ADDAY101031AY201031GF102991021081017501031011MA1999999101081MD1210151+9999MW1021REMSYN072AAXX  20094 01278 41785 21404 10061 20061 30108 40211 52015 70200 82831;
0161012780999992000102012004+63800+011570FM-12+005299999V0209999C000012200019N0550001N1+01221+00631102311ADDAY101061AY201061GF101991011051017501001001MA1999999101301MD1210221+9999MW1021REMSYN072AAXX  20124 01278 41785 10000 10122 20063 30130 40231 52022 70200 81500;
0214012780999992000102018004+63800+011570FM-12+005299999V0201201N002112200019N0550001N1+00631+00471102521ADDAA199000091AY101061AY201061GF101991001001999999001021KA1999M+01261MA1999999101491MD1210111+9999MW1021REMSYN082AAXX  20184 01278 31985 11204 10063 20047 30149 40252 52011 70200 80002 333 10126;EQDQ01  00002PRCP99
0214012780999992000102106004+63800+011570FM-12+005299999V0201401N00621030001CN0300001N1+01041+00451101981ADDAA199000091AY111061AY211061GF106991011081017501011999KA1999N+00361MA1999999100971MD1710301+9999MW1031REMSYN082AAXX  21064 01278 31780 61412 10104 20045 30097 40198 57030 70311 8181/ 333 20036;EQDQ01  00002PRCP99
0161012780999992000102109004+63800+011570FM-12+005299999V0201401N006210300019N0300001N1+01201+00691101861ADDAY121031AY221031GF108991011081012501071021MA1999999100861MD1710111+9999MW1021REMSYN072AAXX  21094 01278 41680 81412 10120 20069 30086 40186 57011 70222 81872;
0161012780999992000102112004+63800+011570FM-12+005299999V0201501N006210300019N0200001N1+01241+00891101651ADDAY161061AY221061GF108991041081012501021999MA1999999100651MD1710211+9999MW1601REMSYN072AAXX  21124 01278 41670 81512 10124 20089 30065 40165 57021 76062 8482/;
0201012780999992000102118004+63800+011570FM-12+005299999V0201401N002110150019N0300001N1+01191+01001101221ADDAA112002091AY161061AY221061GF108991081001017501021999KA1999M+01341MA1999999100221MD1710201+9999MW1611REMSYN088AAXX  21184 01278 11780 81404 10119 20100 30022 40122 57020 60022 76162 8802/ 333 10134;
0201012780999992000102206004+63800+011570FM-12+005299999V0202801N002110075019N0300001N1+00811+00811101431ADDAA112007991AY181061AY261061GF107991071091008001999999KA1999N+00801MA1999999100421MD1210261+9999MW1021REMSYN088AAXX  22064 01278 11580 72804 10081 20081 30042 40143 52026 60082 70286 879// 333 20080;
0161012780999992000102209004+63800+011570FM-12+005299999V0202801N002110075019N0300001N1+00741+00741101741ADDAY181031AY221031GF107991071091008001999999MA1999999100721MD1210301+9999MW1801REMSYN072AAXX  22094 01278 41580 72804 10074 20074 30072 40174 52030 78082 879//;
0161012780999992000102212004+63800+011570FM-12+005299999V0202701N002110075019N0300001N1+00781+00781101951ADDAY181061AY221061GF107991071091008001999999MA1999999100931MD1210211+9999MW1811REMSYN072AAXX  22124 01278 41580 72704 10078 20078 30093 40195 52021 78182 879//;
0201012780999992000102218004+63800+011570FM-12+005299999V0209999C000010300019N0300001N1+00761+00731102161ADDAA112004191AY181061AY221061GF107991031081012501071999KA1999M+00851MA1999999101131MD1410001+9999MW1021REMSYN088AAXX  22184 01278 11680 70000 10076 20073 30113 40216 54000 60042 70282 8387/ 333 10085;
0201012780999992000102306004+63800+011570FM-12+005299999V0201201N001019999999N0550001N1+00451+00451101701ADDAA112000391AY181061AY221061GF107991071001999999071999KA1999N+00391MA1999999100671MD1710291+9999MW1021REMSYN088AAXX  23064 01278 11985 71202 10045 20045 30067 40170 57029 69932 70282 8707/ 333 20039;
0161012780999992000102309004+63800+011570FM-12+005299999V0201001N002110750019N0750001N1+00581+00451101491ADDAY121031AY221031GF105991011051022501071021MA1999999100471MD1710201+9999MW1011REMSYN072AAXX  23094 01278 41889 51004 10058 20045 30047 40149 57020 70122 81572;
0161012780999992000102312004+63800+011570FM-12+005299999V0201501N002110300019N0750001N1+00871+00471101141ADDAY111061AY211061GF105991041081017501031021MA1999999100131MD1710341+9999MW1021REMSYN072AAXX  23124 01278 41789 51504 10087 20047 30013 40114 57034 70211 84832;
0214012780999992000102318004+63800+011570FM-12+005299999V0201501N001010300019N0300001N1+00571+00561100671ADDAA199000091AY121061AY221061GF106991011081017501071021KA1999M+00991MA1999999099651MD1710111+9999MW1021REMSYN082AAXX  23184 01278 31780 61502 10057 20056 39965 40067 57011 70222 81872 333 10099;EQDQ01  00002PRCP99
0201012780999992000102406004+63800+011570FM-12+005299999V0201001N001010300019N0200001N1+00561+00561099431ADDAA112001091AY161061AY221061GF108991011081012501021999KA1999N+00341MA1999999098431MD1710401+9999MW1611REMSYN088AAXX  24064 01278 11670 81002 10056 20056 39843 49943 57040 60012 76162 8182/ 333 20034;
0161012780999992000102409004+63800+011570FM-12+005299999V0201001N001010300019N0300001N1+00671+00671099221ADDAY161031AY221031GF107991011051017501051031MA1999999098221MD1710211+9999MW1021REMSYN072AAXX  24094 01278 41780 71002 10067 20067 39822 49922 57021 70262 81553;
0161012780999992000102412004+63800+011570FM-12+005299999V0202701N000510300019N0300001N1+00741+00741099131ADDAY161061AY221061GF107991041081004501061021MA1999999098131MD1710091+9999MW1021REMSYN072AAXX  24124 01278 41480 72701 10074 20074 39813 49913 57009 70262 84862;
0201012780999992000102418004+63800+011570FM-12+005299999V0209999C000010300019N0250001N1+00621+00621099051ADDAA112000791AY111061AY211061GF105991041081012501061021KA1999M+00791MA1999999098051MD1710021+9999MW1021REMSYN088AAXX  24184 01278 11675 50000 10062 20062 39805 49905 57002 69902 70211 84862 333 10079;
0201012780999992000102506004+63800+011570FM-12+005299999V0202901N002110042019N0200001N1+00611+00611099091ADDAA112006191AY181061AY221061GF108991081091004501999999KA1999N+00571MA1999999098091MD1210021+9999MW1801REMSYN088AAXX  25064 01278 11470 82904 10061 20061 39809 49909 52002 60062 78082 889// 333 20057;
0161012780999992000102509004+63800+011570FM-12+005299999V0203001N001010042019N0300001N1+00631+00631099151ADDAY181031AY221031GF107991051091004501021999MA1999999098151MD1210061+9999MW1021REMSYN072AAXX  25094 01278 41480 73002 10063 20063 39815 49915 52006 70282 8592/;
0161012780999992000102512004+63800+011570FM-12+005299999V0209999C000010042019N0300001N1+00741+00741099171ADDAY181061AY221061GF107991071091004501999999MA1999999098171MD1210021+9999MW1801REMSYN072AAXX  25124 01278 41480 70000 10074 20074 39817 49917 52002 78082 879//;
0201012780999992000102518004+63800+011570FM-12+005299999V0201501N001010075019N0200001N1+00481+00481099181ADDAA112003091AY181061AY221061GF107991071091008001999999KA1999M+00831MA1999999098171MD1410001+9999MW1801REMSYN088AAXX  25184 01278 11570 71502 10048 20048 39817 49918 54000 60032 78082 879// 333 10083;
0201012780999992000102606004+63800+011570FM-12+005299999V0201001N003112200019N0300001N1+00341+00191099471ADDAA112000791AY181061AY211061GF101991011081008001001001KA1999N+00171MA1999999098461MD1210191+9999MW1021REMSYN088AAXX  26064 01278 11580 11006 10034 20019 39846 49947 52019 69902 70281 81800 333 20017;
0161012780999992000102609004+63800+011570FM-12+005299999V0201101N003112200019N0300001N1+00361+00131099651ADDAY101031AY201031GF101991011081012501001001MA1999999098631MD1210171+9999MW1021REMSYN072AAXX  26094 01278 41680 11106 10036 20013 39863 49965 52017 70200 81800;
0161012780999992000102612004+63800+011570FM-12+005299999V0201201N003112200019N0550001N1+00451+00031099881ADDAY101061AY201061GF101991011081008001001001MA1999999098871MD1210241+9999MW1021REMSYN072AAXX  26124 01278 41585 11206 10045 20003 39887 49988 52024 70200 81800;
0214012780999992000102618004+63800+011570FM-12+005299999V0201001N002112200019N0550001N1+00311-00221100271ADDAA199000091AY101061AY201061GF101991011051017501001001KA1999M+00501MA1999999099251MD1210201+9999MW1021REMSYN082AAXX  26184 01278 31785 11004 10031 21022 39925 40027 52020 70200 81500 333 10050;EQDQ01  00002PRCP99
0224012780999992000102706004+63800+011570FM-12+005299999V0201301N002112200019N0550001N1-00051-00291100881ADDAA199000091AY101061AY201061GA1001+999999999GF100991001001999999001001KA1999N-00071MA1999999099841MD1210131+9999MW1021REMSYN076AAXX  27064 01278 31985 01304 11005 21029 39984 40088 52013 70200 333 21007;EQDQ01  00002PRCP99
0171012780999992000102709004+63800+011570FM-12+005299999V0201201N003112200019N0550001N1+00181-00251100941ADDAY101031AY201031GA1001+999999999GF100991001001999999001001MA1999999099911MD1210071+9999MW1021REMSYN066AAXX  27094 01278 41985 01206 10018 21025 39991 40094 52007 70200;
0171012780999992000102712004+63800+011570FM-12+005299999V0201301N003112200019N0550001N1+00271-00301101011ADDAY101061AY201061GA1001+999999999GF100991001001999999001001MA1999999099981MD1210071+9999MW1021REMSYN066AAXX  27124 01278 41985 01306 10027 21030 39998 40101 52007 70200;
0214012780999992000102718004+63800+011570FM-12+005299999V0201001N003112200019N0550001N1+00161-00421100971ADDAA199000091AY101061AY201061GF101991001001999999001021KA1999M+00341MA1999999099421MD1210101+9999MW1021REMSYN082AAXX  27184 01278 31985 11006 10016 21042 39942 40097 52010 70200 80002 333 10034;EQDQ01  00002PRCP99
0214012780999992000102806004+63800+011570FM-12+005299999V0201001N006210300019N0550001N1+00121-00331100651ADDAA199000091AY111061AY211061GF107991011051017501071021KA1999N+00041MA1999999099621MD1410001+9999MW1031REMSYN082AAXX  28064 01278 31785 71012 10012 21033 39962 40065 54000 70311 81572 333 20004;EQDQ01  00002PRCP99
0171012780999992000102809004+63800+011570FM-12+005299999V0201001N004610012019N0020001N1+00031+00021100731ADDAY171031AY221031GA1091+999999999GF109991091999999999999999MA1999999099691MD1210071+9999MW1731REMSYN066AAXX  28094 01278 41/20 91009 10003 20002 39969 40073 52007 77372;
0161012780999992000102812004+63800+011570FM-12+005299999V0201201N004610300019N0200001N1+00061+00061100771ADDAY171061AY221061GF108991031071004501021999MA1999999099731MD1210041+9999MW1701REMSYN072AAXX  28124 01278 41470 81209 10006 20006 39973 40077 52004 77072 8372/;
0201012780999992000102818004+63800+011570FM-12+005299999V0201201N002110042019N0300001N1+00141+00141100971ADDAA112005191AY171061AY221061GF108991081001004501021999KA1999M+00201MA1999999099941MD1210161+9999MW1021REMSYN088AAXX  28184 01278 11480 81204 10014 20014 39994 40097 52016 60052 70272 8802/ 333 10020;
0243012780999992000102906004+63800+011570FM-12+005299999V0201201N007712200019N0550001N1+00321-00061100591ADDAA199000091AJ100049199999999AY111061AY211061GF103991011011012501001021IA1309KA1120N+00131MA1999999099561MD1710271+9999MW1021REMSYN088AAXX  29064 01278 31685 31215 10032 21006 39956 40059 57027 70211 81102 333 20013 42004;EQDQ01  00002PRCP99
0161012780999992000102909004+63800+011570FM-12+005299999V0201201N009810300019N0550001N1+00391-00011100361ADDAY111031AY211031GF108991021081008001071021MA1999999099341MD1710221+9999MW1031REMSYN072AAXX  29094 01278 41585 81219 10039 21001 39934 40036 57022 70311 82872;
0161012780999992000102912004+63800+011570FM-12+005299999V0201201N007710300019N0200001N1+00211-00061100181ADDAY171061AY221061GF108991041071008001021999MA1999999099151MD1710191+9999MW1701REMSYN072AAXX  29124 01278 41570 81215 10021 21006 39915 40018 57019 77072 8472/;
0184012780999992000102918004+63800+011570FM-12+005299999V0201501N007710120019N0550001N1+00101-00171099821ADDAY171061AY221061GF107991071001012501021999KA1999M+00401MA1999999098801MD1610101+9999MW1151REMSYN082AAXX  29184 01278 11685 71515 10010 21017 39880 49982 56010 71572 8702/ 333 10040;
0214012780999992000103006004+63800+011570FM-12+005299999V0201301N007710300019N0550001N1+00551-00251099601ADDAA199000091AY121061AY221061GF105991041081012501041021KA1999N+00051MA1999999098571MD1510051+9999MW1021REMSYN082AAXX  30064 01278 31685 51315 10055 21025 39857 49960 55005 70222 84842 333 20005;EQDQ01  00002PRCP99
0161012780999992000103009004+63800+011570FM-12+005299999V0201401N007712200019N0750001N1+00021-00321099581ADDAY111031AY211031GF102991021081008001001001MA1999999098551MD1710021+9999MW1011REMSYN072AAXX  30094 01278 41589 21415 10002 21032 39855 49958 57002 70111 82800;
0161012780999992000103012004+63800+011570FM-12+005299999V0201301N007712200019N0550001N1+00081-00301099571ADDAY111061AY211061GF104991031081008001041011MA1999999098541MD1710011+9999MW1021REMSYN072AAXX  30124 01278 41585 41315 10008 21030 39854 49957 57001 70211 83841;
0201012780999992000103018004+63800+011570FM-12+005299999V0201301N006210300019N0150001N1+00031-00241098941ADDAA112000791AY171061AY221061GF108991041081008001021999KA1999M+00141MA1999999097921MD1710311+9999MW1711REMSYN088AAXX  30184 01278 11565 81312 10003 21024 30792 49894 57031 69902 77172 8482/ 333 10014;
0201012780999992000103106004+63800+011570FM-12+005299999V0200901N006212200019N0550001N1+00281-00041097251ADDAA112000791AY171061AY221061GF104991011081017501071021KA1999N-00011MA1999999096261MD1510131+9999MW1021REMSYN088AAXX  31064 01278 11785 40912 10028 21004 39626 49725 55013 69902 70272 81872 333 21001;
0161012780999992000103109004+63800+011570FM-12+005299999V0201401N006210300019N0750001N1+00411+00101097011ADDAY121031AY221031GF107991011081008001071021MA1999999096021MD1710241+9999MW1021REMSYN072AAXX  31094 01278 41589 71412 10041 20010 39602 49701 57024 70222 81872;
0161012780999992000103112004+63800+011570FM-12+005299999V0201001N004610150019N0550001N1+00821+00321097001ADDAY121061AY221061GF107991061081012501071999MA1999999096031MD1210011+9999MW1031REMSYN072AAXX  31124 01278 41685 71009 10082 20032 39603 49700 52001 70322 8687/;
0201012780999992000103118004+63800+011570FM-12+005299999V0201501N004610120019N0550001N1+01041+00321097231ADDAA112000791AY161061AY221061GF108991081001012501021999KA1999M+01051MA1999999096271MD1210201+9999MW1601REMSYN088AAXX  31184 01278 11685 81509 10104 20032 39627 49723 52020 69902 76062 8802/ 333 10105;
0195012780999992000110106004+63800+011570FM-12+005299999V0200501N000512200019N0550001N1+00721+00141098201ADDAA199000021AY111061AY211061GF101991011011017501001021KA1999N+00701MA1999999097211MD1210361+9999MW1021REMSYN082AAXX  01064 01278 31785 10501 10072 20014 39721 49820 52036 70211 81102 333 20070;
0161012780999992000110109004+63800+011570FM-12+005299999V0201001N001012200019N0550001N1+00671+00141098491ADDAY101031AY201031GF103991011081012501071021MA1999999097501MD1210291+9999MW1021REMSYN072AAXX  01094 01278 41685 31002 10067 20014 39750 49849 52029 70200 81872;
0161012780999992000110112004+63800+011570FM-12+005299999V0201001N000510300019N0550001N1+00901+00151098761ADDAY111061AY211061GF106991011081017501071021MA1999999097781MD1210281+9999MW1021REMSYN072AAXX  01124 01278 41785 61001 10090 20015 39778 49876 52028 70211 81872;
0214012780999992000110118004+63800+011570FM-12+005299999V0201001N002112200019N0550001N1+00771+00061099071ADDAA199000091AY111061AY211061GF103991011001999999041021KA1999M+00981MA1999999098071MD1210151+9999MW1021REMSYN082AAXX  01184 01278 31985 31004 10077 20006 39807 49907 52015 70211 81042 333 10098;EQDQ01  00002PRCP99
0214012780999992000110206004+63800+011570FM-12+005299999V0201501N004610300019N0300001N1+00811+00291099191ADDAA199000091AY111061AY211061GF108991011081017501071021KA1999N+00691MA1999999098201MD1210101+9999MW1021REMSYN082AAXX  02064 01278 31780 81509 10081 20029 39820 49919 52010 70211 81872 333 20069;EQDQ01  00002PRCP99
0161012780999992000110209004+63800+011570FM-12+005299999V0201201N004610300019N0550001N1+00811+00311099311ADDAY121031AY221031GF107991011081012501071021MA1999999098321MD1210121+9999MW1021REMSYN072AAXX  02094 01278 41685 71209 10081 20031 39832 49931 52012 70222 81872;
0161012780999992000110212004+63800+011570FM-12+005299999V0201501N003110300019N0750001N1+00781+00321099441ADDAY121061AY221061GF107991041071017501071021MA1999999098441MD1210121+9999MW1021REMSYN072AAXX  02124 01278 41789 71506 10078 20032 39844 49944 52012 70222 84772;
0211012780999992000110218004+63800+011570FM-12+005299999V0201001N000512200019N0750001N1+00501+00251099731ADDAA112000791AY161061AY211061GA1001+999999999GF100991001001999999001001KA1999M+00851MA1999999098721MD1210331+9999MW1051REMSYN082AAXX  02184 01278 11989 01001 10050 20025 39872 49973 52033 69902 70561 333 10085;
0214012780999992000110306004+63800+011570FM-12+005299999V0201001N002112200019N0550001N1+00211+00091100061ADDAA199000091AY101061AY201061GF103991011011012501001021KA1999N+00081MA1999999099031MD1410001+9999MW1021REMSYN082AAXX  03064 01278 31685 31004 10021 20009 39903 40006 54000 70200 81102 333 20008;EQDQ01  00002PRCP99
0161012780999992000110309004+63800+011570FM-12+005299999V0200901N001010300019N0550001N1+00301+00041100101ADDAY111031AY211031GF107991011011012501071021MA1999999099081MD1210051+9999MW1031REMSYN072AAXX  03094 01278 41685 70902 10030 20004 39908 40010 52005 70311 81172;
0161012780999992000110312004+63800+011570FM-12+005299999V0201401N002110300019N0550001N1+00521+00161099891ADDAY111061AY211061GF108991011011012501071999MA1999999098881MD1710201+9999MW1021REMSYN072AAXX  03124 01278 41685 81404 10052 20016 39888 49989 57020 70211 8117/;
0214012780999992000110318004+63800+011570FM-12+005299999V0201201N006210300019N0550001N1+00671+00311099811ADDAA199000091AY121061AY221061GF107991011011017501071021KA1999M+00701MA1999999098811MD1210131+9999MW1021REMSYN082AAXX  03184 01278 31785 71212 10067 20031 39881 49981 52013 70222 81172 333 10070;EQDQ01  00002PRCP99
0214012780999992000110406004+63800+011570FM-12+005299999V0201501N006210750019N0550001N1+00901+00281099661ADDAA199000091AY111061AY211061GF105991011081012501071021KA1999N+00561MA1999999098661MD1710141+9999MW1021REMSYN082AAXX  04064 01278 31685 51512 10090 20028 39866 49966 57014 70211 81872 333 20056;EQDQ01  00002PRCP99
0161012780999992000110409004+63800+011570FM-12+005299999V0201501N006210300019N0550001N1+00881+00281099701ADDAY121031AY221031GF106991031081012501071999MA1999999098701MD1210041+9999MW1021REMSYN072AAXX  04094 01278 41685 61512 10088 20028 39870 49970 52004 70222 8387/;
0161012780999992000110412004+63800+011570FM-12+005299999V0201501N003110300019N0550001N1+00971+00321099771ADDAY121061AY221061GF107991031081012501071021MA1999999098781MD1210081+9999MW1021REMSYN072AAXX  04124 01278 41685 71506 10097 20032 39878 49977 52008 70222 83872;
0214012780999992000110418004+63800+011570FM-12+005299999V0201001N001012200019N0750001N1+00751+00111099771ADDAA199000091AY111061AY211061GF101991011011017501001001KA1999M+01001MA1999999098771MD1210101+9999MW1011REMSYN082AAXX  04184 01278 31789 11002 10075 20011 39877 49977 52010 70111 81100 333 10100;EQDQ01  00002PRCP99
0208012780999992000110506004+63800+011570FM-12+005299999V0201001N001012200019N0550001N1+00091+00091999999ADDAA199000091AY101061AY201061GF101991011011012501001021KA1999N+00071MA1999999099181MD1210201+9999MW1021REMSYN076AAXX  05064 01278 31685 11002 10009 20009 39918 52020 70200 81102 333 20007;EQDQ01  00002PRCP99
0161012780999992000110509004+63800+011570FM-12+005299999V0201401N002112200019N0550001N1+00021+00021100341ADDAY101031AY201031GF101991011011012501081021MA1999999099311MD1210231+9999MW1021REMSYN072AAXX  05094 01278 41685 11404 10002 20002 39931 40034 52023 70200 81182;
0161012780999992000110512004+63800+011570FM-12+005299999V0201401N002112200019N0550001N1+00431+00251100381ADDAY101061AY201061GF101991011081012501031021MA1999999099361MD1210051+9999MW1021REMSYN072AAXX  05124 01278 41685 11404 10043 20025 39936 40038 52005 70200 81832;
0214012780999992000110518004+63800+011570FM-12+005299999V0201401N002112200019N0750001N1+00131+00121100391ADDAA199000091AY101061AY201061GF101991011011017501041021KA1999M+00491MA1999999099361MD1210011+9999MW1021REMSYN082AAXX  05184 01278 31789 11404 10013 20012 39936 40039 52001 70200 81142 333 10049;EQDQ01  00002PRCP99
0214012780999992000110606004+63800+011570FM-12+005299999V0201401N001012200019N0550001N1-00031-00031100381ADDAA199000091AY101061AY201061GF103991021041017501001021KA1999N-00031MA1999999099341MD1410001+9999MW1021REMSYN082AAXX  06064 01278 31785 31402 11003 21003 39934 40038 54000 70200 82402 333 21003;EQDQ01  00002PRCP99
0161012780999992000110609004+63800+011570FM-12+005299999V0201401N001012200019N0550001N1-00051-00051100441ADDAY101031AY201031GF101991011081017501001001MA1999999099401MD1210061+9999MW1021REMSYN072AAXX  06094 01278 41785 11402 11005 21005 39940 40044 52006 70200 81800;
0161012780999992000110612004+63800+011570FM-12+005299999V0201501N001012200019N0300001N1+00181+00141100531ADDAY101061AY201061GF101991011081017501001001MA1999999099501MD1210101+9999MW1021REMSYN072AAXX  06124 01278 41780 11502 10018 20014 39950 40053 52010 70200 81800;
0214012780999992000110618004+63800+011570FM-12+005299999V0200901N001010150019N0550001N1+00091+00091100721ADDAA199000091AY111061AY211061GF108991051051017501071999KA1999M+00251MA1999999099681MD1210151+9999MW1031REMSYN082AAXX  06184 01278 31785 80902 10009 20009 39968 40072 52015 70311 8557/ 333 10025;EQDQ01  00002PRCP99
0214012780999992000110706004+63800+011570FM-12+005299999V0201401N001012200019N0550001N1-00211-00211101081ADDAA199000091AY111061AY211061GF101991001001999999001021KA1999N-00261MA1999999100021MD1110051+9999MW1021REMSYN082AAXX  07064 01278 31985 11402 11021 21021 30002 40108 51005 70211 80002 333 21026;EQDQ01  00002PRCP99
0161012780999992000110709004+63800+011570FM-12+005299999V0201501N001019999999N0550001N1-00141-00141101141ADDAY111031AY211031GF107991001001999999001061MA1999999100091MD1210071+9999MW1031REMSYN072AAXX  07094 01278 41985 71502 11014 21014 30009 40114 52007 70311 80006;
0161012780999992000110712004+63800+011570FM-12+005299999V0201501N000510300019N0300001N1+00151+00141101121ADDAY111061AY211061GF107991011011012501021999MA1999999100081MD1710011+9999MW1021REMSYN072AAXX  07124 01278 41680 71501 10015 20014 30008 40112 57001 70211 8112/;
0214012780999992000110718004+63800+011570FM-12+005299999V0201001N004619999999N0550001N1+00261+00111100771ADDAA199000091AY121061AY221061GF107991021001999999071021KA1999M+00271MA1999999099741MD1710131+9999MW1021REMSYN082AAXX  07184 01278 31985 71009 10026 20011 39974 40077 57013 70222 82072 333 10027;EQDQ01  00002PRCP99
0214012780999992000110806004+63800+011570FM-12+005299999V0201001N003110300019N0550001N1+00591+00331099921ADDAA199000091AY121061AY221061GF108991021081012501071999KA1999N+00181MA1999999098911MD1710191+9999MW1021REMSYN082AAXX  08064 01278 31685 81006 10059 20033 39891 49992 57019 70222 8287/ 333 20018;EQDQ01  00002PRCP99
0161012780999992000110809004+63800+011570FM-12+005299999V0201501N002110300019N0750001N1+00651+00381099801ADDAY121031AY221031GF108991021011008001021999MA1999999098801MD1710111+9999MW1021REMSYN072AAXX  08094 01278 41589 81504 10065 20038 39880 49980 57011 70222 8212/;
0161012780999992000110812004+63800+011570FM-12+005299999V0201501N003110300019N0550001N1+00701+00431099721ADDAY161061AY221061GF108991031071008001071999MA1999999098721MD1710081+9999MW1601REMSYN072AAXX  08124 01278 41585 81506 10070 20043 39872 49972 57008 76062 8377/;
0201012780999992000110818004+63800+011570FM-12+005299999V0201001N002110300019N0550001N1+00671+00431099551ADDAA112000191AY161061AY221061GF108991031071008001071999KA1999M+00751MA1999999098551MD1710011+9999MW1601REMSYN088AAXX  08184 01278 11585 81004 10067 20043 39855 49955 57001 69912 76062 8377/ 333 10075;
0201012780999992000110906004+63800+011570FM-12+005299999V0201501N002112200019N0550001N1+00621+00351099491ADDAA112000791AY161061AY211061GF104991011001999999041021KA1999N+00571MA1999999098491MD1210091+9999MW1021REMSYN088AAXX  09064 01278 11985 41504 10062 20035 39849 49949 52009 69902 70261 81042 333 20057;
0161012780999992000110909004+63800+011570FM-12+005299999V0200901N000512200019N0550001N1+00621+00361099701ADDAY111031AY211031GF101991011011017501041021MA1999999098701MD1210211+9999MW1021REMSYN072AAXX  09094 01278 41785 10901 10062 20036 39870 49970 52021 70211 81142;
0161012780999992000110912004+63800+011570FM-12+005299999V0201601N001012200019N0300001N1+00931+00401099791ADDAY111061AY211061GF101991011081017501041021MA1999999098801MD1210101+9999MW1021REMSYN072AAXX  09124 01278 41780 11602 10093 20040 39880 49979 52010 70211 81842;
0214012780999992000110918004+63800+011570FM-12+005299999V0201301N001012200019N0550001N1+00711+00331100031ADDAA199000091AY101061AY201061GF101991011041022501001011KA1999M+00951MA1999999099021MD1210151+9999MW1021REMSYN082AAXX  09184 01278 31885 11302 10071 20033 39902 40003 52015 70200 81401 333 10095;EQDQ01  00002PRCP99
0214012780999992000111006004+63800+011570FM-12+005299999V0201501N002119999999N0550001N1+00801+00341100301ADDAA199000091AY111061AY211061GF107991041001999999071021KA1999N+00591MA1999999099301MD1210031+9999MW1021REMSYN082AAXX  10064 01278 31985 71504 10080 20034 39930 40030 52003 70211 84072 333 20059;EQDQ01  00002PRCP99
0161012780999992000111009004+63800+011570FM-12+005299999V0201301N002112200019N0550001N1+00721+00341100411ADDAY121031AY221031GF104991011041017501031021MA1999999099401MD1210101+9999MW1011REMSYN072AAXX  10094 01278 41785 41304 10072 20034 39940 40041 52010 70122 81432;
0161012780999992000111012004+63800+011570FM-12+005299999V0201301N001012200019N0550001N1+00881+00351100471ADDAY111061AY211061GF102991011081017501041011MA1999999099471MD1210071+9999MW1011REMSYN072AAXX  10124 01278 41785 21302 10088 20035 39947 40047 52007 70111 81841;
0214012780999992000111018004+63800+011570FM-12+005299999V0201101N001012200019N0550001N1+00421+00281100571ADDAA199000091AY101061AY201061GF101991011041017501001021KA1999M+00901MA1999999099551MD1210081+9999MW1021REMSYN082AAXX  10184 01278 31785 11102 10042 20028 39955 40057 52008 70200 81402 333 10090;EQDQ01  00002PRCP99
0214012780999992000111106004+63800+011570FM-12+005299999V0201301N000512200019N0300001N1+00001+00001100741ADDAA199000091AY101061AY201061GF104991011051022501001021KA1999N+00001MA1999999099701MD1210021+9999MW1021REMSYN082AAXX  11064 01278 31880 41301 10000 20000 39970 40074 52002 70200 81502 333 20000;EQDQ01  00002PRCP99
0161012780999992000111109004+63800+011570FM-12+005299999V0201401N001012200019N0550001N1+00091+00091100821ADDAY111031AY211031GF104991011061008001041021MA1999999099781MD1210081+9999MW1401REMSYN072AAXX  11094 01278 41585 41402 10009 20009 39978 40082 52008 74011 81642;
0161012780999992000111112004+63800+011570FM-12+005299999V0202801N000510750019N0300001N1+00331+00321100841ADDAY111061AY211061GF105991011061004501031021MA1999999099811MD1210031+9999MW1401REMSYN072AAXX  11124 01278 41480 52801 10033 20032 39981 40084 52003 74011 81632;
0214012780999992000111118004+63800+011570FM-12+005299999V0201101N001012200019N0550001N1+00111+00111100811ADDAA199000091AY101061AY201061GF101991011001999999041021KA1999M+00411MA1999999099781MD1710031+9999MW1021REMSYN082AAXX  11184 01278 31985 11102 10011 20011 39978 40081 57003 70200 81042 333 10041;EQDQ01  00002PRCP99
0214012780999992000111206004+63800+011570FM-12+005299999V0201501N003112200019N0550001N1+00381+00001100311ADDAA199000091AY101061AY201061GF102991011041017501001021KA1999N+00071MA1999999099291MD1710221+9999MW1021REMSYN082AAXX  12064 01278 31785 21506 10038 20000 39929 40031 57022 70200 81402 333 20007;EQDQ01  00002PRCP99
0161012780999992000111209004+63800+011570FM-12+005299999V0201501N003110300019N9999999N1+00511+00121100171ADDAY111031AY211031GF106991011081012501071021MA1999999099161MD1710131+9999MW1031REMSYN072AAXX  12094 01278 41655 61506 10051 20012 39916 40017 57013 70311 81872;
0161012780999992000111212004+63800+011570FM-12+005299999V0201501N003110300019N0550001N1+00671+00191100051ADDAY111061AY211061GF107991041081017501071021MA1999999099041MD1710121+9999MW1031REMSYN072AAXX  12124 01278 41785 71506 10067 20019 39904 40005 57012 70311 84872;
0214012780999992000111218004+63800+011570FM-12+005299999V0201101N004610300019N0550001N1+00721+00341099921ADDAA199000091AY121061AY221061GF108991011081017501071999KA1999M+00761MA1999999098921MD1710061+9999MW1031REMSYN082AAXX  12184 01278 31785 81109 10072 20034 39892 49992 57006 70322 8187/ 333 10076;EQDQ01  00002PRCP99
0214012780999992000111306004+63800+011570FM-12+005299999V0201501N002110300019N0550001N1+00721+00241099521ADDAA199000091AY121061AY221061GF108991011081012501071999KA1999N+00681MA1999999098521MD1610101+9999MW1021REMSYN082AAXX  13064 01278 31685 81504 10072 20024 39852 49952 56010 70222 8187/ 333 20068;EQDQ01  00002PRCP99
0161012780999992000111309004+63800+011570FM-12+005299999V0201501N006210300019N0300001N1+00701+00301099421ADDAY161031AY221031GF108991011081012501071999MA1999999098421MD1710101+9999MW1601REMSYN072AAXX  13094 01278 41680 81512 10070 20030 39842 49942 57010 76062 8187/;
0161012780999992000111312004+63800+011570FM-12+005299999V0201501N006210300019N0550001N1+00691+00321099321ADDAY161061AY221061GF107991041081012501071021MA1999999098321MD1710101+9999MW1021REMSYN072AAXX  13124 01278 41685 71512 10069 20032 39832 49932 57010 70262 84872;
0201012780999992000111318004+63800+011570FM-12+005299999V0201101N002110300019N0550001N1+00651+00351099341ADDAA112000791AY121061AY221061GF108991011081017501071999KA1999M+00751MA1999999098331MD1210051+9999MW1021REMSYN088AAXX  13184 01278 11785 81104 10065 20035 39833 49934 52005 69902 70222 8187/ 333 10075;
0214012780999992000111406004+63800+011570FM-12+005299999V0201001N001012200019N0550001N1+00121+00111099741ADDAA199000091AY111061AY211061GF101991011041017501001021KA1999N+00041MA1999999098721MD1210191+9999MW1021REMSYN082AAXX  14064 01278 31785 11002 10012 20011 39872 49974 52019 70211 81402 333 20004;EQDQ01  00002PRCP99
0161012780999992000111409004+63800+011570FM-12+005299999V0201101N001010150019N0550001N1+00081+00081099941ADDAY111031AY211031GF107991071051017501999999MA1999999098911MD1210191+9999MW1031REMSYN072AAXX  14094 01278 41785 71102 10008 20008 39891 49994 52019 70311 875//;
0161012780999992000111412004+63800+011570FM-12+005299999V0201301N002110300019N0550001N1+00181+00171100071ADDAY111061AY211061GF106991031081017501061021MA1999999099041MD1210131+9999MW1011REMSYN072AAXX  14124 01278 41785 61304 10018 20017 39904 40007 52013 70111 83862;
0214012780999992000111418004+63800+011570FM-12+005299999V0201101N001010180019N0550001N1+00091+00091100331ADDAA199000091AY121061AY221061GF106991061081017501999999KA1999M+00371MA1999999099301MD1210141+9999MW1021REMSYN082AAXX  14184 01278 31785 61102 10009 20009 39930 40033 52014 70222 868// 333 10037;EQDQ01  00002PRCP99
0224012780999992000111506004+63800+011570FM-12+005299999V0201001N001012200019N0750001N1-00221-00221100701ADDAA199000091AY111061AY211061GA1001+999999999GF100991001001999999001001KA1999N-00301MA1999999099651MD1210101+9999MW1021REMSYN076AAXX  15064 01278 31989 01002 11022 21022 39965 40070 52010 70211 333 21030;EQDQ01  00002PRCP99
0161012780999992000111509004+63800+011570FM-12+005299999V0201301N001012200019N0550001N1-00271-00271100821ADDAY101031AY201031GF101991011051022501001001MA1999999099771MD1210121+9999MW1021REMSYN072AAXX  15094 01278 41885 11302 11027 21027 39977 40082 52012 70200 81500;
0171012780999992000111512004+63800+011570FM-12+005299999V0201001N000512200019N0550001N1-00041-00081100841ADDAY101061AY201061GA1001+999999999GF100991001001999999001001MA1999999099801MD1210031+9999MW1021REMSYN066AAXX  15124 01278 41985 01001 11004 21008 39980 40084 52003 70200;
0224012780999992000111518004+63800+011570FM-12+005299999V0200901N000512200019N0550001N1-00281-00281100821ADDAA199000091AY101061AY201061GA1001+999999999GF100991001001999999001001KA1999M+00001MA1999999099771MD1410001+9999MW1021REMSYN076AAXX  15184 01278 31985 00901 11028 21028 39977 40082 54000 70200 333 10000;EQDQ01  00002PRCP99
0224012780999992000111606004+63800+011570FM-12+005299999V0201401N001012200019N0750001N1-00311-00311100791ADDAA199000091AY101061AY201061GA1001+999999999GF100991001001999999001001KA1999N-00391MA1999999099741MD1410001+9999MW1021REMSYN076AAXX  16064 01278 31989 01402 11031 21031 39974 40079 54000 70200 333 21039;EQDQ01  00002PRCP99
0171012780999992000111609004+63800+011570FM-12+005299999V0201501N001012200019N0550001N1-00301-00301100851ADDAY101031AY201031GA1001+999999999GF100991001001999999001001MA1999999099801MD1210061+9999MW1021REMSYN066AAXX  16094 01278 41985 01502 11030 21030 39980 40085 52006 70200;
0191012780999992000111612004+63800+011570FM-12+005299999V0201401N001012200019N0550001N1-00061-00101100841ADDAA199000091AY101061AY201061GF101991001001999999001021MA1999999099801MD1410001+9999MW1021REMSYN072AAXX  16124 01278 31985 11402 11006 21010 39980 40084 54000 70200 80002;EQDQ01  00002PRCP99
0224012780999992000111618004+63800+011570FM-12+005299999V0201401N002112200019N0750001N1-00141-00151100951ADDAA199000091AY101061AY201061GA1001+999999999GF100991001001999999001001KA1999M+00001MA1999999099901MD1210101+9999MW1021REMSYN076AAXX  16184 01278 31989 01404 11014 21015 39990 40095 52010 70200 333 10000;EQDQ01  00002PRCP99
0224012780999992000111706004+63800+011570FM-12+005299999V0201501N003112200019N0550001N1+00171-00131100941ADDAA199000091AY101061AY201061GA1001+999999999GF100991001001999999001001KA1999N-00181MA1999999099911MD1710141+9999MW1021REMSYN076AAXX  17064 01278 31985 01506 10017 21013 39991 40094 57014 70200 333 21018;EQDQ01  00002PRCP99
0161012780999992000111709004+63800+011570FM-12+005299999V0201501N004612200019N0550001N1+00361-00021100951ADDAY101031AY201031GF101991011041012501001001MA1999999099921MD1210011+9999MW1021REMSYN072AAXX  17094 01278 41685 11509 10036 21002 39992 40095 52001 70200 81400;
0161012780999992000111712004+63800+011570FM-12+005299999V0201501N004612200019N0300001N1+00571+00051101021ADDAY101061AY201061GF102991021041017501001001MA1999999100001MD1210081+9999MW1021REMSYN072AAXX  17124 01278 41780 21509 10057 20005 30000 40102 52008 70200 82400;
0214012780999992000111718004+63800+011570FM-12+005299999V0201501N004610300019N0300001N1+00471+00121101041ADDAA199000091AY111061AY211061GF106991041081017501071021KA1999M+00621MA1999999100011MD1710011+9999MW1021REMSYN082AAXX  17184 01278 31780 61509 10047 20012 30001 40104 57001 70211 84872 333 10062;EQDQ01  00002PRCP99
0214012780999992000111806004+63800+011570FM-12+005299999V0201201N003119999999N0550001N1+00571+00011100771ADDAA199000091AY121061AY221061GF107991071001999999071999KA1999N+00461MA1999999099751MD1710091+9999MW1021REMSYN082AAXX  18064 01278 31985 71206 10057 20001 39975 40077 57009 70222 8707/ 333 20046;EQDQ01  00002PRCP99
0161012780999992000111809004+63800+011570FM-12+005299999V0201501N004610300019N0550001N1+00551+00191100591ADDAY121031AY221031GF107991011081008001071999MA1999999099571MD1710181+9999MW1021REMSYN072AAXX  18094 01278 41585 71509 10055 20019 39957 40059 57018 70222 8187/;
0161012780999992000111812004+63800+011570FM-12+005299999V0201501N003110300019N0750001N1+00531+00211100401ADDAY121061AY221061GF107991011081008001071021MA1999999099391MD1710181+9999MW1021REMSYN072AAXX  18124 01278 41589 71506 10053 20021 39939 40040 57018 70222 81872;
0201012780999992000111818004+63800+011570FM-12+005299999V0201001N004610300019N0300001N1+00391+00161099971ADDAA112000791AY161061AY221061GF108991011011012501021999KA1999M+00621MA1999999098951MD1710301+9999MW1601REMSYN088AAXX  18184 01278 11680 81009 10039 20016 39895 49997 57030 69902 76062 8112/ 333 10062;
0201012780999992000111906004+63800+011570FM-12+005299999V0201201N001012200019N0550001N1+00231-00021099591ADDAA112000791AY161061AY211061GF103991021041017501001021KA1999N+00221MA1999999098571MD1210051+9999MW1021REMSYN088AAXX  19064 01278 11785 31202 10023 21002 39857 49959 52005 69902 70261 82402 333 20022;
0161012780999992000111909004+63800+011570FM-12+005299999V0201201N003112200019N0550001N1+00201+00021099611ADDAY101031AY201031GF101991011081004501001001MA1999999098591MD1210021+9999MW1021REMSYN072AAXX  19094 01278 41485 11206 10020 20002 39859 49961 52002 70200 81800;
0161012780999992000111912004+63800+011570FM-12+005299999V0201301N003110300019N0550001N1+00351+00111099761ADDAY111061AY211061GF108991011011012501021999MA1999999098741MD1210151+9999MW1151REMSYN072AAXX  19124 01278 41685 81306 10035 20011 39874 49976 52015 71511 8112/;
0201012780999992000111918004+63800+011570FM-12+005299999V0201001N006210300019N0550001N1+00451+00201099981ADDAA112000791AY161061AY221061GF108991011011012501071999KA1999M+00491MA1999999098971MD1210201+9999MW1601REMSYN088AAXX  19184 01278 11685 81012 10045 20020 39897 49998 52020 69902 76062 8117/ 333 10049;
0201012780999992000112006004+63800+011570FM-12+005299999V0201501N003110300019N0550001N1+00521+00271100941ADDAA112000791AY161061AY221061GF108991011011012501021999KA1999N+00391MA1999999099921MD1210201+9999MW1601REMSYN088AAXX  20064 01278 11685 81506 10052 20027 39992 40094 52020 69902 76062 8112/ 333 20039;
0161012780999992000112009004+63800+011570FM-12+005299999V0201501N003110300019N0550001N1+00531+00271101241ADDAY161031AY221031GF107991031071008001071999MA1999999100221MD1210301+9999MW1021REMSYN072AAXX  20094 01278 41585 71506 10053 20027 30022 40124 52030 70262 8377/;
0161012780999992000112012004+63800+011570FM-12+005299999V0201501N003110300019N0300001N1+00671+00331101341ADDAY161061AY221061GF108991011011008001011071MA1999999100321MD1210101+9999MW1021REMSYN072AAXX  20124 01278 41580 81506 10067 20033 30032 40134 52010 70262 81117;
0201012780999992000112018004+63800+011570FM-12+005299999V0201101N004610300019N0300001N1+00581+00261101711ADDAA112000791AY121061AY221061GF108991031071012501071999KA1999M+00721MA1999999100681MD1210121+9999MW1021REMSYN088AAXX  20184 01278 11680 81109 10058 20026 30068 40171 52012 69902 70222 8377/ 333 10072;
0214012780999992000112106004+63800+011570FM-12+005299999V0201001N004610300019N0550001N1+00321-00041101991ADDAA199000091AY121061AY221061GF108991011011012501071021KA1999N+00281MA1999999100951MD1210101+9999MW1021REMSYN082AAXX  21064 01278 31685 81009 10032 21004 30095 40199 52010 70222 81172 333 20028;EQDQ01  00002PRCP99
0161012780999992000112109004+63800+011570FM-12+005299999V0201501N004610300019N0750001N1+00261-00121102021ADDAY121031AY221031GF107991031081012501071021MA1999999100981MD1210031+9999MW1021REMSYN072AAXX  21094 01278 41689 71509 10026 21012 30098 40202 52003 70222 83872;
0161012780999992000112112004+63800+011570FM-12+005299999V0201301N006210300019N0550001N1+00201-00201102181ADDAY121061AY221061GF107991021081008001071021MA1999999101131MD1210151+9999MW1021REMSYN072AAXX  21124 01278 41585 71312 10020 21020 30113 40218 52015 70222 82872;
0214012780999992000112118004+63800+011570FM-12+005299999V0200901N00621030001CN0550001N1+00071-00291102131ADDAA199000091AY121061AY221061GF105991011011017501071999KA1999M+00321MA1999999101081MD1710051+9999MW1021REMSYN082AAXX  21184 01278 31785 50912 10007 21029 30108 40213 57005 70222 8117/ 333 10032;EQDQ01  00002PRCP99
0214012780999992000112206004+63800+011570FM-12+005299999V0201101N004610300019N0550001N1-00151-00481101831ADDAA199000091AY121061AY221061GF107991011041017501071999KA1999N-00151MA1999999100771MD1710101+9999MW1021REMSYN082AAXX  22064 01278 31785 71109 11015 21048 30077 40183 57010 70222 8147/ 333 21015;EQDQ01  00002PRCP99
0161012780999992000112209004+63800+011570FM-12+005299999V0200901N006210300019N0300001N1-00181-00551101601ADDAY121031AY221031GF107991021081012501071999MA1999999100541MD1710231+9999MW1021REMSYN072AAXX  22094 01278 41680 70912 11018 21055 30054 40160 57023 70222 8287/;
0161012780999992000112212004+63800+011570FM-12+005299999V0201501N009810300019N0300001N1-00181-00581101381ADDAY121061AY221061GF107991021081012501071021MA1999999100331MD1710211+9999MW1021REMSYN072AAXX  22124 01278 41680 71519 11018 21058 30033 40138 57021 70222 82872;
0214012780999992000112218004+63800+011570FM-12+005299999V0201001N002110300019N0550001N1-00121-00471101191ADDAA199000091AY121061AY221061GF107991021081017501071021KA1999M-00101MA1999999100141MD1510001+9999MW1021REMSYN082AAXX  22184 01278 31785 71004 11012 21047 30014 40119 55000 70222 82872 333 11010;EQDQ01  00002PRCP99
0214012780999992000112306004+63800+011570FM-12+005299999V0201401N004610300019N0550001N1+00541+00171100761ADDAA199000091AY121061AY221061GF107991011041017501071021KA1999N-00121MA1999999099741MD1410001+9999MW1021REMSYN082AAXX  23064 01278 31785 71409 10054 20017 39974 40076 54000 70222 81472 333 21012;EQDQ01  00002PRCP99
0161012780999992000112309004+63800+011570FM-12+005299999V0201401N006210300019N0550001N1+00551+00191100671ADDAY121031AY221031GF107991031081012501071021MA1999999099651MD1710091+9999MW1021REMSYN072AAXX  23094 01278 41685 71412 10055 20019 39965 40067 57009 70222 83872;
0161012780999992000112312004+63800+011570FM-12+005299999V0201501N006210150019N0550001N1+00621+00261100531ADDAY121061AY221061GF107991051081012501071021MA1999999099521MD1710131+9999MW1021REMSYN072AAXX  23124 01278 41685 71512 10062 20026 39952 40053 57013 70222 85872;
0214012780999992000112318004+63800+011570FM-12+005299999V0201501N003112200019N0550001N1+00671+00251100301ADDAA199000091AY111061AY211061GF101991011041017501001001KA1999M+00741MA1999999099291MD1410001+9999MW1011REMSYN082AAXX  23184 01278 31785 11506 10067 20025 39929 40030 54000 70111 81400 333 10074;EQDQ01  00002PRCP99
0214012780999992000112406004+63800+011570FM-12+005299999V0201501N001012200019N0550001N1+00091-00071100811ADDAA199000091AY101061AY201061GF101991011041017501001021KA1999N+00001MA1999999099771MD1410001+9999MW1021REMSYN082AAXX  24064 01278 31785 11502 10009 21007 39977 40081 54000 70200 81402 333 20000;EQDQ01  00002PRCP99
0161012780999992000112409004+63800+011570FM-12+005299999V0201301N003110300019N0550001N1+00591+00221100671ADDAY111031AY211031GF107991011041022501071021MA1999999099651MD1710121+9999MW1031REMSYN072AAXX  24094 01278 41885 71306 10059 20022 39965 40067 57012 70311 81472;
0161012780999992000112412004+63800+011570FM-12+005299999V0201401N004610300019N0300001N1+00691+00231100401ADDAY111061AY211061GF107991021081017501071021MA1999999099391MD1710261+9999MW1021REMSYN072AAXX  24124 01278 41780 71409 10069 20023 39939 40040 57026 70211 82872;
0214012780999992000112418004+63800+011570FM-12+005299999V0201501N004610210019N0300001N1+00741+00361100121ADDAA199000091AY121061AY221061GF108991081001022501071999KA1999M+00781MA1999999099111MD1710061+9999MW1021REMSYN082AAXX  24184 01278 31880 81509 10074 20036 39911 40012 57006 70222 8807/ 333 10078;EQDQ01  00002PRCP99
0214012780999992000112506004+63800+011570FM-12+005299999V0201501N003112200019N0550001N1+00821+00281099921ADDAA199000091AY111061AY211061GF102991021041017501001001KA1999N+00701MA1999999098921MD1410001+9999MW1021REMSYN082AAXX  25064 01278 31785 21506 10082 20028 39892 49992 54000 70211 82400 333 20070;EQDQ01  00002PRCP99
0161012780999992000112509004+63800+011570FM-12+005299999V0200301N000512200019N0550001N1+00681+00151100131ADDAY101031AY201031GF101991011011017501081021MA1999999099121MD1210201+9999MW1021REMSYN072AAXX  25094 01278 41785 10301 10068 20015 39912 40013 52020 70200 81182;
0161012780999992000112512004+63800+011570FM-12+005299999V0201201N001012200019N0300001N1+00671+00211100331ADDAY101061AY201061GF101991011051022501001021MA1999999099321MD1210201+9999MW1021REMSYN072AAXX  25124 01278 41880 11202 10067 20021 39932 40033 52020 70200 81502;
0214012780999992000112518004+63800+011570FM-12+005299999V0200901N001012200019N0550001N1+00501-00101100331ADDAA199000091AY101061AY201061GF101991001001999999001021KA1999M+00831MA1999999099321MD1710051+9999MW1021REMSYN082AAXX  25184 01278 31985 10902 10050 21010 39932 40033 57005 70200 80002 333 10083;EQDQ01  00002PRCP99
0224012780999992000112606004+63800+011570FM-12+005299999V0201401N004612200019N0750001N1+00621-00011100261ADDAA199000091AY101061AY201061GA1001+999999999GF100991001001999999001001KA1999N+00471MA1999999099251MD1410001+9999MW1021REMSYN076AAXX  26064 01278 31989 01409 10062 21001 39925 40026 54000 70200 333 20047;EQDQ01  00002PRCP99
0161012780999992000112609004+63800+011570FM-12+005299999V0201101N002112200019N0550001N1+00531-00131100281ADDAY101031AY201031GF101991011011012501001011MA1999999099271MD1210021+9999MW1021REMSYN072AAXX  26094 01278 41685 11104 10053 21013 39927 40028 52002 70200 81101;
0161012780999992000112612004+63800+011570FM-12+005299999V0201501N004612200019N0550001N1+00591-00071100331ADDAY101061AY201061GF101991001001999999001021MA1999999099321MD1210051+9999MW1021REMSYN072AAXX  26124 01278 41985 11509 10059 21007 39932 40033 52005 70200 80002;
0214012780999992000112618004+63800+011570FM-12+005299999V0209999C000012200019N0550001N1+00321-00211100441ADDAA199000091AY101061AY201061GF101991011041022501001021KA1999M+00651MA1999999099421MD1210011+9999MW1021REMSYN082AAXX  26184 01278 31885 10000 10032 21021 39942 40044 52001 70200 81402 333 10065;EQDQ01  00002PRCP99
0214012780999992000112706004+63800+011570FM-12+005299999V0201501N006210210019N0550001N1+00641+00281100341ADDAA199000091AY111061AY211061GF107991061001022501071021KA1999N+00301MA1999999099331MD1210021+9999MW1021REMSYN082AAXX  27064 01278 31885 71512 10064 20028 39933 40034 52002 70211 86072 333 20030;EQDQ01  00002PRCP99
0161012780999992000112709004+63800+011570FM-12+005299999V0201501N004610300019N0750001N1+00651+00291100451ADDAY121031AY221031GF107991011011012501071999MA1999999099441MD1210111+9999MW1021REMSYN072AAXX  27094 01278 41689 71509 10065 20029 39944 40045 52011 70222 8117/;
0161012780999992000112712004+63800+011570FM-12+005299999V0201501N006210300019N0550001N1+00671+00301100451ADDAY121061AY221061GF107991011081012501071021MA1999999099441MD1410001+9999MW1021REMSYN072AAXX  27124 01278 41685 71512 10067 20030 39944 40045 54000 70222 81872;
0224012780999992000112718004+63800+011570FM-12+005299999V0201001N001012200019N0550001N1+00661+00111100751ADDAA199000091AY111061AY211061GA1001+999999999GF100991001001999999001001KA1999M+00841MA1999999099741MD1210291+9999MW1011REMSYN076AAXX  27184 01278 31985 01002 10066 20011 39974 40075 52029 70111 333 10084;EQDQ01  00002PRCP99
0214012780999992000112806004+63800+011570FM-12+005299999V0201501N001012200019N0550001N1+00151+00141100971ADDAA199000091AY101061AY201061GF103991001001999999001021KA1999N+00051MA1999999099941MD1710081+9999MW1021REMSYN082AAXX  28064 01278 31985 31502 10015 20014 39994 40097 57008 70200 80002 333 20005;EQDQ01  00002PRCP99
0161012780999992000112809004+63800+011570FM-12+005299999V0200901N001010300019N0300001N1+00141+00131100971ADDAY111031AY211031GF107991011041017501081021MA1999999099941MD1410001+9999MW1031REMSYN072AAXX  28094 01278 41780 70902 10014 20013 39994 40097 54000 70311 81482;
0161012780999992000112812004+63800+011570FM-12+005299999V0201001N001010750019N0300001N1+00121+00111100811ADDAY111061AY211061GF107991011001022501081021MA1999999099781MD1710161+9999MW1021REMSYN072AAXX  28124 01278 41880 71002 10012 20011 39978 40081 57016 70211 81082;
0214012780999992000112818004+63800+011570FM-12+005299999V0201501N001012200019N0300001N1-00111-00111100831ADDAA199000091AY111061AY211061GF101991001001999999001021KA1999M+00201MA1999999099781MD1710051+9999MW1021REMSYN082AAXX  28184 01278 31980 11502 11011 21011 39978 40083 57005 70211 80002 333 10020;EQDQ01  00002PRCP99
0224012780999992000112906004+63800+011570FM-12+005299999V0209999C000012200019N0550001N1-00341-00341100671ADDAA199000091AY101061AY201061GA1001+999999999GF100991001001999999001001KA1999N-00381MA1999999099621MD1710101+9999MW1021REMSYN076AAXX  29064 01278 31985 00000 11034 21034 39962 40067 57010 70200 333 21038;EQDQ01  00002PRCP99
0161012780999992000112909004+63800+011570FM-12+005299999V0201201N001012200019N0750001N1-00331-00331100651ADDAY101031AY201031GF101991001001999999001021MA1999999099601MD1710021+9999MW1021REMSYN072AAXX  29094 01278 41989 11202 11033 21033 39960 40065 57002 70200 80002;
0161012780999992000112912004+63800+011570FM-12+005299999V0201501N001012200019N0550001N1-00161-00171100641ADDAY101061AY201061GF104991001001999999001051MA1999999099591MD1710011+9999MW1031REMSYN072AAXX  29124 01278 41985 41502 11016 21017 39959 40064 57001 70300 80005;
0214012780999992000112918004+63800+011570FM-12+005299999V0201201N003110300019N0300001N1+00061-00111100501ADDAA199000091AY111061AY211061GF108991011051017501071999KA1999M+00091MA1999999099471MD1710041+9999MW1021REMSYN082AAXX  29184 01278 31780 81206 10006 21011 39947 40050 57004 70211 8157/ 333 10009;EQDQ01  00002PRCP99
0201012780999992000113006004+63800+011570FM-12+005299999V0201501N001010120019N0250001N1+00351+00351099881ADDAA112003091AY161061AY221061GF108991081001012501021999KA1999N+00041MA1999999098861MD1710181+9999MW1611REMSYN088AAXX  30064 01278 11675 81502 10035 20035 39886 49988 57018 60032 76162 8802/ 333 20004;
0161012780999992000113009004+63800+011570FM-12+005299999V0201401N001010300019N0200001N1+00421+00421099761ADDAY161031AY221031GF108991011011012501021999MA1999999098751MD1710111+9999MW1611REMSYN072AAXX  30094 01278 41670 81402 10042 20042 39875 49976 57011 76162 8112/;
0161012780999992000113012004+63800+011570FM-12+005299999V0201401N001010300019N0090001N1+00391+00391099681ADDAY161061AY221061GF108991011011008001021999MA1999999098661MD1710091+9999MW1631REMSYN072AAXX  30124 01278 41559 81402 10039 20039 39866 49968 57009 76362 8112/;
0201012780999992000113018004+63800+011570FM-12+005299999V0209999C000010300019N0200001N1+00301+00301099811ADDAA112006191AY161061AY221061GF108991021071008001021999KA1999M+00491MA1999999098791MD1210101+9999MW1021REMSYN088AAXX  30184 01278 11570 80000 10030 20030 39879 49981 52010 60062 70262 8272/ 333 10049;
0201012780999992000120106004+63800+011570FM-12+005299999V0203201N000510300019N0300001N1+00641+00511100731ADDAA112003091AY181061AY261061GF107991011091012501071999KA1999N+00361MA1999999099721MD1210131+9999MW1801REMSYN088AAXX  01064 01278 11680 73201 10064 20051 39972 40073 52013 60032 78086 8197/ 333 20036;
0161012780999992000120109004+63800+011570FM-12+005299999V0201301N000510750019N0270001N1+00411+00401100821ADDAY181031AY221031GF105991011051017501001021MA1999999099801MD1210081+9999MW1011REMSYN072AAXX  01094 01278 41777 51301 10041 20040 39980 40082 52008 70182 81502;
0161012780999992000120112004+63800+011570FM-12+005299999V0201301N001019999999N0280001N1+00211+00211100891ADDAY181061AY221061GF107991011001999999041021MA1999999099861MD1210021+9999MW1021REMSYN072AAXX  01124 01278 41978 71302 10021 20021 39986 40089 52002 70282 81042;
0201012780999992000120118004+63800+011570FM-12+005299999V0201101N001012200019N0300001N1+00201+00201100691ADDAA112000791AY111061AY211061GF102991011041017501001021KA1999M+00641MA1999999099661MD1610101+9999MW1011REMSYN088AAXX  01184 01278 11780 21102 10020 20020 39966 40069 56010 69902 70111 81402 333 10064;
0201012780999992000120206004+63800+011570FM-12+005299999V0201301N001010120019N0300001N1+00441+00321099951ADDAA112000791AY161061AY221061GF108991081001012501021999KA1999N+00191MA1999999098941MD1710101+9999MW1021REMSYN088AAXX  02064 01278 11680 81302 10044 20032 39894 49995 57010 69902 70262 8802/ 333 20019;
0161012780999992000120209004+63800+011570FM-12+005299999V0201301N000510300019N0200001N1+00451+00411099991ADDAY161031AY221031GF108991011011012501021999MA1999999098991MD1210061+9999MW1601REMSYN072AAXX  02094 01278 41670 81301 10045 20041 39899 49999 52006 76062 8112/;
0161012780999992000120212004+63800+011570FM-12+005299999V0201301N002110300019N0200001N1+00401+00401099981ADDAY161061AY221061GF108991021081017501021999MA1999999098971MD1710011+9999MW1601REMSYN072AAXX  02124 01278 41770 81304 10040 20040 39897 49998 57001 76062 8282/;
0201012780999992000120218004+63800+011570FM-12+005299999V0202701N000510300019N0030001N1+00411+00411100021ADDAA112002091AY181061AY241061GF108991041091000251021999KA1999M+00471MA1999999099001MD1210081+9999MW1801REMSYN088AAXX  02184 01278 11030 82701 10041 20041 39900 40002 52008 60022 78084 8492/ 333 10047;
0201012780999992000120306004+63800+011570FM-12+005299999V0201301N001019999999N0300001N1+00551+00541100161ADDAA112002091AY181061AY241061GF107991071001999999071999KA1999N+00281MA1999999099151MD1410001+9999MW1021REMSYN088AAXX  03064 01278 11980 71302 10055 20054 39915 40016 54000 60022 70284 8707/ 333 20028;
0161012780999992000120309004+63800+011570FM-12+005299999V0209999C000010300019N0300001N1+00551+00301100231ADDAY121031AY221031GF107991021081017501071021MA1999999099221MD1210131+9999MW1021REMSYN072AAXX  03094 01278 41780 70000 10055 20030 39922 40023 52013 70222 82872;
0161012780999992000120312004+63800+011570FM-12+005299999V0201501N000510300019N0550001N1+00601+00361100311ADDAY121061AY221061GF107991031081017501071021MA1999999099301MD1210081+9999MW1021REMSYN072AAXX  03124 01278 41785 71501 10060 20036 39930 40031 52008 70222 83872;
0214012780999992000120318004+63800+011570FM-12+005299999V0201501N001010300019N0550001N1+00341+00331100371ADDAA199000091AY121061AY221061GF107991031051017501071999KA1999M+00761MA1999999099351MD1110081+9999MW1021REMSYN082AAXX  03184 01278 31785 71502 10034 20033 39935 40037 51008 70222 8357/ 333 10076;EQDQ01  00002PRCP99
0214012780999992000120406004+63800+011570FM-12+005299999V0201101N001010150019N0550001N1+00291+00261100451ADDAA199000091AY121061AY221061GF107991071051017501999999KA1999N+00251MA1999999099421MD1410001+9999MW1021REMSYN082AAXX  04064 01278 31785 71102 10029 20026 39942 40045 54000 70222 875// 333 20025;EQDQ01  00002PRCP99
0161012780999992000120409004+63800+011570FM-12+005299999V0201501N001010150019N0300001N1+00221+00211100531ADDAY121031AY221031GF105991051051017501001011MA1999999099501MD1210081+9999MW1011REMSYN072AAXX  04094 01278 41780 51502 10022 20021 39950 40053 52008 70122 85501;
0214012780999992000120418004+63800+011570FM-12+005299999V0201301N002112200019N0300001N1+00131+00071100441ADDAA199000091AY111061AY211061GF103991011001999999041021KA1999M+00321MA1999999099411MD1710121+9999MW1021REMSYN082AAXX  04184 01278 31980 31304 10013 20007 39941 40044 57012 70211 81042 333 10032;EQDQ01  00002PRCP99
0201012780999992000120506004+63800+011570FM-12+005299999V0201001N000512200019N0550001N1+00291+00291099951ADDAA112001091AY161061AY211061GF101991011051017501001001KA1999N+00031MA1999999098931MD1710081+9999MW1011REMSYN088AAXX  05064 01278 11785 11001 10029 20029 39893 49995 57008 60012 70161 81500 333 20003;
0161012780999992000120509004+63800+011570FM-12+005299999V0201301N001010180019N0550001N1+00401+00371100031ADDAY111031AY211031GF107991051081017501071999MA1999999099011MD1210081+9999MW1031REMSYN072AAXX  05094 01278 41785 71302 10040 20037 39901 40003 52008 70311 8587/;
0161012780999992000120512004+63800+011570FM-12+005299999V0201501N001010300019N0550001N1+00421+00411100051ADDAY111061AY211061GF106991011081017501071021MA1999999099031MD1210021+9999MW1021REMSYN072AAXX  05124 01278 41785 61502 10042 20041 39903 40005 52002 70211 81872;
0214012780999992000120518004+63800+011570FM-12+005299999V0201501N000510300019N0300001N1+00551+00411100251ADDAA199000091AY121061AY221061GF107991011081017501071021KA1999M+00661MA1999999099241MD1210111+9999MW1021REMSYN082AAXX  05184 01278 31780 71501 10055 20041 39924 40025 52011 70222 81872 333 10066;EQDQ01  00002PRCP99
0201012780999992000120606004+63800+011570FM-12+005299999V0202701N000510210019N0550001N1+01141+00611099901ADDAA112000191AY161061AY221061GF108991081001022501021999KA1999N+00471MA1999999098911MD1710101+9999MW1021REMSYN088AAXX  06064 01278 11885 82701 10114 20061 39891 49990 57010 69912 70262 8802/ 333 20047;
0161012780999992000120609004+63800+011570FM-12+005299999V0201401N002110300019N0300001N1+01171+00621099791ADDAY161031AY221031GF108991041071012501021999MA1999999098801MD1710111+9999MW1601REMSYN072AAXX  06094 01278 41680 81404 10117 20062 39880 49979 57011 76062 8472/;
0161012780999992000120612004+63800+011570FM-12+005299999V0201601N003110300019N0300001N1+01221+00591099931ADDAY161061AY221061GF107991041081012501071021MA1999999098951MD1210151+9999MW1021REMSYN072AAXX  06124 01278 41680 71606 10122 20059 39895 49993 52015 70262 84872;
0201012780999992000120618004+63800+011570FM-12+005299999V0201001N001012200019N0550001N1+00891+00501100241ADDAA112000791AY111061AY211061GF103991031051017501001001KA1999M+01291MA1999999099241MD1210141+9999MW1011REMSYN088AAXX  06184 01278 11785 31002 10089 20050 39924 40024 52014 69902 70111 83500 333 10129;
0214012780999992000120706004+63800+011570FM-12+005299999V0201501N002112200019N0300001N1+00261+00261100491ADDAA199000091AY111061AY211061GF104991011051022501001021KA1999N+00221MA1999999099461MD1410001+9999MW1021REMSYN082AAXX  07064 01278 31880 41504 10026 20026 39946 40049 54000 70211 81502 333 20022;EQDQ01  00002PRCP99
0161012780999992000120709004+63800+011570FM-12+005299999V0201101N001012200019N0300001N1+00241+00241100561ADDAY111031AY211031GF104991011051017501001021MA1999999099531MD1210071+9999MW1021REMSYN072AAXX  07094 01278 41780 41102 10024 20024 39953 40056 52007 70211 81502;
0161012780999992000120712004+63800+011570FM-12+005299999V0201401N001010750019N0300001N1+00211+00211100591ADDAY111061AY211061GF107991011051017501001021MA1999999099561MD1210031+9999MW1031REMSYN072AAXX  07124 01278 41780 71402 10021 20021 39956 40059 52003 70311 81502;
0214012780999992000120718004+63800+011570FM-12+005299999V0201501N000510750019N0300001N1-00011-00011100501ADDAA199000091AY121061AY221061GF108991011051017501001021KA1999M+00301MA1999999099461MD1710021+9999MW1021REMSYN082AAXX  07184 01278 31780 81501 11001 21001 39946 40050 57002 70222 81502 333 10030;EQDQ01  00002PRCP99
0214012780999992000120806004+63800+011570FM-12+005299999V0201201N001010300019N0300001N1+00021+00021100631ADDAA199000091AY111061AY211061GF107991011051017501071999KA1999N-00021MA1999999099591MD1210061+9999MW1021REMSYN082AAXX  08064 01278 31780 71202 10002 20002 39959 40063 52006 70211 8157/ 333 21002;EQDQ01  00002PRCP99
0161012780999992000120809004+63800+011570FM-12+005299999V0200901N000512200019N0300001N1+00031+00031100721ADDAY121031AY221031GF104991031081012501001021MA1999999099681MD1210091+9999MW1011REMSYN072AAXX  08094 01278 41680 40901 10003 20003 39968 40072 52009 70122 83802;
0171012780999992000120812004+63800+011570FM-12+005299999V0209999C000010003019N0005001N1+00011+00011100741ADDAY141061AY211061GA1091+999999999GF109991091999999999999999MA1999999099701MD1210021+9999MW1461REMSYN066AAXX  08124 01278 41/05 90000 10001 20001 39970 40074 52002 74641;
0214012780999992000120818004+63800+011570FM-12+005299999V0201101N001012200019N0550001N1-00151-00151100581ADDAA199000091AY141061AY211061GF101991001001999999001021KA1999M+00191MA1999999099531MD1710101+9999MW1401REMSYN082AAXX  08184 01278 31985 11102 11015 21015 39953 40058 57010 74041 80002 333 10019;EQDQ01  00002PRCP99
0214012780999992000120906004+63800+011570FM-12+005299999V0201101N003119999999N0550001N1+00401+00151100141ADDAA199000091AY111061AY211061GF107991021001999999071021KA1999N-00181MA1999999099121MD1610101+9999MW1021REMSYN082AAXX  09064 01278 31985 71106 10040 20015 39912 40014 56010 70211 82072 333 21018;EQDQ01  00002PRCP99
0161012780999992000120909004+63800+011570FM-12+005299999V0201101N003110300019N0300001N1+00391+00191100091ADDAY161031AY221031GF108991021071012501021999MA1999999099071MD1710051+9999MW1601REMSYN072AAXX  09094 01278 41680 81106 10039 20019 39907 40009 57005 76062 8272/;
0161012780999992000120912004+63800+011570FM-12+005299999V0201101N003110300019N0100001N1+00361+00211100011ADDAY161061AY221061GF108991011011012501021999MA1999999098991MD1710091+9999MW1601REMSYN072AAXX  09124 01278 41660 81106 10036 20021 39899 40001 57009 76062 8112/;
0201012780999992000120918004+63800+011570FM-12+005299999V0201101N001010150019N0300001N1+00371+00361099891ADDAA112003091AY161061AY221061GF108991081001017501021999KA1999M+00441MA1999999098871MD1710051+9999MW1601REMSYN088AAXX  09184 01278 11780 81102 10037 20036 39887 49989 57005 60032 76062 8802/ 333 10044;
0201012780999992000121006004+63800+011570FM-12+005299999V0201401N001012200019N0550001N1+00031+00031099681ADDAA112000191AY161061AY211061GF101991011051017501001001KA1999N+00031MA1999999098651MD1710051+9999MW1021REMSYN088AAXX  10064 01278 11785 11402 10003 20003 39865 49968 57005 69912 70261 81500 333 20003;
0161012780999992000121009004+63800+011570FM-12+005299999V0201401N001012200019N0550001N1+00001+00001099681ADDAY101031AY201031GF101991011011012501001001MA1999999098651MD1410001+9999MW1401REMSYN072AAXX  10094 01278 41685 11402 10000 20000 39865 49968 54000 74000 81100;
0161012780999992000121012004+63800+011570FM-12+005299999V0201501N001012200019N0300001N1+00011+00011099701ADDAY101061AY201061GF101991011011012501071021MA1999999098671MD1210021+9999MW1401REMSYN072AAXX  10124 01278 41680 11502 10001 20001 39867 49970 52002 74000 81172;
0214012780999992000121018004+63800+011570FM-12+005299999V0201101N001012200019N0550001N1-00101-00101099641ADDAA199000091AY101061AY201061GF103991011051022501031001KA1999M+00081MA1999999098611MD1410001+9999MW1021REMSYN082AAXX  10184 01278 31885 31102 11010 21010 39861 49964 54000 70200 81530 333 10008;EQDQ01  00002PRCP99
0214012780999992000121106004+63800+011570FM-12+005299999V0201101N002112200019N0550001N1+00081+00081099501ADDAA199000091AY111061AY211061GF101991011011017501001021KA1999N-00121MA1999999098481MD1710101+9999MW1021REMSYN082AAXX  11064 01278 31785 11104 10008 20008 39848 49950 57010 70211 81102 333 21012;EQDQ01  00002PRCP99
0161012780999992000121109004+63800+011570FM-12+005299999V0201201N001010300019N0300001N1+00041+00031099421ADDAY111031AY211031GF107991011041017501071021MA1999999098401MD1710081+9999MW1031REMSYN072AAXX  11094 01278 41780 71202 10004 20003 39840 49942 57008 70311 81472;
0161012780999992000121112004+63800+011570FM-12+005299999V0201401N001010300019N0300001N1+00111+00101099421ADDAY111061AY211061GF108991011081017501071999MA1999999098401MD1410001+9999MW1161REMSYN072AAXX  11124 01278 41780 81402 10011 20010 39840 49942 54000 71611 8187/;
0201012780999992000121118004+63800+011570FM-12+005299999V0201301N000510210019N0300001N1+00161+00151099421ADDAA112000791AY161061AY221061GF108991081001022501021999KA1999M+00201MA1999999098401MD1710021+9999MW1021REMSYN088AAXX  11184 01278 11880 81301 10016 20015 39840 49942 57002 69902 70262 8802/ 333 10020;
0201012780999992000121206004+63800+011570FM-12+005299999V0209999C000010150019N0250001N1+00481+00181099831ADDAA112000791AY161061AY221061GF108991081001017501021999KA1999N+00151MA1999999098821MD1210191+9999MW1601REMSYN088AAXX  12064 01278 11775 80000 10048 20018 39882 49983 52019 69902 76062 8802/ 333 20015;
0161012780999992000121209004+63800+011570FM-12+005299999V0203301N000510075019N0150001N1+00401+00401100021ADDAY161031AY221031GF108991051071008001021999MA1999999099001MD1210181+9999MW1601REMSYN072AAXX  12094 01278 41565 83301 10040 20040 39900 40002 52018 76062 8572/;
0161012780999992000121212004+63800+011570FM-12+005299999V0201301N001010300019N0300001N1+00401+00401100141ADDAY161061AY221061GF107991031091017501071021MA1999999099121MD1210121+9999MW1021REMSYN072AAXX  12124 01278 41780 71302 10040 20040 39912 40014 52012 70262 83972;
0201012780999992000121218004+63800+011570FM-12+005299999V0201301N001012200019N0550001N1+00251+00241099841ADDAA112001091AY121061AY221061GF104991011011017501001021KA1999M+00531MA1999999098821MD1710201+9999MW1021REMSYN088AAXX  12184 01278 11785 41302 10025 20024 39882 49984 57020 60012 70222 81102 333 10053;
0214012780999992000121306004+63800+011570FM-12+005299999V0201001N004619999999N0550001N1+00231+00051099191ADDAA199000091AY111061AY211061GF105991001001999999001071KA1999N+00081MA1999999098181MD1710351+9999MW1021REMSYN082AAXX  13064 01278 31985 51009 10023 20005 39818 49919 57035 70211 80007 333 20008;EQDQ01  00002PRCP99
0161012780999992000121309004+63800+011570FM-12+005299999V0201301N007710300019N0550001N1+00341+00141098881ADDAY121031AY221031GF108991021081012501071999MA1999999097871MD1710311+9999MW1031REMSYN072AAXX  13094 01278 41685 81315 10034 20014 39787 49888 57031 70322 8287/;
0161012780999992000121312004+63800+011570FM-12+005299999V0201301N006210300019N0250001N1+00411+00401098541ADDAY161061AY221061GF108991011071004501021999MA1999999097541MD1710331+9999MW1631REMSYN072AAXX  13124 01278 41475 81312 10041 20040 39754 49854 57033 76362 8172/;
0201012780999992000121318004+63800+011570FM-12+005299999V0201301N004610210019N0550001N1+00461+00401097941ADDAA112001091AY161061AY221061GF108991051001022501071021KA1999M+00541MA1999999096951MD1710351+9999MW1021REMSYN088AAXX  13184 01278 11885 81309 10046 20040 39695 49794 57035 69992 70262 85072 333 10054;
0201012780999992000121406004+63800+011570FM-12+005299999V0201301N002110300019N0550001N1+00471+00331097741ADDAA112001091AY161061AY221061GF107991041051017501071021KA1999N+00341MA1999999096751MD1710091+9999MW1021REMSYN088AAXX  14064 01278 11785 71304 10047 20033 39675 49774 57009 60012 70262 84572 333 20034;
0161012780999992000121409004+63800+011570FM-12+005299999V0201301N002110300019N0550001N1+00501+00361097741ADDAY121031AY221031GF107991021081017501071021MA1999999096751MD1410001+9999MW1021REMSYN072AAXX  14094 01278 41785 71304 10050 20036 39675 49774 54000 70222 82872;
0161012780999992000121412004+63800+011570FM-12+005299999V0201501N001010180019N0550001N1+00501+00341097831ADDAY121061AY221061GF107991051081017501071021MA1999999096841MD1210091+9999MW1021REMSYN072AAXX  14124 01278 41785 71502 10050 20034 39684 49783 52009 70222 85872;
0201012780999992000121506004+63800+011570FM-12+005299999V0200901N000510150019N0250001N1+00131+00131098421ADDAA112000191AY161061AY211061GF107991071001017501021999KA1999N+00031MA1999999097411MD1210101+9999MW1021REMSYN088AAXX  15064 01278 11775 70901 10013 20013 39741 49842 52010 69912 70261 8702/ 333 20003;
0161012780999992000121509004+63800+011570FM-12+005299999V0200901N000510300019N0290001N1+00121+00121098601ADDAY121031AY221031GF108991011081017501071021MA1999999097591MD1210181+9999MW1021REMSYN072AAXX  15094 01278 41779 80901 10012 20012 39759 49860 52018 70222 81872;
0161012780999992000121512004+63800+011570FM-12+005299999V0209999C000010042019N0050001N1+00081+00081098801ADDAY171061AY261061GF108991081001004501021999MA1999999097781MD1210191+9999MW1681REMSYN072AAXX  15124 01278 41450 80000 10008 20008 39778 49880 52019 76876 8802/;
0201012780999992000121518004+63800+011570FM-12+005299999V0201001N002119999999N0300001N1+00041+00041099121ADDAA112003091AY171061AY261061GF106991031001999999071021KA1999M+00191MA1999999098101MD1210201+9999MW1011REMSYN088AAXX  15184 01278 11980 61004 10004 20004 39810 49912 52020 60032 70176 83072 333 10019;
0240012780999992000121606004+63800+011570FM-12+005299999V0201401N000510024019N0030001N1-00111-00111099831ADDAA112001091AJ100009199999999AY171061AY251061GA1091+999999999GF109991091999999999999999IA1279KA1120N-00141MA1999999098791MD1210151+9999MW1511REMSYN088AAXX  16064 01278 11/30 91401 11011 21011 39879 49983 52015 60012 75175 333 21014 43997;
0171012780999992000121609004+63800+011570FM-12+005299999V0201501N000510006019N0010001N1-00041-00041100081ADDAY151031AY241031GA1091+999999999GF109991091999999999999999MA1999999099041MD1210251+9999MW1511REMSYN066AAXX  16094 01278 41/10 91501 11004 21004 39904 40008 52025 75154;
0171012780999992000121612004+63800+011570FM-12+005299999V0201001N000510006019N0010001N1-00011-00011100211ADDAY151061AY241061GA1091+999999999GF109991091999999999999999MA1999999099171MD1210131+9999MW1511REMSYN066AAXX  16124 01278 41/10 91001 11001 21001 39917 40021 52013 75154;
0201012780999992000121618004+63800+011570FM-12+005299999V0200901N000510003019N0035001N1-00031-00031100511ADDAA112002091AY151061AY241061GF108991081061000251999999KA1999M+00051MA1999999099471MD1210121+9999MW1401REMSYN088AAXX  16184 01278 11035 80901 11003 21003 39947 40051 52012 60022 74054 886// 333 10005;
0230012780999992000121706004+63800+011570FM-12+005299999V0201001N000510003019N0025001N1-00051-00051100911ADDAA112000791AJ100009199999999AY171061AY241061GF108991081061000251999999IA1279KA1120N-00081MA1999999099871MD1210101+9999MW1401REMSYN094AAXX  17064 01278 11025 81001 11005 21005 39987 40091 52010 69902 74074 886// 333 21008 43997;
0161012780999992000121709004+63800+011570FM-12+005299999V0209999C000010003019N0100001N1-00031-00031101091ADDAY121031AY221031GF108991081061000251999999MA1999999100041MD1210171+9999MW1401REMSYN072AAXX  17094 01278 41060 80000 11003 21003 30004 40109 52017 74022 886//;
0161012780999992000121712004+63800+011570FM-12+005299999V0209999C000010012019N0050001N1-00031-00031101181ADDAY121061AY221061GF108991081061001501999999MA1999999100131MD1210091+9999MW1401REMSYN072AAXX  17124 01278 41250 80000 11003 21003 30013 40118 52009 74022 886//;
0214012780999992000121718004+63800+011570FM-12+005299999V0201101N001010042019N0300001N1-00201-00201101351ADDAA199000091AY121061AY221061GF108991081051004501999999KA1999M+00001MA1999999100291MD1210071+9999MW1021REMSYN082AAXX  17184 01278 31480 81102 11020 21020 30029 40135 52007 70222 885// 333 10000;EQDQ01  00002PRCP99
0243012780999992000121806004+63800+011570FM-12+005299999V0201401N000512200019N0300001N1-00321-00321101781ADDAA199000091AJ100009199999999AY111061AY211061GF101991011041017501001001IA1279KA1120N-00331MA1999999100721MD1210071+9999MW1021REMSYN088AAXX  18064 01278 31780 11401 11032 21032 30072 40178 52007 70211 81400 333 21033 43997;EQDQ01  00002PRCP99
0161012780999992000121809004+63800+011570FM-12+005299999V0201501N000512200019N0550001N1-00501-00501101981ADDAY101031AY201031GF101991011061004501001001MA1999999100911MD1210191+9999MW1021REMSYN072AAXX  18094 01278 41485 11501 11050 21050 30091 40198 52019 70200 81600;
0161012780999992000121812004+63800+011570FM-12+005299999V0201401N001012200019N0550001N1-00451-00451102111ADDAY101061AY201061GF101991011061004501031021MA1999999101041MD1210131+9999MW1021REMSYN072AAXX  18124 01278 41485 11402 11045 21045 30104 40211 52013 70200 81632;
0224012780999992000121818004+63800+011570FM-12+005299999V0201401N000512200019N0300001N1-00611-00611102391ADDAA199000091AY101061AY201061GA1001+999999999GF100991001001999999001001KA1999M-00281MA1999999101311MD1210051+9999MW1021REMSYN076AAXX  18184 01278 31980 01401 11061 21061 30131 40239 52005 70200 333 11028;EQDQ01  00002PRCP99
0218012780999992000121906004+63800+011570FM-12+005299999V0201301N000512200019N0550001N1-00871+99999102851ADDAA199000091AY101061AY201061GA1001+999999999GF100991001001999999001001KA1999N-00881MA1999999101751MD1210101+9999MW1021REMSYN070AAXX  19064 01278 31985 01301 11087 30175 40285 52010 70200 333 21088;EQDQ01  00002PRCP99
0161012780999992000121909004+63800+011570FM-12+005299999V0201301N000512200019N0550001N1-00921-00931103011ADDAY101031AY201031GF101991011061004501001001MA1999999101911MD1210161+9999MW1021REMSYN072AAXX  19094 01278 41485 11301 11092 21093 30191 40301 52016 70200 81600;
0161012780999992000121912004+63800+011570FM-12+005299999V0201301N000512200019N0550001N1-00901-00911103091ADDAY101061AY201061GF101991011061004501001011MA1999999101991MD1210081+9999MW1401REMSYN072AAXX  19124 01278 41485 11301 11090 21091 30199 40309 52008 74000 81601;
0224012780999992000121918004+63800+011570FM-12+005299999V0201101N001012200019N0550001N1-01001-01011103141ADDAA199000091AY101061AY201061GA1001+999999999GF100991001001999999001001KA1999M-00841MA1999999102031MD1210011+9999MW1021REMSYN076AAXX  19184 01278 31985 01102 11100 21101 30203 40314 52001 70200 333 11084;EQDQ01  00002PRCP99
0253012780999992000122006004+63800+011570FM-12+005299999V0201201N001012200019N0550001N1-01091-01101103011ADDAA199000091AJ100009199999999AY101061AY201061GA1001+999999999GF100991001001999999001001IA1279KA1120N-01161MA1999999101911MD1710091+9999MW1401REMSYN082AAXX  20064 01278 31985 01202 11109 21110 30191 40301 57009 74000 333 21116 43997;EQDQ01  00002PRCP99
0161012780999992000122009004+63800+011570FM-12+005299999V0201001N000512200019N0550001N1-01111-01121103061ADDAY101031AY201031GF101991011061004501001011MA1999999101951MD1210041+9999MW1401REMSYN072AAXX  20094 01278 41485 11001 11111 21112 30195 40306 52004 74000 81601;
0161012780999992000122012004+63800+011570FM-12+005299999V0201301N001012200019N0550001N1-01081-01091103041ADDAY101061AY201061GF101991011061004501001021MA1999999101941MD1710011+9999MW1401REMSYN072AAXX  20124 01278 41485 11302 11108 21109 30194 40304 57001 74000 81602;
0214012780999992000122018004+63800+011570FM-12+005299999V0209999C000012200019N0250001N1-01091-01091102841ADDAA199000091AY101061AY201061GF102991011061004501031021KA1999M-00951MA1999999101741MD1710021+9999MW1401REMSYN082AAXX  20184 01278 31475 20000 11109 21109 30174 40284 57002 74000 81632 333 11095;EQDQ01  00002PRCP99
0243012780999992000122106004+63800+011570FM-12+005299999V0201401N001010210019N0550001N1-00781-01011102761ADDAA199000091AJ100009199999999AY111061AY211061GF108991081001022501021999IA1279KA1120N-01121MA1999999101671MD1210091+9999MW1031REMSYN088AAXX  21064 01278 31885 81402 11078 21101 30167 40276 52009 70311 8802/ 333 21112 43997;EQDQ01  00002PRCP99
0161012780999992000122109004+63800+011570FM-12+005299999V0201401N003110300019N0150001N1-00711-00931102791ADDAY171031AY221031GF108991011071004501021999MA1999999101701MD1210031+9999MW1711REMSYN072AAXX  21094 01278 41465 81406 11071 21093 30170 40279 52003 77172 8172/;
0161012780999992000122112004+63800+011570FM-12+005299999V0201201N001010300019N0550001N1-00621-00701102841ADDAY171061AY221061GF108991011041008001021999MA1999999101751MD1210051+9999MW1021REMSYN072AAXX  21124 01278 41585 81202 11062 21070 30175 40284 52005 70272 8142/;
0201012780999992000122118004+63800+011570FM-12+005299999V0201201N001019999999N0300001N1-00391-00461102681ADDAA112000891AY121061AY221061GF108991081001999999071999KA1999M-00361MA1999999101601MD1710091+9999MW1021REMSYN088AAXX  21184 01278 11980 81202 11039 21046 30160 40268 57009 69982 70222 8807/ 333 11036;
0230012780999992000122206004+63800+011570FM-12+005299999V0202201N001010300019N0300001N1+00251+00101101741ADDAA112000791AJ100009199999999AY161061AY221061GF108991011051008001021999IA1279KA1120N-00351MA1999999100701MD1710351+9999MW1021REMSYN094AAXX  22064 01278 11580 82202 10025 20010 30070 40174 57035 69902 70262 8152/ 333 21035 43997;
0161012780999992000122209004+63800+011570FM-12+005299999V0202901N001010042019N0200001N1+00221+00211101571ADDAY181031AY221031GF108991061091004501021999MA1999999100531MD1710171+9999MW1801REMSYN072AAXX  22094 01278 41470 82902 10022 20021 30053 40157 57017 78082 8692/;
0161012780999992000122212004+63800+011570FM-12+005299999V0203001N002110021019N0200001N1+00271+00271101401ADDAY181061AY221061GF108991081091002501999999MA1999999100361MD1710171+9999MW1801REMSYN072AAXX  22124 01278 41370 83004 10027 20027 30036 40140 57017 78082 889//;
0201012780999992000122218004+63800+011570FM-12+005299999V0202801N002110042019N0100001N1+00061+00051101361ADDAA112002091AY181061AY221061GF107991071091004501999999KA1999M+00311MA1999999100321MD1710031+9999MW1851REMSYN088AAXX  22184 01278 11460 72804 10006 20005 30032 40136 57003 60022 78582 879// 333 10031;
0230012780999992000122306004+63800+011570FM-12+005299999V0202801N000510300019N0300001N1-00201-00201100991ADDAA112000791AJ100009199999999AY181061AY221061GF108991011041008001071999IA1279KA1120N-00241MA1999999099941MD1710101+9999MW1021REMSYN094AAXX  23064 01278 11580 82801 11020 21020 39994 40099 57010 69902 70282 8147/ 333 21024 43997;
0161012780999992000122309004+63800+011570FM-12+005299999V0202901N002110042019N0300001N1-00111-00121100981ADDAY181031AY221031GF108991071091004501021999MA1999999099931MD1710011+9999MW1851REMSYN072AAXX  23094 01278 41480 82904 11011 21012 39993 40098 57001 78582 8792/;
0161012780999992000122312004+63800+011570FM-12+005299999V0202801N002110042019N0300001N1-00081-00081100941ADDAY181061AY221061GF107991071091004501999999MA1999999099901MD1710031+9999MW1021REMSYN072AAXX  23124 01278 41480 72804 11008 21008 39990 40094 57003 70282 879//;
0184012780999992000122318004+63800+011570FM-12+005299999V0202901N001012200019N0300001N1-00181-00181100891ADDAY181061AY221061GF104991041091004501999999KA1999M-00051MA1999999099841MD1710011+9999MW1021REMSYN082AAXX  23184 01278 11480 42902 11018 21018 39984 40089 57001 70282 849// 333 11005;
0230012780999992000122406004+63800+011570FM-12+005299999V0209999C000010300019N0300001N1-00221-00221100861ADDAA112000791AJ100019199999999AY181061AY221061GF107991011011012501021021IA1239KA1120N-00221MA1999999099511MD1710061+9999MW1021REMSYN094AAXX  24064 01278 11680 70000 11022 21022 39951 40086 57006 69902 70282 81122 333 21022 47001;
0161012780999992000122409004+63800+011570FM-12+005299999V0209999C000010090019N0300001N1-00221-00221100871ADDAY121031AY221031GF108991081081004501999999MA1999999099821MD1210011+9999MW1021REMSYN072AAXX  24094 01278 41480 80000 11022 21022 39982 40087 52001 70222 888//;
0161012780999992000122412004+63800+011570FM-12+005299999V0209999C000010042019N0300001N1-00271-00271100951ADDAY121061AY221061GF106991061091004501999999MA1999999099901MD1210081+9999MW1021REMSYN072AAXX  24124 01278 41480 60000 11027 21027 39990 40095 52008 70222 869//;
0201012780999992000122418004+63800+011570FM-12+005299999V0203001N000510042019N0250001N1-00241-00241100861ADDAA112000191AY181061AY221061GF108991071091004501021999KA1999M-00181MA1999999099811MD1410001+9999MW1021REMSYN088AAXX  24184 01278 11475 83001 11024 21024 39981 40086 54000 69912 70282 8792/ 333 11018;
0230012780999992000122506004+63800+011570FM-12+005299999V0203301N000510042019N0300001N1-00201-00201100481ADDAA112000391AJ100029199999999AY181061AY221061GF107991071091004501999999IA1239KA1120N-00331MA1999999099441MD1710201+9999MW1021REMSYN094AAXX  25064 01278 11480 73301 11020 21020 39944 40048 57020 69932 70282 879// 333 21033 47002;
0171012780999992000122509004+63800+011570FM-12+005299999V0209999C000010006019N0010001N1-00171-00171100281ADDAY181031AY221031GA1091+999999999GF109991091999999999999999MA1999999099241MD1710201+9999MW1861REMSYN066AAXX  25094 01278 41/10 90000 11017 21017 39924 40028 57020 78682;
0109012780999992000122512004+63800+011570FM-12+005299999V0203001N002119999999N0040001N1-00111+99999999999ADDGF108991999999002501999999REMSYN071AAXX  25124 01278 41340 83004 11011 2101 39901 40005 57023 78582 889//;
0201012780999992000122518004+63800+011570FM-12+005299999V0209999C000012200019N0300001N1-00241-00241099871ADDAA112002091AY181061AY221061GF104991011081008001071021KA1999M+00011MA1999999098831MD1710051+9999MW1011REMSYN088AAXX  25184 01278 11580 40000 11024 21024 39883 49987 57005 60022 70182 81872 333 10001;
0230012780999992000122606004+63800+011570FM-12+005299999V0201401N001010300019N0300001N1-00351-00351099441ADDAA112000591AJ100059199999999AY181061AY221061GF108991011081012501021999IA1239KA1120N-00461MA1999999098401MD1710181+9999MW1031REMSYN094AAXX  26064 01278 11680 81402 11035 21035 39840 49944 57018 69952 70382 8182/ 333 21046 47005;
0161012780999992000122609004+63800+011570FM-12+005299999V0201501N001012200019N0550001N1-00441-00441099441ADDAY121031AY221031GF104991011081012501001021MA1999999098401MD1410001+9999MW1011REMSYN072AAXX  26094 01278 41685 41502 11044 21044 39840 49944 54000 70122 81802;
0161012780999992000122612004+63800+011570FM-12+005299999V0201501N002112200019N0550001N1-00501-00531099381ADDAY111061AY211061GF103991011081012501031021MA1999999098341MD1710061+9999MW1011REMSYN072AAXX  26124 01278 41685 31504 11050 21053 39834 49938 57006 70111 81832;
0214012780999992000122618004+63800+011570FM-12+005299999V0201201N003112200019N0550001N1-00621-00861099461ADDAA199000091AY101061AY201061GF101991001001999999001021KA1999M-00301MA1999999098411MD1210031+9999MW1011REMSYN082AAXX  26184 01278 31985 11206 11062 21086 39841 49946 52003 70100 80002 333 11030;EQDQ01  00002PRCP99
0223012780999992000122706004+63800+011570FM-12+005299999V0201501N001012200019N0550001N1-00781-00861099741ADDAA199000091AJ100059199999999AY111061AY211061GF101991001001999999001021IA1239KA1120N-00801MA1999999098681MW1021REMSYN082AAXX  27064 01278 31985 11502 11078 21086 39868 49974 70211 80002 333 21080 47005;EQDQ01  00002PRCP99
0161012780999992000122709004+63800+011570FM-12+005299999V0201501N002112200019N0550001N1-00881-00891099871ADDAY101031AY201031GF101991011051017501001021MA1999999098811MD1210131+9999MW1021REMSYN072AAXX  27094 01278 41785 11504 11088 21089 39881 49987 52013 70200 81502;
0161012780999992000122712004+63800+011570FM-12+005299999V0201501N001012200019N0550001N1-00871-00881100001ADDAY101061AY201061GF101991011041012501001021MA1999999098941MD1210131+9999MW1021REMSYN072AAXX  27124 01278 41685 11502 11087 21088 39894 40000 52013 70200 81402;
0224012780999992000122718004+63800+011570FM-12+005299999V0209999C000012200019N0550001N1-01101-01101100231ADDAA199000091AY101061AY201061GA1001+999999999GF100991001001999999001001KA1999M-00741MA1999999099151MD1210151+9999MW1021REMSYN076AAXX  27184 01278 31985 00000 11110 21110 39915 40023 52015 70200 333 11074;EQDQ01  00002PRCP99
0243012780999992000122806004+63800+011570FM-12+005299999V0201501N001010042019N0300001N1-00971-01001100491ADDAA199000091AJ100049199999999AY111061AY211061GF108991081061004501999999IA1239KA1120N-01321MA1999999099421MD1210021+9999MW1021REMSYN088AAXX  28064 01278 31480 81502 11097 21100 39942 40049 52002 70211 886// 333 21132 47004;EQDQ01  00002PRCP99
0161012780999992000122809004+63800+011570FM-12+005299999V0201501N001010120019N0300001N1-00861-00871100551ADDAY121031AY221031GF108991081051012501999999MA1999999099481MD1210061+9999MW1021REMSYN072AAXX  28094 01278 41680 81502 11086 21087 39948 40055 52006 70222 885//;
0161012780999992000122812004+63800+011570FM-12+005299999V0209999C000010120019N0300001N1-00831-00871100611ADDAY121061AY221061GF107991071051012501999999MA1999999099541MD1210061+9999MW1021REMSYN072AAXX  28124 01278 41680 70000 11083 21087 39954 40061 52006 70222 875//;
0224012780999992000122818004+63800+011570FM-12+005299999V0201501N001012200019N0550001N1-01161-01161100641ADDAA199000091AY111061AY211061GA1001+999999999GF100991001001999999001001KA1999M-00761MA1999999099551MD1210051+9999MW1011REMSYN076AAXX  28184 01278 31985 01502 11116 21116 39955 40064 52005 70111 333 11076;EQDQ01  00002PRCP99
0253012780999992000122906004+63800+011570FM-12+005299999V0201301N001012200019N0550001N1-01231-01291100441ADDAA199000091AJ100049199999999AY101061AY201061GA1001+999999999GF100991001001999999001001IA1239KA1120N-01341MA1999999099351MD1710111+9999MW1021REMSYN082AAXX  29064 01278 31985 01302 11123 21129 39935 40044 57011 70200 333 21134 47004;EQDQ01  00002PRCP99
0161012780999992000122909004+63800+011570FM-12+005299999V0201401N001012200019N0550001N1-01201-01251100381ADDAY101031AY201031GF101991001001999999001011MA1999999099291MD1710061+9999MW1021REMSYN072AAXX  29094 01278 41985 11402 11120 21125 39929 40038 57006 70200 80001;
0161012780999992000122912004+63800+011570FM-12+005299999V0201301N001012200019N0550001N1-01141-01211100341ADDAY111061AY211061GF105991011061004501001011MA1999999099261MD1710031+9999MW1031REMSYN072AAXX  29124 01278 41485 51302 11114 21121 39926 40034 57003 70311 81601;
0214012780999992000122918004+63800+011570FM-12+005299999V0201401N001012200019N0550001N1-01311-01361100171ADDAA199000091AY111061AY211061GF103991001001999999001021KA1999M-01041MA1999999099081MD1710071+9999MW1021REMSYN082AAXX  29184 01278 31985 31402 11131 21136 39908 40017 57007 70211 80002 333 11104;EQDQ01  00002PRCP99
0230012780999992000123006004+63800+011570FM-12+005299999V0201601N000510042019N0200001N1-01541-01551099951ADDAA112000791AJ100049199999999AY171061AY211061GF108991071061004501021999IA1239KA1120N-01631MA1999999098861MD1410001+9999MW1781REMSYN094AAXX  30064 01278 11470 81601 11154 21155 39886 49995 54000 69902 77871 8762/ 333 21163 47004;
0161012780999992000123009004+63800+011570FM-12+005299999V0201001N001010300019N0100001N1-01521-01531100051ADDAY171031AY221031GF107991031051008001021999MA1999999098961MD1210101+9999MW1701REMSYN072AAXX  30094 01278 41560 71002 11152 21153 39896 40005 52010 77072 8352/;
0161012780999992000123012004+63800+011570FM-12+005299999V0201101N001010300019N0100001N1-01431-01441100191ADDAY171061AY221061GF107991041051012501021999MA1999999099101MD1210141+9999MW1701REMSYN072AAXX  30124 01278 41660 71102 11143 21144 39910 40019 52014 77072 8452/;
0201012780999992000123018004+63800+011570FM-12+005299999V0201301N002112200019N0550001N1-01691-01731100511ADDAA112000191AY171061AY211061GF101991001001999999001021KA1999M-01341MA1999999099411MD1210101+9999MW1011REMSYN088AAXX  30184 01278 11985 11304 11169 21173 39941 40051 52010 69912 70171 80002 333 11134;
0253012780999992000123106004+63800+011570FM-12+005299999V0201201N001012200019N0550001N1-01381-01511100741ADDAA199000091AJ100049199999999AY101061AY201061GA1001+999999999GF100991001001999999001001IA1239KA1120N-01701MA1999999099641MD1210051+9999MW1021REMSYN082AAXX  31064 01278 31985 01202 11138 21151 39964 40074 52005 70200 333 21170 47004;EQDQ01  00002PRCP99
0161012780999992000123109004+63800+011570FM-12+005299999V0201401N001012200019N0550001N1-01321-01461100741ADDAY101031AY201031GF101991011041017501001001MA1999999099641MD1410001+9999MW1021REMSYN072AAXX  31094 01278 41785 11402 11132 21146 39964 40074 54000 70200 81400;
0161012780999992000123112004+63800+011570FM-12+005299999V0201401N001012200019N0550001N1-01211-01441100731ADDAY101061AY201061GF101991011061004501001021MA1999999099641MD1410001+9999MW1021REMSYN072AAXX  31124 01278 41485 11402 11121 21144 39964 40073 54000 70200 81602;
0214012780999992000123118004+63800+011570FM-12+005299999V0201001N002112200019N0550001N1-01081-01511100471ADDAA199000091AY101061AY201061GF101991001001999999001021KA1999M-01041MA1999999099391MD1710141+9999MW1021REMSYN082AAXX  31184 01278 31985 11004 11108 21151 39939 40047 57014 70200 80002 333 11104;EQDQ01  00002PRCP99
