0161014670999992000010100004+58630+009150FM-12+000799999V0202501N000510042019N0100001N1+00211+00201101451ADDAY161061AY221061GF108991081071004501999999MA1999999101391MD1710121+9999MW1611REMSYN072AAXX  01004 01467 41460 82501 10021 20020 30139 40145 57012 76162 887//;
0161014670999992000010103004+58630+009150FM-12+000799999V0202601N001010042019N0100001N1+00401+00391101301ADDAY161031AY221031GF108991081061004501999999MA1999999101241MD1710151+9999MW1021REMSYN072AAXX  01034 01467 41460 82602 10040 20039 30124 40130 57015 70262 886//;
0201014670999992000010106004+58630+009150FM-12+000799999V0202001N002110042019N0100001N1+00461+00451101111ADDAA112001091AY161061AY221061GF108991081071004501999999KA1999N+00141MA1999999101051MD1710191+9999MW1611REMSYN088AAXX  01064 01467 11460 82004 10046 20045 30105 40111 57019 60012 76162 887// 333 20014;
0161014670999992000010109004+58630+009150FM-12+000799999V0201901N002110042019N0050001N1+00531+00521101021ADDAY161031AY221031GF108991081071004501999999MA1999999100961MD1610091+9999MW1611REMSYN072AAXX  01094 01467 41450 81904 10053 20052 30096 40102 56009 76162 887//;
0173014670999992000010112004+58630+009150FM-12+000799999V0203601N001012200019N0250001N1+00471+00441101121ADDAY161061AY211061GF102991011071008001041001MA1999999101061MD1110101+9999MW1011REMSYN084AAXX  01124 01467 41575 23602 10047 20044 30106 40112 51010 70161 81740 222// 00048;
0161014670999992000010115004+58630+009150FM-12+000799999V0202601N001012200019N0300001N1+00461+00401101381ADDAY101031AY201031GF101991011071008001081001MA1999999101321MD1210261+9999MW1021REMSYN072AAXX  01154 01467 41580 12602 10046 20040 30132 40138 52026 70200 81780;
0201014670999992000010118004+58630+009150FM-12+000799999V0202701N001012200019N0200001N1+00291+00261101581ADDAA112000591AY111061AY211061GF104991031071008001081001KA1999M+00531MA1999999101521MD1210201+9999MW1031REMSYN088AAXX  01184 01467 11570 42702 10029 20026 30152 40158 52020 69952 70311 83780 333 10053;
0161014670999992000010200004+58630+009150FM-12+000799999V0202701N001010042019N0200001N1+00391+00321101541ADDAY121061AY221061GF108991071071004501081999MA1999999101481MD1710031+9999MW1021REMSYN072AAXX  02004 01467 41470 82702 10039 20032 30148 40154 57003 70222 8778/;
0161014670999992000010203004+58630+009150FM-12+000799999V0202201N001010042019N0200001N1+00421+00381101391ADDAY121031AY221031GF108991071071004501999999MA1999999101331MD1710151+9999MW1021REMSYN072AAXX  02034 01467 41470 82202 10042 20038 30133 40139 57015 70222 877//;
0214014670999992000010206004+58630+009150FM-12+000799999V0201901N003110042019N0250001N1+00451+00421101081ADDAA106000091AY121061AY221061GF108991081071004501999999KA1999N+00291MA1999999101021MD1710311+9999MW1021REMSYN082AAXX  02064 01467 31475 81906 10045 20042 30102 40108 57031 70222 887// 333 20029;EQDQ01  00002PRCP06
0161014670999992000010209004+58630+009150FM-12+000799999V0202001N003110042019N0100001N1+00581+00551100931ADDAY121031AY221031GF108991081071004501999999MA1999999100871MD1610151+9999MW1611REMSYN072AAXX  02094 01467 41460 82006 10058 20055 30087 40093 56015 76122 887//;
0173014670999992000010212004+58630+009150FM-12+000799999V0202401N003112200019N0300001N1+00711+00571100801ADDAY161061AY211061GF102991011071012501041001MA1999999100741MD1710131+9999MW1011REMSYN084AAXX  02124 01467 41680 22406 10071 20057 30074 40080 57013 70161 81740 222// 00047;
0161014670999992000010215004+58630+009150FM-12+000799999V0202601N003112200019N0300001N1+00571+00291101001ADDAY101031AY201031GF102991011071012501041001MA1999999100941MD1210201+9999MW1021REMSYN072AAXX  02154 01467 41680 22606 10057 20029 30094 40100 52020 70200 81740;
0201014670999992000010218004+58630+009150FM-12+000799999V0202701N003112200019N0300001N1+00511+00251101141ADDAA112000391AY101061AY201061GF101991011071012501001001KA1999M+00731MA1999999101081MD1210141+9999MW1021REMSYN088AAXX  02184 01467 11680 12706 10051 20025 30108 40114 52014 69932 70200 81700 333 10073;
0161014670999992000010300004+58630+009150FM-12+000799999V0202101N001012200019N0250001N1+00371+00331101491ADDAY101061AY201061GF102991021071008001001001MA1999999101431MD1210111+9999MW1021REMSYN072AAXX  03004 01467 41575 22102 10037 20033 30143 40149 52011 70200 82700;
0214014670999992000010306004+58630+009150FM-12+000799999V0202001N001010042019N0100001N1+00281+00181101031ADDAA106000091AY121061AY221061GF108991081071004501999999KA1999N+00281MA1999999100971MD1710291+9999MW1021REMSYN082AAXX  03064 01467 31460 82002 10028 20018 30097 40103 57029 70222 887// 333 20028;EQDQ01  00002PRCP06
0161014670999992000010309004+58630+009150FM-12+000799999V0201801N004610042019N0050001N1+00531+00521100431ADDAY121031AY221031GF108991081071004501999999MA1999999100371MD1710601+9999MW1631REMSYN072AAXX  03094 01467 41450 81809 10053 20052 30037 40043 57060 76322 887//;
0173014670999992000010312004+58630+009150FM-12+000799999V0202201N003112200019N0250001N1+00701+00661100081ADDAY161061AY211061GF101991011071008001041001MA1999999100021MD1610351+9999MW1011REMSYN084AAXX  03124 01467 41575 12206 10070 20066 30002 40008 56035 70161 81740 222// 00056;
0161014670999992000010315004+58630+009150FM-12+000799999V0202101N003112200019N0250001N1+00711+00671100141ADDAY101031AY201031GF101991011041008001061001MA1999999100081MD1210061+9999MW1021REMSYN072AAXX  03154 01467 41575 12106 10071 20067 30008 40014 52006 70200 81460;
0201014670999992000010318004+58630+009150FM-12+000799999V0202201N003112200019N0250001N1+00651+00581100081ADDAA112001091AY101061AY201061GF102991011041008001061001KA1999M+00741MA1999999100021MD1710061+9999MW1021REMSYN088AAXX  03184 01467 11575 22206 10065 20058 30002 40008 57006 60012 70200 81460 333 10074;
0161014670999992000010400004+58630+009150FM-12+000799999V0202401N006212200019N0300001N1+00401+00341099951ADDAY181061AY211061GF103991021071004501041011MA1999999099891MD1610021+9999MW1021REMSYN072AAXX  04004 01467 41480 32412 10040 20034 39989 49995 56002 70281 82741;
0161014670999992000010403004+58630+009150FM-12+000799999V0202301N006212200019N0300001N1+00381+00231099931ADDAY101031AY201031GF102991011071004501041001MA1999999099871MD1710021+9999MW1021REMSYN072AAXX  04034 01467 41480 22312 10038 20023 39987 49993 57002 70200 81740;
0201014670999992000010406004+58630+009150FM-12+000799999V0202601N004612200019N0300001N1+00391+00231099961ADDAA112000791AY101061AY201061GF101991011071008001001001KA1999N+00381MA1999999099901MD1210031+9999MW1021REMSYN088AAXX  04064 01467 11580 12609 10039 20023 39990 49996 52003 69902 70200 81700 333 20038;
0173014670999992000010412004+58630+009150FM-12+000799999V0202601N006212200019N0750001N1+00561+00121100301ADDAY101061AY201061GF101991011041008001001001MA1999999100241MD1210171+9999MW1021REMSYN084AAXX  04124 01467 41589 12612 10056 20012 30024 40030 52017 70200 81400 222// 00058;
0161014670999992000010415004+58630+009150FM-12+000799999V0202301N001012200019N0750001N1+00481+00201100451ADDAY101031AY201031GF102991011041008001031011MA1999999100391MD1110151+9999MW1021REMSYN072AAXX  04154 01467 41589 22302 10048 20020 30039 40045 51015 70200 81431;
0214014670999992000010418004+58630+009150FM-12+000799999V0202301N000512200019N0750001N1+00321+00251100451ADDAA106000091AY101061AY201061GF102991011041008001031021KA1999M+00561MA1999999100391MD1410001+9999MW1021REMSYN082AAXX  04184 01467 31589 22301 10032 20025 30039 40045 54000 70200 81432 333 10056;EQDQ01  00002PRCP06
0161014670999992000010500004+58630+009150FM-12+000799999V0201901N001010042019N0150001N1+00491+00431100221ADDAY181061AY211061GF108991081071004501999999MA1999999100161MD1610121+9999MW1031REMSYN072AAXX  05004 01467 41465 81902 10049 20043 30016 40022 56012 70381 887//;
0161014670999992000010503004+58630+009150FM-12+000799999V0202101N003110042019N0100001N1+00501+00431100181ADDAY121031AY221031GF108991081071004501999999MA1999999100121MD1610041+9999MW1021REMSYN072AAXX  05034 01467 41460 82106 10050 20043 30012 40018 56004 70222 887//;
0201014670999992000010506004+58630+009150FM-12+000799999V0202101N001012200019N0200001N1+00361+00301100331ADDAA112000591AY121061AY211061GF104991021071004501041011KA1999N+00251MA1999999100271MD1310151+9999MW1011REMSYN088AAXX  05064 01467 11470 42102 10036 20030 30027 40033 53015 69952 70121 82741 333 20025;
0161014670999992000010509004+58630+009150FM-12+000799999V0201901N000512200019N0250001N1+00301+00171100601ADDAY111031AY201031GF101991011071004501041001MA1999999100541MD1210271+9999MW1021REMSYN072AAXX  05094 01467 41475 11901 10030 20017 30054 40060 52027 70210 81740;
0173014670999992000010512004+58630+009150FM-12+000799999V0202001N001012200019N0250001N1+00361+00231100831ADDAY101061AY201061GF101991011071008001041001MA1999999100771MD1210231+9999MW1021REMSYN084AAXX  05124 01467 41575 12002 10036 20023 30077 40083 52023 70200 81740 222// 00057;
0161014670999992000010515004+58630+009150FM-12+000799999V0202101N002110042019N0150001N1+00481+00381100891ADDAY121031AY221031GF108991081071004501999999MA1999999100831MD1110061+9999MW1031REMSYN072AAXX  05154 01467 41465 82104 10048 20038 30083 40089 51006 70322 887//;
0161014670999992000010603004+58630+009150FM-12+000799999V0201801N009810021019N0100001N1+00641+00601100351ADDAY151031AY221031GF108991081061002501999999MA1999999100291MD1710201+9999MW1021REMSYN072AAXX  06034 01467 41360 81819 10064 20060 30029 40035 57020 70252 886//;
0201014670999992000010606004+58630+009150FM-12+000799999V0201801N009810021019N0050001N1+00631+00601099971ADDAA112000391AY161061AY221061GF108991081071002501999999KA1999N+00601MA1999999099911MD1710381+9999MW1631REMSYN088AAXX  06064 01467 11350 81819 10063 20060 39991 49997 57038 69932 76362 887// 333 20060;
0161014670999992000010609004+58630+009150FM-12+000799999V0201801N007710021019N0050001N1+00721+00691099821ADDAY161031AY261031GF108991081071002501999999MA1999999099761MD1710151+9999MW1631REMSYN072AAXX  06094 01467 41350 81815 10072 20069 39976 49982 57015 76366 887//;
0173014670999992000010612004+58630+009150FM-12+000799999V0201901N007710021019N0050001N1+00741+00701099661ADDAY161061AY221061GF108991051061002501021999MA1999999099601MD1710161+9999MW1101REMSYN084AAXX  06124 01467 41350 81915 10074 20070 39960 49966 57016 71062 8562/ 222// 00066;
0161014670999992000010615004+58630+009150FM-12+000799999V0202101N007710300019N0050001N1+00741+00701099531ADDAY161031AY221031GF106991031061002501071021MA1999999099471MD1710131+9999MW1601REMSYN072AAXX  06154 01467 41350 62115 10074 20070 39947 49953 57013 76062 83672;
0161014670999992000010700004+58630+009150FM-12+000799999V0202201N003112200019N0200001N1+00311+00241100511ADDAY101061AY201061GF101991011071008001001001MA1999999100451MD1210411+9999MW1021REMSYN072AAXX  07004 01467 41570 12206 10031 20024 30045 40051 52041 70200 81700;
0161014670999992000010703004+58630+009150FM-12+000799999V0202501N003112200019N0300001N1+00321+00091100771ADDAY101031AY201031GF101991011001022501031011MA1999999100711MD1110261+9999MW1021REMSYN072AAXX  07034 01467 41880 12506 10032 20009 30071 40077 51026 70200 81031;
0214014670999992000010706004+58630+009150FM-12+000799999V0202401N002110750019N0300001N1+00421+00331100901ADDAA106000091AY121061AY211061GF105991021071004501031021KA1999N+00251MA1999999100841MD1110131+9999MW1031REMSYN082AAXX  07064 01467 31480 52404 10042 20033 30084 40090 51013 70321 82732 333 20025;EQDQ01  00002PRCP06
0161014670999992000010709004+58630+009150FM-12+000799999V0202401N003110042019N0250001N1+00521+00391100821ADDAY121031AY221031GF107991051071004501041999MA1999999100761MD1710081+9999MW1031REMSYN072AAXX  07094 01467 41475 72406 10052 20039 30076 40082 57008 70322 8574/;
0173014670999992000010712004+58630+009150FM-12+000799999V0202401N007710300019N0200001N1+00641+00551100571ADDAY121061AY211061GF108991041071004501021999MA1999999100511MD1710251+9999MW1021REMSYN084AAXX  07124 01467 41470 82415 10064 20055 30051 40057 57025 70221 8472/ 222// 00062;
0161014670999992000010715004+58630+009150FM-12+000799999V0202301N007710021019N0060001N1+00621+00581100271ADDAY161031AY251031GF108991061071002501021999MA1999999100211MD1710301+9999MW1591REMSYN072AAXX  07154 01467 41356 82315 10062 20058 30021 40027 57030 75965 8672/;
0201014670999992000010718004+58630+009150FM-12+000799999V0202301N006210021019N0100001N1+00701+00671100041ADDAA112000591AY161061AY251061GF108991061071002501021999KA1999M+00701MA1999999099981MD1710231+9999MW1021REMSYN088AAXX  07184 01467 11360 82312 10070 20067 39998 40004 57023 69942 70265 8672/ 333 10070;
0161014670999992000010800004+58630+009150FM-12+000799999V0202301N006210021019N0100001N1+00721+00651099711ADDAY161061AY251061GF108991081071002501999999MA1999999099651MD1710201+9999MW1581REMSYN072AAXX  08004 01467 41360 82312 10072 20065 39965 49971 57020 75865 887//;
0161014670999992000010803004+58630+009150FM-12+000799999V0202301N007710021019N0100001N1+00721+00681099521ADDAY161031AY251031GF108991051061002501021999MA1999999099461MD1610191+9999MW1021REMSYN072AAXX  08034 01467 41360 82315 10072 20068 39946 49952 56019 70265 8562/;
0201014670999992000010806004+58630+009150FM-12+000799999V0202301N007710300019N0100001N1+00781+00711099431ADDAA112000591AY161061AY251061GF106991021071002501021021KA1999N+00701MA1999999099371MD1610091+9999MW1501REMSYN088AAXX  08064 01467 11360 62315 10078 20071 39937 49943 56009 69942 75065 82722 333 20070;
0161014670999992000010809004+58630+009150FM-12+000799999V0202301N006212200019N0200001N1+00761+00651099771ADDAY151031AY221031GF103991011071004501031011MA1999999099711MD1210341+9999MW1011REMSYN072AAXX  08094 01467 41470 32312 10076 20065 39971 49977 52034 70152 81731;
0173014670999992000010812004+58630+009150FM-12+000799999V0202301N007712200019N0150001N1+00681+00371099891ADDAY151061AY211061GF103991011061002501031021MA1999999099831MD1110121+9999MW1021REMSYN084AAXX  08124 01467 41365 32315 10068 20037 39983 49989 51012 70251 81632 222// 00066;
0161014670999992000010815004+58630+009150FM-12+000799999V0202301N006212200019N0150001N1+00641+00551099961ADDAY101031AY201031GF102991021061002501001001MA1999999099901MD1310071+9999MW1021REMSYN072AAXX  08154 01467 41365 22312 10064 20055 39990 49996 53007 70200 82600;
0201014670999992000010818004+58630+009150FM-12+000799999V0202301N006212200019N0200001N1+00661+00511100201ADDAA112000191AY101061AY201061GF101991011061002501001001KA1999M+00781MA1999999100141MD1210241+9999MW1021REMSYN088AAXX  08184 01467 11370 12312 10066 20051 30014 40020 52024 69922 70200 81600 333 10078;
0171014670999992000010900004+58630+009150FM-12+000799999V0202301N003112200019N0300001N1+00601+00271100541ADDAY101061AY201061GA1001+999999999GF100991001001999999001001MA1999999100481MD1210201+9999MW1021REMSYN066AAXX  09004 01467 41980 02306 10060 20027 30048 40054 52020 70200;
0171014670999992000010903004+58630+009150FM-12+000799999V0202301N003112200019N0300001N1+00601+99999100641ADDAY101031AY201031GA1001+999999999GF100991001001999999001001MA1999999100581MD1110101+9999MW1021REMSYN066AAXX  09034 01467 42980 02306 10060 2050/ 30058 40064 51010 70200;
0161014670999992000010909004+58630+009150FM-12+000799999V0202301N001012200019N0550001N1+00341+00281101041ADDAY111031AY201031GF103991021091008001041021MA1999999100981MD1210271+9999MW1031REMSYN072AAXX  09094 01467 41585 32302 10034 20028 30098 40104 52027 70310 82942;
0173014670999992000010912004+58630+009150FM-12+000799999V0202301N001012200019N0550001N1+00481+00351101191ADDAY101061AY201061GF101991011041008001001011MA1999999101131MD1210151+9999MW1011REMSYN084AAXX  09124 01467 41585 12302 10048 20035 30113 40119 52015 70100 81401 222// 00062;
0161014670999992000010915004+58630+009150FM-12+000799999V0202301N001012200019N0550001N1+00521+00291101361ADDAY101031AY201031GF101991011091008001001021MA1999999101301MD1210171+9999MW1021REMSYN072AAXX  09154 01467 41585 12302 10052 20029 30130 40136 52017 70200 81902;
0224014670999992000010918004+58630+009150FM-12+000799999V0202301N001012200019N0550001N1+00381+00251101621ADDAA106000091AY101061AY201061GA1001+999999999GF100991001001999999001001KA1999M+00521MA1999999101561MD1210261+9999MW1021REMSYN076AAXX  09184 01467 31985 02302 10038 20025 30156 40162 52026 70200 333 10052;EQDQ01  00002PRCP06
0171014670999992000011000004+58630+009150FM-12+000799999V0202301N000512200019N0550001N1+00181+00091102141ADDAY101061AY201061GA1001+999999999GF100991001001999999001001MA1999999102081MD1210301+9999MW1021REMSYN066AAXX  10004 01467 41985 02301 10018 20009 30208 40214 52030 70200;
0171014670999992000011003004+58630+009150FM-12+000799999V0202301N000512200019N0550001N1+00201+00101102341ADDAY101031AY201031GA1001+999999999GF100991001001999999001001MA1999999102281MD1210201+9999MW1021REMSYN066AAXX  10034 01467 41985 02301 10020 20010 30228 40234 52020 70200;
0224014670999992000011006004+58630+009150FM-12+000799999V0202301N002112200019N0550001N1+00201+00111102471ADDAA106000091AY101061AY201061GA1001+999999999GF100991001001999999001001KA1999N+00101MA1999999102411MD1110131+9999MW1021REMSYN076AAXX  10064 01467 31985 02304 10020 20011 30241 40247 51013 70200 333 20010;EQDQ01  00002PRCP06
0161014670999992000011009004+58630+009150FM-12+000799999V0202401N002112200019N0550001N1+00221+00161102581ADDAY101031AY201031GF102991021001022501031011MA1999999102521MD1110111+9999MW1021REMSYN072AAXX  10094 01467 41885 22404 10022 20016 30252 40258 51011 70200 82031;
0173014670999992000011012004+58630+009150FM-12+000799999V0202301N002110750019N0300001N1+00421+00331102571ADDAY121061AY211061GF105991011071004501021081MA1999999102511MD1810011+9999MW1031REMSYN084AAXX  10124 01467 41480 52304 10042 20033 30251 40257 58001 70321 81728 222// 00054;
0161014670999992000011015004+58630+009150FM-12+000799999V0202101N002110300019N0300001N1+00521+00371102381ADDAY121031AY221031GF107991031071004501021999MA1999999102321MD1710191+9999MW1021REMSYN072AAXX  10154 01467 41480 72104 10052 20037 30232 40238 57019 70222 8372/;
0214014670999992000011018004+58630+009150FM-12+000799999V0202201N006210750019N0300001N1+00581+00511102201ADDAA106000091AY121061AY221061GF105991021071004501061021KA1999M+00581MA1999999102141MD1710181+9999MW1021REMSYN082AAXX  10184 01467 31480 52212 10058 20051 30214 40220 57018 70222 82762 333 10058;EQDQ01  00002PRCP06
0161014670999992000011100004+58630+009150FM-12+000799999V0202101N004612200019N0300001N1+00601+00571101911ADDAY121061AY211061GF104991031051004501061011MA1999999101851MD1710161+9999MW1021REMSYN072AAXX  11004 01467 41480 42109 10060 20057 30185 40191 57016 70221 83561;
0161014670999992000011103004+58630+009150FM-12+000799999V0202101N003112200019N0300001N1+00621+00591101931ADDAY121031AY211031GF103991021061004501041011MA1999999101871MD1310021+9999MW1011REMSYN072AAXX  11034 01467 41480 32106 10062 20059 30187 40193 53002 70121 82641;
0214014670999992000011106004+58630+009150FM-12+000799999V0202301N002112200019N0300001N1+00601+00561102031ADDAA106000091AY101061AY201061GF101991011041008001001011KA1999N+00581MA1999999101971MD1210101+9999MW1021REMSYN082AAXX  11064 01467 31580 12304 10060 20056 30197 40203 52010 70200 81401 333 20058;EQDQ01  00002PRCP06
0161014670999992000011109004+58630+009150FM-12+000799999V0202301N001012200019N0300001N1+00451+00421102211ADDAY111031AY201031GF103991021001999999031011MA1999999102151MD1210181+9999MW1021REMSYN072AAXX  11094 01467 41980 32302 10045 20042 30215 40221 52018 70210 82031;
0173014670999992000011112004+58630+009150FM-12+000799999V0202201N001012200019N0300001N1+00561+00521102241ADDAY111061AY201061GF102991001001999999001011MA1999999102181MD1210031+9999MW1021REMSYN084AAXX  11124 01467 41980 22202 10056 20052 30218 40224 52003 70210 80001 222// 00055;
0161014670999992000011115004+58630+009150FM-12+000799999V0209999C000012200019N0300001N1+00561+00531102221ADDAY101031AY201031GF103991011001999999031041MA1999999102161MD1710031+9999MW1021REMSYN072AAXX  11154 01467 41980 30000 10056 20053 30216 40222 57003 70200 81034;
0214014670999992000011118004+58630+009150FM-12+000799999V0202201N001012200019N0300001N1+00581+00571102121ADDAA106000091AY101061AY201061GF102991011001999999031011KA1999M+00561MA1999999102061MD1710101+9999MW1021REMSYN082AAXX  11184 01467 31980 22202 10058 20057 30206 40212 57010 70200 81031 333 10056;EQDQ01  00002PRCP06
0161014670999992000011200004+58630+009150FM-12+000799999V0202201N003110042019N0100001N1+00581+00551101581ADDAY161061AY221061GF108991051071004501021999MA1999999101521MD1710301+9999MW1601REMSYN072AAXX  12004 01467 41460 82206 10058 20055 30152 40158 57030 76062 8572/;
0161014670999992000011203004+58630+009150FM-12+000799999V0201901N001010021019N0100001N1+00561+00551101131ADDAY161031AY251031GF108991081061002501999999MA1999999101071MD1710451+9999MW1511REMSYN072AAXX  12034 01467 41360 81902 10056 20055 30107 40113 57045 75165 886//;
0201014670999992000011206004+58630+009150FM-12+000799999V0202301N000510042019N0200001N1+00641+00631101121ADDAA112000891AY161061AY251061GF108991081061004501999999KA1999N+00531MA1999999101061MD1510011+9999MW1021REMSYN088AAXX  12064 01467 11470 82301 10064 20063 30106 40112 55001 69982 70265 886// 333 20053;
0161014670999992000011209004+58630+009150FM-12+000799999V0202301N000510300019N0300001N1+00541+00501101271ADDAY121031AY221031GF107991031051008001021999MA1999999101211MD1110151+9999MW1021REMSYN072AAXX  12094 01467 41580 72301 10054 20050 30121 40127 51015 70222 8352/;
0173014670999992000011212004+58630+009150FM-12+000799999V0202401N002110300019N0200001N1+00581+00541101311ADDAY161061AY221061GF108991011071002501021999MA1999999101251MD1110041+9999MW1601REMSYN084AAXX  12124 01467 41370 82404 10058 20054 30125 40131 51004 76062 8172/ 222// 00058;
0161014670999992000011215004+58630+009150FM-12+000799999V0202101N000510300019N0150001N1+00541+00511101241ADDAY161031AY221031GF108991021071002501021999MA1999999101181MD1610071+9999MW1601REMSYN072AAXX  12154 01467 41365 82101 10054 20051 30118 40124 56007 76062 8272/;
0201014670999992000011218004+58630+009150FM-12+000799999V0209999C000010300019N0100001N1+00521+00511101221ADDAA112002091AY161061AY251061GF108991041071002501021999KA1999M+00641MA1999999101161MD1610021+9999MW1501REMSYN088AAXX  12184 01467 11360 80000 10052 20051 30116 40122 56002 60022 75065 8472/ 333 10064;
0161014670999992000011300004+58630+009150FM-12+000799999V0202101N001010021019N0100001N1+00541+00531101141ADDAY151061AY221061GF108991081061002501999999MA1999999101081MD1710031+9999MW1601REMSYN072AAXX  13004 01467 41360 82102 10054 20053 30108 40114 57003 76052 886//;
0161014670999992000011303004+58630+009150FM-12+000799999V0209999C000010021019N0150001N1+00501+00491101111ADDAY121031AY221031GF108991081061002501999999MA1999999101051MD1710031+9999MW1021REMSYN072AAXX  13034 01467 41365 80000 10050 20049 30105 40111 57003 70222 886//;
0161014670999992000011309004+58630+009150FM-12+000799999V0209999C000010300019N0200001N1+00481+00421101291ADDAY161031AY221031GF108991041071002501021999MA1999999101231MD1210181+9999MW1601REMSYN072AAXX  13094 01467 41370 80000 10048 20042 30123 40129 52018 76062 8472/;
0173014670999992000011312004+58630+009150FM-12+000799999V0200401N001010021019N0200001N1+00391+00361101421ADDAY161061AY221061GF108991061071002501021999MA1999999101361MD1210131+9999MW1611REMSYN084AAXX  13124 01467 41370 80402 10039 20036 30136 40142 52013 76162 8672/ 222// 00051;
0161014670999992000011315004+58630+009150FM-12+000799999V0200301N001010021019N0200001N1+00271+00261101491ADDAY161031AY221031GF108991071071002501021999MA1999999101431MD1210071+9999MW1611REMSYN072AAXX  13154 01467 41370 80302 10027 20026 30143 40149 52007 76162 8772/;
0201014670999992000011318004+58630+009150FM-12+000799999V0200401N001010021019N0250001N1+00261+00231101651ADDAA100004191AY161061AY221061GF108991071071002501021999KA1999M+00501MA1999999101591MD1210161+9999MW1021REMSYN088AAXX  13184 01467 11375 80402 10026 20023 30159 40165 52016 60040 70262 8772/ 333 10050;
0165014670999992000011400004+58630+009150FM-12+000799999V0203601N002110021019N0100001N1+00261+00131101981ADDAY171061AY221061GF108991051071002501021999MA1999999101921MD1210151+9999MW1681REMSYN076    AAXX  14004 01467 41360 83604 10026 20013 30192 40198 52015 76872 8572/;
0165014670999992000011403004+58630+009150FM-12+000799999V0200501N004610300019N0280001N1+00271+00041102121ADDAY171031AY221031GF108991041071004501021999MA1999999102061MD1210141+9999MW1021REMSYN076    AAXX  14034 01467 41478 80509 10027 20004 30206 40212 52014 70272 8472/;
0205014670999992000011406004+58630+009150FM-12+000799999V0200401N004610021019N0100001N1+00111+00081102331ADDAA112002091AY171061AY221061GF108991061071002501021999KA1999N+00111MA1999999102271MD1210211+9999MW1681REMSYN092    AAXX  14064 01467 11360 80409 10011 20008 30227 40233 52021 60022 76872 8672/ 333 20011;
0165014670999992000011409004+58630+009150FM-12+000799999V0200201N003110021019N0060001N1+00081+00051102581ADDAY171031AY221031GF108991081071002501999999MA1999999102521MD1210251+9999MW1681REMSYN076    AAXX  14094 01467 41356 80206 10008 20005 30252 40258 52025 76872 887//;
0177014670999992000011412004+58630+009150FM-12+000799999V0200301N003112200019N0550001N1+00131+00101102661ADDAY171061AY221061GF104991021081004501071011MA1999999102601MD1210081+9999MW1011REMSYN088    AAXX  14124 01467 41485 40306 10013 20010 30260 40266 52008 70172 82871 222// 00051;
0165014670999992000011415004+58630+009150FM-12+000799999V0200301N002112200019N0750001N1+00141-00181102751ADDAY111031AY201031GF101991011081004501031011MA1999999102691MD1210091+9999MW1011REMSYN076    AAXX  14154 01467 41489 10304 10014 21018 30269 40275 52009 70110 81831;
0215014670999992000011418004+58630+009150FM-12+000799999V0200301N002112200019N0750001N1+00061-00301102911ADDAA112000591AY111061AY201061GA1001+999999999GF100991001001999999001001KA1999M+00161MA1999999102851MD1210161+9999MW1021REMSYN086    AAXX  14184 01467 11989 00304 10006 21030 30285 40291 52016 69962 70210 333 10016;
0175014670999992000011500004+58630+009150FM-12+000799999V0203301N001012200019N0750001N1-00081-00331103121ADDAY101061AY201061GA1001+999999999GF100991001001999999001001MA1999999103061MD1110101+9999MW1021REMSYN070    AAXX  15004 01467 41989 03302 11008 21033 30306 40312 51010 70200;
0175014670999992000011503004+58630+009150FM-12+000799999V0203101N001012200019N0750001N1-00171-00361103121ADDAY101031AY201031GA1001+999999999GF100991001001999999001001MA1999999103061MD1410001+9999MW1021REMSYN070    AAXX  15034 01467 41989 03102 11017 21036 30306 40312 54000 70200;
0218014670999992000011506004+58630+009150FM-12+000799999V0202701N000512200019N0550001N1-00191-00361103051ADDAA199000091AY101061AY201061GF102991001001999999001041KA1999N-00231MA1999999102991MD1810071+9999MW1031REMSYN086    AAXX  15064 01467 31985 22701 11019 21036 30299 40305 58007 70300 80004 333 21023;EQDQ01  00002PRCP99
0165014670999992000011509004+58630+009150FM-12+000799999V0202901N000512200019N0750001N1-00201-00421103061ADDAY101031AY201031GF103991021001999999031011MA1999999103001MD1210011+9999MW1021REMSYN076    AAXX  15094 01467 41989 32901 11020 21042 30300 40306 52001 70200 82031;
0177014670999992000011512004+58630+009150FM-12+000799999V0202201N000510300019N0750001N1+00071-00271102961ADDAY121061AY201061GF107991011041008001031011MA1999999102901MD1810101+9999MW1021REMSYN088    AAXX  15124 01467 41589 72201 10007 21027 30290 40296 58010 70220 81431 222// 00045;
0165014670999992000011515004+58630+009150FM-12+000799999V0202201N001010210019N0750001N1+00221+00031102751ADDAY121031AY221031GF107991071001022501071011MA1999999102691MD1710211+9999MW1021REMSYN076    AAXX  15154 01467 41889 72202 10022 20003 30269 40275 57021 70222 87071;
0218014670999992000011518004+58630+009150FM-12+000799999V0203001N002112200019N0750001N1+00431+00171102681ADDAA199000091AY121061AY211061GF103991031001999999041011KA1999M+00431MA1999999102621MD1510071+9999MW1021REMSYN086    AAXX  15184 01467 31989 33004 10043 20017 30262 40268 55007 70221 83041 333 10043;EQDQ01  00002PRCP99
0165014670999992000011600004+58630+009150FM-12+000799999V0202901N002112200019N0750001N1+00391+00231102601ADDAY161061AY211061GF101991011001999999061011MA1999999102541MD1810091+9999MW1021REMSYN076    AAXX  16004 01467 41989 12904 10039 20023 30254 40260 58009 70261 81061;
0165014670999992000011603004+58630+009150FM-12+000799999V0202301N000512200019N0750001N1+00361+00211102491ADDAY101031AY201031GF101991011001999999031011MA1999999102431MD1710111+9999MW1021REMSYN076    AAXX  16034 01467 41989 12301 10036 20021 30243 40249 57011 70200 81031;
0205014670999992000011606004+58630+009150FM-12+000799999V0202001N001012200019N0750001N1+00391+00191102381ADDAA112000391AY101061AY201061GF102991011001999999031011KA1999N+00251MA1999999102301MD1710111+9999MW1021REMSYN092    AAXX  16064 01467 11989 22002 10039 20019 30230 40238 57011 69932 70200 81031 333 20025;
0165014670999992000011609004+58630+009150FM-12+000799999V0202701N002110210019N0750001N1+00611+00121102171ADDAY121031AY211031GF107991071001022501071011MA1999999102111MD1710211+9999MW1021REMSYN076    AAXX  16094 01467 41889 72704 10061 20012 30211 40217 57021 70221 87071;
0177014670999992000011612004+58630+009150FM-12+000799999V0202501N003110300019N0750001N1+00611+00221101871ADDAY121061AY211061GF107991011011008001071011MA1999999101811MD1710301+9999MW1021REMSYN088    AAXX  16124 01467 41589 72506 10061 20022 30181 40187 57030 70221 81171 222// 00043;
0165014670999992000011615004+58630+009150FM-12+000799999V0202201N003110750019N0750001N1+00681+00481101531ADDAY121031AY221031GF105991011011008001071011MA1999999101471MD1710341+9999MW1011REMSYN076    AAXX  16154 01467 41589 52206 10068 20048 30147 40153 57034 70122 81171;
0218014670999992000011618004+58630+009150FM-12+000799999V0202201N002112200019N0600001N1+00551+00481101381ADDAA199000091AY121061AY211061GF102991011041008001031011KA1999M+00821MA1999999101321MD1610151+9999MW1021REMSYN086    AAXX  16184 01467 31586 22204 10055 20048 30132 40138 56015 70221 81431 333 10082;EQDQ01  00002PRCP99
0165014670999992000011700004+58630+009150FM-12+000799999V0202501N002112200019N0750001N1+00921+00421100951ADDAY111061AY201061GF101991011001999999031001MA1999999100891MD1710351+9999MW1021REMSYN076    AAXX  17004 01467 41989 12504 10092 20042 30089 40095 57035 70210 81030;
0165014670999992000011703004+58630+009150FM-12+000799999V0209999C000012200019N0750001N1+00691+00461100901ADDAY101031AY201031GF101991011001999999041001MA1999999100841MD1710051+9999MW1021REMSYN076    AAXX  17034 01467 41989 10000 10069 20046 30084 40090 57005 70200 81040;
0228014670999992000011706004+58630+009150FM-12+000799999V0202201N001012200019N0750001N1+00921+00251100851ADDAA199000091AY101061AY201061GA1001+999999999GF100991001001999999001001KA1999N+00461MA1999999100791MD1710051+9999MW1021REMSYN080    AAXX  17064 01467 31989 02202 10092 20025 30079 40085 57005 70200 333 20046;EQDQ01  00002PRCP99
0165014670999992000011709004+58630+009150FM-12+000799999V0202701N001012200019N0750001N1+01021+00081100831ADDAY101031AY201031GF101991011011008001031011MA1999999100771MD1710021+9999MW1021REMSYN076    AAXX  17094 01467 41589 12702 10102 20008 30077 40083 57002 70200 81131;
0177014670999992000011712004+58630+009150FM-12+000799999V0203201N006212200019N0750001N1+01331-00181100751ADDAY101061AY201061GF101991011011008001031011MA1999999100691MD1710081+9999MW1021REMSYN088    AAXX  17124 01467 41589 13212 10133 21018 30069 40075 57008 70200 81131 222// 00047;
0165014670999992000011715004+58630+009150FM-12+000799999V0203501N007712200019N0750001N1+01241-00261100801ADDAY101031AY201031GF101991011011008001031011MA1999999100741MD1310051+9999MW1021REMSYN076    AAXX  17154 01467 41589 13515 10124 21026 30074 40080 53005 70200 81131;
0218014670999992000011718004+58630+009150FM-12+000799999V0203601N004612200019N0750001N1+01101-00241100921ADDAA199000091AY101061AY201061GF101991011011008001001011KA1999M+01331MA1999999100861MD1210121+9999MW1021REMSYN086    AAXX  17184 01467 31589 13609 10110 21024 30086 40092 52012 70200 81101 333 10133;EQDQ01  00002PRCP99
0165014670999992000011800004+58630+009150FM-12+000799999V0203301N002112200019N0600001N1+00701+00021100751ADDAY101061AY201061GF101991011011008001001001MA1999999100691MD1610041+9999MW1021REMSYN076    AAXX  18004 01467 41586 13304 10070 20002 30069 40075 56004 70200 81100;
0165014670999992000011803004+58630+009150FM-12+000799999V0203601N007712200019N0750001N1+00861-00391100911ADDAY101031AY201031GF102991021011008001001011MA1999999100851MD1310161+9999MW1021REMSYN076    AAXX  18034 01467 41589 23615 10086 21039 30085 40091 53016 70200 82101;
0228014670999992000011806004+58630+009150FM-12+000799999V0203401N006212200019N0750001N1+00571-00751101141ADDAA199000091AY101061AY201061GA1001+999999999GF100991001001999999001001KA1999N+00571MA1999999101081MD1210231+9999MW1021REMSYN080    AAXX  18064 01467 31989 03412 10057 21075 30108 40114 52023 70200 333 20057;EQDQ01  00002PRCP99
0175014670999992000011809004+58630+009150FM-12+000799999V0203401N006212200019N0600001N1+00491-00891101351ADDAY101031AY201031GA1001+999999999GF100991001001999999001001MA1999999101291MD1210121+9999MW1021REMSYN070    AAXX  18094 01467 41986 03412 10049 21089 30129 40135 52012 70200;
0177014670999992000011812004+58630+009150FM-12+000799999V0203501N004612200019N0600001N1+00561-00941101611ADDAY101061AY201061GF101991001001999999001011MA1999999101551MD1210261+9999MW1031REMSYN088    AAXX  18124 01467 41986 13509 10056 21094 30155 40161 52026 70300 80001 222// 00047;
0165014670999992000011815004+58630+009150FM-12+000799999V0203501N004612200019N0600001N1+00521-00901101821ADDAY101031AY201031GF101991001001999999001011MA1999999101761MD1210211+9999MW1021REMSYN076    AAXX  18154 01467 41986 13509 10052 21090 30176 40182 52021 70200 80001;
0218014670999992000011818004+58630+009150FM-12+000799999V0203501N003112200019N0600001N1+00371-00891102021ADDAA199000091AY101061AY201061GF101991001001999999001011KA1999M+00571MA1999999101961MD1210201+9999MW1021REMSYN086    AAXX  18184 01467 31986 13506 10037 21089 30196 40202 52020 70200 80001 333 10057;EQDQ01  00002PRCP99
0165014670999992000011900004+58630+009150FM-12+000799999V0203201N002112200019N0750001N1+00221-00771102281ADDAY101061AY201061GF101991011041008001061011MA1999999102221MD1110101+9999MW1021REMSYN076    AAXX  19004 01467 41589 13204 10022 21077 30222 40228 51010 70200 81461;
0175014670999992000011903004+58630+009150FM-12+000799999V0203601N003112200019N0750001N1+00201-00841102351ADDAY101031AY201031GA1001+999999999GF100991001001999999001001MA1999999102291MD1210071+9999MW1011REMSYN070    AAXX  19034 01467 41989 03606 10020 21084 30229 40235 52007 70100;
0218014670999992000011906004+58630+009150FM-12+000799999V0203201N002112200019N0600001N1+00161-00791102411ADDAA199000091AY101061AY201061GF101991011041008001041001KA1999N+00161MA1999999102351MD1110061+9999MW1031REMSYN086    AAXX  19064 01467 31586 13204 10016 21079 30235 40241 51006 70300 81440 333 20016;EQDQ01  00002PRCP99
0165014670999992000011909004+58630+009150FM-12+000799999V0203101N002112200019N0750001N1+00181-00701102491ADDAY101031AY201031GF102991011041008001061011MA1999999102431MD1110081+9999MW1021REMSYN076    AAXX  19094 01467 41589 23104 10018 21070 30243 40249 51008 70200 81461;
0185014670999992000011912004+58630+009150FM-12+000799999V0203201N001012200019N0750001N1+00411-00511102381ADDAY111061AY201061GF104991011041008001031011MA1999999102321MD1810091+9999MW1021SA1+4009REMSYN088    AAXX  19124 01467 41589 43202 10041 21051 30232 40238 58009 70210 81431 222// 00040;
0165014670999992000011915004+58630+009150FM-12+000799999V0202801N001012200019N0750001N1+00501-00401102221ADDAY111031AY201031GF102991011001999999031011MA1999999102161MD1710161+9999MW1021REMSYN076    AAXX  19154 01467 41989 22802 10050 21040 30216 40222 57016 70210 81031;
0214014670999992000011918004+58630+009150FM-12+000799999V0202401N002112200019N0750001N1+00251-00111102131ADDAA199000091AY111061AY201061GF102991011001999999031011KA1999M+00501MA1999999102071MD1710091+9999MW1021REMSYN082AAXX  19184 01467 31989 22404 10025 21011 30207 40213 57009 70210 81031 333 10050;EQDQ01  00002PRCP99
0161014670999992000012000004+58630+009150FM-12+000799999V0202901N004610300019N0600001N1+00691-00051101851ADDAY121061AY211061GF107991011041008001071999MA1999999101791MD1710141+9999MW1031REMSYN072AAXX  20004 01467 41586 72909 10069 21005 30179 40185 57014 70321 8147/;
0161014670999992000012003004+58630+009150FM-12+000799999V0202201N002112200019N0750001N1+00531+00141101601ADDAY121031AY211031GF104991041001999999041011MA1999999101541MD1710251+9999MW1021REMSYN072AAXX  20034 01467 41989 42204 10053 20014 30154 40160 57025 70221 84041;
0214014670999992000012006004+58630+009150FM-12+000799999V0202201N002119999999N0750001N1+00431+00301101171ADDAA199000091AY121061AY211061GF107991071001999999031011KA1999N+00211MA1999999101111MD1710431+9999MW1021REMSYN082AAXX  20064 01467 31989 72204 10043 20030 30111 40117 57043 70221 87031 333 20021;EQDQ01  00002PRCP99
0161014670999992000012009004+58630+009150FM-12+000799999V0202701N002110300019N0550001N1+00401+00251101091ADDAY121031AY221031GF107991011051008001071999MA1999999101031MD1710081+9999MW1021REMSYN072AAXX  20094 01467 41585 72704 10040 20025 30103 40109 57008 70222 8157/;
0173014670999992000012012004+58630+009150FM-12+000799999V0202701N002112200019N0550001N1+00601+00101101001ADDAY121061AY211061GF103991021051008001041001MA1999999100941MD1710091+9999MW1011REMSYN084AAXX  20124 01467 41585 32704 10060 20010 30094 40100 57009 70121 82540 222// 00043;
0161014670999992000012015004+58630+009150FM-12+000799999V0203301N003112200019N0550001N1+00841-00311100861ADDAY101031AY201031GF104991021051012501041011MA1999999100801MD1710141+9999MW1031REMSYN072AAXX  20154 01467 41685 43306 10084 21031 30080 40086 57014 70300 82541;
0214014670999992000012018004+58630+009150FM-12+000799999V0203301N002112200019N0600001N1+00621-00451100901ADDAA199000091AY101061AY201061GF101991011041008001041011KA1999M+00851MA1999999100841MD1310041+9999MW1011REMSYN082AAXX  20184 01467 31586 13304 10062 21045 30084 40090 53004 70100 81441 333 10085;EQDQ01  00002PRCP99
0161014670999992000012100004+58630+009150FM-12+000799999V0200201N003112200019N0750001N1+00431-00721101111ADDAY101061AY201061GF102991011021008001061001MA1999999101051MD1310171+9999MW1031REMSYN072AAXX  21004 01467 41589 20206 10043 21072 30105 40111 53017 70300 81260;
0161014670999992000012103004+58630+009150FM-12+000799999V0200401N002112200019N0500001N1+00031-00011101431ADDAY181031AY201031GF103991011091008001041001MA1999999101391MD1210321+9999MW1031REMSYN072AAXX  21034 01467 41584 30404 10003 21001 30139 40143 52032 70380 81940;
0220014670999992000012106004+58630+009150FM-12+000799999V0203301N001012200019N0550001N1-00041-00261101701ADDAA112000791AY181061AY201061GF101991011041008001041001KA1999N+99999MA1999999101641MD1210201+9999MW1011REMSYN088AAXX  21064 01467 11585 13302 11004 21026 30164 40170 52020 69902 70180 81440 333 20004;EQDQ01 +00042ATMN  
0161014670999992000012109004+58630+009150FM-12+000799999V0200301N002112200019N0650001N1-00021-00931102071ADDAY111031AY201031GF103991021041004501061011MA1999999102011MD1210371+9999MW1021REMSYN072AAXX  21094 01467 41487 30304 11002 21093 30201 40207 52037 70210 82461;
0181014670999992000012112004+58630+009150FM-12+000799999V0203601N002112200019N0750001N1+00071-01101102291ADDAY111061AY201061GF103991011011004501031011MA1999999102231MD1210221+9999MW1031SA1+3609REMSYN084AAXX  21124 01467 41489 33604 10007 21110 30223 40229 52022 70310 81131 222// 00036;
0161014670999992000012115004+58630+009150FM-12+000799999V0200301N002110300019N0600001N1-00011-01201102201ADDAY121031AY211031GF107991021051008001071999MA1999999102141MD1810091+9999MW1031REMSYN072AAXX  21154 01467 41586 70304 11001 21120 30214 40220 58009 70321 8257/;
0214014670999992000012118004+58630+009150FM-12+000799999V0201801N002110300019N0550001N1+00001-00971101951ADDAA199000091AY121061AY211061GF107991031051008001071999KA1999M+00081MA1999999101891MD1710251+9999MW1021REMSYN082AAXX  21184 01467 31585 71804 10000 21097 30189 40195 57025 70221 8357/ 333 10008;EQDQ01  00002PRCP99
0161014670999992000012200004+58630+009150FM-12+000799999V0201801N006210042019N0040001N1-00071-00111101161ADDAY171061AY221061GF108991081071004501999999MA1999999101101MD1710401+9999MW1711REMSYN072AAXX  22004 01467 41440 81812 11007 21011 30110 40116 57040 77172 887//;
0161014670999992000012203004+58630+009150FM-12+000799999V0201601N004610042019N0040001N1-00021-00101100791ADDAY171031AY271031GF108991081071004501999999MA1999999100731MD1710371+9999MW1711REMSYN072AAXX  22034 01467 41440 81609 11002 21010 30073 40079 57037 77177 887//;
0201014670999992000012206004+58630+009150FM-12+000799999V0201201N004610042019N0080001N1-00021-00061100711ADDAA112001091AY171061AY271061GF108991081071004501999999KA1999N-00101MA1999999100651MD1510081+9999MW1711REMSYN088AAXX  22064 01467 11458 81209 11002 21006 30065 40071 55008 60012 77177 887// 333 21010;
0161014670999992000012209004+58630+009150FM-12+000799999V0201501N003110042019N0040001N1+00001-00031100931ADDAY171031AY271031GF108991081071004501999999MA1999999100871MD1210221+9999MW1711REMSYN072AAXX  22094 01467 41440 81506 10000 21003 30087 40093 52022 77177 887//;
0181014670999992000012212004+58630+009150FM-12+000799999V0201901N002110300019N0100001N1+00041-00091101171ADDAY171061AY221061GF108991041071008001021999MA1999999101111MD1210241+9999MW1021SA1+3609REMSYN084AAXX  22124 01467 41560 81904 10004 21009 30111 40117 52024 70272 8472/ 222// 00036;
0161014670999992000012215004+58630+009150FM-12+000799999V0202701N001010075019N0180001N1+00031-00141101211ADDAY121031AY221031GF108991061051008001071999MA1999999101151MD1110061+9999MW1021REMSYN072AAXX  22154 01467 41568 82702 10003 21014 30115 40121 51006 70222 8657/;
0201014670999992000012218004+58630+009150FM-12+000799999V0202701N001010042019N0050001N1-00041-00101101291ADDAA112000891AY171061AY221061GF108991081071004501999999KA1999M+00091MA1999999101231MD1210081+9999MW1711REMSYN088AAXX  22184 01467 11450 82702 11004 21010 30123 40129 52008 69982 77172 887// 333 10009;
0161014670999992000012300004+58630+009150FM-12+000799999V0203601N002110075019N0200001N1-00061-00101101491ADDAY171061AY221061GF108991081051008001999999MA1999999101431MD1210101+9999MW1021REMSYN072AAXX  23004 01467 41570 83604 11006 21010 30143 40149 52010 70272 885//;
0161014670999992000012303004+58630+009150FM-12+000799999V0200301N002112200019N0300001N1-00201-00261101721ADDAY121031AY211031GF104991011041008001041001MA1999999101661MD1210231+9999MW1011REMSYN072AAXX  23034 01467 41580 40304 11020 21026 30166 40172 52023 70121 81440;
0201014670999992000012306004+58630+009150FM-12+000799999V0200301N003112200019N0400001N1-00341-00441101991ADDAA112000391AY121061AY211061GF101991011041008001001001KA1999N-00341MA1999999101931MD1210271+9999MW1011REMSYN088AAXX  23064 01467 11582 10306 11034 21044 30193 40199 52027 69932 70121 81400 333 21034;
0161014670999992000012309004+58630+009150FM-12+000799999V0203601N002112200019N0500001N1-00461-00601102091ADDAY101031AY201031GF102991011011008001001011MA1999999102031MD1110101+9999MW1031REMSYN072AAXX  23094 01467 41584 23604 11046 21060 30203 40209 51010 70300 81101;
0161014670999992000012315004+58630+009150FM-12+000799999V0202701N001010750019N0550001N1-00201-00511102221ADDAY111031AY201031GF105991011021008001041081MA1999999102161MD1810051+9999MW1031REMSYN072AAXX  23154 01467 41585 52702 11020 21051 30216 40222 58005 70310 81248;
0214014670999992000012318004+58630+009150FM-12+000799999V0202401N000512200019N0550001N1-00371-00551102191ADDAA199000091AY111061AY201061GF101991011041008001001001KA1999M-00201MA1999999102131MD1610031+9999MW1011REMSYN082AAXX  23184 01467 31585 12401 11037 21055 30213 40219 56003 70110 81400 333 11020;EQDQ01  00002PRCP99
0171014670999992000012400004+58630+009150FM-12+000799999V0203001N000512200019N0750001N1-00621-00751102201ADDAY101061AY201061GA1001+999999999GF100991001001999999001001MA1999999102141MD1310011+9999MW1011REMSYN066AAXX  24004 01467 41989 03001 11062 21075 30214 40220 53001 70100;
0171014670999992000012403004+58630+009150FM-12+000799999V0203001N001012200019N0600001N1-00681-00761102151ADDAY101031AY201031GA1001+999999999GF100991001001999999001001MA1999999102091MD1810051+9999MW1021REMSYN066AAXX  24034 01467 41986 03002 11068 21076 30209 40215 58005 70200;
0230014670999992000012406004+58630+009150FM-12+000799999V0203001N001012200019N0600001N1-00561-00651999999ADDAA199000091AY101061AY201061GF103991011001022501041011KA1999N-00681MA1999999101951MD1710141+9999MW1031REMSYN082AAXX  24064 01467 31886 33002 11056 21065 30195 40121 57014 70300 81041 333 21068;EQDQ01+101213APOSLPQ02  00002PRCP99
0161014670999992000012409004+58630+009150FM-12+000799999V0203501N001012200019N0600001N1-00461-00581101951ADDAY101031AY201031GF102991011051008001031001MA1999999101891MD1610061+9999MW1011REMSYN072AAXX  24094 01467 41586 23502 11046 21058 30189 40195 56006 70100 81530;
0181014670999992000012412004+58630+009150FM-12+000799999V0202401N000512200019N0600001N1-00051-00241101901ADDAY101061AY201061GF102991011021008001041011MA1999999101841MD1810051+9999MW1021SA1+2709REMSYN084AAXX  24124 01467 41586 22401 11005 21024 30184 40190 58005 70200 81241 222// 00027;
0161014670999992000012415004+58630+009150FM-12+000799999V0202701N000512200019N0600001N1+00101-00121101821ADDAY101031AY201031GF104991011021008001041011MA1999999101761MD1710081+9999MW1031REMSYN072AAXX  24154 01467 41586 42701 10010 21012 30176 40182 57008 70300 81241;
0214014670999992000012418004+58630+009150FM-12+000799999V0203301N000512200019N0600001N1-00131-00191101931ADDAA199000091AY101061AY201061GF102991011041008001041001KA1999M+00201MA1999999101871MD1310111+9999MW1011REMSYN082AAXX  24184 01467 31586 23301 11013 21019 30187 40193 53011 70100 81440 333 10020;EQDQ01  00002PRCP99
0180014670999992000012500004+58630+009150FM-12+000799999V0203301N000512200019N0600001N1-00071-00261102111ADDAY101061AY201061GF102991999041008001001001MA1999999102051MD1210041+9999MW1021REMSYN072AAXX  25004 01467 41586 23301 11007 21026 30205 40211 52004 70200 81400;EQDQ01+000012SCOTLC
0161014670999992000012503004+58630+009150FM-12+000799999V0202701N000512200019N0600001N1+00001-00321102111ADDAY101031AY201031GF102991001001999999001011MA1999999102051MD1410001+9999MW1021REMSYN072AAXX  25034 01467 41986 22701 10000 21032 30205 40211 54000 70200 80001;
0224014670999992000012506004+58630+009150FM-12+000799999V0202701N000512200019N0600001N1-00201-00301101961ADDAA199000091AY101061AY201061GA1001+999999999GF100991001001999999001001KA1999N-00201MA1999999101901MD1810101+9999MW1011REMSYN076AAXX  25064 01467 31986 02701 11020 21030 30190 40196 58010 70100 333 21020;EQDQ01  00002PRCP99
0161014670999992000012515004+58630+009150FM-12+000799999V0202401N000512200019N0600001N1+00191+00131101791ADDAY101031AY201031GF102991011041008001001081MA1999999101731MD1710041+9999MW1031REMSYN072AAXX  25154 01467 41586 22401 10019 20013 30173 40179 57004 70300 81408;
0214014670999992000012518004+58630+009150FM-12+000799999V0203201N000512200019N0400001N1-00061-00101101831ADDAA199000091AY101061AY201061GF101991011041008001001001KA1999M+00191MA1999999101771MD1310041+9999MW1011REMSYN082AAXX  25184 01467 31582 13201 11006 21010 30177 40183 53004 70100 81400 333 10019;EQDQ01  00002PRCP99
0161014670999992000012600004+58630+009150FM-12+000799999V0202701N000512200019N0550001N1-00181-00221101791ADDAY101061AY201061GF101991011001022501041001MA1999999101731MD1710061+9999MW1021REMSYN072AAXX  26004 01467 41885 12701 11018 21022 30173 40179 57006 70200 81040;
0161014670999992000012603004+58630+009150FM-12+000799999V0202701N000512200019N0550001N1-00061-00121101601ADDAY101031AY201031GF101991011001022501031001MA1999999101541MD1710191+9999MW1021REMSYN072AAXX  26034 01467 41885 12701 11006 21012 30154 40160 57019 70200 81030;
0214014670999992000012606004+58630+009150FM-12+000799999V0202701N000512200019N0550001N1+00131+00091101431ADDAA199000091AY101061AY201061GF101991011001022501041001KA1999N-00241MA1999999101371MD1710171+9999MW1021REMSYN082AAXX  26064 01467 31885 12701 10013 20009 30137 40143 57017 70200 81040 333 21024;EQDQ01  00002PRCP99
0161014670999992000012609004+58630+009150FM-12+000799999V0202501N001012200019N0550001N1+00271+00211101371ADDAY101031AY201031GF104991041001022501041001MA1999999101311MD1610061+9999MW1031REMSYN072AAXX  26094 01467 41885 42502 10027 20021 30131 40137 56006 70300 84040;
0181014670999992000012612004+58630+009150FM-12+000799999V0202901N002112200019N0550001N1+00741+00361101261ADDAY111061AY201061GF105991031001022501041011MA1999999101201MD1710111+9999MW1031SA1+2809REMSYN084AAXX  26124 01467 41885 52904 10074 20036 30120 40126 57011 70310 83041 222// 00028;
0161014670999992000012615004+58630+009150FM-12+000799999V0202001N001010210019N0550001N1+00551+00051101231ADDAY121031AY221031GF106991061001022501041001MA1999999101171MD1610031+9999MW1031REMSYN072AAXX  26154 01467 41885 62002 10055 20005 30117 40123 56003 70322 86040;
0214014670999992000012618004+58630+009150FM-12+000799999V0203001N000510300019N0550001N1+00631-00091101381ADDAA199000091AY121061AY221061GF107991031051008001071999KA1999M+00861MA1999999101321MD1310151+9999MW1031REMSYN082AAXX  26184 01467 31585 73001 10063 21009 30132 40138 53015 70322 8357/ 333 10086;EQDQ01  00002PRCP99
0161014670999992000012700004+58630+009150FM-12+000799999V0202701N002110300019N0550001N1+00471-00041101451ADDAY121061AY221061GF107991031051008001071999MA1999999101391MD1810061+9999MW1021REMSYN072AAXX  27004 01467 41585 72704 10047 21004 30139 40145 58006 70222 8357/;
0161014670999992000012703004+58630+009150FM-12+000799999V0202701N003110300019N0550001N1+00431-00011101371ADDAY121031AY221031GF107991031051008001071999MA1999999101311MD1710081+9999MW1021REMSYN072AAXX  27034 01467 41585 72706 10043 21001 30131 40137 57008 70222 8357/;
0214014670999992000012706004+58630+009150FM-12+000799999V0202701N002110300019N0550001N1+00421+00071101161ADDAA199000091AY121061AY221061GF108991031051008001071999KA1999N+00421MA1999999101101MD1710211+9999MW1031REMSYN082AAXX  27064 01467 31585 82704 10042 20007 30110 40116 57021 70322 8357/ 333 20042;EQDQ01  00002PRCP99
0161014670999992000012709004+58630+009150FM-12+000799999V0202701N002110300019N0550001N1+00401+00241100961ADDAY121031AY221031GF107991031051008001071999MA1999999100901MD1710201+9999MW1021REMSYN072AAXX  27094 01467 41585 72704 10040 20024 30090 40096 57020 70222 8357/;
0173014670999992000012712004+58630+009150FM-12+000799999V0202601N004610300019N0550001N1+00551+00271100371ADDAY121061AY221061GF107991031051008001071999MA1999999100311MD1810591+9999MW1021REMSYN084AAXX  27124 01467 41585 72609 10055 20027 30031 40037 58059 70222 8357/ 222// 00033;
0161014670999992000012715004+58630+009150FM-12+000799999V0202701N003112200019N0550001N1+00731+00231100181ADDAY121031AY201031GF104991021021008001041051MA1999999100121MD1710191+9999MW1011REMSYN072AAXX  27154 01467 41585 42706 10073 20023 30012 40018 57019 70120 82245;
0214014670999992000012718004+58630+009150FM-12+000799999V0202501N003112200019N0550001N1+00521+00001100151ADDAA199000091AY101061AY201061GF102991011021008001041001KA1999M+00731MA1999999100091MD1710131+9999MW1011REMSYN082AAXX  27184 01467 31585 22506 10052 20000 30009 40015 57013 70100 81240 333 10073;EQDQ01  00002PRCP99
0161014670999992000012800004+58630+009150FM-12+000799999V0202501N003110300019N0550001N1+00301+00011100061ADDAY121061AY211061GF108991031051008001071999MA1999999100001MD1710031+9999MW1031REMSYN072AAXX  28004 01467 41585 82506 10030 20001 30000 40006 57003 70321 8357/;
0161014670999992000012803004+58630+009150FM-12+000799999V0202501N004610300019N0550001N1+00321-00191100001ADDAY121031AY221031GF107991031051008001071999MA1999999099941MD1710061+9999MW1021REMSYN072AAXX  28034 01467 41585 72509 10032 21019 39994 40000 57006 70222 8357/;
0214014670999992000012806004+58630+009150FM-12+000799999V0202701N002110300019N0550001N1+00271-00231099961ADDAA199000091AY121061AY221061GF106991021041008001071001KA1999N+00241MA1999999099901MD1710041+9999MW1011REMSYN082AAXX  28064 01467 31585 62704 10027 21023 39990 49996 57004 70122 82470 333 20024;EQDQ01  00002PRCP99
0161014670999992000012809004+58630+009150FM-12+000799999V0202401N002110300019N0550001N1+00181-00081099901ADDAY121031AY221031GF107991031051008001071999MA1999999099841MD1710061+9999MW1031REMSYN072AAXX  28094 01467 41585 72404 10018 21008 39984 49990 57006 70322 8357/;
0173014670999992000012812004+58630+009150FM-12+000799999V0202501N002110300019N0500001N1+00271+00011099671ADDAY121061AY221061GF107991021051008001071999MA1999999099611MD1710231+9999MW1021REMSYN084AAXX  28124 01467 41584 72504 10027 20001 39961 49967 57023 70222 8257/ 222// 00046;
0161014670999992000012815004+58630+009150FM-12+000799999V0202501N002110300019N0400001N1+00331+00171099471ADDAY121031AY221031GF108991021051008001071999MA1999999099411MD1710201+9999MW1031REMSYN072AAXX  28154 01467 41582 82504 10033 20017 39941 49947 57020 70322 8257/;
0201014670999992000012818004+58630+009150FM-12+000799999V0202601N003110300019N0200001N1+00321+00281099241ADDAA112000891AY161061AY221061GF108991041071008001021999KA1999M+00331MA1999999099181MD1710231+9999MW1521REMSYN088AAXX  28184 01467 11570 82606 10032 20028 39918 49924 57023 69972 75262 8472/ 333 10033;
0161014670999992000012900004+58630+009150FM-12+000799999V0202501N004610300019N0200001N1+00491+00461098421ADDAY161061AY221061GF108991041071004501021999MA1999999098361MD1710171+9999MW1531REMSYN072AAXX  29004 01467 41470 82509 10049 20046 39836 49842 57017 75362 8472/;
0161014670999992000012903004+58630+009150FM-12+000799999V0202501N006210300019N0150001N1+00581+00551097971ADDAY151031AY221031GF108991041071004501021999MA1999999097911MD1710451+9999MW1501REMSYN072AAXX  29034 01467 41465 82512 10058 20055 39791 49797 57045 75052 8472/;
0201014670999992000012906004+58630+009150FM-12+000799999V0202401N006210300019N0150001N1+00571+00541097191ADDAA112000391AY161061AY221061GF108991041071004501021999KA1999N+00311MA1999999097131MD1710781+9999MW1581REMSYN088AAXX  29064 01467 11465 82412 10057 20054 39713 49719 57078 69932 75862 8472/ 333 20031;
0161014670999992000012909004+58630+009150FM-12+000799999V0202401N006210042019N0200001N1+00581+00571096401ADDAY161031AY221031GF108991051071004501021999MA1999999096391MD1710791+9999MW1621REMSYN072AAXX  29094 01467 41470 82412 10058 20057 39639 49640 57079 76262 8572/;
0173014670999992000012912004+58630+009150FM-12+000799999V0203101N004612200019N0400001N1+00741+00701095941ADDAY161061AY201061GF104991031051004501071001MA1999999095881MD1710461+9999MW1011REMSYN084AAXX  29124 01467 41482 43109 10074 20070 39588 49594 57046 70160 83570 222// 00063;
0161014670999992000012915004+58630+009150FM-12+000799999V0202701N006210300019N0250001N1+00551+00091096081ADDAY181031AY221031GF107991041071004501021999MA1999999096021MD1310141+9999MW1811REMSYN072AAXX  29154 01467 41475 72712 10055 20009 39602 49608 53014 78182 8472/;
0201014670999992000012918004+58630+009150FM-12+000799999V0202601N007710042019N0250001N1+00391+00291095681ADDAA112004191AY181061AY221061GF107991051071004501021999KA1999M+00761MA1999999095621MD1810441+9999MW1811REMSYN088AAXX  29184 01467 11475 72615 10039 20029 39562 49568 58044 60042 78182 8572/ 333 10076;
0161014670999992000013000004+58630+009150FM-12+000799999V0202501N004612200019N0300001N1+00341+00181095431ADDAY181061AY211061GF102991011041008001041001MA1999999095371MD1310071+9999MW1011REMSYN072AAXX  30004 01467 41580 22509 10034 20018 39537 49543 53007 70181 81440;
0196014670999992000013003004+58630+009150FM-12+000799999V0203201N006212200019N0400001N1+00551+00271096332ADDAY101031AY201031GF102991011041008001041001MA1999999096272MD1310901+9999MW1021REMSYN072AAXX  30034 01467 41582 23212 10055 20027 39627 49633 53090 70200 81440;EQDQ01+096273APOSP Q02+096333APOSLP
0201014670999992000013006004+58630+009150FM-12+000799999V0203201N009812200019N0400001N1+00551-00411097341ADDAA112000191AY101061AY201061GF102991011041008001041001KA1999N+00091MA1999999097281MD1211011+9999MW1021REMSYN088AAXX  30064 01467 11582 23219 10055 21041 39728 49734 52101 69912 70200 81440 333 20009;
0196014670999992000013009004+58630+009150FM-12+000799999V0203201N006212200019N0600001N1+00351-00681098712ADDAY101031AY201031GF102991011041008001041001MA1999999098652MD1211371+9999MW1021REMSYN072AAXX  30094 01467 41586 23212 10035 21068 39865 49871 52137 70200 81440;EQDQ01+098653APOSP Q02+098713APOSLP
0208014670999992000013012004+58630+009150FM-12+000799999V0203401N004612200019N0600001N1+00231-01141099451ADDAY101061AY201061GF101991011011008001041001MA1999999099391MD1410001+9999MW1011REMSYN084AAXX  30124 01467 41586 13409 10023 21114 39939 49945 52074 70100 81140 222// 00057;EQDQ01+000022APCTENQ02+000742APC3  
0161014670999992000013015004+58630+009150FM-12+000799999V0203201N004612200019N0600001N1+00191-01041099811ADDAY101031AY201031GF101991011011008001041001MA1999999099751MD1210361+9999MW1021REMSYN072AAXX  30154 01467 41586 13209 10019 21104 39975 49981 52036 70200 81140;
0214014670999992000013018004+58630+009150FM-12+000799999V0202701N002112200019N0400001N1+00031-00911100041ADDAA199000091AY101061AY201061GF103991011041008001071001KA1999M+00541MA1999999099981MD1210231+9999MW1031REMSYN082AAXX  30184 01467 31582 32704 10003 21091 39998 40004 52023 70300 81470 333 10054;EQDQ01  00002PRCP99
0180014670999992000013100004+58630+009150FM-12+000799999V0202501N002110300019N0300001N1+00161-00641099541ADDAY121061AY201061GF106991021041008001071001MA1999999099481MD1810502+9999MW1031REMSYN072AAXX  31004 01467 41580 62504 10016 21064 39948 49954 58050 70320 82470;EQDQ01+000502APC3  
0196014670999992000013103004+58630+009150FM-12+000799999V0200301N004610042019N0050001N1-00031-00041098682ADDAY181031AY221031GF108991081071004501999999MA1999999098622MD1710861+9999MW1861REMSYN072AAXX  31034 01467 41450 80309 11003 21004 39862 49868 57086 78682 887//;EQDQ01+098623APOSP Q02+098683APOSLP
0201014670999992000013106004+58630+009150FM-12+000799999V0200601N006210042019N0050001N1-00061-00071098841ADDAA112002091AY171061AY221061GF108991081071004501999999KA1999N-00061MA1999999098781MD1310161+9999MW1711REMSYN088AAXX  31064 01467 11450 80612 11006 21007 39878 49884 53016 60022 77172 887// 333 21006;
0161014670999992000013109004+58630+009150FM-12+000799999V0203301N002112200019N0600001N1-00341-00381099751ADDAY171031AY221031GF102991021091004501061001MA1999999099691MD1210911+9999MW1011REMSYN072AAXX  31094 01467 41486 23304 11034 21038 39969 49975 52091 70172 82960;
0173014670999992000013112004+58630+009150FM-12+000799999V0202901N002112200019N0600001N1-00171-00331100201ADDAY171061AY201061GF101991011041004501001001MA1999999100141MD1210451+9999MW1011REMSYN084AAXX  31124 01467 41486 12904 11017 21033 30014 40020 52045 70170 81400 222// 00051;
0161014670999992000013115004+58630+009150FM-12+000799999V0202801N002112200019N0600001N1+00071-00011100321ADDAY101031AY201031GF102991011091004501041001MA1999999100261MD1210121+9999MW1031REMSYN072AAXX  31154 01467 41486 22804 10007 21001 30026 40032 52012 70300 81940;
0201014670999992000013118004+58630+009150FM-12+000799999V0202501N002110750019N0400001N1+00191+00131100481ADDAA112000891AY121061AY201061GF105991021091004501061061KA1999M+00191MA1999999100421MD1210161+9999MW1031REMSYN088AAXX  31184 01467 11482 52504 10019 20013 30042 40048 52016 69972 70320 82966 333 10019;
0161014670999992000020100004+58630+009150FM-12+000799999V0209999C000010750019N0400001N1+00121-00061100841ADDAY121061AY211061GF105991021071004501061011MA1999999100781MD1210151+9999MW1021REMSYN072AAXX  01004 01467 41482 50000 10012 21006 30078 40084 52015 70221 82761;
0161014670999992000020103004+58630+009150FM-12+000799999V0203201N001010750019N0400001N1+00051-00121100861ADDAY121031AY221031GF105991021071004501061011MA1999999100801MD1210021+9999MW1021REMSYN072AAXX  01034 01467 41482 53202 10005 21012 30080 40086 52002 70222 82761;
0214014670999992000020106004+58630+009150FM-12+000799999V0200201N000510300019N0400001N1-00031-00171100781ADDAA199000091AY121061AY221061GF108991031051004501071999KA1999N-00131MA1999999100721MD1810081+9999MW1031REMSYN082AAXX  01064 01467 31482 80201 11003 21017 30072 40078 58008 70322 8357/ 333 21013;EQDQ01  00002PRCP99
0161014670999992000020109004+58630+009150FM-12+000799999V0203601N000510042019N0300001N1-00081-00161100681ADDAY121031AY221031GF108991081051004501999999MA1999999100621MD1810101+9999MW1021REMSYN072AAXX  01094 01467 41480 83601 11008 21016 30062 40068 58010 70222 885//;
0173014670999992000020112004+58630+009150FM-12+000799999V0200501N001010021019N0010001N1+00001-00071100351ADDAY171061AY221061GF108991051071002501021999MA1999999100291MD1710331+9999MW1721REMSYN084AAXX  01124 01467 41310 80502 10000 21007 30029 40035 57033 77272 8572/ 222// 00042;
0161014670999992000020115004+58630+009150FM-12+000799999V0200901N002110021019N0015001N1+00101+00091099851ADDAY171031AY221031GF108991061071002501021999MA1999999099791MD1710501+9999MW1681REMSYN072AAXX  01154 01467 41315 80904 10010 20009 39979 49985 57050 76872 8672/;
0201014670999992000020118004+58630+009150FM-12+000799999V0203601N001010300019N0030001N1+00001-00011099461ADDAA112004191AY171061AY251061GF108991031071002501021999KA1999M+00101MA1999999099401MD1610391+9999MW1681REMSYN088AAXX  01184 01467 11330 83602 10000 21001 39940 49946 56039 60042 76875 8372/ 333 10010;
0182014670999992000020200004+58630+009150FM-12+000799999V0202501N001012200019N0300001N1-00111-00131099441ADDAY171061AY211061GF102991011041004501041001MA1999999099381MW1011REMSYN072AAXX  02004 01467 41480 22502 11011 21013 39938 49944 56000 70171 81440;EQDQ01+000062APCTENQ02+000002APC3  
0171014670999992000020203004+58630+009150FM-12+000799999V0202301N002112200019N0400001N1+00141+00101099581ADDAY101031AY201031GA1001+999999999GF100991001001999999001001MA1999999099521MD1110141+9999MW1021REMSYN066AAXX  02034 01467 41982 02304 10014 20010 39952 49958 51014 70200;
0211014670999992000020206004+58630+009150FM-12+000799999V0202301N002112200019N0400001N1+00181+00141099541ADDAA112000191AY101061AY201061GA1001+999999999GF100991001001999999001001KA1999N-00201MA1999999099481MD1810041+9999MW1021REMSYN082AAXX  02064 01467 11982 02304 10018 20014 39948 49954 58004 69912 70200 333 21020;
0161014670999992000020209004+58630+009150FM-12+000799999V0202501N002112200019N0500001N1+00231+00191099481ADDAY101031AY201031GF101991011091008001041001MA1999999099421MD1810061+9999MW1031REMSYN072AAXX  02094 01467 41584 12504 10023 20019 39942 49948 58006 70300 81940;
0181014670999992000020212004+58630+009150FM-12+000799999V0202501N003110300019N0300001N1+00461+00291099261ADDAY121061AY201061GF107991031071008001021999MA1999999099201MD1710221+9999MW1031SA1+4109REMSYN084AAXX  02124 01467 41580 72506 10046 20029 39920 49926 57022 70320 8372/ 222// 00041;
0161014670999992000020215004+58630+009150FM-12+000799999V0202701N004612200019N0500001N1+00401+00071099041ADDAY121031AY221031GF104991021091004501061061MA1999999098981MD1710221+9999MW1011REMSYN072AAXX  02154 01467 41484 42709 10040 20007 39898 49904 57022 70122 82966;
0184014670999992000020218004+58630+009150FM-12+000799999V0202701N004612200019N0500001N1+00321+00001099191ADDAY121061AY201061GF102991011091004501041001KA1999M+00461MA1999999099131MD1310151+9999MW1011REMSYN082AAXX  02184 01467 41484 22709 10032 20000 39913 49919 53015 70120 81940 333 10046;
0161014670999992000020300004+58630+009150FM-12+000799999V0202701N002112200019N0550001N1+00301-00171099891ADDAY101061AY201061GF101991001001999999001021MA1999999099831MD1210351+9999MW1021REMSYN072AAXX  03004 01467 41985 12704 10030 21017 39983 49989 52035 70200 80002;
0180014670999992000020303004+58630+009150FM-12+000799999V0202701N002112200019N0550001N1+00311-00301100411ADDAY101031AY201031GF101991001001999999001021MA1999999100351MD1210522+9999MW1021REMSYN072AAXX  03034 01467 41985 12704 10031 21030 30035 40041 52052 70200 80002;EQDQ01+000522APC3  
0224014670999992000020306004+58630+009150FM-12+000799999V0203201N000512200019N0550001N1+00061-00211101171ADDAA199000091AY101061AY201061GA1001+999999999GF100991001001999999001001KA1999N+00031MA1999999101111MD1210761+9999MW1021REMSYN076AAXX  03064 01467 31985 03201 10006 21021 30111 40117 52076 70200 333 20003;EQDQ01  00002PRCP99
0161014670999992000020309004+58630+009150FM-12+000799999V0202801N000512200019N0550001N1+00001-00221101671ADDAY101031AY201031GF101991001001999999001011MA1999999101611MD1210501+9999MW1021REMSYN072AAXX  03094 01467 41985 12801 10000 21022 30161 40167 52050 70200 80001;
0181014670999992000020312004+58630+009150FM-12+000799999V0202701N001012200019N0550001N1+00401-00521102031ADDAY101061AY201061GF102991001001999999001091MA1999999101971MD1110361+9999MW1021SA1+3809REMSYN084AAXX  03124 01467 41985 22702 10040 21052 30197 40203 51036 70200 80009 222// 00038;
0161014670999992000020315004+58630+009150FM-12+000799999V0202701N000510300019N0550001N1+00421-00531102161ADDAY121031AY211031GF107991021041008001031081MA1999999102101MD1310131+9999MW1031REMSYN072AAXX  03154 01467 41585 72701 10042 21053 30210 40216 53013 70321 82438;
0214014670999992000020318004+58630+009150FM-12+000799999V0202401N001010300019N0550001N1+00261-00291102211ADDAA199000091AY121061AY221061GF106991011041008001031091KA1999M+00451MA1999999102151MD1010051+9999MW1021REMSYN082AAXX  03184 01467 31585 62402 10026 21029 30215 40221 50005 70222 81439 333 10045;EQDQ01  00002PRCP99
0161014670999992000020400004+58630+009150FM-12+000799999V0202501N003110300019N0300001N1+00331+00271101811ADDAY121061AY221061GF108991011041008001071999MA1999999101751MD1810401+9999MW1031REMSYN072AAXX  04004 01467 41580 82506 10033 20027 30175 40181 58040 70322 8147/;
0180014670999992000020403004+58630+009150FM-12+000799999V0202301N006210300019N0100001N1+00501+00461101271ADDAY161031AY221031GF108991041071002501021999MA1999999101211MD1710542+9999MW1601REMSYN072AAXX  04034 01467 41360 82312 10050 20046 30121 40127 57054 76062 8472/;EQDQ01+000542APC3  
0201014670999992000020406004+58630+009150FM-12+000799999V0202301N006212200019N0200001N1+00521+00481100881ADDAA112000191AY161061AY221061GF104991021071002501041021KA1999N+00181MA1999999100821MD1710391+9999MW1011REMSYN088AAXX  04064 01467 11370 42312 10052 20048 30082 40088 57039 69912 70162 82742 333 20018;
0161014670999992000020409004+58630+009150FM-12+000799999V0202401N006210300019N0200001N1+00571+00561100841ADDAY121031AY221031GF107991041071002501021999MA1999999100781MD1710041+9999MW1031REMSYN072AAXX  04094 01467 41370 72412 10057 20056 30078 40084 57004 70322 8472/;
0173014670999992000020412004+58630+009150FM-12+000799999V0202101N003112200019N0300001N1+00621+00581100511ADDAY121061AY211061GF104991011061002501071021MA1999999100451MD1710331+9999MW1011REMSYN084AAXX  04124 01467 41380 42106 10062 20058 30045 40051 57033 70121 81672 222// 00047;
0161014670999992000020415004+58630+009150FM-12+000799999V0201901N003112200019N0300001N1+00701+00661100271ADDAY121031AY211031GF104991011061002501071091MA1999999100211MD1710241+9999MW1021REMSYN072AAXX  04154 01467 41380 41906 10070 20066 30021 40027 57024 70221 81679;
0214014670999992000020418004+58630+009150FM-12+000799999V0202101N004612200019N0300001N1+00661+00621100171ADDAA199000091AY111061AY211061GF102991011061002501041011KA1999M+00701MA1999999100111MD1610101+9999MW1011REMSYN082AAXX  04184 01467 31380 22109 10066 20062 30011 40017 56010 70111 81641 333 10070;EQDQ01  00002PRCP99
0161014670999992000020500004+58630+009150FM-12+000799999V0202301N001012200019N0550001N1+00701+00631100651ADDAY101061AY201061GF102991021001017501041021MA1999999100591MD1210251+9999MW1021REMSYN072AAXX  05004 01467 41785 22302 10070 20063 30059 40065 52025 70200 82042;
0161014670999992000020503004+58630+009150FM-12+000799999V0202701N002112200019N0550001N1+00781+00641100851ADDAY121031AY211031GF105991021071004501041091MA1999999100791MD1210201+9999MW1031REMSYN072AAXX  05034 01467 41485 52704 10078 20064 30079 40085 52020 70321 82749;
0214014670999992000020506004+58630+009150FM-12+000799999V0202901N000510300019N0700001N1+00901+00761101011ADDAA199000091AY121061AY211061GF106991011071004501071091KA1999N+00601MA1999999100951MD1110161+9999MW1021REMSYN082AAXX  05064 01467 31488 62901 10090 20076 30095 40101 51016 70221 81779 333 20060;EQDQ01  00002PRCP99
0161014670999992000020509004+58630+009150FM-12+000799999V0202101N001010300019N0550001N1+00681+00641101131ADDAY121031AY221031GF107991031071004501071021MA1999999101071MD1210121+9999MW1021REMSYN072AAXX  05094 01467 41485 72102 10068 20064 30107 40113 52012 70222 83772;
0173014670999992000020512004+58630+009150FM-12+000799999V0202401N002110750019N0550001N1+00721+00681101101ADDAY121061AY211061GF105991011041008001031021MA1999999101041MD1610031+9999MW1011REMSYN084AAXX  05124 01467 41585 52404 10072 20068 30104 40110 56003 70121 81432 222// 00058;
0161014670999992000020515004+58630+009150FM-12+000799999V0202401N001012200019N0550001N1+00781+00691101101ADDAY111031AY201031GF102991011061004501041021MA1999999101041MD1410001+9999MW1011REMSYN072AAXX  05154 01467 41485 22402 10078 20069 30104 40110 54000 70110 81642;
0214014670999992000020518004+58630+009150FM-12+000799999V0202401N000512200019N0550001N1+00661+00621101071ADDAA199000091AY101061AY201061GF102991021001017501041091KA1999M+00881MA1999999101011MD1810031+9999MW1021REMSYN082AAXX  05184 01467 31785 22401 10066 20062 30101 40107 58003 70200 82049 333 10088;EQDQ01  00002PRCP99
0161014670999992000020600004+58630+009150FM-12+000799999V0202401N002110300019N0200001N1+00701+00661100771ADDAY121061AY211061GF107991031061002501021999MA1999999100711MD1710251+9999MW1031REMSYN072AAXX  06004 01467 41370 72404 10070 20066 30071 40077 57025 70321 8362/;
0161014670999992000020603004+58630+009150FM-12+000799999V0202401N004610300019N0200001N1+00601+00561100491ADDAY121031AY221031GF108991041061002501021999MA1999999100431MD1710281+9999MW1021REMSYN072AAXX  06034 01467 41370 82409 10060 20056 30043 40049 57028 70222 8462/;
0214014670999992000020606004+58630+009150FM-12+000799999V0202401N003110300019N0200001N1+00641+00601100341ADDAA199000091AY121061AY221061GF106991031061002501071021KA1999N+00551MA1999999100281MD1610151+9999MW1021REMSYN082AAXX  06064 01467 31370 62406 10064 20060 30028 40034 56015 70222 83672 333 20055;EQDQ01  00002PRCP99
0161014670999992000020609004+58630+009150FM-12+000799999V0202401N002112200019N0300001N1+00741+00601100431ADDAY121031AY201031GF102991011061004501031011MA1999999100371MD1310091+9999MW1011REMSYN072AAXX  06094 01467 41480 22404 10074 20060 30037 40043 53009 70120 81631;
0173014670999992000020612004+58630+009150FM-12+000799999V0202401N002112200019N0300001N1+00901+00401100601ADDAY101061AY201061GF102991021001022501031091MA1999999100541MD1110171+9999MW1021REMSYN084AAXX  06124 01467 41880 22404 10090 20040 30054 40060 51017 70200 82039 222// 00054;
0161014670999992000020615004+58630+009150FM-12+000799999V0202401N004612200019N0300001N1+00801+00461100611ADDAY101031AY201031GF102991001001999999001081MA1999999100551MD1110011+9999MW1021REMSYN072AAXX  06154 01467 41980 22409 10080 20046 30055 40061 51001 70200 80008;
0214014670999992000020618004+58630+009150FM-12+000799999V0202101N000510300019N0300001N1+00601+00561100641ADDAA199000091AY121061AY211061GF106991021071004501071011KA1999M+00901MA1999999100581MD1010031+9999MW1031REMSYN082AAXX  06184 01467 31480 62101 10060 20056 30058 40064 50003 70321 82771 333 10090;EQDQ01  00002PRCP99
0161014670999992000020700004+58630+009150FM-12+000799999V0201801N001010021019N0020001N1+00521+00511100161ADDAY161061AY251061GF108991061071002501021999MA1999999100101MD1710401+9999MW1591REMSYN072AAXX  07004 01467 41320 81802 10052 20051 30010 40016 57040 75965 8672/;
0196014670999992000020703004+58630+009150FM-12+000799999V0202101N006210300019N0050001N1+00601+00591099502ADDAY161031AY251031GF108991041071002501021999MA1999999099442MD1710661+9999MW1591REMSYN072AAXX  07034 01467 41350 82112 10060 20059 39944 49950 57066 75965 8472/;EQDQ01+099443APOSP Q02+099503APOSLP
0201014670999992000020706004+58630+009150FM-12+000799999V0202101N007710300019N0100001N1+00621+00611099021ADDAA112005191AY161061AY251061GF105991031061002501071021KA1999N+00501MA1999999098961MD1710481+9999MW1011REMSYN088AAXX  07064 01467 11360 52115 10062 20061 39896 49902 57048 60052 70165 83672 333 20050;
0161014670999992000020709004+58630+009150FM-12+000799999V0202401N007712200019N0200001N1+00621+00331098821ADDAY121031AY201031GF103991011061002501031021MA1999999098761MD1610201+9999MW1011REMSYN072AAXX  07094 01467 41370 32415 10062 20033 39876 49882 56020 70120 81632;
0173014670999992000020712004+58630+009150FM-12+000799999V0202401N007712200019N0200001N1+00701+00361098951ADDAY101061AY201061GF103991011061002501031021MA1999999098891MD1110131+9999MW1021REMSYN084AAXX  07124 01467 41370 32415 10070 20036 39889 49895 51013 70200 81632 222// 00054;
0161014670999992000020715004+58630+009150FM-12+000799999V0202401N007712200019N0200001N1+00701+00191099071ADDAY101031AY201031GF103991011061002501071011MA1999999099011MD1310121+9999MW1021REMSYN072AAXX  07154 01467 41370 32415 10070 20019 39901 49907 53012 70200 81671;
0214014670999992000020718004+58630+009150FM-12+000799999V0202401N006212200019N0200001N1+00501+00371099241ADDAA199000091AY101061AY201061GF103991011071004501041091KA1999M+00751MA1999999099181MD1310171+9999MW1021REMSYN082AAXX  07184 01467 31470 32412 10050 20037 39918 49924 53017 70200 81749 333 10075;EQDQ01  00002PRCP99
0161014670999992000020800004+58630+009150FM-12+000799999V0201201N000510021019N0045001N1+00451+00411098821ADDAY161061AY211061GF108991081061002501999999MA1999999098761MD1810341+9999MW1601REMSYN072AAXX  08004 01467 41345 81201 10045 20041 39876 49882 58034 76061 886//;
0161014670999992000020803004+58630+009150FM-12+000799999V0200901N000510300019N0050001N1+00481+00441098611ADDAY161031AY221031GF108991041071002501021999MA1999999098551MD1710211+9999MW1601REMSYN072AAXX  08034 01467 41350 80901 10048 20044 39855 49861 57021 76062 8472/;
0201014670999992000020806004+58630+009150FM-12+000799999V0203601N000510021019N0100001N1+00361+00321098631ADDAA112002091AY161061AY221061GF108991061061002501021999KA1999N+00361MA1999999098571MD1310021+9999MW1021REMSYN088AAXX  08064 01467 11360 83601 10036 20032 39857 49863 53002 60022 70262 8662/ 333 20036;
0161014670999992000020809004+58630+009150FM-12+000799999V0203601N000512200019N0200001N1+00281+00241098721ADDAY121031AY211031GF103991021071004501041011MA1999999098661MD1110091+9999MW1011REMSYN072AAXX  08094 01467 41470 33601 10028 20024 39866 49872 51009 70121 82741;
0173014670999992000020812004+58630+009150FM-12+000799999V0200801N000510300019N0200001N1+00501+00371098781ADDAY121061AY211061GF106991021091004501071091MA1999999098721MD1310061+9999MW1031REMSYN084AAXX  08124 01467 41470 60801 10050 20037 39872 49878 53006 70321 82979 222// 00055;
0161014670999992000020815004+58630+009150FM-12+000799999V0200701N000510300019N0200001N1+00381+00341098661ADDAY121031AY221031GF108991041071004501071999MA1999999098601MD1810121+9999MW1021REMSYN072AAXX  08154 01467 41470 80701 10038 20034 39860 49866 58012 70222 8477/;
0214014670999992000020818004+58630+009150FM-12+000799999V0200701N000510300019N0200001N1+00381+00321098561ADDAA199000091AY121061AY221061GF108991031071004501071021KA1999M+00501MA1999999098501MD1810101+9999MW1021REMSYN082AAXX  08184 01467 31470 80701 10038 20032 39850 49856 58010 70222 83772 333 10050;EQDQ01  00002PRCP99
0161014670999992000020900004+58630+009150FM-12+000799999V0209999C000010021019N0100001N1+00301+00261098291ADDAY161061AY221061GF108991081071002501999999MA1999999098231MD1710181+9999MW1601REMSYN072AAXX  09004 01467 41360 80000 10030 20026 39823 49829 57018 76062 887//;
0155014670999992000020903004+58630+009150FM-12+000799999V0200101N001010021019N0060001N1+00121+00111999999ADDAY171031AY261031GF108991081071002501999999MA1999999098461MD1610021+9999MW1681REMSYN066AAXX  09034 01467 41356 80102 10012 20011 39846 56002 76876 887//;
0201014670999992000020906004+58630+009150FM-12+000799999V0200301N002110021019N0100001N1+00121+00111098491ADDAA112007991AY171061AY261061GF108991081071002501999999KA1999N+00061MA1999999098431MD1310221+9999MW1681REMSYN088AAXX  09064 01467 11360 80304 10012 20011 39843 49849 53022 60082 76876 887// 333 20006;
0161014670999992000020909004+58630+009150FM-12+000799999V0203301N001010300019N0200001N1+00201+00111099091ADDAY171031AY261031GF105991031071004501071021MA1999999099031MD1210601+9999MW1011REMSYN072AAXX  09094 01467 41470 53302 10020 20011 39903 49909 52060 70176 83772;
0173014670999992000020912004+58630+009150FM-12+000799999V0203001N001012200019N0300001N1+00401+00271099591ADDAY171061AY261061GF101991011001022501031011MA1999999099531MD1210501+9999MW1011REMSYN084AAXX  09124 01467 41880 13002 10040 20027 39953 49959 52050 70176 81031 222// 00051;
0161014670999992000020915004+58630+009150FM-12+000799999V0203001N000512200019N0300001N1+00601+00261100161ADDAY101031AY201031GF101991011001017501041021MA1999999100101MD1210571+9999MW1021REMSYN072AAXX  09154 01467 41780 13001 10060 20026 30010 40016 52057 70200 81042;
0201014670999992000020918004+58630+009150FM-12+000799999V0209999C000012200019N0300001N1+00321+00191100621ADDAA112000191AY101061AY201061GF101991001001999999001081KA1999M+00601MA1999999100561MD1210461+9999MW1021REMSYN088AAXX  09184 01467 11980 10000 10032 20019 30056 40062 52046 69922 70200 80008 333 10060;
0171014670999992000021000004+58630+009150FM-12+000799999V0209999C000012200019N0600001N1+00201+00051100771ADDAY101061AY201061GA1001+999999999GF100991001001999999001001MA1999999100711MD1810031+9999MW1021REMSYN066AAXX  10004 01467 41986 00000 10020 20005 30071 40077 58003 70200;
0161014670999992000021003004+58630+009150FM-12+000799999V0202101N006210300019N0200001N1+00541+00501100491ADDAY121031AY211031GF108991041061002501021999MA1999999100431MD1710281+9999MW1031REMSYN072AAXX  10034 01467 41370 82112 10054 20050 30043 40049 57028 70321 8462/;
0214014670999992000021006004+58630+009150FM-12+000799999V0202101N006210021019N0200001N1+00581+00541100171ADDAA199000091AY121061AY221061GF107991051061002501021999KA1999N+00151MA1999999100111MD1710321+9999MW1021REMSYN082AAXX  10064 01467 31370 72112 10058 20054 30011 40017 57032 70222 8562/ 333 20015;EQDQ01  00002PRCP99
0161014670999992000021009004+58630+009150FM-12+000799999V0202101N006210021019N0100001N1+00591+00551099831ADDAY121031AY221031GF108991071071002501021999MA1999999099771MD1710341+9999MW1101REMSYN072AAXX  10094 01467 41360 82112 10059 20055 39977 49983 57034 71022 8772/;
0173014670999992000021012004+58630+009150FM-12+000799999V0202101N007710021019N0080001N1+00601+00561099321ADDAY161061AY211061GF108991081071002501999999MA1999999099261MD1710511+9999MW1581REMSYN084AAXX  10124 01467 41358 82115 10060 20056 39926 49932 57051 75861 887// 222// 00051;
0161014670999992000021015004+58630+009150FM-12+000799999V0202101N006210021019N0100001N1+00591+00561098891ADDAY161031AY211031GF108991081071002501999999MA1999999098831MD1710431+9999MW1601REMSYN072AAXX  10154 01467 41360 82112 10059 20056 39883 49889 57043 76061 887//;
0201014670999992000021018004+58630+009150FM-12+000799999V0202201N006212200019N0550001N1+00511+00421098991ADDAA112003091AY161061AY211061GF101991011011004501001011KA1999M+00611MA1999999098931MD1310101+9999MW1021REMSYN088AAXX  10184 01467 11485 12212 10051 20042 39893 49899 53010 60032 70261 81101 333 10061;
0190014670999992000021100004+58630+009150FM-12+000799999V0202401N004612200019N0550001N1+00481+00301099891ADDAY101061AY201061GA1001+999999999GF100991001001999999001001MA1999999099831MD1210502+9999MW1021REMSYN066AAXX  11004 01467 41985 02409 10048 20030 39983 49989 52050 70200;EQDQ01+000502APC3  
0171014670999992000021103004+58630+009150FM-12+000799999V0202301N003112200019N0300001N1+00321+00221100241ADDAY101031AY201031GA1001+999999999GF100991001001999999001001MA1999999100181MD1210351+9999MW1021REMSYN066AAXX  11034 01467 41980 02306 10032 20022 30018 40024 52035 70200;
0214014670999992000021106004+58630+009150FM-12+000799999V0202201N006212200019N0300001N1+00471+00341100241ADDAA199000091AY101061AY201061GF101991011011002501001001KA1999N+00301MA1999999100181MD1010001+9999MW1031REMSYN082AAXX  11064 01467 31380 12212 10047 20034 30018 40024 50000 70300 81100 333 20030;EQDQ01  00002PRCP99
0161014670999992000021109004+58630+009150FM-12+000799999V0202401N006212200019N0550001N1+00521+00391100391ADDAY101031AY201031GF101991011001017501061011MA1999999100331MD1310151+9999MW1021REMSYN072AAXX  11094 01467 41785 12412 10052 20039 30033 40039 53015 70200 81061;
0173014670999992000021112004+58630+009150FM-12+000799999V0202401N006212200019N0550001N1+00721+00331100621ADDAY101061AY201061GF102991011021008001061011MA1999999100561MD1210231+9999MW1021REMSYN084AAXX  11124 01467 41585 22412 10072 20033 30056 40062 52023 70200 81261 222// 00052;
0161014670999992000021115004+58630+009150FM-12+000799999V0202601N003112200019N0750001N1+00851+00211100871ADDAY101031AY201031GF101991011011008001001001MA1999999100811MD1210251+9999MW1021REMSYN072AAXX  11154 01467 41589 12606 10085 20021 30081 40087 52025 70200 81100;
0214014670999992000021118004+58630+009150FM-12+000799999V0202201N000512200019N0550001N1+00601+00461101051ADDAA199000091AY101061AY201061GF101991011041008001001001KA1999M+00851MA1999999100991MD1110181+9999MW1021REMSYN082AAXX  11184 01467 31585 12201 10060 20046 30099 40105 51018 70200 81400 333 10085;EQDQ01  00002PRCP99
0161014670999992000021200004+58630+009150FM-12+000799999V0202201N004612200019N0300001N1+00561+00531101111ADDAY101061AY201061GF101991011041004501001011MA1999999101051MD1810051+9999MW1021REMSYN072AAXX  12004 01467 41480 12209 10056 20053 30105 40111 58005 70200 81401;
0161014670999992000021203004+58630+009150FM-12+000799999V0202101N006210042019N0250001N1+00571+00361100961ADDAY121031AY211031GF108991061061004501021999MA1999999100901MD1710151+9999MW1021REMSYN072AAXX  12034 01467 41475 82112 10057 20036 30090 40096 57015 70221 8662/;
0214014670999992000021206004+58630+009150FM-12+000799999V0202001N006210042019N0200001N1+00581+00551100651ADDAA199000091AY121061AY201061GF108991061071004501021999KA1999N+00511MA1999999100591MD1710311+9999MW1021REMSYN082AAXX  12064 01467 31470 82012 10058 20055 30059 40065 57031 70220 8672/ 333 20051;EQDQ01  00002PRCP99
0161014670999992000021209004+58630+009150FM-12+000799999V0202001N006210021019N0150001N1+00581+00551100291ADDAY151031AY221031GF108991081071002501999999MA1999999100231MD1710361+9999MW1501REMSYN072AAXX  12094 01467 41365 82012 10058 20055 30023 40029 57036 75052 887//;
0173014670999992000021212004+58630+009150FM-12+000799999V0202001N006210021019N0100001N1+00571+00541099871ADDAY161061AY251061GF108991081071002501999999MA1999999099811MD1710421+9999MW1611REMSYN084AAXX  12124 01467 41360 82012 10057 20054 39981 49987 57042 76165 887// 222// 00052;
0161014670999992000021215004+58630+009150FM-12+000799999V0202001N004610021019N0150001N1+00431+00391099541ADDAY161031AY221031GF108991081071002501999999MA1999999099481MD1710331+9999MW1611REMSYN072AAXX  12154 01467 41365 82009 10043 20039 39948 49954 57033 76162 887//;
0201014670999992000021218004+58630+009150FM-12+000799999V0202201N003110021019N0200001N1+00361+00291099291ADDAA112004191AY161061AY221061GF108991081071002501999999KA1999M+00581MA1999999099231MD1710251+9999MW1021REMSYN088AAXX  12184 01467 11370 82206 10036 20029 39923 49929 57025 60042 70262 887// 333 10058;
0161014670999992000021300004+58630+009150FM-12+000799999V0202201N003110042019N0300001N1+00211+00141099591ADDAY121061AY221061GF107991051041004501061011MA1999999099531MD1210201+9999MW1011REMSYN072AAXX  13004 01467 41480 72206 10021 20014 39953 49959 52020 70122 85461;
0161014670999992000021303004+58630+009150FM-12+000799999V0202201N002112200019N0300001N1+00201+00131099571ADDAY121031AY211031GF103991021041004501061011MA1999999099511MD1810021+9999MW1021REMSYN072AAXX  13034 01467 41480 32204 10020 20013 39951 49957 58002 70221 82461;
0201014670999992000021306004+58630+009150FM-12+000799999V0202301N003112200019N0450001N1+00231+00191099501ADDAA112000591AY181061AY211061GF101991011041004501061011KA1999N+00161MA1999999099441MD1710071+9999MW1021REMSYN088AAXX  13064 01467 11483 12306 10023 20019 39944 49950 57007 69952 70281 81461 333 20016;
0161014670999992000021309004+58630+009150FM-12+000799999V0202201N002110300019N0450001N1+00291+00221999999ADDAY121031AY211031GF107991021071004501071011MA1999999099381MD1710061+9999MW1031REMSYN072AAXX  13094 01467 41483 72204 10029 20022 39938 40944 57006 70321 82771;
0173014670999992000021312004+58630+009150FM-12+000799999V0202601N002112200019N0750001N1+00531+00251099491ADDAY121061AY211061GF101991011041008001061011MA1999999099431MD1310051+9999MW1021REMSYN084AAXX  13124 01467 41589 12604 10053 20025 39943 49949 53005 70221 81461 222// 00051;
0161014670999992000021315004+58630+009150FM-12+000799999V0202801N003112200019N0750001N1+00561-00371099831ADDAY101031AY201031GF101991011041008001061011MA1999999099771MD1210341+9999MW1021REMSYN072AAXX  13154 01467 41589 12806 10056 21037 39977 49983 52034 70200 81461;
0224014670999992000021318004+58630+009150FM-12+000799999V0202701N002112200019N0750001N1+00321-00361100151ADDAA199000091AY101061AY201061GA1001+999999999GF100991001001999999001001KA1999M+00601MA1999999100091MD1210321+9999MW1021REMSYN076AAXX  13184 01467 31989 02704 10032 21036 30009 40015 52032 70200 333 10060;EQDQ01  00002PRCP99
0171014670999992000021400004+58630+009150FM-12+000799999V0203201N004612200019N0750001N1+00171-00591100581ADDAY101061AY201061GA1001+999999999GF100991001001999999001001MA1999999100521MD1210221+9999MW1021REMSYN066AAXX  14004 01467 41989 03209 10017 21059 30052 40058 52022 70200;
0171014670999992000021403004+58630+009150FM-12+000799999V0202301N001012200019N0750001N1+00041-00711100831ADDAY101031AY201031GA1001+999999999GF100991001001999999001001MA1999999100771MD1210251+9999MW1021REMSYN066AAXX  14034 01467 41989 02302 10004 21071 30077 40083 52025 70200;
0214014670999992000021406004+58630+009150FM-12+000799999V0203201N000512200019N0750001N1+00001-00841100971ADDAA199000091AY101061AY201061GF101991011041008001061011KA1999N+00001MA1999999100911MD1210141+9999MW1021REMSYN082AAXX  14064 01467 31589 13201 10000 21084 30091 40097 52014 70200 81461 333 20000;EQDQ01  00002PRCP99
0177014670999992000021409004+58630+009150FM-12+000799999V0202301N000512200019N0750001N1+00021-00851101211ADDAY101031AY201031GA1001+999999999GF100991001001999999001001MA1999999101151MD1210241+9999MW1021REMSYN072AAXX  14094 01467 41589 02301 10002 21085 30115 40121 52024 70200 81400;
0173014670999992000021412004+58630+009150FM-12+000799999V0201801N001012200019N0750001N1+00201-00631101201ADDAY101061AY201061GF101991001001999999001011MA1999999101141MD1810011+9999MW1021REMSYN084AAXX  14124 01467 41989 11802 10020 21063 30114 40120 58001 70200 80001 222// 00046;
0161014670999992000021415004+58630+009150FM-12+000799999V0202001N002112200019N0750001N1+00221-00541101021ADDAY101031AY201031GF101991001001999999001051MA1999999100961MD1710181+9999MW1031REMSYN072AAXX  14154 01467 41989 12004 10022 21054 30096 40102 57018 70300 80005;
0214014670999992000021418004+58630+009150FM-12+000799999V0202201N001019999999N0750001N1+00141-00571100881ADDAA199000091AY121061AY201061GF107991051001999999071071KA1999M+00231MA1999999100821MD1710141+9999MW1021REMSYN082AAXX  14184 01467 31989 72202 10014 21057 30082 40088 57014 70220 85077 333 10023;EQDQ01  00002PRCP99
0161014670999992000021500004+58630+009150FM-12+000799999V0203601N001010042019N0060001N1+00021-00021100331ADDAY171061AY221061GF108991061071004501021999MA1999999100271MD1710231+9999MW1711REMSYN072AAXX  15004 01467 41456 83602 10002 21002 30027 40033 57023 77172 8672/;
0161014670999992000021503004+58630+009150FM-12+000799999V0209999C000010021019N0250001N1+00141+00111099991ADDAY171031AY261031GF108991081061002501999999MA1999999099931MD1710341+9999MW1601REMSYN072AAXX  15034 01467 41375 80000 10014 20011 39993 49999 57034 76076 886//;
0201014670999992000021506004+58630+009150FM-12+000799999V0209999C000010300019N0550001N1+00041+00011099881ADDAA112003091AY171061AY261061GF106991011061004501071011KA1999N-00051MA1999999099821MD1610111+9999MW1011REMSYN088AAXX  15064 01467 11485 60000 10004 20001 39982 49988 56011 60032 70176 81671 333 21005;
0161014670999992000021509004+58630+009150FM-12+000799999V0202501N001012200019N0550001N1+00101+00061099921ADDAY121031AY211031GF101991011001022501041011MA1999999099861MD1310041+9999MW1011REMSYN072AAXX  15094 01467 41885 12502 10010 20006 39986 49992 53004 70121 81041;
0173014670999992000021512004+58630+009150FM-12+000799999V0202501N003112200019N0500001N1+00541+00281099911ADDAY121061AY211061GF101991011011008001001011MA1999999099851MD1810011+9999MW1021REMSYN084AAXX  15124 01467 41584 12506 10054 20028 39985 49991 58001 70221 81101 222// 00044;
0161014670999992000021515004+58630+009150FM-12+000799999V0202701N002110750019N0500001N1+00681+00151099831ADDAY111031AY201031GF105991011021008001041011MA1999999099771MD1710081+9999MW1031REMSYN072AAXX  15154 01467 41584 52704 10068 20015 39977 49983 57008 70310 81241;
0214014670999992000021518004+58630+009150FM-12+000799999V0202501N002112200019N0600001N1+00431+00151099811ADDAA199000091AY111061AY201061GF101991011041008001041001KA1999M+00691MA1999999099751MD1510021+9999MW1011REMSYN082AAXX  15184 01467 31586 12504 10043 20015 39975 49981 55002 70110 81440 333 10069;EQDQ01  00002PRCP99
0171014670999992000021600004+58630+009150FM-12+000799999V0202201N001012200019N0750001N1+00081+00041099631ADDAY101061AY201061GA1001+999999999GF100991001001999999001001MA1999999099571MD1710111+9999MW1021REMSYN066AAXX  16004 01467 41989 02202 10008 20004 39957 49963 57011 70200;
0161014670999992000021603004+58630+009150FM-12+000799999V0203301N001012200019N0600001N1+00031-00071099491ADDAY101031AY201031GF101991001001999999001011MA1999999099431MD1710141+9999MW1031REMSYN072AAXX  16034 01467 41986 13302 10003 21007 39943 49949 57014 70300 80001;
0214014670999992000021606004+58630+009150FM-12+000799999V0203301N001012200019N0600001N1-00071-00151099421ADDAA199000091AY101061AY201061GF102991011001022501041011KA1999N-00071MA1999999099361MD1610071+9999MW1031REMSYN082AAXX  16064 01467 31886 23302 11007 21015 39936 49942 56007 70300 81041 333 21007;EQDQ01  00002PRCP99
0161014670999992000021609004+58630+009150FM-12+000799999V0203601N001010300019N0500001N1-00061-00191099381ADDAY111031AY201031GF107991021091008001041001MA1999999099321MD1810041+9999MW1031REMSYN072AAXX  16094 01467 41584 73602 11006 21019 39932 49938 58004 70310 82940;
0181014670999992000021612004+58630+009150FM-12+000799999V0200301N002110300019N0400001N1+00121-00011099411ADDAY111061AY201061GF107991021091008001071999MA1999999099351MD1310031+9999MW1021SA1+4109REMSYN084AAXX  16124 01467 41582 70304 10012 21001 39935 49941 53003 70210 8297/ 222// 00041;
0161014670999992000021615004+58630+009150FM-12+000799999V0200801N003110042019N0400001N1+00201+00141099381ADDAY121031AY221031GF107991051051004501071011MA1999999099321MD1810031+9999MW1021REMSYN072AAXX  16154 01467 41482 70806 10020 20014 39932 49938 58003 70222 85571;
0214014670999992000021618004+58630+009150FM-12+000799999V0200801N003110075019N0550001N1+00161+00101099501ADDAA199000091AY121061AY221061GF106991061051008001031011KA1999M+00201MA1999999099441MD1310121+9999MW1021REMSYN082AAXX  16184 01467 31585 60806 10016 20010 39944 49950 53012 70222 86531 333 10020;EQDQ01  00002PRCP99
0161014670999992000021700004+58630+009150FM-12+000799999V0203601N003112200019N0550001N1-00081-00181099761ADDAY121061AY211061GF101991011041008001041001MA1999999099701MD1210131+9999MW1011REMSYN072AAXX  17004 01467 41585 13606 11008 21018 39970 49976 52013 70121 81440;
0161014670999992000021703004+58630+009150FM-12+000799999V0203601N001012200019N0750001N1-00261-00311099861ADDAY101031AY201031GF101991011001999999031011MA1999999099801MD1210101+9999MW1021REMSYN072AAXX  17034 01467 41989 13602 11026 21031 39980 49986 52010 70200 81031;
0214014670999992000021706004+58630+009150FM-12+000799999V0203601N001012200019N0750001N1-00321-00371100031ADDAA199000091AY101061AY201061GF101991011051008001001011KA1999N-00341MA1999999099971MD1210171+9999MW1021REMSYN082AAXX  17064 01467 31589 13602 11032 21037 39997 40003 52017 70200 81501 333 21034;EQDQ01  00002PRCP99
0161014670999992000021709004+58630+009150FM-12+000799999V0203301N001012200019N0600001N1-00201-00341100231ADDAY101031AY201031GF101991011051008001001011MA1999999100171MD1210201+9999MW1021REMSYN072AAXX  17094 01467 41586 13302 11020 21034 30017 40023 52020 70200 81501;
0181014670999992000021712004+58630+009150FM-12+000799999V0202001N001012200019N0600001N1+00131-00261100361ADDAY101061AY201061GF101991011051008001001041MA1999999100301MD1210131+9999MW1021SA1+3709REMSYN084AAXX  17124 01467 41586 12002 10013 21026 30030 40036 52013 70200 81504 222// 00037;
0161014670999992000021715004+58630+009150FM-12+000799999V0202101N002112200019N0600001N1+00231+00041100421ADDAY101031AY201031GF101991001001999999001011MA1999999100361MD1210061+9999MW1021REMSYN072AAXX  17154 01467 41986 12104 10023 20004 30036 40042 52006 70200 80001;
0224014670999992000021718004+58630+009150FM-12+000799999V0202201N001012200019N0600001N1+00131+00071100471ADDAA199000091AY101061AY201061GA1001+999999999GF100991001001999999001001KA1999M+00241MA1999999100411MD1210051+9999MW1011REMSYN076AAXX  17184 01467 31986 02202 10013 20007 30041 40047 52005 70100 333 10024;EQDQ01  00002PRCP99
0161014670999992000021800004+58630+009150FM-12+000799999V0203001N000512200019N0750001N1-00251-00381100511ADDAY101061AY201061GF101991001001999999001011MA1999999100451MD1210021+9999MW1021REMSYN072AAXX  18004 01467 41989 13001 11025 21038 30045 40051 52002 70200 80001;
0161014670999992000021803004+58630+009150FM-12+000799999V0203501N001010075019N0600001N1-00301-00531100441ADDAY111031AY201031GF107991071051008001999999MA1999999100381MD1810071+9999MW1031REMSYN072AAXX  18034 01467 41586 73502 11030 21053 30038 40044 58007 70310 875//;
0214014670999992000021806004+58630+009150FM-12+000799999V0203601N001010075019N0600001N1-00341-00491100371ADDAA199000091AY121061AY211061GF107991071051008001999999KA1999N-00341MA1999999100311MD1610071+9999MW1021REMSYN082AAXX  18064 01467 31586 73602 11034 21049 30031 40037 56007 70221 875// 333 21034;EQDQ01  00002PRCP99
0161014670999992000021809004+58630+009150FM-12+000799999V0200401N001010042019N0550001N1-00221-00261100351ADDAY121031AY221031GF108991061071004501021999MA1999999100291MD1710021+9999MW1021REMSYN072AAXX  18094 01467 41485 80402 11022 21026 30029 40035 57002 70222 8672/;
0181014670999992000021812004+58630+009150FM-12+000799999V0200401N003110021019N0040001N1-00141-00171100341ADDAY171061AY221061GF108991081071002501999999MA1999999100281MD1710011+9999MW1771SA1+3409REMSYN084AAXX  18124 01467 41340 80406 11014 21017 30028 40034 57001 77772 887// 222// 00034;
0161014670999992000021815004+58630+009150FM-12+000799999V0200401N003110021019N0040001N1-00131-00161100271ADDAY171031AY271031GF108991081071002501999999MA1999999100211MD1710071+9999MW1771REMSYN072AAXX  18154 01467 41340 80406 11013 21016 30021 40027 57007 77777 887//;
0201014670999992000021818004+58630+009150FM-12+000799999V0200401N003110042019N0050001N1-00051-00081100331ADDAA112003091AY171061AY271061GF108991081071004501999999KA1999M-00051MA1999999100271MD1310061+9999MW1771REMSYN088AAXX  18184 01467 11450 80406 11005 21008 30027 40033 53006 60032 77777 887// 333 11005;
0161014670999992000021900004+58630+009150FM-12+000799999V0200301N003110075019N0250001N1-00051-00091100591ADDAY171061AY221061GF108991081051008001999999MA1999999100531MD1210131+9999MW1021REMSYN072AAXX  19004 01467 41575 80306 11005 21009 30053 40059 52013 70272 885//;
0161014670999992000021903004+58630+009150FM-12+000799999V0200301N002110075019N0300001N1-00081-00151100721ADDAY121031AY221031GF108991081051008001999999MA1999999100661MD1210131+9999MW1021REMSYN072AAXX  19034 01467 41580 80304 11008 21015 30066 40072 52013 70222 885//;
0201014670999992000021906004+58630+009150FM-12+000799999V0200201N001012200019N0400001N1-00231-00281100891ADDAA112004191AY121061AY211061GF103991031051008001001001KA1999N-00231MA1999999100831MD1210171+9999MW1011REMSYN088AAXX  19064 01467 11582 30202 11023 21028 30083 40089 52017 60042 70121 83500 333 21023;
0161014670999992000021909004+58630+009150FM-12+000799999V0200401N002112200019N0400001N1-00131-00201101081ADDAY101031AY201031GF104991031021008001041001MA1999999101021MD1210191+9999MW1031REMSYN072AAXX  19094 01467 41582 40404 11013 21020 30102 40108 52019 70300 83240;
0181014670999992000021912004+58630+009150FM-12+000799999V0200301N001010075019N0400001N1-00171-00231101271ADDAY111061AY201061GF107991071051008001999999MA1999999101211MD1210191+9999MW1031SA1+3509REMSYN084AAXX  19124 01467 41582 70302 11017 21023 30121 40127 52019 70310 875// 222// 00035;
0161014670999992000021915004+58630+009150FM-12+000799999V0200901N001012200019N0300001N1-00111-00181101371ADDAY121031AY211031GF103991021021008001001011MA1999999101311MD1210101+9999MW1011REMSYN072AAXX  19154 01467 41580 30902 11011 21018 30131 40137 52010 70121 82201;
0214014670999992000021918004+58630+009150FM-12+000799999V0202801N000512200019N0300001N1-00171-00211101511ADDAA199000091AY121061AY211061GF104991041051008001001001KA1999M-00051MA1999999101451MD1210141+9999MW1031REMSYN082AAXX  19184 01467 31580 42801 11017 21021 30145 40151 52014 70321 84500 333 11005;EQDQ01  00002PRCP99
0161014670999992000022000004+58630+009150FM-12+000799999V0203601N000512200019N0400001N1-00321-00351101901ADDAY101061AY201061GF102991021041008001001001MA1999999101841MD1210191+9999MW1011REMSYN072AAXX  20004 01467 41582 23601 11032 21035 30184 40190 52019 70100 82400;
0171014670999992000022003004+58630+009150FM-12+000799999V0203601N000512200019N0400001N1-00501-00531102061ADDAY101031AY201031GA1001+999999999GF100991001001999999001001MA1999999102001MD1110161+9999MW1011REMSYN066AAXX  20034 01467 41982 03601 11050 21053 30200 40206 51016 70100;
0224014670999992000022006004+58630+009150FM-12+000799999V0203601N000512200019N0500001N1-00401-00661102251ADDAA199000091AY101061AY201061GA1001+999999999GF100991001001999999001001KA1999N-00531MA1999999102191MD1210191+9999MW1021REMSYN076AAXX  20064 01467 31984 03601 11040 21066 30219 40225 52019 70200 333 21053;EQDQ01  00002PRCP99
0171014670999992000022009004+58630+009150FM-12+000799999V0203501N001012200019N0600001N1-00181-00711102431ADDAY101031AY201031GA1001+999999999GF100991001001999999001001MA1999999102371MD1210181+9999MW1021REMSYN066AAXX  20094 01467 41986 03502 11018 21071 30237 40243 52018 70200;
0191014670999992000022012004+58630+009150FM-12+000799999V0200201N001012200019N0600001N1+00221-00691102571ADDAY101061AY201061GA1001+999999999GF100991001001999999001001MA1999999102511MD1210141+9999MW1021SA1+3409REMSYN078AAXX  20124 01467 41986 00202 10022 21069 30251 40257 52014 70200 222// 00034;
0171014670999992000022015004+58630+009150FM-12+000799999V0202001N001012200019N0600001N1+00291-00431102581ADDAY101031AY201031GA1001+999999999GF100991001001999999001001MA1999999102521MD1110011+9999MW1021REMSYN066AAXX  20154 01467 41986 02002 10029 21043 30252 40258 51001 70200;
0224014670999992000022018004+58630+009150FM-12+000799999V0202701N000512200019N0600001N1+00001-00221102661ADDAA199000091AY101061AY201061GA1001+999999999GF100991001001999999001001KA1999M+00391MA1999999102601MD1310081+9999MW1021REMSYN076AAXX  20184 01467 31986 02701 10000 21022 30260 40266 53008 70200 333 10039;EQDQ01  00002PRCP99
0171014670999992000022100004+58630+009150FM-12+000799999V0203301N001012200019N0600001N1-00221-00651102791ADDAY101061AY201061GA1001+999999999GF100991001001999999001001MA1999999102731MD1210061+9999MW1021REMSYN066AAXX  21004 01467 41986 03302 11022 21065 30273 40279 52006 70200;
0171014670999992000022103004+58630+009150FM-12+000799999V0203201N001012200019N0600001N1-00361-00771102781ADDAY101031AY201031GA1001+999999999GF100991001001999999001001MA1999999102721MD1810011+9999MW1021REMSYN066AAXX  21034 01467 41986 03202 11036 21077 30272 40278 58001 70200;
0224014670999992000022106004+58630+009150FM-12+000799999V0203201N000512200019N0600001N1-00521-00881102731ADDAA199000091AY101061AY201061GA1001+999999999GF100991001001999999001001KA1999N-00521MA1999999102671MD1710051+9999MW1021REMSYN076AAXX  21064 01467 31986 03201 11052 21088 30267 40273 57005 70200 333 21052;EQDQ01  00002PRCP99
0161014670999992000022109004+58630+009150FM-12+000799999V0203401N001012200019N0600001N1-00431-00791102761ADDAY101031AY201031GF101991011051008001001011MA1999999102701MD1310031+9999MW1031REMSYN072AAXX  21094 01467 41586 13402 11043 21079 30270 40276 53003 70300 81501;
0161014670999992000022115004+58630+009150FM-12+000799999V0209999C000012200019N0600001N1+00061-00261102521ADDAY101031AY201031GF103991011051008001041011MA1999999102461MD1710161+9999MW1031REMSYN072AAXX  21154 01467 41586 30000 10006 21026 30246 40252 57016 70300 81541;
0214014670999992000022118004+58630+009150FM-12+000799999V0200201N000510300019N0550001N1+00001-00081102391ADDAA199000091AY111061AY201061GF107991021051008001071999KA1999M+00071MA1999999102331MD1710131+9999MW1031REMSYN082AAXX  21184 01467 31585 70201 10000 21008 30233 40239 57013 70310 8257/ 333 10007;EQDQ01  00002PRCP99
0161014670999992000022200004+58630+009150FM-12+000799999V0202501N001010300019N0400001N1+00211+00131102181ADDAY121061AY221061GF107991021051008001071999MA1999999102121MD1710041+9999MW1021REMSYN072AAXX  22004 01467 41582 72502 10021 20013 30212 40218 57004 70222 8257/;
0161014670999992000022203004+58630+009150FM-12+000799999V0202301N001010300019N0150001N1+00171+00131102091ADDAY161031AY221031GF108991021051004501071999MA1999999102031MD1710091+9999MW1611REMSYN072AAXX  22034 01467 41465 82302 10017 20013 30203 40209 57009 76162 8257/;
0201014670999992000022206004+58630+009150FM-12+000799999V0200301N000510021019N0120001N1+00101+00071102061ADDAA112000891AY161061AY251061GF108991051071002501021999KA1999N-00091MA1999999102001MD1610031+9999MW1501REMSYN088AAXX  22064 01467 11362 80301 10010 20007 30200 40206 56003 69972 75065 8572/ 333 21009;
0161014670999992000022209004+58630+009150FM-12+000799999V0200101N000510021019N0150001N1+00071+00061102201ADDAY151031AY221031GF108991051071002501021999MA1999999102141MD1310141+9999MW1501REMSYN072AAXX  22094 01467 41365 80101 10007 20006 30214 40220 53014 75052 8572/;
0181014670999992000022212004+58630+009150FM-12+000799999V0200101N000510021019N0200001N1+00171+00161102161ADDAY151061AY221061GF107991051071002501021999MA1999999102101MD1810041+9999MW1021SA1+2609REMSYN084AAXX  22124 01467 41370 70101 10017 20016 30210 40216 58004 70252 8572/ 222// 00026;
0161014670999992000022215004+58630+009150FM-12+000799999V0201901N000510300019N0220001N1+00201+00191102141ADDAY121031AY221031GF106991031051002501071021MA1999999102081MD1610021+9999MW1011REMSYN072AAXX  22154 01467 41372 61901 10020 20019 30208 40214 56002 70122 83572;
0201014670999992000022218004+58630+009150FM-12+000799999V0202501N000510021019N0200001N1+00151+00141102211ADDAA112000191AY121061AY221061GF108991051071002501021999KA1999M+00221MA1999999102151MD1310071+9999MW1031REMSYN088AAXX  22184 01467 11370 82501 10015 20014 30215 40221 53007 69912 70322 8572/ 333 10022;
0161014670999992000022300004+58630+009150FM-12+000799999V0203401N000510300019N0250001N1+00111+00071102361ADDAY121061AY221061GF108991031051008001071999MA1999999102301MD1110011+9999MW1021REMSYN072AAXX  23004 01467 41575 83401 10011 20007 30230 40236 51001 70222 8357/;
0161014670999992000022303004+58630+009150FM-12+000799999V0200201N000510300019N0250001N1+00091+00081102371ADDAY121031AY221031GF108991031051008001071999MA1999999102311MD1110011+9999MW1021REMSYN072AAXX  23034 01467 41575 80201 10009 20008 30231 40237 51001 70222 8357/;
0214014670999992000022306004+58630+009150FM-12+000799999V0200201N000510300019N0220001N1+00121+00111102411ADDAA199000091AY121061AY221061GF108991031051008001071999KA1999N+00061MA1999999102351MD1210041+9999MW1021REMSYN082AAXX  23064 01467 31572 80201 10012 20011 30235 40241 52004 70222 8357/ 333 20006;EQDQ01  00002PRCP99
0161014670999992000022309004+58630+009150FM-12+000799999V0201801N000512200019N0300001N1+00181+00151102491ADDAY121031AY211031GF103991031051008001001001MA1999999102431MD1110081+9999MW1011REMSYN072AAXX  23094 01467 41580 31801 10018 20015 30243 40249 51008 70121 83500;
0175014670999992000022312004+58630+009150FM-12+000799999V0202001N002112200019N0300001N1+00251+00061102461ADDAY121061AY211061GF103991999999008001999999MA1999999102401MD1610031+9999MW1021SA1+2709REMSYN078AAXX  23124 01467 41580 32004 10025 20006 30240 40246 56003 70221 222// 00027;
0161014670999992000022315004+58630+009150FM-12+000799999V0201801N003110300019N0300001N1+00211-00021102331ADDAY121031AY211031GF107991031051008001071999MA1999999102271MD1710131+9999MW1031REMSYN072AAXX  23154 01467 41580 71806 10021 21002 30227 40233 57013 70321 8357/;
0214014670999992000022318004+58630+009150FM-12+000799999V0201701N004610300019N0300001N1+00251+00151102131ADDAA199000091AY121061AY211061GF108991031051008001071999KA1999M+00261MA1999999102071MD1710201+9999MW1031REMSYN082AAXX  23184 01467 31580 81709 10025 20015 30207 40213 57020 70321 8357/ 333 10026;EQDQ01  00002PRCP99
0161014670999992000022400004+58630+009150FM-12+000799999V0202301N006210300019N0250001N1+00291+00251101601ADDAY121061AY221061GF108991031051008001071999MA1999999101541MD1710111+9999MW1021REMSYN072AAXX  24004 01467 41575 82312 10029 20025 30154 40160 57011 70222 8357/;
0180014670999992000022403004+58630+009150FM-12+000799999V0201801N004610042019N0050001N1+00161+00151101101ADDAY171031AY221031GF108991081071004501999999MA1999999101041MD1710502+9999MW1691REMSYN072AAXX  24034 01467 41450 81809 10016 20015 30104 40110 57050 76972 887//;EQDQ01+000502APC3  
0201014670999992000022406004+58630+009150FM-12+000799999V0201801N006210042019N0050001N1+00341+00331100521ADDAA112008991AY171061AY261061GF108991081071004501999999KA1999N+00151MA1999999100461MD1710581+9999MW1631REMSYN088AAXX  24064 01467 11450 81812 10034 20033 30046 40052 57058 60092 76376 887// 333 20015;
0161014670999992000022409004+58630+009150FM-12+000799999V0202901N003110042019N0250001N1+00391+00381100151ADDAY161031AY221031GF107991051071004501021999MA1999999100091MD1710371+9999MW1621REMSYN072AAXX  24094 01467 41475 72906 10039 20038 30009 40015 57037 76262 8572/;
0181014670999992000022412004+58630+009150FM-12+000799999V0202701N004612200019N0400001N1+00601+00241100341ADDAY161061AY211061GF101991011011008001061001MA1999999100281MD1510191+9999MW1011SA1+3809REMSYN084AAXX  24124 01467 41582 12709 10060 20024 30028 40034 55019 70161 81160 222// 00038;
0161014670999992000022415004+58630+009150FM-12+000799999V0202701N004612200019N0550001N1+00671-00141100511ADDAY101031AY201031GF101991011021008001061001MA1999999100451MD1210171+9999MW1021REMSYN072AAXX  24154 01467 41585 12709 10067 21014 30045 40051 52017 70200 81260;
0201014670999992000022418004+58630+009150FM-12+000799999V0202601N003112200019N0400001N1+00491-00031100611ADDAA112002091AY101061AY201061GF101991011091008001041001KA1999M+00671MA1999999100551MD1210101+9999MW1021REMSYN088AAXX  24184 01467 11582 12606 10049 21003 30055 40061 52010 60022 70200 81940 333 10067;
0171014670999992000022500004+58630+009150FM-12+000799999V0202601N003112200019N0550001N1+00211+00141100641ADDAY101061AY201061GA1001+999999999GF100991001001999999001001MA1999999100581MD1310021+9999MW1011REMSYN066AAXX  25004 01467 41985 02606 10021 20014 30058 40064 53002 70100;
0161014670999992000022503004+58630+009150FM-12+000799999V0202701N001010300019N0400001N1+00071+00041100541ADDAY121031AY201031GF107991021041008001071999MA1999999100481MD1810101+9999MW1031REMSYN072AAXX  25034 01467 41582 72702 10007 20004 30048 40054 58010 70320 8247/;
0214014670999992000022506004+58630+009150FM-12+000799999V0202601N002112200019N0400001N1+00051+00041100521ADDAA199000091AY121061AY201061GF103991011041008001071001KA1999N+00011MA1999999100461MD1610021+9999MW1011REMSYN082AAXX  25064 01467 31582 32604 10005 20004 30046 40052 56002 70120 81470 333 20001;EQDQ01  00002PRCP99
0161014670999992000022509004+58630+009150FM-12+000799999V0202501N002112200019N0550001N1+00221+00121100611ADDAY101031AY201031GF103991011021008001041011MA1999999100551MD1310091+9999MW1021REMSYN072AAXX  25094 01467 41585 32504 10022 20012 30055 40061 53009 70200 81241;
0173014670999992000022512004+58630+009150FM-12+000799999V0202701N003112200019N0550001N1+00621-00121100681ADDAY101061AY201061GF104991021021008001041011MA1999999100621MD1210071+9999MW1031REMSYN084AAXX  25124 01467 41585 42706 10062 21012 30062 40068 52007 70300 82241 222// 00043;
0161014670999992000022515004+58630+009150FM-12+000799999V0202501N003110750019N0550001N1+00491+00231100661ADDAY121031AY201031GF106991021091008001061031MA1999999100601MD1810021+9999MW1031REMSYN072AAXX  25154 01467 41585 62506 10049 20023 30060 40066 58002 70320 82963;
0214014670999992000022518004+58630+009150FM-12+000799999V0202701N002112200019N0550001N1+00391+00131100941ADDAA199000091AY121061AY201061GF101991011011008001041001KA1999M+00631MA1999999100881MD1310281+9999MW1011REMSYN082AAXX  25184 01467 31585 12704 10039 20013 30088 40094 53028 70120 81140 333 10063;EQDQ01  00002PRCP99
0161014670999992000022600004+58630+009150FM-12+000799999V0202501N002112200019N0400001N1+00201+00041101581ADDAY101061AY201061GF101991011001008001041001MA1999999101521MD1210131+9999MW1021REMSYN072AAXX  26004 01467 41582 12504 10020 20004 30152 40158 52013 70200 81040;
0161014670999992000022603004+58630+009150FM-12+000799999V0202501N002112200019N0300001N1+00231+00071101721ADDAY121031AY201031GF104991011041008001071001MA1999999101661MD1210141+9999MW1031REMSYN072AAXX  26034 01467 41580 42504 10023 20007 30166 40172 52014 70320 81470;
0230014670999992000022606004+58630+009150FM-12+000799999V0202501N003110300019N0300001N1+00431+00391101721ADDAA199000091AY121061AY221061GF106991031051008001071001KA1999N+00121MA1999999101661MD1410001+9999MW1031REMSYN082AAXX  26064 01467 31580 62506 10043 20039 30166 40172 51000 70322 83570 333 20012;EQDQ01+000012APCTENQ02  00002PRCP99
0161014670999992000022609004+58630+009150FM-12+000799999V0202501N003110300019N0400001N1+00471+00401101801ADDAY121031AY221031GF106991021051008001071001MA1999999101741MD1310081+9999MW1021REMSYN072AAXX  26094 01467 41582 62506 10047 20040 30174 40180 53008 70222 82570;
0173014670999992000022612004+58630+009150FM-12+000799999V0202601N002110300019N0550001N1+00631+00401101891ADDAY121061AY221061GF106991021051008001071001MA1999999101831MD1210091+9999MW1021REMSYN084AAXX  26124 01467 41585 62604 10063 20040 30183 40189 52009 70222 82570 222// 00041;
0161014670999992000022615004+58630+009150FM-12+000799999V0202101N003110300019N0400001N1+00591+00551101901ADDAY121031AY221031GF106991031051008001071001MA1999999101841MD1110011+9999MW1021REMSYN072AAXX  26154 01467 41582 62106 10059 20055 30184 40190 51001 70222 83570;
0214014670999992000022618004+58630+009150FM-12+000799999V0202401N002112200019N0400001N1+00651+00581101941ADDAA199000091AY121061AY211061GF102991011091008001041001KA1999M+00811MA1999999101881MD1210041+9999MW1011REMSYN082AAXX  26184 01467 31582 22404 10065 20058 30188 40194 52004 70121 81940 333 10081;EQDQ01  00002PRCP99
0171014670999992000022700004+58630+009150FM-12+000799999V0202401N002112200019N0250001N1+00421+00411102001ADDAY101061AY201061GA1001+999999999GF100991001001999999001001MA1999999101941MD1810031+9999MW1011REMSYN066AAXX  27004 01467 41975 02404 10042 20041 30194 40200 58003 70100;
0171014670999992000022703004+58630+009150FM-12+000799999V0202301N003112200019N0280001N1+00351+00341101931ADDAY101031AY201031GA1001+999999999GF100991001001999999001001MA1999999101871MD1710071+9999MW1021REMSYN066AAXX  27034 01467 41978 02306 10035 20034 30187 40193 57007 70200;
0214014670999992000022706004+58630+009150FM-12+000799999V0202401N006210300019N0300001N1+00471+00381101511ADDAA199000091AY121061AY201061GF107991021041008001071001KA1999N+00321MA1999999101451MD1710421+9999MW1031REMSYN082AAXX  27064 01467 31580 72412 10047 20038 30145 40151 57042 70320 82470 333 20032;EQDQ01  00002PRCP99
0161014670999992000022709004+58630+009150FM-12+000799999V0202001N006210042019N0150001N1+00431+00421101131ADDAY161031AY221031GF108991051071004501021999MA1999999101071MD1710381+9999MW1631REMSYN072AAXX  27094 01467 41465 82012 10043 20042 30107 40113 57038 76362 8572/;
0173014670999992000022712004+58630+009150FM-12+000799999V0202101N006210042019N0060001N1+00541+00531100791ADDAY161061AY221061GF108991051071004501021999MA1999999100731MD1710341+9999MW1611REMSYN084AAXX  27124 01467 41456 82112 10054 20053 30073 40079 57034 76162 8572/ 222// 00049;
0161014670999992000022715004+58630+009150FM-12+000799999V0202401N006210021019N0050001N1+00561+00551100321ADDAY161031AY251031GF108991051071002501999999MA1999999100261MD1710471+9999MW1591REMSYN072AAXX  27154 01467 41350 82412 10056 20055 30026 40032 57047 75965 857//;
0201014670999992000022718004+58630+009150FM-12+000799999V0202501N006210021019N0050001N1+00571+00561100131ADDAA112003091AY161061AY251061GF108991051071002501021999KA1999M+00571MA1999999100071MD1710191+9999MW1591REMSYN088AAXX  27184 01467 11350 82512 10057 20056 30007 40013 57019 60032 75965 8572/ 333 10057;
0161014670999992000022800004+58630+009150FM-12+000799999V0202501N006210042019N0060001N1+00621+00611099681ADDAY161061AY251061GF108991051071004501021999MA1999999099621MD1710141+9999MW1581REMSYN072AAXX  28004 01467 41456 82512 10062 20061 39962 49968 57014 75865 8572/;
0161014670999992000022803004+58630+009150FM-12+000799999V0202501N004610042019N0080001N1+00601+00591099561ADDAY151031AY221031GF108991051071004501021999MA1999999099501MD1710121+9999MW1501REMSYN072AAXX  28034 01467 41458 82509 10060 20059 39950 49956 57012 75052 8572/;
0201014670999992000022806004+58630+009150FM-12+000799999V0202501N004610300019N0150001N1+00511+00501099331ADDAA112005191AY151061AY221061GF108991021041008001071999KA1999N+00511MA1999999099271MD1710231+9999MW1021REMSYN088AAXX  28064 01467 11565 82509 10051 20050 39927 49933 57023 60052 70252 8247/ 333 20051;
0161014670999992000022809004+58630+009150FM-12+000799999V0202601N003110300019N0200001N1+00521+00491099321ADDAY121031AY221031GF108991031051008001071999MA1999999099261MD1610011+9999MW1021REMSYN072AAXX  28094 01467 41570 82606 10052 20049 39926 49932 56001 70222 8357/;
0173014670999992000022812004+58630+009150FM-12+000799999V0202601N003110300019N0250001N1+00601+00511099301ADDAY121061AY221061GF107991021061008001071001MA1999999099241MD1710021+9999MW1011REMSYN084AAXX  28124 01467 41575 72606 10060 20051 39924 49930 57002 70122 82670 222// 00052;
0161014670999992000022815004+58630+009150FM-12+000799999V0202501N004610300019N0250001N1+00631+00561099271ADDAY181031AY221031GF107991031061004501071021MA1999999099211MD1710031+9999MW1251REMSYN072AAXX  28154 01467 41475 72509 10063 20056 39921 49927 57003 72582 83672;
0201014670999992000022818004+58630+009150FM-12+000799999V0202601N004610300019N0250001N1+00391+00351099291ADDAA112002091AY181061AY221061GF106991031091004501071021KA1999M+00631MA1999999099231MD1310021+9999MW1251REMSYN088AAXX  28184 01467 11475 62609 10039 20035 39923 49929 53002 60022 72582 83972 333 10063;
0171014670999992000022900004+58630+009150FM-12+000799999V0202601N003112200019N0550001N1+00381+00281099481ADDAY181061AY211061GA1001+999999999GF100991001001999999001001MA1999999099421MD1410001+9999MW1011REMSYN066AAXX  29004 01467 41985 02606 10038 20028 39942 49948 54000 70181;
0171014670999992000022903004+58630+009150FM-12+000799999V0202501N004612200019N0550001N1+00401+00311099541ADDAY101031AY201031GA1001+999999999GF100991001001999999001001MA1999999099481MD1310061+9999MW1021REMSYN066AAXX  29034 01467 41985 02509 10040 20031 39948 49954 53006 70200;
0201014670999992000022906004+58630+009150FM-12+000799999V0202601N003112200019N0400001N1+00351+00171099621ADDAA112001091AY101061AY201061GF103991011091008001061021KA1999N+00321MA1999999099551MD1210081+9999MW1031REMSYN088AAXX  29064 01467 11582 32606 10035 20017 39955 49962 52008 60012 70300 81962 333 20032;
0161014670999992000022909004+58630+009150FM-12+000799999V0202701N003110021019N0200001N1+00341+00301099611ADDAY181031AY221031GF107991051091002501071999MA1999999099551MD1810011+9999MW1811REMSYN072AAXX  29094 01467 41370 72706 10034 20030 39955 49961 58001 78182 8597/;
0173014670999992000022912004+58630+009150FM-12+000799999V0202301N007710300019N0200001N1+00501+00461099451ADDAY181061AY221061GF108991041091002501021999MA1999999099391MD1710161+9999MW1811REMSYN084AAXX  29124 01467 41370 82315 10050 20046 39939 49945 57016 78182 8492/ 222// 00052;
0161014670999992000022915004+58630+009150FM-12+000799999V0202301N006210021019N0100001N1+00521+00481099171ADDAY181031AY261031GF108991051071002501021999MA1999999099111MD1710281+9999MW1621REMSYN072AAXX  29154 01467 41360 82312 10052 20048 39911 49917 57028 76286 8572/;
0201014670999992000022918004+58630+009150FM-12+000799999V0202301N004610300019N0100001N1+00421+00381098861ADDAA112007191AY181061AY261061GF108991041071002501021999KA1999M+00551MA1999999098821MD1710311+9999MW1621REMSYN088AAXX  29184 01467 11360 82309 10042 20038 39882 49886 57031 60072 76286 8472/ 333 10055;
0161014670999992000030100004+58630+009150FM-12+000799999V0202501N003110300019N0100001N1+00371+00361098411ADDAY181061AY221061GF108991041071002501021999MA1999999098351MD1710091+9999MW1251REMSYN072AAXX  01004 01467 41360 82506 10037 20036 39835 49841 57009 72582 8472/;
0161014670999992000030103004+58630+009150FM-12+000799999V0209999C000010300019N0200001N1+00201+00161098261ADDAY181031AY221031GF108991031071002501021999MA1999999098201MD1610151+9999MW1021REMSYN072AAXX  01034 01467 41370 80000 10020 20016 39820 49826 56015 70282 8372/;
0195014670999992000030106004+58630+009150FM-12+000799999V0202301N000512200019N0300001N1+00161+00121999999ADDAA112002091AY181061AY211061GF103991011071004501031091KA1999N+00161MA1999999098171MD1610031+9999MW1011REMSYN082AAXX  01064 01467 11480 32301 10016 20012 39817 56003 60022 70181 81739 333 20016;
0161014670999992000030109004+58630+009150FM-12+000799999V0202601N002112200019N0400001N1+00161+00121098301ADDAY101031AY201031GF102991011041004501091081MA1999999098241MD1310251+9999MW1011REMSYN072AAXX  01094 01467 41482 22604 10016 20012 39824 49830 53025 70100 81498;
0181014670999992000030112004+58630+009150FM-12+000799999V0202801N002112200019N0400001N1+00431+00251098281ADDAY101061AY201061GF102991011021004501041081MA1999999098221MD1810021+9999MW1021SA1+3909REMSYN084AAXX  01124 01467 41482 22804 10043 20025 39822 49828 58002 70200 81248 222// 00039;
0161014670999992000030115004+58630+009150FM-12+000799999V0203301N002112200019N0550001N1+00771-00031098361ADDAY101031AY201031GF101991011011004501041081MA1999999098301MD1310081+9999MW1011REMSYN072AAXX  01154 01467 41485 13304 10077 21003 39830 49836 53008 70100 81148;
0214014670999992000030118004+58630+009150FM-12+000799999V0203301N003112200019N0550001N1+00651-00321098611ADDAA199000091AY101061AY201061GF101991011011004501041001KA1999M+00771MA1999999098551MD1210251+9999MW1011REMSYN082AAXX  01184 01467 31485 13306 10065 21032 39855 49861 52025 70100 81140 333 10077;EQDQ01  00002PRCP99
0171014670999992000030203004+58630+009150FM-12+000799999V0203201N002112200019N0550001N1+00201-00731099891ADDAY101031AY201031GA1001+999999999GF100991001001999999001001MA1999999099831MD1210401+9999MW1021REMSYN066AAXX  02034 01467 41985 03204 10020 21073 39983 49989 52040 70200;
0214014670999992000030206004+58630+009150FM-12+000799999V0203201N001012200019N0550001N1+00151-00701100151ADDAA199000091AY101061AY201061GF101991011001008001041001KA1999N+00121MA1999999100091MD1210261+9999MW1031REMSYN082AAXX  02064 01467 31585 13202 10015 21070 30009 40015 52026 70300 81040 333 20012;EQDQ01  00002PRCP99
0161014670999992000030209004+58630+009150FM-12+000799999V0202701N001012200019N0550001N1+00201-00561100341ADDAY111031AY201031GF104991011041008001031091MA1999999100281MD1210191+9999MW1031REMSYN072AAXX  02094 01467 41585 42702 10020 21056 30028 40034 52019 70310 81439;
0181014670999992000030212004+58630+009150FM-12+000799999V0202601N003110300019N0550001N1+00321-00541100351ADDAY121061AY211061GF107991021041008001011091MA1999999100291MD1010011+9999MW1021SA1+4009REMSYN084AAXX  02124 01467 41585 72606 10032 21054 30029 40035 50001 70221 82419 222// 00040;
0161014670999992000030215004+58630+009150FM-12+000799999V0202101N002110300019N0300001N1+00341-00051100131ADDAY121031AY211031GF108991021071004501021999MA1999999100071MD1710221+9999MW1021REMSYN072AAXX  02154 01467 41480 82104 10034 21005 30007 40013 57022 70221 8272/;
0201014670999992000030218004+58630+009150FM-12+000799999V0202101N003110021019N0040001N1+00161+00121099591ADDAA112000591AY171061AY261061GF108991051071002501021999KA1999M+00351MA1999999099531MD1710541+9999MW1681REMSYN088AAXX  02184 01467 11340 82106 10016 20012 39953 49959 57054 69952 76876 8572/ 333 10035;
0196014670999992000030300004+58630+009150FM-12+000799999V0201901N006210042019N0050001N1+00471+00461097922ADDAY171061AY261061GF108991051071004501021999MA1999999097862MD1710341+9999MW1641REMSYN072AAXX  03004 01467 41450 81912 10047 20046 39786 49792 57034 76476 8572/;EQDQ01+097863APOSP Q02+097923APOSLP
0196014670999992000030303004+58630+009150FM-12+000799999V0202101N003112200019N0200001N1+00301+00261097341ADDAY161031AY211031GF103991011071004501031011MA1999999097281MD1410001+9999MW1011REMSYN072AAXX  03034 01467 41470 32106 10030 20026 39728 49734 56058 70161 81731;EQDQ01+000062APCTENQ02+000582APC3  
0201014670999992000030306004+58630+009150FM-12+000799999V0202301N002112200019N0200001N1+00241+00151097201ADDAA112007191AY161061AY211061GF103991011081002501041021KA1999N+00121MA1999999097141MD1610141+9999MW1021REMSYN088AAXX  03064 01467 11370 32304 10024 20015 39714 49720 56014 60072 70261 81842 333 20012;
0180014670999992000030309004+58630+009150FM-12+000799999V0202501N002112200019N0300001N1+00301+00171097201ADDAY101031AY201031GF103991011091002501041021MA1999999097141MD1410001+9999MW1021REMSYN072AAXX  03094 01467 41380 32504 10030 20017 39714 49720 56000 70200 81942;EQDQ01+000062APCTEN
0173014670999992000030312004+58630+009150FM-12+000799999V0202601N002112200019N0300001N1+00581+00191097171ADDAY101061AY201061GF104991021061002501071021MA1999999097131MD1610011+9999MW1031REMSYN084AAXX  03124 01467 41380 42604 10058 20019 39713 49717 56001 70300 82672 222// 00043;
0161014670999992000030315004+58630+009150FM-12+000799999V0203001N004610300019N0300001N1+00701-00091097261ADDAY121031AY211031GF105991031091002501031091MA1999999097201MD1310071+9999MW1021REMSYN072AAXX  03154 01467 41380 53009 10070 21009 39720 49726 53007 70221 83939;
0214014670999992000030318004+58630+009150FM-12+000799999V0203201N004612200019N0300001N1+00321-00671097911ADDAA199000091AY111061AY211061GF103991021091002501041011KA1999M+00701MA1999999097851MD1210651+9999MW1011REMSYN082AAXX  03184 01467 31380 33209 10032 21067 39785 49791 52065 70111 82941 333 10070;EQDQ01  00002PRCP99
0180014670999992000030400004+58630+009150FM-12+000799999V0203301N001012200019N0550001N1+00161-00791099011ADDAY101061AY201061GF102991011041008001001011MA1999999098951MD1210652+9999MW1021REMSYN072AAXX  04004 01467 41585 23302 10016 21079 39895 49901 52065 70200 81401;EQDQ01+000652APC3  
0161014670999992000030403004+58630+009150FM-12+000799999V0203301N002112200019N0550001N1+00101-00561099391ADDAY101031AY201031GF102991021041008001001021MA1999999099331MD1210381+9999MW1021REMSYN072AAXX  04034 01467 41585 23304 10010 21056 39933 49939 52038 70200 82402;
0214014670999992000030406004+58630+009150FM-12+000799999V0203301N003112200019N0550001N1+00061-00911099641ADDAA199000091AY101061AY201061GF103991011071004501041021KA1999N+00061MA1999999099581MD1210251+9999MW1021REMSYN082AAXX  04064 01467 31485 33306 10006 21091 39958 49964 52025 70200 81742 333 20006;EQDQ01  00002PRCP99
0161014670999992000030409004+58630+009150FM-12+000799999V0203301N003112200019N0550001N1+00081-00821099951ADDAY111031AY201031GF104991021071004501031011MA1999999099891MD1210311+9999MW1031REMSYN072AAXX  04094 01467 41485 43306 10008 21082 39989 49995 52031 70310 82731;
0181014670999992000030412004+58630+009150FM-12+000799999V0203301N004612200019N0550001N1+00301-01021100311ADDAY111061AY201061GF102991021001022501031011MA1999999100251MD1210361+9999MW1011SA1+4009REMSYN084AAXX  04124 01467 41885 23309 10030 21102 30025 40031 52036 70110 82031 222// 00040;
0161014670999992000030415004+58630+009150FM-12+000799999V0203001N006212200019N0550001N1+00261-01281100511ADDAY101031AY201031GF101991011011008001001011MA1999999100451MD1210201+9999MW1021REMSYN072AAXX  04154 01467 41585 13012 10026 21128 30045 40051 52020 70200 81101;
0214014670999992000030418004+58630+009150FM-12+000799999V0203001N002112200019N0550001N1+00101-01171100651ADDAA199000091AY101061AY201061GF102991021041008001001011KA1999M+00351MA1999999100591MD1210141+9999MW1021REMSYN082AAXX  04184 01467 31585 23004 10010 21117 30059 40065 52014 70200 82401 333 10035;EQDQ01  00002PRCP99
0171014670999992000030500004+58630+009150FM-12+000799999V0203301N001012200019N0550001N1+00081+99999101091ADDAY101061AY201061GA1001+999999999GF100991001001999999001001MA1999999101031MD1210401+9999MW1021REMSYN066AAXX  05004 01467 41985 03302 10008 20140 30103 40109 52040 70200;
0171014670999992000030503004+58630+009150FM-12+000799999V0203301N001012200019N0550001N1-00101-01541101301ADDAY101031AY201031GA1001+999999999GF100991001001999999001001MA1999999101241MD1210211+9999MW1021REMSYN066AAXX  05034 01467 41985 03302 11010 21154 30124 40130 52021 70200;
0214014670999992000030506004+58630+009150FM-12+000799999V0203001N001012200019N0550001N1-00101-01031101441ADDAA199000091AY101061AY201061GF101991011001017501041011KA1999N-00151MA1999999101281MD1210141+9999MW1021REMSYN082AAXX  05064 01467 31785 13002 11010 21103 30128 40144 52014 70200 81041 333 21015;EQDQ01  00002PRCP99
0161014670999992000030509004+58630+009150FM-12+000799999V0203001N000512200019N0550001N1+00001-00941101651ADDAY101031AY201031GF101991011001022501031011MA1999999101591MD1210211+9999MW1021REMSYN072AAXX  05094 01467 41885 13001 10000 21094 30159 40165 52021 70200 81031;
0181014670999992000030512004+58630+009150FM-12+000799999V0200901N001012200019N0550001N1+00301-00751101851ADDAY111061AY201061GF103991011041008001031021MA1999999101791MD1210201+9999MW1031SA1+3209REMSYN084AAXX  05124 01467 41585 30902 10030 21075 30179 40185 52020 70310 81432 222// 00032;
0161014670999992000030515004+58630+009150FM-12+000799999V0202101N001010300019N0550001N1+00361-00621101851ADDAY111031AY211031GF106991021041008001031091MA1999999101791MD1410001+9999MW1031REMSYN072AAXX  05154 01467 41585 62102 10036 21062 30179 40185 54000 70311 82439;
0214014670999992000030518004+58630+009150FM-12+000799999V0202601N001010300019N0550001N1+00301-00361101721ADDAA199000091AY121061AY211061GF106991011071004501021091KA1999M+00361MA1999999101661MD1810131+9999MW1021REMSYN082AAXX  05184 01467 31485 62602 10030 21036 30166 40172 58013 70221 81729 333 10036;EQDQ01  00002PRCP99
0161014670999992000030600004+58630+009150FM-12+000799999V0202301N006210300019N0200001N1+00401+00331101091ADDAY121061AY211061GF107991041071004501021021MA1999999101031MD1710401+9999MW1021REMSYN072AAXX  06004 01467 41470 72312 10040 20033 30103 40109 57040 70221 84722;
0196014670999992000030603004+58630+009150FM-12+000799999V0202301N004610300019N0150001N1+00441+00401100442ADDAY121031AY211031GF106991031061004501061021MA1999999100382MD1710651+9999MW1021REMSYN072AAXX  06034 01467 41465 62309 10044 20040 30038 40044 57065 70221 83662;EQDQ01+100383APOSP Q02+100443APOSLP
0214014670999992000030606004+58630+009150FM-12+000799999V0202301N006219999999N0100001N1+00481+00441100021ADDAA199000091AY121061AY221061GF107991041061999999071021KA1999N+00251MA1999999099961MD1710421+9999MW1021REMSYN082AAXX  06064 01467 31960 72312 10048 20044 39996 40002 57042 70222 84672 333 20025;EQDQ01  00002PRCP99
0161014670999992000030609004+58630+009150FM-12+000799999V0202101N006210300019N0200001N1+00661+00571099721ADDAY121031AY221031GF106991021061002501061091MA1999999099661MD1710301+9999MW1021REMSYN072AAXX  06094 01467 41370 62112 10066 20057 39966 49972 57030 70222 82669;
0173014670999992000030612004+58630+009150FM-12+000799999V0202301N004612200019N0300001N1+01051+00461099701ADDAY121061AY221061GF105991021061002501021091MA1999999099641MD1610021+9999MW1021REMSYN084AAXX  06124 01467 41380 52309 10105 20046 39964 49970 56002 70222 82629 222// 00042;
0161014670999992000030615004+58630+009150FM-12+000799999V0202401N007710750019N0300001N1+01021+00491099451ADDAY121031AY221031GF105991021071004501061021MA1999999099391MD1710251+9999MW1021REMSYN072AAXX  06154 01467 41480 52415 10102 20049 39939 49945 57025 70222 82762;
0201014670999992000030618004+58630+009150FM-12+000799999V0202401N007710300019N0200001N1+00981+00711099211ADDAA112000191AY161061AY221061GF108991041071004501021999KA1999M+01151MA1999999099151MD1710241+9999MW1601REMSYN088AAXX  06184 01467 11470 82415 10098 20071 39915 49921 57024 69912 76062 8472/ 333 10115;
0171014670999992000030700004+58630+009150FM-12+000799999V0202701N006212200019N0750001N1+00581-00331099551ADDAY111061AY201061GA1001+999999999GF100991001001999999001001MA1999999099491MD1210301+9999MW1021REMSYN066AAXX  07004 01467 41989 02712 10058 21033 39949 49955 52030 70210;
0171014670999992000030703004+58630+009150FM-12+000799999V0202701N006212200019N0750001N1+00501-00301099671ADDAY101031AY201031GA1001+999999999GF100991001001999999001001MA1999999099611MD1210121+9999MW1021REMSYN066AAXX  07034 01467 41989 02712 10050 21030 39961 49967 52012 70200;
0201014670999992000030706004+58630+009150FM-12+000799999V0209999C000012200019N0750001N1+00481-00301099881ADDAA112000191AY111061AY201061GF102991021001022501031091KA1999N+00481MA1999999099821MD1210211+9999MW1021REMSYN088AAXX  07064 01467 11889 20000 10048 21030 39982 49988 52021 69912 70210 82039 333 20048;
0161014670999992000030709004+58630+009150FM-12+000799999V0202401N002110300019N0550001N1+00491-00131099971ADDAY121031AY211031GF108991011011008001071999MA1999999099911MD1210091+9999MW1021REMSYN072AAXX  07094 01467 41585 82404 10049 21013 39991 49997 52009 70221 8117/;
0173014670999992000030712004+58630+009150FM-12+000799999V0202701N002110300019N0650001N1+00551-00081100041ADDAY121061AY211061GF107991011011008001071011MA1999999099981MD1210071+9999MW1011REMSYN084AAXX  07124 01467 41587 72704 10055 21008 39998 40004 52007 70121 81171 222// 00045;
0161014670999992000030715004+58630+009150FM-12+000799999V0203101N003110300019N0750001N1+00791-00161100041ADDAY121031AY221031GF106991011011008001041081MA1999999099981MD1510001+9999MW1011REMSYN072AAXX  07154 01467 41589 63106 10079 21016 39998 40004 55000 70122 81148;
0214014670999992000030718004+58630+009150FM-12+000799999V0203301N002112200019N0750001N1+00701-00301100291ADDAA199000091AY121061AY201061GF101991001001999999001011KA1999M+00791MA1999999100231MD1210251+9999MW1021REMSYN082AAXX  07184 01467 31989 13304 10070 21030 30023 40029 52025 70220 80001 333 10079;EQDQ01  00002PRCP99
0171014670999992000030800004+58630+009150FM-12+000799999V0209999C000012200019N0750001N1+00321-00401100501ADDAY101061AY201061GA1001+999999999GF100991001001999999001001MA1999999100441MD1310051+9999MW1021REMSYN066AAXX  08004 01467 41989 00000 10032 21040 30044 40050 53005 70200;
0161014670999992000030803004+58630+009150FM-12+000799999V0202501N001010300019N0450001N1+00221-00071100371ADDAY121031AY201031GF108991011071004501021999MA1999999100311MD1810131+9999MW1021REMSYN072AAXX  08034 01467 41483 82502 10022 21007 30031 40037 58013 70220 8172/;
0201014670999992000030806004+58630+009150FM-12+000799999V0202701N001010021019N0200001N1+00201+00111100111ADDAA112000791AY121061AY201061GF108991081061002501999999KA1999N+00151MA1999999100051MD1710261+9999MW1681REMSYN088AAXX  08064 01467 11370 82702 10020 20011 30005 40011 57026 69902 76820 886// 333 20015;
0161014670999992000030809004+58630+009150FM-12+000799999V0200901N000510021019N0040001N1+00121+00081099741ADDAY171031AY221031GF108991081061002501999999MA1999999099681MD1710371+9999MW1681REMSYN072AAXX  08094 01467 41340 80901 10012 20008 39968 49974 57037 76872 886//;
0173014670999992000030812004+58630+009150FM-12+000799999V0200901N000510021019N0040001N1+00191+00181099481ADDAY171061AY251061GF108991081061002501999999MA1999999099421MD1710261+9999MW1501REMSYN084AAXX  08124 01467 41340 80901 10019 20018 39942 49948 57026 75075 886// 222// 00042;
0161014670999992000030815004+58630+009150FM-12+000799999V0209999C000010021019N0100001N1+00221+00181099121ADDAY151031AY221031GF108991081061002501999999MA1999999099061MD1710361+9999MW1021REMSYN072AAXX  08154 01467 41360 80000 10022 20018 39906 49912 57036 70252 886//;
0201014670999992000030818004+58630+009150FM-12+000799999V0209999C000010021019N0200001N1+00221+00181098981ADDAA112004191AY151061AY221061GF108991081061002501999999KA1999M+00221MA1999999098921MD1610141+9999MW1021REMSYN088AAXX  08184 01467 11370 80000 10022 20018 39892 49898 56014 60042 70252 886// 333 10022;
0161014670999992000030900004+58630+009150FM-12+000799999V0200301N003110012019N0045001N1+00091+00081099361ADDAY171061AY261061GF108991081061001501999999MA1999999099301MD1210301+9999MW1681REMSYN072AAXX  09004 01467 41245 80306 10009 20008 39930 49936 52030 76876 886//;
0161014670999992000030903004+58630+009150FM-12+000799999V0203601N001012200019N0200001N1+00061-00071099841ADDAY171031AY201031GF101991011041008001001011MA1999999099781MD1210481+9999MW1011REMSYN072AAXX  09034 01467 41570 13602 10006 21007 39978 49984 52048 70170 81401;
0201014670999992000030906004+58630+009150FM-12+000799999V0203601N001012200019N0300001N1-00021-00191100261ADDAA112000591AY171061AY211061GF101991011011008001001011KA1999N-00021MA1999999100201MD1210421+9999MW1021REMSYN088AAXX  09064 01467 11580 13602 11002 21019 30020 40026 52042 69952 70271 81101 333 21002;
0161014670999992000030909004+58630+009150FM-12+000799999V0200201N002112200019N0750001N1+00111-00491100651ADDAY101031AY201031GF101991001001999999001011MA1999999100591MD1210391+9999MW1021REMSYN072AAXX  09094 01467 41989 10204 10011 21049 30059 40065 52039 70200 80001;
0173014670999992000030912004+58630+009150FM-12+000799999V0203401N002112200019N0750001N1+00431-00721100991ADDAY101061AY201061GF102991011001999999031021MA1999999100931MD1210341+9999MW1031REMSYN084AAXX  09124 01467 41989 23404 10043 21072 30093 40099 52034 70300 81032 222// 00043;
0161014670999992000030915004+58630+009150FM-12+000799999V0203601N002112200019N0750001N1+00521-00701101221ADDAY111031AY201031GF104991021011008001031091MA1999999101161MD1210231+9999MW1031REMSYN072AAXX  09154 01467 41589 43604 10052 21070 30116 40122 52023 70310 82139;
0214014670999992000030918004+58630+009150FM-12+000799999V0203401N000512200019N0750001N1+00341-00891101491ADDAA199000091AY111061AY201061GF101991011051008001001011KA1999M+00561MA1999999101431MD1210271+9999MW1021REMSYN082AAXX  09184 01467 31589 13401 10034 21089 30143 40149 52027 70210 81501 333 10056;EQDQ01  00002PRCP99
0171014670999992000031000004+58630+009150FM-12+000799999V0203001N000512200019N0750001N1+00061-00761101851ADDAY101061AY201061GA1001+999999999GF100991001001999999001001MA1999999101791MD1210201+9999MW1021REMSYN066AAXX  10004 01467 41989 03001 10006 21076 30179 40185 52020 70200;
0171014670999992000031003004+58630+009150FM-12+000799999V0203501N002112200019N0750001N1+00061-00831102001ADDAY101031AY201031GA1001+999999999GF100991001001999999001001MA1999999101941MD1110151+9999MW1021REMSYN066AAXX  10034 01467 41989 03504 10006 21083 30194 40200 51015 70200;
0214014670999992000031006004+58630+009150FM-12+000799999V0203501N002112200019N0550001N1-00061-00921102141ADDAA199000091AY101061AY201061GF101991001001999999001011KA1999N-00061MA1999999102081MD1210141+9999MW1031REMSYN082AAXX  10064 01467 31985 13504 11006 21092 30208 40214 52014 70300 80001 333 21006;EQDQ01  00002PRCP99
0161014670999992000031009004+58630+009150FM-12+000799999V0203201N001012200019N0300001N1+00121-00881102231ADDAY111031AY201031GF104991041001017501011011MA1999999102171MD1210091+9999MW1031REMSYN072AAXX  10094 01467 41780 43202 10012 21088 30217 40223 52009 70310 84011;
0181014670999992000031012004+58630+009150FM-12+000799999V0201801N000510150019N0300001N1+00261-00701102151ADDAY121061AY211061GF107991071001017501011071MA1999999102091MD1810081+9999MW1031SA1+4009REMSYN084AAXX  10124 01467 41780 71801 10026 21070 30209 40215 58008 70321 87017 222// 00040;
0161014670999992000031015004+58630+009150FM-12+000799999V0202101N002110021019N0250001N1+00201-00431101871ADDAY121031AY221031GF108991061061002501011999MA1999999101811MD1810281+9999MW1031REMSYN072AAXX  10154 01467 41375 82104 10020 21043 30181 40187 58028 70322 8661/;
0214014670999992000031018004+58630+009150FM-12+000799999V0202101N001010021019N0250001N1+00201-00311101531ADDAA199000091AY121061AY221061GF108991061071002501021999KA1999M+00311MA1999999101471MD1710341+9999MW1021REMSYN082AAXX  10184 01467 31375 82102 10020 21031 30147 40153 57034 70222 8672/ 333 10031;EQDQ01  00002PRCP99
0180014670999992000031100004+58630+009150FM-12+000799999V0201301N003110021019N0045001N1+00131+00091100681ADDAY171061AY221061GF108991081071002501999999MA1999999100621MD1710582+9999MW1681REMSYN072AAXX  11004 01467 41345 81306 10013 20009 30062 40068 57058 76872 887//;EQDQ01+000582APC3  
0161014670999992000031103004+58630+009150FM-12+000799999V0201201N004610021019N0050001N1+00131+00121100281ADDAY171031AY221031GF108991081071002501999999MA1999999100221MD1710401+9999MW1681REMSYN072AAXX  11034 01467 41350 81209 10013 20012 30022 40028 57040 76872 887//;
0201014670999992000031106004+58630+009150FM-12+000799999V0200901N006210042019N0200001N1+00171+00161100291ADDAA112006191AY171061AY261061GF108991081071004501999999KA1999N+00061MA1999999100231MD1310011+9999MW1581REMSYN088AAXX  11064 01467 /1470 80912 10017 20016 30023 40029 53001 60062 75876 887// 333 20006;
0161014670999992000031109004+58630+009150FM-12+000799999V0200401N004610021019N0050001N1+00061+00031100691ADDAY171031AY261031GF108991081071002501999999MA1999999100631MD1210401+9999MW1681REMSYN072AAXX  11094 01467 41350 80409 10006 20003 30063 40069 52040 76876 887//;
0181014670999992000031112004+58630+009150FM-12+000799999V0200301N003110300019N0250001N1+00051-00041101121ADDAY171061AY261061GF108991031071004501021999MA1999999101061MD1210431+9999MW1021SA1+3609REMSYN084AAXX  11124 01467 41475 80306 10005 21004 30106 40112 52043 70276 8372/ 222// 00036;
0161014670999992000031115004+58630+009150FM-12+000799999V0200201N001012200019N0550001N1+00241-00021101411ADDAY121031AY211031GF103991031011004501001001MA1999999101351MD1210291+9999MW1011REMSYN072AAXX  11154 01467 41485 30202 10024 21002 30135 40141 52029 70121 83100;
0201014670999992000031118004+58630+009150FM-12+000799999V0203401N001012200019N0550001N1+00101+00001101681ADDAA112000191AY121061AY201061GF101991011041008001001011KA1999M+00271MA1999999101621MD1210271+9999MW1021REMSYN088AAXX  11184 01467 11585 13402 10010 20000 30162 40168 52027 69922 70220 81401 333 10027;
0161014670999992000031200004+58630+009150FM-12+000799999V0202701N001012200019N0550001N1-00091-00161101971ADDAY101061AY201061GF101991001001999999001011MA1999999101911MD1110101+9999MW1021REMSYN072AAXX  12004 01467 41985 12702 11009 21016 30191 40197 51010 70200 80001;
0161014670999992000031203004+58630+009150FM-12+000799999V0202501N001010042019N0450001N1-00071-00141101941ADDAY121031AY201031GF108991061071004501021999MA1999999101881MD1810031+9999MW1021REMSYN072AAXX  12034 01467 41483 82502 11007 21014 30188 40194 58003 70220 8672/;
0214014670999992000031206004+58630+009150FM-12+000799999V0202301N001010042019N0300001N1+00021-00051101861ADDAA199000091AY121061AY201061GF108991061071004501021999KA1999N-00101MA1999999101801MD1810081+9999MW1021REMSYN082AAXX  12064 01467 31480 82302 10002 21005 30180 40186 58008 70220 8672/ 333 21010;EQDQ01  00002PRCP99
0161014670999992000031209004+58630+009150FM-12+000799999V0202201N000510021019N0060001N1+00111+00071101881ADDAY171031AY221031GF108991081071002501999999MA1999999101821MD1310021+9999MW1681REMSYN072AAXX  12094 01467 41356 82201 10011 20007 30182 40188 53002 76872 887//;
0181014670999992000031212004+58630+009150FM-12+000799999V0201801N000510300019N0150001N1+00201+00151101821ADDAY171061AY261061GF105991041071002501071011MA1999999101761MD1810061+9999MW1601SA1+3409REMSYN084AAXX  12124 01467 41365 51801 10020 20015 30176 40182 58006 76076 84771 222// 00034;
0161014670999992000031215004+58630+009150FM-12+000799999V0201701N001012200019N0550001N1+00401+00351101751ADDAY121031AY201031GF101991011041004501001001MA1999999101691MD1710071+9999MW1021REMSYN072AAXX  12154 01467 41485 11702 10040 20035 30169 40175 57007 70220 81400;
0201014670999992000031218004+58630+009150FM-12+000799999V0209999C000012200019N0650001N1+00371+00311101711ADDAA112001091AY121061AY201061GF101991001001999999001011KA1999M+00441MA1999999101651MD1710041+9999MW1021REMSYN088AAXX  12184 01467 11987 10000 10037 20031 30165 40171 57004 69992 70220 80001 333 10044;
0161014670999992000031300004+58630+009150FM-12+000799999V0202301N003112200019N0550001N1+00231+00191101601ADDAY101061AY201061GF101991001001999999001011MA1999999101541MD1810061+9999MW1021REMSYN072AAXX  13004 01467 41985 12306 10023 20019 30154 40160 58006 70200 80001;
0161014670999992000031303004+58630+009150FM-12+000799999V0202201N002112200019N0550001N1+00221+00191101511ADDAY101031AY201031GF101991001001999999001011MA1999999101451MD1710091+9999MW1021REMSYN072AAXX  13034 01467 41985 12204 10022 20019 30145 40151 57009 70200 80001;
0214014670999992000031306004+58630+009150FM-12+000799999V0202201N003110012019N0100001N1+00341+99999101341ADDAA199000091AY121061AY211061GF107991051061001501031011KA1999N+00161MA1999999101281MD1710171+9999MW1021REMSYN082AAXX  13064 01467 31260 72206 10034 20038 30128 40134 57017 70221 85631 333 20016;EQDQ01  00002PRCP99
0161014670999992000031309004+58630+009150FM-12+000799999V0202201N004610300019N0250001N1+00661+00621101151ADDAY121031AY221031GF107991041061002501071011MA1999999101091MD1710191+9999MW1021REMSYN072AAXX  13094 01467 41375 72209 10066 20062 30109 40115 57019 70222 84671;
0173014670999992000031312004+58630+009150FM-12+000799999V0202201N006210300019N0250001N1+00581+00541100991ADDAY121061AY221061GF107991031061002501071011MA1999999100931MD1710161+9999MW1021REMSYN084AAXX  13124 01467 41375 72212 10058 20054 30093 40099 57016 70222 83671 222// 00042;
0161014670999992000031315004+58630+009150FM-12+000799999V0202001N004610300019N0250001N1+00601+00561100711ADDAY181031AY221031GF106991031041004501061021MA1999999100651MD1710281+9999MW1011REMSYN072AAXX  13154 01467 41475 62009 10060 20056 30065 40071 57028 70182 83462;
0201014670999992000031318004+58630+009150FM-12+000799999V0202301N004610300019N0300001N1+00781+00141100681ADDAA112000191AY181061AY211061GF108991011011004501061021KA1999M+00881MA1999999100621MD1510031+9999MW1021REMSYN088AAXX  13184 01467 11480 82309 10078 20014 30062 40068 55003 69912 70281 81162 333 10088;
0161014670999992000031400004+58630+009150FM-12+000799999V0202301N004612200019N0400001N1+00471+00341100611ADDAY101061AY201061GF101991011001022501041001MA1999999100551MD1710101+9999MW1011REMSYN072AAXX  14004 01467 41882 12309 10047 20034 30055 40061 57010 70100 81040;
0161014670999992000031403004+58630+009150FM-12+000799999V0202301N004612200019N0700001N1+00421+00291100431ADDAY101031AY201031GF101991001001999999001011MA1999999100371MD1710181+9999MW1021REMSYN072AAXX  14034 01467 41988 12309 10042 20029 30037 40043 57018 70200 80001;
0214014670999992000031406004+58630+009150FM-12+000799999V0200601N000512200019N0700001N1+00341-00231100351ADDAA199000091AY101061AY201061GF103991031001999999031011KA1999N+00331MA1999999100291MD1710081+9999MW1021REMSYN082AAXX  14064 01467 31988 30601 10034 21023 30029 40035 57008 70200 83031 333 20033;EQDQ01  00002PRCP99
0161014670999992000031409004+58630+009150FM-12+000799999V0202501N004612200019N0550001N1+00431-00131100201ADDAY101031AY201031GF102991021001022501031001MA1999999100141MD1710151+9999MW1011REMSYN072AAXX  14094 01467 41885 22509 10043 21013 30014 40020 57015 70100 82030;
0173014670999992000031412004+58630+009150FM-12+000799999V0202701N003110300019N0400001N1+00501+00221099921ADDAY111061AY201061GF106991011091004501071001MA1999999099861MD1710281+9999MW1031REMSYN084AAXX  14124 01467 41482 62706 10050 20022 39986 49992 57028 70310 81970 222// 00046;
0161014670999992000031415004+58630+009150FM-12+000799999V0203001N006212200019N0400001N1+00581-00351099681ADDAY121031AY211031GF103991011091008001041001MA1999999099621MD1710241+9999MW1011REMSYN072AAXX  14154 01467 41582 33012 10058 21035 39962 49968 57024 70121 81940;
0214014670999992000031418004+58630+009150FM-12+000799999V0203301N004612200019N0400001N1+00351-00731099921ADDAA199000091AY121061AY211061GF101991011041008001041001KA1999M+00581MA1999999099861MD1310241+9999MW1011REMSYN082AAXX  14184 01467 31582 13309 10035 21073 39986 49992 53024 70121 81440 333 10058;EQDQ01  00002PRCP99
0171014670999992000031500004+58630+009150FM-12+000799999V0203001N002112200019N0750001N1+00271-00751100591ADDAY101061AY201061GA1001+999999999GF100991001001999999001001MA1999999100531MD1210311+9999MW1021REMSYN066AAXX  15004 01467 41989 03004 10027 21075 30053 40059 52031 70200;
0171014670999992000031503004+58630+009150FM-12+000799999V0203301N004612200019N0600001N1+00181-00861100881ADDAY101031AY201031GA1001+999999999GF100991001001999999001001MA1999999100821MD1110291+9999MW1021REMSYN066AAXX  15034 01467 41986 03309 10018 21086 30082 40088 51029 70200;
0224014670999992000031506004+58630+009150FM-12+000799999V0203301N006212200019N0600001N1+00151-00971101221ADDAA199000091AY101061AY201061GA1001+999999999GF100991001001999999001001KA1999N+00151MA1999999101161MD1210341+9999MW1021REMSYN076AAXX  15064 01467 31986 03312 10015 21097 30116 40122 52034 70200 333 20015;EQDQ01  00002PRCP99
0161014670999992000031509004+58630+009150FM-12+000799999V0203401N004612200019N0750001N1+00301-00991101431ADDAY101031AY201031GF101991011001999999031011MA1999999101371MD1210211+9999MW1031REMSYN072AAXX  15094 01467 41989 13409 10030 21099 30137 40143 52021 70300 81031;
0173014670999992000031512004+58630+009150FM-12+000799999V0202801N003110042019N0600001N1+00351-00981101511ADDAY121061AY201061GF107991051071004501071011MA1999999101451MD1210081+9999MW1031REMSYN084AAXX  15124 01467 41486 72806 10035 21098 30145 40151 52008 70320 85771 222// 00044;
0161014670999992000031515004+58630+009150FM-12+000799999V0202801N002110075019N0550001N1+00391-00811101461ADDAY121031AY221031GF108991051071008001021999MA1999999101401MD1810051+9999MW1021REMSYN072AAXX  15154 01467 41585 82804 10039 21081 30140 40146 58005 70222 8572/;
0214014670999992000031518004+58630+009150FM-12+000799999V0202901N001010300019N0400001N1+00281-00511101431ADDAA199000091AY121061AY221061GF105991041041004501061011KA1999M+00431MA1999999101371MD1610031+9999MW1011REMSYN082AAXX  15184 01467 31482 52902 10028 21051 30137 40143 56003 70122 84461 333 10043;EQDQ01  00002PRCP99
0171014670999992000031600004+58630+009150FM-12+000799999V0203601N003112200019N0600001N1+00261-00531101641ADDAY121061AY211061GA1001+999999999GF100991001001999999001001MA1999999101541MD1310211+9999MW1011REMSYN066AAXX  16004 01467 41986 03606 10026 21053 30154 40164 53021 70121;
0161014670999992000031603004+58630+009150FM-12+000799999V0203601N000512200019N0750001N1+00101-00721101981ADDAY101031AY201031GF101991011001999999061011MA1999999101921MD1210341+9999MW1021REMSYN072AAXX  16034 01467 41989 13601 10010 21072 30192 40198 52034 70200 81061;
0214014670999992000031606004+58630+009150FM-12+000799999V0202101N000519999999N0600001N1+00041-00731102211ADDAA199000091AY121061AY201061GF106991061001999999031011KA1999N-00021MA1999999102151MD1210231+9999MW1021REMSYN082AAXX  16064 01467 31986 62101 10004 21073 30215 40221 52023 70220 86031 333 21002;EQDQ01  00002PRCP99
0161014670999992000031609004+58630+009150FM-12+000799999V0202701N000510300019N0500001N1+00261-00681102301ADDAY121031AY221031GF107991021051008001071999MA1999999102241MD1110091+9999MW1031REMSYN072AAXX  16094 01467 41584 72701 10026 21068 30224 40230 51009 70322 8257/;
0181014670999992000031612004+58630+009150FM-12+000799999V0202001N003110300019N0500001N1+00371-00551102261ADDAY121061AY221061GF108991031051008001071999MA1999999102201MD1810041+9999MW1031SA1+4109REMSYN084AAXX  16124 01467 41584 82006 10037 21055 30220 40226 58004 70322 8357/ 222// 00041;
0161014670999992000031615004+58630+009150FM-12+000799999V0202301N002110300019N0400001N1+00141-00021101991ADDAY171031AY221031GF107991021091008001071999MA1999999101931MD1710271+9999MW1221REMSYN072AAXX  16154 01467 41582 72304 10014 21002 30193 40199 57027 72272 8297/;
0201014670999992000031618004+58630+009150FM-12+000799999V0202301N002110300019N0400001N1+00361+00161101791ADDAA112000191AY171061AY221061GF107991021051008001071999KA1999M+00481MA1999999101731MD1610201+9999MW1021REMSYN088AAXX  16184 01467 11582 72304 10036 20016 30173 40179 56020 69912 70272 8257/ 333 10048;
0161014670999992000031700004+58630+009150FM-12+000799999V0200401N002119999999N0350001N1+00181+00111101991ADDAY121061AY221061GF108991081001999999071999MA1999999101931MD1210161+9999MW1021REMSYN072AAXX  17004 01467 41981 80404 10018 20011 30193 40199 52016 70222 8807/;
0161014670999992000031703004+58630+009150FM-12+000799999V0200101N002110075019N0300001N1+00181+00121102161ADDAY121031AY221031GF108991051051008001071999MA1999999102101MD1210171+9999MW1021REMSYN072AAXX  17034 01467 41580 80104 10018 20012 30210 40216 52017 70222 8557/;
0214014670999992000031706004+58630+009150FM-12+000799999V0200101N001010075019N0300001N1+00141+00091102331ADDAA199000091AY121061AY221061GF108991051051008001071999KA1999N+00141MA1999999102271MD1210171+9999MW1021REMSYN082AAXX  17064 01467 31580 80102 10014 20009 30227 40233 52017 70222 8557/ 333 20014;EQDQ01  00002PRCP99
0161014670999992000031709004+58630+009150FM-12+000799999V0200401N000510042019N0300001N1+00201+00101102481ADDAY121031AY221031GF108991081051004501999999MA1999999102421MD1210151+9999MW1021REMSYN072AAXX  17094 01467 41480 80401 10020 20010 30242 40248 52015 70222 885//;
0173014670999992000031712004+58630+009150FM-12+000799999V0200901N000510042019N0450001N1+00281+00151102491ADDAY121061AY221061GF108991081051004501999999MA1999999102431MD1010011+9999MW1021REMSYN084AAXX  17124 01467 41483 80901 10028 20015 30243 40249 50001 70222 885// 222// 00041;
0161014670999992000031715004+58630+009150FM-12+000799999V0201801N001012200019N0400001N1+00301+00201102411ADDAY121031AY211031GF104991021051008001071071MA1999999102351MD1710081+9999MW1011REMSYN072AAXX  17154 01467 41582 41802 10030 20020 30235 40241 57008 70121 82577;
0214014670999992000031718004+58630+009150FM-12+000799999V0201801N001010300019N0400001N1+00301+00241102411ADDAA199000091AY121061AY211061GF106991021051008001071071KA1999M+00341MA1999999102351MD1510001+9999MW1031REMSYN082AAXX  17184 01467 31582 61802 10030 20024 30235 40241 55000 70321 82577 333 10034;EQDQ01  00002PRCP99
0161014670999992000031800004+58630+009150FM-12+000799999V0202701N000510300019N0300001N1+00331+00291102321ADDAY121061AY221061GF108991031051008001071999MA1999999102261MD1710051+9999MW1031REMSYN072AAXX  18004 01467 41580 82701 10033 20029 30226 40232 57005 70322 8357/;
0161014670999992000031803004+58630+009150FM-12+000799999V0203001N000510021019N0170001N1+00301+00271102271ADDAY121031AY221031GF108991081061002501999999MA1999999102211MD1610051+9999MW1021REMSYN072AAXX  18034 01467 41367 83001 10030 20027 30221 40227 56005 70222 886//;
0201014670999992000031806004+58630+009150FM-12+000799999V0203601N000510300019N0120001N1+00251+00211102431ADDAA112000591AY161061AY221061GF108991041071004501021999KA1999N+00251MA1999999102371MD1310161+9999MW1611REMSYN088AAXX  18064 01467 11462 83601 10025 20021 30237 40243 53016 69942 76162 8472/ 333 20025;
0161014670999992000031809004+58630+009150FM-12+000799999V0203601N001010300019N0300001N1+00481+00411102711ADDAY161031AY221031GF106991021051008001071001MA1999999102651MD1210281+9999MW1011REMSYN072AAXX  18094 01467 41580 63602 10048 20041 30265 40271 52028 70162 82570;
0173014670999992000031812004+58630+009150FM-12+000799999V0200901N002112200019N0500001N1+00671+00401102881ADDAY161061AY211061GF102991011001022501041081MA1999999102821MD1210171+9999MW1011REMSYN084AAXX  18124 01467 41884 20904 10067 20040 30282 40288 52017 70161 81048 222// 00045;
0161014670999992000031815004+58630+009150FM-12+000799999V0201801N000512200019N0600001N1+00741+00231102931ADDAY101031AY201031GF101991011011008001001001MA1999999102871MD1210051+9999MW1011REMSYN072AAXX  18154 01467 41586 11801 10074 20023 30287 40293 52005 70100 81100;
0211014670999992000031818004+58630+009150FM-12+000799999V0202401N000512200019N0600001N1+00621+00131103041ADDAA112000191AY101061AY201061GA1001+999999999GF100991001001999999001001KA1999M+00761MA1999999102981MD1210111+9999MW1011REMSYN082AAXX  18184 01467 11986 02401 10062 20013 30298 40304 52011 69922 70100 333 10076;
0161014670999992000031900004+58630+009150FM-12+000799999V0202701N001012200019N0400001N1+00281+00121103041ADDAY101061AY201061GF102991001001999999001011MA1999999102981MD1010001+9999MW1031REMSYN072AAXX  19004 01467 41982 22702 10028 20012 30298 40304 50000 70300 80001;
0161014670999992000031903004+58630+009150FM-12+000799999V0202701N000512200019N0400001N1+00101+00041102901ADDAY101031AY201031GF102991001001999999001011MA1999999102841MD1710141+9999MW1021REMSYN072AAXX  19034 01467 41982 22701 10010 20004 30284 40290 57014 70200 80001;
0214014670999992000031906004+58630+009150FM-12+000799999V0202501N000510300019N0400001N1+00041-00021102791ADDAA199000091AY111061AY201061GF107991011051008001071999KA1999N+00041MA1999999102731MD1710111+9999MW1031REMSYN082AAXX  19064 01467 31582 72501 10004 21002 30273 40279 57011 70310 8157/ 333 20004;EQDQ01  00002PRCP99
0161014670999992000031909004+58630+009150FM-12+000799999V0202401N001010300019N0400001N1+00301+00071102731ADDAY121031AY221031GF107991031051008001071999MA1999999102671MD1510061+9999MW1021REMSYN072AAXX  19094 01467 41582 72402 10030 20007 30267 40273 55006 70222 8357/;
0173014670999992000031912004+58630+009150FM-12+000799999V0202401N001010300019N0500001N1+00851-00371102691ADDAY121061AY221061GF107991031051008001071999MA1999999102631MD1810041+9999MW1021REMSYN084AAXX  19124 01467 41584 72402 10085 21037 30263 40269 58004 70222 8357/ 222// 00043;
0161014670999992000031915004+58630+009150FM-12+000799999V0202501N002110300019N0500001N1+01101+00031102541ADDAY121031AY221031GF107991031051008001071999MA1999999102481MD1710151+9999MW1021REMSYN072AAXX  19154 01467 41584 72504 10110 20003 30248 40254 57015 70222 8357/;
0214014670999992000031918004+58630+009150FM-12+000799999V0202501N002110300019N0500001N1+00901+00131102381ADDAA199000091AY121061AY221061GF106991021051008001041011KA1999M+01111MA1999999102321MD1710161+9999MW1011REMSYN082AAXX  19184 01467 31584 62504 10090 20013 30232 40238 57016 70122 82541 333 10111;EQDQ01  00002PRCP99
0161014670999992000032000004+58630+009150FM-12+000799999V0202301N003110300019N0300001N1+00551+00481102131ADDAY121061AY221061GF106991021051008001041011MA1999999102071MD1710181+9999MW1021REMSYN072AAXX  20004 01467 41580 62306 10055 20048 30207 40213 57018 70222 82541;
0161014670999992000032003004+58630+009150FM-12+000799999V0202401N002112200019N0400001N1+00531+00441101961ADDAY121031AY211031GF104991011051008001041011MA1999999101901MD1710171+9999MW1011REMSYN072AAXX  20034 01467 41582 42404 10053 20044 30190 40196 57017 70121 81541;
0214014670999992000032006004+58630+009150FM-12+000799999V0202301N003112200019N0400001N1+00701+00471101861ADDAA199000091AY121061AY211061GF103991011051002501041011KA1999N+00501MA1999999101801MD1710101+9999MW1011REMSYN082AAXX  20064 01467 31382 32306 10070 20047 30180 40186 57010 70121 81541 333 20050;EQDQ01  00002PRCP99
0161014670999992000032009004+58630+009150FM-12+000799999V0202701N006212200019N0500001N1+01041+00571101791ADDAY101031AY201031GF102991011021008001001011MA1999999101731MD1710071+9999MW1011REMSYN072AAXX  20094 01467 41584 22712 10104 20057 30173 40179 57007 70100 81201;
0173014670999992000032012004+58630+009150FM-12+000799999V0202601N006212200019N0500001N1+01301+00471101711ADDAY101061AY201061GF101991011021008001001011MA1999999101651MD1710081+9999MW1011REMSYN084AAXX  20124 01467 41584 12612 10130 20047 30165 40171 57008 70100 81201 222// 00051;
0161014670999992000032015004+58630+009150FM-12+000799999V0202701N006212200019N0500001N1+01261+00361101621ADDAY101031AY201031GF101991011021008001001011MA1999999101561MD1710091+9999MW1021REMSYN072AAXX  20154 01467 41584 12712 10126 20036 30156 40162 57009 70200 81201;
0214014670999992000032018004+58630+009150FM-12+000799999V0203101N004612200019N0500001N1+01101+00151101551ADDAA199000091AY101061AY201061GF101991011041008001001011KA1999M+01321MA1999999101491MD1710071+9999MW1021REMSYN082AAXX  20184 01467 31584 13109 10110 20015 30149 40155 57007 70200 81401 333 10132;EQDQ01  00002PRCP99
0171014670999992000032100004+58630+009150FM-12+000799999V0202601N001012200019N0500001N1+00511+00011101831ADDAY101061AY201061GA1001+999999999GF100991001001999999001001MA1999999101771MD1210141+9999MW1011REMSYN066AAXX  21004 01467 41984 02602 10051 20001 30177 40183 52014 70100;
0171014670999992000032103004+58630+009150FM-12+000799999V0202701N002112200019N0500001N1+00401+00121101761ADDAY101031AY201031GA1001+999999999GF100991001001999999001001MA1999999101701MD1810071+9999MW1021REMSYN066AAXX  21034 01467 41984 02704 10040 20012 30170 40176 58007 70200;
0214014670999992000032106004+58630+009150FM-12+000799999V0202301N001012200019N0500001N1+00351+00151101771ADDAA199000091AY101061AY201061GF102991011011008001001011KA1999N+00351MA1999999101711MD1610091+9999MW1031REMSYN082AAXX  21064 01467 31584 22302 10035 20015 30171 40177 56009 70300 81101 333 20035;EQDQ01  00002PRCP99
0161014670999992000032109004+58630+009150FM-12+000799999V0202201N003112200019N0500001N1+00721+00521101491ADDAY101031AY201031GF102991011051008001041011MA1999999101431MD1710181+9999MW1021REMSYN072AAXX  21094 01467 41584 22206 10072 20052 30143 40149 57018 70200 81541;
0173014670999992000032112004+58630+009150FM-12+000799999V0202401N006212200019N0500001N1+00781+00581101281ADDAY101061AY201061GF102991021021008001001011MA1999999101221MD1710211+9999MW1021REMSYN084AAXX  21124 01467 41584 22412 10078 20058 30122 40128 57021 70200 82201 222// 00051;
0161014670999992000032115004+58630+009150FM-12+000799999V0202701N006212200019N0500001N1+01201+00421101141ADDAY101031AY201031GF103991031021008001001081MA1999999101081MD1610141+9999MW1031REMSYN072AAXX  21154 01467 41584 32712 10120 20042 30108 40114 56014 70300 83208;
0214014670999992000032118004+58630+009150FM-12+000799999V0202701N004612200019N0500001N1+01041+00341101081ADDAA199000091AY101061AY201061GF102991011041008001041011KA1999M+01201MA1999999101021MD1610061+9999MW1011REMSYN082AAXX  21184 01467 31584 22709 10104 20034 30102 40108 56006 70100 81441 333 10120;EQDQ01  00002PRCP99
0161014670999992000032200004+58630+009150FM-12+000799999V0203001N003112200019N0400001N1+00521+00241101201ADDAY101061AY201061GF102991011041008001041001MA1999999101141MD1010021+9999MW1021REMSYN072AAXX  22004 01467 41582 23006 10052 20024 30114 40120 50002 70200 81440;
0161014670999992000032203004+58630+009150FM-12+000799999V0203601N001012200019N0400001N1+00401-00111101241ADDAY101031AY201031GF101991011041008001001001MA1999999101181MD1210041+9999MW1011REMSYN072AAXX  22034 01467 41582 13602 10040 21011 30118 40124 52004 70100 81400;
0214014670999992000032206004+58630+009150FM-12+000799999V0202701N001012200019N0400001N1+00191-00131101271ADDAA199000091AY101061AY201061GF102991001001999999001011KA1999N+00191MA1999999101211MD1210031+9999MW1031REMSYN082AAXX  22064 01467 31982 22702 10019 21013 30121 40127 52003 70300 80001 333 20019;EQDQ01  00002PRCP99
0161014670999992000032209004+58630+009150FM-12+000799999V0203101N001012200019N0400001N1+00371-00501101301ADDAY101031AY201031GF104991011001022501041081MA1999999101241MD1210031+9999MW1031REMSYN072AAXX  22094 01467 41882 43102 10037 21050 30124 40130 52003 70300 81048;
0173014670999992000032212004+58630+009150FM-12+000799999V0202001N003112200019N0400001N1+00491+00031101251ADDAY101061AY201061GF104991001001999999001081MA1999999101191MD1810051+9999MW1021REMSYN084AAXX  22124 01467 41982 42006 10049 20003 30119 40125 58005 70200 80008 222// 00050;
0161014670999992000032215004+58630+009150FM-12+000799999V0202001N003112200019N0400001N1+00581+00311101061ADDAY111031AY201031GF105991011011008001001081MA1999999101001MD1610191+9999MW1031REMSYN072AAXX  22154 01467 41582 52006 10058 20031 30100 40106 56019 70310 81108;
0214014670999992000032218004+58630+009150FM-12+000799999V0202701N001012200019N0400001N1+00781-00041101041ADDAA199000091AY111061AY201061GF102991011041008001041011KA1999M+00851MA1999999100981MD1510021+9999MW1011REMSYN082AAXX  22184 01467 31582 22702 10078 21004 30098 40104 55002 70110 81441 333 10085;EQDQ01  00002PRCP99
0161014670999992000032300004+58630+009150FM-12+000799999V0203101N002112200019N0400001N1+00391-00341101201ADDAY101061AY201061GF102991001001999999001091MA1999999101141MD1110081+9999MW1021REMSYN072AAXX  23004 01467 41982 23104 10039 21034 30114 40120 51008 70200 80009;
0161014670999992000032303004+58630+009150FM-12+000799999V0203101N001012200019N0400001N1+00231-00651101301ADDAY101031AY201031GF101991001001999999001011MA1999999101241MD1210101+9999MW1011REMSYN072AAXX  23034 01467 41982 13102 10023 21065 30124 40130 52010 70100 80001;
0193014670999992000032306004+58630+009150FM-12+000799999V0203501N002112200019N0500001N1+00161-00851101411ADDAA199000091AY101061AY201061GF101991011001022501041001KA1999N+00161MD1210111+9999MW1021REMSYN076AAXX  23064 01467 31884 13504 10016 21085 40141 52011 70200 81040 333 20016;EQDQ01  00002PRCP99
0161014670999992000032309004+58630+009150FM-12+000799999V0203501N001010210019N0500001N1+00361-00661101551ADDAY111031AY201031GF105991051001022501041001MA1999999101491MD1210151+9999MW1031REMSYN072AAXX  23094 01467 41884 53502 10036 21066 30149 40155 52015 70310 85040;
0173014670999992000032312004+58630+009150FM-12+000799999V0202501N001010042019N0500001N1+00521-00901101541ADDAY111061AY201061GF106991051051004501041001MA1999999101481MD1810011+9999MW1031REMSYN084AAXX  23124 01467 41484 62502 10052 21090 30148 40154 58001 70310 85540 222// 00049;
0161014670999992000032315004+58630+009150FM-12+000799999V0202101N002110075019N0500001N1+00481-00231101471ADDAY121031AY211031GF105991051021008001041001MA1999999101411MD1710071+9999MW1011REMSYN072AAXX  23154 01467 41584 52104 10048 21023 30141 40147 57007 70121 85240;
0214014670999992000032318004+58630+009150FM-12+000799999V0203101N001012200019N0500001N1+00561-00691101441ADDAA199000091AY121061AY211061GF101991011011008001001081KA1999M+00641MA1999999101381MD1610031+9999MW1011REMSYN082AAXX  23184 01467 31584 13102 10056 21069 30138 40144 56003 70121 81108 333 10064;EQDQ01  00002PRCP99
0171014670999992000032400004+58630+009150FM-12+000799999V0203601N002112200019N0500001N1+00071-00961101741ADDAY101061AY201061GA1001+999999999GF100991001001999999001001MA1999999101681MD1210151+9999MW1011REMSYN066AAXX  24004 01467 41984 03604 10007 21096 30168 40174 52015 70100;
0161014670999992000032403004+58630+009150FM-12+000799999V0203601N002112200019N0500001N1-00021-01171101781ADDAY111031AY201031GF102991001001999999001051MA1999999101721MD1210041+9999MW1031REMSYN072AAXX  24034 01467 41984 23604 11002 21117 30172 40178 52004 70310 80005;
0230014670999992000032406004+58630+009150FM-12+000799999V0203401N001012200019N0500001N1-00091-00951101831ADDAA199000091AY101061AY201061GF102991001001999999001081KA1999N+99999MA1999999101771MD1110051+9999MW1021REMSYN082AAXX  24064 01467 31984 23402 11009 21095 30177 40183 51005 70200 80008 333 20010;EQDQ01  00002PRCP99Q02 +00102ATMN  
0161014670999992000032409004+58630+009150FM-12+000799999V0200201N001012200019N0500001N1+00201-00841101961ADDAY121031AY211031GF105991031001022501071061MA1999999101901MD1110131+9999MW1031REMSYN072AAXX  24094 01467 41884 50202 10020 21084 30190 40196 51013 70321 83076;
0173014670999992000032412004+58630+009150FM-12+000799999V0200901N002110750019N0500001N1+00351-00701101971ADDAY121061AY201061GF107991041001022501071061MA1999999101911MD1210011+9999MW1031REMSYN084AAXX  24124 01467 41884 70904 10035 21070 30191 40197 52001 70320 84076 222// 00045;
0180014670999992000032415004+58630+009150FM-12+000799999V0200901N001019999999N0500001N1+00361-00511101931ADDAY121031AY201031GF107991001001999999001081MA1999999101871MD1710041+9999MW1021REMSYN072AAXX  24154 01467 41884 70902 10036 21051 30187 40193 57004 70220 80008;EQDQ01+022502SCOLCB
0214014670999992000032418004+58630+009150FM-12+000799999V0200901N000510750019N0500001N1+00321-00541101781ADDAA199000091AY121061AY221061GF107991031001017501021081KA1999M+00451MA1999999101721MD1710151+9999MW1031REMSYN082AAXX  24184 01467 31784 70901 10032 21054 30172 40178 57015 70322 83028 333 10045;EQDQ01  00002PRCP99
0180014670999992000032500004+58630+009150FM-12+000799999V0200201N002112200019N0500001N1+00181-00511101741ADDAY121061AY201061GF103991001001999999001081MA1999999101681MD1710021+9999MW1011REMSYN072AAXX  25004 01467 41884 30204 10018 21051 30168 40174 57002 70120 80008;EQDQ01+022502SCOLCB
0180014670999992000032503004+58630+009150FM-12+000799999V0200201N002112200019N0500001N1+00181-00391101601ADDAY111031AY201031GF103991001001999999001081MA1999999101541MD1710141+9999MW1021REMSYN072AAXX  25034 01467 41884 30204 10018 21039 30154 40160 57014 70210 80008;EQDQ01+022502SCOLCB
0214014670999992000032506004+58630+009150FM-12+000799999V0200601N003110300019N0300001N1+00191-00031101501ADDAA199000091AY121061AY221061GF107991031071012501021091KA1999N+00121MA1999999101441MD1710101+9999MW1031REMSYN082AAXX  25064 01467 31680 70606 10019 21003 30144 40150 57010 70322 83729 333 20012;EQDQ01  00002PRCP99
0161014670999992000032509004+58630+009150FM-12+000799999V0200801N003110300019N0200001N1+00321+00211101441ADDAY121031AY211031GF107991021071008001031021MA1999999101381MD1610061+9999MW1021REMSYN072AAXX  25094 01467 41570 70806 10032 20021 30138 40144 56006 70221 82732;
0173014670999992000032512004+58630+009150FM-12+000799999V0200901N003110300019N0200001N1+00461+00231101351ADDAY121061AY221061GF108991021071008001071081MA1999999101291MD1610091+9999MW1031REMSYN084AAXX  25124 01467 41570 80906 10046 20023 30129 40135 56009 70322 82778 222// 00045;
0161014670999992000032515004+58630+009150FM-12+000799999V0200901N003110300019N0100001N1+00401+00221101231ADDAY121031AY221031GF108991031051008001071999MA1999999101171MD1710121+9999MW1031REMSYN072AAXX  25154 01467 41560 80906 10040 20022 30117 40123 57012 70322 8357/;
0201014670999992000032518004+58630+009150FM-12+000799999V0201101N003110300019N0020001N1+00341+00301101161ADDAA112000591AY161061AY221061GF108991041071004501021999KA1999M+00451MA1999999101101MD1610071+9999MW1601REMSYN088AAXX  25184 01467 11420 81106 10034 20030 30110 40116 56007 69952 76062 8472/ 333 10045;
0161014670999992000032600004+58630+009150FM-12+000799999V0201201N004610300019N0100001N1+00321+00291101161ADDAY161061AY251061GF108991041071004501021999MA1999999101101MD1410001+9999MW1501REMSYN072AAXX  26004 01467 41460 81209 10032 20029 30110 40116 54000 75065 8472/;
0161014670999992000032603004+58630+009150FM-12+000799999V0201101N004610300019N0200001N1+00351+00231101091ADDAY161031AY251031GF108991041071004501021999MA1999999101031MD1710071+9999MW1611REMSYN072AAXX  26034 01467 41470 81109 10035 20023 30103 40109 57007 76165 8472/;
0201014670999992000032606004+58630+009150FM-12+000799999V0200901N003110300019N0100001N1+00301+00261101071ADDAA112000591AY161061AY251061GF108991041071004501021999KA1999N+00301MA1999999101011MD1610021+9999MW1611REMSYN088AAXX  26064 01467 11460 80906 10030 20026 30101 40107 56002 69952 76165 8472/ 333 20030;
0161014670999992000032609004+58630+009150FM-12+000799999V0200601N003110300019N0100001N1+00251+00211101141ADDAY161031AY251031GF108991041071004501021999MA1999999101081MD1210071+9999MW1611REMSYN072AAXX  26094 01467 41460 80606 10025 20021 30108 40114 52007 76165 8472/;
0173014670999992000032612004+58630+009150FM-12+000799999V0200601N003110300019N0200001N1+00341+00211101191ADDAY161061AY251061GF108991031051008001021999MA1999999101131MD1210051+9999MW1601REMSYN084AAXX  26124 01467 41570 80606 10034 20021 30113 40119 52005 76065 8352/ 222// 00042;
0161014670999992000032615004+58630+009150FM-12+000799999V0200301N003110300019N0300001N1+00421+00161101141ADDAY161031AY251031GF108991011051012501031999MA1999999101081MD1710051+9999MW1011REMSYN072AAXX  26154 01467 41680 80306 10042 20016 30108 40114 57005 70165 8153/;
0201014670999992000032618004+58630+009150FM-12+000799999V0200801N003110300019N0300001N1+00441+00211101201ADDAA112000191AY121061AY221061GF108991021051012501071999KA1999M+00441MA1999999101141MD1210061+9999MW1021REMSYN088AAXX  26184 01467 11680 80806 10044 20021 30114 40120 52006 69922 70222 8257/ 333 10044;
0161014670999992000032700004+58630+009150FM-12+000799999V0200901N007710300019N0200001N1+00291+00221101481ADDAY161061AY251061GF108991041071008001021999MA1999999101421MD1210141+9999MW1601REMSYN072AAXX  27004 01467 41570 80915 10029 20022 30142 40148 52014 76065 8472/;
0161014670999992000032703004+58630+009150FM-12+000799999V0200901N009810300019N0050001N1+00151+00111101661ADDAY161031AY251031GF108991041071004501021999MA1999999101601MD1210181+9999MW1631REMSYN072AAXX  27034 01467 41450 80919 10015 20011 30160 40166 52018 76365 8472/;
0201014670999992000032706004+58630+009150FM-12+000799999V0200601N007710300019N0020001N1+00031-00041101881ADDAA112002091AY171061AY261061GF108991041071004501021999KA1999N+00031MA1999999101821MD1210221+9999MW1701REMSYN088AAXX  27064 01467 11420 80615 10003 21004 30182 40188 52022 60022 77076 8472/ 333 20003;
0161014670999992000032709004+58630+009150FM-12+000799999V0200601N007710300019N0100001N1+00091-00271102171ADDAY171031AY221031GF108991031051008001071999MA1999999102111MD1210291+9999MW1011REMSYN072AAXX  27094 01467 41560 80615 10009 21027 30211 40217 52029 70172 8357/;
0173014670999992000032712004+58630+009150FM-12+000799999V0200601N007710300019N0200001N1+00231-00421102321ADDAY171061AY221061GF108991031071017501021999MA1999999102261MD1210151+9999MW1021REMSYN084AAXX  27124 01467 41770 80615 10023 21042 30226 40232 52015 70272 8372/ 222// 00042;
0161014670999992000032715004+58630+009150FM-12+000799999V0200801N004610300019N0400001N1+00391-00531102441ADDAY121031AY221031GF106991011071008001071011MA1999999102381MD1110121+9999MW1011REMSYN072AAXX  27154 01467 41582 60809 10039 21053 30238 40244 51012 70122 81771;
0201014670999992000032718004+58630+009150FM-12+000799999V0200801N004612200019N0500001N1+00441+00021102441ADDAA112000191AY121061AY201061GF101991011091012501001001KA1999M+00441MA1999999102381MD1410001+9999MW1011REMSYN088AAXX  27184 01467 11684 10809 10044 20002 30238 40244 54000 69922 70120 81900 333 10044;
0171014670999992000032800004+58630+009150FM-12+000799999V0203601N002112200019N0750001N1+00141-00811102771ADDAY101061AY201061GA1001+999999999GF100991001001999999001001MA1999999102711MD1210101+9999MW1021REMSYN066AAXX  28004 01467 41989 03604 10014 21081 30271 40277 52010 70200;
0171014670999992000032803004+58630+009150FM-12+000799999V0203601N003112200019N0750001N1+00041-00541102771ADDAY101031AY201031GA1001+999999999GF100991001001999999001001MA1999999102711MD1410001+9999MW1021REMSYN066AAXX  28034 01467 41989 03606 10004 21054 30271 40277 54000 70200;
0214014670999992000032806004+58630+009150FM-12+000799999V0200201N003112200019N0750001N1-00041-00841102801ADDAA199000091AY101061AY201061GF102991001001999999001081KA1999N-00051MA1999999102741MD1210031+9999MW1021REMSYN082AAXX  28064 01467 31989 20206 11004 21084 30274 40280 52003 70200 80008 333 21005;EQDQ01  00002PRCP99
0161014670999992000032809004+58630+009150FM-12+000799999V0200301N003112200019N0750001N1+00141-00881102911ADDAY101031AY201031GF101991001001999999001091MA1999999102851MD1210111+9999MW1021REMSYN072AAXX  28094 01467 41989 10306 10014 21088 30285 40291 52011 70200 80009;
0181014670999992000032812004+58630+009150FM-12+000799999V0200801N002112200019N0750001N1+00321-00731102931ADDAY101061AY201061GF101991001001999999001081MA1999999102871MD1110021+9999MW1021SA1+4009REMSYN084AAXX  28124 01467 41989 10804 10032 21073 30287 40293 51002 70200 80008 222// 00040;
0161014670999992000032815004+58630+009150FM-12+000799999V0200901N001012200019N0750001N1+00401-00891102831ADDAY101031AY201031GF101991011001022501031001MA1999999102771MD1710101+9999MW1021REMSYN072AAXX  28154 01467 41889 10902 10040 21089 30277 40283 57010 70200 81030;
0214014670999992000032818004+58630+009150FM-12+000799999V0200901N000512200019N0750001N1+00421-00881102741ADDAA199000091AY101061AY201061GF101991011001017501051011KA1999M+00421MA1999999102681MD1610091+9999MW1021REMSYN082AAXX  28184 01467 31789 10901 10042 21088 30268 40274 56009 70200 81051 333 10042;EQDQ01  00002PRCP99
0171014670999992000032900004+58630+009150FM-12+000799999V0203101N000512200019N0750001N1+00011-00881102791ADDAY101061AY201061GA1001+999999999GF100991001001999999001001MA1999999102731MD1110021+9999MW1021REMSYN066AAXX  29004 01467 41989 03101 10001 21088 30273 40279 51002 70200;
0171014670999992000032903004+58630+009150FM-12+000799999V0209999C000012200019N0750001N1-00101-00731102731ADDAY101031AY201031GA1001+999999999GF100991001001999999001001MA1999999102671MD1710061+9999MW1021REMSYN066AAXX  29034 01467 41989 00000 11010 21073 30267 40273 57006 70200;
0214014670999992000032906004+58630+009150FM-12+000799999V0209999C000012200019N0750001N1-00141-00601102711ADDAA199000091AY101061AY201061GF102991021001022501031021KA1999N-00141MA1999999102651MD1510021+9999MW1021REMSYN082AAXX  29064 01467 31889 20000 11014 21060 30265 40271 55002 70200 82032 333 21014;EQDQ01  00002PRCP99
0173014670999992000032912004+58630+009150FM-12+000799999V0201701N000512200019N0750001N1+00481+00021102731ADDAY101061AY201061GF101991011001022501031011MA1999999102671MD1210021+9999MW1021REMSYN084AAXX  29124 01467 41889 11701 10048 20002 30267 40273 52002 70200 81031 222// 00046;
0180014670999992000032915004+58630+009150FM-12+000799999V0201801N001012200019N0750001N1+00521-00171102611ADDAY101031AY201031GF101991001001999999001031MA1999999102551MD1610121+9999MW1021REMSYN072AAXX  29154 01467 41889 11802 10052 21017 30255 40261 56012 70200 80003;EQDQ01+022502SCOLCB
0224014670999992000032918004+58630+009150FM-12+000799999V0201801N001012200019N0750001N1+00471-00311102501ADDAA199000091AY101061AY201061GA1001+999999999GF100991001001999999001001KA1999M+00521MA1999999102441MD1210061+9999MW1021REMSYN076AAXX  29184 01467 31989 01802 10047 21031 30244 40250 52006 70200 333 10052;EQDQ01  00002PRCP99
0171014670999992000033000004+58630+009150FM-12+000799999V0209999C000012200019N0750001N1+00101-00081102311ADDAY101061AY201061GA1001+999999999GF100991001001999999001001MA1999999102251MD1710121+9999MW1021REMSYN066AAXX  30004 01467 41989 00000 10010 21008 30225 40231 57012 70200;
0171014670999992000033003004+58630+009150FM-12+000799999V0209999C000012200019N0750001N1+00021-00111102101ADDAY101031AY201031GA1001+999999999GF100991001001999999001001MA1999999102041MD1710211+9999MW1021REMSYN066AAXX  30034 01467 41989 00000 10002 21011 30204 40210 57021 70200;
0214014670999992000033006004+58630+009150FM-12+000799999V0202701N000512200019N0750001N1+00011-00151102021ADDAA199000091AY101061AY201061GF101991011011012501001001KA1999N-00051MA1999999101961MD1610081+9999MW1031REMSYN082AAXX  30064 01467 31689 12701 10001 21015 30196 40202 56008 70300 81100 333 21005;EQDQ01  00002PRCP99
0171014670999992000033009004+58630+009150FM-12+000799999V0202301N002112200019N0750001N1+00361+00101101781ADDAY101031AY201031GA1001+999999999GF100991001001999999001001MA1999999101721MD1710241+9999MW1021REMSYN066AAXX  30094 01467 41989 02304 10036 20010 30172 40178 57024 70200;
0173014670999992000033012004+58630+009150FM-12+000799999V0202301N002112200019N0750001N1+00521+00261101601ADDAY101061AY201061GF101991001001999999001091MA1999999101541MD1710181+9999MW1021REMSYN084AAXX  30124 01467 41989 12304 10052 20026 30154 40160 57018 70200 80009 222// 00046;
0161014670999992000033015004+58630+009150FM-12+000799999V0202001N002112200019N0300001N1+00541+00281101321ADDAY101031AY201031GF102991011001017501041091MA1999999101261MD1710281+9999MW1021REMSYN072AAXX  30154 01467 41780 22004 10054 20028 30126 40132 57028 70200 81049;
0224014670999992000033018004+58630+009150FM-12+000799999V0202301N002110006019N0010001N1+00301+00261101051ADDAA199000091AY141061AY221061GA1091+999999999GF109991091999999999999999KA1999M+00551MA1999999100991MD1710271+9999MW1471REMSYN076AAXX  30184 01467 31/10 92304 10030 20026 30099 40105 57027 74742 333 10055;EQDQ01  00002PRCP99
0171014670999992000033100004+58630+009150FM-12+000799999V0202301N002110012019N0020001N1+00191+00181100721ADDAY141061AY221061GA1091+999999999GF109991091999999999999999MA1999999100661MD1710331+9999MW1101REMSYN066AAXX  31004 01467 41/20 92304 10019 20018 30066 40072 57033 71042;
0161014670999992000033103004+58630+009150FM-12+000799999V0209999C000010012019N0050001N1+00301+00261100511ADDAY141031AY221031GF107991071061001501999999MA1999999100451MD1710211+9999MW1101REMSYN072AAXX  31034 01467 41250 70000 10030 20026 30045 40051 57021 71042 876//;
0214014670999992000033106004+58630+009150FM-12+000799999V0203601N000510012019N0020001N1+00241+00201100351ADDAA199000091AY141061AY221061GF108991081061001501999999KA1999N+00201MA1999999100291MD1710161+9999MW1101REMSYN082AAXX  31064 01467 31220 83601 10024 20020 30029 40035 57016 71042 886// 333 20020;EQDQ01  00002PRCP99
0161014670999992000033109004+58630+009150FM-12+000799999V0203601N000510012019N0020001N1+00291+00261100301ADDAY121031AY221031GF108991081061001501999999MA1999999100241MD1610051+9999MW1101REMSYN072AAXX  31094 01467 41220 83601 10029 20026 30024 40030 56005 71022 886//;
0173014670999992000033112004+58630+009150FM-12+000799999V0200701N000510012019N0020001N1+00401+00361100211ADDAY121061AY221061GF108991081061001501999999MA1999999100151MD1810091+9999MW1101REMSYN084AAXX  31124 01467 41220 80701 10040 20036 30015 40021 58009 71022 886// 222// 00048;
0161014670999992000033115004+58630+009150FM-12+000799999V0200401N000510021019N0060001N1+00501+00461100021ADDAY121031AY221031GF108991081061002501999999MA1999999099961MD1710191+9999MW1101REMSYN072AAXX  31154 01467 41356 80401 10050 20046 39996 40002 57019 71022 886//;
0214014670999992000033118004+58630+009150FM-12+000799999V0209999C000010021019N0100001N1+00501+00461099931ADDAA199000091AY121061AY221061GF108991061061002501021999KA1999M+00501MA1999999099871MD1710091+9999MW1021REMSYN082AAXX  31184 01467 31360 80000 10050 20046 39987 49993 57009 70222 8662/ 333 10050;EQDQ01  00002PRCP99
0161014670999992000040100004+58630+009150FM-12+000799999V0209999C000010300019N0150001N1+00461+00421099881ADDAY121061AY221061GF107991041061002501021999MA1999999099821MD1410001+9999MW1021REMSYN072AAXX  01004 01467 41365 70000 10046 20042 39982 49988 54000 70222 8462/;
0161014670999992000040103004+58630+009150FM-12+000799999V0209999C000010300019N0100001N1+00441+00401099881ADDAY151031AY221031GF107991041061002501021999MA1999999099821MD1410001+9999MW1501REMSYN072AAXX  01034 01467 41360 70000 10044 20040 39982 49988 54000 75052 8462/;
0220014670999992000040106004+58630+009150FM-12+000799999V0203601N001010300019N0200001N1+00421+00381099941ADDAA112000191AY151061AY221061GF108991041071002501071999KA1999N+99999MA1999999099881MD1310061+9999MW1021REMSYN088AAXX  01064 01467 11370 83602 10042 20038 39988 49994 53006 69912 70252 8477/ 333 20050;EQDQ01 +00502ATMN  
0161014670999992000040109004+58630+009150FM-12+000799999V0200301N002110021019N0200001N1+00421+00161100041ADDAY121031AY221031GF108991051071002501071999MA1999999099981MD1110101+9999MW1021REMSYN072AAXX  01094 01467 41370 80304 10042 20016 39998 40004 51010 70222 8577/;
0173014670999992000040112004+58630+009150FM-12+000799999V0200501N002110021019N0200001N1+00521+00341100101ADDAY121061AY221061GF108991051071002501071999MA1999999100041MD1210061+9999MW1021REMSYN084AAXX  01124 01467 41370 80504 10052 20034 30004 40010 52006 70222 8577/ 222// 00048;
0161014670999992000040115004+58630+009150FM-12+000799999V0200501N001010300019N0200001N1+00521+00391100221ADDAY121031AY221031GF108991041071002501021999MA1999999100161MD1210121+9999MW1021REMSYN072AAXX  01154 01467 41370 80502 10052 20039 30016 40022 52012 70222 8472/;
0201014670999992000040118004+58630+009150FM-12+000799999V0203001N000510300019N0200001N1+00501+00401100271ADDAA112000191AY161061AY221061GF108991041071002501021999KA1999M+00521MA1999999100211MD1210051+9999MW1601REMSYN088AAXX  01184 01467 11370 83001 10050 20040 30021 40027 52005 69912 76062 8472/ 333 10052;
0161014670999992000040200004+58630+009150FM-12+000799999V0203601N002110021019N0300001N1+00301+00261100461ADDAY161061AY221061GF108991051071002501021999MA1999999100401MD1110051+9999MW1601REMSYN072AAXX  02004 01467 41380 83604 10030 20026 30040 40046 51005 76062 8572/;
0161014670999992000040203004+58630+009150FM-12+000799999V0200301N003110021019N0200001N1+00281+00241100461ADDAY161031AY221031GF108991051071002501021999MA1999999100401MD1410001+9999MW1601REMSYN072AAXX  02034 01467 41370 80306 10028 20024 30040 40046 54000 76062 8572/;
0201014670999992000040206004+58630+009150FM-12+000799999V0200701N003110021019N0100001N1+00221+00191100511ADDAA112002091AY161061AY251061GF108991081061002501999999KA1999N+00221MA1999999100451MD1310051+9999MW1581REMSYN088AAXX  02064 01467 11360 80706 10022 20019 30045 40051 53005 60022 75865 886// 333 20022;
0161014670999992000040209004+58630+009150FM-12+000799999V0200301N004610021019N0100001N1+00181+00151100621ADDAY171031AY251031GF108991061071002501021999MA1999999100561MD1210111+9999MW1681REMSYN072AAXX  02094 01467 41360 80309 10018 20015 30056 40062 52011 76875 8672/;
0173014670999992000040212004+58630+009150FM-12+000799999V0200301N003110021019N0100001N1+00141+00111100671ADDAY171061AY251061GF108991061071002501021999MA1999999100611MD1110051+9999MW1681REMSYN084AAXX  02124 01467 41360 80306 10014 20011 30061 40067 51005 76875 8672/ 222// 00046;
0161014670999992000040215004+58630+009150FM-12+000799999V0200601N002110021019N0100001N1+00181+00151100621ADDAY171031AY251031GF108991061071002501021999MA1999999100561MD1810051+9999MW1681REMSYN072AAXX  02154 01467 41360 80604 10018 20015 30056 40062 58005 76875 8672/;
0201014670999992000040218004+58630+009150FM-12+000799999V0200601N002110021019N0100001N1+00141+00111100621ADDAA112003091AY171061AY251061GF108991061071002501021999KA1999M+00241MA1999999100561MD1410001+9999MW1021REMSYN088AAXX  02184 01467 11360 80604 10014 20011 30056 40062 54000 60032 70275 8672/ 333 10024;
0161014670999992000040300004+58630+009150FM-12+000799999V0200201N001010300019N0200001N1+00041+00011100591ADDAY121061AY221061GF108991041071002501021999MA1999999100531MD1810051+9999MW1021REMSYN072AAXX  03004 01467 41370 80202 10004 20001 30053 40059 58005 70222 8472/;
0161014670999992000040303004+58630+009150FM-12+000799999V0200201N001010021019N0050001N1+00021-00011100401ADDAY171031AY221031GF108991061071002501021999MA1999999100341MD1710191+9999MW1701REMSYN072AAXX  03034 01467 41350 80202 10002 21001 30034 40040 57019 77072 8672/;
0201014670999992000040306004+58630+009150FM-12+000799999V0200301N001010021019N0015001N1+00021-00011100221ADDAA112006191AY171061AY221061GF108991061071002501021999KA1999N+00001MA1999999100161MD1710181+9999MW1701REMSYN088AAXX  03064 01467 11315 80302 10002 21001 30016 40022 57018 60062 77072 8672/ 333 20000;
0161014670999992000040309004+58630+009150FM-12+000799999V0203601N001010021019N0050001N1+00121+00111100051ADDAY171031AY261031GF108991081071002501999999MA1999999099991MD1710171+9999MW1601REMSYN072AAXX  03094 01467 41350 83602 10012 20011 39999 40005 57017 76076 887//;
0173014670999992000040312004+58630+009150FM-12+000799999V0203601N001010021019N0100001N1+00161+00151100001ADDAY171061AY261061GF108991081071002501999999MA1999999099941MD1710051+9999MW1601REMSYN084AAXX  03124 01467 41360 83602 10016 20015 39994 40000 57005 76076 887// 222// 00044;
0161014670999992000040315004+58630+009150FM-12+000799999V0203601N001010021019N0100001N1+00181+00171099921ADDAY161031AY221031GF108991081071002501999999MA1999999099861MD1810081+9999MW1601REMSYN072AAXX  03154 01467 41360 83602 10018 20017 39986 49992 58008 76062 887//;
0201014670999992000040318004+58630+009150FM-12+000799999V0203601N002110300019N0200001N1+00141+00111099911ADDAA112011991AY161061AY221061GF108991041071002501021999KA1999M+00181MA1999999099851MD1610011+9999MW1021REMSYN088AAXX  03184 01467 11370 83604 10014 20011 39985 49991 56001 60122 70262 8472/ 333 10018;
0161014670999992000040400004+58630+009150FM-12+000799999V0200501N002110021019N0060001N1+00011+00001099791ADDAY171061AY221061GF108991061071002501021999MA1999999099731MD1710031+9999MW1721REMSYN072AAXX  04004 01467 41356 80504 10001 20000 39973 49979 57003 77272 8672/;
0161014670999992000040403004+58630+009150FM-12+000799999V0203601N002110021019N0050001N1-00061-00071099641ADDAY171031AY221031GF108991081071002501999999MA1999999099581MD1710151+9999MW1721REMSYN072AAXX  04034 01467 41350 83604 11006 21007 39958 49964 57015 77272 887//;
0201014670999992000040406004+58630+009150FM-12+000799999V0203601N003110021019N0050001N1-00081-00121099581ADDAA112006191AY171061AY221061GF108991081071002501999999KA1999N-00081MA1999999099521MD1510061+9999MW1701REMSYN088AAXX  04064 01467 11350 83606 11008 21012 39952 49958 55006 60062 77072 887// 333 21008;
0161014670999992000040409004+58630+009150FM-12+000799999V0200101N003110021019N0050001N1-00071-00101099491ADDAY171031AY221031GF108991081071002501999999MA1999999099431MD1610091+9999MW1701REMSYN072AAXX  04094 01467 41350 80106 11007 21010 39943 49949 56009 77072 887//;
0173014670999992000040412004+58630+009150FM-12+000799999V0200101N003110021019N0050001N1-00051-00081099511ADDAY171061AY221061GF108991081071002501999999MA1999999099451MD1310021+9999MW1711REMSYN084AAXX  04124 01467 41350 80106 11005 21008 39945 49951 53002 77172 887// 222// 00045;
0161014670999992000040415004+58630+009150FM-12+000799999V0203601N003110021019N0060001N1+00011-00031099581ADDAY171031AY221031GF108991081071002501999999MA1999999099521MD1210071+9999MW1711REMSYN072AAXX  04154 01467 41356 83606 10001 21003 39952 49958 52007 77172 887//;
0201014670999992000040418004+58630+009150FM-12+000799999V0203601N002112200019N0500001N1+00111-00081099671ADDAA112007191AY171061AY211061GF102991011061002501041021KA1999M+00111MA1999999099611MD1210091+9999MW1011REMSYN088AAXX  04184 01467 11384 23604 10011 21008 39961 49967 52009 60072 70171 81642 333 10011;
0171014670999992000040500004+58630+009150FM-12+000799999V0203301N001012200019N0750001N1-00221-00691099941ADDAY101061AY201061GA1001+999999999GF100991001001999999001001MA1999999099881MD1210101+9999MW1021REMSYN066AAXX  05004 01467 41989 03302 11022 21069 39988 49994 52010 70200;
0171014670999992000040503004+58630+009150FM-12+000799999V0203401N002112200019N0500001N1-00311-00781100081ADDAY101031AY201031GA1001+999999999GF100991001001999999001001MA1999999100021MD1210141+9999MW1021REMSYN066AAXX  05034 01467 41984 03404 11031 21078 30002 40008 52014 70200;
0214014670999992000040506004+58630+009150FM-12+000799999V0203301N002112200019N0500001N1-00291-00831100331ADDAA199000091AY101061AY201061GF101991011041004501001001KA1999N-00371MA1999999100271MD1210251+9999MW1021REMSYN082AAXX  05064 01467 31484 13304 11029 21083 30027 40033 52025 70200 81400 333 21037;EQDQ01  00002PRCP99
0171014670999992000040509004+58630+009150FM-12+000799999V0203001N001012200019N0750001N1+00141-00691100701ADDAY101031AY201031GA1001+999999999GF100991001001999999001001MA1999999100641MD1210371+9999MW1021REMSYN066AAXX  05094 01467 41989 03002 10014 21069 30064 40070 52037 70200;
0191014670999992000040512004+58630+009150FM-12+000799999V0203301N002112200019N0750001N1+00461-00811100891ADDAY101061AY201061GA1001+999999999GF100991001001999999001001MA1999999100831MD1210191+9999MW1021SA1+3509REMSYN078AAXX  05124 01467 41989 03304 10046 21081 30083 40089 52019 70200 222// 00035;
0171014670999992000040515004+58630+009150FM-12+000799999V0203001N002112200019N0750001N1+00521-00901101051ADDAY101031AY201031GA1001+999999999GF100991001001999999001001MA1999999100991MD1210161+9999MW1021REMSYN066AAXX  05154 01467 41989 03004 10052 21090 30099 40105 52016 70200;
0201014670999992000040518004+58630+009150FM-12+000799999V0202701N000512200019N0750001N1+00501-01021101341ADDAA199000091AY101061AY201061GA1001+999999999GF100991001001999999001001MA1999999101281MD1210291+9999MW1021REMSYN066AAXX  05184 01467 31989 02701 10050 21102 30128 40134 52029 70200;EQDQ01  00002PRCP99
0161014670999992000040600004+58630+009150FM-12+000799999V0203301N002112200019N0500001N1+00171-00191101761ADDAY101061AY201061GF101991011041008001001001MA1999999101701MD1210081+9999MW1021REMSYN072AAXX  06004 01467 41584 13304 10017 21019 30170 40176 52008 70200 81400;
0161014670999992000040603004+58630+009150FM-12+000799999V0209999C000012200019N0500001N1+00101-00331101891ADDAY111031AY201031GF103991011041008001001091MA1999999101831MD1210131+9999MW1031REMSYN072AAXX  06034 01467 41584 30000 10010 21033 30183 40189 52013 70310 81409;
0214014670999992000040606004+58630+009150FM-12+000799999V0202701N001010300019N0500001N1+00141-00021101941ADDAA199000091AY121061AY211061GF106991031051008001031091KA1999N+00051MA1999999101881MD1310051+9999MW1031REMSYN082AAXX  06064 01467 31584 62702 10014 21002 30188 40194 53005 70321 83539 333 20005;EQDQ01  00002PRCP99
0161014670999992000040609004+58630+009150FM-12+000799999V0202501N001010300019N0500001N1+00341+00221101971ADDAY121031AY221031GF106991031051008001071081MA1999999101911MD1210021+9999MW1021REMSYN072AAXX  06094 01467 41584 62502 10034 20022 30191 40197 52002 70222 83578;
0173014670999992000040612004+58630+009150FM-12+000799999V0202701N003112200019N0500001N1+01071+00251101911ADDAY121061AY211061GF104991021041008001041081MA1999999101851MD1810061+9999MW1011REMSYN084AAXX  06124 01467 41584 42706 10107 20025 30185 40191 58006 70121 82448 222// 00044;
0161014670999992000040615004+58630+009150FM-12+000799999V0202701N003112200019N0500001N1+01251+00121101961ADDAY101031AY201031GF103991011011008001041081MA1999999101901MD1310051+9999MW1011REMSYN072AAXX  06154 01467 41584 32706 10125 20012 30190 40196 53005 70100 81148;
0214014670999992000040618004+58630+009150FM-12+000799999V0202701N002112200019N0500001N1+01151+00111102091ADDAA199000091AY101061AY201061GF103991011041008001041091KA1999M+01251MA1999999102031MD1210131+9999MW1021REMSYN082AAXX  06184 01467 31584 32704 10115 20011 30203 40209 52013 70200 81449 333 10125;EQDQ01  00002PRCP99
0161014670999992000040700004+58630+009150FM-12+000799999V0203301N000512200019N0500001N1+00701+00361102521ADDAY101061AY201061GF101991011001017501041001MA1999999102461MD1210201+9999MW1021REMSYN072AAXX  07004 01467 41784 13301 10070 20036 30246 40252 52020 70200 81040;
0161014670999992000040703004+58630+009150FM-12+000799999V0203301N000512200019N0500001N1+00531+00161102661ADDAY101031AY201031GF101991011001012501041001MA1999999102601MD1210141+9999MW1021REMSYN072AAXX  07034 01467 41684 13301 10053 20016 30260 40266 52014 70200 81040;
0214014670999992000040706004+58630+009150FM-12+000799999V0200201N000512200019N0500001N1+00321+00141102831ADDAA199000091AY101061AY201061GF101991011001012501041001KA1999N+00321MA1999999102771MD1210171+9999MW1021REMSYN082AAXX  07064 01467 31684 10201 10032 20014 30277 40283 52017 70200 81040 333 20032;EQDQ01  00002PRCP99
0173014670999992000040712004+58630+009150FM-12+000799999V0200901N000512200019N0500001N1+00501+00371102971ADDAY101061AY201061GF102991011041008001031011MA1999999102911MD1410001+9999MW1021REMSYN084AAXX  07124 01467 41584 20901 10050 20037 30291 40297 54000 70200 81431 222// 00046;
0161014670999992000040715004+58630+009150FM-12+000799999V0201501N001012200019N0500001N1+00571+00401102891ADDAY101031AY201031GF102991011011008001041021MA1999999102831MD1810081+9999MW1021REMSYN072AAXX  07154 01467 41584 21502 10057 20040 30283 40289 58008 70200 81142;
0214014670999992000040718004+58630+009150FM-12+000799999V0202401N001012200019N0500001N1+00491+00431102741ADDAA199000091AY101061AY201061GF103991021051008001071021KA1999M+00571MA1999999102681MD1710151+9999MW1031REMSYN082AAXX  07184 01467 31584 32402 10049 20043 30268 40274 57015 70300 82572 333 10057;EQDQ01  00002PRCP99
0161014670999992000040800004+58630+009150FM-12+000799999V0203301N001012200019N0500001N1+00221+00191102601ADDAY101061AY201061GF103991021041008001041001MA1999999102541MD1810061+9999MW1021REMSYN072AAXX  08004 01467 41584 33302 10022 20019 30254 40260 58006 70200 82440;
0161014670999992000040803004+58630+009150FM-12+000799999V0200501N001010300019N0300001N1+00321+00311102451ADDAY121031AY201031GF108991031051008001071999MA1999999102391MD1710151+9999MW1031REMSYN072AAXX  08034 01467 41580 80502 10032 20031 30239 40245 57015 70320 8357/;
0224014670999992000040806004+58630+009150FM-12+000799999V0203601N000510003019N0004001N1+00311+00301102401ADDAA199000091AY141061AY221061GA1091+999999999GF109991091999999999999999KA1999N+00181MA1999999102341MD1710051+9999MW1431REMSYN076AAXX  08064 01467 31/04 93601 10031 20030 30234 40240 57005 74342 333 20018;EQDQ01  00002PRCP99
0161014670999992000040809004+58630+009150FM-12+000799999V0200901N000510300019N0250001N1+00401+00361102421ADDAY161031AY241031GF108991021061002501021999MA1999999102361MD1310021+9999MW1621REMSYN072AAXX  08094 01467 41375 80901 10040 20036 30236 40242 53002 76264 8262/;
0173014670999992000040812004+58630+009150FM-12+000799999V0200901N003110300019N0250001N1+00481+00471102421ADDAY161061AY221061GF108991021061002501071999MA1999999102361MD1410001+9999MW1021REMSYN084AAXX  08124 01467 41375 80906 10048 20047 30236 40242 54000 70262 8267/ 222// 00042;
0161014670999992000040815004+58630+009150FM-12+000799999V0200901N002110300019N0250001N1+00501+00441102421ADDAY121031AY221031GF108991041071004501051999MA1999999102361MD1410001+9999MW1021REMSYN072AAXX  08154 01467 41475 80904 10050 20044 30236 40242 54000 70222 8475/;
0211014670999992000040818004+58630+009150FM-12+000799999V0200701N000510006019N0007001N1+00491+00481102411ADDAA112000191AY141061AY221061GA1091+999999999GF109991091999999999999999KA1999M+00561MA1999999102351MD1810011+9999MW1471REMSYN082AAXX  08184 01467 11/07 90701 10049 20048 30235 40241 58001 69912 74742 333 10056;
0161014670999992000040900004+58630+009150FM-12+000799999V0203601N000512200019N0280001N1+00211+00201102561ADDAY141061AY211061GF101991011041004501001091MA1999999102501MD1310031+9999MW1011REMSYN072AAXX  09004 01467 41478 13601 10021 20020 30250 40256 53003 70141 81409;
0224014670999992000040906004+58630+009150FM-12+000799999V0203601N000512200019N0650001N1+00271+00181102501ADDAA199000091AY101061AY201061GA1001+999999999GF100991001001999999001001KA1999N+00151MA1999999102441MD1710041+9999MW1021REMSYN076AAXX  09064 01467 31987 03601 10027 20018 30244 40250 57004 70200 333 20015;EQDQ01  00002PRCP99
0161014670999992000040909004+58630+009150FM-12+000799999V0201401N001012200019N0650001N1+00511+00421102461ADDAY101031AY201031GF101991011011008001001001MA1999999102401MD1710041+9999MW1031REMSYN072AAXX  09094 01467 41587 11402 10051 20042 30240 40246 57004 70300 81100;
0192014670999992000040912004+58630+009150FM-12+000799999V0201701N001019999999N0500001N1+00581+00411102391ADDAY121061AY201061GF105991999051004501001001MA1999999102331MD1710071+9999MW1031REMSYN084AAXX  09124 01467 41484 51702 10058 20041 30233 40239 57007 70320 83500 222// 00049;EQDQ01+000032SCOTLC
0161014670999992000040915004+58630+009150FM-12+000799999V0202101N001010300019N0300001N1+00631+00291102301ADDAY121031AY221031GF106991031051008001031081MA1999999102241MD1710091+9999MW1031REMSYN072AAXX  09154 01467 41580 62102 10063 20029 30224 40230 57009 70322 83538;
0214014670999992000040918004+58630+009150FM-12+000799999V0202401N000512200019N0500001N1+00671+00371102011ADDAA199000091AY121061AY201061GF101991011041008001001041KA1999M+00731MA1999999101951MD1710291+9999MW1011REMSYN082AAXX  09184 01467 31584 12401 10067 20037 30195 40201 57029 70120 81404 333 10073;EQDQ01  00002PRCP99
0171014670999992000041000004+58630+009150FM-12+000799999V0202801N000512200019N0400001N1+00401+00331101881ADDAY101061AY201061GA1001+999999999GF100991001001999999001001MA1999999101821MD1710031+9999MW1011REMSYN066AAXX  10004 01467 41982 02801 10040 20033 30182 40188 57003 70100;
0214014670999992000041006004+58630+009150FM-12+000799999V0203301N000512200019N0500001N1+00231+00051101651ADDAA199000091AY101061AY201061GF101991011041008001001081KA1999N+00231MA1999999101591MD1710111+9999MW1031REMSYN082AAXX  10064 01467 31584 13301 10023 20005 30159 40165 57011 70300 81408 333 20023;EQDQ01  00002PRCP99
0161014670999992000041009004+58630+009150FM-12+000799999V0201701N000512200019N0500001N1+00491+00361101631ADDAY101031AY201031GF101991011001012501041081MA1999999101571MD1710021+9999MW1021REMSYN072AAXX  10094 01467 41684 11701 10049 20036 30157 40163 57002 70200 81048;
0173014670999992000041012004+58630+009150FM-12+000799999V0201801N000512200019N0500001N1+00621+00391101431ADDAY101061AY201061GF101991011001012501041081MA1999999101371MD1710201+9999MW1021REMSYN084AAXX  10124 01467 41684 11801 10062 20039 30137 40143 57020 70200 81048 222// 00053;
0161014670999992000041015004+58630+009150FM-12+000799999V0202401N003112200019N0500001N1+00691+00511101131ADDAY101031AY201031GF101991001001999999001081MA1999999101071MD1710301+9999MW1021REMSYN072AAXX  10154 01467 41984 12406 10069 20051 30107 40113 57030 70200 80008;
0214014670999992000041018004+58630+009150FM-12+000799999V0202401N003112200019N0280001N1+00581+00521100861ADDAA199000091AY101061AY201061GF101991011001012501041081KA1999M+00691MA1999999100801MD1710271+9999MW1021REMSYN082AAXX  10184 01467 31678 12406 10058 20052 30080 40086 57027 70200 81048 333 10069;EQDQ01  00002PRCP99
0161014670999992000041100004+58630+009150FM-12+000799999V0202201N003110042019N0220001N1+00421+00381100541ADDAY121061AY211061GF108991081051004501999999MA1999999100481MD1710161+9999MW1031REMSYN072AAXX  11004 01467 41472 82206 10042 20038 30048 40054 57016 70321 885//;
0161014670999992000041103004+58630+009150FM-12+000799999V0202401N000510042019N0220001N1+00421+00381100341ADDAY121031AY221031GF108991081051004501999999MA1999999100281MD1710201+9999MW1021REMSYN072AAXX  11034 01467 41472 82401 10042 20038 30028 40034 57020 70222 885//;
0214014670999992000041106004+58630+009150FM-12+000799999V0200601N000510042019N0250001N1+00421+00381100241ADDAA199000091AY121061AY221061GF108991081051004501999999KA1999N+00391MA1999999100181MD1710101+9999MW1021REMSYN082AAXX  11064 01467 31475 80601 10042 20038 30018 40024 57010 70222 885// 333 20039;EQDQ01  00002PRCP99
0161014670999992000041109004+58630+009150FM-12+000799999V0200901N000510300019N0200001N1+00501+00461100211ADDAY161031AY221031GF108991041071004501021999MA1999999100151MD1610031+9999MW1601REMSYN072AAXX  11094 01467 41470 80901 10050 20046 30015 40021 56003 76062 8472/;
0173014670999992000041112004+58630+009150FM-12+000799999V0201001N001010300019N0100001N1+00561+00521100181ADDAY161061AY221061GF108991031051004501071999MA1999999100121MD1710031+9999MW1021REMSYN084AAXX  11124 01467 41460 81002 10056 20052 30012 40018 57003 70262 8357/ 222// 00050;
0161014670999992000041115004+58630+009150FM-12+000799999V0200901N002110042019N0080001N1+00561+00521100141ADDAY121031AY221031GF108991081051004501999999MA1999999100081MD1810041+9999MW1101REMSYN072AAXX  11154 01467 41458 80904 10056 20052 30008 40014 58004 71022 885//;
0195014670999992000041118004+58630+009150FM-12+000799999V0200701N001010021019N0050001N1+00541+99999100151ADDAA112000191AY161061AY221061GF108991081061002501999999KA1999M+00571MA1999999100091MD1310011+9999MW1101REMSYN082AAXX  11184 01467 11350 80702 10054 30009 40015 53001 69922 71062 886// 333 10057;
0161014670999992000041200004+58630+009150FM-12+000799999V0200601N003110300019N0100001N1+00501+00491100201ADDAY161061AY221061GF108991041071004501021999MA1999999100141MD1310021+9999MW1621REMSYN072AAXX  12004 01467 41460 80606 10050 20049 30014 40020 53002 76262 8472/;
0161014670999992000041203004+58630+009150FM-12+000799999V0200201N002110042019N0100001N1+00401+00361100091ADDAY161031AY251031GF108991081061004501999999MA1999999100031MD1810111+9999MW1511REMSYN072AAXX  12034 01467 41460 80204 10040 20036 30003 40009 58011 75165 886//;
0201014670999992000041206004+58630+009150FM-12+000799999V0200301N003110042019N0120001N1+00401+00361100081ADDAA112001091AY161061AY251061GF108991081051004501999999KA1999N+00401MA1999999100021MD1610011+9999MW1521REMSYN088AAXX  12064 01467 11462 80306 10040 20036 30002 40008 56001 60012 75265 885// 333 20040;
0161014670999992000041209004+58630+009150FM-12+000799999V0200601N004612200019N0250001N1+00531+00441100071ADDAY121031AY201031GF104991031061004501051031MA1999999100011MD1610011+9999MW1011REMSYN072AAXX  12094 01467 41475 40609 10053 20044 30001 40007 56001 70120 83653;
0173014670999992000041212004+58630+009150FM-12+000799999V0200601N004610300019N0250001N1+00581+00491099971ADDAY161061AY221061GF108991041051004501021999MA1999999099911MD1710101+9999MW1621REMSYN084AAXX  12124 01467 41475 80609 10058 20049 39991 49997 57010 76262 8452/ 222// 00053;
0161014670999992000041215004+58630+009150FM-12+000799999V0200601N003110042019N0250001N1+00571+00511099771ADDAY161031AY221031GF108991061051004501021999MA1999999099711MD1710201+9999MW1621REMSYN072AAXX  12154 01467 41475 80606 10057 20051 39971 49977 57020 76262 8652/;
0201014670999992000041218004+58630+009150FM-12+000799999V0200701N004610042019N0200001N1+00551+00541099741ADDAA112003091AY161061AY221061GF108991061051004501021999KA1999M+00621MA1999999099681MD1710031+9999MW1631REMSYN088AAXX  12184 01467 11470 80709 10055 20054 39968 49974 57003 60032 76362 8652/ 333 10062;
0161014670999992000041300004+58630+009150FM-12+000799999V0200301N003110300019N0100001N1+00481+00441099571ADDAY161061AY261061GF108991041071004501021999MA1999999099511MD1710111+9999MW1611REMSYN072AAXX  13004 01467 41460 80306 10048 20044 39951 49957 57011 76166 8472/;
0161014670999992000041303004+58630+009150FM-12+000799999V0200401N002110300019N0100001N1+00411+00401099381ADDAY161031AY251031GF108991041071004501021999MA1999999099321MD1710191+9999MW1581REMSYN072AAXX  13034 01467 41460 80404 10041 20040 39932 49938 57019 75865 8472/;
0201014670999992000041306004+58630+009150FM-12+000799999V0200301N003110300019N0200001N1+00371+00331099221ADDAA112008991AY161061AY251061GF108991041071004501021999KA1999N+00341MA1999999099161MD1710161+9999MW1601REMSYN088AAXX  13064 01467 11470 80306 10037 20033 39916 49922 57016 60092 76065 8472/ 333 20034;
0161014670999992000041309004+58630+009150FM-12+000799999V0200301N003110300019N0250001N1+00371+00311099161ADDAY161031AY221031GF108991041051008001071999MA1999999099101MD1710061+9999MW1021REMSYN072AAXX  13094 01467 41575 80306 10037 20031 39910 49916 57006 70262 8457/;
0173014670999992000041312004+58630+009150FM-12+000799999V0200301N003110042019N0150001N1+00401+00341099021ADDAY161061AY221061GF108991051071004501021999MA1999999098961MD1710141+9999MW1631REMSYN084AAXX  13124 01467 41465 80306 10040 20034 39896 49902 57014 76362 8572/ 222// 00051;
0161014670999992000041315004+58630+009150FM-12+000799999V0200201N007710042019N0120001N1+00431+00391098921ADDAY161031AY261031GF108991051071004501021999MA1999999098861MD1610101+9999MW1631REMSYN072AAXX  13154 01467 41462 80215 10043 20039 39886 49892 56010 76366 8572/;
0201014670999992000041318004+58630+009150FM-12+000799999V0203601N002110042019N0120001N1+00401+00361098961ADDAA112011991AY161061AY261061GF108991051071004501021999KA1999M+00471MA1999999098901MD1310041+9999MW1631REMSYN088AAXX  13184 01467 11462 83604 10040 20036 39890 49896 53004 60122 76366 8572/ 333 10047;
0161014670999992000041400004+58630+009150FM-12+000799999V0200201N003110042019N0200001N1+00491+00451099081ADDAY161061AY221061GF108991051071004501021999MA1999999099021MD1210041+9999MW1621REMSYN072AAXX  14004 01467 41470 80206 10049 20045 39902 49908 52004 76262 8572/;
0161014670999992000041403004+58630+009150FM-12+000799999V0203601N001010075019N0300001N1+00521+00431099121ADDAY161031AY221031GF108991081051008001999999MA1999999099061MD1210041+9999MW1021REMSYN072AAXX  14034 01467 41580 83602 10052 20043 39906 49912 52004 70262 885//;
0201014670999992000041406004+58630+009150FM-12+000799999V0203601N001010075019N0300001N1+00521+00431099191ADDAA112003091AY161061AY221061GF108991081051008001999999KA1999N+00401MA1999999099131MD1210071+9999MW1021REMSYN088AAXX  14064 01467 11580 83602 10052 20043 39913 49919 52007 60032 70262 885// 333 20040;
0161014670999992000041409004+58630+009150FM-12+000799999V0200201N001010075019N0300001N1+00641+00501099291ADDAY121031AY221031GF108991081051008001999999MA1999999099231MD1210101+9999MW1021REMSYN072AAXX  14094 01467 41580 80202 10064 20050 39923 49929 52010 70222 885//;
0161014670999992000041415004+58630+009150FM-12+000799999V0202101N001010300019N0400001N1+00601+00461099411ADDAY121031AY221031GF108991031051008001071999MA1999999099351MD1110051+9999MW1021REMSYN072AAXX  14154 01467 41582 82102 10060 20046 39935 49941 51005 70222 8357/;
0214014670999992000041418004+58630+009150FM-12+000799999V0202301N001010300019N0400001N1+00571+00481099461ADDAA199000091AY121061AY221061GF107991021051008001071999KA1999M+00701MA1999999099401MD1210051+9999MW1101REMSYN082AAXX  14184 01467 31582 72302 10057 20048 39940 49946 52005 71022 8257/ 333 10070;EQDQ01  00002PRCP99
0161014670999992000041500004+58630+009150FM-12+000799999V0202401N001010300019N0300001N1+00521+00481099531ADDAY121061AY221061GF108991031051008001071999MA1999999099471MD1210041+9999MW1031REMSYN072AAXX  15004 01467 41580 82402 10052 20048 39947 49953 52004 70322 8357/;
0161014670999992000041503004+58630+009150FM-12+000799999V0202401N001010075019N0300001N1+00501+00461099461ADDAY121031AY221031GF108991051051008001071999MA1999999099401MD1810071+9999MW1021REMSYN072AAXX  15034 01467 41580 82402 10050 20046 39940 49946 58007 70222 8557/;
0201014670999992000041506004+58630+009150FM-12+000799999V0202401N001012200019N0400001N1+00391+00351099481ADDAA112000591AY181061AY211061GF104991021091008001071001KA1999N+00391MA1999999099421MD1310021+9999MW1011REMSYN088AAXX  15064 01467 11582 42402 10039 20035 39942 49948 53002 69942 70181 82970 333 20039;
0161014670999992000041509004+58630+009150FM-12+000799999V0203001N001012200019N0500001N1+00661+00091099521ADDAY101031AY201031GF101991011011008001041001MA1999999099461MD1310041+9999MW1011REMSYN072AAXX  15094 01467 41584 13002 10066 20009 39946 49952 53004 70100 81140;
0203014670999992000041512004+58630+009150FM-12+000799999V0202201N003112200019N0500001N1+00711+00301099611ADDAA199000091AY101061AY201061GF104991041021008001001001MA1999999099551MD1210091+9999MW1031REMSYN084AAXX  15124 01467 31584 42206 10071 20030 39955 49961 52009 70300 84200 222// 00062;EQDQ01  00002PRCP99
0161014670999992000041515004+58630+009150FM-12+000799999V0202301N004612200019N0500001N1+00651+00451099711ADDAY101031AY201031GF103991021021008001001081MA1999999099651MD1110101+9999MW1011REMSYN072AAXX  15154 01467 41584 32309 10065 20045 39965 49971 51010 70100 82208;
0214014670999992000041518004+58630+009150FM-12+000799999V0202201N004612200019N0500001N1+00601+00401099821ADDAA199000091AY101061AY201061GF101991011041008001041081KA1999M+00891MA1999999099761MD1210111+9999MW1011REMSYN082AAXX  15184 01467 31584 12209 10060 20040 39976 49982 52011 70100 81448 333 10089;EQDQ01  00002PRCP99
0171014670999992000041600004+58630+009150FM-12+000799999V0203601N000512200019N0500001N1+00261+00201100061ADDAY101061AY201061GA1001+999999999GF100991001001999999001001MA1999999100001MD1210121+9999MW1011REMSYN066AAXX  16004 01467 41984 03601 10026 20020 30000 40006 52012 70100;
0161014670999992000041603004+58630+009150FM-12+000799999V0203601N001010075019N0400001N1+00271+00231100101ADDAY121031AY211031GF108991081051008001999999MA1999999100041MD1110041+9999MW1031REMSYN072AAXX  16034 01467 41582 83602 10027 20023 30004 40010 51004 70321 885//;
0214014670999992000041606004+58630+009150FM-12+000799999V0200201N002110075019N0300001N1+00361+00301100131ADDAA199000091AY121061AY211061GF108991081051008001999999KA1999N+00191MA1999999100071MD1310031+9999MW1021REMSYN082AAXX  16064 01467 31580 80204 10036 20030 30007 40013 53003 70221 885// 333 20019;EQDQ01  00002PRCP99
0161014670999992000041609004+58630+009150FM-12+000799999V0200201N003110300019N0220001N1+00321+00251100151ADDAY161031AY221031GF108991041071008001021999MA1999999100091MD1110021+9999MW1611REMSYN072AAXX  16094 01467 41572 80206 10032 20025 30009 40015 51002 76162 8472/;
0173014670999992000041612004+58630+009150FM-12+000799999V0200201N003110042019N0150001N1+00251+00211100001ADDAY161061AY221061GF108991081071004501999999MA1999999099941MD1810151+9999MW1611REMSYN084AAXX  16124 01467 41465 80206 10025 20021 39994 40000 58015 76162 887// 222// 00050;
0161014670999992000041615004+58630+009150FM-12+000799999V0200201N003110300019N0180001N1+00361+00321099951ADDAY161031AY261031GF108991041071004501021999MA1999999099891MD1810051+9999MW1611REMSYN072AAXX  16154 01467 41468 80206 10036 20032 39989 49995 58005 76166 8472/;
0201014670999992000041618004+58630+009150FM-12+000799999V0200201N002110042019N0100001N1+00361+00321099921ADDAA112004191AY161061AY221061GF108991051071004501021999KA1999M+00381MA1999999099861MD1710031+9999MW1601REMSYN088AAXX  16184 01467 11460 80204 10036 20032 39986 49992 57003 60042 76062 8572/ 333 10038;
0161014670999992000041700004+58630+009150FM-12+000799999V0203601N001010042019N0100001N1+00341+00301099971ADDAY161061AY261061GF108991081071004501999999MA1999999099911MD1210031+9999MW1611REMSYN072AAXX  17004 01467 41460 83602 10034 20030 39991 49997 52003 76166 887//;
0161014670999992000041703004+58630+009150FM-12+000799999V0203601N000510042019N0280001N1+00341+00301099991ADDAY161031AY221031GF108991081051004501999999MA1999999099931MD1210021+9999MW1021REMSYN072AAXX  17034 01467 41478 83601 10034 20030 39993 49999 52002 70262 885//;
0201014670999992000041706004+58630+009150FM-12+000799999V0200201N001010075019N0300001N1+00361+00321100111ADDAA112001091AY161061AY221061GF108991081051008001999999KA1999N+00341MA1999999100051MD1210121+9999MW1021REMSYN088AAXX  17064 01467 11580 80202 10036 20032 30005 40011 52012 60012 70262 885// 333 20034;
0161014670999992000041709004+58630+009150FM-12+000799999V0200301N001010300019N0220001N1+00441+00401100231ADDAY181031AY221031GF108991041091002501071999MA1999999100171MD1210121+9999MW1251REMSYN072AAXX  17094 01467 41372 80302 10044 20040 30017 40023 52012 72582 8497/;
0173014670999992000041712004+58630+009150FM-12+000799999V0200701N001010300019N0060001N1+00601+00571100301ADDAY181061AY221061GF108991041061001501071999MA1999999100241MD1210071+9999MW1101REMSYN084AAXX  17124 01467 41256 80702 10060 20057 30024 40030 52007 71082 8467/ 222// 00053;
0161014670999992000041715004+58630+009150FM-12+000799999V0200301N002110042019N0060001N1+00551+00511100131ADDAY161031AY221031GF108991081071004501999999MA1999999100071MD1810171+9999MW1631REMSYN072AAXX  17154 01467 41456 80304 10055 20051 30007 40013 58017 76362 887//;
0201014670999992000041718004+58630+009150FM-12+000799999V0200901N003110042019N0060001N1+00541+00501099931ADDAA112007191AY161061AY221061GF108991081071004501999999KA1999M+00601MA1999999099871MD1710201+9999MW1631REMSYN088AAXX  17184 01467 11456 80906 10054 20050 39987 49993 57020 60072 76362 887// 333 10060;
0161014670999992000041800004+58630+009150FM-12+000799999V0202101N003110042019N0100001N1+00601+00561100181ADDAY161061AY251061GF108991081071004501999999MA1999999100121MD1210131+9999MW1511REMSYN072AAXX  18004 01467 41460 82106 10060 20056 30012 40018 52013 75165 887//;
0161014670999992000041803004+58630+009150FM-12+000799999V0201801N001010021019N0080001N1+00581+00551100221ADDAY151031AY221031GF108991081061002501999999MA1999999100161MD1010041+9999MW1101REMSYN072AAXX  18034 01467 41358 81802 10058 20055 30016 40022 50004 71052 886//;
0201014670999992000041806004+58630+009150FM-12+000799999V0201801N003110300019N0100001N1+00621+00561100251ADDAA112002091AY181061AY251061GF108991031061004501071999KA1999N+00511MA1999999100191MD1310031+9999MW1021REMSYN088AAXX  18064 01467 11460 81806 10062 20056 30019 40025 53003 60022 70285 8367/ 333 20051;
0161014670999992000041809004+58630+009150FM-12+000799999V0202001N003110300019N0060001N1+00661+00621100401ADDAY181031AY221031GF108991031061004501071999MA1999999100341MD1210151+9999MW1021REMSYN072AAXX  18094 01467 41456 82006 10066 20062 30034 40040 52015 70282 8367/;
0173014670999992000041812004+58630+009150FM-12+000799999V0201901N004610300019N0080001N1+00691+00631100601ADDAY121061AY221061GF106991031061004501071021MA1999999100541MD1210201+9999MW1011REMSYN084AAXX  18124 01467 41458 61909 10069 20063 30054 40060 52020 70122 83672 222// 00057;
0161014670999992000041815004+58630+009150FM-12+000799999V0202101N003110300019N0100001N1+00721+00661100701ADDAY121031AY221031GF107991031061004501071999MA1999999100641MD1110101+9999MW1031REMSYN072AAXX  18154 01467 41460 72106 10072 20066 30064 40070 51010 70322 8367/;
0201014670999992000041818004+58630+009150FM-12+000799999V0201901N004610042019N0050001N1+00691+00651100831ADDAA112000191AY121061AY221061GF108991081061004501999999KA1999M+00721MA1999999100771MD1210131+9999MW1031REMSYN088AAXX  18184 01467 11450 81909 10069 20065 30077 40083 52013 69922 70322 886// 333 10072;
0161014670999992000041900004+58630+009150FM-12+000799999V0202501N001012200019N0080001N1+00561+00531101251ADDAY121061AY211061GF102991021061004501001001MA1999999101191MD1210211+9999MW1101REMSYN072AAXX  19004 01467 41458 22502 10056 20053 30119 40125 52021 71021 82600;
0161014670999992000041903004+58630+009150FM-12+000799999V0202701N001012200019N0050001N1+00531+00521101351ADDAY121031AY211031GF102991021061004501001001MA1999999101291MD1210101+9999MW1101REMSYN072AAXX  19034 01467 41450 22702 10053 20052 30129 40135 52010 71021 82600;
0214014670999992000041906004+58630+009150FM-12+000799999V0203601N001012200019N0010001N1+00401+00391101481ADDAA199000091AY141061AY221061GF102991021061004501001001KA1999N+00391MA1999999101421MD1210131+9999MW1101REMSYN082AAXX  19064 01467 31410 23602 10040 20039 30142 40148 52013 71042 82600 333 20039;EQDQ01  00002PRCP99
0161014670999992000041909004+58630+009150FM-12+000799999V0200501N001010021019N0050001N1+00551+00521101591ADDAY141031AY221031GF108991061061002501071999MA1999999101531MD1210111+9999MW1101REMSYN072AAXX  19094 01467 41350 80502 10055 20052 30153 40159 52011 71042 8667/;
0173014670999992000041912004+58630+009150FM-12+000799999V0200701N001010300019N0100001N1+00641+00601101601ADDAY141061AY221061GF108991011061002501071999MA1999999101541MD1110011+9999MW1021REMSYN084AAXX  19124 01467 41360 80702 10064 20060 30154 40160 51001 70242 8167/ 222// 00055;
0161014670999992000041915004+58630+009150FM-12+000799999V0200701N001010300019N0120001N1+00661+00621101511ADDAY161031AY221031GF108991041071004501021999MA1999999101451MD1810091+9999MW1611REMSYN072AAXX  19154 01467 41462 80702 10066 20062 30145 40151 58009 76162 8472/;
0201014670999992000041918004+58630+009150FM-12+000799999V0200701N001010300019N0100001N1+00741+00681101431ADDAA112000191AY161061AY221061GF108991031061004501071999KA1999M+00741MA1999999101371MD1610081+9999MW1021REMSYN088AAXX  19184 01467 11460 80702 10074 20068 30137 40143 56008 69912 70262 8367/ 333 10074;
0206014670999992000042000004+58630+009150FM-12+000799999V0201001N999992200019N0200001N1+00621+00581101401ADDAY121061AY201061GA1001+999999999GF100991001001999999001001MA1999999101341MD1710031+9999MW1011REMSYN066AAXX  20004 01467 41970 06001 10062 20058 30134 40140 57003 70120;EQDQ01+005193WOSPD Q020005193WOSPD 
0224014670999992000042006004+58630+009150FM-12+000799999V0200401N001010003019N0002001N1+00451+00441101461ADDAA199000091AY141061AY211061GA1091+999999999GF109991091999999999999999KA1999N+00441MA1999999101401MD1510051+9999MW1451REMSYN076AAXX  20064 01467 31/02 90402 10045 20044 30140 40146 55005 74541 333 20044;EQDQ01  00002PRCP99
0171014670999992000042009004+58630+009150FM-12+000799999V0200801N001010003019N0003001N1+00491+00481101551ADDAY141031AY241031GA1091+999999999GF109991091999999999999999MA1999999101491MD1110091+9999MW1451REMSYN066AAXX  20094 01467 41/03 90802 10049 20048 30149 40155 51009 74544;
0183014670999992000042012004+58630+009150FM-12+000799999V0200801N001010003019N0002001N1+00581+00571101561ADDAY141061AY241061GA1091+999999999GF109991091999999999999999MA1999999101501MD1110011+9999MW1471REMSYN078AAXX  20124 01467 41/02 90802 10058 20057 30150 40156 51001 74744 222// 00057;
0171014670999992000042015004+58630+009150FM-12+000799999V0200601N001010003019N0002001N1+00621+00611101541ADDAY141031AY241031GA1091+999999999GF109991091999999999999999MA1999999101481MD1710021+9999MW1451REMSYN066AAXX  20154 01467 41/02 90602 10062 20061 30148 40154 57002 74544;
0211014670999992000042018004+58630+009150FM-12+000799999V0200801N001010003019N0002001N1+00641+00631101431ADDAA112000191AY141061AY241061GA1091+999999999GF109991091999999999999999KA1999M+00641MA1999999101371MD1610091+9999MW1451REMSYN082AAXX  20184 01467 11/02 90802 10064 20063 30137 40143 56009 69912 74544 333 10064;
0161014670999992000042103004+58630+009150FM-12+000799999V0200601N001010042019N0100001N1+00681+00671101281ADDAY161031AY261031GF108991081071004501999999MA1999999101221MD1710111+9999MW1611REMSYN072AAXX  21034 01467 41460 80602 10068 20067 30122 40128 57011 76166 887//;
0201014670999992000042106004+58630+009150FM-12+000799999V0200901N001010021019N0010001N1+00721+00711101151ADDAA112005191AY161061AY241061GF108991081071002501999999KA1999N+00621MA1999999101091MD1710131+9999MW1611REMSYN088AAXX  21064 01467 11310 80902 10072 20071 30109 40115 57013 60052 76164 887// 333 20062;
0161014670999992000042109004+58630+009150FM-12+000799999V0201801N002110021019N0020001N1+00771+00761101081ADDAY161031AY261031GF108991051071002501021999MA1999999101021MD1510071+9999MW1611REMSYN072AAXX  21094 01467 41320 81804 10077 20076 30102 40108 55007 76166 8572/;
0173014670999992000042112004+58630+009150FM-12+000799999V0201801N002110021019N0010001N1+00761+00731101021ADDAY161061AY261061GF108991081071002501999999MA1999999100961MD1710061+9999MW1611REMSYN084AAXX  21124 01467 41310 81804 10076 20073 30096 40102 57006 76166 887// 222// 00064;
0161014670999992000042115004+58630+009150FM-12+000799999V0202101N002110021019N0010001N1+00741+00731101071ADDAY161031AY241031GF108991081071002501999999MA1999999101011MD1310051+9999MW1471REMSYN072AAXX  21154 01467 41310 82104 10074 20073 30101 40107 53005 74764 887//;
0201014670999992000042118004+58630+009150FM-12+000799999V0202301N003110300019N0030001N1+00721+00691101091ADDAA112006191AY161061AY221061GF108991031051002501071999KA1999M+00821MA1999999101031MD1210021+9999MW1011REMSYN088AAXX  21184 01467 11330 82306 10072 20069 30103 40109 52002 60062 70162 8357/ 333 10082;
0161014670999992000042200004+58630+009150FM-12+000799999V0202301N002110300019N0100001N1+00651+00621101351ADDAY121061AY221061GF108991031051004501071999MA1999999101291MD1210131+9999MW1021REMSYN072AAXX  22004 01467 41460 82304 10065 20062 30129 40135 52013 70222 8357/;
0171014670999992000042203004+58630+009150FM-12+000799999V0202301N002110006019N0008001N1+00581+00571101421ADDAY141031AY221031GA1091+999999999GF109991091999999999999999MA1999999101361MD1210071+9999MW1471REMSYN066AAXX  22034 01467 41/08 92304 10058 20057 30136 40142 52007 74742;
0211014670999992000042206004+58630+009150FM-12+000799999V0202401N001010003019N0003001N1+00631+00621101541ADDAA112000191AY161061AY241061GA1091+999999999GF109991091999999999999999KA1999N+00541MA1999999101481MD1210121+9999MW1611REMSYN082AAXX  22064 01467 11/03 92402 10063 20062 30148 40154 52012 69922 76164 333 20054;
0171014670999992000042209004+58630+009150FM-12+000799999V0202001N001010003019N0002001N1+00681+00671101651ADDAY161031AY241031GA1091+999999999GF109991091999999999999999MA1999999101591MD1210111+9999MW1471REMSYN066AAXX  22094 01467 41/02 92002 10068 20067 30159 40165 52011 74764;
0161014670999992000042215004+58630+009150FM-12+000799999V0201101N001010300019N0020001N1+00761+00701101631ADDAY141031AY221031GF108991031071004501011999MA1999999101571MD1710061+9999MW1021REMSYN072AAXX  22154 01467 41420 81102 10076 20070 30157 40163 57006 70242 8371/;
0201014670999992000042218004+58630+009150FM-12+000799999V0200301N001010042019N0020001N1+00721+00701101471ADDAA112000191AY141061AY221061GF108991081071004501999999KA1999M+00781MA1999999101411MD1710161+9999MW1021REMSYN088AAXX  22184 01467 11420 80302 10072 20070 30141 40147 57016 69912 70242 887// 333 10078;
0161014670999992000042300004+58630+009150FM-12+000799999V0200601N002110300019N0004001N1+00701+00691101271ADDAY161061AY241061GF108991041071004501021999MA1999999101211MD1710101+9999MW1611REMSYN072AAXX  23004 01467 41404 80604 10070 20069 30121 40127 57010 76164 8472/;
0161014670999992000042303004+58630+009150FM-12+000799999V0200201N002110300019N0004001N1+00731+00721100901ADDAY161031AY241031GF108991041071004501021999MA1999999100841MD1710371+9999MW1611REMSYN072AAXX  23034 01467 41404 80204 10073 20072 30084 40090 57037 76164 8472/;
0184014670999992000042306004+58630+009150FM-12+000799999V0201201N001010021019N0002001N1+00731+00721100771ADDAY161061AY241061GF108991081071002501999999KA1999N+00631MA1999999100711MD1610131+9999MW1611REMSYN082AAXX  23064 01467 11302 81202 10073 20072 30071 40077 56013 76164 887// 333 20063;
0171014670999992000042309004+58630+009150FM-12+000799999V0200601N000510003019N0002001N1+00811+00801100801ADDAY161031AY241031GA1091+999999999GF109991091999999999999999MA1999999100741MD1310031+9999MW1451REMSYN066AAXX  23094 01467 41/02 90601 10081 20080 30074 40080 53003 74564;
0161014670999992000042312004+58630+009150FM-12+000799999V0201801N001010021019N0010001N1+00781+00771100811ADDAY141061AY241061GF108991081071002501999999MA1999999100751MD1010011+9999MW1431REMSYN072AAXX  23124 01467 41310 81802 10078 20077 30075 40081 50001 74344 887//;
0161014670999992000042315004+58630+009150FM-12+000799999V0201901N001010042019N0020001N1+00841+00831100811ADDAY141031AY221031GF108991081071004501999999MA1999999100751MD1010001+9999MW1101REMSYN072AAXX  23154 01467 41420 81902 10084 20083 30075 40081 50000 71042 887//;
0201014670999992000042318004+58630+009150FM-12+000799999V0202201N001010300019N0100001N1+00801+00781100871ADDAA112000191AY141061AY221061GF107991031071004501011021KA1999M+00851MA1999999100811MD1210061+9999MW1011REMSYN088AAXX  23184 01467 11460 72202 10080 20078 30081 40087 52006 69912 70142 83712 333 10085;
0171014670999992000042400004+58630+009150FM-12+000799999V02099999999992200019N0200001N1+00621+00611101011ADDAY121061AY201061GA1001+999999999GF100991001001999999001001MA1999999100951MD1210071+9999MW1011REMSYN066AAXX  24004 01467 41970 09002 10062 20061 30095 40101 52007 70120;
0171014670999992000042403004+58630+009150FM-12+000799999V0200601N001010003019N0005001N1+00581+00571101001ADDAY141031AY211031GA1091+999999999GF109991091999999999999999MA1999999100941MD1710011+9999MW1431REMSYN066AAXX  24034 01467 41/05 90602 10058 20057 30094 40100 57001 74341;
0211014670999992000042406004+58630+009150FM-12+000799999V0200601N002110003019N0005001N1+00651+00641101101ADDAA112000191AY141061AY221061GA1091+999999999GF109991091999999999999999KA1999N+00551MA1999999101041MD1210101+9999MW1431REMSYN082AAXX  24064 01467 11/05 90604 10065 20064 30104 40110 52010 69912 74342 333 20055;
0161014670999992000042409004+58630+009150FM-12+000799999V0203601N001010300019N0100001N1+00731+00721101121ADDAY141031AY221031GF108991031051002501071999MA1999999101061MD1210021+9999MW1021REMSYN072AAXX  24094 01467 41360 83602 10073 20072 30106 40112 52002 70242 8357/;
0161014670999992000042415004+58630+009150FM-12+000799999V0202701N000510300019N0100001N1+00901+00871101041ADDAY161031AY221031GF108991041071004501021999MA1999999100981MD1710011+9999MW1611REMSYN072AAXX  24154 01467 41460 82701 10090 20087 30098 40104 57001 76162 8472/;
0201014670999992000042418004+58630+009150FM-12+000799999V0203501N000510300019N0200001N1+00911+00861101001ADDAA112002091AY161061AY221061GF108991031051008001011999KA1999M+00961MA1999999100941MD1810041+9999MW1011REMSYN088AAXX  24184 01467 11570 83501 10091 20086 30094 40100 58004 60022 70162 8351/ 333 10096;
0171014670999992000042500004+58630+009150FM-12+000799999V0202701N001012200019N0400001N1+00801+00721101051ADDAY121061AY201061GA1001+999999999GF100991001001999999001001MA1999999100991MD1210021+9999MW1011REMSYN066AAXX  25004 01467 41982 02702 10080 20072 30099 40105 52002 70120;
0161014670999992000042503004+58630+009150FM-12+000799999V0203001N001012200019N0400001N1+00651+00511101041ADDAY101031AY201031GF102991021091008001001001MA1999999100981MD1710011+9999MW1021REMSYN072AAXX  25034 01467 41582 23002 10065 20051 30098 40104 57001 70200 82900;
0224014670999992000042506004+58630+009150FM-12+000799999V0203001N000512200019N0600001N1+00681+00351101091ADDAA199000091AY101061AY201061GA1001+999999999GF100991001001999999001001KA1999N+00601MA1999999101031MD1210051+9999MW1021REMSYN076AAXX  25064 01467 31986 03001 10068 20035 30103 40109 52005 70200 333 20060;EQDQ01  00002PRCP99
0180014670999992000042509004+58630+009150FM-12+000799999V0201901N001012200019N0600001N1+00851+00561101201ADDAY101031AY201031GF102991001001999999001041MA1999999101141MD1210111+9999MW1031REMSYN072AAXX  25094 01467 41886 21902 10085 20056 30114 40120 52011 70300 80004;EQDQ01+022502SCOLCB
0173014670999992000042512004+58630+009150FM-12+000799999V0201901N001012200019N0600001N1+01011+00421101291ADDAY101061AY201061GF103991011011012501001041MA1999999101231MD1210091+9999MW1031REMSYN084AAXX  25124 01467 41686 31902 10101 20042 30123 40129 52009 70300 81104 222// 00079;
0161014670999992000042515004+58630+009150FM-12+000799999V0201901N003112200019N0250001N1+00881+00741101321ADDAY111031AY201031GF104991011021008001011091MA1999999101261MD1110031+9999MW1021REMSYN072AAXX  25154 01467 41575 41906 10088 20074 30126 40132 51003 70210 81219;
0214014670999992000042518004+58630+009150FM-12+000799999V0202101N002110300019N0250001N1+00821+00741101321ADDAA199000091AY121061AY211061GF107991011021008001061001KA1999M+01011MA1999999101261MD1410001+9999MW1031REMSYN082AAXX  25184 01467 31575 72104 10082 20074 30126 40132 54000 70321 81260 333 10101;EQDQ01  00002PRCP99
0161014670999992000042600004+58630+009150FM-12+000799999V0202301N002112200019N0250001N1+00801+00761101541ADDAY121061AY211061GF103991011061004501041091MA1999999101481MD1110101+9999MW1011REMSYN072AAXX  26004 01467 41475 32304 10080 20076 30148 40154 51010 70121 81649;
0161014670999992000042603004+58630+009150FM-12+000799999V0209999C000010300019N0150001N1+00821+00791101541ADDAY161031AY221031GF108991041071002501021999MA1999999101481MD1410001+9999MW1601REMSYN072AAXX  26034 01467 41365 80000 10082 20079 30148 40154 54000 76062 8472/;
0201014670999992000042606004+58630+009150FM-12+000799999V0200701N001012200019N0200001N1+00701+00561101611ADDAA112000591AY161061AY221061GF104991011071004501071091KA1999N+00701MA1999999101551MD1310071+9999MW1011REMSYN088AAXX  26064 01467 11470 40702 10070 20056 30155 40161 53007 69942 70162 81779 333 20070;
0161014670999992000042609004+58630+009150FM-12+000799999V0200301N001010300019N0250001N1+00881+00841101721ADDAY121031AY211031GF107991011021008001071021MA1999999101661MD1210111+9999MW1031REMSYN072AAXX  26094 01467 41575 70302 10088 20084 30166 40172 52011 70321 81272;
0173014670999992000042612004+58630+009150FM-12+000799999V0200601N001010300019N0025001N1+00851+00791101791ADDAY121061AY221061GF108991031061008001021999MA1999999101731MD1210071+9999MW1031REMSYN084AAXX  26124 01467 41525 80602 10085 20079 30173 40179 52007 70322 8362/ 222// 00075;
0161014670999992000042615004+58630+009150FM-12+000799999V0200301N001010300019N0200001N1+00901+00811101721ADDAY121031AY221031GF108991041061008001021999MA1999999101661MD1610071+9999MW1021REMSYN072AAXX  26154 01467 41570 80302 10090 20081 30166 40172 56007 70222 8462/;
0214014670999992000042618004+58630+009150FM-12+000799999V0200601N001010300019N0200001N1+01071+00441101601ADDAA199000091AY121061AY221061GF108991031071004501071999KA1999M+01071MA1999999101541MD1710121+9999MW1021REMSYN082AAXX  26184 01467 31470 80602 10107 20044 30154 40160 57012 70222 8377/ 333 10107;EQDQ01  00002PRCP99
0161014670999992000042700004+58630+009150FM-12+000799999V0203601N001012200019N0250001N1+01001+00621101641ADDAY121061AY211061GF104991011041008001041091MA1999999101581MD1410001+9999MW1011REMSYN072AAXX  27004 01467 41575 43602 10100 20062 30158 40164 54000 70121 81449;
0161014670999992000042703004+58630+009150FM-12+000799999V0200601N002110300019N0250001N1+00901+00731101561ADDAY121031AY211031GF108991031051004501071999MA1999999101501MD1710081+9999MW1031REMSYN072AAXX  27034 01467 41475 80604 10090 20073 30150 40156 57008 70321 8357/;
0201014670999992000042706004+58630+009150FM-12+000799999V0200801N002110300019N0100001N1+00821+00781101581ADDAA112002091AY161061AY221061GF108991041071004501021999KA1999N+00821MA1999999101521MD1210021+9999MW1611REMSYN088AAXX  27064 01467 11460 80804 10082 20078 30152 40158 52002 60022 76162 8472/ 333 20082;
0161014670999992000042709004+58630+009150FM-12+000799999V0200701N002110300019N0200001N1+00801+00761101621ADDAY161031AY221031GF108991021061004501021999MA1999999101561MD1010041+9999MW1021REMSYN072AAXX  27094 01467 41470 80704 10080 20076 30156 40162 50004 70262 8262/;
0173014670999992000042712004+58630+009150FM-12+000799999V0200701N001010300019N0200001N1+00901+00851101791ADDAY161061AY221061GF108991031061002501021999MA1999999101731MD1210171+9999MW1021REMSYN084AAXX  27124 01467 41370 80702 10090 20085 30173 40179 52017 70262 8362/ 222// 00076;
0161014670999992000042715004+58630+009150FM-12+000799999V0200701N000510300019N0200001N1+00921+00871101881ADDAY121031AY221031GF108991041061002501021999MA1999999101821MD1210091+9999MW1021REMSYN072AAXX  27154 01467 41370 80701 10092 20087 30182 40188 52009 70222 8462/;
0201014670999992000042718004+58630+009150FM-12+000799999V0200301N001010021019N0150001N1+00921+00871101941ADDAA112000591AY121061AY221061GF108991061061002501021999KA1999M+00921MA1999999101881MD1310061+9999MW1021REMSYN088AAXX  27184 01467 11365 80302 10092 20087 30188 40194 53006 69962 70222 8662/ 333 10092;
0161014670999992000042800004+58630+009150FM-12+000799999V0200301N002110021019N0200001N1+01001+00921101971ADDAY121061AY221061GF108991061061002501021999MA1999999101911MD1010011+9999MW1021REMSYN072AAXX  28004 01467 41370 80304 10100 20092 30191 40197 50001 70222 8662/;
0161014670999992000042803004+58630+009150FM-12+000799999V0203601N002110300019N0200001N1+01041+00871101961ADDAY121031AY221031GF108991041061002501021999MA1999999101901MD1810011+9999MW1021REMSYN072AAXX  28034 01467 41370 83604 10104 20087 30190 40196 58001 70222 8462/;
0214014670999992000042806004+58630+009150FM-12+000799999V0200201N002110300019N0250001N1+01021+00851101931ADDAA199000091AY121061AY211061GF106991021061004501061021KA1999N+00901MA1999999101871MD1810031+9999MW1011REMSYN082AAXX  28064 01467 31475 60204 10102 20085 30187 40193 58003 70121 82662 333 20090;EQDQ01  00002PRCP99
0161014670999992000042809004+58630+009150FM-12+000799999V0200401N003110300019N0250001N1+01291+00941101921ADDAY121031AY221031GF106991031061004501061021MA1999999101861MD1710011+9999MW1021REMSYN072AAXX  28094 01467 41475 60406 10129 20094 30186 40192 57001 70222 83662;
0173014670999992000042812004+58630+009150FM-12+000799999V0200601N003110300019N0250001N1+01361+00891101951ADDAY121061AY221061GF106991031061004501061091MA1999999101891MD1010031+9999MW1021REMSYN084AAXX  28124 01467 41475 60606 10136 20089 30189 40195 50003 70222 83669 222// 00086;
0161014670999992000042815004+58630+009150FM-12+000799999V0200601N003112200019N0300001N1+01621+00951101881ADDAY111031AY201031GF103991011041008001031091MA1999999101821MD1810071+9999MW1011REMSYN072AAXX  28154 01467 41580 30606 10162 20095 30182 40188 58007 70110 81439;
0214014670999992000042818004+58630+009150FM-12+000799999V0200601N002112200019N0200001N1+01621+01021101811ADDAA199000091AY101061AY201061GF103991021061004501031091KA1999M+01661MA1999999101751MD1610071+9999MW1021REMSYN082AAXX  28184 01467 31470 30604 10162 20102 30175 40181 56007 70200 82639 333 10166;EQDQ01  00002PRCP99
0171014670999992000042900004+58630+009150FM-12+000799999V0200301N001012200019N0300001N1+01521+01131101961ADDAY101061AY201061GA1001+999999999GF100991001001999999001001MA1999999101901MD1110021+9999MW1021REMSYN066AAXX  29004 01467 41780 00302 10152 20113 30190 40196 51002 70200;
0161014670999992000042903004+58630+009150FM-12+000799999V0200301N001012200019N0300001N1+01321+01051101961ADDAY101031AY201031GF103991011041008001031011MA1999999101901MD1410001+9999MW1021REMSYN072AAXX  29034 01467 41580 30302 10132 20105 30190 40196 54000 70200 81431;
0214014670999992000042906004+58630+009150FM-12+000799999V0200301N001012200019N0300001N1+01321+01041102061ADDAA199000091AY101061AY201061GF103991011041008001031021KA1999N+01301MA1999999102001MD1310101+9999MW1021REMSYN082AAXX  29064 01467 31580 30302 10132 20104 30200 40206 53010 70200 81432 333 20130;EQDQ01  00002PRCP99
0161014670999992000042909004+58630+009150FM-12+000799999V0200501N002112200019N0300001N1+01321+01041102121ADDAY101031AY201031GF103991011041008001031091MA1999999102061MD1210061+9999MW1021REMSYN072AAXX  29094 01467 41580 30504 10132 20104 30206 40212 52006 70200 81439;
0173014670999992000042912004+58630+009150FM-12+000799999V0200301N002112200019N0200001N1+01361+01011102031ADDAY101061AY201061GF102991021001022501031091MA1999999101971MD1810091+9999MW1021REMSYN084AAXX  29124 01467 41870 20304 10136 20101 30197 40203 58009 70200 82039 222// 00086;
0161014670999992000042915004+58630+009150FM-12+000799999V0200301N001012200019N0200001N1+01781+01041101991ADDAY101031AY201031GF102991001001999999001081MA1999999101931MD1810041+9999MW1021REMSYN072AAXX  29154 01467 41970 20302 10178 20104 30193 40199 58004 70200 80008;
0214014670999992000042918004+58630+009150FM-12+000799999V0200301N000512200019N0200001N1+01961+00931101921ADDAA199000091AY101061AY201061GF101991001001999999001081KA1999M+01961MA1999999101861MD1610071+9999MW1021REMSYN082AAXX  29184 01467 31970 10301 10196 20093 30186 40192 56007 70200 80008 333 10196;EQDQ01  00002PRCP99
0171014670999992000043000004+58630+009150FM-12+000799999V0209999C000012200019N0550001N1+01361+01111102021ADDAY101061AY201061GA1001+999999999GF100991001001999999001001MA1999999101961MD1110081+9999MW1021REMSYN066AAXX  30004 01467 41985 00000 10136 20111 30196 40202 51008 70200;
0161014670999992000043003004+58630+009150FM-12+000799999V0209999C000012200019N0200001N1+01461+01211101981ADDAY191031AY211031GF104991021091004501061021MA1999999101921MD1610041+9999MW1171REMSYN072AAXX  30034 01467 41470 40000 10146 20121 30192 40198 56004 71791 82962;
0161014670999992000043009004+58630+009150FM-12+000799999V0200601N000512200019N0200001N1+01401+01191102161ADDAY191031AY211031GF104991021091004501061021MA1999999102101MD1210141+9999MW1021REMSYN072AAXX  30094 01467 41470 40601 10140 20119 30210 40216 52014 70291 82962;
0181014670999992000043012004+58630+009150FM-12+000799999V0200401N001012200019N0150001N1+01401+01121102191ADDAY191061AY211061GF104991031061004501061021MA1999999102131MD1110031+9999MW1021SA1-0209REMSYN084AAXX  30124 01467 41465 40402 10140 20112 30213 40219 51003 70291 83662 222// 00102;
0161014670999992000043015004+58630+009150FM-12+000799999V0209999C000012200019N0150001N1+01641+01061102171ADDAY111031AY201031GF101991001001999999001091MA1999999102111MD1010021+9999MW1011REMSYN072AAXX  30154 01467 41965 10000 10164 20106 30211 40217 50002 70110 80009;
0224014670999992000043018004+58630+009150FM-12+000799999V0209999C000012200019N0150001N1+01641+01021102111ADDAA199000091AY101061AY201061GA1001+999999999GF100991001001999999001001KA1999M+01661MA1999999102051MD1710061+9999MW1021REMSYN076AAXX  30184 01467 31965 00000 10164 20102 30205 40211 57006 70200 333 10166;EQDQ01  00002PRCP99
0171014670999992000050100004+58630+009150FM-12+000799999V0200301N001012200019N0200001N1+01521+01161102191ADDAY101061AY201061GA1001+999999999GF100991001001999999001001MA1999999102131MD1210041+9999MW1021REMSYN066AAXX  01004 01467 41970 00302 10152 20116 30213 40219 52004 70200;
0171014670999992000050103004+58630+009150FM-12+000799999V0200301N002112200019N0200001N1+01241+01081102321ADDAY101031AY201031GA1001+999999999GF100991001001999999001001MA1999999102261MD1310131+9999MW1021REMSYN066AAXX  01034 01467 41970 00304 10124 20108 30226 40232 53013 70200;
0214014670999992000050106004+58630+009150FM-12+000799999V0200301N002110075019N0200001N1+01141+01031102481ADDAA199000091AY121061AY211061GF107991061051008001061999KA1999N+01141MA1999999102421MD1210161+9999MW1031REMSYN082AAXX  01064 01467 31570 70304 10114 20103 30242 40248 52016 70321 8656/ 333 20114;EQDQ01  00002PRCP99
0161014670999992000050109004+58630+009150FM-12+000799999V0200501N002110300019N0200001N1+01081+00781102571ADDAY121031AY221031GF108991021071004501021999MA1999999102511MD1310091+9999MW1021REMSYN072AAXX  01094 01467 41470 80504 10108 20078 30251 40257 53009 70222 8272/;
0181014670999992000050112004+58630+009150FM-12+000799999V0200501N002112200019N0200001N1+01221+00811102551ADDAY121061AY211061GF104991021001017501021091MA1999999102491MD1810021+9999MW1011SA1+0009REMSYN084AAXX  01124 01467 41770 40504 10122 20081 30249 40255 58002 70121 82029 222// 00100;
0161014670999992000050115004+58630+009150FM-12+000799999V0200701N002110300019N0200001N1+01221+00941102581ADDAY181031AY211031GF107991021071004501021999MA1999999102521MD1110031+9999MW1801REMSYN072AAXX  01154 01467 41470 70704 10122 20094 30252 40258 51003 78081 8272/;
0201014670999992000050118004+58630+009150FM-12+000799999V0200701N002110300019N0200001N1+01221+00841102541ADDAA112000791AY181061AY211061GF108991031071004501021999KA1999M+01301MA1999999102481MD1610041+9999MW1021REMSYN088AAXX  01184 01467 11470 80704 10122 20084 30248 40254 56004 69902 70281 8372/ 333 10130;
0161014670999992000050200004+58630+009150FM-12+000799999V0200901N002110042019N0200001N1+01021+00791102671ADDAY161061AY221061GF108991051071004501021999MA1999999102611MD1310061+9999MW1611REMSYN072AAXX  02004 01467 41470 80904 10102 20079 30261 40267 53006 76162 8572/;
0161014670999992000050203004+58630+009150FM-12+000799999V0200401N002110300019N0150001N1+00961+00871102691ADDAY161031AY221031GF108991041071004501021999MA1999999102631MD1210021+9999MW1611REMSYN072AAXX  02034 01467 41465 80404 10096 20087 30263 40269 52002 76162 8472/;
0201014670999992000050206004+58630+009150FM-12+000799999V0209999C000010300019N0200001N1+00961+00911102751ADDAA112004191AY161061AY221061GF108991021061004501021999KA1999N+00901MA1999999102691MD1110061+9999MW1021REMSYN088AAXX  02064 01467 11470 80000 10096 20091 30269 40275 51006 60042 70262 8262/ 333 20090;
0161014670999992000050209004+58630+009150FM-12+000799999V0200801N001010300019N0250001N1+00991+00831102761ADDAY121031AY221031GF108991021061004501021999MA1999999102701MD1310011+9999MW1021REMSYN072AAXX  02094 01467 41475 80802 10099 20083 30270 40276 53001 70222 8262/;
0181014670999992000050212004+58630+009150FM-12+000799999V0200801N002110300019N0300001N1+01051+00501102711ADDAY121061AY221061GF106991011061004501021021MA1999999102651MD1810051+9999MW1011SA1-0109REMSYN084AAXX  02124 01467 41480 60804 10105 20050 30265 40271 58005 70122 81622 222// 00101;
0161014670999992000050215004+58630+009150FM-12+000799999V0200201N001010300019N0300001N1+01001+00601102611ADDAY191031AY281031GF108991011091004501021999MA1999999102551MD1710101+9999MW1291REMSYN072AAXX  02154 01467 41480 80202 10100 20060 30255 40261 57010 72998 8192/;
0201014670999992000050218004+58630+009150FM-12+000799999V0200201N001010300019N0280001N1+00901+00841102531ADDAA112002091AY191061AY281061GF108991021091004501021999KA1999M+01061MA1999999102471MD1710081+9999MW1291REMSYN088AAXX  02184 01467 11478 80202 10090 20084 30247 40253 57008 60022 72998 8292/ 333 10106;
0161014670999992000050300004+58630+009150FM-12+000799999V0209999C000010300019N0200001N1+00841+00701102371ADDAY191061AY221061GF106991011091004501021021MA1999999102311MD1710101+9999MW1021REMSYN072AAXX  03004 01467 41470 60000 10084 20070 30231 40237 57010 70292 81922;
0161014670999992000050303004+58630+009150FM-12+000799999V0203301N000512200019N0250001N1+00811+00771102261ADDAY121031AY221031GF104991011091004501021021MA1999999102201MD1710111+9999MW1011REMSYN072AAXX  03034 01467 41475 43301 10081 20077 30220 40226 57011 70122 81922;
0201014670999992000050306004+58630+009150FM-12+000799999V0200401N000512200019N0300001N1+00801+00761102231ADDAA112000191AY101061AY201061GF102991011041008001081021KA1999N+00801MA1999999102171MD1710031+9999MW1011REMSYN088AAXX  03064 01467 11580 20401 10080 20076 30217 40223 57003 69912 70100 81482 333 20080;
0161014670999992000050309004+58630+009150FM-12+000799999V0200701N000512200019N0300001N1+01021+01011102311ADDAY101031AY201031GF102991011041008001081011MA1999999102251MD1210081+9999MW1021REMSYN072AAXX  03094 01467 41580 20701 10102 20101 30225 40231 52008 70200 81481;
0181014670999992000050312004+58630+009150FM-12+000799999V0200701N001012200019N0300001N1+01081+00841102321ADDAY111061AY201061GF104991021091004501031011MA1999999102261MD1310011+9999MW1031SA1+9999REMSYN084AAXX  03124 01467 41480 40702 10108 20084 30226 40232 53001 70310 82931 222// 00106;
0161014670999992000050315004+58630+009150FM-12+000799999V0209999C000010300019N0300001N1+01121+00841102321ADDAY121031AY211031GF107991041091004501071021MA1999999102261MD1410001+9999MW1031REMSYN072AAXX  03154 01467 41480 70000 10112 20084 30226 40232 54000 70321 84972;
0214014670999992000050318004+58630+009150FM-12+000799999V0209999C000010300019N0300001N1+01181+00711102241ADDAA199000091AY121061AY211061GF106991021091004501071021KA1999M+01181MA1999999102181MD1610081+9999MW1021REMSYN082AAXX  03184 01467 31480 60000 10118 20071 30218 40224 56008 70221 82972 333 10118;EQDQ01  00002PRCP99
0161014670999992000050400004+58630+009150FM-12+000799999V0203201N001012200019N0280001N1+00871+00781102361ADDAY111061AY201061GF101991011041008001001001MA1999999102301MD1110031+9999MW1011REMSYN072AAXX  04004 01467 41578 13202 10087 20078 30230 40236 51003 70110 81400;
0161014670999992000050403004+58630+009150FM-12+000799999V0203201N000512200019N0200001N1+00801+00711102421ADDAY101031AY201031GF101991011001017501041001MA1999999102361MD1310061+9999MW1021REMSYN072AAXX  04034 01467 41770 13201 10080 20071 30236 40242 53006 70200 81040;
0214014670999992000050406004+58630+009150FM-12+000799999V0200201N001012200019N0300001N1+00781+00211102521ADDAA199000091AY101061AY201061GF102991001001999999001081KA1999N+00781MA1999999102461MD1210101+9999MW1021REMSYN082AAXX  04064 01467 31980 20202 10078 20021 30246 40252 52010 70200 80008 333 20078;EQDQ01  00002PRCP99
0161014670999992000050409004+58630+009150FM-12+000799999V0200901N001012200019N0400001N1+01071+00231102541ADDAY101031AY201031GF102991011021004501001081MA1999999102481MD1210021+9999MW1021REMSYN072AAXX  04094 01467 41482 20902 10107 20023 30248 40254 52002 70200 81208;
0181014670999992000050412004+58630+009150FM-12+000799999V0201401N001012200019N0550001N1+01131+00501102481ADDAY101061AY201061GF101991011021008001041001MA1999999102421MD1810061+9999MW1011SA1+9999REMSYN084AAXX  04124 01467 41585 11402 10113 20050 30242 40248 58006 70100 81240 222// 00109;
0161014670999992000050415004+58630+009150FM-12+000799999V0202001N002112200019N0550001N1+01161+00671102381ADDAY101031AY201031GF101991011011008001001041MA1999999102321MD1710101+9999MW1011REMSYN072AAXX  04154 01467 41585 12004 10116 20067 30232 40238 57010 70100 81104;
0184014670999992000050418004+58630+009150FM-12+000799999V0202401N003112200019N0550001N1+01191+00701102251ADDAY101061AY201061GF101991011011008001001041KA1999M+01191MA1999999102191MD1710131+9999MW1021REMSYN082AAXX  04184 01467 41585 12406 10119 20070 30219 40225 57013 70200 81104 333 10119;
0171014670999992000050500004+58630+009150FM-12+000799999V0209999C000012200019N0550001N1+00861+00711102101ADDAY101061AY201061GA1001+999999999GF100991001001999999001001MA1999999102041MD1710051+9999MW1021REMSYN066AAXX  05004 01467 41985 00000 10086 20071 30204 40210 57005 70200;
0171014670999992000050503004+58630+009150FM-12+000799999V0203201N000512200019N0550001N1+00731+00691101991ADDAY101031AY201031GA1001+999999999GF100991001001999999001001MA1999999101931MD1710011+9999MW1021REMSYN066AAXX  05034 01467 41985 03201 10073 20069 30193 40199 57001 70200;
0230014670999992000050506004+58630+009150FM-12+000799999V0203201N000512200019N0550001N1+00941+00651101931ADDAA199000091AY101061AY201061GF101991001001999999001081KA1999N+00681MA1999999101871MD1710061+9999MW1031REMSYN082AAXX  05064 01467 31985 13201 10094 20065 30187 40193 57006 70300 88008 333 20068;EQDQ01+000082SCOTLCQ02  00002PRCP99
0161014670999992000050509004+58630+009150FM-12+000799999V0201501N000512200019N0550001N1+01141+00671101931ADDAY101031AY201031GF101991001001999999001081MA1999999101871MD1410001+9999MW1021REMSYN072AAXX  05094 01467 41985 11501 10114 20067 30187 40193 54000 70200 80008;
0181014670999992000050512004+58630+009150FM-12+000799999V0201801N000512200019N0550001N1+01361+00891101921ADDAY101061AY201061GF102991011011008001001081MA1999999101861MD1810011+9999MW1021SA1+9999REMSYN084AAXX  05124 01467 41585 21801 10136 20089 30186 40192 58001 70200 81108 222// 00112;
0161014670999992000050515004+58630+009150FM-12+000799999V0202401N002112200019N0550001N1+01371+00981101871ADDAY101031AY201031GF102991011011008001001081MA1999999101811MD1710051+9999MW1021REMSYN072AAXX  05154 01467 41585 22404 10137 20098 30181 40187 57005 70200 81108;
0214014670999992000050518004+58630+009150FM-12+000799999V0201701N001012200019N0450001N1+01321+01021101851ADDAA199000091AY101061AY201061GF101991001001999999001081KA1999M+01391MA1999999101791MD1610021+9999MW1011REMSYN082AAXX  05184 01467 31983 11702 10132 20102 30179 40185 56002 70100 80008 333 10139;EQDQ01  00002PRCP99
0171014670999992000050600004+58630+009150FM-12+000799999V0209999C000012200019N0280001N1+01031+01021101961ADDAY101061AY201061GA1001+999999999GF100991001001999999001001MA1999999101901MD1310041+9999MW1011REMSYN066AAXX  06004 01467 41978 00000 10103 20102 30190 40196 53004 70100;
0171014670999992000050603004+58630+009150FM-12+000799999V0203401N000512200019N0300001N1+00841+00641102051ADDAY101031AY201031GA1001+999999999GF100991001001999999001001MA1999999101991MD1210091+9999MW1021REMSYN066AAXX  06034 01467 41980 03401 10084 20064 30199 40205 52009 70200;
0214014670999992000050606004+58630+009150FM-12+000799999V0200701N003112200019N0400001N1+01061+01001102251ADDAA199000091AY101061AY201061GF102991021061002501001041KA1999N+00791MA1999999102191MD1210201+9999MW1031REMSYN082AAXX  06064 01467 31382 20706 10106 20100 30219 40225 52020 70300 82604 333 20079;EQDQ01  00002PRCP99
0161014670999992000050609004+58630+009150FM-12+000799999V0200701N003112200019N0550001N1+01241+00411102351ADDAY101031AY201031GF101991001001999999001081MA1999999102291MD1210101+9999MW1011REMSYN072AAXX  06094 01467 41985 10706 10124 20041 30229 40235 52010 70100 80008;
0181014670999992000050612004+58630+009150FM-12+000799999V0200901N001012200019N0550001N1+01331+00601102371ADDAY101061AY201061GF101991001001999999001041MA1999999102311MD1210021+9999MW1021SA1+9999REMSYN084AAXX  06124 01467 41985 10902 10133 20060 30231 40237 52002 70200 80004 222// 00113;
0161014670999992000050615004+58630+009150FM-12+000799999V0200901N000512200019N0550001N1+01341+00611102351ADDAY101031AY201031GF101991011011004501001001MA1999999102291MD1810021+9999MW1021REMSYN072AAXX  06154 01467 41485 10901 10134 20061 30229 40235 58002 70200 81100;
0214014670999992000050618004+58630+009150FM-12+000799999V0201801N000512200019N0550001N1+01331+00701102251ADDAA199000091AY101061AY201061GF101991001001999999001041KA1999M+01341MA1999999102191MD1710101+9999MW1021REMSYN082AAXX  06184 01467 31985 11801 10133 20070 30219 40225 57010 70200 80004 333 10134;EQDQ01  00002PRCP99
0171014670999992000050700004+58630+009150FM-12+000799999V0203301N000512200019N0280001N1+00971+00891102301ADDAY101061AY201061GA1001+999999999GF100991001001999999001001MA1999999102241MD1310051+9999MW1011REMSYN066AAXX  07004 01467 41978 03301 10097 20089 30224 40230 53005 70100;
0171014670999992000050703004+58630+009150FM-12+000799999V0203201N000512200019N0280001N1+00861+00821102351ADDAY101031AY201031GA1001+999999999GF100991001001999999001001MA1999999102291MD1210051+9999MW1021REMSYN066AAXX  07034 01467 41978 03201 10086 20082 30229 40235 52005 70200;
0214014670999992000050706004+58630+009150FM-12+000799999V0209999C000012200019N0300001N1+00991+00851102421ADDAA199000091AY101061AY201061GF101991011061002501001001KA1999N+00841MA1999999102361MD1210071+9999MW1031REMSYN082AAXX  07064 01467 31380 10000 10099 20085 30236 40242 52007 70300 81600 333 20084;EQDQ01  00002PRCP99
0161014670999992000050709004+58630+009150FM-12+000799999V0202401N002112200019N0280001N1+01251+01011102461ADDAY101031AY201031GF101991011061002501001041MA1999999102401MD1210041+9999MW1021REMSYN072AAXX  07094 01467 41378 12404 10125 20101 30240 40246 52004 70200 81604;
0173014670999992000050712004+58630+009150FM-12+000799999V0202401N003112200019N0300001N1+01311+01061102351ADDAY101061AY201061GF101991011011004501001041MA1999999102291MD1810111+9999MW1021REMSYN084AAXX  07124 01467 41480 12406 10131 20106 30229 40235 58011 70200 81104 222// 00127;
0161014670999992000050715004+58630+009150FM-12+000799999V0202401N004612200019N0400001N1+01331+01071102381ADDAY101031AY201031GF101991011021008001001011MA1999999102321MD1310031+9999MW1031REMSYN072AAXX  07154 01467 41582 12409 10133 20107 30232 40238 53003 70300 81201;
0214014670999992000050718004+58630+009150FM-12+000799999V0202401N004612200019N0300001N1+01321+00971102291ADDAA199000091AY101061AY201061GF101991011021008001001041KA1999M+01331MA1999999102231MD1810091+9999MW1021REMSYN082AAXX  07184 01467 31580 12409 10132 20097 30223 40229 58009 70200 81204 333 10133;EQDQ01  00002PRCP99
0171014670999992000050800004+58630+009150FM-12+000799999V0209999C000012200019N0300001N1+01111+00761102331ADDAY101061AY201061GA1001+999999999GF100991001001999999001001MA1999999102271MD1310031+9999MW1011REMSYN066AAXX  08004 01467 41980 00000 10111 20076 30227 40233 53003 70100;
0171014670999992000050803004+58630+009150FM-12+000799999V0203201N001012200019N0280001N1+01041+00931102371ADDAY101031AY201031GA1001+999999999GF100991001001999999001001MA1999999102311MD1210041+9999MW1021REMSYN066AAXX  08034 01467 41978 03202 10104 20093 30231 40237 52004 70200;
0224014670999992000050806004+58630+009150FM-12+000799999V0209999C000012200019N0400001N1+01181+00631102511ADDAA199000091AY101061AY201061GA1001+999999999GF100991001001999999001001KA1999N+01041MA1999999102451MD1210141+9999MW1021REMSYN076AAXX  08064 01467 31982 00000 10118 20063 30245 40251 52014 70200 333 20104;EQDQ01  00002PRCP99
0171014670999992000050809004+58630+009150FM-12+000799999V0201401N000512200019N0550001N1+01441+00951102531ADDAY101031AY201031GA1001+999999999GF100991001001999999001001MA1999999102471MD1210021+9999MW1021REMSYN066AAXX  08094 01467 41985 01401 10144 20095 30247 40253 52002 70200;
0183014670999992000050812004+58630+009150FM-12+000799999V0202001N001012200019N0550001N1+01581+00631102501ADDAY101061AY201061GA1001+999999999GF100991001001999999001001MA1999999102441MD1810031+9999MW1021REMSYN078AAXX  08124 01467 41985 02002 10158 20063 30244 40250 58003 70200 222// 00129;
0161014670999992000050815004+58630+009150FM-12+000799999V0202001N001012200019N0400001N1+01721+00481102401ADDAY101031AY201031GF101991011021008001001001MA1999999102341MD1710101+9999MW1031REMSYN072AAXX  08154 01467 41582 12002 10172 20048 30234 40240 57010 70300 81200;
0224014670999992000050818004+58630+009150FM-12+000799999V0202301N001012200019N0400001N1+01651+00811102331ADDAA199000091AY101061AY201061GA1001+999999999GF100991001001999999001001KA1999M+01751MA1999999102271MD1710071+9999MW1011REMSYN076AAXX  08184 01467 31982 02302 10165 20081 30227 40233 57007 70100 333 10175;EQDQ01  00002PRCP99
0171014670999992000050900004+58630+009150FM-12+000799999V0209999C000012200019N0300001N1+01251+00951102331ADDAY101061AY201061GA1001+999999999GF100991001001999999001001MA1999999102271MD1310021+9999MW1021REMSYN066AAXX  09004 01467 41980 00000 10125 20095 30227 40233 53002 70200;
0171014670999992000050903004+58630+009150FM-12+000799999V0209999C000012200019N0300001N1+01101+01061102331ADDAY101031AY201031GA1001+999999999GF100991001001999999001001MA1999999102271MD1410001+9999MW1021REMSYN066AAXX  09034 01467 41980 00000 10110 20106 30227 40233 54000 70200;
0224014670999992000050906004+58630+009150FM-12+000799999V0203301N000512200019N0500001N1+01291+00911102331ADDAA199000091AY101061AY201061GA1001+999999999GF100991001001999999001001KA1999N+01041MA1999999102271MD1410001+9999MW1021REMSYN076AAXX  09064 01467 31984 03301 10129 20091 30227 40233 54000 70200 333 20104;EQDQ01  00002PRCP99
0171014670999992000050909004+58630+009150FM-12+000799999V0201201N000512200019N0450001N1+01461+01161102341ADDAY101031AY201031GA1001+999999999GF100991001001999999001001MA1999999102281MD1310011+9999MW1021REMSYN066AAXX  09094 01467 41983 01201 10146 20116 30228 40234 53001 70200;
0173014670999992000050912004+58630+009150FM-12+000799999V0201501N001012200019N0400001N1+01601+01271102301ADDAY101061AY201061GF101991011011012501001011MA1999999102241MD1810041+9999MW1031REMSYN084AAXX  09124 01467 41682 11502 10160 20127 30224 40230 58004 70300 81101 222// 00134;
0161014670999992000050915004+58630+009150FM-12+000799999V0202001N001012200019N0500001N1+01621+01001102191ADDAY101031AY201031GF102991011021012501001011MA1999999102131MD1710111+9999MW1031REMSYN072AAXX  09154 01467 41684 22002 10162 20100 30213 40219 57011 70300 81201;
0214014670999992000050918004+58630+009150FM-12+000799999V0201801N001012200019N0400001N1+01541+01221102061ADDAA199000091AY101061AY201061GF101991011041012501001011KA1999M+01701MA1999999102001MD1710131+9999MW1011REMSYN082AAXX  09184 01467 31682 11802 10154 20122 30200 40206 57013 70100 81401 333 10170;EQDQ01  00002PRCP99
0171014670999992000051000004+58630+009150FM-12+000799999V0203201N000512200019N0300001N1+01251+01111101971ADDAY101061AY201061GA1001+999999999GF100991001001999999001001MA1999999101911MD1710031+9999MW1011REMSYN066AAXX  10004 01467 41980 03201 10125 20111 30191 40197 57003 70100;
0171014670999992000051003004+58630+009150FM-12+000799999V0203001N000512200019N0300001N1+01121+00981101881ADDAY101031AY201031GA1001+999999999GF100991001001999999001001MA1999999101821MD1710091+9999MW1021REMSYN066AAXX  10034 01467 41980 03001 10112 20098 30182 40188 57009 70200;
0214014670999992000051006004+58630+009150FM-12+000799999V0209999C000012200019N0400001N1+01221+00961101871ADDAA199000091AY101061AY201061GF101991011001022501031011KA1999N+01031MA1999999101811MD1610011+9999MW1031REMSYN082AAXX  10064 01467 31882 10000 10122 20096 30181 40187 56001 70300 81031 333 20103;EQDQ01  00002PRCP99
0161014670999992000051009004+58630+009150FM-12+000799999V0201701N001012200019N0400001N1+01451+01071101831ADDAY101031AY201031GF101991011001022501081011MA1999999101771MD1710041+9999MW1021REMSYN072AAXX  10094 01467 41882 11702 10145 20107 30177 40183 57004 70200 81081;
0173014670999992000051012004+58630+009150FM-12+000799999V0201801N002112200019N0400001N1+01591+01121101801ADDAY101061AY201061GF101991011001008001081021MA1999999101741MD1710031+9999MW1031REMSYN084AAXX  10124 01467 41582 11804 10159 20112 30174 40180 57003 70300 81082 222// 00147;
0161014670999992000051015004+58630+009150FM-12+000799999V0202401N002112200019N0400001N1+01691+01111101701ADDAY101031AY201031GF102991011021008001001081MA1999999101641MD1710101+9999MW1031REMSYN072AAXX  10154 01467 41582 22404 10169 20111 30164 40170 57010 70300 81208;
0214014670999992000051018004+58630+009150FM-12+000799999V0209999C000012200019N0400001N1+01671+01311101601ADDAA199000091AY101061AY201061GF103991011041012501091081KA1999M+01691MA1999999101541MD1710101+9999MW1031REMSYN082AAXX  10184 01467 31682 30000 10167 20131 30154 40160 57010 70300 81498 333 10169;EQDQ01  00002PRCP99
0161014670999992000051100004+58630+009150FM-12+000799999V0203301N003112200019N0600001N1+01581-00462101801ADDAY101061AY201061GF102991021001022501041001MA1999999101741MD1210111+9999MW1011REMSYN072AAXX  11004 01467 41886 23306 10158 21046 30174 40180 52011 70100 82040;
0161014670999992000051103004+58630+009150FM-12+000799999V0200301N001012200019N0600001N1+01291-00151101951ADDAY101031AY201031GF102991021001022501041001MA1999999101891MD1210151+9999MW1021REMSYN072AAXX  11034 01467 41886 20302 10129 21015 30189 40195 52015 70200 82040;
0214014670999992000051106004+58630+009150FM-12+000799999V0200301N002112200019N0600001N1+01291+00061102151ADDAA199000091AY101061AY201061GF101991011001022501041001KA1999N+01191MA1999999102091MD1210201+9999MW1011REMSYN082AAXX  11064 01467 31886 10304 10129 20006 30209 40215 52020 70100 81040 333 20119;EQDQ01  00002PRCP99
0161014670999992000051109004+58630+009150FM-12+000799999V0200801N004612200019N0600001N1+01271+00291102301ADDAY101031AY201031GF101991011001012501041001MA1999999102241MD1210151+9999MW1021REMSYN072AAXX  11094 01467 41686 10809 10127 20029 30224 40230 52015 70200 81040;
0173014670999992000051112004+58630+009150FM-12+000799999V0200901N004612200019N0600001N1+01281+00531102331ADDAY101061AY201061GF101991011011012501001011MA1999999102271MD1110031+9999MW1021REMSYN084AAXX  11124 01467 41686 10909 10128 20053 30227 40233 51003 70200 81101 222// 00130;
0161014670999992000051115004+58630+009150FM-12+000799999V0201701N001012200019N0600001N1+01431+00521102361ADDAY101031AY201031GF101991001001999999001011MA1999999102301MD1210031+9999MW1021REMSYN072AAXX  11154 01467 41986 11702 10143 20052 30230 40236 52003 70200 80001;
0214014670999992000051118004+58630+009150FM-12+000799999V0202101N001012200019N0600001N1+01551+00011102391ADDAA199000091AY101061AY201061GF101991001001999999001011KA1999M+01551MA1999999102331MD1210031+9999MW1021REMSYN082AAXX  11184 01467 31986 12102 10155 20001 30233 40239 52003 70200 80001 333 10155;EQDQ01  00002PRCP99
0161014670999992000051200004+58630+009150FM-12+000799999V0200901N004612200019N0500001N1+01231+00481102711ADDAY101061AY201061GF101991001001999999001021MA1999999102651MD1210071+9999MW1021REMSYN072AAXX  12004 01467 41984 10909 10123 20048 30265 40271 52007 70200 80002;
0171014670999992000051203004+58630+009150FM-12+000799999V0200901N003112200019N0500001N1+01001+00121103081ADDAY101031AY201031GA1001+999999999GF100991001001999999001001MA1999999103021MD1210371+9999MW1011REMSYN066AAXX  12034 01467 41984 00906 10100 20012 30302 40308 52037 70100;
0224014670999992000051206004+58630+009150FM-12+000799999V0200901N003112200019N0500001N1+00931+00071103271ADDAA199000091AY101061AY201061GA1001+999999999GF100991001001999999001001KA1999N+00901MA1999999103211MD1210191+9999MW1021REMSYN076AAXX  12064 01467 31984 00906 10093 20007 30321 40327 52019 70200 333 20090;EQDQ01  00002PRCP99
0171014670999992000051209004+58630+009150FM-12+000799999V0200901N003112200019N0600001N1+00901-00061103291ADDAY101031AY201031GA1001+999999999GF100991001001999999001001MA1999999103231MD1110021+9999MW1021REMSYN066AAXX  12094 01467 41986 00906 10090 21006 30323 40329 51002 70200;
0183014670999992000051212004+58630+009150FM-12+000799999V0202001N004612200019N0600001N1+00981+00161103121ADDAY101061AY201061GA1001+999999999GF100991001001999999001001MA1999999103061MD1810171+9999MW1021REMSYN078AAXX  12124 01467 41986 02009 10098 20016 30306 40312 58017 70200 222// 00124;
0171014670999992000051215004+58630+009150FM-12+000799999V0202001N006212200019N0600001N1+01081+00311102941ADDAY101031AY201031GA1001+999999999GF100991001001999999001001MA1999999102881MD1710181+9999MW1021REMSYN066AAXX  12154 01467 41986 02012 10108 20031 30288 40294 57018 70200;
0214014670999992000051218004+58630+009150FM-12+000799999V0202001N006212200019N0600001N1+01201+00591102661ADDAA199000091AY101061AY201061GF101991011001022501041001KA1999M+01201MA1999999102601MD1710281+9999MW1031REMSYN082AAXX  12184 01467 31886 12012 10120 20059 30260 40266 57028 70300 81040 333 10120;EQDQ01  00002PRCP99
0171014670999992000051300004+58630+009150FM-12+000799999V0200901N001012200019N0500001N1+01071+00931102581ADDAY101061AY201061GA1001+999999999GF100991001001999999001001MA1999999102521MD1710041+9999MW1011REMSYN066AAXX  13004 01467 41984 00902 10107 20093 30252 40258 57004 70100;
0171014670999992000051303004+58630+009150FM-12+000799999V0202701N000512200019N0500001N1+01021+00931102541ADDAY101031AY201031GA1001+999999999GF100991001001999999001001MA1999999102481MD1710041+9999MW1021REMSYN066AAXX  13034 01467 41984 02701 10102 20093 30248 40254 57004 70200;
0224014670999992000051306004+58630+009150FM-12+000799999V0200301N000512200019N0500001N1+01401+00691102601ADDAA199000091AY101061AY201061GA1001+999999999GF100991001001999999001001KA1999N+01001MA1999999102541MD1310061+9999MW1021REMSYN076AAXX  13064 01467 31984 00301 10140 20069 30254 40260 53006 70200 333 20100;EQDQ01  00002PRCP99
0161014670999992000051309004+58630+009150FM-12+000799999V0201501N000512200019N0500001N1+01441+01281102661ADDAY101031AY201031GF101991001001999999001011MA1999999102561MD1110021+9999MW1031REMSYN072AAXX  13094 01467 41984 11501 10144 20128 30256 40266 51002 70300 80001;
0173014670999992000051312004+58630+009150FM-12+000799999V0201801N002112200019N0500001N1+01481+00991102561ADDAY101061AY201061GF101991001001999999001011MA1999999102501MD1810061+9999MW1021REMSYN084AAXX  13124 01467 41984 11804 10148 20099 30250 40256 58006 70200 80001 222// 00142;
0161014670999992000051315004+58630+009150FM-12+000799999V0201801N003112200019N0500001N1+01551+01161102441ADDAY101031AY201031GF101991001001999999001011MA1999999102381MD1710121+9999MW1021REMSYN072AAXX  13154 01467 41984 11806 10155 20116 30238 40244 57012 70200 80001;
0214014670999992000051318004+58630+009150FM-12+000799999V0202001N003112200019N0300001N1+01461+01201102341ADDAA199000091AY101061AY201061GF101991001001999999001011KA1999M+01571MA1999999102281MD1710101+9999MW1021REMSYN082AAXX  13184 01467 31980 12006 10146 20120 30228 40234 57010 70200 80001 333 10157;EQDQ01  00002PRCP99
0171014670999992000051400004+58630+009150FM-12+000799999V0203301N001012200019N0400001N1+01101+01071102321ADDAY101061AY201061GA1001+999999999GF100991001001999999001001MA1999999102261MD1410001+9999MW1011REMSYN066AAXX  14004 01467 41982 03302 10110 20107 30226 40232 54000 70100;
0161014670999992000051403004+58630+009150FM-12+000799999V0203301N000512200019N0400001N1+01081+01041102331ADDAY101031AY201031GF101991001001999999001011MA1999999102271MD1310011+9999MW1031REMSYN072AAXX  14034 01467 41982 13301 10108 20104 30227 40233 53001 70300 80001;
0224014670999992000051406004+58630+009150FM-12+000799999V0200901N001010003019N0003001N1+01041+01031102401ADDAA199000091AY141061AY201061GA1091+999999999GF109991091999999999999999KA1999N+01001MA1999999102361MD1210091+9999MW1461REMSYN076AAXX  14064 01467 31/03 90902 10104 20103 30236 40240 52009 74640 333 20100;EQDQ01  00002PRCP99
0171014670999992000051409004+58630+009150FM-12+000799999V0200901N001010006019N0008001N1+01191+01151102431ADDAY141031AY241031GA1091+999999999GF109991091999999999999999MA1999999102371MD1010011+9999MW1451REMSYN066AAXX  14094 01467 41/08 90902 10119 20115 30237 40243 50001 74544;
0173014670999992000051412004+58630+009150FM-12+000799999V0202001N002110006019N0060001N1+01201+01161102391ADDAY141061AY221061GF108991081061000751999999MA1999999102331MD1710041+9999MW1101REMSYN084AAXX  14124 01467 41156 82004 10120 20116 30233 40239 57004 71042 886// 222// 00137;
0161014670999992000051415004+58630+009150FM-12+000799999V0202001N002112200019N0080001N1+01321+01281102211ADDAY141031AY221031GF104991041061001501001001MA1999999102151MD1710181+9999MW1101REMSYN072AAXX  14154 01467 41258 42004 10132 20128 30215 40221 57018 71042 84600;
0224014670999992000051418004+58630+009150FM-12+000799999V0202101N003112200019N0300001N1+01661+01141102001ADDAA199000091AY141061AY211061GA1001+999999999GF100991001001999999001001KA1999M+01661MA1999999101941MD1710211+9999MW1011REMSYN076AAXX  14184 01467 31980 02106 10166 20114 30194 40200 57021 70141 333 10166;EQDQ01  00002PRCP99
0171014670999992000051500004+58630+009150FM-12+000799999V0209999C000012200019N0500001N1+01431+00961101961ADDAY101061AY201061GA1001+999999999GF100991001001999999001001MA1999999101901MD1810041+9999MW1021REMSYN066AAXX  15004 01467 41984 00000 10143 20096 30190 40196 58004 70200;
0171014670999992000051503004+58630+009150FM-12+000799999V0209999C000012200019N0500001N1+01361+00801101901ADDAY101031AY201031GA1001+999999999GF100991001001999999001001MA1999999101841MD1710061+9999MW1021REMSYN066AAXX  15034 01467 41984 00000 10136 20080 30184 40190 57006 70200;
0224014670999992000051506004+58630+009150FM-12+000799999V0203001N000512200019N0500001N1+01481+01011101861ADDAA199000091AY101061AY201061GA1001+999999999GF100991001001999999001001KA1999N+01341MA1999999101801MD1710041+9999MW1021REMSYN076AAXX  15064 01467 31984 03001 10148 20101 30180 40186 57004 70200 333 20134;EQDQ01  00002PRCP99
0171014670999992000051509004+58630+009150FM-12+000799999V0201801N001012200019N0500001N1+01541+01111101841ADDAY101031AY201031GA1001+999999999GF100991001001999999001001MA1999999101781MD1710021+9999MW1021REMSYN066AAXX  15094 01467 41984 01802 10154 20111 30178 40184 57002 70200;
0167014670999992000051512004+58630+009150FM-12+000799999V0202101N004612200019N0500001N1+01631+00871999999ADDAY101061AY201061GF101991001001999999001011MA1999999101651MD1710131+9999MW1031REMSYN078AAXX  15124 01467 41984 12109 10163 20087 30165 57013 70300 80001 222// 00140;
0171014670999992000051515004+58630+009150FM-12+000799999V0202101N004612200019N0300001N1+01601+00871101591ADDAY101031AY201031GA1001+999999999GF100991001001999999001001MA1999999101531MD1710121+9999MW1011REMSYN066AAXX  15154 01467 41980 02109 10160 20087 30153 40159 57012 70100;
0214014670999992000051518004+58630+009150FM-12+000799999V0202101N004612200019N0300001N1+01471+01001101441ADDAA199000091AY101061AY201061GF101991001001999999001011KA1999M+01631MA1999999101381MD1610151+9999MW1031REMSYN082AAXX  15184 01467 31980 12109 10147 20100 30138 40144 56015 70300 80001 333 10163;EQDQ01  00002PRCP99
0161014670999992000051600004+58630+009150FM-12+000799999V0202401N002112200019N0300001N1+01421+01311101451ADDAY101061AY201061GF101991001001999999001021MA1999999101391MD1410001+9999MW1031REMSYN072AAXX  16004 01467 41980 12404 10142 20131 30139 40145 54000 70300 80002;
0161014670999992000051603004+58630+009150FM-12+000799999V0203301N000512200019N0300001N1+01351+01191101451ADDAY101031AY201031GF102991011001022501041011MA1999999101391MD1410001+9999MW1031REMSYN072AAXX  16034 01467 41880 23301 10135 20119 30139 40145 54000 70300 81041;
0214014670999992000051606004+58630+009150FM-12+000799999V0200501N000512200019N0280001N1+01401+01291101481ADDAA199000091AY101061AY201061GF102991011001022501041011KA1999N+01251MA1999999101421MD1310031+9999MW1021REMSYN082AAXX  16064 01467 31878 20501 10140 20129 30142 40148 53003 70200 81041 333 20125;EQDQ01  00002PRCP99
0161014670999992000051615004+58630+009150FM-12+000799999V0201801N000512200019N0280001N1+01741+00721101351ADDAY101031AY201031GF101991011011012501001061MA1999999101291MD1710031+9999MW1011REMSYN072AAXX  16154 01467 41678 11801 10174 20072 30129 40135 57003 70100 81106;
0214014670999992000051618004+58630+009150FM-12+000799999V0200501N001012200019N0250001N1+01771+01111101191ADDAA199000091AY101061AY201061GF103991011041012501041071KA1999M+01851MA1999999101131MD1710161+9999MW1031REMSYN082AAXX  16184 01467 31675 30502 10177 20111 30113 40119 57016 70300 81447 333 10185;EQDQ01  00002PRCP99
0161014670999992000051700004+58630+009150FM-12+000799999V0200501N001012200019N0300001N1+01411+01371100931ADDAY101061AY201061GF101991011001022501041001MA1999999100871MD1710161+9999MW1011REMSYN072AAXX  17004 01467 41880 10502 10141 20137 30087 40093 57016 70100 81040;
0161014670999992000051703004+58630+009150FM-12+000799999V0200601N001012200019N0280001N1+01381+01371100691ADDAY101031AY201031GF103991021041012501041081MA1999999100631MD1710241+9999MW1031REMSYN072AAXX  17034 01467 41678 30602 10138 20137 30063 40069 57024 70300 82448;
0201014670999992000051706004+58630+009150FM-12+000799999V0201801N001010300019N0220001N1+01531+01491100541ADDAA112000391AY161061AY221061GF108991041071004501021999KA1999N+01351MA1999999100481MD1710151+9999MW1611REMSYN088AAXX  17064 01467 11472 81802 10153 20149 30048 40054 57015 69932 76162 8472/ 333 20135;
0161014670999992000051709004+58630+009150FM-12+000799999V0202001N000510300019N0250001N1+01531+01471100381ADDAY181031AY261031GF107991031091004501071999MA1999999100321MD1710161+9999MW1251REMSYN072AAXX  17094 01467 41475 72001 10153 20147 30032 40038 57016 72586 8397/;
0173014670999992000051712004+58630+009150FM-12+000799999V0201801N002110042019N0080001N1+01531+01491100201ADDAY181061AY261061GF108991081071004501999999MA1999999100141MD1710181+9999MW1631REMSYN084AAXX  17124 01467 41458 81804 10153 20149 30014 40020 57018 76386 887// 222// 00149;
0161014670999992000051715004+58630+009150FM-12+000799999V0202001N004610042019N0100001N1+01351+01311100131ADDAY161031AY261031GF108991051071004501021999MA1999999100071MD1710071+9999MW1631REMSYN072AAXX  17154 01467 41460 82009 10135 20131 30007 40013 57007 76366 8572/;
0201014670999992000051718004+58630+009150FM-12+000799999V0202001N006210300019N0300001N1+01311+00881100111ADDAA112006191AY161061AY221061GF106991031091004501071001KA1999M+01561MA1999999100051MD1510021+9999MW1011REMSYN088AAXX  17184 01467 11480 62012 10131 20088 30005 40011 55002 60062 70162 83970 333 10156;
0161014670999992000051800004+58630+009150FM-12+000799999V0202401N004612200019N0280001N1+01091+01051100211ADDAY161061AY221061GF104991021091004501071001MA1999999100151MD1210041+9999MW1011REMSYN072AAXX  18004 01467 41478 42409 10109 20105 30015 40021 52004 70162 82970;
0161014670999992000051803004+58630+009150FM-12+000799999V0202401N002112200019N0300001N1+01031+00891100231ADDAY111031AY201031GF104991021091008001041001MA1999999100171MD1010021+9999MW1021REMSYN072AAXX  18034 01467 41580 42404 10103 20089 30017 40023 50002 70210 82940;
0201014670999992000051806004+58630+009150FM-12+000799999V0202101N003110300019N0300001N1+01071+00901100251ADDAA112000191AY111061AY201061GF105991021091008001041001KA1999N+01011MA1999999100191MD1110021+9999MW1031REMSYN088AAXX  18064 01467 11580 52106 10107 20090 30019 40025 51002 69912 70310 82940 333 20101;
0161014670999992000051809004+58630+009150FM-12+000799999V0201701N004610042019N0280001N1+01031+00691100291ADDAY181031AY221031GF107991061091004501999999MA1999999100231MD1210041+9999MW1811REMSYN072AAXX  18094 01467 41478 71709 10103 20069 30023 40029 52004 78182 869//;
0181014670999992000051812004+58630+009150FM-12+000799999V0201901N006712200019N0400001N1+01181+00921100291ADDAY181061AY211061GF102991021021008001061001MA1999999100231MD1410001+9999MW1011SA1-0409REMSYN084AAXX  18124 01467 41582 21913 10118 20092 30023 40029 54000 70181 82260 222// 00104;
0161014670999992000051815004+58630+009150FM-12+000799999V0201901N003112200019N0400001N1+01281+00931100301ADDAY111031AY201031GF104991031021008001091001MA1999999100241MD1310011+9999MW1031REMSYN072AAXX  18154 01467 41582 41906 10128 20093 30024 40030 53001 70310 83290;
0201014670999992000051818004+58630+009150FM-12+000799999V0201401N000510300019N0400001N1+01251+00901100221ADDAA112001091AY121061AY221061GF105991031021008001091081KA1999M+01301MA1999999100161MD1810081+9999MW1031REMSYN088AAXX  18184 01467 11582 51401 10125 20090 30016 40022 58008 60012 70322 83298 333 10130;
0161014670999992000051900004+58630+009150FM-12+000799999V0201501N001010300019N0300001N1+01101+00941100031ADDAY181061AY221061GF107991031091008001071999MA1999999099971MD1710081+9999MW1251REMSYN072AAXX  19004 01467 41580 71502 10110 20094 39997 40003 57008 72582 8397/;
0161014670999992000051903004+58630+009150FM-12+000799999V0202201N004610300019N0300001N1+01071+00831099991ADDAY181031AY221031GF107991031091008001071999MA1999999099931MD1710041+9999MW1251REMSYN072AAXX  19034 01467 41580 72209 10107 20083 39993 49999 57004 72582 8397/;
0201014670999992000051906004+58630+009150FM-12+000799999V0202401N004610300019N0300001N1+00991+00691100061ADDAA112004191AY181061AY221061GF107991031091008001071999KA1999N+00951MA1999999100001MD1310071+9999MW1251REMSYN088AAXX  19064 01467 11580 72409 10099 20069 30000 40006 53007 60042 72582 8397/ 333 20095;
0161014670999992000051909004+58630+009150FM-12+000799999V0202001N003110300019N0300001N1+00971+00591100191ADDAY181031AY221031GF107991031091008001041001MA1999999100131MD1210131+9999MW1021REMSYN072AAXX  19094 01467 41580 72006 10097 20059 30013 40019 52013 70282 83940;
0173014670999992000051912004+58630+009150FM-12+000799999V0202101N006210300019N0400001N1+01141+00631100211ADDAY181061AY221061GF105991011091008001041001MA1999999100151MD1110021+9999MW1011REMSYN084AAXX  19124 01467 41582 52112 10114 20063 30015 40021 51002 70182 81940 222// 00124;
0161014670999992000051915004+58630+009150FM-12+000799999V0202401N004612200019N0400001N1+01201+00641100301ADDAY121031AY221031GF104991011091008001061001MA1999999100241MD1210091+9999MW1021REMSYN072AAXX  19154 01467 41582 42409 10120 20064 30024 40030 52009 70222 81960;
0201014670999992000051918004+58630+009150FM-12+000799999V0202401N003112200019N0400001N1+01171+00661100381ADDAA112001091AY121061AY221061GF104991021091008001061001KA1999M+01201MA1999999100321MD1210081+9999MW1021REMSYN088AAXX  19184 01467 11582 42406 10117 20066 30032 40038 52008 60012 70222 82960 333 10120;
0161014670999992000052000004+58630+009150FM-12+000799999V0202701N002112200019N0300001N1+00991+00781100511ADDAY111061AY201061GF101991011021008001041001MA1999999100451MD1210041+9999MW1011REMSYN072AAXX  20004 01467 41580 12704 10099 20078 30045 40051 52004 70110 81240;
0171014670999992000052003004+58630+009150FM-12+000799999V0202701N001012200019N0400001N1+00881+00841100551ADDAY101031AY201031GA1001+999999999GF100991001001999999001001MA1999999100491MD1210041+9999MW1011REMSYN066AAXX  20034 01467 41982 02702 10088 20084 30049 40055 52004 70100;
0224014670999992000052006004+58630+009150FM-12+000799999V0203201N000512200019N0750001N1+00911+00721100661ADDAA199000091AY101061AY201061GA1001+999999999GF100991001001999999001001KA1999N+00731MA1999999100601MD1210111+9999MW1021REMSYN076AAXX  20064 01467 31989 03201 10091 20072 30060 40066 52011 70200 333 20073;EQDQ01  00002PRCP99
0161014670999992000052009004+58630+009150FM-12+000799999V0201601N001012200019N0500001N1+01171+00701100741ADDAY101031AY201031GF101991011021008001001001MA1999999100681MD1210081+9999MW1031REMSYN072AAXX  20094 01467 41584 11602 10117 20070 30068 40074 52008 70300 81200;
0173014670999992000052012004+58630+009150FM-12+000799999V0201801N002112200019N0600001N1+01331+00671100741ADDAY101061AY201061GF103991021021008001061001MA1999999100681MD1410001+9999MW1031REMSYN084AAXX  20124 01467 41586 31804 10133 20067 30068 40074 54000 70300 82260 222// 00132;
0161014670999992000052015004+58630+009150FM-12+000799999V0202401N003112200019N0600001N1+01391+00681100721ADDAY101031AY201031GF102991011091008001061001MA1999999100661MD1810021+9999MW1011REMSYN072AAXX  20154 01467 41586 22406 10139 20068 30066 40072 58002 70100 81960;
0214014670999992000052018004+58630+009150FM-12+000799999V0202101N003112200019N0600001N1+01401+00641100671ADDAA199000091AY101061AY201061GF101991011091008001041001KA1999M+01401MA1999999100611MD1710051+9999MW1011REMSYN082AAXX  20184 01467 31586 12106 10140 20064 30061 40067 57005 70100 81940 333 10140;EQDQ01  00002PRCP99
0161014670999992000052100004+58630+009150FM-12+000799999V0202701N000512200019N0500001N1+01161+00691100621ADDAY101061AY201061GF101991011021008001001001MA1999999100561MD1710031+9999MW1011REMSYN072AAXX  21004 01467 41584 12701 10116 20069 30056 40062 57003 70100 81200;
0171014670999992000052103004+58630+009150FM-12+000799999V0203201N000512200019N0400001N1+00971+00731100561ADDAY101031AY201031GA1001+999999999GF100991001001999999001001MA1999999100501MD1710061+9999MW1011REMSYN066AAXX  21034 01467 41982 03201 10097 20073 30050 40056 57006 70100;
0214014670999992000052106004+58630+009150FM-12+000799999V0203601N000512200019N0500001N1+01101+00391100561ADDAA199000091AY101061AY201061GF101991001001999999001021KA1999N+00841MA1999999100501MD1410001+9999MW1031REMSYN082AAXX  21064 01467 31984 13601 10110 20039 30050 40056 54000 70300 80002 333 20084;EQDQ01  00002PRCP99
0161014670999992000052109004+58630+009150FM-12+000799999V0200901N001012200019N0500001N1+01301+00691100561ADDAY101031AY201031GF101991011021012501001021MA1999999100501MD1410001+9999MW1031REMSYN072AAXX  21094 01467 41684 10902 10130 20069 30050 40056 54000 70300 81202;
0173014670999992000052112004+58630+009150FM-12+000799999V0202001N002112200019N0500001N1+01351+00821100521ADDAY101061AY201061GF102991021021008001001021MA1999999100461MD1810041+9999MW1031REMSYN084AAXX  21124 01467 41584 22004 10135 20082 30046 40052 58004 70300 82202 222// 00133;
0161014670999992000052115004+58630+009150FM-12+000799999V0202001N003112200019N0550001N1+01361+00771100511ADDAY101031AY201031GF101991011021008001001021MA1999999100451MD1610011+9999MW1011REMSYN072AAXX  21154 01467 41585 12006 10136 20077 30045 40051 56001 70100 81202;
0214014670999992000052118004+58630+009150FM-12+000799999V0202401N004612200019N0550001N1+01321+00731100461ADDAA199000091AY101061AY201061GF101991011021008001001021KA1999M+01381MA1999999100401MD1710051+9999MW1021REMSYN082AAXX  21184 01467 31585 12409 10132 20073 30040 40046 57005 70200 81202 333 10138;EQDQ01  00002PRCP99
0161014670999992000052200004+58630+009150FM-12+000799999V0202401N003112200019N0300001N1+01081+00841100501ADDAY101061AY201061GF101991011041008001001011MA1999999100441MD1310021+9999MW1021REMSYN072AAXX  22004 01467 41580 12406 10108 20084 30044 40050 53002 70200 81401;
0161014670999992000052203004+58630+009150FM-12+000799999V0202001N002112200019N0280001N1+00991+00751100501ADDAY111031AY201031GF103991021041008001041001MA1999999100441MD1410001+9999MW1031REMSYN072AAXX  22034 01467 41578 32004 10099 20075 30044 40050 54000 70310 82440;
0214014670999992000052206004+58630+009150FM-12+000799999V0203401N002112200019N0300001N1+00981+00891100611ADDAA199000091AY101061AY201061GF103991021021008001041001KA1999N+00891MA1999999100551MD1310111+9999MW1021REMSYN082AAXX  22064 01467 31580 33404 10098 20089 30055 40061 53011 70200 82240 333 20089;EQDQ01  00002PRCP99
0161014670999992000052209004+58630+009150FM-12+000799999V0200601N001012200019N0400001N1+01371+00661100701ADDAY101031AY201031GF104991031021008001061011MA1999999100641MD1210091+9999MW1031REMSYN072AAXX  22094 01467 41582 40602 10137 20066 30064 40070 52009 70300 83261;
0173014670999992000052212004+58630+009150FM-12+000799999V0202101N002112200019N0400001N1+01361+00751100761ADDAY101061AY201061GF104991011091008001041011MA1999999100701MD1210061+9999MW1021REMSYN084AAXX  22124 01467 41582 42104 10136 20075 30070 40076 52006 70200 81941 222// 00137;
0161014670999992000052215004+58630+009150FM-12+000799999V0202001N004612200019N0400001N1+01381+00751100831ADDAY101031AY201031GF104991011091004501041041MA1999999100771MD1210071+9999MW1021REMSYN072AAXX  22154 01467 41482 42009 10138 20075 30077 40083 52007 70200 81944;
0214014670999992000052218004+58630+009150FM-12+000799999V0202701N002110300019N0400001N1+01381+00791100841ADDAA199000091AY121061AY201061GF107991021091004501041041KA1999M+01431MA1999999100781MD1210011+9999MW1031REMSYN082AAXX  22184 01467 31482 72704 10138 20079 30078 40084 52001 70320 82944 333 10143;EQDQ01  00002PRCP99
0161014670999992000052300004+58630+009150FM-12+000799999V0202201N002112200019N0400001N1+01061+00781101061ADDAY181061AY221061GF101991011041008001001001MA1999999101001MD1210111+9999MW1011REMSYN072AAXX  23004 01467 41582 12204 10106 20078 30100 40106 52011 70182 81400;
0161014670999992000052303004+58630+009150FM-12+000799999V0202501N002112200019N0400001N1+00981+00841101221ADDAY101031AY201031GF101991011041008001001001MA1999999101161MD1210161+9999MW1021REMSYN072AAXX  23034 01467 41582 12504 10098 20084 30116 40122 52016 70200 81400;
0201014670999992000052306004+58630+009150FM-12+000799999V0202701N003112200019N0400001N1+01081+00941101231ADDAA112000191AY101061AY201061GF102991011041008001001011KA1999N+00981MA1999999101171MD1110011+9999MW1031REMSYN088AAXX  23064 01467 11582 22706 10108 20094 30117 40123 51001 69912 70300 81401 333 20098;
0161014670999992000052309004+58630+009150FM-12+000799999V0201801N004612200019N0400001N1+01261+00751101181ADDAY121031AY201031GF104991031091008001041011MA1999999101121MD1610051+9999MW1031REMSYN072AAXX  23094 01467 41582 41809 10126 20075 30112 40118 56005 70320 83941;
0173014670999992000052312004+58630+009150FM-12+000799999V0202001N006210300019N0400001N1+01291+00821101161ADDAY121061AY201061GF107991021091008001071011MA1999999101101MD1710021+9999MW1031REMSYN084AAXX  23124 01467 41582 72012 10129 20082 30110 40116 57002 70320 82971 222// 00137;
0161014670999992000052315004+58630+009150FM-12+000799999V0202001N006212200019N0400001N1+01261+00671101111ADDAY121031AY201031GF103991021041008001041011MA1999999101051MD1710051+9999MW1011REMSYN072AAXX  23154 01467 41582 32012 10126 20067 30105 40111 57005 70120 82441;
0214014670999992000052318004+58630+009150FM-12+000799999V0202001N004610300019N0400001N1+01201+00851101041ADDAA199000091AY121061AY201061GF108991021091008001071999KA1999M+01291MA1999999100981MD1610071+9999MW1031REMSYN082AAXX  23184 01467 31582 82009 10120 20085 30098 40104 56007 70320 8297/ 333 10129;EQDQ01  00002PRCP99
0161014670999992000052400004+58630+009150FM-12+000799999V0202001N004610300019N0200001N1+01111+01071100591ADDAY161061AY261061GF108991021071004501021999MA1999999100531MD1810221+9999MW1611REMSYN072AAXX  24004 01467 41470 82009 10111 20107 30053 40059 58022 76166 8272/;
0161014670999992000052403004+58630+009150FM-12+000799999V0201801N003110042019N0100001N1+01201+01171100291ADDAY161031AY261031GF108991061071004501021999MA1999999100231MD1710301+9999MW1611REMSYN072AAXX  24034 01467 41460 81806 10120 20117 30023 40029 57030 76166 8672/;
0201014670999992000052406004+58630+009150FM-12+000799999V0201901N003110021019N0080001N1+01191+01161100161ADDAA112007191AY161061AY251061GF108991061071002501021999KA1999N+01101MA1999999100101MD1710131+9999MW1511REMSYN088AAXX  24064 01467 11358 81906 10119 20116 30010 40016 57013 60072 75165 8672/ 333 20110;
0180014670999992000052409004+58630+009150FM-12+000799999V0202001N003112200019N0100001N1+01191+01161100161ADDAY151031AY241031GF104991999091002501041011MA1999999100101MD1410001+9999MW1011REMSYN072AAXX  24094 01467 41360 42006 10119 20116 30010 40016 54000 70154 86941;EQDQ01+000062SCOTLC
0173014670999992000052412004+58630+009150FM-12+000799999V0202001N004612200019N0100001N1+01321+01021100221ADDAY121061AY211061GF104991031091004501041001MA1999999100161MD1310061+9999MW1011REMSYN084AAXX  24124 01467 41460 42009 10132 20102 30016 40022 53006 70121 83940 222// 00122;
0161014670999992000052415004+58630+009150FM-12+000799999V0202701N004612200019N0400001N1+01651+00591100371ADDAY121031AY201031GF102991021021008001001001MA1999999100311MD1210151+9999MW1011REMSYN072AAXX  24154 01467 41582 22709 10165 20059 30031 40037 52015 70120 82200;
0201014670999992000052418004+58630+009150FM-12+000799999V0202701N003112200019N0400001N1+01551-00451100531ADDAA112000191AY121061AY201061GF101991011041008001001001KA1999M+01681MA1999999100471MD1210161+9999MW1011REMSYN088AAXX  24184 01467 11582 12706 10155 21045 30047 40053 52016 69912 70120 81400 333 10168;
0161014670999992000052500004+58630+009150FM-12+000799999V0202701N001012200019N0500001N1+00931+00281100831ADDAY101061AY201061GF101991001001999999001011MA1999999100771MD1110101+9999MW1021REMSYN072AAXX  25004 01467 41984 12702 10093 20028 30077 40083 51010 70200 80001;
0161014670999992000052503004+58630+009150FM-12+000799999V0202501N001012200019N0500001N1+00721+00681100791ADDAY101031AY201031GF102991001001999999001011MA1999999100731MD1710041+9999MW1031REMSYN072AAXX  25034 01467 41984 22502 10072 20068 30073 40079 57004 70300 80001;
0214014670999992000052506004+58630+009150FM-12+000799999V0202201N000512200019N0500001N1+00861+00441100791ADDAA199000091AY101061AY201061GF104991021001017501011021KA1999N+00711MA1999999100731MD1410001+9999MW1031REMSYN082AAXX  25064 01467 31784 42201 10086 20044 30073 40079 54000 70300 82012 333 20071;EQDQ01  00002PRCP99
0161014670999992000052509004+58630+009150FM-12+000799999V0201201N001012200019N0500001N1+01131+00281100711ADDAY101031AY201031GF102991011011008001041011MA1999999100651MD1810081+9999MW1011REMSYN072AAXX  25094 01467 41584 21202 10113 20028 30065 40071 58008 70100 81141;
0173014670999992000052512004+58630+009150FM-12+000799999V0201201N001010300019N0500001N1+01201+00301100581ADDAY111061AY201061GF107991011021008001071999MA1999999100521MD1710131+9999MW1031REMSYN084AAXX  25124 01467 41584 71202 10120 20030 30052 40058 57013 70310 8127/ 222// 00126;
0161014670999992000052515004+58630+009150FM-12+000799999V0200901N000510300019N0500001N1+01141+00221100351ADDAY121031AY221031GF108991011051008001071999MA1999999100291MD1710231+9999MW1031REMSYN072AAXX  25154 01467 41584 80901 10114 20022 30029 40035 57023 70322 8157/;
0201014670999992000052518004+58630+009150FM-12+000799999V0200301N002110300019N0280001N1+00941+00321100121ADDAA112000191AY161061AY221061GF108991041071008001021999KA1999M+01201MA1999999100061MD1710231+9999MW1611REMSYN088AAXX  25184 01467 11578 80304 10094 20032 30006 40012 57023 69922 76162 8472/ 333 10120;
0161014670999992000052600004+58630+009150FM-12+000799999V0202701N002110300019N0300001N1+00801+00531100081ADDAY161061AY221061GF108991041071008001021999MA1999999100021MD1610021+9999MW1611REMSYN072AAXX  26004 01467 41580 82704 10080 20053 30002 40008 56002 76162 8472/;
0161014670999992000052603004+58630+009150FM-12+000799999V0203001N001010300019N0300001N1+00961+00671100311ADDAY161031AY221031GF108991021071008001021999MA1999999100251MD1310231+9999MW1601REMSYN072AAXX  26034 01467 41580 83002 10096 20067 30025 40031 53023 76062 8272/;
0201014670999992000052606004+58630+009150FM-12+000799999V0202701N001010300019N0400001N1+01081+00571100491ADDAA112006191AY161061AY221061GF106991011091008001041001KA1999N+00791MA1999999100431MD1210181+9999MW1011REMSYN088AAXX  26064 01467 11582 62702 10108 20057 30043 40049 52018 60062 70162 81940 333 20079;
0161014670999992000052609004+58630+009150FM-12+000799999V0202701N002112200019N0400001N1+01361+00311100661ADDAY121031AY211031GF104991021021008001041001MA1999999100601MD1210171+9999MW1011REMSYN072AAXX  26094 01467 41582 42704 10136 20031 30060 40066 52017 70121 82240;
0173014670999992000052612004+58630+009150FM-12+000799999V0202701N006212200019N0400001N1+01481+00161100731ADDAY121061AY211061GF104991031021008001041001MA1999999100671MD1310071+9999MW1021REMSYN084AAXX  26124 01467 41582 42712 10148 20016 30067 40073 53007 70221 83240 222// 00139;
0161014670999992000052615004+58630+009150FM-12+000799999V0202701N004612200019N0500001N1+01471+00161100931ADDAY101031AY201031GF103991021021008001041011MA1999999100871MD1210201+9999MW1011REMSYN072AAXX  26154 01467 41584 32709 10147 20016 30087 40093 52020 70100 82241;
0214014670999992000052618004+58630+009150FM-12+000799999V0202101N006212200019N0500001N1+01271+00801101011ADDAA199000091AY101061AY201061GF103991021021008001041011KA1999M+01541MA1999999100951MD1210081+9999MW1021REMSYN082AAXX  26184 01467 31584 32112 10127 20080 30095 40101 52008 70200 82241 333 10154;EQDQ01  00002PRCP99
0161014670999992000052700004+58630+009150FM-12+000799999V0203301N000512200019N0400001N1+00941+00641101131ADDAY101061AY201061GF102991011041008001041011MA1999999101071MD1010021+9999MW1011REMSYN072AAXX  27004 01467 41582 23301 10094 20064 30107 40113 50002 70100 81441;
0161014670999992000052703004+58630+009150FM-12+000799999V0200101N001010300019N0300001N1+00901+00761101011ADDAY121031AY201031GF107991031051008001071999MA1999999100951MD1710121+9999MW1031REMSYN072AAXX  27034 01467 41580 70102 10090 20076 30095 40101 57012 70320 8357/;
0201014670999992000052706004+58630+009150FM-12+000799999V0200901N003110300019N0250001N1+01181+00941100811ADDAA112001091AY161061AY211061GF108991041071008001021999KA1999N+00881MA1999999100751MD1710201+9999MW1611REMSYN088AAXX  27064 01467 11575 80906 10118 20094 30075 40081 57020 69992 76161 8472/ 333 20088;
0161014670999992000052709004+58630+009150FM-12+000799999V0200901N004610042019N0100001N1+01101+01031100531ADDAY161031AY261031GF108991061071004501021999MA1999999100471MD1710281+9999MW1631REMSYN072AAXX  27094 01467 41460 80909 10110 20103 30047 40053 57028 76366 8672/;
0173014670999992000052712004+58630+009150FM-12+000799999V0200901N006210042019N0080001N1+01031+01021100121ADDAY161061AY261061GF108991081071004501999999MA1999999100061MD1710411+9999MW1631REMSYN084AAXX  27124 01467 41458 80912 10103 20102 30006 40012 57041 76366 887// 222// 00120;
0161014670999992000052715004+58630+009150FM-12+000799999V0202001N007710300019N0300001N1+01221+00811100001ADDAY161031AY221031GF108991041051008001071999MA1999999099941MD1510121+9999MW1021REMSYN072AAXX  27154 01467 41580 82015 10122 20081 39994 40000 55012 70262 8457/;
0201014670999992000052718004+58630+009150FM-12+000799999V0201801N009810300019N0300001N1+01151+00681099871ADDAA112017091AY181061AY261061GF108991031091008001071999KA1999M+01221MA1999999099811MD1810131+9999MW1021REMSYN088AAXX  27184 01467 11580 81819 10115 20068 39981 49987 58013 60172 70286 8397/ 333 10122;
0161014670999992000052800004+58630+009150FM-12+000799999V0201801N009810300019N0300001N1+01111+00761099781ADDAY181061AY221061GF108991021091008001071999MA1999999099721MD1510021+9999MW1021REMSYN072AAXX  28004 01467 41580 81819 10111 20076 39972 49978 55002 70282 8297/;
0161014670999992000052803004+58630+009150FM-12+000799999V0202001N007710042019N0280001N1+01021+00761099891ADDAY121031AY221031GF106991061051004501001001MA1999999099831MD1210111+9999MW1011REMSYN072AAXX  28034 01467 41478 62015 10102 20076 39983 49989 52011 70122 86500;
0201014670999992000052806004+58630+009150FM-12+000799999V0202001N007710300019N0280001N1+00991+00821100061ADDAA112000391AY121061AY221061GF106991021091004501041001KA1999N+00941MA1999999100001MD1210171+9999MW1021REMSYN088AAXX  28064 01467 11478 62015 10099 20082 30000 40006 52017 69932 70222 82940 333 20094;
0161014670999992000052809004+58630+009150FM-12+000799999V0202001N006210300019N0300001N1+01021+00861100271ADDAY121031AY221031GF106991021091004501041001MA1999999100211MD1210211+9999MW1021REMSYN072AAXX  28094 01467 41480 62012 10102 20086 30021 40027 52021 70222 82940;
0173014670999992000052812004+58630+009150FM-12+000799999V0202001N004610300019N0280001N1+01081+00911100281ADDAY121061AY221061GF106991031091004501071011MA1999999100221MD1010011+9999MW1021REMSYN084AAXX  28124 01467 41478 62009 10108 20091 30022 40028 50001 70222 83971 222// 00098;
0161014670999992000052815004+58630+009150FM-12+000799999V0202301N001010300019N0280001N1+01001+00911100231ADDAY181031AY221031GF107991031091008001071999MA1999999100171MD1710051+9999MW1251REMSYN072AAXX  28154 01467 41578 72302 10100 20091 30017 40023 57005 72582 8397/;
0201014670999992000052818004+58630+009150FM-12+000799999V0200401N001010300019N0300001N1+01001+00961100091ADDAA112000891AY181061AY221061GF108991021091008001071999KA1999M+01091MA1999999100031MD1710141+9999MW1031REMSYN088AAXX  28184 01467 11580 80402 10100 20096 30003 40009 57014 69982 70382 8297/ 333 10109;
0161014670999992000052900004+58630+009150FM-12+000799999V0200601N004610042019N0100001N1+00981+00931099551ADDAY181061AY261061GF108991081071004501999999MA1999999099491MD1710261+9999MW1631REMSYN072AAXX  29004 01467 41460 80609 10098 20093 39949 49955 57026 76386 887//;
0161014670999992000052903004+58630+009150FM-12+000799999V0200901N004610042019N0100001N1+01021+00981099301ADDAY191031AY261031GF108991061071004501021999MA1999999099241MD1710251+9999MW1951REMSYN072AAXX  29034 01467 41460 80909 10102 20098 39924 49930 57025 79596 8672/;
0201014670999992000052906004+58630+009150FM-12+000799999V0200901N003110042019N0080001N1+00961+00911099281ADDAA112022191AY191061AY281061GF108991061091004501071999KA1999N+00961MA1999999099221MD1610021+9999MW1821REMSYN088AAXX  29064 01467 11458 80906 10096 20091 39922 49928 56002 60222 78298 8697/ 333 20096;
0161014670999992000052909004+58630+009150FM-12+000799999V0200301N003110042019N0100001N1+01081+01021099251ADDAY181031AY261031GF108991061091004501071999MA1999999099191MD1710031+9999MW1811REMSYN072AAXX  29094 01467 41460 80306 10108 20102 39919 49925 57003 78186 8697/;
0173014670999992000052912004+58630+009150FM-12+000799999V0203601N003110300019N0100001N1+01021+00951099321ADDAY181061AY221061GF108991031091004501071999MA1999999099261MD1210071+9999MW1801REMSYN084AAXX  29124 01467 41460 83606 10102 20095 39926 49932 52007 78082 8397/ 222// 00122;
0161014670999992000052915004+58630+009150FM-12+000799999V0200201N000510300019N0250001N1+01201+00881099471ADDAY181031AY221031GF106991021091004501071021MA1999999099411MD1110151+9999MW1011REMSYN072AAXX  29154 01467 41475 60201 10120 20088 39941 49947 51015 70182 82972;
0201014670999992000052918004+58630+009150FM-12+000799999V0202601N001010300019N0250001N1+01081+01011099591ADDAA112008991AY181061AY221061GF107991031091004501061021KA1999M+01231MA1999999099531MD1010121+9999MW1811REMSYN088AAXX  29184 01467 11475 72602 10108 20101 39953 49959 50012 60092 78182 83962 333 10123;
0161014670999992000053000004+58630+009150FM-12+000799999V0202701N002112200019N0400001N1+00981+00581099801ADDAY181061AY211061GF104991031091004501071001MA1999999099741MD1210111+9999MW1011REMSYN072AAXX  30004 01467 41482 42704 10098 20058 39974 49980 52011 70181 83970;
0161014670999992000053003004+58630+009150FM-12+000799999V0202701N002110300019N0400001N1+00961+00311099911ADDAY121031AY211031GF106991041091004501071021MA1999999099851MD1110111+9999MW1031REMSYN072AAXX  30034 01467 41482 62704 10096 20031 39985 49991 51011 70321 84972;
0201014670999992000053006004+58630+009150FM-12+000799999V0202701N002110300019N0550001N1+01021+00171100061ADDAA112001091AY121061AY221061GF106991031071004501041021KA1999N+00941MA1999999100001MD1210151+9999MW1021REMSYN088AAXX  30064 01467 11485 62704 10102 20017 30000 40006 52015 60012 70222 83742 333 20094;
0161014670999992000053009004+58630+009150FM-12+000799999V0202701N002110300019N0400001N1+01141+00171100251ADDAY121031AY221031GF107991021071004501071021MA1999999100191MD1210191+9999MW1031REMSYN072AAXX  30094 01467 41482 72704 10114 20017 30019 40025 52019 70322 82772;
0173014670999992000053012004+58630+009150FM-12+000799999V0202701N002110300019N0400001N1+01311+00021100331ADDAY181061AY221061GF107991031021004501071021MA1999999100271MD1210081+9999MW1021REMSYN084AAXX  30124 01467 41482 72704 10131 20002 30027 40033 52008 70282 83272 222// 00123;
0161014670999992000053015004+58630+009150FM-12+000799999V0202701N002110300019N0550001N1+01461-00201100361ADDAY121031AY221031GF107991021021004501061021MA1999999100301MD1210031+9999MW1021REMSYN072AAXX  30154 01467 41485 72704 10146 21020 30030 40036 52003 70222 82262;
0201014670999992000053018004+58630+009150FM-12+000799999V0202701N003112200019N0550001N1+01461-00381100451ADDAA112000191AY121061AY201061GF102991011041008001001021KA1999M+01481MA1999999100391MD1310091+9999MW1011REMSYN088AAXX  30184 01467 11585 22706 10146 21038 30039 40045 53009 69912 70120 81402 333 10148;
0161014670999992000053100004+58630+009150FM-12+000799999V0202701N000512200019N0550001N1+00861-00181100771ADDAY101061AY201061GF101991011001017501041001MA1999999100711MD1210351+9999MW1021REMSYN072AAXX  31004 01467 41785 12701 10086 21018 30071 40077 52035 70200 81040;
0161014670999992000053103004+58630+009150FM-12+000799999V0202401N000512200019N0550001N1+00711-00111100881ADDAY101031AY201031GF101991011001017501041001MA1999999100821MD1210111+9999MW1021REMSYN072AAXX  31034 01467 41785 12401 10071 21011 30082 40088 52011 70200 81040;
0214014670999992000053106004+58630+009150FM-12+000799999V0202701N001012200019N0550001N1+00851-00051101001ADDAA199000091AY101061AY201061GF102991011001012501041021KA1999N+00681MA1999999100941MD1210121+9999MW1031REMSYN082AAXX  31064 01467 31685 22702 10085 21005 30094 40100 52012 70300 81042 333 20068;EQDQ01  00002PRCP99
0161014670999992000053109004+58630+009150FM-12+000799999V0202401N003112200019N0550001N1+01221+00141101081ADDAY111031AY201031GF105991021021008001031091MA1999999101021MD1110081+9999MW1031REMSYN072AAXX  31094 01467 41585 52406 10122 20014 30102 40108 51008 70310 82239;
0173014670999992000053112004+58630+009150FM-12+000799999V0201801N006212200019N0300001N1+01161+00751101141ADDAY181061AY211061GF104991031021004501061021MA1999999101081MD1310061+9999MW1271REMSYN084AAXX  31124 01467 41480 41812 10116 20075 30108 40114 53006 72781 83262 222// 00124;
0161014670999992000053115004+58630+009150FM-12+000799999V0202701N004612200019N0550001N1+01401+00121101211ADDAY181031AY211031GF104991021021008001061091MA1999999101151MD1310071+9999MW1021REMSYN072AAXX  31154 01467 41585 42709 10140 20012 30115 40121 53007 70281 82269;
0201014670999992000053118004+58630+009150FM-12+000799999V0202701N002112200019N0550001N1+01361+00121101291ADDAA112000191AY181061AY211061GF102991011041008001001031KA1999M+01451MA1999999101231MD1210081+9999MW1011REMSYN088AAXX  31184 01467 11585 22704 10136 20012 30123 40129 52008 69912 70181 81403 333 10145;
0161014670999992000060100004+58630+009150FM-12+000799999V0202701N001012200019N0550001N1+00921+00231101581ADDAY101061AY201061GF102991011001012501041031MA1999999101521MD1210151+9999MW1021REMSYN072AAXX  01004 01467 41685 22702 10092 20023 30152 40158 52015 70200 81043;
0161014670999992000060103004+58630+009150FM-12+000799999V0202701N000512200019N0550001N1+00801+00461101641ADDAY111031AY201031GF104991021001022501031081MA1999999101581MD1210061+9999MW1031REMSYN072AAXX  01034 01467 41885 42701 10080 20046 30158 40164 52006 70310 82038;
0214014670999992000060106004+58630+009150FM-12+000799999V0202701N001012200019N0550001N1+00901+00481101681ADDAA199000091AY111061AY201061GF103991011081004501041091KA1999N+00701MA1999999101621MD1010041+9999MW1021REMSYN082AAXX  01064 01467 31485 32702 10090 20048 30162 40168 50004 70210 81849 333 20070;EQDQ01  00002PRCP99
0161014670999992000060109004+58630+009150FM-12+000799999V0202001N002112200019N0550001N1+01101+00491101671ADDAY101031AY201031GF103991011041008001031011MA1999999101611MD1810011+9999MW1021REMSYN072AAXX  01094 01467 41585 32004 10110 20049 30161 40167 58001 70200 81431;
0173014670999992000060112004+58630+009150FM-12+000799999V0201801N003110300019N0550001N1+01131+00701101701ADDAY121061AY201061GF107991021071004501071021MA1999999101641MD1310031+9999MW1031REMSYN084AAXX  01124 01467 41485 71806 10113 20070 30164 40170 53003 70320 82772 222// 00124;
0161014670999992000060115004+58630+009150FM-12+000799999V0201801N002110300019N0550001N1+01171+00981101611ADDAY121031AY221031GF108991041071004501021999MA1999999101551MD1810091+9999MW1031REMSYN072AAXX  01154 01467 41485 81804 10117 20098 30155 40161 58009 70322 8472/;
0184014670999992000060118004+58630+009150FM-12+000799999V0201201N002110300019N0150001N1+01141+01001101351ADDAY161061AY221061GF108991041071004501021999KA1999M+01181MA1999999101291MD1710261+9999MW1601REMSYN082AAXX  01184 01467 11465 81204 10114 20100 30129 40135 57026 76062 8472/ 333 10118;
0161014670999992000060200004+58630+009150FM-12+000799999V0202101N004610021019N0150001N1+01161+01121100781ADDAY161061AY221061GF108991081071002501999999MA1999999100721MD1710451+9999MW1621REMSYN072AAXX  02004 01467 41365 82109 10116 20112 30072 40078 57045 76262 887//;
0161014670999992000060203004+58630+009150FM-12+000799999V0202401N002110021019N9999999N1+01161+01131100681ADDAY161031AY221031GF108991061071002501021999MA1999999100621MD1610101+9999MW1631REMSYN072AAXX  02034 01467 41355 82404 10116 20113 30062 40068 56010 76362 8672/;
0201014670999992000060206004+58630+009150FM-12+000799999V0202101N002110021019N9999999N1+01201+01171100581ADDAA112006191AY161061AY221061GF108991061071002501021999KA1999N+01111MA1999999100521MD1610101+9999MW1211REMSYN088AAXX  02064 01467 31355 82104 10120 20117 30052 40058 56010 60062 72162 8672/ 333 20111;
0161014670999992000060209004+58630+009150FM-12+000799999V0202301N002110012019N0060001N1+01221+01191100571ADDAY151031AY221031GF108991061061001501021999MA1999999100511MD1610011+9999MW1021REMSYN072AAXX  02094 01467 41256 82304 10122 20119 30051 40057 56001 70252 8662/;
0173014670999992000060212004+58630+009150FM-12+000799999V0202301N004610750019N0200001N1+01321+01281100441ADDAY151061AY221061GF105991021091002501031021MA1999999100381MD1710131+9999MW1011REMSYN084AAXX  02124 01467 41370 52309 10132 20128 30038 40044 57013 70152 82932 222// 00130;
0161014670999992000060215004+58630+009150FM-12+000799999V0202701N004610750019N0200001N1+01661+00501100521ADDAY121031AY211031GF105991021091004501061021MA1999999100461MD1310081+9999MW1021REMSYN072AAXX  02154 01467 41470 52709 10166 20050 30046 40052 53008 70221 82962;
0201014670999992000060218004+58630+009150FM-12+000799999V0202701N004612200019N0550001N1+01501+00031100771ADDAA112000391AY111061AY201061GF101991011011008001001011KA1999M+01661MA1999999100711MD1210251+9999MW1011REMSYN088AAXX  02184 01467 11585 12709 10150 20003 30071 40077 52025 69932 70110 81101 333 10166;
0171014670999992000060300004+58630+009150FM-12+000799999V0202701N002112200019N0550001N1+00921-00041101371ADDAY101061AY201061GA1001+999999999GF100991001001999999001001MA1999999101311MD1210301+9999MW1021REMSYN066AAXX  03004 01467 41985 02704 10092 21004 30131 40137 52030 70200;
0171014670999992000060303004+58630+009150FM-12+000799999V0202701N000512200019N0550001N1+00901-00031101641ADDAY101031AY201031GA1001+999999999GF100991001001999999001001MA1999999101581MD1210271+9999MW1021REMSYN066AAXX  03034 01467 41985 02701 10090 21003 30158 40164 52027 70200;
0224014670999992000060306004+58630+009150FM-12+000799999V0202901N002112200019N0550001N1+00961-00281101731ADDAA199000091AY101061AY201061GA1001+999999999GF100991001001999999001001KA1999N+00701MA1999999101671MD1310091+9999MW1021REMSYN076AAXX  03064 01467 31985 02904 10096 21028 30167 40173 53009 70200 333 20070;EQDQ01  00002PRCP99
0161014670999992000060309004+58630+009150FM-12+000799999V0202701N002112200019N0550001N1+01261-00201101811ADDAY101031AY201031GF101991011011008001001011MA1999999101751MD1110081+9999MW1021REMSYN072AAXX  03094 01467 41585 12704 10126 21020 30175 40181 51008 70200 81101;
0173014670999992000060312004+58630+009150FM-12+000799999V0202701N002112200019N0550001N1+01501-00121101811ADDAY101061AY201061GF102991011011008001001031MA1999999101751MD1410001+9999MW1021REMSYN084AAXX  03124 01467 41585 22704 10150 21012 30175 40181 54000 70200 81103 222// 00130;
0161014670999992000060315004+58630+009150FM-12+000799999V0202701N002112200019N0550001N1+01601-00161101761ADDAY101031AY201031GF101991011011008001001011MA1999999101701MD1610051+9999MW1021REMSYN072AAXX  03154 01467 41585 12704 10160 21016 30170 40176 56005 70200 81101;
0224014670999992000060318004+58630+009150FM-12+000799999V0202701N002112200019N0550001N1+01561-00331101741ADDAA199000091AY101061AY201061GA1001+999999999GF100991001001999999001001KA1999M+01601MA1999999101681MD1810021+9999MW1021REMSYN076AAXX  03184 01467 31985 02704 10156 21033 30168 40174 58002 70200 333 10160;EQDQ01  00002PRCP99
0171014670999992000060400004+58630+009150FM-12+000799999V0202901N000512200019N0550001N1+01301-00331102021ADDAY101061AY201061GA1001+999999999GF100991001001999999001001MA1999999101961MD1210201+9999MW1021REMSYN066AAXX  04004 01467 41985 02901 10130 21033 30196 40202 52020 70200;
0161014670999992000060403004+58630+009150FM-12+000799999V0203601N001012200019N0550001N1+00721-00451102111ADDAY101031AY201031GF102991001001999999001081MA1999999102051MD1210091+9999MW1021REMSYN072AAXX  04034 01467 41985 23602 10072 21045 30205 40211 52009 70200 80008;
0214014670999992000060406004+58630+009150FM-12+000799999V0200201N002112200019N0550001N1+00901-00391102201ADDAA199000091AY101061AY201061GF102991001001999999001081KA1999N+00721MA1999999102141MD1110091+9999MW1021REMSYN082AAXX  04064 01467 31985 20204 10090 21039 30214 40220 51009 70200 80008 333 20072;EQDQ01  00002PRCP99
0161014670999992000060409004+58630+009150FM-12+000799999V0200401N002112200019N0550001N1+01081-00211102231ADDAY111031AY201031GF104991021001022501031091MA1999999102171MD1010031+9999MW1031REMSYN072AAXX  04094 01467 41885 40404 10108 21021 30217 40223 50003 70310 82039;
0173014670999992000060412004+58630+009150FM-12+000799999V0200901N001012200019N0550001N1+01101+00151102191ADDAY111061AY211061GF105991031001022501031091MA1999999102131MD1610041+9999MW1021REMSYN084AAXX  04124 01467 41885 50902 10110 20015 30213 40219 56004 70211 83039 222// 00124;
0161014670999992000060415004+58630+009150FM-12+000799999V0200901N000510210019N0300001N1+01161+00381102141ADDAY121031AY211031GF107991061001022501021021MA1999999102081MD1610051+9999MW1031REMSYN072AAXX  04154 01467 41880 70901 10116 20038 30208 40214 56005 70321 86022;
0214014670999992000060418004+58630+009150FM-12+000799999V0209999C000012200019N0550001N1+01281+00351102081ADDAA199000091AY121061AY201061GF104991031001022501031091KA1999M+01281MA1999999102021MD1610061+9999MW1011REMSYN082AAXX  04184 01467 31885 40000 10128 20035 30202 40208 56006 70120 83039 333 10128;EQDQ01  00002PRCP99
0161014670999992000060500004+58630+009150FM-12+000799999V0203001N000512200019N0550001N1+00851-00051102091ADDAY121061AY201061GF103991031001022501031091MA1999999102031MD1210011+9999MW1011REMSYN072AAXX  05004 01467 41885 33001 10085 21005 30203 40209 52001 70120 83039;
0161014670999992000060503004+58630+009150FM-12+000799999V0203201N000512200019N0550001N1+00781-00121102081ADDAY121031AY201031GF104991031001022501031091MA1999999102021MD1710011+9999MW1031REMSYN072AAXX  05034 01467 41885 43201 10078 21012 30202 40208 57001 70320 83039;
0214014670999992000060506004+58630+009150FM-12+000799999V0200201N000510750019N0550001N1+01021-00041102091ADDAA199000091AY121061AY221061GF107991041001017501031091KA1999N+00751MA1999999102031MD1210011+9999MW1031REMSYN082AAXX  05064 01467 31785 70201 10102 21004 30203 40209 52001 70322 84039 333 20075;EQDQ01  00002PRCP99
0161014670999992000060509004+58630+009150FM-12+000799999V0200601N003110300019N0550001N1+01201+00421102191ADDAY121031AY221031GF107991041041012501031021MA1999999102131MD1310101+9999MW1021REMSYN072AAXX  05094 01467 41685 70606 10120 20042 30213 40219 53010 70222 84432;
0173014670999992000060512004+58630+009150FM-12+000799999V0200801N001012200019N0550001N1+01341+00491102171ADDAY121061AY201061GF103991011011008001031021MA1999999102111MD1610021+9999MW1011REMSYN084AAXX  05124 01467 41585 30802 10134 20049 30211 40217 56002 70120 81132 222// 00130;
0161014670999992000060515004+58630+009150FM-12+000799999V0200901N001012200019N0550001N1+01321+00441102091ADDAY111031AY201031GF102991011011008001031021MA1999999102031MD1710081+9999MW1011REMSYN072AAXX  05154 01467 41585 20902 10132 20044 30203 40209 57008 70110 81132;
0214014670999992000060518004+58630+009150FM-12+000799999V0201201N000512200019N0550001N1+01341+00381101951ADDAA199000091AY101061AY201061GF102991011001012501031091KA1999M+01361MA1999999101891MD1710141+9999MW1021REMSYN082AAXX  05184 01467 31685 21201 10134 20038 30189 40195 57014 70200 81039 333 10136;EQDQ01  00002PRCP99
0161014670999992000060600004+58630+009150FM-12+000799999V0209999C000010300019N0550001N1+01001+00161101831ADDAY121061AY211061GF107991021071004501051031MA1999999101771MD1810051+9999MW1031REMSYN072AAXX  06004 01467 41485 70000 10100 20016 30177 40183 58005 70321 82753;
0161014670999992000060603004+58630+009150FM-12+000799999V0203401N000510300019N0550001N1+01071+00121101771ADDAY121031AY221031GF107991021071004501011001MA1999999101711MD1710061+9999MW1021REMSYN072AAXX  06034 01467 41485 73401 10107 20012 30171 40177 57006 70222 82710;
0214014670999992000060606004+58630+009150FM-12+000799999V0200201N001012200019N0550001N1+01101+00321101671ADDAA199000091AY121061AY221061GF104991031051004501071999KA1999N+00961MA1999999101611MD1710101+9999MW1031REMSYN082AAXX  06064 01467 31485 40202 10110 20032 30161 40167 57010 70322 8357/ 333 20096;EQDQ01  00002PRCP99
0173014670999992000060612004+58630+009150FM-12+000799999V0200301N000510300019N0300001N1+01331+00861101691ADDAY121061AY221061GF108991011071004501071999MA1999999101631MD1810011+9999MW1021REMSYN084AAXX  06124 01467 41480 80301 10133 20086 30163 40169 58001 70222 8177/ 222// 00130;
0161014670999992000060615004+58630+009150FM-12+000799999V0203201N000510300019N0300001N1+01401+00451101581ADDAY161031AY221031GF108991021071004501071999MA1999999101521MD1610111+9999MW1601REMSYN072AAXX  06154 01467 41480 83201 10140 20045 30152 40158 56011 76062 8277/;
0201014670999992000060618004+58630+009150FM-12+000799999V0203401N000510300019N0300001N1+01341+00711101481ADDAA112000191AY161061AY221061GF108991031071004501021999KA1999M+01401MA1999999101421MD1310101+9999MW1601REMSYN088AAXX  06184 01467 11480 83401 10134 20071 30142 40148 53010 69912 76062 8372/ 333 10140;
0161014670999992000060700004+58630+009150FM-12+000799999V0201801N001010300019N0300001N1+01221+00941101391ADDAY121061AY221061GF108991031051004501021999MA1999999101331MD1310041+9999MW1021REMSYN072AAXX  07004 01467 41480 81802 10122 20094 30133 40139 53004 70222 8352/;
0161014670999992000060703004+58630+009150FM-12+000799999V0202701N000510300019N0550001N1+01101+01031101341ADDAY161031AY221031GF108991011071004501021999MA1999999101281MD1810051+9999MW1601REMSYN072AAXX  07034 01467 41485 82701 10110 20103 30128 40134 58005 76062 8172/;
0201014670999992000060706004+58630+009150FM-12+000799999V0201601N000510300019N0550001N1+01121+00931101281ADDAA112000191AY161061AY221061GF107991021071004501071021KA1999N+01001MA1999999101221MD1710061+9999MW1021REMSYN088AAXX  07064 01467 11485 71601 10112 20093 30122 40128 57006 69912 70262 82772 333 20100;
0161014670999992000060709004+58630+009150FM-12+000799999V0201801N001010300019N0550001N1+01321+00611101251ADDAY121031AY221031GF107991021021004501071021MA1999999101191MD1710031+9999MW1021REMSYN072AAXX  07094 01467 41485 71802 10132 20061 30119 40125 57003 70222 82272;
0173014670999992000060712004+58630+009150FM-12+000799999V0201801N003110300019N0550001N1+01391+00821101141ADDAY121061AY211061GF107991041091004501071021MA1999999101081MD1710111+9999MW1021REMSYN084AAXX  07124 01467 41485 71806 10139 20082 30108 40114 57011 70221 84972 222// 00140;
0161014670999992000060715004+58630+009150FM-12+000799999V0201201N001010300019N0550001N1+01441+00931101161ADDAY191031AY281031GF107991041091002501071001MA1999999101101MD1210021+9999MW1021REMSYN072AAXX  07154 01467 41385 71202 10144 20093 30110 40116 52002 70298 84970;
0201014670999992000060718004+58630+009150FM-12+000799999V0203101N001010300019N0550001N1+01291+00821101061ADDAA112004191AY191061AY281061GF107991041091002501071001KA1999M+01451MA1999999101001MD1710101+9999MW1951REMSYN088AAXX  07184 01467 11385 73102 10129 20082 30100 40106 57010 60042 79598 84970 333 10145;
0161014670999992000060800004+58630+009150FM-12+000799999V0203001N002112200019N0550001N1+01221+00391101191ADDAY191061AY281061GF103991011091004501041021MA1999999101131MD1210041+9999MW1011REMSYN072AAXX  08004 01467 41485 33004 10122 20039 30113 40119 52004 70198 81942;
0161014670999992000060803004+58630+009150FM-12+000799999V0203001N002112200019N0550001N1+01101+00371101241ADDAY111031AY201031GF101991001001999999001011MA1999999101181MD1210051+9999MW1011REMSYN072AAXX  08034 01467 41985 13004 10110 20037 30118 40124 52005 70110 80001;
0201014670999992000060806004+58630+009150FM-12+000799999V0203201N002112200019N0550001N1+01271+00401101351ADDAA112000191AY101061AY201061GF101991011001017501081011KA1999N+01061MA1999999101291MD1210111+9999MW1021REMSYN088AAXX  08064 01467 11785 13204 10127 20040 30129 40135 52011 69922 70200 81081 333 20106;
0161014670999992000060809004+58630+009150FM-12+000799999V0201801N000512200019N0550001N1+01481+00871101551ADDAY101031AY201031GF103991021041008001031021MA1999999101491MD1210201+9999MW1021REMSYN072AAXX  08094 01467 41585 31801 10148 20087 30149 40155 52020 70200 82432;
0173014670999992000060812004+58630+009150FM-12+000799999V0202001N003112200019N0550001N1+01521+00881101551ADDAY111061AY201061GF104991021021008001031011MA1999999101491MD1410001+9999MW1031REMSYN084AAXX  08124 01467 41585 42006 10152 20088 30149 40155 54000 70310 82231 222// 00138;
0161014670999992000060815004+58630+009150FM-12+000799999V0202501N003112200019N0550001N1+01521+00861101501ADDAY111031AY201031GF103991011041008001031011MA1999999101441MD1610051+9999MW1021REMSYN072AAXX  08154 01467 41585 32506 10152 20086 30144 40150 56005 70210 81431;
0230014670999992000060818004+58630+009150FM-12+000799999V0202501N002112200019N0550001N1+01841-00572101591ADDAA199000091AY101061AY201061GF103991021001022501031031KA1999M+01921MA1999999101531MD1310091+9999MW1021REMSYN082AAXX  08184 01467 31885 32504 10184 21057 30153 40159 53009 70200 82033 333 10192;EQDQ01-000573ATOD  Q02  00002PRCP99
0161014670999992000060900004+58630+009150FM-12+000799999V0202701N002110300019N0550001N1+01381+00441101841ADDAY121061AY201061GF107991031051004501071001MA1999999101781MD1210141+9999MW1031REMSYN072AAXX  09004 01467 41485 72704 10138 20044 30178 40184 52014 70320 83570;
0161014670999992000060903004+58630+009150FM-12+000799999V0202401N000510750019N0550001N1+01221+00561101951ADDAY121031AY211031GF105991021041008001031081MA1999999101891MD1210111+9999MW1021REMSYN072AAXX  09034 01467 41585 52401 10122 20056 30189 40195 52011 70221 82438;
0214014670999992000060906004+58630+009150FM-12+000799999V0202401N000512200019N0550001N1+01321+00691102031ADDAA199000091AY121061AY201061GF103991011041008001031091KA1999N+01161MA1999999101971MD1210081+9999MW1011REMSYN082AAXX  09064 01467 31585 32401 10132 20069 30197 40203 52008 70120 81439 333 20116;EQDQ01  00002PRCP99
0155014670999992000060909004+58630+009150FM-12+000799999V0201801N000512200019N0550001N1+01411+01061102071ADDAY131031AY211031GF103991999999012501999999MA1999999102011MD1310041+9999MW1101REMSYN066AAXX  09094 01467 41685 31801 10141 20106 30201 40207 53004 71031;
0173014670999992000060912004+58630+009150FM-12+000799999V0201801N001012200019N0550001N1+01461+01051102031ADDAY101061AY201061GF103991021001017501031021MA1999999101971MD1710041+9999MW1021REMSYN084AAXX  09124 01467 41785 31802 10146 20105 30197 40203 57004 70200 82032 222// 00144;
0161014670999992000060915004+58630+009150FM-12+000799999V0209999C000012200019N0550001N1+01541+01071102031ADDAY101031AY201031GF102991001001999999001091MA1999999101971MD1410001+9999MW1021REMSYN072AAXX  09154 01467 41985 20000 10154 20107 30197 40203 54000 70200 80009;
0214014670999992000060918004+58630+009150FM-12+000799999V0200901N000512200019N0550001N1+01521+01141101921ADDAA199000091AY101061AY201061GF102991001001999999001091KA1999M+01641MA1999999101861MD1710111+9999MW1021REMSYN082AAXX  09184 01467 31985 20901 10152 20114 30186 40192 57011 70200 80009 333 10164;EQDQ01  00002PRCP99
0161014670999992000061000004+58630+009150FM-12+000799999V0209999C000012200019N0550001N1+01341+01251101711ADDAY101061AY201061GF102991011041008001001011MA1999999101651MD1810101+9999MW1021REMSYN072AAXX  10004 01467 41585 20000 10134 20125 30165 40171 58010 70200 81401;
0161014670999992000061003004+58630+009150FM-12+000799999V0200901N000512200019N0550001N1+01481+01201101501ADDAY111031AY201031GF104991021041008001031011MA1999999101441MD1710211+9999MW1031REMSYN072AAXX  10034 01467 41585 40901 10148 20120 30144 40150 57021 70310 82431;
0214014670999992000061006004+58630+009150FM-12+000799999V0201101N001010300019N0550001N1+01441+01261101351ADDAA199000091AY121061AY211061GF107991021071004501071021KA1999N+01301MA1999999101291MD1710151+9999MW1031REMSYN082AAXX  10064 01467 31485 71102 10144 20126 30129 40135 57015 70321 82772 333 20130;EQDQ01  00002PRCP99
0161014670999992000061009004+58630+009150FM-12+000799999V0201701N001010300019N0550001N1+01521+01271101241ADDAY191031AY221031GF107991031071004501061021MA1999999101181MD1710111+9999MW1021REMSYN072AAXX  10094 01467 41485 71702 10152 20127 30118 40124 57011 70292 83762;
0173014670999992000061012004+58630+009150FM-12+000799999V0201801N000510300019N0550001N1+01441+01381101231ADDAY191061AY281061GF108991021091004501021999MA1999999101171MD1510011+9999MW1291REMSYN084AAXX  10124 01467 41485 81801 10144 20138 30117 40123 55001 72998 8292/ 222// 00142;
0161014670999992000061015004+58630+009150FM-12+000799999V0202301N001010300019N0200001N1+01501+01461101231ADDAY191031AY261031GF108991041071002501021999MA1999999101171MD1410001+9999MW1601REMSYN072AAXX  10154 01467 41370 82302 10150 20146 30117 40123 54000 76096 8472/;
0201014670999992000061018004+58630+009150FM-12+000799999V0202101N000512200019N0550001N1+01501+01461101111ADDAA112002091AY191061AY261061GF104991021061004501031031KA1999M+01521MA1999999101051MD1810121+9999MW1011REMSYN088AAXX  10184 01467 11485 42101 10150 20146 30105 40111 58012 60022 70196 82633 333 10152;
0161014670999992000061100004+58630+009150FM-12+000799999V0202301N000512200019N0550001N1+01301+01261101021ADDAY111061AY211061GF104991011041008001031021MA1999999100961MD1710101+9999MW1021REMSYN072AAXX  11004 01467 41585 42301 10130 20126 30096 40102 57010 70211 81432;
0161014670999992000061103004+58630+009150FM-12+000799999V0202401N001012200019N0550001N1+01161+01091100951ADDAY111031AY211031GF104991011041008001031011MA1999999100891MD1610071+9999MW1021REMSYN072AAXX  11034 01467 41585 42402 10116 20109 30089 40095 56007 70211 81431;
0214014670999992000061106004+58630+009150FM-12+000799999V0202501N001012200019N0550001N1+01281+00851100921ADDAA199000091AY111061AY201061GF101991001001999999001081KA1999N+01101MA1999999100861MD1610031+9999MW1011REMSYN082AAXX  11064 01467 31985 12502 10128 20085 30086 40092 56003 70110 80008 333 20110;EQDQ01  00002PRCP99
0161014670999992000061109004+58630+009150FM-12+000799999V0202301N004612200019N0550001N1+01341+00951100921ADDAY101031AY201031GF102991011011008001031011MA1999999100861MD1410001+9999MW1021REMSYN072AAXX  11094 01467 41585 22309 10134 20095 30086 40092 54000 70200 81131;
0173014670999992000061112004+58630+009150FM-12+000799999V0202101N006212200019N0550001N1+01341+01061100951ADDAY111061AY201061GF104991021021008001031021MA1999999100891MD1310031+9999MW1031REMSYN084AAXX  11124 01467 41585 42112 10134 20106 30089 40095 53003 70310 82232 222// 00134;
0161014670999992000061115004+58630+009150FM-12+000799999V0202101N006212200019N0550001N1+01301+01161100911ADDAY111031AY211031GF104991011091008001071021MA1999999100851MD1610041+9999MW1021REMSYN072AAXX  11154 01467 41585 42112 10130 20116 30085 40091 56004 70211 81972;
0214014670999992000061118004+58630+009150FM-12+000799999V0202401N006212200019N0550001N1+01501+00411100861ADDAA199000091AY111061AY211061GF104991011021004501061021KA1999M+01501MA1999999100801MD1610051+9999MW1021REMSYN082AAXX  11184 01467 31485 42412 10150 20041 30080 40086 56005 70211 81262 333 10150;EQDQ01  00002PRCP99
0161014670999992000061200004+58630+009150FM-12+000799999V0202301N003110300019N0300001N1+01141+00761101011ADDAY121061AY211061GF106991041061004501041021MA1999999100951MD1010001+9999MW1031REMSYN072AAXX  12004 01467 41480 62306 10114 20076 30095 40101 50000 70321 84642;
0161014670999992000061203004+58630+009150FM-12+000799999V0202301N002110300019N0300001N1+01101+00911100941ADDAY121031AY221031GF106991031091004501071011MA1999999100881MD1610071+9999MW1021REMSYN072AAXX  12034 01467 41480 62304 10110 20091 30088 40094 56007 70222 83971;
0214014670999992000061206004+58630+009150FM-12+000799999V0202501N003110750019N0300001N1+01181+01021100941ADDAA199000091AY121061AY221061GF106991021021004501071031KA1999N+01051MA1999999100881MD1410001+9999MW1021REMSYN082AAXX  12064 01467 31480 62506 10118 20102 30088 40094 54000 70222 82273 333 20105;EQDQ01  00002PRCP99
0161014670999992000061209004+58630+009150FM-12+000799999V0202501N003110300019N0300001N1+01401+00671101041ADDAY121031AY221031GF107991021081004501071021MA1999999100981MD1310101+9999MW1021REMSYN072AAXX  12094 01467 41480 72506 10140 20067 30098 40104 53010 70222 82872;
0173014670999992000061212004+58630+009150FM-12+000799999V0202301N003110300019N0300001N1+01341+01041101171ADDAY181061AY221061GF108991041071004501021999MA1999999101111MD1210131+9999MW1801REMSYN084AAXX  12124 01467 41480 82306 10134 20104 30111 40117 52013 78082 8472/ 222// 00130;
0161014670999992000061215004+58630+009150FM-12+000799999V0202101N003110300019N0300001N1+01301+01161101261ADDAY181031AY221031GF107991031091004501071021MA1999999101201MD1110091+9999MW1021REMSYN072AAXX  12154 01467 41480 72106 10130 20116 30120 40126 51009 70282 83972;
0184014670999992000061218004+58630+009150FM-12+000799999V0202001N002112200019N0300001N1+01361+01111101371ADDAY181061AY211061GF104991011071004501081031KA1999M+01551MA1999999101311MD1210111+9999MW1011REMSYN082AAXX  12184 01467 11480 42004 10136 20111 30131 40137 52011 70181 81783 333 10155;
0172014670999992000061300004+58630+009150FM-12+000799999V0202601N002110750019N0250001N1+01201+00961101441ADDAA199000021AY121061AY221061GF105991021031002501021021MA1999999101381MD1210041+9999MW1021REMSYN072AAXX  13004 01467 31375 52604 10120 20096 30138 40144 52004 70222 82322;
0161014670999992000061303004+58630+009150FM-12+000799999V0202201N003110021019N0020001N1+01201+01191101211ADDAY121031AY221031GF108991081061002501999999MA1999999101151MD1710231+9999MW1101REMSYN072AAXX  13034 01467 41320 82206 10120 20119 30115 40121 57023 71022 886//;
0230014670999992000061306004+58630+009150FM-12+000799999V0202201N004610021019N0020001N1+01221+01191100801ADDAA199000091AY121061AY221061GF108991999061002501071999KA1999N+01151MA1999999100741MD1710411+9999MW1101REMSYN082AAXX  13064 01467 31320 82209 10122 20119 30074 40080 57041 71022 8867/ 333 20115;EQDQ01+000082SCOTLCQ02  00002PRCP99
0161014670999992000061309004+58630+009150FM-12+000799999V0202201N004610021019N0100001N1+01221+01191100661ADDAY121031AY221031GF108991081061002501999999MA1999999100601MD1610141+9999MW1601REMSYN072AAXX  13094 01467 41360 82209 10122 20119 30060 40066 56014 76022 886//;
0173014670999992000061312004+58630+009150FM-12+000799999V0202301N006210300019N0280001N1+01231+00701101041ADDAY181061AY221061GF107991041031002501061021MA1999999100981MD1210381+9999MW1151REMSYN084AAXX  13124 01467 41378 72312 10123 20070 30098 40104 52038 71582 84362 222// 00131;
0161014670999992000061315004+58630+009150FM-12+000799999V0202301N007710300019N0300001N1+01601+00231100961ADDAY121031AY221031GF106991041031004501061021MA1999999100901MD1710081+9999MW1011REMSYN072AAXX  13154 01467 41480 62315 10160 20023 30090 40096 57008 70122 84362;
0201014670999992000061318004+58630+009150FM-12+000799999V0202901N007710750019N0300001N1+01551+00461101061ADDAA112000191AY121061AY221061GF105991021021008001031021KA1999M+01601MA1999999101001MD1210101+9999MW1021REMSYN088AAXX  13184 01467 11580 52915 10155 20046 30100 40106 52010 69922 70222 82232 333 10160;
0161014670999992000061400004+58630+009140FM-12+000799999V0202501N002112200019N0550001N1+01161+00501101331ADDAY111061AY201061GF101991011011008001001001MA1999999101271MD1210121+9999MW1011REMSYN072AAXX  14004 01467 41585 12504 10116 20050 30127 40133 52012 70110 81100;
0161014670999992000061403004+58630+009140FM-12+000799999V0202601N000512200019N0550001N1+01121+00591101341ADDAY101031AY201031GF101991011011008001001001MA1999999101581MD1210011+9999MW1011REMSYN072AAXX  14034 01467 41585 12601 10112 20059 30158 40134 52001 70100 81100;
0214014670999992000061406004+58630+009140FM-12+000799999V0202601N004612200019N0550001N1+01351+00941101341ADDAA199000091AY101061AY201061GF103991011061008001031021KA1999N+01101MA1999999101281MD1410001+9999MW1031REMSYN082AAXX  14064 01467 31585 32609 10135 20094 30128 40134 54000 70300 81632 333 20110;EQDQ01  00002PRCP99
0161014670999992000061409004+58630+009140FM-12+000799999V0202601N006212200019N0550001N1+01461+00311101401ADDAY111031AY201031GF104991021021008001031021MA1999999101341MD1310061+9999MW1021REMSYN072AAXX  14094 01467 41585 42612 10146 20031 30134 40140 53006 70210 82232;
0173014670999992000061412004+58630+009140FM-12+000799999V0202701N006212200019N0550001N1+01501+00241101361ADDAY111061AY211061GF104991011021008001031031MA1999999101301MD1610041+9999MW1021REMSYN084AAXX  14124 01467 41585 42712 10150 20024 30130 40136 56004 70211 81233 222// 00134;
0161014670999992000061415004+58630+009140FM-12+000799999V0202701N004612200019N0550001N1+01621-00011101301ADDAY111031AY211031GF104991021031008001031021MA1999999101241MD1610061+9999MW1021REMSYN072AAXX  14154 01467 41585 42709 10162 21001 30124 40130 56006 70211 82332;
0214014670999992000061418004+58630+009140FM-12+000799999V0202701N004612200019N0550001N1+01541-00041101301ADDAA199000091AY111061AY211061GF103991011021008001031021KA1999M+01651MA1999999101241MD1510001+9999MW1011REMSYN082AAXX  14184 01467 31585 32709 10154 21004 30124 40130 55000 70111 81232 333 10165;EQDQ01  00002PRCP99
0161014670999992000061500004+58630+009140FM-12+000799999V0202301N000512200019N0400001N1+01021+00371101341ADDAY101061AY201061GF101991011061012501001001MA1999999101281MD1210041+9999MW1011REMSYN072AAXX  15004 01467 41682 12301 10102 20037 30128 40134 52004 70100 81600;
0161014670999992000061503004+58630+009140FM-12+000799999V0202301N001012200019N0550001N1+00941+00451101241ADDAY101031AY201031GF101991011001017501041011MA1999999101181MD1610101+9999MW1021REMSYN072AAXX  15034 01467 41785 12302 10094 20045 30118 40124 56010 70200 81041;
0214014670999992000061506004+58630+009140FM-12+000799999V0202701N001012200019N0550001N1+01101+00391101241ADDAA199000091AY101061AY201061GF101991001001999999001081KA1999N+00901MA1999999101181MD1410001+9999MW1021REMSYN082AAXX  15064 01467 31985 12702 10110 20039 30118 40124 54000 70200 80008 333 20090;EQDQ01  00002PRCP99
0161014670999992000061509004+58630+009140FM-12+000799999V0202701N001012200019N0550001N1+01471+00131101221ADDAY111031AY201031GF103991021021012501041021MA1999999101161MD1610021+9999MW1031REMSYN072AAXX  15094 01467 41685 32702 10147 20013 30116 40122 56002 70310 82242;
0173014670999992000061512004+58630+009140FM-12+000799999V0202901N001012200019N0550001N1+01581+00221101121ADDAY111061AY201061GF103991021021012501031001MA1999999101061MD1710101+9999MW1021REMSYN084AAXX  15124 01467 41685 32902 10158 20022 30106 40112 57010 70210 82230 222// 00116;
0161014670999992000061515004+58630+009140FM-12+000799999V0202901N004612200019N0550001N1+01611-00111101061ADDAY111031AY201031GF103991021021012501031021MA1999999101001MD1710061+9999MW1021REMSYN072AAXX  15154 01467 41685 32909 10161 21011 30100 40106 57006 70210 82232;
0214014670999992000061518004+58630+009140FM-12+000799999V0203401N004612200019N0550001N1+01501-00161101141ADDAA199000091AY111061AY201061GF103991021021012501031001KA1999M+01651MA1999999101081MD1210081+9999MW1021REMSYN082AAXX  15184 01467 31685 33409 10150 21016 30108 40114 52008 70210 82230 333 10165;EQDQ01  00002PRCP99
0161014670999992000061600004+58630+009140FM-12+000799999V0202901N002112200019N0550001N1+01021-00111101441ADDAY101061AY201061GF102991011001017501041091MA1999999101381MD1210151+9999MW1021REMSYN072AAXX  16004 01467 41785 22904 10102 21011 30138 40144 52015 70200 81049;
0161014670999992000061603004+58630+009140FM-12+000799999V0203101N003112200019N0550001N1+01001-00091101521ADDAY101031AY201031GF101991011001012501041001MA1999999101461MD1210081+9999MW1011REMSYN072AAXX  16034 01467 41685 13106 10100 21009 30146 40152 52008 70100 81040;
0214014670999992000061606004+58630+009140FM-12+000799999V0203101N003112200019N0550001N1+01201+00121101651ADDAA199000091AY101061AY201061GF101991011001012501041001KA1999N+00951MA1999999101591MD1210131+9999MW1021REMSYN082AAXX  16064 01467 31685 13106 10120 20012 30159 40165 52013 70200 81040 333 20095;EQDQ01  00002PRCP99
0161014670999992000061609004+58630+009140FM-12+000799999V0203101N002112200019N0550001N1+01501-00161101771ADDAY101031AY201031GF101991011011008001001021MA1999999101711MD1210121+9999MW1021REMSYN072AAXX  16094 01467 41585 13104 10150 21016 30171 40177 52012 70200 81102;
0173014670999992000061612004+58630+009140FM-12+000799999V0203601N000512200019N0550001N1+01821-00061101841ADDAY111061AY201061GF103991011021008001081031MA1999999101781MD1110071+9999MW1031REMSYN084AAXX  16124 01467 41585 33601 10182 21006 30178 40184 51007 70310 81283 222// 00130;
0161014670999992000061615004+58630+009140FM-12+000799999V0201801N002112200019N0550001N1+01501+00641101841ADDAY121031AY221031GF104991011021004501061021MA1999999101781MD1410001+9999MW1151REMSYN072AAXX  16154 01467 41485 41804 10150 20064 30178 40184 54000 71522 81262;
0214014670999992000061618004+58630+009140FM-12+000799999V0201601N001012200019N0550001N1+01501+00841102021ADDAA199000091AY111061AY201061GF103991011021004501031001KA1999M+01851MA1999999101961MD1210181+9999MW1011REMSYN082AAXX  16184 01467 31485 31602 10150 20084 30196 40202 52018 70110 81230 333 10185;EQDQ01  00002PRCP99
0161014670999992000061700004+58630+009140FM-12+000799999V0200201N001012200019N0550001N1+01221+00181102401ADDAY101061AY201061GF102991021041004501001001MA1999999102341MD1210381+9999MW1021REMSYN072AAXX  17004 01467 41485 20202 10122 20018 30234 40240 52038 70200 82400;
0161014670999992000061703004+58630+009140FM-12+000799999V0200201N001012200019N0550001N1+01151+00301102601ADDAY101031AY201031GF101991011051012501001001MA1999999102541MD1210201+9999MW1011REMSYN072AAXX  17034 01467 41685 10202 10115 20030 30254 40260 52020 70100 81500;
0214014670999992000061706004+58630+009140FM-12+000799999V0200901N002112200019N0550001N1+01201+00301102701ADDAA199000091AY101061AY201061GF101991011041012501001001KA1999N+01201MA1999999102661MD1210121+9999MW1021REMSYN082AAXX  17064 01467 31685 10904 10120 20030 30266 40270 52012 70200 81400 333 20120;EQDQ01  00002PRCP99
0161014670999992000061709004+58630+009140FM-12+000799999V0201601N002112200019N0550001N1+01301+00391102791ADDAY101031AY201031GF103991021011004501011061MA1999999102731MD1210071+9999MW1031REMSYN072AAXX  17094 01467 41485 31604 10130 20039 30273 40279 52007 70300 82116;
0173014670999992000061712004+58630+009140FM-12+000799999V0201801N003110750019N0550001N1+01301+00391102741ADDAY121061AY221061GF106991021021004501041061MA1999999102681MD1710051+9999MW1031REMSYN084AAXX  17124 01467 41485 61806 10130 20039 30268 40274 57005 70322 82246 222// 00135;
0161014670999992000061715004+58630+009140FM-12+000799999V0202001N003110300019N0550001N1+01301+00641102541ADDAY121031AY221031GF107991021041004501041061MA1999999102481MD1710201+9999MW1031REMSYN072AAXX  17154 01467 41485 72006 10130 20064 30248 40254 57020 70322 82446;
0214014670999992000061718004+58630+009140FM-12+000799999V0202301N003110300019N0550001N1+01331+01171102321ADDAA199000091AY121061AY221061GF107991041061004501041021KA1999M+01351MA1999999102261MD1710221+9999MW1021REMSYN082AAXX  17184 01467 31485 72306 10133 20117 30226 40232 57022 70222 84642 333 10135;EQDQ01  00002PRCP99
0161014670999992000061800004+58630+009140FM-12+000799999V0202601N002110300019N0260001N1+01101+01061102341ADDAY161061AY221061GF108991041061002501021999MA1999999102281MD1710181+9999MW1631REMSYN072AAXX  18004 01467 41376 82604 10110 20106 30228 40234 57018 76362 8462/;
0161014670999992000061803004+58630+009140FM-12+000799999V0202601N001010300019N0260001N1+01001+00961102301ADDAY161031AY221031GF108991041061002501021999MA1999999102241MD1710041+9999MW1021REMSYN072AAXX  18034 01467 41376 82602 10100 20096 30224 40230 57004 70262 8462/;
0201014670999992000061806004+58630+009140FM-12+000799999V0201801N003110300019N0260001N1+01101+01061102271ADDAA112002091AY181061AY201061GF108991041061002501061999KA1999N+01001MA1999999102211MD1710031+9999MW1021REMSYN088AAXX  18064 01467 11376 81806 10110 20106 30221 40227 57003 60022 70280 8466/ 333 20100;
0161014670999992000061809004+58630+009140FM-12+000799999V0201801N003110300019N0300001N1+01171+01141102121ADDAY181031AY201031GF108991041061002501061999MA1999999102061MD1710151+9999MW1151REMSYN072AAXX  18094 01467 41380 81806 10117 20114 30206 40212 57015 71580 8466/;
0173014670999992000061812004+58630+009140FM-12+000799999V0201801N001010300019N0300001N1+01221+01181102091ADDAY181061AY201061GF108991041061002501061999MA1999999102031MD1710031+9999MW1021REMSYN084AAXX  18124 01467 41380 81802 10122 20118 30203 40209 57003 70280 8466/ 222// 00134;
0180014670999992000061815004+58630+009140FM-12+000799999V0201601N001012200019N0300001N1+01321+01071102091ADDAY121031AY221031GF103991999061002501021021MA1999999102031MD1410001+9999MW1011REMSYN072AAXX  18154 01467 41380 31602 10132 20107 30203 40209 54000 70122 84622;EQDQ01+000042SCOTLC
0201014670999992000061818004+58630+009140FM-12+000799999V0201601N001010300019N0300001N1+01351+01331102071ADDAA112000191AY121061AY221061GF107991041041002501021021KA1999M+01421MA1999999102011MD1710021+9999MW1021REMSYN088AAXX  18184 01467 11380 71602 10135 20133 30201 40207 57002 69922 70222 84422 333 10142;
0161014670999992000061900004+58630+009140FM-12+000799999V0201101N001010750019N0300001N1+01221+01181101961ADDAY121061AY221061GF105991021041004501051021MA1999999101901MD1710051+9999MW1011REMSYN072AAXX  19004 01467 41480 51102 10122 20118 30190 40196 57005 70122 82452;
0171014670999992000061903004+58630+009140FM-12+000799999V0201101N002110001519N0001001N1+01251+01211101841ADDAY141031AY221031GA1091+999999999GF109991091999999999999999MA1999999101781MD1710121+9999MW1471REMSYN066AAXX  19034 01467 41/01 91104 10125 20121 30178 40184 57012 74742;
0214014670999992000061906004+58630+009140FM-12+000799999V0202601N002110300019N0150001N1+01201+01141101791ADDAA199000091AY141061AY221061GF107991021061002501021001KA1999N+01201MA1999999101731MD1710051+9999MW1011REMSYN082AAXX  19064 01467 31365 72604 10120 20114 30173 40179 57005 70142 82620 333 20120;EQDQ01  00002PRCP99
0161014670999992000061909004+58630+009140FM-12+000799999V0202301N003110300019N0300001N1+01301+01261101701ADDAY121031AY221031GF106991021061002501021001MA1999999101641MD1710091+9999MW1011REMSYN072AAXX  19094 01467 41380 62306 10130 20126 30164 40170 57009 70122 82620;
0173014670999992000061912004+58630+009140FM-12+000799999V0201801N003110300019N0300001N1+01381+01341101251ADDAY121061AY221061GF106991021061002501021001MA1999999101191MD1710491+9999MW1021REMSYN084AAXX  19124 01467 41380 61806 10138 20134 30119 40125 57049 70222 82620 222// 00135;
0161014670999992000061915004+58630+009140FM-12+000799999V0202001N003110300019N0300001N1+01581+01541101231ADDAY121031AY221031GF106991021061002501021021MA1999999101171MD1710021+9999MW1021REMSYN072AAXX  19154 01467 41380 62006 10158 20154 30117 40123 57002 70222 82622;
0214014670999992000061918004+58630+009140FM-12+000799999V0202001N004610300019N0300001N1+01481+01401101101ADDAA199000091AY121061AY221061GF106991021061002501021021KA1999M+01551MA1999999101041MD1710131+9999MW1021REMSYN082AAXX  19184 01467 31380 62009 10148 20140 30104 40110 57013 70222 82622 333 10155;EQDQ01  00002PRCP99
0161014670999992000062000004+58630+009140FM-12+000799999V0202301N001012200019N0100001N1+01381+01341100951ADDAY121061AY211061GF103991011061002501041071MA1999999100891MD1710081+9999MW1011REMSYN072AAXX  20004 01467 41360 32302 10138 20134 30089 40095 57008 70121 81647;
0161014670999992000062003004+58630+009140FM-12+000799999V0202301N001012200019N0100001N1+01301+01261100891ADDAY121031AY221031GF103991021061002501041021MA1999999100831MD1710061+9999MW1011REMSYN072AAXX  20034 01467 41360 32302 10130 20126 30083 40089 57006 70122 82642;
0184014670999992000062006004+58630+009140FM-12+000799999V0201101N000512200019N0280001N1+01421+01381101041ADDAY111061AY201061GF104991021061002501041021KA1999N+01301MA1999999100981MD1210151+9999MW1021REMSYN082AAXX  20064 01467 41378 41101 10142 20138 30098 40104 52015 70210 82642 333 20130;
0177014670999992000062009004+58630+009140FM-12+000799999V0201101N000510003019N0002001N1+01421+01381101141ADDAY141031AY221031GA1091+999999999GF109991091999999999999999MA1999999101081MD1210101+9999MW1121REMSYN072AAXX  20094 01467 41/02 91101 10142 20138 30108 40114 52010 71242 89///;
0183014670999992000062012004+58630+009140FM-12+000799999V0200701N001010003019N0004001N1+01431+01391101181ADDAY141061AY221061GA1091+999999999GF109991091999999999999999MA1999999101121MD1210041+9999MW1121REMSYN078AAXX  20124 01467 41/04 90702 10143 20139 30112 40118 52004 71242 222// 00140;
0171014670999992000062015004+58630+009140FM-12+000799999V0200701N001010012019N0012001N1+01421+01381101121ADDAY141031AY221031GA1091+999999999GF109991091999999999999999MA1999999101061MD1710061+9999MW1121REMSYN066AAXX  20154 01467 41/12 90702 10142 20138 30106 40112 57006 71242;
0224014670999992000062018004+58630+009140FM-12+000799999V0200701N000510003019N0005001N1+01421+01381101051ADDAA199000091AY141061AY241061GA1091+999999999GF109991091999999999999999KA1999M+01461MA1999999100991MD1610071+9999MW1451REMSYN076AAXX  20184 01467 31/05 90701 10142 20138 30099 40105 56007 74544 333 10146;EQDQ01  00002PRCP99
0171014670999992000062100004+58630+009140FM-12+000799999V0209999C000010003019N0005001N1+01421+01381101021ADDAY141061AY221061GA1091+999999999GF109991091999999999999999MA1999999100961MD1710031+9999MW1121REMSYN066AAXX  21004 01467 41205 91100 10142 20138 30096 40102 57003 71242;
0171014670999992000062103004+58630+009140FM-12+000799999V0201301N000510003019N0002001N1+01401+01371101021ADDAY141031AY241031GA1091+999999999GF109991091999999999999999MA1999999100961MD1410001+9999MW1451REMSYN066AAXX  21034 01467 41/02 91301 10140 20137 30096 40102 54000 74544;
0201014670999992000062106004+58630+009140FM-12+000799999V0201801N000510021019N0050001N1+01431+01401101111ADDAA112004191AY191061AY261061GF108991081071002501999999KA1999N+01361MA1999999101051MD1310091+9999MW1951REMSYN088AAXX  21064 01467 11350 81801 10143 20140 30105 40111 53009 60042 79596 887// 333 20136;
0180014670999992000062109004+58630+009140FM-12+000799999V0200401N000510021019N0050001N1+01451+01421100921ADDAY191031AY261031GF108991999061002501021999MA1999999100861MD1210191+9999MW1951REMSYN072AAXX  21094 01467 41350 80401 10145 20142 30086 40092 52019 79596 8862/;EQDQ01+000082SCOTLC
0186014670999992000062112004+58630+009140FM-12+000799999V0200701N000519999999N0050001N1+01611+01571100831ADDAY191061AY261061GF107991999061002501021021MA1999999100771MD1710091+9999MW1011REMSYN078AAXX  21124 01467 41350 70701 10161 20157 30077 40083 57009 70196 88622 222//;EQDQ01+000082SCOTLC
0161014670999992000062115004+58630+009140FM-12+000799999V0200901N000510300019N0250001N1+01721+01681100741ADDAY121031AY221031GF107991041061002501021021MA1999999100681MD1710091+9999MW1011REMSYN072AAXX  21154 01467 41375 70901 10172 20168 30068 40074 57009 70122 84622;
0201014670999992000062118004+58630+009140FM-12+000799999V0200701N000510300019N0250001N1+01751+01711100721ADDAA112022191AY121061AY221061GF107991041061002501021021KA1999M+01751MA1999999100661MD1710021+9999MW1021REMSYN088AAXX  21184 01467 11375 70701 10175 20171 30066 40072 57002 60222 70222 84622 333 10175;
0161014670999992000062200004+58630+009140FM-12+000799999V0202001N002110300019N0100001N1+01471+01431100821ADDAY121061AY221061GF108991041061004501071999MA1999999100761MD1210051+9999MW1031REMSYN072AAXX  22004 01467 41460 82004 10147 20143 30076 40082 52005 70322 8467/;
0161014670999992000062203004+58630+009140FM-12+000799999V0201101N002110042019N0280001N1+01471+01431100671ADDAY121031AY221031GF108991051061004501021999MA1999999100631MD1710131+9999MW1021REMSYN072AAXX  22034 01467 41478 81104 10147 20143 30063 40067 57013 70222 8562/;
0214014670999992000062206004+58630+009140FM-12+000799999V0202001N003110300019N0280001N1+01431+01391100671ADDAA199000091AY121061AY221061GF107991041061004501021021KA1999N+01431MA1999999100611MD1410001+9999MW1011REMSYN082AAXX  22064 01467 31478 72006 10143 20139 30061 40067 54000 70122 84622 333 20143;EQDQ01  00002PRCP99
0161014670999992000062209004+58630+009140FM-12+000799999V0201901N002110300019N0280001N1+01501+01321100721ADDAY121031AY221031GF106991021021008001041001MA1999999100661MD1010051+9999MW1011REMSYN072AAXX  22094 01467 41578 61904 10150 20132 30066 40072 50005 70122 82240;
0173014670999992000062212004+58630+009140FM-12+000799999V0202301N003110300019N0280001N1+01601+01421100661ADDAY121061AY221061GF106991021021008001061001MA1999999100601MD1210061+9999MW1011REMSYN084AAXX  22124 01467 41578 62306 10160 20142 30060 40066 52006 70122 82260 222// 00153;
0161014670999992000062215004+58630+009140FM-12+000799999V0202001N006210300019N0280001N1+01571+01371100621ADDAY121031AY211031GF106991011051008001031001MA1999999100561MD1710041+9999MW1031REMSYN072AAXX  22154 01467 41578 62012 10157 20137 30056 40062 57004 70321 81530;
0214014670999992000062218004+58630+009140FM-12+000799999V0202001N006212200019N0300001N1+01471+01281100671ADDAA199000091AY121061AY211061GF102991011051008001041001KA1999M+01621MA1999999100611MD1310051+9999MW1011REMSYN082AAXX  22184 01467 31580 22012 10147 20128 30061 40067 53005 70121 81540 333 10162;EQDQ01  00002PRCP99
0161014670999992000062300004+58630+009140FM-12+000799999V0202001N003110300019N0280001N1+01321+01281100801ADDAY151061AY221061GF108991041061002501061999MA1999999100741MD1510131+9999MW1501REMSYN072AAXX  23004 01467 41378 82006 10132 20128 30074 40080 55013 75052 8466/;
0161014670999992000062303004+58630+009140FM-12+000799999V0201801N004610300019N0120001N1+01381+01321100631ADDAY151031AY221031GF108991041091004501071999MA1999999100521MD1710171+9999MW1021REMSYN072AAXX  23034 01467 41462 81809 10138 20132 30052 40063 57017 70252 8497/;
0201014670999992000062306004+58630+009140FM-12+000799999V0201801N004610300019N0120001N1+01341+01301100601ADDAA112002091AY181061AY251061GF108991041091004501071999KA1999N+01341MA1999999100591MD1610031+9999MW1811REMSYN088AAXX  23064 01467 11462 81809 10134 20130 30059 40060 56003 60022 78185 8497/ 333 20134;
0161014670999992000062309004+58630+009140FM-12+000799999V0201801N004610300019N0120001N1+01351+01311100591ADDAY181031AY211031GF108991041091004501061999MA1999999100531MD1710011+9999MW1621REMSYN072AAXX  23094 01467 41462 81809 10135 20131 30053 40059 57001 76281 8496/;
0173014670999992000062312004+58630+009140FM-12+000799999V0201801N003110300019N0120001N1+01361+01301100591ADDAY181061AY221061GF107991031091004501071999MA1999999100531MD1410001+9999MW1251REMSYN084AAXX  23124 01467 41462 71806 10136 20130 30053 40059 54000 72582 8397/ 222// 00135;
0161014670999992000062315004+58630+009140FM-12+000799999V0201801N003110300019N0120001N1+01441+01241100571ADDAY121031AY221031GF106991011091004501071001MA1999999100511MD1810021+9999MW1011REMSYN072AAXX  23154 01467 41462 61806 10144 20124 30051 40057 58002 70122 81970;
0184014670999992000062318004+58630+009140FM-12+000799999V0201901N003110300019N0200001N1+01401+01321100581ADDAY121061AY221061GF107991031091004501071999KA1999M+01441MA1999999100521MD1310011+9999MW1031REMSYN082AAXX  23184 01467 11470 71906 10140 20132 30052 40058 53001 70322 8397/ 333 10144;
0161014670999992000062400004+58630+009140FM-12+000799999V0202001N001010300019N0280001N1+01321+01261100571ADDAY181061AY221061GF108991021091008001071999MA1999999100511MD1810011+9999MW1031REMSYN072AAXX  24004 01467 41578 82002 10132 20126 30051 40057 58001 70382 8297/;
0161014670999992000062403004+58630+009140FM-12+000799999V0202101N002110300019N0300001N1+01261+01201100551ADDAY121031AY221031GF107991021091008001071999MA1999999100491MD1610021+9999MW1011REMSYN072AAXX  24034 01467 41580 72104 10126 20120 30049 40055 56002 70122 8297/;
0201014670999992000062406004+58630+009140FM-12+000799999V0202101N001010042019N0300001N1+01291+01151100601ADDAA112002091AY121061AY221061GF106991051091004501071021KA1999N+01221MA1999999100541MD1210051+9999MW1021REMSYN088AAXX  24064 01467 11480 62102 10129 20115 30054 40060 52005 60022 70222 85972 333 20122;
0161014670999992000062409004+58630+009140FM-12+000799999V0201801N002110042019N0300001N1+01411+01221100661ADDAY181031AY221031GF106991051031004501031011MA1999999100601MD1210061+9999MW1021REMSYN072AAXX  24094 01467 41480 61804 10141 20122 30060 40066 52006 70282 85331;
0173014670999992000062412004+58630+009140FM-12+000799999V0201901N002110300019N0400001N1+01461+01181100701ADDAY181061AY211061GF105991041031004501031011MA1999999100641MD1210041+9999MW1021REMSYN084AAXX  24124 01467 41482 51904 10146 20118 30064 40070 52004 70281 84331 222// 00141;
0161014670999992000062415004+58630+009140FM-12+000799999V0201601N002112200019N0550001N1+01551+01231100711ADDAY111031AY201031GF102991021021004501041021MA1999999100651MD1310011+9999MW1021REMSYN072AAXX  24154 01467 41485 21604 10155 20123 30065 40071 53001 70210 82242;
0201014670999992000062418004+58630+009140FM-12+000799999V0201601N001012200019N0550001N1+01521+01241100701ADDAA112000191AY111061AY201061GF101991011021004501061011KA1999M+01551MA1999999100641MD1810011+9999MW1021REMSYN088AAXX  24184 01467 11485 11602 10152 20124 30064 40070 58001 69912 70210 81261 333 10155;
0161014670999992000062500004+58630+009140FM-12+000799999V0203401N000512200019N0300001N1+01231+01191100741ADDAY111061AY201061GF103991011011004501031011MA1999999100681MD1810011+9999MW1021REMSYN072AAXX  25004 01467 41480 33401 10123 20119 30068 40074 58001 70210 81131;
0161014670999992000062503004+58630+009140FM-12+000799999V0203401N001012200019N0300001N1+01171+01141100751ADDAY111031AY201031GF103991011011004501031011MA1999999100691MD1410001+9999MW1021REMSYN072AAXX  25034 01467 41480 33402 10117 20114 30069 40075 54000 70210 81131;
0189014670999992000062506004+58630+009140FM-12+000799999V0203601N001019999999N0300001N1+01241+01201100761ADDAA199000021AY131061AY211061GF105991999999004501999999KA1999N+01131MA1999999100701MD1210021+9999MW1211REMSYN076AAXX  25064 01467 31480 53602 10124 20120 30070 40076 52002 72131 333 20113;
0161014670999992000062509004+58630+009140FM-12+000799999V0200801N001010300019N0400001N1+01501+01251100781ADDAY121031AY211031GF106991031021004501031011MA1999999100721MD1210021+9999MW1021REMSYN072AAXX  25094 01467 41482 60802 10150 20125 30072 40078 52002 70221 83231;
0173014670999992000062512004+58630+009140FM-12+000799999V0200901N000510300019N0550001N1+01641+01061100751ADDAY121061AY211061GF106991031021004501041011MA1999999100691MD1710031+9999MW1021REMSYN084AAXX  25124 01467 41485 60901 10164 20106 30069 40075 57003 70221 83241 222// 00147;
0161014670999992000062515004+58630+009140FM-12+000799999V0201801N001010300019N0300001N1+01611+01281100711ADDAY121031AY211031GF107991041091004501061021MA1999999100651MD1710041+9999MW1031REMSYN072AAXX  25154 01467 41480 71802 10161 20128 30065 40071 57004 70321 84962;
0195014670999992000062518004+58630+009140FM-12+000799999V0202301N000510300019N0400001N1+01601+01121100761ADDAA199000021AY121061AY221061GF107991041091004501071999KA1999M+01661MA1999999100701MD1310051+9999MW1021REMSYN082AAXX  25184 01467 31482 72301 10160 20112 30070 40076 53005 70222 8497/ 333 10166;
0161014670999992000062600004+58630+009140FM-12+000799999V0203301N001010300019N0300001N1+01371+01281100761ADDAY181061AY221061GF107991021091008001071999MA1999999100701MD1410001+9999MW1021REMSYN072AAXX  26004 01467 41580 73302 10137 20128 30070 40076 54000 70282 8297/;
0161014670999992000062603004+58630+009140FM-12+000799999V0203401N001010300019N0400001N1+01361+01201100711ADDAY121031AY221031GF107991021051008001071999MA1999999100651MD1810051+9999MW1021REMSYN072AAXX  26034 01467 41582 73402 10136 20120 30065 40071 58005 70222 8257/;
0201014670999992000062606004+58630+009140FM-12+000799999V0203601N002110300019N0400001N1+01421+01171100721ADDAA112003091AY121061AY221061GF107991021051008001071999KA1999N+01361MA1999999100661MD1310011+9999MW1021REMSYN088AAXX  26064 01467 11582 73604 10142 20117 30066 40072 53001 60032 70222 8257/ 333 20136;
0161014670999992000062609004+58630+009140FM-12+000799999V0203601N002110300019N0500001N1+01491+01021100761ADDAY121031AY221031GF107991021091008001071999MA1999999100701MD1210041+9999MW1021REMSYN072AAXX  26094 01467 41584 73604 10149 20102 30070 40076 52004 70222 8297/;
0173014670999992000062612004+58630+009140FM-12+000799999V0200801N003110300019N0500001N1+01601+01121100761ADDAY121061AY221061GF107991011091008001071999MA1999999100701MD1410001+9999MW1021REMSYN084AAXX  26124 01467 41584 70806 10160 20112 30070 40076 54000 70222 8197/ 222// 00155;
0161014670999992000062615004+58630+009140FM-12+000799999V0202601N002110300019N0300001N1+01401+01341100811ADDAY181031AY221031GF107991041091008001071999MA1999999100751MD1310051+9999MW1811REMSYN072AAXX  26154 01467 41580 72604 10140 20134 30075 40081 53005 78182 8497/;
0201014670999992000062618004+58630+009140FM-12+000799999V0203601N002110300019N0300001N1+01411+01231100851ADDAA112003091AY181061AY221061GF108991021091008001071999KA1999M+01701MA1999999100791MD1210041+9999MW1031REMSYN088AAXX  26184 01467 11580 83604 10141 20123 30079 40085 52004 60032 70382 8297/ 333 10170;
0161014670999992000062700004+58630+009140FM-12+000799999V0203401N002112200019N0300001N1+01201+00611100971ADDAY121061AY211061GF104991021041004501031021MA1999999100911MD1210181+9999MW1011REMSYN072AAXX  27004 01467 41480 43404 10120 20061 30091 40097 52018 70121 82432;
0161014670999992000062703004+58630+009140FM-12+000799999V0203301N002112200019N0500001N1+01061+00661100991ADDAY111031AY201031GF102991011041008001071001MA1999999100931MD1010021+9999MW1011REMSYN072AAXX  27034 01467 41584 23304 10106 20066 30093 40099 50002 70110 81470;
0214014670999992000062706004+58630+009140FM-12+000799999V0203401N003112200019N0500001N1+01251+00271101021ADDAA199000091AY101061AY201061GF101991011021008001041001KA1999N+01051MA1999999100961MD1310031+9999MW1011REMSYN082AAXX  27064 01467 31584 13406 10125 20027 30096 40102 53003 70100 81240 333 20105;EQDQ01  00002PRCP99
0161014670999992000062709004+58630+009140FM-12+000799999V0203301N002112200019N0750001N1+01501-00081100961ADDAY101031AY201031GF101991011011008001001011MA1999999100901MD1810061+9999MW1021REMSYN072AAXX  27094 01467 41589 13304 10150 21008 30090 40096 58006 70200 81101;
0192014670999992000062712004+58630+009140FM-12+000799999V0203201N003119999999N0750001N1+01591-00221100901ADDAY121061AY201061GF105991999041008001001011MA1999999100841MD1710061+9999MW1021REMSYN084AAXX  27124 01467 41589 53206 10159 21022 30084 40090 57006 70220 86401 222// 00153;EQDQ01+000062SCOTLC
0161014670999992000062715004+58630+009140FM-12+000799999V0202801N002110075019N0750001N1+01701-00131100771ADDAY121031AY221031GF105991051041008001001011MA1999999100711MD1710131+9999MW1011REMSYN072AAXX  27154 01467 41589 52804 10170 21013 30071 40077 57013 70122 85401;
0214014670999992000062718004+58630+009140FM-12+000799999V0203101N002110075019N0750001N1+01601-00071100701ADDAA199000091AY121061AY221061GF107991071041008001001011KA1999M+01701MA1999999100641MD1610071+9999MW1141REMSYN082AAXX  27184 01467 31589 73104 10160 21007 30064 40070 56007 71422 87401 333 10170;EQDQ01  00002PRCP99
0161014670999992000062800004+58630+009140FM-12+000799999V0200501N000510075019N0550001N1+01131+00891100841ADDAY181061AY221061GF108991081041008001999999MA1999999100781MD1010011+9999MW1021REMSYN072AAXX  28004 01467 41585 80501 10113 20089 30078 40084 50001 70282 884//;
0161014670999992000062803004+58630+009140FM-12+000799999V0203101N001010075019N0600001N1+01141+00901100801ADDAY121031AY221031GF107991071041008001061011MA1999999100741MD1810041+9999MW1011REMSYN072AAXX  28034 01467 41586 73102 10114 20090 30074 40080 58004 70122 87461;
0201014670999992000062806004+58630+009140FM-12+000799999V0202801N001010075019N0750001N1+01211+00601100811ADDAA112000191AY121061AY221061GF105991051041008001061011KA1999N+01071MA1999999100751MD1310011+9999MW1021REMSYN088AAXX  28064 01467 11589 52802 10121 20060 30075 40081 53001 69912 70222 85461 333 20107;
0161014670999992000062809004+58630+009140FM-12+000799999V0203601N001010075019N0750001N1+01491+00431100871ADDAY121031AY221031GF107991071041008001061011MA1999999100811MD1110061+9999MW1021REMSYN072AAXX  28094 01467 41589 73602 10149 20043 30081 40087 51006 70222 87461;
0173014670999992000062812004+58630+009140FM-12+000799999V0201801N002110300019N0600001N1+01521+00571100961ADDAY121061AY221061GF105991041041008001061011MA1999999100901MD1210091+9999MW1021REMSYN084AAXX  28124 01467 41586 51804 10152 20057 30090 40096 52009 70222 84461 222// 00154;
0161014670999992000062815004+58630+009140FM-12+000799999V0202001N002110300019N0600001N1+01501+00611101041ADDAY121031AY221031GF106991041041008001061011MA1999999100981MD1210081+9999MW1021REMSYN072AAXX  28154 01467 41586 62004 10150 20061 30098 40104 52008 70222 84461;
0193014670999992000062818004+58630+009140FM-12+000799999V0201901N001010300019N0600001N1+01481+00621101151ADDAA199000091AY121061AY221061GF106991041041008001061011KA1999M+01601MD1210111+9999MW1021REMSYN076AAXX  28184 01467 31586 61902 10148 20062 40115 52011 70222 84461 333 10160;EQDQ01  00002PRCP99
0161014670999992000062900004+58630+009140FM-12+000799999V0200201N000510300019N0300001N1+01421+01071101301ADDAY121061AY221061GF106991021041004501041021MA1999999101241MD1210151+9999MW1021REMSYN072AAXX  29004 01467 41480 60201 10142 20107 30124 40130 52015 70222 82442;
0161014670999992000062903004+58630+009140FM-12+000799999V0203601N002110300019N0400001N1+01301+01021101341ADDAY121031AY221031GF108991021051008001071999MA1999999101281MD1210041+9999MW1031REMSYN072AAXX  29034 01467 41582 83604 10130 20102 30128 40134 52004 70322 8257/;
0214014670999992000062906004+58630+009140FM-12+000799999V0200201N002110300019N0400001N1+01401+01051101411ADDAA199000091AY121061AY221061GF107991011051008001071001KA1999N+01271MA1999999101351MD1210071+9999MW1011REMSYN082AAXX  29064 01467 31582 70204 10140 20105 30135 40141 52007 70122 81570 333 20127;EQDQ01  00002PRCP99
0161014670999992000062909004+58630+009140FM-12+000799999V0200901N002110300019N0400001N1+01521+01051101481ADDAY121031AY221031GF106991021051008001031021MA1999999101421MD1210071+9999MW1011REMSYN072AAXX  29094 01467 41582 60904 10152 20105 30142 40148 52007 70122 82532;
0173014670999992000062912004+58630+009140FM-12+000799999V0201301N002110300019N0400001N1+01601+01121101461ADDAY121061AY221061GF106991021031008001031021MA1999999101401MD1710021+9999MW1021REMSYN084AAXX  29124 01467 41582 61304 10160 20112 30140 40146 57002 70222 82332 222// 00158;
0161014670999992000062915004+58630+009140FM-12+000799999V0202001N002110750019N0400001N1+01601+01121101381ADDAY121031AY221031GF106991021021008001061041MA1999999101321MD1710081+9999MW1021REMSYN072AAXX  29154 01467 41582 62004 10160 20112 30132 40138 57008 70222 82264;
0214014670999992000062918004+58630+009140FM-12+000799999V0202001N002110750019N0400001N1+01721+01211101301ADDAA199000091AY121061AY221061GF106991021061008001031041KA1999M+01721MA1999999101241MD1710081+9999MW1021REMSYN082AAXX  29184 01467 31582 62004 10172 20121 30124 40130 57008 70222 82634 333 10172;EQDQ01  00002PRCP99
0161014670999992000063000004+58630+009140FM-12+000799999V0203301N001010300019N0300001N1+01611+00941101001ADDAY121061AY221061GF108991021091008001071999MA1999999100941MD1710151+9999MW1031REMSYN072AAXX  30004 01467 41580 83302 10161 20094 30094 40100 57015 70322 8297/;
0161014670999992000063003004+58630+009140FM-12+000799999V0203401N001010300019N0300001N1+01551+01201100701ADDAY121031AY221031GF108991021041008001021999MA1999999100641MD1710301+9999MW1021REMSYN072AAXX  30034 01467 41580 83402 10155 20120 30064 40070 57030 70222 8242/;
0201014670999992000063006004+58630+009140FM-12+000799999V0203401N001010300019N0200001N1+01501+01461100511ADDAA112003091AY161061AY221061GF108991021041002501021999KA1999N+01501MA1999999100451MD1710191+9999MW1621REMSYN088AAXX  30064 01467 11370 83402 10150 20146 30045 40051 57019 60032 76262 8242/ 333 20150;
0161014670999992000063009004+58630+009140FM-12+000799999V0203401N001010300019N0250001N1+01621+01581100461ADDAY181031AY221031GF108991021031002501061999MA1999999100401MD1710051+9999MW1151REMSYN072AAXX  30094 01467 41375 83402 10162 20158 30040 40046 57005 71582 8236/;
0173014670999992000063012004+58630+009140FM-12+000799999V0203401N001010300019N0250001N1+01621+01581100441ADDAY181061AY221061GF108991021031002501061999MA1999999100381MD1710021+9999MW1151REMSYN084AAXX  30124 01467 41375 83402 10162 20158 30038 40044 57002 71582 8236/ 222// 00160;
0161014670999992000063015004+58630+009140FM-12+000799999V0200701N001010300019N0250001N1+02001+01951100431ADDAY181031AY221031GF107991021031002501061021MA1999999100371MD1710011+9999MW1811REMSYN072AAXX  30154 01467 41375 70702 10200 20195 30037 40043 57001 78182 82362;
0201014670999992000063018004+58630+009140FM-12+000799999V0200901N002110300019N0250001N1+01901+01641100531ADDAA112004191AY181061AY221061GF107991021031002501061021KA1999M+02151MA1999999100471MD1210101+9999MW1151REMSYN088AAXX  30184 01467 11375 70904 10190 20164 30047 40053 52010 60042 71582 82362 333 10215;
0161014670999992000070100004+58630+009140FM-12+000799999V0200401N001010300019N0300001N1+01611+01341100541ADDAY121061AY221061GF106991021031004501031021MA1999999100481MD1210011+9999MW1021REMSYN072AAXX  01004 01467 41480 60402 10161 20134 30048 40054 52001 70222 82332;
0161014670999992000070103004+58630+009140FM-12+000799999V0202901N001010300019N0300001N1+01551+01511100551ADDAY181031AY221031GF107991021051002501021041MA1999999100491MD1210011+9999MW1031REMSYN072AAXX  01034 01467 41380 72902 10155 20151 30049 40055 52001 70382 82524;
0201014670999992000070106004+58630+009140FM-12+000799999V0200901N001010300019N0250001N1+01521+01481100721ADDAA112002091AY161061AY221061GF108991021061002501021999KA1999N+01521MA1999999100661MD1210171+9999MW1611REMSYN088AAXX  01064 01467 11375 80902 10152 20148 30066 40072 52017 60022 76162 8262/ 333 20152;
0161014670999992000070109004+58630+009140FM-12+000799999V0200901N002110300019N0280001N1+01491+01141100791ADDAY161031AY221031GF108991021031002501061999MA1999999100731MD1210071+9999MW1021REMSYN072AAXX  01094 01467 41378 80904 10149 20114 30073 40079 52007 70262 8236/;
0173014670999992000070112004+58630+009140FM-12+000799999V0200901N002110300019N0280001N1+01601+01241101001ADDAY121061AY221061GF106991021031002501061021MA1999999100941MD1210211+9999MW1011REMSYN084AAXX  01124 01467 41378 60904 10160 20124 30094 40100 52021 70122 82362 222// 00158;
0161014670999992000070115004+58630+009140FM-12+000799999V0200701N002110300019N0280001N1+01701+01021101061ADDAY121031AY221031GF106991021031002501061021MA1999999101001MD1210061+9999MW1021REMSYN072AAXX  01154 01467 41378 60704 10170 20102 30100 40106 52006 70222 82362;
0201014670999992000070118004+58630+009140FM-12+000799999V0200701N002110300019N0400001N1+01701+01091101041ADDAA112000591AY121061AY221061GF106991021051004501041021KA1999M+01701MA1999999100981MD1210021+9999MW1021REMSYN088AAXX  01184 01467 11482 60704 10170 20109 30098 40104 52002 69942 70222 82542 333 10170;
0161014670999992000070200004+58630+009140FM-12+000799999V0200201N001012200019N0300001N1+01401+01261101221ADDAY111061AY201061GF103991021041008001061001MA1999999101161MD1210181+9999MW1011REMSYN072AAXX  02004 01467 41580 30202 10140 20126 30116 40122 52018 70110 82460;
0161014670999992000070203004+58630+009140FM-12+000799999V0203101N000512200019N0300001N1+01251+01111101221ADDAY111031AY201031GF102991011041008001031001MA1999999101161MD1410001+9999MW1011REMSYN072AAXX  02034 01467 41580 23101 10125 20111 30116 40122 54000 70110 81430;
0214014670999992000070206004+58630+009140FM-12+000799999V0203401N000512200019N0500001N1+01521+01161101291ADDAA199000091AY101061AY201061GF102991011041012501031001KA1999N+01251MA1999999101231MD1210091+9999MW1011REMSYN082AAXX  02064 01467 31684 23401 10152 20116 30123 40129 52009 70100 81430 333 20125;EQDQ01  00002PRCP99
0161014670999992000070209004+58630+009140FM-12+000799999V0201801N001012200019N0500001N1+01721+01291101361ADDAY101031AY201031GF103991021021008001031021MA1999999101301MD1210071+9999MW1031REMSYN072AAXX  02094 01467 41584 31802 10172 20129 30130 40136 52007 70300 82232;
0173014670999992000070212004+58630+009140FM-12+000799999V0202001N002112200019N0500001N1+01801+01181101371ADDAY101061AY201061GF103991021021008001031001MA1999999101311MD1210011+9999MW1021REMSYN084AAXX  02124 01467 41584 32004 10180 20118 30131 40137 52001 70200 82230 222// 00165;
0161014670999992000070215004+58630+009140FM-12+000799999V0202001N003112200019N0500001N1+01801+01181101391ADDAY101031AY201031GF103991021021008001031001MA1999999101331MD1210021+9999MW1021REMSYN072AAXX  02154 01467 41584 32006 10180 20118 30133 40139 52002 70200 82230;
0214014670999992000070218004+58630+009140FM-12+000799999V0202001N002112200019N0500001N1+01801-00182101241ADDAA199000091AY101061AY291061GF102991021021008001041001KA1999M+01801MA1999999101181MD1710151+9999MW1011REMSYN082AAXX  02184 01467 31584 22004 10180 21018 30118 40124 57015 70109 82240 333 10180;EQDQ01  00002PRCP99
0161014670999992000070300004+58630+009140FM-12+000799999V0202701N000512200019N0300001N1+01521+01351101171ADDAY101061AY201061GF101991011001012501051021MA1999999101111MD1710071+9999MW1011REMSYN072AAXX  03004 01467 41680 12701 10152 20135 30111 40117 57007 70100 81052;
0161014670999992000070303004+58630+009140FM-12+000799999V0203101N000512200019N0300001N1+01421+01381101121ADDAY101031AY201031GF101991011021012501001011MA1999999101061MD1710051+9999MW1021REMSYN072AAXX  03034 01467 41680 13101 10142 20138 30106 40112 57005 70200 81201;
0214014670999992000070306004+58630+009140FM-12+000799999V0201801N000512200019N0300001N1+01581+01431101101ADDAA199000091AY101061AY201061GF101991001001999999001061KA1999N+01351MA1999999101041MD1710021+9999MW1021REMSYN082AAXX  03064 01467 31980 11801 10158 20143 30104 40110 57002 70200 80006 333 20135;EQDQ01  00002PRCP99
0161014670999992000070309004+58630+009140FM-12+000799999V0201801N000512200019N0500001N1+01781+01411101041ADDAY101031AY201031GF102991011021004501001061MA1999999100981MD1710061+9999MW1031REMSYN072AAXX  03094 01467 41484 21801 10178 20141 30098 40104 57006 70300 81206;
0173014670999992000070312004+58630+009140FM-12+000799999V0202001N003112200019N0500001N1+01821+01451100921ADDAY101061AY201061GF103991021021012501061041MA1999999100861MD1710121+9999MW1031REMSYN084AAXX  03124 01467 41684 32006 10182 20145 30086 40092 57012 70300 82264 222// 00170;
0161014670999992000070315004+58630+009140FM-12+000799999V0202001N005712200019N0500001N1+01721+01351100921ADDAY101031AY201031GF103991021021012501061041MA1999999100861MD1710201+9999MW1021REMSYN072AAXX  03154 01467 41684 32011 10172 20135 30086 40092 57020 70200 82264;
0246014670999992000070318004+58630+009140FM-12+000799999V0202001N004112200019N0500001N1+01761+01391100841ADDAA199000091AY101061AY201061GF103991021021012501061041KA1999M+01821MA1999999100781MD1710081+9999MW1021REMSYN082AAXX  03184 01467 31684 32008 10176 20139 30078 40084 57000 70200 82264 333 10182;EQDQ01+000072APCTENQ02+000002APC3  Q03  00002PRCP99
0171014670999992000070400004+58630+009140FM-12+000799999V0202201N002112200019N0500001N1+01541+01261100751ADDAY101061AY201061GA1001+999999999GF100991001001999999001001MA1999999100691MD1710021+9999MW1011REMSYN066AAXX  04004 01467 41984 02204 10154 20126 30069 40075 57002 70100;
0161014670999992000070403004+58630+009140FM-12+000799999V0202701N002112200019N0300001N1+01351+01211100731ADDAY101031AY201031GF102991021041008001061011MA1999999100671MD1710021+9999MW1031REMSYN072AAXX  04034 01467 41580 22704 10135 20121 30067 40073 57002 70300 82461;
0214014670999992000070406004+58630+009140FM-12+000799999V0202601N002112200019N0400001N1+01391+01351100711ADDAA199000091AY101061AY201061GF102991011041008001061011KA1999N+01301MA1999999100651MD1710021+9999MW1021REMSYN082AAXX  04064 01467 31582 22604 10139 20135 30065 40071 57002 70200 81461 333 20130;EQDQ01  00002PRCP99
0161014670999992000070409004+58630+009140FM-12+000799999V0202001N003112200019N0300001N1+01481+01401100761ADDAY101031AY201031GF102991011061004501041011MA1999999100701MD1310051+9999MW1021REMSYN072AAXX  04094 01467 41480 22006 10148 20140 30070 40076 53005 70200 81641;
0173014670999992000070412004+58630+009140FM-12+000799999V0201901N003110042019N0280001N1+01471+01271100771ADDAY111061AY201061GF107991061061004501041999MA1999999100711MD1110011+9999MW1031REMSYN084AAXX  04124 01467 41478 71906 10147 20127 30071 40077 51001 70310 8664/ 222// 00156;
0161014670999992000070415004+58630+009140FM-12+000799999V0202001N003110042019N0300001N1+01521+01421100761ADDAY111031AY201031GF106991061061004501041999MA1999999100701MD1710011+9999MW1031REMSYN072AAXX  04154 01467 41480 62006 10152 20142 30070 40076 57001 70310 8664/;
0214014670999992000070418004+58630+009140FM-12+000799999V0202001N002112200019N0300001N1+01531+01421100711ADDAA199000091AY111061AY201061GF102991011061004501041011KA1999M+01551MA1999999100651MD1610051+9999MW1011REMSYN082AAXX  04184 01467 31480 22004 10153 20142 30065 40071 56005 70110 81641 333 10155;EQDQ01  00002PRCP99
0161014670999992000070500004+58630+009140FM-12+000799999V0202701N000510300019N0250001N1+01401+01261100721ADDAY121061AY221061GF107991031061004501041001MA1999999100661MD1210011+9999MW1031REMSYN072AAXX  05004 01467 41475 72701 10140 20126 30066 40072 52001 70322 83640;
0161014670999992000070503004+58630+009140FM-12+000799999V0203601N000510042019N0300001N1+01401+01291100731ADDAY121031AY221031GF107991071061004501999999MA1999999100761MD1010011+9999MW1021REMSYN072AAXX  05034 01467 41480 73601 10140 20129 30076 40073 50001 70222 876//;
0214014670999992000070506004+58630+009140FM-12+000799999V0200201N001010042019N0300001N1+01511+01211100741ADDAA199000091AY121061AY221061GF106991051061004501041011KA1999N+01391MA1999999100681MD1310011+9999MW1011REMSYN082AAXX  05064 01467 31480 60202 10151 20121 30068 40074 53001 70122 85641 333 20139;EQDQ01  00002PRCP99
0161014670999992000070509004+58630+009140FM-12+000799999V0201101N000510300019N0300001N1+01721+01111100801ADDAY121031AY221031GF106991031061004501041011MA1999999100741MD1210141+9999MW1011REMSYN072AAXX  05094 01467 41480 61101 10172 20111 30074 40080 52014 70122 83641;
0173014670999992000070512004+58630+009140FM-12+000799999V0201601N001010300019N0500001N1+01721+01291100821ADDAY121061AY221061GF106991031061004501011021MA1999999100761MD1710021+9999MW1021REMSYN084AAXX  05124 01467 41484 61602 10172 20129 30076 40082 57002 70222 83612 222// 00170;
0161014670999992000070515004+58630+009140FM-12+000799999V0201601N004612200019N0500001N1+01721+01411100741ADDAY111031AY201031GF104991031021004501041041MA1999999100681MD1710081+9999MW1011REMSYN072AAXX  05154 01467 41484 41609 10172 20141 30068 40074 57008 70110 83244;
0214014670999992000070518004+58630+009140FM-12+000799999V0202001N002612200019N0500001N1+01651+01341100741ADDAA199000091AY111061AY201061GF104991031021004501041041KA1999M+01751MA1999999100681MD1410001+9999MW1011REMSYN082AAXX  05184 01467 31484 42005 10165 20134 30068 40074 54000 70110 83244 333 10175;EQDQ01  00002PRCP99
0161014670999992000070600004+58630+009140FM-12+000799999V0202201N001012200019N0500001N1+01471+01311100821ADDAY101061AY201061GF101991011041008001001001MA1999999100761MD1110071+9999MW1011REMSYN072AAXX  06004 01467 41584 12202 10147 20131 30076 40082 51007 70100 81400;
0161014670999992000070603004+58630+009140FM-12+000799999V0202701N001012200019N0300001N1+01221+01061100831ADDAY101031AY201031GF103991011061004501021011MA1999999100771MD1210011+9999MW1031REMSYN072AAXX  06034 01467 41480 32702 10122 20106 30077 40083 52001 70300 81621;
0214014670999992000070606004+58630+009140FM-12+000799999V0202701N001010300019N0300001N1+01301+01141100871ADDAA199000091AY101061AY201061GF106991031061004501021011KA1999N+01221MA1999999100811MD1210041+9999MW1061REMSYN082AAXX  06064 01467 31480 62702 10130 20114 30081 40087 52004 70600 83621 333 20122;EQDQ01  00002PRCP99
0161014670999992000070609004+58630+009140FM-12+000799999V0201801N002110300019N0300001N1+01481+01181100941ADDAY121031AY221031GF107991041061004501041011MA1999999100881MD1210071+9999MW1031REMSYN072AAXX  06094 01467 41480 71804 10148 20118 30088 40094 52007 70322 84641;
0173014670999992000070612004+58630+009140FM-12+000799999V0200901N001010300019N0300001N1+01731+01201100981ADDAY121061AY221061GF106991021051008001041011MA1999999100921MD1110041+9999MW1011REMSYN084AAXX  06124 01467 41580 60902 10173 20120 30092 40098 51004 70122 82541 222// 00165;
0161014670999992000070615004+58630+009140FM-12+000799999V0201801N001010300019N0300001N1+01761+01151100931ADDAY121031AY221031GF106991021051008001041011MA1999999100871MD1810051+9999MW1021REMSYN072AAXX  06154 01467 41580 61802 10176 20115 30087 40093 58005 70222 82541;
0214014670999992000070618004+58630+009140FM-12+000799999V0201801N003110300019N0300001N1+01681+01401100821ADDAA199000091AY121061AY221061GF107991041051008001041999KA1999M+01771MA1999999100761MD1710111+9999MW1031REMSYN082AAXX  06184 01467 31580 71806 10168 20140 30076 40082 57011 70322 8454/ 333 10177;EQDQ01  00002PRCP99
0161014670999992000070700004+58630+009140FM-12+000799999V0203101N001012200019N0300001N1+01501+01351100741ADDAY121061AY211061GF104991031031008001061011MA1999999100681MD1710081+9999MW1011REMSYN072AAXX  07004 01467 41580 43102 10150 20135 30068 40074 57008 70121 83361;
0161014670999992000070703004+58630+009140FM-12+000799999V0203301N002110300019N0300001N1+01381+00991100701ADDAY121031AY211031GF106991021051008001041011MA1999999100641MD1710041+9999MW1031REMSYN072AAXX  07034 01467 41580 63304 10138 20099 30064 40070 57004 70321 82541;
0214014670999992000070706004+58630+009140FM-12+000799999V0203301N002110300019N0500001N1+01471+00691100671ADDAA199000091AY121061AY211061GF106991041051008001041011KA1999N+01361MA1999999100611MD1710031+9999MW1021REMSYN082AAXX  07064 01467 31584 63304 10147 20069 30061 40067 57003 70221 84541 333 20136;EQDQ01  00002PRCP99
0161014670999992000070709004+58630+009140FM-12+000799999V0203401N002110300019N0500001N1+01621+00561100701ADDAY121031AY221031GF106991031051008001041011MA1999999100641MD1210031+9999MW1021REMSYN072AAXX  07094 01467 41584 63404 10162 20056 30064 40070 52003 70222 83541;
0173014670999992000070712004+58630+009140FM-12+000799999V0201501N001012200019N0500001N1+01821+00581100641ADDAY121061AY211061GF104991031021008001041001MA1999999100581MD1810061+9999MW1011REMSYN084AAXX  07124 01467 41584 41502 10182 20058 30058 40064 58006 70121 83240 222// 00170;
0161014670999992000070715004+58630+009140FM-12+000799999V0201801N003112200019N0500001N1+01771+00801100591ADDAY101031AY201031GF103991021021008001041001MA1999999100531MD1710051+9999MW1011REMSYN072AAXX  07154 01467 41584 31806 10177 20080 30053 40059 57005 70100 82240;
0214014670999992000070718004+58630+009140FM-12+000799999V0200601N004612200019N0500001N1+01681+01161100531ADDAA199000091AY101061AY201061GF103991021021008001041001KA1999M+01841MA1999999100471MD1510061+9999MW1021REMSYN082AAXX  07184 01467 31584 30609 10168 20116 30047 40053 55006 70200 82240 333 10184;EQDQ01  00002PRCP99
0161014670999992000070800004+58630+009140FM-12+000799999V0203601N001012200019N0500001N1+01311+00531100561ADDAY101061AY201061GF102991011041008001041001MA1999999100501MD1010001+9999MW1011REMSYN072AAXX  08004 01467 41584 23602 10131 20053 30050 40056 50000 70100 81440;
0161014670999992000070803004+58630+009140FM-12+000799999V0203401N002112200019N0500001N1+01171+00351100581ADDAY101031AY201031GF102991011041008001041001MA1999999100521MD1310021+9999MW1021REMSYN072AAXX  08034 01467 41584 23404 10117 20035 30052 40058 53002 70200 81440;
0214014670999992000070806004+58630+009140FM-12+000799999V0200201N002112200019N0500001N1+01261+00931100601ADDAA199000091AY101061AY201061GF102991011021008001041001KA1999N+01141MA1999999100541MD1210021+9999MW1021REMSYN082AAXX  08064 01467 31584 20204 10126 20093 30054 40060 52002 70200 81240 333 20114;EQDQ01  00002PRCP99
0161014670999992000070809004+58630+009140FM-12+000799999V0201501N001010300019N0500001N1+01401+00571100611ADDAY111031AY201031GF106991041051008001041011MA1999999100551MD1010011+9999MW1031REMSYN072AAXX  08094 01467 41584 61502 10140 20057 30055 40061 50001 70310 84541;
0173014670999992000070812004+58630+009140FM-12+000799999V0202001N003110300019N0500001N1+01451+00591100551ADDAY181061AY211061GF106991011091008001041011MA1999999100491MD1710061+9999MW1021REMSYN084AAXX  08124 01467 41584 62006 10145 20059 30049 40055 57006 70281 81941 222// 00172;
0161014670999992000070815004+58630+009140FM-12+000799999V0202001N004610750019N0500001N1+01501+00741100451ADDAY181031AY221031GF105991011091008001041011MA1999999100391MD1710101+9999MW1011REMSYN072AAXX  08154 01467 41584 52009 10150 20074 30039 40045 57010 70182 81941;
0201014670999992000070818004+58630+009140FM-12+000799999V0201801N004610300019N0500001N1+01581+01261100221ADDAA112000191AY181061AY221061GF107991011091008001041011KA1999M+01581MA1999999100161MD1710231+9999MW1031REMSYN088AAXX  08184 01467 11584 71809 10158 20126 30016 40022 57023 69912 70382 81941 333 10158;
0161014670999992000070900004+58630+009140FM-12+000799999V0202501N000512200019N0500001N1+01261+00791100081ADDAY121061AY211061GF101991011041008001041001MA1999999100021MD1710071+9999MW1011REMSYN072AAXX  09004 01467 41584 12501 10126 20079 30002 40008 57007 70121 81440;
0161014670999992000070903004+58630+009140FM-12+000799999V0203001N000512200019N0500001N1+01081+00481100001ADDAY101031AY201031GF102991011051008001071011MA1999999099941MD1710081+9999MW1031REMSYN072AAXX  09034 01467 41584 23001 10108 20048 39994 40000 57008 70300 81571;
0214014670999992000070906004+58630+009140FM-12+000799999V0203401N001010300019N0500001N1+01221+00631099931ADDAA199000091AY111061AY201061GF106991011021008001041011KA1999N+01021MA1999999099871MD1710071+9999MW1031REMSYN082AAXX  09064 01467 31584 63402 10122 20063 39987 49993 57007 70310 81241 333 20102;EQDQ01  00002PRCP99
0161014670999992000070909004+58630+009140FM-12+000799999V0201501N002112200019N0500001N1+01401+01081099931ADDAY121031AY211031GF104991021021008001041001MA1999999099871MD1410001+9999MW1011REMSYN072AAXX  09094 01467 41584 41504 10140 20108 39987 49993 54000 70121 82240;
0173014670999992000070912004+58630+009140FM-12+000799999V0201801N002112200019N0500001N1+01531+00691099881ADDAY121061AY211061GF102991011031008001041001MA1999999099821MD1810051+9999MW1011REMSYN084AAXX  09124 01467 41584 21804 10153 20069 39982 49988 58005 70121 81340 222// 00165;
0161014670999992000070915004+58630+009140FM-12+000799999V0201801N004612200019N0500001N1+01481+00971099841ADDAY101031AY201031GF103991011031008001041001MA1999999099781MD1710041+9999MW1031REMSYN072AAXX  09154 01467 41584 31809 10148 20097 39978 49984 57004 70300 81340;
0214014670999992000070918004+58630+009140FM-12+000799999V0201801N002112200019N0500001N1+01461+00931099801ADDAA199000091AY101061AY201061GF103991011041008001041011KA1999M+01541MA1999999099741MD1710041+9999MW1021REMSYN082AAXX  09184 01467 31584 31804 10146 20093 39974 49980 57004 70200 81441 333 10154;EQDQ01  00002PRCP99
0161014670999992000071000004+58630+009140FM-12+000799999V0200901N003110300019N0300001N1+01401+01321099661ADDAY181061AY221061GF108991031091008001071999MA1999999099601MD1710101+9999MW1251REMSYN072AAXX  10004 01467 41580 80906 10140 20132 39960 49966 57010 72582 8397/;
0161014670999992000071003004+58630+009140FM-12+000799999V0200901N004610300019N0280001N1+01401+01211099531ADDAY161031AY221031GF108991041071008001021999MA1999999099471MD1710131+9999MW1611REMSYN072AAXX  10034 01467 41578 80909 10140 20121 39947 49953 57013 76162 8472/;
0210014670999992000071006004+58630+009140FM-12+000799999V0200901N004610300019N0150001N1+01381+01311999999ADDAA112003091AY161061AY221061GF108991041071008001021999KA1999N+01381MA1999999099391MD1710081+9999ME1199999MW1611REMSYN088AAXX  10064 01467 11565 80909 10138 20131 39939 41945 57008 60032 76162 8472/ 333 20138;
0161014670999992000071009004+58630+009140FM-12+000799999V0200901N006210300019N0120001N1+01351+01321099391ADDAY161031AY261031GF108991041071004501021999MA1999999099331MD1710061+9999MW1611REMSYN072AAXX  10094 01467 41462 80912 10135 20132 39933 49939 57006 76166 8472/;
0173014670999992000071012004+58630+009140FM-12+000799999V0200901N002110300019N0280001N1+01441+01381099421ADDAY181061AY261061GF108991031091004501071999MA1999999099361MD1310031+9999MW1811REMSYN084AAXX  10124 01467 41478 80904 10144 20138 39936 49942 53003 78186 8397/ 222// 00158;
0161014670999992000071015004+58630+009140FM-12+000799999V0200601N004610300019N0300001N1+01601+01491099351ADDAY191031AY281031GF108991021091004501071999MA1999999099291MD1810071+9999MW1171REMSYN072AAXX  10154 01467 41480 80609 10160 20149 39929 49935 58007 71798 8297/;
0201014670999992000071018004+58630+009140FM-12+000799999V0200801N003110042019N0120001N1+01441+01401099271ADDAA112025991AY191061AY281061GF108991061091004501071999KA1999M+01601MA1999999099211MD1710081+9999MW1821REMSYN088AAXX  10184 01467 11462 80806 10144 20140 39921 49927 57008 60262 78298 8697/ 333 10160;
0161014670999992000071100004+58630+009140FM-12+000799999V0200301N006210042019N0100001N1+01361+01321099081ADDAY181061AY261061GF108991061091004501071999MA1999999099021MD1710101+9999MW1811REMSYN072AAXX  11004 01467 41460 80312 10136 20132 39902 49908 57010 78186 8697/;
0161014670999992000071103004+58630+009140FM-12+000799999V0201601N003110300019N0280001N1+01461+01421099071ADDAY181031AY221031GF108991021091004501071999MA1999999099011MD1510021+9999MW1021REMSYN072AAXX  11034 01467 41478 81606 10146 20142 39901 49907 55002 70282 8297/;
0201014670999992000071106004+58630+009140FM-12+000799999V0201601N003110300019N0280001N1+01441+01381099271ADDAA112021191AY181061AY221061GF108991021091004501071999KA1999N+01331MA1999999099211MD1210201+9999MW1021REMSYN088AAXX  11064 01467 11478 81606 10144 20138 39921 49927 52020 60212 70282 8297/ 333 20133;
0161014670999992000071109004+58630+009140FM-12+000799999V0201601N003110300019N0200001N1+01561+01461099411ADDAY121031AY221031GF107991021091004501071999MA1999999099351MD1210141+9999MW1011REMSYN072AAXX  11094 01467 41470 71606 10156 20146 39935 49941 52014 70122 8297/;
0173014670999992000071112004+58630+009140FM-12+000799999V0201201N003110300019N0200001N1+01601+01501099471ADDAY121061AY221061GF107991021091004501071999MA1999999099411MD1110061+9999MW1021REMSYN084AAXX  11124 01467 41470 71206 10160 20150 39941 49947 51006 70222 8297/ 222// 00159;
0161014670999992000071115004+58630+009140FM-12+000799999V0200901N003110300019N0300001N1+01591+01491099531ADDAY121031AY221031GF107991021091004501071999MA1999999099471MD1010041+9999MW1021REMSYN072AAXX  11154 01467 41480 70906 10159 20149 39947 49953 50004 70222 8297/;
0214014670999992000071118004+58630+009140FM-12+000799999V0201201N002110300019N0300001N1+01431+01111099681ADDAA199000091AY121061AY221061GF107991021091004501071021KA1999M+01601MA1999999099621MD1310151+9999MW1021REMSYN082AAXX  11184 01467 31480 71204 10143 20111 39962 49968 53015 70222 82972 333 10160;EQDQ01  00002PRCP99
0161014670999992000071200004+58630+009140FM-12+000799999V0203301N000510300019N0300001N1+01301+01261099841ADDAY181061AY221061GF106991021091008001071001MA1999999099781MD1210081+9999MW1011REMSYN072AAXX  12004 01467 41580 63301 10130 20126 39978 49984 52008 70182 82970;
0161014670999992000071203004+58630+009140FM-12+000799999V0203501N000510300019N0300001N1+01241+01201099851ADDAY181031AY221031GF106991031091004501071999MA1999999099791MD1210011+9999MW1021REMSYN072AAXX  12034 01467 41480 63501 10124 20120 39979 49985 52001 70282 8397/;
0201014670999992000071206004+58630+009140FM-12+000799999V0203301N000512200019N0400001N1+01301+00981099941ADDAA112000591AY181061AY221061GF101991011041008001001001KA1999N+01241MA1999999099881MD1210091+9999MW1011REMSYN088AAXX  12064 01467 11582 13301 10130 20098 39988 49994 52009 69952 70182 81400 333 20124;
0161014670999992000071209004+58630+009140FM-12+000799999V0201801N001012200019N0500001N1+01541+01151100021ADDAY101031AY201031GF102991011021008001041001MA1999999099961MD1210081+9999MW1031REMSYN072AAXX  12094 01467 41584 21802 10154 20115 39996 40002 52008 70300 81240;
0173014670999992000071212004+58630+009140FM-12+000799999V0202001N003112200019N0500001N1+01641+01201100041ADDAY101061AY201061GF101991011021008001041001MA1999999099981MD1010021+9999MW1011REMSYN084AAXX  12124 01467 41584 12006 10164 20120 39998 40004 50002 70100 81240 222// 00170;
0161014670999992000071215004+58630+009140FM-12+000799999V0202001N003110300019N0400001N1+01661+01511100051ADDAY191031AY281031GF106991031091008001041001MA1999999099991MD1310011+9999MW1801REMSYN072AAXX  12154 01467 41582 62006 10166 20151 39999 40005 53001 78098 83940;
0201014670999992000071218004+58630+009140FM-12+000799999V0202101N002112200019N0500001N1+01801+01391099971ADDAA112001091AY191061AY281061GF103991011091008001041011KA1999M+01801MA1999999099911MD1810081+9999MW1011REMSYN088AAXX  12184 01467 11584 32104 10180 20139 39991 49997 58008 69992 70198 81941 333 10180;
0161014670999992000071300004+58630+009140FM-12+000799999V0203201N001010300019N0500001N1+01561+00941099891ADDAY121061AY211061GF105991041041004501041001MA1999999099831MD1710051+9999MW1031REMSYN072AAXX  13004 01467 41484 53202 10156 20094 39983 49989 57005 70321 84440;
0161014670999992000071303004+58630+009140FM-12+000799999V0203201N002110300019N0500001N1+01541+00821099861ADDAY121031AY221031GF107991011051008001071001MA1999999099801MD1710031+9999MW1031REMSYN072AAXX  13034 01467 41584 73204 10154 20082 39980 49986 57003 70322 81570;
0214014670999992000071306004+58630+009140FM-12+000799999V0203401N001012200019N0500001N1+01601+00871099841ADDAA199000091AY121061AY211061GF101991011001022501041001KA1999N+01471MA1999999099781MD1510021+9999MW1011REMSYN082AAXX  13064 01467 31884 13402 10160 20087 39978 49984 55002 70121 81040 333 20147;EQDQ01  00002PRCP99
0141014670999992000071309004+58630+009140FM-12+000799999V0200601N001012200019N0500001N1+01961+00931999999ADDAY101031AY201031GF103991021011012501031011MA1999999099741MW1031REMSYN066AAXX  13094 01467 41684 30602 10196 20093 39974 59004 70300 82131;
0173014670999992000071312004+58630+009140FM-12+000799999V0202001N001010300019N0500001N1+01811+01191099731ADDAY181061AY211061GF105991031091008001041011MA1999999099671MD1610071+9999MW1031REMSYN084AAXX  13124 01467 41584 52002 10181 20119 39967 49973 56007 70381 83941 222// 00171;
0161014670999992000071315004+58630+009140FM-12+000799999V0202001N003112200019N0500001N1+01781+01411099591ADDAY181031AY211031GF104991021091008001041011MA1999999099531MD1810141+9999MW1011REMSYN072AAXX  13154 01467 41584 42006 10178 20141 39953 49959 58014 70181 82941;
0201014670999992000071318004+58630+009140FM-12+000799999V0202001N001012200019N0500001N1+01881+01451099441ADDAA112007991AY181061AY211061GF104991021091008001041011KA1999M+02001MA1999999099381MD1610151+9999MW1021REMSYN088AAXX  13184 01467 11584 42002 10188 20145 39938 49944 56015 60082 70281 82941 333 10200;
0161014670999992000071400004+58630+009140FM-12+000799999V0203201N001012200019N0500001N1+01501+00741099311ADDAY101061AY201061GF101991011041008001041011MA1999999099251MD1710081+9999MW1011REMSYN072AAXX  14004 01467 41584 13202 10150 20074 39925 49931 57008 70100 81441;
0161014670999992000071403004+58630+009140FM-12+000799999V0202701N001012200019N0500001N1+01361+00651099291ADDAY101031AY201031GF102991011041008001001011MA1999999099231MD1710021+9999MW1021REMSYN072AAXX  14034 01467 41584 22702 10136 20065 39923 49929 57002 70200 81401;
0214014670999992000071406004+58630+009140FM-12+000799999V0202701N000512200019N0500001N1+01351+00691099321ADDAA199000091AY101061AY201061GF102991011041008001001011KA1999N+01221MA1999999099261MD1210031+9999MW1021REMSYN082AAXX  14064 01467 31584 22701 10135 20069 39926 49932 52003 70200 81401 333 20122;EQDQ01  00002PRCP99
0161014670999992000071409004+58630+009140FM-12+000799999V0201001N000512200019N0500001N1+01561+00901099431ADDAY101031AY201031GF104991011091008001031011MA1999999099371MD1210111+9999MW1031REMSYN072AAXX  14094 01467 41584 41001 10156 20090 39937 49943 52011 70300 81931;
0173014670999992000071412004+58630+009140FM-12+000799999V0201201N002112200019N0500001N1+01641+01121099521ADDAY101061AY201061GF103991011091008001031021MA1999999099461MD1210091+9999MW1011REMSYN084AAXX  14124 01467 41584 31204 10164 20112 39946 49952 52009 70100 81932 222// 00171;
0161014670999992000071415004+58630+009140FM-12+000799999V0201601N002112200019N0500001N1+01721+01061099641ADDAY101031AY201031GF103991011031008001031021MA1999999099581MD1210121+9999MW1021REMSYN072AAXX  14154 01467 41584 31604 10172 20106 39958 49964 52012 70200 81332;
0214014670999992000071418004+58630+009140FM-12+000799999V0200901N001012200019N0500001N1+01691+01081099681ADDAA199000091AY111061AY201061GF104991011091008001031021KA1999M+01721MA1999999099621MD1210041+9999MW1031REMSYN082AAXX  14184 01467 31584 40902 10169 20108 39962 49968 52004 70310 81932 333 10172;EQDQ01  00002PRCP99
0161014670999992000071500004+58630+009140FM-12+000799999V0200301N001012200019N0500001N1+01451+01341099931ADDAY121061AY201061GF103991021041008001001021MA1999999099871MD1210121+9999MW1011REMSYN072AAXX  15004 01467 41584 30302 10145 20134 39987 49993 52012 70120 82402;
0161014670999992000071503004+58630+009140FM-12+000799999V0200601N001010300019N0300001N1+01441+01341100141ADDAY121031AY211031GF107991041071004501021001MA1999999100081MD1210211+9999MW1031REMSYN072AAXX  15034 01467 41480 70602 10144 20134 30008 40014 52021 70321 84720;
0214014670999992000071506004+58630+009140FM-12+000799999V0200901N002110042019N0300001N1+01521+01161100271ADDAA199000091AY121061AY221061GF106991051091004501071021KA1999N+01361MA1999999100211MD1210131+9999MW1021REMSYN082AAXX  15064 01467 31480 60904 10152 20116 30021 40027 52013 70222 85972 333 20136;EQDQ01  00002PRCP99
0161014670999992000071509004+58630+009140FM-12+000799999V0200801N003110300019N0500001N1+01681+01191100431ADDAY121031AY221031GF106991041091008001081021MA1999999100371MD1210161+9999MW1021REMSYN072AAXX  15094 01467 41584 60806 10168 20119 30037 40043 52016 70222 84982;
0173014670999992000071512004+58630+009140FM-12+000799999V0201201N001012200019N0500001N1+01661+01291100581ADDAY121061AY201061GF103991021021008001001051MA1999999100521MD1210151+9999MW1011REMSYN084AAXX  15124 01467 41584 31202 10166 20129 30052 40058 52015 70120 82205 222// 00171;
0161014670999992000071515004+58630+009140FM-12+000799999V0201801N000512200019N0500001N1+01721+01231100601ADDAY121031AY201031GF104991031091008001071021MA1999999100541MD1510021+9999MW1021REMSYN072AAXX  15154 01467 41584 41801 10172 20123 30054 40060 55002 70220 83972;
0214014670999992000071518004+58630+009140FM-12+000799999V0201801N000512200019N0500001N1+01751+01261100621ADDAA199000091AY121061AY201061GF104991011021004501071021KA1999M+01791MA1999999100561MD1210021+9999MW1021REMSYN082AAXX  15184 01467 31484 41801 10175 20126 30056 40062 52002 70220 81272 333 10179;EQDQ01  00002PRCP99
0161014670999992000071600004+58630+009140FM-12+000799999V0203601N001010075019N0500001N1+01751+01161100651ADDAY121061AY221061GF107991061041008001001011MA1999999100591MD1210021+9999MW1031REMSYN072AAXX  16004 01467 41584 73602 10175 20116 30059 40065 52002 70322 86401;
0161014670999992000071603004+58630+009140FM-12+000799999V0203601N001010075019N0500001N1+01761+01101100751ADDAY121031AY221031GF108991081051008001999999MA1999999100691MD1210101+9999MW1031REMSYN072AAXX  16034 01467 41584 83602 10176 20110 30069 40075 52010 70322 885//;
0214014670999992000071606004+58630+009140FM-12+000799999V0203601N001012200019N0500001N1+01761+01001100761ADDAA199000091AY121061AY201061GF104991021041012501041021KA1999N+01741MA1999999100701MD1210011+9999MW1011REMSYN082AAXX  16064 01467 31684 43602 10176 20100 30070 40076 52001 70120 82442 333 20174;EQDQ01  00002PRCP99
0161014670999992000071609004+58630+009140FM-12+000799999V0203601N002110300019N0500001N1+01841+00981100851ADDAY121031AY221031GF107991021021008001041021MA1999999100791MD1210091+9999MW1031REMSYN072AAXX  16094 01467 41584 73604 10184 20098 30079 40085 52009 70322 82242;
0173014670999992000071612004+58630+009140FM-12+000799999V0200301N002110300019N0300001N1+01961+01011100891ADDAY161061AY221061GF108991021051008001021021MA1999999100831MD1210041+9999MW1601REMSYN084AAXX  16124 01467 41580 80304 10196 20101 30083 40089 52004 76062 82522 222// 00172;
0161014670999992000071615004+58630+009140FM-12+000799999V0201801N002110300019N0300001N1+01761+01511100921ADDAY161031AY221031GF108991021031008001021999MA1999999100861MD1310031+9999MW1021REMSYN072AAXX  16154 01467 41580 81804 10176 20151 30086 40092 53003 70262 8232/;
0201014670999992000071618004+58630+009140FM-12+000799999V0202701N001010300019N0300001N1+01801+01041100921ADDAA112000191AY181061AY221061GF108991021091008001071021KA1999M+01961MA1999999100861MD1510001+9999MW1801REMSYN088AAXX  16184 01467 11580 82702 10180 20104 30086 40092 55000 69912 78082 82972 333 10196;
0161014670999992000071700004+58630+009140FM-12+000799999V0200901N000510300019N0300001N1+01611+01571101041ADDAY181061AY221061GF108991021091004501071021MA1999999100981MD1210061+9999MW1021REMSYN072AAXX  17004 01467 41480 80901 10161 20157 30098 40104 52006 70282 82972;
0161014670999992000071703004+58630+009140FM-12+000799999V0200901N001010300019N0300001N1+01511+01471101081ADDAY181031AY221031GF108991021091004501071021MA1999999101021MD1210041+9999MW1021REMSYN072AAXX  17034 01467 41480 80902 10151 20147 30102 40108 52004 70282 82972;
0201014670999992000071706004+58630+009140FM-12+000799999V0200301N000510300019N0300001N1+01541+01501101101ADDAA112000591AY181061AY221061GF107991021021004501071011KA1999N+01501MA1999999101061MD1210021+9999MW1011REMSYN088AAXX  17064 01467 11480 70301 10154 20150 30106 40110 52002 69942 70182 82271 333 20150;
0161014670999992000071709004+58630+009140FM-12+000799999V0200901N000510300019N0500001N1+01621+01311101131ADDAY121031AY221031GF106991021021004501031011MA1999999101071MD1210031+9999MW1011REMSYN072AAXX  17094 01467 41484 60901 10162 20131 30107 40113 52003 70122 82231;
0173014670999992000071712004+58630+009140FM-12+000799999V0201601N001010300019N0500001N1+01711+01271101141ADDAY121061AY221061GF106991011031004501031011MA1999999101081MD1210011+9999MW1021REMSYN084AAXX  17124 01467 41484 61602 10171 20127 30108 40114 52001 70222 81331 222// 00176;
0161014670999992000071800004+58630+009140FM-12+000799999V0209999C000012200019N0400001N1+01561+01481100981ADDAY121061AY211061GF104991021001017501051091MA1999999100921MD1710101+9999MW1011REMSYN072AAXX  18004 01467 41782 40000 10156 20148 30092 40098 57010 70121 82059;
0161014670999992000071803004+58630+009140FM-12+000799999V0209999C000010150019N0300001N1+01501+01461100861ADDAY121031AY211031GF106991051001017501051011MA1999999100801MD1710121+9999MW1031REMSYN072AAXX  18034 01467 41780 60000 10150 20146 30080 40086 57012 70321 85051;
0214014670999992000071806004+58630+009140FM-12+000799999V0209999C000010150019N0500001N1+01561+01501100861ADDAA199000091AY121061AY211061GF107991071001017501051001KA1999N+01471MA1999999100801MD1410001+9999MW1031REMSYN082AAXX  18064 01467 31784 70000 10156 20150 30080 40086 54000 70321 87050 333 20147;EQDQ01  00002PRCP99
0161014670999992000071809004+58630+009140FM-12+000799999V0209999C000010300019N0500001N1+01801+01601100861ADDAY121031AY221031GF107991021051008001031031MA1999999100801MD1410001+9999MW1021REMSYN072AAXX  18094 01467 41584 70000 10180 20160 30080 40086 54000 70222 82533;
0173014670999992000071812004+58630+009140FM-12+000799999V0201801N001012200019N0400001N1+01821+01641100771ADDAY121061AY211061GF104991021021008001031011MA1999999100711MD1710091+9999MW1011REMSYN084AAXX  18124 01467 41582 41802 10182 20164 30071 40077 57009 70121 82231 222// 00182;
0161014670999992000071815004+58630+009140FM-12+000799999V0209999C000010021019N0200001N1+01721+01681100811ADDAY191031AY261031GF108991081071002501999999MA1999999100751MD1110041+9999MW1951REMSYN072AAXX  18154 01467 41370 80000 10172 20168 30075 40081 51004 79596 887//;
0201014670999992000071818004+58630+009140FM-12+000799999V0209999C000010750019N0300001N1+01661+01621100791ADDAA112009991AY191061AY261061GF105991011071004501071081KA1999M+01861MA1999999100731MD1510021+9999MW1011REMSYN088AAXX  18184 01467 11480 50000 10166 20162 30073 40079 55002 60102 70196 81778 333 10186;
0161014670999992000071900004+58630+009140FM-12+000799999V0209999C000012200019N0400001N1+01521+01481100591ADDAY121061AY201061GF101991011001012501041011MA1999999100531MD1710101+9999MW1011REMSYN072AAXX  19004 01467 41682 10000 10152 20148 30053 40059 57010 70120 81041;
0161014670999992000071903004+58630+009140FM-12+000799999V0209999C000012200019N0400001N1+01501+01421100571ADDAY121031AY201031GF102991011001012501041081MA1999999100511MD1810021+9999MW1021REMSYN072AAXX  19034 01467 41682 20000 10150 20142 30051 40057 58002 70220 81048;
0214014670999992000071906004+58630+009140FM-12+000799999V0203001N001012200019N0400001N1+01721+01461100521ADDAA199000091AY111061AY201061GF102991011001017501041081KA1999N+01501MA1999999100461MD1710051+9999MW1021REMSYN082AAXX  19064 01467 31782 23002 10172 20146 30046 40052 57005 70210 81048 333 20150;EQDQ01  00002PRCP99
0161014670999992000071909004+58630+009140FM-12+000799999V0202801N000512200019N0400001N1+02121+01361100471ADDAY101031AY201031GF102991011011008001001031MA1999999100411MD1610051+9999MW1021REMSYN072AAXX  19094 01467 41582 22801 10212 20136 30041 40047 56005 70200 81103;
0173014670999992000071912004+58630+009140FM-12+000799999V0201801N000510750019N0400001N1+02101+01681100461ADDAY111061AY201061GF105991021021008001091011MA1999999100401MD1810011+9999MW1031REMSYN084AAXX  19124 01467 41582 51801 10210 20168 30040 40046 58001 70310 82291 222// 00184;
0161014670999992000071915004+58630+009140FM-12+000799999V0201801N000510300019N0400001N1+02101+01731100391ADDAY111031AY211031GF105991031021008001031011MA1999999100331MD1810071+9999MW1021REMSYN072AAXX  19154 01467 41582 51801 10210 20173 30033 40039 58007 70211 83231;
0201014670999992000071918004+58630+009140FM-12+000799999V0209999C000010750019N0400001N1+02001+01631100371ADDAA112000191AY181061AY211061GF105991021021004501091021KA1999M+02301MA1999999100311MD1610021+9999MW1021REMSYN088AAXX  19184 01467 11482 50000 10200 20163 30031 40037 56002 69912 70281 82292 333 10230;
0161014670999992000072000004+58630+009140FM-12+000799999V0209999C000012200019N0400001N1+01701+01441100501ADDAY101061AY201061GF102991011001017501041081MA1999999100441MD1110051+9999MW1021REMSYN072AAXX  20004 01467 41782 20000 10170 20144 30044 40050 51005 70200 81048;
0180014670999992000072003004+58630+009140FM-12+000799999V0203201N000510120019N0400001N1+01711+00322100571ADDAY121031AY201031GF106991061051012501031001MA1999999100511MD1210071+9999MW1031REMSYN072AAXX  20034 01467 41682 63201 10171 20032 30051 40057 52007 70320 86530;EQDQ01+000323ATOD  
0214014670999992000072006004+58630+009140FM-12+000799999V0203201N002110075019N0400001N1+01701+00851100731ADDAA199000091AY121061AY221061GF106991061051008001071001KA1999N+01701MA1999999100671MD1210161+9999MW1021REMSYN082AAXX  20064 01467 31582 63204 10170 20085 30067 40073 52016 70222 86570 333 20170;EQDQ01  00002PRCP99
0161014670999992000072009004+58630+009140FM-12+000799999V0200301N001010750019N0400001N1+02101+00871100841ADDAY121031AY221031GF105991041041012501001021MA1999999100821MD1210151+9999MW1011REMSYN072AAXX  20094 01467 41682 50302 10210 20087 30082 40084 52015 70122 84402;
0173014670999992000072012004+58630+009140FM-12+000799999V0200901N001012200019N0400001N1+02141+01131100981ADDAY121061AY201061GF102991011011012501001021MA1999999100921MD1210101+9999MW1011REMSYN084AAXX  20124 01467 41682 20902 10214 20113 30092 40098 52010 70120 81102 222// 00182;
0155014670999992000072015004+58630+009140FM-12+000799999V0201801N002112200019N0400001N1+02001+01231999999ADDAY101031AY201031GF102991011011012501001021MA1999999101091MD1210171+9999MW1011REMSYN066AAXX  20154 01467 41682 21804 10200 20123 30109 52017 70100 81102;
0214014670999992000072018004+58630+009140FM-12+000799999V0201801N001010750019N0400001N1+01921+01361101271ADDAA199000091AY121061AY201061GF105991011011012501041041KA1999M+02101MA1999999101211MD1210121+9999MW1031REMSYN082AAXX  20184 01467 31682 51802 10192 20136 30121 40127 52012 70320 81144 333 10210;EQDQ01  00002PRCP99
0161014670999992000072100004+58630+009140FM-12+000799999V0200601N001012200019N0300001N1+01831+01241101631ADDAY121061AY221061GF105991041041008001001011MA1999999101571MD1210181+9999MW1021REMSYN072AAXX  21004 01467 41580 50602 10183 20124 30157 40163 52018 70222 84401;
0161014670999992000072103004+58630+009140FM-12+000799999V0203601N001010750019N0400001N1+01641+01061101651ADDAY121031AY211031GF105991011041008001061081MA1999999101591MD1310021+9999MW1021REMSYN072AAXX  21034 01467 41582 53602 10164 20106 30159 40165 53002 70221 81468;
0214014670999992000072106004+58630+009140FM-12+000799999V0203601N001010300019N0400001N1+01701+01001101831ADDAA199000091AY121061AY211061GF106991021021008001071021KA1999N+01641MA1999999101771MD1210181+9999MW1021REMSYN082AAXX  21064 01467 31582 63602 10170 20100 30177 40183 52018 70221 82272 333 20164;EQDQ01  00002PRCP99
0161014670999992000072109004+58630+009140FM-12+000799999V0200601N002110750019N0400001N1+01971+01031101881ADDAY121031AY211031GF105991011021008001071021MA1999999101821MD1210051+9999MW1011REMSYN072AAXX  21094 01467 41582 50604 10197 20103 30182 40188 52005 70121 81272;
0173014670999992000072112004+58630+009140FM-12+000799999V0200901N004610750019N0400001N1+01921+01301101941ADDAY121061AY201061GF105991021021008001041021MA1999999101881MD1210061+9999MW1021REMSYN084AAXX  21124 01467 41582 50909 10192 20130 30188 40194 52006 70220 82242 222// 00182;
0161014670999992000072115004+58630+009140FM-12+000799999V0200801N003110300019N0400001N1+01821+01491102101ADDAY121031AY221031GF106991031021008001071031MA1999999102041MD1310161+9999MW1021REMSYN072AAXX  21154 01467 41582 60806 10182 20149 30204 40210 53016 70222 83273;
0214014670999992000072118004+58630+009140FM-12+000799999V0200301N001012200019N0400001N1+01921+01311102161ADDAA199000091AY121061AY201061GF103991011041008001041011KA1999M+02001MA1999999102101MD1110061+9999MW1011REMSYN082AAXX  21184 01467 31582 30302 10192 20131 30210 40216 51006 70120 81441 333 10200;EQDQ01  00002PRCP99
0161014670999992000072200004+58630+009140FM-12+000799999V0203601N001012200019N0400001N1+01721+01351102311ADDAY111061AY211061GF102991021001017501031011MA1999999102251MD1110051+9999MW1011REMSYN072AAXX  22004 01467 41782 23602 10172 20135 30225 40231 51005 70111 82031;
0161014670999992000072203004+58630+009140FM-12+000799999V0203601N000512200019N0400001N1+01621+01031102231ADDAY101031AY201031GF101991011001017501041011MA1999999102171MD1810081+9999MW1021REMSYN072AAXX  22034 01467 41782 13601 10162 20103 30217 40223 58008 70200 81041;
0214014670999992000072206004+58630+009140FM-12+000799999V0203601N001012200019N0400001N1+01801+01271102241ADDAA199000091AY101061AY201061GF102991011001022501031081KA1999N+01601MA1999999102181MD1310011+9999MW1021REMSYN082AAXX  22064 01467 31882 23602 10180 20127 30218 40224 53001 70200 81038 333 20160;EQDQ01  00002PRCP99
0161014670999992000072209004+58630+009140FM-12+000799999V0203601N001012200019N0400001N1+02201+01291102191ADDAY101031AY201031GF102991021011008001001091MA1999999102131MD1810051+9999MW1021REMSYN072AAXX  22094 01467 41582 23602 10220 20129 30213 40219 58005 70200 82109;
0173014670999992000072212004+58630+009140FM-12+000799999V0200901N000512200019N0400001N1+01961+01541102141ADDAY111061AY201061GF103991021021008001031091MA1999999102081MD1810051+9999MW1031REMSYN084AAXX  22124 01467 41582 30901 10196 20154 30208 40214 58005 70310 82239 222// 00184;
0161014670999992000072215004+58630+009140FM-12+000799999V0209999C000012200019N0400001N1+02121+01361102011ADDAY101031AY201031GF103991021021008001031011MA1999999101951MD1710131+9999MW1021REMSYN072AAXX  22154 01467 41582 30000 10212 20136 30195 40201 57013 70200 82231;
0214014670999992000072218004+58630+009140FM-12+000799999V0202101N000512200019N0400001N1+02201+01151101921ADDAA199000091AY101061AY201061GF101991011041008001001011KA1999M+02201MA1999999101861MD1710091+9999MW1021REMSYN082AAXX  22184 01467 31582 12101 10220 20115 30186 40192 57009 70200 81401 333 10220;EQDQ01  00002PRCP99
0161014670999992000072300004+58630+009140FM-12+000799999V0209999C000012200019N0400001N1+01821+01361101731ADDAY101061AY201061GF102991021001022501031011MA1999999101671MD1710101+9999MW1021REMSYN072AAXX  23004 01467 41882 20000 10182 20136 30167 40173 57010 70200 82031;
0161014670999992000072303004+58630+009140FM-12+000799999V0209999C000012200019N0400001N1+01761+01471101671ADDAY111031AY201031GF104991031001022501031091MA1999999101611MD1710061+9999MW1031REMSYN072AAXX  23034 01467 41882 40000 10176 20147 30161 40167 57006 70310 83039;
0214014670999992000072306004+58630+009140FM-12+000799999V0203601N001012200019N0400001N1+01901+01211101641ADDAA199000091AY111061AY201061GF103991001001999999001081KA1999N+01751MA1999999101581MD1810031+9999MW1011REMSYN082AAXX  23064 01467 31982 33602 10190 20121 30158 40164 58003 70110 80008 333 20175;EQDQ01  00002PRCP99
0161014670999992000072309004+58630+009140FM-12+000799999V0201801N001012200019N0400001N1+02061+01361101561ADDAY101031AY201031GF103991001001999999001081MA1999999101501MD1810081+9999MW1021REMSYN072AAXX  23094 01467 41982 31802 10206 20136 30150 40156 58008 70200 80008;
0173014670999992000072312004+58630+009140FM-12+000799999V0202101N002112200019N0400001N1+02101+01141101421ADDAY101061AY201061GF103991011011008001031011MA1999999101361MD1710141+9999MW1021REMSYN084AAXX  23124 01467 41582 32104 10210 20114 30136 40142 57014 70200 81131 222// 00180;
0161014670999992000072315004+58630+009140FM-12+000799999V0201801N004610300019N0300001N1+02001+01491101281ADDAY121031AY201031GF107991031011008001031091MA1999999101221MD1710141+9999MW1031REMSYN072AAXX  23154 01467 41580 71809 10200 20149 30122 40128 57014 70320 83139;
0214014670999992000072318004+58630+009140FM-12+000799999V0200901N001010300019N0400001N1+01961+01851101241ADDAA199000091AY121061AY211061GF108991031081004501021999KA1999M+02201MA1999999101181MD1510041+9999MW1021REMSYN082AAXX  23184 01467 31482 80902 10196 20185 30118 40124 55004 70221 8382/ 333 10220;EQDQ01  00002PRCP99
0161014670999992000072400004+58630+009140FM-12+000799999V0209999C000010300019N0400001N1+01701+01661101261ADDAY181061AY211061GF106991011071004501071091MA1999999101201MD1410001+9999MW1011REMSYN072AAXX  24004 01467 41482 60000 10170 20166 30120 40126 54000 70181 81779;
0161014670999992000072403004+58630+009140FM-12+000799999V0209999C000010300019N0400001N1+01721+01621101191ADDAY121031AY211031GF108991031071004501071999MA1999999101131MD1710071+9999MW1031REMSYN072AAXX  24034 01467 41482 80000 10172 20162 30113 40119 57007 70321 8377/;
0201014670999992000072406004+58630+009140FM-12+000799999V0203601N000510300019N0400001N1+01821+01451101101ADDAA112001091AY121061AY221061GF108991041071004501071999KA1999N+01651MA1999999101041MD1610091+9999MW1021REMSYN088AAXX  24064 01467 11482 83601 10182 20145 30104 40110 56009 60012 70222 8477/ 333 20165;
0161014670999992000072409004+58630+009140FM-12+000799999V0200501N000510300019N0400001N1+01881+01451101041ADDAY121031AY221031GF108991031091004501071999MA1999999100981MD1710061+9999MW1021REMSYN072AAXX  24094 01467 41482 80501 10188 20145 30098 40104 57006 70222 8397/;
0173014670999992000072412004+58630+009140FM-12+000799999V0200401N000510042019N0400001N1+01841+01471100991ADDAY121061AY221061GF108991061071004501071999MA1999999100931MD1710051+9999MW1021REMSYN084AAXX  24124 01467 41482 80401 10184 20147 30093 40099 57005 70222 8677/ 222// 00180;
0161014670999992000072415004+58630+009140FM-12+000799999V0200401N000510021019N0150001N1+01701+01661100951ADDAY161031AY251031GF108991071071002501021999MA1999999100891MD1710041+9999MW1581REMSYN072AAXX  24154 01467 41365 80401 10170 20166 30089 40095 57004 75865 8772/;
0201014670999992000072418004+58630+009140FM-12+000799999V0203601N000510300019N0200001N1+01701+01661100891ADDAA112003091AY161061AY251061GF108991031061002501021999KA1999M+01851MA1999999100831MD1810061+9999MW1021REMSYN088AAXX  24184 01467 11370 83601 10170 20166 30083 40089 58006 60032 70265 8362/ 333 10185;
0161014670999992000072500004+58630+009140FM-12+000799999V0203601N000510300019N0150001N1+01711+01671100801ADDAY121061AY221061GF108991031071004501021999MA1999999100741MD1710041+9999MW1021REMSYN072AAXX  25004 01467 41465 83601 10171 20167 30074 40080 57004 70222 8372/;
0161014670999992000072503004+58630+009140FM-12+000799999V0200901N000510021019N0060001N1+01701+01661100791ADDAY161031AY251031GF108991051061002501021999MA1999999100731MD1810011+9999MW1591REMSYN072AAXX  25034 01467 41356 80901 10170 20166 30073 40079 58001 75965 8562/;
0201014670999992000072506004+58630+009140FM-12+000799999V0200701N002110021019N0200001N1+01701+01661100871ADDAA112001091AY161061AY251061GF108991051091002501071999KA1999N+01701MA1999999100811MD1310081+9999MW1021REMSYN088AAXX  25064 01467 11370 80704 10170 20166 30081 40087 53008 69992 70265 8597/ 333 20170;
0173014670999992000072512004+58630+009140FM-12+000799999V0200701N002110300019N0300001N1+01891+01741100961ADDAY121061AY221061GF107991021061002501031011MA1999999100901MD1110021+9999MW1011REMSYN084AAXX  25124 01467 41380 70704 10189 20174 30090 40096 51002 70122 82631 222// 00178;
0161014670999992000072515004+58630+009140FM-12+000799999V0200701N001012200019N0400001N1+02021+01581100901ADDAY121031AY201031GF103991021021008001031001MA1999999100841MD1710061+9999MW1011REMSYN072AAXX  25154 01467 41582 30702 10202 20158 30084 40090 57006 70120 82230;
0214014670999992000072518004+58630+009140FM-12+000799999V0200901N001012200019N0400001N1+01981+01731100901ADDAA199000091AY121061AY201061GF103991011091004501031021KA1999M+02041MA1999999100841MD1510001+9999MW1021REMSYN082AAXX  25184 01467 31482 30902 10198 20173 30084 40090 55000 70220 81932 333 10204;EQDQ01  00002PRCP99
0161014670999992000072600004+58630+009140FM-12+000799999V0203601N000510300019N0200001N1+01801+01651100901ADDAY181061AY211061GF108991021091002501071999MA1999999100841MD1410001+9999MW1801REMSYN072AAXX  26004 01467 41370 83601 10180 20165 30084 40090 54000 78081 8297/;
0161014670999992000072603004+58630+009140FM-12+000799999V0200101N002110042019N0200001N1+01651+01611100841ADDAY161031AY211031GF108991061071004501021999MA1999999100661MD1710021+9999MW1611REMSYN072AAXX  26034 01467 41470 80104 10165 20161 30066 40084 57002 76161 8672/;
0201014670999992000072606004+58630+009140FM-12+000799999V0200201N001010300019N0100001N1+01541+01501100791ADDAA112006191AY161061AY261061GF108991041071004501021999KA1999N+01521MA1999999100731MD1410001+9999MW1611REMSYN088AAXX  26064 01467 11460 80202 10154 20150 30073 40079 54000 60062 76166 8472/ 333 20152;
0161014670999992000072609004+58630+009140FM-12+000799999V0200401N002110021019N0100001N1+01481+01401100871ADDAY161031AY221031GF108991051061002501021999MA1999999100811MD1310081+9999MW1601REMSYN072AAXX  26094 01467 41360 80404 10148 20140 30081 40087 53008 76062 8562/;
0173014670999992000072612004+58630+009140FM-12+000799999V0200201N001010300019N0100001N1+01441+01361100891ADDAY161061AY221061GF108991041071002501021999MA1999999100831MD1110081+9999MW1601REMSYN084AAXX  26124 01467 41360 80202 10144 20136 30083 40089 51008 76062 8472/ 222// 00172;
0161014670999992000072615004+58630+009140FM-12+000799999V0200201N001010021019N0200001N1+01421+01341100941ADDAY161031AY221031GF108991071071002501021999MA1999999100881MD1210051+9999MW1021REMSYN072AAXX  26154 01467 41370 80202 10142 20134 30088 40094 52005 70262 8772/;
0201014670999992000072618004+58630+009140FM-12+000799999V0203601N001010300019N0200001N1+01441+01301101011ADDAA112005191AY161061AY221061GF108991041071002501021999KA1999M+01581MA1999999100951MD1210071+9999MW1021REMSYN088AAXX  26184 01467 11370 83602 10144 20130 30095 40101 52007 60052 70262 8472/ 333 10158;
0161014670999992000072700004+58630+009140FM-12+000799999V0200201N002110300019N0100001N1+01341+01341101091ADDAY161061AY251061GF108991041061002501021999MA1999999101031MD1210031+9999MW1501REMSYN072AAXX  27004 01467 41360 80204 10134 20134 30103 40109 52003 75065 8462/;
0161014670999992000072703004+58630+009140FM-12+000799999V0203601N000510021019N0100001N1+01241+01201101171ADDAY161031AY251031GF108991051061002501021999MA1999999101111MD1210081+9999MW1601REMSYN072AAXX  27034 01467 41360 83601 10124 20120 30111 40117 52008 76065 8562/;
0201014670999992000072706004+58630+009140FM-12+000799999V0200201N001010021019N0100001N1+01221+01181101241ADDAA112002091AY161061AY251061GF108991061071002501021999KA1999N+01221MA1999999101181MD1210071+9999MW1601REMSYN088AAXX  27064 01467 11360 80202 10122 20118 30118 40124 52007 60022 76065 8672/ 333 20122;
0161014670999992000072709004+58630+009140FM-12+000799999V0200201N002110021019N0200001N1+01321+01261101291ADDAY161031AY221031GF108991061071002501021999MA1999999101231MD1210051+9999MW1211REMSYN072AAXX  27094 01467 41370 80204 10132 20126 30123 40129 52005 72162 8672/;
0173014670999992000072712004+58630+009140FM-12+000799999V0200301N002110021019N0150001N1+01411+01251101321ADDAY161061AY221061GF108991061071002501021999MA1999999101261MD1210031+9999MW1601REMSYN084AAXX  27124 01467 41365 80304 10141 20125 30126 40132 52003 76062 8672/ 222// 00170;
0161014670999992000072715004+58630+009140FM-12+000799999V0200301N001010021019N0150001N1+01421+01281101321ADDAY161031AY221031GF108991061071002501021999MA1999999101261MD1410001+9999MW1211REMSYN072AAXX  27154 01467 41365 80302 10142 20128 30126 40132 54000 72162 8672/;
0201014670999992000072718004+58630+009140FM-12+000799999V0203601N001010021019N0050001N1+01441+01381101271ADDAA112000891AY161061AY221061GF108991051061002501021999KA1999M+01441MA1999999101211MD1710051+9999MW1101REMSYN088AAXX  27184 01467 11350 83602 10144 20138 30121 40127 57005 69972 71062 8562/ 333 10144;
0161014670999992000072800004+58630+009140FM-12+000799999V0200901N000510021019N0100001N1+01401+01361101201ADDAY161061AY221061GF108991071071002501021999MA1999999101141MD1710051+9999MW1601REMSYN072AAXX  28004 01467 41360 80901 10140 20136 30114 40120 57005 76062 8772/;
0161014670999992000072803004+58630+009140FM-12+000799999V0200301N002110021019N0050001N1+01421+01391101141ADDAY161031AY251031GF108991061061002501021999MA1999999101081MD1610061+9999MW1501REMSYN072AAXX  28034 01467 41350 80304 10142 20139 30108 40114 56006 75065 8662/;
0201014670999992000072806004+58630+009140FM-12+000799999V0203601N003110021019N0020001N1+01411+01381101091ADDAA112003091AY161061AY251061GF108991061061002501021999KA1999N+01381MA1999999101031MD1710051+9999MW1611REMSYN088AAXX  28064 01467 11320 83606 10141 20138 30103 40109 57005 60032 76165 8662/ 333 20138;
0161014670999992000072809004+58630+009140FM-12+000799999V0200201N002110021019N0050001N1+01371+01331101211ADDAY161031AY251031GF108991081061002501999999MA1999999101151MD1210121+9999MW1581REMSYN072AAXX  28094 01467 41350 80204 10137 20133 30115 40121 52012 75865 886//;
0173014670999992000072812004+58630+009140FM-12+000799999V0203601N002110300019N0100001N1+01301+01261101251ADDAY161061AY251061GF108991021061002501021999MA1999999101191MD1310041+9999MW1601REMSYN084AAXX  28124 01467 41360 83604 10130 20126 30119 40125 53004 76065 8262/ 222// 00168;
0180014670999992000072815004+58630+009140FM-12+000799999V0200201N002119999999N0020001N1+01451+01411101231ADDAY161031AY251031GF108991999061002501021999MA1999999101171MD1710021+9999MW1501REMSYN072AAXX  28154 01467 41320 80204 10145 20141 30117 40123 57002 75065 8062/;EQDQ01+000002SCOTLC
0201014670999992000072818004+58630+009140FM-12+000799999V02099999999990300019N0200001N1+01501+01421101211ADDAA112003091AY161061AY251061GF107991021071002501021001KA1999M+01581MA1999999101151MD1710021+9999MW1011REMSYN088AAXX  28184 01467 11370 74602 10150 20142 30115 40121 57002 60032 70165 82720 333 10158;
0161014670999992000072900004+58630+009140FM-12+000799999V0203201N001012200019N0300001N1+01421+01371101231ADDAY121061AY201061GF104991021071004501021021MA1999999101171MD1210011+9999MW1011REMSYN072AAXX  29004 01467 41480 43202 10142 20137 30117 40123 52001 70120 82722;
0161014670999992000072903004+58630+009140FM-12+000799999V0203601N001012200019N0300001N1+01441+01301101191ADDAY121031AY201031GF104991021071004501021021MA1999999101131MD1210041+9999MW1011REMSYN072AAXX  29034 01467 41480 43602 10144 20130 30113 40119 52004 70120 82722;
0214014670999992000072906004+58630+009140FM-12+000799999V0203601N001012200019N0300001N1+01481+01231101211ADDAA199000091AY121061AY201061GF104991031081004501031021KA1999N+01381MA1999999101151MD1310021+9999MW1021REMSYN082AAXX  29064 01467 31480 43602 10148 20123 30115 40121 53002 70220 83832 333 20138;EQDQ01  00002PRCP99
0161014670999992000072909004+58630+009140FM-12+000799999V0200801N001010300019N0300001N1+01641+01381101251ADDAY121031AY201031GF106991021021008001051021MA1999999101191MD1210041+9999MW1031REMSYN072AAXX  29094 01467 41580 60802 10164 20138 30119 40125 52004 70320 82252;
0173014670999992000072912004+58630+009140FM-12+000799999V0200901N001012200019N0400001N1+01801+01471101281ADDAY121061AY201061GF103991011021008001031031MA1999999101221MD1710031+9999MW1011REMSYN084AAXX  29124 01467 41582 30902 10180 20147 30122 40128 57003 70120 81233 222// 00175;
0161014670999992000072915004+58630+009140FM-12+000799999V0201701N001012200019N0400001N1+01901+01411101271ADDAY121031AY201031GF102991011021012501031031MA1999999101211MD1310011+9999MW1011REMSYN072AAXX  29154 01467 41682 21702 10190 20141 30121 40127 53001 70120 81233;
0214014670999992000072918004+58630+009140FM-12+000799999V0202001N001012200019N0400001N1+01811+01591101231ADDAA199000091AY121061AY201061GF102991011011012501031031KA1999M+01901MA1999999101171MD1710041+9999MW1021REMSYN082AAXX  29184 01467 31682 22002 10181 20159 30117 40123 57004 70220 81133 333 10190;EQDQ01  00002PRCP99
0161014670999992000073000004+58630+009140FM-12+000799999V0202701N000512200019N0300001N1+01571+01531101181ADDAY111061AY201061GF102991021001012501041021MA1999999101121MD1710031+9999MW1021REMSYN072AAXX  30004 01467 41680 22701 10157 20153 30112 40118 57003 70210 82042;
0161014670999992000073003004+58630+009140FM-12+000799999V0203001N000512200019N0300001N1+01501+01461101141ADDAY111031AY201031GF103991021001012501041021MA1999999101081MD1610041+9999MW1021REMSYN072AAXX  30034 01467 41680 33001 10150 20146 30108 40114 56004 70210 82042;
0214014670999992000073006004+58630+009140FM-12+000799999V0203601N000512200019N0400001N1+01581+01481101191ADDAA199000091AY111061AY201061GF103991001001999999001091KA1999N+01441MA1999999101131MD1310041+9999MW1021REMSYN082AAXX  30064 01467 31982 33601 10158 20148 30113 40119 53004 70210 80009 333 20144;EQDQ01  00002PRCP99
0161014670999992000073009004+58630+009140FM-12+000799999V0200901N001012200019N0100001N1+01701+01441101221ADDAY101031AY201031GF101991011021012501001091MA1999999101161MD1210031+9999MW1021REMSYN072AAXX  30094 01467 41660 10902 10170 20144 30116 40122 52003 70200 81209;
0173014670999992000073012004+58630+009140FM-12+000799999V0201801N001012200019N0300001N1+01881+01681101271ADDAY101061AY201061GF101991011021012501001091MA1999999101211MD1210051+9999MW1021REMSYN084AAXX  30124 01467 41680 11802 10188 20168 30121 40127 52005 70200 81209 222// 00189;
0161014670999992000073015004+58630+009140FM-12+000799999V0201801N002112200019N0300001N1+01901+01641101281ADDAY101031AY201031GF101991011021012501001031MA1999999101221MD1010011+9999MW1021REMSYN072AAXX  30154 01467 41680 11804 10190 20164 30122 40128 50001 70200 81203;
0214014670999992000073018004+58630+009140FM-12+000799999V0201801N001012200019N0300001N1+01901+01641101251ADDAA199000091AY101061AY201061GF101991011021012501001031KA1999M+01961MA1999999101191MD1710031+9999MW1021REMSYN082AAXX  30184 01467 31680 11802 10190 20164 30119 40125 57003 70200 81203 333 10196;EQDQ01  00002PRCP99
0171014670999992000073100004+58630+009140FM-12+000799999V0203601N001012200019N0300001N1+01601+01561101291ADDAY101061AY201061GA1001+999999999GF100991001001999999001001MA1999999101231MD1210011+9999MW1011REMSYN066AAXX  31004 01467 41980 03602 10160 20156 30123 40129 52001 70100;
0161014670999992000073103004+58630+009140FM-12+000799999V0203601N002110021019N0050001N1+01541+01511101271ADDAY121031AY201031GF106991061061002501001001MA1999999101211MD1710021+9999MW1031REMSYN072AAXX  31034 01467 41350 63604 10154 20151 30121 40127 57002 70320 86600;
0214014670999992000073106004+58630+009140FM-12+000799999V0203601N002110300019N0100001N1+01571+01471101341ADDAA199000091AY121061AY211061GF105991041061002501021001KA1999N+01501MA1999999101281MD1210071+9999MW1021REMSYN082AAXX  31064 01467 31360 53604 10157 20147 30128 40134 52007 70221 84620 333 20150;EQDQ01  00002PRCP99
0173014670999992000073112004+58630+009140FM-12+000799999V0200901N002112200019N0200001N1+01841+01331101491ADDAY121061AY211061GF102991011031004501031001MA1999999101431MD1210071+9999MW1011REMSYN084AAXX  31124 01467 41470 20904 10184 20133 30143 40149 52007 70121 81330 222// 00184;
0161014670999992000073115004+58630+009140FM-12+000799999V0201301N000512200019N0200001N1+01861+01351101501ADDAY111031AY201031GF103991011021008001031091MA1999999101441MD1310011+9999MW1021REMSYN072AAXX  31154 01467 41570 31301 10186 20135 30144 40150 53001 70210 81239;
0214014670999992000073118004+58630+009140FM-12+000799999V0201301N000512200019N0300001N1+01841+01451101451ADDAA199000091AY101061AY201061GF102991011021008001031031KA1999M+01901MA1999999101391MD1610051+9999MW1021REMSYN082AAXX  31184 01467 31580 21301 10184 20145 30139 40145 56005 70200 81233 333 10190;EQDQ01  00002PRCP99
0161014670999992000080100004+58630+009140FM-12+000799999V0203601N000512200019N0300001N1+01561+01521101471ADDAY101061AY201061GF102991011041008001041031MA1999999101411MD1410001+9999MW1021REMSYN072AAXX  01004 01467 41580 23601 10156 20152 30141 40147 54000 70200 81443;
0161014670999992000080103004+58630+009140FM-12+000799999V0203301N000510021019N0300001N1+01541+01501101471ADDAY121031AY211031GF108991061071002501021999MA1999999101411MD1410001+9999MW1031REMSYN072AAXX  01034 01467 41380 83301 10154 20150 30141 40147 54000 70321 8672/;
0214014670999992000080106004+58630+009140FM-12+000799999V0203301N000510300019N0300001N1+01501+01461101471ADDAA199000091AY121061AY221061GF108991041071002501021999KA1999N+01541MA1999999101411MD1410001+9999MW1021REMSYN082AAXX  01064 01467 31380 83301 10150 20146 30141 40147 54000 70222 8472/ 333 20154;EQDQ01  00002PRCP99
0161014670999992000080109004+58630+009140FM-12+000799999V0200801N000510300019N0300001N1+01761+01431101471ADDAY121031AY211031GF107991031071002501071031MA1999999101411MD1410001+9999MW1021REMSYN072AAXX  01094 01467 41380 70801 10176 20143 30141 40147 54000 70221 83773;
0173014670999992000080112004+58630+009140FM-12+000799999V0200901N000510300019N0300001N1+01741+01411101441ADDAY121061AY221061GF108991031071002501071999MA1999999101381MD1810031+9999MW1021REMSYN084AAXX  01124 01467 41380 80901 10174 20141 30138 40144 58003 70222 8377/ 222// 00182;
0214014670999992000080118004+58630+009140FM-12+000799999V0202501N000510750019N0300001N1+01781+01291101271ADDAA199000091AY121061AY211061GF106991011071002501071031KA1999M+01831MA1999999101211MD1710101+9999MW1021REMSYN082AAXX  01184 01467 31380 62501 10178 20129 30121 40127 57010 70221 81773 333 10183;EQDQ01  00002PRCP99
0161014670999992000080200004+58630+009140FM-12+000799999V0202201N001010300019N0300001N1+01611+01571101221ADDAY121061AY211061GF105991031071004501071021MA1999999101161MD1710031+9999MW1021REMSYN072AAXX  02004 01467 41480 52202 10161 20157 30116 40122 57003 70221 83772;
0161014670999992000080203004+58630+009140FM-12+000799999V0202301N000512200019N0300001N1+01601+01491101141ADDAY121031AY211031GF103991021001017501031031MA1999999101081MD1710081+9999MW1011REMSYN072AAXX  02034 01467 41780 32301 10160 20149 30108 40114 57008 70121 82033;
0214014670999992000080206004+58630+009140FM-12+000799999V0202501N000512200019N0300001N1+01521+01371101091ADDAA199000091AY121061AY201061GF103991011081002501031031KA1999N+01461MA1999999101031MD1610051+9999MW1021REMSYN082AAXX  02064 01467 31380 32501 10152 20137 30103 40109 56005 70220 81833 333 20146;EQDQ01  00002PRCP99
0173014670999992000080212004+58630+009140FM-12+000799999V0201801N002112200019N0300001N1+01761+01561101051ADDAY111061AY201061GF104991021021004501031021MA1999999100991MD1710021+9999MW1021REMSYN084AAXX  02124 01467 41480 41804 10176 20156 30099 40105 57002 70210 82232 222// 00180;
0161014670999992000080215004+58630+009140FM-12+000799999V0201801N003112200019N0300001N1+01781+01501101041ADDAY111031AY201031GF104991021021004501001021MA1999999100981MD1710011+9999MW1021REMSYN072AAXX  02154 01467 41480 41806 10178 20150 30098 40104 57001 70210 82202;
0214014670999992000080218004+58630+009140FM-12+000799999V0202001N002112200019N0300001N1+01701+01441100961ADDAA199000091AY111061AY201061GF104991021021004501031021KA1999M+01821MA1999999100901MD1510081+9999MW1021REMSYN082AAXX  02184 01467 31480 42004 10170 20144 30090 40096 55008 70210 82232 333 10182;EQDQ01  00002PRCP99
0161014670999992000080300004+58630+009140FM-12+000799999V0209999C000012200019N0100001N1+01461+01401100971ADDAY111061AY201061GF103991011061002501031091MA1999999100911MD1410001+9999MW1011REMSYN072AAXX  03004 01467 41360 30000 10146 20140 30091 40097 54000 70110 81639;
0161014670999992000080303004+58630+009140FM-12+000799999V0203201N000512200019N0300001N1+01381+01341100941ADDAY111031AY201031GF103991011061004501031021MA1999999100881MD1710031+9999MW1011REMSYN072AAXX  03034 01467 41480 33201 10138 20134 30088 40094 57003 70110 81632;
0214014670999992000080306004+58630+009140FM-12+000799999V0203201N000512200019N0200001N1+01421+01341100991ADDAA199000091AY111061AY201061GF103991011061004501031021KA1999N+01341MA1999999100931MD1210051+9999MW1021REMSYN082AAXX  03064 01467 31470 33201 10142 20134 30093 40099 52005 70210 81632 333 20134;EQDQ01  00002PRCP99
0173014670999992000080312004+58630+009140FM-12+000799999V0201201N001010300019N0200001N1+01801+01511101151ADDAY191061AY211061GF106991031091002501021021MA1999999101091MD1310101+9999MW1291REMSYN084AAXX  03124 01467 41370 61202 10180 20151 30109 40115 53010 72991 83922 222// 00184;
0161014670999992000080315004+58630+009140FM-12+000799999V0209999C000010300019N0300001N1+01801+01431101111ADDAY191031AY211031GF105991031021002501071031MA1999999101051MD1610041+9999MW1011REMSYN072AAXX  03154 01467 41380 50000 10180 20143 30105 40111 56004 70191 83273;
0214014670999992000080318004+58630+009140FM-12+000799999V0209999C000012200019N0400001N1+01841+01411101111ADDAA199000091AY191061AY211061GF102991011041008001041031KA1999M+01841MA1999999101051MD1510001+9999MW1011REMSYN082AAXX  03184 01467 31582 20000 10184 20141 30105 40111 55000 70191 81443 333 10184;EQDQ01  00002PRCP99
0171014670999992000080400004+58630+009140FM-12+000799999V0203601N000512200019N0200001N1+01511+01471101211ADDAY111061AY201061GA1001+999999999GF100991001001999999001001MA1999999101151MD1210051+9999MW1011REMSYN066AAXX  04004 01467 41970 03601 10151 20147 30115 40121 52005 70110;
0161014670999992000080403004+58630+009140FM-12+000799999V0209999C000012200019N0200001N1+01501+01421101291ADDAY101031AY201031GF101991001001999999001081MA1999999101231MD1210081+9999MW1021REMSYN072AAXX  04034 01467 41970 10000 10150 20142 30123 40129 52008 70200 80008;
0214014670999992000080406004+58630+009140FM-12+000799999V0203601N000510300019N0200001N1+01501+01421101321ADDAA199000091AY121061AY211061GF107991041071002501021021KA1999N+01401MA1999999101261MD1210031+9999MW1031REMSYN082AAXX  04064 01467 31370 73601 10150 20142 30126 40132 52003 70321 84722 333 20140;EQDQ01  00002PRCP99
0161014670999992000080409004+58630+009140FM-12+000799999V0200901N000512200019N0200001N1+01721+01551101371ADDAY121031AY211031GF104991021021004501021021MA1999999101311MD1210051+9999MW1011REMSYN072AAXX  04094 01467 41470 40901 10172 20155 30131 40137 52005 70121 82222;
0173014670999992000080412004+58630+009140FM-12+000799999V0201201N001012200019N0200001N1+01831+01461101381ADDAY121061AY211061GF101991011021004501031001MA1999999101321MD1210011+9999MW1011REMSYN084AAXX  04124 01467 41470 11202 10183 20146 30132 40138 52001 70121 81230 222// 00184;
0161014670999992000080415004+58630+009140FM-12+000799999V0201801N001012200019N0300001N1+01861+01531101381ADDAY111031AY211031GF104991021031002501031021MA1999999101321MD1410001+9999MW1031REMSYN072AAXX  04154 01467 41380 41802 10186 20153 30132 40138 54000 70311 82332;
0214014670999992000080418004+58630+009140FM-12+000799999V0209999C000010750019N0300001N1+01861+01641101281ADDAA199000091AY121061AY211061GF106991011071004501021031KA1999M+01901MA1999999101221MD1710101+9999MW1021REMSYN082AAXX  04184 01467 31480 60000 10186 20164 30122 40128 57010 70221 81723 333 10190;EQDQ01  00002PRCP99
0161014670999992000080500004+58630+009140FM-12+000799999V0209999C000012200019N0300001N1+01641+00741101441ADDAY121061AY211061GF103991011041008001031011MA1999999101381MD1110101+9999MW1011REMSYN072AAXX  05004 01467 41580 30000 10164 20074 30138 40144 51010 70121 81431;
0161014670999992000080503004+58630+009140FM-12+000799999V0202301N000510300019N0300001N1+01561+00871101481ADDAY121031AY211031GF106991031071004501031021MA1999999101421MD1310041+9999MW1031REMSYN072AAXX  05034 01467 41480 62301 10156 20087 30142 40148 53004 70321 83732;
0214014670999992000080506004+58630+009140FM-12+000799999V0202301N000512200019N0300001N1+01541+01071101501ADDAA199000091AY121061AY211061GF103991011041008001031081KA1999N+01501MA1999999101441MD1110021+9999MW1011REMSYN082AAXX  05064 01467 31580 32301 10154 20107 30144 40150 51002 70121 81438 333 20150;EQDQ01  00002PRCP99
0161014670999992000080509004+58630+009140FM-12+000799999V0202701N001012200019N0300001N1+01901+01151101561ADDAY111031AY211031GF103991011041008001031011MA1999999101501MD1310061+9999MW1021REMSYN072AAXX  05094 01467 41580 32702 10190 20115 30150 40156 53006 70211 81431;
0173014670999992000080512004+58630+009140FM-12+000799999V0201801N002112200019N0300001N1+01961+01341101521ADDAY111061AY211061GF104991011041008001031091MA1999999101461MD1610041+9999MW1021REMSYN084AAXX  05124 01467 41580 41804 10196 20134 30146 40152 56004 70211 81439 222// 00194;
0161014670999992000080515004+58630+009140FM-12+000799999V0202001N002112200019N0300001N1+01901+01701101451ADDAY121031AY201031GF105991011041008001031091MA1999999101391MD1610071+9999MW1021REMSYN072AAXX  05154 01467 41580 52004 10190 20170 30139 40145 56007 70220 81439;
0214014670999992000080518004+58630+009140FM-12+000799999V0202001N001012200019N0300001N1+01941+01681101351ADDAA199000091AY121061AY201061GF104991011021008001051091KA1999M+02021MA1999999101291MD1710101+9999MW1021REMSYN082AAXX  05184 01467 31580 42002 10194 20168 30129 40135 57010 70220 81259 333 10202;EQDQ01  00002PRCP99
0161014670999992000080600004+58630+009140FM-12+000799999V0209999C000012200019N0300001N1+01601+01341101341ADDAY111061AY211061GF101991011001017501041011MA1999999101281MD1410001+9999MW1011REMSYN072AAXX  06004 01467 41780 10000 10160 20134 30128 40134 54000 70111 81041;
0161014670999992000080603004+58630+009140FM-12+000799999V0202301N002110300019N0300001N1+01641+00901101291ADDAY121031AY211031GF106991021071004501071011MA1999999101231MD1610051+9999MW1031REMSYN072AAXX  06034 01467 41480 62304 10164 20090 30123 40129 56005 70321 82771;
0201014670999992000080606004+58630+009140FM-12+000799999V0202301N002110300019N0300001N1+01541+01241101211ADDAA112000191AY181061AY211061GF106991011071004501071021KA1999N+01501MA1999999101151MD1710081+9999MW1021REMSYN088AAXX  06064 01467 11480 62304 10154 20124 30115 40121 57008 69912 70281 81772 333 20150;
0161014670999992000080609004+58630+009140FM-12+000799999V0202501N004610300019N0300001N1+01861+01301101101ADDAY121031AY221031GF106991031041008001031021MA1999999101041MD1710111+9999MW1021REMSYN072AAXX  06094 01467 41580 62509 10186 20130 30104 40110 57011 70222 83432;
0173014670999992000080612004+58630+009140FM-12+000799999V0202301N006212200019N0300001N1+02021+01511100871ADDAY121061AY211061GF104991021021008001031031MA1999999100811MD1710231+9999MW1011REMSYN084AAXX  06124 01467 41580 42312 10202 20151 30081 40087 57023 70121 82233 222// 00184;
0161014670999992000080615004+58630+009140FM-12+000799999V0202301N007212200019N0300001N1+02201+00701100751ADDAY121031AY211031GF104991021011008001031031MA1999999100691MD1610121+9999MW1021REMSYN072AAXX  06154 01467 41580 42314 10220 20070 30069 40075 56012 70221 82133;
0214014670999992000080618004+58630+009140FM-12+000799999V0202701N004612200019N0300001N1+01821+00281100901ADDAA199000091AY111061AY211061GF102991011011008001031091KA1999M+02251MA1999999100841MD1310151+9999MW1011REMSYN082AAXX  06184 01467 31580 22709 10182 20028 30084 40090 53015 70111 81139 333 10225;EQDQ01  00002PRCP99
0161014670999992000080700004+58630+009140FM-12+000799999V0209999C000012200019N0300001N1+01601+00701101211ADDAY101061AY201061GF101991001001999999001081MA1999999101151MD1210071+9999MW1011REMSYN072AAXX  07004 01467 41980 10000 10160 20070 30115 40121 52007 70100 80008;
0171014670999992000080703004+58630+009140FM-12+000799999V0202701N001012200019N0300001N1+01581+00771101211ADDAY101031AY201031GA1001+999999999GF100991001001999999001001MA1999999101151MD1410001+9999MW1011REMSYN066AAXX  07034 01467 41980 02702 10158 20077 30115 40121 54000 70100;
0214014670999992000080706004+58630+009140FM-12+000799999V0202701N001012200019N0300001N1+01301+00391101141ADDAA199000091AY101061AY201061GF101991001001999999001081KA1999N+01251MA1999999101081MD1610071+9999MW1021REMSYN082AAXX  07064 01467 31980 12702 10130 20039 30108 40114 56007 70200 80008 333 20125;EQDQ01  00002PRCP99
0161014670999992000080709004+58630+009140FM-12+000799999V0202801N003112200019N0300001N1+01641+00511101031ADDAY111031AY201031GF104991011011008001031091MA1999999100971MD1710111+9999MW1031REMSYN072AAXX  07094 01467 41580 42806 10164 20051 30097 40103 57011 70310 81139;
0173014670999992000080712004+58630+009140FM-12+000799999V0203001N006212200019N0300001N1+01841+00261100991ADDAY111061AY211061GF104991021041008001031031MA1999999100931MD1810041+9999MW1021REMSYN084AAXX  07124 01467 41580 43012 10184 20026 30093 40099 58004 70211 82433 222// 00164;
0161014670999992000080715004+58630+009140FM-12+000799999V0203001N004612200019N0300001N1+01961+00161100911ADDAY111031AY211031GF103991021041008001001031MA1999999100851MD1710081+9999MW1011REMSYN072AAXX  07154 01467 41580 33009 10196 20016 30085 40091 57008 70111 82403;
0214014670999992000080718004+58630+009140FM-12+000799999V0202801N004612200019N0300001N1+01801+00221100861ADDAA199000091AY101061AY201061GF101991011011008001001031KA1999M+01961MA1999999100801MD1610051+9999MW1021REMSYN082AAXX  07184 01467 31580 12809 10180 20022 30080 40086 56005 70200 81103 333 10196;EQDQ01  00002PRCP99
0161014670999992000080800004+58630+009140FM-12+000799999V0202701N000512200019N0500001N1+01301+00291100981ADDAY101061AY201061GF102991011061004501041001MA1999999100921MD1210121+9999MW1031REMSYN072AAXX  08004 01467 41484 22701 10130 20029 30092 40098 52012 70300 81640;
0161014670999992000080803004+58630+009140FM-12+000799999V0202501N000512200019N0400001N1+01201+00371101001ADDAY101031AY201031GF101991001001999999001011MA1999999100941MD1110021+9999MW1021REMSYN072AAXX  08034 01467 41982 12501 10120 20037 30094 40100 51002 70200 80001;
0214014670999992000080806004+58630+009140FM-12+000799999V0202701N000512200019N0400001N1+01321+00491101001ADDAA199000091AY101061AY201061GF101991001001999999001011KA1999N+01151MA1999999100941MD1410001+9999MW1021REMSYN082AAXX  08064 01467 31982 12701 10132 20049 30094 40100 54000 70200 80001 333 20115;EQDQ01  00002PRCP99
0161014670999992000080809004+58630+009140FM-12+000799999V0202901N000512200019N0400001N1+01701+00431101001ADDAY101031AY201031GF101991001001999999001011MA1999999100941MD1410001+9999MW1021REMSYN072AAXX  08094 01467 41982 12901 10170 20043 30094 40100 54000 70200 80001;
0173014670999992000080812004+58630+009140FM-12+000799999V0202001N002112200019N0500001N1+01821+00581101011ADDAY101061AY201061GF102991011011012501041001MA1999999100951MD1210011+9999MW1031REMSYN084AAXX  08124 01467 41684 22004 10182 20058 30095 40101 52001 70300 81140 222// 00162;
0161014670999992000080815004+58630+009140FM-12+000799999V0201801N003112200019N0500001N1+01801+01091100991ADDAY101031AY201031GF103991021011012501041011MA1999999100931MD1710031+9999MW1031REMSYN072AAXX  08154 01467 41684 31806 10180 20109 30093 40099 57003 70300 82141;
0214014670999992000080818004+58630+009140FM-12+000799999V0200701N001010300019N0400001N1+01901+01211101031ADDAA199000091AY121061AY221061GF106991031051004501041021KA1999M+01931MA1999999100971MD1210081+9999MW1031REMSYN082AAXX  08184 01467 31482 60702 10190 20121 30097 40103 52008 70322 83542 333 10193;EQDQ01  00002PRCP99
0171014670999992000080900004+58630+009140FM-12+000799999V0203301N000512200019N0400001N1+01361+00281101281ADDAY111061AY201061GA1001+999999999GF100991001001999999001001MA1999999101221MD1210101+9999MW1011REMSYN066AAXX  09004 01467 41982 03301 10136 20028 30122 40128 52010 70110;
0171014670999992000080903004+58630+009140FM-12+000799999V0203301N001512200019N0500001N1+01251+00321101361ADDAY101031AY201031GA1001+999999999GF100991001001999999001001MA1999999101301MD1210081+9999MW1021REMSYN066AAXX  09034 01467 41984 03303 10125 20032 30130 40136 52008 70200;
0224014670999992000080906004+58630+009140FM-12+000799999V0203301N002112200019N0500001N1+01251+00401101441ADDAA199000091AY101061AY201061GA1001+999999999GF100991001001999999001001KA1999N+01251MA1999999101381MD1210081+9999MW1021REMSYN076AAXX  09064 01467 31984 03304 10125 20040 30138 40144 52008 70200 333 20125;EQDQ01  00002PRCP99
0161014670999992000080909004+58630+009140FM-12+000799999V0209999C000012200019N0500001N1+01601+00401101511ADDAY101031AY201031GF101991001001999999001011MA1999999101451MD1210071+9999MW1021REMSYN072AAXX  09094 01467 41984 10000 10160 20040 30145 40151 52007 70200 80001;
0173014670999992000080912004+58630+009140FM-12+000799999V0201801N002112200019N0500001N1+01621+00521101541ADDAY101061AY201061GF101991011021008001001011MA1999999101481MD1110031+9999MW1021REMSYN084AAXX  09124 01467 41584 11804 10162 20052 30148 40154 51003 70200 81201 222// 00170;
0161014670999992000080915004+58630+009140FM-12+000799999V0202101N002112200019N0500001N1+01621+00951101471ADDAY101031AY201031GF101991011021008001001081MA1999999101411MD1810071+9999MW1021REMSYN072AAXX  09154 01467 41584 12104 10162 20095 30141 40147 58007 70200 81208;
0214014670999992000080918004+58630+009140FM-12+000799999V0202301N001012200019N0500001N1+01621+00951101361ADDAA199000091AY101061AY201061GF102991021001022501031011KA1999M+01621MA1999999101301MD1610111+9999MW1021REMSYN082AAXX  09184 01467 31884 22302 10162 20095 30130 40136 56011 70200 82031 333 10162;EQDQ01  00002PRCP99
0161014670999992000081000004+58630+009140FM-12+000799999V0203401N000512200019N0300001N1+01251+01211101161ADDAY101061AY201061GF101991011011012501041001MA1999999101101MD1710201+9999MW1021REMSYN072AAXX  10004 01467 41680 13401 10125 20121 30110 40116 57020 70200 81140;
0161014670999992000081003004+58630+009140FM-12+000799999V0202701N000512200019N0300001N1+01201+01131101161ADDAY121031AY211031GF105991011041008001031091MA1999999101101MD1410001+9999MW1031REMSYN072AAXX  10034 01467 41580 52701 10120 20113 30110 40116 54000 70321 81439;
0214014670999992000081006004+58630+009140FM-12+000799999V0209999C000010300019N0300001N1+01261+00941101131ADDAA199000091AY121061AY211061GF107991011071004501071011KA1999N+01151MA1999999101071MD1610031+9999MW1031REMSYN082AAXX  10064 01467 31480 70000 10126 20094 30107 40113 56003 70321 81771 333 20115;EQDQ01  00002PRCP99
0161014670999992000081009004+58630+009140FM-12+000799999V0209999C000010300019N0300001N1+01501+01181101141ADDAY161031AY221031GF108991011061002501021001MA1999999101081MD1210011+9999MW1801REMSYN072AAXX  10094 01467 41380 80000 10150 20118 30108 40114 52001 78062 81620;
0173014670999992000081012004+58630+009140FM-12+000799999V0201801N003110021019N0100001N1+01601+01571101091ADDAY181061AY261061GF108991061061002501021999MA1999999101031MD1810051+9999MW1621REMSYN084AAXX  10124 01467 41360 81806 10160 20157 30103 40109 58005 76286 8662/ 222// 00168;
0161014670999992000081015004+58630+009140FM-12+000799999V0201601N003110021019N0100001N1+01581+01551101001ADDAY161031AY251031GF108991061061002501021999MA1999999100941MD1710091+9999MW1631REMSYN072AAXX  10154 01467 41360 81606 10158 20155 30094 40100 57009 76365 8662/;
0201014670999992000081018004+58630+009140FM-12+000799999V0201601N003110021019N0100001N1+01601+01571100881ADDAA112016091AY161061AY251061GF108991061061002501021999KA1999M+01601MA1999999100821MD1710121+9999MW1631REMSYN088AAXX  10184 01467 11360 81606 10160 20157 30082 40088 57012 60162 76365 8662/ 333 10160;
0161014670999992000081100004+58630+009140FM-12+000799999V0202101N003110021019N0100001N1+01601+01561100761ADDAY161061AY251061GF108991061061002501021999MA1999999100701MD1710081+9999MW1581REMSYN072AAXX  11004 01467 41360 82106 10160 20156 30070 40076 57008 75865 8662/;
0161014670999992000081103004+58630+009140FM-12+000799999V0202001N002110021019N0100001N1+01621+01581100671ADDAY151031AY221031GF108991061061002501021999MA1999999100611MD1710091+9999MW1581REMSYN072AAXX  11034 01467 41360 82004 10162 20158 30061 40067 57009 75852 8662/;
0201014670999992000081106004+58630+009140FM-12+000799999V0202001N002110021019N0100001N1+01621+01581100661ADDAA112001091AY181061AY251061GF108991061061002501021999KA1999N+01581MA1999999100601MD1710011+9999MW1621REMSYN088AAXX  11064 01467 11360 82004 10162 20158 30060 40066 57001 60012 76285 8662/ 333 20158;
0161014670999992000081109004+58630+009140FM-12+000799999V0202001N000510300019N0100001N1+01701+01661100661ADDAY161031AY221031GF106991041061002501021021MA1999999100601MD1410001+9999MW1011REMSYN072AAXX  11094 01467 41360 62001 10170 20166 30060 40066 54000 70162 84622;
0173014670999992000081112004+58630+009140FM-12+000799999V0201801N000510300019N0200001N1+01781+01741100661ADDAY161061AY221061GF106991031061002501021021MA1999999100601MD1410001+9999MW1021REMSYN084AAXX  11124 01467 41370 61801 10178 20174 30060 40066 54000 70262 83622 222// 00170;
0161014670999992000081115004+58630+009140FM-12+000799999V0201801N002110750019N0300001N1+01901+01751100621ADDAY121031AY221031GF105991021061004501031021MA1999999100561MD1710041+9999MW1011REMSYN072AAXX  11154 01467 41480 51804 10190 20175 30056 40062 57004 70122 82632;
0201014670999992000081118004+58630+009140FM-12+000799999V0202001N000510300019N0300001N1+01801+01761100541ADDAA112000891AY121061AY221061GF106991021061002501041021KA1999M+01801MA1999999100481MD1710081+9999MW1021REMSYN088AAXX  11184 01467 11380 62001 10180 20176 30048 40054 57008 69972 70222 82642 333 10180;
0161014670999992000081200004+58630+009140FM-12+000799999V0200201N000510300019N0200001N1+01681+01641100691ADDAY121061AY221061GF106991021061002501021001MA1999999100631MD1210151+9999MW1021REMSYN072AAXX  12004 01467 41370 60201 10168 20164 30063 40069 52015 70222 82620;
0161014670999992000081203004+58630+009140FM-12+000799999V0200201N000510750019N0250001N1+01601+01561100721ADDAY121031AY221031GF105991021051004501031021MA1999999100661MD1210031+9999MW1011REMSYN072AAXX  12034 01467 41475 50201 10160 20156 30066 40072 52003 70122 82532;
0220014670999992000081206004+58630+009140FM-12+000799999V0200701N002110300019N0200001N1+01601+01561100941ADDAA112000191AY181061AY261061GF108991041061004501021999KA1999N+99999MA1999999100861MD1210201+9999MW1801REMSYN088AAXX  12064 01467 11470 80704 10160 20156 30086 40094 52020 69922 78086 8462/ 333 20185;EQDQ01 +01852ATMN  
0161014670999992000081209004+58630+009140FM-12+000799999V0200901N002110300019N0280001N1+01601+00841101041ADDAY181031AY261031GF107991041061002501071999MA1999999100981MD1210121+9999MW1031REMSYN072AAXX  12094 01467 41378 70904 10160 20084 30098 40104 52012 70386 8467/;
0173014670999992000081212004+58630+009140FM-12+000799999V0200901N002110300019N0300001N1+01621+01541101141ADDAY121061AY221061GF106991031061004501031021MA1999999101081MD1210101+9999MW1011REMSYN084AAXX  12124 01467 41480 60904 10162 20154 30108 40114 52010 70122 83632 222// 00168;
0161014670999992000081215004+58630+009140FM-12+000799999V0201801N002110750019N0300001N1+01721+01171101281ADDAY121031AY221031GF105991021021004501061021MA1999999101221MD1210141+9999MW1011REMSYN072AAXX  12154 01467 41480 51804 10172 20117 30122 40128 52014 70122 82262;
0195014670999992000081218004+58630+009140FM-12+000799999V0202001N002112200019N0300001N1+01701+01151101341ADDAA199000021AY101061AY201061GF103991011041008001061021KA1999M+01751MA1999999101281MD1210061+9999MW1011REMSYN082AAXX  12184 01467 31580 32004 10170 20115 30128 40134 52006 70100 81462 333 10175;
0161014670999992000081300004+58630+009140FM-12+000799999V0203101N000512200019N0650001N1+01401+01361101541ADDAY101061AY201061GF103991011041004501031021MA1999999101481MD1210201+9999MW1021REMSYN072AAXX  13004 01467 41487 33101 10140 20136 30148 40154 52020 70200 81432;
0161014670999992000081303004+58630+009140FM-12+000799999V0203101N000512200019N0280001N1+01301+01261101621ADDAY101031AY201031GF102991011041004501031001MA1999999101561MD1210081+9999MW1011REMSYN072AAXX  13034 01467 41478 23101 10130 20126 30156 40162 52008 70100 81430;
0214014670999992000081306004+58630+009140FM-12+000799999V0203601N000510750019N0280001N1+01421+01281101751ADDAA199000091AY121061AY221061GF105991021061004501021011KA1999N+01301MA1999999101691MD1210131+9999MW1031REMSYN082AAXX  13064 01467 31478 53601 10142 20128 30169 40175 52013 70322 82621 333 20130;EQDQ01  00002PRCP99
0161014670999992000081309004+58630+009140FM-12+000799999V0201101N000512200019N0400001N1+01621+01521101841ADDAY101031AY201031GF103991021021008001031021MA1999999101781MD1210091+9999MW1011REMSYN072AAXX  13094 01467 41582 31101 10162 20152 30178 40184 52009 70100 82232;
0173014670999992000081312004+58630+009140FM-12+000799999V0201301N000512200019N0400001N1+01751+01381101921ADDAY101061AY201061GF103991021021008001031021MA1999999101861MD1210081+9999MW1021REMSYN084AAXX  13124 01467 41582 31301 10175 20138 30186 40192 52008 70200 82232 222// 00170;
0161014670999992000081315004+58630+009140FM-12+000799999V0201601N000512200019N0400001N1+01751+01441102021ADDAY101031AY201031GF103991021021008001031021MA1999999101961MD1210101+9999MW1021REMSYN072AAXX  13154 01467 41582 31601 10175 20144 30196 40202 52010 70200 82232;
0214014670999992000081318004+58630+009140FM-12+000799999V0201801N000510750019N0280001N1+01771+01511102011ADDAA199000091AY121061AY221061GF105991021061004501031021KA1999M+01801MA1999999101951MD1710011+9999MW1031REMSYN082AAXX  13184 01467 31478 51801 10177 20151 30195 40201 57001 70322 82632 333 10180;EQDQ01  00002PRCP99
0161014670999992000081400004+58630+009140FM-12+000799999V0202001N001010300019N0300001N1+01621+01561102041ADDAY121061AY221061GF107991031061002501061021MA1999999101981MD1210031+9999MW1031REMSYN072AAXX  14004 01467 41380 72002 10162 20156 30198 40204 52003 70322 83662;
0161014670999992000081403004+58630+009140FM-12+000799999V0202001N001010300019N0300001N1+01621+01561102021ADDAY121031AY221031GF107991031081002501021999MA1999999101961MD1710021+9999MW1021REMSYN072AAXX  14034 01467 41380 72002 10162 20156 30196 40202 57002 70222 8382/;
0161014670999992000081409004+58630+009140FM-12+000799999V0202001N001010300019N0250001N1+01601+01561101941ADDAY181031AY251031GF107991031031002501071021MA1999999101881MD1410001+9999MW1801REMSYN072AAXX  14094 01467 41375 72002 10160 20156 30188 40194 54000 78085 83372;
0173014670999992000081412004+58630+009140FM-12+000799999V0200901N001010300019N0200001N1+01601+01561101741ADDAY181061AY251061GF108991031061002501061999MA1999999101681MD1710201+9999MW1801REMSYN084AAXX  14124 01467 41370 80902 10160 20156 30168 40174 57020 78085 8366/ 222// 00168;
0161014670999992000081415004+58630+009140FM-12+000799999V0201801N003110300019N0100001N1+01621+01591101601ADDAY181031AY251031GF108991031061002501021999MA1999999101541MD1710141+9999MW1811REMSYN072AAXX  14154 01467 41360 81806 10162 20159 30154 40160 57014 78185 8362/;
0201014670999992000081506004+58630+009140FM-12+000799999V0202601N002112200019N0150001N1+01671+01631100941ADDAA112004191AY181061AY251061GF104991031061002501031021KA1999N+01601MA1999999100881MD1710051+9999MW1511REMSYN088AAXX  15064 01467 11365 42604 10167 20163 30088 40094 57005 60042 75185 83632 333 20160;
0173014670999992000081512004+58630+009140FM-12+000799999V0202401N003110300019N0280001N1+01851+01701100931ADDAY151061AY221061GF106991011021008001041081MA1999999100871MD1410001+9999MW1011REMSYN084AAXX  15124 01467 41578 62406 10185 20170 30087 40093 54000 70152 81248 222// 00174;
0161014670999992000081515004+58630+009140FM-12+000799999V0202101N004610300019N0250001N1+01801+01701100861ADDAY121031AY221031GF106991011021008001041081MA1999999100801MD1810071+9999MW1021REMSYN072AAXX  15154 01467 41575 62109 10180 20170 30080 40086 58007 70222 81248;
0201014670999992000081518004+58630+009140FM-12+000799999V0202101N004612200019N0080001N1+01671+01611100811ADDAA112000791AY121061AY211061GF103991011021008001041081KA1999M+02111MA1999999100751MD1710051+9999MW1101REMSYN088AAXX  15184 01467 11558 32109 10167 20161 30075 40081 57005 69902 71021 81248 333 10211;
0161014670999992000081600004+58630+009140FM-12+000799999V0201801N002112200019N0300001N1+01551+01511100881ADDAY121061AY221061GF104991021051004501031021MA1999999100821MD1710201+9999MW1031REMSYN072AAXX  16004 01467 41480 41804 10155 20151 30082 40088 57020 70322 82532;
0161014670999992000081603004+58630+009140FM-12+000799999V0202701N003110300019N0300001N1+01401+01141100891ADDAY121031AY221031GF106991021041008001031021MA1999999100831MD1110011+9999MW1031REMSYN072AAXX  16034 01467 41580 62706 10140 20114 30083 40089 51001 70322 82432;
0214014670999992000081606004+58630+009140FM-12+000799999V0202201N002110300019N0300001N1+01401+01141100901ADDAA199000091AY121061AY221061GF106991021051008001041011KA1999N+01371MA1999999100841MD1210011+9999MW1021REMSYN082AAXX  16064 01467 31580 62204 10140 20114 30084 40090 52001 70222 82541 333 20137;EQDQ01  00002PRCP99
0161014670999992000081609004+58630+009140FM-12+000799999V0202301N002112200019N0300001N1+01721+01201100861ADDAY121031AY221031GF104991021051008001041021MA1999999100801MD1710041+9999MW1011REMSYN072AAXX  16094 01467 41580 42304 10172 20120 30080 40086 57004 70122 82542;
0173014670999992000081612004+58630+009140FM-12+000799999V0202301N006210300019N0300001N1+01721+01201100891ADDAY121061AY221061GF106991021061004501031021MA1999999100831MD1210031+9999MW1031REMSYN084AAXX  16124 01467 41480 62312 10172 20120 30083 40089 52003 70322 82632 222// 00168;
0161014670999992000081615004+58630+009140FM-12+000799999V0202201N004610300019N0280001N1+01581+01541100751ADDAY121031AY221031GF108991021021002501061021MA1999999100691MD1710141+9999MW1031REMSYN072AAXX  16154 01467 41378 82209 10158 20154 30069 40075 57014 70322 82262;
0201014670999992000081618004+58630+009140FM-12+000799999V0202201N004610300019N0280001N1+01481+01341100661ADDAA112001091AY181061AY251061GF107991021031002501061021KA1999M+01751MA1999999100601MD1710061+9999MW1151REMSYN088AAXX  16184 01467 11378 72209 10148 20134 30060 40066 57006 60012 71585 82362 333 10175;
0161014670999992000081700004+58630+009140FM-12+000799999V0202501N002112200019N0300001N1+01311+01251100691ADDAY181061AY211061GF101991011041008001041001MA1999999100631MD1510001+9999MW1011REMSYN072AAXX  17004 01467 41580 12504 10131 20125 30063 40069 55000 70181 81440;
0161014670999992000081703004+58630+009140FM-12+000799999V0202901N001012200019N0300001N1+01231+01171100641ADDAY101031AY201031GF102991011041008001041021MA1999999100581MD1710051+9999MW1031REMSYN072AAXX  17034 01467 41580 22902 10123 20117 30058 40064 57005 70300 81442;
0214014670999992000081706004+58630+009140FM-12+000799999V0202901N001012200019N0300001N1+01251+01211100631ADDAA199000091AY121061AY221061GF104991021021008001051061KA1999N+01101MA1999999100571MD1710011+9999MW1031REMSYN082AAXX  17064 01467 31580 42902 10125 20121 30057 40063 57001 70322 82256 333 20110;EQDQ01  00002PRCP99
0161014670999992000081709004+58630+009140FM-12+000799999V0202401N002110750019N0300001N1+01501+01321100731ADDAY111031AY201031GF105991011021008001041081MA1999999100671MD1310101+9999MW1031REMSYN072AAXX  17094 01467 41580 52404 10150 20132 30067 40073 53010 70310 81248;
0173014670999992000081712004+58630+009140FM-12+000799999V0202001N003110300019N0300001N1+01581+01261100701ADDAY111061AY201061GF106991011021008001041081MA1999999100641MD1810031+9999MW1031REMSYN084AAXX  17124 01467 41580 62006 10158 20126 30064 40070 58003 70310 81248 222// 00162;
0161014670999992000081715004+58630+009140FM-12+000799999V0202001N003110300019N0300001N1+01671+01361100661ADDAY121031AY221031GF107991021051008001071021MA1999999100601MD1710041+9999MW1031REMSYN072AAXX  17154 01467 41580 72006 10167 20136 30060 40066 57004 70322 82572;
0214014670999992000081718004+58630+009140FM-12+000799999V0202001N002110300019N0300001N1+01501+01341100571ADDAA199000091AY121061AY221061GF106991021091008001041021KA1999M+01671MA1999999100511MD1710091+9999MW1011REMSYN082AAXX  17184 01467 31580 62004 10150 20134 30051 40057 57009 70122 82942 333 10167;EQDQ01  00002PRCP99
0171014670999992000081800004+58630+009140FM-12+000799999V0202601N001012200019N0300001N1+01291+01251100631ADDAY121061AY211061GA1001+999999999GF100991001001999999001001MA1999999100571MD1210041+9999MW1011REMSYN066AAXX  18004 01467 41980 02602 10129 20125 30057 40063 52004 70121;
0161014670999992000081803004+58630+009140FM-12+000799999V0202601N002112200019N0300001N1+01201+01131100681ADDAY101031AY201031GF101991011041008001001001MA1999999100621MD1110051+9999MW1031REMSYN072AAXX  18034 01467 41580 12604 10120 20113 30062 40068 51005 70300 81400;
0214014670999992000081806004+58630+009140FM-12+000799999V0203601N002112200019N0300001N1+01241+01131100741ADDAA199000091AY101061AY201061GF101991011021008001041001KA1999N+01151MA1999999100681MD1310061+9999MW1021REMSYN082AAXX  18064 01467 31580 13604 10124 20113 30068 40074 53006 70200 81240 333 20115;EQDQ01  00002PRCP99
0161014670999992000081809004+58630+009140FM-12+000799999V0202601N003112200019N0400001N1+01591+01021100831ADDAY111031AY201031GF105991011021008001001081MA1999999100771MD1210091+9999MW1031REMSYN072AAXX  18094 01467 41582 52606 10159 20102 30077 40083 52009 70310 81208;
0161014670999992000081815004+58630+009140FM-12+000799999V0202001N006212200019N0400001N1+01641+00861100921ADDAY181031AY211031GF104991031091008001041001MA1999999100861MD1010051+9999MW1011REMSYN072AAXX  18154 01467 41582 42012 10164 20086 30086 40092 50005 70181 83940;
0201014670999992000081818004+58630+009140FM-12+000799999V0202301N002110300019N0400001N1+01481+01291100941ADDAA112000191AY181061AY211061GF106991031091008001041001KA1999M+01711MA1999999100881MD1310021+9999MW1031REMSYN088AAXX  18184 01467 41582 62304 10148 20129 30088 40094 53002 69922 70381 83940 333 10171;
0171014670999992000081900004+58630+009140FM-12+000799999V0202601N001012200019N0400001N1+01301+01231101071ADDAY111061AY201061GA1001+999999999GF100991001001999999001001MA1999999101011MD1210071+9999MW1011REMSYN066AAXX  19004 01467 41982 02602 10130 20123 30101 40107 52007 70110;
0171014670999992000081903004+58630+009140FM-12+000799999V0202601N001012200019N0400001N1+01151+01111101091ADDAY101031AY201031GA1001+999999999GF100991001001999999001001MA1999999101031MD1210021+9999MW1021REMSYN066AAXX  19034 01467 41982 02602 10115 20111 30103 40109 52002 70200;
0214014670999992000081906004+58630+009140FM-12+000799999V0202701N000512200019N0400001N1+01171+01061101181ADDAA199000091AY101061AY201061GF101991011021008001041001KA1999N+01081MA1999999101121MD1010091+9999MW1031REMSYN082AAXX  19064 01467 31582 12701 10117 20106 30112 40118 50009 70300 81240 333 20108;EQDQ01  00002PRCP99
0161014670999992000081909004+58630+009140FM-12+000799999V0201801N000512200019N0400001N1+01451+01101101221ADDAY101031AY201031GF101991011011004501001011MA1999999101161MD1210041+9999MW1021REMSYN072AAXX  19094 01467 41482 11801 10145 20110 30116 40122 52004 70200 81101;
0173014670999992000081912004+58630+009140FM-12+000799999V0201801N002112200019N0400001N1+01651+01231101211ADDAY101061AY201061GF103991011021008001031011MA1999999101151MD1810011+9999MW1031REMSYN084AAXX  19124 01467 41582 31804 10165 20123 30115 40121 58001 70300 81231 222// 00160;
0161014670999992000081915004+58630+009140FM-12+000799999V0201801N002110300019N0300001N1+01601+01321101181ADDAY161031AY211031GF108991031071008001021999MA1999999101121MD1710031+9999MW1611REMSYN072AAXX  19154 01467 41580 81804 10160 20132 30112 40118 57003 76161 8372/;
0201014670999992000081918004+58630+009140FM-12+000799999V0201001N001010300019N0300001N1+01541+01291101041ADDAA112000191AY161061AY211061GF108991011091008001071999KA1999M+01651MA1999999100981MD1710141+9999MW1021REMSYN088AAXX  19184 01467 11580 81002 10154 20129 30098 40104 57014 69912 70261 8197/ 333 10165;
0161014670999992000082000004+58630+009140FM-12+000799999V0201201N002110042019N0100001N1+01541+01481100641ADDAY161061AY221061GF108991051071004501021999MA1999999100581MD1710211+9999MW1631REMSYN072AAXX  20004 01467 41460 81204 10154 20148 30058 40064 57021 76362 8572/;
0139014670999992000082003004+58630+009140FM-12+000799999V0201801N004619999999N0150001N1+01601+01521100451ADDGF107991999999004501999999MA1999999100391MD1710191+9999REMSYN072AAXX  20034 01467 41465 71809 10160 20152 30039 40045 57019 91386 8947/;
0201014670999992000082006004+58630+009140FM-12+000799999V0201901N004610300019N0300001N1+01521+01161100341ADDAA112015091AY181061AY261061GF107991041091004501071999KA1999N+01441MA1999999100281MD1710111+9999MW1021REMSYN088AAXX  20064 01467 11480 71909 10152 20116 30028 40034 57011 60152 70286 8497/ 333 20144;
0161014670999992000082009004+58630+009140FM-12+000799999V0201801N004610042019N0150001N1+01551+01471100241ADDAY181031AY221031GF107991051091004501041001MA1999999100181MD1710101+9999MW1021REMSYN072AAXX  20094 01467 41465 71809 10155 20147 30018 40024 57010 70282 85940;
0173014670999992000082012004+58630+009140FM-12+000799999V0202101N006210042019N0150001N1+01621+01401100191ADDAY181061AY221061GF107991051091004501041999MA1999999100131MD1610051+9999MW1801REMSYN084AAXX  20124 01467 41465 72112 10162 20140 30013 40019 56005 78082 8594/ 222// 00165;
0161014670999992000082015004+58630+009140FM-12+000799999V0202701N003110300019N0300001N1+01911+01121100211ADDAY181031AY221031GF106991021091008001041011MA1999999100151MD1310021+9999MW1011REMSYN072AAXX  20154 01467 41580 62706 10191 20112 30015 40021 53002 70182 82941;
0201014670999992000082018004+58630+009140FM-12+000799999V0202701N003110300019N0300001N1+01861+00921100381ADDAA112000191AY181061AY221061GF106991011091008001041001KA1999M+01921MA1999999100321MD1210171+9999MW1021REMSYN088AAXX  20184 01467 11580 62706 10186 20092 30032 40038 52017 69912 70282 81940 333 10192;
0161014670999992000082100004+58630+009140FM-12+000799999V0202801N002112200019N0400001N1+01421+00791100631ADDAY121061AY211061GF101991011001022501041001MA1999999100571MD1210131+9999MW1011REMSYN072AAXX  21004 01467 41882 12804 10142 20079 30057 40063 52013 70121 81040;
0161014670999992000082103004+58630+009140FM-12+000799999V0203001N003112200019N0400001N1+01281+00871100641ADDAY111031AY201031GF104991041001022501071001MA1999999100581MD1010011+9999MW1031REMSYN072AAXX  21034 01467 41882 43006 10128 20087 30058 40064 50001 70310 84070;
0214014670999992000082106004+58630+009140FM-12+000799999V0203001N001012200019N0400001N1+01301+00811100691ADDAA199000091AY111061AY201061GF101991011001022501031001KA1999N+01211MA1999999100631MD1310051+9999MW1011REMSYN082AAXX  21064 01467 31882 13002 10130 20081 30063 40069 53005 70110 81030 333 20121;EQDQ01  00002PRCP99
0161014670999992000082109004+58630+009140FM-12+000799999V0203301N001012200019N0500001N1+01711+00741100771ADDAY101031AY201031GF101991011011008001001001MA1999999100711MD1210081+9999MW1021REMSYN072AAXX  21094 01467 41584 13302 10171 20074 30071 40077 52008 70200 81100;
0173014670999992000082112004+58630+009140FM-12+000799999V0201801N003112200019N0500001N1+01791+01201100751ADDAY101061AY201061GF101991011021008001001001MA1999999100691MD1810021+9999MW1021REMSYN084AAXX  21124 01467 41584 11806 10179 20120 30069 40075 58002 70200 81200 222// 00168;
0161014670999992000082115004+58630+009140FM-12+000799999V0202401N003112200019N0500001N1+02051+00561100741ADDAY101031AY201031GF101991011021008001001001MA1999999100681MD1710011+9999MW1021REMSYN072AAXX  21154 01467 41584 12406 10205 20056 30068 40074 57001 70200 81200;
0214014670999992000082118004+58630+009140FM-12+000799999V0203001N002112200019N0300001N1+01951+00561100861ADDAA199000091AY101061AY201061GF101991011021008001041011KA1999M+02071MA1999999100801MD1310121+9999MW1021REMSYN082AAXX  21184 01467 31580 13004 10195 20056 30080 40086 53012 70200 81241 333 10207;EQDQ01  00002PRCP99
0161014670999992000082200004+58630+009140FM-12+000799999V0203601N002112200019N0500001N1+01421+00731101101ADDAY101061AY201061GF101991011001012501041001MA1999999101041MD1210101+9999MW1021REMSYN072AAXX  22004 01467 41684 13604 10142 20073 30104 40110 52010 70200 81040;
0161014670999992000082203004+58630+009140FM-12+000799999V0203301N002110210019N0500001N1+01341+00751101201ADDAY111031AY201031GF105991051001022501031001MA1999999101141MD1210101+9999MW1031REMSYN072AAXX  22034 01467 41884 53304 10134 20075 30114 40120 52010 70310 85030;
0214014670999992000082206004+58630+009140FM-12+000799999V0203601N002110300019N0500001N1+01361+00801101331ADDAA199000091AY111061AY201061GF107991011021008001041001KA1999N+01291MA1999999101271MD1210131+9999MW1031REMSYN082AAXX  22064 01467 31584 73604 10136 20080 30127 40133 52013 70310 81240 333 20129;EQDQ01  00002PRCP99
0161014670999992000082209004+58630+009140FM-12+000799999V0200601N002112200019N0500001N1+01611+00921101431ADDAY111031AY201031GF104991011091008001041081MA1999999101371MD1210101+9999MW1011REMSYN072AAXX  22094 01467 41584 40604 10161 20092 30137 40143 52010 70110 81948;
0173014670999992000082212004+58630+009140FM-12+000799999V0201801N001010300019N0500001N1+01601+01001101511ADDAY181061AY211061GF105991041091004501041001MA1999999101451MD1210081+9999MW1251REMSYN084AAXX  22124 01467 41484 51802 10160 20100 30145 40151 52008 72581 84940 222// 00172;
0161014670999992000082215004+58630+009140FM-12+000799999V0202401N002110300019N0500001N1+01621+01201101551ADDAY181031AY221031GF105991041091004501041001MA1999999101491MD1110041+9999MW1251REMSYN072AAXX  22154 01467 41484 52404 10162 20120 30149 40155 51004 72582 84940;
0201014670999992000082218004+58630+009140FM-12+000799999V0203201N001012200019N0500001N1+01691+01081101551ADDAA112000191AY181061AY211061GF102991011091004501041001KA1999M+01701MA1999999101491MD1410001+9999MW1011REMSYN088AAXX  22184 01467 41484 23202 10169 20108 30149 40155 54000 69912 70181 81940 333 10170;
0171014670999992000082300004+58630+009140FM-12+000799999V0203301N001012200019N0500001N1+01221+00901101681ADDAY101061AY201061GA1001+999999999GF100991001001999999001001MA1999999101621MD1210071+9999MW1011REMSYN066AAXX  23004 01467 41984 03302 10122 20090 30162 40168 52007 70100;
0171014670999992000082303004+58630+009140FM-12+000799999V0203301N003112200019N0500001N1+01201+00731101711ADDAY101031AY201031GA1001+999999999GF100991001001999999001001MA1999999101651MD1210031+9999MW1021REMSYN066AAXX  23034 01467 41984 03306 10120 20073 30165 40171 52003 70200;
0214014670999992000082306004+58630+009140FM-12+000799999V0203301N002112200019N0500001N1+01211+00621101831ADDAA199000091AY101061AY201061GF101991011001017501031011KA1999N+01181MA1999999101771MD1210121+9999MW1021REMSYN082AAXX  23064 01467 31784 13304 10121 20062 30177 40183 52012 70200 81031 333 20118;EQDQ01  00002PRCP99
0173014670999992000082312004+58630+009140FM-12+000799999V0201801N002112200019N0600001N1+01631+00531101901ADDAY101061AY201061GF101991011011008001001021MA1999999101841MD1010001+9999MW1021REMSYN084AAXX  23124 01467 41586 11804 10163 20053 30184 40190 50000 70200 81102 222// 00172;
0161014670999992000082315004+58630+009140FM-12+000799999V0201801N004610750019N0600001N1+01661+00931101761ADDAY111031AY201031GF105991011041008001031021MA1999999101701MD1710141+9999MW1031REMSYN072AAXX  23154 01467 41586 51809 10166 20093 30170 40176 57014 70310 81432;
0214014670999992000082318004+58630+009140FM-12+000799999V0203001N002110300019N0500001N1+01731+00621101701ADDAA199000091AY111061AY201061GF107991011041008001071999KA1999M+01741MA1999999101641MD1610061+9999MW1031REMSYN082AAXX  23184 01467 31584 73004 10173 20062 30164 40170 56006 70310 8147/ 333 10174;EQDQ01  00002PRCP99
0165014670999992000082400004+58630+009140FM-12+000799999V0202701N003110300019N0300001N1+01321+00941101641ADDAY181061AY221061GF108991041071004501021999MD1610051+9999MW1251REMSYN072AAXX  24004 01467 41480 82706 10132 20094 3158/ 40164 56005 72582 8472/;EQDQ01+015801APOSP 
0161014670999992000082403004+58630+009140FM-12+000799999V0202501N003110300019N0120001N1+01271+01031101451ADDAY181031AY261031GF108991041071004501021999MA1999999101391MD1710191+9999MW1611REMSYN072AAXX  24034 01467 41462 82506 10127 20103 30139 40145 57019 76186 8472/;
0201014670999992000082406004+58630+009140FM-12+000799999V0202501N003110300019N0120001N1+01171+01131101271ADDAA112004191AY181061AY261061GF108991041071004501021999KA1999N+01171MA1999999101211MD1710181+9999MW1611REMSYN088AAXX  24064 01467 11462 82506 10117 20113 30121 40127 57018 60042 76186 8472/ 333 20117;
0161014670999992000082409004+58630+009140FM-12+000799999V0202701N002110300019N0120001N1+01191+01101101081ADDAY161031AY221031GF108991041071004501021999MA1999999101021MD1710111+9999MW1601REMSYN072AAXX  24094 01467 41462 82704 10119 20110 30102 40108 57011 76062 8472/;
0173014670999992000082412004+58630+009140FM-12+000799999V0201801N002110300019N0080001N1+01281+01211100951ADDAY181061AY261061GF108991041071004501021999MA1999999100891MD1710131+9999MW1611REMSYN084AAXX  24124 01467 41458 81804 10128 20121 30089 40095 57013 76186 8472/ 222// 00162;
0161014670999992000082415004+58630+009140FM-12+000799999V0202701N000512200019N0500001N1+01511+00211100951ADDAY161031AY211031GF103991021051004501031011MA1999999100891MD1410001+9999MW1011REMSYN072AAXX  24154 01467 41484 32701 10151 20021 30089 40095 54000 70161 82531;
0201014670999992000082418004+58630+009140FM-12+000799999V0201801N001012200019N0500001N1+01581+01322101041ADDAA112009991AY161061AY211061GF101991011051008001001001KA1999M+01581MA1999999100981MD1210091+9999MW1011REMSYN088AAXX  24184 01467 11584 11802 10158 20132 30098 40104 52009 60102 70161 81500 333 10158;
0171014670999992000082500004+58630+009140FM-12+000799999V0202701N000512200019N0500001N1+01321+01261101561ADDAY101061AY201061GA1001+999999999GF100991001001999999001001MA1999999101501MD1210251+9999MW1011REMSYN066AAXX  25004 01467 41984 02701 10132 20126 30150 40156 52025 70100;
0161014670999992000082503004+58630+009140FM-12+000799999V0203001N002112200019N0500001N1+01301+00831101641ADDAY101031AY201031GF101991011001017501041011MA1999999101581MD1210081+9999MW1031REMSYN072AAXX  25034 01467 41784 13004 10130 20083 30158 40164 52008 70300 81041;
0230014670999992000082506004+58630+009140FM-12+000799999V0200201N001012200019N0500001N1+01231+00821101771ADDAA199000091AY101061AY201061GF101991001001999999001011KA1999N+99999MA1999999101711MD1210131+9999MW1021REMSYN082AAXX  25064 01467 31984 10202 10123 20082 30171 40177 52013 70200 80001 333 20158;EQDQ01  00002PRCP99Q02 +01582ATMN  
0161014670999992000082509004+58630+009140FM-12+000799999V0200901N001012200019N0500001N1+01691+00931101941ADDAY101031AY201031GF102991001001999999001011MA1999999101881MD1210171+9999MW1031REMSYN072AAXX  25094 01467 41984 20902 10169 20093 30188 40194 52017 70300 80001;
0173014670999992000082512004+58630+009140FM-12+000799999V0201501N001012200019N0500001N1+01721+01231102011ADDAY101061AY201061GF103991011011008001001081MA1999999101951MD1110071+9999MW1031REMSYN084AAXX  25124 01467 41584 31502 10172 20123 30195 40201 51007 70300 81108 222// 00166;
0161014670999992000082515004+58630+009140FM-12+000799999V0201801N001012200019N0500001N1+01721+01261102001ADDAY101031AY201031GF103991011001017501031081MA1999999101941MD1710011+9999MW1021REMSYN072AAXX  25154 01467 41784 31802 10172 20126 30194 40200 57001 70200 81038;
0214014670999992000082518004+58630+009140FM-12+000799999V0202401N002112200019N0500001N1+01681+01421102001ADDAA199000091AY111061AY201061GF104991011011008001041021KA1999M+01721MA1999999101941MD1410001+9999MW1021REMSYN082AAXX  25184 01467 31584 42404 10168 20142 30194 40200 54000 70210 81142 333 10172;EQDQ01  00002PRCP99
0171014670999992000082600004+58630+009140FM-12+000799999V0209999C000012200019N0600001N1+01441+01401102061ADDAY111061AY201061GA1001+999999999GF100991001001999999001001MA1999999102001MD1010041+9999MW1011REMSYN066AAXX  26004 01467 41986 00000 10144 20140 30200 40206 50004 70110;
0161014670999992000082603004+58630+009140FM-12+000799999V0209999C000012200019N0500001N1+01351+01311102101ADDAY101031AY201031GF102991011001012501041011MA1999999102041MD1210041+9999MW1031REMSYN072AAXX  26034 01467 41684 20000 10135 20131 30204 40210 52004 70300 81041;
0214014670999992000082606004+58630+009140FM-12+000799999V0203501N000512200019N0020001N1+01251+01221102121ADDAA199000091AY101061AY201061GF102991011011008001031011KA1999N+01181MA1999999102061MD1210021+9999MW1111REMSYN082AAXX  26064 01467 31520 23501 10125 20122 30206 40212 52002 71100 81131 333 20118;EQDQ01  00002PRCP99
0161014670999992000082609004+58630+009140FM-12+000799999V0200601N000512200019N0100001N1+01521+01461102241ADDAY121031AY211031GF104991031061004501001011MA1999999102181MD1210121+9999MW1011REMSYN072AAXX  26094 01467 41460 40601 10152 20146 30218 40224 52012 70121 83601;
0173014670999992000082612004+58630+009140FM-12+000799999V0200901N000512200019N0300001N1+01701+01411102251ADDAY121061AY211061GF104991031081008001001011MA1999999102191MD1310011+9999MW1021REMSYN084AAXX  26124 01467 41580 40901 10170 20141 30219 40225 53001 70221 83801 222// 00171;
0161014670999992000082615004+58630+009140FM-12+000799999V0200901N001012200019N0300001N1+01721+01391102171ADDAY121031AY201031GF101991011021008001001081MA1999999102111MD1710081+9999MW1011REMSYN072AAXX  26154 01467 41580 10902 10172 20139 30211 40217 57008 70120 81208;
0186014670999992000082618004+58630+009140FM-12+000799999V0200901N001012200019N0200001N1+01721+01571102061ADDAA199000091GF101991011041008001001081KA1999M+01721MA1999999102001MD1610111+9999REMSYN076AAXX  26184 01467 31570 10902 10172 20157 30200 40206 56011 81408 333 10172;EQDQ01  00002PRCP99
0161014670999992000082700004+58630+009140FM-12+000799999V0201201N003110300019N0150001N1+01701+01441102011ADDAY121061AY201061GF107991041071004501021999MA1999999101951MD1610021+9999MW1031REMSYN072AAXX  27004 01467 41465 71206 10170 20144 30195 40201 56002 70320 8472/;
0161014670999992000082703004+58630+009140FM-12+000799999V0201201N004610750019N0300001N1+01581+01541101881ADDAY121031AY221031GF105991021051004501001031MA1999999101821MD1710131+9999MW1011REMSYN072AAXX  27034 01467 41480 51209 10158 20154 30182 40188 57013 70122 82503;
0214014670999992000082706004+58630+009140FM-12+000799999V0201601N006210021019N0300001N1+01561+01461101841ADDAA199000091AY121061AY221061GF107991061061002501051999KA1999N+01541MA1999999101781MD1610041+9999MW1031REMSYN082AAXX  27064 01467 31380 71612 10156 20146 30178 40184 56004 70322 8665/ 333 20154;EQDQ01  00002PRCP99
0161014670999992000082709004+58630+009140FM-12+000799999V0201601N006212200019N0200001N1+01621+01541101871ADDAY121031AY211031GF105991021061002501001081MA1999999101811MD1210031+9999MW1011REMSYN072AAXX  27094 01467 41370 51612 10162 20154 30181 40187 52003 70121 82608;
0173014670999992000082712004+58630+009140FM-12+000799999V0201601N006212200019N0200001N1+01701+01551101871ADDAY121061AY211061GF104991011061002501001081MA1999999101811MD1410001+9999MW1011REMSYN084AAXX  27124 01467 41370 41612 10170 20155 30181 40187 54000 70121 81608 222// 00172;
0161014670999992000082715004+58630+009140FM-12+000799999V0201201N004612200019N0150001N1+01781+01561101841ADDAY121031AY211031GF103991011051004501031011MA1999999101781MD1310031+9999MW1011REMSYN072AAXX  27154 01467 41465 31209 10178 20156 30178 40184 53003 70121 81531;
0214014670999992000082718004+58630+009140FM-12+000799999V0201201N004610750019N0150001N1+01791+01421101761ADDAA199000091AY121061AY211061GF106991011051004501031041KA1999M+01791MA1999999101701MD1610081+9999MW1031REMSYN082AAXX  27184 01467 31465 61209 10179 20142 30170 40176 56008 70321 81534 333 10179;EQDQ01  00002PRCP99
0161014670999992000082800004+58630+009140FM-12+000799999V0201601N004610300019N0150001N1+01701+01531101801ADDAY121061AY221061GF108991041071004501021999MA1999999101741MD1410001+9999MW1021REMSYN072AAXX  28004 01467 41465 81609 10170 20153 30174 40180 54000 70222 8472/;
0161014670999992000082803004+58630+009140FM-12+000799999V0201201N003110300019N0150001N1+01621+01541101771ADDAY121031AY221031GF106991031061004501071999MA1999999101711MD1710031+9999MW1011REMSYN072AAXX  28034 01467 41465 61206 10162 20154 30171 40177 57003 70122 8367/;
0214014670999992000082806004+58630+009140FM-12+000799999V0200901N002110300019N0150001N1+01641+01541101771ADDAA199000091AY121061AY221061GF107991021061002501031999KA1999N+01601MA1999999101711MD1410001+9999MW1031REMSYN082AAXX  28064 01467 31365 70904 10164 20154 30171 40177 54000 70322 8263/ 333 20160;EQDQ01  00002PRCP99
0161014670999992000082809004+58630+009140FM-12+000799999V0200901N002110042019N0200001N1+01641+01481101871ADDAY121031AY221031GF107991051071004501021999MA1999999101811MD1210101+9999MW1021REMSYN072AAXX  28094 01467 41470 70904 10164 20148 30181 40187 52010 70222 8572/;
0173014670999992000082812004+58630+009140FM-12+000799999V0200901N003110042019N0150001N1+01691+01401101861ADDAY121061AY221061GF108991051091004501081999MA1999999101801MD1710011+9999MW1031REMSYN084AAXX  28124 01467 41465 80906 10169 20140 30180 40186 57001 70322 8598/ 222// 00170;
0161014670999992000082815004+58630+009140FM-12+000799999V0200901N002110300019N0150001N1+01741+01521101751ADDAY161031AY221031GF108991041071004501021999MA1999999101691MD1710111+9999MW1251REMSYN072AAXX  28154 01467 41465 80904 10174 20152 30169 40175 57011 72562 8472/;
0201014670999992000082818004+58630+009140FM-12+000799999V0200901N001010300019N0200001N1+01721+01611101641ADDAA112000191AY161061AY221061GF108991041071004501021999KA1999M+01741MA1999999101581MD1710111+9999MW1021REMSYN088AAXX  28184 01467 11470 80902 10172 20161 30158 40164 57011 69912 70262 8472/ 333 10174;
0161014670999992000082900004+58630+009140FM-12+000799999V0201101N002110021019N0150001N1+01661+01621101611ADDAY181061AY221061GF108991081071002501999999MA1999999101551MD1810021+9999MW1801REMSYN072AAXX  29004 01467 41365 81104 10166 20162 30155 40161 58002 78082 887//;
0161014670999992000082903004+58630+009140FM-12+000799999V0200901N002110021019N0250001N1+01561+01501101521ADDAY181031AY221031GF108991081071002501999999MA1999999101461MD1710091+9999MW1801REMSYN072AAXX  29034 01467 41375 80904 10156 20150 30146 40152 57009 78082 887//;
0201014670999992000082906004+58630+009140FM-12+000799999V0201801N002110300019N0300001N1+01591+01461101461ADDAA112002091AY181061AY221061GF108991041091002501021999KA1999N+01541MA1999999101401MD1710061+9999MW1021REMSYN088AAXX  29064 01467 11380 81804 10159 20146 30140 40146 57006 60022 70282 8492/ 333 20154;
0161014670999992000082909004+58630+009140FM-12+000799999V0202301N001010750019N0300001N1+01601+01491101511ADDAY121031AY211031GF105991011061002501071031MA1999999101451MD1210051+9999MW1011REMSYN072AAXX  29094 01467 41380 52302 10160 20149 30145 40151 52005 70121 81673;
0173014670999992000082912004+58630+009140FM-12+000799999V0202301N002110300019N0300001N1+01641+01541101491ADDAY181061AY211061GF106991011061002501071021MA1999999101431MD1610021+9999MW1021REMSYN084AAXX  29124 01467 41380 62304 10164 20154 30143 40149 56002 70281 81672 222// 00171;
0161014670999992000082915004+58630+009140FM-12+000799999V0202101N003112200019N0400001N1+01641+01351101451ADDAY121031AY201031GF104991021021004501031011MA1999999101391MD1610041+9999MW1011REMSYN072AAXX  29154 01467 41482 42106 10164 20135 30139 40145 56004 70120 82231;
0201014670999992000082918004+58630+009140FM-12+000799999V0202301N003112200019N0400001N1+01581+01471101381ADDAA112000191AY121061AY211061GF105991011091002501071091KA1999M+01701MA1999999101321MD1710071+9999MW1031REMSYN088AAXX  29184 01467 11382 52306 10158 20147 30132 40138 57007 69912 70321 81979 333 10170;
0171014670999992000083000004+58630+009140FM-12+000799999V0202101N003112200019N0200001N1+01491+01331101341ADDAY121061AY201061GA1001+999999999GF100991001001999999001001MA1999999101281MD1710021+9999MW1011REMSYN066AAXX  30004 01467 41970 02106 10149 20133 30128 40134 57002 70120;
0161014670999992000083003004+58630+009140FM-12+000799999V0202301N001010300019N0150001N1+01361+01321101241ADDAY121031AY211031GF106991031061002501031091MA1999999101181MD1710101+9999MW1031REMSYN072AAXX  30034 01467 41365 62302 10136 20132 30118 40124 57010 70321 83639;
0214014670999992000083006004+58630+009140FM-12+000799999V0202301N000510750019N0300001N1+01301+01191101201ADDAA199000091AY121061AY211061GF105991021021002501031031KA1999N+01301MA1999999101141MD1610041+9999MW1021REMSYN082AAXX  30064 01467 31380 52301 10130 20119 30114 40120 56004 70221 82233 333 20130;EQDQ01  00002PRCP99
0161014670999992000083009004+58630+009140FM-12+000799999V0202501N000510750019N0300001N1+01481+01231101191ADDAY121031AY211031GF105991021021002501031021MA1999999101131MD1810011+9999MW1021REMSYN072AAXX  30094 01467 41380 52501 10148 20123 30113 40119 58001 70221 82232;
0173014670999992000083012004+58630+009140FM-12+000799999V0201701N000510750019N0300001N1+01651+01291101171ADDAY121061AY211061GF105991021031004501031021MA1999999101111MD1710021+9999MW1021REMSYN084AAXX  30124 01467 41480 51701 10165 20129 30111 40117 57002 70221 82332 222// 00170;
0161014670999992000083015004+58630+009140FM-12+000799999V0201701N000512200019N0400001N1+01671+01171101101ADDAY121031AY211031GF103991011021004501081031MA1999999101041MD1710071+9999MW1011REMSYN072AAXX  30154 01467 41482 31701 10167 20117 30104 40110 57007 70121 81283;
0214014670999992000083018004+58630+009140FM-12+000799999V0201501N000512200019N0400001N1+01621+01201101081ADDAA199000091AY121061AY201061GF102991011021004501061031KA1999M+01671MA1999999101021MD1710021+9999MW1011REMSYN082AAXX  30184 01467 31482 21501 10162 20120 30102 40108 57002 70120 81263 333 10167;EQDQ01  00002PRCP99
0171014670999992000083100004+58630+009140FM-12+000799999V0203301N000512200019N0400001N1+01301+01261101121ADDAY101061AY201061GA1001+999999999GF100991001001999999001001MA1999999101061MD1810011+9999MW1021REMSYN066AAXX  31004 01467 41982 03301 10130 20126 30106 40112 58001 70200;
0180014670999992000083103004+58630+009140FM-12+000799999V0203301N001010042019N0300001N1+01221+01181101061ADDAY121031AY201031GF107991999061004501001001MA1999999100991MD1710071+9999MW1031REMSYN072AAXX  31034 01467 41480 73302 10122 20118 30099 40106 57007 70320 86600;EQDQ01+000062SCOTLC
0214014670999992000083106004+58630+009140FM-12+000799999V0203301N001010042019N0400001N1+01291+01251101061ADDAA199000091AY121061AY221061GF107991051071004501021999KA1999N+01201MA1999999101001MD1810011+9999MW1021REMSYN082AAXX  31064 01467 31482 73302 10129 20125 30100 40106 58001 70222 8572/ 333 20120;EQDQ01  00002PRCP99
0161014670999992000083109004+58630+009140FM-12+000799999V0200901N000512200019N0400001N1+01541+01341101121ADDAY121031AY211031GF104991031021008001031011MA1999999101061MD1310061+9999MW1011REMSYN072AAXX  31094 01467 41582 40901 10154 20134 30106 40112 53006 70121 83231;
0173014670999992000083112004+58630+009140FM-12+000799999V0201001N001010300019N0400001N1+01561+01311101071ADDAY121061AY211061GF106991031081004501071011MA1999999101011MD1810051+9999MW1031REMSYN084AAXX  31124 01467 41482 61002 10156 20131 30101 40107 58005 70321 83871 222// 00172;
0161014670999992000083115004+58630+009140FM-12+000799999V0201001N001010300019N0400001N1+01601+01311101051ADDAY121031AY221031GF107991021081004501071021MA1999999100991MD1610021+9999MW1021REMSYN072AAXX  31154 01467 41482 71002 10160 20131 30099 40105 56002 70222 82872;
0214014670999992000083118004+58630+009140FM-12+000799999V0202101N000510300019N0400001N1+01601+01381100961ADDAA199000091AY121061AY221061GF106991031041008001081091KA1999M+01601MA1999999100901MD1810091+9999MW1021REMSYN082AAXX  31184 01467 31582 62101 10160 20138 30090 40096 58009 70222 83489 333 10160;EQDQ01  00002PRCP99
0171014670999992000090100004+58630+009140FM-12+000799999V0203301N000512200019N0500001N1+01221+01161100921ADDAY121061AY201061GA1001+999999999GF100991001001999999001001MA1999999100861MD1410001+9999MW1011REMSYN066AAXX  01004 01467 41984 03301 10122 20116 30086 40092 54000 70120;
0161014670999992000090103004+58630+009140FM-12+000799999V0209999C000012200019N0300001N1+01241+01201100861ADDAY111031AY201031GF103991021081004501041091MA1999999100801MD1710061+9999MW1031REMSYN072AAXX  01034 01467 41480 30000 10124 20120 30080 40086 57006 70310 82849;
0214014670999992000090106004+58630+009140FM-12+000799999V0203601N000512200019N0400001N1+01121+01081100831ADDAA199000091AY111061AY201061GF103991011081004501031091KA1999N+01101MA1999999100771MD1610031+9999MW1021REMSYN082AAXX  01064 01467 31482 33601 10112 20108 30077 40083 56003 70210 81839 333 20110;EQDQ01  00002PRCP99
0161014670999992000090109004+58630+009140FM-12+000799999V0201801N001010300019N0300001N1+01441+00971100831ADDAY121031AY201031GF106991041071004501031091MA1999999100771MD1410001+9999MW1031REMSYN072AAXX  01094 01467 41480 61802 10144 20097 30077 40083 54000 70320 84739;
0173014670999992000090112004+58630+009140FM-12+000799999V0201901N000510042019N0300001N1+01481+00861100821ADDAY121061AY201061GF107991051071004501021999MA1999999100761MD1710011+9999MW1031REMSYN084AAXX  01124 01467 41480 71901 10148 20086 30076 40082 57001 70320 8572/ 222// 00162;
0161014670999992000090115004+58630+009140FM-12+000799999V0209999C000010300019N0300001N1+01501+00971100741ADDAY121031AY211031GF107991041071004501021999MA1999999100681MD1610081+9999MW1021REMSYN072AAXX  01154 01467 41480 70000 10150 20097 30068 40074 56008 70221 8472/;
0214014670999992000090118004+58630+009140FM-12+000799999V0209999C000010750019N0400001N1+01521+00971100611ADDAA199000091AY121061AY211061GF105991011071004501021031KA1999M+01521MA1999999100551MD1710131+9999MW1011REMSYN082AAXX  01184 01467 31482 50000 10152 20097 30055 40061 57013 70121 81723 333 10152;EQDQ01  00002PRCP99
0161014670999992000090200004+58630+009140FM-12+000799999V0209999C000012200019N0200001N1+01201+01111100451ADDAY121061AY201061GF103991011061002501031011MA1999999100391MD1710101+9999MW1011REMSYN072AAXX  02004 01467 41370 30000 10120 20111 30039 40045 57010 70120 81631;
0161014670999992000090203004+58630+009140FM-12+000799999V0203301N000512200019N0200001N1+01101+01061100341ADDAY111031AY201031GF103991031001017501041011MA1999999100281MD1710111+9999MW1021REMSYN072AAXX  02034 01467 41770 33301 10110 20106 30028 40034 57011 70210 83041;
0214014670999992000090206004+58630+009140FM-12+000799999V0203301N001012200019N0300001N1+01081+01011100271ADDAA199000091AY121061AY201061GF105991021041008001041091KA1999N+01081MA1999999100211MD1710071+9999MW1031REMSYN082AAXX  02064 01467 31580 53302 10108 20101 30021 40027 57007 70320 82449 333 20108;EQDQ01  00002PRCP99
0161014670999992000090209004+58630+009140FM-12+000799999V0203601N001012200019N0300001N1+01461+01081100271ADDAY121031AY211031GF105991021041008001031091MA1999999100211MD1410001+9999MW1021REMSYN072AAXX  02094 01467 41580 53602 10146 20108 30021 40027 54000 70221 82439;
0173014670999992000090212004+58630+009140FM-12+000799999V0200901N001010750019N0300001N1+01701+01151100271ADDAY121061AY221061GF105991021071004501021031MA1999999100211MD1410001+9999MW1021REMSYN084AAXX  02124 01467 41480 50902 10170 20115 30021 40027 54000 70222 82723 222// 00165;
0161014670999992000090215004+58630+009140FM-12+000799999V0200401N001010300019N0300001N1+01801+01211100271ADDAY121031AY211031GF107991031091002501021021MA1999999100211MD1410001+9999MW1031REMSYN072AAXX  02154 01467 41380 70402 10180 20121 30021 40027 54000 70321 83922;
0214014670999992000090218004+58630+009140FM-12+000799999V0200301N002110750019N0300001N1+01621+00971100431ADDAA199000091AY121061AY211061GF105991021071002501041021KA1999M+01801MA1999999100371MD1110161+9999MW1011REMSYN082AAXX  02184 01467 31380 50304 10162 20097 30037 40043 51016 70121 82742 333 10180;EQDQ01  00002PRCP99
0171014670999992000090300004+58630+009140FM-12+000799999V0203601N002112200019N0400001N1+01301+00591100731ADDAY121061AY201061GA1001+999999999GF100991001001999999001001MA1999999100671MD1110051+9999MW1011REMSYN066AAXX  03004 01467 41982 03604 10130 20059 30067 40073 51005 70120;
0171014670999992000090303004+58630+009140FM-12+000799999V0203601N004612200019N0400001N1+01121+00411100831ADDAY101031AY201031GA1001+999999999GF100991001001999999001001MA1999999100771MD1210101+9999MW1021REMSYN066AAXX  03034 01467 41982 03609 10112 20041 30077 40083 52010 70200;
0214014670999992000090306004+58630+009140FM-12+000799999V0203601N004612200019N0400001N1+01041+00341101011ADDAA199000091AY101061AY201061GF101991011001022501031011KA1999N+01041MA1999999100951MD1210181+9999MW1021REMSYN082AAXX  03064 01467 31882 13609 10104 20034 30095 40101 52018 70200 81031 333 20104;EQDQ01  00002PRCP99
0161014670999992000090309004+58630+009140FM-12+000799999V0203601N004612200019N0400001N1+01261+00261101111ADDAY101031AY201031GF101991011001022501031011MA1999999101051MD1210101+9999MW1021REMSYN072AAXX  03094 01467 41882 13609 10126 20026 30105 40111 52010 70200 81031;
0173014670999992000090312004+58630+009140FM-12+000799999V0203601N002112200019N0400001N1+01601-00071101161ADDAY101061AY201061GF101991011011008001001011MA1999999101101MD1110051+9999MW1021REMSYN084AAXX  03124 01467 41582 13604 10160 21007 30110 40116 51005 70200 81101 222// 00168;
0161014670999992000090315004+58630+009140FM-12+000799999V0203301N002112200019N0400001N1+01681-00231101221ADDAY101031AY201031GF101991011011008001001021MA1999999101161MD1310061+9999MW1021REMSYN072AAXX  03154 01467 41582 13304 10168 21023 30116 40122 53006 70200 81102;
0214014670999992000090318004+58630+009140FM-12+000799999V0200301N001012200019N0400001N1+01601-00071101291ADDAA199000091AY101061AY201061GF101991011011008001001011KA1999M+01681MA1999999101231MD1210071+9999MW1021REMSYN082AAXX  03184 01467 31582 10302 10160 21007 30123 40129 52007 70200 81101 333 10168;EQDQ01  00002PRCP99
0171014670999992000090400004+58630+009140FM-12+000799999V0203601N001012200019N0400001N1+01061+00221101621ADDAY101061AY201061GA1001+999999999GF100991001001999999001001MA1999999101561MD1210161+9999MW1021REMSYN066AAXX  04004 01467 41982 03602 10106 20022 30156 40162 52016 70200;
0171014670999992000090403004+58630+009140FM-12+000799999V0203001N001012200019N0400001N1+01021+00321101731ADDAY101031AY201031GA1001+999999999GF100991001001999999001001MA1999999101671MD1210091+9999MW1021REMSYN066AAXX  04034 01467 41982 03002 10102 20032 30167 40173 52009 70200;
0214014670999992000090406004+58630+009140FM-12+000799999V0203601N001012200019N0400001N1+00941+00191101811ADDAA199000091AY111061AY201061GF104991021001022501031031KA1999N+00901MA1999999101751MD1210081+9999MW1031REMSYN082AAXX  04064 01467 31882 43602 10094 20019 30175 40181 52008 70310 82033 333 20090;EQDQ01  00002PRCP99
0161014670999992000090409004+58630+009140FM-12+000799999V0200301N000510750019N0400001N1+01261+00281101861ADDAY121031AY211031GF106991021041008001031031MA1999999101801MD1110051+9999MW1031REMSYN072AAXX  04094 01467 41582 60301 10126 20028 30180 40186 51005 70321 82433;
0173014670999992000090412004+58630+009140FM-12+000799999V0201601N000512200019N0400001N1+01321+00331101821ADDAY121061AY201061GF103991021001022501031091MA1999999101761MD1810041+9999MW1011REMSYN084AAXX  04124 01467 41882 31601 10132 20033 30176 40182 58004 70120 82039 222// 00166;
0140014670999992000090415004+58630+009140FM-12+000799999V0201801N001012200019N0400001N1+01381+00391101731ADDAY111031AY201031GF103991011041008001031011MD1710091+9999MW1021REMSYN066AAXX  04154 01467 41582 31802 10138 20039 40173 57009 70210 81431;
0214014670999992000090418004+58630+009140FM-12+000799999V0201801N002112200019N0400001N1+01361+00801101661ADDAA199000091AY111061AY201061GF102991011011008001001031KA1999M+01381MA1999999101601MD1710071+9999MW1021REMSYN082AAXX  04184 01467 31582 21804 10136 20080 30160 40166 57007 70210 81103 333 10138;EQDQ01  00002PRCP99
0161014670999992000090500004+58630+009140FM-12+000799999V0201801N002110300019N0300001N1+01401+01151101701ADDAY121061AY221061GF107991031061004501061021MA1999999101641MD1010041+9999MW1031REMSYN072AAXX  05004 01467 41480 71804 10140 20115 30164 40170 50004 70322 83662;
0161014670999992000090503004+58630+009140FM-12+000799999V0200301N000512200019N0300001N1+01141+01001101741ADDAY121031AY211031GF103991011061004501041011MA1999999101681MD1110041+9999MW1011REMSYN072AAXX  05034 01467 41480 30301 10114 20100 30168 40174 51004 70121 81641;
0214014670999992000090506004+58630+009140FM-12+000799999V0203601N000512200019N0400001N1+01161+01051101731ADDAA199000091AY121061AY201061GF103991021061004501061021KA1999N+01101MA1999999101671MD1810011+9999MW1021REMSYN082AAXX  05064 01467 31482 33601 10116 20105 30167 40173 58001 70220 82662 333 20110;EQDQ01  00002PRCP99
0161014670999992000090509004+58630+009140FM-12+000799999V0200901N002112200019N0400001N1+01351+01051101741ADDAY121031AY221031GF104991021021002501061021MA1999999101681MD1810011+9999MW1031REMSYN072AAXX  05094 01467 41382 40904 10135 20105 30168 40174 58001 70322 82262;
0173014670999992000090512004+58630+009140FM-12+000799999V0201601N002110750019N0400001N1+01371+01071101731ADDAY121061AY221061GF105991021021002501061021MA1999999101671MD1710011+9999MW1031REMSYN084AAXX  05124 01467 41382 51604 10137 20107 30167 40173 57001 70322 82262 222// 00165;
0161014670999992000090515004+58630+009140FM-12+000799999V0201801N002112200019N0400001N1+01491+01081101651ADDAY121031AY221031GF103991021021004501061021MA1999999101591MD1710081+9999MW1031REMSYN072AAXX  05154 01467 41482 31804 10149 20108 30159 40165 57008 70322 82262;
0214014670999992000090518004+58630+009140FM-12+000799999V0202001N002112200019N0400001N1+01411+01001101531ADDAA199000091AY121061AY211061GF103991021051004501031021KA1999M+01531MA1999999101471MD1710121+9999MW1031REMSYN082AAXX  05184 01467 31482 32004 10141 20100 30147 40153 57012 70321 82532 333 10153;EQDQ01  00002PRCP99
0161014670999992000090600004+58630+009140FM-12+000799999V0202501N001010300019N0300001N1+01241+00961101341ADDAY121061AY211061GF106991021071004501021021MA1999999101281MD1710101+9999MW1031REMSYN072AAXX  06004 01467 41480 62502 10124 20096 30128 40134 57010 70321 82722;
0161014670999992000090603004+58630+009140FM-12+000799999V0202001N001010300019N0200001N1+01221+01171101121ADDAY181031AY261031GF108991041031002501021999MA1999999101061MD1710221+9999MW1801REMSYN072AAXX  06034 01467 41370 82002 10122 20117 30106 40112 57022 78086 8432/;
0201014670999992000090606004+58630+009140FM-12+000799999V0201801N003110300019N0200001N1+01401+01361100851ADDAA112002091AY181061AY261061GF108991041061002501021999KA1999N+01151MA1999999100791MD1710171+9999MW1801REMSYN088AAXX  06064 01467 11370 81806 10140 20136 30079 40085 57017 60022 78086 8462/ 333 20115;
0161014670999992000090609004+58630+009140FM-12+000799999V0201601N006210021019N0060001N1+01401+01361100691ADDAY181031AY261031GF108991081061002501999999MA1999999100631MD1710161+9999MW1631REMSYN072AAXX  06094 01467 41356 81612 10140 20136 30063 40069 57016 76386 886//;
0173014670999992000090612004+58630+009140FM-12+000799999V0201601N006210021019N0060001N1+01401+01371100531ADDAY181061AY261061GF108991081061002501999999MA1999999100471MD1710161+9999MW1621REMSYN084AAXX  06124 01467 41356 81612 10140 20137 30047 40053 57016 76286 886// 222// 00167;
0161014670999992000090615004+58630+009140FM-12+000799999V0201601N006210021019N0100001N1+01501+01401100401ADDAY161031AY221031GF108991061061002501021999MA1999999100341MD1710131+9999MW1021REMSYN072AAXX  06154 01467 41360 81612 10150 20140 30034 40040 57013 70262 8662/;
0201014670999992000090618004+58630+009140FM-12+000799999V0201601N006210300019N0060001N1+01521+01441100271ADDAA112004191AY161061AY221061GF108991041061002501021999KA1999M+01521MA1999999100211MD1710131+9999MW1601REMSYN088AAXX  06184 01467 11356 81612 10152 20144 30021 40027 57013 60042 76062 8462/ 333 10152;
0161014670999992000090700004+58630+009140FM-12+000799999V0201601N004619999999N0180001N1+01501+01461100331ADDAY181061AY261061GF108991041061002501999999MA1999999100271MD1210061+9999MW1801REMSYN072AAXX  07004 01467 41368 81609 10150 20146 30027 40033 52006 78086 846//;
0161014670999992000090703004+58630+009140FM-12+000799999V0202001N003110021019N0100001N1+01461+01421100381ADDAY181031AY261031GF108991061061002501021999MA1999999100321MD1210051+9999MW1811REMSYN072AAXX  07034 01467 41360 82006 10146 20142 30032 40038 52005 78186 8662/;
0201014670999992000090706004+58630+009140FM-12+000799999V0202701N000510300019N0150001N1+01401+01361100551ADDAA112007991AY181061AY261061GF108991041061002501021999KA1999N+01401MA1999999100491MD1210171+9999MW1601REMSYN088AAXX  07064 01467 11365 82701 10140 20136 30049 40055 52017 60082 76086 8462/ 333 20140;
0161014670999992000090709004+58630+009140FM-12+000799999V0201801N001010300019N0200001N1+01501+01461100691ADDAY181031AY261031GF107991041061002501081021MA1999999100631MD1210141+9999MW1151REMSYN072AAXX  07094 01467 41370 71802 10150 20146 30063 40069 52014 71586 84682;
0173014670999992000090712004+58630+009140FM-12+000799999V0201601N002110300019N0200001N1+01521+01481100801ADDAY121061AY221061GF107991041061002501061021MA1999999100741MD1210111+9999MW1021REMSYN084AAXX  07124 01467 41370 71604 10152 20148 30074 40080 52011 70222 84662 222// 00160;
0161014670999992000090715004+58630+009140FM-12+000799999V0201601N002110300019N0200001N1+01521+01481100721ADDAY121031AY221031GF108991041061002501021999MA1999999100691MD1710051+9999MW1031REMSYN072AAXX  07154 01467 41370 81604 10152 20148 30069 40072 57005 70322 8462/;
0201014670999992000090718004+58630+009140FM-12+000799999V0201601N002110300019N0200001N1+01451+01411100671ADDAA112000591AY181061AY261061GF108991041031002501061999KA1999M+01551MA1999999100611MD1710081+9999MW1811REMSYN088AAXX  07184 01467 11370 81604 10145 20141 30061 40067 57008 69962 78186 8436/ 333 10155;
0161014670999992000090800004+58630+009140FM-12+000799999V0202001N006210021019N0100001N1+01341+01301100431ADDAY161061AY251061GF108991061071002501021999MA1999999100371MD1110151+9999MW1581REMSYN072AAXX  08004 01467 41360 82012 10134 20130 30037 40043 51015 75865 8672/;
0161014670999992000090803004+58630+009140FM-12+000799999V0202001N002112200019N0280001N1+01421+01381100301ADDAY161031AY251031GF102991011061004501041001MA1999999100241MD1710131+9999MW1011REMSYN072AAXX  08034 01467 41478 22004 10142 20138 30024 40030 57013 70165 81640;
0201014670999992000090806004+58630+009140FM-12+000799999V0202301N001012200019N0300001N1+01351+01311100451ADDAA112002091AY121061AY221061GF104991021061004501031041KA1999N+01331MA1999999100391MD1210151+9999MW1031REMSYN088AAXX  08064 01467 11480 42302 10135 20131 30039 40045 52015 60022 70322 82634 333 20133;
0161014670999992000090809004+58630+009140FM-12+000799999V0202501N003110300019N0300001N1+01461+01081100691ADDAY121031AY221031GF106991041051008001031021MA1999999100631MD1210041+9999MW1021REMSYN072AAXX  08094 01467 41580 62506 10146 20108 30063 40069 52004 70222 84532;
0173014670999992000090812004+58630+009140FM-12+000799999V0202001N004610300019N0300001N1+01601+00931100721ADDAY121061AY221061GF106991041061004501031021MA1999999100661MD1210031+9999MW1021REMSYN084AAXX  08124 01467 41480 62009 10160 20093 30066 40072 52003 70222 84632 222// 00160;
0161014670999992000090815004+58630+009140FM-12+000799999V0202001N004610300019N0300001N1+01751+01731100791ADDAY121031AY221031GF107991041061004501041021MA1999999100731MD1210071+9999MW1031REMSYN072AAXX  08154 01467 41480 72009 10175 20173 30073 40079 52007 70322 84642;
0184014670999992000090818004+58630+009140FM-12+000799999V0202601N003112200019N0600001N1+01551+00492100831ADDAY121061AY221061GF104991041061004501041021KA1999M+01751MA1999999100771MD1210041+9999MW1011REMSYN082AAXX  08184 01467 41486 42606 10155 20049 30077 40083 52004 70122 84642 333 10175;
0161014670999992000090900004+58630+009140FM-12+000799999V0202301N003112200019N0300001N1+01321+01071100911ADDAY101061AY201061GF102991011061008001041001MA1999999100851MD1210081+9999MW1011REMSYN072AAXX  09004 01467 41580 22306 10132 20107 30085 40091 52008 70100 81640;
0161014670999992000090903004+58630+009140FM-12+000799999V0202301N003112200019N0300001N1+01351+01001100931ADDAY101031AY201031GF102991011061008001041001MA1999999100881MD1210031+9999MW1021REMSYN072AAXX  09034 01467 41580 22306 10135 20100 30088 40093 52003 70200 81640;
0214014670999992000090906004+58630+009140FM-12+000799999V0202301N003112200019N0300001N1+01301+01161100951ADDAA199000091AY101061AY201061GF102991011061008001041001KA1999M+01301MA1999999100891MD1210011+9999MW1021REMSYN082AAXX  09064 01467 31580 22306 10130 20116 30089 40095 52001 70200 81640 333 10130;EQDQ01  00002PRCP99
0161014670999992000090909004+58630+009140FM-12+000799999V0202601N004612200019N0300001N1+01521+00861101141ADDAY101031AY201031GF103991021021008001041001MA1999999101081MD1210191+9999MW1031REMSYN072AAXX  09094 01467 41580 32609 10152 20086 30108 40114 52019 70300 82240;
0173014670999992000090912004+58630+009140FM-12+000799999V0202601N006212200019N0300001N1+01721+00451101211ADDAY101061AY201061GF103991021021004501031021MA1999999101151MD1210071+9999MW1021REMSYN084AAXX  09124 01467 41480 32612 10172 20045 30115 40121 52007 70200 82232 222// 00155;
0161014670999992000090915004+58630+009140FM-12+000799999V0202601N006210750019N0300001N1+01751+00301101341ADDAY121031AY221031GF105991021021004501061021MA1999999101281MD1210131+9999MW1031REMSYN072AAXX  09154 01467 41480 52612 10175 20030 30128 40134 52013 70322 82262;
0214014670999992000090918004+58630+009140FM-12+000799999V0202601N004610750019N0300001N1+01551+00461101471ADDAA199000091AY121061AY221061GF105991021021004501061021KA1999M+01751MA1999999101411MD1210131+9999MW1031REMSYN082AAXX  09184 01467 31480 52609 10155 20046 30141 40147 52013 70322 82262 333 10175;EQDQ01  00002PRCP99
0161014670999992000091000004+58630+009140FM-12+000799999V0202601N003112200019N0300001N1+01201+00791101521ADDAY101061AY201061GF102991011061008001041011MA1999999101481MD1210201+9999MW1011REMSYN072AAXX  10004 01467 41580 22606 10120 20079 30148 40152 52020 70100 81641;
0161014670999992000091003004+58630+009140FM-12+000799999V0202601N002110300019N0300001N1+01201+01161101521ADDAY121031AY221031GF107991041061004501021021MA1999999101461MD1710021+9999MW1031REMSYN072AAXX  10034 01467 41480 72604 10120 20116 30146 40152 57002 70322 84622;
0214014670999992000091006004+58630+009140FM-12+000799999V0202001N001010300019N0300001N1+01201+01061101501ADDAA199000091AY121061AY221061GF106991031051004501041021KA1999N+01201MA1999999101441MD1710021+9999MW1011REMSYN082AAXX  10064 01467 31480 62002 10120 20106 30144 40150 57002 70122 83542 333 20120;EQDQ01  00002PRCP99
0161014670999992000091009004+58630+009140FM-12+000799999V0202001N002110300019N0300001N1+01251+00901101551ADDAY121031AY221031GF107991031061004501031021MA1999999101491MD1510051+9999MW1031REMSYN072AAXX  10094 01467 41480 72004 10125 20090 30149 40155 55005 70322 83632;
0173014670999992000091012004+58630+009140FM-12+000799999V0202901N002110750019N0300001N1+01631+00731101651ADDAY121061AY221061GF106991021021004501031041MA1999999101591MD1210101+9999MW1011REMSYN084AAXX  10124 01467 41480 62904 10163 20073 30159 40165 52010 70122 82234 222// 00155;
0161014670999992000091015004+58630+009140FM-12+000799999V0202701N002112200019N0300001N1+01801+00311101491ADDAY101031AY201031GF103991021041004501031021MA1999999101431MD1210061+9999MW1011REMSYN072AAXX  10154 01467 41480 32704 10180 20031 30143 40149 52006 70100 82432;
0214014670999992000091018004+58630+009140FM-12+000799999V0202901N001012200019N0300001N1+01651+00331101601ADDAA199000091AY101061AY201061GF102991011011008001031011KA1999M+01651MA1999999101541MD1210111+9999MW1011REMSYN082AAXX  10184 01467 31580 22902 10165 20033 30154 40160 52011 70100 81131 333 10165;EQDQ01  00002PRCP99
0161014670999992000091100004+58630+009140FM-12+000799999V0202901N001012200019N0300001N1+01101+00861101711ADDAY101061AY201061GF101991011041008001041001MA1999999101651MD1210111+9999MW1011REMSYN072AAXX  11004 01467 41580 12902 10110 20086 30165 40171 52011 70100 81440;
0161014670999992000091103004+58630+009140FM-12+000799999V0202901N001012200019N0300001N1+00901+00741101711ADDAY101031AY201031GF101991011041008001041001MA1999999101651MD1410001+9999MW1021REMSYN072AAXX  11034 01467 41580 12902 10090 20074 30165 40171 54000 70200 81440;
0184014670999992000091106004+58630+009140FM-12+000799999V0203301N000512200019N0300001N1+00871+00411101791ADDAY101061AY201061GF101991011041008001041001KA1999N+00871MA1999999101731MD1210051+9999MW1021REMSYN082AAXX  11064 01467 41580 13301 10087 20041 30173 40179 52005 70200 81440 333 20087;
0161014670999992000091109004+58630+009140FM-12+000799999V0203501N001012200019N0300001N1+01251+00781101851ADDAY101031AY201031GF102991011011008001041011MA1999999101791MD1210061+9999MW1031REMSYN072AAXX  11094 01467 41580 23502 10125 20078 30179 40185 52006 70300 81141;
0173014670999992000091112004+58630+009140FM-12+000799999V0201301N001012200019N0300001N1+01471+00411101831ADDAY101061AY201061GF103991011011008001031041MA1999999101771MD1710021+9999MW1031REMSYN084AAXX  11124 01467 41580 31302 10147 20041 30177 40183 57002 70300 81134 222// 00153;
0161014670999992000091115004+58630+009140FM-12+000799999V0201801N001012200019N0400001N1+01461+00271101751ADDAY101031AY201031GF103991011041008001041021MA1999999101691MD1710081+9999MW1021REMSYN072AAXX  11154 01467 41582 31802 10146 20027 30169 40175 57008 70200 81442;
0214014670999992000091118004+58630+009140FM-12+000799999V0202301N002112200019N0400001N1+01431+00721101711ADDAA199000091AY101061AY201061GF103991021041012501031041KA1999M+01501MA1999999101671MD1710021+9999MW1021REMSYN082AAXX  11184 01467 31682 32304 10143 20072 30167 40171 57002 70200 82434 333 10150;EQDQ01  00002PRCP99
0161014670999992000091200004+58630+009140FM-12+000799999V0203301N000512200019N0500001N1+00921+00631101801ADDAY101061AY201061GF101991011001022501041001MA1999999101741MD1110041+9999MW1011REMSYN072AAXX  12004 01467 41884 13301 10092 20063 30174 40180 51004 70100 81040;
0161014670999992000091203004+58630+009140FM-12+000799999V0200201N000512200019N0400001N1+00871+00581101791ADDAY101031AY201031GF101991011041012501041021MA1999999101731MD1710011+9999MW1031REMSYN072AAXX  12034 01467 41682 10201 10087 20058 30173 40179 57001 70300 81442;
0214014670999992000091206004+58630+009140FM-12+000799999V0200201N001010300019N0400001N1+00921+00681101751ADDAA199000091AY121061AY221061GF107991041021004501061021KA1999N+00921MA1999999101691MD1710041+9999MW1031REMSYN082AAXX  12064 01467 31482 70202 10092 20068 30169 40175 57004 70322 84262 333 20092;EQDQ01  00002PRCP99
0161014670999992000091209004+58630+009140FM-12+000799999V0200201N003110300019N0400001N1+01141+00861101761ADDAY121031AY221031GF107991011051004501071999MA1999999101701MD1210011+9999MW1021REMSYN072AAXX  12094 01467 41482 70206 10114 20086 30170 40176 52001 70222 8157/;
0173014670999992000091212004+58630+009140FM-12+000799999V0200601N003110300019N0400001N1+01291+00901101711ADDAY121061AY221061GF107991011051004501071999MA1999999101651MD1810051+9999MW1021REMSYN084AAXX  12124 01467 41482 70606 10129 20090 30165 40171 58005 70222 8157/ 222// 00149;
0161014670999992000091215004+58630+009140FM-12+000799999V0200701N003110300019N0400001N1+01301+00891101451ADDAY121031AY221031GF107991031071004501061021MA1999999101391MD1710291+9999MW1021REMSYN072AAXX  12154 01467 41482 70706 10130 20089 30139 40145 57029 70222 83762;
0214014670999992000091218004+58630+009140FM-12+000799999V0200901N003110300019N0400001N1+01361+00681101431ADDAA199000091AY121061AY221061GF107991011021004501071999KA1999M+01361MA1999999101371MD1710021+9999MW1021REMSYN082AAXX  12184 01467 31482 70906 10136 20068 30137 40143 57002 70222 8127/ 333 10136;EQDQ01  00002PRCP99
0161014670999992000091300004+58630+009140FM-12+000799999V0200901N002110300019N0300001N1+01351+00941101301ADDAY121061AY221061GF107991031061004501071999MA1999999101241MD1710131+9999MW1021REMSYN072AAXX  13004 01467 41480 70904 10135 20094 30124 40130 57013 70222 8367/;
0161014670999992000091303004+58630+009140FM-12+000799999V0200201N003110300019N0300001N1+01181+00941101301ADDAY121031AY221031GF108991031051004501071999MA1999999101241MD1410001+9999MW1031REMSYN072AAXX  13034 01467 41480 80206 10118 20094 30124 40130 54000 70322 8357/;
0214014670999992000091306004+58630+009140FM-12+000799999V0200201N004610042019N0300001N1+01181+01011101311ADDAA199000091AY121061AY221061GF108991051051004501071999KA1999N+01161MA1999999101251MD1310011+9999MW1021REMSYN082AAXX  13064 01467 31480 80209 10118 20101 30125 40131 53001 70222 8557/ 333 20116;EQDQ01  00002PRCP99
0161014670999992000091315004+58630+009140FM-12+000799999V0200901N004610300019N0300001N1+01411+00921101511ADDAY121031AY221031GF106991031071004501031021MA1999999101451MD1210201+9999MW1011REMSYN072AAXX  13154 01467 41480 60909 10141 20092 30145 40151 52020 70122 83732;
0214014670999992000091318004+58630+009140FM-12+000799999V0200901N004610300019N0050001N1+01461+00751101521ADDAA199000091AY121061AY221061GF106991031071004501031021KA1999M+01451MA1999999101461MD1210011+9999MW1021REMSYN082AAXX  13184 01467 31450 60909 10146 20075 30146 40152 52001 70222 83732 333 10145;EQDQ01  00002PRCP99
0161014670999992000091400004+58630+009140FM-12+000799999V0200201N002112200019N0400001N1+01151+00801101751ADDAY121061AY211061GF103991011041008001041001MA1999999101691MD1110081+9999MW1011REMSYN072AAXX  14004 01467 41582 30204 10115 20080 30169 40175 51008 70121 81440;
0214014670999992000091406004+58630+009140FM-12+000799999V0200201N004610300019N0400001N1+01401+01121101891ADDAA199000091AY121061AY221061GF106991031021004501051021KA1999N+01001MA1999999101831MD1210101+9999MW1031REMSYN082AAXX  14064 01467 31482 60209 10140 20112 30183 40189 52010 70322 83252 333 20100;EQDQ01  00002PRCP99
0161014670999992000091409004+58630+009140FM-12+000799999V0200901N004610042019N0400001N1+01221+01111102041ADDAY121031AY221031GF107991051051004501071999MA1999999101981MD1210151+9999MW1031REMSYN072AAXX  14094 01467 41482 70909 10122 20111 30198 40204 52015 70322 8557/;
0173014670999992000091412004+58630+009140FM-12+000799999V0200901N004610300019N0400001N1+01221+01111102121ADDAY121061AY221061GF106991031051004501051021MA1999999102061MD1210081+9999MW1011REMSYN084AAXX  14124 01467 41482 60909 10122 20111 30206 40212 52008 70122 83552 222// 00141;
0161014670999992000091415004+58630+009140FM-12+000799999V0200901N004610300019N0400001N1+01331+00941102111ADDAY121031AY221031GF105991011021008001031001MA1999999102051MD1810011+9999MW1011REMSYN072AAXX  14154 01467 41582 50909 10133 20094 30205 40211 58001 70122 81230;
0214014670999992000091418004+58630+009140FM-12+000799999V0200901N003110750019N0400001N1+01381+00651102071ADDAA199000091AY121061AY221061GF105991011041008001041041KA1999M+01381MA1999999102011MD1710041+9999MW1021REMSYN082AAXX  14184 01467 31582 50906 10138 20065 30201 40207 57004 70222 81444 333 10138;EQDQ01  00002PRCP99
0161014670999992000091500004+58630+009140FM-12+000799999V0200101N004610300019N0300001N1+01401+01121102091ADDAY121061AY221061GF107991031071004501031999MA1999999102031MD1210021+9999MW1021REMSYN072AAXX  15004 01467 41480 70109 10140 20112 30203 40209 52002 70222 8373/;
0161014670999992000091503004+58630+009140FM-12+000799999V0201501N004610300019N0300001N1+01391+01331102061ADDAY121031AY221031GF107991041051008001071999MA1999999102001MD1810031+9999MW1031REMSYN072AAXX  15034 01467 41580 71509 10139 20133 30200 40206 58003 70322 8457/;
0201014670999992000091506004+58630+009140FM-12+000799999V0201501N003110300019N0280001N1+01361+01291102061ADDAA112000791AY161061AY221061GF108991041071008001021999KA1999N+01361MA1999999102001MD1510001+9999MW1601REMSYN088AAXX  15064 01467 11578 81506 10136 20129 30200 40206 55000 69902 76062 8472/ 333 20136;
0161014670999992000091509004+58630+009140FM-12+000799999V0201501N003110300019N0300001N1+01361+01291102111ADDAY181031AY261031GF108991041071004501061999MA1999999102051MD1210051+9999MW1151REMSYN072AAXX  15094 01467 41480 81506 10136 20129 30205 40211 52005 71586 8476/;
0173014670999992000091512004+58630+009140FM-12+000799999V0201501N003110300019N0250001N1+01321+01251102051ADDAY181061AY261061GF108991041031004501061999MA1999999101991MD1710061+9999MW1811REMSYN084AAXX  15124 01467 41475 81506 10132 20125 30199 40205 57006 78186 8436/ 222// 00141;
0161014670999992000091515004+58630+009140FM-12+000799999V0201501N004610300019N0120001N1+01281+01241101911ADDAY181031AY261031GF108991041071004501021999MA1999999101851MD1710141+9999MW1611REMSYN072AAXX  15154 01467 41462 81509 10128 20124 30185 40191 57014 76186 8472/;
0200014670999992000091518004+58630+009140FM-12+000799999V0201501N004610300019N0120001N1+01341+01251101831ADDAA112004191AY181061AY261061GF108991041071004501021999KA1999M+01361MA1999999101771MD1610081+9999MW1611REMSYN087AAXX  15184 01467 11462 81509 10134 20125 30177 40183 56008 6004276186 8472/ 333 10136;
0161014670999992000091600004+58630+009140FM-12+000799999V0201501N003110300019N0200001N1+01271+01231101741ADDAY161061AY261061GF108991041071004501021999MA1999999101681MD1610071+9999MW1611REMSYN072AAXX  16004 01467 41470 81506 10127 20123 30168 40174 56007 76166 8472/;
0161014670999992000091603004+58630+009140FM-12+000799999V0201501N003110300019N0250001N1+01311+01241101601ADDAY161031AY261031GF108991041071004501021999MA1999999101541MD1710141+9999MW1601REMSYN072AAXX  16034 01467 41475 81506 10131 20124 30154 40160 57014 76066 8472/;
0201014670999992000091606004+58630+009140FM-12+000799999V0201501N003110042019N0280001N1+01311+01251101521ADDAA112006191AY161061AY221061GF108991081051004501999999KA1999N+01261MA1999999101461MD1610081+9999MW1021REMSYN088AAXX  16064 01467 11478 81506 10131 20125 30146 40152 56008 60062 70262 885// 333 20126;
0161014670999992000091609004+58630+009140FM-12+000799999V0201201N002110042019N0280001N1+01301+01241101541ADDAY121031AY221031GF108991081051004501999999MA1999999101481MD1310041+9999MW1021REMSYN072AAXX  16094 01467 41478 81204 10130 20124 30148 40154 53004 70222 885//;
0173014670999992000091612004+58630+009140FM-12+000799999V0200901N002110300019N0300001N1+01351+01291101491ADDAY121061AY221061GF108991041051004501071999MA1999999101431MD1810051+9999MW1021REMSYN084AAXX  16124 01467 41480 80904 10135 20129 30143 40149 58005 70222 8457/ 222// 00144;
0161014670999992000091615004+58630+009140FM-12+000799999V0200901N002110300019N0300001N1+01421+01161101451ADDAY121031AY221031GF106991011051008001051021MA1999999101391MD1710041+9999MW1011REMSYN072AAXX  16154 01467 41580 60904 10142 20116 30139 40145 57004 70122 81552;
0214014670999992000091618004+58630+009140FM-12+000799999V0200201N001012200019N0400001N1+01301+01211101441ADDAA199000091AY121061AY211061GF104991011091008001041011KA1999M+01441MA1999999101381MD1510011+9999MW1011REMSYN082AAXX  16184 01467 31582 40202 10130 20121 30138 40144 55001 70121 81941 333 10144;EQDQ01  00002PRCP99
0161014670999992000091700004+58630+009140FM-12+000799999V0200101N001012200019N0400001N1+01091+01051101411ADDAY101061AY201061GF101991011041008001041001MA1999999101351MD1710051+9999MW1011REMSYN072AAXX  17004 01467 41582 10102 10109 20105 30135 40141 57005 70100 81440;
0161014670999992000091703004+58630+009140FM-12+000799999V0201601N002110300019N0400001N1+01331+01081101381ADDAY111031AY201031GF106991021051008001071001MA1999999101321MD1710031+9999MW1031REMSYN072AAXX  17034 01467 41582 61604 10133 20108 30132 40138 57003 70310 82570;
0214014670999992000091706004+58630+009140FM-12+000799999V0201501N002110300019N0400001N1+01301+01161101381ADDAA199000091AY111061AY201061GF106991041051008001041001KA1999N+01051MA1999999101321MD1410001+9999MW1021REMSYN082AAXX  17064 01467 31582 61504 10130 20116 30132 40138 54000 70210 84540 333 20105;EQDQ01  00002PRCP99
0161014670999992000091709004+58630+009140FM-12+000799999V0201501N002110300019N0400001N1+01371+01201101421ADDAY121031AY221031GF106991011091008001041001MA1999999101361MD1310041+9999MW1021REMSYN072AAXX  17094 01467 41582 61504 10137 20120 30136 40142 53004 70222 81940;
0173014670999992000091712004+58630+009140FM-12+000799999V0201501N003112200019N0400001N1+01461+01181101391ADDAY121061AY211061GF103991021021008001001011MA1999999101331MD1810031+9999MW1011REMSYN084AAXX  17124 01467 41582 31506 10146 20118 30133 40139 58003 70121 82201 222// 00146;
0161014670999992000091715004+58630+009140FM-12+000799999V0201501N003110075019N0300001N1+01411+01091101361ADDAY121031AY211031GF108991051051008001071999MA1999999101301MD1710031+9999MW1031REMSYN072AAXX  17154 01467 41580 81506 10141 20109 30130 40136 57003 70321 8557/;
0214014670999992000091718004+58630+009140FM-12+000799999V0201501N003110075019N0300001N1+01451+01201101261ADDAA199000091AY121061AY211061GF108991051051008001071999KA1999M+01461MA1999999101201MD1710101+9999MW1021REMSYN082AAXX  17184 01467 31580 81506 10145 20120 30120 40126 57010 70221 8557/ 333 10146;EQDQ01  00002PRCP99
0161014670999992000091800004+58630+009140FM-12+000799999V0201501N006210300019N0300001N1+01371+01181101181ADDAY121061AY221061GF108991041051008001071999MA1999999101121MD1710061+9999MW1021REMSYN072AAXX  18004 01467 41580 81512 10137 20118 30112 40118 57006 70222 8457/;
0161014670999992000091803004+58630+009140FM-12+000799999V0201601N006210300019N0170001N1+01331+01291101121ADDAY161031AY221031GF108991041071004501021999MA1999999101061MD1710061+9999MW1611REMSYN072AAXX  18034 01467 41467 81612 10133 20129 30106 40112 57006 76162 8472/;
0201014670999992000091806004+58630+009140FM-12+000799999V0201701N006210300019N0170001N1+01351+01101101091ADDAA112000191AY161061AY221061GF108991041071004501021999KA1999N+01321MA1999999101031MD1710031+9999MW1021REMSYN088AAXX  18064 01467 31467 81712 10135 20110 30103 40109 57003 69912 70262 8472/ 333 20132;
0161014670999992000091809004+58630+009140FM-12+000799999V0201701N006210042019N0170001N1+01341+01201101121ADDAY121031AY221031GF108991061051004501071999MA1999999101061MD1310031+9999MW1021REMSYN072AAXX  18094 01467 41467 81712 10134 20120 30106 40112 53003 70222 8657/;
0173014670999992000091812004+58630+009140FM-12+000799999V0201701N007710300019N0150001N1+01341+01061101101ADDAY161061AY221061GF108991041071004501021999MA1999999101041MD1810021+9999MW1601REMSYN084AAXX  18124 01467 41465 81715 10134 20106 30104 40110 58002 76062 8472/ 222// 00142;
0161014670999992000091815004+58630+009140FM-12+000799999V0201701N006210021019N0100001N1+01351+01041101131ADDAY161031AY261031GF108991051071002501021999MA1999999101071MD1310031+9999MW1611REMSYN072AAXX  18154 01467 41360 81712 10135 20104 30107 40113 53003 76166 8572/;
0201014670999992000091818004+58630+009140FM-12+000799999V0201701N006210042019N0150001N1+01341+01041101211ADDAA112006191AY161061AY261061GF108991051071004501021999KA1999M+01361MA1999999101151MD1210081+9999MW1611REMSYN088AAXX  18184 01467 11465 81712 10134 20104 30115 40121 52008 60062 76166 8572/ 333 10136;
0161014670999992000091900004+58630+009140FM-12+000799999V0201701N006210042019N0150001N1+01261+01031101381ADDAY161061AY221061GF108991051071004501021999MA1999999101321MD1210061+9999MW1601REMSYN072AAXX  19004 01467 41465 81712 10126 20103 30132 40138 52006 76062 8572/;
0161014670999992000091903004+58630+009140FM-12+000799999V0201701N004610300019N0150001N1+01311+01061101431ADDAY161031AY221031GF108991041071004501021999MA1999999101371MD1210051+9999MW1601REMSYN072AAXX  19034 01467 41465 81709 10131 20106 30137 40143 52005 76062 8472/;
0201014670999992000091906004+58630+009140FM-12+000799999V0201701N004610300019N0280001N1+01301+00981101641ADDAA112006191AY161061AY221061GF108991041091004501071999KA1999N+01251MA1999999101581MD1210211+9999MW1011REMSYN088AAXX  19064 01467 11478 81709 10130 20098 30158 40164 52021 60062 70162 8497/ 333 20125;
0161014670999992000091909004+58630+009140FM-12+000799999V0201501N004610042019N0300001N1+01301+00871101801ADDAY121031AY221031GF107991051031004501031999MA1999999101741MD1210161+9999MW1011REMSYN072AAXX  19094 01467 41480 71509 10130 20087 30174 40180 52016 70122 8533/;
0173014670999992000091912004+58630+009140FM-12+000799999V0201001N004610042019N0300001N1+01321+01071101891ADDAY121061AY221061GF107991061031004501031999MA1999999101831MD1210091+9999MW1021REMSYN084AAXX  19124 01467 41480 71009 10132 20107 30183 40189 52009 70222 8633/ 222// 00142;
0161014670999992000091915004+58630+009140FM-12+000799999V0201201N003110300019N0300001N1+01381+00701101971ADDAY121031AY221031GF107991021091004501071999MA1999999101911MD1110081+9999MW1021REMSYN072AAXX  19154 01467 41480 71206 10138 20070 30191 40197 51008 70222 8297/;
0214014670999992000091918004+58630+009140FM-12+000799999V0200901N003110300019N0300001N1+01391+00981101991ADDAA199000091AY121061AY221061GF108991031051008001071999KA1999M+01391MA1999999101931MD1210021+9999MW1031REMSYN082AAXX  19184 01467 31580 80906 10139 20098 30193 40199 52002 70322 8357/ 333 10139;EQDQ01  00002PRCP99
0161014670999992000092000004+58630+009140FM-12+000799999V0200901N003110300019N0400001N1+01341+01021102051ADDAY121061AY221061GF107991011041008001071999MA1999999101991MD1210041+9999MW1011REMSYN072AAXX  20004 01467 41582 70906 10134 20102 30199 40205 52004 70122 8147/;
0161014670999992000092003004+58630+009140FM-12+000799999V0200901N004612200019N0500001N1+01261+00751102121ADDAY121031AY211031GF101991011011008001001001MA1999999102061MD1210071+9999MW1011REMSYN072AAXX  20034 01467 41584 10909 10126 20075 30206 40212 52007 70121 81100;
0214014670999992000092006004+58630+009140FM-12+000799999V0200901N004612200019N0400001N1+01231+00991102141ADDAA199000091AY121061AY211061GF103991011091008001071001KA1999N+01221MA1999999102081MD1210021+9999MW1031REMSYN082AAXX  20064 01467 31582 30909 10123 20099 30208 40214 52002 70321 81970 333 20122;EQDQ01  00002PRCP99
0161014670999992000092009004+58630+009140FM-12+000799999V0200901N004610075019N0300001N1+01231+01091102251ADDAY121031AY211031GF107991051051008001071999MA1999999102191MD1210111+9999MW1031REMSYN072AAXX  20094 01467 41580 70909 10123 20109 30219 40225 52011 70321 8557/;
0173014670999992000092012004+58630+009140FM-12+000799999V0200901N006212200019N0300001N1+01341+01171102241ADDAY121061AY211061GF102991011021008001041011MA1999999102181MD1810011+9999MW1011REMSYN084AAXX  20124 01467 41580 20912 10134 20117 30218 40224 58001 70121 81241 222// 00142;
0161014670999992000092015004+58630+009140FM-12+000799999V0200901N006210750019N0400001N1+01371+01071102241ADDAY111031AY201031GF105991011091008001041011MA1999999102181MD1410001+9999MW1031REMSYN072AAXX  20154 01467 41582 50912 10137 20107 30218 40224 54000 70310 81941;
0214014670999992000092018004+58630+009140FM-12+000799999V0200701N003112200019N0400001N1+01401+01241102231ADDAA199000091AY111061AY201061GF102991011041008001041011KA1999M+01401MA1999999102171MD1810011+9999MW1011REMSYN082AAXX  20184 01467 31582 20706 10140 20124 30217 40223 58001 70110 81441 333 10140;EQDQ01  00002PRCP99
0171014670999992000092100004+58630+009140FM-12+000799999V0200901N006212200019N0400001N1+01361+01191102351ADDAY111061AY201061GA1001+999999999GF100991001001999999001001MA1999999102291MD1010041+9999MW1011REMSYN066AAXX  21004 01467 41982 00912 10136 20119 30229 40235 50004 70110;
0161014670999992000092103004+58630+009140FM-12+000799999V0200901N004612200019N0400001N1+01311+01171102451ADDAY101031AY201031GF101991011011008001001001MA1999999102391MD1310101+9999MW1031REMSYN072AAXX  21034 01467 41582 10909 10131 20117 30239 40245 53010 70300 81100;
0214014670999992000092106004+58630+009140FM-12+000799999V0200901N004610300019N0300001N1+01271+01161102481ADDAA199000091AY111061AY201061GF107991021091008001071999KA1999N+01271MA1999999102421MD1110031+9999MW1031REMSYN082AAXX  21064 01467 31580 70909 10127 20116 30242 40248 51003 70310 8297/ 333 20127;EQDQ01  00002PRCP99
0161014670999992000092109004+58630+009140FM-12+000799999V0200901N004610300019N0300001N1+01251+01141102651ADDAY121031AY221031GF107991021091004501071999MA1999999102591MD1210171+9999MW1021REMSYN072AAXX  21094 01467 41480 70909 10125 20114 30259 40265 52017 70222 8297/;
0173014670999992000092112004+58630+009140FM-12+000799999V0200301N004610300019N0300001N1+01171+01101102711ADDAY121061AY221061GF107991031031004501071999MA1999999102651MD1110061+9999MW1021REMSYN084AAXX  21124 01467 41480 70309 10117 20110 30265 40271 51006 70222 8337/ 222// 00142;
0161014670999992000092115004+58630+009140FM-12+000799999V0200301N003112200019N0300001N1+01261+00981102681ADDAY121031AY201031GF104991011021008001021011MA1999999102621MD1710031+9999MW1011REMSYN072AAXX  21154 01467 41580 40306 10126 20098 30262 40268 57003 70120 81221;
0214014670999992000092118004+58630+009140FM-12+000799999V0200601N003110750019N0300001N1+01331+00981102711ADDAA199000091AY121061AY211061GF107991041001022501041071KA1999M+01331MA1999999102651MD1210031+9999MW1031REMSYN082AAXX  21184 01467 31880 70606 10133 20098 30265 40271 52003 70321 84047 333 10133;EQDQ01  00002PRCP99
0161014670999992000092200004+58630+009140FM-12+000799999V0200901N004610300019N0300001N1+01321+01281102851ADDAY121061AY221061GF107991031051008001071999MA1999999102791MD1210071+9999MW1021REMSYN072AAXX  22004 01467 41580 70909 10132 20128 30279 40285 52007 70222 8357/;
0161014670999992000092203004+58630+009140FM-12+000799999V0200901N004610300019N0300001N1+01301+01161102831ADDAY121031AY221031GF107991031051004501071999MA1999999102771MD1710021+9999MW1021REMSYN072AAXX  22034 01467 41480 70909 10130 20116 30277 40283 57002 70222 8357/;
0214014670999992000092206004+58630+009140FM-12+000799999V0200901N004610300019N0300001N1+01241+01001102861ADDAA199000091AY121061AY221061GF107991041091004501071999KA1999N+01201MA1999999102881MD1210031+9999MW1021REMSYN082AAXX  22064 01467 31480 70909 10124 20100 30288 40286 52003 70222 8497/ 333 20120;EQDQ01  00002PRCP99
0161014670999992000092209004+58630+009140FM-12+000799999V0201001N004610300019N0300001N1+01221+00961102971ADDAY121031AY221031GF107991041031004501071999MA1999999102911MD1210111+9999MW1021REMSYN072AAXX  22094 01467 41480 71009 10122 20096 30291 40297 52011 70222 8437/;
0173014670999992000092212004+58630+009140FM-12+000799999V0200901N003110300019N0300001N1+01221+01061102931ADDAY121061AY221061GF107991041031004501071999MA1999999102871MD1510041+9999MW1021REMSYN084AAXX  22124 01467 41480 70906 10122 20106 30287 40293 55004 70222 8437/ 222// 00138;
0161014670999992000092215004+58630+009140FM-12+000799999V0201001N003110300019N0300001N1+01301+01111102861ADDAY121031AY221031GF107991031031004501071999MA1999999102801MD1710071+9999MW1021REMSYN072AAXX  22154 01467 41480 71006 10130 20111 30280 40286 57007 70222 8337/;
0214014670999992000092218004+58630+009140FM-12+000799999V0201201N003110300019N0300001N1+01361+01201102781ADDAA199000091AY121061AY221061GF107991041051002501071021KA1999M+01361MA1999999102721MD1610081+9999MW1021REMSYN082AAXX  22184 01467 31380 71206 10136 20120 30272 40278 56008 70222 84572 333 10136;EQDQ01  00002PRCP99
0161014670999992000092300004+58630+009140FM-12+000799999V0201801N004610300019N0200001N1+01401+01361102871ADDAY121061AY221061GF108991041051004501071999MA1999999102811MD1210031+9999MW1031REMSYN072AAXX  23004 01467 41470 81809 10140 20136 30281 40287 52003 70322 8457/;
0161014670999992000092303004+58630+009140FM-12+000799999V0201801N004610300019N0200001N1+01391+01351102941ADDAY161031AY221031GF108991041071004501021999MA1999999102881MD1210071+9999MW1211REMSYN072AAXX  23034 01467 41470 81809 10139 20135 30288 40294 52007 72162 8472/;
0201014670999992000092306004+58630+009140FM-12+000799999V0201801N003119999999N0100001N1+01341+01301103001ADDAA112000791AY161061AY221061GF108991041071004501999999KA1999N+01321MA1999999102941MD1210061+9999MW1021REMSYN088AAXX  23064 01467 11460 81806 10134 20130 30294 40300 52006 69902 70262 847// 333 20132;
0161014670999992000092309004+58630+009140FM-12+000799999V0201601N003110300019N0150001N1+01351+01311103161ADDAY121031AY221031GF108991041051004501071999MA1999999103101MD1210161+9999MW1021REMSYN072AAXX  23094 01467 41465 81606 10135 20131 30310 40316 52016 70222 8457/;
0173014670999992000092312004+58630+009140FM-12+000799999V0201601N003110300019N0150001N1+01271+99999103211ADDAY121061AY221061GF108991041051004501021999MA1999999103151MD1110051+9999MW1021REMSYN084AAXX  23124 01467 41465 81606 10127 20138 30315 40321 51005 70222 8452/ 222// 00140;
0161014670999992000092315004+58630+009140FM-12+000799999V0201201N002110300019N0150001N1+01371+01301103191ADDAY121031AY221031GF108991041051004501071999MA1999999103131MD1810021+9999MW1021REMSYN072AAXX  23154 01467 41465 81204 10137 20130 30313 40319 58002 70222 8457/;
0201014670999992000092318004+58630+009140FM-12+000799999V0200901N001010300019N0150001N1+01341+01301103171ADDAA112000791AY161061AY221061GF108991041051004501071999KA1999M+01371MA1999999103111MD1610021+9999MW1021REMSYN088AAXX  23184 01467 11465 80902 10134 20130 30311 40317 56002 69902 70262 8457/ 333 10137;
0171014670999992000092400004+58630+009140FM-12+000799999V0200901N001012200019N0300001N1+01301+01261103231ADDAY121061AY201061GA1001+999999999GF100991001001999999001001MA1999999103171MD1810021+9999MW1011REMSYN066AAXX  24004 01467 41980 00902 10130 20126 30317 40323 58002 70120;
0161014670999992000092403004+58630+009140FM-12+000799999V0200601N001010300019N0100001N1+01211+01181103171ADDAY121031AY201031GF108991041051004501071999MA1999999103111MD1710061+9999MW1031REMSYN072AAXX  24034 01467 41460 80602 10121 20118 30311 40317 57006 70320 8457/;
0214014670999992000092406004+58630+009140FM-12+000799999V0200301N000510300019N0250001N1+01181+01171103121ADDAA199000091AY121061AY201061GF108991041051004501071999KA1999N+01181MA1999999103061MD1610051+9999MW1021REMSYN082AAXX  24064 01467 31475 80301 10118 20117 30306 40312 56005 70220 8457/ 333 20118;EQDQ01  00002PRCP99
0161014670999992000092409004+58630+009140FM-12+000799999V0201201N001010300019N0200001N1+01341+01181103191ADDAY121031AY221031GF107991031051004501071001MA1999999103131MD1210071+9999MW1011REMSYN072AAXX  24094 01467 41470 71202 10134 20118 30313 40319 52007 70122 83570;
0173014670999992000092412004+58630+009140FM-12+000799999V0200901N001012200019N0300001N1+01441+01091103201ADDAY121061AY201061GF103991031021012501001001MA1999999103141MD1010011+9999MW1011REMSYN084AAXX  24124 01467 41680 30902 10144 20109 30314 40320 50001 70120 83200 222// 00141;
0161014670999992000092415004+58630+009140FM-12+000799999V0200901N002112200019N0400001N1+01341+01061103081ADDAY111031AY201031GF103991031011012501001001MA1999999103021MD1710211+9999MW1021REMSYN072AAXX  24154 01467 41682 30904 10134 20106 30302 40308 57021 70210 83100;
0214014670999992000092418004+58630+009140FM-12+000799999V0200801N001012200019N0400001N1+01241+00981103021ADDAA199000091AY111061AY201061GF101991011011012501001011KA1999M+01441MA1999999102961MD1610061+9999MW1011REMSYN082AAXX  24184 01467 31682 10802 10124 20098 30296 40302 56006 70110 81101 333 10144;EQDQ01  00002PRCP99
0171014670999992000092500004+58630+009140FM-12+000799999V0203601N002112200019N0400001N1+00911+00721102971ADDAY101061AY201061GA1001+999999999GF100991001001999999001001MA1999999102911MD1710041+9999MW1021REMSYN066AAXX  25004 01467 41982 03604 10091 20072 30291 40297 57004 70200;
0171014670999992000092503004+58630+009140FM-12+000799999V0203601N002112200019N0400001N1+00851+00541102881ADDAY101031AY201031GA1001+999999999GF100991001001999999001001MA1999999102821MD1710091+9999MW1021REMSYN066AAXX  25034 01467 41982 03604 10085 20054 30282 40288 57009 70200;
0214014670999992000092506004+58630+009140FM-12+000799999V0203601N002112200019N0400001N1+00801+00551102861ADDAA199000091AY101061AY201061GF101991011001017501041001KA1999N+00801MA1999999102801MD1710021+9999MW1031REMSYN082AAXX  25064 01467 31782 13604 10080 20055 30280 40286 57002 70300 81040 333 20080;EQDQ01  00002PRCP99
0155014670999992000092509004+58630+009140FM-12+000799999V0200601N002110300019N0400001N1+01101+00721999999ADDAY121031AY201031GF105991031051012501031001MA1999999102861MD1210061+9999MW1031REMSYN066AAXX  25094 01467 41682 50604 10110 20072 30286 52006 70320 83530;
0167014670999992000092512004+58630+009140FM-12+000799999V0200801N003112200019N0400001N1+01281+01001102881ADDAY121061AY201061GF101991999999012501999999MA1999999102821MD1810041+9999MW1011REMSYN078AAXX  25124 01467 41682 10806 10128 20100 30282 40288 58004 70120 222// 00140;
0161014670999992000092515004+58630+009140FM-12+000799999V0200801N001012200019N0400001N1+01291+01121102751ADDAY121031AY201031GF101991011021012501001001MA1999999102691MD1710131+9999MW1011REMSYN072AAXX  25154 01467 41682 10802 10129 20112 30269 40275 57013 70120 81200;
0214014670999992000092518004+58630+009140FM-12+000799999V0203601N001012200019N0400001N1+01181+01121102711ADDAA199000091AY121061AY201061GF101991011011012501001001KA1999M+01291MA1999999102651MD1610041+9999MW1021REMSYN082AAXX  25184 01467 31682 13602 10118 20112 30265 40271 56004 70220 81100 333 10129;EQDQ01  00002PRCP99
0161014670999992000092600004+58630+009140FM-12+000799999V0209999C000012200019N0400001N1+00941+00571102641ADDAY101061AY201061GF102991011041008001001021MA1999999102581MD1610021+9999MW1021REMSYN072AAXX  26004 01467 41582 20000 10094 20057 30258 40264 56002 70200 81402;
0161014670999992000092603004+58630+009140FM-12+000799999V0203601N001012200019N0400001N1+00891+00861102611ADDAY101031AY201031GF102991011041008001001021MA1999999102551MD1710031+9999MW1021REMSYN072AAXX  26034 01467 41582 23602 10089 20086 30255 40261 57003 70200 81402;
0214014670999992000092606004+58630+009140FM-12+000799999V0203601N001010300019N0300001N1+00871+00831102641ADDAA199000091AY121061AY201061GF106991041031008001031021KA1999N+00871MA1999999102581MD1510031+9999MW1031REMSYN082AAXX  26064 01467 31580 63602 10087 20083 30258 40264 55003 70320 84332 333 20087;EQDQ01  00002PRCP99
0161014670999992000092609004+58630+009140FM-12+000799999V0200701N002110300019N0300001N1+01081+00941102681ADDAY121031AY211031GF105991041031008001031011MA1999999102621MD1310041+9999MW1021REMSYN072AAXX  26094 01467 41580 50704 10108 20094 30262 40268 53004 70221 84331;
0161014670999992000092615004+58630+009140FM-12+000799999V0200701N002110300019N0300001N1+01221+00811102521ADDAY121031AY211031GF107991041071004501061021MA1999999102461MD1810101+9999MW1031REMSYN072AAXX  26154 01467 41480 70704 10122 20081 30246 40252 58010 70321 84762;
0214014670999992000092618004+58630+009140FM-12+000799999V0200601N002110300019N0300001N1+01221+00901102451ADDAA199000091AY121061AY221061GF106991031071004501061021KA1999M+01281MA1999999102391MD1610071+9999MW1021REMSYN082AAXX  26184 01467 31480 60604 10122 20090 30239 40245 56007 70222 83762 333 10128;EQDQ01  00002PRCP99
0161014670999992000092700004+58630+009140FM-12+000799999V0200201N002110300019N0300001N1+01081+01011102231ADDAY121061AY221061GF107991031051004501071999MA1999999102171MD1710011+9999MW1021REMSYN072AAXX  27004 01467 41480 70204 10108 20101 30217 40223 57001 70222 8357/;
0161014670999992000092703004+58630+009140FM-12+000799999V0200301N002110300019N0300001N1+01041+01001102051ADDAY121031AY221031GF107991021071004501021021MA1999999101991MD1710181+9999MW1021REMSYN072AAXX  27034 01467 41480 70304 10104 20100 30199 40205 57018 70222 82722;
0214014670999992000092706004+58630+009140FM-12+000799999V0200301N002110021019N0200001N1+01041+01001101931ADDAA199000091AY121061AY221061GF108991061061002501021999KA1999N+01001MA1999999101871MD1710121+9999MW1021REMSYN082AAXX  27064 01467 31370 80304 10104 20100 30187 40193 57012 70222 8662/ 333 20100;EQDQ01  00002PRCP99
0161014670999992000092709004+58630+009140FM-12+000799999V0200701N003110021019N0100001N1+01211+01181101761ADDAY161031AY221031GF108991061061002501021999MA1999999101701MD1710171+9999MW1601REMSYN072AAXX  27094 01467 41360 80706 10121 20118 30170 40176 57017 76062 8662/;
0173014670999992000092712004+58630+009140FM-12+000799999V0200901N003110021019N0030001N1+01311+01301101451ADDAY161061AY221061GF108991061061002501021999MA1999999101391MD1710311+9999MW1651REMSYN084AAXX  27124 01467 41330 80906 10131 20130 30139 40145 57031 76562 8662/ 222// 00134;
0161014670999992000092715004+58630+009140FM-12+000799999V0201201N003110021019N0020001N1+01311+01301101171ADDAY161031AY261031GF108991061071002501021999MA1999999101111MD1710281+9999MW1041REMSYN072AAXX  27154 01467 41320 81206 10131 20130 30111 40117 57028 70466 8672/;
0201014670999992000092718004+58630+009140FM-12+000799999V0201801N003110300019N0010001N1+01391+01381101011ADDAA112019191AY161061AY221061GF108991031061002501021999KA1999M+01391MA1999999100951MD1610161+9999MW1211REMSYN088AAXX  27184 01467 11310 81806 10139 20138 30095 40101 56016 60192 72162 8362/ 333 10139;
0161014670999992000092800004+58630+009140FM-12+000799999V0201801N003112200019N0100001N1+01361+01351100921ADDAY121061AY211061GF104991031061002501001021MA1999999100861MD1710101+9999MW1011REMSYN072AAXX  28004 01467 41360 41806 10136 20135 30086 40092 57010 70121 83602;
0155014670999992000092803004+58630+009140FM-12+000799999V0201801N003110300019N0050001N1+01351+01341999999ADDAY121031AY211031GF108991031061002501021999MA1999999100741MD1710121+9999MW1031REMSYN066AAXX  28034 01467 41350 81806 10135 20134 30074 57012 70321 8362/;
0200014670999992000092806004+58630+009140FM-12+000799999V0201601N002110300019N0020001N1+01321+01311100711ADDAA112000891AY161061AY221061GF108991041071002501021999KA1999N+01311MA1999999100651MD1710091+9999MW1621REMSYN087AAXX  28064 0146711320 81604 10132 20131 30065 40071 57009 69972 76262 8472/ 333 20131;
0161014670999992000092809004+58630+009140FM-12+000799999V0201601N003110021019N0010001N1+01341+01331100681ADDAY181031AY261031GF108991061061002501021999MA1999999100621MD1610031+9999MW1021REMSYN072AAXX  28094 01467 41310 81606 10134 20133 30062 40068 56003 70286 8662/;
0173014670999992000092812004+58630+009140FM-12+000799999V0201601N003110012019N0020001N1+01361+01351100621ADDAY181061AY261061GF108991061061001501021999MA1999999100561MD1810061+9999MW1621REMSYN084AAXX  28124 01467 41220 81606 10136 20135 30056 40062 58006 76286 8662/ 222// 00136;
0161014670999992000092815004+58630+009140FM-12+000799999V0201601N003110021019N0030001N1+01361+01351100511ADDAY161031AY281031GF108991061071002501021999MA1999999100451MD1810111+9999MW1631REMSYN072AAXX  28154 01467 41330 81606 10136 20135 30045 40051 58011 76368 8672/;
0201014670999992000092818004+58630+009140FM-12+000799999V0201601N003110021019N0030001N1+01381+01371100481ADDAA112008991AY161061AY261061GF108991061071002501021999KA1999M+01381MA1999999100421MD1610031+9999MW1631REMSYN088AAXX  28184 01467 11330 81606 10138 20137 30042 40048 56003 60092 76366 8672/ 333 10138;
0161014670999992000092900004+58630+009140FM-12+000799999V0201801N003110021019N0030001N1+01401+01391100531ADDAY161061AY261061GF108991061071002501021999MA1999999100471MD1210031+9999MW1611REMSYN072AAXX  29004 01467 41330 81806 10140 20139 30047 40053 52003 76166 8672/;
0161014670999992000092903004+58630+009140FM-12+000799999V0201701N002110021019N0030001N1+01401+01391100571ADDAY161031AY221031GF108991081061002501999999MA1999999100511MD1110041+9999MW1101REMSYN072AAXX  29034 01467 41330 81704 10140 20139 30051 40057 51004 71062 886//;
0201014670999992000092906004+58630+009140FM-12+000799999V0201701N002110012019N0030001N1+01401+01391100691ADDAA112002091AY161061AY221061GF108991081061001501999999KA1999N+01381MA1999999100631MD1310121+9999MW1101REMSYN088AAXX  29064 01467 11230 81704 10140 20139 30063 40069 53012 60022 71062 886// 333 20138;
0161014670999992000092909004+58630+009140FM-12+000799999V0201201N001010012019N0020001N1+01391+01381100831ADDAY161031AY251031GF108991081061001501999999MA1999999100771MD1210141+9999MW1581REMSYN072AAXX  29094 01467 41220 81202 10139 20138 30077 40083 52014 75865 886//;
0173014670999992000092912004+58630+009140FM-12+000799999V0200701N000510012019N0010001N1+01411+01401100891ADDAY161061AY241061GF108991081061001501999999MA1999999100831MD1210061+9999MW1121REMSYN084AAXX  29124 01467 41210 80701 10141 20140 30083 40089 52006 71264 886// 222// 00135;
0171014670999992000092915004+58630+009140FM-12+000799999V0209999C000010001519N0001001N1+01461+01351101011ADDAY141031AY221031GA1091+999999999GF109991091999999999999999MA1999999100951MD1210121+9999MW1471REMSYN066AAXX  29154 01467 41/01 90000 10146 20135 30095 40101 52012 74742;
0211014670999992000092918004+58630+009140FM-12+000799999V0209999C000010001519N0001001N1+01421+01411101111ADDAA112004191AY141061AY241061GA1091+999999999GF109991091999999999999999KA1999M+01461MA1999999101051MD1310101+9999MW1451REMSYN082AAXX  29184 01467 11/01 90000 10142 20141 30105 40111 53010 60042 74544 333 10146;
0161014670999992000093000004+58630+009140FM-12+000799999V0200201N000510021019N0100001N1+01441+01431101281ADDAY141061AY221061GF108991051061002501021999MA1999999101221MD1210101+9999MW1021REMSYN072AAXX  30004 01467 41360 80201 10144 20143 30122 40128 52010 70242 8562/;
0161014670999992000093003004+58630+009140FM-12+000799999V0209999C000010021019N0100001N1+01401+01391101351ADDAY121031AY221031GF108991051061002501071999MA1999999101291MD1110071+9999MW1021REMSYN072AAXX  30034 01467 41360 80000 10140 20139 30129 40135 51007 70222 8567/;
0201014670999992000093006004+58630+009140FM-12+000799999V0200201N000512200019N0100001N1+01341+01331101351ADDAA112000191AY121061AY211061GF104991041061002501001011KA1999N+01341MA1999999101291MD1410001+9999MW1011REMSYN088AAXX  30064 01467 11360 40201 10134 20133 30129 40135 54000 69922 70121 84601 333 20134;
0161014670999992000093009004+58630+009140FM-12+000799999V0200401N001012200019N0100001N1+01441+01431101461ADDAY121031AY211031GF104991041061002501001021MA1999999101401MD1210111+9999MW1021REMSYN072AAXX  30094 01467 41360 40402 10144 20143 30140 40146 52011 70221 84602;
0173014670999992000093012004+58630+009140FM-12+000799999V0200701N001012200019N0100001N1+01521+01441101491ADDAY111061AY211061GF101991011061002501001011MA1999999101431MD1010031+9999MW1011REMSYN084AAXX  30124 01467 41360 10702 10152 20144 30143 40149 50003 70111 81601 222// 00140;
0171014670999992000093015004+58630+009140FM-12+000799999V0200401N001012200019N0150001N1+01601+01451101441ADDAY101031AY201031GA1001+999999999GF100991001001999999001001MA1999999101381MD1810051+9999MW1021REMSYN066AAXX  30154 01467 41965 00402 10160 20145 30138 40144 58005 70200;
0214014670999992000093018004+58630+009140FM-12+000799999V0200401N000512200019N0150001N1+01541+01361101391ADDAA199000091AY101061AY201061GF101991001001999999001011KA1999M+01601MA1999999101331MD1610051+9999MW1021REMSYN082AAXX  30184 01467 31965 10401 10154 20136 30133 40139 56005 70200 80001 333 10160;EQDQ01  00002PRCP99
0171014670999992000100103004+58630+009140FM-12+000799999V0203601N000512200019N0150001N1+01321+01281101301ADDAY101031AY201031GA1001+999999999GF100991001001999999001001MA1999999101241MD1710091+9999MW1021REMSYN066AAXX  01034 01467 41965 03601 10132 20128 30124 40130 57009 70200;
0214014670999992000100106004+58630+009140FM-12+000799999V0200701N001010021019N0200001N1+01241+01171101351ADDAA199000091AY121061AY211061GF108991061061002501021999KA1999N+01241MA1999999101191MD1710051+9999MW1031REMSYN082AAXX  01064 01467 31370 80702 10124 20117 30119 40135 57005 70321 8662/ 333 20124;EQDQ01  00002PRCP99
0165014670999992000100109004+58630+009140FM-12+000799999V0200701N003110021019N0200001N1+01201+01131101251ADDAY121031AY221031GF108991071061002501021999MD1410001+9999MW1021REMSYN072AAXX  01094 01467 41370 80706 10120 20113 30019 40125 54000 70222 8762/;EQDQ01+100193APOSP 
0173014670999992000100112004+58630+009140FM-12+000799999V0200501N001010021019N0200001N1+01201+01131101111ADDAY121061AY221061GF108991061061002501021999MA1999999101051MD1710141+9999MW1021REMSYN084AAXX  01124 01467 41370 80502 10120 20113 30105 40111 57014 70222 8662/ 222// 00136;
0161014670999992000100115004+58630+009140FM-12+000799999V0200701N002110300019N0300001N1+01301+01051100991ADDAY121031AY211031GF106991031061002501031031MA1999999100931MD1810121+9999MW1011REMSYN072AAXX  01154 01467 41380 60704 10130 20105 30093 40099 58012 70121 83633;
0214014670999992000100118004+58630+009140FM-12+000799999V0200401N002110021019N0200001N1+01261+01121100861ADDAA199000091AY121061AY221061GF108991061061002501021999KA1999M+01301MA1999999100801MD1710131+9999MW1031REMSYN082AAXX  01184 01467 31370 80404 10126 20112 30080 40086 57013 70322 8662/ 333 10130;EQDQ01  00002PRCP99
0161014670999992000100200004+58630+009140FM-12+000799999V0200201N001012200019N0200001N1+01201+01161100671ADDAY121061AY201061GF102991021041008001001011MA1999999100611MD1810051+9999MW1011REMSYN072AAXX  02004 01467 41570 20202 10120 20116 30061 40067 58005 70120 82401;
0161014670999992000100203004+58630+009140FM-12+000799999V0200201N002110750019N0200001N1+01221+01181100581ADDAY121031AY211031GF106991031061002501001021MA1999999100521MD1710091+9999MW1031REMSYN072AAXX  02034 01467 41370 60204 10122 20118 30052 40058 57009 70321 83602;
0214014670999992000100206004+58630+009140FM-12+000799999V0200401N002110021019N0200001N1+01261+01231100511ADDAA199000091AY121061AY221061GF108991051061002501021999KA1999N+01201MA1999999100451MD1710071+9999MW1021REMSYN082AAXX  02064 01467 31370 80404 10126 20123 30045 40051 57007 70222 8562/ 333 20120;EQDQ01  00002PRCP99
0161014670999992000100209004+58630+009140FM-12+000799999V0200401N002110021019N0200001N1+01301+01241100481ADDAY121031AY221031GF108991051061002501021999MA1999999100421MD1810031+9999MW1021REMSYN072AAXX  02094 01467 41370 80404 10130 20124 30042 40048 58003 70222 8562/;
0173014670999992000100212004+58630+009140FM-12+000799999V0200201N001010300019N0150001N1+01281+01241100431ADDAY161061AY221061GF108991031061002501021999MA1999999100371MD1710051+9999MW1601REMSYN084AAXX  02124 01467 41365 80202 10128 20124 30037 40043 57005 76062 8362/ 222// 00137;
0161014670999992000100215004+58630+009140FM-12+000799999V0200201N001010021019N0150001N1+01241+01211100391ADDAY161031AY221031GF108991081061002501999999MA1999999100331MD1610041+9999MW1611REMSYN072AAXX  02154 01467 41365 80202 10124 20121 30033 40039 56004 76162 886//;
0201014670999992000100218004+58630+009140FM-12+000799999V0200201N001010021019N0150001N1+01221+01211100391ADDAA112005191AY161061AY221061GF108991061061002501021999KA1999M+01301MA1999999100331MD1410001+9999MW1611REMSYN088AAXX  02184 01467 11365 80202 10122 20121 30033 40039 54000 60052 76162 8662/ 333 10130;
0161014670999992000100300004+58630+009140FM-12+000799999V0202901N001010300019N0250001N1+01221+01181100691ADDAY161061AY251061GF108991041031002501021999MA1999999100631MD1210301+9999MW1611REMSYN072AAXX  03004 01467 41375 82902 10122 20118 30063 40069 52030 76165 8432/;
0161014670999992000100303004+58630+009140FM-12+000799999V0201801N000510300019N0250001N1+01201+01191100791ADDAY161031AY221031GF108991031071002501021999MA1999999100731MD1210101+9999MW1021REMSYN072AAXX  03034 01467 41375 81801 10120 20119 30073 40079 52010 70262 8372/;
0201014670999992000100306004+58630+009140FM-12+000799999V0202601N001012200019N0300001N1+01181+01151100951ADDAA112002091AY161061AY211061GF104991031001022501031091KA1999N+01181MA1999999100891MD1210161+9999MW1011REMSYN088AAXX  03064 01467 11880 42602 10118 20115 30089 40095 52016 60022 70161 83039 333 20118;
0161014670999992000100315004+58630+009140FM-12+000799999V0201801N001010300019N0300001N1+01421+01381101671ADDAY121031AY221031GF105991031041004501061041MA1999999101611MD1210361+9999MW1031REMSYN072AAXX  03154 01467 41480 51802 10142 20138 30161 40167 52036 70322 83464;
0214014670999992000100318004+58630+009140FM-12+000799999V0202101N001012200019N0300001N1+01321+01281101711ADDAA199000091AY121061AY221061GF104991021061004501041021KA1999M+01451MA1999999101651MD1210041+9999MW1011REMSYN082AAXX  03184 01467 31480 42102 10132 20128 30165 40171 52004 70122 82642 333 10145;EQDQ01  00002PRCP99
0171014670999992000100400004+58630+009140FM-12+000799999V0209999C000012200019N0200001N1+01281+01271101811ADDAY121061AY201061GA1001+999999999GF100991001001999999001001MA1999999101751MD1310021+9999MW1011REMSYN066AAXX  04004 01467 41970 00000 10128 20127 30175 40181 53002 70120;
0161014670999992000100403004+58630+009140FM-12+000799999V0209999C000010300019N0250001N1+01221+01181101741ADDAY121031AY221031GF108991041061022501021999MA1999999101681MD1810071+9999MW1011REMSYN072AAXX  04034 01467 41875 80000 10122 20118 30168 40174 58007 70122 8462/;
0214014670999992000100406004+58630+009140FM-12+000799999V0201801N002110300019N0200001N1+01351+01311101721ADDAA199000091AY121061AY221061GF108991041061002501021999KA1999N+01111MA1999999101661MD1710021+9999MW1011REMSYN082AAXX  04064 01467 31370 81804 10135 20131 30166 40172 57002 70122 8462/ 333 20111;EQDQ01  00002PRCP99
0155014670999992000100409004+58630+009140FM-12+000799999V0201801N003110300019N0200001N1+01351+01311999999ADDAY181031AY221031GF107991041061002501021999MA1999999101661MD1410001+9999MW1151REMSYN066AAXX  04094 01467 41370 71806 10135 20131 30166 54000 71582 8462/;
0173014670999992000100412004+58630+009140FM-12+000799999V0201801N003110021019N0200001N1+01401+01321101671ADDAY181061AY221061GF108991051061002501021999MA1999999101611MD1810051+9999MW1021REMSYN084AAXX  04124 01467 41370 81806 10140 20132 30161 40167 58005 70282 8562/ 222// 00135;
0161014670999992000100415004+58630+009140FM-12+000799999V0201801N004610021019N0100001N1+01321+01311101591ADDAY161031AY251031GF108991061061002501021999MA1999999101531MD1710081+9999MW1591REMSYN072AAXX  04154 01467 41360 81809 10132 20131 30153 40159 57008 75965 8662/;
0201014670999992000100418004+58630+009140FM-12+000799999V0201801N004610021019N0100001N1+01321+01311101481ADDAA112002091AY161061AY251061GF108991061061002501021999KA1999M+01401MA1999999101421MD1610111+9999MW1581REMSYN088AAXX  04184 01467 11360 81809 10132 20131 30142 40148 56011 60022 75865 8662/ 333 10140;
0161014670999992000100500004+58630+009140FM-12+000799999V0202401N001012200019N0300001N1+01221+01121101541ADDAY161061AY251061GF104991021061004501041011MA1999999101481MD1210061+9999MW1011REMSYN072AAXX  05004 01467 41480 42402 10122 20112 30148 40154 52006 70165 82641;
0161014670999992000100503004+58630+009140FM-12+000799999V0209999C000010300019N0300001N1+01181+01171101501ADDAY121031AY211031GF107991031061002501011091MA1999999101441MD1810041+9999MW1031REMSYN072AAXX  05034 01467 41380 70000 10118 20117 30144 40150 58004 70321 83619;
0201014670999992000100506004+58630+009140FM-12+000799999V0202701N000510300019N0300001N1+01161+01121101491ADDAA112000191AY121061AY221061GF108991021081002501021021KA1999N+01161MA1999999101431MD1810011+9999MW1021REMSYN088AAXX  05064 01467 11380 82701 10116 20112 30143 40149 58001 69922 70222 82822 333 20116;
0161014670999992000100509004+58630+009140FM-12+000799999V0200201N000510300019N0300001N1+01201+01121101531ADDAY121031AY221031GF107991041071002501061021MA1999999101471MD1210041+9999MW1011REMSYN072AAXX  05094 01467 41380 70201 10120 20112 30147 40153 52004 70122 84762;
0173014670999992000100512004+58630+009140FM-12+000799999V0201301N000510300019N0200001N1+01251+01211101481ADDAY181061AY261061GF108991041061002501021999MA1999999101421MD1710051+9999MW1811REMSYN084AAXX  05124 01467 41370 81301 10125 20121 30142 40148 57005 78186 8462/ 222// 00137;
0161014670999992000100515004+58630+009140FM-12+000799999V0200901N000510300019N0200001N1+01301+01261101341ADDAY181031AY261031GF108991041031002501061999MA1999999101281MD1710141+9999MW1151REMSYN072AAXX  05154 01467 41370 80901 10130 20126 30128 40134 57014 71586 8436/;
0201014670999992000100518004+58630+009140FM-12+000799999V0201301N001010300019N0200001N1+01301+01261101341ADDAA112000591AY181061AY261061GF107991041031002501061021KA1999M+01321MA1999999101281MD1410001+9999MW1151REMSYN088AAXX  05184 01467 11370 71302 10130 20126 30128 40134 54000 69942 71586 84362 333 10132;
0161014670999992000100600004+58630+009140FM-12+000799999V0200601N000510300019N0200001N1+01261+01251101311ADDAY181061AY221061GF108991031031002501021999MA1999999101251MD1810011+9999MW1801REMSYN072AAXX  06004 01467 41370 80601 10126 20125 30125 40131 58001 78082 8332/;
0161014670999992000100603004+58630+009140FM-12+000799999V0201601N000510300019N0200001N1+01301+01291101211ADDAY181031AY221031GF108991041031002501021999MA1999999101161MD1710091+9999MW1151REMSYN072AAXX  06034 01467 41370 81601 10130 20129 30116 40121 57009 71582 8432/;
0201014670999992000100606004+58630+009140FM-12+000799999V0201901N001010300019N0200001N1+01251+01241101241ADDAA112005191AY161061AY221061GF108991041061002501021999KA1999N+01251MA1999999101181MD1510021+9999MW1621REMSYN088AAXX  06064 01467 11370 81902 10125 20124 30118 40124 55002 60052 76262 8462/ 333 20125;
0161014670999992000100609004+58630+009140FM-12+000799999V0200901N002110021019N0100001N1+01301+01291101341ADDAY161031AY251031GF108991061061002501021999MA1999999101281MD1210101+9999MW1591REMSYN072AAXX  06094 01467 41360 80904 10130 20129 30128 40134 52010 75965 8662/;
0173014670999992000100612004+58630+009140FM-12+000799999V0200901N001010021019N0100001N1+01321+01281101501ADDAY181061AY261061GF108991061061002501021999MA1999999101441MD1210161+9999MW1151REMSYN084AAXX  06124 01467 41360 80902 10132 20128 30144 40150 52016 71586 8662/ 222// 00135;
0161014670999992000100615004+58630+009140FM-12+000799999V0200801N001010021019N0200001N1+01301+01261101541ADDAY181031AY261031GF108991061061002501021999MA1999999101481MD1210041+9999MW1151REMSYN072AAXX  06154 01467 41370 80802 10130 20126 30148 40154 52004 71586 8662/;
0201014670999992000100618004+58630+009140FM-12+000799999V0200801N002110021019N0150001N1+01351+01311101771ADDAA112007191AY181061AY251061GF108991061061002501999999KA1999M+01351MA1999999101711MD1210231+9999MW1801REMSYN088AAXX  06184 01467 11365 80804 10135 20131 30171 40177 52023 60072 78085 866// 333 10135;
0161014670999992000100700004+58630+009140FM-12+000799999V0200401N000510300019N0200001N1+01221+01181102211ADDAY121061AY221061GF107991041061002501021999MA1999999102151MD1210441+9999MW1011REMSYN072AAXX  07004 01467 41370 70401 10122 20118 30215 40221 52044 70122 8462/;
0161014670999992000100703004+58630+009140FM-12+000799999V0200401N001012200019N0200001N1+01181+01141102221ADDAY121031AY221031GF104991021061002501041999MA1999999102161MD1210011+9999MW1011REMSYN072AAXX  07034 01467 41370 40402 10118 20114 30216 40222 52001 70122 8264/;
0201014670999992000100706004+58630+009140FM-12+000799999V0203401N000510300019N0200001N1+01051+01011102231ADDAA112000591AY121061AY221061GF106991021061002501071021KA1999N+01051MA1999999102171MD1210011+9999MW1031REMSYN088AAXX  07064 01467 11370 63401 10105 20101 30217 40223 52001 69942 70322 82672 333 20105;
0161014670999992000100709004+58630+009140FM-12+000799999V0200101N000512200019N0300001N1+01221+01181102391ADDAY121031AY221031GF104991021041004501031011MA1999999102331MD1210161+9999MW1011REMSYN072AAXX  07094 01467 41480 40101 10122 20118 30233 40239 52016 70122 82431;
0173014670999992000100712004+58630+009140FM-12+000799999V0201801N001012200019N0300001N1+01351+01211102341ADDAY111061AY201061GF103991011021004501031011MA1999999102281MD1710051+9999MW1011REMSYN084AAXX  07124 01467 41480 31802 10135 20121 30228 40234 57005 70110 81231 222// 00135;
0161014670999992000100715004+58630+009140FM-12+000799999V0201801N001012200019N0300001N1+01351+01211102301ADDAY111031AY201031GF103991011041008001041021MA1999999102241MD1710041+9999MW1021REMSYN072AAXX  07154 01467 41580 31802 10135 20121 30224 40230 57004 70210 81442;
0214014670999992000100718004+58630+009140FM-12+000799999V0201801N000512200019N0300001N1+01251+01011102221ADDAA199000091AY111061AY201061GF103991011041008001031021KA1999M+01351MA1999999102161MD1710081+9999MW1021REMSYN082AAXX  07184 01467 31580 31801 10125 20101 30216 40222 57008 70210 81432 333 10135;EQDQ01  00002PRCP99
0161014670999992000100800004+58630+009140FM-12+000799999V0202001N001010300019N0280001N1+01121+01081102041ADDAY181061AY261061GF108991041061002501021999MA1999999101981MD1710181+9999MW1811REMSYN072AAXX  08004 01467 41378 82002 10112 20108 30198 40204 57018 78186 8462/;
0161014670999992000100803004+58630+009140FM-12+000799999V0202001N001010300019N0280001N1+01251+01211101801ADDAY181031AY261031GF108991041061002501021999MA1999999101741MD1710241+9999MW1811REMSYN072AAXX  08034 01467 41378 82002 10125 20121 30174 40180 57024 78186 8462/;
0201014670999992000100806004+58630+009140FM-12+000799999V0201801N002110300019N0250001N1+01121+00981101701ADDAA112004191AY161061AY221061GF108991021041002501021999KA1999N+01001MA1999999101641MD1710101+9999MW1621REMSYN088AAXX  08064 01467 11375 81804 10112 20098 30164 40170 57010 60042 76262 8242/ 333 20100;
0161014670999992000100809004+58630+009140FM-12+000799999V0201801N002110300019N0280001N1+01211+01041101641ADDAY161031AY221031GF106991041061008001041041MA1999999101581MD1710061+9999MW1011REMSYN072AAXX  08094 01467 41578 61804 10121 20104 30158 40164 57006 70162 84644;
0173014670999992000100812004+58630+009140FM-12+000799999V0201801N003110300019N0280001N1+01261+01091101551ADDAY121061AY221061GF106991041021008001031021MA1999999101491MD1710091+9999MW1021REMSYN084AAXX  08124 01467 41578 61806 10126 20109 30149 40155 57009 70222 84232 222// 00132;
0161014670999992000100815004+58630+009140FM-12+000799999V0201801N003112200019N0300001N1+01221+00981101461ADDAY111031AY201031GF104991021021004501041021MA1999999101401MD1710091+9999MW1011REMSYN072AAXX  08154 01467 41480 41806 10122 20098 30140 40146 57009 70110 82242;
0201014670999992000100818004+58630+009140FM-12+000799999V0201801N003110300019N0300001N1+01221+00981101381ADDAA112000191AY181061AY261061GF106991021031004501041021KA1999M+01261MA1999999101321MD1710081+9999MW1151REMSYN088AAXX  08184 01467 11480 61806 10122 20098 30132 40138 57008 69922 71586 82342 333 10126;
0161014670999992000100900004+58630+009140FM-12+000799999V0201801N003112200019N0300001N1+01151+00851101221ADDAY111061AY201061GF103991011061004501041001MA1999999101061MD1710261+9999MW1011REMSYN072AAXX  09004 01467 41480 31806 10115 20085 30106 40122 57026 70110 81640;
0161014670999992000100903004+58630+009140FM-12+000799999V0201801N003112200019N0300001N1+01121+00771100951ADDAY111031AY201031GF103991011061004501041001MA1999999100891MD1710171+9999MW1021REMSYN072AAXX  09034 01467 41480 31806 10112 20077 30089 40095 57017 70210 81640;
0201014670999992000100906004+58630+009140FM-12+000799999V0201301N003110300019N0250001N1+01121+01081100781ADDAA112000591AY161061AY251061GF108991041061002501021999KA1999N+01101MA1999999100711MD1710111+9999MW1581REMSYN088AAXX  09064 01467 11375 81306 10112 20108 30071 40078 57011 69942 75865 8462/ 333 20110;
0161014670999992000100909004+58630+009140FM-12+000799999V0201301N006210300019N0250001N1+01121+01081100641ADDAY161031AY251031GF108991041061002501021999MA1999999100581MD1710131+9999MW1581REMSYN072AAXX  09094 01467 41375 81312 10112 20108 30058 40064 57013 75865 8462/;
0173014670999992000100912004+58630+009140FM-12+000799999V0201601N006210300019N0250001N1+01221+01181100561ADDAY161061AY251061GF108991041061002501061999MA1999999100501MD1710081+9999MW1581REMSYN084AAXX  09124 01467 41375 81612 10122 20118 30050 40056 57008 75865 8466/ 222// 00128;
0161014670999992000100915004+58630+009140FM-12+000799999V0202001N003110300019N0250001N1+01201+00921100561ADDAY161031AY251031GF108991041071002501061999MA1999999100501MD1410001+9999MW1021REMSYN072AAXX  09154 01467 41375 82006 10120 20092 30050 40056 54000 70265 8476/;
0201014670999992000100918004+58630+009140FM-12+000799999V0203401N001010300019N0300001N1+01101+00961100541ADDAA112005191AY161061AY251061GF106991021061004501041011KA1999M+01251MA1999999100481MD1610021+9999MW1011REMSYN088AAXX  09184 01467 11480 63402 10110 20096 30048 40054 56002 60052 70165 82641 333 10125;
0161014670999992000101000004+58630+009140FM-12+000799999V0203601N002110300019N0170001N1+00881+00851100241ADDAY161061AY221061GF108991041071004501021999MA1999999100181MD1710181+9999MW1611REMSYN072AAXX  10004 01467 41467 83604 10088 20085 30018 40024 57018 76162 8472/;
0161014670999992000101003004+58630+009140FM-12+000799999V0201601N003110300019N0200001N1+01181+01141099921ADDAY161031AY251031GF108991041061004501021999MA1999999099861MD1710321+9999MW1581REMSYN072AAXX  10034 01467 41470 81606 10118 20114 39986 49992 57032 75865 8462/;
0201014670999992000101006004+58630+009140FM-12+000799999V0201601N003110300019N0200001N1+01201+01161099721ADDAA112007191AY161061AY251061GF108991041081004501061999KA1999N+00881MA1999999099661MD1710201+9999MW1581REMSYN088AAXX  10064 01467 11470 81606 10120 20116 39966 49972 57020 60072 75865 8486/ 333 20088;
0161014670999992000101009004+58630+009140FM-12+000799999V0201501N004610042019N0080001N1+01101+01071099661ADDAY181031AY251031GF108991061091004501071999MA1999999099601MD1710061+9999MW1811REMSYN072AAXX  10094 01467 41458 81509 10110 20107 39960 49966 57006 78185 8697/;
0173014670999992000101012004+58630+009140FM-12+000799999V0201301N006210300019N0250001N1+01201+01091099471ADDAY181061AY251061GF108991031091004501071999MA1999999099411MD1710211+9999MW1021REMSYN084AAXX  10124 01467 41475 81312 10120 20109 39941 49947 57021 70285 8397/ 222// 00132;
0161014670999992000101015004+58630+009140FM-12+000799999V0201101N006210042019N0220001N1+01181+01091099221ADDAY181031AY221031GF108991051091004501071999MA1999999099161MD1710151+9999MW1801REMSYN072AAXX  10154 01467 41472 81112 10118 20109 39916 49922 57015 78082 8597/;
0201014670999992000101018004+58630+009140FM-12+000799999V0201301N007710042019N0120001N1+01161+01121099111ADDAA112007991AY181061AY221061GF108991061091004501071999KA1999M+01201MA1999999099051MD1710111+9999MW1821REMSYN088AAXX  10184 01467 11462 81315 10116 20112 39905 49911 57011 60082 78282 8697/ 333 10120;
0161014670999992000101100004+58630+009140FM-12+000799999V0201801N006210300019N0200001N1+01201+01161099161ADDAY181061AY221061GF108991041071004501061999MA1999999099101MD1710051+9999MW1021REMSYN072AAXX  11004 01467 41470 81812 10120 20116 39910 49916 57005 70282 8476/;
0161014670999992000101103004+58630+009140FM-12+000799999V0201601N006210300019N0300001N1+01181+00831099121ADDAY121031AY221031GF106991041051008001071001MA1999999099061MD1310061+9999MW1011REMSYN072AAXX  11034 01467 41580 61612 10118 20083 39906 49912 53006 70122 84570;
0161014670999992000101109004+58630+009140FM-12+000799999V0201601N006212200019N0300001N1+01201+00821099191ADDAY121031AY211031GF104991041031008001001001MA1999999099131MD1310071+9999MW1011REMSYN072AAXX  11094 01467 41580 41612 10120 20082 39913 49919 53007 70121 84300;
0173014670999992000101112004+58630+009140FM-12+000799999V0201101N007710300019N0300001N1+01201+00821099211ADDAY121061AY221061GF107991041071004501071999MA1999999099151MD1310021+9999MW1031REMSYN084AAXX  11124 01467 41480 71115 10120 20082 39915 49921 53002 70322 8477/ 222// 00128;
0161014670999992000101115004+58630+009140FM-12+000799999V0201101N007710300019N0250001N1+01221+01031099031ADDAY181031AY261031GF108991041071002501061999MA1999999098971MD1710181+9999MW1811REMSYN072AAXX  11154 01467 41375 81115 10122 20103 39897 49903 57018 78186 8476/;
0220014670999992000101118004+58630+009140FM-12+000799999V0201101N007710300019N0250001N1+01221+01031099842ADDAA112001091AY181061AY261061GF108991041071002501061999KA1999M+01251MA1999999098781MD1710191+9999MW1811REMSYN088AAXX  11184 01467 11375 81115 10122 20103 39878 49984 57019 60012 78186 8476/ 333 10125;EQDQ01+099843APOSLP
0161014670999992000101200004+58630+009140FM-12+000799999V0201501N006210042019N0220001N1+01271+01181099111ADDAY181061AY221061GF107991051091004501071999MA1999999099051MD1210251+9999MW1811REMSYN072AAXX  12004 01467 41472 71512 10127 20118 39905 49911 52025 78182 8597/;
0161014670999992000101203004+58630+009140FM-12+000799999V0201801N006212200019N0300001N1+01231+01141099391ADDAY181031AY221031GF102991011041004501041021MA1999999099331MD1210281+9999MW1011REMSYN072AAXX  12034 01467 41480 21812 10123 20114 39933 49939 52028 70182 81442;
0201014670999992000101206004+58630+009140FM-12+000799999V0201101N003112200019N0300001N1+01231+01021099671ADDAA112007191AY121061AY221061GF103991011021004501061021KA1999N+01201MA1999999099611MD1210281+9999MW1031REMSYN088AAXX  12064 01467 11480 31106 10123 20102 39961 49967 52028 60072 70322 81262 333 20120;
0161014670999992000101209004+58630+009140FM-12+000799999V0201501N002110300019N0300001N1+01301+01231099891ADDAY121031AY211031GF107991031091008001041999MA1999999099831MD1210221+9999MW1031REMSYN072AAXX  12094 01467 41580 71504 10130 20123 39983 49989 52022 70321 8394/;
0173014670999992000101212004+58630+009140FM-12+000799999V0201501N002110300019N0300001N1+01401+01291099931ADDAY121061AY211061GF107991021091008001041021MA1999999099871MD1210041+9999MW1021REMSYN084AAXX  12124 01467 41580 71504 10140 20129 39987 49993 52004 70221 82942 222// 00130;
0161014670999992000101215004+58630+009140FM-12+000799999V0201501N001010075019N0200001N1+01331+01291100031ADDAY121031AY221031GF107991051031008001041021MA1999999099971MD1210101+9999MW1021REMSYN072AAXX  12154 01467 41570 71502 10133 20129 39997 40003 52010 70222 85342;
0214014670999992000101218004+58630+009140FM-12+000799999V0201501N001012200019N0280001N1+01281+01241100161ADDAA199000091AY121061AY211061GF104991021031008001041001KA1999M+01401MA1999999100101MD1210131+9999MW1011REMSYN082AAXX  12184 01467 31578 41502 10128 20124 30010 40016 52013 70121 82340 333 10140;EQDQ01  00002PRCP99
0161014670999992000101300004+58630+009140FM-12+000799999V0203401N000512200019N0300001N1+00901+00861100551ADDAY111061AY201061GF102991011041004501041011MA1999999100491MD1210391+9999MW1011REMSYN072AAXX  13004 01467 41480 23401 10090 20086 30049 40055 52039 70110 81441;
0161014670999992000101303004+58630+009140FM-12+000799999V0203601N001010300019N0280001N1+00981+00971100731ADDAY181031AY211031GF107991041091004501071999MA1999999100671MD1210181+9999MW1031REMSYN072AAXX  13034 01467 41478 73602 10098 20097 30067 40073 52018 70381 8497/;
0201014670999992000101306004+58630+009140FM-12+000799999V0200201N001010300019N0200001N1+01091+01081100891ADDAA112001091AY181061AY211061GF108991031091004501071999KA1999N+00901MA1999999100831MD1210161+9999MW1031REMSYN088AAXX  13064 01467 11470 80202 10109 20108 30083 40089 52016 69992 70381 8397/ 333 20090;
0161014670999992000101309004+58630+009140FM-12+000799999V0200301N001010300019N0300001N1+01151+01061100971ADDAY121031AY221031GF106991021061004501031021MA1999999100911MD1210081+9999MW1011REMSYN072AAXX  13094 01467 41480 60302 10115 20106 30091 40097 52008 70122 82632;
0173014670999992000101312004+58630+009140FM-12+000799999V0201301N001010021019N0250001N1+01251+01241101031ADDAY181061AY261061GF108991051061002501061999MA1999999100971MD1210061+9999MW1801REMSYN084AAXX  13124 01467 41375 81302 10125 20124 30097 40103 52006 78086 8566/ 222// 00123;
0161014670999992000101315004+58630+009140FM-12+000799999V0202501N003110300019N0180001N1+01261+01231101041ADDAY181031AY221031GF107991031091004501071999MA1999999100981MD1010011+9999MW1251REMSYN072AAXX  13154 01467 41468 72506 10126 20123 30098 40104 50001 72582 8397/;
0201014670999992000101318004+58630+009140FM-12+000799999V0201801N000510300019N0200001N1+01251+01221101091ADDAA112002091AY181061AY221061GF108991031051004501071999KA1999M+01261MA1999999101031MD1310051+9999MW1031REMSYN088AAXX  13184 01467 11470 81801 10125 20122 30103 40109 53005 60022 70382 8357/ 333 10126;
0161014670999992000101400004+58630+009140FM-12+000799999V0202701N001010300019N0180001N1+01151+01081101111ADDAY181061AY221061GF107991041091004501071999MA1999999101051MD1510001+9999MW1801REMSYN072AAXX  14004 01467 41468 72702 10115 20108 30105 40111 55000 78082 8497/;
0161014670999992000101403004+58630+009140FM-12+000799999V0203301N001010300019N0280001N1+01021+00991101051ADDAY181031AY221031GF107991041091004501071999MA1999999100991MD1710061+9999MW1021REMSYN072AAXX  14034 01467 41478 73302 10102 20099 30099 40105 57006 70282 8497/;
0201014670999992000101406004+58630+009140FM-12+000799999V0202101N001010021019N0200001N1+01201+01171101051ADDAA112000591AY181061AY221061GF107991061061002501041001KA1999N+01011MA1999999100991MD1410001+9999MW1021REMSYN088AAXX  14064 01467 11370 72102 10120 20117 30099 40105 54000 69942 70282 86640 333 20101;
0161014670999992000101409004+58630+009140FM-12+000799999V0202201N000512200019N0300001N1+01141+01081101211ADDAY121031AY211031GF102991011021008001041011MA1999999101151MD1310161+9999MW1011REMSYN072AAXX  14094 01467 41580 22201 10114 20108 30115 40121 53016 70121 81241;
0173014670999992000101412004+58630+009140FM-12+000799999V0202101N002110300019N0280001N1+01251+01141101321ADDAY121061AY211061GF106991011031008001031021MA1999999101261MD1210111+9999MW1031REMSYN084AAXX  14124 01467 41578 62104 10125 20114 30126 40132 52011 70321 81332 222// 00125;
0161014670999992000101415004+58630+009140FM-12+000799999V0202101N003110300019N0280001N1+01261+01171101401ADDAY121031AY221031GF107991021051008001071081MA1999999101341MD1210081+9999MW1031REMSYN072AAXX  14154 01467 41578 72106 10126 20117 30134 40140 52008 70322 82578;
0214014670999992000101418004+58630+009140FM-12+000799999V0201801N002110300019N0280001N1+01241+01201101481ADDAA199000091AY121061AY221061GF108991041051008001071999KA1999M+01271MA1999999101421MD1210091+9999MW1031REMSYN082AAXX  14184 01467 31578 81804 10124 20120 30142 40148 52009 70322 8457/ 333 10127;EQDQ01  00002PRCP99
0161014670999992000101500004+58630+009140FM-12+000799999V0202501N001010300019N0280001N1+01211+01171101621ADDAY181061AY221061GF108991031091008001071999MA1999999101561MD1210071+9999MW1021REMSYN072AAXX  15004 01467 41578 82502 10121 20117 30156 40162 52007 70282 8397/;
0161014670999992000101503004+58630+009140FM-12+000799999V0202701N000510300019N0300001N1+01121+01081101641ADDAY121031AY221031GF107991021051008001071999MA1999999101581MD1110021+9999MW1011REMSYN072AAXX  15034 01467 41580 72701 10112 20108 30158 40164 51002 70122 8257/;
0173014670999992000101506004+58630+009140FM-12+000799999V0202601N000510300019N0200001N1+01141+01111101771ADDAA112000191GF108991031061002501071999KA1999N+01101MA1999999101711MD1310131+9999REMSYN082AAXX  15064 01467 11370 82601 10114 20111 30171 40177 53013 69922 8367/ 333 20110;
0161014670999992000101509004+58630+009140FM-12+000799999V0202601N000510300019N0200001N1+01181+01151101911ADDAY121031AY221031GF108991021091004501071999MA1999999101851MD1210141+9999MW1021REMSYN072AAXX  15094 01467 41470 82601 10118 20115 30185 40191 52014 70222 8297/;
0173014670999992000101512004+58630+009140FM-12+000799999V0201801N003110021019N0080001N1+01261+01231101961ADDAY121061AY221061GF108991081061002501999999MA1999999101901MD1110051+9999MW1101REMSYN084AAXX  15124 01467 41358 81806 10126 20123 30190 40196 51005 71022 886// 222// 00126;
0161014670999992000101515004+58630+009140FM-12+000799999V0201701N002110021019N0080001N1+01251+01221101901ADDAY121031AY221031GF108991081061002501999999MA1999999101841MD1810061+9999MW1101REMSYN072AAXX  15154 01467 41358 81704 10125 20122 30184 40190 58006 71022 886//;
0214014670999992000101518004+58630+009140FM-12+000799999V0201801N000510042019N0120001N1+01131+01041102021ADDAA199000091AY121061AY221061GF108991061061004501071999KA1999M+01261MA1999999101961MD1310121+9999MW1021REMSYN082AAXX  15184 01467 31462 81801 10113 20104 30196 40202 53012 70222 8667/ 333 10126;EQDQ01  00002PRCP99
0161014670999992000101600004+58630+009140FM-12+000799999V0200901N002110300019N0300001N1+01161+01051101881ADDAY121061AY221061GF108991031051008001071999MA1999999101821MD1810091+9999MW1021REMSYN072AAXX  16004 01467 41580 80904 10116 20105 30182 40188 58009 70222 8357/;
0161014670999992000101603004+58630+009140FM-12+000799999V0200701N003110075019N0220001N1+01121+01081101721ADDAY121031AY221031GF108991051051008001071999MA1999999101661MD1710161+9999MW1021REMSYN072AAXX  16034 01467 41572 80706 10112 20108 30166 40172 57016 70222 8557/;
0214014670999992000101606004+58630+009140FM-12+000799999V0200701N004610075019N0220001N1+01131+01091101491ADDAA199000091AY121061AY221061GF108991081051008001999999KA1999N+01111MA1999999101431MD1710231+9999MW1021REMSYN082AAXX  16064 01467 31572 80709 10113 20109 30143 40149 57023 70222 885// 333 20111;EQDQ01  00002PRCP99
0161014670999992000101609004+58630+009140FM-12+000799999V0200701N004610075019N0250001N1+01141+01071101431ADDAY121031AY221031GF108991081051008001999999MA1999999101371MD1610061+9999MW1021REMSYN072AAXX  16094 01467 41575 80709 10114 20107 30137 40143 56006 70222 885//;
0173014670999992000101612004+58630+009140FM-12+000799999V0200701N006210300019N0100001N1+01181+01141101201ADDAY151061AY221061GF108991041071002501021999MA1999999101141MD1710231+9999MW1501REMSYN084AAXX  16124 01467 41360 80712 10118 20114 30114 40120 57023 75052 8472/ 222// 00126;
0161014670999992000101615004+58630+009140FM-12+000799999V0200801N004610042019N0220001N1+01271+01211100981ADDAY151031AY221031GF107991051051004501071999MA1999999100921MD1710221+9999MW1021REMSYN072AAXX  16154 01467 41472 70809 10127 20121 30092 40098 57022 70252 8557/;
0201014670999992000101618004+58630+009140FM-12+000799999V0200901N003110300019N0150001N1+01341+01301100931ADDAA112000191AY151061AY221061GF108991041071004501021999KA1999M+01341MA1999999100871MD1610051+9999MW1501REMSYN088AAXX  16184 01467 11465 80906 10134 20130 30087 40093 56005 69912 75052 8472/ 333 10134;
0161014670999992000101700004+58630+009140FM-12+000799999V0201701N004610042019N0150001N1+01351+01291100891ADDAY151061AY221061GF107991051051004501071999MA1999999100831MD1010001+9999MW1021REMSYN072AAXX  17004 01467 41465 71709 10135 20129 30083 40089 50000 70252 8557/;
0161014670999992000101703004+58630+009140FM-12+000799999V0201701N004610021019N0080001N1+01371+01341100831ADDAY121031AY221031GF108991081061002501999999MA1999999100771MD1810061+9999MW1101REMSYN072AAXX  17034 01467 41358 81709 10137 20134 30077 40083 58006 71022 886//;
0201014670999992000101706004+58630+009140FM-12+000799999V0201801N006210300019N0100001N1+01331+01291100811ADDAA112000191AY161061AY221061GF108991041071004501021999KA1999N+01321MA1999999100751MD1710021+9999MW1601REMSYN088AAXX  17064 01467 11460 81812 10133 20129 30075 40081 57002 69912 76062 8472/ 333 20132;
0161014670999992000101709004+58630+009140FM-12+000799999V0201801N006210042019N0150001N1+01301+01161101201ADDAY161031AY221031GF107991071091004501999999MA1999999101141MD1210391+9999MW1021REMSYN072AAXX  17094 01467 41465 71812 10130 20116 30114 40120 52039 70262 879//;
0173014670999992000101712004+58630+009140FM-12+000799999V0201801N004612200019N0300001N1+01361+01221101531ADDAY101061AY211061GF103991021021008001031001MA1999999101471MD1210331+9999MW1011REMSYN084AAXX  17124 01467 41580 31809 10136 20122 30147 40153 52033 70101 82230 222// 00130;
0161014670999992000101715004+58630+009140FM-12+000799999V0201801N003110042019N0200001N1+01291+01201101761ADDAY121031AY211031GF108991051051004501071999MA1999999101701MD1110231+9999MW1031REMSYN072AAXX  17154 01467 41470 81806 10129 20120 30170 40176 51023 70321 8557/;
0201014670999992000101718004+58630+009140FM-12+000799999V0201801N003110300019N0100001N1+01321+01281101851ADDAA112000791AY121061AY211061GF107991041051004501071001KA1999M+01361MA1999999101791MD1210091+9999MW1021REMSYN088AAXX  17184 01467 11460 71806 10132 20128 30179 40185 52009 69902 70221 84570 333 10136;
0161014670999992000101800004+58630+009140FM-12+000799999V0201801N002110300019N0300001N1+01271+01181101941ADDAY121061AY221061GF107991021091008001071999MA1999999101881MD1410001+9999MW1031REMSYN072AAXX  18004 01467 41580 71804 10127 20118 30188 40194 54000 70322 8297/;
0161014670999992000101803004+58630+009140FM-12+000799999V0201801N004610300019N0300001N1+01271+01231101931ADDAY121031AY221031GF108991041051008001071999MA1999999101871MD1710011+9999MW1021REMSYN072AAXX  18034 01467 41580 81809 10127 20123 30187 40193 57001 70222 8457/;
0195014670999992000101806004+58630+009140FM-12+000799999V0202301N004619999999N0200001N1+01181+01141101921ADDAA112000891AY161061AY221061GF106991999999004501999999KA1999N+01181MA1999999101861MD1510011+9999MW1211REMSYN082AAXX  18064 01467 31470 62309 10118 20114 30186 40192 55001 69972 72162 333 20118;
0161014670999992000101809004+58630+009140FM-12+000799999V0202101N001010300019N0280001N1+01121+01061102051ADDAY161031AY221031GF106991021091004501041021MA1999999101971MD1310131+9999MW1021REMSYN072AAXX  18094 01467 41478 62102 10112 20106 30197 40205 53013 70262 82942;
0173014670999992000101812004+58630+009140FM-12+000799999V0201901N006212200019N0300001N1+01281+01041102051ADDAY161061AY211061GF102991011021008001041011MA1999999101971MD1010001+9999MW1011REMSYN084AAXX  18124 01467 41580 21912 10128 20104 30197 40205 50000 70161 81241 222// 00130;
0161014670999992000101815004+58630+009140FM-12+000799999V0201801N006210300019N0400001N1+01271+00841101991ADDAY121031AY211031GF106991041031008001041011MA1999999101931MD1210041+9999MW1031REMSYN072AAXX  18154 01467 41582 61812 10127 20084 30193 40199 52004 70321 84341;
0201014670999992000101818004+58630+009140FM-12+000799999V0201801N006210300019N0400001N1+01261+00831101981ADDAA112000791AY121061AY211061GF106991031041008001041001KA1999M+01281MA1999999101921MD1710011+9999MW1021REMSYN088AAXX  18184 01467 11582 61812 10126 20083 30192 40198 57001 69902 70221 83440 333 10128;
0180014670999992000101900004+58630+009140FM-12+000799999V0201801N007712200019N0150001N1+01201+01031101971ADDAY161061AY221061GF103991999071004501021999MA1999999101911MD1710031+9999MW1601REMSYN072AAXX  19004 01467 41465 31815 10120 20103 30191 40197 57003 76062 8572/;EQDQ01+000052SCOTLC
0161014670999992000101903004+58630+009140FM-12+000799999V0201101N006210042019N0120001N1+01201+01031101491ADDAY161031AY221031GF108991051071004501021999MA1999999101881MD1710031+9999MW1611REMSYN072AAXX  19034 01467 41462 81112 10120 20103 30188 40149 57003 76162 8572/;
0201014670999992000101906004+58630+009140FM-12+000799999V0201801N006210300019N0280001N1+01221+00981101911ADDAA112000591AY161061AY221061GF107991041051008001071999KA1999N+01191MA1999999101851MD1710031+9999MW1011REMSYN088AAXX  19064 01467 11578 71812 10122 20098 30185 40191 57003 69952 70162 8457/ 333 20119;
0161014670999992000101909004+58630+009140FM-12+000799999V0201601N006210300019N0150001N1+01221+01051101871ADDAY121031AY221031GF107991041051008001071999MA1999999101811MD1710041+9999MW1021REMSYN072AAXX  19094 01467 41565 71612 10122 20105 30181 40187 57004 70222 8457/;
0173014670999992000101912004+58630+009140FM-12+000799999V0201501N006210300019N0100001N1+01201+01091101741ADDAY121061AY221061GF108991041051004501071999MA1999999101681MD1710131+9999MW1031REMSYN084AAXX  19124 01467 41460 81512 10120 20109 30168 40174 57013 70322 8457/ 222// 00128;
0161014670999992000101915004+58630+009140FM-12+000799999V0201701N006210300019N0050001N1+01221+01061101641ADDAY161031AY221031GF108991031071004501021999MA1999999101581MD1610101+9999MW1601REMSYN072AAXX  19154 01467 41450 81712 10122 20106 30158 40164 56010 76062 8372/;
0201014670999992000101918004+58630+009140FM-12+000799999V0202001N007710300019N0100001N1+01191+01051101641ADDAA112000891AY161061AY221061GF108991031071004501021999KA1999M+01231MA1999999101581MD1510001+9999MW1601REMSYN088AAXX  19184 01467 11460 82015 10119 20105 30158 40164 55000 69972 76062 8372/ 333 10123;
0161014670999992000102000004+58630+009140FM-12+000799999V0202701N001012200019N0400001N1+00961+00901102061ADDAY161061AY211061GF101991011041008001041001MA1999999102001MD1210211+9999MW1011REMSYN072AAXX  20004 01467 41582 12702 10096 20090 30200 40206 52021 70161 81440;
0180014670999992000102003004+58630+009140FM-12+000799999V0202901N001012200019N0400001N1+00821+00781102231ADDAY101031AY201031GF101991001001999999001011MA1999999102171MD1210171+9999MW1011REMSYN072AAXX  20034 01467 41882 12902 10082 20078 30217 40223 52017 70100 80001;EQDQ01+022502SCOLCB
0201014670999992000102006004+58630+009140FM-12+000799999V0203001N001012200019N0400001N1+00681+00641102341ADDAA112000591AY101061AY201061GF101991011021008001041001KA1999N+00681MA1999999102281MD1210111+9999MW1011REMSYN088AAXX  20064 01467 11582 13002 10068 20064 30228 40234 52011 69942 70100 81240 333 20068;
0173014670999992000102012004+58630+009140FM-12+000799999V0200901N001010075019N0400001N1+01091+00981102591ADDAY111061AY201061GF107991071051008001999999MA1999999102531MD1210161+9999MW1031REMSYN084AAXX  20124 01467 41582 70902 10109 20098 30253 40259 52016 70310 875// 222// 00125;
0161014670999992000102015004+58630+009140FM-12+000799999V0200501N002110075019N0200001N1+01091+01021102571ADDAY121031AY211031GF108991051051008001071999MA1999999102511MD1710021+9999MW1031REMSYN072AAXX  20154 01467 41570 80504 10109 20102 30251 40257 57002 70321 8557/;
0214014670999992000102018004+58630+009140FM-12+000799999V0200801N001010075019N0200001N1+01141+00981102561ADDAA199000091AY121061AY211061GF108991051051008001071999KA1999M+01141MA1999999102501MD1710011+9999MW1021REMSYN082AAXX  20184 01467 31570 80802 10114 20098 30250 40256 57001 70221 8557/ 333 10114;EQDQ01  00002PRCP99
0161014670999992000102100004+58630+009140FM-12+000799999V0201601N002110300019N0050001N1+01211+01171102421ADDAY151061AY221061GF108991041071004501021999MA1999999102361MD1610051+9999MW1501REMSYN072AAXX  21004 01467 41450 81604 10121 20117 30236 40242 56005 75052 8472/;
0161014670999992000102103004+58630+009140FM-12+000799999V0201401N003110300019N0100001N1+01231+01081102331ADDAY151031AY221031GF108991041071004501021999MA1999999102271MD1710091+9999MW1021REMSYN072AAXX  21034 01467 41460 81406 10123 20108 30227 40233 57009 70252 8472/;
0201014670999992000102106004+58630+009140FM-12+000799999V0201401N004610300019N0100001N1+01211+01061102181ADDAA112002091AY161061AY251061GF108991041071004501021999KA1999N+01101MA1999999102121MD1710151+9999MW1601REMSYN088AAXX  21064 01467 11460 81409 10121 20106 30212 40218 57015 60022 76065 8472/ 333 20110;
0161014670999992000102109004+58630+009140FM-12+000799999V0201601N004610042019N0030001N1+01241+01151102101ADDAY161031AY221031GF108991061051004501071999MA1999999102041MD1610081+9999MW1101REMSYN072AAXX  21094 01467 41430 81609 10124 20115 30204 40210 56008 71062 8657/;
0173014670999992000102112004+58630+009140FM-12+000799999V0201801N004610042019N0030001N1+01251+01151101981ADDAY161061AY221061GF108991051071004501021999MA1999999101921MD1710121+9999MW1601REMSYN084AAXX  21124 01467 41430 81809 10125 20115 30192 40198 57012 76062 8572/ 222// 00124;
0161014670999992000102115004+58630+009140FM-12+000799999V0201801N004610021019N0020001N1+01201+01161101811ADDAY161031AY221031GF108991061071002501021999MA1999999101751MD1610171+9999MW1601REMSYN072AAXX  21154 01467 41320 81809 10120 20116 30175 40181 56017 76062 8672/;
0201014670999992000102118004+58630+009140FM-12+000799999V0201901N002110021019N0030001N1+01221+01141101771ADDAA112000591AY161061AY221061GF108991061071002501021999KA1999M+01241MA1999999101711MD1710041+9999MW1601REMSYN088AAXX  21184 01467 11330 81904 10122 20114 30171 40177 57004 69942 76062 8672/ 333 10124;
0161014670999992000102200004+58630+009140FM-12+000799999V0202301N002110042019N0050001N1+01251+01211101561ADDAY161061AY221061GF107991061051004501071999MA1999999101501MD1610081+9999MW1101REMSYN072AAXX  22004 01467 41450 72304 10125 20121 30150 40156 56008 71062 8657/;
0161014670999992000102203004+58630+009140FM-12+000799999V0202701N002112200019N0200001N1+01181+01111101711ADDAY121031AY221031GF104991031041004501041001MA1999999101651MD1310151+9999MW1011REMSYN072AAXX  22034 01467 41470 42704 10118 20111 30165 40171 53015 70122 83440;
0220014670999992000102206004+58630+009140FM-12+000799999V0202801N001012200019N0300001N1+00991+00821101911ADDAA112001091AY121061AY201061GF101991999061004501041001KA1999N+00961MA1999999101851MD1210201+9999MW1091REMSYN088AAXX  22064 01467 11480 12802 10099 20082 30185 40191 52020 69992 70920 89640 333 20096;EQDQ01+000092SCOTLC
0161014670999992000102209004+58630+009140FM-12+000799999V0202701N002112200019N0400001N1+00991+00701102211ADDAY101031AY201031GF101991011001017501031001MA1999999102151MD1210301+9999MW1011REMSYN072AAXX  22094 01467 41782 12704 10099 20070 30215 40221 52030 70100 81030;
0173014670999992000102212004+58630+009140FM-12+000799999V0202901N001012200019N0500001N1+01321+00441102301ADDAY101061AY201061GF101991001001999999001051MA1999999102241MD1110091+9999MW1031REMSYN084AAXX  22124 01467 41984 12902 10132 20044 30224 40230 51009 70300 80005 222// 00125;
0161014670999992000102215004+58630+009140FM-12+000799999V0202101N002112200019N0500001N1+01321+00911102341ADDAY101031AY201031GF101991001001999999001051MA1999999102281MD1210041+9999MW1021REMSYN072AAXX  22154 01467 41984 12104 10132 20091 30228 40234 52004 70200 80005;
0214014670999992000102218004+58630+009140FM-12+000799999V0202201N001012200019N0500001N1+01021+00871102351ADDAA199000091AY101061AY201061GF103991011041012501041011KA1999M+01431MA1999999102291MD1210011+9999MW1031REMSYN082AAXX  22184 01467 31684 32202 10102 20087 30229 40235 52001 70300 81441 333 10143;EQDQ01  00002PRCP99
0161014670999992000102300004+58630+009140FM-12+000799999V0203101N000510300019N0300001N1+00811+00701102311ADDAY121061AY211061GF107991031051008001071999MA1999999102251MD1710101+9999MW1031REMSYN072AAXX  23004 01467 41580 73101 10081 20070 30225 40231 57010 70321 8357/;
0161014670999992000102303004+58630+009140FM-12+000799999V0200601N002110300019N0300001N1+00831+00761102061ADDAY161031AY221031GF108991031071004501021999MA1999999102001MD1710251+9999MW1611REMSYN072AAXX  23034 01467 41480 80604 10083 20076 30200 40206 57025 76162 8372/;
0201014670999992000102306004+58630+009140FM-12+000799999V0201101N002110021019N0050001N1+01061+01011101761ADDAA112002091AY161061AY221061GF108991051071002501021999KA1999N+00761MA1999999101701MD1710301+9999MW1611REMSYN088AAXX  23064 01467 11350 81104 10106 20101 30170 40176 57030 60022 76162 8572/ 333 20076;
0161014670999992000102309004+58630+009140FM-12+000799999V0203601N001010300019N0080001N1+01081+01031101671ADDAY161031AY221031GF108991031071002501021999MA1999999101611MD1610091+9999MW1101REMSYN072AAXX  23094 01467 41358 83602 10108 20103 30161 40167 56009 71062 8372/;
0173014670999992000102312004+58630+009140FM-12+000799999V0200701N001010021019N0080001N1+01031+00981101501ADDAY161061AY221061GF108991051071002501021999MA1999999101441MD1710171+9999MW1601REMSYN084AAXX  23124 01467 41358 80702 10103 20098 30144 40150 57017 76062 8572/ 222// 00120;
0161014670999992000102315004+58630+009140FM-12+000799999V0201201N000510021019N0030001N1+01131+01111101221ADDAY161031AY221031GF108991051071002501021999MA1999999101161MD1710281+9999MW1611REMSYN072AAXX  23154 01467 41330 81201 10113 20111 30116 40122 57028 76162 8572/;
0201014670999992000102318004+58630+009140FM-12+000799999V0202001N003110021019N0030001N1+01281+01231100891ADDAA112021191AY161061AY221061GF108991051071002501021999KA1999M+01281MA1999999100831MD1710331+9999MW1601REMSYN088AAXX  23184 01467 11330 82006 10128 20123 30083 40089 57033 60212 76062 8572/ 333 10128;
0161014670999992000102400004+58630+009140FM-12+000799999V0202201N000510300019N0100001N1+01221+01151100231ADDAY161061AY221061GF108991041071002501021041MA1999999100171MD1710321+9999MW1601REMSYN072AAXX  24004 01467 41360 82201 10122 20115 30017 40023 57032 76062 84724;
0161014670999992000102403004+58630+009140FM-12+000799999V0202401N003112200019N0300001N1+01131+01031100011ADDAY161031AY211031GF102991011041008001041001MA1999999099951MD1710221+9999MW1011REMSYN072AAXX  24034 01467 41580 22406 10113 20103 30995 40001 57022 70161 81440;
0201014670999992000102406004+58630+009140FM-12+000799999V0202201N003112200019N0300001N1+01081+00941099721ADDAA112002091AY121061AY211061GF104991021051008001071041KA1999N+01071MA1999999099661MD1710291+9999MW1031REMSYN088AAXX  24064 01467 11580 42206 10108 20094 39966 49972 57029 60022 70321 82574 333 20107;
0161014670999992000102409004+58630+009140FM-12+000799999V0202201N00311030001CN0300001N1+01131+00921099521ADDAY181031AY211031GF106991021061002501091999MA1999999099461MD1710201+9999MW1021REMSYN072AAXX  24094 01467 41380 62206 10113 20092 39946 49952 57020 70281 8269/;
0173014670999992000102412004+58630+009140FM-12+000799999V0202401N003112200019N0300001N1+01241+00741099541ADDAY181061AY211061GF104991011061004501061031MA1999999099491MD1710021+9999MW1011REMSYN084AAXX  24124 01467 41480 42406 10124 20074 39949 49954 57002 70181 81663 222// 00128;
0161014670999992000102415004+58630+009140FM-12+000799999V0202301N003112200019N0300001N1+01261+00651099541ADDAY121031AY211031GF104991021081004501071031MA1999999099491MD1410001+9999MW1021REMSYN072AAXX  24154 01467 41480 42306 10126 20065 39949 49954 54000 70221 82873;
0201014670999992000102418004+58630+009140FM-12+000799999V0202401N003112200019N0300001N1+01111+00691099651ADDAA112001091AY121061AY221061GF104991011081004501071021KA1999M+01311MA1999999099601MD1210111+9999MW1021REMSYN088AAXX  24184 01467 11480 42406 10111 20069 39960 49965 52011 69992 70222 81872 333 10131;
0171014670999992000102500004+58630+009140FM-12+000799999V0202301N003112200019N0400001N1+01001+00671099861ADDAY101061AY201061GA1001+999999999GF100991001001999999001001MA1999999099801MD1210101+9999MW1011REMSYN066AAXX  25004 01467 41982 02306 10100 20067 39980 49986 52010 70100;
0161014670999992000102503004+58630+009140FM-12+000799999V0202401N003112200019N0300001N1+00971+00731099841ADDAY101031AY201031GF101991011001017501041011MA1999999099791MD1710021+9999MW1021REMSYN072AAXX  25034 01467 41780 12406 10097 20073 39979 49984 57002 70200 81041;
0214014670999992000102506004+58630+009140FM-12+000799999V0202401N002112200019N0300001N1+00931+00681099681ADDAA199000091AY121061AY211061GF104991021081002501031091KA1999N+00901MA1999999099621MD1710161+9999MW1031REMSYN082AAXX  25064 01467 31380 42404 10093 20068 39962 49968 57016 70321 82839 333 20090;EQDQ01  00002PRCP99
0161014670999992000102509004+58630+009140FM-12+000799999V0202301N001010300019N0060001N1+00921+00791099461ADDAY161031AY201031GF108991031071002501021999MA1999999099401MD1710241+9999MW1031REMSYN072AAXX  25094 01467 41356 82302 10092 20079 39940 49946 57024 70360 8372/;
0173014670999992000102512004+58630+009140FM-12+000799999V0201401N002110300019N0100001N1+01061+00871098951ADDAY161061AY221061GF108991031061002501021999MA1999999098911MD1710441+9999MW1601REMSYN084AAXX  25124 01467 41360 81404 10106 20087 39891 49895 57044 76062 8362/ 222// 00124;
0196014670999992000102515004+58630+009140FM-12+000799999V0200601N004610021019N0050001N1+01021+00891098581ADDAY161031AY221031GF108991999031002501061999MA1999999098522MD1710491+9999MW1611REMSYN072AAXX  25154 01467 41350 80609 10102 20089 39852 49858 57049 76162 8836/;EQDQ01+000082SCOTLCQ02+098523APOSP 
0160014670999992000102518004+58630+009140FM-12+000799999V0200101N003110300019N0150001N1+00931+00841098581ADDAA112011991AY161061AY261061GF108991041071004501021999KA1999M+01071MW1611REMSYN076AAXX  25184 01467 11465 80106 10093 20084 49858 60122 76166 8472/ 333 10107;
0161014670999992000102600004+58630+009140FM-12+000799999V0201701N001010300019N0100001N1+00831+00721098931ADDAY161061AY221061GF108991041061002501021999MA1999999098871MD1210131+9999MW1601REMSYN072AAXX  26004 01467 41360 81702 10083 20072 39887 49893 52013 76062 8462/;
0170014670999992000102603004+58630+009140FM-12+000799999V0200301N001010300019N0100001N1+00821+00761999999ADDAY161031AY221031GF108991041061002501021999MA1999999098871MD1010001+9999ME1428939MW1601REMSYN072AAXX  26034 01467 41360 80302 10082 20076 39887 47893 50000 76062 8462/;
0201014670999992000102606004+58630+009140FM-12+000799999V0200201N003110300019N0100001N1+00971+00901098871ADDAA112003091AY161061AY221061GF108991041071002501021999KA1999N+00811MA1999999098811MD1710061+9999MW1611REMSYN088AAXX  26064 01467 11360 80206 10097 20090 39881 49887 57006 60032 76162 8472/ 333 20081;
0161014670999992000102609004+58630+009140FM-12+000799999V0203401N000510300019N0150001N1+00851+00751099121ADDAY161031AY221031GF108991031061002501021999MA1999999099071MD1210251+9999MW1601REMSYN072AAXX  26094 01467 41365 83401 10085 20075 39907 49912 52025 76062 8362/;
0173014670999992000102612004+58630+009140FM-12+000799999V0200301N001010021019N0200001N1+00911+00781099291ADDAY161061AY221061GF108991061071002501021999MA1999999099231MD1210171+9999MW1021REMSYN084AAXX  26124 01467 41370 80302 10091 20078 39923 49929 52017 70262 8672/ 222// 00120;
0161014670999992000102615004+58630+009140FM-12+000799999V0200101N001010021019N0200001N1+00871+00741099461ADDAY121031AY221031GF108991061071002501021999MA1999999099401MD1210171+9999MW1021REMSYN072AAXX  26154 01467 41370 80102 10087 20074 39940 49946 52017 70222 8672/;
0201014670999992000102618004+58630+009140FM-12+000799999V0200301N003110021019N0100001N1+00811+00631099721ADDAA112004191AY161061AY221061GF108991061071002501021999KA1999M+00921MA1999999099671MD1210261+9999MW1601REMSYN088AAXX  26184 01467 11360 80306 10081 20063 39967 49972 52026 60042 76062 8672/ 333 10092;
0161014670999992000102700004+58630+009140FM-12+000799999V0200201N003110300019N0300001N1+00591+00281100321ADDAY121061AY221061GF107991041041008001041999MA1999999100261MD1210301+9999MW1021REMSYN072AAXX  27004 01467 41580 70206 10059 20028 30026 40032 52030 70222 8444/;
0161014670999992000102703004+58630+009140FM-12+000799999V0200201N003110300019N0300001N1+00571+00291100541ADDAY121031AY211031GF107991041051008001021999MA1999999100481MD1210221+9999MW1021REMSYN072AAXX  27034 01467 41580 70206 10057 20029 30048 40054 52022 70221 8452/;
0201014670999992000102706004+58630+009140FM-12+000799999V0200201N003110300019N0300001N1+00531+00261100751ADDAA112000191AY121061AY221061GF108991031071004501021999KA1999N+00531MA1999999100691MD1210211+9999MW1021REMSYN088AAXX  27064 01467 11480 80206 10053 20026 30069 40075 52021 69912 70222 8372/ 333 20053;
0161014670999992000102709004+58630+009140FM-12+000799999V0200201N003110021019N0050001N1+00491+00331100961ADDAY151031AY221031GF108991051071002501021999MA1999999100901MD1210211+9999MW1501REMSYN072AAXX  27094 01467 41350 80206 10049 20033 30090 40096 52021 75052 8572/;
0173014670999992000102712004+58630+009140FM-12+000799999V0200201N003110042019N0200001N1+00561+00371101001ADDAY151061AY221061GF108991061071004501021999MA1999999100941MD1010041+9999MW1501REMSYN084AAXX  27124 01467 41470 80206 10056 20037 30094 40100 50004 75052 8672/ 222// 00116;
0161014670999992000102715004+58630+009140FM-12+000799999V0201201N003110042019N0200001N1+00751+00511101001ADDAY151031AY221031GF108991061071004501021999MA1999999100941MD1410001+9999MW1021REMSYN072AAXX  27154 01467 41470 81206 10075 20051 30094 40100 54000 70252 8672/;
0201014670999992000102718004+58630+009140FM-12+000799999V0201301N004610042019N0200001N1+00831+00361100941ADDAA112000191AY151061AY221061GF108991061071004501021999KA1999M+00851MA1999999100881MD1710061+9999MW1021REMSYN088AAXX  27184 01467 11470 81309 10083 20036 30088 40094 57006 69922 70252 8672/ 333 10085;
0161014670999992000102800004+58630+009140FM-12+000799999V0201301N006210021019N0100001N1+00961+00841100671ADDAY161061AY221061GF108991061071002501021999MA1999999100611MD1710191+9999MW1601REMSYN072AAXX  28004 01467 41360 81312 10096 20084 30061 40067 57019 76062 8672/;
0161014670999992000102803004+58630+009140FM-12+000799999V0200801N006210300019N0100001N1+00891+00831100521ADDAY161031AY221031GF108991041071002501021999MA1999999100481MD1710151+9999MW1021REMSYN072AAXX  28034 01467 41360 80812 10089 20083 30048 40052 57015 70262 8472/;
0201014670999992000102806004+58630+009140FM-12+000799999V0200201N004610021019N0100001N1+00521+00421100671ADDAA112007191AY161061AY221061GF108991051071002501021999KA1999N+00511MA1999999100611MD1210151+9999MW1001REMSYN088AAXX  28064 01467 11360 80209 10052 20042 30061 40067 52015 60072 70062 8572/ 333 20051;
0161014670999992000102809004+58630+009140FM-12+000799999V0200101N003110300019N0200001N1+00521+00331100911ADDAY161031AY221031GF107991031071002501071999MA1999999100851MD1210241+9999MW1021REMSYN072AAXX  28094 01467 41370 70106 10052 20033 30085 40091 52024 70262 8377/;
0173014670999992000102812004+58630+009140FM-12+000799999V0200201N002110021019N0200001N1+00611+00321101051ADDAY161061AY221061GF108991051071002501021999MA1999999100991MD1210141+9999MW1021REMSYN084AAXX  28124 01467 41370 80204 10061 20032 30099 40105 52014 70262 8572/ 222// 00114;
0161014670999992000102815004+58630+009140FM-12+000799999V0200401N002110300019N0200001N1+00571+00301101051ADDAY121031AY221031GF108991041071002501021999MA1999999100991MD1410001+9999MW1021REMSYN072AAXX  28154 01467 41370 80404 10057 20030 30099 40105 54000 70222 8472/;
0201014670999992000102818004+58630+009140FM-12+000799999V0200301N003110021019N0200001N1+00521+00251100971ADDAA112000591AY121061AY221061GF108991051071002501021999KA1999M+00631MA1999999100911MD1710081+9999MW1021REMSYN088AAXX  28184 01467 11370 80306 10052 20025 30091 40097 57008 69942 70222 8572/ 333 10063;
0161014670999992000102900004+58630+009140FM-12+000799999V0200501N007710021019N0100001N1+00621+00601100381ADDAY161061AY221061GF108991081071002501999999MA1999999100321MD1710421+9999MW1621REMSYN072AAXX  29004 01467 41360 80515 10062 20060 30032 40038 57042 76262 887//;
0161014670999992000102903004+58630+009140FM-12+000799999V0200801N007710021019N0100001N1+00891+00841099791ADDAY161031AY261031GF108991081071002501999999MA1999999099731MD1710591+9999MW1631REMSYN072AAXX  29034 01467 41360 80815 10089 20084 39973 49979 57059 76366 887//;
0201014670999992000102906004+58630+009140FM-12+000799999V0202001N006210021019N0060001N1+01161+01031099311ADDAA112025991AY161061AY261061GF108991051071002501021999KA1999N+00501MA1999999099251MD1710481+9999MW1631REMSYN088AAXX  29064 01467 11356 82012 10116 20103 39925 49931 57048 60262 76366 8572/ 333 20050;
0161014670999992000102909004+58630+009140FM-12+000799999V0202401N004610750019N0200001N1+01061+00761099431ADDAY181031AY261031GF105991021071002501071021MA1999999099371MD1210121+9999MW1011REMSYN072AAXX  29094 01467 41370 52409 10106 20076 39937 49943 52012 70186 82772;
0181014670999992000102912004+58630+009140FM-12+000799999V0202201N000510021019N0100001N1+00961+00631099551ADDAY181061AY261061GF108991061071002501061999MA1999999099491MD1210121+9999MW1801SA1+9999REMSYN084AAXX  29124 01467 41360 82201 10096 20063 39949 49955 52012 78086 8676/ 222// 00110;
0161014670999992000102915004+58630+009140FM-12+000799999V0202201N004610750019N0150001N1+01091+00601099441ADDAY181031AY221031GF105991021071002501061021MA1999999099381MD1710111+9999MW1011REMSYN072AAXX  29154 01467 41365 52209 10109 20060 39938 49944 57011 70182 82762;
0220014670999992000102918004+58630+009140FM-12+000799999V0202301N002112200019N0200001N1+01321+00631099431ADDAA112004191AY181061AY211061GF102991011071004501041021KA1999M+99999MA1999999099371MD1710011+9999MW1011REMSYN088AAXX  29184 01467 11470 22304 10132 20063 39937 49943 57001 60042 70181 81742 333 10113;EQDQ01 +01132ATMX  
0161014670999992000103000004+58630+009140FM-12+000799999V0201401N004610300019N0100001N1+00961+00641099191ADDAY181061AY211061GF106991031071002501061021MA1999999099131MD1710171+9999MW1801REMSYN072AAXX  30004 01467 41360 61409 10096 20064 39913 49919 57017 78081 83762;
0161014670999992000103003004+58630+009140FM-12+000799999V0201501N006210300019N0100001N1+00991+00731098791ADDAY181031AY211031GF107991041071002501061999MA1999999098731MD1710401+9999MW1021REMSYN072AAXX  30034 01467 41360 71512 10099 20073 39873 49879 57040 70281 8476/;
0201014670999992000103006004+58630+009140FM-12+000799999V0201401N009810021019N0060001N1+00961+00761098231ADDAA112007991AY181061AY261061GF108991061071002501021999KA1999N+00801MA1999999098171MD1710561+9999MW1621REMSYN088AAXX  30064 01467 11356 81419 10096 20076 39817 49823 57056 60082 76286 8672/ 333 20080;
0161014670999992000103009004+58630+009140FM-12+000799999V0202401N000510300019N0200001N1+00871+00521098261ADDAY161031AY221031GF108991031071002501021999MA1999999098201MD1210031+9999MW1021REMSYN072AAXX  30094 01467 41370 82401 10087 20052 39820 49826 52003 70262 8372/;
0181014670999992000103012004+58630+009140FM-12+000799999V0201101N006210021019N0100001N1+00921+00721097951ADDAY161061AY221061GF108991081071002501999999MA1999999097891MD1710311+9999MW1631SA1+9999REMSYN084AAXX  30124 01467 41360 81112 10092 20072 39789 49795 57031 76362 887// 222// 00110;
0161014670999992000103015004+58630+009140FM-12+000799999V0201601N007710021019N0030001N1+01141+01021097281ADDAY161031AY261031GF108991081071002501999999MA1999999097221MD1710671+9999MW1631REMSYN072AAXX  30154 01467 41330 81615 10114 20102 39722 49728 57067 76366 887//;
0201014670999992000103018004+58630+009140FM-12+000799999V0202001N007710021019N0030001N1+01051+00601096961ADDAA112021191AY161061AY261061GF108991081071002501999999KA1999M+01171MA1999999096901MD1710321+9999MW1631REMSYN088AAXX  30184 01467 11330 82015 10105 20060 39690 49696 57032 60212 76366 887// 333 10117;
0161014670999992000103100004+58630+009140FM-12+000799999V0202101N009310300019N0100001N1+01101+00481096861ADDAY181061AY261061GF108991041071002501061999MA1999999096801MD1710041+9999MW1151REMSYN072AAXX  31004 01467 41360 82118 10110 20048 39680 49686 57004 71586 8476/;
0161014670999992000103103004+58630+009140FM-12+000799999V0202201N009810021019N0100001N1+01081+00531096961ADDAY181031AY221031GF108991061071002501061999MA1999999096901MD1210101+9999MW1811REMSYN072AAXX  31034 01467 41360 82219 10108 20053 39690 49696 52010 78182 8676/;
0201014670999992000103106004+58630+009140FM-12+000799999V0202301N007710300019N0200001N1+01061+00531097191ADDAA112003091AY181061AY221061GF107991041071002501061999KA1999N+00821MA1999999097131MD1210231+9999MW1021REMSYN088AAXX  31064 01467 11370 72315 10106 20053 39713 49719 52023 60032 70282 8476/ 333 20082;
0161014670999992000103109004+58630+009140FM-12+000799999V0202201N007710300019N0200001N1+01111+00651097471ADDAY181031AY261031GF107991041071002501061999MA1999999097421MD1210291+9999MW1811REMSYN072AAXX  31094 01467 41370 72215 10111 20065 39742 49747 52029 78186 8476/;
0173014670999992000103112004+58630+009140FM-12+000799999V0202201N006210750019N0260001N1+01161+00561097801ADDAY181061AY261061GF105991021021004501061021MA1999999097751MD1210341+9999MW1151REMSYN084AAXX  31124 01467 41476 52212 10116 20056 39775 49780 52034 71586 82262 222// 00122;
0161014670999992000103115004+58630+009140FM-12+000799999V0202401N003610300019N0260001N1+01061+00641098041ADDAY121031AY221031GF106991021021004501071021MA1999999097991MD1110191+9999MW1151REMSYN072AAXX  31154 01467 41476 62407 10106 20064 39799 49804 51019 71522 82272;
0207014670999992000103118004+58630+009140FM-12+000799999V0202301N002610300019N0260001N1+01031+00661098171ADDAA112000191AY121061AY221061GF107991031021004501061999KA1120M+01171MA1999999098121MD1310131+9999MW1151REMSYN094AAXX  31184 01467 11476 72305 10103 20066 39812 49817 53013 69922 71522 8326/ 333 10117 91117;
0101014670999992000103121004+58630+009140FM-12+000799999V0202301N003119999999N9999999N1+00921+00591098341ADDMA1999999098291MD1110171+9999REMSYN060AAXX  31214 01467 46/// /2306 10092 20059 39829 49834 51017;
0143014670999992000110100004+58630+009140FM-12+000799999V0202501N002612200019N0300001N1+00811+00541098571ADDGF102991021001017501041011MA1999999098511MD1310221+9999REMSYN076AAXX  01004 01467 42780 22505 10081 20054 39851 49857 53022 82041 333 91109;
0133014670999992000110103004+58630+009140FM-12+000799999V0202501N001512200019N0300001N1+00721+00451098781ADDGF103991011061008001041021MA1999999098721MD1210211+9999REMSYN066AAXX  01034 01467 42580 32503 10072 20045 39872 49878 52021 81642;
0192014670999992000110106004+58630+009140FM-12+000799999V0203501N000512200019N0300001N1+00611+00441098931ADDAA199000091GF103991011061008001061021KA1120N+00611MA1999999098881MD1110161+9999REMSYN082AAXX  01064 01467 32580 33501 10061 20044 39888 49893 51016 81662 333 20061 91109;EQDQ01  00002PRCP99
0161014670999992000110109004+58630+009140FM-12+000799999V0202501N002610300019N0200001N1+00801+00581099051ADDAY191031AY221031GF107991031091002501061999MA1999999099001MD1310121+9999MW1811REMSYN072AAXX  01094 01467 41370 72505 10080 20058 39900 49905 53012 78192 8396/;
0191014670999992000110112004+58630+009140FM-12+000799999V0202001N002110300019N0200001N1+00851+00561099031ADDAY191061AY221061GF108991041091002501061999MA1999999098971MD1810031+9999MW1811SA1+1209REMSYN094AAXX  01124 01467 41370 82004 10085 20056 39897 49903 58003 78192 8496/ 222// 00120 333 91114;
0161014670999992000110115004+58630+009140FM-12+000799999V0201601N006710300019N0100001N1+01081+00771098851ADDAY181031AY221031GF108991041071002501061999MA1999999098801MD1810171+9999MW1801REMSYN072AAXX  01154 01467 41360 81613 10108 20077 39880 49885 58017 78082 8476/;
0101014670999992000110121004+58630+009140FM-12+000799999V0201901N004119999999N9999999N1+00971+00571098981ADDMA1999999098921MD1010061+9999REMSYN060AAXX  01214 01467 46/// /1908 10097 20057 39892 49898 50006;
0171014670999992000110200004+58630+009140FM-12+000799999V0203101N000512200019N0300001N1+00631+00431099101ADDAY181061AY261061GF102991011061008001041011MA1999999099041MD1110121+9999MW1021REMSYN082AAXX  02004 01467 41580 23101 10063 20043 39904 49910 51012 70286 81641 333 91116;
0161014670999992000110203004+58630+009140FM-12+000799999V0203501N000510021019N0100001N1+00601+00451099171ADDAY161031AY221031GF108991081071002501999999MA1999999099111MD1110071+9999MW1621REMSYN072AAXX  02034 01467 41360 83501 10060 20045 39911 49917 51007 76262 887//;
0207014670999992000110206004+58630+009140FM-12+000799999V0203201N002610021019N0100001N1+00541+00411099291ADDAA112007191AY161061AY221061GF108991051071002501021999KA1120N+00541MA1999999099241MD1310131+9999MW1601REMSYN094AAXX  02064 01467 11360 83205 10054 20041 39924 49929 53013 60072 76062 8572/ 333 20054 91108;
0161014670999992000110209004+58630+009140FM-12+000799999V0203201N001010750019N0300001N1+00541+00361099511ADDAY161031AY221031GF105991021041002501061021MA1999999099451MD1310211+9999MW1011REMSYN072AAXX  02094 01467 41380 53202 10054 20036 39945 49951 53021 70162 82462;
0191014670999992000110212004+58630+009140FM-12+000799999V0202601N000512200019N0300001N1+00811+00401099701ADDAY161061AY211061GF102991011041008001031021MA1999999099651MD1110201+9999MW1011SA1+1249REMSYN094AAXX  02124 01467 41580 22601 10081 20040 39965 49970 51020 70161 81432 222// 00124 333 91107;
0133014670999992000110215004+58630+009140FM-12+000799999V0203601N000510750019N0300001N1+00791+00391099821ADDGF105991021041008001051021MA1999999099761MD1310111+9999REMSYN066AAXX  02154 01467 42580 53601 10079 20039 39976 49982 53011 82452;
0179014670999992000110218004+58630+009140FM-12+000799999V0200401N003112200019N0300001N1+00751+00511099851ADDAA118001091GF103991021041008001041021KA1120M+00871MA1999999099801MD1010041+9999REMSYN088AAXX  02184 01467 12580 30406 10075 20051 39980 49985 50004 60013 82442 333 10087 91108;
0143014670999992000110300004+58630+009140FM-12+000799999V0201201N006210300019N0150001N1+01041+00601099501ADDGF108991041071002501021999MA1999999099451MD1810281+9999REMSYN076AAXX  03004 01467 42365 81212 10104 20060 39945 49950 58028 8472/ 333 91115;
0207014670999992000110306004+58630+009140FM-12+000799999V0201801N006710300019N0200001N1+01071+00781099121ADDAA112010991AY181061AY261061GF106991021071002501061021KA1120N+00721MA1999999099061MD1310041+9999MW1811REMSYN094AAXX  03064 01467 11370 61813 10107 20078 39906 49912 53004 60112 78186 82762 333 20072 91122;
0161014670999992000110309004+58630+009140FM-12+000799999V0201701N006210300019N0200001N1+01021+00671099341ADDAY181031AY221031GF106991031021002501061021MA1999999099291MD1110231+9999MW1021REMSYN072AAXX  03094 01467 41370 61712 10102 20067 39929 49934 51023 70282 83262;
0191014670999992000110312004+58630+009140FM-12+000799999V0201701N006210300019N0200001N1+01031+00611099421ADDAY121061AY221061GF106991031041002501061021MA1999999099361MD1110071+9999MW1151SA1+1129REMSYN094AAXX  03124 01467 41370 61712 10103 20061 39936 49942 51007 71522 83462 222// 00112 333 91117;
0161014670999992000110315004+58630+009140FM-12+000799999V0201601N006210300019N0200001N1+01091+00651099401ADDAY121031AY221031GF107991031031002501061021MA1999999099341MD1510021+9999MW1151REMSYN072AAXX  03154 01467 41370 71612 10109 20065 39934 49940 55002 71522 83362;
0207014670999992000110318004+58630+009140FM-12+000799999V0201701N007710300019N0200001N1+01071+00701099461ADDAA112000391AY121061AY221061GF107991031031002501061021KA1120M+01101MA1999999099411MD1310071+9999MW1151REMSYN094AAXX  03184 01467 11370 71715 10107 20070 39941 49946 53007 69932 71522 83362 333 10110 91120;
0101014670999992000110321004+58630+009140FM-12+000799999V0201801N005119999999N9999999N1+01021+00831099601ADDMA1999999099551MD1110141+9999REMSYN060AAXX  03214 01467 46/// /1810 10102 20083 39955 49960 51014;
0171014670999992000110400004+58630+009140FM-12+000799999V0202401N004610300019N0150001N1+00831+00561099731ADDAY161061AY221061GF108991041071002501061999MA1999999099681MD1110131+9999MW1621REMSYN082AAXX  04004 01467 41365 82409 10083 20056 39968 49973 51013 76262 8476/ 333 91120;
0161014670999992000110403004+58630+009140FM-12+000799999V0200201N000510300019N0280001N1+00751+00551099781ADDAY161031AY221031GF108991041071002501061999MA1999999099731MD1010051+9999MW1021REMSYN072AAXX  04034 01467 41378 80201 10075 20055 39973 49978 50005 70262 8476/;
0161014670999992000110415004+58630+009140FM-12+000799999V0201701N002610300019N0250001N1+00861+00621100131ADDAY181031AY261031GF106991031061002501041021MA1999999100071MD1310101+9999MW1801REMSYN072AAXX  04154 01467 41375 61705 10086 20062 30007 40013 53010 78086 83642;
0101014670999992000110421004+58630+009140FM-12+000799999V0203001N002119999999N9999999N1+00761+00491100261ADDMA1999999100211MD1210051+9999REMSYN060AAXX  04214 01467 46/// /3004 10076 20049 30021 40026 52005;
0161014670999992000110503004+58630+009140FM-12+000799999V0209999C00001030001CN0300001N1+00641+00501100361ADDAY181031AY261031GF106991021051002501041999MA1999999100301MD1110111+9999MW1151REMSYN072AAXX  05034 01467 41380 60000 10064 20050 30030 40036 51011 71586 8254/;
0207014670999992000110506004+58630+009140FM-12+000799999V0203601N001010300019N0250001N1+00611+00521100361ADDAA112009991AY181061AY261061GF106991021031002501041021KA1120N+00591MA1999999100301MD1010001+9999MW1151REMSYN094AAXX  05064 01467 11375 63602 10061 20052 30030 40036 50000 60102 71586 82342 333 20059 91106;
0161014670999992000110509004+58630+009140FM-12+000799999V0200601N001010750019N0250001N1+00661+00481100411ADDAY181031AY261031GF106991021031002501041041MA1999999100361MD1010061+9999MW1151REMSYN072AAXX  05094 01467 41375 60602 10066 20048 30036 40041 50006 71586 82344;
0161014670999992000110515004+58630+009140FM-12+000799999V0202501N002610300019N0280001N1+00811+00571100381ADDAY181031AY261031GF106991031041002501041031MA1999999100321MD1310011+9999MW1151REMSYN072AAXX  05154 01467 41378 62505 10081 20057 30032 40038 53001 71586 83443;
0207014670999992000110518004+58630+009140FM-12+000799999V0209999C000012200019N0300001N1+00591+00441100411ADDAA112007991AY181061AY261061GF102991011041004501041011KA1120M+00931MA1999999100351MD1310031+9999MW1011REMSYN094AAXX  05184 01467 11480 20000 10059 20044 30035 40041 53003 60082 70186 81441 333 10093 91112;
0101014670999992000110521004+58630+009140FM-12+000799999V0203301N000519999999N9999999N1+00421+00331100431ADDMA1999999100381MD1110031+9999REMSYN060AAXX  05214 01467 46/// /3301 10042 20033 30038 40043 51003;
0143014670999992000110600004+58630+009140FM-12+000799999V0203601N001512200019N0300001N1+00431+00371100451ADDGF102991011041004501041021MA1999999100391MD1010011+9999REMSYN076AAXX  06004 01467 42480 23603 10043 20037 30039 40045 50001 81442 333 91103;
0133014670999992000110603004+58630+009140FM-12+000799999V0203201N001010300019N0300001N1+00471+00401100451ADDGF108991041061004501061999MA1999999100391MD1410001+9999REMSYN066AAXX  06034 01467 42480 83202 10047 20040 30039 40045 54000 8466/;
0179014670999992000110606004+58630+009140FM-12+000799999V0200101N001510750019N0300001N1+00431+00341100461ADDAA112001091GF105991021061004501061021KA1120N+00341MA1999999100411MD1310021+9999REMSYN088AAXX  06064 01467 12480 50103 10043 20034 30041 40046 53002 60012 82662 333 20034 91104;
0133014670999992000110609004+58630+009140FM-12+000799999V0200101N002110750019N0300001N1+00551+00461100481ADDGF106991021071004501061041MA1999999100421MD1110011+9999REMSYN066AAXX  06094 01467 42480 60104 10055 20046 30042 40048 51001 82764;
0191014670999992000110612004+58630+009140FM-12+000799999V0201301N004610300019N0250001N1+00901+00561100441ADDAY181061AY261061GF106991021041002501061021MA1999999100391MD1810031+9999MW1811SA1+1129REMSYN094AAXX  06124 01467 41375 61309 10090 20056 30039 40044 58003 78186 82462 222// 00112 333 91111;
0207014670999992000110618004+58630+009140FM-12+000799999V0200801N006210300019N0250001N1+00841+00501100321ADDAA112001091AY181061AY261061GF107991041071002501021999KA1120M+00911MA1999999100261MD1810031+9999MW1011REMSYN094AAXX  06184 01467 11375 70812 10084 20050 30026 40032 58003 60012 70186 8472/ 333 10091 91116;
0101014670999992000110621004+58630+009140FM-12+000799999V0200701N007219999999N9999999N1+00851+00491100211ADDMA1999999100151MD1810111+9999REMSYN060AAXX  06214 01467 46/// /0714 10085 20049 30015 40021 58011;
0143014670999992000110700004+58630+009140FM-12+000799999V0200501N007210042019N0250001N1+00811+00541100031ADDGF108991061051004501071999MA1999999099981MD1810171+9999REMSYN076AAXX  07004 01467 42475 80514 10081 20054 39998 40003 58017 8657/ 333 91120;
0133014670999992000110703004+58630+009140FM-12+000799999V0200501N008210300019N0250001N1+00741+00521099791ADDGF107991031071004501061999MA1999999099741MD1810241+9999REMSYN066AAXX  07034 01467 42475 70516 10074 20052 39974 49979 58024 8376/;
0207014670999992000110706004+58630+009140FM-12+000799999V0200501N008210300019N0200001N1+00731+00581099631ADDAA112005191AY161061AY221061GF108991041071002501061999KA1120N+00731MA1999999099571MD1810171+9999MW1621REMSYN094AAXX  07064 01467 11370 80516 10073 20058 39957 49963 58017 60052 76262 8476/ 333 20073 91124;
0101014670999992000110709004+58630+009140FM-12+000799999V0200401N006719999999N9999999N1+00671+00551099431ADDMA1999999099371MD1810201+9999REMSYN060AAXX  07094 01467 46/// /0413 10067 20055 39937 49943 58020;
0111014670999992000110712004+58630+009140FM-12+000799999V0200501N008219999999N9999999N1+00761+00651099091ADDMA1999999099031MD1810341+9999REMSYN070AAXX  07124 01467 46/// /0516 10076 20065 39903 49909 58034 333 91123;
0161014670999992000110715004+58630+009140FM-12+000799999V0200501N008210021019N0100001N1+00851+00771098791ADDAY161031AY261031GF108991081071002501999999MA1999999098731MD1610301+9999MW1631REMSYN072AAXX  07154 01467 41360 80516 10085 20077 39873 49879 56030 76366 887//;
0207014670999992000110718004+58630+009140FM-12+000799999V0201001N006710021019N0100001N1+01041+00951098751ADDAA112045091AY161061AY261061GF108991081071002501999999KA1120M+01041MA1999999098701MD1710031+9999MW1631REMSYN094AAXX  07184 01467 11360 81013 10104 20095 39870 49875 57003 60452 76366 887// 333 10104 91123;
0101014670999992000110721004+58630+009140FM-12+000799999V0201801N002619999999N9999999N1+01061+00821098871ADDMA1999999098821MD1310121+9999REMSYN060AAXX  07214 01467 46/// /1805 10106 20082 39882 49887 53012;
0179014670999992000110806004+58630+009140FM-12+000799999V0200701N002110042019N0300001N1+00971+00881098921ADDAA112004191GF108991061051004501071999KA1120N+00911MA1999999098871MD1810021+9999REMSYN088AAXX  08064 01467 12480 80704 10097 20088 39887 49892 58002 60042 8657/ 333 20091 91106;
0161014670999992000110809004+58630+009140FM-12+000799999V0201501N003610300019N0300001N1+01071+00881098981ADDAY181031AY261031GF107991031071002501021021MA1999999098931MD1310061+9999MW1811REMSYN072AAXX  08094 01467 41380 71507 10107 20088 39893 49898 53006 78186 83722;
0191014670999992000110812004+58630+009140FM-12+000799999V0201501N002610300019N0300001N1+01041+00801099001ADDAY181061AY261061GF107991031071002501031021MA1999999098951MD1010021+9999MW1151SA1+1079REMSYN094AAXX  08124 01467 41380 71505 10104 20080 39895 49900 50002 71586 83732 222// 00107 333 91110;
0133014670999992000110815004+58630+009140FM-12+000799999V0201401N003110300019N0300001N1+01031+00811099061ADDGF107991031061002501031021MA1999999099011MD1310061+9999REMSYN066AAXX  08154 01467 42380 71406 10103 20081 39901 49906 53006 83632;
0207014670999992000110818004+58630+009140FM-12+000799999V0201501N003110300019N0300001N1+01001+00761099141ADDAA112000591AY121061AY221061GF107991031071002501061021KA1120M+01071MA1999999099091MD1310081+9999MW1151REMSYN094AAXX  08184 01467 11380 71506 10100 20076 39909 49914 53008 69942 71522 83762 333 10107 91109;
0101014670999992000110821004+58630+009140FM-12+000799999V0201701N003619999999N9999999N1+01011+00721099291ADDMA1999999099241MD1210151+9999REMSYN060AAXX  08214 01467 46/// /1707 10101 20072 39924 49929 52015;
0171014670999992000110900004+58630+009140FM-12+000799999V0202001N002610021019N0100001N1+00861+00571099341ADDAY181061AY221061GF108991051071002501021999MA1999999099291MD1310051+9999MW1811REMSYN082AAXX  09004 01467 41360 82005 10086 20057 39929 49934 53005 78182 8572/ 333 91112;
0161014670999992000110903004+58630+009140FM-12+000799999V0201701N004110300019N0300001N1+01021+00741099421ADDAY181031AY221031GF108991031071002501021999MA1999999099361MD1310071+9999MW1151REMSYN072AAXX  09034 01467 41380 81708 10102 20074 39936 49942 53007 71582 8372/;
0179014670999992000110906004+58630+009140FM-12+000799999V0201701N004110300019N0300001N1+01021+00711099541ADDAA112002091GF108991041071002501021999KA1120N+00861MA1999999099491MD1110131+9999REMSYN088AAXX  09064 01467 12380 81708 10102 20071 39949 49954 51013 60022 8472/ 333 20086 91112;
0161014670999992000110909004+58630+009140FM-12+000799999V0201601N003110300019N0280001N1+01021+00671099691ADDAY121031AY221031GF107991031091004501071999MA1999999099641MD1310151+9999MW1151REMSYN072AAXX  09094 01467 41478 71606 10102 20067 39964 49969 53015 71522 8397/;
0191014670999992000110912004+58630+009140FM-12+000799999V0201701N003110042019N0280001N1+00991+00641099761ADDAY181061AY221061GF107991051091004501071999MA1999999099701MD1310061+9999MW1811SA1+1049REMSYN094AAXX  09124 01467 41478 71706 10099 20064 39970 49976 53006 78182 8597/ 222// 00104 333 91113;
0161014670999992000110915004+58630+009140FM-12+000799999V0201301N003610042019N0300001N1+00991+00641099801ADDAY121031AY221031GF108991051091004501071999MA1999999099751MD1110051+9999MW1151REMSYN072AAXX  09154 01467 41480 81307 10099 20064 39975 49980 51005 71522 8597/;
0207014670999992000110918004+58630+009140FM-12+000799999V0201301N003610042019N0300001N1+00971+00731099881ADDAA112003091AY181061AY221061GF108991051091004501071999KA1120M+01041MA1999999099821MD1110071+9999MW1811REMSYN094AAXX  09184 01467 11480 81307 10097 20073 39982 49988 51007 60032 78182 8597/ 333 10104 91110;
0101014670999992000110921004+58630+009140FM-12+000799999V0201401N003119999999N9999999N1+00971+00731099931ADDMA1999999099881MD1110061+9999REMSYN060AAXX  09214 01467 46/// /1406 10097 20073 39988 49993 51006;
0171014670999992000111000004+58630+009140FM-12+000799999V0201601N002110300019N0250001N1+00991+00771099981ADDAY181061AY261061GF108991041031002501021999MA1999999099921MD1210041+9999MW1151REMSYN082AAXX  10004 01467 41375 81604 10099 20077 39992 49998 52004 71586 8432/ 333 91109;
0161014670999992000111003004+58630+009140FM-12+000799999V0201701N003110300019N0250001N1+00861+00421100031ADDAY181031AY221031GF108991021091004501071999MA1999999099971MD1310051+9999MW1811REMSYN072AAXX  10034 01467 41475 81706 10086 20042 39997 40003 53005 78182 8297/;
0207014670999992000111006004+58630+009140FM-12+000799999V0203301N001010300019N0250001N1+00861+00661100061ADDAA112009991AY181061AY221061GF108991041091004501071999KA1120N+00811MA1999999100011MD1310041+9999MW1811REMSYN094AAXX  10064 01467 11475 83302 10086 20066 30001 40006 53004 60102 78182 8497/ 333 20081 91111;
0161014670999992000111009004+58630+009140FM-12+000799999V0201801N002110300019N0200001N1+00871+00721100211ADDAY181031AY261031GF108991041061002501021999MA1999999100151MD1310141+9999MW1811REMSYN072AAXX  10094 01467 41370 81804 10087 20072 30015 40021 53014 78186 8462/;
0191014670999992000111012004+58630+009140FM-12+000799999V0200201N001010300019N0200001N1+00791+00701100291ADDAY181061AY261061GF108991041061002501021999MA1999999100241MD1110091+9999MW1811SA1+1009REMSYN094AAXX  10124 01467 41370 80202 10079 20070 30024 40029 51009 78186 8462/ 222// 00100 333 91109;
0161014670999992000111015004+58630+009140FM-12+000799999V0200201N001010300019N0200001N1+00811+00701100361ADDAY181031AY221031GF107991041091004501071999MA1999999100311MD1310071+9999MW1811REMSYN072AAXX  10154 01467 41470 70202 10081 20070 30031 40036 53007 78182 8497/;
0207014670999992000111018004+58630+009140FM-12+000799999V0203401N001010300019N0280001N1+00731+00641100461ADDAA112011991AY181061AY221061GF107991031091004501071999KA1120M+00951MA1999999100401MD1310091+9999MW1011REMSYN094AAXX  10184 01467 11478 73402 10073 20064 30040 40046 53009 60122 70182 8397/ 333 10095 91105;
0101014670999992000111021004+58630+009140FM-12+000799999V0203401N001019999999N9999999N1+00681+00541100571ADDMA1999999100521MD1310121+9999REMSYN060AAXX  10214 01467 46/// /3402 10068 20054 30052 40057 53012;
0143014670999992000111100004+58630+009140FM-12+000799999V0203301N001510075019N0300001N1+00721+00581100671ADDGF108991061051008001071999MA1999999100621MD1110101+9999REMSYN076AAXX  11004 01467 42580 83303 10072 20058 30062 40067 51010 8657/ 333 91105;
0133014670999992000111103004+58630+009140FM-12+000799999V0202601N001010075019N0400001N1+00721+00571100761ADDGF108991061051008001071999MA1999999100711MD1310091+9999REMSYN066AAXX  11034 01467 42582 82602 10072 20057 30071 40076 53009 8657/;
0192014670999992000111106004+58630+009140FM-12+000799999V0202701N001010075019N0400001N1+00721+00581100851ADDAA199000091GF108991061051008001071999KA1120N+00681MA1999999100791MD1310081+9999REMSYN082AAXX  11064 01467 32582 82702 10072 20058 30079 40085 53008 8657/ 333 20068 91105;EQDQ01  00002PRCP99
0133014670999992000111109004+58630+009140FM-12+000799999V0202001N000510300019N0400001N1+00741+00571100961ADDGF106991021051008001071001MA1999999100911MD1310121+9999REMSYN066AAXX  11094 01467 42582 62001 10074 20057 30091 40096 53012 82570;
0163014670999992000111112004+58630+009140FM-12+000799999V0200801N001010750019N0400001N1+00861+00571100951ADDGF105991021051008001041011MA1999999100891MD1810021+9999SA1+0959REMSYN088AAXX  11124 01467 42582 50802 10086 20057 30089 40095 58002 82541 222// 00095 333 91103;
0207014670999992000111118004+58630+009140FM-12+000799999V0201601N003610042019N0100001N1+00881+00691100781ADDAA112001091AY181061AY261061GF108991081071004501999999KA1120M+00931MA1999999100721MD1710111+9999MW1611REMSYN094AAXX  11184 01467 11460 81607 10088 20069 30072 40078 57011 60012 76186 887// 333 10093 91110;
0101014670999992000111121004+58630+009140FM-12+000799999V0201401N004619999999N9999999N1+00891+00781100581ADDMA1999999100531MD1810191+9999REMSYN060AAXX  11214 01467 46/// /1409 10089 20078 30053 40058 58019;
0171014670999992000111200004+58630+009140FM-12+000799999V0201901N003110300019N0100001N1+01051+00991100331ADDAY161061AY221061GF108991041071004501021999MA1999999100281MD1610251+9999MW1621REMSYN082AAXX  12004 01467 41460 81906 10105 20099 30028 40033 56025 76262 8472/ 333 91112;
0161014670999992000111203004+58630+009140FM-12+000799999V0201901N005110300019N0100001N1+01041+00951100211ADDAY161031AY261031GF108991041071004501021999MA1999999100151MD1610131+9999MW1611REMSYN072AAXX  12034 01467 41460 81910 10104 20095 30015 40021 56013 76166 8472/;
0207014670999992000111206004+58630+009140FM-12+000799999V0201901N005110300019N0100001N1+01001+00891100141ADDAA112015091AY161061AY261061GF108991041071004501021999KA1120N+00871MA1999999100091MD1610061+9999MW1611REMSYN094AAXX  12064 01467 11460 81910 10100 20089 30009 40014 56006 60152 76166 8472/ 333 20087 91117;
0161014670999992000111209004+58630+009140FM-12+000799999V0201701N005710021019N0050001N1+00901+00791100081ADDAY161031AY261031GF108991081071002501999999MA1999999100031MD1610061+9999MW1631REMSYN072AAXX  12094 01467 41350 81711 10090 20079 30003 40008 56006 76366 887//;
0191014670999992000111212004+58630+009140FM-12+000799999V0201701N006210042019N0100001N1+00871+00681099941ADDAY161061AY221061GF108991081071004501999999MA1999999099891MD1810141+9999MW1621SA1+1049REMSYN094AAXX  12124 01467 41460 81712 10087 20068 39989 49994 58014 76262 887// 222// 00104 333 91115;
0207014670999992000111218004+58630+009140FM-12+000799999V0201701N006710042019N0100001N1+00861+00711099471ADDAA112007991AY161061AY221061GF108991081071004501999999KA1120M+01001MA1999999099421MD1610241+9999MW1631REMSYN094AAXX  12184 01467 11460 81713 10086 20071 39942 49947 56024 60082 76362 887// 333 10100 91115;
0101014670999992000111221004+58630+009140FM-12+000799999V0201701N006219999999N9999999N1+00921+00801099301ADDMA1999999099241MD1610181+9999REMSYN060AAXX  12214 01467 46/// /1712 10092 20080 39924 49930 56018;
0171014670999992000111300004+58630+009140FM-12+000799999V0201901N005110075019N0300001N1+00991+00781099161ADDAY161061AY221061GF108991051051008001071999MA1999999099111MD1710131+9999MW1021REMSYN082AAXX  13004 01467 41580 81910 10099 20078 39911 49916 57013 70262 8557/ 333 91115;
0161014670999992000111303004+58630+009140FM-12+000799999V0202601N002110300019N0180001N1+00711+00531099201ADDAY161031AY221031GF108991041071004501021999MA1999999099151MD1110041+9999MW1611REMSYN072AAXX  13034 01467 41468 82604 10071 20053 39915 49920 51004 76162 8472/;
0207014670999992000111306004+58630+009140FM-12+000799999V0202101N002110042019N0200001N1+00771+00411099171ADDAA112010991AY181061AY261061GF107991051091004501041001KA1120N+00621MA1999999099121MD1510031+9999MW1811REMSYN094AAXX  13064 01467 11470 72104 10077 20041 39912 49917 55003 60112 78186 85940 333 20062 91112;
0161014670999992000111309004+58630+009140FM-12+000799999V0203301N001010300019N0300001N1+00681+00481099311ADDAY181031AY221031GF107991021091004501071999MA1999999099261MD1210141+9999MW1151REMSYN072AAXX  13094 01467 41480 73302 10068 20048 39926 49931 52014 71582 8297/;
0191014670999992000111312004+58630+009140FM-12+000799999V0203201N000510042019N0280001N1+00671+00521099401ADDAY181061AY221061GF107991051091004501041999MA1999999099341MD1110081+9999MW1801SA1+1029REMSYN094AAXX  13124 01467 41478 73201 10067 20052 39934 49940 51008 78082 8594/ 222// 00102 333 91108;
0101014670999992000111321004+58630+009140FM-12+000799999V0202101N004119999999N9999999N1+00861+00661099621ADDMA1999999099571MD1110151+9999REMSYN060AAXX  13214 01467 46/// /2108 10086 20066 39957 49962 51015;
0171014670999992000111400004+58630+009140FM-12+000799999V0202901N001010300019N0200001N1+00701+00531099791ADDAY181061AY251061GF107991031071008001021999MA1999999099731MD1110161+9999MW1501REMSYN082AAXX  14004 01467 41570 72902 10070 20053 39973 49979 51016 75085 8372/ 333 91113;
0161014670999992000111403004+58630+009140FM-12+000799999V0200201N001010300019N0280001N1+00551+00461099921ADDAY151031AY221031GF106991021091008001041001MA1999999099861MD1210131+9999MW1011REMSYN072AAXX  14034 01467 41578 60202 10055 20046 39986 49992 52013 70152 82940;
0207014670999992000111406004+58630+009140FM-12+000799999V0203601N001010075019N0250001N1+00531+00461100001ADDAA112004191AY181061AY251061GF106991061091008001001001KA1120N+00531MA1999999099951MD1110091+9999MW1151REMSYN094AAXX  14064 01467 11575 63602 10053 20046 39995 40000 51009 60042 71585 86900 333 20053 91103;
0161014670999992000111409004+58630+009140FM-12+000799999V0203101N001510075019N0250001N1+00631+00511100201ADDAY181031AY221031GF107991071031008001999999MA1999999100151MD1110201+9999MW1251REMSYN072AAXX  14094 01467 41575 73103 10063 20051 30015 40020 51020 72582 873//;
0161014670999992000111415004+58630+009140FM-12+000799999V0203601N001012200019N0250001N1+00701+00551100431ADDAY121031AY201031GF104991031031004501041001MA1999999100381MD1310141+9999MW1151REMSYN072AAXX  14154 01467 41475 43602 10070 20055 30038 40043 53014 71520 83340;
0101014670999992000111421004+58630+009140FM-12+000799999V0203401N001519999999N9999999N1+00521+00491100711ADDMA1999999100651MD1110141+9999REMSYN060AAXX  14214 01467 46/// /3403 10052 20049 30065 40071 51014;
0181014670999992000111500004+58630+009140FM-12+000799999V0203601N001010006019N0007001N1+00411+00371100781ADDAY181061AY241061GA1091+999999999GF109991091999999999999999MA1999999100721MD1310071+9999MW1461REMSYN076AAXX  15004 01467 41/07 93602 10041 20037 30072 40078 53007 74684 333 91104;
0171014670999992000111503004+58630+009140FM-12+000799999V0203601N001510006019N0010001N1+00431+00401100851ADDAY141031AY241031GA1091+999999999GF109991091999999999999999MA1999999100801MD1110081+9999MW1461REMSYN066AAXX  15034 01467 41/10 93603 10043 20040 30080 40085 51008 74644;
0207014670999992000111506004+58630+009140FM-12+000799999V0200101N001510042019N0050001N1+00371+00361100871ADDAA112002091AY141061AY221061GF106991061041004501001001KA1120N+00331MA1999999100821MD1310021+9999MW1101REMSYN094AAXX  15064 01467 11450 60103 10037 20036 30082 40087 53002 60022 71042 86400 333 20033 91105;
0191014670999992000111512004+58630+009140FM-12+000799999V0200401N002610021019N0080001N1+00591+00551100871ADDAY161061AY221061GF108991061061002501071999MA1999999100811MD1810091+9999MW1101SA1+0949REMSYN094AAXX  15124 01467 41358 80405 10059 20055 30081 40087 58009 71062 8667/ 222// 00094 333 91107;
0161014670999992000111515004+58630+009140FM-12+000799999V0203001N001010021019N0080001N1+00661+00511100811ADDAY161031AY221031GF108991051071002501021999MA1999999100751MD1510061+9999MW1601REMSYN072AAXX  15154 01467 41358 83002 10066 20051 30075 40081 55006 76062 8572/;
0207014670999992000111518004+58630+009140FM-12+000799999V0202101N003110021019N0080001N1+00791+00541100821ADDAA112011991AY181061AY261061GF108991081061002501999999KA1120M+00831MA1999999100771MD1010021+9999MW1101REMSYN094AAXX  15184 01467 11358 82106 10079 20054 30077 40082 50002 60122 71086 886// 333 10083 91112;
0101014670999992000111521004+58630+009140FM-12+000799999V0201801N002619999999N9999999N1+00811+00451100781ADDMA1999999100721MD1810051+9999REMSYN060AAXX  15214 01467 46/// /1805 10081 20045 30072 40078 58005;
0171014670999992000111600004+58630+009140FM-12+000799999V0201801N003110300019N0200001N1+00791+00381100741ADDAY181061AY261061GF108991041051008001071999MA1999999100691MD1710031+9999MW1021REMSYN082AAXX  16004 01467 41570 81806 10079 20038 30069 40074 57003 70286 8457/ 333 91110;
0133014670999992000111603004+58630+009140FM-12+000799999V0201201N003110300019N0280001N1+00781+00351100641ADDGF107991031051008001071999MA1999999100581MD1810111+9999REMSYN066AAXX  16034 01467 42578 71206 10078 20035 30058 40064 58011 8357/;
0207014670999992000111606004+58630+009140FM-12+000799999V0200901N003110042019N0100001N1+00751+00531100621ADDAA112004191AY161061AY221061GF108991051071004501021999KA1120N+00631MA1999999100561MD1510021+9999MW1631REMSYN094AAXX  16064 01467 11460 80906 10075 20053 30056 40062 55002 60042 76362 8572/ 333 20063 91111;
0207014670999992000111618004+58630+009140FM-12+000799999V0201501N004110042019N0250001N1+00831+00541100841ADDAA112003091AY181061AY261061GF108991061071004501021999KA1120M+00851MA1999999100781MD1310081+9999MW1611REMSYN094AAXX  16184 01467 11475 81508 10083 20054 30078 40084 53008 60032 76186 8672/ 333 10085 91112;
0101014670999992000111621004+58630+009140FM-12+000799999V0201501N004619999999N9999999N1+00841+00601100831ADDMA1999999100771MD1810011+9999REMSYN060AAXX  16214 01467 46/// /1509 10084 20060 30077 40083 58001;
0171014670999992000111700004+58630+009140FM-12+000799999V0201501N005110021019N0080001N1+00871+00651100791ADDAY161061AY221061GF108991081071002501999999MA1999999100731MD1810041+9999MW1611REMSYN082AAXX  17004 01467 41358 81510 10087 20065 30073 40079 58004 76162 887// 333 91112;
0161014670999992000111703004+58630+009140FM-12+000799999V0201401N005710021019N0080001N1+00881+00681100661ADDAY161031AY261031GF108991081071002501999999MA1999999100611MD1810121+9999MW1611REMSYN072AAXX  17034 01467 41358 81411 10088 20068 30061 40066 58012 76166 887//;
0207014670999992000111706004+58630+009140FM-12+000799999V0201501N005710042019N0100001N1+00861+00661100631ADDAA112006191AY161061AY261061GF108991081071004501999999KA1120N+00811MA1999999100571MD1710041+9999MW1631REMSYN094AAXX  17064 01467 11460 81511 10086 20066 30057 40063 57004 60062 76366 887// 333 20081 91117;
0161014670999992000111709004+58630+009140FM-12+000799999V0201901N003610042019N0100001N1+00811+00571100681ADDAY161031AY261031GF108991051071004501021999MA1999999100621MD1310051+9999MW1631REMSYN072AAXX  17094 01467 41460 81907 10081 20057 30062 40068 53005 76366 8572/;
0191014670999992000111712004+58630+009140FM-12+000799999V0202601N001510042019N0100001N1+00681+00501100721ADDAY161061AY261061GF108991051071004501021999MA1999999100661MD1110041+9999MW1631SA1+1009REMSYN094AAXX  17124 01467 41460 82603 10068 20050 30066 40072 51004 76366 8572/ 222// 00100 333 91116;
0161014670999992000111715004+58630+009140FM-12+000799999V0202001N003610042019N0150001N1+00901+00571100751ADDAY161031AY221031GF107991051071004501021999MA1999999100691MD1310031+9999MW1211REMSYN072AAXX  17154 01467 41465 72007 10090 20057 30069 40075 53003 72162 8572/;
0207014670999992000111718004+58630+009140FM-12+000799999V0201801N003612200019N0250001N1+00871+00581100771ADDAA112010991AY161061AY211061GF103991021071004501021021KA1120M+00911MA1999999100711MD1010021+9999MW1011REMSYN094AAXX  17184 01467 11475 31807 10087 20058 30071 40077 50002 60112 70161 82722 333 10091 91114;
0101014670999992000111721004+58630+009140FM-12+000799999V0201801N002119999999N9999999N1+00841+00481100761ADDMA1999999100701MD1810011+9999REMSYN060AAXX  17214 01467 46/// /1804 10084 20048 30070 40076 58001;
0171014670999992000111800004+58630+009140FM-12+000799999V0201301N004110300019N0200001N1+00751+00361100631ADDAY181061AY211061GF108991031051004501071999MA1999999100571MD1810131+9999MW1811REMSYN082AAXX  18004 01467 41470 81308 10075 20036 30057 40063 58013 78181 8357/ 333 91110;
0161014670999992000111803004+58630+009140FM-12+000799999V0200101N001512200019N0200001N1+00491+00391100491ADDAY181031AY211031GF104991021051004501071021MA1999999100431MD1810141+9999MW1011REMSYN072AAXX  18034 01467 41470 40103 10049 20039 30043 40049 58014 70181 82572;
0207014670999992000111806004+58630+009140FM-12+000799999V0200201N001510300019N0150001N1+00501+00401100321ADDAA112001091AY181061AY261061GF108991041071004501021999KA1120N+00491MA1999999100261MD1610171+9999MW1501REMSYN094AAXX  18064 01467 11465 80203 10050 20040 30026 40032 56017 60012 75086 8472/ 333 20049 91109;
0161014670999992000111809004+58630+009140FM-12+000799999V0200101N001510300019N0200001N1+00431+00341100181ADDAY151031AY211031GF106991031031004501071999MA1999999100131MD1810131+9999MW1011REMSYN072AAXX  18094 01467 41470 60103 10043 20034 30013 40018 58013 70151 8337/;
0191014670999992000111812004+58630+009140FM-12+000799999V0200401N001010042019N0070001N1+00481+00381099961ADDAY181061AY251061GF108991061071004501021999MA1999999099911MD1810221+9999MW1101SA1+0969REMSYN094AAXX  18124 01467 41457 80402 10048 20038 39991 49996 58022 71085 8672/ 222// 00096 333 91104;
0161014670999992000111815004+58630+009140FM-12+000799999V0202701N001010300019N0200001N1+00461+00281099781ADDAY161031AY221031GF107991031071004501021999MA1999999099731MD1610181+9999MW1601REMSYN072AAXX  18154 01467 41470 72702 10046 20028 39973 49978 56018 76062 8372/;
0207014670999992000111818004+58630+009140FM-12+000799999V0200101N000510300019N0120001N1+00411+00311099581ADDAA112006191AY161061AY221061GF108991031071004501021999KA1120M+00591MA1999999099521MD1810211+9999MW1601REMSYN094AAXX  18184 01467 11462 80101 10041 20031 39952 49958 58021 60062 76062 8372/ 333 10059 91110;
0101014670999992000111821004+58630+009140FM-12+000799999V0201701N007219999999N9999999N1+00711+00511099171ADDMA1999999099121MD1810401+9999REMSYN060AAXX  18214 01467 46/// /1714 10071 20051 39912 49917 58040;
0171014670999992000111900004+58630+009140FM-12+000799999V0202301N003110300019N0100001N1+00731+00621098871ADDAY161061AY221061GF108991041071004501021999MA1999999098821MD1610301+9999MW1631REMSYN082AAXX  19004 01467 41460 82306 10073 20062 39882 49887 56030 76362 8472/ 333 91122;
0161014670999992000111903004+58630+009140FM-12+000799999V0202501N001010300019N0250001N1+00631+00511098921ADDAY161031AY221031GF108991041071004501021999MA1999999098861MD1310041+9999MW1211REMSYN072AAXX  19034 01467 41475 82502 10063 20051 39886 49892 53004 72162 8472/;
0207014670999992000111906004+58630+009140FM-12+000799999V0203501N000512200019N0120001N1+00611+00511098971ADDAA112016091AY161061AY221061GF104991041071004501021999KA1120N+00411MA1999999098921MD1110061+9999MW1611REMSYN094AAXX  19064 01467 11462 43501 10061 20051 39892 49897 51006 60162 76162 8472/ 333 20041 91107;
0161014670999992000111909004+58630+009140FM-12+000799999V0200201N002110042019N0080001N1+00591+00501099011ADDAY161031AY221031GF108991051051004501021999MA1999999098961MD1110041+9999MW1101REMSYN072AAXX  19094 01467 41458 80204 10059 20050 39896 49901 51004 71062 8552/;
0191014670999992000111912004+58630+009140FM-12+000799999V0200301N002610021019N0020001N1+00621+00561099001ADDAY161061AY221061GF108991051071002501021999MA1999999098941MD1810021+9999MW1101SA1+0919REMSYN094AAXX  19124 01467 41320 80305 10062 20056 39894 49900 58002 71062 8572/ 222// 00091 333 91108;
0161014670999992000111915004+58630+009140FM-12+000799999V0202001N003610021019N0015001N1+00941+00911099041ADDAY161031AY261031GF108991071071002501021999MA1999999098991MD1310051+9999MW1611REMSYN072AAXX  19154 01467 41315 82007 10094 20091 39899 49904 53005 76166 8772/;
0207014670999992000111918004+58630+009140FM-12+000799999V0201701N004610042019N0150001N1+00971+00831099271ADDAA112007991AY161061AY261061GF108991051071004501021999KA1120M+00991MA1999999099221MD1310231+9999MW1621REMSYN094AAXX  19184 01467 11465 81709 10097 20083 39922 49927 53023 60082 76266 8572/ 333 10099 91114;
0101014670999992000111921004+58630+009140FM-12+000799999V0201501N004119999999N9999999N1+00891+00801099481ADDMA1999999099431MD1310211+9999REMSYN060AAXX  19214 01467 46/// /1508 10089 20080 39943 49948 53021;
0171014670999992000112000004+58630+009140FM-12+000799999V0201501N004110042019N0100001N1+00901+00781099711ADDAY161061AY221061GF108991071071004501021999MA1999999099651MD1210221+9999MW1621REMSYN082AAXX  20004 01467 41460 81508 10090 20078 39965 49971 52022 76262 8772/ 333 91114;
0161014670999992000112003004+58630+009140FM-12+000799999V0201501N004610042019N0150001N1+00921+00761099911ADDAY161031AY221031GF108991071071004501021999MA1999999099861MD1310211+9999MW1611REMSYN072AAXX  20034 01467 41465 81509 10092 20076 39986 49991 53021 76162 8772/;
0207014670999992000112006004+58630+009140FM-12+000799999V0201301N004610042019N0150001N1+00931+00671100131ADDAA112004191AY161061AY221061GF108991051071004501021999KA1120N+00871MA1999999100071MD1310211+9999MW1021REMSYN094AAXX  20064 01467 11465 81309 10093 20067 30007 40013 53021 60042 70262 8572/ 333 20087 91113;
0101014670999992000112009004+58630+009140FM-12+000799999V0201001N005719999999N9999999N1+00781+00641100311ADDMA1999999100261MD1110191+9999REMSYN060AAXX  20094 01467 46/// /1011 10078 20064 30026 40031 51019;
0191014670999992000112012004+58630+009140FM-12+000799999V0201001N005710021019N0030001N1+00771+00521100451ADDAY161061AY221061GF108991071071002501021999MA1999999100401MD1110141+9999MW1631SA1+1019REMSYN094AAXX  20124 01467 41330 81011 10077 20052 30040 40045 51014 76362 8772/ 222// 00101 333 91115;
0161014670999992000112015004+58630+009140FM-12+000799999V0200801N006210021019N0100001N1+00751+00461100531ADDAY161031AY221031GF108991051071002501021999MA1999999100481MD1110081+9999MW1211REMSYN072AAXX  20154 01467 41360 80812 10075 20046 30048 40053 51008 72162 8572/;
0207014670999992000112018004+58630+009140FM-12+000799999V0200801N006710021019N0030001N1+00841+00701100561ADDAA112010991AY161061AY221061GF108991071071002501021999KA1120M+00941MA1999999100511MD1310031+9999MW1631REMSYN094AAXX  20184 01467 11330 80813 10084 20070 30051 40056 53003 60112 76362 8772/ 333 10094 91117;
0101014670999992000112021004+58630+009140FM-12+000799999V0200901N005119999999N9999999N1+00851+00731100631ADDMA1999999100571MD1310061+9999REMSYN060AAXX  20214 01467 46/// /0910 10085 20073 30057 40063 53006;
0161014670999992000112103004+58630+009140FM-12+000799999V0201401N003610042019N0200001N1+00881+00541100851ADDAY181031AY221031GF108991051051004501071999MA1999999100801MD1110131+9999MW1021REMSYN072AAXX  21034 01467 41470 81407 10088 20054 30080 40085 51013 70282 8557/;
0207014670999992000112106004+58630+009140FM-12+000799999V0201201N004110042019N0150001N1+00831+00541100941ADDAA112007191AY181061AY221061GF108991051071004501021999KA1120N+00721MA1999999100891MD1210091+9999MW1801REMSYN094AAXX  21064 01467 11465 81208 10083 20054 30089 40094 52009 60072 78082 8572/ 333 20072 91113;
0161014670999992000112109004+58630+009140FM-12+000799999V0201201N004610042019N0150001N1+00801+00491101061ADDAY181031AY221031GF108991061071004501061999MA1999999101011MD1110121+9999MW1801REMSYN072AAXX  21094 01467 41465 81209 10080 20049 30101 40106 51012 78082 8676/;
0191014670999992000112112004+58630+009140FM-12+000799999V0201401N003610300019N0200001N1+00911+00531101101ADDAY181061AY221061GF106991041031004501061021MA1999999101051MD1110041+9999MW1011SA1+1009REMSYN094AAXX  21124 01467 41470 61407 10091 20053 30105 40110 51004 70182 84362 222// 00100 333 91112;
0133014670999992000112115004+58630+009140FM-12+000799999V0201001N004110042019N0200001N1+00851+00511101111ADDGF106991051031004501061021MA1999999101051MD1010001+9999REMSYN066AAXX  21154 01467 42470 61008 10085 20051 30105 40111 50000 85362;
0179014670999992000112118004+58630+009140FM-12+000799999V0200901N003610300019N0200001N1+00831+00561101061ADDAA112000591GF107991041031004501061011KA1120M+00921MA1999999101001MD1810051+9999REMSYN088AAXX  21184 01467 12470 70907 10083 20056 30100 40106 58005 69952 84361 333 10092 91110;
0101014670999992000112121004+58630+009140FM-12+000799999V0200401N003619999999N9999999N1+00761+00571100881ADDMA1999999100821MD1810181+9999REMSYN060AAXX  21214 01467 46/// /0407 10076 20057 30082 40088 58018;
0171014670999992000112200004+58630+009140FM-12+000799999V0200401N006210042019N0050001N1+00511+00411100631ADDAY161061AY221061GF108991051071004501021999MA1999999100581MD1610241+9999MW1631REMSYN082AAXX  22004 01467 41450 80412 10051 20041 30058 40063 56024 76362 8572/ 333 91121;
0207014670999992000112206004+58630+009140FM-12+000799999V0200301N005110021019N0030001N1+00351+00281100331ADDAA112021191AY181061AY261061GF108991081071002501999999KA1120N+00321MA1999999100271MD1610101+9999MW1591REMSYN094AAXX  22064 01467 11330 80310 10035 20028 30027 40033 56010 60212 75986 887// 333 20032 91118;
0161014670999992000112209004+58630+009140FM-12+000799999V0200301N003610021019N0100001N1+00401+00331100361ADDAY181031AY261031GF107991061061002501061999MA1999999100301MD1310031+9999MW1801REMSYN072AAXX  22094 01467 41360 70307 10040 20033 30030 40036 53003 78086 8666/;
0191014670999992000112212004+58630+009140FM-12+000799999V0201401N004110300019N0150001N1+00791+00521100301ADDAY181061AY261061GF108991041061004501061999MA1999999100241MD1810061+9999MW1021SA1+0809REMSYN094AAXX  22124 01467 41465 81408 10079 20052 30024 40030 58006 70286 8466/ 222// 00080 333 91113;
0161014670999992000112215004+58630+009140FM-12+000799999V0201601N004110042019N0030001N1+00831+00661100281ADDAY181031AY261031GF108991071071004501021999MA1999999100221MD1810021+9999MW1621REMSYN072AAXX  22154 01467 41430 81608 10083 20066 30022 40028 58002 76286 8772/;
0207014670999992000112218004+58630+009140FM-12+000799999V0201701N005710042019N0120001N1+00901+00611100341ADDAA112004191AY181061AY261061GF108991051071004501021999KA1120M+00921MA1999999100291MD1110071+9999MW1601REMSYN094AAXX  22184 01467 11462 81711 10090 20061 30029 40034 51007 60042 76086 8572/ 333 10092 91114;
0101014670999992000112221004+58630+009140FM-12+000799999V0201401N006219999999N9999999N1+00921+00661100361ADDMA1999999100301MD1010011+9999REMSYN060AAXX  22214 01467 46/// /1412 10092 20066 30030 40036 50001;
0171014670999992000112300004+58630+009140FM-12+000799999V0201501N004610021019N0050001N1+00931+00731100301ADDAY181061AY261061GF108991061071002501021999MA1999999100251MD1610051+9999MW1801REMSYN082AAXX  23004 01467 41350 81509 10093 20073 30025 40030 56005 78086 8672/ 333 91117;
0161014670999992000112303004+58630+009140FM-12+000799999V0201601N004610300019N0150001N1+00921+00681100221ADDAY181031AY221031GF107991041051004501071999MA1999999100161MD1810091+9999MW1021REMSYN072AAXX  23034 01467 41465 71609 10092 20068 30016 40022 58009 70282 8457/;
0207014670999992000112306004+58630+009140FM-12+000799999V0202201N000510021019N0050001N1+00691+00521100271ADDAA112003091AY181061AY221061GF108991081071002501999999KA1120N+00671MA1999999100211MD1310051+9999MW1821REMSYN094AAXX  23064 01467 11350 82201 10069 20052 30021 40027 53005 60032 78282 887// 333 20067 91117;
0161014670999992000112309004+58630+009140FM-12+000799999V0203301N001012200019N0200001N1+00621+00481100481ADDAY181031AY211031GF103991021081002501061021MA1999999100421MD1310211+9999MW1011REMSYN072AAXX  23094 01467 41370 33302 10062 20048 30042 40048 53021 70181 82862;
0191014670999992000112312004+58630+009140FM-12+000799999V0203501N000510300019N0200001N1+00701+00611100631ADDAY181061AY221061GF106991041031002501061011MA1999999100581MD1110161+9999MW1031SA1+0959REMSYN094AAXX  23124 01467 41370 63501 10070 20061 30058 40063 51016 70382 84361 222// 00095 333 91110;
0161014670999992000112315004+58630+009140FM-12+000799999V0202301N001010021019N0100001N1+00761+00521100741ADDAY181031AY221031GF108991061071002501061999MA1999999100681MD1310101+9999MW1811REMSYN072AAXX  23154 01467 41360 82302 10076 20052 30068 40074 53010 78182 8676/;
0207014670999992000112318004+58630+009140FM-12+000799999V0201701N004110021019N0100001N1+00841+00641100851ADDAA112006191AY181061AY221061GF108991081071002501999999KA1120M+00921MA1999999100791MD1210111+9999MW1021REMSYN094AAXX  23184 01467 11360 81708 10084 20064 30079 40085 52011 60062 70282 887// 333 10092 91111;
0101014670999992000112321004+58630+009140FM-12+000799999V0201201N002619999999N9999999N1+00851+00681100841ADDMA1999999100791MD1010001+9999REMSYN060AAXX  23214 01467 46/// /1205 10085 20068 30079 40084 50000;
0171014670999992000112400004+58630+009140FM-12+000799999V0201201N005110042019N0100001N1+00851+00711100711ADDAY181061AY221061GF108991071071004501021999MA1999999100651MD1810141+9999MW1611REMSYN082AAXX  24004 01467 41460 81210 10085 20071 30065 40071 58014 76182 8772/ 333 91111;
0161014670999992000112403004+58630+009140FM-12+000799999V0200901N004110042019N0100001N1+00821+00631100551ADDAY161031AY221031GF108991081071004501999999MA1999999100501MD1610151+9999MW1611REMSYN072AAXX  24034 01467 41460 80908 10082 20063 30050 40055 56015 76162 887//;
0130014670999992000112406004+58630+009140FM-12+000799999V0201001N004619999999N9999999N1+00831+00641100331ADDKA1120N+00791MA1999999100271MD1810231+9999REMSYN076AAXX  24064 01467 46/// /1009 10083 20064 30027 40033 58023 333 20079 91112;
0161014670999992000112409004+58630+009140FM-12+000799999V0201301N006210021019N0020001N1+00921+00761100101ADDAY161031AY251031GF108991081071002501999999MA1999999100051MD1810221+9999MW1581REMSYN072AAXX  24094 01467 41320 81312 10092 20076 30005 40010 58022 75865 887//;
0191014670999992000112412004+58630+009140FM-12+000799999V0201701N006210012019N0020001N1+00871+00761099981ADDAY161061AY251061GF108991081071001501999999MA1999999099921MD1610131+9999MW1631SA1+0909REMSYN094AAXX  24124 01467 41220 81712 10087 20076 39992 49998 56013 76365 887// 222// 00090 333 91117;
0161014670999992000112415004+58630+009140FM-12+000799999V0201601N005110012019N0030001N1+00901+00811099901ADDAY161031AY221031GF108991061071001501021999MA1999999099841MD1810081+9999MW1601REMSYN072AAXX  24154 01467 41230 81610 10090 20081 39984 49990 58008 76062 8672/;
0207014670999992000112418004+58630+009140FM-12+000799999V0202201N002610300019N0040001N1+00831+00631100061ADDAA112015091AY161061AY221061GF108991041071002501021999KA1120M+00931MA1999999100001MD1310161+9999MW1021REMSYN094AAXX  24184 01467 11340 82205 10083 20063 30000 40006 53016 60152 70262 8472/ 333 10093 91116;
0101014670999992000112421004+58630+009140FM-12+000799999V0202501N001519999999N9999999N1+00681+00531100251ADDMA1999999100201MD1110201+9999REMSYN060AAXX  24214 01467 46/// /2503 10068 20053 30020 40025 51020;
0143014670999992000112500004+58630+009140FM-12+000799999V0202401N001512200019N0250001N1+00641+00441100431ADDGF103991021061002501041011MA1999999100371MD1310171+9999REMSYN076AAXX  25004 01467 42375 32403 10064 20044 30037 40043 53017 82641 333 91108;
0133014670999992000112503004+58630+009140FM-12+000799999V0203201N000512200019N0300001N1+00501+00381100511ADDGF103991021061004501031021MA1999999100451MD1110081+9999REMSYN066AAXX  25034 01467 42480 33201 10050 20038 30045 40051 51008 82632;
0192014670999992000112506004+58630+009140FM-12+000799999V0203301N001012200019N0300001N1+00341+00271100591ADDAA199000091GF103991021021008001041021KA1120N+00311MA1999999100531MD1310081+9999REMSYN082AAXX  25064 01467 32580 33302 10034 20027 30053 40059 53008 82242 333 20031 91105;EQDQ01  00002PRCP99
0161014670999992000112509004+58630+009140FM-12+000799999V0200401N000510300019N0300001N1+00561+00491100661ADDAY181031AY221031GF106991041031002501061021MA1999999100611MD1210081+9999MW1031REMSYN072AAXX  25094 01467 41380 60401 10056 20049 30061 40066 52008 70382 84362;
0191014670999992000112512004+58630+009140FM-12+000799999V0201901N004110300019N0250001N1+00811+00621100621ADDAY181061AY221061GF106991041061002501061011MA1999999100561MD1710051+9999MW1021SA1+0909REMSYN094AAXX  25124 01467 41375 61908 10081 20062 30056 40062 57005 70282 84661 222// 00090 333 91111;
0133014670999992000112515004+58630+009140FM-12+000799999V0201701N005110021019N0200001N1+00731+00461100591ADDGF108991071071002501021999MA1999999100531MD1810031+9999REMSYN066AAXX  25154 01467 42370 81710 10073 20046 30053 40059 58003 8772/;
0179014670999992000112518004+58630+009140FM-12+000799999V0201501N003612200019N0300001N1+00761+00471100521ADDAA112002091GF104991021071002501061021KA1120M+00841MA1999999100461MD1810071+9999REMSYN088AAXX  25184 01467 12380 41507 10076 20047 30046 40052 58007 60022 82762 333 10084 91112;
0143014670999992000112600004+58630+009140FM-12+000799999V0201601N004112200019N0300001N1+00811+00361100391ADDGF103991011071002501031011MA1999999100331MD1810041+9999REMSYN076AAXX  26004 01467 42380 31608 10081 20036 30033 40039 58004 81731 333 91113;
0133014670999992000112603004+58630+009140FM-12+000799999V0201301N004610300019N0100001N1+00821+00441100211ADDGF108991041071002501021999MA1999999100161MD1710171+9999REMSYN066AAXX  26034 01467 42360 81309 10082 20044 30016 40021 57017 8472/;
0207014670999992000112606004+58630+009140FM-12+000799999V0201101N006210021019N0050001N1+00771+00501100081ADDAA112001091AY161061AY221061GF108991061071002501021999KA1120N+00741MA1999999100031MD1810131+9999MW1601REMSYN094AAXX  26064 01467 11350 81112 10077 20050 30003 40008 58013 60012 76062 8672/ 333 20074 91115;
0161014670999992000112609004+58630+009140FM-12+000799999V0200901N005110021019N0040001N1+00761+00561100051ADDAY161031AY221031GF108991081071002501999999MA1999999099991MD1810041+9999MW1621REMSYN072AAXX  26094 01467 41340 80910 10076 20056 39999 40005 58004 76262 887//;
0191014670999992000112612004+58630+009140FM-12+000799999V0200901N004610021019N0050001N1+00781+00631099911ADDAY181061AY261061GF107991051071002501021999MA1999999099861MD1710131+9999MW1801SA1+0889REMSYN094AAXX  26124 01467 41350 70909 10078 20063 39986 49991 57013 78086 8572/ 222// 00088 333 91116;
0161014670999992000112615004+58630+009140FM-12+000799999V0201201N004610021019N0100001N1+00841+00691099861ADDAY181031AY221031GF108991061071002501061999MA1999999099801MD1610061+9999MW1801REMSYN072AAXX  26154 01467 41360 81209 10084 20069 39980 49986 56006 78082 8676/;
0207014670999992000112618004+58630+009140FM-12+000799999V0201601N003110300019N0100001N1+00831+00511099861ADDAA112001091AY181061AY221061GF108991041071002501061999KA1120M+00861MA1999999099801MD1510001+9999MW1021REMSYN094AAXX  26184 01467 11360 81606 10083 20051 39980 49986 55000 60012 70282 8476/ 333 10086 91112;
0101014670999992000112621004+58630+009140FM-12+000799999V0201501N003119999999N9999999N1+00731+00481099971ADDMA1999999099911MD1110111+9999REMSYN060AAXX  26214 01467 46/// /1506 10073 20048 39991 49997 51011;
0171014670999992000112700004+58630+009140FM-12+000799999V0201601N004610021019N0050001N1+00771+00601100011ADDAY181061AY221061GF108991051071002501061999MA1999999099951MD1310041+9999MW1801REMSYN082AAXX  27004 01467 41350 81609 10077 20060 39995 40001 53004 78082 8576/ 333 91113;
0161014670999992000112703004+58630+009140FM-12+000799999V0201801N004110300019N0100001N1+00841+00691100131ADDAY181031AY221031GF107991041071002501021999MA1999999100081MD1210131+9999MW1021REMSYN072AAXX  27034 01467 41360 71808 10084 20069 30008 40013 52013 70282 8472/;
0207014670999992000112706004+58630+009140FM-12+000799999V0201901N002110021019N0050001N1+00861+00711100321ADDAA112001091AY181061AY221061GF108991051071002501061999KA1120N+00711MA1999999100261MD1310181+9999MW1801REMSYN094AAXX  27064 01467 11350 81904 10086 20071 30026 40032 53018 60012 78082 8576/ 333 20071 91112;
0161014670999992000112709004+58630+009140FM-12+000799999V0202301N000510750019N0200001N1+00771+00621100591ADDAY181031AY211031GF105991021081002501061021MA1999999100531MD1110271+9999MW1011REMSYN072AAXX  27094 01467 41370 52301 10077 20062 30053 40059 51027 70181 82862;
0191014670999992000112712004+58630+009140FM-12+000799999V0201201N000512200019N0250001N1+00811+00641100771ADDAY181061AY211061GF104991021031002501021011MA1999999100711MD1110181+9999MW1021SA1+0889REMSYN094AAXX  27124 01467 41375 41201 10081 20064 30071 40077 51018 70281 82321 222// 00088 333 91107;
0161014670999992000112715004+58630+009140FM-12+000799999V0202601N001010300019N0200001N1+00721+00611100921ADDAY181031AY211031GF106991041031002501061011MA1999999100871MD1310161+9999MW1161REMSYN072AAXX  27154 01467 41370 62602 10072 20061 30087 40092 53016 71681 84361;
0217014670999992000112718004+58630+009140FM-12+000799999V0203001N000512200019N0200001N1+00601+00511101061ADDAA112001091AY181061AY211061GA1001+999999999GF100991001001999999001001KA1120M+00871MA1999999101001MD1210131+9999MW1011REMSYN088AAXX  27184 01467 11970 03001 10060 20051 30100 40106 52013 60012 70181 333 10087 91106;
0101014670999992000112721004+58630+009140FM-12+000799999V0202901N000519999999N9999999N1+00461+00401101141ADDMA1999999101081MD1110081+9999REMSYN060AAXX  27214 01467 46/// /2901 10046 20040 30108 40114 51008;
0143014670999992000112800004+58630+009140FM-12+000799999V0203001N001012200019N0300001N1+00341+00281101191ADDGF101991011041012501001001MA1999999101131MD1310051+9999REMSYN076AAXX  28004 01467 42680 13002 10034 20028 30113 40119 53005 81400 333 91103;
0133014670999992000112803004+58630+009140FM-12+000799999V0203301N000512200019N0300001N1+00251+00191101181ADDGF101991011041012501001011MA1999999101121MD1610011+9999REMSYN066AAXX  28034 01467 42680 13301 10025 20019 30112 40118 56001 81401;
0192014670999992000112806004+58630+009140FM-12+000799999V0200201N001012200019N0300001N1+00261+00191101171ADDAA199000091GF103991021031002501041021KA1120N+00241MA1999999101111MD1810011+9999REMSYN082AAXX  28064 01467 32380 30202 10026 20019 30111 40117 58001 82342 333 20024 91103;EQDQ01  00002PRCP99
0133014670999992000112809004+58630+009140FM-12+000799999V0200201N001510300019N0300001N1+00291+00221101211ADDGF107991041061002501071999MA1999999101151MD1310041+9999REMSYN066AAXX  28094 01467 42380 70203 10029 20022 30115 40121 53004 8467/;
0191014670999992000112812004+58630+009140FM-12+000799999V0200401N002110300019N0250001N1+00441+00401101121ADDAY171061AY251061GF108991041061002501021999MA1999999101071MD1810081+9999MW1681SA1+0879REMSYN094AAXX  28124 01467 41375 80404 10044 20040 30107 40112 58008 76875 8462/ 222// 00087 333 91105;
0161014670999992000112815004+58630+009140FM-12+000799999V0201401N001510300019N0250001N1+00671+00581101021ADDAY171031AY251031GF108991041061002501021999MA1999999100971MD1610101+9999MW1031REMSYN072AAXX  28154 01467 41375 81403 10067 20058 30097 40102 56010 70375 8462/;
0207014670999992000112818004+58630+009140FM-12+000799999V0201301N002610300019N0250001N1+00781+00631100901ADDAA112001091AY161061AY251061GF108991041061002501021999KA1120M+00781MA1999999100841MD1610131+9999MW1811REMSYN094AAXX  28184 01467 11375 81305 10078 20063 30084 40090 56013 60012 78165 8462/ 333 10078 91106;
0101014670999992000112821004+58630+009140FM-12+000799999V0201201N004619999999N9999999N1+00801+00611100741ADDMA1999999100691MD1810151+9999REMSYN060AAXX  28214 01467 46/// /1209 10080 20061 30069 40074 58015;
0171014670999992000112900004+58630+009140FM-12+000799999V0201101N004610021019N0100001N1+00771+00661100591ADDAY181061AY261061GF108991081071002501999999MA1999999100531MD1810161+9999MW1621REMSYN082AAXX  29004 01467 41360 81109 10077 20066 30053 40059 58016 76286 887// 333 91112;
0161014670999992000112903004+58630+009140FM-12+000799999V0200801N004610300019N0100001N1+00741+00651100501ADDAY161031AY251031GF108991041061002501071999MA1999999100441MD1810091+9999MW1621REMSYN072AAXX  29034 01467 41360 80809 10074 20065 30044 40050 58009 76265 8467/;
0207014670999992000112906004+58630+009140FM-12+000799999V0200401N003610300019N0100001N1+00641+00571100591ADDAA112009991AY161061AY251061GF108991041061002501021999KA1120N+00641MA1999999100531MD1210091+9999MW1621REMSYN094AAXX  29064 01467 11360 80407 10064 20057 30053 40059 52009 60102 76265 8462/ 333 20064 91111;
0101014670999992000112909004+58630+009140FM-12+000799999V0200201N002619999999N9999999N1+00551+00481100671ADDMA1999999100611MD1010081+9999REMSYN060AAXX  29094 01467 46/// /0205 10055 20048 30061 40067 50008;
0111014670999992000112912004+58630+009140FM-12+000799999V0200101N002119999999N9999999N1+00541+00471100781ADDMA1999999100731MD1110121+9999REMSYN070AAXX  29124 01467 46/// /0104 10054 20047 30073 40078 51012 333 91110;
0133014670999992000112915004+58630+009140FM-12+000799999V0200401N002110021019N0100001N1+00561+00471100741ADDGF108991061061002501021999MA1999999100681MD1510051+9999REMSYN066AAXX  29154 01467 42360 80404 10056 20047 30068 40074 55005 8662/;
0101014670999992000112921004+58630+009140FM-12+000799999V0200301N002619999999N9999999N1+00621+00581100521ADDMA1999999100461MD1710081+9999REMSYN060AAXX  29214 01467 46/// /0305 10062 20058 30046 40052 57008;
0171014670999992000113000004+58630+009140FM-12+000799999V0200101N001510300019N0200001N1+00621+00591100361ADDAY181061AY251061GF108991041061002501021999MA1999999100301MD1810161+9999MW1811REMSYN082AAXX  30004 01467 41370 80103 10062 20059 30030 40036 58016 78185 8462/ 333 91110;
0161014670999992000113003004+58630+009140FM-12+000799999V0200201N001510300019N0150001N1+00631+00601100211ADDAY181031AY251031GF108991041061002501021999MA1999999100151MD1810151+9999MW1581REMSYN072AAXX  30034 01467 41365 80203 10063 20060 30015 40021 58015 75885 8462/;
0207014670999992000113006004+58630+009140FM-12+000799999V0202401N000510021019N0100001N1+00701+00671100201ADDAA112007191AY181061AY251061GF108991061061002501021999KA1120N+00591MA1999999100151MD1510001+9999MW1581REMSYN094AAXX  30064 01467 11360 82401 10070 20067 30015 40020 55000 60072 75885 8662/ 333 20059 91104;
0161014670999992000113009004+58630+009140FM-12+000799999V0202201N002612200019N0300001N1+00831+00801100321ADDAY181031AY251031GF103991021041002501041021MA1999999100261MD1310111+9999MW1021REMSYN072AAXX  30094 01467 41380 32205 10083 20080 30026 40032 53011 70285 82442;
0191014670999992000113012004+58630+009140FM-12+000799999V0202201N004610300019N0100001N1+00891+00751100461ADDAY181061AY251061GF105991031061002501031021MA1999999100401MD1110141+9999MW1031SA1+0849REMSYN094AAXX  30124 01467 41360 52209 10089 20075 30040 40046 51014 70385 83632 222// 00084 333 91111;
0133014670999992000113015004+58630+009140FM-12+000799999V0202401N002112200019N0300001N1+00861+00621100671ADDGF103991021041002501021021MA1999999100611MD1110211+9999REMSYN066AAXX  30154 01467 42380 32404 10086 20062 30061 40067 51021 82422;
0179014670999992000113018004+58630+009140FM-12+000799999V0202301N003610300019N0300001N1+00711+00491100891ADDAA112000591GF105991031061004501031021KA1120M+00921MA1999999100841MD1310231+9999REMSYN088AAXX  30184 01467 12480 52307 10071 20049 30084 40089 53023 69942 83632 333 10092 91111;
0101014670999992000113021004+58630+009140FM-12+000799999V0202501N001019999999N9999999N1+00641+00361101181ADDMA1999999101131MD1110291+9999REMSYN060AAXX  30214 01467 46/// /2502 10064 20036 30113 40118 51029;
0143014670999992000120100004+58630+009140FM-12+000799999V0203001N000512200019N0300001N1+00461+00311101271ADDGF102991011041004501041001MA1999999101221MD1110091+9999REMSYN076AAXX  01004 01467 42480 23001 10046 20031 30122 40127 51009 81440 333 91111;
0133014670999992000120103004+58630+009140FM-12+000799999V0202701N000512200019N0300001N1+00411+00321101301ADDGF102991011041004501041001MA1999999101241MD1010021+9999REMSYN066AAXX  01034 01467 42480 22701 10041 20032 30124 40130 50002 81440;
0192014670999992000120106004+58630+009140FM-12+000799999V0200101N000510300019N0280001N1+00471+00401101261ADDAA199000091GF107991031061004501021999KA1120N+00381MA1999999101201MD1810041+9999REMSYN082AAXX  01064 01467 32478 70101 10047 20040 30120 40126 58004 8362/ 333 20038 91102;EQDQ01  00002PRCP99
0133014670999992000120109004+58630+009140FM-12+000799999V0202001N001010300019N0280001N1+00701+00661101301ADDGF108991041061002501021999MA1999999101241MD1210041+9999REMSYN066AAXX  01094 01467 42378 82002 10070 20066 30124 40130 52004 8462/;
0163014670999992000120112004+58630+009140FM-12+000799999V0200801N001510300019N0280001N1+00751+00611101111ADDGF108991041061002501021999MA1999999101061MD1810181+9999SA1+0879REMSYN088AAXX  01124 01467 42378 80803 10075 20061 30106 40111 58018 8462/ 222// 00087 333 91108;
0101014670999992000120115004+58630+009140FM-12+000799999V0201101N001519999999N9999999N1+00831+00791100941ADDMA1999999100881MD1810181+9999REMSYN060AAXX  01154 01467 46/// /1103 10083 20079 30088 40094 58018;
0207014670999992000120118004+58630+009140FM-12+000799999V0201601N001510300019N0100001N1+00881+00841100821ADDAA112007191AY161061AY251061GF108991041061002501021999KA1120M+00881MA1999999100761MD1810121+9999MW1621REMSYN094AAXX  01184 01467 11360 81603 10088 20084 30076 40082 58012 60072 76265 8462/ 333 10088 91106;
0101014670999992000120121004+58630+009140FM-12+000799999V0201501N001519999999N9999999N1+00871+00831100731ADDMA1999999100681MD1810081+9999REMSYN060AAXX  01214 01467 46/// /1503 10087 20083 30068 40073 58008;
0191014670999992000120212004+58630+009140FM-12+000799999V0202201N003612200019N0300001N1+00931+00841100701ADDAY151061AY221061GF104991011061004501021021MA1999999100651MD1110121+9999MW1011SA1+0889REMSYN094AAXX  02124 01467 41480 42207 10093 20084 30065 40070 51012 70152 81622 222// 00088 333 91110;
0133014670999992000120215004+58630+009140FM-12+000799999V0202201N002112200019N0300001N1+00881+00741100831ADDGF104991011061004501021021MA1999999100781MD1310131+9999REMSYN066AAXX  02154 01467 42480 42204 10088 20074 30078 40083 53013 81622;
0179014670999992000120218004+58630+009140FM-12+000799999V0202201N003112200019N0300001N1+00891+00701100921ADDAA112001091GF103991011041004501041011KA1120M+00951MA1999999100871MD1110091+9999REMSYN088AAXX  02184 01467 12480 32206 10089 20070 30087 40092 51009 60012 81441 333 10095 91110;
0101014670999992000120221004+58630+009140FM-12+000799999V0202101N003119999999N9999999N1+00911+00791100981ADDMA1999999100921MD1110051+9999REMSYN060AAXX  02214 01467 46/// /2106 10091 20079 30092 40098 51005;
0143014670999992000120300004+58630+009140FM-12+000799999V0202101N004610300019N0250001N1+00951+00781101001ADDGF108991041061004501041999MA1999999100941MD1010021+9999REMSYN076AAXX  03004 01467 42475 82109 10095 20078 30094 40100 50002 8464/ 333 91113;
0133014670999992000120303004+58630+009140FM-12+000799999V0202201N003610300019N0250001N1+00941+00781100991ADDGF107991031061004501041999MA1999999100931MD1810011+9999REMSYN066AAXX  03034 01467 42475 72207 10094 20078 30093 40099 58001 8364/;
0162014670999992000120306004+58630+009140FM-12+000799999V0202101N003610300019N0250001N1+00951+00711101011ADDGF107991031061004501041999KA1120N+00891MA1999999100961MD1110031+9999REMSYN082AAXX  03064 01467 42475 72107 10095 20071 30096 40101 51003 8364/ 333 20089 91112;
0133014670999992000120309004+58630+009140FM-12+000799999V0201901N003110300019N0200001N1+00931+00841101061ADDGF107991041061002501021999MA1999999101001MD1310041+9999REMSYN066AAXX  03094 01467 42370 71906 10093 20084 30100 40106 53004 8462/;
0163014670999992000120312004+58630+009140FM-12+000799999V0202001N002610300019N0250001N1+00941+00821101011ADDGF107991041061002501021999MA1999999100961MD1810041+9999SA1+0939REMSYN088AAXX  03124 01467 42375 72005 10094 20082 30096 40101 58004 8462/ 222// 00093 333 91109;
0133014670999992000120315004+58630+009140FM-12+000799999V0201901N001510300019N0250001N1+00901+00791100931ADDGF107991031061002501041021MA1999999100871MD1610091+9999REMSYN066AAXX  03154 01467 42375 71903 10090 20079 30087 40093 56009 83642;
0162014670999992000120318004+58630+009140FM-12+000799999V0203201N000510300019N0250001N1+00851+00771100921ADDGF107991031061002501041021KA1120M+00961MA1999999100861MD1710011+9999REMSYN082AAXX  03184 01467 42375 73201 10085 20077 30086 40092 57001 83642 333 10096 91106;
0101014670999992000120321004+58630+009140FM-12+000799999V0202801N000519999999N9999999N1+00781+00711100931ADDMA1999999100871MD1310011+9999REMSYN060AAXX  03214 01467 46/// /2801 10078 20071 30087 40093 53001;
0143014670999992000120400004+58630+009140FM-12+000799999V0202301N001010300019N0200001N1+00761+00701100961ADDGF108991041061002501041999MA1999999100901MD1210031+9999REMSYN076AAXX  04004 01467 42370 82302 10076 20070 30090 40096 52003 8464/ 333 91104;
0133014670999992000120403004+58630+009140FM-12+000799999V0202301N001512200019N0300001N1+00611+00491101031ADDGF104991011061004501041021MA1999999100981MD1110081+9999REMSYN066AAXX  04034 01467 42480 42303 10061 20049 30098 40103 51008 81642;
0192014670999992000120406004+58630+009140FM-12+000799999V0202301N000510300019N0300001N1+00511+00421101071ADDAA199000091GF107991031061004501041021KA1120N+00501MA1999999101021MD1310041+9999REMSYN082AAXX  04064 01467 32480 72301 10051 20042 30102 40107 53004 83642 333 20050 91105;EQDQ01  00002PRCP99
0133014670999992000120409004+58630+009140FM-12+000799999V0202501N000510750019N0300001N1+00571+00481101121ADDGF105991021061004501041021MA1999999101071MD1210051+9999REMSYN066AAXX  04094 01467 42480 52501 10057 20048 30107 40112 52005 82642;
0163014670999992000120412004+58630+009140FM-12+000799999V0202001N005710300019N0250001N1+00861+00691101021ADDGF107991041061002501021999MA1999999100961MD1610111+9999SA1+0859REMSYN088AAXX  04124 01467 42375 72011 10086 20069 30096 40102 56011 8462/ 222// 00085 333 91113;
0133014670999992000120415004+58630+009140FM-12+000799999V0201901N004110300019N0250001N1+00781+00511100921ADDGF108991041061002501061999MA1999999100871MD1810091+9999REMSYN066AAXX  04154 01467 42375 81908 10078 20051 30087 40092 58009 8466/;
0130014670999992000120418004+58630+009140FM-12+000799999V0201801N004619999999N9999999N1+00821+00581100801ADDKA1120M+00871MA1999999100751MD1710121+9999REMSYN076AAXX  04184 01467 46/// /1809 10082 20058 30075 40080 57012 333 10087 91113;
0101014670999992000120421004+58630+009140FM-12+000799999V0201901N005119999999N9999999N1+00791+00591100721ADDMA1999999100661MD1810091+9999REMSYN060AAXX  04214 01467 46/// /1910 10079 20059 30066 40072 58009;
0171014670999992000120500004+58630+009140FM-12+000799999V0202001N004110021019N0080001N1+00851+00811100611ADDAY161061AY221061GF108991061071002501021999MA1999999100551MD1810111+9999MW1611REMSYN082AAXX  05004 01467 41358 82008 10085 20081 30055 40061 58011 76162 8672/ 333 91114;
0161014670999992000120503004+58630+009140FM-12+000799999V0201901N005710021019N0100001N1+00951+00901100551ADDAY161031AY221031GF108991051071002501061999MA1999999100501MD1510051+9999MW1811REMSYN072AAXX  05034 01467 41360 81911 10095 20090 30050 40055 55005 78162 8576/;
0207014670999992000120506004+58630+009140FM-12+000799999V0202201N004110300019N0100001N1+01001+00921100671ADDAA112004191AY181061AY261061GF108991041061002501021999KA1120N+00771MA1999999100611MD1310111+9999MW1811REMSYN094AAXX  05064 01467 11360 82208 10100 20092 30061 40067 53011 60042 78186 8462/ 333 20077 91116;
0161014670999992000120509004+58630+009140FM-12+000799999V0202001N005110021019N0060001N1+01001+00941100821ADDAY181031AY261031GF108991081071002501999999MA1999999100761MD1110151+9999MW1601REMSYN072AAXX  05094 01467 41356 82010 10100 20094 30076 40082 51015 76086 887//;
0191014670999992000120512004+58630+009140FM-12+000799999V0202001N004610021019N0060001N1+00991+00931100901ADDAY181061AY261061GF108991081071002501999999MA1999999100841MD1110081+9999MW1511SA1+0969REMSYN094AAXX  05124 01467 41356 82009 10099 20093 30084 40090 51008 75186 887// 222// 00096 333 91115;
0161014670999992000120515004+58630+009140FM-12+000799999V0202001N005710021019N0060001N1+00951+00841100981ADDAY161031AY251031GF108991081071002501999999MA1999999100931MD1310091+9999MW1601REMSYN072AAXX  05154 01467 41356 82011 10095 20084 30093 40098 53009 76065 887//;
0207014670999992000120518004+58630+009140FM-12+000799999V0202001N004110021019N0050001N1+00931+00841100991ADDAA112000591AY161061AY251061GF108991081061002501999999KA1120M+01011MA1999999100941MD1210011+9999MW1101REMSYN094AAXX  05184 01467 11350 82008 10093 20084 30094 40099 52001 69952 71065 886// 333 10101 91115;
0101014670999992000120521004+58630+009140FM-12+000799999V0201701N003119999999N9999999N1+00941+00851101031ADDMA1999999100971MD1110031+9999REMSYN060AAXX  05214 01467 46/// /1706 10094 20085 30097 40103 51003;
0143014670999992000120600004+58630+009140FM-12+000799999V0201301N002110300019N0250001N1+00921+00811100951ADDGF108991041061002501021999MA1999999100891MD1810081+9999REMSYN076AAXX  06004 01467 42375 81304 10092 20081 30089 40095 58008 8462/ 333 91111;
0133014670999992000120603004+58630+009140FM-12+000799999V0201601N002610021019N0120001N1+00931+00791100801ADDGF108991081061002501999999MA1999999100741MD1710151+9999REMSYN066AAXX  06034 01467 42362 81605 10093 20079 30074 40080 57015 886//;
0207014670999992000120606004+58630+009140FM-12+000799999V0201901N003610021019N0080001N1+00881+00801100721ADDAA112001091AY161061AY221061GF108991081071002501999999KA1120N+00881MA1999999100671MD1510071+9999MW1611REMSYN094AAXX  06064 01467 11358 81907 10088 20080 30067 40072 55007 60012 76162 887// 333 20088 91111;
0161014670999992000120609004+58630+009140FM-12+000799999V0202001N003110021019N0080001N1+00901+00841100761ADDAY161031AY221031GF108991081061002501999999MA1999999100711MD1110041+9999MW1611REMSYN072AAXX  06094 01467 41358 82006 10090 20084 30071 40076 51004 76162 886//;
0191014670999992000120612004+58630+009140FM-12+000799999V0202101N003110021019N0080001N1+00931+00871100851ADDAY161061AY221061GF108991061061002501021999MA1999999100801MD1110091+9999MW1611SA1+0979REMSYN094AAXX  06124 01467 41358 82106 10093 20087 30080 40085 51009 76162 8662/ 222// 00097 333 91110;
0161014670999992000120615004+58630+009140FM-12+000799999V0202101N002110021019N0080001N1+00941+00891100891ADDAY161031AY221031GF108991061061002501021999MA1999999100841MD1110041+9999MW1611REMSYN072AAXX  06154 01467 41358 82104 10094 20089 30084 40089 51004 76162 8662/;
0207014670999992000120618004+58630+009140FM-12+000799999V0201901N002610021019N0100001N1+00951+00891100981ADDAA118002091AY161061AY221061GF108991061061002501021999KA1120M+00971MA1999999100921MD1310081+9999MW1511REMSYN094AAXX  06184 01467 11360 81905 10095 20089 30092 40098 53008 60023 75162 8662/ 333 10097 91109;
0101014670999992000120621004+58630+009140FM-12+000799999V0201801N002619999999N9999999N1+00931+00871101021ADDMA1999999100961MD1110041+9999REMSYN060AAXX  06214 01467 46/// /1805 10093 20087 30096 40102 51004;
0181014670999992000120700004+58630+009140FM-12+000799999V0201901N000510006019N0009001N1+00911+00871100921ADDAY151061AY241061GA1091+999999999GF109991091999999999999999MA1999999100871MD1810091+9999MW1451REMSYN076AAXX  07004 01467 41/09 91901 10091 20087 30087 40092 58009 74554 333 91107;
0161014670999992000120703004+58630+009140FM-12+000799999V0201501N001510021019N0080001N1+00871+00841100761ADDAY161031AY251031GF108991061061002501021999MA1999999100701MD1810171+9999MW1611REMSYN072AAXX  07034 01467 41358 81503 10087 20084 30070 40076 58017 76165 8662/;
0207014670999992000120706004+58630+009140FM-12+000799999V0201401N003110021019N0080001N1+00821+00791100561ADDAA112006191AY161061AY251061GF108991061061002501021999KA1120N+00811MA1999999100501MD1610201+9999MW1611REMSYN094AAXX  07064 01467 11358 81406 10082 20079 30050 40056 56020 60062 76165 8662/ 333 20081 91108;
0161014670999992000120709004+58630+009140FM-12+000799999V0201101N003110300019N0100001N1+00771+00661100391ADDAY161031AY261031GF108991041071004501021999MA1999999100341MD1810161+9999MW1611REMSYN072AAXX  07094 01467 41460 81106 10077 20066 30034 40039 58016 76166 8472/;
0161014670999992000120715004+58630+009140FM-12+000799999V0203301N001010042019N0080001N1+00701+00641100201ADDAY161031AY251031GF108991061071004501021999MA1999999100151MD1310031+9999MW1511REMSYN072AAXX  07154 01467 41458 83302 10070 20064 30015 40020 53003 75165 8672/;
0207014670999992000120718004+58630+009140FM-12+000799999V0202401N001510075019N0300001N1+00701+00611100391ADDAA112007991AY161061AY251061GF107991051051008001071999KA1120M+00831MA1999999100331MD1110181+9999MW1011REMSYN094AAXX  07184 01467 11580 72403 10070 20061 30033 40039 51018 60082 70165 8557/ 333 10083 91105;
0101014670999992000120721004+58630+009140FM-12+000799999V0202301N001519999999N9999999N1+00631+00541100541ADDMA1999999100481MD1110151+9999REMSYN060AAXX  07214 01467 46/// /2303 10063 20054 30048 40054 51015;
0143014670999992000120800004+58630+009140FM-12+000799999V0203101N000512200019N0300001N1+00471+00401100551ADDGF102991011061004501041021MA1999999100501MD1310021+9999REMSYN076AAXX  08004 01467 42480 23101 10047 20040 30050 40055 53002 81642 333 91106;
0133014670999992000120803004+58630+009140FM-12+000799999V0203501N001010300019N0300001N1+00421+00381100481ADDGF105991021051008001041001MA1999999100421MD1810081+9999REMSYN066AAXX  08034 01467 42580 53502 10042 20038 30042 40048 58008 82540;
0192014670999992000120806004+58630+009140FM-12+000799999V0200101N002110300019N0300001N1+00381+00311100441ADDAA199000091GF107991031051008001071999KA1120N+00371MA1999999100391MD1610031+9999REMSYN082AAXX  08064 01467 32580 70104 10038 20031 30039 40044 56003 8357/ 333 20037 91105;EQDQ01  00002PRCP99
0191014670999992000120812004+58630+009140FM-12+000799999V0200501N005710021019N0200001N1+00691+00631100071ADDAY161061AY221061GF108991051061002501021999MA1999999100011MD1810241+9999MW1611SA1+0929REMSYN094AAXX  08124 01467 41370 80511 10069 20063 30001 40007 58024 76162 8562/ 222// 00092 333 91115;
0161014670999992000120815004+58630+009140FM-12+000799999V0200601N005710021019N0080001N1+00691+00631099961ADDAY161031AY261031GF108991081071002501999999MA1999999099901MD1510111+9999MW1631REMSYN072AAXX  08154 01467 41358 80611 10069 20063 39990 49996 55011 76366 887//;
0207014670999992000120818004+58630+009140FM-12+000799999V0200801N003110021019N0080001N1+00791+00751099901ADDAA112023191AY161061AY261061GF108991081071002501999999KA1120M+00801MA1999999099841MD1610061+9999MW1611REMSYN094AAXX  08184 01467 11358 80806 10079 20075 39984 49990 56006 60232 76166 887// 333 10080 91115;
0101014670999992000120821004+58630+009140FM-12+000799999V0200301N002619999999N9999999N1+00671+00631099921ADDMA1999999099861MD1310021+9999REMSYN060AAXX  08214 01467 46/// /0305 10067 20063 39986 49992 53002;
0171014670999992000120900004+58630+009140FM-12+000799999V0200201N001010300019N0100001N1+00661+00621100011ADDAY161061AY261061GF108991041071004501021999MA1999999099961MD1110101+9999MW1631REMSYN082AAXX  09004 01467 41460 80202 10066 20062 39996 40001 51010 76366 8472/ 333 91109;
0161014670999992000120903004+58630+009140FM-12+000799999V0202101N004110021019N0100001N1+00881+00741100021ADDAY161031AY221031GF108991061071002501021999MA1999999099961MD1510001+9999MW1601REMSYN072AAXX  09034 01467 41360 82108 10088 20074 39996 40002 55000 76062 8672/;
0207014670999992000120906004+58630+009140FM-12+000799999V0201801N004610021019N0080001N1+00931+00811099971ADDAA112009991AY161061AY221061GF108991061061002501071999KA1120N+00641MA1999999099911MD1610051+9999MW1101REMSYN094AAXX  09064 01467 11358 81809 10093 20081 39991 49997 56005 60102 71062 8667/ 333 20064 91114;
0161014670999992000120909004+58630+009140FM-12+000799999V0201801N005110300019N0100001N1+00921+00761100011ADDAY181031AY221031GF108991041091004501021999MA1999999099951MD1310041+9999MW1811REMSYN072AAXX  09094 01467 41460 81810 10092 20076 39995 40001 53004 78182 8492/;
0171014670999992000120912004+58630+009140FM-12+000799999V0202201N003112200019N0180001N1+00911+00761100051ADDAY181061AY211061GF104991021091004501041001MA1999999100001MD1310051+9999MW1011REMSYN082AAXX  09124 01467 41468 42206 10091 20076 30000 40005 53005 70181 82940 333 91114;
0161014670999992000120915004+58630+009140FM-12+000799999V0202001N003610300019N0280001N1+00911+00711100101ADDAY181031AY211031GF107991041091004501041999MA1999999100051MD1010051+9999MW1031REMSYN072AAXX  09154 01467 41478 72007 10091 20071 30005 40010 50005 70381 8494/;
0207014670999992000120918004+58630+009140FM-12+000799999V0202101N004610042019N0150001N1+00921+00751100111ADDAA112002091AY181061AY211061GF108991051091004501071999KA1120M+00941MA1999999100051MD1510001+9999MW1811REMSYN094AAXX  09184 01467 11465 82109 10092 20075 30005 40011 55000 60022 78181 8597/ 333 10094 91114;
0101014670999992000120921004+58630+009140FM-12+000799999V0202001N005119999999N9999999N1+00941+00741100121ADDMA1999999100071MD1110021+9999REMSYN060AAXX  09214 01467 46/// /2010 10094 20074 30007 40012 51002;
0171014670999992000121000004+58630+009140FM-12+000799999V0202001N004110042019N0250001N1+00881+00681100131ADDAY181061AY221061GF107991051091004501071999MA1999999100071MD1510001+9999MW1011REMSYN082AAXX  10004 01467 41475 72008 10088 20068 30007 40013 55000 70182 8597/ 333 91116;
0133014670999992000121003004+58630+009140FM-12+000799999V0202101N005110042019N0250001N1+00931+00771100071ADDGF108991051091004501071999MA1999999100021MD1610051+9999REMSYN066AAXX  10034 01467 42475 82110 10093 20077 30002 40007 56005 8597/;
0179014670999992000121006004+58630+009140FM-12+000799999V0202101N004610300019N0280001N1+00931+00771100071ADDAA112002091GF106991031051004501071001KA1120N+00861MA1999999100011MD1810011+9999REMSYN088AAXX  10064 01467 12478 62109 10093 20077 30001 40007 58001 60022 83570 333 20086 91116;
0161014670999992000121009004+58630+009140FM-12+000799999V0202101N004610042019N0150001N1+00921+00731100111ADDAY181031AY221031GF107991051091004501071999MA1999999100051MD1210041+9999MW1811REMSYN072AAXX  10094 01467 41465 72109 10092 20073 30005 40011 52004 78182 8597/;
0191014670999992000121012004+58630+009140FM-12+000799999V0202101N004110042019N0120001N1+00861+00621100071ADDAY181061AY221061GF108991051091004501071999MA1999999100011MD1810041+9999MW1811SA1+0909REMSYN094AAXX  10124 01467 41462 82108 10086 20062 30001 40007 58004 78182 8597/ 222// 00090 333 91114;
0161014670999992000121015004+58630+009140FM-12+000799999V0201901N005110300019N0220001N1+00861+00621100001ADDAY181031AY221031GF107991031091004501071999MA1999999099941MD1610071+9999MW1251REMSYN072AAXX  10154 01467 41472 71910 10086 20062 39994 40000 56007 72582 8397/;
0207014670999992000121018004+58630+009140FM-12+000799999V0201601N003110300019N0200001N1+00801+00561099911ADDAA112002091AY181061AY221061GF107991031091004501071999KA1120M+00941MA1999999099851MD1810091+9999MW1801REMSYN094AAXX  10184 01467 11470 71606 10080 20056 39985 49991 58009 60022 78082 8397/ 333 10094 91114;
0101014670999992000121021004+58630+009140FM-12+000799999V0201501N002619999999N9999999N1+00811+00721099791ADDMA1999999099741MD1710111+9999REMSYN060AAXX  10214 01467 46/// /1505 10081 20072 39974 49979 57011;
0171014670999992000121100004+58630+009140FM-12+000799999V0202401N001012200019N0400001N1+00731+00661099961ADDAY181061AY211061GF101991011001022501041001MA1999999099911MD1310171+9999MW1011REMSYN082AAXX  11004 01467 41882 12402 10073 20066 39991 49996 53017 70181 81040 333 91112;
0133014670999992000121103004+58630+009140FM-12+000799999V0202501N001512200019N0400001N1+00621+00551100121ADDGF103991011001022501041021MA1999999100071MD1110161+9999REMSYN066AAXX  11034 01467 42882 32503 10062 20055 30007 40012 51016 81042;
0179014670999992000121106004+58630+009140FM-12+000799999V0202401N002110300019N0400001N1+00681+00561100221ADDAA112003091GF107991021051008001071999KA1120N+00611MA1999999100171MD1310101+9999REMSYN088AAXX  11064 01467 12582 72404 10068 20056 30017 40022 53010 60032 8257/ 333 20061 91107;
0133014670999992000121109004+58630+009140FM-12+000799999V0202301N001010300019N0300001N1+00651+00561100261ADDGF107991031051008001071999MA1999999100211MD1210041+9999REMSYN066AAXX  11094 01467 42580 72302 10065 20056 30021 40026 52004 8357/;
0191014670999992000121112004+58630+009140FM-12+000799999V0202001N003110021019N0080001N1+00821+00741100081ADDAY121061AY221061GF108991051061002501071999MA1999999100021MD1810191+9999MW1101SA1+0889REMSYN094AAXX  11124 01467 41358 82006 10082 20074 30002 40008 58019 71022 8567/ 222// 00088 333 91108;
0161014670999992000121115004+58630+009140FM-12+000799999V0201801N002110042019N0120001N1+00741+00551099911ADDAY161031AY221031GF108991051071004501021999MA1999999099861MD1810161+9999MW1611REMSYN072AAXX  11154 01467 41462 81804 10074 20055 39986 49991 58016 76162 8572/;
0207014670999992000121118004+58630+009140FM-12+000799999V0203301N001010021019N0100001N1+00631+00571099921ADDAA112003091AY161061AY251061GF108991051071002501021999KA1120M+00861MA1999999099871MD1310011+9999MW1511REMSYN094AAXX  11184 01467 11360 83302 10063 20057 39987 49992 53001 60032 75165 8572/ 333 10086 91111;
0101014670999992000121121004+58630+009140FM-12+000799999V0202401N001519999999N9999999N1+00551+00461100221ADDMA1999999100171MD1310301+9999REMSYN060AAXX  11214 01467 46/// /2403 10055 20046 30017 40022 53030;
0179014670999992000121206004+58630+009140FM-12+000799999V0202401N002610210019N0400001N1+00491+00341100671ADDAA112000191GF106991061001022501071001KA1120N+00411MA1999999100611MD1310081+9999REMSYN088AAXX  12064 01467 12882 62405 10049 20034 30061 40067 53008 69922 86070 333 20041 91108;
0133014670999992000121209004+58630+009140FM-12+000799999V0203001N000510300019N0400001N1+00481+00351100641ADDGF107991041051008001071999MA1999999100581MD1810031+9999REMSYN066AAXX  12094 01467 42582 73001 10048 20035 30058 40064 58003 8457/;
0111014670999992000121212004+58630+009140FM-12+000799999V0200401N002119999999N9999999N1+00521+00451100461ADDMA1999999100401MD1810181+9999REMSYN070AAXX  12124 01467 46/// /0404 10052 20045 30040 40046 58018 333 91106;
0161014670999992000121215004+58630+009140FM-12+000799999V0203401N001010021019N0020001N1+00491+00451100211ADDAY161031AY221031GF108991061071002501021999MA1999999100161MD1610241+9999MW1601REMSYN072AAXX  12154 01467 41320 83402 10049 20045 30016 40021 56024 76062 8672/;
0207014670999992000121218004+58630+009140FM-12+000799999V0203601N001010021019N0050001N1+00481+00441100241ADDAA112005191AY161061AY221061GF108991081051002501999999KA1120M+00741MA1999999100181MD1310021+9999MW1101REMSYN094AAXX  12184 01467 11350 83602 10048 20044 30018 40024 53002 60052 71062 885// 333 10074 91107;
0101014670999992000121221004+58630+009140FM-12+000799999V0200301N001019999999N9999999N1+00531+00491100141ADDMA1999999100091MD1810091+9999REMSYN060AAXX  12214 01467 46/// /0302 10053 20049 30009 40014 58009;
0181014670999992000121300004+58630+009140FM-12+000799999V0201401N002610006019N0007001N1+00861+00851099731ADDAY161061AY241061GA1091+999999999GF109991091999999999999999MA1999999099671MD1810421+9999MW1611REMSYN076AAXX  13004 01467 41/07 91405 10086 20085 39967 49973 58042 76164 333 91106;
0196014670999992000121303004+58630+009140FM-12+000799999V0201401N006710021019N0050001N1+00921+00911098992ADDAY161031AY241031GF108991061071002501021999MA1999999098942MD1810731+9999MW1631REMSYN072AAXX  13034 01467 41350 81413 10092 20091 39894 49899 58073 76364 8672/;EQDQ01+098943APOSP Q02+098993APOSLP
0207014670999992000121306004+58630+009140FM-12+000799999V0201901N005710021019N0050001N1+00951+00901098441ADDAA112016091AY161061AY241061GF108991061071002501021999KA1120N+00481MA1999999098391MD1610551+9999MW1631REMSYN094AAXX  13064 01467 11350 81911 10095 20090 39839 49844 56055 60162 76364 8672/ 333 20048 91118;
0161014670999992000121309004+58630+009140FM-12+000799999V0202101N003610300019N0200001N1+00921+00801098281ADDAY181031AY261031GF107991041091004501071999MA1999999098231MD1610161+9999MW1251REMSYN072AAXX  13094 01467 41470 72107 10092 20080 39823 49828 56016 72586 8497/;
0191014670999992000121312004+58630+009140FM-12+000799999V0202101N004110300019N0200001N1+00871+00731098041ADDAY181061AY261061GF107991041091004501071999MA1999999097991MD1610241+9999MW1021SA1+0869REMSYN094AAXX  13124 01467 41470 72108 10087 20073 39799 49804 56024 70286 8497/ 222// 00086 333 91116;
0133014670999992000121315004+58630+009140FM-12+000799999V0202301N003110300019N0200001N1+00841+00721098111ADDGF107991021091004501071999MA1999999098061MD1310071+9999REMSYN066AAXX  13154 01467 42470 72306 10084 20072 39806 49811 53007 8297/;
0179014670999992000121318004+58630+009140FM-12+000799999V0202301N003610300019N0220001N1+00741+00491098401ADDAA112002091GF106991021051004501071001KA1120M+00961MA1999999098351MD1110291+9999REMSYN088AAXX  13184 01467 12472 62307 10074 20049 39835 49840 51029 60022 82570 333 10096 91113;
0101014670999992000121321004+58630+009140FM-12+000799999V0202401N004619999999N9999999N1+00741+00381098421ADDMA1999999098371MD1110021+9999REMSYN060AAXX  13214 01467 46/// /2409 10074 20038 39837 49842 51002;
0143014670999992000121400004+58630+009140FM-12+000799999V0202301N004112200019N0300001N1+00731+00351098371ADDGF102991011001022501041021MA1999999098321MD1810051+9999REMSYN076AAXX  14004 01467 42880 22308 10073 20035 39832 49837 58005 81042 333 91115;
0207014670999992000121406004+58630+009140FM-12+000799999V0202201N004112200019N0280001N1+00691+00471098041ADDAA112001091AY181061AY211061GF104991021071004501041001KA1120N+00621MA1999999097981MD1810221+9999MW1251REMSYN094AAXX  14064 01467 11478 42208 10069 20047 39798 49804 58022 60012 72581 82740 333 20062 91112;
0161014670999992000121409004+58630+009140FM-12+000799999V0202201N006210021019N0050001N1+00771+00571097801ADDAY181031AY221031GF108991051061002501021999MA1999999097751MD1810231+9999MW1031REMSYN072AAXX  14094 01467 41350 82212 10077 20057 39775 49780 58023 70382 8562/;
0191014670999992000121412004+58630+009140FM-12+000799999V0202401N002110042019N0250001N1+00751+00611097731ADDAY181061AY221061GF107991061051004501071999MA1999999097681MD1510071+9999MW1801SA1+0949REMSYN094AAXX  14124 01467 41475 72404 10075 20061 39768 49773 55007 78082 8657/ 222// 00094 333 91116;
0161014670999992000121415004+58630+009140FM-12+000799999V0202201N002610300019N0200001N1+00781+00631097741ADDAY181031AY221031GF106991031091004501071999MA1999999097681MD1410001+9999MW1021REMSYN072AAXX  14154 01467 41470 62205 10078 20063 39768 49774 54000 70282 8397/;
0207014670999992000121418004+58630+009140FM-12+000799999V0202201N003110750019N0150001N1+00851+00651097661ADDAA112002091AY181061AY221061GF105991021051004501071021KA1120M+00861MA1999999097611MD1810071+9999MW1021REMSYN094AAXX  14184 01467 11465 52206 10085 20065 39761 49766 58007 60022 70282 82572 333 10086 91111;
0101014670999992000121421004+58630+009140FM-12+000799999V0202101N001519999999N9999999N1+00861+00721097591ADDMA1999999097541MD1810071+9999REMSYN060AAXX  14214 01467 46/// /2103 10086 20072 39754 49759 58007;
0171014670999992000121500004+58630+009140FM-12+000799999V0200201N004110300019N0200001N1+00581+00481097771ADDAY181061AY221061GF108991041091004501071999MA1999999097711MD1310171+9999MW1251REMSYN082AAXX  15004 01467 41470 80208 10058 20048 39771 49777 53017 72582 8497/ 333 91112;
0133014670999992000121503004+58630+009140FM-12+000799999V0203601N002112200019N0400001N1+00541+00281097961ADDGF104991011001022501041021MA1999999097901MD1210191+9999REMSYN066AAXX  15034 01467 42882 43604 10054 20028 39790 49796 52019 81042;
0179014670999992000121506004+58630+009140FM-12+000799999V0200101N002612200019N0400001N1+00561+00191098131ADDAA112004191GF104991011001022501041021KA1120N+00541MA1999999098071MD1110171+9999REMSYN088AAXX  15064 01467 12882 40105 10056 20019 39807 49813 51017 60042 81042 333 20054 91114;
0143014670999992000121600004+58630+009140FM-12+000799999V0200101N003112200019N0400001N1+00561-00021099041ADDGF104991021001022501041021MA1999999098991MD1210171+9999REMSYN076AAXX  16004 01467 42882 40106 10056 21002 39899 49904 52017 82042 333 91113;
0133014670999992000121603004+58630+009140FM-12+000799999V0200101N003110210019N0400001N1+00611-00111099231ADDGF106991061001022501031001MA1999999099171MD1110181+9999REMSYN066AAXX  16034 01467 42882 60106 10061 21011 39917 49923 51018 86030;
0192014670999992000121606004+58630+009140FM-12+000799999V0203601N001510210019N0400001N1+00591-00121099391ADDAA199000091GF106991061001022501031001KA1120N+00421MA1999999099331MD1310161+9999REMSYN082AAXX  16064 01467 32882 63603 10059 21012 39933 49939 53016 86030 333 20042 91111;EQDQ01  00002PRCP99
0133014670999992000121609004+58630+009140FM-12+000799999V0200101N002610300019N0400001N1+00611-00111099581ADDGF107991031051008001071999MA1999999099521MD1110191+9999REMSYN066AAXX  16094 01467 42582 70105 10061 21011 39952 49958 51019 8357/;
0161014670999992000121615004+58630+009140FM-12+000799999V0200201N003610075019N0400001N1+00561-00021099961ADDAY181031AY221031GF107991051051008001071999MA1999999099911MD1310221+9999MW1021REMSYN072AAXX  16154 01467 41582 70207 10056 21002 39991 49996 53022 70282 8557/;
0207014670999992000121618004+58630+009140FM-12+000799999V0200201N003112200019N0400001N1+00561-00061100181ADDAA112001091AY181061AY221061GF103991021051008001071021KA1120M+00621MA1999999100121MD1310211+9999MW1011REMSYN094AAXX  16184 01467 11582 30206 10056 21006 30012 40018 53021 60012 70182 82572 333 10062 91110;
0101014670999992000121621004+58630+009140FM-12+000799999V0200301N002119999999N9999999N1+00531+00051100421ADDMA1999999100361MD1110241+9999REMSYN060AAXX  16214 01467 46/// /0304 10053 20005 30036 40042 51024;
0171014670999992000121700004+58630+009140FM-12+000799999V0200201N001510300019N0300001N1+00521+00021100561ADDAY151061AY221061GF108991041071004501021999MA1999999100511MD1110151+9999MW1501REMSYN082AAXX  17004 01467 41480 80203 10052 20002 30051 40056 51015 75052 8472/ 333 91110;
0161014670999992000121703004+58630+009140FM-12+000799999V0200101N001510300019N0300001N1+00481-00081100691ADDAY151031AY221031GF107991031051008001071999MA1999999100631MD1310121+9999MW1021REMSYN072AAXX  17034 01467 41580 70103 10048 21008 30063 40069 53012 70252 8357/;
0163014670999992000121712004+58630+009140FM-12+000799999V0203601N001010300019N0300001N1+00411-00151101051ADDGF107991021051012501031999MA1999999101001MD1110111+9999SA1+0809REMSYN088AAXX  17124 01467 42680 73602 10041 21015 30100 40105 51011 8253/ 222// 00080 333 91104;
0161014670999992000121715004+58630+009140FM-12+000799999V0203501N000510300019N0300001N1+00361-00171101141ADDAY121031AY221031GF107991031051012501051999MA1999999101091MD1310091+9999MW1151REMSYN072AAXX  17154 01467 41680 73501 10036 21017 30109 40114 53009 71522 8355/;
0192014670999992000121718004+58630+009140FM-12+000799999V0203501N001010300019N0300001N1+00341-00151101241ADDAA199000091GF108991041051012501071999KA1120M+00421MA1999999101181MD1310091+9999REMSYN082AAXX  17184 01467 32680 83502 10034 21015 30118 40124 53009 8457/ 333 10042 91103;EQDQ01  00002PRCP99
0143014670999992000121800004+58630+009140FM-12+000799999V0200101N001512200019N0300001N1+00251-00181101481ADDGF104991021051012501031021MA1999999101421MD1110081+9999REMSYN076AAXX  18004 01467 42680 40103 10025 21018 30142 40148 51008 82532 333 91105;
0133014670999992000121803004+58630+009140FM-12+000799999V0200101N001510300019N0300001N1+00221-00231101601ADDGF107991031051008001031999MA1999999101541MD1210121+9999REMSYN066AAXX  18034 01467 42580 70103 10022 21023 30154 40160 52012 8353/;
0133014670999992000121809004+58630+009140FM-12+000799999V0203601N002112200019N0200001N1+00071-00361101831ADDGF102991011051008001071001MA1999999101771MD1110171+9999REMSYN066AAXX  18094 01467 42570 23604 10007 21036 30177 40183 51017 81570;
0163014670999992000121812004+58630+009140FM-12+000799999V0200101N002112200019N0300001N1+00161-00331101941ADDGF102991021051012501031001MA1999999101881MD1110111+9999SA1+0749REMSYN088AAXX  18124 01467 42680 20104 10016 21033 30188 40194 51011 82530 222// 00074 333 91107;
0133014670999992000121815004+58630+009140FM-12+000799999V0200201N002610300019N0200001N1+00231-00221102081ADDGF107991031091008001071999MA1999999102021MD1210141+9999REMSYN066AAXX  18154 01467 42570 70205 10023 21022 30202 40208 52014 8397/;
0192014670999992000121818004+58630+009140FM-12+000799999V0200201N003110300019N0150001N1+00241-00191102221ADDAA199000091GF108991031091008001071999KA1120M+00241MA1999999102161MD1310141+9999REMSYN082AAXX  18184 01467 32565 80206 10024 21019 30216 40222 53014 8397/ 333 10024 91109;EQDQ01  00002PRCP99
0101014670999992000121821004+58630+009140FM-12+000799999V0200301N003119999999N9999999N1+00241-00091102381ADDMA1999999102321MD1110161+9999REMSYN060AAXX  18214 01467 46/// /0306 10024 21009 30232 40238 51016;
0143014670999992000121900004+58630+009140FM-12+000799999V0200401N003610300019N0200001N1+00261-00051102541ADDGF107991041051008001041021MA1999999102491MD1110171+9999REMSYN076AAXX  19004 01467 42570 70407 10026 21005 30249 40254 51017 84542 333 91110;
0133014670999992000121903004+58630+009140FM-12+000799999V0200301N003110300019N0200001N1+00231-00061102681ADDGF108991041051008001041999MA1999999102621MD1110131+9999REMSYN066AAXX  19034 01467 42570 80306 10023 21006 30262 40268 51013 8454/;
0192014670999992000121906004+58630+009140FM-12+000799999V0200301N002610300019N0200001N1+00281-00141102791ADDAA199000091GF108991041051008001071999KA1120N+00221MA1999999102741MD1310121+9999REMSYN082AAXX  19064 01467 32570 80305 10028 21014 30274 40279 53012 8457/ 333 20022 91111;EQDQ01  00002PRCP99
0133014670999992000121909004+58630+009140FM-12+000799999V0200101N001510300019N0200001N1+00241-00251102971ADDGF108991031061004501071999MA1999999102921MD1210181+9999REMSYN066AAXX  19094 01467 42470 80103 10024 21025 30292 40297 52018 8367/;
0111014670999992000121912004+58630+009140FM-12+000799999V0200101N002119999999N9999999N1+00261-00371103061ADDMA1999999103001MD1110081+9999REMSYN070AAXX  19124 01467 46/// /0104 10026 21037 30300 40306 51008 333 91108;
0133014670999992000121915004+58630+009140FM-12+000799999V0200201N001510300019N0200001N1+00231-00441103161ADDGF108991041071004501071999MA1999999103101MD1110101+9999REMSYN066AAXX  19154 01467 42470 80203 10023 21044 30310 40316 51010 8477/;
0192014670999992000121918004+58630+009140FM-12+000799999V0200301N003110300019N0200001N1+00231-00281103171ADDAA199000091GF108991031071004501071999KA1120M+00281MA1999999103121MD1310021+9999REMSYN082AAXX  19184 01467 32470 80306 10023 21028 30312 40317 53002 8377/ 333 10028 91108;EQDQ01  00002PRCP99
0101014670999992000121921004+58630+009140FM-12+000799999V0200201N002619999999N9999999N1+00191-00221103261ADDMA1999999103201MD1010081+9999REMSYN060AAXX  19214 01467 46/// /0205 10019 21022 30320 40326 50008;
0171014670999992000122000004+58630+009140FM-12+000799999V0200301N002610042019N0150001N1+00111-00161103261ADDAY171061AY221061GF108991051071004501021999MA1999999103201MD1510001+9999MW1701REMSYN082AAXX  20004 01467 41465 80305 10011 21016 30320 40326 55000 77072 8572/ 333 91108;
0161014670999992000122003004+58630+009140FM-12+000799999V0200201N002610300019N0200001N1+00101-00141103271ADDAY181031AY271031GF108991031071004501021999MA1999999103221MD1310021+9999MW1021REMSYN072AAXX  20034 01467 41470 80205 10010 21014 30322 40327 53002 70287 8372/;
0207014670999992000122006004+58630+009140FM-12+000799999V0200201N002110300019N0200001N1+00091-00151103191ADDAA112000191AY181061AY271061GF107991041071004501071999KA1120N+00081MA1999999103141MD1610081+9999MW1021REMSYN094AAXX  20064 01467 11470 70204 10009 21015 30314 40319 56008 69912 70287 8477/ 333 20008 91108;
0101014670999992000122009004+58630+009140FM-12+000799999V0200201N002619999999N9999999N1+00081-00171103231ADDMA1999999103171MD1010031+9999REMSYN060AAXX  20094 01467 46/// /0205 10008 21017 30317 40323 50003;
0111014670999992000122012004+58630+009140FM-12+000799999V0200301N002119999999N9999999N1+00091-00041103201ADDMA1999999103141MD1810031+9999REMSYN070AAXX  20124 01467 46/// /0304 10009 21004 30314 40320 58003 333 91107;
0161014670999992000122015004+58630+009140FM-12+000799999V0200101N001010042019N0100001N1+00061-00071103171ADDAY171031AY251031GF108991071071004501021999MA1999999103121MD1610021+9999MW1501REMSYN072AAXX  20154 01467 41460 80102 10006 21007 30312 40317 56002 75075 8772/;
0207014670999992000122018004+58630+009140FM-12+000799999V0200301N002110042019N0100001N1+00101-00061103161ADDAA112000791AY151061AY221061GF108991071071004501021999KA1120M+00101MA1999999103101MD1810021+9999MW1021REMSYN094AAXX  20184 01467 11460 80304 10010 21006 30310 40316 58002 69902 70252 8772/ 333 10010 91105;
0101014670999992000122021004+58630+009140FM-12+000799999V0200301N001519999999N9999999N1+00151+00001103201ADDMA1999999103141MD1210041+9999REMSYN060AAXX  20214 01467 46/// /0303 10015 20000 30314 40320 52004;
0133014670999992000122103004+58630+009140FM-12+000799999V0201801N002610300019N0200001N1+00441-00061103181ADDGF107991041051004501041999MA1999999103131MD1510001+9999REMSYN066AAXX  21034 01467 42470 71805 10044 21006 30313 40318 55000 8454/;
0192014670999992000122106004+58630+009140FM-12+000799999V0201801N002610300019N0200001N1+00451-00071103191ADDAA199000091GF107991041061004501021999KA1120N+00101MA1999999103131MD1410001+9999REMSYN082AAXX  21064 01467 32470 71805 10045 21007 30313 40319 54000 8462/ 333 20010 91108;EQDQ01  00002PRCP99
0101014670999992000122109004+58630+009140FM-12+000799999V0201901N002119999999N9999999N1+00441-00061103241ADDMA1999999103181MD1110051+9999REMSYN060AAXX  21094 01467 46/// /1904 10044 21006 30318 40324 51005;
0163014670999992000122112004+58630+009140FM-12+000799999V0203001N000510300019N0250001N1+00301+00011103241ADDGF106991031081004501061021MA1999999103181MD1010001+9999SA1+0689REMSYN088AAXX  21124 01467 42475 63001 10030 20001 30318 40324 50000 83862 222// 00068 333 91108;
0133014670999992000122115004+58630+009140FM-12+000799999V0202601N000510300019N0250001N1+00241+00011103181ADDGF107991031081004501061091MA1999999103121MD1810061+9999REMSYN066AAXX  21154 01467 42475 72601 10024 20001 30312 40318 58006 83869;
0192014670999992000122118004+58630+009140FM-12+000799999V0202901N001012200019N0300001N1+00121-00071103101ADDAA199000091GF102991011041008001041011KA1120M+00471MA1999999103041MD1710081+9999REMSYN082AAXX  21184 01467 32580 22902 10012 21007 30304 40310 57008 81441 333 10047 91103;EQDQ01  00002PRCP99
0101014670999992000122121004+58630+009140FM-12+000799999V0202501N000519999999N9999999N1+00211-00061103061ADDMA1999999103001MD1810041+9999REMSYN060AAXX  21214 01467 46/// /2501 10021 21006 30300 40306 58004;
0133014670999992000122203004+58630+009140FM-12+000799999V0202501N001510075019N0200001N1+00281-00191102651ADDGF108991051041008001021021MA1999999102591MD1710211+9999REMSYN066AAXX  22034 01467 42570 82503 10028 21019 30259 40265 57021 85422;
0192014670999992000122206004+58630+009140FM-12+000799999V0202601N002610300019N0200001N1+00191-00281102411ADDAA199000091GF108991031041008001011021KA1120N+00111MA1999999102351MD1610241+9999REMSYN082AAXX  22064 01467 32570 82605 10019 21028 30235 40241 56024 83412 333 20011 91110;EQDQ01  00002PRCP99
0101014670999992000122209004+58630+009140FM-12+000799999V0202601N001519999999N9999999N1+00131-00321102211ADDMA1999999102151MD1710201+9999REMSYN060AAXX  22094 01467 46/// /2603 10013 21032 30215 40221 57020;
0163014670999992000122212004+58630+009140FM-12+000799999V0202601N002110300019N0150001N1+00171-00261101931ADDGF107991031061004501061021MA1999999101871MD1810281+9999SA1+0649REMSYN088AAXX  22124 01467 42465 72604 10017 21026 30187 40193 58028 83662 222// 00064 333 91107;
0133014670999992000122215004+58630+009140FM-12+000799999V0202901N001510300019N0200001N1+00091-00491101701ADDGF105991031051004501021091MA1999999101651MD1610221+9999REMSYN066AAXX  22154 01467 42470 52903 10009 21049 30165 40170 56022 83529;
0192014670999992000122218004+58630+009140FM-12+000799999V0203401N000512200019N0300001N1-00051-00471101511ADDAA199000091GF102991021041008001001011KA1120M+00191MA1999999101451MD1610201+9999REMSYN082AAXX  22184 01467 32580 23401 11005 21047 30145 40151 56020 82401 333 10019 91106;EQDQ01  00002PRCP99
0101014670999992000122221004+58630+009140FM-12+000799999V0203301N001019999999N9999999N1-00081-00451101391ADDMA1999999101341MD1710111+9999REMSYN060AAXX  22214 01467 46/// /3302 11008 21045 30134 40139 57011;
0153014670999992000122300004+58630+009140FM-12+000799999V0202801N000512200019N0300001N1-00051-00391101251ADDGA1001+999999999GF100991001001999999001001MA1999999101191MD1810151+9999REMSYN070AAXX  23004 01467 42980 02801 11005 21039 30119 40125 58015 333 91103;
0101014670999992000122303004+58630+009140FM-12+000799999V0203101N000519999999N9999999N1-00081-00271101091ADDMA1999999101031MD1610161+9999REMSYN060AAXX  23034 01467 46/// /3101 11008 21027 30103 40109 56016;
0192014670999992000122306004+58630+009140FM-12+000799999V0203101N001012200019N0300001N1-00061-00361100921ADDAA199000091GF102991011041008001041021KA1120N-00131MA1999999100871MD1610161+9999REMSYN082AAXX  23064 01467 32580 23102 11006 21036 30087 40092 56016 81442 333 21013 91103;EQDQ01  00002PRCP99
0133014670999992000122309004+58630+009140FM-12+000799999V0203301N001012200019N0300001N1-00031-00331100921ADDGF103991021041008001031011MA1999999100861MD1510011+9999REMSYN066AAXX  23094 01467 42580 33302 11003 21033 30086 40092 55001 82431;
0163014670999992000122312004+58630+009140FM-12+000799999V0200401N002110300019N0300001N1+00181-00311100841ADDGF105991031041008001031021MA1999999100791MD1810071+9999SA1+0649REMSYN088AAXX  23124 01467 42580 50404 10018 21031 30079 40084 58007 83432 222// 00064 333 91105;
0133014670999992000122315004+58630+009140FM-12+000799999V0200101N002610300019N0300001N1+00141-00331100831ADDGF106991031081004501061091MA1999999100771MD1610021+9999REMSYN066AAXX  23154 01467 42480 60105 10014 21033 30077 40083 56002 83869;
0192014670999992000122318004+58630+009140FM-12+000799999V0200101N002110300019N0200001N1+00101-00291100871ADDAA199000091GF108991031041004501011999KA1120M+00201MA1999999100811MD1210041+9999REMSYN082AAXX  23184 01467 32470 80104 10010 21029 30081 40087 52004 8341/ 333 10020 91109;EQDQ01  00002PRCP99
0101014670999992000122321004+58630+009140FM-12+000799999V0203601N001019999999N9999999N1+00081-00381100891ADDMA1999999100841MD1110031+9999REMSYN060AAXX  23214 01467 46/// /3602 10008 21038 30084 40089 51003;
0143014670999992000122400004+58630+009140FM-12+000799999V0203601N001510300019N0200001N1+00031-00591100881ADDGF106991031041008001031999MA1999999100831MD1610011+9999REMSYN076AAXX  24004 01467 42570 63603 10003 21059 30083 40088 56001 8343/ 333 91106;
0133014670999992000122403004+58630+009140FM-12+000799999V0203601N001512200019N0300001N1-00041-00641100831ADDGF102991021001022501031011MA1999999100771MD1610061+9999REMSYN066AAXX  24034 01467 42880 23603 11004 21064 30077 40083 56006 82031;
0192014670999992000122406004+58630+009140FM-12+000799999V0203501N001512200019N0300001N1-00091-00731100801ADDAA199000091GF102991011041008001031011KA1120N-00091MA1999999100741MD1810031+9999REMSYN082AAXX  24064 01467 32580 23503 11009 21073 30074 40080 58003 81431 333 21009 91107;EQDQ01  00002PRCP99
0133014670999992000122409004+58630+009140FM-12+000799999V0203501N001012200019N0300001N1-00111-00751100901ADDGF101991011081002501001001MA1999999100841MD1310101+9999REMSYN066AAXX  24094 01467 42380 13502 11011 21075 30084 40090 53010 81800;
0163014670999992000122412004+58630+009140FM-12+000799999V0203601N001512200019N0300001N1+00061-00941100901ADDGF101991011011008001001001MA1999999100841MD1010001+9999SA1+0509REMSYN088AAXX  24124 01467 42580 13603 10006 21094 30084 40090 50000 81100 222// 00050 333 91106;
0133014670999992000122415004+58630+009140FM-12+000799999V0203301N001012200019N0300001N1-00021-00791100861ADDGF101991011041008001001001MA1999999100811MD1610031+9999REMSYN066AAXX  24154 01467 42580 13302 11002 21079 30081 40086 56003 81400;
0172014670999992000122418004+58630+009140FM-12+000799999V0203401N001012200019N0300001N1-00121-00821100911ADDGA1001+999999999GF100991001001999999001001KA1120M+00091MA1999999100851MD1210041+9999REMSYN076AAXX  24184 01467 42980 03402 11012 21082 30085 40091 52004 333 10009 91106;
0101014670999992000122421004+58630+009140FM-12+000799999V0203301N002119999999N9999999N1-00171-00871100911ADDMA1999999100861MD1010011+9999REMSYN060AAXX  24214 01467 46/// /3304 11017 21087 30086 40091 50001;
0153014670999992000122500004+58630+009140FM-12+000799999V0203201N002612200019N0300001N1-00221-00921100851ADDGA1001+999999999GF100991001001999999001001MA1999999100801MD1610061+9999REMSYN070AAXX  25004 01467 42980 03205 11022 21092 30080 40085 56006 333 91107;
0143014670999992000122503004+58630+009140FM-12+000799999V0203401N001512200019N0300001N1-00161-00921100771ADDGA1001+999999999GF100991001001999999001001MA1999999100711MD1610091+9999REMSYN060AAXX  25034 01467 42980 03403 11016 21092 30071 40077 56009;
0133014670999992000122509004+58630+009140FM-12+000799999V0203401N001012200019N0300001N1-00221-00941100741ADDGF101991011041008001001001MA1999999100681MD1110041+9999REMSYN066AAXX  25094 01467 42580 13402 11022 21094 30068 40074 51004 81400;
0163014670999992000122512004+58630+009140FM-12+000799999V0203301N001012200019N0300001N1-00011-00901100641ADDGF101991011011008001001001MA1999999100581MD1810101+9999SA1+0409REMSYN088AAXX  25124 01467 42580 13302 11001 21090 30058 40064 58010 81100 222// 00040 333 91106;
0133014670999992000122515004+58630+009140FM-12+000799999V0202801N000512200019N0300001N1-00101-00801100501ADDGF101991011011008001001001MA1999999100441MD1610141+9999REMSYN066AAXX  25154 01467 42580 12801 11010 21080 30044 40050 56014 81100;
0202014670999992000122518004+58630+009140FM-12+000799999V0202901N001012200019N0300001N1-00201-00741100411ADDAA199000091GA1001+999999999GF100991001001999999001001KA1120M+00011MA1999999100361MD1610081+9999REMSYN076AAXX  25184 01467 32980 02902 11020 21074 30036 40041 56008 333 10001 91104;EQDQ01  00002PRCP99
0101014670999992000122521004+58630+009140FM-12+000799999V0203101N000519999999N9999999N1-00361-00781100311ADDMA1999999100251MD1710111+9999REMSYN060AAXX  25214 01467 46/// /3101 11036 21078 30025 40031 57011;
0153014670999992000122600004+58630+009140FM-12+000799999V0202801N001012200019N0300001N1-00491-00791100171ADDGA1001+999999999GF100991001001999999001001MA1999999100111MD1810141+9999REMSYN070AAXX  26004 01467 42980 02802 11049 21079 30011 40017 58014 333 91103;
0143014670999992000122603004+58630+009140FM-12+000799999V0202801N001512200019N0300001N1-00491-00951100031ADDGA1001+999999999GF100991001001999999001001MA1999999099971MD1810141+9999REMSYN060AAXX  26034 01467 42980 02803 11049 21095 39997 40003 58014;
0192014670999992000122606004+58630+009140FM-12+000799999V0203001N001012200019N0300001N1-00521-00851099901ADDAA199000091GF101991011041008001001021KA1120N-00541MA1999999099851MD1610121+9999REMSYN082AAXX  26064 01467 32580 13002 11052 21085 39985 49990 56012 81402 333 21054 91104;EQDQ01  00002PRCP99
0133014670999992000122609004+58630+009140FM-12+000799999V0203501N001010750019N0200001N1-00461-00761099861ADDGF105991021031002501021021MA1999999099801MD1810051+9999REMSYN066AAXX  26094 01467 42370 53502 11046 21076 39980 49986 58005 82322;
0191014670999992000122612004+58630+009140FM-12+000799999V0202901N000510300019N0060001N1-00201-00461099731ADDAY171061AY221061GF108991041071002501021999MA1999999099671MD1810131+9999MW1701SA1+0489REMSYN094AAXX  26124 01467 41356 82901 11020 21046 39967 49973 58013 77072 8472/ 222// 00048 333 91102;
0161014670999992000122615004+58630+009140FM-12+000799999V0202101N001510021019N0060001N1+00061-00081099631ADDAY171031AY221031GF108991051071002501021999MA1999999099571MD1610101+9999MW1021REMSYN072AAXX  26154 01467 41356 82103 10006 21008 39957 49963 56010 70272 8572/;
0207014670999992000122618004+58630+009140FM-12+000799999V0202001N003610300019N0060001N1+00141+00081099611ADDAA112001091AY171061AY221061GF106991031071002501021999KA1120M+00161MA1999999099551MD1810021+9999MW1701REMSYN094AAXX  26184 01467 11356 62007 10014 20008 39955 49961 58002 60012 77072 8372/ 333 10016 91111;
0101014670999992000122621004+58630+009140FM-12+000799999V0201901N005119999999N9999999N1+00261-00141099611ADDMA1999999099561MD1010011+9999REMSYN060AAXX  26214 01467 46/// /1910 10026 21014 39956 49961 50001;
0171014670999992000122700004+58630+009140FM-12+000799999V0202101N004112200019N0200001N1+00181-00291099711ADDAY171061AY211061GF102991011071002501041011MA1999999099651MD1210091+9999MW1011REMSYN082AAXX  27004 01467 41370 22108 10018 21029 39965 49971 52009 70171 81741 333 91113;
0101014670999992000122703004+58630+009140FM-12+000799999V0202101N003619999999N9999999N1+00151-00391099721ADDMA1999999099661MD1010011+9999REMSYN060AAXX  27034 01467 46/// /2107 10015 21039 39966 49972 50001;
0207014670999992000122706004+58630+009140FM-12+000799999V0200101N000510300019N0050001N1-00051-00251099801ADDAA112003091AY171061AY251061GF108991031071002501021999KA1120N-00051MA1999999099741MD1310081+9999MW1681REMSYN094AAXX  27064 01467 11350 80101 11005 21025 39974 49980 53008 60032 76875 8372/ 333 21005 91110;
0161014670999992000122709004+58630+009140FM-12+000799999V0201301N002610750019N0100001N1+00191-00191099911ADDAY171031AY251031GF105991021071002501071021MA1999999099861MD1310121+9999MW1011REMSYN072AAXX  27094 01467 41360 51305 10019 21019 39986 49991 53012 70175 82772;
0191014670999992000122712004+58630+009140FM-12+000799999V0201001N002610300019N0200001N1+00191-00151099921ADDAY181061AY221061GF106991031031002501031021MA1999999099861MD1010001+9999MW1151SA1+0589REMSYN094AAXX  27124 01467 41370 61005 10019 21015 39986 49992 50000 71582 83332 222// 00058 333 91109;
0133014670999992000122715004+58630+009140FM-12+000799999V0200901N003610300019N0300001N1+00151-00281100021ADDGF105991031031002501041021MA1999999099971MD1310111+9999REMSYN066AAXX  27154 01467 42380 50907 10015 21028 39997 40002 53011 83342;
0207014670999992000122718004+58630+009140FM-12+000799999V0200301N004112200019N0200001N1+00021-00201100091ADDAA118001091AY181061AY271061GF104991021031002501061021KA1120M+00221MA1999999100031MD1310061+9999MW1851REMSYN094AAXX  27184 01467 11370 40308 10002 21020 30003 40009 53006 60013 78587 82362 333 10022 91112;
0101014670999992000122721004+58630+009140FM-12+000799999V0200301N003619999999N9999999N1-00121-00231100151ADDMA1999999100091MD1210061+9999REMSYN060AAXX  27214 01467 46/// /0307 11012 21023 30009 40015 52006;
0143014670999992000122800004+58630+009140FM-12+000799999V0200301N00361030001CN0250001N1-00191-00361100171ADDGF105991021031002501061999MA1999999100111MD1110021+9999REMSYN076AAXX  28004 01467 42375 50307 11019 21036 30011 40017 51002 8236/ 333 91113;
0133014670999992000122803004+58630+009140FM-12+000799999V0200201N004110300019N0250001N1-00241-00431100061ADDGF107991041021002501061999MA1999999100001MD1710111+9999REMSYN066AAXX  28034 01467 42375 70208 11024 21043 30000 40006 57011 8426/;
0179014670999992000122806004+58630+009140FM-12+000799999V0200301N003610300019N0250001N1-00211-00421099951ADDAA112000591GF107991041021002501061999KA1120N-00251MA1999999099891MD1610111+9999REMSYN088AAXX  28064 01467 12375 70307 11021 21042 39989 49995 56011 69952 8426/ 333 21025 91111;
0161014670999992000122809004+58630+009140FM-12+000799999V0200301N004110300019N0150001N1-00191-00371099881ADDAY181031AY271031GF108991041061002501021999MA1999999099821MD1610071+9999MW1851REMSYN072AAXX  28094 01467 41365 80308 11019 21037 39982 49988 56007 78587 8462/;
0191014670999992000122812004+58630+009140FM-12+000799999V0200301N004610300019N0150001N1-00181-00291099671ADDAY171061AY221061GF108991041061002501021999MA1999999099611MD1810211+9999MW1721SA1+0489REMSYN094AAXX  28124 01467 41365 80309 11018 21029 39961 49967 58021 77272 8462/ 222// 00048 333 91114;
0161014670999992000122815004+58630+009140FM-12+000799999V0200301N005110300019N0150001N1-00181-00281099491ADDAY171031AY221031GF108991041061002501021999MA1999999099441MD1810171+9999MW1721REMSYN072AAXX  28154 01467 41365 80310 11018 21028 39944 49949 58017 77272 8462/;
0130014670999992000122818004+58630+009140FM-12+000799999V0200301N005719999999N9999999N1-00191-00341099291ADDKA1120M-00151MA1999999099231MD1610211+9999REMSYN076AAXX  28184 01467 46/// /0311 11019 21034 39923 49929 56021 333 11015 91116;
0101014670999992000122821004+58630+009140FM-12+000799999V0200301N006219999999N9999999N1-00241-00281099031ADDMA1999999098971MD1810261+9999REMSYN060AAXX  28214 01467 46/// /0312 11024 21028 39897 49903 58026;
0171014670999992000122900004+58630+009140FM-12+000799999V0200201N006710300019N0150001N1-00231-00231098841ADDAY171061AY221061GF108991041061002501021999MA1999999098781MD1810191+9999MW1721REMSYN082AAXX  29004 01467 41365 80213 11023 21023 39878 49884 58019 77272 8462/ 333 91119;
0161014670999992000122903004+58630+009140FM-12+000799999V0200201N006210300019N0150001N1-00201-00211098711ADDAY171031AY221031GF108991041061002501021999MA1999999098651MD1610131+9999MW1721REMSYN072AAXX  29034 01467 41365 80212 11020 21021 39865 49871 56013 77272 8462/;
0207014670999992000122906004+58630+009140FM-12+000799999V0200301N006210300019N0150001N1-00161-00161098641ADDAA112008991AY171061AY221061GF108991041061002501021999KA1120N-00251MA1999999098581MD1610071+9999MW1721REMSYN094AAXX  29064 01467 11365 80312 11016 21016 39858 49864 56007 60092 77272 8462/ 333 21025 91119;
0161014670999992000122909004+58630+009140FM-12+000799999V0200301N005710300019N0060001N1-00181-00181098721ADDAY171031AY221031GF108991041061002501021999MA1999999098671MD1310091+9999MW1721REMSYN072AAXX  29094 01467 41356 80311 11018 21018 39867 49872 53009 77272 8462/;
0191014670999992000122912004+58630+009140FM-12+000799999V0200301N005110300019N0060001N1-00201-00221098781ADDAY171061AY221061GF108991041061002501021999MA1999999098721MD1210051+9999MW1721SA1+0479REMSYN094AAXX  29124 01467 41356 80310 11020 21022 39872 49878 52005 77272 8462/ 222// 00047 333 91116;
0161014670999992000122915004+58630+009140FM-12+000799999V0200301N004110300019N0060001N1-00251-00291098871ADDAY171031AY221031GF108991041061002501021999MA1999999098811MD1310091+9999MW1721REMSYN072AAXX  29154 01467 41356 80308 11025 21029 39881 49887 53009 77272 8462/;
0207014670999992000122918004+58630+009140FM-12+000799999V0200201N004610300019N0060001N1-00311-00361098961ADDAA112006191AY171061AY221061GF108991041061002501021999KA1120M-00151MA1999999098901MD1110091+9999MW1721REMSYN094AAXX  29184 01467 11356 80209 11031 21036 39890 49896 51009 60062 77272 8462/ 333 11015 91116;
0101014670999992000122921004+58630+009140FM-12+000799999V0200301N003619999999N9999999N1-00351-00551099051ADDMA1999999098991MD1210091+9999REMSYN060AAXX  29214 01467 46/// /0307 11035 21055 39899 49905 52009;
0171014670999992000123000004+58630+009140FM-12+000799999V0200301N004110300019N0250001N1-00351-00671099121ADDAY121061AY221061GF108991041061002501041999MA1999999099061MD1110071+9999MW1151REMSYN082AAXX  30004 01467 41375 80308 11035 21067 39906 49912 51007 71522 8464/ 333 91113;
0161014670999992000123003004+58630+009140FM-12+000799999V0200201N003110300019N0280001N1-00411-00561099241ADDAY181031AY271031GF108991041031002501021999MA1999999099191MD1310131+9999MW1851REMSYN072AAXX  30034 01467 41378 80206 11041 21056 39919 49924 53013 78587 8432/;
0207014670999992000123006004+58630+009140FM-12+000799999V0200201N002610300019N0280001N1-00391-00741099401ADDAA112000891AY181061AY271061GF108991041061002501021999KA1120N-00431MA1999999099351MD1310161+9999MW1021REMSYN094AAXX  30064 01467 11378 80205 11039 21074 39935 49940 53016 69972 70287 8462/ 333 21043 91113;
0133014670999992000123009004+58630+009140FM-12+000799999V0203601N001510300019N0300001N1-00521-00841099711ADDGF105991041031002501041021MA1999999099651MD1310301+9999REMSYN066AAXX  30094 01467 42380 53603 11052 21084 39965 49971 53030 84342;
0163014670999992000123012004+58630+009140FM-12+000799999V0200101N002612200019N0300001N1-00371-00851099901ADDGF103991011031004501041021MA1999999099841MD1110191+9999SA1+0529REMSYN088AAXX  30124 01467 42480 30105 11037 21085 39984 49990 51019 81342 222// 00052 333 91108;
0133014670999992000123015004+58630+009140FM-12+000799999V0200101N002112200019N0300001N1-00441-00901100131ADDGF102991011031004501041021MA1999999100071MD1310231+9999REMSYN066AAXX  30154 01467 42480 20104 11044 21090 30007 40013 53023 81342;
0192014670999992000123018004+58630+009140FM-12+000799999V0203501N001012200019N0300001N1-00601-01011100381ADDAA199000091GF102991011031004501041021KA1120M-00351MA1999999100321MD1110251+9999REMSYN082AAXX  30184 01467 32480 23502 11060 21101 30032 40038 51025 81342 333 11035 91109;EQDQ01  00002PRCP99
0101014670999992000123021004+58630+009140FM-12+000799999V0203501N000519999999N9999999N1-00671-01061100581ADDMA1999999100531MD1110211+9999REMSYN060AAXX  30214 01467 46/// /3501 11067 21106 30053 40058 51021;
0143014670999992000123100004+58630+009140FM-12+000799999V0203001N001012200019N0300001N1-00801-01171100731ADDGF102991011031004501041021MA1999999100671MD1110141+9999REMSYN076AAXX  31004 01467 42480 23002 11080 21117 30067 40073 51014 81342 333 91104;
0133014670999992000123103004+58630+009140FM-12+000799999V0203101N001012200019N0300001N1-00901-01211100871ADDGF102991011031004501041021MA1999999100811MD1110141+9999REMSYN066AAXX  31034 01467 42480 23102 11090 21121 30081 40087 51014 81342;
0192014670999992000123106004+58630+009140FM-12+000799999V0203201N001512200019N0300001N1-00981-01291100961ADDAA199000091GF102991011031004501041021KA1120N-00981MA1999999100901MD1110091+9999REMSYN082AAXX  31064 01467 32480 23203 11098 21129 30090 40096 51009 81342 333 21098 91105;EQDQ01  00002PRCP99
0133014670999992000123109004+58630+009140FM-12+000799999V0203301N001512200019N0300001N1-01001-01241101091ADDGF103991011031004501041021MA1999999101031MD1210131+9999REMSYN066AAXX  31094 01467 42480 33303 11100 21124 30103 40109 52013 81342;
0163014670999992000123112004+58630+009140FM-12+000799999V0203501N000512200019N0300001N1-00691-01141101111ADDGF102991011041004501041021MA1999999101051MD1010021+9999SA1+0429REMSYN088AAXX  31124 01467 42480 23501 11069 21114 30105 40111 50002 81442 222// 00042 333 91104;
0133014670999992000123115004+58630+009140FM-12+000799999V0203401N001010750019N0300001N1-00721-01081101141ADDGF105991021041004501041021MA1999999101081MD1310031+9999REMSYN066AAXX  31154 01467 42480 53402 11072 21108 30108 40114 53003 82442;
0162014670999992000123118004+58630+009140FM-12+000799999V0203601N001510750019N0300001N1-00671-01031101121ADDGF105991021041004501041021KA1120M-00601MA1999999101061MD1810021+9999REMSYN082AAXX  31184 01467 42480 53603 11067 21103 30106 40112 58002 82442 333 11060 91104;
0101014670999992000123121004+58630+009140FM-12+000799999V0200201N002119999999N9999999N1-00601-00791101111ADDMA1999999101061MD1010001+9999REMSYN060AAXX  31214 01467 46/// /0204 11060 21079 30106 40111 50000;
