0138025840999992000010100004+58400+019200FM-12+001299999V0202301N00211075001CN0200001N1-00201-00471102011ADDGA1081+999999019GF108991081001999999011999MD1010001+9999REMSYN070AAXX  01004 02584 42998 82304 11020 21047 40201 50000 8801/ 333 88499;
0172025840999992000010103004+58400+019200FM-12+001299999V0202301N00211004501CN0040001N1-00181-00251101961ADDAY121031AY221031GA1061+004509079GF108991061071004501021999MD1810051+9999MW1711REMSYN082AAXX  01034 02584 41496 82304 11018 21025 40196 58005 77122 8672/ 333 86794 88599;
0237025840999992000010106004+58400+019200FM-12+001299999V0201601N00151002501CN0040001N1-00121-00151101841ADDAA112000891AJ100059199999999AY121061AY221061GA1061+002509079GF108991061071002501021999IA1239KA1120N-00401MD1810121+9999MW1711REMSYN100AAXX  01064 02584 11396 81603 11012 21015 40184 58012 69982 77122 8672/ 333 21040 47005 86793 88599;
0172025840999992000010109004+58400+019200FM-12+001299999V0201801N00101002501CN0040001N1+00061+00021101791ADDAY171031AY271031GA1061+002509079GF108991061071002501021999MD1610051+9999MW1701REMSYN082AAXX  01094 02584 41396 81802 10006 20002 40179 56005 77077 8672/ 333 86793 88599;
0172025840999992000010112004+58400+019200FM-12+001299999V0202701N00261002501CN0040001N1+00221+00181101761ADDAY171061AY271061GA1061+002509079GF108991061071002501021999MD1710031+9999MW1601REMSYN082AAXX  01124 02584 41396 82705 10022 20018 40176 57003 76077 8672/ 333 86793 88599;
0172025840999992000010115004+58400+019200FM-12+001299999V0202501N00261002501CN0040001N1+00221+00151101771ADDAY161031AY261031GA1061+002509079GF108991061071002501021999MD1310011+9999MW1101REMSYN082AAXX  01154 02584 41396 82505 10022 20015 40177 53001 71066 8672/ 333 86793 88599;
0202025840999992000010118004+58400+019200FM-12+001299999V0202501N003110045019N0040001N1+00271+00171101811ADDAA112001091AY161061AY261061GA1081+004509059GF108991081051002501999999KA1120M+00271MD1210041+9999MW1101REMSYN088AAXX  01184 02584 11396 82506 10027 20017 40181 52004 60012 71066 885// 333 10027 88694;
0166025840999992000010121004+58400+019200FM-12+001299999V0202501N003110045019N0040001N1+00291+00191101851ADDAY121031AY221031GA1081+004509059GF108991081051004501999999MD1210041+9999MW1101REMSYN076AAXX  01214 02584 41496 82506 10029 20019 40185 52004 71022 885// 333 88694;
0138025840999992000010200004+58400+019200FM-12+001299999V0202301N002619999999N0040001N1+00281+00221101901ADDGA1041+002509079GF108991999999002501999999MD1210051+9999REMSYN070AAXX  02004 02584 41396 82305 10028 20022 40190 52005 333 84793 88599;
0166025840999992000010203004+58400+019200FM-12+001299999V0202001N003610015019N0010001N1+00291+00251101871ADDAY161031AY261031GA1081+001509069GF108991081071001501999999MD1710031+9999MW1531REMSYN076AAXX  02034 02584 41294 82007 10029 20025 40187 57003 75366 887// 333 88792;
0250025840999992000010206004+58400+019200FM-12+001299999V0202001N003110015019N0040001N1+00291+00251101801ADDAA112000591AJ199992999999999AY161061AY251061GA1081+001509069GF108991081071001501999999IA1259KA1120N+00221MD1710071+9999MW1101REMSYN094AAXX  02064 02584 11296 82006 10029 20025 40180 57007 69942 71065 887// 333 20022 41998 88792;EQDQ01  09972SNDP  
0166025840999992000010209004+58400+019200FM-12+001299999V0202001N003110015019N0010001N1+00301+00271101731ADDAY121031AY221031GA1081+001509069GF108991081061001501999999MD1710071+9999MW1101REMSYN076AAXX  02094 02584 41294 82006 10030 20027 40173 57007 71022 886// 333 88792;
0166025840999992000010212004+58400+019200FM-12+001299999V0202001N004110015019N0040001N1+00351+00311101451ADDAY121061AY221061GA1081+001509069GF108991081061001501999999MD1710281+9999MW1101REMSYN076AAXX  02124 02584 41296 82008 10035 20031 40145 57028 71022 886// 333 88792;
0166025840999992000010215004+58400+019200FM-12+001299999V0202001N005110080019N0040001N1+00261+00191101221ADDAY121031AY221031GA1081+008009069GF108991081061002501999999MD1710231+9999MW1101REMSYN076AAXX  02154 02584 41396 82010 10026 20019 40122 57023 71022 886// 333 88795;
0208025840999992000010218004+58400+019200FM-12+001299999V0202001N00511002501CN0040001N1+00321+00261100861ADDAA112001091AY171061AY221061GA1061+002509079GF108991061071002501021999KA1120M+00351MD1710361+9999MW1211REMSYN094AAXX  02184 02584 11396 82010 10032 20026 40086 57036 60012 72172 8672/ 333 10035 86793 88599;
0166025840999992000010221004+58400+019200FM-12+001299999V0202701N003610045019N0040001N1+00421+00311100791ADDAY121031AY221031GA1081+004509069GF108991081061004501999999MD1510071+9999MW1101REMSYN076AAXX  02214 02584 41496 82707 10042 20031 40079 55007 71022 886// 333 88794;
0122025840999992000010300004+58400+019200FM-12+001299999V0203201N005112200019N0100001N1+00361+00131100881ADDGA1001+999999999GF100991001001999999001001MD1310091+9999REMSYN054AAXX  03004 02584 42997 03210 10036 20013 40088 53009;
0122025840999992000010303004+58400+019200FM-12+001299999V0202901N003112200019N0200001N1+00281+00051101091ADDGA1001+999999999GF100991001001999999001001MD1310211+9999REMSYN054AAXX  03034 02584 42998 02906 10028 20005 40109 53021;
0187025840999992000010306004+58400+019200FM-12+001299999V0203201N002612200019N0200001N1+00201+00061101211ADDAA106000091GA1001+999999999GF100991001001999999001001IA1149KA1120N+00201MD1210121+9999REMSYN070AAXX  03064 02584 32998 03205 10020 20006 40121 52012 333 20020 34///;EQDQ01  00002PRCP06
0138025840999992000010309004+58400+019200FM-12+001299999V0202701N002112200019N0200001N1+00161+00091101241ADDGA1021+999999019GF102991001001999999001011MD1110031+9999REMSYN070AAXX  03094 02584 42998 22704 10016 20009 40124 51003 80001 333 82099;
0138025840999992000010312004+58400+019200FM-12+001299999V0202301N00261075001CN0200001N1+00281+00161101051ADDGA1081+999999019GF108991081001999999071999MD1310191+9999REMSYN070AAXX  03124 02584 42998 82305 10028 20016 40105 53019 8807/ 333 88499;
0144025840999992000010315004+58400+019200FM-12+001299999V0201801N00261030001CN0100001N1+00321+00231100741ADDGA1021+002509079GF106991021061002501071001MD1710291+9999REMSYN076AAXX  03154 02584 42397 61805 10032 20023 40074 57029 82670 333 82793 85399;
0208025840999992000010318004+58400+019200FM-12+001299999V0202001N00361000751CN0040001N1+00351+00311100461ADDAA112000391AY121061AY221061GA1061+000759079GF108991031071000751021999KA1120M+00351MD1710281+9999MW1611REMSYN094AAXX  03184 02584 11196 82007 10035 20031 40046 57028 69932 76122 8372/ 333 10035 86791 88599;
0150025840999992000010321004+58400+019200FM-12+001299999V0202301N004112200019N0040001N1+00431+00371100341ADDAY161031AY261031GA1001+999999999GF100991001001999999001001MD1510121+9999MW1101REMSYN060AAXX  03214 02584 41996 02308 10043 20037 40034 55012 71066;
0150025840999992000010400004+58400+019200FM-12+001299999V0202501N005712200019N0040001N1+00461+00311100221ADDAY161061AY261061GA1001+999999999GF100991001001999999001001MD1710121+9999MW1101REMSYN060AAXX  04004 02584 41996 02511 10046 20031 40022 57012 71066;
0214025840999992000010406004+58400+019200FM-12+001299999V0202301N006219999999N0040001N1+00461+00311099811ADDAA112000191AY121061AY221061GA1081+999999079GF108991081071999999999999IA1099KA1120N+00351MD1810231+9999MW1101REMSYN094AAXX  04064 02584 11996 82312 10046 20031 49981 58023 69912 71022 887// 333 20035 31/// 88399;
0122025840999992000010409004+58400+019200FM-12+001299999V0202301N007212200019N0200001N1+00461+00131099681ADDGA1001+999999999GF100991001001999999001001MD1610131+9999REMSYN054AAXX  04094 02584 42998 02314 10046 20013 49968 56013;
0122025840999992000010412004+58400+019200FM-12+001299999V0202501N006212200019N0200001N1+00481+00041099691ADDGA1001+999999999GF100991001001999999001001MD1410001+9999REMSYN054AAXX  04124 02584 42998 02512 10048 20004 49969 54001;
0122025840999992000010415004+58400+019200FM-12+001299999V0202901N006712200019N0200001N1+00481-00061099871ADDGA1001+999999999GF100991001001999999001001MD1310181+9999REMSYN054AAXX  04154 02584 42998 02913 10048 21006 49987 53018;
0175025840999992000010418004+58400+019200FM-12+001299999V0202701N006212200019N0200001N1+00441+00021100001ADDAA106000091GA1001+999999999GF100991001001999999001001KA1999M+00501MD1210131+9999REMSYN064AAXX  04184 02584 32998 02712 10044 20002 40000 52013 333 10050;EQDQ01  00002PRCP06
0122025840999992000010421004+58400+019200FM-12+001299999V0202701N005112200019N0200001N1+00401-00081100171ADDGA1001+999999999GF100991001001999999001001MD1210171+9999REMSYN054AAXX  04214 02584 42998 02710 10040 21008 40017 52017;
0122025840999992000010503004+58400+019200FM-12+001299999V0202701N003112200019N0200001N1+00281-00011100351ADDGA1001+999999999GF100991001001999999001001MD1110041+9999REMSYN054AAXX  05034 02584 42998 02706 10028 21001 40035 51004;
0215025840999992000010506004+58400+019200FM-12+001299999V0202901N002112200019N0200001N1+00241+00001100421ADDAA106000091GA1041+022509079GF104991041999022501031001IA1099KA1120N+00241MD1210071+9999REMSYN082AAXX  05064 02584 32898 42904 10024 20000 40042 52007 84030 333 20024 31/// 84398;EQDQ01+000002SCOLCGQ02  00002PRCP06
0138025840999992000010509004+58400+019200FM-12+001299999V0202701N00211075001CN0200001N1+00241+00051100601ADDGA1051+999999019GF105991001001999999001021MD1310181+9999REMSYN070AAXX  05094 02584 42998 52704 10024 20005 40060 53018 80002 333 85099;
0138025840999992000010512004+58400+019200FM-12+001299999V0202701N002112200019N0200001N1+00221+00091100801ADDGA1011+002509069GF103991011061002501001021MD1210201+9999REMSYN070AAXX  05124 02584 42398 32704 10022 20009 40080 52020 81602 333 81793;
0138025840999992000010515004+58400+019200FM-12+001299999V0203201N002112200019N0200001N1+00101+00031101111ADDGA1011+999999019GF101991001001999999001011MD1310311+9999REMSYN070AAXX  05154 02584 42998 13204 10010 20003 40111 53031 80001 333 81099;
0138025840999992000010521004+58400+019200FM-12+001299999V0202301N003612200019N0100001N1+00331+00181101461ADDGA1021+008009059GF102991021051008001001001MD1110161+9999REMSYN070AAXX  05214 02584 42597 22307 10033 20018 40146 51016 82500 333 82695;
0138025840999992000010603004+58400+019200FM-12+001299999V0202301N00411075001CN0100001N1+00351+00261101471ADDGA1081+999999019GF108991081001999999011999MD1810061+9999REMSYN070AAXX  06034 02584 42997 82308 10035 20026 40147 58006 8801/ 333 88499;
0199025840999992000010606004+58400+019200FM-12+001299999V0202301N005112200019N0100001N1+00351+00231101371ADDAA106000091GA1021+999999019GF102991001001999999001011IA1099KA1120N+00231MD1610101+9999REMSYN082AAXX  06064 02584 32997 22310 10035 20023 40137 56010 80001 333 20023 31/// 82099;EQDQ01  00002PRCP06
0138025840999992000010609004+58400+019200FM-12+001299999V0202001N004112200019N0200001N1+00381+00131101281ADDGA1011+999999079GF103991011001999999031011MD1710091+9999REMSYN070AAXX  06094 02584 42998 32008 10038 20013 40128 57009 81031 333 81399;
0138025840999992000010612004+58400+019200FM-12+001299999V0201801N004612200019N0200001N1+00441+00271101061ADDGA1041+012509059GF104991041051012501001001MD1810221+9999REMSYN070AAXX  06124 02584 42698 41809 10044 20027 40106 58022 84500 333 84696;
0138025840999992000010615004+58400+019200FM-12+001299999V0202001N005712200019N0200001N1+00431+00201100871ADDGA1011+999999019GF101991001001999999001011MD1710191+9999REMSYN070AAXX  06154 02584 42998 12011 10043 20020 40087 57019 80001 333 81099;
0172025840999992000010700004+58400+019200FM-12+001299999V0202301N00621002501CN0040001N1+00461+00421100451ADDAY161061AY261061GA1071+002509079GF108991071071002501021999MD1610081+9999MW1631REMSYN082AAXX  07004 02584 41396 82312 10046 20042 40045 56008 76366 8772/ 333 87793 88597;
0166025840999992000010703004+58400+019200FM-12+001299999V0202501N005712200019N0040001N1+00461+00431100451ADDAY161031AY261031GA1031+002509069GF103991031071002501021999MD1410001+9999MW1101REMSYN076AAXX  07034 02584 41396 32511 10046 20043 40045 54000 71066 8372/ 333 83793;
0202025840999992000010706004+58400+019200FM-12+001299999V0202701N005112200019N0200001N1+00381+00081100701ADDAA112002091AY161061AY221061GA1001+999999999GF100991001001999999001001IA1099KA1120N+00381MD1310251+9999MW1011REMSYN082AAXX  07064 02584 11998 02710 10038 20008 40070 53025 60022 70162 333 20038 31///;
0122025840999992000010709004+58400+019200FM-12+001299999V0202701N004612200019N0200001N1+00361-00011101021ADDGA1001+999999999GF100991001001999999001001MD1210321+9999REMSYN054AAXX  07094 02584 42998 02709 10036 21001 40102 52032;
0138025840999992000010712004+58400+019200FM-12+001299999V0202701N004112200019N0200001N1+00381-00011101151ADDGA1011+999999019GF101991001001999999001011MD1110131+9999REMSYN070AAXX  07124 02584 42998 12708 10038 21001 40115 51013 80001 333 81099;
0138025840999992000010715004+58400+019200FM-12+001299999V0202301N004612200019N0200001N1+00341+00171101221ADDGA1011+999999079GF101991011001999999071001MD1210071+9999REMSYN070AAXX  07154 02584 42998 12309 10034 20017 40122 52007 81070 333 81399;
0187025840999992000010718004+58400+019200FM-12+001299999V0202501N005119999999N0200001N1+00411+00131101041ADDAA106000091GA1071+999999079GF107991071001999999071999KA1120M+00411MD1710181+9999REMSYN076AAXX  07184 02584 32998 72510 10041 20013 40104 57018 8707/ 333 10041 87399;EQDQ01  00002PRCP06
0157025840999992000010721004+58400+019200FM-12+001299999V0202001N006210225019N0200001N1+00461+00181100931ADDGA1071+022509079GF107991071999022501071999MD1610111+9999REMSYN070AAXX  07214 02584 42898 72012 10046 20018 40093 56011 8707/ 333 87398;EQDQ01+000002SCOLCG
0144025840999992000010800004+58400+019200FM-12+001299999V0202301N00621030001CN0100001N1+00471+00341100781ADDGA1011+002509069GF107991011061002501071999MD1710151+9999REMSYN076AAXX  08004 02584 42397 72312 10047 20034 40078 57015 8167/ 333 81693 87398;
0138025840999992000010803004+58400+019200FM-12+001299999V0202301N006210025019N0100001N1+00471+00341100671ADDGA1081+002509069GF108991081061002501999999MD1610111+9999REMSYN070AAXX  08034 02584 42397 82312 10047 20034 40067 56011 886// 333 88793;
0199025840999992000010806004+58400+019200FM-12+001299999V0202001N005110080019N0200001N1+00491+00341100511ADDAA106000091GA1081+008009059GF108991081051008001999999IA1019KA1120N+00411MD1610161+9999REMSYN082AAXX  08064 02584 32598 82010 10049 20034 40051 56016 885// 333 20041 30/// 88695;EQDQ01  00002PRCP06
0138025840999992000010809004+58400+019200FM-12+001299999V0202301N006210080019N0200001N1+00521+00341100541ADDGA1071+008009059GF107991071051008001999999MD1310031+9999REMSYN070AAXX  08094 02584 42598 72312 10052 20034 40054 53003 875// 333 87695;
0138025840999992000010812004+58400+019200FM-12+001299999V0202301N006710080019N0200001N1+00501+00371100461ADDGA1071+008009059GF107991071051008001999999MD1810081+9999REMSYN070AAXX  08124 02584 42598 72313 10050 20037 40046 58008 875// 333 87695;
0138025840999992000010815004+58400+019200FM-12+001299999V0202301N005712200019N0100001N1+00481+00391100541ADDGA1011+002509069GF101991011061002501001001MD1310081+9999REMSYN070AAXX  08154 02584 42397 12311 10048 20039 40054 53008 81600 333 81793;
0187025840999992000010818004+58400+019200FM-12+001299999V0202301N005112200019N0040001N1+00501+00441100641ADDAA106000091GA1031+012509059GF103991031051012501001001KA1120M+00521MD1210101+9999REMSYN076AAXX  08184 02584 32696 32310 10050 20044 40064 52010 83500 333 10052 83696;EQDQ01  00002PRCP06
0150025840999992000010821004+58400+019200FM-12+001299999V0202301N005112200019N0040001N1+00481+00331100751ADDAY121031AY221031GA1001+999999999GF100991001001999999001001MD1210111+9999MW1101REMSYN060AAXX  08214 02584 41996 02310 10048 20033 40075 52011 71022;
0122025840999992000010900004+58400+019200FM-12+001299999V0202301N005712200019N0100001N1+00471+00261100881ADDGA1001+999999999GF100991001001999999001001MD1210131+9999REMSYN054AAXX  09004 02584 42997 02311 10047 20026 40088 52013;
0122025840999992000010903004+58400+019200FM-12+001299999V0202301N005112200019N0100001N1+00411+00261101061ADDGA1001+999999999GF100991001001999999001001MD1210181+9999REMSYN054AAXX  09034 02584 42997 02310 10041 20026 40106 52018;
0122025840999992000010909004+58400+019200FM-12+001299999V0202301N004612200019N0200001N1+00401+00301101321ADDGA1001+999999999GF100991001001999999001001MD1310161+9999REMSYN054AAXX  09094 02584 42998 02309 10040 20030 40132 53016;
0138025840999992000010912004+58400+019200FM-12+001299999V0202301N004612200019N0200001N1+00401+00241101421ADDGA1011+999999019GF101991001001999999001011MD1110101+9999REMSYN070AAXX  09124 02584 42998 12309 10040 20024 40142 51010 80001 333 81099;
0122025840999992000010915004+58400+019200FM-12+001299999V0202501N004612200019N0200001N1+00381+00281101511ADDGA1001+999999999GF100991001001999999001001MD1210091+9999REMSYN054AAXX  09154 02584 42998 02509 10038 20028 40151 52009;
0175025840999992000010918004+58400+019200FM-12+001299999V0202501N004112200019N0200001N1+00401+00281101631ADDAA106000091GA1001+999999999GF100991001001999999001001KA1999M+00431MD1210121+9999REMSYN064AAXX  09184 02584 32998 02508 10040 20028 40163 52012 333 10043;EQDQ01  00002PRCP06
0122025840999992000010921004+58400+019200FM-12+001299999V0202501N004112200019N0200001N1+00381+00261101761ADDGA1001+999999999GF100991001001999999001001MD1210131+9999REMSYN054AAXX  09214 02584 42998 02508 10038 20026 40176 52013;
0122025840999992000011000004+58400+019200FM-12+001299999V0202501N003112200019N0200001N1+00351+00231101891ADDGA1001+999999999GF100991001001999999001001MD1210131+9999REMSYN054AAXX  10004 02584 42998 02506 10035 20023 40189 52013;
0138025840999992000011003004+58400+019200FM-12+001299999V0202501N003110045019N0200001N1+00361+00241102031ADDGA1081+004509059GF108991081051004501999999MD1210141+9999REMSYN070AAXX  10034 02584 42498 82506 10036 20024 40203 52014 885// 333 88694;
0199025840999992000011006004+58400+019200FM-12+001299999V0202701N003112200019N0200001N1+00331+00201102141ADDAA106000091GA1031+004509059GF103991031051004501001001IA1099KA1120N+00331MD1210111+9999REMSYN082AAXX  10064 02584 32498 32706 10033 20020 40214 52011 83500 333 20033 31/// 83694;EQDQ01  00002PRCP06
0138025840999992000011009004+58400+019200FM-12+001299999V0202901N004610045019N0200001N1+00281+00081102361ADDGA1061+004509059GF106991061051004501001001MD1310221+9999REMSYN070AAXX  10094 02584 42498 62909 10028 20008 40236 53022 86500 333 86694;
0138025840999992000011012004+58400+019200FM-12+001299999V0202901N002112200019N0200001N1+00261+00091102461ADDGA1031+002509069GF103991031061002501001001MD1110101+9999REMSYN070AAXX  10124 02584 42398 32904 10026 20009 40246 51010 83600 333 83793;
0138025840999992000011015004+58400+019200FM-12+001299999V0202701N002612200019N0200001N1+00231+00091102581ADDGA1011+999999019GF101991001001999999001011MD1210121+9999REMSYN070AAXX  10154 02584 42998 12705 10023 20009 40258 52012 80001 333 81099;
0175025840999992000011018004+58400+019200FM-12+001299999V0202501N003612200019N0200001N1+00311+00081102621ADDAA106000091GA1001+999999999GF100991001001999999001001KA1999M+00331MD1110041+9999REMSYN064AAXX  10184 02584 32998 02507 10031 20008 40262 51004 333 10033;EQDQ01  00002PRCP06
0122025840999992000011021004+58400+019200FM-12+001299999V0202701N003612200019N0100001N1+00321+00201102661ADDGA1001+999999999GF100991001001999999001001MD1210041+9999REMSYN054AAXX  10214 02584 42997 02707 10032 20020 40266 52004;
0138025840999992000011100004+58400+019200FM-12+001299999V0202501N004612200019N0100001N1+00331+00151102581ADDGA1031+004509069GF103991031061004501001001MD1810081+9999REMSYN070AAXX  11004 02584 42497 32509 10033 20015 40258 58008 83600 333 83794;
0138025840999992000011103004+58400+019200FM-12+001299999V0202301N005712200019N0100001N1+00321+00171102471ADDGA1031+004509069GF103991031061004501001001MD1710111+9999REMSYN070AAXX  11034 02584 42497 32311 10032 20017 40247 57011 83600 333 83794;
0220025840999992000011106004+58400+019200FM-12+001299999V0202701N00621004501CN0040001N1+00351+00201102391ADDAA112000791AY121061AY221061GA1051+004509079GF108991051071004501021999IA1099KA1120N+00301MD1610081+9999MW1601REMSYN100AAXX  11064 02584 11496 82712 10035 20020 40239 56008 69902 76022 8572/ 333 20030 31/// 85794 88599;
0194025840999992000011109004+58400+019200FM-12+001299999V0202301N00621008001CN0040001N1+00371+00251102371ADDAY161031AY261031GA1031+002509079GA2051+008009069GF108991061071002501071999MD1710021+9999MW1211REMSYN088AAXX  11094 02584 41396 82312 10037 20025 40237 57002 72166 8677/ 333 83793 85695 86399;
0172025840999992000011112004+58400+019200FM-12+001299999V0202501N00511002501CN0040001N1+00481+00361102401ADDAY161061AY261061GA1061+002509079GF108991081061002501999999MD1810031+9999MW1101REMSYN082AAXX  11124 02584 41396 82510 10048 20036 40240 58003 71066 886// 333 86793 88694;
0144025840999992000011115004+58400+019200FM-12+001299999V0202301N00461030001CN0100001N1+00421+00301102451ADDGA1021+002509079GF108991021061002501071011MD1310051+9999REMSYN076AAXX  11154 02584 42397 82309 10042 20030 40245 53005 82671 333 82793 85396;
0202025840999992000011118004+58400+019200FM-12+001299999V0202501N004610045019N0040001N1+00421+00331102491ADDAA112000791AY121061AY221061GA1071+004509059GF107991071051004501999999KA1120M+00481MD1110041+9999MW1101REMSYN088AAXX  11184 02584 11496 72509 10042 20033 40249 51004 69902 71022 875// 333 10048 87694;
0150025840999992000011121004+58400+019200FM-12+001299999V0202301N005112200019N0040001N1+00401+00341102451ADDAY121031AY221031GA1001+999999999GF100991001001999999001001MD1710041+9999MW1101REMSYN060AAXX  11214 02584 41996 02310 10040 20034 40245 57004 71022;
0166025840999992000011200004+58400+019200FM-12+001299999V0202501N004610125019N0040001N1+00411+00341102411ADDAY121061AY221061GA1081+012509059GF108991081051012501999999MD1610041+9999MW1101REMSYN076AAXX  12004 02584 41696 82509 10041 20034 40241 56004 71022 885// 333 88696;
0166025840999992000011203004+58400+019200FM-12+001299999V0202001N004610015019N0040001N1+00391+00331102141ADDAY121031AY221031GA1081+001509069GF108991081061001501999999MD1810271+9999MW1101REMSYN076AAXX  12034 02584 41296 82009 10039 20033 40214 58027 71022 886// 333 88792;
0239025840999992000011206004+58400+019200FM-12+001299999V0202001N00511001501CN0040001N1+00411+00371101881ADDAA112002091AY121061AY221061GA1081+001509079GF108991999071001501021999IA1119KA1120N+00391MD1710261+9999MW1631REMSYN100AAXX  12064 02584 11296 82010 10041 20037 40188 57026 60022 76322 8872/ 333 20039 32/// 88792 88599;EQDQ01+000082SCOTLC
0172025840999992000011209004+58400+019200FM-12+001299999V0202001N00621001501CN0040001N1+00441+00401101761ADDAY161031AY261031GA1061+001509079GF108991061071001501021999MD1610121+9999MW1621REMSYN082AAXX  12094 02584 41296 82012 10044 20040 40176 56012 76266 8672/ 333 86792 88599;
0172025840999992000011212004+58400+019200FM-12+001299999V0202501N00621030001CN0040001N1+00441+00371101681ADDAY161061AY261061GA1041+002509079GF108991041071002501021999MD1610081+9999MW1211REMSYN082AAXX  12124 02584 41396 82512 10044 20037 40168 56008 72166 8472/ 333 84793 88596;
0172025840999992000011215004+58400+019200FM-12+001299999V0202301N00511030001CN0040001N1+00451+00391101661ADDAY121031AY221031GA1021+002509079GF108991021071002501021999MD1710021+9999MW1101REMSYN082AAXX  12154 02584 41396 82310 10045 20039 40166 57002 71022 8272/ 333 82793 88595;
0208025840999992000011218004+58400+019200FM-12+001299999V0202301N00461030001CN0040001N1+00421+00361101641ADDAA112007191AY121061AY221061GA1031+002509079GF108991031071002501021999KA1120M+00451MD1710021+9999MW1631REMSYN094AAXX  12184 02584 11396 82309 10042 20036 40164 57002 60072 76322 8372/ 333 10045 83793 88596;
0172025840999992000011221004+58400+019200FM-12+001299999V0202301N00511001501CN0020001N1+00401+00371101621ADDAY161031AY261031GA1061+001509079GF108991061071001501021999MD1710021+9999MW1631REMSYN082AAXX  12214 02584 41295 82310 10040 20037 40162 57002 76366 8672/ 333 86792 88596;
0166025840999992000011300004+58400+019200FM-12+001299999V0202301N005710025019N0040001N1+00381+00321101611ADDAY161061AY261061GA1081+002509069GF108991081071002501999999MD1710011+9999MW1101REMSYN076AAXX  13004 02584 41396 82311 10038 20032 40161 57001 71066 887// 333 88793;
0172025840999992000011303004+58400+019200FM-12+001299999V0202301N00511002101CN0040001N1+00381+00291101541ADDAY121031AY221031GA1041+002509079GF108991081061002501999999MD1810071+9999MW1101REMSYN082AAXX  13034 02584 41396 82310 10038 20029 40154 58007 71022 886// 333 84793 86695;
0220025840999992000011306004+58400+019200FM-12+001299999V0202301N00411002501CN0040001N1+00361+00321101511ADDAA112001091AY121061AY221061GA1071+002509079GF108991071061002501021999IA1099KA1120N+00361MD1710041+9999MW1601REMSYN100AAXX  13064 02584 11396 82308 10036 20032 40151 57004 60012 76022 8762/ 333 20036 31/// 87793 88597;
0166025840999992000011309004+58400+019200FM-12+001299999V0202001N004610025019N0040001N1+00381+00311101561ADDAY161031AY221031GA1081+002509069GF108991081061002501999999MD1210051+9999MW1021REMSYN076AAXX  13094 02584 41396 82009 10038 20031 40156 52005 70262 886// 333 88793;
0172025840999992000011312004+58400+019200FM-12+001299999V0202301N00461002101CN0040001N1+00401+00311101581ADDAY161061AY261061GA1021+002509079GF108991051061002501071999MD1110021+9999MW1101REMSYN082AAXX  13124 02584 41396 82309 10040 20031 40158 51002 71066 8567/ 333 82793 84696;
0172025840999992000011315004+58400+019200FM-12+001299999V0202301N00461002101CN0040001N1+00391+00331101631ADDAY121031AY221031GA1041+002509079GF108991081061002501999999MD1210051+9999MW1101REMSYN082AAXX  13154 02584 41396 82309 10039 20033 40163 52005 71022 886// 333 84793 88696;
0215025840999992000011318004+58400+019200FM-12+001299999V0202001N003610045019N0040001N1+00381+00311101761ADDAA106000091AY121061AY221061GA1081+004509069GF108991081061004501999999KA1120M+00411MD1210131+9999MW1101REMSYN082AAXX  13184 02584 31496 82007 10038 20031 40176 52013 71022 886// 333 10041 88794;EQDQ01  00002PRCP06
0170025840999992000011321004+58400+019200FM-12+001299999V0202501N002610045019N0040001N1+00401+00341101901ADDAY121031AY221031GA1081+004509059GF108991081051004501999999MD1210141+9999MW1101REMSYN080    AAXX  13214 02584 41496 82505 10040 20034 40190 52014 71022 885// 333 88694;
0170025840999992000011400004+58400+019200FM-12+001299999V0203201N001010045019N0040001N1+00381+00321102041ADDAY121061AY221061GA1081+004509059GF108991081051004501999999MD1210141+9999MW1101REMSYN080    AAXX  14004 02584 41496 83202 10038 20032 40204 52014 71022 885// 333 88694;
0170025840999992000011403004+58400+019200FM-12+001299999V0203601N001010045019N0040001N1+00321+00221102161ADDAY121031AY221031GA1081+004509059GF108991081051004501999999MD1210121+9999MW1101REMSYN080    AAXX  14034 02584 41496 83602 10032 20022 40216 52012 71022 885// 333 88694;
0191025840999992000011406004+58400+019200FM-12+001299999V0200501N001512200019N0100001N1+00171+00061102291ADDAA199000091GA1001+999999999GF100991001001999999001001IA1099KA1120N+00171MD1210131+9999REMSYN074    AAXX  14064 02584 32997 00503 10017 20006 40229 52013 333 20017 31///;EQDQ01  00002PRCP99
0148025840999992000011409004+58400+019200FM-12+001299999V0200501N00151999999CN0200001N1+00171+00011102441ADDGA1051+025009049GF106991051001999999031011MD1210151+9999REMSYN080    AAXX  14094 02584 42998 60503 10017 20001 40244 52015 85031 333 85499 83099;
0148025840999992000011412004+58400+019200FM-12+001299999V0200701N00151030001CN0200001N1+00251+00001102481ADDGA1021+004509079GF106991021061004501071011MD1110041+9999REMSYN080    AAXX  14124 02584 42498 60703 10025 20000 40248 51004 82671 333 82794 85399;
0142025840999992000011415004+58400+019200FM-12+001299999V0200201N001010045019N0100001N1+00231+00011102521ADDGA1081+004509069GF108991081061004501999999MD1310041+9999REMSYN074    AAXX  14154 02584 42497 80202 10023 20001 40252 53004 886// 333 88794;
0191025840999992000011418004+58400+019200FM-12+001299999V0200501N001010080019N0200001N1+00241-00081102591ADDAA199000091GA1081+008009059GF108991081051008001999999KA1120M+00261MD1210071+9999REMSYN080    AAXX  14184 02584 32598 80502 10024 21008 40259 52007 885// 333 10026 88695;EQDQ01  00002PRCP99
0142025840999992000011421004+58400+019200FM-12+001299999V0200701N001510080019N0100001N1+00241+00061102631ADDGA1081+008009059GF108991081051008001999999MD1210041+9999REMSYN074    AAXX  14214 02584 42597 80703 10024 20006 40263 52004 885// 333 88695;
0170025840999992000011500004+58400+019200FM-12+001299999V0200201N001010080019N0100001N1+00191+00051102621ADDAY161061AY221061GA1081+008009059GF108991081051022501999999MD1810011+9999MW1021REMSYN080    AAXX  15004 02584 41897 80202 10019 20005 40262 58001 70262 885// 333 88695;
0154025840999992000011503004+58400+019200FM-12+001299999V0203601N001510080019N0100001N1+00171+00071102611ADDGA1081+008009059GF108991081051022501999999MD1210011+9999MW1851REMSYN080    AAXX  15034 02584 42897 83603 10017 20007 40261 52001 785// 885// 333 88695;
0190025840999992000011506004+58400+019200FM-12+001299999V0202901N002110025019N0100001N1-00041-00181102591ADDAA112000791GA1081+002509069GF108991081061002501999999IA1099KA1120N-00041MD1810021+9999REMSYN092    AAXX  15064 02584 12397 82904 11004 21018 40259 58002 69902 886// 333 21004 31/// 88793;
0148025840999992000011509004+58400+019200FM-12+001299999V0202501N00211075001CN0200001N1+00041-00261102521ADDGA1021+008009069GF105991021051008001001021MD1810071+9999REMSYN080    AAXX  15094 02584 42598 52504 10004 21026 40252 58007 82502 333 82695 84099;
0142025840999992000011512004+58400+019200FM-12+001299999V0202701N003112200019N0200001N1+00141-00251102341ADDGA1021+004509029GF103991021011004501001011MD1710181+9999REMSYN074    AAXX  15124 02584 42498 32706 10014 21025 40234 57018 82101 333 82894;
0142025840999992000011515004+58400+019200FM-12+001299999V0202901N002112200019N0200001N1+00061-00161102261ADDGA1011+999999079GF101991011001999999031001MD1610081+9999REMSYN074    AAXX  15154 02584 42998 12904 10006 21016 40226 56008 81030 333 81399;
0191025840999992000011518004+58400+019200FM-12+001299999V0202901N002119999999N0200001N1+00161-00061102181ADDAA199000091GA1071+999999079GF107991071001999999071001KA1120M+00161MD1710081+9999REMSYN080    AAXX  15184 02584 32998 72904 10016 21006 40218 57008 87070 333 10016 87399;EQDQ01  00002PRCP99
0176025840999992000011521004+58400+019200FM-12+001299999V0202701N00261030001CN0040001N1+00211+00071102121ADDAY121031AY221031GA1031+004509079GF107991031071004501031001MD1710061+9999MW1601REMSYN086    AAXX  15214 02584 41496 72705 10021 20007 40212 57006 76022 83730 333 83794 86399;
0170025840999992000011600004+58400+019200FM-12+001299999V0202901N003119999999N0100001N1+00211+00041102071ADDAY161061AY261061GA1051+999999079GF105991051001999999031001MD1710051+9999MW1011REMSYN080    AAXX  16004 02584 41997 52906 10021 20004 40207 57005 70166 85030 333 85399;
0126025840999992000011603004+58400+019200FM-12+001299999V0203201N002612200019N0100001N1+00201-00021101991ADDGA1001+999999999GF100991001001999999001001MD1810081+9999REMSYN058    AAXX  16034 02584 42997 03205 10020 21002 40199 58008;
0178025840999992000011606004+58400+019200FM-12+001299999V0202701N002112200019N0100001N1+00191+00081102001ADDAA112000791GA1001+999999999GF100991001001999999001001IA1149KA1120N+00161MD1310011+9999REMSYN080    AAXX  16064 02584 12997 02704 10019 20008 40200 53001 69902 333 20016 34///;
0142025840999992000011609004+58400+019200FM-12+001299999V0202501N003619999999N0200001N1+00271+00171101761ADDGA1071+999999079GF107991071001999999031001MD1810241+9999REMSYN074    AAXX  16094 02584 42998 72507 10027 20017 40176 58024 87030 333 87399;
0142025840999992000011612004+58400+019200FM-12+001299999V0202501N004119999999N0200001N1+00331+00231101301ADDGA1081+999999079GF108991081001999999071999MD1710461+9999REMSYN074    AAXX  16124 02584 42998 82508 10033 20023 40130 57046 8807/ 333 88399;
0142025840999992000011615004+58400+019200FM-12+001299999V0202501N005719999999N0200001N1+00421+00171100881ADDGA1081+999999079GF108991081001999999071999MD1710421+9999REMSYN074    AAXX  16154 02584 42998 82511 10042 20017 40088 57042 8807/ 333 88399;
0191025840999992000011618004+58400+019200FM-12+001299999V0202301N005119999999N0200001N1+00411+00231100331ADDAA199000091GA1081+999999079GF108991081001999999031999KA1120M+00441MD1710551+9999REMSYN080    AAXX  16184 02584 32998 82310 10041 20023 40033 57055 8803/ 333 10044 88399;EQDQ01  00002PRCP99
0161025840999992000011621004+58400+019200FM-12+001299999V0202901N004612200019N0200001N1+00501+00181099801ADDGA1041+022509059GF104991041051022501999001MD1710531+9999REMSYN074    AAXX  16214 02584 42898 42909 10050 20018 49980 57053 84500 333 84698;EQDQ01+000002SCOMCG
0126025840999992000011700004+58400+019200FM-12+001299999V0202901N004612200019N0200001N1+00471+00151099901ADDGA1001+999999999GF100991001001999999001001MD1110201+9999REMSYN058    AAXX  17004 02584 42998 02909 10047 20015 49990 51020;
0161025840999992000011703004+58400+019200FM-12+001299999V0202701N005110225019N0200001N1+00481+00061099661ADDGA1081+022509079GF108991081999022501071999MD1710241+9999REMSYN074    AAXX  17034 02584 42898 82710 10048 20006 49966 57024 8807/ 333 88398;EQDQ01+000002SCOLCG
0219025840999992000011706004+58400+019200FM-12+001299999V0203201N005110175019N0200001N1+00421-00081099511ADDAA199000091GA1071+017509059GF107991071051017501999001IA1099KA1120N+00411MD1610151+9999REMSYN086    AAXX  17064 02584 32798 73210 10042 21008 49951 56015 87500 333 20041 31/// 87697;EQDQ01+000002SCOMCGQ02  00002PRCP99
0142025840999992000011709004+58400+019200FM-12+001299999V0203201N005112200019N0200001N1+00421-00181099401ADDGA1011+012509029GF101991011011012501001001MD1710111+9999REMSYN074    AAXX  17094 02584 42698 13210 10042 21018 49940 57011 81100 333 81896;
0176025840999992000011712004+58400+019200FM-12+001299999V0202901N006212200019N0200001N1+00381-00281099311ADDAY181061AY221061GA1021+001509089GF103991031091001501001001MD1610091+9999MW1011REMSYN086    AAXX  17124 02584 41298 32912 10038 21028 49931 56009 70182 83900 333 82892 82994;
0148025840999992000011715004+58400+019200FM-12+001299999V0203401N00571002101CN0200001N1+00421-00431099311ADDGA1021+002509089GF107991071061002501031001MD1410001+9999REMSYN080    AAXX  17154 02584 42398 73411 10042 21043 49931 54000 87630 333 82893 85697;
0142025840999992000011721004+58400+019200FM-12+001299999V0203601N006210175019N0200001N1+00341-00431099341ADDGA1081+017509059GF108991081051017501999999MD1810031+9999REMSYN074    AAXX  17214 02584 42798 83612 10034 21043 49934 58003 885// 333 88697;
0142025840999992000011800004+58400+019200FM-12+001299999V0203401N006210125019N0200001N1+00281-00411099241ADDGA1081+012509059GF108991081051012501999999MD1710101+9999REMSYN074    AAXX  18004 02584 42698 83412 10028 21041 49924 57010 885// 333 88696;
0170025840999992000011803004+58400+019200FM-12+001299999V0203601N006210125019N0040001N1+00281-00431099201ADDAY121031AY221031GA1081+012509099GF108991081031012501999999MD1510041+9999MW1851REMSYN080    AAXX  18034 02584 41696 83612 10028 21043 49920 55004 78522 883// 333 88996;
0218025840999992000011806004+58400+019200FM-12+001299999V0203401N006212200019N0100001N1+00241-00191099201ADDAA112000191AY181061AY281061GA1041+008009099GF104991041031008001999999IA1099KA1120N+00131MD1410001+9999MW1011REMSYN098    AAXX  18064 02584 11597 43412 10024 21019 49920 54000 69922 70188 843// 333 20013 31/// 84995;
0176025840999992000011809004+58400+019200FM-12+001299999V0203601N00621008001CN0040001N1+00121+00021099371ADDAY181031AY221031GA1081+008009099GF108991081031001501999999MD1310171+9999MW1861REMSYN086    AAXX  18094 02584 41296 83612 10012 20002 49937 53017 78682 883// 333 88995 88792;
0176025840999992000011812004+58400+019200FM-12+001299999V0203601N00571001201CN0040001N1+00021-00241099671ADDAY181061AY221061GA1031+001509079GF106991061031001501001001MD1210301+9999MW1851REMSYN086    AAXX  18124 02584 41296 63611 10002 21024 49967 52030 78582 86300 333 83792 86995;
0176025840999992000011815004+58400+019200FM-12+001299999V0200201N00621001501CN0040001N1+00001-00171100071ADDAY181031AY281031GA1061+001509079GF108991081031001501999999MD1210401+9999MW1861REMSYN086    AAXX  18154 02584 41296 80212 10000 21017 40007 52040 78688 883// 333 86792 88995;
0212025840999992000011818004+58400+019200FM-12+001299999V0203601N00671002101CN0200001N1-00081-00661100411ADDAA112003091AY181061AY281061GA1041+002509079GF105991051031002501001001KA1120M+00241MD1110341+9999MW1011REMSYN098    AAXX  18184 02584 11398 53613 11008 21066 40041 51034 60032 70188 85300 333 10024 84793 82995;
0170025840999992000011821004+58400+019200FM-12+001299999V0203601N005710125019N0200001N1-00181-00821100621ADDAY181031AY221031GA1051+012509099GF105991051031012501001001MD1210211+9999MW1861REMSYN080    AAXX  18214 02584 41698 53611 11018 21082 40062 52021 78682 85300 333 85996;
0176025840999992000011900004+58400+019200FM-12+001299999V0203601N00621001501CN0020001N1-00191-00271100851ADDAY181061AY281061GA1061+001509079GF108991081031001501999999MD1110131+9999MW1861REMSYN086    AAXX  19004 02584 41295 83612 11019 21027 40085 51013 78688 883// 333 86792 85995;
0176025840999992000011903004+58400+019200FM-12+001299999V0203401N00621001201CN0005001N1-00191-00261100981ADDAY181031AY281031GA1031+001509079GF108991081031001501999999MD1210131+9999MW1861REMSYN086    AAXX  19034 02584 41293 83412 11019 21026 40098 52013 78688 883// 333 83792 88995;
0176025840999992000011909004+58400+019200FM-12+001299999V0203401N00571002501CN0040001N1-00021-00321101121ADDAY181031AY281031GA1061+002509079GF108991081031002501999999MD1210051+9999MW1851REMSYN086    AAXX  19094 02584 41396 83411 11002 21032 40112 52005 78588 883// 333 86793 86994;
0170025840999992000011912004+58400+019200FM-12+001299999V0203601N005712200019N0200001N1+00041-00521101231ADDAY181061AY281061GA1021+008009099GF103991031031008001001001MD1210131+9999MW1011REMSYN080    AAXX  19124 02584 41598 33611 10004 21052 40123 52013 70188 83300 333 82995;
0142025840999992000011915004+58400+019200FM-12+001299999V0203401N005112200019N0200001N1-00021-00561101361ADDGA1021+008009029GF102991021021008001001001MD1210131+9999REMSYN074    AAXX  19154 02584 42598 23410 11002 21056 40136 52013 82200 333 82895;
0174025840999992000011918004+58400+019200FM-12+001299999V0203401N004612200019N0200001N1+00021-00601101401ADDAA112000791GA1041+008009029GF104991041021008001001001KA1120M+00061MD1710041+9999REMSYN082AAXX  19184 02584 12598 43409 10002 21060 40140 57004 69902 84200 333 10006 84895;
0138025840999992000011921004+58400+019200FM-12+001299999V0203401N004112200019N0200001N1+00021-00541101331ADDGA1031+008009059GF103991031051008001001001MD1710071+9999REMSYN070AAXX  19214 02584 42598 33408 10002 21054 40133 57007 83500 333 83695;
0172025840999992000012003004+58400+019200FM-12+001299999V0202901N00461002101CN0040001N1+00091-00211100511ADDAY101031AY201031GA1021+002509099GF107991071031002501999999MD1710411+9999MW1931REMSYN082AAXX  20034 02584 41396 72909 10009 21021 40051 57041 79300 873// 333 82993 84893;
0231025840999992000012006004+58400+019200FM-12+001299999V0202701N004610175019N0100001N1+00331-00111100031ADDAA112000791AJ100039199999999AY181061AY201061GA1081+017509059GF108991081051017501999999IA1309KA1120N+00021MD1610481+9999MW1021REMSYN094AAXX  20064 02584 11797 82709 10033 21011 40003 56048 69902 70280 885// 333 20002 42003 88697;
0138025840999992000012009004+58400+019200FM-12+001299999V0203401N005110125019N0200001N1+00311+00051099921ADDGA1061+012509059GF106991061051012501001001MD1710111+9999REMSYN070AAXX  20094 02584 42698 63410 10031 20005 49992 57011 86500 333 86696;
0138025840999992000012012004+58400+019200FM-12+001299999V0203601N006712200019N0200001N1+00231-00511099891ADDGA1031+012509059GF103991031051012501001001MD1710031+9999REMSYN070AAXX  20124 02584 42698 33613 10023 21051 49989 57003 83500 333 83696;
0138025840999992000012015004+58400+019200FM-12+001299999V0203601N006212200019N0200001N1-00041-00621099991ADDGA1041+008009029GF104991041021008001001001MD1310101+9999REMSYN070AAXX  20154 02584 42598 43612 11004 21062 49999 53010 84200 333 84895;
0187025840999992000012018004+58400+019200FM-12+001299999V0203601N005710125019N0200001N1-00061-00801099961ADDAA199000091GA1051+012509029GF105991051021012501001001KA1120M+00341MD1810031+9999REMSYN076AAXX  20184 02584 32698 53611 11006 21080 49996 58003 85200 333 10034 85896;EQDQ01  00002PRCP99
0138025840999992000012021004+58400+019200FM-12+001299999V0203601N006212200019N0200001N1-00121-00761099831ADDGA1041+008009029GF104991041021008001001001MD1810131+9999REMSYN070AAXX  20214 02584 42598 43612 11012 21076 49983 58013 84200 333 84895;
0138025840999992000012100004+58400+019200FM-12+001299999V0203401N006212200019N0200001N1-00181-00761099821ADDGA1041+008009029GF104991041021008001001001MD1610011+9999REMSYN070AAXX  21004 02584 42598 43412 11018 21076 49982 56001 84200 333 84895;
0237025840999992000012106004+58400+019200FM-12+001299999V0203401N00721001501CN0020001N1-00341-00381100071ADDAA112005191AJ100079199999999AY111061AY211061GA1061+001509079GF108991061071001501021999IA1239KA1120N-00381MD1310231+9999MW1731REMSYN100AAXX  21064 02584 11295 83414 11034 21038 40007 53023 60052 77311 8672/ 333 21038 47007 86792 88599;
0172025840999992000012109004+58400+019200FM-12+001299999V0200201N006210012019N0001001N1-00341-00421100451ADDAY181031AY271031GA1041+002509099GF108991081031001501999999MD1210381+9999MW1861REMSYN082AAXX  21094 02584 41291 80212 11034 21042 40045 52038 78687 883// 333 84993 84792;
0166025840999992000012112004+58400+019200FM-12+001299999V0200201N005110015019N0005001N1-00341-00601100781ADDAY181061AY271061GA1061+001509099GF106991061031001501001001MD1210331+9999MW1851REMSYN076AAXX  21124 02584 41293 60210 11034 21060 40078 52033 78587 86300 333 86992;
0166025840999992000012115004+58400+019200FM-12+001299999V0200201N006212200019N0200001N1-00221-01121101031ADDAY181031AY281031GA1041+008009029GF104991041021008001001001MD1210251+9999MW1021REMSYN076AAXX  21154 02584 41598 40212 11022 21112 40103 52025 70288 84200 333 84895;
0208025840999992000012118004+58400+019200FM-12+001299999V0203601N00511004201CN0200001N1-00261-00781101171ADDAA112007191AY181061AY281061GA1021+004509099GF105991051031004501001001KA1120M-00191MD1110141+9999MW1271REMSYN094AAXX  21184 02584 11498 53610 11026 21078 40117 51014 60072 72788 85300 333 11019 82994 83894;
0144025840999992000012121004+58400+019200FM-12+001299999V0203601N005112200019N0200001N1-00411-00911101221ADDGA1011+004509099GF104991041031004501001001MD1710051+9999REMSYN076AAXX  21214 02584 42498 43610 11041 21091 40122 57005 84300 333 81994 83894;
0122025840999992000012200004+58400+019200FM-12+001299999V0203401N004112200019N0200001N1-00471-01321101181ADDGA1001+999999999GF100991001001999999001001MD1710041+9999REMSYN054AAXX  22004 02584 42998 03408 11047 21132 40118 57004;
0138025840999992000012203004+58400+019200FM-12+001299999V0203401N003112200019N0500001N1-00501-01121101091ADDGA1021+008009029GF102991021021008001001001MD1710091+9999REMSYN070AAXX  22034 02584 42599 23406 11050 21112 40109 57009 82200 333 82895;
0197025840999992000012206004+58400+019200FM-12+001299999V0203401N003112200019N0500001N1-00471-01051101061ADDAA199000021AJ100119199999999GA1021+008009029GF102991021021008001001001IA1239KA1120N-00511MD1710031+9999REMSYN082AAXX  22064 02584 32599 23406 11047 21105 40106 57003 82200 333 21051 47011 82895;
0138025840999992000012209004+58400+019200FM-12+001299999V0203601N002612200019N0500001N1-00401-01151101071ADDGA1021+012509029GF102991021021012501001001MD1210011+9999REMSYN070AAXX  22094 02584 42699 23605 11040 21115 40107 52001 82200 333 82896;
0138025840999992000012212004+58400+019200FM-12+001299999V0203601N003112200019N0500001N1-00281-01191101111ADDGA1031+012509029GF103991031021012501001001MD1210041+9999REMSYN070AAXX  22124 02584 42699 33606 11028 21119 40111 52004 83200 333 83896;
0138025840999992000012215004+58400+019200FM-12+001299999V0203601N003612200019N0500001N1-00371-01261101121ADDGA1031+012509029GF103991031021012501001001MD1210011+9999REMSYN070AAXX  22154 02584 42699 33607 11037 21126 40112 52001 83200 333 83896;
0187025840999992000012218004+58400+019200FM-12+001299999V0203601N003112200019N0200001N1-00341-01071101121ADDAA199000091GA1041+012509029GF104991041021012501001001KA1120M-00281MD1310071+9999REMSYN076AAXX  22184 02584 32698 43606 11034 21107 40112 53007 84200 333 11028 84896;EQDQ01  00002PRCP99
0138025840999992000012221004+58400+019200FM-12+001299999V0203601N003112200019N0200001N1-00341-01121101291ADDGA1041+012509029GF104991041021012501001001MD1210101+9999REMSYN070AAXX  22214 02584 42698 43606 11034 21112 40129 52010 84200 333 84896;
0138025840999992000012300004+58400+019200FM-12+001299999V0203601N002110125019N0200001N1-00321-01141101381ADDGA1081+012509059GF108991081051012501999999MD1210091+9999REMSYN070AAXX  23004 02584 42698 83604 11032 21114 40138 52009 885// 333 88696;
0138025840999992000012303004+58400+019200FM-12+001299999V0203401N002119999999N0200001N1-00361-01221101411ADDGA1081+999999079GF108991081001999999031999MD1110031+9999REMSYN070AAXX  23034 02584 42998 83404 11036 21122 40141 51003 8803/ 333 88399;
0216025840999992000012306004+58400+019200FM-12+001299999V0203401N001519999999N0200001N1-00381-01241101341ADDAA199000091AJ100109199999999GA1081+999999079GF108991081001999999031999IA1239KA1120N-00501MD1210021+9999REMSYN082AAXX  23064 02584 32998 83403 11038 21124 40134 52002 8803/ 333 21050 47010 88399;EQDQ01  00002PRCP99
0144025840999992000012309004+58400+019200FM-12+001299999V0203401N00211007501CN0200001N1-00341-01211101541ADDGA1031+008009089GF106991061021008001001001MD1310111+9999REMSYN076AAXX  23094 02584 42598 63404 11034 21121 40154 53011 86200 333 83895 84696;
0138025840999992000012312004+58400+019200FM-12+001299999V0203401N002112200019N0200001N1-00361-01021101611ADDGA1041+008009029GF104991041021008001001001MD1210071+9999REMSYN070AAXX  23124 02584 42598 43404 11036 21102 40161 52007 84200 333 84895;
0144025840999992000012315004+58400+019200FM-12+001299999V0203401N00261008001CN0200001N1-00301-00911101691ADDGA1061+008009089GF108991061021008001011999MD1210081+9999REMSYN076AAXX  23154 02584 42598 83405 11030 21091 40169 52008 8621/ 333 86895 88499;
0187025840999992000012318004+58400+019200FM-12+001299999V0203601N003112200019N0200001N1-00341-00731101781ADDAA199000091GA1041+004509029GF104991041021004501999999KA1120M-00271MD1210091+9999REMSYN076AAXX  23184 02584 32498 43606 11034 21073 40178 52009 842// 333 11027 84894;EQDQ01  00002PRCP99
0138025840999992000012321004+58400+019200FM-12+001299999V0203601N003112200019N0200001N1-00311-00831101851ADDGA1031+008009029GF103991031021008001999999MD1210071+9999REMSYN070AAXX  23214 02584 42598 33606 11031 21083 40185 52007 832// 333 83895;
0138025840999992000012400004+58400+019200FM-12+001299999V0203601N003112200019N0200001N1-00291-00661101901ADDGA1041+008009029GF104991041021008001001001MD1210051+9999REMSYN070AAXX  24004 02584 42598 43606 11029 21066 40190 52005 84200 333 84895;
0138025840999992000012403004+58400+019200FM-12+001299999V0203401N003612200019N0200001N1-00291-00711101861ADDGA1011+008009029GF101991011021008001001001MD1710041+9999REMSYN070AAXX  24034 02584 42598 13407 11029 21071 40186 57004 81200 333 81895;
0216025840999992000012406004+58400+019200FM-12+001299999V0203401N00211075001CN0200001N1-00311-00961101851ADDAA199000091AJ100109199999999GA1081+999999019GF108991081001999999011999IA1239KA1120N-00341MD1210011+9999REMSYN082AAXX  24064 02584 32998 83404 11031 21096 40185 52001 8801/ 333 21034 47010 88499;EQDQ01  00002PRCP99
0138025840999992000012409004+58400+019200FM-12+001299999V0203201N001019999999N0200001N1-00401-00951101881ADDGA1051+999999089GF107991001001999999001061MD1710031+9999REMSYN070AAXX  24094 02584 42998 73202 11040 21095 40188 57003 80006 333 85299;
0138025840999992000012412004+58400+019200FM-12+001299999V0202701N001019999999N0200001N1-00181-00941101801ADDGA1061+999999079GF106991061001999999031001MD1710081+9999REMSYN070AAXX  24124 02584 42998 62702 11018 21094 40180 57008 86030 333 86399;
0138025840999992000012415004+58400+019200FM-12+001299999V0202701N001019999999N0200001N1-00141-00701101721ADDGA1081+999999079GF108991081001999999031001MD1710081+9999REMSYN070AAXX  24154 02584 42998 82702 11014 21070 40172 57008 88030 333 88399;
0208025840999992000012418004+58400+019200FM-12+001299999V0202701N002110042019N0100001N1-00061-00381101701ADDAA112000191AY121061AY211061GA1041+004509099GF108991081031004501999999KA1120M-00061MD1610021+9999MW1261REMSYN094AAXX  24184 02584 11497 82704 11006 21038 40170 56002 69912 72621 883// 333 11006 84994 84793;
0138025840999992000012421004+58400+019200FM-12+001299999V0202901N001510045019N0100001N1-00061-00301101701ADDGA1081+004509059GF108991081051004501999999MD1510001+9999REMSYN070AAXX  24214 02584 42497 82903 11006 21030 40170 55000 885// 333 88694;
0166025840999992000012500004+58400+019200FM-12+001299999V0200201N000510045019N0040001N1-00061-00201101671ADDAY121061AY221061GA1081+004509069GF108991081061004501999999MD1810031+9999MW1101REMSYN076AAXX  25004 02584 41496 80201 11006 21020 40167 58003 71022 886// 333 88794;
0166025840999992000012503004+58400+019200FM-12+001299999V0200201N001010045019N0040001N1-00041-00201101651ADDAY121031AY221031GA1081+004509069GF108991081061004501999999MD1710021+9999MW1101REMSYN076AAXX  25034 02584 41496 80202 11004 21020 40165 57002 71022 886// 333 88794;
0225025840999992000012506004+58400+019200FM-12+001299999V0203601N001510080019N0040001N1-00081-00221101581ADDAA199000021AJ100089199999999AY121061AY221061GA1081+008009059GF108991081051008001999999IA1239KA1120N-00121MD1810071+9999MW1101REMSYN088AAXX  25064 02584 31596 83603 11008 21022 40158 58007 71022 885// 333 21012 47008 88695;
0138025840999992000012509004+58400+019200FM-12+001299999V0203201N002110045019N0100001N1-00181-00371101581ADDGA1081+004509069GF108991081071004501999999MD1510001+9999REMSYN070AAXX  25094 02584 42497 83204 11018 21037 40158 55000 887// 333 88794;
0138025840999992000012512004+58400+019200FM-12+001299999V0202901N003110025019N0100001N1-00181-00291101351ADDGA1081+002509069GF108991081071002501999999MD1810231+9999REMSYN070AAXX  25124 02584 42397 82906 11018 21029 40135 58023 887// 333 88793;
0172025840999992000012515004+58400+019200FM-12+001299999V0202701N00411004501CN0040001N1+99999+99999101161ADDAY121031AY221031GA1061+004509079GF108991061071004501021999MD1710191+9999MW1681REMSYN082AAXX  25154 02584 41496 82708 12002 21005 40116 57019 76822 8672/ 333 86794 88599;
0202025840999992000012518004+58400+019200FM-12+001299999V0203401N00311075001CN0100001N1+00191+00001101141ADDAA112000191AY171061AY221061GA1081+999999029GF108991081051999999999999KA1120M+00191MD1510021+9999MW1021REMSYN088AAXX  25184 02584 11997 83406 10019 20000 40114 55002 69912 70272 885// 333 10019 88599;
0122025840999992000012521004+58400+019200FM-12+001299999V0203401N004112200019N0100001N1+00161+00041101211ADDGA1001+999999999GF100991001001999999001001MD1210071+9999REMSYN054AAXX  25214 02584 42997 03408 10016 20004 40121 52007;
0122025840999992000012609004+58400+019200FM-12+001299999V0202701N003112200019N0200001N1+00271+00021100801ADDGA1001+999999999GF100991001001999999001001MD1710201+9999REMSYN054AAXX  26094 02584 42998 02706 10027 20002 40080 57020;
0138025840999992000012612004+58400+019200FM-12+001299999V0203201N004112200019N0200001N1+00421+00001100711ADDGA1021+012509029GF102991021021012501001001MD1610091+9999REMSYN070AAXX  26124 02584 42698 23208 10042 20000 40071 56009 82200 333 82896;
0138025840999992000012615004+58400+019200FM-12+001299999V0202701N00211075001CN0200001N1+00261+00091100691ADDGA1051+999999019GF105991001001999999001011MD1710021+9999REMSYN070AAXX  26154 02584 42998 52704 10026 20009 40069 57002 80001 333 85099;
0203025840999992000012618004+58400+019200FM-12+001299999V0202901N003112200019N0040001N1+00281+00131100641ADDAA199000091AY111061AY201061GA1001+999999999GF100991001001999999001001KA1999M+00441MD1710051+9999MW1101REMSYN070AAXX  26184 02584 31996 02906 10028 20013 40064 57005 71010 333 10044;EQDQ01  00002PRCP99
0150025840999992000012621004+58400+019200FM-12+001299999V0202901N003612200019N0040001N1+00281+00131100631ADDAY101031AY201031GA1001+999999999GF100991001001999999001001MD1610011+9999MW1101REMSYN060AAXX  26214 02584 41996 02907 10028 20013 40063 56001 71000;
0122025840999992000012700004+58400+019200FM-12+001299999V0202901N004112200019N0100001N1+00301+00071100621ADDGA1001+999999999GF100991001001999999001001MD1710011+9999REMSYN054AAXX  27004 02584 42997 02908 10030 20007 40062 57001;
0138025840999992000012703004+58400+019200FM-12+001299999V0202901N004112200019N0200001N1+00261-00071100721ADDGA1031+999999019GF103991001001999999001011MD1310101+9999REMSYN070AAXX  27034 02584 42998 32908 10026 21007 40072 53010 80001 333 83099;
0216025840999992000012706004+58400+019200FM-12+001299999V0203201N004112200019N0200001N1+00261-00151100771ADDAA199000091AJ100079199999999GA1031+999999019GF103991001001999999001011IA1279KA1120N+00221MD1210051+9999REMSYN082AAXX  27064 02584 32998 33208 10026 21015 40077 52005 80001 333 20022 43007 83099;EQDQ01  00002PRCP99
0138025840999992000012709004+58400+019200FM-12+001299999V0203201N002119999999N0200001N1+00281-00141100751ADDGA1081+999999089GF108991001001999999001071MD1810021+9999REMSYN070AAXX  27094 02584 42998 83204 10028 21014 40075 58002 80007 333 88299;
0138025840999992000012712004+58400+019200FM-12+001299999V0202901N001519999999N0200001N1+00221-00151100561ADDGA1081+999999089GF108991001001999999001071MD1810191+9999REMSYN070AAXX  27124 02584 42998 82903 10022 21015 40056 58019 80007 333 88299;
0138025840999992000012715004+58400+019200FM-12+001299999V0202301N002119999999N0200001N1+00241+00031100101ADDGA1081+999999089GF108991001001999999001071MD1810461+9999REMSYN070AAXX  27154 02584 42998 82304 10024 20003 40010 58046 80007 333 88299;
0208025840999992000012718004+58400+019200FM-12+001299999V0202301N00411030001CN0040001N1+00261+00201099691ADDAA112000791AY121061AY221061GA1041+002509079GF108991041071002501021999KA1120M+00281MD1710591+9999MW1681REMSYN094AAXX  27184 02584 11396 82308 10026 20020 49969 57059 69902 76822 8472/ 333 10028 84793 88599;
0150025840999992000012721004+58400+019200FM-12+001299999V0202301N005112200019N0100001N1+00351+00261099311ADDAY171031AY271031GA1001+999999999GF100991001001999999001001MD1710381+9999MW1011REMSYN060AAXX  27214 02584 41997 02310 10035 20026 49931 57038 70177;
0150025840999992000012800004+58400+019200FM-12+001299999V0202701N005112200019N0200001N1+00351+00141099241ADDAY171061AY271061GA1001+999999999GF100991001001999999001001MD1610071+9999MW1021REMSYN060AAXX  28004 02584 41998 02710 10035 20014 49924 56007 70277;
0122025840999992000012803004+58400+019200FM-12+001299999V0202701N005112200019N0200001N1+00291-00031099211ADDGA1001+999999999GF100991001001999999001001MD1710031+9999REMSYN054AAXX  28034 02584 42998 02710 10029 21003 49921 57003;
0191025840999992000012806004+58400+019200FM-12+001299999V0202701N004612200019N0200001N1+00201-00231099341ADDAA112000391AJ100079199999999GA1001+999999999GF100991001001999999001001IA1309KA1120N+00201MD1210131+9999REMSYN076AAXX  28064 02584 12998 02709 10020 21023 49934 52013 69932 333 20020 42007;
0144025840999992000012809004+58400+019200FM-12+001299999V0202901N00411220001CN0200001N1+00101-00341099531ADDGA1021+008009069GF105991021051008001001011MD1210191+9999REMSYN076AAXX  28094 02584 42598 52908 10010 21034 49953 52019 82501 333 82695 84099;
0138025840999992000012812004+58400+019200FM-12+001299999V0203201N001510045019N0200001N1+00101-00251099691ADDGA1061+004509059GF106991061051004501001001MD1210161+9999REMSYN070AAXX  28124 02584 42498 63203 10010 21025 49969 52016 86500 333 86694;
0138025840999992000012815004+58400+019200FM-12+001299999V0202701N001010045019N0200001N1-00041-00291099791ADDGA1071+004509059GF107991071051004501999999MD1210101+9999REMSYN070AAXX  28154 02584 42498 72702 11004 21029 49979 52010 875// 333 87694;
0187025840999992000012818004+58400+019200FM-12+001299999V0201601N000512200019N0100001N1-00221-00361099791ADDAA199000091GA1041+004509069GF104991041071004501001001KA1120M+00201MD1010001+9999REMSYN076AAXX  28184 02584 32497 41601 11022 21036 49979 50000 84700 333 10020 84794;EQDQ01  00002PRCP99
0122025840999992000012821004+58400+019200FM-12+001299999V0201801N002112200019N0100001N1-00021-00131099621ADDGA1001+999999999GF100991001001999999001001MD1810171+9999REMSYN054AAXX  28214 02584 42997 01804 11002 21013 49962 58017;
0150025840999992000012900004+58400+019200FM-12+001299999V0201801N002112200019N0040001N1+00121-00041099461ADDAY101061AY201061GA1001+999999999GF100991001001999999001001MD1710161+9999MW1101REMSYN060AAXX  29004 02584 41996 01804 10012 21004 49946 57016 71000;
0150025840999992000012903004+58400+019200FM-12+001299999V0201801N003112200019N0040001N1+00121+00081099111ADDAY101031AY201031GA1001+999999999GF100991001001999999001001MD1710351+9999MW1101REMSYN060AAXX  29034 02584 41996 01806 10012 20008 49911 57035 71000;
0244025840999992000012906004+58400+019200FM-12+001299999V0202001N003110045019N0040001N1+00261+00221098821ADDAA199000091AJ100059199999999AY101061AY201061GA1081+004509069GF108991081071004501999999IA1309KA1120N-00281MD1710291+9999MW1101REMSYN088AAXX  29064 02584 31496 82006 10026 20022 49882 57029 71000 887// 333 21028 42005 88794;EQDQ01  00002PRCP99
0166025840999992000012909004+58400+019200FM-12+001299999V0202001N004610025019N0040001N1+00281+00161098351ADDAY121031AY221031GA1081+002509069GF108991081071002501999999MD1710471+9999MW1101REMSYN076AAXX  29094 02584 41396 82009 10028 20016 49835 57047 71022 887// 333 88793;
0166025840999992000012912004+58400+019200FM-12+001299999V0202001N005110025019N0040001N1+00261+00201097751ADDAY121061AY221061GA1081+002509069GF108991081071002501999999MD1710601+9999MW1101REMSYN076AAXX  29124 02584 41396 82010 10026 20020 49775 57060 71022 887// 333 88793;
0172025840999992000012915004+58400+019200FM-12+001299999V0202001N00621002501CN0040001N1+00221+00181097061ADDAY121031AY221031GA1061+002509079GF108991061071002501021999MD1710691+9999MW1631REMSYN082AAXX  29154 02584 41396 82012 10022 20018 49706 57069 76322 8672/ 333 86793 88599;
0208025840999992000012918004+58400+019200FM-12+001299999V0201801N00571001501CN0040001N1+00221+00191096561ADDAA112003091AY121061AY221061GA1061+001509079GF108991051061001501071999KA1120M+00281MD1710501+9999MW1231REMSYN094AAXX  29184 02584 11296 81811 10022 20019 49656 57050 60032 72322 8567/ 333 10028 86792 88599;
0122025840999992000012921004+58400+019200FM-12+001299999V0202301N005712200019N0100001N1+00371+00341096501ADDGA1001+999999999GF100991001001999999001001MD1610061+9999REMSYN054AAXX  29214 02584 42997 02311 10037 20034 49650 56006;
0122025840999992000013000004+58400+019200FM-12+001299999V0202301N006712200019N0200001N1+00461+00261096281ADDGA1001+999999999GF100991001001999999001001MD1810221+9999REMSYN054AAXX  30004 02584 42998 02313 10046 20026 49628 58022;
0163025840999992000013003004+58400+019200FM-12+001299999V0202301N00721030001CN0200001N1+00411+00091095991ADDGA1031+008009069GF108991031051008001011999MD1710291+9999REMSYN076AAXX  30034 02584 42598 82314 10041 20009 49599 57071 8351/ 333 83695 88499;EQDQ01+000712APC3  
0256025840999992000013006004+58400+019200FM-12+001299999V0202501N00571007501CN0100001N1+00341+00221096001ADDAA112000391AJ199992999999999AY121061AY201061GA1011+008009099GF106991061031008001001001IA1259KA1120N+00221MD1510011+9999MW1251REMSYN100AAXX  30064 02584 11597 62511 10034 20022 49600 55001 69932 72520 86300 333 20022 41998 81995 85895;EQDQ01  09972SNDP  
0172025840999992000013009004+58400+019200FM-12+001299999V0202701N00461030001CN0040001N1+00321+00221096451ADDAY121031AY221031GA1041+004509079GF108991041071004501021999MD1210151+9999MW1601REMSYN082AAXX  30094 02584 41496 82709 10032 20022 49645 52015 76022 8472/ 333 84794 88599;
0166025840999992000013012004+58400+019200FM-12+001299999V0203201N007210175019N0100001N1+00321-00281097431ADDAY161061AY221061GA1081+017509059GF108991081051012501999999MD1210981+9999MW1021REMSYN076AAXX  30124 02584 41697 83214 10032 21028 49743 52098 70262 885// 333 88697;
0138025840999992000013015004+58400+019200FM-12+001299999V0203401N008212200019N0200001N1+00221-00711098241ADDGA1041+012509029GF104991041021012501001001MD1210811+9999REMSYN070AAXX  30154 02584 42698 43416 10022 21071 49824 52081 84200 333 84896;
0174025840999992000013018004+58400+019200FM-12+001299999V0203401N008212200019N0200001N1+00081-00851098951ADDAA112000191GA1021+012509029GF102991021021012501001001KA1120M+00351MD1210711+9999REMSYN082AAXX  30184 02584 12698 23416 10008 21085 49895 52071 69912 82200 333 10035 82896;
0122025840999992000013021004+58400+019200FM-12+001299999V0203401N006212200019N0200001N1-00061-00981099491ADDGA1001+999999999GF100991001001999999001001MD1210541+9999REMSYN054AAXX  30214 02584 42998 03412 11006 21098 49949 52054;
0122025840999992000013100004+58400+019200FM-12+001299999V0203201N005112200019N0200001N1-00121-00921099681ADDGA1001+999999999GF100991001001999999001001MD1110191+9999REMSYN054AAXX  31004 02584 42998 03210 11012 21092 49968 51019;
0138025840999992000013103004+58400+019200FM-12+001299999V0203201N00211075001CN0200001N1-00121-00921099551ADDGA1081+999999019GF108991081001999999071999MD1810131+9999REMSYN070AAXX  31034 02584 42998 83204 11012 21092 49955 58013 8807/ 333 88499;
0232025840999992000013106004+58400+019200FM-12+001299999V0209999C00001075001CN0200001N1-00221-00591099361ADDAA199000091AJ199992999999999GA1081+999999019GF108991081001999999071999IA1259KA1120N-00251MD1710191+9999REMSYN082AAXX  31064 02584 32998 80000 11022 21059 49936 57019 8807/ 333 21025 41998 88499;EQDQ01  00002PRCP99Q02  09972SNDP  
0118025840999992000013109004+58400+019200FM-12+001299999V0201401N00051075001CN0200001N1-00201-00481099361ADDGA1081+999999019GF108991081001999999071999REMSYN064AAXX  31094 02584 42998 81401 11020 21048 49936 8807/ 333 88499;
0144025840999992000013112004+58400+019200FM-12+001299999V0200501N00101075001CN0200001N1+00001-00891099611ADDGA1031+008009089GF107991031021008001001021MD1310251+9999REMSYN076AAXX  31124 02584 42598 70502 10000 21089 49961 53025 83202 333 83895 87099;
0144025840999992000013115004+58400+019200FM-12+001299999V0203201N00101075001CN0200001N1-00161-00561100081ADDGA1021+008009089GF106991021021008001001021MD1310471+9999REMSYN076AAXX  31154 02584 42598 63202 11016 21056 40008 53047 82202 333 82895 86099;
0187025840999992000013118004+58400+019200FM-12+001299999V0202501N005712200019N0200001N1+00031-00591100331ADDAA199000091GA1041+012509059GF104991041051012501001001KA1120M+00051MD1210251+9999REMSYN076AAXX  31184 02584 32698 42511 10003 21059 40033 52025 84500 333 10005 84696;EQDQ01  00002PRCP99
0138025840999992000013121004+58400+019200FM-12+001299999V0202701N004610045019N0200001N1-00031-00401100431ADDGA1081+004509059GF108991081051004501999999MD1210101+9999REMSYN070AAXX  31214 02584 42498 82709 11003 21040 40043 52010 885// 333 88694;
0138025840999992000020100004+58400+019200FM-12+001299999V0202701N004112200019N0200001N1+00061-00261100441ADDGA1031+004509059GF103991031051004501001001MD1210011+9999REMSYN070AAXX  01004 02584 42498 32708 10006 21026 40044 52001 83500 333 83694;
0122025840999992000020103004+58400+019200FM-12+001299999V0202701N003612200019N0200001N1+00071-00471100521ADDGA1001+999999999GF100991001001999999001001MD1210081+9999REMSYN054AAXX  01034 02584 42998 02707 10007 21047 40052 52008;
0204025840999992000020106004+58400+019200FM-12+001299999V0202901N002612200019N0200001N1-00011-00631100641ADDAA199000091AJ100009199999999GA1001+999999999GF100991001001999999001001IA1259KA1120N-00031MD1210121+9999REMSYN070AAXX  01064 02584 32998 02905 11001 21063 40064 52012 333 21003 41998;EQDQ01  00002PRCP99
0138025840999992000020109004+58400+019200FM-12+001299999V0202901N002112200019N0200001N1+00001-00621100721ADDGA1021+999999019GF102991001001999999001011MD1210081+9999REMSYN070AAXX  01094 02584 42998 22904 10000 21062 40072 52008 80001 333 82099;
0138025840999992000020112004+58400+019200FM-12+001299999V0202701N001512200019N0500001N1+00161-00561100651ADDGA1041+999999019GF104991001001999999001011MD1710071+9999REMSYN070AAXX  01124 02584 42999 42703 10016 21056 40065 57007 80001 333 84099;
0138025840999992000020115004+58400+019200FM-12+001299999V0202301N00211075001CN0200001N1+00051-00571100431ADDGA1051+999999019GF105991001001999999001021MD1710321+9999REMSYN070AAXX  01154 02584 42998 52304 10005 21057 40043 57032 80002 333 85099;
0187025840999992000020118004+58400+019200FM-12+001299999V0202001N00311075001CN0200001N1+00101-00381100171ADDAA199000091GA1081+999999019GF108991081001999999011999KA1120M+00181MD1710261+9999REMSYN076AAXX  01184 02584 32998 82006 10010 21038 40017 57026 8801/ 333 10018 88499;EQDQ01  00002PRCP99
0172025840999992000020121004+58400+019200FM-12+001299999V0201801N00211001501CN0020001N1+00021-00011099651ADDAY121031AY221031GA1051+001509079GF108991051071001501021999MD1710521+9999MW1711REMSYN082AAXX  01214 02584 41295 81804 10002 21001 49965 57052 77122 8572/ 333 85792 88599;
0172025840999992000020200004+58400+019200FM-12+001299999V0202001N00411001501CN0020001N1+00301+00271099131ADDAY171061AY221061GA1051+001509079GF108991051071001501021999MD1710521+9999MW1611REMSYN082AAXX  02004 02584 41295 82008 10030 20027 49913 57052 76172 8572/ 333 85792 88599;
0166025840999992000020203004+58400+019200FM-12+001299999V0202501N006210025019N0040001N1+00401+00361098931ADDAY161031AY261031GA1081+002509069GF108991081071002501999999MD1610201+9999MW1101REMSYN076AAXX  02034 02584 41396 82512 10040 20036 49893 56020 71066 887// 333 88793;
0250025840999992000020206004+58400+019200FM-12+001299999V0202901N004110045019N0040001N1+00201+00131099081ADDAA112002091AJ199992999999999AY161061AY261061GA1081+004509069GF108991081071004501999999IA1259KA1120N+00021MD1310151+9999MW1101REMSYN094AAXX  02064 02584 11496 82908 10020 20013 49908 53015 60022 71066 887// 333 20002 41998 88794;EQDQ01  09972SNDP  
0138025840999992000020209004+58400+019200FM-12+001299999V0202901N004110045019N0100001N1+00301+00081099181ADDGA1081+004509069GF108991081071004501999999MD1210101+9999REMSYN070AAXX  02094 02584 42497 82908 10030 20008 49918 52010 887// 333 88794;
0138025840999992000020212004+58400+019200FM-12+001299999V0202701N005712200019N0200001N1+00401+00081099121ADDGA1031+008009029GF103991031021008001001001MD1810061+9999REMSYN070AAXX  02124 02584 42598 32711 10040 20008 49912 58006 83200 333 83895;
0122025840999992000020215004+58400+019200FM-12+001299999V0202501N004112200019N0200001N1+00341+00141099051ADDGA1001+999999999GF100991001001999999001001MD1710071+9999REMSYN054AAXX  02154 02584 42998 02508 10034 20014 49905 57007;
0187025840999992000020218004+58400+019200FM-12+001299999V0202501N003110080019N0200001N1+00341+00141098981ADDAA199000091GA1081+008009059GF108991081051008001999999KA1120M+00411MD1710071+9999REMSYN076AAXX  02184 02584 32598 82506 10034 20014 49898 57007 885// 333 10041 88695;EQDQ01  00002PRCP99
0172025840999992000020221004+58400+019200FM-12+001299999V0202701N00211004501CN0040001N1+00121+00081098871ADDAY121031AY221031GA1061+004509079GF108991061071004501021999MD1710111+9999MW1681REMSYN082AAXX  02214 02584 41496 82704 10012 20008 49887 57011 76822 8672/ 333 86794 88597;
0172025840999992000020300004+58400+019200FM-12+001299999V0200501N00411004501CN0040001N1+00011-00021099081ADDAY171061AY221061GA1061+004509079GF108991061071004501021999MD1310211+9999MW1711REMSYN082AAXX  03004 02584 41496 80508 10001 21002 49908 53021 77172 8672/ 333 86794 88599;
0172025840999992000020303004+58400+019200FM-12+001299999V0203601N00311004501CN0040001N1-00051-00161099571ADDAY171031AY271031GA1061+004509079GF108991061071004501021999MD1210491+9999MW1711REMSYN082AAXX  03034 02584 41496 83606 11005 21016 49957 52049 77177 8672/ 333 86794 88599;
0214025840999992000020306004+58400+019200FM-12+001299999V0203601N003612200019N0100001N1-00141-00391100121ADDAA112007191AY171061AY271061GA1031+004509029GF103991031021004501001001IA1279KA1120N-00161MD1210551+9999MW1011REMSYN094AAXX  03064 02584 11497 33607 11014 21039 40012 52055 60072 70177 83200 333 21016 43/// 83894;
0138025840999992000020309004+58400+019200FM-12+001299999V0203401N004112200019N0200001N1-00231-00451100631ADDGA1031+004509059GF103991031051004501001001MD1210511+9999REMSYN070AAXX  03094 02584 42498 33408 11023 21045 40063 52051 83500 333 83694;
0122025840999992000020312004+58400+019200FM-12+001299999V0202901N004112200019N0200001N1-00081-00581100911ADDGA1001+999999999GF100991001001999999001001MD1210281+9999REMSYN054AAXX  03124 02584 42998 02908 11008 21058 40091 52028;
0138025840999992000020315004+58400+019200FM-12+001299999V0202901N005112200019N0200001N1-00091-00631101251ADDGA1011+999999079GF101991011001999999071001MD1210341+9999REMSYN070AAXX  03154 02584 42998 12910 11009 21063 40125 52034 81070 333 81399;
0175025840999992000020318004+58400+019200FM-12+001299999V0202301N005712200019N0200001N1+00041-00501101621ADDAA199000091GA1001+999999999GF100991001001999999001001KA1999M+00051MD1210371+9999REMSYN064AAXX  03184 02584 32998 02311 10004 21050 40162 52037 333 10005;EQDQ01  00002PRCP99
0122025840999992000020321004+58400+019200FM-12+001299999V0202301N004112200019N0200001N1+00021-00461101871ADDGA1001+999999999GF100991001001999999001001MD1110251+9999REMSYN054AAXX  03214 02584 42998 02308 10002 21046 40187 51025;
0122025840999992000020400004+58400+019200FM-12+001299999V0202701N002612200019N0200001N1+00051-00341101931ADDGA1001+999999999GF100991001001999999001001MD1110051+9999REMSYN054AAXX  04004 02584 42998 02705 10005 21034 40193 51005;
0138025840999992000020403004+58400+019200FM-12+001299999V0202501N004619999999N0200001N1+00151-00411101661ADDGA1081+999999089GF108991001001999999001071MD1810271+9999REMSYN070AAXX  04034 02584 42998 82509 10015 21041 40166 58027 80007 333 88299;
0237025840999992000020406004+58400+019200FM-12+001299999V0202501N00671002501CN0040001N1+00231-00021101131ADDAA112000791AJ100019199999999AY121061AY221061GA1051+002509079GF108991051071002501021999IA1279KA1120N+00001MD1710531+9999MW1621REMSYN100AAXX  04064 02584 11396 82513 10023 21002 40113 57053 69902 76222 8572/ 333 20000 43001 85793 88597;
0172025840999992000020409004+58400+019200FM-12+001299999V0202301N00671004501CN0100001N1+00301-00121100701ADDAY161031AY261031GA1061+004509079GF108991061071004501021999MD1710431+9999MW1021REMSYN082AAXX  04094 02584 41497 82313 10030 21012 40070 57043 70266 8672/ 333 86794 88597;
0166025840999992000020412004+58400+019200FM-12+001299999V0202501N007710015019N0040001N1+00331-00251100351ADDAY161061AY221061GA1081+001509069GF108991081061001501999999MD1610351+9999MW1101REMSYN076AAXX  04124 02584 41296 82515 10033 21025 40035 56035 71062 886// 333 88792;
0172025840999992000020415004+58400+019200FM-12+001299999V0202501N00511004501CN0040001N1+00421+00291100131ADDAY121031AY221031GA1061+004509079GF108991061061004501071999MD1710221+9999MW1101REMSYN082AAXX  04154 02584 41496 82510 10042 20029 40013 57022 71022 8667/ 333 86794 88399;
0202025840999992000020418004+58400+019200FM-12+001299999V0202701N003610045019N0040001N1+00401+00331100111ADDAA112000791AY121061AY221061GA1081+004509069GF108991081061004501999999KA1120M+00421MD1610021+9999MW1101REMSYN088AAXX  04184 02584 11496 82707 10040 20033 40011 56002 69902 71022 886// 333 10042 88794;
0185025840999992000020421004+58400+019200FM-12+001299999V0202901N003112200019N0040001N1+00381+00341100151ADDAY121031AY221031GA1031+022509079GF103991031999022501071001MD1310041+9999MW1101REMSYN076AAXX  04214 02584 41896 32906 10038 20034 40015 53004 71022 83070 333 83398;EQDQ01+000002SCOLCG
0185025840999992000020500004+58400+019200FM-12+001299999V0202701N003110175019N0040001N1+00371+00311100251ADDAY121061AY221061GA1061+017509059GF106991061051017501999001MD1310101+9999MW1101REMSYN076AAXX  05004 02584 41796 62706 10037 20031 40025 53010 71022 86500 333 86697;EQDQ01+000002SCOMCG
0122025840999992000020503004+58400+019200FM-12+001299999V0203401N004112200019N0100001N1+00351+00141100541ADDGA1001+999999999GF100991001001999999001001MD1210291+9999REMSYN054AAXX  05034 02584 42997 03408 10035 20014 40054 52029;
0199025840999992000020506004+58400+019200FM-12+001299999V0203401N003119999999N0200001N1+00231-00201100891ADDAA199000091GA1051+999999079GF105991051001999999031001IA1149KA1120N+00231MD1210351+9999REMSYN082AAXX  05064 02584 32998 53406 10023 21020 40089 52035 85030 333 20023 34/// 85399;EQDQ01  00002PRCP99
0138025840999992000020509004+58400+019200FM-12+001299999V0200201N00211075001CN0200001N1+00231-00351101161ADDGA1051+999999019GF105991001001999999001021MD1210271+9999REMSYN070AAXX  05094 02584 42998 50204 10023 21035 40116 52027 80002 333 85099;
0138025840999992000020512004+58400+019200FM-12+001299999V0203401N00101075001CN0200001N1+00411-00511101381ADDGA1051+999999019GF105991001001999999001011MD1210221+9999REMSYN070AAXX  05124 02584 42998 53402 10041 21051 40138 52022 80001 333 85099;
0138025840999992000020515004+58400+019200FM-12+001299999V0201801N000510125019N0200001N1+00241-00441101321ADDGA1081+012509019GF108991081001012501011999MD1810061+9999REMSYN070AAXX  05154 02584 42698 81801 10024 21044 40132 58006 8801/ 333 88496;
0202025840999992000020518004+58400+019200FM-12+001299999V0201801N002610045019N0040001N1+00231-00021101201ADDAA112000191AY121061AY221061GA1081+004509069GF108991081071004501999999KA1120M+00421MD1810121+9999MW1611REMSYN088AAXX  05184 02584 11496 81805 10023 21002 40120 58012 69912 76122 887// 333 10042 88794;
0172025840999992000020521004+58400+019200FM-12+001299999V0201801N00311004201CN0040001N1+00321+00191101031ADDAY161031AY261031GA1021+004509079GF108991081071004501999999MD1710171+9999MW1101REMSYN082AAXX  05214 02584 41496 81806 10032 20019 40103 57017 71066 887// 333 82794 88695;
0166025840999992000020600004+58400+019200FM-12+001299999V0202301N002610045019N0040001N1+00461+00401100911ADDAY161061AY261061GA1081+004509069GF108991081061004501999999MD1710121+9999MW1101REMSYN076AAXX  06004 02584 41496 82305 10046 20040 40091 57012 71066 886// 333 88794;
0166025840999992000020603004+58400+019200FM-12+001299999V0202701N004110045019N0040001N1+00491+00451100731ADDAY121031AY221031GA1081+004509069GF108991081061004501999999MD1810181+9999MW1101REMSYN076AAXX  06034 02584 41496 82708 10049 20045 40073 58018 71022 886// 333 88794;
0214025840999992000020606004+58400+019200FM-12+001299999V0202301N004119999999N0040001N1+00441+00401100471ADDAA112000791AY121061AY221061GA1081+999999079GF108991081001999999071999IA1099KA1120N+00221MD1710261+9999MW1101REMSYN094AAXX  06064 02584 11996 82308 10044 20040 40047 57026 69902 71022 8807/ 333 20022 31/// 88399;
0172025840999992000020609004+58400+019200FM-12+001299999V0202501N00461002501CN0040001N1+00421+00361100381ADDAY121031AY221031GA1051+002509079GF108991081061002501999999MD1610091+9999MW1101REMSYN082AAXX  06094 02584 41396 82509 10042 20036 40038 56009 71022 886// 333 85793 88594;
0138025840999992000020612004+58400+019200FM-12+001299999V0202301N005110080019N0100001N1+00501+00351100321ADDGA1081+008009029GF108991081051008001999999MD1710061+9999REMSYN070AAXX  06124 02584 42597 82310 10050 20035 40032 57006 885// 333 88595;
0138025840999992000020615004+58400+019200FM-12+001299999V0202701N00571075001CN0100001N1+00521+00401100431ADDGA1051+999999019GF105991001001999999001011MD1310111+9999REMSYN070AAXX  06154 02584 42997 52711 10052 20040 40043 53011 80001 333 85099;
0175025840999992000020618004+58400+019200FM-12+001299999V0202501N004112200019N0100001N1+00461+00361100711ADDAA199000091GA1001+999999999GF100991001001999999001001KA1999M+00541MD1210281+9999REMSYN064AAXX  06184 02584 32997 02508 10046 20036 40071 52028 333 10054;EQDQ01  00002PRCP99
0122025840999992000020621004+58400+019200FM-12+001299999V0202501N004112200019N0100001N1+00451+00351100811ADDGA1001+999999999GF100991001001999999001001MD1110121+9999REMSYN054AAXX  06214 02584 42997 02508 10045 20035 40081 51012;
0150025840999992000020700004+58400+019200FM-12+001299999V0202301N003112200019N0040001N1+00341+00311100801ADDAY101061AY201061GA1001+999999999GF100991001001999999001001MD1810031+9999MW1101REMSYN060AAXX  07004 02584 41996 02306 10034 20031 40080 58003 71000;
0150025840999992000020703004+58400+019200FM-12+001299999V0202001N002112200019N0040001N1+00311+00281100581ADDAY101031AY201031GA1001+999999999GF100991001001999999001001MD1810221+9999MW1101REMSYN060AAXX  07034 02584 41996 02004 10031 20028 40058 58022 71000;
0172025840999992000020709004+58400+019200FM-12+001299999V0201801N00411000751CN0040001N1+00411+00381100011ADDAY121031AY221031GA1071+000759079GF108991071071000751021999MD1710201+9999MW1611REMSYN082AAXX  07094 02584 41196 81808 10041 20038 40001 57020 76122 8772/ 333 87791 88598;
0166025840999992000020712004+58400+019200FM-12+001299999V0202301N006210007519N0010001N1+00441+00401099681ADDAY161061AY221061GA1081+000759069GF108991081071000751999999MD1710331+9999MW1101REMSYN076AAXX  07124 02584 41194 82312 10044 20040 49968 57033 71062 887// 333 88791;
0172025840999992000020715004+58400+019200FM-12+001299999V0202301N00511030001CN0040001N1+00491+00431099341ADDAY161031AY221031GA1031+001509079GF108991031071001501011999MD1710341+9999MW1101REMSYN082AAXX  07154 02584 41296 82310 10049 20043 49934 57034 71062 8371/ 333 83792 88499;
0202025840999992000020718004+58400+019200FM-12+001299999V0202301N006712200019N0100001N1+00441+00211099281ADDAA112000591AY161061AY221061GA1031+012509059GF103991031051012501001001KA1120M+00521MD1610061+9999MW1021REMSYN088AAXX  07184 02584 11697 32313 10044 20021 49928 56006 69952 70262 83500 333 10052 83696;
0166025840999992000020721004+58400+019200FM-12+001299999V0202301N006210125019N0040001N1+00421+00091099251ADDAY121031AY221031GA1081+012509059GF108991081051012501999999MD1710031+9999MW1101REMSYN076AAXX  07214 02584 41696 82312 10042 20009 49925 57003 71022 885// 333 88696;
0138025840999992000020800004+58400+019200FM-12+001299999V0202301N005112200019N0100001N1+00381+00061099281ADDGA1021+012509059GF102991021051012501001001MD1310031+9999REMSYN070AAXX  08004 02584 42697 22310 10038 20006 49928 53003 82500 333 82696;
0138025840999992000020803004+58400+019200FM-12+001299999V0202301N005712200019N0100001N1+00261+00091099151ADDGA1011+999999079GF101991011001999999071001MD1810131+9999REMSYN070AAXX  08034 02584 42997 12311 10026 20009 49915 58013 81070 333 81399;
0227025840999992000020806004+58400+019200FM-12+001299999V0202301N004110080019N0040001N1+00381+00291098991ADDAA199000091AY121061AY221061GA1081+008009059GF108991081051008001999999IA1099KA1120N+00251MD1710161+9999MW1101REMSYN088AAXX  08064 02584 31596 82308 10038 20029 49899 57016 71022 885// 333 20025 31/// 88695;EQDQ01  00002PRCP99
0172025840999992000020809004+58400+019200FM-12+001299999V0202001N00211002501CN0040001N1+00301+00261098771ADDAY121031AY221031GA1061+002509079GF108991061071002501021999MD1710221+9999MW1611REMSYN082AAXX  08094 02584 41396 82004 10030 20026 49877 57022 76122 8672/ 333 86793 88599;
0113025840999992000020812004+58400+019200FM-12+001299999V0202301N001519999999N0010001N1+00341+00311098591ADDGF108991999999000751999999REMSYN075AAXX  08124 02584 41194 82303 10034 20031 49859 5718 71022 886// 333 88791;
0166025840999992000020815004+58400+019200FM-12+001299999V0202701N001010007519N0020001N1+00321+00291098551ADDAY121031AY221031GA1081+000759069GF108991081061000751999999MD1610041+9999MW1101REMSYN076AAXX  08154 02584 41195 82702 10032 20029 49855 56004 71022 886// 333 88791;
0190025840999992000020818004+58400+019200FM-12+001299999V0202701N001512200019N0040001N1+00221+00181098621ADDAA112000591AY121061AY221061GA1001+999999999GF100991001001999999001001KA1999M+00381MD1310071+9999MW1101REMSYN076AAXX  08184 02584 11996 02703 10022 20018 49862 53007 69942 71022 333 10038;
0166025840999992000020821004+58400+019200FM-12+001299999V0202501N001512200019N0040001N1+00191+00151098611ADDAY101031AY201031GA1011+002509069GF101991011061002501001001MD1810071+9999MW1101REMSYN076AAXX  08214 02584 41396 12503 10019 20015 49861 58007 71000 81600 333 81793;
0185025840999992000020900004+58400+019200FM-12+001299999V0202301N002110025019N0040001N1+00171+00131999999ADDAY121061AY201061GA1081+002509069GF108991081061002501999999MD1610031+9999MW1101REMSYN076AAXX  09004 02584 41396 82304 10017 20013 49958 56003 71020 886// 333 88793;EQDQ01+099583APOSLP
0166025840999992000020903004+58400+019200FM-12+001299999V0201801N001510015019N0040001N1+00181+00141098491ADDAY121031AY221031GA1081+001509069GF108991081061001501999999MD1710091+9999MW1101REMSYN076AAXX  09034 02584 41296 81803 10018 20014 49849 57009 71022 886// 333 88792;
0215025840999992000020906004+58400+019200FM-12+001299999V0201801N001010003019N0002001N1+00321+00291098531ADDAA199000091AY121061AY221061GA1091+999999999GF109991091999999999999999IA1099KA1120N+00051MD1310041+9999MW1451REMSYN076AAXX  09064 02584 31/92 91802 10032 20029 49853 53004 74522 333 20005 31///;EQDQ01  00002PRCP99
0172025840999992000020909004+58400+019200FM-12+001299999V0200501N00211001501CN0002001N1+00281+00241098721ADDAY141031AY241031GA1071+001509079GF108991071071001501021999MD1210191+9999MW1511REMSYN082AAXX  09094 02584 41292 80504 10028 20024 49872 52019 75144 8772/ 333 87792 88599;
0172025840999992000020912004+58400+019200FM-12+001299999V0200501N00101001501CN0040001N1+00301+00231099101ADDAY161061AY241061GA1061+001509079GF108991061071001501021999MD1310381+9999MW1601REMSYN082AAXX  09124 02584 41296 80502 10030 20023 49910 53038 76064 8672/ 333 86792 88599;
0172025840999992000020915004+58400+019200FM-12+001299999V0200201N00151001501CN0040001N1+00161+00081099531ADDAY161031AY261031GA1071+001509079GF108991071071001501021999MD1310431+9999MW1101REMSYN082AAXX  09154 02584 41296 80203 10016 20008 49953 53043 71066 8772/ 333 87792 88599;
0208025840999992000020918004+58400+019200FM-12+001299999V0203601N00211030001CN0040001N1+00181+00041100061ADDAA112002091AY161061AY261061GA1041+002509079GF108991041061002501071999KA1120M+00341MD1210531+9999MW1101REMSYN094AAXX  09184 02584 11396 83604 10018 20004 40006 52053 60022 71066 8467/ 333 10034 84793 88399;
0122025840999992000020921004+58400+019200FM-12+001299999V0203401N003112200019N0200001N1+00121-00151100491ADDGA1001+999999999GF100991001001999999001001MD1210431+9999REMSYN054AAXX  09214 02584 42998 03406 10012 21015 40049 52043;
0122025840999992000021000004+58400+019200FM-12+001299999V0203201N002112200019N0200001N1-00021-00241100781ADDGA1001+999999999GF100991001001999999001001MD1110291+9999REMSYN054AAXX  10004 02584 42998 03204 11002 21024 40078 51029;
0122025840999992000021003004+58400+019200FM-12+001299999V0202501N002112200019N0200001N1+00121-00021100961ADDGA1001+999999999GF100991001001999999001001MD1210191+9999REMSYN054AAXX  10034 02584 42998 02504 10012 21002 40096 52019;
0187025840999992000021006004+58400+019200FM-12+001299999V0202301N003112200019N0100001N1+00161+00091101041ADDAA199000091GA1001+999999999GF100991001001999999001001IA1149KA1120N-00021MD1110081+9999REMSYN070AAXX  10064 02584 32997 02306 10016 20009 40104 51008 333 21002 34///;EQDQ01  00002PRCP99
0138025840999992000021009004+58400+019200FM-12+001299999V0202501N004112200019N0200001N1+00251+00131100981ADDGA1041+999999019GF104991001001999999001021MD1810061+9999REMSYN070AAXX  10094 02584 42998 42508 10025 20013 40098 58006 80002 333 84099;
0138025840999992000021012004+58400+019200FM-12+001299999V0202301N00511075001CN0200001N1+00381-00011100811ADDGA1051+999999019GF105991001001999999001011MD1810171+9999REMSYN070AAXX  10124 02584 42998 52310 10038 21001 40081 58017 80001 333 85099;
0144025840999992000021015004+58400+019200FM-12+001299999V0202001N00361999999CN0100001N1+00291+00221100501ADDGA1061+025009039GF107991061001999999031011MD1710311+9999REMSYN076AAXX  10154 02584 42997 72007 10029 20022 40050 57031 86031 333 86399 84099;
0187025840999992000021018004+58400+019200FM-12+001299999V0202001N004610080019N0100001N1+00371+00241100271ADDAA199000091GA1071+008009059GF107991071051008001999999KA1120M+00381MD1810231+9999REMSYN076AAXX  10184 02584 32597 72009 10037 20024 40027 58023 875// 333 10038 87695;EQDQ01  00002PRCP99
0172025840999992000021021004+58400+019200FM-12+001299999V0202001N00771008001CN0100001N1+00461+00111099991ADDAY121031AY221031GA1071+008009069GF108991071051008001021999MD1810281+9999MW1611REMSYN082AAXX  10214 02584 41597 82015 10046 20011 49999 58028 76122 8752/ 333 87695 88596;
0172025840999992000021100004+58400+019200FM-12+001299999V0202301N00621002501CN0040001N1+00371+00281099891ADDAY161061AY221061GA1061+002509079GF108991061071002501021999MD1610101+9999MW1621REMSYN082AAXX  11004 02584 41396 82312 10037 20028 49989 56010 76262 8672/ 333 86793 88596;
0150025840999992000021103004+58400+019200FM-12+001299999V0202301N005712200019N0100001N1+00361+00241099951ADDAY161031AY261031GA1001+999999999GF100991001001999999001001MD1310061+9999MW1011REMSYN060AAXX  11034 02584 41997 02311 10036 20024 49995 53006 70166;
0202025840999992000021106004+58400+019200FM-12+001299999V0202501N004112200019N0200001N1+00361+00101100201ADDAA112000591AY161061AY261061GA1001+999999999GF100991001001999999001001IA1099KA1120N+00351MD1210251+9999MW1011REMSYN082AAXX  11064 02584 11998 02508 10036 20010 40020 52025 69942 70166 333 20035 31///;
0122025840999992000021109004+58400+019200FM-12+001299999V0202301N004612200019N0200001N1+00401-00021100511ADDGA1001+999999999GF100991001001999999001001MD1210311+9999REMSYN054AAXX  11094 02584 42998 02309 10040 21002 40051 52031;
0122025840999992000021112004+58400+019200FM-12+001299999V0202501N004612200019N0200001N1+00491+00031100711ADDGA1001+999999999GF100991001001999999001001MD1110201+9999REMSYN054AAXX  11124 02584 42998 02509 10049 20003 40071 51020;
0138025840999992000021115004+58400+019200FM-12+001299999V0202501N005112200019N0200001N1+00441+00121100801ADDGA1011+002509069GF101991011061002501001001MD1310091+9999REMSYN070AAXX  11154 02584 42398 12510 10044 20012 40080 53009 81600 333 81793;
0175025840999992000021118004+58400+019200FM-12+001299999V0202701N005712200019N0100001N1+00441+00191100921ADDAA199000091GA1001+999999999GF100991001001999999001001KA1999M+00501MD1210121+9999REMSYN064AAXX  11184 02584 32997 02711 10044 20019 40092 52012 333 10050;EQDQ01  00002PRCP99
0122025840999992000021121004+58400+019200FM-12+001299999V0202501N005712200019N0200001N1+00421+00221101161ADDGA1001+999999999GF100991001001999999001001MD1310241+9999REMSYN054AAXX  11214 02584 42998 02511 10042 20022 40116 53024;
0122025840999992000021200004+58400+019200FM-12+001299999V0202701N004112200019N0200001N1+00401+00221101371ADDGA1001+999999999GF100991001001999999001001MD1210211+9999REMSYN054AAXX  12004 02584 42998 02708 10040 20022 40137 52021;
0122025840999992000021203004+58400+019200FM-12+001299999V0202501N003112200019N0200001N1+00371+00221101431ADDGA1001+999999999GF100991001001999999001001MD1110061+9999REMSYN054AAXX  12034 02584 42998 02506 10037 20022 40143 51006;
0187025840999992000021206004+58400+019200FM-12+001299999V0202501N004612200019N0100001N1+00371+00251101431ADDAA199000091GA1001+999999999GF100991001001999999001001IA1099KA1120N+00351MD1410001+9999REMSYN070AAXX  12064 02584 32997 02509 10037 20025 40143 54000 333 20035 31///;EQDQ01  00002PRCP99
0138025840999992000021209004+58400+019200FM-12+001299999V0202301N004112200019N0200001N1+00441+00181101431ADDGA1011+999999019GF101991001001999999001011MD1410001+9999REMSYN070AAXX  12094 02584 42998 12308 10044 20018 40143 54000 80001 333 81099;
0138025840999992000021212004+58400+019200FM-12+001299999V0202301N004110080019N0200001N1+00421+00241101291ADDGA1051+008009059GF107991051051008001001001MD1810141+9999REMSYN070AAXX  12124 02584 42598 72308 10042 20024 40129 58014 85500 333 85695;
0138025840999992000021215004+58400+019200FM-12+001299999V0202301N004612200019N0200001N1+00361+00241101141ADDGA1011+999999019GF101991001001999999001011MD1710151+9999REMSYN070AAXX  12154 02584 42998 12309 10036 20024 40114 57015 80001 333 81099;
0203025840999992000021218004+58400+019200FM-12+001299999V0201801N003610175019N0200001N1+00301+00201100911ADDAA199000091GA1051+017509059GF105991051051017501999001KA1120M+00461MD1810231+9999REMSYN076AAXX  12184 02584 32798 51807 10030 20020 40091 58023 85500 333 10046 85697;EQDQ01+000002SCOMCGQ02  00002PRCP99
0138025840999992000021221004+58400+019200FM-12+001299999V0201801N004612200019N0200001N1+00321+00111100621ADDGA1041+999999019GF104991001001999999001011MD1810291+9999REMSYN070AAXX  12214 02584 42998 41809 10032 20011 40062 58029 80001 333 84099;
0138025840999992000021300004+58400+019200FM-12+001299999V0202301N003610080019N0200001N1+00341+00021100251ADDGA1081+008009059GF108991081051008001999999MD1710371+9999REMSYN070AAXX  13004 02584 42598 82307 10034 20002 40025 57037 885// 333 88695;
0172025840999992000021303004+58400+019200FM-12+001299999V0202001N00461002501CN0100001N1+00261+00191099971ADDAY121031AY221031GA1061+002509079GF108991061071002501021999MD1610281+9999MW1611REMSYN082AAXX  13034 02584 41397 82009 10026 20019 49997 56028 76122 8672/ 333 86793 88599;
0220025840999992000021306004+58400+019200FM-12+001299999V0202501N00411030001CN0100001N1+00261+00191099861ADDAA112000191AY161061AY221061GA1031+002509079GF108991031071002501021999IA1099KA1120N+00261MD1610111+9999MW1211REMSYN100AAXX  13064 02584 11397 82508 10026 20019 49986 56011 69922 72162 8372/ 333 20026 31/// 83793 88599;
0138025840999992000021309004+58400+019200FM-12+001299999V0202501N004112200019N0200001N1+00281+00001099901ADDGA1031+004509059GF103991031051004501001001MD1310041+9999REMSYN070AAXX  13094 02584 42498 32508 10028 20000 49990 53004 83500 333 83694;
0138025840999992000021312004+58400+019200FM-12+001299999V0202301N005112200019N0200001N1+00351-00061099891ADDGA1021+999999019GF102991001001999999001011MD1810011+9999REMSYN070AAXX  13124 02584 42998 22310 10035 21006 49989 58001 80001 333 82099;
0157025840999992000021315004+58400+019200FM-12+001299999V0202301N005112200019N0200001N1+00271+00011099901ADDGA1011+999999019GF101991001001999999001011MD1410001+9999REMSYN070AAXX  13154 02584 42498 12310 10027 20001 49990 54001 80001 333 81099;EQDQ01+004502SCOLCB
0168025840999992000021318004+58400+019200FM-12+001299999V0202301N004612200019N0200001N1+00271+00121099851ADDAA199000021GA1011+999999019GF101991001001999999001011KA1120M+00381MD1810051+9999REMSYN076AAXX  13184 02584 32998 12309 10027 20012 49985 58005 80001 333 10038 81099;
0138025840999992000021321004+58400+019200FM-12+001299999V0202301N004610080019N0200001N1+00301+00131099771ADDGA1081+008009059GF108991081051008001999999MD1710091+9999REMSYN070AAXX  13214 02584 42598 82309 10030 20013 49977 57009 885// 333 88695;
0166025840999992000021400004+58400+019200FM-12+001299999V0202501N003110120019N0040001N1+00181+00111099761ADDAY121061AY221061GA1031+012509099GF105991051031012501001011MD1510011+9999MW1251REMSYN076AAXX  14004 02584 41696 52506 10018 20011 49976 55001 72522 85301 333 83996;
0144025840999992000021403004+58400+019200FM-12+001299999V0202901N00261004201CN0100001N1+00141-00031099871ADDGA1021+004509099GF108991081031004501999999MD1210111+9999REMSYN076AAXX  14034 02584 42497 82905 10014 21003 49987 52011 883// 333 82994 86694;
0174025840999992000021406004+58400+019200FM-12+001299999V0203201N003112200019N0100001N1+00081-00031100021ADDAA112001091GA1001+999999999GF100991001001999999001001IA1099KA1120N+00081MD1210151+9999REMSYN076AAXX  14064 02584 12997 03206 10008 21003 40002 52015 69992 333 20008 31///;
0174025840999992000021409004+58400+019200FM-12+001299999V0203201N003112200019N0100001N1+00081-00031100021ADDAA112001091GA1001+999999999GF100991001001999999001001IA1099KA1120N+00081MD1210151+9999REMSYN076AAXX  14094 02584 12997 03206 10008 21003 40002 52015 69992 333 20008 31///;
0138025840999992000021412004+58400+019200FM-12+001299999V0203201N003112200019N0200001N1+00251-00251100441ADDGA1011+004509029GF101991011011004501001001MD1210211+9999REMSYN070AAXX  14124 02584 42498 13206 10025 21025 40044 52021 81100 333 81894;
0138025840999992000021415004+58400+019200FM-12+001299999V0203401N004112200019N0200001N1+00251-00101100691ADDGA1011+999999019GF101991001001999999001011MD1210251+9999REMSYN070AAXX  14154 02584 42998 13408 10025 21010 40069 52025 80001 333 81099;
0175025840999992000021418004+58400+019200FM-12+001299999V0203201N002612200019N0200001N1+00201-00151100871ADDAA199000091GA1001+999999999GF100991001001999999001001KA1999M+00281MD1110181+9999REMSYN064AAXX  14184 02584 32998 03205 10020 21015 40087 51018 333 10028;EQDQ01  00002PRCP99
0122025840999992000021421004+58400+019200FM-12+001299999V0202901N002112200019N0200001N1+00121-00181100921ADDGA1001+999999999GF100991001001999999001001MD1110051+9999REMSYN054AAXX  14214 02584 42998 02904 10012 21018 40092 51005;
0138025840999992000021500004+58400+019200FM-12+001299999V0202701N002112200019N0200001N1+00101-00271100871ADDGA1011+999999019GF101991001001999999001011MD1810051+9999REMSYN070AAXX  15004 02584 42998 12704 10010 21027 40087 58005 80001 333 81099;
0144025840999992000021503004+58400+019200FM-12+001299999V0202301N00361004501CN0200001N1+00181-00141100641ADDGA1061+004509079GF108991061061004501001071MD1810231+9999REMSYN076AAXX  15034 02584 42498 82307 10018 21014 40064 58023 86607 333 86794 88299;
0205025840999992000021506004+58400+019200FM-12+001299999V0202301N00311030001CN0200001N1+00121-00201100491ADDAA199000091GA1011+004509079GF108991011061004501071999IA1149KA1120N-00021MD1610151+9999REMSYN088AAXX  15064 02584 32498 82306 10012 21020 40049 56015 8167/ 333 21002 34/// 81794 88499;EQDQ01  00002PRCP99
0172025840999992000021509004+58400+019200FM-12+001299999V0202501N00361030001CN0100001N1+00181-00031100391ADDAY121031AY221031GA1031+004509079GF108991031071004501021999MD1610101+9999MW1701REMSYN082AAXX  15094 02584 41497 82507 10018 21003 40039 56010 77022 8372/ 333 83794 88597;
0172025840999992000021512004+58400+019200FM-12+001299999V0202001N00261001501CN0100001N1+00171+00131100161ADDAY171061AY221061GA1061+001509079GF108991061071001501021999MD1810231+9999MW1701REMSYN082AAXX  15124 02584 41297 82005 10017 20013 40016 58023 77072 8672/ 333 86792 88597;
0172025840999992000021515004+58400+019200FM-12+001299999V0202301N00311001501CN0100001N1+00201+00131099971ADDAY171031AY271031GA1061+001509079GF108991061071001501021999MD1810191+9999MW1221REMSYN082AAXX  15154 02584 41297 82306 10020 20013 49997 58019 72277 8672/ 333 86792 88597;
0202025840999992000021518004+58400+019200FM-12+001299999V0202301N002610015019N0100001N1+00221+00161099771ADDAA112000891AY171061AY271061GA1081+001509069GF108991081071001501999999KA1120M+00241MD1710201+9999MW1021REMSYN088AAXX  15184 02584 11297 82305 10022 20016 49977 57020 69972 70277 887// 333 10024 88792;
0166025840999992000021600004+58400+019200FM-12+001299999V0202701N003110080019N0040001N1+00261+00171099621ADDAY121061AY221061GA1061+008009059GF106991061051008001001001MD1710041+9999MW1101REMSYN076AAXX  16004 02584 41596 62706 10026 20017 49962 57004 71022 86500 333 86695;
0138025840999992000021603004+58400+019200FM-12+001299999V0202901N002610025019N0100001N1+00211+00081099611ADDGA1081+002509069GF108991081061002501999999MD1710011+9999REMSYN070AAXX  16034 02584 42397 82905 10021 20008 49961 57001 886// 333 88793;
0199025840999992000021606004+58400+019200FM-12+001299999V0202701N002110045019N0200001N1+00211+00071099551ADDAA199000091GA1081+004509069GF108991081061004501999999IA1099KA1120N+00181MD1810071+9999REMSYN082AAXX  16064 02584 32498 82704 10021 20007 49955 58007 886// 333 20018 31/// 88794;EQDQ01  00002PRCP99
0138025840999992000021609004+58400+019200FM-12+001299999V0202701N002110045019N0200001N1+00231+00021099611ADDGA1081+004509069GF108991081061004501999999MD1310061+9999REMSYN070AAXX  16094 02584 42498 82704 10023 20002 49961 53006 886// 333 88794;
0138025840999992000021612004+58400+019200FM-12+001299999V0202701N001510045019N0200001N1+00321-00051099591ADDGA1071+004509059GF107991071051004501001001MD1810021+9999REMSYN070AAXX  16124 02584 42498 72703 10032 21005 49959 58002 87500 333 87694;
0144025840999992000021615004+58400+019200FM-12+001299999V0202501N00051220001CN0200001N1+00221-00081099581ADDGA1031+008009069GF106991031051008001001011MD1710011+9999REMSYN076AAXX  16154 02584 42598 62501 10022 21008 49958 57001 83501 333 83695 84099;
0187025840999992000021618004+58400+019200FM-12+001299999V0200501N000510125019N0100001N1+00101+00001099601ADDAA199000091GA1071+012509059GF107991071051012501999999KA1120M+00321MD1210021+9999REMSYN076AAXX  16184 02584 32697 70501 10010 20000 49960 52002 875// 333 10032 87696;EQDQ01  00002PRCP99
0179025840999992000021621004+58400+019200FM-12+001299999V0200501N001010045019N0100001N1+00181+00051099571ADDAY121031AY221031GA1071+004509069GF107991071071004501999999MD1710031+9999REMSYN076AAXX  16214 02584 41497 70502 10018 20005 49957 57003 77822 877// 333 87794;EQDQ01+000782PRSWM1
0166025840999992000021700004+58400+019200FM-12+001299999V0200701N002110025019N0100001N1+00161+00081099501ADDAY171061AY261061GA1071+002509069GF107991071061002501999999MD1710071+9999MW1021REMSYN076AAXX  17004 02584 41397 70704 10016 20008 49950 57007 70276 876// 333 87793;
0166025840999992000021703004+58400+019200FM-12+001299999V0200701N002610015019N0010001N1+00131+00091099431ADDAY191031AY221031GA1081+001509069GF108991081071001501999999MD1710071+9999MW1691REMSYN076AAXX  17034 02584 41294 80705 10013 20009 49943 57007 76992 887// 333 88792;
0220025840999992000021706004+58400+019200FM-12+001299999V0200201N00361001501CN0040001N1+00131+00091099431ADDAA112002091AY121061AY221061GA1061+001509079GF108991061071001501021999IA1099KA1120N+00101MD1410001+9999MW1681REMSYN100AAXX  17064 02584 11296 80207 10013 20009 49943 54000 60022 76822 8672/ 333 20010 31/// 86792 88599;
0172025840999992000021709004+58400+019200FM-12+001299999V0200201N00311001501CN0040001N1+00121+00061099551ADDAY171031AY221031GA1061+001509079GF108991061071002501021999MD1210121+9999MW1681REMSYN082AAXX  17094 02584 41396 80206 10012 20006 49955 52012 76872 8672/ 333 86792 88599;
0172025840999992000021712004+58400+019200FM-12+001299999V0203601N00311004501CN0100001N1+00151+00021099741ADDAY171061AY221061GA1061+004509079GF108991061071004501021999MD1210191+9999MW1231REMSYN082AAXX  17124 02584 41497 83606 10015 20002 49974 52019 72372 8672/ 333 86794 88599;
0138025840999992000021715004+58400+019200FM-12+001299999V0203601N002612200019N0200001N1+00101-00251100061ADDGA1021+012509059GF102991021051012501001001MD1210321+9999REMSYN070AAXX  17154 02584 42698 23605 10010 21025 40006 52032 82500 333 82696;
0174025840999992000021718004+58400+019200FM-12+001299999V0203601N001512200019N0200001N1+00041-00201100311ADDAA112000891GA1031+008009029GF103991031021008001001001KA1120M+00151MD1210251+9999REMSYN082AAXX  17184 02584 12598 33603 10004 21020 40031 52025 69982 83200 333 10015 83895;
0138025840999992000021721004+58400+019200FM-12+001299999V0203401N001010080019N0200001N1+00021-00221100471ADDGA1061+008009029GF106991061021008001001001MD1110161+9999REMSYN070AAXX  17214 02584 42598 63402 10002 21022 40047 51016 86200 333 86895;
0138025840999992000021800004+58400+019200FM-12+001299999V0202701N001012200019N0200001N1-00081-00151100531ADDGA1041+004509029GF104991041021004501001001MD1110061+9999REMSYN070AAXX  18004 02584 42498 42702 11008 21015 40053 51006 84200 333 84894;
0166025840999992000021803004+58400+019200FM-12+001299999V0202701N002110025019N0040001N1-00101-00241100551ADDAY111031AY211031GA1081+002509069GF108991081061002501999999MD1110021+9999MW1101REMSYN076AAXX  18034 02584 41396 82704 11010 21024 40055 51002 71011 886// 333 88793;
0227025840999992000021806004+58400+019200FM-12+001299999V0202501N002610025019N0040001N1-00201-00281100591ADDAA199000091AY121061AY211061GA1081+002509069GF108991081061002501999999IA1149KA1120N-00251MD1310041+9999MW1101REMSYN088AAXX  18064 02584 31396 82505 11020 21028 40059 53004 71021 886// 333 21025 34/// 88793;EQDQ01  00002PRCP99
0138025840999992000021809004+58400+019200FM-12+001299999V0202701N002110045019N0100001N1-00081-00351100641ADDGA1051+004509069GF105991051061004501001001MD1210051+9999REMSYN070AAXX  18094 02584 42497 52704 11008 21035 40064 52005 85600 333 85794;
0138025840999992000021812004+58400+019200FM-12+001299999V0202701N002610045019N0100001N1-00081-00331100711ADDGA1051+004509069GF105991051061004501001001MD1210071+9999REMSYN070AAXX  18124 02584 42497 52705 11008 21033 40071 52007 85600 333 85794;
0138025840999992000021815004+58400+019200FM-12+001299999V0202501N002110045019N0200001N1-00101-00321100731ADDGA1081+004509069GF108991081061004501999999MD1110021+9999REMSYN070AAXX  18154 02584 42498 82504 11010 21032 40073 51002 886// 333 88794;
0171025840999992000021818004+58400+019200FM-12+001299999V0202001N001010042019N0200001N1-00071-00281100741ADDAA199000091GF108991081061004501999999KA1120M-00071MD1210011+9999REMSYN076AAXX  18184 02584 32498 82002 11007 21028 40074 52001 886// 333 11007 886//;EQDQ01  00002PRCP99
0138025840999992000021821004+58400+019200FM-12+001299999V0202001N002110045019N0200001N1-00081-00231100821ADDGA1081+004509069GF108991081061004501999999MD1210081+9999REMSYN070AAXX  18214 02584 42498 82004 11008 21023 40082 52008 886// 333 88794;
0138025840999992000021900004+58400+019200FM-12+001299999V0201801N002110080019N0200001N1-00041-00301100861ADDGA1081+008009059GF108991081051008001999999MD1210041+9999REMSYN070AAXX  19004 02584 42598 81804 11004 21030 40086 52004 885// 333 88695;
0138025840999992000021903004+58400+019200FM-12+001299999V0202001N001010080019N0200001N1+00041-00261100881ADDGA1071+008009059GF107991071051008001999999MD1210021+9999REMSYN070AAXX  19034 02584 42598 72002 10004 21026 40088 52002 875// 333 87695;
0199025840999992000021906004+58400+019200FM-12+001299999V0202001N002110080019N0200001N1+00081-00481101011ADDAA199000091GA1081+008009059GF108991081051008001999999IA1149KA1120N-00081MD1210131+9999REMSYN082AAXX  19064 02584 32598 82004 10008 21048 40101 52013 885// 333 21008 34/// 88695;EQDQ01  00002PRCP99
0138025840999992000021909004+58400+019200FM-12+001299999V0202001N002110125019N0200001N1+00171-00641101131ADDGA1081+012509059GF108991081051008001999999MD1210121+9999REMSYN070AAXX  19094 02584 42598 82004 10017 21064 40113 52012 885// 333 88696;
0138025840999992000021912004+58400+019200FM-12+001299999V0202001N001010125019N0200001N1+00221-00501101241ADDGA1081+012509059GF108991081051012501999999MD1210111+9999REMSYN070AAXX  19124 02584 42698 82002 10022 21050 40124 52011 885// 333 88696;
0138025840999992000021915004+58400+019200FM-12+001299999V0201601N001010125019N0200001N1+00181-00631101321ADDGA1071+012509059GF107991071051012501999999MD1210081+9999REMSYN070AAXX  19154 02584 42698 71602 10018 21063 40132 52008 875// 333 87696;
0187025840999992000021918004+58400+019200FM-12+001299999V0202001N001510125019N0200001N1+00061-00351101431ADDAA199000091GA1081+012509059GF108991081051012501999999KA1120M+00221MD1210111+9999REMSYN076AAXX  19184 02584 32698 82003 10006 21035 40143 52011 885// 333 10022 88696;EQDQ01  00002PRCP99
0138025840999992000021921004+58400+019200FM-12+001299999V0202301N001019999999N0200001N1-00041-00381101561ADDGA1061+999999089GF106991001001999999001071MD1210131+9999REMSYN070AAXX  19214 02584 42998 62302 11004 21038 40156 52013 80007 333 86299;
0138025840999992000022000004+58400+019200FM-12+001299999V0202301N002110080019N0200001N1+00061-00241101671ADDGA1061+008009059GF106991061051008001001001MD1210111+9999REMSYN070AAXX  20004 02584 42598 62304 10006 21024 40167 52011 86500 333 86695;
0172025840999992000022003004+58400+019200FM-12+001299999V0202701N00211002501CN0040001N1+00101-00011101731ADDAY121031AY221031GA1061+002509079GF108991061071002501021999MD1110061+9999MW1701REMSYN082AAXX  20034 02584 41396 82704 10010 21001 40173 51006 77022 8672/ 333 86793 88599;
0250025840999992000022006004+58400+019200FM-12+001299999V0203201N001010015019N0040001N1-00061-00131101871ADDAA112000591AJ199992999999999AY171061AY221061GA1081+001509069GF108991081061001501999999IA1259KA1120N-00081MD1310141+9999MW1101REMSYN094AAXX  20064 02584 11296 83202 11006 21013 40187 53014 69952 71072 886// 333 21008 41998 88792;EQDQ01  09972SNDP  
0166025840999992000022009004+58400+019200FM-12+001299999V0203401N001510025019N0040001N1-00161-00271102031ADDAY121031AY221031GA1081+002509069GF108991081061002501999999MD1210161+9999MW1101REMSYN076AAXX  20094 02584 41396 83403 11016 21027 40203 52016 71022 886// 333 88793;
0138025840999992000022012004+58400+019200FM-12+001299999V0202901N001510045019N0200001N1-00161-00411102111ADDGA1081+004509059GF108991081051004501999999MD1110081+9999REMSYN070AAXX  20124 02584 42498 82903 11016 21041 40211 51008 885// 333 88694;
0138025840999992000022015004+58400+019200FM-12+001299999V0202901N001512200019N0200001N1-00161-00461102141ADDGA1041+004509029GF104991041021004501001001MD1110031+9999REMSYN070AAXX  20154 02584 42498 42903 11016 21046 40214 51003 84200 333 84894;
0175025840999992000022018004+58400+019200FM-12+001299999V0203401N002112200019N0200001N1-00301-00401102181ADDAA199000091GA1001+999999999GF100991001001999999001001KA1999M-00061MD1310041+9999REMSYN064AAXX  20184 02584 32998 03404 11030 21040 40218 53004 333 11006;EQDQ01  00002PRCP99
0122025840999992000022021004+58400+019200FM-12+001299999V0203601N001512200019N0200001N1-00031-00371102241ADDGA1001+999999999GF100991001001999999001001MD1210061+9999REMSYN054AAXX  20214 02584 42998 03603 11003 21037 40224 52006;
0138025840999992000022100004+58400+019200FM-12+001299999V0200201N001012200019N0200001N1-00111-00661102311ADDGA1021+008009059GF102991021051999999001001MD1210071+9999REMSYN070AAXX  21004 02584 42998 20202 11011 21066 40231 52007 82500 333 82695;
0122025840999992000022103004+58400+019200FM-12+001299999V0203601N001012200019N0200001N1-00101-00441102321ADDGA1001+999999999GF100991001001999999001001MD1210011+9999REMSYN054AAXX  21034 02584 42998 03602 11010 21044 40232 52001;
0232025840999992000022106004+58400+019200FM-12+001299999V0203601N001512200019N0200001N1-00341-00451102351ADDAA199000091AJ199992999999999GA1011+004509069GF101991011061004501001001IA1259KA1120N-00351MD1210031+9999REMSYN082AAXX  21064 02584 32498 13603 11034 21045 40235 52003 81600 333 21035 41998 81794;EQDQ01  00002PRCP99Q02  09972SNDP  
0138025840999992000022109004+58400+019200FM-12+001299999V0203601N001512200019N0200001N1+00031-00291102451ADDGA1011+004509069GF101991011061004501001001MD1210101+9999REMSYN070AAXX  21094 02584 42498 13603 10003 21029 40245 52010 81600 333 81794;
0138025840999992000022112004+58400+019200FM-12+001299999V0203201N002112200019N0500001N1+00221-00301102431ADDGA1011+004509069GF101991011061004501001001MD1710021+9999REMSYN070AAXX  21124 02584 42499 13204 10022 21030 40243 57002 81600 333 81794;
0138025840999992000022115004+58400+019200FM-12+001299999V0202901N001012200019N0200001N1+00021-00411102401ADDGA1011+004509069GF101991011061004501001001MD1710031+9999REMSYN070AAXX  21154 02584 42498 12902 10002 21041 40240 57003 81600 333 81794;
0187025840999992000022118004+58400+019200FM-12+001299999V0202901N001512200019N0200001N1+00021-00251102361ADDAA199000091GA1041+004509069GF104991041061004501001001KA1120M+00221MD1710041+9999REMSYN076AAXX  21184 02584 32498 42903 10002 21025 40236 57004 84600 333 10022 84794;EQDQ01  00002PRCP99
0138025840999992000022121004+58400+019200FM-12+001299999V0203201N002112200019N0200001N1-00041-00431102331ADDGA1041+008009029GF104991041021008001001001MD1710031+9999REMSYN070AAXX  21214 02584 42598 43204 11004 21043 40233 57003 84200 333 84895;
0122025840999992000022200004+58400+019200FM-12+001299999V0203201N001012200019N0200001N1-00261-00471102291ADDGA1001+999999999GF100991001001999999001001MD1710041+9999REMSYN054AAXX  22004 02584 42998 03202 11026 21047 40229 57004;
0122025840999992000022203004+58400+019200FM-12+001299999V0203201N001012200019N0100001N1-00361-00501102221ADDGA1001+999999999GF100991001001999999001001MD1710071+9999REMSYN054AAXX  22034 02584 42997 03202 11036 21050 40222 57007;
0204025840999992000022206004+58400+019200FM-12+001299999V0203201N001012200019N0100001N1-00381-00501102201ADDAA199000091AJ100009199999999GA1001+999999999GF100991001001999999001001IA1259KA1120N-00401MD1610021+9999REMSYN070AAXX  22064 02584 32997 03202 11038 21050 40220 56002 333 21040 41998;EQDQ01  00002PRCP99
0157025840999992000022209004+58400+019200FM-12+001299999V0203201N001012200019N0200001N1+00101-00341102271ADDGA1031+022509079GF103991031999022501071001MD1310071+9999REMSYN070AAXX  22094 02584 42898 33202 10010 21034 40227 53007 83070 333 83398;EQDQ01+000002SCOLCG
0144025840999992000022212004+58400+019200FM-12+001299999V0203401N000519999999N0200001N1+00141-00361102291ADDGA1031+012509089GF108991031021008001999999MD1210021+9999REMSYN076AAXX  22124 02584 42598 83401 10014 21036 40229 52002 832// 333 83896 88697;
0166025840999992000022215004+58400+019200FM-12+001299999V0209999C000010080019N0100001N1+00021-00231102281ADDAY121031AY221031GA1081+008009059GF108991081051008001999999MD1810011+9999MW1701REMSYN076AAXX  22154 02584 41597 80000 10002 21023 40228 58001 77022 885// 333 88695;
0202025840999992000022218004+58400+019200FM-12+001299999V0202701N001010080019N0200001N1+00061-00561102311ADDAA112000791AY171061AY221061GA1081+008009059GF108991081051008001999999KA1120M+00151MD1210031+9999MW1021REMSYN088AAXX  22184 02584 11598 82702 10006 21056 40231 52003 69902 70272 885// 333 10015 88695;
0172025840999992000022221004+58400+019200FM-12+001299999V0202901N00051002501CN0100001N1+00041-00171102331ADDAY121031AY221031GA1051+002509079GF108991051071002501021999MD1210021+9999MW1701REMSYN082AAXX  22214 02584 41397 82901 10004 21017 40233 52002 77022 8572/ 333 85793 88599;
0172025840999992000022300004+58400+019200FM-12+001299999V0201801N00101030001CN0040001N1-00021-00081102351ADDAY121061AY221061GA1041+002509079GF108991041071002501021999MD1210021+9999MW1701REMSYN082AAXX  23004 02584 41396 81802 11002 21008 40235 52002 77022 8472/ 333 84793 88599;
0166025840999992000022303004+58400+019200FM-12+001299999V0209999V000510045019N0200001N1-00311-00381102331ADDAY171031AY221031GA1071+004509059GF107991071051004501999999MD1710021+9999MW1011REMSYN076AAXX  23034 02584 41498 79901 11031 21038 40233 57002 70172 875// 333 87694;
0237025840999992000022306004+58400+019200FM-12+001299999V0200901N000510300019N0100001N1-00161-00231102381ADDAA112000591AJ100019199999999AY171061AY221061GA1011+004509079GF106991041061004501031001IA1309KA1120N-00311MD1210051+9999MW1011REMSYN100AAXX  23064 02584 11497 60901 11016 21023 40238 52005 69942 70172 84630 333 21031 42001 81794 83696;
0138025840999992000022309004+58400+019200FM-12+001299999V0200901N003110025019N0100001N1-00041-00091102511ADDGA1071+002509069GF107991071061002501999999MD1210131+9999REMSYN070AAXX  23094 02584 42397 70906 11004 21009 40251 52013 876// 333 87793;
0172025840999992000022312004+58400+019200FM-12+001299999V0201101N00211030001CN0100001N1-00101-00311102581ADDAY121061AY221061GA1031+004509079GF106991031071004501021999MD1210071+9999MW1701REMSYN082AAXX  23124 02584 41497 61104 11010 21031 40258 52007 77022 8372/ 333 83794 85599;
0166025840999992000022315004+58400+019200FM-12+001299999V0200901N001510045019N0200001N1-00141-00531102621ADDAY171031AY221031GA1051+004509059GF105991051051004501001001MD1210041+9999MW1011REMSYN076AAXX  23154 02584 41498 50903 11014 21053 40262 52004 70172 85500 333 85694;
0202025840999992000022318004+58400+019200FM-12+001299999V0201101N000510080019N0200001N1-00281-00571102681ADDAA112000591AY171061AY271061GA1061+008009059GF106991061051008001001001KA1120M+00021MD1210061+9999MW1021REMSYN088AAXX  23184 02584 11598 61101 11028 21057 40268 52006 69962 70277 86500 333 10002 86695;
0138025840999992000022400004+58400+019200FM-12+001299999V0201601N001010125019N0200001N1-00461-00671102571ADDGA1081+012509059GF108991081051012501999999MD1710071+9999REMSYN070AAXX  24004 02584 42698 81602 11046 21067 40257 57007 885// 333 88696;
0138025840999992000022403004+58400+019200FM-12+001299999V0201601N001010125019N0200001N1-00341-00541102411ADDGA1081+012509059GF108991081051012501999999MD1810161+9999REMSYN070AAXX  24034 02584 42698 81602 11034 21054 40241 58016 885// 333 88696;
0216025840999992000022406004+58400+019200FM-12+001299999V0201601N002110080019N0200001N1-00181-00481102251ADDAA199000091AJ100019199999999GA1081+008009059GF108991081051008001999999IA1309KA1120N-00561MD1710161+9999REMSYN082AAXX  24064 02584 32598 81604 11018 21048 40225 57016 885// 333 21056 42001 88695;EQDQ01  00002PRCP99
0138025840999992000022409004+58400+019200FM-12+001299999V0201801N003110045019N0200001N1-00101-00321101931ADDGA1081+004509069GF108991081071004501999999MD1810321+9999REMSYN070AAXX  24094 02584 42498 81806 11010 21032 40193 58032 887// 333 88794;
0172025840999992000022412004+58400+019200FM-12+001299999V0201801N003110021019N0100001N1+00061-00051101501ADDAY121061AY221061GA1041+004509099GF108991081031002501999999MD1710431+9999MW1261REMSYN082AAXX  24124 02584 41397 81806 10006 21005 40150 57043 72622 883// 333 84994 84793;
0172025840999992000022415004+58400+019200FM-12+001299999V0201801N004110021019N0010001N1+00041-00041101011ADDAY121031AY221031GA1041+004509099GF108991081031002501999999MD1710491+9999MW1861REMSYN082AAXX  24154 02584 41394 81808 10004 21004 40101 57049 78622 883// 333 84994 84793;
0190025840999992000022418004+58400+019200FM-12+001299999V0201801N003610003019N0005001N1+00041+00001100471ADDAA112006191AY181061AY221061GA1091+999999999GF109991091999999999999999KA1999M+00121MD1710541+9999MW1751REMSYN076AAXX  24184 02584 11/93 91807 10004 20000 40047 57054 60062 77582 333 10012;
0172025840999992000022421004+58400+019200FM-12+001299999V0202301N00311002501CN0100001N1+00161+00121100181ADDAY171031AY271031GA1051+002509079GF108991051071002501021999MD1710291+9999MW1021REMSYN082AAXX  24214 02584 41397 82306 10016 20012 40018 57029 70277 8572/ 333 85793 88599;
0166025840999992000022500004+58400+019200FM-12+001299999V0202701N003610045019N0200001N1+00111-00061100241ADDAY171061AY271061GA1081+004509059GF108991081051004501999999MD1310061+9999MW1021REMSYN076AAXX  25004 02584 41498 82707 10011 21006 40024 53006 70277 885// 333 88694;
0138025840999992000022503004+58400+019200FM-12+001299999V0202701N003612200019N0200001N1+00121+00021100351ADDGA1021+004509059GF102991021051004501001001MD1210111+9999REMSYN070AAXX  25034 02584 42498 22707 10012 20002 40035 52011 82500 333 82694;
0203025840999992000022506004+58400+019200FM-12+001299999V0202701N003610045019N0200001N1+00161+00051100411ADDAA112000591AJ100079199999999GA1081+004509069GF108991081061004501999999IA1289KA1120N-00061MD1210061+9999REMSYN088AAXX  25064 02584 12498 82707 10016 20005 40041 52006 69952 886// 333 21006 44007 88794;
0138025840999992000022509004+58400+019200FM-12+001299999V0202501N003110045019N0200001N1+00221-00031100491ADDGA1071+004509059GF107991071051004501999999MD1210081+9999REMSYN070AAXX  25094 02584 42498 72506 10022 21003 40049 52008 875// 333 87694;
0138025840999992000022512004+58400+019200FM-12+001299999V0202701N003110045019N0200001N1+00221+00061100541ADDGA1071+004509059GF107991071051004501999999MD1210051+9999REMSYN070AAXX  25124 02584 42498 72706 10022 20006 40054 52005 875// 333 87694;
0138025840999992000022515004+58400+019200FM-12+001299999V0202701N002610080019N0200001N1+00251+00131100581ADDGA1061+008009059GF106991061051008001001001MD1210041+9999REMSYN070AAXX  25154 02584 42598 62705 10025 20013 40058 52004 86500 333 86695;
0203025840999992000022518004+58400+019200FM-12+001299999V0202701N002112200019N0040001N1+00181+00111100751ADDAA199000091AY121061AY211061GA1001+999999999GF100991001001999999001001KA1999M+00321MD1310171+9999MW1101REMSYN070AAXX  25184 02584 31996 02704 10018 20011 40075 53017 71021 333 10032;EQDQ01  00002PRCP99
0150025840999992000022521004+58400+019200FM-12+001299999V0202901N002112200019N0040001N1+00101+00041100931ADDAY111031AY211031GA1001+999999999GF100991001001999999001001MD1210181+9999MW1101REMSYN060AAXX  25214 02584 41996 02904 10010 20004 40093 52018 71011;
0150025840999992000022600004+58400+019200FM-12+001299999V0203401N003112200019N0040001N1+00061+00001101111ADDAY111061AY211061GA1001+999999999GF100991001001999999001001MD1210181+9999MW1101REMSYN060AAXX  26004 02584 41996 03406 10006 20000 40111 52018 71011;
0166025840999992000022603004+58400+019200FM-12+001299999V0203201N001010025019N0040001N1+00061+00001101311ADDAY111031AY211031GA1081+002509069GF108991081061002501999999MD1210201+9999MW1101REMSYN076AAXX  26034 02584 41396 83202 10006 20000 40131 52020 71011 886// 333 88793;
0244025840999992000022606004+58400+019200FM-12+001299999V0203201N001510025019N0040001N1-00081-00121101541ADDAA199000091AJ100049199999999AY121061AY211061GA1081+002509069GF108991081061002501999999IA1309KA1120N-00101MD1210231+9999MW1101REMSYN088AAXX  26064 02584 31396 83203 11008 21012 40154 52023 71021 886// 333 21010 42004 88793;EQDQ01  00002PRCP99
0166025840999992000022609004+58400+019200FM-12+001299999V0203201N001010015019N0020001N1-00081-00121101741ADDAY121031AY221031GA1081+001509069GF108991081061001501999999MD1210201+9999MW1101REMSYN076AAXX  26094 02584 41295 83202 11008 21012 40174 52020 71022 886// 333 88792;
0138025840999992000022612004+58400+019200FM-12+001299999V0202501N001510015019N0100001N1-00041-00151101861ADDGA1081+001509069GF108991081061001501999999MD1110121+9999REMSYN070AAXX  26124 02584 42297 82503 11004 21015 40186 51012 886// 333 88792;
0144025840999992000022615004+58400+019200FM-12+001299999V0202501N00211075001CN0100001N1+00141+00001101911ADDGA1031+004509089GF106991031021004501001021MD1110051+9999REMSYN076AAXX  26154 02584 42497 62504 10014 20000 40191 51005 83202 333 83894 86099;
0175025840999992000022618004+58400+019200FM-12+001299999V0202501N002112200019N0100001N1+00181+00121101941ADDAA199000091GA1001+999999999GF100991001001999999001001KA1999M+00181MD1210031+9999REMSYN064AAXX  26184 02584 32997 02504 10018 20012 40194 52003 333 10018;EQDQ01  00002PRCP99
0122025840999992000022621004+58400+019200FM-12+001299999V0202001N002112200019N0100001N1+00111+00051102001ADDGA1001+999999999GF100991001001999999001001MD1210061+9999REMSYN054AAXX  26214 02584 42997 02004 10011 20005 40200 52006;
0150025840999992000022700004+58400+019200FM-12+001299999V0202501N003112200019N0040001N1+00271+00261102021ADDAY101061AY201061GA1001+999999999GF100991001001999999001001MD1210021+9999MW1101REMSYN060AAXX  27004 02584 41996 02506 10027 20026 40202 52002 71000;
0150025840999992000022703004+58400+019200FM-12+001299999V0202501N002612200019N0040001N1+00231+00191102031ADDAY101031AY201031GA1001+999999999GF100991001001999999001001MD1110011+9999MW1101REMSYN060AAXX  27034 02584 41996 02505 10023 20019 40203 51001 71000;
0191025840999992000022706004+58400+019200FM-12+001299999V0202501N003119999999N0040001N1+00261+00221102111ADDAA199000091AJ100049199999999GF105991999999004501999999IA1309KA1120N+00091REMSYN087AAXX  27064 02584 31496 52506 10026 20022 40211 5008 71000 85500 333 20009 42004 85694;EQDQ01  00002PRCP99
0138025840999992000022709004+58400+019200FM-12+001299999V0202501N00311075001CN0100001N1+00351+00051102071ADDGA1081+999999019GF108991081001999999011999MD1810041+9999REMSYN070AAXX  27094 02584 42997 82506 10035 20005 40207 58004 8801/ 333 88499;
0138025840999992000022712004+58400+019200FM-12+001299999V0202301N00411075001CN0200001N1+00331+00151101931ADDGA1081+999999019GF108991081001999999011999MD1710141+9999REMSYN070AAXX  27124 02584 42998 82308 10033 20015 40193 57014 8801/ 333 88499;
0138025840999992000022715004+58400+019200FM-12+001299999V0202001N006219999999N0200001N1+00411+00111101591ADDGA1071+999999079GF107991071001999999071999MD1810341+9999REMSYN070AAXX  27154 02584 42998 72012 10041 20011 40159 58034 8707/ 333 87399;
0175025840999992000022718004+58400+019200FM-12+001299999V0202001N006212200019N0100001N1+00381+00031101371ADDAA199000091GA1001+999999999GF100991001001999999001001KA1999M+00421MD1710221+9999REMSYN064AAXX  27184 02584 32997 02012 10038 20003 40137 57022 333 10042;EQDQ01  00002PRCP99
0122025840999992000022721004+58400+019200FM-12+001299999V0202001N006212200019N0100001N1+00381+00061101101ADDGA1001+999999999GF100991001001999999001001MD1710271+9999REMSYN054AAXX  27214 02584 42997 02012 10038 20006 40110 57027;
0138025840999992000022800004+58400+019200FM-12+001299999V0202001N00771075001CN0100001N1+00401+00081100691ADDGA1081+999999019GF108991081001999999071999MD1710411+9999REMSYN070AAXX  28004 02584 42997 82015 10040 20008 40069 57041 8807/ 333 88499;
0138025840999992000022803004+58400+019200FM-12+001299999V0202001N006210080019N0100001N1+00421+00141100461ADDGA1081+008009059GF108991081051008001999999MD1610231+9999REMSYN070AAXX  28034 02584 42597 82012 10042 20014 40046 56023 885// 333 88695;
0239025840999992000022806004+58400+019200FM-12+001299999V0202001N00721004501CN0040001N1+00401+00331100201ADDAA112000591AY121061AY221061GA1061+004509079GF108991999071004501021999IA1099KA1120N+00321MD1710261+9999MW1611REMSYN100AAXX  28064 02584 11496 82014 10040 20033 40020 57026 69952 76122 8872/ 333 20032 31/// 86794 88599;EQDQ01+000082SCOTLC
0166025840999992000022809004+58400+019200FM-12+001299999V0202001N00721075001CN0100001N1+00541+00261099971ADDAY161031AY261031GA1081+999999019GF108991081001999999011999MD1710231+9999MW1021REMSYN076AAXX  28094 02584 41997 82014 10054 20026 49997 57023 70266 8801/ 333 88499;
0166025840999992000022812004+58400+019200FM-12+001299999V0202001N006710080019N0200001N1+00601+00301099771ADDAY161061AY261061GA1081+008009059GF108991081051008001999999MD1710201+9999MW1021REMSYN076AAXX  28124 02584 41598 82013 10060 20030 49977 57020 70266 885// 333 88695;
0138025840999992000022815004+58400+019200FM-12+001299999V0202001N005110080019N0200001N1+00541+00311099551ADDGA1081+008009059GF108991081051008001999999MD1710221+9999REMSYN070AAXX  28154 02584 42598 82010 10054 20031 49955 57022 885// 333 88695;
0202025840999992000022818004+58400+019200FM-12+001299999V0202501N004110045019N0040001N1+00421+00381099741ADDAA112000791AY121061AY221061GA1081+004509069GF108991081071004501999999KA1120M+00611MD1110191+9999MW1501REMSYN088AAXX  28184 02584 11496 82508 10042 20038 49974 51019 69902 75022 887// 333 10061 88794;
0166025840999992000022821004+58400+019200FM-12+001299999V0202501N003110045019N0040001N1+00341+00281099851ADDAY151031AY251031GA1081+004509069GF108991081061004501999999MD1210111+9999MW1101REMSYN076AAXX  28214 02584 41496 82506 10034 20028 49985 52011 71055 886// 333 88794;
0172025840999992000022900004+58400+019200FM-12+001299999V0202301N00461030001CN0100001N1+00371+00241099981ADDAY151061AY221061GA1031+008009069GF108991031051008001071999MD1310131+9999MW1021REMSYN082AAXX  29004 02584 41597 82309 10037 20024 49998 53013 70252 8357/ 333 83695 88399;
0122025840999992000022903004+58400+019200FM-12+001299999V0202501N005712200019N0200001N1+00331+00131100021ADDGA1001+999999999GF100991001001999999001001MD1210041+9999REMSYN054AAXX  29034 02584 42998 02511 10033 20013 40002 52004;
0174025840999992000022906004+58400+019200FM-12+001299999V0202501N005712200019N0200001N1+00311+00181100141ADDAA112000791GA1001+999999999GF100991001001999999001001IA1099KA1120N+00311MD1010101+9999REMSYN076AAXX  29064 02584 12998 02511 10031 20018 40014 50010 69902 333 20031 31///;
0122025840999992000022909004+58400+019200FM-12+001299999V0202501N006212200019N0200001N1+00401+00171100321ADDGA1001+999999999GF100991001001999999001001MD1210181+9999REMSYN054AAXX  29094 02584 42998 02512 10040 20017 40032 52018;
0138025840999992000022912004+58400+019200FM-12+001299999V0202501N005112200019N0200001N1+00441+00161100411ADDGA1031+999999019GF103991001001999999001011MD1110091+9999REMSYN070AAXX  29124 02584 42998 32510 10044 20016 40041 51009 80001 333 83099;
0138025840999992000022915004+58400+019200FM-12+001299999V0202301N00461075001CN0200001N1+00421+00091100311ADDGA1061+999999019GF106991001001999999001021MD1810101+9999REMSYN070AAXX  29154 02584 42998 62309 10042 20009 40031 58010 80002 333 86099;
0215025840999992000022918004+58400+019200FM-12+001299999V0202301N00461075001CN0040001N1+00321+00201100191ADDAA199000091AY121061AY211061GA1081+999999019GF108991081001999999011999KA1120M+00501MD1710121+9999MW1101REMSYN082AAXX  29184 02584 31996 82309 10032 20020 40019 57012 71021 8801/ 333 10050 88499;EQDQ01  00002PRCP99
0150025840999992000022921004+58400+019200FM-12+001299999V0202001N003112200019N0020001N1+00321+00251100011ADDAY121031AY211031GA1001+999999999GF100991001001999999001001MD1710181+9999MW1101REMSYN060AAXX  29214 02584 41995 02006 10032 20025 40001 57018 71021;
0150025840999992000030100004+58400+019200FM-12+001299999V0201801N003612200019N0020001N1+00301+00231099691ADDAY121061AY211061GA1001+999999999GF100991001001999999001001MD1710321+9999MW1101REMSYN060AAXX  01004 02584 41995 01807 10030 20023 49969 57032 71021;
0150025840999992000030103004+58400+019200FM-12+001299999V0201801N003112200019N0020001N1+00281+00221099241ADDAY101031AY201031GA1001+999999999GF100991001001999999001001MD1710451+9999MW1101REMSYN060AAXX  01034 02584 41995 01806 10028 20022 49924 57045 71000;
0227025840999992000030106004+58400+019200FM-12+001299999V0201801N003110025019N0020001N1+00341+00281098841ADDAA199000091AY101061AY201061GA1081+002509069GF108991081061002501999999IA1099KA1120N+00261MD1710401+9999MW1101REMSYN088AAXX  01064 02584 31395 81806 10034 20028 49884 57040 71000 886// 333 20026 31/// 88793;EQDQ01  00002PRCP99
0166025840999992000030109004+58400+019200FM-12+001299999V0201801N003110015019N0010001N1+00341+00311098481ADDAY121031AY221031GA1081+001509069GF108991081061001501999999MD1710361+9999MW1531REMSYN076AAXX  01094 02584 41294 81806 10034 20031 49848 57036 75322 886// 333 88792;
0172025840999992000030112004+58400+019200FM-12+001299999V0201801N00511001501CN0010001N1+00391+00361098031ADDAY151061AY221061GA1071+001509079GF108991071071001501021999MD1710451+9999MW1601REMSYN082AAXX  01124 02584 41294 81810 10039 20036 49803 57045 76052 8772/ 333 87792 88598;
0172025840999992000030115004+58400+019200FM-12+001299999V0202501N00721001501CN0020001N1+00341+00301097961ADDAY121031AY221031GA1071+001509079GF108991071071001501021999MD1610071+9999MW1601REMSYN082AAXX  01154 02584 41295 82514 10034 20030 49796 56007 76022 8772/ 333 87792 88596;
0208025840999992000030118004+58400+019200FM-12+001299999V0202701N00511002501CN0020001N1+00331+00241098271ADDAA112004191AY161061AY261061GA1071+002509079GF108991071071002501021999KA1120M+00391MD1310311+9999MW1601REMSYN094AAXX  01184 02584 11395 82710 10033 20024 49827 53031 60042 76066 8772/ 333 10039 87793 88596;
0172025840999992000030121004+58400+019200FM-12+001299999V0202301N00511004501CN0040001N1+00321+00191098511ADDAY161031AY261031GA1051+004509079GF108991051071004501021999MD1110241+9999MW1101REMSYN082AAXX  01214 02584 41496 82310 10032 20019 49851 51024 71066 8572/ 333 85794 88596;
0166025840999992000030200004+58400+019200FM-12+001299999V0202501N004612200019N0040001N1+00271+00141098651ADDAY161061AY221061GA1011+012509059GF101991011051012501001001MD1110141+9999MW1101REMSYN076AAXX  02004 02584 41696 12509 10027 20014 49865 51014 71062 81500 333 81696;
0166025840999992000030203004+58400+019200FM-12+001299999V0202701N003612200019N0040001N1+00231+00121098821ADDAY121031AY211031GA1041+004509069GF104991041061004501001001MD1210171+9999MW1101REMSYN076AAXX  02034 02584 41496 42707 10023 20012 49882 52017 71021 84600 333 84794;
0186025840999992000030206004+58400+019200FM-12+001299999V0202701N004112200019N0200001N1+00151-00071099131ADDAA112003091GA1041+008009059GF104991041051008001001001IA1099KA1120N+00151MD1310311+9999REMSYN088AAXX  02064 02584 12598 42708 10015 21007 49913 53031 60032 84500 333 20015 31/// 84695;
0138025840999992000030209004+58400+019200FM-12+001299999V0202901N003112200019N0200001N1+00201-00231099461ADDGA1021+999999019GF102991001001999999001011MD1110331+9999REMSYN070AAXX  02094 02584 42998 22906 10020 21023 49946 51033 80001 333 82099;
0138025840999992000030211004+58400+019200FM-12+001299999V0202901N004112200019N0200001N1+00251-00571099781ADDGA1011+004509029GF101991011011004501001001MD1210321+9999REMSYN070AAXX  02114 02584 42498 12908 10025 21057 49978 52032 81100 333 81894;
0138025840999992000030212004+58400+019200FM-12+001299999V0202901N004112200019N0200001N1+00251-00571099781ADDGA1011+004509029GF101991011011004501001001MD1210321+9999REMSYN070AAXX  02124 02584 42498 12908 10025 21057 49978 52032 81100 333 81894;
0122025840999992000030215004+58400+019200FM-12+001299999V0202701N003112200019N0200001N1+00281-00581100051ADDGA1001+999999999GF100991001001999999001001MD1210271+9999REMSYN054AAXX  02154 02584 42998 02706 10028 21058 40005 52027;
0175025840999992000030218004+58400+019200FM-12+001299999V0202701N003112200019N0200001N1+00241-00451100191ADDAA199000091GA1001+999999999GF100991001001999999001001KA1999M+00281MD1110141+9999REMSYN064AAXX  02184 02584 32998 02706 10024 21045 40019 51014 333 10028;EQDQ01  00002PRCP99
0138025840999992000030221004+58400+019200FM-12+001299999V0202701N006212200019N0200001N1+00251-00211100181ADDGA1041+012509099GF104991041031012501001001MD1310011+9999REMSYN070AAXX  02214 02584 42698 42712 10025 21021 40018 53001 84300 333 84996;
0122025840999992000030300004+58400+019200FM-12+001299999V0202501N007212200019N0200001N1+00191-00221099981ADDGA1001+999999999GF100991001001999999001001MD1810201+9999REMSYN054AAXX  03004 02584 42998 02514 10019 21022 49998 58020;
0138025840999992000030303004+58400+019200FM-12+001299999V0201801N00821075001CN0100001N1+00181-00031099441ADDGA1081+999999019GF108991081001999999011999MD1710541+9999REMSYN070AAXX  03034 02584 42997 81816 10018 21003 49944 57054 8801/ 333 88499;
0239025840999992000030306004+58400+019200FM-12+001299999V0201801N00511001501CN0040001N1+00161+00101098611ADDAA112000591AY121061AY221061GA1071+001509079GF108991071071001501021999IA1099KA1120N+00161MD1710832+9999MW1691REMSYN100AAXX  03064 02584 11296 81810 10016 20010 49861 57083 69962 76922 8772/ 333 20016 31/// 87792 88597;EQDQ01+000832APC3  
0172025840999992000030309004+58400+019200FM-12+001299999V0202301N00621001501CN0020001N1+00121+00091097821ADDAY171031AY271031GA1071+001509079GF108991071071001501021999MD1710791+9999MW1691REMSYN082AAXX  03094 02584 41295 82312 10012 20009 49782 57079 76977 8772/ 333 87792 88597;
0172025840999992000030312004+58400+019200FM-12+001299999V0202001N00621001501CN0040001N1+00281+00251097401ADDAY171061AY271061GA1071+001509079GF108991071071001501021999MD1610421+9999MW1621REMSYN082AAXX  03124 02584 41296 82012 10028 20025 49740 56042 76277 8772/ 333 87792 88597;
0150025840999992000030315004+58400+019200FM-12+001299999V0202301N004612200019N0200001N1+00361+00231097361ADDAY171031AY261031GA1001+999999999GF100991001001999999001001MD1710041+9999MW1011REMSYN060AAXX  03154 02584 41998 02309 10036 20023 49736 57004 70176;
0202025840999992000030318004+58400+019200FM-12+001299999V0202301N005110125019N0200001N1+00361+00041097391ADDAA112005191AY171061AY261061GA1081+012509059GF108991081051012501999999KA1120M+00361MD1310031+9999MW1031REMSYN088AAXX  03184 02584 11698 82310 10036 20004 49739 53003 60052 70376 885// 333 10036 88696;
0138025840999992000030321004+58400+019200FM-12+001299999V0202501N005110080019N0100001N1+00281+00151097281ADDGA1071+008009059GF107991071051008001999999MD1810111+9999REMSYN070AAXX  03214 02584 42597 72510 10028 20015 49728 58011 875// 333 87695;
0172025840999992000030400004+58400+019200FM-12+001299999V0202701N00411002501CN0040001N1+00041-00061097371ADDAY121061AY221061GA1051+002509079GF108991051071002501021999MD1310091+9999MW1711REMSYN082AAXX  04004 02584 41396 82708 10004 21006 49737 53009 77122 8572/ 333 85793 88597;
0166025840999992000030403004+58400+019200FM-12+001299999V0202901N005110080019N0200001N1-00171-00651097701ADDAY171031AY271031GA1081+008009059GF108991081051008001999999MD1310331+9999MW1021REMSYN076AAXX  04034 02584 41598 82910 11017 21065 49770 53033 70277 885// 333 88695;
0256025840999992000030406004+58400+019200FM-12+001299999V0202901N00511001501CN0020001N1-00341-00551098141ADDAA112000591AJ199993999999999AY171061AY221061GA1061+001509079GF108991061071001501021999IA1239KA1120N-00341MD1210441+9999MW1731REMSYN100AAXX  04064 02584 11295 82910 11034 21055 49814 52044 69942 77372 8672/ 333 21034 47997 86792 88597;EQDQ01  09982SNDP  
0256025840999992000030409004+58400+019200FM-12+001299999V0202901N00511001501CN0020001N1-00341-00551098141ADDAA112000591AJ199993999999999AY171031AY221031GA1061+001509079GF108991061071001501021999IA1239KA1120N-00341MD1210441+9999MW1731REMSYN100AAXX  04094 02584 11295 82910 11034 21055 49814 52044 69942 77372 8672/ 333 21034 47997 86792 88597;EQDQ01  09982SNDP  
0166025840999992000030412004+58400+019200FM-12+001299999V0203201N005112200019N0200001N1-00041-00881099081ADDAY181061AY271061GA1021+008009059GF102991021051008001001001MD1210471+9999MW1011REMSYN076AAXX  04124 02584 41598 23210 11004 21088 49908 52047 70187 82500 333 82695;
0144025840999992000030415004+58400+019200FM-12+001299999V0203401N00621220001CN0200001N1+00061-00871099451ADDGA1011+008009069GF106991011051008001001011MD1110371+9999REMSYN076AAXX  04154 02584 42598 63412 10006 21087 49945 51037 81501 333 81695 86099;
0174025840999992000030418004+58400+019200FM-12+001299999V0203201N005112200019N0200001N1+00101-00771099771ADDAA112000191GA1021+012509059GF103991021051012501001011KA1120M+00101MD1210321+9999REMSYN082AAXX  04184 02584 12698 33210 10010 21077 49977 52032 69922 82501 333 10010 82696;
0122025840999992000030421004+58400+019200FM-12+001299999V0202301N004612200019N0200001N1+00041-00901100001ADDGA1001+999999999GF100991001001999999001001MD1110231+9999REMSYN054AAXX  04214 02584 42998 02309 10004 21090 40000 51023;
0122025840999992000030500004+58400+019200FM-12+001299999V0203201N003612200019N0200001N1+00011-00911100131ADDGA1001+999999999GF100991001001999999001001MD1110131+9999REMSYN054AAXX  05004 02584 42998 03207 10001 21091 40013 51013;
0122025840999992000030503004+58400+019200FM-12+001299999V0203201N003612200019N0200001N1-00101-00551100291ADDGA1001+999999999GF100991001001999999001001MD1210161+9999REMSYN054AAXX  05034 02584 42998 03207 11010 21055 40029 52016;
0204025840999992000030506004+58400+019200FM-12+001299999V0203201N003112200019N0200001N1-00141-00641100451ADDAA199000091AJ100019199999999GA1001+999999999GF100991001001999999001001IA1309KA1120N-00141MD1210161+9999REMSYN070AAXX  05064 02584 32998 03206 11014 21064 40045 52016 333 21014 42001;EQDQ01  00002PRCP99
0172025840999992000030509004+58400+019200FM-12+001299999V0203201N00361008001CN0200001N1-00041-00621100751ADDAY181031AY221031GA1071+008009069GF108991081031008001999999MD1310301+9999MW1031REMSYN082AAXX  05094 02584 41598 83207 11004 21062 40075 53030 70382 883// 333 87695 88996;
0166025840999992000030512004+58400+019200FM-12+001299999V0203401N004612200019N0200001N1-00011-00851101061ADDAY181061AY221061GA1021+012509099GF103991031031012501999999MD1210311+9999MW1011REMSYN076AAXX  05124 02584 41698 33409 11001 21085 40106 52031 70182 833// 333 82996;
0138025840999992000030515004+58400+019200FM-12+001299999V0203201N004112200019N0200001N1-00161-00881101321ADDGA1031+008009099GF103991031031008001001001MD1210261+9999REMSYN070AAXX  05154 02584 42598 33208 11016 21088 40132 52026 83300 333 83995;
0174025840999992000030518004+58400+019200FM-12+001299999V0203401N004112200019N0200001N1-00241-00931101561ADDAA112000791GA1041+008009099GF104991041031008001001001KA1120M+00041MD1210241+9999REMSYN082AAXX  05184 02584 12598 43408 11024 21093 40156 52024 69902 84300 333 10004 84995;
0138025840999992000030521004+58400+019200FM-12+001299999V0203401N003612200019N0200001N1-00251-00971101671ADDGA1011+008009099GF101991011031008001001001MD1310111+9999REMSYN070AAXX  05214 02584 42598 13407 11025 21097 40167 53011 81300 333 81995;
0138025840999992000030600004+58400+019200FM-12+001299999V0202501N00151075001CN0200001N1-00381-01041101601ADDGA1081+999999019GF108991081001999999011999MD1810071+9999REMSYN070AAXX  06004 02584 42998 82503 11038 21104 40160 58007 8801/ 333 88499;
0138025840999992000030603004+58400+019200FM-12+001299999V0202301N00311075001CN0200001N1-00051-00761101371ADDGA1081+999999019GF108991081001999999011999MD1810231+9999REMSYN070AAXX  06034 02584 42998 82306 11005 21076 40137 58023 8801/ 333 88499;
0238025840999992000030606004+58400+019200FM-12+001299999V0201801N00511030001CN0200001N1+00101-00171100881ADDAA199000091AJ199992999999999GA1041+004509079GF108991041061004501011999IA1259KA1120N-00421MD1810391+9999REMSYN088AAXX  06064 02584 32498 81810 10010 21017 40088 58039 8461/ 333 21042 41998 84794 88499;EQDQ01  00002PRCP99Q02  09972SNDP  
0172025840999992000030609004+58400+019200FM-12+001299999V0202301N00721030001CN0040001N1+00131+00071100341ADDAY171031AY221031GA1041+001509079GF108991041071001501021999MD1810541+9999MW1691REMSYN082AAXX  06094 02584 41296 82314 10013 20007 40034 58054 76972 8472/ 333 84792 88599;
0172025840999992000030612004+58400+019200FM-12+001299999V0202001N00621002501CN0100001N1+00281+00191099801ADDAY171061AY221061GA1061+002509079GF108991061071002501021999MD1710541+9999MW1231REMSYN082AAXX  06124 02584 41397 82012 10028 20019 49980 57054 72372 8672/ 333 86793 88599;
0144025840999992000030615004+58400+019200FM-12+001299999V0202301N00671004501CN0100001N1+00381+00261099451ADDGA1051+004509079GF108991051071004501021999MD1610351+9999REMSYN076AAXX  06154 02584 42497 82313 10038 20026 49945 56035 8572/ 333 85794 88599;
0174025840999992000030618004+58400+019200FM-12+001299999V0202301N005710080019N0100001N1+00461+00341099221ADDAA112002091GA1081+008009059GF108991081051008001999999KA1120M+00481MD1610231+9999REMSYN082AAXX  06184 02584 12597 82311 10046 20034 49922 56023 60022 885// 333 10048 88695;
0138025840999992000030621004+58400+019200FM-12+001299999V0202301N006710080019N0100001N1+00501+00371098901ADDGA1081+008009059GF108991081051008001999999MD1710321+9999REMSYN070AAXX  06214 02584 42597 82313 10050 20037 49890 57032 885// 333 88695;
0138025840999992000030700004+58400+019200FM-12+001299999V0202501N007210080019N0100001N1+00491+00391098581ADDGA1081+008009059GF108991081051008001999999MD1710321+9999REMSYN070AAXX  07004 02584 42597 82514 10049 20039 49858 57032 885// 333 88695;
0122025840999992000030703004+58400+019200FM-12+001299999V0202701N005112200019N0200001N1+00431-00071098681ADDGA1001+999999999GF100991001001999999001001MD1310101+9999REMSYN054AAXX  07034 02584 42998 02710 10043 21007 49868 53010;
0187025840999992000030706004+58400+019200FM-12+001299999V0202701N005712200019N0200001N1+00381-00241098851ADDAA199000091GA1001+999999999GF100991001001999999001001IA1099KA1120N+00381MD1210171+9999REMSYN070AAXX  07064 02584 32998 02711 10038 21024 49885 52017 333 20038 31///;EQDQ01  00002PRCP99
0138025840999992000030709004+58400+019200FM-12+001299999V0202901N005112200019N0200001N1+00421-00231099051ADDGA1011+999999079GF102991011001999999031011MD1210201+9999REMSYN070AAXX  07094 02584 42998 22910 10042 21023 49905 52020 81031 333 81399;
0138025840999992000030712004+58400+019200FM-12+001299999V0202901N004112200019N0200001N1+00571-00171099221ADDGA1021+999999019GF102991001001999999001011MD1210171+9999REMSYN070AAXX  07124 02584 42998 22908 10057 21017 49922 52017 80001 333 82099;
0138025840999992000030715004+58400+019200FM-12+001299999V0202701N003619999999N0200001N1+00421-00161099461ADDGA1071+999999079GF107991071001999999031001MD1210241+9999REMSYN070AAXX  07154 02584 42998 72707 10042 21016 49946 52024 87030 333 87399;
0175025840999992000030718004+58400+019200FM-12+001299999V0202901N003112200019N0200001N1+00341-00141099651ADDAA199000091GA1001+999999999GF100991001001999999001001KA1999M+00571MD1110191+9999REMSYN064AAXX  07184 02584 32998 02906 10034 21014 49965 51019 333 10057;EQDQ01  00002PRCP99
0157025840999992000030721004+58400+019200FM-12+001299999V0202901N003612200019N0200001N1+00311-00111099771ADDGA1021+022509079GF102991021999022501071001MD1110121+9999REMSYN070AAXX  07214 02584 42898 22907 10031 21011 49977 51012 82070 333 82398;EQDQ01+000002SCOLCG
0122025840999992000030800004+58400+019200FM-12+001299999V0203201N003612200019N0200001N1+00211-00161099991ADDGA1001+999999999GF100991001001999999001001MD1310221+9999REMSYN054AAXX  08004 02584 42998 03207 10021 21016 49999 53022;
0122025840999992000030803004+58400+019200FM-12+001299999V0202901N002612200019N0200001N1+00151-00261100091ADDGA1001+999999999GF100991001001999999001001MD1110101+9999REMSYN054AAXX  08034 02584 42998 02905 10015 21026 40009 51010;
0199025840999992000030806004+58400+019200FM-12+001299999V0203401N002112200019N0200001N1+00081-00481100211ADDAA199000091GA1021+999999019GF102991001001999999001011IA1019KA1120N+00071MD1210121+9999REMSYN082AAXX  08064 02584 32998 23404 10008 21048 40021 52012 80001 333 20007 30/// 82099;EQDQ01  00002PRCP99
0138025840999992000030809004+58400+019200FM-12+001299999V0203201N001012200019N0200001N1+00241-00551100191ADDGA1011+999999019GF101991001001999999001011MD1810021+9999REMSYN070AAXX  08094 02584 42998 13202 10024 21055 40019 58002 80001 333 81099;
0138025840999992000030812004+58400+019200FM-12+001299999V0202301N00101075001CN0200001N1+00241-00521100031ADDGA1061+999999019GF106991001001999999001011MD1710161+9999REMSYN070AAXX  08124 02584 42998 62302 10024 21052 40003 57016 80001 333 86099;
0138025840999992000030815004+58400+019200FM-12+001299999V0201601N00101075001CN0200001N1+00211-00331099641ADDGA1081+999999019GF108991081001999999011999MD1810391+9999REMSYN070AAXX  08154 02584 42998 81602 10021 21033 49964 58039 8801/ 333 88499;
0202025840999992000030818004+58400+019200FM-12+001299999V0201401N000510015019N0040001N1+00141+00061099331ADDAA112000791AY121061AY221061GA1081+001509069GF108991081071001501999999KA1120M+00281MD1710311+9999MW1511REMSYN088AAXX  08184 02584 11296 81401 10014 20006 49933 57031 69902 75122 887// 333 10028 88792;
0172025840999992000030821004+58400+019200FM-12+001299999V0201101N00211001501CN0040001N1+00051+00021099091ADDAY161031AY261031GA1071+001509079GF108991071071001501021999MD1710241+9999MW1711REMSYN082AAXX  08214 02584 41296 81104 10005 20002 49909 57024 77166 8772/ 333 87792 88596;
0172025840999992000030900004+58400+019200FM-12+001299999V0200501N00461001501CN0040001N1+00081+00051099031ADDAY161061AY261061GA1071+001509079GF108991071071001501021999MD1610061+9999MW1711REMSYN082AAXX  09004 02584 41296 80509 10008 20005 49903 56006 77166 8772/ 333 87792 88596;
0172025840999992000030903004+58400+019200FM-12+001299999V0200501N00461001501CN0040001N1+00011-00021099071ADDAY171031AY261031GA1071+001509079GF108991071071001501021999MD1310041+9999MW1711REMSYN082AAXX  09034 02584 41296 80509 10001 21002 49907 53004 77176 8772/ 333 87792 88596;
0231025840999992000030906004+58400+019200FM-12+001299999V0200501N003110015019N0020001N1-00081-00141099321ADDAA112006191AJ100059199999999AY171061AY261061GA1081+001509069GF108991081071001501999999IA1239KA1120N-00081MD1310251+9999MW1711REMSYN094AAXX  09064 02584 11295 80506 11008 21014 49932 53025 60062 77176 887// 333 21008 47005 88792;
0172025840999992000030909004+58400+019200FM-12+001299999V0203601N00211008001CN0200001N1+00011-00261099561ADDAY171031AY271031GA1051+008009099GF106991051031008001031001MD1210241+9999MW1021REMSYN082AAXX  09094 02584 41598 63604 10001 21026 49956 52024 70277 85330 333 85995 83399;
0166025840999992000030912004+58400+019200FM-12+001299999V0203401N004112200019N0500001N1+00141-00421099821ADDAY171061AY271061GA1031+008009029GF103991031031008001001001MD1210261+9999MW1011REMSYN076AAXX  09124 02584 41599 33408 10014 21042 49982 52026 70177 83300 333 83895;
0138025840999992000030915004+58400+019200FM-12+001299999V0203201N005112200019N0500001N1+00161-00651100011ADDGA1031+008009029GF103991031031008001001001MD1110191+9999REMSYN070AAXX  09154 02584 42599 33210 10016 21065 40001 51019 83300 333 83895;
0174025840999992000030918004+58400+019200FM-12+001299999V0203401N004110125019N0200001N1+00111-00721100211ADDAA112000791GA1061+012509059GF106991061051012501001001KA1120M+00161MD1210201+9999REMSYN082AAXX  09184 02584 12698 63408 10011 21072 40021 52020 69902 86500 333 10016 86696;
0138025840999992000030921004+58400+019200FM-12+001299999V0203401N004612200019N0200001N1+00131-00551100291ADDGA1021+008009059GF102991021051008001001001MD1110081+9999REMSYN070AAXX  09214 02584 42598 23409 10013 21055 40029 51008 82500 333 82695;
0122025840999992000031000004+58400+019200FM-12+001299999V0203401N006212200019N0200001N1+00061-00771100451ADDGA1001+999999999GF100991001001999999001001MD1310161+9999REMSYN054AAXX  10004 02584 42998 03412 10006 21077 40045 53016;
0122025840999992000031003004+58400+019200FM-12+001299999V0203201N005712200019N0200001N1+00001-00661100561ADDGA1001+999999999GF100991001001999999001001MD1210111+9999REMSYN054AAXX  10034 02584 42998 03211 10000 21066 40056 52011;
0216025840999992000031006004+58400+019200FM-12+001299999V0203401N005112200019N0200001N1-00041-00661100751ADDAA199000091AJ100049199999999GA1011+008009059GF101991011051008001001001IA1229KA1120N-00061MD1310191+9999REMSYN082AAXX  10064 02584 32598 13410 11004 21066 40075 53019 81500 333 21006 46004 81695;EQDQ01  00002PRCP99
0122025840999992000031009004+58400+019200FM-12+001299999V0203401N005112200019N0200001N1+00101-00541100981ADDGA1001+999999999GF100991001001999999001001MD1210231+9999REMSYN054AAXX  10094 02584 42998 03410 10010 21054 40098 52023;
0138025840999992000031012004+58400+019200FM-12+001299999V0203201N004612200019N0200001N1+00271-00641101211ADDGA1021+012509029GF102991021021012501001001MD1210231+9999REMSYN070AAXX  10124 02584 42698 23209 10027 21064 40121 52023 82200 333 82896;
0138025840999992000031015004+58400+019200FM-12+001299999V0203401N003112200019N0200001N1+00241-00591101311ADDGA1011+008009059GF101991011051008001001001MD1110101+9999REMSYN070AAXX  10154 02584 42598 13406 10024 21059 40131 51010 81500 333 81695;
0175025840999992000031018004+58400+019200FM-12+001299999V0203401N003112200019N0200001N1+00121-00561101371ADDAA199000091GA1001+999999999GF100991001001999999001001KA1999M+00321MD1210061+9999REMSYN064AAXX  10184 02584 32998 03406 10012 21056 40137 52006 333 10032;EQDQ01  00002PRCP99
0122025840999992000031021004+58400+019200FM-12+001299999V0202901N001512200019N0200001N1-00021-00231101261ADDGA1001+999999999GF100991001001999999001001MD1810111+9999REMSYN054AAXX  10214 02584 42998 02903 11002 21023 40126 58011;
0122025840999992000031100004+58400+019200FM-12+001299999V0203201N002112200019N0200001N1+00051-00341101101ADDGA1001+999999999GF100991001001999999001001MD1710161+9999REMSYN054AAXX  11004 02584 42998 03204 10005 21034 40110 57016;
0122025840999992000031103004+58400+019200FM-12+001299999V0203201N001012200019N0200001N1-00161-00381100931ADDGA1001+999999999GF100991001001999999001001MD1710171+9999REMSYN054AAXX  11034 02584 42998 03202 11016 21038 40093 57017;
0216025840999992000031106004+58400+019200FM-12+001299999V0203201N000512200019N0200001N1-00421-00511100831ADDAA199000091AJ100039199999999GA1021+999999019GF102991001001999999001011IA1309KA1120N-00421MD1610101+9999REMSYN082AAXX  11064 02584 32998 23201 11042 21051 40083 56010 80001 333 21042 42003 82099;EQDQ01  00002PRCP99
0138025840999992000031109004+58400+019200FM-12+001299999V0200201N001019999999N0200001N1+00161-00321100851ADDGA1051+999999089GF105991001001999999001081MD1310021+9999REMSYN070AAXX  11094 02584 42998 50202 10016 21032 40085 53002 80008 333 85299;
0144025840999992000031112004+58400+019200FM-12+001299999V0200201N002112200019N0200001N1+00331-00381100971ADDGA1021+008009089GF104991021011008001001011MD1310121+9999REMSYN076AAXX  11124 02584 42598 40204 10033 21038 40097 53012 82101 333 82895 83099;
0157025840999992000031115004+58400+019200FM-12+001299999V0200501N003112200019N0500001N1+00061-00671999999ADDGA1011+008009029GF108991011011008001001011MD1210181+9999REMSYN070AAXX  11154 02584 42599 80506 10006 21067 40015 52018 81101 333 81895;EQDQ01+100153APOSLP
0187025840999992000031118004+58400+019200FM-12+001299999V0200201N002612200019N0200001N1-00101-00871101411ADDAA199000091GA1021+012509059GF102991021051012501001001KA1120M+00331MD1210261+9999REMSYN076AAXX  11184 02584 32698 20205 11010 21087 40141 52026 82500 333 10033 82696;EQDQ01  00002PRCP99
0138025840999992000031121004+58400+019200FM-12+001299999V0200501N002610125019N0200001N1-00091-00861101601ADDGA1071+012509059GF107991071051012501999999MD1110191+9999REMSYN070AAXX  11214 02584 42698 70505 11009 21086 40160 51019 875// 333 87696;
0122025840999992000031200004+58400+019200FM-12+001299999V0203601N001512200019N0200001N1-00131-00871101811ADDGA1001+999999999GF100991001001999999001001MD1110211+9999REMSYN054AAXX  12004 02584 42998 03603 11013 21087 40181 51021;
0122025840999992000031203004+58400+019200FM-12+001299999V0202901N002112200019N0200001N1-00181-00961101941ADDGA1001+999999999GF100991001001999999001001MD1110131+9999REMSYN054AAXX  12034 02584 42998 02904 11018 21096 40194 51013;
0152025840999992000031206004+58400+019200FM-12+001299999V0202501N003112200019N0200001N1+00041-00481102001ADDAA199000091GA1001+999999999GF100991001001999999001001MD1110061+9999REMSYN054AAXX  12064 02584 32998 02506 10004 21048 40200 51006;EQDQ01  00002PRCP99
0138025840999992000031209004+58400+019200FM-12+001299999V0202501N003612200019N0200001N1+00211-00251102031ADDGA1041+999999019GF104991001001999999001011MD1210031+9999REMSYN070AAXX  12094 02584 42998 42507 10021 21025 40203 52003 80001 333 84099;
0138025840999992000031212004+58400+019200FM-12+001299999V0202501N003619999999N0200001N1+00241-00261102001ADDGA1081+999999089GF108991001001999999001071MD1610031+9999REMSYN070AAXX  12124 02584 42998 82507 10024 21026 40200 56003 80007 333 88299;
0138025840999992000031215004+58400+019200FM-12+001299999V0202501N003619999999N0200001N1+00231-00141101911ADDGA1081+999999089GF108991001001999999001071MD1810091+9999REMSYN070AAXX  12154 02584 42998 82507 10023 21014 40191 58009 80007 333 88299;
0187025840999992000031218004+58400+019200FM-12+001299999V0202701N002110125019N0200001N1+00221-00051101871ADDAA199000091GA1081+012509069GF108991081051012501999999KA1120M+00251MD1710041+9999REMSYN076AAXX  12184 02584 32698 82704 10022 21005 40187 57004 885// 333 10025 88796;EQDQ01  00002PRCP99
0138025840999992000031221004+58400+019200FM-12+001299999V0202701N003110080019N0200001N1+00241-00031101821ADDGA1081+008009069GF108991081051008001999999MD1710051+9999REMSYN070AAXX  12214 02584 42598 82706 10024 21003 40182 57005 885// 333 88795;
0138025840999992000031300004+58400+019200FM-12+001299999V0202701N003110080019N0100001N1+00231-00081101781ADDGA1081+008009059GF108991081051008001999999MD1710041+9999REMSYN070AAXX  13004 02584 42597 82706 10023 21008 40178 57004 885// 333 88695;
0166025840999992000031303004+58400+019200FM-12+001299999V0202501N003110080019N0040001N1+00221-00131101701ADDAY121031AY221031GA1081+008009059GF108991081051008001999999MD1710081+9999MW1101REMSYN076AAXX  13034 02584 41596 82506 10022 21013 40170 57008 71022 885// 333 88695;
0199025840999992000031306004+58400+019200FM-12+001299999V0202501N004110045019N0100001N1+00211+00081101581ADDAA199000091GA1081+004509069GF108991081061004501999999IA1259KA1120N+00201MD1810121+9999REMSYN082AAXX  13064 02584 32497 82508 10021 20008 40158 58012 886// 333 20020 41/// 88794;EQDQ01  00002PRCP99
0172025840999992000031309004+58400+019200FM-12+001299999V0202301N00461001501CN0040001N1+00221+00161101391ADDAY121031AY221031GA1071+001509079GF108991071071001501021999MD1710191+9999MW1601REMSYN082AAXX  13094 02584 41296 82309 10022 20016 40139 57019 76022 8772/ 333 87792 88597;
0172025840999992000031312004+58400+019200FM-12+001299999V0202301N00511001201CN0040001N1+00311+00241101191ADDAY161061AY221061GA1031+001509079GF108991081061001501999999MD1710201+9999MW1101REMSYN082AAXX  13124 02584 41296 82310 10031 20024 40119 57020 71062 886// 333 83792 88695;
0166025840999992000031315004+58400+019200FM-12+001299999V0202301N004610045019N0040001N1+00361+00271100961ADDAY121031AY221031GA1081+004509069GF108991081071004501999999MD1710231+9999MW1501REMSYN076AAXX  13154 02584 41496 82309 10036 20027 40096 57023 75022 887// 333 88794;
0202025840999992000031318004+58400+019200FM-12+001299999V0202301N005110080019N0040001N1+00431+00311100801ADDAA112000791AY151061AY221061GA1081+008009059GF108991081051008001999999KA1120M+00431MD1610161+9999MW1101REMSYN088AAXX  13184 02584 11596 82310 10043 20031 40080 56016 69902 71052 885// 333 10043 88695;
0166025840999992000031321004+58400+019200FM-12+001299999V0202301N005710045019N0040001N1+00391+00291100671ADDAY121031AY221031GA1081+004509059GF108991081051004501999999MD1710131+9999MW1101REMSYN076AAXX  13214 02584 41496 82311 10039 20029 40067 57013 71022 885// 333 88694;
0172025840999992000031400004+58400+019200FM-12+001299999V0202301N00511004501CN0040001N1+00331+00291100451ADDAY121061AY221061GA1051+004509079GF108991051071004501021999MD1810221+9999MW1211REMSYN082AAXX  14004 02584 41496 82310 10033 20029 40045 58022 72122 8572/ 333 85794 88596;
0166025840999992000031403004+58400+019200FM-12+001299999V0202301N004610080019N0040001N1+00371+00301100121ADDAY121031AY221031GA1081+008009059GF108991081051008001999999MD1710331+9999MW1101REMSYN076AAXX  14034 02584 41596 82309 10037 20030 40012 57033 71022 885// 333 88695;
0192025840999992000031406004+58400+019200FM-12+001299999V0202501N004619999999N0200001N1+00341+00161100091ADDAA112000191GA1011+025009039GF106991011001999999031011IA1099KA1120N+00331MD1610031+9999REMSYN094AAXX  14064 02584 12998 62509 10034 20016 40009 56003 69922 81031 333 20033 31/// 81399 85099;
0144025840999992000031409004+58400+019200FM-12+001299999V0202501N004619999999N0200001N1+00461+00131100021ADDGA1031+025009039GF106991031001999999031011MD1810071+9999REMSYN076AAXX  14094 02584 42998 62509 10046 20013 40002 58007 83031 333 83399 83099;
0138025840999992000031412004+58400+019200FM-12+001299999V0202501N004119999999N0200001N1+00491+00141099921ADDGA1071+999999089GF107991001001999999001061MD1710101+9999REMSYN070AAXX  14124 02584 42998 72508 10049 20014 49992 57010 80006 333 87299;
0138025840999992000031415004+58400+019200FM-12+001299999V0202301N002619999999N0200001N1+00391+00131099831ADDGA1081+999999089GF108991001001999999001071MD1710091+9999REMSYN070AAXX  14154 02584 42998 82305 10039 20013 49983 57009 80007 333 88299;
0187025840999992000031418004+58400+019200FM-12+001299999V0202301N002119999999N0100001N1+00301+00151099711ADDAA199000091GA1081+999999089GF108991001001999999001071KA1120M+00541MD1710121+9999REMSYN076AAXX  14184 02584 32997 82304 10030 20015 49971 57012 80007 333 10054 88299;EQDQ01  00002PRCP99
0138025840999992000031421004+58400+019200FM-12+001299999V0201801N002119999999N0100001N1+00301+00131099581ADDGA1081+999999089GF108991001001999999001071MD1710131+9999REMSYN070AAXX  14214 02584 42997 81804 10030 20013 49958 57013 80007 333 88299;
0138025840999992000031500004+58400+019200FM-12+001299999V0202501N001519999999N0100001N1+00261+00091099501ADDGA1081+999999089GF108991001001999999001071MD1610081+9999REMSYN070AAXX  15004 02584 42997 82503 10026 20009 49950 56008 80007 333 88299;
0172025840999992000031503004+58400+019200FM-12+001299999V0203601N00211075001CN0040001N1+00221+00091099501ADDAY121031AY221031GA1031+017509069GF108991031051017501001071MD1410001+9999MW1101REMSYN082AAXX  15034 02584 41796 83604 10022 20009 49950 54000 71022 83507 333 83697 88299;
0215025840999992000031506004+58400+019200FM-12+001299999V0200201N002610225019N0100001N1+00191+00121099681ADDAA199000091GA1081+022509079GF108991081999999999071999IA1099KA1120N+00191MD1310181+9999REMSYN082AAXX  15064 02584 32997 80205 10019 20012 49968 53018 8807/ 333 20019 31/// 88398;EQDQ01+000002SCOLCGQ02  00002PRCP99
0172025840999992000031509004+58400+019200FM-12+001299999V0203601N00411001501CN0020001N1+00111+00081100041ADDAY181031AY221031GA1071+001509079GF108991071071001501021999MD1210361+9999MW1731REMSYN082AAXX  15094 02584 41295 83608 10011 20008 40004 52036 77382 8772/ 333 87792 88597;
0172025840999992000031512004+58400+019200FM-12+001299999V0203601N00461002501CN0010001N1+00021-00081100371ADDAY181061AY271061GA1071+002509079GF108991071071002501021999MD1210331+9999MW1691REMSYN082AAXX  15124 02584 41394 83609 10002 21008 40037 52033 76987 8772/ 333 87793 88597;
0166025840999992000031515004+58400+019200FM-12+001299999V0203601N003612200019N0200001N1+00201-00191100631ADDAY171031AY271031GA1031+008009029GF103991031021008001001001MD1210261+9999MW1011REMSYN076AAXX  15154 02584 41598 33607 10020 21019 40063 52026 70177 83200 333 83895;
0190025840999992000031518004+58400+019200FM-12+001299999V0203601N003112200019N0200001N1+00111-00281100721ADDAA112001091AY171061AY271061GA1001+999999999GF100991001001999999001001KA1999M+00211MD1210091+9999MW1011REMSYN076AAXX  15184 02584 11998 03606 10011 21028 40072 52009 69992 70177 333 10021;
0122025840999992000031521004+58400+019200FM-12+001299999V0203401N002112200019N0200001N1+00121-00481100811ADDGA1001+999999999GF100991001001999999001001MD1210021+9999REMSYN054AAXX  15214 02584 42998 03404 10012 21048 40081 52002;
0122025840999992000031600004+58400+019200FM-12+001299999V0203401N003112200019N0200001N1+00131-00391100911ADDGA1001+999999999GF100991001001999999001001MD1210101+9999REMSYN054AAXX  16004 02584 42998 03406 10013 21039 40091 52010;
0122025840999992000031603004+58400+019200FM-12+001299999V0203601N003112200019N0200001N1+00071-00451101001ADDGA1001+999999999GF100991001001999999001001MD1210091+9999REMSYN054AAXX  16034 02584 42998 03606 10007 21045 40100 52009;
0199025840999992000031606004+58400+019200FM-12+001299999V0203601N003612200019N0200001N1+00011-00341101191ADDAA199000091GA1011+002509069GF101991011061002501001001IA1099KA1120N+00011MD1210191+9999REMSYN082AAXX  16064 02584 32398 13607 10001 21034 40119 52019 81600 333 20001 31/// 81793;EQDQ01  00002PRCP99
0138025840999992000031609004+58400+019200FM-12+001299999V0203601N004610045019N0200001N1+00081-00311101351ADDGA1061+004509029GF106991061021004501001001MD1210161+9999REMSYN070AAXX  16094 02584 42498 63609 10008 21031 40135 52016 86200 333 86894;
0122025840999992000031612004+58400+019200FM-12+001299999V0203401N004112200019N0500001N1+00271-00451101421ADDGA1001+999999999GF100991001001999999001001MD1210071+9999REMSYN054AAXX  16124 02584 42999 03408 10027 21045 40142 52007;
0138025840999992000031615004+58400+019200FM-12+001299999V0203401N003112200019N0500001N1+00331-00441101451ADDGA1011+004509029GF101991011021004501001001MD1210031+9999REMSYN070AAXX  16154 02584 42499 13406 10033 21044 40145 52003 81200 333 81894;
0175025840999992000031618004+58400+019200FM-12+001299999V0203601N002612200019N0200001N1+00121-00441101481ADDAA199000091GA1001+999999999GF100991001001999999001001KA1999M+00341MD1210031+9999REMSYN064AAXX  16184 02584 32998 03605 10012 21044 40148 52003 333 10034;EQDQ01  00002PRCP99
0122025840999992000031621004+58400+019200FM-12+001299999V0203601N003112200019N0200001N1+00081-00651101411ADDGA1001+999999999GF100991001001999999001001MD1810071+9999REMSYN054AAXX  16214 02584 42998 03606 10008 21065 40141 58007;
0122025840999992000031622004+58400+019200FM-12+001299999V0203601N003112200019N0200001N1+00001-00651101411ADDGA1001+999999999GF100991001001999999001001MD1810071+9999REMSYN054AAXX  16224 02584 42998 03606 1000/ 21065 40141 58007;
0122025840999992000031700004+58400+019200FM-12+001299999V0203601N003612200019N0200001N1+00041-00501101401ADDGA1001+999999999GF100991001001999999001001MD1510011+9999REMSYN054AAXX  17004 02584 42998 03607 10004 21050 40140 55001;
0138025840999992000031703004+58400+019200FM-12+001299999V0203601N004612200019N0200001N1+00021-00391101391ADDGA1031+008009029GF103991031021008001001001MD1810011+9999REMSYN070AAXX  17034 02584 42598 33609 10002 21039 40139 58001 83200 333 83895;
0199025840999992000031706004+58400+019200FM-12+001299999V0200201N004612200019N0200001N1+00061-00441101431ADDAA199000091GA1041+008009029GF104991041021008001001001IA1019KA1120N+00001MD1310041+9999REMSYN082AAXX  17064 02584 32598 40209 10006 21044 40143 53004 84200 333 20000 30/// 84895;EQDQ01  00002PRCP99
0138025840999992000031709004+58400+019200FM-12+001299999V0200201N004110080019N0200001N1+00101-00331101511ADDGA1081+008009059GF108991081051008001999999MD1310081+9999REMSYN070AAXX  17094 02584 42598 80208 10010 21033 40151 53008 885// 333 88695;
0144025840999992000031712004+58400+019200FM-12+001299999V0200201N00511004501CN0200001N1+00121-00181101611ADDGA1061+004509079GF108991061071004501011999MD1210101+9999REMSYN076AAXX  17124 02584 42498 80210 10012 21018 40161 52010 8671/ 333 86794 88499;
0144025840999992000031715004+58400+019200FM-12+001299999V0200201N00411004501CN0100001N1+00141-00031101801ADDGA1061+004509079GF108991061071004501011999MD1310191+9999REMSYN076AAXX  17154 02584 42497 80208 10014 21003 40180 53019 8671/ 333 86794 88499;
0166025840999992000031721004+58400+019200FM-12+001299999V0200201N002110125019N0040001N1+00131+00061102131ADDAY121031AY221031GA1071+012509059GF107991071051012501999999MD1110091+9999MW1101REMSYN076AAXX  17214 02584 41696 70204 10013 20006 40213 51009 71022 875// 333 87696;
0166025840999992000031800004+58400+019200FM-12+001299999V0200201N001010080019N0040001N1+00151+00091102191ADDAY121061AY221061GA1081+008009059GF108991081051008001999999MD1210061+9999MW1101REMSYN076AAXX  18004 02584 41596 80202 10015 20009 40219 52006 71022 885// 333 88695;
0172025840999992000031803004+58400+019200FM-12+001299999V0200201N00101001201CN0040001N1+00131+00071102201ADDAY121031AY221031GA1021+001509079GF108991081061001501999999MD1210011+9999MW1101REMSYN082AAXX  18034 02584 41296 80202 10013 20007 40220 52001 71022 886// 333 82792 88695;
0227025840999992000031806004+58400+019200FM-12+001299999V0200201N000510125019N0040001N1+00141+00081102261ADDAA199000091AY121061AY221061GA1081+012509059GF108991081061001501999999IA1099KA1120N+00121MD1210061+9999MW1101REMSYN088AAXX  18064 02584 31296 80201 10014 20008 40226 52006 71022 886// 333 20012 31/// 88696;EQDQ01  00002PRCP99
0138025840999992000031809004+58400+019200FM-12+001299999V0203201N001010025019N0100001N1+00171+00061102311ADDGA1081+002509069GF108991081061002501999999MD1110051+9999REMSYN070AAXX  18094 02584 42397 83202 10017 20006 40231 51005 886// 333 88793;
0138025840999992000031812004+58400+019200FM-12+001299999V0203201N001010025019N0200001N1+00151-00101102311ADDGA1081+002509069GF108991081061002501999999MD1410001+9999REMSYN070AAXX  18124 02584 42398 83202 10015 21010 40231 54000 886// 333 88793;
0179025840999992000031815004+58400+019200FM-12+001299999V0203401N002110225019N0200001N1+00161-00181102351ADDAY121031AY221031GA1081+022509059GF108991081051008001999999MD1310041+9999REMSYN076AAXX  18154 02584 41598 83404 10016 21018 40235 53004 77822 885// 333 88698;EQDQ01+000782PRSWM1
0215025840999992000031818004+58400+019200FM-12+001299999V0203401N002110080019N0040001N1+00161+00101102331ADDAA112000191AY121061AY221061GA1081+008009059GF108991081051008001999999KA1120M+00201MD1810021+9999REMSYN088AAXX  18184 02584 11596 83404 10016 20010 40233 58002 69912 77822 885// 333 10020 88695;EQDQ01+000782PRSWM1
0166025840999992000031821004+58400+019200FM-12+001299999V0203601N003610080019N0040001N1+00241+00111102371ADDAY171031AY261031GA1081+008009059GF108991081051008001999999MD1310041+9999MW1101REMSYN076AAXX  18214 02584 41596 83607 10024 20011 40237 53004 71076 885// 333 88695;
0166025840999992000031900004+58400+019200FM-12+001299999V0200201N003110045019N0200001N1+00201-00071102401ADDAY171061AY261061GA1071+004509069GF107991071071004501999999MD1210031+9999MW1021REMSYN076AAXX  19004 02584 41498 70206 10020 21007 40240 52003 70276 877// 333 87794;
0166025840999992000031903004+58400+019200FM-12+001299999V0200501N002610025019N0040001N1+00141-00041102511ADDAY121031AY221031GA1081+002509069GF108991081061002501999999MD1310111+9999MW1101REMSYN076AAXX  19034 02584 41396 80505 10014 21004 40251 53011 71022 886// 333 88793;
0186025840999992000031906004+58400+019200FM-12+001299999V0201601N000510080019N0100001N1+00101-00071102701ADDAA112000191GA1081+008009059GF108991081051008001999999IA1099KA1120N+00061MD1210191+9999REMSYN088AAXX  19064 02584 12597 81601 10010 21007 40270 52019 69922 885// 333 20006 31/// 88695;
0138025840999992000031909004+58400+019200FM-12+001299999V0202301N000510080019N0200001N1+00181-00281102811ADDGA1081+008009059GF108991081051008001999999MD1210111+9999REMSYN070AAXX  19094 02584 42598 82301 10018 21028 40281 52011 885// 333 88695;
0144025840999992000031912004+58400+019200FM-12+001299999V0202301N00211030001CN0200001N1+00331-00251102801ADDGA1011+017509069GF108991011051017501011999MD1810011+9999REMSYN076AAXX  19124 02584 42798 82304 10033 21025 40280 58001 8151/ 333 81697 88499;
0138025840999992000031915004+58400+019200FM-12+001299999V0202001N00261075001CN0200001N1+00241-00081102611ADDGA1081+999999019GF108991081001999999011999MD1810191+9999REMSYN070AAXX  19154 02584 42998 82005 10024 21008 40261 58019 8801/ 333 88499;
0219025840999992000031918004+58400+019200FM-12+001299999V0202301N003110225019N0200001N1+00241-00031102461ADDAA199000091GA1061+022509059GF199999051051022501999001KA1120M+00371MD1710151+9999REMSYN076AAXX  19184 02584 32898 52306 10024 21003 40246 57015 85500 333 10037 86698;EQDQ01+000052SCOTCVQ02+000002SCOMCGQ03  00002PRCP99
0144025840999992000031921004+58400+019200FM-12+001299999V0202301N00411030001CN0100001N1+00221+00131102291ADDGA1031+004509079GF108991031061004501011999MD1710171+9999REMSYN076AAXX  19214 02584 42497 82308 10022 20013 40229 57017 8361/ 333 83794 88499;
0122025840999992000032000004+58400+019200FM-12+001299999V0202301N004112200019N0100001N1+00251+00131102031ADDGA1001+999999999GF100991001001999999001001MD1710261+9999REMSYN054AAXX  20004 02584 42997 02308 10025 20013 40203 57026;
0166025840999992000032003004+58400+019200FM-12+001299999V0202301N00411075001CN0040001N1+00241+00161101651ADDAY101031AY201031GA1081+999999019GF108991081001999999011999MD1610381+9999MW1101REMSYN076AAXX  20034 02584 41996 82308 10024 20016 40165 56038 71000 8801/ 333 88499;
0199025840999992000032006004+58400+019200FM-12+001299999V0202301N00361075001CN0100001N1+00291+00191101491ADDAA199000091GA1081+999999019GF108991081001999999011999IA1099KA1120N+00211MD1710161+9999REMSYN082AAXX  20064 02584 32997 82307 10029 20019 40149 57016 8801/ 333 20021 31/// 88499;EQDQ01  00002PRCP99
0138025840999992000032009004+58400+019200FM-12+001299999V0202301N003612200019N0200001N1+00511+00301101331ADDGA1021+999999019GF102991001001999999001011MD1710161+9999REMSYN070AAXX  20094 02584 42998 22307 10051 20030 40133 57016 80001 333 82099;
0138025840999992000032012004+58400+019200FM-12+001299999V0202501N004112200019N0200001N1+00611+00281101251ADDGA1021+999999019GF102991001001999999001011MD1710081+9999REMSYN070AAXX  20124 02584 42998 22508 10061 20028 40125 57008 80001 333 82099;
0122025840999992000032015004+58400+019200FM-12+001299999V0202301N003112200019N0200001N1+00531+00321101121ADDGA1001+999999999GF100991001001999999001001MD1710131+9999REMSYN054AAXX  20154 02584 42998 02306 10053 20032 40112 57013;
0145025840999992000032018004+58400+019200FM-12+001299999V0202001N003112200019N0100001N1+00421+00301101121ADDGA1001+999999999GF100991001001999999001001KA1999M+00701MD1510001+9999REMSYN064AAXX  20184 02584 42997 02006 10042 20030 40112 55000 333 10070;
0122025840999992000032021004+58400+019200FM-12+001299999V0202701N003112200019N0100001N1+00501+00351101111ADDGA1001+999999999GF100991001001999999001001MD1810011+9999REMSYN054AAXX  20214 02584 42997 02706 10050 20035 40111 58001;
0138025840999992000032100004+58400+019200FM-12+001299999V0203201N002110125019N0100001N1+00421+00301101161ADDGA1081+012509059GF108991081051012501999999MD1310051+9999REMSYN070AAXX  21004 02584 42697 83204 10042 20030 40116 53005 885// 333 88696;
0150025840999992000032103004+58400+019200FM-12+001299999V0203601N001512200019N0040001N1+00221+00181101151ADDAY121031AY201031GA1001+999999999GF100991001001999999001001MD1810011+9999MW1101REMSYN060AAXX  21034 02584 41996 03603 10022 20018 40115 58001 71020;
0221025840999992000032106004+58400+019200FM-12+001299999V0200501N002110015019N0002001N1+00201+00171101241ADDAA199000091AY121061AY201061GA1091+001509999GF109991091999999999999999IA1019KA1120N+00121MD1310091+9999MW1451REMSYN082AAXX  21064 02584 31/92 90504 10020 20017 40124 53009 74520 333 20012 30/// 89/92;EQDQ01  00002PRCP99
0160025840999992000032109004+58400+019200FM-12+001299999V0200701N001010025019N0002001N1+00201+00171101361ADDAY141031AY241031GA1091+002509999GF109991091999999999999999MD1210121+9999MW1451REMSYN070AAXX  21094 02584 41/92 90702 10020 20017 40136 52012 74544 333 89/93;
0150025840999992000032112004+58400+019200FM-12+001299999V0203401N000512200019N0100001N1+00481+00161101371ADDAY141061AY241061GA1001+999999999GF100991001001999999001001MD1110011+9999MW1281REMSYN060AAXX  21124 02584 41997 03401 10048 20016 40137 51001 72844;
0122025840999992000032115004+58400+019200FM-12+001299999V0202301N001012200019N0200001N1+00521+00061101231ADDGA1001+999999999GF100991001001999999001001MD1810141+9999REMSYN054AAXX  21154 02584 42998 02302 10052 20006 40123 58014;
0187025840999992000032118004+58400+019200FM-12+001299999V0202001N003112200019N0200001N1+00421+00031101031ADDAA199000091GA1021+012509059GF104991021051012501031001KA1120M+00581MD1710201+9999REMSYN076AAXX  21184 02584 32698 42006 10042 20003 40103 57020 82530 333 10058 82696;EQDQ01  00002PRCP99
0138025840999992000032121004+58400+019200FM-12+001299999V0202501N004112200019N0200001N1+00481+00301100931ADDGA1041+008009059GF104991041051008001001001MD1710101+9999REMSYN070AAXX  21214 02584 42598 42508 10048 20030 40093 57010 84500 333 84695;
0138025840999992000032200004+58400+019200FM-12+001299999V0202701N004110080019N0100001N1+00501+00371100881ADDGA1081+008009059GF108991081051008001999999MD1710051+9999REMSYN070AAXX  22004 02584 42597 82708 10050 20037 40088 57005 885// 333 88695;
0166025840999992000032203004+58400+019200FM-12+001299999V0202701N003110175019N0040001N1+00441+00371100861ADDAY121031AY221031GA1071+017509059GF107991071051017501999999MD1710021+9999MW1101REMSYN076AAXX  22034 02584 41796 72706 10044 20037 40086 57002 71022 875// 333 87697;
0243025840999992000032206004+58400+019200FM-12+001299999V0203201N001512200019N0040001N1+00301+00261100911ADDAA199000091AY121061AY221061GA1021+022509079GF102991021999022501031011IA1099KA1120N+00301MD1210051+9999MW1101REMSYN088AAXX  22064 02584 31896 23203 10030 20026 40091 52005 71022 82031 333 20030 31/// 82398;EQDQ01+000002SCOLCGQ02  00002PRCP99
0138025840999992000032209004+58400+019200FM-12+001299999V0203601N001012200019N0200001N1+00431+00021100991ADDGA1021+999999019GF102991001001999999001011MD1210081+9999REMSYN070AAXX  22094 02584 42998 23602 10043 20002 40099 52008 80001 333 82099;
0138025840999992000032212004+58400+019200FM-12+001299999V0209999V000510080019N0200001N1+00471+00051100981ADDGA1071+008009059GF107991071051008001999999MD1710011+9999REMSYN070AAXX  22124 02584 42598 79901 10047 20005 40098 57001 875// 333 87695;
0144025840999992000032215004+58400+019200FM-12+001299999V0202301N00051030001CN0200001N1+00381+00011100821ADDGA1011+017509069GF107991011051017501011999MD1710161+9999REMSYN076AAXX  22154 02584 42798 72301 10038 20001 40082 57016 8151/ 333 81697 87499;
0221025840999992000032218004+58400+019200FM-12+001299999V0202001N002112200019N0040001N1+00261+00221100731ADDAA199000091AY121061AY221061GA1021+008009089GF104991021011008001071001KA1120M+00521MD1610091+9999MW1101REMSYN088AAXX  22184 02584 31596 42004 10026 20022 40073 56009 71022 82170 333 10052 82895 84499;EQDQ01  00002PRCP99
0150025840999992000032221004+58400+019200FM-12+001299999V0202501N002112200019N0040001N1+00221+00161100691ADDAY111031AY201031GA1001+999999999GF100991001001999999001001MD1610041+9999MW1101REMSYN060AAXX  22214 02584 41996 02504 10022 20016 40069 56004 71010;
0122025840999992000032300004+58400+019200FM-12+001299999V0202701N002612200019N0100001N1+00261-00131100661ADDGA1001+999999999GF100991001001999999001001MD1710031+9999REMSYN054AAXX  23004 02584 42997 02705 10026 21013 40066 57003;
0122025840999992000032303004+58400+019200FM-12+001299999V0202901N002612200019N0200001N1+00181-00191100601ADDGA1001+999999999GF100991001001999999001001MD1710061+9999REMSYN054AAXX  23034 02584 42998 02905 10018 21019 40060 57006;
0171025840999992000032306004+58400+019200FM-12+001299999V0203601N002619999999N0200001N1+00161-00231100691ADDAA199000091GF108991999999999999999999IA1019KA1120N+00121MD1310091+9999REMSYN070AAXX  23064 02584 32998 83605 10016 21023 40069 53009 333 20012 30///;EQDQ01  00002PRCP99
0157025840999992000032309004+58400+019200FM-12+001299999V0203601N003112200019N0200001N1+00241-00621100821ADDGA1031+017509059GF103991031051017501999001MD1210131+9999REMSYN070AAXX  23094 02584 42798 33606 10024 21062 40082 52013 83500 333 83697;EQDQ01+000002SCOMCG
0138025840999992000032312004+58400+019200FM-12+001299999V0202701N002112200019N0200001N1+00441-00731100851ADDGA1041+999999019GF104991001001999999001011MD1110031+9999REMSYN070AAXX  23124 02584 42998 42704 10044 21073 40085 51003 80001 333 84099;
0122025840999992000032315004+58400+019200FM-12+001299999V0202701N003112200019N0200001N1+00421-00531100791ADDGA1001+999999999GF100991001001999999001001MD1810061+9999REMSYN054AAXX  23154 02584 42998 02706 10042 21053 40079 58006;
0187025840999992000032318004+58400+019200FM-12+001299999V0202701N002119999999N0200001N1+00271-00421100831ADDAA199000091GA1051+999999079GF105991051001999999071001KA1120M+00491MD1210041+9999REMSYN076AAXX  23184 02584 32998 52704 10027 21042 40083 52004 85070 333 10049 85399;EQDQ01  00002PRCP99
0138025840999992000032321004+58400+019200FM-12+001299999V0203401N003112200019N0200001N1+00241-00451100951ADDGA1021+999999079GF102991021001999999031001MD1210171+9999REMSYN070AAXX  23214 02584 42998 23406 10024 21045 40095 52017 82030 333 82399;
0122025840999992000032400004+58400+019200FM-12+001299999V0203201N003612200019N0200001N1+00171-00471101051ADDGA1001+999999999GF100991001001999999001001MD1210101+9999REMSYN054AAXX  24004 02584 42998 03207 10017 21047 40105 52010;
0122025840999992000032403004+58400+019200FM-12+001299999V0203201N003112200019N0200001N1+00051-00531101171ADDGA1001+999999999GF100991001001999999001001MD1210121+9999REMSYN054AAXX  24034 02584 42998 03206 10005 21053 40117 52012;
0187025840999992000032406004+58400+019200FM-12+001299999V0203201N003112200019N0200001N1+00081-00461101271ADDAA199000091GA1001+999999999GF100991001001999999001001IA1019KA1120N+00041MD1210101+9999REMSYN070AAXX  24064 02584 32998 03206 10008 21046 40127 52010 333 20004 30///;EQDQ01  00002PRCP99
0122025840999992000032409004+58400+019200FM-12+001299999V0203401N002612200019N0200001N1+00301-00371101471ADDGA1001+999999999GF100991001001999999001001MD1210201+9999REMSYN054AAXX  24094 02584 42998 03405 10030 21037 40147 52020;
0122025840999992000032412004+58400+019200FM-12+001299999V0203201N002112200019N0200001N1+00521-00261101611ADDGA1001+999999999GF100991001001999999001001MD1210141+9999REMSYN054AAXX  24124 02584 42998 03204 10052 21026 40161 52014;
0122025840999992000032415004+58400+019200FM-12+001299999V0202701N002112200019N0200001N1+00391-00171101621ADDGA1001+999999999GF100991001001999999001001MD1210011+9999REMSYN054AAXX  24154 02584 42998 02704 10039 21017 40162 52001;
0175025840999992000032418004+58400+019200FM-12+001299999V0202701N002112200019N0100001N1+00201+00061101671ADDAA199000091GA1001+999999999GF100991001001999999001001KA1999M+00541MD1310051+9999REMSYN064AAXX  24184 02584 32997 02704 10020 20006 40167 53005 333 10054;EQDQ01  00002PRCP99
0150025840999992000032421004+58400+019200FM-12+001299999V0202701N002112200019N0040001N1+00201+00131101721ADDAY101031AY201031GA1001+999999999GF100991001001999999001001MD1210051+9999MW1101REMSYN060AAXX  24214 02584 41996 02704 10020 20013 40172 52005 71000;
0150025840999992000032500004+58400+019200FM-12+001299999V0202901N002112200019N0040001N1+00121-00021101741ADDAY101061AY201061GA1001+999999999GF100991001001999999001001MD1110021+9999MW1101REMSYN060AAXX  25004 02584 41996 02904 10012 21002 40174 51002 71000;
0166025840999992000032503004+58400+019200FM-12+001299999V0203201N002112200019N0040001N1+00021-00091101791ADDAY101031AY201031GA1031+999999019GF103991001001999999001011MD1310051+9999MW1101REMSYN076AAXX  25034 02584 41996 33204 10002 21009 40179 53005 71000 80001 333 83099;
0227025840999992000032506004+58400+019200FM-12+001299999V0203601N000512200019N0040001N1-00201-00261101821ADDAA199000091AY111061AY201061GA1031+999999019GF103991001001999999001011IA1149KA1120N-00251MD1210031+9999MW1101REMSYN088AAXX  25064 02584 31996 33601 11020 21026 40182 52003 71010 80001 333 21025 34/// 83099;EQDQ01  00002PRCP99
0138025840999992000032509004+58400+019200FM-12+001299999V0202001N002112200019N0200001N1+00421-00181101861ADDGA1041+999999019GF104991001001999999001011MD1210041+9999REMSYN070AAXX  25094 02584 42998 42004 10042 21018 40186 52004 80001 333 84099;
0138025840999992000032512004+58400+019200FM-12+001299999V0202301N001512200019N0200001N1+00441-00061101801ADDGA1031+999999019GF103991001001999999001011MD1810061+9999REMSYN070AAXX  25124 02584 42998 32303 10044 21006 40180 58006 80001 333 83099;
0122025840999992000032515004+58400+019200FM-12+001299999V0202001N000512200019N0200001N1+00461-00141101601ADDGA1001+999999999GF100991001001999999001001MD1810201+9999REMSYN054AAXX  25154 02584 42998 02001 10046 21014 40160 58020;
0187025840999992000032518004+58400+019200FM-12+001299999V0201801N00151075001CN0100001N1+00131-00021101551ADDAA199000091GA1061+999999019GF106991061001999999011001KA1120M+00481MD1710051+9999REMSYN076AAXX  25184 02584 32997 61803 10013 21002 40155 57005 86010 333 10048 86499;EQDQ01  00002PRCP99
0122025840999992000032521004+58400+019200FM-12+001299999V0201801N002112200019N0200001N1+00221-00151101491ADDGA1001+999999999GF100991001001999999001001MD1710061+9999REMSYN054AAXX  25214 02584 42998 01804 10022 21015 40149 57006;
0122025840999992000032600004+58400+019200FM-12+001299999V0200901N000512200019N0200001N1-00241-00341101461ADDGA1001+999999999GF100991001001999999001001MD1710031+9999REMSYN054AAXX  26004 02584 42998 00901 11024 21034 40146 57003;
0138025840999992000032603004+58400+019200FM-12+001299999V0201101N001012200019N0100001N1-00131-00171101411ADDGA1031+999999079GF103991031001999999031001MD1710051+9999REMSYN070AAXX  26034 02584 42997 31102 11013 21017 40141 57005 83030 333 83399;
0199025840999992000032606004+58400+019200FM-12+001299999V0201101N001519999999N0100001N1+00161+00081101431ADDAA199000091GA1071+999999079GF107991071001999999031999IA1019KA1120N-00261MD1210021+9999REMSYN082AAXX  26064 02584 32997 71103 10016 20008 40143 52002 8703/ 333 21026 30/// 87399;EQDQ01  00002PRCP99
0138025840999992000032609004+58400+019200FM-12+001299999V0201101N003119999999N0200001N1+00321-00101101511ADDGA1051+999999079GF106991051001999999031001MD1210081+9999REMSYN070AAXX  26094 02584 42998 61106 10032 21010 40151 52008 85030 333 85399;
0138025840999992000032612004+58400+019200FM-12+001299999V0200901N003619999999N0200001N1+00321-00261101631ADDGA1061+999999079GF106991061001999999051001MD1210121+9999REMSYN070AAXX  26124 02584 42998 60907 10032 21026 40163 52012 86050 333 86399;
0138025840999992000032615004+58400+019200FM-12+001299999V0200901N004119999999N0200001N1+00221-00261101641ADDGA1081+999999079GF108991081001999999071999MD1110011+9999REMSYN070AAXX  26154 02584 42998 80908 10022 21026 40164 51001 8807/ 333 88399;
0187025840999992000032618004+58400+019200FM-12+001299999V0200701N004112200019N0200001N1+00101-00311101711ADDAA199000091GA1031+999999079GF103991031001999999031001KA1120M+00421MD1310071+9999REMSYN076AAXX  26184 02584 32998 30708 10010 21031 40171 53007 83030 333 10042 83399;EQDQ01  00002PRCP99
0122025840999992000032621004+58400+019200FM-12+001299999V0200701N004112200019N0200001N1+00121-00561101781ADDGA1001+999999999GF100991001001999999001001MD1210071+9999REMSYN054AAXX  26214 02584 42998 00708 10012 21056 40178 52007;
0138025840999992000032700004+58400+019200FM-12+001299999V0200701N00511075001CN0200001N1+00221-00361101871ADDGA1081+999999019GF108991081001999999071999MD1210091+9999REMSYN070AAXX  27004 02584 42998 80710 10022 21036 40187 52009 8807/ 333 88499;
0138025840999992000032703004+58400+019200FM-12+001299999V0200701N00461075001CN0200001N1+00161-00361101921ADDGA1081+999999019GF108991081001999999071999MD1210051+9999REMSYN070AAXX  27034 02584 42998 80709 10016 21036 40192 52005 8807/ 333 88499;
0214025840999992000032706004+58400+019200FM-12+001299999V0200901N004610045019N0100001N1+00121-00561102141ADDAA112000791AY121061AY221061GA1081+004509069GF108991081061004501999999IA1019KA1120N+00081MD1310221+9999MW1771REMSYN094AAXX  27064 02584 11497 80909 10012 21056 40214 53022 69902 77722 886// 333 20008 30/// 88794;
0166025840999992000032709004+58400+019200FM-12+001299999V0200901N00511075001CN0200001N1+00221-00711102281ADDAY171031AY221031GA1081+999999019GF108991081001999999011999MD1210141+9999MW1021REMSYN076AAXX  27094 02584 41998 80910 10022 21071 40228 52014 70272 8801/ 333 88499;
0166025840999992000032712004+58400+019200FM-12+001299999V0200701N00621075001CN0200001N1+00221-00741102401ADDAY171061AY221061GA1081+999999019GF108991081001999999011999MD1210121+9999MW1021REMSYN076AAXX  27124 02584 41998 80712 10022 21074 40240 52012 70272 8801/ 333 88499;
0157025840999992000032715004+58400+019200FM-12+001299999V0200701N00511075001CN0200001N1+00181-00561102401ADDGA1081+999999019GF108991081001999999011999MD1410001+9999REMSYN070AAXX  27154 02584 42998 80710 10018 21056 40240 51000 8801/ 333 88499;EQDQ01+000012APCTEN
0180025840999992000032718004+58400+019200FM-12+001299999V0200701N00511030001CN0200001N1+00121-00311102471ADDAA112000791GA1041+004509079GF108991041061004501011999KA1120M+00251MD1210071+9999REMSYN088AAXX  27184 02584 12498 80710 10012 21031 40247 52007 69902 8461/ 333 10025 84794 88499;
0144025840999992000032721004+58400+019200FM-12+001299999V0200701N00511030001CN0200001N1+00141-00401102571ADDGA1041+004509079GF108991041061004501011999MD1210101+9999REMSYN076AAXX  27214 02584 42498 80710 10014 21040 40257 52010 8461/ 333 84794 88499;
0122025840999992000032800004+58400+019200FM-12+001299999V0200901N004112200019N0200001N1+00091-00881102641ADDGA1001+999999999GF100991001001999999001001MD1210071+9999REMSYN054AAXX  28004 02584 42998 00908 10009 21088 40264 52007;
0122025840999992000032803004+58400+019200FM-12+001299999V0200901N004112200019N0200001N1+00041-00781102631ADDGA1001+999999999GF100991001001999999001001MD1710011+9999REMSYN054AAXX  28034 02584 42998 00908 10004 21078 40263 57001;
0199025840999992000032806004+58400+019200FM-12+001299999V0200901N003610090019N0200001N1+00071-00491102711ADDAA199000091GA1051+009009019GF105991051001999999031001IA1019KA1120N+00021MD1210081+9999REMSYN082AAXX  28064 02584 32998 50907 10007 21049 40271 52008 85030 333 20002 30/// 85030;EQDQ01  00002PRCP99
0122025840999992000032812004+58400+019200FM-12+001299999V0200901N003112200019N0200001N1+00871-00481102821ADDGA1001+999999999GF100991001001999999001001MD1210021+9999REMSYN054AAXX  28124 02584 42998 00906 10087 21048 40282 52002;
0122025840999992000032815004+58400+019200FM-12+001299999V0200701N002612200019N0200001N1+00221-00511102771ADDGA1001+999999999GF100991001001999999001001MD1710051+9999REMSYN054AAXX  28154 02584 42998 00705 10022 21051 40277 57005;
0175025840999992000032818004+58400+019200FM-12+001299999V0200701N003112200019N0200001N1+00041-00621102751ADDAA199000091GA1001+999999999GF100991001001999999001001KA1999M+00381MD1610021+9999REMSYN064AAXX  28184 02584 32998 00706 10004 21062 40275 56002 333 10038;EQDQ01  00002PRCP99
0122025840999992000032821004+58400+019200FM-12+001299999V0200701N002612200019N0200001N1+00021-00461102861ADDGA1001+999999999GF100991001001999999001001MD1310111+9999REMSYN054AAXX  28214 02584 42998 00705 10002 21046 40286 53011;
0122025840999992000032900004+58400+019200FM-12+001299999V0200901N002112200019N0200001N1-00081-00381102781ADDGA1001+999999999GF100991001001999999001001MD1810081+9999REMSYN054AAXX  29004 02584 42998 00904 11008 21038 40278 58008;
0122025840999992000032903004+58400+019200FM-12+001299999V0200901N002112200019N0100001N1-00341-00481102771ADDGA1001+999999999GF100991001001999999001001MD1610011+9999REMSYN054AAXX  29034 02584 42997 00904 11034 21048 40277 56001;
0187025840999992000032906004+58400+019200FM-12+001299999V0200901N001512200019N0200001N1-00201-00341102781ADDAA199000091GA1001+999999999GF100991001001999999001001IA1149KA1120N-00501MD1310011+9999REMSYN070AAXX  29064 02584 32998 00903 11020 21034 40278 53001 333 21050 34///;EQDQ01  00002PRCP99
0122025840999992000032909004+58400+019200FM-12+001299999V0200901N001012200019N0200001N1+00321-00371102821ADDGA1001+999999999GF100991001001999999001001MD1310041+9999REMSYN054AAXX  29094 02584 42998 00902 10032 21037 40282 53004;
0122025840999992000032912004+58400+019200FM-12+001299999V0200901N001512200019N0200001N1+00381-00291102761ADDGA1001+999999999GF100991001001999999001001MD1810061+9999REMSYN054AAXX  29124 02584 42998 00903 10038 21029 40276 58006;
0122025840999992000032915004+58400+019200FM-12+001299999V0200501N000512200019N0200001N1+00321-00281102661ADDGA1001+999999999GF100991001001999999001001MD1710101+9999REMSYN054AAXX  29154 02584 42998 00501 10032 21028 40266 57010;
0175025840999992000032918004+58400+019200FM-12+001299999V0201601N001012200019N0200001N1-00241-00561102611ADDAA199000091GA1001+999999999GF100991001001999999001001KA1999M+00411MD1510051+9999REMSYN064AAXX  29184 02584 32998 01602 11024 21056 40261 55005 333 10041;EQDQ01  00002PRCP99
0122025840999992000032921004+58400+019200FM-12+001299999V0202001N001012200019N0100001N1-00331-00381102511ADDGA1001+999999999GF100991001001999999001001MD1810101+9999REMSYN054AAXX  29214 02584 42997 02002 11033 21038 40251 58010;
0122025840999992000033000004+58400+019200FM-12+001299999V0202001N001512200019N0100001N1-00281-00321102411ADDGA1001+999999999GF100991001001999999001001MD1710101+9999REMSYN054AAXX  30004 02584 42997 02003 11028 21032 40241 57010;
0122025840999992000033003004+58400+019200FM-12+001299999V0202301N001512200019N0100001N1-00321-00361102251ADDGA1001+999999999GF100991001001999999001001MD1810161+9999REMSYN054AAXX  30034 02584 42997 02303 11032 21036 40225 58016;
0187025840999992000033006004+58400+019200FM-12+001299999V0202301N001512200019N0100001N1+00101+00041102061ADDAA199000091GA1001+999999999GF100991001001999999001001IA1149KA1120N-00361MD1710191+9999REMSYN070AAXX  30064 02584 32997 02303 10010 20004 40206 57019 333 21036 34///;EQDQ01  00002PRCP99
0122025840999992000033009004+58400+019200FM-12+001299999V0202301N001012200019N0200001N1+00421-00101101951ADDGA1001+999999999GF100991001001999999001001MD1610111+9999REMSYN054AAXX  30094 02584 42998 02302 10042 21010 40195 56011;
0122025840999992000033012004+58400+019200FM-12+001299999V0202001N001512200019N0200001N1+00601-00421101741ADDGA1001+999999999GF100991001001999999001001MD1810211+9999REMSYN054AAXX  30124 02584 42998 02003 10060 21042 40174 58021;
0122025840999992000033015004+58400+019200FM-12+001299999V0201801N001012200019N0200001N1+00721-00031101451ADDGA1001+999999999GF100991001001999999001001MD1810291+9999REMSYN054AAXX  30154 02584 42998 01802 10072 21003 40145 58029;
0175025840999992000033018004+58400+019200FM-12+001299999V0202301N002112200019N0200001N1+00461+00111101281ADDAA199000091GA1001+999999999GF100991001001999999001001KA1999M+00741MD1710171+9999REMSYN064AAXX  30184 02584 32998 02304 10046 20011 40128 57017 333 10074;EQDQ01  00002PRCP99
0150025840999992000033021004+58400+019200FM-12+001299999V0202001N002112200019N0040001N1+00261+00191101181ADDAY101031AY201031GA1001+999999999GF100991001001999999001001MD1710101+9999MW1101REMSYN060AAXX  30214 02584 41996 02004 10026 20019 40118 57010 71000;
0150025840999992000033100004+58400+019200FM-12+001299999V0202001N002112200019N0020001N1+00081+00021100971ADDAY101061AY201061GA1001+999999999GF100991001001999999001001MD1810211+9999MW1101REMSYN060AAXX  31004 02584 41995 02004 10008 20002 40097 58021 71000;
0150025840999992000033103004+58400+019200FM-12+001299999V0202701N001012200019N0020001N1-00041-00101100781ADDAY101031AY201031GA1001+999999999GF100991001001999999001001MD1710191+9999MW1101REMSYN060AAXX  31034 02584 41995 02702 11004 21010 40078 57019 71000;
0215025840999992000033106004+58400+019200FM-12+001299999V0202001N000512200019N0020001N1+00081+00041100651ADDAA199000091AY101061AY201061GA1001+999999999GF100991001001999999001001IA1149KA1120N-00061MD1610131+9999MW1101REMSYN076AAXX  31064 02584 31995 02001 10008 20004 40065 56013 71000 333 21006 34///;EQDQ01  00002PRCP99
0141025840999992000033109004+58400+019200FM-12+001299999V0209999C000012200019N0100001N1+00681+00061100541ADDGA1001+999999999GF100991001001999999001001MD1710111+9999REMSYN054AAXX  31094 02584 42997 00000 10068 20006 40054 57511;EQDQ01+005117APC3  
0122025840999992000033112004+58400+019200FM-12+001299999V0209999C000012200019N0100001N1+00781+00001100391ADDGA1001+999999999GF100991001001999999001001MD1710151+9999REMSYN054AAXX  31124 02584 42997 00000 10078 20000 40039 57015;
0122025840999992000033115004+58400+019200FM-12+001299999V0200501N000512200019N0100001N1+00601+00101100251ADDGA1001+999999999GF100991001001999999001001MD1710141+9999REMSYN054AAXX  31154 02584 42997 00501 10060 20010 40025 57014;
0187025840999992000033118004+58400+019200FM-12+001299999V0209999C000012200019N0200001N1+00151-00091100121ADDAA199000091GA1011+999999079GF101991011001999999031001KA1120M+00901MD1610131+9999REMSYN076AAXX  31184 02584 32998 10000 10015 21009 40012 56013 81030 333 10090 81399;EQDQ01  00002PRCP99
0122025840999992000033121004+58400+019200FM-12+001299999V0201801N001012200019N0100001N1-00091-00151099991ADDGA1001+999999999GF100991001001999999001001MD1710131+9999REMSYN054AAXX  31214 02584 42997 01802 11009 21015 49999 57013;
0150025840999992000040100004+58400+019200FM-12+001299999V0201801N001012200019N0040001N1-00101-00161099881ADDAY101061AY201061GA1001+999999999GF100991001001999999001001MD1710111+9999MW1101REMSYN060AAXX  01004 02584 41996 01802 11010 21016 49988 57011 71000;
0166025840999992000040103004+58400+019200FM-12+001299999V0202701N001012200019N0040001N1-00091-00131099811ADDAY101031AY201031GA1021+999999079GF102991021001999999031001MD1610071+9999MW1101REMSYN076AAXX  01034 02584 41996 22702 11009 21013 49981 56007 71000 82030 333 82399;
0227025840999992000040106004+58400+019200FM-12+001299999V0202701N002112200019N0040001N1+00081+00021099811ADDAA199000091AY121061AY211061GA1041+999999089GF104991001001999999001061IA1149KA1120N-00151MD1510001+9999MW1101REMSYN088AAXX  01064 02584 31996 42704 10008 20002 49981 55000 71021 80006 333 21015 34/// 84299;EQDQ01  00002PRCP99
0138025840999992000040109004+58400+019200FM-12+001299999V0202501N001519999999N0200001N1+00411+00151099891ADDGA1061+999999089GF106991001001999999001081MD1310081+9999REMSYN070AAXX  01094 02584 42998 62503 10041 20015 49989 53008 80008 333 86299;
0138025840999992000040112004+58400+019200FM-12+001299999V0203601N001510080019N0200001N1+00421+00001100031ADDGA1071+008009059GF107991071051008001999999MD1310141+9999REMSYN070AAXX  01124 02584 42598 73603 10042 20000 40003 53014 875// 333 87695;
0138025840999992000040115004+58400+019200FM-12+001299999V0200201N002110015019N0200001N1+00241+00071100201ADDGA1081+001509069GF108991081061001501999999MD1210171+9999REMSYN070AAXX  01154 02584 42298 80204 10024 20007 40020 52017 886// 333 88792;
0187025840999992000040118004+58400+019200FM-12+001299999V0200201N003110025019N0100001N1+00161+00051100401ADDAA199000091GA1081+002509069GF108991081061002501999999KA1120M+00541MD1210201+9999REMSYN076AAXX  01184 02584 32397 80206 10016 20005 40040 52020 886// 333 10054 88793;EQDQ01  00002PRCP99
0185025840999992000040121004+58400+019200FM-12+001299999V0200501N00261002501CN0040001N1+00121+00011100561ADDAY121031AY221031GA1061+002509079GF108991061071002501021999MD1210161+9999REMSYN082AAXX  01214 02584 41396 80505 10012 20001 40056 52016 77822 8672/ 333 86793 88599;EQDQ01+000782PRSWM1
0172025840999992000040200004+58400+019200FM-12+001299999V0200501N00211004501CN0040001N1+00121-00101100681ADDAY121061AY221061GA1061+004509079GF108991061071004501021999MD1210121+9999MW1701REMSYN082AAXX  02004 02584 41496 80504 10012 21010 40068 52012 77022 8672/ 333 86794 88599;
0172025840999992000040203004+58400+019200FM-12+001299999V0200501N00311004501CN0020001N1-00021-00091100791ADDAY171031AY271031GA1061+004509079GF108991061071002501021999MD1210111+9999MW1711REMSYN082AAXX  02034 02584 41395 80506 11002 21009 40079 52011 77177 8672/ 333 86794 88599;
0256025840999992000040206004+58400+019200FM-12+001299999V0200501N00311002501CN0020001N1-00021-00121100901ADDAA112000891AJ199993999999999AY171061AY271061GA1061+002509079GF108991061071002501021999IA1309KA1120N-00051MD1210111+9999MW1711REMSYN100AAXX  02064 02584 11395 80506 11002 21012 40090 52011 69972 77177 8672/ 333 21005 42997 86793 88599;EQDQ01  09982SNDP  
0172025840999992000040209004+58400+019200FM-12+001299999V0200701N00311002501CN0020001N1+00061+00001101011ADDAY171031AY271031GA1061+002509079GF108991061071002501021999MD1210111+9999MW1711REMSYN082AAXX  02094 02584 41395 80706 10006 20000 40101 52011 77177 8672/ 333 86793 88599;
0172025840999992000040212004+58400+019200FM-12+001299999V0200501N00411001501CN0020001N1+00121+00081100981ADDAY171061AY271061GA1061+001509079GF108991061071001501021999MD1810031+9999MW1681REMSYN082AAXX  02124 02584 41295 80508 10012 20008 40098 58003 76877 8672/ 333 86792 88599;
0172025840999992000040215004+58400+019200FM-12+001299999V0200701N00361001501CN0020001N1+00121+00081100921ADDAY171031AY271031GA1061+001509079GF108991061071001501021999MD1710061+9999MW1601REMSYN082AAXX  02154 02584 41295 80707 10012 20008 40092 57006 76077 8672/ 333 86792 88599;
0202025840999992000040218004+58400+019200FM-12+001299999V0200501N002610007519N0040001N1+00181+00121100911ADDAA112003091AY171061AY271061GA1081+000759069GF108991081061000751999999KA1120M+00181MD1610011+9999MW1231REMSYN088AAXX  02184 02584 11196 80505 10018 20012 40091 56001 60032 72377 886// 333 10018 88791;
0166025840999992000040221004+58400+019200FM-12+001299999V0209999V001010015019N0020001N1+00191+00151100901ADDAY121031AY221031GA1081+001509069GF108991081061001501999999MD1010011+9999MW1101REMSYN076AAXX  02214 02584 41295 89902 10019 20015 40090 50001 71022 886// 333 88792;
0166025840999992000040300004+58400+019200FM-12+001299999V0209999C000010007519N0040001N1+00171+00111100891ADDAY121061AY221061GA1081+000759069GF108991081061000751999999MD1410001+9999MW1101REMSYN076AAXX  03004 02584 41196 80000 10017 20011 40089 54001 71022 886// 333 88791;
0150025840999992000040303004+58400+019200FM-12+001299999V0203401N000510003019N0005001N1+00181+00121100841ADDAY121031AY221031GA1091+999999999GF109991091999999999999999MD1810051+9999MW1451REMSYN060AAXX  03034 02584 41/93 93401 10018 20012 40084 58005 74522;
0196025840999992000040306004+58400+019200FM-12+001299999V0200201N000510003019N0002001N1+00141+00081100851ADDAA199000021AY141061AY221061GA1091+999999999GF109991091999999999999999IA1099KA1120N+00141MD1310011+9999MW1451REMSYN076AAXX  03064 02584 31/92 90201 10014 20008 40085 53001 74542 333 20014 31///;
0150025840999992000040309004+58400+019200FM-12+001299999V0200201N001010003019N0005001N1+00161+00101100881ADDAY141031AY241031GA1091+999999999GF109991091999999999999999MD1210031+9999MW1451REMSYN060AAXX  03094 02584 41/93 90202 10016 20010 40088 52003 74544;
0150025840999992000040312004+58400+019200FM-12+001299999V0200701N002110003019N0005001N1+00241+00171100781ADDAY141061AY241061GA1091+999999999GF109991091999999999999999MD1810101+9999MW1451REMSYN060AAXX  03124 02584 41/93 90704 10024 20017 40078 58010 74544;
0172025840999992000040315004+58400+019200FM-12+001299999V0200701N00211000751CN0010001N1+00271+00201100671ADDAY141031AY241031GA1061+000759079GF108991061061000751001071MD1810111+9999MW1281REMSYN082AAXX  03154 02584 41194 80704 10027 20020 40067 58011 72844 86607 333 86791 88299;
0215025840999992000040318004+58400+019200FM-12+001299999V0201601N002110045019N0010001N1+00281+00211100621ADDAA199000091AY141061AY241061GA1081+004509069GF108991081061004501999999KA1120M+00361MD1610051+9999MW1101REMSYN082AAXX  03184 02584 31494 81604 10028 20021 40062 56005 71044 886// 333 10036 88794;EQDQ01  00002PRCP99
0150025840999992000040321004+58400+019200FM-12+001299999V0201401N002112200019N0020001N1+00181+00121100511ADDAY121031AY221031GA1001+999999999GF100991001001999999001001MD1810111+9999MW1101REMSYN060AAXX  03214 02584 41995 01404 10018 20012 40051 58011 71022;
0166025840999992000040400004+58400+019200FM-12+001299999V0201401N002112200019N0040001N1+00441+00191100411ADDAY121061AY211061GA1041+999999079GF104991041001999999031001MD1710101+9999MW1101REMSYN076AAXX  04004 02584 41996 41404 10044 20019 40041 57010 71021 84030 333 84399;
0138025840999992000040403004+58400+019200FM-12+001299999V0201601N003110080019N0100001N1+00561+00171100261ADDGA1081+008009059GF108991081051008001999999MD1710151+9999REMSYN070AAXX  04034 02584 42597 81606 10056 20017 40026 57015 885// 333 88695;
0187025840999992000040406004+58400+019200FM-12+001299999V0201401N003112200019N0200001N1+00581+00061100111ADDAA199000091GA1001+999999999GF100991001001999999001001IA1019KA1120N+00181MD1710151+9999REMSYN070AAXX  04064 02584 32998 01406 10058 20006 40011 57015 333 20018 30///;EQDQ01  00002PRCP99
0138025840999992000040409004+58400+019200FM-12+001299999V0201401N003619999999N0200001N1+00641-00031099941ADDGA1081+999999079GF108991081001999999071999MD1710171+9999REMSYN070AAXX  04094 02584 42998 81407 10064 21003 49994 57017 8807/ 333 88399;
0138025840999992000040412004+58400+019200FM-12+001299999V0201601N003610080019N0200001N1+00661+00101099771ADDGA1081+008009059GF108991081051008001999999MD1710171+9999REMSYN070AAXX  04124 02584 42598 81607 10066 20010 49977 57017 885// 333 88695;
0138025840999992000040415004+58400+019200FM-12+001299999V0201801N003110080019N0200001N1+00641+00221099561ADDGA1081+008009059GF108991081051008001999999MD1710211+9999REMSYN070AAXX  04154 02584 42598 81806 10064 20022 49956 57021 885// 333 88695;
0187025840999992000040418004+58400+019200FM-12+001299999V0201801N002610080019N0200001N1+00671+00261099481ADDAA199000091GA1081+008009059GF108991081051008001999999KA1120M+00721MD1610081+9999REMSYN076AAXX  04184 02584 32598 81805 10067 20026 49948 56008 885// 333 10072 88695;EQDQ01  00002PRCP99
0138025840999992000040421004+58400+019200FM-12+001299999V0201401N002610175019N0200001N1+00631+00381099241ADDGA1081+017509059GF108991081051017501999999MD1810241+9999REMSYN070AAXX  04214 02584 42798 81405 10063 20038 49924 58024 885// 333 88697;
0138025840999992000040500004+58400+019200FM-12+001299999V0201801N002610080019N0100001N1+00561+00461099041ADDGA1081+008009059GF108991081051008001999999MD1710201+9999REMSYN070AAXX  05004 02584 42597 81805 10056 20046 49904 57020 885// 333 88695;
0138025840999992000040503004+58400+019200FM-12+001299999V0202301N002110007519N0100001N1+00401+00331098961ADDGA1081+000759069GF108991081061000751999999MD1610081+9999REMSYN070AAXX  05034 02584 42197 82304 10040 20033 49896 56008 886// 333 88791;
0220025840999992000040506004+58400+019200FM-12+001299999V0202501N00211000751CN0010001N1+00321+00261099031ADDAA112001091AY121061AY221061GA1061+000759079GF108991061071000751021999IA1119KA1120N+00321MD1310071+9999MW1611REMSYN100AAXX  05064 02584 11194 82504 10032 20026 49903 53007 69992 76122 8672/ 333 20032 32/// 86791 88597;
0172025840999992000040509004+58400+019200FM-12+001299999V0203201N00311000751CN0020001N1+00241+00181099281ADDAY161031AY261031GA1071+000759079GF108991071071000751021999MD1310251+9999MW1611REMSYN082AAXX  05094 02584 41195 83206 10024 20018 49928 53025 76166 8772/ 333 87791 88597;
0172025840999992000040512004+58400+019200FM-12+001299999V0203401N00311001501CN0020001N1+00021-00061099821ADDAY171061AY261061GA1061+001509079GF108991061071001501021999MD1210541+9999MW1711REMSYN082AAXX  05124 02584 41295 83406 10002 21006 49982 52054 77176 8672/ 333 86792 88597;
0166025840999992000040515004+58400+019200FM-12+001299999V0203401N003612200019N0200001N1+00081-00421100301ADDAY171031AY271031GA1021+999999019GF102991001001999999001011MD1110481+9999MW1011REMSYN076AAXX  05154 02584 41998 23407 10008 21042 40030 51048 70177 80001 333 82099;
0190025840999992000040518004+58400+019200FM-12+001299999V0203401N002112200019N0200001N1+00001-00321100671ADDAA112003091AY171061AY271061GA1001+999999999GF100991001001999999001001KA1999M+00341MD1210371+9999MW1011REMSYN076AAXX  05184 02584 11998 03404 10000 21032 40067 52037 60032 70177 333 10034;
0122025840999992000040521004+58400+019200FM-12+001299999V0202701N001512200019N0200001N1+00031-00401100911ADDGA1001+999999999GF100991001001999999001001MD1110241+9999REMSYN054AAXX  05214 02584 42998 02703 10003 21040 40091 51024;
0122025840999992000040600004+58400+019200FM-12+001299999V0203201N003112200019N0200001N1+00171-00491101141ADDGA1001+999999999GF100991001001999999001001MD1210231+9999REMSYN054AAXX  06004 02584 42998 03206 10017 21049 40114 52023;
0122025840999992000040603004+58400+019200FM-12+001299999V0203401N003612200019N0200001N1+00091-00551101321ADDGA1001+999999999GF100991001001999999001001MD1210181+9999REMSYN054AAXX  06034 02584 42998 03407 10009 21055 40132 52018;
0187025840999992000040606004+58400+019200FM-12+001299999V0203401N003112200019N0200001N1+00161-00581101541ADDAA199000091GA1001+999999999GF100991001001999999001001IA1099KA1120N-00171MD1310221+9999REMSYN070AAXX  06064 02584 32998 03406 10016 21058 40154 53022 333 21017 31///;EQDQ01  00002PRCP99
0122025840999992000040609004+58400+019200FM-12+001299999V0203401N002112200019N0200001N1+00401-00521101711ADDGA1001+999999999GF100991001001999999001001MD1110171+9999REMSYN054AAXX  06094 02584 42998 03404 10040 21052 40171 51017;
0122025840999992000040612004+58400+019200FM-12+001299999V0202901N002112200019N0200001N1+00541-00311101761ADDGA1001+999999999GF100991001001999999001001MD1110051+9999REMSYN054AAXX  06124 02584 42998 02904 10054 21031 40176 51005;
0122025840999992000040615004+58400+019200FM-12+001299999V0202701N002112200019N0200001N1+00451-00241101781ADDGA1001+999999999GF100991001001999999001001MD1110021+9999REMSYN054AAXX  06154 02584 42998 02704 10045 21024 40178 51002;
0175025840999992000040618004+58400+019200FM-12+001299999V0202901N001512200019N0200001N1+00281-00241101891ADDAA199000091GA1001+999999999GF100991001001999999001001KA1999M+00551MD1310111+9999REMSYN064AAXX  06184 02584 32998 02903 10028 21024 40189 53011 333 10055;EQDQ01  00002PRCP99
0122025840999992000040621004+58400+019200FM-12+001299999V0202301N001012200019N0200001N1+00231+00021101961ADDGA1001+999999999GF100991001001999999001001MD1110071+9999REMSYN054AAXX  06214 02584 42998 02302 10023 20002 40196 51007;
0122025840999992000040700004+58400+019200FM-12+001299999V0200201N001012200019N0200001N1+00171-00121102111ADDGA1001+999999999GF100991001001999999001001MD1310151+9999REMSYN054AAXX  07004 02584 42998 00202 10017 21012 40211 53015;
0122025840999992000040703004+58400+019200FM-12+001299999V0200201N001512200019N0200001N1+00221-00241102211ADDGA1001+999999999GF100991001001999999001001MD1210101+9999REMSYN054AAXX  07034 02584 42998 00203 10022 21024 40221 52010;
0187025840999992000040706004+58400+019200FM-12+001299999V0200201N002112200019N0200001N1+00241-00321102341ADDAA199000091GA1001+999999999GF100991001001999999001001IA1149KA1120N-00101MD1210131+9999REMSYN070AAXX  07064 02584 32998 00204 10024 21032 40234 52013 333 21010 34///;EQDQ01  00002PRCP99
0122025840999992000040709004+58400+019200FM-12+001299999V0200201N002112200019N0200001N1+00401-00311102481ADDGA1001+999999999GF100991001001999999001001MD1210141+9999REMSYN054AAXX  07094 02584 42998 00204 10040 21031 40248 52014;
0138025840999992000040712004+58400+019200FM-12+001299999V0203601N002112200019N0200001N1+00481-00251102511ADDGA1011+008009029GF101991011011008001001001MD1110031+9999REMSYN070AAXX  07124 02584 42598 13604 10048 21025 40251 51003 81100 333 81895;
0122025840999992000040715004+58400+019200FM-12+001299999V0203601N002112200019N0200001N1+00371-00211102511ADDGA1001+999999999GF100991001001999999001001MD1010001+9999REMSYN054AAXX  07154 02584 42998 03604 10037 21021 40251 50000;
0175025840999992000040718004+58400+019200FM-12+001299999V0200201N002112200019N0200001N1+00191-00331102551ADDAA199000091GA1001+999999999GF100991001001999999001001KA1999M+00491MD1210041+9999REMSYN064AAXX  07184 02584 32998 00204 10019 21033 40255 52004 333 10049;EQDQ01  00002PRCP99
0122025840999992000040721004+58400+019200FM-12+001299999V0203601N002112200019N0200001N1+00131-00391102571ADDGA1001+999999999GF100991001001999999001001MD1210021+9999REMSYN054AAXX  07214 02584 42998 03604 10013 21039 40257 52002;
0122025840999992000040800004+58400+019200FM-12+001299999V0203601N001512200019N0200001N1+00091-00151102501ADDGA1001+999999999GF100991001001999999001001MD1810071+9999REMSYN054AAXX  08004 02584 42998 03603 10009 21015 40250 58007;
0122025840999992000040803004+58400+019200FM-12+001299999V0203601N002112200019N0200001N1+00121+00021102431ADDGA1001+999999999GF100991001001999999001001MD1710071+9999REMSYN054AAXX  08034 02584 42998 03604 10012 20002 40243 57007;
0187025840999992000040806004+58400+019200FM-12+001299999V0200701N002112200019N0200001N1+00261-00021102441ADDAA199000091GA1001+999999999GF100991001001999999001001IA1149KA1120N+00071MD1310011+9999REMSYN070AAXX  08064 02584 32998 00704 10026 21002 40244 53001 333 20007 34///;EQDQ01  00002PRCP99
0122025840999992000040809004+58400+019200FM-12+001299999V0200501N003112200019N0200001N1+00461-00161102481ADDGA1001+999999999GF100991001001999999001001MD1110041+9999REMSYN054AAXX  08094 02584 42998 00506 10046 21016 40248 51004;
0138025840999992000040812004+58400+019200FM-12+001299999V0200201N003112200019N0200001N1+00481-00301102481ADDGA1011+008009029GF101991011011008001001001MD1410001+9999REMSYN070AAXX  08124 02584 42598 10206 10048 21030 40248 54000 81100 333 81895;
0138025840999992000040815004+58400+019200FM-12+001299999V0200501N003112200019N0200001N1+00401-00291102451ADDGA1011+008009029GF101991011011008001001001MD1610051+9999REMSYN070AAXX  08154 02584 42598 10506 10040 21029 40245 56005 81100 333 81895;
0187025840999992000040818004+58400+019200FM-12+001299999V0200501N002112200019N0200001N1+00191-00351102451ADDAA199000091GA1011+012509059GF101991011051012501001001KA1120M+00511MD1510001+9999REMSYN076AAXX  08184 02584 32698 10504 10019 21035 40245 55000 81500 333 10051 81696;EQDQ01  00002PRCP99
0138025840999992000040821004+58400+019200FM-12+001299999V0200201N003110125019N0200001N1+00261-00241102431ADDGA1081+012509059GF108991081051012501999999MD1810021+9999REMSYN070AAXX  08214 02584 42698 80206 10026 21024 40243 58002 885// 333 88696;
0138025840999992000040900004+58400+019200FM-12+001299999V0200201N002110175019N0200001N1+00231-00161102321ADDGA1081+017509059GF108991081051017501999999MD1810111+9999REMSYN070AAXX  09004 02584 42798 80204 10023 21016 40232 58011 885// 333 88697;
0138025840999992000040903004+58400+019200FM-12+001299999V0203601N002119999999N0100001N1+00161+00061102221ADDGA1071+999999079GF107991071001999999031999MD1710101+9999REMSYN070AAXX  09034 02584 42997 73604 10016 20006 40222 57010 8703/ 333 87399;
0205025840999992000040906004+58400+019200FM-12+001299999V0203601N002119999999N0200001N1+00271+00021102161ADDAA199000091GA1031+025009039GF107991071001999999071999IA1019KA1120N+00141MD1610061+9999REMSYN088AAXX  09064 02584 32998 73604 10027 20002 40216 56006 8707/ 333 20014 30/// 83399 84499;EQDQ01  00002PRCP99
0144025840999992000040909004+58400+019200FM-12+001299999V0200201N00361030001CN0200001N1+00261-00201102101ADDGA1021+008009069GF108991021051008001011999MD1610061+9999REMSYN076AAXX  09094 02584 42598 80207 10026 21020 40210 56006 8251/ 333 82695 88499;
0166025840999992000040912004+58400+019200FM-12+001299999V0200501N003110045019N0200001N1+00241-00081102041ADDAY181061AY221061GA1081+004509069GF108991081061004501999999MD1810061+9999MW1021REMSYN076AAXX  09124 02584 41498 80506 10024 21008 40204 58006 70282 886// 333 88794;
0172025840999992000040915004+58400+019200FM-12+001299999V0200201N00211001501CN0040001N1+00171+00071101951ADDAY151031AY221031GA1061+001509079GF108991061061001501011999MD1710091+9999MW1501REMSYN082AAXX  09154 02584 41296 80204 10017 20007 40195 57009 75052 8661/ 333 86792 88499;
0208025840999992000040918004+58400+019200FM-12+001299999V0200501N00211004501CN0040001N1+00181+00121101871ADDAA112000791AY151061AY221061GA1061+004509079GF108991061061004501011999KA1120M+00311MD1710081+9999MW1021REMSYN094AAXX  09184 02584 11496 80504 10018 20012 40187 57008 69902 70252 8661/ 333 10031 86794 88499;
0138025840999992000040921004+58400+019200FM-12+001299999V0200201N002110045019N0040001N1+00231+00061101811ADDGA1081+004509069GF108991081061004501999999MD1710061+9999REMSYN070AAXX  09214 02584 42496 80204 10023 20006 40181 57006 886// 333 88794;
0138025840999992000041000004+58400+019200FM-12+001299999V0203601N002110045019N0040001N1+00251+00081101701ADDGA1081+004509069GF108991081061004501999999MD1710111+9999REMSYN070AAXX  10004 02584 42496 83604 10025 20008 40170 57011 886// 333 88794;
0138025840999992000041003004+58400+019200FM-12+001299999V0200201N001510045019N0040001N1+00261+00111101651ADDGA1081+004509069GF108991081061004501999999MD1610051+9999REMSYN070AAXX  10034 02584 42496 80203 10026 20011 40165 56005 886// 333 88794;
0199025840999992000041006004+58400+019200FM-12+001299999V0200201N001510045019N0100001N1+00261+00171101611ADDAA199000091GA1081+004509069GF108991081061008001999999IA1099KA1120N+00181MD1710041+9999REMSYN082AAXX  10064 02584 32597 80203 10026 20017 40161 57004 886// 333 20018 31/// 88794;EQDQ01  00002PRCP99
0138025840999992000041009004+58400+019200FM-12+001299999V0200201N001010025019N0200001N1+00321+00221101571ADDGA1081+002509069GF108991081061002501999999MD1710041+9999REMSYN070AAXX  10094 02584 42398 80202 10032 20022 40157 57004 886// 333 88793;
0166025840999992000041012004+58400+019200FM-12+001299999V0200701N001010007519N0010001N1+00291+00251101481ADDAY121061AY221061GA1081+000759069GF108991081071000751999999MD1710091+9999MW1501REMSYN076AAXX  10124 02584 41194 80702 10029 20025 40148 57009 75022 887// 333 88791;
0166025840999992000041015004+58400+019200FM-12+001299999V0200201N000510025019N0010001N1+00291+00231101341ADDAY151031AY251031GA1081+002509069GF108991081071002501999999MD1710141+9999MW1201REMSYN076AAXX  10154 02584 41394 80201 10029 20023 40134 57014 72055 887// 333 88793;
0202025840999992000041018004+58400+019200FM-12+001299999V0201601N001010007519N0010001N1+00251+00191101201ADDAA112000191AY151061AY251061GA1081+000759069GF108991081061000751999999KA1120M+00321MD1710141+9999MW1101REMSYN088AAXX  10184 02584 11194 81602 10025 20019 40120 57014 69922 71055 886// 333 10032 88791;
0150025840999992000041021004+58400+019200FM-12+001299999V0201801N002110003019N0005001N1+00261+00201101121ADDAY121031AY221031GA1091+999999999GF109991091999999999999999MD1810081+9999MW1451REMSYN060AAXX  10214 02584 41/93 91804 10026 20020 40112 58008 74522;
0166025840999992000041103004+58400+019200FM-12+001299999V0201601N001010025019N0020001N1+00221+00151100881ADDAY141031AY241031GA1081+002509069GF108991081061002501999999MD1810131+9999MW1101REMSYN076AAXX  11034 02584 41395 81602 10022 20015 40088 58013 71044 886// 333 88793;
0199025840999992000041106004+58400+019200FM-12+001299999V0201801N001510045019N0200001N1+00251+00021100851ADDAA199000091GA1081+004509059GF108991081051004501999999IA1099KA1120N+00211MD1610031+9999REMSYN082AAXX  11064 02584 32498 81803 10025 20002 40085 56003 885// 333 20021 31/// 88694;EQDQ01  00002PRCP99
0144025840999992000041109004+58400+019200FM-12+001299999V0201401N00261009001CN0200001N1+00501+00041100811ADDGA1011+004509089GF105991051081004501001001MD1610041+9999REMSYN076AAXX  11094 02584 42498 51405 10050 20004 40081 56004 85800 333 81894 84697;
0157025840999992000041112004+58400+019200FM-12+001299999V0201401N002110175019N0200001N1+00541-00081100731ADDGA1061+017509059GF106991061051017501999001MD1810081+9999REMSYN070AAXX  11124 02584 42798 61404 10054 21008 40073 58008 86500 333 86697;EQDQ01+000002SCOMCG
0157025840999992000041115004+58400+019200FM-12+001299999V0201401N001012200019N0200001N1+00541+00001100641ADDGA1031+022509079GF103991031999022501031001MD1610091+9999REMSYN070AAXX  11154 02584 42898 31402 10054 20000 40064 56009 83030 333 83398;EQDQ01+000002SCOLCG
0175025840999992000041118004+58400+019200FM-12+001299999V0201601N001012200019N0200001N1+00351-00061100651ADDAA199000091GA1001+999999999GF100991001001999999001001KA1999M+00661MD1310011+9999REMSYN064AAXX  11184 02584 32998 01602 10035 21006 40065 53001 333 10066;EQDQ01  00002PRCP99
0122025840999992000041121004+58400+019200FM-12+001299999V0201401N002112200019N0200001N1+00321-00071100641ADDGA1001+999999999GF100991001001999999001001MD1810011+9999REMSYN054AAXX  11214 02584 42998 01404 10032 21007 40064 58001;
0138025840999992000041200004+58400+019200FM-12+001299999V0201101N001512200019N0200001N1+00301-00021100531ADDGA1011+999999019GF101991001001999999001011MD1710111+9999REMSYN070AAXX  12004 02584 42998 11103 10030 21002 40053 57011 80001 333 81099;
0138025840999992000041203004+58400+019200FM-12+001299999V0201101N002110125019N0200001N1+00381+00151100401ADDGA1051+012509059GF105991051051012501001001MD1710131+9999REMSYN070AAXX  12034 02584 42698 51104 10038 20015 40040 57013 85500 333 85696;
0220025840999992000041206004+58400+019200FM-12+001299999V0200901N00261004501CN0040001N1+00401+00341100331ADDAA112001091AY121061AY211061GA1071+004509079GF108991071071004501021999IA1099KA1120N+00281MD1710071+9999MW1611REMSYN100AAXX  12064 02584 11496 80905 10040 20034 40033 57007 60012 76121 8772/ 333 20028 31/// 87794 88596;
0172025840999992000041209004+58400+019200FM-12+001299999V0200901N00361002501CN0040001N1+00401+00341100251ADDAY121031AY221031GA1071+002509079GF108991071071002501021999MD1710051+9999MW1611REMSYN082AAXX  12094 02584 41396 80907 10040 20034 40025 57005 76122 8772/ 333 87793 88596;
0166025840999992000041212004+58400+019200FM-12+001299999V0201101N003610045019N0100001N1+00501+00401100131ADDAY161061AY221061GA1081+004509059GF108991081051004501999999MD1710121+9999MW1211REMSYN076AAXX  12124 02584 41497 81107 10050 20040 40013 57012 72162 885// 333 88694;
0138025840999992000041215004+58400+019200FM-12+001299999V0200901N002610045019N0100001N1+00641+00361100021ADDGA1071+004509059GF107991071051004501999999MD1710111+9999REMSYN070AAXX  12154 02584 42497 70905 10064 20036 40002 57011 875// 333 87694;
0174025840999992000041218004+58400+019200FM-12+001299999V0200901N002110175019N0200001N1+00521+00351099971ADDAA112003091GA1081+017509059GF108991081051017501999999KA1120M+00661MD1610051+9999REMSYN082AAXX  12184 02584 12798 80904 10052 20035 49997 56005 60032 885// 333 10066 88697;
0172025840999992000041221004+58400+019200FM-12+001299999V0200901N00211017501CN0010001N1+00391+00321099891ADDAY121031AY221031GA1061+017509069GF108991081031017501999999MD1710081+9999MW1251REMSYN082AAXX  12214 02584 41794 80904 10039 20032 49989 57008 72522 883// 333 86697 82997;
0160025840999992000041300004+58400+019200FM-12+001299999V0201101N002110175019N0020001N1+00571+00421099661ADDAY181061AY221061GA1051+017509099GF105991999999017501999999MD1810211+9999MW1101REMSYN070AAXX  13004 02584 41795 51104 10057 20042 49966 58021 71082 333 85997;
0138025840999992000041303004+58400+019200FM-12+001299999V0200901N00311075001CN0200001N1+00521+00271099401ADDGA1081+999999019GF108991001001999999001071MD1710161+9999REMSYN070AAXX  13034 02584 42998 80906 10052 20027 49940 57016 80007 333 88099;
0205025840999992000041306004+58400+019200FM-12+001299999V0200901N003610225019N0200001N1+00501+00331099141ADDAA112000891GA1081+022509079GF108991081999022501071999IA1099KA1120N+00361MD1810261+9999REMSYN088AAXX  13064 02584 12898 80907 10050 20033 49914 58026 69982 8807/ 333 20036 31/// 88398;EQDQ01+000002SCOLCG
0172025840999992000041309004+58400+019200FM-12+001299999V0201401N00311001501CN0040001N1+00441+00401098971ADDAY121031AY221031GA1071+001509079GF108991071071001501021999MD1610171+9999MW1611REMSYN082AAXX  13094 02584 41296 81406 10044 20040 49897 56017 76122 8772/ 333 87792 88596;
0172025840999992000041312004+58400+019200FM-12+001299999V0201801N00261002501CN0040001N1+00391+00331099031ADDAY121061AY221061GA1071+002509079GF108991071071002501021999MD1310061+9999MW1601REMSYN082AAXX  13124 02584 41396 81805 10039 20033 49903 53006 76022 8772/ 333 87793 88596;
0172025840999992000041315004+58400+019200FM-12+001299999V0201601N00461002501CN0040001N1+00411+00351099061ADDAY161031AY261031GA1071+002509079GF108991071071002501021999MD1110031+9999MW1631REMSYN082AAXX  13154 02584 41396 81609 10041 20035 49906 51003 76366 8772/ 333 87793 88597;
0208025840999992000041318004+58400+019200FM-12+001299999V0201601N00361004501CN0040001N1+00431+00391099071ADDAA112007191AY161061AY261061GA1071+004509079GF108991071071004501021999KA1120M+00521MD1210011+9999MW1631REMSYN094AAXX  13184 02584 11496 81607 10043 20039 49907 52001 60072 76366 8772/ 333 10052 87794 88599;
0172025840999992000041321004+58400+019200FM-12+001299999V0201801N00411030001CN0020001N1+00401+00361099031ADDAY161031AY261031GA1041+004509079GF108991041071004501021999MD1710041+9999MW1631REMSYN082AAXX  13214 02584 41495 81808 10040 20036 49903 57004 76366 8472/ 333 84794 88599;
0172025840999992000041400004+58400+019200FM-12+001299999V0202001N00411030001CN0020001N1+00421+00321098861ADDAY161061AY261061GA1041+002509079GF108991041071002501021999MD1810101+9999MW1631REMSYN082AAXX  14004 02584 41395 82008 10042 20032 49886 58010 76366 8472/ 333 84793 88599;
0172025840999992000041403004+58400+019200FM-12+001299999V0202301N00571030001CN0020001N1+00271+00231098881ADDAY161031AY261031GA1041+001509079GF108991041071001501021999MD1310021+9999MW1631REMSYN082AAXX  14034 02584 41295 82311 10027 20023 49888 53002 76366 8472/ 333 84792 88599;
0220025840999992000041406004+58400+019200FM-12+001299999V0202501N00461030001CN0040001N1+00261+00221099031ADDAA112025991AY161061AY261061GA1041+004509079GF108991041071004501021999IA1099KA1120N+00121MD1210151+9999MW1611REMSYN100AAXX  14064 02584 11496 82509 10026 20022 49903 52015 60262 76166 8472/ 333 20012 31/// 84794 88599;
0166025840999992000041409004+58400+019200FM-12+001299999V0202001N003110025019N0040001N1+00381+00321099161ADDAY161031AY261031GA1081+002509069GF108991081061002501999999MD1210131+9999MW1021REMSYN076AAXX  14094 02584 41396 82006 10038 20032 49916 52013 70266 886// 333 88793;
0166025840999992000041415004+58400+019200FM-12+001299999V0202501N003610125019N0040001N1+00391+00331099451ADDAY121031AY221031GA1081+012509059GF108991081051012501999999MD1210171+9999MW1601REMSYN076AAXX  14154 02584 41696 82507 10039 20033 49945 52017 76022 885// 333 88696;
0208025840999992000041418004+58400+019200FM-12+001299999V0202701N00211002501CN0040001N1+00361+00301099581ADDAA112000591AY121061AY221061GA1071+002509079GF108991071071002501021999KA1120M+00441MD1210131+9999MW1611REMSYN094AAXX  14184 02584 11396 82704 10036 20030 49958 52013 69962 76122 8772/ 333 10044 87793 88596;
0166025840999992000041421004+58400+019200FM-12+001299999V0202301N001510125019N0010001N1+00341+00301099711ADDAY161031AY261031GA1081+012509059GF108991081051012501999999MD1210131+9999MW1101REMSYN076AAXX  14214 02584 41694 82303 10034 20030 49971 52013 71066 885// 333 88696;
0166025840999992000041500004+58400+019200FM-12+001299999V0202301N001512200019N0010001N1+00151+00111099861ADDAY161061AY261061GA1021+008009059GF102991021051008001001001MD1210151+9999MW1101REMSYN076AAXX  15004 02584 41594 22303 10015 20011 49986 52015 71066 82500 333 82695;
0166025840999992000041503004+58400+019200FM-12+001299999V0202301N001010080019N0010001N1+00041+00001099981ADDAY121031AY221031GA1081+008009059GF108991081051008001999999MD1210121+9999MW1101REMSYN076AAXX  15034 02584 41594 82302 10004 20000 49998 52012 71022 885// 333 88695;
0233025840999992000041506004+58400+019200FM-12+001299999V0201801N002110225019N0020001N1+00361+00321100131ADDAA112000591AY121061AY221061GA1051+022509079GF105991051999022501071001IA1099KA1120N+00021MD1210151+9999MW1101REMSYN094AAXX  15064 02584 11895 51804 10036 20032 40013 52015 69942 71022 85070 333 20002 31/// 85398;EQDQ01+000002SCOLCG
0185025840999992000041512004+58400+019200FM-12+001299999V0202001N002110225019N0040001N1+00541+00261100311ADDAY121061AY221061GA1061+022509079GF106991061999022501031001MD1110071+9999MW1101REMSYN076AAXX  15124 02584 41896 62004 10054 20026 40031 51007 71022 86030 333 86398;EQDQ01+000002SCOLCG
0138025840999992000041515004+58400+019200FM-12+001299999V0201801N002112200019N0200001N1+00911+00221100311ADDGA1041+999999089GF104991001001999999001081MD1410001+9999REMSYN070AAXX  15154 02584 42998 41804 10091 20022 40031 54000 80008 333 84299;
0145025840999992000041518004+58400+019200FM-12+001299999V0201801N002612200019N0100001N1+00481+00361100341ADDGA1001+999999999GF100991001001999999001001KA1999M+00911MD1210031+9999REMSYN064AAXX  15184 02584 42997 01805 10048 20036 40034 52003 333 10091;
0122025840999992000041521004+58400+019200FM-12+001299999V0201801N003112200019N0100001N1+00451+00351100421ADDGA1001+999999999GF100991001001999999001001MD1110081+9999REMSYN054AAXX  15214 02584 42997 01806 10045 20035 40042 51008;
0138025840999992000041600004+58400+019200FM-12+001299999V0201801N00261021001CN0100001N1+00551+00341100431ADDGA1021+002109029GF108991081051022501999999MD1210011+9999REMSYN070AAXX  16004 02584 42897 81805 10055 20034 40043 52001 885// 333 82507;
0138025840999992000041603004+58400+019200FM-12+001299999V0201801N002110175019N0100001N1+00551+00321100441ADDGA1081+017509059GF108991081051017501999999MD1210011+9999REMSYN070AAXX  16034 02584 42797 81804 10055 20032 40044 52001 885// 333 88697;
0199025840999992000041606004+58400+019200FM-12+001299999V0201601N000510175019N0100001N1+00621+00411100441ADDAA199000091GA1081+017509059GF108991081051017501999999IA1099KA1120N+00431MD1410001+9999REMSYN082AAXX  16064 02584 32797 81601 10062 20041 40044 54000 885// 333 20043 31/// 88697;EQDQ01  00002PRCP99
0138025840999992000041609004+58400+019200FM-12+001299999V0200901N002112200019N0200001N1+00781+00481100381ADDGA1021+999999079GF102991021001999999031001MD1710061+9999REMSYN070AAXX  16094 02584 42998 20904 10078 20048 40038 57006 82030 333 82399;
0138025840999992000041612004+58400+019200FM-12+001299999V0200701N003112200019N0200001N1+00721+00311100281ADDGA1031+999999079GF103991031001999999031001MD1710101+9999REMSYN070AAXX  16124 02584 42998 30706 10072 20031 40028 57010 83030 333 83399;
0138025840999992000041615004+58400+019200FM-12+001299999V0200901N003119999999N0200001N1+00721+00281100181ADDGA1061+999999079GF106991061001999999071001MD1710101+9999REMSYN070AAXX  16154 02584 42998 60906 10072 20028 40018 57010 86070 333 86399;
0187025840999992000041618004+58400+019200FM-12+001299999V0200901N002610125019N0200001N1+00581+00381100191ADDAA199000091GA1081+012509059GF108991081051012501999999KA1120M+00921MD1610011+9999REMSYN076AAXX  16184 02584 32698 80905 10058 20038 40019 56001 885// 333 10092 88696;EQDQ01  00002PRCP99
0172025840999992000041621004+58400+019200FM-12+001299999V0201801N00101030001CN0100001N1+00531+00471100071ADDAY121031AY221031GA1041+004509079GF108991041071004501021999MD1810121+9999MW1601REMSYN082AAXX  16214 02584 41497 81802 10053 20047 40007 58012 76022 8472/ 333 84794 88597;
0150025840999992000041700004+58400+019200FM-12+001299999V0202501N003110003019N0002001N1+00381+00341100181ADDAY161061AY261061GA1091+999999999GF109991091999999999999999MD1310111+9999MW1451REMSYN060AAXX  17004 02584 41/92 92506 10038 20034 40018 53011 74566;
0150025840999992000041703004+58400+019200FM-12+001299999V0202501N003110003019N0002001N1+00281+00241100321ADDAY141031AY241031GA1091+999999999GF109991091999999999999999MD1210141+9999MW1451REMSYN060AAXX  17034 02584 41/92 92506 10028 20024 40032 52014 74544;
0214025840999992000041706004+58400+019200FM-12+001299999V0202501N003110025019N0020001N1+00411+00351100591ADDAA112002091AY141061AY241061GA1051+002509069GF105991051061002501001001IA1099KA1120N+00261MD1310271+9999MW1101REMSYN094AAXX  17064 02584 11395 52506 10041 20035 40059 53027 60022 71044 85600 333 20026 31/// 85793;
0122025840999992000041709004+58400+019200FM-12+001299999V0202301N002612200019N0100001N1+00611+00441100821ADDGA1001+999999999GF100991001001999999001001MD1210231+9999REMSYN054AAXX  17094 02584 42997 02305 10061 20044 40082 52023;
0122025840999992000041712004+58400+019200FM-12+001299999V0202301N002112200019N0200001N1+00821+00421100901ADDGA1001+999999999GF100991001001999999001001MD1110081+9999REMSYN054AAXX  17124 02584 42998 02304 10082 20042 40090 51008;
0138025840999992000041715004+58400+019200FM-12+001299999V0201801N001512200019N0200001N1+01021+00391100991ADDGA1011+999999019GF101991001001999999001011MD1210091+9999REMSYN070AAXX  17154 02584 42998 11803 10102 20039 40099 52009 80001 333 81099;
0187025840999992000041718004+58400+019200FM-12+001299999V0201801N002112200019N0200001N1+00591+00341101031ADDAA199000091GA1041+999999019GF104991001001999999001021KA1120M+01041MD1210041+9999REMSYN076AAXX  17184 02584 32998 41804 10059 20034 40103 52004 80002 333 10104 84099;EQDQ01  00002PRCP99
0173025840999992000041721004+58400+019200FM-12+001299999V0201001N999992200019N0400001N1+00471+00381101051ADDGA1021+999999019GF199999001001999999001011MD1210021+9999REMSYN070AAXX  17214 02584 2/982 16040 10047 20038 40105 52002 80001 333 82099;EQDQ01+007203WOSPD Q02+000012SCOTCV
0138025840999992000041800004+58400+019200FM-12+001299999V0201601N00311075001CN0200001N1+00651+00301100991ADDGA1081+999999019GF108991081001999999011999MD1710061+9999REMSYN070AAXX  18004 02584 42998 81606 10065 20030 40099 57006 8801/ 333 88499;
0138025840999992000041803004+58400+019200FM-12+001299999V0201401N003119999999N0200001N1+00661+00481100841ADDGA1061+999999079GF106991061001999999071001MD1710151+9999REMSYN070AAXX  18034 02584 42998 61406 10066 20048 40084 57015 86070 333 86399;
0199025840999992000041806004+58400+019200FM-12+001299999V0201601N003119999999N0200001N1+00761+00341100851ADDAA199000091GA1061+999999079GF106991061001999999071001IA1099KA1120N+00431MD1210011+9999REMSYN082AAXX  18064 02584 32998 61606 10076 20034 40085 52001 86070 333 20043 31/// 86399;EQDQ01  00002PRCP99
0138025840999992000041809004+58400+019200FM-12+001299999V0201801N002619999999N0200001N1+00761+00481100991ADDGA1071+999999079GF107991071001999999071999MD1210141+9999REMSYN070AAXX  18094 02584 42998 71805 10076 20048 40099 52014 8707/ 333 87399;
0138025840999992000041812004+58400+019200FM-12+001299999V0202501N001510080019N0200001N1+00581+00401101161ADDGA1071+008009059GF107991071051008001999999MD1210171+9999REMSYN070AAXX  18124 02584 42598 72503 10058 20040 40116 52017 875// 333 87695;
0112025840999992000041815004+58400+019200FM-12+001299999V0202501N001010210019N0200001N1+00621+00501101241ADDGF108991081051022501999999MD1210081+9999REMSYN060AAXX  18154 02584 42898 82502 10062 20050 40124 52008 885//;
0202025840999992000041818004+58400+019200FM-12+001299999V0202001N000519999999N0100001N1+00501+00411101351ADDAA112000791AY121061AY221061GA1081+999999079GF108991081001999999071999KA1120M+00761MD1210111+9999MW1211REMSYN088AAXX  18184 02584 11997 82001 10050 20041 40135 52011 69902 72122 8807/ 333 10076 88399;
0138025840999992000041821004+58400+019200FM-12+001299999V0202301N001519999999N0100001N1+00471+00401101461ADDGA1051+999999079GF105991051001999999031001MD1210111+9999REMSYN070AAXX  18214 02584 42997 52303 10047 20040 40146 52011 85030 333 85399;
0150025840999992000041900004+58400+019200FM-12+001299999V0202301N000512200019N0020001N1+00171+00111101551ADDAY121061AY221061GA1001+999999999GF100991001001999999001001MD1210091+9999MW1101REMSYN060AAXX  19004 02584 41995 02301 10017 20011 40155 52009 71022;
0166025840999992000041903004+58400+019200FM-12+001299999V0200701N000512200019N0040001N1+00071+00041101571ADDAY121031AY221031GA1021+999999019GF102991001001999999001011MD1110021+9999MW1101REMSYN076AAXX  19034 02584 41996 20701 10007 20004 40157 51002 71022 80001 333 82099;
0208025840999992000041906004+58400+019200FM-12+001299999V0200501N000519999999N0040001N1+00581+00541101651ADDAA199000021AY121061AY221061GA1061+999999079GF106991061001999999031001IA1099KA1120N+00051MD1310081+9999MW1101REMSYN088AAXX  19064 02584 31996 60501 10058 20054 40165 53008 71022 86030 333 20005 31/// 86399;
0166025840999992000041909004+58400+019200FM-12+001299999V0200901N001012200019N0200001N1+01011+00551101761ADDAY101031AY211031GA1021+999999019GF102991001001999999001011MD1210111+9999MW1001REMSYN076AAXX  19094 02584 42998 20902 10101 20055 40176 52011 70001 80001 333 82099;
0138025840999992000041912004+58400+019200FM-12+001299999V0200901N001012200019N0200001N1+01111+00571101741ADDGA1021+999999019GF102991001001999999001011MD1810021+9999REMSYN070AAXX  19124 02584 42998 20902 10111 20057 40174 58002 80001 333 82099;
0122025840999992000041915004+58400+019200FM-12+001299999V0200701N001012200019N0100001N1+00751+00461101691ADDGA1001+999999999GF100991001001999999001001MD1810051+9999REMSYN054AAXX  19154 02584 42997 00702 10075 20046 40169 58005;
0187025840999992000041918004+58400+019200FM-12+001299999V0200901N00211075001CN0100001N1+00531+00431101591ADDAA199000091GA1061+999999019GF106991001001999999001011KA1120M+01131MD1710101+9999REMSYN076AAXX  19184 02584 32997 60904 10053 20043 40159 57010 80001 333 10113 86099;EQDQ01  00002PRCP99
0138025840999992000041921004+58400+019200FM-12+001299999V0200901N002112200019N0100001N1+00551+00451101491ADDGA1041+999999019GF104991001001999999001011MD1710101+9999REMSYN070AAXX  19214 02584 42997 40904 10055 20045 40149 57010 80001 333 84099;
0122025840999992000042000004+58400+019200FM-12+001299999V0201601N002612200019N0200001N1+01161+00491101391ADDGA1001+999999999GF100991001001999999001001MD1710101+9999REMSYN054AAXX  20004 02584 42998 01605 10116 20049 40139 57010;
0138025840999992000042003004+58400+019200FM-12+001299999V0201801N002612200019N0200001N1+00581+00401101401ADDGA1031+999999099GF103991001001999999001091MD1210011+9999REMSYN070AAXX  20034 02584 42998 31805 10058 20040 40140 52001 80009 333 83199;
0199025840999992000042006004+58400+019200FM-12+001299999V0201101N000512200019N0200001N1+01031+00641101291ADDAA199000091GA1041+999999099GF104991001001999999001091IA1099KA1120N+00521MD1810111+9999REMSYN082AAXX  20064 02584 32998 41101 10103 20064 40129 58011 80009 333 20052 31/// 84199;EQDQ01  00002PRCP99
0166025840999992000042009004+58400+019200FM-12+001299999V0209999V000512200019N0100001N1+01211+01121101361ADDAY181031AY211031GA1041+999999079GF104991041001999999031001MD1210071+9999MW1021REMSYN076AAXX  20094 02584 41997 49901 10121 20112 40136 52007 70281 84030 333 84399;
0166025840999992000042012004+58400+019200FM-12+001299999V0203201N000510045019N0100001N1+00891+00451101461ADDAY181061AY211061GA1071+004509059GF107991071051004501999999MD1210101+9999MW1031REMSYN076AAXX  20124 02584 41497 73201 10089 20045 40146 52010 70381 875// 333 87694;
0122025840999992000042015004+58400+019200FM-12+001299999V0200501N000512200019N0100001N1+00921+00501101501ADDGA1001+999999999GF100991001001999999001001MD1210041+9999REMSYN054AAXX  20154 02584 42997 00501 10092 20050 40150 52004;
0162025840999992000042018004+58400+019200FM-12+001299999V0203201N000512200019N0100001N1+00641+00461101581ADDAA112000391GA1001+999999999GF100991001001999999001001KA1999M+01291MD1310081+9999REMSYN070AAXX  20184 02584 12997 03201 10064 20046 40158 53008 69932 333 10129;
0122025840999992000042021004+58400+019200FM-12+001299999V0200201N001012200019N0100001N1+00481+00421101721ADDGA1001+999999999GF100991001001999999001001MD1210141+9999REMSYN054AAXX  20214 02584 42997 00202 10048 20042 40172 52014;
0150025840999992000042103004+58400+019200FM-12+001299999V0202701N000512200019N0040001N1+00081+00051101801ADDAY101031AY201031GA1001+999999999GF100991001001999999001001MD1210011+9999MW1101REMSYN060AAXX  21034 02584 41996 02701 10008 20005 40180 52001 71000;
0187025840999992000042106004+58400+019200FM-12+001299999V0202001N000512200019N0100001N1+00721+00661101821ADDAA199000091GA1001+999999999GF100991001001999999001001IA1019KA1120N+00061MD1210021+9999REMSYN070AAXX  21064 02584 32997 02001 10072 20066 40182 52002 333 20006 30///;EQDQ01  00002PRCP99
0122025840999992000042109004+58400+019200FM-12+001299999V0209999C000012200019N0500001N1+01261+00541101851ADDGA1001+999999999GF100991001001999999001001MD1210031+9999REMSYN054AAXX  21094 02584 42999 00000 10126 20054 40185 52003;
0122025840999992000042112004+58400+019200FM-12+001299999V0209999V001512200019N0500001N1+01451+00471101781ADDGA1001+999999999GF100991001001999999001001MD1710071+9999REMSYN054AAXX  21124 02584 42999 09903 10145 20047 40178 57007;
0122025840999992000042115004+58400+019200FM-12+001299999V0201801N002112200019N0200001N1+01181+00331101681ADDGA1001+999999999GF100991001001999999001001MD1810101+9999REMSYN054AAXX  21154 02584 42998 01804 10118 20033 40168 58010;
0175025840999992000042118004+58400+019200FM-12+001299999V0201601N002112200019N0200001N1+00771+00511101581ADDAA199000091GA1001+999999999GF100991001001999999001001KA1999M+01471MD1710101+9999REMSYN064AAXX  21184 02584 32998 01604 10077 20051 40158 57010 333 10147;EQDQ01  00002PRCP99
0157025840999992000042121004+58400+019200FM-12+001299999V0201801N003112200019N0100001N1+00661+00571101581ADDGA1021+022509059GF102991021051022501999001MD1410001+9999REMSYN070AAXX  21214 02584 42897 21806 10066 20057 40158 54000 82500 333 82698;EQDQ01+000002SCOMCG
0150025840999992000042200004+58400+019200FM-12+001299999V0201601N003112200019N0040001N1+00701+00611101511ADDAY101061AY201061GA1001+999999999GF100991001001999999001001MD1710071+9999MW1101REMSYN060AAXX  22004 02584 41996 01606 10070 20061 40151 57007 71000;
0185025840999992000042203004+58400+019200FM-12+001299999V0202301N003110225019N0040001N1+00671+00601101521ADDAY101031AY201031GA1071+022509079GF107991071999022501071999MD1210011+9999MW1101REMSYN076AAXX  22034 02584 41896 72306 10067 20060 40152 52001 71000 8707/ 333 87398;EQDQ01+000002SCOLCG
0243025840999992000042206004+58400+019200FM-12+001299999V0202501N002112200019N0040001N1+00681+00581101601ADDAA199000091AY121061AY201061GA1041+022509079GF104991041999022501071001IA1099KA1120N+00621MD1210081+9999MW1101REMSYN088AAXX  22064 02584 31896 42504 10068 20058 40160 52008 71020 84070 333 20062 31/// 84398;EQDQ01+000002SCOLCGQ02  00002PRCP99
0138025840999992000042209004+58400+019200FM-12+001299999V0202701N001512200019N0100001N1+01071+00651101761ADDGA1031+999999019GF103991001001999999001011MD1210161+9999REMSYN070AAXX  22094 02584 42997 32703 10107 20065 40176 52016 80001 333 83099;
0138025840999992000042215004+58400+019200FM-12+001299999V0202501N002612200019N0100001N1+00981+00701101791ADDGA1031+012509059GF103991031051012501001001MD1710061+9999REMSYN070AAXX  22154 02584 42697 32505 10098 20070 40179 57006 83500 333 83696;
0187025840999992000042218004+58400+019200FM-12+001299999V0202301N002612200019N0100001N1+00861+00701101801ADDAA199000091GA1031+999999019GF103991001001999999001011KA1120M+01091MD1610011+9999REMSYN076AAXX  22184 02584 32997 32305 10086 20070 40180 56001 80001 333 10109 83099;EQDQ01  00002PRCP99
0122025840999992000042221004+58400+019200FM-12+001299999V0202001N003112200019N0100001N1+00791+00681101881ADDGA1001+999999999GF100991001001999999001001MD1310081+9999REMSYN054AAXX  22214 02584 42997 02006 10079 20068 40188 53008;
0150025840999992000042300004+58400+019200FM-12+001299999V0202001N002112200019N0040001N1+00681+00611101831ADDAY121061AY221061GA1001+999999999GF100991001001999999001001MD1810051+9999MW1101REMSYN060AAXX  23004 02584 41996 02004 10068 20061 40183 58005 71022;
0138025840999992000042303004+58400+019200FM-12+001299999V0201601N002112200019N0040001N1+00521+00461101791ADDGA1041+999999079GF104991041001999999071001MD1710041+9999REMSYN070AAXX  23034 02584 42996 41604 10052 20046 40179 57004 84070 333 84399;
0205025840999992000042306004+58400+019200FM-12+001299999V0201401N002619999999N0200001N1+00981+00601101691ADDAA199000091GA1031+025009039GF105991031001999999071011IA1019KA1120N+00461MD1810101+9999REMSYN088AAXX  23064 02584 32998 51405 10098 20060 40169 58010 83071 333 20046 30/// 83399 83099;EQDQ01  00002PRCP99
0145025840999992000042309004+58400+019200FM-12+001299999V0201401N003112200019N0200001N1+01381+00491101511ADDGF102991001001999999001011MD1710181+9999SA1+0999UA1M099999999REMSYN072AAXX  23094 02584 42998 21406 10138 20049 40151 57018 80001 222// 02099;
0138025840999992000042312004+58400+019200FM-12+001299999V0201601N004119999999N0200001N1+01421+00701101311ADDGA1081+999999089GF108991001001999999001071MD1710201+9999REMSYN070AAXX  23124 02584 42998 81608 10142 20070 40131 57020 80007 333 88299;
0138025840999992000042315004+58400+019200FM-12+001299999V0201601N003612200019N0200001N1+01481+00811101071ADDGA1011+999999099GF101991001001999999001091MD1710241+9999REMSYN070AAXX  23154 02584 42998 11607 10148 20081 40107 57024 80009 333 81199;
0187025840999992000042318004+58400+019200FM-12+001299999V0201801N005112200019N0200001N1+01491+00651100991ADDAA199000091GA1031+999999019GF103991001001999999001011KA1120M+01531MD1610081+9999REMSYN076AAXX  23184 02584 32998 31810 10149 20065 40099 56008 80001 333 10153 83099;EQDQ01  00002PRCP99
0122025840999992000042321004+58400+019200FM-12+001299999V0201801N004112200019N0200001N1+01421+00631101001ADDGA1001+999999999GF100991001001999999001001MD1210011+9999REMSYN054AAXX  23214 02584 42998 01808 10142 20063 40100 52001;
0122025840999992000042400004+58400+019200FM-12+001299999V0201801N005112200019N0200001N1+01471+00701100981ADDGA1001+999999999GF100991001001999999001001MD1710021+9999REMSYN054AAXX  24004 02584 42998 01810 10147 20070 40098 57002;
0138025840999992000042403004+58400+019200FM-12+001299999V0202001N003112200019N0200001N1+00791+00571101001ADDGA1021+999999019GF102991001001999999001011MD1210081+9999REMSYN070AAXX  24034 02584 42998 22006 10079 20057 40100 52008 80001 333 82099;
0199025840999992000042406004+58400+019200FM-12+001299999V0202001N001512200019N0200001N1+01041+00671101031ADDAA199000091GA1031+999999019GF103991001001999999001011IA1019KA1120N+00721MD1210131+9999REMSYN082AAXX  24064 02584 32998 32003 10104 20067 40103 52013 80001 333 20072 30/// 83099;EQDQ01  00002PRCP99
0138025840999992000042409004+58400+019200FM-12+001299999V0200501N000519999999N0200001N1+01051+00511101141ADDGA1081+999999089GF108991001001999999001071MD1310111+9999REMSYN070AAXX  24094 02584 42998 80501 10105 20051 40114 53011 80007 333 88299;
0122025840999992000042415004+58400+019200FM-12+001299999V0201601N001012200019N0200001N1+01761+00611100951ADDGA1001+999999999GF100991001001999999001001MD1710141+9999REMSYN054AAXX  24154 02584 42998 01602 10176 20061 40095 57014;
0175025840999992000042418004+58400+019200FM-12+001299999V0201801N002612200019N0200001N1+01521+00521100921ADDAA199000091GA1001+999999999GF100991001001999999001001KA1999M+02041MD1610031+9999REMSYN064AAXX  24184 02584 32998 01805 10152 20052 40092 56003 333 10204;EQDQ01  00002PRCP99
0122025840999992000042421004+58400+019200FM-12+001299999V0201601N003112200019N0200001N1+01101+00601100881ADDGA1001+999999999GF100991001001999999001001MD1710041+9999REMSYN054AAXX  24214 02584 42998 01606 10110 20060 40088 57004;
0122025840999992000042500004+58400+019200FM-12+001299999V0201801N003112200019N0200001N1+01461+00591100761ADDGA1001+999999999GF100991001001999999001001MD1810121+9999REMSYN054AAXX  25004 02584 42998 01806 10146 20059 40076 58012;
0122025840999992000042503004+58400+019200FM-12+001299999V0201801N003112200019N0200001N1+01181+00871100641ADDGA1001+999999999GF100991001001999999001001MD1710121+9999REMSYN054AAXX  25034 02584 42998 01806 10118 20087 40064 57012;
0215025840999992000042506004+58400+019200FM-12+001299999V0201801N004112200019N0200001N1+01041+00881100601ADDAA199000091GA1021+022509079GF102991021999022501071001IA1019KA1120N+01041MD1610041+9999REMSYN082AAXX  25064 02584 32898 21808 10104 20088 40060 56004 82070 333 20104 30/// 82398;EQDQ01+000002SCOLCGQ02  00002PRCP99
0144025840999992000042509004+58400+019200FM-12+001299999V0202901N002119999999N0100001N1+00771+00651100831ADDGA1041+001509079GF106991041061999999001011MD1310131+9999REMSYN076AAXX  25094 02584 42997 62904 10077 20065 40083 53013 84601 333 84792 84099;
0172025840999992000042512004+58400+019200FM-12+001299999V0202701N00261030001CN0040001N1+00841+00621101211ADDAY121061AY221061GA1021+008009099GF107991021031008001071999MD1210381+9999MW1101REMSYN082AAXX  25124 02584 41596 72705 10084 20062 40121 52038 71022 8237/ 333 82995 86399;
0138025840999992000042515004+58400+019200FM-12+001299999V0202901N000512200019N0200001N1+01111+00731101451ADDGA1021+999999019GF102991001001999999001011MD1210241+9999REMSYN070AAXX  25154 02584 42998 22901 10111 20073 40145 52024 80001 333 82099;
0187025840999992000042518004+58400+019200FM-12+001299999V0209999V000512200019N0100001N1+00761+00591101591ADDAA199000091GA1021+999999019GF102991001001999999001011KA1120M+01131MD1210141+9999REMSYN076AAXX  25184 02584 32997 29901 10076 20059 40159 52014 80001 333 10113 82099;EQDQ01  00002PRCP99
0122025840999992000042521004+58400+019200FM-12+001299999V0201801N001012200019N0040001N1+00341+00311101701ADDGA1001+999999999GF100991001001999999001001MD1210111+9999REMSYN054AAXX  25214 02584 42996 01802 10034 20031 40170 52011;
0138025840999992000042600004+58400+019200FM-12+001299999V0201801N001512200019N0040001N1+00351+00321101771ADDGA1021+008009059GF102991021051008001001001MD1210071+9999REMSYN070AAXX  26004 02584 42596 21803 10035 20032 40177 52007 82500 333 82695;
0166025840999992000042603004+58400+019200FM-12+001299999V0202501N001510080019N0040001N1+00401+00361101781ADDAY101031AY201031GA1051+008009059GF105991051051008001001001MD1210011+9999MW1101REMSYN076AAXX  26034 02584 41596 52503 10040 20036 40178 52001 71000 85500 333 85695;
0138025840999992000042609004+58400+019200FM-12+001299999V0203601N000512200019N0200001N1+01101+00431101931ADDGA1041+999999019GF104991001001999999001011MD1310051+9999REMSYN070AAXX  26094 02584 42998 43601 10110 20043 40193 53005 80001 333 84099;
0138025840999992000042612004+58400+019200FM-12+001299999V0200501N000512200019N0200001N1+01021+00441102031ADDGA1011+999999019GF101991001001999999001011MD1110101+9999REMSYN070AAXX  26124 02584 42998 10501 10102 20044 40203 51010 80001 333 81099;
0138025840999992000042615004+58400+019200FM-12+001299999V0200501N000512200019N0200001N1+00981+00401102021ADDGA1011+999999019GF101991001001999999001011MD1410001+9999REMSYN070AAXX  26154 02584 42998 10501 10098 20040 40202 54001 80001 333 81099;
0187025840999992000042618004+58400+019200FM-12+001299999V0209999C000012200019N0200001N1+00741+00441102041ADDAA199000091GA1011+999999019GF101991001001999999001011KA1120M+01161MD1310021+9999REMSYN076AAXX  26184 02584 32998 10000 10074 20044 40204 53002 80001 333 10116 81099;EQDQ01  00002PRCP99
0150025840999992000042621004+58400+019200FM-12+001299999V0200901N001512200019N0040001N1+00341+00271102141ADDAY101031AY201031GA1001+999999999GF100991001001999999001001MD1310101+9999MW1101REMSYN060AAXX  26214 02584 41996 00903 10034 20027 40214 53010 71000;
0150025840999992000042700004+58400+019200FM-12+001299999V0200701N001512200019N0040001N1+00381+00321102221ADDAY101061AY201061GA1001+999999999GF100991001001999999001001MD1210081+9999MW1101REMSYN060AAXX  27004 02584 41996 00703 10038 20032 40222 52008 71000;
0150025840999992000042703004+58400+019200FM-12+001299999V0200901N002112200019N0040001N1+00421+00361102231ADDAY101031AY201031GA1001+999999999GF100991001001999999001001MD1110011+9999MW1101REMSYN060AAXX  27034 02584 41996 00904 10042 20036 40223 51001 71000;
0199025840999992000042706004+58400+019200FM-12+001299999V0200901N001512200019N0200001N1+00881+00551102251ADDAA199000091GA1031+999999019GF103991001001999999001011IA1019KA1120N+00341MD1210021+9999REMSYN082AAXX  27064 02584 32998 30903 10088 20055 40225 52002 80001 333 20034 30/// 83099;EQDQ01  00002PRCP99
0138025840999992000042709004+58400+019200FM-12+001299999V0200901N002112200019N0200001N1+01001+00441102281ADDGA1031+999999079GF103991031001999999031001MD1210031+9999REMSYN070AAXX  27094 02584 42998 30904 10100 20044 40228 52003 83030 333 83399;
0138025840999992000042712004+58400+019200FM-12+001299999V0201401N002112200019N0200001N1+01441+00011102251ADDGA1021+999999019GF102991001001999999001011MD1810031+9999REMSYN070AAXX  27124 02584 42998 21404 10144 20001 40225 58003 80001 333 82099;
0138025840999992000042715004+58400+019200FM-12+001299999V0201601N001012200019N0200001N1+01521+00491102191ADDGA1021+999999019GF102991001001999999001011MD1810061+9999REMSYN070AAXX  27154 02584 42998 21602 10152 20049 40219 58006 80001 333 82099;
0187025840999992000042718004+58400+019200FM-12+001299999V0201601N00051075001CN0200001N1+01061+00371102231ADDAA199000091GA1051+999999019GF105991001001999999001011KA1120M+01541MD1310041+9999REMSYN076AAXX  27184 02584 32998 51601 10106 20037 40223 53004 80001 333 10154 85099;EQDQ01  00002PRCP99
0122025840999992000042721004+58400+019200FM-12+001299999V0201601N001512200019N0200001N1+00751+00561102291ADDGA1001+999999999GF100991001001999999001001MD1110061+9999REMSYN054AAXX  27214 02584 42998 01603 10075 20056 40229 51006;
0138025840999992000042803004+58400+019200FM-12+001299999V0201401N00101075001CN0100001N1+00461+00391102331ADDGA1061+999999019GF106991001001999999001011MD1010011+9999REMSYN070AAXX  28034 02584 42997 61402 10046 20039 40233 50001 80001 333 86099;
0199025840999992000042806004+58400+019200FM-12+001299999V0200701N002110175019N0200001N1+00861+00481102411ADDAA199000091GA1071+017509059GF107991071051017501999999IA1019KA1120N+00461MD1310081+9999REMSYN082AAXX  28064 02584 32798 70704 10086 20048 40241 53008 875// 333 20046 30/// 87697;EQDQ01  00002PRCP99
0138025840999992000042809004+58400+019200FM-12+001299999V0200701N00211075001CN0200001N1+01251+00551102461ADDGA1051+999999019GF105991001001999999001011MD1310051+9999REMSYN070AAXX  28094 02584 42998 50704 10125 20055 40246 53005 80001 333 85099;
0138025840999992000042812004+58400+019200FM-12+001299999V0200901N00261075001CN0200001N1+01221+00421102491ADDGA1051+999999019GF105991001001999999001011MD1010031+9999REMSYN070AAXX  28124 02584 42998 50905 10122 20042 40249 50003 80001 333 85099;
0138025840999992000042815004+58400+019200FM-12+001299999V0201101N002112200019N0200001N1+01121+00431102481ADDGA1041+999999019GF104991001001999999001011MD1410001+9999REMSYN070AAXX  28154 02584 42998 41104 10112 20043 40248 54001 80001 333 84099;
0187025840999992000042818004+58400+019200FM-12+001299999V0200201N003119999999N0200001N1+01021+00461102481ADDAA199000091GA1081+999999079GF108991081001999999071999KA1120M+01581MD1410001+9999REMSYN076AAXX  28184 02584 32998 80206 10102 20046 40248 54000 8807/ 333 10158 88399;EQDQ01  00002PRCP99
0138025840999992000042821004+58400+019200FM-12+001299999V0200901N002119999999N0200001N1+01001+00561102491ADDGA1081+999999079GF108991081001999999071999MD1310011+9999REMSYN070AAXX  28214 02584 42998 80904 10100 20056 40249 53001 8807/ 333 88399;
0122025840999992000042900004+58400+019200FM-12+001299999V0200901N002112200019N0100001N1+00761+00601102521ADDGA1001+999999999GF100991001001999999001001MD1310031+9999REMSYN054AAXX  29004 02584 42997 00904 10076 20060 40252 53003;
0122025840999992000042903004+58400+019200FM-12+001299999V0201101N003112200019N0100001N1+00901+00281102461ADDGA1001+999999999GF100991001001999999001001MD1810061+9999REMSYN054AAXX  29034 02584 42997 01106 10090 20028 40246 58006;
0187025840999992000042906004+58400+019200FM-12+001299999V0200901N002112200019N0200001N1+00981+00691102451ADDAA199000091GA1001+999999999GF100991001001999999001001IA1019KA1120N+00701MD1510011+9999REMSYN070AAXX  29064 02584 32998 00904 10098 20069 40245 55001 333 20070 30///;EQDQ01  00002PRCP99
0122025840999992000042909004+58400+019200FM-12+001299999V0200901N002112200019N0200001N1+01301+00601102491ADDGA1001+999999999GF100991001001999999001001MD1310041+9999REMSYN054AAXX  29094 02584 42998 00904 10130 20060 40249 53004;
0122025840999992000042912004+58400+019200FM-12+001299999V0200901N002112200019N0200001N1+01981+00941102391ADDGA1001+999999999GF100991001001999999001001MD1810101+9999REMSYN054AAXX  29124 02584 42998 00904 10198 20094 40239 58010;
0122025840999992000042915004+58400+019200FM-12+001299999V0201101N000512200019N0200001N1+01721+00671102321ADDGA1001+999999999GF100991001001999999001001MD1710071+9999REMSYN054AAXX  29154 02584 42998 01101 10172 20067 40232 57007;
0187025840999992000042918004+58400+019200FM-12+001299999V0201801N000512200019N0200001N1+01041+00461102321ADDAA199000091GA1021+999999019GF102991001001999999001011KA1120M+02151MD1510001+9999REMSYN076AAXX  29184 02584 32998 21801 10104 20046 40232 55000 80001 333 10215 82099;EQDQ01  00002PRCP99
0122025840999992000042921004+58400+019200FM-12+001299999V0201801N002112200019N0200001N1+00891+00731102331ADDGA1001+999999999GF100991001001999999001001MD1410001+9999REMSYN054AAXX  29214 02584 42998 01804 10089 20073 40233 54001;
0122025840999992000043000004+58400+019200FM-12+001299999V0202301N001012200019N0200001N1+01081+00891102361ADDGA1001+999999999GF100991001001999999001001MD1110031+9999REMSYN054AAXX  30004 02584 42998 02302 10108 20089 40236 51003;
0166025840999992000043003004+58400+019200FM-12+001299999V0200201N001012200019N0040001N1+00761+00681102391ADDAY101031AY201031GA1011+999999019GF101991001001999999001011MD1110031+9999MW1101REMSYN076AAXX  30034 02584 41996 10202 10076 20068 40239 51003 71000 80001 333 81099;
0199025840999992000043006004+58400+019200FM-12+001299999V0200701N001012200019N0200001N1+01321+00921102431ADDAA199000091GA1011+999999019GF101991001001999999001011IA1019KA1120N+00761MD1310041+9999REMSYN082AAXX  30064 02584 32998 10702 10132 20092 40243 53004 80001 333 20076 30/// 81099;EQDQ01  00002PRCP99
0138025840999992000043012004+58400+019200FM-12+001299999V0200901N002612200019N0200001N1+01021+00621102631ADDGA1031+999999019GF103991001001999999001011MD1310201+9999REMSYN070AAXX  30124 02584 42998 30905 10102 20062 40263 53020 80001 333 83099;
0138025840999992000043015004+58400+019200FM-12+001299999V0200701N003112200019N0200001N1+00911+00431102611ADDGA1011+999999019GF101991001001999999001011MD1810021+9999REMSYN070AAXX  30154 02584 42998 10706 10091 20043 40261 58002 80001 333 81099;
0175025840999992000043018004+58400+019200FM-12+001299999V0200901N003112200019N0200001N1+00721+00301102631ADDAA199000091GA1001+999999999GF100991001001999999001001KA1999M+01401MD1310021+9999REMSYN064AAXX  30184 02584 32998 00906 10072 20030 40263 53002 333 10140;EQDQ01  00002PRCP99
0138025840999992000043021004+58400+019200FM-12+001299999V0200701N003112200019N0200001N1+00621+00301102751ADDGA1031+999999019GF103991001001999999001021MD1310121+9999REMSYN070AAXX  30214 02584 42998 30706 10062 20030 40275 53012 80002 333 83099;
0138025840999992000050100004+58400+019200FM-12+001299999V0200901N003110175019N0200001N1+00661+00341102831ADDGA1081+017509059GF108991081051017501999999MD1210081+9999REMSYN070AAXX  01004 02584 42798 80906 10066 20034 40283 52008 885// 333 88697;
0138025840999992000050103004+58400+019200FM-12+001299999V0200901N002110175019N0200001N1+00601+00341102931ADDGA1081+017509059GF108991081051017501999999MD1210101+9999REMSYN070AAXX  01034 02584 42798 80904 10060 20034 40293 52010 885// 333 88697;
0199025840999992000050106004+58400+019200FM-12+001299999V0200901N003110125019N0200001N1+00641+00161103031ADDAA199000091GA1081+012509059GF108991081051012501999999IA1019KA1120N+00601MD1210101+9999REMSYN082AAXX  01064 02584 32698 80906 10064 20016 40303 52010 885// 333 20060 30/// 88696;EQDQ01  00002PRCP99
0157025840999992000050109004+58400+019200FM-12+001299999V0200901N003110125019N0200001N1+00721+00121103131ADDGA1081+012509059GF199999061051012501001001MD1210101+9999REMSYN070AAXX  01094 02584 42698 60906 10072 20012 40313 52010 86500 333 88696;EQDQ01+000062SCOTCV
0157025840999992000050112004+58400+019200FM-12+001299999V0200701N002112200019N0200001N1+00821+00261103191ADDGA1031+022509079GF103991031999022501031001MD1210061+9999REMSYN070AAXX  01124 02584 42898 30704 10082 20026 40319 52006 83030 333 83398;EQDQ01+000002SCOLCG
0157025840999992000050115004+58400+019200FM-12+001299999V0200901N003112200019N0200001N1+00721+00071103141ADDGA1041+022509079GF104991041999022501071001MD1810051+9999REMSYN070AAXX  01154 02584 42898 40906 10072 20007 40314 58005 84070 333 84398;EQDQ01+000002SCOLCG
0187025840999992000050118004+58400+019200FM-12+001299999V0201101N002612200019N0200001N1+00501+00021103101ADDAA199000091GA1021+999999079GF102991021001999999071001KA1120M+00901MD1610041+9999REMSYN076AAXX  01184 02584 32998 21105 10050 20002 40310 56004 82070 333 10090 82399;EQDQ01  00002PRCP99
0138025840999992000050121004+58400+019200FM-12+001299999V0201101N002112200019N0200001N1+00471+00151103181ADDGA1021+999999079GF102991021001999999071001MD1310081+9999REMSYN070AAXX  01214 02584 42998 21104 10047 20015 40318 53008 82070 333 82399;
0122025840999992000050200004+58400+019200FM-12+001299999V0201401N002112200019N0100001N1+00301+00171103231ADDGA1001+999999999GF100991001001999999001001MD1210051+9999REMSYN054AAXX  02004 02584 42997 01404 10030 20017 40323 52005;
0150025840999992000050203004+58400+019200FM-12+001299999V0201601N001012200019N0040001N1+00081+00041103271ADDAY101031AY201031GA1001+999999999GF100991001001999999001001MD1110041+9999MW1101REMSYN060AAXX  02034 02584 41996 01602 10008 20004 40327 51004 71000;
0199025840999992000050206004+58400+019200FM-12+001299999V0201801N00151075001CN0200001N1+00641-00431103311ADDAA199000091GA1061+999999019GF106991001001999999001011IA1019KA1120N+00021MD1110041+9999REMSYN082AAXX  02064 02584 32998 61803 10064 21043 40331 51004 80001 333 20002 30/// 86099;EQDQ01  00002PRCP99
0144025840999992000050209004+58400+019200FM-12+001299999V0201801N001512200019N0200001N1+00841-00471103331ADDGA1011+009309009GF103991011001999999031011MD1110021+9999REMSYN076AAXX  02094 02584 42998 31803 10084 21047 40333 51002 81031 333 81399 82099;
0138025840999992000050212004+58400+019200FM-12+001299999V0202301N001512200019N0200001N1+00861-00431103221ADDGA1011+999999019GF101991001001999999001011MD1810111+9999REMSYN070AAXX  02124 02584 42998 12303 10086 21043 40322 58011 80001 333 81099;
0157025840999992000050215004+58400+019200FM-12+001299999V0202301N002110225019N0200001N1+00611-00491103051ADDGA1071+022509079GF107991071999022501071999MD1810171+9999REMSYN070AAXX  02154 02584 42898 72304 10061 21049 40305 58017 8707/ 333 87398;EQDQ01+000002SCOLCG
0187025840999992000050218004+58400+019200FM-12+001299999V0202001N002110175019N0200001N1+00541-00151102891ADDAA199000091GA1081+017509059GF108991081051017501999999KA1120M+00921MD1710161+9999REMSYN076AAXX  02184 02584 32798 82004 10054 21015 40289 57016 885// 333 10092 88697;EQDQ01  00002PRCP99
0138025840999992000050221004+58400+019200FM-12+001299999V0202001N002110175019N0200001N1+00541+00131102771ADDGA1081+017509059GF108991081051012501999999MD1710121+9999REMSYN070AAXX  02214 02584 42698 82004 10054 20013 40277 57012 885// 333 88697;
0138025840999992000050300004+58400+019200FM-12+001299999V0202701N003110125019N0200001N1+00581+00081102631ADDGA1081+012509059GF108991081051012501999999MD1710141+9999REMSYN070AAXX  03004 02584 42698 82706 10058 20008 40263 57014 885// 333 88696;
0166025840999992000050303004+58400+019200FM-12+001299999V0202701N003110045019N0100001N1+00541+00311102521ADDAY121031AY221031GA1081+004509069GF108991081061004501999999MD1710111+9999MW1501REMSYN076AAXX  03034 02584 41497 82706 10054 20031 40252 57011 75022 886// 333 88794;
0214025840999992000050306004+58400+019200FM-12+001299999V0202701N003110175019N0100001N1+00601+00471102441ADDAA112000191AY151061AY221061GA1081+017509059GF108991081051017501999999IA1099KA1120N+00501MD1610081+9999MW1021REMSYN094AAXX  03064 02584 11797 82706 10060 20047 40244 56008 69922 70252 885// 333 20050 31/// 88697;
0166025840999992000050309004+58400+019200FM-12+001299999V0202701N003110175019N0100001N1+00681+00551102371ADDAY121031AY221031GA1081+017509059GF108991081051017501999999MD1710071+9999MW1211REMSYN076AAXX  03094 02584 41797 82706 10068 20055 40237 57007 72122 885// 333 88697;
0166025840999992000050312004+58400+019200FM-12+001299999V0202701N002610175019N0200001N1+00741+00511102231ADDAY161061AY221061GA1081+017509059GF108991081051017501999999MD1810141+9999MW1021REMSYN076AAXX  03124 02584 41798 82705 10074 20051 40223 58014 70262 885// 333 88697;
0166025840999992000050315004+58400+019200FM-12+001299999V0202901N004110175019N0200001N1+00721+00551102161ADDAY121031AY221031GA1081+017509059GF108991081051017501999999MD1610071+9999MW1601REMSYN076AAXX  03154 02584 41798 82908 10072 20055 40216 56007 76022 885// 333 88697;
0202025840999992000050318004+58400+019200FM-12+001299999V0203401N001510175019N0200001N1+00691+00321102141ADDAA112000591AY161061AY221061GA1081+017509059GF108991081051017501999999KA1120M+00861MD1610021+9999MW1021REMSYN088AAXX  03184 02584 11798 83403 10069 20032 40214 56002 69952 70262 885// 333 10086 88697;
0172025840999992000050321004+58400+019200FM-12+001299999V0200901N00101000601CN0100001N1+00621+00581102231ADDAY121031AY221031GA1011+000759079GF108991081031000751999999MD1310091+9999MW1251REMSYN082AAXX  03214 02584 41197 80902 10062 20058 40223 53009 72522 883// 333 81791 88994;
0166025840999992000050400004+58400+019200FM-12+001299999V0209999C000012200019N0040001N1+00531+00431102191ADDAY181061AY221061GA1011+012509099GF101991011031012501001001MD1610041+9999MW1101REMSYN076AAXX  04004 02584 41696 10000 10053 20043 40219 56004 71082 81300 333 81996;
0166025840999992000050403004+58400+019200FM-12+001299999V0203601N000512200019N0040001N1+00121+00061102251ADDAY101031AY201031GA1011+999999019GF101991001001999999001011MD1310061+9999MW1101REMSYN076AAXX  04034 02584 41996 13601 10012 20006 40225 53006 71000 80001 333 81099;
0186025840999992000050406004+58400+019200FM-12+001299999V0200201N001012200019N0200001N1+00721+00551102281ADDAA112000191GA1031+999999019GF103991001001999999001011IA1019KA1120N+00121MD1210031+9999REMSYN088AAXX  04064 02584 12998 30202 10072 20055 40228 52003 69912 80001 333 20012 30/// 83099;
0122025840999992000050409004+58400+019200FM-12+001299999V0200501N001012200019N0200001N1+00821+00211102371ADDGA1001+999999999GF100991001001999999001001MD1310091+9999REMSYN054AAXX  04094 02584 42998 00502 10082 20021 40237 53009;
0138025840999992000050412004+58400+019200FM-12+001299999V0200901N00101075001CN0200001N1+00831+00111102371ADDGA1051+999999019GF105991001001999999001011MD1010001+9999REMSYN070AAXX  04124 02584 42998 50902 10083 20011 40237 50000 80001 333 85099;
0138025840999992000050415004+58400+019200FM-12+001299999V0201101N00051075001CN0200001N1+00881-00311102341ADDGA1051+999999019GF105991001001999999001011MD1610031+9999REMSYN070AAXX  04154 02584 42998 51101 10088 21031 40234 56003 80001 333 85099;
0187025840999992000050418004+58400+019200FM-12+001299999V0201401N000512200019N0200001N1+00641-00131102291ADDAA199000091GA1021+999999019GF102991001001999999001011KA1120M+00961MD1710051+9999REMSYN076AAXX  04184 02584 32998 21401 10064 21013 40229 57005 80001 333 10096 82099;EQDQ01  00002PRCP99
0121025840999992000050421004+58400+019200FM-12+001299999V0202501N001512200019N0200001N1+00121-00071102281ADDGA1001+999999999GF100991001001999999001001MD1610011+9999REMSYN053AAXX  04214 02584 42998 02503 10012 21007 4022856001;
0138025840999992000050500004+58400+019200FM-12+001299999V0202501N002612200019N0100001N1+00551+00381102201ADDGA1021+999999019GF102991001001999999001011MD1810081+9999REMSYN070AAXX  05004 02584 42997 22505 10055 20038 40220 58008 80001 333 82099;
0138025840999992000050503004+58400+019200FM-12+001299999V0202701N002612200019N0100001N1+00601+00531102061ADDGA1031+999999019GF103991001001999999001011MD1710141+9999REMSYN070AAXX  05034 02584 42997 32705 10060 20053 40206 57014 80001 333 83099;
0199025840999992000050506004+58400+019200FM-12+001299999V0202701N002112200019N0200001N1+00721+00541102041ADDAA199000091GA1031+999999019GF103991001001999999001011IA1019KA1120N+00091MD1610021+9999REMSYN082AAXX  05064 02584 32998 32704 10072 20054 40204 56002 80001 333 20009 30/// 83099;EQDQ01  00002PRCP99
0138025840999992000050509004+58400+019200FM-12+001299999V0202701N002112200019N0200001N1+00791+00571101981ADDGA1041+999999019GF104991001001999999001011MD1710061+9999REMSYN070AAXX  05094 02584 42998 42704 10079 20057 40198 57006 80001 333 84099;
0138025840999992000050512004+58400+019200FM-12+001299999V0202701N00261075001CN0200001N1+00891+00581101851ADDGA1061+999999019GF106991001001999999001021MD1810131+9999REMSYN070AAXX  05124 02584 42998 62705 10089 20058 40185 58013 80002 333 86099;
0138025840999992000050515004+58400+019200FM-12+001299999V0202701N00311075001CN0200001N1+00971+00551101761ADDGA1061+999999019GF106991001001999999001011MD1710091+9999REMSYN070AAXX  05154 02584 42998 62706 10097 20055 40176 57009 80001 333 86099;
0187025840999992000050518004+58400+019200FM-12+001299999V0202701N00211075001CN0200001N1+00931+00601101711ADDAA199000091GA1061+999999019GF106991001001999999001011KA1120M+01021MD1610051+9999REMSYN076AAXX  05184 02584 32998 62704 10093 20060 40171 56005 80001 333 10102 86099;EQDQ01  00002PRCP99
0144025840999992000050521004+58400+019200FM-12+001299999V0201401N00151220001CN0100001N1+00621+00521101811ADDGA1011+022509039GF105991011001022501071011MD1310101+9999REMSYN076AAXX  05214 02584 42897 51403 10062 20052 40181 53010 81071 333 81398 84099;
0150025840999992000050600004+58400+019200FM-12+001299999V0201101N001512200019N0040001N1+00521+00461101941ADDAY101061AY201061GA1001+999999999GF100991001001999999001001MD1310131+9999MW1101REMSYN060AAXX  06004 02584 41996 01103 10052 20046 40194 53013 71000;
0148025840999992000050603004+58400+019200FM-12+001299999V0200701N00261999999CN0100001N1+00601+00341102151ADDGA1051+025009009GF105991001001999999001011MD1210211+9999REMSYN080AAXX  06034 02584 42997 50705 10060 20034 40215 52021 80001 333 85099 555 03005;
0199025840999992000050606004+58400+019200FM-12+001299999V0200501N00211075001CN0200001N1+00751+00191102331ADDAA199000091GA1061+999999019GF106991001001999999001011IA1019KA1120N+00391MD1210181+9999REMSYN082AAXX  06064 02584 32998 60504 10075 20019 40233 52018 80001 333 20039 30/// 86099;EQDQ01  00002PRCP99
0138025840999992000050609004+58400+019200FM-12+001299999V0200701N001512200019N0200001N1+00881+00211102481ADDGA1021+999999019GF102991001001999999001011MD1210151+9999REMSYN070AAXX  06094 02584 42998 20703 10088 20021 40248 52015 80001 333 82099;
0138025840999992000050612004+58400+019200FM-12+001299999V0200701N002112200019N0200001N1+00961+00171102531ADDGA1011+999999019GF101991001001999999001011MD1110051+9999REMSYN070AAXX  06124 02584 42998 10704 10096 20017 40253 51005 80001 333 81099;
0138025840999992000050615004+58400+019200FM-12+001299999V0200701N001512200019N0200001N1+00861+00051102541ADDGA1011+999999019GF101991001001999999001011MD1310011+9999REMSYN070AAXX  06154 02584 42998 10703 10086 20005 40254 53001 80001 333 81099;
0175025840999992000050618004+58400+019200FM-12+001299999V0200901N001012200019N0200001N1+00621+00121102541ADDAA199000091GA1001+999999999GF100991001001999999001001KA1999M+00961MD1410001+9999REMSYN064AAXX  06184 02584 32998 00902 10062 20012 40254 54000 333 10096;EQDQ01  00002PRCP99
0122025840999992000050621004+58400+019200FM-12+001299999V0200701N001012200019N0200001N1+00181+00071102641ADDGA1001+999999999GF100991001001999999001001MD1310101+9999REMSYN054AAXX  06214 02584 42998 00702 10018 20007 40264 53010;
0150025840999992000050700004+58400+019200FM-12+001299999V0200501N001012200019N0040001N1-00111-00171102671ADDAY101061AY201061GA1001+999999999GF100991001001999999001001MD1110031+9999MW1101REMSYN060AAXX  07004 02584 41996 00502 11011 21017 40267 51003 71000;
0166025840999992000050703004+58400+019200FM-12+001299999V0203601N000512200019N0040001N1-00171-00211102761ADDAY101031AY201031GA1011+999999019GF101991001001999999001011MD1310091+9999MW1101REMSYN076AAXX  07034 02584 41996 13601 11017 21021 40276 53009 71000 80001 333 81099;
0187025840999992000050706004+58400+019200FM-12+001299999V0203401N000512200019N0200001N1+00661+00411102821ADDAA199000091GA1001+999999999GF100991001001999999001001IA1019KA1120N-00171MD1210061+9999REMSYN070AAXX  07064 02584 32998 03401 10066 20041 40282 52006 333 21017 30///;EQDQ01  00002PRCP99
0122025840999992000050709004+58400+019200FM-12+001299999V0202701N001012200019N0200001N1+00981-00221102851ADDGA1001+999999999GF100991001001999999001001MD1210031+9999REMSYN054AAXX  07094 02584 42998 02702 10098 21022 40285 52003;
0122025840999992000050712004+58400+019200FM-12+001299999V0202501N002112200019N0200001N1+01161-00261102761ADDGA1001+999999999GF100991001001999999001001MD1810091+9999REMSYN054AAXX  07124 02584 42998 02504 10116 21026 40276 58009;
0122025840999992000050715004+58400+019200FM-12+001299999V0202301N002112200019N0500001N1+01131-00021102641ADDGA1001+999999999GF100991001001999999001001MD1710121+9999REMSYN054AAXX  07154 02584 42999 02304 10113 21002 40264 57012;
0187025840999992000050718004+58400+019200FM-12+001299999V0202501N003112200019N0200001N1+00841-00081102491ADDAA199000091GA1011+999999019GF101991001001999999001011KA1120M+01651MD1710151+9999REMSYN076AAXX  07184 02584 32998 12506 10084 21008 40249 57015 80001 333 10165 81099;EQDQ01  00002PRCP99
0122025840999992000050721004+58400+019200FM-12+001299999V0202301N004112200019N0200001N1+00771+00441102461ADDGA1001+999999999GF100991001001999999001001MD1610031+9999REMSYN054AAXX  07214 02584 42998 02308 10077 20044 40246 56003;
0122025840999992000050800004+58400+019200FM-12+001299999V0202501N004112200019N0100001N1+00711+00611102421ADDGA1001+999999999GF100991001001999999001001MD1710041+9999REMSYN054AAXX  08004 02584 42997 02508 10071 20061 40242 57004;
0138025840999992000050803004+58400+019200FM-12+001299999V0202501N003612200019N0200001N1+00721+00481102391ADDGA1011+999999019GF101991001001999999001011MD1810031+9999REMSYN070AAXX  08034 02584 42998 12507 10072 20048 40239 58003 80001 333 81099;
0187025840999992000050806004+58400+019200FM-12+001299999V0202501N003612200019N0200001N1+00871+00581102381ADDAA199000091GA1001+999999999GF100991001001999999001001IA1019KA1120N+00711MD1610011+9999REMSYN070AAXX  08064 02584 32998 02507 10087 20058 40238 56001 333 20071 30///;EQDQ01  00002PRCP99
0138025840999992000050809004+58400+019200FM-12+001299999V0203201N002112200019N0200001N1+01141+00621102491ADDGA1011+999999019GF101991001001999999001011MD1310111+9999REMSYN070AAXX  08094 02584 42998 13204 10114 20062 40249 53011 80001 333 81099;
0138025840999992000050812004+58400+019200FM-12+001299999V0200201N002612200019N0200001N1+01081+00501102571ADDGA1021+999999019GF102991001001999999001011MD1310081+9999REMSYN070AAXX  08124 02584 42998 20205 10108 20050 40257 53008 80001 333 82099;
0138025840999992000050815004+58400+019200FM-12+001299999V0201101N001012200019N0200001N1+01011+00491102541ADDGA1011+999999019GF101991001001999999001011MD1810031+9999REMSYN070AAXX  08154 02584 42998 11102 10101 20049 40254 58003 80001 333 81099;
0187025840999992000050818004+58400+019200FM-12+001299999V0201401N001012200019N0200001N1+00841+00361102551ADDAA199000091GA1021+999999019GF102991001001999999001011KA1120M+01161MD1310011+9999REMSYN076AAXX  08184 02584 32998 21402 10084 20036 40255 53001 80001 333 10116 82099;EQDQ01  00002PRCP99
0138025840999992000050821004+58400+019200FM-12+001299999V0202001N001012200019N0200001N1+00321+00201102581ADDGA1011+999999019GF101991001001999999001011MD1210031+9999REMSYN070AAXX  08214 02584 42998 12002 10032 20020 40258 52003 80001 333 81099;
0122025840999992000050900004+58400+019200FM-12+001299999V0202701N000512200019N0100001N1+00141+00081102611ADDGA1001+999999999GF100991001001999999001001MD1210031+9999REMSYN054AAXX  09004 02584 42997 02701 10014 20008 40261 52003;
0138025840999992000050903004+58400+019200FM-12+001299999V0203201N000512200019N0100001N1+00081+00041102641ADDGA1011+999999019GF101991001001999999001011MD1210031+9999REMSYN070AAXX  09034 02584 42997 13201 10008 20004 40264 52003 80001 333 81099;
0187025840999992000050906004+58400+019200FM-12+001299999V0209999C000012200019N0200001N1+00991+00151102661ADDAA199000091GA1001+999999999GF100991001001999999001001IA1019KA1120N+00081MD1210021+9999REMSYN070AAXX  09064 02584 32998 00000 10099 20015 40266 52002 333 20008 30///;EQDQ01  00002PRCP99
0138025840999992000050909004+58400+019200FM-12+001299999V0202701N001012200019N0200001N1+01181+00181102671ADDGA1011+999999019GF101991001001999999001011MD1210011+9999REMSYN070AAXX  09094 02584 42998 12702 10118 20018 40267 52001 80001 333 81099;
0138025840999992000050912004+58400+019200FM-12+001299999V0202701N001512200019N0500001N1+01371+00131102611ADDGA1011+999999019GF101991001001999999001011MD1810061+9999REMSYN070AAXX  09124 02584 42999 12703 10137 20013 40261 58006 80001 333 81099;
0122025840999992000050915004+58400+019200FM-12+001299999V0202701N002112200019N0500001N1+01261+00241102461ADDGA1001+999999999GF100991001001999999001001MD1710151+9999REMSYN054AAXX  09154 02584 42999 02704 10126 20024 40246 57015;
0175025840999992000050918004+58400+019200FM-12+001299999V0202701N002612200019N0500001N1+01001+00561102311ADDAA199000091GA1001+999999999GF100991001001999999001001KA1999M+01451MD1710151+9999REMSYN064AAXX  09184 02584 32999 02705 10100 20056 40231 57015 333 10145;EQDQ01  00002PRCP99
0122025840999992000051000004+58400+019200FM-12+001299999V0202701N002612200019N0100001N1+00801+00681102171ADDGA1001+999999999GF100991001001999999001001MD1710071+9999REMSYN054AAXX  10004 02584 42997 02705 10080 20068 40217 57007;
0122025840999992000051003004+58400+019200FM-12+001299999V0202701N002612200019N0200001N1+00811+00651102071ADDGA1001+999999999GF100991001001999999001001MD1810101+9999REMSYN054AAXX  10034 02584 42998 02705 10081 20065 40207 58010;
0187025840999992000051006004+58400+019200FM-12+001299999V0202701N002612200019N0200001N1+01121+00431102031ADDAA199000091GA1001+999999999GF100991001001999999001001IA1019KA1120N+00671MD1610041+9999REMSYN070AAXX  10064 02584 32998 02705 10112 20043 40203 56004 333 20067 30///;EQDQ01  00002PRCP99
0122025840999992000051009004+58400+019200FM-12+001299999V0202701N002112200019N0200001N1+01401+00351101951ADDGA1001+999999999GF100991001001999999001001MD1710081+9999REMSYN054AAXX  10094 02584 42998 02704 10140 20035 40195 57008;
0122025840999992000051012004+58400+019200FM-12+001299999V0202701N002612200019N0500001N1+01501+00321101821ADDGA1001+999999999GF100991001001999999001001MD1810131+9999REMSYN054AAXX  10124 02584 42999 02705 10150 20032 40182 58013;
0138025840999992000051015004+58400+019200FM-12+001299999V0202701N002112200019N0500001N1+01601+00241101641ADDGA1011+999999019GF101991001001999999001011MD1710181+9999REMSYN070AAXX  10154 02584 42999 12704 10160 20024 40164 57018 80001 333 81099;
0187025840999992000051018004+58400+019200FM-12+001299999V0202901N003112200019N0200001N1+01171+00501101441ADDAA199000091GA1031+999999019GF103991001001999999001011KA1120M+01621MD1710201+9999REMSYN076AAXX  10184 02584 32998 32906 10117 20050 40144 57020 80001 333 10162 83099;EQDQ01  00002PRCP99
0138025840999992000051021004+58400+019200FM-12+001299999V0203601N00101075001CN0200001N1+01111+00391101431ADDGA1061+999999019GF106991001001999999001011MD1610011+9999REMSYN070AAXX  10214 02584 42998 63602 10111 20039 40143 56001 80001 333 86099;
0138025840999992000051100004+58400+019200FM-12+001299999V0201101N003119999999N0100001N1+00871+00751101461ADDGA1061+999999079GF107991061001999999031011MD1310031+9999REMSYN070AAXX  11004 02584 42997 71106 10087 20075 40146 53003 86031 333 86399;
0138025840999992000051103004+58400+019200FM-12+001299999V0200501N00211075001CN0100001N1+00731+00671101561ADDGA1051+999999019GF105991001001999999001011MD1210101+9999REMSYN070AAXX  11034 02584 42997 50504 10073 20067 40156 52010 80001 333 85099;
0199025840999992000051106004+58400+019200FM-12+001299999V0200501N002119999999N0200001N1+00841+00351101691ADDAA199000091GA1061+999999079GF107991061001999999031011IA1019KA1120N+00731MD1210131+9999REMSYN082AAXX  11064 02584 32998 70504 10084 20035 40169 52013 86031 333 20073 30/// 86399;EQDQ01  00002PRCP99
0157025840999992000051109004+58400+019200FM-12+001299999V0200501N002112200019N0200001N1+01021+00281101751ADDGA1031+022509079GF104991031999022501071011MD1110061+9999REMSYN070AAXX  11094 02584 42898 40504 10102 20028 40175 51006 83071 333 83398;EQDQ01+000002SCOLCG
0138025840999992000051112004+58400+019200FM-12+001299999V0203201N001012200019N0200001N1+01111+00391101841ADDGA1031+012509059GF104991031051012501001011MD1210091+9999REMSYN070AAXX  11124 02584 42698 43202 10111 20039 40184 52009 83501 333 83696;
0144025840999992000051115004+58400+019200FM-12+001299999V0201101N00211030001CN0200001N1+00951+00211101921ADDGA1041+012509069GF106991041051008001031011MD1210081+9999REMSYN076AAXX  11154 02584 42598 61104 10095 20021 40192 52008 84531 333 84696 83398;
0203025840999992000051118004+58400+019200FM-12+001299999V0200701N004110175019N0200001N1+00741-00151102021ADDAA199000091GA1061+017509079GF106991061999017501031001KA1120M+01171MD1210101+9999REMSYN076AAXX  11184 02584 32798 60708 10074 21015 40202 52010 86030 333 10117 86397;EQDQ01+000002SCOLCGQ02  00002PRCP99
0122025840999992000051121004+58400+019200FM-12+001299999V0200501N004112200019N0200001N1+00671-00221102191ADDGA1001+999999999GF100991001001999999001001MD1210171+9999REMSYN054AAXX  11214 02584 42998 00508 10067 21022 40219 52017;
0138025840999992000051203004+58400+019200FM-12+001299999V0200501N003612200019N0200001N1+00491-00341102491ADDGA1041+012509059GF104991041051012501001001MD1210141+9999REMSYN070AAXX  12034 02584 42698 40507 10049 21034 40249 52014 84500 333 84696;
0199025840999992000051206004+58400+019200FM-12+001299999V0200501N003110125019N0200001N1+00501-00401102671ADDAA199000091GA1061+012509059GF106991061051012501001001IA1019KA1120N+00481MD1210181+9999REMSYN082AAXX  12064 02584 32698 60506 10050 21040 40267 52018 86500 333 20048 30/// 86696;EQDQ01  00002PRCP99
0138025840999992000051209004+58400+019200FM-12+001299999V0200501N003112200019N0200001N1+00711-00231102841ADDGA1031+012509029GF103991031021012501001001MD1210171+9999REMSYN070AAXX  12094 02584 42698 30506 10071 21023 40284 52017 83200 333 83896;
0122025840999992000051212004+58400+019200FM-12+001299999V0200201N001512200019N0500001N1+00731-00111102851ADDGA1001+999999999GF100991001001999999001001MD1210011+9999REMSYN054AAXX  12124 02584 42999 00203 10073 21011 40285 52001;
0122025840999992000051215004+58400+019200FM-12+001299999V0200201N000512200019N0200001N1+00681-00321102761ADDGA1001+999999999GF100991001001999999001001MD1710091+9999REMSYN054AAXX  12154 02584 42998 00201 10068 21032 40276 57009;
0187025840999992000051218004+58400+019200FM-12+001299999V0202701N001012200019N0500001N1+00521-00411102591ADDAA199000091GA1021+999999079GF103991021001999999031091KA1120M+00791MD1810171+9999REMSYN076AAXX  12184 02584 32999 32702 10052 21041 40259 58017 82039 333 10079 82399;EQDQ01  00002PRCP99
0138025840999992000051221004+58400+019200FM-12+001299999V0202701N003119999999N0200001N1+00641-00181102471ADDGA1061+999999079GF106991061001999999071001MD1710121+9999REMSYN070AAXX  12214 02584 42998 62706 10064 21018 40247 57012 86070 333 86399;
0138025840999992000051300004+58400+019200FM-12+001299999V0202901N003112200019N0200001N1+00661+00541102301ADDGA1021+999999019GF102991001001999999001011MD1710171+9999REMSYN070AAXX  13004 02584 42998 22906 10066 20054 40230 57017 80001 333 82099;
0122025840999992000051303004+58400+019200FM-12+001299999V0202901N002112200019N0200001N1+00641+00541102141ADDGA1001+999999999GF100991001001999999001001MD1710161+9999REMSYN054AAXX  13034 02584 42998 02904 10064 20054 40214 57016;
0199025840999992000051306004+58400+019200FM-12+001299999V0203401N002112200019N0200001N1+00881+00531102081ADDAA199000091GA1021+008009029GF103991021011008001001011IA1019KA1120N+00481MD1610061+9999REMSYN082AAXX  13064 02584 32598 33404 10088 20053 40208 56006 82101 333 20048 30/// 82895;EQDQ01  00002PRCP99
0138025840999992000051309004+58400+019200FM-12+001299999V0203601N002112200019N0200001N1+01201+00481102031ADDGA1021+999999019GF102991001001999999001011MD1710051+9999REMSYN070AAXX  13094 02584 42998 23604 10120 20048 40203 57005 80001 333 82099;
0138025840999992000051312004+58400+019200FM-12+001299999V0203201N001012200019N0500001N1+01381+00491102021ADDGA1041+999999019GF104991001001999999001011MD1610011+9999REMSYN070AAXX  13124 02584 42999 43202 10138 20049 40202 56001 80001 333 84099;
0138025840999992000051315004+58400+019200FM-12+001299999V0202901N001012200019N0500001N1+01411+00521102041ADDGA1021+002709019GF102991001001999999001011MD1310021+9999REMSYN070AAXX  13154 02584 42999 22902 10141 20052 40204 53002 80001 333 82009;
0187025840999992000051318004+58400+019200FM-12+001299999V0209999V001012200019N0500001N1+01281+00351102071ADDAA199000091GA1041+999999019GF104991001001999999001011KA1120M+01551MD1210031+9999REMSYN076AAXX  13184 02584 32999 49902 10128 20035 40207 52003 80001 333 10155 84099;EQDQ01  00002PRCP99
0157025840999992000051321004+58400+019200FM-12+001299999V0202501N002112200019N0200001N1+00921+00611102171ADDGA1041+017509059GF104991041051017501999001MD1210101+9999REMSYN070AAXX  13214 02584 42798 42504 10092 20061 40217 52010 84500 333 84697;EQDQ01+000002SCOMCG
0122025840999992000051400004+58400+019200FM-12+001299999V0202701N001512200019N0200001N1+00781+00671102221ADDGA1001+999999999GF100991001001999999001001MD1210051+9999REMSYN054AAXX  14004 02584 42998 02703 10078 20067 40222 52005;
0138025840999992000051403004+58400+019200FM-12+001299999V0203401N002612200019N0100001N1+00751+00691102241ADDGA1021+999999019GF102991001001999999001011MD1210021+9999REMSYN070AAXX  14034 02584 42997 23405 10075 20069 40224 52002 80001 333 82099;
0199025840999992000051406004+58400+019200FM-12+001299999V0203401N001512200019N0200001N1+01161+00661102281ADDAA199000091GA1011+999999079GF102991011001999999031011IA1019KA1120N+00621MD1210041+9999REMSYN082AAXX  14064 02584 32998 23403 10116 20066 40228 52004 81031 333 20062 30/// 81399;EQDQ01  00002PRCP99
0138025840999992000051409004+58400+019200FM-12+001299999V0200201N001512200019N0500001N1+01461+00591102311ADDGA1021+999999019GF102991001001999999001011MD1210031+9999REMSYN070AAXX  14094 02584 42999 20203 10146 20059 40231 52003 80001 333 82099;
0138025840999992000051412004+58400+019200FM-12+001299999V0202701N003112200019N0200001N1+01361+00591102181ADDGA1041+999999019GF104991001001999999001011MD1710131+9999REMSYN070AAXX  14124 02584 42998 42706 10136 20059 40218 57013 80001 333 84099;
0138025840999992000051415004+58400+019200FM-12+001299999V0202701N00261075001CN0200001N1+01251+00571102061ADDGA1061+999999019GF106991061001999999011001MD1710121+9999REMSYN070AAXX  14154 02584 42998 62705 10125 20057 40206 57012 86010 333 86499;
0187025840999992000051418004+58400+019200FM-12+001299999V0201601N001012200019N0200001N1+01221+00591102021ADDAA199000091GA1041+999999019GF104991001001999999001021KA1120M+01521MD1610041+9999REMSYN076AAXX  14184 02584 32998 41602 10122 20059 40202 56004 80002 333 10152 84099;EQDQ01  00002PRCP99
0122025840999992000051421004+58400+019200FM-12+001299999V0201601N001512200019N0200001N1+00761+00481101941ADDGA1001+999999999GF100991001001999999001001MD1810081+9999REMSYN054AAXX  14214 02584 42998 01603 10076 20048 40194 58008;
0122025840999992000051500004+58400+019200FM-12+001299999V0202301N002112200019N0200001N1+00841+00511101791ADDGA1001+999999999GF100991001001999999001001MD1810151+9999REMSYN054AAXX  15004 02584 42998 02304 10084 20051 40179 58015;
0122025840999992000051503004+58400+019200FM-12+001299999V0202501N003112200019N0200001N1+00981+00761101641ADDGA1001+999999999GF100991001001999999001001MD1710151+9999REMSYN054AAXX  15034 02584 42998 02506 10098 20076 40164 57015;
0187025840999992000051506004+58400+019200FM-12+001299999V0202901N002112200019N0200001N1+01141+00901101581ADDAA199000091GA1001+999999999GF100991001001999999001001IA1019KA1120N+00651MD1610061+9999REMSYN070AAXX  15064 02584 32998 02904 10114 20090 40158 56006 333 20065 30///;EQDQ01  00002PRCP99
0122025840999992000051509004+58400+019200FM-12+001299999V0203601N001512200019N0200001N1+01281+00651101661ADDGA1001+999999999GF100991001001999999001001MD1310081+9999REMSYN054AAXX  15094 02584 42998 03603 10128 20065 40166 53008;
0122025840999992000051512004+58400+019200FM-12+001299999V0200901N002112200019N0200001N1+01401+00511101771ADDGA1001+999999999GF100991001001999999001001MD1210111+9999REMSYN054AAXX  15124 02584 42998 00904 10140 20051 40177 52011;
0122025840999992000051515004+58400+019200FM-12+001299999V0200901N002112200019N0200001N1+01241+00521101831ADDGA1001+999999999GF100991001001999999001001MD1210061+9999REMSYN054AAXX  15154 02584 42998 00904 10124 20052 40183 52006;
0187025840999992000051518004+58400+019200FM-12+001299999V0200701N001012200019N0200001N1+01041+00461101811ADDAA199000091GA1031+999999019GF103991001001999999001011KA1120M+01431MD1710021+9999REMSYN076AAXX  15184 02584 32998 30702 10104 20046 40181 57002 80001 333 10143 83099;EQDQ01  00002PRCP99
0138025840999992000051521004+58400+019200FM-12+001299999V0203601N000512200019N0200001N1+00771+00601101871ADDGA1021+999999019GF102991001001999999001011MD1210061+9999REMSYN070AAXX  15214 02584 42998 23601 10077 20060 40187 52006 80001 333 82099;
0122025840999992000051600004+58400+019200FM-12+001299999V0200701N001012200019N0200001N1+00341+00301101931ADDGA1001+999999999GF100991001001999999001001MD1210061+9999REMSYN054AAXX  16004 02584 42998 00702 10034 20030 40193 52006;
0122025840999992000051603004+58400+019200FM-12+001299999V0200901N001012200019N0200001N1+00701+00601101931ADDGA1001+999999999GF100991001001999999001001MD1410001+9999REMSYN054AAXX  16034 02584 42998 00902 10070 20060 40193 54000;
0199025840999992000051606004+58400+019200FM-12+001299999V0201101N001012200019N0200001N1+00971+00491102011ADDAA199000091GA1011+999999019GF101991001001999999001011IA1019KA1120N+00011MD1210081+9999REMSYN082AAXX  16064 02584 32998 11102 10097 20049 40201 52008 80001 333 20001 30/// 81099;EQDQ01  00002PRCP99
0137025840999992000051609004+58400+019200FM-12+001299999V0201101N001512200019N0500001N1+01011+00251102081ADDGA1031+999999019GF103991001001999999001011MD1210071+9999REMSYN069AAXX  16094 02584 42999 31103 10101 20025 40208 52007 80001 33383099;
0138025840999992000051612004+58400+019200FM-12+001299999V0201101N002112200019N0500001N1+01261+00481102101ADDGA1021+999999019GF102991001001999999001011MD1110021+9999REMSYN070AAXX  16124 02584 42999 21104 10126 20048 40210 51002 80001 333 82099;
0138025840999992000051615004+58400+019200FM-12+001299999V0201101N00211075001CN0500001N1+01291+00271102011ADDGA1061+999999019GF106991001001999999001011MD1810091+9999REMSYN070AAXX  16154 02584 42999 61104 10129 20027 40201 58009 80001 333 86099;
0187025840999992000051618004+58400+019200FM-12+001299999V0201801N00151075001CN0500001N1+01181+00051101851ADDAA199000091GA1061+999999019GF106991001001999999001011KA1120M+01381MD1710161+9999REMSYN076AAXX  16184 02584 32999 61803 10118 20005 40185 57016 80001 333 10138 86099;EQDQ01  00002PRCP99
0112025840999992000051621004+58400+019200FM-12+001299999V0201801N002112200019N0200001N1+00821+00191101801ADDGF103991001001999999001011MD1610051+9999REMSYN060AAXX  16214 02584 42998 31804 10082 20019 40180 56005 80001;
0157025840999992000051700004+58400+019200FM-12+001299999V0202001N002110175019N0200001N1+01061-00061101701ADDGA1051+017509059GF105991051051017501999001MD1810101+9999REMSYN070AAXX  17004 02584 42798 52004 10106 21006 40170 58010 85500 333 85697;EQDQ01+000002SCOMCG
0157025840999992000051703004+58400+019200FM-12+001299999V0202001N002110175019N0200001N1+01021+00111101591ADDGA1061+017509059GF106991061051017501999001MD1710111+9999REMSYN070AAXX  17034 02584 42798 62004 10102 20011 40159 57011 86500 333 86697;EQDQ01+000002SCOMCG
0199025840999992000051706004+58400+019200FM-12+001299999V0202301N002112200019N0200001N1+01481+00101101431ADDAA199000091GA1031+999999079GF103991031001999999031001IA1019KA1120N+00801MD1710161+9999REMSYN082AAXX  17064 02584 32998 32304 10148 20010 40143 57016 83030 333 20080 30/// 83399;EQDQ01  00002PRCP99
0138025840999992000051709004+58400+019200FM-12+001299999V0202301N002112200019N0500001N1+01901+00151101291ADDGA1011+999999079GF101991011001999999031011MD1710141+9999REMSYN070AAXX  17094 02584 42999 12304 10190 20015 40129 57014 81031 333 81399;
0157025840999992000051712004+58400+019200FM-12+001299999V0202301N00311075001CN0500001N1+02081+00521101121ADDGA1061+999999019GF106991001001999999001011MD1710171+9999REMSYN070AAXX  17124 02584 42999 62306 10208 20052 40112 57017 86001 333 86099;EQDQ01+000062SCOTLC
0138025840999992000051715004+58400+019200FM-12+001299999V0201801N003112200019N0500001N1+01921+00671100951ADDGA1021+999999019GF102991001001999999001011MD1710171+9999REMSYN070AAXX  17154 02584 42999 21806 10192 20067 40095 57017 80001 333 82099;
0187025840999992000051718004+58400+019200FM-12+001299999V0202001N00261075001CN0200001N1+01591+00581100711ADDAA199000091GA1051+999999019GF105991001001999999001011KA1120M+02091MD1710241+9999REMSYN076AAXX  17184 02584 32998 52005 10159 20058 40071 57024 80001 333 10209 85099;EQDQ01  00002PRCP99
0138025840999992000051721004+58400+019200FM-12+001299999V0202001N002612200019N0100001N1+01511+00591100611ADDGA1021+999999019GF102991001001999999001011MD1610101+9999REMSYN070AAXX  17214 02584 42997 22005 10151 20059 40061 56010 80001 333 82099;
0138025840999992000051800004+58400+019200FM-12+001299999V0202001N003119999999N0100001N1+01721+00781100471ADDGA1051+999999079GF105991051001999999031001MD1710141+9999REMSYN070AAXX  18004 02584 42997 52006 10172 20078 40047 57014 85030 333 85399;
0138025840999992000051803004+58400+019200FM-12+001299999V0202001N002119999999N0100001N1+01431+00801100311ADDGA1061+999999079GF106991061001999999071001MD1710161+9999REMSYN070AAXX  18034 02584 42997 62004 10143 20080 40031 57016 86070 333 86399;
0214025840999992000051806004+58400+019200FM-12+001299999V0203401N000519999999N0100001N1+01091+01001100371ADDAA112000791AY121061AY221061GA1071+999999079GF107991071001999999071999IA1099KA1120N+01021MD1110061+9999MW1211REMSYN094AAXX  18064 02584 11997 73401 10109 20100 40037 51006 69902 72122 8707/ 333 20102 31/// 87399;
0172025840999992000051812004+58400+019200FM-12+001299999V0203401N00101030001CN0100001N1+01231+00861100671ADDAY161061AY221061GA1021+012509069GF107991021051012501071999MD1210071+9999MW1021REMSYN082AAXX  18124 02584 41697 73402 10123 20086 40067 52007 70262 8257/ 333 82696 87399;
0138025840999992000051815004+58400+019200FM-12+001299999V0209999V00101075001CN0100001N1+01321+00881100721ADDGA1051+999999019GF105991001001999999001011MD1110051+9999REMSYN070AAXX  18154 02584 42997 59902 10132 20088 40072 51005 80001 333 85099;
0174025840999992000051818004+58400+019200FM-12+001299999V0202701N002112200019N0100001N1+01211+00771100661ADDAA112000791GA1021+999999079GF103991021001999999031011KA1120M+01401MD1710061+9999REMSYN082AAXX  18184 02584 12997 32704 10121 20077 40066 57006 69902 82031 333 10140 82399;
0138025840999992000051821004+58400+019200FM-12+001299999V0202701N002119999999N0100001N1+01141+00761100711ADDGA1061+999999079GF106991061001999999071001MD1110051+9999REMSYN070AAXX  18214 02584 42997 62704 10114 20076 40071 51005 86070 333 86399;
0157025840999992000051900004+58400+019200FM-12+001299999V0202301N000510225019N0100001N1+01051+00771100661ADDGA1071+022509079GF107991071999999999071001MD1610051+9999REMSYN070AAXX  19004 02584 42997 72301 10105 20077 40066 56005 87070 333 87398;EQDQ01+000002SCOLCG
0138025840999992000051903004+58400+019200FM-12+001299999V0202001N000519999999N0100001N1+00981+00921100611ADDGA1081+999999079GF108991081001999999071999MD1610051+9999REMSYN070AAXX  19034 02584 42997 82001 10098 20092 40061 56005 8807/ 333 88399;
0220025840999992000051906004+58400+019200FM-12+001299999V0209999V00051030001CN0040001N1+01001+00961100581ADDAA112003091AY121061AY221061GA1031+000259079GF108991031071000251021999IA1099KA1120N+00981MD1810031+9999MW1611REMSYN100AAXX  19064 02584 11096 89901 10100 20096 40058 58003 60032 76122 8372/ 333 20098 31/// 83790 88599;
0172025840999992000051909004+58400+019200FM-12+001299999V0202901N00101030001CN0040001N1+01051+00941100611ADDAY161031AY261031GA1031+000759079GF108991031071000751021999MD1210031+9999MW1101REMSYN082AAXX  19094 02584 41196 82902 10105 20094 40061 52003 71066 8372/ 333 83791 88599;
0172025840999992000051912004+58400+019200FM-12+001299999V0209999V00051002101CN0040001N1+01381+01001100761ADDAY161061AY261061GA1021+002509079GF105991051071002501001001MD1210151+9999MW1101REMSYN082AAXX  19124 02584 41396 59901 10138 20100 40076 52015 71066 85700 333 82793 85696;
0138025840999992000051915004+58400+019200FM-12+001299999V0202501N001010125019N0100001N1+01211+00771100641ADDGA1071+012509059GF107991071051012501999999MD1810121+9999REMSYN070AAXX  19154 02584 42697 72502 10121 20077 40064 58012 875// 333 87696;
0202025840999992000051918004+58400+019200FM-12+001299999V0202301N00101075001CN0100001N1+01101+00961100621ADDAA112002091AY121061AY221061GA1081+999999029GF108991081001999999021999KA1120M+01481MD1810021+9999MW1611REMSYN088AAXX  19184 02584 11997 82302 10110 20096 40062 58002 60022 76122 8802/ 333 10148 88599;
0157025840999992000051921004+58400+019200FM-12+001299999V0202301N001010225019N0100001N1+00961+00901100641ADDGA1061+022509059GF106991061051022501999001MD1210021+9999REMSYN070AAXX  19214 02584 42897 62302 10096 20090 40064 52002 86500 333 86698;EQDQ01+000002SCOMCG
0166025840999992000052000004+58400+019200FM-12+001299999V0202501N001519999999N0040001N1+00951+00841100631ADDAY161061AY261061GA1061+999999079GF106991061001999999031001MD1710011+9999MW1101REMSYN076AAXX  20004 02584 41996 62503 10095 20084 40063 57001 71066 86030 333 86399;
0166025840999992000052003004+58400+019200FM-12+001299999V0202301N001019999999N0040001N1+00931+00881100541ADDAY121031AY221031GA1081+999999079GF108991081001999999071999MD1710081+9999MW1101REMSYN076AAXX  20034 02584 41996 82302 10093 20088 40054 57008 71022 8807/ 333 88399;
0214025840999992000052006004+58400+019200FM-12+001299999V0209999C00001075001CN0040001N1+01061+01001100581ADDAA112000191AY121061AY221061GA1081+999999029GF108991081001999999021999IA1099KA1120N+00931MD1210041+9999MW1601REMSYN094AAXX  20064 02584 11996 80000 10106 20100 40058 52004 69912 76022 8802/ 333 20093 31/// 88599;
0172025840999992000052009004+58400+019200FM-12+001299999V0203401N00151030001CN0040001N1+01031+00981100611ADDAY161031AY261031GA1041+000259079GF108991041071000251021999MD1010031+9999MW1611REMSYN082AAXX  20094 02584 41096 83403 10103 20098 40061 50003 76166 8472/ 333 84790 88599;
0172025840999992000052012004+58400+019200FM-12+001299999V0203401N00211030001CN0040001N1+01001+00951100601ADDAY161061AY261061GA1041+000259079GF108991041071000251021999MD1710011+9999MW1631REMSYN082AAXX  20124 02584 41096 83404 10100 20095 40060 57001 76366 8472/ 333 84790 88599;
0172025840999992000052015004+58400+019200FM-12+001299999V0203601N00151030001CN0020001N1+01031+00981100551ADDAY161031AY261031GA1041+000259079GF108991041071000251021999MD1710051+9999MW1601REMSYN082AAXX  20154 02584 41095 83603 10103 20098 40055 57005 76066 8472/ 333 84790 88599;
0208025840999992000052018004+58400+019200FM-12+001299999V0203601N00101030001CN0020001N1+00991+00931100591ADDAA112007191AY161061AY261061GA1041+000759079GF108991041071000751021999KA1120M+01101MD1210041+9999MW1101REMSYN094AAXX  20184 02584 11195 83602 10099 20093 40059 52004 60072 71066 8472/ 333 10110 84791 88599;
0166025840999992000052021004+58400+019200FM-12+001299999V0203601N001510045019N0020001N1+00941+00881100561ADDAY121031AY221031GA1061+004509059GF106991061051004501001001MD1810031+9999MW1101REMSYN076AAXX  20214 02584 41495 63603 10094 20088 40056 58003 71022 86500 333 86694;
0185025840999992000052100004+58400+019200FM-12+001299999V0203401N002110175019N0020001N1+00941+00881100471ADDAY121061AY221061GA1071+017509059GF107991071051017501999001MD1710091+9999MW1101REMSYN076AAXX  21004 02584 41795 73404 10094 20088 40047 57009 71022 87500 333 87697;EQDQ01+000002SCOMCG
0191025840999992000052103004+58400+019200FM-12+001299999V0203201N00211004201CN0020001N1+00961+00871100431ADDAY121031AY221031GA1041+004509079GF108991999071004501021999MD1710041+9999MW1601REMSYN082AAXX  21034 02584 41495 83204 10096 20087 40043 57004 76022 8872/ 333 84794 88596;EQDQ01+000082SCOTLC
0214025840999992000052106004+58400+019200FM-12+001299999V0202901N001512200019N0005001N1+01091+00981100381ADDAA112000191AY161061AY221061GA1041+008009059GF104991041051008001001001IA1099KA1120N+00941MD1810051+9999MW1461REMSYN094AAXX  21064 02584 11593 42903 10109 20098 40038 58005 69922 74662 84500 333 20094 31/// 84695;
0166025840999992000052109004+58400+019200FM-12+001299999V0202901N002112200019N0200001N1+01291+00871100421ADDAY141031AY211031GA1031+999999079GF103991031001999999031001MD1310041+9999MW1021REMSYN076AAXX  21094 02584 41998 32904 10129 20087 40042 53004 70241 83030 333 83399;
0138025840999992000052112004+58400+019200FM-12+001299999V0202701N002112200019N0200001N1+01281+00821100461ADDGA1011+999999019GF101991001001999999001011MD1210041+9999REMSYN070AAXX  21124 02584 42998 12704 10128 20082 40046 52004 80001 333 81099;
0157025840999992000052115004+58400+019200FM-12+001299999V0202701N002612200019N0200001N1+01281+00881100491ADDGA1031+999999019GF199999001001999999001021MD1310031+9999REMSYN070AAXX  21154 02584 42998 12705 10128 20088 40049 53003 80002 333 83099;EQDQ01+000012SCOTCV
0193025840999992000052118004+58400+019200FM-12+001299999V0202701N002619999999N0100001N1+01181+00991100571ADDAA199000091GA1021+025009039GF106991021001999999031011KA1120M+01391MD1210081+9999REMSYN082AAXX  21184 02584 32997 62705 10118 20099 40057 52008 82031 333 10139 82399 84099;EQDQ01  00002PRCP99
0166025840999992000052121004+58400+019200FM-12+001299999V0202501N002119999999N0040001N1+01041+00981100631ADDAY121031AY221031GA1051+999999079GF105991051001999999031001MD1210061+9999MW1101REMSYN076AAXX  21214 02584 41996 52504 10104 20098 40063 52006 71022 85030 333 85399;
0138025840999992000052200004+58400+019200FM-12+001299999V0202501N002112200019N0040001N1+01001+00941100641ADDGA1021+999999079GF102991021001999999031001MD1210011+9999REMSYN070AAXX  22004 02584 42996 22504 10100 20094 40064 52001 82030 333 82399;
0166025840999992000052203004+58400+019200FM-12+001299999V0202701N001512200019N0005001N1+00811+00761100711ADDAY121031AY221031GA1011+999999079GF101991011001999999031001MD1210071+9999MW1121REMSYN076AAXX  22034 02584 41993 12703 10081 20076 40071 52007 71222 81030 333 81399;
0215025840999992000052206004+58400+019200FM-12+001299999V0209999V001012200019N0100001N1+01241+01021100821ADDAA199000091AY141061AY221061GA1001+999999999GF100991001001999999001001IA1099KA1120N+00811MD1210111+9999MW1011REMSYN076AAXX  22064 02584 31997 09902 10124 20102 40082 52011 70142 333 20081 31///;EQDQ01  00002PRCP99
0150025840999992000052209004+58400+019200FM-12+001299999V0202501N001512200019N0005001N1+01261+00981100931ADDAY101031AY201031GA1001+999999999GF100991001001999999001001MD1210111+9999MW1121REMSYN060AAXX  22094 02584 41993 02503 10126 20098 40093 52011 71200;
0172025840999992000052212004+58400+019200FM-12+001299999V0202501N001019999999N0100001N1+01481+00851101001ADDAY141061AY241061GA1011+022509039GF105991051001004501031011MD1210071+9999MW1401REMSYN082AAXX  22124 02584 41497 52502 10148 20085 40100 52007 74044 85031 333 81398 85099;
0172025840999992000052215004+58400+019200FM-12+001299999V0201801N001019999999N0200001N1+01371+00851101051ADDAY141031AY241031GA1021+025009039GF106991061001999999031011MD1210051+9999MW1021REMSYN082AAXX  22154 02584 41998 61802 10137 20085 40105 52005 70244 86031 333 82399 86099;
0193025840999992000052218004+58400+019200FM-12+001299999V0202001N001019999999N0200001N1+01121+01001101091ADDAA199000091GA1021+025009039GF106991061001999999031011KA1120M+01601MD1210041+9999REMSYN082AAXX  22184 02584 32998 62002 10112 20100 40109 52004 86031 333 10160 82399 86099;EQDQ01  00002PRCP99
0166025840999992000052221004+58400+019200FM-12+001299999V0202701N001012200019N0040001N1+00831+00771101171ADDAY111031AY211031GA1011+999999019GF101991001001999999001011MD1110081+9999MW1101REMSYN076AAXX  22214 02584 41996 12702 10083 20077 40117 51008 71011 80001 333 81099;
0150025840999992000052300004+58400+019200FM-12+001299999V0202601N001012200019N0040001N1+00881+00831101211ADDAY111061AY201061GA1001+999999999GF100991001001999999001001MD1210041+9999MW1101REMSYN060AAXX  23004 02584 41996 02602 10088 20083 40121 52004 71010;
0150025840999992000052303004+58400+019200FM-12+001299999V0202701N001512200019N0040001N1+00891+00841101281ADDAY101031AY201031GA1001+999999999GF100991001001999999001001MD1210071+9999MW1101REMSYN060AAXX  23034 02584 41996 02703 10089 20084 40128 52007 71000;
0187025840999992000052306004+58400+019200FM-12+001299999V0203601N000512200019N0100001N1+01231+01091101391ADDAA199000091GA1001+999999999GF100991001001999999001001IA1019KA1120N+00811MD1210011+9999REMSYN070AAXX  23064 02584 32997 03601 10123 20109 40139 52001 333 20081 30///;EQDQ01  00002PRCP99
0122025840999992000052309004+58400+019200FM-12+001299999V0203601N001012200019N0200001N1+01381+00841101461ADDGA1001+999999999GF100991001001999999001001MD1210071+9999REMSYN054AAXX  23094 02584 42998 03602 10138 20084 40146 52007;
0122025840999992000052312004+58400+019200FM-12+001299999V0203201N001512200019N0200001N1+01401+00811101521ADDGA1001+999999999GF100991001001999999001001MD1210061+9999REMSYN054AAXX  23124 02584 42998 03203 10140 20081 40152 52006;
0122025840999992000052315004+58400+019200FM-12+001299999V0203601N001512200019N0200001N1+01341+00781101511ADDGA1001+999999999GF100991001001999999001001MD1610011+9999REMSYN054AAXX  23154 02584 42998 03603 10134 20078 40151 56001;
0187025840999992000052318004+58400+019200FM-12+001299999V0202701N001512200019N0200001N1+01251+00541101501ADDAA199000091GA1031+999999079GF103991031071999999001001KA1120M+01501MD1710011+9999REMSYN076AAXX  23184 02584 32998 32703 10125 20054 40150 57001 83700 333 10150 83399;EQDQ01  00002PRCP99
0166025840999992000052321004+58400+019200FM-12+001299999V0202501N001012200019N0040001N1+01101+00951101491ADDAY101031AY201031GA1041+999999079GF104991041071999999001001MD1710011+9999MW1101REMSYN076AAXX  23214 02584 41996 42502 10110 20095 40149 57001 71000 84700 333 84399;
0122025840999992000052400004+58400+019200FM-12+001299999V0202901N002612200019N0100001N1+01151+00891101441ADDGA1001+999999999GF100991001001999999001001MD1710051+9999REMSYN054AAXX  24004 02584 42997 02905 10115 20089 40144 57005;
0138025840999992000052403004+58400+019200FM-12+001299999V0202701N001019999999N0100001N1+01401+00951101391ADDGA1051+999999079GF105991051001999999031001MD1710051+9999REMSYN070AAXX  24034 02584 42997 52702 10140 20095 40139 57005 85030 333 85399;
0199025840999992000052406004+58400+019200FM-12+001299999V0202901N001019999999N0100001N1+01241+00921101411ADDAA199000091GA1061+999999079GF106991061001999999071001IA1099KA1120N+00901MD1310021+9999REMSYN082AAXX  24064 02584 32997 62902 10124 20092 40141 53002 86070 333 20090 31/// 86399;EQDQ01  00002PRCP99
0138025840999992000052409004+58400+019200FM-12+001299999V0202501N00151075001CN0100001N1+01461+00631101331ADDGA1071+999999019GF107991071001999999011001MD1710081+9999REMSYN070AAXX  24094 02584 42997 72503 10146 20063 40133 57008 87010 333 87499;
0166025840999992000052412004+58400+019200FM-12+001299999V0202301N003610225019N0100001N1+01421+00621101211ADDAY161061AY221061GA1081+022509059GF108991081051022501999999MD1710151+9999MW1021REMSYN076AAXX  24124 02584 41897 82307 10142 20062 40121 57015 70262 885// 333 88698;
0166025840999992000052415004+58400+019200FM-12+001299999V0202301N002610175019N0100001N1+01241+01081101131ADDAY161031AY221031GA1081+017509029GF108991081001017501021999MD1710081+9999MW1601REMSYN076AAXX  24154 02584 41797 82305 10124 20108 40113 57008 76062 8802/ 333 88597;
0208025840999992000052418004+58400+019200FM-12+001299999V0202501N00261030001CN0040001N1+01161+01111101021ADDAA112001091AY161061AY221061GA1041+012509069GF108991041051012501021999KA1120M+01661MD1710111+9999MW1601REMSYN094AAXX  24184 02584 11696 82505 10116 20111 40102 57011 60012 76062 8452/ 333 10166 84696 88599;
0166025840999992000052421004+58400+019200FM-12+001299999V0202501N002110015019N0040001N1+01141+01091100951ADDAY161031AY261031GA1081+001509069GF108991081071001501999999MD1710071+9999MW1101REMSYN076AAXX  24214 02584 41296 82504 10114 20109 40095 57007 71066 887// 333 88792;
0166025840999992000052500004+58400+019200FM-12+001299999V0202901N002612200019N0040001N1+01151+01101100971ADDAY161061AY261061GA1041+002509069GF104991041061002501001001MD1310021+9999MW1101REMSYN076AAXX  25004 02584 41396 42905 10115 20110 40097 53002 71066 84600 333 84793;
0166025840999992000052503004+58400+019200FM-12+001299999V0203201N00151075001CN0040001N1+01071+01021100981ADDAY111031AY201031GA1061+999999019GF106991001001999999001021MD1210011+9999MW1101REMSYN076AAXX  25034 02584 41996 63203 10107 20102 40098 52001 71010 80002 333 86099;
0186025840999992000052506004+58400+019200FM-12+001299999V0203201N00151075001CN0100001N1+01091+00931101031ADDAA112000591GA1061+999999019GF106991001001999999001021IA1099KA1120N+01061MD1210051+9999REMSYN088AAXX  25064 02584 12997 63203 10109 20093 40103 52005 69962 80002 333 20106 31/// 86099;
0172025840999992000052512004+58400+019200FM-12+001299999V0202701N00101030001CN0100001N1+01191+00821101061ADDAY121061AY221061GA1021+017509069GF108991021051017501011999MD1810041+9999MW1211REMSYN082AAXX  25124 02584 41797 82702 10119 20082 40106 58004 72122 8251/ 333 82697 88499;
0172025840999992000052515004+58400+019200FM-12+001299999V0201801N00051002501CN0040001N1+00961+00851100891ADDAY161031AY221031GA1061+002509079GF108991061071002501021999MD1810171+9999MW1601REMSYN082AAXX  25154 02584 41396 81801 10096 20085 40089 58017 76062 8672/ 333 86793 88598;
0208025840999992000052518004+58400+019200FM-12+001299999V0202301N00211000751CN0040001N1+01131+01071100521ADDAA112003091AY161061AY261061GA1061+000759079GF108991061071000751021999KA1120M+01241MD1710371+9999MW1601REMSYN094AAXX  25184 02584 11196 82304 10113 20107 40052 57037 60032 76066 8672/ 333 10124 86791 88596;
0172025840999992000052521004+58400+019200FM-12+001299999V0202301N00311001501CN0040001N1+01121+01061100171ADDAY161031AY261031GA1061+001509079GF108991061071001501021999MD1710351+9999MW1621REMSYN082AAXX  25214 02584 41296 82306 10112 20106 40017 57035 76266 8672/ 333 86792 88599;
0172025840999992000052600004+58400+019200FM-12+001299999V0202501N00261030001CN0040001N1+01211+01161099881ADDAY161061AY261061GA1041+000759079GF108991041071000751021999MD1710291+9999MW1101REMSYN082AAXX  26004 02584 41196 82505 10121 20116 49988 57029 71066 8472/ 333 84791 88598;
0172025840999992000052603004+58400+019200FM-12+001299999V0202701N00571030001CN0040001N1+01021+00961099751ADDAY161031AY221031GA1031+000759079GF108991031071000751021999MD1710131+9999MW1101REMSYN082AAXX  26034 02584 41196 82711 10102 20096 49975 57013 71062 8372/ 333 83791 88596;
0186025840999992000052606004+58400+019200FM-12+001299999V0202701N007210080019N0100001N1+00961+00611099791ADDAA112016091GA1081+008009059GF108991081051008001999999IA1099KA1120N+00881MD1510041+9999REMSYN088AAXX  26064 02584 12597 82714 10096 20061 49979 55004 60162 885// 333 20088 31/// 88695;
0166025840999992000052609004+58400+019200FM-12+001299999V0202701N006210125019N0100001N1+01011+00681100171ADDAY121031AY221031GA1081+012509059GF108991081051012501999999MD1210381+9999MW1211REMSYN076AAXX  26094 02584 41697 82712 10101 20068 40017 52038 72122 885// 333 88696;
0166025840999992000052612004+58400+019200FM-12+001299999V0202901N006712200019N0200001N1+01121+00621100611ADDAY161061AY221061GA1011+008009059GF101991011041008001001001MD1210441+9999MW1011REMSYN076AAXX  26124 02584 41598 12913 10112 20062 40061 52044 70162 81400 333 81695;
0138025840999992000052615004+58400+019200FM-12+001299999V0202701N004112200019N0200001N1+01121+00641100981ADDGA1021+999999079GF102991021001999999031001MD1210371+9999REMSYN070AAXX  26154 02584 42998 22708 10112 20064 40098 52037 82030 333 82399;
0174025840999992000052618004+58400+019200FM-12+001299999V0202701N003112200019N0200001N1+00991+00611101151ADDAA112000791GA1021+999999019GF102991001001999999001011KA1120M+01161MD1110171+9999REMSYN082AAXX  26184 02584 12998 22706 10099 20061 40115 51017 69902 80001 333 10116 82099;
0122025840999992000052621004+58400+019200FM-12+001299999V0202901N003612200019N0200001N1+00971+00621101321ADDGA1001+999999999GF100991001001999999001001MD1210171+9999REMSYN054AAXX  26214 02584 42998 02907 10097 20062 40132 52017;
0122025840999992000052700004+58400+019200FM-12+001299999V0202901N003112200019N0200001N1+00901+00661101441ADDGA1001+999999999GF100991001001999999001001MD1110121+9999REMSYN054AAXX  27004 02584 42998 02906 10090 20066 40144 51012;
0138025840999992000052703004+58400+019200FM-12+001299999V0202901N001512200019N0200001N1+00881+00691101441ADDGA1021+999999019GF102991001001999999001011MD1410001+9999REMSYN070AAXX  27034 02584 42998 22903 10088 20069 40144 54000 80001 333 82099;
0199025840999992000052706004+58400+019200FM-12+001299999V0202501N002112200019N0200001N1+01011+00731101581ADDAA199000091GA1021+999999019GF102991001001999999001011IA1019KA1120N+00881MD1310141+9999REMSYN082AAXX  27064 02584 32998 22504 10101 20073 40158 53014 80001 333 20088 30/// 82099;EQDQ01  00002PRCP99
0138025840999992000052709004+58400+019200FM-12+001299999V0202501N001512200019N0200001N1+01491+00541101511ADDGA1041+999999019GF104991001001999999001011MD1810071+9999REMSYN070AAXX  27094 02584 42998 42503 10149 20054 40151 58007 80001 333 84099;
0138025840999992000052712004+58400+019200FM-12+001299999V0202001N003112200019N0200001N1+01591+00301101311ADDGA1011+999999019GF101991001001999999001011MD1810201+9999REMSYN070AAXX  27124 02584 42998 12006 10159 20030 40131 58020 80001 333 81099;
0138025840999992000052715004+58400+019200FM-12+001299999V0201801N002610175019N0200001N1+01361+00421100951ADDGA1081+017509059GF108991081051017501999999MD1810361+9999REMSYN070AAXX  27154 02584 42798 81805 10136 20042 40095 58036 885// 333 88697;
0187025840999992000052718004+58400+019200FM-12+001299999V0201801N003110125019N0200001N1+01281+00591100681ADDAA199000091GA1081+012509059GF108991081051012501999999KA1120M+01641MD1810271+9999REMSYN076AAXX  27184 02584 32698 81806 10128 20059 40068 58027 885// 333 10164 88696;EQDQ01  00002PRCP99
0172025840999992000052721004+58400+019200FM-12+001299999V0202001N00261030001CN0200001N1+01041+00981100711ADDAY161031AY221031GA1031+001509079GF108991031071001501021999MD1110031+9999MW1601REMSYN082AAXX  27214 02584 41298 82005 10104 20098 40071 51003 76062 8372/ 333 83792 88599;
0185025840999992000052800004+58400+019200FM-12+001299999V0202901N002610175019N0100001N1+00881+00791100951ADDAY161061AY221061GA1051+017509059GF105991051051017501999001MD1210241+9999MW1011REMSYN076AAXX  28004 02584 41797 52905 10088 20079 40095 52024 70162 85500 333 85697;EQDQ01+000002SCOMCG
0122025840999992000052803004+58400+019200FM-12+001299999V0202901N004112200019N0200001N1+00861+00701101171ADDGA1001+999999999GF100991001001999999001001MD1210221+9999REMSYN054AAXX  28034 02584 42998 02908 10086 20070 40117 52022;
0186025840999992000052806004+58400+019200FM-12+001299999V0202701N002112200019N0200001N1+00971+00921101291ADDAA112006191GA1011+999999019GF101991001001999999001011IA1099KA1120N+00761MD1210121+9999REMSYN088AAXX  28064 02584 12998 12704 10097 20092 40129 52012 60062 80001 333 20076 31/// 81099;
0138025840999992000052809004+58400+019200FM-12+001299999V0202701N002612200019N0200001N1+01201+00721101341ADDGA1011+999999019GF102991001001999999001011MD1210051+9999REMSYN070AAXX  28094 02584 42998 22705 10120 20072 40134 52005 80001 333 81099;
0138025840999992000052812004+58400+019200FM-12+001299999V0202501N003112200019N0200001N1+01551+00571101231ADDGA1011+999999019GF103991001001999999001011MD1810111+9999REMSYN070AAXX  28124 02584 42998 32506 10155 20057 40123 58011 80001 333 81099;
0138025840999992000052815004+58400+019200FM-12+001299999V0202501N003112200019N0200001N1+01381+00631101081ADDGA1031+999999079GF104991031001999999031011MD1710151+9999REMSYN070AAXX  28154 02584 42998 42506 10138 20063 40108 57015 83031 333 83399;
0187025840999992000052818004+58400+019200FM-12+001299999V0202001N002112200019N0200001N1+01111+00441100971ADDAA199000091GA1021+999999079GF102991021001999999031011KA1120M+01591MD1610111+9999REMSYN076AAXX  28184 02584 32998 22004 10111 20044 40097 56011 82031 333 10159 82399;EQDQ01  00002PRCP99
0138025840999992000052821004+58400+019200FM-12+001299999V0201601N002110125019N0200001N1+00991+00341100761ADDGA1061+012509059GF106991061051012501001001MD1810211+9999REMSYN070AAXX  28214 02584 42698 61604 10099 20034 40076 58021 86500 333 86696;
0138025840999992000052900004+58400+019200FM-12+001299999V0201601N002110125019N0200001N1+01021+00501100441ADDGA1081+012509059GF108991081051012501999999MD1810321+9999REMSYN070AAXX  29004 02584 42698 81604 10102 20050 40044 58032 885// 333 88696;
0138025840999992000052903004+58400+019200FM-12+001299999V0201801N002610015019N0200001N1+00961+00741100191ADDGA1081+001509069GF108991081061001501999999MD1610251+9999REMSYN070AAXX  29034 02584 42298 81805 10096 20074 40019 56025 886// 333 88792;
0199025840999992000052906004+58400+019200FM-12+001299999V0202001N002110015019N0200001N1+01071+00981100171ADDAA199000091GA1081+001509069GF108991081061001501999999IA1019KA1120N+00961MD1610021+9999REMSYN082AAXX  29064 02584 32298 82004 10107 20098 40017 56002 886// 333 20096 30/// 88792;EQDQ01  00002PRCP99
0138025840999992000052909004+58400+019200FM-12+001299999V0202501N003110080019N0200001N1+01141+00601100261ADDGA1081+008009059GF108991081051008001999999MD1310091+9999REMSYN070AAXX  29094 02584 42598 82506 10114 20060 40026 53009 885// 333 88695;
0138025840999992000052912004+58400+019200FM-12+001299999V0202301N003112200019N0200001N1+01331+00501100401ADDGA1011+999999019GF101991001001999999001011MD1110141+9999REMSYN070AAXX  29124 02584 42998 12306 10133 20050 40040 51014 80001 333 81099;
0138025840999992000052915004+58400+019200FM-12+001299999V0202501N002619999999N0200001N1+01191+00561100401ADDGA1061+999999079GF106991061001999999031001MD1010001+9999REMSYN070AAXX  29154 02584 42998 62505 10119 20056 40040 50000 86030 333 86399;
0187025840999992000052918004+58400+019200FM-12+001299999V0202001N002612200019N0200001N1+01061+00751100391ADDAA199000091GA1011+999999019GF104991001001999999001011KA1120M+01391MD1610011+9999REMSYN076AAXX  29184 02584 32998 42005 10106 20075 40039 56001 80001 333 10139 81099;EQDQ01  00002PRCP99
0138025840999992000052921004+58400+019200FM-12+001299999V0202301N003112200019N0200001N1+00921+00811100391ADDGA1011+999999019GF102991001001999999001011MD1010001+9999REMSYN070AAXX  29214 02584 42998 22306 10092 20081 40039 50000 80001 333 81099;
0138025840999992000053000004+58400+019200FM-12+001299999V0202301N003612200019N0100001N1+00951+00841100361ADDGA1031+004509069GF103991031061999999001001MD1610031+9999REMSYN070AAXX  30004 02584 42997 32307 10095 20084 40036 56003 83600 333 83794;
0122025840999992000053003004+58400+019200FM-12+001299999V0202301N003112200019N0200001N1+00931+00821100451ADDGA1001+999999999GF100991001001999999001001MD1310091+9999REMSYN054AAXX  30034 02584 42998 02306 10093 20082 40045 53009;
0215025840999992000053006004+58400+019200FM-12+001299999V0202301N004110175019N0200001N1+01021+00711100591ADDAA199000091GA1061+017509059GF106991061051017501999001IA1019KA1120N+00921MD1210141+9999REMSYN082AAXX  30064 02584 32798 62308 10102 20071 40059 52014 86500 333 20092 30/// 86697;EQDQ01+000002SCOMCGQ02  00002PRCP99
0138025840999992000053009004+58400+019200FM-12+001299999V0202501N004112200019N0200001N1+01131+00651100681ADDGA1011+999999019GF101991001001999999001021MD1210091+9999REMSYN070AAXX  30094 02584 42998 12508 10113 20065 40068 52009 80002 333 81099;
0138025840999992000053012004+58400+019200FM-12+001299999V0202701N004112200019N0200001N1+01201+00551100711ADDGA1021+999999019GF102991001001999999001021MD1310031+9999REMSYN070AAXX  30124 02584 42998 22708 10120 20055 40071 53003 80002 333 82099;
0138025840999992000053015004+58400+019200FM-12+001299999V0202701N003612200019N0200001N1+01251+00441100731ADDGA1011+999999019GF101991001001999999001011MD1110021+9999REMSYN070AAXX  30154 02584 42998 12707 10125 20044 40073 51002 80001 333 81099;
0175025840999992000053018004+58400+019200FM-12+001299999V0202701N003612200019N0200001N1+01061+00601100731ADDAA199000091GA1001+999999999GF100991001001999999001001KA1999M+01321MD1510001+9999REMSYN064AAXX  30184 02584 32998 02707 10106 20060 40073 55000 333 10132;EQDQ01  00002PRCP99
0138025840999992000053021004+58400+019200FM-12+001299999V0202301N002112200019N0200001N1+00931+00741100801ADDGA1011+004509099GF101991011031004501001001MD1210071+9999REMSYN070AAXX  30214 02584 42498 12304 10093 20074 40080 52007 81300 333 81994;
0138025840999992000053100004+58400+019200FM-12+001299999V0202701N002612200019N0200001N1+00861+00621100811ADDGA1011+999999079GF101991011001999999031001MD1010011+9999REMSYN070AAXX  31004 02584 42998 12705 10086 20062 40081 50001 81030 333 81399;
0138025840999992000053103004+58400+019200FM-12+001299999V0202901N00311075001CN0200001N1+00851+00571100831ADDGA1051+999999019GF105991001001999999001011MD1110021+9999REMSYN070AAXX  31034 02584 42998 52906 10085 20057 40083 51002 80001 333 85099;
0199025840999992000053106004+58400+019200FM-12+001299999V0202701N003612200019N0200001N1+00921+00611100921ADDAA199000091GA1021+999999019GF102991001001999999001011IA1019KA1120N+00851MD1310091+9999REMSYN082AAXX  31064 02584 32998 22707 10092 20061 40092 53009 80001 333 20085 30/// 82099;EQDQ01  00002PRCP99
0138025840999992000053109004+58400+019200FM-12+001299999V0202901N003110125019N0200001N1+00961+00581101071ADDGA1061+012509059GF106991061051012501001001MD1310151+9999REMSYN070AAXX  31094 02584 42698 62906 10096 20058 40107 53015 86500 333 86696;
0138025840999992000053112004+58400+019200FM-12+001299999V0202901N003112200019N0200001N1+01021+00541101201ADDGA1011+999999019GF101991001001999999001011MD1210131+9999REMSYN070AAXX  31124 02584 42998 12906 10102 20054 40120 52013 80001 333 81099;
0144025840999992000053115004+58400+019200FM-12+001299999V0202901N001519999999N0200001N1+01061+00601101381ADDGA1021+025009039GF105991021001999999031011MD1310181+9999REMSYN076AAXX  31154 02584 42998 52903 10106 20060 40138 53018 82031 333 82399 83099;
0203025840999992000053118004+58400+019200FM-12+001299999V0202701N001010175019N0200001N1+01021+00621101501ADDAA199000091GA1061+017509059GF106991061051999999999001KA1120M+01171MD1310121+9999REMSYN076AAXX  31184 02584 32998 62702 10102 20062 40150 53012 86500 333 10117 86697;EQDQ01+000002SCOMCGQ02  00002PRCP99
0138025840999992000053121004+58400+019200FM-12+001299999V0202701N002112200019N0200001N1+00781+00621101631ADDGA1021+999999079GF102991021001999999031001MD1210131+9999REMSYN070AAXX  31214 02584 42998 22704 10078 20062 40163 52013 82030 333 82399;
0122025840999992000060100004+58400+019200FM-12+001299999V0202901N002112200019N0100001N1+00801+00691101721ADDGA1001+999999999GF100991001001999999001001MD1210091+9999REMSYN054AAXX  01004 02584 42997 02904 10080 20069 40172 52009;
0157025840999992000060103004+58400+019200FM-12+001299999V0202901N001012200019N0200001N1+00841+00721101861ADDGA1011+022509059GF101991011051999999999001MD1210141+9999REMSYN070AAXX  01034 02584 42998 12902 10084 20072 40186 52014 81500 333 81698;EQDQ01+000002SCOMCG
0187025840999992000060106004+58400+019200FM-12+001299999V0202901N002112200019N0200001N1+00981+00691101961ADDAA199000091GA1001+999999999GF100991001001999999001001IA1019KA1120N+00661MD1210101+9999REMSYN070AAXX  01064 02584 32998 02904 10098 20069 40196 52010 333 20066 30///;EQDQ01  00002PRCP99
0122025840999992000060109004+58400+019200FM-12+001299999V0202701N002612200019N0200001N1+01141+00741102041ADDGA1001+999999999GF100991001001999999001001MD1210081+9999REMSYN054AAXX  01094 02584 42998 02705 10114 20074 40204 52008;
0122025840999992000060112004+58400+019200FM-12+001299999V0202701N003112200019N0200001N1+01231+00751102051ADDGA1001+999999999GF100991001001999999001001MD1010011+9999REMSYN054AAXX  01124 02584 42998 02706 10123 20075 40205 50001;
0122025840999992000060115004+58400+019200FM-12+001299999V0202701N002612200019N0200001N1+01211+00711102041ADDGA1001+999999999GF100991001001999999001001MD1710011+9999REMSYN054AAXX  01154 02584 42998 02705 10121 20071 40204 57001;
0197025840999992000060118004+58400+019200FM-12+001299999V0202701N002112200019N0200001N1+01081+00711101981ADDAA199000091GA1011+025009039GF101991011001999999031011KA1120M+01311MD1810061+9999REMSYN086AAXX  01184 02584 32998 12704 10108 20071 40198 58006 81031 333 10131 81399 555 03206;EQDQ01  00002PRCP99
0138025840999992000060121004+58400+019200FM-12+001299999V0202301N002619999999N0200001N1+01051+00761101971ADDGA1061+999999079GF106991061001999999031001MD1410001+9999REMSYN070AAXX  01214 02584 42998 62305 10105 20076 40197 54001 86030 333 86399;
0138025840999992000060200004+58400+019200FM-12+001299999V0202001N00211075001CN0200001N1+00981+00701101871ADDGA1081+999999019GF108991081001999999011999MD1810101+9999REMSYN070AAXX  02004 02584 42998 82004 10098 20070 40187 58010 8801/ 333 88499;
0172025840999992000060203004+58400+019200FM-12+001299999V0202001N00211008001CN0040001N1+00941+00851101661ADDAY121031AY221031GA1061+008009069GF108991061051008001021999MD1810211+9999MW1611REMSYN082AAXX  02034 02584 41596 82004 10094 20085 40166 58021 76122 8652/ 333 86695 88599;
0220025840999992000060206004+58400+019200FM-12+001299999V0202001N00261001501CN0040001N1+01011+00951101331ADDAA112003091AY161061AY221061GA1051+001509079GF108991051071001501021999IA1119KA1120N+00941MD1810331+9999MW1621REMSYN100AAXX  02064 02584 11296 82005 10101 20095 40133 58033 60032 76262 8572/ 333 20094 32/// 85792 88599;
0172025840999992000060209004+58400+019200FM-12+001299999V0202501N00261001201CN0040001N1+01031+00951101111ADDAY161031AY261031GA1031+001509079GF108991061071001501021999MD1610221+9999MW1211REMSYN082AAXX  02094 02584 41296 82505 10103 20095 40111 56022 72166 8672/ 333 83792 88599;
0185025840999992000060212004+58400+019200FM-12+001299999V0202501N002610175019N0040001N1+01211+01091101031ADDAY161061AY261061GA1061+017509059GF106991061051017501999001MD1710081+9999MW1101REMSYN076AAXX  02124 02584 41796 62505 10121 20109 40103 57008 71066 86500 333 86697;EQDQ01+000002SCOMCG
0113025840999992000060215004+58400+019200FM-12+001299999V0202501N003619999999N0040001N1+01161+99999999999ADDGF108991999999008001999999REMSYN075AAXX  02154 02584 41596 82507 10116 2017 40094 58009 72582 883// 333 88995;
0221025840999992000060218004+58400+019200FM-12+001299999V0202701N004612200019N0100001N1+01181+01061100831ADDAA112001091AY181061AY221061GA1041+017509059GF104991041051017501999001KA1120M+01351MD1710111+9999MW1011REMSYN088AAXX  02184 02584 11797 42709 10118 20106 40083 57011 60012 70182 84500 333 10135 84697;EQDQ01+000002SCOMCG
0157025840999992000060221004+58400+019200FM-12+001299999V0202701N004112200019N0100001N1+01121+01011100761ADDGA1041+017509059GF104991041051017501999001MD1710071+9999REMSYN070AAXX  02214 02584 42797 42708 10112 20101 40076 57007 84500 333 84697;EQDQ01+000002SCOMCG
0157025840999992000060300004+58400+019200FM-12+001299999V0202501N004112200019N0100001N1+01041+00931100791ADDGA1011+017509059GF101991011051017501999001MD1310031+9999REMSYN070AAXX  03004 02584 42797 12508 10104 20093 40079 53003 81500 333 81697;EQDQ01+000002SCOMCG
0138025840999992000060303004+58400+019200FM-12+001299999V0202901N00411075001CN0200001N1+00971+00761100911ADDGA1051+999999019GF105991001001999999001021MD1210121+9999REMSYN070AAXX  03034 02584 42998 52908 10097 20076 40091 52012 80002 333 85099;
0187025840999992000060306004+58400+019200FM-12+001299999V0203201N003612200019N0200001N1+01051+00741101121ADDAA199000091GA1001+999999999GF100991001001999999001001IA1019KA1120N+00971MD1210211+9999REMSYN070AAXX  03064 02584 32998 03207 10105 20074 40112 52021 333 20097 30///;EQDQ01  00002PRCP99
0122025840999992000060309004+58400+019200FM-12+001299999V0203201N002612200019N0200001N1+01201+00701101351ADDGA1001+999999999GF100991001001999999001001MD1210231+9999REMSYN054AAXX  03094 02584 42998 03205 10120 20070 40135 52023;
0122025840999992000060312004+58400+019200FM-12+001299999V0202901N003112200019N0200001N1+01271+00571101471ADDGA1001+999999999GF100991001001999999001001MD1210121+9999REMSYN054AAXX  03124 02584 42998 02906 10127 20057 40147 52012;
0122025840999992000060315004+58400+019200FM-12+001299999V0202701N003612200019N0200001N1+01231+00541101481ADDGA1001+999999999GF100991001001999999001001MD1110011+9999REMSYN054AAXX  03154 02584 42998 02707 10123 20054 40148 51001;
0175025840999992000060318004+58400+019200FM-12+001299999V0202701N001512200019N0200001N1+01091+00461101481ADDAA199000091GA1001+999999999GF100991001001999999001001KA1999M+01291MD1410001+9999REMSYN064AAXX  03184 02584 32998 02703 10109 20046 40148 54000 333 10129;EQDQ01  00002PRCP99
0122025840999992000060321004+58400+019200FM-12+001299999V0203201N003612200019N0200001N1+01051+00361101531ADDGA1001+999999999GF100991001001999999001001MD1210051+9999REMSYN054AAXX  03214 02584 42998 03207 10105 20036 40153 52005;
0122025840999992000060400004+58400+019200FM-12+001299999V0203201N003112200019N0200001N1+00961+00541101591ADDGA1001+999999999GF100991001001999999001001MD1310061+9999REMSYN054AAXX  04004 02584 42998 03206 10096 20054 40159 53006;
0138025840999992000060403004+58400+019200FM-12+001299999V0200501N001512200019N0200001N1+00781+00501101701ADDGA1011+012509059GF101991011051012501001001MD1110111+9999REMSYN070AAXX  04034 02584 42698 10503 10078 20050 40170 51011 81500 333 81696;
0187025840999992000060406004+58400+019200FM-12+001299999V0203601N001012200019N0200001N1+01021+00441101841ADDAA199000091GA1001+999999999GF100991001001999999001001IA1019KA1120N+00721MD1310141+9999REMSYN070AAXX  04064 02584 32998 03602 10102 20044 40184 53014 333 20072 30///;EQDQ01  00002PRCP99
0138025840999992000060409004+58400+019200FM-12+001299999V0202901N001512200019N0200001N1+01201+00071102011ADDGA1011+999999019GF101991001001999999001011MD1310171+9999REMSYN070AAXX  04094 02584 42998 12903 10120 20007 40201 53017 80001 333 81099;
0138025840999992000060412004+58400+019200FM-12+001299999V0202301N002112200019N0500001N1+01161+00061102041ADDGA1021+999999019GF102991001001999999001011MD1110031+9999REMSYN070AAXX  04124 02584 42999 22304 10116 20006 40204 51003 80001 333 82099;
0138025840999992000060415004+58400+019200FM-12+001299999V0202001N001019999999N0500001N1+01111+00081101951ADDGA1071+999999089GF107991001001999999001061MD1810091+9999REMSYN070AAXX  04154 02584 42999 72002 10111 20008 40195 58009 80006 333 87299;
0187025840999992000060418004+58400+019200FM-12+001299999V0201601N00151075001CN0200001N1+01001+00331101961ADDAA199000091GA1051+999999019GF105991001001999999001061KA1120M+01231MD1310011+9999REMSYN076AAXX  04184 02584 32998 51603 10100 20033 40196 53001 80006 333 10123 85099;EQDQ01  00002PRCP99
0138025840999992000060421004+58400+019200FM-12+001299999V0201401N00211075001CN0200001N1+00931+00581102001ADDGA1051+999999019GF105991001001999999001061MD1210041+9999REMSYN070AAXX  04214 02584 42998 51404 10093 20058 40200 52004 80006 333 85099;
0138025840999992000060500004+58400+019200FM-12+001299999V0201801N002112200019N0100001N1+00681+00591102031ADDGA1041+999999019GF104991001001999999001061MD1210031+9999REMSYN070AAXX  05004 02584 42997 41804 10068 20059 40203 52003 80006 333 84099;
0150025840999992000060503004+58400+019200FM-12+001299999V0201801N001012200019N0040001N1+00361+00321102021ADDAY101031AY201031GA1001+999999999GF100991001001999999001001MD1710011+9999MW1101REMSYN060AAXX  05034 02584 41996 01802 10036 20032 40202 57001 71000;
0199025840999992000060506004+58400+019200FM-12+001299999V0201801N002112200019N0200001N1+01041+00431102121ADDAA199000091GA1021+999999019GF102991001001999999001011IA1019KA1120N+00361MD1210101+9999REMSYN082AAXX  05064 02584 32998 21804 10104 20043 40212 52010 80001 333 20036 30/// 82099;EQDQ01  00002PRCP99
0137025840999992000060509004+58400+019200FM-12+001299999V0203601N002112200019N0500001N1+01151+00361102211ADDGA1011+999999019GF101991001001999999001041MD1210091+9999REMSYN069AAXX  05094 02584 4299913604 10115 20036 40221 52009 80004 333 81099;
0122025840999992000060512004+58400+019200FM-12+001299999V0203601N001012200019N0500001N1+01151+00331102191ADDGA1001+999999999GF100991001001999999001001MD1810021+9999REMSYN054AAXX  05124 02584 42999 03602 10115 20033 40219 58002;
0122025840999992000060515004+58400+019200FM-12+001299999V0209999V001012200019N0500001N1+01291+00221102161ADDGA1001+999999999GF100991001001999999001001MD1710031+9999REMSYN054AAXX  05154 02584 42999 09902 10129 20022 40216 57003;
0187025840999992000060518004+58400+019200FM-12+001299999V0201101N001012200019N0200001N1+01031+00341102031ADDAA199000091GA1011+999999019GF101991001001999999001011KA1120M+01301MD1810131+9999REMSYN076AAXX  05184 02584 32998 11102 10103 20034 40203 58013 80001 333 10130 81099;EQDQ01  00002PRCP99
0122025840999992000060521004+58400+019200FM-12+001299999V0201401N001512200019N0100001N1+00661+00561102071ADDGA1001+999999999GF100991001001999999001001MD1310041+9999REMSYN054AAXX  05214 02584 42997 01403 10066 20056 40207 53004;
0166025840999992000060600004+58400+019200FM-12+001299999V0201101N000512200019N0040001N1+00251+00181102021ADDAY101061AY201061GA1021+999999019GF102991001001999999001011MD1810051+9999MW1101REMSYN076AAXX  06004 02584 41996 21101 10025 20018 40202 58005 71000 80001 333 82099;
0166025840999992000060603004+58400+019200FM-12+001299999V0202001N000519999999N0040001N1+00561+00501101971ADDAY121031AY221031GA1071+999999079GF107991071001999999031999MD1510051+9999MW1101REMSYN076AAXX  06034 02584 41996 72001 10056 20050 40197 55005 71022 8703/ 333 87399;
0199025840999992000060606004+58400+019200FM-12+001299999V0203601N000519999999N0200001N1+01001+00781101941ADDAA199000091GA1071+999999079GF107991071001999999031999IA1019KA1120N+00251MD1810031+9999REMSYN082AAXX  06064 02584 32998 73601 10100 20078 40194 58003 8703/ 333 20025 30/// 87399;EQDQ01  00002PRCP99
0157025840999992000060609004+58400+019200FM-12+001299999V0200201N002110225019N0200001N1+01251+00581101871ADDGA1061+022509079GF106991061999022501031001MD1710071+9999REMSYN070AAXX  06094 02584 42898 60204 10125 20058 40187 57007 86030 333 86398;EQDQ01+000002SCOLCG
0138025840999992000060612004+58400+019200FM-12+001299999V0200201N002110080019N0200001N1+01061+00621101771ADDGA1081+008009059GF108991081051008001999999MD1710101+9999REMSYN070AAXX  06124 02584 42598 80204 10106 20062 40177 57010 885// 333 88695;
0138025840999992000060615004+58400+019200FM-12+001299999V0200201N002110125019N0200001N1+00951+00511101631ADDGA1081+012509059GF108991081051012501999999MD1810141+9999REMSYN070AAXX  06154 02584 42698 80204 10095 20051 40163 58014 885// 333 88696;
0208025840999992000060618004+58400+019200FM-12+001299999V0200201N00101030001CN0100001N1+00971+00781101481ADDAA112000791AY121061AY221061GA1031+012509069GF108991031051012501021999KA1120M+01331MD1610151+9999MW1611REMSYN094AAXX  06184 02584 11697 80202 10097 20078 40148 56015 69902 76122 8352/ 333 10133 83696 88599;
0172025840999992000060621004+58400+019200FM-12+001299999V0200201N00261030001CN0040001N1+00901+00841101321ADDAY161031AY261031GA1031+022509069GF108991031051022501021999MD1710161+9999MW1601REMSYN082AAXX  06214 02584 41896 80205 10090 20084 40132 57016 76066 8352/ 333 83698 88599;
0172025840999992000060700004+58400+019200FM-12+001299999V0200201N00261030001CN0040001N1+00951+00841101091ADDAY161061AY261061GA1031+017509069GF108991031051017501021999MD1710221+9999MW1601REMSYN082AAXX  07004 02584 41796 80205 10095 20084 40109 57022 76066 8352/ 333 83697 88599;
0172025840999992000060703004+58400+019200FM-12+001299999V0200201N00361030001CN0020001N1+00971+00861100801ADDAY161031AY261031GA1031+008009069GF108991031051008001021999MD1710291+9999MW1601REMSYN082AAXX  07034 02584 41595 80207 10097 20086 40080 57029 76066 8352/ 333 83695 88599;
0214025840999992000060706004+58400+019200FM-12+001299999V0200501N001510015019N0040001N1+01011+00961100541ADDAA112004191AY161061AY221061GA1081+001509069GF108991081071001501999999IA1099KA1120N+00901MD1710261+9999MW1511REMSYN094AAXX  07064 02584 11296 80503 10101 20096 40054 57026 60042 75162 887// 333 20090 31/// 88792;
0150025840999992000060712004+58400+019200FM-12+001299999V0201101N001010003019N0005001N1+01031+00981100171ADDAY151061AY251061GA1091+999999999GF109991091999999999999999MD1710181+9999MW1471REMSYN060AAXX  07124 02584 41/93 91102 10103 20098 40017 57018 74755;
0166025840999992000060715004+58400+019200FM-12+001299999V0201601N001510007519N0020001N1+01051+00991100061ADDAY151031AY241031GA1081+000759069GF108991081061000751999999MD1710111+9999MW1101REMSYN076AAXX  07154 02584 41195 81603 10105 20099 40006 57011 71054 886// 333 88791;
0202025840999992000060718004+58400+019200FM-12+001299999V0209999C000010007519N0040001N1+01011+00931099921ADDAA112002091AY151061AY241061GA1081+000759069GF108991081061000751999999KA1120M+01111MD1710141+9999MW1101REMSYN088AAXX  07184 02584 11196 80000 10101 20093 49992 57014 60022 71054 886// 333 10111 88791;
0166025840999992000060721004+58400+019200FM-12+001299999V0202901N002610007519N0010001N1+00921+00841099971ADDAY151031AY221031GA1081+000759069GF108991081061000751999999MD1310051+9999MW1501REMSYN076AAXX  07214 02584 41194 82905 10092 20084 49997 53005 75052 886// 333 88791;
0166025840999992000060800004+58400+019200FM-12+001299999V0203201N004610007519N0040001N1+00891+00811100211ADDAY161061AY251061GA1081+000759069GF108991081061000751999999MD1310241+9999MW1101REMSYN076AAXX  08004 02584 41196 83209 10089 20081 40021 53024 71065 886// 333 88791;
0172025840999992000060803004+58400+019200FM-12+001299999V0202701N00411001501CN0040001N1+00881+00801100421ADDAY161031AY221031GA1071+001509079GF108991071071001501021999MD1110211+9999MW1601REMSYN082AAXX  08034 02584 41296 82708 10088 20080 40042 51021 76062 8772/ 333 87792 88599;
0220025840999992000060806004+58400+019200FM-12+001299999V0202901N00361004501CN0040001N1+00931+00871100621ADDAA112004191AY161061AY221061GA1061+004509079GF108991061071004501021999IA1119KA1120N+00881MD1210201+9999MW1211REMSYN100AAXX  08064 02584 11496 82907 10093 20087 40062 52020 60042 72162 8672/ 333 20088 32/// 86794 88599;
0166025840999992000060809004+58400+019200FM-12+001299999V0202901N002612200019N0100001N1+01221+01051100901ADDAY161031AY221031GA1021+008009059GF102991021051008001001011MD1310281+9999MW1011REMSYN076AAXX  08094 02584 41597 22905 10122 20105 40090 53028 70162 82501 333 82695;
0185025840999992000060812004+58400+019200FM-12+001299999V0202501N002612200019N0200001N1+01361+00961101111ADDAY161061AY221061GA1011+022509079GF101991011999022501031001MD1110211+9999MW1251REMSYN076AAXX  08124 02584 41898 12505 10136 20096 40111 51021 72562 81030 333 81398;EQDQ01+000002SCOLCG
0172025840999992000060815004+58400+019200FM-12+001299999V0202701N001512200019N0200001N1+01391+00801101261ADDAY181031AY221031GA1011+012509099GF104991011031012501031001MD1110151+9999MW1251REMSYN082AAXX  08154 02584 41698 42703 10139 20080 40126 51015 72582 81330 333 81996 83399;
0202025840999992000060818004+58400+019200FM-12+001299999V0202901N002612200019N0200001N1+01191+00861101351ADDAA112000191AY181061AY221061GA1031+012509029GF104991031031012501071001KA1120M+01421MD1110091+9999MW1021REMSYN088AAXX  08184 02584 11698 42905 10119 20086 40135 51009 69922 70282 83370 333 10142 83896;
0138025840999992000060821004+58400+019200FM-12+001299999V0202001N003112200019N0200001N1+01061+00721101481ADDGA1021+012509099GF103991021021012501031001MD1210131+9999REMSYN070AAXX  08214 02584 42698 32006 10106 20072 40148 52013 82230 333 82996;
0122025840999992000060900004+58400+019200FM-12+001299999V0202701N003112200019N0200001N1+01121+00861101511ADDGA1001+999999999GF100991001001999999001001MD1110031+9999REMSYN054AAXX  09004 02584 42998 02706 10112 20086 40151 51003;
0122025840999992000060903004+58400+019200FM-12+001299999V0202901N002612200019N0200001N1+01011+00921101761ADDGA1001+999999999GF100991001001999999001001MD1310251+9999REMSYN054AAXX  09034 02584 42998 02905 10101 20092 40176 53025;
0187025840999992000060906004+58400+019200FM-12+001299999V0202901N000512200019N0200001N1+01181+00761101981ADDAA199000091GA1001+999999999GF100991001001999999001001IA1019KA1120N+01011MD1210221+9999REMSYN070AAXX  09064 02584 32998 02901 10118 20076 40198 52022 333 20101 30///;EQDQ01  00002PRCP99
0138025840999992000060909004+58400+019200FM-12+001299999V0203201N000512200019N0200001N1+01361+00491102141ADDGA1011+999999019GF101991001001999999001011MD1210161+9999REMSYN070AAXX  09094 02584 42998 13201 10136 20049 40214 52016 80001 333 81099;
0138025840999992000060912004+58400+019200FM-12+001299999V0202001N001012200019N0200001N1+01461+00591102221ADDGA1021+999999019GF102991001001999999001011MD1110081+9999REMSYN070AAXX  09124 02584 42998 22002 10146 20059 40222 51008 80001 333 82099;
0138025840999992000060915004+58400+019200FM-12+001299999V0201801N002112200019N0200001N1+01491+00701102211ADDGA1021+999999019GF102991001001999999001011MD1810011+9999REMSYN070AAXX  09154 02584 42998 21804 10149 20070 40221 58001 80001 333 82099;
0187025840999992000060918004+58400+019200FM-12+001299999V0201601N001512200019N0200001N1+01351+00601102141ADDAA199000091GA1031+999999019GF103991001001999999001011KA1120M+01511MD1610071+9999REMSYN076AAXX  09184 02584 32998 31603 10135 20060 40214 56007 80001 333 10151 83099;EQDQ01  00002PRCP99
0138025840999992000060921004+58400+019200FM-12+001299999V0201801N002112200019N0200001N1+01171+01001102171ADDGA1011+999999019GF101991001001999999001011MD1310031+9999REMSYN070AAXX  09214 02584 42998 11804 10117 20100 40217 53003 80001 333 81099;
0138025840999992000061000004+58400+019200FM-12+001299999V0201801N002112200019N0200001N1+01081+00891102231ADDGA1031+999999019GF103991001001999999001011MD1110061+9999REMSYN070AAXX  10004 02584 42998 31804 10108 20089 40223 51006 80001 333 83099;
0122025840999992000061003004+58400+019200FM-12+001299999V0201801N002112200019N0200001N1+01141+00701102201ADDGA1001+999999999GF100991001001999999001001MD1810031+9999REMSYN054AAXX  10034 02584 42998 01804 10114 20070 40220 58003;
0187025840999992000061006004+58400+019200FM-12+001299999V0201601N002612200019N0200001N1+01321+00631102241ADDAA199000091GA1001+999999999GF100991001001999999001001IA1019KA1120N+01041MD1110041+9999REMSYN070AAXX  10064 02584 32998 01605 10132 20063 40224 51004 333 20104 30///;EQDQ01  00002PRCP99
0138025840999992000061009004+58400+019200FM-12+001299999V0201601N002612200019N0200001N1+01671+00591102201ADDGA1021+999999019GF102991001001999999001011MD1610041+9999REMSYN070AAXX  10094 02584 42998 21605 10167 20059 40220 56004 80001 333 82099;
0138025840999992000061012004+58400+019200FM-12+001299999V0201601N003612200019N0200001N1+01721+00641102081ADDGA1041+999999019GF104991001001999999001011MD1710121+9999REMSYN070AAXX  10124 02584 42998 41607 10172 20064 40208 57012 80001 333 84099;
0138025840999992000061015004+58400+019200FM-12+001299999V0201601N003612200019N0200001N1+01721+00861101941ADDGA1041+999999019GF104991001001999999001021MD1710141+9999REMSYN070AAXX  10154 02584 42998 41607 10172 20086 40194 57014 80002 333 84099;
0187025840999992000061018004+58400+019200FM-12+001299999V0201401N004112200019N0200001N1+01681+00781101721ADDAA199000091GA1011+999999019GF102991001001999999001011KA1120M+01821MD1810221+9999REMSYN076AAXX  10184 02584 32998 21408 10168 20078 40172 58022 80001 333 10182 81099;EQDQ01  00002PRCP99
0138025840999992000061021004+58400+019200FM-12+001299999V0201601N003612200019N0200001N1+01441+00721101651ADDGA1021+999999019GF102991001001999999001011MD1610071+9999REMSYN070AAXX  10214 02584 42998 21607 10144 20072 40165 56007 80001 333 82099;
0122025840999992000061100004+58400+019200FM-12+001299999V0201601N003612200019N0200001N1+01441+00831101531ADDGA1001+999999999GF100991001001999999001001MD1810121+9999REMSYN054AAXX  11004 02584 42998 01607 10144 20083 40153 58012;
0138025840999992000061103004+58400+019200FM-12+001299999V0201401N003612200019N0200001N1+01381+01021101401ADDGA1021+999999019GF102991001001999999001011MD1710131+9999REMSYN070AAXX  11034 02584 42998 21407 10138 20102 40140 57013 80001 333 82099;
0199025840999992000061106004+58400+019200FM-12+001299999V0201401N003112200019N0200001N1+01701+01031101201ADDAA199000091GA1031+999999019GF103991001001999999001011IA1019KA1120N+01381MD1810201+9999REMSYN082AAXX  11064 02584 32998 31406 10170 20103 40120 58020 80001 333 20138 30/// 83099;EQDQ01  00002PRCP99
0138025840999992000061109004+58400+019200FM-12+001299999V0201401N00361075001CN0200001N1+01711+01081101121ADDGA1081+999999019GF108991081001999999011999MD1610081+9999REMSYN070AAXX  11094 02584 42998 81407 10171 20108 40112 56008 8801/ 333 88499;
0138025840999992000061112004+58400+019200FM-12+001299999V0201401N003119999999N0200001N1+01721+01201101011ADDGA1051+999999079GF106991051001999999031011MD1710111+9999REMSYN070AAXX  11124 02584 42998 61406 10172 20120 40101 57011 85031 333 85399;
0122025840999992000061115004+58400+019200FM-12+001299999V0201801N002112200019N0200001N1+01531+01111100951ADDGA1001+999999999GF100991001001999999001001MD1610061+9999REMSYN054AAXX  11154 02584 42998 01804 10153 20111 40095 56006;
0203025840999992000061118004+58400+019200FM-12+001299999V0202001N002112200019N0200001N1+01481+01181100851ADDAA199000091GA1031+999999079GF103991999001999999031001KA1120M+01841MD1610101+9999REMSYN076AAXX  11184 02584 32998 32004 10148 20118 40085 56010 85030 333 10184 83399;EQDQ01+000052SCOTLCQ02  00002PRCP99
0138025840999992000061121004+58400+019200FM-12+001299999V0202001N003119999999N0200001N1+01291+01111100951ADDGA1031+999999019GF105991051001999999011001MD1310101+9999REMSYN070AAXX  11214 02584 42998 52006 10129 20111 40095 53010 85010 333 83499;
0138025840999992000061200004+58400+019200FM-12+001299999V0202501N002619999999N0200001N1+01191+00811100971ADDGA1051+999999079GF106991051001999999071001MD1210021+9999REMSYN070AAXX  12004 02584 42998 62505 10119 20081 40097 52002 85070 333 85399;
0172025840999992000061203004+58400+019200FM-12+001299999V0201801N003119999999N0040001N1+01141+01031100931ADDAY121031AY221031GA1031+001509079GF108991031071999999021999MD1010041+9999MW1601REMSYN082AAXX  12034 02584 41996 81806 10114 20103 40093 50004 76022 8372/ 333 83792 88599;
0214025840999992000061206004+58400+019200FM-12+001299999V0202001N003612200019N0200001N1+01241+00991101011ADDAA112000591AY161061AY221061GA1021+008009099GF104991021031008001031001IA1099KA1120N+01131MD1510081+9999MW1011REMSYN094AAXX  12064 02584 11598 42007 10124 20099 40101 55008 69952 70162 82330 333 20113 31/// 82995;
0138025840999992000061209004+58400+019200FM-12+001299999V0201801N004119999999N0200001N1+01331+00831101081ADDGA1071+999999079GF107991071001999999031001MD1510071+9999REMSYN070AAXX  12094 02584 42998 71808 10133 20083 40108 55007 87030 333 87399;
0138025840999992000061212004+58400+019200FM-12+001299999V0202001N005112200019N0200001N1+01421+00701101131ADDGA1011+999999019GF101991001001999999001011MD1110051+9999REMSYN070AAXX  12124 02584 42998 12010 10142 20070 40113 51005 80001 333 81099;
0144025840999992000061215004+58400+019200FM-12+001299999V0202001N00571012501CN0200001N1+01301+00841101201ADDGA1061+012509069GF107991061051999999011001MD1110071+9999REMSYN076AAXX  12154 02584 42998 72011 10130 20084 40120 51007 86510 333 86696 84499;
0202025840999992000061218004+58400+019200FM-12+001299999V0202001N005112200019N0200001N1+01281+00941101241ADDAA112000791AY181061AY221061GA1031+999999019GF103991001001999999001021KA1120M+01461MD1210041+9999MW1011REMSYN088AAXX  12184 02584 11998 32010 10128 20094 40124 52004 69902 70182 80002 333 10146 83099;
0166025840999992000061221004+58400+019200FM-12+001299999V0202001N005112200019N0200001N1+01121+01011101461ADDAY181031AY221031GA1011+999999019GF101991001001999999001011MD1310221+9999MW1021REMSYN076AAXX  12214 02584 41998 12010 10112 20101 40146 53022 70282 80001 333 81099;
0122025840999992000061300004+58400+019200FM-12+001299999V0202001N004112200019N0100001N1+01091+01031101631ADDGA1001+999999999GF100991001001999999001001MD1210171+9999REMSYN054AAXX  13004 02584 42997 02008 10109 20103 40163 52017;
0122025840999992000061303004+58400+019200FM-12+001299999V0202001N003612200019N0100001N1+01101+01041101701ADDGA1001+999999999GF100991001001999999001001MD1110071+9999REMSYN054AAXX  13034 02584 42997 02007 10110 20104 40170 51007;
0199025840999992000061306004+58400+019200FM-12+001299999V0201801N003612200019N0200001N1+01241+01081101701ADDAA199000091GA1011+999999019GF101991001001999999001011IA1019KA1120N+01081MD1010001+9999REMSYN082AAXX  13064 02584 32998 11807 10124 20108 40170 50000 80001 333 20108 30/// 81099;EQDQ01  00002PRCP99
0138025840999992000061309004+58400+019200FM-12+001299999V0201801N004612200019N0200001N1+01461+00961101621ADDGA1011+999999099GF101991001001999999001091MD1810081+9999REMSYN070AAXX  13094 02584 42998 11809 10146 20096 40162 58008 80009 333 81199;
0122025840999992000061312004+58400+019200FM-12+001299999V0201801N005112200019N0200001N1+01611+01151101411ADDGA1001+999999999GF100991001001999999001001MD1710211+9999REMSYN054AAXX  13124 02584 42998 01810 10161 20115 40141 57021;
0138025840999992000061315004+58400+019200FM-12+001299999V0201801N004610175019N0200001N1+01521+01121101151ADDGA1081+017509059GF108991081051017501999999MD1710261+9999REMSYN070AAXX  13154 02584 42798 81809 10152 20112 40115 57026 885// 333 88697;
0209025840999992000061318004+58400+019200FM-12+001299999V0201801N004612200019N0200001N1+01381+01221101151ADDAA199000091GA1021+012509089GF104991021021012501001041KA1120M+01751MD1410001+9999REMSYN082AAXX  13184 02584 32698 41809 10138 20122 40115 53000 82204 333 10175 82896 83099;EQDQ01+000032APCTENQ02  00002PRCP99
0138025840999992000061321004+58400+019200FM-12+001299999V0202001N005712200019N0200001N1+01301+00881101201ADDGA1021+999999079GF104991021001999999071011MD1310051+9999REMSYN070AAXX  13214 02584 42998 42011 10130 20088 40120 53005 82071 333 82399;
0138025840999992000061400004+58400+019200FM-12+001299999V0202001N005112200019N0200001N1+01221+00821101231ADDGA1031+999999079GF103991031001999999031001MD1210031+9999REMSYN070AAXX  14004 02584 42998 32010 10122 20082 40123 52003 83030 333 83399;
0138025840999992000061403004+58400+019200FM-12+001299999V0202001N005112200019N0200001N1+01121+00841101261ADDGA1011+999999019GF101991001001999999001011MD1210031+9999REMSYN070AAXX  14034 02584 42998 12010 10112 20084 40126 52003 80001 333 81099;
0187025840999992000061406004+58400+019200FM-12+001299999V0202001N004612200019N0200001N1+01201+00801101321ADDAA199000091GA1001+999999999GF100991001001999999001001IA1019KA1120N+01121MD1110061+9999REMSYN070AAXX  14064 02584 32998 02009 10120 20080 40132 51006 333 20112 30///;EQDQ01  00002PRCP99
0138025840999992000061412004+58400+019200FM-12+001299999V0201801N003112200019N0200001N1+01361+00821101371ADDGA1011+999999019GF101991001001999999001021MD1810021+9999REMSYN070AAXX  14124 02584 42998 11806 10136 20082 40137 58002 80002 333 81099;
0144025840999992000061415004+58400+019200FM-12+001299999V0201801N003619999999N0200001N1+01341+00841101231ADDGA1021+025009039GF108991021001999999071999MD1810141+9999REMSYN076AAXX  14154 02584 42998 81807 10134 20084 40123 58014 8207/ 333 82399 86499;
0187025840999992000061418004+58400+019200FM-12+001299999V0202001N003119999999N0200001N1+01281+00901101031ADDAA199000091GA1081+999999079GF108991081001999999071999KA1120M+01491MD1710201+9999REMSYN076AAXX  14184 02584 32998 82006 10128 20090 40103 57020 8807/ 333 10149 88399;EQDQ01  00002PRCP99
0122025840999992000061421004+58400+019200FM-12+001299999V0202301N002612200019N0200001N1+01121+00901101021ADDGA1001+999999999GF100991001001999999001001MD1510011+9999REMSYN054AAXX  14214 02584 42998 02305 10112 20090 40102 55001;
0157025840999992000061500004+58400+019200FM-12+001299999V0202301N003112200019N0200001N1+01121+00701100971ADDGA1011+022509079GF101991011999022501071001MD1810051+9999REMSYN070AAXX  15004 02584 42898 12306 10112 20070 40097 58005 81070 333 81398;EQDQ01+000002SCOLCG
0122025840999992000061503004+58400+019200FM-12+001299999V0202301N003112200019N0200001N1+01041+00821100891ADDGA1001+999999999GF100991001001999999001001MD1710081+9999REMSYN054AAXX  15034 02584 42998 02306 10104 20082 40089 57008;
0199025840999992000061506004+58400+019200FM-12+001299999V0202301N003112200019N0200001N1+01191+00861100891ADDAA199000091GA1011+999999019GF101991001001999999001011IA1019KA1120N+01041MD1410001+9999REMSYN082AAXX  15064 02584 32998 12306 10119 20086 40089 54000 80001 333 20104 30/// 81099;EQDQ01  00002PRCP99
0138025840999992000061509004+58400+019200FM-12+001299999V0202301N003112200019N0200001N1+01341+00881100901ADDGA1011+999999019GF101991001001999999001011MD1210011+9999REMSYN070AAXX  15094 02584 42998 12306 10134 20088 40090 52001 80001 333 81099;
0122025840999992000061512004+58400+019200FM-12+001299999V0202301N003112200019N0200001N1+01401+00861100831ADDGA1001+999999999GF100991001001999999001001MD1710011+9999REMSYN054AAXX  15124 02584 42998 02306 10140 20086 40083 57001;
0122025840999992000061515004+58400+019200FM-12+001299999V0202001N003612200019N0200001N1+01411+00801100721ADDGA1001+999999999GF100991001001999999001001MD1710111+9999REMSYN054AAXX  15154 02584 42998 02007 10141 20080 40072 57011;
0193025840999992000061518004+58400+019200FM-12+001299999V0202001N00361022501CN0200001N1+01211+00841100681ADDAA199000091GA1051+022509069GF106991051051022501031001KA1120M+01481MD1710041+9999REMSYN082AAXX  15184 02584 32898 62007 10121 20084 40068 57004 85530 333 10148 85698 83399;EQDQ01  00002PRCP99
0173025840999992000061600004+58400+019200FM-12+001299999V0202701N002610225019N0200001N1+01041+00761999999ADDGA1051+022509059GF105991051051022501999001MD1310011+9999REMSYN070AAXX  16004 02584 42898 52705 10104 20076 40173 53001 85500 333 85698;EQDQ01+000002SCOMCGQ02+101733APOSLP
0157025840999992000061603004+58400+019200FM-12+001299999V0202701N002610225019N0200001N1+01021+00731100741ADDGA1051+022509059GF105991051051022501999001MD1310011+9999REMSYN070AAXX  16034 02584 42898 52705 10102 20073 40074 53001 85500 333 85698;EQDQ01+000002SCOMCG
0187025840999992000061606004+58400+019200FM-12+001299999V0203201N001512200019N0200001N1+01221+00741100861ADDAA199000091GA1001+999999999GF100991001001999999001001IA1019KA1120N+01021MD1210121+9999REMSYN070AAXX  16064 02584 32998 03203 10122 20074 40086 52012 333 20102 30///;EQDQ01  00002PRCP99
0138025840999992000061609004+58400+019200FM-12+001299999V0202901N002112200019N0200001N1+01361+00541101081ADDGA1011+999999019GF101991001001999999001011MD1210221+9999REMSYN070AAXX  16094 02584 42998 12904 10136 20054 40108 52022 80001 333 81099;
0157025840999992000061615004+58400+019200FM-12+001299999V0203601N002619999999N0200001N1+01301+00531101311ADDGA1021+017509029GF105991999081999999001001MD1210121+9999REMSYN070AAXX  16154 02584 42998 53605 10130 20053 40131 52012 84800 333 82897;EQDQ01+000042SCOTLC
0187025840999992000061618004+58400+019200FM-12+001299999V0203201N000512200019N0200001N1+01151+00611101411ADDAA199000091GA1041+999999019GF104991001001999999001021KA1120M+01491MD1210101+9999REMSYN076AAXX  16184 02584 32998 43201 10115 20061 40141 52010 80002 333 10149 84099;EQDQ01  00002PRCP99
0157025840999992000061621004+58400+019200FM-12+001299999V0202701N002110175019N0200001N1+00981+00721101591ADDGA1051+017509059GF106991051051017501999011MD1310181+9999REMSYN070AAXX  16214 02584 42798 62704 10098 20072 40159 53018 85501 333 85697;EQDQ01+000002SCOMCG
0138025840999992000061700004+58400+019200FM-12+001299999V0203201N002112200019N0200001N1+00961+00791101701ADDGA1031+012509059GF104991031051017501001011MD1210111+9999REMSYN070AAXX  17004 02584 42798 43204 10096 20079 40170 52011 83501 333 83696;
0138025840999992000061703004+58400+019200FM-12+001299999V0203401N002119999999N0200001N1+01001+00721101841ADDGA1081+999999079GF108991081001999999071999MD1210141+9999REMSYN070AAXX  17034 02584 42998 83404 10100 20072 40184 52014 8807/ 333 88399;
0220025840999992000061706004+58400+019200FM-12+001299999V0203401N00261004201CN0200001N1+01021+00711102031ADDAA112000791AY121061AY221061GA1031+004509089GF108991081021004501999999IA1099KA1120N+00951MD1210191+9999MW1251REMSYN100AAXX  17064 02584 11498 83405 10102 20071 40203 52019 69902 72522 882// 333 20095 31/// 83894 86696;
0166025840999992000061709004+58400+019200FM-12+001299999V0203201N002612200019N0200001N1+01141+00791102241ADDAY121031AY221031GA1041+008009099GF105991041031008001001011MD1210211+9999MW1251REMSYN076AAXX  17094 02584 41598 53205 10114 20079 40224 52021 72522 84301 333 84995;
0166025840999992000061712004+58400+019200FM-12+001299999V0203401N002110300019N0200001N1+01231+00481102391ADDAY181061AY221061GA1041+008009099GF106991041031008001031011MD1110151+9999MW1021REMSYN076AAXX  17124 02584 41598 63404 10123 20048 40239 51015 70282 84331 333 84995;
0138025840999992000061715004+58400+019200FM-12+001299999V0203601N001012200019N0200001N1+01281+00531102451ADDGA1021+008009029GF102991021021008001001001MD1210061+9999REMSYN070AAXX  17154 02584 42598 23602 10128 20053 40245 52006 82200 333 82895;
0174025840999992000061718004+58400+019200FM-12+001299999V0203601N000519999999N0200001N1+01041+00411102421ADDAA112000591GA1061+999999079GF106991061001999999071001KA1120M+01381MD1810031+9999REMSYN082AAXX  17184 02584 12998 63601 10104 20041 40242 58003 69952 86070 333 10138 86399;
0138025840999992000061721004+58400+019200FM-12+001299999V0209999C000019999999N0200001N1+00751+00401102481ADDGA1061+999999079GF106991061001999999031001MD1110061+9999REMSYN070AAXX  17214 02584 42998 60000 10075 20040 40248 51006 86030 333 86399;
0138025840999992000061800004+58400+019200FM-12+001299999V0209999V000512200019N0200001N1+00491+00451102841ADDGA1011+008009029GF101991011021999999001001MD1410001+9999REMSYN070AAXX  18004 02584 42998 19901 10049 20045 40284 54000 81200 333 81895;
0122025840999992000061803004+58400+019200FM-12+001299999V0209999V000512200019N0200001N1+00381+00351102891ADDGA1001+999999999GF100991001001999999001001MD1310011+9999REMSYN054AAXX  18034 02584 42998 09901 10038 20035 40289 53001;
0187025840999992000061806004+58400+019200FM-12+001299999V0202901N000512200019N0200001N1+01231+00431102571ADDAA199000091GA1001+999999999GF100991001001999999001001IA1019KA1120N+00371MD1210081+9999REMSYN070AAXX  18064 02584 32998 02901 10123 20043 40257 52008 333 20037 30///;EQDQ01  00002PRCP99
0138025840999992000061809004+58400+019200FM-12+001299999V0209999V000512200019N0200001N1+01491+00181102631ADDGA1041+999999019GF104991001001999999001011MD1110061+9999REMSYN070AAXX  18094 02584 42998 49901 10149 20018 40263 51006 80001 333 84099;
0138025840999992000061812004+58400+019200FM-12+001299999V0201801N001512200019N0200001N1+01561+00131102591ADDGA1021+999999089GF102991001001999999001081MD1810041+9999REMSYN070AAXX  18124 02584 42998 21803 10156 20013 40259 58004 80008 333 82299;
0144025840999992000061815004+58400+019200FM-12+001299999V0201401N002619999999N0200001N1+01521+00171102521ADDGA1031+025009039GF105991031001999999051021MD1710071+9999REMSYN076AAXX  18154 02584 42998 51405 10152 20017 40252 57007 83052 333 83399 82099;
0187025840999992000061818004+58400+019200FM-12+001299999V0201401N002110225019N0200001N1+01281+00801102441ADDAA199000091GA1081+022509019GF108991081001022501071999KA1120M+01661MD1710081+9999REMSYN076AAXX  18184 02584 32898 81404 10128 20080 40244 57008 8807/ 333 10166 88498;EQDQ01  00002PRCP99
0138025840999992000061821004+58400+019200FM-12+001299999V0201401N002610125019N0200001N1+01321+00731102351ADDGA1081+012509059GF108991081051012501999999MD1710091+9999REMSYN070AAXX  18214 02584 42698 81405 10132 20073 40235 57009 885// 333 88696;
0138025840999992000061900004+58400+019200FM-12+001299999V0201601N003110125019N0200001N1+01261+00841102291ADDGA1081+012509059GF108991081051012501999999MD1710061+9999REMSYN070AAXX  19004 02584 42698 81606 10126 20084 40229 57006 885// 333 88696;
0166025840999992000061903004+58400+019200FM-12+001299999V0201801N003610125019N0040001N1+01221+01131102251ADDAY121031AY221031GA1081+012509059GF108991081051012501999999MD1610041+9999MW1101REMSYN076AAXX  19034 02584 41696 81807 10122 20113 40225 56004 71022 885// 333 88696;
0227025840999992000061906004+58400+019200FM-12+001299999V0201801N003110125019N0040001N1+01261+01101102201ADDAA199000091AY121061AY221061GA1081+012509059GF108991081051012501999999IA1019KA1120N+01201MD1710041+9999MW1101REMSYN088AAXX  19064 02584 31696 81806 10126 20110 40220 57004 71022 885// 333 20120 30/// 88696;EQDQ01  00002PRCP99
0166025840999992000061909004+58400+019200FM-12+001299999V0201801N002610125019N0040001N1+01341+01191102181ADDAY121031AY221031GA1081+012509059GF108991081051012501999999MD1610021+9999MW1101REMSYN076AAXX  19094 02584 41696 81805 10134 20119 40218 56002 71022 885// 333 88696;
0138025840999992000061912004+58400+019200FM-12+001299999V0201601N003110225019N0100001N1+01601+00831102061ADDGA1061+022509019GF106991061001022501071001MD1810121+9999REMSYN070AAXX  19124 02584 42897 61606 10160 20083 40206 58012 86070 333 86498;
0138025840999992000061915004+58400+019200FM-12+001299999V0201601N002112200019N0200001N1+01761+00731101851ADDGA1031+999999019GF103991001001999999001011MD1810211+9999REMSYN070AAXX  19154 02584 42998 31604 10176 20073 40185 58021 80001 333 83099;
0193025840999992000061918004+58400+019200FM-12+001299999V0201601N002619999999N0200001N1+01611+01001101651ADDAA199000091GA1021+012509089GF105991021011999999001081KA1120M+01851MD1710201+9999REMSYN082AAXX  19184 02584 32998 51605 10161 20100 40165 57020 82108 333 10185 82896 85299;EQDQ01  00002PRCP99
0138025840999992000061921004+58400+019200FM-12+001299999V0201601N004112200019N0200001N1+01471+01181101531ADDGA1011+012509029GF101991011011999999001001MD1710121+9999REMSYN070AAXX  19214 02584 42998 11608 10147 20118 40153 57012 81100 333 81896;
0138025840999992000062000004+58400+019200FM-12+001299999V0201801N003612200019N0200001N1+01421+01291101381ADDGA1041+999999019GF104991041001999999011001MD1710151+9999REMSYN070AAXX  20004 02584 42998 41807 10142 20129 40138 57015 84010 333 84499;
0138025840999992000062003004+58400+019200FM-12+001299999V0201601N002619999999N0200001N1+01401+01271101301ADDGA1051+999999079GF105991051001999999071001MD1610081+9999REMSYN070AAXX  20034 02584 42998 51605 10140 20127 40130 56008 85070 333 85399;
0205025840999992000062006004+58400+019200FM-12+001299999V0201801N003119999999N0200001N1+01521+01191101261ADDAA199000091GA1011+008009099GF107991011031999999071001IA1019KA1120N+01371MD1810041+9999REMSYN088AAXX  20064 02584 32998 71806 10152 20119 40126 58004 81370 333 20137 30/// 81995 86399;EQDQ01  00002PRCP99
0166025840999992000062009004+58400+019200FM-12+001299999V0201601N002119999999N0200001N1+01851+01241101041ADDAY121031AY221031GA1051+999999079GF105991051001999999031001MD1810221+9999MW1251REMSYN076AAXX  20094 02584 41998 51604 10185 20124 40104 58022 72522 85030 333 85399;
0166025840999992000062012004+58400+019200FM-12+001299999V0201801N002112200019N0200001N1+01861+01161100991ADDAY181061AY221061GA1041+999999019GF104991001001999999001011MD1810051+9999MW1011REMSYN076AAXX  20124 02584 41998 41804 10186 20116 40099 58005 70182 80001 333 84099;
0138025840999992000062015004+58400+019200FM-12+001299999V0203201N001512200019N0100001N1+01721+01261101151ADDGA1031+999999019GF103991001001999999001011MD1310161+9999REMSYN070AAXX  20154 02584 42997 33203 10172 20126 40115 53016 80001 333 83099;
0174025840999992000062018004+58400+019200FM-12+001299999V0203601N00261075001CN0100001N1+01421+01241101301ADDAA112000791GA1081+999999019GF108991081001999999011999KA1120M+02081MD1210151+9999REMSYN082AAXX  20184 02584 12997 83605 10142 20124 40130 52015 69902 8801/ 333 10208 88499;
0122025840999992000062021004+58400+019200FM-12+001299999V0200201N003112200019N0100001N1+01261+01011101421ADDGA1001+999999999GF100991001001999999001001MD1210121+9999REMSYN054AAXX  20214 02584 42997 00206 10126 20101 40142 52012;
0138025840999992000062100004+58400+019200FM-12+001299999V0200201N002110125019N0100001N1+01181+00961101521ADDGA1081+012509059GF108991081051012501999999MD1210101+9999REMSYN070AAXX  21004 02584 42697 80204 10118 20096 40152 52010 885// 333 88696;
0122025840999992000062103004+58400+019200FM-12+001299999V0200201N002112200019N0100001N1+01161+00941101561ADDGA1001+999999999GF100991001001999999001001MD1110041+9999REMSYN054AAXX  21034 02584 42997 00204 10116 20094 40156 51004;
0187025840999992000062106004+58400+019200FM-12+001299999V0200201N002112200019N0200001N1+01401+00881101601ADDAA199000091GA1001+999999999GF100991001001999999001001IA1019KA1120N+01101MD1210041+9999REMSYN070AAXX  21064 02584 32998 00204 10140 20088 40160 52004 333 20110 30///;EQDQ01  00002PRCP99
0122025840999992000062109004+58400+019200FM-12+001299999V0200501N002112200019N0200001N1+01701+00931101651ADDGA1001+999999999GF100991001001999999001001MD1210051+9999REMSYN054AAXX  21094 02584 42998 00504 10170 20093 40165 52005;
0122025840999992000062110004+58400+019200FM-12+001299999V0200701N001012200019N0200001N1+02261+00551101461ADDGA1001+999999999GF100991001001999999001001MD1710111+9999REMSYN054AAXX  21104 02584 42998 00702 10226 20055 40146 57011;
0122025840999992000062112004+58400+019200FM-12+001299999V0200201N001012200019N0200001N1+01821+01021101571ADDGA1001+999999999GF100991001001999999001001MD1810081+9999REMSYN054AAXX  21124 02584 42998 00202 10182 20102 40157 58008;
0187025840999992000062118004+58400+019200FM-12+001299999V0200701N001012200019N0200001N1+01841+00431101381ADDAA199000091GA1041+999999019GF104991001001999999001011KA1120M+02261MD1710081+9999REMSYN076AAXX  21184 02584 32998 40702 10184 20043 40138 57008 80001 333 10226 84099;EQDQ01  00002PRCP99
0122025840999992000062121004+58400+019200FM-12+001299999V0201101N001012200019N0200001N1+01521+00771101431ADDGA1001+999999999GF100991001001999999001001MD1310051+9999REMSYN054AAXX  21214 02584 42998 01102 10152 20077 40143 53005;
0122025840999992000062200004+58400+019200FM-12+001299999V0209999V001012200019N0200001N1+01151+00941101361ADDGA1001+999999999GF100991001001999999001001MD1810071+9999REMSYN054AAXX  22004 02584 42998 09902 10115 20094 40136 58007;
0122025840999992000062203004+58400+019200FM-12+001299999V0201101N002112200019N0200001N1+01541+00931101231ADDGA1001+999999999GF100991001001999999001001MD1710131+9999REMSYN054AAXX  22034 02584 42998 01104 10154 20093 40123 57013;
0187025840999992000062206004+58400+019200FM-12+001299999V0201601N002112200019N0200001N1+01961+01001101201ADDAA199000091GA1001+999999999GF100991001001999999001001IA1019KA1120N+01131MD1610031+9999REMSYN070AAXX  22064 02584 32998 01604 10196 20100 40120 56003 333 20113 30///;EQDQ01  00002PRCP99
0138025840999992000062209004+58400+019200FM-12+001299999V0201801N001012200019N0200001N1+02191+00621101171ADDGA1021+999999079GF102991021001999999031001MD1010031+9999REMSYN070AAXX  22094 02584 42998 21802 10219 20062 40117 50003 82030 333 82399;
0172025840999992000062212004+58400+019200FM-12+001299999V0201401N00101012501CN0100001N1+01791+01351101101ADDAY121061AY221061GA1061+012509099GF108991061031012501021999MD1010071+9999MW1291REMSYN082AAXX  22124 02584 41697 81402 10179 20135 40110 50007 72922 8632/ 333 86996 88599;
0166025840999992000062215004+58400+019200FM-12+001299999V0209999V002612200019N0200001N1+01921+01221100991ADDAY121031AY221031GA1031+999999079GF103991031001999999081001MD1610111+9999MW1011REMSYN076AAXX  22154 02584 41998 39905 10192 20122 40099 56011 70122 83080 333 83399;
0180025840999992000062218004+58400+019200FM-12+001299999V0201801N001519999999N0200001N1+01851+01311101031ADDAA112000391GA1031+025009039GF105991051001999999071001KA1120M+02351MD1310041+9999REMSYN088AAXX  22184 02584 12998 51803 10185 20131 40103 53004 69932 85070 333 10235 83399 82499;
0166025840999992000062221004+58400+019200FM-12+001299999V0202301N002110045019N0040001N1+01451+01371101081ADDAY121031AY221031GA1081+004509099GF108991081031004501999999MD1110051+9999MW1801REMSYN076AAXX  22214 02584 41496 82304 10145 20137 40108 51005 78022 883// 333 88994;
0150025840999992000062300004+58400+019200FM-12+001299999V0202001N003112200019N0040001N1+01351+01271101171ADDAY181061AY221061GA1001+999999999GF100991001001999999001001MD1310091+9999MW1101REMSYN060AAXX  23004 02584 41996 02006 10135 20127 40117 53009 71082;
0150025840999992000062303004+58400+019200FM-12+001299999V0202301N002112200019N0040001N1+01321+01241101261ADDAY101031AY201031GA1001+999999999GF100991001001999999001001MD1210091+9999MW1101REMSYN060AAXX  23034 02584 41996 02304 10132 20124 40126 52009 71000;
0186025840999992000062306004+58400+019200FM-12+001299999V0201801N001512200019N0100001N1+01461+01301101331ADDAA112000891GA1031+999999079GF103991031001999999031001IA1019KA1120N+01321MD1110071+9999REMSYN088AAXX  23064 02584 12997 31803 10146 20130 40133 51007 69972 83030 333 20132 30/// 83399;
0138025840999992000062309004+58400+019200FM-12+001299999V0209999V002612200019N0200001N1+01921+01221100991ADDGA1031+999999079GF103991031001999999081001MD1610111+9999REMSYN070AAXX  23094 02584 42998 39905 10192 20122 40099 56011 83080 333 83399;
0138025840999992000062312004+58400+019200FM-12+001299999V0201801N00151075001CN0200001N1+01791+00821101361ADDGA1061+999999019GF106991001001999999001011MD1810051+9999REMSYN070AAXX  23124 02584 42998 61803 10179 20082 40136 58005 80001 333 86099;
0138025840999992000062315004+58400+019200FM-12+001299999V0201801N00211075001CN0200001N1+01841+01231101311ADDGA1051+999999019GF105991001001999999001011MD1610051+9999REMSYN070AAXX  23154 02584 42998 51804 10184 20123 40131 56005 80001 333 85099;
0193025840999992000062318004+58400+019200FM-12+001299999V0201401N00151012501CN0200001N1+01731+01081101211ADDAA199000091GA1051+012509069GF108991051051012501011999KA1120M+02021MD1710101+9999REMSYN082AAXX  23184 02584 32698 81403 10173 20108 40121 57010 8551/ 333 10202 85696 88499;EQDQ01  00002PRCP99
0138025840999992000062321004+58400+019200FM-12+001299999V0201401N001512200019N0200001N1+01441+01211101171ADDGA1031+999999019GF103991001001999999001011MD1810041+9999REMSYN070AAXX  23214 02584 42998 31403 10144 20121 40117 58004 80001 333 83099;
0144025840999992000062400004+58400+019200FM-12+001299999V0201601N00211030001CN0200001N1+01491+01311101091ADDGA1041+022509069GF108991041051022501011999MD1710081+9999REMSYN076AAXX  24004 02584 42898 81604 10149 20131 40109 57008 8451/ 333 84698 88499;
0173025840999992000062403004+58400+019200FM-12+001299999V0201401N002112200019N0200001N1+01391+01331101091ADDGA1021+022509059GF104991021051022501999001MD1410001+9999REMSYN070AAXX  24034 02584 42898 41404 10139 20133 40109 56000 82500 333 82698;EQDQ01+000002SCOMCGQ02+000062APCTEN
0187025840999992000062406004+58400+019200FM-12+001299999V0201801N002112200019N0200001N1+01521+01311101111ADDAA199000091GA1001+999999999GF100991001001999999001001IA1019KA1120N+01351MD1110021+9999REMSYN070AAXX  24064 02584 32998 01804 10152 20131 40111 51002 333 20135 30///;EQDQ01  00002PRCP99
0122025840999992000062409004+58400+019200FM-12+001299999V0201801N001512200019N0200001N1+01721+01261101111ADDGA1001+999999999GF100991001001999999001001MD1410001+9999REMSYN054AAXX  24094 02584 42998 01803 10172 20126 40111 54000;
0138025840999992000062412004+58400+019200FM-12+001299999V0201801N001512200019N0200001N1+01671+01211101131ADDGA1021+999999079GF103991021001999999031011MD1310021+9999REMSYN070AAXX  24124 02584 42998 31803 10167 20121 40113 53002 82031 333 82399;
0138025840999992000062415004+58400+019200FM-12+001299999V0201801N001512200019N0200001N1+01771+01041101111ADDGA1031+999999019GF103991001001999999001011MD1810021+9999REMSYN070AAXX  24154 02584 42998 31803 10177 20104 40111 58002 80001 333 83099;
0187025840999992000062418004+58400+019200FM-12+001299999V0201801N001012200019N0200001N1+01641+01051101031ADDAA199000091GA1031+999999019GF103991001001999999001011KA1120M+01861MD1710081+9999REMSYN076AAXX  24184 02584 32998 31802 10164 20105 40103 57008 80001 333 10186 83099;EQDQ01  00002PRCP99
0138025840999992000062421004+58400+019200FM-12+001299999V0200501N000512200019N0200001N1+01111+00921101061ADDGA1021+999999079GF102991021001999999031001MD1010031+9999REMSYN070AAXX  24214 02584 42998 20501 10111 20092 40106 50003 82030 333 82399;
0166025840999992000062500004+58400+019200FM-12+001299999V0201101N001512200019N0040001N1+01321+01241100961ADDAY101061AY201061GA1011+999999079GF101991011001999999031001MD1710101+9999MW1101REMSYN076AAXX  25004 02584 41996 11103 10132 20124 40096 57010 71000 81030 333 81399;
0172025840999992000062503004+58400+019200FM-12+001299999V0200901N001512200019N0040001N1+01271+01191100891ADDAY121031AY211031GA1011+025009039GF104991011001999999031011MD1710071+9999MW1101REMSYN082AAXX  25034 02584 41996 40903 10127 20119 40089 57007 71021 81031 333 81399 83099;
0199025840999992000062506004+58400+019200FM-12+001299999V0200501N00211075001CN0200001N1+01721+01181100821ADDAA199000091GA1061+999999019GF106991001001999999001011IA1019KA1120N+01041MD1710071+9999REMSYN082AAXX  25064 02584 32998 60504 10172 20118 40082 57007 80001 333 20104 30/// 86099;EQDQ01  00002PRCP99
0138025840999992000062509004+58400+019200FM-12+001299999V0200501N002110025019N0200001N1+01661+01341100811ADDGA1081+002509069GF108991081061002501999999MD1610011+9999REMSYN070AAXX  25094 02584 42398 80504 10166 20134 40081 56001 886// 333 88793;
0172025840999992000062512004+58400+019200FM-12+001299999V0201101N00101030001CN0040001N1+01551+01451100751ADDAY161061AY221061GA1041+001509079GF108991041071001501021999MD1710061+9999MW1211REMSYN082AAXX  25124 02584 41296 81102 10155 20145 40075 57006 72162 8472/ 333 84792 88598;
0138025840999992000062515004+58400+019200FM-12+001299999V0201101N001510080019N0100001N1+01671+01441100751ADDGA1071+008009059GF107991071051008001999999MD1410001+9999REMSYN070AAXX  25154 02584 42597 71103 10167 20144 40075 54000 875// 333 87695;
0174025840999992000062518004+58400+019200FM-12+001299999V0201601N001012200019N0100001N1+01611+01311100711ADDAA112000591GA1031+999999019GF103991001001999999001011KA1120M+01731MD1610041+9999REMSYN082AAXX  25184 02584 12997 31602 10161 20131 40071 56004 69942 80001 333 10173 83099;
0166025840999992000062521004+58400+019200FM-12+001299999V0201601N001012200019N0040001N1+01231+01141100731ADDAY101031AY201031GA1011+999999019GF101991001001999999001011MD1310021+9999MW1101REMSYN076AAXX  25214 02584 41996 11602 10123 20114 40073 53002 71000 80001 333 81099;
0166025840999992000062600004+58400+019200FM-12+001299999V0209999C000012200019N0040001N1+00941+00881100651ADDAY101061AY201061GA1041+999999019GF104991001001999999001011MD1810081+9999MW1101REMSYN076AAXX  26004 02584 41996 40000 10094 20088 40065 58008 71000 80001 333 84099;
0172025840999992000062603004+58400+019200FM-12+001299999V0209999V00051999999CN0040001N1+00941+00891100581ADDAY121031AY221031GA1051+025009039GF106991051001999999071011MD1710071+9999MW1101REMSYN082AAXX  26034 02584 41996 69901 10094 20089 40058 57007 71022 85071 333 85399 84099;
0199025840999992000062606004+58400+019200FM-12+001299999V0201801N001012200019N0100001N1+01421+01271100521ADDAA199000091GA1041+002509069GF104991041061002501001001IA1019KA1120N+00941MD1710061+9999REMSYN082AAXX  26064 02584 32397 41802 10142 20127 40052 57006 84600 333 20094 30/// 84793;EQDQ01  00002PRCP99
0166025840999992000062609004+58400+019200FM-12+001299999V0202001N002110007519N0005001N1+01381+01271100481ADDAY121031AY221031GA1081+000759069GF108991081061000751999999MD1810041+9999MW1111REMSYN076AAXX  26094 02584 41193 82004 10138 20127 40048 58004 71122 886// 333 88791;
0172025840999992000062612004+58400+019200FM-12+001299999V0209999V001019999999N0100001N1+01571+01231100511ADDAY141061AY221061GA1021+002509079GF106991021061002501001001MD1510031+9999MW1021REMSYN082AAXX  26124 02584 41397 69902 10157 20123 40051 55003 70242 82600 333 82793 86693;
0187025840999992000062618004+58400+019200FM-12+001299999V0209999V000510042019N0200001N1+01501+01271100411ADDAA199000091GA1041+004509099GF105991051031004501001001KA1120M+01701MD1810071+9999REMSYN076AAXX  26184 02584 32498 59901 10150 20127 40041 58007 85300 333 10170 84994;EQDQ01  00002PRCP99
0166025840999992000062621004+58400+019200FM-12+001299999V0203601N001010080019N0040001N1+01401+01241100411ADDAY121031AY221031GA1081+008009059GF108991081051008001999999MD1510001+9999MW1101REMSYN076AAXX  26214 02584 41596 83602 10140 20124 40041 55000 71022 885// 333 88695;
0166025840999992000062700004+58400+019200FM-12+001299999V0209999C000010045019N0040001N1+01121+01041100291ADDAY121061AY221061GA1081+004509069GF108991081061004501999999MD1810121+9999MW1101REMSYN076AAXX  27004 02584 41496 80000 10112 20104 40029 58012 71022 886// 333 88794;
0166025840999992000062703004+58400+019200FM-12+001299999V0202701N002110045019N0040001N1+01321+01221100261ADDAY121031AY221031GA1081+004509069GF108991081061004501999999MD1610031+9999MW1101REMSYN076AAXX  27034 02584 41496 82704 10132 20122 40026 56003 71022 886// 333 88794;
0205025840999992000062706004+58400+019200FM-12+001299999V0202501N00101007501CN0200001N1+01401+01131100251ADDAA199000091GA1041+008009069GF106991061051008001031999IA1019KA1120N+01101MD1610011+9999REMSYN088AAXX  27064 02584 32598 62502 10140 20113 40025 56001 8653/ 333 20110 30/// 84695 86399;EQDQ01  00002PRCP99
0144025840999992000062709004+58400+019200FM-12+001299999V0202701N00151008001CN0200001N1+01541+01251100341ADDGA1051+008009099GF107991051031008001031001MD1310091+9999REMSYN076AAXX  27094 02584 42598 72703 10154 20125 40034 53009 85330 333 85995 87399;
0144025840999992000062712004+58400+019200FM-12+001299999V0202701N00211002101CN0200001N1+01581+01241100401ADDGA1041+002509079GF108991081061002501999999MD1210061+9999REMSYN076AAXX  27124 02584 42398 82704 10158 20124 40040 52006 886// 333 84793 88695;
0138025840999992000062715004+58400+019200FM-12+001299999V0202701N001510125019N0200001N1+01561+01001100441ADDGA1081+012509059GF108991081051012501999999MD1210041+9999REMSYN070AAXX  27154 02584 42698 82703 10156 20100 40044 52004 885// 333 88696;
0187025840999992000062718004+58400+019200FM-12+001299999V0202701N002610080019N0200001N1+01431+00971100561ADDAA199000091GA1061+008009059GF106991061051008001001001KA1120M+01711MD1210121+9999REMSYN076AAXX  27184 02584 32598 62705 10143 20097 40056 52012 86500 333 10171 86695;EQDQ01  00002PRCP99
0157025840999992000062721004+58400+019200FM-12+001299999V0202701N001512200019N0200001N1+01181+00811100641ADDGA1041+022509059GF104991041051022501999001MD1210081+9999REMSYN070AAXX  27214 02584 42898 42703 10118 20081 40064 52008 84500 333 84698;EQDQ01+000002SCOMCG
0144025840999992000062800004+58400+019200FM-12+001299999V0202501N001012200019N0200001N1+01091+00721100721ADDGA1011+012509069GF104991011051012501001011MD1210081+9999REMSYN076AAXX  28004 02584 42698 42502 10109 20072 40072 52008 81501 333 81696 83099;
0138025840999992000062803004+58400+019200FM-12+001299999V0202701N001012200019N0200001N1+00881+00791100781ADDGA1031+999999019GF103991001001999999001011MD1210061+9999REMSYN070AAXX  28034 02584 42998 32702 10088 20079 40078 52006 80001 333 83099;
0199025840999992000062806004+58400+019200FM-12+001299999V0203601N001012200019N0200001N1+01361+01221100891ADDAA199000091GA1011+012509059GF101991011051012501001001IA1019KA1120N+00801MD1310111+9999REMSYN082AAXX  28064 02584 32698 13602 10136 20122 40089 53011 81500 333 20080 30/// 81696;EQDQ01  00002PRCP99
0138025840999992000062809004+58400+019200FM-12+001299999V0203601N002112200019N0200001N1+01631+00881101011ADDGA1011+999999019GF101991001001999999001011MD1210121+9999REMSYN070AAXX  28094 02584 42998 13604 10163 20088 40101 52012 80001 333 81099;
0144025840999992000062812004+58400+019200FM-12+001299999V0200201N00261007501CN0200001N1+01701+00981101101ADDGA1021+008009099GF105991051031008001001001MD1110091+9999REMSYN076AAXX  28124 02584 42598 50205 10170 20098 40110 51009 85300 333 82995 83695;
0138025840999992000062815004+58400+019200FM-12+001299999V0203601N002112200019N0200001N1+01701+01141101111ADDGA1031+012509059GF103991031051012501001001MD1110011+9999REMSYN070AAXX  28154 02584 42698 33604 10170 20114 40111 51001 83500 333 83696;
0187025840999992000062818004+58400+019200FM-12+001299999V0203601N002110175019N0200001N1+01521+01081101141ADDAA199000091GA1081+017509059GF108991081051017501999999KA1120M+01741MD1210031+9999REMSYN076AAXX  28184 02584 32798 83604 10152 20108 40114 52003 885// 333 10174 88697;EQDQ01  00002PRCP99
0138025840999992000062821004+58400+019200FM-12+001299999V0203601N001510225019N0200001N1+01421+01171101151ADDGA1081+022509059GF108991081051022501999999MD1110011+9999REMSYN070AAXX  28214 02584 42898 83603 10142 20117 40115 51001 885// 333 88698;
0138025840999992000062900004+58400+019200FM-12+001299999V0203601N002110175019N0200001N1+01421+01171101131ADDGA1081+017509059GF108991081051017501999999MD1810021+9999REMSYN070AAXX  29004 02584 42798 83604 10142 20117 40113 58002 885// 333 88697;
0138025840999992000062903004+58400+019200FM-12+001299999V0203401N002119999999N0200001N1+01341+01091101041ADDGA1061+999999099GF106991001001999999001091MD1810091+9999REMSYN070AAXX  29034 02584 42998 63404 10134 20109 40104 58009 80009 333 86199;
0199025840999992000062906004+58400+019200FM-12+001299999V0203401N003110125019N0200001N1+01361+01071100931ADDAA199000091GA1081+012509059GF108991081051012501999999IA1019KA1120N+01301MD1710111+9999REMSYN082AAXX  29064 02584 32698 83406 10136 20107 40093 57011 885// 333 20130 30/// 88696;EQDQ01  00002PRCP99
0172025840999992000062909004+58400+019200FM-12+001299999V0202901N00411004501CN0040001N1+01321+01161100881ADDAY121031AY221031GA1061+004509079GF108991061071004501021999MD1610051+9999MW1631REMSYN082AAXX  29094 02584 41496 82908 10132 20116 40088 56005 76322 8672/ 333 86794 87596;
0172025840999992000062912004+58400+019200FM-12+001299999V0202701N00571002501CN0040001N1+01201+01141100681ADDAY121061AY221061GA1071+002509079GF108991071071002501021999MD1810201+9999MW1611REMSYN082AAXX  29124 02584 41396 82711 10120 20114 40068 58020 76122 8772/ 333 87793 88596;
0172025840999992000062915004+58400+019200FM-12+001299999V0202701N00511001501CN0040001N1+01191+01131100511ADDAY161031AY261031GA1071+001509079GF108991071071001501021999MD1710171+9999MW1601REMSYN082AAXX  29154 02584 41296 82710 10119 20113 40051 57017 76066 8772/ 333 87792 88596;
0208025840999992000062918004+58400+019200FM-12+001299999V0202901N00411001501CN0040001N1+01261+01201100281ADDAA112005191AY161061AY261061GA1071+001509079GF108991071071001501021999KA1120M+01431MD1710231+9999MW1211REMSYN094AAXX  29184 02584 11296 82908 10126 20120 40028 57023 60052 72166 8772/ 333 10143 87792 88596;
0166025840999992000062921004+58400+019200FM-12+001299999V0203201N002610015019N0040001N1+01341+01281100061ADDAY121031AY221031GA1081+001509069GF108991081061001501999999MD1710221+9999MW1101REMSYN076AAXX  29214 02584 41296 83205 10134 20128 40006 57022 71022 886// 333 88792;
0150025840999992000063000004+58400+019200FM-12+001299999V0203601N002110003019N0005001N1+01411+01351099821ADDAY161061AY221061GA1091+999999999GF109991091999999999999999MD1710241+9999MW1451REMSYN060AAXX  30004 02584 41/93 93604 10141 20135 49982 57024 74562;
0150025840999992000063003004+58400+019200FM-12+001299999V0200201N002610003019N0005001N1+01381+01331099761ADDAY141031AY241031GA1091+999999999GF109991091999999999999999MD1610061+9999MW1451REMSYN060AAXX  30034 02584 41/93 90205 10138 20133 49976 56006 74544;
0202025840999992000063006004+58400+019200FM-12+001299999V0200201N003110003019N0005001N1+01331+01301099841ADDAA112001091AY141061AY241061GA1091+999999999GF109991091999999999999999IA1099KA1120N+01261MD1310081+9999MW1451REMSYN082AAXX  30064 02584 11/93 90206 10133 20130 49984 53008 69992 74544 333 20126 31///;
0166025840999992000063009004+58400+019200FM-12+001299999V0200201N003110015019N0040001N1+01471+01411100081ADDAY141031AY241031GA1081+001509069GF108991081061001501999999MD1310241+9999MW1101REMSYN076AAXX  30094 02584 41296 80206 10147 20141 40008 53024 71044 886// 333 88792;
0166025840999992000063012004+58400+019200FM-12+001299999V0200901N002610025019N0200001N1+01501+01301100331ADDAY141061AY221061GA1071+002509069GF107991071061001501001001MD1210251+9999MW1021REMSYN076AAXX  30124 02584 41298 70905 10150 20130 40033 52025 70242 87600 333 87793;
0138025840999992000063015004+58400+019200FM-12+001299999V0200901N003110025019N0100001N1+01421+01271100411ADDGA1081+002509069GF108991081061002501999999MD1110081+9999REMSYN070AAXX  30154 02584 42397 80906 10142 20127 40041 51008 886// 333 88793;
0187025840999992000063018004+58400+019200FM-12+001299999V0200501N002110025019N0100001N1+01341+01191100511ADDAA199000091GA1071+002509069GF107991071061002501001001KA1120M+01531MD1210091+9999REMSYN076AAXX  30184 02584 32397 70504 10134 20119 40051 52009 87600 333 10153 87793;EQDQ01  00002PRCP99
0138025840999992000063021004+58400+019200FM-12+001299999V0200901N002610025019N0100001N1+01271+01181100581ADDGA1081+002509069GF108991081061002501999999MD1210081+9999REMSYN070AAXX  30214 02584 42397 80905 10127 20118 40058 52008 886// 333 88793;
0138025840999992000070100004+58400+019200FM-12+001299999V0200901N002612200019N0100001N1+01231+01121100661ADDGA1041+004509069GF104991041061004501001001MD1210081+9999REMSYN070AAXX  01004 02584 42497 40905 10123 20112 40066 52008 84600 333 84794;
0138025840999992000070103004+58400+019200FM-12+001299999V0200901N001512200019N0200001N1+01201+01091100741ADDGA1031+008009029GF103991031011008001001001MD1210081+9999REMSYN070AAXX  01034 02584 42598 30903 10120 20109 40074 52008 83100 333 83895;
0205025840999992000070106004+58400+019200FM-12+001299999V0200201N003112200019N0200001N1+01421+01191100831ADDAA199000091GA1011+004509079GF103991031061004501071001IA1019KA1120N+01201MD1210091+9999REMSYN088AAXX  01064 02584 32498 30206 10142 20119 40083 52009 83670 333 20120 30/// 81794 83896;EQDQ01  00002PRCP99
0138025840999992000070109004+58400+019200FM-12+001299999V0200501N003112200019N0200001N1+01601+01391100921ADDGA1031+004509029GF103991031021004501001001MD1210091+9999REMSYN070AAXX  01094 02584 42498 30506 10160 20139 40092 52009 83200 333 83894;
0138025840999992000070112004+58400+019200FM-12+001299999V0200501N003112200019N0200001N1+01681+01181100961ADDGA1031+004509029GF104991031021004501001011MD1210041+9999REMSYN070AAXX  01124 02584 42498 40506 10168 20118 40096 52004 83201 333 83894;
0149025840999992000070115004+58400+019200FM-12+001299999V0200501N002112200019N0200001N1+01661+01281100981ADDGA1011+008009089GF104991011011008001001011IA1179MD1310021+9999REMSYN075AAXX  01154 02584 42598 40504 10166 20128 40098 53002 81101 333 81895 4099;
0193025840999992000070118004+58400+019200FM-12+001299999V0200201N002612200019N0200001N1+01501+01341100961ADDAA199000091GA1011+025009039GF104991011001999999071021KA1120M+01741MD1810021+9999REMSYN082AAXX  01184 02584 32998 40205 10150 20134 40096 58002 81072 333 10174 81399 84099;EQDQ01  00002PRCP99
0157025840999992000070121004+58400+019200FM-12+001299999V0200201N001012200019N0100001N1+01311+01251100941ADDGA1031+022509079GF103991031999022501031001MD1710021+9999REMSYN070AAXX  01214 02584 42897 30202 10131 20125 40094 57002 83030 333 83398;EQDQ01+000002SCOLCG
0157025840999992000070200004+58400+019200FM-12+001299999V0200201N002112200019N0100001N1+01281+01221100911ADDGA1041+022509079GF104991041999022501031001MD1710031+9999REMSYN070AAXX  02004 02584 42897 40204 10128 20122 40091 57003 84030 333 84398;EQDQ01+000002SCOLCG
0138025840999992000070203004+58400+019200FM-12+001299999V0203601N002110007519N0040001N1+01321+01161100901ADDGA1081+000759069GF108991081061000751999999MD1710011+9999REMSYN070AAXX  02034 02584 42196 83604 10132 20116 40090 57001 886// 333 88791;
0199025840999992000070206004+58400+019200FM-12+001299999V0203401N001510015019N0100001N1+01401+01291100891ADDAA199000091GA1081+001509069GF108991081061001501999999IA1019KA1120N+01281MD1710011+9999REMSYN082AAXX  02064 02584 32297 83403 10140 20129 40089 57001 886// 333 20128 30/// 88792;EQDQ01  00002PRCP99
0138025840999992000070209004+58400+019200FM-12+001299999V0203401N002110015019N0100001N1+01451+01301100971ADDGA1081+001509069GF108991081061001501999999MD1310081+9999REMSYN070AAXX  02094 02584 42297 83404 10145 20130 40097 53008 886// 333 88792;
0172025840999992000070212004+58400+019200FM-12+001299999V0203201N00211001501CN0040001N1+01391+01331101001ADDAY121061AY221061GA1071+001509079GF108991071071001501021999MD1110031+9999MW1601REMSYN082AAXX  02124 02584 41296 83204 10139 20133 40100 51003 76022 8772/ 333 87792 88596;
0172025840999992000070215004+58400+019200FM-12+001299999V0203401N00211001501CN0040001N1+01331+01251100991ADDAY161031AY261031GA1071+001509079GF108991071071001501021999MD1810011+9999MW1601REMSYN082AAXX  02154 02584 41296 83404 10133 20125 40099 58001 76066 8772/ 333 87792 88596;
0208025840999992000070218004+58400+019200FM-12+001299999V0203201N00101030001CN0040001N1+01381+01321100991ADDAA112000891AY161061AY261061GA1021+004509079GF108991021071004501071999KA1120M+01551MD1410001+9999MW1101REMSYN094AAXX  02184 02584 11496 83202 10138 20132 40099 54000 69982 71066 8277/ 333 10155 82794 88397;
0172025840999992000070221004+58400+019200FM-12+001299999V0202701N00261030001CN0040001N1+01331+01251100971ADDAY121031AY221031GA1021+004509079GF108991021071004501071999MD1810021+9999MW1101REMSYN082AAXX  02214 02584 41496 82705 10133 20125 40097 58002 71022 8277/ 333 82794 88398;
0172025840999992000070300004+58400+019200FM-12+001299999V0202701N00261008001CN0040001N1+01361+01301100891ADDAY181061AY221061GA1051+008009099GF108991051031008001071999MD1610081+9999MW1101REMSYN082AAXX  03004 02584 41596 82705 10136 20130 40089 56008 71082 8537/ 333 85995 88398;
0166025840999992000070303004+58400+019200FM-12+001299999V0202701N002110015019N0100001N1+01321+01261100821ADDAY181031AY221031GA1051+001509059GF105991051061008001001001MD1710051+9999MW1011REMSYN076AAXX  03034 02584 41597 52704 10132 20126 40082 57005 70182 85600 333 85692;
0220025840999992000070306004+58400+019200FM-12+001299999V0202901N00211030001CN0200001N1+01421+01271100821ADDAA112000591AY181061AY221061GA1021+002509079GF106991041061002501031001IA1099KA1120N+01321MD1510001+9999MW1011REMSYN100AAXX  03064 02584 11398 62904 10142 20127 40082 55000 69952 70182 84630 333 20132 31/// 82793 84399;
0138025840999992000070309004+58400+019200FM-12+001299999V0202901N001512200019N0200001N1+01781+01281100851ADDGA1021+999999019GF102991001001999999001021MD1210031+9999REMSYN070AAXX  03094 02584 42998 22903 10178 20128 40085 52003 80002 333 82099;
0107025840999992000070312004+58400+019200FM-12+001299999V0202901N001012200019N0200001N1+99999+99999999999ADDGF101991999999999999999999REMSYN069AAXX  03124 02584 42998 12902 0184 20123 40087 52002 80001 333 81099;
0122025840999992000070315004+58400+019200FM-12+001299999V0202701N000512200019N0200001N1+01861+01231100891ADDGA1001+999999999GF100991001001999999001001MD1210021+9999REMSYN054AAXX  03154 02584 42998 02701 10186 20123 40089 52002;
0187025840999992000070318004+58400+019200FM-12+001299999V0202501N000512200019N0200001N1+01701+01141100871ADDAA199000091GA1021+999999079GF103991021001999999071021KA1120M+01921MD1810021+9999REMSYN076AAXX  03184 02584 32998 32501 10170 20114 40087 58002 82072 333 10192 82399;EQDQ01  00002PRCP99
0138025840999992000070321004+58400+019200FM-12+001299999V0202701N000512200019N0200001N1+01531+01331100921ADDGA1041+999999079GF104991041001999999031001MD1710051+9999REMSYN070AAXX  03214 02584 42998 42701 10153 20133 40092 57005 84030 333 84399;
0150025840999992000070400004+58400+019200FM-12+001299999V0201401N000512200019N0040001N1+01161+01081100891ADDAY121061AY221061GA1001+999999999GF100991001001999999001001MD1810031+9999MW1101REMSYN060AAXX  04004 02584 41996 01401 10116 20108 40089 58003 71022;
0157025840999992000070403004+58400+019200FM-12+001299999V0201801N002612200019N0100001N1+01481+01381100851ADDGA1011+022509079GF101991011999022501071001MD1710041+9999REMSYN070AAXX  04034 02584 42897 11805 10148 20138 40085 57004 81070 333 81398;EQDQ01+000002SCOLCG
0215025840999992000070406004+58400+019200FM-12+001299999V0202501N000512200019N0200001N1+01761+01341100861ADDAA199000091GA1011+022509079GF101991011999999999031001IA1019KA1120N+01151MD1310011+9999REMSYN082AAXX  04064 02584 32998 12501 10176 20134 40086 53001 81030 333 20115 30/// 81398;EQDQ01+000002SCOLCGQ02  00002PRCP99
0138025840999992000070409004+58400+019200FM-12+001299999V0202001N000512200019N0500001N1+02181+01321100931ADDGA1031+999999079GF103991031001999999071001MD1210071+9999REMSYN070AAXX  04094 02584 42999 32001 10218 20132 40093 52007 83070 333 83399;
0122025840999992000070412004+58400+019200FM-12+001299999V0202001N001012200019N0500001N1+02061+01201100951ADDGA1001+999999999GF100991001001999999001001MD1210021+9999REMSYN054AAXX  04124 02584 42999 02002 10206 20120 40095 52002;
0138025840999992000070415004+58400+019200FM-12+001299999V0201801N000512200019N0500001N1+02131+01141100921ADDGA1011+999999079GF101991011001999999031001MD1810031+9999REMSYN070AAXX  04154 02584 42999 11801 10213 20114 40092 58003 81030 333 81399;
0187025840999992000070418004+58400+019200FM-12+001299999V0201601N001012200019N0200001N1+02091+00891100881ADDAA199000091GA1011+999999019GF101991001001999999001011KA1120M+02241MD1710041+9999REMSYN076AAXX  04184 02584 32998 11602 10209 20089 40088 57004 80001 333 10224 81099;EQDQ01  00002PRCP99
0157025840999992000070503004+58400+019200FM-12+001299999V0201101N001010225019N0200001N1+01481+01431100871ADDGA1051+022509079GF105991051999999999031001MD1810031+9999REMSYN070AAXX  05034 02584 42998 51102 10148 20143 40087 58003 85030 333 85398;EQDQ01+000002SCOLCG
0199025840999992000070506004+58400+019200FM-12+001299999V0201401N000512200019N0200001N1+01981+01081100871ADDAA199000091GA1021+999999019GF102991001001999999001011IA1019KA1120N+01221MD1410001+9999REMSYN082AAXX  05064 02584 32998 21401 10198 20108 40087 54000 80001 333 20122 30/// 82099;EQDQ01  00002PRCP99
0144025840999992000070509004+58400+019200FM-12+001299999V0203001N000519999999N0500001N1+02221+01131100871ADDGA1021+025009039GF106991021001999999031021MD1410001+9999REMSYN076AAXX  05094 02584 42999 63001 10222 20113 40087 54000 82032 333 82399 85099;
0144025840999992000070512004+58400+019200FM-12+001299999V0200201N000519999999N0500001N1+02131+01081100881ADDGA1011+025009039GF105991011001999999071021MD1310011+9999REMSYN076AAXX  05124 02584 42999 50201 10213 20108 40088 53001 81072 333 81399 84099;
0157025840999992000070515004+58400+019200FM-12+001299999V0200501N001012200019N0500001N1+01991+01401100841ADDGA1051+999999019GF199999001001999999001021MD1810041+9999REMSYN070AAXX  05154 02584 42999 40502 10199 20140 40084 58004 80002 333 85099;EQDQ01+000042SCOTCV
0187025840999992000070518004+58400+019200FM-12+001299999V0200501N000512200019N0200001N1+01861+01561100881ADDAA199000091GA1011+999999079GF101991011001999999071001KA1120M+02231MD1310041+9999REMSYN076AAXX  05184 02584 32998 10501 10186 20156 40088 53004 81070 333 10223 81399;EQDQ01  00002PRCP99
0150025840999992000070521004+58400+019200FM-12+001299999V0200201N000510003019N0005001N1+01671+01611100941ADDAY121031AY221031GA1091+999999999GF109991091999999999999999MD1210061+9999MW1471REMSYN060AAXX  05214 02584 41/93 90201 10167 20161 40094 52006 74722;
0166025840999992000070600004+58400+019200FM-12+001299999V0203601N000512200019N0040001N1+01491+01431100931ADDAY141061AY241061GA1011+999999079GF101991011001999999071001MD1810011+9999MW1101REMSYN076AAXX  06004 02584 41996 13601 10149 20143 40093 58001 71044 81070 333 81399;
0144025840999992000070603004+58400+019200FM-12+001299999V0203401N00101030001CN0100001N1+01491+01411100951ADDGA1031+001509079GF105991031061001501071001MD1310021+9999REMSYN076AAXX  06034 02584 42297 53402 10149 20141 40095 53002 83670 333 83792 83399;
0199025840999992000070606004+58400+019200FM-12+001299999V0203401N001019999999N0200001N1+01591+01251101001ADDAA199000091GA1071+999999079GF107991071001999999071001IA1019KA1120N+01471MD1210051+9999REMSYN082AAXX  06064 02584 32998 73402 10159 20125 40100 52005 87070 333 20147 30/// 87399;EQDQ01  00002PRCP99
0138025840999992000070609004+58400+019200FM-12+001299999V0203601N001012200019N0200001N1+01841+01111101071ADDGA1031+008009059GF104991031051008001031011MD1210071+9999REMSYN070AAXX  06094 02584 42598 43602 10184 20111 40107 52007 83531 333 83695;
0138025840999992000070612004+58400+019200FM-12+001299999V0203401N001012200019N0200001N1+01871+01001101101ADDGA1011+999999079GF102991011001999999031011MD1110031+9999REMSYN070AAXX  06124 02584 42998 23402 10187 20100 40110 51003 81031 333 81399;
0138025840999992000070615004+58400+019200FM-12+001299999V0203601N000512200019N0200001N1+01841+00901101121ADDGA1031+999999019GF103991001001999999001011MD1310021+9999REMSYN070AAXX  06154 02584 42998 33601 10184 20090 40112 53002 80001 333 83099;
0187025840999992000070618004+58400+019200FM-12+001299999V0203401N000512200019N0200001N1+01721+01021101121ADDAA199000091GA1041+999999019GF104991001001999999001011KA1120M+01951MD1410001+9999REMSYN076AAXX  06184 02584 32998 43401 10172 20102 40112 54000 80001 333 10195 84099;EQDQ01  00002PRCP99
0138025840999992000070621004+58400+019200FM-12+001299999V0201801N000512200019N0100001N1+01291+01111101111ADDGA1041+999999019GF104991001001999999001011MD1710011+9999REMSYN070AAXX  06214 02584 42997 41801 10129 20111 40111 57001 80001 333 84099;
0138025840999992000070700004+58400+019200FM-12+001299999V0201601N001012200019N0100001N1+01161+01041101031ADDGA1041+999999019GF104991001001999999001011MD1710081+9999REMSYN070AAXX  07004 02584 42997 41602 10116 20104 40103 57008 80001 333 84099;
0166025840999992000070703004+58400+019200FM-12+001299999V0201801N001012200019N0040001N1+01211+01151100961ADDAY101031AY201031GA1021+999999079GF104991021001999999031011MD1710071+9999MW1101REMSYN076AAXX  07034 02584 41996 41802 10121 20115 40096 57007 71000 82031 333 82399;
0199025840999992000070706004+58400+019200FM-12+001299999V0202501N001010045019N0200001N1+01661+01451100901ADDAA199000091GA1071+004509059GF107991071051004501999999IA1019KA1120N+01161MD1710061+9999REMSYN082AAXX  07064 02584 32498 72502 10166 20145 40090 57006 875// 333 20116 30/// 87694;EQDQ01  00002PRCP99
0138025840999992000070709004+58400+019200FM-12+001299999V0202301N002610045019N0200001N1+01631+01071100931ADDGA1071+004509059GF107991071051004501999999MD1210031+9999REMSYN070AAXX  07094 02584 42498 72305 10163 20107 40093 52003 875// 333 87694;
0138025840999992000070712004+58400+019200FM-12+001299999V0202001N003110080019N0200001N1+01591+00711100871ADDGA1081+008009059GF108991081051008001999999MD1710061+9999REMSYN070AAXX  07124 02584 42598 82006 10159 20071 40087 57006 885// 333 88695;
0138025840999992000070715004+58400+019200FM-12+001299999V0202001N003110080019N0200001N1+01531+00811100771ADDGA1071+008009059GF107991071051008001999999MD1710101+9999REMSYN070AAXX  07154 02584 42598 72006 10153 20081 40077 57010 875// 333 87695;
0193025840999992000070718004+58400+019200FM-12+001299999V0201801N00261004201CN0200001N1+01411+00931100671ADDAA199000091GA1031+004509099GF107991071031004501001001KA1120M+01781MD1710101+9999REMSYN082AAXX  07184 02584 32498 71805 10141 20093 40067 57010 87300 333 10178 83994 87695;EQDQ01  00002PRCP99
0138025840999992000070721004+58400+019200FM-12+001299999V0202001N002110080019N0200001N1+01451+00861100581ADDGA1081+008009059GF108991081051008001999999MD1710091+9999REMSYN070AAXX  07214 02584 42598 82004 10145 20086 40058 57009 885// 333 88695;
0138025840999992000070800004+58400+019200FM-12+001299999V0202001N002110175019N0200001N1+01441+00941100491ADDGA1081+017509059GF108991081051017501999999MD1710091+9999REMSYN070AAXX  08004 02584 42798 82004 10144 20094 40049 57009 885// 333 88697;
0138025840999992000070803004+58400+019200FM-12+001299999V0202001N002610080019N0200001N1+01381+00881100391ADDGA1071+008009059GF107991071051008001001001MD1710101+9999REMSYN070AAXX  08034 02584 42598 72005 10138 20088 40039 57010 87500 333 87695;
0205025840999992000070806004+58400+019200FM-12+001299999V0202001N002612200019N0200001N1+01411+00951100321ADDAA199000091GA1011+004509099GF104991041031004501001001IA1019KA1120N+01351MD1710071+9999REMSYN088AAXX  08064 02584 32498 42005 10141 20095 40032 57007 84300 333 20135 30/// 81994 83894;EQDQ01  00002PRCP99
0144025840999992000070809004+58400+019200FM-12+001299999V0202001N00261030001CN0200001N1+01501+01001100341ADDGA1031+004509069GF105991031051004501031001MD1010021+9999REMSYN076AAXX  08094 02584 42498 52005 10150 20100 40034 50002 83530 333 83694 84399;
0157025840999992000070812004+58400+019200FM-12+001299999V0202001N002612200019N0200001N1+01521+01041100351ADDGA1041+022509059GF104991041051022501999001MD1110011+9999REMSYN070AAXX  08124 02584 42898 42005 10152 20104 40035 51001 84500 333 84698;EQDQ01+000002SCOMCG
0138025840999992000070815004+58400+019200FM-12+001299999V0201801N002612200019N0200001N1+01641+00971100331ADDGA1021+004509029GF102991021011004501001001MD1810021+9999REMSYN070AAXX  08154 02584 42498 21805 10164 20097 40033 58002 82100 333 82894;
0187025840999992000070818004+58400+019200FM-12+001299999V0202001N002612200019N0200001N1+01531+01211100291ADDAA199000091GA1021+999999019GF102991001001999999001011KA1120M+01711MD1710041+9999REMSYN076AAXX  08184 02584 32998 22005 10153 20121 40029 57004 80001 333 10171 82099;EQDQ01  00002PRCP99
0138025840999992000070821004+58400+019200FM-12+001299999V0202001N002119999999N0200001N1+01501+01301100251ADDGA1061+999999079GF106991061001999999031001MD1710041+9999REMSYN070AAXX  08214 02584 42998 62004 10150 20130 40025 57004 86030 333 86399;
0138025840999992000070900004+58400+019200FM-12+001299999V0202001N001519999999N0100001N1+01461+01361100201ADDGA1061+999999079GF106991061001999999031001MD1710051+9999REMSYN070AAXX  09004 02584 42997 62003 10146 20136 40020 57005 86030 333 86399;
0144025840999992000070903004+58400+019200FM-12+001299999V0202501N00101030001CN0200001N1+01431+01201100141ADDGA1021+017509069GF106991021051017501031001MD1710061+9999REMSYN076AAXX  09034 02584 42798 62502 10143 20120 40014 57006 82530 333 82697 85399;
0205025840999992000070906004+58400+019200FM-12+001299999V0209999V000510750019N0200001N1+01511+00841100161ADDAA199000091GA1011+012509099GF105991011031012501031011IA1019KA1120N+01431MD1310021+9999REMSYN088AAXX  09064 02584 32698 59901 10151 20084 40016 53002 81331 333 20143 30/// 81996 83399;EQDQ01  00002PRCP99
0122025840999992000070912004+58400+019200FM-12+001299999V0202301N002112200019N0500001N1+01721+00891100231ADDGA1001+999999999GF100991001001999999001001MD1210021+9999REMSYN054AAXX  09124 02584 42999 02304 10172 20089 40023 52002;
0138025840999992000070915004+58400+019200FM-12+001299999V0202001N001012200019N0500001N1+01591+00921100241ADDGA1011+008009029GF101991011011008001001001MD1110011+9999REMSYN070AAXX  09154 02584 42599 12002 10159 20092 40024 51001 81100 333 81895;
0187025840999992000070918004+58400+019200FM-12+001299999V0202001N001012200019N0500001N1+01481+00731100181ADDAA199000091GA1021+999999019GF102991001001999999001011KA1120M+01841MD1710061+9999REMSYN076AAXX  09184 02584 32999 22002 10148 20073 40018 57006 80001 333 10184 82099;EQDQ01  00002PRCP99
0138025840999992000070921004+58400+019200FM-12+001299999V0201101N001012200019N0200001N1+01041+00601100221ADDGA1041+999999019GF104991001001999999001011MD1310041+9999REMSYN070AAXX  09214 02584 42998 41102 10104 20060 40022 53004 80001 333 84099;
0122025840999992000071000004+58400+019200FM-12+001299999V0201101N001012200019N0200001N1+00901+00811100181ADDGA1001+999999999GF100991001001999999001001MD1810041+9999REMSYN054AAXX  10004 02584 42998 01102 10090 20081 40018 58004;
0138025840999992000071003004+58400+019200FM-12+001299999V0201801N001010025019N0200001N1+01271+01221100141ADDGA1061+002509069GF106991061061002501001001MD1710041+9999REMSYN070AAXX  10034 02584 42398 61802 10127 20122 40014 57004 86600 333 86793;
0199025840999992000071006004+58400+019200FM-12+001299999V0201601N000510042019N0200001N1+01461+01251100181ADDAA199000091GA1041+004509029GF105991051021004501001001IA1019KA1120N+00871MD1310041+9999REMSYN082AAXX  10064 02584 32498 51601 10146 20125 40018 53004 85200 333 20087 30/// 84894;EQDQ01  00002PRCP99
0138025840999992000071009004+58400+019200FM-12+001299999V0201801N001512200019N0200001N1+01681+00961100191ADDGA1021+008009029GF103991021021008001031001MD1110011+9999REMSYN070AAXX  10094 02584 42598 31803 10168 20096 40019 51001 82230 333 82895;
0138025840999992000071012004+58400+019200FM-12+001299999V0200901N003112200019N0200001N1+01821+00901100171ADDGA1021+008009029GF103991021011008001001011MD1810021+9999REMSYN070AAXX  10124 02584 42598 30906 10182 20090 40017 58002 82101 333 82895;
0138025840999992000071015004+58400+019200FM-12+001299999V0200901N002112200019N0200001N1+01861+00881100141ADDGA1021+999999019GF102991001001999999001011MD1710031+9999REMSYN070AAXX  10154 02584 42998 20904 10186 20088 40014 57003 80001 333 82099;
0187025840999992000071018004+58400+019200FM-12+001299999V0200901N002119999999N0200001N1+01561+01081100091ADDAA199000091GA1061+999999079GF106991061001999999071001KA1120M+01911MD1710051+9999REMSYN076AAXX  10184 02584 32998 60904 10156 20108 40009 57005 86070 333 10191 86399;EQDQ01  00002PRCP99
0138025840999992000071021004+58400+019200FM-12+001299999V0200701N003119999999N0200001N1+01541+01221100021ADDGA1061+999999079GF106991061001999999071001MD1710071+9999REMSYN070AAXX  10214 02584 42998 60706 10154 20122 40002 57007 86070 333 86399;
0166025840999992000071100004+58400+019200FM-12+001299999V0200901N002610175019N0100001N1+01531+01171099931ADDAY121061AY221061GA1081+017509059GF108991081051017501999999MD1710091+9999MW1611REMSYN076AAXX  11004 02584 41797 80905 10153 20117 49993 57009 76122 885// 333 88697;
0172025840999992000071103004+58400+019200FM-12+001299999V0200901N00151030001CN0040001N1+01491+01431099911ADDAY161031AY261031GA1041+001509079GF108991041071001501021999MD1710021+9999MW1611REMSYN082AAXX  11034 02584 41296 80903 10149 20143 49991 57002 76166 8472/ 333 84792 88599;
0255025840999992000071106004+58400+019200FM-12+001299999V0201601N002112200019N0100001N1+01621+01521100051ADDAA112003091AY161061AY221061GA1081+087009019GF199999031021001501001999IA1099KA1120N+01461MD1310141+9999MW1011REMSYN100AAXX  11064 02584 11297 31604 10162 20152 40005 53014 60032 70162 83200 333 20146 31/// 88179 82389;EQDQ01+000032SCOTCVQ02+000002SCOHCG
0144025840999992000071112004+58400+019200FM-12+001299999V0201601N00211030001CN0200001N1+01931+01391100221ADDGA1011+004509079GF107991011061004501011999MD1210061+9999REMSYN076AAXX  11124 02584 42498 71604 10193 20139 40022 52006 8161/ 333 81794 86499;
0216025840999992000071115004+58400+019200FM-12+001299999V0201101N00151030001CN0040001N1+01711+01651100211ADDAY121031AY221031GA1031+001509079GA2041+008709019GA3081+025009059GF108991031071001501021999MD1810011+9999MW1611REMSYN094AAXX  11154 02584 41296 81103 10171 20165 40021 58001 76122 8372/ 333 83792 88599 84129 86811;
0208025840999992000071118004+58400+019200FM-12+001299999V0201101N00051001501CN0040001N1+01591+01531100211ADDAA112002091AY171061AY221061GA1051+001509079GF108991051071001501021999KA1120M+01991MD1010001+9999MW1611REMSYN094AAXX  11184 02584 11296 81101 10159 20153 40021 50000 60022 76172 8572/ 333 10199 85792 88599;
0172025840999992000071121004+58400+019200FM-12+001299999V0200201N00101030001CN0040001N1+01521+01461100101ADDAY161031AY261031GA1031+001509079GF108991031071001501021999MD1710111+9999MW1611REMSYN082AAXX  11214 02584 41296 80202 10152 20146 40010 57011 76166 8372/ 333 83792 88596;
0191025840999992000071200004+58400+019200FM-12+001299999V0203601N00101030001CN0040001N1+01531+01471999999ADDAY161061AY261061GA1031+001509079GF108991031071001501021999MD1710201+9999MW1621REMSYN082AAXX  12004 02584 41296 83602 10153 20147 40099 57020 76266 8372/ 333 83792 88596;EQDQ01+100993APOSLP
0166025840999992000071203004+58400+019200FM-12+001299999V0202901N000510125019N0040001N1+01511+01451099861ADDAY161031AY261031GA1061+012509059GF106991061051012501001001MD1610041+9999MW1101REMSYN076AAXX  12034 02584 41696 62901 10151 20145 49986 56004 71066 86500 333 86696;
0220025840999992000071206004+58400+019200FM-12+001299999V0202901N00101030001CN0040001N1+01541+01481099901ADDAA112018091AY161061AY221061GA1031+001509079GF108991031071001501021999IA1119KA1120N+01511MD1010041+9999MW1631REMSYN100AAXX  12064 02584 11296 82902 10154 20148 49990 50004 60182 76362 8372/ 333 20151 32/// 83792 88599;
0172025840999992000071209004+58400+019200FM-12+001299999V0203601N00151001501CN0040001N1+01541+01481099811ADDAY161031AY261031GA1051+001509079GF108991051071001501021999MD1010091+9999MW1631REMSYN082AAXX  12094 02584 41296 83603 10154 20148 49981 50009 76366 8572/ 333 85792 88596;
0166025840999992000071212004+58400+019200FM-12+001299999V0203401N002610007519N0040001N1+01591+01531099601ADDAY161061AY261061GA1081+000759069GF108991081071000751999999MD1710211+9999MW1101REMSYN076AAXX  12124 02584 41196 83405 10159 20153 49960 57021 71066 887// 333 88791;
0166025840999992000071215004+58400+019200FM-12+001299999V0200501N001510080019N0040001N1+01701+01621099331ADDAY161031AY221031GA1071+008009059GF107991071051008001001001MD1710271+9999MW1621REMSYN076AAXX  12154 02584 41596 70503 10170 20162 49933 57027 76262 87500 333 87695;
0202025840999992000071218004+58400+019200FM-12+001299999V0209999V000512200019N0100001N1+01701+01601099261ADDAA112013091AY161061AY221061GA1021+008009059GF102991021051008001001001KA1120M+01751MD1610071+9999MW1011REMSYN088AAXX  12184 02584 11597 29901 10170 20160 49926 56007 60132 70162 82500 333 10175 82695;
0138025840999992000071221004+58400+019200FM-12+001299999V0200501N001010080019N0100001N1+01541+01441099151ADDGA1071+008009059GF107991071051008001999999MD1710111+9999REMSYN070AAXX  12214 02584 42597 70502 10154 20144 49915 57011 875// 333 87695;
0166025840999992000071300004+58400+019200FM-12+001299999V0203601N001010015019N0040001N1+01471+01411099011ADDAY121061AY221061GA1081+001509069GF108991081061001501999999MD1710141+9999MW1101REMSYN076AAXX  13004 02584 41296 83602 10147 20141 49901 57014 71022 886// 333 88792;
0172025840999992000071303004+58400+019200FM-12+001299999V0202701N00261030001CN0040001N1+01451+01401098951ADDAY121031AY221031GA1041+001509079GF108991041071001501021999MD1710061+9999MW1611REMSYN082AAXX  13034 02584 41296 82705 10145 20140 49895 57006 76122 8472/ 333 84792 88599;
0220025840999992000071306004+58400+019200FM-12+001299999V0202301N00211030001CN0040001N1+01451+01371098921ADDAA112001091AY121061AY221061GA1041+001509079GF108991041021001501021999IA1099KA1120N+01441MD1710031+9999MW1601REMSYN100AAXX  13064 02584 11296 82304 10145 20137 49892 57003 60012 76022 8422/ 333 20144 31/// 84792 88599;
0172025840999992000071309004+58400+019200FM-12+001299999V0202301N00361030001CN0020001N1+01431+01371098971ADDAY161031AY261031GA1041+000759079GF108991041071000751021999MD1210051+9999MW1631REMSYN082AAXX  13094 02584 41195 82307 10143 20137 49897 52005 76366 8472/ 333 84791 88599;
0172025840999992000071312004+58400+019200FM-12+001299999V0202301N00671030001CN0020001N1+01391+01341099101ADDAY161061AY261061GA1041+001509079GF108991041071001501021999MD1210131+9999MW1631REMSYN082AAXX  13124 02584 41295 82313 10139 20134 49910 52013 76366 8472/ 333 84792 88599;
0166025840999992000071315004+58400+019200FM-12+001299999V0202001N006210045019N0100001N1+01411+01281099311ADDAY161031AY261031GA1081+004509059GF108991081051004501999999MD1210211+9999MW1211REMSYN076AAXX  13154 02584 41497 82012 10141 20128 49931 52021 72166 885// 333 88694;
0208025840999992000071318004+58400+019200FM-12+001299999V0202001N00621030001CN0100001N1+01391+01191099461ADDAA112016091AY161061AY221061GA1041+008009079GF108991041071008001021999KA1120M+01461MD1210151+9999MW1601REMSYN094AAXX  13184 02584 11597 82012 10139 20119 49946 52015 60162 76062 8472/ 333 10146 84795 88599;
0172025840999992000071321004+58400+019200FM-12+001299999V0201801N00621004501CN0100001N1+01341+01161099551ADDAY161031AY261031GA1061+004509079GF108991061071004501021999MD1210091+9999MW1021REMSYN082AAXX  13214 02584 41497 81812 10134 20116 49955 52009 70266 8672/ 333 86794 88599;
0166025840999992000071400004+58400+019200FM-12+001299999V0201801N005712200019N0100001N1+01331+00971099571ADDAY161061AY261061GA1021+008009059GF103991021051008001031001MD1110021+9999MW1011REMSYN076AAXX  14004 02584 41597 31811 10133 20097 49957 51002 70166 82530 333 82695;
0157025840999992000071403004+58400+019200FM-12+001299999V0202001N004610225019N0100001N1+01321+00981099701ADDGA1071+022509059GF107991071051022501999001MD1210131+9999REMSYN070AAXX  14034 02584 42897 72009 10132 20098 49970 52013 87500 333 87698;EQDQ01+000002SCOMCG
0214025840999992000071406004+58400+019200FM-12+001299999V0201801N003612200019N0200001N1+01321+01021099781ADDAA112000391AY161061AY211061GA1041+004509029GF104991041021004501001001IA1099KA1120N+01231MD1110081+9999MW1251REMSYN094AAXX  14064 02584 11498 41807 10132 20102 49978 51008 69932 72561 84200 333 20123 31/// 84894;
0138025840999992000071409004+58400+019200FM-12+001299999V0201801N003612200019N0200001N1+01481+00981099901ADDGA1011+004509029GF102991011011004501031001MD1210121+9999REMSYN070AAXX  14094 02584 42498 21807 10148 20098 49990 52012 81130 333 81894;
0138025840999992000071412004+58400+019200FM-12+001299999V0201801N003112200019N0200001N1+01611+00941100041ADDGA1021+999999079GF102991021001999999071001MD1210141+9999REMSYN070AAXX  14124 02584 42998 21806 10161 20094 40004 52014 82070 333 82399;
0157025840999992000071415004+58400+019200FM-12+001299999V0201401N002112200019N0200001N1+01741+01241100121ADDGA1021+017509059GF102991021051017501999001MD1210081+9999REMSYN070AAXX  14154 02584 42798 21404 10174 20124 40012 52008 82500 333 82697;EQDQ01+000002SCOMCG
0157025840999992000071418004+58400+019200FM-12+001299999V0201601N002112200019N0200001N1+01501+01321100191ADDGA1041+022509019GF104991041001022501021001KA1120M+01741MD1210071+9999REMSYN076AAXX  14184 02584 42898 41604 10150 20132 40019 52007 84020 333 10174 84498;
0166025840999992000071503004+58400+019200FM-12+001299999V0200201N001510007519N0040001N1+01271+01211100211ADDAY141031AY241031GA1081+000759069GF108991081061000751999999MD1810011+9999MW1101REMSYN076AAXX  15034 02584 41196 80203 10127 20121 40021 58001 71044 886// 333 88791;
0227025840999992000071506004+58400+019200FM-12+001299999V0203401N001010015019N0100001N1+01471+01361100171ADDAA199000091AY141061AY221061GA1081+001509069GF108991081061001501999999IA1019KA1120N+00971MD1710041+9999MW1021REMSYN088AAXX  15064 02584 31297 83402 10147 20136 40017 57004 70242 886// 333 20097 30/// 88792;EQDQ01  00002PRCP99
0166025840999992000071509004+58400+019200FM-12+001299999V0203201N002110015019N0040001N1+01341+01231100171ADDAY121031AY221031GA1081+001509069GF108991081061001501999999MD1410001+9999MW1101REMSYN076AAXX  15094 02584 41296 83204 10134 20123 40017 54000 71022 886// 333 88792;
0172025840999992000071512004+58400+019200FM-12+001299999V0203401N00311002501CN0040001N1+01371+01241100111ADDAY121061AY221061GA1061+002509079GF108991061071002501021999MD1610061+9999MW1601REMSYN082AAXX  15124 02584 41396 83406 10137 20124 40011 56006 76022 8672/ 333 86793 88599;
0208025840999992000071518004+58400+019200FM-12+001299999V0202901N00411004501CN0100001N1+01251+01171099961ADDAA112001091AY161061AY261061GA1061+004509079GF108991061071004501021999KA1120M+01471MD1810071+9999MW1601REMSYN094AAXX  15184 02584 11497 82908 10125 20117 49996 58007 60012 76066 8672/ 333 10147 86794 88599;
0172025840999992000071600004+58400+019200FM-12+001299999V0202701N00311001501CN0040001N1+01231+01171099881ADDAY161061AY261061GA1061+001509079GF108991061071001501021999MD1710081+9999MW1601REMSYN082AAXX  16004 02584 41296 82706 10123 20117 49988 57008 76066 8672/ 333 86792 88599;
0172025840999992000071603004+58400+019200FM-12+001299999V0202701N00311001501CN0040001N1+01221+01161099941ADDAY161031AY261031GA1061+001509079GF108991061071001501021999MD1510061+9999MW1601REMSYN082AAXX  16034 02584 41296 82706 10122 20116 49994 55006 76066 8672/ 333 86792 88599;
0220025840999992000071606004+58400+019200FM-12+001299999V0202501N00261001501CN0100001N1+01321+01241100041ADDAA112003091AY161061AY261061GA1061+001509079GF108991061071001501021999IA1099KA1120N+01221MD1210101+9999MW1021REMSYN100AAXX  16064 02584 11297 82505 10132 20124 40004 52010 60032 70266 8672/ 333 20122 31/// 86792 88599;
0172025840999992000071609004+58400+019200FM-12+001299999V0202001N00311000751CN0040001N1+01361+01301100271ADDAY161031AY221031GA1061+000759079GF108991061071000751021999MD1210231+9999MW1601REMSYN082AAXX  16094 02584 41196 82006 10136 20130 40027 52023 76062 8672/ 333 86791 88599;
0172025840999992000071612004+58400+019200FM-12+001299999V0202001N00411000751CN0040001N1+01391+01331100511ADDAY161061AY221061GA1061+000759079GF108991061071000751021999MD1210241+9999MW1601REMSYN082AAXX  16124 02584 41196 82008 10139 20133 40051 52024 76062 8672/ 333 86791 88599;
0166025840999992000071615004+58400+019200FM-12+001299999V0202001N003610125019N0100001N1+01481+01401100681ADDAY161031AY221031GA1071+012509059GF107991071051012501999999MD1210171+9999MW1211REMSYN076AAXX  16154 02584 41697 72007 10148 20140 40068 52017 72162 875// 333 87696;
0202025840999992000071618004+58400+019200FM-12+001299999V0202001N002619999999N0100001N1+01521+01441100831ADDAA112000591AY161061AY221061GA1061+999999079GF107991061001999999071001KA1120M+01521MD1210151+9999MW1021REMSYN088AAXX  16184 02584 11997 72005 10152 20144 40083 52015 69962 70262 86070 333 10152 86399;
0122025840999992000071621004+58400+019200FM-12+001299999V0201601N002112200019N0100001N1+01401+01341100951ADDGA1001+999999999GF100991001001999999001001MD1210121+9999REMSYN054AAXX  16214 02584 42997 01604 10140 20134 40095 52012;
0138025840999992000071700004+58400+019200FM-12+001299999V0201601N002612200019N0100001N1+01381+01321101031ADDGA1031+999999079GF104991031001999999031011MD1210081+9999REMSYN070AAXX  17004 02584 42997 41605 10138 20132 40103 52008 83031 333 83399;
0122025840999992000071703004+58400+019200FM-12+001299999V0201801N002112200019N0100001N1+01301+01241101031ADDGA1001+999999999GF100991001001999999001001MD1410001+9999REMSYN054AAXX  17034 02584 42997 01804 10130 20124 40103 54000;
0187025840999992000071706004+58400+019200FM-12+001299999V0201101N000512200019N0100001N1+01581+01451101061ADDAA199000091GA1001+999999999GF100991001001999999001001IA1099KA1120N+01301MD1210031+9999REMSYN070AAXX  17064 02584 32997 01101 10158 20145 40106 52003 333 20130 31///;EQDQ01  00002PRCP99
0138025840999992000071709004+58400+019200FM-12+001299999V0200901N001012200019N0200001N1+01841+01381101021ADDGA1021+999999019GF102991001001999999001041MD1010041+9999REMSYN070AAXX  17094 02584 42998 20902 10184 20138 40102 50004 80004 333 82099;
0138025840999992000071712004+58400+019200FM-12+001299999V0203601N001012200019N0200001N1+01881+01401100951ADDGA1011+999999019GF101991001001999999001041MD1710071+9999REMSYN070AAXX  17124 02584 42998 13602 10188 20140 40095 57007 80004 333 81099;
0138025840999992000071715004+58400+019200FM-12+001299999V0200201N000512200019N0200001N1+01761+01361100881ADDGA1011+999999019GF101991001001999999001011MD1710071+9999REMSYN070AAXX  17154 02584 42998 10201 10176 20136 40088 57007 80001 333 81099;
0187025840999992000071718004+58400+019200FM-12+001299999V0203601N001012200019N0200001N1+01611+01481100811ADDAA199000091GA1011+999999019GF101991001001999999001011KA1120M+01941MD1710071+9999REMSYN076AAXX  17184 02584 32998 13602 10161 20148 40081 57007 80001 333 10194 81099;EQDQ01  00002PRCP99
0122025840999992000071721004+58400+019200FM-12+001299999V0201301N001012200019N0200001N1+01351+01291100731ADDGA1001+999999999GF100991001001999999001001MD1710081+9999REMSYN054AAXX  17214 02584 42998 01302 10135 20129 40073 57008;
0205025840999992000071806004+58400+019200FM-12+001299999V0202901N00261030001CN0100001N1+01521+01411100441ADDAA199000091GA1041+002509079GF108991041061002501021999IA1099KA1120N+01301MD1710031+9999REMSYN088AAXX  18064 02584 32397 82905 10152 20141 40044 57003 8462/ 333 20130 31/// 84793 88599;EQDQ01  00002PRCP99
0144025840999992000071809004+58400+019200FM-12+001299999V0202901N00211001501CN0100001N1+01611+01451100421ADDGA1081+001509079GF108991081061002501999999MD1610021+9999REMSYN076AAXX  18094 02584 42397 82904 10161 20145 40042 56002 886// 333 88792 82205;
0138025840999992000071812004+58400+019200FM-12+001299999V0202901N001512200019N0200001N1+01841+01421100401ADDGA1011+999999079GF103991011001999999031011MD1710021+9999REMSYN070AAXX  18124 02584 42998 32903 10184 20142 40040 57002 81031 333 81399;
0138025840999992000071815004+58400+019200FM-12+001299999V0202701N002112200019N0200001N1+01891+01451100361ADDGA1021+999999079GF103991021001999999071011MD1710041+9999REMSYN070AAXX  18154 02584 42998 32704 10189 20145 40036 57004 82071 333 82399;
0187025840999992000071818004+58400+019200FM-12+001299999V0202301N001510080019N0200001N1+01621+01511100301ADDAA199000091GA1061+008009059GF106991061051008001001001KA1120M+01921MD1710061+9999REMSYN076AAXX  18184 02584 32598 62303 10162 20151 40030 57006 86500 333 10192 86695;EQDQ01  00002PRCP99
0172025840999992000071821004+58400+019200FM-12+001299999V0202301N00051002501CN0040001N1+01561+01501100241ADDAY121031AY221031GA1061+002509079GF108991061071002501021999MD1710061+9999MW1601REMSYN082AAXX  18214 02584 41396 82301 10156 20150 40024 57006 76022 8672/ 333 86793 88599;
0166025840999992000071900004+58400+019200FM-12+001299999V0202701N000510125019N0040001N1+01521+01461100121ADDAY161061AY221061GA1081+012509059GF108991081051004501999999MD1710121+9999MW1101REMSYN076AAXX  19004 02584 41496 82701 10152 20146 40012 57012 71062 885// 333 88696;
0166025840999992000071903004+58400+019200FM-12+001299999V0202501N001010045019N0040001N1+01511+01451100011ADDAY121031AY221031GA1081+004509059GF108991081051004501999999MD1710111+9999MW1101REMSYN076AAXX  19034 02584 41496 82502 10151 20145 40001 57011 71022 885// 333 88694;
0220025840999992000071906004+58400+019200FM-12+001299999V0202301N00101030001CN0040001N1+01521+01461099951ADDAA112001091AY121061AY221061GA1041+000759079GF108991041071000751021999IA1099KA1120N+01501MD1710061+9999MW1611REMSYN100AAXX  19064 02584 11196 82302 10152 20146 49995 57006 60012 76122 8472/ 333 20150 31/// 84791 88599;
0166025840999992000071909004+58400+019200FM-12+001299999V0202301N002610007519N0002001N1+01531+01471099931ADDAY161031AY261031GA1081+000759069GF108991081061000751999999MD1510021+9999MW1411REMSYN076AAXX  19094 02584 41192 82305 10153 20147 49993 55002 74166 886// 333 88791;
0191025840999992000071912004+58400+019200FM-12+001299999V0202301N00211000251CN0005001N1+01521+01461099971ADDAY161061AY241061GA1081+000259079GF108991999071000251021999MD1210041+9999MW1601REMSYN082AAXX  19124 02584 41093 82304 10152 20146 49997 52004 76064 8872/ 333 88790 88599;EQDQ01+000082SCOTLC
0191025840999992000071915004+58400+019200FM-12+001299999V0202001N00311000751CN0040001N1+01501+01441100061ADDAY161031AY261031GA1081+000759079GF108991999071000751021999MD1210091+9999MW1601REMSYN082AAXX  19154 02584 41196 82006 10150 20144 40006 52009 76066 8872/ 333 88791 88599;EQDQ01+000082SCOTLC
0227025840999992000071918004+58400+019200FM-12+001299999V0201801N00311000751CN0040001N1+01471+01411100111ADDAA112009991AY161061AY261061GA1081+000759079GF108991999071000751021999KA1120M+01531MD1210051+9999MW1631REMSYN094AAXX  19184 02584 11196 81806 10147 20141 40011 52005 60102 76366 8872/ 333 10153 88791 88599;EQDQ01+000082SCOTLC
0191025840999992000071921004+58400+019200FM-12+001299999V0201801N00311000751CN0040001N1+01481+01431100191ADDAY161031AY261031GA1081+000759079GF108991999071000751021999MD1210081+9999MW1621REMSYN082AAXX  19214 02584 41196 81806 10148 20143 40019 52008 76266 8872/ 333 88791 88599;EQDQ01+000082SCOTLC
0191025840999992000072000004+58400+019200FM-12+001299999V0201401N00261000751CN0040001N1+01441+01381100321ADDAY161061AY261061GA1081+000759079GF108991999071000751021999MD1310131+9999MW1601REMSYN082AAXX  20004 02584 41196 81405 10144 20138 40032 53013 76066 8872/ 333 88791 88599;EQDQ01+000082SCOTLC
0191025840999992000072003004+58400+019200FM-12+001299999V0201401N00311000751CN0040001N1+01401+01341100421ADDAY161031AY261031GA1081+000759079GF108991999071000751021999MD1210101+9999MW1601REMSYN082AAXX  20034 02584 41196 81406 10140 20134 40042 52010 76066 8872/ 333 88791 88599;EQDQ01+000082SCOTLC
0239025840999992000072006004+58400+019200FM-12+001299999V0201401N00311000751CN0040001N1+01421+01361100541ADDAA112004191AY161061AY261061GA1081+000759079GF108991999071000751021999IA1099KA1120N+01381MD1210121+9999MW1601REMSYN100AAXX  20064 02584 11196 81406 10142 20136 40054 52012 60042 76066 8872/ 333 20138 31/// 88791 88599;EQDQ01+000082SCOTLC
0191025840999992000072009004+58400+019200FM-12+001299999V0201401N00261000751CN0040001N1+01461+01401100641ADDAY161031AY261031GA1081+000759079GF108991999071000751021999MD1210101+9999MW1601REMSYN082AAXX  20094 02584 41196 81405 10146 20140 40064 52010 76066 8872/ 333 88791 88599;EQDQ01+000082SCOTLC
0191025840999992000072012004+58400+019200FM-12+001299999V0201101N00261000751CN0040001N1+01471+01411100821ADDAY161061AY251061GA1081+000759079GF108991999071000751021999MD1210181+9999MW1581REMSYN082AAXX  20124 02584 41196 81105 10147 20141 40082 52018 75865 8872/ 333 88791 88599;EQDQ01+000082SCOTLC
0191025840999992000072015004+58400+019200FM-12+001299999V0201101N00261000751CN0040001N1+01471+01411100991ADDAY161031AY251031GA1081+000759079GF108991999071000751021999MD1210171+9999MW1201REMSYN082AAXX  20154 02584 41196 81105 10147 20141 40099 52017 72065 8872/ 333 88791 88599;EQDQ01+000082SCOTLC
0202025840999992000072018004+58400+019200FM-12+001299999V0201101N002110007519N0040001N1+01421+01361101141ADDAA112002091AY161061AY251061GA1081+000759069GF108991081061000751999999KA1120M+01481MD1210151+9999MW1101REMSYN088AAXX  20184 02584 11196 81104 10142 20136 40114 52015 60022 71065 886// 333 10148 88791;
0166025840999992000072021004+58400+019200FM-12+001299999V0201101N001510007519N0040001N1+01391+01331101311ADDAY121031AY221031GA1081+000759069GF108991081061000751999999MD1210171+9999MW1101REMSYN076AAXX  20214 02584 41196 81103 10139 20133 40131 52017 71022 886// 333 88791;
0172025840999992000072100004+58400+019200FM-12+001299999V0200901N00151030001CN0040001N1+01361+01301101481ADDAY121061AY221061GA1041+000759079GF106991041061000751071001MD1210171+9999MW1101REMSYN082AAXX  21004 02584 41196 60903 10136 20130 40148 52017 71022 84670 333 84791 84398;
0166025840999992000072103004+58400+019200FM-12+001299999V0200701N001510080019N0040001N1+01381+01321101581ADDAY121031AY221031GA1051+008009059GF106991051051008001071001MD1110101+9999MW1101REMSYN076AAXX  21034 02584 41596 60703 10138 20132 40158 51010 71022 85570 333 85695;
0199025840999992000072106004+58400+019200FM-12+001299999V0200501N001010080019N0100001N1+01441+01381101681ADDAA199000091GA1081+008009059GF108991081051008001999999IA1099KA1120N+01361MD1210101+9999REMSYN082AAXX  21064 02584 32597 80502 10144 20138 40168 52010 885// 333 20136 31/// 88695;EQDQ01  00002PRCP99
0144025840999992000072109004+58400+019200FM-12+001299999V0200201N00151030001CN0200001N1+01671+01521101751ADDGA1041+001509079GF107991041061001501031011MD1110071+9999REMSYN076AAXX  21094 02584 42298 70203 10167 20152 40175 51007 84631 333 84792 83399;
0138025840999992000072112004+58400+019200FM-12+001299999V0203601N002112200019N0200001N1+01791+01491101821ADDGA1031+999999079GF104991031001999999031011MD1210071+9999REMSYN070AAXX  21124 02584 42998 43604 10179 20149 40182 52007 83031 333 83399;
0138025840999992000072115004+58400+019200FM-12+001299999V0203601N001512200019N0200001N1+01761+01561101841ADDGA1031+000759069GF104991031061000751001011MD1110021+9999REMSYN070AAXX  21154 02584 42198 43603 10176 20156 40184 51002 83601 333 83791;
0158025840999992000072118004+58400+019200FM-12+001299999V0200201N001512200019N0200001N1+01541+01441101841ADDAA199000091GF104991041061001501001001MD1010001+9999REMSYN076AAXX  21184 02584 32298 40203 10154 20144 40184 50000 84600 333 80181 84792;EQDQ01  00002PRCP99
0150025840999992000072121004+58400+019200FM-12+001299999V0203401N001012200019N0040001N1+01391+01331101861ADDAY111031AY211031GA1001+999999999GF100991001001999999001001MD1010021+9999MW1101REMSYN060AAXX  21214 02584 41996 03402 10139 20133 40186 50002 71011;
0150025840999992000072200004+58400+019200FM-12+001299999V0203401N001012200019N0040001N1+01391+01331101831ADDAY111061AY201061GA1001+999999999GF100991001001999999001001MD1810031+9999MW1101REMSYN060AAXX  22004 02584 41996 03402 10139 20133 40183 58003 71010;
0166025840999992000072203004+58400+019200FM-12+001299999V0203601N001012200019N0040001N1+01411+01351101771ADDAY101031AY201031GA1021+999999019GF102991001001999999001011MD1710061+9999MW1101REMSYN076AAXX  22034 02584 41996 23602 10141 20135 40177 57006 71000 80001 333 82099;
0199025840999992000072206004+58400+019200FM-12+001299999V0203401N001012200019N0200001N1+01551+01451101751ADDAA199000091GA1021+999999079GF104991021001999999031011IA1099KA1120N+01381MD1610021+9999REMSYN082AAXX  22064 02584 32998 43402 10155 20145 40175 56002 82031 333 20138 31/// 82399;EQDQ01  00002PRCP99
0138025840999992000072209004+58400+019200FM-12+001299999V0203601N001019999999N0200001N1+01651+01471101771ADDGA1061+999999079GF106991061001999999071001MD1110021+9999REMSYN070AAXX  22094 02584 42998 63602 10165 20147 40177 51002 86070 333 86399;
0144025840999992000072212004+58400+019200FM-12+001299999V0203601N001519999999N0200001N1+01801+01381101771ADDGA1021+025009039GF105991021001999999031011MD1410001+9999REMSYN076AAXX  22124 02584 42998 53603 10180 20138 40177 54000 82031 333 82399 84099;
0138025840999992000072215004+58400+019200FM-12+001299999V0203601N001512200019N0200001N1+01921+01361101731ADDGA1021+999999019GF102991001001999999001011MD1810041+9999REMSYN070AAXX  22154 02584 42998 23603 10192 20136 40173 58004 80001 333 82099;
0187025840999992000072218004+58400+019200FM-12+001299999V0203601N000512200019N0200001N1+01771+01271101691ADDAA199000091GA1021+999999019GF102991001001999999001011KA1120M+01961MD1710041+9999REMSYN076AAXX  22184 02584 32998 23601 10177 20127 40169 57004 80001 333 10196 82099;EQDQ01  00002PRCP99
0138025840999992000072221004+58400+019200FM-12+001299999V0201801N002112200019N0100001N1+01491+01391101671ADDGA1011+999999019GF101991001001999999001011MD1710031+9999REMSYN070AAXX  22214 02584 42997 11804 10149 20139 40167 57003 80001 333 81099;
0122025840999992000072300004+58400+019200FM-12+001299999V0202001N002112200019N0100001N1+01491+01411101571ADDGA1001+999999999GF100991001001999999001001MD1810101+9999REMSYN054AAXX  23004 02584 42997 02004 10149 20141 40157 58010;
0138025840999992000072303004+58400+019200FM-12+001299999V0201801N003112200019N0200001N1+01521+01371101411ADDGA1011+999999019GF101991001001999999001011MD1710161+9999REMSYN070AAXX  23034 02584 42998 11806 10152 20137 40141 57016 80001 333 81099;
0199025840999992000072306004+58400+019200FM-12+001299999V0201801N003112200019N0200001N1+01691+01531101351ADDAA199000091GA1031+999999079GF103991031001999999031001IA1019KA1120N+01451MD1610061+9999REMSYN082AAXX  23064 02584 32998 31806 10169 20153 40135 56006 83030 333 20145 30/// 83399;EQDQ01  00002PRCP99
0166025840999992000072309004+58400+019200FM-12+001299999V0201801N003110007519N0040001N1+01541+01481101381ADDAY121031AY221031GA1081+000759069GF108991081061000751999999MD1310031+9999MW1101REMSYN076AAXX  23094 02584 41196 81806 10154 20148 40138 53003 71022 886// 333 88791;
0166025840999992000072312004+58400+019200FM-12+001299999V0202001N002610007519N0040001N1+01691+01581101391ADDAY121061AY221061GA1081+000759069GF108991081061000751999999MD1210011+9999MW1101REMSYN076AAXX  23124 02584 41196 82005 10169 20158 40139 52001 71022 886// 333 88791;
0138025840999992000072315004+58400+019200FM-12+001299999V0201801N002612200019N0200001N1+01701+01401101341ADDGA1041+999999019GF104991001001999999001021MD1810051+9999REMSYN070AAXX  23154 02584 42998 41805 10170 20140 40134 58005 80002 333 84099;
0193025840999992000072318004+58400+019200FM-12+001299999V0201801N002112200019N0100001N1+01571+01461101341ADDAA199000091GA1011+008009069GF103991011051008001001011KA1120M+01841MD1410001+9999REMSYN082AAXX  23184 02584 32597 31804 10157 20146 40134 54000 81501 333 10184 81695 83099;EQDQ01  00002PRCP99
0166025840999992000072321004+58400+019200FM-12+001299999V0201801N001010015019N0040001N1+01471+01411101311ADDAY121031AY221031GA1081+001509069GF108991081061001501999999MD1810031+9999MW1101REMSYN076AAXX  23214 02584 41296 81802 10147 20141 40131 58003 71022 886// 333 88792;
0150025840999992000072400004+58400+019200FM-12+001299999V0201101N000510001519N0001001N1+01411+01371101271ADDAY121061AY221061GA1091+999999999GF109991091999999999999999MD1810041+9999MW1451REMSYN060AAXX  24004 02584 41/91 91101 10141 20137 40127 58004 74522;
0166025840999992000072403004+58400+019200FM-12+001299999V0201801N001010015019N0040001N1+01411+01361101241ADDAY141031AY241031GA1081+001509069GF108991081061001501999999MD1810031+9999MW1101REMSYN076AAXX  24034 02584 41296 81802 10141 20136 40124 58003 71044 886// 333 88792;
0199025840999992000072406004+58400+019200FM-12+001299999V0202001N000510015019N0100001N1+01411+01311101211ADDAA199000091GA1081+001509069GF108991081061001501999999IA1099KA1120N+01371MD1810031+9999REMSYN082AAXX  24064 02584 32297 82001 10141 20131 40121 58003 886// 333 20137 31/// 88792;EQDQ01  00002PRCP99
0138025840999992000072409004+58400+019200FM-12+001299999V0209999V000510015019N0200001N1+01591+01361101201ADDGA1061+001509069GF106991061061001501001001MD1510011+9999REMSYN070AAXX  24094 02584 42298 69901 10159 20136 40120 55001 86600 333 86792;
0138025840999992000072412004+58400+019200FM-12+001299999V0203401N001510015019N0200001N1+01601+01391101131ADDGA1081+001509069GF108991081061001501999999MD1710071+9999REMSYN070AAXX  24124 02584 42298 83403 10160 20139 40113 57007 886// 333 88792;
0138025840999992000072415004+58400+019200FM-12+001299999V0203401N001510007519N0200001N1+01501+01401101081ADDGA1081+000759069GF108991081061000751999999MD1710051+9999REMSYN070AAXX  24154 02584 42198 83403 10150 20140 40108 57005 886// 333 88791;
0203025840999992000072418004+58400+019200FM-12+001299999V0203601N001510003019N0005001N1+01441+01381101001ADDAA199000091AY121061AY221061GA1091+999999999GF109991091999999999999999KA1999M+01681MD1710081+9999MW1471REMSYN070AAXX  24184 02584 31/93 93603 10144 20138 40100 57008 74722 333 10168;EQDQ01  00002PRCP99
0172025840999992000072421004+58400+019200FM-12+001299999V0203601N00101001501CN0040001N1+01461+01401100921ADDAY141031AY241031GA1051+001509069GF108991051061001501071999MD1710081+9999MW1101REMSYN082AAXX  24214 02584 41296 83602 10146 20140 40092 57008 71044 8567/ 333 85692 85399;
0172025840999992000072500004+58400+019200FM-12+001299999V0203201N00211012501CN0040001N1+01511+01431100801ADDAY141061AY241061GA1051+012509069GF108991051051012501071999MD1810121+9999MW1101REMSYN082AAXX  25004 02584 41696 83204 10151 20143 40080 58012 71044 8557/ 333 85696 84399;
0138025840999992000072503004+58400+019200FM-12+001299999V0203201N003619999999N0100001N1+01531+01421100641ADDGA1081+999999079GF108991081001999999071999MD1710161+9999REMSYN070AAXX  25034 02584 42997 83207 10153 20142 40064 57016 8807/ 333 88399;
0220025840999992000072506004+58400+019200FM-12+001299999V0203401N00461001501CN0100001N1+01521+01461100501ADDAA112000791AY121061AY221061GA1061+001509079GF108991061071001501021999IA1099KA1120N+01431MD1710141+9999MW1611REMSYN100AAXX  25064 02584 11297 83409 10152 20146 40050 57014 69902 76122 8672/ 333 20143 31/// 86792 88597;
0172025840999992000072509004+58400+019200FM-12+001299999V0203201N00411001501CN0040001N1+01521+01461100411ADDAY161031AY261031GA1061+001509079GF108991061071001501021999MD1610091+9999MW1631REMSYN082AAXX  25094 02584 41296 83208 10152 20146 40041 56009 76366 8672/ 333 86792 88596;
0172025840999992000072512004+58400+019200FM-12+001299999V0202901N00461001501CN0020001N1+01521+01461100291ADDAY161061AY261061GA1071+001509079GF108991071071000751021999MD1810121+9999MW1631REMSYN082AAXX  25124 02584 41195 82909 10152 20146 40029 58012 76366 8772/ 333 87792 88596;
0172025840999992000072515004+58400+019200FM-12+001299999V0203201N00411000751CN0020001N1+01531+01471100171ADDAY161031AY261031GA1071+000759079GF108991071071000751021999MD1710121+9999MW1511REMSYN082AAXX  25154 02584 41195 83208 10153 20147 40017 57012 75166 8772/ 333 87791 88596;
0208025840999992000072518004+58400+019200FM-12+001299999V0203401N00211001501CN0020001N1+01551+01491100161ADDAA112013091AY161061AY251061GA1071+001509079GF108991071071001501021999KA1120M+01561MD1610011+9999MW1631REMSYN094AAXX  25184 02584 11295 83404 10155 20149 40016 56001 60132 76365 8772/ 333 10156 87792 88599;
0191025840999992000072521004+58400+019200FM-12+001299999V0203601N00211001501CN0020001N1+01531+01471100191ADDAY161031AY261031GA1081+001509079GF108991999071001501021999MD1110031+9999MW1621REMSYN082AAXX  25214 02584 41295 83604 10153 20147 40019 51003 76266 8872/ 333 88792 88599;EQDQ01+000082SCOTLC
0191025840999992000072600004+58400+019200FM-12+001299999V0200201N00211001501CN0020001N1+01521+01461100211ADDAY161061AY261061GA1081+001509079GF108991999071001501021999MD1210021+9999MW1601REMSYN082AAXX  26004 02584 41295 80204 10152 20146 40021 52002 76066 8872/ 333 88792 88599;EQDQ01+000082SCOTLC
0166025840999992000072603004+58400+019200FM-12+001299999V0203601N002110015019N0100001N1+01511+01451100211ADDAY161031AY261031GA1081+001509069GF108991081061001501999999MD1410001+9999MW1021REMSYN076AAXX  26034 02584 41297 83604 10151 20145 40021 54000 70266 886// 333 88792;
0186025840999992000072606004+58400+019200FM-12+001299999V0200201N002110007519N0100001N1+01491+01431100291ADDAA112000591GA1081+000759069GF108991081061000751999999IA1099KA1120N+01491MD1210081+9999REMSYN088AAXX  26064 02584 12197 80204 10149 20143 40029 52008 69962 886// 333 20149 31/// 88791;
0172025840999992000072609004+58400+019200FM-12+001299999V0203601N00211000751CN0020001N1+01501+01441100401ADDAY121031AY221031GA1061+000759079GF108991061071000751021999MD1210111+9999MW1601REMSYN082AAXX  26094 02584 41195 83604 10150 20144 40040 52011 76022 8672/ 333 86791 88599;
0166025840999992000072612004+58400+019200FM-12+001299999V0203601N001510007519N0100001N1+01501+01441100521ADDAY161061AY261061GA1081+000759069GF108991081061000751999999MD1210121+9999MW1021REMSYN076AAXX  26124 02584 41197 83603 10150 20144 40052 52012 70266 886// 333 88791;
0138025840999992000072615004+58400+019200FM-12+001299999V0203601N002110015019N0100001N1+01501+01421100611ADDGA1081+001509069GF108991081061001501999999MD1210091+9999REMSYN070AAXX  26154 02584 42297 83604 10150 20142 40061 52009 886// 333 88792;
0202025840999992000072618004+58400+019200FM-12+001299999V0200201N001510015019N0040001N1+01461+01401100691ADDAA112000591AY161061AY251061GA1081+001509069GF108991081061001501999999KA1120M+01541MD1210091+9999MW1101REMSYN088AAXX  26184 02584 11296 80203 10146 20140 40069 52009 69962 71065 886// 333 10154 88792;
0166025840999992000072621004+58400+019200FM-12+001299999V0200201N001010007519N0010001N1+01441+01381100771ADDAY121031AY221031GA1081+000759069GF108991081061000751999999MD1210081+9999MW1511REMSYN076AAXX  26214 02584 41194 80202 10144 20138 40077 52008 75122 886// 333 88791;
0166025840999992000072700004+58400+019200FM-12+001299999V0203601N002110007519N0010001N1+01421+01361100801ADDAY151061AY251061GA1081+000759069GF108991081071000751999999MD1110031+9999MW1511REMSYN076AAXX  27004 02584 41194 83604 10142 20136 40080 51003 75155 887// 333 88791;
0166025840999992000072703004+58400+019200FM-12+001299999V0203601N002110007519N0040001N1+01421+01361100831ADDAY151031AY251031GA1081+000759069GF108991081071000751999999MD1210031+9999MW1611REMSYN076AAXX  27034 02584 41196 83604 10142 20136 40083 52003 76155 887// 333 88791;
0220025840999992000072706004+58400+019200FM-12+001299999V0203601N00211000751CN0040001N1+01441+01381100911ADDAA112002091AY151061AY251061GA1071+000759079GF108991071071000751021999IA1119KA1120N+01421MD1310081+9999MW1611REMSYN100AAXX  27064 02584 11196 83604 10144 20138 40091 53008 60022 76155 8772/ 333 20142 32/// 87791 88596;
0172025840999992000072709004+58400+019200FM-12+001299999V0200201N00261001501CN0040001N1+01451+01391101061ADDAY121031AY221031GA1061+001509079GF108991061071001501021999MD1210171+9999MW1601REMSYN082AAXX  27094 02584 41296 80205 10145 20139 40106 52017 76022 8672/ 333 86792 88599;
0172025840999992000072712004+58400+019200FM-12+001299999V0200201N00151001501CN0040001N1+01411+01331101151ADDAY161061AY221061GA1061+001509079GF108991061071001501021999MD1110091+9999MW1511REMSYN082AAXX  27124 02584 41296 80203 10141 20133 40115 51009 75162 8672/ 333 86792 88599;
0172025840999992000072715004+58400+019200FM-12+001299999V0203601N00261030001CN0040001N1+01471+01371101211ADDAY141031AY241031GA1031+001509079GF108991031071001501021999MD1210061+9999MW1101REMSYN082AAXX  27154 02584 41296 83605 10147 20137 40121 52006 71044 8372/ 333 83792 88598;
0202025840999992000072718004+58400+019200FM-12+001299999V0203601N001012200019N0100001N1+01421+01321101231ADDAA112004191AY141061AY241061GA1021+999999019GF102991001001999999001011KA1120M+01471MD1210021+9999MW1011REMSYN088AAXX  27184 02584 11997 23602 10142 20132 40123 52002 60042 70144 80001 333 10147 82099;
0138025840999992000072721004+58400+019200FM-12+001299999V0200201N001012200019N0100001N1+01281+01221101241ADDGA1011+008009059GF101991011051008001001001MD1110011+9999REMSYN070AAXX  27214 02584 42597 10202 10128 20122 40124 51001 81500 333 81695;
0122025840999992000072800004+58400+019200FM-12+001299999V0200201N001012200019N0100001N1+01281+01221101211ADDGA1001+999999999GF100991001001999999001001MD1710031+9999REMSYN054AAXX  28004 02584 42997 00202 10128 20122 40121 57003;
0150025840999992000072803004+58400+019200FM-12+001299999V0200201N000512200019N0040001N1+01051+01001101181ADDAY101031AY201031GA1001+999999999GF100991001001999999001001MD1710041+9999MW1101REMSYN060AAXX  28034 02584 41996 00201 10105 20100 40118 57004 71000;
0187025840999992000072806004+58400+019200FM-12+001299999V0203601N000512200019N0200001N1+01461+01261101181ADDAA199000091GA1001+999999999GF100991001001999999001001IA1099KA1120N+01051MD1410001+9999REMSYN070AAXX  28064 02584 32998 03601 10146 20126 40118 54000 333 20105 31///;EQDQ01  00002PRCP99
0122025840999992000072809004+58400+019200FM-12+001299999V0203601N000512200019N0500001N1+01681+01361101171ADDGA1001+999999999GF100991001001999999001001MD1710011+9999REMSYN054AAXX  28094 02584 42999 03601 10168 20136 40117 57001;
0122025840999992000072812004+58400+019200FM-12+001299999V0203401N001012200019N0500001N1+01721+01401101131ADDGA1001+999999999GF100991001001999999001001MD1710041+9999REMSYN054AAXX  28124 02584 42999 03402 10172 20140 40113 57004;
0122025840999992000072815004+58400+019200FM-12+001299999V0202901N001012200019N0500001N1+01751+01141101121ADDGA1001+999999999GF100991001001999999001001MD1710011+9999REMSYN054AAXX  28154 02584 42999 02902 10175 20114 40112 57001;
0187025840999992000072818004+58400+019200FM-12+001299999V0202901N001512200019N0200001N1+01621+01321101101ADDAA199000091GA1021+999999079GF103991031001999999031011KA1120M+01841MD1810021+9999REMSYN076AAXX  28184 02584 32998 32903 10162 20132 40110 58002 83031 333 10184 82399;EQDQ01  00002PRCP99
0138025840999992000072821004+58400+019200FM-12+001299999V0202901N000512200019N0200001N1+01511+01401101131ADDGA1041+999999079GF104991041001999999071001MD1310031+9999REMSYN070AAXX  28214 02584 42998 42901 10151 20140 40113 53003 84070 333 84399;
0157025840999992000072900004+58400+019200FM-12+001299999V0203201N001510225019N0100001N1+01441+01381101041ADDGA1051+022509079GF105991051999022501031001MD1810091+9999REMSYN070AAXX  29004 02584 42897 53203 10144 20138 40104 58009 85030 333 85398;EQDQ01+000002SCOLCG
0157025840999992000072903004+58400+019200FM-12+001299999V0203401N001010225019N0200001N1+01481+01211101031ADDGA1071+022509079GF107991071999022501031001MD1610011+9999REMSYN070AAXX  29034 02584 42898 73402 10148 20121 40103 56001 87030 333 87398;EQDQ01+000002SCOLCG
0220025840999992000072906004+58400+019200FM-12+001299999V0203401N00051030001CN0100001N1+01481+01331101031ADDAA112000591AY121061AY221061GA1041+012509099GF107991041031012501071001IA1099KA1120N+01341MD1410001+9999MW1251REMSYN100AAXX  29064 02584 11697 73401 10148 20133 40103 54000 69942 72522 84370 333 20134 31/// 84996 86398;
0172025840999992000072909004+58400+019200FM-12+001299999V0202701N00051008001CN0200001N1+01481+01281101051ADDAY181031AY281031GA1061+008009099GF108991061031008001071999MD1310021+9999MW1021REMSYN082AAXX  29094 02584 41598 82701 10148 20128 40105 53002 70288 8637/ 333 86995 86398;
0172025840999992000072912004+58400+019200FM-12+001299999V0202701N00051007501CN0200001N1+01521+01391101061ADDAY181061AY281061GA1031+008009099GF108991081031008001999999MD1210011+9999MW1021REMSYN082AAXX  29124 02584 41598 82701 10152 20139 40106 52001 70288 883// 333 83995 85695;
0138025840999992000072915004+58400+019200FM-12+001299999V0203601N001519999999N0200001N1+01621+01181101111ADDGA1031+008009099GF108991031031004501001001MD1310051+9999REMSYN070AAXX  29154 02584 42498 83603 10162 20118 40111 53005 83300 333 83995;
0221025840999992000072918004+58400+019200FM-12+001299999V0200501N000510225019N0200001N1+01531+01191101121ADDAA112000791AY111061AY211061GA1051+022509079GF105991051999022501071001KA1120M+01761MD1210011+9999MW1251REMSYN088AAXX  29184 02584 11898 50501 10153 20119 40112 52001 69902 72511 85070 333 10176 85398;EQDQ01+000002SCOLCG
0138025840999992000072921004+58400+019200FM-12+001299999V0203601N000510125019N0100001N1+01421+01291101161ADDGA1071+012509059GF107991071051012501999999MD1210041+9999REMSYN070AAXX  29214 02584 42697 73601 10142 20129 40116 52004 875// 333 87696;
0166025840999992000073000004+58400+019200FM-12+001299999V0202901N000510045019N0040001N1+01311+01251101121ADDAY121061AY221061GA1081+004509069GF108991081061004501999999MD1710041+9999MW1101REMSYN076AAXX  30004 02584 41496 82901 10131 20125 40112 57004 71022 886// 333 88794;
0138025840999992000073003004+58400+019200FM-12+001299999V0202901N000510080019N0100001N1+01411+01301101091ADDGA1081+008009059GF108991081051008001999999MD1710031+9999REMSYN070AAXX  30034 02584 42597 82901 10141 20130 40109 57003 885// 333 88695;
0220025840999992000073006004+58400+019200FM-12+001299999V0202701N00051007501CN0200001N1+01511+01311101121ADDAA112000791AY181061AY221061GA1011+008009099GF107991071031008001999999IA1099KA1120N+01311MD1210031+9999MW1021REMSYN100AAXX  30064 02584 11598 72701 10151 20131 40112 52003 69902 70282 873// 333 20131 31/// 81995 86695;
0122025840999992000073009004+58400+019200FM-12+001299999V0202701N001012200019N0200001N1+01801+01171101151ADDGA1001+999999999GF100991001001999999001001MD1210031+9999REMSYN054AAXX  30094 02584 42998 02702 10180 20117 40115 52003;
0122025840999992000073012004+58400+019200FM-12+001299999V0202301N001512200019N0200001N1+01841+01251101191ADDGA1001+999999999GF100991001001999999001001MD1210041+9999REMSYN054AAXX  30124 02584 42998 02303 10184 20125 40119 52004;
0122025840999992000073015004+58400+019200FM-12+001299999V0202001N002112200019N0200001N1+01831+01351101181ADDGA1001+999999999GF100991001001999999001001MD1710011+9999REMSYN054AAXX  30154 02584 42998 02004 10183 20135 40118 57001;
0187025840999992000073018004+58400+019200FM-12+001299999V0201601N002112200019N0200001N1+01701+01471101171ADDAA199000091GA1021+999999079GF102991021001999999081001KA1120M+01861MD1710011+9999REMSYN076AAXX  30184 02584 32998 21604 10170 20147 40117 57001 82080 333 10186 82399;EQDQ01  00002PRCP99
0122025840999992000073021004+58400+019200FM-12+001299999V0202001N002112200019N0200001N1+01521+01461101201ADDGA1001+999999999GF100991001001999999001001MD1310031+9999REMSYN054AAXX  30214 02584 42998 02004 10152 20146 40120 53003;
0138025840999992000073100004+58400+019200FM-12+001299999V0202001N002119999999N0200001N1+01611+01531101161ADDGA1071+999999079GF107991071001999999071001MD1810041+9999REMSYN070AAXX  31004 02584 42998 72004 10161 20153 40116 58004 87070 333 87399;
0138025840999992000073103004+58400+019200FM-12+001299999V0202701N001512200019N0200001N1+01501+01481101171ADDGA1031+999999019GF103991001001999999001011MD1310011+9999REMSYN070AAXX  31034 02584 42998 32703 10150 20148 40117 53001 80001 333 83099;
0199025840999992000073106004+58400+019200FM-12+001299999V0202701N002112200019N0200001N1+01681+01481101231ADDAA199000091GA1021+999999079GF103991021001999999071011IA1019KA1120N+01461MD1210061+9999REMSYN082AAXX  31064 02584 32998 32704 10168 20148 40123 52006 82071 333 20146 30/// 82399;EQDQ01  00002PRCP99
0138025840999992000073109004+58400+019200FM-12+001299999V0202301N002112200019N0200001N1+01851+01471101281ADDGA1011+999999019GF101991001001999999001011MD1210051+9999REMSYN070AAXX  31094 02584 42998 12304 10185 20147 40128 52005 80001 333 81099;
0122025840999992000073112004+58400+019200FM-12+001299999V0202301N002612200019N0200001N1+01911+01511101361ADDGA1001+999999999GF100991001001999999001001MD1210081+9999REMSYN054AAXX  31124 02584 42998 02305 10191 20151 40136 52008;
0122025840999992000073115004+58400+019200FM-12+001299999V0202301N003112200019N0200001N1+01901+01521101361ADDGA1001+999999999GF100991001001999999001001MD1410001+9999REMSYN054AAXX  31154 02584 42998 02306 10190 20152 40136 54000;
0175025840999992000073118004+58400+019200FM-12+001299999V0202301N002112200019N0200001N1+01741+01611101371ADDAA199000091GA1001+999999999GF100991001001999999001001KA1999M+01931MD1210011+9999REMSYN064AAXX  31184 02584 32998 02304 10174 20161 40137 52001 333 10193;EQDQ01  00002PRCP99
0138025840999992000073121004+58400+019200FM-12+001299999V0202301N000512200019N0100001N1+01531+01481101441ADDGA1011+999999019GF101991001001999999001011MD1110071+9999REMSYN070AAXX  31214 02584 42997 12301 10153 20148 40144 51007 80001 333 81099;
0166025840999992000080100004+58400+019200FM-12+001299999V0202001N001512200019N0040001N1+01531+01431101451ADDAY101061AY201061GA1031+999999079GF103991031001999999031001MD1210011+9999MW1101REMSYN076AAXX  01004 02584 41996 32003 10153 20143 40145 52001 71000 83030 333 83399;
0150025840999992000080103004+58400+019200FM-12+001299999V0202701N001012200019N0040001N1+01531+01471101441ADDAY101031AY201031GA1001+999999999GF100991001001999999001001MD1710011+9999MW1101REMSYN060AAXX  01034 02584 41996 02702 10153 20147 40144 57001 71000;
0199025840999992000080106004+58400+019200FM-12+001299999V0202901N001012200019N0200001N1+01681+01551101471ADDAA199000091GA1031+999999079GF103991031001999999031001IA1019KA1120N+01461MD1210031+9999REMSYN082AAXX  01064 02584 32998 32902 10168 20155 40147 52003 83030 333 20146 30/// 83399;EQDQ01  00002PRCP99
0122025840999992000080109004+58400+019200FM-12+001299999V0202701N000512200019N0200001N1+01881+01521101521ADDGA1001+999999999GF100991001001999999001001MD1210051+9999REMSYN054AAXX  01094 02584 42998 02701 10188 20152 40152 52005;
0122025840999992000080112004+58400+019200FM-12+001299999V0202501N001512200019N0200001N1+01891+01511101551ADDGA1001+999999999GF100991001001999999001001MD1210031+9999REMSYN054AAXX  01124 02584 42998 02503 10189 20151 40155 52003;
0138025840999992000080115004+58400+019200FM-12+001299999V0202301N001512200019N0200001N1+01831+01511101541ADDGA1011+999999019GF101991001001999999001011MD1710011+9999REMSYN070AAXX  01154 02584 42998 12303 10183 20151 40154 57001 80001 333 81099;
0187025840999992000080118004+58400+019200FM-12+001299999V0202001N001012200019N0200001N1+01711+01601101511ADDAA199000091GA1021+999999019GF102991001001999999001011KA1120M+01961MD1710031+9999REMSYN076AAXX  01184 02584 32998 22002 10171 20160 40151 57003 80001 333 10196 82099;EQDQ01  00002PRCP99
0138025840999992000080121004+58400+019200FM-12+001299999V0202301N001012200019N0100001N1+01561+01501101491ADDGA1011+999999019GF101991001001999999001011MD1710031+9999REMSYN070AAXX  01214 02584 42997 12302 10156 20150 40149 57003 80001 333 81099;
0166025840999992000080200004+58400+019200FM-12+001299999V0201601N001012200019N0040001N1+01511+01411101401ADDAY101061AY201061GA1031+999999019GF103991001001999999001011MD1810091+9999MW1101REMSYN076AAXX  02004 02584 41996 31602 10151 20141 40140 58009 71000 80001 333 83099;
0166025840999992000080203004+58400+019200FM-12+001299999V0201801N001010125019N0040001N1+01591+01511101271ADDAY101031AY201031GA1081+012509059GF108991081051012501999999MD1710131+9999MW1101REMSYN076AAXX  02034 02584 41696 81802 10159 20151 40127 57013 71000 885// 333 88696;
0220025840999992000080206004+58400+019200FM-12+001299999V0201601N00051000751CN0040001N1+01641+01581101211ADDAA112001091AY121061AY221061GA1061+000759079GF108991061071000751021999IA1119KA1120N+01361MD1610061+9999MW1631REMSYN100AAXX  02064 02584 11196 81601 10164 20158 40121 56006 60012 76322 8672/ 333 20136 32/// 86791 88597;
0172025840999992000080209004+58400+019200FM-12+001299999V0209999C00001001501CN0040001N1+01701+01601101211ADDAY161031AY261031GA1061+001509079GF108991081031001501999999MD1410001+9999MW1801REMSYN082AAXX  02094 02584 41296 80000 10170 20160 40121 54000 78066 883// 333 86792 85996;
0166025840999992000080212004+58400+019200FM-12+001299999V0202301N001512200019N0200001N1+01961+01561101201ADDAY181061AY261061GA1031+008009099GF104991031031008001001001MD1810011+9999MW1011REMSYN076AAXX  02124 02584 41598 42303 10196 20156 40120 58001 70186 83300 333 83995;
0138025840999992000080215004+58400+019200FM-12+001299999V0202301N001010080019N0200001N1+01741+01531101201ADDGA1061+008009099GF106991061031008001001001MD1410001+9999REMSYN070AAXX  02154 02584 42598 62302 10174 20153 40120 54000 86300 333 86995;
0174025840999992000080218004+58400+019200FM-12+001299999V0202501N000512200019N0200001N1+01741+01491101151ADDAA112003091GA1021+008009099GF105991041031008001001011KA1120M+02021MD1810051+9999REMSYN082AAXX  02184 02584 12598 52501 10174 20149 40115 58005 60032 84301 333 10202 82995;
0157025840999992000080221004+58400+019200FM-12+001299999V0202701N000512200019N0100001N1+01371+01311101101ADDGA1031+022509059GF103991031051999999999001MD1710051+9999REMSYN070AAXX  02214 02584 42997 32701 10137 20131 40110 57005 83500 333 83698;EQDQ01+000002SCOMCG
0172025840999992000080300004+58400+019200FM-12+001299999V0209999C000012200019N0040001N1+01361+01311101001ADDAY121061AY211061GA1011+002509079GF104991041051002501001001MD1710101+9999MW1101REMSYN082AAXX  03004 02584 41396 40000 10136 20131 40100 57010 71021 84500 333 81793 83697;
0172025840999992000080303004+58400+019200FM-12+001299999V0209999C000012200019N0040001N1+01391+01341100921ADDAY121031AY221031GA1011+004509079GF104991041051004501001001MD1710081+9999MW1101REMSYN082AAXX  03034 02584 41496 40000 10139 20134 40092 57008 71022 84500 333 81794 83695;
0233025840999992000080306004+58400+019200FM-12+001299999V0209999V000510300019N0040001N1+01701+01591100881ADDAA199000091AY121061AY221061GA1011+008009099GF105991041031004501031001IA1019KA1120N+01321MD1710041+9999MW1101REMSYN094AAXX  03064 02584 31496 59901 10170 20159 40088 57004 71022 84330 333 20132 30/// 81995 82794;EQDQ01  00002PRCP99
0172025840999992000080309004+58400+019200FM-12+001299999V0209999C00001030001CN0040001N1+01801+01651100961ADDAY121031AY221031GA1041+004509099GF108991041031004501021999MD1310081+9999MW1251REMSYN082AAXX  03094 02584 41496 80000 10180 20165 40096 53008 72522 8432/ 333 84994 88599;
0194025840999992000080312004+58400+019200FM-12+001299999V0203601N00101030001CN0040001N1+01701+01591101061ADDAY181061AY221061GA1031+001509079GA2011+004509099GF108991041031001501021999MD1210101+9999MW1251REMSYN088AAXX  03124 02584 41296 83602 10170 20159 40106 52010 72582 8432/ 333 83792 81994 88599;
0172025840999992000080315004+58400+019200FM-12+001299999V0203601N00051030001CN0040001N1+01621+01541101441ADDAY181031AY221031GA1041+002509079GF108991041071002501021999MD1110081+9999MW1611REMSYN082AAXX  03154 02584 41396 83601 10162 20154 40144 51008 76182 8472/ 333 84793 88599;
0208025840999992000080318004+58400+019200FM-12+001299999V0202701N00051004201CN0040001N1+01561+01481101231ADDAA112003091AY181061AY261061GA1031+004509089GF108991081021004501999999KA1120M+01861MD1210091+9999MW1511REMSYN094AAXX  03184 02584 11496 82701 10156 20148 40123 52009 60032 75186 882// 333 10186 83894 88696;
0166025840999992000080321004+58400+019200FM-12+001299999V0202701N001010045019N0040001N1+01481+01401101321ADDAY181031AY251031GA1081+004509059GF108991081051004501999999MD1210091+9999MW1101REMSYN076AAXX  03214 02584 41496 82702 10148 20140 40132 52009 71085 885// 333 88694;
0166025840999992000080400004+58400+019200FM-12+001299999V0202501N001010045019N0040001N1+01501+01421101361ADDAY181061AY251061GA1081+004509059GF108991081051004501999999MD1110041+9999MW1101REMSYN076AAXX  04004 02584 41496 82502 10150 20142 40136 51004 71085 885// 333 88694;
0166025840999992000080403004+58400+019200FM-12+001299999V0202701N001510045019N0040001N1+01381+01301101391ADDAY121031AY221031GA1051+004509069GF105991051061004501001001MD1210031+9999MW1101REMSYN076AAXX  04034 02584 41496 52703 10138 20130 40139 52003 71022 85600 333 85794;
0186025840999992000080406004+58400+019200FM-12+001299999V0202701N001012200019N0100001N1+01561+01401101451ADDAA112000591GA1031+012509029GF103991031011012501001001IA1099KA1120N+01351MD1210061+9999REMSYN088AAXX  04064 02584 12697 32702 10156 20140 40145 52006 69952 83100 333 20135 31/// 83896;
0138025840999992000080409004+58400+019200FM-12+001299999V0209999C000012200019N0200001N1+01821+01301101551ADDGA1031+012509029GF103991031011012501001001MD1210101+9999REMSYN070AAXX  04094 02584 42698 30000 10182 20130 40155 52010 83100 333 83896;
0138025840999992000080412004+58400+019200FM-12+001299999V0202901N001012200019N0200001N1+01901+01251101591ADDGA1031+012509029GF103991031011012501001001MD1110041+9999REMSYN070AAXX  04124 02584 42698 32902 10190 20125 40159 51004 83100 333 83896;
0157025840999992000080415004+58400+019200FM-12+001299999V0202001N001012200019N0200001N1+01821+01191101541ADDGA1021+999999019GF102991001001999999001011MD1010051+9999REMSYN070AAXX  04154 02584 42998 22002 10182 20119 40154 50005 82001 333 82099;EQDQ01+000022SCOTLC
0187025840999992000080418004+58400+019200FM-12+001299999V0202001N001512200019N0200001N1+01741+01361101561ADDAA199000091GA1021+999999079GF103991021001999999031011KA1120M+01951MD1310021+9999REMSYN076AAXX  04184 02584 32998 32003 10174 20136 40156 53002 82031 333 10195 82399;EQDQ01  00002PRCP99
0138025840999992000080421004+58400+019200FM-12+001299999V0201801N001012200019N0100001N1+01421+01311101561ADDGA1021+999999079GF103991021001999999031011MD1410001+9999REMSYN070AAXX  04214 02584 42997 31802 10142 20131 40156 54000 82031 333 82399;
0169025840999992000080500004+58400+019200FM-12+001299999V0201801N001512200019N0040001N1+01641+01561999999ADDAY101061AY201061GA1001+999999999GF100991001001999999001001MD1210011+9999MW1101REMSYN060AAXX  05004 02584 41996 01803 10164 20156 40017 52001 71000;EQDQ01+100173APOSLP
0166025840999992000080503004+58400+019200FM-12+001299999V0202001N001512200019N0040001N1+01581+01531101541ADDAY101031AY201031GA1011+999999079GF101991011001999999031001MD1710031+9999MW1101REMSYN076AAXX  05034 02584 41996 12003 10158 20153 40154 57003 71000 81030 333 81399;
0199025840999992000080506004+58400+019200FM-12+001299999V0202701N001512200019N0100001N1+01691+01491101601ADDAA199000091GA1031+004509069GF103991031061004501001001IA1019KA1120N+01421MD1210061+9999REMSYN082AAXX  05064 02584 32497 32703 10169 20149 40160 52006 83600 333 20142 30/// 83794;EQDQ01  00002PRCP99
0122025840999992000080509004+58400+019200FM-12+001299999V0202301N002112200019N0200001N1+01861+01271101701ADDGA1001+999999999GF100991001001999999001001MD1210101+9999REMSYN054AAXX  05094 02584 42998 02304 10186 20127 40170 52010;
0138025840999992000080512004+58400+019200FM-12+001299999V0202301N003110080019N0200001N1+01801+01131101751ADDGA1051+008009029GF105991051021008001001011MD1210051+9999REMSYN070AAXX  05124 02584 42598 52306 10180 20113 40175 52005 85201 333 85895;
0138025840999992000080515004+58400+019200FM-12+001299999V0202301N003110045019N0200001N1+01731+01231101711ADDGA1071+004509029GF107991071021004501999999MD1810041+9999REMSYN070AAXX  05154 02584 42498 72306 10173 20123 40171 58004 872// 333 87894;
0187025840999992000080518004+58400+019200FM-12+001299999V0202001N002612200019N0200001N1+01701+01301101631ADDAA199000091GA1031+999999019GF103991001001999999001011KA1120M+01881MD1810081+9999REMSYN076AAXX  05184 02584 32998 32005 10170 20130 40163 58008 80001 333 10188 83099;EQDQ01  00002PRCP99
0138025840999992000080521004+58400+019200FM-12+001299999V0201801N002610125019N0200001N1+01741+01611101621ADDGA1081+012509059GF108991081051012501999999MD1610011+9999REMSYN070AAXX  05214 02584 42698 81805 10174 20161 40162 56001 885// 333 88696;
0150025840999992000080600004+58400+019200FM-12+001299999V0202301N002112200019N0040001N1+01681+01571101571ADDAY121061AY211061GA1001+999999999GF100991001001999999001001MD1710051+9999MW1101REMSYN060AAXX  06004 02584 41996 02304 10168 20157 40157 57005 71021;
0166025840999992000080603004+58400+019200FM-12+001299999V0202001N003110175019N0040001N1+01681+01581101451ADDAY121031AY201031GA1081+017509059GF108991081051017501999999MD1710091+9999MW1101REMSYN076AAXX  06034 02584 41796 82006 10168 20158 40145 57009 71020 885// 333 88697;
0199025840999992000080606004+58400+019200FM-12+001299999V0202301N002610080019N0100001N1+01681+01481101451ADDAA199000091GA1081+008009059GF108991081051008001999999IA1019KA1120N+01651MD1610031+9999REMSYN082AAXX  06064 02584 32597 82305 10168 20148 40145 56003 885// 333 20165 30/// 88695;EQDQ01  00002PRCP99
0138025840999992000080609004+58400+019200FM-12+001299999V0202301N003110080019N0200001N1+01741+01261101371ADDGA1081+008009059GF108991081051008001999999MD1810081+9999REMSYN070AAXX  06094 02584 42598 82306 10174 20126 40137 58008 885// 333 88695;
0144025840999992000080612004+58400+019200FM-12+001299999V0202001N00411030001CN0200001N1+01761+01031101241ADDGA1031+008009089GF106991031021008001031001MD1710131+9999REMSYN076AAXX  06124 02584 42598 62008 10176 20103 40124 57013 83230 333 83895 83399;
0122025840999992000080615004+58400+019200FM-12+001299999V0202001N004112200019N0200001N1+01801+01321101061ADDGA1001+999999999GF100991001001999999001001MD1710181+9999REMSYN054AAXX  06154 02584 42998 02008 10180 20132 40106 57018;
0187025840999992000080618004+58400+019200FM-12+001299999V0202001N004119999999N0200001N1+01831+01531100811ADDAA199000091GA1061+999999099GF106991001001999999001091KA1120M+01851MD1710251+9999REMSYN076AAXX  06184 02584 32998 62008 10183 20153 40081 57025 80009 333 10185 86199;EQDQ01  00002PRCP99
0138025840999992000080621004+58400+019200FM-12+001299999V0202001N004110125019N0200001N1+01761+01521100751ADDGA1061+012509059GF106991061051012501001001MD1710061+9999REMSYN070AAXX  06214 02584 42698 62008 10176 20152 40075 57006 86500 333 86696;
0166025840999992000080700004+58400+019200FM-12+001299999V0202001N005112200019N0040001N1+01671+01611100651ADDAY121061AY221061GA1041+012509059GF104991041051012501001001MD1710101+9999MW1101REMSYN076AAXX  07004 02584 41696 42010 10167 20161 40065 57010 71022 84500 333 84696;
0199025840999992000080706004+58400+019200FM-12+001299999V0202901N001012200019N0200001N1+01581+01311100681ADDAA199000091GA1011+012509089GF102991011021012501001091IA1019KA1120N+01521MD1310041+9999REMSYN082AAXX  07064 02584 32698 22902 10158 20131 40068 53004 81209 333 20152 30/// 81296;EQDQ01  00002PRCP99
0128025840999992000080709004+58400+019200FM-12+001299999V0202701N001012200019N0500001N1+01761+00871100721ADDGA1001+999999999GF100991001001999999001001MD1210041+9999REMSYN060AAXX  07094 02584 42999 02702 10176 20087 40072 52004 81209;
0138025840999992000080712004+58400+019200FM-12+001299999V0201801N003112200019N0200001N1+01821+01171100651ADDGA1021+004509029GF102991021021004501001001MD1710071+9999REMSYN070AAXX  07124 02584 42498 21806 10182 20117 40065 57007 82200 333 82894;
0138025840999992000080715004+58400+019200FM-12+001299999V0201801N003112200019N0200001N1+01841+00981100561ADDGA1011+999999019GF101991001001999999001011MD1710091+9999REMSYN070AAXX  07154 02584 42998 11806 10184 20098 40056 57009 80001 333 81099;
0175025840999992000080718004+58400+019200FM-12+001299999V0202301N003112200019N0200001N1+01661+00751100491ADDAA199000091GA1001+999999999GF100991001001999999001001KA1999M+01851MD1710071+9999REMSYN064AAXX  07184 02584 32998 02306 10166 20075 40049 57007 333 10185;EQDQ01  00002PRCP99
0138025840999992000080721004+58400+019200FM-12+001299999V0202301N002110175019N0200001N1+01601+01061100491ADDGA1081+017509059GF108991081051017501999999MD1510001+9999REMSYN070AAXX  07214 02584 42798 82304 10160 20106 40049 55000 885// 333 88697;
0122025840999992000080800004+58400+019200FM-12+001299999V0202501N004112200019N0200001N1+01541+00891100491ADDGA1001+999999999GF100991001001999999001001MD1410001+9999REMSYN054AAXX  08004 02584 42998 02508 10154 20089 40049 54000;
0138025840999992000080803004+58400+019200FM-12+001299999V0202501N003619999999N0200001N1+01461+01191100491ADDGA1061+999999099GF106991001001999999001091MD1410001+9999REMSYN070AAXX  08034 02584 42998 62507 10146 20119 40049 54000 80009 333 86199;
0187025840999992000080806004+58400+019200FM-12+001299999V0202501N002612200019N0200001N1+01521+01271100521ADDAA199000091GA1001+999999999GF100991001001999999001001IA1019KA1120N+01451MD1310031+9999REMSYN070AAXX  08064 02584 32998 02505 10152 20127 40052 53003 333 20145 30///;EQDQ01  00002PRCP99
0122025840999992000080809004+58400+019200FM-12+001299999V0202301N003112200019N0200001N1+01761+01251100631ADDGA1001+999999999GF100991001001999999001001MD1310111+9999REMSYN054AAXX  08094 02584 42998 02306 10176 20125 40063 53011;
0112025840999992000080812004+58400+019200FM-12+001299999V0202301N003619999999N0200001N1+01761+00871100701ADDGF105991051011999999091091MD1210071+9999REMSYN060AAXX  08124 02584 42998 52307 10176 20087 40070 52007 85199;
0138025840999992000080815004+58400+019200FM-12+001299999V0202501N002619999999N0200001N1+01831+00861100711ADDGA1051+999999089GF105991001001999999001061MD1210011+9999REMSYN070AAXX  08154 02584 42998 52505 10183 20086 40071 52001 80006 333 85299;
0187025840999992000080818004+58400+019200FM-12+001299999V0202701N004119999999N0200001N1+01571+00771100771ADDAA199000091GA1051+999999079GF106991051001999999071011KA1120M+01921MD1110061+9999REMSYN076AAXX  08184 02584 32998 62708 10157 20077 40077 51006 85071 333 10192 85399;EQDQ01  00002PRCP99
0138025840999992000080821004+58400+019200FM-12+001299999V0202501N00361021001CN0200001N1+01541+00701100811ADDGA1051+999999079GF106991061001022501071011MD1110041+9999REMSYN070AAXX  08214 02584 42898 62507 10154 20070 40081 51004 86071 333 85399;
0157025840999992000080900004+58400+019200FM-12+001299999V0202701N003610125019N0200001N1+01561+00811100841ADDGA1081+012509059GF108991081051012501999999MD1310031+9999REMSYN070AAXX  09004 02584 42698 82707 10156 20081 40084 53000 885// 333 88696;EQDQ01+000002APC3  
0138025840999992000080903004+58400+019200FM-12+001299999V0202901N002612200019N0200001N1+01411+00781100901ADDGA1011+999999019GF101991001001999999001011MD1210061+9999REMSYN070AAXX  09034 02584 42998 12905 10141 20078 40090 52006 80001 333 81099;
0199025840999992000080906004+58400+019200FM-12+001299999V0202701N002112200019N0200001N1+01481+00871100991ADDAA199000091GA1011+999999019GF101991001001999999001011IA1019KA1120N+01411MD1310091+9999REMSYN082AAXX  09064 02584 32998 12704 10148 20087 40099 53009 80001 333 20141 30/// 81099;EQDQ01  00002PRCP99
0138025840999992000080909004+58400+019200FM-12+001299999V0202701N001512200019N0200001N1+01691+00921101121ADDGA1011+999999019GF101991001001999999001011MD1310131+9999REMSYN070AAXX  09094 02584 42998 12703 10169 20092 40112 53013 80001 333 81099;
0138025840999992000080912004+58400+019200FM-12+001299999V0202701N002112200019N0200001N1+01821+01031101251ADDGA1011+999999019GF101991001001999999001011MD1210131+9999REMSYN070AAXX  09124 02584 42998 12704 10182 20103 40125 52013 80001 333 81099;
0122025840999992000080915004+58400+019200FM-12+001299999V0202701N002612200019N0200001N1+01761+01111101271ADDGA1001+999999999GF100991001001999999001001MD1210021+9999REMSYN054AAXX  09154 02584 42998 02705 10176 20111 40127 52002;
0145025840999992000080918004+58400+019200FM-12+001299999V0202301N002612200019N0200001N1+01641+01371101261ADDGA1001+999999999GF100991001001999999001001KA1999M+01821MD1810011+9999REMSYN064AAXX  09184 02584 42998 02305 10164 20137 40126 58001 333 10182;
0138025840999992000080921004+58400+019200FM-12+001299999V0202001N003112200019N0200001N1+01621+01421101281ADDGA1031+999999099GF103991001001999999001091MD1310021+9999REMSYN070AAXX  09214 02584 42998 32006 10162 20142 40128 53002 80009 333 83199;
0122025840999992000081000004+58400+019200FM-12+001299999V0202501N002112200019N0100001N1+01541+01381101281ADDGA1001+999999999GF100991001001999999001001MD1010001+9999REMSYN054AAXX  10004 02584 42997 02504 10154 20138 40128 50000;
0138025840999992000081003004+58400+019200FM-12+001299999V0202501N002112200019N0100001N1+01541+01271101251ADDGA1031+999999099GF103991001001999999001091MD1810031+9999REMSYN070AAXX  10034 02584 42997 32504 10154 20127 40125 58003 80009 333 83199;
0199025840999992000081006004+58400+019200FM-12+001299999V0202901N001012200019N0200001N1+01641+01301101261ADDAA199000091GA1031+999999079GF103991031001999999051001IA1019KA1120N+01481MD1310011+9999REMSYN082AAXX  10064 02584 32998 32902 10164 20130 40126 53001 83050 333 20148 30/// 83399;EQDQ01  00002PRCP99
0157025840999992000081009004+58400+019200FM-12+001299999V0202301N001010225019N0200001N1+01661+01321101331ADDGA1071+022509079GF107991071999022501071999MD1210071+9999REMSYN070AAXX  10094 02584 42898 72302 10166 20132 40133 52007 8707/ 333 87398;EQDQ01+000002SCOLCG
0122025840999992000081012004+58400+019200FM-12+001299999V0202301N002112200019N0200001N1+01761+01241101361ADDGA1001+999999999GF100991001001999999001001MD1310031+9999REMSYN054AAXX  10124 02584 42998 02304 10176 20124 40136 53003;
0138025840999992000081015004+58400+019200FM-12+001299999V0202301N002112200019N0200001N1+01721+01071101321ADDGA1031+999999019GF103991001001999999001011MD1810041+9999REMSYN070AAXX  10154 02584 42998 32304 10172 20107 40132 58004 80001 333 83099;
0138025840999992000081021004+58400+019200FM-12+001299999V0201801N001019999999N0200001N1+01371+01221101211ADDGA1051+999999089GF105991001001999999001051MD1710021+9999REMSYN070AAXX  10214 02584 42998 51802 10137 20122 40121 57002 80005 333 85299;
0150025840999992000081100004+58400+019200FM-12+001299999V0201801N001512200019N0040001N1+01251+01201101131ADDAY121061AY221061GA1001+999999999GF100991001001999999001001MD1710081+9999MW1101REMSYN060AAXX  11004 02584 41996 01803 10125 20120 40113 57008 71022;
0166025840999992000081103004+58400+019200FM-12+001299999V0201101N001012200019N0040001N1+01211+01161101071ADDAY101031AY201031GA1041+999999019GF104991001001999999001011MD1710061+9999MW1101REMSYN076AAXX  11034 02584 41996 41102 10121 20116 40107 57006 71000 80001 333 84099;
0199025840999992000081106004+58400+019200FM-12+001299999V0201401N000519999999N0200001N1+01681+01471101011ADDAA199000091GA1011+012509059GF106991011051999999071001IA1019KA1120N+01161MD1710061+9999REMSYN082AAXX  11064 02584 32998 61401 10168 20147 40101 57006 81570 333 20116 30/// 81696;EQDQ01  00002PRCP99
0138025840999992000081109004+58400+019200FM-12+001299999V0201601N001019999999N0200001N1+01801+01361101041ADDGA1061+999999089GF106991001001999999001061MD1310031+9999REMSYN070AAXX  11094 02584 42998 61602 10180 20136 40104 53003 80006 333 86299;
0138025840999992000081112004+58400+019200FM-12+001299999V0201801N002119999999N0200001N1+01961+01351101011ADDGA1061+999999089GF106991001001999999001061MD1710031+9999REMSYN070AAXX  11124 02584 42998 61804 10196 20135 40101 57003 80006 333 86299;
0138025840999992000081115004+58400+019200FM-12+001299999V0201101N00101075001CN0200001N1+01981+01251100951ADDGA1051+999999019GF105991001001999999001021MD1610061+9999REMSYN070AAXX  11154 02584 42998 51102 10198 20125 40095 56006 80002 333 85099;
0187025840999992000081118004+58400+019200FM-12+001299999V0201101N00101075001CN0200001N1+01681+01381100921ADDAA199000091GA1051+999999019GF105991001001999999001021KA1120M+02051MD1710031+9999REMSYN076AAXX  11184 02584 32998 51102 10168 20138 40092 57003 80002 333 10205 85099;EQDQ01  00002PRCP99
0166025840999992000081121004+58400+019200FM-12+001299999V0201101N001019999999N0040001N1+01661+01581100881ADDAY121031AY221031GA1081+999999089GF108991001001999999001071MD1710041+9999MW1101REMSYN076AAXX  11214 02584 41996 81102 10166 20158 40088 57004 71022 80007 333 88299;
0185025840999992000081200004+58400+019200FM-12+001299999V0201601N001010225019N0040001N1+01621+01541100831ADDAY121061AY221061GA1081+022509079GF108991081999022501071999MD1710051+9999MW1101REMSYN076AAXX  12004 02584 41896 81602 10162 20154 40083 57005 71022 8807/ 333 88398;EQDQ01+000002SCOLCG
0166025840999992000081203004+58400+019200FM-12+001299999V0201601N001010175019N0020001N1+01601+01541100801ADDAY121031AY221031GA1081+017509059GF108991081051017501999999MD1710031+9999MW1101REMSYN076AAXX  12034 02584 41795 81602 10160 20154 40080 57003 71022 885// 333 88697;
0227025840999992000081206004+58400+019200FM-12+001299999V0202301N001010125019N0040001N1+01681+01581100831ADDAA199000091AY121061AY221061GA1081+012509059GF108991081051012501999999IA1019KA1120N+01501MD1310031+9999MW1101REMSYN088AAXX  12064 02584 31696 82302 10168 20158 40083 53003 71022 885// 333 20150 30/// 88696;EQDQ01  00002PRCP99
0138025840999992000081209004+58400+019200FM-12+001299999V0202001N001510025019N0100001N1+01761+01631100861ADDGA1081+002509069GF108991081061012501999999MD1210031+9999REMSYN070AAXX  12094 02584 42697 82003 10176 20163 40086 52003 886// 333 88793;
0138025840999992000081212004+58400+019200FM-12+001299999V0202301N001010080019N0100001N1+01841+01481100941ADDGA1081+008009059GF108991081051008001999999MD1310081+9999REMSYN070AAXX  12124 02584 42597 82302 10184 20148 40094 53008 885// 333 88695;
0157025840999992000081215004+58400+019200FM-12+001299999V0202301N002119999999N0200001N1+01841+01521101021ADDGA1081+999999079GF199999051001999999051001MD1210081+9999REMSYN070AAXX  12154 02584 42998 52304 10184 20152 40102 52008 85050 333 88399;EQDQ01+000052SCOTCV
0187025840999992000081218004+58400+019200FM-12+001299999V0202001N001519999999N0100001N1+01721+01611101101ADDAA199000091GA1051+999999079GF105991051001999999031001KA1120M+01921MD1210081+9999REMSYN076AAXX  12184 02584 32997 52003 10172 20161 40110 52008 85030 333 10192 85399;EQDQ01  00002PRCP99
0166025840999992000081221004+58400+019200FM-12+001299999V0200501N001510025019N0040001N1+01621+01521101251ADDAY121031AY221031GA1081+002509069GF108991081061002501999999MD1210151+9999MW1101REMSYN076AAXX  12214 02584 41396 80503 10162 20152 40125 52015 71022 886// 333 88793;
0166025840999992000081300004+58400+019200FM-12+001299999V0200201N001010175019N0040001N1+01511+01461101361ADDAY121061AY221061GA1081+017509059GF108991081051017501999999MD1210111+9999MW1101REMSYN076AAXX  13004 02584 41796 80202 10151 20146 40136 52011 71022 885// 333 88697;
0150025840999992000081303004+58400+019200FM-12+001299999V0209999C000012200019N0040001N1+01191+01131101451ADDAY101031AY201031GA1001+999999999GF100991001001999999001001MD1210091+9999MW1101REMSYN060AAXX  13034 02584 41996 00000 10119 20113 40145 52009 71000;
0220025840999992000081306004+58400+019200FM-12+001299999V0203201N00151012001CN0200001N1+01641+01351101601ADDAA112000591AY121061AY201061GA1011+012509099GF106991051031012501031001IA1099KA1120N+01111MD1210151+9999MW1251REMSYN100AAXX  13064 02584 11698 63203 10164 20135 40160 52015 69942 72520 85330 333 20111 31/// 81996 85696;
0144025840999992000081309004+58400+019200FM-12+001299999V0203201N00211004201CN0200001N1+01731+01411101761ADDGA1021+004509099GF107991071031004501999999MD1210161+9999REMSYN076AAXX  13094 02584 42498 73204 10173 20141 40176 52016 873// 333 82994 85697;
0138025840999992000081312004+58400+019200FM-12+001299999V0203201N001012200019N0200001N1+01821+01301101931ADDGA1041+012509059GF104991041051012501001001MD1210171+9999REMSYN070AAXX  13124 02584 42698 43202 10182 20130 40193 52017 84500 333 84696;
0138025840999992000081315004+58400+019200FM-12+001299999V0202701N001010125019N0200001N1+01801+01261102021ADDGA1081+012509059GF108991081051012501999999MD1210091+9999REMSYN070AAXX  13154 02584 42698 82702 10180 20126 40202 52009 885// 333 88696;
0174025840999992000081318004+58400+019200FM-12+001299999V0203601N00101075001CN0200001N1+01581+01331102081ADDAA199000021GA1031+008009089GF108991031021008001001081KA1120M+01901MD1110061+9999REMSYN082AAXX  13184 02584 32598 83602 10158 20133 40208 51006 83208 333 10190 83895 85299;
0122025840999992000081321004+58400+019200FM-12+001299999V0203601N000512200019N0100001N1+01181+01021102151ADDGA1001+999999999GF100991001001999999001001MD1210071+9999REMSYN054AAXX  13214 02584 42997 03601 10118 20102 40215 52007;
0138025840999992000081400004+58400+019200FM-12+001299999V0209999C000010080019N0100001N1+01321+01191102241ADDGA1081+008009059GF108991081051008001999999MD1210091+9999REMSYN070AAXX  14004 02584 42597 80000 10132 20119 40224 52009 885// 333 88695;
0166025840999992000081403004+58400+019200FM-12+001299999V0209999C000010080019N0040001N1+01401+01321102241ADDAY121031AY221031GA1081+008009059GF108991081051008001999999MD1010001+9999MW1101REMSYN076AAXX  14034 02584 41596 80000 10140 20132 40224 50000 71022 885// 333 88695;
0199025840999992000081406004+58400+019200FM-12+001299999V0200901N001010125019N0200001N1+01621+01371102251ADDAA199000091GA1071+012509059GF107991071051012501999999IA1019KA1120N+01151MD1310011+9999REMSYN082AAXX  14064 02584 32698 70902 10162 20137 40225 53001 875// 333 20115 30/// 87696;EQDQ01  00002PRCP99
0138025840999992000081409004+58400+019200FM-12+001299999V0201801N001512200019N0200001N1+01861+01341102271ADDGA1031+008009029GF103991031021008001001001MD1210021+9999REMSYN070AAXX  14094 02584 42598 31803 10186 20134 40227 52002 83200 333 83895;
0144025840999992000081412004+58400+019200FM-12+001299999V0202001N00211220001CN0200001N1+01981+01301102271ADDGA1021+008009089GF105991021021008001001011MD1010001+9999REMSYN076AAXX  14124 02584 42598 52004 10198 20130 40227 50000 82201 333 82895 83099;
0138025840999992000081415004+58400+019200FM-12+001299999V0201801N002112200019N0200001N1+01961+01281102161ADDGA1031+008009029GF103991031021008001001001MD1810111+9999REMSYN070AAXX  14154 02584 42598 31804 10196 20128 40216 58011 83200 333 83895;
0122025840999992000081421004+58400+019200FM-12+001299999V0201801N002612200019N0200001N1+01691+01421101921ADDGA1001+999999999GF100991001001999999001001MD1710051+9999REMSYN054AAXX  14214 02584 42998 01805 10169 20142 40192 57005;
0122025840999992000081500004+58400+019200FM-12+001299999V0201601N002612200019N0200001N1+01611+01431101891ADDGA1001+999999999GF100991001001999999001001MD1710081+9999REMSYN054AAXX  15004 02584 42998 01605 10161 20143 40189 57008;
0122025840999992000081503004+58400+019200FM-12+001299999V0201601N002612200019N0200001N1+01591+01511101771ADDGA1001+999999999GF100991001001999999001001MD1710121+9999REMSYN054AAXX  15034 02584 42998 01605 10159 20151 40177 57012;
0214025840999992000081506004+58400+019200FM-12+001299999V0201601N002619999999N0200001N1+01661+01561101611ADDAA112000791AY181061AY201061GA1061+999999079GF106991061001999999071001IA1099KA1120N+01591MD1710161+9999MW1031REMSYN094AAXX  15064 02584 11998 61605 10166 20156 40161 57016 69902 70380 86070 333 20159 31/// 86399;
0112025840999992000081509004+58400+019200FM-12+001299999V0201601N002119999999N0200001N1+01871+01681101521ADDGF107991071031999999091091MD1810091+9999REMSYN060AAXX  15094 02584 42998 71604 10187 20168 40152 58009 87399;
0172025840999992000081512004+58400+019200FM-12+001299999V0201601N002119999999N0200001N1+01821+01721101331ADDAY121061AY221061GA1041+022509069GF108991041051999999021001MD1710191+9999MW1211REMSYN082AAXX  15124 02584 41998 81604 10182 20172 40133 57019 72122 84520 333 84698 88599;
0138025840999992000081515004+58400+019200FM-12+001299999V0201801N002612200019N0200001N1+02001+01641101071ADDGA1011+008009029GF102991011021999999001011MD1710261+9999REMSYN070AAXX  15154 02584 42998 21805 10200 20164 40107 57026 81201 333 81895;
0174025840999992000081518004+58400+019200FM-12+001299999V0202001N002112200019N0100001N1+01821+01691101021ADDAA112000791GA1041+999999099GF104991001001999999001091KA1120M+02061MD1610051+9999REMSYN082AAXX  15184 02584 12997 42004 10182 20169 40102 56005 69902 80009 333 10206 84199;
0166025840999992000081521004+58400+019200FM-12+001299999V0201801N00211075001CN0040001N1+01761+01681100961ADDAY111031AY211031GA1051+999999019GF105991001001999999001011MD1810061+9999MW1101REMSYN076AAXX  15214 02584 41996 51804 10176 20168 40096 58006 71011 80001 333 85099;
0166025840999992000081600004+58400+019200FM-12+001299999V0202301N002112200019N0040001N1+01761+01661100971ADDAY111061AY211061GA1031+999999019GF103991001001999999001011MD1310011+9999MW1101REMSYN076AAXX  16004 02584 41996 32304 10176 20166 40097 53001 71011 80001 333 83099;
0150025840999992000081603004+58400+019200FM-12+001299999V0202301N002112200019N0040001N1+01661+01581100931ADDAY111031AY211031GA1001+999999999GF100991001001999999001001MD1810041+9999MW1101REMSYN060AAXX  16034 02584 41996 02304 10166 20158 40093 58004 71011;
0205025840999992000081606004+58400+019200FM-12+001299999V0202301N00151004501CN0100001N1+01721+01561100951ADDAA199000091GA1051+004509089GF107991051021004501001011IA1019KA1120N+01651MD1310021+9999REMSYN088AAXX  16064 02584 32497 72303 10172 20156 40095 53002 85201 333 20165 30/// 85894 84099;EQDQ01  00002PRCP99
0166025840999992000081609004+58400+019200FM-12+001299999V0202301N002110300019N0200001N1+01881+01291100971ADDGA1011+008009089GA2031+025009039GF106991011021008001031011MD1110021+9999REMSYN082AAXX  16094 02584 42598 62304 10188 20129 40097 51002 81231 333 81895 83399 83099;
0144025840999992000081612004+58400+019200FM-12+001299999V0202001N00311075001CN0200001N1+01841+01211100961ADDGA1021+008009089GF106991021021008001001091MD1810011+9999REMSYN076AAXX  16124 02584 42598 62006 10184 20121 40096 58001 82209 333 82895 86199;
0138025840999992000081615004+58400+019200FM-12+001299999V0202001N002119999999N0200001N1+01801+01381100951ADDGA1081+999999079GF108991081001999999031999MD1710011+9999REMSYN070AAXX  16154 02584 42998 82004 10180 20138 40095 57001 8803/ 333 88399;
0193025840999992000081618004+58400+019200FM-12+001299999V0202001N00261030001CN0200001N1+01761+01611100871ADDAA199000091GA1021+012509069GF105991021051012501031001KA1120M+01931MD1710081+9999REMSYN082AAXX  16184 02584 32698 52005 10176 20161 40087 57008 82530 333 10193 82696 84399;EQDQ01  00002PRCP99
0138025840999992000081700004+58400+019200FM-12+001299999V0202501N002112200019N0200001N1+01651+01351100931ADDGA1031+999999079GF103991031001999999031001MD1210051+9999REMSYN070AAXX  17004 02584 42998 32504 10165 20135 40093 52005 83030 333 83399;
0138025840999992000081703004+58400+019200FM-12+001299999V0202501N001519999999N0200001N1+01621+01181100891ADDGA1061+999999079GF106991061001999999071001MD1810041+9999REMSYN070AAXX  17034 02584 42998 62503 10162 20118 40089 58004 86070 333 86399;
0205025840999992000081706004+58400+019200FM-12+001299999V0202001N001012200019N0200001N1+01701+01431100901ADDAA199000091GA1011+004509089GF104991011021999999001021IA1019KA1120N+01571MD1310011+9999REMSYN088AAXX  17064 02584 32998 42002 10170 20143 40090 53001 81202 333 20157 30/// 81894 83099;EQDQ01  00002PRCP99
0144025840999992000081709004+58400+019200FM-12+001299999V0202301N001512200019N0200001N1+01841+01301100951ADDGA1011+008009089GF104991011011999999001021MD1210051+9999REMSYN076AAXX  17094 02584 42998 42303 10184 20130 40095 52005 81102 333 81895 83099;
0144025840999992000081712004+58400+019200FM-12+001299999V0202301N00311075001CN0200001N1+01841+01191101011ADDGA1031+004509089GF105991031021004501001021MD1210061+9999REMSYN076AAXX  17124 02584 42498 52306 10184 20119 40101 52006 83202 333 83894 85099;
0138025840999992000081715004+58400+019200FM-12+001299999V0202301N002612200019N0200001N1+01801+01261100971ADDGA1011+999999019GF101991001001999999001011MD1610041+9999REMSYN070AAXX  17154 02584 42998 12305 10180 20126 40097 56004 80001 333 81099;
0187025840999992000081718004+58400+019200FM-12+001299999V0202301N002112200019N0200001N1+01671+01401100911ADDAA199000091GA1011+999999019GF101991001001999999001011KA1120M+02261MD1610061+9999REMSYN076AAXX  17184 02584 32998 12304 10167 20140 40091 56006 80001 333 10226 81099;EQDQ01  00002PRCP99
0138025840999992000081721004+58400+019200FM-12+001299999V0202001N001512200019N0200001N1+01671+01571100941ADDGA1011+999999019GF101991001001999999001011MD1310031+9999REMSYN070AAXX  17214 02584 42998 12003 10167 20157 40094 53003 80001 333 81099;
0185025840999992000081803004+58400+019200FM-12+001299999V0202001N001510225019N0040001N1+01611+01511100871ADDAY121031AY221031GA1071+022509079GF107991071999022501071999MD1610011+9999MW1101REMSYN076AAXX  18034 02584 41896 72003 10161 20151 40087 56001 71022 8707/ 333 87398;EQDQ01+000002SCOLCG
0214025840999992000081806004+58400+019200FM-12+001299999V0202301N001010125019N0200001N1+01661+01301100891ADDAA112000791AY121061AY221061GA1051+012509099GF105991051031012501001001IA1019KA1120N+01531MD1110021+9999MW1251REMSYN094AAXX  18064 02584 11698 52302 10166 20130 40089 51002 69902 72522 85300 333 20153 30/// 85996;
0138025840999992000081809004+58400+019200FM-12+001299999V0202301N003112200019N0200001N1+01901+01341101001ADDGA1011+004509099GF102991011031004501001011MD1110111+9999REMSYN070AAXX  18094 02584 42498 22306 10190 20134 40100 51011 81301 333 81994;
0144025840999992000081812004+58400+019200FM-12+001299999V0202301N00261220001CN0200001N1+01821+01321101071ADDGA1031+004509069GF106991031051004501001011MD1310071+9999REMSYN076AAXX  18124 02584 42498 62305 10182 20132 40107 53007 83501 333 83694 83099;
0138025840999992000081815004+58400+019200FM-12+001299999V0202001N003112200019N0200001N1+01841+01381101061ADDGA1021+999999079GF102991021001999999031001MD1810011+9999REMSYN070AAXX  18154 02584 42998 22006 10184 20138 40106 58001 82030 333 82399;
0168025840999992000081818004+58400+019200FM-12+001299999V0202001N003112200019N0200001N1+01731+01461101111ADDAA199000021GA1031+999999079GF103991031001999999051001KA1120M+01901MD1310051+9999REMSYN076AAXX  18184 02584 32998 32006 10173 20146 40111 53005 83050 333 10190 83399;
0122025840999992000081821004+58400+019200FM-12+001299999V0202001N002112200019N0100001N1+01701+01541101211ADDGA1001+999999999GF100991001001999999001001MD1310101+9999REMSYN054AAXX  18214 02584 42997 02004 10170 20154 40121 53010;
0122025840999992000081900004+58400+019200FM-12+001299999V0202501N002612200019N0200001N1+01681+01181101331ADDGA1001+999999999GF100991001001999999001001MD1210121+9999REMSYN054AAXX  19004 02584 42998 02505 10168 20118 40133 52012;
0138025840999992000081903004+58400+019200FM-12+001299999V0202301N002112200019N0200001N1+01621+01281101391ADDGA1041+999999099GF104991001001999999001091MD1110061+9999REMSYN070AAXX  19034 02584 42998 42304 10162 20128 40139 51006 80009 333 84199;
0199025840999992000081906004+58400+019200FM-12+001299999V0202301N002112200019N0200001N1+01721+01281101421ADDAA199000091GA1041+999999079GF104991041001999999051001IA1019KA1120N+01601MD1110031+9999REMSYN082AAXX  19064 02584 32998 42304 10172 20128 40142 51003 84050 333 20160 30/// 84399;EQDQ01  00002PRCP99
0122025840999992000081909004+58400+019200FM-12+001299999V0202001N002112200019N0200001N1+01911+01391101461ADDGA1001+999999999GF100991001001999999001001MD1210041+9999REMSYN054AAXX  19094 02584 42998 02004 10191 20139 40146 52004;
0138025840999992000081912004+58400+019200FM-12+001299999V0201801N002112200019N0200001N1+01921+01401101431ADDGA1011+999999019GF101991001001999999001011MD1810031+9999REMSYN070AAXX  19124 02584 42998 11804 10192 20140 40143 58003 80001 333 81099;
0138025840999992000081915004+58400+019200FM-12+001299999V0202301N002119999999N0200001N1+01901+01441101421ADDGA1051+999999099GF105991001001999999001091MD1610011+9999REMSYN070AAXX  19154 02584 42998 52304 10190 20144 40142 56001 80009 333 85199;
0193025840999992000081918004+58400+019200FM-12+001299999V0202301N00211220001CN0200001N1+01761+01441101321ADDAA199000091GA1021+012509069GF105991021051012501001011KA1120M+02001MD1710101+9999REMSYN082AAXX  19184 02584 32698 52304 10176 20144 40132 57010 82501 333 10200 82696 84099;EQDQ01  00002PRCP99
0144025840999992000081921004+58400+019200FM-12+001299999V0202001N002112200019N0100001N1+01651+01521101341ADDGA1011+004509079GF103991011061004501031001MD1210021+9999REMSYN076AAXX  19214 02584 42497 32004 10165 20152 40134 52002 81630 333 81794 83699;
0150025840999992000082000004+58400+019200FM-12+001299999V0201801N002112200019N0040001N1+01601+01541101291ADDAY121061AY201061GA1001+999999999GF100991001001999999001001MD1710051+9999MW1101REMSYN060AAXX  20004 02584 41996 01804 10160 20154 40129 57005 71020;
0166025840999992000082003004+58400+019200FM-12+001299999V0201601N001512200019N0040001N1+01531+01471101241ADDAY101031AY201031GA1011+999999019GF101991001001999999001011MD1710051+9999MW1101REMSYN076AAXX  20034 02584 41996 11603 10153 20147 40124 57005 71000 80001 333 81099;
0199025840999992000082006004+58400+019200FM-12+001299999V0201801N002110045019N0200001N1+01621+01411101241ADDAA199000091GA1061+004509059GF106991061051004501999999IA1019KA1120N+01531MD1410001+9999REMSYN082AAXX  20064 02584 32498 61804 10162 20141 40124 54000 865// 333 20153 30/// 86694;EQDQ01  00002PRCP99
0138025840999992000082009004+58400+019200FM-12+001299999V0201401N002610080019N0200001N1+01711+01291101211ADDGA1071+008009059GF107991071051008001999999MD1710031+9999REMSYN070AAXX  20094 02584 42598 71405 10171 20129 40121 57003 875// 333 87695;
0138025840999992000082012004+58400+019200FM-12+001299999V0201101N002110045019N0200001N1+01761+01421101071ADDGA1081+004509059GF108991081051004501999999MD1810141+9999REMSYN070AAXX  20124 02584 42498 81104 10176 20142 40107 58014 885// 333 88694;
0172025840999992000082015004+58400+019200FM-12+001299999V0201601N00151002501CN0040001N1+01681+01581100901ADDAY121031AY221031GA1061+002509079GF108991061071002501021999MD1810171+9999MW1621REMSYN082AAXX  20154 02584 41396 81603 10168 20158 40090 58017 76222 8672/ 333 86793 88596;
0202025840999992000082018004+58400+019200FM-12+001299999V0209999V001012200019N0100001N1+01571+01511100801ADDAA112006191AY121061AY221061GA1011+008009099GF102991011031008001031001KA1120M+01781MD1710101+9999MW1211REMSYN088AAXX  20184 02584 11597 29902 10157 20151 40080 57010 60062 72122 81330 333 10178 81995;
0122025840999992000082021004+58400+019200FM-12+001299999V0202001N003112200019N0200001N1+01521+01391100851ADDGA1001+999999999GF100991001001999999001001MD1310051+9999REMSYN054AAXX  20214 02584 42998 02006 10152 20139 40085 53005;
0141025840999992000082100004+58400+019200FM-12+001299999V0202501N003112200019N0200001N1+01581+01431100851ADDGA1001+999999999GF100991001001999999001001MD1410001+9999REMSYN054AAXX  21004 02584 42998 02506 10158 20143 40085 58000;EQDQ01+000082APCTEN
0138025840999992000082103004+58400+019200FM-12+001299999V0202301N002612200019N0200001N1+01491+01291100871ADDGA1011+004509029GF101991011021004501001001MD1010021+9999REMSYN070AAXX  21034 02584 42498 12305 10149 20129 40087 50002 81200 333 81894;
0186025840999992000082106004+58400+019200FM-12+001299999V0202001N002612200019N0200001N1+01601+01261100941ADDAA199000021GA1011+008009099GF104991011031008001031001IA1099KA1120N+01471MD1310071+9999REMSYN088AAXX  21064 02584 32598 42005 10160 20126 40094 53007 81330 333 20147 31/// 81995 83399;
0144025840999992000082109004+58400+019200FM-12+001299999V0202001N00311030001CN0200001N1+01581+01221100911ADDGA1031+004509079GF108991031061004501071999MD1810031+9999REMSYN076AAXX  21094 02584 42498 82006 10158 20122 40091 58003 8367/ 333 83794 88399;
0144025840999992000082112004+58400+019200FM-12+001299999V0202001N00361030001CN0200001N1+01611+01171100921ADDGA1031+004509099GF108991031031004501011999MD1110011+9999REMSYN076AAXX  21124 02584 42498 82007 10161 20117 40092 51001 8331/ 333 83994 88499;
0144025840999992000082115004+58400+019200FM-12+001299999V0202001N004112200019N0200001N1+01581+01141100941ADDGA1011+008009099GF104991011031008001001001MD1010021+9999REMSYN076AAXX  21154 02584 42598 42008 10158 20114 40094 50002 81300 333 81995 83895;
0187025840999992000082118004+58400+019200FM-12+001299999V0201801N003612200019N0200001N1+01611+01271100971ADDAA199000091GA1011+999999019GF101991001001999999001011KA1120M+01721MD1310031+9999REMSYN076AAXX  21184 02584 32998 11807 10161 20127 40097 53003 80001 333 10172 81099;EQDQ01  00002PRCP99
0122025840999992000082121004+58400+019200FM-12+001299999V0202001N003612200019N0200001N1+01651+01381100981ADDGA1001+999999999GF100991001001999999001001MD1010011+9999REMSYN054AAXX  21214 02584 42998 02007 10165 20138 40098 50001;
0122025840999992000082200004+58400+019200FM-12+001299999V0202501N002112200019N0200001N1+01561+01261100981ADDGA1001+999999999GF100991001001999999001001MD1410001+9999REMSYN054AAXX  22004 02584 42998 02504 10156 20126 40098 54000;
0157025840999992000082203004+58400+019200FM-12+001299999V0202501N002112200019N0100001N1+01301+01121101051ADDGA1011+017509059GF101991011051017501999001MD1110071+9999REMSYN070AAXX  22034 02584 42797 12504 10130 20112 40105 51007 81500 333 81697;EQDQ01+000002SCOMCG
0199025840999992000082206004+58400+019200FM-12+001299999V0202301N002119999999N0200001N1+01541+01291101041ADDAA199000091GA1061+999999089GF106991001001999999001061IA1019KA1120N+01251MD1410001+9999REMSYN082AAXX  22064 02584 32998 62304 10154 20129 40104 54001 80006 333 20125 30/// 86299;EQDQ01  00002PRCP99
0138025840999992000082209004+58400+019200FM-12+001299999V0202301N002612200019N0200001N1+01701+01301101121ADDGA1041+004509059GF105991041051004501001011MD1310081+9999REMSYN070AAXX  22094 02584 42498 52305 10170 20130 40112 53008 84501 333 84694;
0138025840999992000082212004+58400+019200FM-12+001299999V0202301N002612200019N0200001N1+01731+01251101151ADDGA1021+004509029GF103991021011004501001011MD1110031+9999REMSYN070AAXX  22124 02584 42498 32305 10173 20125 40115 51003 82101 333 82894;
0138025840999992000082215004+58400+019200FM-12+001299999V0202301N002612200019N0200001N1+01771+01211101171ADDGA1031+999999019GF103991001001999999001011MD1210021+9999REMSYN070AAXX  22154 02584 42998 32305 10177 20121 40117 52002 80001 333 83099;
0193025840999992000082218004+58400+019200FM-12+001299999V0202501N00261075001CN0200001N1+01591+01271101241ADDAA199000091GA1021+017509069GF105991021051017501031021KA1120M+01771MD1310071+9999REMSYN082AAXX  22184 02584 32798 52505 10159 20127 40124 53007 82532 333 10177 82697 83399;EQDQ01  00002PRCP99
0122025840999992000082221004+58400+019200FM-12+001299999V0202701N002112200019N0200001N1+01521+01401101311ADDGA1001+999999999GF100991001001999999001001MD1210071+9999REMSYN054AAXX  22214 02584 42998 02704 10152 20140 40131 52007;
0157025840999992000082300004+58400+019200FM-12+001299999V0202701N003112200019N0200001N1+01451+01051101361ADDGA1011+022509079GF101991011999022501071001MD1310051+9999REMSYN070AAXX  23004 02584 42898 12706 10145 20105 40136 53005 81070 333 81398;EQDQ01+000002SCOLCG
0157025840999992000082303004+58400+019200FM-12+001299999V0202701N002612200019N0200001N1+01411+01091101411ADDGA1031+022509059GF103991031051022501999001MD1210051+9999REMSYN070AAXX  23034 02584 42898 32705 10141 20109 40141 52005 83500 333 83698;EQDQ01+000002SCOMCG
0215025840999992000082306004+58400+019200FM-12+001299999V0202901N003112200019N0200001N1+01481+00961101461ADDAA199000091GA1011+022509079GF101991011999022501031001IA1019KA1120N+01411MD1210051+9999REMSYN082AAXX  23064 02584 32898 12906 10148 20096 40146 52005 81030 333 20141 30/// 81398;EQDQ01+000002SCOLCGQ02  00002PRCP99
0138025840999992000082309004+58400+019200FM-12+001299999V0202501N002112200019N0200001N1+01661+00911101531ADDGA1031+999999019GF103991001001999999001021MD1210071+9999REMSYN070AAXX  23094 02584 42998 32504 10166 20091 40153 52007 80002 333 83099;
0122025840999992000082312004+58400+019200FM-12+001299999V0202901N002612200019N0200001N1+01741+00691101551ADDGA1001+999999999GF100991001001999999001001MD1110021+9999REMSYN054AAXX  23124 02584 42998 02905 10174 20069 40155 51002;
0128025840999992000082315004+58400+019200FM-12+001299999V0202701N002112200019N0500001N1+01751+00631101531ADDGF101991001001999999001011MD1510021+9999REMSYN076AAXX  23154 02584 42999 12704 10175 20063 40153 55002 80001 333 80001 81099;
0193025840999992000082318004+58400+019200FM-12+001299999V0202901N00051075001CN0200001N1+01421+00651101551ADDAA199000091GA1031+008009089GF105991031021008001001021KA1120M+01801MD1310021+9999REMSYN082AAXX  23184 02584 32598 52901 10142 20065 40155 53002 83202 333 10180 83895 82099;EQDQ01  00002PRCP99
0157025840999992000082321004+58400+019200FM-12+001299999V0202501N001012200019N0200001N1+01101+00581101521ADDGA1031+022509079GF103991031999022501071001MD1810031+9999REMSYN070AAXX  23214 02584 42898 32502 10110 20058 40152 58003 83070 333 83398;EQDQ01+000002SCOLCG
0157025840999992000082400004+58400+019200FM-12+001299999V0202001N001010225019N0200001N1+01521+00821101381ADDGA1081+022509079GF108991081999022501071999MD1810141+9999REMSYN070AAXX  24004 02584 42898 82002 10152 20082 40138 58014 8807/ 333 88398;EQDQ01+000002SCOLCG
0157025840999992000082403004+58400+019200FM-12+001299999V0202501N001010225019N0200001N1+01401+00921101211ADDGA1081+022509079GF108991081999022501071999MD1710171+9999REMSYN070AAXX  24034 02584 42898 82502 10140 20092 40121 57017 8807/ 333 88398;EQDQ01+000002SCOLCG
0220025840999992000082406004+58400+019200FM-12+001299999V0202501N00211030001CN0100001N1+01461+01211101071ADDAA112000191AY121061AY221061GA1041+004509099GF108991041031004501021999IA1099KA1120N+00961MD1710141+9999MW1801REMSYN100AAXX  24064 02584 11497 82504 10146 20121 40107 57014 69912 78022 8432/ 333 20096 31/// 84994 88598;
0172025840999992000082409004+58400+019200FM-12+001299999V0202501N00311030001CN0100001N1+01401+01021100961ADDAY181031AY281031GA1041+004509099GF108991041031004501021999MD1710111+9999MW1801REMSYN082AAXX  24094 02584 41497 82506 10140 20102 40096 57011 78088 8432/ 333 84994 88598;
0172025840999992000082412004+58400+019200FM-12+001299999V0202501N00311030001CN0200001N1+01461+00831100841ADDAY181061AY281061GA1031+004509089GF108991031021004501011999MD1710121+9999MW1021REMSYN082AAXX  24124 02584 41498 82506 10146 20083 40084 57012 70288 8321/ 333 83894 88499;
0172025840999992000082415004+58400+019200FM-12+001299999V0202501N002110750019N0200001N1+01481+00981100691ADDAY181031AY221031GA1031+005709089GF108991031021004501001021MD1710151+9999MW1021REMSYN082AAXX  24154 02584 41498 82504 10148 20098 40069 57015 70282 83202 333 83819 88099;
0208025840999992000082418004+58400+019200FM-12+001299999V0202901N002112200019N0200001N1+01381+01021100591ADDAA112000191AY181061AY221061GA1021+006009099GF106991041091008001001011KA1120M+01581MD1710101+9999MW1021REMSYN094AAXX  24184 02584 11598 62904 10138 20102 40059 57010 69912 70282 84901 333 10158 82920 83820;
0144025840999992000082421004+58400+019200FM-12+001299999V0203401N002112200019N0200001N1+01351+01011100631ADDGA1021+006309099GF105991041031008001001011MD1310041+9999REMSYN076AAXX  24214 02584 42598 53404 10135 20101 40063 53004 84301 333 82921 83821;
0138025840999992000082500004+58400+019200FM-12+001299999V0203601N003112200019N0200001N1+01331+00991100731ADDGA1021+007209059GF102991021051008001001001MD1210101+9999REMSYN070AAXX  25004 02584 42598 23606 10133 20099 40073 52010 82500 333 82624;
0144025840999992000082503004+58400+019200FM-12+001299999V0203601N00261007501CN0200001N1+01381+01041100891ADDGA1021+006009099GF107991071031008001999999MD1210161+9999REMSYN076AAXX  25034 02584 42598 73605 10138 20104 40089 52016 873// 333 82920 85820;
0205025840999992000082506004+58400+019200FM-12+001299999V0203401N002112200019N0200001N1+01421+01191101081ADDAA199000091GA1011+004509099GF104991041031004501001001IA1019KA1120N+01291MD1210191+9999REMSYN088AAXX  25064 02584 32498 43404 10142 20119 40108 52019 84300 333 20129 30/// 81915 83815;EQDQ01  00002PRCP99
0138025840999992000082509004+58400+019200FM-12+001299999V0202901N003110033019N0200001N1+01621+01281101311ADDGA1061+003309029GF106991061021004501001001MD1210231+9999REMSYN070AAXX  25094 02584 42498 62906 10162 20128 40131 52023 86200 333 86811;
0138025840999992000082512004+58400+019200FM-12+001299999V0203201N003110054019N0200001N1+01661+01201101571ADDGA1061+005409029GF106991061021004501001001MD1210261+9999REMSYN070AAXX  25124 02584 42498 63206 10166 20120 40157 52026 86200 333 86818;
0138025840999992000082515004+58400+019200FM-12+001299999V0203401N002112200019N0200001N1+01621+01121101751ADDGA1021+007809029GF102991021021008001001001MD1210181+9999REMSYN070AAXX  25154 02584 42598 23404 10162 20112 40175 52018 82200 333 82826;
0157025840999992000082518004+58400+019200FM-12+001299999V0203601N00211075001CN0200001N1+01421+01081101921ADDGA1061+999999019GF106991061001999999031001KA1120M+01681MD1210171+9999REMSYN076AAXX  25184 02584 12998 63604 10142 20108 40192 52017 86030 333 10168 86499;
0122025840999992000082521004+58400+019200FM-12+001299999V0203401N001512200019N0200001N1+01401+00791102061ADDGA1001+999999999GF100991001001999999001001MD1110141+9999REMSYN054AAXX  25214 02584 42998 03403 10140 20079 40206 51014;
0122025840999992000082600004+58400+019200FM-12+001299999V0203601N001012200019N0200001N1+01341+00781102161ADDGA1001+999999999GF100991001001999999001001MD1210101+9999REMSYN054AAXX  26004 02584 42998 03602 10134 20078 40216 52010;
0122025840999992000082603004+58400+019200FM-12+001299999V0203201N001012200019N0200001N1+01261+00761102211ADDGA1001+999999999GF100991001001999999001001MD1110051+9999REMSYN054AAXX  26034 02584 42998 03202 10126 20076 40221 51005;
0199025840999992000082606004+58400+019200FM-12+001299999V0203201N000512200019N0200001N1+01481+00851102331ADDAA199000091GA1041+999999099GF104991001001999999001091IA1019KA1120N+01121MD1310121+9999REMSYN082AAXX  26064 02584 32998 43201 10148 20085 40233 53012 80009 333 20112 30/// 84199;EQDQ01  00002PRCP99
0138025840999992000082615004+58400+019200FM-12+001299999V0200201N000512200019N0200001N1+01691+00781102491ADDGA1011+012509029GF102991011011012501001011MD1810021+9999REMSYN070AAXX  26154 02584 42698 20201 10169 20078 40249 58002 81101 333 81896;
0187025840999992000082618004+58400+019200FM-12+001299999V0209999V000512200019N0200001N1+01341+00801102501ADDAA199000091GA1011+999999019GF101991001001999999001011KA1120M+01801MD1210011+9999REMSYN076AAXX  26184 02584 32998 19901 10134 20080 40250 52001 80001 333 10180 81099;EQDQ01  00002PRCP99
0122025840999992000082621004+58400+019200FM-12+001299999V0201101N001012200019N0100001N1+00971+00851102531ADDGA1001+999999999GF100991001001999999001001MD1210031+9999REMSYN054AAXX  26214 02584 42997 01102 10097 20085 40253 52003;
0150025840999992000082700004+58400+019200FM-12+001299999V0201401N001012200019N0040001N1+00811+00761102601ADDAY101061AY201061GA1001+999999999GF100991001001999999001001MD1210071+9999MW1101REMSYN060AAXX  27004 02584 41996 01402 10081 20076 40260 52007 71000;
0150025840999992000082703004+58400+019200FM-12+001299999V0201101N001012200019N0040001N1+00791+00741102601ADDAY101031AY201031GA1001+999999999GF100991001001999999001001MD1410001+9999MW1101REMSYN060AAXX  27034 02584 41996 01102 10079 20074 40260 54000 71000;
0227025840999992000082706004+58400+019200FM-12+001299999V0201101N000512200019N0040001N1+01421+01361102611ADDAA199000091AY101061AY201061GA1011+003609069GF101991011061004501001001IA1019KA1120N+00741MD1210011+9999MW1101REMSYN088AAXX  27064 02584 31496 11101 10142 20136 40261 52001 71000 81600 333 20074 30/// 81712;EQDQ01  00002PRCP99
0138025840999992000082709004+58400+019200FM-12+001299999V0201101N001012200019N0200001N1+01901+01401102691ADDGA1011+004809029GF101991011021008001001001MD1210081+9999REMSYN070AAXX  27094 02584 42598 11102 10190 20140 40269 52008 81200 333 81816;
0122025840999992000082712004+58400+019200FM-12+001299999V0201101N001512200019N0200001N1+02041+01271102711ADDGA1001+999999999GF100991001001999999001001MD1110021+9999REMSYN054AAXX  27124 02584 42998 01103 10204 20127 40271 51002;
0122025840999992000082715004+58400+019200FM-12+001299999V0201101N002112200019N0200001N1+01901+01201102651ADDGA1001+999999999GF100991001001999999001001MD1710061+9999REMSYN054AAXX  27154 02584 42998 01104 10190 20120 40265 57006;
0145025840999992000082718004+58400+019200FM-12+001299999V0201101N002112200019N0200001N1+01581+01261102631ADDGA1001+999999999GF100991001001999999001001KA1999M+02121MD1610021+9999REMSYN064AAXX  27184 02584 22998 01104 10158 20126 40263 56002 333 10212;
0150025840999992000082721004+58400+019200FM-12+001299999V0200901N001512200019N0040001N1+01201+01121102641ADDAY101031AY201031GA1001+999999999GF100991001001999999001001MD1310011+9999MW1101REMSYN060AAXX  27214 02584 41996 00903 10120 20112 40264 53001 71000;
0150025840999992000082800004+58400+019200FM-12+001299999V0200901N001512200019N0040001N1+01081+01021102621ADDAY101061AY201061GA1001+999999999GF100991001001999999001001MD1810021+9999MW1101REMSYN060AAXX  28004 02584 41996 00903 10108 20102 40262 58002 71000;
0166025840999992000082803004+58400+019200FM-12+001299999V0201101N001010144019N0040001N1+01341+01281102621ADDAY101031AY201031GA1051+014409029GF105991051021012501001001MD1710021+9999MW1101REMSYN076AAXX  28034 02584 41696 51102 10134 20128 40262 57002 71000 85200 333 85848;
0205025840999992000082806004+58400+019200FM-12+001299999V0200901N001512200019N0100001N1+01641+01441102581ADDAA199000091GA1021+014409089GF105991021021012501001011IA1019KA1120N+01041MD1710021+9999REMSYN088AAXX  28064 02584 32697 50903 10164 20144 40258 57002 82201 333 20104 30/// 82848 83099;EQDQ01  00002PRCP99
0122025840999992000082809004+58400+019200FM-12+001299999V0200901N002612200019N0200001N1+01981+00941102611ADDGA1001+999999999GF100991001001999999001001MD1310031+9999REMSYN054AAXX  28094 02584 42998 00905 10198 20094 40261 53003;
0122025840999992000082812004+58400+019200FM-12+001299999V0201101N003112200019N0200001N1+02031+01041102561ADDGA1001+999999999GF100991001001999999001001MD1810051+9999REMSYN054AAXX  28124 02584 42998 01106 10203 20104 40256 58005;
0122025840999992000082815004+58400+019200FM-12+001299999V0201401N002612200019N0200001N1+01981+01101102461ADDGA1001+999999999GF100991001001999999001001MD1710101+9999REMSYN054AAXX  28154 02584 42998 01405 10198 20110 40246 57010;
0175025840999992000082818004+58400+019200FM-12+001299999V0201401N001012200019N0200001N1+01641+01301102401ADDAA199000091GA1001+999999999GF100991001001999999001001KA1999M+02131MD1710061+9999REMSYN064AAXX  28184 02584 32998 01402 10164 20130 40240 57006 333 10213;EQDQ01  00002PRCP99
0150025840999992000082821004+58400+019200FM-12+001299999V0200901N001512200019N0040001N1+01381+01281102371ADDAY101031AY201031GA1001+999999999GF100991001001999999001001MD1710031+9999MW1101REMSYN060AAXX  28214 02584 41996 00903 10138 20128 40237 57003 71000;
0150025840999992000082900004+58400+019200FM-12+001299999V0200901N001512200019N0040001N1+01321+01261102321ADDAY101061AY201061GA1001+999999999GF100991001001999999001001MD1710051+9999MW1101REMSYN060AAXX  29004 02584 41996 00903 10132 20126 40232 57005 71000;
0150025840999992000082903004+58400+019200FM-12+001299999V0200901N002112200019N0040001N1+01401+01341102201ADDAY101031AY201031GA1001+999999999GF100991001001999999001001MD1710121+9999MW1101REMSYN060AAXX  29034 02584 41996 00904 10140 20134 40220 57012 71000;
0199025840999992000082906004+58400+019200FM-12+001299999V0201101N001012200019N0200001N1+01641+01531102121ADDAA199000091GA1021+999999079GF102991021001999999031001IA1019KA1120N+01291MD1710081+9999REMSYN082AAXX  29064 02584 32998 21102 10164 20153 40212 57008 82030 333 20129 30/// 82399;EQDQ01  00002PRCP99
0138025840999992000082909004+58400+019200FM-12+001299999V0201101N002112200019N0200001N1+01961+01261102091ADDGA1011+999999019GF101991001001999999001011MD1710031+9999REMSYN070AAXX  29094 02584 42998 11104 10196 20126 40209 57003 80001 333 81099;
0138025840999992000082912004+58400+019200FM-12+001299999V0201101N002112200019N0200001N1+02081+01431101991ADDGA1021+999999019GF102991001001999999001011MD1710101+9999REMSYN070AAXX  29124 02584 42998 21104 10208 20143 40199 57010 80001 333 82099;
0166025840999992000082915004+58400+019200FM-12+001299999V0201401N002112200019N0200001N1+01911+01591101911ADDAY101031AY201031GA1031+999999079GF104991031001999999071011MD1810081+9999MW1291REMSYN076AAXX  29154 02584 41998 41404 10191 20159 40191 58008 72900 83071 333 83399;
0215025840999992000082918004+58400+019200FM-12+001299999V0201601N002110018019N0040001N1+01701+01601101871ADDAA199000091AY191061AY211061GA1081+001809069GF108991081061001501999999KA1120M+02191MD1710041+9999MW1101REMSYN082AAXX  29184 02584 31296 81604 10170 20160 40187 57004 71091 886// 333 10219 88706;EQDQ01  00002PRCP99
0166025840999992000082921004+58400+019200FM-12+001299999V0201801N002110015019N0040001N1+01641+01561101851ADDAY121031AY221031GA1081+001509069GF108991081061001501999999MD1610021+9999MW1101REMSYN076AAXX  29214 02584 41296 81804 10164 20156 40185 56002 71022 886// 333 88705;
0172025840999992000083000004+58400+019200FM-12+001299999V0201801N001510300019N0040001N1+01621+01541101801ADDAY121061AY221061GA1041+003609079GF108991041071004501021999MD1710051+9999MW1611REMSYN082AAXX  30004 02584 41496 81803 10162 20154 40180 57005 76122 8472/ 333 84712 88599;
0172025840999992000083003004+58400+019200FM-12+001299999V0202001N001010300019N0040001N1+01561+01481101661ADDAY161031AY261031GA1041+002109079GF108991041071002501021999MD1810141+9999MW1611REMSYN082AAXX  30034 02584 41396 82002 10156 20148 40166 58014 76166 8472/ 333 84707 88599;
0214025840999992000083006004+58400+019200FM-12+001299999V0201801N001019999999N0040001N1+01621+01511101661ADDAA112000591AY161061AY261061GA1081+999999079GF108991081001999999071999IA1099KA1120N+01501MD1510001+9999MW1101REMSYN094AAXX  30064 02584 11996 81802 10162 20151 40166 55000 69942 71066 8807/ 333 20150 31/// 88399;
0144025840999992000083009004+58400+019200FM-12+001299999V0201801N001010750019N0200001N1+01721+01471101631ADDGA1021+005409089GF106991021021004501001021MD1810031+9999REMSYN076AAXX  30094 02584 42498 61802 10172 20147 40163 58003 82202 333 82818 84099;
0166025840999992000083012004+58400+019200FM-12+001299999V0202301N001010036019N0020001N1+01701+01551101571ADDAY121061AY221061GA1081+003609069GF108991081061004501999999MD1810061+9999MW1101REMSYN076AAXX  30124 02584 41495 82302 10170 20155 40157 58006 71022 886// 333 88712;
0172025840999992000083015004+58400+019200FM-12+001299999V0201801N000510024019N0020001N1+01621+01471101471ADDAY121031AY221031GA1051+002409079GF108991051071002501021999MD1710101+9999MW1601REMSYN082AAXX  30154 02584 41395 81801 10162 20147 40147 57010 76022 8572/ 333 85708 88599;
0202025840999992000083018004+58400+019200FM-12+001299999V0201801N000512200019N0040001N1+01491+01391101381ADDAA112000791AY121061AY221061GA1031+999999079GF103991031001999999031001KA1120M+01881MD1710091+9999MW1101REMSYN088AAXX  30184 02584 11996 31801 10149 20139 40138 57009 69902 71022 83030 333 10188 83399;
0150025840999992000083021004+58400+019200FM-12+001299999V0202001N001012200019N0020001N1+01131+01081101331ADDAY101031AY201031GA1001+999999999GF100991001001999999001001MD1710051+9999MW1101REMSYN060AAXX  30214 02584 41995 02002 10113 20108 40133 57005 71000;
0166025840999992000083100004+58400+019200FM-12+001299999V0202001N001512200019N0040001N1+01501+01371101281ADDAY121061AY201061GA1041+003909069GF104991041061004501001001MD1710051+9999MW1101REMSYN076AAXX  31004 02584 41496 42003 10150 20137 40128 57005 71020 84600 333 84713;
0166025840999992000083103004+58400+019200FM-12+001299999V0201601N001012200019N0040001N1+01341+01281101171ADDAY101031AY201031GA1031+003009069GF103991031061004501001001MD1710111+9999MW1101REMSYN076AAXX  31034 02584 41496 31602 10134 20128 40117 57011 71000 83600 333 83710;
0205025840999992000083106004+58400+019200FM-12+001299999V0201801N00101030001CN0100001N1+01561+01331101101ADDAA199000091GA1021+008009099GF106991041091008001031001IA1019KA1120N+01051MD1710071+9999REMSYN088AAXX  31064 02584 32597 61802 10156 20133 40110 57007 84930 333 20105 30/// 82995 85399;EQDQ01  00002PRCP99
0144025840999992000083109004+58400+019200FM-12+001299999V0201801N00151002101CN0100001N1+01681+01491101091ADDGA1011+002509099GF107991051031002501031999MD1710011+9999REMSYN076AAXX  31094 02584 42397 71803 10168 20149 40109 57001 8533/ 333 81993 84893;
0144025840999992000083112004+58400+019200FM-12+001299999V0201801N001510750019N0200001N1+01791+01181101031ADDGA1011+004509099GF105991011031004501031011MD1710061+9999REMSYN076AAXX  31124 02584 42498 51803 10179 20118 40103 57006 81331 333 81915 83650;
0144025840999992000083115004+58400+019200FM-12+001299999V0202001N001010300019N0200001N1+01721+01131100981ADDGA1021+005409089GF105991021021004501031001MD1710051+9999REMSYN076AAXX  31154 02584 42498 52002 10172 20113 40098 57005 82230 333 82818 83399;
0202025840999992000083118004+58400+019200FM-12+001299999V0202001N001012200019N0200001N1+01481+01181100931ADDAA112000791AY121061AY211061GA1031+003909029GF103991031021004501001001KA1120M+01851MD1710051+9999MW1251REMSYN088AAXX  31184 02584 11498 32002 10148 20118 40093 57005 69902 72521 83200 333 10185 83813;
0150025840999992000083121004+58400+019200FM-12+001299999V0202501N000512200019N0040001N1+01361+01261100881ADDAY121031AY211031GA1001+999999999GF100991001001999999001001MD1710051+9999MW1101REMSYN060AAXX  31214 02584 41996 02501 10136 20126 40088 57005 71021;
0185025840999992000090100004+58400+019200FM-12+001299999V0209999C000012200019N0040001N1+01101+01021100831ADDAY121061AY211061GA1041+024009079GF104991041999022501071001MD1710051+9999MW1101REMSYN076AAXX  01004 02584 41896 40000 10110 20102 40083 57005 71021 84070 333 84358;EQDQ01    003SCOLCG
0172025840999992000090103004+58400+019200FM-12+001299999V0202901N00101030001CN0040001N1+01221+01141100781ADDAY121031AY211031GA1031+004509089GF108991031021004501071999MD1710051+9999MW1101REMSYN082AAXX  01034 02584 41496 82902 10122 20114 40078 57005 71021 8327/ 333 83815 88358;
0180025840999992000090106004+58400+019200FM-12+001299999V0203201N001012200019N0100001N1+01441+01281100791ADDAA199000021GA1041+005709029GF104991041021004501001001IA1019KA1120N+01101MD1310011+9999REMSYN082AAXX  01064 02584 32497 43202 10144 20128 40079 53001 84200 333 20110 30/// 84819;
0138025840999992000090109004+58400+019200FM-12+001299999V0203201N001012200019N0200001N1+01741+01131100781ADDGA1011+004509029GF101991011021004501001001MD1710011+9999REMSYN070AAXX  01094 02584 42498 13202 10174 20113 40078 57001 81200 333 81894;
0138025840999992000090112004+58400+019200FM-12+001299999V0202901N001012200019N0200001N1+01841+01141100791ADDGA1011+004509029GF101991011021004501001001MD1210011+9999REMSYN070AAXX  01124 02584 42498 12902 10184 20114 40079 52001 81200 333 81815;
0138025840999992000090115004+58400+019200FM-12+001299999V0203201N000512200019N0200001N1+01781+01131100781ADDGA1031+004509029GF103991031021004501001001MD1810011+9999REMSYN070AAXX  01154 02584 42498 33201 10178 20113 40078 58001 83200 333 83894;
0187025840999992000090118004+58400+019200FM-12+001299999V0202901N000512200019N0200001N1+01361+01071100731ADDAA199000091GA1011+999999079GF101991011001999999031001KA1120M+01841MD1710051+9999REMSYN076AAXX  01184 02584 32998 12901 10136 20107 40073 57005 81030 333 10184 81399;EQDQ01  00002PRCP99
0122025840999992000090121004+58400+019200FM-12+001299999V0209999C000012200019N0040001N1+00851+00791100721ADDGA1001+999999999GF100991001001999999001001MD1710011+9999REMSYN054AAXX  01214 02584 42996 00000 10085 20079 40072 57001;
0166025840999992000090200004+58400+019200FM-12+001299999V0209999C000012200019N0040001N1+00751+00701100661ADDAY101061AY201061GA1011+004209069GF101991011061004501001001MD1710061+9999MW1101REMSYN076AAXX  02004 02584 41496 10000 10075 20070 40066 57006 71000 81600 333 81714;
0166025840999992000090203004+58400+019200FM-12+001299999V0201801N000510054019N0040001N1+00741+00691100571ADDAY101031AY201031GA1061+005409029GF106991061021004501001001MD1810091+9999MW1101REMSYN076AAXX  02034 02584 41496 61801 10074 20069 40057 58009 71000 86200 333 86818;
0227025840999992000090206004+58400+019200FM-12+001299999V0201101N000512200019N0040001N1+01101+01051100531ADDAA199000091AY121061AY201061GA1021+004509069GF103991031021004501001001IA1019KA1120N+00731MD1710041+9999MW1101REMSYN088AAXX  02064 02584 31496 31101 10110 20105 40053 57004 71020 83200 333 20073 30/// 82794;EQDQ01  00002PRCP99
0144025840999992000090209004+58400+019200FM-12+001299999V0201801N001510300019N0200001N1+01661+01051100521ADDGA1031+005409089GF106991031021004501031001MD1610011+9999REMSYN076AAXX  02094 02584 42498 61803 10166 20105 40052 56001 83230 333 83818 85399;
0144025840999992000090212004+58400+019200FM-12+001299999V0201401N00101007501CN0200001N1+01861+01041100461ADDGA1031+006609089GF106991061021008001001001MD1710061+9999REMSYN076AAXX  02124 02584 42598 61402 10186 20104 40046 57006 86200 333 83822 84656;
0172025840999992000090215004+58400+019200FM-12+001299999V0200901N00101004201CN0200001N1+01701+01261100391ADDAY181031AY221031GA1011+005409099GF106991061031004501031001MD1710071+9999MW1021REMSYN082AAXX  02154 02584 41498 60902 10170 20126 40039 57007 70282 86330 333 81918 85650;
0221025840999992000090218004+58400+019200FM-12+001299999V0200901N001010240019N0200001N1+01541+01291100401ADDAA112000791AY181061AY221061GA1081+024009079GF108991081999999999071999KA1120M+01881MD1310011+9999MW1021REMSYN088AAXX  02184 02584 11998 80902 10154 20129 40040 53001 69902 70282 8807/ 333 10188 88358;EQDQ01    003SCOLCG
0166025840999992000090221004+58400+019200FM-12+001299999V0200701N00211075001CN0040001N1+01601+01471100331ADDAY121031AY221031GA1081+999999019GF108991081001999999011999MD1810071+9999MW1101REMSYN076AAXX  02214 02584 41996 80704 10160 20147 40033 58007 71022 8801/ 333 88499;
0166025840999992000090300004+58400+019200FM-12+001299999V0200701N00101075001CN0040001N1+01561+01481100201ADDAY121061AY221061GA1081+999999019GF108991081001999999071999MD1710131+9999MW1101REMSYN076AAXX  03004 02584 41996 80702 10156 20148 40020 57013 71022 8807/ 333 88499;
0172025840999992000090303004+58400+019200FM-12+001299999V0200701N002110300019N0040001N1+01561+01481100111ADDAY121031AY221031GA1041+005709079GF108991041071004501021999MD1710091+9999MW1601REMSYN082AAXX  03034 02584 41496 80704 10156 20148 40011 57009 76022 8472/ 333 84719 88599;
0220025840999992000090306004+58400+019200FM-12+001299999V0200701N003610150019N0100001N1+01501+01101100111ADDAA112000391AY121061AY221061GA1061+015009069GF108991061051017501011999IA1099KA1120N+01421MD1510001+9999MW1601REMSYN100AAXX  03064 02584 11797 80707 10150 20110 40011 55000 69932 76022 8651/ 333 20142 31/// 86650 88399;
0172025840999992000090309004+58400+019200FM-12+001299999V0200501N001010057019N0040001N1+01501+01421100161ADDAY161031AY261031GA1061+005709079GF108991061071004501021999MD1310051+9999MW1611REMSYN082AAXX  03094 02584 41496 80502 10150 20142 40016 53005 76166 8672/ 333 86719 88599;
0172025840999992000090312004+58400+019200FM-12+001299999V0203601N003610054019N0040001N1+01461+01401100191ADDAY161061AY261061GA1061+005409079GF108991061071004501021999MD1210031+9999MW1631REMSYN082AAXX  03124 02584 41496 83607 10146 20140 40019 52003 76366 8672/ 333 86718 88599;
0172025840999992000090315004+58400+019200FM-12+001299999V0203601N005110045019N0040001N1+01421+01361100271ADDAY161031AY261031GA1061+004509079GF108991061071004501021999MD1310081+9999MW1631REMSYN082AAXX  03154 02584 41496 83610 10142 20136 40027 53008 76366 8672/ 333 86715 88599;
0208025840999992000090318004+58400+019200FM-12+001299999V0203601N005110036019N0040001N1+01281+01221100411ADDAA112023191AY161061AY261061GA1061+003609079GF108991061071004501021999KA1120M+01541MD1210141+9999MW1631REMSYN094AAXX  03184 02584 11496 83610 10128 20122 40041 52014 60232 76366 8672/ 333 10154 86712 88557;
0133025840999992000090321004+58400+019200FM-12+001299999V0203601N004619999999N0040001N1+01251+01151100501ADDGF108991999999004501999999MD1210091+9999REMSYN081AAXX  03214 02584 41496 83609 10125 20115 40050 52009 7366 86727 333 86714 88550;
0172025840999992000090400004+58400+019200FM-12+001299999V0203601N005110057019N0040001N1+01301+01051100531ADDAY161061AY261061GA1061+005709079GF108991061071004501021999MD1210031+9999MW1601REMSYN082AAXX  04004 02584 41496 83610 10130 20105 40053 52003 76066 8672/ 333 86719 88550;
0166025840999992000090403004+58400+019200FM-12+001299999V0203401N004110066019N0200001N1+01381+00961100581ADDAY161031AY221031GA1081+006609059GF108991081051008001999999MD1210051+9999MW1021REMSYN076AAXX  04034 02584 41598 83408 10138 20096 40058 52005 70262 885// 333 88622;
0214025840999992000090406004+58400+019200FM-12+001299999V0203401N004110105019N0200001N1+01371+00671100721ADDAA112005191AY161061AY221061GA1071+010509059GF107991071051012501999999IA1099KA1120N+01251MD1210141+9999MW1011REMSYN094AAXX  04064 02584 11698 73408 10137 20067 40072 52014 60052 70162 875// 333 20125 31/// 87635;
0138025840999992000090409004+58400+019200FM-12+001299999V0203401N005110075019N0200001N1+01421+00481100821ADDGA1071+007509059GF107991071051008001999999MD1210101+9999REMSYN070AAXX  04094 02584 42598 73410 10142 20048 40082 52010 875// 333 87625;
0138025840999992000090412004+58400+019200FM-12+001299999V0203401N005112200019N0200001N1+01561+00711100981ADDGA1031+009609059GF103991031051008001999999MD1210161+9999REMSYN070AAXX  04124 02584 42598 33410 10156 20071 40098 52016 835// 333 83632;
0138025840999992000090415004+58400+019200FM-12+001299999V0203401N003612200019N0500001N1+01461+00761101101ADDGA1021+008409059GF103991021051008001031001MD1210121+9999REMSYN070AAXX  04154 02584 42599 33407 10146 20076 40110 52012 82530 333 82628;
0187025840999992000090418004+58400+019200FM-12+001299999V0203401N003612200019N0200001N1+01261+00541101191ADDAA199000091GA1021+011109029GF103991021011004501031001KA1120M+01561MD1210091+9999REMSYN076AAXX  04184 02584 32498 33407 10126 20054 40119 52009 82130 333 10156 82837;EQDQ01  00002PRCP99
0138025840999992000090421004+58400+019200FM-12+001299999V0202901N004110063019N0200001N1+01241+00911101221ADDGA1081+006309059GF108991081051008001999999MD1110031+9999REMSYN070AAXX  04214 02584 42598 82908 10124 20091 40122 51003 885// 333 88621;
0138025840999992000090500004+58400+019200FM-12+001299999V0203201N003110063019N0200001N1+01321+00941101231ADDGA1081+006309059GF108991081051008001999999MD1210011+9999REMSYN070AAXX  05004 02584 42598 83206 10132 20094 40123 52001 885// 333 88621;
0138025840999992000090503004+58400+019200FM-12+001299999V0203401N003112200019N0200001N1+01281+00821101301ADDGA1041+004509029GF104991041021004501001001MD1310071+9999REMSYN070AAXX  05034 02584 42498 43406 10128 20082 40130 53007 84200 333 84894;
0199025840999992000090506004+58400+019200FM-12+001299999V0203601N003112200019N0200001N1+01281+00471101411ADDAA199000091GA1021+027009029GF103991021021008001001011IA1019KA1120N+01181MD1210111+9999REMSYN082AAXX  05064 02584 32598 33606 10128 20047 40141 52011 82201 333 20118 30/// 82859;EQDQ01  00002PRCP99
0172025840999992000090509004+58400+019200FM-12+001299999V0203401N00311007501CN0100001N1+01281+00691101531ADDAY121031AY211031GA1031+008409089GF108991081031008001999999MD1210121+9999MW1801REMSYN082AAXX  05094 02584 41597 83406 10128 20069 40153 52012 78021 883// 333 83828 85628;
0166025840999992000090512004+58400+019200FM-12+001299999V0203401N002112200019N0200001N1+01501+00661101581ADDAY181061AY221061GA1041+008409029GF104991041021008001001001MD1110051+9999MW1011REMSYN076AAXX  05124 02584 41598 43404 10150 20066 40158 51005 70182 84200 333 84828;
0122025840999992000090515004+58400+019200FM-12+001299999V0203401N001512200019N0200001N1+01381+00361101631ADDGA1001+999999999GF100991001001999999001001MD1210051+9999REMSYN054AAXX  05154 02584 42998 03403 10138 20036 40163 52005;
0162025840999992000090518004+58400+019200FM-12+001299999V0203401N001012200019N0200001N1+01131+00551101681ADDAA112000391GA1001+999999999GF100991001001999999001001KA1999M+01511MD1210051+9999REMSYN070AAXX  05184 02584 12998 03402 10113 20055 40168 52005 69932 333 10151;
0122025840999992000090521004+58400+019200FM-12+001299999V0203401N001012200019N0200001N1+01591+01321101711ADDGA1001+999999999GF100991001001999999001001MD1110031+9999REMSYN054AAXX  05214 02584 42998 03402 10159 20132 40171 51003;
0122025840999992000090600004+58400+019200FM-12+001299999V0209999C000012200019N0200001N1+01441+01361101681ADDGA1001+999999999GF100991001001999999001001MD1710051+9999REMSYN054AAXX  06004 02584 42998 00000 10144 20136 40168 57005;
0150025840999992000090603004+58400+019200FM-12+001299999V0201801N000512200019N0040001N1+01351+01301101621ADDAY101031AY201031GA1001+999999999GF100991001001999999001001MD1710061+9999MW1101REMSYN060AAXX  06034 02584 41996 01801 10135 20130 40162 57006 71000;
0199025840999992000090606004+58400+019200FM-12+001299999V0201401N000512200019N0100001N1+00661+00621101581ADDAA199000091GA1021+999999079GF102991021001999999031001IA1019KA1120N+00341MD1710041+9999REMSYN082AAXX  06064 02584 32997 21401 10066 20062 40158 57004 82030 333 20034 30/// 82399;EQDQ01  00002PRCP99
0166025840999992000090609004+58400+019200FM-12+001299999V0201401N001010175019N0200001N1+01271+00521101561ADDAY101031AY201031GA1071+017509059GF107991071001017501051999MD1710081+9999MW1601REMSYN076AAXX  06094 02584 41798 71402 10127 20052 40156 57008 76000 8705/ 333 87697;
0166025840999992000090612004+58400+019200FM-12+001299999V0201801N001010180019N0200001N1+01401+00401101501ADDAY161061AY201061GA1081+018009059GF108991081051022501999999MD1710061+9999MW1031REMSYN076AAXX  06124 02584 41898 81802 10140 20040 40150 57006 70360 885// 333 88656;
0138025840999992000090615004+58400+019200FM-12+001299999V0201401N001010069019N0200001N1+01471+00721101411ADDGA1071+006909059GF107991071051012501999999MD1710091+9999REMSYN070AAXX  06154 02584 42698 71402 10147 20072 40141 57009 875// 333 87623;
0174025840999992000090618004+58400+019200FM-12+001299999V0201101N002110150019N0200001N1+01301+00631101351ADDAA112000191GA1081+015009059GF108991081051017501999999KA1120M+01501MD1710061+9999REMSYN082AAXX  06184 02584 12798 81104 10130 20063 40135 57006 69912 885// 333 10150 88650;
0138025840999992000090621004+58400+019200FM-12+001299999V0200901N001010147019N0200001N1+01261+00721101291ADDGA1081+014709059GF108991081051012501999999MD1710061+9999REMSYN070AAXX  06214 02584 42698 80902 10126 20072 40129 57006 885// 333 88649;
0150025840999992000090700004+58400+019200FM-12+001299999V0200901N001512200019N0040001N1+01001+00921101261ADDAY181061AY221061GA1001+999999999GF100991001001999999001001MD1710031+9999MW1101REMSYN060AAXX  07004 02584 41996 00903 10100 20092 40126 57003 71082;
0201025840999992000090703004+58400+019200FM-12+001299999V0201101N001010080019N0040001N1+01041+00961101231ADDAY121031AY211031GA1061+008009059GF106991061051008001001001MD1710031+9999MW1101REMSYN076AAXX  07034 02584 41596 61102 10104 20096 40123 53000 71021 86500 333 86695;EQDQ01+000032APCTENQ02+000002APC3  
0220025840999992000090706004+58400+019200FM-12+001299999V0200901N001510300019N0100001N1+01161+01051101361ADDAA112002091AY121061AY211061GA1041+008709099GF107991041031008001031999IA1099KA1120N+00941MD1310091+9999MW1251REMSYN100AAXX  07064 02584 11597 70903 10116 20105 40136 53009 60022 72521 8433/ 333 20094 31/// 84929 85399;
0166025840999992000090709004+58400+019200FM-12+001299999V0201101N002110063019N0200001N1+01481+01121101501ADDAY121031AY221031GA1051+006309029GF105991051021008001001001MD1210141+9999MW1251REMSYN076AAXX  07094 02584 41598 51104 10148 20112 40150 52014 72522 85200 333 85821;
0166025840999992000090712004+58400+019200FM-12+001299999V0201401N001512200019N0200001N1+01701+00891101561ADDAY181061AY221061GA1011+007209099GF102991011031008001031001MD1110061+9999MW1011REMSYN076AAXX  07124 02584 41598 21403 10170 20089 40156 51006 70182 81330 333 81924;
0138025840999992000090715004+58400+019200FM-12+001299999V0201601N001512200019N0500001N1+01601+00751101601ADDGA1011+999999079GF101991011001999999031001MD1310041+9999REMSYN070AAXX  07154 02584 42999 11603 10160 20075 40160 53004 81030 333 81399;
0174025840999992000090718004+58400+019200FM-12+001299999V0201401N001512200019N0200001N1+01341+00901101661ADDAA112002091GA1011+999999079GF101991011001999999031011KA1120M+01701MD1310061+9999REMSYN082AAXX  07184 02584 12998 11403 10134 20090 40166 53006 60022 81031 333 10170 81399;
0138025840999992000090721004+58400+019200FM-12+001299999V0201601N001512200019N0200001N1+01381+00961101661ADDGA1021+999999019GF102991001001999999001011MD1010001+9999REMSYN070AAXX  07214 02584 42998 21603 10138 20096 40166 50000 80001 333 82099;
0122025840999992000090800004+58400+019200FM-12+001299999V0201401N002612200019N0200001N1+01391+00871101551ADDGA1001+999999999GF100991001001999999001001MD1810111+9999REMSYN054AAXX  08004 02584 42998 01405 10139 20087 40155 58011;
0138025840999992000090803004+58400+019200FM-12+001299999V0201601N003119999999N0200001N1+01431+00991101441ADDGA1081+999999079GF108991081001999999031999MD1710111+9999REMSYN070AAXX  08034 02584 42998 81606 10143 20099 40144 57011 8803/ 333 88399;
0220025840999992000090806004+58400+019200FM-12+001299999V0201601N00361004501CN0040001N1+01411+01301101291ADDAA112000391AY111061AY211061GA1051+004509079GF108991051071004501021999IA1099KA1120N+01311MD1710151+9999MW1611REMSYN100AAXX  08064 02584 11496 81607 10141 20130 40129 57015 69932 76111 8572/ 333 20131 31/// 85794 88597;
0172025840999992000090809004+58400+019200FM-12+001299999V0201601N00411030001CN0100001N1+01491+01361101121ADDAY161031AY261031GA1041+001809079GF108991041071002501021999MD1710171+9999MW1211REMSYN082AAXX  08094 02584 41397 81608 10149 20136 40112 57017 72166 8472/ 333 84706 88533;
0172025840999992000090812004+58400+019200FM-12+001299999V0201801N005110300019N0100001N1+01541+01241101041ADDAY161061AY261061GA1041+006909069GF108991041051008001021999MD1710081+9999MW1601REMSYN082AAXX  08124 02584 41597 81810 10154 20124 40104 57008 76066 8452/ 333 84623 88598;
0172025840999992000090815004+58400+019200FM-12+001299999V0201801N004110300019N0100001N1+01521+01411101021ADDAY161031AY261031GA1041+008709069GF106991041051008001031999MD1710021+9999MW1021REMSYN082AAXX  08154 02584 41597 61808 10152 20141 40102 57002 70266 8453/ 333 84629 83399;
0208025840999992000090818004+58400+019200FM-12+001299999V0202001N004110300019N0100001N1+01481+01371101051ADDAA112000191AY161061AY261061GA1011+012609069GF108991011051012501021999KA1120M+01551MD1310031+9999MW1021REMSYN094AAXX  08184 02584 11697 82008 10148 20137 40105 53003 69912 70266 8152/ 333 10155 81642 88599;
0138025840999992000090821004+58400+019200FM-12+001299999V0202001N004110125019N0100001N1+01501+01421101081ADDGA1071+012509059GF107991071051012501999999MD1110031+9999REMSYN070AAXX  08214 02584 42697 72008 10150 20142 40108 51003 875// 333 87696;
0138025840999992000090900004+58400+019200FM-12+001299999V0202301N003610125019N0200001N1+01501+01251101161ADDGA1071+012509059GF107991071051012501999999MD1310081+9999REMSYN070AAXX  09004 02584 42698 72307 10150 20125 40116 53008 875// 333 87696;
0138025840999992000090903004+58400+019200FM-12+001299999V0202001N003112200019N0200001N1+01421+01121101211ADDGA1011+005409069GF102991011061004501001011MD1110051+9999REMSYN070AAXX  09034 02584 42498 22006 10142 20112 40121 51005 81601 333 81718;
0199025840999992000090906004+58400+019200FM-12+001299999V0202001N004112200019N0200001N1+01431+01071101281ADDAA199000091GA1011+005409059GF102991011051004501001011IA1019KA1120N+01421MD1210071+9999REMSYN082AAXX  09064 02584 32498 22008 10143 20107 40128 52007 81501 333 20142 30/// 81618;EQDQ01  00002PRCP99
0138025840999992000090909004+58400+019200FM-12+001299999V0202001N005112200019N0200001N1+01501+01081101341ADDGA1041+999999019GF104991001001999999001011MD1210061+9999REMSYN070AAXX  09094 02584 42998 42010 10150 20108 40134 52006 80001 333 84099;
0138025840999992000090912004+58400+019200FM-12+001299999V0202301N005112200019N0200001N1+01661+01141101351ADDGA1011+999999019GF101991001001999999001011MD1110011+9999REMSYN070AAXX  09124 02584 42998 12310 10166 20114 40135 51001 80001 333 81099;
0122025840999992000090915004+58400+019200FM-12+001299999V0202001N004612200019N0200001N1+01641+01141101341ADDGA1001+999999999GF100991001001999999001001MD1410001+9999REMSYN054AAXX  09154 02584 42998 02009 10164 20114 40134 54001;
0187025840999992000090918004+58400+019200FM-12+001299999V0202001N004112200019N0200001N1+01531+01261101351ADDAA199000091GA1011+999999019GF101991001001999999001011KA1120M+01681MD1310011+9999REMSYN076AAXX  09184 02584 32998 12008 10153 20126 40135 53001 80001 333 10168 81099;EQDQ01  00002PRCP99
0144025840999992000090921004+58400+019200FM-12+001299999V0202001N003612200019N0200001N1+01521+01381101401ADDGA1011+014109069GF104991011061012501001051MD1210051+9999REMSYN076AAXX  09214 02584 42698 42007 10152 20138 40140 52005 81605 333 81647 84299;
0122025840999992000091000004+58400+019200FM-12+001299999V0202001N004612200019N0200001N1+01371+00911101391ADDGA1001+999999999GF100991001001999999001001MD1010011+9999REMSYN054AAXX  10004 02584 42998 02009 10137 20091 40139 50001;
0122025840999992000091003004+58400+019200FM-12+001299999V0202001N004612200019N0500001N1+01321+00941101341ADDGA1001+999999999GF100991001001999999001001MD1810051+9999REMSYN054AAXX  10034 02584 /4299 02009 10132 20094 40134 58005;
0205025840999992000091006004+58400+019200FM-12+001299999V0202301N004610300019N0200001N1+01321+00981101301ADDAA199000091GA1021+005109079GF108991021061004501011999IA1019KA1120N+01301MD1610041+9999REMSYN088AAXX  10064 02584 32498 82309 10132 20098 40130 56004 8261/ 333 20130 30/// 82717 88499;EQDQ01  00002PRCP99
0144025840999992000091009004+58400+019200FM-12+001299999V0202501N004610300019N0200001N1+01341+00921101271ADDGA1021+005709079GF108991021061004501011999MD1610031+9999REMSYN076AAXX  10094 02584 42498 82509 10134 20092 40127 56003 8261/ 333 82719 88499;
0138025840999992000091012004+58400+019200FM-12+001299999V0202301N00411075001CN0200001N1+01461+01021101271ADDGA1061+999999019GF106991061001999999071001MD1410001+9999REMSYN070AAXX  10124 02584 42998 62308 10146 20102 40127 54000 86070 333 86499;
0138025840999992000091015004+58400+019200FM-12+001299999V0202301N003112200019N0200001N1+01551+01031101221ADDGA1031+999999019GF103991001001999999001011MD1810051+9999REMSYN070AAXX  10154 02584 42998 32306 10155 20103 40122 58005 80001 333 83099;
0187025840999992000091018004+58400+019200FM-12+001299999V0202501N003112200019N0200001N1+01441+01191101191ADDAA199000091GA1011+999999019GF101991001001999999001011KA1120M+01581MD1710031+9999REMSYN076AAXX  10184 02584 32998 12506 10144 20119 40119 57003 80001 333 10158 81099;EQDQ01  00002PRCP99
0122025840999992000091021004+58400+019200FM-12+001299999V0202501N003612200019N0200001N1+01431+00991101231ADDGA1001+999999999GF100991001001999999001001MD1310041+9999REMSYN054AAXX  10214 02584 42998 02507 10143 20099 40123 53004;
0122025840999992000091100004+58400+019200FM-12+001299999V0202501N003112200019N0200001N1+01351+00991101241ADDGA1001+999999999GF100991001001999999001001MD1410001+9999REMSYN054AAXX  11004 02584 42998 02506 10135 20099 40124 54001;
0122025840999992000091103004+58400+019200FM-12+001299999V0202701N002112200019N0200001N1+01271+01041101261ADDGA1001+999999999GF100991001001999999001001MD1110021+9999REMSYN054AAXX  11034 02584 42998 02704 10127 20104 40126 51002;
0199025840999992000091106004+58400+019200FM-12+001299999V0202701N002112200019N0200001N1+01241+01021101271ADDAA199000091GA1011+003909069GF101991011061004501001001IA1019KA1120N+01221MD1110011+9999REMSYN082AAXX  11064 02584 32498 12704 10124 20102 40127 51001 81600 333 20122 30/// 81713;EQDQ01  00002PRCP99
0122025840999992000091109004+58400+019200FM-12+001299999V0202701N002112200019N0200001N1+01411+00641101341ADDGA1001+999999999GF100991001001999999001001MD1310071+9999REMSYN054AAXX  11094 02584 42998 02704 10141 20064 40134 53007;
0122025840999992000091112004+58400+019200FM-12+001299999V0202701N002612200019N0500001N1+01561+00681101341ADDGA1001+999999999GF100991001001999999001001MD1010001+9999REMSYN054AAXX  11124 02584 42999 02705 10156 20068 40134 50000;
0122025840999992000091115004+58400+019200FM-12+001299999V0202701N002612200019N0500001N1+01541+00621101311ADDGA1001+999999999GF100991001001999999001001MD1810031+9999REMSYN054AAXX  11154 02584 42999 02705 10154 20062 40131 58003;
0175025840999992000091118004+58400+019200FM-12+001299999V0202901N003112200019N0200001N1+01411+00571101351ADDAA199000091GA1001+999999999GF100991001001999999001001KA1999M+01621MD1310041+9999REMSYN064AAXX  11184 02584 32998 02906 10141 20057 40135 53004 333 10162;EQDQ01  00002PRCP99
0122025840999992000091121004+58400+019200FM-12+001299999V0203601N001012200019N0200001N1+01261+00761101441ADDGA1001+999999999GF100991001001999999001001MD1210091+9999REMSYN054AAXX  11214 02584 42998 03602 10126 20076 40144 52009;
0138025840999992000091200004+58400+019200FM-12+001299999V0203201N002112200019N0200001N1+01241+00741101471ADDGA1011+999999019GF101991001001999999001011MD1110031+9999REMSYN070AAXX  12004 02584 42998 13204 10124 20074 40147 51003 80001 333 81099;
0122025840999992000091203004+58400+019200FM-12+001299999V0202901N002112200019N0200001N1+01151+00771101521ADDGA1001+999999999GF100991001001999999001001MD1210051+9999REMSYN054AAXX  12034 02584 42998 02904 10115 20077 40152 52005;
0187025840999992000091206004+58400+019200FM-12+001299999V0202901N002112200019N0200001N1+01171+00961101591ADDAA199000091GA1001+999999999GF100991001001999999001001IA1099KA1120N+00831MD1310071+9999REMSYN070AAXX  12064 02584 32998 02904 10117 20096 40159 53007 333 20083 31///;EQDQ01  00002PRCP99
0138025840999992000091209004+58400+019200FM-12+001299999V0202901N001512200019N0500001N1+01361+00961101651ADDGA1011+008009029GF101991011011008001001011MD1210061+9999REMSYN070AAXX  12094 02584 42599 12903 10136 20096 40165 52006 81101 333 81895;
0144025840999992000091212004+58400+019200FM-12+001299999V0203201N001012200019N0500001N1+01501+00911101691ADDGA1021+004509089GF102991021011004501001011MD1210041+9999REMSYN076AAXX  12124 02584 42499 23202 10150 20091 40169 52004 82101 333 82894 81099;
0138025840999992000091215004+58400+019200FM-12+001299999V0203201N000512200019N0500001N1+01461+00801101671ADDGA1011+008009029GF101991011011008001001011MD1810021+9999REMSYN070AAXX  12154 02584 42599 13201 10146 20080 40167 58002 81101 333 81895;
0187025840999992000091218004+58400+019200FM-12+001299999V0209999C000012200019N0200001N1+00841+00551101651ADDAA199000091GA1011+007809029GF101991011011008001001001KA1120M+01501MD1610021+9999REMSYN076AAXX  12184 02584 32598 10000 10084 20055 40165 56002 81100 333 10150 81826;EQDQ01  00002PRCP99
0157025840999992000091221004+58400+019200FM-12+001299999V0203201N000512200019N0200001N1+01021+00861101691ADDGA1011+015009059GF101991011051017501999001MD1310041+9999REMSYN070AAXX  12214 02584 42798 13201 10102 20086 40169 53004 81500 333 81650;EQDQ01    003SCOMCG
0166025840999992000091300004+58400+019200FM-12+001299999V0203601N000512200019N0040001N1+00581+00521101681ADDAY101061AY201061GA1011+999999019GF101991001001999999001011MD1810011+9999MW1101REMSYN076AAXX  13004 02584 41996 13601 10058 20052 40168 58001 71000 80001 333 81099;
0166025840999992000091303004+58400+019200FM-12+001299999V0200201N000512200019N0040001N1+00781+00661101591ADDAY101031AY201031GA1021+006909059GF102991021051008001001001MD1810091+9999MW1101REMSYN076AAXX  13034 02584 41596 20201 10078 20066 40159 58009 71000 82500 333 82623;
0205025840999992000091306004+58400+019200FM-12+001299999V0200201N001012200019N0200001N1+01171+00651101561ADDAA199000091GA1011+007509069GF104991011051008001001011IA1019KA1120N+00551MD1610031+9999REMSYN088AAXX  13064 02584 32598 40202 10117 20065 40156 56003 81501 333 20055 30/// 81625 83099;EQDQ01  00002PRCP99
0144025840999992000091309004+58400+019200FM-12+001299999V0200201N001012200019N0200001N1+01401+00681101601ADDGA1011+008009039GF104991011031008001001011MD1310041+9999REMSYN076AAXX  13094 02584 42598 40202 10140 20068 40160 53004 81301 333 81395 83099;
0144025840999992000091312004+58400+019200FM-12+001299999V0200201N002112200019N0500001N1+01541+00541101581ADDGA1011+008109039GF104991011031008001001011MD1810021+9999REMSYN076AAXX  13124 02584 42599 40204 10154 20054 40158 58002 81301 333 81327 83099;
0144025840999992000091315004+58400+019200FM-12+001299999V0200201N002110750019N0200001N1+01391+00691101571ADDGA1021+007209089GF105991021011008001031011MD1710011+9999REMSYN076AAXX  13154 02584 42598 50204 10139 20069 40157 57001 82131 333 82824 82399;
0138025840999992000091321004+58400+019200FM-12+001299999V0200201N003112200019N0200001N1+01211+00651101661ADDGA1031+008709029GF104991031011008001001011MD1310051+9999REMSYN070AAXX  13214 02584 42598 40206 10121 20065 40166 53005 83101 333 83829;
0138025840999992000091400004+58400+019200FM-12+001299999V0200501N002112200019N0200001N1+01211+00601101701ADDGA1041+009609029GF104991041011008001001001MD1110041+9999REMSYN070AAXX  14004 02584 42598 40504 10121 20060 40170 51004 84100 333 84832;
0138025840999992000091403004+58400+019200FM-12+001299999V0200201N001012200019N0200001N1+01151+00631101721ADDGA1021+008009059GF102991021051008001001001MD1310021+9999REMSYN070AAXX  14034 02584 42598 20202 10115 20063 40172 53002 82500 333 82695;
0215025840999992000091406004+58400+019200FM-12+001299999V0203601N002112200019N0200001N1+01231+00731101791ADDAA199000091GA1021+007809029GF103991999011008001001001IA1019KA1120N+01141MD1210071+9999REMSYN082AAXX  14064 02584 32598 33604 10123 20073 40179 52007 82100 333 20114 30/// 82826;EQDQ01+000022SCOTLCQ02  00002PRCP99
0144025840999992000091409004+58400+019200FM-12+001299999V0200501N002612200019N0500001N1+01421+00481101941ADDGA1021+010509099GF104991021031012501071001MD1310151+9999REMSYN076AAXX  14094 02584 42699 40505 10142 20048 40194 53015 82370 333 82935 82357;
0144025840999992000091412004+58400+019200FM-12+001299999V0200501N002112200019N0500001N1+01501+00581102021ADDGA1011+012509099GF103991011031012501071001MD1210081+9999REMSYN076AAXX  14124 02584 42699 30504 10150 20058 40202 52008 81370 333 81996 82357;
0166025840999992000091415004+58400+019200FM-12+001299999V0203601N001012200019N0200001N1+01381+00461102081ADDAY181031AY221031GA1021+008009029GF102991021021008001001001MD1210061+9999MW1521REMSYN076AAXX  14154 02584 41598 23602 10138 20046 40208 52006 75282 82200 333 82895;
0202025840999992000091418004+58400+019200FM-12+001299999V0203601N001512200019N0200001N1+01171+00521102181ADDAA112000791AY181061AY221061GA1011+009309029GF101991011021008001001001KA1120M+01531MD1310101+9999MW1011REMSYN088AAXX  14184 02584 11598 13603 10117 20052 40218 53010 69902 70182 81200 333 10153 81831;
0138025840999992000091421004+58400+019200FM-12+001299999V0203601N001012200019N0200001N1+01111+00551102261ADDGA1031+008409029GF103991031021008001001001MD1210081+9999REMSYN070AAXX  14214 02584 42598 33602 10111 20055 40226 52008 83200 333 83828;
0138025840999992000091500004+58400+019200FM-12+001299999V0200201N001012200019N0200001N1+01051+00491102301ADDGA1011+009309059GF101991011041008001001001MD1110041+9999REMSYN070AAXX  15004 02584 42598 10202 10105 20049 40230 51004 81400 333 81631;
0138025840999992000091503004+58400+019200FM-12+001299999V0203601N000512200019N0200001N1+01011+00531102311ADDGA1011+012509059GF101991011051012501001001MD1110011+9999REMSYN070AAXX  15034 02584 42698 13601 10101 20053 40231 51001 81500 333 81696;
0215025840999992000091506004+58400+019200FM-12+001299999V0200201N001012200019N0200001N1+01161+00581102381ADDAA199000091GA1021+015009059GF102991021051017501999001IA1019KA1120N+00791MD1310071+9999REMSYN082AAXX  15064 02584 32798 20202 10116 20058 40238 53007 82500 333 20079 30/// 82650;EQDQ01  00002PRCP99Q02    003SCOMCG
0138025840999992000091509004+58400+019200FM-12+001299999V0200501N000512200019N0200001N1+01371+00601102501ADDGA1011+008709059GF102991011051008001031001MD1310121+9999REMSYN070AAXX  15094 02584 42598 20501 10137 20060 40250 53012 81530 333 81629;
0144025840999992000091512004+58400+019200FM-12+001299999V0200501N000510300019N0500001N1+01401+00561102511ADDGA1011+012509099GF106991011031012501071001MD1110011+9999REMSYN076AAXX  15124 02584 42699 60501 10140 20056 40251 51001 81370 333 81996 86356;
0138025840999992000091515004+58400+019200FM-12+001299999V0200501N000512200019N0500001N1+01341+00431102441ADDGA1011+008009059GF101991011051008001001001MD1810071+9999REMSYN070AAXX  15154 02584 42599 10501 10134 20043 40244 58007 81500 333 81695;
0203025840999992000091518004+58400+019200FM-12+001299999V0200901N000512200019N0200001N1+00821+00401102411ADDAA199000091GA1031+015009059GF103991031051017501999001KA1120M+01481MD1710031+9999REMSYN076AAXX  15184 02584 32798 30901 10082 20040 40241 57003 83500 333 10148 83650;EQDQ01  00002PRCP99Q02    003SCOMCG
0157025840999992000091521004+58400+019200FM-12+001299999V0200901N001012200019N0200001N1+00481+00411102431ADDGA1041+015009059GF104991041051017501999001MD1310021+9999REMSYN070AAXX  15214 02584 42798 40902 10048 20041 40243 53002 84500 333 84650;EQDQ01    003SCOMCG
0138025840999992000091600004+58400+019200FM-12+001299999V0201101N000512200019N0200001N1+00381+00321102381ADDGA1011+017509029GF101991011011017501001001MD1810051+9999REMSYN070AAXX  16004 02584 42798 11101 10038 20032 40238 58005 81100 333 81897;
0122025840999992000091603004+58400+019200FM-12+001299999V0201101N001012200019N0200001N1+00271+00211102281ADDGA1001+999999999GF100991001001999999001001MD1710101+9999REMSYN054AAXX  16034 02584 42998 01102 10027 20021 40228 57010;
0199025840999992000091606004+58400+019200FM-12+001299999V0200901N000512200019N0200001N1+00561+00521102211ADDAA199000091GA1041+012009029GF104991041021012501001001IA1019KA1120N+00241MD1710071+9999REMSYN082AAXX  16064 02584 32698 40901 10056 20052 40221 57007 84200 333 20024 30/// 84840;EQDQ01  00002PRCP99
0138025840999992000091609004+58400+019200FM-12+001299999V0201101N000512200019N0500001N1+01311+00381102181ADDGA1031+010209029GF103991031021012501001001MD1610031+9999REMSYN070AAXX  16094 02584 42699 31101 10131 20038 40218 56003 83200 333 83834;
0138025840999992000091612004+58400+019200FM-12+001299999V0201101N002112200019N0500001N1+01491+00401102071ADDGA1031+009909029GF103991031021012501001001MD1810111+9999REMSYN070AAXX  16124 02584 42699 31104 10149 20040 40207 58011 83200 333 83833;
0138025840999992000091615004+58400+019200FM-12+001299999V0201401N002112200019N0500001N1+01341+00271101981ADDGA1011+012509029GF101991011011012501001001MD1710091+9999REMSYN070AAXX  16154 02584 42699 11404 10134 20027 40198 57009 81100 333 81896;
0203025840999992000091618004+58400+019200FM-12+001299999V0201101N001012200019N0200001N1+00771+00211101981ADDAA199000091GA1011+010809029GF101991011011012501001001KA1120M+01561MD1410001+9999REMSYN076AAXX  16184 02584 32698 11102 10077 20021 40198 56000 81100 333 10156 81836;EQDQ01+000062APCTENQ02  00002PRCP99
0138025840999992000091621004+58400+019200FM-12+001299999V0201101N001512200019N0200001N1+00641+00471102021ADDGA1011+009609059GF101991011051008001001001MD1310041+9999REMSYN070AAXX  16214 02584 42598 11103 10064 20047 40202 53004 81500 333 81632;
0138025840999992000091700004+58400+019200FM-12+001299999V0201401N001510147019N0200001N1+01141+00491101971ADDGA1051+014709059GF105991051051012501001001MD1810051+9999REMSYN070AAXX  17004 02584 42698 51403 10114 20049 40197 58005 85500 333 85649;
0138025840999992000091703004+58400+019200FM-12+001299999V0201401N001512200019N0200001N1+01161+00381102001ADDGA1031+010809059GF103991031051012501001001MD1310031+9999REMSYN070AAXX  17034 02584 42698 31403 10116 20038 40200 53003 83500 333 83636;
0199025840999992000091706004+58400+019200FM-12+001299999V0201401N001012200019N0200001N1+00981+00371102051ADDAA199000091GA1011+012009059GF101991011051012501001001IA1019KA1120N+00551MD1310051+9999REMSYN082AAXX  17064 02584 32698 11402 10098 20037 40205 53005 81500 333 20055 30/// 81640;EQDQ01  00002PRCP99
0138025840999992000091709004+58400+019200FM-12+001299999V0201101N002112200019N0500001N1+01331+00341102121ADDGA1021+011409059GF102991021051012501001001MD1110071+9999REMSYN070AAXX  17094 02584 42699 21104 10133 20034 40212 51007 82500 333 82638;
0122025840999992000091712004+58400+019200FM-12+001299999V0201401N002112200019N0500001N1+01411+00331102131ADDGA1001+999999999GF100991001001999999001001MD1010011+9999REMSYN054AAXX  17124 02584 42999 01404 10141 20033 40213 50001;
0122025840999992000091715004+58400+019200FM-12+001299999V0201801N002112200019N0500001N1+01311+00321102091ADDGA1001+999999999GF100991001001999999001001MD1710041+9999REMSYN054AAXX  17154 02584 42999 01804 10131 20032 40209 57004;
0175025840999992000091718004+58400+019200FM-12+001299999V0201401N001012200019N0500001N1+00921+00381102141ADDAA199000091GA1001+999999999GF100991001001999999001001KA1999M+01511MD1310051+9999REMSYN064AAXX  17184 02584 32999 01402 10092 20038 40214 53005 333 10151;EQDQ01  00002PRCP99
0122025840999992000091721004+58400+019200FM-12+001299999V0201401N001512200019N0200001N1+00621+00551102141ADDGA1001+999999999GF100991001001999999001001MD1410001+9999REMSYN054AAXX  17214 02584 43998 01403 10062 20055 40214 54000;
0122025840999992000091803004+58400+019200FM-12+001299999V0201801N002612200019N0200001N1+01181+00621102101ADDGA1001+999999999GF100991001001999999001001MD1610011+9999REMSYN054AAXX  18034 02584 42998 01805 10118 20062 40210 56001;
0199025840999992000091806004+58400+019200FM-12+001299999V0201601N002110084019N0200001N1+01121+00611102221ADDAA199000091GA1051+008409029GF105991051021008001001001IA1019KA1120N+00551MD1310121+9999REMSYN082AAXX  18064 02584 32598 51604 10112 20061 40222 53012 85200 333 20055 30/// 85828;EQDQ01  00002PRCP99
0138025840999992000091809004+58400+019200FM-12+001299999V0201401N002612200019N0200001N1+01351+00491102281ADDGA1011+009309029GF101991011011008001001001MD1110061+9999REMSYN070AAXX  18094 02584 42598 11405 10135 20049 40228 51006 81100 333 81831;
0122025840999992000091812004+58400+019200FM-12+001299999V0201101N002612200019N0200001N1+01391+00421102221ADDGA1001+999999999GF100991001001999999001001MD1810061+9999REMSYN054AAXX  18124 02584 42998 01105 10139 20042 40222 58006;
0138025840999992000091815004+58400+019200FM-12+001299999V0200901N002112200019N0200001N1+01311+00431102161ADDGA1011+008009029GF101991011011008001001001MD1710061+9999REMSYN070AAXX  18154 02584 42598 10904 10131 20043 40216 57006 81100 333 81895;
0187025840999992000091818004+58400+019200FM-12+001299999V0200901N001512200019N0200001N1+00721+00331102171ADDAA199000091GA1041+008709059GF104991041051008001001001KA1120M+01441MD1310011+9999REMSYN076AAXX  18184 02584 32598 40903 10072 20033 40217 53001 84500 333 10144 84629;EQDQ01  00002PRCP99
0122025840999992000091821004+58400+019200FM-12+001299999V0201101N001012200019N0100001N1+00461+00391102201ADDGA1001+999999999GF100991001001999999001001MD1310031+9999REMSYN054AAXX  18214 02584 42997 01102 10046 20039 40220 53003;
0138025840999992000091900004+58400+019200FM-12+001299999V0201401N001512200019N0100001N1+00651+00531102211ADDGA1031+011709059GF103991031051012501001001MD1210011+9999REMSYN070AAXX  19004 02584 42697 31403 10065 20053 40221 52001 83500 333 83639;
0138025840999992000091903004+58400+019200FM-12+001299999V0201101N001512200019N0100001N1+00531+00411102251ADDGA1031+012609059GF103991031051012501001001MD1310041+9999REMSYN070AAXX  19034 02584 42697 31103 10053 20041 40225 53004 83500 333 83642;
0199025840999992000091906004+58400+019200FM-12+001299999V0201101N001010114019N0100001N1+00801+00681102341ADDAA199000091GA1051+011409059GF105991051051012501001001IA1019KA1120N+00421MD1310091+9999REMSYN082AAXX  19064 02584 32697 51102 10080 20068 40234 53009 85500 333 20042 30/// 85638;EQDQ01  00002PRCP99
0138025840999992000091909004+58400+019200FM-12+001299999V0201101N001512200019N0500001N1+01401+00351102401ADDGA1021+011409059GF102991021051012501001001MD1110061+9999REMSYN070AAXX  19094 02584 42699 21103 10140 20035 40240 51006 82500 333 82638;
0138025840999992000091912004+58400+019200FM-12+001299999V0200501N002112200019N0500001N1+01581+00391102381ADDGA1011+011109059GF101991011051012501001001MD1810021+9999REMSYN070AAXX  19124 02584 42699 10504 10158 20039 40238 58002 81500 333 81637;
0138025840999992000091915004+58400+019200FM-12+001299999V0200501N001510093019N0500001N1+01371+00451102351ADDGA1051+009309059GF105991051051008001001001MD1810031+9999REMSYN070AAXX  19154 02584 42599 50503 10137 20045 40235 58003 85500 333 85631;
0187025840999992000091918004+58400+019200FM-12+001299999V0200501N002112200019N0200001N1+01061+00521102341ADDAA199000091GA1021+009009029GF102991021011008001001001KA1120M+01581MD1710011+9999REMSYN076AAXX  19184 02584 32598 20504 10106 20052 40234 57001 82100 333 10158 82830;EQDQ01  00002PRCP99
0122025840999992000091921004+58400+019200FM-12+001299999V0200901N001512200019N0200001N1+01041+00751102331ADDGA1001+999999999GF100991001001999999001001MD1710011+9999REMSYN054AAXX  19214 02584 42998 00903 10104 20075 40233 57001;
0122025840999992000092000004+58400+019200FM-12+001299999V0200701N001012200019N0100001N1+00851+00771102371ADDGA1001+999999999GF100991001001999999001001MD1310041+9999REMSYN054AAXX  20004 02584 42997 00702 10085 20077 40237 53004;
0122025840999992000092003004+58400+019200FM-12+001299999V0200501N002612200019N0200001N1+01131+00911102351ADDGA1001+999999999GF100991001001999999001001MD1810021+9999REMSYN054AAXX  20034 02584 42998 00505 10113 20091 40235 58002;
0199025840999992000092006004+58400+019200FM-12+001299999V0200501N002112200019N0200001N1+01241+01021102371ADDAA199000091GA1011+004509029GF101991011011004501001001IA1019KA1120N+00821MD1310021+9999REMSYN082AAXX  20064 02584 32498 10504 10124 20102 40237 53002 81100 333 20082 30/// 81815;EQDQ01  00002PRCP99
0138025840999992000092009004+58400+019200FM-12+001299999V0200701N002112200019N0200001N1+01431+00781102441ADDGA1011+004509029GF101991011011004501001001MD1310071+9999REMSYN070AAXX  20094 02584 42498 10704 10143 20078 40244 53007 81100 333 81815;
0122025840999992000092012004+58400+019200FM-12+001299999V0200501N002112200019N0200001N1+01601+00561102501ADDGA1001+999999999GF100991001001999999001001MD1210061+9999REMSYN054AAXX  20124 02584 42998 00504 10160 20056 40250 52006;
0122025840999992000092015004+58400+019200FM-12+001299999V0200501N002112200019N0200001N1+01491+00701102491ADDGA1001+999999999GF100991001001999999001001MD1310011+9999REMSYN054AAXX  20154 02584 42998 00504 10149 20070 40249 53001;
0175025840999992000092018004+58400+019200FM-12+001299999V0200501N002612200019N0200001N1+01181+00781102511ADDAA199000091GA1001+999999999GF100991001001999999001001KA1999M+01621MD1210021+9999REMSYN064AAXX  20184 02584 32998 00505 10118 20078 40251 52002 333 10162;EQDQ01  00002PRCP99
0138025840999992000092021004+58400+019200FM-12+001299999V0200501N002112200019N0200001N1+01161+00871102571ADDGA1031+005709029GF103991031011004501001001MD1310061+9999REMSYN070AAXX  20214 02584 42498 30504 10116 20087 40257 53006 83100 333 83819;
0138025840999992000092100004+58400+019200FM-12+001299999V0200201N001510054019N0100001N1+01201+01041102631ADDGA1061+005409029GF106991061021004501001001MD1210061+9999REMSYN070AAXX  21004 02584 42497 60203 10120 20104 40263 52006 86200 333 86818;
0166025840999992000092103004+58400+019200FM-12+001299999V0200501N001012200019N0040001N1+01201+01121102621ADDAY121031AY221031GA1041+003609029GF104991041021004501001001MD1810011+9999MW1101REMSYN076AAXX  21034 02584 41496 40502 10120 20112 40262 58001 71022 84200 333 84812;
0199025840999992000092106004+58400+019200FM-12+001299999V0200701N002112200019N0200001N1+01201+01011102651ADDAA199000091GA1041+004809029GF104991041021004501001001IA1019KA1120N+01121MD1310031+9999REMSYN082AAXX  21064 02584 32498 40704 10120 20101 40265 53003 84200 333 20112 30/// 84816;EQDQ01  00002PRCP99
0144025840999992000092109004+58400+019200FM-12+001299999V0200701N003112200019N0200001N1+01401+00751102791ADDGA1021+005409089GF105991021021004501001081MD1310141+9999REMSYN076AAXX  21094 02584 42498 50706 10140 20075 40279 53014 82208 333 82818 84299;
0138025840999992000092112004+58400+019200FM-12+001299999V0200701N003110081019N0200001N1+01481+00621102871ADDGA1051+008109029GF105991051021008001001001MD1210081+9999REMSYN070AAXX  21124 02584 42598 50706 10148 20062 40287 52008 85200 333 85827;
0138025840999992000092115004+58400+019200FM-12+001299999V0200501N003612200019N0200001N1+01321+00601102861ADDGA1041+008409029GF104991041021008001001001MD1810011+9999REMSYN070AAXX  21154 02584 42598 40507 10132 20060 40286 58001 84200 333 84828;
0187025840999992000092118004+58400+019200FM-12+001299999V0200501N003612200019N0200001N1+01191+00671102891ADDAA199000091GA1031+008409029GF103991031021008001001001KA1120M+01501MD1210031+9999REMSYN076AAXX  21184 02584 32598 30507 10119 20067 40289 52003 83200 333 10150 83828;EQDQ01  00002PRCP99
0122025840999992000092121004+58400+019200FM-12+001299999V0200701N002112200019N0200001N1+01181+00701103051ADDGA1001+999999999GF100991001001999999001001MD1310161+9999REMSYN054AAXX  21214 02584 42998 00704 10118 20070 40305 53016;
0122025840999992000092200004+58400+019200FM-12+001299999V0200901N001512200019N0200001N1+00801+00431103151ADDGA1001+999999999GF100991001001999999001001MD1610101+9999REMSYN054AAXX  22004 02584 42998 00903 10080 20043 40315 56010;
0138025840999992000092203004+58400+019200FM-12+001299999V0200901N001512200019N0200001N1+00621+00561103191ADDGA1011+008009029GF101991011011008001001001MD1210041+9999REMSYN070AAXX  22034 02584 42598 10903 10062 20056 40319 52004 81100 333 81895;
0199025840999992000092206004+58400+019200FM-12+001299999V0200901N002112200019N0200001N1+00981+00761103271ADDAA199000091GA1031+009909029GF103991031021008001001001IA1019KA1120N+00501MD1310081+9999REMSYN082AAXX  22064 02584 32598 30904 10098 20076 40327 53008 83200 333 20050 30/// 83833;EQDQ01  00002PRCP99
0144025840999992000092209004+58400+019200FM-12+001299999V0200901N002112200019N0200001N1+01301+00441103401ADDGA1021+009909089GF105991021021008001001011MD1210131+9999REMSYN076AAXX  22094 02584 42598 50904 10130 20044 40340 52013 82201 333 82833 83099;
0144025840999992000092212004+58400+019200FM-12+001299999V0201101N001512200019N0200001N1+01441+00471103431ADDGA1011+008009089GF104991011011008001001011MD1110031+9999REMSYN076AAXX  22124 02584 42598 41103 10144 20047 40343 51003 81101 333 81895 83099;
0138025840999992000092215004+58400+019200FM-12+001299999V0201401N001012200019N0200001N1+01341+00351103371ADDGA1041+999999019GF104991001001999999001011MD1810031+9999REMSYN070AAXX  22154 02584 42998 41402 10134 20035 40337 58003 80001 333 84099;
0187025840999992000092218004+58400+019200FM-12+001299999V0201101N001019999999N0200001N1+00621+00301103401ADDAA199000091GA1051+999999089GF105991001001999999001081KA1120M+01451MD1310031+9999REMSYN076AAXX  22184 02584 32998 51102 10062 20030 40340 53003 80008 333 10145 85299;EQDQ01  00002PRCP99
0122025840999992000092221004+58400+019200FM-12+001299999V0201101N001512200019N0100001N1+00441+00371103461ADDGA1001+999999999GF100991001001999999001001MD1210061+9999REMSYN054AAXX  22214 02584 42997 01103 10044 20037 40346 52006;
0150025840999992000092300004+58400+019200FM-12+001299999V0201401N001012200019N0040001N1+00401+00341103531ADDAY121061AY201061GA1001+999999999GF100991001001999999001001MD1210071+9999MW1101REMSYN060AAXX  23004 02584 41996 01402 10040 20034 40353 52007 71020;
0150025840999992000092303004+58400+019200FM-12+001299999V0201401N001012200019N0040001N1+00341+00311103521ADDAY101031AY201031GA1001+999999999GF100991001001999999001001MD1810011+9999MW1101REMSYN060AAXX  23034 02584 41996 01402 10034 20031 40352 58001 71000;
0187025840999992000092306004+58400+019200FM-12+001299999V0209999C000012200019N0200001N1+00381+00341103571ADDAA199000091GA1001+999999999GF100991001001999999001001IA1019KA1120N+00301MD1310051+9999REMSYN070AAXX  23064 02584 32998 00000 10038 20034 40357 53005 333 20030 30///;EQDQ01  00002PRCP99
0122025840999992000092309004+58400+019200FM-12+001299999V0209999C000012200019N0200001N1+01301+00471103681ADDGA1001+999999999GF100991001001999999001001MD1310111+9999REMSYN054AAXX  23094 02584 42998 00000 10130 20047 40368 53011;
0122025840999992000092321004+58400+019200FM-12+001299999V0201401N000512200019N0200001N1+00391+00321103561ADDGA1001+999999999GF100991001001999999001001MD1210041+9999REMSYN054AAXX  23214 02584 42998 01401 10039 20032 40356 52004;
0122025840999992000092400004+58400+019200FM-12+001299999V0201101N001012200019N0200001N1+00331+00291103541ADDGA1001+999999999GF100991001001999999001001MD1810021+9999REMSYN054AAXX  24004 02584 42998 01102 10033 20029 40354 58002;
0122025840999992000092403004+58400+019200FM-12+001299999V0200901N000512200019N0100001N1+00311+00271103481ADDGA1001+999999999GF100991001001999999001001MD1710061+9999REMSYN054AAXX  24034 02584 42997 00901 10031 20027 40348 57006;
0199025840999992000092406004+58400+019200FM-12+001299999V0200901N000512200019N0200001N1+00381+00341103461ADDAA199000091GA1021+999999019GF102991001001999999001011IA1019KA1120N+00291MD1610021+9999REMSYN082AAXX  24064 02584 32998 20901 10038 20034 40346 56002 80001 333 20029 30/// 82099;EQDQ01  00002PRCP99
0138025840999992000092409004+58400+019200FM-12+001299999V0201801N000512200019N0500001N1+01381+00711103451ADDGA1011+008009029GF102991011011008001001011MD1710011+9999REMSYN070AAXX  24094 02584 42599 21801 10138 20071 40345 57001 81101 333 81895;
0138025840999992000092412004+58400+019200FM-12+001299999V0202301N001512200019N0500001N1+01521+00771103401ADDGA1021+008009029GF104991021021008001001011MD1810051+9999REMSYN070AAXX  24124 02584 42599 42303 10152 20077 40340 58005 82201 333 82895;
0138025840999992000092415004+58400+019200FM-12+001299999V0201801N001512200019N0500001N1+01391+00671103281ADDGA1031+999999019GF103991001001999999001011MD1710121+9999REMSYN070AAXX  24154 02584 42999 31803 10139 20067 40328 57012 80001 333 83099;
0187025840999992000092418004+58400+019200FM-12+001299999V0201801N001512200019N0500001N1+00721+00471103231ADDAA199000091GA1041+999999019GF104991001001999999001011KA1120M+01681MD1610051+9999REMSYN076AAXX  24184 02584 32999 41803 10072 20047 40323 56005 80001 333 10168 84099;EQDQ01  00002PRCP99
0122025840999992000092421004+58400+019200FM-12+001299999V0201801N001512200019N0100001N1+00541+00471103191ADDGA1001+999999999GF100991001001999999001001MD1710041+9999REMSYN054AAXX  24214 02584 42997 01803 10054 20047 40319 57004;
0122025840999992000092500004+58400+019200FM-12+001299999V0202301N002112200019N0100001N1+00501+00431103151ADDGA1001+999999999GF100991001001999999001001MD1710041+9999REMSYN054AAXX  25004 02584 42997 02304 10050 20043 40315 57004;
0150025840999992000092503004+58400+019200FM-12+001299999V0202001N001512200019N0040001N1+00381+00341103071ADDAY101031AY201031GA1001+999999999GF100991001001999999001001MD1710081+9999MW1101REMSYN060AAXX  25034 02584 41996 02003 10038 20034 40307 57008 71000;
0227025840999992000092506004+58400+019200FM-12+001299999V0202701N001012200019N0040001N1+00641+00581103031ADDAA199000091AY101061AY201061GA1021+003309029GF102991021021004501001001IA1019KA1120N+00321MD1710041+9999MW1101REMSYN088AAXX  25064 02584 31496 22702 10064 20058 40303 57004 71000 82200 333 20032 30/// 82811;EQDQ01  00002PRCP99
0122025840999992000092509004+58400+019200FM-12+001299999V0203201N001012200019N0200001N1+01281+00801103071ADDGA1001+999999999GF100991001001999999001001MD1310041+9999REMSYN054AAXX  25094 02584 42998 03202 10128 20080 40307 53004;
0138025840999992000092512004+58400+019200FM-12+001299999V0202901N001512200019N0200001N1+01481+00831103001ADDGA1031+999999019GF103991001001999999001011MD1810071+9999REMSYN070AAXX  25124 02584 42998 32903 10148 20083 40300 58007 80001 333 83099;
0122025840999992000092515004+58400+019200FM-12+001299999V0203201N001012200019N0200001N1+01341+00711102911ADDGA1001+999999999GF100991001001999999001001MD1710091+9999REMSYN054AAXX  25154 02584 42998 03202 10134 20071 40291 57009;
0175025840999992000092518004+58400+019200FM-12+001299999V0201601N000512200019N0200001N1+00641+00491102871ADDAA199000091GA1001+999999999GF100991001001999999001001KA1999M+01521MD1710041+9999REMSYN064AAXX  25184 02584 32998 01601 10064 20049 40287 57004 333 10152;EQDQ01  00002PRCP99
0122025840999992000092521004+58400+019200FM-12+001299999V0202001N001012200019N0100001N1+00421+00361102901ADDGA1001+999999999GF100991001001999999001001MD1310031+9999REMSYN054AAXX  25214 02584 42997 02002 10042 20036 40290 53003;
0150025840999992000092600004+58400+019200FM-12+001299999V0202301N001012200019N0040001N1+00401+00341102891ADDAY101061AY201061GA1001+999999999GF100991001001999999001001MD1710011+9999MW1101REMSYN060AAXX  26004 02584 41996 02302 10040 20034 40289 57001 71000;
0150025840999992000092603004+58400+019200FM-12+001299999V0202701N001012200019N0040001N1+00351+00291102831ADDAY101031AY201031GA1001+999999999GF100991001001999999001001MD1810061+9999MW1101REMSYN060AAXX  26034 02584 41996 02702 10035 20029 40283 58006 71000;
0215025840999992000092606004+58400+019200FM-12+001299999V0202701N001012200019N0040001N1+00391+00351102861ADDAA199000091AY101061AY201061GA1001+999999999GF100991001001999999001001IA1019KA1120N+00351MD1310031+9999MW1101REMSYN076AAXX  26064 02584 31996 02702 10039 20035 40286 53003 71000 333 20035 30///;EQDQ01  00002PRCP99
0122025840999992000092609004+58400+019200FM-12+001299999V0202501N001012200019N0500001N1+01301+00651102871ADDGA1001+999999999GF100991001001999999001001MD1110011+9999REMSYN054AAXX  26094 02584 42999 02502 10130 20065 40287 51001;
0122025840999992000092612004+58400+019200FM-12+001299999V0202701N001012200019N0500001N1+01451+00551102851ADDGA1001+999999999GF100991001001999999001001MD1810021+9999REMSYN054AAXX  26124 02584 42999 02702 10145 20055 40285 58002;
0122025840999992000092615004+58400+019200FM-12+001299999V0203401N000512200019N0500001N1+01341+00481102751ADDGA1001+999999999GF100991001001999999001001MD1710101+9999REMSYN054AAXX  26154 02584 42999 03401 10134 20048 40275 57010;
0187025840999992000092618004+58400+019200FM-12+001299999V0201801N001012200019N0200001N1+00621+00361102731ADDAA199000091GA1041+999999089GF104991001001999999001081KA1120M+01501MD1610021+9999REMSYN076AAXX  26184 02584 32998 41802 10062 20036 40273 56002 80008 333 10150 84299;EQDQ01  00002PRCP99
0166025840999992000092621004+58400+019200FM-12+001299999V0201601N001019999999N0040001N1+00481+00421102691ADDAY121031AY221031GA1051+999999079GF105991051001999999031001MD1710041+9999MW1101REMSYN076AAXX  26214 02584 41996 51602 10048 20042 40269 57004 71022 85030 333 85399;
0166025840999992000092700004+58400+019200FM-12+001299999V0201601N001019999999N0040001N1+00701+00641102631ADDAY121061AY221061GA1081+999999079GF108991081001999999071999MD1710061+9999MW1101REMSYN076AAXX  27004 02584 41996 81602 10070 20064 40263 57006 71022 8807/ 333 88399;
0166025840999992000092703004+58400+019200FM-12+001299999V0201601N001010180019N0040001N1+00721+00661102561ADDAY121031AY221031GA1081+018009059GF108991081051017501999999MD1710071+9999MW1101REMSYN076AAXX  27034 02584 41796 81602 10072 20066 40256 57007 71022 885// 333 88656;
0227025840999992000092706004+58400+019200FM-12+001299999V0201601N001010150019N0040001N1+00681+00611102511ADDAA199000091AY121061AY221061GA1081+015009059GF108991081051017501999999IA1019KA1120N+00421MD1710051+9999MW1101REMSYN088AAXX  27064 02584 31796 81602 10068 20061 40251 57005 71022 885// 333 20042 30/// 88650;EQDQ01  00002PRCP99
0138025840999992000092709004+58400+019200FM-12+001299999V0200701N000512200019N0200001N1+01381+00861102461ADDGA1031+006009029GF103991031021008001001001MD1710051+9999REMSYN070AAXX  27094 02584 42598 30701 10138 20086 40246 57005 83200 333 83820;
0138025840999992000092712004+58400+019200FM-12+001299999V0201101N001012200019N0200001N1+01541+00791102321ADDGA1031+006609029GF103991031021008001001001MD1710141+9999REMSYN070AAXX  27124 02584 42598 31102 10154 20079 40232 57014 83200 333 83822;
0138025840999992000092715004+58400+019200FM-12+001299999V0201101N001012200019N0200001N1+01431+00731102211ADDGA1011+999999079GF101991011001999999031001MD1710111+9999REMSYN070AAXX  27154 02584 42998 11102 10143 20073 40221 57011 81030 333 81399;
0187025840999992000092718004+58400+019200FM-12+001299999V0201601N001012200019N0200001N1+00981+00821102141ADDAA199000091GA1011+999999079GF101991011001999999071001KA1120M+01581MD1710071+9999REMSYN076AAXX  27184 02584 32998 11602 10098 20082 40214 57007 81070 333 10158 81399;EQDQ01  00002PRCP99
0122025840999992000092721004+58400+019200FM-12+001299999V0201601N001512200019N0200001N1+01101+00961102021ADDGA1001+999999999GF100991001001999999001001MD1710121+9999REMSYN054AAXX  27214 02584 42998 01603 10110 20096 40202 57012;
0138025840999992000092800004+58400+019200FM-12+001299999V0201601N002110150019N0200001N1+01341+00961101911ADDGA1081+015009059GF108991081051017501999999MD1710111+9999REMSYN070AAXX  28004 02584 42798 81604 10134 20096 40191 57011 885// 333 88650;
0138025840999992000092803004+58400+019200FM-12+001299999V0201601N002119999999N0200001N1+01341+01041101771ADDGA1051+999999079GF105991051001999999031001MD1710141+9999REMSYN070AAXX  28034 02584 42998 51604 10134 20104 40177 57014 85030 333 85399;
0215025840999992000092806004+58400+019200FM-12+001299999V0201401N002110210019N0200001N1+01371+01221101721ADDAA199000091GA1051+021009059GF106991051051022501999011IA1019KA1120N+00911MD1710051+9999REMSYN082AAXX  28064 02584 32898 61404 10137 20122 40172 57005 85501 333 20091 30/// 85657;EQDQ01+000002SCOMCGQ02  00002PRCP99
0172025840999992000092809004+58400+019200FM-12+001299999V0201601N002610210019N0200001N1+01441+01121101681ADDAY121031AY221031GA1051+021009069GF108991051051022501031999MD1710041+9999MW1601REMSYN082AAXX  28094 02584 41898 81605 10144 20112 40168 57004 76022 8553/ 333 85657 88399;
0185025840999992000092812004+58400+019200FM-12+001299999V0201801N002110240019N0200001N1+01471+01031101601ADDAY161061AY221061GA1071+024009079GF107991071999999999071001MD1710081+9999MW1021REMSYN076AAXX  28124 02584 41998 71804 10147 20103 40160 57008 70262 87070 333 87358;EQDQ01    003SCOLCG
0138025840999992000092815004+58400+019200FM-12+001299999V0201401N003110147019N0200001N1+01411+00991101541ADDGA1051+014709059GF105991051051012501001001MD1710061+9999REMSYN070AAXX  28154 02584 42698 51406 10141 20099 40154 57006 85500 333 85649;
0174025840999992000092818004+58400+019200FM-12+001299999V0201801N003612200019N0200001N1+01411+01151101511ADDAA112000791GA1041+999999019GF104991001001999999001011KA1120M+01481MD1710031+9999REMSYN082AAXX  28184 02584 12998 41807 10141 20115 40151 57003 69902 80001 333 10148 84099;
0150025840999992000092821004+58400+019200FM-12+001299999V0201801N003112200019N0040001N1+01411+01031101481ADDAY121031AY221031GA1001+999999999GF100991001001999999001001MD1710031+9999MW1101REMSYN060AAXX  28214 02584 41996 01806 10141 20103 40148 57003 71022;
0150025840999992000092900004+58400+019200FM-12+001299999V0201801N003112200019N0040001N1+01401+01021101471ADDAY121061AY221061GA1001+999999999GF100991001001999999001001MD1710011+9999MW1101REMSYN060AAXX  29004 02584 41996 01806 10140 20102 40147 57001 71022;
0150025840999992000092903004+58400+019200FM-12+001299999V0201801N003112200019N0020001N1+01441+01331101421ADDAY101031AY201031GA1001+999999999GF100991001001999999001001MD1710051+9999MW1101REMSYN060AAXX  29034 02584 41995 01806 10144 20133 40142 57005 71000;
0227025840999992000092906004+58400+019200FM-12+001299999V0201801N003110300019N0020001N1+01471+01371101451ADDAA199000091AY101061AY201061GA1081+030009079GF108991081001999999071999IA1019KA1120N+01391MD1310041+9999MW1101REMSYN088AAXX  29064 02584 31995 81806 10147 20137 40145 53004 71000 8807/ 333 20139 30/// 88360;EQDQ01  00002PRCP99
0185025840999992000092909004+58400+019200FM-12+001299999V0201801N003610210019N0040001N1+01521+01411101551ADDAY121031AY221031GA1071+021009079GF107991071999022501071999MD1210101+9999MW1211REMSYN076AAXX  29094 02584 41896 71807 10152 20141 40155 52010 72122 8707/ 333 87357;EQDQ01+000002SCOLCG
0138025840999992000092912004+58400+019200FM-12+001299999V0201801N003119999999N0100001N1+01571+01411101651ADDGA1081+999999079GF108991081001999999071999MD1210101+9999REMSYN070AAXX  29124 02584 42997 81806 10157 20141 40165 52010 8807/ 333 88399;
0138025840999992000092915004+58400+019200FM-12+001299999V0201801N003110360019N0100001N1+01501+01371101691ADDGA1071+036009079GF107991071001999999071999MD1210041+9999REMSYN070AAXX  29154 02584 42997 71806 10150 20137 40169 52004 8707/ 333 87362;
0193025840999992000092918004+58400+019200FM-12+001299999V0201801N003619999999N0100001N1+01441+01311101821ADDAA112000791GA1071+999999079GF199999061001999999071001KA1120M+01611MD1210131+9999REMSYN082AAXX  29184 02584 12997 61807 10144 20131 40182 52013 69902 86070 333 10161 87399;EQDQ01+000062SCOTCV
0122025840999992000092921004+58400+019200FM-12+001299999V0201801N002612200019N0200001N1+01471+01171101941ADDGA1001+999999999GF100991001001999999001001MD1210121+9999REMSYN054AAXX  29214 02584 42998 01805 10147 20117 40194 52012;
0122025840999992000093000004+58400+019200FM-12+001299999V0201801N002112200019N0200001N1+01371+01171102021ADDGA1001+999999999GF100991001001999999001001MD1210081+9999REMSYN054AAXX  30004 02584 42998 01804 10137 20117 40202 52008;
0122025840999992000093003004+58400+019200FM-12+001299999V0201601N002112200019N0200001N1+01321+01211102021ADDGA1001+999999999GF100991001001999999001001MD1410001+9999REMSYN054AAXX  30034 02584 42998 01604 10132 20121 40202 54000;
0187025840999992000093006004+58400+019200FM-12+001299999V0201801N001512200019N0200001N1+01311+01211102111ADDAA199000091GA1001+999999999GF100991001001999999001001IA1019KA1120N+01271MD1310091+9999REMSYN070AAXX  30064 02584 32998 01803 10131 20121 40211 53009 333 20127 30///;EQDQ01  00002PRCP99
0122025840999992000093009004+58400+019200FM-12+001299999V0201601N003112200019N0200001N1+01461+01191102171ADDGA1001+999999999GF100991001001999999001001MD1210061+9999REMSYN054AAXX  30094 02584 42998 01606 10146 20119 40217 52006;
0122025840999992000093012004+58400+019200FM-12+001299999V0201801N002612200019N0500001N1+01551+01051102221ADDGA1001+999999999GF100991001001999999001001MD1210051+9999REMSYN054AAXX  30124 02584 42999 01805 10155 20105 40222 52005;
0122025840999992000093015004+58400+019200FM-12+001299999V0201801N002112200019N0200001N1+01451+00971102191ADDGA1001+999999999GF100991001001999999001001MD1210021+9999REMSYN054AAXX  30154 02584 42998 01804 10145 20097 40219 52002;
0175025840999992000093018004+58400+019200FM-12+001299999V0201401N002112200019N0200001N1+01271+00871102191ADDAA199000091GA1001+999999999GF100991001001999999001001KA1999M+01621MD1010001+9999REMSYN064AAXX  30184 02584 32998 01404 10127 20087 40219 50000 333 10162;EQDQ01  00002PRCP99
0152025840999992000093021004+58400+019200FM-12+001299999V0201401N002112200019N0200001N1+01321+00901102161ADDAA199000091GA1001+999999999GF100991001001999999001001MD1710031+9999REMSYN054AAXX  30214 02584 32998 01404 10132 20090 40216 57003;EQDQ01  00002PRCP99
0150025840999992000100100004+58400+019200FM-12+001299999V0201401N002112200019N0040001N1+01261+00971102111ADDAY101061AY201061GA1001+999999999GF100991001001999999001001MD1710051+9999MW1101REMSYN060AAXX  01004 02584 41996 01404 10126 20097 40211 57005 71000;
0150025840999992000100103004+58400+019200FM-12+001299999V0201601N002112200019N0040001N1+01241+00971102001ADDAY101031AY201031GA1001+999999999GF100991001001999999001001MD1710111+9999MW1101REMSYN060AAXX  01034 02584 41996 01604 10124 20097 40200 57011 71000;
0215025840999992000100106004+58400+019200FM-12+001299999V0201401N001512200019N0040001N1+01241+01091101831ADDAA199000091AY101061AY201061GA1001+999999999GF100991001001999999001001IA1019KA1120N+01151MD1710171+9999MW1101REMSYN076AAXX  01064 02584 31996 01403 10124 20109 40183 57017 71000 333 20115 30///;EQDQ01  00002PRCP99
0150025840999992000100109004+58400+019200FM-12+001299999V0201401N003112200019N0040001N1+01411+01011101781ADDAY101031AY201031GA1001+999999999GF100991001001999999001001MD1710051+9999MW1101REMSYN060AAXX  01094 02584 41996 01406 10141 20101 40178 57005 71000;
0122025840999992000100112004+58400+019200FM-12+001299999V0201601N002612200019N0200001N1+01481+00961101631ADDGA1001+999999999GF100991001001999999001001MD1710151+9999REMSYN054AAXX  01124 02584 42998 01605 10148 20096 40163 57015;
0138025840999992000100115004+58400+019200FM-12+001299999V0201401N002619999999N0100001N1+01481+01161101471ADDGA1061+999999079GF106991061001999999031001MD1710161+9999REMSYN070AAXX  01154 02584 42997 61405 10148 20116 40147 57016 86030 333 86399;
0208025840999992000100118004+58400+019200FM-12+001299999V0201601N00261030001CN0020001N1+01551+01091101351ADDAA112000191AY121061AY201061GA1031+002409079GF108991031071002501021001KA1120M+01561MD1710121+9999MW1601REMSYN094AAXX  01184 02584 11395 81605 10155 20109 40135 57012 69922 76020 83720 333 10156 83708 88559;
0166025840999992000100121004+58400+019200FM-12+001299999V0201601N003110210019N0100001N1+01521+01141101261ADDAY161031AY261031GA1081+021009029GF108991081001022501021001MD1710091+9999MW1021REMSYN076AAXX  01214 02584 41897 81606 10152 20114 40126 57009 70266 88020 333 88557;
0138025840999992000100200004+58400+019200FM-12+001299999V0201601N001512200019N0100001N1+01481+01181101161ADDGA1031+999999079GF103991031001999999031001MD1710101+9999REMSYN070AAXX  02004 02584 42997 31603 10148 20118 40116 57010 83030 333 83399;
0138025840999992000100203004+58400+019200FM-12+001299999V0201801N003110180019N0100001N1+01491+01241101061ADDGA1081+018009059GF108991081051022501999999MD1710101+9999REMSYN070AAXX  02034 02584 42897 81806 10149 20124 40106 57010 885// 333 88656;
0205025840999992000100206004+58400+019200FM-12+001299999V0201601N002612200019N0200001N1+01431+01231101061ADDAA112001091GA1031+018009059GF105991031051022501999011IA1099KA1120N+01391MD1410001+9999REMSYN088AAXX  02064 02584 12898 51605 10143 20123 40106 54000 69992 83501 333 20139 31/// 83656;EQDQ01+000002SCOMCG
0138025840999992000100209004+58400+019200FM-12+001299999V0201601N00261030001CN0200001N1+01551+01191100991ADDGA1031+018009059GF105991031051017501031011MD1810071+9999REMSYN070AAXX  02094 02584 42798 51605 10155 20119 40099 58007 83531 333 83656;
0138025840999992000100212004+58400+019200FM-12+001299999V0201601N002619999999N0200001N1+01461+01121101011ADDGA1061+999999079GF106991061001999999071001MD1310021+9999REMSYN070AAXX  02124 02584 42998 61605 10146 20112 40101 53002 86070 333 86399;
0208025840999992000100218004+58400+019200FM-12+001299999V0201401N003110015019N0040001N1+01291+01231100861ADDAA112002091AY121061AY221061GA1051+001509079GF108991051071001501021999KA1120M+01651MD1710061+9999MW1621REMSYN094AAXX  02184 02584 11296 81406 10129 20123 40086 57006 60022 76222 8572/ 333 10165 85705 88599;
0172025840999992000100221004+58400+019200FM-12+001299999V0201601N003110006019N0020001N1+01361+01311100841ADDAY161031AY261031GA1051+000609079GF108991051071000751021999MD1710021+9999MW1621REMSYN082AAXX  02214 02584 41195 81606 10136 20131 40084 57002 76266 8572/ 333 85702 88599;
0150025840999992000100300004+58400+019200FM-12+001299999V0201801N003110003019N0005001N1+01421+01371100871ADDAY161061AY221061GA1091+999999999GF109991091999999999999999MD1310041+9999MW1431REMSYN060AAXX  03004 02584 41193 91806 10142 20137 40087 53004 74362;
0150025840999992000100303004+58400+019200FM-12+001299999V0201801N003110003019N0002001N1+01411+01361100951ADDAY141031AY241031GA1091+999999999GF109991091999999999999999MD1210081+9999MW1531REMSYN060AAXX  03034 02584 41192 91806 10141 20136 40095 52008 75344;
0220025840999992000100306004+58400+019200FM-12+001299999V0202301N00411001201CN0040001N1+01421+01361101191ADDAA112002091AY151061AY241061GA1031+001509079GF108991081051001501999999IA1099KA1120N+01291MD1210241+9999MW1101REMSYN100AAXX  03064 02584 11296 82308 10142 20136 40119 52024 60022 71054 885// 333 20129 31/// 83705 88623;
0138025840999992000100309004+58400+019200FM-12+001299999V0202301N005110066019N0100001N1+01431+01301101431ADDGA1071+006609059GF107991071051008001999999MD1210241+9999REMSYN070AAXX  03094 02584 42597 72310 10143 20130 40143 52024 875// 333 87622;
0138025840999992000100312004+58400+019200FM-12+001299999V0202501N004610066019N0100001N1+01451+01221101721ADDGA1081+006609059GF108991081051008001999999MD1210291+9999REMSYN070AAXX  03124 02584 42597 82509 10145 20122 40172 52029 885// 333 88622;
0122025840999992000100315004+58400+019200FM-12+001299999V0202301N003112200019N0100001N1+01441+01281101861ADDGA1001+999999999GF100991001001999999001001MD1210141+9999REMSYN054AAXX  03154 02584 42997 02306 10144 20128 40186 52014;
0175025840999992000100318004+58400+019200FM-12+001299999V0202501N003612200019N0100001N1+01391+01291101961ADDAA199000091GA1001+999999999GF100991001001999999001001KA1999M+01491MD1210101+9999REMSYN064AAXX  03184 02584 32997 02507 10139 20129 40196 52010 333 10149;EQDQ01  00002PRCP99
0122025840999992000100321004+58400+019200FM-12+001299999V0202701N002612200019N0100001N1+01391+01241102081ADDGA1001+999999999GF100991001001999999001001MD1210121+9999REMSYN054AAXX  03214 02584 42997 02705 10139 20124 40208 52012;
0122025840999992000100400004+58400+019200FM-12+001299999V0202501N002612200019N0100001N1+01331+01231102191ADDGA1001+999999999GF100991001001999999001001MD1210111+9999REMSYN054AAXX  04004 02584 42997 02505 10133 20123 40219 52011;
0150025840999992000100403004+58400+019200FM-12+001299999V0202701N001512200019N0040001N1+01361+01281102201ADDAY101031AY201031GA1001+999999999GF100991001001999999001001MD1110011+9999MW1101REMSYN060AAXX  04034 02584 41996 02703 10136 20128 40220 51001 71000;
0227025840999992000100406004+58400+019200FM-12+001299999V0202501N001012200019N0040001N1+01251+01171102261ADDAA199000091AY101061AY201061GA1021+001809069GF104991021061002501001001IA1099KA1120N+01221MD1310061+9999MW1101REMSYN088AAXX  04064 02584 31396 42502 10125 20117 40226 53006 71000 82600 333 20122 31/// 82706;EQDQ01  00002PRCP99
0144025840999992000100409004+58400+019200FM-12+001299999V0202501N00211002101CN0100001N1+01421+01261102311ADDGA1031+002109079GF106991061071002501001001MD1210051+9999REMSYN076AAXX  04094 02584 42397 62504 10142 20126 40231 52005 86700 333 83707 83656;
0138025840999992000100412004+58400+019200FM-12+001299999V0202501N003110021019N0100001N1+01271+01141102311ADDGA1081+002109069GF108991081061002501999999MD1410001+9999REMSYN070AAXX  04124 02584 42397 82506 10127 20114 40231 54000 886// 333 88707;
0138025840999992000100415004+58400+019200FM-12+001299999V0202501N003110015019N0100001N1+01201+01101102251ADDGA1081+001509069GF108991081061001501999999MD1810061+9999REMSYN070AAXX  04154 02584 42297 82506 10120 20110 40225 58006 886// 333 88705;
0187025840999992000100418004+58400+019200FM-12+001299999V0202501N002110027019N0100001N1+01211+01051102241ADDAA199000091GA1081+002709069GF108991081061002501999999KA1120M+01461MD1610011+9999REMSYN076AAXX  04184 02584 32397 82504 10121 20105 40224 56001 886// 333 10146 88709;EQDQ01  00002PRCP99
0166025840999992000100421004+58400+019200FM-12+001299999V0201801N001010045019N0040001N1+01181+01101102221ADDAY121031AY221031GA1081+004509069GF108991081061004501999999MD1710021+9999MW1101REMSYN076AAXX  04214 02584 41496 81802 10118 20110 40222 57002 71022 886// 333 88715;
0166025840999992000100500004+58400+019200FM-12+001299999V0202501N001510270019N0040001N1+01271+01161102201ADDAY121061AY221061GA1081+027009079GF108991081001999999071999MD1710021+9999MW1101REMSYN076AAXX  05004 02584 41996 82503 10127 20116 40220 57002 71022 8807/ 333 88359;
0166025840999992000100503004+58400+019200FM-12+001299999V0201801N001010210019N0040001N1+01261+01181102121ADDAY121031AY221031GA1081+021009029GF108991081001022501021999MD1810081+9999MW1611REMSYN076AAXX  05034 02584 41896 81802 10126 20118 40212 58008 76122 8802/ 333 88557;
0214025840999992000100506004+58400+019200FM-12+001299999V0201601N001012200019N0005001N1+01111+01031102091ADDAA112000191AY161061AY221061GA1021+999999079GF102991021001999999071001IA1019KA1120N+01081MD1610031+9999MW1441REMSYN094AAXX  05064 02584 11993 21602 10111 20103 40209 56003 69912 74462 82070 333 20108 30/// 82399;
0172025840999992000100509004+58400+019200FM-12+001299999V0201601N00101001201CN0040001N1+01411+01311102081ADDAY161031AY241031GA1021+001209079GF107991051071001501071999MD1710011+9999MW1211REMSYN082AAXX  05094 02584 41296 71602 10141 20131 40208 57001 72164 8577/ 333 82704 87358;
0185025840999992000100512004+58400+019200FM-12+001299999V0201801N001010180019N0040001N1+01551+01111102021ADDAY161061AY221061GA1071+018009059GF107991071051017501999001MD1710011+9999MW1101REMSYN076AAXX  05124 02584 41796 71802 10155 20111 40202 57001 71062 87500 333 87656;EQDQ01+000002SCOMCG
0138025840999992000100515004+58400+019200FM-12+001299999V0201601N002110063019N0100001N1+01441+01281101921ADDGA1081+006309059GF108991081051008001999999MD1810101+9999REMSYN070AAXX  05154 02584 42597 81604 10144 20128 40192 58010 885// 333 88621;
0168025840999992000100518004+58400+019200FM-12+001299999V0201601N001512200019N0100001N1+01401+01381101861ADDAA199000021GA1031+001209069GF103991031061001501001001KA1120M+01641MD1710061+9999REMSYN076AAXX  05184 02584 32297 31603 10140 20138 40186 57006 83600 333 10164 83704;
0172025840999992000100521004+58400+019200FM-12+001299999V0201801N002110009019N0020001N1+01421+01361101841ADDAY111031AY211031GA1061+000909079GF108991061071000751021999MD1710021+9999MW1601REMSYN082AAXX  05214 02584 41195 81804 10142 20136 40184 57002 76011 8672/ 333 86703 88599;
0150025840999992000100600004+58400+019200FM-12+001299999V0201801N001010003019N0005001N1+01371+01311101831ADDAY161061AY221061GA1091+999999999GF109991091999999999999999MD1610011+9999MW1451REMSYN060AAXX  06004 02584 41/93 91802 10137 20131 40183 56001 74562;
0166025840999992000100603004+58400+019200FM-12+001299999V0201601N001010003019N0005001N1+01451+01391101821ADDAY141031AY241031GA1081+000309069GF108991081071000251999999MD1710011+9999MW1441REMSYN076AAXX  06034 02584 41093 81602 10145 20139 40182 57001 74444 887// 333 88701;
0214025840999992000100606004+58400+019200FM-12+001299999V0201401N00211030001CN0100001N1+01421+01341101831ADDAA112002091AY141061AY241061GA1041+018009059GF105991041051017501031001IA1099KA1120N+01371MD1310011+9999MW1011REMSYN094AAXX  06064 02584 11797 51404 10142 20134 40183 53001 60022 70144 84530 333 20137 31/// 84656;
0185025840999992000100609004+58400+019200FM-12+001299999V0201601N002110210019N0100001N1+01431+01351101891ADDAY121031AY221031GA1061+021009059GF106991061051022501999001MD1210061+9999MW1211REMSYN076AAXX  06094 02584 41897 61604 10143 20135 40189 52006 72122 86500 333 86657;EQDQ01+000002SCOMCG
0166025840999992000100612004+58400+019200FM-12+001299999V0200901N002619999999N0100001N1+01621+01331101881ADDAY161061AY221061GA1051+999999079GF105991051001999999031001MD1810011+9999MW1021REMSYN076AAXX  06124 02584 41997 50905 10162 20133 40188 58001 70262 85030 333 85399;
0172025840999992000100615004+58400+019200FM-12+001299999V0201401N001519999999N0100001N1+01551+01321101951ADDAY121031AY221031GA1031+025009039GF105991051001999999031011MD1310071+9999MW1211REMSYN082AAXX  06154 02584 41997 51403 10155 20132 40195 53007 72122 85031 333 83399 84099;
0202025840999992000100618004+58400+019200FM-12+001299999V0201401N002112200019N0100001N1+01421+01271102111ADDAA112001091AY161061AY221061GA1031+033009079GF104991041001999999031001KA1120M+01681MD1210161+9999MW1011REMSYN088AAXX  06184 02584 11997 41404 10142 20127 40211 52016 60012 70162 84030 333 10168 83361;
0122025840999992000100621004+58400+019200FM-12+001299999V0201401N002112200019N0100001N1+01301+01151102241ADDGA1001+999999999GF100991001001999999001001MD1210131+9999REMSYN054AAXX  06214 02584 42997 01404 10130 20115 40224 52013;
0122025840999992000100700004+58400+019200FM-12+001299999V0201401N002112200019N0100001N1+01221+01061102311ADDGA1001+999999999GF100991001001999999001001MD1210071+9999REMSYN054AAXX  07004 02584 42997 01404 10122 20106 40231 52007;
0150025840999992000100703004+58400+019200FM-12+001299999V0201401N002112200019N0040001N1+01201+01121102361ADDAY101031AY201031GA1001+999999999GF100991001001999999001001MD1210051+9999MW1101REMSYN060AAXX  07034 02584 41996 01404 10120 20112 40236 52005 71000;
0227025840999992000100706004+58400+019200FM-12+001299999V0201401N001512200019N0040001N1+01161+01101102071ADDAA199000091AY101061AY201061GA1031+999999019GF103991001001999999001011IA1099KA1120N+01141MD1310111+9999MW1101REMSYN088AAXX  07064 02584 31996 31403 10116 20110 40207 53011 71000 80001 333 20114 31/// 83099;EQDQ01  00002PRCP99
0138025840999992000100709004+58400+019200FM-12+001299999V0201401N00101075001CN0100001N1+01441+01241102571ADDGA1051+999999019GF105991001001999999001021MD1210101+9999REMSYN070AAXX  07094 02584 42997 51402 10144 20124 40257 52010 80002 333 85099;
0138025840999992000100712004+58400+019200FM-12+001299999V0201601N00101075001CN0200001N1+01661+01011102551ADDGA1051+999999019GF105991001001999999001021MD1810021+9999REMSYN070AAXX  07124 02584 42998 51602 10166 20101 40255 58002 80002 333 85099;
0122025840999992000100715004+58400+019200FM-12+001299999V0201401N002112200019N0200001N1+01441+01141102501ADDGA1001+999999999GF100991001001999999001001MD1710051+9999REMSYN054AAXX  07154 02584 42998 01404 10144 20114 40250 57005;
0175025840999992000100718004+58400+019200FM-12+001299999V0201401N002112200019N0040001N1+01251+01171102541ADDAA199000091GA1001+999999999GF100991001001999999001001KA1999M+01711MD1210041+9999REMSYN064AAXX  07184 02584 32996 01404 10125 20117 40254 52004 333 10171;EQDQ01  00002PRCP99
0122025840999992000100721004+58400+019200FM-12+001299999V0201401N002112200019N0040001N1+01221+01141102491ADDGA1001+999999999GF100991001001999999001001MD1810051+9999REMSYN054AAXX  07214 02584 42996 01404 10122 20114 40249 58005;
0185025840999992000100800004+58400+019200FM-12+001299999V0201401N002112200019N0040001N1+01261+01181102391ADDAY101061AY201061GA1011+015009059GF101991011051017501999001MD1810101+9999MW1101REMSYN076AAXX  08004 02584 41796 11404 10126 20118 40239 58010 71000 81500 333 81650;EQDQ01    003SCOMCG
0150025840999992000100803004+58400+019200FM-12+001299999V0201401N001512200019N0020001N1+01151+01071102281ADDAY111031AY201031GA1001+999999999GF100991001001999999001001MD1710111+9999MW1101REMSYN060AAXX  08034 02584 41995 01403 10115 20107 40228 57011 71010;
0227025840999992000100806004+58400+019200FM-12+001299999V0201401N001512200019N0010001N1+01221+01041102251ADDAA199000091AY101061AY201061GA1011+000909069GF101991011061001501001011IA1099KA1120N+01131MD1610031+9999MW1101REMSYN088AAXX  08064 02584 31294 11403 10122 20104 40225 56003 71000 81601 333 20113 31/// 81703;EQDQ01  00002PRCP99
0166025840999992000100809004+58400+019200FM-12+001299999V0201401N002112200019N0020001N1+01381+01251102231ADDAY101031AY201031GA1031+001809069GF103991031061001501001001MD1710021+9999MW1101REMSYN076AAXX  08094 02584 41295 31404 10138 20125 40223 57002 71000 83600 333 83706;
0138025840999992000100812004+58400+019200FM-12+001299999V0201801N002112200019N0100001N1+01511+01211102071ADDGA1011+002509069GF102991011061002501031001MD1810161+9999REMSYN070AAXX  08124 02584 42397 21804 10151 20121 40207 58016 81630 333 81793;
0144025840999992000100815004+58400+019200FM-12+001299999V0201601N002610750019N0100001N1+01361+01211101991ADDGA1021+002409079GF106991021061002501001091MD1610081+9999REMSYN076AAXX  08154 02584 42397 61605 10136 20121 40199 56008 82609 333 82708 84199;
0187025840999992000100818004+58400+019200FM-12+001299999V0201801N003610330019N0100001N1+01351+01221101981ADDAA199000091GA1051+033009079GF105991051001999999071001KA1120M+01541MD1010011+9999REMSYN076AAXX  08184 02584 32997 51807 10135 20122 40198 50001 85070 333 10154 85361;EQDQ01  00002PRCP99
0157025840999992000100821004+58400+019200FM-12+001299999V0201601N003112200019N0100001N1+01441+01101101881ADDGA1041+033009019GF104991041001999999071999MD1810101+9999REMSYN070AAXX  08214 02584 42997 41606 10144 20110 40188 58010 84070 333 84461;EQDQ01+000002SCOHCG
0122025840999992000100900004+58400+019200FM-12+001299999V0201801N003112200019N0100001N1+01431+01071101791ADDGA1001+999999999GF100991001001999999001001MD1710091+9999REMSYN054AAXX  09004 02584 42997 01806 10143 20107 40179 57009;
0122025840999992000100903004+58400+019200FM-12+001299999V0201601N003112200019N0100001N1+01371+01121101731ADDGA1001+999999999GF100991001001999999001001MD1710031+9999REMSYN054AAXX  09034 02584 42997 01606 10137 20112 40173 57003;
0205025840999992000100906004+58400+019200FM-12+001299999V0201601N003119999999N0200001N1+01341+01141101741ADDAA199000091GA1031+025009039GF105991031001999999031081IA1019KA1120N+01331MD1310011+9999REMSYN088AAXX  09064 02584 32998 51606 10134 20114 40174 53001 83038 333 20133 30/// 83399 85299;EQDQ01  00002PRCP99
0166025840999992000100909004+58400+019200FM-12+001299999V0201601N00411030001CN0200001N1+01381+01071101761ADDGA1011+002509079GA2041+025009039GF106991011061002501031081MD1210021+9999REMSYN082AAXX  09094 02584 42398 61608 10138 20107 40176 52002 81638 333 81793 84399 85299;
0138025840999992000100912004+58400+019200FM-12+001299999V0201401N002612200019N0200001N1+01421+00941101711ADDGA1011+003909069GF102991011061004501001081MD1810051+9999REMSYN070AAXX  09124 02584 42498 21405 10142 20094 40171 58005 81608 333 81713;
0138025840999992000100915004+58400+019200FM-12+001299999V0201601N003112200019N0200001N1+01331+00771101631ADDGA1011+999999019GF101991001001999999001021MD1710081+9999REMSYN070AAXX  09154 02584 42998 11606 10133 20077 40163 57008 80002 333 81099;
0187025840999992000100918004+58400+019200FM-12+001299999V0201401N003112200019N0200001N1+01281+00741101621ADDAA199000091GA1031+999999079GF103991031001999999031001KA1120M+01501MD1610011+9999REMSYN076AAXX  09184 02584 32998 31406 10128 20074 40162 56001 83030 333 10150 83399;EQDQ01  00002PRCP99
0138025840999992000100921004+58400+019200FM-12+001299999V0201601N003612200019N0200001N1+01201+00461101521ADDGA1041+008009029GF104991041021008001001001MD1810101+9999REMSYN070AAXX  09214 02584 42598 41607 10120 20046 40152 58010 84200 333 84895;
0138025840999992000101000004+58400+019200FM-12+001299999V0201601N003110090019N0200001N1+01081+00501101421ADDGA1051+009009029GF105991051021008001001001MD1710101+9999REMSYN070AAXX  10004 02584 42598 51606 10108 20050 40142 57010 85200 333 85830;
0138025840999992000101003004+58400+019200FM-12+001299999V0201601N003610075019N0200001N1+01001+00421101291ADDGA1081+007509059GF108991081051008001999999MD1710131+9999REMSYN070AAXX  10034 02584 42598 81607 10100 20042 40129 57013 885// 333 88625;
0215025840999992000101006004+58400+019200FM-12+001299999V0201401N003110066019N0200001N1+00901+00401101161ADDAA199000091GA1051+006609029GF106991999021008001001001IA1019KA1120N+00881MD1710131+9999REMSYN082AAXX  10064 02584 32598 61406 10090 20040 40116 57013 85200 333 20088 30/// 85822;EQDQ01+000052SCOTLCQ02  00002PRCP99
0138025840999992000101009004+58400+019200FM-12+001299999V0201401N004110075019N0200001N1+00951+00281101091ADDGA1051+007509029GF105991051021008001001001MD1710071+9999REMSYN070AAXX  10094 02584 42598 51408 10095 20028 40109 57007 85200 333 85825;
0138025840999992000101012004+58400+019200FM-12+001299999V0201401N003110105019N0200001N1+00921+00181100961ADDGA1071+010509059GF107991071051012501001001MD1710131+9999REMSYN070AAXX  10124 02584 42698 71406 10092 20018 40096 57013 87500 333 87635;
0138025840999992000101015004+58400+019200FM-12+001299999V0201401N003110096019N0200001N1+00921+00231100881ADDGA1081+009609059GF108991081051008001999999MD1710081+9999REMSYN070AAXX  10154 02584 42598 81406 10092 20023 40088 57008 885// 333 88632;
0193025840999992000101018004+58400+019200FM-12+001299999V0201401N00311012001CN0200001N1+00971+00281100781ADDAA199000091GA1041+008709089GF108991081081008001999999KA1120M+01031MD1810101+9999REMSYN082AAXX  10184 02584 32598 81406 10097 20028 40078 58010 888// 333 10103 84829 88638;EQDQ01  00002PRCP99
0172025840999992000101021004+58400+019200FM-12+001299999V0201101N00311007501CN0100001N1+00901+00421100721ADDAY121031AY221031GA1041+006009099GF108991081031008001999999MD1610061+9999MW1251REMSYN082AAXX  10214 02584 41597 81106 10090 20042 40072 56006 72522 883// 333 84920 88799;
0172025840999992000101100004+58400+019200FM-12+001299999V0201401N00461030001CN0100001N1+00881+00601100651ADDAY181061AY221061GA1041+004809079GF108991041071004501021999MD1710071+9999MW1251REMSYN082AAXX  11004 02584 41497 81409 10088 20060 40065 57007 72582 8472/ 333 84716 88550;
0138025840999992000101103004+58400+019200FM-12+001299999V0201801N003110048019N0100001N1+00881+00641100581ADDGA1081+004809059GF108991081051004501999999MD1710081+9999REMSYN070AAXX  11034 02584 42497 81806 10088 20064 40058 57008 885// 333 88616;
0186025840999992000101106004+58400+019200FM-12+001299999V0201401N003110036019N0200001N1+00841+00601100541ADDAA112001091GA1081+003609059GF108991081051004501999999IA1099KA1120N+00821MD1610041+9999REMSYN088AAXX  11064 02584 12498 81406 10084 20060 40054 56004 60012 885// 333 20082 31/// 88612;
0138025840999992000101109004+58400+019200FM-12+001299999V0201401N003110039019N0200001N1+00881+00661100581ADDGA1081+003909059GF108991081051004501999999MD1310041+9999REMSYN070AAXX  11094 02584 42498 81406 10088 20066 40058 53004 885// 333 88613;
0172025840999992000101112004+58400+019200FM-12+001299999V0201401N003110042019N0040001N1+00861+00781100621ADDAY121061AY221061GA1061+004209079GF108991061071004501021999MD1210041+9999MW1611REMSYN082AAXX  11124 02584 41496 81406 10086 20078 40062 52004 76122 8672/ 333 86714 88599;
0166025840999992000101115004+58400+019200FM-12+001299999V0201401N003110051019N0200001N1+01011+00681100571ADDAY161031AY261031GA1081+005109069GF108991081061004501999999MD1810051+9999MW1021REMSYN076AAXX  11154 02584 41498 81406 10101 20068 40057 58005 70266 886// 333 88717;
0202025840999992000101118004+58400+019200FM-12+001299999V0201101N003610051019N0200001N1+01081+00731100501ADDAA112000591AY161061AY261061GA1081+005109069GF108991081061004501999999KA1120M+01081MD1710071+9999MW1021REMSYN088AAXX  11184 02584 11498 81107 10108 20073 40050 57007 69962 70266 886// 333 10108 88717;
0138025840999992000101121004+58400+019200FM-12+001299999V0201401N003610051019N0200001N1+01081+00761100561ADDGA1081+005109069GF108991081061004501999999MD1510051+9999REMSYN070AAXX  11214 02584 42498 81407 10108 20076 40056 55005 886// 333 88717;
0138025840999992000101200004+58400+019200FM-12+001299999V0201401N003110051019N0200001N1+01121+00861100581ADDGA1081+005109069GF108991081061004501999999MD1210021+9999REMSYN070AAXX  12004 02584 42498 81406 10112 20086 40058 52002 886// 333 88717;
0138025840999992000101203004+58400+019200FM-12+001299999V0201601N003110051019N0200001N1+01141+00901100651ADDGA1081+005109069GF108991081061004501999999MD1210071+9999REMSYN070AAXX  12034 02584 42498 81606 10114 20090 40065 52007 886// 333 88717;
0239025840999992000101206004+58400+019200FM-12+001299999V0201601N003110030019N0040001N1+01041+00961100701ADDAA112000891AY121061AY221061GA1061+003009079GF108991999061004501021999IA1099KA1120N+00901MD1210071+9999MW1611REMSYN100AAXX  12064 02584 11496 81606 10104 20096 40070 52007 69982 76122 8862/ 333 20090 31/// 86710 88599;EQDQ01+000082SCOTLC
0191025840999992000101209004+58400+019200FM-12+001299999V0201401N002610027019N0040001N1+01061+01001100651ADDAY161031AY261031GA1081+002709079GF108991999061002501021999MD1010051+9999MW1611REMSYN082AAXX  12094 02584 41396 81405 10106 20100 40065 50005 76166 8862/ 333 88709 84599;EQDQ01+000082SCOTLC
0191025840999992000101212004+58400+019200FM-12+001299999V0201401N003110012019N0040001N1+01081+01021100531ADDAY161061AY261061GA1081+001209079GF108991999061001501021999MD1710121+9999MW1631REMSYN082AAXX  12124 02584 41296 81406 10108 20102 40053 57012 76366 8862/ 333 88704 85599;EQDQ01+000082SCOTLC
0166025840999992000101215004+58400+019200FM-12+001299999V0201601N003110012019N0040001N1+01181+01101100451ADDAY161031AY261031GA1081+001209069GF108991081061001501999999MD1710081+9999MW1021REMSYN076AAXX  12154 02584 41296 81606 10118 20110 40045 57008 70266 886// 333 88704;
0202025840999992000101218004+58400+019200FM-12+001299999V0201801N003610039019N0040001N1+01281+01201100531ADDAA112007191AY161061AY261061GA1081+003909069GF108991081061004501999999KA1120M+01281MD1310081+9999MW1101REMSYN088AAXX  12184 02584 11496 81807 10128 20120 40053 53008 60072 71066 886// 333 10128 88713;
0166025840999992000101221004+58400+019200FM-12+001299999V0202001N002110024019N0040001N1+01261+01201100801ADDAY121031AY221031GA1081+002409069GF108991081061002501999999MD1310271+9999MW1101REMSYN076AAXX  12214 02584 41396 82004 10126 20120 40080 53027 71022 886// 333 88708;
0150025840999992000101300004+58400+019200FM-12+001299999V0202301N003612200019N0040001N1+01201+01121101101ADDAY121061AY211061GA1001+999999999GF100991001001999999001001MD1210301+9999MW1101REMSYN060AAXX  13004 02584 41996 02307 10120 20112 40110 52030 71021;
0166025840999992000101303004+58400+019200FM-12+001299999V0202301N002110015019N0040001N1+01101+01021101291ADDAY121031AY211031GA1081+001509069GF108991081061001501999999MD1210191+9999MW1101REMSYN076AAXX  13034 02584 41296 82304 10110 20102 40129 52019 71021 886// 333 88705;
0227025840999992000101306004+58400+019200FM-12+001299999V0202001N001510024019N0040001N1+01141+01081101431ADDAA199000091AY121061AY211061GA1081+002409069GF108991081061002501999999IA1099KA1120N+01061MD1210141+9999MW1101REMSYN088AAXX  13064 02584 31396 82003 10114 20108 40143 52014 71021 886// 333 20106 31/// 88708;EQDQ01  00002PRCP99
0138025840999992000101309004+58400+019200FM-12+001299999V0202001N001019999999N0200001N1+01321+01121101521ADDGA1071+999999079GF107991071001999999031999MD1210091+9999REMSYN070AAXX  13094 02584 42998 72002 10132 20112 40152 52009 8703/ 333 87399;
0144025840999992000101312004+58400+019200FM-12+001299999V0209999C00001002101CN0200001N1+01341+01111101451ADDGA1041+002709079GF105991051061002501001011MD1010071+9999REMSYN076AAXX  13124 02584 42398 50000 10134 20111 40145 50007 85601 333 84709 85099;
0138025840999992000101315004+58400+019200FM-12+001299999V0200701N001510006019N0200001N1+01241+01161101441ADDGA1081+000609069GF108991081061000751999999MD1810011+9999REMSYN070AAXX  13154 02584 42198 80703 10124 20116 40144 58001 886// 333 88702;
0227025840999992000101318004+58400+019200FM-12+001299999V0200501N001510003019N0040001N1+01181+01121101371ADDAA112007991AY121061AY221061GA1081+000309079GF108991999061000751021999KA1120M+01381MD1710071+9999MW1631REMSYN094AAXX  13184 02584 11196 80503 10118 20112 40137 57007 60082 76322 8862/ 333 10138 88701 85599;EQDQ01+000082SCOTLC
0172025840999992000101321004+58400+019200FM-12+001299999V0200701N003610018019N0100001N1+01081+01021101291ADDAY121031AY221031GA1071+001809079GF108991071061000751021999MD1710061+9999MW1621REMSYN082AAXX  13214 02584 41197 80707 10108 20102 40129 57006 76222 8762/ 333 87706 88599;
0157025840999992000101400004+58400+019200FM-12+001299999V0200601N001010225019N0100001N1+01081+00951101311ADDGA1081+022509069GF108991081999022501031001MD1310021+9999REMSYN070AAXX  14004 02584 42897 80602 10108 20095 40131 53002 88030 333 88798;EQDQ01+000002SCOLCG
0138025840999992000101403004+58400+019200FM-12+001299999V0200501N00101075001CN0100001N1+01061+00971101281ADDGA1081+999999019GF108991081001999999011999MD1210031+9999REMSYN070AAXX  14034 02584 42997 80502 10106 20097 40128 52003 8801/ 333 88499;
0192025840999992000101406004+58400+019200FM-12+001299999V0203601N000510300019N0200001N1+00981+00901101341ADDAA112009991GA1031+003609079GF106991031061004501031001IA1099KA1120N+00981MD1210061+9999REMSYN094AAXX  14064 02584 12498 63601 10098 20090 40134 52006 60102 83630 333 20098 31/// 83712 85398;
0172025840999992000101409004+58400+019200FM-12+001299999V0202901N00101030001CN0200001N1+01181+01091101411ADDAY121031AY221031GA1041+008009099GF106991041031008001031001MD1210071+9999MW1251REMSYN082AAXX  14094 02584 41598 62902 10118 20109 40141 52007 72522 84330 333 84995 85398;
0172025840999992000101412004+58400+019200FM-12+001299999V0202701N00211030001CN0200001N1+01271+01141101491ADDAY181061AY221061GA1021+008009099GF106991021031008001031001MD1210081+9999MW1021REMSYN082AAXX  14124 02584 41598 62704 10127 20114 40149 52008 70282 82330 333 82995 85398;
0138025840999992000101415004+58400+019200FM-12+001299999V0202701N002110057019N0200001N1+01131+00961101671ADDGA1061+005709059GF106991061051008001001001MD1310181+9999REMSYN070AAXX  14154 02584 42598 62704 10113 20096 40167 53018 86500 333 86619;
0180025840999992000101418004+58400+019200FM-12+001299999V0202701N003112200019N0200001N1+01121+01041101821ADDAA112001091GA1011+008009099GF103991031031002501001001KA1120M+01351MD1210151+9999REMSYN088AAXX  14184 02584 12398 32706 10112 20104 40182 52015 60012 83300 333 10135 81995 83792;
0122025840999992000101421004+58400+019200FM-12+001299999V0202601N002112200019N0200001N1+01121+01071101951ADDGA1001+999999999GF100991001001999999001001MD1210131+9999REMSYN054AAXX  14214 02584 42998 02604 10112 20107 40195 52013;
0150025840999992000101500004+58400+019200FM-12+001299999V0202601N001512200019N0040001N1+00981+00951102061ADDAY101061AY201061GA1001+999999999GF100991001001999999001001MD1210111+9999MW1101REMSYN060AAXX  15004 02584 41996 02603 10098 20095 40206 52011 71000;
0166025840999992000101503004+58400+019200FM-12+001299999V0202601N001010015019N0040001N1+00961+00931102131ADDAY121031AY221031GA1071+001509069GF107991071061001501001001MD1210071+9999MW1101REMSYN076AAXX  15034 02584 41296 72602 10096 20093 40213 52007 71022 87600 333 87792;
0214025840999992000101506004+58400+019200FM-12+001299999V0202301N001510015019N0040001N1+01121+01041102231ADDAA112000191AY151061AY221061GA1071+001509069GF107991071061001501001001IA1099KA1120N+00921MD1210101+9999MW1501REMSYN094AAXX  15064 02584 11296 72303 10112 20104 40223 52010 69922 75052 87600 333 20092 31/// 87792;
0138025840999992000101509004+58400+019200FM-12+001299999V0202601N002112200019N0100001N1+01341+01191102361ADDGA1031+001809069GF104991031061001501031001MD1210131+9999REMSYN070AAXX  15094 02584 42297 42604 10134 20119 40236 52013 83630 333 83706;
0166025840999992000101512004+58400+019200FM-12+001299999V0202501N002610027019N0040001N1+01231+01101102401ADDAY121061AY221061GA1081+002709069GF108991081061002501999999MD1110041+9999MW1101REMSYN076AAXX  15124 02584 41396 82505 10123 20110 40240 51004 71022 886// 333 88709;
0166025840999992000101515004+58400+019200FM-12+001299999V0202501N002110009019N0040001N1+01041+00981102391ADDAY121031AY221031GA1081+000909069GF108991081061001501999999MD1810011+9999MW1101REMSYN076AAXX  15154 02584 41296 82504 10104 20098 40239 58001 71022 886// 333 88703;
0196025840999992000101518004+58400+019200FM-12+001299999V0203201N000510009019N0040001N1+01001+00911102451ADDAA199000021AY121061AY221061GA1081+000909069GF108991081061001501999999KA1120M+01341MD1310061+9999MW1101REMSYN082AAXX  15184 02584 31296 83201 10100 20091 40245 53006 71022 886// 333 10134 88703;
0166025840999992000101521004+58400+019200FM-12+001299999V0201601N001010018019N0040001N1+01031+00971102551ADDAY121031AY221031GA1081+001809069GF108991081061001501999999MD1110101+9999MW1101REMSYN076AAXX  15214 02584 41296 81602 10103 20097 40255 51010 71022 886// 333 88706;
0166025840999992000101600004+58400+019200FM-12+001299999V0201101N001010042019N0040001N1+00981+00901102551ADDAY121061AY221061GA1081+004209069GF108991081061004501999999MD1010001+9999MW1101REMSYN076AAXX  16004 02584 41496 81102 10098 20090 40255 50000 71022 886// 333 88714;
0166025840999992000101603004+58400+019200FM-12+001299999V0201101N001010015019N0040001N1+01021+00961102531ADDAY121031AY221031GA1081+001509069GF108991081061002501999999MD1810021+9999MW1101REMSYN076AAXX  16034 02584 41396 81102 10102 20096 40253 58002 71022 886// 333 88705;
0199025840999992000101606004+58400+019200FM-12+001299999V0201401N001510033019N0040001N1+01091+00971102481ADDAA199000091GA1081+003309069GF108991081061004501999999IA1099KA1120N+00961MD1710051+9999REMSYN082AAXX  16064 02584 32496 81403 10109 20097 40248 57005 886// 333 20096 31/// 88711;EQDQ01  00002PRCP99
0138025840999992000101612004+58400+019200FM-12+001299999V0201601N003112200019N0200001N1+01241+00951102371ADDGA1021+003309069GF102991021061004501001001MD1810131+9999REMSYN070AAXX  16124 02584 42498 21606 10124 20095 40237 58013 82600 333 82711;
0138025840999992000101615004+58400+019200FM-12+001299999V0201101N003112200019N0200001N1+01121+00951102261ADDGA1011+999999019GF101991001001999999001011MD1710111+9999REMSYN070AAXX  16154 02584 42998 11106 10112 20095 40226 57011 80001 333 81099;
0175025840999992000101618004+58400+019200FM-12+001299999V0201101N003112200019N0200001N1+01081+00911102221ADDAA199000091GA1001+999999999GF100991001001999999001001KA1999M+01251MD1710041+9999REMSYN064AAXX  16184 02584 32998 01106 10108 20091 40222 57004 333 10125;EQDQ01  00002PRCP99
0122025840999992000101621004+58400+019200FM-12+001299999V0201401N002612200019N0200001N1+01121+00961102191ADDGA1001+999999999GF100991001001999999001001MD1710031+9999REMSYN054AAXX  16214 02584 42998 01405 10112 20096 40219 57003;
0122025840999992000101700004+58400+019200FM-12+001299999V0201401N003112200019N0200001N1+01121+00961102131ADDGA1001+999999999GF100991001001999999001001MD1710061+9999REMSYN054AAXX  17004 02584 42998 01406 10112 20096 40213 57006;
0122025840999992000101703004+58400+019200FM-12+001299999V0201801N002612200019N0100001N1+01141+01001102071ADDGA1001+999999999GF100991001001999999001001MD1710061+9999REMSYN054AAXX  17034 02584 42997 01805 10114 20100 40207 57006;
0205025840999992000101706004+58400+019200FM-12+001299999V0201801N002119999999N0100001N1+01141+01051102081ADDAA199000091GA1041+025009039GF106991061001999999031011IA1099KA1120N+01081MD1510011+9999REMSYN088AAXX  17064 02584 32997 61804 10114 20105 40208 55001 86031 333 20108 31/// 84399 83099;EQDQ01  00002PRCP99
0157025840999992000101709004+58400+019200FM-12+001299999V0201801N00311075001CN0200001N1+01281+01101102181ADDGA1051+999999019GF105991001001999999001011MD1210101+9999REMSYN070AAXX  17094 02584 42998 51806 10128 20110 40218 52010 85001 333 85099;EQDQ01+000052SCOTLC
0144025840999992000101712004+58400+019200FM-12+001299999V0201801N00311999999CN0200001N1+01321+01091102181ADDGA1051+025009039GF105991051001999999031011MD1410001+9999REMSYN076AAXX  17124 02584 42998 51806 10132 20109 40218 54000 85031 333 85399 83099;
0144025840999992000101715004+58400+019200FM-12+001299999V0201801N002110021019N0200001N1+01221+01131102251ADDGA1051+002109079GF107991071061002501071011MD1210071+9999REMSYN076AAXX  17154 02584 42398 71804 10122 20113 40225 52007 87671 333 85707 83399;
0215025840999992000101718004+58400+019200FM-12+001299999V0201801N001510021019N0040001N1+01191+01131102381ADDAA199000091AY121061AY221061GA1081+002109069GF108991081061002501999999KA1120M+01391MD1310131+9999MW1101REMSYN082AAXX  17184 02584 31396 81803 10119 20113 40238 53013 71022 886// 333 10139 88707;EQDQ01  00002PRCP99
0166025840999992000101721004+58400+019200FM-12+001299999V0201801N001512200019N0040001N1+01131+01071102401ADDAY121031AY221031GA1041+999999079GF104991041001999999031001MD1110021+9999MW1101REMSYN076AAXX  17214 02584 41996 41803 10113 20107 40240 51002 71022 84030 333 84399;
0150025840999992000101800004+58400+019200FM-12+001299999V0201401N000512200019N0010001N1+00921+00861102401ADDAY121061AY221061GA1001+999999999GF100991001001999999001001MD1410001+9999MW1101REMSYN060AAXX  18004 02584 41994 01401 10092 20086 40240 54000 71022;
0166025840999992000101803004+58400+019200FM-12+001299999V0201801N001012200019N0040001N1+01011+00931102361ADDAY121031AY221031GA1041+999999079GF104991041001999999031001MD1810041+9999MW1101REMSYN076AAXX  18034 02584 41996 41802 10101 20093 40236 58004 71022 84030 333 84399;
0227025840999992000101806004+58400+019200FM-12+001299999V0201801N001019999999N0040001N1+01021+00961102441ADDAA199000091AY121061AY221061GA1051+999999079GF106991051001999999031011IA1099KA1120N+00861MD1310081+9999MW1101REMSYN088AAXX  18064 02584 31996 61802 10102 20096 40244 53008 71022 85031 333 20086 31/// 85399;EQDQ01  00002PRCP99
0179025840999992000101809004+58400+019200FM-12+001299999V0201801N000510021019N0100001N1+01181+01171102511ADDAY131031AY201031GA1051+002109069GF106991051061002501031001MD1210071+9999REMSYN076AAXX  18094 02584 42397 61801 10118 20117 40251 52007 75630 85630 333 85707;EQDQ01+000562PRSWM1
0138025840999992000101812004+58400+019200FM-12+001299999V0201801N001510030019N0100001N1+01381+01251102521ADDGA1081+003009069GF108991081061004501999999MD1110011+9999REMSYN070AAXX  18124 02584 42497 81803 10138 20125 40252 51001 886// 333 88710;
0166025840999992000101815004+58400+019200FM-12+001299999V0202301N000510024019N0040001N1+01151+01091102551ADDAY121031AY221031GA1081+002409069GF108991081061002501999999MD1210031+9999MW1101REMSYN076AAXX  18154 02584 41396 82301 10115 20109 40255 52003 71022 886// 333 88708;
0215025840999992000101818004+58400+019200FM-12+001299999V0202001N000510006019N0040001N1+01171+01091102651ADDAA199000091AY121061AY221061GA1081+000609069GF108991081061000751999999KA1120M+01381MD1210101+9999MW1101REMSYN082AAXX  18184 02584 31196 82001 10117 20109 40265 52010 71022 886// 333 10138 88702;EQDQ01  00002PRCP99
0166025840999992000101821004+58400+019200FM-12+001299999V0202701N001010024019N0040001N1+01191+01101102721ADDAY121031AY221031GA1081+002409069GF108991081061002501999999MD1210071+9999MW1101REMSYN076AAXX  18214 02584 41396 82702 10119 20110 40272 52007 71022 886// 333 88708;
0138025840999992000101900004+58400+019200FM-12+001299999V0202501N001010030019N0100001N1+01161+00971102781ADDGA1081+003009069GF108991081061004501999999MD1210061+9999REMSYN070AAXX  19004 02584 42497 82502 10116 20097 40278 52006 886// 333 88710;
0138025840999992000101903004+58400+019200FM-12+001299999V0202301N000510033019N0100001N1+01111+00921102771ADDGA1081+003309069GF108991081061004501999999MD1810011+9999REMSYN070AAXX  19034 02584 42497 82301 10111 20092 40277 58001 886// 333 88711;
0199025840999992000101906004+58400+019200FM-12+001299999V0201601N001510027019N0100001N1+01091+00951102771ADDAA199000091GA1081+002709069GF108991081061002501999999IA1099KA1120N+01071MD1410001+9999REMSYN082AAXX  19064 02584 32397 81603 10109 20095 40277 54000 886// 333 20107 31/// 88709;EQDQ01  00002PRCP99
0166025840999992000101909004+58400+019200FM-12+001299999V0201601N001010018019N0040001N1+01101+00991102831ADDAY121031AY221031GA1081+001809069GF108991081071001501999999MD1310061+9999MW1501REMSYN076AAXX  19094 02584 41296 81602 10110 20099 40283 53006 75022 887// 333 88706;
0166025840999992000101912004+58400+019200FM-12+001299999V0201601N000510009019N0040001N1+01091+01031102801ADDAY121061AY221061GA1081+000909069GF108991081071000751999999MD1810031+9999MW1501REMSYN076AAXX  19124 02584 41196 81601 10109 20103 40280 58003 75022 887// 333 88703;
0166025840999992000101915004+58400+019200FM-12+001299999V0201801N002112200019N0100001N1+01091+00871102741ADDAY151031AY251031GA1031+003309069GF103991031061004501001001MD1710061+9999MW1011REMSYN076AAXX  19154 02584 41497 31804 10109 20087 40274 57006 70155 83600 333 83711;
0202025840999992000101918004+58400+019200FM-12+001299999V0201801N003110069019N0200001N1+01091+00671102821ADDAA112000791AY151061AY251061GA1061+006909059GF106991061051008001001001KA1120M+01161MD1310081+9999MW1021REMSYN088AAXX  19184 02584 11598 61806 10109 20067 40282 53008 69902 70255 86500 333 10116 86623;
0138025840999992000101921004+58400+019200FM-12+001299999V0201801N002612200019N0200001N1+01081+00581102821ADDGA1041+010209059GF104991041051012501001001MD1410001+9999REMSYN070AAXX  19214 02584 42698 41805 10108 20058 40282 54000 84500 333 84634;
0122025840999992000102000004+58400+019200FM-12+001299999V0201801N002612200019N0200001N1+01081+00661102811ADDGA1001+999999999GF100991001001999999001001MD1810011+9999REMSYN054AAXX  20004 02584 42998 01805 10108 20066 40281 58001;
0138025840999992000102003004+58400+019200FM-12+001299999V0201801N002112200019N0200001N1+01081+00801102811ADDGA1041+010209059GF104991041051012501001001MD1410001+9999REMSYN070AAXX  20034 02584 42698 41804 10108 20080 40281 54000 84500 333 84634;
0199025840999992000102006004+58400+019200FM-12+001299999V0201801N003110105019N0200001N1+01121+00861102871ADDAA199000091GA1081+010509059GF108991081051012501999999IA1019KA1120N+01081MD1310061+9999REMSYN082AAXX  20064 02584 32698 81806 10112 20086 40287 53006 885// 333 20108 30/// 88635;EQDQ01  00002PRCP99
0144025840999992000102009004+58400+019200FM-12+001299999V0201801N00261004201CN0200001N1+01141+01051102951ADDGA1031+004209079GF108991081061004501999999MD1210081+9999REMSYN076AAXX  20094 02584 42498 81805 10114 20105 40295 52008 886// 333 83714 88633;
0138025840999992000102015004+58400+019200FM-12+001299999V0202001N002110126019N0200001N1+01151+00931103101ADDGA1071+012609059GF107991071051012501001001MD1210081+9999REMSYN070AAXX  20154 02584 42698 72004 10115 20093 40310 52008 87500 333 87642;
0193025840999992000102018004+58400+019200FM-12+001299999V0201801N00211004201CN0200001N1+01111+00951103141ADDAA199000091GA1031+003309079GF108991081061004501999999KA1120M+01181MD1210041+9999REMSYN082AAXX  20184 02584 32498 81804 10111 20095 40314 52004 886// 333 10118 83711 88641;EQDQ01  00002PRCP99
0138025840999992000102021004+58400+019200FM-12+001299999V0201801N002110120019N0200001N1+01061+00851103181ADDGA1081+012009059GF108991081051012501999999MD1110041+9999REMSYN070AAXX  20214 02584 42698 81804 10106 20085 40318 51004 885// 333 88640;
0138025840999992000102100004+58400+019200FM-12+001299999V0201801N001012200019N0200001N1+00901+00631103231ADDGA1041+012309059GF104991041051012501001001MD1310051+9999REMSYN070AAXX  21004 02584 42698 41802 10090 20063 40323 53005 84500 333 84641;
0138025840999992000102103004+58400+019200FM-12+001299999V0201601N001010084019N0200001N1+00821+00761103221ADDGA1081+008409059GF108991081051008001999999MD1510021+9999REMSYN070AAXX  21034 02584 42598 81602 10082 20076 40322 55002 885// 333 88628;
0205025840999992000102106004+58400+019200FM-12+001299999V0201601N001010021019N0200001N1+00971+00831103191ADDAA199000091GA1021+002509079GF108991081061002501999999IA1019KA1120N+00701MD1810031+9999REMSYN088AAXX  21064 02584 32398 81602 10097 20083 40319 58003 886// 333 20070 30/// 82793 88616;EQDQ01  00002PRCP99
0144025840999992000102109004+58400+019200FM-12+001299999V0201601N001510036019N0200001N1+01141+00881103241ADDGA1051+003609079GF108991081061004501999999MD1310051+9999REMSYN076AAXX  21094 02584 42498 81603 10114 20088 40324 53005 886// 333 85712 88615;
0138025840999992000102112004+58400+019200FM-12+001299999V0201801N003110024019N0040001N1+01171+00981103081ADDGA1081+002409069GF108991081061002501999999MD1810161+9999REMSYN070AAXX  21124 02584 42396 81806 10117 20098 40308 58016 886// 333 88708;
0172025840999992000102115004+58400+019200FM-12+001299999V0201801N003110021019N0040001N1+01161+01051102971ADDAY121031AY221031GA1051+002109079GF105991051061002501011001MD1710111+9999MW1101REMSYN082AAXX  21154 02584 41396 51806 10116 20105 40297 57011 71022 85610 333 85707 84499;
0203025840999992000102118004+58400+019200FM-12+001299999V0201801N003612200019N0040001N1+01041+00871102821ADDAA199000091AY121061AY221061GA1001+999999999GF100991001001999999001001KA1999M+01241MD1710151+9999MW1101REMSYN070AAXX  21184 02584 31996 01807 10104 20087 40282 57015 71022 333 10124;EQDQ01  00002PRCP99
0150025840999992000102121004+58400+019200FM-12+001299999V0201801N004112200019N0040001N1+01111+00921102641ADDAY121031AY221031GA1001+999999999GF100991001001999999001001MD1710181+9999MW1101REMSYN060AAXX  21214 02584 41996 01808 10111 20092 40264 57018 71022;
0166025840999992000102200004+58400+019200FM-12+001299999V0201801N004112200019N0040001N1+01121+00861102441ADDAY121061AY221061GA1031+999999079GF103991031001999999071001MD1710201+9999MW1101REMSYN076AAXX  22004 02584 41996 31808 10112 20086 40244 57020 71022 83070 333 83399;
0185025840999992000102203004+58400+019200FM-12+001299999V0201801N004110180019N0040001N1+01121+00961102251ADDAY121031AY221031GA1081+018009079GF108991081999999999071999MD1710191+9999MW1101REMSYN076AAXX  22034 02584 41996 81808 10112 20096 40225 57019 71022 8807/ 333 88356;EQDQ01+000002SCOLCG
0233025840999992000102206004+58400+019200FM-12+001299999V0202301N00411004201CN0040001N1+01211+01131102141ADDAA199000091AY121061AY221061GA1041+003009079GF108991081061004501999999IA1019KA1120N+01041MD1610111+9999MW1101REMSYN094AAXX  22064 02584 31496 82308 10121 20113 40214 56011 71022 886// 333 20104 30/// 84710 88633;EQDQ01  00002PRCP99
0172025840999992000102212004+58400+019200FM-12+001299999V0202301N004610300019N0020001N1+01241+01181102161ADDAY161061AY261061GA1031+002509079GF108991031071002501021999MD1310021+9999MW1021REMSYN082AAXX  22124 02584 41395 82309 10124 20118 40216 53002 70266 8372/ 333 83793 88523;
0166025840999992000102215004+58400+019200FM-12+001299999V0202301N003610750019N0040001N1+01241+01181102341ADDAY121031AY221031GA1021+002509069GF105991021071002501031011MD1310181+9999MW1101REMSYN076AAXX  22154 02584 41396 52307 10124 20118 40234 53018 71022 82731 333 82793;
0190025840999992000102218004+58400+019200FM-12+001299999V0202701N003112200019N0040001N1+01171+00991102351ADDAA112000891AY121061AY201061GA1001+999999999GF100991001001999999001001KA1999M+01261MD1110011+9999MW1101REMSYN076AAXX  22184 02584 11996 02706 10117 20099 40235 51001 69972 71020 333 10126;
0150025840999992000102221004+58400+019200FM-12+001299999V0202701N002112200019N0020001N1+01011+00951102461ADDAY101031AY201031GA1001+999999999GF100991001001999999001001MD1210111+9999MW1101REMSYN060AAXX  22214 02584 41995 02704 10101 20095 40246 52011 71000;
0150025840999992000102300004+58400+019200FM-12+001299999V0203401N000510003019N0002001N1+00721+00661102531ADDAY101061AY201061GA1091+999999999GF109991091999999999999999MD1210061+9999MW1451REMSYN060AAXX  23004 02584 41/92 93401 10072 20066 40253 52006 74500;
0166025840999992000102303004+58400+019200FM-12+001299999V0202301N002110006019N0002001N1+01061+01001102521ADDAY121031AY221031GA1081+000609069GF108991081061000751999999MD1810011+9999MW1441REMSYN076AAXX  23034 02584 41192 82304 10106 20100 40252 58001 74422 886// 333 88702;
0227025840999992000102306004+58400+019200FM-12+001299999V0202001N002110006019N0040001N1+00991+00931102521ADDAA199000091AY141061AY241061GA1081+000609069GF108991081061000751999999IA1099KA1120N+00681MD1510001+9999MW1101REMSYN088AAXX  23064 02584 31196 82004 10099 20093 40252 55000 71044 886// 333 20068 31/// 88702;EQDQ01  00002PRCP99
0194025840999992000102309004+58400+019200FM-12+001299999V0201801N00261002101CN0100001N1+01081+00971102481ADDAY141031AY241031GA1031+002709079GA2021+008009099GF106991061031002501031001MD1810041+9999MW1251REMSYN088AAXX  23094 02584 41397 61805 10108 20097 40248 58004 72544 86330 333 83709 82995 85399;
0144025840999992000102312004+58400+019200FM-12+001299999V0202001N00101002101CN0100001N1+01171+00981102361ADDGA1021+002709079GF106991061061002501001001MD1710121+9999REMSYN076AAXX  23124 02584 42397 62002 10117 20098 40236 57012 86600 333 82709 86641;
0166025840999992000102315004+58400+019200FM-12+001299999V0201801N001510300019N0100001N1+01111+01001102111ADDAY161031AY261031GA1061+030009079GF106991061001999999031001MD1710251+9999MW1021REMSYN076AAXX  23154 02584 41997 61803 10111 20100 40211 57025 70266 86030 333 86360;
0202025840999992000102318004+58400+019200FM-12+001299999V0202001N002110015019N0040001N1+01181+01121101921ADDAA112000791AY161061AY221061GA1081+001509069GF108991081061001501999999KA1120M+01201MD1710191+9999MW1101REMSYN088AAXX  23184 02584 11296 82004 10118 20112 40192 57019 69902 71062 886// 333 10120 88705;
0166025840999992000102321004+58400+019200FM-12+001299999V0202001N002610006019N0020001N1+01121+01061101701ADDAY121031AY221031GA1081+000609069GF108991081061000751999999MD1710221+9999MW1101REMSYN076AAXX  23214 02584 41195 82005 10112 20106 40170 57022 71022 886// 333 88702;
0166025840999992000102400004+58400+019200FM-12+001299999V0202001N002612200019N0010001N1+01131+01071101421ADDAY121061AY221061GA1031+000909069GF103991031061001501001001MD1810281+9999MW1101REMSYN076AAXX  24004 02584 41294 32005 10113 20107 40142 58028 71022 83600 333 83703;
0150025840999992000102403004+58400+019200FM-12+001299999V0201801N002612200019N0020001N1+01101+01021100951ADDAY121031AY221031GA1001+999999999GF100991001001999999001001MD1810471+9999MW1101REMSYN060AAXX  24034 02584 41995 01805 10110 20102 40095 58047 71022;
0227025840999992000102406004+58400+019200FM-12+001299999V0202301N003110027019N0040001N1+01111+00991100581ADDAA199000091AY121061AY221061GA1081+002709069GF108991081061002501999999IA1019KA1120N+01101MD1710371+9999MW1101REMSYN088AAXX  24064 02584 31396 82306 10111 20099 40058 57037 71022 886// 333 20110 30/// 88709;EQDQ01  00002PRCP99
0172025840999992000102409004+58400+019200FM-12+001299999V0202001N003610018019N0010001N1+01081+01021100291ADDAY121031AY221031GA1061+001809079GF108991061071002501021999MD1610291+9999MW1631REMSYN082AAXX  24094 02584 41394 82007 10108 20102 40029 56029 76322 8672/ 333 86706 88597;
0185025840999992000102412004+58400+019200FM-12+001299999V0202501N004112200019N0100001N1+01241+01151100061ADDAY161061AY221061GA1031+021009079GF103991031999022501031001MD1710231+9999MW1011REMSYN076AAXX  24124 02584 41897 32508 10124 20115 40006 57023 70162 83030 333 83357;EQDQ01+000002SCOLCG
0157025840999992000102415004+58400+019200FM-12+001299999V0202501N004110150019N0200001N1+01211+01001099941ADDGA1051+015009079GF105991051999017501071001MD1610121+9999REMSYN070AAXX  24154 02584 42798 52508 10121 20100 49994 56012 85070 333 85350;EQDQ01+000002SCOLCG
0221025840999992000102418004+58400+019200FM-12+001299999V0202501N005112200019N0200001N1+01181+00991099771ADDAA112003091AY111061AY211061GA1031+015009059GF103991031051017501999001KA1120M+01261MD1710171+9999MW1211REMSYN088AAXX  24184 02584 11798 32510 10118 20099 49977 57017 60032 72111 83500 333 10126 83650;EQDQ01    003SCOMCG
0144025840999992000102421004+58400+019200FM-12+001299999V0202501N00511004201CN0200001N1+01151+00961099751ADDGA1031+004809079GF108991081061004501001001MD1610021+9999REMSYN076AAXX  24214 02584 42498 82510 10115 20096 49975 56002 88600 333 83716 88650;
0144025840999992000102500004+58400+019200FM-12+001299999V0202501N00511004201CN0200001N1+01141+00901099661ADDGA1031+004809079GF108991081061004501999999MD1710091+9999REMSYN076AAXX  25004 02584 42498 82510 10114 20090 49966 57009 886// 333 83716 88644;
0138025840999992000102503004+58400+019200FM-12+001299999V0202701N005110105019N0200001N1+01141+00931099671ADDGA1061+010509059GF106991061051017501001001MD1110011+9999REMSYN070AAXX  25034 02584 42798 62710 10114 20093 49967 51001 86500 333 86635;
0242025840999992000102506004+58400+019200FM-12+001299999V0202701N004110042019N0200001N1+01171+00791099741ADDAA112000191AY121061AY221061GA1041+004509079GA2031+006309099GF108991061031004501071999IA1099KA1120N+01131MD1310071+9999MW1251REMSYN106AAXX  25064 02584 11498 82708 10117 20079 49974 53007 69912 72522 8637/ 333 20113 31/// 84794 83921 88399;
0172025840999992000102509004+58400+019200FM-12+001299999V0202701N005110042019N0200001N1+01141+00851099801ADDAY181031AY281031GA1021+004509079GF107991071031004501001001MD1110061+9999MW1251REMSYN082AAXX  25094 02584 41498 72710 10114 20085 49980 51006 72588 87300 333 82794 86938;
0172025840999992000102512004+58400+019200FM-12+001299999V0202701N004612200019N0200001N1+01171+00751099731ADDAY181061AY221061GA1011+004509079GF104991011061004501001011MD1810071+9999MW1011REMSYN082AAXX  25124 02584 41498 42709 10117 20075 49973 58007 70182 81601 333 81715 83099;
0144025840999992000102515004+58400+019200FM-12+001299999V0202701N00361030001CN0200001N1+01131+00921099631ADDGA1031+003909079GF108991031061004501021999MD1810101+9999REMSYN076AAXX  25154 02584 42498 82707 10113 20092 49963 58010 8362/ 333 83713 88550;
0208025840999992000102518004+58400+019200FM-12+001299999V0202301N00311030001CN0040001N1+01031+00971099391ADDAA112000891AY121061AY221061GA1041+002709079GF108991041071002501021999KA1120M+01201MD1710241+9999MW1621REMSYN094AAXX  25184 02584 11396 82306 10103 20097 49939 57024 69982 76222 8472/ 333 10120 84709 88550;
0172025840999992000102521004+58400+019200FM-12+001299999V0202001N001510300019N0040001N1+00991+00931099041ADDAY161031AY261031GA1041+001509079GF108991041071001501021999MD1710351+9999MW1611REMSYN082AAXX  25214 02584 41296 82003 10099 20093 49904 57035 76166 8472/ 333 84705 88599;
0207025840999992000102600004+58400+019200FM-12+001299999V0202701N00361030001CN0040001N1+01051+00991999999ADDAY161061AY261061GA1041+002409079GF108991041071002501021999MD1710181+9999MW1611REMSYN082AAXX  26004 02584 41396 82707 10105 20099 40886 57018 76166 8472/ 333 84708 88546;EQDQ01+108863APOSLPQ02 108863APOSLP
0172025840999992000102603004+58400+019200FM-12+001299999V0200201N00051030001CN0040001N1+00991+00931098911ADDAY161031AY261031GA1041+002109079GF108991041071002501021999MD1310051+9999MW1601REMSYN082AAXX  26034 02584 41396 80201 10099 20093 49891 53005 76066 8472/ 333 84707 88538;
0220025840999992000102606004+58400+019200FM-12+001299999V0202901N000510300019N0040001N1+00951+00891099081ADDAA112009991AY161061AY261061GA1041+005409079GF108991041071004501021999IA1099KA1120N+00941MD1210171+9999MW1101REMSYN100AAXX  26064 02584 11496 82901 10095 20089 49908 52017 60102 71066 8472/ 333 20094 31/// 84718 88599;
0166025840999992000102609004+58400+019200FM-12+001299999V0209999V000510039019N0040001N1+00961+00901099291ADDAY161031AY221031GA1081+003909069GF108991081071004501999999MD1210211+9999MW1501REMSYN076AAXX  26094 02584 41496 89901 10096 20090 49929 52021 75062 887// 333 88713;
0166025840999992000102612004+58400+019200FM-12+001299999V0209999V000510006019N0040001N1+00981+00921099441ADDAY161061AY221061GA1081+000609069GF108991081061000751999999MD1210151+9999MW1201REMSYN076AAXX  26124 02584 41196 89901 10098 20092 49944 52015 72062 886// 333 88702;
0172025840999992000102615004+58400+019200FM-12+001299999V0202701N001010012019N0040001N1+01041+00981099541ADDAY121031AY221031GA1051+001209079GF108991051071001501021999MD1110101+9999MW1631REMSYN082AAXX  26154 02584 41296 82702 10104 20098 49954 51010 76322 8572/ 333 85704 88599;
0208025840999992000102618004+58400+019200FM-12+001299999V0200701N003610015019N0020001N1+00771+00691099681ADDAA112013091AY161061AY221061GA1051+001509079GF108991051071001501021999KA1120M+01041MD1210141+9999MW1621REMSYN094AAXX  26184 02584 11295 80707 10077 20069 49968 52014 60132 76262 8572/ 333 10104 85705 88598;
0172025840999992000102621004+58400+019200FM-12+001299999V0200701N003610021019N0020001N1+00701+00631099791ADDAY161031AY261031GA1051+002109079GF108991051071002501021999MD1110111+9999MW1611REMSYN082AAXX  26214 02584 41395 80707 10070 20063 49979 51011 76166 8572/ 333 85707 88598;
0172025840999992000102700004+58400+019200FM-12+001299999V0200501N004110033019N0020001N1+00621+00521099881ADDAY161061AY261061GA1061+003309079GF108991061071004501021999MD1210091+9999MW1611REMSYN082AAXX  27004 02584 41495 80508 10062 20052 49988 52009 76166 8672/ 333 86711 88598;
0166025840999992000102703004+58400+019200FM-12+001299999V0200701N002610048019N0040001N1+00601+00431100041ADDAY161031AY261031GA1071+004809069GF107991071071004501001001MD1310161+9999MW1101REMSYN076AAXX  27034 02584 41496 70705 10060 20043 40004 53016 71066 87700 333 87716;
0220025840999992000102706004+58400+019200FM-12+001299999V0200701N001010300019N0100001N1+00591+00201100291ADDAA112005191AY161061AY221061GA1041+007209069GF108991041051008001021999IA1119KA1120N+00591MD1310251+9999MW1611REMSYN100AAXX  27064 02584 11597 80702 10059 20020 40029 53025 60052 76162 8452/ 333 20059 32/// 84624 88598;
0172025840999992000102709004+58400+019200FM-12+001299999V0200201N001010030019N0100001N1+00621+00501100491ADDAY161031AY261031GA1061+003009079GF108991061071004501021999MD1110201+9999MW1611REMSYN082AAXX  27094 02584 41497 80202 10062 20050 40049 51020 76166 8672/ 333 86710 88598;
0172025840999992000102712004+58400+019200FM-12+001299999V0200201N00151004201CN0200001N1+00701+00381100641ADDAY161061AY261061GA1041+004209079GF108991081051004501999999MD1210151+9999MW1021REMSYN082AAXX  27124 02584 41498 80203 10070 20038 40064 52015 70266 885// 333 84714 88550;
0172025840999992000102715004+58400+019200FM-12+001299999V0203601N00211004201CN0200001N1+00661+00251100821ADDAY161031AY261031GA1041+005109079GF108991081051004501999999MD1310181+9999MW1021REMSYN082AAXX  27154 02584 41498 83604 10066 20025 40082 53018 70266 885// 333 84717 88556;
0202025840999992000102718004+58400+019200FM-12+001299999V0200201N002110063019N0200001N1+00591+00171101041ADDAA112001091AY161061AY261061GA1061+006309059GF106991061051008001001001KA1120M+00721MD1210221+9999MW1011REMSYN088AAXX  27184 02584 11598 60204 10059 20017 40104 52022 60012 70166 86500 333 10072 86621;
0138025840999992000102721004+58400+019200FM-12+001299999V0200201N001012200019N0200001N1+00511+00051101211ADDGA1031+006009059GF103991031051008001001001MD1210171+9999REMSYN070AAXX  27214 02584 42598 30202 10051 20005 40121 52017 83500 333 83620;
0138025840999992000102800004+58400+019200FM-12+001299999V0203401N000512200019N0200001N1+00341+00011101351ADDGA1011+007209059GF101991011051008001001001MD1210141+9999REMSYN070AAXX  28004 02584 42598 13401 10034 20001 40135 52014 81500 333 81624;
0107025840999992000102803004+58400+019200FM-12+001299999V0202901N000512200019N0200001N1+00151+99999999999ADDGF104991999999008001999999REMSYN069AAXX  28034 02584 42598 42901 10015 0006 40137 51002 84500 333 84620;
0215025840999992000102806004+58400+019200FM-12+001299999V0209999C000010150019N0100001N1+00221+00121101441ADDAA199000091GA1051+015009059GF105991051051017501999001IA1019KA1120N+00111MD1210071+9999REMSYN082AAXX  28064 02584 32797 50000 10022 20012 40144 52007 85500 333 20011 30/// 85650;EQDQ01  00002PRCP99Q02    003SCOMCG
0138025840999992000102812004+58400+019200FM-12+001299999V0209999V000510150019N0200001N1+00731+00171101411ADDGA1081+015009059GF108991081051012501999999MD1810071+9999REMSYN070AAXX  28124 02584 42698 89901 10073 20017 40141 58007 885// 333 88650;
0172025840999992000102815004+58400+019200FM-12+001299999V0201101N001010066019N0100001N1+00651+00411101261ADDAY121031AY221031GA1051+006609079GF108991051071008001021999MD1210151+9999MW1611REMSYN082AAXX  28154 02584 41597 81102 10065 20041 40126 52015 76122 8572/ 333 85722 88599;
0208025840999992000102818004+58400+019200FM-12+001299999V0200901N002110027019N0100001N1+00731+00661101121ADDAA112001091AY161061AY221061GA1051+002709079GF108991051071002501021999KA1120M+00731MD1710141+9999MW1611REMSYN094AAXX  28184 02584 11397 80904 10073 20066 40112 57014 60012 76162 8572/ 333 10073 85709 88599;
0172025840999992000102821004+58400+019200FM-12+001299999V0200901N003110300019N0040001N1+00871+00791101031ADDAY161031AY261031GA1041+000609079GF108991041071000751021999MD1810091+9999MW1211REMSYN082AAXX  28214 02584 41196 80906 10087 20079 40103 58009 72166 8472/ 333 84702 88599;
0172025840999992000102900004+58400+019200FM-12+001299999V0200901N003110003019N0040001N1+00941+00861101041ADDAY161061AY261061GA1061+000309079GF108991061071000751021999MD1310011+9999MW1601REMSYN082AAXX  29004 02584 41196 80906 10094 20086 40104 53001 76066 8672/ 333 86701 88599;
0172025840999992000102903004+58400+019200FM-12+001299999V0201101N002610006019N0040001N1+00931+00851101011ADDAY161031AY261031GA1061+000609079GF108991061071000751021999MD1810031+9999MW1611REMSYN082AAXX  29034 02584 41196 81105 10093 20085 40101 58003 76166 8672/ 333 86702 88599;
0214025840999992000102906004+58400+019200FM-12+001299999V0201601N001010036019N0040001N1+00941+00861100911ADDAA112007191AY161061AY261061GA1081+003609069GF108991081071004501999999IA1119KA1120N+00731MD1810101+9999MW1211REMSYN094AAXX  29064 02584 11496 81602 10094 20086 40091 58010 60072 72166 887// 333 20073 32/// 88712;
0172025840999992000102909004+58400+019200FM-12+001299999V0201101N00151030001CN0040001N1+01001+00911100711ADDAY161031AY261031GA1011+002709079GF108991011071002501021999MD1810201+9999MW1101REMSYN082AAXX  29094 02584 41396 81103 10100 20091 40071 58020 71066 8172/ 333 81709 88550;
0172025840999992000102912004+58400+019200FM-12+001299999V0201401N002610300019N0040001N1+01081+00991100351ADDAY161061AY221061GA1041+000609079GF108991041071000751021999MD1810361+9999MW1631REMSYN082AAXX  29124 02584 41196 81405 10108 20099 40035 58036 76362 8472/ 333 84702 88597;
0172025840999992000102915004+58400+019200FM-12+001299999V0202001N003110024019N0040001N1+01081+00991100111ADDAY161031AY261031GA1071+002409079GF108991071071002501021999MD1610241+9999MW1621REMSYN082AAXX  29154 02584 41396 82006 10108 20099 40011 56024 76266 8772/ 333 87708 88597;
0221025840999992000102918004+58400+019200FM-12+001299999V0202701N004112200019N0100001N1+01051+00931100191ADDAA112003091AY161061AY261061GA1011+018009059GF101991011051022501999001KA1120M+01121MD1310081+9999MW1011REMSYN088AAXX  29184 02584 11897 12708 10105 20093 40019 53008 60032 70166 81500 333 10112 81656;EQDQ01+000002SCOMCG
0122025840999992000102921004+58400+019200FM-12+001299999V0202501N005112200019N0200001N1+01031+00791100251ADDGA1001+999999999GF100991001001999999001001MD1210061+9999REMSYN054AAXX  29214 02584 42998 02510 10103 20079 40025 52006;
0173025840999992000103000004+58400+019200FM-12+001299999V0202901N999992200019N0200001N1+01021+00811100131ADDGA1021+015009059GF102991021051017501999001MD1810121+9999REMSYN070AAXX  30004 02584 42798 22998 10102 20081 40013 58012 82500 333 82650;EQDQ01+005043WOSPD Q02    003SCOMCG
0166025840999992000103003004+58400+019200FM-12+001299999V0202901N005112200019N0200001N1+00941+00631100051ADDAY181031AY281031GA1031+006009099GF103991031031008001001001MD1710081+9999MW1021REMSYN076AAXX  30034 02584 41598 32910 10094 20063 40005 57008 70288 83300 333 83920;
0220025840999992000103006004+58400+019200FM-12+001299999V0202301N00411004201CN0200001N1+00921+00541100001ADDAA112001091AY181061AY281061GA1021+005109099GF108991081031004501999999IA1099KA1120N+00801MD1710081+9999MW1031REMSYN100AAXX  30064 02584 11498 82308 10092 20054 40000 57008 60012 70388 883// 333 20080 31/// 82917 87648;
0138025840999992000103009004+58400+019200FM-12+001299999V0202001N00461075001CN0200001N1+00991+00711099911ADDGA1081+999999019GF108991081001999999011999MD1710091+9999REMSYN070AAXX  30094 02584 42998 82009 10099 20071 49991 57009 8801/ 333 88499;
0172025840999992000103012004+58400+019200FM-12+001299999V0201801N003610024019N0040001N1+00931+00871099661ADDAY121061AY221061GA1051+002409079GF108991051071002501021999MD1710251+9999MW1631REMSYN082AAXX  30124 02584 41396 81807 10093 20087 49966 57025 76322 8572/ 333 85708 88599;
0172025840999992000103015004+58400+019200FM-12+001299999V0201801N003610012019N0040001N1+00971+00911099421ADDAY161031AY261031GA1051+001209079GF108991051071001501021999MD1710241+9999MW1611REMSYN082AAXX  30154 02584 41296 81807 10097 20091 49942 57024 76166 8572/ 333 85704 88599;
0208025840999992000103018004+58400+019200FM-12+001299999V0201801N004110300019N0100001N1+01041+00871099231ADDAA112007191AY161061AY261061GA1011+005409079GF108991011071004501021999KA1120M+01041MD1810191+9999MW1021REMSYN094AAXX  30184 02584 11497 81808 10104 20087 49923 58019 60072 70266 8172/ 333 10104 81718 88596;
0172025840999992000103021004+58400+019200FM-12+001299999V0201801N004110300019N0100001N1+01141+00761099011ADDAY121031AY221031GA1021+013209069GF108991021051012501021999MD1710221+9999MW1611REMSYN082AAXX  30214 02584 41697 81808 10114 20076 49901 57022 76122 8252/ 333 82644 88599;
0166025840999992000103100004+58400+019200FM-12+001299999V0202001N004610150019N0200001N1+01131+00851098771ADDAY161061AY221061GA1081+015009029GF108991081001017501021999MD1710241+9999MW1021REMSYN076AAXX  31004 02584 41798 82009 10113 20085 49877 57024 70262 8802/ 333 88550;
0138025840999992000103103004+58400+019200FM-12+001299999V0202001N005712200019N0200001N1+01101+00471098911ADDGA1041+008009059GF104991041051008001001001MD1310141+9999REMSYN070AAXX  31034 02584 42598 42011 10110 20047 49891 53014 84500 333 84695;
0186025840999992000103106004+58400+019200FM-12+001299999V0202001N004112200019N0200001N1+01031+00701099071ADDAA112000191GA1031+999999019GF103991001001999999001011IA1019KA1120N+00991MD1110161+9999REMSYN088AAXX  31064 02584 12998 32008 10103 20070 49907 51016 69922 80001 333 20099 30/// 83099;
0138025840999992000103109004+58400+019200FM-12+001299999V0202001N003612200019N0200001N1+01021+00761099261ADDGA1031+007209059GF105991031051008001001011MD1210191+9999REMSYN070AAXX  31094 02584 42598 52007 10102 20076 49926 52019 83501 333 83624;
0144025840999992000103112004+58400+019200FM-12+001299999V0201801N00311999999CN0200001N1+01121+00661099341ADDGA1071+025009039GF108991081001999999071999MD1110081+9999REMSYN076AAXX  31124 02584 42998 81806 10112 20066 49934 51008 8807/ 333 87399 88499;
0144025840999992000103115004+58400+019200FM-12+001299999V0202001N00311999999CN0200001N1+01071+00691099491ADDGA1071+025009039GF108991081001999999071999MD1310151+9999REMSYN076AAXX  31154 02584 42998 82006 10107 20069 49949 53015 8807/ 333 87399 88499;
0193025840999992000103118004+58400+019200FM-12+001299999V0202001N013410300019N0200001N1+01031+00821099551ADDAA199000091GA1031+006609069GF108991031051008001071999KA1120M+01151MD1110061+9999REMSYN082AAXX  31184 02584 32598 82026 10103 20082 49955 51006 8357/ 333 10115 83622 88499;EQDQ01  00002PRCP99
0138025840999992000103121004+58400+019200FM-12+001299999V0201801N002610054019N0200001N1+01031+00841099601ADDGA1081+005409059GF108991081051004501999999MD1210051+9999REMSYN070AAXX  31214 02584 42498 81805 10103 20084 49960 52005 885// 333 88618;
0138025840999992000110100004+58400+019200FM-12+001299999V0201801N003112200019N0200001N1+01021+00861099551ADDGA1011+011709059GF101991011051012501001001MD1810051+9999REMSYN070AAXX  01004 02584 42698 11806 10102 20086 49955 58005 81500 333 81639;
0138025840999992000110103004+58400+019200FM-12+001299999V0201801N003112200019N0200001N1+00971+00801099581ADDGA1011+030009079GF101991011001999999031001MD1210031+9999REMSYN070AAXX  01034 02584 42998 11806 10097 20080 49958 52003 81030 333 81360;
0205025840999992000110106004+58400+019200FM-12+001299999V0202001N00511009001CN0200001N1+01031+00891099711ADDAA199000091GA1021+005709089GF106991061081004501001001IA1019KA1120N+00961MD1210131+9999REMSYN088AAXX  01064 02584 32498 62010 10103 20089 49971 52013 86800 333 20096 30/// 82819 84650;EQDQ01  00002PRCP99
0138025840999992000110109004+58400+019200FM-12+001299999V0202001N003612200019N0200001N1+01051+00761099971ADDGA1021+008009059GF102991021051008001001001MD1110261+9999REMSYN070AAXX  01094 02584 42598 22007 10105 20076 49997 51026 82500 333 82695;
0138025840999992000110112004+58400+019200FM-12+001299999V0202301N004112200019N0200001N1+01151+00801100121ADDGA1011+008009059GF101991011051008001001001MD1210131+9999REMSYN070AAXX  01124 02584 42598 12308 10115 20080 40012 52013 81500 333 81695;
0138025840999992000110115004+58400+019200FM-12+001299999V0202301N002612200019N0200001N1+01041+00801100251ADDGA1011+007209059GF101991011051008001001001MD1210131+9999REMSYN070AAXX  01154 02584 42598 12305 10104 20080 40025 52013 81500 333 81624;
0175025840999992000110118004+58400+019200FM-12+001299999V0202001N002112200019N0200001N1+00931+00791100361ADDAA199000091GA1001+999999999GF100991001001999999001001KA1999M+01151MD1110111+9999REMSYN064AAXX  01184 02584 32998 02004 10093 20079 40036 51011 333 10115;EQDQ01  00002PRCP99
0122025840999992000110121004+58400+019200FM-12+001299999V0201801N002112200019N0200001N1+00901+00741100321ADDGA1001+999999999GF100991001001999999001001MD1810041+9999REMSYN054AAXX  01214 02584 42998 01804 10090 20074 40032 58004;
0122025840999992000110200004+58400+019200FM-12+001299999V0201801N001512200019N0100001N1+00881+00791100241ADDGA1001+999999999GF100991001001999999001001MD1810081+9999REMSYN054AAXX  02004 02584 42997 01803 10088 20079 40024 58008;
0166025840999992000110203004+58400+019200FM-12+001299999V0202001N001510027019N0040001N1+00861+00781100151ADDAY101031AY201031GA1051+002709069GF105991051061002501001001MD1710091+9999MW1101REMSYN076AAXX  02034 02584 41396 52003 10086 20078 40015 57009 71000 85600 333 85709;
0199025840999992000110206004+58400+019200FM-12+001299999V0202001N002110030019N0100001N1+00971+00831100091ADDAA199000091GA1071+003009069GF107991071061004501999999IA1019KA1120N+00791MD1610061+9999REMSYN082AAXX  02064 02584 32497 72004 10097 20083 40009 56006 876// 333 20079 30/// 87710;EQDQ01  00002PRCP99
0138025840999992000110209004+58400+019200FM-12+001299999V0201801N003110036019N0200001N1+01031+00841100061ADDGA1071+003609059GF107991071051004501999999MD1210031+9999REMSYN070AAXX  02094 02584 42498 71806 10103 20084 40006 52003 875// 333 87612;
0166025840999992000110212004+58400+019200FM-12+001299999V0202301N004110042019N0200001N1+00921+00541100131ADDAY181061AY221061GA1071+004209099GF107991071031004501999999MD1310071+9999MW1021REMSYN076AAXX  02124 02584 41498 72308 10092 20054 40013 53007 70282 873// 333 87914;
0144025840999992000110215004+58400+019200FM-12+001299999V0202501N00411004201CN0200001N1+00911+00561100301ADDGA1021+005409099GF105991051031004501001001MD1210171+9999REMSYN076AAXX  02154 02584 42498 52508 10091 20056 40030 52017 85300 333 82918 83626;
0180025840999992000110218004+58400+019200FM-12+001299999V0202301N00411004201CN0200001N1+00941+00661100551ADDAA112000791GA1021+003309099GF108991081031004501999999KA1120M+01071MD1210251+9999REMSYN088AAXX  02184 02584 12498 82308 10094 20066 40055 52025 69902 883// 333 10107 82911 87644;
0138025840999992000110221004+58400+019200FM-12+001299999V0202001N002612200019N0100001N1+00931+00821100671ADDGA1041+003009069GF104991041061004501001001MD1110171+9999REMSYN070AAXX  02214 02584 42497 42005 10093 20082 40067 51017 84600 333 84710;
0138025840999992000110300004+58400+019200FM-12+001299999V0202001N003112200019N0200001N1+00921+00731100821ADDGA1031+012309059GF103991031051012501001001MD1210151+9999REMSYN070AAXX  03004 02584 42698 32006 10092 20073 40082 52015 83500 333 83641;
0122025840999992000110303004+58400+019200FM-12+001299999V0201801N002112200019N0100001N1+00871+00731100851ADDGA1001+999999999GF100991001001999999001001MD1110031+9999REMSYN054AAXX  03034 02584 42997 01804 10087 20073 40085 51003;
0199025840999992000110306004+58400+019200FM-12+001299999V0201601N002612200019N0200001N1+00941+00631100801ADDAA199000091GA1031+006309059GF103991031051008001001001IA1019KA1120N+00851MD1710051+9999REMSYN082AAXX  03064 02584 32598 31605 10094 20063 40080 57005 83500 333 20085 30/// 83621;EQDQ01  00002PRCP99
0144025840999992000110309004+58400+019200FM-12+001299999V0201601N00311030001CN0100001N1+00971+00851100811ADDGA1041+002409079GF108991041061002501071999MD1210011+9999REMSYN076AAXX  03094 02584 42397 81606 10097 20085 40081 52001 8467/ 333 84708 88359;
0144025840999992000110312004+58400+019200FM-12+001299999V0201801N00361030001CN0100001N1+01011+00891100791ADDGA1041+002409079GF108991041061002501071999MD1710021+9999REMSYN076AAXX  03124 02584 42397 81807 10101 20089 40079 57002 8467/ 333 84708 88358;
0138025840999992000110315004+58400+019200FM-12+001299999V0201801N002112200019N0100001N1+00991+00881100781ADDGA1031+003009069GF103991031061004501001001MD1710011+9999REMSYN070AAXX  03154 02584 42497 31804 10099 20088 40078 57001 83600 333 83710;
0187025840999992000110318004+58400+019200FM-12+001299999V0201601N002610045019N0200001N1+01051+00841100791ADDAA199000091GA1081+004509059GF108991081051004501999999KA1120M+01051MD1010011+9999REMSYN076AAXX  03184 02584 32498 81605 10105 20084 40079 50001 885// 333 10105 88615;EQDQ01  00002PRCP99
0138025840999992000110321004+58400+019200FM-12+001299999V0201801N003110033019N0200001N1+01021+00851100791ADDGA1071+003309059GF107991071051004501999999MD1410001+9999REMSYN070AAXX  03214 02584 42498 71806 10102 20085 40079 54000 875// 333 87611;
0166025840999992000110400004+58400+019200FM-12+001299999V0201801N002610033019N0200001N1+00951+00781100741ADDAY161061AY221061GA1081+003309059GF108991081051004501999999MD1810051+9999MW1021REMSYN076AAXX  04004 02584 41498 81805 10095 20078 40074 58005 70262 885// 333 88611;
0138025840999992000110403004+58400+019200FM-12+001299999V0201601N002110027019N0100001N1+00961+00821100611ADDGA1081+002709069GF108991081061002501999999MD1610131+9999REMSYN070AAXX  04034 02584 42397 81604 10096 20082 40061 56013 886// 333 88709;
0186025840999992000110406004+58400+019200FM-12+001299999V0201401N002110027019N0100001N1+00961+00801100511ADDAA112000791GA1081+002709069GF108991081061002501999999IA1019KA1120N+00931MD1810101+9999REMSYN088AAXX  04064 02584 12397 81404 10096 20080 40051 58010 69902 886// 333 20093 30/// 88709;
0166025840999992000110409004+58400+019200FM-12+001299999V0201601N003110021019N0040001N1+01001+00891100431ADDAY121031AY221031GA1081+002109069GF108991081071002501999999MD1710081+9999MW1501REMSYN076AAXX  04094 02584 41396 81606 10100 20089 40043 57008 75022 887// 333 88707;
0172025840999992000110412004+58400+019200FM-12+001299999V0201801N002610015019N0040001N1+01031+00951100361ADDAY151061AY221061GA1071+001509079GF108991071071001501021999MD1610071+9999MW1621REMSYN082AAXX  04124 02584 41296 81805 10103 20095 40036 56007 76252 8772/ 333 87705 88599;
0172025840999992000110415004+58400+019200FM-12+001299999V0202001N002110006019N0040001N1+01001+00921100461ADDAY161031AY261031GA1061+000609079GF108991061071000751021999MD1310101+9999MW1631REMSYN082AAXX  04154 02584 41196 82004 10100 20092 40046 53010 76366 8672/ 333 86702 88599;
0208025840999992000110418004+58400+019200FM-12+001299999V0202701N001010012019N0040001N1+00961+00901100601ADDAA112005191AY161061AY261061GA1051+001209079GF108991051071001501021999KA1120M+01041MD1210141+9999MW1601REMSYN094AAXX  04184 02584 11296 82702 10096 20090 40060 52014 60052 76066 8572/ 333 10104 85704 88556;
0172025840999992000110421004+58400+019200FM-12+001299999V0202701N001519999999N0020001N1+00971+00911100771ADDAY121031AY221031GA1031+001809079GF108991031011001501001001MD1210171+9999MW1101REMSYN082AAXX  04214 02584 41295 82703 10097 20091 40077 52017 71022 83100 333 83706 88620;
0166025840999992000110500004+58400+019200FM-12+001299999V0202901N001512200019N0040001N1+00831+00721100821ADDAY121061AY221061GA1041+003309059GF104991041051004501001001MD1110101+9999MW1101REMSYN076AAXX  05004 02584 41496 42903 10083 20072 40082 51010 71022 84500 333 84611;
0166025840999992000110503004+58400+019200FM-12+001299999V0202701N001012200019N0040001N1+00731+00701100951ADDAY121031AY221031GA1031+003909059GF103991031031004501001001MD1210131+9999MW1101REMSYN076AAXX  05034 02584 41496 32702 10073 20070 40095 52013 71022 83300 333 83613;
0214025840999992000110506004+58400+019200FM-12+001299999V0202901N00101075001CN0040001N1+00481+00421100941ADDAA112000191AY121061AY221061GA1081+999999019GF108991081001999999011999IA1099KA1120N+00471MD1810011+9999MW1101REMSYN094AAXX  05064 02584 11996 82902 10048 20042 40094 58001 69912 71022 8801/ 333 20047 31/// 88499;
0166025840999992000110509004+58400+019200FM-12+001299999V0203601N00051075001CN0040001N1+00761+00681100921ADDAY121031AY221031GA1081+999999029GF108991081001999999021999MD1710021+9999MW1101REMSYN076AAXX  05094 02584 41996 83601 10076 20068 40092 57002 71022 8802/ 333 88599;
0144025840999992000110512004+58400+019200FM-12+001299999V0203401N002110300019N0100001N1+00851+00731100781ADDGA1031+003009079GF108991031061004501021999MD1710141+9999REMSYN076AAXX  05124 02584 42497 83404 10085 20073 40078 57014 8362/ 333 83710 88599;
0144025840999992000110515004+58400+019200FM-12+001299999V0203401N00211002101CN0100001N1+00801+00691100741ADDGA1021+002709079GF106991061061002501001001MD1710041+9999REMSYN076AAXX  05154 02584 42397 63404 10080 20069 40074 57004 86600 333 82709 85694;
0187025840999992000110518004+58400+019200FM-12+001299999V0202901N002110030019N0100001N1+00721+00571100751ADDAA199000091GA1071+003009069GF107991071061004501999999KA1120M+00851MD1310011+9999REMSYN076AAXX  05184 02584 32497 72904 10072 20057 40075 53001 876// 333 10085 87710;EQDQ01  00002PRCP99
0138025840999992000110521004+58400+019200FM-12+001299999V0202901N002112200019N0100001N1+00631+00481100781ADDGA1011+004509069GF101991011061004501001001MD1210031+9999REMSYN070AAXX  05214 02584 42497 12904 10063 20048 40078 52003 81600 333 81794;
0138025840999992000110600004+58400+019200FM-12+001299999V0202501N001510036019N0200001N1+00771+00251100851ADDGA1061+003609059GF106991061051004501001001MD1110071+9999REMSYN070AAXX  06004 02584 42498 62503 10077 20025 40085 51007 86500 333 86612;
0138025840999992000110603004+58400+019200FM-12+001299999V0202501N002612200019N0200001N1+00781+00041100911ADDGA1041+011409059GF104991041051012501001001MD1210061+9999REMSYN070AAXX  06034 02584 42698 42505 10078 20004 40091 52006 84500 333 84638;
0215025840999992000110606004+58400+019200FM-12+001299999V0202301N001510150019N0200001N1+00551+00131100981ADDAA199000091GA1061+015009059GF106991061051017501999001IA1019KA1120N+00551MD1210071+9999REMSYN082AAXX  06064 02584 32798 62303 10055 20013 40098 52007 86500 333 20055 30/// 86650;EQDQ01  00002PRCP99Q02    003SCOMCG
0144025840999992000110609004+58400+019200FM-12+001299999V0202301N00261012001CN0200001N1+00851+00391101101ADDGA1011+006009099GF106991061081008001001001MD1110121+9999REMSYN076AAXX  06094 02584 42598 62305 10085 20039 40110 51012 86800 333 81920 85638;
0138025840999992000110612004+58400+019200FM-12+001299999V0202001N001512200019N0500001N1+00931+00281101151ADDGA1011+999999079GF101991011001999999071001MD1210051+9999REMSYN070AAXX  06124 02584 42999 12003 10093 20028 40115 52005 81070 333 81399;
0138025840999992000110615004+58400+019200FM-12+001299999V0202001N001012200019N0200001N1+00741+00391101201ADDGA1011+007509059GF101991011051008001001001MD1210051+9999REMSYN070AAXX  06154 02584 42598 12002 10074 20039 40120 52005 81500 333 81625;
0202025840999992000110618004+58400+019200FM-12+001299999V0201401N002112200019N0200001N1+00731+00271101111ADDAA112000791AY181061AY201061GA1011+005409099GF101991011031008001001001KA1120M+00941MD1810091+9999MW1021REMSYN088AAXX  06184 02584 11598 11404 10073 20027 40111 58009 69902 70280 81300 333 10094 81918;
0144025840999992000110621004+58400+019200FM-12+001299999V0201401N002112200019N0200001N1+00681+00481101141ADDGA1011+004209099GF104991041031004501001001MD1210031+9999REMSYN076AAXX  06214 02584 42498 41404 10068 20048 40114 52003 84300 333 81914 83614;
0138025840999992000110700004+58400+019200FM-12+001299999V0201401N002112200019N0200001N1+00711+00541100971ADDGA1011+003909069GF101991011061004501001001MD1810171+9999REMSYN070AAXX  07004 02584 42498 11404 10071 20054 40097 58017 81600 333 81713;
0138025840999992000110703004+58400+019200FM-12+001299999V0201101N003112200019N0200001N1+00791+00601100741ADDGA1011+004209069GF101991011061004501001001MD1710231+9999REMSYN070AAXX  07034 02584 42498 11106 10079 20060 40074 57023 81600 333 81714;
0215025840999992000110706004+58400+019200FM-12+001299999V0201101N004110210019N0200001N1+00861+00641100551ADDAA199000091GA1061+021009079GF106991061999022501031001IA1019KA1120N+00661MD1710191+9999REMSYN082AAXX  07064 02584 32898 61108 10086 20064 40055 57019 86030 333 20066 30/// 86357;EQDQ01+000002SCOLCGQ02  00002PRCP99
0138025840999992000110709004+58400+019200FM-12+001299999V0201101N004110030019N0100001N1+00851+00681100491ADDGA1081+003009069GF108991081061004501999999MD1710061+9999REMSYN070AAXX  07094 02584 42497 81108 10085 20068 40049 57006 886// 333 88710;
0144025840999992000110712004+58400+019200FM-12+001299999V0201101N003610033019N0100001N1+00891+00701100381ADDGA1061+003309079GF108991061061004501021999MD1810111+9999REMSYN076AAXX  07124 02584 42497 81107 10089 20070 40038 58011 8662/ 333 86711 88599;
0144025840999992000110715004+58400+019200FM-12+001299999V0201101N003610036019N0100001N1+00921+00711100251ADDGA1061+003609079GF108991061061004501021999MD1710131+9999REMSYN076AAXX  07154 02584 42497 81107 10092 20071 40025 57013 8662/ 333 86712 88599;
0187025840999992000110718004+58400+019200FM-12+001299999V0201101N004110069019N0200001N1+00901+00681100161ADDAA199000091GA1071+006909059GF107991071051008001999999KA1120M+00951MD1610091+9999REMSYN076AAXX  07184 02584 32598 71108 10090 20068 40016 56009 875// 333 10095 87623;EQDQ01  00002PRCP99
0172025840999992000110721004+58400+019200FM-12+001299999V0201401N004110033019N0100001N1+00911+00821100021ADDAY121031AY221031GA1061+003309079GF108991061071004501021999MD1810141+9999MW1601REMSYN082AAXX  07214 02584 41497 81408 10091 20082 40002 58014 76022 8672/ 333 86711 88598;
0220025840999992000110806004+58400+019200FM-12+001299999V0201101N003110015019N0040001N1+00831+00751099551ADDAA112007991AY161061AY261061GA1071+001509079GF108991071071001501021999IA1019KA1120N+00821MD1710151+9999MW1631REMSYN100AAXX  08064 02584 11296 81106 10083 20075 49955 57015 60082 76366 8772/ 333 20082 30/// 87705 88598;
0172025840999992000110809004+58400+019200FM-12+001299999V0201401N003110015019N0040001N1+00851+00771099501ADDAY161031AY261031GA1071+001509079GF108991071071001501021999MD1610051+9999MW1631REMSYN082AAXX  08094 02584 41296 81406 10085 20077 49950 56005 76366 8772/ 333 87705 88598;
0172025840999992000110812004+58400+019200FM-12+001299999V0201801N002110015019N0040001N1+00971+00851099501ADDAY161061AY261061GA1071+001509079GF108991071071001501021999MD1510001+9999MW1631REMSYN082AAXX  08124 02584 41296 81804 10097 20085 49950 55000 76366 8772/ 333 87705 88597;
0166025840999992000110815004+58400+019200FM-12+001299999V0202301N003110033019N0040001N1+00931+00871099741ADDAY161031AY261031GA1081+003309069GF108991081071002501999999MD1310241+9999MW1101REMSYN076AAXX  08154 02584 41396 82306 10093 20087 49974 53024 71066 887// 333 88711;
0221025840999992000110818004+58400+019200FM-12+001299999V0201801N003110021019N0040001N1+00841+00791099981ADDAA112007191AY161061AY261061GA1081+002109069GF199999061061002501001001KA1120M+01001MD1210241+9999MW1101REMSYN088AAXX  08184 02584 11396 61806 10084 20079 49998 52024 60072 71066 86600 333 10100 88707;EQDQ01+000062SCOTCV
0166025840999992000110821004+58400+019200FM-12+001299999V0202001N003112200019N0040001N1+00861+00781100241ADDAY111031AY211031GA1031+002509069GF103991031061002501001001MD1210261+9999MW1101REMSYN076AAXX  08214 02584 41396 32006 10086 20078 40024 52026 71011 83600 333 83793;
0166025840999992000110900004+58400+019200FM-12+001299999V0201801N002110015019N0040001N1+00921+00841100331ADDAY111061AY211061GA1081+001509069GF108991081061001501999999MD1110091+9999MW1101REMSYN076AAXX  09004 02584 41296 81804 10092 20084 40033 51009 71011 886// 333 88705;
0166025840999992000110903004+58400+019200FM-12+001299999V0201801N002110024019N0040001N1+00921+00841100381ADDAY121031AY221031GA1081+002409069GF108991081061002501999999MD1210051+9999MW1101REMSYN076AAXX  09034 02584 41396 81804 10092 20084 40038 52005 71022 886// 333 88708;
0227025840999992000110906004+58400+019200FM-12+001299999V0201601N002110069019N0040001N1+00941+00861100451ADDAA199000091AY121061AY221061GA1081+006909059GF108991081051008001999999IA1099KA1120N+00821MD1210071+9999MW1101REMSYN088AAXX  09064 02584 31596 81604 10094 20086 40045 52007 71022 885// 333 20082 31/// 88623;EQDQ01  00002PRCP99
0166025840999992000110909004+58400+019200FM-12+001299999V0201801N001010045019N0040001N1+00961+00881100551ADDAY121031AY221031GA1081+004509069GF108991081061004501999999MD1210101+9999MW1101REMSYN076AAXX  09094 02584 41496 81802 10096 20088 40055 52010 71022 886// 333 88715;
0172025840999992000110912004+58400+019200FM-12+001299999V0202001N001010015019N0040001N1+00961+00901100631ADDAY161061AY221061GA1051+001509079GF108991051061001501011999MD1210081+9999MW1101REMSYN082AAXX  09124 02584 41296 82002 10096 20090 40063 52008 71062 8561/ 333 85705 88499;
0172025840999992000110915004+58400+019200FM-12+001299999V0201601N001510078019N0020001N1+00821+00761100751ADDAY121031AY221031GA1051+007809069GF108991051051008001071999MD1210121+9999MW1101REMSYN082AAXX  09154 02584 41595 81603 10082 20076 40075 52012 71022 8557/ 333 85626 88456;
0202025840999992000110918004+58400+019200FM-12+001299999V0201801N001512200019N0020001N1+00861+00801100831ADDAA112001091AY121061AY221061GA1031+999999079GF103991031001999999031001KA1120M+00981MD1210081+9999MW1101REMSYN088AAXX  09184 02584 11995 31803 10086 20080 40083 52008 60012 71022 83030 333 10098 83399;
0166025840999992000110921004+58400+019200FM-12+001299999V0201801N001512200019N0040001N1+00841+00781100941ADDAY121031AY221031GA1021+999999079GF102991021001999999071001MD1210111+9999MW1101REMSYN076AAXX  09214 02584 41996 21803 10084 20078 40094 52011 71022 82070 333 82399;
0166025840999992000111000004+58400+019200FM-12+001299999V0201801N002110036019N0040001N1+00901+00741101021ADDAY121061AY221061GA1081+003609069GF108991081061004501999999MD1110081+9999MW1101REMSYN076AAXX  10004 02584 41496 81804 10090 20074 40102 51008 71022 886// 333 88712;
0166025840999992000111003004+58400+019200FM-12+001299999V0201801N002119999999N0040001N1+00811+00691101001ADDAY121031AY221031GA1061+999999079GF106991061001999999071001MD1810021+9999MW1101REMSYN076AAXX  10034 02584 41996 61804 10081 20069 40100 58002 71022 86070 333 86399;
0227025840999992000111006004+58400+019200FM-12+001299999V0202001N001010120019N0040001N1+00901+00781101041ADDAA199000091AY121061AY221061GA1081+012009059GF108991081051012501999999IA1019KA1120N+00791MD1310041+9999MW1101REMSYN088AAXX  10064 02584 31696 82002 10090 20078 40104 53004 71022 885// 333 20079 30/// 88640;EQDQ01  00002PRCP99
0185025840999992000111009004+58400+019200FM-12+001299999V0201801N001510180019N0040001N1+00911+00821101131ADDAY121031AY221031GA1061+018009079GF106991061999022501071001MD1310091+9999MW1101REMSYN076AAXX  10094 02584 41896 61803 10091 20082 40113 53009 71022 86070 333 86356;EQDQ01+000002SCOLCG
0144025840999992000111012004+58400+019200FM-12+001299999V0201801N00151030001CN0100001N1+00831+00741101121ADDGA1031+002509079GF106991031061002501071001MD1810011+9999REMSYN076AAXX  10124 02584 42397 61803 10083 20074 40112 58001 83670 333 83793 85398;
0172025840999992000111015004+58400+019200FM-12+001299999V0201801N001510036019N0040001N1+00871+00811101141ADDAY121031AY221031GA1051+003609079GF108991051061004501071999MD1310021+9999MW1101REMSYN082AAXX  10154 02584 41496 81803 10087 20081 40114 53002 71022 8567/ 333 85712 88398;
0221025840999992000111018004+58400+019200FM-12+001299999V0201801N001010024019N0040001N1+00801+00721101141ADDAA199000091AY121061AY221061GA1061+002409079GF108991061071002501011999KA1120M+00961MD1010001+9999MW1101REMSYN088AAXX  10184 02584 31396 81802 10080 20072 40114 50000 71022 8671/ 333 10096 86708 88499;EQDQ01  00002PRCP99
0138025840999992000111021004+58400+019200FM-12+001299999V0202001N002110099019N0100001N1+00801+00681101191ADDGA1081+009909059GF108991081051008001999999MD1310051+9999REMSYN070AAXX  10214 02584 42597 82004 10080 20068 40119 53005 885// 333 88633;
0138025840999992000111100004+58400+019200FM-12+001299999V0202001N001010150019N0100001N1+00801+00641101191ADDGA1081+015009059GF108991081051017501999999MD1010001+9999REMSYN070AAXX  11004 02584 42797 82002 10080 20064 40119 50000 885// 333 88650;
0138025840999992000111103004+58400+019200FM-12+001299999V0201801N001512200019N0100001N1+00741+00591101171ADDGA1021+008009029GF102991021011008001001001MD1810021+9999REMSYN070AAXX  11034 02584 42597 21803 10074 20059 40117 58002 82100 333 82895;
0199025840999992000111106004+58400+019200FM-12+001299999V0202001N002110033019N0100001N1+00821+00661101151ADDAA199000091GA1081+003309059GF108991081051004501999999IA1019KA1120N+00701MD1710021+9999REMSYN082AAXX  11064 02584 32497 82004 10082 20066 40115 57002 885// 333 20070 30/// 88611;EQDQ01  00002PRCP99
0166025840999992000111109004+58400+019200FM-12+001299999V0202001N002110033019N0040001N1+00861+00781101221ADDAY121031AY221031GA1081+003309069GF108991081071004501999999MD1310071+9999MW1211REMSYN076AAXX  11094 02584 41496 82004 10086 20078 40122 53007 72122 887// 333 88711;
0166025840999992000111112004+58400+019200FM-12+001299999V0202301N003110036019N0100001N1+00901+00711101251ADDAY161061AY221061GA1081+003609069GF108991081071004501999999MD1110031+9999MW1021REMSYN076AAXX  11124 02584 41497 82306 10090 20071 40125 51003 70262 887// 333 88712;
0144025840999992000111115004+58400+019200FM-12+001299999V0202501N003110039019N0200001N1+00881+00691101301ADDGA1051+003909089GF108991051021004501011999MD1210051+9999REMSYN076AAXX  11154 02584 42498 82506 10088 20069 40130 52005 8521/ 333 85813 88499;
0174025840999992000111118004+58400+019200FM-12+001299999V0202701N004110135019N0200001N1+00921+00701101371ADDAA112000791GA1061+013509059GF106991061051012501001001KA1120M+00941MD1210071+9999REMSYN082AAXX  11184 02584 12698 62708 10092 20070 40137 52007 69902 86500 333 10094 86645;
0144025840999992000111121004+58400+019200FM-12+001299999V0202501N003610150019N0200001N1+00861+00551101461ADDGA1021+004509079GF107991071061017501001001MD1210091+9999REMSYN076AAXX  11214 02584 42798 72507 10086 20055 40146 52009 87600 333 82794 86656;
0138025840999992000111200004+58400+019200FM-12+001299999V0202501N003112200019N0200001N1+00811+00481101481ADDGA1041+005709029GF104991041021004501001001MD1110021+9999REMSYN070AAXX  12004 02584 42498 42506 10081 20048 40148 51002 84200 333 84819;
0138025840999992000111203004+58400+019200FM-12+001299999V0202301N002112200019N0200001N1+00761+00541101441ADDGA1021+005109029GF102991021011004501001001MD1810041+9999REMSYN070AAXX  12034 02584 42498 22304 10076 20054 40144 58004 82100 333 82817;
0199025840999992000111206004+58400+019200FM-12+001299999V0201801N002110030019N0100001N1+00811+00691101341ADDAA199000091GA1081+003009069GF108991081061004501999999IA1019KA1120N+00751MD1710101+9999REMSYN082AAXX  12064 02584 32497 81804 10081 20069 40134 57010 886// 333 20075 30/// 88710;EQDQ01  00002PRCP99
0166025840999992000111209004+58400+019200FM-12+001299999V0201801N002110027019N0040001N1+00831+00741101291ADDAY121031AY221031GA1081+002709069GF108991081071002501999999MD1610051+9999MW1611REMSYN076AAXX  12094 02584 41396 81804 10083 20074 40129 56005 76122 887// 333 88709;
0166025840999992000111212004+58400+019200FM-12+001299999V0202001N003110027019N0040001N1+00861+00811101211ADDAY121061AY221061GA1081+002709069GF108991081071002501999999MD1710081+9999MW1611REMSYN076AAXX  12124 02584 41396 82006 10086 20081 40121 57008 76122 887// 333 88709;
0166025840999992000111215004+58400+019200FM-12+001299999V0202001N003110048019N0100001N1+00861+00641101121ADDAY161031AY261031GA1081+004809069GF108991081061004501999999MD1710091+9999MW1021REMSYN076AAXX  12154 02584 41497 82006 10086 20064 40112 57009 70266 886// 333 88716;
0208025840999992000111218004+58400+019200FM-12+001299999V0201801N00411004201CN0200001N1+00841+00511101031ADDAA112000391AY161061AY261061GA1031+004509089GF108991081031004501999999KA1120M+00881MD1710091+9999MW1021REMSYN094AAXX  12184 02584 11498 81808 10084 20051 40103 57009 69932 70266 883// 333 10088 83815 88719;
0138025840999992000111221004+58400+019200FM-12+001299999V0201801N003112200019N0200001N1+00801+00431100891ADDGA1031+005709029GF103991031021004501001001MD1710141+9999REMSYN070AAXX  12214 02584 42498 31806 10080 20043 40089 57014 83200 333 83819;
0138025840999992000111300004+58400+019200FM-12+001299999V0201601N003610045019N0200001N1+00821+00491100691ADDGA1081+004509069GF108991081071004501999999MD1710201+9999REMSYN070AAXX  13004 02584 42498 81607 10082 20049 40069 57020 887// 333 88715;
0172025840999992000111303004+58400+019200FM-12+001299999V0201801N003610036019N0040001N1+00901+00811100551ADDAY121031AY221031GA1051+003609079GF108991051071004501021999MD1710141+9999MW1611REMSYN082AAXX  13034 02584 41496 81807 10090 20081 40055 57014 76122 8572/ 333 85712 88599;
0220025840999992000111306004+58400+019200FM-12+001299999V0201601N003610036019N0040001N1+00881+00771100321ADDAA112000591AY121061AY221061GA1051+003609079GF108991051071004501021999IA1099KA1120N+00761MD1710231+9999MW1601REMSYN100AAXX  13064 02584 11496 81607 10088 20077 40032 57023 69942 76022 8572/ 333 20076 31/// 85712 88598;
0172025840999992000111309004+58400+019200FM-12+001299999V0201601N004110018019N0040001N1+00831+00781100231ADDAY161031AY261031GA1061+001809079GF108991061071001501021999MD1610091+9999MW1631REMSYN082AAXX  13094 02584 41296 81608 10083 20078 40023 56009 76366 8672/ 333 86706 88599;
0172025840999992000111312004+58400+019200FM-12+001299999V0201801N005110027019N0040001N1+00841+00761100081ADDAY161061AY261061GA1061+002709079GF108991061071002501021999MD1810151+9999MW1631REMSYN082AAXX  13124 02584 41396 81810 10084 20076 40008 58015 76366 8672/ 333 86709 88598;
0208025840999992000111318004+58400+019200FM-12+001299999V0202301N00311002101CN0040001N1+00901+00841100211ADDAA112006191AY161061AY221061GA1031+002709079GF105991051071002501001001KA1120M+00921MD1210121+9999MW1211REMSYN094AAXX  13184 02584 11396 52306 10090 20084 40021 52012 60062 72162 85700 333 10092 83709 83696;
0172025840999992000111321004+58400+019200FM-12+001299999V0202301N00211030001CN0040001N1+00901+00841100391ADDAY161031AY221031GA1041+002109079GF106991041071002501071001MD1210181+9999MW1021REMSYN082AAXX  13214 02584 41396 62304 10090 20084 40039 52018 70262 84770 333 84707 84350;
0166025840999992000111400004+58400+019200FM-12+001299999V0201801N002110009019N0020001N1+00881+00821100511ADDAY121061AY221061GA1081+000909069GF108991081061000751999999MD1110121+9999MW1101REMSYN076AAXX  14004 02584 41195 81804 10088 20082 40051 51012 71022 886// 333 88703;
0166025840999992000111403004+58400+019200FM-12+001299999V0201801N001510015019N0020001N1+00851+00791100541ADDAY121031AY221031GA1081+001509069GF108991081061001501999999MD1210031+9999MW1101REMSYN076AAXX  14034 02584 41295 81803 10085 20079 40054 52003 71022 886// 333 88705;
0220025840999992000111406004+58400+019200FM-12+001299999V0201801N001010015019N0020001N1+00831+00751100561ADDAA112000591AY121061AY221061GA1071+001509079GF108991071071001501021999IA1099KA1120N+00831MD1210011+9999MW1611REMSYN100AAXX  14064 02584 11295 81802 10083 20075 40056 52001 69952 76122 8772/ 333 20083 31/// 87705 88597;
0172025840999992000111409004+58400+019200FM-12+001299999V0201801N001510009019N0040001N1+00871+00811100551ADDAY161031AY261031GA1071+000909079GF108991071071000751021999MD1810011+9999MW1611REMSYN082AAXX  14094 02584 41196 81803 10087 20081 40055 58001 76166 8772/ 333 87703 88597;
0172025840999992000111412004+58400+019200FM-12+001299999V0202301N001010009019N0010001N1+00861+00811100421ADDAY161061AY261061GA1071+000909079GF108991071071000751021999MD1810161+9999MW1631REMSYN082AAXX  14124 02584 41194 82302 10086 20081 40042 58016 76366 8772/ 333 87703 88596;
0172025840999992000111415004+58400+019200FM-12+001299999V0203201N002610033019N0040001N1+00771+00711100551ADDAY161031AY261031GA1051+003309079GF108991051071004501021999MD1310131+9999MW1611REMSYN082AAXX  14154 02584 41496 83205 10077 20071 40055 53013 76166 8572/ 333 85711 88596;
0202025840999992000111418004+58400+019200FM-12+001299999V0203401N002610080019N0040001N1+00661+00511100631ADDAA112006191AY161061AY261061GA1051+008009059GF105991051051008001001001KA1120M+00881MD1210081+9999MW1101REMSYN088AAXX  14184 02584 11596 53405 10066 20051 40063 52008 60062 71066 85500 333 10088 85695;
0166025840999992000111421004+58400+019200FM-12+001299999V0202901N00151075001CN0040001N1+00481+00411100801ADDAY121031AY221031GA1061+999999019GF106991061001999999011001MD1210171+9999MW1101REMSYN076AAXX  14214 02584 41996 62903 10048 20041 40080 52017 71022 86010 333 86499;
0166025840999992000111500004+58400+019200FM-12+001299999V0203401N001510030019N0040001N1+00601+00531100941ADDAY121061AY221061GA1081+003009069GF108991081061004501999999MD1210141+9999MW1101REMSYN076AAXX  15004 02584 41496 83403 10060 20053 40094 52014 71022 886// 333 88710;
0166025840999992000111503004+58400+019200FM-12+001299999V0203401N001010027019N0040001N1+00621+00551100961ADDAY121031AY221031GA1081+002709069GF108991081061002501999999MD1110021+9999MW1101REMSYN076AAXX  15034 02584 41396 83402 10062 20055 40096 51002 71022 886// 333 88709;
0227025840999992000111506004+58400+019200FM-12+001299999V0203201N001010027019N0040001N1+00601+00531101061ADDAA199000091AY121061AY221061GA1081+002709069GF108991081061002501999999IA1019KA1120N+00421MD1310101+9999MW1101REMSYN088AAXX  15064 02584 31396 83202 10060 20053 40106 53010 71022 886// 333 20042 30/// 88709;EQDQ01  00002PRCP99
0166025840999992000111509004+58400+019200FM-12+001299999V0202901N000510027019N0040001N1+00641+00571101131ADDAY121031AY221031GA1081+002709069GF108991081061002501999999MD1210071+9999MW1101REMSYN076AAXX  15094 02584 41396 82901 10064 20057 40113 52007 71022 886// 333 88709;
0138025840999992000111512004+58400+019200FM-12+001299999V0202701N000510033019N0200001N1+00701+00551101171ADDGA1081+003309069GF108991081061004501999999MD1210041+9999REMSYN070AAXX  15124 02584 42498 82701 10070 20055 40117 52004 886// 333 88711;
0138025840999992000111515004+58400+019200FM-12+001299999V0202901N001510036019N0100001N1+00681+00531101241ADDGA1081+003609059GF108991081051004501999999MD1210071+9999REMSYN070AAXX  15154 02584 42497 82903 10068 20053 40124 52007 885// 333 88612;
0215025840999992000111518004+58400+019200FM-12+001299999V0202901N000510039019N0040001N1+00491+00431101331ADDAA199000091AY121061AY221061GA1081+003909069GF108991081061004501999999KA1120M+00721MD1210081+9999MW1101REMSYN082AAXX  15184 02584 31496 82901 10049 20043 40133 52008 71022 886// 333 10072 88713;EQDQ01  00002PRCP99
0172025840999992000111521004+58400+019200FM-12+001299999V0201401N000510300019N0040001N1+00511+00451101321ADDAY121031AY221031GA1041+004509069GF108991041071004501051999MD1410001+9999MW1101REMSYN082AAXX  15214 02584 41496 81401 10051 20045 40132 54000 71022 8475/ 333 84615 86398;
0185025840999992000111600004+58400+019200FM-12+001299999V0202301N001012200019N0040001N1+00401+00341101331ADDAY121061AY221061GA1011+017509059GF101991011051017501999001MD1210011+9999MW1101REMSYN076AAXX  16004 02584 41796 12302 10040 20034 40133 52001 71022 81500 333 81697;EQDQ01+000002SCOMCG
0166025840999992000111603004+58400+019200FM-12+001299999V0203401N00051075001CN0010001N1+00351+00291101291ADDAY121031AY221031GA1061+999999019GF106991061001999999011001MD1810041+9999MW1101REMSYN076AAXX  16034 02584 41994 63401 10035 20029 40129 58004 71022 86010 333 86499;
0243025840999992000111606004+58400+019200FM-12+001299999V0209999C000010225019N0020001N1+00281+00221101321ADDAA199000091AY121061AY221061GA1051+022509079GF105991051999022501031001IA1099KA1120N+00241MD1310031+9999MW1101REMSYN088AAXX  16064 02584 31895 50000 10028 20022 40132 53003 71022 85030 333 20024 31/// 85398;EQDQ01+000002SCOLCGQ02  00002PRCP99
0166025840999992000111609004+58400+019200FM-12+001299999V0201101N000512200019N0040001N1+00401+00341101311ADDAY121031AY221031GA1011+004509029GF104991011011004501071011MD1810011+9999MW1101REMSYN076AAXX  16094 02584 41496 41101 10040 20034 40131 58001 71022 81171 333 81894;
0172025840999992000111612004+58400+019200FM-12+001299999V0200901N000510021019N0040001N1+00591+00531101241ADDAY181061AY221061GA1031+002509079GF108991081031002501999999MD1810071+9999MW1251REMSYN082AAXX  16124 02584 41396 80901 10059 20053 40124 58007 72582 883// 333 83793 86924;
0172025840999992000111615004+58400+019200FM-12+001299999V0201801N00051030001CN0020001N1+00601+00541101251ADDAY121031AY221031GA1041+002509039GF108991041031002501021999MD1310011+9999MW1611REMSYN082AAXX  16154 02584 41395 81801 10060 20054 40125 53001 76122 8432/ 333 84393 88596;
0202025840999992000111618004+58400+019200FM-12+001299999V0201401N001010066019N0020001N1+00581+00521101351ADDAA112001091AY161061AY221061GA1081+006609059GF108991081051008001999999KA1120M+00621MD1310101+9999MW1021REMSYN088AAXX  16184 02584 11595 81402 10058 20052 40135 53010 60012 70262 885// 333 10062 88622;
0172025840999992000111621004+58400+019200FM-12+001299999V0200901N001010048019N0020001N1+00561+00501101501ADDAY121031AY221031GA1061+004809079GF108991061071004501021999MD1210151+9999MW1611REMSYN082AAXX  16214 02584 41495 80902 10056 20050 40150 52015 76122 8672/ 333 86716 88598;
0172025840999992000111700004+58400+019200FM-12+001299999V0200701N00101030001CN0040001N1+00501+00431101631ADDAY161061AY221061GA1021+004509089GF105991021021004501031001MD1210131+9999MW1101REMSYN082AAXX  17004 02584 41496 50702 10050 20043 40163 52013 71062 82230 333 82894 83399;
0166025840999992000111703004+58400+019200FM-12+001299999V0200901N001010060019N0040001N1+00441+00371101731ADDAY121031AY221031GA1081+006009059GF108991081051008001999999MD1210101+9999MW1101REMSYN076AAXX  17034 02584 41596 80902 10044 20037 40173 52010 71022 885// 333 88620;
0214025840999992000111706004+58400+019200FM-12+001299999V0200501N000512200019N0040001N1+00341+00281101791ADDAA112002091AY121061AY221061GA1031+004509029GF103991031021004501001001IA1099KA1120N+00321MD1210061+9999MW1101REMSYN094AAXX  17064 02584 11496 30501 10034 20028 40179 52006 60022 71022 83200 333 20032 31/// 83894;
0138025840999992000111709004+58400+019200FM-12+001299999V0201801N001019999999N0200001N1+00581+00511101941ADDGA1051+999999079GF105991051001999999081001MD1310151+9999REMSYN070AAXX  17094 02584 42998 51802 10058 20051 40194 53015 85080 333 85399;
0144025840999992000111712004+58400+019200FM-12+001299999V0201801N00101075001CN0200001N1+00721+00541101911ADDGA1021+004509089GF105991021021004501001091MD1810031+9999REMSYN076AAXX  17124 02584 42498 51802 10072 20054 40191 58003 82209 333 82894 83199;
0138025840999992000111715004+58400+019200FM-12+001299999V0201601N001012200019N0100001N1+00531+00441101841ADDGA1031+004509029GF103991031021004501001001MD1710071+9999REMSYN070AAXX  17154 02584 42497 31602 10053 20044 40184 57007 83200 333 83894;
0187025840999992000111718004+58400+019200FM-12+001299999V0201601N001010045019N0100001N1+00721+00661101761ADDAA199000091GA1051+004509029GF105991051021004501001001KA1120M+00821MD1710081+9999REMSYN076AAXX  17184 02584 32497 51602 10072 20066 40176 57008 85200 333 10082 85815;EQDQ01  00002PRCP99
0138025840999992000111721004+58400+019200FM-12+001299999V0201401N002110081019N0100001N1+00671+00651101651ADDGA1081+008109059GF108991081051008001999999MD1810111+9999REMSYN070AAXX  17214 02584 42597 81404 10067 20065 40165 58011 885// 333 88627;
0157025840999992000111800004+58400+019200FM-12+001299999V0201101N002610048019N0100001N1+00681+00471102372ADDGA1081+004809059GF108991081051004501999999MD1710281+9999REMSYN070AAXX  18004 02584 42497 81105 10068 20047 40237 57028 885// 333 88616;EQDQ01+102373APOSLP
0172025840999992000111803004+58400+019200FM-12+001299999V0202001N002610021019N0040001N1+00631+00571100991ADDAY121031AY221031GA1071+002109079GF108991071071002501021999MD1810381+9999MW1631REMSYN082AAXX  18034 02584 41396 82005 10063 20057 40099 58038 76322 8772/ 333 87707 88599;
0214025840999992000111806004+58400+019200FM-12+001299999V0202501N002610015019N0040001N1+00691+00631100751ADDAA112003091AY121061AY221061GA1081+001509069GF108991081071001501999999IA1099KA1120N+00631MD1610141+9999MW1611REMSYN094AAXX  18064 02584 11296 82505 10069 20063 40075 56014 60032 76122 887// 333 20063 31/// 88705;
0166025840999992000111809004+58400+019200FM-12+001299999V0202001N002610009019N0020001N1+00831+00781100601ADDAY161031AY261031GA1081+000909069GF108991081071001501999999MD1710151+9999MW1511REMSYN076AAXX  18094 02584 41295 82005 10083 20078 40060 57015 75166 887// 333 88703;
0166025840999992000111812004+58400+019200FM-12+001299999V0202001N002610069019N0100001N1+00791+00681100471ADDAY161061AY251061GA1081+006909059GF108991081051008001999999MD1710131+9999MW1021REMSYN076AAXX  18124 02584 41597 82005 10079 20068 40047 57013 70265 885// 333 88623;
0144025840999992000111815004+58400+019200FM-12+001299999V0202301N00411004201CN0200001N1+00731+00471100501ADDGA1041+004509079GF108991081061004501999999MD1310031+9999REMSYN076AAXX  18154 02584 42498 82308 10073 20047 40050 53003 886// 333 84715 88695;
0174025840999992000111818004+58400+019200FM-12+001299999V0202301N004110069019N0200001N1+00741+00241100481ADDAA112003091GA1081+006909059GF108991081051008001999999KA1120M+00841MD1810021+9999REMSYN082AAXX  18184 02584 12598 82308 10074 20024 40048 58002 60032 885// 333 10084 88623;
0166025840999992000111821004+58400+019200FM-12+001299999V0202301N005110125019N0200001N1+00681+00221100481ADDAY181031AY221031GA1051+012509099GF105991051031012501001001MD1510001+9999MW1011REMSYN076AAXX  18214 02584 41698 52310 10068 20022 40048 55000 70182 85300 333 85996;
0166025840999992000111900004+58400+019200FM-12+001299999V0202501N004612200019N0200001N1+00681+00101100531ADDAY181061AY221061GA1031+008009099GF103991031031008001001001MD1310051+9999MW1021REMSYN076AAXX  19004 02584 41598 32509 10068 20010 40053 53005 70282 83300 333 83995;
0138025840999992000111903004+58400+019200FM-12+001299999V0202501N004110072019N0200001N1+00681+00141100591ADDGA1081+007209059GF108991081051008001999999MD1210061+9999REMSYN070AAXX  19034 02584 42598 82508 10068 20014 40059 52006 885// 333 88624;
0186025840999992000111906004+58400+019200FM-12+001299999V0201801N003112200019N0200001N1+00681+00311100591ADDAA112000191GA1021+008009029GF102991021021008001001001IA1099KA1120N+00641MD1010001+9999REMSYN088AAXX  19064 02584 12598 21806 10068 20031 40059 50000 69922 82200 333 20064 31/// 82895;
0138025840999992000111909004+58400+019200FM-12+001299999V0202001N004112200019N0200001N1+00761+00361100661ADDGA1041+999999019GF104991001001999999001021MD1310071+9999REMSYN070AAXX  19094 02584 42998 42008 10076 20036 40066 53007 80002 333 84099;
0144025840999992000111912004+58400+019200FM-12+001299999V0202001N004110300019N0200001N1+00781+00341100691ADDGA1031+005409089GF108991031021004501011999MD1210031+9999REMSYN076AAXX  19124 02584 42498 82008 10078 20034 40069 52003 8321/ 333 83818 88499;
0144025840999992000111915004+58400+019200FM-12+001299999V0202001N004110300019N0200001N1+00761+00341100731ADDGA1031+006609089GF108991031021008001031999MD1210041+9999REMSYN076AAXX  19154 02584 42598 82008 10076 20034 40073 52004 8323/ 333 83822 88499;
0175025840999992000111918004+58400+019200FM-12+001299999V0201801N003612200019N0200001N1+00641+00241100841ADDAA199000091GA1001+999999999GF100991001001999999001001KA1999M+00791MD1310111+9999REMSYN064AAXX  19184 02584 32998 01807 10064 20024 40084 53011 333 10079;EQDQ01  00002PRCP99
0138025840999992000111921004+58400+019200FM-12+001299999V0201601N003112200019N0200001N1+00781+00341101011ADDGA1041+007209059GF104991041051008001001001MD1210151+9999REMSYN070AAXX  19214 02584 42598 41606 10078 20034 40101 52015 84500 333 84624;
0138025840999992000112000004+58400+019200FM-12+001299999V0201801N002610078019N0200001N1+00801+00201101101ADDGA1081+007809059GF108991081051008001999999MD1110091+9999REMSYN070AAXX  20004 02584 42598 81805 10080 20020 40110 51009 885// 333 88626;
0138025840999992000112003004+58400+019200FM-12+001299999V0202301N002110060019N0200001N1+00781+00411101201ADDGA1081+006009059GF108991081051008001999999MD1210101+9999REMSYN070AAXX  20034 02584 42598 82304 10078 20041 40120 52010 885// 333 88620;
0199025840999992000112006004+58400+019200FM-12+001299999V0202001N001510078019N0200001N1+00761+00471101251ADDAA199000091GA1081+007809059GF108991081051008001999999IA1019KA1120N+00641MD1110051+9999REMSYN082AAXX  20064 02584 32598 82003 10076 20047 40125 51005 885// 333 20064 30/// 88626;EQDQ01  00002PRCP99
0138025840999992000112009004+58400+019200FM-12+001299999V0201601N002610015019N0100001N1+00661+00551101311ADDGA1081+001509069GF108991081061001501999999MD1210061+9999REMSYN070AAXX  20094 02584 42297 81605 10066 20055 40131 52006 886// 333 88705;
0138025840999992000112012004+58400+019200FM-12+001299999V0200901N003110030019N0100001N1+00701+00581101271ADDGA1081+003009069GF108991081061002501999999MD1810041+9999REMSYN070AAXX  20124 02584 42397 80906 10070 20058 40127 58004 886// 333 88710;
0166025840999992000112015004+58400+019200FM-12+001299999V0200901N003110027019N0100001N1+00811+00691101271ADDAY161031AY221031GA1081+002709069GF108991081061002501999999MD1510001+9999MW1021REMSYN076AAXX  20154 02584 41397 80906 10081 20069 40127 55000 70262 886// 333 88709;
0202025840999992000112018004+58400+019200FM-12+001299999V0201401N002110036019N0040001N1+00821+00701101321ADDAA112000191AY161061AY221061GA1081+003609069GF108991081061004501999999KA1120M+00821MD1310051+9999MW1101REMSYN088AAXX  20184 02584 11496 81404 10082 20070 40132 53005 69912 71062 886// 333 10082 88712;
0166025840999992000112021004+58400+019200FM-12+001299999V0201401N001510054019N0040001N1+00861+00741101421ADDAY121031AY221031GA1081+005409069GF108991081061004501999999MD1310101+9999MW1101REMSYN076AAXX  20214 02584 41496 81403 10086 20074 40142 53010 71022 886// 333 88718;
0166025840999992000112100004+58400+019200FM-12+001299999V0201101N002110027019N0020001N1+00861+00751101491ADDAY121061AY221061GA1081+002709069GF108991081061002501999999MD1210041+9999MW1101REMSYN076AAXX  21004 02584 41395 81104 10086 20075 40149 52004 71022 886// 333 88709;
0166025840999992000112103004+58400+019200FM-12+001299999V0201101N001510054019N0020001N1+00821+00701101501ADDAY121031AY221031GA1081+005409069GF108991081061004501999999MD1110011+9999MW1101REMSYN076AAXX  21034 02584 41495 81103 10082 20070 40150 51001 71022 886// 333 88718;
0227025840999992000112106004+58400+019200FM-12+001299999V0201101N002110057019N0020001N1+00781+00661101561ADDAA199000091AY121061AY221061GA1081+005709069GF108991081061004501999999IA1099KA1120N+00761MD1310061+9999MW1101REMSYN088AAXX  21064 02584 31495 81104 10078 20066 40156 53006 71022 886// 333 20076 31/// 88719;EQDQ01  00002PRCP99
0172025840999992000112109004+58400+019200FM-12+001299999V0200901N004110018019N0020001N1+00741+00671101631ADDAY121031AY221031GA1061+001809079GF108991061071001501021999MD1210071+9999MW1601REMSYN082AAXX  21094 02584 41295 80908 10074 20067 40163 52007 76022 8672/ 333 86706 88598;
0166025840999992000112112004+58400+019200FM-12+001299999V0200901N003110021019N0040001N1+00721+00661101681ADDAY161061AY221061GA1081+002109069GF108991081061002501999999MD1210051+9999MW1501REMSYN076AAXX  21124 02584 41396 80906 10072 20066 40168 52005 75062 886// 333 88707;
0166025840999992000112115004+58400+019200FM-12+001299999V0200901N004110021019N0040001N1+00721+00651101671ADDAY151031AY251031GA1081+002109069GF108991051061004501999999MD1810011+9999MW1501REMSYN076AAXX  21154 02584 41496 80908 10072 20065 40167 58001 75055 856// 333 88707;
0208025840999992000112118004+58400+019200FM-12+001299999V0200701N005110012019N0020001N1+00631+00571101601ADDAA112000591AY151061AY251061GA1071+001209079GF108991071071001501021999KA1120M+00821MD1810071+9999MW1611REMSYN094AAXX  21184 02584 11295 80710 10063 20057 40160 58007 69942 76155 8772/ 333 10082 87704 88598;
0166025840999992000112121004+58400+019200FM-12+001299999V0200901N003110024019N0040001N1+00661+00591101591ADDAY161031AY261031GA1081+002409069GF108991081071002501999999MD1510011+9999MW1601REMSYN076AAXX  21214 02584 41396 80906 10066 20059 40159 55001 76066 887// 333 88708;
0172025840999992000112200004+58400+019200FM-12+001299999V0200701N003110015019N0020001N1+00661+00601101431ADDAY161061AY261061GA1071+001509079GF108991071071001501021999MD1810161+9999MW1631REMSYN082AAXX  22004 02584 41295 80706 10066 20060 40143 58016 76366 8772/ 333 87705 88599;
0172025840999992000112203004+58400+019200FM-12+001299999V0200701N004110015019N0020001N1+00671+00611101261ADDAY161031AY261031GA1071+001509079GF108991071071001501021999MD1710171+9999MW1631REMSYN082AAXX  22034 02584 41295 80708 10067 20061 40126 57017 76366 8772/ 333 87705 88599;
0214025840999992000112206004+58400+019200FM-12+001299999V0201401N00411075001CN0020001N1+00701+00641101201ADDAA112010991AY161061AY261061GA1081+999999029GF108991071071001501021999IA1119KA1120N+00621MD1610061+9999MW1631REMSYN094AAXX  22064 02584 11295 81408 10070 20064 40120 56006 60112 76366 8772/ 333 20062 32/// 88599;
0172025840999992000112209004+58400+019200FM-12+001299999V0201401N003110015019N0020001N1+00781+00741101241ADDAY161031AY261031GA1071+001509079GF108991071071001501021999MD1310041+9999MW1631REMSYN082AAXX  22094 02584 41295 81406 10078 20074 40124 53004 76366 8772/ 333 87705 88599;
0172025840999992000112212004+58400+019200FM-12+001299999V0201801N002110018019N0040001N1+00841+00781101351ADDAY161061AY261061GA1061+001809079GF108991061071002501021999MD1310111+9999MW1211REMSYN082AAXX  22124 02584 41396 81804 10084 20078 40135 53011 72166 8672/ 333 86706 88599;
0138025840999992000112215004+58400+019200FM-12+001299999V0201801N002110105019N0100001N1+00791+00701101501ADDGA1081+010509059GF108991081051012501999999MD1210151+9999REMSYN070AAXX  22154 02584 42697 81804 10079 20070 40150 52015 885// 333 88635;
0174025840999992000112218004+58400+019200FM-12+001299999V0201801N001510084019N0100001N1+00791+00641101631ADDAA112008991GA1081+008409059GF108991081051008001999999KA1120M+00851MD1210131+9999REMSYN082AAXX  22184 02584 12597 81803 10079 20064 40163 52013 60092 885// 333 10085 88628;
0166025840999992000112221004+58400+019200FM-12+001299999V0201601N001510033019N0040001N1+00811+00721101671ADDAY121031AY221031GA1081+003309069GF108991081061004501999999MD1210041+9999MW1101REMSYN076AAXX  22214 02584 41496 81603 10081 20072 40167 52004 71022 886// 333 88711;
0166025840999992000112300004+58400+019200FM-12+001299999V0201801N001010036019N0040001N1+00761+00651101681ADDAY121061AY221061GA1081+003609059GF108991081051004501999999MD1010011+9999MW1101REMSYN076AAXX  23004 02584 41496 81802 10076 20065 40168 50001 71022 885// 333 88612;
0166025840999992000112303004+58400+019200FM-12+001299999V0201601N002110021019N0040001N1+00841+00751101601ADDAY121031AY221031GA1081+002109069GF108991081061002501999999MD1710081+9999MW1101REMSYN076AAXX  23034 02584 41396 81604 10084 20075 40160 57008 71022 886// 333 88707;
0186025840999992000112306004+58400+019200FM-12+001299999V0201401N002619999999N0005001N1+00761+00711101451ADDAA112000191AY141061AY221061GF108991999999999999999999IA1099KA1120N+00701MD1710151+9999MW1531REMSYN082AAXX  23064 02584 11/93 81405 10076 20071 40145 57015 69922 75342 333 20070 31///;
0172025840999992000112309004+58400+019200FM-12+001299999V0201801N003110012019N0040001N1+00811+00751101421ADDAY151031AY241031GA1061+001209079GF108991061071001501021999MD1610031+9999MW1211REMSYN082AAXX  23094 02584 41296 81806 10081 20075 40142 56003 72154 8672/ 333 86704 88599;
0172025840999992000112312004+58400+019200FM-12+001299999V0201801N00211002101CN0040001N1+00861+00781101431ADDAY151061AY241061GA1031+002409079GF107991071051002501999999MD1210011+9999MW1101REMSYN082AAXX  23124 02584 41396 71804 10086 20078 40143 52001 71054 875// 333 83708 85643;
0166025840999992000112315004+58400+019200FM-12+001299999V0202001N002110042019N0040001N1+00821+00711101521ADDAY121031AY221031GA1081+004209069GF108991081061004501999999MD1310091+9999MW1101REMSYN076AAXX  23154 02584 41496 82004 10082 20071 40152 53009 71022 886// 333 88714;
0174025840999992000112318004+58400+019200FM-12+001299999V0202001N001510039019N0100001N1+00811+00621101641ADDAA112000891GA1081+003909059GF108991081051004501999999KA1120M+00861MD1210121+9999REMSYN082AAXX  23184 02584 12497 82003 10081 20062 40164 52012 69982 885// 333 10086 88613;
0138025840999992000112321004+58400+019200FM-12+001299999V0201801N000510024019N0100001N1+00811+00691101651ADDGA1081+002409069GF108991081061002501999999MD1110011+9999REMSYN070AAXX  23214 02584 42397 81801 10081 20069 40165 51001 886// 333 88708;
0138025840999992000112400004+58400+019200FM-12+001299999V0201401N001010036019N0100001N1+00801+00661101591ADDGA1081+003609069GF108991081061004501999999MD1810061+9999REMSYN070AAXX  24004 02584 42497 81402 10080 20066 40159 58006 886// 333 88712;
0166025840999992000112403004+58400+019200FM-12+001299999V0201401N001510021019N0040001N1+00801+00691101511ADDAY121031AY221031GA1081+002109069GF108991081061002501999999MD1710081+9999MW1101REMSYN076AAXX  24034 02584 41396 81403 10080 20069 40151 57008 71022 886// 333 88707;
0199025840999992000112406004+58400+019200FM-12+001299999V0201801N001510027019N0100001N1+00801+00641101461ADDAA199000091GA1081+002709069GF108991081061002501999999IA1099KA1120N+00801MD1710051+9999REMSYN082AAXX  24064 02584 32397 81803 10080 20064 40146 57005 886// 333 20080 31/// 88709;EQDQ01  00002PRCP99
0166025840999992000112409004+58400+019200FM-12+001299999V0201601N002610018019N0040001N1+00771+00631101401ADDAY121031AY221031GA1081+001809069GF108991081061002501999999MD1710061+9999MW1511REMSYN076AAXX  24094 02584 41396 81605 10077 20063 40140 57006 75122 886// 333 88706;
0166025840999992000112412004+58400+019200FM-12+001299999V0201401N002110024019N0100001N1+00701+00541101321ADDAY151061AY251061GA1081+002409069GF108991081061002501999999MD1710081+9999MW1021REMSYN076AAXX  24124 02584 41397 81404 10070 20054 40132 57008 70255 886// 333 88708;
0138025840999992000112415004+58400+019200FM-12+001299999V0201601N002610030019N0100001N1+00701+00501101201ADDGA1081+003009069GF108991081061004501999999MD1610121+9999REMSYN070AAXX  24154 02584 42497 81605 10070 20050 40120 56012 886// 333 88710;
0174025840999992000112418004+58400+019200FM-12+001299999V0201401N002110027019N0100001N1+00661+00531101201ADDAA112000791GA1081+002709069GF108991081061002501999999KA1120M+00801MD1410001+9999REMSYN082AAXX  24184 02584 12397 81404 10066 20053 40120 54000 69902 886// 333 10080 88709;
0166025840999992000112421004+58400+019200FM-12+001299999V0201801N002110027019N0040001N1+00641+00521101161ADDAY121031AY221031GA1081+002709069GF108991081061002501999999MD1810041+9999MW1511REMSYN076AAXX  24214 02584 41396 81804 10064 20052 40116 58004 75122 886// 333 88709;
0172025840999992000112500004+58400+019200FM-12+001299999V0201601N002610015019N0020001N1+00611+00571101141ADDAY151061AY221061GA1051+001509079GF108991051071001501021999MD1710021+9999MW1611REMSYN082AAXX  25004 02584 41295 81605 10061 20057 40114 57002 76152 8572/ 333 85705 88599;
0172025840999992000112503004+58400+019200FM-12+001299999V0201601N002610009019N0020001N1+00681+00641101081ADDAY161031AY261031GA1051+000909079GF108991051071001501021999MD1710061+9999MW1631REMSYN082AAXX  25034 02584 41295 81605 10068 20064 40108 57006 76366 8572/ 333 85703 88599;
0220025840999992000112506004+58400+019200FM-12+001299999V0201601N003110009019N0040001N1+00711+00651101111ADDAA112000891AY161061AY261061GA1051+000909079GF108991051071001501021999IA1099KA1120N+00611MD1310031+9999MW1611REMSYN100AAXX  25064 02584 11296 81606 10071 20065 40111 53003 69982 76166 8572/ 333 20061 31/// 85703 88599;
0172025840999992000112509004+58400+019200FM-12+001299999V0202001N003110006019N0040001N1+00761+00701101201ADDAY161031AY261031GA1051+000609079GF108991051071000751021999MD1210091+9999MW1611REMSYN082AAXX  25094 02584 41196 82006 10076 20070 40120 52009 76166 8572/ 333 85702 88599;
0172025840999992000112512004+58400+019200FM-12+001299999V0201801N002110009019N0020001N1+00781+00721101271ADDAY161061AY261061GA1051+000909079GF108991051071001501021999MD1210071+9999MW1211REMSYN082AAXX  25124 02584 41295 81804 10078 20072 40127 52007 72166 8572/ 333 85703 88599;
0166025840999992000112515004+58400+019200FM-12+001299999V0201801N001510015019N0040001N1+00801+00741101291ADDAY121031AY221031GA1081+001509069GF108991081061001501999999MD1210021+9999MW1101REMSYN076AAXX  25154 02584 41296 81803 10080 20074 40129 52002 71022 886// 333 88705;
0202025840999992000112518004+58400+019200FM-12+001299999V0202001N001010009019N0040001N1+00821+00761101321ADDAA112001091AY121061AY221061GA1081+000909069GF108991081061001501999999KA1120M+00841MD1210031+9999MW1101REMSYN088AAXX  25184 02584 11296 82002 10082 20076 40132 52003 60012 71022 886// 333 10084 88703;
0166025840999992000112521004+58400+019200FM-12+001299999V0201801N001010009019N0020001N1+00771+00691101301ADDAY121031AY221031GA1081+000909069GF108991081061001501999999MD1810021+9999MW1511REMSYN076AAXX  25214 02584 41295 81802 10077 20069 40130 58002 75122 886// 333 88703;
0191025840999992000112600004+58400+019200FM-12+001299999V0201601N002110006019N0020001N1+00691+00621101231ADDAY151061AY221061GA1081+000609079GF108991999071000751021999MD1810071+9999MW1611REMSYN082AAXX  26004 02584 41195 81604 10069 20062 40123 58007 76152 8872/ 333 88702 88598;EQDQ01+000082SCOTLC
0191025840999992000112603004+58400+019200FM-12+001299999V0201601N002110009019N0020001N1+00571+00501101091ADDAY161031AY261031GA1081+000909079GF108991999071000751021999MD1810141+9999MW1211REMSYN082AAXX  26034 02584 41195 81604 10057 20050 40109 58014 72166 8872/ 333 88703 88598;EQDQ01+000082SCOTLC
0220025840999992000112606004+58400+019200FM-12+001299999V0201801N001510018019N0040001N1+00501+00431100991ADDAA112003091AY161061AY261061GA1071+001809079GF108991071071002501021999IA1099KA1120N+00501MD1610101+9999MW1601REMSYN100AAXX  26064 02584 11396 81803 10050 20043 40099 56010 60032 76066 8772/ 333 20050 31/// 87706 88598;
0172025840999992000112609004+58400+019200FM-12+001299999V0201601N002110006019N0040001N1+00481+00421100931ADDAY161031AY261031GA1071+000609079GF108991071071000751021999MD1810061+9999MW1101REMSYN082AAXX  26094 02584 41196 81604 10048 20042 40093 58006 71066 8772/ 333 87702 88598;
0166025840999992000112612004+58400+019200FM-12+001299999V0201801N002110018019N0040001N1+00501+00401100851ADDAY161061AY261061GA1081+001809069GF108991081061001501999999MD1610081+9999MW1101REMSYN076AAXX  26124 02584 41296 81804 10050 20040 40085 56008 71066 886// 333 88706;
0166025840999992000112615004+58400+019200FM-12+001299999V0201601N002110021019N0040001N1+00491+00391100871ADDAY121031AY221031GA1081+002109069GF108991081061002501999999MD1310061+9999MW1101REMSYN076AAXX  26154 02584 41396 81604 10049 20039 40087 53006 71022 886// 333 88707;
0202025840999992000112618004+58400+019200FM-12+001299999V0201801N002110024019N0040001N1+00481+00351100881ADDAA112002091AY121061AY221061GA1081+002409069GF108991081061002501999999KA1120M+00511MD1210011+9999MW1101REMSYN088AAXX  26184 02584 11396 81804 10048 20035 40088 52001 60022 71022 886// 333 10051 88708;
0166025840999992000112621004+58400+019200FM-12+001299999V0201801N002110027019N0040001N1+00451+00321100931ADDAY121031AY221031GA1081+002709069GF108991081061002501999999MD1210051+9999MW1101REMSYN076AAXX  26214 02584 41396 81804 10045 20032 40093 52005 71022 886// 333 88709;
0166025840999992000112700004+58400+019200FM-12+001299999V0201601N001510021019N0040001N1+00481+00361100921ADDAY121061AY221061GA1081+002109069GF108991081061002501999999MD1210011+9999MW1101REMSYN076AAXX  27004 02584 41396 81603 10048 20036 40092 52001 71022 886// 333 88707;
0172025840999992000112703004+58400+019200FM-12+001299999V0201601N001510021019N0040001N1+00461+00401100961ADDAY121031AY221031GA1051+002109079GF108991051071002501021999MD1210041+9999MW1611REMSYN082AAXX  27034 02584 41396 81603 10046 20040 40096 52004 76122 8572/ 333 85707 88599;
0220025840999992000112706004+58400+019200FM-12+001299999V0201801N002110024019N0040001N1+00441+00351101051ADDAA112000191AY121061AY221061GA1051+002409079GF108991051071002501021999IA1099KA1120N+00441MD1210091+9999MW1611REMSYN100AAXX  27064 02584 11396 81804 10044 20035 40105 52009 69922 76122 8572/ 333 20044 31/// 85708 88599;
0172025840999992000112709004+58400+019200FM-12+001299999V0201801N001510030019N0040001N1+00431+00361101191ADDAY121031AY221031GA1051+003009079GF108991051071004501021999MD1210141+9999MW1611REMSYN082AAXX  27094 02584 41496 81803 10043 20036 40119 52014 76122 8572/ 333 85710 88599;
0172025840999992000112712004+58400+019200FM-12+001299999V0201801N001010033019N0040001N1+00441+00371101221ADDAY121061AY221061GA1051+003309079GF108991051071004501021999MD1210031+9999MW1601REMSYN082AAXX  27124 02584 41496 81802 10044 20037 40122 52003 76022 8572/ 333 85711 88599;
0172025840999992000112715004+58400+019200FM-12+001299999V0201601N001510027019N0040001N1+00371+00311101311ADDAY161031AY261031GA1051+002709079GF108991051071002501021999MD1210091+9999MW1611REMSYN082AAXX  27154 02584 41396 81603 10037 20031 40131 52009 76166 8572/ 333 85709 88599;
0208025840999992000112718004+58400+019200FM-12+001299999V0201601N001010033019N0040001N1+00361+00301101351ADDAA112005191AY161061AY261061GA1051+003309079GF108991051071004501021999KA1120M+00481MD1110041+9999MW1611REMSYN094AAXX  27184 02584 11496 81602 10036 20030 40135 51004 60052 76166 8572/ 333 10048 85711 88599;
0172025840999992000112721004+58400+019200FM-12+001299999V0201601N001010030019N0040001N1+00371+00301101371ADDAY161031AY261031GA1051+003009079GF108991051071004501021999MD1210021+9999MW1611REMSYN082AAXX  27214 02584 41496 81602 10037 20030 40137 52002 76166 8572/ 333 85710 88599;
0172025840999992000112800004+58400+019200FM-12+001299999V0201401N001010036019N0040001N1+00391+00321101351ADDAY161061AY261061GA1061+003609079GF108991061071004501021999MD1810021+9999MW1621REMSYN082AAXX  28004 02584 41496 81402 10039 20032 40135 58002 76266 8672/ 333 86712 88598;
0172025840999992000112803004+58400+019200FM-12+001299999V0202001N002610021019N0040001N1+00561+00491101261ADDAY161031AY261031GA1061+002109079GF108991061071002501021999MD1810091+9999MW1621REMSYN082AAXX  28034 02584 41396 82005 10056 20049 40126 58009 76266 8672/ 333 86707 88598;
0220025840999992000112806004+58400+019200FM-12+001299999V0202001N002110024019N0040001N1+00591+00521101211ADDAA112010991AY161061AY261061GA1071+002409079GF108991071071002501021999IA1119KA1120N+00361MD1610051+9999MW1631REMSYN100AAXX  28064 02584 11396 82004 10059 20052 40121 56005 60112 76366 8772/ 333 20036 32/// 87708 88598;
0171025840999992000112809004+58400+019200FM-12+001299999V0202701N002110027019N0040001N1+00611+00541101291ADDAY161031AY261031GA1071+002709079GF108991071071002501021999MD1310081+9999MW1631REMSYN081AAXX  28094 02584 41396 82704 10061 20054 4012953008 76366 8772/ 333 87709 88598;
0166025840999992000112812004+58400+019200FM-12+001299999V0202701N002610030019N0040001N1+00721+00621101401ADDAY161061AY221061GA1081+003009069GF108991081061004501999999MD1210111+9999MW1101REMSYN076AAXX  28124 02584 41496 82705 10072 20062 40140 52011 71062 886// 333 88710;
0138025840999992000112815004+58400+019200FM-12+001299999V0202701N003112200019N0100001N1+00721+00601101531ADDGA1041+003609059GF104991041051004501999999MD1210131+9999REMSYN070AAXX  28154 02584 42497 42706 10072 20060 40153 52013 845// 333 84612;
0180025840999992000112818004+58400+019200FM-12+001299999V0202701N00261012001CN0200001N1+00701+00351101581ADDAA112004191GA1041+006309089GF108991081081008001999999KA1120M+00741MD1210051+9999REMSYN088AAXX  28184 02584 12598 82705 10070 20035 40158 52005 60042 888// 333 10074 84821 86650;
0144025840999992000112821004+58400+019200FM-12+001299999V0202301N00211002101CN0100001N1+00681+00561101591ADDGA1041+002109079GF108991081061002501999999MD1210011+9999REMSYN076AAXX  28214 02584 42397 82304 10068 20056 40159 52001 886// 333 84707 88628;
0138025840999992000112900004+58400+019200FM-12+001299999V0202501N002110024019N0100001N1+00641+00541101491ADDGA1051+002409069GF105991051061002501001001MD1810101+9999REMSYN070AAXX  29004 02584 42397 52504 10064 20054 40149 58010 85600 333 85708;
0138025840999992000112903004+58400+019200FM-12+001299999V0201801N002612200019N0100001N1+00691+00521101371ADDGA1041+003309069GF104991041061004501001001MD1710121+9999REMSYN070AAXX  29034 02584 42497 41805 10069 20052 40137 57012 84600 333 84711;
0199025840999992000112906004+58400+019200FM-12+001299999V0202001N002610036019N0100001N1+00711+00501101211ADDAA199000091GA1071+003609069GF107991071061004501999999IA1019KA1120N+00631MD1710161+9999REMSYN082AAXX  29064 02584 32497 72005 10071 20050 40121 57016 876// 333 20063 30/// 87712;EQDQ01  00002PRCP99
0172025840999992000112909004+58400+019200FM-12+001299999V0201801N002110030019N0100001N1+00661+00561101131ADDAY121031AY221031GA1051+003009079GF108991051071004501021999MD1710081+9999MW1611REMSYN082AAXX  29094 02584 41497 81804 10066 20056 40113 57008 76122 8572/ 333 85710 88598;
0172025840999992000112912004+58400+019200FM-12+001299999V0201801N001010021019N0040001N1+00671+00571101051ADDAY161061AY221061GA1051+002109079GF108991051071002501021999MD1310081+9999MW1101REMSYN082AAXX  29124 02584 41396 81802 10067 20057 40105 53008 71062 8572/ 333 85707 88598;
0172025840999992000112915004+58400+019200FM-12+001299999V0201401N000510006019N0040001N1+00691+00631101051ADDAY121031AY221031GA1051+000609079GF108991051071000751021999MD1410001+9999MW1611REMSYN082AAXX  29154 02584 41196 81401 10069 20063 40105 54000 76122 8572/ 333 85702 88598;
0202025840999992000112918004+58400+019200FM-12+001299999V0209999C000010030019N0040001N1+00701+00641101131ADDAA112000591AY161061AY221061GA1081+003009069GF108991081061004501999999KA1120M+00721MD1310081+9999MW1101REMSYN088AAXX  29184 02584 11496 80000 10070 20064 40113 53008 69962 71062 886// 333 10072 88710;
0166025840999992000112921004+58400+019200FM-12+001299999V0201801N001010069019N0040001N1+00641+00581101211ADDAY121031AY221031GA1081+006909059GF108991081051008001999999MD1210081+9999MW1101REMSYN076AAXX  29214 02584 41596 81802 10064 20058 40121 52008 71022 885// 333 88623;
0166025840999992000113000004+58400+019200FM-12+001299999V0201601N001010009019N0040001N1+00721+00661101191ADDAY121061AY221061GA1081+000909069GF108991081061001501999999MD1810021+9999MW1101REMSYN076AAXX  30004 02584 41296 81602 10072 20066 40119 58002 71022 886// 333 88703;
0227025840999992000113006004+58400+019200FM-12+001299999V0202001N002610009019N0020001N1+00801+00741100921ADDAA199000091AY121061AY221061GA1081+000909069GF108991081061001501999999IA1099KA1120N+00601MD1710151+9999MW1101REMSYN088AAXX  30064 02584 31295 82005 10080 20074 40092 57015 71022 886// 333 20060 31/// 88703;EQDQ01  00002PRCP99
0166025840999992000113009004+58400+019200FM-12+001299999V0202001N003110009019N0010001N1+00821+00761100851ADDAY141031AY221031GA1081+000909069GF108991081061001501999999MD1710071+9999MW1101REMSYN076AAXX  30094 02584 41294 82006 10082 20076 40085 57007 71042 886// 333 88703;
0166025840999992000113012004+58400+019200FM-12+001299999V0202301N004610009019N0020001N1+00841+00761100741ADDAY141061AY221061GA1081+000909069GF108991081061001501999999MD1710111+9999MW1101REMSYN076AAXX  30124 02584 41295 82309 10084 20076 40074 57011 71042 886// 333 88703;
0172025840999992000113015004+58400+019200FM-12+001299999V0202501N003610015019N0020001N1+00881+00801100721ADDAY121031AY221031GA1061+001509079GF108991061071001501021999MD1510021+9999MW1611REMSYN082AAXX  30154 02584 41295 82507 10088 20080 40072 55002 76122 8672/ 333 86705 88598;
0202025840999992000113018004+58400+019200FM-12+001299999V0202701N005110036019N0040001N1+00931+00851100831ADDAA112000891AY161061AY221061GA1051+003609059GF105991051051004501001001KA1120M+00931MD1110111+9999MW1101REMSYN088AAXX  30184 02584 11496 52710 10093 20085 40083 51011 69982 71062 85500 333 10093 85612;
0122025840999992000113021004+58400+019200FM-12+001299999V0202001N004612200019N0100001N1+00871+00751100891ADDGA1001+999999999GF100991001001999999001001MD1210061+9999REMSYN054AAXX  30214 02584 42997 02009 10087 20075 40089 52006;
0138025840999992000120100004+58400+019200FM-12+001299999V0202701N005110054019N0200001N1+00851+00501101021ADDGA1081+005409059GF108991081051004501999999MD1210131+9999REMSYN070AAXX  01004 02584 42498 82710 10085 20050 40102 52013 885// 333 88618;
0138025840999992000120103004+58400+019200FM-12+001299999V0202501N004112200019N0200001N1+00821+00531101331ADDGA1041+005409059GF104991041051004501001001MD1210111+9999REMSYN070AAXX  01034 02584 42498 42508 10082 20053 40133 52011 84500 333 84618;
0138025840999992000120109004+58400+019200FM-12+001299999V0202901N00311075001CN0200001N1+00731+00471101411ADDGA1061+999999019GF106991001001999999001021MD1210121+9999REMSYN070AAXX  01094 02584 42998 62906 10073 20047 40141 52012 80002 333 86099;
0144025840999992000120112004+58400+019200FM-12+001299999V0202901N00311075001CN0200001N1+00741+00501101501ADDGA1021+004509079GF106991021061004501001021MD1010091+9999REMSYN076AAXX  01124 02584 42498 62906 10074 20050 40150 50009 82602 333 82794 86099;
0187025840999992000120118004+58400+019200FM-12+001299999V0202701N002110036019N0100001N1+00711+00531101571ADDAA199000091GA1081+003609069GF108991081061004501999999KA1120M+00741MD1210021+9999REMSYN076AAXX  01184 02584 32497 82704 10071 20053 40157 52002 886// 333 10074 88712;EQDQ01  00002PRCP99
0138025840999992000120121004+58400+019200FM-12+001299999V0202701N002110024019N0100001N1+00741+00621101521ADDGA1081+002409069GF108991081061002501999999MD1810051+9999REMSYN070AAXX  01214 02584 42397 82704 10074 20062 40152 58005 886// 333 88708;
0166025840999992000120200004+58400+019200FM-12+001299999V0202501N002610009019N0040001N1+00751+00671101481ADDAY121061AY221061GA1081+000909069GF108991081061001501999999MD1710041+9999MW1101REMSYN076AAXX  02004 02584 41296 82505 10075 20067 40148 57004 71022 886// 333 88703;
0166025840999992000120203004+58400+019200FM-12+001299999V0202301N003610003019N0040001N1+00761+00701101341ADDAY121031AY221031GA1081+000309069GF108991081061000751999999MD1710061+9999MW1101REMSYN076AAXX  02034 02584 41196 82307 10076 20070 40134 57006 71022 886// 333 88701;
0227025840999992000120206004+58400+019200FM-12+001299999V0202001N003110006019N0040001N1+00751+00671101241ADDAA199000091AY121061AY221061GA1081+000609069GF108991081061000751999999IA1019KA1120N+00711MD1710101+9999MW1101REMSYN088AAXX  02064 02584 31196 82006 10075 20067 40124 57010 71022 886// 333 20071 30/// 88702;EQDQ01  00002PRCP99
0166025840999992000120209004+58400+019200FM-12+001299999V0202001N003110012019N0040001N1+00741+00651101131ADDAY121031AY221031GA1081+001209069GF108991081061001501999999MD1710111+9999MW1101REMSYN076AAXX  02094 02584 41296 82006 10074 20065 40113 57011 71022 886// 333 88704;
0196025840999992000120212004+58400+019200FM-12+001299999V0202301N004110012019N0040001N1+00801+00711101151ADDAA199000091AY121061AY221061GA1081+001209069GF108991081061001501999999MD1310021+9999MW1101REMSYN076AAXX  02124 02584 31296 82308 10080 20071 40115 53002 71022 886// 333 88704;EQDQ01  00002PRCP99
0166025840999992000120215004+58400+019200FM-12+001299999V0202301N003110012019N0040001N1+00831+00771101121ADDAY121031AY221031GA1081+001209069GF108991081061001501999999MD1710031+9999MW1501REMSYN076AAXX  02154 02584 41296 82306 10083 20077 40112 57003 75022 886// 333 88704;
0202025840999992000120218004+58400+019200FM-12+001299999V0202701N003110072019N0040001N1+00881+00801101221ADDAA112000791AY151061AY221061GA1081+007209059GF108991081051008001999999KA1120M+00881MD1310101+9999MW1101REMSYN088AAXX  02184 02584 11596 82706 10088 20080 40122 53010 69902 71052 885// 333 10088 88624;
0150025840999992000120221004+58400+019200FM-12+001299999V0202501N003112200019N0040001N1+00861+00801101321ADDAY121031AY221031GA1001+999999999GF100991001001999999001001MD1210101+9999MW1101REMSYN060AAXX  02214 02584 41996 02506 10086 20080 40132 52010 71022;
0150025840999992000120300004+58400+019200FM-12+001299999V0202701N003112200019N0040001N1+00841+00761101421ADDAY121061AY211061GA1001+999999999GF100991001001999999001001MD1210101+9999MW1101REMSYN060AAXX  03004 02584 41996 02706 10084 20076 40142 52010 71021;
0150025840999992000120303004+58400+019200FM-12+001299999V0202701N003112200019N0040001N1+00821+00741101471ADDAY101031AY201031GA1001+999999999GF100991001001999999001001MD1110051+9999MW1101REMSYN060AAXX  03034 02584 41996 02706 10082 20074 40147 51005 71000;
0197025840999992000120306004+58400+019200FM-12+001299999V0202501N002112200019N0040001N1+00801+00721101531ADDAY101061AY201061GA1041+999999019GF104991001001999999001021IA1099KA1120N+00781MD1210061+9999MW1101REMSYN088AAXX  03064 02584 41996 42504 10080 20072 40153 52006 71000 80002 333 20078 31/// 84099;
0172025840999992000120309004+58400+019200FM-12+001299999V0202701N004110300019N0040001N1+00701+00631101621ADDAY111031AY201031GA1031+002109079GF108991031071002501011999MD1210091+9999MW1101REMSYN082AAXX  03094 02584 41396 82708 10070 20063 40162 52009 71010 8371/ 333 83707 88499;
0138025840999992000120312004+58400+019200FM-12+001299999V0202701N003119999999N0200001N1+00781+00591101611ADDGA1071+999999079GF107991071001999999051999MD1810011+9999REMSYN070AAXX  03124 02584 42998 72706 10078 20059 40161 58001 8705/ 333 87399;
0138025840999992000120315004+58400+019200FM-12+001299999V0202501N003119999999N0100001N1+00741+00671101561ADDGA1081+999999079GF108991081001999999031999MD1810051+9999REMSYN070AAXX  03154 02584 42997 82506 10074 20067 40156 58005 8803/ 333 88399;
0202025840999992000120318004+58400+019200FM-12+001299999V0202001N002610003019N0020001N1+00731+00681101481ADDAA112000791AY121061AY221061GA1081+000309069GF108991081061000751999999KA1120M+00801MD1710081+9999MW1501REMSYN088AAXX  03184 02584 11195 82005 10073 20068 40148 57008 69902 75022 886// 333 10080 88701;
0185025840999992000120321004+58400+019200FM-12+001299999V0202001N002610006019N0040001N1+00801+00741101401ADDAY151031AY251031GA1081+000609069GF108991081061000751999999MD1710081+9999MW1101REMSYN076AAXX  03214 02584 41196 82005 10080 20074 40140 57088 71055 886// 333 88702;EQDQ01+000882APC3  
0150025840999992000120400004+58400+019200FM-12+001299999V0201801N002110003019N0002001N1+00811+00761101221ADDAY151061AY221061GA1091+999999999GF109991091999999999999999MD1710181+9999MW1471REMSYN060AAXX  04004 02584 41092 91804 10081 20076 40122 57018 74752;
0150025840999992000120403004+58400+019200FM-12+001299999V0201801N002110003019N0005001N1+00801+00741101071ADDAY161031AY221031GA1091+999999999GF109991091999999999999999MD1710151+9999MW1431REMSYN060AAXX  04034 02584 41193 91804 10080 20074 40107 57015 74362;
0220025840999992000120406004+58400+019200FM-12+001299999V0202301N00151000601CN0040001N1+00841+00781101031ADDAA112000391AY161061AY241061GA1041+000909079GF108991081061000751999999IA1099KA1120N+00731MD1710041+9999MW1101REMSYN100AAXX  04064 02584 11196 82303 10084 20078 40103 57004 69932 71064 886// 333 20073 31/// 84703 88621;
0172025840999992000120409004+58400+019200FM-12+001299999V0202501N00261009001CN0040001N1+00871+00791100931ADDAY121031AY221031GA1031+004209089GF107991071081004501999999MD1710101+9999MW1101REMSYN082AAXX  04094 02584 41496 72505 10087 20079 40093 57010 71022 878// 333 83814 85625;
0172025840999992000120412004+58400+019200FM-12+001299999V0202501N00311006001CN0040001N1+00871+00791101191ADDAY121061AY221061GA1031+002409089GF107991071081002501999999MD1210161+9999MW1101REMSYN082AAXX  04124 02584 41396 72506 10087 20079 40119 52016 71022 878// 333 83808 85623;
0166025840999992000120415004+58400+019200FM-12+001299999V0202501N002110015019N0040001N1+00861+00781101321ADDAY121031AY221031GA1071+001509069GF107991071061001501999999MD1210131+9999MW1101REMSYN076AAXX  04154 02584 41296 72504 10086 20078 40132 52013 71022 876// 333 87705;
0202025840999992000120418004+58400+019200FM-12+001299999V0202901N002110078019N0100001N1+00801+00611101481ADDAA112000791AY181061AY221061GA1081+007809059GF108991081051008001999999KA1120M+00871MD1210161+9999MW1031REMSYN088AAXX  04184 02584 11597 82904 10080 20061 40148 52016 69902 70382 885// 333 10087 88626;
0138025840999992000120421004+58400+019200FM-12+001299999V0202701N002112200019N0100001N1+00721+00531101581ADDGA1041+004509069GF104991041061004501001001MD1210101+9999REMSYN070AAXX  04214 02584 42497 42704 10072 20053 40158 52010 84600 333 84794;
0168025840999992000120500004+58400+019200FM-12+001299999V0202501N004112200019N0100001N1+00721+00511101671ADDAA199000091GA1041+003909069GF104991041061004501001001MD1210091+9999REMSYN070AAXX  05004 02584 32497 42508 10072 20051 40167 52009 84600 333 84713;EQDQ01  00002PRCP99
0138025840999992000120503004+58400+019200FM-12+001299999V0202501N004110057019N0100001N1+00711+00511101651ADDGA1071+005709059GF107991071051004501999999MD1110021+9999REMSYN070AAXX  05034 02584 42497 72508 10071 20051 40165 51002 875// 333 87619;
0215025840999992000120506004+58400+019200FM-12+001299999V0202001N002610036019N0100001N1+00701+00491101651ADDAA199000091GA1081+003609069GF108991081061004501999999IA1019KA1120N+00671MD1410001+9999REMSYN082AAXX  05064 02584 32497 82005 10070 20049 40165 51000 886// 333 20067 30/// 88712;EQDQ01+000012APCTENQ02  00002PRCP99
0138025840999992000120509004+58400+019200FM-12+001299999V0202001N003110033019N0100001N1+00721+00531101691ADDGA1081+003309069GF108991081061004501999999MD1310041+9999REMSYN070AAXX  05094 02584 42497 82006 10072 20053 40169 53004 886// 333 88711;
0172025840999992000120512004+58400+019200FM-12+001299999V0202001N002610021019N0100001N1+00741+00651101661ADDAY121061AY221061GA1051+002109079GF108991051071002501021999MD1710031+9999MW1601REMSYN082AAXX  05124 02584 41397 82005 10074 20065 40166 57003 76022 8572/ 333 85707 88593;
0166025840999992000120515004+58400+019200FM-12+001299999V0202501N002610021019N0100001N1+00811+00721101701ADDAY161031AY221031GA1081+002109059GF108991081061002501999999MD1310041+9999MW1021REMSYN076AAXX  05154 02584 41397 82505 10081 20072 40170 53004 70262 886// 333 88607;
0202025840999992000120518004+58400+019200FM-12+001299999V0202501N002110036019N0040001N1+00841+00761101731ADDAA112000791AY161061AY221061GA1081+003609069GF108991081061004501999999KA1120M+00861MD1210031+9999MW1101REMSYN088AAXX  05184 02584 11496 82504 10084 20076 40173 52003 69902 71062 886// 333 10086 88712;
0166025840999992000120521004+58400+019200FM-12+001299999V0202501N002610024019N0040001N1+00821+00731101841ADDAY121031AY221031GA1081+002409069GF108991081061002501999999MD1310111+9999MW1101REMSYN076AAXX  05214 02584 41396 82505 10082 20073 40184 53011 71022 886// 333 88708;
0166025840999992000120600004+58400+019200FM-12+001299999V0202501N003110015019N0040001N1+00821+00741101901ADDAY121061AY221061GA1081+001509069GF108991081061001501999999MD1210061+9999MW1101REMSYN076AAXX  06004 02584 41296 82506 10082 20074 40190 52006 71022 886// 333 88705;
0166025840999992000120603004+58400+019200FM-12+001299999V0202301N003110051019N0040001N1+00861+00701101871ADDAY121031AY221031GA1081+005109069GF108991081061004501999999MD1810031+9999MW1101REMSYN076AAXX  06034 02584 41496 82306 10086 20070 40187 58003 71022 886// 333 88717;
0199025840999992000120606004+58400+019200FM-12+001299999V0202301N003610030019N0100001N1+00821+00581101861ADDAA199000091GA1081+003009069GF108991081061004501999999IA1019KA1120N+00801MD1610011+9999REMSYN082AAXX  06064 02584 32497 82307 10082 20058 40186 56001 886// 333 20080 30/// 88710;EQDQ01  00002PRCP99
0138025840999992000120609004+58400+019200FM-12+001299999V0202301N003110030019N0100001N1+00761+00601101811ADDGA1081+003009069GF108991081061004501999999MD1810051+9999REMSYN070AAXX  06094 02584 42497 82306 10076 20060 40181 58005 886// 333 88710;
0138025840999992000120612004+58400+019200FM-12+001299999V0201801N003110024019N0100001N1+00781+00661101801ADDGA1081+002409069GF108991081061002501999999MD1610011+9999REMSYN070AAXX  06124 02584 42397 81806 10078 20066 40180 56001 886// 333 88708;
0187025840999992000120618004+58400+019200FM-12+001299999V0202001N003610015019N0100001N1+00711+00611101721ADDAA199000091GA1081+001509069GF108991081061001501999999KA1120M+00851MD1610061+9999REMSYN076AAXX  06184 02584 32297 82007 10071 20061 40172 56006 886// 333 10085 88705;EQDQ01  00002PRCP99
0138025840999992000120621004+58400+019200FM-12+001299999V0202001N003110015019N0100001N1+00671+00571101701ADDGA1081+001509069GF108991081061001501999999MD1610021+9999REMSYN070AAXX  06214 02584 42297 82006 10067 20057 40170 56002 886// 333 88705;
0138025840999992000120700004+58400+019200FM-12+001299999V0202001N002610015019N0100001N1+00671+00571101651ADDGA1081+001509069GF108991081061001501999999MD1810051+9999REMSYN070AAXX  07004 02584 42297 82005 10067 20057 40165 58005 886// 333 88705;
0138025840999992000120703004+58400+019200FM-12+001299999V0202001N002610012019N0100001N1+00641+00551101551ADDGA1081+001209069GF108991081061001501999999MD1710101+9999REMSYN070AAXX  07034 02584 42297 82005 10064 20055 40155 57010 886// 333 88704;
0199025840999992000120706004+58400+019200FM-12+001299999V0202001N003110015019N0100001N1+00651+00551101391ADDAA199000091GA1081+001509069GF108991081061001501999999IA1019KA1120N+00611MD1810161+9999REMSYN082AAXX  07064 02584 32297 82006 10065 20055 40139 58016 886// 333 20061 30/// 88705;EQDQ01  00002PRCP99
0166025840999992000120709004+58400+019200FM-12+001299999V0202001N003110018019N0100001N1+00641+00511101331ADDAY121031AY221031GA1081+001809069GF108991081061001501999999MD1610061+9999MW1511REMSYN076AAXX  07094 02584 41297 82006 10064 20051 40133 56006 75122 886// 333 88706;
0166025840999992000120712004+58400+019200FM-12+001299999V0202001N002610018019N0200001N1+00681+00451101161ADDAY151061AY221061GA1081+001809069GF108991081061004501999999MD1810171+9999MW1021REMSYN076AAXX  07124 02584 41498 82005 10068 20045 40116 58017 70252 886// 333 88706;
0191025840999992000120715004+58400+019200FM-12+001299999V0202301N003110012019N0100001N1+00681+00611101071ADDAY121031AY221031GA1081+001209079GF108991999071001501021999MD1710091+9999MW1601REMSYN082AAXX  07154 02584 41297 82306 10068 20061 40107 57009 76022 8872/ 333 88704 88599;EQDQ01+000082SCOTLC
0202025840999992000120718004+58400+019200FM-12+001299999V0202501N004110021019N0100001N1+00781+00711101021ADDAA112000191AY161061AY221061GA1081+002109069GF108991081071002501999999KA1120M+00801MD1710051+9999MW1021REMSYN088AAXX  07184 02584 11397 82508 10078 20071 40102 57005 69912 70262 887// 333 10080 88707;
0138025840999992000120721004+58400+019200FM-12+001299999V0202301N003612200019N0200001N1+00791+00651101081ADDGA1021+002709069GF102991021061002501001001MD1310061+9999REMSYN070AAXX  07214 02584 42398 22307 10079 20065 40108 53006 82600 333 82709;
0144025840999992000120800004+58400+019200FM-12+001299999V0202301N00361004201CN0200001N1+00811+00691101021ADDGA1041+003309079GF107991071061004501001001MD1810061+9999REMSYN076AAXX  08004 02584 42498 72307 10081 20069 40102 58006 87600 333 84711 85695;
0138025840999992000120803004+58400+019200FM-12+001299999V0202301N004110024019N0100001N1+00791+00701100991ADDGA1081+002409069GF108991081061002501999999MD1710031+9999REMSYN070AAXX  08034 02584 42397 82308 10079 20070 40099 57003 886// 333 88708;
0166025840999992000120804004+58400+019200FM-12+001299999V0201801N001010006019N0020001N1+00671+00631100931ADDAY121999AY221999GA1081+000609069GF108991081061000751999999MD1810081+9999MW1501REMSYN076AAXX  08044 02584 41195 81802 10067 20063 40093 58008 75022 886// 333 88702;
0180025840999992000120806004+58400+019200FM-12+001299999V0202001N003610012019N0100001N1+00741+00681100981ADDAA199000021GA1081+001209069GF108991081061001501999999IA1019KA1120N+00741MD1610011+9999REMSYN082AAXX  08064 02584 32297 82007 10074 20068 40098 56001 886// 333 20074 30/// 88704;
0166025840999992000120809004+58400+019200FM-12+001299999V0201801N002610015019N0100001N1+00721+00651101011ADDAY121031AY221031GA1081+001509069GF108991081061001501999999MD1310031+9999MW1201REMSYN076AAXX  08094 02584 41297 81805 10072 20065 40101 53003 72022 886// 333 88705;
0166025840999992000120812004+58400+019200FM-12+001299999V0201801N001010006019N0020001N1+00671+00631100931ADDAY121061AY221061GA1081+000609069GF108991081061000751999999MD1810081+9999MW1501REMSYN076AAXX  08124 02584 41195 81802 10067 20063 40093 58008 75022 886// 333 88702;
0166025840999992000120815004+58400+019200FM-12+001299999V0201801N003110021019N0040001N1+00671+00601100821ADDAY151031AY251031GA1081+002109069GF108991081061002501999999MD1710111+9999MW1101REMSYN076AAXX  08154 02584 41396 81806 10067 20060 40082 57011 71055 886// 333 88707;
0227025840999992000120818004+58400+019200FM-12+001299999V0201601N002610018019N0040001N1+00701+00601100711ADDAA112000191AY151061AY251061GA1081+001809079GF108991999071002501021999KA1120M+00761MD1810111+9999MW1601REMSYN094AAXX  08184 02584 11396 81605 10070 20060 40071 58011 69912 76055 8872/ 333 10076 88706 88599;EQDQ01+000082SCOTLC
0191025840999992000120821004+58400+019200FM-12+001299999V0202001N002610015019N0040001N1+00701+00631100601ADDAY161031AY261031GA1081+001509079GF108991999071001501021999MD1710111+9999MW1611REMSYN082AAXX  08214 02584 41296 82005 10070 20063 40060 57011 76166 8872/ 333 88705 88599;EQDQ01+000082SCOTLC
0172025840999992000120900004+58400+019200FM-12+001299999V0202001N002110015019N0040001N1+00691+00621100481ADDAY161061AY261061GA1071+001509079GF108991071071001501021999MD1610121+9999MW1611REMSYN082AAXX  09004 02584 41296 82004 10069 20062 40048 56012 76166 8772/ 333 87705 88596;
0166025840999992000120903004+58400+019200FM-12+001299999V0202701N003110027019N0040001N1+00741+00651100471ADDAY161031AY261031GA1081+002709069GF108991081071002501999999MD1510011+9999MW1101REMSYN076AAXX  09034 02584 41396 82706 10074 20065 40047 55001 71066 887// 333 88709;
0220025840999992000120906004+58400+019200FM-12+001299999V0202501N00311002101CN0040001N1+00801+00721100591ADDAA112004191AY161061AY261061GA1031+001809079GF107991071051002501001001IA1099KA1120N+00691MD1310121+9999MW1101REMSYN100AAXX  09064 02584 11396 72506 10080 20072 40059 53012 60042 71066 87500 333 20069 31/// 83706 84656;
0166025840999992000120909004+58400+019200FM-12+001299999V0202501N003112200019N0040001N1+00821+00731100751ADDAY121031AY211031GA1011+002109069GF101991011061002501001001MD1310161+9999MW1101REMSYN076AAXX  09094 02584 41396 12506 10082 20073 40075 53016 71021 81600 333 81707;
0166025840999992000120912004+58400+019200FM-12+001299999V0202301N002612200019N0040001N1+00821+00711100831ADDAY121061AY211061GA1031+999999079GF103991031001999999031001MD1110081+9999MW1101REMSYN076AAXX  09124 02584 41996 32305 10082 20071 40083 51008 71021 83030 333 83399;
0166025840999992000120915004+58400+019200FM-12+001299999V0202001N003110180019N0040001N1+00831+00691100821ADDAY121031AY221031GA1071+018009059GF107991071051017501999999MD1810011+9999MW1101REMSYN076AAXX  09154 02584 41796 72006 10083 20069 40082 58001 71022 875// 333 87656;
0215025840999992000120918004+58400+019200FM-12+001299999V0202701N003610012019N0040001N1+00751+00691100871ADDAA199000091AY121061AY221061GA1081+001209069GF108991081061001501999999KA1120M+00841MD1310051+9999MW1101REMSYN082AAXX  09184 02584 31296 82707 10075 20069 40087 53005 71022 886// 333 10084 88704;EQDQ01  00002PRCP99
0166025840999992000120921004+58400+019200FM-12+001299999V0202301N002110024019N0040001N1+00801+00711100871ADDAY121031AY221031GA1081+002409069GF108991081061002501999999MD1410001+9999MW1101REMSYN076AAXX  09214 02584 41396 82304 10080 20071 40087 54000 71022 886// 333 88708;
0166025840999992000121003004+58400+019200FM-12+001299999V0202701N003110147019N0040001N1+00801+00711100881ADDAY121031AY221031GA1081+014709059GF108991081051012501999999MD1310021+9999MW1101REMSYN076AAXX  10034 02584 41696 82706 10080 20071 40088 53002 71022 885// 333 88649;
0243025840999992000121006004+58400+019200FM-12+001299999V0202301N002110180019N0040001N1+00791+00721100891ADDAA199000091AY121061AY221061GA1071+018009059GF107991071051022501999001IA1099KA1120N+00751MD1210011+9999MW1101REMSYN088AAXX  10064 02584 31896 72304 10079 20072 40089 52001 71022 87500 333 20075 31/// 87656;EQDQ01+000002SCOMCGQ02  00002PRCP99
0144025840999992000121012004+58400+019200FM-12+001299999V0202301N003110021019N0100001N1+00821+00731100841ADDGA1061+002109079GF108991061061002501031999MD1810061+9999REMSYN076AAXX  10124 02584 42397 82306 10082 20073 40084 58006 8663/ 333 86707 85398;
0157025840999992000121015004+58400+019200FM-12+001299999V0202501N003110240019N0200001N1+00801+00661100811ADDGA1071+024009079GF107991071999022501071001MD1610011+9999REMSYN070AAXX  10154 02584 42898 72506 10080 20066 40081 56001 87070 333 87358;EQDQ01    003SCOLCG
0187025840999992000121018004+58400+019200FM-12+001299999V0202301N003110021019N0100001N1+00801+00691100801ADDAA199000091GA1071+002109059GF107991071051002501999999KA1120M+00821MD1710011+9999REMSYN076AAXX  10184 02584 32397 72306 10080 20069 40080 57001 875// 333 10082 87607;EQDQ01  00002PRCP99
0144025840999992000121021004+58400+019200FM-12+001299999V0202001N00311002101CN0100001N1+00761+00641100801ADDGA1041+002109079GF107991071061002501999999MD1510001+9999REMSYN076AAXX  10214 02584 42397 72006 10076 20064 40080 55000 876// 333 84707 83634;
0138025840999992000121100004+58400+019200FM-12+001299999V0202001N002612200019N0100001N1+00731+00631100771ADDGA1031+002409069GF103991031061002501001001MD1810031+9999REMSYN070AAXX  11004 02584 42397 32005 10073 20063 40077 58003 83600 333 83708;
0138025840999992000121103004+58400+019200FM-12+001299999V0201801N002110072019N0200001N1+00751+00611100731ADDGA1081+007209059GF108991081051008001999999MD1710041+9999REMSYN070AAXX  11034 02584 42598 81804 10075 20061 40073 57004 885// 333 88624;
0205025840999992000121106004+58400+019200FM-12+001299999V0201801N00311002101CN0200001N1+00731+00581100721ADDAA199000091GA1011+002409079GF108991081051002501999999IA1019KA1120N+00731MD1710011+9999REMSYN088AAXX  11064 02584 32398 81806 10073 20058 40072 57001 885// 333 20073 30/// 81708 88622;EQDQ01  00002PRCP99
0172025840999992000121109004+58400+019200FM-12+001299999V0202001N003110024019N0200001N1+00771+00631100751ADDAY161031AY221031GA1071+002409079GF108991071071002501021999MD1310031+9999MW1021REMSYN082AAXX  11094 02584 41398 82006 10077 20063 40075 53003 70262 8772/ 333 87708 88599;
0172025840999992000121112004+58400+019200FM-12+001299999V0202301N003110024019N0100001N1+00831+00691100731ADDAY161061AY221061GA1051+002409079GF107991071051002501999999MD1810021+9999MW1021REMSYN082AAXX  11124 02584 41397 72306 10083 20069 40073 58002 70262 875// 333 85708 87649;
0138025840999992000121115004+58400+019200FM-12+001299999V0202501N003610123019N0100001N1+00801+00661100711ADDGA1071+012309059GF107991071051012501999999MD1710021+9999REMSYN070AAXX  11154 02584 42697 72507 10080 20066 40071 57002 875// 333 87641;
0174025840999992000121118004+58400+019200FM-12+001299999V0202501N003110123019N0100001N1+00781+00621100621ADDAA112000791GA1071+012309059GF107991071051012501001001KA1120M+00851MD1810091+9999REMSYN082AAXX  11184 02584 12697 72506 10078 20062 40062 58009 69902 87500 333 10085 87641;
0172025840999992000121121004+58400+019200FM-12+001299999V0202001N003110033019N0040001N1+00751+00691100381ADDAY121031AY221031GA1061+003309079GF108991061071004501021999MD1810241+9999MW1611REMSYN082AAXX  11214 02584 41496 82006 10075 20069 40038 58024 76122 8672/ 333 86711 88597;
0172025840999992000121200004+58400+019200FM-12+001299999V0202701N00211004201CN0040001N1+00841+00761100121ADDAY181061AY281061GA1021+004509079GF108991081031004501999999MD1710261+9999MW1801REMSYN082AAXX  12004 02584 41496 82704 10084 20076 40012 57026 78088 883// 333 82794 85996;
0172025840999992000121203004+58400+019200FM-12+001299999V0202701N00511004201CN0040001N1+00881+00721100101ADDAY181031AY281031GA1041+004509079GF108991081031004501999999MD1310021+9999MW1101REMSYN082AAXX  12034 02584 41496 82710 10088 20072 40010 53002 71088 883// 333 84794 86996;
0214025840999992000121206004+58400+019200FM-12+001299999V0203401N004112200019N0200001N1+00731+00431100411ADDAA112001091AY181061AY221061GA1041+004809099GF104991041031008001001001IA1099KA1120N+00731MD1210311+9999MW1011REMSYN094AAXX  12064 02584 11598 43408 10073 20043 40041 52031 60012 70182 84300 333 20073 31/// 84916;
0138025840999992000121209004+58400+019200FM-12+001299999V0202701N002612200019N0200001N1+00741+00511100781ADDGA1031+004809059GF104991031051008001031001MD1210371+9999REMSYN070AAXX  12094 02584 42598 42705 10074 20051 40078 52037 83530 333 83616;
0157025840999992000121212004+58400+019200FM-12+001299999V0202901N002612200019N0200001N1+00741+00511100891ADDGA1041+999999019GF104991001001999999001011MD1110111+9999REMSYN070AAXX  12124 02584 42598 42905 10074 20051 40089 51011 80001 333 84099;EQDQ01+008002SCOLCB
0138025840999992000121215004+58400+019200FM-12+001299999V0202701N002610036019N0200001N1+00711+00561101001ADDGA1071+003609059GF107991071051008001001001MD1210111+9999REMSYN070AAXX  12154 02584 42598 72705 10071 20056 40100 52011 87500 333 87612;
0187025840999992000121218004+58400+019200FM-12+001299999V0202301N002610030019N0200001N1+00671+00521100981ADDAA199000091GA1061+003009059GF106991061051004501001001KA1120M+00761MD1810021+9999REMSYN076AAXX  12184 02584 32498 62305 10067 20052 40098 58002 86500 333 10076 86610;EQDQ01  00002PRCP99
0172025840999992000121221004+58400+019200FM-12+001299999V0201801N001010018019N0040001N1+00651+00581100831ADDAY121031AY221031GA1061+001809079GF108991061071002501021999MD1810151+9999MW1631REMSYN082AAXX  12214 02584 41396 81802 10065 20058 40083 58015 76322 8672/ 333 86706 88599;
0166025840999992000121300004+58400+019200FM-12+001299999V0202001N002110006019N0020001N1+00801+00721100651ADDAY161061AY221061GA1081+000609069GF108991081071000751999999MD1710181+9999MW1211REMSYN076AAXX  13004 02584 41195 82004 10080 20072 40065 57018 72162 887// 333 88702;
0150025840999992000121303004+58400+019200FM-12+001299999V0202301N002610003019N0005001N1+00861+00781100471ADDAY121031AY221031GA1091+999999999GF109991091999999999999999MD1710181+9999MW1431REMSYN060AAXX  13034 02584 41/93 92305 10086 20078 40047 57018 74322;
0202025840999992000121306004+58400+019200FM-12+001299999V0201801N002110003019N0005001N1+00841+00761100201ADDAA112002091AY141061AY221061GA1091+999999999GF109991091999999999999999IA1099KA1120N+00641MD1810271+9999MW1451REMSYN082AAXX  13064 02584 11/93 91804 10084 20076 40020 58027 60022 74542 333 20064 31///;
0191025840999992000121309004+58400+019200FM-12+001299999V0201801N002610003019N0005001N1+00851+00771099791ADDAY141031AY241031GA1081+000309079GF108991999061999999021999MD1810411+9999MW1611REMSYN082AAXX  13094 02584 41/93 81805 10085 20077 49979 58041 76144 8862/ 333 88701 88597;EQDQ01+000082SCOTLC
0172025840999992000121312004+58400+019200FM-12+001299999V0201801N003110003019N0040001N1+00861+00801099401ADDAY141061AY241061GA1051+000309079GF108991051071000751021999MD1710391+9999MW1611REMSYN082AAXX  13124 02584 41196 81806 10086 20080 49940 57039 76144 8572/ 333 85701 88597;
0172025840999992000121315004+58400+019200FM-12+001299999V0202001N00311001201CN0040001N1+00871+00811099191ADDAY161031AY261031GA1031+001509079GF107991071061001501999999MD1710211+9999MW1101REMSYN082AAXX  13154 02584 41296 72006 10087 20081 49919 57021 71066 876// 333 83705 85632;
0202025840999992000121318004+58400+019200FM-12+001299999V0202001N005110111019N0100001N1+00841+00681099061ADDAA112007191AY161061AY261061GA1061+011109059GF106991061051012501001001KA1120M+00881MD1610131+9999MW1021REMSYN088AAXX  13184 02584 11697 62010 10084 20068 49906 56013 60072 70266 86500 333 10088 86637;
0172025840999992000121321004+58400+019200FM-12+001299999V0202001N006210048019N0040001N1+00801+00561099041ADDAY121031AY221031GA1061+004809079GF108991061071004501021999MD1610021+9999MW1601REMSYN082AAXX  13214 02584 41496 82012 10080 20056 49904 56002 76022 8672/ 333 86716 88598;
0172025840999992000121400004+58400+019200FM-12+001299999V0202301N006210093019N0100001N1+00781+00451099151ADDAY121061AY221061GA1051+009309069GF107991051051008001011999MD1310111+9999MW1211REMSYN082AAXX  14004 02584 41597 72312 10078 20045 49915 53011 72122 8551/ 333 85631 87499;
0122025840999992000121403004+58400+019200FM-12+001299999V0202301N005112200019N0200001N1+00721+00441099151ADDGA1001+999999999GF100991001001999999001001MD1010001+9999REMSYN054AAXX  14034 02584 42998 02310 10072 20044 49915 50000;
0186025840999992000121406004+58400+019200FM-12+001299999V0202301N003612200019N0200001N1+00721+00511099071ADDAA112000891GA1041+003909069GF104991041071004501001001IA1099KA1120N+00701MD1810081+9999REMSYN088AAXX  14064 02584 12498 42307 10072 20051 49907 58008 69982 84700 333 20070 31/// 84713;
0172025840999992000121409004+58400+019200FM-12+001299999V0201801N001510300019N0040001N1+00641+00581098991ADDAY181031AY221031GA1041+004209079GF108991041071004501021999MD1710081+9999MW1611REMSYN082AAXX  14094 02584 41496 81803 10064 20058 49899 57008 76182 8472/ 333 84714 88598;
0172025840999992000121412004+58400+019200FM-12+001299999V0202701N00211004201CN0040001N1+00661+00591098921ADDAY181061AY261061GA1031+004809089GF108991081031004501999999MD1710071+9999MW1101REMSYN082AAXX  14124 02584 41496 82704 10066 20059 49892 57007 71086 883// 333 83816 85716;
0144025840999992000121415004+58400+019200FM-12+001299999V0202701N00311004201CN0100001N1+00681+00501099001ADDGA1021+005409089GF107991071031004501001001MD1310081+9999REMSYN076AAXX  14154 02584 42497 72706 10068 20050 49900 53008 87300 333 82818 85718;
0180025840999992000121418004+58400+019200FM-12+001299999V0202501N00411004201CN0200001N1+00731+00511098991ADDAA112001091GA1021+004209079GF105991051051004501001001KA1120M+00731MD1810011+9999REMSYN088AAXX  14184 02584 12498 52508 10073 20051 49899 58001 60012 85500 333 10073 82714 84633;
0138025840999992000121421004+58400+019200FM-12+001299999V0202001N004610054019N0200001N1+00731+00521098961ADDGA1061+005409059GF106991061051004501001001MD1710031+9999REMSYN070AAXX  14214 02584 42498 62009 10073 20052 49896 57003 86500 333 86618;
0172025840999992000121500004+58400+019200FM-12+001299999V0202001N004610300019N0100001N1+00711+00461098911ADDAY121061AY221061GA1021+005709069GF108991021051004501011999MD1710051+9999MW1611REMSYN082AAXX  15004 02584 41497 82009 10071 20046 49891 57005 76122 8251/ 333 82619 88499;
0166025840999992000121503004+58400+019200FM-12+001299999V0202001N004110072019N0100001N1+00711+00451098891ADDAY161031AY261031GA1071+007209059GF107991071051008001999999MD1710021+9999MW1021REMSYN076AAXX  15034 02584 41597 72008 10071 20045 49889 57002 70266 875// 333 87624;
0242025840999992000121506004+58400+019200FM-12+001299999V0202001N003610150019N0100001N1+00711+00451098831ADDAA112000191AY161061AY261061GA1021+004509079GA2031+015009069GF108991041051004501011999IA1019KA1120N+00641MD1710061+9999MW1031REMSYN106AAXX  15064 02584 11497 82007 10071 20045 49883 57006 69912 70366 8451/ 333 20064 30/// 82715 83650 88499;
0172025840999992000121509004+58400+019200FM-12+001299999V0201801N004110042019N0100001N1+00661+00461098881ADDAY121031AY221031GA1051+004209079GF108991051071004501021999MD1310051+9999MW1601REMSYN082AAXX  15094 02584 41497 81808 10066 20046 49888 53005 76022 8572/ 333 85714 88599;
0166025840999992000121512004+58400+019200FM-12+001299999V0201801N003110039019N0100001N1+00701+00501098841ADDAY161061AY221061GA1071+003909059GF107991071051004501999999MD1010041+9999MW1001REMSYN076AAXX  15124 02584 41497 71806 10070 20050 49884 50004 70062 875// 333 87613;
0172025840999992000121515004+58400+019200FM-12+001299999V0201801N00261030001CN0100001N1+00701+00501098871ADDAY161031AY221031GA1041+003609079GF108991041071004501021999MD1210031+9999MW1211REMSYN082AAXX  15154 02584 41497 81805 10070 20050 49887 52003 72162 8472/ 333 84712 88556;
0202025840999992000121518004+58400+019200FM-12+001299999V0201601N003110036019N0100001N1+00661+00431098941ADDAA112000191AY161061AY221061GA1071+003609069GF107991071071004501999999KA1120M+00721MD1310071+9999MW1021REMSYN088AAXX  15184 02584 11497 71606 10066 20043 49894 53007 69922 70262 877// 333 10072 87712;
0138025840999992000121521004+58400+019200FM-12+001299999V0201601N003112200019N0200001N1+00621+00271099051ADDGA1041+012309059GF104991041051012501001001MD1210111+9999REMSYN070AAXX  15214 02584 42698 41606 10062 20027 49905 52011 84500 333 84641;
0172025840999992000121600004+58400+019200FM-12+001299999V0201601N00261004201CN0040001N1+00461+00401099091ADDAY121061AY221061GA1031+005109089GF108991081031004501999999MD1110041+9999MW1811REMSYN082AAXX  16004 02584 41496 81605 10046 20040 49909 51004 78122 883// 333 83817 85717;
0166025840999992000121603004+58400+019200FM-12+001299999V0201401N004110084019N0040001N1+00521+00421099161ADDAY181031AY281031GA1081+008409059GF108991081051008001999999MD1210071+9999MW1101REMSYN076AAXX  16034 02584 41596 81408 10052 20042 49916 52007 71088 885// 333 88628;
0214025840999992000121606004+58400+019200FM-12+001299999V0201101N002110042019N0040001N1+00481+00411099301ADDAA112003091AY181061AY281061GA1081+004209069GF108991081071004501999999IA1099KA1120N+00451MD1310141+9999MW1101REMSYN094AAXX  16064 02584 11496 81104 10048 20041 49930 53014 60032 71088 887// 333 20045 31/// 88714;
0172025840999992000121609004+58400+019200FM-12+001299999V0201601N00101004201CN0040001N1+00361+00291099471ADDAY121031AY221031GA1031+003609089GF108991081031004501999999MD1210171+9999MW1801REMSYN082AAXX  16094 02584 41496 81602 10036 20029 49947 52017 78022 883// 333 83812 85712;
0172025840999992000121612004+58400+019200FM-12+001299999V0201101N001510300019N0100001N1+00421+00301099571ADDAY181061AY221061GA1031+006909089GF106991031031008001031001MD1210101+9999MW1021REMSYN082AAXX  16124 02584 41597 61103 10042 20030 49957 52010 70282 83330 333 83823 84399;
0172025840999992000121615004+58400+019200FM-12+001299999V0200901N002110051019N0040001N1+00281+00211099741ADDAY121031AY221031GA1061+005109079GF108991061071004501021999MD1210171+9999MW1611REMSYN082AAXX  16154 02584 41496 80904 10028 20021 49974 52017 76122 8672/ 333 86717 88598;
0183025840999992000121618004+58400+019200FM-12+001299999V0200701N003110054019N0100001N1+00421+00211099841ADDAA112003091AY161061AY221061GA1081+005409059GF108991081051004501999999MD1210101+9999MW1021REMSYN082AAXX  16184 02584 11497 80706 10042 20021 49984 52010 60032 70262 885// 333 88618;
0172025840999992000121621004+58400+019200FM-12+001299999V0200701N001510012019N0100001N1+00411+00181099991ADDAY121031AY221031GA1051+001209079GF108991051071001501021999MD1210151+9999MW1611REMSYN082AAXX  16214 02584 41297 80703 10041 20018 49999 52015 76122 8572/ 333 85704 88539;
0166025840999992000121700004+58400+019200FM-12+001299999V0200501N001510069019N0100001N1+00471+00051100101ADDAY161061AY221061GA1071+006909059GF107991071051008001999999MD1210111+9999MW1011REMSYN076AAXX  17004 02584 41597 70503 10047 20005 40010 52011 70162 875// 333 87623;
0194025840999992000121703004+58400+019200FM-12+001299999V0200501N00101002101CN0040001N1+00321+00231100201ADDAY121031AY221031GA1021+002409079GA2021+004209099GF107991071031002501999999MD1210101+9999MW1801REMSYN088AAXX  17034 02584 41396 70502 10032 20023 40020 52010 78022 873// 333 82914 82708 83814;
0220025840999992000121706004+58400+019200FM-12+001299999V0200701N00211004201CN0100001N1+00471+00191100321ADDAA112003091AY161061AY221061GA1021+005109099GF105991051031004501001001IA1099KA1120N+00301MD1210121+9999MW1011REMSYN100AAXX  17064 02584 11497 50704 10047 20019 40032 52012 60032 70162 85300 333 20030 31/// 82917 84656;
0194025840999992000121709004+58400+019200FM-12+001299999V0200701N00211030001CN0100001N1+00381+00231100481ADDAY181031AY221031GA1021+004509099GA2021+004509089GF106991041031004501031001MD1210161+9999MW1251REMSYN088AAXX  17094 02584 41497 60704 10038 20023 40048 52016 72582 84330 333 82915 82815 84358;
0166025840999992000121712004+58400+019200FM-12+001299999V0203601N001512200019N0200001N1+00381+00181100591ADDAY181061AY221061GA1011+005709099GF103991031091004501001001MD1210111+9999MW1011REMSYN076AAXX  17124 02584 41498 33603 10038 20018 40059 52011 70182 83900 333 81919;
0194025840999992000121715004+58400+019200FM-12+001299999V0203601N001010084019N0200001N1+00361+00191100741ADDAY181031AY221031GA1021+003309099GA2041+008409069GF107991061031004501001031MD1210151+9999MW1271REMSYN088AAXX  17154 02584 41498 73602 10036 20019 40074 52015 72782 86303 333 82911 84628 83061;
0202025840999992000121718004+58400+019200FM-12+001299999V0200201N002112200019N0200001N1+00381+00151100841ADDAA112002091AY181061AY221061GA1031+004509099GF103991031031004501001001KA1120M+00481MD1210101+9999MW1251REMSYN088AAXX  17184 02584 11498 30204 10038 20015 40084 52010 60022 72582 83300 333 10048 83994;
0155025840999992000121721004+58400+019200FM-12+001299999V0200701N002110075019N0100001N1+00361+00241101021ADDAY121031AY221031GF108991081031008001999999MD1210181+9999MW1801REMSYN081AAXX  17214 02584 41597 80704 10036 20024 40102 52018 78022 883// 33 83922 85622;
0166025840999992000121800004+58400+019200FM-12+001299999V0200501N002112200019N0200001N1+00381-00221101161ADDAY181061AY221061GA1031+008009029GF103991031021008001001001MD1210141+9999MW1011REMSYN076AAXX  18004 02584 41598 30504 10038 21022 40116 52014 70182 83200 333 83895;
0138025840999992000121803004+58400+019200FM-12+001299999V0200501N001012200019N0200001N1+00341-00121101291ADDGA1041+007509029GF104991041021008001001001MD1210131+9999REMSYN070AAXX  18034 02584 42598 40502 10034 21012 40129 52013 84200 333 84825;
0220025840999992000121806004+58400+019200FM-12+001299999V0200901N001010042019N0040001N1+00241+00101101431ADDAA112000891AY111061AY211061GA1041+004209099GF108991081031004501999999IA1099KA1120N+00181MD1210141+9999MW1801REMSYN100AAXX  18064 02584 11496 80902 10024 20010 40143 52014 69982 78011 883// 333 20018 31/// 84914 84714;
0172025840999992000121809004+58400+019200FM-12+001299999V0200901N001010030019N0040001N1+00101+00031101631ADDAY181031AY281031GA1051+003009099GF108991081031004501999999MD1210201+9999MW1831REMSYN082AAXX  18094 02584 41496 80902 10010 20003 40163 52020 78388 883// 333 85910 83710;
0166025840999992000121812004+58400+019200FM-12+001299999V0202301N000510039019N0100001N1+00401+00281101731ADDAY181061AY281061GA1061+003909029GF106991061021004501001001MD1210101+9999MW1021REMSYN076AAXX  18124 02584 41497 62301 10040 20028 40173 52010 70288 86200 333 86813;
0172025840999992000121815004+58400+019200FM-12+001299999V0201601N000510024019N0010001N1+00041-00031101931ADDAY181031AY281031GA1061+002409079GF108991061071002501021999MD1310201+9999MW1731REMSYN082AAXX  18154 02584 41394 81601 10004 21003 40193 53020 77388 8672/ 333 86708 88598;
0202025840999992000121818004+58400+019200FM-12+001299999V0201801N001012200019N0100001N1+00021-00041102011ADDAA112018091AY181061AY281061GA1031+010509059GF103991031051012501001001KA1120M+00401MD1210081+9999MW1221REMSYN088AAXX  18184 02584 11697 31802 10002 21004 40201 52008 60182 72288 83500 333 10040 83635;
0172025840999992000121821004+58400+019200FM-12+001299999V0209999V001010009019N0100001N1+00051-00011102111ADDAY111031AY211031GA1051+000909079GF108991051071000751021999MD1210101+9999MW1221REMSYN082AAXX  18214 02584 41197 89902 10005 21001 40211 52010 72211 8572/ 333 85703 88598;
0166025840999992000121900004+58400+019200FM-12+001299999V0209999V000512200019N0100001N1+00021-00041102171ADDAY171061AY211061GA1031+010509059GF103991031051012501001001MD1210061+9999MW1011REMSYN076AAXX  19004 02584 41697 39901 10002 21004 40217 52006 70171 83500 333 83635;
0144025840999992000121903004+58400+019200FM-12+001299999V0209999V00101004201CN0100001N1+00021-00041102251ADDGA1021+003009079GF106991061051004501001001MD1110081+9999REMSYN076AAXX  19034 02584 42497 69902 10002 21004 40225 51008 86500 333 82710 85650;
0203025840999992000121906004+58400+019200FM-12+001299999V0209999V000510093019N0100001N1+00031-00031102331ADDAA112005191AJ100039199999999GA1061+009309059GF106991061051008001001001IA1309KA1120N+00001MD1210081+9999REMSYN088AAXX  19064 02584 12597 69901 10003 21003 40233 52008 60052 86500 333 20000 42003 86631;
0185025840999992000121909004+58400+019200FM-12+001299999V0200901N00311007501CN0200001N1+00281-00161102521ADDAY171031AY221031GA1021+007209099GF106991061031008001001001MD1210191+9999REMSYN082AAXX  19094 02584 41598 60906 10028 21016 40252 52019 77872 86300 333 82924 84650;EQDQ01+000782PRSWM1
0172025840999992000121912004+58400+019200FM-12+001299999V0200701N00311007501CN0200001N1+00241-00421102691ADDAY171061AY221061GA1021+008709099GF105991051031008001001001MD1210171+9999MW1011REMSYN082AAXX  19124 02584 41598 50706 10024 21042 40269 52017 70172 85300 333 82929 83647;
0172025840999992000121915004+58400+019200FM-12+001299999V0200701N00411007501CN0200001N1+00321-00281102801ADDAY171031AY221031GA1021+009309099GF108991081031008001999999MD1110111+9999MW1271REMSYN082AAXX  19154 02584 41598 80708 10032 21028 40280 51011 72772 883// 333 82931 88643;
0174025840999992000121918004+58400+019200FM-12+001299999V0200701N002110150019N0200001N1+00301-00691102971ADDAA112000191GA1081+015009059GF108991081051017501999999KA1120M+00321MD1210171+9999REMSYN082AAXX  19184 02584 12798 80704 10030 21069 40297 52017 69922 885// 333 10032 88650;
0172025840999992000121921004+58400+019200FM-12+001299999V0200201N00101002101CN0040001N1+00301-00201103041ADDAY121031AY221031GA1031+002409099GF108991081031002501999999MD1110071+9999MW1871REMSYN082AAXX  19214 02584 41396 80202 10030 21020 40304 51007 78722 883// 333 83908 85696;
0166025840999992000122000004+58400+019200FM-12+001299999V0200501N002112200019N0200001N1+00281-00431103091ADDAY181061AY201061GA1041+009009029GF104991041021008001001001MD1210051+9999MW1021REMSYN076AAXX  20004 02584 41598 40504 10028 21043 40309 52005 70280 84200 333 84830;
0138025840999992000122003004+58400+019200FM-12+001299999V0200501N002110087019N0200001N1+00281-00341103191ADDGA1051+008709029GF105991051021008001001001MD1310101+9999REMSYN070AAXX  20034 02584 42598 50504 10028 21034 40319 53010 85200 333 85829;
0203025840999992000122006004+58400+019200FM-12+001299999V0200501N001012200019N0200001N1+00281-00511103211ADDAA112000791AJ100029199999999GA1041+009009029GF104991041021008001001001IA1259KA1120N+00221MD1110021+9999REMSYN088AAXX  20064 02584 12598 40502 10028 21051 40321 51002 69902 84200 333 20022 41002 84830;
0166025840999992000122009004+58400+019200FM-12+001299999V0209999C000010099019N0100001N1+00121-00171103311ADDAY121031AY211031GA1081+009909059GF108991081051012501999999MD1310101+9999MW1201REMSYN076AAXX  20094 02584 41697 80000 10012 21017 40331 53010 72021 885// 333 88633;
0166025840999992000122012004+58400+019200FM-12+001299999V0200501N000510129019N0200001N1+00301-00281103271ADDAY171061AY221061GA1081+012909059GF108991081051012501999999MD1810041+9999MW1021REMSYN076AAXX  20124 02584 41698 80501 10030 21028 40327 58004 70272 885// 333 88643;
0138025840999992000122015004+58400+019200FM-12+001299999V0203601N001010111019N0200001N1+00281-00321103311ADDGA1081+011109059GF108991081051012501999999MD1310041+9999REMSYN070AAXX  20154 02584 42698 83602 10028 21032 40331 53004 885// 333 88637;
0174025840999992000122018004+58400+019200FM-12+001299999V0203401N001010150019N0200001N1+00221-00421103331ADDAA112000791GA1081+015009059GF108991081051017501999999KA1120M+00321MD1210021+9999REMSYN082AAXX  20184 02584 12798 83402 10022 21042 40333 52002 69902 885// 333 10032 88650;
0138025840999992000122021004+58400+019200FM-12+001299999V0203401N001012200019N0200001N1+00141-00521103371ADDGA1021+010509059GF102991021051012501001001MD1210041+9999REMSYN070AAXX  20214 02584 42698 23402 10014 21052 40337 52004 82500 333 82635;
0138025840999992000122100004+58400+019200FM-12+001299999V0203401N001012200019N0200001N1-00021-00531103361ADDGA1011+012909059GF101991011051012501001001MD1710011+9999REMSYN070AAXX  21004 02584 42698 13402 11002 21053 40336 57001 81500 333 81643;
0144025840999992000122103004+58400+019200FM-12+001299999V0203201N002110114019N0200001N1+00251-00461103321ADDGA1081+011409069GF108991081051012501999999MD1710041+9999REMSYN076AAXX  21034 02584 42698 83204 10025 21046 40332 57004 885// 333 88638 82004;
0216025840999992000122106004+58400+019200FM-12+001299999V0203401N002610135019N0200001N1+00181-00321103311ADDAA199000091AJ100029199999999GA1081+013509059GF108991081051012501999999IA1259KA1120N-00081MD1710011+9999REMSYN082AAXX  21064 02584 32698 83405 10018 21032 40331 57001 885// 333 21008 41002 88645;EQDQ01  00002PRCP99
0144025840999992000122109004+58400+019200FM-12+001299999V0203601N00101004201CN0200001N1+00191-00241103551ADDGA1021+005709079GF108991081051004501999999MD1210041+9999REMSYN076AAXX  21094 02584 42498 83602 10019 21024 40355 52004 885// 333 82719 88640;
0138025840999992000122112004+58400+019200FM-12+001299999V0203601N001010078019N0100001N1+00201-00381103271ADDGA1081+007809059GF108991081051008001999999MD1810081+9999REMSYN070AAXX  21124 02584 42597 83602 10020 21038 40327 58008 885// 333 88626;
0138025840999992000122115004+58400+019200FM-12+001299999V0203201N001010066019N0200001N1+00131-00351103251ADDGA1051+006609059GF105991051051008001001001MD1710021+9999REMSYN070AAXX  21154 02584 42598 53202 10013 21035 40325 57002 85500 333 85622;
0202025840999992000122118004+58400+019200FM-12+001299999V0203401N000510075019N0200001N1+00141-00381103141ADDAA112000191AY171061AY221061GA1081+007509059GF108991081051008001999999KA1120M+00221MD1810111+9999MW1021REMSYN088AAXX  21184 02584 11598 83401 10014 21038 40314 58011 69912 70272 885// 333 10022 88625;
0138025840999992000122121004+58400+019200FM-12+001299999V0203201N001010075019N0200001N1+00191-00331103081ADDGA1081+007509059GF108991081051008001999999MD1710061+9999REMSYN070AAXX  21214 02584 42598 83202 10019 21033 40308 57006 885// 333 88625;
0138025840999992000122203004+58400+019200FM-12+001299999V0202701N002110081019N0200001N1+00281-00261102621ADDGA1081+008109059GF108991081051008001999999MD1710231+9999REMSYN070AAXX  22034 02584 42598 82704 10028 21026 40262 57023 885// 333 88627;
0216025840999992000122206004+58400+019200FM-12+001299999V0202201N003110057019N0200001N1+00341-00071102351ADDAA199000091AJ100029199999999GA1081+005709059GF108991081051004501999999IA1259KA1120N+00121MD1710251+9999REMSYN082AAXX  22064 02584 32498 82206 10034 21007 40235 57025 885// 333 20012 41002 88619;EQDQ01  00002PRCP99
0138025840999992000122209004+58400+019200FM-12+001299999V0202901N004110054019N0200001N1+00361-00011102131ADDGA1081+005409059GF108991081051004501999999MD1710221+9999REMSYN070AAXX  22094 02584 42498 82908 10036 21001 40213 57022 885// 333 88618;
0172025840999992000122212004+58400+019200FM-12+001299999V0202901N00411007501CN0200001N1+00361-00061101861ADDAY121061AY221061GA1041+006309099GF108991081031008001999999MD1710271+9999MW1801REMSYN082AAXX  22124 02584 41598 82908 10036 21006 40186 57027 78022 883// 333 84921 86695;
0166025840999992000122215004+58400+019200FM-12+001299999V0202701N005110063019N0200001N1+00301-00161101551ADDAY181031AY281031GA1081+006309059GF108991081051008001999999MD1710311+9999MW1021REMSYN076AAXX  22154 02584 41598 82710 10030 21016 40155 57031 70288 885// 333 88621;
0202025840999992000122218004+58400+019200FM-12+001299999V0202901N003610057019N0200001N1+00281-00141101211ADDAA112000791AY181061AY281061GA1081+005709059GF108991081051004501999999KA1120M+00361MD1710341+9999MW1021REMSYN088AAXX  22184 02584 11498 82907 10028 21014 40121 57034 69902 70288 885// 333 10036 88619;
0138025840999992000122221004+58400+019200FM-12+001299999V0202901N002610060019N0200001N1+00281-00201100991ADDGA1081+006009059GF108991081051008001999999MD1610221+9999REMSYN070AAXX  22214 02584 42598 82905 10028 21020 40099 56022 885// 333 88620;
0138025840999992000122300004+58400+019200FM-12+001299999V0203201N002112200019N0200001N1+00201-00151100741ADDGA1021+004809059GF102991021051004501001001MD1710251+9999REMSYN070AAXX  23004 02584 42498 23204 10020 21015 40074 57025 82500 333 82616;
0144025840999992000122303004+58400+019200FM-12+001299999V0203401N002610027019N0200001N1+00291+00121100581ADDGA1051+002709079GF108991081061002501999999MD1610161+9999REMSYN076AAXX  23034 02584 42398 83405 10029 20012 40058 56016 886// 333 85709 83650;
0232025840999992000122306004+58400+019200FM-12+001299999V0203201N002619999999N0200001N1+00271-00051100441ADDAA199000091AJ199992999999999GA1081+999999089GF108991001001999999001071IA1259KA1120N+00201MD1610141+9999REMSYN082AAXX  23064 02584 32998 83205 10027 21005 40044 56014 80007 333 20020 41998 88299;EQDQ01  00002PRCP99Q02  09972SNDP  
0144025840999992000122309004+58400+019200FM-12+001299999V0203401N003112200019N0200001N1+00191-00161100411ADDGA1021+005109079GF104991021061004501001011MD1610031+9999REMSYN076AAXX  23094 02584 42498 43406 10019 21016 40041 56003 82601 333 82717 84099;
0138025840999992000122312004+58400+019200FM-12+001299999V0203401N00311075001CN0200001N1+00201-00171100331ADDGA1051+999999019GF105991001001999999001011MD1810081+9999REMSYN070AAXX  23124 02584 42998 53406 10020 21017 40033 58008 80001 333 85099;
0138025840999992000122315004+58400+019200FM-12+001299999V0203201N003110057019N0200001N1+00081-00331100281ADDGA1071+005709069GF107991071061004501001011MD1610051+9999REMSYN070AAXX  23154 02584 42498 73206 10008 21033 40028 56005 87601 333 87719;
0187025840999992000122318004+58400+019200FM-12+001299999V0203401N002110051019N0200001N1+00041-00301100241ADDAA199000091GA1051+005109069GF105991051061004501001001KA1120M+00281MD1710041+9999REMSYN076AAXX  23184 02584 32498 53404 10004 21030 40024 57004 85600 333 10028 85717;EQDQ01  00002PRCP99
0138025840999992000122321004+58400+019200FM-12+001299999V0203401N002612200019N0200001N1+00031-00291100201ADDGA1041+005109069GF104991041061004501001001MD1710041+9999REMSYN070AAXX  23214 02584 42498 43405 10003 21029 40020 57004 84600 333 84717;
0138025840999992000122400004+58400+019200FM-12+001299999V0203401N003112200019N0200001N1+00021-00251100131ADDGA1021+004509069GF102991021061004501001001MD1710071+9999REMSYN070AAXX  24004 02584 42498 23406 10002 21025 40013 57007 82600 333 82794;
0138025840999992000122403004+58400+019200FM-12+001299999V0203401N003110042019N0200001N1+00151-00121100051ADDGA1081+004209069GF108991081061004501999999MD1710081+9999REMSYN070AAXX  24034 02584 42498 83406 10015 21012 40005 57008 886// 333 88714;
0256025840999992000122406004+58400+019200FM-12+001299999V0203601N003110042019N0200001N1+00161-00081100001ADDAA112000191AJ199992999999999AY121061AY221061GA1031+004209099GF108991081031004501999999IA1259KA1120N+00001MD1710051+9999MW1271REMSYN100AAXX  24064 02584 11498 83606 10016 21008 40000 57005 69922 72722 883// 333 20000 41998 83914 86794;EQDQ01  09972SNDP  
0172025840999992000122409004+58400+019200FM-12+001299999V0203601N002610027019N0040001N1+00181-00031100001ADDAY121031AY221031GA1051+002709079GF108991081031002501999999MD1010001+9999MW1851REMSYN082AAXX  24094 02584 41396 83605 10018 21003 40000 50000 78522 883// 333 85709 85995;
0166025840999992000122412004+58400+019200FM-12+001299999V0203601N002110072019N0200001N1+00201-00101100101ADDAY181061AY221061GA1061+007209099GF106991061031008001001001MD1210101+9999MW1261REMSYN076AAXX  24124 02584 41598 63604 10020 21010 40010 52010 72682 86300 333 86924;
0138025840999992000122415004+58400+019200FM-12+001299999V0203601N017510084019N0200001N1+00171-00201100161ADDGA1061+008409099GF106991061031008001001001MD1210061+9999REMSYN070AAXX  24154 02584 42598 63634 10017 21020 40016 52006 86300 333 86928;
0202025840999992000122418004+58400+019200FM-12+001299999V0200201N001510039019N0100001N1+00101-00011100171ADDAA112000191AY181061AY221061GA1071+003909099GF107991071031004501999999KA1120M+00211MD1110011+9999MW1261REMSYN088AAXX  24184 02584 11497 70203 10010 21001 40017 51001 69922 72682 873// 333 10021 87913;
0166025840999992000122421004+58400+019200FM-12+001299999V0200501N002110093019N0100001N1+00141-00291100191ADDAY181031AY281031GA1071+009309099GF107991071031008001999999MD1010021+9999MW1851REMSYN076AAXX  24214 02584 41597 70504 10014 21029 40019 50002 78588 873// 333 87931;
0166025840999992000122500004+58400+019200FM-12+001299999V0203601N002110012019N0040001N1+00051-00051100231ADDAY181061AY281061GA1081+001209099GF108991081031001501999999MD1310041+9999MW1861REMSYN076AAXX  25004 02584 41296 83604 10005 21005 40023 53004 78688 883// 333 88904;
0172025840999992000122503004+58400+019200FM-12+001299999V0200201N001510012019N0040001N1+00001-00081100251ADDAY181031AY281031GA1061+001209079GF108991081031001501999999MD1210021+9999MW1861REMSYN082AAXX  25034 02584 41296 80203 10000 21008 40025 52002 78688 883// 333 86704 88996;
0237025840999992000122506004+58400+019200FM-12+001299999V0200501N001012200019N0100001N1-00061-00191100181ADDAA112003091AJ100049199999999AY181061AY281061GA1011+001209079GF102991021031004501001001IA1239KA1120N-00181MD1810071+9999MW1011REMSYN100AAXX  25064 02584 11497 20502 11006 21019 40018 58007 60032 70188 82300 333 21018 47004 81704 81996;
0138025840999992000122509004+58400+019200FM-12+001299999V0200201N001012200019N0200001N1+00061-00371100231ADDGA1031+007809059GF103991031051008001001001MD1310051+9999REMSYN070AAXX  25094 02584 42598 30202 10006 21037 40023 53005 83500 333 83626;
0138025840999992000122512004+58400+019200FM-12+001299999V0203601N001012200019N0200001N1+00041-00481100231ADDGA1011+008009059GF102991011051008001071001MD1410001+9999REMSYN070AAXX  25124 02584 42598 23602 10004 21048 40023 54000 81570 333 81695;
0138025840999992000122515004+58400+019200FM-12+001299999V0203601N000512200019N0200001N1-00301-00531100181ADDGA1011+008009059GF101991011051008001001001MD1810051+9999REMSYN070AAXX  25154 02584 42598 13601 11030 21053 40018 58005 81500 333 81695;
0175025840999992000122518004+58400+019200FM-12+001299999V0203601N000512200019N0200001N1-00341-00441100181ADDAA199000091GA1001+999999999GF100991001001999999001001KA1999M+00081MD1410001+9999REMSYN064AAXX  25184 02584 32998 03601 11034 21044 40018 54000 333 10008;EQDQ01  00002PRCP99
0122025840999992000122521004+58400+019200FM-12+001299999V0203201N000512200019N0200001N1-00471-00541100221ADDGA1001+999999999GF100991001001999999001001MD1310041+9999REMSYN054AAXX  25214 02584 42998 03201 11047 21054 40022 53004;
0122025840999992000122600004+58400+019200FM-12+001299999V0203201N000512200019N0200001N1-00471-00541100201ADDGA1001+999999999GF100991001001999999001001MD1810021+9999REMSYN054AAXX  26004 02584 42998 03201 11047 21054 40020 58002;
0122025840999992000122603004+58400+019200FM-12+001299999V0203601N000512200019N0200001N1-00561-00631100201ADDGA1001+999999999GF100991001001999999001001MD1410001+9999REMSYN054AAXX  26034 02584 42998 03601 11056 21063 40020 54000;
0216025840999992000122606004+58400+019200FM-12+001299999V0200701N000510081019N0200001N1-00501-00571100211ADDAA199000091AJ100039199999999GA1051+008109059GF105991051051008001001001IA1239KA1120N-00641MD1810011+9999REMSYN082AAXX  26064 02584 32598 50701 11050 21057 40021 58001 85500 333 21064 47003 85627;EQDQ01  00002PRCP99
0138025840999992000122609004+58400+019200FM-12+001299999V0202001N000510081019N0200001N1-00591-00641100301ADDGA1051+008109059GF105991051051008001001001MD1310101+9999REMSYN070AAXX  26094 02584 42598 52001 11059 21064 40030 53010 85500 333 85627;
0138025840999992000122612004+58400+019200FM-12+001299999V0202301N000512200019N0200001N1-00321-00371100251ADDGA1041+009909099GF104991041031002501001001MD1810051+9999REMSYN070AAXX  26124 02584 42398 42301 11032 21037 40025 58005 84300 333 84933;
0138025840999992000122615004+58400+019200FM-12+001299999V0201801N001512200019N0200001N1+00121-00361100241ADDGA1031+008109099GF103991031031008001001001MD1710011+9999REMSYN070AAXX  26154 02584 42598 31803 10012 21036 40024 57001 83300 333 83927;
0187025840999992000122618004+58400+019200FM-12+001299999V0201801N002612200019N0200001N1+00151-00531100281ADDAA199000091GA1021+008109099GF102991021031008001001001KA1120M+00161MD1310041+9999REMSYN076AAXX  26184 02584 32598 21805 10015 21053 40028 53004 82300 333 10016 82927;EQDQ01  00002PRCP99
0138025840999992000122621004+58400+019200FM-12+001299999V0201601N001512200019N0200001N1+00111-00571100361ADDGA1021+009009099GF102991021031008001001001MD1310081+9999REMSYN070AAXX  26214 02584 42598 21603 10011 21057 40036 53008 82300 333 82930;
0138025840999992000122700004+58400+019200FM-12+001299999V0201801N001512200019N0200001N1+00051-00511100401ADDGA1021+006609099GF102991021031008001001001MD1110041+9999REMSYN070AAXX  27004 02584 42598 21803 10005 21051 40040 51004 82300 333 82922;
0138025840999992000122703004+58400+019200FM-12+001299999V0201401N000510060019N0200001N1-00051-00571100401ADDGA1081+006009059GF108991081051008001999999MD1010001+9999REMSYN070AAXX  27034 02584 42598 81401 11005 21057 40040 50000 885// 333 88620;
0216025840999992000122706004+58400+019200FM-12+001299999V0201601N001510069019N0200001N1+00021-00521100351ADDAA199000091AJ100039199999999GA1071+006909059GF107991071051008001999999IA1239KA1120N-00061MD1710051+9999REMSYN082AAXX  27064 02584 32598 71603 10002 21052 40035 57005 875// 333 21006 47003 87623;EQDQ01  00002PRCP99
0138025840999992000122709004+58400+019200FM-12+001299999V0201101N001510057019N0200001N1+00051-00471100331ADDGA1051+005709059GF106991051051004501031001MD1710021+9999REMSYN070AAXX  27094 02584 42498 61103 10005 21047 40033 57002 85530 333 85619;
0138025840999992000122712004+58400+019200FM-12+001299999V0201401N003110054019N0200001N1+00031-00471100231ADDGA1071+005409059GF107991071051004501999999MD1810101+9999REMSYN070AAXX  27124 02584 42498 71406 10003 21047 40023 58010 875// 333 87618;
0166025840999992000122715004+58400+019200FM-12+001299999V0201401N001510027019N0040001N1-00061-00251100211ADDAY181031AY221031GA1081+002709099GF108991081031002501999999MD1610021+9999MW1851REMSYN076AAXX  27154 02584 41396 81403 11006 21025 40021 56002 78582 883// 333 88909;
0202025840999992000122718004+58400+019200FM-12+001299999V0201401N001010036019N0040001N1-00071-00211100181ADDAA112001091AY181061AY221061GA1081+003609099GF108991081031004501999999KA1120M+00051MD1710031+9999MW1851REMSYN088AAXX  27184 02584 11496 81402 11007 21021 40018 57003 60012 78582 883// 333 10005 88912;
0138025840999992000122721004+58400+019200FM-12+001299999V0202001N000510039019N0200001N1-00031-00191100211ADDGA1081+003909069GF108991081061004501999999MD1310031+9999REMSYN070AAXX  27214 02584 42498 82001 11003 21019 40021 53003 886// 333 88713;
0138025840999992000122800004+58400+019200FM-12+001299999V0201101N000510057019N0200001N1-00021-00121100181ADDGA1081+005709059GF108991081051004501999999MD1810031+9999REMSYN070AAXX  28004 02584 42498 81101 11002 21012 40018 58003 885// 333 88619;
0166025840999992000122803004+58400+019200FM-12+001299999V0201401N000510057019N0040001N1+00021-00081100181ADDAY121031AY221031GA1081+005709059GF108991081051004501999999MD1410001+9999MW1101REMSYN076AAXX  28034 02584 41496 81401 10002 21008 40018 54000 71022 885// 333 88619;
0231025840999992000122806004+58400+019200FM-12+001299999V0201101N001010039019N0040001N1+00041-00031100101ADDAA112000891AJ100049199999999AY121061AY221061GA1081+003909069GF108991081071004501999999IA1279KA1120N-00071MD1810101+9999MW1711REMSYN094AAXX  28064 02584 11496 81102 10004 21003 40010 58010 69982 77122 887// 333 21007 43004 88713;
0172025840999992000122809004+58400+019200FM-12+001299999V0201401N001510024019N0040001N1+00081+00021100081ADDAY171031AY271031GA1051+002409079GF108991051071004501021999MD1610021+9999MW1711REMSYN082AAXX  28094 02584 41496 81403 10008 20002 40008 56002 77177 8572/ 333 85708 88598;
0172025840999992000122812004+58400+019200FM-12+001299999V0201401N001010018019N0040001N1+00181+00121099971ADDAY171061AY271061GA1061+001809079GF108991061071001501021999MD1810111+9999MW1611REMSYN082AAXX  28124 02584 41296 81402 10018 20012 49997 58011 76177 8672/ 333 86706 88598;
0172025840999992000122815004+58400+019200FM-12+001299999V0201401N001010051019N0040001N1+00201+00141099901ADDAY161031AY261031GA1061+005109079GF108991061071004501021999MD1710071+9999MW1101REMSYN082AAXX  28154 02584 41496 81402 10020 20014 49990 57007 71066 8672/ 333 86717 88598;
0208025840999992000122818004+58400+019200FM-12+001299999V0201101N002110024019N0040001N1+00131+00031099751ADDAA112001091AY161061AY261061GA1061+002409079GF108991061071002501021999KA1120M+00201MD1610151+9999MW1101REMSYN094AAXX  28184 02584 11396 81104 10013 20003 49975 56015 60012 71066 8672/ 333 10020 86708 88598;
0166025840999992000122821004+58400+019200FM-12+001299999V0200901N002110021019N0040001N1+00051-00081099601ADDAY121031AY221031GA1081+002109069GF108991081061002501999999MD1810151+9999MW1101REMSYN076AAXX  28214 02584 41396 80904 10005 21008 49960 58015 71022 886// 333 88707;
0166025840999992000122900004+58400+019200FM-12+001299999V0201101N001510012019N0040001N1+00031-00051099381ADDAY121061AY221061GA1081+001209069GF108991081061001501999999MD1810221+9999MW1101REMSYN076AAXX  29004 02584 41296 81103 10003 21005 49938 58022 71022 886// 333 88704;
0172025840999992000122903004+58400+019200FM-12+001299999V0200901N003110009019N0040001N1+00151+00081099091ADDAY121031AY221031GA1071+000909079GF108991071071001501021999MD1810291+9999MW1611REMSYN082AAXX  29034 02584 41296 80906 10015 20008 49909 58029 76122 8772/ 333 87703 88598;
0237025840999992000122906004+58400+019200FM-12+001299999V0201101N003610006019N0020001N1+00061-00011098791ADDAA112004191AJ100039199999999AY161061AY221061GA1071+000609079GF108991071071000751021999IA1279KA1120N+00021MD1710301+9999MW1731REMSYN100AAXX  29064 02584 11195 81107 10006 21001 49879 57030 60042 77362 8772/ 333 20002 43003 87702 88598;
0172025840999992000122909004+58400+019200FM-12+001299999V0202001N001510027019N0040001N1+00091+00021098671ADDAY171031AY271031GA1061+002709079GF108991061071002501021999MD1610121+9999MW1701REMSYN082AAXX  29094 02584 41396 82003 10009 20002 49867 56012 77077 8672/ 333 86709 88598;
0166025840999992000122912004+58400+019200FM-12+001299999V0202501N003610048019N0100001N1+00341+00161098741ADDAY171061AY271061GA1071+004809099GF107991071031004501999999MD1310071+9999MW1021REMSYN076AAXX  29124 02584 41497 72507 10034 20016 49874 53007 70277 873// 333 87916;
0138025840999992000122915004+58400+019200FM-12+001299999V0202501N005112200019N0200001N1+00321-00221099011ADDGA1031+006909099GF103991031031008001001001MD1210271+9999REMSYN070AAXX  29154 02584 42598 32510 10032 21022 49901 52027 83300 333 83923;
0148025840999992000122918004+58400+019200FM-12+001299999V0202501N004610120019N0200001N1+00381-00311099191ADDAA112007191GF108991999091012501031091MD1110181+9999REMSYN066AAXX  29184 02584 12698 82509 10038 21031 49919 51018 60072 88939;EQDQ01+000082SCOTLC
0138025840999992000122921004+58400+019200FM-12+001299999V0202501N004610075019N0200001N1+00401-00201099391ADDGA1081+007509099GF108991081031008001999999MD1210201+9999REMSYN070AAXX  29214 02584 42598 82509 10040 21020 49939 52020 883// 333 88925;
0144025840999992000123000004+58400+019200FM-12+001299999V0202301N004110027019N0100001N1+00341+00131099581ADDGA1051+002709079GF108991081031002501999999MD1210191+9999REMSYN076AAXX  30004 02584 42397 82308 10034 20013 49958 52019 883// 333 85709 85995;
0157025840999992000123003004+58400+019200FM-12+001299999V0202001N004110180019N0100001N1+00351+00141099671ADDGA1051+018009059GF108991051031017501999001MD1110091+9999REMSYN070AAXX  30034 02584 42797 82008 10035 20014 49967 51009 85300 333 85656;EQDQ01+000002SCOMCG
0232025840999992000123006004+58400+019200FM-12+001299999V0202001N003612200019N0200001N1+00361-00241099821ADDAA199000091AJ199992999999999GA1031+014409059GF103991031031012501001001IA1259KA1120N+00331MD1210151+9999REMSYN082AAXX  30064 02584 32698 32007 10036 21024 49982 52015 83300 333 20033 41998 83648;EQDQ01  00002PRCP99Q02  09972SNDP  
0138025840999992000123009004+58400+019200FM-12+001299999V0202001N002610147019N0200001N1+00471-00221100041ADDGA1081+014709059GF108991081051012501999999MD1310221+9999REMSYN070AAXX  30094 02584 42698 82005 10047 21022 40004 53022 885// 333 88649;
0144025840999992000123012004+58400+019200FM-12+001299999V0202001N003110300019N0200001N1+00421-00171100161ADDGA1041+010809069GF108991041051012501011999MD1110121+9999REMSYN076AAXX  30124 02584 42698 82006 10042 21017 40016 51012 8451/ 333 84636 88498;
0138025840999992000123015004+58400+019200FM-12+001299999V0201801N002119999999N0200001N1+00391-00211100261ADDGA1081+999999079GF108991081001999999071999MD1210101+9999REMSYN070AAXX  30154 02584 42998 81804 10039 21021 40026 52010 8807/ 333 88399;
0187025840999992000123018004+58400+019200FM-12+001299999V0201601N001010084019N0200001N1+00271-00191100361ADDAA199000091GA1071+008409059GF107991071051008001999999KA1120M+00471MD1210101+9999REMSYN076AAXX  30184 02584 32598 71602 10027 21019 40036 52010 875// 333 10047 87628;EQDQ01  00002PRCP99
0138025840999992000123021004+58400+019200FM-12+001299999V0201101N001010066019N0200001N1+00051-00111100401ADDGA1071+006609059GF107991071051008001999999MD1110041+9999REMSYN070AAXX  30214 02584 42598 71102 10005 21011 40040 51004 875// 333 87622;
0138025840999992000123100004+58400+019200FM-12+001299999V0201101N001010069019N0200001N1+00221-00241100361ADDGA1081+006909059GF108991081051008001999999MD1810041+9999REMSYN070AAXX  31004 02584 42598 81102 10022 21024 40036 58004 885// 333 88623;
0172025840999992000123103004+58400+019200FM-12+001299999V0200501N003110018019N0040001N1+00221-00021100191ADDAY121031AY221031GA1051+001809079GF108991051071002501021999MD1710171+9999MW1611REMSYN082AAXX  31034 02584 41396 80506 10022 21002 40019 57017 76122 8572/ 333 85706 88598;
0237025840999992000123106004+58400+019200FM-12+001299999V0200501N004610006019N0020001N1+00041-00031100101ADDAA112007991AJ100039199999999AY161061AY221061GA1061+000609079GF108991061071000751021999IA1279KA1120N+00041MD1610091+9999MW1731REMSYN100AAXX  31064 02584 11195 80509 10004 21003 40010 56009 60082 77362 8672/ 333 20004 43003 86702 88598;
0172025840999992000123109004+58400+019200FM-12+001299999V0200501N003610006019N0020001N1+00101+00031100031ADDAY171031AY271031GA1061+000609079GF108991061071000751021999MD1710071+9999MW1731REMSYN082AAXX  31094 02584 41195 80507 10010 20003 40003 57007 77377 8672/ 333 86702 88598;
0172025840999992000123112004+58400+019200FM-12+001299999V0203601N003610015019N0040001N1+00201+00121100011ADDAY171061AY261061GA1061+001509079GF108991061071001501021999MD1610021+9999MW1691REMSYN082AAXX  31124 02584 41296 83607 10020 20012 40001 56002 76976 8672/ 333 86705 88597;
0172025840999992000123115004+58400+019200FM-12+001299999V0203601N002110024019N0040001N1+00201+00121100151ADDAY171031AY271031GA1061+002409079GF108991061071002501021999MD1310141+9999MW1611REMSYN082AAXX  31154 02584 41396 83604 10020 20012 40015 53014 76177 8672/ 333 86708 88597;
0208025840999992000123118004+58400+019200FM-12+001299999V0200201N002610300019N0040001N1+00201+00101100241ADDAA112013091AY171061AY261061GA1031+003009079GF105991031071004501031001KA1120M+00201MD1110091+9999MW1011REMSYN094AAXX  31184 02584 11496 50205 10020 20010 40024 51009 60132 70176 83730 333 10020 83710 83397;
0138025840999992000123121004+58400+019200FM-12+001299999V0200201N003110045019N0100001N1+00371+00171100421ADDGA1081+004509059GF108991081051004501999999MD1310181+9999REMSYN070AAXX  31214 02584 42497 80206 10037 20017 40042 53018 885// 333 88615;
