0187264220999992000010100004+56970+024050FM-12+0007UMRR V0202901N002010111019N0040001N1-00131-00211102061ADDAY181061AY221061GA1081+011109099GF108991081091012501999999MA1999999101731MD1210091+9999MW1101REMSYN082AAXX  01001 26422 41696 82902 11013 21021 30173 40206 52009 71082 889// 333 88937;
0138264220999992000010103004+56970+024050FM-12+0007UMRR V0202701N003010138019N0100001N1-00161-00301102131ADDGA1081+013809059GF108991081051012501999999MD1210071+9999REMSYN070AAXX  01031 26422 /2697 82703 11016 21030 40213 52007 885// 333 88646;
0203264220999992000010106004+56970+024050FM-12+0007UMRR V0202701N002010123019N0100001N1-00251-00441102181ADDAA112002091AJ100279199999999GA1081+012309059GF108991081051012501999999IA1239KA1120N-00251MD1210051+9999REMSYN088AAXX  01061 26422 12697 82702 11025 21044 40218 52005 60022 885// 333 21025 47027 88641;
0138264220999992000010109004+56970+024050FM-12+0007UMRR V0202301N002010132019N0100001N1-00341-00511102261ADDGA1051+013209059GF105991051051012501001001MD1210071+9999REMSYN070AAXX  01091 26422 42697 52302 11034 21051 40226 52007 85500 333 85644;
0133264220999992000010112004+56970+024050FM-12+0007UMRR V0202001N002012200019N0200001N1-00411-00711102241ADDGF104991021051012501041001MA1999999101901MD1810021+9999REMSYN066AAXX  01121 26422 42698 42002 11041 21071 30190 40224 58002 82540;
0138264220999992000010115004+56970+024050FM-12+0007UMRR V0201601N002010072019N0100001N1-00411-00671102251ADDGA1081+007209059GF108991081051008001999999MD1010011+9999REMSYN070AAXX  01151 26422 42597 81602 11041 21067 40225 50001 885// 333 88624;
0202264220999992000010118004+56970+024050FM-12+0007UMRR V0201701N004010021019N0040001N1-00381-00461102241ADDAA112000791AY181061AY211061GA1061+002109069GF108991081091002501999999KA1120M-00251MD1610011+9999MW1861REMSYN088AAXX  01181 26422 11396 81704 11038 21046 40224 56001 69902 78681 889// 333 11025 86707;
0166264220999992000010121004+56970+024050FM-12+0007UMRR V0201501N004010054019N0040001N1-00371-00481102241ADDAY181031AY221031GA1081+005409099GF108991081091004501999999MD1410001+9999MW1861REMSYN076AAXX  01211 26422 41496 81504 11037 21048 40224 54000 78682 889// 333 88918;
0187264220999992000010200004+56970+024050FM-12+0007UMRR V0201601N003010021019N0040001N1-00321-00391102271ADDAY181061AY221061GA1081+002109099GF108991081091002501999999MA1999999101931MD1310031+9999MW1861REMSYN082AAXX  02001 26422 41396 81603 11032 21039 30193 40227 53003 78682 889// 333 88907;
0166264220999992000010203004+56970+024050FM-12+0007UMRR V0201801N002010009019N0040001N1-00311-00351102311ADDAY181031AY221031GA1071+000909069GF108991081091001501999999MD1210041+9999MW1851REMSYN076AAXX  02031 26422 /1296 81802 11031 21035 40231 52004 78582 889// 333 87703;
0231264220999992000010206004+56970+024050FM-12+0007UMRR V0201701N002010006019N0020001N1-00261-00321102321ADDAA112003091AJ100339199999999AY181061AY221061GA1071+000609069GF108991081091000751999999IA1239KA1120N-00381MD1210021+9999MW1261REMSYN094AAXX  02061 26422 11195 81702 11026 21032 40232 52002 60032 72682 889// 333 21038 47033 87702;
0150264220999992000010209004+56970+024050FM-12+0007UMRR V0202001N001010003019N0002001N1-00191-00211102391ADDAY141031AY221031GA1091+999999999GF109991091999999999999999MD1210071+9999MW1471REMSYN060AAXX  02091 26422 41/92 92001 11019 21021 40239 52007 74742;
0187264220999992000010212004+56970+024050FM-12+0007UMRR V0201901N002010021019N0040001N1-00021-00051102281ADDAY141061AY221061GA1041+002109069GF106991061051002501031001MA1999999101951MD1810111+9999MW1101REMSYN082AAXX  02121 26422 41396 61902 11002 21005 30195 40228 58011 71042 86530 333 84707;
0166264220999992000010215004+56970+024050FM-12+0007UMRR V0201901N004010009019N0020001N1-00181-00201102131ADDAY121031AY221031GA1081+000909069GF108991081061000751999999MD1710151+9999MW1101REMSYN076AAXX  02151 26422 41195 81904 11018 21020 40213 57015 71022 886// 333 88703;
0219264220999992000010218004+56970+024050FM-12+0007UMRR V0201801N005010015019N0020001N1-00271-00341101831ADDAA106000091AY121061AY221061GA1081+001509079GF108991081061001501999999MD1710301+9999MW1101OA140101001REMSYN088AAXX  02181 26422 31295 81805 11027 21034 40183 57030 71022 886// 333 88705 91010 91110;EQDQ01  00002PRCP06
0172264220999992000010221004+56970+024050FM-12+0007UMRR V0201801N005010015019N0020001N1-00261-00321101431ADDAY121031AY221031GA1081+001509079GF108991081061001501999999MD1710401+9999MW1101REMSYN082AAXX  02211 26422 41295 81805 11026 21032 40143 57040 71022 886// 333 88705 91110;
0193264220999992000010300004+56970+024050FM-12+0007UMRR V0202001N003010009019N0020001N1-00151-00171101021ADDAY171061AY221061GA1081+000909059GF108991081001001501021999MA1999999100691MD1710411+9999MW1711REMSYN088AAXX  03001 26422 41295 82003 11015 21017 30069 40102 57041 77172 8802/ 333 88503 91110;
0166264220999992000010303004+56970+024050FM-12+0007UMRR V0202601N003010009019N0020001N1+00121+00091100881ADDAY171031AY221031GA1081+000909069GF108991081061001501999999MD1710141+9999MW1101REMSYN076AAXX  03031 26422 /1295 82603 10012 20009 40088 57014 71072 886// 333 88703;
0231264220999992000010306004+56970+024050FM-12+0007UMRR V0202901N004010084019N0040001N1+00231+00151100981ADDAA112000791AJ100339199999999AY171061AY221061GA1081+008409059GF108991081051008001999999IA1279KA1120N-00271MD1310111+9999MW1101REMSYN094AAXX  03061 26422 11596 82904 10023 20015 40098 53011 69902 71072 885// 333 21027 43033 88628;
0138264220999992000010309004+56970+024050FM-12+0007UMRR V0203101N005010066019N0100001N1+00251+00121101171ADDGA1081+006609059GF108991081051008001999999MD1210211+9999REMSYN070AAXX  03091 26422 42597 83105 10025 20012 40117 52021 885// 333 88622;
0133264220999992000010312004+56970+024050FM-12+0007UMRR V0202901N004012200019N0100001N1+00281+00101101241ADDGF102991001001999999001011MA1999999100921MD1210071+9999REMSYN066AAXX  03121 26422 42997 22904 10028 20010 30092 40124 52007 80001;
0122264220999992000010315004+56970+024050FM-12+0007UMRR V0202501N003012200019N0100001N1+00031-00031101251ADDGA1001+999999999GF100991001001999999001001MD1410001+9999REMSYN054AAXX  03151 26422 42997 02503 10003 21003 40125 54000;
0187264220999992000010318004+56970+024050FM-12+0007UMRR V0201901N003010030019N0100001N1+00071-00011101181ADDAA106000091GA1081+003009059GF108991081051004501999999KA1120M+00281MD1810071+9999REMSYN076AAXX  03181 26422 32497 81903 10007 21001 40118 58007 885// 333 10028 88610;EQDQ01  00002PRCP06
0138264220999992000010320004+56970+024050FM-12+0007UMRR V0202001N005010021019N0100001N1+00091+00011100971ADDGA1081+002109069GF108991081061002501999999MD1710211+9999REMSYN070AAXX  03201 26422 42397 82005 10009 20001 40097 57021 886// 333 88707;
0138264220999992000010321004+56970+024050FM-12+0007UMRR V0202001N005010021019N0100001N1+00091+00011100971ADDGA1081+002109069GF108991081061002501999999MD1710211+9999REMSYN070AAXX  03211 26422 42397 82005 10009 20001 40097 57021 886// 333 88707;
0187264220999992000010400004+56970+024050FM-12+0007UMRR V0202101N005010021019N0040001N1+00161+00131100711ADDAY161061AY221061GA1081+002109069GF108991081061002501999999MA1999999100381MD1710261+9999MW1101REMSYN082AAXX  04001 26422 41396 82105 10016 20013 30038 40071 57026 71062 886// 333 88707;
0166264220999992000010403004+56970+024050FM-12+0007UMRR V0202201N003010006019N0020001N1+00231+00211100591ADDAY161031AY221031GA1081+000609069GF108991081061000751999999MD1710111+9999MW1211REMSYN076AAXX  04031 26422 /1195 82203 10023 20021 40059 57011 72162 886// 333 88702;
0231264220999992000010406004+56970+024050FM-12+0007UMRR V0202001N003010021019N0020001N1+00241+00221100441ADDAA112001091AJ100209199999999AY161061AY221061GA1051+002109069GF108991081061002501999999IA1279KA1120N+00051MD1710151+9999MW1101REMSYN094AAXX  04061 26422 11395 82003 10024 20022 40044 57015 60012 71062 886// 333 20005 43020 85707;
0166264220999992000010409004+56970+024050FM-12+0007UMRR V0202101N003010021019N0040001N1+00301+00251100331ADDAY121031AY221031GA1061+002109069GF108991081061002501999999MD1710111+9999MW1101REMSYN076AAXX  04091 26422 41396 82103 10030 20025 40033 57011 71022 886// 333 86707;
0187264220999992000010412004+56970+024050FM-12+0007UMRR V0202201N004010039019N0100001N1+00391+00211100261ADDAY181061AY221061GA1081+003909099GF108991081091004501999999MA1999999099941MD1610071+9999MW1801REMSYN082AAXX  04121 26422 41497 82204 10039 20021 39994 40026 56007 78082 889// 333 88913;
0189264220999992000010415004+56970+024050FM-12+0007UMRR V0202401N005010093019N0100001N1+00391+00021100241ADDAY181031AY221031GA1061+009309099GF107991061091008001031001MD1510021+9999MW1021OA140101101REMSYN088AAXX  04151 26422 41597 72405 10039 20002 40024 55002 70282 86930 333 86931 91011 91111;
0208264220999992000010418004+56970+024050FM-12+0007UMRR V0202601N004010093019N0100001N1+00371-00031100331ADDAA112000191AY181061AY221061GA1071+009309069GF107991071051008001001001KA1120M+00421MD1210091+9999MW1021REMSYN094AAXX  04181 26422 11597 72604 10037 21003 40033 52009 69912 70282 87500 333 10042 87631 91113;
0161264220999992000010421004+56970+024050FM-12+0007UMRR V0202401N004010084019N0100001N1+00321-00061100451ADDGA1051+008409069GF105991051051008001001001MD1210121+9999OA140101001REMSYN082AAXX  04211 26422 42597 52404 10032 21006 40045 52012 85500 333 85628 91010 91112;
0182264220999992000010500004+56970+024050FM-12+0007UMRR V0202401N005010066019N0100001N1+00251-00021100491ADDGA1051+006609069GF105991051051008001001001MA1999999100171MD1210041+9999OA140101001REMSYN088AAXX  05001 26422 42597 52405 10025 21002 30017 40049 52004 85500 333 85622 91010 91110;
0112264220999992000010501004+56970+024050FM-12+0007UMRR V0202401N002019999999N9999999N1+00111+00001100711ADDGF107991061999999999021011MD1210121+9999REMSYN060AAXX  05011 26422 4299/ 72402 10011 20000 40071 52012 86/21;
0191264220999992000010503004+56970+024050FM-12+0007UMRR V0202401N005010069019N0100001N1+00271-00121100541ADDAA106000091GA1051+006909069GF105991051051008001001001MD1210051+9999OA140101101REMSYN082AAXX  05031 26422 32597 52405 10027 21012 40054 52005 85500 333 85623 91011 91111;EQDQ01  00002PRCP06
0200264220999992000010506004+56970+024050FM-12+0007UMRR V0202501N003012200019N0100001N1+00101-00071100591ADDAA106000091AJ100149199999999GF102991021001999999041001IA1279KA1120N+00101MD1310041+9999REMSYN082AAXX  05061 26422 32997 22503 10010 21007 40059 53004 82040 333 20010 43014 91111;EQDQ01  00002PRCP06
0112264220999992000010509004+56970+024050FM-12+0007UMRR V0202401N002019999999N0100001N1+00111+00001100711ADDGF107991061001999999021011MD1210121+9999REMSYN060AAXX  05091 26422 42997 72402 10011 20000 40071 52012 86021;
0159264220999992000010512004+56970+024050FM-12+0007UMRR V0202301N001010060019N0100001N1+00211+00051100851ADDGA1061+006009059GF108991061051008001031999MA1999999100531MD1210151+9999REMSYN076AAXX  05121 26422 42597 82301 10021 20005 30053 40085 52015 8653/ 333 86620;
0112264220999992000010515004+56970+024050FM-12+0007UMRR V0202701N002019999999N0100001N1+00031-00051101101ADDGF105991021001999999071011MD1210241+9999REMSYN060AAXX  05151 26422 42997 52702 10003 21005 40110 52024 82071;
0150264220999992000010521004+56970+024050FM-12+0007UMRR V0202401N003012200019N0040001N1-00241-00271101611ADDAY101031AY201031GA1001+999999999GF100991001001999999001001MD1210251+9999MW1101REMSYN060AAXX  05211 26422 41996 02403 11024 21027 40161 52025 71000;
0202264220999992000010603004+56970+024050FM-12+0007UMRR V0202301N002010039019N0040001N1-00151-00201102021ADDAA106000091AY121031AY221031GA1081+003909069GF108991081051004501999999MD1210211+9999MW1101REMSYN082AAXX  06031 26422 31496 82302 11015 21020 40202 52021 71022 885// 333 88613 93598;EQDQ01  00002PRCP06
0200264220999992000010606004+56970+024050FM-12+0007UMRR V0201901N002010021019N0100001N1-00101-00141102071ADDAA106000091AJ100149199999999GF108991081061002501999999IA1279KA1120N-00301MD1210051+9999REMSYN082AAXX  06061 26422 32397 81902 11010 21014 40207 52005 886// 333 21030 43014 93501;EQDQ01  00002PRCP06
0144264220999992000010609004+56970+024050FM-12+0007UMRR V0201801N004010036019N0100001N1+00031-00081102111ADDGA1061+003609069GF108991061051004501071999MD1210041+9999REMSYN076AAXX  06091 26422 42497 81804 10003 21008 40211 52004 8657/ 333 86612 93501;
0165264220999992000010612004+56970+024050FM-12+0007UMRR V0202001N004010030019N0100001N1+00131-00041102071ADDGA1081+003009069GF108991081051004501999999MA1999999101741MD1810041+9999REMSYN082AAXX  06121 26422 42497 82004 10013 21004 30174 40207 58004 885// 333 88610 93501;
0161264220999992000010615004+56970+024050FM-12+0007UMRR V0201801N005010045019N0100001N1+00151-00071102011ADDGA1081+004509069GF108991081051004501999999MD1710061+9999OA140101001REMSYN082AAXX  06151 26422 42497 81805 10015 21007 40201 57006 885// 333 88615 91010 91110;
0139264220999992000010621004+56970+024050FM-12+0007UMRR V0201901N007012200019N0100001N1+00011-00231101681ADDGF103991031051004501001001MD1710161+9999OA140101401REMSYN076AAXX  06211 26422 42497 31907 10001 21023 40168 57016 83500 333 91014 91114;
0182264220999992000010700004+56970+024050FM-12+0007UMRR V0201801N007012200019N0100001N1-00091-00301101551ADDGA1041+004809079GF104991041061004501001001MA1999999101221MD1710131+9999OA140101501REMSYN088AAXX  07001 26422 42497 41807 11009 21030 30122 40155 57013 84600 333 84716 91015 91115;
0174264220999992000010703004+56970+024050FM-12+0007UMRR V0201901N007010060019N0100001N1-00101-00331101381ADDAA106000091GA1081+006009069GF108991081051008001999999MD1710171+9999REMSYN076AAXX  07031 26422 32597 81907 11010 21033 40138 57017 885// 333 88620 91014;EQDQ01  00002PRCP06
0254264220999992000010706004+56970+024050FM-12+0007UMRR V0202001N006010009019N0020001N1+00001-00181101271ADDAA112000791AJ100149199999999AY171061AY221061GA1081+000909059GF108991081001001501021999IA1279KA1120N-00101MD1710111+9999MW1711OA140101201REMSYN106AAXX  07061 26422 11295 82006 10000 21018 40127 57011 69902 77172 8802/ 333 21010 43014 88503 91012 91115;
0189264220999992000010709004+56970+024050FM-12+0007UMRR V0202001N006010024019N0040001N1+00051-00011101391ADDAY171031AY221031GA1081+002409059GF108991081001002501021999MD1310121+9999MW1711OA140101001REMSYN088AAXX  07091 26422 41396 82006 10005 21001 40139 53012 77172 8802/ 333 88508 91010 91112;
0193264220999992000010712004+56970+024050FM-12+0007UMRR V0202201N004010051019N0040001N1+00211+00091101481ADDAY171061AY221061GA1051+005109059GF105991051051004501001001MA1999999101151MD1210091+9999MW1101REMSYN088AAXX  07121 26422 41496 52204 10021 20009 30115 40148 52009 71072 85500 333 85517 91110;
0122264220999992000010715004+56970+024050FM-12+0007UMRR V0202301N004012200019N0100001N1+00101+00021101631ADDGA1001+999999999GF100991001001999999001001MD1310151+9999REMSYN054AAXX  07151 26422 42997 02304 10010 20002 40163 53015;
0168264220999992000010718004+56970+024050FM-12+0007UMRR V0201901N003012200019N0100001N1-00091-00121101711ADDAA112002091GA1001+999999999GF100991001001999999001001KA1120M+00211MD1210081+9999REMSYN076AAXX  07181 26422 12997 01903 11009 21012 40171 52008 60022 333 10021 93500;
0132264220999992000010721004+56970+024050FM-12+0007UMRR V0201901N005012200019N0100001N1-00081-00121101691ADDGA1001+999999999GF100991001001999999001001MD1810021+9999REMSYN064AAXX  07211 26422 42997 01905 11008 21012 40169 58002 333 93595;
0165264220999992000010800004+56970+024050FM-12+0007UMRR V0201801N006010036019N0100001N1+00021-00011101711ADDGA1061+003609059GF106991061051004501001001MA1999999101381MD1110021+9999REMSYN082AAXX  08001 26422 42497 61806 10002 21001 30138 40171 51002 86500 333 86512 93596;
0174264220999992000010803004+56970+024050FM-12+0007UMRR V0202001N004010030019N0100001N1+00191+00081101591ADDAA106000091GA1081+003009069GF108991081051004501999999MD1810111+9999REMSYN076AAXX  08031 26422 32497 82004 10019 20008 40159 58011 885// 333 88610 93501;EQDQ01  00002PRCP06
0194264220999992000010806004+56970+024050FM-12+0007UMRR V0201901N005010021019N0100001N1+00191+00111101441ADDAA106000091AJ100149199999999GF108991081061002501999999IA1279KA1120N-00081MD1710151+9999REMSYN076AAXX  08061 26422 32397 81905 10019 20011 40144 57015 886// 333 21008 43014;EQDQ01  00002PRCP06
0144264220999992000010809004+56970+024050FM-12+0007UMRR V0202101N005010018019N0100001N1+00231+00071101481ADDGA1081+001809079GF108991081061001501999999MD1310031+9999REMSYN076AAXX  08091 26422 42297 82105 10023 20007 40148 53003 886// 333 88706 91111;
0165264220999992000010812004+56970+024050FM-12+0007UMRR V0201901N005010021019N0100001N1+00281+00151101381ADDGA1081+002109079GF108991081061002501999999MA1999999101061MD1710081+9999REMSYN082AAXX  08121 26422 42397 81905 10028 20015 30106 40138 57008 886// 333 88707 91111;
0138264220999992000010815004+56970+024050FM-12+0007UMRR V0201801N004010033019N0100001N1+00281+00151101331ADDGA1081+003309069GF108991081061004501999999MD1510051+9999REMSYN070AAXX  08151 26422 42497 81804 10028 20015 40133 55005 886// 333 88711;
0210264220999992000010818004+56970+024050FM-12+0007UMRR V0201801N006010021019N0100001N1+00301+00171101321ADDAA106000091GA1081+002109079GF108991081061002501999999KA1120M+00301MD1810011+9999OA140101001REMSYN088AAXX  08181 26422 32397 81806 10030 20017 40132 58001 886// 333 10030 88707 91010 91111;EQDQ01  00002PRCP06
0144264220999992000010821004+56970+024050FM-12+0007UMRR V0202101N005010021019N0100001N1+00271+00171101341ADDGA1081+002109079GF108991081061002501999999MD1310021+9999REMSYN076AAXX  08211 26422 42397 82105 10027 20017 40134 53002 886// 333 88707 91111;
0187264220999992000010900004+56970+024050FM-12+0007UMRR V0202001N004010009019N0040001N1+00251+00201101461ADDAY181061AY221061GA1081+000909029GF108991081001000751021999MA1999999101141MD1210121+9999MW1801REMSYN082AAXX  09001 26422 41196 82004 10025 20020 30114 40146 52012 78082 8802/ 333 88503;
0140264220999992000010903004+56970+024050FM-12+0007UMRR V0202001N003012200019N0100001N1+00271+00141101541ADDAY181031AY211031GF103991031061004501001001MD1210081+9999MW1011REMSYN066AAXX  09031 26422 /1497 32003 10027 20014 40154 52008 70181 83600;
0112264220999992000010909004+56970+024050FM-12+0007UMRR V0202001N003012200019N0100001N1+00191+00081101811ADDGF104991041001999999031011MD1210171+9999REMSYN060AAXX  09091 26422 42997 42003 10019 20008 40181 52017 84031;
0159264220999992000010912004+56970+024050FM-12+0007UMRR V0201801N003010057019N0100001N1+00251+00151101881ADDGA1081+005709059GF108991081041004501999999MA1999999101561MD1210071+9999REMSYN076AAXX  09121 26422 42497 81803 10025 20015 30156 40188 52007 884// 333 88619;
0166264220999992000010915004+56970+024050FM-12+0007UMRR V0201901N002010078019N0040001N1+00251+00171101921ADDAY121031AY221031GA1081+007809059GF108991081041008001999999MD1310041+9999MW1101REMSYN076AAXX  09151 26422 41596 81902 10025 20017 40192 53004 71022 884// 333 88626;
0187264220999992000010918004+56970+024050FM-12+0007UMRR V0201901N002010096019N0100001N1+00181+00131101981ADDAA106000091GA1081+009609059GF108991081041008001999999KA1120M+00271MD1210061+9999REMSYN076AAXX  09181 26422 32597 81902 10018 20013 40198 52006 884// 333 10027 88632;EQDQ01  00002PRCP06
0166264220999992000010921004+56970+024050FM-12+0007UMRR V0202201N003010039019N0040001N1+00171+00121102101ADDAY121031AY221031GA1081+003909059GF108991081051004501999999MD1210111+9999MW1101REMSYN076AAXX  09211 26422 41496 82203 10017 20012 40210 52011 71022 885// 333 88613;
0159264220999992000011000004+56970+024050FM-12+0007UMRR V0202101N002010051019N0100001N1+00171+00091102151ADDGA1081+005109059GF108991081051004501999999MA1999999101821MD1210051+9999REMSYN076AAXX  10001 26422 42497 82102 10017 20009 30182 40215 52005 885// 333 88617;
0168264220999992000011003004+56970+024050FM-12+0007UMRR V0201901N002010066019N0100001N1+00181+00071102191ADDAA106000091GA1081+006609059GF108991081051008001999999MD1210041+9999REMSYN070AAXX  10031 26422 32597 81902 10018 20007 40219 52004 885// 333 88622;EQDQ01  00002PRCP06
0216264220999992000011006004+56970+024050FM-12+0007UMRR V0202001N002010096019N0100001N1+00191+00061102321ADDAA106000091AJ100089199999999GA1081+009609059GF108991081051008001999999IA1279KA1120N+00161MD1210131+9999REMSYN082AAXX  10061 26422 32597 82002 10019 20006 40232 52013 885// 333 20016 43008 88632;EQDQ01  00002PRCP06
0138264220999992000011009004+56970+024050FM-12+0007UMRR V0202401N002010069019N0100001N1+00231+00071102471ADDGA1081+006909059GF108991081051008001999999MD1210151+9999REMSYN070AAXX  10091 26422 42597 82402 10023 20007 40247 52015 885// 333 88623;
0159264220999992000011012004+56970+024050FM-12+0007UMRR V0202501N003010075019N0100001N1+00291+00021102571ADDGA1081+007509059GF108991081051008001999999MA1999999102241MD1210101+9999REMSYN076AAXX  10121 26422 42597 82503 10029 20002 30224 40257 52010 885// 333 88625;
0138264220999992000011015004+56970+024050FM-12+0007UMRR V0202601N002010078019N0100001N1+00291-00011102691ADDGA1081+007809059GF108991081051008001999999MD1210121+9999REMSYN070AAXX  10151 26422 42597 82602 10029 21001 40269 52012 885// 333 88626;
0187264220999992000011018004+56970+024050FM-12+0007UMRR V0202801N003010066019N0100001N1+00271+00001102771ADDAA106000091GA1081+006609059GF108991081051008001999999KA1120M+00311MD1210081+9999REMSYN076AAXX  10181 26422 32597 82803 10027 20000 40277 52008 885// 333 10031 88622;EQDQ01  00002PRCP06
0138264220999992000011021004+56970+024050FM-12+0007UMRR V0202401N002010060019N0100001N1+00201-00051102891ADDGA1081+006009059GF108991081051008001999999MD1210121+9999REMSYN070AAXX  10211 26422 42597 82402 10020 21005 40289 52012 885// 333 88620;
0159264220999992000011100004+56970+024050FM-12+0007UMRR V0202401N002010045019N0100001N1+00161-00061102981ADDGA1081+004509059GF108991081051004501999999MA1999999102651MD1210091+9999REMSYN076AAXX  11001 26422 42497 82402 10016 21006 30265 40298 52009 885// 333 88615;
0152264220999992000011103004+56970+024050FM-12+0007UMRR V0202101N004012200019N0100001N1-00051-00171102971ADDAA106000091GA1001+999999999GF100991001001999999001001MD1810011+9999REMSYN054AAXX  11031 26422 32997 02104 11005 21017 40297 58001;EQDQ01  00002PRCP06
0194264220999992000011106004+56970+024050FM-12+0007UMRR V0202101N004012200019N0100001N1+00041-00051102951ADDAA106000091AJ100089199999999GF108991021051008001001011IA1279KA1120N-00081MD1610021+9999REMSYN076AAXX  11061 26422 32597 82104 10004 21005 40295 56002 82501 333 21008 43008;EQDQ01  00002PRCP06
0112264220999992000011109004+56970+024050FM-12+0007UMRR V0202101N004010750019N0100001N1+00191-00031102971ADDGF108991021051008001001051MD1110021+9999REMSYN060AAXX  11091 26422 42597 82104 10019 21003 40297 51002 82505;
0159264220999992000011112004+56970+024050FM-12+0007UMRR V0202201N005010063019N0100001N1+00361-00081102951ADDGA1081+006309059GF108991081051008001999999MA1999999102621MD1810021+9999REMSYN076AAXX  11121 26422 42597 82205 10036 21008 30262 40295 58002 885// 333 88621;
0161264220999992000011115004+56970+024050FM-12+0007UMRR V0202201N006010042019N0100001N1+00311-00041102941ADDGA1081+004209069GF108991081051004501999999MD1610011+9999OA140101001REMSYN082AAXX  11151 26422 42497 82206 10031 21004 40294 56001 885// 333 88614 91010 91110;
0193264220999992000011118004+56970+024050FM-12+0007UMRR V0202201N005010039019N0100001N1+00271+00091102931ADDAA106000091GA1081+003909069GF108991081051004501999999KA1120M+00371MD1810011+9999REMSYN082AAXX  11181 26422 32497 82205 10027 20009 40293 58001 885// 333 10037 88613 91110;EQDQ01  00002PRCP06
0166264220999992000011121004+56970+024050FM-12+0007UMRR V0202301N003010030019N0100001N1+00231+00071102961ADDAY151031AY221031GA1081+003009069GF108991081061004501999999MD1310031+9999MW1021REMSYN076AAXX  11211 26422 41497 82303 10023 20007 40296 53003 70252 886// 333 88710;
0187264220999992000011200004+56970+024050FM-12+0007UMRR V0202101N003010021019N0100001N1+00231+00131102931ADDAY151061AY221061GA1081+002109069GF108991081061002501999999MA1999999102601MD1810031+9999MW1021REMSYN082AAXX  12001 26422 41397 82103 10023 20013 30260 40293 58003 70252 886// 333 88707;
0138264220999992000011203004+56970+024050FM-12+0007UMRR V0202001N004010021019N0100001N1+00221+00091102861ADDGA1081+002109069GF108991081061002501999999MD1710071+9999REMSYN070AAXX  12031 26422 /2397 82004 10022 20009 40286 57007 886// 333 88707;
0203264220999992000011206004+56970+024050FM-12+0007UMRR V0202001N005010021019N0100001N1+00191+00081102781ADDAA112000791AJ100049199999999GA1081+002109069GF108991081061002501999999IA1279KA1120N+00181MD1710081+9999REMSYN088AAXX  12061 26422 12397 82005 10019 20008 40278 57008 69902 886// 333 20018 43004 88707;
0138264220999992000011209004+56970+024050FM-12+0007UMRR V0202001N005010021019N0100001N1+00141+00001102371ADDGA1081+002109069GF108991081061002501999999MD1710081+9999REMSYN070AAXX  12091 26422 42397 82005 10014 20000 40237 57008 886// 333 88707;
0182264220999992000011212004+56970+024050FM-12+0007UMRR V0202101N005010024019N0100001N1+00251+00121102501ADDGA1081+002409079GF108991081061002501999999MA1999999102171MD1710201+9999OA140101301REMSYN088AAXX  12121 26422 42397 82105 10025 20012 30217 40250 57020 886// 333 88708 91013 91113;
0139264220999992000011215004+56970+024050FM-12+0007UMRR V0202001N006010300019N0100001N1+00351+00001102461ADDGF108991021051008001031999MD1710041+9999OA140101201REMSYN076AAXX  12151 26422 42597 82006 10035 20000 40246 57004 8253/ 333 91012 91113;
0188264220999992000011218004+56970+024050FM-12+0007UMRR V0202001N005010300019N0100001N1+00211-00101102381ADDAA106000091GF108991021051008001031999KA1120M+00351MD1710081+9999OA140101201REMSYN082AAXX  12181 26422 32597 82005 10021 21010 40238 57008 8253/ 333 10035 91012 91113;EQDQ01  00002PRCP06
0139264220999992000011221004+56970+024050FM-12+0007UMRR V0202101N005019999999N0100001N1+00191-00211102321ADDGF108991081001999999071999MD1710061+9999OA140101101REMSYN076AAXX  12211 26422 42997 82105 10019 21021 40232 57006 8807/ 333 91011 91112;
0160264220999992000011300004+56970+024050FM-12+0007UMRR V0201901N005019999999N0100001N1+00151-00201102241ADDGF108991081001999999071999MA1999999101911MD1710081+9999OA140101001REMSYN082AAXX  13001 26422 42997 81905 10015 21020 30191 40224 57008 8807/ 333 91010 91112;
0169264220999992000011303004+56970+024050FM-12+0007UMRR V0202101N005019999999N0100001N1+00091-00301102201ADDAA106000091GF108991081001999999071999MD1710041+9999OA140101001REMSYN076AAXX  13031 26422 32997 82105 10009 21030 40220 57004 8807/ 333 91010 91112;EQDQ01  00002PRCP06
0217264220999992000011306004+56970+024050FM-12+0007UMRR V0201901N006019999999N0100001N1+00011-00361102161ADDAA106000091AJ100039199999999GF108991081001999999071999IA1279KA1120N+00011MD1610041+9999OA140101001REMSYN088AAXX  13061 26422 32997 81906 10001 21036 40216 56004 8807/ 333 20001 43003 91010 91112;EQDQ01  00002PRCP06
0186264220999992000011309004+56970+024050FM-12+0007UMRR V0202001N007010042019N0040001N1-00021-00471102211ADDAY121031AY221031GF108991999051004501051999MD1310051+9999MW1101OA140101101REMSYN082AAXX  13091 26422 41496 82007 11002 21047 40221 53005 71022 8855/ 333 91011 91111;EQDQ01+000082SCOTLC
0188264220999992000011312004+56970+024050FM-12+0007UMRR V0201901N006010150019N0040001N1+00041-00391102181ADDAY121061AY221061GF108991081001017501051999MA1999999101851MD1710031+9999MW1101OA140101101REMSYN088AAXX  13121 26422 41796 81906 10004 21039 30185 40218 57003 71022 8805/ 333 91011 91112;
0167264220999992000011315004+56970+024050FM-12+0007UMRR V0202001N006019999999N0040001N1-00041-00451102151ADDAY121031AY221031GF108991081001999999051999MD1810031+9999MW1101OA140101001REMSYN082AAXX  13151 26422 41996 82006 11004 21045 40215 58003 71022 8805/ 333 91010 91111;
0181264220999992000011318004+56970+024050FM-12+0007UMRR V0201901N005012200019N0100001N1-00071-00451102211ADDAA106000091GA1001+999999999GF100991001001999999001001KA1120M+00041MD1310061+9999REMSYN070AAXX  13181 26422 32997 01905 11007 21045 40221 53006 333 10004 91110;EQDQ01  00002PRCP06
0126264220999992000011321004+56970+024050FM-12+000799999V0202101N00401220001RN0100001N1-00221-00501102301ADDGA1001+999999999GF100991001001999999001001MD1210091+9999REMSYN058    AAXX  13211 26422 42997 02104 11022 21050 40230 52009;
0163264220999992000011400004+56970+024050FM-12+000799999V0202101N00301003901RN0100001N1-00171-00411102381ADDGA1081+003909059GF108991081051004501999999MA1999999102051MD1210081+9999REMSYN080    AAXX  14001 26422 42497 82103 11017 21041 30205 40238 52008 885// 333 88613;
0146264220999992000011403004+56970+024050FM-12+000799999V0202001N00401007501RN0100001N1-00161-00401102451ADDAA199000091GF108991081051008001999999MD1210071+9999REMSYN064    AAXX  14031 26422 32597 82004 11016 21040 40245 52007 885//;EQDQ01  00002PRCP99
0220264220999992000011406004+56970+024050FM-12+000799999V0202101N00401005101RN0100001N1-00221-00441102501ADDAA199000091AJ100039199999999GA1081+005109059GF108991081051004501999999IA1279KA1120N-00231MD1210051+9999REMSYN086    AAXX  14061 26422 32497 82104 11022 21044 40250 52005 885// 333 21023 43003 88617;EQDQ01  00002PRCP99
0170264220999992000011409004+56970+024050FM-12+000799999V0201801N00301006001RN0040001N1-00191-00401102601ADDAY121031AY221031GA1081+006009059GF108991081051008001999999MD1210101+9999MW1101REMSYN080    AAXX  14091 26422 41596 81803 11019 21040 40260 52010 71022 885// 333 88620;
0191264220999992000011412004+56970+024050FM-12+000799999V0202101N00401006601RN0040001N1-00151-00351102651ADDAY121061AY221061GA1081+006609059GF108991081051008001999999MA1999999102321MD1110051+9999MW1101REMSYN086    AAXX  14121 26422 41596 82104 11015 21035 30232 40265 51005 71022 885// 333 88622;
0170264220999992000011415004+56970+024050FM-12+000799999V0201801N00401005401RN0040001N1-00211-00421102711ADDAY121031AY221031GA1081+005409059GF108991081051004501999999MD1310061+9999MW1101REMSYN080    AAXX  14151 26422 41496 81804 11021 21042 40271 53006 71022 885// 333 88618;
0206264220999992000011418004+56970+024050FM-12+000799999V0201901N00401003301RN0040001N1-00351-00491102741ADDAA112000191AY181061AY221061GA1081+003309099GF108991081091004501999999KA1120M-00151MD1110021+9999MW1851REMSYN092    AAXX  14181 26422 11496 81904 11035 21049 40274 51002 69922 78582 889// 333 11015 88911;
0170264220999992000011421004+56970+024050FM-12+000799999V0201801N00301003001RN0040001N1-00391-00581102811ADDAY181031AY221031GA1081+003009059GF108991081051004501999999MD1310071+9999MW1101REMSYN080    AAXX  14211 26422 41496 81803 11039 21058 40281 53007 71082 885// 333 88610;
0191264220999992000011500004+56970+024050FM-12+000799999V0202001N00301003301RN0040001N1-00431-00621102751ADDAY181061AY221061GA1081+003309059GF108991081051004501999999MA1999999102411MD1710061+9999MW1101REMSYN086    AAXX  15001 26422 41496 82003 11043 21062 30241 40275 57006 71082 885// 333 88611;
0170264220999992000011503004+56970+024050FM-12+000799999V0202001N00301003001RN0040001N1-00401-00591102661ADDAY121031AY221031GA1081+003009059GF108991081051004501999999MD1710091+9999MW1101REMSYN080    AAXX  15031 26422 /1496 82003 11040 21059 40266 57009 71022 885// 333 88610;
0235264220999992000011506004+56970+024050FM-12+000799999V0201901N00201003001RN0040001N1-00411-00531102561ADDAA112000791AJ100039199999999AY181061AY221061GA1081+003009099GF108991081091004501999999IA1279KA1120N-00441MD1710101+9999MW1851REMSYN098    AAXX  15061 26422 11496 81902 11041 21053 40256 57010 69902 78582 889// 333 21044 43003 88910;
0170264220999992000011509004+56970+024050FM-12+000799999V0202101N00101001501RN0040001N1-00371-00451102521ADDAY181031AY221031GA1081+001509069GF108991081061001501999999MD1710041+9999MW1101REMSYN080    AAXX  15091 26422 41296 82101 11037 21045 40252 57004 71082 886// 333 88705;
0191264220999992000011512004+56970+024050FM-12+000799999V0202201N00201001801RN0020001N1-00211-00331102361ADDAY181061AY271061GA1071+001809069GF108991081091001501999999MA1999999102031MD1710151+9999MW1851REMSYN086    AAXX  15121 26422 41295 82202 11021 21033 30203 40236 57015 78587 889// 333 87706;
0170264220999992000011515004+56970+024050FM-12+000799999V0202101N00101001201RN0020001N1-00151-00231102311ADDAY181031AY221031GA1081+001209069GF108991081061001501999999MD1510051+9999MW1101REMSYN080    AAXX  15151 26422 41295 82101 11015 21023 40231 55005 71082 886// 333 88704;
0206264220999992000011518004+56970+024050FM-12+000799999V0202201N00201000901RN0020001N1-00261-00321102261ADDAA112000591AY181061AY221061GA1051+000909069GF105991051061001501001001KA1120M-00141MD1810051+9999MW1101REMSYN092    AAXX  15181 26422 11295 52202 11026 21032 40226 58005 69952 71082 85600 333 11014 85703;
0164264220999992000011521004+56970+024050FM-12+000799999V0202501N00201220001RN0020001N1-00311-00351102231ADDAY111031AY211031GA1001+999999999GF100991001001999999001001MD1610041+9999MW1101REMSYN074    AAXX  15211 26422 41995 02502 11031 21035 40223 56004 71011 333 93597;
0197264220999992000011600004+56970+024050FM-12+000799999V0202101N00201006601RN0020001N1-00251-00281102191ADDAY111061AY211061GA1071+006609069GF107991071051008001001001MA1999999101861MD1810031+9999MW1101REMSYN092    AAXX  16001 26422 41595 72102 11025 21028 30186 40219 58003 71011 87500 333 87622 93592;
0206264220999992000011603004+56970+024050FM-12+000799999V0201901N00301004801RN0020001N1-00171-00251102111ADDAA199000091AY121031AY221031GA1071+004809069GF107991071051004501001001MD1710081+9999MW1101REMSYN086    AAXX  16031 26422 31495 71903 11017 21025 40211 57008 71022 87500 333 87616 93593;EQDQ01  00002PRCP99
0260264220999992000011606004+56970+024050FM-12+000799999V0201901N00301002101RN0020001N1-00091-00131102061ADDAA112000791AJ100049199999999AY171061AY221061GA1071+002109079GF108991999071002501021999IA1239KA1120N-00311MD1710051+9999MW1711REMSYN104    AAXX  16061 26422 11395 81903 11009 21013 40206 57005 69902 77172 8872/ 333 21031 47004 87707 93594;EQDQ01+000082SCOTLC
0176264220999992000011609004+56970+024050FM-12+000799999V0202101N00301002101RN0100001N1+00031-00051101921ADDAY171031AY221031GA1051+002109079GF108991081051002501999999MD1710141+9999MW1021REMSYN086    AAXX  16091 26422 41397 82103 10003 21005 40192 57014 70272 885// 333 85707 93500;
0197264220999992000011612004+56970+024050FM-12+000799999V0202101N00301001801RN0100001N1+00131+00021101691ADDAY171061AY221061GA1061+001809079GF108991081051001501999999MA1999999101361MD1710231+9999MW1021REMSYN092    AAXX  16121 26422 41297 82103 10013 20002 30136 40169 57023 70272 885// 333 86706 93500;
0142264220999992000011615004+56970+024050FM-12+000799999V0202301N00401002401RN0100001N1+00131-00011101291ADDGA1051+002409069GF108991081051002501999999MD1710401+9999REMSYN074    AAXX  16151 26422 42397 82304 10013 21001 40129 57040 885// 333 85708;
0179264220999992000011618004+56970+024050FM-12+000799999V0202101N00501999999RN0100001N1+00171-00051100591ADDAA112000191GF108991081001999999071999KA1120M+00171MD1710701+9999OA140101001REMSYN092    AAXX  16181 26422 12997 82105 10017 21005 40059 57070 69922 8807/ 333 10017 91010 91110;
0193264220999992000011621004+56970+024050FM-12+000799999V0202601N00501002101RN0100001N1+00221+00091099981ADDAY161031AY221031GA1081+002109059GF108991081001002501021999MD1710601+9999MW1611OA140101101REMSYN092    AAXX  16211 26422 41397 82605 10022 20009 49998 57060 76162 8802/ 333 88507 91011 91111;
0214264220999992000011700004+56970+024050FM-12+000799999V0202701N00501001201RN0100001N1+00221+00141099521ADDAY161061AY221061GA1081+001209059GF108991081001001501021999MA1999999099201MD1710461+9999MW1611OA140101101REMSYN098    AAXX  17001 26422 41297 82705 10022 20014 39920 49952 57046 76162 8802/ 333 88504 91011 91112;
0193264220999992000011703004+56970+024050FM-12+000799999V0202901N00501014101RN0100001N1+00281+00041099191ADDAY161031AY221031GA1081+014109069GF108991081051012501999999MD1710331+9999MW1021OA140101101REMSYN092    AAXX  17031 26422 /1697 82905 10028 20004 49919 57033 70262 885// 333 88647 91011 91111;
0258264220999992000011706004+56970+024050FM-12+000799999V0203001N00601006001RN0100001N1+00331+00121098961ADDAA112002091AJ100039199999999AY161061AY221061GA1081+006009059GF108991081001008001021999IA1279KA1120N+00171MD1710221+9999MW1611OA140101201REMSYN110    AAXX  17061 26422 11597 83006 10033 20012 49896 57022 60022 76162 8802/ 333 20017 43003 88520 91012 91112;
0171264220999992000011709004+56970+024050FM-12+000799999V0203301N00701220001RN0100001N1+00281-00081098831ADDAY181031AY261031GF102991021001999999071001MD1710131+9999MW1011OA140101201REMSYN086    AAXX  17091 26422 41997 23307 10028 21008 49883 57013 70186 82070 333 91012 91116;
0192264220999992000011712004+56970+024050FM-12+000799999V0203201N00701030001RN0100001N1+00281-00171098641ADDAY181061AY261061GF105991021091008001071001MA1999999098331MD1710191+9999MW1261OA140101101REMSYN092    AAXX  17121 26422 41597 53207 10028 21017 39833 49864 57019 72686 82970 333 91011 91113;
0171264220999992000011715004+56970+024050FM-12+000799999V0203401N00601999999RN0100001N1+00131-00221098561ADDAY181031AY221031GF106991061001999999071001MD1710091+9999MW1261OA140101001REMSYN086    AAXX  17151 26422 41997 63406 10013 21022 49856 57009 72682 86070 333 91010 91118;
0193264220999992000011721004+56970+024050FM-12+000799999V0203601N00801005401RN0100001N1+00011-00201098551ADDAY181031AY221031GA1081+005409099GF108991081091004501999999MD1410001+9999MW1021OA140101401REMSYN092    AAXX  17211 26422 41497 83608 10001 21020 49855 54000 70282 889// 333 88918 91014 91118;
0214264220999992000011800004+56970+024050FM-12+000799999V0203001N00701006901RN0100001N1+00151-00131098491ADDAY181061AY221061GA1081+006909099GF108991081091008001999999MA1999999098171MD1710061+9999MW1021OA140101201REMSYN098    AAXX  18001 26422 41597 83007 10015 21013 39817 49849 57006 70282 889// 333 88923 91012 91114;
0171264220999992000011803004+56970+024050FM-12+000799999V0203201N00601004201RN0040001N1+00101+00051098331ADDAY181031AY221031GF108991081091004501999999MD1710161+9999MW1851OA140101201REMSYN086    AAXX  18031 26422 /1496 83206 10010 20005 49833 57016 78582 889// 333 91012 91113;
0236264220999992000011806004+56970+024050FM-12+000799999V0203301N00601001201RN0010001N1-00031-00061098241ADDAA112003091AJ100059199999999AY181061AY221061GF108991081091001501999999IA1279KA1120N-00041MD1710091+9999MW1861OA140101001REMSYN104    AAXX  18061 26422 11294 83306 11003 21006 49824 57009 60032 78682 889// 333 21004 43005 91010 91113;
0193264220999992000011809004+56970+024050FM-12+000799999V0203601N00801005101RN0040001N1-00041-00131098381ADDAY181031AY221031GA1081+005109099GF108991081091004501999999MD1210141+9999MW1851OA140101201REMSYN092    AAXX  18091 26422 41496 83608 11004 21013 49838 52014 78582 889// 333 88917 91012 91114;
0214264220999992000011812004+56970+024050FM-12+000799999V0203601N00701006901RN0100001N1-00101-00531098661ADDAY181061AY221061GA1081+006909069GF108991081091008001999999MA1999999098341MD1210281+9999MW1021OA140101301REMSYN098    AAXX  18121 26422 41597 83607 11010 21053 39834 49866 52028 70282 889// 333 88623 91013 91115;
0165264220999992000011815004+56970+024050FM-12+000799999V0203601N00801006001RN0100001N1-00221-00611099051ADDGA1081+006009069GF108991081041008001999999MD1210391+9999OA140101301REMSYN086    AAXX  18151 26422 42597 83608 11022 21061 49905 52039 884// 333 88620 91013 91115;
0229264220999992000011818004+56970+024050FM-12+000799999V0203601N00701002101RN0040001N1-00161-00301099381ADDAA112000391AY181061AY221061GA1071+002109079GF108991081091002501999999KA1120M+00041MD1210331+9999MW1861OA140101201REMSYN104    AAXX  18181 26422 11396 83607 11016 21030 49938 52033 69932 78682 889// 333 10004 87707 91012 91113;
0193264220999992000011821004+56970+024050FM-12+000799999V0203601N00801002101RN0040001N1-00261-00391099671ADDAY181031AY221031GA1071+002109079GF108991081091002501999999MD1210291+9999MW1861OA140101301REMSYN092    AAXX  18211 26422 41396 83608 11026 21039 49967 52029 78682 889// 333 87707 91013 91114;
0231264220999992000011900004+56970+024050FM-12+000799999V0203601N00701005701RN0100001N1-00291-00671099841ADDAY181061AY231061GA1081+005709069GF108991081041004501999999MA1999999099511MD1210161+9999MW1021OA140101301OA249901501REMSYN104    AAXX  19001 26422 41497 83607 11029 21067 39951 49984 52016 70283 884// 333 88619 91013 91115 92980;
0193264220999992000011903004+56970+024050FM-12+000799999V0203601N00801012001RN0100001N1-00431-00741100061ADDAY181031AY221031GA1081+012009099GF108991081091012501999999MD1210221+9999MW1851OA140101501REMSYN092    AAXX  19031 26422 /1697 83608 11043 21074 40006 52022 78582 889// 333 88940 91015 91115;
0193264220999992000011909004+56970+024050FM-12+000799999V0203601N00801007801RN0100001N1-00481-00921100371ADDAY181031AY221031GA1081+007809099GF108991081091008001999999MD1210131+9999MW1851OA140101501REMSYN092    AAXX  19091 26422 41597 83608 11048 21092 40037 52013 78582 889// 333 88926 91015 91115;
0214264220999992000011912004+56970+024050FM-12+000799999V0203501N00801009301RN0100001N1-00381-01101100521ADDAY181061AY221061GA1061+009309099GF106991061091008001999999MA1999999100191MD1210151+9999MW1011OA140101501REMSYN098    AAXX  19121 26422 41597 63508 11038 21110 30019 40052 52015 70182 869// 333 86931 91015 91115;
0165264220999992000011915004+56970+024050FM-12+000799999V0203601N00801012901RN0100001N1-00301-01121100701ADDGA1081+012909099GF108991081091012501999999MD1210181+9999OA140101401REMSYN086    AAXX  19151 26422 42697 83608 11030 21112 40070 52018 889// 333 88943 91014 91118;
0225264220999992000011918004+56970+024050FM-12+0007UMRR V0203501N008010099019N0040001N1-00301-00471100791ADDAA112000391AY181061AY221061GA1081+009909099GF108991081091008001999999KA1120M-00281MD1210091+9999MW1851OA140101301REMSYN100AAXX  19181 26422 11596 83508 11030 21047 40079 52009 69932 78582 889// 333 11028 88933 91013 91118;
0161264220999992000011921004+56970+024050FM-12+0007UMRR V0203501N008010075019N0100001N1-00191-00941100821ADDAY181031AY221031GF106991061041008001001001MD1110031+9999MW1011REMSYN087AAXX  19211 26422 41597 63508 11019 21094 40082 51003 70182 86400 333 8630 91013 91113;
0210264220999992000012000004+56970+024050FM-12+0007UMRR V0203301N008010099019N0100001N1-00161-00891100771ADDAY181061AY221061GA1051+009909069GF105991051041008001001001MA1999999100441MD1810051+9999MW1011OA140101401REMSYN094AAXX  20001 26422 41597 53308 11016 21089 30044 40077 58005 70182 85400 333 85633 91014 91114;
0215264220999992000012006004+56970+024050FM-12+0007UMRR V0202101N002010300019N0100001N1-00431-00661100281ADDAA112000591AJ100099199999999AY181061AY221061GF105991031041008001071001IA1239KA1120N-00431MD1710341+9999MW1011REMSYN094AAXX  20061 26422 11597 52102 11043 21066 40028 57034 69942 70182 83470 333 21043 47009 91114;
0166264220999992000012009004+56970+024050FM-12+0007UMRR V0201801N005010009019N0010001N1-00381-00431099741ADDAY171031AY221031GA1081+000909029GF108991081001001501021999MD1710541+9999MW1731REMSYN076AAXX  20091 26422 41294 81805 11038 21043 49974 57054 77372 8802/ 333 88503;
0210264220999992000012012004+56970+024050FM-12+0007UMRR V0202801N006010030019N0040001N1+00111+00031099221ADDAY171061AY221061GA1061+003009099GF106991061091004501001001MA1999999098891MD1710521+9999MW1731OA140101301REMSYN094AAXX  20121 26422 41496 62806 10011 20003 39889 49922 57052 77372 86900 333 86910 91013 91113;
0139264220999992000012015004+56970+024050FM-12+0007UMRR V0203201N009012200019N0100001N1-00061-00701099111ADDGF102991021091004501001001MD1610101+9999OA140101601REMSYN076AAXX  20151 26422 42497 23209 11006 21070 49911 56010 82900 333 91016 91117;
0197264220999992000012018004+56970+024050FM-12+0007UMRR V0203401N01401007501CN0100001N1-00201-00591099001ADDAA112004191GA1021+006309099GF106991061091008001001001KA1120M+00131MD1710111+9999OA140102201REMSYN094AAXX  20181 26422 12597 63414 11020 21059 49900 57011 60042 86900 333 10013 82921 91022 91123;
0172264220999992000012021004+56970+024050FM-12+0007UMRR V0200301N005010060019N0040001N1-00421-00511099191ADDAY181031AY231031GA1081+006009099GF108991081091008001999999MD1310181+9999MW1861REMSYN082AAXX  20211 26422 41596 80305 11042 21051 49919 53018 78683 889// 333 88920 91122;
0161264220999992000012100004+56970+024050FM-12+0007UMRR V0200601N003012200019N0100001N1-00631-00901099271ADDAY181061AY231061GF103991031001999999071001MA1999999098941MD1210081+9999MW1021REMSYN072AAXX  21001 26422 41997 30603 11063 21090 39894 49927 52008 70283 83070;
0209264220999992000012106004+56970+024050FM-12+0007UMRR V0200701N002010300019N0100001N1-00691-00941099521ADDAA112000891AJ100119199999999AY181061AY211061GF106991031091008001071001IA1239KA1120N-00761MD1210131+9999MW1851REMSYN088AAXX  21061 26422 11597 60702 11069 21094 49952 52013 69982 78581 83970 333 21076 47011;
0189264220999992000012109004+56970+024050FM-12+0007UMRR V0203601N006010090019N0100001N1-00501-01181099721ADDAY181031AY221031GA1061+009009099GF108991061091008001071999MD1210201+9999MW1031OA140101001REMSYN088AAXX  21091 26422 41597 83606 11050 21118 49972 52020 70382 8697/ 333 86930 91010 91112;
0210264220999992000012112004+56970+024050FM-12+0007UMRR V0203401N007010054019N0040001N1-00491-01121099831ADDAY181061AY221061GA1081+005409099GF108991081091004501999999MA1999999099501MD1210111+9999MW1851OA140101101REMSYN094AAXX  21121 26422 41496 83407 11049 21112 39950 49983 52011 78582 889// 333 88918 91011 91113;
0206264220999992000012115004+56970+024050FM-12+0007UMRR V0203601N008010090019N0040001N1-00811-01041100101ADDAY181031AY231031GA1081+009009099GF108991081091008001999999MD1310261+9999MW1851OA140101201OA249901701REMSYN094AAXX  21151 26422 41596 83608 11081 21104 40010 53026 78583 889// 333 88930 91012 91117 92980;
0242264220999992000012118004+56970+024050FM-12+0007UMRR V0203601N007010030019N0040001N1-00761-00981100291ADDAA112001091AY181061AY231061GA1081+003009099GF108991081091004501999999KA1120M-00481MD1310201+9999MW1851OA140101201OA249901401REMSYN106AAXX  21181 26422 11496 83607 11076 21098 40029 53020 60012 78583 889// 333 11048 88910 91012 91114 92987;
0206264220999992000012121004+56970+024050FM-12+0007UMRR V0203501N009010045019N0040001N1-00491-00811100361ADDAY181031AY231031GA1081+004509099GF108991081091004501999999MD1210071+9999MW1851OA140101601OA249901601REMSYN094AAXX  21211 26422 41496 83509 11049 21081 40036 52007 78583 889// 333 88915 91016 91116 92980;
0210264220999992000012200004+56970+024050FM-12+0007UMRR V0203601N009010054019N0100001N1-00511-01301100511ADDAY181061AY231061GA1051+005409069GF105991051041004501001001MA1999999100181MD1210151+9999MW1011OA140101301REMSYN094AAXX  22001 26422 41497 53609 11051 21130 30018 40051 52015 70183 85400 333 85618 91013 91117;
0139264220999992000012203004+56970+024050FM-12+0007UMRR V0203601N008012200019N0100001N1-00541-01411100511ADDGF104991041001999999031001MD1410001+9999OA140101201REMSYN076AAXX  22031 26422 /2997 43608 11054 21141 40051 54000 84030 333 91012 91117;
0248264220999992000012206004+56970+024050FM-12+0007UMRR V0203401N006010300019N0100001N1-00591-01271999999ADDAA112000391AJ100119199999999AY181061AY211061GA1031+004509099GF107991031091004501031001IA1249KA1120N-00591MD1410001+9999MW1261OA140101001REMSYN100AAXX  22061 26422 11497 73406 11059 21127 54000 69932 72681 83930 333 21059 48011 83915 91010 91112;
0189264220999992000012209004+56970+024050FM-12+0007UMRR V0203501N007010063019N0100001N1-00511-01361100611ADDAY181031AY221031GA1071+006309099GF107991071091008001001001MD1210101+9999MW1851OA140101101REMSYN088AAXX  22091 26422 41597 73507 11051 21136 40061 52010 78582 87900 333 87921 91011 91112;
0210264220999992000012212004+56970+024050FM-12+0007UMRR V0203501N007010045019N0100001N1-00541-01051100711ADDAY181061AY231061GA1061+004509099GF107991071091004501061001MA1999999100381MD1210101+9999MW1851OA140101401REMSYN094AAXX  22121 26422 41497 73507 11054 21105 30038 40071 52010 78583 87960 333 86915 91014 91114;
0189264220999992000012215004+56970+024050FM-12+0007UMRR V0203401N005010093019N0100001N1-00521-01161100751ADDAY181031AY221031GA1051+009309099GF107991051091008001061001MD1110041+9999MW1021OA140101001REMSYN088AAXX  22151 26422 41597 73405 11052 21116 40075 51004 70282 85960 333 85931 91010 91114;
0208264220999992000012218004+56970+024050FM-12+0007UMRR V0203301N005010063019N0100001N1-00491-00811100821ADDAA112000891AY181061AY221061GA1051+006309039GF108991051091008001061999KA1120M-00471MD1210071+9999MW1261REMSYN094AAXX  22181 26422 11597 83305 11049 21081 40082 52007 69972 72682 8596/ 333 11047 85321 91110;
0166264220999992000012221004+56970+024050FM-12+0007UMRR V0209999V001010048019N0100001N1-00731-00941101011ADDAY181031AY221031GA1071+004809059GF107991071051004501001001MD1210191+9999MW1021REMSYN076AAXX  22211 26422 41497 79901 11073 21094 40101 52019 70282 87500 333 87616;
0166264220999992000012300004+56970+024050FM-12+0007UMRR V0209999V001010081019N0100001N1-00901-01061101181ADDAY181061AY221061GA1051+008109079GF108991051091008001061999MD1210161+9999MW1261REMSYN076AAXX  23001 26422 41597 89901 11090 21106 40118 52016 72682 8596/ 333 85327;
0112264220999992000012303004+56970+024050FM-12+0007UMRR V0201901N002010075019N0100001N1-00971-01141101271ADDGF105991051051008001001001MD1210091+9999REMSYN060AAXX  23031 26422 /2597 51902 11097 21114 40127 52009 85500;
0237264220999992000012306004+56970+024050FM-12+0007UMRR V0201901N002010021019N0100001N1-01191-01251101291ADDAA112000391AJ100119199999999AY181061AY221061GA1061+002109079GF107991071091002501001001IA1239KA1120N-01211MD1310021+9999MW1881REMSYN100AAXX  23061 26422 11397 71902 11119 21125 40129 53002 69932 78882 87900 333 21121 47011 86707 93500;
0172264220999992000012309004+56970+024050FM-12+0007UMRR V0200701N001010006019N0010001N1-00951-01021101431ADDAY181031AY221031GA1071+000609079GF108991081091000751999999MD1210141+9999MW1861REMSYN082AAXX  23091 26422 41194 80701 11095 21102 40143 52014 78682 889// 333 87702 93501;
0181264220999992000012312004+56970+024050FM-12+0007UMRR V0201901N001012200019N0040001N1-00791-01061101561ADDAY181061AY211061GA1001+999999999GF100991001001999999001001MA1999999101221MD1210131+9999MW1101REMSYN076AAXX  23121 26422 41996 01901 11079 21106 30122 40156 52013 71081 333 93501;
0140264220999992000012315004+56970+024050FM-12+0007UMRR V0201901N002012200019N0040001N1-00931-01141101521ADDAY101031AY201031GF103991011041004501031001MD1610041+9999MW1101REMSYN066AAXX  23151 26422 41496 31902 11093 21114 40152 56004 71000 81430;
0162264220999992000012318004+56970+024050FM-12+0007UMRR V0202501N004012200019N0100001N1-00921-01121101491ADDAA112001091GA1001+999999999GF100991001001999999001001KA1999M-00731MD1610031+9999REMSYN070AAXX  23181 26422 12997 02504 11092 21112 40149 56003 69992 333 11073;
0166264220999992000012321004+56970+024050FM-12+0007UMRR V0202601N005010009019N0020001N1-00771-00911101471ADDAY181031AY221031GA1071+000909069GF108991081091001501999999MD1610011+9999MW1861REMSYN076AAXX  23211 26422 41295 82605 11077 21091 40147 56001 78682 889// 333 87703;
0187264220999992000012400004+56970+024050FM-12+0007UMRR V0200701N002010009019N0020001N1-00651-00731101471ADDAY181061AY221061GA1061+000909069GF108991081091001501999999MA1999999101141MD1410001+9999MW1851REMSYN082AAXX  24001 26422 41295 80702 11065 21073 30114 40147 54000 78582 889// 333 86703;
0166264220999992000012403004+56970+024050FM-12+0007UMRR V0200901N002010027019N0040001N1-00911-01021101591ADDAY181031AY221031GA1081+002709099GF108991081091002501999999MD1310111+9999MW1851REMSYN076AAXX  24031 26422 /1396 80902 11091 21102 40159 53011 78582 889// 333 88909;
0231264220999992000012406004+56970+024050FM-12+0007UMRR V0209999C000010021019N0040001N1-00911-01021101651ADDAA112007991AJ100239199999999AY181061AY221061GA1071+002109069GF108991081091002501999999IA1239KA1120N-00961MD1210061+9999MW1851REMSYN094AAXX  24061 26422 11396 80000 11091 21102 40165 52006 60082 78582 889// 333 21096 47023 87707;
0166264220999992000012409004+56970+024050FM-12+0007UMRR V0202301N002010030019N0040001N1-00881-00991101771ADDAY181031AY221031GA1071+003009099GF107991071091004501001001MD1210121+9999MW1861REMSYN076AAXX  24091 26422 41496 72302 11088 21099 40177 52012 78682 87900 333 87910;
0161264220999992000012412004+56970+024050FM-12+0007UMRR V0202301N002010300019N0100001N1-00741-00911101801ADDAY181061AY221061GF106991031091004501071001MA1999999101461MD1010031+9999MW1011REMSYN072AAXX  24121 26422 41497 62302 11074 21091 30146 40180 50003 70182 83970;
0140264220999992000012415004+56970+024050FM-12+0007UMRR V0202201N002012200019N0100001N1-00821-00921101821ADDAY181031AY211031GF103991031091008001001001MD1110021+9999MW1261REMSYN066AAXX  24151 26422 41597 32202 11082 21092 40182 51002 72681 83900;
0202264220999992000012418004+56970+024050FM-12+0007UMRR V0202401N001010066019N0100001N1-00871-00941101901ADDAA112001091AY181061AY211061GA1071+006609059GF107991071051008001001001KA1120M-00701MD1310081+9999MW1021REMSYN088AAXX  24181 26422 11597 72401 11087 21094 40190 53008 60012 70281 87500 333 11070 87622;
0122264220999992000012421004+56970+024050FM-12+0007UMRR V0202001N002012200019N0100001N1-01031-01091101951ADDGA1001+999999999GF100991001001999999001001MD1210051+9999REMSYN054AAXX  24211 26422 42997 02002 11103 21109 40195 52005;
0181264220999992000012500004+56970+024050FM-12+0007UMRR V0201701N002012200019N0040001N1-01271-01331101961ADDAY111061AY211061GA1001+999999999GF100991001001999999001001MA1999999101621MD1310011+9999MW1101REMSYN076AAXX  25001 26422 41996 01702 11127 21133 30162 40196 53001 71011 333 93597;
0161264220999992000012503004+56970+024050FM-12+0007UMRR V0201301N002019999999N0040001N1-01421-01481101931ADDAA199000021AY111031AY211031GF108991001001999999001061MD1810041+9999MW1101REMSYN076AAXX  25031 26422 31996 81302 11142 21148 40193 58004 71011 80006 333 93501;
0238264220999992000012506004+56970+024050FM-12+0007UMRR V0201801N001010003019N0005001N1-01191-01251101801ADDAA199000091AJ100269199999999AY141061AY211061GA1091+999999999GF109991091999999999999999IA1239KA1120N-01481MD1710121+9999MW1491REMSYN082AAXX  25061 26422 31193 91801 11119 21125 40180 57012 74941 333 21148 47026 93502;EQDQ01  00002PRCP99
0150264220999992000012509004+56970+024050FM-12+0007UMRR V0201801N001019999999N0040001N1-01361-01421101771ADDAY181031AY241031GF106991041001999999031011MD1710041+9999MW1101REMSYN076AAXX  25091 26422 41996 61801 11136 21142 40177 57004 71084 84031 333 93502;
0193264220999992000012512004+56970+024050FM-12+0007UMRR V0201701N002010030019N0040001N1-01121-01181101521ADDAY181061AY241061GA1061+003009069GF108991061051004501071999MA1999999101181MD1710241+9999MW1101REMSYN088AAXX  25121 26422 41496 81702 11112 21118 30118 40152 57024 71084 8657/ 333 86610 93502;
0172264220999992000012515004+56970+024050FM-12+0007UMRR V0201301N002010012019N0020001N1-01071-01131101391ADDAY181031AY221031GA1071+001209079GF108991081091001501999999MD1510131+9999MW1861REMSYN082AAXX  25151 26422 41295 81302 11107 21113 40139 55013 78682 889// 333 87704 93502;
0208264220999992000012518004+56970+024050FM-12+0007UMRR V0201901N003010045019N0040001N1-01011-01071101221ADDAA112000591AY181061AY221061GA1081+004509069GF108991081041004501999999KA1120M-01011MD1810171+9999MW1261REMSYN094AAXX  25181 26422 11496 81903 11101 21107 40122 58017 69962 72682 884// 333 11101 88615 93502;
0172264220999992000012521004+56970+024050FM-12+0007UMRR V0201501N003010075019N0040001N1-00951-01021101161ADDAY181031AY221031GA1081+007509099GF108991081091008001999999MD1710061+9999MW1851REMSYN082AAXX  25211 26422 41596 81503 11095 21102 40116 57006 78582 889// 333 88925 93502;
0212264220999992000012600004+56970+024050FM-12+0007UMRR V0201601N003010009019N0020001N1-00831-00891101141ADDAY181061AY271061GA1071+000909079GF108991999071001501021999MA1999999100801MD1610021+9999MW1731REMSYN088AAXX  26001 26422 41295 81603 11083 21089 30080 40114 56002 77387 8872/ 333 87703 93502;EQDQ01+000082SCOTLC
0172264220999992000012603004+56970+024050FM-12+0007UMRR V0201701N003010012019N0020001N1-00831-00851101121ADDAY171031AY221031GA1081+001209079GF108991081061001501999999MD1810021+9999MW1221REMSYN082AAXX  26031 26422 /1295 81703 11083 21085 40112 58002 72272 886// 333 88704 93502;
0237264220999992000012606004+56970+024050FM-12+0007UMRR V0201501N003010009019N0020001N1-00831-00891101131ADDAA112000591AJ100269199999999AY171061AY221061GA1081+000909079GF108991081061001501999999IA1239KA1120N-01011MD1310011+9999MW1101REMSYN100AAXX  26061 26422 11295 81503 11083 21089 40113 53001 69962 71072 886// 333 21101 47026 88703 93502;
0172264220999992000012609004+56970+024050FM-12+0007UMRR V0201701N003010009019N0020001N1-00751-00881101091ADDAY171031AY221031GA1081+000909079GF108991081061000751999999MD1810031+9999MW1101REMSYN082AAXX  26091 26422 41195 81703 11075 21088 40109 58003 71072 886// 333 88703 93502;
0193264220999992000012612004+56970+024050FM-12+0007UMRR V0201701N003010012019N0020001N1-00581-00691100811ADDAY121061AY221061GA1081+001209079GF108991081061001501999999MA1999999100481MD1710281+9999MW1101REMSYN088AAXX  26121 26422 41295 81703 11058 21069 30048 40081 57028 71022 886// 333 88704 93502;
0172264220999992000012615004+56970+024050FM-12+0007UMRR V0201901N003010012019N0020001N1-00371-00391100581ADDAY171031AY221031GA1081+001209079GF108991081061001501999999MD1710231+9999MW1101REMSYN082AAXX  26151 26422 41295 81903 11037 21039 40058 57023 71072 886// 333 88704 93502;
0221264220999992000012618004+56970+024050FM-12+0007UMRR V0202201N002010021019N0040001N1-00171-00171100451ADDAA199000091AY171061AY221061GA1081+002109079GF108991081061002501999999KA1120M-00171MD1710131+9999MW1101REMSYN088AAXX  26181 26422 31396 82202 11017 21017 40045 57013 71072 886// 333 11017 88707 93502;EQDQ01  00002PRCP99
0112264220999992000012621004+56970+024050FM-12+0007UMRR V0202501N003012200019N0100001N1-00021-00051100391ADDGF104991031051004501031001MD1710061+9999REMSYN060AAXX  26211 26422 42497 42503 11002 21005 40039 57006 83530;
0133264220999992000012700004+56970+024050FM-12+0007UMRR V0202701N004012200019N0100001N1+00031-00051100331ADDGF102991021001999999031001MA1999999100001MD1710061+9999REMSYN066AAXX  27001 26422 42997 22704 10003 21005 30000 40033 57006 82030;
0142264220999992000012703004+56970+024050FM-12+0007UMRR V0202901N006012200019N0100001N1+00151-00021100391ADDAA199000091GF102991021001022501031001MD1310061+9999REMSYN060AAXX  27031 26422 32897 22906 10015 21002 40039 53006 82030;EQDQ01  00002PRCP99
0194264220999992000012706004+56970+024050FM-12+0007UMRR V0202901N006012200019N0100001N1+00131-00041100521ADDAA199000091AJ100269199999999GF102991021001022501031001IA1279KA1120N-00171MD1210131+9999REMSYN076AAXX  27061 26422 32897 22906 10013 21004 40052 52013 82030 333 21017 43026;EQDQ01  00002PRCP99
0112264220999992000012709004+56970+024050FM-12+0007UMRR V0203001N005019999999N0200001N1+00161-00091100651ADDGF105991001001999999001041MD1210131+9999REMSYN060AAXX  27091 26422 42998 53005 10016 21009 40065 52013 80004;
0112264220999992000012715004+56970+024050FM-12+0007UMRR V0202201N002019999999N0100001N1+00011-00171100571ADDGF108991051001999999071041MD1710061+9999REMSYN060AAXX  27151 26422 42997 82202 10001 21017 40057 57006 85074;
0165264220999992000012718004+56970+024050FM-12+0007UMRR V0201901N002019999999N0100001N1-00031-00121100241ADDAA199000091GF108991051001999999071041KA1999M+00221MD1710331+9999REMSYN070AAXX  27181 26422 32997 81902 11003 21012 40024 57033 85074 333 10022;EQDQ01  00002PRCP99
0138264220999992000012721004+56970+024050FM-12+0007UMRR V0202001N003010033019N0100001N1+00111+00001099831ADDGA1061+003309059GF108991061051004501071999MD1710401+9999REMSYN070AAXX  27211 26422 42497 82003 10011 20000 49983 57040 8657/ 333 86611;
0187264220999992000012800004+56970+024050FM-12+0007UMRR V0202101N004010021019N0040001N1+00131+00081099461ADDAY181061AY221061GA1081+002109099GF108991081091002501999999MA1999999099141MD1710371+9999MW1851REMSYN082AAXX  28001 26422 41396 82104 10013 20008 39914 49946 57037 78582 889// 333 88907;
0166264220999992000012803004+56970+024050FM-12+0007UMRR V0202401N004010096019N0100001N1+00201+00151099371ADDAY181031AY221031GA1061+009609059GF107991061051008001031001MD1710091+9999MW1011REMSYN076AAXX  28031 26422 /1597 72404 10020 20015 49937 57009 70182 86530 333 86632;
0254264220999992000012806004+56970+024050FM-12+0007UMRR V0202401N005010117019N0100001N1+00241+00051099341ADDAA112000891AJ100159199999999AY181061AY221061GA1061+011709069GF107991061051012501031001IA1279KA1120N-00041MD1610031+9999MW1021OA140101001REMSYN106AAXX  28061 26422 11697 72405 10024 20005 49934 56003 69972 70282 86530 333 21004 43015 86639 91010 91110;
0138264220999992000012809004+56970+024050FM-12+0007UMRR V0202601N004010129019N0100001N1+00261-00071099511ADDGA1081+012909059GF108991081051012501999999MD1310171+9999REMSYN070AAXX  28091 26422 42697 82604 10026 21007 49951 53017 885// 333 88643;
0159264220999992000012812004+56970+024050FM-12+0007UMRR V0202801N004010087019N0100001N1+00291-00221099601ADDGA1081+008709059GF108991081051008001999999MA1999999099281MD1210091+9999REMSYN076AAXX  28121 26422 42597 82804 10029 21022 39928 49960 52009 885// 333 88629;
0138264220999992000012815004+56970+024050FM-12+0007UMRR V0202901N004010108019N0100001N1+00231-00171099771ADDGA1081+010809059GF108991081051012501999999MD1210171+9999REMSYN070AAXX  28151 26422 42697 82904 10023 21017 49977 52017 885// 333 88636;
0187264220999992000012818004+56970+024050FM-12+0007UMRR V0202801N002010087019N0100001N1+00141-00151099941ADDAA199000091GA1081+008709059GF108991081051008001999999KA1120M+00301MD1210171+9999REMSYN076AAXX  28181 26422 32597 82802 10014 21015 49994 52017 885// 333 10030 88629;EQDQ01  00002PRCP99
0138264220999992000012821004+56970+024050FM-12+0007UMRR V0202301N002010099019N0100001N1+00071-00101100011ADDGA1061+009909059GF108991061051012501031999MD1210071+9999REMSYN070AAXX  28211 26422 42697 82302 10007 21010 40001 52007 8653/ 333 86633;
0159264220999992000012900004+56970+024050FM-12+0007UMRR V0201801N002010096019N0100001N1-00021-00111099971ADDGA1061+009609059GF108991061051008001031999MA1999999099651MD1810041+9999REMSYN076AAXX  29001 26422 42597 81802 11002 21011 39965 49997 58004 8653/ 333 86632;
0166264220999992000012903004+56970+024050FM-12+0007UMRR V0201701N003010021019N0040001N1+00031-00031099781ADDAY181031AY221031GA1061+002109069GF108991081091002501999999MD1710191+9999MW1861REMSYN076AAXX  29031 26422 /1396 81703 10003 21003 49978 57019 78682 889// 333 86707;
0231264220999992000012906004+56970+024050FM-12+0007UMRR V0202001N006010021019N0100001N1+00101-00021099621ADDAA112000591AJ100139199999999AY181061AY221061GA1061+002109069GF108991081091002501999999IA1279KA1120N-00041MD1710161+9999MW1261REMSYN094AAXX  29061 26422 11397 82006 10010 21002 49962 57016 69962 72682 889// 333 21004 43013 86707;
0189264220999992000012909004+56970+024050FM-12+0007UMRR V0202001N007010024019N0040001N1+00131+00051099511ADDAY121031AY221031GA1051+002409079GF108991081041002501999999MD1810111+9999MW1101OA140101001REMSYN088AAXX  29091 26422 41396 82007 10013 20005 49951 58011 71022 884// 333 85708 91010 91111;
0210264220999992000012912004+56970+024050FM-12+0007UMRR V0201901N005010012019N0020001N1+00081+00001099191ADDAY121061AY221061GA1081+001209079GF108991081061001501999999MA1999999098871MD1710321+9999MW1101OA140101201REMSYN094AAXX  29121 26422 41295 81905 10008 21000 39887 49919 57032 71022 886// 333 88704 91012 91113;
0189264220999992000012915004+56970+024050FM-12+0007UMRR V0201701N009010030019N0040001N1+00111-00031098731ADDAY121031AY221031GA1051+003009079GF108991081041004501999999MD1710461+9999MW1101OA140101601REMSYN088AAXX  29151 26422 41496 81709 10011 21003 49873 57046 71022 884// 333 85710 91016 91117;
0225264220999992000012918004+56970+024050FM-12+0007UMRR V0201801N010010021019N0040001N1+00071+00011098221ADDAA112000591AY181061AY221061GA1051+002109079GF108991081091002501999999KA1120M+00131MD1710511+9999MW1861OA140101501REMSYN100AAXX  29181 26422 11396 81810 10007 20001 49822 57051 69942 78682 889// 333 10013 85707 91015 91118;
0208264220999992000012921004+56970+024050FM-12+0007UMRR V0201901N010010009019N0020001N1+00091+00041097741ADDAY181031AY271031GA1071+000909079GF108991999071001501021999MD1710481+9999MW1731OA140101701REMSYN088AAXX  29211 26422 41295 81910 10009 20004 49774 57048 77387 8872/ 333 87703 91017 91117;EQDQ01+000082SCOTLC
0229264220999992000013000004+56970+024050FM-12+0007UMRR V0201901N008010030019N0040001N1+00121+00091097501ADDAY181061AY271061GA1051+003009079GF108991999071004501021999MA1999999097181MD1710241+9999MW1711OA140101401REMSYN094AAXX  30001 26422 41496 81908 10012 20009 39718 49750 57024 77187 8872/ 333 85710 91014 91117;EQDQ01+000082SCOTLC
0189264220999992000013003004+56970+024050FM-12+0007UMRR V0201901N006010051019N0040001N1+00211+00181097421ADDAY171031AY261031GA1081+005109059GF108991081001004501051999MD1610071+9999MW1611OA140101101REMSYN088AAXX  30031 26422 /1496 81906 10021 20018 49742 56007 76176 8805/ 333 88517 91011 91114;
0254264220999992000013006004+56970+024050FM-12+0007UMRR V0201801N007010030019N0100001N1+00241+00141097251ADDAA112005191AJ100109199999999AY181061AY271061GA1051+003009079GF107991071091004501001001IA1279KA1120N+00051MD1710171+9999MW1801OA140101201REMSYN106AAXX  30061 26422 11497 71807 10024 20014 49725 57017 60052 78087 87900 333 20005 43010 85710 91012 91112;
0189264220999992000013009004+56970+024050FM-12+0007UMRR V0201801N007010039019N0100001N1+00251+00041097171ADDAY181031AY221031GA1071+003909099GF108991071091004501071999MD1710081+9999MW1021OA140101501REMSYN088AAXX  30091 26422 41497 81807 10025 20004 49717 57008 70282 8797/ 333 87913 91015 91116;
0210264220999992000013012004+56970+024050FM-12+0007UMRR V0201901N005010033019N0100001N1+00231+00071097181ADDAY181061AY221061GA1081+003309099GF108991081091004501999999MA1999999096871MD1310011+9999MW1801OA140101001REMSYN094AAXX  30121 26422 41497 81905 10023 20007 39687 49718 53001 78082 889// 333 88911 91010 91116;
0189264220999992000013015004+56970+024050FM-12+0007UMRR V0202901N005010030019N0100001N1+00231+00101097781ADDAY181031AY221031GA1081+003009099GF108991081091004501999999MD1210591+9999MW1801OA140101001REMSYN088AAXX  30151 26422 41497 82905 10023 20010 49778 52059 78082 889// 333 88910 91010 91110;
0225264220999992000013018004+56970+024050FM-12+0007UMRR V0203101N007010030019N0040001N1+00021-00041098551ADDAA112002091AY181061AY221061GA1081+003009099GF108991081091004501999999KA1120M+00271MD1210771+9999MW1861OA140101301REMSYN100AAXX  30181 26422 11496 83107 10002 21004 49855 52077 60022 78682 889// 333 10027 88910 91013 91114;
0189264220999992000013021004+56970+024050FM-12+0007UMRR V0203001N008010138019N0100001N1+00121-00501099111ADDAY181031AY221031GA1061+013809069GF106991061051012501001001MD1210561+9999MW1011OA140101401REMSYN088AAXX  30211 26422 41697 63008 10012 21050 49911 52056 70182 86500 333 86646 91014 91114;
0188264220999992000013100004+56970+024050FM-12+0007UMRR V0203101N007019999999N0100001N1+00021-00781099541ADDAY181061AY221061GF106991061001999999071001MA1999999099222MD1210431+9999MW1021OA140101101REMSYN088AAXX  31001 26422 41997 63107 10002 21078 39922 49954 52043 70282 86070 333 91011 91114;
0144264220999992000013103004+56970+024050FM-12+0007UMRR V0202701N003010039019N0100001N1-00131-01031099691ADDGA1051+003909069GF105991051051004501001001MD1210151+9999REMSYN076AAXX  31031 26422 /2497 52703 11013 21103 49969 52015 85500 333 85613 91113;
0187264220999992000013106004+56970+024050FM-12+0007UMRR V0202401N002010300019N0100001N1-00291-01001099711ADDAA112000791AJ100099199999999GF108991021051008001071999IA1279KA1120N-00291MD1110011+9999REMSYN088AAXX  31061 26422 12597 82402 11029 21100 49971 51001 69902 8257/ 333 21029 43009 91113;
0112264220999992000013109004+56970+024050FM-12+0007UMRR V0201601N002019999999N0100001N1-00271-00721099591ADDGF108991081001999999021999MD1710121+9999REMSYN060AAXX  31091 26422 42997 81602 11027 21072 49959 57012 8802/;
0133264220999992000013112004+56970+024050FM-12+0007UMRR V0200601N001019999999N0100001N1-00171-00621099501ADDGF108991081001999999021999MA1999999099181MD1710081+9999REMSYN066AAXX  31121 26422 42997 80601 11017 21062 39918 49950 57008 8802/;
0112264220999992000013115004+56970+024050FM-12+0007UMRR V0200101N003019999999N0100001N1-00181-00671099861ADDGF105991051001999999031021MD1210361+9999REMSYN060AAXX  31151 26422 42997 50103 11018 21067 49986 52036 85032;
0145264220999992000013118004+56970+024050FM-12+0007UMRR V0202901N003012200019N0100001N1-00361-00681100361ADDGA1001+999999999GF100991001001999999001001KA1999M-00121MD1210491+9999REMSYN064AAXX  31181 26422 12997 02903 11036 21068 40036 52049 333 11012;
0122264220999992000013121004+56970+024050FM-12+0007UMRR V0202501N003012200019N0100001N1-00541-00751100691ADDGA1001+999999999GF100991001001999999001001MD1210331+9999REMSYN054AAXX  31211 26422 42997 02503 11054 21075 40069 52033;
0159264220999992000020100004+56970+024050FM-12+0007UMRR V0202101N004010123019N0100001N1-00411-00711100721ADDGA1081+012309059GF108991081051012501999999MA1999999100391MD1310031+9999REMSYN076AAXX  01001 26422 42697 82104 11041 21071 30039 40072 53003 885// 333 88641;
0166264220999992000020103004+56970+024050FM-12+0007UMRR V0202701N004010093019N0100001N1-00211-00391100681ADDAY181031AY221031GA1081+009309099GF108991081091008001999999MD1810041+9999MW1871REMSYN076AAXX  01031 26422 /1597 82704 11021 21039 40068 58004 78782 889// 333 88931;
0209264220999992000020106004+56970+024050FM-12+0007UMRR V0202501N004012200019N0100001N1-00231-00321100751ADDAA112000791AJ100099199999999AY181061AY211061GF101991011001999999071001IA1239KA1120N-00541MD1310071+9999MW1011REMSYN088AAXX  01061 26422 11997 12504 11023 21032 40075 53007 69902 70181 81070 333 21054 47009;
0122264220999992000020109004+56970+024050FM-12+0007UMRR V0202301N002012200019N0100001N1-00041-00251100861ADDGA1001+999999999GF100991001001999999001001MD1210111+9999REMSYN054AAXX  01091 26422 42997 02302 11004 21025 40086 52011;
0133264220999992000020112004+56970+024050FM-12+0007UMRR V0202401N002012200019N0100001N1+00161-00281100851ADDGF102991021021008001031001MA1999999100521MD1810011+9999REMSYN066AAXX  01121 26422 42597 22402 10016 21028 30052 40085 58001 82230;
0112264220999992000020115004+56970+024050FM-12+0007UMRR V0201901N002019999999N0100001N1+00031-00241100761ADDGF107991021001999999031011MD1710091+9999REMSYN060AAXX  01151 26422 42997 71902 10003 21024 40076 57009 82031;
0165264220999992000020118004+56970+024050FM-12+0007UMRR V0202001N002019999999N0100001N1-00131-00211100581ADDAA199000091GF108991001001999999001051KA1999M+00291MD1710181+9999REMSYN070AAXX  01181 26422 32997 82002 11013 21021 40058 57018 80005 333 10029;EQDQ01  00002PRCP99
0166264220999992000020121004+56970+024050FM-12+0007UMRR V0201901N002010012019N0040001N1+00031-00031100281ADDAY171031AY221031GA1081+001209029GF108991081001001501021999MD1710301+9999MW1711REMSYN076AAXX  01211 26422 41296 81902 10003 21003 40028 57030 77172 8802/ 333 88504;
0187264220999992000020200004+56970+024050FM-12+0007UMRR V0201801N005010012019N0040001N1+00031+00001099761ADDAY171061AY221061GA1081+001209029GF108991081001001501021999MA1999999099441MD1710511+9999MW1711REMSYN082AAXX  02001 26422 41296 81805 10003 20000 39944 49976 57051 77172 8802/ 333 88504;
0166264220999992000020203004+56970+024050FM-12+0007UMRR V0202101N003010012019N0040001N1+00251+00221099351ADDAY171031AY261031GA1081+001209069GF108991081061001501999999MD1710411+9999MW1211REMSYN076AAXX  02031 26422 /1296 82103 10025 20022 49935 57041 72176 886// 333 88704;
0231264220999992000020206004+56970+024050FM-12+0007UMRR V0202401N004010018019N0040001N1+00351+00301099161ADDAA112002091AJ100099199999999AY171061AY261061GA1081+001809069GF108991081061001501999999IA1279KA1120N-00131MD1710191+9999MW1201REMSYN094AAXX  02061 26422 11296 82404 10035 20030 49916 57019 60022 72076 886// 333 21013 43009 88706;
0189264220999992000020209004+56970+024050FM-12+0007UMRR V0203001N005010057019N0100001N1+00391+00191099271ADDAY181031AY221031GA1081+005709099GF108991081091004501999999MD1310111+9999MW1251OA140101001REMSYN088AAXX  02091 26422 41497 83005 10039 20019 49927 53011 72582 889// 333 88919 91010 91111;
0193264220999992000020212004+56970+024050FM-12+0007UMRR V0203001N003010021019N0100001N1+00311+00181099351ADDAY181061AY221061GA1041+002109079GF108991081091002501999999MA1999999099031MD1110081+9999MW1801REMSYN088AAXX  02121 26422 41397 83003 10031 20018 39903 49935 51008 78082 889// 333 84707 91110;
0166264220999992000020215004+56970+024050FM-12+0007UMRR V0202401N004010066019N0100001N1+00311-00041099301ADDAY181031AY221031GA1081+006609059GF108991081051008001999999MD1710051+9999MW1021REMSYN076AAXX  02151 26422 41597 82404 10031 21004 49930 57005 70282 885// 333 88622;
0202264220999992000020218004+56970+024050FM-12+0007UMRR V0202401N003010051019N0100001N1+00271-00031099251ADDAA112000191AY181061AY221061GA1071+005109059GF107991071051004501001001KA1120M+00401MD1810051+9999MW1021REMSYN088AAXX  02181 26422 11497 72403 10027 21003 49925 58005 69912 70282 87500 333 10040 87617;
0138264220999992000020221004+56970+024050FM-12+0007UMRR V0202601N005010045019N0100001N1+00281+00011099161ADDGA1081+004509059GF108991081051004501999999MD1710091+9999REMSYN070AAXX  02211 26422 42497 82605 10028 20001 49916 57009 885// 333 88615;
0133264220999992000020300004+56970+024050FM-12+0007UMRR V0202201N002019999999N0100001N1+00251+00061099021ADDGF106991061001999999071001MA1999999098711MD1710131+9999REMSYN066AAXX  03001 26422 42997 62202 10025 20006 39871 49902 57013 86070;
0166264220999992000020303004+56970+024050FM-12+0007UMRR V0202601N004010021019N0100001N1+00111+00061098971ADDAY181031AY221031GA1071+002109069GF108991081091002501999999MD1710061+9999MW1851REMSYN076AAXX  03031 26422 /1397 82604 10011 20006 49897 57006 78582 889// 333 87707;
0254264220999992000020306004+56970+024050FM-12+0007UMRR V0200201N006010120019N0040001N1-00141-00161099421ADDAA112003091AJ100089199999999AY181061AY221061GA1061+012009099GF108991081091012501999999IA1239KA1120N-00141MD1210451+9999MW1261OA140101001REMSYN106AAXX  03061 26422 11696 80206 11014 21016 49942 52045 60032 72682 889// 333 21014 47008 86940 91010 91111;
0161264220999992000020309004+56970+024050FM-12+0007UMRR V0203601N00601007501CN0200001N1-00211-00601099991ADDGA1041+009309099GF107991061091008001031001MD1210571+9999OA140101301REMSYN082AAXX  03091 26422 42598 73606 11021 21060 49999 52057 86930 333 84931 91013 91113;
0229264220999992000020312004+56970+024050FM-12+0007UMRR V0203401N007010093019N0200001N1-00111-00541100141ADDAY181061AY231061GA1061+009309099GF107991061091008001001001MA1999999100171MD1210151+9999MW1011OA140101201REMSYN094AAXX  03121 26422 41598 73407 11011 21054 30017 40014 52050 70183 86900 333 86931 91012 91113;EQDQ01+000502APC3  
0139264220999992000020315004+56970+024050FM-12+0007UMRR V0203301N006012200019N0100001N1-00131-00721100871ADDGF104991031051008001031001MD1210381+9999OA140101101REMSYN076AAXX  03151 26422 42597 43306 11013 21072 40087 52038 83530 333 91011 91112;
0197264220999992000020318004+56970+024050FM-12+0007UMRR V0203101N006010129019N0100001N1-00111-00501101191ADDAA112000791GA1071+012909069GF107991071051012501001001KA1120M-00051MD1210321+9999OA140101001REMSYN094AAXX  03181 26422 12697 73106 11011 21050 40119 52032 69902 87500 333 11005 87643 91010 91112;
0189264220999992000020321004+56970+024050FM-12+0007UMRR V0203301N006010078019N0100001N1-00021-00351101441ADDAY181031AY221031GA1071+007809099GF107991071091008001001001MD1210251+9999MW1011OA140101101REMSYN088AAXX  03211 26422 41597 73306 11002 21035 40144 52025 70182 87900 333 87926 91011 91111;
0165264220999992000020400004+56970+024050FM-12+0007UMRR V0203301N005010108019N0100001N1+00011-00451101801ADDGA1071+010809099GF107991071091012501001001MA1999999101471MD1210361+9999REMSYN082AAXX  04001 26422 42697 73305 10001 21045 30147 40180 52036 87900 333 87936 91111;
0138264220999992000020403004+56970+024050FM-12+0007UMRR V0202601N003010090019N0100001N1-00171-00441101951ADDGA1061+009009059GF106991061051008001001001MD1210151+9999REMSYN070AAXX  04031 26422 /2597 62603 11017 21044 40195 52015 86500 333 86630;
0181264220999992000020406004+56970+024050FM-12+0007UMRR V0202201N003019999999N0100001N1-00281-00481101851ADDAA112000791AJ100089199999999GF105991051001999999031001IA1239KA1120N-00281MD1810101+9999REMSYN082AAXX  04061 26422 12997 52203 11028 21048 40185 58010 69902 85030 333 21028 47008;
0112264220999992000020409004+56970+024050FM-12+0007UMRR V0202001N004019999999N0100001N1-00111-00341101591ADDGF108991081001999999071999MD1710261+9999REMSYN060AAXX  04091 26422 42997 82004 11011 21034 40159 57026 8807/;
0210264220999992000020412004+56970+024050FM-12+0007UMRR V0202101N005010045019N0100001N1+00151-00071100971ADDAY171061AY221061GA1081+004509059GF108991081001004501021999MA1999999100641MD1710621+9999MW1711OA140101001REMSYN094AAXX  04121 26422 41497 82105 10015 21007 30064 40097 57062 77172 8802/ 333 88515 91010 91110;
0189264220999992000020415004+56970+024050FM-12+0007UMRR V0202301N006010030019N0100001N1+00201+00041100521ADDAY171031AY221031GA1061+003009079GF108991081061004501999999MD1710441+9999MW1021OA140101101REMSYN088AAXX  04151 26422 41497 82306 10020 20004 40052 57044 70272 886// 333 86710 91011 91114;
0225264220999992000020418004+56970+024050FM-12+0007UMRR V0202501N005010024019N0100001N1+00181+00071100331ADDAA112000591AY171061AY261061GA1081+002409059GF108991081001002501021999KA1120M+00201MD1710201+9999MW1631OA140101001REMSYN100AAXX  04181 26422 11397 82505 10018 20007 40033 57020 69942 76376 8802/ 333 10020 88508 91010 91113;
0172264220999992000020421004+56970+024050FM-12+0007UMRR V0202601N004010021019N0040001N1+00181+00131100081ADDAY161031AY221031GA1081+002109059GF108991081001002501021999MD1710241+9999MW1611REMSYN082AAXX  04211 26422 41396 82604 10018 20013 40008 57024 76162 8802/ 333 88507 91110;
0187264220999992000020500004+56970+024050FM-12+0007UMRR V0202701N004010015019N0040001N1+00231+00181099961ADDAY161061AY251061GA1081+001509069GF108991081061001501999999MA1999999099641MD1710121+9999MW1201REMSYN082AAXX  05001 26422 41296 82704 10023 20018 39964 49996 57012 72065 886// 333 88705;
0112264220999992000020503004+56970+024050FM-12+0007UMRR V0203201N006010300019N0100001N1+00311+00151100131ADDGF108991031051008001071999MD1310171+9999REMSYN060AAXX  05031 26422 /2597 83206 10031 20015 40013 53017 8357/;
0214264220999992000020506004+56970+024050FM-12+0007UMRR V0203301N007012200019N0100001N1+00161-00091100481ADDAA112000891AJ100039199999999GA1001+999999999GF100991001001999999001001IA1279KA1120N+00161MD1210341+9999OA140101101REMSYN088AAXX  05061 26422 12997 03307 10016 21009 40048 52034 69972 333 20016 43003 91011 91111;
0139264220999992000020509004+56970+024050FM-12+0007UMRR V0203101N007012200019N0100001N1+00191-00151100861ADDGF102991001001999999001011MD1210381+9999OA140101101REMSYN076AAXX  05091 26422 42997 23107 10019 21015 40086 52038 80001 333 91011 91112;
0160264220999992000020512004+56970+024050FM-12+0007UMRR V0202201N007019999999N0200001N1+00221-00211101171ADDGF105991051001999999031091MA1999999100851MD1210321+9999OA140101101REMSYN082AAXX  05121 26422 42998 52207 10022 21021 30085 40117 52032 85039 333 91011 91112;
0118264220999992000020515004+56970+024050FM-12+0007UMRR V0203201N005012200019N0200001N1+00141-00191101401ADDGF102991001001999999041011MD1210231+9999REMSYN066AAXX  05151 26422 42998 23205 10014 21019 40140 52023 80041 91112;
0157264220999992000020518004+56970+024050FM-12+0007UMRR V0202901N003012200019N0200001N1+00031-00281101501ADDAA199000091GA1001+999999999GF100991001001999999001001MD1210101+9999REMSYN059AAXX  05181 26422 32998 02903 1000321028 40150 52010 91112;EQDQ01  00002PRCP99
0122264220999992000020521004+56970+024050FM-12+0007UMRR V0202101N003012200019N0100001N1-00171-00301101541ADDGA1001+999999999GF100991001001999999001001MD1010041+9999REMSYN054AAXX  05211 26422 42997 02103 11017 21030 40154 50004;
0133264220999992000020600004+56970+024050FM-12+0007UMRR V0201801N003012200019N0100001N1-00071-00191101411ADDGF102991021001999999031001MA1999999101081MD1710131+9999REMSYN066AAXX  06001 26422 42997 21803 11007 21019 30108 40141 57013 82030;
0150264220999992000020609004+56970+024050FM-12+0007UMRR V0201901N004010003019N0002001N1+00231+00231100841ADDAY151031AY241031GA1091+999999999GF109991091999999999999999MD1710191+9999MW1451REMSYN060AAXX  06091 26422 41/92 91904 10023 20023 40084 57019 74554;
0161264220999992000020612004+56970+024050FM-12+0007UMRR V0202501N005010042019N0040001N1+00401+00331100761ADDAY151061AY241061GF108991081051004501999999MA1999999100441MD1510081+9999MW1281REMSYN072AAXX  06121 26422 41496 82505 10040 20033 30044 40076 55008 72854 885//;
0140264220999992000020615004+56970+024050FM-12+0007UMRR V0202301N002010075019N0040001N1+00421+00301100801ADDAY121031AY221031GF108991081051008001999999MD1210041+9999MW1101REMSYN066AAXX  06151 26422 41596 82302 10042 20030 40080 52004 71022 885//;
0157264220999992000020618004+56970+024050FM-12+0007UMRR V0202501N004010075019N0040001N1+00471+00321100891ADDAA112000791AY121061AY221061GF108991081051008001999999MD1210091+9999MW1101REMSYN072AAXX  06181 26422 11596 82504 10047 20032 40089 52009 69902 71022 885//;
0133264220999992000020700004+56970+024050FM-12+0007UMRR V0202401N003019999999N0100001N1+00381+00271101081ADDGF108991001001999999001051MA1999999100761MD1210111+9999REMSYN066AAXX  07001 26422 42997 82403 10038 20027 30076 40108 52011 80005;
0142264220999992000020703004+56970+024050FM-12+0007UMRR V0202201N002019999999N0100001N1+00281+00201101041ADDAA199000091GF108991001001999999001051MD1810041+9999REMSYN060AAXX  07031 26422 32997 82202 10028 20020 40104 58004 80005;EQDQ01  00002PRCP99
0140264220999992000020709004+56970+024050FM-12+0007UMRR V0201801N006010012019N0020001N1+00331+00301100881ADDAY151031AY221031GF108991081061001501999999MD1710131+9999MW1511REMSYN066AAXX  07091 26422 41295 81806 10033 20030 40088 57013 75152 886//;
0161264220999992000020712004+56970+024050FM-12+0007UMRR V0201901N003010012019N0040001N1+00421+00401100531ADDAY181061AY251061GF108991081061001501999999MA1999999100211MD1710351+9999MW1251REMSYN072AAXX  07121 26422 41296 81903 10042 20040 30021 40053 57035 72585 886//;
0140264220999992000020715004+56970+024050FM-12+0007UMRR V0202001N004010042019N0040001N1+00421+00371100231ADDAY161031AY251031GF108991081061004501999999MD1710301+9999MW1611REMSYN066AAXX  07151 26422 41496 82004 10042 20037 40023 57030 76165 886//;
0157264220999992000020718004+56970+024050FM-12+0007UMRR V0202001N005010021019N0040001N1+00441+00371099981ADDAA112000591AY161061AY251061GF108991081061002501999999MD1710251+9999MW1201REMSYN072AAXX  07181 26422 11396 82005 10044 20037 49998 57025 69962 72065 886//;
0161264220999992000020800004+56970+024050FM-12+0007UMRR V0202201N005012200019N0100001N1+00311+00131099981ADDAY181061AY211061GF103991031051008001001001MA1999999099661MD1110011+9999MW1011REMSYN072AAXX  08001 26422 41597 32205 10031 20013 39966 49998 51001 70181 83500;
0112264220999992000020803004+56970+024050FM-12+0007UMRR V0202301N005012200019N0100001N1+00271+00091099891ADDGF104991041001999999031001MD1810091+9999REMSYN060AAXX  08031 26422 /2997 42305 10027 20009 49989 58009 84030;
0112264220999992000020809004+56970+024050FM-12+0007UMRR V0202001N005010042019N0100001N1+00271+00091099571ADDGF108991081051004501999999MD1710191+9999REMSYN060AAXX  08091 26422 42497 82005 10027 20009 49957 57019 885//;
0167264220999992000020812004+56970+024050FM-12+0007UMRR V0201901N006010042019N0100001N1+00351+00171099231ADDAY181061AY221061GF108991081061004501999999MA1999999098911MD1710341+9999MW1021REMSYN078AAXX  08121 26422 41497 81906 10035 20017 39891 49923 57034 70282 886// 91011;
0118264220999992000020815004+56970+024050FM-12+0007UMRR V0201901N005010042019N0100001N1+00421+00221098971ADDGF108991081051004501999999MD1710251+9999REMSYN066AAXX  08151 26422 42497 81905 10042 20022 49897 57025 885// 91010;
0140264220999992000020821004+56970+024050FM-12+0007UMRR V0202201N005010021019N0100001N1+00401+00301098861ADDAY181031AY221031GF108991081091002501999999MD1610041+9999MW1801REMSYN066AAXX  08211 26422 41397 82205 10040 20030 49886 56004 78082 889//;
0167264220999992000020900004+56970+024050FM-12+0007UMRR V0202001N004010021019N0100001N1+00381+00311098841ADDAY181061AY221061GF108991081061002501999999MA1999999098531MD1710021+9999MW1021REMSYN078AAXX  09001 26422 41397 82004 10038 20031 39853 49884 57002 70282 886// 91110;
0161264220999992000020901004+56970+024050FM-12+0007UMRR V0202001N004010021019N0100001N1+00381+00311098841ADDAY181999AY221999GF108991081061002501999999MA1999999098531MD1610021+9999MW1021REMSYN072AAXX  09011 26422 41397 82004 10038 20031 39853 49884 56002 70282 886//;
0140264220999992000020903004+56970+024050FM-12+0007UMRR V0202101N004010021019N0100001N1+00351+00331098801ADDAY151031AY221031GF108991081041002501999999MD1710041+9999MW1021REMSYN066AAXX  09031 26422 /1397 82104 10035 20033 49880 57004 70252 884//;
0157264220999992000020906004+56970+024050FM-12+0007UMRR V0202101N004010012019N0100001N1+00351+00331098851ADDAA112002091AY151061AY221061GF108991081071001501999999MD1310051+9999MW1201REMSYN072AAXX  09061 26422 11297 82104 10035 20033 49885 53005 60022 72052 887//;
0140264220999992000020909004+56970+024050FM-12+0007UMRR V0202001N003010012019N0040001N1+00401+00351099011ADDAY181031AY251031GF108991081091001501999999MD1210151+9999MW1801REMSYN066AAXX  09091 26422 41296 82003 10040 20035 49901 52015 78085 889//;
0161264220999992000020912004+56970+024050FM-12+0007UMRR V0202001N002010021019N0100001N1+00441+00311099181ADDAY181061AY251061GF108991081091002501999999MA1999999098861MD1210171+9999MW1801REMSYN072AAXX  09121 26422 41397 82002 10044 20031 39886 49918 52017 78085 889//;
0140264220999992000020915004+56970+024050FM-12+0007UMRR V0202401N004010042019N0100001N1+00441+00341099461ADDAY181031AY221031GF108991081091004501999999MD1210281+9999MW1801REMSYN066AAXX  09151 26422 41497 82404 10044 20034 49946 52028 78082 889//;
0140264220999992000020921004+56970+024050FM-12+0007UMRR V0202301N003010021019N0100001N1+00331+00251100091ADDAY181031AY251031GF108991081091002501999999MD1210281+9999MW1251REMSYN066AAXX  09211 26422 41397 82303 10033 20025 40009 52028 72585 889//;
0161264220999992000021000004+56970+024050FM-12+0007UMRR V0203301N005010021019N0100001N1+00121+00121100491ADDAY181061AY251061GF108991081061002501999999MA1999999100161MD1210391+9999MW1501REMSYN072AAXX  10001 26422 41397 83305 10012 20012 30016 40049 52039 75085 886//;
0112264220999992000021003004+56970+024050FM-12+0007UMRR V0203301N005010042019N0100001N1+00061-00031100841ADDGF108991081061004501999999MD1210351+9999REMSYN060AAXX  10031 26422 /2497 83305 10006 21003 40084 52035 886//;
0112264220999992000021009004+56970+024050FM-12+0007UMRR V0203001N002019999999N0100001N1+00091-00181101411ADDGF105991011051999999011001MD1210261+9999REMSYN060AAXX  10091 26422 42997 53002 10009 21018 40141 52026 81510;
0133264220999992000021012004+56970+024050FM-12+0007UMRR V0202401N001019999999N0200001N1+00341-00531101461ADDGF105991011001999999031011MA1999999101131MD1010051+9999REMSYN066AAXX  10121 26422 42998 52401 10034 21053 30113 40146 50005 81031;
0112264220999992000021015004+56970+024050FM-12+0007UMRR V0202001N003019999999N0100001N1+00301-00331101441ADDGF106991011051999999031011MD1810021+9999REMSYN060AAXX  10151 26422 42997 62003 10030 21033 40144 58002 81531;
0142264220999992000021018004+56970+024050FM-12+0007UMRR V0201901N004019999999N0000001N1+00181+99999101361ADDAA199000091GF107991021051999999031001MD1710081+9999REMSYN060AAXX  10181 26422 32990 71904 10018 20023 40136 57008 82530;EQDQ01  00002PRCP99
0112264220999992000021021004+56970+024050FM-12+0007UMRR V0201801N006010042019N0100001N1+00171-00141101211ADDGF108991081051004501999999MD1710151+9999REMSYN060AAXX  10211 26422 42497 81806 10017 21014 40121 57015 885//;
0139264220999992000021100004+56970+024050FM-12+0007UMRR V0201801N005010042019N0100001N1+00231+00041100981ADDGF108991081051004501999999MA1999999100651MD1710231+9999REMSYN072AAXX  11001 26422 42497 81805 10023 20004 30065 40098 57023 885// 91010;
0146264220999992000021109004+56970+024050FM-12+0007UMRR V0202601N003010042019N0100001N1+00341+00191100851ADDAY151031AY221031GF108991081051004501999999MD1310161+9999MW1021REMSYN072AAXX  11091 26422 41497 82603 10034 20019 40085 53016 70252 885// 91110;
0161264220999992000021112004+56970+024050FM-12+0007UMRR V0202801N005010300019N0100001N1+00541+00191101101ADDAY151061AY221061GF107991031091008001071001MA1999999100781MD1210251+9999MW1021REMSYN072AAXX  11121 26422 41597 72805 10054 20019 30078 40110 52025 70252 83970;
0122264220999992000021115004+56970+024050FM-12+0007UMRR V0202701N005012200019N0100001N1+00501-00031101321ADDGA1001+999999999GF100991001001999999001001MD1210221+9999REMSYN054AAXX  11151 26422 42997 02705 10050 21003 40132 52022;
0139264220999992000021118004+56970+024050FM-12+0007UMRR V0202501N004012200019N0100001N1+00321+00001101461ADDAA112000791GA1001+999999999GF100991001001999999001001MD1210141+9999REMSYN060AAXX  11181 26422 12997 02504 10032 20000 40146 52014 69902;
0118264220999992000021121004+56970+024050FM-12+0007UMRR V0202601N005010075019N0100001N1+00391+00151101581ADDGF108991081051008001999999MD1210121+9999REMSYN066AAXX  11211 26422 42597 82605 10039 20015 40158 52012 885// 91010;
0139264220999992000021200004+56970+024050FM-12+0007UMRR V0202601N004010075019N0100001N1+00471+00181101671ADDGF107991071051008001999999MA1999999101351MD1210091+9999REMSYN072AAXX  12001 26422 42597 72604 10047 20018 30135 40167 52009 875// 91112;
0142264220999992000021203004+56970+024050FM-12+0007UMRR V0202301N004012200019N0100001N1+00401+00191101761ADDAA199000091GF102991021001999999031001MD1210081+9999REMSYN060AAXX  12031 26422 32997 22304 10040 20019 40176 52008 82030;EQDQ01  00002PRCP99
0144264220999992000021206004+56970+024050FM-12+0007UMRR V0202401N004010063019N0100001N1+00331+00191101871ADDGA1081+006309059GF108991081051008001999999MD1210111+9999REMSYN076AAXX  12061 26422 /2597 82404 10033 20019 40187 52011 885// 333 20/18 88621;
0112264220999992000021209004+56970+024050FM-12+0007UMRR V0202501N004010042019N0100001N1+00481+00211101941ADDGF108991081051004501999999MD1210081+9999REMSYN060AAXX  12091 26422 42497 82504 10048 20021 40194 52008 885//;
0133264220999992000021212004+56970+024050FM-12+0007UMRR V0202601N005010075019N0100001N1+00531+00181101961ADDGF108991081051008001999999MA1999999101641MD1310201+9999REMSYN066AAXX  12121 26422 42597 82605 10053 20018 30164 40196 53020 885//;
0118264220999992000021215004+56970+024050FM-12+0007UMRR V0202401N005010075019N0100001N1+00481+00091101891ADDGF108991081051008001999999MD1810071+9999REMSYN066AAXX  12151 26422 42597 82405 10048 20009 40189 58007 885// 91110;
0142264220999992000021218004+56970+024050FM-12+0007UMRR V0201801N004010075019N0100001N1+00431+00121101801ADDAA199000091GF108991081051008001999999MD1710091+9999REMSYN060AAXX  12181 26422 32597 81804 10043 20012 40180 57009 885//;EQDQ01  00002PRCP99
0131264220999992000021221004+56970+024050FM-12+0007UMRR V0201901N004010120019N0100001N1+00371+00141101631ADDGF108991081051012501999999MD1710171+9999REMSYN060AAXX  12211 26422 42697 81904 10037 20014 40163 57170 885//;EQDQ01+001702APC3  
0139264220999992000021300004+56970+024050FM-12+0007UMRR V0201801N005010120019N0100001N1+00341+00021101371ADDGF108991081051012501999999MA1999999101051MD1710261+9999REMSYN072AAXX  13001 26422 42697 81805 10034 20002 30105 40137 57026 885// 91011;
0148264220999992000021303004+56970+024050FM-12+0007UMRR V0201601N006010120019N0100001N1+00211-00041101081ADDAA199000091GF108991081051012501999999MD1710291+9999REMSYN066AAXX  13031 26422 32697 81606 10021 21004 40108 57029 885// 91012;EQDQ01  00002PRCP99
0146264220999992000021309004+56970+024050FM-12+0007UMRR V0201801N008010042019N0100001N1+00211-00101100521ADDAY181031AY221031GF108991081091004501999999MD1710211+9999MW1851REMSYN072AAXX  13091 26422 41497 81808 10021 21010 40052 57021 78582 889// 91013;
0167264220999992000021312004+56970+024050FM-12+0007UMRR V0202101N004010042019N0100001N1+00191+00081100411ADDAY181061AY221061GF108991071091004501031999MA1999999100091MD1710111+9999MW1261REMSYN078AAXX  13121 26422 41497 82104 10019 20008 30009 40041 57011 72682 8793/ 91113;
0112264220999992000021315004+56970+024050FM-12+0007UMRR V0202501N003010300019N0100001N1+00291-00071100421ADDGF105991031091008001031999MD1110011+9999REMSYN060AAXX  13151 26422 42597 52503 10029 21007 40042 51001 8393/;
0129264220999992000021318004+56970+024050FM-12+0007UMRR V0202001N003010075019N0100001N1+00081-00031100511ADDAA112001091GF107991071051008001999999MD1210081+9999REMSYN066AAXX  13181 26422 12597 72003 10008 21003 40051 52008 69992 875//;
0112264220999992000021321004+56970+024050FM-12+0007UMRR V0201901N004019999999N0100001N1+00081-00031100461ADDGF107991071001999999031001MD1810051+9999REMSYN060AAXX  13211 26422 42997 71904 10008 21003 40046 58005 87030;
0133264220999992000021400004+56970+024050FM-12+0007UMRR V0201901N004010042019N0100001N1+00071-00041100351ADDGF108991081051004501999999MA1999999100021MD1710111+9999REMSYN066AAXX  14001 26422 42497 81904 10007 21004 30002 40035 57011 885//;
0142264220999992000021403004+56970+024050FM-12+0007UMRR V0201901N003010042019N0100001N1+00031-00051100271ADDAA199000091GF108991081051004501999999MD1710081+9999REMSYN060AAXX  14031 26422 32497 81903 10003 21005 40027 57008 885//;EQDQ01  00002PRCP99
0142264220999992000021406004+56970+024050FM-12+0007UMRR V0202001N004010300019N0100001N1-00031-00091100221ADDAA199000091GF107991041091004501071001MD1510051+9999REMSYN060AAXX  14061 26422 32497 72004 11003 21009 40022 55005 84970;EQDQ01  00002PRCP99
0161264220999992000021412004+56970+024050FM-12+0007UMRR V0202801N003019999999N0100001N1+00281+00001100351ADDAY181061AY221061GF108991061051999999031999MA1999999100031MD1210091+9999MW1021REMSYN072AAXX  14121 26422 41997 82803 10028 20000 30003 40035 52009 70282 8653/;
0112264220999992000021415004+56970+024050FM-12+0007UMRR V0202401N002010120019N0100001N1+00231-00081100501ADDGF106991061051012501001001MD1210151+9999REMSYN060AAXX  14151 26422 42697 62402 10023 21008 40050 52015 86500;
0129264220999992000021418004+56970+024050FM-12+0007UMRR V0202901N003010075019N0100001N1+00141-00151100721ADDAA112000591GF107991071051008001001001MD1210211+9999REMSYN066AAXX  14181 26422 12597 72903 10014 21015 40072 52021 69942 87500;
0138264220999992000021421004+56970+024050FM-12+0007UMRR V0202501N002010066019N0100001N1+00051-00181100851ADDGA1081+006609059GF108991081051008001999999MD1210131+9999REMSYN070AAXX  14211 26422 42597 82502 10005 21018 40085 52013 885// 333 88622;
0133264220999992000021500004+56970+024050FM-12+0007UMRR V0202801N004010120019N0100001N1+00101-00021100941ADDGF106991061051012501001001MA1999999100611MD1210091+9999REMSYN066AAXX  15001 26422 42697 62804 10010 21002 30061 40094 52009 86500;
0142264220999992000021503004+56970+024050FM-12+0007UMRR V0202501N003012200019N0100001N1-00081-00211100981ADDAA199000091GF102991011001999999031011MD1110041+9999REMSYN060AAXX  15031 26422 32997 22503 11008 21021 40098 51004 81031;EQDQ01  00002PRCP99
0142264220999992000021506004+56970+024050FM-12+0007UMRR V0202101N003012200019N0100001N1-00251-00291100961ADDAA199000091GF104991001001999999001011MD1810021+9999REMSYN060AAXX  15061 26422 32997 42103 11025 21029 40096 58002 80001;EQDQ01  00002PRCP99
0112264220999992000021509004+56970+024050FM-12+0007UMRR V0202201N004010300019N0100001N1-00051-00171100931ADDGF108991021051008001031999MD1810031+9999REMSYN060AAXX  15091 26422 42597 82204 11005 21017 40093 58003 8253/;
0133264220999992000021512004+56970+024050FM-12+0007UMRR V0202101N004010042019N0100001N1+00171-00081100771ADDGF108991081051004501999999MA1999999100441MD1710161+9999REMSYN066AAXX  15121 26422 42497 82104 10017 21008 30044 40077 57016 885//;
0140264220999992000021515004+56970+024050FM-12+0007UMRR V0202201N005010042019N0100001N1+00101-00221100671ADDAY181031AY221031GF108991081091004501999999MD1710101+9999MW1851REMSYN066AAXX  15151 26422 41497 82205 10010 21022 40067 57010 78582 889//;
0157264220999992000021518004+56970+024050FM-12+0007UMRR V0201901N004010021019N0040001N1-00061-00151100521ADDAA112000891AY181061AY221061GF108991081091002501999999MD1710151+9999MW1851REMSYN072AAXX  15181 26422 11396 81904 11006 21015 40052 57015 69972 78582 889//;
0161264220999992000021600004+56970+024050FM-12+0007UMRR V0201801N005010021019N0040001N1-00041-00101100121ADDAY181061AY271061GF108991081001002501021999MA1999999099791MD1710221+9999MW1731REMSYN072AAXX  16001 26422 41396 81805 11004 21010 39979 40012 57022 77387 8802/;
0140264220999992000021603004+56970+024050FM-12+0007UMRR V0202001N005010021019N0040001N1+00031+00001099961ADDAY171031AY221031GF108991081001002501021999MD1710151+9999MW1711REMSYN066AAXX  16031 26422 /1396 82005 10003 20000 49996 57015 77172 8802/;
0112264220999992000021609004+56970+024050FM-12+0007UMRR V0201901N003010120019N0040001N1+00181+00101099981ADDGF108991081051012501999999MD1310031+9999REMSYN060AAXX  16091 26422 42696 81903 10018 20010 49998 53003 885//;
0161264220999992000021612004+56970+024050FM-12+0007UMRR V0201701N003010021019N0040001N1+00231+00211099981ADDAY181061AY251061GF108991081031002501001999MA1999999099661MD1410001+9999MW1801REMSYN072AAXX  16121 26422 41396 81703 10023 20021 39966 49998 54000 78085 8830/;
0140264220999992000021615004+56970+024050FM-12+0007UMRR V0201601N003010021019N0100001N1+00251+00221099931ADDAY181031AY251031GF108991081061002501999999MD1810051+9999MW1501REMSYN066AAXX  16151 26422 41397 81603 10025 20022 49993 58005 75085 886//;
0157264220999992000021618004+56970+024050FM-12+0007UMRR V0201601N004010300019N0100001N1+00121+00091099891ADDAA112000591AY181061AY221061GF108991031051008001071999MD1710041+9999MW1021REMSYN072AAXX  16181 26422 11597 81604 10012 20009 49989 57004 69942 70282 8357/;
0140264220999992000021621004+56970+024050FM-12+0007UMRR V0201201N003010042019N0100001N1+00131+00041099741ADDAY161031AY221031GF108991081001004501021999MD1710151+9999MW1211REMSYN066AAXX  16211 26422 41497 81203 10013 20004 49974 57015 72162 8802/;
0161264220999992000021700004+56970+024050FM-12+0007UMRR V0201401N004010021019N0100001N1+00061+00031099551ADDAY161061AY221061GF108991081001002501021999MA1999999099231MD1710191+9999MW1611REMSYN072AAXX  17001 26422 41397 81404 10006 20003 39923 49955 57019 76162 8802/;
0140264220999992000021703004+56970+024050FM-12+0007UMRR V0201701N004010012019N0100001N1+00111+00081099471ADDAY171031AY251031GF108991081061001501999999MD1710081+9999MW1511REMSYN066AAXX  17031 26422 /1297 81704 10011 20008 49947 57008 75175 886//;
0215264220999992000021706004+56970+024050FM-12+0007UMRR V0201901N005019999999N0100001N1+00161+00101099611ADDAA112003091AJ100019199999999AY171061AY251061GF108991021061999999011999IA1279KA1120N+00051MD1310141+9999MW1021REMSYN094AAXX  17061 26422 11997 81905 10016 20010 49961 53014 60032 70275 8261/ 333 20005 43001 8271/;
0118264220999992000021709004+56970+024050FM-12+0007UMRR V0201901N006019999999N0100001N1+00211+00041099791ADDGF107991061051999999031001MD1210181+9999REMSYN066AAXX  17091 26422 42997 71906 10021 20004 49979 52018 86530 91011;
0139264220999992000021712004+56970+024050FM-12+0007UMRR V0201901N006010075019N0100001N1+00231+00011099921ADDGF107991071051008001001001MA1999999099601MD1210131+9999REMSYN072AAXX  17121 26422 42597 71906 10023 20001 39960 49992 52013 87500 91011;
0118264220999992000021715004+56970+024050FM-12+0007UMRR V0202201N004010075019N0100001N1+00171-00121100141ADDGF108991081051008001999999MD1210221+9999REMSYN066AAXX  17151 26422 42597 82204 10017 21012 40014 52022 885// 91112;
0148264220999992000021718004+56970+024050FM-12+0007UMRR V0201901N002019999999N0100001N1+00051-00131100301ADDAA199000091GF108991001001999999001051MD1210161+9999REMSYN066AAXX  17181 26422 32997 81902 10005 21013 40030 52016 80005 91112;EQDQ01  00002PRCP99
0112264220999992000021721004+56970+024050FM-12+0007UMRR V0202301N001019999999N0100001N1-00031-00181100411ADDGF108991001001999999001051MD1110101+9999REMSYN060AAXX  17211 26422 42997 82301 11003 21018 40041 51010 80005;
0133264220999992000021800004+56970+024050FM-12+0007UMRR V0202101N002019999999N0100001N1-00071-00261100481ADDGF108991001001999999001051MA1999999100151MD1210071+9999REMSYN066AAXX  18001 26422 42997 82102 11007 21026 30015 40048 52007 80005;
0142264220999992000021803004+56970+024050FM-12+0007UMRR V0203201N002019999999N0100001N1-00031-00091100471ADDAA199000091GF108991081001999999011999MD1810011+9999REMSYN060AAXX  18031 26422 32997 83202 11003 21009 40047 58001 8801/;EQDQ01  00002PRCP99
0170264220999992000021806004+56970+024050FM-12+0007UMRR V0203501N002010042019N0040001N1+00001-00031100551ADDAA199000091AY121061AY221061GF108991081051004501999999MD1310081+9999MW1101REMSYN066AAXX  18061 26422 31496 83502 10000 21003 40055 53008 71022 885//;EQDQ01  00002PRCP99
0112264220999992000021809004+56970+024050FM-12+0007UMRR V0203501N003010042019N0100001N1+00081-00131100651ADDGF107991061051004501031001MD1210101+9999REMSYN060AAXX  18091 26422 42497 73503 10008 21013 40065 52010 86530;
0133264220999992000021812004+56970+024050FM-12+0007UMRR V0203401N004012200019N0100001N1+00141-00251100711ADDGF104991021011008001001011MA1999999100381MD1110061+9999REMSYN066AAXX  18121 26422 42597 43404 10014 21025 30038 40071 51006 82101;
0112264220999992000021815004+56970+024050FM-12+0007UMRR V0203601N002012200019N0100001N1+00041-00271100821ADDGF102991001001999999001011MD1210111+9999REMSYN060AAXX  18151 26422 42997 23602 10004 21027 40082 52011 80001;
0142264220999992000021818004+56970+024050FM-12+0007UMRR V0209999C000012200019N0100001N1-00221-00321100901ADDAA199000091GF102991001001999999001011MD1210081+9999REMSYN060AAXX  18181 26422 32997 20000 11022 21032 40090 52008 80001;EQDQ01  00002PRCP99
0138264220999992000021821004+56970+024050FM-12+0007UMRR V0203401N002010075019N0100001N1-00131-00271100961ADDGA1081+007509059GF108991081051008001999999MD1210061+9999REMSYN070AAXX  18211 26422 42597 83402 11013 21027 40096 52006 885// 333 88625;
0133264220999992000021900004+56970+024050FM-12+0007UMRR V0203501N002010075019N0100001N1-00061-00411101011ADDGF108991081051008001999999MA1999999100681MD1210051+9999REMSYN066AAXX  19001 26422 42597 83502 11006 21041 30068 40101 52005 885//;
0142264220999992000021903004+56970+024050FM-12+0007UMRR V0200401N002010075019N0100001N1-00051-00431101091ADDAA199000091GF108991081051008001999999MD1210081+9999REMSYN060AAXX  19031 26422 32597 80402 11005 21043 40109 52008 885//;EQDQ01  00002PRCP99
0142264220999992000021906004+56970+024050FM-12+0007UMRR V0200601N003010075019N0100001N1-00091-00481101201ADDAA199000091GF108991081051008001999999MD1210111+9999REMSYN060AAXX  19061 26422 32597 80603 11009 21048 40120 52011 885//;EQDQ01  00002PRCP99
0112264220999992000021909004+56970+024050FM-12+0007UMRR V0200801N002010075019N0100001N1-00091-00511101291ADDGF108991081051008001999999MD1210091+9999REMSYN060AAXX  19091 26422 42597 80802 11009 21051 40129 52009 885//;
0133264220999992000021912004+56970+024050FM-12+0007UMRR V0200601N002010075019N0100001N1-00081-00611101361ADDGF108991081051008001999999MA1999999101031MD1210071+9999REMSYN066AAXX  19121 26422 42597 80602 11008 21061 30103 40136 52007 885//;
0112264220999992000021915004+56970+024050FM-12+0007UMRR V0200301N003010075019N0100001N1-00101-00601101421ADDGF108991081051008001999999MD1310061+9999REMSYN060AAXX  19151 26422 42597 80303 11010 21060 40142 53006 885//;
0152264220999992000021918004+56970+024050FM-12+0007UMRR V0200301N003012200019N0100001N1-00251-00691101441ADDAA199000091GA1001+999999999GF100991001001999999001001MD1110021+9999REMSYN054AAXX  19181 26422 32997 00303 11025 21069 40144 51002;EQDQ01  00002PRCP99
0112264220999992000021921004+56970+024050FM-12+0007UMRR V0200301N003012200019N0100001N1-00341-00671101561ADDGF104991001001999999001091MD1210121+9999REMSYN060AAXX  19211 26422 42997 40303 11034 21067 40156 52012 80009;
0143264220999992000022000004+56970+024050FM-12+0007UMRR V0200301N003012200019N0100001N1-00421-00681101641ADDGA1001+999999999GF100991001001999999001001MA1999999101301MD1210071+9999REMSYN060AAXX  20001 26422 42997 00303 11042 21068 30130 40164 52007;
0142264220999992000022003004+56970+024050FM-12+0007UMRR V0200201N003012200019N0100001N1-00531-00831101691ADDAA199000091GF101991001001999999001031MD1210051+9999REMSYN060AAXX  20031 26422 32997 10203 11053 21083 40169 52005 80003;EQDQ01  00002PRCP99
0142264220999992000022006004+56970+024050FM-12+0007UMRR V0200401N002012200019N0100001N1-00671-00801101801ADDAA199000091GF103991021001999999041091MD1210111+9999REMSYN060AAXX  20061 26422 32997 30402 11067 21080 40180 52011 82049;EQDQ01  00002PRCP99
0112264220999992000022009004+56970+024050FM-12+0007UMRR V0200301N003012200019N0100001N1-00311-00701101911ADDGF102991001001999999001031MD1210111+9999REMSYN060AAXX  20091 26422 42997 20303 11031 21070 40191 52011 80003;
0133264220999992000022012004+56970+024050FM-12+0007UMRR V0203501N004012200019N0100001N1-00081-00651101931ADDGF101991001001999999001031MA1999999101601MD1110031+9999REMSYN066AAXX  20121 26422 42997 13504 11008 21065 30160 40193 51003 80003;
0112264220999992000022015004+56970+024050FM-12+0007UMRR V0203401N005012200019N0100001N1-00061-00341101971ADDGF103991001001999999001091MD1210041+9999REMSYN060AAXX  20151 26422 42997 33405 11006 21034 40197 52004 80009;
0142264220999992000022018004+56970+024050FM-12+0007UMRR V0203401N002010042019N0100001N1-00091-00161102001ADDAA199000091GF108991081051004501999999MD1210031+9999REMSYN060AAXX  20181 26422 32497 83402 11009 21016 40200 52003 885//;EQDQ01  00002PRCP99
0166264220999992000022021004+56970+024050FM-12+0007UMRR V0203601N003010093019N0100001N1-00091-00391102041ADDAY181031AY221031GA1081+009309059GF108991081051008001999999MD1210041+9999MW1021REMSYN076AAXX  20211 26422 41597 83603 11009 21039 40204 52004 70282 885// 333 88631;
0161264220999992000022100004+56970+024050FM-12+0007UMRR V0203601N003010075019N0100001N1-00161-00511102101ADDAY181061AY221061GF108991081051008001999999MA1999999101771MD1210061+9999MW1021REMSYN072AAXX  21001 26422 41597 83603 11016 21051 30177 40210 52006 70282 885//;
0112264220999992000022103004+56970+024050FM-12+0007UMRR V0203401N004010042019N0100001N1-00231-00601102101ADDGF108991081051004501999999MD1410001+9999REMSYN060AAXX  21031 26422 /2497 83404 11023 21060 40210 54000 885//;
0129264220999992000022106004+56970+024050FM-12+0007UMRR V0200401N003010075019N0100001N1-00281-00711102161ADDAA112000791GF108991081051008001999999MD1310051+9999REMSYN066AAXX  21061 26422 12597 80403 11028 21071 40216 53005 69902 885//;
0140264220999992000022109004+56970+024050FM-12+0007UMRR V0203501N003010300019N0100001N1-00131-00531102201ADDAY181031AY221031GF108991031091008001071999MD1110051+9999MW1261REMSYN066AAXX  21091 26422 41597 83503 11013 21053 40220 51005 72682 8397/;
0161264220999992000022112004+56970+024050FM-12+0007UMRR V0203401N004010120019N0100001N1-00011-00421102241ADDAY181061AY221061GF107991071091012501001001MA1999999101911MD1310041+9999MW1021REMSYN072AAXX  21121 26422 41697 73404 11001 21042 30191 40224 53004 70282 87900;
0112264220999992000022115004+56970+024050FM-12+0007UMRR V0203601N004012200019N0100001N1-00061-00551102241ADDGF104991041021008001001001MD1410001+9999REMSYN060AAXX  21151 26422 42597 43604 11006 21055 40224 54000 84200;
0129264220999992000022118004+56970+024050FM-12+0007UMRR V0203301N005010120019N0100001N1-00051-00701102271ADDAA112000791GF107991071051012501001001MD1310031+9999REMSYN066AAXX  21181 26422 12697 73305 11005 21070 40227 53003 69902 87500;
0133264220999992000022200004+56970+024050FM-12+0007UMRR V0203101N004010120019N0100001N1-00051-00631102231ADDGF108991081051012501999999MA1999999101901MD1810041+9999REMSYN066AAXX  22001 26422 42697 83104 11005 21063 30190 40223 58004 885//;
0140264220999992000022203004+56970+024050FM-12+0007UMRR V0203201N004010120019N0100001N1-00071-00421102181ADDAY181031AY221031GF108991081051012501999999MD1710051+9999MW1021REMSYN066AAXX  22031 26422 /1697 83204 11007 21042 40218 57005 70282 885//;
0157264220999992000022206004+56970+024050FM-12+0007UMRR V0203401N004010120019N0100001N1-00111-00811102181ADDAA112000791AY181061AY211061GF107991061091012501031001MD1510001+9999MW1031REMSYN072AAXX  22061 26422 11697 73404 11011 21081 40218 55000 69902 70381 86930;
0140264220999992000022209004+56970+024050FM-12+0007UMRR V0203001N004010300019N0100001N1-00021-00521102241ADDAY181031AY221031GF105991041091012501061001MD1210061+9999MW1261REMSYN066AAXX  22091 26422 41697 53004 11002 21052 40224 52006 72682 84960;
0161264220999992000022212004+56970+024050FM-12+0007UMRR V0203201N005012200019N0100001N1+00031-00491102261ADDAY181061AY211061GF104991021021999999061001MA1999999101931MD1310021+9999MW1011REMSYN072AAXX  22121 26422 41997 43205 10003 21049 30193 40226 53002 70181 82260;
0112264220999992000022215004+56970+024050FM-12+0007UMRR V0203601N004012200019N0200001N1-00041-00621102261ADDGF102991021021008001001001MD1410001+9999REMSYN060AAXX  22151 26422 42598 23604 11004 21062 40226 54000 82200;
0148264220999992000022218004+56970+024050FM-12+0007UMRR V0203501N002012200019N0200001N1-00311-00561102301ADDAA112000791GF101991999001999999041001MD1310031+9999REMSYN066AAXX  22181 26422 12998 13502 11031 21056 40230 53003 69902 80040;EQDQ01+000002SCOTLC
0122264220999992000022221004+56970+024050FM-12+0007UMRR V0200101N002012200019N0200001N1-00391-00581102341ADDGA1001+999999999GF100991001001999999001001MD1210041+9999REMSYN054AAXX  22211 26422 42998 00102 11039 21058 40234 52004;
0149264220999992000022300004+56970+024050FM-12+0007UMRR V0200901N001012200019N0100001N1-00591-00671102391ADDGA1001+999999999GF100991001001999999001001MA1999999102051MD1210051+9999REMSYN066AAXX  23001 26422 42997 00901 11059 21067 30205 40239 52005 93500;
0176264220999992000022303004+56970+024050FM-12+0007UMRR V0201301N001012200019N0040001N1-00741-00841102391ADDAA199000091AY101031AY201031GF102991001001999999001041MD1410001+9999MW1101REMSYN072AAXX  23031 26422 31996 21301 11074 21084 40239 54000 71000 80004 93595;EQDQ01  00002PRCP99
0176264220999992000022306004+56970+024050FM-12+0007UMRR V0201001N002019999999N0040001N1-00731-00831102481ADDAA199000091AY111061AY211061GF107991071051999999001001MD1310091+9999MW1101REMSYN072AAXX  23061 26422 31996 71002 11073 21083 40248 53009 71011 87500 93596;EQDQ01  00002PRCP99
0118264220999992000022309004+56970+024050FM-12+0007UMRR V0201101N002012200019N0100001N1-00461-00771102581ADDGF102991021001999999031001MD1210101+9999REMSYN066AAXX  23091 26422 42997 21102 11046 21077 40258 52010 82030 93596;
0139264220999992000022312004+56970+024050FM-12+0007UMRR V0200301N002010042019N0100001N1-00391-00801102591ADDGF108991081091004501999999MA1999999102251MD1310011+9999REMSYN072AAXX  23121 26422 42497 80302 11039 21080 30225 40259 53001 889// 93596;
0112264220999992000022315004+56970+024050FM-12+0007UMRR V0200201N003010042019N0100001N1-00481-00841102611ADDGF107991071091004501001001MD1310021+9999REMSYN060AAXX  23151 26422 42497 70203 11048 21084 40261 53002 87900;
0142264220999992000022318004+56970+024050FM-12+0007UMRR V0200901N003010042019N0100001N1-00651-00971102661ADDAA199000091GF106991061091004501999999MD1110051+9999REMSYN060AAXX  23181 26422 32497 60903 11065 21097 40266 51005 869//;EQDQ01  00002PRCP99
0112264220999992000022321004+56970+024050FM-12+0007UMRR V0200401N001010042019N0100001N1-00711-01001102701ADDGF107991071091004501001001MD1210041+9999REMSYN060AAXX  23211 26422 42497 70401 11071 21100 40270 52004 87900;
0133264220999992000022400004+56970+024050FM-12+0007UMRR V0201001N002010042019N0100001N1-00721-01011102681ADDGF108991081091004501999999MA1999999102341MD1810021+9999REMSYN066AAXX  24001 26422 42497 81002 11072 21101 30234 40268 58002 889//;
0142264220999992000022403004+56970+024050FM-12+0007UMRR V0201301N001010042019N0100001N1-00761-01061102641ADDAA199000091GF108991081091004501999999MD1710041+9999REMSYN060AAXX  24031 26422 32497 81301 11076 21106 40264 57004 889//;EQDQ01  00002PRCP99
0157264220999992000022406004+56970+024050FM-12+0007UMRR V0201501N001010042019N0100001N1-00791-01061102651ADDAA112000791AY181061AY221061GF108991081091004501999999MD1010001+9999MW1851REMSYN072AAXX  24061 26422 11497 81501 11079 21106 40265 50000 69902 78582 889//;
0140264220999992000022409004+56970+024050FM-12+0007UMRR V0201801N003010042019N0100001N1-00781-01061102551ADDAY181031AY221031GF108991081091004501999999MD1710091+9999MW1851REMSYN066AAXX  24091 26422 41497 81803 11078 21106 40255 57009 78582 889//;
0161264220999992000022412004+56970+024050FM-12+0007UMRR V0201701N005010042019N0100001N1-00711-01011102351ADDAY181061AY221061GF108991081091004501999999MA1999999102011MD1710201+9999MW1261REMSYN072AAXX  24121 26422 41497 81705 11071 21101 30201 40235 57020 72682 889//;
0112264220999992000022415004+56970+024050FM-12+0007UMRR V0201401N005019999999N0100001N1-00631-01001102011ADDGF108991021001999999071091MD1710341+9999REMSYN060AAXX  24151 26422 42997 81405 11063 21100 40201 57034 82079;
0129264220999992000022418004+56970+024050FM-12+0007UMRR V0201501N004019999999N0100001N1-00511-00771101681ADDAA112000791GF108991081001999999071999MD1710331+9999REMSYN066AAXX  24181 26422 12997 81504 11051 21077 40168 57033 69902 8807/;
0140264220999992000022421004+56970+024050FM-12+0007UMRR V0201301N005010021019N0100001N1-00451-00731101241ADDAY171031AY221031GF108991081001002501021999MD1710431+9999MW1711REMSYN066AAXX  24211 26422 41397 81305 11045 21073 40124 57043 77172 8802/;
0165264220999992000022503004+56970+024050FM-12+0007UMRR V0201401N003010021019N0040001N1-00331-00411100402ADDAY171031AY221031GF108991081051002501999999MD1710221+9999MW1221REMSYN072AAXX  25031 26422 /1396 81403 11033 21041 40040 57022 72272 885// 91111;EQDQ01+100403APOSLP
0140264220999992000022509004+56970+024050FM-12+0007UMRR V0202401N002010075019N0040001N1+00031+00001100611ADDAY181031AY221031GF108991081091008001999999MD1310061+9999MW1261REMSYN066AAXX  25091 26422 41596 82402 10003 20000 40061 53006 72682 889//;
0161264220999992000022512004+56970+024050FM-12+0007UMRR V0202801N003010075019N0100001N1+00251-00081100701ADDAY181061AY221061GF108991081051008001999999MA1999999100381MD1210101+9999MW1021REMSYN072AAXX  25121 26422 41597 82803 10025 21008 30038 40070 52010 70282 885//;
0112264220999992000022515004+56970+024050FM-12+0007UMRR V0202601N002010042019N0100001N1+00231-00051100741ADDGF108991081091004501999999MD1110041+9999REMSYN060AAXX  25151 26422 42497 82602 10023 21005 40074 51004 889//;
0129264220999992000022518004+56970+024050FM-12+0007UMRR V0202401N002010075019N0100001N1+00151-00051100801ADDAA112000591GF108991081091008001999999MD1210051+9999REMSYN066AAXX  25181 26422 12597 82402 10015 21005 40080 52005 69942 889//;
0112264220999992000022521004+56970+024050FM-12+0007UMRR V0202601N003010042019N0100001N1+00101+00051100871ADDGF108991081091004501999999MD1210071+9999REMSYN060AAXX  25211 26422 42497 82603 10010 20005 40087 52007 889//;
0161264220999992000022600004+56970+024050FM-12+0007UMRR V0202901N003010075019N0100001N1+00101+00051100971ADDAY181061AY221061GF108991081051008001999999MA1999999100641MD1210101+9999MW1021REMSYN072AAXX  26001 26422 41597 82903 10010 20005 30064 40097 52010 70282 885//;
0112264220999992000022603004+56970+024050FM-12+0007UMRR V0203101N003010120019N0100001N1+00071-00011101191ADDGF108991081051012501999999MD1210221+9999REMSYN060AAXX  26031 26422 /2697 83103 10007 21001 40119 52022 885//;
0140264220999992000022609004+56970+024050FM-12+0007UMRR V0203501N004010075019N0100001N1+00031-00311101641ADDAY181031AY221031GF108991081051008001999999MD1210281+9999MW1021REMSYN066AAXX  26091 26422 41597 83504 10003 21031 40164 52028 70282 885//;
0161264220999992000022612004+56970+024050FM-12+0007UMRR V0203301N004010075019N0100001N1+00051-00291101821ADDAY181061AY221061GF108991081051008001999999MA1999999101491MD1210181+9999MW1021REMSYN072AAXX  26121 26422 41597 83304 10005 21029 30149 40182 52018 70282 885//;
0112264220999992000022615004+56970+024050FM-12+0007UMRR V0203301N004010075019N0100001N1+00051-00261101931ADDGF108991081051008001999999MD1210111+9999REMSYN060AAXX  26151 26422 42597 83304 10005 21026 40193 52011 885//;
0129264220999992000022618004+56970+024050FM-12+0007UMRR V0203301N003010075019N0100001N1+00011-00241102071ADDAA112000191GF108991081051008001999999MD1210141+9999REMSYN066AAXX  26181 26422 12597 83303 10001 21024 40207 52014 69912 885//;
0112264220999992000022621004+56970+024050FM-12+0007UMRR V0203201N003010075019N0100001N1+00021-00251102231ADDGF108991081051008001999999MD1210161+9999REMSYN060AAXX  26211 26422 42597 83203 10002 21025 40223 52016 885//;
0133264220999992000022700004+56970+024050FM-12+0007UMRR V0202301N001010075019N0100001N1-00041-00221102301ADDGF108991081051008001999999MA1999999101971MD1210071+9999REMSYN066AAXX  27001 26422 42597 82301 11004 21022 30197 40230 52007 885//;
0142264220999992000022703004+56970+024050FM-12+0007UMRR V0201901N002010042019N0100001N1-00051-00241102381ADDAA199000091GF107991071051004501001001MD1210081+9999REMSYN060AAXX  27031 26422 32497 71902 11005 21024 40238 52008 87500;EQDQ01  00002PRCP99
0112264220999992000022709004+56970+024050FM-12+0007UMRR V0202001N004010042019N0100001N1+00111-00121102471ADDGF108991081051004501999999MD1210041+9999REMSYN060AAXX  27091 26422 42497 82004 10011 21012 40247 52004 885//;
0133264220999992000022712004+56970+024050FM-12+0007UMRR V0201801N003010021019N0100001N1+00311+00091102491ADDGF108991081051002501999999MA1999999102161MD1010021+9999REMSYN066AAXX  27121 26422 42397 81803 10031 20009 30216 40249 50002 885//;
0112264220999992000022715004+56970+024050FM-12+0007UMRR V0202001N004019999999N0100001N1+00371+00101102371ADDGF108991031001999999071041MD1710121+9999REMSYN060AAXX  27151 26422 42997 82004 10037 20010 40237 57012 83074;
0148264220999992000022718004+56970+024050FM-12+0007UMRR V0202101N005012200019N0100001N1+00231+00001102341ADDAA199000091GF102991021001999999031001MD1610031+9999REMSYN066AAXX  27181 26422 32997 22105 10023 20000 40234 56003 82030 91010;EQDQ01  00002PRCP99
0118264220999992000022721004+56970+024050FM-12+0007UMRR V0201801N005010300019N0100001N1+00171+00001102191ADDGF106991021061004501031001MD1710151+9999REMSYN066AAXX  27211 26422 42497 61805 10017 20000 40219 57015 82630 91010;
0149264220999992000022800004+56970+024050FM-12+0007UMRR V0202001N005012200019N0100001N1+00211+00011101901ADDGA1001+999999999GF100991001001999999001001MA1999999101571MD1710291+9999REMSYN066AAXX  28001 26422 42997 02005 10021 20001 30157 40190 57029 91112;
0148264220999992000022803004+56970+024050FM-12+0007UMRR V0202101N006019999999N0100001N1+00351-00011101491ADDAA199000091GF108991001001999999001041MD1710401+9999REMSYN066AAXX  28031 26422 32997 82106 10035 21001 40149 57040 80004 91012;EQDQ01  00002PRCP99
0118264220999992000022809004+56970+024050FM-12+0007UMRR V0202201N007019999999N0100001N1+00491-00081101081ADDGF108991081001999999011999MD1710161+9999REMSYN066AAXX  28091 26422 42997 82207 10049 21008 40108 57016 8801/ 91013;
0139264220999992000022812004+56970+024050FM-12+0007UMRR V0202001N008019999999N0100001N1+00761+00021100841ADDGF108991081001000251071999MA1999999100521MD1710241+9999REMSYN072AAXX  28121 26422 42097 82008 10076 20002 30052 40084 57024 8807/ 91016;
0118264220999992000022815004+56970+024050FM-12+0007UMRR V0201901N007019999999N0100001N1+00861+00121100631ADDGF108991041001999999031041MD1710211+9999REMSYN066AAXX  28151 26422 42997 81907 10086 20012 40063 57021 84034 91012;
0148264220999992000022818004+56970+024050FM-12+0007UMRR V0202001N006019999999N0100001N1+00711-00111100561ADDAA199000091GF105991051001999999071999MD1610071+9999REMSYN066AAXX  28181 26422 32997 52006 10071 21011 40056 56007 8507/ 91011;EQDQ01  00002PRCP99
0118264220999992000022821004+56970+024050FM-12+0007UMRR V0201901N006019999999N0100001N1+00681-00111100391ADDGF107991051001999999071011MD1710171+9999REMSYN066AAXX  28211 26422 42997 71906 10068 21011 40039 57017 85071 91011;
0167264220999992000022900004+56970+024050FM-12+0007UMRR V0202201N004010075019N0100001N1+00731-00021100331ADDAY181061AY221061GF108991081091008001999999MA1999999100011MD1710061+9999MW1251REMSYN078AAXX  29001 26422 41597 82204 10073 21002 30001 40033 57006 72582 889// 91111;
0146264220999992000022903004+56970+024050FM-12+0007UMRR V0202301N005010075019N0100001N1+00661+00301100451ADDAY181031AY221031GF107991071091008001001001MD1310121+9999MW1251REMSYN072AAXX  29031 26422 /1597 72305 10066 20030 40045 53012 72582 87900 91113;
0146264220999992000022909004+56970+024050FM-12+0007UMRR V0202501N007010042019N0100001N1+00561-00061100931ADDAY181031AY211031GF106991061021004501001001MD1210221+9999MW1031REMSYN072AAXX  29091 26422 41497 62507 10056 21006 40093 52022 70381 86200 91013;
0167264220999992000022912004+56970+024050FM-12+0007UMRR V0202701N006012200019N0200001N1+00731-00121101101ADDAY181061AY211061GF103991021021008001001011MA1999999100781MD1210171+9999MW1011REMSYN078AAXX  29121 26422 41598 32706 10073 21012 30078 40110 52017 70181 82201 91012;
0118264220999992000022915004+56970+024050FM-12+0007UMRR V0202401N005019999999N0100001N1+00661-00151101111ADDGF108991021001999999031061MD1010011+9999REMSYN066AAXX  29151 26422 42997 82405 10066 21015 40111 50001 82036 91010;
0135264220999992000022918004+56970+024050FM-12+0007UMRR V0202001N004019999999N0100001N1+00361+00011101071ADDAA112000791GF108991001001999999001081MD1710041+9999REMSYN072AAXX  29181 26422 12997 82004 10036 20001 40107 57004 69902 80008 91113;
0112264220999992000022921004+56970+024050FM-12+0007UMRR V0201801N004012200019N0100001N1+00251-00031100881ADDGF101991011001999999041001MD1710191+9999REMSYN060AAXX  29211 26422 42997 11804 10025 21003 40088 57019 81040;
0133264220999992000030100004+56970+024050FM-12+0007UMRR V0201601N003012200019N0100001N1+00241-00041100551ADDGF104991041001999999041001MA1999999100231MD1710331+9999REMSYN066AAXX  01001 26422 42997 41603 10024 21004 30023 40055 57033 84040;
0142264220999992000030103004+56970+024050FM-12+0007UMRR V0201601N005019999999N0100001N1+00271+00051100111ADDAA199000091GF107991071001999999051001MD1710441+9999REMSYN060AAXX  01031 26422 32997 71605 10027 20005 40011 57044 87050;EQDQ01  00002PRCP99
0146264220999992000030109004+56970+024050FM-12+0007UMRR V0201701N006010042019N0040001N1+00371+00291099391ADDAY161031AY221031GF108991081001004501021999MD1710331+9999MW1611REMSYN072AAXX  01091 26422 41496 81706 10037 20029 49939 57033 76162 8802/ 91010;
0167264220999992000030112004+56970+024050FM-12+0007UMRR V0201801N007010042019N0040001N1+00391+00261099131ADDAY161061AY221061GF108991081051004501999999MA1999999098811MD1710261+9999MW1101REMSYN078AAXX  01121 26422 41496 81807 10039 20026 39881 49913 57026 71062 885// 91012;
0146264220999992000030115004+56970+024050FM-12+0007UMRR V0201801N007010042019N0040001N1+00481+00301098981ADDAY161031AY221031GF108991081001004501021999MD1710151+9999MW1611REMSYN072AAXX  01151 26422 41496 81807 10048 20030 49898 57015 76162 8802/ 91013;
0118264220999992000030121004+56970+024050FM-12+0007UMRR V0202001N004010075019N0100001N1+00401+00061099341ADDGF106991061051008001001001MD1210171+9999REMSYN066AAXX  01211 26422 42597 62004 10040 20006 49934 52017 86500 91114;
0139264220999992000030200004+56970+024050FM-12+0007UMRR V0202001N006010075019N0100001N1+00351+00091099401ADDGF106991061051008001001001MA1999999099081MD1210061+9999REMSYN072AAXX  02001 26422 42597 62006 10035 20009 39908 49940 52006 86500 91114;
0112264220999992000030203004+56970+024050FM-12+0007UMRR V0201801N005010042019N0100001N1+00331+00001099371ADDGF107991071051004501001001MD1810031+9999REMSYN060AAXX  02031 26422 /2497 71805 10033 20000 49937 58003 87500;
0210264220999992000030206004+56970+024050FM-12+0007UMRR V0202001N004010042019N0100001N1+00391+00101099581ADDAA199000091GA1081+004209069GF108991051999004501999999KA1120N+00271MD1310211+9999OA140101001REMSYN088AAXX  02061 26422 32497 82004 10039 20010 49958 53021 85/// 333 20027 88614 91010 91110;EQDQ01  00002PRCP99
0146264220999992000030209004+56970+024050FM-12+0007UMRR V0202401N006010075019N0100001N1+00571-00131099771ADDAY181031AY221031GF107991071091008001001001MD1210191+9999MW1021REMSYN072AAXX  02091 26422 41597 72406 10057 21013 49977 52019 70282 87900 91011;
0167264220999992000030212004+56970+024050FM-12+0007UMRR V0202201N006010120019N0100001N1+00471+00031099961ADDAY181061AY221061GF108991051041012501071999MA1999999099641MD1210191+9999MW1251REMSYN078AAXX  02121 26422 41697 82206 10047 20003 39964 49996 52019 72582 8547/ 91010;
0146264220999992000030215004+56970+024050FM-12+0007UMRR V0202601N004010075019N0100001N1+00301+00141100111ADDAY181031AY221031GF107991071091008001001001MD1210151+9999MW1021REMSYN072AAXX  02151 26422 41597 72604 10030 20014 40011 52015 70282 87900 91112;
0173264220999992000030218004+56970+024050FM-12+0007UMRR V0202701N004012200019N0100001N1+00111-00571100491ADDAA112000891AY181061AY211061GA1001+999999999GF100991001001999999001001MD1210371+9999MW1011REMSYN072AAXX  02181 26422 11997 02704 10011 21057 40049 52037 69982 70181 91112;
0122264220999992000030221004+56970+024050FM-12+0007UMRR V0202401N004012200019N0100001N1-00061-00441100641ADDGA1001+999999999GF100991001001999999001001MD1210151+9999REMSYN054AAXX  02211 26422 42997 02404 11006 21044 40064 52015;
0133264220999992000030300004+56970+024050FM-12+0007UMRR V0202001N004010042019N0100001N1-00141-00311100661ADDGF105991051061004501001001MA1999999100331MD1110021+9999REMSYN066AAXX  03001 26422 42497 52004 11014 21031 30033 40066 51002 85600;
0152264220999992000030303004+56970+024050FM-12+0007UMRR V0201901N004012200019N0100001N1-00141-00251100511ADDAA199000091GA1001+999999999GF100991001001999999001001MD1810151+9999REMSYN054AAXX  03031 26422 32997 01904 11014 21025 40051 58015;EQDQ01  00002PRCP99
0142264220999992000030306004+56970+024050FM-12+0007UMRR V0201801N006019999999N0100001N1-00041-00191100211ADDAA199000091GF108991001001999999001051MD1710301+9999REMSYN060AAXX  03061 26422 32997 81806 11004 21019 40021 57030 80005;EQDQ01  00002PRCP99
0118264220999992000030309004+56970+024050FM-12+0007UMRR V0201801N010019999999N0100001N1+00131-00291099751ADDGF108991081001999999021999MD1710451+9999REMSYN066AAXX  03091 26422 42997 81810 10013 21029 49975 57045 8802/ 91016;
0167264220999992000030312004+56970+024050FM-12+0007UMRR V0201801N010010042019N0040001N1+00221-00281099011ADDAY181061AY221061GF108991081091004501999999MA1999999098701MD1710731+9999MW1851REMSYN078AAXX  03121 26422 41496 81810 10022 21028 39870 49901 57073 78582 889// 91021;
0202264220999992000030315004+56970+024050FM-12+0007UMRR V0201801N010010042019N0040001N1+00221-00281099011ADDAY181031AY221031GF108991081091004501999999MA1999999098701MD1410001+9999MW1851REMSYN078AAXX  03151 26422 41496 81810 10022 21028 39870 49901 57073 78582 889// 91021;EQDQ01+000072APCTENQ02+000732APC3  
0146264220999992000030321004+56970+024050FM-12+0007UMRR V0201801N006010042019N0040001N1+00151+00091098341ADDAY181031AY271031GF107991071091004501001001MD1710171+9999MW1261REMSYN072AAXX  03211 26422 41496 71806 10015 20009 49834 57017 72687 87900 91010;
0167264220999992000030400004+56970+024050FM-12+0007UMRR V0201901N005010042019N0040001N1+00231+00041999999ADDAY181061AY271061GF105991051051004501001001MA1999999097931MD1610091+9999MW1251REMSYN078AAXX  04001 26422 41496 51905 10023 20004 39793 4/824 56009 72587 85500 91012;
0146264220999992000030409004+56970+024050FM-12+0007UMRR V0202301N005010042019N0100001N1+00021-00101098681ADDAY181031AY221031GF106991061091004501001001MD1210231+9999MW1271REMSYN072AAXX  04091 26422 41497 62305 10002 21010 49868 52023 72782 86900 91010;
0167264220999992000030412004+56970+024050FM-12+0007UMRR V0202601N005010075019N0100001N1-00031-00521099111ADDAY181061AY221061GF108991061091008001031999MA1999999098791MD1210431+9999MW1271REMSYN078AAXX  04121 26422 41597 82605 11003 21052 39879 49911 52043 72782 8693/ 91010;
0146264220999992000030415004+56970+024050FM-12+0007UMRR V0202601N005010120019N0100001N1-00041-00591099411ADDAY181031AY221031GF108991051041012501071999MD1210301+9999MW1021REMSYN072AAXX  04151 26422 41697 82605 11004 21059 49941 52030 70282 8547/ 91010;
0140264220999992000030421004+56970+024050FM-12+0007UMRR V0202601N003019999999N0100001N1-00211-00531099991ADDAY181031AY221031GF106991061001999999051001MD1210261+9999MW1011REMSYN066AAXX  04211 26422 41997 62603 11021 21053 49999 52026 70182 86050;
0161264220999992000030500004+56970+024050FM-12+0007UMRR V0202401N004012200019N0100001N1-00261-00451100201ADDAY181061AY211061GF102991021001999999051001MA1999999099871MD1210201+9999MW1011REMSYN072AAXX  05001 26422 41997 22404 11026 21045 39987 40020 52020 70181 82050;
0112264220999992000030503004+56970+024050FM-12+0007UMRR V0202401N003012200019N0100001N1-00241-00611100341ADDGF102991021001999999031001MD1210141+9999REMSYN060AAXX  05031 26422 /2997 22403 11024 21061 40034 52014 82030;
0129264220999992000030506004+56970+024050FM-12+0007UMRR V0202301N003019999999N0100001N1-00351-00801100471ADDAA112000791GF105991051001999999041001MD1210131+9999REMSYN066AAXX  05061 26422 12997 52303 11035 21080 40047 52013 69902 85040;
0112264220999992000030509004+56970+024050FM-12+0007UMRR V0202701N004012200019N0100001N1-00011-00651100621ADDGF102991011021008001031001MD1210151+9999REMSYN060AAXX  05091 26422 42597 22704 11001 21065 40062 52015 81230;
0139264220999992000030512004+56970+024050FM-12+0007UMRR V0202501N004010075019N0100001N1+00201-00641100791ADDGF106991061091008001001001MA1999999100461MD1210171+9999REMSYN072AAXX  05121 26422 42597 62504 10020 21064 30046 40079 52017 86900 91111;
0140264220999992000030515004+56970+024050FM-12+0007UMRR V0203201N005010042019N0020001N1-00191-00251100991ADDAY181031AY221031GF108991081091004501999999MD1210201+9999MW1861REMSYN066AAXX  05151 26422 41495 83205 11019 21025 40099 52020 78682 889//;
0157264220999992000030518004+56970+024050FM-12+0007UMRR V0203001N006012200019N0100001N1-00181-00671101181ADDAA112001091AY181061AY221061GF102991021021008001001001MD1210191+9999MW1011REMSYN072AAXX  05181 26422 11597 23006 11018 21067 40118 52019 60012 70182 82200;
0146264220999992000030521004+56970+024050FM-12+0007UMRR V0202901N005010042019N0100001N1-00211-00371101341ADDAY181031AY221031GF108991081091004501999999MD1210161+9999MW1851REMSYN072AAXX  05211 26422 41497 82905 11021 21037 40134 52016 78582 889// 91111;
0112264220999992000030609004+56970+024050FM-12+0007UMRR V0201801N004019999999N0200001N1-00071-00671101431ADDGF108991001001999999001061MD1710171+9999REMSYN060AAXX  06091 26422 42998 81804 11007 21067 40143 57017 80006;
0124264220999992000030612004+56970+024050FM-12+0007UMRR V0202101N006019999999N0200001N1+00191-00381999999ADDGF108991999999008001999999MA1999999100721REMSYN071AAXX  06121 26422 42598 82106 10019 21038 30072 4105 57038 885// 91011;
0181264220999992000030615004+56970+024050FM-12+0007UMRR V0202001N007010021019N0020001N1+00071+00011100521ADDAY181031AY271031GF108991999071002501021999MD1710532+9999MW1711REMSYN072AAXX  06151 26422 41395 82007 10007 20001 40052 57053 77187 8872/ 91011;EQDQ01+000082SCOTLCQ02+000532APC3  
0146264220999992000030621004+56970+024050FM-12+0007UMRR V0202301N005010021019N0040001N1+00241+00191099751ADDAY171031AY221031GF108991081061002501999999MD1710341+9999MW1101REMSYN072AAXX  06211 26422 41396 82305 10024 20019 49975 57034 71072 886// 91010;
0118264220999992000030709004+56970+024050FM-12+0007UMRR V0203001N006012200019N0100001N1+00551-00031099141ADDGF104991041081012501001001MD1210201+9999REMSYN066AAXX  07091 26422 42697 43006 10055 21003 49914 52020 84800 91011;
0139264220999992000030712004+56970+024050FM-12+0007UMRR V0202801N008012200019N0200001N1+00651-00261099281ADDGF103991031021000251001001MA1999999098961MD1010141+9999REMSYN072AAXX  07121 26422 42098 32808 10065 21026 39896 49928 50014 83200 91013;
0118264220999992000030715004+56970+024050FM-12+0007UMRR V0202901N005010300019N0200001N1+00541-00271099491ADDGF107991031091008001051001MD1210211+9999REMSYN066AAXX  07151 26422 42598 72905 10054 21027 49949 52021 83950 91010;
0158264220999992000030718004+56970+024050FM-12+0007UMRR V0202601N004012200019N0200001N1+00361-00241099611ADDAA199000091GA1001+999999999GF100991001001999999001001MD1210121+9999REMSYN060AAXX  07181 26422 32998 02604 10036 21024 49961 52012 91111;EQDQ01  00002PRCP99
0112264220999992000030721004+56970+024050FM-12+0007UMRR V0202701N004012200019N0100001N1+00151-00201099701ADDGF101991011001999999081001MD1110091+9999REMSYN060AAXX  07211 26422 42997 12704 10015 21020 49970 51009 81080;
0133264220999992000030800004+56970+024050FM-12+0007UMRR V0202701N003012200019N0100001N1+00081-00161099791ADDGF102991021001999999031001MA1999999099471MD1210091+9999REMSYN066AAXX  08001 26422 42997 22703 10008 21016 39947 49979 52009 82030;
0210264220999992000030801004+56970+024050FM-12+0007UMRR V0202701N004012200019N0200001N1-00011-00161099971ADDAA199000091AJ100019199999999GF102991999041999999011999IA1259KA1120N-00031MD1210121+9999REMSYN076AAXX  08011 26422 32998 22704 11001 21016 49997 52012 8041/ 333 21003 41001;EQDQ01+000002SCOTLCQ02  00002PRCP99
0152264220999992000030803004+56970+024050FM-12+0007UMRR V0202501N004012200019N0100001N1+00041-00111099851ADDAA199000091GA1001+999999999GF100991001001999999001001MD1210061+9999REMSYN054AAXX  08031 26422 32997 02504 10004 21011 49985 52006;EQDQ01  00002PRCP99
0142264220999992000030806004+56970+024050FM-12+0007UMRR V0202701N004012200019N0200001N1-00011-00161099971ADDAA199000091GF102991011001999999041011MD1210121+9999REMSYN060AAXX  08061 26422 32998 22704 11001 21016 49997 52012 81041;EQDQ01  00002PRCP99
0118264220999992000030809004+56970+024050FM-12+0007UMRR V0203001N005012200019N0200001N1+00251-00121100221ADDGF106991021011008001001041MD1210251+9999REMSYN066AAXX  08091 26422 42598 63005 10025 21012 40022 52025 82104 91010;
0139264220999992000030812004+56970+024050FM-12+0007UMRR V0203001N003010750019N0200001N1+00421-00201100181ADDGF108991021011004501001091MA1999999099861MD1810041+9999REMSYN072AAXX  08121 26422 42498 83003 10042 21020 39986 40018 58004 82109 91110;
0112264220999992000030815004+56970+024050FM-12+0007UMRR V0200501N002010300019N0100001N1+00251-00351100001ADDGF108991011051004501071041MD1710181+9999REMSYN060AAXX  08151 26422 42497 80502 10025 21035 40000 57018 81574;
0142264220999992000030818004+56970+024050FM-12+0007UMRR V0201201N001019999999N0100001N1+00161-00291099731ADDAA199000091GF108991001001999999001051MD1710271+9999REMSYN060AAXX  08181 26422 32997 81201 10016 21029 49973 57027 80005;EQDQ01  00002PRCP99
0140264220999992000030821004+56970+024050FM-12+0007UMRR V0201701N002010012019N0040001N1+00111+00021099361ADDAY171031AY221031GF108991081001001501021999MD1710371+9999MW1711REMSYN066AAXX  08211 26422 41296 81702 10011 20002 49936 57037 77172 8802/;
0180264220999992000030900004+56970+024050FM-12+0007UMRR V0201201N001010012019N0040001N1+00051+00021099101ADDAY171061AY221061GF108991999071001501051999MA1999999098781MD1710261+9999MW1731REMSYN072AAXX  09001 26422 41296 81201 10005 20002 39878 49910 57026 77372 8875/;EQDQ01+000082SCOTLC
0140264220999992000030903004+56970+024050FM-12+0007UMRR V0200701N001010006019N0020001N1+00011-00021098891ADDAY171031AY221031GF108991081061000751999999MD1710211+9999MW1101REMSYN066AAXX  09031 26422 /1195 80701 10001 21002 49889 57021 71072 886//;
0140264220999992000030909004+56970+024050FM-12+0007UMRR V0200401N005010042019N0020001N1-00191-00301099081ADDAY171031AY221031GF108991081001004501021999MD1210181+9999MW1711REMSYN066AAXX  09091 26422 41495 80405 11019 21030 49908 52018 77172 8802/;
0188264220999992000030912004+56970+024050FM-12+0007UMRR V0203501N007012200019N0100001N1+00041-00541099301ADDAY171061AY221061GF103991011021008001031091MA1999999098981MD1210221+9999MW1011OA140101101REMSYN088AAXX  09121 26422 41597 33507 10004 21054 39898 49930 52022 70172 81239 333 91011 91111;
0189264220999992000030915004+56970+024050FM-12+0007UMRR V0203301N006010060019N0100001N1+00011-00541099541ADDAY181031AY221031GA1081+006009099GF108991081091008001999999MD1210241+9999MW1861OA140101001REMSYN088AAXX  09151 26422 41597 83306 10001 21054 49954 52024 78682 889// 333 88920 91010 91113;
0203264220999992000030918004+56970+024050FM-12+0007UMRR V0203301N009012200019N0100001N1-00111-00651099741ADDAA112001091AY181061AY221061GF102991021091008001999999KA1120M+00071MD1210201+9999MW1271OA140101601REMSYN094AAXX  09181 26422 11597 23309 11011 21065 49974 52020 60012 72782 829// 333 10007 91016 91116;
0161264220999992000030921004+56970+024050FM-12+0007UMRR V0203401N008010141019N0100001N1-00111-00581099841ADDGA1061+014109089GF107991071091012501001001MD1210101+9999OA140101401REMSYN082AAXX  09211 26422 42697 73408 11011 21058 49984 52010 87900 333 86847 91014 91116;
0182264220999992000031000004+56970+024050FM-12+0007UMRR V0203301N007010300019N0100001N1-00151-00631099961ADDGA1041+009009089GF107991041021008001031001MA1999999099641MD1210121+9999OA140101301REMSYN088AAXX  10001 26422 42597 73307 11015 21063 39964 49996 52012 84230 333 84830 91013 91116;
0150264220999992000031003004+56970+024050FM-12+0007UMRR V0202701N005012200019N0100001N1-00181-00461100021ADDAY181031AY211031GF102991021011008001001001MD1210061+9999MW1261REMSYN076AAXX  10031 26422 /1597 22705 11018 21046 40002 52006 72681 82100 333 91113;
0254264220999992000031006004+56970+024050FM-12+0007UMRR V0203301N00901012001CN0100001N1-00041-00791100131ADDAA112000791AJ100059199999999AY181061AY211061GA1041+010509089GF107991071091012501001001IA1239KA1120N-00221MD1210101+9999MW1021OA140101201REMSYN106AAXX  10061 26422 11697 73309 11004 21079 40013 52010 69902 70281 87900 333 21022 47005 84835 91012 91114;
0189264220999992000031009004+56970+024050FM-12+0007UMRR V0203301N008010087019N0100001N1+00071-00471100311ADDAY181031AY211031GA1051+008709089GF107991071091999999001001MD1210191+9999MW1031OA140101301REMSYN088AAXX  10091 26422 41997 73308 10007 21047 40031 52019 70381 87900 333 85829 91013 91117;
0210264220999992000031012004+56970+024050FM-12+0007UMRR V0203401N009010300019N0100001N1+00071-00591100541ADDAY181061AY211061GA1041+008409099GF106991041091008001061001MA1999999100211MD1210221+9999MW1271OA140101401REMSYN094AAXX  10121 26422 41597 63409 10007 21059 30021 40054 52022 72781 84960 333 84928 91014 91117;
0189264220999992000031015004+56970+024050FM-12+0007UMRR V0203601N007010033019N0040001N1-00051-00111100771ADDAY181031AY221031GA1081+003309099GF108991081091004501999999MD1210231+9999MW1861OA140101201REMSYN088AAXX  10151 26422 41496 83607 11005 21011 40077 52023 78682 889// 333 88911 91012 91116;
0225264220999992000031018004+56970+024050FM-12+0007UMRR V0203301N007010300019N0100001N1-00011-00621100921ADDAA112000591AY181061AY221061GA1041+009609099GF105991041091008001061001KA1120M+00141MD1210151+9999MW1031OA140101301REMSYN100AAXX  10181 26422 11597 53307 11001 21062 40092 52015 69952 70382 84960 333 10014 84932 91013 91116;
0189264220999992000031021004+56970+024050FM-12+0007UMRR V0203301N006010123019N0100001N1-00041-00661101011ADDAY181031AY221031GA1061+012309099GF107991061091012501061001MD1110091+9999MW1011OA140101101REMSYN088AAXX  10211 26422 41697 73306 11004 21066 40101 51009 70182 86960 333 86941 91011 91114;
0210264220999992000031100004+56970+024050FM-12+0007UMRR V0203301N007012200019N0100001N1-00161-00691101001ADDAY181061AY221061GA1041+013509099GF104991041091012501001001MA1999999100671MD1810011+9999MW1021OA140101101REMSYN094AAXX  11001 26422 41697 43307 11016 21069 30067 40100 58001 70282 84900 333 84945 91011 91113;
0177264220999992000031103004+56970+024050FM-12+0007UMRR V0203401N006012200019N0100001N1-00171-00921101041ADDAY181031AY201031GA1001+999999999GF100991001001999999001001MD1310041+9999MW1021OA140101001REMSYN076AAXX  11031 26422 /1997 03406 11017 21092 40104 53004 70280 333 91010 91112;
0215264220999992000031106004+56970+024050FM-12+0007UMRR V0202201N002012200019N0100001N1-00311-00701101021ADDAA112000191AJ100059199999999AY181061AY201061GF104991041001999999031001IA1239KA1120N-00311MD1810021+9999MW1031REMSYN094AAXX  11061 26422 11997 42202 11031 21070 40102 58002 69922 70380 84030 333 21031 47005 91110;
0112264220999992000031109004+56970+024050FM-12+0007UMRR V0202101N003012200019N0100001N1+00061-00901100931ADDGF104991041001999999031001MD1710091+9999REMSYN060AAXX  11091 26422 42997 42103 10006 21090 40093 57009 84030;
0159264220999992000031112004+56970+024050FM-12+0007UMRR V0202501N004010300019N0100001N1+00261-00331100801ADDGA1021+009909099GF105991021031012501031001MA1999999100481MD1710121+9999REMSYN076AAXX  11121 26422 42697 52504 10026 21033 30048 40080 57012 82330 333 82933;
0166264220999992000031115004+56970+024050FM-12+0007UMRR V0203301N005010750019N0100001N1+00191-00211100821ADDAY181031AY221031GA1031+009909099GF106991031031012501001031MD1310021+9999MW1021REMSYN076AAXX  11151 26422 41697 63305 10019 21021 40082 53002 70282 83303 333 83933;
0180264220999992000031118004+56970+024050FM-12+0007UMRR V0200101N004010300019N0100001N1-00061-00581100931ADDAA112000791AY181061AY221061GF105991031041012501031001KA1999M+00311MD1210111+9999MW1021REMSYN082AAXX  11181 26422 11697 50104 11006 21058 40093 52011 69902 70282 83430 333 10031;
0138264220999992000031121004+56970+024050FM-12+0007UMRR V0203601N005010300019N0100001N1-00211-00921101171ADDGA1021+011709059GF106991021041012501031001MD1210211+9999REMSYN070AAXX  11211 26422 42697 63605 11021 21092 40117 52021 82430 333 82639;
0159264220999992000031200004+56970+024050FM-12+0007UMRR V0203301N004010300019N0100001N1-00221-00891101361ADDGA1021+010509059GF106991021051012501031001MA1999999101031MD1210191+9999REMSYN076AAXX  12001 26422 42697 63304 11022 21089 30103 40136 52019 82530 333 82635;
0168264220999992000031203004+56970+024050FM-12+0007UMRR V0203501N006010300019N0100001N1-00301-00651101551ADDAA199000091GA1041+004509059GF107991041051004501071001MD1210191+9999REMSYN070AAXX  12031 26422 32497 73506 11030 21065 40155 52019 84570 333 84615;EQDQ01  00002PRCP99
0216264220999992000031206004+56970+024050FM-12+0007UMRR V0203501N006010096019N0100001N1-00211-00811101751ADDAA199000091AJ100059199999999GA1061+009609059GF106991061051008001001001IA1229KA1120N-00321MD1210201+9999REMSYN082AAXX  12061 26422 32597 63506 11021 21081 40175 52020 86500 333 21032 46005 86632;EQDQ01  00002PRCP99
0139264220999992000031209004+56970+024050FM-12+0007UMRR V0203501N006010300019N0200001N1+00001-00921101991ADDGF106991031051012501031001MD1210241+9999OA140101201REMSYN076AAXX  12091 26422 42698 63506 10000 21092 40199 52024 83530 333 91012 91112;
0188264220999992000031212004+56970+024050FM-12+0007UMRR V0203101N005012200019N0200001N1+00141-00541102111ADDAY181061AY211061GF106991031051008001001041MA1999999101781MD1210121+9999MW1011OA140101001REMSYN088AAXX  12121 26422 41598 63105 10014 21054 30178 40211 52012 70181 83504 333 91010 91112;
0122264220999992000031215004+56970+024050FM-12+0007UMRR V0203101N003010750019N0200001N1+00151-00691102131ADDGF108991021051008001001051MD1110021+9999REMSYN070AAXX  12151 26422 42598 83103 10015 21069 40213 51002 82505 333 91110;
0158264220999992000031218004+56970+024050FM-12+0007UMRR V0202401N003019999999N0100001N1+00051-00661102101ADDAA112000791GF108991081001999999011999KA1120M+00151MD1810031+9999REMSYN082AAXX  12181 26422 12997 82403 10005 21066 40210 58003 69902 8801/ 333 10015 91110;
0112264220999992000031221004+56970+024050FM-12+0007UMRR V0202301N003019999999N0100001N1-00031-00381102031ADDGF106991061001999999071001MD1710071+9999REMSYN060AAXX  12211 26422 42997 62303 11003 21038 40203 57007 86070;
0187264220999992000031300004+56970+024050FM-12+0007UMRR V0202301N003010027019N0040001N1-00031-00181101991ADDAY181061AY221061GA1051+002709069GF108991081091002501999999MA1999999101661MD1710041+9999MW1851REMSYN082AAXX  13001 26422 41396 82303 11003 21018 30166 40199 57004 78582 889// 333 85709;
0166264220999992000031303004+56970+024050FM-12+0007UMRR V0202301N002010057019N0100001N1+00001-00031101941ADDAY181031AY221031GA1081+005709059GF108991081051004501999999MD1710051+9999MW1261REMSYN076AAXX  13031 26422 /1497 82302 10000 21003 40194 57005 72682 885// 333 88619;
0250264220999992000031306004+56970+024050FM-12+0007UMRR V0202301N002010096019N0100001N1+00031+00001101981ADDAA112001091AJ100049199999999AY181061AY221061GA1071+009609099GF108991999091008001031999IA1239KA1120N-00031MD1310041+9999MW1261REMSYN094AAXX  13061 26422 11597 82302 10003 20000 40198 53004 60012 72682 8893/ 333 21003 47004 87932;EQDQ01+000082SCOTLC
0131264220999992000031309004+56970+024050FM-12+0007UMRR V0202201N003010120019N0100001N1+00231+00011101951ADDGF108991999041012501031999MD1810031+9999REMSYN060AAXX  13091 26422 42697 82203 10023 20001 40195 58003 8843/;EQDQ01+000082SCOTLC
0159264220999992000031312004+56970+024050FM-12+0007UMRR V0201801N003010093019N0100001N1+00461-00021101851ADDGA1051+009309029GF108991061091008001031011MA1999999101531MD1710091+9999REMSYN076AAXX  13121 26422 42597 81803 10046 21002 30153 40185 57009 86931 333 85831;
0138264220999992000031315004+56970+024050FM-12+0007UMRR V0202201N00401012001CN0100001N1+00351+00001101751ADDGA1041+012909059GF108991051041012501071999MD1710101+9999REMSYN070AAXX  13151 26422 42697 82204 10035 20000 40175 57010 8547/ 333 84643;
0168264220999992000031318004+56970+024050FM-12+0007UMRR V0201901N005010036019N0100001N1+00201+00011101601ADDAA199000021GA1081+003609059GF108991081051004501999999KA1120M+00551MD1710151+9999REMSYN076AAXX  13181 26422 32497 81905 10020 20001 40160 57015 885// 333 10055 88612;
0166264220999992000031321004+56970+024050FM-12+0007UMRR V0202001N005010021019N0040001N1+00191+00141101351ADDAY181031AY221031GA1081+002109069GF108991081061002501999999MD1710251+9999MW1101REMSYN076AAXX  13211 26422 41396 82005 10019 20014 40135 57025 71082 886// 333 88707;
0187264220999992000031400004+56970+024050FM-12+0007UMRR V0202001N005010021019N0040001N1+00271+00191101181ADDAY181061AY261061GA1081+002109029GF108991081001002501021999MA1999999100861MD1710171+9999MW1611REMSYN082AAXX  14001 26422 41396 82005 10027 20019 30086 40118 57017 76186 8802/ 333 88507;
0166264220999992000031403004+56970+024050FM-12+0007UMRR V0202001N004010030019N0040001N1+00331+00201100911ADDAY161031AY251031GA1061+003009069GF108991081061004501999999MD1710271+9999MW1101REMSYN076AAXX  14031 26422 /1496 82004 10033 20020 40091 57027 71065 886// 333 86710;
0225264220999992000031406004+56970+024050FM-12+0007UMRR V0202201N005010021019N0040001N1+00361+00211100671ADDAA112001091AY161061AY251061GA1081+002109079GF108991081061002501999999KA1120N+00191MD1710241+9999MW1101OA140101001REMSYN100AAXX  14061 26422 11396 82205 10036 20021 40067 57024 60012 71065 886// 333 20019 88707 91010 91110;
0208264220999992000031409004+56970+024050FM-12+0007UMRR V0202501N005010033019N0040001N1+00451+00241100591ADDAY161031AY251031GA1071+003309079GF108991999071004501021999MD1710081+9999MW1611OA140101001REMSYN088AAXX  14091 26422 41496 82505 10045 20024 40059 57008 76165 8872/ 333 87711 91010 91112;EQDQ01+000082SCOTLC
0210264220999992000031412004+56970+024050FM-12+0007UMRR V0202301N004010069019N0100001N1+00551+00171100471ADDAY161061AY251061GA1081+006909069GF108991081051008001999999MA1999999100151MD1710121+9999MW1021OA140101001REMSYN094AAXX  14121 26422 41597 82304 10055 20017 30015 40047 57012 70265 885// 333 88623 91010 91112;
0172264220999992000031415004+56970+024050FM-12+0007UMRR V0202001N004010054019N0100001N1+00591+00271100311ADDAY181031AY221031GA1061+005409099GF108991081091004501999999MD1710161+9999MW1801REMSYN082AAXX  14151 26422 41497 82004 10059 20027 40031 57016 78082 889// 333 86918 91110;
0227264220999992000031418004+56970+024050FM-12+0007UMRR V0201901N003010030019N0100001N1+00421+00321100141ADDAA112003091AY181061AY261061GA1071+003009079GF108991999071004501021999KA1120M+00621MD1710171+9999MW1631REMSYN094AAXX  14181 26422 11497 81903 10042 20032 40014 57017 60032 76386 8872/ 333 10062 87710 91110;EQDQ01+000082SCOTLC
0185264220999992000031421004+56970+024050FM-12+0007UMRR V0201901N001010018019N0040001N1+00391+00311099851ADDAY161031AY221031GA1071+001809069GF108991999071001501021999MD1710291+9999MW1631REMSYN076AAXX  14211 26422 41296 81901 10039 20031 49985 57029 76362 8872/ 333 87706;EQDQ01+000082SCOTLC
0206264220999992000031500004+56970+024050FM-12+0007UMRR V0201001N001010009019N0040001N1+00351+00321099551ADDAY161061AY221061GA1071+000909069GF108991999071000751021999MA1999999099231MD1710301+9999MW1631REMSYN082AAXX  15001 26422 41196 81001 10035 20032 39923 49955 57030 76362 8872/ 333 87703;EQDQ01+000082SCOTLC
0185264220999992000031503004+56970+024050FM-12+0007UMRR V0203101N003010015019N0040001N1+00171+00141099371ADDAY161031AY221031GA1071+001509069GF108991999071001501021999MD1710181+9999MW1631REMSYN076AAXX  15031 26422 /1296 83103 10017 20014 49937 57018 76362 8872/ 333 87705;EQDQ01+000082SCOTLC
0202264220999992000031506004+56970+024050FM-12+0007UMRR V0203101N004010006019N0040001N1+00071+00071099441ADDAA112013091AY181061AY261061GA1071+000609069GF108991081091000751999999KA1120N+00051MD1310071+9999MW1861REMSYN088AAXX  15061 26422 11196 83104 10007 20007 49944 53007 60132 78686 889// 333 20005 87702;
0166264220999992000031509004+56970+024050FM-12+0007UMRR V0203501N004010015019N0100001N1+00141+00111099551ADDAY181031AY221031GA1081+001509069GF108991081061001501999999MD1210111+9999MW1261REMSYN076AAXX  15091 26422 41297 83504 10014 20011 49955 52011 72682 886// 333 88705;
0244264220999992000031510004+56970+024050FM-12+0007UMRR V0203401N006010042019N0100001N1-00061+99999100102ADDAA112001091AY181999AY221999GA1081+004209099GF108991081091004501999999KA1120M+00171MD1210161+9999MW1261OA140101001REMSYN100AAXX  15101 26422 11497 83406 11006 21002 40010 52016 60012 72682 889// 333 10017 88914 91010 91112;EQDQ01+100103APOSLP
0187264220999992000031512004+56970+024050FM-12+0007UMRR V0203201N006010021019N0100001N1+00141+00091099741ADDAY181061AY221061GA1061+002109069GF108991081091002501999999MA1999999099421MD1210191+9999MW1251REMSYN082AAXX  15121 26422 41397 83206 10014 20009 39942 49974 52019 72582 889// 333 86707;
0189264220999992000031515004+56970+024050FM-12+0007UMRR V0203301N006010021019N0040001N1+00101+00071099931ADDAY181031AY221031GA1071+002109079GF108991081091002501999999MD1210191+9999MW1851OA140101001REMSYN088AAXX  15151 26422 41396 83306 10010 20007 49993 52019 78582 889// 333 87707 91010 91111;
0225264220999992000031518004+56970+024050FM-12+0007UMRR V0203401N006010042019N0100001N1+00061-00021100101ADDAA112001091AY181061AY221061GA1081+004209099GF108991081091004501999999KA1120M+00171MD1210161+9999MW1261OA140101001REMSYN100AAXX  15181 26422 11497 83406 10006 21002 40010 52016 60012 72682 889// 333 10017 88914 91010 91112;
0139264220999992000031521004+56970+024050FM-12+0007UMRR V0203301N007019999999N0100001N1+00071-00131100191ADDGF108991001001999999001051MD1210091+9999OA140101101REMSYN076AAXX  15211 26422 42997 83307 10007 21013 40019 52009 80005 333 91011 91112;
0182264220999992000031600004+56970+024050FM-12+0007UMRR V0203301N008010750019N0100001N1+00051-00121100261ADDGA1021+005409069GF108991021051004501001051MA1999999099931MD1210071+9999OA140101101REMSYN088AAXX  16001 26422 42497 83308 10005 21012 39993 40026 52007 82505 333 82618 91011 91112;
0161264220999992000031603004+56970+024050FM-12+0007UMRR V0203301N008010051019N0100001N1+00011-00231100301ADDGA1061+005109069GF107991061051004501001051MD1110041+9999OA140101301REMSYN082AAXX  16031 26422 /2497 73308 10001 21023 40030 51004 86505 333 86617 91013 91114;
0169264220999992000031606004+56970+024050FM-12+0007UMRR V0203301N008019999999N0100001N1-00011-00351100391ADDAA199000021GF107991001001999999001011KA1120N-00041MD1210091+9999OA140101401REMSYN082AAXX  16061 26422 32997 73308 11001 21035 40039 52009 80001 333 21004 91014 91116;
0139264220999992000031609004+56970+024050FM-12+0007UMRR V0203301N010019999999N0200001N1+00111-00461100521ADDGF106991001001999999001011MD1210131+9999OA140101701REMSYN076AAXX  16091 26422 42998 63310 10011 21046 40052 52013 80001 333 91017 91117;
0160264220999992000031612004+56970+024050FM-12+0007UMRR V0203401N010019999999N0200001N1+00261-00611100641ADDGF106991021001999999031011MA1999999100321MD1210161+9999OA140101701REMSYN082AAXX  16121 26422 42998 63410 10026 21061 30032 40064 52016 82031 333 91017 91119;
0139264220999992000031615004+56970+024050FM-12+0007UMRR V0203301N009019999999N0200001N1+00191-00431100711ADDGF107991061001999999071011MD1110061+9999OA140101601REMSYN076AAXX  16151 26422 42998 73309 10019 21043 40071 51006 86071 333 91016 91117;
0188264220999992000031618004+56970+024050FM-12+0007UMRR V0203301N008019999999N0100001N1+00041-00441100741ADDAA199000091GF108991081001999999071999KA1120M+00291MD1310031+9999OA140101201REMSYN082AAXX  16181 26422 32997 83308 10004 21044 40074 53003 8807/ 333 10029 91012 91117;EQDQ01  00002PRCP99
0189264220999992000031621004+56970+024050FM-12+0007UMRR V0203501N009010021019N0040001N1-00021-00301100631ADDAY171031AY221031GA1081+002109059GF108991081001002501021999MD1810111+9999MW1711OA140101501REMSYN088AAXX  16211 26422 41396 83509 11002 21030 40063 58011 77172 8802/ 333 88507 91015 91115;
0210264220999992000031700004+56970+024050FM-12+0007UMRR V0203301N007010015019N0040001N1-00121-00221100531ADDAY171061AY221061GA1081+001509059GF108991081001001501021999MA1999999100201MD1710101+9999MW1711OA140101201REMSYN094AAXX  17001 26422 41296 83307 11012 21022 30020 40053 57010 77172 8802/ 333 88505 91012 91115;
0189264220999992000031703004+56970+024050FM-12+0007UMRR V0203601N006010030019N0100001N1-00081-00151100561ADDAY171031AY221031GA1081+003009069GF108991081051004501999999MD1310031+9999MW1021OA140101201REMSYN088AAXX  17031 26422 /1497 83606 11008 21015 40056 53003 70272 885// 333 88610 91012 91112;
0254264220999992000031706004+56970+024050FM-12+0007UMRR V0203501N006010009019N0020001N1-00091-00131100611ADDAA112004191AJ100089199999999AY171061AY221061GA1081+000909059GF108991081001001501021999IA1279KA1120N-00131MD1210051+9999MW1731OA140101101REMSYN106AAXX  17061 26422 11295 83506 11009 21013 40061 52005 60042 77372 8802/ 333 21013 43008 88503 91011 91115;
0189264220999992000031709004+56970+024050FM-12+0007UMRR V0203301N006010009019N0100001N1-00061-00101100561ADDAY171031AY231031GA1081+000909059GF108991081001001501021999MD1710051+9999MW1731OA140101001REMSYN088AAXX  17091 26422 41297 83306 11006 21010 40056 57005 77373 8802/ 333 88503 91010 91114;
0210264220999992000031712004+56970+024050FM-12+0007UMRR V0200301N005010012019N0020001N1+00031+00001100631ADDAY171061AY221061GA1081+001209059GF108991081001001501021999MA1999999100301MD1310071+9999MW1711OA140101001REMSYN094AAXX  17121 26422 41295 80305 10003 20000 30030 40063 53007 77172 8802/ 333 88504 91010 91111;
0172264220999992000031715004+56970+024050FM-12+0007UMRR V0200501N003010300019N0100001N1+00231-00021100931ADDAY171031AY221031GA1031+004809089GF105991031011004501041001MD1210311+9999MW1011REMSYN082AAXX  17151 26422 41497 50503 10023 21002 40093 52031 70172 83140 333 83816 91111;
0122264220999992000031721004+56970+024050FM-12+0007UMRR V0200301N003012200019N0100001N1-00111+99999101661ADDGA1001+999999999GF100991001001999999001001MD1210281+9999REMSYN054AAXX  17211 26422 42997 00303 11011 20020 40166 52028;
0143264220999992000031800004+56970+024050FM-12+0007UMRR V0200301N003012200019N0100001N1-00211-00341101801ADDGA1001+999999999GF100991001001999999001001MA1999999101471MD1210141+9999REMSYN060AAXX  18001 26422 42997 00303 11021 21034 30147 40180 52014;
0112264220999992000031803004+56970+024050FM-12+0007UMRR V0203601N002012200019N0100001N1-00311-00421101851ADDGF102991021001999999031001MD1110041+9999REMSYN060AAXX  18031 26422 /2997 23602 11031 21042 40185 51004 82030;
0216264220999992000031806004+56970+024050FM-12+0007UMRR V0203301N002010015019N0100001N1-00191-00311101941ADDAA199000091AJ100099199999999GA1081+001509069GF108991081061001501999999IA1239KA1120N-00311MD1210101+9999REMSYN082AAXX  18061 26422 32297 83302 11019 21031 40194 52010 886// 333 21031 47009 88705;EQDQ01  00002PRCP99
0166264220999992000031809004+56970+024050FM-12+0007UMRR V0203601N003010027019N0100001N1+00061-00141101981ADDAY181031AY221031GA1051+002709069GF108991081071002501999999MD1210041+9999MW1851REMSYN076AAXX  18091 26422 41397 83603 10006 21014 40198 52004 78582 887// 333 85709;
0187264220999992000031812004+56970+024050FM-12+0007UMRR V0203601N00301004201CN0100001N1+00071-00131102021ADDAY181061AY221061GA1031+003009069GF108991081071004501999999MA1999999101691MD1210041+9999MW1851REMSYN082AAXX  18121 26422 41497 83603 10007 21013 30169 40202 52004 78582 887// 333 83710;
0201264220999992000031815004+56970+024050FM-12+0007UMRR V0203501N003010027019N0100001N1+00021-00071102021ADDAY181031AY271031GA1051+002709069GF108991999071002501021999MD1410001+9999MW1711REMSYN076AAXX  18151 26422 41397 83503 10002 21007 40202 51000 77187 8872/ 333 85709;EQDQ01+000082SCOTLCQ02+000012APCTEN
0221264220999992000031818004+56970+024050FM-12+0007UMRR V0203401N00301002101CN0100001N1+00001-00061102151ADDAA112000791AY181061AY271061GA1041+001809069GF108991999071002501021999KA1120M+00101MD1210081+9999MW1701REMSYN088AAXX  18181 26422 11397 83403 10000 21006 40215 52008 69902 77087 8872/ 333 10010 84706;EQDQ01+000082SCOTLC
0166264220999992000031821004+56970+024050FM-12+0007UMRR V0200101N002010021019N0100001N1-00011-00041102171ADDAY171031AY221031GA1081+002109029GF108991081999002501021999MD1210021+9999MW1711REMSYN076AAXX  18211 26422 41397 80102 11001 21004 40217 52002 77172 88/2/ 333 88507;
0187264220999992000031900004+56970+024050FM-12+0007UMRR V0200701N002010021019N0100001N1-00021-00051102241ADDAY171061AY221061GA1081+002109029GF108991081999002501021999MA1999999101911MD1210071+9999MW1711REMSYN082AAXX  19001 26422 41397 80702 11002 21005 30191 40224 52007 77172 88/2/ 333 88507;
0166264220999992000031903004+56970+024050FM-12+0007UMRR V0200901N002010015019N0040001N1-00131-00171102391ADDAY121031AY221031GA1081+001509069GF108991081061001501999999MD1210151+9999MW1101REMSYN076AAXX  19031 26422 /1296 80902 11013 21017 40239 52015 71022 886// 333 88705;
0219264220999992000031906004+56970+024050FM-12+0007UMRR V0200801N002010003019N0005001N1-00301-00301102641ADDAA112000591AJ100109199999999AY141061AY241061GA1091+999999999GF109991091999999999999999IA1239KA1120N-00301MD1210241+9999MW1471REMSYN082AAXX  19061 26422 11/93 90802 11030 21030 40264 52024 69952 74744 333 21030 47010;
0166264220999992000031909004+56970+024050FM-12+0007UMRR V0201401N002010015019N0020001N1-00191-00271102811ADDAY141031AY221031GA1081+001509069GF108991081071001501999999MD1210181+9999MW1101REMSYN076AAXX  19091 26422 41295 81402 11019 21027 40281 52018 71042 887// 333 88705;
0187264220999992000031912004+56970+024050FM-12+0007UMRR V0203601N003010027019N0040001N1-00041-00281102861ADDAY141061AY221061GA1081+002709069GF108991081061002501999999MA1999999102531MD1310051+9999MW1101REMSYN082AAXX  19121 26422 41396 83603 11004 21028 30253 40286 53005 71042 886// 333 88709;
0166264220999992000031915004+56970+024050FM-12+0007UMRR V0203601N004010018019N0040001N1-00181-00291102821ADDAY121031AY221031GA1081+001809069GF108991081061001501999999MD1810041+9999MW1101REMSYN076AAXX  19151 26422 41296 83604 11018 21029 40282 58004 71022 886// 333 88706;
0187264220999992000031918004+56970+024050FM-12+0007UMRR V0203301N001010012019N0100001N1-00241-00301102751ADDAA199000091GA1081+001209069GF108991081061001501999999KA1120M-00041MD1710071+9999REMSYN076AAXX  19181 26422 32297 83301 11024 21030 40275 57007 886// 333 11004 88704;EQDQ01  00002PRCP99
0166264220999992000031921004+56970+024050FM-12+0007UMRR V0203501N001010006019N0020001N1-00261-00301102671ADDAY121031AY221031GA1081+000609069GF108991081061000751999999MD1710081+9999MW1101REMSYN076AAXX  19211 26422 41195 83501 11026 21030 40267 57008 71022 886// 333 88702;
0187264220999992000032000004+56970+024050FM-12+0007UMRR V0202101N001010006019N0010001N1-00311-00351102461ADDAY121061AY221061GA1081+000609069GF108991081061000751999999MA1999999102121MD1710221+9999MW1101REMSYN082AAXX  20001 26422 41194 82101 11031 21035 30212 40246 57022 71022 886// 333 88702;
0180264220999992000032003004+56970+024050FM-12+0007UMRR V0201801N002010003019N0005001N1-00391-00451102261ADDAA199000091AY141031AY221031GA1091+999999999GF109991091999999999999999MD1710201+9999MW1431REMSYN060AAXX  20031 26422 31/93 91802 11039 21045 40226 57020 74342;EQDQ01  00002PRCP99
0244264220999992000032006004+56970+024050FM-12+0007UMRR V0201901N002010006019N0010001N1-00351-00441102151ADDAA199000091AJ100099199999999AY141061AY221061GA1081+000609069GF108991081061000751999999IA1239KA1120N-00401MD1710111+9999MW1281REMSYN088AAXX  20061 26422 31194 81902 11035 21044 40215 57011 72842 886// 333 21040 47009 88702;EQDQ01  00002PRCP99
0112264220999992000032009004+56970+024050FM-12+0007UMRR V0201801N004019999999N0100001N1+00181-00161101971ADDGF108991021001999999031011MD1710171+9999REMSYN060AAXX  20091 26422 42997 81804 10018 21016 40197 57017 82031;
0133264220999992000032012004+56970+024050FM-12+0007UMRR V0201801N006012200019N0100001N1+00601-00031101771ADDGF103991001001999999001011MA1999999101451MD1710191+9999REMSYN066AAXX  20121 26422 42997 31806 10060 21003 30145 40177 57019 80001;
0112264220999992000032015004+56970+024050FM-12+0007UMRR V0202401N005012200019N0100001N1+00771+00001101571ADDGF102991001001999999001011MD1710201+9999REMSYN060AAXX  20151 26422 42997 22405 10077 20000 40157 57020 80001;
0175264220999992000032018004+56970+024050FM-12+0007UMRR V0202001N002012200019N0100001N1+00381+00151101571ADDAA199000091GA1001+999999999GF100991001001999999001001KA1999M+00821MD1410001+9999REMSYN064AAXX  20181 26422 32997 02002 10038 20015 40157 54000 333 10082;EQDQ01  00002PRCP99
0138264220999992000032021004+56970+024050FM-12+0007UMRR V0202201N004010030019N0100001N1+00291+00131101561ADDGA1081+003009069GF108991081061004501999999MD1810011+9999REMSYN070AAXX  20211 26422 42497 82204 10029 20013 40156 58001 886// 333 88710;
0159264220999992000032100004+56970+024050FM-12+0007UMRR V0201801N004010021019N0100001N1+00271+00161101511ADDGA1081+002109069GF108991081061002501999999MA1999999101191MD1710051+9999REMSYN076AAXX  21001 26422 42397 81804 10027 20016 30119 40151 57005 886// 333 88707;
0168264220999992000032103004+56970+024050FM-12+0007UMRR V0202001N004010021019N0100001N1+00291+00241101381ADDAA199000091GA1081+002109069GF108991081061002501999999MD1710131+9999REMSYN070AAXX  21031 26422 32397 82004 10029 20024 40138 57013 886// 333 88707;EQDQ01  00002PRCP99
0244264220999992000032106004+56970+024050FM-12+0007UMRR V0202201N002010012019N0040001N1+00331+00261101401ADDAA199000091AJ100019199999999AY121061AY221061GA1081+001209069GF108991081061001501999999IA1309KA1120N+00241MD1310021+9999MW1101REMSYN088AAXX  21061 26422 31296 82202 10033 20026 40140 53002 71022 886// 333 20024 42001 88704;EQDQ01  00002PRCP99
0166264220999992000032109004+56970+024050FM-12+0007UMRR V0202201N002010012019N0040001N1+00411+00301101421ADDAY151031AY221031GA1081+001209069GF108991081061001501999999MD1310021+9999MW1201REMSYN076AAXX  21091 26422 41296 82202 10041 20030 40142 53002 72052 886// 333 88704;
0187264220999992000032112004+56970+024050FM-12+0007UMRR V0201901N003010018019N0100001N1+00531+00351101381ADDAY151061AY221061GA1081+001809069GF108991081061001501999999MA1999999101061MD1810041+9999MW1021REMSYN082AAXX  21121 26422 41297 81903 10053 20035 30106 40138 58004 70252 886// 333 88706;
0112264220999992000032115004+56970+024050FM-12+0007UMRR V0202001N003010300019N0100001N1+00731+00471101261ADDGF106991031041004501031001MD1710121+9999REMSYN060AAXX  21151 26422 42497 62003 10073 20047 40126 57012 83430;
0152264220999992000032118004+56970+024050FM-12+0007UMRR V0201801N003012200019N0100001N1+00491+00361101191ADDAA112000791GF101991001001999999001091KA1999M+00731MD1710071+9999REMSYN076AAXX  21181 26422 12997 11803 10049 20036 40119 57007 69902 80009 333 10073;
0138264220999992000032121004+56970+024050FM-12+0007UMRR V0203001N002010009019N0100001N1+00241+00211101241ADDGA1061+000909069GF107991061061001501041001MD1310051+9999REMSYN070AAXX  21211 26422 42297 73002 10024 20021 40124 53005 86640 333 86703;
0159264220999992000032200004+56970+024050FM-12+0007UMRR V0202001N002010015019N0100001N1+00201+00111101071ADDGA1051+001509069GF108991051061001501041999MA1999999100751MD1810171+9999REMSYN076AAXX  22001 26422 42297 82002 10020 20011 30075 40107 58017 8564/ 333 85705;
0168264220999992000032203004+56970+024050FM-12+0007UMRR V0202701N003010180019N0100001N1+00491+00261100941ADDAA199000091GA1061+018009059GF108991061051017501041999MD1710131+9999REMSYN070AAXX  22031 26422 32797 82703 10049 20026 40094 57013 8654/ 333 86656;EQDQ01  00002PRCP99
0194264220999992000032206004+56970+024050FM-12+0007UMRR V0202501N004019999999N0100001N1+00611+00391100921ADDAA199000091AJ100009199999999GF106991061001999999031001IA1259KA1120N+00171MD1510021+9999REMSYN076AAXX  22061 26422 32997 62504 10061 20039 40092 55002 86030 333 20017 41000;EQDQ01  00002PRCP99
0138264220999992000032209004+56970+024050FM-12+0007UMRR V0202901N003010063019N0100001N1+00681+00241100951ADDGA1081+006309059GF108991081051008001999999MD1210031+9999REMSYN070AAXX  22091 26422 42597 82903 10068 20024 40095 52003 885// 333 88621;
0187264220999992000032212004+56970+024050FM-12+0007UMRR V0203001N004010045019N0100001N1+00781+00501100951ADDAY181061AY221061GA1061+004509059GF108991061051004501071999MA1999999100631MD1010001+9999MW1021REMSYN082AAXX  22121 26422 41497 83004 10078 20050 30063 40095 50000 70282 8657/ 333 86615;
0138264220999992000032215004+56970+024050FM-12+0007UMRR V0202901N003010141019N0100001N1+00741+00461100831ADDGA1051+014109059GF108991051051012501071999MD1710121+9999REMSYN070AAXX  22151 26422 42697 82903 10074 20046 40083 57012 8557/ 333 85647;
0152264220999992000032218004+56970+024050FM-12+0007UMRR V0202401N002019999999N0100001N1+00611+00441100791ADDAA112000791GF108991081001999999071999KA1999M+00801MD1710041+9999REMSYN076AAXX  22181 26422 12997 82402 10061 20044 40079 57004 69902 8807/ 333 10080;
0166264220999992000032221004+56970+024050FM-12+0007UMRR V0202401N002010015019N0040001N1+00511+00381100731ADDAY121031AY221031GA1081+001509069GF108991081061001501999999MD1710061+9999MW1101REMSYN076AAXX  22211 26422 41296 82402 10051 20038 40073 57006 71022 886// 333 88705;
0187264220999992000032300004+56970+024050FM-12+0007UMRR V0202801N003010018019N0040001N1+00441+00341100681ADDAY121061AY221061GA1081+001809069GF108991081061001501999999MA1999999100361MD1710051+9999MW1101REMSYN082AAXX  23001 26422 41296 82803 10044 20034 30036 40068 57005 71022 886// 333 88706;
0168264220999992000032303004+56970+024050FM-12+0007UMRR V0202801N003010018019N0100001N1+00371+00261100611ADDAA199000091GA1051+001809069GF106991061061002501001001MD1710071+9999REMSYN070AAXX  23031 26422 32397 62803 10037 20026 40061 57007 86600 333 85706;EQDQ01  00002PRCP99
0165264220999992000032306004+56970+024050FM-12+0007UMRR V0202401N002012200019N0100001N1+00311+00201100601ADDAA199000091GF102991021011004501001001KA1999N+00261MD1610011+9999REMSYN070AAXX  23061 26422 32497 22402 10031 20020 40060 56001 82100 333 20026;EQDQ01  00002PRCP99
0112264220999992000032309004+56970+024050FM-12+0007UMRR V0202401N004012200019N0100001N1+00641+00081100641ADDGF102991001001999999001011MD1310041+9999REMSYN060AAXX  23091 26422 42997 22404 10064 20008 40064 53004 80001;
0187264220999992000032312004+56970+024050FM-12+0007UMRR V0203401N006010057019N0100001N1+00351+00061100651ADDAY181061AY211061GA1081+005709099GF108991081091004501999999MA1999999100331MD1310011+9999MW1271REMSYN082AAXX  23121 26422 41497 83406 10035 20006 30033 40065 53001 72781 889// 333 88919;
0140264220999992000032315004+56970+024050FM-12+0007UMRR V0203301N006019999999N0100001N1+00291-00131100641ADDAY181031AY221031GF107991061001999999071011MD1810011+9999MW1021REMSYN066AAXX  23151 26422 41997 73306 10029 21013 40064 58001 70282 86071;
0203264220999992000032318004+56970+024050FM-12+0007UMRR V0203201N007012200019N0100001N1+00081-00421100751ADDAA112000191AY181061AY211061GF102991001001999999001011KA1120M+00851MD1310101+9999MW1021OA140101201REMSYN094AAXX  23181 26422 11997 23207 10008 21042 40075 53010 69912 70281 80001 333 10085 91012 91112;
0132264220999992000032321004+56970+024050FM-12+0007UMRR V0203001N004012200019N0100001N1+00011-00401100791ADDGA1001+999999999GF100991001001999999001001MD1210041+9999REMSYN064AAXX  23211 26422 42997 03004 10001 21040 40079 52004 333 91112;
0153264220999992000032400004+56970+024050FM-12+0007UMRR V0203001N004012200019N0100001N1-00031-00271100831ADDGA1001+999999999GF100991001001999999001001MA1999999100501MD1210041+9999REMSYN070AAXX  24001 26422 42997 03004 11003 21027 30050 40083 52004 333 91112;
0152264220999992000032403004+56970+024050FM-12+0007UMRR V0203001N005012200019N0100001N1-00011-00281100881ADDAA199000091GA1001+999999999GF100991001001999999001001MD1210051+9999REMSYN054AAXX  24031 26422 32997 03005 11001 21028 40088 52005;EQDQ01  00002PRCP99
0165264220999992000032406004+56970+024050FM-12+0007UMRR V0203101N006012200019N0100001N1+00091-00231101031ADDAA199000091GF101991001001999999001091KA1999N-00031MD1210151+9999REMSYN070AAXX  24061 26422 32997 13106 10009 21023 40103 52015 80009 333 21003;EQDQ01  00002PRCP99
0149264220999992000032409004+56970+024050FM-12+0007UMRR V0203101N008012200019N0100001N1+00291-00171101191ADDGA1001+999999999GF100991001001999999001001MD1110171+9999OA140101301REMSYN070AAXX  24091 26422 42997 03108 10029 21017 40119 51017 333 91013 91113;
0179264220999992000032412004+56970+024050FM-12+0007UMRR V0203101N009012200019N0100001N1+00461-00361101291ADDGF102991999001999999031001MA1999999100971MD1210101+9999OA140101401REMSYN082AAXX  24121 26422 42997 23109 10046 21036 30097 40129 52010 80030 333 91014 91113;EQDQ01+000002SCOTLC
0158264220999992000032415004+56970+024050FM-12+0007UMRR V0203301N007012200019N0100001N1+00411-00181101371ADDGF101991999001999999031001MD1210081+9999OA140101101REMSYN076AAXX  24151 26422 42997 13307 10041 21018 40137 52008 80030 333 91011 91114;EQDQ01+000002SCOTLC
0198264220999992000032418004+56970+024050FM-12+0007UMRR V0203101N006012200019N0100001N1+00151-00171101491ADDAA199000091GA1001+999999999GF100991001001999999001001KA1120M+00531MD1210111+9999OA140101001REMSYN076AAXX  24181 26422 32997 03106 10015 21017 40149 52011 333 10053 91010 91112;EQDQ01  00002PRCP99
0149264220999992000032421004+56970+024050FM-12+0007UMRR V0203101N006012200019N0100001N1+00061-00181101621ADDGA1001+999999999GF100991001001999999001001MD1210131+9999OA140101001REMSYN070AAXX  24211 26422 42997 03106 10006 21018 40162 52013 333 91010 91111;
0153264220999992000032500004+56970+024050FM-12+0007UMRR V0203001N005012200019N0100001N1+00031-00151101721ADDGA1001+999999999GF100991001001999999001001MA1999999101391MD1210101+9999REMSYN070AAXX  25001 26422 42997 03005 10003 21015 30139 40172 52010 333 91110;
0142264220999992000032503004+56970+024050FM-12+0007UMRR V0202701N003012200019N0100001N1-00051-00241101781ADDAA199000091GF103991031001999999031001MD1210061+9999REMSYN060AAXX  25031 26422 32997 32703 11005 21024 40178 52006 83030;EQDQ01  00002PRCP99
0165264220999992000032506004+56970+024050FM-12+0007UMRR V0202801N004019999999N0100001N1+00081-00131101841ADDAA199000091GF107991071001999999031001KA1999N-00061MD1310061+9999REMSYN070AAXX  25061 26422 32997 72804 10008 21013 40184 53006 87030 333 21006;EQDQ01  00002PRCP99
0112264220999992000032509004+56970+024050FM-12+0007UMRR V0203101N003012200019N0100001N1+00471-00211101891ADDGF102991001001999999001011MD1210061+9999REMSYN060AAXX  25091 26422 42997 23103 10047 21021 40189 52006 80001;
0133264220999992000032512004+56970+024050FM-12+0007UMRR V0203101N005012200019N0200001N1+00801-00431101821ADDGF105991021021012501001011MA1999999101501MD1810071+9999REMSYN066AAXX  25121 26422 42698 53105 10080 21043 30150 40182 58007 82201;
0112264220999992000032515004+56970+024050FM-12+0007UMRR V0203601N003019999999N0200001N1+00631-00541101731ADDGF108991021001000251031061MD1710091+9999REMSYN060AAXX  25151 26422 42098 83603 10063 21054 40173 57009 82036;
0165264220999992000032518004+56970+024050FM-12+0007UMRR V0203601N001019999999N0100001N1+00311-00581101731ADDAA199000091GF108991001001999999001061KA1999M+00871MD1410001+9999REMSYN070AAXX  25181 26422 32997 83601 10031 21058 40173 54000 80006 333 10087;EQDQ01  00002PRCP99
0112264220999992000032521004+56970+024050FM-12+0007UMRR V0201901N001019999999N0100001N1+00191-00471101701ADDGF106991001001999999001011MD1810041+9999REMSYN060AAXX  25211 26422 42997 61901 10019 21047 40170 58004 80001;
0133264220999992000032600004+56970+024050FM-12+0007UMRR V0202001N002019999999N0100001N1+00141-00411101631ADDGF106991061001999999031001MA1999999101301MD1710071+9999REMSYN066AAXX  26001 26422 42997 62002 10014 21041 30130 40163 57007 86030;
0142264220999992000032603004+56970+024050FM-12+0007UMRR V0201001N002019999999N0100001N1+00071-00511101541ADDAA199000091GF108991081001999999031999MD1710091+9999REMSYN060AAXX  26031 26422 32997 81002 10007 21051 40154 57009 8803/;EQDQ01  00002PRCP99
0165264220999992000032606004+56970+024050FM-12+0007UMRR V0201101N002019999999N0100001N1+00181-00341101511ADDAA199000091GF108991081001999999071999KA1999N+00031MD1610031+9999REMSYN070AAXX  26061 26422 32997 81102 10018 21034 40151 56003 8807/ 333 20003;EQDQ01  00002PRCP99
0112264220999992000032609004+56970+024050FM-12+0007UMRR V0201001N004019999999N0100001N1+00471-00531101521ADDGF106991061001999999031999MD1110021+9999REMSYN060AAXX  26091 26422 42997 61004 10047 21053 40152 51002 8603/;
0159264220999992000032612004+56970+024050FM-12+0007UMRR V0200501N002012200019N0200001N1+00841-00401101471ADDGA1041+009909029GF106991041011012501001011MA1999999101151MD1810051+9999REMSYN076AAXX  26121 26422 42698 60502 10084 21040 30115 40147 58005 84101 333 84833;
0112264220999992000032615004+56970+024050FM-12+0007UMRR V0200101N003019999999N0100001N1+00531-00411101491ADDGF106991041001999999071011MD1110021+9999REMSYN060AAXX  26151 26422 42997 60103 10053 21041 40149 51002 84071;
0165264220999992000032618004+56970+024050FM-12+0007UMRR V0200301N002012200019N0100001N1+00191-00361101651ADDAA199000091GF102991011001999999031011KA1999M+00851MD1210151+9999REMSYN070AAXX  26181 26422 32997 20302 10019 21036 40165 52015 81031 333 10085;EQDQ01  00002PRCP99
0122264220999992000032621004+56970+024050FM-12+0007UMRR V0200901N003012200019N0100001N1+00171-00791101761ADDGA1001+999999999GF100991001001999999001001MD1110111+9999REMSYN054AAXX  26211 26422 42997 00903 10017 21079 40176 51011;
0143264220999992000032700004+56970+024050FM-12+0007UMRR V0200801N004012200019N0100001N1+00001-00901101911ADDGA1001+999999999GF100991001001999999001001MA1999999101581MD1210151+9999REMSYN060AAXX  27001 26422 42997 00804 10000 21090 30158 40191 52015;
0142264220999992000032703004+56970+024050FM-12+0007UMRR V0200501N003019999999N0100001N1-00091-00911101941ADDAA199000091GF108991081001000251011999MD1110031+9999REMSYN060AAXX  27031 26422 32097 80503 11009 21091 40194 51003 8801/;EQDQ01  00002PRCP99
0165264220999992000032706004+56970+024050FM-12+0007UMRR V0200701N003019999999N0100001N1-00071-00981102051ADDAA199000091GF108991081001999999071999KA1999N-00121MD1310111+9999REMSYN070AAXX  27061 26422 32997 80703 11007 21098 40205 53011 8807/ 333 21012;EQDQ01  00002PRCP99
0112264220999992000032709004+56970+024050FM-12+0007UMRR V0200801N005019999999N0100001N1+00261-00941102141ADDGF108991081001000251071999MD1210091+9999REMSYN060AAXX  27091 26422 42097 80805 10026 21094 40214 52009 8807/;
0133264220999992000032712004+56970+024050FM-12+0007UMRR V0200701N005019999999N0100001N1+00331-00971102201ADDGF108991081001999999071999MA1999999101871MD1110061+9999REMSYN066AAXX  27121 26422 42997 80705 10033 21097 30187 40220 51006 8807/;
0112264220999992000032715004+56970+024050FM-12+0007UMRR V0201001N006019999999N0100001N1+00411-00931102191ADDGF106991061001999999071999MD1610011+9999REMSYN060AAXX  27151 26422 42997 61006 10041 21093 40219 56001 8607/;
0165264220999992000032718004+56970+024050FM-12+0007UMRR V0200901N005012200019N0100001N1+00221-01021102291ADDAA199000091GF104991041001999999071999KA1999M+00441MD1310101+9999REMSYN070AAXX  27181 26422 32997 40905 10022 21102 40229 53010 8407/ 333 10044;EQDQ01  00002PRCP99
0122264220999992000032721004+56970+024050FM-12+0007UMRR V0201001N005012200019N0100001N1+00041-00931102431ADDGA1001+999999999GF100991001001999999001001MD1210141+9999REMSYN054AAXX  27211 26422 42997 01005 10004 21093 40243 52014;
0143264220999992000032800004+56970+024050FM-12+0007UMRR V0200801N005012200019N0100001N1-00081-00901102471ADDGA1001+999999999GF100991001001999999001001MA1999999102141MD1210041+9999REMSYN060AAXX  28001 26422 42997 00805 11008 21090 30214 40247 52004;
0152264220999992000032803004+56970+024050FM-12+0007UMRR V0200801N005012200019N0100001N1-00171-00911102481ADDAA199000091GA1001+999999999GF100991001001999999001001MD1110011+9999REMSYN054AAXX  28031 26422 32997 00805 11017 21091 40248 51001;EQDQ01  00002PRCP99
0165264220999992000032806004+56970+024050FM-12+0007UMRR V0201101N004012200019N0100001N1-00101-00841102551ADDAA199000091GF102991001001999999001011KA1999N-00201MD1210071+9999REMSYN070AAXX  28061 26422 32997 21104 11010 21084 40255 52007 80001 333 21020;EQDQ01  00002PRCP99
0139264220999992000032809004+56970+024050FM-12+0007UMRR V0200901N006019999999N0200001N1+00401-01031102591ADDGF105991001001999999001091MD1210041+9999OA140101101REMSYN076AAXX  28091 26422 42998 50906 10040 21103 40259 52004 80009 333 91011 91111;
0143264220999992000032812004+56970+024050FM-12+0007UMRR V0200701N004019999999N0100001N1+00671-01151102541ADDGF107991001001999999001091MA1999999102211MD1810051+9999REMSYN076AAXX  28121 26422 42997 70704 10067 21115 30221 40254 58005 80009 333 91111;
0112264220999992000032815004+56970+024050FM-12+0007UMRR V0201201N005019999999N0100001N1+00651-01141102471ADDGF106991001001999999001091MD1710071+9999REMSYN060AAXX  28151 26422 42997 61205 10065 21114 40247 57007 80009;
0165264220999992000032818004+56970+024050FM-12+0007UMRR V0200601N003019999999N0100001N1+00381-00961102561ADDAA199000091GF106991011001999999041091KA1999M+00691MD1310091+9999REMSYN070AAXX  28181 26422 32997 60603 10038 21096 40256 53009 81049 333 10069;EQDQ01  00002PRCP99
0112264220999992000032821004+56970+024050FM-12+0007UMRR V0200801N004019999999N0100001N1+00261-01071102651ADDGF107991071001999999031001MD1210091+9999REMSYN060AAXX  28211 26422 42997 70804 10026 21107 40265 52009 87030;
0133264220999992000032900004+56970+024050FM-12+0007UMRR V0200901N003012200019N0100001N1+00091-01011102641ADDGF103991001001999999001011MA1999999102311MD1810011+9999REMSYN066AAXX  29001 26422 42997 30903 10009 21101 30231 40264 58001 80001;
0152264220999992000032903004+56970+024050FM-12+0007UMRR V0200101N003012200019N0100001N1-00021-00881102661ADDAA199000091GA1001+999999999GF100991001001999999001001MD1110021+9999REMSYN054AAXX  29031 26422 32997 00103 11002 21088 40266 51002;EQDQ01  00002PRCP99
0175264220999992000032906004+56970+024050FM-12+0007UMRR V0201101N004012200019N0100001N1+00051-00871102721ADDAA199000091GA1001+999999999GF100991001001999999001001KA1999N-00081MD1310061+9999REMSYN064AAXX  29061 26422 32997 01104 10005 21087 40272 53006 333 21008;EQDQ01  00002PRCP99
0122264220999992000032909004+56970+024050FM-12+0007UMRR V0201301N003012200019N0100001N1+00531-00361102761ADDGA1001+999999999GF100991001001999999001001MD1210041+9999REMSYN054AAXX  29091 26422 42997 01303 10053 21036 40276 52004;
0143264220999992000032912004+56970+024050FM-12+0007UMRR V0201201N003012200019N0100001N1+00851-00361102701ADDGA1001+999999999GF100991001001999999001001MA1999999102381MD1810051+9999REMSYN060AAXX  29121 26422 42997 01203 10085 21036 30238 40270 58005;
0112264220999992000032915004+56970+024050FM-12+0007UMRR V0201201N001012200019N0100001N1+00991-00361102601ADDGF103991001001999999001091MD1710101+9999REMSYN060AAXX  29151 26422 42997 31201 10099 21036 40260 57010 80009;
0175264220999992000032918004+56970+024050FM-12+0007UMRR V0200401N001012200019N0100001N1+00421-00331102621ADDAA199000091GA1001+999999999GF100991001001999999001001KA1999M+01041MD1310011+9999REMSYN064AAXX  29181 26422 32997 00401 10042 21033 40262 53001 333 10104;EQDQ01  00002PRCP99
0122264220999992000032921004+56970+024050FM-12+0007UMRR V0201501N001012200019N0100001N1+00131-00301102611ADDGA1001+999999999GF100991001001999999001001MD1610011+9999REMSYN054AAXX  29211 26422 42997 01501 10013 21030 40261 56001;
0143264220999992000033000004+56970+024050FM-12+0007UMRR V0201401N001012200019N0100001N1+00161-00151102551ADDGA1001+999999999GF100991001001999999001001MA1999999102221MD1710061+9999REMSYN060AAXX  30001 26422 42997 01401 10016 21015 30222 40255 57006;
0152264220999992000033003004+56970+024050FM-12+0007UMRR V0201701N002012200019N0100001N1+00011-00241102391ADDAA199000091GA1001+999999999GF100991001001999999001001MD1710161+9999REMSYN054AAXX  30031 26422 32997 01702 10001 21024 40239 57016;EQDQ01  00002PRCP99
0175264220999992000033006004+56970+024050FM-12+0007UMRR V0201801N002012200019N0100001N1+00071-00201102291ADDAA199000091GA1001+999999999GF100991001001999999001001KA1999N-00121MD1710101+9999REMSYN064AAXX  30061 26422 32997 01802 10007 21020 40229 57010 333 21012;EQDQ01  00002PRCP99
0122264220999992000033009004+56970+024050FM-12+0007UMRR V0201901N003012200019N0100001N1+00821+00111102171ADDGA1001+999999999GF100991001001999999001001MD1810111+9999REMSYN054AAXX  30091 26422 42997 01903 10082 20011 40217 58011;
0143264220999992000033012004+56970+024050FM-12+0007UMRR V0202401N003012200019N0100001N1+01211+00001101911ADDGA1001+999999999GF100991001001999999001001MA1999999101601MD1710251+9999REMSYN060AAXX  30121 26422 42997 02403 10121 20000 30160 40191 57025;
0122264220999992000033015004+56970+024050FM-12+0007UMRR V0201101N002012200019N0100001N1+01231-00051101601ADDGA1001+999999999GF100991001001999999001001MD1710311+9999REMSYN054AAXX  30151 26422 42997 01102 10123 21005 40160 57031;
0203264220999992000033018004+56970+024050FM-12+0007UMRR V0200301N001012200019N0040001N1+00711+00091101481ADDAA199000091AY101061AY201061GA1001+999999999GF100991001001999999001001KA1999M+01291MD1710131+9999MW1101REMSYN070AAXX  30181 26422 31996 00301 10071 20009 40148 57013 71000 333 10129;EQDQ01  00002PRCP99
0122264220999992000033021004+56970+024050FM-12+0007UMRR V0201601N003012200019N0100001N1+00531-00151101311ADDGA1001+999999999GF100991001001999999001001MD1710171+9999REMSYN054AAXX  30211 26422 42997 01603 10053 21015 40131 57017;
0143264220999992000033100004+56970+024050FM-12+0007UMRR V0201401N002012200019N0100001N1+00321-00251101141ADDGA1001+999999999GF100991001001999999001001MA1999999100821MD1710171+9999REMSYN060AAXX  31001 26422 42997 01402 10032 21025 30082 40114 57017;
0142264220999992000033103004+56970+024050FM-12+0007UMRR V0201301N002019999999N0100001N1+00131-00221100961ADDAA199000091GF105991001001999999001011MD1710191+9999REMSYN060AAXX  31031 26422 32997 51302 10013 21022 40096 57019 80001;EQDQ01  00002PRCP99
0202264220999992000033106004+56970+024050FM-12+0007UMRR V0201401N003010024019N0100001N1+00231-00051100801ADDAA112000791AY161061AY211061GA1081+002409029GF108991081001002501021999KA1120N+00131MD1710151+9999MW1611REMSYN088AAXX  31061 26422 11397 81403 10023 21005 40080 57015 69902 76161 8802/ 333 20013 88508;
0166264220999992000033109004+56970+024050FM-12+0007UMRR V0201101N002010039019N0040001N1+00331+00251100721ADDAY161031AY251031GA1081+003909029GF108991081001004501021999MD1710081+9999MW1201REMSYN076AAXX  31091 26422 41496 81102 10033 20025 40072 57008 72065 8802/ 333 88513;
0187264220999992000033112004+56970+024050FM-12+0007UMRR V0201201N004010024019N0040001N1+00481+00331100521ADDAY161061AY251061GA1081+002409059GF108991081051002501999999MA1999999100201MD1710201+9999MW1101REMSYN082AAXX  31121 26422 41396 81204 10048 20033 30020 40052 57020 71065 885// 333 88608;
0166264220999992000033115004+56970+024050FM-12+0007UMRR V0201201N002010021019N0040001N1+00481+00451100321ADDAY161031AY221031GA1081+002109029GF108991081001002501021999MD1710201+9999MW1611REMSYN076AAXX  31151 26422 41396 81202 10048 20045 40032 57020 76162 8802/ 333 88507;
0202264220999992000033118004+56970+024050FM-12+0007UMRR V0201501N003010012019N0020001N1+00481+00451100181ADDAA112002091AY161061AY221061GA1081+001209029GF108991081001001501021999KA1120M+00511MD1710141+9999MW1631REMSYN088AAXX  31181 26422 11295 81503 10048 20045 40018 57014 60022 76362 8802/ 333 10051 88504;
0185264220999992000033121004+56970+024050FM-12+0007UMRR V0201801N002010006019N0020001N1+00481+00451100071ADDAY161031AY221031GA1071+000609069GF108991999071000751021999MD1710111+9999MW1631REMSYN076AAXX  31211 26422 41195 81802 10048 20045 40007 57011 76362 8872/ 333 87702;EQDQ01+000082SCOTLC
0187264220999992000040100004+56970+024050FM-12+0007UMRR V0201901N002010006019N0010001N1+00491+00461099951ADDAY161061AY221061GA1081+000609029GF108991081001000751021999MA1999999099631MD1710121+9999MW1611REMSYN082AAXX  01001 26422 41194 81902 10049 20046 39963 49995 57012 76162 8802/ 333 88502;
0166264220999992000040103004+56970+024050FM-12+0007UMRR V0202301N002010006019N0020001N1+00501+00451099851ADDAY161031AY221031GA1081+000609069GF108991081061000751999999MD1710101+9999MW1101REMSYN076AAXX  01031 26422 /1195 82302 10050 20045 49985 57010 71062 886// 333 88702;
0202264220999992000040106004+56970+024050FM-12+0007UMRR V0202201N003010015019N0040001N1+00471+00391099871ADDAA112004191AY161061AY221061GA1081+001509069GF108991081061001501999999KA1120N+00461MD1310021+9999MW1101REMSYN088AAXX  01061 26422 11296 82203 10047 20039 49987 53002 60042 71062 886// 333 20046 88705;
0166264220999992000040109004+56970+024050FM-12+0007UMRR V0202201N003010021019N0100001N1+00581+00381099911ADDAY181031AY221031GA1051+002109069GF108991081091002501999999MD1110041+9999MW1801REMSYN076AAXX  01091 26422 41397 82203 10058 20038 49991 51004 78082 889// 333 85707;
0187264220999992000040112004+56970+024050FM-12+0007UMRR V0202801N003010030019N0100001N1+00451+00271100011ADDAY181061AY221061GA1061+003009099GF108991061091004501071999MA1999999099691MD1210101+9999MW1801REMSYN082AAXX  01121 26422 41497 82803 10045 20027 39969 40001 52010 78082 8697/ 333 86910;
0166264220999992000040115004+56970+024050FM-12+0007UMRR V0202801N004010021019N0100001N1+00471+00341100171ADDAY181031AY221031GA1061+002109069GF108991081091002501999999MD1210161+9999MW1801REMSYN076AAXX  01151 26422 41397 82804 10047 20034 40017 52016 78082 889// 333 86707;
0202264220999992000040118004+56970+024050FM-12+0007UMRR V0202201N002010021019N0040001N1+00431+00351100341ADDAA112002091AY181061AY261061GA1081+002109029GF108991081001002501021999KA1120M+00591MD1210171+9999MW1611REMSYN088AAXX  01181 26422 11396 82202 10043 20035 40034 52017 60022 76186 8802/ 333 10059 88507;
0140264220999992000040121004+56970+024050FM-12+0007UMRR V0202401N002019999999N0040001N1+00381+00271100531ADDAY161031AY221031GF106991061001999999071001MD1210191+9999MW1101REMSYN066AAXX  01211 26422 41996 62402 10038 20027 40053 52019 71062 86070;
0119264220999992000040200004+56970+024050FM-12+0007UMRR V0202201N001019999999N0040001N1+99999+99999999999ADDGF108991999999002501999999REMSYN081AAXX  02001 26422 41396 82201 1037 20024 30037 40069 52016 71062 886// 333 88708;
0166264220999992000040203004+56970+024050FM-12+0007UMRR V0202001N002010078019N0040001N1+00381+00221100801ADDAY121031AY221031GA1081+007809059GF108991081051008001999999MD1210111+9999MW1101REMSYN076AAXX  02031 26422 /1596 82002 10038 20022 40080 52011 71022 885// 333 88626;
0202264220999992000040206004+56970+024050FM-12+0007UMRR V0202101N003010021019N0040001N1+00331+00201100971ADDAA112000791AY121061AY221061GA1081+002109069GF108991081061002501999999KA1120N+00331MD1210171+9999MW1101REMSYN088AAXX  02061 26422 11396 82103 10033 20020 40097 52017 69902 71022 886// 333 20033 88707;
0138264220999992000040209004+56970+024050FM-12+0007UMRR V0201901N00301004201CN0100001N1+00521+00271101121ADDGA1031+003609069GF108991081091004501999999MD1210151+9999REMSYN070AAXX  02091 26422 42497 81903 10052 20027 40112 52015 889// 333 83712;
0159264220999992000040212004+56970+024050FM-12+0007UMRR V0202001N002010069019N0100001N1+00791+00251101101ADDGA1061+006909059GF108991061051008001031999MA1999999100711MD1810021+9999REMSYN076AAXX  02121 26422 42597 82002 10079 20025 30071 40110 58002 8653/ 333 86623;
0138264220999992000040215004+56970+024050FM-12+0007UMRR V0201901N003010300019N0100001N1+00801+00301101071ADDGA1041+012909059GF108991041051012501031999MD1710031+9999REMSYN070AAXX  02151 26422 42697 81903 10080 20030 40107 57003 8453/ 333 84643;
0181264220999992000040218004+56970+024050FM-12+0007UMRR V0201401N002019999999N0100001N1+00701+00251101071ADDAA199000091GF108991081001999999051001KA1999M+00841MD1410001+9999REMSYN070AAXX  02181 26422 32997 81402 10070 20025 40107 56000 88050 333 10084;EQDQ01+000062APCTENQ02  00002PRCP99
0112264220999992000040221004+56970+024050FM-12+0007UMRR V0201401N003019999999N0100001N1+00611+00241101071ADDGF108991081001999999051999MD1410001+9999REMSYN060AAXX  02211 26422 42997 81403 10061 20024 40107 54000 8805/;
0133264220999992000040300004+56970+024050FM-12+0007UMRR V0201401N002019999999N0100001N1+00571+00221101041ADDGF108991081001999999051999MA1999999100721MD1810031+9999REMSYN066AAXX  03001 26422 42997 81402 10057 20022 30072 40104 58003 8805/;
0142264220999992000040303004+56970+024050FM-12+0007UMRR V0201301N002019999999N0100001N1+00491+00161100981ADDAA199000091GF108991081001999999051999MD1710061+9999REMSYN060AAXX  03031 26422 32997 81302 10049 20016 40098 57006 8805/;EQDQ01  00002PRCP99
0165264220999992000040306004+56970+024050FM-12+0007UMRR V0201601N002019999999N0100001N1+00581+00131100961ADDAA199000091GF107991071001999999071001KA1999N+00351MD1610021+9999REMSYN070AAXX  03061 26422 32997 71602 10058 20013 40096 56002 87070 333 20035;EQDQ01  00002PRCP99
0112264220999992000040309004+56970+024050FM-12+0007UMRR V0201901N002012200019N0100001N1+01101+00251100961ADDGF102991021021012501001001MD1410001+9999REMSYN060AAXX  03091 26422 42697 21902 10110 20025 40096 54000 82200;
0159264220999992000040312004+56970+024050FM-12+0007UMRR V0200101N003010129019N0100001N1+01061+00151100921ADDGA1051+012909029GF105991051021012501001001MA1999999100601MD1810041+9999REMSYN076AAXX  03121 26422 42697 50103 10106 20015 30060 40092 58004 85200 333 85843;
0112264220999992000040315004+56970+024050FM-12+0007UMRR V0200401N002012200019N0100001N1+01201+00151100821ADDGF102991021021012501001001MD1710091+9999REMSYN060AAXX  03151 26422 42697 20402 10120 20015 40082 57009 82200;
0193264220999992000040318004+56970+024050FM-12+0007UMRR V0200701N002012200019N0100001N1+00701+00041100801ADDAA199000091AY101061AY201061GF102991021001999999031001KA1999M+01241MD1310031+9999MW1101REMSYN076AAXX  03181 26422 31997 20702 10070 20004 40080 53003 71000 82030 333 10124;EQDQ01  00002PRCP99
0122264220999992000040321004+56970+024050FM-12+0007UMRR V0201201N003012200019N0100001N1+00681+00031100881ADDGA1001+999999999GF100991001001999999001001MD1110021+9999REMSYN054AAXX  03211 26422 42997 01203 10068 20003 40088 51002;
0143264220999992000040400004+56970+024050FM-12+0007UMRR V0201301N003012200019N0100001N1+00471-00071100881ADDGA1001+999999999GF100991001001999999001001MA1999999100561MD1010001+9999REMSYN060AAXX  04001 26422 42997 01303 10047 21007 30056 40088 50000;
0142264220999992000040403004+56970+024050FM-12+0007UMRR V0201301N003012200019N0100001N1+00291-00041100851ADDAA199000091GF102991001001999999001011MD1610031+9999REMSYN060AAXX  04031 26422 32997 21303 10029 21004 40085 56003 80001;EQDQ01  00002PRCP99
0165264220999992000040406004+56970+024050FM-12+0007UMRR V0201301N003012200019N0100001N1+00451-00041100761ADDAA199000091GF102991001001999999001011KA1999N+00241MD1710091+9999REMSYN070AAXX  04061 26422 32997 21303 10045 21004 40076 57009 80001 333 20024;EQDQ01  00002PRCP99
0149264220999992000040409004+56970+024050FM-12+0007UMRR V0201601N008012200019N0100001N1+01171-00191100631ADDGA1001+999999999GF100991001001999999001001MD1710131+9999OA140101501REMSYN070AAXX  04091 26422 42997 01608 10117 21019 40063 57013 333 91015 91114;
0160264220999992000040412004+56970+024050FM-12+0007UMRR V0201401N006019999999N0100001N1+01191-00191100411ADDGF108991081001999999051999MA1999999100101MD1710211+9999OA140101101REMSYN082AAXX  04121 26422 42997 81406 10119 21019 30010 40041 57021 8805/ 333 91011 91115;
0189264220999992000040415004+56970+024050FM-12+0007UMRR V0201201N005010300019N0100001N1+01171-00081100211ADDAY181031AY221031GA1031+010809099GF108991031091012501051999MD1710201+9999MW1251OA140101001REMSYN088AAXX  04151 26422 41697 81205 10117 21008 40021 57020 72582 8395/ 333 83936 91010 91112;
0225264220999992000040418004+56970+024050FM-12+0007UMRR V0201501N007010300019N0100001N1+01151+00061100111ADDAA112000791AY181061AY221061GA1041+013509099GF108991041091012501051999KA1120M+01251MD1610101+9999MW1801OA140101101REMSYN100AAXX  04181 26422 11697 81507 10115 20006 40011 56010 69902 78082 8495/ 333 10125 84945 91011 91110;
0189264220999992000040421004+56970+024050FM-12+0007UMRR V0201601N007010126019N0100001N1+01091+00281099921ADDAY181031AY221031GA1051+012609099GF108991051091012501051999MD1710191+9999MW1031OA140101101REMSYN088AAXX  04211 26422 41697 81607 10109 20028 49992 57019 70382 8595/ 333 85942 91011 91113;
0210264220999992000040500004+56970+024050FM-12+0007UMRR V0201601N007010084019N0100001N1+01051+00421099821ADDAY181061AY221061GA1081+008409099GF108991081091008001999999MA1999999099511MD1710101+9999MW1801OA140101101REMSYN094AAXX  05001 26422 41597 81607 10105 20042 39951 49982 57010 78082 889// 333 88928 91011 91113;
0189264220999992000040503004+56970+024050FM-12+0007UMRR V0201701N005010033019N0100001N1+00871+00761099671ADDAY181031AY221031GA1081+003309099GF108991081091004501999999MD1710151+9999MW1801OA140101001REMSYN088AAXX  05031 26422 /1497 81705 10087 20076 49967 57015 78082 889// 333 88911 91010 91111;
0225264220999992000040506004+56970+024050FM-12+0007UMRR V0201801N006010015019N0040001N1+00911+00761099681ADDAA112000591AY181061AY221061GA1081+001509079GF108991081061001501999999KA1120N+00831MD1310011+9999MW1101OA140101001REMSYN100AAXX  05061 26422 11296 81806 10091 20076 49968 53001 69962 71082 886// 333 20083 88705 91010 91111;
0172264220999992000040509004+56970+024050FM-12+0007UMRR V0202101N004010057019N0040001N1+01291+00871099741ADDAY121031AY221031GA1061+005709069GF107991061051004501081001MD1210061+9999MW1101REMSYN082AAXX  05091 26422 41496 72104 10129 20087 49974 52006 71022 86580 333 86619 91110;
0138264220999992000040515004+56970+024050FM-12+0007UMRR V0202101N004010141019N0100001N1+01571+00541099861ADDGA1051+014109099GF108991071091012501001051MD1310081+9999REMSYN070AAXX  05151 26422 42697 82104 10157 20054 49986 53008 87905 333 85947;
0210264220999992000040518004+56970+024050FM-12+0007UMRR V0203501N008010009019N0100001N1+00371+00241100241ADDAA199000091GA1081+000909079GF108991081061000751999999KA1120M+01691MD1210371+9999OA140101301REMSYN088AAXX  05181 26422 32197 83508 10037 20024 40024 52037 886// 333 10169 88703 91013 91115;EQDQ01  00002PRCP99
0161264220999992000040521004+56970+024050FM-12+0007UMRR V0203301N009010027019N0100001N1+00151-00111100631ADDGA1081+002709079GF108991081061002501999999MD1210381+9999OA140101301REMSYN082AAXX  05211 26422 42397 83309 10015 21011 40063 52038 886// 333 88709 91013 91115;
0182264220999992000040600004+56970+024050FM-12+0007UMRR V0203601N009010150019N0100001N1+00091-00241100841ADDGA1061+015009069GF106991061051017501001001MA1999999100511MD1210211+9999OA140101501REMSYN088AAXX  06001 26422 42797 63609 10009 21024 30051 40084 52021 86500 333 86650 91015 91115;
0169264220999992000040603004+56970+024050FM-12+0007UMRR V0203401N006019999999N0100001N1+00051-00361101051ADDAA199000091GF105991021001999999041011MD1210211+9999OA140101101REMSYN076AAXX  06031 26422 32997 53406 10005 21036 40105 52021 82041 333 91011 91115;EQDQ01  00002PRCP99
0171264220999992000040606004+56970+024050FM-12+0007UMRR V0203401N004019999999N0100001N1+00171-00251101281ADDAA199000091GF107991071001999999071001KA1120N+00051MD1210231+9999REMSYN076AAXX  06061 26422 32997 73404 10017 21025 40128 52023 87070 333 20005 91112;EQDQ01  00002PRCP99
0139264220999992000040609004+56970+024050FM-12+0007UMRR V0203401N00701220001CN0100001N1+00351-00301101401ADDGF108991011011008001001041MD1210131+9999OA140101301REMSYN076AAXX  06091 26422 42597 83407 10035 21030 40140 52013 81104 333 91013 91113;
0160264220999992000040612004+56970+024050FM-12+0007UMRR V0203301N009019999999N0100001N1+00391-00211101521ADDGF108991021001999999031041MA1999999101201MD1310121+9999OA140101501REMSYN082AAXX  06121 26422 42997 83309 10039 21021 30120 40152 53012 82034 333 91015 91115;
0139264220999992000040615004+56970+024050FM-12+0007UMRR V0203301N007019999999N0100001N1+00311-00281101641ADDGF106991051001999999071011MD1210111+9999OA140101201REMSYN076AAXX  06151 26422 42997 63307 10031 21028 40164 52011 85071 333 91012 91115;
0188264220999992000040618004+56970+024050FM-12+0007UMRR V0203301N006019999999N0100001N1+00211-00141101761ADDAA199000091GF106991061001999999071001KA1120M+00411MD1210131+9999OA140101101REMSYN082AAXX  06181 26422 32997 63306 10021 21014 40176 52013 86070 333 10041 91011 91115;EQDQ01  00002PRCP99
0122264220999992000040621004+56970+024050FM-12+0007UMRR V0203201N003012200019N0100001N1+00111-00161101891ADDGF102991001001999999001011MD1210121+9999REMSYN070AAXX  06211 26422 42997 23203 10011 21016 40189 52012 80001 333 91111;
0153264220999992000040700004+56970+024050FM-12+0007UMRR V0203301N004012200019N0100001N1+00051-00121101911ADDGA1001+999999999GF100991001001999999001001MA1999999101581MD1110021+9999REMSYN070AAXX  07001 26422 42997 03304 10005 21012 30158 40191 51002 333 91111;
0142264220999992000040703004+56970+024050FM-12+0007UMRR V0203301N003012200019N0100001N1+00071-00231101891ADDAA199000091GF102991001001999999001011MD1810021+9999REMSYN060AAXX  07031 26422 32997 23303 10007 21023 40189 58002 80001;EQDQ01  00002PRCP99
0165264220999992000040706004+56970+024050FM-12+0007UMRR V0203501N003019999999N0100001N1+00231-00051101931ADDAA199000091GF107991001001999999001041KA1999N+00031MD1310051+9999REMSYN070AAXX  07061 26422 32997 73503 10023 21005 40193 53005 80004 333 20003;EQDQ01  00002PRCP99
0112264220999992000040709004+56970+024050FM-12+0007UMRR V0203501N007012200019N0100001N1+00421-00161101961ADDGF106991021021012501001011MD1210031+9999REMSYN060AAXX  07091 26422 42697 63507 10042 21016 40196 52003 82201;
0160264220999992000040712004+56970+024050FM-12+0007UMRR V0203401N007012200019N0100001N1+00481-00251101931ADDGF106991021021008001001011MA1999999101611MD1810031+9999OA140101201REMSYN082AAXX  07121 26422 42597 63407 10048 21025 30161 40193 58003 82201 333 91012 91113;
0139264220999992000040715004+56970+024050FM-12+0007UMRR V0203501N008019999999N0100001N1+00491-00271101901ADDGF106991001001999999001011MD1610031+9999OA140101201REMSYN076AAXX  07151 26422 42997 63508 10049 21027 40190 56003 80001 333 91012 91113;
0188264220999992000040718004+56970+024050FM-12+0007UMRR V0203401N006012200019N0100001N1+00261-00041101901ADDAA199000091GF104991031001999999071011KA1120M+00561MD1410001+9999OA140101001REMSYN082AAXX  07181 26422 32997 43406 10026 21004 40190 54000 83071 333 10056 91010 91113;EQDQ01  00002PRCP99
0122264220999992000040721004+56970+024050FM-12+0007UMRR V0203601N004019999999N0100001N1+00351-00091101961ADDGF107991071001999999071001MD1310061+9999REMSYN070AAXX  07211 26422 42997 73604 10035 21009 40196 53006 87070 333 91110;
0143264220999992000040800004+56970+024050FM-12+0007UMRR V0200201N004012200019N0100001N1+00231-00311101981ADDGA1001+999999999GF100991001001999999001001MA1999999101661MD1110021+9999REMSYN060AAXX  08001 26422 42997 00204 10023 21031 30166 40198 51002;
0142264220999992000040803004+56970+024050FM-12+0007UMRR V0200201N006019999999N0100001N1+00291-00401101961ADDAA199000091GF108991081001000251051999MD1810021+9999REMSYN060AAXX  08031 26422 32097 80206 10029 21040 40196 58002 8805/;EQDQ01  00002PRCP99
0165264220999992000040806004+56970+024050FM-12+0007UMRR V0200201N005019999999N0100001N1+00271-00221101931ADDAA199000091GF108991081001999999051999KA1999N+00221MD1610031+9999REMSYN070AAXX  08061 26422 32997 80205 10027 21022 40193 56003 8805/ 333 20022;EQDQ01  00002PRCP99
0139264220999992000040809004+56970+024050FM-12+0007UMRR V0203601N005010300019N0100001N1+00361-00121101901ADDGF108991021051012501071999MD1810031+9999OA140101001REMSYN076AAXX  08091 26422 42697 83605 10036 21012 40190 58003 8257/ 333 91010 91110;
0182264220999992000040812004+56970+024050FM-12+0007UMRR V0200101N006010105019N0100001N1+00361-00151101871ADDGA1051+010509069GF108991051051012501071999MA1999999101551MD1610031+9999OA140101001REMSYN088AAXX  08121 26422 42697 80106 10036 21015 30155 40187 56003 8557/ 333 85635 91010 91112;
0161264220999992000040815004+56970+024050FM-12+0007UMRR V0203601N005010120019N0100001N1+00361-00151101831ADDGA1081+012009069GF108991081051012501999999MD1810041+9999OA140101001REMSYN082AAXX  08151 26422 42697 83605 10036 21015 40183 58004 885// 333 88640 91010 91111;
0193264220999992000040818004+56970+024050FM-12+0007UMRR V0200101N003010129019N0100001N1+00341-00141101821ADDAA199000091GA1081+012909069GF108991081051012501999999KA1120M+00491MD1610011+9999REMSYN082AAXX  08181 26422 32697 80103 10034 21014 40182 56001 885// 333 10049 88643 91111;EQDQ01  00002PRCP99
0161264220999992000040821004+56970+024050FM-12+0007UMRR V0200201N006010072019N0100001N1+00261-00111101781ADDGA1081+007209069GF108991081051008001999999MD1810041+9999OA140101101REMSYN082AAXX  08211 26422 42597 80206 10026 21011 40178 58004 885// 333 88624 91011 91112;
0165264220999992000040900004+56970+024050FM-12+0007UMRR V0203601N004010024019N0100001N1+00131+00011101721ADDGA1081+002409079GF108991081061002501999999MA1999999101391MD1710071+9999REMSYN082AAXX  09001 26422 42397 83604 10013 20001 30139 40172 57007 886// 333 88708 91112;
0168264220999992000040903004+56970+024050FM-12+0007UMRR V0200301N004010015019N0100001N1+00111+00021101651ADDAA199000091GA1081+001509069GF108991081061001501999999MD1710071+9999REMSYN070AAXX  09031 26422 32297 80304 10011 20002 40165 57007 886// 333 88705;EQDQ01  00002PRCP99
0187264220999992000040906004+56970+024050FM-12+0007UMRR V0200401N003010015019N0100001N1+00171+00031101671ADDAA199000091GA1081+001509069GF108991081061001501999999KA1120N+00091MD1310021+9999REMSYN076AAXX  09061 26422 32297 80403 10017 20003 40167 53002 886// 333 20009 88705;EQDQ01  00002PRCP99
0138264220999992000040909004+56970+024050FM-12+0007UMRR V0200301N002010300019N0100001N1+00381+00041101681ADDGA1041+004809059GF108991041051004501031999MD1210021+9999REMSYN070AAXX  09091 26422 42497 80302 10038 20004 40168 52002 8453/ 333 84616;
0159264220999992000040912004+56970+024050FM-12+0007UMRR V0203601N003010045019N0100001N1+00451+00141101691ADDGA1081+004509059GF108991081051004501999999MA1999999101371MD1210011+9999REMSYN076AAXX  09121 26422 42497 83603 10045 20014 30137 40169 52001 885// 333 88615;
0166264220999992000040915004+56970+024050FM-12+0007UMRR V0203501N003010021019N0100001N1+00311+00231101671ADDAY161031AY221031GA1081+002109029GF108991081999002501021999MD1810021+9999MW1611REMSYN076AAXX  09151 26422 41397 83503 10031 20023 40167 58002 76162 88/2/ 333 88507;
0202264220999992000040918004+56970+024050FM-12+0007UMRR V0203201N001010006019N0040001N1+00281+00231101631ADDAA112002091AY161061AY221061GA1081+000609059GF108991081001000751021999KA1120M+00471MD1710041+9999MW1631REMSYN088AAXX  09181 26422 11196 83201 10028 20023 40163 57004 60022 76362 8802/ 333 10047 88602;
0166264220999992000040921004+56970+024050FM-12+0007UMRR V0202701N001010003019N0010001N1+00251+00241101601ADDAY161031AY221031GA1081+000309069GF108991081061000751999999MD1810031+9999MW1101REMSYN076AAXX  09211 26422 41194 82701 10025 20024 40160 58003 71062 886// 333 88701;
0187264220999992000041000004+56970+024050FM-12+0007UMRR V0202601N003010003019N0010001N1+00271+00241101591ADDAY161061AY221061GA1081+000309069GF108991081061000751999999MA1999999101271MD1810011+9999MW1101REMSYN082AAXX  10001 26422 41194 82603 10027 20024 30127 40159 58001 71062 886// 333 88701;
0166264220999992000041003004+56970+024050FM-12+0007UMRR V0202001N002010009019N0020001N1+00221+00191101591ADDAY161031AY251031GA1081+000909069GF108991081061000751999999MD1410001+9999MW1531REMSYN076AAXX  10031 26422 /1195 82002 10022 20019 40159 54000 75365 886// 333 88703;
0202264220999992000041006004+56970+024050FM-12+0007UMRR V0202001N001010012019N0040001N1+00231+00201101631ADDAA112000591AY161061AY251061GA1081+001209029GF108991081001001501021999KA1120N+00191MD1310041+9999MW1611REMSYN088AAXX  10061 26422 11296 82001 10023 20020 40163 53004 69952 76165 8802/ 333 20019 88504;
0166264220999992000041009004+56970+024050FM-12+0007UMRR V0202201N003010039019N0100001N1+00431+00261101681ADDAY161031AY251031GA1081+003909099GF108991081091004501999999MD1210051+9999MW1201REMSYN076AAXX  10091 26422 41497 82203 10043 20026 40168 52005 72065 889// 333 88913;
0187264220999992000041012004+56970+024050FM-12+0007UMRR V0202101N003010075019N0100001N1+00521+00201101651ADDAY161061AY251061GA1081+007509099GF108991081091008001999999MA1999999101331MD1810031+9999MW1021REMSYN082AAXX  10121 26422 41597 82103 10052 20020 30133 40165 58003 70265 889// 333 88925;
0138264220999992000041015004+56970+024050FM-12+0007UMRR V0201801N003010084019N0100001N1+00491+00081101571ADDGA1081+008409059GF108991081041008001999999MD1710081+9999REMSYN070AAXX  10151 26422 42597 81803 10049 20008 40157 57008 884// 333 88628;
0174264220999992000041018004+56970+024050FM-12+0007UMRR V0201801N002010096019N0100001N1+00431+00061101521ADDAA112000391GA1081+009609059GF108991081041008001999999KA1120M+00551MD1710051+9999REMSYN082AAXX  10181 26422 12597 81802 10043 20006 40152 57005 69932 884// 333 10055 88632;
0138264220999992000041021004+56970+024050FM-12+0007UMRR V0201701N003010123019N0100001N1+00371+00111101481ADDGA1081+012309059GF108991081051012501999999MD1610041+9999REMSYN070AAXX  10211 26422 42697 81703 10037 20011 40148 56004 885// 333 88641;
0143264220999992000041100004+56970+024050FM-12+0007UMRR V0201601N003012200019N0100001N1+00131-00071101411ADDGA1001+999999999GF100991001001999999001001MA1999999101081MD1710081+9999REMSYN060AAXX  11001 26422 42997 01603 10013 21007 30108 40141 57008;
0142264220999992000041103004+56970+024050FM-12+0007UMRR V0201501N003012200019N0100001N1+00101-00131101271ADDAA199000091GF102991021001999999071001MD1710141+9999REMSYN060AAXX  11031 26422 32997 21503 10010 21013 40127 57014 82070;EQDQ01  00002PRCP99
0165264220999992000041106004+56970+024050FM-12+0007UMRR V0201601N003019999999N0100001N1+00291-00071101221ADDAA199000091GF108991081001999999051999KA1999N+00051MD1610041+9999REMSYN070AAXX  11061 26422 32997 81603 10029 21007 40122 56004 8805/ 333 20005;EQDQ01  00002PRCP99
0144264220999992000041109004+56970+024050FM-12+0007UMRR V0201601N005010084019N0100001N1+00881-00181101171ADDGA1051+008409089GF108991051011008001001041MD1810051+9999REMSYN076AAXX  11091 26422 42597 81605 10088 21018 40117 58005 85104 333 85828 91011;
0165264220999992000041112004+56970+024050FM-12+0007UMRR V0201501N004010093019N0100001N1+00861-00401101041ADDGA1061+009309089GF108991061021008001031999MA1999999100721MD1710131+9999REMSYN082AAXX  11121 26422 42597 81504 10086 21040 30072 40104 57013 8623/ 333 86831 91111;
0138264220999992000041115004+56970+024050FM-12+0007UMRR V0201601N004010105019N0100001N1+00871-00231100931ADDGA1061+010509099GF108991061091012501031999MD1710111+9999REMSYN070AAXX  11151 26422 42697 81604 10087 21023 40093 57011 8693/ 333 86935;
0165264220999992000041118004+56970+024050FM-12+0007UMRR V0201201N003012200019N0100001N1+00651+00001100921ADDAA199000091GF103991031001999999061001KA1999M+00971MD1810011+9999REMSYN070AAXX  11181 26422 32997 31203 10065 20000 40092 58001 83060 333 10097;EQDQ01  00002PRCP99
0122264220999992000041121004+56970+024050FM-12+0007UMRR V0201101N003012200019N0100001N1+00501+00171100891ADDGA1001+999999999GF100991001001999999001001MD1710031+9999REMSYN054AAXX  11211 26422 42997 01103 10050 20017 40089 57003;
0143264220999992000041200004+56970+024050FM-12+0007UMRR V0201101N003012200019N0100001N1+00411+00171100791ADDGA1001+999999999GF100991001001999999001001MA1999999100471MD1710101+9999REMSYN060AAXX  12001 26422 42997 01103 10041 20017 30047 40079 57010;
0152264220999992000041203004+56970+024050FM-12+0007UMRR V0201201N003012200019N0100001N1+00341+00181100691ADDAA199000091GA1001+999999999GF100991001001999999001001MD1710101+9999REMSYN054AAXX  12031 26422 32997 01203 10034 20018 40069 57010;EQDQ01  00002PRCP99
0165264220999992000041206004+56970+024050FM-12+0007UMRR V0201301N003019999999N0100001N1+00471+00271100611ADDAA199000091GF106991001001999999001061KA1999N+00301MD1710081+9999REMSYN070AAXX  12061 26422 32997 61303 10047 20027 40061 57008 80006 333 20030;EQDQ01  00002PRCP99
0112264220999992000041209004+56970+024050FM-12+0007UMRR V0201001N005019999999N0100001N1+01131+00211100481ADDGF108991001001999999001061MD1710121+9999REMSYN060AAXX  12091 26422 42997 81005 10113 20021 40048 57012 80006;
0133264220999992000041212004+56970+024050FM-12+0007UMRR V0201401N005010750019N0100001N1+01471+00191100341ADDGF108991031021008001001061MA1999999100031MD1710141+9999REMSYN066AAXX  12121 26422 42597 81405 10147 20019 30003 40034 57014 83206;
0122264220999992000041215004+56970+024050FM-12+0007UMRR V0201301N005010750019N0100001N1+01451+00001100231ADDGF106991031021008001001021MD1710111+9999REMSYN070AAXX  12151 26422 42597 61305 10145 20000 40023 57011 83202 333 91111;
0171264220999992000041218004+56970+024050FM-12+0007UMRR V0201301N004012200019N0100001N1+01171+00121100281ADDAA199000091GF103991001001999999001011KA1120M+01531MD1310051+9999REMSYN076AAXX  12181 26422 32997 31304 10117 20012 40028 53005 80001 333 10153 91111;EQDQ01  00002PRCP99
0122264220999992000041221004+56970+024050FM-12+0007UMRR V0201301N004012200019N0100001N1+00891+00131100201ADDGA1001+999999999GF100991001001999999001001MD1810081+9999REMSYN054AAXX  12211 26422 42997 01304 10089 20013 40020 58008;
0152264220999992000041300004+56970+024050FM-12+0007UMRR V0201201N004012200019N0100001N1+00801+00231099991ADDGF102991999001999999031001MA1999999099681MD1710211+9999REMSYN066AAXX  13001 26422 42997 21204 10080 20023 39968 49999 57021 80030;EQDQ01+000002SCOTLC
0142264220999992000041303004+56970+024050FM-12+0007UMRR V0201201N004019999999N0100001N1+00711+00301099771ADDAA199000091GF108991051001999999081051MD1710221+9999REMSYN060AAXX  13031 26422 32997 81204 10071 20030 49977 57022 85085;EQDQ01  00002PRCP99
0202264220999992000041306004+56970+024050FM-12+0007UMRR V0201301N005010300019N0100001N1+00831+00441099561ADDAA112000791AY181061AY221061GA1041+013509099GF108991041091012501051999KA1120N+00691MD1710211+9999MW1251REMSYN088AAXX  13061 26422 11697 81305 10083 20044 49956 57021 69902 72582 8495/ 333 20069 84945;
0189264220999992000041309004+56970+024050FM-12+0007UMRR V0202101N007010033019N0100001N1+00751+00541099731ADDAY181031AY221031GA1081+003309099GF108991081091004501999999MD1310171+9999MW1251OA140101301REMSYN088AAXX  13091 26422 41497 82107 10075 20054 49973 53017 72582 889// 333 88911 91013 91113;
0210264220999992000041312004+56970+024050FM-12+0007UMRR V0202001N005010096019N0200001N1+01081+00241100021ADDAY181061AY221061GA1061+009609089GF106991061011008001001001MA1999999099711MD1210291+9999MW1011OA140101001REMSYN094AAXX  13121 26422 41598 62005 10108 20024 39971 40002 52029 70182 86100 333 86832 91010 91113;
0122264220999992000041315004+56970+024050FM-12+0007UMRR V0201601N005010300019N0200001N1+01261-00041099981ADDGF105991031011008001031001MD1810041+9999REMSYN070AAXX  13151 26422 42598 51605 10126 21004 49998 58004 83130 333 91110;
0225264220999992000041318004+56970+024050FM-12+0007UMRR V0202001N008010060019N0100001N1+01101+00021099881ADDAA112003091AY181061AY221061GA1071+006009099GF108991071091008001071999KA1120M+01331MD1710101+9999MW1801OA140101501REMSYN100AAXX  13181 26422 11597 82008 10110 20002 49988 57010 60032 78082 8797/ 333 10133 87920 91015 91115;
0150264220999992000041321004+56970+024050FM-12+0007UMRR V0201601N005019999999N0100001N1+00501+00401100071ADDAY181031AY221031GF105991051001999999031001MD1110181+9999MW1011REMSYN076AAXX  13211 26422 41997 51605 10050 20040 40007 51018 70182 85030 333 91115;
0171264220999992000041400004+56970+024050FM-12+0007UMRR V0201601N003019999999N0100001N1+00461+00391100051ADDAY181061AY221061GF105991051001999999031001MA1999999099731MD1810021+9999MW1021REMSYN082AAXX  14001 26422 41997 51603 10046 20039 39973 40005 58002 70282 85030 333 91115;
0112264220999992000041403004+56970+024050FM-12+0007UMRR V0201801N004019999999N0100001N1+00471+00341100021ADDGF106991061001999999071001MD1610031+9999REMSYN060AAXX  14031 26422 /2997 61804 10047 20034 40002 56003 86070;
0152264220999992000041406004+56970+024050FM-12+0007UMRR V0201901N005012200019N0100001N1+00691+00351100031ADDAA112005191GF104991001001999999001011KA1999N+00421MD1310021+9999REMSYN076AAXX  14061 26422 12997 41905 10069 20035 40003 53002 60052 80001 333 20042;
0139264220999992000041409004+56970+024050FM-12+0007UMRR V0201801N008012200019N0100001N1+01331+00321100001ADDGF102991021011012501001011MD1710031+9999OA140101201REMSYN076AAXX  14091 26422 42697 21808 10133 20032 40000 57003 82101 333 91012 91113;
0189264220999992000041415004+56970+024050FM-12+0007UMRR V0201801N006010072019N0200001N1+01231+00361099941ADDAY181031AY221031GA1061+007209099GF107991061091008001071001MD1310041+9999MW1251OA140101001REMSYN088AAXX  14151 26422 41598 71806 10123 20036 49994 53004 72582 86970 333 86924 91010 91114;
0186264220999992000041418004+56970+024050FM-12+0007UMRR V0202401N004012200019N0100001N1+01011+00211100041ADDAA112000791AY181061AY211061GF104991041001999999071001KA1120M+01591MD1210101+9999MW1011REMSYN088AAXX  14181 26422 11997 42404 10101 20021 40004 52010 69902 70181 84070 333 10159 91114;
0166264220999992000041421004+56970+024050FM-12+0007UMRR V0202501N004010060019N0100001N1+00791+00491100131ADDAY181031AY211031GA1051+006009099GF108991051091008001071999MD1210091+9999MW1801REMSYN076AAXX  14211 26422 41597 82504 10079 20049 40013 52009 78081 8597/ 333 85920;
0161264220999992000041500004+56970+024050FM-12+0007UMRR V0202001N003012200019N0100001N1+00511+00331100211ADDAY181061AY211061GF103991031001999999011001MA1999999099891MD1210071+9999MW1011REMSYN072AAXX  15001 26422 41997 32003 10051 20033 39989 40021 52007 70181 83010;
0112264220999992000041503004+56970+024050FM-12+0007UMRR V0202001N002019999999N0100001N1+00321+00211100281ADDGF108991031001999999071081MD1210071+9999REMSYN060AAXX  15031 26422 /2997 82002 10032 20021 40028 52007 83078;
0152264220999992000041506004+56970+024050FM-12+0007UMRR V0202201N002012200019N0100001N1+00431+00251100411ADDAA112000191GF102991001001999999001011KA1999N+00261MD1210131+9999REMSYN076AAXX  15061 26422 12997 22202 10043 20025 40041 52013 69922 80001 333 20026;
0112264220999992000041509004+56970+024050FM-12+0007UMRR V0202601N004019999999N0200001N1+00911+00181100511ADDGF105991021011999999001011MD1210111+9999REMSYN060AAXX  15091 26422 42998 52604 10091 20018 40051 52011 82101;
0159264220999992000041512004+56970+024050FM-12+0007UMRR V0202601N003010069019N0200001N1+01321+00021100621ADDGA1061+006909029GF106991061021008001001001MA1999999100311MD1210111+9999REMSYN076AAXX  15121 26422 42598 62603 10132 20002 30031 40062 52011 86200 333 86823;
0112264220999992000041515004+56970+024050FM-12+0007UMRR V0202101N002010300019N0200001N1+01291+00091100701ADDGF107991021021012501041011MD1210081+9999REMSYN060AAXX  15151 26422 42698 72102 10129 20009 40070 52008 82241;
0165264220999992000041518004+56970+024050FM-12+0007UMRR V0201801N002019999999N0100001N1+01071+00091100811ADDAA199000091GF106991041001999999031011KA1999M+01391MD1210101+9999REMSYN070AAXX  15181 26422 32997 61802 10107 20009 40081 52010 84031 333 10139;EQDQ01  00002PRCP99
0112264220999992000041521004+56970+024050FM-12+0007UMRR V0201801N005012200019N0100001N1+00811+00171100841ADDGF101991001001999999001011MD1110031+9999REMSYN060AAXX  15211 26422 42997 11805 10081 20017 40084 51003 80001;
0133264220999992000041600004+56970+024050FM-12+0007UMRR V0201601N004012200019N0100001N1+00631+00151100881ADDGF102991001001999999001011MA1999999100561MD1310041+9999REMSYN066AAXX  16001 26422 42997 21604 10063 20015 30056 40088 53004 80001;
0142264220999992000041603004+56970+024050FM-12+0007UMRR V0201401N004012200019N0100001N1+00471+00071100871ADDAA199000091GF102991011001999999041011MD1810011+9999REMSYN060AAXX  16031 26422 32997 21404 10047 20007 40087 58001 81041;EQDQ01  00002PRCP99
0165264220999992000041606004+56970+024050FM-12+0007UMRR V0201301N004019999999N0100001N1+00671+00111100771ADDAA199000091GF107991011001999999041041KA1999N+00451MD1710101+9999REMSYN070AAXX  16061 26422 32997 71304 10067 20011 40077 57010 81044 333 20045;EQDQ01  00002PRCP99
0112264220999992000041609004+56970+024050FM-12+0007UMRR V0201301N003019999999N0200001N1+01231+00301100591ADDGF106991001001999999001011MD1710171+9999REMSYN060AAXX  16091 26422 42998 61303 10123 20030 40059 57017 80001;
0159264220999992000041612004+56970+024050FM-12+0007UMRR V0201201N004010210019N0200001N1+01751+00481100361ADDGA1061+021009029GF106991061021022501001001MA1999999100061MD1710221+9999REMSYN076AAXX  16121 26422 42898 61204 10175 20048 30006 40036 57022 86200 333 86857;
0166264220999992000041615004+56970+024050FM-12+0007UMRR V0201301N004010060019N0100001N1+01721+00701100241ADDAY181031AY221031GA1051+006009099GF107991051031008001061001MD1710121+9999MW1801REMSYN076AAXX  16151 26422 41597 71304 10172 20070 40024 57012 78082 85360 333 85920;
0202264220999992000041618004+56970+024050FM-12+0007UMRR V0201401N003010048019N0100001N1+01561+00971100231ADDAA112000191AY181061AY221061GA1051+004809099GF108991051031004501061999KA1120M+01831MD1810021+9999MW1801REMSYN088AAXX  16181 26422 11497 81403 10156 20097 40023 58002 69912 78082 8536/ 333 10183 85916;
0140264220999992000041621004+56970+024050FM-12+0007UMRR V0201401N005019999999N0100001N1+01281+01001100201ADDAY181031AY221031GF108991081001999999071999MD1810031+9999MW1021REMSYN066AAXX  16211 26422 41997 81405 10128 20100 40020 58003 70282 8807/;
0187264220999992000041700004+56970+024050FM-12+0007UMRR V0202601N003010021019N0100001N1+01201+01061100301ADDAY181061AY221061GA1081+002109069GF108991081061002501999999MA1999999099991MD1310101+9999MW1021REMSYN082AAXX  17001 26422 41397 82603 10120 20106 39999 40030 53010 70282 886// 333 88707;
0166264220999992000041703004+56970+024050FM-12+0007UMRR V0202501N002010018019N0040001N1+01031+00881100461ADDAY121031AY221031GA1081+001809069GF108991081061001501999999MD1210161+9999MW1101REMSYN076AAXX  17031 26422 /1296 82502 10103 20088 40046 52016 71022 886// 333 88706;
0174264220999992000041706004+56970+024050FM-12+0007UMRR V0202301N002010021019N0100001N1+00861+00661100711ADDAA112000591GA1061+002109069GF108991081061002501999999KA1120N+00841MD1210241+9999REMSYN082AAXX  17061 26422 12397 82302 10086 20066 40071 52024 69942 886// 333 20084 86707;
0112264220999992000041709004+56970+024050FM-12+0007UMRR V0202401N002012200019N0100001N1+01081+00681100971ADDGF103991031021012501001001MD1210261+9999REMSYN060AAXX  17091 26422 42697 32402 10108 20068 40097 52026 83200;
0133264220999992000041712004+56970+024050FM-12+0007UMRR V0203301N004012200019N0100001N1+01321+00561101111ADDGF102991021021012501001001MA1999999100801MD1210151+9999REMSYN066AAXX  17121 26422 42697 23304 10132 20056 30080 40111 52015 82200;
0122264220999992000041715004+56970+024050FM-12+0007UMRR V0200401N003012200019N0100001N1+01231+00451101211ADDGA1001+999999999GF100991001001999999001001MD1110101+9999REMSYN054AAXX  17151 26422 42997 00403 10123 20045 40121 51010;
0175264220999992000041718004+56970+024050FM-12+0007UMRR V0200401N003012200019N0100001N1+00971+00271101281ADDAA199000091GA1001+999999999GF100991001001999999001001KA1999M+01341MD1310061+9999REMSYN064AAXX  17181 26422 32997 00403 10097 20027 40128 53006 333 10134;EQDQ01  00002PRCP99
0122264220999992000041721004+56970+024050FM-12+0007UMRR V0201001N002012200019N0100001N1+00901+00401101331ADDGA1001+999999999GF100991001001999999001001MD1210051+9999REMSYN054AAXX  17211 26422 42997 01002 10090 20040 40133 52005;
0143264220999992000041800004+56970+024050FM-12+0007UMRR V0201101N003012200019N0100001N1+00801+00381101391ADDGA1001+999999999GF100991001001999999001001MA1999999101071MD1210061+9999REMSYN060AAXX  18001 26422 42997 01103 10080 20038 30107 40139 52006;
0152264220999992000041803004+56970+024050FM-12+0007UMRR V0201401N003012200019N0100001N1+00601+00411101371ADDAA199000091GA1001+999999999GF100991001001999999001001MD1810021+9999REMSYN054AAXX  18031 26422 32997 01403 10060 20041 40137 58002;EQDQ01  00002PRCP99
0165264220999992000041806004+56970+024050FM-12+0007UMRR V0201301N002012200019N0100001N1+00921+00551101451ADDAA199000091GF102991001001999999001011KA1999N+00561MD1310081+9999REMSYN070AAXX  18061 26422 32997 21302 10092 20055 40145 53008 80001 333 20056;EQDQ01  00002PRCP99
0112264220999992000041809004+56970+024050FM-12+0007UMRR V0201601N004012200019N0100001N1+01711+00561101451ADDGF102991001001999999001041MD1010011+9999REMSYN060AAXX  18091 26422 42997 21604 10171 20056 40145 50001 80004;
0133264220999992000041812004+56970+024050FM-12+0007UMRR V0201701N006012200019N0100001N1+02011+00391101391ADDGF102991001001999999001021MA1999999101081MD1610061+9999REMSYN066AAXX  18121 26422 42997 21706 10201 20039 30108 40139 56006 80002;
0112264220999992000041815004+56970+024050FM-12+0007UMRR V0202001N003019999999N0100001N1+02091+00491101351ADDGF105991001001999999001041MD1710041+9999REMSYN060AAXX  18151 26422 42997 52003 10209 20049 40135 57004 80004;
0165264220999992000041818004+56970+024050FM-12+0007UMRR V0201401N002019999999N0100001N1+01711+00401101371ADDAA199000091GF106991001001999999001041KA1999M+02141MD1310021+9999REMSYN070AAXX  18181 26422 32997 61402 10171 20040 40137 53002 80004 333 10214;EQDQ01  00002PRCP99
0112264220999992000041821004+56970+024050FM-12+0007UMRR V0201501N003012200019N0100001N1+01411+00451101421ADDGF102991001001999999001011MD1110051+9999REMSYN060AAXX  18211 26422 42997 21503 10141 20045 40142 51005 80001;
0143264220999992000041900004+56970+024050FM-12+0007UMRR V0201501N003012200019N0100001N1+01161+00491101501ADDGA1001+999999999GF100991001001999999001001MA1999999101181MD1710071+9999REMSYN060AAXX  19001 26422 42997 01503 10116 20049 30118 40150 57007;
0142264220999992000041903004+56970+024050FM-12+0007UMRR V0201301N002012200019N0100001N1+00931+00521101501ADDAA199000091GF102991001001999999001011MD1410001+9999REMSYN060AAXX  19031 26422 32997 21302 10093 20052 40150 54000 80001;EQDQ01  00002PRCP99
0165264220999992000041906004+56970+024050FM-12+0007UMRR V0201401N001012200019N0100001N1+01191+00681101551ADDAA199000091GF102991001001999999001091KA1999N+00901MD1310061+9999REMSYN070AAXX  19061 26422 32997 21401 10119 20068 40155 53006 80009 333 20090;EQDQ01  00002PRCP99
0112264220999992000041909004+56970+024050FM-12+0007UMRR V0209999V002012200019N0200001N1+01931+00741101611ADDGF104991001001999999001041MD1110061+9999REMSYN060AAXX  19091 26422 42998 49902 10193 20074 40161 51006 80004;
0133264220999992000041912004+56970+024050FM-12+0007UMRR V0200101N004019999999N0200001N1+01991+00751101571ADDGF106991001001999999001041MA1999999101261MD1610041+9999REMSYN066AAXX  19121 26422 42998 60104 10199 20075 30126 40157 56004 80004;
0112264220999992000041915004+56970+024050FM-12+0007UMRR V0200201N005012200019N0200001N1+01701+00521101611ADDGF102991001001999999001021MD1310041+9999REMSYN060AAXX  19151 26422 42998 20205 10170 20052 40161 53004 80002;
0165264220999992000041918004+56970+024050FM-12+0007UMRR V0200301N003012200019N0100001N1+01361+00511101661ADDAA199000091GF102991001001999999001091KA1999M+02121MD1210051+9999REMSYN070AAXX  19181 26422 32997 20303 10136 20051 40166 52005 80009 333 10212;EQDQ01  00002PRCP99
0122264220999992000041921004+56970+024050FM-12+0007UMRR V0200401N002012200019N0100001N1+01091+00561101631ADDGA1001+999999999GF100991001001999999001001MD1810041+9999REMSYN054AAXX  19211 26422 42997 00402 10109 20056 40163 58004;
0143264220999992000042000004+56970+024050FM-12+0007UMRR V0201301N002012200019N0100001N1+01191+00551101651ADDGA1001+999999999GF100991001001999999001001MA1999999101341MD1310031+9999REMSYN060AAXX  20001 26422 42997 01302 10119 20055 30134 40165 53003;
0152264220999992000042003004+56970+024050FM-12+0007UMRR V0201401N003012200019N0100001N1+01091+00611101671ADDAA199000091GA1001+999999999GF100991001001999999001001MD1110011+9999REMSYN054AAXX  20031 26422 32997 01403 10109 20061 40167 51001;EQDQ01  00002PRCP99
0165264220999992000042006004+56970+024050FM-12+0007UMRR V0201301N003012200019N0200001N1+01371+00681101691ADDAA199000091GF102991021001999999031001KA1999N+01011MD1310031+9999REMSYN070AAXX  20061 26422 32998 21303 10137 20068 40169 53003 82030 333 20101;EQDQ01  00002PRCP99
0112264220999992000042009004+56970+024050FM-12+0007UMRR V0201201N004019999999N0100001N1+02101+00831101641ADDGF106991001001999999001041MD1810051+9999REMSYN060AAXX  20091 26422 42997 61204 10210 20083 40164 58005 80004;
0133264220999992000042012004+56970+024050FM-12+0007UMRR V0201301N003019999999N0100001N1+02441+00871101581ADDGF108991001001999999001041MA1999999101281MD1710051+9999REMSYN066AAXX  20121 26422 42997 81303 10244 20087 30128 40158 57005 80004;
0112264220999992000042015004+56970+024050FM-12+0007UMRR V0202001N002019999999N0100001N1+02391+00891101541ADDGF108991021001999999031041MD1710041+9999REMSYN060AAXX  20151 26422 42997 82002 10239 20089 40154 57004 82034;
0165264220999992000042018004+56970+024050FM-12+0007UMRR V0201401N002019999999N0100001N1+02131+00901101521ADDAA199000091GF108991041001999999071041KA1999M+02511MD1610021+9999REMSYN070AAXX  20181 26422 32997 81402 10213 20090 40152 56002 84074 333 10251;EQDQ01  00002PRCP99
0112264220999992000042021004+56970+024050FM-12+0007UMRR V0201601N002019999999N0100001N1+01861+00841101621ADDGF106991061001999999031001MD1310091+9999REMSYN060AAXX  20211 26422 42997 61602 10186 20084 40162 53009 86030;
0170264220999992000042103004+56970+024050FM-12+0007UMRR V0203601N002012200019N0040001N1+00941+00721101701ADDAA199000091AY101031AY201031GF102991021001999999031001MD1210061+9999MW1101REMSYN066AAXX  21031 26422 31996 23602 10094 20072 40170 52006 71000 82030;EQDQ01  00002PRCP99
0165264220999992000042106004+56970+024050FM-12+0007UMRR V0203401N002012200019N0100001N1+00971+00621101751ADDAA199000091GF103991001001999999001091KA1999N+00831MD1210051+9999REMSYN070AAXX  21061 26422 32997 33402 10097 20062 40175 52005 80009 333 20083;EQDQ01  00002PRCP99
0112264220999992000042109004+56970+024050FM-12+0007UMRR V0200301N001019999999N0100001N1+01441+00801101791ADDGF106991021001999999081051MD1110051+9999REMSYN060AAXX  21091 26422 42997 60301 10144 20080 40179 51005 82085;
0133264220999992000042112004+56970+024050FM-12+0007UMRR V0203301N003019999999N0100001N1+01821+00951101731ADDGF105991001001999999001051MA1999999101421MD1810061+9999REMSYN066AAXX  21121 26422 42997 53303 10182 20095 30142 40173 58006 80005;
0122264220999992000042115004+56970+024050FM-12+0007UMRR V0200401N003012200019N0100001N1+01621+00881101681ADDGA1001+999999999GF100991001001999999001001MD1710051+9999REMSYN054AAXX  21151 26422 42997 00403 10162 20088 40168 57005;
0175264220999992000042118004+56970+024050FM-12+0007UMRR V0200601N001012200019N0100001N1+01391+00901101671ADDAA199000091GA1001+999999999GF100991001001999999001001KA1999M+01841MD1610011+9999REMSYN064AAXX  21181 26422 32997 00601 10139 20090 40167 56001 333 10184;EQDQ01  00002PRCP99
0122264220999992000042121004+56970+024050FM-12+0007UMRR V0209999C000012200019N0100001N1+00971+00781101721ADDGA1001+999999999GF100991001001999999001001MD1310041+9999REMSYN054AAXX  21211 26422 42997 00000 10097 20078 40172 53004;
0143264220999992000042200004+56970+024050FM-12+0007UMRR V0203301N001012200019N0100001N1+00821+00701101741ADDGA1001+999999999GF100991001001999999001001MA1999999101421MD1110021+9999REMSYN060AAXX  22001 26422 42997 03301 10082 20070 30142 40174 51002;
0152264220999992000042203004+56970+024050FM-12+0007UMRR V0209999C000012200019N0100001N1+00731+00621101701ADDAA199000091GA1001+999999999GF100991001001999999001001MD1810041+9999REMSYN054AAXX  22031 26422 32997 00000 10073 20062 40170 58004;EQDQ01  00002PRCP99
0175264220999992000042206004+56970+024050FM-12+0007UMRR V0201201N001012200019N0100001N1+01171+00821101741ADDAA199000091GA1001+999999999GF100991001001999999001001KA1999N+00731MD1310051+9999REMSYN064AAXX  22061 26422 32997 01201 10117 20082 40174 53005 333 20073;EQDQ01  00002PRCP99
0112264220999992000042209004+56970+024050FM-12+0007UMRR V0209999V001012200019N0100001N1+01911+01021101751ADDGF101991001001999999001011MD1010011+9999REMSYN060AAXX  22091 26422 42997 19901 10191 20102 40175 50001 80001;
0140264220999992000042215004+56970+024050FM-12+0007UMRR V0203601N003012200019N0100001N1+01531+01001101751ADDAY191031AY281031GF104991021001999999041011MD1310021+9999MW1291REMSYN066AAXX  22151 26422 41997 43603 10153 20100 40175 53002 72998 82041;
0180264220999992000042218004+56970+024050FM-12+0007UMRR V0203501N003019999999N0100001N1+01241+00851101801ADDAA112000391AY191061AY281061GF106991021001999999041011KA1999M+02281MD1210051+9999MW1031REMSYN082AAXX  22181 26422 11997 63503 10124 20085 40180 52005 69932 70398 82041 333 10228;
0122264220999992000042221004+56970+024050FM-12+0007UMRR V0203201N002012200019N0100001N1+00891+00641101851ADDGA1001+999999999GF100991001001999999001001MD1210041+9999REMSYN054AAXX  22211 26422 42997 03202 10089 20064 40185 52004;
0143264220999992000042300004+56970+024050FM-12+0007UMRR V0203301N001012200019N0100001N1+00731+00631101901ADDGA1001+999999999GF100991001001999999001001MA1999999101581MD1210051+9999REMSYN060AAXX  23001 26422 42997 03301 10073 20063 30158 40190 52005;
0170264220999992000042303004+56970+024050FM-12+0007UMRR V0200501N001012200019N0040001N1+00651+00581101911ADDAA199000091AY101031AY201031GF102991001001999999001091MD1010011+9999MW1101REMSYN066AAXX  23031 26422 31996 20501 10065 20058 40191 50001 71000 80009;EQDQ01  00002PRCP99
0165264220999992000042306004+56970+024050FM-12+0007UMRR V0200801N002012200019N0100001N1+01331+00861101911ADDAA199000091GF101991001001999999001011KA1999N+00601MD1010011+9999REMSYN070AAXX  23061 26422 32997 10802 10133 20086 40191 50001 80001 333 20060;EQDQ01  00002PRCP99
0122264220999992000042309004+56970+024050FM-12+0007UMRR V0201401N001012200019N0100001N1+01991+00891101891ADDGA1001+999999999GF100991001001999999001001MD1010021+9999REMSYN054AAXX  23091 26422 42997 01401 10199 20089 40189 50002;
0143264220999992000042312004+56970+024050FM-12+0007UMRR V0201201N002012200019N0200001N1+02281+00851101741ADDGA1001+999999999GF100991001001999999001001MA1999999101441MD1710141+9999REMSYN060AAXX  23121 26422 42998 01202 10228 20085 30144 40174 57014;
0122264220999992000042315004+56970+024050FM-12+0007UMRR V0201701N002012200019N0200001N1+02531+00881101561ADDGA1001+999999999GF100991001001999999001001MD1710181+9999REMSYN054AAXX  23151 26422 42998 01702 10253 20088 40156 57018;
0122264220999992000042321004+56970+024050FM-12+0007UMRR V0201601N002012200019N0100001N1+01751+00771101561ADDGA1001+999999999GF100991001001999999001001MD1310011+9999REMSYN054AAXX  23211 26422 42997 01602 10175 20077 40156 53001;
0143264220999992000042400004+56970+024050FM-12+0007UMRR V0201501N003012200019N0100001N1+01501+00731101531ADDGA1001+999999999GF100991001001999999001001MA1999999101221MD1810031+9999REMSYN060AAXX  24001 26422 42997 01503 10150 20073 30122 40153 58003;
0142264220999992000042403004+56970+024050FM-12+0007UMRR V0201601N002012200019N0100001N1+01311+00771101501ADDAA199000091GF102991001001999999001011MD1710041+9999REMSYN060AAXX  24031 26422 32997 21602 10131 20077 40150 57004 80001;EQDQ01  00002PRCP99
0165264220999992000042406004+56970+024050FM-12+0007UMRR V0201801N002019999999N0100001N1+01721+01011101501ADDAA199000091GF105991001001999999001041KA1999N+01301MD1010011+9999REMSYN070AAXX  24061 26422 32997 51802 10172 20101 40150 50001 80004 333 20130;EQDQ01  00002PRCP99
0112264220999992000042409004+56970+024050FM-12+0007UMRR V0201901N003012200019N0100001N1+02481+01171101471ADDGF102991001001999999001011MD1610021+9999REMSYN060AAXX  24091 26422 42997 21903 10248 20117 40147 56002 80001;
0112264220999992000042415004+56970+024050FM-12+0007UMRR V0201701N005012200019N0100001N1+02681+00971101291ADDGF102991011001999999031011MD1710111+9999REMSYN060AAXX  24151 26422 42997 21705 10268 20097 40129 57011 81031;
0175264220999992000042418004+56970+024050FM-12+0007UMRR V0201601N003012200019N0100001N1+02321+00861101271ADDAA199000091GA1001+999999999GF100991001001999999001001KA1999M+02791MD1610021+9999REMSYN064AAXX  24181 26422 32997 01603 10232 20086 40127 56002 333 10279;EQDQ01  00002PRCP99
0122264220999992000042421004+56970+024050FM-12+0007UMRR V0201601N005012200019N0100001N1+02011+00921101281ADDGA1001+999999999GF100991001001999999001001MD1410001+9999REMSYN054AAXX  24211 26422 42997 01605 10201 20092 40128 54000;
0143264220999992000042500004+56970+024050FM-12+0007UMRR V0201701N005012200019N0100001N1+01731+01171101401ADDGA1001+999999999GF100991001001999999001001MA1999999101091MD1210121+9999REMSYN060AAXX  25001 26422 42997 01705 10173 20117 30109 40140 52012;
0152264220999992000042503004+56970+024050FM-12+0007UMRR V0201601N004012200019N0100001N1+01451+01091101371ADDAA199000091GA1001+999999999GF100991001001999999001001MD1810031+9999REMSYN054AAXX  25031 26422 32997 01604 10145 20109 40137 58003;EQDQ01  00002PRCP99
0175264220999992000042506004+56970+024050FM-12+0007UMRR V0201901N005012200019N0100001N1+01691+01201101391ADDAA199000091GA1001+999999999GF100991001001999999001001KA1999N+01431MD1310021+9999REMSYN064AAXX  25061 26422 32997 01905 10169 20120 40139 53002 333 20143;EQDQ01  00002PRCP99
0139264220999992000042509004+56970+024050FM-12+0007UMRR V0201801N008012200019N0100001N1+02111+01081101361ADDGF102991021011012501001001MD1610021+9999OA140101401REMSYN076AAXX  25091 26422 42697 21808 10211 20108 40136 56002 82100 333 91014 91114;
0182264220999992000042512004+56970+024050FM-12+0007UMRR V0202101N005010093019N0100001N1+02281+01031101341ADDGA1061+009309089GF106991061021008001001001MA1999999101041MD1610021+9999OA140101001REMSYN088AAXX  25121 26422 42597 62105 10228 20103 30104 40134 56002 86200 333 86831 91010 91114;
0161264220999992000042515004+56970+024050FM-12+0007UMRR V0201801N004010108019N0100001N1+02321+01041101341ADDGA1061+010809089GF106991061021012501001001MD1410001+9999OA140101001REMSYN082AAXX  25151 26422 42697 61804 10232 20104 40134 54000 86200 333 86836 91010 91111;
0171264220999992000042518004+56970+024050FM-12+0007UMRR V0201901N002012200019N0100001N1+02021+01051101381ADDAA199000091GF102991021001999999071001KA1120M+02441MD1310031+9999REMSYN076AAXX  25181 26422 32997 21902 10202 20105 40138 53003 82070 333 10244 91110;EQDQ01  00002PRCP99
0122264220999992000042521004+56970+024050FM-12+0007UMRR V0203401N002012200019N0100001N1+01051+00861101551ADDGA1001+999999999GF100991001001999999001001MD1110161+9999REMSYN054AAXX  25211 26422 42997 03402 10105 20086 40155 51016;
0143264220999992000042600004+56970+024050FM-12+0007UMRR V0203301N002012200019N0100001N1+00791+00701101591ADDGA1001+999999999GF100991001001999999001001MA1999999101271MD1210041+9999REMSYN060AAXX  26001 26422 42997 03302 10079 20070 30127 40159 52004;
0142264220999992000042603004+56970+024050FM-12+0007UMRR V0203601N002012200019N0100001N1+00741+00671101611ADDAA199000091GF103991031001999999071001MD1110021+9999REMSYN060AAXX  26031 26422 32997 33602 10074 20067 40161 51002 83070;EQDQ01  00002PRCP99
0215264220999992000042606004+56970+024050FM-12+0007UMRR V0203201N002010009019N0010001N1+00821+00771101651ADDAA199000091AY141061AY211061GA1081+000909069GF108991081061001501999999KA1120N+00711MD1310041+9999MW1101REMSYN082AAXX  26061 26422 31294 83202 10082 20077 40165 53004 71041 886// 333 20071 88703;EQDQ01  00002PRCP99
0112264220999992000042609004+56970+024050FM-12+0007UMRR V0203301N002012200019N0100001N1+01191+00791101761ADDGF102991021021012501041001MD1210111+9999REMSYN060AAXX  26091 26422 42697 23302 10119 20079 40176 52011 82240;
0133264220999992000042612004+56970+024050FM-12+0007UMRR V0203401N006012200019N0200001N1+01161+00691101831ADDGF102991021021012501041001MA1999999101521MD1310081+9999REMSYN066AAXX  26121 26422 42698 23406 10116 20069 30152 40183 53008 82240;
0112264220999992000042615004+56970+024050FM-12+0007UMRR V0203501N004012200019N0200001N1+01161+00591101811ADDGF107991011021012501001041MD1810021+9999REMSYN060AAXX  26151 26422 42698 73504 10116 20059 40181 58002 81204;
0165264220999992000042618004+56970+024050FM-12+0007UMRR V0203301N004012200019N0200001N1+00911+00571101901ADDAA199000091GF103991011001999999041011KA1999M+01381MD1310081+9999REMSYN070AAXX  26181 26422 32998 33304 10091 20057 40190 53008 81041 333 10138;EQDQ01  00002PRCP99
0122264220999992000042621004+56970+024050FM-12+0007UMRR V0203101N001012200019N0100001N1+00751+00541101951ADDGA1001+999999999GF100991001001999999001001MD1110051+9999REMSYN054AAXX  26211 26422 42997 03101 10075 20054 40195 51005;
0143264220999992000042700004+56970+024050FM-12+0007UMRR V0203201N002012200019N0100001N1+00721+00611102011ADDGA1001+999999999GF100991001001999999001001MA1999999101691MD1110041+9999REMSYN060AAXX  27001 26422 42997 03202 10072 20061 30169 40201 51004;
0142264220999992000042703004+56970+024050FM-12+0007UMRR V0200801N002012200019N0100001N1+00751+00661102151ADDAA199000091GF103991001001999999001011MD1210141+9999REMSYN060AAXX  27031 26422 32997 30802 10075 20066 40215 52014 80001;EQDQ01  00002PRCP99
0165264220999992000042706004+56970+024050FM-12+0007UMRR V0201301N003019999999N0200001N1+01311+00461102271ADDAA199000091GF105991001001999999001011KA1999N+00701MD1210131+9999REMSYN070AAXX  27061 26422 32998 51303 10131 20046 40227 52013 80001 333 20070;EQDQ01  00002PRCP99
0112264220999992000042709004+56970+024050FM-12+0007UMRR V0201201N003012200019N0200001N1+01931+00631102351ADDGF103991001001999999001011MD1210081+9999REMSYN060AAXX  27091 26422 42998 31203 10193 20063 40235 52008 80001;
0133264220999992000042712004+56970+024050FM-12+0007UMRR V0201501N003019999999N0200001N1+02211+00851102331ADDGF106991011001999999031011MA1999999102031MD1810011+9999REMSYN066AAXX  27121 26422 42998 61503 10221 20085 30203 40233 58001 81031;
0112264220999992000042715004+56970+024050FM-12+0007UMRR V0200901N002012200019N0200001N1+02351+00831102251ADDGF102991021011012501001001MD1710081+9999REMSYN060AAXX  27151 26422 42698 20902 10235 20083 40225 57008 82100;
0165264220999992000042718004+56970+024050FM-12+0007UMRR V0200401N001019999999N0100001N1+01991+01031102301ADDAA199000091GF106991001001999999001041KA1999M+02391MD1310041+9999REMSYN070AAXX  27181 26422 32997 60401 10199 20103 40230 53004 80004 333 10239;EQDQ01  00002PRCP99
0122264220999992000042721004+56970+024050FM-12+0007UMRR V0201301N003012200019N0100001N1+01781+00881102411ADDGA1001+999999999GF100991001001999999001001MD1210111+9999REMSYN054AAXX  27211 26422 42997 01303 10178 20088 40241 52011;
0143264220999992000042800004+56970+024050FM-12+0007UMRR V0201301N005012200019N0100001N1+01551+00841102441ADDGA1001+999999999GF100991001001999999001001MA1999999102131MD1310031+9999REMSYN060AAXX  28001 26422 42997 01305 10155 20084 30213 40244 53003;
0142264220999992000042803004+56970+024050FM-12+0007UMRR V0201401N002019999999N0100001N1+01401+00741102461ADDAA199000091GF106991031001999999071041MD1110021+9999REMSYN060AAXX  28031 26422 32997 61402 10140 20074 40246 51002 83074;EQDQ01  00002PRCP99
0165264220999992000042806004+56970+024050FM-12+0007UMRR V0201601N002019999999N0100001N1+01681+00931102501ADDAA199000091GF107991041001999999031041KA1999N+01361MD1210041+9999REMSYN070AAXX  28061 26422 32997 71602 10168 20093 40250 52004 84034 333 20136;EQDQ01  00002PRCP99
0112264220999992000042809004+56970+024050FM-12+0007UMRR V0201701N003010300019N0100001N1+02221+01171102491ADDGF108991011021008001071011MD1010001+9999REMSYN060AAXX  28091 26422 42597 81703 10222 20117 40249 50000 81271;
0133264220999992000042812004+56970+024050FM-12+0007UMRR V0202001N002019999999N0200001N1+02541+01181102441ADDGF108991041001999999011011MA1999999102141MD1710051+9999REMSYN066AAXX  28121 26422 42998 82002 10254 20118 30214 40244 57005 84011;
0112264220999992000042815004+56970+024050FM-12+0007UMRR V0200301N003012200019N0200001N1+02501+01191102411ADDGF107991011021012501001011MD1610031+9999REMSYN060AAXX  28151 26422 42698 70303 10250 20119 40241 56003 81201;
0165264220999992000042818004+56970+024050FM-12+0007UMRR V0200401N002019999999N0100001N1+02041+01301102421ADDAA199000091GF107991001001999999001011KA1999M+02581MD1410001+9999REMSYN070AAXX  28181 26422 32997 70402 10204 20130 40242 54000 80001 333 10258;EQDQ01  00002PRCP99
0122264220999992000042821004+56970+024050FM-12+0007UMRR V0200401N002012200019N0100001N1+01621+01151102491ADDGA1001+999999999GF100991001001999999001001MD1210071+9999REMSYN054AAXX  28211 26422 42997 00402 10162 20115 40249 52007;
0143264220999992000042900004+56970+024050FM-12+0007UMRR V0201201N001012200019N0100001N1+01491+01101102491ADDGA1001+999999999GF100991001001999999001001MA1999999102181MD1410001+9999REMSYN060AAXX  29001 26422 42997 01201 10149 20110 30218 40249 54000;
0142264220999992000042903004+56970+024050FM-12+0007UMRR V0200401N002019999999N0100001N1+01271+01061102491ADDAA199000091GF107991001001999999001011MD1410001+9999REMSYN060AAXX  29031 26422 32997 70402 10127 20106 40249 54000 80001;EQDQ01  00002PRCP99
0165264220999992000042906004+56970+024050FM-12+0007UMRR V0209999C000019999999N0100001N1+01731+01321102471ADDAA199000091GF107991001001999999001011KA1999N+01251MD1810021+9999REMSYN070AAXX  29061 26422 32997 70000 10173 20132 40247 58002 80001 333 20125;EQDQ01  00002PRCP99
0112264220999992000042909004+56970+024050FM-12+0007UMRR V0200401N001019999999N0100001N1+02371+01381102451ADDGF108991001001999999001011MD1810011+9999REMSYN060AAXX  29091 26422 42997 80401 10237 20138 40245 58001 80001;
0133264220999992000042912004+56970+024050FM-12+0007UMRR V0203601N003010750019N0100001N1+02521+01301102381ADDGF108991021021012501001061MA1999999102081MD1710071+9999REMSYN066AAXX  29121 26422 42697 83603 10252 20130 30208 40238 57007 82206;
0112264220999992000042915004+56970+024050FM-12+0007UMRR V0200101N003019999999N0100001N1+02461+01201102291ADDGF107991001001999999001011MD1710091+9999REMSYN060AAXX  29151 26422 42997 70103 10246 20120 40229 57009 80001;
0165264220999992000042918004+56970+024050FM-12+0007UMRR V0200201N003012200019N0100001N1+01851+01171102301ADDAA199000091GF104991001001999999001011KA1999M+02561MD1510001+9999REMSYN070AAXX  29181 26422 32997 40203 10185 20117 40230 55000 80001 333 10256;EQDQ01  00002PRCP99
0122264220999992000042921004+56970+024050FM-12+0007UMRR V0203201N002012200019N0100001N1+01381+01151102341ADDGA1001+999999999GF100991001001999999001001MD1310041+9999REMSYN054AAXX  29211 26422 42997 03202 10138 20115 40234 53004;
0143264220999992000043000004+56970+024050FM-12+0007UMRR V0203301N002012200019N0100001N1+01211+01131102331ADDGA1001+999999999GF100991001001999999001001MA1999999102021MD1810011+9999REMSYN060AAXX  30001 26422 42997 03302 10121 20113 30202 40233 58001;
0142264220999992000043003004+56970+024050FM-12+0007UMRR V0203601N002012200019N0100001N1+01181+01041102341ADDAA199000091GF102991021001999999041001MD1610011+9999REMSYN060AAXX  30031 26422 32997 23602 10118 20104 40234 56001 82040;EQDQ01  00002PRCP99
0165264220999992000043006004+56970+024050FM-12+0007UMRR V0200101N001012200019N0200001N1+01471+01141102351ADDAA199000091GF102991021001999999031001KA1999N+01151MD1310031+9999REMSYN070AAXX  30061 26422 32998 20101 10147 20114 40235 53003 82030 333 20115;EQDQ01  00002PRCP99
0112264220999992000043009004+56970+024050FM-12+0007UMRR V0203501N004012200019N0200001N1+01771+01061102421ADDGF104991041001999999051001MD1210071+9999REMSYN060AAXX  30091 26422 42998 43504 10177 20106 40242 52007 84050;
0133264220999992000043012004+56970+024050FM-12+0007UMRR V0203501N004019999999N0200001N1+01871+01021102391ADDGF108991081001999999041001MA1999999102081MD1810031+9999REMSYN066AAXX  30121 26422 42998 83504 10187 20102 30208 40239 58003 88040;
0112264220999992000043015004+56970+024050FM-12+0007UMRR V0203401N005019999999N0200001N1+01671+00761102381ADDGF108991081001999999051001MD1610011+9999REMSYN060AAXX  30151 26422 42998 83405 10167 20076 40238 56001 88050;
0165264220999992000043018004+56970+024050FM-12+0007UMRR V0200101N003019999999N0100001N1+01371+00711102361ADDAA199000091GF106991031001999999071041KA1999M+01941MD1810021+9999REMSYN070AAXX  30181 26422 32997 60103 10137 20071 40236 58002 83074 333 10194;EQDQ01  00002PRCP99
0122264220999992000043021004+56970+024050FM-12+0007UMRR V0200501N004012200019N0100001N1+01011+00091102581ADDGA1001+999999999GF100991001001999999001001MD1310211+9999REMSYN054AAXX  30211 26422 42997 00504 10101 20009 40258 53021;
0143264220999992000050100004+56970+024050FM-12+0007UMRR V0200501N003012200019N0100001N1+00651-00091102671ADDGA1001+999999999GF100991001001999999001001MA1999999102341MD1110081+9999REMSYN060AAXX  01001 26422 42997 00503 10065 21009 30234 40267 51008;
0142264220999992000050103004+56970+024050FM-12+0007UMRR V0201001N004012200019N0100001N1+00471-00451102821ADDAA199000091GF102991001001999999001011MD1210151+9999REMSYN060AAXX  01031 26422 32997 21004 10047 21045 40282 52015 80001;EQDQ01  00002PRCP99
0175264220999992000050106004+56970+024050FM-12+0007UMRR V0201101N004012200019N0100001N1+00621-00671102931ADDAA199000091GA1001+999999999GF100991001001999999001001KA1999N+00451MD1210111+9999REMSYN064AAXX  01061 26422 32997 01104 10062 21067 40293 52011 333 20045;EQDQ01  00002PRCP99
0122264220999992000050109004+56970+024050FM-12+0007UMRR V0200201N004012200019N0200001N1+00951-00611102921ADDGA1001+999999999GF100991001001999999001001MD1010001+9999REMSYN054AAXX  01091 26422 42998 00204 10095 21061 40292 50000;
0170264220999992000050112004+56970+024050FM-12+0007UMRR V0203601N005012200019N0200001N1+01081-00121102901ADDGA1001+999999999GF100991001001999999001001MA1999999102581MD1610021+9999OA140101001REMSYN076AAXX  01121 26422 42998 03605 10108 21012 30258 40290 56002 333 91010 91111;
0139264220999992000050115004+56970+024050FM-12+0007UMRR V0203401N006012200019N0200001N1+01051-00121102861ADDGF101991011001999999081001MD1810041+9999OA140101001REMSYN076AAXX  01151 26422 42998 13406 10105 21012 40286 58004 81080 333 91010 91111;
0171264220999992000050118004+56970+024050FM-12+0007UMRR V0203601N004012200019N0200001N1+00771+00111102811ADDAA199000091GF101991001001999999001091KA1120M+01161MD1710051+9999REMSYN076AAXX  01181 26422 32998 13604 10077 20011 40281 57005 80009 333 10116 91111;EQDQ01  00002PRCP99
0122264220999992000050121004+56970+024050FM-12+0007UMRR V0200701N004012200019N0100001N1+00521-00791102991ADDGA1001+999999999GF100991001001999999001001MD1210171+9999REMSYN054AAXX  01211 26422 42997 00704 10052 21079 40299 52017;
0143264220999992000050200004+56970+024050FM-12+0007UMRR V0200601N003012200019N0100001N1+00291-00661103101ADDGA1001+999999999GF100991001001999999001001MA1999999102771MD1210111+9999REMSYN060AAXX  02001 26422 42997 00603 10029 21066 30277 40310 52011;
0152264220999992000050203004+56970+024050FM-12+0007UMRR V0200601N002012200019N0100001N1+00031-00421103231ADDAA199000091GA1001+999999999GF100991001001999999001001MD1210121+9999REMSYN054AAXX  02031 26422 32997 00602 10003 21042 40323 52012;EQDQ01  00002PRCP99
0175264220999992000050206004+56970+024050FM-12+0007UMRR V0201601N001012200019N0200001N1+00431-00671103341ADDAA199000091GA1001+999999999GF100991001001999999001001KA1999N+00001MD1210121+9999REMSYN064AAXX  02061 26422 32998 01601 10043 21067 40334 52012 333 20000;EQDQ01  00002PRCP99
0112264220999992000050209004+56970+024050FM-12+0007UMRR V0203301N003012200019N0200001N1+00871-00581103331ADDGF102991001001999999001011MD1410001+9999REMSYN060AAXX  02091 26422 42998 23303 10087 21058 40333 54000 80001;
0133264220999992000050212004+56970+024050FM-12+0007UMRR V0203301N003019999999N0200001N1+00851-00531103221ADDGF107991001001999999001041MA1999999102901MD1810111+9999REMSYN066AAXX  02121 26422 42998 73303 10085 21053 30290 40322 58011 80004;
0112264220999992000050215004+56970+024050FM-12+0007UMRR V0200101N003019999999N0200001N1+00771-00291103111ADDGF108991021001999999031041MD1710111+9999REMSYN060AAXX  02151 26422 42998 80103 10077 21029 40311 57011 82034;
0165264220999992000050218004+56970+024050FM-12+0007UMRR V0203601N002012200019N0200001N1+00531-00241102971ADDAA199000091GF102991001001999999001011KA1999M+00931MD1710151+9999REMSYN070AAXX  02181 26422 32998 23602 10053 21024 40297 57015 80001 333 10093;EQDQ01  00002PRCP99
0122264220999992000050221004+56970+024050FM-12+0007UMRR V0209999C000012200019N0100001N1+00121-00091102911ADDGA1001+999999999GF100991001001999999001001MD1710061+9999REMSYN054AAXX  02211 26422 42997 00000 10012 21009 40291 57006;
0143264220999992000050300004+56970+024050FM-12+0007UMRR V0202401N001012200019N0100001N1-00021-00141102851ADDGA1001+999999999GF100991001001999999001001MA1999999102521MD1710061+9999REMSYN060AAXX  03001 26422 42997 02401 11002 21014 30252 40285 57006;
0142264220999992000050303004+56970+024050FM-12+0007UMRR V0202101N001012200019N0100001N1-00081-00121102761ADDAA199000091GF102991021001000251071001MD1710091+9999REMSYN060AAXX  03031 26422 32097 22101 11008 21012 40276 57009 82070;EQDQ01  00002PRCP99
0165264220999992000050306004+56970+024050FM-12+0007UMRR V0201901N001019999999N0100001N1+00431-00131102701ADDAA199000091GF106991061001999999071001KA1999N-00101MD1710061+9999REMSYN070AAXX  03061 26422 32997 61901 10043 21013 40270 57006 86070 333 21010;EQDQ01  00002PRCP99
0112264220999992000050309004+56970+024050FM-12+0007UMRR V0202701N002010300019N0100001N1+01101-00331102631ADDGF108991031041012501051999MD1510061+9999REMSYN060AAXX  03091 26422 42697 82702 10110 21033 40263 55006 8345/;
0161264220999992000050312004+56970+024050FM-12+0007UMRR V0202901N003019999999N0100001N1+01191-00251102511ADDAY181061AY221061GF108991081001999999051999MA1999999102191MD1710121+9999MW1021REMSYN072AAXX  03121 26422 41997 82903 10119 21025 30219 40251 57012 70282 8805/;
0140264220999992000050315004+56970+024050FM-12+0007UMRR V0202501N002019999999N0100001N1+01321-00071102291ADDAY181031AY221031GF108991081001999999051999MD1710211+9999MW1021REMSYN066AAXX  03151 26422 41997 82502 10132 21007 40229 57021 70282 8805/;
0180264220999992000050318004+56970+024050FM-12+0007UMRR V0201701N002019999999N0100001N1+01151+00111102151ADDAA112000791AY181061AY221061GF108991081001999999051999KA1999M+01341MD1710151+9999MW1021REMSYN082AAXX  03181 26422 11997 81702 10115 20011 40215 57015 69902 70282 8805/ 333 10134;
0112264220999992000050321004+56970+024050FM-12+0007UMRR V0203001N002019999999N0100001N1+01131+00041102141ADDGF108991081001999999051999MD1610011+9999REMSYN060AAXX  03211 26422 42997 83002 10113 20004 40214 56001 8805/;
0133264220999992000050400004+56970+024050FM-12+0007UMRR V0203401N002019999999N0100001N1+00921+00301102081ADDGF108991001001999999051999MA1999999101761MD1710061+9999REMSYN066AAXX  04001 26422 42997 83402 10092 20030 30176 40208 57006 8005/;
0166264220999992000050403004+56970+024050FM-12+0007UMRR V0203101N003010042019N0100001N1+00681+00511102051ADDAY181031AY221031GA1081+004209099GF108991081091004501999999MD1610031+9999MW1801REMSYN076AAXX  04031 26422 /1497 83103 10068 20051 40205 56003 78082 889// 333 88914;
0180264220999992000050406004+56970+024050FM-12+0007UMRR V0203401N004010300019N0100001N1+00771+00621102111ADDAA112002091AY181061AY221061GF108991031091008001071999KA1999N+00661MD1310061+9999MW1021REMSYN082AAXX  04061 26422 11597 83404 10077 20062 40211 53006 60022 70282 8397/ 333 20066;
0112264220999992000050409004+56970+024050FM-12+0007UMRR V0202901N004010750019N0100001N1+01031+00481102131ADDGF108991011021012501001051MD1110021+9999REMSYN060AAXX  04091 26422 42697 82904 10103 20048 40213 51002 81205;
0133264220999992000050412004+56970+024050FM-12+0007UMRR V0203501N006012200019N0200001N1+01291+00091102121ADDGF102991021011008001001011MA1999999101811MD1010001+9999REMSYN066AAXX  04121 26422 42598 23506 10129 20009 30181 40212 50000 82101;
0139264220999992000050415004+56970+024050FM-12+0007UMRR V0203301N005012200019N0200001N1+01281+00231102071ADDGF102991011021012501001091MD1810051+9999OA140101001REMSYN076AAXX  04151 26422 42698 23305 10128 20023 40207 58005 81209 333 91010 91111;
0171264220999992000050418004+56970+024050FM-12+0007UMRR V0203501N004012200019N0100001N1+00901+00341102111ADDAA199000091GF104991001001999999001011KA1120M+01381MD1310031+9999REMSYN076AAXX  04181 26422 32997 43504 10090 20034 40211 53003 80001 333 10138 91110;EQDQ01  00002PRCP99
0122264220999992000050421004+56970+024050FM-12+0007UMRR V0203401N003012200019N0100001N1+00551+00331102191ADDGA1001+999999999GF100991001001999999001001MD1210071+9999REMSYN054AAXX  04211 26422 42997 03403 10055 20033 40219 52007;
0143264220999992000050500004+56970+024050FM-12+0007UMRR V0203201N002012200019N0100001N1+00431+00151102181ADDGA1001+999999999GF100991001001999999001001MA1999999101851MD1010011+9999REMSYN060AAXX  05001 26422 42997 03202 10043 20015 30185 40218 50001;
0168264220999992000050503004+56970+024050FM-12+0007UMRR V0202401N002010042019N0100001N1+00321+00221102201ADDAA199000091GA1051+004209069GF107991051061004501041091MD1310021+9999REMSYN070AAXX  05031 26422 32497 72402 10032 20022 40220 53002 85649 333 85714;EQDQ01  00002PRCP99
0165264220999992000050506004+56970+024050FM-12+0007UMRR V0203301N00201220001CN0100001N1+00711+00361102231ADDAA199000091GF108991021011008001001041KA1999N+00301MD1010041+9999REMSYN070AAXX  05061 26422 32597 83302 10071 20036 40223 50004 82104 333 20030;EQDQ01  00002PRCP99
0112264220999992000050509004+56970+024050FM-12+0007UMRR V0203001N002012200019N0200001N1+01091-00381102191ADDGF104991001001999999001091MD1710041+9999REMSYN060AAXX  05091 26422 42998 43002 10109 21038 40219 57004 80009;
0133264220999992000050512004+56970+024050FM-12+0007UMRR V0200101N002019999999N0200001N1+01481-00251102061ADDGF106991001001999999001061MA1999999101751MD1710121+9999REMSYN066AAXX  05121 26422 42998 60102 10148 21025 30175 40206 57012 80006;
0112264220999992000050515004+56970+024050FM-12+0007UMRR V0203001N002019999999N0200001N1+01721+00041101831ADDGF108991001001999999001061MD1710231+9999REMSYN060AAXX  05151 26422 42998 83002 10172 20004 40183 57023 80006;
0165264220999992000050518004+56970+024050FM-12+0007UMRR V0203501N002019999999N0100001N1+01311+00341101751ADDAA199000091GF108991031001999999071041KA1999M+01731MD1710081+9999REMSYN070AAXX  05181 26422 32997 83502 10131 20034 40175 57008 83074 333 10173;EQDQ01  00002PRCP99
0112264220999992000050521004+56970+024050FM-12+0007UMRR V0203101N003019999999N0100001N1+00931+00371101821ADDGF108991051001999999071011MD1210061+9999REMSYN060AAXX  05211 26422 42997 83103 10093 20037 40182 52006 85071;
0133264220999992000050600004+56970+024050FM-12+0007UMRR V0202901N003012200019N0100001N1+00791+00331101791ADDGF102991001001999999001011MA1999999101471MD1810031+9999REMSYN066AAXX  06001 26422 42997 22903 10079 20033 30147 40179 58003 80001;
0142264220999992000050603004+56970+024050FM-12+0007UMRR V0203101N003019999999N0100001N1+00711+00501101871ADDAA199000091GF106991061001999999071001MD1310081+9999REMSYN060AAXX  06031 26422 32997 63103 10071 20050 40187 53008 86070;EQDQ01  00002PRCP99
0165264220999992000050606004+56970+024050FM-12+0007UMRR V0203201N004019999999N0200001N1+00931+00391101981ADDAA199000091GF107991071001999999031001KA1999N+00691MD1210111+9999REMSYN070AAXX  06061 26422 32998 73204 10093 20039 40198 52011 87030 333 20069;EQDQ01  00002PRCP99
0139264220999992000050609004+56970+024050FM-12+0007UMRR V0203401N006012200019N0200001N1+01131-00021102071ADDGF102991001001999999001011MD1110091+9999OA140101001REMSYN076AAXX  06091 26422 42998 23406 10113 21002 40207 51009 80001 333 91010 91111;
0160264220999992000050612004+56970+024050FM-12+0007UMRR V0203301N008012200019N0200001N1+01151+00291102161ADDGF102991001001999999001011MA1999999101841MD1110091+9999OA140101201REMSYN082AAXX  06121 26422 42998 23308 10115 20029 30184 40216 51009 80001 333 91012 91113;
0149264220999992000050615004+56970+024050FM-12+0007UMRR V0203301N007012200019N0200001N1+01111+00111102171ADDGA1001+999999999GF100991001001999999001001MD1310011+9999OA140101101REMSYN070AAXX  06151 26422 42998 03307 10111 20011 40217 53001 333 91011 91112;
0181264220999992000050618004+56970+024050FM-12+0007UMRR V0203501N003012200019N0100001N1+00921+00231102221ADDAA199000091GA1001+999999999GF100991001001999999001001KA1120M+01201MD1310051+9999REMSYN070AAXX  06181 26422 32997 03503 10092 20023 40222 53005 333 10120 91113;EQDQ01  00002PRCP99
0132264220999992000050621004+56970+024050FM-12+0007UMRR V0200301N004012200019N0100001N1+00751+00251102361ADDGA1001+999999999GF100991001001999999001001MD1210141+9999REMSYN064AAXX  06211 26422 42997 00304 10075 20025 40236 52014 333 91111;
0143264220999992000050700004+56970+024050FM-12+0007UMRR V0200201N003012200019N0100001N1+00511+00391102501ADDGA1001+999999999GF100991001001999999001001MA1999999102171MD1210131+9999REMSYN060AAXX  07001 26422 42997 00203 10051 20039 30217 40250 52013;
0152264220999992000050703004+56970+024050FM-12+0007UMRR V0200901N002012200019N0100001N1+00281+00201102651ADDAA199000091GA1001+999999999GF100991001001999999001001MD1210151+9999REMSYN054AAXX  07031 26422 32997 00902 10028 20020 40265 52015;EQDQ01  00002PRCP99
0175264220999992000050706004+56970+024050FM-12+0007UMRR V0209999C000012200019N0100001N1+00881+00131102821ADDAA199000091GA1001+999999999GF100991001001999999001001KA1999N+00261MD1210181+9999REMSYN064AAXX  07061 26422 32997 00000 10088 20013 40282 52018 333 20026;EQDQ01  00002PRCP99
0122264220999992000050709004+56970+024050FM-12+0007UMRR V0200201N003012200019N0100001N1+01341+00191102851ADDGA1001+999999999GF100991001001999999001001MD1010031+9999REMSYN054AAXX  07091 26422 42997 00203 10134 20019 40285 50003;
0143264220999992000050712004+56970+024050FM-12+0007UMRR V0203501N003012200019N0100001N1+01551-00011102821ADDGA1001+999999999GF100991001001999999001001MA1999999102501MD1810031+9999REMSYN060AAXX  07121 26422 42997 03503 10155 21001 30250 40282 58003;
0122264220999992000050715004+56970+024050FM-12+0007UMRR V0200901N002012200019N0100001N1+01611+00031102681ADDGA1001+999999999GF100991001001999999001001MD1710131+9999REMSYN054AAXX  07151 26422 42997 00902 10161 20003 40268 57013;
0175264220999992000050718004+56970+024050FM-12+0007UMRR V0200301N002012200019N0100001N1+01361+00001102601ADDAA199000091GA1001+999999999GF100991001001999999001001KA1999M+01701MD1710091+9999REMSYN064AAXX  07181 26422 32997 00302 10136 20000 40260 57009 333 10170;EQDQ01  00002PRCP99
0122264220999992000050721004+56970+024050FM-12+0007UMRR V0200301N002012200019N0100001N1+00721+00231102631ADDGA1001+999999999GF100991001001999999001001MD1210031+9999REMSYN054AAXX  07211 26422 42997 00302 10072 20023 40263 52003;
0143264220999992000050800004+56970+024050FM-12+0007UMRR V0201101N002012200019N0100001N1+00511+00201102591ADDGA1001+999999999GF100991001001999999001001MA1999999102261MD1710051+9999REMSYN060AAXX  08001 26422 42997 01102 10051 20020 30226 40259 57005;
0152264220999992000050803004+56970+024050FM-12+0007UMRR V0201901N002012200019N0100001N1+00371+00181102531ADDAA199000091GA1001+999999999GF100991001001999999001001MD1710061+9999REMSYN054AAXX  08031 26422 32997 01902 10037 20018 40253 57006;EQDQ01  00002PRCP99
0175264220999992000050806004+56970+024050FM-12+0007UMRR V0209999C000012200019N0100001N1+00931+00361102561ADDAA199000091GA1001+999999999GF100991001001999999001001KA1999N+00341MD1110041+9999REMSYN064AAXX  08061 26422 32997 00000 10093 20036 40256 51004 333 20034;EQDQ01  00002PRCP99
0112264220999992000050809004+56970+024050FM-12+0007UMRR V0202901N002012200019N0200001N1+01611+00271102491ADDGF102991001001999999001011MD1810061+9999REMSYN060AAXX  08091 26422 42998 22902 10161 20027 40249 58006 80001;
0133264220999992000050812004+56970+024050FM-12+0007UMRR V0202901N002019999999N0200001N1+01961-00091102431ADDGF105991001001999999001011MA1999999102121MD1710061+9999REMSYN066AAXX  08121 26422 42998 52902 10196 21009 30212 40243 57006 80001;
0112264220999992000050815004+56970+024050FM-12+0007UMRR V0203501N003012200019N0200001N1+01951+00061102331ADDGF104991001001999999001011MD1710101+9999REMSYN060AAXX  08151 26422 42998 43503 10195 20006 40233 57010 80001;
0165264220999992000050818004+56970+024050FM-12+0007UMRR V0203501N003019999999N0200001N1+01441+00361102311ADDAA199000091GF106991021001999999031011KA1999M+02101MD1610021+9999REMSYN070AAXX  08181 26422 32998 63503 10144 20036 40231 56002 82031 333 10210;EQDQ01  00002PRCP99
0112264220999992000050821004+56970+024050FM-12+0007UMRR V0203301N003019999999N0100001N1+01011+00621102381ADDGF106991021001999999031011MD1310061+9999REMSYN060AAXX  08211 26422 42997 63303 10101 20062 40238 53006 82031;
0143264220999992000050900004+56970+024050FM-12+0007UMRR V0203201N002012200019N0100001N1+00781+00481102411ADDGA1001+999999999GF100991001001999999001001MA1999999102091MD1310031+9999REMSYN060AAXX  09001 26422 42997 03202 10078 20048 30209 40241 53003;
0142264220999992000050903004+56970+024050FM-12+0007UMRR V0203301N001012200019N0100001N1+00631+00481102431ADDAA199000091GF104991001001999999001011MD1110011+9999REMSYN060AAXX  09031 26422 32997 43301 10063 20048 40243 51001 80001;EQDQ01  00002PRCP99
0165264220999992000050906004+56970+024050FM-12+0007UMRR V0203301N003012200019N0100001N1+00981+00601102511ADDAA199000091GF101991001001999999001011KA1999N+00621MD1310091+9999REMSYN070AAXX  09061 26422 32997 13303 10098 20060 40251 53009 80001 333 20062;EQDQ01  00002PRCP99
0112264220999992000050909004+56970+024050FM-12+0007UMRR V0203601N004012200019N0200001N1+01271+00551102551ADDGF102991001001999999001011MD1110051+9999REMSYN060AAXX  09091 26422 42998 23604 10127 20055 40255 51005 80001;
0133264220999992000050912004+56970+024050FM-12+0007UMRR V0203601N005012200019N0200001N1+01361+00431102531ADDGF102991001001999999001011MA1999999102221MD1810021+9999REMSYN066AAXX  09121 26422 42998 23605 10136 20043 30222 40253 58002 80001;
0112264220999992000050915004+56970+024050FM-12+0007UMRR V0203601N004012200019N0200001N1+01491+00581102391ADDGF101991001001999999001011MD1710141+9999REMSYN060AAXX  09151 26422 42998 13604 10149 20058 40239 57014 80001;
0165264220999992000050918004+56970+024050FM-12+0007UMRR V0203301N003019999999N0200001N1+01151+00561102321ADDAA199000091GF106991001001999999001041KA1999M+01521MD1710071+9999REMSYN070AAXX  09181 26422 32998 63303 10115 20056 40232 57007 80004 333 10152;EQDQ01  00002PRCP99
0112264220999992000050921004+56970+024050FM-12+0007UMRR V0203501N002012200019N0100001N1+00801+00591102281ADDGF102991001001999999001011MD1710051+9999REMSYN060AAXX  09211 26422 42997 23502 10080 20059 40228 57005 80001;
0133264220999992000051000004+56970+024050FM-12+0007UMRR V0203501N002012200019N0100001N1+00631+00511102241ADDGF101991001001999999001011MA1999999101921MD1710041+9999REMSYN066AAXX  10001 26422 42997 13502 10063 20051 30192 40224 57004 80001;
0142264220999992000051003004+56970+024050FM-12+0007UMRR V0209999C000012200019N0100001N1+00531+00431102221ADDAA199000091GF103991001001999999001011MD1610031+9999REMSYN060AAXX  10031 26422 32997 30000 10053 20043 40222 56003 80001;EQDQ01  00002PRCP99
0165264220999992000051006004+56970+024050FM-12+0007UMRR V0203101N001012200019N0200001N1+01151+00811102171ADDAA199000091GF102991001001999999001011KA1999N+00521MD1810031+9999REMSYN070AAXX  10061 26422 32998 23101 10115 20081 40217 58003 80001 333 20052;EQDQ01  00002PRCP99
0122264220999992000051009004+56970+024050FM-12+0007UMRR V0203301N002012200019N0200001N1+01771+00271102081ADDGA1001+999999999GF100991001001999999001001MD1710091+9999REMSYN054AAXX  10091 26422 42998 03302 10177 20027 40208 57009;
0143264220999992000051012004+56970+024050FM-12+0007UMRR V0203401N003012200019N0200001N1+01971+00301101961ADDGA1001+999999999GF100991001001999999001001MA1999999101651MD1710121+9999REMSYN060AAXX  10121 26422 42998 03403 10197 20030 30165 40196 57012;
0122264220999992000051015004+56970+024050FM-12+0007UMRR V0200101N002012200019N0200001N1+02011+00501101821ADDGA1001+999999999GF100991001001999999001001MD1710141+9999REMSYN054AAXX  10151 26422 42998 00102 10201 20050 40182 57014;
0175264220999992000051018004+56970+024050FM-12+0007UMRR V0203401N002012200019N0200001N1+01581+00611101641ADDAA199000091GA1001+999999999GF100991001001999999001001KA1999M+02061MD1710181+9999REMSYN064AAXX  10181 26422 32998 03402 10158 20061 40164 57018 333 10206;EQDQ01  00002PRCP99
0112264220999992000051021004+56970+024050FM-12+0007UMRR V0203101N001012200019N0100001N1+01081+00731101551ADDGF101991001001999999001011MD1710101+9999REMSYN060AAXX  10211 26422 42997 13101 10108 20073 40155 57010 80001;
0143264220999992000051100004+56970+024050FM-12+0007UMRR V0202101N003012200019N0100001N1+00911+00621101401ADDGA1001+999999999GF100991001001999999001001MA1999999101081MD1710151+9999REMSYN060AAXX  11001 26422 42997 02103 10091 20062 30108 40140 57015;
0142264220999992000051103004+56970+024050FM-12+0007UMRR V0202501N002019999999N0100001N1+00811+00551101191ADDAA199000091GF106991021001999999031091MD1710211+9999REMSYN060AAXX  11031 26422 32997 62502 10081 20055 40119 57021 82039;EQDQ01  00002PRCP99
0187264220999992000051106004+56970+024050FM-12+0007UMRR V0203501N00601002101CN0100001N1+01031+00781101211ADDAA199000091GA1041+002709069GF108991061061002501071999KA1120N+00751MD1310021+9999REMSYN076AAXX  11061 26422 32397 83506 10103 20078 40121 53002 8667/ 333 20075 84709;EQDQ01  00002PRCP99
0167264220999992000051109004+56970+024050FM-12+0007UMRR V0203601N007012200019N0200001N1+01201+00651101351ADDAY181031AY211031GF103991021011008001001011MD1210151+9999MW1011OA140101101REMSYN082AAXX  11091 26422 41598 33607 10120 20065 40135 52015 70181 82101 333 91011 91112;
0188264220999992000051112004+56970+024050FM-12+0007UMRR V0203201N007010300019N0200001N1+01111+00361101431ADDAY181061AY211061GF107991011011008001031001MA1999999101111MD1210071+9999MW1011OA140101201REMSYN088AAXX  11121 26422 41598 73207 10111 20036 30111 40143 52007 70181 81130 333 91012 91113;
0139264220999992000051115004+56970+024050FM-12+0007UMRR V0203401N008012200019N0200001N1+01111+00191101471ADDGF101991011011008001001001MD1310041+9999OA140101501REMSYN076AAXX  11151 26422 42598 13408 10111 20019 40147 53004 81100 333 91015 91117;
0175264220999992000051118004+56970+024050FM-12+0007UMRR V0203301N010012200019N0200001N1+00781-00251101461ADDAA112000791GF102991021001999999031001KA1120M+01291MD1810011+9999OA140101701REMSYN088AAXX  11181 26422 12998 23310 10078 21025 40146 58001 69902 82030 333 10129 91017 91117;
0139264220999992000051121004+56970+024050FM-12+0007UMRR V0203501N009012200019N0100001N1+00651-00221101501ADDGF102991021001999999081001MD1310041+9999OA140101501REMSYN076AAXX  11211 26422 42997 23509 10065 21022 40150 53004 82080 333 91015 91119;
0160264220999992000051200004+56970+024050FM-12+0007UMRR V0203301N011012200019N0100001N1+00541-00241101591ADDGF102991021001999999081001MA1999999101271MD1210091+9999OA140101501REMSYN082AAXX  12001 26422 42997 23311 10054 21024 30127 40159 52009 82080 333 91015 91118;
0191264220999992000051203004+56970+024050FM-12+0007UMRR V0203601N010010108019N0200001N1+00491-00421101731ADDAA199000091GA1051+010809069GF105991051051012501001001MD1210141+9999OA140101601REMSYN082AAXX  12031 26422 32698 53610 10049 21042 40173 52014 85500 333 85636 91016 91118;EQDQ01  00002PRCP99
0188264220999992000051206004+56970+024050FM-12+0007UMRR V0203601N010010300019N0200001N1+00511-00721101931ADDAA199000091GF105991031021008001081001KA1120N+00481MD1210201+9999OA140101801REMSYN082AAXX  12061 26422 32598 53610 10051 21072 40193 52020 83280 333 20048 91018 91119;EQDQ01  00002PRCP99
0139264220999992000051209004+56970+024050FM-12+0007UMRR V0203601N011012200019N0200001N1+00611-00621102131ADDGF103991031021008001001001MD1210191+9999OA140101801REMSYN076AAXX  12091 26422 42598 33611 10061 21062 40213 52019 83200 333 91018 91122;
0160264220999992000051212004+56970+024050FM-12+0007UMRR V0203501N010012200019N0200001N1+00741-00491102231ADDGF102991021021008001001001MA1999999101911MD1210111+9999OA140101701REMSYN082AAXX  12121 26422 42598 23510 10074 21049 30191 40223 52011 82200 333 91017 91122;
0161264220999992000051215004+56970+024050FM-12+0007UMRR V0203401N00801012001CN0100001N1+00541-00441102261ADDGA1041+009909069GF105991051041012501001001MD1310021+9999OA140101401REMSYN082AAXX  12151 26422 42697 53408 10054 21044 40226 53002 85400 333 84633 91014 91117;
0188264220999992000051218004+56970+024050FM-12+0007UMRR V0203201N007012200019N0100001N1+00471-00351102271ADDAA199000091GF103991031021008001001001KA1120M+00761MD1110011+9999OA140101301REMSYN082AAXX  12181 26422 32597 33207 10047 21035 40227 51001 83200 333 10076 91013 91117;EQDQ01  00002PRCP99
0139264220999992000051221004+56970+024050FM-12+0007UMRR V0203301N005012200019N0100001N1+00331-00261102271ADDGF102991021021008001001001MD1410001+9999OA140101001REMSYN076AAXX  12211 26422 42597 23305 10033 21026 40227 54000 82200 333 91010 91113;
0160264220999992000051300004+56970+024050FM-12+0007UMRR V0203201N005012200019N0100001N1+00411-00221102271ADDGF104991011021012501031001MA1999999101941MD1410001+9999OA140101001REMSYN082AAXX  13001 26422 42697 43205 10041 21022 30194 40227 54000 81230 333 91010 91113;
0169264220999992000051303004+56970+024050FM-12+0007UMRR V0203101N005019999999N0100001N1+00521-00211102171ADDAA199000091GF108991081001999999011999MD1810101+9999OA140101001REMSYN076AAXX  13031 26422 32997 83105 10052 21021 40217 58010 8801/ 333 91010 91111;EQDQ01  00002PRCP99
0171264220999992000051306004+56970+024050FM-12+0007UMRR V0202501N003019999999N0100001N1+00591+00011102041ADDAA199000091GF108991081001999999071999KA1120N+00331MD1710121+9999REMSYN076AAXX  13061 26422 32997 82503 10059 20001 40204 57012 8807/ 333 20033 91111;EQDQ01  00002PRCP99
0139264220999992000051309004+56970+024050FM-12+0007UMRR V0203201N006010300019N0100001N1+01121+00411101891ADDGF107991021021012501031001MD1710151+9999OA140101101REMSYN076AAXX  13091 26422 42697 73206 10112 20041 40189 57015 82230 333 91011 91112;
0143264220999992000051312004+56970+024050FM-12+0007UMRR V0203401N001010300019N0100001N1+01161+00431101661ADDGF108991021021012501051999MA1999999101341MD1710231+9999REMSYN076AAXX  13121 26422 42697 83401 10116 20043 30134 40166 57023 8225/ 333 91112;
0139264220999992000051315004+56970+024050FM-12+0007UMRR V0203401N009010300019N0100001N1+01031+00321101721ADDGF108991021021012501051999MD1110061+9999OA140101401REMSYN076AAXX  13151 26422 42697 83409 10103 20032 40172 51006 8225/ 333 91014 91116;
0188264220999992000051318004+56970+024050FM-12+0007UMRR V0203301N007012200019N0100001N1+00971+00451101711ADDAA199000091GF102991021001999999031001KA1120M+01221MD1810011+9999OA140101101REMSYN082AAXX  13181 26422 32997 23307 10097 20045 40171 58001 82030 333 10122 91011 91116;EQDQ01  00002PRCP99
0139264220999992000051321004+56970+024050FM-12+0007UMRR V0203301N006012200019N0100001N1+00841+00581101831ADDGF101991001001999999001011MD1210121+9999OA140101001REMSYN076AAXX  13211 26422 42997 13306 10084 20058 40183 52012 80001 333 91010 91112;
0153264220999992000051400004+56970+024050FM-12+0007UMRR V0203301N005012200019N0100001N1+00751+00501101881ADDGA1001+999999999GF100991001001999999001001MA1999999101561MD1310051+9999REMSYN070AAXX  14001 26422 42997 03305 10075 20050 30156 40188 53005 333 91112;
0162264220999992000051403004+56970+024050FM-12+0007UMRR V0202901N004012200019N0200001N1+00781+00511101841ADDAA199000091GA1001+999999999GF100991001001999999001001MD1810041+9999REMSYN064AAXX  14031 26422 32998 02904 10078 20051 40184 58004 333 91110;EQDQ01  00002PRCP99
0165264220999992000051406004+56970+024050FM-12+0007UMRR V0203401N005010750019N0100001N1+00871+00561101891ADDAA199000091GF105991021011008001071011KA1999N+00731MD1310051+9999REMSYN070AAXX  14061 26422 32597 53405 10087 20056 40189 53005 82171 333 20073;EQDQ01  00002PRCP99
0112264220999992000051409004+56970+024050FM-12+0007UMRR V0203401N005012200019N0100001N1+01161+00541102021ADDGF104991001001999999001011MD1210131+9999REMSYN060AAXX  14091 26422 42997 43405 10116 20054 40202 52013 80001;
0160264220999992000051412004+56970+024050FM-12+0007UMRR V0203401N006012200019N0100001N1+01481+00191101981ADDGF102991001001999999001011MA1999999101671MD1810031+9999OA140101001REMSYN082AAXX  14121 26422 42997 23406 10148 20019 30167 40198 58003 80001 333 91010 91111;
0139264220999992000051415004+56970+024050FM-12+0007UMRR V0203301N008019999999N0100001N1+01451+00471101941ADDGF106991001001999999001011MD1710041+9999OA140101101REMSYN076AAXX  14151 26422 42997 63308 10145 20047 40194 57004 80001 333 91011 91114;
0188264220999992000051418004+56970+024050FM-12+0007UMRR V0203301N007012200019N0100001N1+01131+00201101911ADDAA199000091GF104991001001999999001011KA1120M+01541MD1710041+9999OA140101201REMSYN082AAXX  14181 26422 32997 43307 10113 20020 40191 57004 80001 333 10154 91012 91112;EQDQ01  00002PRCP99
0132264220999992000051421004+56970+024050FM-12+0007UMRR V0203101N004012200019N0100001N1+00951+00271101871ADDGA1001+999999999GF100991001001999999001001MD1710041+9999REMSYN064AAXX  14211 26422 42997 03104 10095 20027 40187 57004 333 91112;
0143264220999992000051500004+56970+024050FM-12+0007UMRR V0202901N003012200019N0100001N1+00781+00321101881ADDGA1001+999999999GF100991001001999999001001MA1999999101561MD1310011+9999REMSYN060AAXX  15001 26422 42997 02903 10078 20032 30156 40188 53001;
0142264220999992000051503004+56970+024050FM-12+0007UMRR V0202901N002012200019N0100001N1+00461+00291101811ADDAA199000091GF102991001001999999001091MD1510071+9999REMSYN060AAXX  15031 26422 32997 22902 10046 20029 40181 55007 80009;EQDQ01  00002PRCP99
0165264220999992000051506004+56970+024050FM-12+0007UMRR V0203001N001012200019N0200001N1+01091+00501101751ADDAA199000091GF104991011001999999041011KA1999N+00451MD1810061+9999REMSYN070AAXX  15061 26422 32998 43001 10109 20050 40175 58006 81041 333 20045;EQDQ01  00002PRCP99
0112264220999992000051509004+56970+024050FM-12+0007UMRR V0202601N002012200019N0200001N1+01831+00451101591ADDGF103991001001999999001091MD1710151+9999REMSYN060AAXX  15091 26422 42998 32602 10183 20045 40159 57015 80009;
0133264220999992000051512004+56970+024050FM-12+0007UMRR V0203101N004019999999N0200001N1+02411+00851101371ADDGF107991031001999999071091MA1999999101051MD1710231+9999REMSYN066AAXX  15121 26422 42998 73104 10241 20085 30105 40137 57023 83079;
0139264220999992000051515004+56970+024050FM-12+0007UMRR V0203501N006019999999N0100001N1+01721+00841101441ADDGF106991021001999999031091MD1510081+9999OA140101001REMSYN076AAXX  15151 26422 42997 63506 10172 20084 40144 55008 82039 333 91010 91110;
0188264220999992000051518004+56970+024050FM-12+0007UMRR V0203301N006012200019N0100001N1+01221+00501101501ADDAA199000091GF103991001001999999001011KA1120M+02411MD1310061+9999OA140101201REMSYN082AAXX  15181 26422 32997 33306 10122 20050 40150 53006 80001 333 10241 91012 91112;EQDQ01  00002PRCP99
0122264220999992000051521004+56970+024050FM-12+0007UMRR V0203201N006012200019N0100001N1+00981+00451101611ADDGF103991021001999999031011MD1210101+9999REMSYN070AAXX  15211 26422 42997 33206 10098 20045 40161 52010 82031 333 91112;
0143264220999992000051600004+56970+024050FM-12+0007UMRR V0203101N002012200019N0100001N1+00791+00561101671ADDGF102991001001999999001011MA1999999101351MD1110061+9999REMSYN076AAXX  16001 26422 42997 23102 10079 20056 30135 40167 51006 80001 333 91112;
0142264220999992000051603004+56970+024050FM-12+0007UMRR V0203301N002012200019N0100001N1+00711+00541101731ADDAA199000091GF104991001001999999001021MD1310061+9999REMSYN060AAXX  16031 26422 32997 43302 10071 20054 40173 53006 80002;EQDQ01  00002PRCP99
0175264220999992000051606004+56970+024050FM-12+0007UMRR V0203601N001012200019N0200001N1+01011+00681101851ADDAA199000091GA1001+999999999GF100991001001999999001001KA1999N+00701MD1210121+9999REMSYN064AAXX  16061 26422 32998 03601 10101 20068 40185 52012 333 20070;EQDQ01  00002PRCP99
0112264220999992000051609004+56970+024050FM-12+0007UMRR V0203301N002019999999N0200001N1+01461+00721101901ADDGF106991001001999999001041MD1210061+9999REMSYN060AAXX  16091 26422 42998 63302 10146 20072 40190 52006 80004;
0133264220999992000051612004+56970+024050FM-12+0007UMRR V0203501N003019999999N0200001N1+01811+00751101941ADDGF107991001001999999001041MA1999999101631MD1210041+9999REMSYN066AAXX  16121 26422 42998 73503 10181 20075 30163 40194 52004 80004;
0112264220999992000051615004+56970+024050FM-12+0007UMRR V0200201N002019999999N0200001N1+01791+00571101921ADDGF106991001001999999001041MD1810021+9999REMSYN060AAXX  16151 26422 42998 60202 10179 20057 40192 58002 80004;
0165264220999992000051618004+56970+024050FM-12+0007UMRR V0203301N002019999999N0100001N1+01421+00371101881ADDAA199000091GF106991001001999999001041KA1999M+01861MD1710041+9999REMSYN070AAXX  16181 26422 32997 63302 10142 20037 40188 57004 80004 333 10186;EQDQ01  00002PRCP99
0112264220999992000051621004+56970+024050FM-12+0007UMRR V0203101N002019999999N0100001N1+00881+00611101851ADDGF108991001001999999001041MD1710041+9999REMSYN060AAXX  16211 26422 42997 83102 10088 20061 40185 57004 80004;
0133264220999992000051700004+56970+024050FM-12+0007UMRR V0201301N003019999999N0100001N1+01061+00191101831ADDGF108991001001999999001041MA1999999101511MD1610021+9999REMSYN066AAXX  17001 26422 42997 81303 10106 20019 30151 40183 56002 80004;
0142264220999992000051703004+56970+024050FM-12+0007UMRR V0201301N001019999999N0100001N1+00891+00121101801ADDAA199000091GF106991001001999999001041MD1810031+9999REMSYN060AAXX  17031 26422 32997 61301 10089 20012 40180 58003 80004;EQDQ01  00002PRCP99
0165264220999992000051706004+56970+024050FM-12+0007UMRR V0201301N001019999999N0200001N1+01271+00391101711ADDAA199000091GF106991001001999999001011KA1999N+00781MD1710081+9999REMSYN070AAXX  17061 26422 32998 61301 10127 20039 40171 57008 80001 333 20078;EQDQ01  00002PRCP99
0112264220999992000051709004+56970+024050FM-12+0007UMRR V0201501N002019999999N0200001N1+01951+00501101571ADDGF108991001001999999001011MD1710141+9999REMSYN060AAXX  17091 26422 42998 81502 10195 20050 40157 57014 80001;
0133264220999992000051712004+56970+024050FM-12+0007UMRR V0200701N001012200019N0200001N1+02381+00581101381ADDGF103991001001999999001011MA1999999101081MD1710181+9999REMSYN066AAXX  17121 26422 42998 30701 10238 20058 30108 40138 57018 80001;
0112264220999992000051715004+56970+024050FM-12+0007UMRR V0200201N003012200019N0200001N1+02421+00671101191ADDGF101991001001999999001011MD1710191+9999REMSYN060AAXX  17151 26422 42998 10203 10242 20067 40119 57019 80001;
0165264220999992000051718004+56970+024050FM-12+0007UMRR V0200901N002012200019N0100001N1+02041+00901101071ADDAA199000091GF102991001001999999001011KA1999M+02491MD1710131+9999REMSYN070AAXX  17181 26422 32997 20902 10204 20090 40107 57013 80001 333 10249;EQDQ01  00002PRCP99
0112264220999992000051721004+56970+024050FM-12+0007UMRR V0201301N003012200019N0100001N1+01771+00741101011ADDGF103991001001999999001011MD1710051+9999REMSYN060AAXX  17211 26422 42997 31303 10177 20074 40101 57005 80001;
0133264220999992000051800004+56970+024050FM-12+0007UMRR V0201201N003012200019N0100001N1+01621+00681100931ADDGF102991021001999999031091MA1999999100621MD1710091+9999REMSYN066AAXX  18001 26422 42997 21203 10162 20068 30062 40093 57009 82039;
0142264220999992000051803004+56970+024050FM-12+0007UMRR V0201301N004019999999N0100001N1+01471+00771100841ADDAA199000091GF107991071001999999031001MD1710091+9999REMSYN060AAXX  18031 26422 32997 71304 10147 20077 40084 57009 87030;EQDQ01  00002PRCP99
0165264220999992000051806004+56970+024050FM-12+0007UMRR V0201201N004010750019N0200001N1+01751+00881100811ADDAA199000091GF105991021021012501031011KA1999N+01451MD1610021+9999REMSYN070AAXX  18061 26422 32698 51204 10175 20088 40081 56002 82231 333 20145;EQDQ01  00002PRCP99
0138264220999992000051809004+56970+024050FM-12+0007UMRR V0201501N005010300019N0100001N1+02251+01041100761ADDGA1031+008409029GF107991031011008001031011MD1710051+9999REMSYN070AAXX  18091 26422 42597 71505 10225 20104 40076 57005 83131 333 83828;
0182264220999992000051812004+56970+024050FM-12+0007UMRR V0201701N004010087019N0100001N1+02511+01101100711ADDGA1061+008709099GF107991061091008001051999MA1999999100411MD1710051+9999OA140101001REMSYN088AAXX  18121 26422 42597 71704 10251 20110 30041 40071 57005 8695/ 333 86929 91010 91111;
0172264220999992000051815004+56970+024050FM-12+0007UMRR V0201701N003010099019N0100001N1+02221+01541100641ADDAY181031AY221031GA1051+009909099GF108991061091012501051999MD1710071+9999MW1251REMSYN082AAXX  18151 26422 41697 81703 10222 20154 40064 57007 72582 8695/ 333 85933 91110;
0202264220999992000051818004+56970+024050FM-12+0007UMRR V0201401N003010138019N0100001N1+02301+01061100581ADDAA112000591AY181061AY221061GA1061+013809029GF108991061011012501071999KA1120M+02691MD1710061+9999MW1021REMSYN088AAXX  18181 26422 11697 81403 10230 20106 40058 57006 69962 70282 8617/ 333 10269 86846;
0150264220999992000051821004+56970+024050FM-12+0007UMRR V0203001N003012200019N0100001N1+01261+01001100721ADDAY191031AY281031GF103991021001999999031011MD1310131+9999MW1011REMSYN076AAXX  18211 26422 41997 33003 10126 20100 40072 53013 70198 82031 333 91110;
0171264220999992000051900004+56970+024050FM-12+0007UMRR V0203201N002019999999N0100001N1+01071+00951100671ADDAY191061AY281061GF107991071001999999071001MA1999999100351MD1810061+9999MW1021REMSYN082AAXX  19001 26422 41997 73202 10107 20095 30035 40067 58006 70298 87070 333 91110;
0112264220999992000051903004+56970+024050FM-12+0007UMRR V0201401N002019999999N0100001N1+01171+01021100531ADDGF108991081001999999051999MD1710131+9999REMSYN060AAXX  19031 26422 /2997 81402 10117 20102 40053 57013 8805/;
0152264220999992000051906004+56970+024050FM-12+0007UMRR V0201401N004019999999N0100001N1+01711+00971100501ADDAA112000591GF108991081001999999051999KA1999N+00991MD1610021+9999REMSYN076AAXX  19061 26422 12997 81404 10171 20097 40050 56002 69942 8805/ 333 20099;
0112264220999992000051909004+56970+024050FM-12+0007UMRR V0201501N003019999999N0100001N1+02291+01111100481ADDGF106991021001999999051091MD1610021+9999REMSYN060AAXX  19091 26422 42997 61503 10229 20111 40048 56002 82059;
0133264220999992000051912004+56970+024050FM-12+0007UMRR V0202201N003019999999N0100001N1+02471+01221100481ADDGF107991061031999999061001MA1999999100181MD1410001+9999REMSYN066AAXX  19121 26422 42997 72203 10247 20122 30018 40048 54000 86360;
0166264220999992000051915004+56970+024050FM-12+0007UMRR V0200501N004019999999N0100001N1+01611+01401100581ADDAY191031AY281031GA1021+009009099GF108991021091999999061999MD1310101+9999MW1911REMSYN076AAXX  19151 26422 41997 80504 10161 20140 40058 53010 79198 8296/ 333 82930;
0202264220999992000051918004+56970+024050FM-12+0007UMRR V0203401N004010300019N0040001N1+01211+01131100491ADDAA112006191AY191061AY281061GA1041+002409069GF108991041061002501061999KA1120M+02611MD1810091+9999MW1021REMSYN088AAXX  19181 26422 11396 83404 10121 20113 40049 58009 60062 70298 8466/ 333 10261 84708;
0166264220999992000051921004+56970+024050FM-12+0007UMRR V0203001N004010009019N0040001N1+01051+00971100591ADDAY121031AY221031GA1081+000909069GF108991081061001501999999MD1210081+9999MW1101REMSYN076AAXX  19211 26422 41296 83004 10105 20097 40059 52008 71022 886// 333 88703;
0187264220999992000052000004+56970+024050FM-12+0007UMRR V0200601N002010003019N0010001N1+01051+01001100411ADDAY121061AY221061GA1081+000309069GF108991081061000751999999MA1999999100101MD1710171+9999MW1101REMSYN082AAXX  20001 26422 41194 80602 10105 20100 30010 40041 57017 71022 886// 333 88701;
0166264220999992000052003004+56970+024050FM-12+0007UMRR V0203001N001010001519N0002001N1+01091+01041100391ADDAY161031AY241031GA1081+000159069GF108991081061000251999999MD1710021+9999MW1611REMSYN076AAXX  20031 26422 /1092 83001 10109 20104 40039 57002 76164 886// 333 88700;
0190264220999992000052006004+56970+024050FM-12+0007UMRR V0203201N002010009019N0002001N1+01101+01031100401ADDAA199000021AY161061AY241061GA1081+000909999GF109991091999999999999999KA1120N+00991MD1010011+9999MW1451REMSYN076AAXX  20061 26422 31192 93202 10110 20103 40040 50001 74564 333 20099 88/03;
0140264220999992000052009004+56970+024050FM-12+0007UMRR V0203301N001010300019N0100001N1+01491+01211100351ADDAY161031AY241031GF108991021071004501071999MD1610051+9999MW1021REMSYN066AAXX  20091 26422 41497 83301 10149 20121 40035 56005 70264 8277/;
0187264220999992000052012004+56970+024050FM-12+0007UMRR V0203001N003010300019N0100001N1+01251+00991100351ADDAY181061AY241061GA1041+012009059GF108991041051012501031999MA1999999100041MD1410001+9999MW1011REMSYN082AAXX  20121 26422 41697 83003 10125 20099 30004 40035 54000 70184 8453/ 333 84640;
0138264220999992000052015004+56970+024050FM-12+0007UMRR V0203201N002010021019N0100001N1+01271+01051100411ADDGA1051+002109069GF108991081051002501999999MD1310061+9999REMSYN070AAXX  20151 26422 42397 83202 10127 20105 40041 53006 885// 333 85707;
0215264220999992000052018004+56970+024050FM-12+0007UMRR V0202601N002010012019N0040001N1+01121+01051100491ADDAA199000021AY161061AY221061GA1061+001209069GF108991999071001501021999KA1120M+01531MD1210081+9999MW1611REMSYN082AAXX  20181 26422 31296 82602 10112 20105 40049 52008 76162 8872/ 333 10153 86704;EQDQ01+000082SCOTLC
0166264220999992000052021004+56970+024050FM-12+0007UMRR V0202501N002010042019N0100001N1+01051+00991100481ADDAY181031AY221031GA1081+004209099GF108991081091004501999999MD1810011+9999MW1811REMSYN076AAXX  20211 26422 41497 82502 10105 20099 40048 58001 78182 889// 333 88914;
0187264220999992000052100004+56970+024050FM-12+0007UMRR V0202301N001010021019N0100001N1+01031+00951100461ADDAY181061AY221061GA1061+002109069GF108991061061002501061999MA1999999100151MD1810011+9999MW1021REMSYN082AAXX  21001 26422 41397 82301 10103 20095 30015 40046 58001 70282 8666/ 333 86707;
0166264220999992000052103004+56970+024050FM-12+0007UMRR V0202801N003010021019N0100001N1+01001+00851100451ADDAY181031AY221031GA1081+002109069GF108991081061002501999999MD1810011+9999MW1021REMSYN076AAXX  21031 26422 /1397 82803 10100 20085 40045 58001 70282 886// 333 88707;
0174264220999992000052106004+56970+024050FM-12+0007UMRR V0203001N003010033019N0100001N1+01061+00901100531ADDAA112001091GA1081+003309069GF108991081061004501999999KA1120N+01001MD1310081+9999REMSYN082AAXX  21061 26422 12497 83003 10106 20090 40053 53008 60012 886// 333 20100 88711;
0138264220999992000052109004+56970+024050FM-12+0007UMRR V0202801N002010042019N0200001N1+01321+00831100591ADDGA1061+004209099GF108991061091004501071999MD1210061+9999REMSYN070AAXX  21091 26422 42498 82802 10132 20083 40059 52006 8697/ 333 86914;
0159264220999992000052112004+56970+024050FM-12+0007UMRR V0203001N00301012001CN0200001N1+01511+00871100651ADDGA1021+010809099GF108991051091012501031999MA1999999100341MD1210061+9999REMSYN076AAXX  21121 26422 42698 83003 10151 20087 30034 40065 52006 8593/ 333 82936;
0112264220999992000052115004+56970+024050FM-12+0007UMRR V0203001N001010300019N0200001N1+01771+00801100671ADDGF106991031011012501031001MD1010031+9999REMSYN060AAXX  21151 26422 42698 63001 10177 20080 40067 50003 83130;
0202264220999992000052118004+56970+024050FM-12+0007UMRR V0202001N002010048019N0100001N1+01451+01041100801ADDAA112000591AY181061AY221061GA1061+004809099GF107991061091004501031001KA1120M+01841MD1310121+9999MW1811REMSYN088AAXX  21181 26422 11497 72002 10145 20104 40080 53012 69942 78182 86930 333 10184 86916;
0161264220999992000052200004+56970+024050FM-12+0007UMRR V0209999C000019999999N0100001N1+00931+00901100881ADDAY181061AY221061GF105991051001999999071001MA1999999100561MD1110011+9999MW1021REMSYN072AAXX  22001 26422 41997 50000 10093 20090 30056 40088 51001 70282 85070;
0166264220999992000052203004+56970+024050FM-12+0007UMRR V0209999C000010021019N0040001N1+00951+00881100911ADDAY121031AY221031GA1061+002109069GF108991061061002501071999MD1210041+9999MW1101REMSYN076AAXX  22031 26422 /1396 80000 10095 20088 40091 52004 71022 8667/ 333 86707;
0152264220999992000052206004+56970+024050FM-12+0007UMRR V0202501N001019999999N0100001N1+01321+01001100971ADDAA112000591GF107991001001999999001041KA1999N+00921MD1210061+9999REMSYN076AAXX  22061 26422 32997 72501 10132 20100 40097 52006 69962 80004 333 20092;
0112264220999992000052209004+56970+024050FM-12+0007UMRR V0200101N003012200019N0100001N1+01701+01091101051ADDGF102991011021012501001011MD1210091+9999REMSYN060AAXX  22091 26422 42697 20103 10170 20109 40105 52009 81201;
0133264220999992000052212004+56970+024050FM-12+0007UMRR V0203501N004012200019N0200001N1+01831+00941101081ADDGF102991011021012501001011MA1999999100771MD1010021+9999REMSYN066AAXX  22121 26422 42698 23504 10183 20094 30077 40108 50002 81201;
0112264220999992000052215004+56970+024050FM-12+0007UMRR V0200101N004012200019N0100001N1+01671+00881101121ADDGF104991011021012501041011MD1210041+9999REMSYN060AAXX  22151 26422 42697 40104 10167 20088 40112 52004 81241;
0165264220999992000052218004+56970+024050FM-12+0007UMRR V0203601N003010300019N0100001N1+01271+00981101171ADDAA199000091GF107991011021008001041041KA1999M+01851MD1210051+9999REMSYN070AAXX  22181 26422 32597 73603 10127 20098 40117 52005 81244 333 10185;EQDQ01  00002PRCP99
0112264220999992000052221004+56970+024050FM-12+0007UMRR V0203101N002012200019N0100001N1+00831+00771101251ADDGF101991011001999999071001MD1210071+9999REMSYN060AAXX  22211 26422 42997 13102 10083 20077 40125 52007 81070;
0143264220999992000052300004+56970+024050FM-12+0007UMRR V0203301N003012200019N0100001N1+00871+00811101261ADDGA1001+999999999GF100991001001999999001001MA1999999100941MD1110011+9999REMSYN060AAXX  23001 26422 42997 03303 10087 20081 30094 40126 51001;
0196264220999992000052303004+56970+024050FM-12+0007UMRR V0203201N002010009019N0010001N1+00871+00821101341ADDAA199000091AY111031AY211031GA1081+000909069GF108991081061001501999999MD1210081+9999MW1101REMSYN076AAXX  23031 26422 31294 83202 10087 20082 40134 52008 71011 886// 333 88703;EQDQ01  00002PRCP99
0215264220999992000052306004+56970+024050FM-12+0007UMRR V0203401N002010012019N0040001N1+01031+00971101451ADDAA199000091AY141061AY211061GA1071+001209069GF107991071061001501001001KA1120N+00811MD1210111+9999MW1281REMSYN082AAXX  23061 26422 31296 73402 10103 20097 40145 52011 72841 87600 333 20081 87704;EQDQ01  00002PRCP99
0122264220999992000052309004+56970+024050FM-12+0007UMRR V0203401N003012200019N0100001N1+01581+00911101501ADDGA1001+999999999GF100991001001999999001001MD1210061+9999REMSYN054AAXX  23091 26422 42997 03403 10158 20091 40150 52006;
0159264220999992000052312004+56970+024050FM-12+0007UMRR V0203601N004012200019N0100001N1+01891+00951101501ADDGA1011+009909099GF102991021091012501001001MA1999999101191MD1410001+9999REMSYN076AAXX  23121 26422 42697 23604 10189 20095 30119 40150 54000 82900 333 81933;
0138264220999992000052315004+56970+024050FM-12+0007UMRR V0203601N004012200019N0100001N1+01681+00941101541ADDGA1011+010809099GF102991021091012501001001MD1210041+9999REMSYN070AAXX  23151 26422 42697 23604 10168 20094 40154 52004 82900 333 81936;
0187264220999992000052318004+56970+024050FM-12+0007UMRR V0203601N003010300019N0100001N1+01371+01011101601ADDAA199000091GA1011+009909099GF105991011091012501031001KA1120M+01951MD1210061+9999REMSYN076AAXX  23181 26422 32697 53603 10137 20101 40160 52006 81930 333 10195 81933;EQDQ01  00002PRCP99
0112264220999992000052321004+56970+024050FM-12+0007UMRR V0202801N001019999999N0100001N1+01091+00901101691ADDGF105991051001999999041001MD1210081+9999REMSYN060AAXX  23211 26422 42997 52801 10109 20090 40169 52008 85040;
0133264220999992000052400004+56970+024050FM-12+0007UMRR V0202401N001012200019N0100001N1+00911+00841101711ADDGF102991001001999999001011MA1999999101391MD1110021+9999REMSYN066AAXX  24001 26422 42997 22401 10091 20084 30139 40171 51002 80001;
0152264220999992000052403004+56970+024050FM-12+0007UMRR V0202701N001012200019N0100001N1+00821+00771101691ADDAA199000091GA1001+999999999GF100991001001999999001001MD1810021+9999REMSYN054AAXX  24031 26422 32997 02701 10082 20077 40169 58002;EQDQ01  00002PRCP99
0165264220999992000052406004+56970+024050FM-12+0007UMRR V0202001N001012200019N0100001N1+01191+00921101721ADDAA199000091GF102991001001999999001011KA1999N+00791MD1310041+9999REMSYN070AAXX  24061 26422 32997 22001 10119 20092 40172 53004 80001 333 20079;EQDQ01  00002PRCP99
0157264220999992000052409004+56970+024050FM-12+0007UMRR V0202601N002019999999N0100001N1+01691+00741101691ADDGA1041+012909029GF106991001999999999001011MD1810031+9999REMSYN070AAXX  24091 26422 42997 62602 10169 20074 40169 58003 80201 333 84843;EQDQ01+000022SCOLCG
0159264220999992000052412004+56970+024050FM-12+0007UMRR V0202701N002019999999N0100001N1+01851+00771101651ADDGA1041+012609099GF106991041031999999001011MA1999999101341MD1810041+9999REMSYN076AAXX  24121 26422 46997 62702 10185 20077 30134 40165 58004 84301 333 84942;
0138264220999992000052415004+56970+024050FM-12+0007UMRR V0202501N003010147019N0100001N1+02011+00771101581ADDGA1061+014709099GF106991061031012501001001MD1710071+9999REMSYN070AAXX  24151 26422 42697 62503 10201 20077 40158 57007 86300 333 86949;
0165264220999992000052418004+56970+024050FM-12+0007UMRR V0202001N002019999999N0100001N1+01781+00781101531ADDAA199000091GF107991071001999999061091KA1999M+02021MD1710051+9999REMSYN070AAXX  24181 26422 32997 72002 10178 20078 40153 57005 87069 333 10202;EQDQ01  00002PRCP99
0138264220999992000052421004+56970+024050FM-12+0007UMRR V0201901N003010300019N0100001N1+01461+00811101541ADDGA1031+009909029GF105991031011012501031001MD1210011+9999REMSYN070AAXX  24211 26422 42697 51903 10146 20081 40154 52001 83130 333 83833;
0133264220999992000052500004+56970+024050FM-12+0007UMRR V0201901N003019999999N0100001N1+01401+00831101491ADDGF108991081001999999051999MA1999999101181MD1710051+9999REMSYN066AAXX  25001 26422 42997 81903 10140 20083 30118 40149 57005 8805/;
0166264220999992000052503004+56970+024050FM-12+0007UMRR V0201901N003010150019N0100001N1+01371+00911101421ADDAY181031AY221031GA1081+015009059GF108991081051017501999999MD1710071+9999MW1021REMSYN076AAXX  25031 26422 /1797 81903 10137 20091 40142 57007 70282 885// 333 88650;
0180264220999992000052506004+56970+024050FM-12+0007UMRR V0202101N003019999999N0100001N1+01591+01181101411ADDAA112000791AY181061AY221061GF107991031001999999031011KA1999N+01321MD1810011+9999MW1011REMSYN082AAXX  25061 26422 11997 72103 10159 20118 40141 58001 69902 70182 83031 333 20132;
0112264220999992000052509004+56970+024050FM-12+0007UMRR V0202201N004010750019N0100001N1+02081+01101101391ADDGF108991031021008001001051MD1610021+9999REMSYN060AAXX  25091 26422 42597 82204 10208 20110 40139 56002 83205;
0133264220999992000052512004+56970+024050FM-12+0007UMRR V0202001N004010300019N0100001N1+02271+01191101321ADDGF108991031091012501061031MA1999999101021MD1710061+9999REMSYN066AAXX  25121 26422 42697 82004 10227 20119 30102 40132 57006 83963;
0122264220999992000052515004+56970+024050FM-12+0007UMRR V0201901N004010300019N0100001N1+02181+01051101221ADDGF108991021091012501061999MD1510101+9999REMSYN070AAXX  25151 26422 42697 81904 10218 20105 40122 55010 8296/ 333 91111;
0186264220999992000052518004+56970+024050FM-12+0007UMRR V0201301N003010300019N0100001N1+01671+01531101171ADDAA112002091AY181061AY221061GF108991021091012501061999KA1120M+02331MD1810061+9999MW1251REMSYN088AAXX  25181 26422 11697 81303 10167 20153 40117 58006 60022 72582 8296/ 333 10233 91114;
0112264220999992000052521004+56970+024050FM-12+0007UMRR V0201501N003019999999N0100001N1+01531+01311101031ADDGF105991051001999999061001MD1710141+9999REMSYN060AAXX  25211 26422 42997 51503 10153 20131 40103 57014 85060;
0159264220999992000052600004+56970+024050FM-12+0007UMRR V0201601N005010300019N0100001N1+01631+01191100781ADDGA1041+002109069GF108991041061002501051999MA1999999100481MD1710241+9999REMSYN076AAXX  26001 26422 42397 81605 10163 20119 30048 40078 57024 8465/ 333 84707;
0166264220999992000052603004+56970+024050FM-12+0007UMRR V0202001N005010300019N0100001N1+01691+01151100711ADDAY181031AY221031GA1041+008409099GF108991041091008001061999MD1610071+9999MW1801REMSYN076AAXX  26031 26422 /1597 82005 10169 20115 40071 56007 78082 8496/ 333 84928;
0203264220999992000052606004+56970+024050FM-12+0007UMRR V0202301N005010300019N0100001N1+01361+00861100951ADDAA112000891AY181061AY221061GF107991021091008001061001KA1120N+01311MD1310231+9999MW1011OA140101001REMSYN094AAXX  26061 26422 11597 72305 10136 20086 40095 53023 69982 70182 82960 333 20131 91010 91111;
0161264220999992000052609004+56970+024050FM-12+0007UMRR V0202301N007010141019N0100001N1+01631+00531101161ADDGA1061+014109089GF106991061021012501001001MD1210211+9999OA140101301REMSYN082AAXX  26091 26422 42697 62307 10163 20053 40116 52021 86200 333 86847 91013 91115;
0182264220999992000052612004+56970+024050FM-12+0007UMRR V0202601N005010099019N0100001N1+01761+00511101341ADDGA1061+009909089GF106991061021008001001001MA1999999101031MD1210181+9999OA140101201REMSYN088AAXX  26121 26422 42597 62605 10176 20051 30103 40134 52018 86200 333 86833 91012 91115;
0161264220999992000052615004+56970+024050FM-12+0007UMRR V0202501N00601012001CN0100001N1+01661+00451101551ADDGA1041+012909089GF106991061091012501001001MD1210211+9999OA140101201REMSYN082AAXX  26151 26422 42697 62506 10166 20045 40155 52021 86900 333 84843 91012 91114;
0171264220999992000052618004+56970+024050FM-12+0007UMRR V0202601N003012200019N0100001N1+01481+00531101671ADDAA199000091GF102991021021008001001001KA1120M+01791MD1210121+9999REMSYN076AAXX  26181 26422 32597 22603 10148 20053 40167 52012 82200 333 10179 91114;EQDQ01  00002PRCP99
0112264220999992000052621004+56970+024050FM-12+0007UMRR V0202101N003012200019N0100001N1+01071+00761101801ADDGF101991011001999999071001MD1210121+9999REMSYN060AAXX  26211 26422 42997 12103 10107 20076 40180 52012 81070;
0143264220999992000052700004+56970+024050FM-12+0007UMRR V0202301N003012200019N0100001N1+00851+00731101841ADDGA1001+999999999GF100991001001999999001001MA1999999101521MD1110041+9999REMSYN060AAXX  27001 26422 42997 02303 10085 20073 30152 40184 51004;
0142264220999992000052703004+56970+024050FM-12+0007UMRR V0202001N003012200019N0100001N1+00741+00651101881ADDAA199000091GF102991001001999999001011MD1210041+9999REMSYN060AAXX  27031 26422 32997 22003 10074 20065 40188 52004 80001;EQDQ01  00002PRCP99
0165264220999992000052706004+56970+024050FM-12+0007UMRR V0202101N004012200019N0100001N1+01221+00901101961ADDAA199000091GF101991001001999999001011KA1999N+00731MD1210091+9999REMSYN070AAXX  27061 26422 32997 12104 10122 20090 40196 52009 80001 333 20073;EQDQ01  00002PRCP99
0112264220999992000052709004+56970+024050FM-12+0007UMRR V0202301N002019999999N0200001N1+01811+00511101891ADDGF106991021001999999031061MD1810071+9999REMSYN060AAXX  27091 26422 42998 62302 10181 20051 40189 58007 82036;
0133264220999992000052712004+56970+024050FM-12+0007UMRR V0201801N004012200019N0200001N1+02201+00651101711ADDGF103991001001999999001041MA1999999101411MD1710171+9999REMSYN066AAXX  27121 26422 42998 31804 10220 20065 30141 40171 57017 80004;
0112264220999992000052715004+56970+024050FM-12+0007UMRR V0201701N004019999999N0100001N1+02201+00601101471ADDGF107991071001999999041001MD1710241+9999REMSYN060AAXX  27151 26422 42997 71704 10220 20060 40147 57024 87040;
0165264220999992000052718004+56970+024050FM-12+0007UMRR V0201501N005012200019N0100001N1+02121+00731101211ADDAA199000091GF102991001001999999001011KA1999M+02361MD1710271+9999REMSYN070AAXX  27181 26422 32997 21505 10212 20073 40121 57027 80001 333 10236;EQDQ01  00002PRCP99
0112264220999992000052721004+56970+024050FM-12+0007UMRR V0201301N004012200019N0100001N1+01931+00931101101ADDGF103991031001999999041001MD1710111+9999REMSYN060AAXX  27211 26422 42997 31304 10193 20093 40110 57011 83040;
0133264220999992000052800004+56970+024050FM-12+0007UMRR V0201901N004012200019N0100001N1+01901+01181101081ADDGF101991001001999999001011MA1999999100771MD1510021+9999REMSYN066AAXX  28001 26422 42997 11904 10190 20118 30077 40108 55002 80001;
0166264220999992000052803004+56970+024050FM-12+0007UMRR V0202601N003010066019N0100001N1+01771+01321101211ADDAY181031AY211031GA1051+006609099GF108991051091008001051999MD1210131+9999MW1801REMSYN076AAXX  28031 26422 /1597 82603 10177 20132 40121 52013 78081 8595/ 333 85922;
0208264220999992000052806004+56970+024050FM-12+0007UMRR V0203201N003010096019N0100001N1+01211+01041101561ADDAA112003091AY181061AY211061GA1081+009609099GF108991081091008001999999KA1120N+01101MD1210351+9999MW1021REMSYN094AAXX  28061 26422 11597 83203 10121 20104 40156 52035 60032 70281 889// 333 20110 88932 91111;
0112264220999992000052809004+56970+024050FM-12+0007UMRR V0200201N004019999999N0100001N1+01431+00801101621ADDGF106991031001999999031011MD1210061+9999REMSYN060AAXX  28091 26422 42997 60204 10143 20080 40162 52006 83031;
0133264220999992000052812004+56970+024050FM-12+0007UMRR V0200601N003012200019N0100001N1+01751+00671101561ADDGF103991021001999999031011MA1999999101251MD1710061+9999REMSYN066AAXX  28121 26422 42997 30603 10175 20067 30125 40156 57006 82031;
0112264220999992000052815004+56970+024050FM-12+0007UMRR V0200301N003019999999N0100001N1+01791+00541101361ADDGF107991051001999999041011MD1710201+9999REMSYN060AAXX  28151 26422 42997 70303 10179 20054 40136 57020 85041;
0187264220999992000052818004+56970+024050FM-12+0007UMRR V0200701N003010108019N0100001N1+01641+00551101131ADDAA199000091GA1061+010809029GF107991061011012501041011KA1120M+01851MD1710231+9999REMSYN076AAXX  28181 26422 32697 70703 10164 20055 40113 57023 86141 333 10185 86836;EQDQ01  00002PRCP99
0112264220999992000052821004+56970+024050FM-12+0007UMRR V0200201N001019999999N0100001N1+01401+00881100931ADDGF107991071001999999031001MD1710201+9999REMSYN060AAXX  28211 26422 4/997 70201 10140 20088 40093 57020 87030;
0161264220999992000052900004+56970+024050FM-12+0007UMRR V0201801N002019999999N0100001N1+01621+01291100681ADDAY191061AY221061GF107991071001999999031001MA1999999100381MD1710241+9999MW1171REMSYN072AAXX  29001 26422 41997 71802 10162 20129 30038 40068 57024 71792 87030;
0166264220999992000052903004+56970+024050FM-12+0007UMRR V0201801N003010033019N0100001N1+01531+01401100581ADDAY191031AY281031GA1051+003309099GF108991051091004501041999MD1710111+9999MW1801REMSYN076AAXX  29031 26422 /1497 81803 10153 20140 40058 57011 78098 8594/ 333 85911;
0180264220999992000052906004+56970+024050FM-12+0007UMRR V0201801N003010300019N0100001N1+01671+01531100541ADDAA112004191AY191061AY281061GF108991021091008001031011KA1999N+01371MD1510031+9999MW1291REMSYN082AAXX  29061 26422 11597 81803 10167 20153 40054 55003 60042 72998 82931 333 20137;
0138264220999992000052909004+56970+024050FM-12+0007UMRR V0202001N003010081019N0100001N1+01841+01531100581ADDGA1051+008109099GF108991051091008001061999MD1310041+9999REMSYN070AAXX  29091 26422 42597 82003 10184 20153 40058 53004 8596/ 333 85927;
0159264220999992000052912004+56970+024050FM-12+0007UMRR V0202601N002010300019N0100001N1+01851+01451100691ADDGA1041+007509099GF108991041091008001061999MA1999999100391MD1210111+9999REMSYN076AAXX  29121 26422 42597 82602 10185 20145 30039 40069 52011 8496/ 333 84925;
0138264220999992000052915004+56970+024050FM-12+0007UMRR V0203001N004010300019N0100001N1+01421+01221100821ADDGA1041+008409099GF108991041091008001061999MD1210121+9999REMSYN070AAXX  29151 26422 42597 83004 10142 20122 40082 52012 8496/ 333 84928;
0187264220999992000052918004+56970+024050FM-12+0007UMRR V0203501N002010300019N0100001N1+01261+00971100951ADDAA199000091GA1031+007809059GF107991031051008001061001KA1120M+02001MD1210131+9999REMSYN076AAXX  29181 26422 32597 73502 10126 20097 40095 52013 83560 333 10200 83626;EQDQ01  00002PRCP99
0166264220999992000052921004+56970+024050FM-12+0007UMRR V0200801N001010150019N0100001N1+01141+01021101031ADDAY181031AY221031GA1081+015009099GF108991081091017501999999MD1210081+9999MW1801REMSYN076AAXX  29211 26422 41797 80801 10114 20102 40103 52008 78082 889// 333 88950;
0161264220999992000053000004+56970+024050FM-12+0007UMRR V0201701N002019999999N0100001N1+01081+00991101031ADDAY181061AY221061GF108991081001000251051999MA1999999100711MD1610011+9999MW1021REMSYN072AAXX  30001 26422 41097 81702 10108 20099 30071 40103 56001 70282 8805/;
0112264220999992000053003004+56970+024050FM-12+0007UMRR V0201801N002019999999N0100001N1+01011+00921101051ADDGF108991071001999999031011MD1210021+9999REMSYN060AAXX  30031 26422 /2997 81802 10101 20092 40105 52002 87031;
0152264220999992000053006004+56970+024050FM-12+0007UMRR V0201801N004019999999N0100001N1+01201+01041101091ADDAA112002091GF108991081001999999051999KA1999N+01011MD1210051+9999REMSYN076AAXX  30061 26422 12997 81804 10120 20104 40109 52005 60022 8805/ 333 20101;
0138264220999992000053009004+56970+024050FM-12+0007UMRR V0202101N00301007501CN0100001N1+01471+00941101161ADDGA1041+008109099GF108991051091008001061999MD1110071+9999REMSYN070AAXX  30091 26422 42597 82103 10147 20094 40116 51007 8596/ 333 84927;
0187264220999992000053012004+56970+024050FM-12+0007UMRR V0209999V001010117019N0100001N1+01141+01001101201ADDAY191061AY281061GA1061+011709099GF107991061091012501061001MA1999999100891MD1210041+9999MW1291REMSYN082AAXX  30121 26422 41697 79901 10114 20100 30089 40120 52004 72998 86960 333 86939;
0166264220999992000053015004+56970+024050FM-12+0007UMRR V0203501N001010300019N0100001N1+01401+01221101171ADDAY181031AY221031GA1031+007809029GF107991041091008001061001MD1810031+9999MW1251REMSYN076AAXX  30151 26422 41597 73501 10140 20122 40117 58003 72582 84960 333 83826;
0180264220999992000053018004+56970+024050FM-12+0007UMRR V0203101N001010300019N0100001N1+01371+01001101211ADDAA112006191AY181061AY221061GF106991031021008001081091KA1999M+01491MD1310041+9999MW1011REMSYN082AAXX  30181 26422 11597 63101 10137 20100 40121 53004 60062 70182 83289 333 10149;
0112264220999992000053021004+56970+024050FM-12+0007UMRR V0202601N002010300019N0100001N1+01091+00641101261ADDGF107991021091008001071001MD1210041+9999REMSYN060AAXX  30211 26422 42597 72602 10109 20064 40126 52004 82970;
0133264220999992000053100004+56970+024050FM-12+0007UMRR V0202401N002019999999N0100001N1+00771+00551101341ADDGF106991061001999999071001MA1999999101021MD1210081+9999REMSYN066AAXX  31001 26422 42997 62402 10077 20055 30102 40134 52008 86070;
0123264220999992000053103004+56970+024050FM-12+0007UMRR V0202001N002012200019N0100001N1+00611+00501101361ADDAA199000021GF102991001001999999001011MD1110021+9999REMSYN060AAXX  31031 26422 32997 22002 10061 20050 40136 51002 80001;
0165264220999992000053106004+56970+024050FM-12+0007UMRR V0202701N002012200019N0100001N1+01071+00621101431ADDAA199000091GF101991011011008001001001KA1999N+00561MD1210071+9999REMSYN070AAXX  31061 26422 32597 12702 10107 20062 40143 52007 81100 333 20056;EQDQ01  00002PRCP99
0138264220999992000053109004+56970+024050FM-12+0007UMRR V0202101N002010090019N0100001N1+01511+00411101461ADDGA1051+009009029GF106991061091008001001001MD1110041+9999REMSYN070AAXX  31091 26422 42597 62102 10151 20041 40146 51004 86900 333 85830;
0159264220999992000053112004+56970+024050FM-12+0007UMRR V0203301N004010300019N0200001N1+01591+00581101581ADDGA1041+010809059GF106991041041012501041001MA1999999101271MD1210121+9999REMSYN076AAXX  31121 26422 42698 63304 10159 20058 30127 40158 52012 84440 333 84636;
0112264220999992000053115004+56970+024050FM-12+0007UMRR V0203201N001012200019N0200001N1+01701+00551101651ADDGF104991021021012501031001MD1110071+9999REMSYN060AAXX  31151 26422 42698 43201 10170 20055 40165 51007 82230;
0165264220999992000053118004+56970+024050FM-12+0007UMRR V0201801N001019999999N0100001N1+01491+00681101741ADDAA199000091GF106991061001999999041001KA1999M+01751MD1310091+9999REMSYN070AAXX  31181 26422 32997 61801 10149 20068 40174 53009 86040 333 10175;EQDQ01  00002PRCP99
0122264220999992000053121004+56970+024050FM-12+0007UMRR V0202701N002012200019N0100001N1+01101+00601101911ADDGA1001+999999999GF100991001001999999001001MD1210161+9999REMSYN054AAXX  31211 26422 42997 02702 10110 20060 40191 52016;
0143264220999992000060100004+56970+024050FM-12+0007UMRR V0202701N002012200019N0100001N1+00811+00651102001ADDGA1001+999999999GF100991001001999999001001MA1999999101681MD1210091+9999REMSYN060AAXX  01001 26422 42997 02702 10081 20065 30168 40200 52009;
0142264220999992000060103004+56970+024050FM-12+0007UMRR V0202101N002012200019N0100001N1+00631+00481102141ADDAA199000091GF102991001001999999001011MD1210131+9999REMSYN060AAXX  01031 26422 32997 22102 10063 20048 40214 52013 80001;EQDQ01  00002PRCP99
0175264220999992000060106004+56970+024050FM-12+0007UMRR V0202701N002012200019N0100001N1+01091+00681102191ADDAA199000091GA1001+999999999GF100991001001999999001001KA1999N+00631MD1210061+9999REMSYN064AAXX  01061 26422 32997 02702 10109 20068 40219 52006 333 20063;EQDQ01  00002PRCP99
0138264220999992000060109004+56970+024050FM-12+0007UMRR V0202801N002012200019N0200001N1+01641+00401102191ADDGA1041+018009029GF104991041021017501001001MD1110011+9999REMSYN070AAXX  01091 26422 42798 42802 10164 20040 40219 51001 84200 333 84856;
0187264220999992000060112004+56970+024050FM-12+0007UMRR V0201201N002010150019N0100001N1+01321+00841102241ADDAY181061AY211061GA1061+015009029GF106991061021017501001001MA1999999101931MD1310051+9999MW1251REMSYN082AAXX  01121 26422 41797 61202 10132 20084 30193 40224 53005 72581 86200 333 86850;
0166264220999992000060115004+56970+024050FM-12+0007UMRR V0203201N004010099019N0100001N1+01601+00631102321ADDAY181031AY221031GA1051+009909099GF107991071091012501001001MD1210081+9999MW1251REMSYN076AAXX  01151 26422 41697 73204 10160 20063 40232 52008 72582 87900 333 85933;
0202264220999992000060118004+56970+024050FM-12+0007UMRR V0200201N00101030001CN0100001N1+01331+00671102361ADDAA112005191AY181061AY221061GA1031+015009029GF105991031021017501061001KA1120M+01801MD1110041+9999MW1011REMSYN088AAXX  01181 26422 11797 50201 10133 20067 40236 51004 60052 70182 83260 333 10180 83850;
0112264220999992000060121004+56970+024050FM-12+0007UMRR V0200501N001012200019N0100001N1+00921+00621102401ADDGF101991011001000251061001MD1110031+9999REMSYN060AAXX  01211 26422 42097 10501 10092 20062 40240 51003 81060;
0133264220999992000060200004+56970+024050FM-12+0007UMRR V0201901N002012200019N0100001N1+00751+00671102401ADDGF102991001001999999001041MA1999999102081MD1410001+9999REMSYN066AAXX  02001 26422 42997 21902 10075 20067 30208 40240 54000 80004;
0112264220999992000060203004+56970+024050FM-12+0007UMRR V0201901N002012200019N0100001N1+00621+00531102381ADDGF104991001001999999001041MD1810031+9999REMSYN060AAXX  02031 26422 /2997 41902 10062 20053 40238 58003 80004;
0187264220999992000060206004+56970+024050FM-12+0007UMRR V0201701N003010300019N0100001N1+01181+00701102281ADDAA199000091GA1021+007809099GF108991021091008001071999KA1120N+00591MD1710081+9999REMSYN076AAXX  02061 26422 32597 81703 10118 20070 40228 57008 8297/ 333 20059 82926;EQDQ01  00002PRCP99
0161264220999992000060209004+56970+024050FM-12+0007UMRR V0201701N005010300019N0100001N1+01551+00621102111ADDGA1031+006609099GF108991041091008001021999MD1710171+9999OA140101001REMSYN082AAXX  02091 26422 42597 81705 10155 20062 40211 57017 8492/ 333 83922 91010 91111;
0210264220999992000060212004+56970+024050FM-12+0007UMRR V0201801N005010135019N0100001N1+01391+01051101881ADDAY181061AY221061GA1051+013509099GF108991051091012501051999MA1999999101571MD1710231+9999MW1801OA140101001REMSYN094AAXX  02121 26422 41697 81805 10139 20105 30157 40188 57023 78082 8595/ 333 85945 91010 91112;
0172264220999992000060215004+56970+024050FM-12+0007UMRR V0201801N005010096019N0100001N1+01251+01121101721ADDAY181031AY221031GA1051+009609099GF108991051091008001051999MD1710161+9999MW1251REMSYN082AAXX  02151 26422 41597 81805 10125 20112 40172 57016 72582 8595/ 333 85932 91112;
0186264220999992000060218004+56970+024050FM-12+0007UMRR V0201901N003010300019N0100001N1+01381+01121101531ADDAA112006191AY181061AY221061GF108991021021012501051999KA1120M+01601MD1710191+9999MW1021REMSYN088AAXX  02181 26422 11697 81903 10138 20112 40153 57019 60062 70282 8225/ 333 10160 91111;
0166264220999992000060221004+56970+024050FM-12+0007UMRR V0201801N003010147019N0100001N1+01391+01211101341ADDAY181031AY221031GA1061+014709029GF108991081051012501999999MD1710191+9999MW1021REMSYN076AAXX  02211 26422 41697 81803 10139 20121 40134 57019 70282 885// 333 86549;
0188264220999992000060300004+56970+024050FM-12+0007UMRR V0201901N005019999999N0100001N1+01501+01351101251ADDAY181061AY221061GF108991081001999999021999MA1999999100941MD1710091+9999MW1021OA140101001REMSYN088AAXX  03001 26422 41997 81905 10150 20135 30094 40125 57009 70282 8802/ 333 91010 91111;
0144264220999992000060303004+56970+024050FM-12+0007UMRR V0202301N003010015019N0100001N1+01491+01361101241ADDGA1081+001509079GF108991081061001501999999MD1510011+9999REMSYN076AAXX  03031 26422 /2297 82303 10149 20136 40124 55001 886// 333 88705 91110;
0174264220999992000060306004+56970+024050FM-12+0007UMRR V0202401N003010051019N0100001N1+01531+01271101311ADDAA112000791GA1061+005109059GF108991081051004501999999KA1120N+01351MD1210071+9999REMSYN082AAXX  03061 26422 12497 82403 10153 20127 40131 52007 69902 885// 333 20135 86617;
0138264220999992000060309004+56970+024050FM-12+0007UMRR V0202701N004010078019N0100001N1+01631+01061101441ADDGA1061+007809059GF106991061051008001001001MD1210131+9999REMSYN070AAXX  03091 26422 42597 62704 10163 20106 40144 52013 86500 333 86626;
0133264220999992000060312004+56970+024050FM-12+0007UMRR V0202601N004012200019N0200001N1+01861+00671101551ADDGF102991021021012501001001MA1999999101241MD1210111+9999REMSYN066AAXX  03121 26422 42698 22604 10186 20067 30124 40155 52011 82200;
0122264220999992000060315004+56970+024050FM-12+0007UMRR V0203501N003012200019N0200001N1+01591+00761101681ADDGA1001+999999999GF100991001001999999001001MD1210131+9999REMSYN054AAXX  03151 26422 42998 03503 10159 20076 40168 52013;
0175264220999992000060318004+56970+024050FM-12+0007UMRR V0203601N003012200019N0200001N1+01411+00601101721ADDAA199000091GA1001+999999999GF100991001001999999001001KA1999M+01861MD1210041+9999REMSYN064AAXX  03181 26422 32998 03603 10141 20060 40172 52004 333 10186;EQDQ01  00002PRCP99
0122264220999992000060321004+56970+024050FM-12+0007UMRR V0202401N003012200019N0100001N1+01011+00521101761ADDGA1001+999999999GF100991001001999999001001MD1110031+9999REMSYN054AAXX  03211 26422 42997 02403 10101 20052 40176 51003;
0143264220999992000060400004+56970+024050FM-12+0007UMRR V0202301N002012200019N0100001N1+00801+00591101721ADDGA1001+999999999GF100991001001999999001001MA1999999101401MD1810041+9999REMSYN060AAXX  04001 26422 42997 02302 10080 20059 30140 40172 58004;
0152264220999992000060403004+56970+024050FM-12+0007UMRR V0202301N002012200019N0100001N1+00691+00571101721ADDAA199000091GA1001+999999999GF100991001001999999001001MD1410001+9999REMSYN054AAXX  04031 26422 32997 02302 10069 20057 40172 54000;EQDQ01  00002PRCP99
0175264220999992000060406004+56970+024050FM-12+0007UMRR V0202601N002012200019N0200001N1+01191+00771101751ADDAA199000091GA1001+999999999GF100991001001999999001001KA1999N+00681MD1310041+9999REMSYN064AAXX  04061 26422 32998 02602 10119 20077 40175 53004 333 20068;EQDQ01  00002PRCP99
0122264220999992000060409004+56970+024050FM-12+0007UMRR V0203101N004012200019N0200001N1+01611+00471101851ADDGA1001+999999999GF100991001001999999001001MD1210101+9999REMSYN054AAXX  04091 26422 42998 03104 10161 20047 40185 52010;
0159264220999992000060412004+56970+024050FM-12+0007UMRR V0203501N005010099019N0100001N1+01611+00361101961ADDGA1051+009909029GF108991051021012501001041MA1999999101651MD1210111+9999REMSYN076AAXX  04121 26422 42697 83505 10161 20036 30165 40196 52011 85204 333 85833;
0112264220999992000060415004+56970+024050FM-12+0007UMRR V0203601N005019999999N0100001N1+01301+00201102021ADDGF108991081001999999051999MD1110061+9999REMSYN060AAXX  04151 26422 42997 83605 10130 20020 40202 51006 8805/;
0165264220999992000060418004+56970+024050FM-12+0007UMRR V0203601N003019999999N0100001N1+01081+00101101971ADDAA199000091GF108991081001999999051999KA1999M+01791MD1810061+9999REMSYN070AAXX  04181 26422 32997 83603 10108 20010 40197 58006 8805/ 333 10179;EQDQ01  00002PRCP99
0112264220999992000060421004+56970+024050FM-12+0007UMRR V0203601N002019999999N0100001N1+00981+00451101991ADDGF108991081001999999051999MD1110021+9999REMSYN060AAXX  04211 26422 42997 83602 10098 20045 40199 51002 8805/;
0133264220999992000060500004+56970+024050FM-12+0007UMRR V0203301N001019999999N0100001N1+00951+00391102021ADDGF108991081001999999051999MA1999999101701MD1310031+9999REMSYN066AAXX  05001 26422 42997 83301 10095 20039 30170 40202 53003 8805/;
0142264220999992000060503004+56970+024050FM-12+0007UMRR V0203401N002019999999N0100001N1+00911+00421102011ADDAA199000091GF108991081001999999041999MD1810011+9999REMSYN060AAXX  05031 26422 32997 83402 10091 20042 40201 58001 8804/;EQDQ01  00002PRCP99
0165264220999992000060506004+56970+024050FM-12+0007UMRR V0203301N003019999999N0100001N1+01171+00401102051ADDAA199000091GF105991031001999999031011KA1999N+00911MD1210041+9999REMSYN070AAXX  05061 26422 32997 53303 10117 20040 40205 52004 83031 333 20091;EQDQ01  00002PRCP99
0122264220999992000060509004+56970+024050FM-12+0007UMRR V0203301N004012200019N0100001N1+01451+00171102101ADDGA1001+999999999GF100991001001999999001001MD1210061+9999REMSYN054AAXX  05091 26422 42997 03304 10145 20017 40210 52006;
0143264220999992000060512004+56970+024050FM-12+0007UMRR V0203401N004012200019N0200001N1+01571+00111102081ADDGA1001+999999999GF100991001001999999001001MA1999999101771MD1810021+9999REMSYN060AAXX  05121 26422 42998 03404 10157 20011 30177 40208 58002;
0112264220999992000060515004+56970+024050FM-12+0007UMRR V0200201N004012200019N0200001N1+01611+00171102041ADDGF101991001001999999001011MD1710041+9999REMSYN060AAXX  05151 26422 42998 10204 10161 20017 40204 57004 80001;
0165264220999992000060518004+56970+024050FM-12+0007UMRR V0203501N003012200019N0200001N1+01331+00301101971ADDAA199000091GF102991001001999999001041KA1999M+01741MD1710071+9999REMSYN070AAXX  05181 26422 32998 23503 10133 20030 40197 57007 80004 333 10174;EQDQ01  00002PRCP99
0112264220999992000060521004+56970+024050FM-12+0007UMRR V0203401N003012200019N0100001N1+00921+00561102011ADDGF104991001001999999001011MD1310031+9999REMSYN060AAXX  05211 26422 42997 43403 10092 20056 40201 53003 80001;
0133264220999992000060600004+56970+024050FM-12+0007UMRR V0203401N003012200019N0100001N1+00721+00401101971ADDGF102991001001999999001011MA1999999101651MD1810041+9999REMSYN066AAXX  06001 26422 42997 23403 10072 20040 30165 40197 58004 80001;
0142264220999992000060603004+56970+024050FM-12+0007UMRR V0203401N002019999999N0100001N1+00671+00291101941ADDAA199000091GF106991001001999999001041MD1610031+9999REMSYN060AAXX  06031 26422 32997 63402 10067 20029 40194 56003 80004;EQDQ01  00002PRCP99
0165264220999992000060606004+56970+024050FM-12+0007UMRR V0201001N001019999999N0100001N1+01111+00501101901ADDAA199000091GF108991031001999999071091KA1999N+00661MD1810041+9999REMSYN070AAXX  06061 26422 32997 81001 10111 20050 40190 58004 83079 333 20066;EQDQ01  00002PRCP99
0112264220999992000060609004+56970+024050FM-12+0007UMRR V0200301N002019999999N0100001N1+01411+00591101791ADDGF106991021001999999031091MD1710101+9999REMSYN060AAXX  06091 26422 42997 60302 10141 20059 40179 57010 82039;
0133264220999992000060612004+56970+024050FM-12+0007UMRR V0200101N004019999999N0100001N1+01551+00701101651ADDGF106991021001999999031091MA1999999101341MD1710141+9999REMSYN066AAXX  06121 26422 42997 60104 10155 20070 30134 40165 57014 82039;
0112264220999992000060615004+56970+024050FM-12+0007UMRR V0200201N002010300019N0100001N1+01591+00731101481ADDGF107991021021012501031091MD1710171+9999REMSYN060AAXX  06151 26422 42697 70202 10159 20073 40148 57017 82239;
0165264220999992000060618004+56970+024050FM-12+0007UMRR V0200501N002010300019N0100001N1+01421+00861101341ADDAA199000091GF108991021041012501051999KA1999M+01731MD1710141+9999REMSYN070AAXX  06181 26422 32697 80502 10142 20086 40134 57014 8245/ 333 10173;EQDQ01  00002PRCP99
0112264220999992000060621004+56970+024050FM-12+0007UMRR V0201701N003019999999N0100001N1+01411+00891101231ADDGF108991081001999999041999MD1710111+9999REMSYN060AAXX  06211 26422 42997 81703 10141 20089 40123 57011 8804/;
0133264220999992000060700004+56970+024050FM-12+0007UMRR V0201601N004010300019N0100001N1+01311+00821101161ADDGF108991031051012501041999MA1999999100851MD1610071+9999REMSYN066AAXX  07001 26422 42697 81604 10131 20082 30085 40116 56007 8354/;
0152264220999992000060703004+56970+024050FM-12+0007UMRR V0201401N005010042019N0100001N1+01201+00861101001ADDAA199000091GF108991081051004501999999MD1710161+9999REMSYN070AAXX  07031 26422 32497 81405 10120 20086 40100 57016 885// 333 886//;EQDQ01  00002PRCP99
0187264220999992000060706004+56970+024050FM-12+0007UMRR V0201701N003010021019N0100001N1+01191+00971100941ADDAA199000091GA1061+002109069GF108991081051002501999999KA1120N+01121MD1710061+9999REMSYN076AAXX  07061 26422 32397 81703 10119 20097 40094 57006 885// 333 20112 86707;EQDQ01  00002PRCP99
0166264220999992000060709004+56970+024050FM-12+0007UMRR V0201901N003010015019N0100001N1+01231+01071100931ADDAY181031AY221031GA1071+001509029GF108991081021001501999999MD1610011+9999MW1251REMSYN076AAXX  07091 26422 41297 81903 10123 20107 40093 56001 72582 882// 333 87805;
0161264220999992000060712004+56970+024050FM-12+0007UMRR V0202301N003010300019N0100001N1+01411+00881100941ADDAY181061AY221061GF108991021021008001011999MA1999999100631MD1010011+9999MW1021REMSYN072AAXX  07121 26422 41597 82303 10141 20088 30063 40094 50001 70282 8221/;
0161264220999992000060715004+56970+024050FM-12+0007UMRR V0202101N005010129019N0100001N1+01641+00811100811ADDGA1051+012909069GF107991051051012501081001MD1710121+9999OA140101001REMSYN082AAXX  07151 26422 42697 72105 10164 20081 40081 57012 85580 333 85643 91010 91111;
0158264220999992000060718004+56970+024050FM-12+0007UMRR V0202201N003010300019N0100001N1+01411+00641100791ADDAA112000791GF105991031021012501081001KA1120M+01721MD1710031+9999REMSYN082AAXX  07181 26422 12697 52203 10141 20064 40079 57003 69902 83280 333 10172 91112;
0161264220999992000060721004+56970+024050FM-12+0007UMRR V0202101N004010150019N0100001N1+01211+00621100741ADDGA1061+015009089GF107991071091017501001001MD1710051+9999OA140101001REMSYN082AAXX  07211 26422 42797 72104 10121 20062 40074 57005 87900 333 86850 91010 91110;
0165264220999992000060800004+56970+024050FM-12+0007UMRR V0201901N004010066019N0100001N1+01081+00681100601ADDGA1051+006609099GF107991051091008001051001MA1999999100281MD1710151+9999REMSYN082AAXX  08001 26422 42597 71904 10108 20068 30028 40060 57015 85950 333 85922 91110;
0189264220999992000060803004+56970+024050FM-12+0007UMRR V0202201N006010039019N0100001N1+00991+00711100381ADDAY181031AY221031GA1061+003909099GF108991081091004501999999MD1710211+9999MW1801OA140101101REMSYN088AAXX  08031 26422 /1497 82206 10099 20071 40038 57021 78082 889// 333 86913 91011 91112;
0225264220999992000060806004+56970+024050FM-12+0007UMRR V0202601N005010033019N0100001N1+01051+00821100421ADDAA112000791AY181061AY221061GA1061+003309079GF108991081091004501999999KA1120N+00981MD1310041+9999MW1801OA140101001REMSYN100AAXX  08061 26422 11497 82605 10105 20082 40042 53004 69902 78082 889// 333 20098 86711 91010 91113;
0189264220999992000060809004+56970+024050FM-12+0007UMRR V0202801N005010081019N0100001N1+01161+00851100671ADDAY181031AY221031GA1081+008109099GF108991081091008001999999MD1210251+9999MW1021OA140101001REMSYN088AAXX  08091 26422 41597 82805 10116 20085 40067 52025 70282 889// 333 88927 91010 91111;
0210264220999992000060812004+56970+024050FM-12+0007UMRR V0203001N005010087019N0100001N1+01141+00851100881ADDAY181061AY221061GA1081+008709099GF108991081091008001999999MA1999999100571MD1210211+9999MW1021OA140101001REMSYN094AAXX  08121 26422 41597 83005 10114 20085 30057 40088 52021 70282 889// 333 88929 91010 91111;
0161264220999992000060815004+56970+024050FM-12+0007UMRR V0202801N007010042019N0100001N1+01141+00841101091ADDGA1061+004209099GF108991081091004501999999MD1210211+9999OA140101101REMSYN082AAXX  08151 26422 42497 82807 10114 20084 40109 52021 889// 333 86914 91011 91113;
0158264220999992000060818004+56970+024050FM-12+0007UMRR V0202901N005012200019N0100001N1+01241+00701101261ADDAA112000591GF102991021001999999071001KA1120M+01251MD1210171+9999REMSYN082AAXX  08181 26422 12997 22905 10124 20070 40126 52017 69942 82070 333 10125 91113;
0133264220999992000060900004+56970+024050FM-12+0007UMRR V0202601N003012200019N0100001N1+00861+00731101501ADDGF101991011001999999071001MA1999999101181MD1110051+9999REMSYN066AAXX  09001 26422 42997 12603 10086 20073 30118 40150 51005 81070;
0142264220999992000060903004+56970+024050FM-12+0007UMRR V0202901N005012200019N0100001N1+01151+00671101611ADDAA199000091GF101991011021012501001001MD1310121+9999REMSYN060AAXX  09031 26422 32697 12905 10115 20067 40161 53012 81200;EQDQ01  00002PRCP99
0175264220999992000060906004+56970+024050FM-12+0007UMRR V0203001N006012200019N0100001N1+01371+00781101771ADDAA199000091GA1001+999999999GF100991001001999999001001KA1999N+00851MD1210161+9999REMSYN064AAXX  09061 26422 32997 03006 10137 20078 40177 52016 333 20085;EQDQ01  00002PRCP99
0139264220999992000060909004+56970+024050FM-12+0007UMRR V0203201N006012200019N0100001N1+01771+00561101931ADDGF101991011021012501001001MD1210161+9999OA140101001REMSYN076AAXX  09091 26422 42697 13206 10177 20056 40193 52016 81200 333 91010 91111;
0160264220999992000060912004+56970+024050FM-12+0007UMRR V0203501N006012200019N0100001N1+01871+00481102071ADDGF101991011021012501001001MA1999999101761MD1210141+9999OA140101001REMSYN082AAXX  09121 26422 42697 13506 10187 20048 30176 40207 52014 81200 333 91010 91112;
0181264220999992000060915004+56970+024050FM-12+0007UMRR V0203501N005012200019N0100001N1+01371+00321102271ADDAA199000091GA1001+999999999GF100991001001999999001001KA1120M+01981MD1210091+9999REMSYN070AAXX  09151 26422 32997 03505 10137 20032 40227 52009 333 10198 91113;EQDQ01  00002PRCP99
0122264220999992000060921004+56970+024050FM-12+0007UMRR V0203301N002012200019N0100001N1+00961+00551102331ADDGA1001+999999999GF100991001001999999001001MD1310051+9999REMSYN054AAXX  09211 26422 42997 03302 10096 20055 40233 53005;
0143264220999992000061000004+56970+024050FM-12+0007UMRR V0202701N002012200019N0100001N1+00771+00581102381ADDGA1001+999999999GF100991001001999999001001MA1999999102061MD1310051+9999REMSYN060AAXX  10001 26422 42997 02702 10077 20058 30206 40238 53005;
0152264220999992000061003004+56970+024050FM-12+0007UMRR V0201901N002012200019N0100001N1+00611+00471102461ADDAA199000091GA1001+999999999GF100991001001999999001001MD1210071+9999REMSYN054AAXX  10031 26422 32997 01902 10061 20047 40246 52007;EQDQ01  00002PRCP99
0175264220999992000061006004+56970+024050FM-12+0007UMRR V0202101N002012200019N0100001N1+01371+00671102501ADDAA199000091GA1001+999999999GF100991001001999999001001KA1999N+00601MD1110061+9999REMSYN064AAXX  10061 26422 32997 02102 10137 20067 40250 51006 333 20060;EQDQ01  00002PRCP99
0122264220999992000061009004+56970+024050FM-12+0007UMRR V0200701N001012200019N0200001N1+02011+00611102501ADDGA1001+999999999GF100991001001999999001001MD1010001+9999REMSYN054AAXX  10091 26422 42998 00701 10201 20061 40250 50000;
0143264220999992000061012004+56970+024050FM-12+0007UMRR V0201901N003012200019N0200001N1+02281+00361102341ADDGA1001+999999999GF100991001001999999001001MA1999999102041MD1710151+9999REMSYN060AAXX  10121 26422 42998 01903 10228 20036 30204 40234 57015;
0112264220999992000061015004+56970+024050FM-12+0007UMRR V0201801N002012200019N0200001N1+02441+00391102261ADDGF101991001001999999001011MD1710081+9999REMSYN060AAXX  10151 26422 42998 11802 10244 20039 40226 57008 80001;
0165264220999992000061018004+56970+024050FM-12+0007UMRR V0201801N002012200019N0200001N1+02141+00471102181ADDAA199000091GF103991001001999999001011KA1999M+02481MD1710091+9999REMSYN070AAXX  10181 26422 32998 31802 10214 20047 40218 57009 80001 333 10248;EQDQ01  00002PRCP99
0112264220999992000061021004+56970+024050FM-12+0007UMRR V0201701N004012200019N0100001N1+01711+00661102141ADDGF102991001001999999001011MD1710041+9999REMSYN060AAXX  10211 26422 42997 21704 10171 20066 40214 57004 80001;
0143264220999992000061100004+56970+024050FM-12+0007UMRR V0201701N003012200019N0100001N1+01431+00551102071ADDGA1001+999999999GF100991001001999999001001MA1999999101761MD1710071+9999REMSYN060AAXX  11001 26422 42997 01703 10143 20055 30176 40207 57007;
0152264220999992000061103004+56970+024050FM-12+0007UMRR V0201701N004012200019N0200001N1+01421+00561102011ADDAA199000091GA1001+999999999GF100991001001999999001001MD1710061+9999REMSYN054AAXX  11031 26422 32998 01704 10142 20056 40201 57006;EQDQ01  00002PRCP99
0175264220999992000061106004+56970+024050FM-12+0007UMRR V0201801N004012200019N0200001N1+01891+00931101961ADDAA199000091GA1001+999999999GF100991001001999999001001KA1999N+01351MD1710051+9999REMSYN064AAXX  11061 26422 32998 01804 10189 20093 40196 57005 333 20135;EQDQ01  00002PRCP99
0139264220999992000061109004+56970+024050FM-12+0007UMRR V0201701N006012200019N0200001N1+02581+00991101761ADDGF102991001001999999001011MD1710191+9999OA140101101REMSYN076AAXX  11091 26422 42998 21706 10258 20099 40176 57019 80001 333 91011 91111;
0160264220999992000061112004+56970+024050FM-12+0007UMRR V0201901N007019999999N0200001N1+02781+00921101661ADDGF107991001001999999001091MA1999999101361MD1710101+9999OA140101301REMSYN082AAXX  11121 26422 42998 71907 10278 20092 30136 40166 57010 80009 333 91013 91114;
0139264220999992000061115004+56970+024050FM-12+0007UMRR V0201801N005019999999N0200001N1+02871+00951101491ADDGF108991031001999999041041MD1710171+9999OA140101301REMSYN076AAXX  11151 26422 42998 81805 10287 20095 40149 57017 83044 333 91013 91114;
0171264220999992000061118004+56970+024050FM-12+0007UMRR V0201801N005012200019N0100001N1+02651+01171101361ADDAA199000091GF103991001001999999001011KA1120M+02961MD1710131+9999REMSYN076AAXX  11181 26422 32997 31805 10265 20117 40136 57013 80001 333 10296 91113;EQDQ01  00002PRCP99
0140264220999992000061121004+56970+024050FM-12+0007UMRR V0201901N004012200019N0040001N1+02221+01111101321ADDAY101031AY201031GF102991001001999999001011MD1610041+9999MW1051REMSYN066AAXX  11211 26422 41996 21904 10222 20111 40132 56004 70500 80001;
0161264220999992000061200004+56970+024050FM-12+0007UMRR V0201701N004012200019N0040001N1+02021+01131101151ADDAY101061AY201061GF101991001001999999001011MA1999999100851MD1710171+9999MW1051REMSYN072AAXX  12001 26422 41996 11704 10202 20113 30085 40115 57017 70500 80001;
0142264220999992000061203004+56970+024050FM-12+0007UMRR V0202201N004019999999N0100001N1+01891+01141101081ADDAA199000091GF108991021001999999081041MD1510081+9999REMSYN060AAXX  12031 26422 32997 82204 10189 20114 40108 55008 82084;EQDQ01  00002PRCP99
0165264220999992000061206004+56970+024050FM-12+0007UMRR V0203001N002010750019N0100001N1+02081+01371101051ADDAA199000091GF108991031091008001001031KA1999N+01891MD1510021+9999REMSYN070AAXX  12061 26422 32597 83002 10208 20137 40105 55002 83903 333 20189;EQDQ01  00002PRCP99
0172264220999992000061209004+56970+024050FM-12+0007UMRR V0203101N002010150019N0100001N1+01301+01181101291ADDAY191031AY281031GA1081+015009099GF108991081091017501999999MD1210231+9999MW1291REMSYN082AAXX  12091 26422 41797 83102 10130 20118 40129 52023 72998 889// 333 88950 91110;
0187264220999992000061212004+56970+024050FM-12+0007UMRR V0202301N002010078019N0100001N1+01681+01221101441ADDAY191061AY281061GA1081+007809099GF108991081091008001999999MA1999999101131MD1210151+9999MW1031REMSYN082AAXX  12121 26422 41597 82302 10168 20122 30113 40144 52015 70398 889// 333 88926;
0161264220999992000061215004+56970+024050FM-12+0007UMRR V0202701N007010108019N0100001N1+01701+00521101491ADDGA1061+010809099GF108991081091017501999999MD1310051+9999OA140101201REMSYN082AAXX  12151 26422 42797 82707 10170 20052 40149 53005 889// 333 86936 91012 91113;
0158264220999992000061218004+56970+024050FM-12+0007UMRR V0202601N004019999999N0100001N1+01471+00661101641ADDAA112003091GF108991081001999999021999KA1120M+02091MD1210151+9999REMSYN082AAXX  12181 26422 12997 82604 10147 20066 40164 52015 60032 8802/ 333 10209 91112;
0112264220999992000061221004+56970+024050FM-12+0007UMRR V0202401N004019999999N0100001N1+01331+00861101691ADDGF108991081001999999021999MD1210051+9999REMSYN060AAXX  12211 26422 42997 82404 10133 20086 40169 52005 8802/;
0193264220999992000061300004+56970+024050FM-12+0007UMRR V0202401N00301030001CN0100001N1+01271+00951101801ADDAY181061AY221061GA1021+009009089GF105991021011008001031999MA1999999101491MD1210111+9999MW1011REMSYN088AAXX  13001 26422 41597 52403 10127 20095 30149 40180 52011 70182 8213/ 333 82830 91110;
0152264220999992000061303004+56970+024050FM-12+0007UMRR V0202401N003012200019N0100001N1+01051+00921101951ADDAA199000091GA1001+999999999GF100991001001999999001001MD1210141+9999REMSYN054AAXX  13031 26422 32997 02403 10105 20092 40195 52014;EQDQ01  00002PRCP99
0187264220999992000061306004+56970+024050FM-12+0007UMRR V0202701N004010054019N0100001N1+01451+01001102031ADDAA199000091GA1061+005409029GF106991061021004501001001KA1120N+01051MD1210091+9999REMSYN076AAXX  13061 26422 32497 62704 10145 20100 40203 52009 86200 333 20105 86818;EQDQ01  00002PRCP99
0138264220999992000061309004+56970+024050FM-12+0007UMRR V0202301N004010108019N0100001N1+01781+00941102131ADDGA1071+010809029GF107991071021012501001001MD1210101+9999REMSYN070AAXX  13091 26422 42697 72304 10178 20094 40213 52010 87200 333 87836;
0165264220999992000061312004+56970+024050FM-12+0007UMRR V0202201N004010096019N0100001N1+02071+01041102051ADDGA1061+009609089GF106991061021008001001001MA1999999101741MD1810081+9999REMSYN082AAXX  13121 26422 42597 62204 10207 20104 30174 40205 58008 86200 333 86832 91110;
0139264220999992000061315004+56970+024050FM-12+0007UMRR V0202201N006012200019N0100001N1+02161+01201101891ADDGF102991021011008001001001MD1710151+9999OA140101001REMSYN076AAXX  13151 26422 42597 22206 10216 20120 40189 57015 82100 333 91010 91110;
0181264220999992000061318004+56970+024050FM-12+0007UMRR V0202201N004012200019N0100001N1+01971+01281101781ADDAA199000091GA1001+999999999GF100991001001999999001001KA1120M+02251MD1710121+9999REMSYN070AAXX  13181 26422 32997 02204 10197 20128 40178 57012 333 10225 91112;EQDQ01  00002PRCP99
0112264220999992000061321004+56960+024500FM-12+0007UMRR V0201801N004012200019N0100001N1+01721+01291101641ADDGF101991001001999999001011MD1710141+9999REMSYN060AAXX  13211 26422 42997 11804 10172 20129 40164 57014 80001;
0143264220999992000061400004+56960+024500FM-12+0007UMRR V0202201N004012200019N0100001N1+01631+01321101561ADDGA1001+999999999GF100991001001999999001001MA1999999101251MD1710081+9999REMSYN060AAXX  14001 26422 42997 02204 10163 20132 30125 40156 57008;
0142264220999992000061403004+56960+024500FM-12+0007UMRR V0202501N002019999999N0100001N1+01521+01281101591ADDAA199000091GF105991001001999999001041MD1310031+9999REMSYN060AAXX  14031 26422 32997 52502 10152 20128 40159 53003 80004;EQDQ01  00002PRCP99
0180264220999992000061406004+56960+024500FM-12+0007UMRR V0202601N004010300019N0100001N1+01481+00861101691ADDAA112000791AY181061AY211061GF108991031091008001071999KA1999N+01481MD1210101+9999MW1251REMSYN082AAXX  14061 26422 11597 82604 10148 20086 40169 52010 69902 72581 8397/ 333 20148;
0112264220999992000061409004+56960+024500FM-12+0007UMRR V0202501N003012200019N0100001N1+01791+00841101671ADDGF103991021001999999071091MD1810021+9999REMSYN060AAXX  14091 26422 42997 32503 10179 20084 40167 58002 82079;
0160264220999992000061412004+56960+024500FM-12+0007UMRR V0202401N005010750019N0100001N1+02071+00481101611ADDGF105991021021012501071011MA1999999101301MD1810061+9999OA140101001REMSYN082AAXX  14121 26422 42697 52405 10207 20048 30130 40161 58006 82271 333 91010 91111;
0122264220999992000061415004+56960+024500FM-12+0007UMRR V0202701N005019999999N0100001N1+01981-00011101551ADDGF108991081001999999051999MD1810061+9999REMSYN070AAXX  14151 26422 42997 82705 10198 21001 40155 58006 8805/ 333 91110;
0146264220999992000061418004+56960+024500FM-12+0007UMRR V0202701N004010300019N0100001N1+01631+00191101441ADDAA199000021GF108991021021012501021999KA1999M+02091MD1710111+9999REMSYN070AAXX  14181 26422 32697 82704 10163 20019 40144 57011 8222/ 333 10209;
0112264220999992000061421004+56960+024500FM-12+0007UMRR V0202101N002019999999N0100001N1+01361+00561101311ADDGF108991081001999999051999MD1710131+9999REMSYN060AAXX  14211 26422 42997 82102 10136 20056 40131 57013 8805/;
0133264220999992000061500004+56960+024500FM-12+0007UMRR V0202401N002012200019N0100001N1+01161+00881101191ADDGF102991021001999999051001MA1999999100881MD1710121+9999REMSYN066AAXX  15001 26422 42997 22402 10116 20088 30088 40119 57012 82050;
0152264220999992000061503004+56960+024500FM-12+0007UMRR V0202601N004012200019N0100001N1+01091+00741101091ADDAA199000091GA1001+999999999GF100991001001999999001001MD1710111+9999REMSYN054AAXX  15031 26422 32997 02604 10109 20074 40109 57011;EQDQ01  00002PRCP99
0165264220999992000061506004+56960+024500FM-12+0007UMRR V0202401N002012200019N0100001N1+01391+00551101101ADDAA199000091GF101991011021012501001001KA1999N+01071MD1310021+9999REMSYN070AAXX  15061 26422 32697 12402 10139 20055 40110 53002 81200 333 20107;EQDQ01  00002PRCP99
0139264220999992000061509004+56960+024500FM-12+0007UMRR V0202901N005012200019N0100001N1+01661+00411101061ADDGF106991021021012501001041MD1710041+9999OA140101001REMSYN076AAXX  15091 26422 42697 62905 10166 20041 40106 57004 82204 333 91010 91110;
0165264220999992000061512004+56960+024500FM-12+0007UMRR V0202801N004010105019N0100001N1+01891+00381101001ADDGA1051+010509089GF105991051021012501001001MA1999999100701MD1710051+9999REMSYN082AAXX  15121 26422 42697 52804 10189 20038 30070 40100 57005 85200 333 85835 91110;
0138264220999992000061515004+56960+024500FM-12+0007UMRR V0203001N004010096019N0100001N1+01951+00361100861ADDGA1051+009609029GF105991051021008001001001MD1710141+9999REMSYN070AAXX  15151 26422 42597 53004 10195 20036 40086 57014 85200 333 85832;
0165264220999992000061518004+56960+024500FM-12+0007UMRR V0203501N002012200019N0100001N1+01481+00841100821ADDAA199000091GF102991011021012501031001KA1999M+02011MD1710051+9999REMSYN070AAXX  15181 26422 32697 23502 10148 20084 40082 57005 81230 333 10201;EQDQ01  00002PRCP99
0112264220999992000061521004+56960+024500FM-12+0007UMRR V0202401N002012200019N0100001N1+01061+00851100831ADDGF101991011001999999031001MD1510001+9999REMSYN060AAXX  15211 26422 42997 12402 10106 20085 40083 55000 81030;
0133264220999992000061600004+56960+024500FM-12+0007UMRR V0202201N002012200019N0100001N1+00801+00431100761ADDGF102991021001999999031001MA1999999100441MD1810071+9999REMSYN066AAXX  16001 26422 42997 22202 10080 20043 30044 40076 58007 82030;
0166264220999992000061603004+56960+024500FM-12+0007UMRR V0202201N002010096019N0100001N1+00711+00611100691ADDAY181031AY211031GA1051+009609099GF108991051091008001041999MD1710071+9999MW1801REMSYN076AAXX  16031 26422 /1597 82202 10071 20061 40069 57007 78081 8594/ 333 85932;
0202264220999992000061606004+56960+024500FM-12+0007UMRR V0203001N002010138019N0100001N1+01121+00891100691ADDAA112000191AY181061AY211061GA1081+013809059GF108991081051012501999999KA1120N+00671MD1310011+9999MW1031REMSYN088AAXX  16061 26422 11697 83002 10112 20089 40069 53001 69912 70381 885// 333 20067 88646;
0138264220999992000061609004+56960+024500FM-12+0007UMRR V0203301N004012200019N0100001N1+01351+00711100741ADDGA1021+006909029GF107991041091008001001011MD1210051+9999REMSYN070AAXX  16091 26422 42597 73304 10135 20071 40074 52005 84901 333 82823;
0133264220999992000061612004+56960+024500FM-12+0007UMRR V0203401N005010300019N0100001N1+01491+00591100891ADDGF108991021021012501071011MA1999999100581MD1210151+9999REMSYN066AAXX  16121 26422 42697 83405 10149 20059 30058 40089 52015 82271;
0139264220999992000061615004+56960+024500FM-12+0007UMRR V0203601N007012200019N0100001N1+01471+00641100991ADDGF102991021021008001001011MD1210101+9999OA140101201REMSYN076AAXX  16151 26422 42597 23607 10147 20064 40099 52010 82201 333 91012 91113;
0188264220999992000061618004+56960+024500FM-12+0007UMRR V0203001N006012200019N0100001N1+01231+00681101081ADDAA199000091GF102991021021012501001001KA1120M+01581MD1210091+9999OA140101001REMSYN082AAXX  16181 26422 32697 23006 10123 20068 40108 52009 82200 333 10158 91010 91113;EQDQ01  00002PRCP99
0139264220999992000061621004+56960+024500FM-12+0007UMRR V0203101N006012200019N0100001N1+01021+00641101201ADDGF102991021021012501001001MD1210111+9999OA140101001REMSYN076AAXX  16211 26422 42697 23106 10102 20064 40120 52011 82200 333 91010 91111;
0182264220999992000061700004+56960+024500FM-12+0007UMRR V0203401N006010072019N0100001N1+01011+00551101271ADDGA1081+007209099GF108991081091008001999999MA1999999100951MD1210071+9999OA140101001REMSYN088AAXX  17001 26422 42597 83406 10101 20055 30095 40127 52007 889// 333 88924 91010 91111;
0174264220999992000061703004+56960+024500FM-12+0007UMRR V0203301N00501012001CN0100001N1+01031+00711101341ADDAA199000091GA1041+012909089GF108991081091012501999999MD1210071+9999REMSYN076AAXX  17031 26422 32697 83305 10103 20071 40134 52007 889// 333 84843 91110;EQDQ01  00002PRCP99
0208264220999992000061706004+56960+024500FM-12+0007UMRR V0203401N00301007501CN0100001N1+01131+00801101511ADDAA112000591AY181061AY221061GA1031+009309099GF107991061091008001071001KA1120N+00901MD1210181+9999MW1021REMSYN094AAXX  17061 26422 11597 73403 10113 20080 40151 52018 69942 70282 86970 333 20090 83931 91110;
0161264220999992000061709004+56960+024500FM-12+0007UMRR V0203601N008010090019N0100001N1+01301+00491101771ADDGA1061+009009089GF106991061021008001001001MD1210261+9999OA140101201REMSYN082AAXX  17091 26422 42597 63608 10130 20049 40177 52026 86200 333 86830 91012 91114;
0160264220999992000061712004+56960+024500FM-12+0007UMRR V0203301N007012200019N0100001N1+01461+00311101921ADDGF102991021001999999031001MA1999999101611MD1210151+9999OA140101201REMSYN082AAXX  17121 26422 42997 23307 10146 20031 30161 40192 52015 82030 333 91012 91114;
0161264220999992000061715004+56960+024500FM-12+0007UMRR V0203501N005012200019N0100001N1+01351+00581101991ADDGA1021+009909089GF104991021021008001031001MD1210071+9999OA140101101REMSYN082AAXX  17151 26422 42597 43505 10135 20058 40199 52007 82230 333 82833 91011 91112;
0210264220999992000061718004+56960+024500FM-12+0007UMRR V0203401N006010180019N0100001N1+01081+00391102061ADDAA199000091GA1051+018009099GF106991051091017501071999KA1120M+01511MD1210061+9999OA140101001REMSYN088AAXX  17181 26422 32797 63406 10108 20039 40206 52006 8597/ 333 10151 85956 91010 91114;EQDQ01  00002PRCP99
0144264220999992000061721004+56960+024500FM-12+0007UMRR V0203301N005010150019N0100001N1+00991+00411102131ADDGA1061+015009099GF106991061091017501999999MD1210071+9999REMSYN076AAXX  17211 26422 42797 63305 10099 20041 40213 52007 869// 333 86950 91112;
0193264220999992000061800004+56960+024500FM-12+0007UMRR V0200201N003010072019N0100001N1+00861+00411102211ADDAY181061AY221061GA1061+007209099GF107991071091008001999999MA1999999101891MD1210081+9999MW1811REMSYN088AAXX  18001 26422 41597 70203 10086 20041 30189 40221 52008 78182 879// 333 86924 91112;
0166264220999992000061803004+56960+024500FM-12+0007UMRR V0203201N001010105019N0100001N1+00641+00471102311ADDAY191031AY281031GA1061+010509099GF106991061091012501999999MD1210091+9999MW1021REMSYN076AAXX  18031 26422 /1697 63201 10064 20047 40231 52009 70298 869// 333 86935;
0202264220999992000061806004+56960+024500FM-12+0007UMRR V0200101N005010084019N0100001N1+01121+00441102451ADDAA112002091AY191061AY281061GA1061+008409099GF106991061091008001999999KA1120N+00611MD1210151+9999MW1021REMSYN088AAXX  18061 26422 11597 60105 10112 20044 40245 52015 60022 70298 869// 333 20061 86928;
0139264220999992000061809004+56960+024500FM-12+0007UMRR V0203501N006012200019N0200001N1+01311+00591102601ADDGF103991031021008001001001MD1210151+9999OA140101101REMSYN076AAXX  18091 26422 42598 33506 10131 20059 40260 52015 83200 333 91011 91111;
0143264220999992000061812004+56960+024500FM-12+0007UMRR V0203301N004012200019N0200001N1+01471+00211102651ADDGF102991021021012501001011MA1999999102331MD1110051+9999REMSYN076AAXX  18121 26422 42698 23304 10147 20021 30233 40265 51005 82201 333 91111;
0112264220999992000061815004+56960+024500FM-12+0007UMRR V0200301N004012200019N0200001N1+01511+00271102661ADDGF103991011021012501001011MD1110011+9999REMSYN060AAXX  18151 26422 42698 30304 10151 20027 40266 51001 81201;
0165264220999992000061818004+56960+024500FM-12+0007UMRR V0203501N003012200019N0200001N1+01361+00431102691ADDAA199000091GF104991011021012501001041KA1999M+01551MD1310031+9999REMSYN070AAXX  18181 26422 32698 43503 10136 20043 40269 53003 81204 333 10155;EQDQ01  00002PRCP99
0112264220999992000061821004+56960+024500FM-12+0007UMRR V0202601N002012200019N0100001N1+00871+00531102761ADDGF102991021001999999041001MD1210071+9999REMSYN060AAXX  18211 26422 42997 22602 10087 20053 40276 52007 82040;
0133264220999992000061900004+56960+024500FM-12+0007UMRR V0201901N002019999999N0100001N1+00791+00551102711ADDGF105991001001999999001091MA1999999102391MD1810051+9999REMSYN066AAXX  19001 26422 42997 51902 10079 20055 30239 40271 58005 80009;
0142264220999992000061903004+56960+024500FM-12+0007UMRR V0201901N002010300019N0100001N1+00811+00511102721ADDAA199000091GF108991021061004501021999MD1310011+9999REMSYN060AAXX  19031 26422 32497 81902 10081 20051 40272 53001 8262/;EQDQ01  00002PRCP99
0165264220999992000061906004+56960+024500FM-12+0007UMRR V0201801N003010300019N0100001N1+01001+00301102691ADDAA199000091GF108991021051008001051999KA1999N+00761MD1810031+9999REMSYN070AAXX  19061 26422 32597 81803 10100 20030 40269 58003 8255/ 333 20076;EQDQ01  00002PRCP99
0112264220999992000061909004+56960+024500FM-12+0007UMRR V0202001N002010300019N0100001N1+01461+00481102621ADDGF108991021051008001051999MD1810071+9999REMSYN060AAXX  19091 26422 42597 82002 10146 20048 40262 58007 8255/;
0133264220999992000061912004+56960+024500FM-12+0007UMRR V0201801N003019999999N0100001N1+01771+00021102451ADDGF108991081001999999051999MA1999999102141MD1710161+9999REMSYN066AAXX  19121 26422 42997 81803 10177 20002 30214 40245 57016 8805/;
0112264220999992000061915004+56960+024500FM-12+0007UMRR V0201801N002019999999N0100001N1+01871+00551102341ADDGF107991071001999999051001MD1710131+9999REMSYN060AAXX  19151 26422 42997 71802 10187 20055 40234 57013 87050;
0165264220999992000061918004+56960+024500FM-12+0007UMRR V0201601N003019999999N0100001N1+01771+00771102211ADDAA199000091GF107991071001999999051001KA1999M+02011MD1710111+9999REMSYN070AAXX  19181 26422 32997 71603 10177 20077 40221 57011 87050 333 10201;EQDQ01  00002PRCP99
0122264220999992000061921004+56960+024500FM-12+0007UMRR V0201601N003012200019N0100001N1+01391+00811102111ADDGA1001+999999999GF100991001001999999001001MD1710101+9999REMSYN054AAXX  19211 26422 42997 01603 10139 20081 40211 57010;
0143264220999992000062000004+56960+024500FM-12+0007UMRR V0201801N003012200019N0100001N1+01081+00701101991ADDGA1001+999999999GF100991001001999999001001MA1999999101671MD1710131+9999REMSYN060AAXX  20001 26422 42997 01803 10108 20070 30167 40199 57013;
0142264220999992000062003004+56960+024500FM-12+0007UMRR V0201701N003012200019N0100001N1+01081+00801101871ADDAA199000091GF103991021001999999031091MD1710121+9999REMSYN060AAXX  20031 26422 32997 31703 10108 20080 40187 57012 82039;EQDQ01  00002PRCP99
0165264220999992000062006004+56960+024500FM-12+0007UMRR V0201801N003010300019N0100001N1+01571+00981101651ADDAA199000091GF106991021021012501051011KA1999N+01031MD1710211+9999REMSYN070AAXX  20061 26422 32697 61803 10157 20098 40165 57021 82251 333 20103;EQDQ01  00002PRCP99
0112264220999992000062009004+56960+024500FM-12+0007UMRR V0201901N003010300019N0100001N1+02221+01361101531ADDGF108991021021012501051091MD1710111+9999REMSYN060AAXX  20091 26422 42697 81903 10222 20136 40153 57011 82259;
0133264220999992000062012004+56960+024500FM-12+0007UMRR V0202001N003019999999N0100001N1+02361+01361101311ADDGF108991081001000251051999MA1999999101011MD1710221+9999REMSYN066AAXX  20121 26422 42097 82003 10236 20136 30101 40131 57022 8805/;
0166264220999992000062015004+56960+024500FM-12+0007UMRR V0201801N001010300019N0100001N1+02501+01281101161ADDAY191031AY281031GA1031+010509099GF108991031091012501041011MD1710151+9999MW1951REMSYN076AAXX  20151 26422 41697 81801 10250 20128 40116 57015 79598 83941 333 83935;
0180264220999992000062018004+56960+024500FM-12+0007UMRR V0201401N001010300019N0100001N1+02421+01591101101ADDAA112000791AY191061AY281061GF108991011011012501041011KA1999M+02571MD1610061+9999MW1021REMSYN082AAXX  20181 26422 11697 81401 10242 20159 40110 56006 69902 70298 81141 333 10257;
0112264220999992000062021004+56960+024500FM-12+0007UMRR V0201801N002012200019N0100001N1+01931+01601101141ADDGF103991001001999999001041MD1310031+9999REMSYN060AAXX  20211 26422 42997 31802 10193 20160 40114 53003 80004;
0143264220999992000062100004+56960+024500FM-12+0007UMRR V0203001N001012200019N0100001N1+01511+01411101261ADDGA1001+999999999GF100991001001999999001001MA1999999100951MD1210121+9999REMSYN060AAXX  21001 26422 42997 03001 10151 20141 30095 40126 52012;
0150264220999992000062103004+56960+024500FM-12+0007UMRR V0201201N001012200019N0040001N1+01421+01361101331ADDAY101031AY201031GA1001+999999999GF100991001001999999001001MD1110061+9999MW1101REMSYN060AAXX  21031 26422 /1996 01201 10142 20136 40133 51006 71000;
0175264220999992000062106004+56960+024500FM-12+0007UMRR V0203201N002012200019N0100001N1+01911+01621101411ADDAA199000091GA1001+999999999GF100991001001999999001001KA1999N+01391MD1210091+9999REMSYN064AAXX  21061 26422 32997 03202 10191 20162 40141 52009 333 20139;EQDQ01  00002PRCP99
0122264220999992000062109004+56960+024500FM-12+0007UMRR V0203301N002012200019N0200001N1+02151+01431101481ADDGA1001+999999999GF100991001001999999001001MD1210081+9999REMSYN054AAXX  21091 26422 42998 03302 10215 20143 40148 52008;
0133264220999992000062112004+56960+024500FM-12+0007UMRR V0203601N003012200019N0200001N1+02161+01111101471ADDGF102991011021012501001011MA1999999101171MD1510011+9999REMSYN066AAXX  21121 26422 42698 23603 10216 20111 30117 40147 55001 81201;
0112264220999992000062115004+56960+024500FM-12+0007UMRR V0203601N004012200019N0200001N1+02281+01071101411ADDGF103991001001999999001011MD1810061+9999REMSYN060AAXX  21151 26422 42998 33604 10228 20107 40141 58006 80001;
0165264220999992000062118004+56960+024500FM-12+0007UMRR V0203601N003012200019N0200001N1+01931+01151101371ADDAA199000091GF103991001001999999001011KA1999M+02311MD1510051+9999REMSYN070AAXX  21181 26422 32998 33603 10193 20115 40137 55005 80001 333 10231;EQDQ01  00002PRCP99
0112264220999992000062121004+56960+024500FM-12+0007UMRR V0203301N002012200019N0100001N1+01551+01201101391ADDGF102991001001999999001091MD1310021+9999REMSYN060AAXX  21211 26422 42997 23302 10155 20120 40139 53002 80009;
0133264220999992000062200004+56960+024500FM-12+0007UMRR V0203301N002012200019N0100001N1+01441+01271101341ADDGF102991001001999999001011MA1999999101031MD1810051+9999REMSYN066AAXX  22001 26422 42997 23302 10144 20127 30103 40134 58005 80001;
0142264220999992000062203004+56960+024500FM-12+0007UMRR V0201101N001012200019N0100001N1+01411+01281101361ADDAA199000091GF101991001001999999001011MD1310021+9999REMSYN060AAXX  22031 26422 32997 11101 10141 20128 40136 53002 80001;EQDQ01  00002PRCP99
0175264220999992000062206004+56960+024500FM-12+0007UMRR V0209999V001012200019N0100001N1+02071+01511101401ADDAA199000091GA1001+999999999GF100991001001999999001001KA1999N+01351MD1110051+9999REMSYN064AAXX  22061 26422 32997 09901 10207 20151 40140 51005 333 20135;EQDQ01  00002PRCP99
0122264220999992000062209004+56960+024500FM-12+0007UMRR V0201701N001012200019N0100001N1+02681+01431101351ADDGA1001+999999999GF100991001001999999001001MD1710051+9999REMSYN054AAXX  22091 26422 42997 01701 10268 20143 40135 57005;
0143264220999992000062212004+56960+024500FM-12+0007UMRR V0201401N002012200019N0100001N1+02941+01241101301ADDGA1001+999999999GF100991001001999999001001MA1999999101001MD1710051+9999REMSYN060AAXX  22121 26422 42997 01402 10294 20124 30100 40130 57005;
0122264220999992000062215004+56960+024500FM-12+0007UMRR V0200401N004012200019N0100001N1+02951+01561101211ADDGA1001+999999999GF100991001001999999001001MD1710091+9999REMSYN054AAXX  22151 26422 42997 00404 10295 20156 40121 57009;
0165264220999992000062218004+56960+024500FM-12+0007UMRR V0201901N002019999999N0100001N1+02741+01421101181ADDAA199000091GF108991001001999999001011KA1999M+03051MD1610031+9999REMSYN070AAXX  22181 26422 32997 81902 10274 20142 40118 56003 80001 333 10305;EQDQ01  00002PRCP99
0112264220999992000062221004+56960+024500FM-12+0007UMRR V0201701N003019999999N0100001N1+02281+01331101201ADDGF107991001001999999001011MD1310021+9999REMSYN060AAXX  22211 26422 42997 71703 10228 20133 40120 53002 80001;
0133264220999992000062300004+56960+024500FM-12+0007UMRR V0201901N003019999999N0100001N1+02041+01321101201ADDGF107991021001999999071011MA1999999100891MD1810011+9999REMSYN066AAXX  23001 26422 42997 71903 10204 20132 30089 40120 58001 82071;
0142264220999992000062303004+56960+024500FM-12+0007UMRR V0202701N003019999999N0100001N1+02011+01401101261ADDAA199000091GF108991061001999999071011MD1310061+9999REMSYN060AAXX  23031 26422 32997 82703 10201 20140 40126 53006 86071;EQDQ01  00002PRCP99
0165264220999992000062306004+56960+024500FM-12+0007UMRR V0203301N005019999999N0100001N1+01921+01341101451ADDAA199000091GF108991061001999999071011KA1999N+01821MD1210191+9999REMSYN070AAXX  23061 26422 32997 83305 10192 20134 40145 52019 86071 333 20182;EQDQ01  00002PRCP99
0112264220999992000062309004+56960+024500FM-12+0007UMRR V0203601N004012200019N0100001N1+02151+01241101501ADDGF104991041001999999071011MD1210061+9999REMSYN060AAXX  23091 26422 42997 43604 10215 20124 40150 52006 84071;
0133264220999992000062312004+56960+024500FM-12+0007UMRR V0203601N003012200019N0100001N1+02281+01191101521ADDGF103991031001999999071001MA1999999101221MD1010021+9999REMSYN066AAXX  23121 26422 42997 33603 10228 20119 30122 40152 50002 83070;
0112264220999992000062315004+56960+024500FM-12+0007UMRR V0203601N004019999999N0100001N1+02191+00781101481ADDGF106991061001999999071001MD1810041+9999REMSYN060AAXX  23151 26422 42997 63604 10219 20078 40148 58004 86070;
0165264220999992000062318004+56960+024500FM-12+0007UMRR V0203501N002019999999N0100001N1+01891+01221101421ADDAA199000091GF108991081001999999051999KA1999M+02421MD1710071+9999REMSYN070AAXX  23181 26422 32997 83502 10189 20122 40142 57007 8805/ 333 10242;EQDQ01  00002PRCP99
0112264220999992000062321004+56960+024500FM-12+0007UMRR V0203501N002019999999N0100001N1+01741+01221101391ADDGF108991081001999999051999MD1710031+9999REMSYN060AAXX  23211 26422 42997 83502 10174 20122 40139 57003 8805/;
0133264220999992000062400004+56960+024500FM-12+0007UMRR V0200201N002019999999N0100001N1+01671+01321101321ADDGF108991081001999999051999MA1999999101011MD1710071+9999REMSYN066AAXX  24001 26422 42997 80202 10167 20132 30101 40132 57007 8805/;
0142264220999992000062403004+56960+024500FM-12+0007UMRR V0203401N003019999999N0100001N1+01511+01321101261ADDAA199000091GF108991081001999999051001MD1710061+9999REMSYN060AAXX  24031 26422 32997 83403 10151 20132 40126 57006 88050;EQDQ01  00002PRCP99
0187264220999992000062406004+56960+024500FM-12+0007UMRR V0203401N004010030019N0100001N1+01681+01371101351ADDAA199000091GA1061+003009029GF106991061021004501999011KA1120N+01511MD1210091+9999REMSYN076AAXX  24061 26422 32497 63404 10168 20137 40135 52009 862/1 333 20151 86810;EQDQ01  00002PRCP99
0138264220999992000062409004+56960+024500FM-12+0007UMRR V0200201N003010063019N0100001N1+01931+01341101331ADDGA1051+006309029GF106991051021008001001011MD1810021+9999REMSYN070AAXX  24091 26422 42597 60203 10193 20134 40133 58002 85201 333 85821;
0133264220999992000062412004+56960+024500FM-12+0007UMRR V0200501N003012200019N0100001N1+02261+01191101261ADDGF103991011021012501001011MA1999999100961MD1710061+9999REMSYN066AAXX  24121 26422 42697 30503 10226 20119 30096 40126 57006 81201;
0112264220999992000062415004+56960+024500FM-12+0007UMRR V0200401N003019999999N0100001N1+02321+01091101181ADDGF106991021001999999031011MD1710081+9999REMSYN060AAXX  24151 26422 42997 60403 10232 20109 40118 57008 82031;
0165264220999992000062418004+56960+024500FM-12+0007UMRR V0200301N003019999999N0100001N1+01991+01171101141ADDAA199000091GF108991021001999999041091KA1999M+02391MD1710051+9999REMSYN070AAXX  24181 26422 32997 80303 10199 20117 40114 57005 82049 333 10239;EQDQ01  00002PRCP99
0112264220999992000062421004+56960+024500FM-12+0007UMRR V0200301N002012200019N0100001N1+01621+01361101111ADDGF102991001001999999001041MD1610031+9999REMSYN060AAXX  24211 26422 42997 20302 10162 20136 40111 56003 80004;
0133264220999992000062500004+56960+024500FM-12+0007UMRR V0201101N002019999999N0100001N1+01711+01461101011ADDGF106991001001999999001011MA1999999100711MD1810091+9999REMSYN066AAXX  25001 26422 42997 61102 10171 20146 30071 40101 58009 80001;
0142264220999992000062503004+56960+024500FM-12+0007UMRR V0201201N003019999999N0100001N1+01671+01301100961ADDAA199000091GF108991051001999999071021MD1710051+9999REMSYN060AAXX  25031 26422 32997 81203 10167 20130 40096 57005 85072;EQDQ01  00002PRCP99
0165264220999992000062506004+56960+024500FM-12+0007UMRR V0201301N003019999999N0100001N1+01791+01281100871ADDAA199000091GF108991081001999999071999KA1999N+01601MD1710091+9999REMSYN070AAXX  25061 26422 32997 81303 10179 20128 40087 57009 8807/ 333 20160;EQDQ01  00002PRCP99
0112264220999992000062509004+56960+024500FM-12+0007UMRR V0203401N004010300019N0100001N1+02011+01361100841ADDGF106991021021008001071001MD1610031+9999REMSYN060AAXX  25091 26422 42597 63404 10201 20136 40084 56003 82270;
0187264220999992000062512004+56960+024500FM-12+0007UMRR V0203001N001010042019N0100001N1+01821+01621100831ADDAY181061AY221061GA1081+004209099GF108991081091004501999999MA1999999100531MD1510011+9999MW1811REMSYN082AAXX  25121 26422 41497 83001 10182 20162 30053 40083 55001 78182 889// 333 88914;
0140264220999992000062515004+56960+024500FM-12+0007UMRR V0203201N001010300019N0100001N1+01761+01591100771ADDAY181031AY221031GF108991031091008001091999MD1810061+9999MW1801REMSYN066AAXX  25151 26422 41597 83201 10176 20159 40077 58006 78082 8399/;
0202264220999992000062518004+56960+024500FM-12+0007UMRR V0202801N002010021019N0100001N1+01651+01591100731ADDAA112006191AY181061AY221061GA1051+002109069GF108991081091002501999999KA1120M+02061MD1810041+9999MW1021REMSYN088AAXX  25181 26422 11397 82802 10165 20159 40073 58004 60062 70282 889// 333 10206 85707;
0166264220999992000062521004+56960+024500FM-12+0007UMRR V0202601N002010021019N0100001N1+01571+01551100731ADDAY181031AY221031GA1051+002109069GF108991081091002501999999MD1410001+9999MW1251REMSYN076AAXX  25211 26422 41397 82602 10157 20155 40073 54000 72582 889// 333 85707;
0187264220999992000062600004+56960+024500FM-12+0007UMRR V0202701N002010039019N0100001N1+01421+01401100701ADDAY181061AY221061GA1051+003909099GF108991081091004501999999MA1999999100391MD1810041+9999MW1801REMSYN082AAXX  26001 26422 41497 82702 10142 20140 30039 40070 58004 78082 889// 333 85913;
0166264220999992000062603004+56960+024500FM-12+0007UMRR V0202601N002010072019N0100001N1+01401+01291100671ADDAY181031AY221031GA1081+007209059GF108991081041008001999999MD1810031+9999MW1021REMSYN076AAXX  26031 26422 /1597 82602 10140 20129 40067 58003 70282 884// 333 88624;
0180264220999992000062606004+56960+024500FM-12+0007UMRR V0202501N003012200019N0100001N1+01471+01231100671ADDAA112002091AY181061AY221061GF106991031021008001001011KA1999N+01391MD1410001+9999MW1011REMSYN082AAXX  26061 26422 11597 62503 10147 20123 40067 54000 60022 70182 83201 333 20139;
0138264220999992000062609004+56960+024500FM-12+0007UMRR V0202801N003010084019N0100001N1+01791+01191100671ADDGA1051+008409029GF105991051021008001001001MD1310011+9999REMSYN070AAXX  26091 26422 42597 52803 10179 20119 40067 53001 85200 333 85828;
0159264220999992000062612004+56960+024500FM-12+0007UMRR V0202001N00201012001CN0100001N1+01901+01131100661ADDGA1041+010809099GF108991051091012501041999MA1999999100361MD1810011+9999REMSYN076AAXX  26121 26422 42697 82002 10190 20113 30036 40066 58001 8594/ 333 84936;
0140264220999992000062615004+56960+024500FM-12+0007UMRR V0209999C000010300019N0100001N1+01681+01361100661ADDAY181031AY221031GF108991021091012501021999MD1010001+9999MW1251REMSYN066AAXX  26151 26422 41697 80000 10168 20136 40066 50000 72582 8292/;
0202264220999992000062618004+56960+024500FM-12+0007UMRR V0201801N002010300019N0040001N1+01431+01231100701ADDAA112007991AY181061AY221061GA1041+011709099GF108991041091012501021999KA1120M+01921MD1310031+9999MW1811REMSYN088AAXX  26181 26422 11696 81802 10143 20123 40070 53003 60082 78182 8492/ 333 10192 84939;
0140264220999992000062621004+56960+024500FM-12+0007UMRR V0202001N003019999999N0040001N1+01301+01231100711ADDAY181031AY221031GF105991031001999999031091MD1110011+9999MW1101REMSYN066AAXX  26211 26422 41996 52003 10130 20123 40071 51001 71082 83039;
0161264220999992000062700004+56960+024500FM-12+0007UMRR V0201901N003019999999N0040001N1+01191+01131100701ADDAY181061AY221061GF107991071001999999031001MA1999999100391MD1810011+9999MW1101REMSYN072AAXX  27001 26422 41996 71903 10119 20113 30039 40070 58001 71082 87030;
0140264220999992000062703004+56960+024500FM-12+0007UMRR V0201701N003010300019N0040001N1+01171+01111100651ADDAY121031AY221031GF107991031061004501081001MD1610051+9999MW1101REMSYN066AAXX  27031 26422 /1496 71703 10117 20111 40065 56005 71022 83680;
0174264220999992000062706004+56960+024500FM-12+0007UMRR V0202201N004010051019N0100001N1+01381+01181100651ADDAA112000191GA1081+005109059GF108991081051004501999999KA1120N+01151MD1510001+9999REMSYN082AAXX  27061 26422 12497 82204 10138 20118 40065 55000 69912 885// 333 20115 88617;
0166264220999992000062709004+56960+024500FM-12+0007UMRR V0201801N00401007501CN0100001N1+01511+01181100671ADDAY181031AY221031GA1041+006009099GF107991071091008001001001MD1110021+9999MW1251REMSYN076AAXX  27091 26422 41597 71804 10151 20118 40067 51002 72582 87900 333 84920;
0193264220999992000062712004+56960+024500FM-12+0007UMRR V0202001N00501007501CN0100001N1+01761+00971100671ADDAY181061AY221061GA1041+009309089GF107991061091008001071011MA1999999100371MD1010011+9999MW1021REMSYN088AAXX  27121 26422 41597 72005 10176 20097 30037 40067 50001 70282 86971 333 84831 91110;
0144264220999992000062715004+56960+024500FM-12+0007UMRR V0202001N005010132019N0100001N1+01761+01001100701ADDGA1061+013209089GF107991061021012501071001MD1310031+9999REMSYN076AAXX  27151 26422 42697 72005 10176 20100 40070 53003 86270 333 86844 91111;
0180264220999992000062718004+56960+024500FM-12+0007UMRR V0201801N004010087019N0100001N1+01551+00991100781ADDAA112000791GA1051+008709089GF107991051021008001071001KA1120M+01871MD1210071+9999REMSYN088AAXX  27181 26422 12597 71804 10155 20099 40078 52007 69902 85270 333 10187 85829 91111;
0138264220999992000062721004+56960+024500FM-12+0007UMRR V0201801N004010039019N0100001N1+01331+01061100821ADDGA1081+003909059GF108991081051004501999999MD1110041+9999REMSYN070AAXX  27211 26422 42497 81804 10133 20106 40082 51004 885// 333 88613;
0159264220999992000062800004+56960+024500FM-12+0007UMRR V0201801N003010030019N0100001N1+01261+01061100871ADDGA1051+003009069GF108991081061004501999999MA1999999100561MD1210051+9999REMSYN076AAXX  28001 26422 42497 81803 10126 20106 30056 40087 52005 886// 333 85710;
0168264220999992000062803004+56960+024500FM-12+0007UMRR V0201701N003010045019N0100001N1+01241+01091100861ADDAA199000091GA1061+004509059GF108991081051004501999999MD1810011+9999REMSYN070AAXX  28031 26422 32497 81703 10124 20109 40086 58001 885// 333 86615;EQDQ01  00002PRCP99
0187264220999992000062806004+56960+024500FM-12+0007UMRR V0201601N003010036019N0100001N1+01331+01041100921ADDAA199000091GA1081+003609059GF108991081051004501999999KA1120N+01241MD1310061+9999REMSYN076AAXX  28061 26422 32497 81603 10133 20104 40092 53006 885// 333 20124 88612;EQDQ01  00002PRCP99
0138264220999992000062809004+56960+024500FM-12+0007UMRR V0201301N003010090019N0100001N1+01541+01021100981ADDGA1081+009009059GF108991081051008001999999MD1010061+9999REMSYN070AAXX  28091 26422 42597 81303 10154 20102 40098 50006 885// 333 88630;
0159264220999992000062812004+56960+024500FM-12+0007UMRR V0201501N003012200019N0100001N1+01691+01001100951ADDGA1031+009009029GF106991031021008001001011MA1999999100641MD1810031+9999REMSYN076AAXX  28121 26422 42597 61503 10169 20100 30064 40095 58003 83201 333 83830;
0166264220999992000062815004+56960+024500FM-12+0007UMRR V0200601N00301007501CN0100001N1+01851+01091100901ADDAY181031AY221031GA1041+008709099GF107991061091008001001011MD1510041+9999MW1801REMSYN076AAXX  28151 26422 41597 70603 10185 20109 40090 55004 78082 86901 333 84929;
0202264220999992000062818004+56960+024500FM-12+0007UMRR V0202701N001010150019N0100001N1+01551+01191100971ADDAA112000191AY181061AY221061GA1081+015009099GF108991081091017501999999KA1120M+01991MD1210061+9999MW1021REMSYN088AAXX  28181 26422 11797 82701 10155 20119 40097 52006 69912 70282 889// 333 10199 88950;
0112264220999992000062821004+56960+024500FM-12+0007UMRR V0202501N002019999999N0100001N1+01411+01261100981ADDGF108991081001999999071999MD1210011+9999REMSYN060AAXX  28211 26422 42997 82502 10141 20126 40098 52001 8807/;
0133264220999992000062900004+56960+024500FM-12+0007UMRR V0202501N002019999999N0100001N1+01271+01131100911ADDGF108991081001999999031999MA1999999100601MD1710071+9999REMSYN066AAXX  29001 26422 42997 82502 10127 20113 30060 40091 57007 8803/;
0138264220999992000062903004+56960+024500FM-12+0007UMRR V0202601N002010021019N0100001N1+01151+01051100771ADDGA1081+002109069GF108991081061002501999999MD1710141+9999REMSYN070AAXX  29031 26422 /2397 82602 10115 20105 40077 57014 886// 333 88707;
0202264220999992000062906004+56960+024500FM-12+0007UMRR V0202601N002010024019N0100001N1+01231+01131100691ADDAA112000591AY161061AY221061GA1081+002409029GF108991081021002501999999KA1120N+01151MD1710081+9999MW1611REMSYN088AAXX  29061 26422 11397 82602 10123 20113 40069 57008 69952 76162 882// 333 20115 88508;
0185264220999992000062909004+56960+024500FM-12+0007UMRR V0202601N003010012019N0040001N1+01331+01291100591ADDAY161031AY221031GA1061+001209069GF108991999071001501021999MD1710101+9999MW1631REMSYN076AAXX  29091 26422 41296 82603 10133 20129 40059 57010 76362 8872/ 333 86704;EQDQ01+000082SCOTLC
0187264220999992000062912004+56960+024500FM-12+0007UMRR V0202301N003010039019N0040001N1+01461+01401100521ADDAY161061AY221061GA1081+003909029GF108991081001004501021999MA1999999100211MD1710071+9999MW1631REMSYN082AAXX  29121 26422 41496 82303 10146 20140 30021 40052 57007 76362 8802/ 333 88513;
0166264220999992000062915004+56960+024500FM-12+0007UMRR V0202201N003010021019N0040001N1+01431+01371100431ADDAY181031AY261031GA1061+002109069GF108991081091002501999999MD1710091+9999MW1811REMSYN076AAXX  29151 26422 41396 82203 10143 20137 40043 57009 78186 889// 333 86707;
0202264220999992000062918004+56960+024500FM-12+0007UMRR V0202201N003010057019N0100001N1+01371+01311100401ADDAA112009991AY181061AY261061GA1081+005709059GF108991081051004501999999KA1120M+01491MD1610031+9999MW1251REMSYN088AAXX  29181 26422 11497 82203 10137 20131 40040 56003 60102 72586 885// 333 10149 88619;
0138264220999992000062921004+56960+024500FM-12+0007UMRR V0202101N003010048019N0100001N1+01311+01191100421ADDGA1081+004809059GF108991081051004501999999MD1310021+9999REMSYN070AAXX  29211 26422 42497 82103 10131 20119 40042 53002 885// 333 88616;
0187264220999992000063000004+56960+024500FM-12+0007UMRR V0201901N004010045019N0100001N1+01261+01141100421ADDAY181061AY221061GA1081+004509059GF108991081051004501999999MA1999999100111MD1010001+9999MW1021REMSYN082AAXX  30001 26422 41497 81904 10126 20114 30011 40042 50000 70282 885// 333 88615;
0138264220999992000063003004+56960+024500FM-12+0007UMRR V0201801N004010102019N0100001N1+01251+01111100481ADDGA1061+010209059GF108991061051012501071999MD1310061+9999REMSYN070AAXX  30031 26422 /2697 81804 10125 20111 40048 53006 8657/ 333 86634;
0174264220999992000063006004+56960+024500FM-12+0007UMRR V0202001N003010036019N0100001N1+01371+01121100611ADDAA112000791GA1061+003609029GF108991061021004501071999KA1120N+01241MD1210131+9999REMSYN082AAXX  30061 26422 12497 82003 10137 20112 40061 52013 69902 8627/ 333 20124 86812;
0138264220999992000063009004+56960+024500FM-12+0007UMRR V0202001N003010087019N0100001N1+01541+01131100701ADDGA1061+008709029GF108991081091008001999999MD1210091+9999REMSYN070AAXX  30091 26422 42597 82003 10154 20113 40070 52009 889// 333 86829;
0187264220999992000063012004+56960+024500FM-12+0007UMRR V0201901N003010057019N0040001N1+01351+01201100841ADDAY181061AY221061GA1061+005709099GF108991081091004501999999MA1999999100531MD1210141+9999MW1811REMSYN082AAXX  30121 26422 41496 81903 10135 20120 30053 40084 52014 78182 889// 333 86919;
0166264220999992000063015004+56960+024500FM-12+0007UMRR V0201901N004010033019N0100001N1+01391+01301100911ADDAY181031AY221031GA1051+003309069GF108991081091004501999999MD1210071+9999MW1251REMSYN076AAXX  30151 26422 41497 81904 10139 20130 40091 52007 72582 889// 333 85711;
0180264220999992000063018004+56960+024500FM-12+0007UMRR V0201901N003010300019N0100001N1+01281+01211101001ADDAA112004191AY181061AY221061GF108991031091008001071999KA1999M+01621MD1210091+9999MW1251REMSYN082AAXX  30181 26422 11597 81903 10128 20121 40100 52009 60042 72582 8397/ 333 10162;
0140264220999992000063021004+56960+024500FM-12+0007UMRR V0201601N003019999999N0100001N1+01231+01151101091ADDAY181031AY221031GF108991081001999999051999MD1210091+9999MW1021REMSYN066AAXX  30211 26422 41997 81603 10123 20115 40109 52009 70282 8805/;
0161264220999992000070100004+56960+024500FM-12+0007UMRR V0201401N002012200019N0100001N1+01111+01051101061ADDAY181061AY211061GF102991021001999999071011MA1999999100751MD1810031+9999MW1011REMSYN072AAXX  01001 26422 41997 21402 10111 20105 30075 40106 58003 70181 82071;
0112264220999992000070103004+56960+024500FM-12+0007UMRR V0201501N003012200019N0100001N1+01071+01021101081ADDGF103991021061004501071001MD1310011+9999REMSYN060AAXX  01031 26422 /2497 31503 10107 20102 40108 53001 82670;
0152264220999992000070106004+56960+024500FM-12+0007UMRR V0201601N004010300019N0100001N1+01371+01061101091ADDAA112000791GF106991031011008001071001KA1999N+01051MD1110021+9999REMSYN076AAXX  01061 26422 12597 61604 10137 20106 40109 51002 69902 83170 333 20105;
0138264220999992000070109004+56960+024500FM-12+0007UMRR V0201401N004010054019N0200001N1+01711+01021101121ADDGA1051+005409029GF106991051011004501031001MD1110031+9999REMSYN070AAXX  01091 26422 42498 61404 10171 20102 40112 51003 85130 333 85818;
0159264220999992000070112004+56960+024500FM-12+0007UMRR V0201601N00401007501CN0200001N1+01851+01041101041ADDGA1041+006009029GF107991051091008001071011MA1999999100741MD1710071+9999REMSYN076AAXX  01121 26422 42598 71604 10185 20104 30074 40104 57007 85971 333 84820;
0140264220999992000070115004+56960+024500FM-12+0007UMRR V0201201N002010300019N0100001N1+01491+01301101051ADDAY181031AY221031GF108991031091008001071041MD1510001+9999MW1251REMSYN066AAXX  01151 26422 41597 81202 10149 20130 40105 55000 72582 83974;
0180264220999992000070118004+56960+024500FM-12+0007UMRR V0201601N002010300019N0100001N1+01261+01141101051ADDAA112006191AY191061AY281061GF108991031091004501071041KA1999M+02011MD1410001+9999MW1291REMSYN082AAXX  01181 26422 11497 81602 10126 20114 40105 54000 60062 72998 83974 333 10201;
0166264220999992000070121004+56960+024500FM-12+0007UMRR V0201401N002010096019N0100001N1+01201+01141100991ADDAY181031AY221031GA1051+009609099GF108991051091008001071999MD1710061+9999MW1811REMSYN076AAXX  01211 26422 41597 81402 10120 20114 40099 57006 78182 8597/ 333 85932;
0187264220999992000070200004+56960+024500FM-12+0007UMRR V0201101N002010120019N0100001N1+01191+01071100861ADDAY181061AY221061GA1081+012009099GF108991081091012501999999MA1999999100551MD1710131+9999MW1801REMSYN082AAXX  02001 26422 41697 81102 10119 20107 30055 40086 57013 78082 889// 333 88940;
0166264220999992000070203004+56960+024500FM-12+0007UMRR V0200601N001010021019N0040001N1+01191+01111100731ADDAY181031AY251031GA1081+002109069GF108991081061002501999999MD1710131+9999MW1511REMSYN076AAXX  02031 26422 /1396 80601 10119 20111 40073 57013 75185 886// 333 88707;
0202264220999992000070206004+56960+024500FM-12+0007UMRR V0201701N001010036019N0100001N1+01291+01191100671ADDAA112003091AY181061AY251061GA1081+003609059GF108991081051004501999999KA1120N+01181MD1710061+9999MW1021REMSYN088AAXX  02061 26422 11497 81701 10129 20119 40067 57006 60032 70285 885// 333 20118 88612;
0138264220999992000070209004+56960+024500FM-12+0007UMRR V0201001N001010120019N0100001N1+01481+01141100601ADDGA1051+012009099GF108991081091012501999999MD1610071+9999REMSYN070AAXX  02091 26422 42697 81001 10148 20114 40060 56007 889// 333 85940;
0161264220999992000070212004+56960+024500FM-12+0007UMRR V0200201N002019999999N0100001N1+01491+01131100581ADDAY181061AY221061GF108991081001999999071999MA1999999100271MD1710021+9999MW1021REMSYN072AAXX  02121 26422 41997 80202 10149 20113 30027 40058 57002 70282 8807/;
0138264220999992000070215004+56960+024500FM-12+0007UMRR V0203201N00601004201CN0100001N1+01611+01061100571ADDGA1031+005409099GF107991071091004501999999MD1410001+9999REMSYN070AAXX  02151 26422 42497 73206 10161 20106 40057 54000 879// 333 83918;
0174264220999992000070218004+56960+024500FM-12+0007UMRR V0203101N005010096019N0100001N1+01431+01141100621ADDAA112000791GA1061+009609099GF107991071091008001999999KA1120M+01711MD1210041+9999REMSYN082AAXX  02181 26422 12597 73105 10143 20114 40062 52004 69902 879// 333 10171 86932;
0166264220999992000070221004+56960+024500FM-12+0007UMRR V0203401N004010045019N0100001N1+01311+01211100631ADDAY181031AY221031GA1081+004509099GF108991081091004501999999MD1210011+9999MW1811REMSYN076AAXX  02211 26422 41497 83404 10131 20121 40063 52001 78182 889// 333 88915;
0187264220999992000070300004+56960+024500FM-12+0007UMRR V0202701N003010054019N0100001N1+01211+01131100611ADDAY181061AY221061GA1081+005409099GF108991081091004501999999MA1999999100301MD1810021+9999MW1801REMSYN082AAXX  03001 26422 41497 82703 10121 20113 30030 40061 58002 78082 889// 333 88918;
0166264220999992000070303004+56960+024500FM-12+0007UMRR V0202801N003010039019N0100001N1+01271+01191100521ADDAY181031AY261031GA1081+003909029GF108991081001004501021999MD1710091+9999MW1611REMSYN076AAXX  03031 26422 /1497 82803 10127 20119 40052 57009 76186 8802/ 333 88513;
0202264220999992000070306004+56960+024500FM-12+0007UMRR V0202901N005010024019N0040001N1+01311+01231100531ADDAA112010991AY181061AY261061GA1081+002409029GF108991081001002501021999KA1120N+01151MD1110011+9999MW1601REMSYN088AAXX  03061 26422 11396 82905 10131 20123 40053 51001 60112 76086 8802/ 333 20115 88508;
0166264220999992000070309004+56960+024500FM-12+0007UMRR V0203001N006010036019N0100001N1+01501+01281100531ADDAY181031AY261031GA1051+003609099GF108991081091004501999999MD1410001+9999MW1021REMSYN076AAXX  03091 26422 41497 83006 10150 20128 40053 54000 70286 889// 333 85912;
0210264220999992000070312004+56960+024500FM-12+0007UMRR V0203101N006010039019N0100001N1+01551+01311100531ADDAY181061AY221061GA1061+003909099GF108991081091004501999999MA1999999100221MD1410001+9999MW1021OA140101101REMSYN094AAXX  03121 26422 41497 83106 10155 20131 30022 40053 54000 70282 889// 333 86913 91011 91113;
0189264220999992000070315004+56960+024500FM-12+0007UMRR V0203301N006010081019N0100001N1+01591+01361100551ADDAY181031AY221031GA1051+008109029GF108991081091008001999999MD1310031+9999MW1801OA140101001REMSYN088AAXX  03151 26422 41597 83306 10159 20136 40055 53003 78082 889// 333 85227 91010 91112;
0225264220999992000070318004+56960+024500FM-12+0007UMRR V0203201N00701012001CN0100001N1+01621+01371100571ADDAA112000591AY181061AY221061GA1041+010509089GF108991061091012501031999KA1120M+01681MD1310021+9999MW1021OA140101201REMSYN100AAXX  03181 26422 11697 83207 10162 20137 40057 53002 69962 70282 8693/ 333 10168 84835 91012 91112;
0172264220999992000070321004+56960+024500FM-12+0007UMRR V0203001N00501007501CN0100001N1+01531+01271100651ADDAY181031AY221031GA1041+008109089GF107991061091008001031999MD1210071+9999MW1011REMSYN082AAXX  03211 26422 41597 73005 10153 20127 40065 52007 70182 8693/ 333 84827 91112;
0193264220999992000070400004+56960+024500FM-12+0007UMRR V0203201N004010012019N0040001N1+01381+01341100751ADDAY181061AY221061GA1081+001209079GF108991081071001501999999MA1999999100441MD1210101+9999MW1101REMSYN088AAXX  04001 26422 41296 83204 10138 20134 30044 40075 52010 71082 887// 333 88704 91111;
0166264220999992000070403004+56960+024500FM-12+0007UMRR V0203201N003010006019N0020001N1+01351+01291100841ADDAY121031AY221031GA1081+000609069GF108991081071000751999999MD1210091+9999MW1101REMSYN076AAXX  04031 26422 /1195 83203 10135 20129 40084 52009 71022 887// 333 88702;
0202264220999992000070406004+56960+024500FM-12+0007UMRR V0202901N002010009019N0010001N1+01341+01321100871ADDAA112000791AY141061AY221061GA1081+000909069GF108991081071000751999999KA1120N+01321MD1310031+9999MW1281REMSYN088AAXX  04061 26422 11194 82902 10134 20132 40087 53003 69902 72842 887// 333 20132 88703;
0166264220999992000070409004+56960+024500FM-12+0007UMRR V0203201N003010027019N0040001N1+01601+01351100931ADDAY121031AY221031GA1081+002709069GF108991081071002501999999MD1210071+9999MW1101REMSYN076AAXX  04091 26422 41396 83203 10160 20135 40093 52007 71022 887// 333 88709;
0133264220999992000070412004+56960+024500FM-12+0007UMRR V0203501N004012200019N0100001N1+02051+01521100951ADDGF102991021021012501001001MA1999999100651MD1010021+9999REMSYN066AAXX  04121 26422 42697 23504 10205 20152 30065 40095 50002 82200;
0112264220999992000070415004+56960+024500FM-12+0007UMRR V0203601N004012200019N0200001N1+02061+01401100931ADDGF102991021021012501001001MD1810021+9999REMSYN060AAXX  04151 26422 42698 23604 10206 20140 40093 58002 82200;
0165264220999992000070418004+56960+024500FM-12+0007UMRR V0200101N002012200019N0200001N1+01881+01411100981ADDAA199000091GF102991021001999999081001KA1999M+02151MD1310051+9999REMSYN070AAXX  04181 26422 32998 20102 10188 20141 40098 53005 82080 333 10215;EQDQ01  00002PRCP99
0165264220999992000070506004+56960+024500FM-12+0007UMRR V0209999V001019999999N0100001N1+01911+01521100901ADDAA199000091GF106991001001999999001041KA1999N+01351MD1610041+9999REMSYN070AAXX  05061 26422 32997 69901 10191 20152 40090 56004 80004 333 20135;EQDQ01  00002PRCP99
0159264220999992000070512004+56960+024500FM-12+0007UMRR V0200501N00401012001CN0100001N1+02441+01681100771ADDGA1031+010209029GF106991061091012501001001MA1999999100471MD1710071+9999REMSYN076AAXX  05121 26422 42697 60504 10244 20168 30047 40077 57007 86900 333 83834;
0166264220999992000070515004+56960+024500FM-12+0007UMRR V0200601N00201007501CN0100001N1+02211+01701100701ADDAY191031AY281031GA1031+006009099GF106991051091008001061001MD1710071+9999MW1031REMSYN076AAXX  05151 26422 41597 60602 10221 20170 40070 57007 70398 85960 333 83920;
0202264220999992000070518004+56960+024500FM-12+0007UMRR V0200201N002010300019N0100001N1+02091+01681100681ADDAA112001091AY191061AY281061GA1021+006909029GF106991021021008001061001KA1120M+02461MD1810021+9999MW1011REMSYN088AAXX  05181 26422 11597 60202 10209 20168 40068 58002 60012 70198 82260 333 10246 82823;
0112264220999992000070521004+56960+024500FM-12+0007UMRR V0200601N002012200019N0100001N1+01821+01601100681ADDGF103991031001999999061001MD1410001+9999REMSYN060AAXX  05211 26422 42997 30602 10182 20160 40068 54000 83060;
0133264220999992000070600004+56960+024500FM-12+0007UMRR V0202801N001012200019N0100001N1+01571+01451100661ADDGF102991021001999999071001MA1999999100361MD1810021+9999REMSYN066AAXX  06001 26422 42997 22801 10157 20145 30036 40066 58002 82070;
0142264220999992000070603004+56960+024500FM-12+0007UMRR V0203001N001012200019N0100001N1+01501+01451100661ADDAA199000091GF102991021001999999071001MD1610011+9999REMSYN060AAXX  06031 26422 32997 23001 10150 20145 40066 56001 82070;EQDQ01  00002PRCP99
0193264220999992000070606004+56960+024500FM-12+0007UMRR V0201801N001019999999N0020001N1+01731+01641100701ADDAA199000091AY141061AY211061GF106991061001999999061001KA1999N+01471MD1210051+9999MW1101REMSYN076AAXX  06061 26422 31995 61801 10173 20164 40070 52005 71041 86060 333 20147;EQDQ01  00002PRCP99
0112264220999992000070609004+56960+024500FM-12+0007UMRR V0203301N002010300019N0100001N1+02141+01711100731ADDGF108991021021012501031011MD1210031+9999REMSYN060AAXX  06091 26422 42697 83302 10214 20171 40073 52003 82231;
0133264220999992000070612004+56960+024500FM-12+0007UMRR V0203601N003012200019N0100001N1+02261+01771100771ADDGF108991021021012501001011MA1999999100471MD1310041+9999REMSYN066AAXX  06121 26422 42697 83603 10226 20177 30047 40077 53004 82201;
0112264220999992000070615004+56960+024500FM-12+0007UMRR V0203501N004012200019N0100001N1+02341+01531100831ADDGF106991021021012501001041MD1210061+9999REMSYN060AAXX  06151 26422 42697 63504 10234 20153 40083 52006 82204;
0165264220999992000070618004+56960+024500FM-12+0007UMRR V0203301N004019999999N0100001N1+02081+01501100901ADDAA199000091GF106991001001999999001011KA1999M+02361MD1210071+9999REMSYN070AAXX  06181 26422 32997 63304 10208 20150 40090 52007 80001 333 10236;EQDQ01  00002PRCP99
0112264220999992000070621004+56960+024500FM-12+0007UMRR V0203201N003012200019N0100001N1+01791+01491100971ADDGF102991021001999999041001MD1210071+9999REMSYN060AAXX  06211 26422 42997 23203 10179 20149 40097 52007 82040;
0143264220999992000070700004+56960+024500FM-12+0007UMRR V0203101N003012200019N0100001N1+01691+01531100961ADDGA1001+999999999GF100991001001999999001001MA1999999100661MD1810011+9999REMSYN060AAXX  07001 26422 42997 03103 10169 20153 30066 40096 58001;
0142264220999992000070703004+56960+024500FM-12+0007UMRR V0203001N002012200019N0100001N1+01571+01481101021ADDAA199000091GF101991001001999999001011MD1310061+9999REMSYN060AAXX  07031 26422 32997 13002 10157 20148 40102 53006 80001;EQDQ01  00002PRCP99
0187264220999992000070706004+56960+024500FM-12+0007UMRR V0203001N002012200019N0100001N1+01811+01571101031ADDAA199000091GA1041+003909029GF106991041011004501001011KA1120N+01571MD1110011+9999REMSYN076AAXX  07061 26422 32497 63002 10181 20157 40103 51001 84101 333 20157 84813;EQDQ01  00002PRCP99
0112264220999992000070709004+56960+024500FM-12+0007UMRR V0203001N003012200019N0200001N1+02101+01361101001ADDGF106991021011004501001041MD1610031+9999REMSYN060AAXX  07091 26422 42498 63003 10210 20136 40100 56003 82104;
0159264220999992000070712004+56960+024500FM-12+0007UMRR V0202501N00301220001CN0200001N1+02431+01351100921ADDGA1041+006009029GF108991041011008001001041MA1999999100621MD1710081+9999REMSYN076AAXX  07121 26422 42598 82503 10243 20135 30062 40092 57008 84104 333 84820;
0189264220999992000070715004+56960+024500FM-12+0007UMRR V0203001N006010087019N0100001N1+01971+01441100911ADDAY181031AY221031GA1061+008709099GF108991071091008001001041MD1610011+9999MW1021OA140101101REMSYN088AAXX  07151 26422 41597 83006 10197 20144 40091 56001 70282 87904 333 86929 91011 91111;
0208264220999992000070718004+56960+024500FM-12+0007UMRR V0202901N003010093019N0100001N1+01771+01021100931ADDAA112001091AY181061AY221061GA1081+009309069GF108991081051008001999999KA1120M+02451MD1310021+9999MW1021REMSYN094AAXX  07181 26422 11597 82903 10177 20102 40093 53002 69992 70282 885// 333 10245 88631 91111;
0138264220999992000070721004+56960+024500FM-12+0007UMRR V0202501N003010123019N0100001N1+01551+01021100921ADDGA1081+012309059GF108991081051012501999999MD1810021+9999REMSYN070AAXX  07211 26422 42697 82503 10155 20102 40092 58002 885// 333 88641;
0159264220999992000070800004+56960+024500FM-12+0007UMRR V0202401N001010120019N0100001N1+01331+00881100841ADDGA1071+012009029GF107991071051012501001001MA1999999100531MD1710081+9999REMSYN076AAXX  08001 26422 42697 72401 10133 20088 30053 40084 57008 87500 333 87540;
0142264220999992000070803004+56960+024500FM-12+0007UMRR V0202501N002012200019N0100001N1+01061+00801100801ADDAA199000091GF103991031051012501001001MD1710041+9999REMSYN060AAXX  08031 26422 32697 32502 10106 20080 40080 57004 83500;EQDQ01  00002PRCP99
0165264220999992000070806004+56960+024500FM-12+0007UMRR V0202301N002012200019N0100001N1+01501+00821100721ADDAA199000091GF102991021001999999031001KA1999N+01061MD1710081+9999REMSYN070AAXX  08061 26422 32997 22302 10150 20082 40072 57008 82030 333 20106;EQDQ01  00002PRCP99
0138264220999992000070809004+56960+024500FM-12+0007UMRR V0202401N003019999999N0100001N1+01631+00651100711ADDGA1041+012609029GF106991021021999999061001MD1810011+9999REMSYN070AAXX  08091 26422 42997 62403 10163 20065 40071 58001 82260 333 84842;
0133264220999992000070812004+56960+024500FM-12+0007UMRR V0202701N003010300019N0200001N1+01721+00671100661ADDGF107991031091008001031001MA1999999100361MD1710041+9999REMSYN066AAXX  08121 26422 42598 72703 10172 20067 30036 40066 57004 83930;
0138264220999992000070815004+56960+024500FM-12+0007UMRR V0202801N00201030001CN0200001N1+01801+00711100621ADDGA1041+015009029GF106991041021017501081001MD1710041+9999REMSYN070AAXX  08151 26422 42798 62802 10180 20071 40062 57004 84280 333 84850;
0187264220999992000070818004+56960+024500FM-12+0007UMRR V0202001N00201030001CN0200001N1+01681+00801100601ADDAA199000091GA1041+018009029GF106991041021017501031001KA1120M+01901MD1610021+9999REMSYN076AAXX  08181 26422 32798 62002 10168 20080 40060 56002 84230 333 10190 84856;EQDQ01  00002PRCP99
0112264220999992000070821004+56960+024500FM-12+0007UMRR V0202401N002012200019N0100001N1+01281+00801100601ADDGF102991011001999999041011MD1810011+9999REMSYN060AAXX  08211 26422 42997 22402 10128 20080 40060 58001 81041;
0133264220999992000070900004+56960+024500FM-12+0007UMRR V0202501N002012200019N0100001N1+01051+00891100581ADDGF102991001001999999001011MA1999999100261MD1610031+9999REMSYN066AAXX  09001 26422 42997 22502 10105 20089 30026 40058 56003 80001;
0142264220999992000070903004+56960+024500FM-12+0007UMRR V0201901N002019999999N0100001N1+00891+00741100541ADDAA199000091GF108991021001999999031041MD1810031+9999REMSYN060AAXX  09031 26422 32997 81902 10089 20074 40054 58003 82034;EQDQ01  00002PRCP99
0165264220999992000070906004+56960+024500FM-12+0007UMRR V0202101N002019999999N0100001N1+01281+00931100511ADDAA199000091GF108991081001999999021999KA1999N+00891MD1610031+9999REMSYN070AAXX  09061 26422 32997 82102 10128 20093 40051 56003 8802/ 333 20089;EQDQ01  00002PRCP99
0112264220999992000070909004+56960+024500FM-12+0007UMRR V0201601N002019999999N0100001N1+01441+01031100481ADDGF108991081001999999051999MD1810031+9999REMSYN060AAXX  09091 26422 42997 81602 10144 20103 40048 58003 8805/;
0159264220999992000070912004+56960+024500FM-12+0007UMRR V0201501N002010300019N0200001N1+01821+00811100381ADDGA1041+012009029GF106991041021012501031031MA1999999100081MD1710091+9999REMSYN076AAXX  09121 26422 42698 61502 10182 20081 30008 40038 57009 84233 333 84840;
0112264220999992000070915004+56960+024500FM-12+0007UMRR V0202301N002010120019N0200001N1+01831+00931100331ADDGF107991051031012501031001MD1710051+9999REMSYN060AAXX  09151 26422 42698 72302 10183 20093 40033 57005 85330;
0165264220999992000070918004+56960+024500FM-12+0007UMRR V0203301N001019999999N0200001N1+01651+01051100301ADDAA199000091GF107991071001999999061001KA1999M+01941MD1610031+9999REMSYN070AAXX  09181 26422 32998 73301 10165 20105 40030 56003 87060 333 10194;EQDQ01  00002PRCP99
0112264220999992000070921004+56960+024500FM-12+0007UMRR V0203201N002010300019N0100001N1+01471+01121100331ADDGF106991021041012501061001MD1310021+9999REMSYN060AAXX  09211 26422 42697 63202 10147 20112 40033 53002 82460;
0133264220999992000071000004+56960+024500FM-12+0007UMRR V0203301N001012200019N0100001N1+01151+01101100301ADDGF102991021001999999071001MA1999999099991MD1810031+9999REMSYN066AAXX  10001 26422 42997 23301 10115 20110 39999 40030 58003 82070;
0142264220999992000071003004+56960+024500FM-12+0007UMRR V0209999C000012200019N0100001N1+01031+00991100291ADDAA199000091GF102991021021017501001001MD1610011+9999REMSYN060AAXX  10031 26422 32797 23500 10103 20099 40029 56001 82200;EQDQ01  00002PRCP99
0187264220999992000071006004+56960+024500FM-12+0007UMRR V0203501N002010099019N0200001N1+01641+01121100281ADDAA199000091GA1061+009909029GF106991061021012501001001KA1120N+00991MD1610011+9999REMSYN076AAXX  10061 26422 32698 63502 10164 20112 40028 56001 86200 333 20099 86833;EQDQ01  00002PRCP99
0107264220999992000071009004+56960+024500FM-12+0007UMRR V0200101N002019999999N0200001N1+99999+99999999999ADDGF106991999999012501999999REMSYN069AAXX  10091 26422 42698 60102 0181 20100 40032 53005 86200 333 86837;
0133264220999992000071012004+56960+024500FM-12+0007UMRR V0200201N003012200019N0200001N1+02011+00611100321ADDGF102991021021008001001011MA1999999100021MD1410001+9999REMSYN066AAXX  10121 26422 42598 20203 10201 20061 30002 40032 54000 82201;
0112264220999992000071015004+56960+024500FM-12+0007UMRR V0200501N003012200019N0200001N1+02111+00531100251ADDGF102991011011012501001011MD1810071+9999REMSYN060AAXX  10151 26422 42698 20503 10211 20053 40025 58007 81101;
0165264220999992000071018004+56960+024500FM-12+0007UMRR V0200301N002019999999N0100001N1+01911+00801100281ADDAA199000091GF106991001001999999001011KA1999M+02161MD1310031+9999REMSYN070AAXX  10181 26422 32997 60302 10191 20080 40028 53003 80001 333 10216;EQDQ01  00002PRCP99
0112264220999992000071021004+56960+024500FM-12+0007UMRR V0201001N003019999999N0100001N1+01631+00771100331ADDGF106991001001999999001091MD1210051+9999REMSYN060AAXX  10211 26422 42997 61003 10163 20077 40033 52005 80009;
0133264220999992000071100004+56960+024500FM-12+0007UMRR V0201201N003012200019N0100001N1+01521+00871100321ADDGF103991021001999999071011MA1999999100011MD1810021+9999REMSYN066AAXX  11001 26422 42997 31203 10152 20087 30001 40032 58002 82071;
0140264220999992000071103004+56960+024500FM-12+0007UMRR V0201501N003010300019N0100001N1+01511+01031100321ADDAY181031AY211031GF108991031091004501071011MD1410001+9999MW1801REMSYN066AAXX  11031 26422 /1497 81503 10151 20103 40032 54000 78081 83971;
0180264220999992000071106004+56960+024500FM-12+0007UMRR V0201601N003019999999N0100001N1+01651+01061100391ADDAA112000791AY181061AY211061GF108991081001999999051999KA1999N+01451MD1310081+9999MW1021REMSYN082AAXX  11061 26422 11997 81603 10165 20106 40039 53008 69902 70281 8805/ 333 20145;
0112264220999992000071109004+56960+024500FM-12+0007UMRR V0201401N004019999999N0100001N1+02111+01091100421ADDGF105991011001999999041011MD1010031+9999REMSYN060AAXX  11091 26422 42997 51404 10211 20109 40042 50003 81041;
0159264220999992000071112004+56960+024500FM-12+0007UMRR V0201801N004010090019N0100001N1+02501+01401100421ADDGA1061+009009029GF107991061021008001001011MA1999999100121MD1410001+9999REMSYN076AAXX  11121 26422 42597 71804 10250 20140 30012 40042 54000 86201 333 86830;
0112264220999992000071115004+56960+024500FM-12+0007UMRR V0201301N003019999999N0100001N1+02461+01361100391ADDGF108991011001999999041061MD1810031+9999REMSYN060AAXX  11151 26422 42997 81303 10246 20136 40039 58003 81046;
0165264220999992000071118004+56960+024500FM-12+0007UMRR V0201201N003010300019N0100001N1+02401+01371100331ADDAA199000091GF108991021091012501071041KA1999M+02641MD1710061+9999REMSYN070AAXX  11181 26422 32697 81203 10240 20137 40033 57006 82974 333 10264;EQDQ01  00002PRCP99
0112264220999992000071121004+56960+024500FM-12+0007UMRR V0201101N004010300019N0100001N1+02231+01421100301ADDGF108991021011008001071041MD1610031+9999REMSYN060AAXX  11211 26422 42597 81104 10223 20142 40030 56003 82174;
0133264220999992000071200004+56960+024500FM-12+0007UMRR V0201501N004019999999N0100001N1+02111+01421100261ADDGF106991061001999999071001MA1999999099961MD1810041+9999REMSYN066AAXX  12001 26422 42997 61504 10211 20142 39996 40026 58004 86070;
0142264220999992000071203004+56960+024500FM-12+0007UMRR V0201201N002019999999N0100001N1+01891+01471100181ADDAA199000091GF106991001001999999001091MD1710081+9999REMSYN060AAXX  12031 26422 32997 61202 10189 20147 40018 57008 80009;EQDQ01  00002PRCP99
0165264220999992000071206004+56960+024500FM-12+0007UMRR V0201501N004019999999N0100001N1+02181+01401100061ADDAA199000091GF107991001001999999001091KA1999N+01841MD1710121+9999REMSYN070AAXX  12061 26422 32997 71504 10218 20140 40006 57012 80009 333 20184;EQDQ01  00002PRCP99
0139264220999992000071209004+56960+024500FM-12+0007UMRR V0201601N007010300019N0100001N1+02401+01421099931ADDGF108991031091008001021999MD1710131+9999OA140101501REMSYN076AAXX  12091 26422 42597 81607 10240 20142 49993 57013 8392/ 333 91015 91116;
0188264220999992000071212004+56960+024500FM-12+0007UMRR V0201501N006010300019N0100001N1+02241+01671099861ADDAY181061AY221061GF105991021091012501061001MA1999999099561MD1810071+9999MW1031OA140101501REMSYN088AAXX  12121 26422 41697 51506 10224 20167 39956 49986 58007 70382 82960 333 91015 91115;
0167264220999992000071215004+56960+024500FM-12+0007UMRR V0201701N005010300019N0100001N1+01931+01631099861ADDAY191031AY281031GF107991031091008001081031MD1010001+9999MW1291OA140101201REMSYN082AAXX  12151 26422 41597 71705 10193 20163 49986 50000 72998 83983 333 91012 91115;
0203264220999992000071218004+56960+024500FM-12+0007UMRR V0202101N005010300019N0200001N1+01821+01171099961ADDAA112004191AY191061AY281061GF108991021091012501081041KA1120M+02451MD1210101+9999MW1031OA140101101REMSYN094AAXX  12181 26422 11698 82105 10182 20117 49996 52010 60042 70398 82984 333 10245 91011 91112;
0144264220999992000071221004+56960+024500FM-12+0007UMRR V0201801N004010102019N0100001N1+01591+01091099941ADDGA1071+010209069GF107991071051012501001001MD1810031+9999REMSYN076AAXX  12211 26422 42697 71804 10159 20109 49994 58003 87500 333 87634 91111;
0143264220999992000071300004+56960+024500FM-12+0007UMRR V0201801N004019999999N0100001N1+01391+01171099921ADDGF105991051001999999081001MA1999999099611MD1610021+9999REMSYN076AAXX  13001 26422 42997 51804 10139 20117 39961 49992 56002 85080 333 91111;
0142264220999992000071303004+56960+024500FM-12+0007UMRR V0201901N006019999999N0100001N1+01441+01201099931ADDAA199000091GF107991071001999999031001MD1310011+9999REMSYN060AAXX  13031 26422 32997 71906 10144 20120 49993 53001 87030;EQDQ01  00002PRCP99
0208264220999992000071306004+56960+024500FM-12+0007UMRR V0202001N004010027019N0100001N1+01511+01271099981ADDAA112000791AY181061AY221061GA1071+002709079GF108991081091002501999999KA1120N+01351MD1210051+9999MW1251REMSYN094AAXX  13061 26422 11397 82004 10151 20127 49998 52005 69902 72582 889// 333 20135 87709 91111;
0172264220999992000071309004+56960+024500FM-12+0007UMRR V0201801N004010042019N0100001N1+01601+01421100091ADDAY181031AY221031GA1061+004209099GF108991061091004501071999MD1210121+9999MW1251REMSYN082AAXX  13091 26422 41497 81804 10160 20142 40009 52012 72582 8697/ 333 86914 91110;
0210264220999992000071312004+56960+024500FM-12+0007UMRR V0202101N00601012001CN0200001N1+01801+01051100181ADDAY181061AY221061GA1031+011409099GF108991051091012501001041MA1999999099881MD1210091+9999MW1021OA140101201REMSYN094AAXX  13121 26422 41698 82106 10180 20105 39988 40018 52009 70282 85904 333 83938 91012 91112;
0161264220999992000071315004+56960+024500FM-12+0007UMRR V0202401N006010120019N0200001N1+01791+00581100381ADDGA1061+012009089GF107991061011012501031011MD1210201+9999OA140101401REMSYN082AAXX  13151 26422 42698 72406 10179 20058 40038 52020 86131 333 86840 91014 91114;
0158264220999992000071318004+56960+024500FM-12+0007UMRR V0202201N004012200019N0200001N1+01611+00741100511ADDAA112000891GF106991021051012501001011KA1120M+01901MD1210121+9999REMSYN082AAXX  13181 26422 12698 62204 10161 20074 40051 52012 69972 82501 333 10190 91114;
0112264220999992000071321004+56960+024500FM-12+0007UMRR V0201801N003019999999N0100001N1+01231+00771100591ADDGF106991061001999999031001MD1210081+9999REMSYN060AAXX  13211 26422 42997 61803 10123 20077 40059 52008 86030;
0133264220999992000071400004+56960+024500FM-12+0007UMRR V0201801N003012200019N0100001N1+01061+00831100591ADDGF103991031001999999031001MA1999999100271MD1810011+9999REMSYN066AAXX  14001 26422 42997 31803 10106 20083 30027 40059 58001 83030;
0142264220999992000071403004+56960+024500FM-12+0007UMRR V0201801N003019999999N0100001N1+01021+00831100591ADDAA199000091GF106991021001999999071041MD1410001+9999REMSYN060AAXX  14031 26422 32997 61803 10102 20083 40059 54000 82074;EQDQ01  00002PRCP99
0165264220999992000071406004+56960+024500FM-12+0007UMRR V0201901N003019999999N0200001N1+01361+00831100511ADDAA199000091GF106991061001999999071001KA1999N+01011MD1810071+9999REMSYN070AAXX  14061 26422 32998 61903 10136 20083 40051 58007 86070 333 20101;EQDQ01  00002PRCP99
0131264220999992000071409004+56960+024500FM-12+0007UMRR V0202101N003012200019N0200001N1+01801+00761100471ADDGF104991999021999999001001MD1810031+9999REMSYN060AAXX  14091 26422 42998 42103 10180 20076 40047 58003 80200;EQDQ01+000002SCOTLC
0133264220999992000071412004+56960+024500FM-12+0007UMRR V0201801N002010300019N0200001N1+02091+00731100391ADDGF106991041011012501031001MA1999999100091MD1710081+9999REMSYN066AAXX  14121 26422 42698 61802 10209 20073 30009 40039 57008 84130;
0112264220999992000071415004+56960+024500FM-12+0007UMRR V0200401N003012200019N0200001N1+02091+00731100341ADDGF102991011011017501031001MD1710051+9999REMSYN060AAXX  14151 26422 42798 20403 10209 20073 40034 57005 81130;
0165264220999992000071418004+56960+024500FM-12+0007UMRR V0200201N003019999999N0200001N1+01941+00771100271ADDAA199000091GF106991051001999999031011KA1999M+02171MD1710071+9999REMSYN070AAXX  14181 26422 32998 60203 10194 20077 40027 57007 85031 333 10217;EQDQ01  00002PRCP99
0112264220999992000071421004+56960+024500FM-12+0007UMRR V0200101N002012200019N0100001N1+01511+01151100081ADDGF102991021001999999071001MD1710201+9999REMSYN060AAXX  14211 26422 42997 20102 10151 20115 40008 57020 82070;
0187264220999992000071500004+56960+024500FM-12+0007UMRR V0200101N004010027019N0100001N1+01511+01191099911ADDAY181061AY221061GA1061+002709069GF108991081091002501999999MA1999999099611MD1710161+9999MW1811REMSYN082AAXX  15001 26422 41397 80104 10151 20119 39961 49991 57016 78182 889// 333 86709;
0189264220999992000071503004+56960+024500FM-12+0007UMRR V0200101N005010030019N0100001N1+01441+01371099611ADDAY181031AY221031GA1071+003009079GF108991081091004501999999MD1710311+9999MW1811OA140101301REMSYN088AAXX  15031 26422 /1497 80105 10144 20137 49961 57031 78182 889// 333 87710 91013 91115;
0208264220999992000071506004+56960+024500FM-12+0007UMRR V0200401N003010009019N0040001N1+01481+01461099461ADDAA112003091AY181061AY221061GA1071+000909079GF108991081091000751999999KA1120N+01401MD1710151+9999MW1021REMSYN094AAXX  15061 26422 11196 80403 10148 20146 49946 57015 60032 70282 889// 333 20140 87703 91114;
0138264220999992000071509004+56960+024500FM-12+0007UMRR V0200301N002010300019N0100001N1+01931+01611099321ADDGA1031+008109099GF108991031091008001031999MD1710131+9999REMSYN070AAXX  15091 26422 42597 80302 10193 20161 49932 57013 8393/ 333 83927;
0187264220999992000071512004+56960+024500FM-12+0007UMRR V0203201N002010021019N0100001N1+01791+01701099341ADDAY181061AY221061GA1051+002109069GF108991081091002501999999MA1999999099041MD1310021+9999MW1251REMSYN082AAXX  15121 26422 41397 83202 10179 20170 39904 49934 53002 72582 889// 333 85707;
0202264220999992000071518004+56960+024500FM-12+0007UMRR V0202701N001010015019N0040001N1+01671+01611099471ADDAA112017091AY181061AY211061GA1061+001509069GF108991081091001501999999KA1120M+01951MD1210081+9999MW1801REMSYN088AAXX  15181 26422 11296 82701 10167 20161 49947 52008 60172 78081 889// 333 10195 86705;
0187264220999992000071600004+56960+024040FM-12+0007UMRR V0201901N005010018019N0040001N1+01331+01231099961ADDAY181061AY221061GA1051+001809069GF108991081041001501999999MA1999999099651MD1210261+9999MW1101REMSYN082AAXX  16001 26422 41296 81905 10133 20123 39965 49996 52026 71082 884// 333 85706;
0144264220999992000071603004+56960+024500FM-12+0007UMRR V0202101N004010027019N0100001N1+01291+01151100251ADDGA1061+002709079GF108991081051002501999999MD1210291+9999REMSYN076AAXX  16031 26422 /2397 82104 10129 20115 40025 52029 885// 333 86709 91110;
0208264220999992000071606004+56960+024500FM-12+0007UMRR V0201901N004010090019N0100001N1+01391+01181100551ADDAA112007991AY181061AY221061GA1061+009009069GF108991061041008001041999KA1120N+01281MD1210301+9999MW1011REMSYN094AAXX  16061 26422 11597 81904 10139 20118 40055 52030 60082 70182 8644/ 333 20128 86630 91110;
0161264220999992000071609004+56960+024500FM-12+0007UMRR V0202001N006010057019N0100001N1+01711+01301100821ADDGA1061+005709099GF108991061091004501061999MD1210281+9999OA140101001REMSYN082AAXX  16091 26422 42497 82006 10171 20130 40082 52028 8696/ 333 86919 91010 91111;
0143264220999992000071612004+56960+024500FM-12+0007UMRR V0202201N005010300019N0100001N1+02061+01281101001ADDGF105991031091008001061001MA1999999100701MD1210181+9999REMSYN076AAXX  16121 26422 42597 52205 10206 20128 30070 40100 52018 83960 333 91111;
0112264220999992000071615004+56960+024500FM-12+0007UMRR V0201901N003012200019N0200001N1+02401+01251101111ADDGF104991031021012501061001MD1210111+9999REMSYN060AAXX  16151 26422 42698 41903 10240 20125 40111 52011 83260;
0165264220999992000071618004+56960+024500FM-12+0007UMRR V0201801N003012200019N0200001N1+02181+01311101211ADDAA199000091GF102991021011012501081001KA1999M+02421MD1210101+9999REMSYN070AAXX  16181 26422 32698 21803 10218 20131 40121 52010 82180 333 10242;EQDQ01  00002PRCP99
0112264220999992000071621004+56960+024500FM-12+0007UMRR V0200901N001012200019N0100001N1+01671+01331101271ADDGF101991001001999999001011MD1210051+9999REMSYN060AAXX  16211 26422 42997 10901 10167 20133 40127 52005 80001;
0133264220999992000071700004+56960+024500FM-12+0007UMRR V0200901N002012200019N0100001N1+01481+01261101191ADDGF102991001001999999001011MA1999999100881MD1810081+9999REMSYN066AAXX  17001 26422 42997 20902 10148 20126 30088 40119 58008 80001;
0142264220999992000071703004+56960+024500FM-12+0007UMRR V0200301N002019999999N0100001N1+01411+01211101101ADDAA199000091GF108991001001999999001091MD1710091+9999REMSYN060AAXX  17031 26422 32997 80302 10141 20121 40110 57009 80009;EQDQ01  00002PRCP99
0165264220999992000071706004+56960+024500FM-12+0007UMRR V0200201N002019999999N0100001N1+01871+01481100971ADDAA199000091GF108991021001999999011091KA1999N+01401MD1710121+9999REMSYN070AAXX  17061 26422 32997 80202 10187 20148 40097 57012 82019 333 20140;EQDQ01  00002PRCP99
0112264220999992000071709004+56960+024500FM-12+0007UMRR V0200101N004019999999N0200001N1+02201+01631100731ADDGF106991021001999999011091MD1710241+9999REMSYN060AAXX  17091 26422 42998 60104 10220 20163 40073 57024 82019;
0182264220999992000071712004+56960+024500FM-12+0007UMRR V0200301N006010087019N0100001N1+02161+01611100501ADDGA1051+008709099GF108991051091008001001051MA1999999100201MD1710231+9999OA140101101REMSYN088AAXX  17121 26422 42597 80306 10216 20161 30020 40050 57023 85905 333 85929 91011 91111;
0172264220999992000071715004+56960+024500FM-12+0007UMRR V0200301N003010123019N0100001N1+01721+01471100411ADDAY181031AY221031GA1061+012309099GF108991061091012501051999MD1710091+9999MW1801REMSYN082AAXX  17151 26422 41697 80303 10172 20147 40041 57009 78082 8695/ 333 86941 91111;
0208264220999992000071718004+56960+024500FM-12+0007UMRR V0203401N005010021019N0100001N1+01611+01531100281ADDAA112003091AY181061AY221061GA1061+002109079GF108991081091002501999999KA1120M+02361MD1710131+9999MW1801REMSYN094AAXX  17181 26422 11397 83405 10161 20153 40028 57013 60032 78082 889// 333 10236 86707 91111;
0166264220999992000071721004+56960+024040FM-12+0007UMRR V0203201N003010012019N0100001N1+01571+01481100151ADDAY181031AY221031GA1081+001209069GF108991081061001501999999MD1710131+9999MW1021REMSYN076AAXX  17211 26422 41297 83203 10157 20148 40015 57013 70282 886// 333 88704;
0206264220999992000071800004+56960+024040FM-12+0007UMRR V0203301N003010009019N0040001N1+01551+01511100081ADDAY181061AY261061GA1071+000909069GF108991999071001501021999MA1999999099771MD1710081+9999MW1611REMSYN082AAXX  18001 26422 41296 83303 10155 20151 39977 40008 57008 76186 8872/ 333 87703;EQDQ01+000082SCOTLC
0166264220999992000071803004+56960+024040FM-12+0007UMRR V0203401N003010006019N0020001N1+01591+01531100031ADDAY181031AY221031GA1081+000609069GF108991081061000751999999MD1610041+9999MW1101REMSYN076AAXX  18031 26422 /1195 83403 10159 20153 40003 56004 71082 886// 333 88702;
0221264220999992000071806004+56960+024040FM-12+0007UMRR V0203501N003010006019N0010001N1+01611+01561100041ADDAA112005191AY181061AY261061GA1071+000609069GF108991999071000751021999KA1120N+01521MD1110011+9999MW1611REMSYN088AAXX  18061 26422 11194 83503 10161 20156 40004 51001 60052 76186 8872/ 333 20152 87702;EQDQ01+000082SCOTLC
0166264220999992000071809004+56960+024040FM-12+0007UMRR V0201801N001010066019N0100001N1+01711+01661100081ADDAY161031AY221031GA1081+006609099GF108991081091008001999999MD1310041+9999MW1021REMSYN076AAXX  18091 26422 41597 81801 10171 20166 40008 53004 70262 889// 333 88922;
0187264220999992000071812004+56960+024040FM-12+0007UMRR V0202801N002010039019N0100001N1+01971+01691100071ADDAY161061AY221061GA1071+003909099GF107991071091004501001001MA1999999099771MD1810011+9999MW1021REMSYN082AAXX  18121 26422 41497 72802 10197 20169 39977 40007 58001 70262 87900 333 87913;
0138264220999992000071815004+56960+024040FM-12+0007UMRR V0203101N003010033019N0100001N1+01761+01521100141ADDGA1061+003309069GF108991081091004501999999MD1710071+9999REMSYN070AAXX  18151 26422 42497 83103 10176 20152 40014 57007 889// 333 86711;
0174264220999992000071818004+56960+024040FM-12+0007UMRR V0203001N003010102019N0100001N1+01681+01471100141ADDAA112002091GA1051+010209099GF105991051091012501001001KA1120M+02001MD1410001+9999REMSYN082AAXX  18181 26422 12697 53003 10168 20147 40014 54000 60022 85900 333 10200 85934;
0166264220999992000071821004+56960+024040FM-12+0007UMRR V0203101N003010009019N0100001N1+01581+01481100171ADDAY181031AY221031GA1061+000909069GF108991081091001501999999MD1310031+9999MW1801REMSYN076AAXX  18211 26422 41297 83103 10158 20148 40017 53003 78082 889// 333 86703;
0187264220999992000071900004+56960+024040FM-12+0007UMRR V0202601N002010006019N0100001N1+01491+01421100141ADDAY181061AY221061GA1081+000609069GF108991081061000751999999MA1999999099831MD1810041+9999MW1021REMSYN082AAXX  19001 26422 41197 82602 10149 20142 39983 40014 58004 70282 886// 333 88702;
0166264220999992000071903004+56960+024040FM-12+0007UMRR V0202601N002010006019N0020001N1+01491+01421100151ADDAY181031AY221031GA1071+000609069GF108991081091000751999999MD1310011+9999MW1801REMSYN076AAXX  19031 26422 /1195 82602 10149 20142 40015 53001 78082 889// 333 87702;
0202264220999992000071906004+56960+024040FM-12+0007UMRR V0202201N003010006019N0040001N1+01561+01511100231ADDAA112005191AY181061AY221061GA1071+000609069GF108991081091000751999999KA1120N+01471MD1210081+9999MW1801REMSYN088AAXX  19061 26422 11196 82203 10156 20151 40023 52008 60052 78082 889// 333 20147 87702;
0166264220999992000071909004+56960+024040FM-12+0007UMRR V0201901N003010051019N0100001N1+01831+01571100341ADDAY181031AY221031GA1061+005109099GF108991061091004501071999MD1210121+9999MW1011REMSYN076AAXX  19091 26422 41497 81903 10183 20157 40034 52012 70182 8697/ 333 86917;
0187264220999992000071912004+56960+024040FM-12+0007UMRR V0202201N005010054019N0100001N1+01931+01571100451ADDAY181061AY221061GA1051+005409099GF107991061091004501001041MA1999999100151MD1210111+9999MW1251REMSYN082AAXX  19121 26422 41497 72205 10193 20157 30015 40045 52011 72582 86904 333 85918;
0166264220999992000071915004+56960+024040FM-12+0007UMRR V0202201N004010051019N0100001N1+01831+01461100691ADDAY181031AY221031GA1061+005109099GF108991081091004501999999MD1210241+9999MW1801REMSYN076AAXX  19151 26422 41497 82204 10183 20146 40069 52024 78082 889// 333 86917;
0202264220999992000071918004+56960+024040FM-12+0007UMRR V0202101N003010075019N0100001N1+01611+01301100911ADDAA112003091AY181061AY221061GA1051+007509099GF108991081091008001999999KA1120M+02031MD1210221+9999MW1251REMSYN088AAXX  19181 26422 11597 82103 10161 20130 40091 52022 60032 72582 889// 333 10203 85925;
0112264220999992000071921004+56960+024040FM-12+0007UMRR V0201901N002019999999N0100001N1+01511+01231101071ADDGF106991061001999999041001MD1210151+9999REMSYN060AAXX  19211 26422 42997 61902 10151 20123 40107 52015 86040;
0133264220999992000072000004+56960+024040FM-12+0007UMRR V0201701N003012200019N0100001N1+01301+01221101121ADDGF102991021001999999041001MA1999999100811MD1210051+9999REMSYN066AAXX  20001 26422 42997 21703 10130 20122 30081 40112 52005 82040;
0112264220999992000072003004+56960+024040FM-12+0007UMRR V0201601N003012200019N0100001N1+01201+01121101201ADDGF102991021001999999031001MD1210081+9999REMSYN060AAXX  20031 26422 /2997 21603 10120 20112 40120 52008 82030;
0146264220999992000072006004+56960+024040FM-12+0007UMRR V0201601N003019999999N0100001N1+01471+01241101271ADDAA199000021GF107991071001999999031001KA1999N+01201MD1210071+9999REMSYN070AAXX  20061 26422 32997 71603 10147 20124 40127 52007 87030 333 20120;
0112264220999992000072009004+56960+024040FM-12+0007UMRR V0201801N003010300019N0200001N1+01831+01101101301ADDGF106991031021012501081001MD1110031+9999REMSYN060AAXX  20091 26422 42698 61803 10183 20110 40130 51003 83280;
0159264220999992000072012004+56960+024040FM-12+0007UMRR V0201901N00401030001CN0200001N1+02121+01131101301ADDGA1041+015009029GF105991041021017501081001MA1999999101001MD1310011+9999REMSYN076AAXX  20121 26422 42798 51904 10212 20113 30100 40130 53001 84280 333 84850;
0138264220999992000072015004+56960+024040FM-12+0007UMRR V0201401N00301012001CN0100001N1+01931+01231101381ADDGA1041+014109099GF107991061091012501061001MD1210071+9999REMSYN070AAXX  20151 26422 42697 71403 10193 20123 40138 52007 86960 333 84947;
0180264220999992000072018004+56960+024040FM-12+0007UMRR V0201401N003010300019N0100001N1+01791+01271101441ADDAA112000791AY181061AY221061GF108991021091012501041091KA1999M+02161MD1210061+9999MW1031REMSYN082AAXX  20181 26422 11697 81403 10179 20127 40144 52006 69902 70382 82949 333 10216;
0138264220999992000072021004+56960+024040FM-12+0007UMRR V0201501N00301030001CN0100001N1+01591+01241101571ADDGA1041+015009059GF106991041051017501031001MD1210131+9999REMSYN070AAXX  20211 26422 42797 61503 10159 20124 40157 52013 84530 333 84650;
0133264220999992000072100004+56960+024040FM-12+0007UMRR V0201701N003012200019N0100001N1+01351+01111101601ADDGF104991011001999999041011MA1999999101291MD1110031+9999REMSYN066AAXX  21001 26422 42997 41703 10135 20111 30129 40160 51003 81041;
0170264220999992000072103004+56960+024040FM-12+0007UMRR V0201201N002019999999N0040001N1+01271+01141101641ADDAA199000091AY111031AY211031GF107991001001999999001041MD1310041+9999MW1101REMSYN066AAXX  21031 26422 31996 71202 10127 20114 40164 53004 71011 80004;EQDQ01  00002PRCP99
0165264220999992000072106004+56960+024040FM-12+0007UMRR V0209999V001012200019N0100001N1+01651+01251101661ADDAA199000091GF103991001001999999001011KA1999N+01221MD1310021+9999REMSYN070AAXX  21061 26422 32997 39901 10165 20125 40166 53002 80001 333 20122;EQDQ01  00002PRCP99
0112264220999992000072109004+56960+024040FM-12+0007UMRR V0201001N001012200019N0200001N1+02041+01121101671ADDGF106991031011008001001011MD1010011+9999REMSYN060AAXX  21091 26422 42598 61001 10204 20112 40167 50001 83101;
0159264220999992000072112004+56960+024040FM-12+0007UMRR V0200301N002010129019N0200001N1+02041+01331101661ADDGA1061+012909059GF106991061051012501031001MA1999999101351MD1610011+9999REMSYN076AAXX  21121 26422 42698 60302 10204 20133 30135 40166 56001 86530 333 86643;
0112264220999992000072115004+56960+024040FM-12+0007UMRR V0200201N003019999999N0100001N1+02151+01381101591ADDGF106991001001999999001011MD1710061+9999REMSYN060AAXX  21151 26422 42997 60203 10215 20138 40159 57006 80001;
0165264220999992000072118004+56960+024040FM-12+0007UMRR V0200201N002019999999N0100001N1+01901+01351101651ADDAA199000091GF105991001001999999001011KA1999M+02321MD1310051+9999REMSYN070AAXX  21181 26422 32997 50202 10190 20135 40165 53005 80001 333 10232;EQDQ01  00002PRCP99
0112264220999992000072121004+56960+024040FM-12+0007UMRR V0203001N002019999999N0100001N1+01521+01351101591ADDGF105991001001999999001011MD1810061+9999REMSYN060AAXX  21211 26422 42997 53002 10152 20135 40159 58006 80001;
0133264220999992000072200004+56960+024040FM-12+0007UMRR V0202901N002019999999N0100001N1+01561+01481101561ADDGF106991031001999999031011MA1999999101251MD1610031+9999REMSYN066AAXX  22001 26422 42997 62902 10156 20148 30125 40156 56003 83031;
0196264220999992000072203004+56960+024040FM-12+0007UMRR V0203101N002010006019N0040001N1+01731+01641101521ADDAA199000091AY121031AY221031GA1081+000609069GF108991081061000751999999MD1810041+9999MW1101REMSYN076AAXX  22031 26422 31196 83102 10173 20164 40152 58004 71022 886// 333 88702;EQDQ01  00002PRCP99
0215264220999992000072206004+56960+024040FM-12+0007UMRR V0202901N002010015019N0040001N1+01711+01601101551ADDAA199000091AY121061AY221061GA1081+001509069GF108991081061001501999999KA1120N+01511MD1310031+9999MW1101REMSYN082AAXX  22061 26422 31296 82902 10171 20160 40155 53003 71022 886// 333 20151 88705;EQDQ01  00002PRCP99
0112264220999992000072209004+56960+024040FM-12+0007UMRR V0203001N004010300019N0200001N1+02041+01641101561ADDGF106991021021012501031011MD1310021+9999REMSYN060AAXX  22091 26422 42698 63004 10204 20164 40156 53002 82231;
0159264220999992000072212004+56960+024040FM-12+0007UMRR V0202901N00301012001CN0200001N1+02271+01561101581ADDGA1031+012309099GF106991051091012501051001MA1999999101281MD1310021+9999REMSYN076AAXX  22121 26422 42698 62903 10227 20156 30128 40158 53002 85950 333 83941;
0112264220999992000072215004+56960+024040FM-12+0007UMRR V0203001N003010300019N0200001N1+02231+01691101591ADDGF107991021091012501041001MD1010011+9999REMSYN060AAXX  22151 26422 42698 73003 10223 20169 40159 50001 82940;
0165264220999992000072218004+56960+024040FM-12+0007UMRR V0203101N001019999999N0100001N1+02061+01611101611ADDAA199000091GF106991061001999999061001KA1999M+02281MD1310021+9999REMSYN070AAXX  22181 26422 32997 63101 10206 20161 40161 53002 86060 333 10228;EQDQ01  00002PRCP99
0112264220999992000072221004+56960+024040FM-12+0007UMRR V0202501N002012200019N0100001N1+01791+01601101641ADDGF102991021001999999031001MD1310021+9999REMSYN060AAXX  22211 26422 42997 22502 10179 20160 40164 53002 82030;
0143264220999992000072300004+56960+024040FM-12+0007UMRR V0202401N001012200019N0100001N1+01541+01451101671ADDGA1001+999999999GF100991001001999999001001MA1999999101361MD1310031+9999REMSYN060AAXX  23001 26422 42997 02401 10154 20145 30136 40167 53003;
0170264220999992000072303004+56960+024040FM-12+0007UMRR V0202001N001012200019N0020001N1+01351+01331101671ADDAA199000091AY101031AY201031GF103991001001999999001011MD1410001+9999MW1101REMSYN066AAXX  23031 26422 31995 32001 10135 20133 40167 54000 71000 80001;EQDQ01  00002PRCP99
0203264220999992000072306004+56960+024040FM-12+0007UMRR V0201801N002012200019N0100001N1+01631+01441101691ADDAA199000091AY141061AY201061GA1001+999999999GF100991001001999999001001KA1999N+01341MD1310021+9999MW1011REMSYN070AAXX  23061 26422 31997 01802 10163 20144 40169 53002 70140 333 20134;EQDQ01  00002PRCP99
0138264220999992000072309004+56960+024040FM-12+0007UMRR V0202101N002010096019N0100001N1+02201+01441101681ADDGA1051+009609029GF105991051021008001001001MD1410001+9999REMSYN070AAXX  23091 26422 42597 52102 10220 20144 40168 54000 85200 333 85832;
0159264220999992000072312004+56960+024040FM-12+0007UMRR V0201501N003010075019N0100001N1+02441+01371101621ADDGA1031+007509099GF106991061091008001001001MA1999999101321MD1710061+9999REMSYN076AAXX  23121 26422 42597 61503 10244 20137 30132 40162 57006 86900 333 83925;
0140264220999992000072315004+56960+024040FM-12+0007UMRR V0201101N001010300019N0100001N1+02371+01591101511ADDAY181031AY221031GF106991031021008001031001MD1710111+9999MW1011REMSYN066AAXX  23151 26422 41597 61101 10237 20159 40151 57011 70182 83230;
0180264220999992000072318004+56960+024040FM-12+0007UMRR V0209999C000010300019N0100001N1+02091+01691101451ADDAA112000791AY181061AY221061GF106991021011012501041001KA1999M+02531MD1610061+9999MW1021REMSYN082AAXX  23181 26422 11697 60000 10209 20169 40145 56006 69902 70282 82140 333 10253;
0112264220999992000072321004+56960+024040FM-12+0007UMRR V0201201N001012200019N0100001N1+01931+01601101431ADDGF103991031001999999041001MD1810031+9999REMSYN060AAXX  23211 26422 42997 31201 10193 20160 40143 58003 83040;
0133264220999992000072400004+56960+024040FM-12+0007UMRR V0201001N001012200019N0100001N1+01791+01611101291ADDGF102991001001999999001011MA1999999100981MD1710141+9999REMSYN066AAXX  24001 26422 42997 21001 10179 20161 30098 40129 57014 80001;
0142264220999992000072403004+56960+024040FM-12+0007UMRR V0200901N002019999999N0100001N1+01591+01461101191ADDAA199000091GF108991051001999999071051MD1710101+9999REMSYN060AAXX  24031 26422 32997 80902 10159 20146 40119 57010 85075;EQDQ01  00002PRCP99
0165264220999992000072406004+56960+024040FM-12+0007UMRR V0203601N001019999999N0100001N1+01831+01601101081ADDAA199000091GF108991081001999999071999KA1999N+01581MD1710111+9999REMSYN070AAXX  24061 26422 32997 83601 10183 20160 40108 57011 8807/ 333 20158;EQDQ01  00002PRCP99
0112264220999992000072409004+56960+024040FM-12+0007UMRR V0200301N002010300019N0100001N1+02101+01641100911ADDGF108991011011012501021999MD1710161+9999REMSYN060AAXX  24091 26422 42697 80302 10210 20164 40091 57016 8112/;
0133264220999992000072412004+56960+024040FM-12+0007UMRR V0200201N004019999999N0100001N1+02161+01701100731ADDGF108991081001999999071999MA1999999100431MD1710181+9999REMSYN066AAXX  24121 26422 42997 80204 10216 20170 30043 40073 57018 8807/;
0166264220999992000072415004+56960+024040FM-12+0007UMRR V0203401N004010021019N0100001N1+01851+01691100611ADDAY181031AY221031GA1061+002109069GF108991081091002501999999MD1710121+9999MW1801REMSYN076AAXX  24151 26422 41397 83404 10185 20169 40061 57012 78082 889// 333 86707;
0225264220999992000072418004+56960+024040FM-12+0007UMRR V0203301N007010135019N0100001N1+01731+01641100411ADDAA112014091AY181061AY221061GA1061+013509099GF108991081091012501999999KA1120M+02201MD1710201+9999MW1811OA140101101REMSYN100AAXX  24181 26422 11697 83307 10173 20164 40041 57020 60142 78182 889// 333 10220 86945 91011 91112;
0189264220999992000072421004+56960+024040FM-12+0007UMRR V0203301N007010021019N0040001N1+01611+01561100161ADDAY181031AY221031GA1061+002109079GF108991081091002501999999MD1710251+9999MW1801OA140101201REMSYN088AAXX  24211 26422 41396 83307 10161 20156 40016 57025 78082 889// 333 86707 91012 91114;
0229264220999992000072500004+56960+024040FM-12+0007UMRR V0203401N007010012019N0040001N1+01671+01651099931ADDAY181061AY261061GA1071+001209079GF108991999071001501021999MA1999999099631MD1710231+9999MW1631OA140101301REMSYN094AAXX  25001 26422 41296 83407 10167 20165 39963 49993 57023 76386 8872/ 333 87704 91013 91115;EQDQ01+000082SCOTLC
0208264220999992000072503004+56960+024040FM-12+0007UMRR V0203201N006010012019N0040001N1+01671+01651099801ADDAY161031AY221031GA1071+001209079GF108991999021001501071999MD1710131+9999MW1631OA140101201REMSYN088AAXX  25031 26422 /1296 83206 10167 20165 49980 57013 76362 8827/ 333 87704 91012 91114;EQDQ01+000082SCOTLC
0244264220999992000072506004+56960+024040FM-12+0007UMRR V0203001N006010012019N0040001N1+01671+01641099681ADDAA112031091AY161061AY221061GA1071+001209079GF108991999021001501071999KA1120N+01591MD1710121+9999MW1631OA140101401REMSYN100AAXX  25061 26422 11296 83006 10167 20164 49968 57012 60312 76362 8827/ 333 20159 87704 91014 91114;EQDQ01+000082SCOTLC
0208264220999992000072509004+56960+024040FM-12+0007UMRR V0203001N005010003019N0020001N1+01691+01631099711ADDAY161031AY221031GA1071+000309079GF108991999071000751021999MD1310031+9999MW1631OA140101001REMSYN088AAXX  25091 26422 41195 83005 10169 20163 49971 53003 76362 8872/ 333 87701 91010 91114;EQDQ01+000082SCOTLC
0212264220999992000072512004+56960+024040FM-12+0007UMRR V0202701N004010018019N0040001N1+01691+01631099791ADDAY161061AY221061GA1071+001809079GF108991999071001501021999MA1999999099491MD1210081+9999MW1611REMSYN088AAXX  25121 26422 41296 82704 10169 20163 39949 49979 52008 76162 8872/ 333 87706 91114;EQDQ01+000082SCOTLC
0166264220999992000072515004+56960+024040FM-12+0007UMRR V0202501N003010018019N0100001N1+01681+01591099811ADDAY161031AY221031GA1071+001809069GF108991081051002501999999MD1110021+9999MW1021REMSYN076AAXX  25151 26422 41397 82503 10168 20159 49981 51002 70262 885// 333 87706;
0221264220999992000072518004+56960+024040FM-12+0007UMRR V0202501N003010009019N0020001N1+01631+01591099841ADDAA112019191AY161061AY221061GA1071+000909069GF108991999071001501021999KA1120M+01701MD1310031+9999MW1611REMSYN088AAXX  25181 26422 11295 82503 10163 20159 49984 53003 60192 76162 8872/ 333 10170 87703;EQDQ01+000082SCOTLC
0185264220999992000072521004+56960+024040FM-12+0007UMRR V0202701N003010009019N0040001N1+01591+01531099901ADDAY161031AY221031GA1071+000909069GF108991999071001501021999MD1110061+9999MW1611REMSYN076AAXX  25211 26422 41296 82703 10159 20153 49990 51006 76162 8872/ 333 87703;EQDQ01+000082SCOTLC
0187264220999992000072600004+56960+024040FM-12+0007UMRR V0202501N002010006019N0040001N1+01591+01531099881ADDAY161061AY221061GA1081+000609069GF108991081061000751999999MA1999999099581MD1810021+9999MW1101REMSYN082AAXX  26001 26422 41196 82502 10159 20153 39958 49988 58002 71062 886// 333 88702;
0166264220999992000072603004+56960+024040FM-12+0007UMRR V0202601N002010003019N0010001N1+01601+01561099891ADDAY161031AY221031GA1081+000309069GF108991081061000751999999MD1310011+9999MW1101REMSYN076AAXX  26031 26422 /1194 82602 10160 20156 49989 53001 71062 886// 333 88701;
0190264220999992000072606004+56960+024040FM-12+0007UMRR V0202601N002010003019N0005001N1+01711+01691099971ADDAA112007191AY161061AY241061GA1091+999999999GF109991091999999999999999KA1999N+01581MD1210081+9999MW1451REMSYN076AAXX  26061 26422 11/93 92602 10171 20169 49997 52008 60072 74564 333 20158;
0166264220999992000072609004+56960+024040FM-12+0007UMRR V0202901N002010012019N0100001N1+01831+01741100101ADDAY141031AY221031GA1081+001209069GF108991081061001501999999MD1210131+9999MW1021REMSYN076AAXX  26091 26422 41297 82902 10183 20174 40010 52013 70242 886// 333 88704;
0187264220999992000072612004+56960+024040FM-12+0007UMRR V0203101N002010108019N0200001N1+02021+01731100191ADDAY141061AY221061GA1061+010809099GF106991061091012501001001MA1999999099891MD1210091+9999MW1011REMSYN082AAXX  26121 26422 41698 63102 10202 20173 39989 40019 52009 70142 86900 333 86936;
0138264220999992000072615004+56960+024040FM-12+0007UMRR V0203301N002010042019N0200001N1+02131+01701100261ADDGA1021+004209099GF106991061021004501001001MD1210071+9999REMSYN070AAXX  26151 26422 42498 63302 10213 20170 40026 52007 86200 333 82914;
0187264220999992000072618004+56960+024040FM-12+0007UMRR V0202901N003010021019N0100001N1+01931+01691100361ADDAA199000091GA1021+002109069GF106991061091002501001001KA1120M+02281MD1210101+9999REMSYN076AAXX  26181 26422 32397 62903 10193 20169 40036 52010 86900 333 10228 82707;EQDQ01  00002PRCP99
0112264220999992000072621004+56960+024040FM-12+0007UMRR V02099999999999999999N0100001N1+01791+01671100481ADDGF106991061001999999031001MD1210121+9999REMSYN060AAXX  26211 26422 42997 6//// 10179 20167 40048 52012 86030;
0206264220999992000072700004+56960+024040FM-12+0007UMRR V02099999999990021019N0100001N1+01761+01691100531ADDAY161061AY221061GA1071+002109069GF108991999071002501021999MA1999999100231MD1110051+9999MW1611REMSYN082AAXX  27001 26422 41397 8//// 10176 20169 30023 40053 51005 76162 8872/ 333 87707;EQDQ01+000082SCOTLC
0204264220999992000072703004+56960+024040FM-12+0007UMRR V02099999999990009019N0040001N1+01671+01641100521ADDAY161031AY221031GA1071+000909069GF108991999071000751021999KA1120N+01671MD1810011+9999MW1631REMSYN082AAXX  27031 26422 /1196 8//// 10167 20164 40052 58001 76362 8872/ 333 20167 87703;EQDQ01+000082SCOTLC
0221264220999992000072706004+56960+024040FM-12+0007UMRR V02099999999990006019N0010001N1+99999+99999100581ADDAA112003091AY161061AY221061GA1071+000609069GF108991999071000751021999KA1120N+01631MD1210061+9999MW1631REMSYN088AAXX  27061 26422 11194 8//// 10763 20158 40058 52006 60032 76362 8872/ 333 20163 87702;EQDQ01+000082SCOTLC
0185264220999992000072709004+56960+024040FM-12+0007UMRR V0200101N002010009019N0010001N1+01641+01601100681ADDAY161031AY221031GA1071+000909069GF108991999071001501021999MD1210091+9999MW1631REMSYN076AAXX  27091 26422 41294 80102 10164 20160 40068 52009 76362 8872/ 333 87703;EQDQ01+000082SCOTLC
0187264220999992000072712004+56960+024040FM-12+0007UMRR V0200101N003010015019N0040001N1+01611+01521100771ADDAY161061AY251061GA1061+001509069GF108991081051001501999999MA1999999100471MD1210091+9999MW1101REMSYN082AAXX  27121 26422 41296 80103 10161 20152 30047 40077 52009 71065 885// 333 86705;
0166264220999992000072715004+56960+024040FM-12+0007UMRR V0200301N002010039019N0040001N1+01611+01481100871ADDAY151031AY221031GA1081+003909059GF108991081051004501999999MD1210101+9999MW1101REMSYN076AAXX  27151 26422 41496 80302 10161 20148 40087 52010 71052 885// 333 88613;
0202264220999992000072718004+56960+024040FM-12+0007UMRR V0200401N002010036019N0100001N1+01551+01381100971ADDAA112004191AY151061AY221061GA1081+003609059GF108991081051004501999999KA1120M+01651MD1210091+9999MW1161REMSYN088AAXX  27181 26422 11497 80402 10155 20138 40097 52009 60042 71652 885// 333 10165 88612;
0138264220999992000072721004+56960+024040FM-12+0007UMRR V0200701N002010090019N0100001N1+01441+01171101021ADDGA1061+009009059GF106991061051008001001001MD1110051+9999REMSYN070AAXX  27211 26422 42597 60702 10144 20117 40102 51005 86500 333 86630;
0133264220999992000072800004+56960+024040FM-12+0007UMRR V0200501N001012200019N0100001N1+01211+00991101031ADDGF101991001001999999001011MA1999999100721MD1310011+9999REMSYN066AAXX  28001 26422 42997 10501 10121 20099 30072 40103 53001 80001;
0142264220999992000072803004+56960+024040FM-12+0007UMRR V0200401N001012200019N0100001N1+00991+00921101061ADDAA199000091GF102991021021012501041001MD1310021+9999REMSYN060AAXX  28031 26422 32697 20401 10099 20092 40106 53002 82240;EQDQ01  00002PRCP99
0165264220999992000072806004+56960+024040FM-12+0007UMRR V0200301N001012200019N0100001N1+01341+01061101071ADDAA199000091GF102991021021008001031001KA1999N+00971MD1110021+9999REMSYN070AAXX  28061 26422 32597 20301 10134 20106 40107 51002 82230 333 20097;EQDQ01  00002PRCP99
0112264220999992000072809004+56960+024040FM-12+0007UMRR V0203201N003010300019N0100001N1+01651+00761101071ADDGF107991021021008001031001MD1510001+9999REMSYN060AAXX  28091 26422 42597 73203 10165 20076 40107 55000 82230;
0133264220999992000072812004+56960+024040FM-12+0007UMRR V0203501N003010300019N0100001N1+01671+00821101031ADDGF107991011021008001031001MA1999999100731MD1810031+9999REMSYN066AAXX  28121 26422 42597 73503 10167 20082 30073 40103 58003 81230;
0112264220999992000072815004+56960+024040FM-12+0007UMRR V0202901N002019999999N0100001N1+01741+00831101021ADDGF107991071001999999051001MD1610021+9999REMSYN060AAXX  28151 26422 42997 72902 10174 20083 40102 56002 87050;
0165264220999992000072818004+56960+024040FM-12+0007UMRR V0202401N001019999999N0100001N1+01631+00981100991ADDAA199000091GF107991071001999999051001KA1999M+01751MD1810021+9999REMSYN070AAXX  28181 26422 32997 72401 10163 20098 40099 58002 87050 333 10175;EQDQ01  00002PRCP99
0112264220999992000072821004+56960+024040FM-12+0007UMRR V0202201N001010300019N0100001N1+01561+01071101021ADDGF108991011021008001021999MD1310021+9999REMSYN060AAXX  28211 26422 42597 82201 10156 20107 40102 53002 8122/;
0133264220999992000072900004+56960+024040FM-12+0007UMRR V0202201N002019999999N0100001N1+01381+01131100981ADDGF107991071001999999081001MA1999999100671MD1810041+9999REMSYN066AAXX  29001 26422 42997 72202 10138 20113 30067 40098 58004 87080;
0140264220999992000072903004+56960+024040FM-12+0007UMRR V0202501N002019999999N0100001N1+01311+01121100971ADDAY181031AY221031GF107991071001999999041001MD1510011+9999MW1251REMSYN066AAXX  29031 26422 /1997 72502 10131 20112 40097 55001 72582 87040;
0202264220999992000072906004+56960+024040FM-12+0007UMRR V0202301N001010300019N0100001N1+01551+01291101021ADDAA112000191AY181061AY221061GA1031+002109069GF107991041091002501061001KA1120N+01291MD1210051+9999MW1251REMSYN088AAXX  29061 26422 11397 72301 10155 20129 40102 52005 69922 72582 84960 333 20129 83707;
0138264220999992000072909004+56960+024040FM-12+0007UMRR V0209999V001010054019N0200001N1+01851+01231101021ADDGA1051+005409029GF106991051011004501031001MD1110011+9999REMSYN070AAXX  29091 26422 42498 69901 10185 20123 40102 51001 85130 333 85818;
0133264220999992000072912004+56960+024040FM-12+0007UMRR V0203601N003010300019N0100001N1+01851+01331101021ADDGF106991031091012501071001MA1999999100721MD1410001+9999REMSYN066AAXX  29121 26422 42697 63603 10185 20133 30072 40102 54000 83970;
0112264220999992000072915004+56960+024040FM-12+0007UMRR V0200701N001019999999N0100001N1+02011+01401101021ADDGF106991061001999999071001MD1410001+9999REMSYN060AAXX  29151 26422 42997 60701 10201 20140 40102 54000 86070;
0146264220999992000072918004+56960+024040FM-12+0007UMRR V0200101N001019999999N0100001N1+01741+01401101031ADDAA199000021GF107991071001999999071001KA1999M+02011MD1310011+9999REMSYN070AAXX  29181 26422 32997 70101 10174 20140 40103 53001 87070 333 10201;
0112264220999992000072921004+56960+024040FM-12+0007UMRR V0200801N002019999999N0100001N1+01691+01351101011ADDGF107991071001999999071001MD1810021+9999REMSYN060AAXX  29211 26422 42997 70802 10169 20135 40101 58002 87070;
0133264220999992000073000004+56960+024040FM-12+0007UMRR V0200701N002019999999N0100001N1+01421+01271100991ADDGF108991081001999999071999MA1999999100681MD1610031+9999REMSYN066AAXX  30001 26422 42997 80702 10142 20127 30068 40099 56003 8807/;
0142264220999992000073003004+56960+024040FM-12+0007UMRR V0201201N002010300019N0100001N1+01531+01211100931ADDAA199000091GF106991031051008001071001MD1710061+9999REMSYN060AAXX  30031 26422 32597 61202 10153 20121 40093 57006 83570;EQDQ01  00002PRCP99
0165264220999992000073006004+56960+024040FM-12+0007UMRR V0201201N002019999999N0100001N1+01661+01181100951ADDAA199000091GF108991081001999999071999KA1999N+01381MD1110031+9999REMSYN070AAXX  30061 26422 32997 81202 10166 20118 40095 51003 8807/ 333 20138;EQDQ01  00002PRCP99
0112264220999992000073009004+56960+024040FM-12+0007UMRR V0203301N002019999999N0200001N1+02001+01391100981ADDGF108991081001999999051999MD1310031+9999REMSYN060AAXX  30091 26422 42998 83302 10200 20139 40098 53003 8805/;
0133264220999992000073012004+56960+024040FM-12+0007UMRR V0203301N004019999999N0200001N1+02131+01731101021ADDGF106991021021999999031001MA1999999100721MD1210041+9999REMSYN066AAXX  30121 26422 42998 63304 10213 20173 30072 40102 52004 82230;
0112264220999992000073015004+56960+024040FM-12+0007UMRR V0203501N004019999999N0200001N1+02021+01641101091ADDGF106991061001999999071001MD1210061+9999REMSYN060AAXX  30151 26422 42998 63504 10202 20164 40109 52006 86070;
0165264220999992000073018004+56960+024040FM-12+0007UMRR V0203501N002019999999N0200001N1+01761+01431101191ADDAA199000091GF106991061001999999071001KA1999M+02161MD1210101+9999REMSYN070AAXX  30181 26422 32998 63502 10176 20143 40119 52010 86070 333 10216;EQDQ01  00002PRCP99
0122264220999992000073021004+56960+024040FM-12+0007UMRR V0203301N003012200019N0100001N1+01521+01261101261ADDGA1001+999999999GF100991001001999999001001MD1210071+9999REMSYN054AAXX  30211 26422 42997 03303 10152 20126 40126 52007;
0159264220999992000073100004+56960+024040FM-12+0007UMRR V0203101N002010300019N0100001N1+01461+01331101321ADDGA1021+004509099GF105991021031004501071001MA1999999101011MD1210061+9999REMSYN076AAXX  31001 26422 42497 53102 10146 20133 30101 40132 52006 82370 333 82915;
0142264220999992000073103004+56960+024040FM-12+0007UMRR V0202301N001012200019N0100001N1+01301+01211101351ADDAA199000091GF102991021051008001001001MD1310031+9999REMSYN060AAXX  31031 26422 32597 22301 10130 20121 40135 53003 82500;EQDQ01  00002PRCP99
0165264220999992000073106004+56960+024040FM-12+0007UMRR V0202301N002010300019N0100001N1+01601+01271101391ADDAA199000091GF106991031021008001071001KA1999N+01251MD1210041+9999REMSYN070AAXX  31061 26422 32597 62302 10160 20127 40139 52004 83270 333 20125;EQDQ01  00002PRCP99
0112264220999992000073109004+56960+024040FM-12+0007UMRR V0202101N004012200019N0200001N1+02041+01101101401ADDGF103991021021012501041001MD1010011+9999REMSYN060AAXX  31091 26422 42698 32104 10204 20110 40140 50001 82240;
0159264220999992000073112004+56960+024040FM-12+0007UMRR V0202501N003010300019N0200001N1+02381+01111101391ADDGA1031+009009029GF105991031021008001081001MA1999999101091MD1510001+9999REMSYN076AAXX  31121 26422 42598 52503 10238 20111 30109 40139 55000 83280 333 83830;
0166264220999992000073115004+56960+024040FM-12+0007UMRR V0203001N004010075019N0200001N1+02461+01441101381ADDAY191031AY211031GA1031+007509099GF105991051091008001001001MD1810011+9999MW1021REMSYN076AAXX  31151 26422 41598 53004 10246 20144 40138 58001 70291 85900 333 83925;
0180264220999992000073118004+56960+024040FM-12+0007UMRR V0203601N002012200019N0200001N1+01991+01611101491ADDAA112000791AY191061AY281061GF102991021091012501001001KA1999M+02481MD1310101+9999MW1011REMSYN082AAXX  31181 26422 11698 23602 10199 20161 40149 53010 69902 70198 82900 333 10248;
0112264220999992000073121004+56960+024040FM-12+0007UMRR V0202601N002012200019N0100001N1+01641+01511101621ADDGF102991021001999999031001MD1210131+9999REMSYN060AAXX  31211 26422 42997 22602 10164 20151 40162 52013 82030;
0143264220999992000080100004+56960+024040FM-12+0007UMRR V0202701N003012200019N0100001N1+01471+01341101641ADDGA1001+999999999GF100991001001999999001001MA1999999101331MD1110021+9999REMSYN060AAXX  01001 26422 42997 02703 10147 20134 30133 40164 51002;
0122264220999992000080103004+56960+024040FM-12+0007UMRR V0202201N001012200019N0100001N1+01311+01211101611ADDGA1001+999999999GF100991001001999999001001MD1810031+9999REMSYN054AAXX  01031 26422 /2997 02201 10131 20121 40161 58003;
0187264220999992000080106004+56960+024040FM-12+0007UMRR V0202201N00101002101CN0037001N1+01521+01331101651ADDAA199000091GA1041+002409069GF106991061011002501001001KA1120N+01231MD1310041+9999REMSYN076AAXX  01061 26422 32337 62201 10152 20133 40165 53004 86100 333 20123 84708;EQDQ01  00002PRCP99
0112264220999992000080109004+56960+024040FM-12+0007UMRR V0202201N002012200019N0200001N1+02061+01421101641ADDGF103991031011004501001001MD1810011+9999REMSYN060AAXX  01091 26422 42498 32202 10206 20142 40164 58001 83100;
0133264220999992000080112004+56960+024040FM-12+0007UMRR V0202501N002012200019N0200001N1+02261+01301101581ADDGF103991031021004501001001MA1999999101281MD1610051+9999REMSYN066AAXX  01121 26422 42498 32502 10226 20130 30128 40158 56005 83200;
0166264220999992000080115004+56960+024040FM-12+0007UMRR V0203101N004010021019N0100001N1+02041+01711101561ADDAY191031AY281031GA1061+002109069GF107991071091002501001001MD1510021+9999MW1951REMSYN076AAXX  01151 26422 41397 73104 10204 20171 40156 55002 79598 87900 333 86707;
0180264220999992000080118004+56960+024040FM-12+0007UMRR V0202501N002012200019N0100001N1+01751+01551101641ADDAA112002091AY191061AY281061GF104991021091008001041031KA1999M+02461MD1210071+9999MW1031REMSYN082AAXX  01181 26422 11597 42502 10175 20155 40164 52007 60022 70398 82943 333 10246;
0112264220999992000080121004+56960+024040FM-12+0007UMRR V0202501N003012200019N0100001N1+01591+01391101701ADDGF102991021001999999041001MD1210061+9999REMSYN060AAXX  01211 26422 42997 22503 10159 20139 40170 52006 82040;
0159264220999992000080200004+56960+024040FM-12+0007UMRR V0202401N002010069019N0100001N1+01431+01301101681ADDGA1071+006909059GF107991071051008001001001MA1999999101371MD1810021+9999REMSYN076AAXX  02001 26422 42597 72402 10143 20130 30137 40168 58002 87500 333 87623;
0138264220999992000080203004+56960+024040FM-12+0007UMRR V0202301N002010081019N0100001N1+01361+01211101661ADDGA1081+008109059GF108991081051008001999999MD1610021+9999REMSYN070AAXX  02031 26422 /2597 82302 10136 20121 40166 56002 885// 333 88627;
0187264220999992000080206004+56960+024040FM-12+0007UMRR V0201701N003010006019N0100001N1+01481+01351101621ADDAA199000091GA1081+000609069GF108991081061000751999999KA1120N+01301MD1510041+9999REMSYN076AAXX  02061 26422 32197 81703 10148 20135 40162 55004 886// 333 20130 88702;EQDQ01  00002PRCP99
0166264220999992000080209004+56960+024040FM-12+0007UMRR V0201901N002010012019N0020001N1+01621+01441101601ADDAY151031AY221031GA1081+001209069GF108991081061001501999999MD1810021+9999MW1101REMSYN076AAXX  02091 26422 41295 81902 10162 20144 40160 58002 71052 886// 333 88704;
0187264220999992000080212004+56960+024040FM-12+0007UMRR V0201801N002010042019N0040001N1+01991+01691101481ADDAY181061AY251061GA1051+004209099GF108991061091004501031999MA1999999101171MD1710121+9999MW1801REMSYN082AAXX  02121 26422 41496 81802 10199 20169 30117 40148 57012 78085 8693/ 333 85914;
0202264220999992000080218004+56960+024040FM-12+0007UMRR V0201901N002010111019N0040001N1+01761+01651101431ADDAA112006191AY191061AY281061GA1061+011109099GF108991061091012501031999KA1120M+02101MD1410001+9999MW1251REMSYN088AAXX  02181 26422 11696 81902 10176 20165 40143 54000 60062 72598 8693/ 333 10210 86937;
0166264220999992000080221004+56960+024040FM-12+0007UMRR V0201801N002010129019N0020001N1+01611+01551101301ADDAY181031AY221031GA1081+012909099GF108991081091012501999999MD1710131+9999MW1801REMSYN076AAXX  02211 26422 41695 81802 10161 20155 40130 57013 78082 889// 333 88943;
0187264220999992000080300004+56960+024040FM-12+0007UMRR V0200301N001010069019N0040001N1+01551+01491101091ADDAY181061AY221061GA1081+006909059GF108991081051008001999999MA1999999100781MD1710211+9999MW1101REMSYN082AAXX  03001 26422 41596 80301 10155 20149 30078 40109 57021 71082 885// 333 88623;
0166264220999992000080303004+56960+024040FM-12+0007UMRR V0201201N002010018019N0040001N1+01551+01491100092ADDAY121031AY221031GA1081+001809069GF108991081061002501999999MD1710201+9999MW1101REMSYN076AAXX  03031 26422 /1396 81202 10155 20149 40009 57020 71022 886// 333 88706;
0202264220999992000080306004+56960+024040FM-12+0007UMRR V0202401N001010006019N0020001N1+01611+01551100741ADDAA112007191AY181061AY221061GA1071+000609069GF108991081091000751999999KA1120N+01481MD1710141+9999MW1801REMSYN088AAXX  03061 26422 11195 82401 10161 20155 40074 57014 60072 78082 889// 333 20148 87702;
0185264220999992000080309004+56960+024040FM-12+0007UMRR V0202901N005010015019N0020001N1+01591+01541100811ADDAY181031AY261031GA1071+001509069GF108991999071001501021999MD1310071+9999MW1651REMSYN076AAXX  03091 26422 41295 82905 10159 20154 40081 53007 76586 8872/ 333 87705;EQDQ01+000082SCOTLC
0193264220999992000080312004+56960+024040FM-12+0007UMRR V0203001N005010069019N0100001N1+01651+01551101031ADDAY181061AY261061GA1081+006909099GF108991081091008001999999MA1999999100731MD1210221+9999MW1801REMSYN088AAXX  03121 26422 41597 83005 10165 20155 30073 40103 52022 78086 889// 333 88923 91111;
0149264220999992000080315004+56960+024040FM-12+0007UMRR V0202901N001010120019N0100001N1+01751+01651101131ADDAY181031AY221031GF106991061091012501001001MD1210091+9999MW1011REMSYN075AAXX  03151 26422 41697 62901 10175 20165 40113 52009 70182 86900 333 8933;
0202264220999992000080318004+56960+024040FM-12+0007UMRR V0202501N002010120019N0100001N1+01711+01581101211ADDAA112029091AY181061AY221061GA1061+012009099GF106991061091012501001001KA1120M+01751MD1210081+9999MW1251REMSYN088AAXX  03181 26422 11697 62502 10171 20158 40121 52008 60292 72582 86900 333 10175 86940;
0140264220999992000080321004+56960+024040FM-12+0007UMRR V0202701N003012200019N0100001N1+01561+01441101331ADDAY181031AY211031GF102991021001999999071001MD1210121+9999MW1011REMSYN066AAXX  03211 26422 41997 22703 10156 20144 40133 52012 70181 82070;
0161264220999992000080400004+56960+024040FM-12+0007UMRR V0202301N002019999999N0100001N1+01451+01391101421ADDAY181061AY211061GF105991051001999999071001MA1999999101111MD1210091+9999MW1031REMSYN072AAXX  04001 26422 41997 52302 10145 20139 30111 40142 52009 70381 85070;
0140264220999992000080403004+56960+024040FM-12+0007UMRR V0202201N002019999999N0040001N1+01381+01321101441ADDAY121031AY221031GF107991071001999999071001MD1110021+9999MW1101REMSYN066AAXX  04031 26422 /1996 72202 10138 20132 40144 51002 71022 87070;
0174264220999992000080406004+56960+024040FM-12+0007UMRR V0202501N003010300019N0100001N1+01551+01431101521ADDAA112000591GA1021+002709069GF106991031091002501071001KA1120N+01381MD1210081+9999REMSYN082AAXX  04061 26422 12397 62503 10155 20143 40152 52008 69942 83970 333 20138 82709;
0138264220999992000080409004+56960+024040FM-12+0007UMRR V0202901N003010060019N0100001N1+01841+01301101601ADDGA1051+006009029GF105991051021008001001001MD1210081+9999REMSYN070AAXX  04091 26422 42597 52903 10184 20130 40160 52008 85200 333 85820;
0159264220999992000080412004+56960+024040FM-12+0007UMRR V0202801N003010072019N0200001N1+02201+01321101541ADDGA1051+007209089GF106991061091008001001001MA1999999101241MD1810051+9999REMSYN076AAXX  04121 26422 42598 62803 10220 20132 30124 40154 58005 86900 333 85224;
0172264220999992000080415004+56960+024040FM-12+0007UMRR V0203001N001010096019N0100001N1+01741+01541101621ADDAY181031AY221031GA1061+009609099GF108991061091008001031999MD1310071+9999MW1801REMSYN082AAXX  04151 26422 41597 83001 10174 20154 40162 53007 78082 8693/ 333 86932 91110;
0186264220999992000080418004+56960+024040FM-12+0007UMRR V0203601N001010300019N0100001N1+01791+01531101651ADDAA112004191AY181061AY221061GF107991021091012501031001KA1120M+02211MD1310031+9999MW1021REMSYN088AAXX  04181 26422 11697 73601 10179 20153 40165 53003 60042 70282 82930 333 10221 91110;
0112264220999992000080421004+56960+024040FM-12+0007UMRR V0202401N001019999999N0100001N1+01571+01481101681ADDGF106991061001999999031001MD1110031+9999REMSYN060AAXX  04211 26422 42997 62401 10157 20148 40168 51003 86030;
0143264220999992000080500004+56960+024040FM-12+0007UMRR V0202501N002012200019N0100001N1+01411+01331101721ADDGA1001+999999999GF100991001001999999001001MA1999999101411MD1310041+9999REMSYN060AAXX  05001 26422 42997 02502 10141 20133 30141 40172 53004;
0166264220999992000080503004+56960+024040FM-12+0007UMRR V0202401N001010009019N0010001N1+01371+01311101761ADDAY111031AY211031GA1081+000909069GF108991081061000751999999MD1210041+9999MW1101REMSYN076AAXX  05031 26422 /1194 82401 10137 20131 40176 52004 71011 886// 333 88703;
0215264220999992000080506004+56960+024040FM-12+0007UMRR V0202301N00201002101CN0040001N1+01561+01451101831ADDAA199000091AY141061AY211061GA1041+002409069GF107991071051002501001001KA1120N+01261MD1210071+9999MW1101REMSYN082AAXX  05061 26422 31396 72302 10156 20145 40183 52007 71041 87500 333 20126 84708;EQDQ01  00002PRCP99
0138264220999992000080509004+56960+024040FM-12+0007UMRR V0202401N002010048019N0100001N1+01861+01371101901ADDGA1071+004809029GF107991071021004501001001MD1210071+9999REMSYN070AAXX  05091 26422 42497 72402 10186 20137 40190 52007 87200 333 87816;
0133264220999992000080512004+56960+024040FM-12+0007UMRR V0209999V002012200019N0100001N1+02201+01371101851ADDGF104991031021008001061001MA1999999101551MD1810041+9999REMSYN066AAXX  05121 26422 42597 49902 10220 20137 30155 40185 58004 83260;
0150264220999992000080515004+56960+024040FM-12+0007UMRR V0202801N002010750019N0100001N1+02201+01641101851ADDAY181031AY211031GF105991021091008001061031MD1010001+9999MW1021REMSYN076AAXX  05151 26422 41597 52802 10220 20164 40185 50000 70281 82963 333 91111;
0208264220999992000080518004+56960+024040FM-12+0007UMRR V0202901N00201007501CN0100001N1+01911+01511101891ADDAA112000791AY181061AY211061GA1041+008409089GF106991051091008001041001KA1120M+02251MD1310031+9999MW1031REMSYN094AAXX  05181 26422 11597 62902 10191 20151 40189 53003 69902 70381 85940 333 10225 84828 91111;
0112264220999992000080521004+56960+024040FM-12+0007UMRR V0202401N002012200019N0100001N1+01551+01391101961ADDGF102991021001999999031001MD1210071+9999REMSYN060AAXX  05211 26422 42997 22402 10155 20139 40196 52007 82030;
0133264220999992000080600004+56960+024040FM-12+0007UMRR V0202101N002019999999N0100001N1+01361+01231101941ADDGF107991071001999999031001MA1999999101631MD1810021+9999REMSYN066AAXX  06001 26422 42997 72102 10136 20123 30163 40194 58002 87030;
0170264220999992000080603004+56960+024040FM-12+0007UMRR V0201901N003012200019N0100001N1+01171+01111101851ADDAA199000091AY111031AY211031GF104991021061004501081001MD1710061+9999MW1101REMSYN066AAXX  06031 26422 31497 41903 10117 20111 40185 57006 71011 82680;EQDQ01  00002PRCP99
0165264220999992000080606004+56960+024040FM-12+0007UMRR V0202301N003010300019N0100001N1+01451+01281101841ADDAA199000091GF106991031091008001031001KA1999N+01151MD1710041+9999REMSYN070AAXX  06061 26422 32597 62303 10145 20128 40184 57004 83930 333 20115;EQDQ01  00002PRCP99
0138264220999992000080609004+56960+024040FM-12+0007UMRR V0202401N00301007501CN0200001N1+02011+01171101771ADDGA1031+008109099GF106991061091008001031001MD1710071+9999REMSYN070AAXX  06091 26422 42598 62403 10201 20117 40177 57007 86930 333 83927;
0133264220999992000080612004+56960+024040FM-12+0007UMRR V0202001N003010300019N0200001N1+01871+01331101741ADDGF108991031091008001071999MA1999999101431MD1710031+9999REMSYN066AAXX  06121 26422 42598 82003 10187 20133 30143 40174 57003 8397/;
0166264220999992000080615004+56960+024040FM-12+0007UMRR V0202201N002010081019N0100001N1+01771+01431101641ADDAY181031AY221031GA1061+008109099GF108991061091008001071999MD1710101+9999MW1801REMSYN076AAXX  06151 26422 41597 82202 10177 20143 40164 57010 78082 8697/ 333 86927;
0180264220999992000080618004+56960+024040FM-12+0007UMRR V0202001N003010300019N0100001N1+01751+01371101431ADDAA112000791AY181061AY221061GF106991021051004501031091KA1999M+02081MD1710211+9999MW1011REMSYN082AAXX  06181 26422 11497 62003 10175 20137 40143 57021 69902 70182 82539 333 10208;
0112264220999992000080621004+56960+024040FM-12+0007UMRR V0202101N002012200019N0100001N1+01531+01271101361ADDGF102991001001999999001011MD1710071+9999REMSYN060AAXX  06211 26422 42997 22102 10153 20127 40136 57007 80001;
0133264220999992000080700004+56960+024040FM-12+0007UMRR V0202001N002012200019N0100001N1+01361+01221101231ADDGF103991001001999999001011MA1999999100921MD1710131+9999REMSYN066AAXX  07001 26422 42997 32002 10136 20122 30092 40123 57013 80001;
0151264220999992000080703004+56960+024040FM-12+0007UMRR V0201901N002019999999N0040001N1+01371+01251101221ADDAA199000021AY111031AY211031GF106991001001999999001041MD1610011+9999MW1101REMSYN066AAXX  07031 26422 31996 61902 10137 20125 40122 56001 71011 80004;
0187264220999992000080706004+56960+024040FM-12+0007UMRR V0202201N004010045019N0100001N1+01581+01341100981ADDAA199000091GA1051+004509059GF108991051051004501071999KA1120N+01331MD1710231+9999REMSYN076AAXX  07061 26422 32497 82204 10158 20134 40098 57023 8557/ 333 20133 85615;EQDQ01  00002PRCP99
0166264220999992000080709004+56960+024040FM-12+0007UMRR V0202001N004010078019N0100001N1+01721+01441100921ADDAY181031AY221031GA1061+007809099GF108991061091008001071999MD1610071+9999MW1801REMSYN076AAXX  07091 26422 41597 82004 10172 20144 40092 56007 78082 8697/ 333 86926;
0161264220999992000080712004+56960+024040FM-12+0007UMRR V0202101N003010300019N0100001N1+01651+01571100821ADDAY181061AY221061GF107991031091012501061001MA1999999100521MD1810091+9999MW1011REMSYN072AAXX  07121 26422 41697 72103 10165 20157 30052 40082 58009 70182 83960;
0140264220999992000080715004+56960+024040FM-12+0007UMRR V0202901N001010300019N0100001N1+01761+01631100691ADDAY181031AY221031GF106991031091012501061001MD1710131+9999MW1011REMSYN066AAXX  07151 26422 41697 62901 10176 20163 40069 57013 70182 83960;
0202264220999992000080718004+56960+024040FM-12+0007UMRR V0202601N002010135019N0100001N1+01661+01211100691ADDAA112018091AY181061AY221061GA1051+013509099GF105991051031012501001001KA1120M+01821MD1410001+9999MW1011REMSYN088AAXX  07181 26422 11697 52602 10166 20121 40069 54000 60182 70182 85300 333 10182 85945;
0122264220999992000080721004+56960+024040FM-12+0007UMRR V0202401N003012200019N0100001N1+01261+01211100751ADDGA1001+999999999GF100991001001999999001001MD1310051+9999REMSYN054AAXX  07211 26422 42997 02403 10126 20121 40075 53005;
0143264220999992000080800004+56960+024040FM-12+0007UMRR V0202101N003012200019N0100001N1+01081+00971100651ADDGA1001+999999999GF100991001001999999001001MA1999999100331MD1810111+9999REMSYN060AAXX  08001 26422 42997 02103 10108 20097 30033 40065 58011;
0142264220999992000080803004+56960+024040FM-12+0007UMRR V0202101N003012200019N0100001N1+00971+00901100761ADDAA199000091GF102991021021012501001001MD1310111+9999REMSYN060AAXX  08031 26422 32697 22103 10097 20090 40076 53011 82200;EQDQ01  00002PRCP99
0165264220999992000080806004+56960+024040FM-12+0007UMRR V0202501N004012200019N0200001N1+01351+01061100851ADDAA199000091GF102991021021012501001001KA1999N+00971MD1210101+9999REMSYN070AAXX  08061 26422 32698 22504 10135 20106 40085 52010 82200 333 20097;EQDQ01  00002PRCP99
0112264220999992000080809004+56960+024040FM-12+0007UMRR V0202601N003010300019N0200001N1+01591+01001100941ADDGF105991031091012501061001MD1210091+9999REMSYN060AAXX  08091 26422 42698 52603 10159 20100 40094 52009 83960;
0160264220999992000080812004+56960+024040FM-12+0007UMRR V0202701N005010300019N0200001N1+02011+01031100931ADDGF106991031091008001061001MA1999999100631MD1510001+9999OA140101101REMSYN082AAXX  08121 26422 42598 62705 10201 20103 30063 40093 55000 83960 333 91011 91112;
0150264220999992000080815004+56960+024040FM-12+0007UMRR V0202501N005010300019N0100001N1+01671+01221101001ADDAY181031AY221031GF106991031091008001061001MD1110071+9999MW1251REMSYN076AAXX  08151 26422 41597 62505 10167 20122 40100 51007 72582 83960 333 91113;
0186264220999992000080818004+56960+024040FM-12+0007UMRR V0202401N003012200019N0100001N1+01521+01031101071ADDAA112001091AY191061AY281061GF103991021091008001031001KA1120M+02051MD1310061+9999MW1011REMSYN088AAXX  08181 26422 11597 32403 10152 20103 40107 53006 60012 70198 82930 333 10205 91113;
0112264220999992000080821004+56960+024040FM-12+0007UMRR V0202301N003019999999N0100001N1+01271+00981101141ADDGF107991071001999999031001MD1210071+9999REMSYN060AAXX  08211 26422 42997 72303 10127 20098 40114 52007 87030;
0133264220999992000080900004+56960+024040FM-12+0007UMRR V0202101N003019999999N0100001N1+01201+00971101081ADDGF107991071001999999031001MA1999999100771MD1810061+9999REMSYN066AAXX  09001 26422 42997 72103 10120 20097 30077 40108 58006 87030;
0123264220999992000080903004+56960+024040FM-12+0007UMRR V0202301N003010300019N0100001N1+01091+00951101111ADDAA199000021GF108991031011008001051999MD1310021+9999REMSYN060AAXX  09031 26422 32597 82303 10109 20095 40111 53002 8315/;
0180264220999992000080906004+56960+024040FM-12+0007UMRR V0202201N002010300019N0100001N1+01331+01121101141ADDAA112000191AY181061AY221061GF107991011011012501031011KA1999N+01051MD1210041+9999MW1031REMSYN082AAXX  09061 26422 11697 72202 10133 20112 40114 52004 69912 70382 81131 333 20105;
0138264220999992000080909004+56960+024040FM-12+0007UMRR V0202601N004010099019N0100001N1+01731+01031101211ADDGA1061+009909099GF106991061091012501031001MD1210071+9999REMSYN070AAXX  09091 26422 42697 62604 10173 20103 40121 52007 86930 333 86933;
0159264220999992000080912004+56960+024040FM-12+0007UMRR V0202701N003010108019N0200001N1+01851+01021101241ADDGA1051+010809099GF106991061091012501001001MA1999999100931MD1110031+9999REMSYN076AAXX  09121 26422 42698 62703 10185 20102 30093 40124 51003 86900 333 85936;
0139264220999992000080915004+56960+024040FM-12+0007UMRR V0202701N005010300019N0200001N1+01911+01031101361ADDGF106991031091012501031001MD1210121+9999OA140101101REMSYN076AAXX  09151 26422 42698 62705 10191 20103 40136 52012 83930 333 91011 91111;
0171264220999992000080918004+56960+024040FM-12+0007UMRR V0202701N003010300019N0200001N1+01671+00951101431ADDAA199000091GF107991021051012501071001KA1120M+01961MD1210071+9999REMSYN076AAXX  09181 26422 32698 72703 10167 20095 40143 52007 82570 333 10196 91111;EQDQ01  00002PRCP99
0112264220999992000080921004+56960+024040FM-12+0007UMRR V0202501N002012200019N0100001N1+01391+01041101511ADDGF102991021001999999031001MD1210081+9999REMSYN060AAXX  09211 26422 42997 22502 10139 20104 40151 52008 82030;
0133264220999992000081000004+56960+024040FM-12+0007UMRR V0202401N003012200019N0100001N1+01161+01001101511ADDGF103991031001999999031001MA1999999101201MD1410001+9999REMSYN066AAXX  10001 26422 42997 32403 10116 20100 30120 40151 54000 83030;
0142264220999992000081003004+56960+024040FM-12+0007UMRR V0202201N002012200019N0100001N1+01021+00931101511ADDAA199000091GF103991011001999999031011MD1810011+9999REMSYN060AAXX  10031 26422 32997 32202 10102 20093 40151 58001 81031;EQDQ01  00002PRCP99
0165264220999992000081006004+56960+024040FM-12+0007UMRR V0202101N002012200019N0100001N1+01451+01201101501ADDAA199000091GF106991031011004501001041KA1999N+01011MD1510001+9999REMSYN070AAXX  10061 26422 32497 62102 10145 20120 40150 55000 83104 333 20101;EQDQ01  00002PRCP99
0112264220999992000081009004+56960+024040FM-12+0007UMRR V0202101N003010750019N0200001N1+01991+01341101521ADDGF106991011021012501001091MD1310021+9999REMSYN060AAXX  10091 26422 42698 62103 10199 20134 40152 53002 81209;
0161264220999992000081012004+56960+024040FM-12+0007UMRR V0202401N002010120019N0100001N1+01801+01361101471ADDAY181061AY221061GF105991051091012501001001MA1999999101161MD1810061+9999MW1251REMSYN072AAXX  10121 26422 41697 52402 10180 20136 30116 40147 58006 72582 85900;
0150264220999992000081015004+56960+024040FM-12+0007UMRR V0202801N001010300019N0100001N1+01861+01331101521ADDAY181031AY221031GF106991031091008001061001MD1510051+9999MW1011REMSYN076AAXX  10151 26422 41597 62801 10186 20133 40152 55005 70182 83960 333 91110;
0112264220999992000081021004+56960+024040FM-12+0007UMRR V0202201N002012200019N0100001N1+01351+00941101521ADDGF103991001001999999001011MD1510031+9999REMSYN060AAXX  10211 26422 42997 32202 10135 20094 40152 55003 80001;
0143264220999992000081100004+56960+024040FM-12+0007UMRR V0202101N002012200019N0100001N1+01141+01001101481ADDGA1001+999999999GF100991001001999999001001MA1999999101171MD1810041+9999REMSYN060AAXX  11001 26422 42997 02102 10114 20100 30117 40148 58004;
0142264220999992000081103004+56960+024040FM-12+0007UMRR V0201601N002012200019N0100001N1+01011+00931101411ADDAA199000091GF102991021001999999031011MD1710071+9999REMSYN060AAXX  11031 26422 32997 21602 10101 20093 40141 57007 82031;EQDQ01  00002PRCP99
0165264220999992000081106004+56960+024040FM-12+0007UMRR V0201501N001019999999N0100001N1+01331+01091101351ADDAA199000091GF107991051001999999031011KA1999N+00981MD1610061+9999REMSYN070AAXX  11061 26422 32997 71501 10133 20109 40135 56006 85031 333 20098;EQDQ01  00002PRCP99
0131264220999992000081109004+56960+024040FM-12+0007UMRR V0201601N003019999999N0100001N1+01971+01251101311ADDGF108991001001999999001071MD1710041+9999REMSYN060AAXX  11091 26422 42997 81603 10197 20125 40131 57004 88007;EQDQ01+000082SCOTLC
0138264220999992000081115004+56960+024040FM-12+0007UMRR V0201601N004010099019N0100001N1+02401+01151101091ADDGA1061+009909029GF107991061011012501999011MD1710101+9999REMSYN070AAXX  11151 26422 42697 71604 10240 20115 40109 57010 861/1 333 86833;
0165264220999992000081118004+56960+024040FM-12+0007UMRR V0202001N004010300019N0100001N1+01841+01161101121ADDAA199000091GF107991011011012501031011KA1999M+02441MD1310021+9999REMSYN070AAXX  11181 26422 32697 72004 10184 20116 40112 53002 81131 333 10244;EQDQ01  00002PRCP99
0166264220999992000081121004+56960+024040FM-12+0007UMRR V0201301N002010069019N0100001N1+01571+01421101071ADDAY181031AY221031GA1081+006909099GF108991081091008001999999MD1710051+9999MW1801REMSYN076AAXX  11211 26422 41597 81302 10157 20142 40107 57005 78082 889// 333 88923;
0187264220999992000081200004+56960+024040FM-12+0007UMRR V0201401N002010033019N0100001N1+01581+01401100981ADDAY181061AY221061GA1081+003309099GF108991081091004501999999MA1999999100671MD1710091+9999MW1021REMSYN082AAXX  12001 26422 41497 81402 10158 20140 30067 40098 57009 70282 889// 333 88911;
0166264220999992000081203004+56960+024040FM-12+0007UMRR V0201401N002010009019N0020001N1+01571+01441100921ADDAY121031AY221031GA1081+000909069GF108991081061001501999999MD1710061+9999MW1101REMSYN076AAXX  12031 26422 /1295 81402 10157 20144 40092 57006 71022 886// 333 88703;
0202264220999992000081206004+56960+024040FM-12+0007UMRR V0202101N001010018019N0020001N1+01591+01501100941ADDAA112000891AY161061AY251061GA1081+001809069GF108991081071001501999999KA1120N+01521MD1310031+9999MW1611REMSYN088AAXX  12061 26422 11295 82101 10159 20150 40094 53003 69972 76165 887// 333 20152 88706;
0166264220999992000081209004+56960+024040FM-12+0007UMRR V0202401N00301004201CN0040001N1+01781+01561101001ADDAY151031AY221031GA1041+005709029GF108991061091004501061999MD1210061+9999MW1101REMSYN076AAXX  12091 26422 41496 82403 10178 20156 40100 52006 71052 8696/ 333 84819;
0161264220999992000081212004+56960+024040FM-12+0007UMRR V0202701N001010300019N0100001N1+01971+01571101041ADDAY151061AY221061GF108991031091012501051999MA1999999100741MD1210041+9999MW1031REMSYN072AAXX  12121 26422 41697 82701 10197 20157 30074 40104 52004 70352 8395/;
0180264220999992000081218004+56960+024040FM-12+0007UMRR V0203001N002010300019N0040001N1+01711+01591101201ADDAA112004191AY181061AY221061GF108991021091012501051999KA1999M+02041MD1210051+9999MW1101REMSYN082AAXX  12181 26422 11696 83002 10171 20159 40120 52005 60042 71082 8295/ 333 10204;
0140264220999992000081221004+56960+024040FM-12+0007UMRR V0202701N003019999999N0040001N1+01631+01441101301ADDAY121031AY221031GF107991071001999999071001MD1210101+9999MW1101REMSYN066AAXX  12211 26422 41996 72703 10163 20144 40130 52010 71022 87070;
0187264220999992000081300004+56960+024040FM-12+0007UMRR V0202401N003010132019N0040001N1+01491+01401101371ADDAY181061AY221061GA1081+013209099GF108991081091012501999999MA1999999101061MD1210071+9999MW1801REMSYN082AAXX  13001 26422 41696 82403 10149 20140 30106 40137 52007 78082 889// 333 88944;
0166264220999992000081303004+56960+024040FM-12+0007UMRR V0202401N002010015019N0040001N1+01451+01391101411ADDAY181031AY221031GA1081+001509069GF108991081061001501999999MD1110041+9999MW1101REMSYN076AAXX  13031 26422 /1296 82402 10145 20139 40141 51004 71082 886// 333 88705;
0202264220999992000081306004+56960+024040FM-12+0007UMRR V0202601N002010012019N0040001N1+01571+01451101511ADDAA112002091AY181061AY221061GA1071+001209069GF107991071061001501001001KA1120N+01451MD1210101+9999MW1101REMSYN088AAXX  13061 26422 11296 72602 10157 20145 40151 52010 60022 71082 87600 333 20145 87704;
0138264220999992000081309004+56960+024040FM-12+0007UMRR V0203001N002010039019N0100001N1+01771+01541101641ADDGA1071+003909059GF107991071051004501001001MD1210131+9999REMSYN070AAXX  13091 26422 42497 73002 10177 20154 40164 52013 87500 333 87613;
0159264220999992000081312004+56960+024040FM-12+0007UMRR V0203301N004010060019N0100001N1+01871+01251101801ADDGA1051+006009029GF106991051011008001031001MA1999999101491MD1210161+9999REMSYN076AAXX  13121 26422 42597 63304 10187 20125 30149 40180 52016 85130 333 85820;
0112264220999992000081315004+56960+024040FM-12+0007UMRR V0203501N003012200019N0100001N1+01921+01251101891ADDGF102991021001000251031001MD1210091+9999REMSYN060AAXX  13151 26422 42097 23503 10192 20125 40189 52009 82030;
0165264220999992000081318004+56960+024040FM-12+0007UMRR V0203401N002012200019N0100001N1+01711+01381101961ADDAA199000091GF102991021001000251031001KA1999M+02001MD1210071+9999REMSYN070AAXX  13181 26422 32097 23402 10171 20138 40196 52007 82030 333 10200;EQDQ01  00002PRCP99
0112264220999992000081321004+56960+024040FM-12+0007UMRR V0203201N002012200019N0100001N1+01561+01371102061ADDGF102991021001999999031001MD1210101+9999REMSYN060AAXX  13211 26422 42997 23202 10156 20137 40206 52010 82030;
0133264220999992000081400004+56960+024040FM-12+0007UMRR V0202701N002012200019N0100001N1+01571+01401102151ADDGF101991011001999999031001MA1999999101841MD1210091+9999REMSYN066AAXX  14001 26422 42997 12702 10157 20140 30184 40215 52009 81030;
0142264220999992000081403004+56960+024040FM-12+0007UMRR V0202701N002019999999N0100001N1+01561+01391102191ADDAA199000091GF108991081001999999071999MD1210041+9999REMSYN060AAXX  14031 26422 32997 82702 10156 20139 40219 52004 8807/;EQDQ01  00002PRCP99
0187264220999992000081406004+56960+024040FM-12+0007UMRR V0202901N003010033019N0100001N1+01591+01421102251ADDAA199000091GA1051+003309059GF108991051051004501071999KA1120N+01461MD1210061+9999REMSYN076AAXX  14061 26422 32497 82903 10159 20142 40225 52006 8557/ 333 20146 85611;EQDQ01  00002PRCP99
0166264220999992000081409004+56960+024040FM-12+0007UMRR V0203301N00201004201CN0100001N1+01721+01501102311ADDAY151031AY221031GA1041+003609069GF108991071051004501071999MD1210061+9999MW1511REMSYN076AAXX  14091 26422 41497 83302 10172 20150 40231 52006 75152 8757/ 333 84712;
0161264220999992000081412004+56960+024040FM-12+0007UMRR V0203401N002019999999N0100001N1+01901+01451102311ADDAY151061AY221061GF107991071001999999041001MA1999999102001MD1410001+9999MW1021REMSYN072AAXX  14121 26422 41997 73402 10190 20145 30200 40231 54000 70252 87040;
0112264220999992000081415004+56960+024040FM-12+0007UMRR V0203601N002012200019N0200001N1+02081+01411102241ADDGF103991031001999999031001MD1810061+9999REMSYN060AAXX  14151 26422 42998 33602 10208 20141 40224 58006 83030;
0152264220999992000081418004+56960+024040FM-12+0007UMRR V0203201N001012200019N0100001N1+01821+01321102161ADDAA112000791GF102991021001999999031011KA1999M+02081MD1710091+9999REMSYN076AAXX  14181 26422 12997 23201 10182 20132 40216 57009 69902 82031 333 10208;
0122264220999992000081421004+56960+024040FM-12+0007UMRR V0209999C000012200019N0100001N1+01451+01341102181ADDGA1001+999999999GF100991001001999999001001MD1310021+9999REMSYN054AAXX  14211 26422 42997 00000 10145 20134 40218 53002;
0133264220999992000081500004+56960+024040FM-12+0007UMRR V0201501N002012200019N0100001N1+01431+01341102131ADDGF102991021001999999031001MA1999999101821MD1810051+9999REMSYN066AAXX  15001 26422 42997 21502 10143 20134 30182 40213 58005 82030;
0180264220999992000081503004+56960+024040FM-12+0007UMRR V0201601N002012200019N0040001N1+01261+01211102051ADDAA199000091AY101031AY201031GA1001+999999999GF100991001001999999001001MD1710081+9999MW1101REMSYN060AAXX  15031 26422 31996 01602 10126 20121 40205 57008 71000;EQDQ01  00002PRCP99
0165264220999992000081506004+56960+024040FM-12+0007UMRR V0201801N002012200019N0100001N1+01521+01281101981ADDAA199000091GF101991001001999999001011KA1999N+01261MD1710071+9999REMSYN070AAXX  15061 26422 32997 11802 10152 20128 40198 57007 80001 333 20126;EQDQ01  00002PRCP99
0112264220999992000081509004+56960+024040FM-12+0007UMRR V0202001N003012200019N0100001N1+02101+01281101891ADDGF103991001001999999001011MD1710091+9999REMSYN060AAXX  15091 26422 42997 32003 10210 20128 40189 57009 80001;
0133264220999992000081512004+56960+024040FM-12+0007UMRR V0202001N004019999999N0100001N1+02331+01141101791ADDGF107991001001999999001051MA1999999101491MD1710091+9999REMSYN066AAXX  15121 26422 42997 72004 10233 20114 30149 40179 57009 80005;
0112264220999992000081515004+56960+024040FM-12+0007UMRR V0202301N004019999999N0100001N1+02451+01411101581ADDGF107991021001999999031051MD1710211+9999REMSYN060AAXX  15151 26422 42997 72304 10245 20141 40158 57021 82035;
0165264220999992000081518004+56960+024040FM-12+0007UMRR V0201801N003019999999N0100001N1+02081+01461101421ADDAA199000091GF107991021001999999031051KA1999M+02531MD1710161+9999REMSYN070AAXX  15181 26422 32997 71803 10208 20146 40142 57016 82035 333 10253;EQDQ01  00002PRCP99
0112264220999992000081521004+56960+024040FM-12+0007UMRR V0201801N004010300019N0100001N1+01911+01441101301ADDGF107991031021012501031999MD1710131+9999REMSYN060AAXX  15211 26422 42697 71804 10191 20144 40130 57013 8323/;
0159264220999992000081600004+56960+024040FM-12+0007UMRR V0201901N002010180019N0100001N1+01851+01551101221ADDGA1071+018009029GF108991071021017501031999MA1999999100911MD1710081+9999REMSYN076AAXX  16001 26422 42797 81902 10185 20155 30091 40122 57008 8723/ 333 87856;
0166264220999992000081603004+56960+024040FM-12+0007UMRR V0201801N004010090019N0100001N1+01711+01571101141ADDAY181031AY221031GA1051+009009099GF108991081091008001999999MD1710081+9999MW1801REMSYN076AAXX  16031 26422 /1597 81804 10171 20157 40114 57008 78082 889// 333 85930;
0202264220999992000081606004+56960+024040FM-12+0007UMRR V0202201N003010024019N0040001N1+01751+01661101121ADDAA112007991AY181061AY261061GA1081+002409029GF108991081021002501999999KA1120N+01711MD1710021+9999MW1611REMSYN088AAXX  16061 26422 11396 82203 10175 20166 40112 57002 60082 76186 882// 333 20171 88508;
0166264220999992000081609004+56960+024040FM-12+0007UMRR V0202401N00201004201CN0040001N1+02051+01781101131ADDAY161031AY221031GA1031+003309069GF108991061021004501071999MD1310021+9999MW1101REMSYN076AAXX  16091 26422 41496 82402 10205 20178 40113 53002 71062 8627/ 333 83711;
0161264220999992000081612004+56960+024040FM-12+0007UMRR V0202901N003010300019N0100001N1+02241+01641101081ADDAY161061AY221061GF108991031021008001071999MA1999999100781MD1810051+9999MW1021REMSYN072AAXX  16121 26422 41597 82903 10224 20164 30078 40108 58005 70262 8327/;
0112264220999992000081615004+56960+024040FM-12+0007UMRR V0202601N003010300019N0100001N1+02151+01771101031ADDGF108991021021008001071999MD1710051+9999REMSYN060AAXX  16151 26422 42597 82603 10215 20177 40103 57005 8227/;
0152264220999992000081618004+56960+024040FM-12+0007UMRR V0202801N002010300019N0100001N1+01971+01541101031ADDAA112000791GF108991021021008001071011KA1999M+02281MD1410001+9999REMSYN076AAXX  16181 26422 12597 82802 10197 20154 40103 54000 69902 82271 333 10228;
0112264220999992000081621004+56960+024040FM-12+0007UMRR V0202701N002019999999N0100001N1+01651+01341101141ADDGF106991031001999999071011MD1310101+9999REMSYN060AAXX  16211 26422 42997 62702 10165 20134 40114 53010 83071;
0133264220999992000081700004+56960+024040FM-12+0007UMRR V0202401N003019999999N0100001N1+01421+01301101181ADDGF107991021001999999071011MA1999999100871MD1110041+9999REMSYN066AAXX  17001 26422 42997 72403 10142 20130 30087 40118 51004 82071;
0170264220999992000081703004+56960+024040FM-12+0007UMRR V0202301N003010300019N0100001N1+01351+01271101161ADDAA199000091AY121031AY221031GF107991021011008001071011MD1810021+9999MW1101REMSYN066AAXX  17031 26422 31597 72303 10135 20127 40116 58002 71022 82171;EQDQ01  00002PRCP99
0215264220999992000081706004+56960+024040FM-12+0007UMRR V0202201N003010015019N0040001N1+01491+01361101211ADDAA199000091AY121061AY221061GA1061+001509069GF108991081061001501999999KA1120N+01351MD1310051+9999MW1101REMSYN082AAXX  17061 26422 31296 82203 10149 20136 40121 53005 71022 886// 333 20135 86705;EQDQ01  00002PRCP99
0138264220999992000081709004+56960+024040FM-12+0007UMRR V0202401N004010096019N0100001N1+01951+01371101261ADDGA1051+009609029GF107991061091008001061001MD1010051+9999REMSYN070AAXX  17091 26422 42597 72404 10195 20137 40126 50005 86960 333 85832;
0165264220999992000081718004+56960+024040FM-12+0007UMRR V0202601N002010300019N0100001N1+01911+01521101111ADDAA199000091GF108991021091012501061999KA1999M+02291MD1710071+9999REMSYN070AAXX  17181 26422 32697 82602 10191 20152 40111 57007 8296/ 333 10229;EQDQ01  00002PRCP99
0150264220999992000081721004+56960+024040FM-12+0007UMRR V0202501N002012200019N0100001N1+01611+01421101171ADDAY181031AY211031GA1001+999999999GF100991001001999999001001MD1310061+9999MW1011REMSYN060AAXX  17211 26422 41997 02502 10161 20142 40117 53006 70181;
0171264220999992000081800004+56960+024040FM-12+0007UMRR V0202701N002012200019N0040001N1+01461+01351101111ADDAY181061AY211061GA1001+999999999GF100991001001999999001001MA1999999100801MD1810061+9999MW1101REMSYN066AAXX  18001 26422 41996 02702 10146 20135 30080 40111 58006 71081;
0196264220999992000081803004+56960+024040FM-12+0007UMRR V0202401N001010015019N0040001N1+01451+01361101171ADDAA199000091AY111031AY211031GA1081+001509069GF108991081061001501999999MD1310061+9999MW1101REMSYN076AAXX  18031 26422 31296 82401 10145 20136 40117 53006 71011 886// 333 88705;EQDQ01  00002PRCP99
0152264220999992000081806004+56960+024040FM-12+0007UMRR V0202201N001010300019N0100001N1+01551+01411101231ADDAA112000791GF108991031061004501031999KA1999N+01401MD1210061+9999REMSYN076AAXX  18061 26422 12497 82201 10155 20141 40123 52006 69902 8363/ 333 20140;
0138264220999992000081809004+56960+024040FM-12+0007UMRR V0202601N003010060019N0100001N1+01921+01391101291ADDGA1051+006009029GF107991051011008001031041MD1210061+9999REMSYN070AAXX  18091 26422 42597 72603 10192 20139 40129 52006 85134 333 85820;
0159264220999992000081812004+56960+024040FM-12+0007UMRR V0202101N002010081019N0100001N1+02161+01601101291ADDGA1061+008109029GF108991061011008001001041MA1999999100991MD1010011+9999REMSYN076AAXX  18121 26422 42597 82102 10216 20160 30099 40129 50001 86104 333 86827;
0112264220999992000081815004+56960+024040FM-12+0007UMRR V0202501N001010300019N0100001N1+02141+01411101281ADDGF108991011011008001071041MD1610011+9999REMSYN060AAXX  18151 26422 42597 82501 10214 20141 40128 56001 81174;
0180264220999992000081818004+56960+024040FM-12+0007UMRR V0202401N002019999999N0100001N1+01851+01441101361ADDAA112000791AY191061AY281061GF107991071001999999071001KA1999M+02301MD1210071+9999MW1021REMSYN082AAXX  18181 26422 11997 72402 10185 20144 40136 52007 69902 70298 87070 333 10230;
0131264220999992000081821004+56960+024040FM-12+0007UMRR V0202401N002019999999N0100001N1+01641+01351101461ADDGF105991999001999999071001MD1210101+9999REMSYN060AAXX  18211 26422 42997 52402 10164 20135 40146 52010 80070;EQDQ01+000002SCOTLC
0133264220999992000081900004+56960+024040FM-12+0007UMRR V0202501N002012200019N0100001N1+01341+01221101571ADDGF102991021001999999031001MA1999999101261MD1210111+9999REMSYN066AAXX  19001 26422 42997 22502 10134 20122 30126 40157 52011 82030;
0166264220999992000081903004+56960+024040FM-12+0007UMRR V0202301N002010003019N0020001N1+01331+01271101641ADDAY121031AY221031GA1081+000309069GF108991081061000251999999MD1210071+9999MW1101REMSYN076AAXX  19031 26422 /1095 82302 10133 20127 40164 52007 71022 886// 333 88701;
0215264220999992000081906004+56960+024040FM-12+0007UMRR V0202001N001010009019N0040001N1+01491+01341101711ADDAA199000091AY111061AY211061GA1061+000909069GF107991071061001501001001KA1120N+01301MD1210071+9999MW1101REMSYN082AAXX  19061 26422 31296 72001 10149 20134 40171 52007 71011 87600 333 20130 86703;EQDQ01  00002PRCP99
0112264220999992000081909004+56960+024040FM-12+0007UMRR V0201801N003019999999N0100001N1+01751+01401101801ADDGF107991071001999999031001MD1210091+9999REMSYN060AAXX  19091 26422 42997 71803 10175 20140 40180 52009 87030;
0133264220999992000081912004+56960+024040FM-12+0007UMRR V0202101N002019999999N0100001N1+01991+01341101721ADDGF108991081001999999051999MA1999999101421MD1810071+9999REMSYN066AAXX  19121 26422 42997 82102 10199 20134 30142 40172 58007 8805/;
0166264220999992000081915004+56960+024040FM-12+0007UMRR V0202001N002010300019N0100001N1+01851+01471101681ADDAY181031AY221031GA1021+003309099GF108991021091004501061999MD1610051+9999MW1801REMSYN076AAXX  19151 26422 41497 82002 10185 20147 40168 56005 78082 8296/ 333 82911;
0202264220999992000081918004+56960+024040FM-12+0007UMRR V0202401N001010300019N0100001N1+01591+01411101521ADDAA112000891AY181061AY221061GA1031+003909099GF108991031091004501061999KA1120M+02011MD1810161+9999MW1251REMSYN088AAXX  19181 26422 11497 82401 10159 20141 40152 58016 69972 72582 8396/ 333 10201 83913;
0157264220999992000081921004+56960+024040FM-12+0007UMRR V0200601N001010030019N0100001N1+01491+01361101441ADDGA1061+003009069GF108991061061004501061999MD1710081+9999REMSYN070AAXX  19211 26422 42497 80601 10149 20136 40144 57080 8666/ 333 86710;EQDQ01+000802APC3  
0206264220999992000082000004+56960+024040FM-12+0007UMRR V0201701N002010024019N0100001N1+01441+01371101461ADDAY161061AY221061GA1061+002409069GF108991999071002501021999MA1999999101151MD1310021+9999MW1611REMSYN082AAXX  20001 26422 41397 81702 10144 20137 30115 40146 53002 76162 8872/ 333 86708;EQDQ01+000082SCOTLC
0166264220999992000082003004+56960+024040FM-12+0007UMRR V0202101N001010300019N0100001N1+01341+01281101481ADDAY161031AY221031GA1041+002109069GF108991041061002501061999MD1310021+9999MW1021REMSYN076AAXX  20031 26422 /1397 82101 10134 20128 40148 53002 70262 8466/ 333 84707;
0180264220999992000082006004+56960+024040FM-12+0007UMRR V0201901N002012200019N0100001N1+01491+01341101511ADDAA112000391AY161061AY221061GF102991021001999999031011KA1999N+01291MD1210031+9999MW1011REMSYN082AAXX  20061 26422 11997 21902 10149 20134 40151 52003 69932 70162 82031 333 20129;
0112264220999992000082009004+56960+024040FM-12+0007UMRR V0201601N003019999999N0100001N1+01801+01231101511ADDGF108991081001999999051999MD1010001+9999REMSYN060AAXX  20091 26422 42997 81603 10180 20123 40151 50000 8805/;
0159264220999992000082012004+56960+024040FM-12+0007UMRR V0201701N005010081019N0100001N1+01911+01341101421ADDGA1071+008109029GF108991071011008001021999MA1999999101111MD1710091+9999REMSYN076AAXX  20121 26422 42597 81705 10191 20134 30111 40142 57009 8712/ 333 87827;
0138264220999992000082015004+56960+024040FM-12+0007UMRR V0201701N005010099019N0100001N1+01901+01501101281ADDGA1071+009909059GF108991071051008001051999MD1710141+9999REMSYN070AAXX  20151 26422 42597 81705 10190 20150 40128 57014 8755/ 333 87633;
0202264220999992000082018004+56960+024040FM-12+0007UMRR V0201501N003010099019N0100001N1+01791+01601101131ADDAA112000791AY181061AY221061GA1051+009909029GF107991051051012501051999KA1120M+01991MD1710151+9999MW1021REMSYN088AAXX  20181 26422 11697 71503 10179 20160 40113 57015 69902 70282 8555/ 333 10199 85533;
0166264220999992000082021004+56960+024040FM-12+0007UMRR V0202001N003010126019N0100001N1+01761+01651101051ADDAY181031AY221031GA1071+012609029GF107991071021012501999999MD1710081+9999MW1021REMSYN076AAXX  20211 26422 41697 72003 10176 20165 40105 57008 70282 872// 333 87842;
0161264220999992000082100004+56960+024040FM-12+0007UMRR V0202401N003012200019N0100001N1+01751+01661100991ADDAY181061AY221061GF102991021001999999031001MA1999999100681MD1710061+9999MW1011REMSYN072AAXX  21001 26422 41997 22403 10175 20166 30068 40099 57006 70182 82030;
0140264220999992000082103004+56960+024040FM-12+0007UMRR V0202601N003012200019N0040001N1+01631+01541101041ADDAY111031AY211031GF104991041011004501999999MD1210051+9999MW1101REMSYN066AAXX  21031 26422 /1496 42603 10163 20154 40104 52005 71011 841//;
0202264220999992000082106004+56960+024040FM-12+0007UMRR V0202801N003010042019N0100001N1+01671+01511101161ADDAA112000791AY111061AY211061GA1061+004209099GF108991081091004501999999KA1120N+01601MD1310121+9999MW1101REMSYN088AAXX  21061 26422 11497 82803 10167 20151 40116 53012 69902 71011 889// 333 20160 86914;
0112264220999992000082109004+56960+024040FM-12+0007UMRR V0202801N002010300019N0100001N1+01711+01391101121ADDGF107991021011008001071011MD1810041+9999REMSYN060AAXX  21091 26422 42597 72802 10171 20139 40112 58004 82171;
0159264220999992000082112004+56960+024040FM-12+0007UMRR V0209999C00001007501CN0200001N1+02011+01191101171ADDGA1031+006309029GF107991061091008001001011MA1999999100861MD1010051+9999REMSYN076AAXX  21121 26422 42598 70000 10201 20119 30086 40117 50005 86901 333 83821;
0112264220999992000082115004+56960+024040FM-12+0007UMRR V0202801N002010300019N0100001N1+01951+01371101171ADDGF108991031091008001071999MD1010001+9999REMSYN060AAXX  21151 26422 42597 82802 10195 20137 40117 50000 8397/;
0187264220999992000082118004+56960+024040FM-12+0007UMRR V0203201N002010144019N0100001N1+01731+01251101221ADDAA199000091GA1051+014409059GF108991051051012501071999KA1120M+02091MD1310051+9999REMSYN076AAXX  21181 26422 32697 83202 10173 20125 40122 53005 8557/ 333 10209 85648;EQDQ01  00002PRCP99
0112264220999992000082121004+56960+024040FM-12+0007UMRR V0202701N001019999999N0100001N1+01631+01221101261ADDGF108991081001999999051999MD1110041+9999REMSYN060AAXX  21211 26422 42997 82701 10163 20122 40126 51004 8805/;
0159264220999992000082200004+56960+024040FM-12+0007UMRR V0202501N001010117019N0100001N1+01571+01271101231ADDGA1081+011709059GF108991081051012501999999MA1999999100921MD1810031+9999REMSYN076AAXX  22001 26422 42697 82501 10157 20127 30092 40123 58003 885// 333 88639;
0168264220999992000082203004+56960+024040FM-12+0007UMRR V0202601N002010111019N0100001N1+01491+01241101241ADDAA199000091GA1081+011109059GF108991081051012501999999MD1310011+9999REMSYN070AAXX  22031 26422 32697 82602 10149 20124 40124 53001 885// 333 88637;EQDQ01  00002PRCP99
0165264220999992000082206004+56960+024040FM-12+0007UMRR V0209999C000019999999N0100001N1+01541+01351101171ADDAA199000091GF108991081001999999051999KA1999N+01441MD1810071+9999REMSYN070AAXX  22061 26422 32997 80000 10154 20135 40117 58007 8805/ 333 20144;EQDQ01  00002PRCP99
0166264220999992000082209004+56960+024040FM-12+0007UMRR V0209999C000010123019N0100001N1+01691+01391101181ADDAY181031AY221031GA1061+012309099GF108991061091012501051999MD1310011+9999MW1801REMSYN076AAXX  22091 26422 41697 80000 10169 20139 40118 53001 78082 8695/ 333 86941;
0187264220999992000082212004+56960+024040FM-12+0007UMRR V0203101N002010075019N0100001N1+01631+01401101171ADDAY181061AY221061GA1051+007509029GF108991081091008001999999MA1999999100861MD1510011+9999MW1801REMSYN082AAXX  22121 26422 41597 83102 10163 20140 30086 40117 55001 78082 889// 333 85825;
0140264220999992000082215004+56960+024040FM-12+0007UMRR V0202401N001010300019N0100001N1+01671+01291101221ADDAY181031AY221031GF107991021091012501031001MD1210051+9999MW1021REMSYN066AAXX  22151 26422 41697 72401 10167 20129 40122 52005 70282 82930;
0180264220999992000082218004+56960+024040FM-12+0007UMRR V0202401N003010300019N0100001N1+01541+01271101251ADDAA112001091AY181061AY221061GF107991031091012501031001KA1999M+01691MD1110031+9999MW1021REMSYN082AAXX  22181 26422 11697 72403 10154 20127 40125 51003 60012 70282 83930 333 10169;
0140264220999992000082221004+56960+024040FM-12+0007UMRR V0202801N004012200019N0100001N1+01431+01191101391ADDAY181031AY211031GF104991031011004501061001MD1210141+9999MW1011REMSYN066AAXX  22211 26422 41497 42804 10143 20119 40139 52014 70181 83160;
0171264220999992000082300004+56960+024040FM-12+0007UMRR V0202201N003012200019N0100001N1+01101+00981101411ADDAY181061AY211061GA1001+999999999GF100991001001999999001001MA1999999101091MD1110011+9999MW1021REMSYN066AAXX  23001 26422 41997 02203 10110 20098 30109 40141 51001 70281;
0140264220999992000082303004+56960+024040FM-12+0007UMRR V0202301N003010750019N0040001N1+01011+00901101401ADDAY111031AY211031GF106991021021012501041041MD1810011+9999MW1101REMSYN066AAXX  23031 26422 /1696 62303 10101 20090 40140 58001 71011 82244;
0152264220999992000082306004+56960+024040FM-12+0007UMRR V0202501N002010750019N0100001N1+01231+01101101401ADDAA112000791GF105991021021008001001091KA1999N+00971MD1310011+9999REMSYN076AAXX  23061 26422 12597 52502 10123 20110 40140 53001 69902 82209 333 20097;
0138264220999992000082309004+56960+024040FM-12+0007UMRR V0202901N00401004201CN0100001N1+01711+01151101431ADDGA1041+005709029GF107991071091004501001001MD1210031+9999REMSYN070AAXX  23091 26422 42497 72904 10171 20115 40143 52003 87900 333 84819;
0210264220999992000082312004+56960+024040FM-12+0007UMRR V0202901N00501007501CN0100001N1+01631+01081101461ADDAY191061AY281061GA1031+006609099GF107991051091008001031001MA1999999101151MD1210031+9999MW1021OA140101001REMSYN094AAXX  23121 26422 41597 72905 10163 20108 30115 40146 52003 70298 85930 333 83922 91010 91112;
0172264220999992000082315004+56960+024040FM-12+0007UMRR V0202701N003010030019N0100001N1+01521+01261101571ADDAY191031AY281031GA1061+003009099GF107991061091004501031001MD1210111+9999MW1951REMSYN082AAXX  23151 26422 41497 72703 10152 20126 40157 52011 79598 86930 333 86910 91110;
0208264220999992000082318004+56960+024040FM-12+0007UMRR V0202701N00301007501CN0100001N1+01361+01051101501ADDAA112006191AY191061AY281061GA1041+007809089GF106991061091008001031001KA1120M+01721MD1810071+9999MW1291REMSYN094AAXX  23181 26422 11597 62703 10136 20105 40150 58007 60062 72998 86930 333 10172 84826 91110;
0112264220999992000082321004+56960+024040FM-12+0007UMRR V0202501N002019999999N0100001N1+01191+01011101561ADDGF105991051001999999031001MD1310061+9999REMSYN060AAXX  23211 26422 42997 52502 10119 20101 40156 53006 85030;
0133264220999992000082400004+56960+024040FM-12+0007UMRR V0202301N002019999999N0100001N1+00971+00881101521ADDGF106991061001999999031001MA1999999101201MD1810051+9999REMSYN066AAXX  24001 26422 42997 62302 10097 20088 30120 40152 58005 86030;
0112264220999992000082403004+56960+024040FM-12+0007UMRR V0202401N002019999999N0100001N1+00991+00881101451ADDGF108991081001999999071999MD1710071+9999REMSYN060AAXX  24031 26422 /2997 82402 10099 20088 40145 57007 8807/;
0202264220999992000082406004+56960+024040FM-12+0007UMRR V0202101N002010099019N0100001N1+01151+01071101391ADDAA112001091AY181061AY221061GA1081+009909099GF108991081091012501999999KA1120N+00971MD1710051+9999MW1801REMSYN088AAXX  24061 26422 11697 82102 10115 20107 40139 57005 60012 78082 889// 333 20097 88933;
0166264220999992000082409004+56960+024040FM-12+0007UMRR V0201601N002010039019N0100001N1+01221+01171101301ADDAY181031AY221031GA1081+003909099GF108991081091004501999999MD1710101+9999MW1811REMSYN076AAXX  24091 26422 41497 81602 10122 20117 40130 57010 78182 889// 333 88913;
0187264220999992000082412004+56960+024040FM-12+0007UMRR V0202301N00301002101CN0100001N1+01361+01151101121ADDAY181061AY221061GA1041+002709069GF108991081091002501999999MA1999999100811MD1710171+9999MW1801REMSYN082AAXX  24121 26422 41397 82303 10136 20115 30081 40112 57017 78082 889// 333 84709;
0166264220999992000082415004+56960+024040FM-12+0007UMRR V0202401N005010114019N0100001N1+01401+01231101011ADDAY181031AY221031GA1081+011409099GF108991081091012501999999MD1710111+9999MW1811REMSYN076AAXX  24151 26422 41697 82405 10140 20123 40101 57011 78182 889// 333 88938;
0202264220999992000082418004+56960+024040FM-12+0007UMRR V0202301N002010108019N0100001N1+01201+01141100911ADDAA112008991AY181061AY221061GA1081+010809099GF108991081091012501999999KA1120M+01411MD1710101+9999MW1811REMSYN088AAXX  24181 26422 11697 82302 10120 20114 40091 57010 60092 78182 889// 333 10141 88936;
0166264220999992000082421004+56960+024040FM-12+0007UMRR V0202201N003010012019N0100001N1+01201+01171100711ADDAY181031AY221031GA1071+001209069GF108991081091001501999999MD1710201+9999MW1811REMSYN076AAXX  24211 26422 41297 82203 10120 20117 40071 57020 78182 889// 333 87704;
0187264220999992000082500004+56960+024040FM-12+0007UMRR V0202101N003010021019N0100001N1+01161+01121100531ADDAY181061AY221061GA1071+002109069GF108991081091002501999999MA1999999100221MD1710181+9999MW1811REMSYN082AAXX  25001 26422 41397 82103 10116 20112 30022 40053 57018 78182 889// 333 87707;
0166264220999992000082503004+56960+024040FM-12+0007UMRR V0202201N003010009019N0100001N1+01161+01121100441ADDAY181031AY221031GA1071+000909069GF108991081091000751999999MD1710091+9999MW1811REMSYN076AAXX  25031 26422 /1197 82203 10116 20112 40044 57009 78182 889// 333 87703;
0202264220999992000082506004+56960+024040FM-12+0007UMRR V0202601N002010018019N0100001N1+01181+01141100441ADDAA112008991AY181061AY221061GA1061+001809069GF107991071091002501001001KA1120N+01141MD1410001+9999MW1801REMSYN088AAXX  25061 26422 11397 72602 10118 20114 40044 54000 60092 78082 87900 333 20114 86706;
0172264220999992000082509004+56960+024040FM-12+0007UMRR V0200601N005010033019N0100001N1+01391+01161100661ADDAY181031AY221031GA1071+003309099GF108991071091004501071999MD1310221+9999MW1021REMSYN082AAXX  25091 26422 41497 80605 10139 20116 40066 53022 70282 8797/ 333 87911 91111;
0193264220999992000082512004+56960+024040FM-12+0007UMRR V0200101N003010042019N0100001N1+01371+01271100981ADDAY181061AY221061GA1051+004209099GF108991061091004501071999MA1999999100671MD1210321+9999MW1811REMSYN088AAXX  25121 26422 41497 80103 10137 20127 30067 40098 52032 78182 8697/ 333 85914 91111;
0140264220999992000082515004+56960+024040FM-12+0007UMRR V0200201N005010300019N0100001N1+01571+01111101181ADDAY181031AY221031GF108991031091008001071999MD1210201+9999MW1021REMSYN066AAXX  25151 26422 41597 80205 10157 20111 40118 52020 70282 8397/;
0180264220999992000082518004+56960+024040FM-12+0007UMRR V0200101N004019999999N0100001N1+01511+01071101441ADDAA112004191AY181061AY221061GF107991071001999999071001KA1999M+01641MD1210261+9999MW1021REMSYN082AAXX  25181 26422 11997 70104 10151 20107 40144 52026 60042 70282 87070 333 10164;
0133264220999992000082600004+56960+024040FM-12+0007UMRR V0200101N002012200019N0100001N1+01291+01171101781ADDGF101991011001999999071001MA1999999101471MD1210151+9999REMSYN066AAXX  26001 26422 42997 10102 10129 20117 30147 40178 52015 81070;
0152264220999992000082603004+56960+024040FM-12+0007UMRR V0200301N002012200019N0100001N1+01091+01021101921ADDAA199000091GA1001+999999999GF100991001001999999001001MD1210131+9999REMSYN054AAXX  26031 26422 32997 00302 10109 20102 40192 52013;EQDQ01  00002PRCP99
0175264220999992000082606004+56960+024040FM-12+0007UMRR V0200401N002012200019N0100001N1+01351+01191102121ADDAA199000091GA1001+999999999GF100991001001999999001001KA1999N+01001MD1210211+9999REMSYN064AAXX  26061 26422 32997 00402 10135 20119 40212 52021 333 20100;EQDQ01  00002PRCP99
0138264220999992000082609004+56960+024040FM-12+0007UMRR V0203601N002010069019N0100001N1+01761+01291102251ADDGA1051+006909099GF106991061091008001999999MD1210131+9999REMSYN070AAXX  26091 26422 42597 63602 10176 20129 40225 52013 869// 333 85923;
0159264220999992000082612004+56960+024040FM-12+0007UMRR V0203501N00401007501CN0100001N1+01901+01221102351ADDGA1031+008409099GF105991051091008001999999MA1999999102041MD1210101+9999REMSYN076AAXX  26121 26422 42597 53504 10190 20122 30204 40235 52010 859// 333 83928;
0112264220999992000082615004+56960+024040FM-12+0007UMRR V0200101N004012200019N0100001N1+01871+01251102431ADDGF103991021091008001081091MD1210081+9999REMSYN060AAXX  26151 26422 42597 30104 10187 20125 40243 52008 82989;
0165264220999992000082618004+56960+024040FM-12+0007UMRR V0200301N003012200019N0100001N1+01551+01191102511ADDAA199000091GF101991001001999999001011KA1999M+01991MD1210081+9999REMSYN070AAXX  26181 26422 32997 10303 10155 20119 40251 52008 80001 333 10199;EQDQ01  00002PRCP99
0122264220999992000082621004+56960+024040FM-12+0007UMRR V0200801N002012200019N0100001N1+01291+01151102621ADDGA1001+999999999GF100991001001999999001001MD1210101+9999REMSYN054AAXX  26211 26422 42997 00802 10129 20115 40262 52010;
0143264220999992000082700004+56960+024040FM-12+0007UMRR V0201301N002012200019N0100001N1+01111+00981102731ADDGA1001+999999999GF100991001001999999001001MA1999999102411MD1210111+9999REMSYN060AAXX  27001 26422 42997 01302 10111 20098 30241 40273 52011;
0180264220999992000082703004+56960+024040FM-12+0007UMRR V0201201N002012200019N0040001N1+00931+00861102801ADDAA199000091AY101031AY201031GA1001+999999999GF100991001001999999001001MD1210071+9999MW1101REMSYN060AAXX  27031 26422 31996 01202 10093 20086 40280 52007 71000;EQDQ01  00002PRCP99
0175264220999992000082706004+56960+024040FM-12+0007UMRR V0201301N002012200019N0100001N1+01231+01051102871ADDAA199000091GA1001+999999999GF100991001001999999001001KA1999N+00901MD1210071+9999REMSYN064AAXX  27061 26422 32997 01302 10123 20105 40287 52007 333 20090;EQDQ01  00002PRCP99
0111264220999992000082709004+56960+024040FM-12+0007UMRR V0201601N004012200019N0200001N1+01891+00851102901ADDGF101991999999008001999999MD1110041+9999REMSYN059AAXX  27091 26422 42598 11604 10189 20085 40290 51004 8100;
0159264220999992000082712004+56960+024040FM-12+0007UMRR V0200801N003010150019N0200001N1+02021+00861102901ADDGA1051+015009099GF105991051011017501001001MA1999999102591MD1010001+9999REMSYN076AAXX  27121 26422 42798 50803 10202 20086 30259 40290 50000 85100 333 85150;
0112264220999992000082715004+56960+024040FM-12+0007UMRR V0201301N003012200019N0200001N1+02101+00821102821ADDGF102991021041012501001001MD1710081+9999REMSYN060AAXX  27151 26422 42698 21303 10210 20082 40282 57008 82400;
0165264220999992000082718004+56960+024040FM-12+0007UMRR V0201201N002012200019N0200001N1+01701+01001102821ADDAA199000091GF101991001001999999001011KA1999M+02191MD1410001+9999REMSYN070AAXX  27181 26422 32998 11202 10170 20100 40282 54000 80001 333 10219;EQDQ01  00002PRCP99
0122264220999992000082721004+56960+024040FM-12+0007UMRR V0201301N003012200019N0100001N1+01251+01041102861ADDGA1001+999999999GF100991001001999999001001MD1310031+9999REMSYN054AAXX  27211 26422 42997 01303 10125 20104 40286 53003;
0171264220999992000082800004+56960+024040FM-12+0007UMRR V0201301N002012200019N0040001N1+01181+01031102891ADDAY101061AY201061GA1001+999999999GF100991001001999999001001MA1999999102571MD1210031+9999MW1101REMSYN066AAXX  28001 26422 41996 01302 10118 20103 30257 40289 52003 71000;
0170264220999992000082803004+56960+024040FM-12+0007UMRR V0201201N001012200019N0040001N1+01001+00881102911ADDAA199000091AY101031AY201031GF101991001001999999001011MD1110021+9999MW1101REMSYN066AAXX  28031 26422 31996 11201 10100 20088 40291 51002 71000 80001;EQDQ01  00002PRCP99
0165264220999992000082806004+56960+024040FM-12+0007UMRR V0201201N002012200019N0100001N1+01351+01031102891ADDAA199000091GF101991001001999999001011KA1999N+00961MD1810021+9999REMSYN070AAXX  28061 26422 32997 11202 10135 20103 40289 58002 80001 333 20096;EQDQ01  00002PRCP99
0122264220999992000082809004+56960+024040FM-12+0007UMRR V0201301N003012200019N0200001N1+01951+01021102851ADDGA1001+999999999GF100991001001999999001001MD1610031+9999REMSYN054AAXX  28091 26422 42998 01303 10195 20102 40285 56003;
0159264220999992000082812004+56960+024040FM-12+0007UMRR V0201401N002010090019N0200001N1+02131+01031102731ADDGA1061+009009029GF106991061011008001001001MA1999999102421MD1710121+9999REMSYN076AAXX  28121 26422 42598 61402 10213 20103 30242 40273 57012 86100 333 86830;
0138264220999992000082815004+56960+024040FM-12+0007UMRR V0201401N002010120019N0200001N1+02091+01071102611ADDGA1051+012009029GF105991051011012501001001MD1710121+9999REMSYN070AAXX  28151 26422 42698 51402 10209 20107 40261 57012 85100 333 85840;
0165264220999992000082818004+56960+024040FM-12+0007UMRR V0201401N002010300019N0100001N1+01901+01051102591ADDAA199000091GF105991031051012501031001KA1999M+02211MD1610021+9999REMSYN070AAXX  28181 26422 32697 51402 10190 20105 40259 56002 83530 333 10221;EQDQ01  00002PRCP99
0122264220999992000082821004+56960+024040FM-12+0007UMRR V0201401N002012200019N0100001N1+01571+01111102591ADDGA1001+999999999GF100991001001999999001001MD1810011+9999REMSYN054AAXX  28211 26422 42997 01402 10157 20111 40259 58001;
0133264220999992000082900004+56960+024040FM-12+0007UMRR V0201201N002019999999N0100001N1+01291+01071102581ADDGF105991051001999999031001MA1999999102261MD1610011+9999REMSYN066AAXX  29001 26422 42997 51202 10129 20107 30226 40258 56001 85030;
0168264220999992000082903004+56960+024040FM-12+0007UMRR V0201401N002010045019N0100001N1+01231+01051102511ADDAA199000091GA1051+004509059GF106991051051004501031001MD1710061+9999REMSYN070AAXX  29031 26422 32497 61402 10123 20105 40251 57006 85530 333 85615;EQDQ01  00002PRCP99
0165264220999992000082906004+56960+024040FM-12+0007UMRR V0201501N002019999999N0100001N1+01491+01081102481ADDAA199000091GF106991061001999999031001KA1999N+01201MD1610031+9999REMSYN070AAXX  29061 26422 32997 61502 10149 20108 40248 56003 86030 333 20120;EQDQ01  00002PRCP99
0122264220999992000082909004+56960+024040FM-12+0007UMRR V0201401N002012200019N0100001N1+02011+01221102441ADDGA1001+999999999GF100991001001999999001001MD1810041+9999REMSYN054AAXX  29091 26422 42997 01402 10201 20122 40244 58004;
0152264220999992000082912004+56960+024040FM-12+0007UMRR V0201801N003019999999N0200001N1+02281+01001102311ADDGF105991999021999999001001MA1999999102011MD1710121+9999REMSYN066AAXX  29121 26422 42998 51803 10228 20100 30201 40231 57012 80200;EQDQ01+000002SCOTLC
0138264220999992000082915004+56960+024040FM-12+0007UMRR V0201201N002012200019N0200001N1+02261+01301102211ADDGA1041+015009029GF104991041021017501001001MD1710101+9999REMSYN070AAXX  29151 26422 42798 41202 10226 20130 40221 57010 84200 333 84850;
0165264220999992000082918004+56960+024040FM-12+0007UMRR V0201301N002012200019N0100001N1+01881+01061102171ADDAA199000091GF102991021001999999031001KA1999M+02321MD1710051+9999REMSYN070AAXX  29181 26422 32997 21302 10188 20106 40217 57005 82030 333 10232;EQDQ01  00002PRCP99
0112264220999992000082921004+56960+024040FM-12+0007UMRR V0201401N003012200019N0100001N1+01551+01091102171ADDGF103991031001999999041001MD1410001+9999REMSYN060AAXX  29211 26422 42997 31403 10155 20109 40217 54000 83040;
0159264220999992000083000004+56960+024040FM-12+0007UMRR V0201501N002010180019N0100001N1+01391+01031102101ADDGA1051+018009029GF105991051021017501001001MA1999999101791MD1810071+9999REMSYN076AAXX  30001 26422 42797 51502 10139 20103 30179 40210 58007 85200 333 85856;
0168264220999992000083003004+56960+024040FM-12+0007UMRR V0201501N003010300019N0100001N1+01361+01041101981ADDAA199000091GA1021+002109069GF106991021061002501071001MD1710121+9999REMSYN070AAXX  30031 26422 32397 61503 10136 20104 40198 57012 82670 333 82707;EQDQ01  00002PRCP99
0187264220999992000083006004+56960+024040FM-12+0007UMRR V0201501N002010300019N0100001N1+01431+01031101931ADDAA199000091GA1021+002409069GF106991021061002501071001KA1120N+01311MD1610051+9999REMSYN076AAXX  30061 26422 32397 61502 10143 20103 40193 56005 82670 333 20131 82708;EQDQ01  00002PRCP99
0112264220999992000083009004+56960+024040FM-12+0007UMRR V0201501N003019999999N0100001N1+01951+01161101871ADDGF106991051001999999031011MD1710061+9999REMSYN060AAXX  30091 26422 42997 61503 10195 20116 40187 57006 85031;
0159264220999992000083012004+56960+024040FM-12+0007UMRR V0201301N002012200019N0100001N1+02251+00931101761ADDGA1041+007809029GF106991041011008001001011MA1999999101461MD1710101+9999REMSYN076AAXX  30121 26422 42597 61302 10225 20093 30146 40176 57010 84101 333 84826;
0138264220999992000083015004+56960+024040FM-12+0007UMRR V0201901N004010300019N0100001N1+02241+01021101621ADDGA1041+008709029GF106991041011008001031011MD1710141+9999REMSYN070AAXX  30151 26422 42597 61904 10224 20102 40162 57014 84131 333 84829;
0187264220999992000083018004+56960+024040FM-12+0007UMRR V0202301N001010099019N0100001N1+01781+01231101621ADDAA199000091GA1051+009909029GF106991051011012501031999KA1120M+02411MD1810011+9999REMSYN076AAXX  30181 26422 32697 62301 10178 20123 40162 58001 8513/ 333 10241 85833;EQDQ01  00002PRCP99
0138264220999992000083021004+56960+024040FM-12+0007UMRR V0201201N002010066019N0100001N1+01661+01421101541ADDGA1061+006609029GF107991061021008001041999MD1710081+9999REMSYN070AAXX  30211 26422 42597 71202 10166 20142 40154 57008 8624/ 333 86822;
0187264220999992000083100004+56960+024040FM-12+0007UMRR V0201701N002010030019N0100001N1+01531+01261101471ADDAY181061AY221061GA1081+003009099GF108991081091004501999999MA1999999101161MD1710071+9999MW1801REMSYN082AAXX  31001 26422 41497 81702 10153 20126 30116 40147 57007 78082 889// 333 88910;
0166264220999992000083103004+56960+024040FM-12+0007UMRR V0201801N002010048019N0100001N1+01431+01311101361ADDAY181031AY221031GA1061+004809029GF108991061011004501071999MD1710111+9999MW1021REMSYN076AAXX  31031 26422 /1497 81802 10143 20131 40136 57011 70282 8617/ 333 86816;
0202264220999992000083106004+56960+024040FM-12+0007UMRR V0202001N001010120019N0100001N1+01521+01331101331ADDAA112000791AY181061AY221061GA1051+012009099GF108991051091012501071999KA1120N+01431MD1610031+9999MW1801REMSYN088AAXX  31061 26422 11697 82001 10152 20133 40133 56003 69902 78082 8597/ 333 20143 85940;
0140264220999992000083109004+56960+024040FM-12+0007UMRR V0209999C000019999999N0100001N1+01711+01401101291ADDAY181031AY221031GF108991081001999999071999MD1810041+9999MW1251REMSYN066AAXX  31091 26422 41997 80000 10171 20140 40129 58004 72582 8807/;
0161264220999992000083112004+56960+024040FM-12+0007UMRR V0202201N002010300019N0100001N1+01831+01331101221ADDAY181061AY221061GF108991011021008001071999MA1999999100911MD1710071+9999MW1021REMSYN072AAXX  31121 26422 41597 82202 10183 20133 30091 40122 57007 70282 8127/;
0112264220999992000083115004+56960+024040FM-12+0007UMRR V0202201N001019999999N0100001N1+01991+01331101101ADDGF107991071001999999071001MD1710121+9999REMSYN060AAXX  31151 26422 42997 72201 10199 20133 40110 57012 87070;
0152264220999992000083118004+56960+024040FM-12+0007UMRR V0201901N002012200019N0100001N1+01591+01311101061ADDAA112000791GF104991041001999999071001KA1999M+02001MD1610041+9999REMSYN076AAXX  31181 26422 12997 41902 10159 20131 40106 56004 69902 84070 333 10200;
0166264220999992000083121004+56960+024040FM-12+0007UMRR V0201301N001010036019N0100001N1+01371+01351101031ADDAY181031AY221031GA1061+003609099GF108991061091004501071999MD1710041+9999MW1251REMSYN076AAXX  31211 26422 41497 81301 10137 20135 40103 57004 72582 8697/ 333 86912;
0171264220999992000090100004+56960+024040FM-12+0007UMRR V0202101N002012200019N0040001N1+01201+01191100981ADDAY181061AY211061GA1001+999999999GF100991001001999999001001MA1999999100771MD1710051+9999MW1101REMSYN066AAXX  01001 26422 41996 02102 10120 20119 30077 40098 57005 71081;
0140264220999992000090103004+56960+024040FM-12+0007UMRR V0202901N001012200019N0020001N1+01161+01151100941ADDAY101031AY201031GF102991021091008001001001MD1710041+9999MW1101REMSYN066AAXX  01031 26422 /1595 22901 10116 20115 40094 57004 71000 82900;
0180264220999992000090106004+56960+024040FM-12+0007UMRR V0209999C000012200019N0020001N1+01321+01311100921ADDAA112002091AY101061AY201061GF103991021001999999071011KA1999N+01131MD1710021+9999MW1101REMSYN082AAXX  01061 26422 11995 32500 10132 20131 40092 57002 60022 71000 82071 333 20113;
0138264220999992000090109004+56960+024040FM-12+0007UMRR V0202801N002010300019N0200001N1+01691+01161100891ADDGA1041+008109029GF106991021011008001031001MD1710031+9999REMSYN070AAXX  01091 26422 42598 62802 10169 20116 40089 57003 82130 333 84827;
0187264220999992000090112004+56960+024040FM-12+0007UMRR V0202801N001010120019N0100001N1+01621+01251100851ADDAY181061AY211061GA1051+012009099GF107991061091012501031001MA1999999100641MD1710041+9999MW1811REMSYN082AAXX  01121 26422 41697 72801 10162 20125 30064 40085 57004 78181 86930 333 85940;
0166264220999992000090115004+56960+024040FM-12+0007UMRR V0202501N002010099019N0100001N1+01741+01091100761ADDAY181031AY221031GA1051+009909099GF106991061091012501001001MD1710091+9999MW1021REMSYN076AAXX  01151 26422 41697 62502 10174 20109 40076 57009 70282 86900 333 85933;
0199264220999992000090118004+56960+024040FM-12+0007UMRR V0201801N002019999999N0100001N1+01431+01291100801ADDAA112000591AY181061AY221061GF106991999001999999071001KA1999M+02001MD1210041+9999MW1021REMSYN082AAXX  01181 26422 11997 61802 10143 20129 40080 52004 69962 70282 80070 333 10200;EQDQ01+000002SCOTLC
0122264220999992000090121004+56960+024040FM-12+0007UMRR V0202001N002012200019N0100001N1+01201+01161100781ADDGA1001+999999999GF100991001001999999001001MD1710021+9999REMSYN054AAXX  01211 26422 42997 02002 10120 20116 40078 57002;
0143264220999992000090200004+56960+024040FM-12+0007UMRR V0202301N002012200019N0100001N1+01071+01061100771ADDGA1001+999999999GF100991001001999999001001MA1999999100561MD1710011+9999REMSYN060AAXX  02001 26422 42997 02302 10107 20106 30056 40077 57001;
0166264220999992000090203004+56960+024040FM-12+0007UMRR V0202101N001010003019N0010001N1+00921+00911100771ADDAY111031AY211031GA1081+000309069GF108991081061000251999999MD1410001+9999MW1101REMSYN076AAXX  02031 26422 /1094 82101 10092 20091 40077 54000 71011 886// 333 88701;
0203264220999992000090206004+56960+024040FM-12+0007UMRR V0201701N001010003019N0002001N1+00951+00941100781ADDAA199000091AY141061AY211061GA1091+999999999GF109991091999999999999999KA1999N+00871MD1210011+9999MW1451REMSYN070AAXX  02061 26422 31/92 91701 10095 20094 40078 52001 74541 333 20087;EQDQ01  00002PRCP99
0140264220999992000090209004+56960+024040FM-12+0007UMRR V0202101N002012200019N0040001N1+01511+01321100791ADDAY141031AY211031GF104991031021004501031001MD1710011+9999MW1101REMSYN066AAXX  02091 26422 41496 42102 10151 20132 40079 57001 71041 83230;
0161264220999992000090212004+56960+024040FM-12+0007UMRR V0201201N003010300019N0100001N1+01831+01241100711ADDAY141061AY211061GF107991031021008001081041MA1999999100501MD1710081+9999MW1031REMSYN072AAXX  02121 26422 41597 71203 10183 20124 30050 40071 57008 70341 83284;
0112264220999992000090215004+56960+024040FM-12+0007UMRR V0201501N003012200019N0200001N1+01891+01091100611ADDGF106991021011008001001041MD1710101+9999REMSYN060AAXX  02151 26422 42598 61503 10189 20109 40061 57010 82104;
0165264220999992000090218004+56960+024040FM-12+0007UMRR V0201201N002019999999N0100001N1+01581+01131100611ADDAA199000091GF106991001001999999001091KA1999M+01951MD1410001+9999REMSYN070AAXX  02181 26422 32997 61202 10158 20113 40061 54000 80009 333 10195;EQDQ01  00002PRCP99
0112264220999992000090221004+56960+024040FM-12+0007UMRR V0201201N003012200019N0100001N1+01511+01101100511ADDGF104991021011004501081001MD1710101+9999REMSYN060AAXX  02211 26422 42497 41203 10151 20110 40051 57010 82180;
0143264220999992000090300004+56960+024040FM-12+0007UMRR V0201401N003012200019N0100001N1+01371+01131100391ADDGA1001+999999999GF100991001001999999001001MA1999999100181MD1710121+9999REMSYN060AAXX  03001 26422 42997 01403 10137 20113 30018 40039 57012;
0166264220999992000090303004+56960+024040FM-12+0007UMRR V0201501N002010027019N0100001N1+01311+01181100321ADDAY181031AY211031GA1061+002709069GF108991081091002501999999MD1710071+9999MW1801REMSYN076AAXX  03031 26422 /1397 81502 10131 20118 40032 57007 78081 889// 333 86709;
0202264220999992000090306004+56960+024040FM-12+0007UMRR V0201601N001010021019N0040001N1+01251+01231100331ADDAA112003091AY181061AY211061GA1061+002109069GF108991081091002501999999KA1120N+01231MD1310011+9999MW1811REMSYN088AAXX  03061 26422 11396 81601 10125 20123 40033 53001 60032 78181 889// 333 20123 86707;
0166264220999992000090309004+56960+024040FM-12+0007UMRR V0201801N002010009019N0040001N1+01451+01431100331ADDAY181031AY221031GA1071+000909069GF108991081091001501999999MD1410001+9999MW1251REMSYN076AAXX  03091 26422 41296 81802 10145 20143 40033 54000 72582 889// 333 87703;
0187264220999992000090312004+56960+024040FM-12+0007UMRR V0202001N002010300019N0100001N1+01761+01481100321ADDAY181061AY221061GA1041+004209099GF106991041091004501061001MA1999999100111MD1410001+9999MW1011REMSYN082AAXX  03121 26422 41497 62002 10176 20148 30011 40032 54001 70182 84960 333 84914;
0112264220999992000090315004+56960+024040FM-12+0007UMRR V0201701N002010750019N0100001N1+01911+01341100271ADDGF106991031021017501001031MD1810051+9999REMSYN060AAXX  03151 26422 42797 61702 10191 20134 40027 58005 83203;
0202264220999992000090318004+56960+024040FM-12+0007UMRR V0203401N003010018019N0100001N1+01271+01221100341ADDAA112009991AY191061AY281061GA1061+001809069GF108991081091002501999999KA1120M+02001MD1310071+9999MW1951REMSYN088AAXX  03181 26422 11397 83403 10127 20122 40034 53007 60102 79598 889// 333 10200 86706;
0166264220999992000090321004+56960+024040FM-12+0007UMRR V0202101N001012200019N0100001N1+01161+01151100401ADDAY191031AY281031GA1021+000909069GF103991031051001501001001MD1210061+9999MW1011REMSYN076AAXX  03211 26422 41297 32101 10116 20115 40040 52006 70198 83500 333 82703;
0171264220999992000090400004+56960+024040FM-12+0007UMRR V0201901N002012200019N0100001N1+01021+01011100371ADDAY191061AY281061GA1001+999999999GF100991001001999999001001MA1999999100161MD1810031+9999MW1021REMSYN066AAXX  04001 26422 41997 01902 10102 20101 30016 40037 58003 70298;
0108264220999992000090403004+56960+024040FM-12+0007UMRR V0202401N001019999999N0005001N1+00861+00851100371ADDAY141031AY201031MD1410001+9999MW1451REMSYN060AAXX  04031 26422 /1093 /2401 10086 20085 40037 54000 74540;
0180264220999992000090406004+56960+024040FM-12+0007UMRR V0209999C000012200019N0100001N1+01081+01071100391ADDAA112001091AY141061AY211061GF104991001001999999001091KA1999N+00811MD1310021+9999MW1021REMSYN082AAXX  04061 26422 11997 42300 10108 20107 40039 53002 60012 70241 80009 333 20081;
0112264220999992000090409004+56960+024040FM-12+0007UMRR V0202001N001012200019N0100001N1+01671+01301100401ADDGF104991021011008001001011MD1210011+9999REMSYN060AAXX  04091 26422 42597 42001 10167 20130 40040 52001 82101;
0159264220999992000090412004+56960+024040FM-12+0007UMRR V0201601N002010084019N0100001N1+01931+01381100391ADDGA1051+008409029GF106991051021008001041999MA1999999100181MD1710011+9999REMSYN076AAXX  04121 26422 42597 61602 10193 20138 30018 40039 57001 8524/ 333 85828;
0138264220999992000090415004+56960+024040FM-12+0007UMRR V0202101N00101007501CN0100001N1+01941+01211100401ADDGA1041+008109099GF106991061091008001999011MD1210011+9999REMSYN070AAXX  04151 26422 42597 62101 10194 20121 40040 52001 869/1 333 84927;
0215264220999992000090418004+56960+024040FM-12+0007UMRR V0200701N00201012001CN0100001N1+01461+01321100471ADDAA199000091AY191061AY221061GA1041+010509099GF106991061091012501021999KA1120M+02111MD1210071+9999MW1021REMSYN082AAXX  04181 26422 31697 60702 10146 20132 40047 52007 70292 8692/ 333 10211 84935;EQDQ01  00002PRCP99
0138264220999992000090421004+56960+024040FM-12+0007UMRR V0203501N001010300019N0100001N1+01211+01171100521ADDGA1041+009009029GF106991041011008001031999MD1210051+9999REMSYN070AAXX  04211 26422 42597 63501 10121 20117 40052 52005 8413/ 333 84830;
0133264220999992000090500004+56960+024040FM-12+0007UMRR V0200101N001012200019N0100001N1+01141+01121100591ADDGF102991021001999999031999MA1999999100381MD1210071+9999REMSYN066AAXX  05001 26422 42997 20101 10114 20112 30038 40059 52007 8203/;
0168264220999992000090503004+56960+024040FM-12+0007UMRR V0209999C000010024019N0100001N1+01181+01171100631ADDAA199000091GA1061+002409099GF108991081091002501999999MD1210041+9999REMSYN070AAXX  05031 26422 32397 82300 10118 20117 40063 52004 889// 333 86908;EQDQ01  00002PRCP99
0202264220999992000090506004+56960+024040FM-12+0007UMRR V0200401N003010027019N0100001N1+01311+01301100731ADDAA112000391AY181061AY221061GA1081+002709099GF108991081091002501999999KA1120N+01111MD1210101+9999MW1811REMSYN088AAXX  05061 26422 11397 80403 10131 20130 40073 52010 69932 78182 889// 333 20111 88909;
0166264220999992000090509004+56960+024040FM-12+0007UMRR V0200301N00401004201CN0100001N1+01471+01211100911ADDAY181031AY221031GA1041+005709099GF108991071091004501071999MD1210181+9999MW1021REMSYN076AAXX  05091 26422 41497 80304 10147 20121 40091 52018 70282 8797/ 333 84919;
0187264220999992000090512004+56960+024040FM-12+0007UMRR V0203501N004010087019N0100001N1+01481+01071101041ADDAY181061AY221061GA1051+008709099GF108991081091008001999999MA1999999100831MD1210131+9999MW1021REMSYN082AAXX  05121 26422 41597 83504 10148 20107 30083 40104 52013 70282 889// 333 85929;
0139264220999992000090515004+56960+024040FM-12+0007UMRR V0203401N006010300019N0100001N1+01511+01001101161ADDGF107991031091012501071011MD1210121+9999OA140101101REMSYN076AAXX  05151 26422 42697 73406 10151 20100 40116 52012 83971 333 91011 91113;
0180264220999992000090518004+56960+024040FM-12+0007UMRR V0203401N004010300019N0100001N1+01311+00831101311ADDAA112001091GA1041+013509069GF107991041041012501071011KA1120M+01581MD1210151+9999REMSYN088AAXX  05181 26422 12697 73404 10131 20083 40131 52015 60012 84471 333 10158 84645 91113;
0122264220999992000090521004+56960+024040FM-12+0007UMRR V0200201N003012200019N0100001N1+01061+00691101411ADDGA1001+999999999GF100991001001999999001001MD1210101+9999REMSYN054AAXX  05211 26422 42997 00203 10106 20069 40141 52010;
0143264220999992000090600004+56960+024040FM-12+0007UMRR V0200501N002012200019N0100001N1+00801+00561101501ADDGA1001+999999999GF100991001001999999001001MA1999999101281MD1210081+9999REMSYN060AAXX  06001 26422 42997 00502 10080 20056 30128 40150 52008;
0142264220999992000090603004+56960+024040FM-12+0007UMRR V0201101N001019999999N0100001N1+00621+00521101511ADDAA199000091GF107991071001999999071001MD1210011+9999REMSYN060AAXX  06031 26422 32997 71101 10062 20052 40151 52001 87070;EQDQ01  00002PRCP99
0202264220999992000090606004+56960+024040FM-12+0007UMRR V0202101N00201012001CN0100001N1+00891+00781101571ADDAA112000791AY181061AY211061GA1031+013209029GF108991061091012501071011KA1120N+00621MD1210061+9999MW1251REMSYN088AAXX  06061 26422 11697 82102 10089 20078 40157 52006 69902 72581 86971 333 20062 83844;
0140264220999992000090609004+56960+024040FM-12+0007UMRR V0200101N002012200019N0100001N1+01251+00671101611ADDAY181031AY221031GF106991031091017501001011MD1210051+9999MW1251REMSYN066AAXX  06091 26422 41797 60102 10125 20067 40161 52005 72582 83901;
0187264220999992000090612004+56960+024040FM-12+0007UMRR V0203401N00401012001CN0200001N1+01381+00561101601ADDAY181061AY221061GA1041+011709029GF107991051091012501081011MA1999999101391MD1810011+9999MW1031REMSYN082AAXX  06121 26422 41698 73404 10138 20056 30139 40160 58001 70382 85981 333 84839;
0112264220999992000090615004+56960+024040FM-12+0007UMRR V0209999C002012200019N0200001N1+01351+00431101571ADDGF105991011011008001001041MD1710031+9999REMSYN060AAXX  06151 26422 42598 50002 10135 20043 40157 57003 81104;
0152264220999992000090618004+56960+024040FM-12+0007UMRR V0200501N001012200019N0100001N1+00881+00531101581ADDAA112000191GF103991021041012501001011KA1999M+01491MD1410001+9999REMSYN076AAXX  06181 26422 12697 30501 10088 20053 40158 54000 69912 82401 333 10149;
0122264220999992000090621004+56960+024040FM-12+0007UMRR V0200901N002012200019N0100001N1+00631+00561101561ADDGA1001+999999999GF100991001001999999001001MD1710021+9999REMSYN054AAXX  06211 26422 42997 00902 10063 20056 40156 57002;
0171264220999992000090700004+56960+024040FM-12+0007UMRR V0201201N002012200019N0040001N1+00521+00481101541ADDAY101061AY201061GA1001+999999999GF100991001001999999001001MA1999999101321MD1710021+9999MW1101REMSYN066AAXX  07001 26422 41996 01202 10052 20048 30132 40154 57002 71000;
0180264220999992000090703004+56960+024040FM-12+0007UMRR V0201201N002012200019N0040001N1+00461+00441101551ADDAA199000091AY101031AY201031GA1001+999999999GF100991001001999999001001MD1210011+9999MW1101REMSYN060AAXX  07031 26422 31996 01202 10046 20044 40155 52001 71000;EQDQ01  00002PRCP99
0165264220999992000090706004+56960+024040FM-12+0007UMRR V0201101N001012200019N0100001N1+00861+00631101631ADDAA199000091GF102991021021012501001001KA1999N+00461MD1210081+9999REMSYN070AAXX  07061 26422 32697 21101 10086 20063 40163 52008 82200 333 20046;EQDQ01  00002PRCP99
0122264220999992000090709004+56960+024040FM-12+0007UMRR V0201201N002012200019N0200001N1+01371+00471101691ADDGA1001+999999999GF100991001001999999001001MD1210071+9999REMSYN054AAXX  07091 26422 42998 01202 10137 20047 40169 52007;
0159264220999992000090712004+56960+024040FM-12+0007UMRR V0200501N004012200019N0200001N1+01561+00331101691ADDGA1041+007509029GF104991041011008001001001MA1999999101481MD1410001+9999REMSYN076AAXX  07121 26422 42598 40504 10156 20033 30148 40169 54000 84100 333 84825;
0112264220999992000090715004+56960+024040FM-12+0007UMRR V0200601N003012200019N0200001N1+01481+00291101741ADDGF102991021001999999031001MD1210051+9999REMSYN060AAXX  07151 26422 42998 20603 10148 20029 40174 52005 82030;
0175264220999992000090718004+56960+024040FM-12+0007UMRR V0200601N002012200019N0100001N1+00971+00521101861ADDAA199000091GA1001+999999999GF100991001001999999001001KA1999M+01711MD1210111+9999REMSYN064AAXX  07181 26422 32997 00602 10097 20052 40186 52011 333 10171;EQDQ01  00002PRCP99
0122264220999992000090721004+56960+024040FM-12+0007UMRR V0200801N001012200019N0100001N1+00651+00541101981ADDGA1001+999999999GF100991001001999999001001MD1210121+9999REMSYN054AAXX  07211 26422 42997 00801 10065 20054 40198 52012;
0133264220999992000090800004+56960+024040FM-12+0007UMRR V0201201N002012200019N0100001N1+00781+00471101941ADDGF103991031001999999031001MA1999999101721MD1710041+9999REMSYN066AAXX  08001 26422 42997 31202 10078 20047 30172 40194 57004 83030;
0152264220999992000090803004+56960+024040FM-12+0007UMRR V0201601N002012200019N0100001N1+00491+00451102031ADDAA199000091GA1001+999999999GF100991001001999999001001MD1210091+9999REMSYN054AAXX  08031 26422 32997 01602 10049 20045 40203 52009;EQDQ01  00002PRCP99
0165264220999992000090806004+56960+024040FM-12+0007UMRR V0201601N002019999999N0100001N1+00791+00611102051ADDAA199000091GF108991001001999999001041KA1999N+00441MD1210021+9999REMSYN070AAXX  08061 26422 32997 81602 10079 20061 40205 52002 80004 333 20044;EQDQ01  00002PRCP99
0112264220999992000090809004+56960+024040FM-12+0007UMRR V0201801N002019999999N0200001N1+01351+00701102031ADDGF108991041001999999011061MD1410001+9999REMSYN060AAXX  08091 26422 42998 81802 10135 20070 40203 54001 84016;
0133264220999992000090812004+56960+024040FM-12+0007UMRR V0201801N004019999999N0200001N1+01431+00681101861ADDGF108991081001999999051999MA1999999101651MD1710171+9999REMSYN066AAXX  08121 26422 42998 81804 10143 20068 30165 40186 57017 8805/;
0112264220999992000090815004+56960+024040FM-12+0007UMRR V0201901N003019999999N0100001N1+01461+00801101801ADDGF108991081001999999051999MD1710061+9999REMSYN060AAXX  08151 26422 42997 81903 10146 20080 40180 57006 8805/;
0202264220999992000090818004+56960+024040FM-12+0007UMRR V0201801N004010300019N0100001N1+01301+00861101691ADDAA112000791AY151061AY221061GA1031+002709069GF108991031061002501051999KA1120M+01531MD1710111+9999MW1201REMSYN088AAXX  08181 26422 11397 81804 10130 20086 40169 57011 69902 72052 8365/ 333 10153 83709;
0138264220999992000090821004+56960+024040FM-12+0007UMRR V0201801N004010063019N0100001N1+01321+00901101581ADDGA1081+006309059GF108991081051008001999999MD1710111+9999REMSYN070AAXX  08211 26422 42597 81804 10132 20090 40158 57011 885// 333 88621;
0159264220999992000090900004+56960+024040FM-12+0007UMRR V0201801N004010027019N0100001N1+01311+01071101491ADDGA1061+002709069GF108991081091002501999999MA1999999101281MD1710091+9999REMSYN076AAXX  09001 26422 42397 81804 10131 20107 30128 40149 57009 889// 333 86709;
0138264220999992000090903004+56960+024040FM-12+0007UMRR V0202201N003010021019N0100001N1+01401+01351101471ADDGA1061+002109069GF108991081091002501999999MD1710021+9999REMSYN070AAXX  09031 26422 /2397 82203 10140 20135 40147 57002 889// 333 86707;
0168264220999992000090906004+56960+024040FM-12+0007UMRR V0202401N004010015019N0200001N1+01461+01321101571ADDAA199000021GA1051+001509069GF107991061021001501071001KA1120N+01281MD1210101+9999REMSYN076AAXX  09061 26422 32298 72404 10146 20132 40157 52010 86270 333 20128 85705;
0138264220999992000090909004+56960+024040FM-12+0007UMRR V0202601N004010069019N0100001N1+01671+01201101661ADDGA1051+006909029GF106991051011008001001011MD1210091+9999REMSYN070AAXX  09091 26422 42597 62604 10167 20120 40166 52009 85101 333 85823;
0165264220999992000090912004+56960+024040FM-12+0007UMRR V0202501N004010300019N0100001N1+01841+01071101701ADDGA1041+008709089GF108991041011008001051999MA1999999101491MD1210041+9999REMSYN082AAXX  09121 26422 42597 82504 10184 20107 30149 40170 52004 8415/ 333 84829 91111;
0144264220999992000090915004+56960+024040FM-12+0007UMRR V0202601N003012200019N0100001N1+01861+00881101731ADDGA1041+006609089GF104991041011008001001001MD1210031+9999REMSYN076AAXX  09151 26422 42597 42603 10186 20088 40173 52003 84100 333 84822 91111;
0165264220999992000090918004+56960+024040FM-12+0007UMRR V0202501N003012200019N0100001N1+01411+00951101801ADDAA199000091GF102991001001999999001011KA1999M+01991MD1210071+9999REMSYN070AAXX  09181 26422 32997 22503 10141 20095 40180 52007 80001 333 10199;EQDQ01  00002PRCP99
0122264220999992000090921004+56960+024040FM-12+0007UMRR V0202301N003012200019N0100001N1+01271+01091101761ADDGA1001+999999999GF100991001001999999001001MD1710041+9999REMSYN054AAXX  09211 26422 42997 02303 10127 20109 40176 57004;
0159264220999992000091000004+56960+024040FM-12+0007UMRR V0202301N003010048019N0100001N1+01261+01171101711ADDGA1061+004809029GF108991061011004501051999MA1999999101501MD1710051+9999REMSYN076AAXX  10001 26422 42497 82303 10126 20117 30150 40171 57005 8615/ 333 86816;
0152264220999992000091003004+56960+024040FM-12+0007UMRR V0202201N003012200019N0100001N1+01181+01141101641ADDAA199000091GA1001+999999999GF100991001001999999001001MD1710071+9999REMSYN054AAXX  10031 26422 32997 02203 10118 20114 40164 57007;EQDQ01  00002PRCP99
0165264220999992000091006004+56960+024040FM-12+0007UMRR V0202401N003012200019N0100001N1+01311+01191101591ADDAA199000091GF103991021011008001001011KA1999N+01151MD1710051+9999REMSYN070AAXX  10061 26422 32597 32403 10131 20119 40159 57005 82101 333 20115;EQDQ01  00002PRCP99
0161264220999992000091009004+56960+024040FM-12+0007UMRR V0202501N00401007501CN0100001N1+01551+01021101571ADDGA1031+007209089GF108991051091008001071999MD1710021+9999OA140101001REMSYN082AAXX  10091 26422 42597 82504 10155 20102 40157 57002 8597/ 333 83824 91010 91111;
0143264220999992000091012004+56960+024040FM-12+0007UMRR V0202601N003010300019N0100001N1+01591+00901101551ADDGF108991031021012501071999MA1999999101341MD1710021+9999REMSYN076AAXX  10121 26422 42697 82603 10159 20090 30134 40155 57002 8327/ 333 91111;
0112264220999992000091015004+56960+024040FM-12+0007UMRR V0202601N004010300019N0100001N1+01501+00881101421ADDGF108991021021008001071999MD1710131+9999REMSYN060AAXX  10151 26422 42597 82604 10150 20088 40142 57013 8227/;
0165264220999992000091018004+56960+024040FM-12+0007UMRR V0202501N002012200019N0100001N1+01231+00921101391ADDAA199000091GF104991021001999999071011KA1999M+01661MD1710031+9999REMSYN070AAXX  10181 26422 32997 42502 10123 20092 40139 57003 82071 333 10166;EQDQ01  00002PRCP99
0112264220999992000091021004+56960+024040FM-12+0007UMRR V0202601N002012200019N0100001N1+01071+00951101341ADDGF102991021001999999071001MD1710051+9999REMSYN060AAXX  10211 26422 42997 22602 10107 20095 40134 57005 82070;
0143264220999992000091100004+56960+024040FM-12+0007UMRR V0202401N002012200019N0100001N1+00901+00881101331ADDGA1001+999999999GF100991001001999999001001MA1999999101111MD1710021+9999REMSYN060AAXX  11001 26422 42997 02402 10090 20088 30111 40133 57002;
0152264220999992000091103004+56960+024040FM-12+0007UMRR V0202501N003012200019N0100001N1+00851+00841101361ADDAA199000091GA1001+999999999GF100991001001999999001001MD1210031+9999REMSYN054AAXX  11031 26422 32997 02503 10085 20084 40136 52003;EQDQ01  00002PRCP99
0165264220999992000091106004+56960+024040FM-12+0007UMRR V0202601N002012200019N0100001N1+01061+01021101361ADDAA199000091GF101991011021012501001001KA1999N+00841MD1210011+9999REMSYN070AAXX  11061 26422 32697 12602 10106 20102 40136 52001 81200 333 20084;EQDQ01  00002PRCP99
0138264220999992000091109004+56960+024040FM-12+0007UMRR V0202901N003010069019N0100001N1+01511+01041101381ADDGA1061+006909029GF106991061011008001001001MD1210021+9999REMSYN070AAXX  11091 26422 42597 62903 10151 20104 40138 52002 86100 333 86823;
0159264220999992000091112004+56960+024040FM-12+0007UMRR V0202601N002010069019N0100001N1+01641+01001101331ADDGA1051+006909029GF105991051011008001001001MA1999999101121MD1210051+9999REMSYN076AAXX  11121 26422 42597 52602 10164 20100 30112 40133 52005 85100 333 85823;
0166264220999992000091115004+56960+024040FM-12+0007UMRR V0202901N00301007501CN0200001N1+01581+01051101211ADDAY181031AY221031GA1031+007809099GF106991051091008001031001MD1710121+9999MW1251REMSYN076AAXX  11151 26422 41598 62903 10158 20105 40121 57012 72582 85930 333 83926;
0180264220999992000091118004+56960+024040FM-12+0007UMRR V0202701N003010300019N0100001N1+01331+00911101191ADDAA112000591AY181061AY221061GF106991031091008001031001KA1999M+01871MD1710021+9999MW1021REMSYN082AAXX  11181 26422 11597 62703 10133 20091 40119 57002 69962 70282 83930 333 10187;
0172264220999992000091121004+56960+024040FM-12+0007UMRR V0203201N003010093019N0100001N1+01091+00911101251ADDAY181031AY221031GA1051+009309099GF106991051091008001031001MD1210061+9999MW1021REMSYN082AAXX  11211 26422 41597 63203 10109 20091 40125 52006 70282 85930 333 85931 91110;
0171264220999992000091200004+56960+024040FM-12+0007UMRR V0203101N002010300019N0100001N1+00971+00761101281ADDAY181061AY221061GF105991031011008001031001MA1999999101071MD1210031+9999MW1021REMSYN082AAXX  12001 26422 41597 53102 10097 20076 30107 40128 52003 70282 83130 333 91110;
0112264220999992000091203004+56960+024040FM-12+0007UMRR V0202701N003010300019N0100001N1+00951+00791101301ADDGF105991031091008001031001MD1210021+9999REMSYN060AAXX  12031 26422 /2597 52703 10095 20079 40130 52002 83930;
0180264220999992000091206004+56960+024040FM-12+0007UMRR V0202601N003010300019N0100001N1+00961+00881101351ADDAA112002091AY181061AY221061GF105991031091008001031001KA1999N+00891MD1210051+9999MW1021REMSYN082AAXX  12061 26422 11597 52603 10096 20088 40135 52005 60022 70282 83930 333 20089;
0144264220999992000091209004+56960+024040FM-12+0007UMRR V0202801N004010054019N0100001N1+01251+00911101421ADDGA1061+005409099GF106991061091004501001001MD1210071+9999REMSYN076AAXX  12091 26422 42497 62804 10125 20091 40142 52007 86900 333 86918 91110;
0193264220999992000091212004+56960+024040FM-12+0007UMRR V0203201N00601007501CN0200001N1+01551+00931101441ADDAY181061AY221061GA1031+006909029GF106991061091008001001001MA1999999101231MD1210021+9999MW1021REMSYN088AAXX  12121 26422 41598 63206 10155 20093 30123 40144 52002 70282 86900 333 83223 91110;
0112264220999992000091215004+56960+024040FM-12+0007UMRR V0203401N004012200019N0200001N1+01491+00881101471ADDGF104991031021008001031001MD1210031+9999REMSYN060AAXX  12151 26422 42598 43404 10149 20088 40147 52003 83230;
0174264220999992000091218004+56960+024040FM-12+0007UMRR V0203101N004010060019N0100001N1+01251+00831101501ADDAA112000591GA1051+006009029GF105991051021008001001001KA1120M+01621MD1210031+9999REMSYN082AAXX  12181 26422 12597 53104 10125 20083 40150 52003 69942 85200 333 10162 85820;
0166264220999992000091221004+56960+024040FM-12+0007UMRR V0200301N001010300019N0100001N1+01121+00941101551ADDAY181031AY221031GA1021+005109029GF106991041091004501031001MD1210051+9999MW1031REMSYN076AAXX  12211 26422 41497 60301 10112 20094 40155 52005 70382 84930 333 82817;
0187264220999992000091300004+56960+024040FM-12+0007UMRR V0202001N00101004201CN0100001N1+00861+00821101601ADDAY181061AY221061GA1041+005409029GF106991061091004501001001MA1999999101381MD1210041+9999MW1021REMSYN082AAXX  13001 26422 41497 62001 10086 20082 30138 40160 52004 70282 86900 333 84818;
0112264220999992000091303004+56960+024040FM-12+0007UMRR V0201801N002012200019N0100001N1+00631+00621101551ADDGF104991021021008001031001MD1710051+9999REMSYN060AAXX  13031 26422 /2597 41802 10063 20062 40155 57005 82230;
0152264220999992000091306004+56960+024040FM-12+0007UMRR V0201801N001012200019N0100001N1+00701+00691101541ADDAA112000391GF102991021021008001001011KA1999N+00571MD1710011+9999REMSYN076AAXX  13061 26422 12597 21801 10070 20069 40154 57001 69932 82201 333 20057;
0138264220999992000091309004+56960+024040FM-12+0007UMRR V0201101N00101012001CN0100001N1+01381+00881101551ADDGA1041+010209029GF107991061091012501001011MD1210021+9999REMSYN070AAXX  13091 26422 42697 71101 10138 20088 40155 52002 86901 333 84834;
0187264220999992000091312004+56960+024040FM-12+0007UMRR V0203501N00201007501CN0100001N1+01571+00791101511ADDAY181061AY211061GA1031+008709029GF108991061091008001001011MA1999999101301MD1710041+9999MW1021REMSYN082AAXX  13121 26422 41597 83502 10157 20079 30130 40151 57004 70281 86901 333 83829;
0112264220999992000091315004+56960+024040FM-12+0007UMRR V0200701N002010750019N0100001N1+01501+00821101491ADDGF108991021021012501001091MD1710021+9999REMSYN060AAXX  13151 26422 42697 80702 10150 20082 40149 57002 82209;
0152264220999992000091318004+56960+024040FM-12+0007UMRR V0200601N002012200019N0100001N1+01051+00781101501ADDAA112000791GF104991021001999999071011KA1999M+01621MD1210011+9999REMSYN076AAXX  13181 26422 12997 40602 10105 20078 40150 52001 69902 82071 333 10162;
0112264220999992000091321004+56960+024040FM-12+0007UMRR V0200901N002012200019N0100001N1+01021+00741101501ADDGF102991001001999999001011MD1410001+9999REMSYN060AAXX  13211 26422 42997 20902 10102 20074 40150 54000 80001;
0133264220999992000091400004+56960+024040FM-12+0007UMRR V0200801N002012200019N0100001N1+00851+00671101521ADDGF104991001001999999001011MA1999999101301MD1210011+9999REMSYN066AAXX  14001 26422 42997 40802 10085 20067 30130 40152 52001 80001;
0152264220999992000091403004+56960+024040FM-12+0007UMRR V0200901N002012200019N0100001N1+00701+00521101481ADDAA199000091GA1001+999999999GF100991001001999999001001MD1710041+9999REMSYN054AAXX  14031 26422 32997 00902 10070 20052 40148 57004;EQDQ01  00002PRCP99
0175264220999992000091406004+56960+024040FM-12+0007UMRR V0200801N002012200019N0100001N1+00851+00611101571ADDAA199000091GA1001+999999999GF100991001001999999001001KA1999N+00561MD1210091+9999REMSYN064AAXX  14061 26422 32997 00802 10085 20061 40157 52009 333 20056;EQDQ01  00002PRCP99
0122264220999992000091409004+56960+024040FM-12+0007UMRR V0200501N003012200019N0100001N1+01401+00631101671ADDGA1001+999999999GF100991001001999999001001MD1210111+9999REMSYN054AAXX  14091 26422 42997 00503 10140 20063 40167 52011;
0159264220999992000091412004+56960+024040FM-12+0007UMRR V0200201N004010096019N0100001N1+01551+00721101711ADDGA1051+009609029GF105991051021008001001001MA1999999101501MD1210041+9999REMSYN076AAXX  14121 26422 42597 50204 10155 20072 30150 40171 52004 85200 333 85832;
0112264220999992000091415004+56960+024040FM-12+0007UMRR V0203501N003012200019N0200001N1+01361+00541101761ADDGF102991021011008001001001MD1210051+9999REMSYN060AAXX  14151 26422 42598 23503 10136 20054 40176 52005 82100;
0187264220999992000091418004+56960+024040FM-12+0007UMRR V0200501N002010141019N0100001N1+01131+00731101851ADDAA199000091GA1061+014109029GF106991061021012501001001KA1120M+01581MD1210091+9999REMSYN076AAXX  14181 26422 32697 60502 10113 20073 40185 52009 86200 333 10158 86847;EQDQ01  00002PRCP99
0112264220999992000091421004+56960+024040FM-12+0007UMRR V0200601N002012200019N0100001N1+00841+00631101951ADDGF102991001001999999001011MD1210091+9999REMSYN060AAXX  14211 26422 42997 20602 10084 20063 40195 52009 80001;
0133264220999992000091500004+56960+024040FM-12+0007UMRR V0200401N002019999999N0100001N1+00641+00541102041ADDGF106991061001999999031999MA1999999101821MD1210091+9999REMSYN066AAXX  15001 26422 42997 60402 10064 20054 30182 40204 52009 8603/;
0142264220999992000091503004+56960+024040FM-12+0007UMRR V0200301N002012200019N0100001N1+00641+00591102131ADDAA199000091GF103991031001999999031999MD1210091+9999REMSYN060AAXX  15031 26422 32997 30302 10064 20059 40213 52009 8303/;EQDQ01  00002PRCP99
0165264220999992000091506004+56960+024040FM-12+0007UMRR V0200501N002012200019N0100001N1+00701+00681102231ADDAA199000091GF102991021021012501999999KA1999N+00491MD1210101+9999REMSYN070AAXX  15061 26422 32697 20502 10070 20068 40223 52010 822// 333 20049;EQDQ01  00002PRCP99
0112264220999992000091509004+56960+024040FM-12+0007UMRR V0200301N003010075019N0200001N1+01071+00641102371ADDGF105991051021008001001001MD1210141+9999REMSYN060AAXX  15091 26422 42598 50303 10107 20064 40237 52014 85200;
0133264220999992000091512004+56960+024040FM-12+0007UMRR V0203601N003012200019N0200001N1+01411+00541102351ADDGF102991021021012501001001MA1999999102141MD1410001+9999REMSYN066AAXX  15121 26422 42698 23603 10141 20054 30214 40235 54001 82200;
0112264220999992000091515004+56960+024040FM-12+0007UMRR V0203501N004012200019N0200001N1+01231+00521102341ADDGF101991011021012501001001MD1710011+9999REMSYN060AAXX  15151 26422 42698 13504 10123 20052 40234 57001 81200;
0165264220999992000091518004+56960+024040FM-12+0007UMRR V0200301N002012200019N0100001N1+00831+00521102391ADDAA199000091GF103991031021008001001001KA1999M+01441MD1210041+9999REMSYN070AAXX  15181 26422 32597 30302 10083 20052 40239 52004 83200 333 10144;EQDQ01  00002PRCP99
0112264220999992000091521004+56960+024040FM-12+0007UMRR V0200801N002019999999N0100001N1+00841+00511102451ADDGF106991061001000251031001MD1210061+9999REMSYN060AAXX  15211 26422 42097 60802 10084 20051 40245 52006 86030;
0133264220999992000091600004+56960+024040FM-12+0007UMRR V0201201N002019999999N0100001N1+00681+00401102431ADDGF107991071001000251031001MA1999999102211MD1710021+9999REMSYN066AAXX  16001 26422 42097 71202 10068 20040 30221 40243 57002 87030;
0142264220999992000091603004+56960+024040FM-12+0007UMRR V0201101N002012200019N0100001N1+00591+00351102401ADDAA199000091GF102991021001000251031001MD1710031+9999REMSYN060AAXX  16031 26422 32097 21102 10059 20035 40240 57003 82030;EQDQ01  00002PRCP99
0165264220999992000091606004+56960+024040FM-12+0007UMRR V0201201N001012200019N0100001N1+00671+00361102401ADDAA199000091GF101991011001000251031001KA1999N+00391MD1410001+9999REMSYN070AAXX  16061 26422 32097 11201 10067 20036 40240 54000 81030 333 20039;EQDQ01  00002PRCP99
0122264220999992000091609004+56960+024040FM-12+0007UMRR V0201101N002012200019N0100001N1+01171+00181102371ADDGA1001+999999999GF100991001001999999001001MD1710031+9999REMSYN054AAXX  16091 26422 43997 01102 10117 20018 40237 57003;
0133264220999992000091612004+56960+024040FM-12+0007UMRR V0201601N002012200019N0200001N1+01361+00021102231ADDGF102991021001999999031001MA1999999102021MD1710131+9999REMSYN066AAXX  16121 26422 42998 21602 10136 20002 30202 40223 57013 82030;
0112264220999992000091615004+56960+024040FM-12+0007UMRR V0200901N002012200019N0200001N1+01261+00061102141ADDGF102991021001999999031001MD1710091+9999REMSYN060AAXX  16151 26422 42998 20902 10126 20006 40214 57009 82030;
0165264220999992000091618004+56960+024040FM-12+0007UMRR V0201001N001012200019N0100001N1+00681+00371102191ADDAA199000091GF102991021001999999031001KA1999M+01431MD1210041+9999REMSYN070AAXX  16181 26422 32997 21001 10068 20037 40219 52004 82030 333 10143;EQDQ01  00002PRCP99
0122264220999992000091621004+56960+024040FM-12+0007UMRR V0201101N002012200019N0100001N1+00451+00361102241ADDGA1001+999999999GF100991001001999999001001MD1210051+9999REMSYN054AAXX  16211 26422 42997 01102 10045 20036 40224 52005;
0143264220999992000091700004+56960+024040FM-12+0007UMRR V0201301N002012200019N0100001N1+00501+00331102261ADDGA1001+999999999GF100991001001999999001001MA1999999102041MD1210021+9999REMSYN060AAXX  17001 26422 42997 01302 10050 20033 30204 40226 52002;
0152264220999992000091703004+56960+024040FM-12+0007UMRR V0201401N002012200019N0100001N1+00311+00271102271ADDAA199000091GA1001+999999999GF100991001001999999001001MD1210011+9999REMSYN054AAXX  17031 26422 32997 01402 10031 20027 40227 52001;EQDQ01  00002PRCP99
0175264220999992000091706004+56960+024040FM-12+0007UMRR V0201301N001012200019N0100001N1+00581+00411102391ADDAA199000091GA1001+999999999GF100991001001999999001001KA1999N+00251MD1210121+9999REMSYN064AAXX  17061 26422 32997 01301 10058 20041 40239 52012 333 20025;EQDQ01  00002PRCP99
0122264220999992000091709004+56960+024040FM-12+0007UMRR V0201001N003012200019N0200001N1+01121+00411102391ADDGA1001+999999999GF100991001001999999001001MD1410001+9999REMSYN054AAXX  17091 26422 42998 01003 10112 20041 40239 54000;
0143264220999992000091712004+56960+024040FM-12+0007UMRR V0201101N003012200019N0200001N1+01381+00351102291ADDGA1001+999999999GF100991001001999999001001MA1999999102081MD1710091+9999REMSYN060AAXX  17121 26422 42998 01103 10138 20035 30208 40229 57009;
0122264220999992000091715004+56960+024040FM-12+0007UMRR V0201501N003012200019N0200001N1+01341+00391102211ADDGA1001+999999999GF100991001001999999001001MD1710081+9999REMSYN054AAXX  17151 26422 42998 01503 10134 20039 40221 57008;
0175264220999992000091718004+56960+024040FM-12+0007UMRR V0201601N002012200019N0100001N1+00811+00461102321ADDAA199000091GA1001+999999999GF100991001001999999001001KA1999M+01461MD1210101+9999REMSYN064AAXX  17181 26422 32997 01602 10081 20046 40232 52010 333 10146;EQDQ01  00002PRCP99
0122264220999992000091721004+56960+024040FM-12+0007UMRR V0201201N002012200019N0100001N1+00641+00501102381ADDGA1001+999999999GF100991001001999999001001MD1210061+9999REMSYN054AAXX  17211 26422 42997 01202 10064 20050 40238 52006;
0143264220999992000091800004+56960+024040FM-12+0007UMRR V0201101N001012200019N0100001N1+00421+00341102441ADDGA1001+999999999GF100991001001999999001001MA1999999102221MD1210061+9999REMSYN060AAXX  18001 26422 42997 01101 10042 20034 30222 40244 52006;
0152264220999992000091803004+56960+024040FM-12+0007UMRR V0201101N002012200019N0100001N1+00431+00271102451ADDAA199000091GA1001+999999999GF100991001001999999001001MD1210011+9999REMSYN054AAXX  18031 26422 32997 01102 10043 20027 40245 52001;EQDQ01  00002PRCP99
0175264220999992000091806004+56960+024040FM-12+0007UMRR V0200901N002012200019N0100001N1+00651+00321102501ADDAA199000091GA1001+999999999GF100991001001999999001001KA1999N+00261MD1210051+9999REMSYN064AAXX  18061 26422 32997 00902 10065 20032 40250 52005 333 20026;EQDQ01  00002PRCP99
0122264220999992000091809004+56960+024040FM-12+0007UMRR V0201401N003012200019N0200001N1+01211+00401102471ADDGA1001+999999999GF100991001001999999001001MD1710031+9999REMSYN054AAXX  18091 26422 42998 01403 10121 20040 40247 57003;
0133264220999992000091812004+56960+024040FM-12+0007UMRR V0201401N003012200019N0200001N1+01381+00351102341ADDGF102991021001999999031001MA1999999102131MD1710121+9999REMSYN066AAXX  18121 26422 42998 21403 10138 20035 30213 40234 57012 82030;
0112264220999992000091815004+56960+024040FM-12+0007UMRR V0201101N002012200019N0200001N1+01381+00321102241ADDGF101991001001999999001091MD1710101+9999REMSYN060AAXX  18151 26422 42998 11102 10138 20032 40224 57010 80009;
0175264220999992000091818004+56960+024040FM-12+0007UMRR V0201201N002012200019N0100001N1+01061+00381102281ADDAA199000091GA1001+999999999GF100991001001999999001001KA1999M+01501MD1210031+9999REMSYN064AAXX  18181 26422 32997 01202 10106 20038 40228 52003 333 10150;EQDQ01  00002PRCP99
0122264220999992000091821004+56960+024040FM-12+0007UMRR V0200801N002012200019N0100001N1+00741+00371102321ADDGA1001+999999999GF100991001001999999001001MD1210041+9999REMSYN054AAXX  18211 26422 42997 00802 10074 20037 40232 52004;
0143264220999992000091900004+56960+024040FM-12+0007UMRR V0200901N002012200019N0100001N1+00431+00301102321ADDGA1001+999999999GF100991001001999999001001MA1999999102101MD1410001+9999REMSYN060AAXX  19001 26422 42997 00902 10043 20030 30210 40232 54000;
0152264220999992000091903004+56960+024040FM-12+0007UMRR V0200801N002012200019N0100001N1+00411+00271102341ADDAA199000091GA1001+999999999GF100991001001999999001001MD1210021+9999REMSYN054AAXX  19031 26422 32997 00802 10041 20027 40234 52002;EQDQ01  00002PRCP99
0175264220999992000091906004+56960+024040FM-12+0007UMRR V0200701N002012200019N0100001N1+00671+00391102341ADDAA199000091GA1001+999999999GF100991001001999999001001KA1999N+00311MD1410001+9999REMSYN064AAXX  19061 26422 32997 00702 10067 20039 40234 54000 333 20031;EQDQ01  00002PRCP99
0122264220999992000091909004+56960+024040FM-12+0007UMRR V0200801N003012200019N0100001N1+01331+00461102311ADDGA1001+999999999GF100991001001999999001001MD1710021+9999REMSYN054AAXX  19091 26422 42997 00803 10133 20046 40231 57002;
0143264220999992000091912004+56960+024040FM-12+0007UMRR V0201101N004012200019N0100001N1+01531+00271102231ADDGF103991031011012501001001MA1999999102021MD1710081+9999REMSYN076AAXX  19121 26422 42697 31104 10153 20027 30202 40223 57008 83100 333 91110;
0122264220999992000091915004+56960+024040FM-12+0007UMRR V0201201N003012200019N0100001N1+01471+00311102201ADDGA1001+999999999GF100991001001999999001001MD1710031+9999REMSYN054AAXX  19151 26422 42997 01203 10147 20031 40220 57003;
0175264220999992000091918004+56960+024040FM-12+0007UMRR V0201101N002012200019N0100001N1+00981+00431102241ADDAA199000091GA1001+999999999GF100991001001999999001001KA1999M+01591MD1210031+9999REMSYN064AAXX  19181 26422 32997 01102 10098 20043 40224 52003 333 10159;EQDQ01  00002PRCP99
0122264220999992000091921004+56960+024040FM-12+0007UMRR V0200801N002012200019N0100001N1+00611+00501102261ADDGA1001+999999999GF100991001001999999001001MD1210021+9999REMSYN054AAXX  19211 26422 42997 00802 10061 20050 40226 52002;
0143264220999992000092000004+56960+024040FM-12+0007UMRR V0201001N002012200019N0100001N1+00551+00421102271ADDGA1001+999999999GF100991001001999999001001MA1999999102051MD1210011+9999REMSYN060AAXX  20001 26422 42997 01002 10055 20042 30205 40227 52001;
0152264220999992000092003004+56960+024040FM-12+0007UMRR V0200601N002012200019N0100001N1+00421+00311102251ADDAA199000091GA1001+999999999GF100991001001999999001001MD1710021+9999REMSYN054AAXX  20031 26422 32997 00602 10042 20031 40225 57002;EQDQ01  00002PRCP99
0181264220999992000092006004+56960+024040FM-12+0007UMRR V0200401N002012200019N0100001N1+00631+00521102251ADDAA199000091GF102991999001999999031001KA1999N+00331MD1410001+9999REMSYN070AAXX  20061 26422 32997 20402 10063 20052 40225 54000 80030 333 20033;EQDQ01+000002SCOTLCQ02  00002PRCP99
0112264220999992000092009004+56960+024040FM-12+0007UMRR V0200801N003012200019N0100001N1+01361+00681102241ADDGF104991011001999999071091MD1410001+9999REMSYN060AAXX  20091 26422 42997 40803 10136 20068 40224 54000 81079;
0143264220999992000092012004+56960+024040FM-12+0007UMRR V0203301N002012200019N0100001N1+01721+00801102181ADDGA1001+999999999GF100991001001999999001001MA1999999101971MD1710061+9999REMSYN060AAXX  20121 26422 42997 03302 10172 20080 30197 40218 57006;
0112264220999992000092015004+56960+024040FM-12+0007UMRR V0209999C004012200019N0100001N1+01441+00931102181ADDGF101991001001999999001011MD1410001+9999REMSYN060AAXX  20151 26422 42997 10004 10144 20093 40218 54000 80001;
0175264220999992000092018004+56960+024040FM-12+0007UMRR V0200401N003012200019N0100001N1+01131+00531102241ADDAA199000091GA1001+999999999GF100991001001999999001001KA1999M+01721MD1210051+9999REMSYN064AAXX  20181 26422 32997 00403 10113 20053 40224 52005 333 10172;EQDQ01  00002PRCP99
0122264220999992000092021004+56960+024040FM-12+0007UMRR V0203601N001012200019N0100001N1+00761+00501102321ADDGA1001+999999999GF100991001001999999001001MD1210081+9999REMSYN054AAXX  20211 26422 42997 03601 10076 20050 40232 52008;
0143264220999992000092100004+56960+024040FM-12+0007UMRR V0200501N002012200019N0100001N1+00761+00551102371ADDGA1001+999999999GF100991001001999999001001MA1999999102151MD1210051+9999REMSYN060AAXX  21001 26422 42997 00502 10076 20055 30215 40237 52005;
0152264220999992000092103004+56960+024040FM-12+0007UMRR V0200101N001012200019N0100001N1+00541+00521102371ADDAA199000091GA1001+999999999GF100991001001999999001001MD1410001+9999REMSYN054AAXX  21031 26422 32997 00101 10054 20052 40237 54000;EQDQ01  00002PRCP99
0203264220999992000092106004+56960+024040FM-12+0007UMRR V0200601N002010003019N0002001N1+00571+00561102421ADDAA199000091AY141061AY211061GA1091+999999999GF109991091999999999999999KA1999N+00441MD1210051+9999MW1471REMSYN070AAXX  21061 26422 31/92 90602 10057 20056 40242 52005 74741 333 20044;EQDQ01  00002PRCP99
0166264220999992000092109004+56960+024040FM-12+0007UMRR V0200801N003010039019N0100001N1+01061+00741102511ADDAY141031AY221031GA1061+003909029GF106991061011004501031001MD1210091+9999MW1011REMSYN076AAXX  21091 26422 41497 60803 10106 20074 40251 52009 70142 86130 333 86813;
0187264220999992000092112004+56960+024040FM-12+0007UMRR V0200501N003010060019N0100001N1+01161+00711102621ADDAY141061AY221061GA1081+006009059GF108991081051008001999999MA1999999102401MD1210111+9999MW1021REMSYN082AAXX  21121 26422 41597 80503 10116 20071 30240 40262 52011 70242 885// 333 88620;
0112264220999992000092115004+56960+024040FM-12+0007UMRR V0200501N002012200019N0100001N1+01251+00731102631ADDGF102991021001999999071001MD1210011+9999REMSYN060AAXX  21151 26422 42997 20502 10125 20073 40263 52001 82070;
0165264220999992000092118004+56960+024040FM-12+0007UMRR V0200601N003019999999N0100001N1+01031+00601102801ADDAA199000091GF106991061001999999071001KA1999M+01321MD1210171+9999REMSYN070AAXX  21181 26422 32997 60603 10103 20060 40280 52017 86070 333 10132;EQDQ01  00002PRCP99
0122264220999992000092121004+56960+024040FM-12+0007UMRR V0200801N003012200019N0100001N1+00811+00441103001ADDGA1001+999999999GF100991001001999999001001MD1210201+9999REMSYN054AAXX  21211 26422 42997 00803 10081 20044 40300 52020;
0143264220999992000092200004+56960+024040FM-12+0007UMRR V0200701N003012200019N0100001N1+00551+00291103121ADDGA1001+999999999GF100991001001999999001001MA1999999102901MD1210121+9999REMSYN060AAXX  22001 26422 42997 00703 10055 20029 30290 40312 52012;
0142264220999992000092203004+56960+024040FM-12+0007UMRR V0200701N002012200019N0100001N1+00381+00161103191ADDAA199000091GF102991021001999999031001MD1210071+9999REMSYN060AAXX  22031 26422 32997 20702 10038 20016 40319 52007 82030;EQDQ01  00002PRCP99
0165264220999992000092206004+56960+024040FM-12+0007UMRR V0200901N002019999999N0100001N1+00511+00151103341ADDAA199000091GF105991001001999999001041KA1999N+00321MD1210151+9999REMSYN070AAXX  22061 26422 32997 50902 10051 20015 40334 52015 80004 333 20032;EQDQ01  00002PRCP99
0112264220999992000092209004+56960+024040FM-12+0007UMRR V0201301N002019999999N0200001N1+01091-00061103451ADDGF106991001001999999001091MD1210111+9999REMSYN060AAXX  22091 26422 42998 61302 10109 21006 40345 52011 80009;
0133264220999992000092212004+56960+024040FM-12+0007UMRR V0201401N002019999999N0200001N1+01341-00071103411ADDGF106991001001999999001061MA1999999103191MD1710041+9999REMSYN066AAXX  22121 26422 42998 61402 10134 21007 30319 40341 57004 80006;
0112264220999992000092215004+56960+024040FM-12+0007UMRR V0200101N001019999999N0200001N1+01291+00121103351ADDGF108991001001999999001041MD1710061+9999REMSYN060AAXX  22151 26422 42998 80101 10129 20012 40335 57006 80004;
0165264220999992000092218004+56960+024040FM-12+0007UMRR V0200601N002012200019N0100001N1+00721+00301103411ADDAA199000091GF101991001001999999001011KA1999M+01461MD1210061+9999REMSYN070AAXX  22181 26422 32997 10602 10072 20030 40341 52006 80001 333 10146;EQDQ01  00002PRCP99
0122264220999992000092221004+56960+024040FM-12+0007UMRR V0200601N001012200019N0100001N1+00501+00281103511ADDGA1001+999999999GF100991001001999999001001MD1210101+9999REMSYN054AAXX  22211 26422 42997 00601 10050 20028 40351 52010;
0143264220999992000092300004+56960+024040FM-12+0007UMRR V0201501N002012200019N0100001N1+00301+00221103601ADDGA1001+999999999GF100991001001999999001001MA1999999103381MD1210091+9999REMSYN060AAXX  23001 26422 42997 01502 10030 20022 30338 40360 52009;
0152264220999992000092303004+56960+024040FM-12+0007UMRR V0209999C000012200019N0100001N1+00121+00091103571ADDAA199000091GA1001+999999999GF100991001001999999001001MD1710041+9999REMSYN054AAXX  23031 26422 32997 00000 10012 20009 40357 57004;EQDQ01  00002PRCP99
0165264220999992000092306004+56960+024040FM-12+0007UMRR V0201701N001012200019N0100001N1+00361+00341103641ADDAA199000091GF102991001001999999001091KA1999N+00091MD1210081+9999REMSYN070AAXX  23061 26422 32997 21701 10036 20034 40364 52008 80009 333 20009;EQDQ01  00002PRCP99
0112264220999992000092309004+56960+024040FM-12+0007UMRR V0200301N001012200019N0100001N1+01291+00241103721ADDGF102991001001999999001011MD1210081+9999REMSYN060AAXX  23091 26422 42997 20301 10129 20024 40372 52008 80001;
0133264220999992000092312004+56960+024040FM-12+0007UMRR V0200901N002012200019N0200001N1+01471+00181103621ADDGF103991021001999999031011MA1999999103401MD1710101+9999REMSYN066AAXX  23121 26422 42998 30902 10147 20018 30340 40362 57010 82031;
0112264220999992000092315004+56960+024040FM-12+0007UMRR V0200201N001012200019N0200001N1+01301+00531103521ADDGF101991001001999999001011MD1710101+9999REMSYN060AAXX  23151 26422 42998 10201 10130 20053 40352 57010 80001;
0175264220999992000092318004+56960+024040FM-12+0007UMRR V0201101N001012200019N0100001N1+00761+00551103571ADDAA199000091GA1001+999999999GF100991001001999999001001KA1999M+01581MD1210051+9999REMSYN064AAXX  23181 26422 32997 01101 10076 20055 40357 52005 333 10158;EQDQ01  00002PRCP99
0122264220999992000092321004+56960+024040FM-12+0007UMRR V0201801N002012200019N0100001N1+00571+00441103621ADDGA1001+999999999GF100991001001999999001001MD1210051+9999REMSYN054AAXX  23211 26422 42997 01802 10057 20044 40362 52005;
0143264220999992000092400004+56960+024040FM-12+0007UMRR V0201501N001012200019N0100001N1+00361+00281103641ADDGA1001+999999999GF100991001001999999001001MA1999999103421MD1210021+9999REMSYN060AAXX  24001 26422 42997 01501 10036 20028 30342 40364 52002;
0152264220999992000092403004+56960+024040FM-12+0007UMRR V0201601N002012200019N0100001N1+00331+00311103611ADDAA199000091GA1001+999999999GF100991001001999999001001MD1710031+9999REMSYN054AAXX  24031 26422 32997 01602 10033 20031 40361 57003;EQDQ01  00002PRCP99
0165264220999992000092406004+56960+024040FM-12+0007UMRR V0201501N001012200019N0100001N1+00441+00431103631ADDAA199000091GF102991001001999999001011KA1999N+00261MD1210021+9999REMSYN070AAXX  24061 26422 32997 21501 10044 20043 40363 52002 80001 333 20026;EQDQ01  00002PRCP99
0112264220999992000092409004+56960+024040FM-12+0007UMRR V0201501N001019999999N0100001N1+01241+00641103631ADDGF107991001001999999001011MD1410001+9999REMSYN060AAXX  24091 26422 42997 71501 10124 20064 40363 54000 80001;
0159264220999992000092412004+56960+024040FM-12+0007UMRR V0201601N002012200019N0100001N1+01401+00311103531ADDGA1041+012009029GF105991041011012501001011MA1999999103311MD1710101+9999REMSYN076AAXX  24121 26422 42697 51602 10140 20031 30331 40353 57010 84101 333 84840;
0138264220999992000092415004+56960+024040FM-12+0007UMRR V0201101N001010150019N0100001N1+01451+00441103381ADDGA1061+015009029GF106991061011017501999999MD1710151+9999REMSYN070AAXX  24151 26422 42797 61101 10145 20044 40338 57015 861// 333 86850;
0209264220999992000092418004+56960+024040FM-12+0007UMRR V0200401N001012200019N0040001N1+00811+00631103341ADDAA199000091AY111061AY211061GF101991999001999999031001KA1999M+01631MD1710041+9999MW1101REMSYN076AAXX  24181 26422 31996 10401 10081 20063 40334 57004 71011 80030 333 10163;EQDQ01+000002SCOTLCQ02  00002PRCP99
0150264220999992000092421004+56960+024040FM-12+0007UMRR V0201601N002012200019N0040001N1+00561+00511103331ADDAY101031AY201031GA1001+999999999GF100991001001999999001001MD1710011+9999MW1101REMSYN060AAXX  24211 26422 41996 01602 10056 20051 40333 57001 71000;
0171264220999992000092500004+56960+024040FM-12+0007UMRR V0201601N001012200019N0040001N1+00451+00411103261ADDAY101061AY201061GA1001+999999999GF100991001001999999001001MA1999999103041MD1710071+9999MW1101REMSYN066AAXX  25001 26422 41996 01601 10045 20041 30304 40326 57007 71000;
0180264220999992000092503004+56960+024040FM-12+0007UMRR V0201601N002012200019N0040001N1+00361+00341103221ADDAA199000091AY101031AY201031GA1001+999999999GF100991001001999999001001MD1710041+9999MW1101REMSYN060AAXX  25031 26422 31996 01602 10036 20034 40322 57004 71000;EQDQ01  00002PRCP99
0203264220999992000092506004+56960+024040FM-12+0007UMRR V0201501N001012200019N0040001N1+00451+00431103191ADDAA199000091AY101061AY201061GA1001+999999999GF100991001001999999001001KA1999N+00261MD1710031+9999MW1101REMSYN070AAXX  25061 26422 31996 01501 10045 20043 40319 57003 71000 333 20026;EQDQ01  00002PRCP99
0122264220999992000092509004+56960+024040FM-12+0007UMRR V0201401N001012200019N0100001N1+01321+00551103161ADDGA1001+999999999GF100991001001999999001001MD1710031+9999REMSYN054AAXX  25091 26422 42997 01401 10132 20055 40316 57003;
0133264220999992000092512004+56960+024040FM-12+0007UMRR V0202201N001012200019N0100001N1+01611+00441103011ADDGF103991031011008001001001MA1999999102801MD1710141+9999REMSYN066AAXX  25121 26422 42597 32201 10161 20044 30280 40301 57014 83100;
0112264220999992000092515004+56960+024040FM-12+0007UMRR V0203501N001012200019N0100001N1+01321+00581102931ADDGF102991021001999999071001MD1710091+9999REMSYN060AAXX  25151 26422 42997 23501 10132 20058 40293 57009 82070;
0175264220999992000092518004+56960+024040FM-12+0007UMRR V0200701N001012200019N0100001N1+00711+00571102881ADDAA199000091GA1001+999999999GF100991001001999999001001KA1999M+01641MD1710051+9999REMSYN064AAXX  25181 26422 32997 00701 10071 20057 40288 57005 333 10164;EQDQ01  00002PRCP99
0122264220999992000092521004+56960+024040FM-12+0007UMRR V0209999C000012200019N0100001N1+00491+00451102921ADDGA1001+999999999GF100991001001999999001001MD1210041+9999REMSYN054AAXX  25211 26422 42997 01600 10049 20045 40292 52004;
0143264220999992000092600004+56960+024040FM-12+0007UMRR V0202301N002012200019N0100001N1+00371+00351102911ADDGA1001+999999999GF100991001001999999001001MA1999999102691MD1710011+9999REMSYN060AAXX  26001 26422 42997 02302 10037 20035 30269 40291 57001;
0180264220999992000092603004+56960+024040FM-12+0007UMRR V0202401N002012200019N0040001N1+00381+00361102861ADDAA199000091AY101031AY201031GA1001+999999999GF100991001001999999001001MD1710051+9999MW1101REMSYN060AAXX  26031 26422 31996 02402 10038 20036 40286 57005 71000;EQDQ01  00002PRCP99
0165264220999992000092606004+56960+024040FM-12+0007UMRR V0202601N002012200019N0100001N1+00561+00521102871ADDAA199000091GF102991021021012501001001KA1999N+00301MD1210011+9999REMSYN070AAXX  26061 26422 32697 22602 10056 20052 40287 52001 82200 333 20030;EQDQ01  00002PRCP99
0138264220999992000092609004+56960+024040FM-12+0007UMRR V0203001N002010099019N0100001N1+01311+00931102921ADDGA1051+009909029GF105991051011012501001001MD1210051+9999REMSYN070AAXX  26091 26422 42697 53002 10131 20093 40292 52005 85100 333 85833;
0159264220999992000092612004+56960+024040FM-12+0007UMRR V0203201N002012200019N0100001N1+01431+00881102871ADDGA1041+006609029GF104991041011008001001001MA1999999102661MD1710041+9999REMSYN076AAXX  26121 26422 42597 43202 10143 20088 30266 40287 57004 84100 333 84822;
0122264220999992000092615004+56960+024040FM-12+0007UMRR V0200101N002012200019N0100001N1+01281+00841102781ADDGA1001+999999999GF100991001001999999001001MD1710101+9999REMSYN054AAXX  26151 26422 42997 00102 10128 20084 40278 57010;
0175264220999992000092618004+56960+024040FM-12+0007UMRR V0202601N001012200019N0100001N1+00781+00731102781ADDAA199000091GA1001+999999999GF100991001001999999001001KA1999M+01531MD1410001+9999REMSYN064AAXX  26181 26422 32997 02601 10078 20073 40278 54000 333 10153;EQDQ01  00002PRCP99
0122264220999992000092621004+56960+024040FM-12+0007UMRR V0200501N001012200019N0100001N1+00581+00561102781ADDGA1001+999999999GF100991001001999999001001MD1410001+9999REMSYN054AAXX  26211 26422 42997 00501 10058 20056 40278 54000;
0143264220999992000092700004+56960+024040FM-12+0007UMRR V0201901N001012200019N0100001N1+00481+00471102741ADDGA1001+999999999GF100991001001999999001001MA1999999102521MD1710041+9999REMSYN060AAXX  27001 26422 42997 01901 10048 20047 30252 40274 57004;
0180264220999992000092703004+56960+024040FM-12+0007UMRR V0202401N001012200019N0040001N1+00471+00461102681ADDAA199000091AY101031AY201031GA1001+999999999GF100991001001999999001001MD1710061+9999MW1101REMSYN060AAXX  27031 26422 31996 02401 10047 20046 40268 57006 71000;EQDQ01  00002PRCP99
0203264220999992000092706004+56960+024040FM-12+0007UMRR V0201801N001010003019N0005001N1+00511+00501102661ADDAA199000091AY141061AY211061GA1091+999999999GF109991091999999999999999KA1999N+00381MD1710021+9999MW1431REMSYN070AAXX  27061 26422 31/93 91801 10051 20050 40266 57002 74341 333 20038;EQDQ01  00002PRCP99
0140264220999992000092709004+56960+024040FM-12+0007UMRR V0201901N001019999999N0100001N1+01131+00911102641ADDAY141031AY221031GF108991081001999999071999MD1710021+9999MW1021REMSYN066AAXX  27091 26422 41997 81901 10113 20091 40264 57002 70242 8807/;
0161264220999992000092712004+56960+024040FM-12+0007UMRR V0201601N001019999999N0100001N1+01301+00921102521ADDAY141061AY221061GF108991081001999999071999MA1999999102311MD1710111+9999MW1021REMSYN072AAXX  27121 26422 41997 81601 10130 20092 30231 40252 57011 70242 8807/;
0112264220999992000092715004+56960+024040FM-12+0007UMRR V0201701N001019999999N0100001N1+01331+00851102411ADDGF108991081001999999031999MD1710111+9999REMSYN060AAXX  27151 26422 42997 81701 10133 20085 40241 57011 8803/;
0165264220999992000092718004+56960+024040FM-12+0007UMRR V0201301N002019999999N0100001N1+01021+00791102381ADDAA199000091GF108991081001999999041999KA1999M+01471MD1710041+9999REMSYN070AAXX  27181 26422 32997 81302 10102 20079 40238 57004 8804/ 333 10147;EQDQ01  00002PRCP99
0112264220999992000092721004+56960+024040FM-12+0007UMRR V0201201N001019999999N0100001N1+00931+00851102311ADDGF106991061001999999041001MD1710071+9999REMSYN060AAXX  27211 26422 42997 61201 10093 20085 40231 57007 86040;
0143264220999992000092800004+56960+024040FM-12+0007UMRR V0201201N002012200019N0100001N1+00751+00741102301ADDGA1001+999999999GF100991001001999999001001MA1999999102081MD1710011+9999REMSYN060AAXX  28001 26422 42997 01202 10075 20074 30208 40230 57001;
0152264220999992000092803004+56960+024040FM-12+0007UMRR V0201501N002012200019N0100001N1+00691+00671102221ADDAA199000091GA1001+999999999GF100991001001999999001001MD1710081+9999REMSYN054AAXX  28031 26422 32997 01502 10069 20067 40222 57008;EQDQ01  00002PRCP99
0165264220999992000092806004+56960+024040FM-12+0007UMRR V0201301N001012200019N0100001N1+00761+00691102201ADDAA199000091GF102991001001999999001011KA1999N+00621MD1710021+9999REMSYN070AAXX  28061 26422 32997 21301 10076 20069 40220 57002 80001 333 20062;EQDQ01  00002PRCP99
0112264220999992000092809004+56960+024040FM-12+0007UMRR V0201501N003012200019N0200001N1+01431+00771102181ADDGF101991001001999999001011MD1710011+9999REMSYN060AAXX  28091 26422 42998 11503 10143 20077 40218 57001 80001;
0133264220999992000092812004+56960+024040FM-12+0007UMRR V0201601N004012200019N0200001N1+01701+00671102101ADDGF101991001001999999001011MA1999999101891MD1710081+9999REMSYN066AAXX  28121 26422 42998 11604 10170 20067 30189 40210 57008 80001;
0112264220999992000092815004+56960+024040FM-12+0007UMRR V0201701N003012200019N0100001N1+01561+00681102061ADDGF103991001001999999001011MD1710041+9999REMSYN060AAXX  28151 26422 42997 31703 10156 20068 40206 57004 80001;
0175264220999992000092818004+56960+024040FM-12+0007UMRR V0201501N003012200019N0100001N1+01211+00731102071ADDAA199000091GA1001+999999999GF100991001001999999001001KA1999M+01771MD1210011+9999REMSYN064AAXX  28181 26422 32997 01503 10121 20073 40207 52001 333 10177;EQDQ01  00002PRCP99
0122264220999992000092821004+56960+024040FM-12+0007UMRR V0201401N003012200019N0100001N1+00991+00651102091ADDGA1001+999999999GF100991001001999999001001MD1210011+9999REMSYN054AAXX  28211 26422 42997 01403 10099 20065 40209 52001;
0133264220999992000092900004+56960+024040FM-12+0007UMRR V0201501N004012200019N0100001N1+01031+00661102081ADDGF103991031001999999031001MA1999999101861MD1710011+9999REMSYN066AAXX  29001 26422 42997 31504 10103 20066 30186 40208 57001 83030;
0142264220999992000092903004+56960+024040FM-12+0007UMRR V0201501N004019999999N0100001N1+01101+00691102091ADDAA199000091GF107991071001999999031001MD1210011+9999REMSYN060AAXX  29031 26422 32997 71504 10110 20069 40209 52001 87030;EQDQ01  00002PRCP99
0165264220999992000092906004+56960+024040FM-12+0007UMRR V0201501N004019999999N0100001N1+01051+00681102141ADDAA199000091GF106991061001999999031001KA1999N+00931MD1210051+9999REMSYN070AAXX  29061 26422 32997 61504 10105 20068 40214 52005 86030 333 20093;EQDQ01  00002PRCP99
0122264220999992000092909004+56960+024040FM-12+0007UMRR V0201801N005019999999N0100001N1+01471+00741102231ADDGF107991051001999999031011MD1210101+9999REMSYN070AAXX  29091 26422 42997 71805 10147 20074 40223 52010 85031 333 91110;
0143264220999992000092912004+56960+024040FM-12+0007UMRR V0201701N005019999999N0100001N1+01841+00741102211ADDGF106991001001999999001011MA1999999102001MD1710021+9999REMSYN076AAXX  29121 26422 42997 61705 10184 20074 30200 40221 57002 80001 333 91112;
0122264220999992000092915004+56960+024040FM-12+0007UMRR V0201501N004019999999N0100001N1+01681+00651102251ADDGF107991001001999999001011MD1210041+9999REMSYN070AAXX  29151 26422 42997 71504 10168 20065 40225 52004 80001 333 91110;
0175264220999992000092918004+56960+024040FM-12+0007UMRR V0201501N003012200019N0100001N1+01331+00631102341ADDAA199000091GA1001+999999999GF100991001001999999001001KA1999M+01841MD1210091+9999REMSYN064AAXX  29181 26422 32997 01503 10133 20063 40234 52009 333 10184;EQDQ01  00002PRCP99
0122264220999992000092921004+56960+024040FM-12+0007UMRR V0201601N003012200019N0100001N1+01081+00551102431ADDGA1001+999999999GF100991001001999999001001MD1210081+9999REMSYN054AAXX  29211 26422 42997 01603 10108 20055 40243 52008;
0143264220999992000093000004+56960+024040FM-12+0007UMRR V0201501N003012200019N0100001N1+00891+00521102501ADDGA1001+999999999GF100991001001999999001001MA1999999102281MD1210071+9999REMSYN060AAXX  30001 26422 42997 01503 10089 20052 30228 40250 52007;
0152264220999992000093003004+56960+024040FM-12+0007UMRR V0201401N002012200019N0100001N1+00761+00531102561ADDAA199000091GA1001+999999999GF100991001001999999001001MD1210061+9999REMSYN054AAXX  30031 26422 32997 01402 10076 20053 40256 52006;EQDQ01  00002PRCP99
0165264220999992000093006004+56960+024040FM-12+0007UMRR V0201501N002012200019N0100001N1+00851+00571102641ADDAA199000091GF102991001001999999001011KA1999N+00671MD1210081+9999REMSYN070AAXX  30061 26422 32997 21502 10085 20057 40264 52008 80001 333 20067;EQDQ01  00002PRCP99
0122264220999992000093009004+56960+024040FM-12+0007UMRR V0201401N004012200019N0100001N1+01481+00651102651ADDGA1001+999999999GF100991001001999999001001MD1210021+9999REMSYN054AAXX  30091 26422 42997 01404 10148 20065 40265 52002;
0153264220999992000093012004+56960+024040FM-12+0007UMRR V0201501N005012200019N0100001N1+01791+00401102601ADDGA1001+999999999GF100991001001999999001001MA1999999102391MD1710051+9999REMSYN070AAXX  30121 26422 42997 01505 10179 20040 30239 40260 57005 333 91111;
0132264220999992000093015004+56960+024040FM-12+0007UMRR V0201401N003012200019N0100001N1+01701+00361102541ADDGA1001+999999999GF100991001001999999001001MD1710061+9999REMSYN064AAXX  30151 26422 42997 01403 10170 20036 40254 57006 333 91110;
0181264220999992000093018004+56960+024040FM-12+0007UMRR V0201401N004012200019N0100001N1+01281+00521102591ADDAA199000091GA1001+999999999GF100991001001999999001001KA1120M+01851MD1210041+9999REMSYN070AAXX  30181 26422 32997 01404 10128 20052 40259 52004 333 10185 91110;EQDQ01  00002PRCP99
0122264220999992000093021004+56960+024040FM-12+0007UMRR V0201401N004012200019N0100001N1+01131+00531102621ADDGA1001+999999999GF100991001001999999001001MD1210031+9999REMSYN054AAXX  30211 26422 42997 01404 10113 20053 40262 52003;
0143264220999992000100100004+56960+024040FM-12+0007UMRR V0201401N003012200019N0100001N1+01001+00571102601ADDGA1001+999999999GF100991001001999999001001MA1999999102381MD1710021+9999REMSYN060AAXX  01001 26422 42997 01403 10100 20057 30238 40260 57002;
0152264220999992000100103004+56960+024040FM-12+0007UMRR V0201301N003012200019N0100001N1+00891+00591102551ADDAA199000091GA1001+999999999GF100991001001999999001001MD1710051+9999REMSYN054AAXX  01031 26422 32997 01303 10089 20059 40255 57005;EQDQ01  00002PRCP99
0175264220999992000100106004+56960+024040FM-12+0007UMRR V0201401N004012200019N0100001N1+00961+00571102451ADDAA199000091GA1001+999999999GF100991001001999999001001KA1999N+00861MD1710101+9999REMSYN064AAXX  01061 26422 32997 01404 10096 20057 40245 57010 333 20086;EQDQ01  00002PRCP99
0149264220999992000100109004+56960+024040FM-12+0007UMRR V0201501N005012200019N0200001N1+01571+00791102371ADDGA1001+999999999GF100991001001999999001001MD1710071+9999OA140101001REMSYN070AAXX  01091 26422 42998 01505 10157 20079 40237 57007 333 91010 91111;
0170264220999992000100112004+56960+024040FM-12+0007UMRR V0201401N006012200019N0200001N1+01971+00771102241ADDGA1001+999999999GF100991001001999999001001MA1999999102031MD1710131+9999OA140101101REMSYN076AAXX  01121 26422 42998 01406 10197 20077 30203 40224 57013 333 91011 91114;
0149264220999992000100115004+56960+024040FM-12+0007UMRR V0201501N006012200019N0200001N1+01901+00701102111ADDGA1001+999999999GF100991001001999999001001MD1710131+9999OA140101201REMSYN070AAXX  01151 26422 42998 01506 10190 20070 40211 57013 333 91012 91114;
0198264220999992000100118004+56960+024040FM-12+0007UMRR V0201501N005012200019N0200001N1+01561+00731102061ADDAA199000091GA1001+999999999GF100991001001999999001001KA1120M+02011MD1710051+9999OA140101001REMSYN076AAXX  01181 26422 32998 01505 10156 20073 40206 57005 333 10201 91010 91114;EQDQ01  00002PRCP99
0132264220999992000100121004+56960+024040FM-12+0007UMRR V0201501N005012200019N0100001N1+01411+00591102001ADDGA1001+999999999GF100991001001999999001001MD1710061+9999REMSYN064AAXX  01211 26422 42997 01505 10141 20059 40200 57006 333 91112;
0153264220999992000100200004+56960+024040FM-12+0007UMRR V0201501N005012200019N0100001N1+01271+00581101911ADDGA1001+999999999GF100991001001999999001001MA1999999101701MD1710091+9999REMSYN070AAXX  02001 26422 42997 01505 10127 20058 30170 40191 57009 333 91112;
0162264220999992000100203004+56960+024040FM-12+0007UMRR V0201601N004012200019N0100001N1+01151+00591101781ADDAA199000091GA1001+999999999GF100991001001999999001001MD1710131+9999REMSYN064AAXX  02031 26422 32997 01604 10115 20059 40178 57013 333 91110;EQDQ01  00002PRCP99
0181264220999992000100206004+56960+024040FM-12+0007UMRR V0201401N005012200019N0100001N1+01121+00611101711ADDAA199000091GA1001+999999999GF100991001001999999001001KA1120N+01051MD1710071+9999REMSYN070AAXX  02061 26422 32997 01405 10112 20061 40171 57007 333 20105 91110;EQDQ01  00002PRCP99
0149264220999992000100209004+56960+024040FM-12+0007UMRR V0201701N007012200019N0200001N1+01561+00781101571ADDGA1001+999999999GF100991001001999999001001MD1710141+9999OA140101201REMSYN070AAXX  02091 26422 42998 01707 10156 20078 40157 57014 333 91012 91112;
0160264220999992000100212004+56960+024040FM-12+0007UMRR V0201601N006012200019N0200001N1+01901+00881101461ADDGF103991001001999999001011MA1999999101251MD1710111+9999OA140101101REMSYN082AAXX  02121 26422 42998 31606 10190 20088 30125 40146 57011 80001 333 91011 91113;
0122264220999992000100215004+56960+024040FM-12+0007UMRR V0201601N005019999999N0200001N1+01851+00631101451ADDGF106991021001999999031011MD1710011+9999REMSYN070AAXX  02151 26422 42998 61605 10185 20063 40145 57001 82031 333 91112;
0225264220999992000100218004+56960+024040FM-12+0007UMRR V0201701N006010024019N0100001N1+01341+00991101531ADDAA112000591AY181061AY211061GA1061+002409079GF108991081091002501999999KA1120M+01921MD1210081+9999MW1811OA140101101REMSYN100AAXX  02181 26422 11397 81706 10134 20099 40153 52008 69962 78181 889// 333 10192 86708 91011 91112;
0140264220999992000100221004+56960+024040FM-12+0007UMRR V0201601N004019999999N0100001N1+01361+00841101541ADDAY181031AY221031GF107991071001999999031001MD1210011+9999MW1021REMSYN066AAXX  02211 26422 41997 71604 10136 20084 40154 52001 70282 87030;
0171264220999992000100300004+56960+024040FM-12+0007UMRR V0201701N005012200019N0100001N1+01281+00781101571ADDAY181061AY211061GA1001+999999999GF100991001001999999001001MA1999999101361MD1210031+9999MW1021REMSYN066AAXX  03001 26422 41997 01705 10128 20078 30136 40157 52003 70281;
0122264220999992000100303004+56960+024040FM-12+0007UMRR V0201901N003012200019N0100001N1+01151+00831101661ADDGA1001+999999999GF100991001001999999001001MD1210091+9999REMSYN054AAXX  03031 26422 /2997 01903 10115 20083 40166 52009;
0174264220999992000100306004+56960+024040FM-12+0007UMRR V0201901N003010024019N0100001N1+01281+01101101811ADDAA112000791GA1061+002409069GF108991061061002501031999KA1120N+01121MD1210151+9999REMSYN082AAXX  03061 26422 12397 81903 10128 20110 40181 52015 69902 8663/ 333 20112 86708;
0138264220999992000100309004+56960+024040FM-12+0007UMRR V0202001N003010036019N0100001N1+01501+01301101991ADDGA1061+003609069GF108991081051004501999999MD1210181+9999REMSYN070AAXX  03091 26422 42497 82003 10150 20130 40199 52018 885// 333 86712;
0159264220999992000100312004+56960+024040FM-12+0007UMRR V0202401N004010069019N0100001N1+01661+01251102171ADDGA1071+006909059GF107991071051008001001001MA1999999101961MD1210181+9999REMSYN076AAXX  03121 26422 42597 72404 10166 20125 30196 40217 52018 87500 333 87623;
0112264220999992000100315004+56960+024040FM-12+0007UMRR V0202301N002019999999N0100001N1+01701+01161102251ADDGF108991021001999999041011MD1210081+9999REMSYN060AAXX  03151 26422 42997 82302 10170 20116 40225 52008 82041;
0165264220999992000100318004+56960+024040FM-12+0007UMRR V0202001N003019999999N0100001N1+01331+01091102351ADDAA199000091GF105991001001999999001011KA1999M+01811MD1210101+9999REMSYN070AAXX  03181 26422 32997 52003 10133 20109 40235 52010 80001 333 10181;EQDQ01  00002PRCP99
0122264220999992000100321004+56960+024040FM-12+0007UMRR V0202301N002012200019N0100001N1+01101+01051102451ADDGA1001+999999999GF100991001001999999001001MD1210091+9999REMSYN054AAXX  03211 26422 42997 02302 10110 20105 40245 52009;
0143264220999992000100400004+56960+024040FM-12+0007UMRR V0202501N001012200019N0100001N1+00981+00961102491ADDGA1001+999999999GF100991001001999999001001MA1999999102271MD1210041+9999REMSYN060AAXX  04001 26422 42997 02501 10098 20096 30227 40249 52004;
0196264220999992000100403004+56960+024040FM-12+0007UMRR V0201901N001010015019N0020001N1+00891+00881102491ADDAA199000091AY111031AY211031GA1081+001509069GF108991081061001501999999MD1410001+9999MW1101REMSYN076AAXX  04031 26422 31295 81901 10089 20088 40249 54000 71011 886// 333 88705;EQDQ01  00002PRCP99
0203264220999992000100406004+56960+024040FM-12+0007UMRR V0201901N001010001519N0001001N1+00921+00911102541ADDAA199000091AY141061AY211061GA1091+999999999GF109991091999999999999999KA1999N+00801MD1210051+9999MW1451REMSYN070AAXX  04061 26422 31/91 91901 10092 20091 40254 52005 74541 333 20080;EQDQ01  00002PRCP99
0150264220999992000100409004+56960+024040FM-12+0007UMRR V0201701N002010003019N0005001N1+01111+01101102571ADDAY141031AY221031GA1091+999999999GF109991091999999999999999MD1210031+9999MW1471REMSYN060AAXX  04091 26422 41/93 91702 10111 20110 40257 52003 74742;
0187264220999992000100412004+56960+024040FM-12+0007UMRR V0201601N003010024019N0040001N1+01261+01111102521ADDAY141061AY221061GA1081+002409069GF108991081061002501999999MA1999999102311MD1710041+9999MW1101REMSYN082AAXX  04121 26422 41396 81603 10126 20111 30231 40252 57004 71042 886// 333 88708;
0140264220999992000100415004+56960+024040FM-12+0007UMRR V0201201N002019999999N0040001N1+01291+01121102421ADDAY121031AY221031GF108991001001999999001011MD1710101+9999MW1101REMSYN066AAXX  04151 26422 41996 81202 10129 20112 40242 57010 71022 80001;
0203264220999992000100418004+56960+024040FM-12+0007UMRR V0201501N002012200019N0040001N1+01041+00991102441ADDAA199000091AY111061AY211061GA1001+999999999GF100991001001999999001001KA1999M+01441MD1210011+9999MW1101REMSYN070AAXX  04181 26422 31996 01502 10104 20099 40244 52001 71011 333 10144;EQDQ01  00002PRCP99
0150264220999992000100421004+56960+024040FM-12+0007UMRR V0201601N001012200019N0040001N1+00831+00811102461ADDAY101031AY201031GA1001+999999999GF100991001001999999001001MD1210021+9999MW1101REMSYN060AAXX  04211 26422 41996 01601 10083 20081 40246 52002 71000;
0171264220999992000100500004+56960+024040FM-12+0007UMRR V0201601N001012200019N0040001N1+00721+00711102441ADDAY101061AY201061GA1001+999999999GF100991001001999999001001MA1999999102221MD1710021+9999MW1101REMSYN066AAXX  05001 26422 41996 01601 10072 20071 30222 40244 57002 71000;
0196264220999992000100503004+56960+024040FM-12+0007UMRR V0201601N002010012019N0010001N1+00731+00721102391ADDAA199000091AY141031AY211031GA1081+001209069GF108991081061001501999999MD1710051+9999MW1101REMSYN076AAXX  05031 26422 31294 81602 10073 20072 40239 57005 71041 886// 333 88704;EQDQ01  00002PRCP99
0215264220999992000100506004+56960+024040FM-12+0007UMRR V0201701N002010006019N0010001N1+00821+00811102361ADDAA199000091AY141061AY221061GA1061+000609069GF108991061061000751011999KA1120N+00671MD1710031+9999MW1101REMSYN082AAXX  05061 26422 31194 81702 10082 20081 40236 57003 71042 8661/ 333 20067 86702;EQDQ01  00002PRCP99
0150264220999992000100509004+56960+024040FM-12+0007UMRR V0201701N003012200019N0040001N1+01411+01121102381ADDAY141031AY211031GA1001+999999999GF100991001001999999001001MD1210031+9999MW1101REMSYN060AAXX  05091 26422 41996 01703 10141 20112 40238 52003 71041;
0171264220999992000100512004+56960+024040FM-12+0007UMRR V0201201N002012200019N0100001N1+01831+01181102311ADDAY141061AY211061GA1001+999999999GF100991001001999999001001MA1999999102101MD1710071+9999MW1021REMSYN066AAXX  05121 26422 41997 01202 10183 20118 30210 40231 57007 70241;
0122264220999992000100515004+56960+024040FM-12+0007UMRR V0201101N002012200019N0100001N1+01731+01191102251ADDGA1001+999999999GF100991001001999999001001MD1710061+9999REMSYN054AAXX  05151 26422 43997 01102 10173 20119 40225 57006;
0165264220999992000100518004+56960+024040FM-12+0007UMRR V0201301N003019999999N0100001N1+01491+01181102251ADDAA199000091GF108991081001999999051999KA1999M+01921MD1410001+9999REMSYN070AAXX  05181 26422 32997 81303 10149 20118 40225 54000 8805/ 333 10192;EQDQ01  00002PRCP99
0112264220999992000100521004+56960+024040FM-12+0007UMRR V0201401N003019999999N0100001N1+01361+01091102271ADDGF108991081001999999051999MD1210021+9999REMSYN060AAXX  05211 26422 42997 81403 10136 20109 40227 52002 8805/;
0133264220999992000100600004+56960+024040FM-12+0007UMRR V0201301N003019999999N0100001N1+01301+01061102231ADDGF108991081001999999051999MA1999999102021MD1710041+9999REMSYN066AAXX  06001 26422 42997 81303 10130 20106 30202 40223 57004 8805/;
0152264220999992000100603004+56960+024040FM-12+0007UMRR V0201301N003012200019N0100001N1+01201+01001102171ADDAA199000091GA1001+999999999GF100991001001999999001001MD1710061+9999REMSYN054AAXX  06031 26422 32997 01303 10120 20100 40217 57006;EQDQ01  00002PRCP99
0165264220999992000100606004+56960+024040FM-12+0007UMRR V0201101N003012200019N0100001N1+01171+00971102181ADDAA199000091GF102991001001999999001011KA1999N+01121MD1210011+9999REMSYN070AAXX  06061 26422 32997 21103 10117 20097 40218 52001 80001 333 20112;EQDQ01  00002PRCP99
0122264220999992000100609004+56960+024040FM-12+0007UMRR V0201301N004012200019N0200001N1+01631+01181102211ADDGA1001+999999999GF100991001001999999001001MD1210031+9999REMSYN054AAXX  06091 26422 42998 01304 10163 20118 40221 52003;
0153264220999992000100612004+56960+024040FM-12+0007UMRR V0201401N004012200019N0200001N1+02011+01281102241ADDGA1001+999999999GF100991001001999999001001MA1999999102031MD1210031+9999REMSYN070AAXX  06121 26422 42998 01404 10201 20128 30203 40224 52003 333 91110;
0122264220999992000100615004+56960+024040FM-12+0007UMRR V0201301N003012200019N0200001N1+01951+01221102271ADDGA1001+999999999GF100991001001999999001001MD1210031+9999REMSYN054AAXX  06151 26422 42998 01303 10195 20122 40227 52003;
0165264220999992000100618004+56960+024040FM-12+0007UMRR V0201201N004012200019N0100001N1+01641+01041102411ADDAA199000091GF102991021001999999071001KA1999M+02061MD1210141+9999REMSYN070AAXX  06181 26422 32997 21204 10164 20104 40241 52014 82070 333 10206;EQDQ01  00002PRCP99
0112264220999992000100621004+56960+024040FM-12+0007UMRR V0201301N003012200019N0100001N1+01431+00951102551ADDGF103991031001999999071001MD1210141+9999REMSYN060AAXX  06211 26422 42997 31303 10143 20095 40255 52014 83070;
0143264220999992000100700004+56960+024040FM-12+0007UMRR V0201301N003012200019N0100001N1+01241+00951102611ADDGA1001+999999999GF100991001001999999001001MA1999999102391MD1210051+9999REMSYN060AAXX  07001 26422 42997 01303 10124 20095 30239 40261 52005;
0152264220999992000100703004+56960+024040FM-12+0007UMRR V0201201N002012200019N0100001N1+01061+00911102651ADDAA199000091GA1001+999999999GF100991001001999999001001MD1210041+9999REMSYN054AAXX  07031 26422 32997 01202 10106 20091 40265 52004;EQDQ01  00002PRCP99
0165264220999992000100706004+56960+024040FM-12+0007UMRR V0201301N002012200019N0100001N1+01001+00871102741ADDAA199000091GF102991001001999999001011KA1999N+00951MD1210091+9999REMSYN070AAXX  07061 26422 32997 21302 10100 20087 40274 52009 80001 333 20095;EQDQ01  00002PRCP99
0122264220999992000100709004+56960+024040FM-12+0007UMRR V0201401N003012200019N0200001N1+01401+00961102801ADDGA1001+999999999GF100991001001999999001001MD1210071+9999REMSYN054AAXX  07091 26422 42998 01403 10140 20096 40280 52007;
0143264220999992000100712004+56960+024040FM-12+0007UMRR V0201101N003012200019N0200001N1+01461+00991102791ADDGA1001+999999999GF100991001001999999001001MA1999999102581MD1710011+9999REMSYN060AAXX  07121 26422 42998 01103 10146 20099 30258 40279 57001;
0122264220999992000100715004+56960+024040FM-12+0007UMRR V0201301N003012200019N0100001N1+01331+01001102751ADDGA1001+999999999GF100991001001999999001001MD1710041+9999REMSYN054AAXX  07151 26422 42997 01303 10133 20100 40275 57004;
0187264220999992000100718004+56960+024040FM-12+0007UMRR V0201201N004010300019N0100001N1+01041+00921102831ADDAA199000091GA1031+002709069GF108991031061002501031999KA1120M+01501MD1210071+9999REMSYN076AAXX  07181 26422 32397 81204 10104 20092 40283 52007 8363/ 333 10150 83709;EQDQ01  00002PRCP99
0138264220999992000100721004+56960+024040FM-12+0007UMRR V0201301N003010012019N0100001N1+01111+01031102821ADDGA1061+001209069GF108991061061001501031999MD1710011+9999REMSYN070AAXX  07211 26422 42297 81303 10111 20103 40282 57001 8663/ 333 86704;
0143264220999992000100800004+56960+024040FM-12+0007UMRR V0201301N003012200019N0100001N1+01101+01051102761ADDGA1001+999999999GF100991001001999999001001MA1999999102541MD1710061+9999REMSYN060AAXX  08001 26422 42997 01303 10110 20105 30254 40276 57006;
0152264220999992000100803004+56960+024040FM-12+0007UMRR V0201401N003012200019N0100001N1+01001+00961102671ADDAA199000091GA1001+999999999GF100991001001999999001001MD1710091+9999REMSYN054AAXX  08031 26422 32997 01403 10100 20096 40267 57009;EQDQ01  00002PRCP99
0175264220999992000100806004+56960+024040FM-12+0007UMRR V0201401N004012200019N0100001N1+01021+00891102701ADDAA199000091GA1001+999999999GF100991001001999999001001KA1999N+00961MD1210031+9999REMSYN064AAXX  08061 26422 32997 01404 10102 20089 40270 52003 333 20096;EQDQ01  00002PRCP99
0112264220999992000100809004+56960+024040FM-12+0007UMRR V0201501N004012200019N0200001N1+01441+00911102711ADDGF103991001001999999001011MD1210021+9999REMSYN060AAXX  08091 26422 42998 31504 10144 20091 40271 52002 80001;
0143264220999992000100812004+56960+024040FM-12+0007UMRR V0201601N005012200019N0200001N1+01951+00781102551ADDGF102991001001999999001011MA1999999102341MD1710161+9999REMSYN076AAXX  08121 26422 42998 21605 10195 20078 30234 40255 57016 80001 333 91112;
0144264220999992000100815004+56960+024040FM-12+0007UMRR V0201601N003010300019N0200001N1+01761+00781102521ADDGA1021+003309079GF106991021061004501031001MD1710031+9999REMSYN076AAXX  08151 26422 42498 61603 10176 20078 40252 57003 82630 333 82711 91113;
0171264220999992000100818004+56960+024040FM-12+0007UMRR V0201401N003012200019N0100001N1+01381+00771102581ADDAA199000091GF104991021001999999031091KA1120M+01971MD1210061+9999REMSYN076AAXX  08181 26422 32997 41403 10138 20077 40258 52006 82039 333 10197 91110;EQDQ01  00002PRCP99
0122264220999992000100821004+56960+024040FM-12+0007UMRR V0201501N004012200019N0100001N1+01231+00771102591ADDGA1001+999999999GF100991001001999999001001MD1410001+9999REMSYN054AAXX  08211 26422 42997 01504 10123 20077 40259 54000;
0133264220999992000100900004+56960+024040FM-12+0007UMRR V0201501N004012200019N0100001N1+01101+00691102581ADDGF104991001001999999001011MA1999999102361MD1710011+9999REMSYN066AAXX  09001 26422 42997 41504 10110 20069 30236 40258 57001 80001;
0152264220999992000100903004+56960+024040FM-12+0007UMRR V0201401N003012200019N0100001N1+00921+00601102501ADDAA199000091GA1001+999999999GF100991001001999999001001MD1710081+9999REMSYN054AAXX  09031 26422 32997 01403 10092 20060 40250 57008;EQDQ01  00002PRCP99
0165264220999992000100906004+56960+024040FM-12+0007UMRR V0201301N005012200019N0200001N1+00841+00581102481ADDAA199000091GF102991001001999999001011KA1999N+00791MD1710021+9999REMSYN070AAXX  09061 26422 32998 21305 10084 20058 40248 57002 80001 333 20079;EQDQ01  00002PRCP99
0149264220999992000100909004+56960+024040FM-12+0007UMRR V0201401N005012200019N0200001N1+01211+00521102381ADDGA1001+999999999GF100991001001999999001001MD1710101+9999OA140101001REMSYN070AAXX  09091 26422 42998 01405 10121 20052 40238 57010 333 91010 91111;
0170264220999992000100912004+56960+024040FM-12+0007UMRR V0201501N006012200019N0200001N1+01361+00361102261ADDGA1001+999999999GF100991001001999999001001MA1999999102051MD1710111+9999OA140101101REMSYN076AAXX  09121 26422 42998 01506 10136 20036 30205 40226 57011 333 91011 91112;
0149264220999992000100915004+56960+024040FM-12+0007UMRR V0201301N004012200019N0200001N1+01191+00361102191ADDGA1001+999999999GF100991001001999999001001MD1710071+9999OA140101001REMSYN070AAXX  09151 26422 42998 01304 10119 20036 40219 57007 333 91010 91111;
0198264220999992000100918004+56960+024040FM-12+0007UMRR V0201301N005012200019N0100001N1+00921+00291102191ADDAA199000091GA1001+999999999GF100991001001999999001001KA1120M+01401MD1710011+9999OA140101001REMSYN076AAXX  09181 26422 32997 01305 10092 20029 40219 57001 333 10140 91010 91110;EQDQ01  00002PRCP99
0149264220999992000100921004+56960+024040FM-12+0007UMRR V0201501N004012200019N0100001N1+00681+00121102161ADDGA1001+999999999GF100991001001999999001001MD1710031+9999OA140101001REMSYN070AAXX  09211 26422 42997 01504 10068 20012 40216 57003 333 91010 91111;
0153264220999992000101000004+56960+024040FM-12+0007UMRR V0201401N004012200019N0100001N1+00541+00111102031ADDGA1001+999999999GF100991001001999999001001MA1999999101811MD1710131+9999REMSYN070AAXX  10001 26422 42997 01404 10054 20011 30181 40203 57013 333 91110;
0152264220999992000101003004+56960+024040FM-12+0007UMRR V0201201N003012200019N0100001N1+00371+00131101891ADDAA199000091GA1001+999999999GF100991001001999999001001MD1710141+9999REMSYN054AAXX  10031 26422 32997 01203 10037 20013 40189 57014;EQDQ01  00002PRCP99
0165264220999992000101006004+56960+024040FM-12+0007UMRR V0201201N004019999999N0100001N1+00441+00251101741ADDAA199000091GF107991071001999999071999KA1999N+00341MD1710151+9999REMSYN070AAXX  10061 26422 32997 71204 10044 20025 40174 57015 8707/ 333 20034;EQDQ01  00002PRCP99
0144264220999992000101009004+56960+024040FM-12+0007UMRR V0201501N005010054019N0100001N1+00721+00301101601ADDGA1081+005409069GF108991081051004501999999MD1710141+9999REMSYN076AAXX  10091 26422 42497 81505 10072 20030 40160 57014 885// 333 88618 91111;
0182264220999992000101012004+56960+024040FM-12+0007UMRR V0201401N005010105019N0200001N1+00861+00211101491ADDGA1061+010509089GF107991071091012501001001MA1999999101271MD1710111+9999OA140101001REMSYN088AAXX  10121 26422 42698 71405 10086 20021 30127 40149 57011 87900 333 86835 91010 91111;
0210264220999992000101018004+56960+024040FM-12+0007UMRR V0201501N005010087019N0100001N1+00681+00061101441ADDAA199000091GA1081+008709069GF108991081041008001999999KA1120M+00931MD1410001+9999OA140101001REMSYN088AAXX  10181 26422 32597 81505 10068 20006 40144 54000 884// 333 10093 88629 91010 91112;EQDQ01  00002PRCP99
0144264220999992000101021004+56960+024040FM-12+0007UMRR V0201601N005010072019N0100001N1+00601+00071101431ADDGA1061+007209069GF108991061051008001031999MD1710011+9999REMSYN076AAXX  10211 26422 42597 81605 10060 20007 40143 57001 8653/ 333 86624 91112;
0165264220999992000101100004+56960+024040FM-12+0007UMRR V0201501N005010072019N0100001N1+00531+00001101471ADDGA1081+007209069GF108991081051008001999999MA1999999101251MD1210041+9999REMSYN082AAXX  11001 26422 42597 81505 10053 20000 30125 40147 52004 885// 333 88624 91112;
0210264220999992000101106004+56960+024040FM-12+0007UMRR V0201501N006010054019N0100001N1+00701+00321101331ADDAA199000091GA1081+005409069GF108991081051004501999999KA1120N+00481MD1710051+9999OA140101101REMSYN088AAXX  11061 26422 32497 81506 10070 20032 40133 57005 885// 333 20048 88618 91011 91112;EQDQ01  00002PRCP99
0161264220999992000101109004+56960+024040FM-12+0007UMRR V0201401N005010090019N0100001N1+00841+00431101311ADDGA1081+009009069GF108991081051008001999999MD1710021+9999OA140101001REMSYN082AAXX  11091 26422 42597 81405 10084 20043 40131 57002 885// 333 88630 91010 91112;
0182264220999992000101112004+56960+024040FM-12+0007UMRR V0201501N007010063019N0100001N1+00951+00461101291ADDGA1081+006309069GF108991081051008001999999MA1999999101081MD1710011+9999OA140101401REMSYN088AAXX  11121 26422 42597 81507 10095 20046 30108 40129 57001 885// 333 88621 91014 91114;
0161264220999992000101115004+56960+024040FM-12+0007UMRR V0201401N006010054019N0100001N1+00911+00501101331ADDGA1081+005409069GF108991081051004501999999MD1210031+9999OA140101201REMSYN082AAXX  11151 26422 42497 81406 10091 20050 40133 52003 885// 333 88618 91012 91114;
0210264220999992000101118004+56960+024040FM-12+0007UMRR V0201301N006010060019N0100001N1+00891+00521101281ADDAA199000091GA1061+006009069GF106991061051008001001001KA1120M+00951MD1710051+9999OA140101101REMSYN088AAXX  11181 26422 32597 61306 10089 20052 40128 57005 86500 333 10095 86620 91011 91114;EQDQ01  00002PRCP99
0161264220999992000101121004+56960+024040FM-12+0007UMRR V0201501N005010060019N0100001N1+00921+00571101341ADDGA1051+006009069GF105991051051008001001001MD1210061+9999OA140101001REMSYN082AAXX  11211 26422 42597 51505 10092 20057 40134 52006 85500 333 85620 91010 91114;
0182264220999992000101200004+56960+024040FM-12+0007UMRR V0201501N006010054019N0100001N1+00911+00591101391ADDGA1061+005409069GF106991061051004501001001MA1999999101171MD1210051+9999OA140101101REMSYN088AAXX  12001 26422 42497 61506 10091 20059 30117 40139 52005 86500 333 86618 91011 91114;
0191264220999992000101203004+56960+024040FM-12+0007UMRR V0201401N006010060019N0100001N1+00971+00631101341ADDAA199000091GA1051+006009069GF106991051051999999031001MD1710041+9999OA140101101REMSYN082AAXX  12031 26422 32997 61406 10097 20063 40134 57004 85530 333 85620 91011 91114;EQDQ01  00002PRCP99
0210264220999992000101206004+56960+024040FM-12+0007UMRR V0201501N007010075019N0100001N1+01021+00661101351ADDAA199000091GA1061+007509069GF108991061051008001071999KA1120N+00871MD1210011+9999OA140101401REMSYN088AAXX  12061 26422 32597 81507 10102 20066 40135 52001 8657/ 333 20087 86625 91014 91114;EQDQ01  00002PRCP99
0161264220999992000101209004+56960+024040FM-12+0007UMRR V0201501N007010060019N0100001N1+01171+00731101341ADDGA1061+006009069GF108991061051008001071999MD1710011+9999OA140101301REMSYN082AAXX  12091 26422 42597 81507 10117 20073 40134 57001 8657/ 333 86620 91013 91114;
0160264220999992000101212004+56960+024040FM-12+0007UMRR V0201501N009019999999N0100001N1+01341+00801101251ADDGF108991001001999999071999MA1999999101041MD1710091+9999OA140101801REMSYN082AAXX  12121 26422 42997 81509 10134 20080 30104 40125 57009 8007/ 333 91018 91118;
0208264220999992000101215004+56960+024040FM-12+0007UMRR V0201401N006010021019N0100001N1+01091+01011101281ADDAY181031AY261031GA1061+002109079GF108991999071002501021999MD1210031+9999MW1611OA140101001REMSYN088AAXX  12151 26422 41397 81406 10109 20101 40128 52003 76186 8872/ 333 86707 91010 91118;EQDQ01+000082SCOTLC
0225264220999992000101218004+56960+024040FM-12+0007UMRR V0201601N006010048019N0100001N1+01141+00941101461ADDAA112003091AY181061AY261061GA1081+004809069GF108991081051004501999999KA1120M+01381MD1210181+9999MW1021OA140101001REMSYN100AAXX  12181 26422 11497 81606 10114 20094 40146 52018 60032 70286 885// 333 10138 88616 91010 91118;
0161264220999992000101221004+56960+024040FM-12+0007UMRR V0201501N005010051019N0100001N1+01191+00921101561ADDGA1081+005109069GF108991081051004501999999MD1210101+9999OA140101001REMSYN082AAXX  12211 26422 42497 81505 10119 20092 40156 52010 885// 333 88617 91010 91112;
0165264220999992000101300004+56960+024040FM-12+0007UMRR V0201701N005010033019N0100001N1+01231+00981101631ADDGA1081+003309069GF108991081051004501999999MA1999999101421MD1210071+9999REMSYN082AAXX  13001 26422 42497 81705 10123 20098 30142 40163 52007 885// 333 88611 91112;
0138264220999992000101303004+56960+024040FM-12+0007UMRR V0201601N004010021019N0100001N1+01251+01011101711ADDGA1051+002109069GF108991081051002501999999MD1210081+9999REMSYN070AAXX  13031 26422 /2397 81604 10125 20101 40171 52008 885// 333 85707;
0202264220999992000101306004+56960+024040FM-12+0007UMRR V0201701N004010015019N0040001N1+01231+01031101761ADDAA112000791AY151061AY221061GA1081+001509069GF108991081061001501999999KA1120N+01141MD1210051+9999MW1101REMSYN088AAXX  13061 26422 11296 81704 10123 20103 40176 52005 69902 71052 886// 333 20114 88705;
0161264220999992000101309004+56960+024040FM-12+0007UMRR V0201701N005010036019N0100001N1+01351+01081101751ADDGA1081+003609079GF108991081061004501999999MD1710011+9999OA140101001REMSYN082AAXX  13091 26422 42497 81705 10135 20108 40175 57001 886// 333 88712 91010 91110;
0165264220999992000101312004+56960+024040FM-12+0007UMRR V0201701N005010300019N0100001N1+01541+01191101691ADDGA1041+003909079GF108991041061004501051999MA1999999101481MD1710061+9999REMSYN082AAXX  13121 26422 42497 81705 10154 20119 30148 40169 57006 8465/ 333 84713 91110;
0139264220999992000101315004+56960+024040FM-12+0007UMRR V0201601N007019999999N0100001N1+01551+01181101661ADDGF108991081001999999051999MD1710031+9999OA140101101REMSYN076AAXX  13151 26422 42997 81607 10155 20118 40166 57003 8805/ 333 91011 91111;
0188264220999992000101318004+56960+024040FM-12+0007UMRR V0201601N006012200019N0100001N1+01381+01141101631ADDAA199000091GF103991001001999999001011KA1120M+01611MD1710031+9999OA140101201REMSYN082AAXX  13181 26422 32997 31606 10138 20114 40163 57003 80001 333 10161 91012 91112;EQDQ01  00002PRCP99
0161264220999992000101321004+56960+024040FM-12+0007UMRR V0201701N005010300019N0100001N1+01331+01161101611ADDGA1031+002109079GF108991031061002501051999MD1710021+9999OA140101001REMSYN082AAXX  13211 26422 42397 81705 10133 20116 40161 57002 8365/ 333 83707 91010 91111;
0182264220999992000101400004+56960+024040FM-12+0007UMRR V0201701N005010300019N0100001N1+01301+01181101521ADDGA1031+002109079GF106991031061002501051001MA1999999101311MD1710091+9999OA140101001REMSYN088AAXX  14001 26422 42397 61705 10130 20118 30131 40152 57009 83650 333 83707 91010 91111;
0174264220999992000101403004+56960+024040FM-12+0007UMRR V0201701N004010012019N0100001N1+01281+01191101391ADDAA199000091GA1081+001209079GF108991081061001501999999MD1710131+9999REMSYN076AAXX  14031 26422 32297 81704 10128 20119 40139 57013 886// 333 88704 91110;EQDQ01  00002PRCP99
0215264220999992000101406004+56960+024040FM-12+0007UMRR V0201801N004010006019N0040001N1+01301+01211101241ADDAA199000091AY121061AY221061GA1081+000609069GF108991081061000751999999KA1120N+01271MD1710151+9999MW1101REMSYN082AAXX  14061 26422 31196 81804 10130 20121 40124 57015 71022 886// 333 20127 88702;EQDQ01  00002PRCP99
0166264220999992000101409004+56960+024040FM-12+0007UMRR V0202301N002010006019N0020001N1+01301+01251101241ADDAY151031AY221031GA1081+000609069GF108991081071000751999999MD1410001+9999MW1511REMSYN076AAXX  14091 26422 41195 82302 10130 20125 40124 54000 75152 887// 333 88702;
0187264220999992000101412004+56960+024040FM-12+0007UMRR V0202601N003010018019N0040001N1+01211+01191101381ADDAY161061AY221061GA1081+001809069GF108991081061002501999999MA1999999101171MD1210141+9999MW1611REMSYN082AAXX  14121 26422 41396 82603 10121 20119 30117 40138 52014 76162 886// 333 88706;
0172264220999992000101415004+56960+024040FM-12+0007UMRR V0203001N005010009019N0100001N1+01101+01061101651ADDAY161031AY221031GA1061+000909079GF108991081071001501999999MD1210271+9999MW1011REMSYN082AAXX  14151 26422 41297 83005 10110 20106 40165 52027 70162 887// 333 86703 91113;
0196264220999992000101418004+56960+024040FM-12+0007UMRR V0202601N002012200019N0100001N1+00961+00941101881ADDAA112014091AY161061AY221061GA1001+999999999GF100991001001999999001001KA1120M+01301MD1210221+9999MW1021REMSYN082AAXX  14181 26422 11997 02602 10096 20094 40188 52022 60142 70262 333 10130 91113;
0138264220999992000101421004+56960+024040FM-12+0007UMRR V0202801N002010300019N0100001N1+00871+00851102051ADDGA1041+008709029GF106991041011008001031999MD1210171+9999REMSYN070AAXX  14211 26422 42597 62802 10087 20085 40205 52017 8413/ 333 84829;
0187264220999992000101500004+56960+024040FM-12+0007UMRR V0202601N002010009019N0020001N1+00861+00851102191ADDAY121061AY221061GA1081+000909069GF108991081061000751999999MA1999999101971MD1210141+9999MW1101REMSYN082AAXX  15001 26422 41195 82602 10086 20085 30197 40219 52014 71022 886// 333 88703;
0196264220999992000101503004+56960+024040FM-12+0007UMRR V0202401N001010069019N0040001N1+00931+00921102331ADDAA199000091AY121031AY221031GA1081+006909029GF108991081011008001999999MD1210141+9999MW1101REMSYN076AAXX  15031 26422 31596 82401 10093 20092 40233 52014 71022 881// 333 88823;EQDQ01  00002PRCP99
0215264220999992000101506004+56960+024040FM-12+0007UMRR V0202501N002010006019N0010001N1+00891+00881102461ADDAA199000091AY121061AY221061GA1081+000609069GF108991081061000751999999KA1120N+00821MD1210131+9999MW1101REMSYN082AAXX  15061 26422 31194 82502 10089 20088 40246 52013 71022 886// 333 20082 88702;EQDQ01  00002PRCP99
0159264220999992000101512004+56960+024040FM-12+0007UMRR V0203201N001010054019N0100001N1+01311+00891102571ADDGA1051+005409029GF106991051021004501081001MA1999999102361MD1210021+9999REMSYN076AAXX  15121 26422 42497 63201 10131 20089 30236 40257 52002 85280 333 85818;
0112264220999992000101515004+56960+024040FM-12+0007UMRR V0202201N001012200019N0100001N1+01211+00981102601ADDGF104991031091008001031001MD1210021+9999REMSYN060AAXX  15151 26422 42597 42201 10121 20098 40260 52002 83930;
0187264220999992000101518004+56960+024040FM-12+0007UMRR V0202401N001010054019N0100001N1+00941+00871102651ADDAA199000091GA1051+005409059GF105991051051004501001001KA1120M+01421MD1210051+9999REMSYN076AAXX  15181 26422 32497 52401 10094 20087 40265 52005 85500 333 10142 85618;EQDQ01  00002PRCP99
0150264220999992000101521004+56960+024040FM-12+0007UMRR V0209999C000012200019N0040001N1+00751+00741102721ADDAY111031AY211031GA1001+999999999GF100991001001999999001001MD1210071+9999MW1101REMSYN060AAXX  15211 26422 41996 02000 10075 20074 40272 52007 71011;
0171264220999992000101600004+56960+024040FM-12+0007UMRR V0202001N001012200019N0002001N1+00461+00451102811ADDAY141061AY211061GA1001+999999999GF100991001001999999001001MA1999999102591MD1210091+9999MW1441REMSYN066AAXX  16001 26422 41992 02001 10046 20045 30259 40281 52009 74441;
0180264220999992000101603004+56960+024040FM-12+0007UMRR V0201601N002012200019N0002001N1+00401+00391102871ADDAA199000091AY141031AY201031GA1001+999999999GF100991001001999999001001MD1210061+9999MW1461REMSYN060AAXX  16031 26422 31992 01602 10040 20039 40287 52006 74640;EQDQ01  00002PRCP99
0203264220999992000101606004+56960+024040FM-12+0007UMRR V0201301N003010001519N0001001N1+00531+00521102911ADDAA199000091AY141061AY201061GA1091+999999999GF109991091999999999999999KA1999N+00381MD1210041+9999MW1471REMSYN070AAXX  16061 26422 31/91 91303 10053 20052 40291 52004 74740 333 20038;EQDQ01  00002PRCP99
0166264220999992000101609004+56960+024040FM-12+0007UMRR V0201401N003010012019N0020001N1+00741+00731102971ADDAY141031AY211031GA1051+001209069GF107991061091001501001011MD1210061+9999MW1281REMSYN076AAXX  16091 26422 41295 71403 10074 20073 40297 52006 72841 86901 333 85704;
0187264220999992000101612004+56960+024040FM-12+0007UMRR V0201401N00501004201CN0100001N1+01141+00761102861ADDAY141061AY211061GA1031+005409029GF107991051091004501071011MA1999999102641MD1710111+9999MW1021REMSYN082AAXX  16121 26422 41497 71405 10114 20076 30264 40286 57011 70241 85971 333 83818;
0112264220999992000101615004+56960+024040FM-12+0007UMRR V0201301N004012200019N0100001N1+00951+00651102821ADDGF104991001001999999001011MD1710041+9999REMSYN060AAXX  16151 26422 42997 41304 10095 20065 40282 57004 80001;
0175264220999992000101618004+56960+024040FM-12+0007UMRR V0201401N004012200019N0100001N1+00761+00551102851ADDAA199000091GA1001+999999999GF100991001001999999001001KA1999M+01181MD1210031+9999REMSYN064AAXX  16181 26422 32997 01404 10076 20055 40285 52003 333 10118;EQDQ01  00002PRCP99
0132264220999992000101621004+56960+024040FM-12+0007UMRR V0201501N005012200019N0100001N1+00631+00471102891ADDGA1001+999999999GF100991001001999999001001MD1210041+9999REMSYN064AAXX  16211 26422 42997 01505 10063 20047 40289 52004 333 91110;
0153264220999992000101700004+56960+024040FM-12+0007UMRR V0201501N005012200019N0100001N1+00581+00441102811ADDGA1001+999999999GF100991001001999999001001MA1999999102591MD1710081+9999REMSYN070AAXX  17001 26422 42997 01505 10058 20044 30259 40281 57008 333 91110;
0152264220999992000101703004+56960+024040FM-12+0007UMRR V0201401N004012200019N0100001N1+00541+00411102781ADDAA199000091GA1001+999999999GF100991001001999999001001MD1710031+9999REMSYN054AAXX  17031 26422 32997 01404 10054 20041 40278 57003;EQDQ01  00002PRCP99
0165264220999992000101706004+56960+024040FM-12+0007UMRR V0201401N004012200019N0100001N1+00551+00391102761ADDAA199000091GF102991001001999999001011KA1999N+00491MD1710021+9999REMSYN070AAXX  17061 26422 32997 21404 10055 20039 40276 57002 80001 333 20049;EQDQ01  00002PRCP99
0112264220999992000101709004+56960+024040FM-12+0007UMRR V0201601N004012200019N0100001N1+01021+00511102781ADDGF103991001001999999001011MD1210021+9999REMSYN060AAXX  17091 26422 42997 31604 10102 20051 40278 52002 80001;
0160264220999992000101712004+56960+024040FM-12+0007UMRR V0201401N005012200019N0100001N1+01381+00511102691ADDGF102991001001999999001011MA1999999102481MD1710081+9999OA140101101REMSYN082AAXX  17121 26422 42997 21405 10138 20051 30248 40269 57008 80001 333 91011 91111;
0122264220999992000101715004+56960+024040FM-12+0007UMRR V0201301N004012200019N0100001N1+01211+00591102731ADDGF102991001001999999001011MD1210031+9999REMSYN070AAXX  17151 26422 42997 21304 10121 20059 40273 52003 80001 333 91111;
0175264220999992000101718004+56960+024040FM-12+0007UMRR V0201401N004012200019N0100001N1+00921+00551102841ADDAA199000091GA1001+999999999GF100991001001999999001001KA1999M+01411MD1210111+9999REMSYN064AAXX  17181 26422 32997 01404 10092 20055 40284 52011 333 10141;EQDQ01  00002PRCP99
0122264220999992000101721004+56960+024040FM-12+0007UMRR V0201401N004012200019N0100001N1+00751+00541102911ADDGA1001+999999999GF100991001001999999001001MD1210071+9999REMSYN054AAXX  17211 26422 42997 01404 10075 20054 40291 52007;
0143264220999992000101800004+56960+024040FM-12+0007UMRR V0201501N004012200019N0100001N1+00621+00431102941ADDGA1001+999999999GF100991001001999999001001MA1999999102721MD1210031+9999REMSYN060AAXX  18001 26422 42997 01504 10062 20043 30272 40294 52003;
0152264220999992000101803004+56960+024040FM-12+0007UMRR V0201401N004012200019N0100001N1+00551+00331102921ADDAA199000091GA1001+999999999GF100991001001999999001001MD1710021+9999REMSYN054AAXX  18031 26422 32997 01404 10055 20033 40292 57002;EQDQ01  00002PRCP99
0175264220999992000101806004+56960+024040FM-12+0007UMRR V0201501N004012200019N0100001N1+00531+00311102981ADDAA199000091GA1001+999999999GF100991001001999999001001KA1999N+00501MD1210061+9999REMSYN064AAXX  18061 26422 32997 01504 10053 20031 40298 52006 333 20050;EQDQ01  00002PRCP99
0149264220999992000101809004+56960+024040FM-12+0007UMRR V0201601N005012200019N0200001N1+00951+00461103041ADDGA1001+999999999GF100991001001999999001001MD1210061+9999OA140101001REMSYN070AAXX  18091 26422 42998 01605 10095 20046 40304 52006 333 91010 91110;
0170264220999992000101812004+56960+024040FM-12+0007UMRR V0201401N006012200019N0200001N1+01301+00561103021ADDGA1001+999999999GF100991001001999999001001MA1999999102801MD1410001+9999OA140101001REMSYN076AAXX  18121 26422 42998 01406 10130 20056 30280 40302 54002 333 91010 91111;
0132264220999992000101815004+56960+024040FM-12+0007UMRR V0201501N004012200019N0100001N1+01131+00571103041ADDGA1001+999999999GF100991001001999999001001MD1410001+9999REMSYN064AAXX  18151 26422 42997 01504 10113 20057 40304 54002 333 91110;
0175264220999992000101818004+56960+024040FM-12+0007UMRR V0201601N005012200019N0100001N1+00931+00481103081ADDAA199000091GA1001+999999999GF100991001001999999001001KA1999M+01331MD1210041+9999REMSYN064AAXX  18181 26422 32997 01605 10093 20048 40308 52004 333 10133;EQDQ01  00002PRCP99
0122264220999992000101821004+56960+024040FM-12+0007UMRR V0201601N004012200019N0100001N1+00761+00391103201ADDGA1001+999999999GF100991001001999999001001MD1210121+9999REMSYN054AAXX  18211 26422 42997 01604 10076 20039 40320 52012;
0143264220999992000101900004+56960+024040FM-12+0007UMRR V0201601N004012200019N0100001N1+00561+00291103261ADDGA1001+999999999GF100991001001999999001001MA1999999103041MD1210061+9999REMSYN060AAXX  19001 26422 42997 01604 10056 20029 30304 40326 52006;
0152264220999992000101903004+56960+024040FM-12+0007UMRR V0201701N004012200019N0100001N1+00431+00211103271ADDAA199000091GA1001+999999999GF100991001001999999001001MD1210011+9999REMSYN054AAXX  19031 26422 32997 01704 10043 20021 40327 52001;EQDQ01  00002PRCP99
0165264220999992000101906004+56960+024040FM-12+0007UMRR V0201601N004012200019N0100001N1+00371+00211103351ADDAA199000091GF102991001001999999001091KA1999N+00351MD1210081+9999REMSYN070AAXX  19061 26422 32997 21604 10037 20021 40335 52008 80009 333 20035;EQDQ01  00002PRCP99
0122264220999992000101909004+56960+024040FM-12+0007UMRR V0201601N004012200019N0200001N1+00871+00371103381ADDGA1001+999999999GF100991001001999999001001MD1210031+9999REMSYN054AAXX  19091 26422 42998 01604 10087 20037 40338 52003;
0143264220999992000101912004+56960+024040FM-12+0007UMRR V0201801N006012200019N0200001N1+01121+00341103351ADDGA1001+999999999GF100991001001999999001001MA1999999103131MD1710031+9999REMSYN060AAXX  19121 26422 42998 01806 10112 20034 30313 40335 57003;
0132264220999992000101915004+56960+024040FM-12+0007UMRR V0201501N003012200019N0200001N1+00951+00301103331ADDGA1001+999999999GF100991001001999999001001MD1710021+9999REMSYN064AAXX  19151 26422 42998 01503 10095 20030 40333 57002 333 91111;
0181264220999992000101918004+56960+024040FM-12+0007UMRR V0201501N004012200019N0100001N1+00711+00211103341ADDAA199000091GA1001+999999999GF100991001001999999001001KA1120M+01151MD1210011+9999REMSYN070AAXX  19181 26422 32997 01504 10071 20021 40334 52001 333 10115 91111;EQDQ01  00002PRCP99
0122264220999992000101921004+56960+024040FM-12+0007UMRR V0201701N005012200019N0100001N1+00471+00111103471ADDGA1001+999999999GF100991001001999999001001MD1210131+9999REMSYN054AAXX  19211 26422 42997 01705 10047 20011 40347 52013;
0143264220999992000102000004+56960+024040FM-12+0007UMRR V0201601N004012200019N0100001N1+00321+00021103461ADDGA1001+999999999GF100991001001999999001001MA1999999103241MD1710011+9999REMSYN060AAXX  20001 26422 42997 01604 10032 20002 30324 40346 57001;
0152264220999992000102003004+56960+024040FM-12+0007UMRR V0201601N004012200019N0100001N1+00171-00051103491ADDAA199000091GA1001+999999999GF100991001001999999001001MD1210021+9999REMSYN054AAXX  20031 26422 32997 01604 10017 21005 40349 52002;EQDQ01  00002PRCP99
0175264220999992000102006004+56960+024040FM-12+0007UMRR V0201701N003012200019N0100001N1+00141-00061103531ADDAA199000091GA1001+999999999GF100991001001999999001001KA1999N+00081MD1210041+9999REMSYN064AAXX  20061 26422 32997 01703 10014 21006 40353 52004 333 20008;EQDQ01  00002PRCP99
0122264220999992000102009004+56960+024040FM-12+0007UMRR V0201601N004012200019N0100001N1+00611+00101103561ADDGA1001+999999999GF100991001001999999001001MD1210041+9999REMSYN054AAXX  20091 26422 43997 01604 10061 20010 40356 52004;
0170264220999992000102012004+56960+024040FM-12+0007UMRR V0201701N005012200019N0200001N1+01021+00171103471ADDGA1001+999999999GF100991001001999999001001MA1999999103251MD1710091+9999OA140101001REMSYN076AAXX  20121 26422 42998 01705 10102 20017 30325 40347 57009 333 91010 91110;
0132264220999992000102015004+56960+024040FM-12+0007UMRR V0201601N003012200019N0100001N1+00821+00151103491ADDGA1001+999999999GF100991001001999999001001MD1210021+9999REMSYN064AAXX  20151 26422 42997 01603 10082 20015 40349 52002 333 91110;
0181264220999992000102018004+56960+024040FM-12+0007UMRR V0201501N002012200019N0100001N1+00471+00111103561ADDAA199000091GA1001+999999999GF100991001001999999001001KA1120M+01051MD1210071+9999REMSYN070AAXX  20181 26422 32997 01502 10047 20011 40356 52007 333 10105 91110;EQDQ01  00002PRCP99
0122264220999992000102021004+56960+024040FM-12+0007UMRR V0201501N002012200019N0100001N1+00391+00071103591ADDGA1001+999999999GF100991001001999999001001MD1210031+9999REMSYN054AAXX  20211 26422 42997 01502 10039 20007 40359 52003;
0143264220999992000102100004+56960+024040FM-12+0007UMRR V0201701N003012200019N0100001N1+00201+00001103611ADDGA1001+999999999GF100991001001999999001001MA1999999103381MD1210011+9999REMSYN060AAXX  21001 26422 42997 01703 10020 20000 30338 40361 52001;
0152264220999992000102103004+56960+024040FM-12+0007UMRR V0201701N004012200019N0100001N1+00121-00021103601ADDAA199000091GA1001+999999999GF100991001001999999001001MD1710011+9999REMSYN054AAXX  21031 26422 32997 01704 10012 21002 40360 57001;EQDQ01  00002PRCP99
0187264220999992000102106004+56960+024040FM-12+0007UMRR V0201701N003010120019N0100001N1+00261+00061103641ADDAA199000091GA1061+012009059GF107991061051012501031001KA1120N+00111MD1210041+9999REMSYN076AAXX  21061 26422 32697 71703 10026 20006 40364 52004 86530 333 20011 86640;EQDQ01  00002PRCP99
0138264220999992000102109004+56960+024040FM-12+0007UMRR V0201601N004010108019N0100001N1+00501+00161103681ADDGA1081+010809059GF108991081051012501999999MD1210051+9999REMSYN070AAXX  21091 26422 42697 81604 10050 20016 40368 52005 885// 333 88636;
0159264220999992000102112004+56960+024040FM-12+0007UMRR V0201701N004010114019N0100001N1+00931+00321103631ADDGA1071+011409059GF107991071051012501001001MA1999999103411MD1710051+9999REMSYN076AAXX  21121 26422 42697 71704 10093 20032 30341 40363 57005 87500 333 87638;
0112264220999992000102115004+56960+024040FM-12+0007UMRR V0201601N004019999999N0100001N1+00961+00301103531ADDGF107991001001999999001091MD1710101+9999REMSYN060AAXX  21151 26422 42997 71604 10096 20030 40353 57010 80009;
0175264220999992000102118004+56960+024040FM-12+0007UMRR V0201601N005012200019N0100001N1+00671+00211103471ADDAA199000091GA1001+999999999GF100991001001999999001001KA1999M+01121MD1710061+9999REMSYN064AAXX  21181 26422 32997 01605 10067 20021 40347 57006 333 10112;EQDQ01  00002PRCP99
0122264220999992000102121004+56960+024040FM-12+0007UMRR V0201801N004012200019N0100001N1+00531+00171103411ADDGA1001+999999999GF100991001001999999001001MD1710061+9999REMSYN054AAXX  21211 26422 42997 01804 10053 20017 40341 57006;
0143264220999992000102200004+56960+024040FM-12+0007UMRR V0201701N004012200019N0100001N1+00421+00121103281ADDGA1001+999999999GF100991001001999999001001MA1999999103061MD1710131+9999REMSYN060AAXX  22001 26422 42997 01704 10042 20012 30306 40328 57013;
0137264220999992000102203004+56960+024040FM-12+0007UMRR V0201801N004012200019N0100001N1+00311+99999999999ADDAA199000091GA1001+999999999GF100991001001999999001001REMSYN053AAXX  22031 26422 32997 01804 10031 2000 40308 57020;EQDQ01  00002PRCP99
0165264220999992000102206004+56960+024040FM-12+0007UMRR V0201801N005019999999N0100001N1+00281+00061102971ADDAA199000091GF106991001001999999001011KA1999N+00241MD1710111+9999REMSYN070AAXX  22061 26422 32997 61805 10028 20006 40297 57011 80001 333 20024;EQDQ01  00002PRCP99
0139264220999992000102209004+56960+024040FM-12+0007UMRR V0201801N006019999999N0100001N1+00741+00281102821ADDGF106991001001999999001091MD1710151+9999OA140101001REMSYN076AAXX  22091 26422 42997 61806 10074 20028 40282 57015 80009 333 91010 91110;
0143264220999992000102212004+56960+024040FM-12+0007UMRR V0201901N005019999999N0100001N1+01201+00421102681ADDGF108991081001999999071999MA1999999102461MD1710141+9999REMSYN076AAXX  22121 26422 42997 81905 10120 20042 30246 40268 57014 8807/ 333 91110;
0122264220999992000102215004+56960+024040FM-12+0007UMRR V0201901N003019999999N0100001N1+01231+00491102661ADDGF108991081001999999051999MD1710021+9999REMSYN070AAXX  22151 26422 42997 81903 10123 20049 40266 57002 8805/ 333 91110;
0208264220999992000102218004+56960+024040FM-12+0007UMRR V0202101N003010042019N0100001N1+01121+00561102631ADDAA112000791AY181061AY221061GA1081+004209069GF108991081051004501999999KA1120M+01261MD1710031+9999MW1021REMSYN094AAXX  22181 26422 11497 82103 10112 20056 40263 57003 69902 70282 885// 333 10126 88614 91110;
0138264220999992000102221004+56960+024040FM-12+0007UMRR V0202001N002010033019N0100001N1+01051+00691102641ADDGA1081+003309059GF108991081051004501999999MD1210011+9999REMSYN070AAXX  22211 26422 42497 82002 10105 20069 40264 52001 885// 333 88611;
0187264220999992000102300004+56960+024040FM-12+0007UMRR V0202201N002010021019N0040001N1+00961+00921102591ADDAY181061AY221061GA1061+002109069GF108991081061002501999999MA1999999102371MD1710051+9999MW1101REMSYN082AAXX  23001 26422 41396 82202 10096 20092 30237 40259 57005 71082 886// 333 86707;
0150264220999992000102303004+56960+024040FM-12+0007UMRR V0202301N002010003019N0005001N1+00991+00981102551ADDAY141031AY221031GA1091+999999999GF109991091999999999999999MD1710041+9999MW1471REMSYN060AAXX  23031 26422 /1/93 92302 10099 20098 40255 57004 74742;
0202264220999992000102306004+56960+024040FM-12+0007UMRR V0202901N002010009019N0010001N1+01121+01111102621ADDAA112001091AY141061AY221061GA1081+000909069GF108991081051001501999999KA1120N+00961MD1210071+9999MW1281REMSYN088AAXX  23061 26422 11294 82902 10112 20111 40262 52007 60012 72842 885// 333 20096 88703;
0166264220999992000102309004+56960+024040FM-12+0007UMRR V0203001N002010012019N0010001N1+01171+01121102681ADDAY141031AY221031GA1081+001209069GF108991081061001501999999MD1210061+9999MW1101REMSYN076AAXX  23091 26422 41294 83002 10117 20112 40268 52006 71042 886// 333 88704;
0187264220999992000102312004+56960+024040FM-12+0007UMRR V0203301N001012200019N0100001N1+01331+00981102631ADDAY141061AY221061GA1041+003309069GF104991041061004501001001MA1999999102421MD1710041+9999MW1011REMSYN082AAXX  23121 26422 41497 43301 10133 20098 30242 40263 57004 70142 84600 333 84711;
0140264220999992000102315004+56960+024040FM-12+0007UMRR V0201101N001012200019N0040001N1+01101+00951102591ADDAY111031AY211031GF103991021061004501071001MD1710051+9999MW1101REMSYN066AAXX  23151 26422 41496 31101 10110 20095 40259 57005 71011 82670;
0203264220999992000102318004+56960+024040FM-12+0007UMRR V0201801N002012200019N0040001N1+00831+00791102461ADDAA199000091AY111061AY211061GA1001+999999999GF100991001001999999001001KA1999M+01341MD1710131+9999MW1101REMSYN070AAXX  23181 26422 31996 01802 10083 20079 40246 57013 71011 333 10134;EQDQ01  00002PRCP99
0150264220999992000102321004+56960+024040FM-12+0007UMRR V0201701N003012200019N0040001N1+00731+00681102301ADDAY101031AY201031GA1001+999999999GF100991001001999999001001MD1710161+9999MW1101REMSYN060AAXX  23211 26422 41996 01703 10073 20068 40230 57016 71000;
0171264220999992000102400004+56960+024040FM-12+0007UMRR V0201901N004012200019N0040001N1+00751+00741102121ADDAY101061AY201061GA1001+999999999GF100991001001999999001001MA1999999101901MD1710181+9999MW1101REMSYN066AAXX  24001 26422 41996 01904 10075 20074 30190 40212 57018 71000;
0196264220999992000102403004+56960+024040FM-12+0007UMRR V0201701N004010006019N0020001N1+00851+00831101801ADDAA199000091AY111031AY211031GA1081+000609069GF108991081061000751999999MD1710321+9999MW1101REMSYN076AAXX  24031 26422 31195 81704 10085 20083 40180 57032 71011 886// 333 88702;EQDQ01  00002PRCP99
0215264220999992000102406004+56960+024040FM-12+0007UMRR V0201701N005010009019N0020001N1+00711+00641101481ADDAA199000091AY111061AY211061GA1061+000909069GF108991061061999999001041KA1120N+00701MD1710321+9999MW1101REMSYN082AAXX  24061 26422 31995 81705 10071 20064 40148 57032 71011 86604 333 20070 86703;EQDQ01  00002PRCP99
0167264220999992000102409004+56960+024040FM-12+0007UMRR V0201801N006019999999N0040001N1+01001+00491101151ADDAY121031AY221031GF106991021001999999031011MD1710321+9999MW1101OA140101201REMSYN082AAXX  24091 26422 41996 61806 10100 20049 40115 57032 71022 82031 333 91012 91112;
0160264220999992000102412004+56960+024040FM-12+0007UMRR V0201801N007019999999N0100001N1+01251+00441100851ADDGF108991021001999999031011MA1999999100641MD1710301+9999OA140101201REMSYN082AAXX  24121 26422 42997 81807 10125 20044 30064 40085 57030 82031 333 91012 91113;
0161264220999992000102415004+56960+024040FM-12+0007UMRR V0202001N005010054019N0100001N1+01131+00661100751ADDGA1081+005409069GF108991081051004501999999MD1710101+9999OA140101001REMSYN082AAXX  24151 26422 42497 82005 10113 20066 40075 57010 885// 333 88618 91010 91112;
0208264220999992000102418004+56960+024040FM-12+0007UMRR V0201901N003010015019N0100001N1+00961+00911100611ADDAA112001091AY181061AY221061GA1061+001509079GF108991081041001501999999KA1120M+01281MD1710141+9999MW1021REMSYN094AAXX  24181 26422 11297 81903 10096 20091 40061 57014 60012 70282 884// 333 10128 86705 91112;
0189264220999992000102421004+56960+024040FM-12+0007UMRR V0202001N005010012019N0100001N1+00961+00881100511ADDAY181031AY221031GA1061+001209079GF108991081091001501999999MD1710101+9999MW1801OA140101001REMSYN088AAXX  24211 26422 41297 82005 10096 20088 40051 57010 78082 889// 333 86704 91010 91111;
0210264220999992000102500004+56960+024040FM-12+0007UMRR V0202001N005010015019N0100001N1+00971+00871100381ADDAY181061AY221061GA1051+001509079GF107991071041001501001001MA1999999100171MD1710131+9999MW1021OA140101001REMSYN094AAXX  25001 26422 41297 72005 10097 20087 30017 40038 57013 70282 87400 333 85705 91010 91112;
0189264220999992000102503004+56960+024040FM-12+0007UMRR V0201901N005010021019N0100001N1+00921+00841100291ADDAY181031AY221031GA1031+002109079GF106991061041002501001001MD1710091+9999MW1251OA140101001REMSYN088AAXX  25031 26422 /1397 61905 10092 20084 40029 57009 72582 86400 333 83707 91010 91111;
0208264220999992000102506004+56960+024040FM-12+0007UMRR V0202101N004010015019N0100001N1+00971+00891100291ADDAA112001091AY181061AY221061GA1051+001509079GF108991071091001501031999KA1120N+00911MD1410001+9999MW1801REMSYN094AAXX  25061 26422 11297 82104 10097 20089 40029 54000 69992 78082 8793/ 333 20091 85705 91111;
0166264220999992000102509004+56960+024040FM-12+0007UMRR V0202001N005010138019N0100001N1+01161+00931100371ADDAY181031AY221031GA1061+013809099GF106991061091012501001001MD1210081+9999MW1251REMSYN076AAXX  25091 26422 41697 62005 10116 20093 40037 52008 72582 86900 333 86946;
0210264220999992000102512004+56960+024040FM-12+0007UMRR V0202201N00401030001CN0100001N1+01341+00751100331ADDAY181061AY221061GA1021+013809099GF105991021091012501031999MA1999999100121MD1710041+9999MW1021OA140101001REMSYN094AAXX  25121 26422 41697 52204 10134 20075 30012 40033 57004 70282 8293/ 333 82946 91010 91112;
0144264220999992000102515004+56960+024040FM-12+0007UMRR V0202101N005010300019N0100001N1+01061+00811100311ADDGA1021+003009079GF106991021061004501031001MD1710021+9999REMSYN076AAXX  25151 26422 42497 62105 10106 20081 40031 57002 82630 333 82710 91111;
0174264220999992000102518004+56960+024040FM-12+0007UMRR V0201901N00401004201CN0100001N1+01001+00821100181ADDAA112000791GA1021+003009069GF108991081091004501999999KA1120M+01341MD1710131+9999REMSYN082AAXX  25181 26422 12497 81904 10100 20082 40018 57013 69902 889// 333 10134 82710;
0166264220999992000102521004+56960+024040FM-12+0007UMRR V0201901N005010021019N0100001N1+00901+00831099911ADDAY181031AY221031GA1061+002109069GF108991081091002501999999MD1710271+9999MW1811REMSYN076AAXX  25211 26422 41397 81905 10090 20083 49991 57027 78182 889// 333 86707;
0210264220999992000102600004+56960+024040FM-12+0007UMRR V0201901N005010021019N0100001N1+00921+00871099631ADDAY181061AY221061GA1061+002109079GF108991081091002501999999MA1999999099421MD1710281+9999MW1811OA140101101REMSYN094AAXX  26001 26422 41397 81905 10092 20087 39942 49963 57028 78182 889// 333 86707 91011 91111;
0189264220999992000102603004+56960+024040FM-12+0007UMRR V0202001N006010021019N0100001N1+00961+00911099391ADDAY181031AY221031GA1041+002109079GF108991081091002501999999MD1710241+9999MW1801OA140101201REMSYN088AAXX  26031 26422 /1397 82006 10096 20091 49939 57024 78082 889// 333 84707 91012 91112;
0225264220999992000102606004+56960+024040FM-12+0007UMRR V0202101N00401002101CN0100001N1+01031+00991099341ADDAA112004191AY181061AY221061GA1041+001809079GF108991081091002501999999KA1120N+00891MD1710051+9999MW1811OA140101001REMSYN100AAXX  26061 26422 11397 82104 10103 20099 49934 57005 60042 78182 889// 333 20089 84706 91010 91112;
0189264220999992000102609004+56960+024040FM-12+0007UMRR V0202401N005010027019N0100001N1+01131+01051099601ADDAY181031AY221031GA1061+002709079GF108991081091002501999999MD1210261+9999MW1251OA140101001REMSYN088AAXX  26091 26422 41397 82405 10113 20105 49960 52026 72582 889// 333 86709 91010 91110;
0210264220999992000102612004+56960+024040FM-12+0007UMRR V0202401N005010045019N0100001N1+01201+01001099791ADDAY181061AY221061GA1061+004509079GF108991081051004501999999MA1999999099581MD1210191+9999MW1021OA140101001REMSYN094AAXX  26121 26422 41497 82405 10120 20100 39958 49979 52019 70282 885// 333 86715 91010 91112;
0144264220999992000102615004+56960+024040FM-12+0007UMRR V0202301N005010150019N0100001N1+01151+00901099941ADDGA1081+015009089GF108991081021017501999999MD1210151+9999REMSYN076AAXX  26151 26422 42797 82305 10115 20090 49994 52015 882// 333 88850 91112;
0171264220999992000102618004+56960+024040FM-12+0007UMRR V0202101N003012200019N0100001N1+00941+00841100051ADDAA112001091GF101991999001999999031001KA1999M+01251MD1210111+9999REMSYN076AAXX  26181 26422 12997 12103 10094 20084 40005 52011 60012 80030 333 10125;EQDQ01+000002SCOTLC
0112264220999992000102621004+56960+024040FM-12+0007UMRR V0202001N003012200019N0100001N1+00921+00811100051ADDGF103991001001999999031999MD1410001+9999REMSYN060AAXX  26211 26422 42997 32003 10092 20081 40005 54000 8003/;
0187264220999992000102700004+56960+024040FM-12+0007UMRR V0202101N003010033019N0100001N1+00921+00821100011ADDAY181061AY221061GA1061+003309069GF108991081091004501999999MA1999999099801MD1710041+9999MW1801REMSYN082AAXX  27001 26422 41497 82103 10092 20082 39980 40001 57004 78082 889// 333 86711;
0166264220999992000102703004+56960+024040FM-12+0007UMRR V0201901N004010060019N0100001N1+00841+00821100001ADDAY181031AY221031GA1081+006009029GF108991081021008001999999MD1710011+9999MW1021REMSYN076AAXX  27031 26422 /1597 81904 10084 20082 40000 57001 70282 882// 333 88820;
0202264220999992000102706004+56960+024040FM-12+0007UMRR V0202301N004010024019N0100001N1+00781+00741100091ADDAA112002091AY181061AY221061GA1061+002409069GF108991081021002501999999KA1120N+00781MD1210091+9999MW1021REMSYN088AAXX  27061 26422 11397 82304 10078 20074 40009 52009 60022 70282 882// 333 20078 86708;
0166264220999992000102709004+56960+024040FM-12+0007UMRR V0202201N003010027019N0100001N1+00851+00811100221ADDAY181031AY221031GA1071+002709069GF108991081091002501999999MD1210131+9999MW1801REMSYN076AAXX  27091 26422 41397 82203 10085 20081 40022 52013 78082 889// 333 87709;
0187264220999992000102712004+56960+024040FM-12+0007UMRR V0203501N00401007501CN0100001N1+00701+00491100481ADDAY181061AY221061GA1041+008109029GF108991051091008001051999MA1999999100271MD1210261+9999MW1011REMSYN082AAXX  27121 26422 41597 83504 10070 20049 30027 40048 52026 70182 8595/ 333 84827;
0112264220999992000102715004+56960+024040FM-12+0007UMRR V0203301N002010300019N0100001N1+00631+00341100671ADDGF108991021021008001011999MD1210181+9999REMSYN060AAXX  27151 26422 42597 83302 10063 20034 40067 52018 8221/;
0202264220999992000102718004+56960+024040FM-12+0007UMRR V0203501N002010093019N0100001N1+00601+00331100831ADDAA112003091AY181061AY221061GA1061+009309099GF106991061091008001001001KA1120M+00881MD1210161+9999MW1801REMSYN088AAXX  27181 26422 11597 63502 10060 20033 40083 52016 60032 78082 86900 333 10088 86931;
0166264220999992000102721004+56960+024040FM-12+0007UMRR V0201701N00101007501CN0100001N1+00581+00371101021ADDAY181031AY221031GA1041+009309059GF105991051051008001001001MD1210191+9999MW1011REMSYN076AAXX  27211 26422 41597 51701 10058 20037 40102 52019 70182 85500 333 84631;
0187264220999992000102800004+56960+024040FM-12+0007UMRR V0203101N002010021019N0100001N1+00411+00361101201ADDAY181061AY221061GA1071+002109069GF108991081091002501999999MA1999999100981MD1210181+9999MW1811REMSYN082AAXX  28001 26422 41397 83102 10041 20036 30098 40120 52018 78182 889// 333 87707;
0140264220999992000102803004+56960+024040FM-12+0007UMRR V0202601N002019999999N0100001N1+00481+00431101331ADDAY181031AY221031GF106991061001999999081001MD1210131+9999MW1031REMSYN066AAXX  28031 26422 /1997 62602 10048 20043 40133 52013 70382 86080;
0180264220999992000102806004+56960+024040FM-12+0007UMRR V0202601N003012200019N0100001N1+00391+00301101521ADDAA112000891AY181061AY221061GF103991021021008001041091KA1999N+00371MD1210191+9999MW1031REMSYN082AAXX  28061 26422 11597 32603 10039 20030 40152 52019 69972 70382 82249 333 20037;
0112264220999992000102809004+56960+024040FM-12+0007UMRR V0202201N002010300019N0100001N1+00671+00411101651ADDGF107991021021008001071001MD1210131+9999REMSYN060AAXX  28091 26422 42597 72202 10067 20041 40165 52013 82270;
0133264220999992000102812004+56960+024040FM-12+0007UMRR V0202201N003010300019N0100001N1+00931+00321101691ADDGF106991031091008001071001MA1999999101471MD1210041+9999REMSYN066AAXX  28121 26422 42597 62203 10093 20032 30147 40169 52004 83970;
0112264220999992000102815004+56960+024040FM-12+0007UMRR V0201701N002019999999N0100001N1+00681+00351101671ADDGF105991031001999999071011MD1710021+9999REMSYN060AAXX  28151 26422 42997 51702 10068 20035 40167 57002 83071;
0165264220999992000102818004+56960+024040FM-12+0007UMRR V0201801N003019999999N0100001N1+00591+00401101621ADDAA199000091GF108991081001999999051999KA1999M+00971MD1710051+9999REMSYN070AAXX  28181 26422 32997 81803 10059 20040 40162 57005 8805/ 333 10097;EQDQ01  00002PRCP99
0166264220999992000102821004+56960+024040FM-12+0007UMRR V0201501N002010021019N0100001N1+00591+00551101551ADDAY181031AY221031GA1061+002109069GF108991081091002501999999MD1710071+9999MW1801REMSYN076AAXX  28211 26422 41397 81502 10059 20055 40155 57007 78082 889// 333 86707;
0187264220999992000102900004+56960+024040FM-12+0007UMRR V0201401N003010009019N0010001N1+00641+00631101431ADDAY181061AY221061GA1071+000909069GF108991081091001501999999MA1999999101211MD1710121+9999MW1801REMSYN082AAXX  29001 26422 41294 81403 10064 20063 30121 40143 57012 78082 889// 333 87703;
0166264220999992000102903004+56960+024040FM-12+0007UMRR V0201501N002010009019N0010001N1+00701+00691101311ADDAY181031AY251031GA1081+000909069GF108991081061000751999999MD1710121+9999MW1531REMSYN076AAXX  29031 26422 /1194 81502 10070 20069 40131 57012 75385 886// 333 88703;
0190264220999992000102906004+56960+024040FM-12+0007UMRR V0201201N002010003019N0002001N1+00751+00741101271ADDAA112004191AY181061AY251061GA1091+999999999GF109991091999999999999999KA1999N+00551MD1710041+9999MW1471REMSYN076AAXX  29061 26422 11/92 91202 10075 20074 40127 57004 60042 74785 333 20055;
0150264220999992000102909004+56960+024040FM-12+0007UMRR V0201301N001010001519N0001001N1+00861+00851101241ADDAY141031AY241031GA1091+999999999GF109991091999999999999999MD1710031+9999MW1451REMSYN060AAXX  29091 26422 41/91 91301 10086 20085 40124 57003 74544;
0193264220999992000102912004+56960+024040FM-12+0007UMRR V0201601N003010006019N0010001N1+01011+01001101051ADDAY161061AY241061GA1081+000609079GF108991081061000751999999MA1999999100841MD1710181+9999MW1281REMSYN088AAXX  29121 26422 41194 81603 10101 20100 30084 40105 57018 72864 886// 333 88702 96042;
0166264220999992000102915004+56960+024040FM-12+0007UMRR V0201801N005010006019N0010001N1+01031+01021100811ADDAY161031AY221031GA1081+000609029GF108991081001000751021999MD1710241+9999MW1611REMSYN076AAXX  29151 26422 41194 81805 10103 20102 40081 57024 76162 8802/ 333 88502;
0221264220999992000102918004+56960+024040FM-12+0007UMRR V0202001N003010006019N0040001N1+01061+01041100711ADDAA112007991AY161061AY221061GA1051+000609069GF108991999061000751021999KA1120M+01061MD1710101+9999MW1611REMSYN088AAXX  29181 26422 11196 82003 10106 20104 40071 57010 60082 76162 8862/ 333 10106 85702;EQDQ01+000082SCOTLC
0138264220999992000102921004+56960+024040FM-12+0007UMRR V0202201N003010030019N0100001N1+01001+00951100731ADDGA1061+003009069GF106991061061004501001001MD1210021+9999REMSYN070AAXX  29211 26422 42497 62203 10100 20095 40073 52002 86600 333 86710;
0143264220999992000103000004+56960+024040FM-12+0007UMRR V0202101N003012200019N0100001N1+00861+00811100701ADDGA1001+999999999GF100991001001999999001001MA1999999100491MD1710031+9999REMSYN060AAXX  30001 26422 42997 02103 10086 20081 30049 40070 57003;
0112264220999992000103003004+56960+024040FM-12+0007UMRR V0202001N004012200019N0100001N1+00741+00721100681ADDGF103991031051004501001001MD1710021+9999REMSYN060AAXX  30031 26422 /3497 32004 10074 20072 40068 57002 83500;
0174264220999992000103006004+56960+024040FM-12+0007UMRR V0202001N004019999999N0040001N1+00621+00581100671ADDAA199000021AY111061AY211061GF108991001001999999001041KA1999N+00601MD1710021+9999MW1101REMSYN076AAXX  30061 26422 31996 82004 10062 20058 40067 57002 71011 80004 333 20060;
0138264220999992000103009004+56960+024040FM-12+0007UMRR V0201901N004010300019N0100001N1+00941+00811100691ADDGA1021+003009069GF108991041021004501041091MD1210031+9999REMSYN070AAXX  30091 26422 42497 81904 10094 20081 40069 52003 84249 333 82710;
0160264220999992000103012004+56960+024040FM-12+0007UMRR V0201801N005010300019N0100001N1+01051+00711100571ADDGF108991021021008001011081MA1999999100361MD1710121+9999OA140101001REMSYN082AAXX  30121 26422 42597 81805 10105 20071 30036 40057 57012 82218 333 91010 91110;
0122264220999992000103015004+56960+024040FM-12+0007UMRR V0201601N005019999999N0100001N1+00961+00661100371ADDGF108991081001999999071999MD1710201+9999REMSYN070AAXX  30151 26422 42997 81605 10096 20066 40037 57020 8807/ 333 91110;
0171264220999992000103018004+56960+024040FM-12+0007UMRR V0201701N005019999999N0100001N1+01021+00631100231ADDAA199000091GF108991081001999999051999KA1120M+01081MD1710141+9999REMSYN076AAXX  30181 26422 32997 81705 10102 20063 40023 57014 8805/ 333 10108 91110;EQDQ01  00002PRCP99
0139264220999992000103021004+56960+024040FM-12+0007UMRR V0201801N006019999999N0100001N1+01031+00601100121ADDGF108991081001999999051999MD1710111+9999OA140101001REMSYN076AAXX  30211 26422 42997 81806 10103 20060 40012 57011 8805/ 333 91010 91111;
0160264220999992000103100004+56960+024040FM-12+0007UMRR V0201701N006019999999N0100001N1+01081+00701100031ADDGF108991081001999999071999MA1999999099821MD1710091+9999OA140101001REMSYN082AAXX  31001 26422 42997 81706 10108 20070 39982 40003 57009 8807/ 333 91010 91113;
0169264220999992000103103004+56960+024040FM-12+0007UMRR V0201801N005019999999N0100001N1+01081+00691099991ADDAA199000091GF108991081001999999071999MD1710041+9999OA140101001REMSYN076AAXX  31031 26422 32997 81805 10108 20069 49999 57004 8807/ 333 91010 91112;EQDQ01  00002PRCP99
0210264220999992000103106004+56960+024040FM-12+0007UMRR V0201701N006010021019N0100001N1+01051+00691099971ADDAA199000091GA1051+002109079GF108991081051002501999999KA1120N+01011MD1710021+9999OA140101001REMSYN088AAXX  31061 26422 32397 81706 10105 20069 49997 57002 885// 333 20101 85707 91010 91113;EQDQ01  00002PRCP99
0139264220999992000103109004+56960+024040FM-12+0007UMRR V0201801N005019999999N0100001N1+01141+00761100121ADDGF108991081001999999011999MD1210151+9999OA140101001REMSYN076AAXX  31091 26422 42997 81805 10114 20076 40012 52015 8801/ 333 91010 91111;
0160264220999992000103112004+56960+024040FM-12+0007UMRR V0201701N004019999999N0100001N1+01161+00821100151ADDGF108991081001999999011999MA1999999099941MD1210031+9999OA140101001REMSYN082AAXX  31121 26422 42997 81704 10116 20082 39994 40015 52003 8801/ 333 91010 91110;
0144264220999992000103115004+56960+024040FM-12+0007UMRR V0201801N004010300019N0100001N1+01191+00901100211ADDGA1021+002109079GF108991021061002501011999MD1210061+9999REMSYN076AAXX  31151 26422 42397 81804 10119 20090 40021 52006 8261/ 333 82707 91110;
0187264220999992000103118004+56960+024040FM-12+0007UMRR V0201701N003010015019N0100001N1+01141+00891100251ADDAA199000091GA1071+001509069GF108991071061001501011999KA1120M+01231MD1210041+9999REMSYN076AAXX  31181 26422 32297 81703 10114 20089 40025 52004 8761/ 333 10123 87705;EQDQ01  00002PRCP99
0112264220999992000103121004+56960+024040FM-12+0007UMRR V0201701N004019999999N0100001N1+01141+00891100131ADDGF108991081001000251071999MD1710121+9999REMSYN060AAXX  31211 26422 42097 81704 10114 20089 40013 57012 8807/;
0133264220999992000110100004+56960+024040FM-12+0007UMRR V0201801N004019999999N0100001N1+01111+00881100061ADDGF108991081001999999071999MA1999999099851MD1710071+9999REMSYN066AAXX  01001 26422 42997 81804 10111 20088 39985 40006 57007 8807/;
0166264220999992000110103004+56960+024040FM-12+0007UMRR V0202601N002010021019N0100001N1+01041+00971100211ADDAY181031AY221031GA1061+002109069GF108991081091002501999999MD1210151+9999MW1801REMSYN076AAXX  01031 26422 /1397 82602 10104 20097 40021 52015 78082 889// 333 86707;
0180264220999992000110106004+56960+024040FM-12+0007UMRR V0202101N002019999999N0100001N1+00911+00891100431ADDAA112002091AY181061AY221061GF107991061001999999031011KA1999N+00911MD1210221+9999MW1011REMSYN082AAXX  01061 26422 11997 72102 10091 20089 40043 52022 60022 70182 86031 333 20091;
0112264220999992000110109004+56960+024040FM-12+0007UMRR V0202001N003019999999N0100001N1+00981+00871100671ADDGF108991001001999999001011MD1210241+9999REMSYN060AAXX  01091 26422 42997 82003 10098 20087 40067 52024 80001;
0152264220999992000110112004+56960+024040FM-12+0007UMRR V0202001N003019999999N0100001N1+01171+00791100781ADDGF106991001001999999001011MA1999999100571MD1210111+9999REMSYN066AAXX  01121 26422 42997 62003 10117 20079 30057 40078 52011 80101;EQDQ01+000012SCOLCG
0112264220999992000110115004+56960+024040FM-12+0007UMRR V0201801N003019999999N0100001N1+00981+00771100841ADDGF108991081001999999051999MD1210061+9999REMSYN060AAXX  01151 26422 42997 81803 10098 20077 40084 52006 8805/;
0165264220999992000110118004+56960+024040FM-12+0007UMRR V0201601N002019999999N0100001N1+00931+00751100851ADDAA199000091GF108991081001999999051999KA1999M+01191MD1210011+9999REMSYN070AAXX  01181 26422 32997 81602 10093 20075 40085 52001 8805/ 333 10119;EQDQ01  00002PRCP99
0166264220999992000110121004+56960+024040FM-12+0007UMRR V0201601N002010021019N0040001N1+00861+00841100751ADDAY181031AY221031GA1061+002109069GF108991081091002501999999MD1710101+9999MW1801REMSYN076AAXX  01211 26422 41396 81602 10086 20084 40075 57010 78082 889// 333 86707;
0187264220999992000110200004+56960+024040FM-12+0007UMRR V0202801N001010108019N0040001N1+00821+00811100651ADDAY181061AY221061GA1081+010809099GF108991081091012501999999MA1999999100441MD1710101+9999MW1801REMSYN082AAXX  02001 26422 41696 82801 10082 20081 30044 40065 57010 78082 889// 333 88936;
0166264220999992000110203004+56960+024040FM-12+0007UMRR V0209999C000010030019N0040001N1+00791+00781100571ADDAY181031AY221031GA1061+003009069GF108991081061004501999999MD1710081+9999MW1101REMSYN076AAXX  02031 26422 /1496 80000 10079 20078 40057 57008 71082 886// 333 86710;
0190264220999992000110206004+56960+024040FM-12+0007UMRR V0201801N002010003019N0005001N1+00541+00531100651ADDAA112005191AY181061AY241061GA1091+999999999GF109991091999999999999999KA1999N+00521MD1210071+9999MW1471REMSYN076AAXX  02061 26422 11/93 91802 10054 20053 40065 52007 60052 74784 333 20052;
0166264220999992000110209004+56960+024040FM-12+0007UMRR V0201901N003010021019N0040001N1+00771+00761100731ADDAY141031AY221031GA1071+002109069GF107991071061002501001001MD1210091+9999MW1101REMSYN076AAXX  02091 26422 41396 71903 10077 20076 40073 52009 71042 87600 333 87707;
0187264220999992000110212004+56960+024040FM-12+0007UMRR V0201801N005010033019N0100001N1+01041+00811100731ADDAY141061AY221061GA1051+003309029GF107991051021004501031001MA1999999100521MD1410001+9999MW1031REMSYN082AAXX  02121 26422 41497 71805 10104 20081 30052 40073 54000 70342 85230 333 85811;
0144264220999992000110215004+56960+024040FM-12+0007UMRR V0202001N003010072019N0100001N1+00871+00641100931ADDGA1081+007209069GF108991081051008001999999MD1210201+9999REMSYN076AAXX  02151 26422 42597 82003 10087 20064 40093 52020 885// 333 88624 91111;
0181264220999992000110218004+56960+024040FM-12+0007UMRR V0201901N003012200019N0100001N1+00671+00571101131ADDAA199000091GA1001+999999999GF100991001001999999001001KA1120M+01061MD1210191+9999REMSYN070AAXX  02181 26422 32997 01903 10067 20057 40113 52019 333 10106 91111;EQDQ01  00002PRCP99
0150264220999992000110221004+56960+024040FM-12+0007UMRR V0201701N002012200019N0040001N1+00481+00441101301ADDAY101031AY201031GA1001+999999999GF100991001001999999001001MD1210171+9999MW1101REMSYN060AAXX  02211 26422 41996 01702 10048 20044 40130 52017 71000;
0171264220999992000110300004+56960+024040FM-12+0007UMRR V0201801N002010003019N0002001N1+00461+00451101381ADDAY141061AY201061GA1091+999999999GF109991091999999999999999MA1999999101161MD1210081+9999MW1451REMSYN066AAXX  03001 26422 41/92 91802 10046 20045 30116 40138 52008 74540;
0180264220999992000110303004+56960+024040FM-12+0007UMRR V0201501N003010003019N0002001N1+00421+00411101441ADDAA199000091AY141031AY241031GA1091+999999999GF109991091999999999999999MD1210061+9999MW1451REMSYN060AAXX  03031 26422 31/92 91503 10042 20041 40144 52006 74544;EQDQ01  00002PRCP99
0203264220999992000110306004+56960+024040FM-12+0007UMRR V0201601N004010003019N0002001N1+00551+00541101491ADDAA199000091AY141061AY241061GA1091+999999999GF109991091999999999999999KA1999N+00401MD1210051+9999MW1451REMSYN070AAXX  03061 26422 31/92 91604 10055 20054 40149 52005 74544 333 20040;EQDQ01  00002PRCP99
0166264220999992000110309004+56960+024040FM-12+0007UMRR V0201501N005010003019N0010001N1+00671+00661101521ADDAY141031AY221031GA1081+000309069GF108991081061000251999999MD1710031+9999MW1101REMSYN076AAXX  03091 26422 41094 81505 10067 20066 40152 57003 71042 886// 333 88701;
0187264220999992000110312004+56960+024040FM-12+0007UMRR V0201601N005010018019N0040001N1+00761+00631101551ADDAY141061AY221061GA1061+001809069GF108991081061002501999999MA1999999101331MD1210031+9999MW1101REMSYN082AAXX  03121 26422 41396 81605 10076 20063 30133 40155 52003 71042 886// 333 86706;
0150264220999992000110315004+56960+024040FM-12+0007UMRR V0201301N005019999999N0040001N1+00751+00641101521ADDAY121031AY221031GF106991021001999999071041MD1710031+9999MW1101REMSYN076AAXX  03151 26422 41996 61305 10075 20064 40152 57003 71022 82074 333 91110;
0210264220999992000110318004+56960+024040FM-12+0007UMRR V0201401N007010027019N0100001N1+00661+00481101561ADDAA199000091GA1051+002709079GF106991051061002501071001KA1120M+00801MD1210041+9999OA140101201REMSYN088AAXX  03181 26422 32397 61407 10066 20048 40156 52004 85670 333 10080 85709 91012 91112;EQDQ01  00002PRCP99
0122264220999992000110321004+56960+024040FM-12+0007UMRR V0201501N005012200019N0100001N1+00651+00461101521ADDGF102991021001999999071001MD1710041+9999REMSYN070AAXX  03211 26422 42997 21505 10065 20046 40152 57004 82070 333 91112;
0165264220999992000110400004+56960+024040FM-12+0007UMRR V0201401N004010105019N0100001N1+00631+00471101381ADDGA1061+010509069GF106991061051012501001001MA1999999101161MD1710141+9999REMSYN082AAXX  04001 26422 42697 61404 10063 20047 30116 40138 57014 86500 333 86635 91112;
0169264220999992000110403004+56960+024040FM-12+0007UMRR V0201401N006019999999N0100001N1+00651+00491101231ADDAA199000091GF105991051001999999071001MD1710151+9999OA140101001REMSYN076AAXX  04031 26422 32997 51406 10065 20049 40123 57015 85070 333 91010 91110;EQDQ01  00002PRCP99
0188264220999992000110406004+56960+024040FM-12+0007UMRR V0201401N005019999999N0100001N1+00681+00551101221ADDAA199000091GF108991081001999999071999KA1120N+00601MD1710011+9999OA140101001REMSYN082AAXX  04061 26422 32997 81405 10068 20055 40122 57001 8807/ 333 20060 91010 91110;EQDQ01  00002PRCP99
0139264220999992000110409004+56960+024040FM-12+0007UMRR V0201501N007019999999N0100001N1+01031+00641101191ADDGF107991051001999999031011MD1710021+9999OA140101101REMSYN076AAXX  04091 26422 42997 71507 10103 20064 40119 57002 85031 333 91011 91113;
0160264220999992000110412004+56960+024040FM-12+0007UMRR V0201501N007019999999N0100001N1+01141+00721101121ADDGF108991081001999999071999MA1999999100911MD1710071+9999OA140101201REMSYN082AAXX  04121 26422 42997 81507 10114 20072 30091 40112 57007 8807/ 333 91012 91113;
0167264220999992000110415004+56960+024040FM-12+0007UMRR V0201501N006019999999N0100001N1+01131+00791101101ADDAY181031AY221031GF108991081001999999071999MD1710021+9999MW1021OA140101001REMSYN082AAXX  04151 26422 41997 81506 10113 20079 40110 57002 70282 8807/ 333 91010 91113;
0225264220999992000110418004+56960+024040FM-12+0007UMRR V0201601N007010075019N0100001N1+01111+00791101131ADDAA112000591AY181061AY221061GA1061+007509099GF108991061091008001041999KA1120M+01161MD1210031+9999MW1801OA140101301REMSYN100AAXX  04181 26422 11597 81607 10111 20079 40113 52003 69942 78082 8694/ 333 10116 86925 91013 91113;
0172264220999992000110421004+56960+024040FM-12+0007UMRR V0201701N005010021019N0040001N1+00981+00911101171ADDAY181031AY221031GA1061+002109079GF108991081091002501999999MD1210041+9999MW1801REMSYN082AAXX  04211 26422 41396 81705 10098 20091 40117 52004 78082 889// 333 86707 91111;
0193264220999992000110500004+56960+024040FM-12+0007UMRR V0201701N004010021019N0040001N1+00941+00901101211ADDAY181061AY221061GA1061+002109079GF108991081091002501999999MA1999999101001MD1210041+9999MW1801REMSYN088AAXX  05001 26422 41396 81704 10094 20090 30100 40121 52004 78082 889// 333 86707 91111;
0166264220999992000110503004+56960+024040FM-12+0007UMRR V0201601N003010018019N0040001N1+00911+00891101111ADDAY181031AY251031GA1081+001809069GF108991081061001501999999MD1710101+9999MW1511REMSYN076AAXX  05031 26422 /1296 81603 10091 20089 40111 57010 75185 886// 333 88706;
0202264220999992000110506004+56960+024040FM-12+0007UMRR V0201401N003010015019N0020001N1+00921+00911100951ADDAA112008991AY181061AY261061GA1081+001509029GF108991081001001501021999KA1120N+00911MD1710161+9999MW1631REMSYN088AAXX  05061 26422 11295 81403 10092 20091 40095 57016 60092 76386 8802/ 333 20091 88505;
0166264220999992000110509004+56960+024040FM-12+0007UMRR V0201201N003010009019N0010001N1+00971+00951100691ADDAY161031AY221031GA1061+000909069GF108991081071001501999999MD1710261+9999MW1631REMSYN076AAXX  05091 26422 41294 81203 10097 20095 40069 57026 76362 887// 333 86703;
0206264220999992000110512004+56960+024040FM-12+0007UMRR V0201501N004010009019N0010001N1+01041+01021100371ADDAY161061AY221061GA1061+000909069GF108991999071001501021999MA1999999100161MD1710321+9999MW1631REMSYN082AAXX  05121 26422 41294 81504 10104 20102 30016 40037 57032 76362 8872/ 333 86703;EQDQ01+000082SCOTLC
0166264220999992000110515004+56960+024040FM-12+0007UMRR V0202001N004010012019N0020001N1+01041+01021100261ADDAY161031AY221031GA1081+001209029GF108991081001001501021999MD1710111+9999MW1211REMSYN076AAXX  05151 26422 41295 82004 10104 20102 40026 57011 72162 8802/ 333 88504;
0244264220999992000110518004+56960+024040FM-12+0007UMRR V0202501N006010009019N0020001N1+00831+00791100391ADDAA112017091AY161061AY221061GA1061+000909079GF108991999071001501021999KA1120M+01071MD1210131+9999MW1631OA140101101REMSYN100AAXX  05181 26422 11295 82506 10083 20079 40039 52013 60172 76362 8872/ 333 10107 86703 91011 91111;EQDQ01+000082SCOTLC
0189264220999992000110521004+56960+024040FM-12+0007UMRR V0202401N005010033019N0020001N1+00681+00631100931ADDAY181031AY221031GA1061+003309079GF108991081091004501999999MD1210531+9999MW1811OA140101001REMSYN088AAXX  05211 26422 41495 82405 10068 20063 40093 52053 78182 889// 333 86711 91010 91113;
0171264220999992000110600004+56960+024040FM-12+0007UMRR V0202201N003019999999N0040001N1+00651+00601101171ADDAY181061AY221061GF106991061001000251081001MA1999999100951MD1210241+9999MW1101REMSYN082AAXX  06001 26422 41096 62203 10065 20060 30095 40117 52024 71082 86080 333 91110;
0140264220999992000110603004+56960+024040FM-12+0007UMRR V0202101N003012200019N0040001N1+00541+00501101371ADDAY111031AY211031GF102991021001999999081001MD1210201+9999MW1101REMSYN066AAXX  06031 26422 /1996 22103 10054 20050 40137 52020 71011 82080;
0202264220999992000110606004+56960+024040FM-12+0007UMRR V0201801N003010012019N0040001N1+00541+00521101481ADDAA112007191AY111061AY211061GA1081+001209069GF108991081061001501999999KA1120N+00471MD1210111+9999MW1101REMSYN088AAXX  06061 26422 11296 81803 10054 20052 40148 52011 60072 71011 886// 333 20047 88704;
0138264220999992000110609004+56960+024040FM-12+0007UMRR V0202001N005010045019N0100001N1+00651+00491101631ADDGA1061+004509059GF106991061051004501001001MD1210151+9999REMSYN070AAXX  06091 26422 42497 62005 10065 20049 40163 52015 86500 333 86615;
0159264220999992000110612004+56960+024040FM-12+0007UMRR V0201701N003010057019N0100001N1+00701+00421101631ADDGA1061+005709059GF106991061051004501001001MA1999999101411MD1410001+9999REMSYN076AAXX  06121 26422 42497 61703 10070 20042 30141 40163 54000 86500 333 86619;
0138264220999992000110615004+56960+024040FM-12+0007UMRR V0201601N003010042019N0100001N1+00571+00331101671ADDGA1071+004209059GF107991071051004501001001MD1210041+9999REMSYN070AAXX  06151 26422 42497 71603 10057 20033 40167 52004 87500 333 87614;
0175264220999992000110618004+56960+024040FM-12+0007UMRR V0201401N003012200019N0100001N1+00441+00271101681ADDAA199000091GA1001+999999999GF100991001001999999001001KA1999M+00731MD1210011+9999REMSYN064AAXX  06181 26422 32997 01403 10044 20027 40168 52001 333 10073;EQDQ01  00002PRCP99
0122264220999992000110621004+56960+024040FM-12+0007UMRR V0201301N003012200019N0100001N1+00381+00291101561ADDGA1001+999999999GF100991001001999999001001MD1710121+9999REMSYN054AAXX  06211 26422 42997 01303 10038 20029 40156 57012;
0143264220999992000110700004+56960+024040FM-12+0007UMRR V0201301N004012200019N0100001N1+00391+00281101501ADDGA1001+999999999GF100991001001999999001001MA1999999101281MD1710061+9999REMSYN060AAXX  07001 26422 42997 01304 10039 20028 30128 40150 57006;
0152264220999992000110703004+56960+024040FM-12+0007UMRR V0201201N005012200019N0100001N1+00361+00241101381ADDAA199000091GA1001+999999999GF100991001001999999001001MD1710121+9999REMSYN054AAXX  07031 26422 32997 01205 10036 20024 40138 57012;EQDQ01  00002PRCP99
0210264220999992000110706004+56960+024040FM-12+0007UMRR V0201401N006010030019N0100001N1+00351+00261101311ADDAA199000091GA1081+003009069GF108991081051004501999999KA1120N+00321MD1710071+9999OA140101001REMSYN088AAXX  07061 26422 32497 81406 10035 20026 40131 57007 885// 333 20032 88610 91010 91110;EQDQ01  00002PRCP99
0189264220999992000110709004+56960+024040FM-12+0007UMRR V0201301N006010009019N0040001N1+00541+00471101221ADDAY121031AY221031GA1081+000909069GF108991081061001501999999MD1710091+9999MW1101OA140101101REMSYN088AAXX  07091 26422 41296 81306 10054 20047 40122 57009 71022 886// 333 88603 91011 91112;
0210264220999992000110712004+56960+024040FM-12+0007UMRR V0201401N005010030019N0040001N1+00731+00541101121ADDAY121061AY221061GA1081+003009069GF108991081051004501999999MA1999999100901MD1710101+9999MW1101OA140101001REMSYN094AAXX  07121 26422 41496 81405 10073 20054 30090 40112 57010 71022 885// 333 88610 91010 91112;
0161264220999992000110715004+56960+024040FM-12+0007UMRR V0201301N006010057019N0100001N1+00811+00551100951ADDGA1081+005709069GF108991081051004501999999MD1710171+9999OA140101101REMSYN082AAXX  07151 26422 42497 81306 10081 20055 40095 57017 885// 333 88619 91011 91113;
0210264220999992000110718004+56960+024040FM-12+0007UMRR V0201301N007010042019N0100001N1+00871+00591100811ADDAA199000091GA1061+004209069GF108991061051004501071999KA1120M+00881MD1710131+9999OA140101401REMSYN088AAXX  07181 26422 32497 81307 10087 20059 40081 57013 8657/ 333 10088 86614 91014 91115;EQDQ01  00002PRCP99
0161264220999992000110721004+56960+024040FM-12+0007UMRR V0201201N008010027019N0100001N1+00721+00531100731ADDGA1061+002709079GF108991081061002501999999MD1710091+9999OA140101501REMSYN082AAXX  07211 26422 42397 81208 10072 20053 40073 57009 886// 333 86709 91015 91116;
0225264220999992000110806004+56960+024040FM-12+0007UMRR V0201301N006010021019N0100001N1+00681+00601100181ADDAA112000591AY181061AY221061GA1061+002109079GF108991081091002501999999KA1120N+00671MD1710151+9999MW1801OA140101401REMSYN100AAXX  08061 26422 11397 81306 10068 20060 40018 57015 69952 78082 889// 333 20067 86707 91014 91115;
0189264220999992000110809004+56960+024040FM-12+0007UMRR V0201401N006010021019N0100001N1+00701+00631100121ADDAY181031AY221031GA1071+002109079GF108991081091002501999999MD1710061+9999MW1801OA140101001REMSYN088AAXX  08091 26422 41397 81406 10070 20063 40012 57006 78082 889// 333 87707 91010 91114;
0210264220999992000110812004+56960+024040FM-12+0007UMRR V0201601N006010012019N0100001N1+00861+00821100131ADDAY181061AY251061GA1081+001209079GF108991081061001501999999MA1999999099921MD1210011+9999MW1201OA140101001REMSYN094AAXX  08121 26422 41297 81606 10086 20082 39992 40013 52001 72085 886// 333 88704 91010 91114;
0172264220999992000110815004+56960+024040FM-12+0007UMRR V0201901N004010021019N0040001N1+00951+00931100391ADDAY181031AY221031GA1061+002109079GF108991081091002501999999MD1210261+9999MW1801REMSYN082AAXX  08151 26422 41396 81904 10095 20093 40039 52026 78082 889// 333 86707 91111;
0208264220999992000110818004+56960+024040FM-12+0007UMRR V0201701N003010021019N0040001N1+00831+00811100671ADDAA112005191AY181061AY221061GA1061+002109079GF108991061061002501071999KA1120M+00951MD1210281+9999MW1101REMSYN094AAXX  08181 26422 11396 81703 10083 20081 40067 52028 60052 71082 8667/ 333 10095 86707 91111;
0166264220999992000110821004+56960+024040FM-12+0007UMRR V0201401N003010096019N0040001N1+00801+00781100791ADDAY121031AY221031GA1081+009609059GF108991081061008001999999MD1210121+9999MW1101REMSYN076AAXX  08211 26422 41596 81403 10080 20078 40079 52012 71022 886// 333 88632;
0187264220999992000110900004+56960+024040FM-12+0007UMRR V0201401N004010015019N0040001N1+00951+00911100771ADDAY121061AY221061GA1081+001509069GF108991081061001501999999MA1999999100561MD1710021+9999MW1101REMSYN082AAXX  09001 26422 41296 81404 10095 20091 30056 40077 57002 71022 886// 333 88705;
0166264220999992000110903004+56960+024040FM-12+0007UMRR V0201301N005010015019N0040001N1+00821+00781100771ADDAY151031AY221031GA1081+001509069GF108991081061001501999999MD1410001+9999MW1511REMSYN076AAXX  09031 26422 /1296 81305 10082 20078 40077 54000 75152 886// 333 88705;
0202264220999992000110906004+56960+024040FM-12+0007UMRR V0201401N003010024019N0040001N1+00651+00611100791ADDAA112003091AY181061AY251061GA1071+002409069GF108991081091002501999999KA1120N+00651MD1210011+9999MW1801REMSYN088AAXX  09061 26422 11396 81403 10065 20061 40079 52001 60032 78085 889// 333 20065 87708;
0166264220999992000110909004+56960+024040FM-12+0007UMRR V0201601N003010018019N0040001N1+00641+00601100871ADDAY181031AY221031GA1071+001809069GF108991081091001501999999MD1210081+9999MW1801REMSYN076AAXX  09091 26422 41296 81603 10064 20060 40087 52008 78082 889// 333 87706;
0187264220999992000110912004+56960+024040FM-12+0007UMRR V0201701N003010003019N0020001N1+00721+00711100981ADDAY181061AY221061GA1081+000309069GF108991081061000751999999MA1999999100761MD1210111+9999MW1101REMSYN082AAXX  09121 26422 41195 81703 10072 20071 30076 40098 52011 71082 886// 333 88701;
0166264220999992000110915004+56960+024040FM-12+0007UMRR V0201901N004010009019N0020001N1+00831+00811101171ADDAY151031AY221031GA1081+000909069GF108991081061001501999999MD1210191+9999MW1101REMSYN076AAXX  09151 26422 41295 81904 10083 20081 40117 52019 71052 886// 333 88703;
0180264220999992000110918004+56960+024040FM-12+0007UMRR V0201701N003012200019N0020001N1+00651+00611101301ADDAA112003091AY151061AY211061GF103991021061004501031001KA1999M+00861MD1210131+9999MW1101REMSYN082AAXX  09181 26422 11495 31703 10065 20061 40130 52013 60032 71051 82630 333 10086;
0166264220999992000110921004+56960+024040FM-12+0007UMRR V0201101N002010300019N0020001N1+00661+00621101311ADDAY111031AY211031GA1041+005109059GF105991041051004501031001MD1210011+9999MW1101REMSYN076AAXX  09211 26422 41495 51102 10066 20062 40131 52001 71011 84530 333 84617;
0187264220999992000111000004+56960+024040FM-12+0007UMRR V0201201N002010300019N0020001N1+00621+00601101281ADDAY121061AY221061GA1021+004809059GF106991021051004501031001MA1999999101061MD1710031+9999MW1101REMSYN082AAXX  10001 26422 41495 61202 10062 20060 30106 40128 57003 71022 82530 333 82616;
0166264220999992000111003004+56960+024040FM-12+0007UMRR V0201201N001010006019N0020001N1+00701+00681101201ADDAY181031AY221031GA1071+000609069GF108991081091000751999999MD1710081+9999MW1811REMSYN076AAXX  10031 26422 /1195 81201 10070 20068 40120 57008 78182 889// 333 87702;
0202264220999992000111006004+56960+024040FM-12+0007UMRR V0201501N002010009019N0020001N1+00721+00711101211ADDAA112001091AY181061AY251061GA1081+000909069GF108991081061000751999999KA1120N+00551MD1410001+9999MW1531REMSYN088AAXX  10061 26422 11195 81502 10072 20071 40121 54001 60012 75385 886// 333 20055 88703;
0166264220999992000111009004+56960+024040FM-12+0007UMRR V0201601N002010009019N0040001N1+00611+00591101301ADDAY161031AY251031GA1081+000909029GF108991081001001501021999MD1210091+9999MW1611REMSYN076AAXX  10091 26422 41296 81602 10061 20059 40130 52009 76165 8802/ 333 88503;
0181264220999992000111012004+56960+024040FM-12+0007UMRR V0202701N001010003019N0005001N1+00671+00661101311ADDAY161061AY251061GA1091+999999999GF109991091999999999999999MA1999999101091MD1210011+9999MW1511REMSYN076AAXX  10121 26422 41/93 92701 10067 20066 30109 40131 52001 75165 333 96051;
0166264220999992000111015004+56960+024040FM-12+0007UMRR V0202401N002010048019N0040001N1+00661+00621101431ADDAY141031AY221031GA1081+004809059GF108991081051004501999999MD1210121+9999MW1101REMSYN076AAXX  10151 26422 41496 82402 10066 20062 40143 52012 71042 885// 333 88616;
0202264220999992000111018004+56960+024040FM-12+0007UMRR V0202201N002010123019N0040001N1+00571+00551101471ADDAA112002091AY151061AY241061GA1081+012309059GF108991081051012501999999KA1120M+00721MD1210041+9999MW1101REMSYN088AAXX  10181 26422 11696 82202 10057 20055 40147 52004 60022 71054 885// 333 10072 88641;
0166264220999992000111021004+56960+024040FM-12+0007UMRR V0202101N002010015019N0020001N1+00651+00631101551ADDAY121031AY221031GA1081+001509069GF108991081061001501999999MD1210081+9999MW1101REMSYN076AAXX  10211 26422 41295 82102 10065 20063 40155 52008 71022 886// 333 88705;
0187264220999992000111100004+56960+024040FM-12+0007UMRR V0202101N002010012019N0020001N1+00621+00581101621ADDAY121061AY221061GA1081+001209069GF108991081061001501999999MA1999999101401MD1210071+9999MW1101REMSYN082AAXX  11001 26422 41295 82102 10062 20058 30140 40162 52007 71022 886// 333 88704;
0196264220999992000111103004+56960+024040FM-12+0007UMRR V0201801N002010012019N0020001N1+00571+00531101641ADDAA199000091AY121031AY221031GA1081+001209069GF108991081061001501999999MD1210021+9999MW1101REMSYN076AAXX  11031 26422 31295 81802 10057 20053 40164 52002 71022 886// 333 88704;EQDQ01  00002PRCP99
0215264220999992000111106004+56960+024040FM-12+0007UMRR V0202001N003010009019N0020001N1+00501+00481101711ADDAA199000091AY121061AY221061GA1081+000909069GF108991081061001501999999KA1120N+00491MD1210071+9999MW1101REMSYN082AAXX  11061 26422 31295 82003 10050 20048 40171 52007 71022 886// 333 20049 88703;EQDQ01  00002PRCP99
0166264220999992000111109004+56960+024040FM-12+0007UMRR V0201701N005010012019N0040001N1+00561+00491101751ADDAY121031AY221031GA1081+001209069GF108991081061001501999999MD1210041+9999MW1101REMSYN076AAXX  11091 26422 41296 81705 10056 20049 40175 52004 71022 886// 333 88704;
0206264220999992000111112004+56960+024040FM-12+0007UMRR V0201701N004010006019N0020001N1+00581+00541101741ADDAY161061AY221061GA1061+000609069GF108991999071000751021999MA1999999101521MD1710011+9999MW1611REMSYN082AAXX  11121 26422 41195 81704 10058 20054 30152 40174 57001 76162 8872/ 333 86702;EQDQ01+000082SCOTLC
0166264220999992000111115004+56960+024040FM-12+0007UMRR V0201801N003010009019N0020001N1+00581+00561101761ADDAY161031AY221031GA1081+000909069GF108991081061001501999999MD1210021+9999MW1211REMSYN076AAXX  11151 26422 41295 81803 10058 20056 40176 52002 72162 886// 333 88703;
0202264220999992000111118004+56960+024040FM-12+0007UMRR V0201901N003010009019N0040001N1+00591+00551101811ADDAA112000591AY161061AY221061GA1081+000909069GF108991081061001501999999KA1120M+00601MD1210051+9999MW1101REMSYN088AAXX  11181 26422 11296 81903 10059 20055 40181 52005 69952 71062 886// 333 10060 88703;
0166264220999992000111121004+56960+024040FM-12+0007UMRR V0202201N003010006019N0040001N1+00611+00571101871ADDAY181031AY221031GA1071+000609069GF108991081091000751999999MD1210061+9999MW1801REMSYN076AAXX  11211 26422 41196 82203 10061 20057 40187 52006 78082 889// 333 87702;
0187264220999992000111200004+56960+024040FM-12+0007UMRR V0202101N003010012019N0040001N1+00571+00551101931ADDAY181061AY221061GA1061+001209069GF108991081041001501999999MA1999999101711MD1210061+9999MW1101REMSYN082AAXX  12001 26422 41296 82103 10057 20055 30171 40193 52006 71082 884// 333 86704;
0166264220999992000111203004+56960+024040FM-12+0007UMRR V0202101N002010009019N0040001N1+00571+00551101921ADDAY121031AY221031GA1061+000909069GF107991071051000751001001MD1710011+9999MW1101REMSYN076AAXX  12031 26422 /1196 72102 10057 20055 40192 57001 71022 87500 333 86703;
0202264220999992000111206004+56960+024040FM-12+0007UMRR V0201901N004010012019N0040001N1+00551+00531101951ADDAA112001091AY121061AY221061GA1081+001209069GF108991081061001501999999KA1120N+00551MD1210031+9999MW1101REMSYN088AAXX  12061 26422 11296 81904 10055 20053 40195 52003 60012 71022 886// 333 20055 88704;
0172264220999992000111209004+56960+024040FM-12+0007UMRR V0201801N005010012019N0040001N1+00471+00401101991ADDAY121031AY221031GA1081+001209079GF108991081061001501999999MD1210041+9999MW1101REMSYN082AAXX  12091 26422 41296 81805 10047 20040 40199 52004 71022 886// 333 88704 91112;
0187264220999992000111212004+56960+024040FM-12+0007UMRR V0201801N004010009019N0100001N1+00601+00471101891ADDAY151061AY221061GA1061+000909069GF108991081051001501999999MA1999999101671MD1710101+9999MW1021REMSYN082AAXX  12121 26422 41297 81804 10060 20047 30167 40189 57010 70252 885// 333 86703;
0166264220999992000111215004+56960+024040FM-12+0007UMRR V0201801N004010009019N0040001N1+00591+00401101851ADDAY151031AY221031GA1051+000909069GF108991081051000751999999MD1710041+9999MW1101REMSYN076AAXX  12151 26422 41196 81804 10059 20040 40185 57004 71052 885// 333 85703;
0180264220999992000111218004+56960+024040FM-12+0007UMRR V0201601N004012200019N0100001N1+00451+00361101761ADDAA112000391AY151061AY211061GF102991021001999999031001KA1999M+00611MD1710091+9999MW1021REMSYN082AAXX  12181 26422 11997 21604 10045 20036 40176 57009 69932 70251 82030 333 10061;
0112264220999992000111221004+56960+024040FM-12+0007UMRR V0201501N004019999999N0100001N1+00461+00301101661ADDGF105991051001000251071001MD1710101+9999REMSYN060AAXX  12211 26422 42097 51504 10046 20030 40166 57010 85070;
0133264220999992000111300004+56960+024040FM-12+0007UMRR V0201601N004012200019N0100001N1+00441+00271101521ADDGF102991021001999999031001MA1999999101301MD1710141+9999REMSYN066AAXX  13001 26422 42997 21604 10044 20027 30130 40152 57014 82030;
0191264220999992000111303004+56960+024040FM-12+0007UMRR V0201601N006010024019N0100001N1+00431+00291101391ADDAA199000091GA1081+002409069GF108991081051002501999999MD1710131+9999OA140101001REMSYN082AAXX  13031 26422 32397 81606 10043 20029 40139 57013 885// 333 88608 91010 91110;EQDQ01  00002PRCP99
0238264220999992000111306004+56960+024040FM-12+0007UMRR V0201601N006010024019N0040001N1+00461+00321101321ADDAA199000091AY111061AY211061GA1081+002409069GF108991081051002501999999KA1120N+00371MD1710071+9999MW1101OA140101001REMSYN094AAXX  13061 26422 31396 81606 10046 20032 40132 57007 71011 885// 333 20037 88608 91010 91112;EQDQ01  00002PRCP99
0189264220999992000111309004+56960+024040FM-12+0007UMRR V0201501N006010045019N0040001N1+00531+00321101181ADDAY121031AY221031GA1081+004509069GF108991081051004501999999MD1710141+9999MW1101OA140101001REMSYN088AAXX  13091 26422 41496 81506 10053 20032 40118 57014 71022 885// 333 88615 91010 91111;
0210264220999992000111312004+56960+024040FM-12+0007UMRR V0201501N005010099019N0040001N1+00621+00351101121ADDAY121061AY221061GA1081+009909069GF108991081051012501999999MA1999999100901MD1710061+9999MW1101OA140101001REMSYN094AAXX  13121 26422 41696 81505 10062 20035 30090 40112 57006 71022 885// 333 88633 91010 91112;
0188264220999992000111318004+56960+024040FM-12+0007UMRR V0201601N006019999999N0100001N1+00601+00271100921ADDAA199000091GF108991081001999999071999KA1120M+00621MD1710041+9999OA140101001REMSYN082AAXX  13181 26422 32997 81606 10060 20027 40092 57004 8807/ 333 10062 91010 91112;EQDQ01  00002PRCP99
0122264220999992000111321004+56960+024040FM-12+0007UMRR V0201801N004019999999N0100001N1+00611+00301101001ADDGF108991081001999999071999MD1210081+9999REMSYN070AAXX  13211 26422 42997 81804 10061 20030 40100 52008 8807/ 333 91111;
0159264220999992000111400004+56960+024040FM-12+0007UMRR V0201601N003010105019N0100001N1+00621+00351101071ADDGA1081+010509059GF108991081051012501999999MA1999999100851MD1210071+9999REMSYN076AAXX  14001 26422 42697 81603 10062 20035 30085 40107 52007 885// 333 88635;
0168264220999992000111403004+56960+024040FM-12+0007UMRR V0201601N004010120019N0100001N1+00601+00331101021ADDAA199000091GA1081+012009059GF108991081051012501999999MD1710051+9999REMSYN070AAXX  14031 26422 32697 81604 10060 20033 40102 57005 885// 333 88640;EQDQ01  00002PRCP99
0187264220999992000111406004+56960+024040FM-12+0007UMRR V0201601N005010120019N0100001N1+00531+00321100991ADDAA199000091GA1081+012009059GF108991081051012501999999KA1120N+00521MD1710031+9999REMSYN076AAXX  14061 26422 32697 81605 10053 20032 40099 57003 885// 333 20052 88640;EQDQ01  00002PRCP99
0112264220999992000111409004+56960+024040FM-12+0007UMRR V0201601N005019999999N0100001N1+00651+00391100981ADDGF108991081001999999051999MD1710011+9999REMSYN060AAXX  14091 26422 42997 81605 10065 20039 40098 57001 8805/;
0143264220999992000111412004+56960+024040FM-12+0007UMRR V0201601N004019999999N0100001N1+00781+00471100761ADDGF108991081001999999051999MA1999999100551MD1710211+9999REMSYN076AAXX  14121 26422 42997 81604 10078 20047 30055 40076 57021 8805/ 333 91111;
0122264220999992000111415004+56960+024040FM-12+0007UMRR V0201901N004019999999N0100001N1+00691+00481100831ADDGF106991061001999999071001MD1210061+9999REMSYN070AAXX  14151 26422 42997 61904 10069 20048 40083 52006 86070 333 91110;
0193264220999992000111418004+56960+024040FM-12+0007UMRR V0201801N003010042019N0100001N1+00611+00451100881ADDAA199000091GA1051+004209069GF107991051051004501071001KA1120M+00821MD1210051+9999REMSYN082AAXX  14181 26422 32497 71803 10061 20045 40088 52005 85570 333 10082 85614 91110;EQDQ01  00002PRCP99
0138264220999992000111421004+56960+024040FM-12+0007UMRR V0201701N003010039019N0100001N1+00551+00481100991ADDGA1081+003909059GF108991081051004501999999MD1210111+9999REMSYN070AAXX  14211 26422 42497 81703 10055 20048 40099 52011 885// 333 88613;
0187264220999992000111500004+56960+024040FM-12+0007UMRR V0201801N003010015019N0040001N1+00541+00501100941ADDAY121061AY221061GA1081+001509069GF108991081061001501999999MA1999999100721MD1710051+9999MW1101REMSYN082AAXX  15001 26422 41296 81803 10054 20050 30072 40094 57005 71022 886// 333 88705;
0196264220999992000111503004+56960+024040FM-12+0007UMRR V0201501N001010009019N0020001N1+00551+00531100971ADDAA199000091AY121031AY221031GA1081+000909069GF108991081061001501999999MD1210031+9999MW1101REMSYN076AAXX  15031 26422 31295 81501 10055 20053 40097 52003 71022 886// 333 88703;EQDQ01  00002PRCP99
0202264220999992000111506004+56960+024040FM-12+0007UMRR V0201201N001010009019N0010001N1+00581+00571100931ADDAA112000891AY161061AY251061GA1081+000909029GF108991081001000751021999KA1120N+00531MD1710041+9999MW1611REMSYN088AAXX  15061 26422 11194 81201 10058 20057 40093 57004 69972 76165 8802/ 333 20053 88503;
0166264220999992000111509004+56960+024040FM-12+0007UMRR V0203401N002010006019N0010001N1+00591+00581100981ADDAY161031AY221031GA1081+000609029GF108991081001000751021999MD1210051+9999MW1631REMSYN076AAXX  15091 26422 41194 83402 10059 20058 40098 52005 76362 8802/ 333 88502;
0187264220999992000111512004+56960+024040FM-12+0007UMRR V0203201N001010009019N0020001N1+00671+00661101061ADDAY161061AY221061GA1081+000909069GF108991081061000751999999MA1999999100841MD1210081+9999MW1101REMSYN082AAXX  15121 26422 41195 83201 10067 20066 30084 40106 52008 71062 886// 333 88703;
0166264220999992000111515004+56960+024040FM-12+0007UMRR V0203001N002010123019N0040001N1+00721+00711101211ADDAY181031AY251031GA1081+012309099GF108991081091012501999999MD1210151+9999MW1811REMSYN076AAXX  15151 26422 41696 83002 10072 20071 40121 52015 78185 889// 333 88941;
0125264220999992000111518004+56960+024040FM-12+0007UMRR V0202401N002019999999N0100001N1+00721+00701999999ADDGF108991999999000751999999REMSYN087AAXX  15181 26422 11197 82402 10072 20070 4040 52019 60052 75285 886// 333 10074 88703;
0166264220999992000111521004+56960+024040FM-12+0007UMRR V0202301N002010003019N0040001N1+00661+00651101531ADDAY181031AY251031GA1071+000309069GF108991081091000751999999MD1210131+9999MW1251REMSYN076AAXX  15211 26422 41196 82302 10066 20065 40153 52013 72585 889// 333 87701;
0187264220999992000111600004+56960+024040FM-12+0007UMRR V0202301N001010015019N0020001N1+00631+00621101611ADDAY181061AY251061GA1061+001509069GF108991081091001501999999MA1999999101391MD1210081+9999MW1801REMSYN082AAXX  16001 26422 41295 82301 10063 20062 30139 40161 52008 78085 889// 333 86705;
0166264220999992000111603004+56960+024040FM-12+0007UMRR V0201901N002010006019N0040001N1+00581+00571101651ADDAY181031AY221031GA1071+000609069GF108991081091000751999999MD1210041+9999MW1251REMSYN076AAXX  16031 26422 /1196 81902 10058 20057 40165 52004 72582 889// 333 87702;
0202264220999992000111606004+56960+024040FM-12+0007UMRR V0201701N002010006019N0040001N1+00531+00521101591ADDAA112001091AY181061AY221061GA1061+000609069GF107991071091000751001001KA1120N+00531MD1710061+9999MW1251REMSYN088AAXX  16061 26422 11196 71702 10053 20052 40159 57006 69992 72582 87900 333 20053 86702;
0165264220999992000111609004+56960+024040FM-12+0007UMRR V0201801N003010003019N0010001N1+00591+00581101571ADDAY181031AY241031GA1081+000309069GF108991081061000751999999MD1710021+9999MW1101REMSYN075AAXX  16091 26422 41194 81803 10059 20058 4015757002 71084 886// 333 88701;
0187264220999992000111612004+56960+024040FM-12+0007UMRR V0201901N002010009019N0020001N1+00651+00631101421ADDAY181061AY241061GA1081+000909069GF108991081061001501999999MA1999999101201MD1710151+9999MW1101REMSYN082AAXX  16121 26422 41295 81902 10065 20063 30120 40142 57015 71084 886// 333 88703;
0166264220999992000111615004+56960+024040FM-12+0007UMRR V0201701N001010015019N0020001N1+00631+00591101391ADDAY121031AY221031GA1081+001509069GF108991081061001501999999MD1710031+9999MW1101REMSYN076AAXX  16151 26422 41295 81701 10063 20059 40139 57003 71022 886// 333 88705;
0202264220999992000111618004+56960+024040FM-12+0007UMRR V0202401N001010015019N0040001N1+00621+00601101461ADDAA112000791AY121061AY221061GA1081+001509069GF108991081061001501999999KA1120M+00671MD1210071+9999MW1101REMSYN088AAXX  16181 26422 11296 82401 10062 20060 40146 52007 69902 71022 886// 333 10067 88705;
0166264220999992000111621004+56960+024040FM-12+0007UMRR V0202301N002010015019N0040001N1+00541+00521101591ADDAY121031AY221031GA1061+001509069GF108991061061001501031999MD1210131+9999MW1101REMSYN076AAXX  16211 26422 41296 82302 10054 20052 40159 52013 71022 8663/ 333 86705;
0187264220999992000111700004+56960+024040FM-12+0007UMRR V0202301N001010015019N0040001N1+00531+00491101771ADDAY121061AY221061GA1061+001509069GF108991061061001501031999MA1999999101551MD1210181+9999MW1101REMSYN082AAXX  17001 26422 41296 82301 10053 20049 30155 40177 52018 71022 8663/ 333 86705;
0180264220999992000111703004+56960+024040FM-12+0007UMRR V0209999C000010003019N0005001N1+00401+00391101881ADDAA199000091AY141031AY221031GA1091+999999999GF109991091999999999999999MD1210111+9999MW1471REMSYN060AAXX  17031 26422 31/93 92900 10040 20039 40188 52011 74742;EQDQ01  00002PRCP99
0203264220999992000111706004+56960+024040FM-12+0007UMRR V0201901N002010003019N0002001N1+00331+00321102071ADDAA199000091AY141061AY221061GA1091+999999999GF109991091999999999999999KA1999N+00321MD1210191+9999MW1471REMSYN070AAXX  17061 26422 31/92 91902 10033 20032 40207 52019 74742 333 20032;EQDQ01  00002PRCP99
0150264220999992000111709004+56960+024040FM-12+0007UMRR V0201601N002010003019N0002001N1+00391+00381102211ADDAY141031AY241031GA1091+999999999GF109991091999999999999999MD1210141+9999MW1451REMSYN060AAXX  17091 26422 41/92 91602 10039 20038 40221 52014 74544;
0171264220999992000111712004+56960+024040FM-12+0007UMRR V0201501N003010003019N0002001N1+00461+00451102241ADDAY141061AY241061GA1091+999999999GF109991091999999999999999MA1999999102021MD1210031+9999MW1451REMSYN066AAXX  17121 26422 41/92 91503 10046 20045 30202 40224 52003 74544;
0166264220999992000111715004+56960+024040FM-12+0007UMRR V0201401N002010009019N0020001N1+00461+00451102291ADDAY141031AY221031GA1081+000909069GF108991081061000751999999MD1210051+9999MW1101REMSYN076AAXX  17151 26422 41195 81402 10046 20045 40229 52005 71042 886// 333 88703;
0215264220999992000111718004+56960+024040FM-12+0007UMRR V0201301N003010012019N0040001N1+00521+00451102231ADDAA199000091AY141061AY221061GA1081+001209069GF108991081061001501999999KA1120M+00521MD1710061+9999MW1101REMSYN082AAXX  17181 26422 31296 81303 10052 20045 40223 57006 71042 886// 333 10052 88704;EQDQ01  00002PRCP99
0166264220999992000111721004+56960+024040FM-12+0007UMRR V0201401N004010030019N0040001N1+00551+00381102121ADDAY121031AY221031GA1081+003009069GF108991081061004501999999MD1710111+9999MW1101REMSYN076AAXX  17211 26422 41496 81404 10055 20038 40212 57011 71022 886// 333 88710;
0210264220999992000111800004+56960+024040FM-12+0007UMRR V0201301N006010300019N0040001N1+00541+00321101871ADDAY121061AY221061GA1041+004209099GF108991041091004501081999MA1999999101651MD1710251+9999MW1101OA140101001REMSYN094AAXX  18001 26422 41496 81306 10054 20032 30165 40187 57025 71022 8498/ 333 84914 91010 91112;
0191264220999992000111803004+56960+024040FM-12+0007UMRR V0201301N005010132019N0100001N1+00581+00321101511ADDAA199000091GA1071+013209069GF107991071051012501001001MD1710361+9999OA140101101REMSYN082AAXX  18031 26422 32697 71305 10058 20032 40151 57036 87500 333 87644 91011 91112;EQDQ01  00002PRCP99
0210264220999992000111806004+56960+024040FM-12+0007UMRR V0201501N005010033019N0100001N1+00611+00371101371ADDAA199000091GA1081+003309079GF108991081061004501999999KA1120N+00521MD1710141+9999OA140101001REMSYN088AAXX  18061 26422 32497 81505 10061 20037 40137 57014 886// 333 20052 88711 91010 91113;EQDQ01  00002PRCP99
0161264220999992000111809004+56960+024040FM-12+0007UMRR V0201501N006010018019N0100001N1+00671+00481101181ADDGA1081+001809079GF108991081061002501999999MD1710191+9999OA140101101REMSYN082AAXX  18091 26422 42397 81506 10067 20048 40118 57019 886// 333 88706 91011 91113;
0210264220999992000111812004+56960+024040FM-12+0007UMRR V0201701N005010018019N0100001N1+00731+00551101131ADDAY151061AY221061GA1081+001809079GF108991081061002501999999MA1999999100911MD1710051+9999MW1021OA140101001REMSYN094AAXX  18121 26422 41397 81705 10073 20055 30091 40113 57005 70252 886// 333 88706 91010 91111;
0189264220999992000111815004+56960+024040FM-12+0007UMRR V0201701N006010018019N0040001N1+00721+00581101041ADDAY121031AY221031GA1081+001809079GF108991081061001501999999MD1710091+9999MW1101OA140101001REMSYN088AAXX  18151 26422 41296 81706 10072 20058 40104 57009 71022 886// 333 88706 91010 91110;
0225264220999992000111818004+56960+024040FM-12+0007UMRR V0201801N004010006019N0040001N1+00671+00631100971ADDAA112000791AY151061AY221061GA1081+000609079GF108991081061000751999999KA1120M+00731MD1710071+9999MW1511OA140101001REMSYN100AAXX  18181 26422 11196 81804 10067 20063 40097 57007 69902 75152 886// 333 10073 88702 91010 91110;
0166264220999992000111821004+56960+024040FM-12+0007UMRR V0202301N003010024019N0040001N1+00701+00681101021ADDAY161031AY221031GA1071+002409069GF107991071061002501001001MD1210051+9999MW1101REMSYN076AAXX  18211 26422 41396 72303 10070 20068 40102 52005 71062 87600 333 87708;
0206264220999992000111900004+56960+024040FM-12+0007UMRR V0202001N002010150019N0040001N1+00571+00501101161ADDAY161061AY221061GA1071+015009059GF107991071051017501999001MA1999999100941MD1210141+9999MW1101REMSYN082AAXX  19001 26422 41796 72002 10057 20050 30094 40116 52014 71062 87500 333 87650;EQDQ01    003SCOMCG
0140264220999992000111903004+56960+024040FM-12+0007UMRR V0202101N004012200019N0040001N1+00371+00321101281ADDAY111031AY211031GF102991021001999999031001MD1210121+9999MW1101REMSYN066AAXX  19031 26422 /1996 22104 10037 20032 40128 52012 71011 82030;
0202264220999992000111906004+56960+024040FM-12+0007UMRR V0201801N005010021019N0040001N1+00211+00181101401ADDAA112002091AY111061AY211061GA1081+002109069GF108991081061002501999999KA1120N+00211MD1210121+9999MW1101REMSYN088AAXX  19061 26422 11396 81805 10021 20018 40140 52012 60022 71011 886// 333 20021 88707;
0166264220999992000111909004+56960+024040FM-12+0007UMRR V0201901N004010012019N0040001N1+00251+00191101541ADDAY111031AY211031GA1061+001209069GF108991061061001501031999MD1210141+9999MW1101REMSYN076AAXX  19091 26422 41296 81904 10025 20019 40154 52014 71011 8663/ 333 86704;
0161264220999992000111912004+56960+024040FM-12+0007UMRR V0201601N002010300019N0040001N1+00461+00321101571ADDAY121061AY221061GF108991021061002501031041MA1999999101351MD1210031+9999MW1101REMSYN072AAXX  19121 26422 41396 81602 10046 20032 30135 40157 52003 71022 82634;
0112264220999992000111915004+56960+024040FM-12+0007UMRR V0201501N003019999999N0100001N1+00391+00191101601ADDGF108991001001999999001041MD1210031+9999REMSYN060AAXX  19151 26422 42997 81503 10039 20019 40160 52003 80004;
0175264220999992000111918004+56960+024040FM-12+0007UMRR V0201601N004012200019N0100001N1+00221+00071101641ADDAA199000091GA1001+999999999GF100991001001999999001001KA1999M+00591MD1210041+9999REMSYN064AAXX  19181 26422 32997 01604 10022 20007 40164 52004 333 10059;EQDQ01  00002PRCP99
0122264220999992000111921004+56960+024040FM-12+0007UMRR V0201201N003012200019N0100001N1+00221+00131101641ADDGA1001+999999999GF100991001001999999001001MD1410001+9999REMSYN054AAXX  19211 26422 42997 01203 10022 20013 40164 54000;
0159264220999992000112000004+56960+024040FM-12+0007UMRR V0201301N003010138019N0100001N1+00281+00161101631ADDGA1081+013809059GF108991081051012501999999MA1999999101411MD1710011+9999REMSYN076AAXX  20001 26422 42697 81303 10028 20016 30141 40163 57001 885// 333 88646;
0196264220999992000112003004+56960+024040FM-12+0007UMRR V0201201N003010009019N0040001N1+00361+00341101611ADDAA199000091AY121031AY221031GA1081+000909069GF108991081061001501999999MD1710021+9999MW1101REMSYN076AAXX  20031 26422 31296 81203 10036 20034 40161 57002 71022 886// 333 88703;EQDQ01  00002PRCP99
0215264220999992000112006004+56960+024040FM-12+0007UMRR V0201201N004010006019N0020001N1+00481+00441101561ADDAA199000091AY121061AY221061GA1081+000609069GF108991081061000751999999KA1120N+00161MD1710051+9999MW1101REMSYN082AAXX  20061 26422 31195 81204 10048 20044 40156 57005 71022 886// 333 20016 88702;EQDQ01  00002PRCP99
0166264220999992000112009004+56960+024040FM-12+0007UMRR V0201301N004010009019N0020001N1+00631+00581101581ADDAY151031AY221031GA1081+000909069GF108991081061001501999999MD1210021+9999MW1101REMSYN076AAXX  20091 26422 41295 81304 10063 20058 40158 52002 71052 886// 333 88703;
0187264220999992000112012004+56960+024040FM-12+0007UMRR V0201301N004010057019N0040001N1+00781+00651101571ADDAY151061AY221061GA1081+005709069GF108991081061004501999999MA1999999101351MD1710011+9999MW1101REMSYN082AAXX  20121 26422 41496 81304 10078 20065 30135 40157 57001 71052 886// 333 88719;
0166264220999992000112015004+56960+024040FM-12+0007UMRR V0201201N003010048019N0040001N1+00791+00611101571ADDAY121031AY221031GA1081+004809069GF108991081061004501999999MD1410001+9999MW1101REMSYN076AAXX  20151 26422 41496 81203 10079 20061 40157 54000 71022 886// 333 88716;
0202264220999992000112018004+56960+024040FM-12+0007UMRR V0201201N003010030019N0100001N1+00671+00571101671ADDAA112000791AY151061AY221061GA1081+003009069GF108991081061004501999999KA1120M+00791MD1210101+9999MW1511REMSYN088AAXX  20181 26422 11497 81203 10067 20057 40167 52010 69902 75152 886// 333 10079 88710;
0166264220999992000112021004+56960+024040FM-12+0007UMRR V0201201N005010015019N0100001N1+00631+00521101701ADDAY151031AY221031GA1081+001509069GF108991081061001501999999MD1210031+9999MW1021REMSYN076AAXX  20211 26422 41297 81205 10063 20052 40170 52003 70252 886// 333 88705;
0187264220999992000112100004+56960+024040FM-12+0007UMRR V0201201N003010012019N0100001N1+00561+00511101741ADDAY151061AY221061GA1081+001209069GF108991081061001501999999MA1999999101521MD1210041+9999MW1511REMSYN082AAXX  21001 26422 41297 81203 10056 20051 30152 40174 52004 75152 886// 333 88704;
0166264220999992000112103004+56960+024040FM-12+0007UMRR V0201201N004010012019N0100001N1+00531+00431101731ADDAY151031AY221031GA1081+001209069GF108991081061001501999999MD1710011+9999MW1021REMSYN076AAXX  21031 26422 /1297 81204 10053 20043 40173 57001 70252 886// 333 88704;
0202264220999992000112106004+56960+024040FM-12+0007UMRR V0201101N004010015019N0100001N1+00501+00371101761ADDAA112000791AY151061AY221061GA1081+001509069GF108991081061001501999999KA1120N+00501MD1210031+9999MW1021REMSYN088AAXX  21061 26422 11297 81104 10050 20037 40176 52003 69902 70252 886// 333 20050 88705;
0166264220999992000112109004+56960+024040FM-12+0007UMRR V0201201N004010018019N0100001N1+00501+00341101861ADDAY151031AY221031GA1081+001809069GF108991081061001501999999MD1210101+9999MW1021REMSYN076AAXX  21091 26422 41297 81204 10050 20034 40186 52010 70252 886// 333 88706;
0187264220999992000112112004+56960+024040FM-12+0007UMRR V0201001N005010012019N0100001N1+00471+00361101861ADDAY151061AY221061GA1081+001209069GF108991081061001501999999MA1999999101641MD1410001+9999MW1021REMSYN082AAXX  21121 26422 41297 81005 10047 20036 30164 40186 54000 70252 886// 333 88704;
0144264220999992000112115004+56960+024040FM-12+0007UMRR V0201201N004010015019N0100001N1+00461+00331101921ADDGA1081+001509079GF108991081061001501999999MD1210061+9999REMSYN076AAXX  21151 26422 42297 81204 10046 20033 40192 52006 886// 333 88705 91110;
0197264220999992000112118004+56960+024040FM-12+0007UMRR V0201201N007010015019N0100001N1+00431+00301101941ADDAA112000791GA1081+001509079GF108991081061001501999999KA1120M+00531MD1210021+9999OA140101101REMSYN094AAXX  21181 26422 12297 81207 10043 20030 40194 52002 69902 886// 333 10053 88705 91011 91111;
0172264220999992000112121004+56960+024040FM-12+0007UMRR V0201101N005010015019N0100001N1+00411+00281102021ADDAY151031AY221031GA1081+001509079GF108991081061001501999999MD1210081+9999MW1511REMSYN082AAXX  21211 26422 41297 81105 10041 20028 40202 52008 75152 886// 333 88705 91111;
0189264220999992000112203004+56960+024040FM-12+0007UMRR V0201301N006010018019N0100001N1+00391+00171101981ADDAY151031AY221031GA1061+001809079GF108991081051002501999999MD1710021+9999MW1021OA140101201REMSYN088AAXX  22031 26422 /1397 81306 10039 20017 40198 57002 70252 885// 333 86706 91012 91112;
0225264220999992000112206004+56960+024040FM-12+0007UMRR V0201301N007010018019N0100001N1+00381+00181101981ADDAA112000191AY151061AY221061GA1081+001809079GF108991081061002501999999KA1120N+00371MD1410001+9999MW1021OA140101201REMSYN100AAXX  22061 26422 11397 81307 10038 20018 40198 54000 69912 70252 886// 333 20037 88706 91012 91112;
0189264220999992000112209004+56960+024040FM-12+0007UMRR V0201301N006010018019N0100001N1+00391+00231101991ADDAY181031AY251031GA1061+001809079GF108991081091002501999999MD1210011+9999MW1251OA140101101REMSYN088AAXX  22091 26422 41397 81306 10039 20023 40199 52001 72585 889// 333 86706 91011 91112;
0210264220999992000112212004+56960+024040FM-12+0007UMRR V0201401N004010018019N0100001N1+00471+00311102061ADDAY181061AY251061GA1061+001809079GF108991081091002501999999MA1999999101841MD1210071+9999MW1021OA140101001REMSYN094AAXX  22121 26422 41397 81404 10047 20031 30184 40206 52007 70285 889// 333 86706 91010 91112;
0189264220999992000112215004+56960+024040FM-12+0007UMRR V0201401N005010021019N0100001N1+00391+00301102151ADDAY181031AY221031GA1061+002109079GF108991081091002501999999MD1210091+9999MW1801OA140101001REMSYN088AAXX  22151 26422 41397 81405 10039 20030 40215 52009 78082 889// 333 86707 91010 91111;
0208264220999992000112218004+56960+024040FM-12+0007UMRR V0201501N005010021019N0100001N1+00331+00241102241ADDAA112000591AY181061AY221061GA1061+002109079GF108991081091002501999999KA1120M+00481MD1210091+9999MW1801REMSYN094AAXX  22181 26422 11397 81505 10033 20024 40224 52009 69962 78082 889// 333 10048 86707 91110;
0166264220999992000112221004+56960+024040FM-12+0007UMRR V0201401N004010015019N0100001N1+00301+00241102271ADDAY181031AY221031GA1081+001509069GF108991081061001501999999MD1210031+9999MW1021REMSYN076AAXX  22211 26422 41297 81404 10030 20024 40227 52003 70282 886// 333 88705;
0187264220999992000112300004+56960+024040FM-12+0007UMRR V0201501N005010015019N0100001N1+00341+00291102211ADDAY181061AY221061GA1061+001509069GF108991081041001501999999MA1999999101991MD1710061+9999MW1021REMSYN082AAXX  23001 26422 41297 81505 10034 20029 30199 40221 57006 70282 884// 333 86705;
0138264220999992000112303004+56960+024040FM-12+0007UMRR V0201501N005010015019N0100001N1+00421+00371102151ADDGA1061+001509069GF108991081061001501999999MD1710061+9999REMSYN070AAXX  23031 26422 /2297 81505 10042 20037 40215 57006 886// 333 86705;
0225264220999992000112306004+56960+024040FM-12+0007UMRR V0201501N005010012019N0040001N1+00501+00461102081ADDAA112000791AY121061AY221061GA1081+001209079GF108991081061001501999999KA1120N+00301MD1710071+9999MW1101OA140101001REMSYN100AAXX  23061 26422 11296 81505 10050 20046 40208 57007 69902 71022 886// 333 20030 88704 91010 91111;
0189264220999992000112309004+56960+024040FM-12+0007UMRR V0201601N006010012019N0040001N1+00601+00491102101ADDAY181031AY221031GA1061+001209079GF108991081091001501999999MD1210021+9999MW1801OA140101201REMSYN088AAXX  23091 26422 41296 81606 10060 20049 40210 52002 78082 889// 333 86704 91012 91112;
0229264220999992000112312004+56960+024040FM-12+0007UMRR V0201501N006010012019N0040001N1+00621+00521102041ADDAY181061AY261061GA1061+001209079GF108991999071001501021999MA1999999101821MD1710061+9999MW1611OA140101001REMSYN094AAXX  23121 26422 41296 81506 10062 20052 30182 40204 57006 76186 8872/ 333 86704 91010 91112;EQDQ01+000082SCOTLC
0172264220999992000112315004+56960+024040FM-12+0007UMRR V0201601N005010027019N0100001N1+00621+00451102061ADDAY151031AY221031GA1081+002709079GF108991081061002501999999MD1210021+9999MW1021REMSYN082AAXX  23151 26422 41397 81605 10062 20045 40206 52002 70252 886// 333 88709 91112;
0225264220999992000112318004+56960+024040FM-12+0007UMRR V0201501N005010024019N0100001N1+00601+00391102101ADDAA112000191AY151061AY221061GA1081+002409079GF108991081061002501999999KA1120M+00631MD1210041+9999MW1021OA140101001REMSYN100AAXX  23181 26422 11397 81505 10060 20039 40210 52004 69912 70252 886// 333 10063 88708 91010 91112;
0144264220999992000112321004+56960+024040FM-12+0007UMRR V0201601N005010024019N0100001N1+00571+00351102141ADDGA1081+002409079GF108991081061002501999999MD1210041+9999REMSYN076AAXX  23211 26422 42397 81605 10057 20035 40214 52004 886// 333 88708 91111;
0182264220999992000112400004+56960+024040FM-12+0007UMRR V0201701N005010033019N0100001N1+00531+00291102101ADDGA1081+003309079GF108991081061004501999999MA1999999101881MD1710041+9999OA140101001REMSYN088AAXX  24001 26422 42497 81705 10053 20029 30188 40210 57004 886// 333 88711 91010 91110;
0191264220999992000112403004+56960+024040FM-12+0007UMRR V0201601N005010036019N0100001N1+00481+00231102061ADDAA199000091GA1081+003609079GF108991081061004501999999MD1710041+9999OA140101001REMSYN082AAXX  24031 26422 32497 81605 10048 20023 40206 57004 886// 333 88712 91010 91112;EQDQ01  00002PRCP99
0210264220999992000112406004+56960+024040FM-12+0007UMRR V0201601N006010030019N0100001N1+00471+00221102031ADDAA199000091GA1081+003009079GF108991081061004501999999KA1120N+00471MD1710031+9999OA140101101REMSYN088AAXX  24061 26422 32497 81606 10047 20022 40203 57003 886// 333 20047 88710 91011 91111;EQDQ01  00002PRCP99
0161264220999992000112409004+56960+024040FM-12+0007UMRR V0201501N006010030019N0100001N1+00411+00141102031ADDGA1081+003009079GF108991081061004501999999MD1410001+9999OA140101101REMSYN082AAXX  24091 26422 42497 81506 10041 20014 40203 54000 886// 333 88710 91011 91111;
0182264220999992000112412004+56960+024040FM-12+0007UMRR V0201501N007010042019N0100001N1+00391+00071101911ADDGA1081+004209069GF108991081051004501999999MA1999999101691MD1710121+9999OA140101101REMSYN088AAXX  24121 26422 42497 81507 10039 20007 30169 40191 57012 885// 333 88614 91011 91113;
0161264220999992000112415004+56960+024040FM-12+0007UMRR V0201501N006010039019N0100001N1+00311+00011101861ADDGA1061+003909079GF108991081051004501999999MD1710051+9999OA140101101REMSYN082AAXX  24151 26422 42497 81506 10031 20001 40186 57005 885// 333 86713 91011 91113;
0210264220999992000112418004+56960+024040FM-12+0007UMRR V0201501N006010042019N0100001N1+00301+00001101781ADDAA199000091GA1081+004209069GF108991081051004501999999KA1120M+00491MD1710081+9999OA140101201REMSYN088AAXX  24181 26422 32497 81506 10030 20000 40178 57008 885// 333 10049 88614 91012 91114;EQDQ01  00002PRCP99
0161264220999992000112421004+56960+024040FM-12+0007UMRR V0201501N006010033019N0100001N1+00261-00021101841ADDGA1081+003309069GF108991081051004501999999MD1210061+9999OA140101001REMSYN082AAXX  24211 26422 42497 81506 10026 21002 40184 52006 885// 333 88611 91010 91114;
0210264220999992000112500004+56960+024040FM-12+0007UMRR V0201501N006010030019N0100001N1+00171-00061101811ADDAY151061AY221061GA1081+003009079GF108991081061004501999999MA1999999101591MD1710031+9999MW1501OA140101101REMSYN094AAXX  25001 26422 41497 81506 10017 21006 30159 40181 57003 75052 886// 333 88710 91011 91112;
0189264220999992000112503004+56960+024040FM-12+0007UMRR V0201501N006010021019N0100001N1+00091-00021101821ADDAY181031AY221031GA1081+002109079GF108991081061002501999999MD1210011+9999MW1021OA140101001REMSYN088AAXX  25031 26422 /1397 81506 10009 21002 40182 52001 70282 886// 333 88707 91010 91113;
0225264220999992000112506004+56960+024040FM-12+0007UMRR V0201401N006010027019N0100001N1+00111-00091101861ADDAA112000191AY181061AY221061GA1081+002709079GF108991081061002501999999KA1120N+00091MD1210041+9999MW1021OA140101101REMSYN100AAXX  25061 26422 11397 81406 10011 21009 40186 52004 69912 70282 886// 333 20009 88709 91011 91113;
0161264220999992000112509004+56960+024040FM-12+0007UMRR V0201601N006010030019N0100001N1+00091-00121101951ADDGA1081+003009069GF108991081051004501999999MD1210091+9999OA140101101REMSYN082AAXX  25091 26422 42497 81606 10009 21012 40195 52009 885// 333 88610 91011 91112;
0182264220999992000112512004+56960+024040FM-12+0007UMRR V0201501N006010033019N0100001N1+00081-00171101991ADDGA1081+003309069GF108991081051004501999999MA1999999101771MD1210041+9999OA140101001REMSYN088AAXX  25121 26422 42497 81506 10008 21017 30177 40199 52004 885// 333 88611 91010 91112;
0161264220999992000112515004+56960+024040FM-12+0007UMRR V0201601N006010021019N0100001N1+00001-00201102001ADDGA1081+002109079GF108991081061002501999999MD1210011+9999OA140101101REMSYN082AAXX  25151 26422 42397 81606 10000 21020 40200 52001 886// 333 88707 91011 91112;
0210264220999992000112518004+56960+024040FM-12+0007UMRR V0201501N005010024019N0100001N1-00041-00251102041ADDAA199000091GA1081+002409079GF108991081061002501999999KA1120M+00111MD1210041+9999OA140101001REMSYN088AAXX  25181 26422 32397 81505 11004 21025 40204 52004 886// 333 10011 88708 91010 91112;EQDQ01  00002PRCP99
0161264220999992000112521004+56960+024040FM-12+0007UMRR V0201501N005010021019N0100001N1-00081-00261102001ADDGA1081+002109079GF108991081061002501999999MD1710041+9999OA140101001REMSYN082AAXX  25211 26422 42397 81505 11008 21026 40200 57004 886// 333 88707 91010 91110;
0182264220999992000112600004+56960+024040FM-12+0007UMRR V0201501N006010027019N0100001N1-00101-00311101931ADDGA1081+002709079GF108991081061002501999999MA1999999101711MD1710071+9999OA140101001REMSYN088AAXX  26001 26422 42397 81506 11010 21031 30171 40193 57007 886// 333 88709 91010 91111;
0191264220999992000112603004+56960+024040FM-12+0007UMRR V0201401N006010030019N0100001N1-00101-00331101801ADDAA199000091GA1081+003009079GF108991081061004501999999MD1710131+9999OA140101001REMSYN082AAXX  26031 26422 32497 81406 11010 21033 40180 57013 886// 333 88710 91010 91111;EQDQ01  00002PRCP99
0210264220999992000112606004+56960+024040FM-12+0007UMRR V0201401N006010036019N0100001N1-00091-00371101731ADDAA199000091GA1081+003609069GF108991081051004501999999KA1120N-00121MD1710071+9999OA140101201REMSYN088AAXX  26061 26422 32497 81406 11009 21037 40173 57007 885// 333 21012 88612 91012 91112;EQDQ01  00002PRCP99
0161264220999992000112609004+56960+024040FM-12+0007UMRR V0201501N007010126019N0100001N1-00051-00431101691ADDGA1061+012609069GF108991061051012501071999MD1710041+9999OA140101101REMSYN082AAXX  26091 26422 42697 81507 11005 21043 40169 57004 8657/ 333 86642 91011 91113;
0182264220999992000112612004+56960+024040FM-12+0007UMRR V0201501N008010042019N0100001N1+00011-00331101591ADDGA1081+004209069GF108991081051004501999999MA1999999101371MD1710101+9999OA140101201REMSYN088AAXX  26121 26422 42497 81508 10001 21033 30137 40159 57010 885// 333 88614 91012 91114;
0161264220999992000112615004+56960+024040FM-12+0007UMRR V0201501N008010033019N0100001N1-00031-00311101601ADDGA1081+003309069GF108991081051004501999999MD1210011+9999OA140101101REMSYN082AAXX  26151 26422 42497 81508 11003 21031 40160 52001 885// 333 88611 91011 91114;
0210264220999992000112618004+56960+024040FM-12+0007UMRR V0201501N007010024019N0100001N1+00031-00201101591ADDAA199000091GA1061+002409079GF108991081061002501999999KA1120M+00031MD1710011+9999OA140101101REMSYN088AAXX  26181 26422 32397 81507 10003 21020 40159 57001 886// 333 10003 86708 91011 91114;EQDQ01  00002PRCP99
0161264220999992000112621004+56960+024040FM-12+0007UMRR V0201501N006010021019N0100001N1+00031-00171101601ADDGA1081+002109079GF108991081061002501999999MD1210011+9999OA140101201REMSYN082AAXX  26211 26422 42397 81506 10003 21017 40160 52001 886// 333 88707 91012 91114;
0165264220999992000112700004+56960+024040FM-12+0007UMRR V0201401N005010039019N0100001N1+00081-00171101591ADDGA1081+003909069GF108991081051004501999999MA1999999101371MD1710011+9999REMSYN082AAXX  27001 26422 42497 81405 10008 21017 30137 40159 57001 885// 333 88613 91114;
0169264220999992000112703004+56960+024040FM-12+0007UMRR V0201401N006019999999N0100001N1+00101-00301101581ADDAA199000091GF108991081001999999051999MD1710011+9999OA140101101REMSYN076AAXX  27031 26422 32997 81406 10010 21030 40158 57001 8805/ 333 91011 91112;EQDQ01  00002PRCP99
0188264220999992000112706004+56960+024040FM-12+0007UMRR V0201501N007019999999N0100001N1-00041-00621101661ADDAA199000091GF108991081001999999051999KA1120N-00041MD1210081+9999OA140101201REMSYN082AAXX  27061 26422 32997 81507 11004 21062 40166 52008 8805/ 333 21004 91012 91113;EQDQ01  00002PRCP99
0139264220999992000112709004+56960+024040FM-12+0007UMRR V0201501N006019999999N0100001N1-00111-00581101801ADDGF107991051001999999031041MD1210141+9999OA140101101REMSYN076AAXX  27091 26422 42997 71506 11011 21058 40180 52014 85034 333 91011 91114;
0160264220999992000112712004+56960+024040FM-12+0007UMRR V0201501N006019999999N0100001N1-00031-00521101791ADDGF107991061001999999031091MA1999999101571MD1710011+9999OA140101101REMSYN082AAXX  27121 26422 42997 71506 11003 21052 30157 40179 57001 86039 333 91011 91112;
0139264220999992000112715004+56960+024040FM-12+0007UMRR V0201401N006010300019N0100001N1-00011-00481101871ADDGF108991021051017501051999MD1210081+9999OA140101201REMSYN076AAXX  27151 26422 42797 81406 11001 21048 40187 52008 8255/ 333 91012 91112;
0225264220999992000112718004+56960+024040FM-12+0007UMRR V0201501N005010021019N0100001N1-00111-00351101931ADDAA112000191AY181061AY221061GA1061+002109079GF108991081091002501999999KA1120M+00011MD1210061+9999MW1851OA140101001REMSYN100AAXX  27181 26422 11397 81505 11011 21035 40193 52006 69922 78582 889// 333 10001 86707 91010 91112;
0189264220999992000112721004+56960+024040FM-12+0007UMRR V0201501N006010060019N0100001N1-00101-00361101951ADDAY181031AY221031GA1081+006009099GF108991081091008001999999MD1210021+9999MW1851OA140101001REMSYN088AAXX  27211 26422 41597 81506 11010 21036 40195 52002 78582 889// 333 88920 91010 91112;
0210264220999992000112800004+56960+024040FM-12+0007UMRR V0201601N007010033019N0100001N1-00111-00321102001ADDAY181061AY221061GA1081+003309069GF108991081041004501999999MA1999999101771MD1210041+9999MW1021OA140101101REMSYN094AAXX  28001 26422 41497 81607 11011 21032 30177 40200 52004 70282 884// 333 88611 91011 91113;
0161264220999992000112803004+56960+024040FM-12+0007UMRR V0201601N005010036019N0100001N1-00101-00391101971ADDGA1081+003609069GF108991081051004501999999MD1710021+9999OA140101001REMSYN082AAXX  28031 26422 /2497 81605 11010 21039 40197 57002 885// 333 88612 91010 91111;
0245264220999992000112806004+56960+024040FM-12+0007UMRR V0201601N006010024019N0100001N1-00081-00311101941ADDAA112000791AJ199993999999999GA1051+002409079GF108991081051002501999999IA1239KA1120N-00121MD1710031+9999OA140101101REMSYN100AAXX  28061 26422 12397 81606 11008 21031 40194 57003 69902 885// 333 21012 47997 85708 91011 91111;EQDQ01  09982SNDP  
0189264220999992000112809004+56960+024040FM-12+0007UMRR V0201601N006010021019N0100001N1-00061-00201102011ADDAY181031AY221031GA1081+002109079GF108991081061002501999999MD1210071+9999MW1271OA140101001REMSYN088AAXX  28091 26422 41397 81606 11006 21020 40201 52007 72782 886// 333 88707 91010 91111;
0193264220999992000112812004+56960+024040FM-12+0007UMRR V0201601N005010003019N0020001N1+00021-00011101971ADDAY181061AY221061GA1081+000309079GF108991081061000751999999MA1999999101751MD1710041+9999MW1101REMSYN088AAXX  28121 26422 41195 81605 10002 21001 30175 40197 57004 71082 886// 333 88701 91110;
0166264220999992000112815004+56960+024040FM-12+0007UMRR V0201801N004010003019N0010001N1+00101+00081102051ADDAY181031AY221031GA1081+000309069GF108991081061000251999999MD1210081+9999MW1101REMSYN076AAXX  28151 26422 41094 81804 10010 20008 40205 52008 71082 886// 333 88701;
0202264220999992000112818004+56960+024040FM-12+0007UMRR V0201801N004010003019N0010001N1+00161+00151102071ADDAA112000791AY181061AY221061GA1081+000309069GF108991081061000251999999KA1120M+00161MD1210021+9999MW1101REMSYN088AAXX  28181 26422 11094 81804 10016 20015 40207 52002 69902 71082 886// 333 10016 88701;
0150264220999992000112821004+56960+024040FM-12+0007UMRR V0201801N004010003019N0005001N1+00201+00191102091ADDAY141031AY221031GA1091+999999999GF109991091999999999999999MD1210021+9999MW1471REMSYN060AAXX  28211 26422 41/93 91804 10020 20019 40209 52002 74742;
0171264220999992000112900004+56960+024040FM-12+0007UMRR V0201901N004010003019N0005001N1+00251+00241102081ADDAY141061AY221061GA1091+999999999GF109991091999999999999999MA1999999101861MD1710011+9999MW1471REMSYN066AAXX  29001 26422 41/93 91904 10025 20024 30186 40208 57001 74742;
0196264220999992000112903004+56960+024040FM-12+0007UMRR V0201701N003010009019N0010001N1+00231+00221102011ADDAA199000091AY141031AY221031GA1081+000909069GF108991081061001501999999MD1710071+9999MW1281REMSYN076AAXX  29031 26422 31294 81703 10023 20022 40201 57007 72842 886// 333 88703;EQDQ01  00002PRCP99
0215264220999992000112906004+56960+024040FM-12+0007UMRR V0201701N005010015019N0020001N1+00201+00151101831ADDAA199000091AY141061AY221061GA1081+001509069GF108991081061001501999999KA1120N+00161MD1710181+9999MW1101REMSYN082AAXX  29061 26422 31295 81705 10020 20015 40183 57018 71042 886// 333 20016 88705;EQDQ01  00002PRCP99
0166264220999992000112909004+56960+024040FM-12+0007UMRR V0201701N005010009019N0040001N1+00201+00121101751ADDAY121031AY221031GA1081+000909069GF108991081061001501999999MD1710081+9999MW1101REMSYN076AAXX  29091 26422 41296 81705 10020 20012 40175 57008 71022 886// 333 88703;
0206264220999992000112912004+56960+024040FM-12+0007UMRR V0201601N004010006019N0020001N1+00141+00091101571ADDAY161061AY221061GA1061+000609069GF108991999071000751021999MA1999999101351MD1710181+9999MW1611REMSYN082AAXX  29121 26422 41195 81604 10014 20009 30135 40157 57018 76162 8872/ 333 86702;EQDQ01+000082SCOTLC
0185264220999992000112915004+56960+024040FM-12+0007UMRR V0201601N004010006019N0020001N1+00101+00081101481ADDAY161031AY221031GA1071+000609069GF108991999071000751021999MD1710091+9999MW1611REMSYN076AAXX  29151 26422 41195 81604 10010 20008 40148 57009 76162 8872/ 333 87702;EQDQ01+000082SCOTLC
0202264220999992000112918004+56960+024040FM-12+0007UMRR V0201601N003010009019N0040001N1+00131+00111101421ADDAA112001091AY161061AY221061GA1081+000909069GF108991081061000751999999KA1120M+00211MD1710061+9999MW1101REMSYN088AAXX  29181 26422 11196 81603 10013 20011 40142 57006 60012 71062 886// 333 10021 88703;
0166264220999992000112921004+56960+024040FM-12+0007UMRR V0201701N002010003019N0020001N1+00181+00171101511ADDAY121031AY221031GA1081+000309069GF108991081061000751999999MD1210091+9999MW1101REMSYN076AAXX  29211 26422 41195 81702 10018 20017 40151 52009 71022 886// 333 88701;
0187264220999992000113000004+56960+024040FM-12+0007UMRR V0201501N002010003019N0010001N1+00211+00201101591ADDAY121061AY221061GA1081+000309069GF108991081061000751999999MA1999999101371MD1210081+9999MW1101REMSYN082AAXX  30001 26422 41194 81502 10021 20020 30137 40159 52008 71022 886// 333 88701;
0166264220999992000113003004+56960+024040FM-12+0007UMRR V0201401N002010003019N0010001N1+00221+00211101601ADDAY121031AY221031GA1081+000309069GF108991081061000751999999MD1210011+9999MW1101REMSYN076AAXX  30031 26422 /1194 81402 10022 20021 40160 52001 71022 886// 333 88701;
0215264220999992000113006004+56960+024040FM-12+0007UMRR V0201501N002010003019N0010001N1+00251+00241101631ADDAA199000091AY121061AY221061GA1081+000309069GF108991081061000751999999KA1120N+00081MD1210031+9999MW1101REMSYN082AAXX  30061 26422 31194 81502 10025 20024 40163 52003 71022 886// 333 20008 88701;EQDQ01  00002PRCP99
0150264220999992000113009004+56960+024040FM-12+0007UMRR V0201601N003010003019N0005001N1+00481+00471101581ADDAY151031AY241031GA1091+999999999GF109991091999999999999999MD1710051+9999MW1451REMSYN060AAXX  30091 26422 41/93 91603 10048 20047 40158 57005 74554;
0171264220999992000113012004+56960+024040FM-12+0007UMRR V0201801N003010003019N0002001N1+00761+00751101461ADDAY151061AY241061GA1091+999999999GF109991091999999999999999MA1999999101241MD1710121+9999MW1451REMSYN066AAXX  30121 26422 41/92 91803 10076 20075 30124 40146 57012 74554;
0166264220999992000113015004+56960+024040FM-12+0007UMRR V0201801N005010015019N0040001N1+00761+00751101271ADDAY141031AY221031GA1081+001509069GF108991081061001501999999MD1710191+9999MW1101REMSYN076AAXX  30151 26422 41296 81805 10076 20075 40127 57019 71042 886// 333 88705;
0208264220999992000113018004+56960+024040FM-12+0007UMRR V0202101N004010021019N0100001N1+00731+00621101251ADDAA112000791AY141061AY221061GA1081+002109079GF108991081061002501999999KA1120M+00811MD1710021+9999MW1021REMSYN094AAXX  30181 26422 11397 82104 10073 20062 40125 57002 69902 70242 886// 333 10081 88707 91111;
0166264220999992000113021004+56960+024040FM-12+0007UMRR V0202301N003010009019N0040001N1+00801+00781101301ADDAY121031AY221031GA1081+000909069GF108991081061001501999999MD1210051+9999MW1101REMSYN076AAXX  30211 26422 41296 82303 10080 20078 40130 52005 71022 886// 333 88703;
0159264220999992000120100004+56960+024040FM-12+0007UMRR V0202201N003012200019N0100001N1+00841+00741101361ADDGA1031+007209059GF103991031051008001001001MA1999999101141MD1210061+9999REMSYN076AAXX  01001 26422 42597 32203 10084 20074 30114 40136 52006 83500 333 83624;
0210264220999992000120106004+56960+024040FM-12+0007UMRR V0202501N003010072019N0100001N1+00771+00491101471ADDAA199000091GA1061+007209069GF106991061051008001001001KA1120N+00691MD1210081+9999OA140101001REMSYN088AAXX  01061 26422 32597 62503 10077 20049 40147 52008 86500 333 20069 86624 91010 91110;EQDQ01  00002PRCP99
0144264220999992000120109004+56960+024040FM-12+0007UMRR V0202501N004010075019N0200001N1+00751+00311101581ADDGA1081+007509069GF108991081051008001999999MD1210111+9999REMSYN076AAXX  01091 26422 42598 82504 10075 20031 40158 52011 885// 333 88625 91110;
0165264220999992000120112004+56960+024040FM-12+0007UMRR V0202801N004010051019N0200001N1+00741+00411101621ADDGA1081+005109069GF108991081051004501999999MA1999999101401MD1210041+9999REMSYN082AAXX  01121 26422 42498 82804 10074 20041 30140 40162 52004 885// 333 88617 91110;
0112264220999992000120115004+56960+024040FM-12+0007UMRR V0202501N002012200019N0200001N1+00611+00391101711ADDGF103991031051008001001001MD1210091+9999REMSYN060AAXX  01151 26422 43598 32502 10061 20039 40171 52009 83500;
0187264220999992000120118004+56960+024040FM-12+0007UMRR V0202401N002010072019N0100001N1+00511+00381101791ADDAA199000091GA1061+007209059GF106991061051008001001001KA1120M+00801MD1210081+9999REMSYN076AAXX  01181 26422 32597 62402 10051 20038 40179 52008 86500 333 10080 86624;EQDQ01  00002PRCP99
0138264220999992000120121004+56960+024040FM-12+0007UMRR V0202201N002010030019N0100001N1+00431+00371101811ADDGA1061+003009059GF106991061051004501001001MD1210021+9999REMSYN070AAXX  01211 26422 42497 62202 10043 20037 40181 52002 86500 333 86610;
0143264220999992000120200004+56960+024040FM-12+0007UMRR V0201901N002012200019N0100001N1+00381+00341101851ADDGA1001+999999999GF100991001001999999001001MA1999999101631MD1210041+9999REMSYN060AAXX  02001 26422 42997 01902 10038 20034 30163 40185 52004;
0168264220999992000120203004+56960+024040FM-12+0007UMRR V0202301N002010021019N0100001N1+00471+00391101861ADDAA199000091GA1081+002109069GF108991081061002501999999MD1210011+9999REMSYN070AAXX  02031 26422 32397 82302 10047 20039 40186 52001 886// 333 88707;EQDQ01  00002PRCP99
0187264220999992000120206004+56960+024040FM-12+0007UMRR V0201901N003010009019N0100001N1+00431+00371101821ADDAA199000091GA1081+000909069GF108991081061001501999999KA1120N+00381MD1710041+9999REMSYN076AAXX  02061 26422 32297 81903 10043 20037 40182 57004 886// 333 20038 88703;EQDQ01  00002PRCP99
0166264220999992000120209004+56960+024040FM-12+0007UMRR V0201701N004010003019N0010001N1+00431+00391101801ADDAY121031AY221031GA1081+000309069GF108991081061000751999999MD1710021+9999MW1101REMSYN076AAXX  02091 26422 41194 81704 10043 20039 40180 57002 71022 886// 333 88701;
0187264220999992000120212004+56960+024040FM-12+0007UMRR V0201701N004010009019N0040001N1+00571+00501101681ADDAY121061AY221061GA1081+000909069GF108991081061000751999999MA1999999101461MD1710121+9999MW1101REMSYN082AAXX  02121 26422 41196 81704 10057 20050 30146 40168 57012 71022 886// 333 88703;
0140264220999992000120215004+56960+024040FM-12+0007UMRR V0201801N005012200019N0040001N1+00491+00421101651ADDAY111031AY211031GF103991031041008001001001MD1710031+9999MW1101REMSYN066AAXX  02151 26422 41596 31805 10049 20042 40165 57003 71011 83400;
0203264220999992000120218004+56960+024040FM-12+0007UMRR V0202001N004012200019N0040001N1+00471+00371101591ADDAA199000091AY111061AY211061GA1001+999999999GF100991001001999999001001KA1999M+00581MD1710061+9999MW1101REMSYN070AAXX  02181 26422 31996 02004 10047 20037 40159 57006 71011 333 10058;EQDQ01  00002PRCP99
0166264220999992000120221004+56960+024040FM-12+0007UMRR V0202001N003010009019N0040001N1+00471+00371101651ADDAY111031AY211031GA1081+000909069GF108991081061001501999999MD1210061+9999MW1101REMSYN076AAXX  02211 26422 41296 82003 10047 20037 40165 52006 71011 886// 333 88703;
0187264220999992000120300004+56960+024040FM-12+0007UMRR V0202101N003010006019N0020001N1+00481+00461101671ADDAY181061AY251061GA1071+000609069GF108991081091000751999999MA1999999101451MD1210021+9999MW1801REMSYN082AAXX  03001 26422 41195 82103 10048 20046 30145 40167 52002 78085 889// 333 87702;
0150264220999992000120303004+56960+024040FM-12+0007UMRR V0202201N002010003019N0002001N1+00571+00561101701ADDAY181031AY241031GA1091+999999999GF109991091999999999999999MD1210031+9999MW1471REMSYN060AAXX  03031 26422 /1/92 92202 10057 20056 40170 52003 74784;
0190264220999992000120306004+56960+024040FM-12+0007UMRR V0202301N002010003019N0002001N1+00631+00621101791ADDAA112002091AY181061AY241061GA1091+999999999GF109991091999999999999999KA1999N+00441MD1210091+9999MW1431REMSYN076AAXX  03061 26422 11/92 92302 10063 20062 40179 52009 60022 74384 333 20044;
0166264220999992000120309004+56960+024040FM-12+0007UMRR V0202201N002010018019N0020001N1+00701+00691101881ADDAY141031AY221031GA1081+001809069GF108991081061001501999999MD1210091+9999MW1101REMSYN076AAXX  03091 26422 41295 82202 10070 20069 40188 52009 71042 886// 333 88706;
0187264220999992000120312004+56960+024040FM-12+0007UMRR V0202201N001010048019N0040001N1+00761+00721101901ADDAY141061AY221061GA1081+004809059GF108991081051004501999999MA1999999101681MD1210021+9999MW1101REMSYN082AAXX  03121 26422 41496 82201 10076 20072 30168 40190 52002 71042 885// 333 88616;
0138264220999992000120315004+56960+024040FM-12+0007UMRR V0202001N001010045019N0100001N1+00681+00631101921ADDGA1081+004509059GF108991081051004501999999MD1210021+9999REMSYN070AAXX  03151 26422 42497 82001 10068 20063 40192 52002 885// 333 88615;
0187264220999992000120318004+56960+024040FM-12+0007UMRR V0202101N002010045019N0100001N1+00651+00551101911ADDAA199000091GA1081+004509059GF108991081051004501999999KA1120M+00771MD1710011+9999REMSYN076AAXX  03181 26422 32497 82102 10065 20055 40191 57001 885// 333 10077 88615;EQDQ01  00002PRCP99
0138264220999992000120321004+56960+024040FM-12+0007UMRR V0201601N002010045019N0100001N1+00631+00551101851ADDGA1081+004509059GF108991081051004501999999MD1710061+9999REMSYN070AAXX  03211 26422 42497 81602 10063 20055 40185 57006 885// 333 88615;
0187264220999992000120400004+56960+024040FM-12+0007UMRR V0202001N003010003019N0010001N1+00601+00581101791ADDAY121061AY221061GA1081+000309069GF108991081061000751999999MA1999999101571MD1710061+9999MW1101REMSYN082AAXX  04001 26422 41194 82003 10060 20058 30157 40179 57006 71022 886// 333 88701;
0196264220999992000120403004+56960+024040FM-12+0007UMRR V0201801N003010003019N0010001N1+00531+00521101661ADDAA199000091AY121031AY221031GA1081+000309069GF108991081061000751999999MD1710131+9999MW1101REMSYN076AAXX  04031 26422 31194 81803 10053 20052 40166 57013 71022 886// 333 88701;EQDQ01  00002PRCP99
0215264220999992000120406004+56960+024040FM-12+0007UMRR V0201801N003010003019N0010001N1+00531+00521101561ADDAA199000091AY141061AY221061GA1081+000309069GF108991081061000751999999KA1120N+00511MD1710101+9999MW1281REMSYN082AAXX  04061 26422 31194 81803 10053 20052 40156 57010 72842 886// 333 20051 88701;EQDQ01  00002PRCP99
0166264220999992000120409004+56960+024040FM-12+0007UMRR V0201801N003010003019N0010001N1+00531+00521101501ADDAY151031AY221031GA1081+000309069GF108991081071000751999999MD1710061+9999MW1511REMSYN076AAXX  04091 26422 41194 81803 10053 20052 40150 57006 75152 887// 333 88701;
0206264220999992000120412004+56960+024040FM-12+0007UMRR V0201901N003010003019N0010001N1+00571+00561101431ADDAY161061AY251061GA1061+000309069GF108991999071000751021999MA1999999101211MD1710071+9999MW1611REMSYN082AAXX  04121 26422 41194 81903 10057 20056 30121 40143 57007 76165 8872/ 333 86701;EQDQ01+000082SCOTLC
0166264220999992000120415004+56960+024040FM-12+0007UMRR V0202201N002010003019N0010001N1+00661+00651101431ADDAY161031AY221031GA1081+000309069GF108991081061000751999999MD1410001+9999MW1101REMSYN076AAXX  04151 26422 41194 82202 10066 20065 40143 54000 71062 886// 333 88701;
0202264220999992000120418004+56960+024040FM-12+0007UMRR V0202701N003010018019N0040001N1+00751+00741101531ADDAA112003091AY161061AY251061GA1081+001809069GF108991081061001501999999KA1120M+00751MD1210101+9999MW1101REMSYN088AAXX  04181 26422 11296 82703 10075 20074 40153 52010 60032 71065 886// 333 10075 88706;
0166264220999992000120421004+56960+024040FM-12+0007UMRR V0202601N002010012019N0020001N1+00771+00761101661ADDAY151031AY221031GA1081+001209069GF108991081061001501999999MD1210131+9999MW1101REMSYN076AAXX  04211 26422 41295 82602 10077 20076 40166 52013 71052 886// 333 88704;
0187264220999992000120500004+56960+024040FM-12+0007UMRR V0202601N002010018019N0020001N1+00761+00721101801ADDAY151061AY221061GA1061+001809069GF108991081061001501999999MA1999999101581MD1210141+9999MW1101REMSYN082AAXX  05001 26422 41295 82602 10076 20072 30158 40180 52014 71052 886// 333 86706;
0166264220999992000120503004+56960+024040FM-12+0007UMRR V0202801N003010018019N0040001N1+00781+00731101941ADDAY121031AY221031GA1081+001809069GF108991081061001501999999MD1210141+9999MW1101REMSYN076AAXX  05031 26422 /1296 82803 10078 20073 40194 52014 71022 886// 333 88706;
0152264220999992000120506004+56960+024040FM-12+0007UMRR V0202201N002019999999N0100001N1+00571+00501102101ADDAA112000391GF105991051001999999071001KA1999N+00571MD1210161+9999REMSYN076AAXX  05061 26422 12997 52202 10057 20050 40210 52016 69932 85070 333 20057;
0138264220999992000120509004+56960+024040FM-12+0007UMRR V0202401N002010084019N0100001N1+00561+00391102241ADDGA1051+008409059GF108991051051008001051999MD1210141+9999REMSYN070AAXX  05091 26422 42597 82402 10056 20039 40224 52014 8555/ 333 85628;
0159264220999992000120512004+56960+024040FM-12+0007UMRR V0201901N003010075019N0100001N1+00571+00401102241ADDGA1081+007509059GF108991081051008001999999MA1999999102021MD1410001+9999REMSYN076AAXX  05121 26422 42597 81903 10057 20040 30202 40224 54000 885// 333 88625;
0138264220999992000120515004+56960+024040FM-12+0007UMRR V0201801N004010021019N0100001N1+00431+00321102271ADDGA1061+002109069GF107991061061002501041001MD1210031+9999REMSYN070AAXX  05151 26422 42397 71804 10043 20032 40227 52003 86640 333 86707;
0187264220999992000120518004+56960+024040FM-12+0007UMRR V0202401N003010009019N0100001N1+00341+00251102361ADDAA199000091GA1081+000909069GF108991081061001501999999KA1120M+00571MD1210091+9999REMSYN076AAXX  05181 26422 32297 82403 10034 20025 40236 52009 886// 333 10057 88703;EQDQ01  00002PRCP99
0166264220999992000120521004+56960+024040FM-12+0007UMRR V0201701N004010045019N0040001N1+00361+00281102371ADDAY151031AY221031GA1081+004509069GF108991081061004501999999MD1210011+9999MW1201REMSYN076AAXX  05211 26422 41496 81704 10036 20028 40237 52001 72052 886// 333 88715;
0187264220999992000120600004+56960+024040FM-12+0007UMRR V0201801N002010006019N0040001N1+00381+00341102401ADDAY151061AY221061GA1081+000609069GF108991081061000751999999MA1999999102181MD1210031+9999MW1511REMSYN082AAXX  06001 26422 41196 81802 10038 20034 30218 40240 52003 75152 886// 333 88702;
0166264220999992000120603004+56960+024040FM-12+0007UMRR V0201901N002010003019N0020001N1+00431+00411102411ADDAY151031AY221031GA1081+000309069GF108991081061000251999999MD1210011+9999MW1101REMSYN076AAXX  06031 26422 /1095 81902 10043 20041 40241 52001 71052 886// 333 88701;
0202264220999992000120606004+56960+024040FM-12+0007UMRR V0201701N003010006019N0020001N1+00461+00441102481ADDAA112000591AY151061AY221061GA1081+000609069GF108991081061000751999999KA1120N+00341MD1210071+9999MW1511REMSYN088AAXX  06061 26422 11195 81703 10046 20044 40248 52007 69942 75152 886// 333 20034 88702;
0166264220999992000120609004+56960+024040FM-12+0007UMRR V0201701N003010033019N0040001N1+00491+00421102521ADDAY151031AY221031GA1081+003309069GF108991081061004501999999MD1210041+9999MW1101REMSYN076AAXX  06091 26422 41496 81703 10049 20042 40252 52004 71052 886// 333 88711;
0187264220999992000120612004+56960+024040FM-12+0007UMRR V0201701N004010027019N0040001N1+00491+00381102381ADDAY151061AY221061GA1081+002709069GF108991081061002501999999MA1999999102161MD1710141+9999MW1101REMSYN082AAXX  06121 26422 41396 81704 10049 20038 30216 40238 57014 71052 886// 333 88709;
0138264220999992000120615004+56960+024040FM-12+0007UMRR V0201801N005010030019N0100001N1+00511+00321102411ADDGA1081+003009069GF108991081061004501999999MD1210031+9999REMSYN070AAXX  06151 26422 42497 81805 10051 20032 40241 52003 886// 333 88710;
0180264220999992000120618004+56960+024040FM-12+0007UMRR V0201801N005010021019N0100001N1+00471+00331102381ADDAA112000791GA1081+002109079GF108991081061002501999999KA1120M+00521MD1710031+9999REMSYN088AAXX  06181 26422 12397 81805 10047 20033 40238 57003 69902 886// 333 10052 88707 91111;
0144264220999992000120621004+56960+024040FM-12+0007UMRR V0201801N005010024019N0100001N1+00461+00291102311ADDGA1081+002409079GF108991081061002501999999MD1710071+9999REMSYN076AAXX  06211 26422 42397 81805 10046 20029 40231 57007 886// 333 88708 91110;
0165264220999992000120700004+56960+024040FM-12+0007UMRR V0201801N006010021019N0100001N1+00421+00291102241ADDGA1081+002109079GF108991081061002501999999MA1999999102021MD1710071+9999REMSYN082AAXX  07001 26422 42397 81806 10042 20029 30202 40224 57007 886// 333 88707 91111;
0191264220999992000120703004+56960+024040FM-12+0007UMRR V0201801N005010018019N0100001N1+00431+00341102191ADDAA199000091GA1081+001809079GF108991081061001501999999MD1710051+9999OA140101001REMSYN082AAXX  07031 26422 32297 81805 10043 20034 40219 57005 886// 333 88706 91010 91111;EQDQ01  00002PRCP99
0238264220999992000120706004+56960+024040FM-12+0007UMRR V0201701N005010006019N0040001N1+00391+00341102131ADDAA199000091AY121061AY221061GA1081+000609079GF108991081061000751999999KA1120N+00391MD1710061+9999MW1101OA140101001REMSYN094AAXX  07061 26422 31196 81705 10039 20034 40213 57006 71022 886// 333 20039 88702 91010 91111;EQDQ01  00002PRCP99
0189264220999992000120709004+56960+024040FM-12+0007UMRR V0201801N006010006019N0020001N1+00441+00391102041ADDAY121031AY221031GA1081+000609079GF108991081061000751999999MD1710091+9999MW1101OA140101001REMSYN088AAXX  07091 26422 41195 81806 10044 20039 40204 57009 71022 886// 333 88702 91010 91111;
0210264220999992000120712004+56960+024040FM-12+0007UMRR V0201701N007010006019N0040001N1+00351+00301101961ADDAY121061AY221061GA1081+000609079GF108991081061000751999999MA1999999101741MD1710081+9999MW1101OA140101301REMSYN094AAXX  07121 26422 41196 81707 10035 20030 30174 40196 57008 71022 886// 333 88702 91013 91113;
0189264220999992000120715004+56960+024040FM-12+0007UMRR V0201901N006010006019N0100001N1+00301+00211101881ADDAY151031AY221031GA1081+000609079GF108991081061000751999999MD1710081+9999MW1501OA140101201REMSYN088AAXX  07151 26422 41197 81906 10030 20021 40188 57008 75052 886// 333 88702 91012 91114;
0225264220999992000120718004+56960+024040FM-12+0007UMRR V0201901N006010009019N0100001N1+00281+00231101831ADDAA112000791AY151061AY221061GA1081+000909079GF108991081061001501999999KA1120M+00441MD1710051+9999MW1531OA140101201REMSYN100AAXX  07181 26422 11297 81906 10028 20023 40183 57005 69902 75352 886// 333 10044 88703 91012 91114;
0189264220999992000120721004+56960+024040FM-12+0007UMRR V0201901N006010009019N0100001N1+00321+00271101781ADDAY151031AY221031GA1081+000909079GF108991081061001501999999MD1710051+9999MW1511OA140101001REMSYN088AAXX  07211 26422 41297 81906 10032 20027 40178 57005 75152 886// 333 88703 91010 91113;
0193264220999992000120800004+56960+024040FM-12+0007UMRR V0201901N004010009019N0040001N1+00361+00321101741ADDAY151061AY221061GA1081+000909079GF108991081061001501999999MA1999999101521MD1710041+9999MW1511REMSYN088AAXX  08001 26422 41296 81904 10036 20032 30152 40174 57004 75152 886// 333 88703 91113;
0166264220999992000120803004+56960+024040FM-12+0007UMRR V0201901N004010009019N0100001N1+00371+00321101711ADDAY151031AY221031GA1081+000909069GF108991081061000751999999MD1710031+9999MW1101REMSYN076AAXX  08031 26422 /1197 81904 10037 20032 40171 57003 71052 886// 333 88703;
0225264220999992000120806004+56960+024040FM-12+0007UMRR V0201901N006010009019N0040001N1+00341+00261101671ADDAA112000791AY151061AY221061GA1081+000909079GF108991081061001501999999KA1120N+00281MD1710041+9999MW1101OA140101001REMSYN100AAXX  08061 26422 11296 81906 10034 20026 40167 57004 69902 71052 886// 333 20028 88703 91010 91110;
0161264220999992000120809004+56960+024040FM-12+0007UMRR V0202001N006010015019N0100001N1+00381+00221101601ADDGA1081+001509079GF108991081061001501999999MD1710071+9999OA140101001REMSYN082AAXX  08091 26422 42297 82006 10038 20022 40160 57007 886// 333 88705 91010 91112;
0165264220999992000120812004+56960+024040FM-12+0007UMRR V0201801N006010021019N0100001N1+00371+00231101451ADDGA1081+002109079GF108991081061002501999999MA1999999101231MD1710151+9999REMSYN082AAXX  08121 26422 42397 81806 10037 20023 30123 40145 57015 886// 333 88707 91112;
0138264220999992000120815004+56960+024040FM-12+0007UMRR V0201601N004010024019N0100001N1+00401+00231101371ADDGA1081+002409069GF108991081061002501999999MD1710081+9999REMSYN070AAXX  08151 26422 42397 81604 10040 20023 40137 57008 886// 333 88708;
0187264220999992000120818004+56960+024040FM-12+0007UMRR V0201701N004010024019N0100001N1+00391+00221101271ADDAA199000091GA1081+002409069GF108991081061002501999999KA1120M+00401MD1710101+9999REMSYN076AAXX  08181 26422 32397 81704 10039 20022 40127 57010 886// 333 10040 88708;EQDQ01  00002PRCP99
0112264220999992000120821004+56960+024040FM-12+0007UMRR V0201701N005019999999N0100001N1+00321+00181101161ADDGF108991051001999999031011MD1710111+9999REMSYN060AAXX  08211 26422 42997 81705 10032 20018 40116 57011 85031;
0159264220999992000120900004+56960+024040FM-12+0007UMRR V0201701N004010030019N0100001N1+00311+00191101081ADDGA1081+003009069GF108991081061004501999999MA1999999100861MD1710081+9999REMSYN076AAXX  09001 26422 42497 81704 10031 20019 30086 40108 57008 886// 333 88710;
0166264220999992000120903004+56960+024040FM-12+0007UMRR V0201701N005010021019N0040001N1+00331+00311101011ADDAY161031AY221031GA1081+002109029GF108991081001002501021999MD1710071+9999MW1611REMSYN076AAXX  09031 26422 /1396 81705 10033 20031 40101 57007 76162 8802/ 333 88507;
0202264220999992000120906004+56960+024040FM-12+0007UMRR V0201801N004010012019N0020001N1+00391+00381101041ADDAA112003091AY161061AY251061GA1081+001209069GF108991081061001501999999KA1120N+00301MD1210031+9999MW1531REMSYN088AAXX  09061 26422 11295 81804 10039 20038 40104 52003 60032 75365 886// 333 20030 88704;
0123264220999992000120909004+56960+024040FM-12+0007UMRR V0202001N003010003019N0002001N1+00491+99999999999ADDGA1091+999999999GF109991091999999999999999REMSYN069AAXX  09091 26422 41/92 92003 10049 2048 40114 52010 75154 333 96047;
0187264220999992000120912004+56960+024040FM-12+0007UMRR V0202201N003010006019N0010001N1+00671+00661101211ADDAY151061AY241061GA1081+000609069GF108991081061000751999999MA1999999100991MD1210071+9999MW1281REMSYN082AAXX  09121 26422 41194 82203 10067 20066 30099 40121 52007 72854 886// 333 88702;
0166264220999992000120915004+56960+024040FM-12+0007UMRR V0202201N003010051019N0040001N1+00641+00631101311ADDAY121031AY221031GA1061+005109069GF106991061061004501001001MD1210101+9999MW1101REMSYN076AAXX  09151 26422 41496 62203 10064 20063 40131 52010 71022 86600 333 86717;
0202264220999992000120918004+56960+024040FM-12+0007UMRR V0202101N003010300019N0040001N1+00601+00591101341ADDAA112000391AY121061AY221061GA1041+002109069GF105991041061002501031001KA1120M+00711MD1210031+9999MW1101REMSYN088AAXX  09181 26422 11396 52103 10060 20059 40134 52003 69932 71022 84630 333 10071 84707;
0166264220999992000120921004+56960+024040FM-12+0007UMRR V0202101N004010012019N0040001N1+00661+00641101351ADDAY121031AY221031GA1081+001209069GF108991081061001501999999MD1210011+9999MW1101REMSYN076AAXX  09211 26422 41296 82104 10066 20064 40135 52001 71022 886// 333 88704;
0187264220999992000121000004+56960+024040FM-12+0007UMRR V0202101N004010009019N0040001N1+00631+00581101321ADDAY121061AY221061GA1081+000909069GF108991081061000751999999MA1999999101101MD1710031+9999MW1101REMSYN082AAXX  10001 26422 41196 82104 10063 20058 30110 40132 57003 71022 886// 333 88703;
0166264220999992000121003004+56960+024040FM-12+0007UMRR V0202201N003010003019N0020001N1+00631+00611101301ADDAY151031AY221031GA1081+000309069GF108991081061000751999999MD1710021+9999MW1201REMSYN076AAXX  10031 26422 /1195 82203 10063 20061 40130 57002 72052 886// 333 88701;
0202264220999992000121006004+56960+024040FM-12+0007UMRR V0202001N003010003019N0020001N1+00631+00611101291ADDAA112000191AY151061AY221061GA1081+000309069GF108991081061000251999999KA1120N+00581MD1710011+9999MW1101REMSYN088AAXX  10061 26422 11095 82003 10063 20061 40129 57001 69912 71052 886// 333 20058 88701;
0185264220999992000121009004+56960+024040FM-12+0007UMRR V0202301N003010012019N0020001N1+00681+00661101361ADDAY121031AY221031GA1061+001209069GF108991999061001501071999MD1210071+9999MW1101REMSYN076AAXX  10091 26422 41295 82303 10068 20066 40136 52007 71022 8867/ 333 86704;EQDQ01+000082SCOTLC
0187264220999992000121012004+56960+024040FM-12+0007UMRR V0202301N002010093019N0040001N1+00791+00661101331ADDAY121061AY221061GA1061+009309059GF108991061051008001041999MA1999999101111MD1710031+9999MW1101REMSYN082AAXX  10121 26422 41596 82302 10079 20066 30111 40133 57003 71022 8654/ 333 86631;
0140264220999992000121015004+56960+024040FM-12+0007UMRR V0202001N003019999999N0040001N1+00711+00641101331ADDAY121031AY221031GF106991061001999999041999MD1410001+9999MW1101REMSYN066AAXX  10151 26422 41996 62003 10071 20064 40133 54000 71022 8604/;
0193264220999992000121018004+56960+024040FM-12+0007UMRR V0202001N003019999999N0040001N1+00671+00621101311ADDAA199000091AY121061AY221061GF108991081001999999071999KA1999M+00801MD1710021+9999MW1101REMSYN076AAXX  10181 26422 31996 82003 10067 20062 40131 57002 71022 8807/ 333 10080;EQDQ01  00002PRCP99
0140264220999992000121021004+56960+024040FM-12+0007UMRR V0201901N003019999999N0040001N1+00601+00521101311ADDAY121031AY221031GF108991081001999999051999MD1410001+9999MW1101REMSYN066AAXX  10211 26422 41996 81903 10060 20052 40131 54000 71022 8805/;
0161264220999992000121100004+56960+024040FM-12+0007UMRR V0201901N004019999999N0040001N1+00581+00501101261ADDAY121061AY221061GF108991081001999999051999MA1999999101041MD1710051+9999MW1101REMSYN072AAXX  11001 26422 41996 81904 10058 20050 30104 40126 57005 71022 8805/;
0196264220999992000121103004+56960+024040FM-12+0007UMRR V0201701N003010021019N0040001N1+00581+00511101211ADDAA199000091AY121031AY221031GA1081+002109069GF108991081061002501999999MD1710051+9999MW1101REMSYN076AAXX  11031 26422 31396 81703 10058 20051 40121 57005 71022 886// 333 88707;EQDQ01  00002PRCP99
0215264220999992000121106004+56960+024040FM-12+0007UMRR V0202001N003010021019N0040001N1+00571+00491101281ADDAA199000091AY121061AY221061GA1081+002109069GF108991081061002501999999KA1120N+00571MD1210071+9999MW1101REMSYN082AAXX  11061 26422 31396 82003 10057 20049 40128 52007 71022 886// 333 20057 88707;EQDQ01  00002PRCP99
0166264220999992000121109004+56960+024040FM-12+0007UMRR V0201901N004010015019N0040001N1+00551+00481101401ADDAY121031AY221031GA1081+001509069GF108991081061001501999999MD1210121+9999MW1101REMSYN076AAXX  11091 26422 41296 81904 10055 20048 40140 52012 71022 886// 333 88705;
0187264220999992000121112004+56960+024040FM-12+0007UMRR V0201801N004010012019N0040001N1+00521+00451101381ADDAY121061AY221061GA1081+001209069GF108991081061001501999999MA1999999101161MD1710021+9999MW1101REMSYN082AAXX  11121 26422 41296 81804 10052 20045 30116 40138 57002 71022 886// 333 88704;
0166264220999992000121115004+56960+024040FM-12+0007UMRR V0201801N004010009019N0020001N1+00481+00461101371ADDAY151031AY221031GA1081+000909069GF108991081061001501999999MD1710011+9999MW1201REMSYN076AAXX  11151 26422 41295 81804 10048 20046 40137 57001 72052 886// 333 88703;
0202264220999992000121118004+56960+024040FM-12+0007UMRR V0201901N004010009019N0020001N1+00571+00561101351ADDAA112000591AY151061AY221061GA1081+000909069GF108991081071000751999999KA1120M+00571MD1710021+9999MW1511REMSYN088AAXX  11181 26422 11195 81904 10057 20056 40135 57002 69942 75152 887// 333 10057 88703;
0185264220999992000121121004+56960+024040FM-12+0007UMRR V0201901N004010006019N0020001N1+00621+00601101261ADDAY161031AY251031GA1071+000609069GF108991999071000751021999MD1710091+9999MW1631REMSYN076AAXX  11211 26422 41195 81904 10062 20060 40126 57009 76365 8872/ 333 87702;EQDQ01+000082SCOTLC
0229264220999992000121200004+56960+024040FM-12+0007UMRR V0201801N006010009019N0020001N1+00671+00651101011ADDAY161061AY251061GA1071+000909079GF108991999071000751021999MA1999999100791MD1710251+9999MW1631OA140101001REMSYN094AAXX  12001 26422 41195 81806 10067 20065 30079 40101 57025 76365 8872/ 333 87703 91010 91110;EQDQ01+000082SCOTLC
0208264220999992000121203004+56960+024040FM-12+0007UMRR V0201901N005010006019N0020001N1+00721+00681100811ADDAY161031AY221031GA1071+000609079GF108991999071000751021999MD1710201+9999MW1611OA140101001REMSYN088AAXX  12031 26422 /1195 81905 10072 20068 40081 57020 76162 8872/ 333 87702 91010 91114;EQDQ01+000082SCOTLC
0208264220999992000121206004+56960+024040FM-12+0007UMRR V0202101N004010015019N0020001N1+00791+00741100711ADDAA112002091AY181061AY261061GA1071+001509079GF107991071061001501001001KA1120N+00571MD1710091+9999MW1251REMSYN094AAXX  12061 26422 11295 72104 10079 20074 40071 57009 60022 72586 87600 333 20057 87705 91111;
0161264220999992000121209004+56960+024040FM-12+0007UMRR V0202401N006010078019N0100001N1+00861+00601100851ADDGA1071+007809069GF107991071051008001001001MD1210141+9999OA140101001REMSYN082AAXX  12091 26422 42597 72406 10086 20060 40085 52014 87500 333 87626 91010 91110;
0182264220999992000121212004+56960+024040FM-12+0007UMRR V0203001N004010069019N0100001N1+00851+00461101071ADDGA1071+006909069GF107991071041008001001001MA1999999100851MD1210211+9999OA140101001REMSYN088AAXX  12121 26422 42597 73004 10085 20046 30085 40107 52021 87400 333 87623 91010 91112;
0138264220999992000121215004+56960+024040FM-12+0007UMRR V0202601N003010087019N0100001N1+00741+00391101241ADDGA1061+008709059GF106991061041008001001001MD1210171+9999REMSYN070AAXX  12151 26422 42597 62603 10074 20039 40124 52017 86400 333 86629;
0146264220999992000121218004+56960+024040FM-12+0007UMRR V0202101N002012200019N0100001N1+00501+00341101321ADDAA199000021GF101991011001999999031001KA1999M+00881MD1210081+9999REMSYN070AAXX  12181 26422 32997 12102 10050 20034 40132 52008 81030 333 10088;
0138264220999992000121221004+56960+024040FM-12+0007UMRR V0201901N002010021019N0100001N1+00441+00401101381ADDGA1081+002109069GF108991081061002501999999MD1210061+9999REMSYN070AAXX  12211 26422 42397 81902 10044 20040 40138 52006 886// 333 88707;
0159264220999992000121300004+56960+024040FM-12+0007UMRR V0202001N002010021019N0100001N1+00491+00381101331ADDGA1081+002109069GF108991081061002501999999MA1999999101111MD1710051+9999REMSYN076AAXX  13001 26422 42397 82002 10049 20038 30111 40133 57005 886// 333 88707;
0168264220999992000121303004+56960+024040FM-12+0007UMRR V0201801N003010018019N0100001N1+00451+00401101141ADDAA199000091GA1081+001809019GF108991081061001501999999MD1710191+9999REMSYN070AAXX  13031 26422 32297 81803 10045 20040 40114 57019 886// 333 88406;EQDQ01  00002PRCP99
0202264220999992000121306004+56960+024040FM-12+0007UMRR V0201901N004010009019N0040001N1+00541+00501100991ADDAA112000791AY151061AY221061GA1081+000909069GF108991081061000751999999KA1120N+00371MD1710151+9999MW1511REMSYN088AAXX  13061 26422 11196 81904 10054 20050 40099 57015 69902 75152 886// 333 20037 88703;
0189264220999992000121309004+56960+024040FM-12+0007UMRR V0201801N006010009019N0100001N1+00641+00571100731ADDAY151031AY221031GA1081+000909079GF108991081061001501999999MD1710261+9999MW1021OA140101001REMSYN088AAXX  13091 26422 41297 81806 10064 20057 40073 57026 70252 886// 333 88703 91010 91111;
0210264220999992000121312004+56960+024040FM-12+0007UMRR V0201701N006010006019N0010001N1+00671+00651100361ADDAY151061AY221061GA1081+000609079GF108991081061000751999999MA1999999100151MD1710361+9999MW1101OA140101001REMSYN094AAXX  13121 26422 41194 81706 10067 20065 30015 40036 57036 71052 886// 333 88702 91010 91111;
0208264220999992000121315004+56960+024040FM-12+0007UMRR V0201801N006010009019N0020001N1+00691+00671100051ADDAY161031AY251031GA1071+000909079GF108991999071001501021999MD1710311+9999MW1631OA140101101REMSYN088AAXX  13151 26422 41295 81806 10069 20067 40005 57031 76365 8872/ 333 87703 91011 91111;EQDQ01+000082SCOTLC
0227264220999992000121318004+56960+024040FM-12+0007UMRR V0202001N004010009019N0020001N1+00781+00761099901ADDAA112007991AY161061AY251061GA1071+000909079GF108991999071001501021999KA1120M+00781MD1710151+9999MW1631REMSYN094AAXX  13181 26422 11295 82004 10078 20076 49990 57015 60082 76365 8872/ 333 10078 87703 91111;EQDQ01+000082SCOTLC
0166264220999992000121321004+56960+024040FM-12+0007UMRR V0202201N004010108019N0040001N1+00791+00661099881ADDAY161031AY221031GA1081+010809059GF108991081051012501999999MD1710021+9999MW1101REMSYN076AAXX  13211 26422 41696 82204 10079 20066 49988 57002 71062 885// 333 88636;
0187264220999992000121400004+56960+024040FM-12+0007UMRR V0202201N004010099019N0040001N1+00731+00491099891ADDAY181061AY261061GA1051+009909059GF105991051051012501999999MA1999999099681MD1210011+9999MW1251REMSYN082AAXX  14001 26422 41696 52204 10073 20049 39968 49989 52001 72586 855// 333 85633;
0112264220999992000121403004+56960+024040FM-12+0007UMRR V0201901N003012200019N0100001N1+00561+00431099861ADDGF104991041001999999071001MD1710031+9999REMSYN060AAXX  14031 26422 /2997 41903 10056 20043 49986 57003 84070;
0174264220999992000121406004+56960+024040FM-12+0007UMRR V0201901N004010090019N0100001N1+00501+00461099761ADDAA112000791GA1081+009009099GF108991081091008001999999KA1120N+00441MD1710101+9999REMSYN082AAXX  14061 26422 12597 81904 10050 20046 49976 57010 69902 889// 333 20044 88930;
0138264220999992000121409004+56960+024040FM-12+0007UMRR V0201801N004010075019N0100001N1+00591+00511099751ADDGA1081+007509059GF108991081051008001999999MD1710011+9999REMSYN070AAXX  14091 26422 42597 81804 10059 20051 49975 57001 885// 333 88625;
0187264220999992000121412004+56960+024040FM-12+0007UMRR V0202001N004010063019N0100001N1+00641+00501099641ADDAY181061AY221061GA1081+006309099GF108991081091008001999999MA1999999099431MD1710111+9999MW1021REMSYN082AAXX  14121 26422 41597 82004 10064 20050 39943 49964 57011 70282 889// 333 88921;
0166264220999992000121415004+56960+024040FM-12+0007UMRR V0201901N004010051019N0100001N1+00601+00501099541ADDAY181031AY221031GA1081+005109099GF108991081091004501999999MD1710101+9999MW1021REMSYN076AAXX  14151 26422 41497 81904 10060 20050 49954 57010 70282 889// 333 88917;
0202264220999992000121418004+56960+024040FM-12+0007UMRR V0202201N003010051019N0100001N1+00591+00431099581ADDAA112000791AY181061AY221061GA1061+005109059GF106991061051004501001001KA1120M+00681MD1210041+9999MW1011REMSYN088AAXX  14181 26422 11497 62203 10059 20043 49958 52004 69902 70182 86500 333 10068 86617;
0112264220999992000121421004+56960+024040FM-12+0007UMRR V0202001N004019999999N0100001N1+00391+00271099681ADDGF106991061001999999031001MD1210091+9999REMSYN060AAXX  14211 26422 42997 62004 10039 20027 49968 52009 86030;
0133264220999992000121500004+56960+024040FM-12+0007UMRR V0201901N003019999999N0100001N1+00291+00251099701ADDGF108991081001999999031999MA1999999099481MD1210021+9999REMSYN066AAXX  15001 26422 42997 81903 10029 20025 39948 49970 52002 8803/;
0112264220999992000121503004+56960+024040FM-12+0007UMRR V0201801N004019999999N0100001N1+00231+00201099701ADDGF108991081001999999071001MD1410001+9999REMSYN060AAXX  15031 26422 /2997 81804 10023 20020 49970 54000 88070;
0165264220999992000121506004+56960+024040FM-12+0007UMRR V0201901N004019999999N0100001N1+00171+00151099681ADDAA199000091GF108991081001999999071999KA1999N+00161MD1710021+9999REMSYN070AAXX  15061 26422 32997 81904 10017 20015 49968 57002 8807/ 333 20016;EQDQ01  00002PRCP99
0166264220999992000121509004+56960+024040FM-12+0007UMRR V0201601N004010009019N0040001N1+00181+00131099751ADDAY121031AY221031GA1081+000909069GF108991081061000751999999MD1210071+9999MW1101REMSYN076AAXX  15091 26422 41196 81604 10018 20013 49975 52007 71022 886// 333 88703;
0187264220999992000121512004+56960+024040FM-12+0007UMRR V0201601N004010012019N0040001N1+00281+00191099661ADDAY121061AY221061GA1081+001209069GF108991081061001501999999MA1999999099441MD1710091+9999MW1101REMSYN082AAXX  15121 26422 41296 81604 10028 20019 39944 49966 57009 71022 886// 333 88704;
0166264220999992000121515004+56960+024040FM-12+0007UMRR V0201701N005010006019N0040001N1+00211+00131099651ADDAY121031AY221031GA1081+000609069GF108991081061000751999999MD1710011+9999MW1101REMSYN076AAXX  15151 26422 41196 81705 10021 20013 49965 57001 71022 886// 333 88702;
0215264220999992000121518004+56960+024040FM-12+0007UMRR V0201501N004010009019N0040001N1+00301+00221099631ADDAA199000091AY121061AY221061GA1081+000909069GF108991081061001501999999KA1120M+00301MD1710021+9999MW1101REMSYN082AAXX  15181 26422 31296 81504 10030 20022 49963 57002 71022 886// 333 10030 88703;EQDQ01  00002PRCP99
0166264220999992000121521004+56960+024040FM-12+0007UMRR V0201501N004010009019N0040001N1+00261+00181099651ADDAY161031AY221031GA1081+000909029GF108991081001001501021999MD1210021+9999MW1101REMSYN076AAXX  15211 26422 41296 81504 10026 20018 49965 52002 71062 8802/ 333 88503;
0187264220999992000121600004+56960+024040FM-12+0007UMRR V0201201N002010033019N0040001N1+00181+00041099581ADDAY161061AY221061GA1071+003309069GF107991071061004501001001MA1999999099361MD1710071+9999MW1101REMSYN082AAXX  16001 26422 41496 71202 10018 20004 39936 49958 57007 71062 87600 333 87711;
0166264220999992000121603004+56960+024040FM-12+0007UMRR V0200701N003010048019N0040001N1+00131-00011099521ADDAY121031AY221031GA1061+004809059GF107991071051004501001001MD1710061+9999MW1101REMSYN076AAXX  16031 26422 /1496 70703 10013 21001 49952 57006 71022 87500 333 86616;
0221264220999992000121606004+56960+024040FM-12+0007UMRR V0200401N002010006019N0020001N1+00041-00011099541ADDAA112000591AY161061AY251061GA1071+000609069GF108991999071000751021999KA1120N+00041MD1210021+9999MW1631REMSYN088AAXX  16061 26422 11195 80402 10004 21001 49954 52002 69942 76365 8872/ 333 20004 87702;EQDQ01+000082SCOTLC
0185264220999992000121609004+56960+024040FM-12+0007UMRR V0200501N002010006019N0010001N1+00061+00041099551ADDAY171031AY221031GA1061+000609069GF108991999071000751021999MD1210011+9999MW1221REMSYN076AAXX  16091 26422 41194 80502 10006 20004 49955 52001 72272 8872/ 333 86702;EQDQ01+000082SCOTLC
0206264220999992000121612004+56960+024040FM-12+0007UMRR V0200401N001010012019N0040001N1+00121+00071099541ADDAY171061AY221061GA1061+001209069GF108991999071001501021999MA1999999099321MD1710011+9999MW1711REMSYN082AAXX  16121 26422 41296 80401 10012 20007 39932 49954 57001 77172 8872/ 333 86704;EQDQ01+000082SCOTLC
0166264220999992000121615004+56960+024040FM-12+0007UMRR V0200201N002010018019N0040001N1+00131+00081099611ADDAY151031AY221031GA1081+001809069GF108991081061001501999999MD1210071+9999MW1101REMSYN076AAXX  16151 26422 41296 80202 10013 20008 49961 52007 71052 886// 333 88706;
0202264220999992000121618004+56960+024040FM-12+0007UMRR V0200301N002010123019N0040001N1+00131+00041099651ADDAA112001091AY151061AY221061GA1081+012309059GF108991081051012501999999KA1120M+00151MD1210041+9999MW1101REMSYN088AAXX  16181 26422 11696 80302 10013 20004 49965 52004 60012 71052 885// 333 10015 88641;
0138264220999992000121621004+56960+024040FM-12+0007UMRR V0200401N003010048019N0100001N1+00141+00001099731ADDGA1081+004809059GF108991081051004501999999MD1210081+9999REMSYN070AAXX  16211 26422 42497 80403 10014 20000 49973 52008 885// 333 88616;
0159264220999992000121700004+56960+024040FM-12+0007UMRR V0200201N002010036019N0100001N1+00161+00051099781ADDGA1081+003609059GF108991081051004501999999MA1999999099561MD1210051+9999REMSYN076AAXX  17001 26422 42497 80202 10016 20005 39956 49978 52005 885// 333 88612;
0166264220999992000121703004+56960+024040FM-12+0007UMRR V0200301N002010030019N0100001N1+00191+00131099831ADDAY171031AY261031GA1081+003009029GF108991081001004501021999MD1210051+9999MW1611REMSYN076AAXX  17031 26422 /1497 80302 10019 20013 49983 52005 76176 8802/ 333 88510;
0202264220999992000121706004+56960+024040FM-12+0007UMRR V0200201N002010066019N0100001N1+00171+00091099981ADDAA112000791AY171061AY261061GA1081+006609059GF108991081051008001999999KA1120N+00091MD1210151+9999MW1021REMSYN088AAXX  17061 26422 11597 80202 10017 20009 49998 52015 69902 70276 885// 333 20009 88622;
0187264220999992000121712004+56960+024040FM-12+0007UMRR V0200101N003010042019N0100001N1+00251+00061100241ADDAY181061AY221061GA1061+004209099GF108991061091004501031999MA1999999100021MD1210121+9999MW1801REMSYN082AAXX  17121 26422 41497 80103 10025 20006 30002 40024 52012 78082 8693/ 333 86914;
0166264220999992000121715004+56960+024040FM-12+0007UMRR V0200301N002010015019N0100001N1+00141+00051100421ADDAY181031AY221031GA1061+001509069GF108991081091001501999999MD1210181+9999MW1801REMSYN076AAXX  17151 26422 41297 80302 10014 20005 40042 52018 78082 889// 333 86705;
0202264220999992000121718004+56960+024040FM-12+0007UMRR V0200301N002010012019N0040001N1+00061+00031100571ADDAA112000591AY181061AY271061GA1071+001209069GF108991081091001501999999KA1120M+00271MD1210151+9999MW1851REMSYN088AAXX  17181 26422 11296 80302 10006 20003 40057 52015 69952 78587 889// 333 10027 87704;
0166264220999992000121721004+56960+024040FM-12+0007UMRR V0200301N003010012019N0040001N1+00041-00021100771ADDAY181031AY221031GA1061+001209069GF108991081091001501999999MD1210201+9999MW1851REMSYN076AAXX  17211 26422 41296 80303 10004 21002 40077 52020 78582 889// 333 86704;
0161264220999992000121800004+56960+024040FM-12+0007UMRR V0200301N003019999999N0040001N1-00021-00101100931ADDAY181061AY221061GF107991071001999999031001MA1999999100711MD1210161+9999MW1101REMSYN072AAXX  18001 26422 41996 70303 11002 21010 30071 40093 52016 71082 87030;
0166264220999992000121803004+56960+024040FM-12+0007UMRR V0200401N003010051019N0040001N1-00071-00161101101ADDAY181031AY221031GA1051+005109099GF105991051091004501001001MD1210171+9999MW1851REMSYN076AAXX  18031 26422 /1496 50403 11007 21016 40110 52017 78582 85900 333 85917;
0180264220999992000121806004+56960+024040FM-12+0007UMRR V0200501N002019999999N0100001N1-00081-00261101271ADDAA112000391AY181061AY221061GF106991061001999999031001KA1999N-00091MD1210171+9999MW1011REMSYN082AAXX  18061 26422 11997 60502 11008 21026 40127 52017 69932 70182 86030 333 21009;
0166264220999992000121809004+56960+024040FM-12+0007UMRR V0200501N002010078019N0100001N1-00071-00191101471ADDAY181031AY221031GA1081+007809099GF108991081091008001999999MD1210201+9999MW1261REMSYN076AAXX  18091 26422 41597 80502 11007 21019 40147 52020 72682 889// 333 88926;
0187264220999992000121812004+56960+024040FM-12+0007UMRR V0200801N003010078019N0100001N1-00131-00471101561ADDAY181061AY221061GA1061+007809099GF107991061091008001031001MA1999999101341MD1210091+9999MW1011REMSYN082AAXX  18121 26422 41597 70803 11013 21047 30134 40156 52009 70182 86930 333 86926;
0138264220999992000121815004+56960+024040FM-12+0007UMRR V0200701N004010084019N0100001N1-00191-00561101801ADDGA1081+008409059GF108991081051008001999999MD1210231+9999REMSYN070AAXX  18151 26422 42597 80704 11019 21056 40180 52023 885// 333 88628;
0174264220999992000121818004+56960+024040FM-12+0007UMRR V0200301N002010105019N0100001N1-00201-00591101941ADDAA112000791GA1071+010509059GF107991071051012501001001KA1120M-00051MD1210141+9999REMSYN082AAXX  18181 26422 12697 70302 11020 21059 40194 52014 69902 87500 333 11005 87635;
0138264220999992000121821004+56960+024040FM-12+0007UMRR V0200401N003010093019N0100001N1-00211-00521102071ADDGA1061+009309059GF106991061051008001001001MD1210131+9999REMSYN070AAXX  18211 26422 42597 60403 11021 21052 40207 52013 86500 333 86631;
0133264220999992000121900004+56960+024040FM-12+0007UMRR V0200601N001019999999N0100001N1-00311-00491102141ADDGF106991061001999999031001MA1999999101911MD1210071+9999REMSYN066AAXX  19001 26422 42997 60601 11031 21049 30191 40214 52007 86030;
0142264220999992000121903004+56960+024040FM-12+0007UMRR V0200401N002019999999N0100001N1-00471-00531102241ADDAA199000091GF105991051001999999071001MD1210101+9999REMSYN060AAXX  19031 26422 32997 50402 11047 21053 40224 52010 85070;EQDQ01  00002PRCP99
0165264220999992000121906004+56960+024040FM-12+0007UMRR V0200601N003012200019N0100001N1-00351-00671102371ADDAA199000091GF103991031001999999031001KA1999N-00471MD1210131+9999REMSYN070AAXX  19061 26422 32997 30603 11035 21067 40237 52013 83030 333 21047;EQDQ01  00002PRCP99
0112264220999992000121909004+56960+024040FM-12+0007UMRR V0209999C000019999999N0100001N1-00361-00601102521ADDGF105991051001999999031001MD1210151+9999REMSYN060AAXX  19091 26422 42997 50000 11036 21060 40252 52015 85030;
0159264220999992000121912004+56960+024040FM-12+0007UMRR V0202901N002010096019N0100001N1-00101-00511102561ADDGA1051+009609029GF105991051011008001001001MA1999999102331MD1210041+9999REMSYN076AAXX  19121 26422 42597 52902 11010 21051 30233 40256 52004 85100 333 85832;
0112264220999992000121915004+56960+024040FM-12+0007UMRR V0209999C000019999999N0100001N1-00101-00461102641ADDGF108991081001999999071999MD1210081+9999REMSYN060AAXX  19151 26422 42997 80000 11010 21046 40264 52008 8807/;
0165264220999992000121918004+56960+024040FM-12+0007UMRR V0200401N006019999999N0100001N1-00151-00611102801ADDAA199000091GF106991061001999999071001KA1999M-00031MD1210161+9999REMSYN070AAXX  19181 26422 32997 60406 11015 21061 40280 52016 86070 333 11003;EQDQ01  00002PRCP99
0159264220999992000122000004+56960+024040FM-12+0007UMRR V0200401N001010114019N0100001N1-00251-00601102961ADDGA1071+011409059GF107991071051012501001001MA1999999102731MD1210061+9999REMSYN076AAXX  20001 26422 42697 70401 11025 21060 30273 40296 52006 87500 333 87638;
0168264220999992000122003004+56960+024040FM-12+0007UMRR V0202501N001010072019N0100001N1-00231-00531103071ADDAA199000091GA1081+007209059GF108991081051008001999999MD1210111+9999REMSYN070AAXX  20031 26422 32597 82501 11023 21053 40307 52011 885// 333 88624;EQDQ01  00002PRCP99
0165264220999992000122006004+56960+024040FM-12+0007UMRR V0202201N001019999999N0100001N1-00201-00521103101ADDAA199000091GF107991071001999999071001KA1999N-00321MD1210031+9999REMSYN070AAXX  20061 26422 32997 72201 11020 21052 40310 52003 87070 333 21032;EQDQ01  00002PRCP99
0138264220999992000122009004+56960+024040FM-12+0007UMRR V0202201N001010084019N0100001N1-00181-00361103201ADDGA1061+008409059GF106991061051008001001001MD1210101+9999REMSYN070AAXX  20091 26422 42597 62201 11018 21036 40320 52010 86500 333 86628;
0133264220999992000122012004+56960+024040FM-12+0007UMRR V0203301N005012200019N0100001N1+00171-00341103151ADDGF105991021041008001001011MA1999999102921MD1710051+9999REMSYN066AAXX  20121 26422 42597 53305 10017 21034 30292 40315 57005 82401;
0138264220999992000122015004+56960+024040FM-12+0007UMRR V0203301N004010069019N0100001N1+00131-00241103161ADDGA1051+006909059GF108991051051008001001091MD1210011+9999REMSYN070AAXX  20151 26422 42597 83304 10013 21024 40316 52001 85509 333 85623;
0175264220999992000122018004+56960+024040FM-12+0007UMRR V0203601N003012200019N0100001N1+00091-00351103201ADDAA199000091GA1001+999999999GF100991001001999999001001KA1999M+00181MD1210041+9999REMSYN064AAXX  20181 26422 32997 03603 10009 21035 40320 52004 333 10018;EQDQ01  00002PRCP99
0112264220999992000122021004+56960+024040FM-12+0007UMRR V0201101N001019999999N0100001N1-00011-00291103231ADDGF107991071001999999071001MD1210031+9999REMSYN060AAXX  20211 26422 42997 71101 11001 21029 40323 52003 87070;
0187264220999992000122100004+56960+024040FM-12+0007UMRR V0202601N002010048019N0100001N1-00101-00281103241ADDAY181061AY221061GA1081+004809099GF108991081091004501999999MA1999999103011MD1210011+9999MW1871REMSYN082AAXX  21001 26422 41497 82602 11010 21028 30301 40324 52001 78782 889// 333 88916;
0166264220999992000122103004+56960+024040FM-12+0007UMRR V0202401N001010078019N0100001N1-00051-00131103181ADDAY181031AY221031GA1081+007809099GF108991081091008001999999MD1710061+9999MW1881REMSYN076AAXX  21031 26422 /1597 82401 11005 21013 40318 57006 78882 889// 333 88926;
0209264220999992000122106004+56960+024040FM-12+0007UMRR V0201801N002019999999N0100001N1-00071-00121103121ADDAA112000791AJ100009199999999AY181061AY221061GF108991081001999999051999IA1229KA1120N-00111MD1710061+9999MW1021REMSYN088AAXX  21061 26422 11997 81802 11007 21012 40312 57006 69902 70282 8805/ 333 21011 46997;
0166264220999992000122109004+56960+024040FM-12+0007UMRR V0201601N002010045019N0100001N1-00051-00141103161ADDAY181031AY221031GA1061+004509099GF108991061091004501071999MD1210041+9999MW1851REMSYN076AAXX  21091 26422 41497 81602 11005 21014 40316 52004 78582 8697/ 333 86915;
0187264220999992000122112004+56960+024040FM-12+0007UMRR V0202301N001010300019N0100001N1-00021-00201103101ADDAY181061AY221061GA1041+009009099GF108991041091008001051999MA1999999102871MD1710061+9999MW1851REMSYN082AAXX  21121 26422 41597 82301 11002 21020 30287 40310 57006 78582 8495/ 333 84930;
0166264220999992000122115004+56960+024040FM-12+0007UMRR V0201701N001010051019N0100001N1-00061-00181103071ADDAY181031AY221031GA1061+005109059GF106991061051004501001001MD1710031+9999MW1011REMSYN076AAXX  21151 26422 41497 61701 11006 21018 40307 57003 70182 86500 333 86617;
0202264220999992000122118004+56960+024040FM-12+0007UMRR V0200701N002010060019N0100001N1-00111-00341103081ADDAA112000791AY181061AY221061GA1061+006009059GF106991061051008001001001KA1120M+00001MD1210011+9999MW1021REMSYN088AAXX  21181 26422 11597 60702 11011 21034 40308 52001 69902 70282 86500 333 10000 86620;
0138264220999992000122121004+56960+024040FM-12+0007UMRR V0201201N001010087019N0100001N1-00121-00511103091ADDGA1071+008709059GF107991071051008001001001MD1210011+9999REMSYN070AAXX  21211 26422 42597 71201 11012 21051 40309 52001 87500 333 87629;
0159264220999992000122200004+56960+024040FM-12+0007UMRR V0202101N001010093019N0100001N1-00191-00451102971ADDGA1071+009309059GF107991071051008001001001MA1999999102741MD1710121+9999REMSYN076AAXX  22001 26422 42597 72101 11019 21045 30274 40297 57012 87500 333 87631;
0168264220999992000122203004+56960+024040FM-12+0007UMRR V0202001N002010099019N0100001N1-00181-00361102791ADDAA199000091GA1071+009909059GF107991071051008001001001MD1710181+9999REMSYN070AAXX  22031 26422 32597 72002 11018 21036 40279 57018 87500 333 87633;EQDQ01  00002PRCP99
0232264220999992000122206004+56960+024040FM-12+0007UMRR V0202201N002010087019N0100001N1-00131-00261102551ADDAA199000091AJ199993999999999GA1081+008709059GF108991081051008001999999IA1229KA1120N-00201MD1710241+9999REMSYN082AAXX  22061 26422 32597 82202 11013 21026 40255 57024 885// 333 21020 46997 88629;EQDQ01  00002PRCP99Q02  09982SNDP  
0138264220999992000122209004+56960+024040FM-12+0007UMRR V0202201N004010108019N0100001N1-00021-00191102291ADDGA1081+010809059GF108991081051012501999999MD1710251+9999REMSYN070AAXX  22091 26422 42697 82204 11002 21019 40229 57025 885// 333 88636;
0159264220999992000122212004+56960+024040FM-12+0007UMRR V0202401N004010096019N0100001N1+00091-00111101961ADDGA1081+009609059GF108991081051008001999999MA1999999101741MD1710331+9999REMSYN076AAXX  22121 26422 42597 82404 10009 21011 30174 40196 57033 885// 333 88632;
0138264220999992000122215004+56960+024040FM-12+0007UMRR V0202601N004010126019N0100001N1+00131-00091101711ADDGA1081+012609059GF108991081051012501999999MD1710251+9999REMSYN070AAXX  22151 26422 42697 82604 10013 21009 40171 57025 885// 333 88642;
0193264220999992000122218004+56960+024040FM-12+0007UMRR V0202401N003010123019N0100001N1+00131-00151101491ADDAA199000091GA1081+012309069GF108991081051012501999999KA1120M+00171MD1710221+9999REMSYN082AAXX  22181 26422 32697 82403 10013 21015 40149 57022 885// 333 10017 88641 91111;EQDQ01  00002PRCP99
0166264220999992000122221004+56960+024040FM-12+0007UMRR V0202201N002010072019N0100001N1+00071-00041101221ADDAY181031AY221031GA1081+007209099GF108991081091008001999999MD1710271+9999MW1871REMSYN076AAXX  22211 26422 41597 82202 10007 21004 40122 57027 78782 889// 333 88924;
0187264220999992000122300004+56960+024040FM-12+0007UMRR V0202401N004010045019N0100001N1+00101-00071100871ADDAY181061AY221061GA1081+004509059GF108991081051004501999999MA1999999100651MD1710351+9999MW1021REMSYN082AAXX  23001 26422 41497 82404 10010 21007 30065 40087 57035 70282 885// 333 88615;
0166264220999992000122303004+56960+024040FM-12+0007UMRR V0202101N003010099019N0100001N1+00021-00091100611ADDAY181031AY221031GA1081+009909059GF108991081051012501999999MD1710261+9999MW1021REMSYN076AAXX  23031 26422 /1697 82103 10002 21009 40061 57026 70282 885// 333 88633;
0250264220999992000122306004+56960+024040FM-12+0007UMRR V0202201N003010057019N0100001N1+00031-00151100401ADDAA112000391AJ199993999999999AY181061AY221061GA1081+005709059GF108991081051004501999999IA1229KA1120N+00001MD1710211+9999MW1021REMSYN094AAXX  23061 26422 11497 82203 10003 21015 40040 57021 69932 70282 885// 333 20000 46997 88619;EQDQ01  09982SNDP  
0166264220999992000122309004+56960+024040FM-12+0007UMRR V0202401N003010063019N0100001N1+00061-00111100281ADDAY181031AY221031GA1081+006309099GF108991081091008001999999MD1710121+9999MW1851REMSYN076AAXX  23091 26422 41597 82403 10006 21011 40028 57012 78582 889// 333 88921;
0187264220999992000122312004+56960+024040FM-12+0007UMRR V0202501N004010021019N0100001N1+00161+00021100121ADDAY181061AY221061GA1081+002109069GF108991081061002501999999MA1999999099901MD1710161+9999MW1261REMSYN082AAXX  23121 26422 41397 82504 10016 20002 39990 40012 57016 72682 886// 333 88707;
0166264220999992000122315004+56960+024040FM-12+0007UMRR V0202501N002012200019N0100001N1+00081+00031100071ADDAY181031AY221031GA1021+013809059GF102991021041012501001001MD1710051+9999MW1011REMSYN076AAXX  23151 26422 41697 22502 10008 20003 40007 57005 70182 82400 333 82646;
0180264220999992000122318004+56960+024040FM-12+0007UMRR V0202701N003012200019N0100001N1-00011-00131100021ADDAA112000591AY181061AY211061GF102991021001999999031001KA1999M+00171MD1710051+9999MW1021REMSYN082AAXX  23181 26422 11997 22703 11001 21013 40002 57005 69942 70281 82030 333 10017;
0140264220999992000122321004+56960+024040FM-12+0007UMRR V0202501N003012200019N0100001N1-00051-00171100001ADDAY181031AY211031GF103991031091004501001001MD1710021+9999MW1011REMSYN066AAXX  23211 26422 41497 32503 11005 21017 40000 57002 70181 83900;
0161264220999992000122400004+56960+024040FM-12+0007UMRR V0202601N003019999999N0100001N1-00131-00261099931ADDAY181061AY211061GF105991051001999999031001MA1999999099711MD1710071+9999MW1021REMSYN072AAXX  24001 26422 41997 52603 11013 21026 39971 49993 57007 70281 85030;
0122264220999992000122403004+56960+024040FM-12+0007UMRR V0202501N003012200019N0100001N1-00121-00271099901ADDGA1001+999999999GF100991001001999999001001MD1710031+9999REMSYN054AAXX  24031 26422 /2997 02503 11012 21027 49990 57003;
0152264220999992000122406004+56960+024040FM-12+0007UMRR V0202501N003012200019N0100001N1-00221-00381099851ADDAA112000791GF102991021001999999071001KA1999N-00221MD1710051+9999REMSYN076AAXX  24061 26422 12997 22503 11022 21038 49985 57005 69902 82070 333 21022;
0112264220999992000122409004+56960+024040FM-12+0007UMRR V0202501N003012200019N0100001N1-00101-00341099911ADDGF103991031001999999041001MD1210061+9999REMSYN060AAXX  24091 26422 42997 32503 11010 21034 49991 52006 83040;
0159264220999992000122412004+56960+024040FM-12+0007UMRR V0202601N002010021019N0100001N1+00091-00191099911ADDGA1041+002109069GF108991061091002501031999MA1999999099691MD1410001+9999REMSYN076AAXX  24121 26422 42397 82602 10009 21019 39969 49991 54000 8693/ 333 84707;
0166264220999992000122415004+56960+024040FM-12+0007UMRR V0203201N001010036019N0100001N1-00041-00121099971ADDAY181031AY221031GA1051+003609099GF108991051091004501031999MD1210061+9999MW1871REMSYN076AAXX  24151 26422 41497 83201 11004 21012 49997 52006 78782 8593/ 333 85912;
0202264220999992000122418004+56960+024040FM-12+0007UMRR V0201701N002010120019N0100001N1-00161-00191100031ADDAA112002091AY181061AY221061GA1061+012009059GF106991061051012501001001KA1120M+00111MD1210061+9999MW1011REMSYN088AAXX  24181 26422 11697 61702 11016 21019 40003 52006 60022 70182 86500 333 10011 86640;
0166264220999992000122421004+56960+024040FM-12+0007UMRR V0201601N001010009019N0100001N1-00191-00221100111ADDAY181031AY221031GA1051+000909069GF106991061091001501001001MD1210081+9999MW1851REMSYN076AAXX  24211 26422 41297 61601 11019 21022 40011 52008 78582 86900 333 85703;
0187264220999992000122500004+56960+024040FM-12+0007UMRR V0209999C000010147019N0040001N1-00281-00311100141ADDAY181061AY221061GA1071+014709099GF107991071091012501001001MA1999999099921MD1210031+9999MW1261REMSYN082AAXX  25001 26422 41696 72300 11028 21031 39992 40014 52003 72682 87900 333 87949;
0150264220999992000122503004+56960+024040FM-12+0007UMRR V0203001N001010003019N0005001N1-00301-00321100181ADDAY181031AY241031GA1091+999999999GF109991091999999999999999MD1210041+9999MW1471REMSYN060AAXX  25031 26422 /1/93 93001 11030 21032 40018 52004 74784;
0150264220999992000122509004+56960+024040FM-12+0007UMRR V0202001N002010003019N0002001N1-00441-00471100291ADDAY141031AY241031GA1091+999999999GF109991091999999999999999MD1210081+9999MW1451REMSYN060AAXX  25091 26422 41/92 92002 11044 21047 40029 52008 74544;
0171264220999992000122512004+56960+024040FM-12+0007UMRR V0202101N001010001519N0001001N1-00391-00411100271ADDAY141061AY241061GA1091+999999999GF109991091999999999999999MA1999999100051MD1710021+9999MW1471REMSYN066AAXX  25121 26422 41/91 92101 11039 21041 30005 40027 57002 74744;
0150264220999992000122515004+56960+024040FM-12+0007UMRR V0201701N002010003019N0002001N1-00411-00431100271ADDAY141031AY241031GA1091+999999999GF109991091999999999999999MD1410001+9999MW1451REMSYN060AAXX  25151 26422 41/92 91702 11041 21043 40027 54000 74544;
0203264220999992000122518004+56960+024040FM-12+0007UMRR V0202001N002010003019N0005001N1-00421-00441100281ADDAA199000091AY141061AY241061GA1091+999999999GF109991091999999999999999KA1999M-00391MD1210011+9999MW1451REMSYN070AAXX  25181 26422 31/93 92002 11042 21044 40028 52001 74544 333 11039;EQDQ01  00002PRCP99
0166264220999992000122521004+56960+024040FM-12+0007UMRR V0201201N001010006019N0010001N1-00471-00501100371ADDAY141031AY221031GA1081+000609069GF108991081061000751999999MD1210091+9999MW1101REMSYN076AAXX  25211 26422 41194 81201 11047 21050 40037 52009 71042 886// 333 88702;
0187264220999992000122600004+56960+024040FM-12+0007UMRR V0201801N001010006019N0010001N1-00471-00501100351ADDAY171061AY241061GA1061+000609069GF108991081061000751999999MA1999999100131MD1710021+9999MW1101REMSYN082AAXX  26001 26422 41194 81801 11047 21050 30013 40035 57002 71074 886// 333 86702;
0166264220999992000122603004+56960+024040FM-12+0007UMRR V0201601N001010006019N0010001N1-00501-00531100391ADDAY171031AY221031GA1081+000609069GF108991081061000751999999MD1210041+9999MW1101REMSYN076AAXX  26031 26422 /1194 81601 11050 21053 40039 52004 71072 886// 333 88702;
0231264220999992000122606004+56960+024040FM-12+0007UMRR V0201801N001010018019N0040001N1-00471-00501100471ADDAA112000791AJ100069199999999AY171061AY221061GA1061+001809069GF108991081061001501999999IA1239KA1120N-00511MD1210081+9999MW1101REMSYN094AAXX  26061 26422 11296 81801 11047 21050 40047 52008 69902 71072 886// 333 21051 47006 86706;
0172264220999992000122609004+56960+024040FM-12+0007UMRR V0201601N002010009019N0040001N1-00471-00501100591ADDAY121031AY221031GA1081+000909079GF108991081061000751999999MD1210121+9999MW1101REMSYN082AAXX  26091 26422 41196 81602 11047 21050 40059 52012 71022 886// 333 88703 93597;
0193264220999992000122612004+56960+024040FM-12+0007UMRR V0201201N001010012019N0040001N1-00401-00431100621ADDAY121061AY221061GA1071+001209079GF107991071061001501001001MA1999999100401MD1210031+9999MW1101REMSYN088AAXX  26121 26422 41296 71201 11040 21043 30040 40062 52003 71022 87600 333 87704 93500;
0166264220999992000122615004+56960+024040FM-12+0007UMRR V0201501N002010015019N0040001N1-00471-00531100731ADDAY121031AY221031GA1071+001509069GF107991071061001501001001MD1210101+9999MW1101REMSYN076AAXX  26151 26422 41296 71502 11047 21053 40073 52010 71022 87600 333 87705;
0209264220999992000122618004+56960+024040FM-12+0007UMRR V0201101N002012200019N0040001N1-00591-00651100761ADDAA199000091AY111061AY211061GA1001+999999999GF100991001001999999001001KA1120M-00391MD1210031+9999MW1101REMSYN076AAXX  26181 26422 31996 01102 11059 21065 40076 52003 71011 333 11039 93597;EQDQ01  00002PRCP99
0160264220999992000122621004+56960+024040FM-12+0007UMRR V0201201N003012200019N0040001N1-00651-00851100811ADDAY111031AY211031GA1001+999999999GF100991001001999999001001MD1210051+9999MW1101REMSYN070AAXX  26211 26422 41996 01203 11065 21085 40081 52005 71011 333 93597;
0153264220999992000122700004+56960+024040FM-12+0007UMRR V0201201N004012200019N0100001N1-00761-00961100791ADDGA1001+999999999GF100991001001999999001001MA1999999100561MD1210021+9999REMSYN070AAXX  27001 26422 42997 01204 11076 21096 30056 40079 52002 333 93500;
0152264220999992000122703004+56960+024040FM-12+0007UMRR V0201101N004012200019N0100001N1-00891-01071100751ADDAA199000091GA1001+999999999GF100991001001999999001001MD1710041+9999REMSYN054AAXX  27031 26422 32997 01104 11089 21107 40075 57004;EQDQ01  00002PRCP99
0204264220999992000122706004+56960+024040FM-12+0007UMRR V0201101N005012200019N0100001N1-00941-01181100731ADDAA199000091AJ100069199999999GA1001+999999999GF100991001001999999001001IA1239KA1120N-00941MD1710021+9999REMSYN070AAXX  27061 26422 32997 01105 11094 21118 40073 57002 333 21094 47006;EQDQ01  00002PRCP99
0112264220999992000122709004+56960+024040FM-12+0007UMRR V0201301N005019999999N0100001N1-00831-01171100741ADDGF106991021001999999031011MD1210011+9999REMSYN060AAXX  27091 26422 42997 61305 11083 21117 40074 52001 82031;
0160264220999992000122712004+56960+024040FM-12+0007UMRR V0201201N006019999999N0100001N1-00711-01211100611ADDGF107991021001999999041061MA1999999100381MD1710131+9999OA140101101REMSYN082AAXX  27121 26422 42997 71206 11071 21121 30038 40061 57013 82046 333 91011 91112;
0122264220999992000122715004+56960+024040FM-12+0007UMRR V0201001N006019999999N0100001N1-00771-01111100581ADDGF108991001001999999001091MD1710031+9999REMSYN070AAXX  27151 26422 42997 81006 11077 21111 40058 57003 80009 333 91111;
0193264220999992000122718004+56960+024040FM-12+0007UMRR V0201201N005010081019N0100001N1-00891-01151100621ADDAA199000091GA1081+008109069GF108991081051008001999999KA1120M-00691MD1210041+9999REMSYN082AAXX  27181 26422 32597 81205 11089 21115 40062 52004 885// 333 11069 88627 91111;EQDQ01  00002PRCP99
0107264220999992000122721004+56960+024040FM-12+0007UMRR V0201501N004019999999N0100001N1-00891-01101999999ADDGF108991999999012501999999REMSYN069AAXX  27211 26422 42697 81504 11089 21110 4004 52002 885// 333 88639;
0159264220999992000122800004+56960+024040FM-12+0007UMRR V0201601N004010090019N0100001N1-00831-01041100631ADDGA1081+009009059GF108991081051008001999999MA1999999100401MD1710011+9999REMSYN076AAXX  28001 26422 42597 81604 11083 21104 30040 40063 57001 885// 333 88630;
0168264220999992000122803004+56960+024040FM-12+0007UMRR V0201501N004010096019N0100001N1-00751-00951100611ADDAA199000091GA1081+009609059GF108991081051008001999999MD1710021+9999REMSYN070AAXX  28031 26422 32597 81504 11075 21095 40061 57002 885// 333 88632;EQDQ01  00002PRCP99
0216264220999992000122806004+56960+024040FM-12+0007UMRR V0201401N005010093019N0100001N1-00761-00961100581ADDAA199000091AJ100069199999999GA1081+009309059GF108991081051008001999999IA1239KA1120N-00911MD1710031+9999REMSYN082AAXX  28061 26422 32597 81405 11076 21096 40058 57003 885// 333 21091 47006 88631;EQDQ01  00002PRCP99
0144264220999992000122809004+56960+024040FM-12+0007UMRR V0201401N004010150019N0100001N1-00711-00851100551ADDGA1081+015009069GF108991081051017501999999MD1710031+9999REMSYN076AAXX  28091 26422 42797 81404 11071 21085 40055 57003 885// 333 88650 91110;
0187264220999992000122812004+56960+024040FM-12+0007UMRR V0201501N005010012019N0040001N1-00631-00761100471ADDAY121061AY221061GA1061+001209069GF108991081061001501999999MA1999999100241MD1710081+9999MW1101REMSYN082AAXX  28121 26422 41296 81505 11063 21076 30024 40047 57008 71022 886// 333 86704;
0166264220999992000122815004+56960+024040FM-12+0007UMRR V0201401N005010009019N0040001N1-00621-00721100351ADDAY121031AY221031GA1081+000909069GF108991081061001501999999MD1710121+9999MW1101REMSYN076AAXX  28151 26422 41296 81405 11062 21072 40035 57012 71022 886// 333 88703;
0215264220999992000122818004+56960+024040FM-12+0007UMRR V0201201N004010009019N0040001N1-00641-00741100171ADDAA199000091AY121061AY221061GA1081+000909069GF108991081061001501999999KA1120M-00601MD1710181+9999MW1101REMSYN082AAXX  28181 26422 31296 81204 11064 21074 40017 57018 71022 886// 333 11060 88703;EQDQ01  00002PRCP99
0138264220999992000122821004+56960+024040FM-12+0007UMRR V0201401N004010018019N0100001N1-00681-00841100021ADDGA1061+001809069GF108991081061002501999999MD1710151+9999REMSYN070AAXX  28211 26422 42397 81404 11068 21084 40002 57015 886// 333 86706;
0187264220999992000122900004+56960+024040FM-12+0007UMRR V0201201N005010015019N0100001N1-00831-00971099621ADDAY181061AY221061GA1061+001509069GF108991081091001501999999MA1999999099391MD1710401+9999MW1271REMSYN082AAXX  29001 26422 41297 81205 11083 21097 39939 49962 57040 72782 889// 333 86705;
0166264220999992000122903004+56960+024040FM-12+0007UMRR V0201501N005010021019N0040001N1-00641-00751099381ADDAY181031AY221031GA1071+002109069GF108991081091002501999999MD1710231+9999MW1861REMSYN076AAXX  29031 26422 /1396 81505 11064 21075 49938 57023 78682 889// 333 87707;
0231264220999992000122906004+56960+024040FM-12+0007UMRR V0201401N004010021019N0040001N1-00581-00671099321ADDAA112003091AJ100069199999999AY181061AY271061GA1081+002109029GF108991081001002501021999IA1239KA1120N-00841MD1710061+9999MW1711REMSYN094AAXX  29061 26422 11396 81404 11058 21067 49932 57006 60032 77187 8802/ 333 21084 47006 88507;
0185264220999992000122909004+56960+024040FM-12+0007UMRR V0201401N004010012019N0040001N1-00461-00521099401ADDAY171031AY221031GA1071+001209069GF108991999071001501021999MD1210081+9999MW1701REMSYN076AAXX  29091 26422 41296 81404 11046 21052 49940 52008 77072 8872/ 333 87704;EQDQ01+000082SCOTLC
0187264220999992000122912004+56960+024040FM-12+0007UMRR V0201701N005010003019N0020001N1-00231-00261099461ADDAY171061AY221061GA1081+000309069GF108991081061000751999999MA1999999099241MD1210061+9999MW1101REMSYN082AAXX  29121 26422 41195 81705 11023 21026 39924 49946 52006 71072 886// 333 88701;
0140264220999992000122915004+56960+024040FM-12+0007UMRR V0201901N003012200019N0040001N1-00081-00101099731ADDAY111031AY211031GF103991021001999999031011MD1210271+9999MW1101REMSYN066AAXX  29151 26422 41996 31903 11008 21010 49973 52027 71011 82031;
0190264220999992000122918004+56960+024040FM-12+0007UMRR V0202001N004012200019N0040001N1-00161-00221099941ADDAA112000591AY111061AY211061GA1001+999999999GF100991001001999999001001KA1999M-00061MD1210211+9999MW1101REMSYN076AAXX  29181 26422 11996 02004 11016 21022 49994 52021 69962 71011 333 11006;
0140264220999992000122921004+56960+024040FM-12+0007UMRR V0201901N005019999999N0040001N1-00091-00201100181ADDAY111031AY211031GF107991071001999999031001MD1210241+9999MW1101REMSYN066AAXX  29211 26422 41996 71905 11009 21020 40018 52024 71011 87030;
0171264220999992000123000004+56960+024040FM-12+0007UMRR V0201901N003012200019N0040001N1-00341-00401100311ADDAY111061AY211061GA1001+999999999GF100991001001999999001001MA1999999100091MD1210131+9999MW1101REMSYN066AAXX  30001 26422 41996 01903 11034 21040 30009 40031 52013 71011;
0180264220999992000123003004+56960+024040FM-12+0007UMRR V0201801N004012200019N0040001N1-00471-00531100431ADDAA199000091AY101031AY201031GA1001+999999999GF100991001001999999001001MD1210121+9999MW1101REMSYN060AAXX  30031 26422 31996 01804 11047 21053 40043 52012 71000;EQDQ01  00002PRCP99
0232264220999992000123006004+56960+024040FM-12+0007UMRR V0201701N004012200019N0040001N1-00591-00641100551ADDAA199000091AJ100069199999999AY101061AY201061GA1001+999999999GF100991001001999999001001IA1239KA1120N-00591MD1210111+9999MW1101REMSYN076AAXX  30061 26422 31996 01704 11059 21064 40055 52011 71000 333 21059 47006;EQDQ01  00002PRCP99
0140264220999992000123009004+56960+024040FM-12+0007UMRR V0201501N003019999999N0040001N1-00531-00601100711ADDAY111031AY211031GF107991071001999999031001MD1210161+9999MW1101REMSYN066AAXX  30091 26422 41996 71503 11053 21060 40071 52016 71011 87030;
0161264220999992000123012004+56960+024040FM-12+0007UMRR V0201601N003019999999N0040001N1-00441-00571100741ADDAY111061AY211061GF106991061001999999031001MA1999999100511MD1210031+9999MW1101REMSYN072AAXX  30121 26422 41996 61603 11044 21057 30051 40074 52003 71011 86030;
0140264220999992000123015004+56960+024040FM-12+0007UMRR V0201201N004019999999N0040001N1-00501-00561100711ADDAY121031AY221031GF107991071001999999031001MD1710031+9999MW1101REMSYN066AAXX  30151 26422 41996 71204 11050 21056 40071 57003 71022 87030;
0193264220999992000123018004+56960+024040FM-12+0007UMRR V0201201N004019999999N0040001N1-00401-00501100661ADDAA199000091AY121061AY221061GF108991081001999999031999KA1999M-00401MD1710041+9999MW1101REMSYN076AAXX  30181 26422 31996 81204 11040 21050 40066 57004 71022 8803/ 333 11040;EQDQ01  00002PRCP99
0140264220999992000123021004+56960+024040FM-12+0007UMRR V0201201N004019999999N0040001N1-00291-00411100541ADDAY121031AY221031GF108991081001999999031999MD1710121+9999MW1101REMSYN066AAXX  30211 26422 41996 81204 11029 21041 40054 57012 71022 8803/;
0161264220999992000123100004+56960+024040FM-12+0007UMRR V0201101N004019999999N0040001N1-00201-00321100371ADDAY121061AY221061GF108991081001999999031999MA1999999100151MD1710171+9999MW1101REMSYN072AAXX  31001 26422 41996 81104 11020 21032 30015 40037 57017 71022 8803/;
0197264220999992000123103004+56960+024040FM-12+0007UMRR V0201101N006019999999N0040001N1-00121-00231100231ADDAA199000091AY121031AY221031GF108991081001999999071999MD1710141+9999MW1101OA140101001REMSYN082AAXX  31031 26422 31996 81106 11012 21023 40023 57014 71022 8807/ 333 91010 91111;EQDQ01  00002PRCP99
0267264220999992000123106004+56960+024040FM-12+0007UMRR V0201101N004010018019N0040001N1-00071-00181100121ADDAA199000091AJ100069199999999AY121061AY221061GA1061+001809079GF108991061061002501071999IA1239KA1120N-00501MD1710111+9999MW1101OA140101001REMSYN100AAXX  31061 26422 31396 81104 11007 21018 40012 57011 71022 8667/ 333 21050 47006 86706 91010 91111;EQDQ01  00002PRCP99
0172264220999992000123109004+56960+024040FM-12+0007UMRR V0201101N003010015019N0040001N1-00041-00101100051ADDAY181031AY221031GA1061+001509079GF108991081091001501999999MD1710071+9999MW1861REMSYN082AAXX  31091 26422 41296 81103 11004 21010 40005 57007 78682 889// 333 86705 91110;
0193264220999992000123112004+56960+024040FM-12+0007UMRR V0201101N003010090019N0040001N1+00051+00021099961ADDAY181061AY221061GA1081+009009099GF108991081091008001999999MA1999999099741MD1710091+9999MW1861REMSYN088AAXX  31121 26422 41596 81103 10005 20002 39974 49996 57009 78682 889// 333 88930 91110;
0166264220999992000123115004+56960+024040FM-12+0007UMRR V0201201N003010018019N0040001N1+00091+00071099971ADDAY181031AY221031GA1081+001809069GF108991081061002501999999MD1210011+9999MW1261REMSYN076AAXX  31151 26422 41396 81203 10009 20007 49997 52001 72682 886// 333 88706;
0202264220999992000123118004+56960+024040FM-12+0007UMRR V0201101N002010015019N0040001N1+00101+00091099991ADDAA112002091AY181061AY251061GA1081+001509069GF108991081061001501999999KA1120M+00101MD1210021+9999MW1201REMSYN088AAXX  31181 26422 11296 81102 10010 20009 49999 52002 60022 72085 886// 333 10010 88705;
0166264220999992000123121004+56960+024040FM-12+0007UMRR V0201001N001010015019N0020001N1+00011+00001100031ADDAY181031AY221031GA1061+001509069GF108991081091001501999999MD1210041+9999MW1861REMSYN076AAXX  31211 26422 41295 81001 10001 20000 40003 52004 78682 889// 333 86705;
